BBXX WYR4481 16184 99445 70832 41/98 83220 11017 40260 70222 22283 20303
BBXX ZMFR 16174 99467 31663 43/// /18// 10105 20041 40140 52005 22262 00124
BBXX ZMENA 16174 99385 31784 46/// ///// 10167 20150 40041 54000 22244
BBXX 46218 16181 99345 71208 46/// ///// 1//// 91732 22200 00139 11105 21004 331// 41104 70027
BBXX WZP8164 16184 99477 70876 43/// /3110 11088 2//// 40281 5//// 7//// 8//// 222// 0//// 2//02 3//// 4//// 5//// 6//// 8//// ICE /////
AAXX 16184 40340 32960 03502 10140 20039 40193 52006 333 102050
AAXX 16184 40296 32960 00000 10140 20100 40200 57003 333 10215
AAXX 16184 40255 32960 00000 10104 20076 39488 40213 54000 333 10150
AAXX 16184 40270 32960 0000 10098 20051 39310 40221 52013 333 10146
BBXX 42362 16181 99278 70907 46/// /0000 10250 20189 40227 91745
BBXX 42363 16181 99282 70892 46/// /1003 10228 20161 40231 91745 333 91204
BBXX 42364 16181 99291 70881 46/// /2202 10222 20172 40234 91745
BBXX C6VG7 16184 99206 70868 41595 40618 10250 2//// 40170 57010 7//// 83443 2221/ 0//// 20402 3//// 40402 50402 6//// 8//// ICE /////
BBXX C6DM2 16183 99056 11001 417// 70513 10260 20246 40100 50020 78088 877// 22271 0//// 2//// 3//// 4//// 5//// 6//// 80250 ICE /////
AAXX 16184 08495 12680 72817 10156 20107 30268 40276 57005 60002 875// 91750 333 10158 81630 87640 91025 90710 91128
BBXX 46249 16181 99338 71197 46/// ///// 1//// 91742 22200 00147 10802 20802 326// 41101 70010
BBXX 46248 16181 99461 71247 46/// ///// 1//// 91734 22200 00087 11705 20803 330// 41704 70024
BBXX 46244 16181 99409 71244 46/// ///// 1//// 91735 22200 00098 11005 21004 330// 41702 70023
BBXX 44172 16181 99445 70634 46/// ///// 1//// 91731 22200 00075 10805 20805 314// 41102 70026
BBXX 44097 16181 99410 70711 46/// ///// 1//// 91732 22200 00127 10906 20905 316// 41202 70028
BBXX 46240 16181 99366 71219 46/// ///// 1//// 91742 22200 00122 11103 21002 335// 41102 70013
BBXX 46237 16181 99378 71226 46/// ///// 1//// 91740 22200 00111 11103 20903 326// 41102 70017
BBXX 46217 16181 99342 71194 46/// ///// 1//// 91742 22200 00149 11302 20902 327// 41301 70010
BBXX 46211 16181 99469 71242 46/// ///// 1//// 91736 22200 00084 11703 20902 328// 41702 70016
AAXX 16184 91643 11498 80709 10275 20251 40096 53012 69951 71508 8437/ 333 5629/ 84918 88460
AAXX 16184 91643 11498 80709 10275 20251 40096 53012 69951 71508 8437/ 333 5629/ 84918 88460
AAXX 16184 68392 36/// /1209 10176 20156 30144 4//// 53012 333 10232 20176 91016 555
AAXX 16184 68382 36/// /1004 10184 20149 39404 48575 53011 333 10251 20184 91009 555 91022
BBXX A8YW2 16184 99263 30531 41/98 /0922 10243 20156 40150 58005 70322 8//// 22213 00230 20905 80190
BBXX DCPY2 16184 99097 10673 41/// /2321 10275 20239 40120 52010 71511 8//// 22224 00280 20304 80250
AAXX 16184 61902 12484 11416 10250 20195 40130 69902 81800 333 10282 58012 81818
AAXX 16184 68906 11598 52416 10107 20048 39982 40047 53003 60082 72588 85200 222// 00116 20601 320// 40802 333 10158 20093 91028 555 20088 91004
BBXX 41115 16181 99184 70673 46/// ///// 1//// 91735 22200 11004 21004 336// 41102 70020
BBXX 41012 16181 99300 70805 46/// /3503 10220 40224 58014 91750 22200 00244 11102 309// 41102 70012 333 91204 555 11032 22033 31743 43404 61749 345030 338028 333026 346025 350024 345023
BBXX 44060 16181 99413 70721 46/// ///09 10076 40160 91745 22200 00109 333 91212 555 11103 22108
BBXX 44022 16181 99409 70737 46/// ///08 10073 21040 40192 91745 22200 00093 333 91211 555 11088 22093
BBXX 46114 16181 99364 71222 46/// ///// 1//// 91734 22200 00126 11105 21004 330// 41103 70025
BBXX 46060 16181 99606 71468 46/// /1210 10022 91750 555 11102 22108
BBXX 52200 16181 99134 11448 46/// ///// 1//// 91745 22200 00287 10904 20904 308// 41102 70022
BBXX 51201 16181 99217 71581 46/// ///// 1//// 91742 22200 00243 11305 21002 332// 41304 70024
BBXX 46088 16181 99483 71232 46/// /1303 10071 40309 54000 91750 22200 00080 1//00 70001 333 91203 555 11027 22028 31720 41204 61749 128025 131025 127024 126021 115024 104019
AAXX 16184 78954 12482 60510 10285 20228 30045 40108 60001 70211 84281 333 10302 20223 58014 84818 84080
AAXX 16184 78954 12482 60510 10285 20228 30045 40108 60001 70211 84281 333 10302 20223 58014 84818 84080
AAXX 16184 68994 12598 42407 10084 20006 30081 40110 53037 60012 84500 222// 00065 333 10129 20080 91018 555 20012 91010
AAXX 16184 91376 11474 60710 10264 20236 30078 40081 53003 60021 72582 84801 333 561/9 70038 555 91618
AAXX 16184 91334 32474 60512 10277 20227 30069 40072 55005 82301 333 561/9 70030 555 91618
AAXX 16181 13579 32670 41306 10083 20022 39287 40113 57022 84500 333 10097 84645
AAXX 16184 16597 32570 32510 10142 20091 30101 40188 56011 81101 333 10174 81825 83075 91118 91525
AAXX 16184 91334 32474 60512 10277 20227 30069 40072 55005 82301 333 561/9 70030 555 91618
AAXX 16184 68352 36/// /0710 10221 20013 39111 48562 53012 333 10297 20221 91012 555 91021
AAXX 16184 91376 11474 60710 10264 20236 30078 40081 53003 60021 72582 84801 333 561/9 70038 555 91618
AAXX 16184 78951 12576 52306 10295 20230 30107 40122 60001 83802 333 10302 20259 58015 70030 82822 83078
AAXX 16184 78951 12576 52306 10295 20230 30107 40122 60001 83802 333 10302 20259 58015 70030 82822 83078
BBXX TESTFR9 16184 99498 70039 46/// /2851 10075 29076 49994 52002 22284
AAXX 16174 40250 32960 00000 10084 21023 39403 40215 52007 333 10144
AAXX 16174 40260 32960 03405 10095 21005 39410 40202 52010 333 10166
AAXX 16174 40265 32960 30000 10060 20025 39420 40241 52006 80001 333 10148 83070
BBXX BAREU63 16184 99337 10348 46/// /2411 10178 29062 40190 54000 22213
AAXX 16184 61901 169// /1312 10166 20142 39673 40182 56001 69942 91750 333 10194 8//99 555 7/090
BBXX 32012 16181 99197 50856 46/// ///// 1//// 91750 22200 11204 70019
BBXX 46002 16181 99426 71305 46/// ///// 10113 40312 53004 91750 22200 00120 11604 70022
BBXX 46006 16181 99408 71375 46/// /1706 10131 40268 55000 91750 22200 00126 11505 20502 3//// 41505 70025 333 91208 555 11067 22073 31714 41710 61749 164063 165067 172074 170079 168076 165075
BBXX 46084 16181 99566 71361 46/// /1908 10065 20057 40089 51008 91750 22200 00070 10907 20705 300// 40906 70037 333 91211 555 11082 22087 31654 41415 61749 183078 176081 173089 169084 155106 151116
BBXX 46078 16181 99561 71526 46/// /2111 10048 20005 49928 52004 91750 555 11114 22121
BBXX 46075 16181 99539 71608 46/// /2510 10045 20022 49853 52031 91750 22200 00048 11214 20807 300// 41212 70070 333 91214 555 11111 22118 31744 42614 61749 252102 248104 240097 240101 247101 245097 82511 91739
BBXX 46005 16181 99461 71310 46/// ///08 10104 40262 52003 91750 22200 00101 11506 20703 3//// 41505 70029 333 91209 555 11085 22091
BBXX 46059 16181 99380 71300 46/// /0106 10124 40305 52003 91750 22200 00144 11604 20502 3//// 41604 70022 333 91208 555 11067 22070 31706 40108 61749 012064 012064 012064 007063 006070 005069
BBXX 46080 16181 99580 71500 46/// /1811 10047 20009 49969 57004 91750 22200 00053 11208 20605 3//// 41207 70042 333 91213 555 11113 22120 31738 41814 61749 175107 174106 171106 175102 175099 176097 81812 91739
BBXX 46105 16181 99590 71522 46/// ///// 1//// 91750 22200 11003 70016
BBXX 46070 16181 99551 11753 46/// /0811 10004 21007 49877 57003 91750 22200 00039 11310 20806 3//// 41308 70051 333 91213 555 11112 22118 31652 40914 61749 080106 080109 083109 084109 086112 088116 80912 91651
BBXX 46078 16181 99561 71526 46/// /2111 10048 20005 49928 52004 91750 555 11114 22121
BBXX 41001 16181 99347 70727 46/// ///// 10220 20163 40195 58019 91750 22200 00220 10806 70029
BBXX 41049 16181 99275 70630 46/// /0308 10222 20131 40192 56014 91750 22200 00245 11407 20604 300// 41406 70034 333 91210 555 11087 22091 31737 40311 61749 033083 031086 037084 024089 027086 026086 80310 91652
BBXX 42020 16181 99270 70967 46/// /0209 10191 20172 40218 51012 91750 22200 00238 10604 20604 70021 333 91211 555 11099 22104 31723 40212 61749 016094 015092 017093 012093 016089 016091
BBXX 41044 16181 99217 70587 46/// /3608 10247 20152 40134 56015 91750 22200 00266 11007 20704 300// 41006 70036 333 91210 555 11086 22090 31733 43611 61749 002081 358087 003091 006085 007084 006085 83610 91724
BBXX 41048 16181 99320 70696 46/// /2704 10206 20124 40224 58024 91750 22200 00228 11306 20401 3//// 41305 70028 333 91206 555 11043 22044 31734 42707 61749 270043 280044 283044 290039 274045 280041 82806 91735
BBXX 42065 16181 99149 70750 46/// /0810 10276 20222 91750 22200 10705 20705 70027 333 91212 555 11103 22110 31701 40812 61749 077095 082097 081094 083097 084099 082099 80811 91742
BBXX 42012 16181 99301 70876 46/// /0502 10200 20184 40225 58003 91750 22200 00203 10702 20401 316// 40702 70009 333 91202 555 11020 22020 31734 40402 61749 045019 043020 042017 045016 053017 049017
BBXX 42001 16181 99259 70897 46/// /0604 10238 20189 40225 50000 91750 22200 00260 10603 20401 3//// 40603 70015 333 91205 555 11042 22043 31737 40706 61749 063042 069045 073030 065033 071045 074039
BBXX 42035 16181 99292 70944 46/// /0108 10161 20160 40227 50013 91750 22200 00172 10702 20301 317// 40701 70009 333 91209 555 11081 22085 31712 40109 61749 010076 008078 013076 009079 004074 001071
BBXX 42058 16181 99149 70749 46/// /0911 10274 20215 40121 58014 91750 22200 00279 10905 20704 308// 40903 70026 333 91212 555 11112 22119 31710 40913 61749 088103 089103 089103 089101 090109 088102 81012 91703
BBXX 42060 16181 99163 70635 46/// /0308 10268 20193 40136 58019 91750 22200 00282 11004 20603 300// 41002 70018 333 91209 555 11081 22085 31704 40210 61749 032075 028077 035072 026078 029078 026081 80209 91704
BBXX 41060 16181 99148 70510 46/// ///// 1//// 91750 22200 10903 70017
BBXX 42036 16181 99285 70845 46/// /1302 10216 20178 40224 58004 91750 22200 00221 10501 20401 317// 40501 70007 333 91203 555 11025 22026 31650 41404 61749 128024 127018 141017 138020 143025 140026
BBXX 42056 16181 99198 70849 46/// /0808 10268 20206 40170 58010 91750 22200 00272 10804 20503 310// 40803 70021 333 91209 555 11080 22085 31653 41010 61749 083075 087075 084076 087077 086079 091079 80808 91702
BBXX 42019 16181 99279 70954 46/// /0210 10187 20179 40211 51008 91750 555 11102 22108
BBXX 42059 16181 99151 70675 46/// /0610 10276 20189 40130 58019 91750 22200 00285 10904 20703 3//// 40903 70021 333 91212 555 11101 22107 31728 40712 61749 062096 057100 053096 054098 058097 060099 80611 91742
BBXX 44005 16181 99432 70691 46/// /2813 10089 20021 40076 53023 91750 22200 00088 10707 20707 70035 333 91215 555 11137 22147 31700 42917 61749 278129 278122 281127 281136 282143 280141
BBXX 42040 16181 99292 70882 46/// /3601 10235 40224 58003 91750 22200 00234 10902 20401 316// 40902 70012 333 91202 555 11012 22014 31745 40102 61749 003012 012008 350006 344009 349009 352009
BBXX 42055 16181 99222 70940 46/// /0906 10255 20220 40187 51004 91750 22200 00253 10502 20401 310// 40502 70010 333 91206 555 11059 22063 31704 40807 61749 084055 082054 078058 074060 078062 080061 80807 91651
BBXX 42003 16181 99260 70856 46/// /1504 1//// 91750 22200 10802 20401 313// 40802 70012 333 91205 555 11045 22047 31657 41406 61749 149043 148045 152045 151042 147047 139046 81505 91707
BBXX 42002 16181 99258 70937 46/// /1304 10249 20202 40208 50000 91750 22200 00243 10803 20401 310// 40802 70013 333 91204 555 11036 22038 31651 41205 61749 131035 123037 126039 124042 123042 120043
BBXX 41047 16181 99275 70715 46/// /0605 10226 40225 58020 91750 22200 00253 11007 20501 305// 41006 70033 333 91207 555 11054 22056 31739 40707 61749 062053 068052 074049 057048 052049 064051 80606 91748
BBXX 41043 16181 99211 70650 46/// /0407 10241 20173 40169 58017 91750 22200 00268 11006 20603 300// 41005 70030 333 91210 555 11078 22082 31703 40411 61749 036074 036081 037086 042083 039087 035087 80410 91704
BBXX 41036 16181 99342 70770 46/// ///// 10191 20143 40207 58013 91750 22200 00177 11003 70013
BBXX 44066 16181 99396 70726 46/// /3111 10083 20000 40184 51012 91750 22200 00130 10806 20806 3//// 41301 70032 333 91214 555 11119 22125 31712 43016 61749 306112 306120 311121 312128 314125 308124
BBXX 46001 16181 99563 71480 46/// /2011 10051 40005 54000 91750 22200 00050 11413 20704 300// 41412 70063 333 91215 555 11120 22128 31749 42115 61749 195112 193107 194104 195108 193096 195097
BBXX WSNB 16184 99515 71339 41297 81408 00/// 10101 2010/ 40080 57025 76162 886// 22273 0//// 21002 324// 41203 5//// 6//// 80113 ICE /////
BBXX NWS0022 16184 99416 70714 43/// /2911 10101 21009 40145 5//// 7//// 8//// 222// 04131 2//// 3//// 4//// 5//// 6//// 8//// ICE /////
BBXX WDC6698 16184 99084 71451 43/// /0815 11365 2//// 40120 5//// 7//// 8//// 222// 04255 2//// 3//// 4//// 5//// 6//// 8//// ICE /////
BBXX KEY796 16183 99571 71703 41/97 83316 11028 21044 49821 53/// 785// 8//// 222// 00006 2//// 3//// 4//// 5//// 6//// 8//// ICE /////
AAXX 16184 89009 42561 10707 11317 36794 56007 333 81720
AAXX 16184 78905 11476 70705 10264 20200 30111 40134 69901 71582 86860 333 10273 20221 59024 70056 84816 86638 90950
BBXX 46014 16181 99394 71240 46/// /0403 10092 40263 51009 91750 22200 00102 11005 20301 3//// 41005 70024 333 91203 555 11027 22028 31727 40904 61749 045026 074028 085028 094018 085014 063012
BBXX 46011 16181 99350 71210 46/// /3606 10119 40225 52005 91750 22200 00131 11104 20401 330// 41104 70022 333 91207 555 11065 22068 31737 43508 61749 356062 354060 353058 356057 357054 000056
BBXX 46047 16181 99324 71195 46/// /0106 10147 40193 51006 91750 22200 00148 11204 20402 329// 41204 70021 333 91207 555 11064 22068 31726 43608 61749 009062 011067 011067 017063 013064 013062
BBXX 46086 16181 99325 71180 46/// /0107 10154 40180 51007 91750 22200 00150 11203 20601 329// 41202 70013 333 91208 555 11072 22078 31745 40108 61749 006067 002051 000049 007053 005059 007058
BBXX 46027 16181 99419 71244 46/// /0000 10102 40286 52007 91750 22200 00092 11704 20401 328// 41704 70019 333 91201 555 11003 22004 31720 42802 61749 260003 269003 292009 286003 239002 235003
BBXX 46088 16181 99483 71232 46/// /1303 10071 40309 91750 22200 00080 1//00 70001 333 91203 555 11027 22028 31720 41204 61749 128025 131025 127024 126021 115024 104019
BBXX 46050 16181 99442 71246 46/// /0302 10083 40325 53006 91750 22200 00100 11604 20401 329// 41604 70022 333 91203 555 11024 22024 31716 40403 61749 033022 031023 045023 042024 040019 060019
BBXX 46069 16181 99337 71202 46/// /3505 10134 40210 53012 91750 22200 00137 11104 20401 330// 41104 70021 333 91206 555 11051 22053 31705 43408 61749 347050 352051 351051 344062 338065 344049
BBXX 46013 16181 99382 71233 46/// /0000 10111 40254 51012 91750 22200 00109 11005 20401 3//// 41005 70024 333 91201 555 11002 22003 31700 43602 61749 046002 016006 010010 013013 024014 014015
BBXX 46012 16181 99374 71229 46/// /0104 10109 40249 51010 91750 22200 00111 11104 20401 330// 41104 70022 333 91204 555 11040 22042 31741 43605 61749 008038 007035 009030 011030 004028 010025
BBXX 46087 16181 99485 71247 46/// /1206 10080 20071 40309 54000 91750 555 11067 22071
BBXX 46029 16181 99461 71245 46/// /1703 10089 20075 40322 51004 91750 22200 00085 11604 20401 331// 41604 70020 333 91204 555 11034 22038 31729 41705 61749 171031 173033 168036 164035 159034 162031
BBXX 46028 16181 99357 71219 46/// /3301 10124 40227 52006 91750 22200 00135 11105 20401 330// 41105 70024 333 91201 555 11006 22006 31710 43103 61749 333005 353009 342014 316017 324017 341020
BBXX 46025 16181 99337 71191 46/// /0405 10165 20063 40191 51008 91750 22200 00152 11002 20401 328// 41002 70010 333 91206 555 11060 22068 31651 40307 61749 036054 035055 036056 031056 026058 026059
BBXX 44025 16181 99402 70732 46/// /3010 10077 21030 40185 51013 91750 22200 00118 10604 20603 309// 41201 70018 333 91212 555 11110 22116 31651 43013 61749 296100 295091 304101 300094 298095 306101
BBXX 44014 16181 99366 70748 46/// /0108 1//// 40201 52006 91750 22200 00152 10703 20602 318// 40702 70014 333 91210 555 11083 22083 31708 40111 61749 006083 001088 003091 004092 006091 358092
BBXX 41004 16181 99325 70791 46/// /2706 10200 20151 40223 58015 91750 22200 00218 11002 20301 3//// 41002 70010 333 91207 555 11062 22065 31746 42707 61749 275059 271057 267054 266053 258053 265056
BBXX 44009 16181 99385 70747 46/// /3412 10088 40215 50000 91750 22200 00120 10604 20603 300// 41101 70018 333 91214 555 11123 22130 31742 43314 61749 336116 336108 337104 337114 334114 334107
BBXX 44027 16181 99443 70673 46/// /2812 10086 20030 40030 53021 91750 22200 00088 10805 20805 3//// 41201 70024 333 91215 555 11126 22135 31650 42715 61749 275118 275119 276119 275120 278120 275124
BBXX 44065 16181 99404 70737 46/// /3109 10078 21030 40194 52010 91750 22200 00109 11103 20502 308// 41102 70013 333 91211 555 11092 22096 31719 43114 61749 305089 307095 307096 309103 309096 307096 83112 91719
BBXX 41013 16181 99334 70777 46/// /2506 10197 20153 40210 58016 91750 22200 00202 11102 20401 310// 41102 70011 333 91207 555 11061 22065 31659 42708 61749 253059 249057 256059 262060 270062 267063
BBXX 44040 16181 99410 70736 46/// /3309 10074 21034 40195 91745 22200 10301 70005 333 91211 555 11103 22118
BBXX 44020 16181 99414 70702 46/// /2813 10086 20005 40128 53008 91750 22200 00091 333 91216 555 11136 22145 31744 42816 61749 276125 259117 259121 259126 259131 259124
BBXX OVZV2 16180 99183 70196 41898 50811 10230 20146 40157 54000 70311 80009 22254 20605 336// 41004 5//// 80180
BBXX DCPY2 16184 99097 10673 41/// /2321 10275 20239 40120 52010 71511 8//// 22224 00280 20304 80250
BBXX A8YW2 16184 99263 30531 41/98 /0922 10243 20156 40150 58005 70322 8//// 22213 00230 20905 80190
BBXX A8JX8 16180 99363 11439 41598 63321 10080 20005 40130 53010 7//22 8385/ 22214 20610 33132 40610 50509 80050
BBXX C6YA7 16184 99160 11392 41298 70715 10220 2019/ 40100 56010 70321 87/8/ 22253 0//// 2//// 3//// 4//// 5//// 6//// 80200 ICE /////
BBXX LAYG5 16184 99505 11604 41496 82732 11020 21050 49870 54000 78572 88/// 22253 00033 20808 328// 4//// 5//// 81030
BBXX SHIP 16184 99071 11208 41898 80415 10270 2025/ 40085 57010 70222 81027 22200 00390 20401 3//// 4//// 5//// 6//// 80255 ICE /////
BBXX WCX8882 16184 99324 11342 41498 63024 10090 2//// 40257 52020 70222 862// 22254 00220 2//// 3//// 4//// 5//// 6//// 81050 ICE /////
BBXX LADR4 16184 99269 11575 41898 32313 10240 2023/ 40165 56010 70100 83004 22273 00280 20604 3//// 4//// 5//// 6//// 80230
BBXX ELWR5 16183 99200 71073 41/98 10107 10220 20198 40150 50/// 7//// 8/100 22234 04245 21102 80205
BBXX WSNB 16184 99515 71339 41297 81408 00/// 10101 2010/ 40080 57025
BBXX 46211 16181 99469 71242 46/// ///// 1//// 91736 22200 00084 11703 20902 328// 41702 70016
BBXX 46237 16181 99378 71226 46/// ///// 1//// 91740 22200 00111 11103 20903 326// 41102 70017
BBXX 46240 16181 99366 71219 46/// ///// 1//// 91742 22200 00122 11103 21002 335// 41102 70013
BBXX 46217 16181 99342 71194 46/// ///// 1//// 91742 22200 00149 11302 20902 327// 41301 70010
BBXX 44097 16181 99410 70711 46/// ///// 1//// 91732 22200 00127 10906 20905 316// 41202 70028
BBXX 44172 16181 99445 70634 46/// ///// 1//// 91731 22200 00075 10805 20805 314// 41102 70026
BBXX 46249 16181 99338 71197 46/// ///// 1//// 91742 22200 00147 10802 20802 326// 41101 70010
BBXX 46248 16181 99461 71247 46/// ///// 1//// 91734 22200 00087 11705 20803 330// 41704 70024
BBXX 46244 16181 99409 71244 46/// ///// 1//// 91735 22200 00098 11005 21004 330// 41702 70023
BBXX C6VG7 16184 99206 70868 41595 40618 10250 2//// 40170 57010 7//// 83443 2221/ 0//// 20402 3//// 40402 50402 6//// 8//// ICE /////
BBXX 42364 16181 99291 70881 46/// /2202 10222 20172 40234 91745
BBXX 42362 16181 99278 70907 46/// /0000 10250 20189 40227 91745
BBXX 42363 16181 99282 70892 46/// /1003 10228 20161 40231 91745 333 91204
BBXX WDC6925 16184 99495 70048 41798 82930 10090 20049 40020 52050 72162 86266 22214 00130 20606 330// 41012 5//// 6//// 80070 ICE /////
BBXX WKPN 16184 99342 10223 41/98 02914 10170 2//// 40205 54000 70110 80400 222// 00214 20016 30401 40047 509// 6//// ICE /////
BBXX DFZB2 16183 99073 70836 41598 82616 10262 20236 40133 58000 71586 8733/ 22265 04260 20603 316// 41104 5//// 80243
BBXX ZCDF4 16183 99154 70970 41698 20705 10290 20248 40144 53015 70311 82545 22275 00280 20000 319// 40301 5//// 80260
BBXX 32012 16181 99197 50856 46/// ///// 1//// 91750 22200 11204 70019
BBXX ELZA8 16183 99134 50385 41898 60717 10265 20215 40120 58010 70322 85067 22284 04270 20603 306// 40804 80230
BBXX A8SE8 16184 99256 50737 41498 22308 10190 20124 40160 54000 7//00 822// 22244 00194 29901 322// 40803 80150
BBXX 46080 16181 99580 71500 46/// /1811 10047 20009 49969 57004 91750 22200 00053 11208 20605 3//// 41207 70042 333 91213 555 11113 22120 31738 41814 61749 175107 174106 171106 175102 175099 176097 81812 91739
BBXX 46078 16181 99561 71526 46/// /2111 10048 20005 49928 52004 91750 555 11114 22121
BBXX 46005 16181 99461 71310 46/// ///08 10104 40262 52003 91750 22200 00101 11506 20703 3//// 41505 70029 333 91209 555 11085 22091
BBXX 46059 16181 99380 71300 46/// /0106 10124 40305 52003 91750 22200 00144 11604 20502 3//// 41604 70022 333 91208 555 11067 22070 31706 40108 61749 012064 012064 012064 007063 006070 005069
BBXX 46084 16181 99566 71361 46/// /1908 10065 20057 40089 51008 91750 22200 00070 10907 20705 300// 40906 70037 333 91211 555 11082 22087 31654 41415 61749 183078 176081 173089 169084 155106 151116
BBXX 46075 16181 99539 71608 46/// /2510 10045 20022 49853 52031 91750 22200 00048 11214 20807 300// 41212 70070 333 91214 555 11111 22118 31744 42614 61749 252102 248104 240097 240101 247101 245097 82511 91739
BBXX 46006 16181 99408 71375 46/// /1706 10131 40268 55000 91750 22200 00126 11505 20502 3//// 41505 70025 333 91208 555 11067 22073 31714 41710 61749 164063 165067 172074 170079 168076 165075
BBXX 46002 16181 99426 71305 46/// ///// 10113 40312 53004 91750 22200 00120 11604 70022
BBXX 46088 16181 99483 71232 46/// /1303 10071 40309 54000 91750 22200 00080 1//00 70001 333 91203 555 11027 22028 31720 41204 61749 128025 131025 127024 126021 115024 104019
BBXX 44022 16181 99409 70737 46/// ///08 10073 21040 40192 91745 22200 00093 333 91211 555 11088 22093
BBXX 44060 16181 99413 70721 46/// ///09 10076 40160 91745 22200 00109 333 91212 555 11103 22108
BBXX 41012 16181 99300 70805 46/// /3503 10220 40224 58014 91750 22200 00244 11102 309// 41102 70012 333 91204 555 11032 22033 31743 43404 61749 345030 338028 333026 346025 350024 345023
BBXX 41115 16181 99184 70673 46/// ///// 1//// 91735 22200 11004 21004 336// 41102 70020
BBXX 46060 16181 99606 71468 46/// /1210 10022 91750 555 11102 22108
BBXX 46114 16181 99364 71222 46/// ///// 1//// 91734 22200 00126 11105 21004 330// 41103 70025
BBXX PGQI 16183 99240 70529 41/97 62824 10231 20190 40065 56012 76022 84460 22263 20503 399// 40906 80203
BBXX 3FSB4 16184 99384 71487 434// 83412 10150 2012/ 40200 52010 7//// 887// 22224 0//// 20402 3//// 40303 5//// 6//// 80130 ICE /////
BBXX A8CC4 16184 99183 70823 41698 40519 10278 20210 40172 54000 70211 82565 22274 00260 20302 307// 40703 80230
BBXX A8AJ4 16184 99532 71464 41198 61821 10050 20028 40060 54000 70321 85791 22273 04055 20904 32719 41209 50904 6//// 80040 ICE /////
BBXX KRGB 16184 99400 71365 41/97 81817 10144 2012/ 40270 54000 7//22 88/// 22214 00122 21204 329// 41505 5//// 6//// 80133 ICE /////
BBXX LEQZ3 16183 99534 71474 41296 82024 10060 2004/ 40060 50010 78165 88743 22272 00120 80050
BBXX C6FY8 16184 99545 71629 41696 82322 10030 2001/ 49860 51030 70222 8874/ 22252 00050 20204 32523 40408 50408 6//// 80020 ICE /////
BBXX WSLH 16184 99291 71449 41498 71810 10200 2017/ 40285 51006 71522 8723/ 22255 00160 21201 332// 41505 5//// 6//// 80180 ICE /////
BBXX WCX8812 16184 99410 71437 41695 81939 10150 2014/ 40130 54000 75252 8862/ 22224 00150 20410 31829 40910 5//// 6//// 80145 ICE /////
BBXX KIYI 16184 99546 71376 41498 82512 10063 2004/ 40105 54000 7//22 886// 22275 0//// 20102 3//// 4//// 5//// 6//// 80050 ICE /////
BBXX WDE9193 16183 99191 70755 41898 20924 10280 2019/ 40140 57015 70200 81809 22212 0//// 20402 307// 41005 5//// 6//// 80220 ICE /////
BBXX WSRH 16184 99464 71289 41395 82113 10122 2008/ 40270 52000 74344 88/// 22215 00100 20402 318// 40502 5//// 6//// 80100 ICE /////
BBXX ZCBH7 16184 99177 31178 41297 32415 10292 20280 40080 56032 70322 8/272 22243 04301 20202 324// 40202 5//// 80283
AAXX 16184 08594 32465 40714 10246 20160 40138 82530 333 10270 59012 82614 83359
AAXX 16184 08589 31459 10714 10257 20152 40131 70600 81200 333 10276 59009 81617
AAXX 16184 08583 31458 20517 10250 20168 40150 70600 82130 333 10271 59010 82819
AAXX 16181 76040 32960 43204 10131 20066 30169 40183 52011 84300 91745 333 10178 20078 30/// 56300 59039 84377 98660
AAXX 16181 76055 32880 33211 10166 21001 30138 40157 52007 83030 91740 333 10187 20062 30/// 56060 59045 83357
AAXX 16181 76061 32981 00402 10128 20075 30100 40176 52010 91740 333 10130 20070 30/// 59054
AAXX 16181 76122 32970 11404 10082 21003 38566 40241 52011 81030 91750 333 10086 21010 30/// 56090 58016
AAXX 16181 76256 32980 00000 10158 20070 30165 40179 52013 91745 333 10163 20043 30/// 59025
AAXX 16181 76258 32970 01104 10192 20071 30119 40165 52006 91750 333 10196 20044 30/// 59015
AAXX 16181 76323 32970 73601 10095 20007 38305 40299 52015 82038 91755 333 10100 20003 30/// 56055 58048 82358
AAXX 16181 76342 31460 80602 10106 20088 39577 40302 52018 70222 887// 91750 333 10134 20102 30/// 561// 58085 88710
AAXX 16181 76390 31950 03505 10141 20098 38263 40204 52009 70544 91730 333 10154 20070 30/// 58034
AAXX 16181 76423 32984 31401 10190 20038 38164 40193 57001 80004 91748 333 10216 20028 30/// 56009 58016 82067 81267
AAXX 16181 76471 32980 02105 10191 20029 37705 40155 52002 91750 333 10195 20040 30/// 58010
AAXX 16181 76491 32560 83602 10192 20171 39844 40237 52012 885// 91750 333 10203 20145 30/// 569// 58071 88630
AAXX 16181 76499 32457 83403 10210 20183 30186 40208 52016 886// 91740 333 10220 20182 30/// 568// 58085 88715
AAXX 16181 76525 32980 11605 10143 20016 37489 40148 52005 80001 91740 333 10143 20092 30/// 56//5 58011 81080
AAXX 16181 76539 31962 01501 10172 20093 38186 40218 52001 70544 91745 333 10192 20050 30/// 58020
AAXX 16181 76543 31570 43604 10283 20213 30176 40209 51007 70544 82130 91740 333 10283 20201 30/// 56330 58045 82834
AAXX 16181 76548 32470 70803 10252 20215 30196 40206 50008 83230 91740 333 10255 20220 31/// 56250 58046 83815 84357
AAXX 16181 76556 32970 10401 10256 20121 39124 40156 50007 80001 91732 333 10263 20123 30/// 56004 59005 81070
AAXX 16181 76571 31970 30000 10200 20017 38184 40207 56002 705// 80004 91750 333 10240 20050 30/// 56005 58010
AAXX 16181 76577 32570 22303 10202 20154 38059 40179 58002 81405 91740 333 10208 20088 30/// 56105 58007 81624
AAXX 16181 76581 32970 60502 10224 20153 39066 40169 57003 86020 91750 333 10234 20154 30/// 56020 58031 86460
AAXX 16181 76585 31670 30901 10251 20204 30035 40191 50005 70544 83200 91735 333 10255 20190 30/// 568// 58047 83833
AAXX 16181 76625 32950 03604 10222 20053 38156 40142 50003 91740 333 10222 20110 30/// 58009
AAXX 16181 76632 31957 01502 10180 20050 37652 40145 54000 70500 91740 333 10185 20090 30/// 58009
AAXX 16181 76634 31970 03103 10200 20031 37871 40207 57005 70500 91745 333 10202 20062 30/// 56/// 58018
AAXX 16181 76658 31558 23202 10287 20139 39642 40149 57006 70540 81101 91746 333 10291 20171 30/// 56101 58006 81822 94002 98904
AAXX 16181 76662 32970 43001 10252 20049 38487 40184 57009 82106 91745 333 10254 20058 30/// 58015
AAXX 16181 76665 32962 01802 10223 20104 38134 40167 57005 91755 333 10234 20080 30/// 58007
AAXX 16181 76681 31950 00501 10200 20080 37793 40178 57005 70500 91745 333 10200 20040 30/// 58018
AAXX 16181 76683 32670 10601 10214 20061 37842 40222 56010 81100 91745 333 10220 20032 30/// 56200 58014 81840
AAXX 16181 76685 31950 02101 10216 20034 37881 40168 57003 70544 91745 333 10218 20055 30/// 58012
AAXX 16181 76687 31560 61601 10192 20131 38715 40222 52010 70211 86500 91737 333 10205 20095 30/// 563// 58031 86622
AAXX 16181 76692 31556 83602 10250 20204 30165 40184 50008 70342 8552/ 91745 333 10271 20216 30/// 5611/ 58026 81820 84530 83456
AAXX 16181 76698 32560 40601 10288 20227 30173 40184 57004 82210 91750 333 10305 20188 30/// 5610/ 58020 82820
AAXX 16181 76737 31480 30201 10212 20148 38805 40202 50006 70300 83200 91735 333 10223 20092 30/// 56200 58029 83813 91105 91516
AAXX 16181 76750 32560 60603 10296 20218 30162 40172 57005 81112 91750 333 10308 20195 30/// 56116 58017 81820 84270
AAXX 16181 76762 32504 13201 10282 20230 38768 40200 54000 81200 91740 333 10283 20124 30/// 56100 58015 81830
AAXX 16181 76773 31968 00301 10246 20070 38435 40186 57010 7054/ 91745 333 10252 20055 30/// 58006
AAXX 16181 76775 31965 00701 10262 20083 38532 40174 57002 70200 91740 333 10310 20102 30/// 58007
AAXX 16181 76833 32970 03603 10322 20279 30128 40130 57006 91745 333 10322 20232 30/// 58012 92001
AAXX 16181 76840 32550 10304 10324 20210 30071 40126 57003 81200 91740 333 10338 20215 30/// 56800 58014 81827
AAXX 16181 76843 32565 50000 10271 20186 39505 40147 57005 84201 91742 333 10279 20192 30/// 569/9 58018 84827
AAXX 16181 76845 32460 60702 10188 20144 37960 40190 56008 86400 91750 333 10208 20077 30/// 56200 58016 84620 82717
AAXX 16181 76903 31680 32201 10304 20228 39999 40129 58010 70122 83200 91755 333 10348 20224 30/// 56100 58018 83833
AAXX 16181 76160 32962 01401 10136 20081 39915 40170 52007 91730 333 10136 20040 30/// 59029
AAXX 16181 76243 32372 83504 10122 20086 39978 40279 52019 886// 91740 333 10126 20102 30/// 568// 58093 88714
AAXX 16181 76405 32880 42201 10205 20139 30156 40176 50008 84030 91750 333 10205 20112 30/// 56050 59015 84357
AAXX 16181 76412 31966 32201 10184 20135 30125 40170 57012 70544 83050 91750 333 10190 20095 30/// 56050 59025 83357
AAXX 16181 76640 31458 70902 10262 20236 30198 40209 52010 70222 8372/ 91740 333 10276 20212 31/// 5619/ 58044 83715 84440
AAXX 16181 76647 32570 70903 10288 20207 30163 40193 58002 8423/ 91750 333 10292 20187 30/// 562// 58020 84833 83358
AAXX 16181 76741 31470 50503 10266 20245 30144 40162 52009 70544 83230 91730 333 10273 20230 30/// 5611/ 58026 83814
AAXX 16181 76743 31457 70501 10278 20240 30155 40163 57001 70211 8725/ 91745 333 10300 20215 30/// 5620/ 86815 81356
AAXX 16181 76855 32580 31801 10308 20234 30074 40123 50005 82230 91740 333 10314 20210 30/// 56990 58013 82820 92000
AAXX 16184 89009 42561 10707 11317 36794 56007 333 81720
AAXX 16184 78905 11476 70705 10264 20200 30111 40134 69901 71582 86860 333 10273 20221 59024 70056 84816 86638 90950
AAXX 16184 40250 32960 00000 10084 21023 39403 40215 52007 333 10144
AAXX 16184 40260 32960 03405 10095 21005 39410 40202 52010 333 10166
AAXX 16184 40265 32960 30000 10060 20025 39420 40241 52006 80001 333 10148 83070
AAXX 16181 76040 32960 43204 10131 20066 30169 40183 52011 84300 91745333 10178 20078 30/// 56300 59039 84377 98660
AAXX 16181 76055 32880 33211 10166 21001 30138 40157 52007 83030 91740333 10187 20062 30/// 56060 59045 83357
AAXX 16181 76061 32981 00402 10128 20075 30100 40176 52010 91740 33310130 20070 30/// 59054
AAXX 16181 76122 32970 11404 10082 21003 38566 40241 52011 81030 91750333 10086 21010 30/// 56090 58016
AAXX 16181 76256 32980 00000 10158 20070 30165 40179 52013 91745 33310163 20043 30/// 59025
AAXX 16181 76258 32970 01104 10192 20071 30119 40165 52006 91750 33310196 20044 30/// 59015
AAXX 16181 76323 32970 73601 10095 20007 38305 40299 52015 82038 91755333 10100 20003 30/// 56055 58048 82358
AAXX 16181 76342 31460 80602 10106 20088 39577 40302 52018 70222 887//91750 333 10134 20102 30/// 561// 58085 88710
AAXX 16181 76390 31950 03505 10141 20098 38263 40204 52009 70544 91730333 10154 20070 30/// 58034
AAXX 16181 76423 32984 31401 10190 20038 38164 40193 57001 80004 91748333 10216 20028 30/// 56009 58016 82067 81267
AAXX 16181 76471 32980 02105 10191 20029 37705 40155 52002 91750 33310195 20040 30/// 58010
AAXX 16181 76491 32560 83602 10192 20171 39844 40237 52012 885// 91750333 10203 20145 30/// 569// 58071 88630
AAXX 16181 76499 32457 83403 10210 20183 30186 40208 52016 886// 91740333 10220 20182 30/// 568// 58085 88715
AAXX 16181 76525 32980 11605 10143 20016 37489 40148 52005 80001 91740333 10143 20092 30/// 56//5 58011 81080
AAXX 16181 76539 31962 01501 10172 20093 38186 40218 52001 70544 91745333 10192 20050 30/// 58020
AAXX 16181 76543 31570 43604 10283 20213 30176 40209 51007 70544 8213091740 333 10283 20201 30/// 56330 58045 82834
AAXX 16181 76548 32470 70803 10252 20215 30196 40206 50008 83230 91740333 10255 20220 31/// 56250 58046 83815 84357
AAXX 16181 76556 32970 10401 10256 20121 39124 40156 50007 80001 91732333 10263 20123 30/// 56004 59005 81070
AAXX 16181 76571 31970 30000 10200 20017 38184 40207 56002 705// 8000491750 333 10240 20050 30/// 56005 58010
AAXX 16181 76577 32570 22303 10202 20154 38059 40179 58002 81405 91740333 10208 20088 30/// 56105 58007 81624
AAXX 16181 76581 32970 60502 10224 20153 39066 40169 57003 86020 91750333 10234 20154 30/// 56020 58031 86460
AAXX 16181 76585 31670 30901 10251 20204 30035 40191 50005 70544 8320091735 333 10255 20190 30/// 568// 58047 83833
AAXX 16181 76625 32950 03604 10222 20053 38156 40142 50003 91740 33310222 20110 30/// 58009
AAXX 16181 76632 31957 01502 10180 20050 37652 40145 54000 70500 91740333 10185 20090 30/// 58009
AAXX 16181 76634 31970 03103 10200 20031 37871 40207 57005 70500 91745333 10202 20062 30/// 56/// 58018
AAXX 16181 76658 31558 23202 10287 20139 39642 40149 57006 70540 8110191746 333 10291 20171 30/// 56101 58006 81822 94002 98904
AAXX 16181 76662 32970 43001 10252 20049 38487 40184 57009 82106 91745333 10254 20058 30/// 58015
AAXX 16181 76665 32962 01802 10223 20104 38134 40167 57005 91755 33310234 20080 30/// 58007
AAXX 16181 76681 31950 00501 10200 20080 37793 40178 57005 70500 91745333 10200 20040 30/// 58018
AAXX 16181 76683 32670 10601 10214 20061 37842 40222 56010 81100 91745333 10220 20032 30/// 56200 58014 81840
AAXX 16181 76685 31950 02101 10216 20034 37881 40168 57003 70544 91745333 10218 20055 30/// 58012
AAXX 16181 76687 31560 61601 10192 20131 38715 40222 52010 70211 8650091737 333 10205 20095 30/// 563// 58031 86622
AAXX 16181 76692 31556 83602 10250 20204 30165 40184 50008 70342 8552/91745 333 10271 20216 30/// 5611/ 58026 81820 84530 83456
AAXX 16181 76698 32560 40601 10288 20227 30173 40184 57004 82210 91750333 10305 20188 30/// 5610/ 58020 82820
AAXX 16181 76737 31480 30201 10212 20148 38805 40202 50006 70300 8320091735 333 10223 20092 30/// 56200 58029 83813 91105 91516
AAXX 16181 76750 32560 60603 10296 20218 30162 40172 57005 81112 91750333 10308 20195 30/// 56116 58017 81820 84270
AAXX 16181 76762 32504 13201 10282 20230 38768 40200 54000 81200 91740333 10283 20124 30/// 56100 58015 81830
AAXX 16181 76773 31968 00301 10246 20070 38435 40186 57010 7054/ 91745333 10252 20055 30/// 58006
AAXX 16181 76775 31965 00701 10262 20083 38532 40174 57002 70200 91740333 10310 20102 30/// 58007
AAXX 16181 76833 32970 03603 10322 20279 30128 40130 57006 91745 33310322 20232 30/// 58012 92001
AAXX 16181 76840 32550 10304 10324 20210 30071 40126 57003 81200 91740333 10338 20215 30/// 56800 58014 81827
AAXX 16181 76843 32565 50000 10271 20186 39505 40147 57005 84201 91742333 10279 20192 30/// 569/9 58018 84827
AAXX 16181 76845 32460 60702 10188 20144 37960 40190 56008 86400 91750333 10208 20077 30/// 56200 58016 84620 82717
AAXX 16181 76903 31680 32201 10304 20228 39999 40129 58010 70122 8320091755 333 10348 20224 30/// 56100 58018 83833
AAXX 16181 76160 32962 01401 10136 20081 39915 40170 52007 91730 33310136 20040 30/// 59029
AAXX 16181 76243 32372 83504 10122 20086 39978 40279 52019 886// 91740333 10126 20102 30/// 568// 58093 88714
AAXX 16181 76405 32880 42201 10205 20139 30156 40176 50008 84030 91750333 10205 20112 30/// 56050 59015 84357
AAXX 16181 76412 31966 32201 10184 20135 30125 40170 57012 70544 8305091750 333 10190 20095 30/// 56050 59025 83357
AAXX 16181 76640 31458 70902 10262 20236 30198 40209 52010 70222 8372/91740 333 10276 20212 31/// 5619/ 58044 83715 84440
AAXX 16181 76647 32570 70903 10288 20207 30163 40193 58002 8423/ 91750333 10292 20187 30/// 562// 58020 84833 83358
AAXX 16181 76741 31470 50503 10266 20245 30144 40162 52009 70544 8323091730 333 10273 20230 30/// 5611/ 58026 83814
AAXX 16181 76743 31457 70501 10278 20240 30155 40163 57001 70211 8725/91745 333 10300 20215 30/// 5620/ 86815 81356
AAXX 16181 76855 32580 31801 10308 20234 30074 40123 50005 82230 91740333 10314 20210 30/// 56990 58013 82820 92000
AAXX 16184 78062 12569 31009 10253 20171 40213 60001 83200 333 59003 83825 90908
AAXX 16184 78062 12569 31009 10253 20171 40213 60001 83200 333 59003 83825 90908
BBXX 3FSB4 16184 99384 71487 434// 83412 10150 20120 40200 52010 7//// 887// 22224 0//// 20402 3//// 40303 5//// 6//// 80130 ICE /////
BBXX 46002 16181 99426 71305 46/// ///// 10113 40312 53004 91750 22200 00120 11604 70022
BBXX 46005 16181 99461 71310 46/// ///08 10104 40262 52003 91750 22200 00101 11506 20703 3//// 41505 70029 333 91209 555 11085 22091
BBXX 46006 16181 99408 71375 46/// /1706 10131 40268 55000 91750 22200 00126 11505 20502 3//// 41505 70025 333 91208 555 11067 22073 31714 41710 61749 164063 165067 172074 170079 168076 165075
BBXX 46013 16181 99382 71233 46/// /0000 10111 40254 51012 91750 22200 00109 11005 20401 3//// 41005 70024 333 91201 555 11002 22003 31700 43602 61749 046002 016006 010010 013013 024014 014015
BBXX 46014 16181 99394 71240 46/// /0403 10092 40263 51009 91750 22200 00102 11005 20301 3//// 41005 70024 333 91203 555 11027 22028 31727 40904 61749 045026 074028 085028 094018 085014 063012
BBXX 46029 16181 99461 71245 46/// /1703 10089 20075 40322 51004 91750 22200 00085 11604 20401 331// 41604 70020 333 91204 555 11034 22038 31729 41705 61749 171031 173033 168036 164035 159034 162031
BBXX 46050 16181 99442 71246 46/// /0302 10083 40325 53006 91750 22200 00100 11604 20401 329// 41604 70022 333 91203 555 11024 22024 31716 40403 61749 033022 031023 045023 042024 040019 060019
BBXX A8AJ4 16184 99532 71464 41198 61821 10050 20028 40060 54000 70321 85791 22273 04055 20904 32719 41209 50904 6//// 80040 ICE /////
BBXX WSNB 16184 99515 71339 41297 81408 00/// 10101 20100 40080 57025 76162 886// 22273 0//// 21002 324// 41203 5//// 6//// 80113 ICE /////
BBXX WSRH 16184 99464 71289 41395 82113 10122 20080 40270 52000 74344 88/// 22215 00100 20402 318// 40502 5//// 6//// 80100 ICE /////
AAXX 16184 81405 01570 40712 10306 20240 30080 40089 60011 70186 83831 333 60007 58005 83826 83080 555 60005
BBXX BAREU05 16184 99422 70320 46/// ///// 40232 57006 22263
BBXX BAREU60 16184 99441 10152 46/// ///// 49979 22200
BBXX BAREU54 16184 99096 70800 46/// ///// 40109 57008 22223
BBXX BAREU08 16184 99348 70388 46/// ///// 40223 52013 22224
BBXX BAREU11 16184 99111 70753 46/// ///// 40100 57025 22283
AAXX 16184 81405 01570 40712 10306 20240 30080 40089 60011 70186 83831 333 60007 58005 83826 83080 555 60005
AAXX 16184 78384 12560 30714 10282 20200 40162 60001 81102 333 10291 20249 58007 70000 81825 83078
AAXX 16184 78383 12560 11014 10284 20212 40163 60001 81101 333 10288 20243 58007 70000 81820
AAXX 16184 85864 12680 22508 10258 20098 40130 50003 60001 82100 333 56600 82840
AAXX 16184 85874 12680 23121 10232 20075 39519 40111 53004 82201 333 56600 82840 82070
AAXX 16184 85886 12670 12722 10272 20178 40102 52015 60001 81200 333 56600 81843
AAXX 16184 85892 12680 32022 10256 20068 40089 57012 60001 83200 333 56600 83840
AAXX 16184 85934 12580 71610 10142 20089 40080 52019 60001 83530 333 56440 83620 87358
AAXX 16184 85968 12660 70612 10142 20108 40042 52031 60001 87500 333 56200 87640 87266
AAXX 16184 85574 11958 02117 10224 20117 39604 40142 57008 60001 70500
AAXX 16184 85585 12598 41715 10189 20098 40209 54000 60001 84100 333 56400 84830
AAXX 16184 85629 12565 72204 10241 20138 40156 54002 60001 87500 333 56500 82830 87640
AAXX 16184 85672 12570 52102 10237 20151 40162 53001 60001 85500 333 56600 85620
AAXX 16184 85682 12460 70113 10182 20138 40172 51004 60001 87500 333 56800 87617
AAXX 16184 85743 12560 42307 10259 20161 40151 56020 60001 81101 333 56606 81830 83070
AAXX 16184 85782 12965 09907 10246 20153 40164 57012 60001
AAXX 16184 85799 12960 01308 10209 20150 40176 58006 60001
AAXX 16184 85406 12980 02113 10232 20141 40142 57005 60001
AAXX 16184 85418 12970 02318 10234 20145 40146 57006 60001
AAXX 16184 85442 12575 11814 10210 20126 40144 57006 60001 81500 333 56400 81625
AAXX 16184 85467 12960 02613 10233 20102 40157 56021 60001
AAXX 16184 85469 42465 42105 10246 20199 40217 52005 84200 333 56600 84815
AAXX 16184 85488 12568 62708 10191 20122 40174 56011 60001 86500 333 56000 86630
AAXX 16184 91408 11474 80000 10263 20249 30034 40072 57015 69981 70282 83978 333 56999 70038 555 91618
AAXX 16181 33815 11996 72502 10055 20049 39822 40028 53002 69972 71082 87030 333 10086 555 80012
AAXX 16184 91408 11474 80000 10263 20249 30034 40072 57015 69981 70282 83978 333 56999 70038 555 91618
BBXX BATFR32 16184 99427 10095 46/// /2414 10173 20090 49958 5//// 7//// 8//// 2229/ 00172
BBXX A8BZ6 16184 99389 70484 41/98 /0220 10180 40170 57010 70322 8//// 22264 04180 2//// 301// 40510
BBXX C6OM8 16180 99052 50333 41497 31409 10272 20225 40109 56010 70211 832// 22243 06272 20403 314// 40403 5//// 80240
AAXX 16184 91772 11498 60506 10260 20246 4//// 60031 70288 868// 333 561// 82817 86640
AAXX 16184 91776 31498 20908 1//// 2//// 4//// 60001 70200 82200 333 562// 82818
AAXX 16184 91779 31498 60806 10264 20235 40143 53010 60001 70222 84701 333 561/9 81709 84817 86079
AAXX 16184 91784 NIL
AAXX 16184 91792 31498 40404 10248 20242 40169 53010 60001 70200 81701 333 561/9 81710 84078
AAXX 16184 78583 32575 60807 10279 20224 40167 83202 333 01205 58016 83823 86076
AAXX 16184 85703 12960 01808 10276 20141 40141 57006 60001
AAXX 16184 78925 11575 70509 10280 20236 40123 58015 60021 70186 878// 333 10295 20199 58020 84820 84650
AAXX 16184 78925 11575 70509 10280 20236 40123 58015 60021 70186 878// 333 10295 20199 58020 84820 84650
AAXX 16184 48698 01464 70104 10250 20242 30071 40090 60001 71022 81132 333 60007 81816 83365 86080
AAXX 16184 78700 32578 40404 10316 20206 30129 40134 58020 81104 333 10316 20230 30/// 56100 59001 81830 83075
AAXX 16184 78703 31566 51406 10283 20228 30160 40162 58008 70544 82131 333 10283 20222 30/// 56200 58013 82820
AAXX 16184 78704 11570 50906 10283 20225 30138 40143 57011 60011 70565 83231 333 10286 20209 30/// 56200 59017 83824 83358
AAXX 16184 78705 31570 60510 10283 20211 30141 40159 58010 70544 83230 333 10289 20211 31/// 56200 58011 83824 85358
AAXX 16184 78706 31570 50000 10287 20245 30140 40145 57010 70544 85200 333 10287 20190 30/// 56200 59014 85824
AAXX 16184 78707 31560 63605 10268 20178 39405 40160 70544 84270 333 10272 20148 30/// 56220 58005 84825 86358
AAXX 16184 78708 31560 70307 10283 20244 30129 40159 58012 70544 83160 333 10283 20222 30/// 56800 58007 83824 86358
AAXX 16184 78711 11570 70208 10285 20230 30133 40148 58011 70565 83258 333 10285 20225 31/// 56100 58021 83826 87275
AAXX 16184 78714 32570 71203 10251 20181 84230 333 10251 20174 30/// 56220 84828 87358
AAXX 16184 78717 31562 60203 10226 20174 38975 40150 55003 70241 85162 333 10226 20168 31/// 56800 58010 85822
AAXX 16184 78718 31660 53410 10274 70544 82431 333 10276 20194 30/// 56800 82840 83075
AAXX 16184 78719 32570 70512 10201 20133 38367 40135 56005 83105 333 10201 20134 30/// 56100 58011 83824 87070
AAXX 16184 78720 31560 63612 10252 20166 39047 40121 56011 70544 85231 333 10252 20167 30/// 56800 58013 85828
AAXX 16184 78724 32578 70314 10324 20191 30050 40107 56022 82156 333 10324 20238 30/// 56110 59005 82834 83357 87075
AAXX 16184 78947 11570 70507 10261 20255 30117 40120 60031 72522 879// 333 06299 10296 20210 58015 70028 81918 86820 90910
AAXX 16184 48698 01464 70104 10250 20242 30071 40090 60001 71022 81132 333 60007 81816 83365 86080
BBXX BAREU06 16184 99482 70695 46/// ///// 40052 52065 22253
AAXX 16184 41170 41958 09902 10170 20129 30166 40179 70500 333 10235 59028
BBXX BATFR16 16184 99495 70001 46/// /3131 10089 21003 49971 22273 00120
BBXX BATFR04 16184 99597 70110 46/// /3521 10050 21012 49989 51022 22200 00102
BBXX A8SF8 16184 99201 70647 41298 50517 10270 20181 40175 50010 70300 83745 22264 04270 20905 336// 41204 80210
BBXX BATFR09 16184 99379 70096 44497 62926 10172 20139 40272 58007 70311 85620 22283 00179 20304 328// 40606 5////
BBXX BATFR08 16184 99486 30711 46/// /2008 10037 20007 40185 51011 22213 00047
BBXX DBBT 16181 99431 50025 46/// /2909 10088 2046/ 49964 57015 22201 00104
BBXX BATEU06 16184 99558 70239 46/// /3033 10064 20012 40165 52032 22264 00100
BBXX DBJM 16181 99542 10083 46/// /3615 10045 20029 49788 52046 22201 00062
BBXX BATFR56 16184 99177 30608 46/// /1310 10259 20224 40110 51007 22252 00279
BBXX BATEU01 16184 99487 70628 44597 72913 10034 20024 49915 55001 70222 84365 22234 00030 21002 318// 41002 5////
BBXX BATFR11 16184 99323 10287 46/// /2814 10182 20129 40202 53006 22223 00202
BBXX BATEU04 16184 99603 70070 46/// /3419 10037 21013 49965 51015 22223
BBXX BATFR22 16184 99428 10095 46/// /2546 10172 49951 22284 00177
BBXX DBKV 16181 99172 70219 46/// /0709 10239 20551 40143 57005 22261 00244
BBXX BATFR05 16184 99063 10034 46/// /1811 10285 20202 40099 53009 22200 00259
BBXX FVNM 16184 99061 70925 46/// /2117 10240 20230 40119 58003 22222 00264
BBXX BATFR02 16184 99503 70007 46/// /2837 10075 20000 49961 51028 22284 00130
BBXX DBEA 16181 99540 10082 46/// /0116 10046 20027 49782 52043 22260 00064
BBXX DBBU 16181 99546 10132 46/// /0815 10023 20020 49719 57034 22210 00066
BBXX DBFR 16181 99538 10089 46/// /3615 10041 20439 49759 52032 22252 00042
AAXX 16181 10004 NIL
AAXX 16181 10015 11465 73611 10050 20025 39793 49803 51050 69912 70262 878// 222// 02065 333 10054 20043 31004 55300 20000 30000 83815 86645 91118 91215
AAXX 16181 10020 17356 70112 10027 20022 39770 49802 53028 69912 71050 333 10043 20027 3/002 55300 20000 30000 84/08 84/35 87/45 91115 91212
AAXX 16181 10035 01468 80107 10039 20025 39712 49769 53022 60032 72162 875// 333 10042 20030 32002 55300 20000 30000 41169 60027 87615 91114
AAXX 16181 10055 01357 80411 10032 20025 39730 49740 53002 60072 76362 8652/ 333 10042 20026 32002 55300 20000 30000 60057 84707 85614 88522 91118 91214
AAXX 16181 10147 01258 83406 10020 20014 39715 49733 53032 60112 76376 877// 333 10045 20011 32000 55300 20000 30000 41154 60057 87706
AAXX 16181 10162 07211 80307 10003 20003 39610 49691 55001 60102 77276 333 10039 20002 3/100 55300 20000 30000 60047 87/05 88/25 91113
AAXX 16181 10184 01230 80707 10010 20006 39683 49691 56044 60072 76376 877// 333 10039 20008 32100 55300 20000 30000 60057 87705 91115 91211 96269
AAXX 16181 10200 01675 83407 10051 20029 39809 49807 53061 60062 72166 885// 333 10052 20033 32003 55300 20000 30000 69937 87640 91116 91211
AAXX 16181 10224 01359 83308 10033 20022 39759 49765 53066 60152 75976 887// 333 10048 20010 33001 55300 20000 30000 60037 85709 88712 91113
AAXX 16181 10270 06259 71301 10019 20018 39604 49658 56031 60162 222// 06045 333 10043 20007 3/000 55300 60087 86/05 87/12 87/19 91115
AAXX 16181 10338 01215 83008 10003 20003 39667 49739 53077 60212 77376 8802/ 333 10050 20000 3/100 43002 55300 20000 30000 60037 88504
AAXX 16181 10361 01470 82509 10020 20004 39589 49690 53038 60162 76162 877// 333 10081 20020 32001 55300 20000 30000 69907 87710 91119 91211
AAXX 16181 10393 01465 82306 10059 20050 39559 49681 55019 60142 76166 875// 333 10061 20014 32000 55300 20000 30000 60057 84710 87628 91114
AAXX 16181 10400 01270 82808 10045 20032 39797 49846 53077 60102 76165 875// 333 10095 20025 32002 55300 20000 30000 69957 81705 84712 87625 91113 96463 96453
AAXX 16181 10438 07/57 /2505 10018 20003 39502 49778 51073 60132 76876 333 10088 20008 3/000 55300 69957 91115
AAXX 16181 10469 01586 82414 10057 20009 39554 49713 53038 60112 70262 878// 333 10100 20038 31003 55300 69907 83825 87645 91124 90206 91218 91218
AAXX 16181 10488 11483 72309 10090 20038 39442 49710 55006 60052 70362 878// 333 10090 20020 32001 55300 20000 30000 41178 82816 86631 91117 91212
AAXX 16181 10506 01245 82706 10008 20000 39292 49870 53075 60122 77186 8372/ 333 10086 20008 31000 55300 20000 30000 69957 83705 88526 91119 91212 96483
AAXX 16181 10548 01468 72606 10012 21004 39255 49787 53063 60172 78586 873// 333 10067 21001 3/000 42002 55300 20000 30000 69917 87913 91119 91211
AAXX 16181 10637 01586 72510 10063 20005 39705 49839 53083 60112 76086 878// 333 10107 20061 31005 55300 69907 81825 87629 91120 91214
AAXX 16181 10685 01483 72410 10041 20018 39104 49756 53026 60202 72162 878// 333 10064 20000 3/100 41998 55300 20000 30000 60037 84816 85650 91121 91211 96265 96465 96463 96461
AAXX 16181 10738 01465 82410 10046 20018 39425 49886 53078 60162 76166 885// 333 10090 20046 32003 55300 60047 82710 87616 91121 91215 96465
AAXX 16181 10763 01470 82612 10068 20031 39435 49805 53041 60052 76062 878// 333 10101 20023 31002 55300 20000 30000 69967 82816 87634 91121 91213
AAXX 16181 10788 07688 42312 10082 20049 39403 49819 53021 60122 72365 333 10099 20020 3/001 55300 20000 30000 69967 81/41 84/50 91121 91214
AAXX 16181 10852 01588 82513 10058 20030 39307 49862 53056 60102 76162 8252/ 333 10102 20035 32003 55300 20000 30000 60047 82630 88460 91124 91215
AAXX 16181 10946 07588 82611 10053 20014 39085 49896 52062 60212 72365 333 10088 20036 3/003 55300 20000 30000 60097 85/25 88/42 88/58 91121 91211
AAXX 16181 12772 11460 81706 10044 20035 39667 49949 57043 60072 76162 8802/ 333 10064 4/000 88513
AAXX 16181 12822 16/// /1909 10109 20054 39735 49873 56043 60022 333 10109
AAXX 16181 12843 11580 81706 10081 20039 39752 49918 56044 60012 72162 8657/ 333 10081 4/000 86626
AAXX 16181 12882 11675 81709 10055 20023 39840 49971 57045 69912 76162 8357/ 333 10066 4/000 83633
AAXX 16181 12925 36/// /2106 10116 20050 39744 49909 57035 333 10117
AAXX 16181 12942 31782 81806 10097 20037 39702 49941 57044 70222 8257/ 333 10101 4/000 82650
AAXX 16181 12982 31770 81609 10079 20039 39861 49961 58048 72162 8657/ 333 10089 4/000 86656
AAXX 16184 61832 21950 42406 10302 20169 39068 40094 70500 84030 333 10315 59006 87361
AAXX 1618/ 89866 46/// ///// 11058 39768 4//// 5////
AAXX 1618/ 89769 46/// ///// 11104 39854 4//// 5////
AAXX 1618/ 89828 46/// ///// 11381 36472 4//// 5////
AAXX 16184 40272 32960 00303 10060 20017 39372 40236 52004 333 10160
AAXX 16184 96315 11260 72303 10247 20245 40077 60023 78086 83878 333 81703 83815 85277
AAXX 16184 96323 NIL
AAXX 16184 96315 11260 72303 10247 20245 40077 60023 78086 83878 333 81703 83815 85277
AAXX 16184 96323 NIL
AAXX 16184 78846 12582 30412 10264 20/// 30107 40146 83800 333 10278 20237 58028 83820
AAXX 16181 01003 NIL
AAXX 16181 01007 11989 21010 10018 21036 39932 49941 52012 60002 70200 80002 333 10021 91118
AAXX 16181 01028 NIL
AAXX 16181 01047 11670 82205 11016 21045 39526 49896 53017 69912 77172 8802/ 333 10000
AAXX 16181 01049 16/// /1302 11012 21046 39882 49885 52018 60002 333 10014 91106
AAXX 16181 01078 11380 72003 11015 21041 39862 49875 53014 6//// 70222 86440 333 10006 91110
AAXX 16181 01102 46/// /1515 10027 21018 39820 49839 52009 333 10051 91118
AAXX 16181 01160 NIL
AAXX 16181 01218 NIL
AAXX 16181 01238 46/// /2302 11083 21089 38737 49853 52008 333 11045 91106
AAXX 16181 01241 11988 21206 10002 21017 39836 49847 51008 60002 70200 82071 333 10017 91110
AAXX 16181 01281 NIL
AAXX 16181 01338 16/// /1004 10013 21016 39812 49878 51012 60002 333 10023 91106
AAXX 16181 01359 NIL
AAXX 16181 01397 16/// /1601 10000 21002 39448 49880 52009 60032 333 10005 91103
AAXX 16181 01400 NIL
AAXX 16181 01427 11586 40204 10028 20000 39846 49861 52017 69932 70210 82432 333 10038 91107
AAXX 16181 01447 NIL
AAXX 16181 01448 46/// /0207 10023 20007 39843 49853 53014 333 10050 91132
AAXX 16181 01001 NIL
AAXX 16181 01008 11482 71207 10011 21043 39910 49943 53011 60002 70272 8457/ 333 10020 91119
AAXX 16181 01010 11689 11905 10014 21034 39840 49856 52011 69902 70221 81500 333 10043 91107
AAXX 16181 01026 11888 22103 10006 21038 39728 49868 52011 60002 70120 82078 333 10029 4/023 91109
AAXX 16181 01055 46/// /2204 10038 21015 39852 49869 52013 333 10039 91107
AAXX 16181 01062 NIL
AAXX 16181 01098 11480 82209 10004 21015 39873 49891 51013 69902 70222 886// 333 10018 91112
AAXX 16181 01115 16/// /1612 10044 21027 39811 49832 53010 6//// 333 10053 91121
AAXX 16181 01152 11689 21108 10036 21043 39838 49854 52008 60002 70200 81131 333 10055 91112
AAXX 16181 01205 NIL
AAXX 16181 01212 16/// /1709 10041 21019 39822 49838 53005 6//// 333 10046 91114
AAXX 16181 01271 16/// /0503 11037 21059 39839 49861 52008 60002 333 11021 91106
AAXX 16181 01288 11570 73302 11073 21084 39129 49885 52011 60002 70222 86319 333 11020 91106
AAXX 16181 01300 NIL
AAXX 16181 01317 11/15 91203 10010 21008 39860 49875 50009 69952 78582 333 10022 91105
AAXX 16181 01367 11360 83202 11039 21050 39442 49887 52011 69952 70272 886// 333 11033 91105
AAXX 16181 01384 11460 71102 10005 21001 39626 49872 51007 60022 70222 876// 333 10009 91103
AAXX 16181 01403 11575 2//// 1//// 2//// 39810 53015 60002 70200 82600
AAXX 16181 01415 16/// /0000 10007 21003 39866 49877 53016 6//// 333 10033 91104
AAXX 16181 01482 46/// /0507 10035 20011 39847 49855 52006 333 10054 91109
AAXX 16181 01492 NIL
AAXX 16184 78846 12582 30412 10264 20/// 30107 40146 83800 333 10278 20237 58028 83820
AAXX 16184 78897 12580 50208 10278 20185 40128 58019 60001 85800 333 028// 10286 20232 58023 70032 84826 84643
AAXX 16183 78970 11462 71004 10298 20242 30074 40099 60091 76081 86842 333 05299 10336 20237 58010 81815 84818 90916
AAXX 16183 78962 11563 50205 10283 20219 30105 40113 60001 71511 84232 333 02199 10304 20230 58013 84820
AAXX 16184 78897 12580 50208 10278 20185 40128 58019 60001 85800 333 028// 10286 20232 58023 70032 84826 84643
AAXX 16181 10609 01482 82708 10033 20006 39568 49895 51087 60102 72162 878// 333 10098 20033 32003 55300 20000 30000 69907 82816 87625 91119 91212
AAXX 16181 10616 01262 82810 10016 20005 39280 49874 53079 60122 76186 878// 333 10078 20016 32001 55300 69927 83806 87609 91119 91212 96463
AAXX 16181 10641 07588 82509 10060 20001 39693 49836 53082 60122 75165 333 10106 20037 3/004 55300 69907 87/32 88/39 88/63 91119 91211
AAXX 16181 10655 01481 82714 10050 20014 39496 49817 53062 60062 76066 875// 333 10094 20034 31002 55300 20000 30000 69977 85616 87630 91123 91216
AAXX 16181 10675 07588 82611 10064 20013 39514 49797 53043 60142 72365 333 10101 20022 3/002 55300 20000 30000 69997 86/24 87/40 88/66 91118 91212
AAXX 16181 10688 07488 52409 10057 20037 39284 49790 53028 60262 72365 333 10076 20005 3/000 55300 20000 30000 60027 82/18 84/37 85/50 91118
AAXX 16181 10708 01150 82611 10017 20006 39530 49914 52097 60192 78462 878// 333 10084 20017 33001 55300 20000 30000 69927 82803 87609 91122 91214
AAXX 16181 10729 07586 82508 10062 20028 39755 49874 52091 60052 76165 333 10101 20058 3/005 55300 20000 30000 69917 87/24 87/30 88/42 91116
AAXX 16181 10731 01383 82514 10053 20019 39754 49895 53096 60192 76062 8787/ 333 10115 20053 32005 55300 20000 30000 60017 83808 87631 91121 91214
AAXX 16181 10742 07488 72613 10053 20032 39530 49854 53069 60132 75165 333 10097 20052 3/004 55300 20000 30000 60037 81/12 87/19 87/26 91121 91213
AAXX 16181 10776 01583 82513 10070 20044 39392 49822 53034 60192 76162 8312/ 333 10082 20019 32002 55300 20000 30000 60017 83820 88458 91120 91214
AAXX 16181 10791 01/00 92318 10001 20001 38193 48150 55008 60182 76874 333 10001 21043 49074 55300 60037 96045 96269 96473
AAXX 16181 10805 01583 52708 10059 20013 39748 49936 51104 60082 70186 83830 333 10122 20059 31004 55300 20000 30000 60017 81820 83640 91122 91215
AAXX 16181 10815 01358 82714 10009 21001 38982 48242 53082 60452 76898 8572/ 333 10068 20009 31000 4/998 55300 20000 30000 60067 85709 88515 91131 90220 91218 90320 91218 96495 96481
AAXX 16181 10836 01180 82717 10021 20021 39015 49870 53061 60092 76898 877// 333 10067 20015 31001 55300 20000 30000 60037 86703 91133 90231 91218 91222 96495 96469 96465
AAXX 16181 10870 01581 82413 10074 20044 39330 49847 53039 60072 72162 8453/ 333 10110 20044 31003 55300 69977 84622 85358 91125 90210 91218 91218 96263
AAXX 16181 10895 01684 82520 10094 20040 39270 49815 53013 60112 76162 8802/ 333 10106 20012 31001 55300 20000 30000 69977 88536 91129 90203 91218 91219
AAXX 16181 10908 01/01 92620 11036 21036 38245 48254 51075 60322 74974 333 10020 21037 3/104 49030 55300 20000 30000 60017 89/01 91147 91232 96473 96469
AAXX 16181 10929 01484 22610 10062 20014 39401 49922 53078 60332 72161 82800 333 10083 20034 32003 55300 20000 30000 60047 81812 91125 91213
AAXX 16181 10948 07441 83510 10036 20016 38994 48264 53057 60122 76260 333 10094 20028 3/002 55300 20000 30000 60097 84/11 86/20 88/38 91119 91212
AAXX 16181 10961 11/01 93116 11099 21102 36819 47758 50004 60022 77174 333 11055 21099 49090 55300 20000 41084 91149 91218 90313 91229 96049
AAXX 16181 10962 01280 82315 10020 20018 38753 48222 53047 60062 72162 875// 333 10086 20012 32001 55300 20000 30000 60047 84705 87610 91126 91215
AAXX 16181 10980 11/01 92531 11036 21039 37861 48212 53014 60022 77574 333 10025 21037 3/103 44025 55300 20000 30000 91144 91231 96047
BBXX PHQX 16183 99496 70065 41297 82813 10130 20058 40052 71322 8/7// 22224 20705 328// 41407 5//// 80093
AAXX 16181 10007 NIL
AAXX 16181 10044 NIL
AAXX 16181 10046 11357 80309 10035 20021 39713 49751 52020 60072 76166 877// 333 10041 20033 32002 87708 91116 91212
AAXX 16181 10091 07335 70817 10026 20021 39664 49714 56040 60042 76276 333 10043 20026 3/002 55300 20000 30000 60047 86/07 87/11 91124 90205 91218 91219
AAXX 16181 10113 01472 80113 10058 20030 39791 49810 53054 60022 70262 878// 333 10058 20033 31003 55300 20000 30000 69907 82813 87632 91119 91216
AAXX 16181 10124 NIL
AAXX 16181 10131 01466 83513 10040 20025 39760 49774 53043 60072 72162 875// 333 10043 20033 32003 55300 20000 30000 60027 87615 91119 91215
AAXX 16181 10170 01359 80509 10019 20013 39690 49705 56019 60062 76166 877// 333 10040 20011 32001 55300 20000 30000 60047 87707 91114
AAXX 16181 10264 06110 80104 10002 21000 39559 49663 55017 60092 333 10036 20002 3/000 4/001 55300 20000 30000 60047 88/03 88/64
AAXX 16181 10291 01230 81603 10016 20016 39598 49664 56048 60142 76376 877// 333 10037 20001 3/000 42001 55300 20000 30000 60107 87704 91114
AAXX 16181 10315 01358 82907 10035 20027 39742 49805 53075 60172 76176 875// 333 10039 20011 32000 55300 20000 30000 60027 84708 87612
AAXX 16181 10379 01478 82410 10050 20035 39548 49665 55008 60182 76376 878// 333 10065 20009 32100 55300 20000 30000 41216 60047 81816 87632 91119
AAXX 16181 10382 01363 82006 10066 20055 39617 49660 55025 60192 76176 8272/ 333 10066 20012 32000 55300 20000 30000 60077 82708 88520 91116
AAXX 16181 10384 NIL
AAXX 16181 10427 01/04 92914 11020 21020 38799 48133 53066 60202 77376 333 10037 21024 3/103 48027 55300 20000 30000 60027 91126 90233 91218 90333 91218 96041
AAXX 16181 10430 01115 82705 10007 20006 39596 49786 53075 60222 77176 887// 333 10079 20002 3/100 43002 55300 20000 30000 60037 81703 87704 91120 91213
AAXX 16181 10439 11459 72607 10030 20000 39573 49789 52071 60132 75865 878// 333 10096 20028 31002 82819 87624 91117 91211
AAXX 16181 10453 11/90 92625 11054 21054 38391 48051 53043 60202 77374 333 11001 21054 3/103 49088 55300 91140 91232 96049 96039 96475 96469 96467 96449 96439
AAXX 16181 10496 01586 71907 10081 20050 39609 49690 56020 60092 72165 875// 333 10081 20028 31002 55300 20000 30000 69937 87630 91116
AAXX 16181 10499 11583 71810 10061 20037 39448 49727 55010 60042 70362 8587/ 333 10062 20026 31001 55300 20000 30000 83826 84650 87359 91122 91216
AAXX 16181 10505 01130 82609 10010 20007 39597 49878 51077 60082 76976 887// 333 10104 20010 32001 55300 20000 30000 60047 87702 91118 91214
AAXX 16181 10513 01362 82806 10041 20031 39732 49852 52077 60082 75865 8672/ 333 10112 20030 31003 55300 20000 30000 69997 81708 86710 88514 91117 96261 96463 96451
AAXX 16181 10532 15488 72507 10036 20010 39572 49816 53078 60122 333 10101 20027 3/002 55300 20000 30000 87/15 87/32 87/71 91122 91217
AAXX 16181 10544 01/06 92613 11019 21019 38731 48138 52062 60102 77176 333 10037 21019 3/102 44007 55300 69967 91131 91218 90326 91222 96041 96278 96469 96463
AAXX 16181 10554 01275 72718 10020 20000 39364 49743 53058 60022 76876 8451/ 333 10084 20013 31000 55300 20000 30000 69927 82704 83616 87463 91126 90211 91218 91220
AAXX 16181 10567 01489 52712 10065 20023 39367 49728 53032 60012 72586 85900 333 10091 20024 31002 55300 20000 30000 69907 85913 91122 91215
AAXX 16181 10578 11/01 92321 10006 20006 38387 48107 53011 60242 76876 333 10010 21029 3/103 49048 55300 20000 30000 96045 96477 96475 96461 96457 96449 96439
AAXX 16184 65338 31930 53204 10282 20156 39896 40084 70522 80002 333 10361 59014 85076
BBXX CGDS 16184 99447 70755 46/// /3110 10038 21021 4//// 5//// 7//// 8//// 22200 0//// 2////
AAXX 16181 11816 11570 81906 10088 20054 39698 49856 57036 60052 72162 8257/ 333 10089 82624 88460
AAXX 16181 11826 11570 81408 10066 20049 39674 49868 57037 60052 76122 885// 333 10067 85630 88650
AAXX 16181 11903 11261 83303 10022 20020 39544 49922 57030 60052 76166 885// 333 10042 81705 83709 88615
AAXX 16181 11934 11460 81803 10017 21007 39103 42565 57034 69902 77172 885// 333 10047 82710 88623
AAXX 16181 11968 11464 82010 10045 20025 39665 49942 57039 69922 76122 885// 333 10066 87712 88630
BBXX CGDS 16184 99447 70755 46/// /3110 10038 21021 4//// 5//// 7//// 8//// 22200 0//// 2////
AAXX 16184 78384 12560 30714 10282 20200 40162 60001 81102 333 10291 20249 58007 70000 81825 83078
AAXX 16184 78383 12560 11014 10284 20212 40163 60001 81101 333 10288 20243 58007 70000 81820
AAXX 16184 61901 169// /1312 10166 20142 39673 40182 56001 69942 91750 333 10194 8//99 555 7/090
AAXX 16184 61902 12484 11416 10250 20195 40130 69902 81800 333 10282 58012 81818
AAXX 16184 88889 12475 23432 10172 20103 30030 40112 55008 60001 81601 91750 333 81712 90710 91149 91044
AAXX 16184 03005 11475 53212 10033 20006 39801 49901 53020 60032 72782 85900 91750 333 10046 55300 20000 82914 83820 90710 91127
AAXX 16184 03017 15665 /3011 10030 20008 39907 49939 53025 69942 91750 333 10038 55300 20000 82/41
AAXX 16184 03023 17969 /2906 10045 20021 39986 49991 51033 69922 723// 91750 333 10053 81/58
AAXX 16184 03026 17974 /2704 10017 21002 39959 49978 51026 69962 723// 91750 333 10055 55300 20000 8//99
AAXX 16184 03063 15967 /2302 11047 21054 39701 49986 51034 60002 91750 333 11031 4/003 55300 20000 8//99
AAXX 16184 03066 15683 /2506 10005 21011 39965 49971 51033 69922 91750 333 10005 55300 20000 87/41
AAXX 16184 03075 15770 /2512 10004 21004 39904 49948 52026 69902 91750 333 10015 82/50
AAXX 16184 03091 15981 /3009 10017 21014 39876 49956 52032 69922 91750 333 10026 55300 20000 8//99
AAXX 16184 03100 15982 /0109 10044 20015 39976 49992 51038 60032 91750 333 10063 55300 20000 85/71
AAXX 16184 03111 16569 /0902 10003 21006 39977 49989 51043 6///2 91750 333 10043 85/20
AAXX 16184 03134 15980 /2503 11006 21020 39908 49982 51045 60032 91750 333 10033 4/006 55300 20000 8//99
AAXX 16184 03136 15963 /0502 11010 21017 39950 49984 51047 69922 91750 333 10030 55300 20000 81/73
AAXX 16184 03162 15983 /0506 11001 21020 39688 49978 51051 60022 91750 333 10017 4/003 55300 20000 81/73
AAXX 16184 03166 15982 /2105 10008 21017 39907 49978 51049 69922 91750 333 10029 55300 20000 8//99
AAXX 16184 03171 12683 12707 10002 21028 39957 49969 51045 60002 81501 91750 333 10031 55300 20000 81630 92600
AAXX 16184 03204 11582 23407 10043 20015 39966 49986 51063 6///2 70271 81101 91750 333 10052 55300 20000 81820
AAXX 16184 03240 15782 /3109 10038 20020 39923 49951 52053 60092 91750 333 10058 55300 20000 86/50
AAXX 16184 03257 15772 /3209 10015 20004 39910 49950 52060 69922 91750 333 10030 55300 20000 81/50 84/72
AAXX 16184 03292 165// /0111 10054 20024 39903 49922 53054 60012 91750 333 10056 83/25
AAXX 16184 03302 15683 /3610 10051 20022 39969 49981 53064 60022 91750 333 10059 55300 20000 83/38 85/69
AAXX 16184 03354 15466 /2904 10019 21003 39801 49944 53052 60002 91750 333 10030 55300 20000 87/17 84/58
AAXX 16184 03377 11475 53110 10023 20002 39847 49931 51051 69942 72372 83530 91750 333 10029 55300 20000 83614 84360
AAXX 16184 03414 15567 /3208 10007 20001 39874 49963 53060 60042 91750 333 10040 55300 20000 81/26
AAXX 16184 03462 15780 /2909 10022 20004 39845 49935 53046 60022 91750 333 10031 55300 20000 82/56 86/63 85/70
AAXX 16184 03482 17463 /2912 10026 20011 39896 49922 51045 60092 761// 91750 333 10028 84/13 85/31
AAXX 16184 03502 17466 /3124 10047 20018 39822 49984 53042 60012 723// 91750 333 10058 55300 20000 84/19 83/39 90710 91139 91035
AAXX 16184 03535 17364 /3312 10017 20004 39829 49947 53050 69922 721// 91750 333 10040 55300 20000 88/09
AAXX 16184 03590 17361 /3015 10016 20008 39815 49926 53047 60052 762// 91750 333 10025 55300 20000 87/08
AAXX 16184 03649 11470 72910 10025 20011 39851 49951 53039 60012 72161 8653/ 91750 333 10043 55300 2//// 82712 85617
AAXX 16184 03716 15680 /3016 10054 20014 39913 49973 53036 69902 91750 333 10057 55300 20000 82/38 90710 91131
AAXX 16184 03740 16565 /2614 10036 20007 39782 49958 53034 60022 91750 333 10040 55300 2//// 82/22 86/31
AAXX 16184 03746 15984 /2818 10040 21009 39808 49961 52033 69942 91750 333 10047 84/58 86/66 90710 91128 91028
AAXX 16184 03772 17582 /2711 10039 20013 39914 49945 52039 60032 723// 91750 333 10050 55300 20000 81/20 87/41
AAXX 16184 03796 46/// /2913 10028 20003 39787 49930 51043 91750 333 10047
AAXX 16184 03803 NIL
AAXX 16184 03808 11336 83218 10039 20027 39921 40028 53038 60032 78182 889// 91750 333 10072 55300 20000 83708 82918 85824 90710 91135 91029
AAXX 16184 03809 11450 73025 10029 20022 39935 40029 53041 69902 78282 873// 91750 333 10069 83710 81920 84824 87650 90710 91135 91035
AAXX 16184 03827 17981 /2808 10046 20016 39945 40007 51034 69962 723// 91750 333 10067 8//99 90710 91129
AAXX 16184 03840 15680 /2806 10025 21003 39681 49988 51035 60012 91750 333 10044 82/30
AAXX 16184 03853 15681 /2706 10032 21003 39956 49981 53039 69982 91750 333 10062 55300 20000 84/42
AAXX 16184 03874 46/// /2920 10056 20013 39953 49964 51038 91750 333 10064 90710 91125
AAXX 16184 03882 15683 /2805 10026 21005 39884 49948 52041 60022 91750 333 10044 55300 20000 81/34
AAXX 16184 03894 11580 62924 10067 21027 40010 52039 60022 78082 84803 333 10088 81823 84838 90710 91133
AAXX 16184 03917 15960 /2403 10005 21006 39927 40006 51054 60032 91750 333 10029 55300 20000 8//99
BBXX 46082 16181 99597 71434 46/// ///// 10029 20029 49967 56037 91750 22200 00060 10909 70045
BBXX 46072 16181 99517 71722 46/// /2005 10028 21027 49893 58022 91750 22200 00051 11209 20402 3//// 41209 70046 333 91207 555 11055 22058 31719 42009 61749 197054 193061 197061 203067 208064 213060 82007 91718
BBXX 46035 16181 99571 71778 46/// /0310 1//// 49907 58013 91750 22200 11109 20705 300// 41108 70047 333 91213 555 11104 22111 31718 40314 61749 029104 025106 015102 018109 013100 017086 80213 91718
BBXX 46077 16181 99579 71543 46/// /1608 10034 20016 49892 56003 91750 22200 00051 11104 20302 3//// 41104 70022 333 91210 555 11087 22091 31741 41710 61749 164083 160086 160083 141071 135070 133076 81609 91735
BBXX 42039 16181 99288 70860 46/// /1604 10231 40218 50000 91750 22200 00231 10502 20401 300// 40501 70009 333 91205 555 11044 22046 31711 41505 61749 156041 157038 156042 151043 150044 154041 81505 91711
BBXX 41040 16181 99145 70530 46/// /3002 10272 20222 40110 58019 91750 22200 00288 11004 20401 3//// 41004 70019 333 91204 555 11024 22024 31743 42904 61749 294022 279020 286021 285020 291021 296023 82803 91658
AAXX 16184 78384 12560 30714 10282 20200 40162 60001 81102 333 10291 20249 58007 70000 81825 83078
AAXX 16184 78383 12560 11014 10284 20212 40163 60001 81101 333 10288 20243 58007 70000 81820
AAXX 16181 01037 NIL
AAXX 16181 01046 11889 31604 11002 21046 39871 49878 52015 60002 70300 81042 333 10024 91108
AAXX 16181 01058 16/// /1503 11053 21065 39431 49898 52017 60002 333 11018 4/016 91108
AAXX 16181 01065 NIL
AAXX 16181 01092 NIL
AAXX 16181 01107 16/// /1712 10051 2//// 39824 49828 52013 60042 333 10060 91120
AAXX 16181 01114 NIL
AAXX 16181 01144 46/// /1111 10040 21035 333 10053 91114
AAXX 16181 01199 NIL
AAXX 16181 01245 NIL
AAXX 16181 01259 16/// /1509 10030 21033 39819 49842 52008 60002 333 10043 91112
AAXX 16181 01262 NIL
AAXX 16181 01278 31985 01205 11030 21051 39758 49861 52006 70111 333 11008
AAXX 16181 01293 16/// /1801 11063 21070 39659 49870 52007 60002 333 11029 91104
AAXX 16181 01329 NIL
AAXX 16181 01337 NIL
AAXX 16181 01344 NIL
AAXX 16181 01364 NIL
AAXX 16181 01373 16/// /0000 11028 21033 39681 49883 52011 69922 333 11023 91101
AAXX 16181 01374 11570 80000 11026 21026 60012 77874 8472/ 333 11022
AAXX 16181 01380 11X03 90000 11048 21058 69912 74974 333 11042 4/029 91100
AAXX 16181 01389 NIL
AAXX 16181 01393 NIL
AAXX 16181 01424 11989 0//// 11025 21042 39880 49883 52016 60002 70120 333 10007
AAXX 16181 01431 16/// /0301 11057 21065 39212 49883 52015 69972 333 11009 91104
AAXX 16181 01436 NIL
AAXX 16181 01465 11356 80106 10014 20007 39839 49858 53013 6//// 76872 8472/ 333 10050 91110
AAXX 16181 01471 11516 80000 11012 21021 69982 77372 8772/ 333 11011 91100
AAXX 16181 01483 NIL
AAXX 16181 01121 46/// /1409 10036 21036 39831 49843 51008 333 10044 91113
AAXX 16181 01135 NIL
AAXX 16181 01143 16/// /1603 10014 21071 60002 333 10041 91107
AAXX 16181 01150 16/// /1206 10004 21055 60002 333 10026 91111
AAXX 16181 01192 NIL
AAXX 16181 01225 46/// /1507 10028 21025 39832 49836 52007 333 10056 91110
AAXX 16181 01230 16/// /0901 11158 21172 60002 333 11072 4/023 91103
AAXX 16181 01232 16/// /1704 11009 21068 39787 49866 52010 60002 333 10016 4/004 91109
AAXX 16181 01234 16/// /2005 11069 21080 60002 333 11039 91107
AAXX 16181 01253 NIL
AAXX 16181 01254 16/// /1701 11075 21083 60002 333 11053 4/018 91102
AAXX 16181 01257 NIL
AAXX 16181 01277 NIL
AAXX 16181 01291 16/// /2501 11080 21090 60002 333 10003 4/017 91103
AAXX 16181 01332 16/// /0000 11010 21019 60002 333 10009 91102
AAXX 16181 01366 46/// /3601 11147 21164 38262 49921 52009 333 11084 91104
AAXX 16181 01370 NIL
AAXX 16181 01376 16/// /2401 11012 21016 69972 333 11007 91102
AAXX 16181 01383 46/// /1402 10003 20002 39567 49878 52007 333 10004 91105
AAXX 16181 01386 16/// ///// 10005 21003 60012 333 10010
AAXX 16181 01416 16/// ///// 10002 20002 60002 333 10025
AAXX 16181 01419 NIL
AAXX 16181 01430 16/// ///// 10022 20000 60092 333 10035
AAXX 16181 01434 16/// /0000 11109 21130 38912 49874 52013 60032 333 11015 91103
AAXX 16181 01455 NIL
AAXX 16181 01468 16/// /0901 10005 21009 69992 333 10021 91105
AAXX 16181 01470 16/// /0701 11002 21004 39754 49868 52010 60032 333 11001 4/006 91104
AAXX 16181 01476 NIL
AAXX 16181 01481 NIL
AAXX 16181 01488 NIL
AAXX 16181 01025 16/// /2003 10016 21031 39858 49869 52011 6//// 333 10032 91109
AAXX 16181 01052 16/// /0000 11027 21058 39774 49871 52016 60002 333 10011 91105
AAXX 16181 01122 16/// /2004 11015 21037 39778 49867 52012 60002 333 10030 91106
AAXX 16181 01132 16/// /1404 11016 21051 39493 49879 51012 60002 333 10001 4/037 91107
AAXX 16181 01156 NIL
AAXX 16181 01203 46/// /1812 10033 21018 39787 49835 54000 333 10041 91117
AAXX 16181 01233 16/// /0301 11067 21074 60002 333 11045 91104
AAXX 16181 01265 NIL
AAXX 16181 01273 NIL
AAXX 16181 01307 46/// /1609 10035 20014 39835 49862 52004 333 10045 91112
AAXX 16181 01321 16/// /1402 11048 21053 39612 49868 53008 60002 333 10019 91104
AAXX 16181 01327 16/// /2001 11069 21081 60002 333 11018 91102
AAXX 16181 01350 16/// /2501 11208 21220 38484 49876 50011 60002 333 11055 91104
AAXX 16181 01361 16/// /0201 11233 21256 38854 49957 53007 60002 333 11085 91102
AAXX 16181 01375 NIL
AAXX 16181 01378 16/// /0000 11003 21007 39579 49868 52008 60052 333 10007 91101
AAXX 16181 01385 16/// /0401 10002 21002 39608 49877 52007 60032 333 10003 91103
AAXX 16181 01412 16/// /0405 10003 21004 39845 49874 52016 69972 333 10027 91107
AAXX 16181 01422 16/// /0802 10003 21007 60002 333 10031 91104
AAXX 16181 01440 NIL
AAXX 16181 01441 NIL
AAXX 16181 01467 NIL
AAXX 16181 01469 NIL
AAXX 16181 01477 16/// /0000 10000 21003 60042 333 10002 4/020 91102
AAXX 16181 01480 16/// /3401 11005 21016 60032 333 10006 91103
AAXX 16181 01484 16/// /3501 10002 21017 39717 49872 52007 69992 333 10018 91107
AAXX 16181 01490 16/// /1003 11014 21015 60052 333 11006 91105
AAXX 16181 01495 16/// /0506 10025 20008 39844 49857 52005 60002 333 10055 91107
AAXX 16181 45032 36/// /3503 10138 20028 30245 40262 57001
AAXX 16181 45035 36/// /0405 10145 20042 30217 40260 54000
AAXX 16181 45039 36/// /0102 10146 20052 30242 40257 52001
AAXX 16181 45044 36/// /0206 10155 20074 30156 40252 54000
AAXX 16181 01015 NIL
AAXX 16181 01023 11689 23001 11077 21079 39783 49880 52012 69902 70220 81578 333 10001 91103
AAXX 16181 01033 NIL
AAXX 16181 01059 NIL
AAXX 16181 01089 11460 52106 11005 21015 39799 49905 52013 60044 70222 81670 333 11005 91109
AAXX 16181 01167 11788 31305 10044 21048 39846 49850 52012 69912 70120 81440 333 10054 91110
AAXX 16181 01180 NIL
AAXX 16181 01210 41687 31904 10034 21036 39813 49839 51005 70200 81268 333 10037 91110
AAXX 16181 01228 NIL
AAXX 16181 01240 16/// /1511 10039 21005 39818 49837 52007 6//// 333 10056 91114
AAXX 16181 01304 46/// /1610 10028 20010 39821 49851 52006 333 10044 91114
AAXX 16181 01311 46/// /1303 10000 21002 39813 49875 50007 333 10021 91106
AAXX 16181 01340 NIL
AAXX 16181 01355 16/// ///// 11010 21045 39877 49882 53012 6////
AAXX 16181 01360 NIL
AAXX 16181 01392 11474 80101 10007 21002 39656 49880 51009 60012 70222 888// 333 10023 91103
AAXX 16181 01406 46/// /1503 10020 20005 39856 49874 51010 333 10041 91109
AAXX 16181 01411 16/// /0203 10021 21001 39851 49876 52015 6////
AAXX 16181 01425 NIL
AAXX 16181 01433 46/// /0000 11101 21114 38624 49902 52011 333 11031 91101
AAXX 16181 01442 NIL
AAXX 16181 01450 NIL
AAXX 16181 01452 11482 83504 10023 20004 39836 49858 53014 69962 70322 888// 333 10024 91106
AAXX 16181 01473 16/// /0000 11006 21010 39664 49871 52010 6//// 333 11005 91102
AAXX 16181 01494 11480 70103 10010 20004 39799 49864 53006 69932 70222 8557/ 333 10027 91105
BBXX 46072 16181 99517 71722 46/// /2005 10028 21027 49893 58022 91750 22200 00051 11209 20402 3//// 41209 70046 333 91207 555 11055 22058 31719 42009 61749 197054 193061 197061 203067 208064 213060 82007 91718
BBXX 44007 16181 99435 70701 46/// /3109 10087 20000 40091 53028 91750 22200 00088 11102 20302 3//// 41101 70011 333 91212 555 11101 22107 31706 43215 61749 305096 307096 310104 314100 312111 294092
BBXX 51004 16181 99175 71524 46/// /0509 10225 20208 91750 555 11097 22104
BBXX 51002 16181 99171 71578 46/// /0507 10244 40173 53013 91750 22200 00253 333 91209 555 11076 22080 31657 40609 61749 053071 056072 053073 053072 063075 054077
BBXX 51100 16181 99236 71539 46/// /0805 10225 40218 53015 91750 22200 00234 11405 20401 332// 41405 70027 333 91206 555 11048 22050 31739 40907 61749 076046 084047 082048 077042 082043 084045
BBXX 46026 16181 99378 71228 46/// /0401 10102 40252 51011 91750 22200 00114 11004 20301 330// 41004 70018 333 91202 555 11010 22010 31653 43104 61749 026010 326011 354008 326015 301021 293027
BBXX 46041 16181 99474 71247 46/// /1606 10084 40313 53006 91750 22200 00081 11604 20501 3//// 41604 70020 333 91207 555 11062 22067 31746 41607 61749 158058 157054 154054 155054 157051 156055
AAXX 16181 45032 36/// /3503 10138 20028 30245 40262 57001
AAXX 16181 45035 36/// /0405 10145 20042 30217 40260 54000
AAXX 16181 45039 36/// /0102 10146 20052 30242 40257 52001
AAXX 16181 45044 36/// /0206 10155 20074 30156 40252 54000
AAXX 16184 78866 02584 60611 10272 20191 30138 40143 57017 60001 86400 333 58027 60007 86826
AAXX 16184 78016 11564 53106 10207 20135 30219 40223 58016 69901 70182 84804 333 10212 20163 70003 90930
BBXX VCRG 16184 99474 70619 46/// /2204 10072 20071 49927 58032 7//// 8//// 22200 0//// 2////
AAXX 16184 91487 NIL
AAXX 16184 91490 NIL
AAXX 16184 91533 NIL
AAXX 16184 91601 NIL
AAXX 16184 91610 11599 40815 10267 20231 40076 53001 60001 70200 84200 333 562//
AAXX 16184 84818
AAXX 16184 91623 NIL
AAXX 16184 91629 NIL
AAXX 16184 91701 NIL
AAXX 16184 07005 04/70 /3013 10047 21005 39859 49949 51044 60082 700// 333 10089 20029 60007 90710 91125 555 60005
AAXX 16184 07015 01584 72913 10037 20009 39868 49925 51050 60072 70262 875// 333 10116 20023 69947 87625 90710 91124 93100 555 69905
AAXX 16184 07027 01582 52412 10046 20009 39913 49995 51037 60072 70187 82990 333 10091 20029 60007 81826 81933 85370 90710 91116 93100 555 60005
AAXX 16184 07037 04581 83015 10045 20006 39792 49976 52041 60052 700// 333 10094 20028 69907 90710 91129 555 69905
AAXX 16184 07070 04670 /2715 10036 20005 39844 49955 51057 60102 700// 333 10116 20035 60007 90710 91125 555 60005
AAXX 16184 07110 01565 62907 10056 20033 39942 40058 51059 60082 70186 86900 333 10075 20046 60017 81922 84827 90710 91118 555 60005
AAXX 16184 07117 01465 52818 10077 20026 39962 40032 51048 6///2 72186 85800 333 1//// 2//// 69927 91029 90710 91131 92447 555 60005
AAXX 16184 07130 04560 82714 10041 20024 39974 40027 53029 60022 761// 333 10099 20041 69987 90710 91127 555 69985
AAXX 16184 07139 06/// /2608 10040 20017 39832 40007 51030 60012 333 10096 20033 60007 90710 91116 555 60005
AAXX 16184 07149 01670 42714 10036 20006 39876 49986 51047 60082 70186 84800 333 10127 20036 60007 82833 83650 90710 91129 93100 555 60005
AAXX 16184 07168 04/70 /2510 10041 20004 39844 49988 51059 60092 700// 333 10122 20039 69907 90710 91126 555 60005
AAXX 16184 07181 04586 62714 10027 20001 39547 49958 51083 60272 700// 333 10096 20027 69947 90710 91140 555 69905
AAXX 16184 07190 04586 /2819 10054 21002 39750 49931 53099 60092 700// 333 10114 20054 60017 91038 90710 91144 555 69925
AAXX 16184 07207 01450 83325 10076 20040 60012 78182 88900 222// 327// 333 10111 20068 60017 91040 90710 91155 92466 555 69945
AAXX 16184 07222 01570 73008 10063 20049 30000 40032 53011 60042 70186 86902 333 10137 20050 60037 83820 81926 85630 90710 91117 555 60005
AAXX 16184 07240 02982 82208 10052 20027 39888 40024 51029 60082 8807/ 333 10141 20049 60007 88364 90710 91113 93100 555 60005
AAXX 16184 07255 04570 /2805 10044 20021 39830 40032 51052 60172 700// 333 10122 20044 60027 90710 91121 555 60005
AAXX 16184 07280 04986 82916 10060 20003 39721 49993 51059 60102 700// 333 10113 20053 69947 90710 91130 555 60005
AAXX 16184 07299 01470 72718 10056 20015 39637 49963 52086 60082 76086 8587/ 333 10128 20055 69907 81810 85633 86359 91031 90710 91149 93100 555 69905
AAXX 16184 07314 01560 22740 10116 20059 30028 40056 51008 60092 70186 82700 333 10146 20100 69907 82720 91058 90710 91160 555 69905
AAXX 16184 07335 04581 82514 10065 20026 39900 40045 51029 60112 761// 333 10137 20061 69907 90710 91122 555 69905
AAXX 16184 07434 04986 72507 10042 20016 39585 40069 51035 60202 700// 333 10099 20040 60017 90710 91123 555 60005
AAXX 16184 07460 01558 63214 10050 20015 39659 40051 51043 60112 76186 86800 333 10129 20050 60027 84820 84630 90710 91131 93100 555 69925
AAXX 16184 07471 04113 62917 10009 21001 39079 48683 51037 60062 775// 333 10095 20009 42/// 60017 91033 90710 91138 555 69945
AAXX 16184 07481 01680 52707 10072 20019 39741 40028 51049 60042 70286 81530 333 10120 20072 60027 81633 85360 90710 91123 93100 555 69965
AAXX 16184 07510 01580 42819 10098 20035 30037 40102 51026 60272 70186 84900 333 10138 20091 69927 81925 83656 91032 90710 91136 93100 555 60005
AAXX 16184 07535 06/// /2610 10061 20043 39775 40090 51034 60102 333 10125 20058 69967 90710 91123 555 60005
AAXX 16184 07558 06/// /3025 10039 20016 39231 40073 53039 60102 333 10094 20038 60027 90710 91152 555 69925
AAXX 16184 07577 04/70 /2906 10108 21013 39940 40029 51029 60032 700// 333 10112 20092 69927 90710 91130 555 60005
AAXX 16184 07591 04/// /2008 10038 20034 38974 4//// 57019 60242 761// 333 10038 20020 60087 90710 91113 555 60015
AAXX 16184 07607 04669 /2710 10083 20059 30066 40138 51031 60152 700// 333 10154 20080 69987 90710 91121 555 69925
AAXX 16184 07621 01565 72821 10076 20044 39721 40158 51040 60122 72586 8487/ 333 10215 20074 60077 82823 83650 87360 91032 90710 91136 93100 555 60025
AAXX 16184 07627 06/// /2921 10073 20033 39649 40140 51046 60052 333 10204 20071 60037 91038 90710 91138 555 69945
AAXX 16184 07630 01580 52821 10086 20048 39939 40120 51048 60052 70186 8383/ 333 10174 20069 60037 81823 83650 85361 91034 90710 91134 93100 555 69905
AAXX 16184 07643 01984 33017 10114 20034 30044 40054 51045 69922 70161 80002 333 10150 20064 60007 83070 91030 90710 91139 555 60005
AAXX 16184 07650 01986 72925 10124 20062 39983 40021 53009 69942 70162 8707/ 333 10151 20111 69927 87361 90710 91141 93100 555 60005
AAXX 16184 07661 01565 82740 10142 20045 39825 49982 58014 69902 70262 81120 333 10147 20129 69907 81826 87556 91055 90710 91155 555 69905
AAXX 16184 07690 01775 83003 10131 20075 39911 49944 58040 69902 70162 8157/ 333 10154 20118 69907 81650 84361 86466 90710 91121 93100 555 60005
AAXX 16184 07747 01682 53031 10121 20038 30025 40078 51046 6///2 70162 83502 333 10182 20031 69927 83643 84074 91049 90710 91150 555 60005
AAXX 16184 07761 01558 82426 10162 20111 30019 40030 56029 69942 78086 872// 333 10173 20157 69947 87826 90710 91135 93100 555 69945
AAXX 16184 07790 02585 73109 10164 20044 39957 49971 55020 60002 81172 333 10201 20107 60007 81830 84364 87073 90710 91125 93100 555 60005
AAXX 16184 78905 11476 70705 10264 20200 30111 40134 69901 71582 86860 333 10273 20221 59024 70056 84816 86638 90950
AAXX 16184 78062 12569 31009 10253 20171 40213 60001 83200 333 59003 83825 90908
AAXX 16181 13586 32756 30502 10048 20021 39795 40088 57019 83500 333 10130 83656
BBXX BATFR42 16184 99503 70018 46/// /3319 10077 20015 49983 22243 00122
AAXX 16181 14528 NIL
AAXX 16181 14537 NIL
AAXX 16181 14544 NIL
AAXX 16181 14557 12960 81801 10120 20038 39626 49982 58049 60002 8807/ 333 84360 88461
AAXX 16181 14640 NIL
AAXX 16181 14648 11665 82001 10113 20092 39929 40047 57036 60022 76062 8352/ 333 10121 83646 88458
AAXX 16181 14652 11000 92038 11016 21021 37709 48261 55037 69912 74544 333 11016 89/00
AAXX 16181 14542 12675 61605 10144 20025 39766 40049 57049 60002 84871 333 10144 82840 84647 95900
AAXX 16181 02741 17477 71202 10023 20017 39895 49911 57010 60042 78186 85/// 91739 333 10044 20013
AAXX 16181 02755 17669 81603 10014 20010 39860 49955 52007 69942 72187 88/// 91739 333 10017 20011
AAXX 16181 02805 37463 71804 11016 21028 39765 49896 52011 77174 87/// 91739 333 11016 21048
AAXX 16181 02807 47460 72003 10000 21010 39735 49916 789// 87/// 91800 333 10001 21039
AAXX 16181 02836 17499 12003 11009 21013 39712 49933 52017 60022 78587 81/// 91739 333 10004 21009
AAXX 16181 02845 47133 71704 10002 20002 39694 49940 52016 78187 87/// 91739 333 10004 20000
AAXX 16181 02849 47399 71804 10005 21003 39682 49953 52018 70087 87/// 91739 333 10007 20001
AAXX 16181 02866 17299 71702 10008 20008 39812 49960 52011 69972 78584 87/// 91739 333 10011 20006
AAXX 16181 02897 47499 71702 10017 20008 39796 49977 700// 87/// 91800 333 10017 20008
AAXX 16181 02913 47370 71403 10015 20006 39894 49946 700// 87/// 333 10028 20013
AAXX 16181 02917 47381 81704 10020 20013 39867 49989 700// 88/// 91800 333 10023 20012
AAXX 16181 02924 47373 81601 10015 20014 39765 49961 52003 70020 88/// 91739 333 10020 20012
AAXX 16181 02926 17373 71405 10027 20019 39926 49939 57003 69912 722// 81/// 91800 333 10044 20016
AAXX 16181 02935 17260 71402 10018 20014 39802 49975 54002 69952 70085 87/// 91739 333 10023 20001
AAXX 16181 02939 17162 71705 10008 20007 39822 40016 52005 69962 78187 87/// 91739 333 10020 20006
AAXX 16181 02944 47775 71103 10016 20012 39809 49955 700// 87/// 91800 333 10030 20016
AAXX 16181 02963 46/// /1404 10015 20008 49952 333 1//// 2////
AAXX 16181 02974 11265 81104 10023 20014 39899 49964 57017 60032 75162 886// 333 10046 20022 32///
AAXX 16181 02976 46/// /1306 10030 20020 39963 49979 57015 91739 333 10049 20028
AAXX 16181 02981 17464 71509 10048 20028 39912 49922 57014 60012 70086 87/// 91739 333 10058 20030
AAXX 16181 02982 46/// /1511 10036 20013 39932 49940 57011 91739 333 10060 20036
AAXX 16181 02947 NIL
BBXX BATFR54 16184 99446 70058 46/// /2836 10107 20045 40190 50013 22223 00142
AAXX 16181 02741 17477 71202 10023 20017 39895 49911 57010 60042 78186 85/// 91739 333 10044 20013
AAXX 16181 02755 17669 81603 10014 20010 39860 49955 52007 69942 72187 88/// 91739 333 10017 20011
AAXX 16181 02805 37463 71804 11016 21028 39765 49896 52011 77174 87/// 91739 333 11016 21048
AAXX 16181 02807 47460 72003 10000 21010 39735 49916 789// 87/// 91800 333 10001 21039
AAXX 16181 02836 17499 12003 11009 21013 39712 49933 52017 60022 78587 81/// 91739 333 10004 21009
AAXX 16181 02845 47133 71704 10002 20002 39694 49940 52016 78187 87/// 91739 333 10004 20000
AAXX 16181 02849 47399 71804 10005 21003 39682 49953 52018 70087 87/// 91739 333 10007 20001
AAXX 16181 02866 17299 71702 10008 20008 39812 49960 52011 69972 78584 87/// 91739 333 10011 20006
AAXX 16181 02897 47499 71702 10017 20008 39796 49977 700// 87/// 91800 333 10017 20008
AAXX 16181 02913 47370 71403 10015 20006 39894 49946 700// 87/// 333 10028 20013
AAXX 16181 02917 47381 81704 10020 20013 39867 49989 700// 88/// 91800 333 10023 20012
AAXX 16181 02924 47373 81601 10015 20014 39765 49961 52003 70020 88/// 91739 333 10020 20012
AAXX 16181 02926 17373 71405 10027 20019 39926 49939 57003 69912 722// 81/// 91800 333 10044 20016
AAXX 16181 02935 17260 71402 10018 20014 39802 49975 54002 69952 70085 87/// 91739 333 10023 20001
AAXX 16181 02939 17162 71705 10008 20007 39822 40016 52005 69962 78187 87/// 91739 333 10020 20006
AAXX 16181 02944 47775 71103 10016 20012 39809 49955 700// 87/// 91800 333 10030 20016
AAXX 16181 02963 46/// /1404 10015 20008 49952 333 1//// 2////
AAXX 16181 02974 11265 81104 10023 20014 39899 49964 57017 60032 75162 886// 333 10046 20022 32///
AAXX 16181 02976 46/// /1306 10030 20020 39963 49979 57015 91739 333 10049 20028
AAXX 16181 02981 17464 71509 10048 20028 39912 49922 57014 60012 70086 87/// 91739 333 10058 20030
AAXX 16181 02982 46/// /1511 10036 20013 39932 49940 57011 91739 333 10060 20036
AAXX 16181 02947 NIL
AAXX 16184 78016 11564 53106 10207 20135 30219 40223 58016 69901 70182 84804 333 10212 20163 70003 90930
BBXX VCRG 16184 99474 70619 46/// /2204 10072 20071 49927 58032 7//// 8//// 22200 0//// 2////
AAXX 16184 78866 02584 60611 10272 20191 30138 40143 57017 60001 86400 333 58027 60007 86826
BBXX VOPP 16184 99456 70735 46/// /2808 10024 21040 4//// 5//// 7//// 8//// 22200 0//// 2////
BBXX CG2960 16184 99424 70829 46/// /2413 10017 21043 40255 51005 7//// 8//// 22252 00049 2////
BBXX CG2350 16184 99433 70798 46/// /2414 10036 21008 40218 56012 7//// 8//// 22200 0//// 2////
BBXX CZ9742 16184 99506 70969 46/// /1810 11122 21155 40304 58010 7//// 8//// 22200 0//// 2////
BBXX CGDR 16184 99494 71263 46/// /0206 10081 20081 40288 53003 7//// 8//// 22200 0//// 2////
BBXX CGDX 16184 99468 70712 46/// /0000 10029 21027 40107 52054 7//// 8//// 22200 0//// 2////
BBXX CG2958 16184 99489 71234 46/// /1511 10078 20076 40320 56003 7//// 8//// 22282 0//// 2////
BBXX VRYO3 16184 99513 10043 46/// /0000 10058 20069 49868 53047 7//// 8//// 22200 0//// 2////
AAXX 16181 11423 NIL
AAXX 16181 11487 01575 82511 10083 20045 39184 49779 55001 60062 72176 8652/ 333 10083 69915 82626 85640 88550 91022 91115
AAXX 16181 11518 01580 22212 10081 20045 39339 49759 53003 60052 70176 82502 333 10091 60005 82625 91122
AAXX 16181 11603 NIL
AAXX 16181 11659 01659 81606 10035 20032 39183 49806 57018 60052 72176 885// 333 10035 42001 69935 88642 91116
AAXX 16181 11723 01480 81705 10057 20034 39540 49830 58024 60042 76062 885// 333 10066 69905 82713 84715 88650 91112
AAXX 16181 11782 01680 81909 10070 20029 39525 49821 57033 60022 76162 885// 333 10077 69935 83646 88650 91016 91120
BBXX CGBN 16184 99447 70636 46/// /2511 10083 20060 49972 55015 7//// 8//// 22200 0//// 2////
BBXX CGCC 16184 99456 70735 46/// /3311 10028 21045 40147 53031 7//// 8//// 22241 00057 2////
BBXX CGBY 16184 99487 71235 46/// /1604 10073 20063 40313 55000 7//// 8//// 22200 0//// 2////
BBXX CGDT 16184 99468 70712 46/// /2103 10025 21031 40107 53055 7//// 8//// 22200 0//// 2////
BBXX VOKJ 16184 99455 70735 46/// /2707 10032 21031 40146 53025 7//// 8//// 22200 0//// 2////
BBXX VAAZ 16184 99548 70532 46/// /1731 11001 21004 49976 56057 7//// 8//// 22261 0//// 2////
BBXX C6SI6 16184 99343 11251 46/// /3616 10030 21050 40323 53009 7//// 8//// 22273 0//// 2////
BBXX CGJK 16184 99484 71234 46/// /0901 10074 20063 40314 51002 7//// 8//// 22200 0//// 2////
BBXX CGTF 16184 99476 70527 46/// /1315 10034 20019 40103 56051 7//// 8//// 22200 0//// 2////
BBXX CGBR 16184 99532 71291 46/// /2334 10039 20038 40193 53006 7//// 8//// 22281 00071 2////
BBXX VOKF 16184 99490 70669 46/// /2625 10001 21007 49982 51045 7//// 8//// 22200 0//// 2////
BBXX 3FZK3 16184 99541 71625 46/// /2519 10038 20021 49839 51038 7//// 8//// 22223 0//// 2////
BBXX VAAP 16184 99446 70636 46/// /2411 10081 20061 49974 55018 7//// 8//// 22200 0//// 2////
BBXX CGDG 16184 99447 70636 46/// /2416 10076 20087 49983 55015 7//// 8//// 22200 0//// 2////
BBXX CGSB 16184 99469 70709 46/// /2620 10024 21037 40094 53049 7//// 8//// 22200 00046 2////
BBXX VCLM 16184 99621 70709 46/// /2616 11142 21167 49933 58011 7//// 8//// 22223 01008 2////
BBXX VCWL 16184 99466 70721 46/// /2715 10000 21061 40129 53027 7//// 8//// 22213 00048 2////
BBXX VCBW 16184 99501 70607 46/// /2211 10028 20028 49907 57008 7//// 8//// 22281 00037 2////
BBXX CG2965 16184 99487 71235 46/// /1504 10071 20059 40315 55000 7//// 8//// 22200 0//// 2////
BBXX CGJV 16184 99447 70636 46/// /2510 10079 20059 49986 55014 7//// 8//// 22200 0//// 2////
AAXX 16181 01028 11570 40608 10002 21008 39858 49878 52003 69912 70186 84800 333 10022 91112
AAXX 16181 01160 41989 0//// 10046 21037 39831 49848 52007 70221 333 10057
AAXX 16181 01359 11989 02401 11103 21128 38974 49909 52014 60032 70120 333 11037 91106
AAXX 16184 97180 01458 70805 10244 20241 30052 40070 56025 60291 72196 82272 333 56000 60027 82819 84360
AAXX 16184 91413 32469 80607 10268 20241 30058 40083 57017 83272 333 56199 555 91618
AAXX 16184 91413 32469 80607 10268 20241 30058 40083 57017 83272 333 56199 555 91618
AAXX 16184 64550 32460 8//// 10270 20242 30/// 40/// 885// 333 10310 5//// 84610 88625
AAXX 16184 64551 32460 30000 10286 20244 30070 40099 83900 333 10318 58002 83815 81923 94942 95832
AAXX 16181 89061 179// 03611 10020 20007 39685 49691 57042 60063 77177 333 91016 91121
AAXX 16184 68399 16/// /1507 10232 20161 30083 40192 52013 69922 333 10313 20232 91041 555 20002 91019
AAXX 16184 60060 32956 00603 10173 20132 40272 57006 333 10194
AAXX 16184 60105 32558 72405 10145 20092 40310 51002 878// 333 10158 87620
AAXX 16184 60107 32460 63004 10131 20086 40274 58002 86800 333 10166 82816 85626 95300
AAXX 16184 60127 32660 32706 10129 20088 39685 40287 57002 83600 333 10170 83716
AAXX 16184 60141 32560 10099 20066 39633 40312 51002 83202 333 10163 83830 84073
AAXX 16184 60185 32970 30610 10159 20102 40300 56001 80002 333 10200 83070
AAXX 16184 60190 32970 22402 10160 20082 40279 55000 80002 333 10213 82071
AAXX 16184 60191 32970 20000 10150 20099 40297 56004 80002 333 10220 82073
AAXX 16184 60195 32965 32414 10127 21036 38600 48613 53004 80002 333 10188 83073 95500
AAXX 16184 60210 32970 32406 10162 21024 39073 48597 55002 80002 333 10196 83070
AAXX 16184 60265 32970 20000 10175 21078 38970 48597 56007 80002 333 10192 82070
AAXX 16184 60106 NIL
AAXX 16184 60220 NIL
AAXX 16184 60318 NIL
AAXX 16184 60096 32958 00120 10195 20128 40212 55001 333 10260
AAXX 16184 60150 32960 33103 10111 20076 39645 40310 58001 80002 333 10156 83070
AAXX 16184 60155 32465 602// 10150 20118 40300 55000 81102 333 10175 81816 86070
AAXX 16184 60101 NIL
AAXX 16184 60115 NIL
AAXX 16184 60135 NIL
AAXX 16184 60156 NIL
AAXX 16184 60230 NIL
AAXX 16184 60252 NIL
BBXX 41010 16181 99289 70785 46/// /1404 10225 40222 58019 91750 22200 00243 11003 20401 300// 41003 70016 333 91205 555 11036 22037
BBXX 41009 16181 99285 70802 46/// /1105 10236 20165 40221 58015 91750 22200 00243 11103 20401 300// 41103 70014 333 91207 555 11053 22055
BBXX 42057 16181 99168 70815 46/// /0607 10280 20202 40149 58010 91750 22200 00281 10603 20602 3//// 40702 70014 333 91208 555 11074 22078 31713 40710 61749 062073 058072 057076 055078 058079 054079 80608 91658
AAXX 16184 16045 NIL
AAXX 16184 16090 11656 80501 10070 20067 39832 49913 57043 60012 71062 885// 333 10074 84640 85650
AAXX 16184 16149 12570 61910 10160 20083 39922 49937 57042 60002 85230 333 10169 85830
AAXX 16184 16261 12560 61710 10140 20082 39984 40055 57021 60002 83550 333 10168 55300 83630 86359
AAXX 16184 16453 12597 63512 10154 20100 30099 40176 57015 60002 85550 333 10172 55300 85623 86360 555 0426/
AAXX 16184 16560 NIL
AAXX 16184 13600 11656 81810 10132 20090 30055 40107 57030 60012 71062 885// 333 10136 88640
AAXX 16184 13610 12660 51812 10108 21006 39691 40110 57014 60002 85500 333 10132 85646
AAXX 16184 13611 12662 41806 10112 20051 30056 40147 54001 60002 84500 333 10158 84633
AAXX 16184 13619 12660 50904 10084 20013 39352 42747 57022 60002 85500 333 10104 85640
AAXX 16184 13622 12665 62208 10152 20065 30107 40114 57024 60002 86400 333 10180 86640
AAXX 16184 13624 NIL
AAXX 16184 13625 12960 10000 10100 20065 39927 40158 57018 60002 80001 333 10150
AAXX 16184 13629 12668 21408 10072 20043 39068 42726 57022 60002 82500 333 10090 82643
AAXX 16184 13601 12660 61202 10118 20065 39996 40096 57019 60002 83530 333 10165 83633 83360
AAXX 16184 13602 NIL
AAXX 16184 13623 12970 50000 10110 20098 30130 40136 57006 60002 85030 333 10150 85360
AAXX 16184 16021 NIL
AAXX 16184 16022 11/00 92031 11024 21027 37589 48222 57039 69902 77174 333 11015 48014 89/00 92805 93196
AAXX 16184 16033 11420 80000 10002 21019 38529 48254 57041 60052 77077 885// 333 10002 47007 88610 92822 93101
AAXX 16184 16040 11260 83103 10038 20032 39007 42562 57030 60022 76065 888// 333 10050 81705 83813 85615
AAXX 16184 16052 12/01 92818 11094 21105 36413 47807 55001 60012 333 11078 49999 55300 89/01
AAXX 16184 16061 11/01 93004 10010 20010 39087 42567 55033 60002 74742 333 10060 89/01 90006
AAXX 16184 16098 11420 80000 10066 20049 39864 49915 57052 60072 76066 885// 333 10076 84710 86625
AAXX 16184 16138 11525 20503 10066 20060 39905 49916 56039 69902 71064 82100 333 10078 82830
AAXX 16184 16148 12765 62410 10158 20073 39910 49921 58035 60002 82470 333 10164 81656 86364
AAXX 16184 16168 12165 72139 10110 20104 39260 42640 57051 60002 84220 333 10110 84803 87457
AAXX 16184 16172 11456 81923 10128 20107 39692 49983 58040 69962 76162 888// 333 10142 82819 85624 91035
AAXX 16184 16179 11570 81940 10110 20069 39258 42581 57032 69902 76062 8527/ 333 10120 85828 83358
AAXX 16184 16224 12462 71814 10142 20104 39716 40026 57038 60002 83270 333 10146 83814 83357
AAXX 16184 16232 12597 71913 10170 20037 39970 40022 57032 60002 84280 333 10176 84826 85358 555 0////
AAXX 16184 16245 12465 82018 10166 20128 30016 40042 57043 60002 8387/ 333 10174 82810 83630 85358
AAXX 16184 16253 12560 52417 10150 20108 30066 40078 57033 60002 83230 333 10172 83820 83357
AAXX 16184 16258 12470 82022 10072 20031 39070 42686 57026 60002 8355/ 333 10090 83613 85356
AAXX 16184 16263 12366 72324 10068 20041 38808 48384 55029 60002 87800 333 10076 82806 86610
AAXX 16184 16294 NIL
AAXX 16184 16337 12497 82124 10116 20099 39559 40126 57028 60002 884// 333 10128 88610 555 0////
AAXX 16184 16344 11/00 92440 10020 20020 38250 48436 55020 69922 74564 333 10030 89/00 95090 95190
AAXX 16184 16434 11/00 92111 10062 20061 38959 48463 57019 60002 74542 333 10100 89/00 95090 95190
AAXX 16184 16450 11/00 90310 10090 20090 39058 48525 56022 60002 74711 333 10124
AAXX 16184 16459 NIL
AAXX 16184 16546 NIL
AAXX 16184 16564 12497 82140 10162 20127 39950 40089 57019 60002 8387/ 333 10176 82816 83630 86356 555 0////
AAXX 16184 89642 40/// /2123 11089 21165 39809 49864 53011 333 02039 91037
AAXX 16184 16008 NIL
AAXX 16184 16084 11013 83408 10030 20012 39749 49916 57019 69902 72864 886// 333 10030 81701 83703 85708
AAXX 16184 16088 11550 73201 10063 20057 39804 49921 57030 60022 71062 87800 333 10064 83824 84634
AAXX 16184 16110 11497 81609 10120 20104 39920 49924 57036 60042 76162 887// 333 10130 82710 86625 555 0////
AAXX 16184 16134 11/00 92025 10010 20001 37578 48242 57004 60042 76676 333 10010 44004 89/00 92710 92845 95090 95190
AAXX 16184 16153 12898 32431 10138 20084 39660 49916 57028 60002 83030 333 10152 83358 555 0////
AAXX 16184 16158 11550 82427 10146 20128 39960 49968 57030 60012 76062 888// 333 10164 83820 85630
AAXX 16184 16206 12565 82030 10154 20141 39974 49983 57046 60002 83225 333 10160 83820 85459
AAXX 16184 16219 41/00 91944 11018 21018 37998 48389 58034 6///2 76364 333 10004 89/00 95090 95190
AAXX 16184 16252 11568 71915 10100 20044 39113 42683 57012 69902 70262 84270 333 10114 84820 84357
AAXX 16184 16280 12497 72325 10150 20137 39842 40060 57041 60002 84130 333 10154 84815 86356 555 0////
AAXX 16184 16310 12597 82219 10140 20115 39884 40103 57033 60002 8257/ 333 10154 82625 83357 555 0////
AAXX 16184 16320 12560 72013 10140 20100 30092 40104 57026 60002 82231 333 10168 82830 83358 555 0////
AAXX 16184 16325 12597 72013 10160 20124 30067 40081 57024 60002 84510 333 10170 84630 83458 98065 555 0////
AAXX 16184 16360 12897 62117 10152 20098 39987 40120 57021 60002 83034 333 10168 83358 91027 555 0////
AAXX 16184 16400 12497 72122 10144 20091 39839 40125 57031 60002 87270 333 10172 55300 87815 555 0765/
AAXX 16184 16420 NIL
AAXX 16184 16429 12562 62012 10136 20087 30135 40146 56026 60002 83274 333 10174 83820 84358
AAXX 16184 16470 12760 52120 10158 20112 39931 40165 57027 60002 84071 333 10162 55300 22/// 84356 95000
AAXX 16184 16480 12498 62812 10156 20099 30098 40159 57013 60002 83201 333 10186 83815 555 0////
AAXX 16184 16522 12497 62522 10156 20131 39799 40038 57022 60002 86200 333 10164 55300 86818 555 0////
AAXX 16184 16539 NIL
AAXX 16184 16550 12697 62419 10164 20079 39868 40044 57025 60002 82108 333 10164 82840 555 0////
AAXX 16181 11812 36/// /1806 10045 20044 39177 42519 57038 333 10045
AAXX 16181 11813 11375 72005 10071 20052 39518 49856 57035 60042 72162 8157/ 333 10071 81709 87358
AAXX 16181 11816 11570 81906 10088 20054 39698 49856 57036 60052 72162 8257/ 333 10089 82624 88460
AAXX 16181 11819 16/// /1406 10062 20052 39655 49866 57047 60042 333 10068
AAXX 16181 11826 11570 81408 10066 20049 39674 49868 57037 60052 76122 885// 333 10067 85630 88650
AAXX 16181 11841 11560 89902 10038 20023 39509 49878 56029 60082 76122 885// 333 10074 88623
AAXX 16181 11855 11470 81508 10071 20051 39723 49884 57038 60072 76122 885// 333 10072 83713 88633
AAXX 16181 11856 16/// /1409 10050 20041 39585 49897 57043 60072 333 10058
AAXX 16181 11858 11565 81607 10079 20048 39740 49887 57036 60042 70262 885// 333 10079 88630
AAXX 16181 11867 11560 83405 10032 20012 39582 49894 57034 60032 76166 885// 333 10068 88625
AAXX 16181 11880 11510 89902 10070 20053 39737 49904 57042 60042 76066 885// 333 10082 88623
AAXX 16181 11900 16/// /0603 10037 20024 39580 49910 57041 60032 333 10054
AAXX 16181 11903 11261 83303 10022 20020 39544 49922 57030 60052 76166 885// 333 10042 81705 83709 88615
AAXX 16181 11916 11/00 92226 11068 21082 37680 48188 56017 60042 77343 333 11068 44026 89/00 91138 92982 93598 96049
AAXX 16181 11918 11570 82012 10041 21007 39069 42531 57031 69902 76182 8557/ 333 10065 85623 88459 91023
AAXX 16181 11927 11463 89902 10055 20045 39666 49923 57044 60042 76122 885// 333 10063 84714 88624
AAXX 16181 11930 11/00 92716 11088 21088 37113 47762 55016 60062 77742 333 11082 48042 89/00 91024 91132 93515 96049
AAXX 16181 11933 11/11 89901 11018 21024 38421 48248 56027 69992 77184 887// 333 10027 44030 817// 87703 444 17//1
AAXX 16181 11934 11460 81803 10017 21007 39103 42565 57034 69902 77172 885// 333 10047 82710 88623
AAXX 16181 11938 11220 82408 11006 21010 38869 42565 57029 60022 77122 887// 333 10009 44008 88705 91120
AAXX 16181 11952 16/// /1802 10007 21002 39096 42567 57032 69932 333 10045
AAXX 16181 11958 36/// /1814 11026 21031 38500 48246 57028 333 11010
AAXX 16181 11968 11464 82010 10045 20025 39665 49942 57039 69922 76122 885// 333 10066 87712 88630
AAXX 16181 11976 11561 81605 10036 20023 39676 49937 57035 69922 76022 885// 333 10077 88626 91012
AAXX 16181 11978 12562 81608 10048 20027 39823 49952 57037 60002 885// 333 10087 88626
AAXX 16181 11993 11562 81906 10042 20029 39739 49954 57037 69952 76162 885// 333 10080 84625 88632 91013
BBXX DBLK 16181 99685 50033 41498 71108 11006 21022 49709 52028 71582 86841 22242 05019 ICE 35892
AAXX 16184 60285 32960 03610 10160 20151 40264 55000 333 10248
AAXX 16184 60340 NIL
AAXX 16181 89061 179// 03611 10020 20007 39685 49691 57042 60063 77177 333 91016 91121
BBXX 46001 16181 99563 71480 46/// /2011 10051 40005 54000 91750 22200 00050 11413 20704 300// 41412 70063 333 91215 555 11120 22128 31749 42115 61749 195112 193107 194104 195108 193096 195097
BBXX 46012 16181 99374 71229 46/// /0104 10109 40249 51010 91750 22200 00111 11104 20401 330// 41104 70022 333 91204 555 11040 22042 31741 43605 61749 008038 007035 009030 011030 004028 010025
BBXX 46026 16181 99378 71228 46/// /0401 10102 40252 51011 91750 22200 00114 11004 20301 330// 41004 70018 333 91202 555 11010 22010 31653 43104 61749 026010 326011 354008 326015 301021 293027
BBXX 46028 16181 99357 71219 46/// /3301 10124 40227 52006 91750 22200 00135 11105 20401 330// 41105 70024 333 91201 555 11006 22006 31710 43103 61749 333005 353009 342014 316017 324017 341020
BBXX CG2958 16184 99489 71234 46/// /1511 10078 20076 40320 56003 7//// 8//// 22282 0//// 2////
BBXX CGBY 16184 99487 71235 46/// /1604 10073 20063 40313 55000 7//// 8//// 22200 0//// 2////
BBXX CGDR 16184 99494 71263 46/// /0206 10081 20081 40288 53003 7//// 8//// 22200 0//// 2////
BBXX CGJK 16184 99484 71234 46/// /0901 10074 20063 40314 51002 7//// 8//// 22200 0//// 2////
BBXX KIYI 16184 99546 71376 41498 82512 10063 20040 40105 54000 7//22 886// 22275 0//// 20102 3//// 4//// 5//// 6//// 80050 ICE /////
BBXX KRGB 16184 99400 71365 41/97 81817 10144 20120 40270 54000 7//22 88/// 22214 00122 21204 329// 41505 5//// 6//// 80133 ICE /////
BBXX LEQZ3 16183 99534 71474 41296 82024 10060 20040 40060 50010 78165 88743 22272 00120 80050
BBXX WCX8812 16184 99410 71437 41695 81939 10150 20140 40130 54000 75252 8862/ 22224 00150 20410 31829 40910 5//// 6//// 80145 ICE /////
AAXX 16181 76040 32960 43204 10131 20066 30169 40183 52011 84300 91745 333 10178 20078 30/// 56300 59039 84377 98660
AAXX 16181 76055 32880 33211 10166 21001 30138 40157 52007 83030 91740 333 10187 20062 30/// 56060 59045 83357
AAXX 16181 76061 32981 00402 10128 20075 30100 40176 52010 91740 333 10130 20070 30/// 59054
AAXX 16181 76113 32980 01701 10140 20052 39668 40150 52002 91745 333 10148 20032 30/// 59050
AAXX 16181 76122 32970 11404 10082 21003 38566 40241 52011 81030 91750 333 10086 21010 30/// 56090 58016
AAXX 16181 76225 32960 20701 10103 21020 38670 40239 52010 80008 91745 333 10103 21012 30/// 56005 58039 84270
AAXX 16181 76256 32980 00000 10158 20070 30165 40179 52013 91745 333 10163 20043 30/// 59025
AAXX 16181 76258 32970 01104 10192 20071 30119 40165 52006 91750 333 10196 20044 30/// 59015
AAXX 16181 76305 32970 01402 10208 20094 30157 40165 52011 91750 333 10223 20081 30/// 59032
AAXX 16181 76323 32970 73601 10095 20007 38305 40299 52015 82038 91755 333 10100 20003 30/// 56055 58048 82358
AAXX 16181 76342 31460 80602 10106 20088 39577 40302 52018 70222 887// 91750 333 10134 20102 30/// 561// 58085 88710
AAXX 16181 76390 31950 03505 10141 20098 38263 40204 52009 70544 91730 333 10154 20070 30/// 58034
AAXX 16181 76393 31410 83601 10140 20106 39655 40241 52013 70422 887// 91751 333 10144 20136 30/// 569// 58081 88714
AAXX 16181 76402 31558 40000 10192 20116 30114 40172 52008 70544 84700 91745 333 10194 20056 30/// 56500 59025 84727
AAXX 16181 76423 32984 31401 10190 20038 38164 40193 57001 80004 91748 333 10216 20028 30/// 56009 58016 82067 81267
AAXX 16181 76458 32570 22603 10214 20162 30161 40165 52004 82100 91740 333 10238 20122 30/// 563// 59006 81822 81621
AAXX 16181 76471 32980 02105 10191 20029 37705 40155 52002 91750 333 10195 20040 30/// 58010
AAXX 16181 76491 32560 83602 10192 20171 39844 40237 52012 885// 91750 333 10203 20145 30/// 569// 58071 88630
AAXX 16181 76499 32457 83403 10210 20183 30186 40208 52016 886// 91740 333 10220 20182 30/// 568// 58085 88715
AAXX 16181 76519 32560 32701 10210 20024 38381 40225 54000 80001 917555 333 10213 20040 30/// 56006 58008 83070
AAXX 16181 76525 32980 11605 10143 20016 37489 40148 52005 80001 91740 333 10143 20092 30/// 56//5 58011 81080
AAXX 16181 76539 31962 01501 10172 20093 38186 40218 52001 70544 91745 333 10192 20050 30/// 58020
AAXX 16181 76543 31570 43604 10283 20213 30176 40209 51007 70544 82130 91740 333 10283 20201 30/// 56330 58045 82834
AAXX 16181 76548 32470 70803 10252 20215 30196 40206 50008 83230 91740 333 10255 20220 31/// 56250 58046 83815 84357
AAXX 16181 76556 32970 10401 10256 20121 39124 40156 50007 80001 91732 333 10263 20123 30/// 56004 59005 81070
AAXX 16181 76571 31970 30000 10200 20017 38184 40207 56002 705// 80004 91750 333 10240 20050 30/// 56005 58010
AAXX 16181 76577 32570 22303 10202 20154 38059 40179 58002 81405 91740 333 10208 20088 30/// 56105 58007 81624
AAXX 16181 76581 32970 60502 10224 20153 39066 40169 57003 86020 91750 333 10234 20154 30/// 56020 58031 86460
AAXX 16181 76585 31670 30901 10251 20204 30035 40191 50005 70544 83200 91735 333 10255 20190 30/// 568// 58047 83833
AAXX 16181 76612 32662 21201 10226 20090 38489 40187 50001 81130 91750 333 10232 20072 30/// 56660 58008 81840
AAXX 16181 76625 32950 03604 10222 20053 38156 40142 50003 91740 333 10222 20110 30/// 58009
AAXX 16181 76632 31957 01502 10180 20050 37652 40145 54000 70500 91740 333 10185 20090 30/// 58009
AAXX 16181 76634 31970 03103 10200 20031 37871 40207 57005 70500 91745 333 10202 20062 30/// 56/// 58018
AAXX 16181 76644 32460 71404 10295 20193 30172 30185 56004 872/1 333 10300 20205 30/// 563// 58018 85820 82080 91005 91514
AAXX 16181 76654 31956 02301 10280 20210 30156 40160 52007 70544 91800 333 10282 20203 30/// 58009
AAXX 16181 76656 32975 10000 10244 20071 38519 40183 58006 80008 91750 333 10252 20070 30/// 56005 58007 81280
AAXX 16181 76658 31558 23202 10287 20139 39642 40149 57006 70540 81101 91746 333 10291 20171 30/// 56101 58006 81822 94002 98904
AAXX 16181 76662 32970 43001 10252 20049 38487 40184 57009 82106 91745 333 10254 20058 30/// 58015
AAXX 16181 76665 32962 01802 10223 20104 38134 40167 57005 91755 333 10234 20080 30/// 58007
AAXX 16181 76680 31956 00901 10196 20045 37767 40103 57004 70500 80000 91755 333 10202 20092 30/// 58012
AAXX 16181 76681 31950 00501 10200 20080 37793 40178 57005 70500 91745 333 10200 20040 30/// 58018
AAXX 16181 76683 32670 10601 10214 20061 37842 40222 56010 81100 91745 333 10220 20032 30/// 56200 58014 81840
AAXX 16181 76685 31950 02101 10216 20034 37881 40168 57003 70544 91745 333 10218 20055 30/// 58012
AAXX 16181 76687 31560 61601 10192 20131 38715 40222 52010 70211 86500 91737 333 10205 20095 30/// 563// 58031 86622
AAXX 16181 76692 31556 83602 10250 20204 30165 40184 50008 70342 8552/ 91745 333 10271 20216 30/// 5611/ 58026 81820 84530 83456
AAXX 16181 76695 32460 20603 10290 20220 30159 40164 57006 81100 91750 333 10302 20206 30/// 562// 58020 82817
AAXX 16181 76698 32560 40601 10288 20227 30173 40184 57004 82210 91750 333 10305 20188 30/// 5610/ 58020 82820
AAXX 16181 76737 31480 30201 10212 20148 38805 40202 50006 70300 83200 91735 333 10223 20092 30/// 56200 58029 83813 91105 91516
AAXX 16181 76750 32560 60603 10296 20218 30162 40172 57005 81112 91750 333 10308 20195 30/// 56116 58017 81820 84270
AAXX 16181 76762 32504 13201 10282 20230 38768 40200 54000 81200 91740 333 10283 20124 30/// 56100 58015 81830
AAXX 16181 76773 31968 00301 10246 20070 38435 40186 57010 7054/ 91745 333 10252 20055 30/// 58006
AAXX 16181 76775 31965 00701 10262 20083 38532 40174 57002 70200 91740 333 10310 20102 30/// 58007
AAXX 16181 76805 32970 02301 10295 20220 30129 40132 58005 91750 333 10314 20218 30/// 58006
AAXX 16181 76833 32970 03603 10322 20279 30128 40130 57006 91745 333 10322 20232 30/// 58012 92001
AAXX 16181 76840 32550 10304 10324 20210 30071 40126 57003 81200 91740 333 10338 20215 30/// 56800 58014 81827
AAXX 16181 76843 32565 50000 10271 20186 39505 40147 57005 84201 91742 333 10279 20192 30/// 569/9 58018 84827
AAXX 16181 76845 32460 60702 10188 20144 37960 40190 56008 86400 91750 333 10208 20077 30/// 56200 58016 84620 82717
AAXX 16181 76903 31680 32201 10304 20228 39999 40129 58010 70122 83200 91755 333 10348 20224 30/// 56100 58018 83833
AAXX 16181 76160 32962 01401 10136 20081 39915 40170 52007 91730 333 10136 20040 30/// 59029
AAXX 16181 76243 32372 83504 10122 20086 39978 40279 52019 886// 91740 333 10126 20102 30/// 568// 58093 88714
AAXX 16181 76253 32482 30902 10166 20084 30083 40173 53013 83100 91759 333 10175 20110 30/// 56500 59038 83820 92001
AAXX 16181 76405 32880 42201 10205 20139 30156 40176 50008 84030 91750 333 10205 20112 30/// 56050 59015 84357
AAXX 16181 76412 31966 32201 10184 20135 30125 40170 57012 70544 83050 91750 333 10190 20095 30/// 56050 59025 83357
AAXX 16181 76640 31458 70902 10262 20236 30198 40209 52010 70222 8372/ 91740 333 10276 20212 31/// 5619/ 58044 83715 84440
AAXX 16181 76647 32570 70903 10288 20207 30163 40193 58002 8423/ 91750 333 10292 20187 30/// 562// 58020 84833 83358
AAXX 16181 76741 31470 50503 10266 20245 30144 40162 52009 70544 83230 91730 333 10273 20230 30/// 5611/ 58026 83814
AAXX 16181 76743 31457 70501 10278 20240 30155 40163 57001 70211 8725/ 91745 333 10300 20215 30/// 5620/ 86815 81356
AAXX 16181 76855 32580 31801 10308 20234 30074 40123 50005 82230 91740 333 10314 20210 30/// 56990 58013 82820 92000
AAXX 16183 64501 32258 42008 10267 20240 3//// 4//// 84500 333 10283 5//// 82606 84626
AAXX 16181 45007 12557 70408 10157 20045 30247 40257 53002 60001 875// 333 58028 81630 83635
AAXX 16184 48601 11558 70104 10258 20233 30088 40092 69901 70562 82538 333 82625 84364 87276
AAXX 16184 48615 11456 80615 10267 20241 30095 40101 69961 76062 8352/ 333 81710 83620 88468
AAXX 16184 48620 11358 70000 10240 20236 30082 40091 69921 76096 85648 333 82707 83629 87276
AAXX 16184 48647 11458 71702 10262 20245 30061 40086 60001 71322 81951 333 81917 85364
AAXX 16184 48657 11240 83504 10244 20240 30078 40096 60041 76196 85517 333 82705 84623 88276
AAXX 16184 48665 11564 70305 10248 20235 30087 40097 60041 70162 81572 333 81628 86364
AAXX 16184 96413 11057 71102 10246 20243 30061 40088 69961 76162 8457/ 333 81701 84620 87365
AAXX 16184 96421 12468 70801 10239 20234 30049 40085 60001 8357/ 333 83618 87365
AAXX 16184 96441 11264 81304 10242 20234 30050 40077 60061 76166 8552/ 333 81705 84616 88464
AAXX 16184 96449 11465 71402 10246 20241 30052 40071 69921 70262 8357/ 333 83614 87365
AAXX 16184 96465 12465 71202 10255 20242 30036 40069 60001 82878 333 82812 83364 87279
AAXX 16184 96471 12468 71103 10239 20224 30063 40066 60001 82848 333 81814 83364 87277
AAXX 16184 96481 12462 73506 10255 20225 30045 40064 60001 82841 333 82817 86080
AAXX 16184 96491 11356 83004 10243 20239 30055 40067 6///1 76162 84847 333 82708 83635 88276
AAXX 16181 45007 12557 70408 10157 20045 30247 40257 53002 60001 875// 333 58028 81630 83635
AAXX 16181 11423 01280 72712 10030 20028 38927 42456 50016 60182 76176 875// 333 10042 43010 60015 81704 87607 91022 91122
AAXX 16181 11603 01462 81306 10036 20021 39288 49756 56024 60152 76076 885// 333 10036 44003 60025 83613 87622 91116
BBXX VXKF 16184 99469 70598 46/// /2025 10076 20069 49916 56067 7//// 8//// 22254 0//// 2////
BBXX VOLG 16184 99/// ///// 46/// /2135 10057 20053 40045 58074 7//// 8//// 22200 0//// 2////
AAXX 16181 76040 32960 43204 10131 20066 30169 40183 52011 84300 91745333 10178 20078 30/// 56300 59039 84377 98660
AAXX 16181 76055 32880 33211 10166 21001 30138 40157 52007 83030 91740333 10187 20062 30/// 56060 59045 83357
AAXX 16181 76061 32981 00402 10128 20075 30100 40176 52010 91740 33310130 20070 30/// 59054
AAXX 16181 76113 32980 01701 10140 20052 39668 40150 52002 91745 33310148 20032 30/// 59050
AAXX 16181 76122 32970 11404 10082 21003 38566 40241 52011 81030 91750333 10086 21010 30/// 56090 58016
AAXX 16181 76225 32960 20701 10103 21020 38670 40239 52010 80008 91745333 10103 21012 30/// 56005 58039 84270
AAXX 16181 76256 32980 00000 10158 20070 30165 40179 52013 91745 33310163 20043 30/// 59025
AAXX 16181 76258 32970 01104 10192 20071 30119 40165 52006 91750 33310196 20044 30/// 59015
AAXX 16181 76305 32970 01402 10208 20094 30157 40165 52011 91750 33310223 20081 30/// 59032
AAXX 16181 76323 32970 73601 10095 20007 38305 40299 52015 82038 91755333 10100 20003 30/// 56055 58048 82358
AAXX 16181 76342 31460 80602 10106 20088 39577 40302 52018 70222 887//91750 333 10134 20102 30/// 561// 58085 88710
AAXX 16181 76390 31950 03505 10141 20098 38263 40204 52009 70544 91730333 10154 20070 30/// 58034
AAXX 16181 76393 31410 83601 10140 20106 39655 40241 52013 70422 887//91751 333 10144 20136 30/// 569// 58081 88714
AAXX 16181 76402 31558 40000 10192 20116 30114 40172 52008 70544 8470091745 333 10194 20056 30/// 56500 59025 84727
AAXX 16181 76423 32984 31401 10190 20038 38164 40193 57001 80004 91748333 10216 20028 30/// 56009 58016 82067 81267
AAXX 16181 76458 32570 22603 10214 20162 30161 40165 52004 82100 91740333 10238 20122 30/// 563// 59006 81822 81621
AAXX 16181 76471 32980 02105 10191 20029 37705 40155 52002 91750 33310195 20040 30/// 58010
AAXX 16181 76491 32560 83602 10192 20171 39844 40237 52012 885// 91750333 10203 20145 30/// 569// 58071 88630
AAXX 16181 76499 32457 83403 10210 20183 30186 40208 52016 886// 91740333 10220 20182 30/// 568// 58085 88715
AAXX 16181 76519 32560 32701 10210 20024 38381 40225 54000 80001 917555 333 10213 20040 30/// 56006 58008 83070
AAXX 16181 76525 32980 11605 10143 20016 37489 40148 52005 80001 91740333 10143 20092 30/// 56//5 58011 81080
AAXX 16181 76539 31962 01501 10172 20093 38186 40218 52001 70544 91745333 10192 20050 30/// 58020
AAXX 16181 76543 31570 43604 10283 20213 30176 40209 51007 70544 8213091740 333 10283 20201 30/// 56330 58045 82834
AAXX 16181 76548 32470 70803 10252 20215 30196 40206 50008 83230 91740333 10255 20220 31/// 56250 58046 83815 84357
AAXX 16181 76556 32970 10401 10256 20121 39124 40156 50007 80001 91732333 10263 20123 30/// 56004 59005 81070
AAXX 16181 76571 31970 30000 10200 20017 38184 40207 56002 705// 8000491750 333 10240 20050 30/// 56005 58010
AAXX 16181 76577 32570 22303 10202 20154 38059 40179 58002 81405 91740333 10208 20088 30/// 56105 58007 81624
AAXX 16181 76581 32970 60502 10224 20153 39066 40169 57003 86020 91750333 10234 20154 30/// 56020 58031 86460
AAXX 16181 76585 31670 30901 10251 20204 30035 40191 50005 70544 8320091735 333 10255 20190 30/// 568// 58047 83833
AAXX 16181 76612 32662 21201 10226 20090 38489 40187 50001 81130 91750333 10232 20072 30/// 56660 58008 81840
AAXX 16181 76625 32950 03604 10222 20053 38156 40142 50003 91740 33310222 20110 30/// 58009
AAXX 16181 76632 31957 01502 10180 20050 37652 40145 54000 70500 91740333 10185 20090 30/// 58009
AAXX 16181 76634 31970 03103 10200 20031 37871 40207 57005 70500 91745333 10202 20062 30/// 56/// 58018
AAXX 16181 76644 32460 71404 10295 20193 30172 30185 56004 872/1 33310300 20205 30/// 563// 58018 85820 82080 91005 91514
AAXX 16181 76654 31956 02301 10280 20210 30156 40160 52007 70544 91800333 10282 20203 30/// 58009
AAXX 16181 76656 32975 10000 10244 20071 38519 40183 58006 80008 91750333 10252 20070 30/// 56005 58007 81280
AAXX 16181 76658 31558 23202 10287 20139 39642 40149 57006 70540 8110191746 333 10291 20171 30/// 56101 58006 81822 94002 98904
AAXX 16181 76662 32970 43001 10252 20049 38487 40184 57009 82106 91745333 10254 20058 30/// 58015
AAXX 16181 76665 32962 01802 10223 20104 38134 40167 57005 91755 33310234 20080 30/// 58007
AAXX 16181 76680 31956 00901 10196 20045 37767 40103 57004 70500 8000091755 333 10202 20092 30/// 58012
AAXX 16181 76681 31950 00501 10200 20080 37793 40178 57005 70500 91745333 10200 20040 30/// 58018
AAXX 16181 76683 32670 10601 10214 20061 37842 40222 56010 81100 91745333 10220 20032 30/// 56200 58014 81840
AAXX 16181 76685 31950 02101 10216 20034 37881 40168 57003 70544 91745333 10218 20055 30/// 58012
AAXX 16181 76687 31560 61601 10192 20131 38715 40222 52010 70211 8650091737 333 10205 20095 30/// 563// 58031 86622
AAXX 16181 76692 31556 83602 10250 20204 30165 40184 50008 70342 8552/91745 333 10271 20216 30/// 5611/ 58026 81820 84530 83456
AAXX 16181 76695 32460 20603 10290 20220 30159 40164 57006 81100 91750333 10302 20206 30/// 562// 58020 82817
AAXX 16181 76698 32560 40601 10288 20227 30173 40184 57004 82210 91750333 10305 20188 30/// 5610/ 58020 82820
AAXX 16181 76737 31480 30201 10212 20148 38805 40202 50006 70300 8320091735 333 10223 20092 30/// 56200 58029 83813 91105 91516
AAXX 16181 76750 32560 60603 10296 20218 30162 40172 57005 81112 91750333 10308 20195 30/// 56116 58017 81820 84270
AAXX 16181 76762 32504 13201 10282 20230 38768 40200 54000 81200 91740333 10283 20124 30/// 56100 58015 81830
AAXX 16181 76773 31968 00301 10246 20070 38435 40186 57010 7054/ 91745333 10252 20055 30/// 58006
AAXX 16181 76775 31965 00701 10262 20083 38532 40174 57002 70200 91740333 10310 20102 30/// 58007
AAXX 16181 76805 32970 02301 10295 20220 30129 40132 58005 91750 33310314 20218 30/// 58006
AAXX 16181 76833 32970 03603 10322 20279 30128 40130 57006 91745 33310322 20232 30/// 58012 92001
AAXX 16181 76840 32550 10304 10324 20210 30071 40126 57003 81200 91740333 10338 20215 30/// 56800 58014 81827
AAXX 16181 76843 32565 50000 10271 20186 39505 40147 57005 84201 91742333 10279 20192 30/// 569/9 58018 84827
AAXX 16181 76845 32460 60702 10188 20144 37960 40190 56008 86400 91750333 10208 20077 30/// 56200 58016 84620 82717
AAXX 16181 76903 31680 32201 10304 20228 39999 40129 58010 70122 8320091755 333 10348 20224 30/// 56100 58018 83833
AAXX 16181 76160 32962 01401 10136 20081 39915 40170 52007 91730 33310136 20040 30/// 59029
AAXX 16181 76243 32372 83504 10122 20086 39978 40279 52019 886// 91740333 10126 20102 30/// 568// 58093 88714
AAXX 16181 76253 32482 30902 10166 20084 30083 40173 53013 83100 91759333 10175 20110 30/// 56500 59038 83820 92001
AAXX 16181 76405 32880 42201 10205 20139 30156 40176 50008 84030 91750333 10205 20112 30/// 56050 59015 84357
AAXX 16181 76412 31966 32201 10184 20135 30125 40170 57012 70544 8305091750 333 10190 20095 30/// 56050 59025 83357
AAXX 16181 76640 31458 70902 10262 20236 30198 40209 52010 70222 8372/91740 333 10276 20212 31/// 5619/ 58044 83715 84440
AAXX 16181 76647 32570 70903 10288 20207 30163 40193 58002 8423/ 91750333 10292 20187 30/// 562// 58020 84833 83358
AAXX 16181 76741 31470 50503 10266 20245 30144 40162 52009 70544 8323091730 333 10273 20230 30/// 5611/ 58026 83814
AAXX 16181 76743 31457 70501 10278 20240 30155 40163 57001 70211 8725/91745 333 10300 20215 30/// 5620/ 86815 81356
AAXX 16181 76855 32580 31801 10308 20234 30074 40123 50005 82230 91740333 10314 20210 30/// 56990 58013 82820 92000
AAXX 16184 63980 11475 42102 10261 20241 40103 60052 84902 333 10316 59015 81913 84815 943// 91119
AAXX 16184 86011 32670 42310 10356 20177 39924 40078 57018 83870 333 83840 82358
AAXX 16184 86033 32670 31804 10364 20074 39988 40080 57014 82230 333 82834 81358
AAXX 16184 86065 32670 30504 10330 20134 39858 40088 57018 82102 333 82840 81070
AAXX 16184 86068 32670 52706 10332 20173 39892 40078 57022 81105 333 81840 85270
AAXX 16184 86086 32970 61804 10326 20156 39995 40082 57013 80006 333 86270
AAXX 16184 86097 32670 82808 10300 20110 39445 40067 57018 82107 333 82833 88270
AAXX 16184 86128 32670 31806 10326 20136 39967 40076 57022 83100 333 83840
AAXX 16184 86134 32570 42704 10328 20132 39988 40072 57017 82105 333 82833 82270
AAXX 16184 86170 32670 42512 10310 20143 39963 40063 57015 83101 333 83840 82070
AAXX 16184 86185 32570 41808 10312 20147 39984 40075 57017 84500 333 84633
AAXX 16184 86192 32870 52304 10304 20132 39867 40080 57021 85070 333 85357
AAXX 16184 86210 32670 62704 10284 20125 39723 40057 57018 83205 333 83840 86270
AAXX 16184 86218 32570 62315 10306 20127 39981 40075 57015 85202 333 85833 83070
AAXX 16184 86221 32570 52104 10302 20154 39965 40096 57016 85800 333 85830
AAXX 16184 86233 32670 41804 10298 20174 39903 40088 56012 84100 333 84840
AAXX 16184 86234 32570 62305 10300 20129 39851 40030 58009 84504 333 86630 84070
AAXX 16184 86246 32570 63206 10290 20161 39799 40069 57001 86204 333 86830
AAXX 16184 86251 32570 62308 10292 20143 39893 40056 57021 86800 333 84633 82840 82840
AAXX 16184 86255 32670 41802 10286 20185 30008 40074 57014 83204 333 83840 80008
AAXX 16184 86260 32570 60000 10314 20178 39920 40069 56008 86800 333 84620 82830
AAXX 16184 86268 32670 52908 10300 20155 39901 40061 57027 85200 333 85840
AAXX 16184 86285 32670 52708 10292 20179 39790 40065 56010 85200 333 85840
AAXX 16184 86297 32570 62305 10298 20194 39950 40052 57006 84806 333 84827 84270
AAXX 16181 37682 32997 33001 11114 21120 38139 48543 57013 83030 333 11029
AAXX 16181 37717 325// 10000 11030 21088 38127 48499 54000 81500 333 10017
AAXX 16181 37788 41495 62402 11029 21056 39252 40293 52001 71022 866// 333 11013 86717
AAXX 16184 16459 12564 62608 10140 20106 30119 40154 56012 60002 82141 333 10204 82825 83360
AAXX 16184 71805 01318 81931 10064 20061 30011 40020 56043 60082 76166 887// 333 10064 20029 60037 87706 91042 90710 91148 93100 555 69985
BBXX BATFR52 16184 99498 70039 46/// /2743 10075 20025 40010 50011 22284 00124
AAXX 16184 16539 12597 82525 10158 20150 39981 40093 57027 60002 882// 333 10164 84620 84356 555 0////
AAXX 16184 81401 06/// /0606 10310 20236 30077 40083 60001 333 60007 58010 555 60005
AAXX 16184 81408 06/// /1009 10292 20229 30078 40086 69921 333 69927 58004 555 60005
BBXX BATFR60 16184 99521 10031 46/// /3122 10059 20034 49875 53038 22213 00094
AAXX 16184 16420 12597 50000 10150 20092 30081 40145 57018 69902 82501 333 10190 82620 555 0////
AAXX 16184 91503 31470 70000 10250 20244 40059 5//// 70522 81237 333 56999 81816 87280
AAXX 16184 91517 01470 81804 10246 20226 40071 56006 60031 71598 8497/ 333 56999 60017 82815 81916 83626 88460
AAXX 16184 91503 31470 70000 10250 20244 40059 5//// 70522 81237 333 56999 81816 87280
AAXX 16184 91517 01470 81804 10246 20226 40071 56006 60031 71598 8497/ 333 56999 60017 82815 81916 83626 88460
AAXX 16184 61968 16/// /3003 10282 20236 40101 60002 333 10318 59016 90710 91108 555 60005
AAXX 16184 61970 16/// ///// 10295 20253 40110 60002 333 10332 58000 555 60005
AAXX 16184 61972 16/// /2106 10278 20242 40116 60002 333 10327 59002 90710 91112 555 60005
AAXX 16184 61980 11559 61217 10235 20192 40125 69922 71581 85802 333 10292 59017 83823 83650 90710 91122 924/7 555 60005
AAXX 16184 67005 14/// /2605 10274 20241 40101 60002 700// 333 10314 59012 90710 91107 555 60005
AAXX 16184 85406 12980 02113 10232 20141 40142 57005 60001
AAXX 16184 85418 12970 02318 10234 20145 40146 57006 60001
AAXX 16184 85442 12575 11814 10210 20126 40144 57006 60001 81500 333 56400 81625
AAXX 16184 85467 12960 02613 10233 20102 40157 56021 60001
AAXX 16184 85469 42465 42105 10246 20199 40217 52005 84200 333 56600 84815
AAXX 16184 85488 12568 62708 10191 20122 40174 56011 60001 86500 333 56000 86630
AAXX 16184 85864 12680 22508 10258 20098 40130 50003 60001 82100 333 56600 82840
AAXX 16184 85874 12680 23121 10232 20075 39519 40111 53004 82201 333 56600 82840 82070
AAXX 16184 85886 12670 12722 10272 20178 40102 52015 60001 81200 333 56600 81843
AAXX 16184 85892 12680 32022 10256 20068 40089 57012 60001 83200 333 56600 83840
AAXX 16184 85934 12580 71610 10142 20089 40080 52019 60001 83530 333 56440 83620 87358
AAXX 16184 85968 12660 70612 10142 20108 40042 52031 60001 87500 333 56200 87640 87266
AAXX 16184 85574 11958 02117 10224 20117 39604 40142 57008 60001 70500
AAXX 16184 85585 12598 41715 10189 20098 40209 54000 60001 84100 333 56400 84830
AAXX 16184 85629 12565 72204 10241 20138 40156 54002 60001 87500 333 56500 82830 87640
AAXX 16184 85672 12570 52102 10237 20151 40162 53001 60001 85500 333 56600 85620
AAXX 16184 85682 12460 70113 10182 20138 40172 51004 60001 87500 333 56800 87617
AAXX 16184 85743 12560 42307 10259 20161 40151 56020 60001 81101 333 56606 81830 83070
AAXX 16184 85782 12965 09907 10246 20153 40164 57012 60001
AAXX 16184 85799 12960 01308 10209 20150 40176 58006 60001
AAXX 16181 01115 11884 11612 10044 21027 39811 49832 53010 60022 70200 81070 333 10053 91121
AAXX 16184 48601 11558 70104 10258 20233 30088 40092 69901 70562 82538 333 82625 84364 87276
AAXX 16184 48615 11456 80615 10267 20241 30095 40101 69961 76062 8352/ 333 81710 83620 88468
AAXX 16184 48620 11358 70000 10240 20236 30082 40091 69921 76096 85648 333 82707 83629 87276
AAXX 16184 48647 11458 71702 10262 20245 30061 40086 60001 71322 81951 333 81917 85364
AAXX 16184 48650 11460 70303 10259 20232 30069 40088 60001 71322 82942 333 81917 84364 86078
AAXX 16184 48657 11240 83504 10244 20240 30078 40096 60041 76196 85517 333 82705 84623 88276
AAXX 16184 48665 11564 70305 10248 20235 30087 40097 60041 70162 81572 333 81628 86364
AAXX 16184 96413 11057 71102 10246 20243 30061 40088 69961 76162 8457/ 333 81701 84620 87365
AAXX 16184 96421 12468 70801 10239 20234 30049 40085 60001 8357/ 333 83618 87365
AAXX 16184 96441 11264 81304 10242 20234 30050 40077 60061 76166 8552/ 333 81705 84616 88464
AAXX 16184 96449 11465 71402 10246 20241 30052 40071 69921 70262 8357/ 333 83614 87365
AAXX 16184 96465 12465 71202 10255 20242 30036 40069 60001 82878 333 82812 83364 87279
AAXX 16184 96471 12468 71103 10239 20224 30063 40066 60001 82848 333 81814 83364 87277
AAXX 16184 96481 12462 73506 10255 20225 30045 40064 60001 82841 333 82817 86080
AAXX 16184 96491 11356 83004 10243 20239 30055 40067 6///1 76162 84847 333 82708 83635 88276
AAXX 16181 01001 11445 83414 11028 21040 39880 49892 52014 69902 77073 887// 333 11003 91126
AAXX 16181 01062 11420 80507 11008 21013 39919 49932 57002 69972 77272 887// 333 11001 91110
AAXX 16181 01205 46/// /1810 10043 21003 39787 49832 52004 333 10050 91115
AAXX 16181 01492 11480 80302 10018 20000 39751 49867 51006 60052 70222 8557/ 333 10022 91104
AAXX 16184 91573 06/// /1208 10247 20222 39997 40094 55001 60001 333 58010 60007
AAXX 16184 91579 06/// ///12 10247 20237 30078 40086 55000 60061 333 58002 60037
AAXX 16184 91583 06/// /1902 10227 20220 30083 40098 53005 60021 333 58012 60017
AAXX 16184 91587 06/// ///// 10238 20229 30050 40095 52006 60041 333 58003 60047
AAXX 16184 91590 04586 81307 10218 20195 30064 40107 55001 69942 700// 333 10226 20213 60007 90710 91115 555 60005
AAXX 16184 91592 06/// /0503 10219 20200 30028 40113 55002 60011 333 58013 69927
AAXX 16184 91596 06/// /1408 10207 20192 30000 40110 53001 69921 333 58010 69927
AAXX 16184 91577 NIL
AAXX 16184 91582 NIL
AAXX 16184 91574 46/// ///// 29080 39924 49930 58008
AAXX 16184 91570 NIL
AAXX 16184 91598 NIL
AAXX 16181 01218 11989 01506 10022 21101 39844 49865 53009 60002 70100 333 10051 91112
AAXX 16181 06206 47582 73412 10075 20008 39818 49870 53049 72385 8//// 333 10079 83/23 84/27 85/39 91013 91115 91212
AAXX 16181 06207 47475 7//11 10056 20010 39796 49849 51053 72300 8//// 333 10061 81/17 84/21 86/31 91013 91117 91213
AAXX 16181 06239 47583 5//07 10069 20019 3//// 4//// 5//// 70286 8//// 333 10071 82/21 83/25 85/71 91013 91114 91210
AAXX 16181 06252 46/// /0111 10076 20026 39832 49877 51056 222// 00101 10603 333 10077 91012 91116 91213
AAXX 16181 06260 17464 72903 10046 20031 39856 49858 51059 60052 78185 8//// 333 10050 81/14 83/23 86/35 91006 91107 91204
AAXX 16181 06270 17573 73406 10049 20030 39839 49839 51059 60032 78186 8//// 333 10056 82/21 83/26 86/35 91009 91111 91208
AAXX 16181 06290 17465 82905 10042 20032 39789 49829 51076 60162 75176 8//// 333 10042 84/10 86/13 88/15 91008 91111 91207
AAXX 16181 06201 47565 73611 10068 20027 39831 49883 51046 78100 8//// 333 10070 82/22 83/27 86/31 91014 91114 91212
AAXX 16181 06203 47776 5//08 10072 20030 39826 49877 53053 72386 8//// 333 10077 81/50 85/64 91012 91115 91211
AAXX 16181 06204 47582 43510 10077 20024 39821 49871 53053 70185 8//// 333 10078 81/26 84/64 91012 91117 91214
AAXX 16181 06205 47478 70211 10056 20018 39816 49874 53038 78085 8//// 333 10069 81/14 83/17 86/29 91015 91115 91212
AAXX 16181 06208 47579 73512 10069 20013 39782 49831 52053 70285 8//// 333 10069 81/23 83/28 85/37 91014 91117 91214
AAXX 16181 06211 47581 33110 10070 20022 39827 49882 52051 72385 8//// 333 10074 82/21 83/24 91013 91113 91211
AAXX 16181 06212 47583 73509 1//// 2//// 39799 49861 53053 70385 8//// 333 1//// 81/20 86/62 87/72 91011 91114 91212
AAXX 16181 06235 17581 73604 10055 20033 39858 49858 51060 60042 72385 8//// 333 10059 81/22 86/33 87/37 91005 91113 91207
AAXX 16181 06240 17881 63204 10044 20032 39867 49862 51058 60032 72385 8//// 333 10051 86/58 86/64 91010 91113 91209
AAXX 16181 06251 17577 73506 10061 20029 39844 49845 51057 60012 70386 8//// 333 10061 82/22 85/26 86/32 91010 91114 91209
AAXX 16181 06258 46/// /3207 333 91009 91117 91213
AAXX 16181 06269 17474 83205 10048 20031 39857 49851 51061 60072 75186 8//// 333 10048 81/13 85/35 88/46 91008 91113 91209
AAXX 16181 06280 17569 83206 10051 20031 39824 49828 53064 60072 72386 8//// 333 10053 83/21 85/26 87/37 91008 91114 91209
AAXX 16181 06310 17257 82913 10043 20028 39874 49884 51051 60102 75865 8//// 333 10055 82/06 86/11 88/13 91019 91120 91214
AAXX 16181 06344 17261 82803 10047 20040 39873 49866 51054 60072 78186 8//// 333 10054 81/06 83/17 87/20 91005 91113 91208
AAXX 16181 06370 17366 82604 10044 20033 39840 49865 51061 60102 75785 8//// 333 10044 82/07 84/10 85/29 91006 91111 91206
AAXX 16181 06380 17257 82406 10020 20012 39744 49882 51071 60052 76285 8//// 333 10113 83/05 88/06 91010 91112 91207
AAXX 16181 10384 06/// /2004 10073 20066 39602 49659 56027 60192 333 10073 20013 3/000 55300 20000 30000 60077 91115
AAXX 16181 06400 11350 82911 10043 20025 39906 49917 51049 60082 76876 875// 333 10064 82708 85614 87628 91120 91213
AAXX 16181 06428 NIL
AAXX 16181 06451 11240 82608 10010 20000 39828 49895 51062 60082 76976 877// 333 10112 83705 87706 91115 91210
AAXX 16181 06456 11206 82709 10007 20003 39550 49918 51066 60112 77176 877// 333 10108 41997 83704 86706 91117 91212
AAXX 16181 06476 17119 82708 11008 21015 39248 49912 51071 60162 77165 333 10080 84/02 88/03 91118 91211
AAXX 16181 06479 11358 82506 10032 20028 39797 49876 51065 60072 76122 885// 333 10097 81707 83711 87629 91110 91207
AAXX 16181 06490 17110 82806 11003 21011 39321 49891 51073 60152 77165 333 10089 88/02 91116 91209
AAXX 16181 06590 11365 82710 10008 20001 39453 49904 52084 60112 77086 875// 333 10093 84707 87611 91121 91212
AAXX 16181 06407 11150 73014 10038 20015 39904 49910 52052 60102 75865 877// 333 10059 82708 87714 91123 91216
AAXX 16181 06447 NIL
AAXX 16181 06431 NIL
AAXX 16181 06432 NIL
AAXX 16181 06449 11245 82607 10013 20004 39685 49913 51064 60052 76976 877// 333 10117 83704 86706 91115 91208
AAXX 16181 06450 11245 72709 10022 20006 39870 49885 52059 60162 76462 877// 333 10050 84706 87709 91115 91210
AAXX 16181 06458 NIL
AAXX 16181 06465 NIL
AAXX 16181 06478 11240 82608 10011 21001 39671 49891 51072 60072 76876 877// 333 10106 87706 91115 91210
AAXX 16181 06496 NIL
AAXX 16181 03951 17962 /3211 10078 20035 30047 40073 52063 69952 7018/ 82/// 333 10085 82/58 90710 91119
AAXX 16181 03953 11565 73309 10066 20035 30062 40099 53071 60022 78082 873// 333 10085 82925 85825 92447 90710 91126
AAXX 16181 03955 11470 53111 10054 20029 39848 40046 52055 60022 72581 85300 333 10054 85918
AAXX 16181 03956 17584 /3207 10043 20011 39938 40015 52056 69902 70185 86/// 333 10052 86/22
AAXX 16181 03962 11470 63008 10058 20036 30026 40050 52068 60032 72581 8432/ 333 10068 81918 83635 85458
AAXX 16181 03963 17550 /3315 10056 20030 30027 40056 52079 60022 7818/ 86/// 333 10075 86/24 87/59 87/74 90710 91124 91220
AAXX 16181 03966 17582 /3005 10044 20031 39940 40034 52061 69902 70386 87/// 333 10045 81/21 83/26 85/50
AAXX 16181 03967 12480 72604 10010 20002 39905 40021 52061 69912 85602 333 10035 85711 85075 92600
AAXX 16181 03969 12480 12604 10004 21001 39911 40017 53059 69902 81600 333 10031 81715
AAXX 16181 03973 11470 73205 10035 20025 39783 40039 52064 60052 72581 86932 333 10043 42002 81712 83918 85624
AAXX 16181 03976 NIL
AAXX 16181 03980 15568 /3104 10063 20027 39979 40004 52040 6//// 85/// 333 10067 84/29 85/46
AAXX 16184 17600 11565 72612 10185 20127 30167 40176 57003 69922 72582 878// 333 10199 20130 82830 85650
AAXX 16184 17601 12580 72209 10172 20102 30144 40176 56005 60002 868/2 91750 333 10193 82828 85657
AAXX 16184 17607 NIL
AAXX 16184 17609 12580 52608 10151 20099 30174 40178 54000 60002 83882 333 10196 20106 82827
AAXX 16184 41883 31/02 90000 10124 20120 30139 40161 74744 89/// 333 56999 59003 70000
AAXX 16184 41891 31/02 92302 10169 20160 30118 40158 74321 89/// 333 56999 58004 70000
AAXX 16184 41907 31910 00000 10102 20090 30150 40165 70500 333 58010 70000
OOXX AAUNI 16184 99798 50833 56093 07671 46/// /2203 11088 21165 38892 49773 57006 91800
AAXX 16184 48300 31558 50000 10183 20170 39834 40154 52004 71010 82106 333 59003
AAXX 16184 48327 32560 40000 10198 20178 39802 40165 57002 82535 333 58002
AAXX 16184 48331 NIL
AAXX 16184 48353 31650 61404 10215 20137 39879 40174 51004 70522 82535 333 58030
AAXX 16184 48356 31958 80902 10175 20136 39996 40200 52008 71021 8805/ 333 58040
AAXX 16184 48375 32960 00000 10222 20195 39911 40139 52003 333 58013
AAXX 16184 48378 31556 61002 10247 20207 30096 40149 51001 71022 82846 333 58017
AAXX 16184 48381 32960 00703 10188 20145 39955 40179 51004 333 58036
AAXX 16184 48407 32960 30204 10185 20145 30011 40156 56005 80001 333 58021
AAXX 16184 48431 32960 10502 10209 20163 39949 40167 52004 80001 333 58032
AAXX 16184 48456 NIL
AAXX 16184 48480 31557 70309 10256 20169 30114 40118 57000 70522 84556 333 58015
AAXX 16184 48500 NIL
AAXX 16184 48551 31550 60000 10240 20233 30107 40115 57003 71022 83576 333 58009 70200
AAXX 16184 48565 NIL
AAXX 16184 48569 01458 80000 10246 20230 30069 40110 57006 60403 76062 85876 333 58005 69947 70438
AAXX 16184 48583 NIL
AAXX 16184 48310 NIL
AAXX 16184 48325 31956 00000 10180 20173 39900 40150 56001 71000 333 59004
AAXX 16184 48329 31950 00000 10190 20177 39812 40158 52005 71000 333 59005
AAXX 16184 48352 31957 31005 10190 20128 39976 40183 57000 71021 83030 333 58029
AAXX 16184 48357 NIL
AAXX 16184 48380 32660 60000 10239 20216 30055 40150 57001 84506 333 58017
AAXX 16184 48383 31950 00000 10170 20125 30014 40179 56005 71000 333 58021
AAXX 16184 48403 31958 00505 10208 20160 39954 40169 52005 71000 333 58031
AAXX 16184 48405 32960 20000 10175 20134 30004 40172 57001 80005 333 58031
AAXX 16184 48420 31950 70608 10255 20173 30127 40131 56003 70522 86056 333 58017
AAXX 16184 48421 31950 20000 10215 20199 30025 40141 57005 71000 80005 333 58011
AAXX 16184 48425 NIL
AAXX 16184 48426 NIL
AAXX 16184 48429 32560 40510 10261 20162 30125 40132 57002 81135 333 58015
AAXX 16184 48430 31958 20000 10246 20163 30125 40133 56005 70500 80005 333 58020
AAXX 16184 48450 31956 30705 10256 20165 30105 40138 52001 70511 80005 333 58017
AAXX 16184 48459 32960 60603 10257 20181 30125 40128 57002 86050 333 58013
AAXX 16184 48465 NIL
AAXX 16184 48550 31558 60305 10270 20248 30102 40109 57007 71022 82246 333 58006 70027
AAXX 16184 48552 NIL
AAXX 16184 48566 32560 70000 10256 20225 30099 40107 57011 82846 333 58003 70014
AAXX 16184 48568 11459 80407 10264 20242 30098 40106 57006 60113 71062 8387/ 333 59001 70472
AAXX 16184 48565 31459 60000 10262 20237 30086 40096 57011 71022 82246 333 59003 70132
AAXX 16184 48302 NIL
AAXX 16184 48304 32565 40000 10172 20167 39699 40172 50002 82540 333 58006
AAXX 16184 48334 31956 00000 10198 20185 39785 40154 52000 71000 333 58004
AAXX 16184 48360 NIL
AAXX 16184 48372 NIL
AAXX 16184 48373 31940 20000 10225 20205 30084 40147 57003 71000 80001 333 58018
AAXX 16184 48386 31956 00000 10246 20181 30104 40148 52002 71000 333 58022
AAXX 16184 48387 31950 00000 10165 20156 39185 40160 57006 71000 333 58005
AAXX 16184 48408 32960 20302 10187 20146 30004 40157 57005 80001 333 58021
AAXX 16184 48415 31958 20620 10245 20163 30133 40145 57001 70500 80005 333 58027
AAXX 16184 48433 NIL
AAXX 16184 48437 31958 00405 10185 20141 39954 40170 57002 71000 333 58026
AAXX 16184 48440 NIL
AAXX 16184 48451 32961 20302 10251 20185 30130 40141 57002 80005 333 58020
AAXX 16184 48454 NIL
AAXX 16184 48457 NIL
AAXX 16184 48463 NIL
AAXX 16184 48464 NIL
AAXX 16184 48479 31957 50402 10250 20171 30072 40124 70511 82036 333 58008
AAXX 16184 48520 31956 40000 10240 20228 30099 40114 55005 71011 80005 333 58007
AAXX 16184 48554 01458 80000 10243 20239 30107 40111 57022 60503 71062 84827 333 58004 60187 71123
AAXX 16184 48563 32560 60507 10244 20235 30065 40101 57007 82257 333 58000 70168
AAXX 16184 48571 01558 80204 10256 20225 30095 40106 57010 60803 76022 83888 333 58003 60087 70964
AAXX 16184 48307 31950 00000 10185 20172 39787 40176 51002 71000 333 58007
AAXX 16184 48324 32960 20901 10202 20189 39930 40154 52001 80001 333 58004
AAXX 16184 48333 31958 10000 10200 20172 39862 40170 52001 71000 81040 333 58013
AAXX 16184 48350 NIL
AAXX 16184 48355 32960 70000 10170 20134 39957 40184 56002 87050 333 58021
AAXX 16184 48358 31958 50000 10152 20130 30007 40191 57004 71021 83035 333 58026
AAXX 16184 48384 31958 20000 10184 20153 39982 40178 52004 71000 80005 333 58033
AAXX 16184 48401 31550 60608 10250 20191 30048 40156 53000 71022 82576 333 58020
AAXX 16184 48404 32961 00605 10176 20131 39987 40171 55002 333 58030
AAXX 16184 48409 NIL
AAXX 16184 48419 31959 50504 10252 20179 30129 40137 56002 70511 80005 333 58021
AAXX 16184 48427 NIL
AAXX 16184 48435 NIL
AAXX 16184 48453 NIL
AAXX 16184 48458 32960 83602 10228 20175 30070 40152 52001 86036 333 58020
AAXX 16184 48474 31956 30000 10245 20194 30006 40131 57005 71020 80005 333 58013
AAXX 16184 48481 31958 73304 10258 20173 30088 40116 57006 70522 87071 333 58007
AAXX 16184 48555 NIL
AAXX 16184 48556 11558 60000 10238 20234 30082 40098 57018 60153 71022 82507 333 59006 70422
AAXX 16184 48557 31458 80000 10238 20234 30075 40110 57007 71022 85877 333 58004 70434
AAXX 16184 48560 01457 80605 10237 20228 30103 40107 56009 61123 76066 82876 333 58011 60237 71824
AAXX 16184 48574 01560 80000 10247 20237 30076 40106 57010 60293 76122 84846 333 58016 69947 70286
AAXX 16184 48581 NIL
AAXX 16184 48440 31958 00000 10222 20184 30085 40135 57001 71000 333 58018
AAXX 16181 33135 11295 81506 10056 20049 39836 40013 57007 60032 76365 8872/ 333 10075 87705
AAXX 16181 33317 11596 81803 10035 20020 39655 49989 57022 60022 71022 885// 333 10038 88621
AAXX 16181 33345 NIL
AAXX 16181 33393 12960 51307 10030 21010 39565 49953 57041 60012 85030 333 10045
AAXX 16181 33506 32597 81105 10029 20013 39891 40088 57009 885// 333 10049
AAXX 16181 33587 NIL
AAXX 16181 33631 11597 81307 10047 20027 39825 49967 57042 69932 78082 889// 333 10080 86630
AAXX 16181 33663 12497 81901 10046 20031 39930 40025 58009 60032 886// 333 10065 88713
AAXX 16181 33658 12997 20000 10018 20010 39713 40013 57021 60012 82030 333 10056
AAXX 16181 33711 11297 81508 10074 20070 39839 40046 57004 60022 78082 883// 333 10074 88706
AAXX 16181 33791 NIL
AAXX 16181 33837 11426 80000 10076 20071 39985 40036 57002 69912 70282 884// 333 10086 88710
AAXX 16181 33924 32997 61906 10108 20074 30052 40064 57005 86030 333 10111
AAXX 16181 33946 32997 81603 10078 20029 39856 40074 55008 82031 333 10142
AAXX 16181 34300 32397 81307 10015 20001 39931 40125 57012 885// 333 10027 86708
AAXX 16181 34504 32997 81506 10025 20006 39920 40100 57004 88050 333 10053
AAXX 16181 34519 31260 81309 10029 20014 39860 40137 57012 71022 886// 333 10029 88706
AAXX 16181 34601 32960 61406 10026 20020 39966 40103 57008 86030 333 10064
AAXX 16184 85703 12960 01808 10276 20141 40141 57006 60001
AAXX 16181 01033 46/// /1704 10040 21021 39831 49861 52012 333 10044 91108
AAXX 16181 01059 16/// /1304 11002 21032 39875 49884 53016 6//// 333 10016 91114
AAXX 16181 01228 46/// /2008 10038 21032 39830 49837 52008 333 10050 91113
AAXX 16181 01340 16/// /1401 11127 21136 39019 49919 52011 69992 333 11028 91102
AAXX 16181 01425 16/// /3602 11015 21020 39789 49869 52017 60002 333 10024 91103
AAXX 16181 01442 11589 50203 10013 21019 39610 49865 53016 60002 70181 84202 333 10017 91106
AAXX 16181 01135 16/// /1804 10004 21039 39712 49862 52008 60002 333 10032 91107
AAXX 16181 01192 16/// /1903 10031 21082 60002 333 10043 4/006 91108
AAXX 16181 01253 16/// /1601 11084 21091 60002 333 11045 4/027 91103
AAXX 16181 01370 16/// /3601 11058 21066 38788 49965 52009 69982 333 11049 4/029 91102
AAXX 16181 01419 16/// /0502 11029 21037 6//// 333 10002 91105
AAXX 16181 01455 16/// /3602 10009 21006 39559 49866 53012 60012 333 10010 91105
AAXX 16181 01481 16/// /3601 10018 20012 39831 49863 52007 60052 333 10023 91104
AAXX 16181 01373 11330 80000 11028 21033 39681 49883 52011 69922 77172 8572/ 333 11023 91101
AAXX 16181 01156 16/// /1307 10048 21021 39833 49843 52009 69922 333 10058 91115
AAXX 16181 01273 16/// /3501 11040 21058 39667 49864 52008 69952 333 11024 91104
AAXX 16181 01375 16/// /0000 11053 21058 6//// 333 11050 91101
AAXX 16181 01469 16/// /0000 11003 21016 39703 49874 53009 60032 333 11002 91102
AAXX 16181 01037 16/// /1502 11024 21050 39877 49882 52015 60002 333 10032 91107
AAXX 16181 01065 11689 82103 10000 21028 39739 49899 52017 60002 70222 888// 333 10004 91109
AAXX 16181 01092 46/// /2212 11007 21037 333 10004 91115
AAXX 16181 01114 16/// /3501 10010 21068 39835 49845 53009 60002 333 10056 91111
AAXX 16181 01245 11683 43001 11037 21099 39163 49867 52008 60002 70200 83540 333 11010 91108
AAXX 16181 01329 11475 70202 10005 21020 39822 49883 52011 60002 70222 84830 333 10017 91105
AAXX 16181 01337 16/// /0502 11010 21043 39823 49889 52014 60002 333 10010 91104
AAXX 16181 01344 16/// ///// 11126 21141 60002 333 11042 4/084
AAXX 16181 01364 16/// /0402 11120 21143 38766 49914 50011 60022 333 11057 4/038 91104
AAXX 16181 01389 11707 80801 11012 21017 39576 49885 52007 60012 77174 8272/ 333 11001 91103
AAXX 16181 01436 11485 23404 10024 20001 60072 70200 81361 333 10037 91107
AAXX 16184 78982 11580 60516 10301 20239 30110 40115 57020 60031 70382 83201 333 58015 60007 83820 86081
BBXX 46089 16181 99459 71258 46/// /2004 10093 20069 40321 51009 91750 22200 00097 11604 20401 328// 41604 70021 333 91206 555 11045 22047 31715 42006 61749 199044 197044 185045 197046 193048 189044
BBXX 46042 16181 99368 71224 46/// /1005 10096 40244 53008 91750 22200 00124 10905 20301 331// 40905 70023 333 91206 555 11048 22049 31714 41107 61749 094046 097051 102049 098051 098047 095046
BBXX 46053 16181 99342 71198 46/// /0601 10146 40211 52013 91750 22200 00141 11103 328// 41103 70013 333 91201 555 11007 22008 31657 43304 61749 058006 063009 029007 055008 008019 330029
BBXX 42362 16181 99278 70907 46/// /0000 10250 20189 40227 50000 91800
BBXX 42363 16181 99282 70892 46/// /0802 10228 20161 40231 50000 91800 333 91202
BBXX 42364 16181 99291 70881 46/// /2202 10228 20178 40231 58003 91800
BBXX 44011 16181 99411 70666 46/// /2912 10105 20051 40099 51014 91750 22200 00099 11108 20606 3//// 41106 70041 333 91215 555 11125 22134 31655 41116 61749 286115 287109 291112 287114 292119 290125
BBXX 41046 16181 99238 70683 46/// /0807 10226 20160 40192 58015 91750 22200 00260 11006 20503 300// 41005 70030 333 91209 555 11072 22076 31732 40712 61749 082070 073101 078071 065065 064067 051069 80811 91732
BBXX 41041 16181 99142 70460 46/// /1508 10252 20220 40115 58023 91750 22200 00265 11004 20603 3//// 41003 70020 333 91209 555 11083 22089 31714 41510 61749 148078 151081 152079 153081 149081 149083 81509 91739
BBXX 51101 16181 99243 71621 46/// /0412 10228 20188 40201 53006 91750 22200 00241 11508 20905 334// 41506 70040 333 91213 555 11123 22130 31728 40515 61749 043115 053112 051107 047110 042112 042115
BBXX 46061 16181 99602 71468 46/// /1004 10019 40002 50000 91750 22200 00060 11105 20301 300// 41105 70027 333 91205 555 11040 22041 31716 41209 61749 100039 100042 109060 119078 127071 133072
BBXX 46083 16181 99582 71380 46/// /2111 10055 20043 40046 55004 91750 22200 00065 11009 20706 300// 41006 70043 333 91215 555 11120 22128 31655 41718 61749 209116 183120 183120 179117 179107 168129 81614 91655
AAXX 16184 60060 32956 00603 10173 20132 40272 57006 333 10194
AAXX 16184 60105 32558 72405 10145 20092 40310 51002 878// 333 10158 87620
AAXX 16184 60107 32460 63004 10131 20086 40274 58002 86800 333 10166 82816 85626 95300
AAXX 16184 60127 32660 32706 10129 20088 39685 40287 57002 83600 333 10170 83716
AAXX 16184 60141 32560 5//// 10099 20066 39633 40312 51002 83202 333 10163 83830 84073
AAXX 16184 60185 32970 30610 10159 20102 40300 56001 80002 333 10200 83070
AAXX 16184 60190 32970 22402 10160 20082 40279 55000 80002 333 10213 82071
AAXX 16184 60191 32970 20000 10150 20099 40297 56004 80002 333 10220 82073
AAXX 16184 60195 32965 32414 10127 21036 38600 48613 53004 80002 333 10188 83073 95500
AAXX 16184 60210 32970 32406 10162 21024 39073 48597 55002 80002 333 10196 83070
AAXX 16184 60265 32970 20000 10175 21078 38970 48597 56007 80002 333 10192 82070
AAXX 16184 60106 NIL
AAXX 16184 60220 NIL
AAXX 16184 60318 NIL
BBXX TFBKF 16184 99635 70202 46/// ///// 22200 10502 70008
BBXX TFBLK 16184 99657 70248 46/// ///// 22200 10904 70021
BBXX TFDRN 16184 99658 70212 46/// ///// 22200 11007 70033
BBXX TFGRS 16184 99663 70182 46/// ///// 22200 10808 70041
BBXX TFGRV 16184 99638 70225 46/// ///// 22200 10902 70008
BBXX TFGSK 16184 99641 70229 46/// ///// 22200 10602 70008
BBXX TFHFN 16184 99642 70152 46/// ///// 22200 10502 70010
BBXX TFKGR 16184 99657 70136 46/// ///// 22200 10810 70051
BBXX TFSRT 16184 99633 70203 46/// ///// 22200 10503 70014
AAXX 16184 78016 11564 53106 10207 20135 30219 40223 58016 69901 70182 84804 333 10212 20163 70003 90930
AAXX 16184 65306 32960 50406 10274 20028 39784 40117 80002 333 10339 59006 85076
AAXX 16184 65319 32960 50000 10288 20071 39596 40109 80002 333 10353 59001 85076
AAXX 16184 65330 31915 50202 10294 20054 39660 40098 70522 80002 333 10347 59003 85076
AAXX 16184 65335 31956 50204 10313 20123 39870 40094 70522 80002 333 10375 59001 85076
AAXX 16184 65344 31940 51606 10290 20205 30078 40089 70622 80002 333 10338 58007 85076
AAXX 16181 11010 01680 79902 10060 20046 39446 49813 57010 60032 76062 333 10075 69905 81642 85656 87358
AAXX 16181 11012 17675 80302 10043 20034 39360 49817 58007 60022 7//8/ 8672/ 333 10050 20000 55300
AAXX 16181 11022 11558 71702 10042 20020 39444 49821 58023 60032 70262 86830 333 10046 20002 55300 85827
AAXX 16181 11035 11670 72203 10079 20031 39580 49824 57033 60022 70262 8257/ 333 10079 20013 82638 86360
AAXX 16181 11036 11984 81711 10077 20031 39616 49832 57032 60032 70262 333 10077 82360 87362 91014 91118 91214
AAXX 16181 11101 11560 82605 10074 20032 39426 49941 52092 60122 78098 887// 333 10103 20059 88723 91119
AAXX 16181 11120 01458 82609 10035 20023 39192 49885 57001 69982 78082 333 10038 69985 81615 85635 87650 91013 91114 91211
AAXX 16181 11126 17/// /3212 11043 21043 37481 48233 53028 69962 740// 333 11037 21077 55300 91145
AAXX 16181 11130 17/// /2802 10088 20017 39303 49870 53038 69932 740// 333 10115 20018 55300
AAXX 16181 11146 31/00 92620 11087 21100 36685 47756 58008 74944 333 11084 21134 89/00 91139 92613
AAXX 16181 11150 11562 83107 10113 21051 39326 49841 53021 69902 78082 333 10128 81820 86650 91020 91124 91209
AAXX 16181 11155 11686 81810 10040 21049 38067 48194 50001 60082 70373 885// 333 10040 21028 55300 88645 91133
AAXX 16181 11157 12270 89901 11012 21019 39104 49869 56026 69902 8357/ 333 11006 81706 83657 87360
AAXX 16181 11172 NIL
AAXX 16181 11190 17660 41304 10078 20026 39629 49855 57026 69992 7//8/ 84500 333 10079 20000 55300 91114
AAXX 16181 11204 17/// /0000 10003 21003 39136 49923 58041 69932 7408/ 333 10008 21023 55300
AAXX 16181 11212 11/00 92313 11025 21029 37599 48259 57028 69962 77174 333 11021 91124 92612
AAXX 16181 11231 01150 79901 10025 20023 39342 49906 57036 69942 76165 333 10033 69935 81703 83645 87656
AAXX 16181 11240 32765 83603 10035 20023 39451 49882 57030 333 10042 84656 87070
AAXX 16181 11244 16/// /1902 10065 20049 39565 49885 56032 60002 333 10066 21010 55300
AAXX 16181 11389 11550 83502 10038 20021 39505 49824 57015 69962 70262 885// 333 10078 20007 55300
AAXX 16181 15015 02997 01803 10029 21007 39411 42644 58027 60002 333 10063 20019 31011 60007 91007 91107
AAXX 16181 15020 01996 01103 10025 20025 39821 40020 58017 60032 71011 333 10061 20025 31009 60007 91004 91105
AAXX 16181 15090 01496 81501 10053 20050 39940 40033 58008 60022 72052 886// 333 10059 20051 31006 55300 10027 20001 3//// 60007 91002 91102
AAXX 16181 15108 01698 33212 11078 21078 37935 48374 58006 69932 72844 83070 333 11020 21081 3//// 43006 60007 91018 92727 92870 93523
AAXX 16181 15120 02997 40702 10031 21002 39526 40023 57029 69912 84050 333 10086 20027 31013 55300 10205 2//// 3//// 60007 91003 91103
AAXX 16181 15150 01393 81900 10018 20018 39821 40036 58007 69922 74642 886// 333 10054 20018 31006 60007 91001 91102
AAXX 16181 15170 01698 31602 10014 20002 39261 42672 58012 69932 70181 83400 333 10056 21001 31012 60007 91003 91103
AAXX 16181 15200 02598 81405 10074 20033 39852 49995 56042 60002 8457/ 333 10075 20041 31010 60007 91006 91107
AAXX 16181 15230 02597 81901 10028 20025 39744 40039 58031 60002 885// 333 10081 20014 31012 55300 10026 20003 3//// 60007 91001 91102
AAXX 16181 15260 02997 01501 11001 21002 39512 40056 57023 60002 333 10078 21008 31010 60007 91001 91102
AAXX 16181 15280 01998 22308 11106 21162 37365 47895 57002 69972 73643 80002 333 11041 21106 3//// 48034 60007 92815 92912
AAXX 16181 15292 01998 81604 10074 20016 39736 40027 58032 60012 70282 8807/ 333 10083 20048 31011 60007 91007 91110
AAXX 16181 15310 01495 82101 10061 20061 39963 40049 50001 60002 71022 886// 333 10062 20030 31006 55300 10058 20003 3//// 60007 91002 91104
AAXX 16181 15335 02497 30000 10047 20043 30045 40052 52005 60002 83600 333 10105 20047 31012 60007 91001 91104
AAXX 16181 15346 02997 03502 10033 20017 39769 40061 50001 60002 333 10113 20031 31013 60007 91003 91103
AAXX 16181 15350 02997 02502 10047 20047 39930 40051 50000 60002 333 10094 20022 31010 60007 91003 91104
AAXX 16181 15360 01996 82505 10060 20047 30033 40047 50005 60002 71022 8807/ 222// 06085 20301 333 10100 20059 3//// 60007 91006 91107 92426
AAXX 16181 15410 02997 00000 10030 20010 39958 40055 58016 60002 333 10100 20030 31012 60007 91001 91102
AAXX 16181 15420 02997 02303 10050 20033 39945 40057 50000 60002 333 10101 20032 31011 55300 0//// 20000 3//// 60007 91005 91106
AAXX 16181 15450 02997 00901 10029 20003 39825 40063 56012 60002 333 10097 20025 31012 55300 10184 20004 3//// 60007 91002 91103
AAXX 16181 15460 02997 02304 10068 20040 30035 40060 50000 60002 333 10093 20009 31010 60007 91006 91106
AAXX 16181 15470 02997 02601 10026 20011 39936 40064 58004 60002 333 10099 20025 31012 60007 91002 91104
AAXX 16181 15480 02497 42903 10067 20046 30045 40062 51004 69902 84600 222// 06075 2//// 333 10093 20061 31010 60007 91005 91106 92427
BBXX 51000 16181 99235 71541 46/// /0805 10227 40213 53015 91750 22200 00233 11605 20401 333// 41605 70026 333 91206 555 11047 22049 31726 40806 61749 076045 075046 073046 080044 071038 070038
BBXX 51003 16181 99193 71606 46/// /0406 10247 40182 53010 91750 22200 00258 11304 20602 3//// 41304 70022 333 91208 555 11067 22070 31736 40508 61749 043063 043062 046061 047059 051058 050061
BBXX 44039 16181 99411 70727 46/// /3008 10084 21015 40185 52003 91800 22200 00101 10502 70009 333 91210
BBXX 44060 16181 99413 70721 46/// ///09 10077 40163 51005 91800 22200 00109 333 91212 555 11098 22103
BBXX 44008 16181 99405 70692 46/// /3012 10102 20044 40132 51015 91750 22200 00120 11008 20806 321// 41005 70038 333 91215 555 11131 22139 31720 43016 61749 302123 305125 307122 306125 311122 314116
BBXX 46232 16181 99325 71174 46/// ///// 1//// 91738 22200 00145 11302 20902 325// 41301 70010
BBXX 46247 16181 99378 71228 46/// ///// 1//// 91751 22200 00116 11104 21003 329// 41102 70020
BBXX 46243 16181 99462 71241 46/// ///// 1//// 91759 22200 00087 11704 20803 326// 41703 70021
BBXX 46229 16181 99438 71246 46/// ///// 1//// 91751 22200 00103 11704 20803 329// 41702 70019
BBXX 46225 16181 99329 71174 46/// ///// 1//// 91744 22200 00146 11302 21001 326// 41301 70008
BBXX 46213 16181 99403 71247 46/// ///// 1//// 91754 22200 00105 11805 20904 330// 41803 70026
BBXX 46215 16181 99352 71209 46/// ///// 1//// 91738 22200 00147 11104 20903 328// 41102 70019
BBXX 46218 16181 99345 71208 46/// ///// 1//// 91802 22200 00139 11105 21004 331// 41103 70025
BBXX 44100 16181 99363 70756 46/// ///// 1//// 91752 22200 00130 11402 21001 309// 41402 70011
BBXX 41110 16181 99341 70777 46/// ///// 1//// 91751 22200 00146 11102 21001 312// 41101 70008
BBXX 41113 16181 99284 70805 46/// ///// 1//// 91751 22200 00225 11102 21002 309// 41101 70010
BBXX 41114 16181 99276 70802 46/// ///// 1//// 91746 22200 00234 11003 21002 307// 41101 70013
BBXX 41112 16181 99307 70813 46/// ///// 1//// 91751 22200 00169 11102 21001 309// 41101 70008
BBXX UFTA 16181 99851 71230 31497 82802 11369 21405 40138 53002 70211 8553/
BBXX 44098 16181 99428 70702 46/// ///// 1//// 91737 22200 00093 10504 20503 310// 41301 70019
AAXX 16181 01281 16/// /0503 11021 21047 39704 49879 51009 60002 333 11021 91107
AAXX 16184 91930 36/// ///// 10297 20229
AAXX 16184 91943 16/// /1105 10278 20214 30143 40145 51012 60012 333 10283 59009
AAXX 16184 03301 16582 /3509 10038 20024 39910 49983 52066 60042 91750 333 10053 82/26
AAXX 16184 03305 17482 /0507 10035 20000 39715 49977 52059 60162 781// 91750 333 10041 81/14 84/23 86/32
AAXX 16184 03313 16482 /3508 10044 20021 39880 49974 51065 60072 91750 333 10044 81/16 84/24 86/40
AAXX 16184 03316 17484 /3609 10032 20024 39957 49968 52065 60102 723// 91750 333 10040 84/19 85/45
AAXX 16184 03318 16/// /3508 10040 20014 60102 91750 333 10041
AAXX 16184 03321 16472 /3505 10028 20018 39955 49967 51065 60152 91750 333 10029 553// 20000 82/17 84/22 85/50
AAXX 16184 03330 17015 /3203 11007 21012 39592 49957 52061 69962 720// 91750 333 10001 4/004 87/01
AAXX 16184 03344 17371 /3308 10014 20003 39636 49955 53060 69922 723// 91750 333 10016 81/09 87/19
AAXX 16184 03346 16/// /3209 10015 20005 60002 91750 333 10015
AAXX 16184 03348 17428 /2904 10005 20003 39849 49958 51062 60032 741// 91750 333 10008 55300 20000 82/17 84/23 86/50
AAXX 16184 03355 15673 /3412 10029 20013 39931 49942 53056 60002 91750 333 10032 55300 20000 81/33 86/64
AAXX 16184 03373 16461 /3010 10020 20009 39861 49931 51053 69922 91750 333 10023 81/13 87/39
AAXX 16184 03379 16474 /3011 10024 20000 39855 49933 51050 69982 91750 333 10031 87/14 85/58
AAXX 16184 03382 17568 /3107 10034 20025 39919 49928 53053 69962 782// 91750 333 10036 55300 20000 86/22
AAXX 16184 03385 46763 /2911 10017 20013 39911 49921 52050 91750 333 10026 84/56
AAXX 16184 03391 11475 73010 10026 20000 39920 49927 51049 60002 70262 8687/ 91750 333 10032 81815 83632 86656
AAXX 16184 03392 16866 /2912 10019 20007 39918 49922 53048 60032 91750 333 10028 82/57
AAXX 16184 03405 16475 /3425 10051 20032 39870 49985 53050 69962 91750 333 10058 553// 20000 81/16 86/21 90710 91136 91036
AAXX 16184 03409 16/// /3201 10025 20011 60042 91750 333 10038 55300 2////
AAXX 16184 03410 16475 /0503 10009 20003 39529 49966 51058 60042 91750 333 10022 553// 20000 85/10
AAXX 16184 03469 15674 /3013 10024 20009 39920 49924 51046 60022 91750 333 10032 553// 20000 81/40 84/50
AAXX 16184 03488 17461 /2917 10036 20030 39885 49911 51048 60102 723// 91750 333 10048 86/10 83/23 90710 91126
AAXX 16184 03503 17378 /3109 10027 20019 39899 49976 53047 60022 781// 91750 333 10057 83/07 85/50 90710 91131 91019
AAXX 16184 03507 17476 /3103 10017 20010 39602 49975 53050 60042 741// 91750 333 10025 4/002 84/12 83/58
AAXX 16184 03520 16980 /3105 10010 20003 39843 49965 53055 60052 91750 333 10044 553// 20000 82/60
AAXX 16184 03522 17484 /2906 10007 20007 39875 49969 53050 60052 724// 91750 333 10041 4/002 82/12 87/58
AAXX 16184 03529 15584 /3010 10017 20005 39915 49958 53045 60032 91750 333 10047 84/21
AAXX 16184 03544 15483 /3113 10019 20006 39812 49943 53046 69922 91750 333 10036 553// 20000 88/10
AAXX 16184 03560 17480 /2806 10024 20016 39832 49936 52043 60032 723// 91750 333 10039 553// 20000 82/10 85/13
AAXX 16184 03604 16587 /3320 10059 20020 39937 49991 53038 60002 91750 333 10062 81/23 86/31 90710 91132 91031
AAXX 16184 03605 16578 /3114 10053 20022 39976 49984 52035 60002 91750 333 10062 82/25
AAXX 16184 03609 16/// /3017 10056 20019 39933 49985 53038 69922 91750 333 10063 90710 91127
AAXX 16184 03628 15680 /2614 10050 20009 39890 49962 51036 69942 91750 333 10054 55300 20000 87/31
AAXX 16184 03647 16272 /3012 10010 20009 39692 49949 53039 60032 91750 333 10027 553// 20000 86/04 83/12 90710 91126
AAXX 16184 03658 16474 /2713 10037 20013 39878 49947 52036 60032 91750 333 10043 87/15 83/26
AAXX 16184 03660 17363 /2908 10020 20012 39694 49942 52035 60042 751// 91750 333 10026 87/08 83/16
AAXX 16184 03672 11470 82811 10037 20007 39903 49944 52040 60032 78081 888// 91750 333 10044 84818 88640
AAXX 16184 03684 15581 /2811 10029 20005 39824 49930 53044 60032 91750 333 10030 87/26
AAXX 16184 03693 16681 /2814 10039 20010 39928 49930 52042 60032 91750 333 10041 86/30 87/60
AAXX 16184 03707 15680 /3020 10071 20009 39981 49988 51033 60012 91750 333 10072 81/34 87/49 90710 91129
AAXX 16184 03710 16/// /2919 10020 20001 39558 49979 51031 60022 91750 333 10044 553// 2//// 90710 91129
AAXX 16184 03743 16781 /2713 10040 21008 39800 49960 52032 69942 91750 333 10041 81/50 87/66 91023
AAXX 16184 03749 16681 /2816 10043 21011 39848 49959 51033 69942 91750 333 10046 81/47 87/66
AAXX 16184 03761 12682 82615 10037 21001 39807 49950 51034 60022 885// 91750 333 10041 55300 20000 83635 87650
AAXX 16184 03768 16560 /2810 10040 20009 39870 49949 51037 60032 91750 333 10044 85/22 83/50
AAXX 16184 03769 15683 /2608 10034 20006 39866 49948 52040 60032 91750 333 10041 55300 20000 81/35 87/46
AAXX 16184 03770 16/// ///// 10046 20015 60042 91750 333 10049
AAXX 16184 03781 17581 /2714 10025 20007 39738 49946 53037 60052 781// 91750 333 10028 553// 20000 85/20 84/26
AAXX 16184 03784 46/// /2713 10048 20006 39931 49935 53039 91750 333 10049
AAXX 16184 03797 15583 /2717 10039 20003 39868 49928 51042 60052 91750 333 10055 55300 20000 87/24 90710 91129
AAXX 16184 03839 16/// ///// 10035 20001 60022 91750 333 10066 553// 20000
AAXX 16184 03857 15965 /3128 10069 20016 39911 49974 51035 69982 91750 333 10071 8//99 90710 91143 91038
AAXX 16184 03862 15683 /2809 10030 21009 39961 49973 53039 69962 91750 333 10063 55300 20000 81/38
AAXX 16184 03866 16/// /2823 10063 20009 39941 49966 52037 60022 91750 333 10067 90710 91133 91033
AAXX 16184 03872 15984 /2816 10052 20011 39953 49958 51038 69962 91750 333 10054 553// 20000 84/63 90710 91125
AAXX 16184 03876 16/// /2811 10039 20003 39951 49953 51038 60022 91750 333 10050
AAXX 16184 03895 41581 53020 10076 20015 40002 52035 78081 84931 333 10078 83922 90710 91132 91030
AAXX 16181 89061 179// 03611 10020 20007 39685 49691 57042 60063 77177 333 91016 91121
AAXX 16184 03002 17573 /3219 10040 20000 39869 49887 51022 60032 723// 91750 333 10053 81/29 90710 91133
AAXX 16184 03008 16/// /3216 10051 21001 39841 49910 52023 69902 91750 333 10060 90710 91129 91027
AAXX 16184 03010 46/// /3019 10057 20018 49953 52027 333 90710 91134
AAXX 16184 03014 46/// /3217 10022 21033 49914 52021 91750 333 8//// 90710 91130
AAXX 16184 03031 17350 /2702 11002 21011 39655 49985 51029 69902 786// 91750 333 11002 553// 20000 81/06 86/13
AAXX 16184 03034 15779 /2707 10047 20020 39966 49980 51028 69922 91750 333 10051 87/50
AAXX 16184 03037 17779 /2002 11004 21007 39967 49989 52034 69902 725// 91750 333 10021 81/50 84/70
AAXX 16184 03039 46/// /3314 11015 21045 91750 333 11013
AAXX 16184 03041 46/// ///// 11068 21073 91750 333 11047 91000
AAXX 16184 03044 15984 /2708 10024 21001 39865 49964 51024 69962 91750 333 10026 553// 20000 8//99
AAXX 16184 03047 15974 /1601 11049 21056 39693 40005 52037 60002 91750 333 10015 553// 20000 81/72
AAXX 16184 03062 15884 /2607 10002 21021 39965 49970 51031 69922 91750 333 10024 553// 20000 82/57
AAXX 16184 03065 46/// /3124 11048 21055 91750 333 11048 90710 91130
AAXX 16184 03068 12680 72510 10005 21009 39958 49967 51031 69922 875// 91750 333 10006 87640
AAXX 16184 03072 46/// ///// 11042 21046 91750 333 11036 91000
AAXX 16184 03080 15983 /2706 11010 21027 39796 49969 51037 69922 91750 333 10015 8//99
AAXX 16184 03088 15982 /3014 10010 21009 39792 49957 51037 69922 91750 333 10019 553// 20000 87/70
AAXX 16184 03094 17463 /2824 10049 20025 39938 49943 51030 69922 723// 91750 333 10065 81/14 83/24 90710 91130
AAXX 16184 03105 15981 /0106 10029 20010 39976 49993 51042 60062 91750 333 10034 86/70
AAXX 16184 03132 15967 /2805 10007 20002 39976 49989 51053 60132 91750 333 10035 8//99
AAXX 16184 03144 15984 /2203 11023 21038 39939 49983 52046 69902 91750 333 10021 553// 20000 85/72
AAXX 16184 03148 46/// /3509 11011 21039 91750 333 10000
AAXX 16184 03153 15982 /3408 10010 21007 39837 49977 51056 60022 91750 333 10019 553// 20000 81/74
AAXX 16184 03155 16971 /2003 11016 21016 39682 49985 51047 60012 91750 333 10006 8//99
AAXX 16184 03158 15983 /3208 10019 20004 39826 49964 52050 60092 91750 333 10033 553// 20000 8//99
AAXX 16184 03210 16470 /3613 10030 20007 39826 49978 51061 60102 91750 333 10035 81/15
AAXX 16184 03212 15465 /3404 10018 20009 39875 49975 51059 60032 91750 333 10023 84/16 83/49
AAXX 16184 03214 15979 /3209 10031 20013 39949 49968 53062 60102 91750 333 10031 82/60 87/66
AAXX 16184 03220 16675 ///// 10011 20008 39937 49971 51056 69922 91750 333 10021 81/48
AAXX 16184 03224 17580 /3613 10008 20001 39620 49968 52054 69982 724// 91750 333 10009 4/003 81/23
AAXX 16184 03225 16367 /3308 10011 20004 39663 49971 53059 69982 91750 333 10012 553// 20000 88/06
AAXX 16184 03226 17983 /3112 10012 20001 39685 49962 52060 60012 723// 91750 333 10021 87/59
AAXX 16184 03227 46/// /0115 11026 2//// 91750 333 11013 90710 91129
AAXX 16184 03230 16384 /3203 10010 20005 39709 49967 51053 60052 91750 333 10013 4/003 81/09 86/21
AAXX 16184 03238 15984 /3004 10009 20001 39780 49955 52054 60032 91750 333 10015 81/73
AAXX 16184 03261 16971 /3310 10015 20005 39909 49949 53059 69922 91750 333 10031 81/58 83/64
AAXX 16184 03265 17983 /3209 10020 20010 39919 49950 52059 69922 723// 91750 333 10030 8//99
AAXX 16184 03266 16668 /3510 10023 20011 39928 49945 53057 60002 91750 333 10030 82/33 84/60
AAXX 16184 03275 17468 /0120 10042 20018 39742 49933 51052 60032 781// 91750 333 10047 81/16 85/26 85/47 90710 91129
AAXX 16184 03281 16/// /3609 10016 20011 69942 91750 333 10030
AAXX 16184 03903 16658 /0601 10004 20000 39959 40017 51059 60032 91750 333 10040 553// 20000 82/32
AAXX 16184 03904 17641 /2703 10007 20000 39954 40015 51055 60032 710// 91750 333 10031 83/32
AAXX 16184 03907 15971 /2009 10020 20008 39998 40005 51047 60062 91750 333 10031 55300 20000 8//99
AAXX 16184 03911 16980 /3603 10003 21001 39734 40011 51053 60032 91750 333 10019 4/004 8//99
AAXX 16184 03915 16550 /0401 10002 20002 39921 40000 51051 60052 91750 333 10027 81/25 83/37
AAXX 16184 03916 16577 /2601 10023 20020 39809 40001 51045 60042 91750 333 10028 553// 20000 84/23 86/37
AAXX 16184 03923 15971 /3109 10007 21001 39805 40003 51055 60012 91750 333 10016 8//99
AAXX 16181 78221 11462 60808 10252 20186 30168 40195 57010 60004 70222 86800 333 82818 86640
AAXX 16181 78224 32560 59904 10280 20150 30117 40190 58017 85100 333 85830
AAXX 16181 78229 42558 60807 10251 20170 30125 40200 57010 86260 333 82820 85365
AAXX 16181 78239 41559 40709 10272 20186 30183 40186 57020 70522 84800 333 10274 20189 83820
AAXX 16181 12345 42559 50605 10256 20199 30140 40180 57020 85800 333 85620
AAXX 16181 78243 42559 60907 10252 20169 30070 40193 57017 86290 333 83820 86356
AAXX 16181 78255 42559 60807 10264 20186 30035 40184 57020 86800 333 10270 20194 85820
AAXX 16181 78264 31560 31504 10279 20186 30087 40162 57020 70200 83200 333 83820
AAXX 16181 78265 31559 50707 10266 20176 30066 40166 57020 70544 85200 333 10279 20138 85825
AAXX 16181 78256 11559 30505 10292 20135 30110 40171 57025 60004 70544 83100 333 10294 20201 83825
AAXX 16181 78259 NIL
AAXX 16181 78268 11458 70910 10270 20223 30157 40176 57017 60001 70522 82200 333 82815 87825
AAXX 16184 43533 11462 73607 10250 20223 30112 40115 69901 72582 8347/ 333 58002 82817 87361
AAXX 16184 43555 11460 70515 10264 20222 30114 40117 69901 72582 8327/ 333 58001 83818 87361
AAXX 16184 43577 11462 72505 10271 20242 30113 40115 69971 70286 8327/ 333 59002 83818 87362
AAXX 16184 43588 11465 62909 10270 20247 30108 40110 69901 70382 83232 333 59007 83818 86362
AAXX 16184 43599 12462 73205 10273 20247 30108 40110 60001 8327/ 333 59006 83817 87361
AAXX 16184 78388 1 CHECK TEXT NEW ENDING ADDED KATLYTAA
BBXX WE3592 16184 99458 70851 43/// 83412 11044 2//// 40251 5//// 7//// 8//// 222// 0//// 2//02 3//// 4//// 5//// 6//// 8//// ICE /////
BBXX KAOU 16184 99040 10890 43/// /0905 10281 20239 40086 5//// 7//// 8//// 222// 04293 2//// 3//// 4//// 5//// 6//// 8//// ICE /////
BBXX PCHM 16184 99333 31675 41398 52129 10160 20143 40095 51010 72586 83260 22263 00180 20101 323// 40310 80150
BBXX NWS0029 16184 99255 70452 43/// /1725 10243 20212 40090 5//// 7//// 8//// 222// 04245 2//// 3//// 4//// 5//// 6//// 8//// ICE /////
BBXX NWS0003 16184 99549 71650 43/// /2828 10030 20005 49808 5//// 7//// 8//// 222// 04052 2//// 3//// 4//// 5//// 6//// 8//// ICE /////
BBXX NWS0020 16184 99369 10009 43/// /2432 10162 20114 40185 5//// 7//// 8//// 222// 04174 2//// 3//// 4//// 5//// 6//// 8//// ICE /////
BBXX ZCDG7 16184 99299 71166 41398 71416 10120 20099 40181 53006 72086 85870 22283 00170 20101 333// 40403 5////
BBXX WXJ63 16183 99611 71464 41/96 80100 10003 21002 40006 57/// 768// 8//// 222// 00056 2//// 3//// 4//// 5//// 6//// 8//// ICE /////
AAXX 16184 70026 NIL
AAXX 16184 70133 NIL
AAXX 16184 70174 NIL
AAXX 16184 70200 NIL
AAXX 16184 70219 NIL
AAXX 16184 70231 NIL
AAXX 16184 70261 NIL
AAXX 16184 70267 NIL
AAXX 16184 70271 NIL
AAXX 16184 70273 NIL
AAXX 16184 70308 NIL
AAXX 16184 70316 NIL
AAXX 16184 70326 NIL
AAXX 16184 70340 NIL
AAXX 16184 70350 NIL
AAXX 16184 70361 NIL
AAXX 16184 70381 NIL
AAXX 16184 70398 NIL
AAXX 16184 70414 NIL
AAXX 16184 68024 42660 30000 10289 20160 48508 52019 81981 333 10343
AAXX 16184 68029 41560 81515 10227 20191 48518 52030 71792 84973 333 10304
AAXX 16184 68038 42560 71403 10220 20206 48516 52012 82973 333 10310
AAXX 16184 68054 42560 70907 10206 20191 48547 51011 82570 333 10265
AAXX 16184 68226 42660 40000 10306 20109 48515 52018 81280 333 10352
AAXX 16184 68234 42660 10707 10274 20126 48517 52016 81400 333 10340
AAXX 16184 68240 42960 31206 10270 20067 48518 52015 80004 333 10330
AAXX 16184 68320 42960 10000 10303 20090 48526 53018 81080 333 10371
AAXX 16184 68328 42960 02104 10296 20070 49523 52016 333 10355
AAXX 16184 78526 NIL
AAXX 16184 78543 NIL
AAXX 16181 26554 11250 81302 10020 20009 39807 49969 57017 69932 71062 886// 333 10033 88704
AAXX 16181 26666 11145 81602 10008 21003 39765 49979 57010 60132 77176 8872/ 333 10042 88703
AAXX 16181 26850 11256 81701 10016 20008 39703 49974 57013 69912 71022 886// 333 10031 88704
AAXX 16181 26863 11358 81803 10015 20010 39749 49985 57009 60122 76162 8872/ 333 10046 88707
AAXX 16181 26941 31/08 91504 10016 20016 39723 49958 57031 74342 333 10030
AAXX 16181 26951 11/05 91902 10007 20004 39780 49979 57015 69942 74742 333 10025
AAXX 16181 33008 32560 61404 10041 20018 39738 49913 57049 86500 333 10059
AAXX 16181 33019 31438 80902 10032 30024 39793 49966 57025 71022 886// 333 10039 86714
AAXX 16181 33036 11150 82201 10021 20013 39764 49994 57005 60072 71082 886// 333 10039 88702
AAXX 16181 33041 11343 81705 10060 20051 39846 49999 57004 60052 76162 8872/ 333 10077 88709 91111
AAXX 16184 78255 NIL
AAXX 16184 78317 NIL
AAXX 16184 78318 NIL
AAXX 16184 78325 NIL
AAXX 16184 78333 NIL
AAXX 16184 78338 NIL
AAXX 16184 78348 NIL
AAXX 16184 78349 NIL
AAXX 16184 78353 NIL
AAXX 16184 78360 NIL
AAXX 16184 78367 NIL
AAXX 16184 78369 NIL
BBXX PHIN 16184 99509 70214 41397 72922 10082 20054 40247 56007 71511 86420 22223 00120 20505 332// 40908 80068
BBXX UCAC 16181 99578 10042 41/98 23209 10060 49884 52015 70110 89/// 22283 00090 20607
BBXX UFEQ 16181 99626 10042 41297 71813 10060 49820 52020 70225 22252 00100 20706
BBXX A8PX4 16184 99364 70078 41398 72713 10178 20125 40283 57012 70322 87700 22264 00179 2//// 80146
BBXX DDVK2 16183 99451 70084 41397 63030 10102 20065 40200 54000 78162 8437/ 22213 00145 21006 333// 41416 80083
BBXX UGGA 16181 99691 10412 41/98 92013 10030 49963 52020 70222 89/// 22261 20706
BBXX PDHW 16183 99498 70046 41/99 /3124 10095 20044 40010 52040 70011 8//// 22263 00120 2//// 80070
AAXX 16181 37575 42596 71802 10037 21013 39649 40247 57017 87500 333 10069
AAXX 16181 37675 41495 82501 10024 20014 39549 40220 57017 75152 886// 333 10039 555 53003
AAXX 16181 37735 42996 02501 10016 21005 39798 40183 53004 333 10064
AAXX 16181 37749 41596 81801 10052 20033 30155 40274 57006 71022 885// 333 10075 555 53006
AAXX 16181 37756 41/93 92004 10022 20022 39371 40296 56001 74542 333 10044
AAXX 16181 37864 32997 41803 10040 20026 40235 57008 84040 333 10090
AAXX 16181 37985 41496 80000 10057 20038 302698 40254 56002 71022 886// 333 10067
BBXX PCCL 16183 99327 31637 41097 81716 10170 40130 54000 70300 887// 22232 04209 20501 31822 41008 51206
BBXX A8UU2 16184 99031 31185 41697 82726 10270 20241 40048 55020 79592 8/370 22213 04310 20003 80250
BBXX PFBF 16184 99096 31344 41698 53605 10281 20201 40050 56011 70181 81209 22223 02294 2//// 30000 4//// 5//// 80225
AAXX 16184 43533 11462 73607 10250 20223 30112 40115 69901 72582 8347/ 333 58002 82817 87361
AAXX 16184 43555 11460 70515 10264 20222 30114 40117 69901 72582 8327/ 333 58001 83818 87361
AAXX 16184 43577 11462 72505 10271 20242 30113 40115 69971 70286 8327/ 333 59002 83818 87362
AAXX 16184 43588 11465 62909 10270 20247 30108 40110 69901 70382 83232 333 59007 83818 86362
AAXX 16184 43599 12462 73205 10273 20247 30108 40110 60001 8327/ 333 59006 83817 87361
AAXX 16184 91165 NIL
AAXX 16184 91182 NIL
AAXX 16184 91190 NIL
AAXX 16184 91212 NIL
AAXX 16184 91217 NIL
AAXX 16184 91285 NIL
AAXX 16184 91317 NIL
AAXX 16184 91334 32474 60512 10277 20227 30069 40072 55005 82301 333 561/9 70030 555 91618
AAXX 16184 91348 NIL
AAXX 16184 91356 NIL
AAXX 16184 91366 NIL
AAXX 16184 91369 NIL
AAXX 16184 91371 NIL
AAXX 16184 91376 11474 60710 10264 20236 30078 40081 53003 60021 72582 84801 333 561/9 70038 555 91618
AAXX 16184 91408 11474 80000 10263 20249 30034 40072 57015 69981 70282 83978 333 56999 70038 555 91618
AAXX 16184 91413 32469 80607 10268 20241 30058 40083 57017 83272 333 56199 555 91618
AAXX 16184 91425 NIL
AAXX 16184 91434 NIL
AAXX 16184 91765 NIL
AAXX 16184 48310 NIL
AAXX 16184 48325 NIL
AAXX 16184 48329 33950 00000 10190 20176 39812 40158 52005 333 5//// 70000
AAXX 16184 48352 NIL
AAXX 16184 48357 NIL
AAXX 16184 48380 NIL
AAXX 16184 48383 31950 00000 10170 20124 30013 40179 56005 71000 333 58019 70000
AAXX 16184 48403 NIL
AAXX 16184 48405 NIL
AAXX 16184 48420 31950 70608 10255 20172 30127 40131 56003 70522 86056 333 58017 70000
AAXX 16184 48421 31950 20000 10215 20199 30026 40142 57005 71000 80005 333 58011 70000
AAXX 16184 48425 NIL
AAXX 16184 48426 NIL
AAXX 16184 48429 NIL
AAXX 16184 48430 31958 20000 10246 20162 30125 40132 56005 70500 82005 333 58019 70000
AAXX 16184 48450 NIL
AAXX 16184 48459 NIL
AAXX 16184 48465 NIL
AAXX 16184 48550 11558 60305 10270 20248 30102 40109 57007 60033 71022 82246 333 58006 70027
AAXX 16184 48552 NIL
AAXX 16184 48566 NIL
AAXX 16184 48568 11459 80407 10264 20242 30098 40106 57005 60113 71062 8287/ 333 5//// 70305
AAXX 16184 91222 NIL
AAXX 16184 91245 NIL
AAXX 16184 91323 NIL
AAXX 16184 91339 NIL
AAXX 16184 91343 NIL
AAXX 16184 91353 NIL
AAXX 16184 91442 NIL
BBXX 46219 16181 99332 71199 46/// ///// 1//// 91758 22200 00137 11205 20904 330// 41202 70023
BBXX 46214 16181 99379 71235 46/// ///// 1//// 91755 22200 00117 10905 20904 331// 41102 70023
BBXX 44022 16181 99409 70737 46/// ///07 10073 21041 40193 55000 91800 22200 00094 333 91211 555 11082 22088
BBXX 51204 16181 99213 71581 46/// ///// 1//// 91752 22200 00249 11303 21002 332// 41302 70015
BBXX 51203 16181 99208 71570 46/// ///// 1//// 91743 22200 00250 11102 21001 322// 41101 70009
BBXX 51202 16181 99214 71577 46/// ///// 1//// 91739 22200 00246 10903 20903 301// 41302 70017
BBXX 41038 16181 99341 70777 46/// /1902 10179 40201 58015 91800 22200 00145 333 91203
BBXX 51205 16181 99210 71564 46/// ///// 1//// 91748 22200 00241 11404 20903 333// 41403 70021
BBXX 46238 16181 99334 71195 46/// ///// 1//// 91750 22200 00145 11204 20803 328// 41202 70020
BBXX 46239 16181 99363 71221 46/// ///// 1//// 91751 22200 00129 11105 20904 331// 41103 70027
AAXX 16184 48500 31956 20000 10261 20196 30109 40116 57007 71010 80005 333 58002
AAXX 16181 78221 11462 60808 10252 20186 30168 40195 57010 60004 70222 86800 333 82818 86640
AAXX 16181 78224 32560 59904 10280 20150 30117 40190 58017 85100 333 85830
AAXX 16181 78229 42558 60807 10251 20170 30125 40200 57010 86260 333 82820 85365
AAXX 16181 78239 41559 40709 10272 20186 30183 40186 57020 70522 84800 333 10274 20189 83820
AAXX 16181 12345 42559 50605 10256 20199 30140 40180 57020 85800 333 85620
AAXX 16181 78243 42559 60907 10252 20169 30070 40193 57017 86290 333 83820 86356
AAXX 16181 78255 42559 60807 10264 20186 30035 40184 57020 86800 333 10270 20194 85820
AAXX 16181 78264 31560 31504 10279 20186 30087 40162 57020 70200 83200 333 83820
AAXX 16181 78265 31559 50707 10266 20176 30066 40166 57020 70544 85200 333 10279 20138 85825
AAXX 16181 78256 11559 30505 10292 20135 30110 40171 57025 60004 70544 83100 333 10294 20201 83825
AAXX 16181 78259 NIL
AAXX 16181 78268 11458 70910 10270 20223 30157 40176 57017 60001 70522 82200 333 82815 87825
AAXX 16184 48310 NIL
AAXX 16184 48325 NIL
AAXX 16184 48329 33950 00000 10190 20176 39812 40158 52005 333 5//// 70000
AAXX 16184 48352 NIL
AAXX 16184 48357 NIL
AAXX 16184 48380 NIL
AAXX 16184 48383 31950 00000 10170 20124 30013 40179 56005 71000 333 58019 70000
AAXX 16184 48403 NIL
AAXX 16184 48405 NIL
AAXX 16184 48420 31950 70608 10255 20172 30127 40131 56003 70522 86056 333 58017 70000
AAXX 16184 48421 31950 20000 10215 20199 30026 40142 57005 71000 80005 333 58011 70000
AAXX 16184 48425 NIL
AAXX 16184 48426 NIL
AAXX 16184 48429 NIL
AAXX 16184 48430 31958 20000 10246 20162 30125 40132 56005 70500 82005 333 58019 70000
AAXX 16184 48450 NIL
AAXX 16184 48459 NIL
AAXX 16184 48465 NIL
AAXX 16184 48550 11558 60305 10270 20248 30102 40109 57007 60033 71022 82246 333 58006 70027
AAXX 16184 48552 NIL
AAXX 16184 48566 NIL
AAXX 16184 48568 11459 80407 10264 20242 30098 40106 57005 60113 71062 8287/ 333 5//// 70305
AAXX 16184 78388 1 CHECK TEXT NEW ENDING ADDED KATLYTAA
BBXX C6SW3 16184 99169 10554 41899 00417 10250 20191 40150 52030 7//00 80000 22214 00250 20302 3//// 40302 50302 6//// 80210 ICE /////
BBXX C6VF5 16184 99139 10515 41497 30619 10230 2020/ 40150 57020 7//00 832// 22254 00250 2//// 3//// 4//// 5//// 6//// 80210 ICE /////
BBXX TBWUK18 16184 99296 50213 41098 21202 10250 20250 40214 54000 70200 821// 22222 20501 317// 41404 5//// 80250
BBXX ONDY 16184 99124 30103 41799 72113 10210 2016/ 40130 54000 70322 872// 22244 00250 2//// 3//// 4//// 5//// 6//// 80180 ICE /////
BBXX DBKV 16181 99172 70219 46/// /0709 10239 20551 40143 57005 22261 00244
BBXX DBBT 16181 99431 50025 46/// /2909 10088 2046/ 49964 57015 22201 00104
BBXX BATFR56 16184 99177 30608 46/// /1310 10259 20224 40110 51007 22252 00279
BBXX BATFR05 16184 99063 10034 46/// /1811 10285 20202 40099 53009 22200 00259
BBXX OVYB2 16181 99118 30628 41598 22905 10287 20224 40124 52010 70200 821// 22243 00310 20200 30000 4//// 5//// 80244
BBXX C6OM8 16180 99052 50333 41497 31409 10272 20225 40109 56010 70211 832// 22243 06272 20403 314// 40403 5//// 80240
BBXX ZCBZ5 16183 99264 10537 41797 30507 10232 20102 40159 52003 70122 83//5 22264 02241 20000 305// 40401 5//// 80160
BBXX A8DE3 16183 99133 50770 41497 61717 10204 20191 40190 54000 70522 84576 22283 00230 20303 315// 40705 80195
BBXX WCX7445 16184 99599 50633 43/// /3037 10040 2//// 49858 5//// 7//// 8//// 22282 00008 2//// 3//// 4//// 5//// 6//// ICE /////
BBXX WBP3210 16184 99531 50709 43/// /2708 10112 2//// 40090 5//// 7//// 8//// 22200 00123 2//// 3//// 4//// 5//// 6//// ICE /////
BBXX DQXQ 16184 99384 11351 41298 83238 10018 21042 40220 52005 70375 8572/ 22213 00120 299// 331// 41010 81004
BBXX C6SI6 16184 99343 11251 46/// /3616 10030 21050 40323 53009 7//// 8//// 22273 0//// 2////
BBXX 46070 16181 99551 11753 46/// /0811 10004 21007 49877 57003 91750 22200 00039 11310 20806 3//// 41308 70051 333 91213 555 11112 22118 31652 40914 61749 080106 080109 083109 084109 086112 088116 80912 91651
BBXX 9VVN 16184 99409 11396 41697 82833 10000 2103/ 40165 56010 70277 88700 22214 00130 2//// 3//// 4//// 5//// 65//1 81010 ICE 0
BBXX 44098 16181 99428 70702 46/// ///// 1//// 91737 22200 00093 10504 20503 310// 41301 70019
BBXX UFTA 16181 99851 71230 31497 82802 11369 21405 40138 53002 70211 8553/
BBXX 41113 16181 99284 70805 46/// ///// 1//// 91751 22200 00225 11102 21002 309// 41101 70010
BBXX 41110 16181 99341 70777 46/// ///// 1//// 91751 22200 00146 11102 21001 312// 41101 70008
BBXX 41114 16181 99276 70802 46/// ///// 1//// 91746 22200 00234 11003 21002 307// 41101 70013
BBXX 44100 16181 99363 70756 46/// ///// 1//// 91752 22200 00130 11402 21001 309// 41402 70011
BBXX 41112 16181 99307 70813 46/// ///// 1//// 91751 22200 00169 11102 21001 309// 41101 70008
BBXX 46218 16181 99345 71208 46/// ///// 1//// 91802 22200 00139 11105 21004 331// 41103 70025
BBXX 46247 16181 99378 71228 46/// ///// 1//// 91751 22200 00116 11104 21003 329// 41102 70020
BBXX 46229 16181 99438 71246 46/// ///// 1//// 91751 22200 00103 11704 20803 329// 41702 70019
BBXX 46225 16181 99329 71174 46/// ///// 1//// 91744 22200 00146 11302 21001 326// 41301 70008
BBXX 46215 16181 99352 71209 46/// ///// 1//// 91738 22200 00147 11104 20903 328// 41102 70019
BBXX 46232 16181 99325 71174 46/// ///// 1//// 91738 22200 00145 11302 20902 325// 41301 70010
BBXX 46213 16181 99403 71247 46/// ///// 1//// 91754 22200 00105 11805 20904 330// 41803 70026
BBXX 46243 16181 99462 71241 46/// ///// 1//// 91759 22200 00087 11704 20803 326// 41703 70021
BBXX 44060 16181 99413 70721 46/// ///09 10077 40163 51005 91800 22200 00109 333 91212 555 11098 22103
BBXX 44008 16181 99405 70692 46/// /3012 10102 20044 40132 51015 91750 22200 00120 11008 20806 321// 41005 70038 333 91215 555 11131 22139 31720 43016 61749 302123 305125 307122 306125 311122 314116
BBXX 44039 16181 99411 70727 46/// /3008 10084 21015 40185 52003 91800 22200 00101 10502 70009 333 91210
BBXX 46061 16181 99602 71468 46/// /1004 10019 40002 50000 91750 22200 00060 11105 20301 300// 41105 70027 333 91205 555 11040 22041 31716 41209 61749 100039 100042 109060 119078 127071 133072
BBXX 46083 16181 99582 71380 46/// /2111 10055 20043 40046 55004 91750 22200 00065 11009 20706 300// 41006 70043 333 91215 555 11120 22128 31655 41718 61749 209116 183120 183120 179117 179107 168129 81614 91655
BBXX 51101 16181 99243 71621 46/// /0412 10228 20188 40201 53006 91750 22200 00241 11508 20905 334// 41506 70040 333 91213 555 11123 22130 31728 40515 61749 043115 053112 051107 047110 042112 042115
BBXX 41046 16181 99238 70683 46/// /0807 10226 20160 40192 58015 91750 22200 00260 11006 20503 300// 41005 70030 333 91209 555 11072 22076 31732 40712 61749 082070 073101 078071 065065 064067 051069 80811 91732
BBXX 42362 16181 99278 70907 46/// /0000 10250 20189 40227 50000 91800
BBXX 41041 16181 99142 70460 46/// /1508 10252 20220 40115 58023 91750 22200 00265 11004 20603 3//// 41003 70020 333 91209 555 11083 22089 31714 41510 61749 148078 151081 152079 153081 149081 149083 81509 91739
BBXX 44011 16181 99411 70666 46/// /2912 10105 20051 40099 51014 91750 22200 00099 11108 20606 3//// 41106 70041 333 91215 555 11125 22134 31655 41116 61749 286115 287109 291112 287114 292119 290125
BBXX 42364 16181 99291 70881 46/// /2202 10228 20178 40231 58003 91800
BBXX 46089 16181 99459 71258 46/// /2004 10093 20069 40321 51009 91750 22200 00097 11604 20401 328// 41604 70021 333 91206 555 11045 22047 31715 42006 61749 199044 197044 185045 197046 193048 189044
BBXX 46053 16181 99342 71198 46/// /0601 10146 40211 52013 91750 22200 00141 11103 328// 41103 70013 333 91201 555 11007 22008 31657 43304 61749 058006 063009 029007 055008 008019 330029
BBXX 42363 16181 99282 70892 46/// /0802 10228 20161 40231 50000 91800 333 91202
BBXX 46042 16181 99368 71224 46/// /1005 10096 40244 53008 91750 22200 00124 10905 20301 331// 40905 70023 333 91206 555 11048 22049 31714 41107 61749 094046 097051 102049 098051 098047 095046
BBXX WGEB 16183 99295 71361 43598 61509 10172 2011/ 40285 51000 7//// 868// 22265 00189 20000 336// 4//// 5//// 6//// 80139 ICE /////
BBXX VCYL 16184 99502 70625 46/// /2008 10029 20028 49895 56010 7//// 8//// 22223 00031 2////
BBXX 3FQS8 16184 99311 70749 41398 32009 00/// 10209 2019/ 40220 54000 70200 82111 22244 00240 20301 302// 40701 5//// 6//// 80193 /////
BBXX KGTZ 16184 99540 71361 41397 82805 10067 2004/ 40120 57006 72854 8867/ 22274 00072 21007 326// 4//// 5//// 6//// 80056 ICE /////
BBXX SHIP 16184 99299 71278 41597 70415 10160 20108 40296 52009 70311 874// 91755 22224 00175 1//// 20204 331// 40306 5//// 6//// 80120
BBXX H9UY 16184 99199 71373 41697 60718 00/// 10200 40212 51/// 70122 85393 9//// 22263 04220 20303 309// 40304 5//// 6//// 80180
BBXX 3FBC9 16184 99191 71328 41798 60722 10200 40165 54000 70322 85534 9//// 22233 00230 20306 309// 40608 5//// 6//// 80180
BBXX VXKF 16184 99469 70598 46/// /2025 10076 20069 49916 56067 7//// 8//// 22254 0//// 2////
BBXX 41010 16181 99289 70785 46/// /1404 10225 40222 58019 91750 22200 00243 11003 20401 300// 41003 70016 333 91205 555 11036 22037
BBXX 41009 16181 99285 70802 46/// /1105 10236 20165 40221 58015 91750 22200 00243 11103 20401 300// 41103 70014 333 91207 555 11053 22055
BBXX 42057 16181 99168 70815 46/// /0607 10280 20202 40149 58010 91750 22200 00281 10603 20602 3//// 40702 70014 333 91208 555 11074 22078 31713 40710 61749 062073 058072 057076 055078 058079 054079 80608 91658
BBXX WSRL 16184 99314 71368 41498 71110 10170 2014/ 40280 5//// 70222 82462 22255 00172 2//// 332// 41106 5//// 6//// 80150 ICE /////
BBXX DGHJ 16184 99269 71310 41598 70523 10190 20114 40240 52017 70222 8722/ 22263 00190 21005 3//// 4//// 5//// 80145
BBXX J8PE4 16183 99253 70761 414// 72419 10280 2018/ 40220 54000 70311 87426 22234 00280 20805 324// 40402 5//// 6//// 80210 ICE /////
BBXX PHBO 16183 99139 70606 41/98 40212 10285 20228 40113 58021 70180 83244 22234 20201 332// 40402 80246
BBXX ZCDG7 16184 99299 71166 41398 71416 10120 20099 40181 53006 72086 85870 22283 00170 20101 333// 40403 5////
BBXX J8NY 16183 99202 70828 41498 50927 10300 2029/ 40180 5//// 70221 85135 22273 0//// 20505 30910 40505 50505 6//// 80290 ICE /////
BBXX C6LU3 16183 99265 70745 41598 60922 10240 2018/ 40220 50005 70321 8617/ 22285 20605 80200
BBXX WDF4764 16184 99367 71230 41997 03619 10133 2007/ 40238 52020 7//00 80000 22213 0//// 20304 331// 40707 5//// 6//// 80100 ICE /////
BBXX ZCDA9 16183 99224 71520 41398 60510 10230 20223 40185 57008 70200 85100 22224 00250 20202 308// 40204 5//// 80225
BBXX CGJV 16184 99447 70636 46/// /2510 10079 20059 49986 55014 7//// 8//// 22200 0//// 2////
BBXX CGCC 16184 99456 70735 46/// /3311 10028 21045 40147 53031 7//// 8//// 22241 00057 2////
BBXX VAAZ 16184 99548 70532 46/// /1731 11001 21004 49976 56057 7//// 8//// 22261 0//// 2////
BBXX VOKF 16184 99490 70669 46/// /2625 10001 21007 49982 51045 7//// 8//// 22200 0//// 2////
BBXX CGTF 16184 99476 70527 46/// /1315 10034 20019 40103 56051 7//// 8//// 22200 0//// 2////
BBXX VCLM 16184 99621 70709 46/// /2616 11142 21167 49933 58011 7//// 8//// 22223 01008 2////
BBXX CGSB 16184 99469 70709 46/// /2620 10024 21037 40094 53049 7//// 8//// 22200 00046 2////
BBXX CGBY 16184 99487 71235 46/// /1604 10073 20063 40313 55000 7//// 8//// 22200 0//// 2////
BBXX CG2965 16184 99487 71235 46/// /1504 10071 20059 40315 55000 7//// 8//// 22200 0//// 2////
BBXX VCWL 16184 99466 70721 46/// /2715 10000 21061 40129 53027 7//// 8//// 22213 00048 2////
BBXX VAAP 16184 99446 70636 46/// /2411 10081 20061 49974 55018 7//// 8//// 22200 0//// 2////
BBXX CGDG 16184 99447 70636 46/// /2416 10076 20087 49983 55015 7//// 8//// 22200 0//// 2////
BBXX CGDT 16184 99468 70712 46/// /2103 10025 21031 40107 53055 7//// 8//// 22200 0//// 2////
BBXX CGBN 16184 99447 70636 46/// /2511 10083 20060 49972 55015 7//// 8//// 22200 0//// 2////
BBXX CGBR 16184 99532 71291 46/// /2334 10039 20038 40193 53006 7//// 8//// 22281 00071 2////
BBXX VOKJ 16184 99455 70735 46/// /2707 10032 21031 40146 53025 7//// 8//// 22200 0//// 2////
BBXX 3FZK3 16184 99541 71625 46/// /2519 10038 20021 49839 51038 7//// 8//// 22223 0//// 2////
BBXX CGJK 16184 99484 71234 46/// /0901 10074 20063 40314 51002 7//// 8//// 22200 0//// 2////
BBXX VCBW 16184 99501 70607 46/// /2211 10028 20028 49907 57008 7//// 8//// 22281 00037 2////
BBXX CGDR 16184 99494 71263 46/// /0206 10081 20081 40288 53003 7//// 8//// 22200 0//// 2////
BBXX CZ9742 16184 99506 70969 46/// /1810 11122 21155 40304 58010 7//// 8//// 22200 0//// 2////
BBXX VOPP 16184 99456 70735 46/// /2808 10024 21040 4//// 5//// 7//// 8//// 22200 0//// 2////
BBXX CGDX 16184 99468 70712 46/// /0000 10029 21027 40107 52054 7//// 8//// 22200 0//// 2////
BBXX CG2958 16184 99489 71234 46/// /1511 10078 20076 40320 56003 7//// 8//// 22282 0//// 2////
BBXX VCRG 16184 99474 70619 46/// /2204 10072 20071 49927 58032 7//// 8//// 22200 0//// 2////
BBXX 46026 16181 99378 71228 46/// /0401 10102 40252 51011 91750 22200 00114 11004 20301 330// 41004 70018 333 91202 555 11010 22010 31653 43104 61749 026010 326011 354008 326015 301021 293027
BBXX 46041 16181 99474 71247 46/// /1606 10084 40313 53006 91750 22200 00081 11604 20501 3//// 41604 70020 333 91207 555 11062 22067 31746 41607 61749 158058 157054 154054 155054 157051 156055
BBXX 44007 16181 99435 70701 46/// /3109 10087 20000 40091 53028 91750 22200 00088 11102 20302 3//// 41101 70011 333 91212 555 11101 22107 31706 43215 61749 305096 307096 310104 314100 312111 294092
BBXX 46072 16181 99517 71722 46/// /2005 10028 21027 49893 58022 91750 22200 00051 11209 20402 3//// 41209 70046 333 91207 555 11055 22058 31719 42009 61749 197054 193061 197061 203067 208064 213060 82007 91718
BBXX 46035 16181 99571 71778 46/// /0310 1//// 49907 58013 91750 22200 11109 20705 300// 41108 70047 333 91213 555 11104 22111 31718 40314 61749 029104 025106 015102 018109 013100 017086 80213 91718
BBXX 46077 16181 99579 71543 46/// /1608 10034 20016 49892 56003 91750 22200 00051 11104 20302 3//// 41104 70022 333 91210 555 11087 22091 31741 41710 61749 164083 160086 160083 141071 135070 133076 81609 91735
BBXX 46082 16181 99597 71434 46/// ///// 10029 20029 49967 56037 91750 22200 00060 10909 70045
BBXX 42039 16181 99288 70860 46/// /1604 10231 40218 50000 91750 22200 00231 10502 20401 300// 40501 70009 333 91205 555 11044 22046 31711 41505 61749 156041 157038 156042 151043 150044 154041 81505 91711
BBXX 41040 16181 99145 70530 46/// /3002 10272 20222 40110 58019 91750 22200 00288 11004 20401 3//// 41004 70019 333 91204 555 11024 22024 31743 42904 61749 294022 279020 286021 285020 291021 296023 82803 91658
BBXX BATEU01 16184 99487 70628 44597 72913 10034 20024 49915 55001 70222 84365 22234 00030 21002 318// 41002 5////
BBXX BAREU06 16184 99482 70695 46/// ///// 40052 52065 22253
BBXX A8SF8 16184 99201 70647 41298 50517 10270 20181 40175 50010 70300 83745 22264 04270 20905 336// 41204 80210
BBXX PDBP 16183 99440 70675 41498 52735 10100 20026 40043 57013 71522 85200 22283 04092 20405 324// 40803 80065
BBXX SHIP 16184 99351 71726 41598 72035 10180 2015/ 40160 57030 72565 879// 22262 00200 20606 328// 41008 5//// 6//// 80160 ICE /////
BBXX SHIP 16184 99490 71612 41/98 62430 10055 20009 40025 52020 70182 864// 22224 00060 2//07 327// 41414 802//
BBXX MVQP8 16184 99292 70946 41297 70117 10160 20143 40249 50015 70280 87700 22200 00130 20501 303// 4//01 5//// 80150
BBXX SHIP 16184 99349 71335 41697 70511 10155 20121 40308 51005 70222 8645/ 22233 00180 20301 309// 40502 80135
BBXX A8BZ6 16184 99389 70484 41/98 /0220 10180 40170 57010 70322 8//// 22264 04180 2//// 301// 40510
BBXX BAREU11 16184 99111 70753 46/// ///// 40100 57025 22283
BBXX BAREU54 16184 99096 70800 46/// ///// 40109 57008 22223
BBXX BAREU08 16184 99348 70388 46/// ///// 40223 52013 22224
BBXX 46050 16181 99442 71246 46/// /0302 10083 40325 53006 91750 22200 00100 11604 20401 329// 41604 70022 333 91203 555 11024 22024 31716 40403 61749 033022 031023 045023 042024 040019 060019
BBXX 46088 16181 99483 71232 46/// /1303 10071 40309 91750 22200 00080 1//00 70001 333 91203 555 11027 22028 31720 41204 61749 128025 131025 127024 126021 115024 104019
BBXX 46047 16181 99324 71195 46/// /0106 10147 40193 51006 91750 22200 00148 11204 20402 329// 41204 70021 333 91207 555 11064 22068 31726 43608 61749 009062 011067 011067 017063 013064 013062
BBXX 46014 16181 99394 71240 46/// /0403 10092 40263 51009 91750 22200 00102 11005 20301 3//// 41005 70024 333 91203 555 11027 22028 31727 40904 61749 045026 074028 085028 094018 085014 063012
BBXX 46086 16181 99325 71180 46/// /0107 10154 40180 51007 91750 22200 00150 11203 20601 329// 41202 70013 333 91208 555 11072 22078 31745 40108 61749 006067 002051 000049 007053 005059 007058
BBXX 46013 16181 99382 71233 46/// /0000 10111 40254 51012 91750 22200 00109 11005 20401 3//// 41005 70024 333 91201 555 11002 22003 31700 43602 61749 046002 016006 010010 013013 024014 014015
BBXX 46012 16181 99374 71229 46/// /0104 10109 40249 51010 91750 22200 00111 11104 20401 330// 41104 70022 333 91204 555 11040 22042 31741 43605 61749 008038 007035 009030 011030 004028 010025
BBXX 46025 16181 99337 71191 46/// /0405 10165 20063 40191 51008 91750 22200 00152 11002 20401 328// 41002 70010 333 91206 555 11060 22068 31651 40307 61749 036054 035055 036056 031056 026058 026059
BBXX 46028 16181 99357 71219 46/// /3301 10124 40227 52006 91750 22200 00135 11105 20401 330// 41105 70024 333 91201 555 11006 22006 31710 43103 61749 333005 353009 342014 316017 324017 341020
BBXX 46029 16181 99461 71245 46/// /1703 10089 20075 40322 51004 91750 22200 00085 11604 20401 331// 41604 70020 333 91204 555 11034 22038 31729 41705 61749 171031 173033 168036 164035 159034 162031
BBXX 46087 16181 99485 71247 46/// /1206 10080 20071 40309 54000 91750 555 11067 22071
BBXX 46069 16181 99337 71202 46/// /3505 10134 40210 53012 91750 22200 00137 11104 20401 330// 41104 70021 333 91206 555 11051 22053 31705 43408 61749 347050 352051 351051 344062 338065 344049
BBXX 46027 16181 99419 71244 46/// /0000 10102 40286 52007 91750 22200 00092 11704 20401 328// 41704 70019 333 91201 555 11003 22004 31720 42802 61749 260003 269003 292009 286003 239002 235003
BBXX 46011 16181 99350 71210 46/// /3606 10119 40225 52005 91750 22200 00131 11104 20401 330// 41104 70022 333 91207 555 11065 22068 31737 43508 61749 356062 354060 353058 356057 357054 000056
BBXX 44014 16181 99366 70748 46/// /0108 1//// 40201 52006 91750 22200 00152 10703 20602 318// 40702 70014 333 91210 555 11083 22083 31708 40111 61749 006083 001088 003091 004092 006091 358092
BBXX DFWV2 16184 99300 71767 41/98 71918 10215 20175 40200 54000 7//22 8/7// 2226/ 04200 29903 3//// 4//// 5////
BBXX 46001 16181 99563 71480 46/// /2011 10051 40005 54000 91750 22200 00050 11413 20704 300// 41412 70063 333 91215 555 11120 22128 31749 42115 61749 195112 193107 194104 195108 193096 195097
BBXX 42055 16181 99222 70940 46/// /0906 10255 20220 40187 51004 91750 22200 00253 10502 20401 310// 40502 70010 333 91206 555 11059 22063 31704 40807 61749 084055 082054 078058 074060 078062 080061 80807 91651
BBXX 41049 16181 99275 70630 46/// /0308 10222 20131 40192 56014 91750 22200 00245 11407 20604 300// 41406 70034 333 91210 555 11087 22091 31737 40311 61749 033083 031086 037084 024089 027086 026086 80310 91652
BBXX 41043 16181 99211 70650 46/// /0407 10241 20173 40169 58017 91750 22200 00268 11006 20603 300// 41005 70030 333 91210 555 11078 22082 31703 40411 61749 036074 036081 037086 042083 039087 035087 80410 91704
BBXX 46105 16181 99590 71522 46/// ///// 1//// 91750 22200 11003 70016
BBXX 41047 16181 99275 70715 46/// /0605 10226 40225 58020 91750 22200 00253 11007 20501 305// 41006 70033 333 91207 555 11054 22056 31739 40707 61749 062053 068052 074049 057048 052049 064051 80606 91748
BBXX 42040 16181 99292 70882 46/// /3601 10235 40224 58003 91750 22200 00234 10902 20401 316// 40902 70012 333 91202 555 11012 22014 31745 40102 61749 003012 012008 350006 344009 349009 352009
BBXX 44005 16181 99432 70691 46/// /2813 10089 20021 40076 53023 91750 22200 00088 10707 20707 70035 333 91215 555 11137 22147 31700 42917 61749 278129 278122 281127 281136 282143 280141
BBXX 44066 16181 99396 70726 46/// /3111 10083 20000 40184 51012 91750 22200 00130 10806 20806 3//// 41301 70032 333 91214 555 11119 22125 31712 43016 61749 306112 306120 311121 312128 314125 308124
BBXX 42059 16181 99151 70675 46/// /0610 10276 20189 40130 58019 91750 22200 00285 10904 20703 3//// 40903 70021 333 91212 555 11101 22107 31728 40712 61749 062096 057100 053096 054098 058097 060099 80611 91742
BBXX 42019 16181 99279 70954 46/// /0210 10187 20179 40211 51008 91750 555 11102 22108
BBXX 42056 16181 99198 70849 46/// /0808 10268 20206 40170 58010 91750 22200 00272 10804 20503 310// 40803 70021 333 91209 555 11080 22085 31653 41010 61749 083075 087075 084076 087077 086079 091079 80808 91702
BBXX 41036 16181 99342 70770 46/// ///// 10191 20143 40207 58013 91750 22200 00177 11003 70013
BBXX 42002 16181 99258 70937 46/// /1304 10249 20202 40208 50000 91750 22200 00243 10803 20401 310// 40802 70013 333 91204 555 11036 22038 31651 41205 61749 131035 123037 126039 124042 123042 120043
BBXX 42036 16181 99285 70845 46/// /1302 10216 20178 40224 58004 91750 22200 00221 10501 20401 317// 40501 70007 333 91203 555 11025 22026 31650 41404 61749 128024 127018 141017 138020 143025 140026
BBXX 41060 16181 99148 70510 46/// ///// 1//// 91750 22200 10903 70017
BBXX 42060 16181 99163 70635 46/// /0308 10268 20193 40136 58019 91750 22200 00282 11004 20603 300// 41002 70018 333 91209 555 11081 22085 31704 40210 61749 032075 028077 035072 026078 029078 026081 80209 91704
BBXX 41001 16181 99347 70727 46/// ///// 10220 20163 40195 58019 91750 22200 00220 10806 70029
BBXX 42003 16181 99260 70856 46/// /1504 1//// 91750 22200 10802 20401 313// 40802 70012 333 91205 555 11045 22047 31657 41406 61749 149043 148045 152045 151042 147047 139046 81505 91707
BBXX WKPF 16183 99352 70750 41698 42719 10210 2015/ 40193 57025 70200 81105 22285 00235 20202 323// 40603 5//// 6//// 80170 ICE /////
BBXX V2NA1 16184 99360 70579 41598 32607 10190 20060 40195 55025 70222 83568 22223 04200 21205 304// 41205 80120
BBXX LAOX5 16181 99318 71730 41597 52018 00/// 10210 2013/ 40220 54000 70121 85828 22214 00210 21005 331// 41210 5//// 6//// 80163
BBXX CG2350 16184 99433 70798 46/// /2414 10036 21008 40218 56012 7//// 8//// 22200 0//// 2////
BBXX CG2960 16184 99424 70829 46/// /2413 10017 21043 40255 51005 7//// 8//// 22252 00049 2////
BBXX CGDS 16184 99447 70755 46/// /3110 10038 21021 4//// 5//// 7//// 8//// 22200 0//// 2////
BBXX 44009 16181 99385 70747 46/// /3412 10088 40215 50000 91750 22200 00120 10604 20603 300// 41101 70018 333 91214 555 11123 22130 31742 43314 61749 336116 336108 337104 337114 334114 334107
BBXX 44020 16181 99414 70702 46/// /2813 10086 20005 40128 53008 91750 22200 00091 333 91216 555 11136 22145 31744 42816 61749 276125 259117 259121 259126 259131 259124
BBXX 44040 16181 99410 70736 46/// /3309 10074 21034 40195 91745 22200 10301 70005 333 91211 555 11103 22118
BBXX 44065 16181 99404 70737 46/// /3109 10078 21030 40194 52010 91750 22200 00109 11103 20502 308// 41102 70013 333 91211 555 11092 22096 31719 43114 61749 305089 307095 307096 309103 309096 307096 83112 91719
BBXX 41004 16181 99325 70791 46/// /2706 10200 20151 40223 58015 91750 22200 00218 11002 20301 3//// 41002 70010 333 91207 555 11062 22065 31746 42707 61749 275059 271057 267054 266053 258053 265056
BBXX 44025 16181 99402 70732 46/// /3010 10077 21030 40185 51013 91750 22200 00118 10604 20603 309// 41201 70018 333 91212 555 11110 22116 31651 43013 61749 296100 295091 304101 300094 298095 306101
BBXX 41013 16181 99334 70777 46/// /2506 10197 20153 40210 58016 91750 22200 00202 11102 20401 310// 41102 70011 333 91207 555 11061 22065 31659 42708 61749 253059 249057 256059 262060 270062 267063
BBXX 44027 16181 99443 70673 46/// /2812 10086 20030 40030 53021 91750 22200 00088 10805 20805 3//// 41201 70024 333 91215 555 11126 22135 31650 42715 61749 275118 275119 276119 275120 278120 275124
BBXX KEY796 16183 99571 71703 41/97 83316 11028 21044 49821 53/// 785// 8//// 222// 00006 2//// 3//// 4//// 5//// 6//// 8//// ICE /////
BBXX WSNB 16184 99515 71339 41297 81408 00/// 10101 2010/ 40080 57025 76162 886// 22273 0//// 21002 324// 41203 5//// 6//// 80113 ICE /////
BBXX NWS0022 16184 99416 70714 43/// /2911 10101 21009 40145 5//// 7//// 8//// 222// 04131 2//// 3//// 4//// 5//// 6//// 8//// ICE /////
BBXX 42020 16181 99270 70967 46/// /0209 10191 20172 40218 51012 91750 22200 00238 10604 20604 70021 333 91211 555 11099 22104 31723 40212 61749 016094 015092 017093 012093 016089 016091
BBXX 41044 16181 99217 70587 46/// /3608 10247 20152 40134 56015 91750 22200 00266 11007 20704 300// 41006 70036 333 91210 555 11086 22090 31733 43611 61749 002081 358087 003091 006085 007084 006085 83610 91724
BBXX 42012 16181 99301 70876 46/// /0502 10200 20184 40225 58003 91750 22200 00203 10702 20401 316// 40702 70009 333 91202 555 11020 22020 31734 40402 61749 045019 043020 042017 045016 053017 049017
BBXX 42065 16181 99149 70750 46/// /0810 10276 20222 91750 22200 10705 20705 70027 333 91212 555 11103 22110 31701 40812 61749 077095 082097 081094 083097 084099 082099 80811 91742
BBXX 42001 16181 99259 70897 46/// /0604 10238 20189 40225 50000 91750 22200 00260 10603 20401 3//// 40603 70015 333 91205 555 11042 22043 31737 40706 61749 063042 069045 073030 065033 071045 074039
BBXX 42058 16181 99149 70749 46/// /0911 10274 20215 40121 58014 91750 22200 00279 10905 20704 308// 40903 70026 333 91212 555 11112 22119 31710 40913 61749 088103 089103 089103 089101 090109 088102 81012 91703
BBXX 42035 16181 99292 70944 46/// /0108 10161 20160 40227 50013 91750 22200 00172 10702 20301 317// 40701 70009 333 91209 555 11081 22085 31712 40109 61749 010076 008078 013076 009079 004074 001071
BBXX 41048 16181 99320 70696 46/// /2704 10206 20124 40224 58024 91750 22200 00228 11306 20401 3//// 41305 70028 333 91206 555 11043 22044 31734 42707 61749 270043 280044 283044 290039 274045 280041 82806 91735
BBXX BATFR08 16184 99486 30711 46/// /2008 10037 20007 40185 51011 22213 00047
BBXX PCHM 16184 99333 31675 41398 52129 10160 20143 40095 51010 72586 83260 22263 00180 20101 323// 40310 80150
BBXX VRZN8 16184 99145 71277 41598 20513 10200 2014/ 40190 51015 7//00 821// 22229 00210 20502 3//60 42303 5//// 6//// 80160 ICE /////
BBXX DDAC2 16180 99054 70804 41/97 /2108 10260 20218 40110 54000 7//00 8/617 22273 04270 2//// 323// 4//06 5//// 80230
BBXX FVNM 16184 99061 70925 46/// /2117 10240 20230 40119 58003 22222 00264
BBXX WDC6698 16184 99084 71451 43/// /0815 11365 2//// 40120 5//// 7//// 8//// 222// 04255 2//// 3//// 4//// 5//// 6//// 8//// ICE /////
BBXX TFHFN 16184 99642 70152 46/// ///// 22200 10502 70010
BBXX TFKGR 16184 99657 70136 46/// ///// 22200 10810 70051
BBXX TFBKF 16184 99635 70202 46/// ///// 22200 10502 70008
BBXX TFGRS 16184 99663 70182 46/// ///// 22200 10808 70041
BBXX TFGRV 16184 99638 70225 46/// ///// 22200 10902 70008
BBXX TFDRN 16184 99658 70212 46/// ///// 22200 11007 70033
BBXX TFBLK 16184 99657 70248 46/// ///// 22200 10904 70021
BBXX TFGSK 16184 99641 70229 46/// ///// 22200 10602 70008
BBXX TFSRT 16184 99633 70203 46/// ///// 22200 10503 70014
BBXX WDC6736 16184 99376 70295 41798 22309 10200 2017/ 40306 56014 70300 81358 22264 00200 20402 327// 40604 5//// 6//// 80180 ICE /////
BBXX 8PSH 16184 99356 10186 46/// /2813 10172 20108 40186 58006 7//// 8//// 22223 0//// 2////
BBXX VRYO3 16184 99513 10043 46/// /0000 10058 20069 49868 53047 7//// 8//// 22200 0//// 2////
BBXX DBBU 16181 99546 10132 46/// /0815 10023 20020 49719 57034 22210 00066
BBXX DBEA 16181 99540 10082 46/// /0116 10046 20027 49782 52043 22260 00064
BBXX DBFR 16181 99538 10089 46/// /3615 10041 20439 49759 52032 22252 00042
BBXX DBJM 16181 99542 10083 46/// /3615 10045 20029 49788 52046 22201 00062
BBXX DK7210 16181 99540 10066 46/// /0115 10067 20051 39800
BBXX DBLK 16181 99685 50033 41498 71108 11006 21022 49709 52028 71582 86841 22242 05019 ICE 35892
AAXX 16184 85032 31457 61804 10315 20239 39895 40053 57049 71592 86900 333 56400 59023 85817 81920
AAXX 16184 85043 11457 70000 10272 20237 39905 40066 57024 60041 71582 86904 333 56700 59010 84817 82920 86070
AAXX 16184 85104 32565 51404 10325 20234 39902 40061 57024 85900 333 56300 59016 84820 81923
AAXX 16184 85109 32565 51406 10330 20237 39910 40069 57025 85200 333 56300 59015 85820
AAXX 16184 85114 32565 51606 10330 20252 39917 40080 57023 85200 333 56400 59012 85817
AAXX 16184 85116 32465 41406 10340 20241 39887 40064 57031 84200 333 56300 59017 84817
AAXX 16184 85139 32465 50000 10330 20248 39840 40030 57020 85200 333 56700 59029 85817
AAXX 16184 85123 32565 41006 10338 20236 39896 40060 57022 84201 333 56200 59015 84820
AAXX 16184 85153 32465 21206 10330 20210 39895 40077 56015 82200 333 56300 59010 82817
AAXX 16184 85154 32570 10000 10331 20227 39890 40066 57028 81100 333 56200 59016 81820
AAXX 16184 78958 12576 60000 10305 20245 30099 40109 60001 83201 333 10314 20227 58012 83822 83078
AAXX 16184 48325 31956 00000 10180 20173 39900 40150 56001 71000 333 59002 70000
AAXX 16183 64810 32457 42408 10282 20248 30059 40085 83500 333 10315 55/// 59003 83614
AAXX 16183 64820 32460 72206 10278 20252 30099 40108 82570 333 10302 58006 83613 87363
AAXX 16184 16546 12566 62617 10170 20125 30052 40079 57040 60002 85830 333 10188 83825 83630
AAXX 16181 06414 16/// /3011 10036 20012 39878 49910 51051 60132 333 10103 91118 91212
AAXX 16181 06459 16/// /2610 10010 20010 39716 49909 51066 60082 333 10118 91116 91211
AAXX 16181 06494 16/// /2708 11013 21017 39087 49884 50069 60212 333 10073 4/007 91116 91210
BBXX FLAO 1618/ 99764 70847 46/// ///// 11235 40057 52001
AAXX 16184 16622 12560 31206 10096 20031 30099 40110 57008 60002 81105 333 10152 81830 83068 90730 91112 555 10000 40094 30000 10100 2//// 30112 4//// 5//// 40000 47605 44215 50000 50068
AAXX 16184 16641 12560 31505 10118 20094 30136 40142 57011 60002 82131 333 10170 82825 83358 90730 91108 555 10000 40116 40000 47634 44220 50000 50106
AAXX 16184 16682 12560 31605 10114 20090 30133 40151 57014 60002 81140 333 10188 81820 83358 90730 91109 555 10000 40112 30000 10125 20140 30142 40144 50141 60190 40000 47633 44230 50000 50102
AAXX 16184 16716 12570 23006 10160 20046 30136 40154 52013 60202 81102 333 10182 555 10000 40136 40000 47632 44190 50000 50106 60000 60200 60045
AAXX 16184 16734 17/// /2405 10150 20073 30108 40168 57007 69902 7//4/ 333 10189 90730 91116 555 10000 40150 60000 65555 60330
AAXX 16184 16743 NIL
AAXX 16184 16749 12460 51302 10134 20115 30139 40154 52010 60052 84650 333 10196 81712 84625 90730 91110 555 10000 40134 40000 47637 44220 50000 50124 60000 60045 60035
AAXX 16184 16754 12560 12404 10150 20105 30126 40173 52017 60002 81200 333 10216 90730 91105 555 10000 40138 40000 47627 44210 50000 50126
BBXX UFJN 16181 99715 10399 41/96 82213 11020 49914 52025 72122 88/// 22200 0//// 20402
BBXX A8CP6 16180 99205 31536 41398 41211 10250 20235 40130 56020 70211 841// 22285 00263 20604 312// 40804 5//// 80240
AAXX 16184 78958 12576 60000 10305 20245 30099 40109 60001 83201 333 10314 20227 58012 83822 83078
AAXX 16184 04005 NIL
AAXX 16184 04018 32686 23406 11022 21087 40076 51010 82500 333 11015 21033 555 3//09 82641
AAXX 16184 04030 32589 12901 11033 21077 40076 52013 81505 333 11002 21035 555 3//07 81630 81270
AAXX 16184 04048 NIL
AAXX 16184 04063 22580 61903 11051 21076 40046 52015 84510 333 11009 21051 69928 555 3//09
AAXX 16184 04077 NIL
AAXX 16184 04082 32989 83421 11011 21041 49978 57015 82470 333 10015 21010 555 3//23 82658 84256 87256
AAXX 16184 04097 21582 43418 11014 21075 40004 52031 78583 84300 333 10004 21019 60018 555 3/424
AAXX 16183 04013 32589 82002 11030 21061 40070 52002 82220 333 11015 21042 555 3//05
AAXX 16183 04064 32784 43609 11021 21104 40036 52018 82542 333 10005 21025 555 3//13
AAXX 16184 91925 02681 21206 10300 20211 30077 40137 51011 60001 82200 333 56100 60007 82833 90710 91109 555 60005 11209 59003
AAXX 16184 91929 04/86 /0808 10291 20221 30147 40150 51016 60002 700// 333 10291 20253 60007 90710 91110 555 60005
AAXX 16184 91938 01581 13302 10284 20214 30149 40151 51016 60002 702// 81200 333 10284 20244 60007 81820 90710 91106 555 60005 10607 59008
AAXX 16184 91943 16/// /1105 10278 20214 30143 40145 51012 60012 333 10283 59009
AAXX 16184 91944 06/// /1109 10285 20197 30138 40141 50004 60002 333 10285 20249 60007 90710 91113 555 60005
AAXX 16184 91948 02582 21907 10259 20205 30038 40139 50004 60001 82800 333 56200 60007 82820 90710 91116 555 60005 11920 59030
AAXX 16184 91954 06/// /2502 10267 20217 30154 40157 51006 69921 333 60007 555 59020
AAXX 16184 91958 02581 40706 10259 20200 30167 40169 51002 60001 84801 333 56300 60007 84823 90710 91109 555 60005 10812 59028
AAXX 16184 91945 NIL
AAXX 16184 48350 31550 71303 10208 20147 39867 40173 57000 71022 87500 333 58026
AAXX 16184 47090 32973 02702 11073 21192 30261 40285 53004 333 92031
AAXX 16184 47095 32970 02901 11143 21174 30133 40340 52011
AAXX 16184 47097 329// /3402 11106 21170 30230 40334 52010
AAXX 16184 47098 329// /0902 11122 21165 30186 40332 52009
AAXX 16184 47099 329// /1602 11129 21150 30295 40335 52008
AAXX 16184 47100 32970 02308 11157 21196 39335 40333 52011
AAXX 16184 47102 32670 62908 11045 21102 30142 40330 53001 85500
AAXX 16184 47104 32970 01406 11077 21187 30184 40288 52007
AAXX 16184 47106 329// /2306 11059 21170 30235 40287 52006
AAXX 16184 47112 32970 03602 11087 21170 30244 40334 52007 333 92011
AAXX 16184 47114 32968 02003 11101 21174 30135 40332 52012
AAXX 16184 47119 32970 02903 11093 21160 30289 40334 52007
AAXX 16184 47121 329// /2703 11117 21146 30014 40332 52012
AAXX 16184 47127 329// /0001 11108 21152 30183 40336 52011
AAXX 16184 47129 32665 63607 11039 21099 30294 40332 51002 86500
AAXX 16184 47130 32970 02307 11059 21156 30223 40288 52003 333 92033
AAXX 16184 47131 32670 23403 11077 21133 30256 40331 52008 82500
AAXX 16184 47135 329// /2710 11070 21121 30002 40319 53003
AAXX 16184 47136 32970 03203 11085 21150 30133 40317 52006
AAXX 16184 47137 329// /2704 11069 21129 30192 40318 52003
AAXX 16184 47140 32670 60502 11043 21105 30294 40324 58003 85500 333 92012
AAXX 16184 47143 32970 03203 11054 21134 30238 40322 52006
AAXX 16184 47145 32670 23604 11079 21162 30298 40326 52008 82500
AAXX 16184 47146 32670 20502 11058 21117 30257 40327 55001 81500
AAXX 16184 47150 32668 60206 11039 21105 30302 40322 58003 86500
AAXX 16184 47152 32970 03606 11056 21134 30250 40295 53003
AAXX 16184 47154 329// /3205 11060 21123 30252 40316 53002
AAXX 16184 47155 32970 00904 11040 21126 30253 40301 53002
AAXX 16184 47156 32670 70507 11036 21073 30228 40322 55001 87500
AAXX 16184 47157 32975 00503 11084 21122 30016 40304 53001
AAXX 16184 47162 32970 00204 11030 21117 30255 40297 55002 333 92022
AAXX 16184 47169 32668 63416 10019 21050 30216 40313 57002 86500 333 92065
AAXX 16184 47170 32670 43410 11004 21059 30267 40312 50002 84500 333 92023
AAXX 16184 47171 329// /0001 11053 21104 30266 40324 56003
AAXX 16184 47172 329// /3403 11042 21088 30248 40318 55001
AAXX 16184 47173 329// /0503 11069 21107 30208 40326 54000
AAXX 16184 47174 32970 02907 11050 21100 30096 40310 55001
AAXX 16184 47175 32561 63410 11037 21046 39712 40312 50003 86500 333 92024
AAXX 16184 47185 41570 63223 10043 21023 30211 40304 50001 72688 86800 333 92056
AAXX 16184 47188 32670 63604 10030 21033 30278 40300 56005 86500 333 92032
AAXX 16184 47189 32670 50704 10028 21019 30228 40290 58008 85500 333 92032
AAXX 16184 47192 32970 00502 11063 21112 30266 40306 53003
AAXX 16181 76040 32960 43204 10131 20066 30169 40183 52011 84300 91745 333 10178 20078 30/// 56300 59039 84377 98660
AAXX 16181 76055 32880 33211 10166 21001 30138 40157 52007 83030 91740 333 10187 20062 30/// 56060 59045 83357
AAXX 16181 76061 32981 00402 10128 20075 30100 40176 52010 91740 333 10130 20070 30/// 59054
AAXX 16181 76113 32980 01701 10140 20052 39668 40150 52002 91745 333 10148 20032 30/// 59050
AAXX 16181 76122 32970 11404 10082 21003 38566 40241 52011 81030 91750 333 10086 21010 30/// 56090 58016
AAXX 16181 76123 06/// 11110 10099 21020 3//// 4//// 5//// 60002 7//// 81030 91750 333 0//// 10099 21014 56090 57/// 5//// 60007 8//// 8//// 8//// 8//// 9//// 9//// 9//// 444 ///// 555
AAXX 16181 76225 32960 20701 10103 21020 38670 40239 52010 80008 91745 333 10103 21012 30/// 56005 58039 84270
AAXX 16181 76226 06/// /0402 10111 21031 38663 40186 51009 60002 7//// 8//// 91750 333 0//// 10111 21006 30/// 4//// 54/// 56/// 57/// 58041 60007 8//// 8//// 8//// 9//// 9//// 9//// 44
AAXX 16181 76256 32980 00000 10158 20070 30165 40179 52013 91745 333 10163 20043 30/// 59025
AAXX 16181 76258 32970 01104 10192 20071 30119 40165 52006 91750 333 10196 20044 30/// 59015
AAXX 16181 76305 32970 01402 10208 20094 30157 40165 52011 91750 333 10223 20081 30/// 59032
AAXX 16181 76323 32970 73601 10095 20007 38305 40299 52015 82038 91755 333 10100 20003 30/// 56055 58048 82358
AAXX 16181 76342 31460 80602 10106 20088 39577 40302 52018 70222 887// 91750 333 10134 20102 30/// 561// 58085 88710
AAXX 16181 76382 32680 11601 10190 20129 38931 40188 52006 81030 91755 333 10207 20095 30/// 56030 58036 81356
AAXX 16181 76390 31950 03505 10141 20098 38263 40204 52009 70544 91730 333 10154 20070 30/// 58034
AAXX 16181 76393 31410 83601 10140 20106 39655 40241 52013 70422 887// 91751 333 10144 20136 30/// 569// 58081 88714
AAXX 16181 76402 31558 40000 10192 20116 30114 40172 52008 70544 84700 91745 333 10194 20056 30/// 56500 59025 84727
AAXX 16181 76423 32984 31401 10190 20038 38164 40193 57001 80004 91748 333 10216 20028 30/// 56009 58016 82067 81267
AAXX 16181 76458 32570 22603 10214 20162 30161 40165 52004 82100 91740 333 10238 20122 30/// 563// 59006 81822 81621
AAXX 16181 76471 32980 02105 10191 20029 37705 40155 52002 91750 333 10195 20040 30/// 58010
AAXX 16181 76490 06/// /0204 10192 20143 39828 40218 51011 60002 7//// 8//// 91750 333 0//// 10216 20160 30/// 54/// 56/// 57/// 58070 60007 8//// 8//// 8//// 8//// 9//// 9//// 9//// 44
AAXX 16181 76491 32560 83602 10192 20171 39844 40237 52012 885// 91750 333 10203 20145 30/// 569// 58071 88630
AAXX 16181 76499 32457 83403 10210 20183 30186 40208 52016 886// 91740 333 10220 20182 30/// 568// 58085 88715
AAXX 16181 76519 32560 32701 10210 20024 38381 40225 54000 80001 91755333 10213 20040 30/// 56006 58008 83070
AAXX 16181 76525 32980 11605 10143 20016 37489 40148 52005 80001 91740 333 10143 20092 30/// 56//5 58011 81080
AAXX 16181 76538 06/// /1102 10199 20087 38186 40130 58003 60002 7//// 8//// 91750 333 0//// 10199 20072 30/// 4//// 54/// 56/// 57/// 58022 60007 8//// 8//// 8//// 9//// 9//// 9//// 44
AAXX 16181 76539 31962 01501 10172 20093 38186 40218 52001 70544 91745 333 10192 20050 30/// 58020
AAXX 16181 76543 31570 43604 10283 20213 30176 40209 51007 70544 82130 91740 333 10283 20201 30/// 56330 58045 82834
AAXX 16181 76547 06/// /0803 10262 20220 30182 40194 50004 69922 7//// 8//// 91750 333 0//// 10262 20219 56/// 57/// 58047 69927 8//// 8//// 8//// 8//// 9//// 9//// 9//// 444 ///// 555
AAXX 16181 76548 32470 70803 10252 20215 30196 40206 50008 83230 91740 333 10255 20220 31/// 56250 58046 83815 84357
AAXX 16181 76556 32970 10401 10256 20121 39124 40156 50007 80001 91732 333 10263 20123 30/// 56004 59005 81070
AAXX 16181 76571 31970 30000 10200 20017 38184 40207 56002 705// 80004 91750 333 10240 20050 30/// 56005 58010
AAXX 16181 76577 32570 22303 10202 20154 38059 40179 58002 81405 91740 333 10208 20088 30/// 56105 58007 81624
AAXX 16181 76578 06/// /2405 10213 20017 38055 40103 58005 60002 7//// 8//// 91750 333 0//// 10213 20085 30/// 4//// 54/// 56/// 57/// 58007 60007 8//// 8//// 8//// 9//// 9//// 9//// 44
AAXX 16181 76581 32970 60502 10224 20153 39066 40169 57003 86020 91750 333 10234 20154 30/// 56020 58031 86460
AAXX 16181 76585 31670 30901 10251 20204 30035 40191 50005 70544 83200 91735 333 10255 20190 30/// 568// 58047 83833
AAXX 16181 76586 06/// /3301 10266 20207 30037 40190 50003 60002 7//// 8//// 91750 333 0//// 10266 20187 30/// 4//// 54/// 56/// 57/// 58048 60007 8//// 8//// 8//// 9//// 9//// 9//// 44
AAXX 16181 76592 06/// /0512 10274 20044 30185 40185 58008 60002 7//// 8//// 91750 333 0//// 10287 20204 30/// 4//// 54/// 56/// 57/// 58021 60007 8//// 8//// 8//// 9//// 9//// 9//// 44
AAXX 16181 76593 32470 20506 10274 20238 30185 40187 58005 82200 91750 333 10287 20202 30/// 561// 58019 82820 91009 91505
AAXX 16181 76612 32662 21201 10226 20090 38489 40187 50001 81130 91750 333 10232 20072 30/// 56660 58008 81840
AAXX 16181 76625 32950 03604 10222 20053 38156 40142 50003 91740 333 10222 20110 30/// 58009
AAXX 16181 76632 31957 01502 10180 20050 37652 40145 54000 70500 91740 333 10185 20090 30/// 58009
AAXX 16181 76634 31970 03103 10200 20031 37871 40207 57005 70500 91745 333 10202 20062 30/// 56/// 58018
AAXX 16181 76641 06/// /1702 10273 20230 30181 40193 50004 60002 7//// 8//// 91750 333 0//// 10275 20213 30/// 4//// 54/// 56/// 57/// 58044 60007 8//// 8//// 8//// 8//// 9//// 9//// 9/
AAXX 16181 76644 32460 71404 10295 20193 30172 30185 56004 872/1 333 10300 20205 30/// 563// 58018 85820 82080 91005 91514
AAXX 16181 76645 06/// /1103 10294 20198 30173 40186 58009 60002 7//// 8//// 91750 333 0//// 10296 20207 30/// 4//// 54/// 56/// 57/// 58019 60007 8//// 8//// 8//// 9//// 9//// 9//// 44
AAXX 16181 76648 06/// /1003 10298 20198 30149 40179 58008 60002 7//// 8//// 91750 333 0//// 10300 20186 30/// 4//// 54/// 56/// 57/// 58018 60007 8//// 8//// 8//// 8//// 9//// 9//// 9/
AAXX 16181 76654 31956 02301 10280 20210 30156 40160 52007 70544 91800 333 10282 20203 30/// 58009
AAXX 16181 76656 32975 10000 10244 20071 38519 40183 58006 80008 91750 333 10252 20070 30/// 56005 58007 81280
AAXX 16181 76658 31558 23202 10287 20139 39642 40149 57006 70540 81101 91746 333 10291 20171 30/// 56101 58006 81822 94002 98904
AAXX 16181 76659 06/// /3102 10314 20118 3//// 4//// 5//// 60002 7//// 8//// 91750 333 0//// 10315 20161 30/// 4//// 54/// 56/// 57/// 5//// 60007 8//// 8//// 8//// 9//// 9//// 9//// 44
AAXX 16181 76662 32970 43001 10252 20049 38487 40184 57009 82106 91745 333 10254 20058 30/// 58015
AAXX 16181 76665 32962 01802 10223 20104 38134 40167 57005 91755 333 10234 20080 30/// 58007
AAXX 16181 76680 31956 00901 10196 20045 37767 40103 57004 70500 80000 91755 333 10202 20092 30/// 58012
AAXX 16181 76681 31950 00501 10200 20080 37793 40178 57005 70500 91745 333 10200 20040 30/// 58018
AAXX 16181 76683 32670 10601 10214 20061 37842 40222 56010 81100 91745 333 10220 20032 30/// 56200 58014 81840
AAXX 16181 76684 06/// /2104 10224 20004 37842 40100 58010 60002 7//// 8//// 91750 333 0//// 10229 20025 30/// 4//// 54/// 56/// 57/// 58013 60007 8//// 8//// 8//// 9//// 9//// 9//// 44
AAXX 16181 76685 31950 02101 10216 20034 37881 40168 57003 70544 91745 333 10218 20055 30/// 58012
AAXX 16181 76687 31560 61601 10192 20131 38715 40222 52010 70211 86500 91737 333 10205 20095 30/// 563// 58031 86622
AAXX 16181 76692 31556 83602 10250 20204 30165 40184 50008 70342 8552/ 91745 333 10271 20216 30/// 5611/ 58026 81820 84530 83456
AAXX 16181 76693 06/// /0102 10248 20212 30165 40184 50005 60002 7//// 8//// 91750 333 0//// 10271 20216 30/// 4//// 56/// 57/// 58029 60007 8//// 8//// 8//// 8//// 9//// 9//// 9//// 44
AAXX 16181 76695 32460 20603 10290 20220 30159 40164 57006 81100 91750 333 10302 20206 30/// 562// 58020 82817
AAXX 16181 76698 32560 40601 10288 20227 30173 40184 57004 82210 91750 333 10305 20188 30/// 5610/ 58020 82820
AAXX 16181 76726 32970 02001 10252 20130 38413 40135 52002 91755 333 10252 20134 30/// 58007
AAXX 16181 76727 06/// /1401 10249 20063 38410 40087 58001 60002 7//// 8//// 91750 333 0//// 10264 20127 30/// 4//// 54/// 56/// 57/// 58010 60007 8//// 8//// 8//// 9//// 9//// 9//// 44
AAXX 16181 76737 31480 30201 10212 20148 38805 40202 50006 70300 83200 91735 333 10223 20092 30/// 56200 58029 83813 91105 91516
AAXX 16181 76738 06/// /0201 10221 20131 38804 40160 50003 60002 7//// 8//// 333 10223 20083 30/// 56/// 57/// 58028 60007 8//// 8//// 8//// 8//// 9//// 9//// 9//// 444 ///// 555 30191
AAXX 16181 76750 32560 60603 10296 20218 30162 40172 57005 81112 91750 333 10308 20195 30/// 56116 58017 81820 84270
AAXX 16181 76751 06/// /0802 10305 20224 30163 40173 58004 60002 7//// 8//// 91750 333 0//// 10305 20195 30/// 4//// 54/// 56/// 57/// 58018 60007 8//// 8//// 8//// 9//// 9//// 9//// 44
AAXX 16181 76762 32504 13201 10282 20230 38768 40200 54000 81200 91740 333 10283 20124 30/// 56100 58015 81830
AAXX 16181 76772 06/// /1001 10255 20069 38436 40102 58014 60002 7//// 8//// 91750 333 0//// 10257 20050 30/// 4//// 56/// 57/// 58004 60007 8//// 8//// 8//// 9//// 9//// 9//// 444 ////
AAXX 16181 76773 31968 00301 10246 20070 38435 40186 57010 7054/ 91745 333 10252 20055 30/// 58006
AAXX 16181 76775 31965 00701 10262 20083 38532 40174 57002 70200 91740 333 10310 20102 30/// 58007
AAXX 16181 76776 06/// /1001 10258 20080 38513 40094 58013 60002 7//// 8//// 91750 333 0//// 10259 20102 30/// 4//// 56/// 57/// 58010 60007 8//// 8//// 8//// 9//// 9//// 9//// 444 ////
AAXX 16181 76805 32970 02301 10295 20220 30129 40132 58005 91750 333 10314 20218 30/// 58006
AAXX 16181 76806 06/// /2302 10299 20210 30131 40135 58005 60002 7//// 8//// 91750 333 10314 20209 30/// 56/// 57/// 58008 60007 8//// 8//// 8//// 8//// 9//// 9//// 9//// 555 30277
AAXX 16181 76833 32970 03603 10322 20279 30128 40130 57006 91745 333 10322 20232 30/// 58012 92001
AAXX 16181 76840 32550 10304 10324 20210 30071 40126 57003 81200 91740 333 10338 20215 30/// 56800 58014 81827
AAXX 16181 76843 32565 50000 10271 20186 39505 40147 57005 84201 91742 333 10279 20192 30/// 569/9 58018 84827
AAXX 16181 76845 32460 60702 10188 20144 37960 40190 56008 86400 91750 333 10208 20077 30/// 56200 58016 84620 82717
AAXX 16181 76848 31670 30502 10227 20140 38393 40113 58003 70312 83100 91750 333 10231 20117 30/// 56100 58013 83836
AAXX 16181 76902 06/// /2001 10329 20220 39997 40132 58009 60002 7//// 8//// 91750 333 0//// 10329 20219 30/// 4//// 54/// 56/// 57/// 58015 60007 8//// 8//// 8//// 8//// 9//// 9//// 9/
AAXX 16181 76903 31680 32201 10304 20228 39999 40129 58010 70122 83200 91755 333 10348 20224 30/// 56100 58018 83833
AAXX 16181 76160 32962 01401 10136 20081 39915 40170 52007 91730 333 10136 20040 30/// 59029
AAXX 16181 76243 32372 83504 10122 20086 39978 40279 52019 886// 91740 333 10126 20102 30/// 568// 58093 88714
AAXX 16181 76253 32482 30902 10166 20084 30083 40173 53013 83100 91759 333 10175 20110 30/// 56500 59038 83820 92001
AAXX 16181 76311 32980 00000 10214 20130 39875 40106 52003 91755 333 10222 20086 30/// 59008
AAXX 16181 76405 32880 42201 10205 20139 30156 40176 50008 84030 91750 333 10205 20112 30/// 56050 59015 84357
AAXX 16181 76412 31966 32201 10184 20135 30125 40170 57012 70544 83050 91750 333 10190 20095 30/// 56050 59025 83357
AAXX 16181 76640 31458 70902 10262 20236 30198 40209 52010 70222 8372/ 91740 333 10276 20212 31/// 5619/ 58044 83715 84440
AAXX 16181 76647 32570 70903 10288 20207 30163 40193 58002 8423/ 91750 333 10292 20187 30/// 562// 58020 84833 83358
AAXX 16181 76741 31470 50503 10266 20245 30144 40162 52009 70544 83230 91730 333 10273 20230 30/// 5611/ 58026 83814
AAXX 16181 76743 31457 70501 10278 20240 30155 40163 57001 70211 8725/ 91745 333 10300 20215 30/// 5620/ 86815 81356
AAXX 16181 76855 32580 31801 10308 20234 30074 40123 50005 82230 91740 333 10314 20210 30/// 56990 58013 82820 92000
AAXX 16184 47101 32970 00001 11116 21163 30230 40334 52011
AAXX 16184 47105 369// /2509 11065 21188 30256 40290 52007
AAXX 16184 47108 32970 00201 11103 21178 30218 40332 52005
AAXX 16184 47115 41515 82303 11016 21046 39982 40264 53004 78587 888// 333 92041
AAXX 16184 47133 31668 63403 11063 21096 30240 40330 52005 77077 86500
AAXX 16184 47138 32970 02904 11047 21154 30293 40296 53003 333 92022
AAXX 16184 47159 32975 03405 11039 21155 30202 40292 53002 333 92022
AAXX 16184 47165 41561 60503 11022 21045 30266 40315 56002 78588 86800 333 92022
AAXX 16184 47168 32970 03614 11029 21116 30213 40296 57004 333 92024
AAXX 16184 47184 32668 62910 10037 21042 30287 40313 51002 86500 333 92043
AAXX 16181 76040 32960 43204 10131 20066 30169 40183 52011 84300 91745333 10178 20078 30/// 56300 59039 84377 98660
AAXX 16181 76055 32880 33211 10166 21001 30138 40157 52007 83030 91740333 10187 20062 30/// 56060 59045 83357
AAXX 16181 76061 32981 00402 10128 20075 30100 40176 52010 91740 33310130 20070 30/// 59054
AAXX 16181 76113 32980 01701 10140 20052 39668 40150 52002 91745 33310148 20032 30/// 59050
AAXX 16181 76122 32970 11404 10082 21003 38566 40241 52011 81030 91750333 10086 21010 30/// 56090 58016
AAXX 16181 76123 06/// 11110 10099 21020 3//// 4//// 5//// 60002 7////81030 91750 333 0//// 10099 21014 56090 57/// 5//// 600078//// 8//// 8//// 8//// 9//// 9//// 9//// 444 ///// 555
AAXX 16181 76225 32960 20701 10103 21020 38670 40239 52010 80008 91745333 10103 21012 30/// 56005 58039 84270
AAXX 16181 76226 06/// /0402 10111 21031 38663 40186 51009 60002 7////8//// 91750 333 0//// 10111 21006 30/// 4//// 54/// 56///57/// 58041 60007 8//// 8//// 8//// 9//// 9//// 9//// 44
AAXX 16181 76256 32980 00000 10158 20070 30165 40179 52013 91745 33310163 20043 30/// 59025
AAXX 16181 76258 32970 01104 10192 20071 30119 40165 52006 91750 33310196 20044 30/// 59015
AAXX 16181 76305 32970 01402 10208 20094 30157 40165 52011 91750 33310223 20081 30/// 59032
AAXX 16181 76323 32970 73601 10095 20007 38305 40299 52015 82038 91755333 10100 20003 30/// 56055 58048 82358
AAXX 16181 76342 31460 80602 10106 20088 39577 40302 52018 70222 887//91750 333 10134 20102 30/// 561// 58085 88710
AAXX 16181 76382 32680 11601 10190 20129 38931 40188 52006 81030 91755333 10207 20095 30/// 56030 58036 81356
AAXX 16181 76390 31950 03505 10141 20098 38263 40204 52009 70544 91730333 10154 20070 30/// 58034
AAXX 16181 76393 31410 83601 10140 20106 39655 40241 52013 70422 887//91751 333 10144 20136 30/// 569// 58081 88714
AAXX 16181 76402 31558 40000 10192 20116 30114 40172 52008 70544 8470091745 333 10194 20056 30/// 56500 59025 84727
AAXX 16181 76423 32984 31401 10190 20038 38164 40193 57001 80004 91748333 10216 20028 30/// 56009 58016 82067 81267
AAXX 16181 76458 32570 22603 10214 20162 30161 40165 52004 82100 91740333 10238 20122 30/// 563// 59006 81822 81621
AAXX 16181 76471 32980 02105 10191 20029 37705 40155 52002 91750 33310195 20040 30/// 58010
AAXX 16181 76490 06/// /0204 10192 20143 39828 40218 51011 60002 7////8//// 91750 333 0//// 10216 20160 30/// 54/// 56/// 57///58070 60007 8//// 8//// 8//// 8//// 9//// 9//// 9//// 44
AAXX 16181 76491 32560 83602 10192 20171 39844 40237 52012 885// 91750333 10203 20145 30/// 569// 58071 88630
AAXX 16181 76499 32457 83403 10210 20183 30186 40208 52016 886// 91740333 10220 20182 30/// 568// 58085 88715
AAXX 16181 76519 32560 32701 10210 20024 38381 40225 54000 80001 91755333 10213 20040 30/// 56006 58008 83070
AAXX 16181 76525 32980 11605 10143 20016 37489 40148 52005 80001 91740333 10143 20092 30/// 56//5 58011 81080
AAXX 16181 76538 06/// /1102 10199 20087 38186 40130 58003 60002 7////8//// 91750 333 0//// 10199 20072 30/// 4//// 54/// 56///57/// 58022 60007 8//// 8//// 8//// 9//// 9//// 9//// 44
AAXX 16181 76539 31962 01501 10172 20093 38186 40218 52001 70544 91745333 10192 20050 30/// 58020
AAXX 16181 76543 31570 43604 10283 20213 30176 40209 51007 70544 8213091740 333 10283 20201 30/// 56330 58045 82834
AAXX 16181 76547 06/// /0803 10262 20220 30182 40194 50004 69922 7////8//// 91750 333 0//// 10262 20219 56/// 57/// 58047 699278//// 8//// 8//// 8//// 9//// 9//// 9//// 444 ///// 555
AAXX 16181 76548 32470 70803 10252 20215 30196 40206 50008 83230 91740333 10255 20220 31/// 56250 58046 83815 84357
AAXX 16181 76556 32970 10401 10256 20121 39124 40156 50007 80001 91732333 10263 20123 30/// 56004 59005 81070
AAXX 16181 76571 31970 30000 10200 20017 38184 40207 56002 705// 8000491750 333 10240 20050 30/// 56005 58010
AAXX 16181 76577 32570 22303 10202 20154 38059 40179 58002 81405 91740333 10208 20088 30/// 56105 58007 81624
AAXX 16181 76578 06/// /2405 10213 20017 38055 40103 58005 60002 7////8//// 91750 333 0//// 10213 20085 30/// 4//// 54/// 56///57/// 58007 60007 8//// 8//// 8//// 9//// 9//// 9//// 44
AAXX 16181 76581 32970 60502 10224 20153 39066 40169 57003 86020 91750333 10234 20154 30/// 56020 58031 86460
AAXX 16181 76585 31670 30901 10251 20204 30035 40191 50005 70544 8320091735 333 10255 20190 30/// 568// 58047 83833
AAXX 16181 76586 06/// /3301 10266 20207 30037 40190 50003 60002 7////8//// 91750 333 0//// 10266 20187 30/// 4//// 54/// 56///57/// 58048 60007 8//// 8//// 8//// 9//// 9//// 9//// 44
AAXX 16181 76592 06/// /0512 10274 20044 30185 40185 58008 60002 7////8//// 91750 333 0//// 10287 20204 30/// 4//// 54/// 56///57/// 58021 60007 8//// 8//// 8//// 9//// 9//// 9//// 44
AAXX 16181 76593 32470 20506 10274 20238 30185 40187 58005 82200 91750333 10287 20202 30/// 561// 58019 82820 91009 91505
AAXX 16181 76612 32662 21201 10226 20090 38489 40187 50001 81130 91750333 10232 20072 30/// 56660 58008 81840
AAXX 16181 76625 32950 03604 10222 20053 38156 40142 50003 91740 33310222 20110 30/// 58009
AAXX 16181 76632 31957 01502 10180 20050 37652 40145 54000 70500 91740333 10185 20090 30/// 58009
AAXX 16181 76634 31970 03103 10200 20031 37871 40207 57005 70500 91745333 10202 20062 30/// 56/// 58018
AAXX 16181 76641 06/// /1702 10273 20230 30181 40193 50004 60002 7////8//// 91750 333 0//// 10275 20213 30/// 4//// 54/// 56///57/// 58044 60007 8//// 8//// 8//// 8//// 9//// 9//// 9/
AAXX 16181 76644 32460 71404 10295 20193 30172 30185 56004 872/1 33310300 20205 30/// 563// 58018 85820 82080 91005 91514
AAXX 16181 76645 06/// /1103 10294 20198 30173 40186 58009 60002 7////8//// 91750 333 0//// 10296 20207 30/// 4//// 54/// 56///57/// 58019 60007 8//// 8//// 8//// 9//// 9//// 9//// 44
AAXX 16181 76648 06/// /1003 10298 20198 30149 40179 58008 60002 7////8//// 91750 333 0//// 10300 20186 30/// 4//// 54/// 56///57/// 58018 60007 8//// 8//// 8//// 8//// 9//// 9//// 9/
AAXX 16181 76654 31956 02301 10280 20210 30156 40160 52007 70544 91800333 10282 20203 30/// 58009
AAXX 16181 76656 32975 10000 10244 20071 38519 40183 58006 80008 91750333 10252 20070 30/// 56005 58007 81280
AAXX 16181 76658 31558 23202 10287 20139 39642 40149 57006 70540 8110191746 333 10291 20171 30/// 56101 58006 81822 94002 98904
AAXX 16181 76659 06/// /3102 10314 20118 3//// 4//// 5//// 60002 7////8//// 91750 333 0//// 10315 20161 30/// 4//// 54/// 56///57/// 5//// 60007 8//// 8//// 8//// 9//// 9//// 9//// 44
AAXX 16181 76662 32970 43001 10252 20049 38487 40184 57009 82106 91745333 10254 20058 30/// 58015
AAXX 16181 76665 32962 01802 10223 20104 38134 40167 57005 91755 33310234 20080 30/// 58007
AAXX 16181 76680 31956 00901 10196 20045 37767 40103 57004 70500 8000091755 333 10202 20092 30/// 58012
AAXX 16181 76681 31950 00501 10200 20080 37793 40178 57005 70500 91745333 10200 20040 30/// 58018
AAXX 16181 76683 32670 10601 10214 20061 37842 40222 56010 81100 91745333 10220 20032 30/// 56200 58014 81840
AAXX 16181 76684 06/// /2104 10224 20004 37842 40100 58010 60002 7////8//// 91750 333 0//// 10229 20025 30/// 4//// 54/// 56///57/// 58013 60007 8//// 8//// 8//// 9//// 9//// 9//// 44
AAXX 16181 76685 31950 02101 10216 20034 37881 40168 57003 70544 91745333 10218 20055 30/// 58012
AAXX 16181 76687 31560 61601 10192 20131 38715 40222 52010 70211 8650091737 333 10205 20095 30/// 563// 58031 86622
AAXX 16181 76692 31556 83602 10250 20204 30165 40184 50008 70342 8552/91745 333 10271 20216 30/// 5611/ 58026 81820 84530 83456
AAXX 16181 76693 06/// /0102 10248 20212 30165 40184 50005 60002 7////8//// 91750 333 0//// 10271 20216 30/// 4//// 56/// 57///58029 60007 8//// 8//// 8//// 8//// 9//// 9//// 9//// 44
AAXX 16181 76695 32460 20603 10290 20220 30159 40164 57006 81100 91750333 10302 20206 30/// 562// 58020 82817
AAXX 16181 76698 32560 40601 10288 20227 30173 40184 57004 82210 91750333 10305 20188 30/// 5610/ 58020 82820
AAXX 16181 76726 32970 02001 10252 20130 38413 40135 52002 91755 33310252 20134 30/// 58007
AAXX 16181 76727 06/// /1401 10249 20063 38410 40087 58001 60002 7////8//// 91750 333 0//// 10264 20127 30/// 4//// 54/// 56///57/// 58010 60007 8//// 8//// 8//// 9//// 9//// 9//// 44
AAXX 16181 76737 31480 30201 10212 20148 38805 40202 50006 70300 8320091735 333 10223 20092 30/// 56200 58029 83813 91105 91516
AAXX 16181 76738 06/// /0201 10221 20131 38804 40160 50003 60002 7////8//// 333 10223 20083 30/// 56/// 57/// 58028 60007 8////8//// 8//// 8//// 9//// 9//// 9//// 444 ///// 555 30191
AAXX 16181 76750 32560 60603 10296 20218 30162 40172 57005 81112 91750333 10308 20195 30/// 56116 58017 81820 84270
AAXX 16181 76751 06/// /0802 10305 20224 30163 40173 58004 60002 7////8//// 91750 333 0//// 10305 20195 30/// 4//// 54/// 56///57/// 58018 60007 8//// 8//// 8//// 9//// 9//// 9//// 44
AAXX 16181 76762 32504 13201 10282 20230 38768 40200 54000 81200 91740333 10283 20124 30/// 56100 58015 81830
AAXX 16181 76772 06/// /1001 10255 20069 38436 40102 58014 60002 7////8//// 91750 333 0//// 10257 20050 30/// 4//// 56/// 57///58004 60007 8//// 8//// 8//// 9//// 9//// 9//// 444 ////
AAXX 16181 76773 31968 00301 10246 20070 38435 40186 57010 7054/ 91745333 10252 20055 30/// 58006
AAXX 16181 76775 31965 00701 10262 20083 38532 40174 57002 70200 91740333 10310 20102 30/// 58007
AAXX 16181 76776 06/// /1001 10258 20080 38513 40094 58013 60002 7////8//// 91750 333 0//// 10259 20102 30/// 4//// 56/// 57///58010 60007 8//// 8//// 8//// 9//// 9//// 9//// 444 ////
AAXX 16181 76805 32970 02301 10295 20220 30129 40132 58005 91750 33310314 20218 30/// 58006
AAXX 16181 76806 06/// /2302 10299 20210 30131 40135 58005 60002 7////8//// 91750 333 10314 20209 30/// 56/// 57/// 58008 600078//// 8//// 8//// 8//// 9//// 9//// 9//// 555 30277
AAXX 16181 76833 32970 03603 10322 20279 30128 40130 57006 91745 33310322 20232 30/// 58012 92001
AAXX 16181 76840 32550 10304 10324 20210 30071 40126 57003 81200 91740333 10338 20215 30/// 56800 58014 81827
AAXX 16181 76843 32565 50000 10271 20186 39505 40147 57005 84201 91742333 10279 20192 30/// 569/9 58018 84827
AAXX 16181 76845 32460 60702 10188 20144 37960 40190 56008 86400 91750333 10208 20077 30/// 56200 58016 84620 82717
AAXX 16181 76848 31670 30502 10227 20140 38393 40113 58003 70312 8310091750 333 10231 20117 30/// 56100 58013 83836
AAXX 16181 76902 06/// /2001 10329 20220 39997 40132 58009 60002 7////8//// 91750 333 0//// 10329 20219 30/// 4//// 54/// 56///57/// 58015 60007 8//// 8//// 8//// 8//// 9//// 9//// 9/
AAXX 16181 76903 31680 32201 10304 20228 39999 40129 58010 70122 8320091755 333 10348 20224 30/// 56100 58018 83833
AAXX 16181 76160 32962 01401 10136 20081 39915 40170 52007 91730 33310136 20040 30/// 59029
AAXX 16181 76243 32372 83504 10122 20086 39978 40279 52019 886// 91740333 10126 20102 30/// 568// 58093 88714
AAXX 16181 76253 32482 30902 10166 20084 30083 40173 53013 83100 91759333 10175 20110 30/// 56500 59038 83820 92001
AAXX 16181 76311 32980 00000 10214 20130 39875 40106 52003 91755 33310222 20086 30/// 59008
AAXX 16181 76405 32880 42201 10205 20139 30156 40176 50008 84030 91750333 10205 20112 30/// 56050 59015 84357
AAXX 16181 76412 31966 32201 10184 20135 30125 40170 57012 70544 8305091750 333 10190 20095 30/// 56050 59025 83357
AAXX 16181 76640 31458 70902 10262 20236 30198 40209 52010 70222 8372/91740 333 10276 20212 31/// 5619/ 58044 83715 84440
AAXX 16181 76647 32570 70903 10288 20207 30163 40193 58002 8423/ 91750333 10292 20187 30/// 562// 58020 84833 83358
AAXX 16181 76741 31470 50503 10266 20245 30144 40162 52009 70544 8323091730 333 10273 20230 30/// 5611/ 58026 83814
AAXX 16181 76743 31457 70501 10278 20240 30155 40163 57001 70211 8725/91745 333 10300 20215 30/// 5620/ 86815 81356
AAXX 16181 76855 32580 31801 10308 20234 30074 40123 50005 82230 91740333 10314 20210 30/// 56990 58013 82820 92000
AAXX 16184 93004 16/// /2213 10150 20150 40056 52009 69921
AAXX 16184 93023 16/// /2803 10153 20140 40049 52009 60011
AAXX 16184 93069 16/// /2917 10170 20149 40034 52006 60001
AAXX 16184 93110 17698 /0105 10164 20156 40021 52009 69921
AAXX 16184 93186 17496 /0104 10172 20162 40027 54000 60031
AAXX 16184 93196 16/// /2708 10172 20157 40046 52003 60031
AAXX 16184 93245 16498 /0605 10139 20123 40036 52005 60001
AAXX 16184 93292 17496 /1806 10145 20138 40055 52011 60061
AAXX 16184 93309 17596 /1211 10150 20146 40007 52010 60321
AAXX 16184 93334 16/// /0604 10108 20086 39096 52005 69941
AAXX 16184 93339 16/// /0612 10103 20086 39102 52005 69921
AAXX 16184 93373 17396 /2405 10126 20122 40066 52016 60031
AAXX 16184 93404 17798 /1514 10120 20086 40059 52014 69941
AAXX 16184 93420 17698 /2013 10118 20069 40067 52013 69921
AAXX 16184 93439 17596 /1725 10110 20073 40091 52015 60021
AAXX 16184 93498 16/// /2127 10103 20099 40066 52015 69981
AAXX 16184 93515 17998 /1507 10150 20076 40043 52016 60001
AAXX 16184 93527 16/// /1216 10133 20105 40044 52015 60011
AAXX 16184 93546 17898 /0000 10142 20126 40050 52016 60001
AAXX 16184 93597 16/// /1732 10111 20066 40060 52014 60001
AAXX 16184 93615 17998 /1301 10113 20071 40055 52009 60001
AAXX 16184 93678 16698 /2425 10098 20058 40109 52014 60001
AAXX 16184 93709 16/// /1415 10147 20018 40053 52011 60001
AAXX 16184 93773 17698 /1907 10083 20033 40135 52010 60001
AAXX 16184 93781 17597 /2408 10092 20065 40125 52013 60001
AAXX 16184 93800 NIL
AAXX 16184 93805 NIL
AAXX 16184 93831 17598 /1706 10065 20024 40142 52009 60001
AAXX 16184 93845 17698 /3603 10079 20070 40144 52004 60001
AAXX 16184 93891 17698 /1403 10081 20048 40136 52003 60001
AAXX 16184 93909 16/// /1916 10087 20023 40143 52005 60001
AAXX 16184 93929 16/// /2109 10073 20019 40138 54000 60001
AAXX 16184 93947 16/// /2616 10067 20026 40096 57003 60001
AAXX 16184 93987 16/// /3306 10146 20144 49985 57009 69921
AAXX 16184 93994 NIL
AAXX 16183 78970 11462 71004 10298 20242 30074 40099 60091 76081 86842 333 05299 10336 20237 58010 81815 84818 90916
AAXX 16183 78962 11563 50205 10283 20219 30105 40113 60001 71511 84232 333 02199 10304 20230 58013 84820
AAXX 16181 38353 315// 60000 11093 21100 39432 40397 57015 69900 71002 82531 333 11053
AAXX 16181 38613 429// 80101 10002 21049 40355 57010 8802/ 333 10020
AAXX 16181 38616 425// 71801 11026 21042 39303 40362 56007 87300 333 11007
AAXX 16181 38345 32998 00000 11085 21133 38880 48554 58023 333 11017
AAXX 16181 36911 429// 00901 11121 21148 39368 40412 57010 333 11085
AAXX 16181 36974 NIL
AAXX 16181 36982 NIL
AAXX 16181 26038 01362 81403 10008 21004 39916 49956 57016 60002 70222 886// 333 10037 20006 60007 88707 91108 555 1/001 20006 3/001 50028 52001
AAXX 16181 26045 NIL
AAXX 16181 26058 NIL
AAXX 16181 26115 NIL
AAXX 16181 26135 NIL
AAXX 16181 26141 01150 81305 11001 21005 39818 49966 57025 60002 71042 886// 333 10010 21006 60007 88703 91109 555 1/000 21006 3/000 50013 52100
AAXX 16181 26231 01262 81102 10006 21004 39934 49949 58019 60002 70222 886// 333 10027 20005 60007 88706 555 1/001 20005 3/001 50028
AAXX 16181 26242 01257 81003 10001 21010 39872 49959 58029 60002 71022 886// 333 10014 20001 60007 88704 555 1/000 20001 3/100 50014 52100
AAXX 16181 26247 01257 81303 10004 20001 39879 49958 58024 69902 71072 886// 333 10009 21003 60007 88707 555 1/000 21003 3/000 50012
AAXX 16181 15502 12970 00000 10028 20018 30012 40052 57020 60002 333 10136 20028 555 593//
AAXX 16181 15525 12975 01804 10046 20008 39806 40072 58014 60002 333 10134 20046 555 576//
AAXX 16181 15528 12970 01602 10052 20030 39862 40052 57016 60002 333 10115 20050 91120 555 586//
AAXX 16181 15535 12970 02003 10071 20025 30020 40066 53002 60002 333 10112 20041 555 573//
AAXX 16181 15549 12970 02703 10050 20013 39663 40080 58003 60002 333 10090 20034 555 577//
AAXX 16181 15552 12970 32504 10076 20023 30023 40072 52007 60022 83040 222// 2//01 333 10102 20076 555 569// 92023 92428
AAXX 16181 15614 12968 13202 10058 20003 39384 40086 57010 60002 80001 333 10094 20035 555 568//
AAXX 16181 15615 11986 22714 11080 21126 37022 47952 54000 69922 70243 81041 333 11040 21112 91118 555 570//
AAXX 16181 15626 12970 00000 10050 21009 39893 40082 58002 69942 333 10140 20036 555 566//
AAXX 16181 15627 11986 23418 11048 21125 37533 47963 53020 69922 70241 82070 333 11048 21083 44003 91124 555 555//
AAXX 16181 15640 11959 03201 10048 20024 39779 40093 52005 60012 71011 333 10118 20048 555 584//
AAXX 16181 15655 12970 00000 10069 20053 30045 40078 53004 60012 222// 00092 20000 333 10091 20064 555 590// 92012 92418
AAXX 16181 15712 12975 23202 10077 20030 39854 40104 57002 60002 80001 333 10153 20059 555 572//
AAXX 16181 15730 12970 00000 10073 20053 39708 40098 52005 69952 333 10127 20064 555 587//
AAXX 16181 14240 12665 61401 10104 20059 39759 49909 57042 69902 83570 333 10124
AAXX 16181 14258 12670 71606 10125 20018 39745 49926 57043 60002 87500 333 10129
AAXX 16181 14445 12570 72011 10149 20094 39852 40002 57042 60002 84870 333 10149 84895 83499 91118 91525 92323
BBXX LAHV 16181 99589 10057 43/// /0200 10020 20001 49877 222// 04086 1////
BBXX LF4H 16184 99596 10022 46/98 13020 10040 20005 49878 52009 8//// 22200 06084 333 91127
AAXX 16181 26645 11296 81702 10021 20016 39698 49955 57022 69912 71054 886// 333 10021 88706
AAXX 16181 26659 11/06 91701 10002 20002 39761 49976 57014 60022 74774 333 10032
AAXX 16181 26763 11335 81702 10014 20009 39757 49983 57006 60132 76162 8872/ 333 10043 88707
AAXX 16181 26825 31356 81404 10034 20027 39742 49922 57040 71022 886// 333 10034 88708
AAXX 16181 26832 31257 81402 10030 20017 39755 49946 57026 71042 886// 333 10036 88706
AAXX 16181 26887 11496 81408 10052 20047 39809 40011 57007 60032 76165 8872/ 333 10068 88711 91012 91114
AAXX 16181 26961 11323 81601 10018 20011 39793 49985 57008 60052 71062 886// 333 10032 88707
AAXX 16181 33027 11596 81501 10030 20025 39822 49988 57016 69982 72582 8397/ 333 10035
AAXX 16184 48307 NIL
AAXX 16184 48324 NIL
AAXX 16184 48333 33056 10000 10200 20175 39861 40170 52001 81null40 333 593264 70000
AAXX 16184 48350 NIL
AAXX 16184 48355 NIL
AAXX 16184 48358 NIL
AAXX 16184 48384 31958 20000 10184 20153 39982 40178 52003 71000 82005 333 58029 70000
AAXX 16184 48401 31550 60608 10250 20190 30048 40156 53000 71022 82576 333 58020 70000
AAXX 16184 48404 33961 00605 10176 20131 39987 40171 55001 333 58026 70000
AAXX 16184 48409 NIL
AAXX 16184 48419 NIL
AAXX 16184 48427 NIL
AAXX 16184 48435 NIL
AAXX 16184 48453 NIL
AAXX 16184 48458 NIL
AAXX 16184 48474 31956 30000 10245 20193 30006 40130 57005 71020 83005 333 58013 70000
AAXX 16184 48481 NIL
AAXX 16184 48555 NIL
AAXX 16184 48556 NIL
AAXX 16184 48557 NIL
AAXX 16184 48560 NIL
AAXX 16184 48574 NIL
AAXX 16184 48581 NIL
AAXX 16184 48310 NIL
AAXX 16184 48325 31956 00000 10180 20173 39900 40150 56001 71000 333 59002 70000
AAXX 16184 48329 33950 00000 10190 20176 39812 40158 52005 333 5//// 70000
AAXX 16184 48352 NIL
AAXX 16184 48357 NIL
AAXX 16184 48380 NIL
AAXX 16184 48383 31950 00000 10170 20124 30013 40179 56005 71000 333 58019 70000
AAXX 16184 48403 NIL
AAXX 16184 48405 NIL
AAXX 16184 48420 31950 70608 10255 20172 30127 40131 56003 70522 86056 333 58017 70000
AAXX 16184 48421 31950 20000 10215 20199 30026 40142 57005 71000 80005 333 58011 70000
AAXX 16184 48425 NIL
AAXX 16184 48426 NIL
AAXX 16184 48429 NIL
AAXX 16184 48430 31958 20000 10246 20162 30125 40132 56005 70500 82005 333 58019 70000
AAXX 16184 48450 NIL
AAXX 16184 48459 NIL
AAXX 16184 48465 NIL
AAXX 16184 48550 11558 60305 10270 20248 30102 40109 57007 60033 71022 82246 333 58006 70027
AAXX 16184 48552 NIL
AAXX 16184 48566 NIL
AAXX 16184 48568 11459 80407 10264 20242 30098 40106 57005 60113 71062 8287/ 333 5//// 70305
AAXX 16184 48302 NIL
AAXX 16184 48304 32565 40000 10172 20166 39699 40171 51002 82530 333 5//// 70000
AAXX 16184 48334 NIL
AAXX 16184 48360 NIL
AAXX 16184 48372 NIL
AAXX 16184 48373 NIL
AAXX 16184 48374 NIL
AAXX 16184 48386 NIL
AAXX 16184 48387 NIL
AAXX 16184 48408 32960 20302 10187 20145 30004 40157 57005 80001 333 58019 70000
AAXX 16184 48415 NIL
AAXX 16184 48433 NIL
AAXX 16184 48437 31958 00405 10185 20141 39955 40172 57002 71000 333 5//// 70000
AAXX 16184 48440 NIL
AAXX 16184 48451 NIL
AAXX 16184 48454 NIL
AAXX 16184 48457 NIL
AAXX 16184 48463 NIL
AAXX 16184 48464 NIL
AAXX 16184 48479 NIL
AAXX 16184 48520 31956 40000 10240 20228 30098 40113 55005 71011 84005 333 58006 70000
AAXX 16184 48554 NIL
AAXX 16184 48563 NIL
AAXX 16184 48571 NIL
AAXX 16184 17024 12670 41810 10098 20017 39995 40071 57013 60002 84500 333 10192 84635 91111 92428
AAXX 16184 17056 11970 02001 10080 20079 30113 40117 52012 60092 70181 333 10133 91111 92428
AAXX 16184 17067 12560 72806 10087 20077 30102 40125 52027 60022 87200 333 10179 87830 91126 92427
AAXX 16184 17092 12970 32702 11055 21064 38864 48485 58004 60002 83030 333 10056 83362
AAXX 16184 17112 11965 32102 10099 20090 30120 40122 50010 60152 70182 83030 333 10146 83360 91115 92407
AAXX 16184 17115 11660 52606 10075 20061 30071 40122 52014 60102 70188 83230 333 10134 83837 85360
AAXX 16184 17116 11558 72708 10097 20060 30009 40131 52019 60092 78088 85250 333 10179 85830 86359 91121
AAXX 16184 17188 11660 70802 10013 20010 39089 40173 52012 60102 70298 85550 333 10082 85635 87359 91126 93100
AAXX 16184 17202 11458 82204 11009 21019 39189 40251 58002 60002 71022 886// 333 11001 88711
AAXX 16184 17248 12970 53304 10031 21016 38947 48451 58001 60002 85050 333 10110 85360
AAXX 16184 17292 11970 00801 10035 20033 39405 40175 52011 60272 70191 333 10108 91116
AAXX 16184 17300 11460 73418 10124 20031 30063 40135 50002 60022 71792 87900 333 10164 82915 85830 91138
AAXX 16184 17310 1//// /2215 10164 20126 30135 40142 57019 60062 333 10186
AAXX 16184 17330 12970 40000 10132 20092 30147 40165 57011 60002 84030 333 10190 84360
AAXX 16184 17022 11559 72305 10101 20080 39941 40105 52037 69942 76011 85570 333 10163 85628 87358 91130 92426
AAXX 16184 17031 12670 51202 10059 20033 30087 40093 58006 60002 83250 333 10184 83836 85360
AAXX 16184 17038 11950 03404 10094 20035 30053 40104 57016 60002 70400 333 10117 92426
AAXX 16184 17050 11656 81504 10079 20078 30037 40100 50002 60062 71022 8552/ 333 10099 85635 87460 91109
AAXX 16184 17060 11660 62207 10091 20085 30081 40121 52017 60072 70282 83150 333 10145 83835 85360
AAXX 16184 17096 11506 60302 11087 21087 38240 48517 58007 60002 74822 84550 333 11076 84630 86358
AAXX 16184 17124 11560 72706 10038 20023 39211 40143 52018 60032 78022 85250 333 10068 85826 87360
AAXX 16184 17128 11556 73504 10014 20009 39030 40161 53001 69962 76822 85520 333 10049 85630 87458
AAXX 16184 17170 NIL
AAXX 16184 17195 11656 72701 10011 21029 38931 48446 58003 60002 71022 83550 333 10087 83640 87360
AAXX 16184 17199 11558 72801 11009 21024 39112 40248 57002 60002 71022 85670 333 10002 82720 85635 87360
AAXX 16184 17219 12565 22204 10070 20056 30009 40155 52014 60082 82100 333 10160 82830
AAXX 16184 17240 11570 43202 10000 21016 39004 40192 57015 60102 70198 82130 333 10105 82830 84360 91122 93101
AAXX 16184 17244 11560 72908 10041 20020 38962 48454 52018 60022 76062 84520 333 10070 84630 87459
AAXX 16184 17280 12960 02604 10005 21023 39402 40219 52004 60002 333 10116
AAXX 16184 17350 12660 61006 10131 20091 30091 40170 57010 60002 84250 333 10170 84835 86360
AAXX 16184 08001 12465 3//// 10112 20035 30160 40242 52024 60052 83800 333 10164 924/7
AAXX 16184 08015 11560 53008 10071 20032 39810 40221 52019 60152 70186 82740 333 10204
AAXX 16184 08023 11560 63130 10119 20039 30110 40181 52030 60082 70282 8487/ 333 10177
AAXX 16184 08027 11460 53233 10106 20034 39852 40162 52030 60112 70162 85800 333 10168 91155 91241 91532
AAXX 16184 08045 02765 23108 10090 20056 39945 40259 51024 60232 82500 333 10146 69907
AAXX 16184 08141 11470 63108 10084 20024 39326 40186 51036 69982 70252 86700 333 10124
AAXX 16184 08160 NIL
AAXX 16184 08181 02580 23017 10172 20061 30057 40063 55003 60002 82800 333 10186 60007
AAXX 16184 08221 01480 72421 10120 20090 39484 40160 58010 60002 72582 85241 333 10120 60007
AAXX 16184 08231 12370 83007 10098 20072 39083 48494 56012 69902 887// 333 10099
AAXX 16184 08261 11470 82515 10136 20118 39756 40233 57010 69922 75052 887// 333 10140
AAXX 16184 08284 02682 42420 10160 20072 30056 40130 58028 60002 81572 333 10160 60007
AAXX 16184 08306 12575 52528 10164 20107 30107 40113 58009 60002 82445 333 10173
AAXX 16184 08314 02668 62523 10154 20094 39993 40094 56003 60002 81542 333 10163 60007
AAXX 16184 08430 12680 62404 10152 20046 30117 40191 50000 60002 81142 333 10203
AAXX 16184 08482 12670 62815 10164 20060 30249 40257 55001 60002 85841 333 10174
AAXX 16184 17026 12970 41705 10135 20037 30038 40076 58009 60002 80001 333 10167 84070 91112 92428
AAXX 16184 17034 12970 41802 10108 21002 30058 40104 57007 60002 84030 333 10142 84360 92428
AAXX 16184 17070 11565 72504 10073 20036 39241 40114 52012 69912 76022 84520 333 10124 84630 87459 91114
AAXX 16184 17084 12670 73101 10012 20000 39225 40159 57007 60002 84570 333 10074 84635 87360 91105
AAXX 16184 17090 12965 40000 10010 21049 38694 48463 56001 60002 84030 333 10067 84360
AAXX 16184 17098 12960 00000 11148 21148 38203 48525 58001 60002 333 11014
AAXX 16184 17150 11660 72005 10090 20067 30015 40139 51015 60162 70282 83250 333 10155 83835 85360
AAXX 16184 17160 12670 33101 10025 21018 38969 48435 57011 60002 83500 333 10080 83640 91107
AAXX 16184 17184 11670 20000 10076 20056 30027 40140 52006 60102 70181 82100 333 10131 82840
AAXX 16184 17189 11670 72108 10042 21006 38983 48443 52005 60052 72582 84250 333 10118 84835 87359
AAXX 16184 17210 11640 20402 10083 20000 39163 40204 51004 60002 70500 82100 333 10116 82840
AAXX 16184 17234 11970 20903 10085 20062 30093 40162 52010 60082 70191 82030 333 10132 82360 91114
AAXX 16184 17260 12960 00000 10022 21023 39370 40214 51002 60002 333 10149
AAXX 16184 17290 11670 70204 10122 20102 30129 40161 52016 60052 70298 84270 333 10188 84835 87360 91120 9242 8
AAXX 16184 17370 12665 51602 10134 20034 30179 40183 58002 60002 83230 333 10180 83835 85360 92417
BBXX BATUK01 16184 99582 70064 46/// /2706 10010 21026 49982 51028 22200 00107
AAXX 16181 14008 11/91 90907 11039 21044 37245 47786 57029 60032 77374 333 11038 49100 91125 92818 93103 95190
AAXX 16181 14015 11557 82105 10098 20081 39565 49912 57031 60082 76366 885// 333 10098 88630 91111
AAXX 16181 14023 11597 82807 10112 20059 39612 49896 56033 69962 76162 8757/ 333 10124 87627 91113
AAXX 16181 14024 11398 81910 10056 20042 398827 48252 57037 69922 76064 8587/ 333 10058 82808 83615 91120 95000
AAXX 16181 14026 11698 81804 10110 20055 39575 49883 57030 69902 70326 885// 333 10111 88640
AAXX 16181 14031 12597 81702 10108 20056 39671 49891 57034 60002 8657/ 333 10110 86623
AAXX 16181 14105 11697 81405 10126 20101 39915 49919 57037 60042 76162 885// 333 10150 82633 85640 88656 91010 91112
AAXX 16181 14121 11698 82206 10130 20059 39642 49897 57035 69902 76162 885// 333 10132 88647
AAXX 16181 14122 12782 62309 10133 20055 39708 49896 57045 60002 85502 333 10136 82650 83657 91012 91114
AAXX 16184 16614 12560 40000 10062 21014 39348 40128 57020 60002 84500 333 10114 90730 91112 555 10000 40042
AAXX 16184 16627 12960 03504 10070 20061 30109 40113 50007 60082 333 10134 90730 91107 555 10000 40070 30000 10100 20102 30114 40116 50122 6//// 40000 47614 44235 50000 50066 60000 60075 60300
AAXX 16184 16667 12470 12404 10098 20068 30139 40145 52017 60042 81100 333 10170 90730 91110 555 10000 40086 30000 20106 30126 40000 47630 44170 50000 50084 60000 60039 60150
AAXX 16184 16675 17/// /2206 10132 21001 30105 40118 57015 69902 741// 333 10186 90730 91120 555 10000 40092 60000 65555 6////
AAXX 16184 16710 36/// /9904 10076 20033 39404 40178 57002 333 10149 90730 91115 555 10000 40075
AAXX 16184 16723 11560 20000 10140 20122 30147 40163 52021 60052 70190 82200 333 10174 90730 91105 555 10000 40134 40000 47644 44230 50000 50130 60000 60050 60120 70000 77/// 7T///
AAXX 16184 16738 NIL
AAXX 16184 16746 12560 22718 10154 20088 39989 40170 52013 60002 82200 333 10190 90730 91135 555 10000 40154 40000 47522 44200 50000 50120
AAXX 16181 14241 12780 82004 10106 20053 39780 49906 56044 69912 8152/ 333 10123
AAXX 16181 14284 12970 71608 10099 20046 39849 49955 57044 60002 82038 333 10106
AAXX 16181 14307 31770 71905 10143 20087 39865 49939 57041 76162 86570 333 10151 91010 91519
AAXX 16181 14317 NIL
AAXX 16181 14431 12670 51302 10114 20087 39890 49981 56042 60002 81532 333 10148 81640 83360
AAXX 16181 14444 33670 71505 10156 20099 39978 40006 57046 82830 333 10160
AAXX 16181 14474 12770 71407 10144 20091 39887 40073 58027 60002 87500 333 10144
AAXX 16181 26509 32562 80904 10017 21002 39865 49874 57040 885// 333 10049 91007 91109 555 53009
AAXX 16181 26518 31232 81107 11004 21007 49896 57037 71011 886// 333 10015 88704 91009 91109 555 4/997 53009
AAXX 16181 26524 31/93 91103 10003 20003 39787 49920 58033 74542 333 10021 91006 91109 555 53009
AAXX 16181 26531 31156 81204 10010 20007 49935 57032 71022 886// 333 10010 88703 91007 91107 555 53007
AAXX 16181 26629 31195 81406 10016 20016 39822 49917 57037 71011 886// 333 10016 88702 91008 91110 555 53010
AAXX 16181 26633 31359 81403 10024 20016 39813 49942 58027 71042 886// 333 10024 88709 91007 91107 555 53007
AAXX 16181 26730 11357 81405 10029 20029 39751 49940 57029 69902 71052 886// 333 10032 88706 91007 91107 555 53007
AAXX 16184 16643 12560 40000 10114 20073 30156 40162 57006 60002 82203 333 10170 82820 84070 90730 91109 555 10000 40114 40000 47650 44230 50000 50094
AAXX 16184 16648 12560 41906 10088 20038 30038 40129 57007 60002 81146 333 10172 81830 84068 90730 91108 555 10000 40074 30000 10090 2//// 30086 40080 5//// 6//// 40000 47559 44210 50000 50066
AAXX 16184 16650 NIL
AAXX 16184 16684 12960 02407 10144 20051 30087 40114 51004 60002 333 10164 90730 91113 555 10000 40118 40000 47597 44220 50000 50100
AAXX 16184 16732 12570 12906 10156 20077 30145 40156 52014 69942 81200 333 10184 90730 91117 555 10000 40146 40000 47634 44160 50000 50116 60000 60004 60020
AAXX 16181 34519 32260 81309 10029 20014 39860 40137 57012 886// 333 10029 88706
AAXX 16181 33345 11496 81804 10063 20056 39809 40011 57007 60052 76165 8872/ 333 10079 88710
AAXX 16181 33587 11430 81801 10065 20058 39765 40024 57002 60052 76162 8802/ 333 10080 87714
AAXX 16181 33791 11321 81509 10057 20052 39914 40064 57005 69942 76165 8772/ 333 10070 87708
AAXX 16181 33088 31596 82003 10036 20031 39785 49974 57024 71022 885// 333 10044
AAXX 16181 33177 12597 70805 10028 20015 39707 49942 57043 69982 87500 333 10070
AAXX 16181 33261 11496 81505 10041 20031 39865 40046 57014 60022 78086 889// 333 10069 87710
AAXX 16181 33275 12597 81506 10018 20002 39860 40085 57015 69902 8335/ 333 10051
AAXX 16181 33301 32497 41603 10020 20010 39701 49982 57025 84500 333 10037
AAXX 16181 33325 12497 82501 10036 20021 39740 40007 57009 60052 883// 333 10052 84915
AAXX 16181 33377 11396 81604 10046 20034 39860 40053 57013 60022 75165 886// 333 10062 88707
AAXX 16181 33415 31395 81804 10020 20012 39604 40001 57023 71022 8673/ 333 10039 86708
AAXX 16181 33429 12397 81804 10027 20025 39581 40002 57018 60032 886// 333 10030 88708
AAXX 16181 33466 11343 81703 10072 20068 39835 40019 57012 60032 76162 8872/ 333 10083 86710
AAXX 16181 33526 12960 31704 10023 21007 39641 49980 57035 69902 80001 333 10073
AAXX 16181 33562 11340 82505 10036 20029 39659 40018 58003 60032 72162 886// 333 10055 88708
AAXX 16181 33614 11340 81404 10056 20047 39960 40064 57005 69982 75165 886// 333 10072 88709
AAXX 16181 33761 11496 82201 10073 20067 39810 40029 54000 60042 76162 8872/ 333 10084
AAXX 16181 33902 11597 81503 10094 20068 39990 40054 57007 69902 70282 883// 333 10096
AAXX 16181 33983 32997 81104 10078 20056 30043 40103 57014 80001 333 10124
AAXX 16181 34415 32597 61406 10023 20004 30042 40140 57010 86500 333 10032
AAXX 16181 34523 NIL
AAXX 16181 34712 31496 80907 10026 20023 30051 40138 57014 71022 886// 333 10026 88712
AAXX 16184 43400 NIL
AAXX 16184 43404 NIL
AAXX 16184 43410 NIL
AAXX 16184 43413 NIL
AAXX 16184 43415 NIL
AAXX 16184 43418 21470 20508 10265 20213 3//// 4//// 70161 81031 333 5//// 60007 81360
AAXX 16184 43421 22960 03602 10246 20228 30013 40115 333 59003 60007
AAXX 16184 43422 NIL
AAXX 16184 43424 22968 00503 10239 20225 30102 40105 333 58001 60007
AAXX 16184 43436 22470 50508 10278 20231 30107 40109 82101 333 59004 60007 82818 84080
AAXX 16184 43441 NIL
AAXX 16184 43444 21470 20901 10210 20195 39577 40111 70281 81101 333 59003 60007 81818
AAXX 16184 43467 22460 00505 10256 20207 30095 40100 333 59006 60007
AAXX 16184 43473 22470 20910 10134 20119 38126 48494 82100 333 59003 60007 82812
AAXX 16184 43475 NIL
AAXX 16184 43476 NIL
AAXX 16184 43479 NIL
AAXX 16184 43486 22470 10000 10240 20237 30000 40094 81100 333 59007 60007 81814
AAXX 16184 43495 22960 3//// 10261 20233 30088 40104 80001 333 59009 60007 83080
AAXX 16184 43497 22472 40508 10248 20227 30078 40095 81106 333 59001 60007 81818 83276
AAXX 16181 26115 01360 81204 10038 20021 39913 49921 58017 69902 70222 886// 333 10057 20036 60007 88709 91009 91111 555 1/003 20036 3/002 50049
AAXX 16181 11518 01580 22212 10081 20045 39339 49759 53003 60042 70176 82502 333 10091 60005 82625 91018 91122
AAXX 16181 26106 31/96 81004 10011 20002 49938 57026 71022 886// 333 10017
AAXX 16181 26313 32/// 81407 10035 20021 49923 57025 889// 333 10036 91011 91111
AAXX 16181 26346 31/93 91002 11003 21004 49959 57031 74542 333 11003 93401
AAXX 16181 26406 32697 31005 10013 21004 49886 57033 83500 333 10040
AAXX 16181 26416 33/// /1105 10000 21006 49916 57028 333 10020
AAXX 16181 26424 31996 81304 11001 21003 49927 57025 71022 8805/ 333 10014
AAXX 16181 26544 31296 81503 10023 20020 49956 57021 71042 886// 333 10024 88705
AAXX 16184 85041 31558 73604 10292 20250 39782 40046 57028 71522 85940 333 56000 59020 84820 81923 85357
AAXX 16184 85140 32470 40000 10345 20229 39875 40081 57022 84200 333 56000 59017 84817
AAXX 16184 85141 32584 40406 10330 20255 39846 40073 57023 84300 333 56700 59016 84820 81923
AAXX 16184 85151 NIL
AAXX 16184 85152 32570 30000 10342 20225 39842 40070 57018 83200 333 56700 59013 83820
AAXX 16184 85201 31470 61207 10132 20077 36278 57015 72922 84963 333 56000 59005 83817 81920 85070
AAXX 16184 85230 NIL
AAXX 16184 85242 32584 63404 10187 20038 35628 57018 84201 333 56506 59018 84820 86070
AAXX 16181 01447 16/// /0000 11027 21033 39206 49874 52011 69992 333 11016 91100
AAXX 16184 71043 11474 80000 11238 21288 30051 40149 53004 69901 77177 86572 333 11238 21245 48021 79999 90983
AAXX 16184 71045 NIL
AAXX 16184 71050 NIL
AAXX 16184 71051 NIL
AAXX 16184 71052 NIL
AAXX 16184 71066 12774 10000 11159 21188 39691 40125 53014 60001 81140 333 11148 21194 79999
AAXX 16184 71068 12974 22710 11021 21081 39472 40179 53015 60001 82070 333 11013 21164 70000
AAXX 16184 71069 16964 03503 11070 21082 39468 40193 51020 60001 333 11069 21159 70000
AAXX 16184 71076 16/// /0701 11164 21180 39688 40094 58019 60001 333 11147 21284 70000
AAXX 16184 71077 16/// /2005 11062 21077 39581 40134 58027 60001 333 11062 21174 70000
AAXX 16184 71079 11974 51603 11180 21216 39939 40236 58016 69901 77671 82071 333 11178 21283 48007 70006 90937
AAXX 16184 71081 46964 03409 11285 21321 39960 49972 51002 6///1 333 11243 21296 7////
AAXX 16184 71082 NIL
AAXX 16184 71083 11912 03418 11261 21300 30060 40104 51013 60001 73833 333 11224 21261 70000
AAXX 16184 71090 46964 01105 11191 21268 39946 49981 52014 6///1 333 11152 21245 7////
AAXX 16184 71091 460// /0511 11261 39749 49963 54000 6///1 333 7////
AAXX 16184 71092 46311 81014 11229 39292 49972 55001 6///1 333 11229 21283 7////
AAXX 16184 71093 460// /1314 11200 39474 49977 58004 6///1 333 11188 21214 7////
AAXX 16184 71094 46011 /1008 11168 39045 49949 58012 6///1 333 11165 21207 7////
AAXX 16184 71095 47211 91212 11115 21126 39889 49969 52006 6///1 745// 333 11109 21204 7////
AAXX 16184 71101 160// /2505 30138 55002 60001 333 70035
AAXX 16184 71104 NIL
AAXX 16184 71108 11266 80000 10058 20053 30247 40321 53002 60021 76162 8657/ 333 10058 20036 70038 90917
AAXX 16184 71109 11362 81210 10058 20042 30215 40242 51007 60101 76166 8657/ 333 10058 20040 70296 90983
AAXX 16184 71665 NIL
AAXX 16184 71666 17/// /2913 10060 20041 39911 49954 53011 60041 7//4/ 333 10090 21008 70078
AAXX 16184 71667 NIL
AAXX 16184 71668 17/// /3015 10046 20017 39959 40002 53034 60031 7//4/ 333 10086 20003 70107
AAXX 16184 71669 NIL
AAXX 16184 71670 17/// ///// 10057 20039 60031 7//4/ 333 10078 21012 70112
AAXX 16184 71671 17/// /2713 10081 20047 39917 49976 51010 60021 7//4/ 333 10110 20031 70088
AAXX 16184 71672 16/// /3004 10034 21013 39921 40187 58006 60001 333 10039 20013 70028
AAXX 16184 71673 NIL
AAXX 16184 71674 NIL
AAXX 16184 71675 15966 02711 11203 21258 39958 40254 58003 60001 333 11203 21238 70030
AAXX 16184 71679 NIL
AAXX 16184 71680 NIL
AAXX 16184 71681 46/// /0000 10000 21013 6///1 333 10000 21034 7////
AAXX 16184 71682 NIL
AAXX 16184 71683 NIL
AAXX 16184 71684 15566 13110 11118 21157 39931 40240 56006 60001 333 11001 21129 70003
AAXX 16184 71685 17366 82201 10004 20000 39771 40323 51010 69931 7614/ 333 10008 21019 70006
AAXX 16184 71686 469// /0601 11157 21170 39199 40185 55005 6///1 333 11133 21186
AAXX 16184 71687 17/// /0000 10004 21001 39503 40300 52001 69971 7//4/ 333 10005 21004 70010
AAXX 16184 71688 16/// /0000 11009 21009 39238 40291 51002 60001 333 11009 21016 70000 555 10030
AAXX 16184 71689 15966 02509 11056 21085 39659 40126 50004 60001 333 11051 21189 70000
AAXX 16184 71690 NIL
AAXX 16184 71691 17966 33119 10008 21048 39978 40005 51043 60041 70044 333 10021 21011 70196
AAXX 16184 71692 NIL
AAXX 16184 71694 16/// /3504 11004 21028 39841 40208 50001 60001 333 10021 21007 70076
AAXX 16184 71695 16/// /1604 11174 21196 39888 40240 58016 60001 333 11173 21225 70000
AAXX 16184 71696 16/// /2710 11238 21270 30153 40192 58001 60001 333 11224 21244 70000
AAXX 16184 71697 15566 83108 10050 21013 30023 40195 58013 60001 333 10058 20016 70028
AAXX 16184 71699 16/// /2912 10077 20016 30007 40014 53028 60001 333 10095 20060 70092
AAXX 16184 71893 11280 81419 10068 20051 30260 40292 55002 69941 70262 86630 333 10068 20033 70034 90940
AAXX 16184 71894 17/// /1012 10081 20081 30270 40279 53002 60051 7//4/ 333 10081 20053 70128
AAXX 16184 71896 17224 81812 10000 21006 39387 40233 53003 60041 77144 333 10000 21089 70061
AAXX 16184 71897 11222 81430 10074 20063 3//// 4//// 52005 60101 76366 887XX 333 10073 20063 70422 90999
AAXX 16184 71898 160// ///// 10058 50001 60011 333 10064 21002 70040
AAXX 16184 71899 11269 81706 10068 20068 3//// 4//// 58003 60011 70154 886XX 333 10070 20006 70090 90913
AAXX 16184 71902 11456 82906 11054 21087 39884 49892 56019 60011 77177 8852/ 333 11042 21092 70018 90917
AAXX 16184 71905 NIL
AAXX 16184 71906 11562 73016 11150 21195 39957 40008 52024 60021 77177 86570 333 11079 21150 48015 70054 90983 93102
AAXX 16184 71907 17002 92720 11146 21163 39986 40019 58005 60001 745// 333 11142 21159 70000
AAXX 16184 71909 16564 83205 11140 21176 39882 49925 57011 60001 333 11117 21235 70000
AAXX 16184 71910 46764 30111 11169 21183 39835 49898 56008 6///1 333 11155 21176 7////
AAXX 16184 71911 46020 02914 11282 39990 40048 50003 6///1 333 11234 21282 7////
AAXX 16184 71912 12974 02510 11218 21272 30043 40238 58009 60001 333 11218 21295 70000
AAXX 16184 71915 11974 13214 11266 21306 39885 49969 53019 69901 77677 81070 333 11240 21286 48044 70002 90983
AAXX 16184 71917 12974 10000 11394 21433 30087 40102 52004 60001 81070 333 11361 21397 79999
AAXX 16184 71922 12774 81808 11115 21157 39685 40166 57041 60001 885// 333 11116 21186 79999
AAXX 16184 71924 11574 70807 11224 21270 39950 40042 57002 69901 77172 87510 333 11221 21312 48038 79999 90921
AAXX 16184 71925 11674 12905 11295 21340 30079 40122 56002 69901 77677 81570 333 11279 21301 42017 79999 90973
AAXX 16184 71926 11980 12707 11255 21303 30107 40132 53006 69901 73673 81030 333 11225 21266 48043 79999 90999
AAXX 16184 71928 16/// /1302 11080 21114 39032 40228 52007 60001 333 11080 21123 70000
AAXX 16184 71864 NIL
AAXX 16184 71865 16/// /2115 11058 21081 39536 40236 58017 60001 333 11058 21118 70000
AAXX 16184 71866 46264 82007 11068 21089 39597 40229 58009 6///1 333 11068 21126 7////
AAXX 16184 71867 11574 61703 11180 21197 39892 40245 58017 69901 70277 81571 333 11177 21222 48025 79999 90960
AAXX 16184 71868 NIL
AAXX 16184 71869 12574 82205 11073 21081 39667 40210 57027 60001 84871 333 11073 21217 43005 70002
AAXX 16184 71871 15766 12412 11038 21066 39360 40186 57009 60001 333 11038 21132 70000
AAXX 16184 71877 12986 62306 10030 21070 38940 40233 52009 60001 86070 333 10034 21082 70000
AAXX 16184 71878 12974 52105 11073 21109 39131 40236 51005 60001 81071 333 11068 21119 79999
AAXX 16184 71879 16964 02306 11024 21082 39380 40201 51014 60001 333 11021 21100 70000
AAXX 16184 71880 11282 70000 11048 21050 39196 40340 53012 60001 70241 87500 333 11047 21094 70000
AAXX 16184 71882 17358 80000 10003 21006 39772 40324 51010 69951 74144 333 10009 21018 70015
AAXX 16184 71883 46/// /0000 11027 21033 39465 40306 53004 6///1 333 11027 21046 7////
AAXX 16184 71887 12383 80804 10000 21018 39871 40303 53009 60001 8557/ 333 10003 21026 70008
AAXX 16184 71889 11474 81714 10004 21029 39911 40341 51006 69901 72272 8357/ 333 10004 21009 46001 70002 90941
AAXX 16184 71891 16764 33002 10046 20005 39999 40278 53003 60001 333 10059 21014 70005
AAXX 16184 71892 11256 80907 10061 20052 30313 40318 55001 60031 72065 886// 333 10061 20046 70080 90913
AAXX 16184 71816 11374 82803 10015 21004 39814 49874 56023 69901 78087 885// 333 10022 21118 43045 70016 90917
AAXX 16184 71817 11374 81715 10014 20001 39908 49921 57055 60031 76177 886// 333 42014 70052 90999
AAXX 16184 71818 11358 81710 10003 20003 39876 49894 56050 60021 77172 887// 333 10004 21100 43022 70020 90973 93102
AAXX 16184 71822 11569 73411 11118 21159 39678 40162 51012 60031 77177 87500 333 11025 21125 47032 70034 90983
AAXX 16184 71825 11456 82915 11110 21142 39309 49982 53040 69981 77177 885// 333 11054 21110 47075 70092 90983
AAXX 16184 71827 11462 72714 11152 21191 39902 40154 51008 69901 78572 87500 333 11113 21154 47017 70010 90937
AAXX 16184 71828 17416 93218 11139 21163 39334 49977 53050 60011 74544 333 11070 21139 70020
AAXX 16184 71831 12974 82804 11173 21220 39971 40266 58006 60001 8802/ 333 11124 21202 70080
AAXX 16184 71832 NIL
AAXX 16184 71834 12574 62805 11168 21217 39835 40288 58009 60001 82506 333 11168 21219 70024
AAXX 16184 71841 NIL
AAXX 16184 71842 12974 12804 11166 21222 39814 40314 58003 60001 81070 333 11166 21211 70002
AAXX 16184 71844 16964 02710 11204 21274 39959 40255 58003 60001 333 11204 21239 70000
AAXX 16184 71845 12874 22603 11199 21258 39789 40295 58003 60001 81071 333 11198 21249 70008
AAXX 16184 71850 11974 42405 11130 21180 39785 40312 58003 69941 77677 82071 333 11129 21176 70006 90983
AAXX 16184 71852 17564 81810 11119 21139 39993 40303 58007 60001 745// 333 11118 21183 70000
AAXX 16184 71854 11974 12106 11186 21230 39806 40310 58001 69901 77011 81030 333 11186 21252 48011 70008 90942
AAXX 16184 71858 NIL
AAXX 16184 71861 46/// /1806 11076 21088 39519 40269 58008 6///1 333 11076 21163 7////
AAXX 16184 71862 11558 72205 11073 21081 39560 40285 58003 69901 71074 87500 333 11072 21131 42002 70002 90942
AAXX 16184 71863 46264 82111 11054 21074 39541 40260 56011 6///1 333 11054 21135 7////
AAXX 16184 71201 17/// ///// 10057 20043 60051 7//4/ 333 10058 20048 70096
AAXX 16184 71202 16/// ///// 11018 21071 60001 333 11018 21149 70021
AAXX 16184 71203 17448 81408 11005 21021 39796 40330 53007 60001 771// 333 10002 21048 70003
AAXX 16184 71209 46/// /1308 10061 6///1 333 10062 20046 7////
AAXX 16184 71211 46/// /0309 10042 20034 30302 40314 55003 6///1 333 10045 20038 7////
AAXX 16184 71212 17/// /3207 11053 21087 39281 40083 53044 69931 7//4/ 333 10032 21053 70165
AAXX 16184 71213 46/// /3209 11117 21152 39930 40239 56006 6///1 333 10001 21129 7////
AAXX 16184 71214 NIL
AAXX 16184 71215 46/// /1705 11001 21026 39993 40347 51007 6///1 333 10000 21022 7////
AAXX 16184 71216 16/// /1202 10006 21006 39694 40326 53012 60001 333 10009 21018 70000
AAXX 16184 71217 NIL
AAXX 16184 71218 17/// /3101 10001 21009 39877 40316 51009 69931 7//4/ 333 10003 21030 70003
AAXX 16184 71219 46/// /1212 10071 20031 30150 40156 51002 6///1 333 10073 20008 7////
AAXX 16184 71220 46/// /1319 10058 20035 6///1 333 10061 20005 7////
AAXX 16184 71221 NIL
AAXX 16184 71222 16/// /0000 11182 21198 39198 40205 55006 60001 333 11155 21218 70000
AAXX 16184 71223 NIL
AAXX 16184 71224 NIL
AAXX 16184 71225 NIL
AAXX 16184 71226 NIL
AAXX 16184 71227 NIL
AAXX 16184 71228 NIL
AAXX 16184 71229 NIL
AAXX 16184 71230 16/// /0303 10006 21050 39285 40191 53008 60001 333 10017 21123 70000
AAXX 16184 71231 16/// /2610 11004 21058 60001 333 11004 21131 70000
AAXX 16184 71232 16/// /2509 10019 21087 38713 40226 52012 60001 333 10020 21043 70000
AAXX 16184 71233 16/// /2101 10002 21080 60001 333 10002 21099 70000
AAXX 16184 71234 16/// /2717 10023 21054 39034 40249 51016 60001 333 10023 21129 70000
AAXX 16184 71235 16/// /2809 10027 21066 60001 333 10028 21091 70000
AAXX 16184 71236 46/// /3013 10000 21062 6///1 333 10000 21037 7////
AAXX 16184 71237 46/// /1607 11091 21111 39391 40234 51007 6///1 333 11091 21143 7////
AAXX 16184 71238 16/// /2704 10022 21071 60001 333 10022 21153 70000
AAXX 16184 71239 16/// /2808 11074 21098 39812 40298 58002 60001 333 11071 21141 70000
AAXX 16184 71240 16/// ///// 11050 21076 39358 40227 50000 60001 333 11050 21117 70000
AAXX 16184 71241 NIL
AAXX 16184 71242 16/// /2106 11048 21094 60001 333 11048 21108 70000
AAXX 16184 71243 NIL
AAXX 16184 71244 NIL
AAXX 16184 71245 46/// /2427 11074 21107 6///1 333 11068 21106 7////
AAXX 16184 71246 NIL
AAXX 16184 71247 15966 12311 11035 21072 39368 40244 51009 60001 333 11035 21104 70000
AAXX 16184 71248 16/// /0000 11059 21115 38898 40238 51008 60001 333 11059 21142 70000
AAXX 16184 71249 NIL
AAXX 16184 71250 NIL
AAXX 16184 71251 16/// /2612 11016 21058 39300 40253 51010 60001 333 11016 21136 70000
AAXX 16184 71252 NIL
AAXX 16184 71253 46/// /2202 11100 21103 6///1 333 11098 21189 7////
AAXX 16184 71254 16/// /2510 11026 21065 60001 333 11026 21152 70000
AAXX 16184 71255 16/// /2607 11063 21103 60001 333 11062 21180 70003
AAXX 16184 71256 46/// /0000 11066 21086 39246 40205 51014 6///1 333 11061 21101 7////
AAXX 16184 71257 NIL
AAXX 16184 71258 NIL
AAXX 16184 71259 NIL
AAXX 16184 71261 16/// /3212 10011 21013 39961 40225 55005 60001 333 10016 20005 70000
AAXX 16184 71263 13460 /2513 10021 21013 39932 40226 56008 60001 87/// 333 10031 20001 70042
AAXX 16184 71264 17/// /2510 10078 20060 39953 49984 55006 60011 7//4/ 333 10104 20045 70210
AAXX 16184 71265 15566 62611 10056 21006 30112 40207 56015 60001 333 10058 20022 70020
AAXX 16184 71266 NIL
AAXX 16184 71267 15966 62622 10031 21035 39139 40259 50016 60001 333 10031 21093 70000
AAXX 16184 71268 12474 83605 11074 21094 39827 40242 50007 60001 885// 333 11052 21074 70020
AAXX 16184 71269 NIL
AAXX 16184 71270 NIL
AAXX 16184 71271 16/// ///// 11027 21076 60001 333 11027 21133 70000
AAXX 16184 71272 15966 01803 11290 21319 39829 40206 58014 60001 333 11260 21317 70000
AAXX 16184 71273 16/// /2311 11040 21080 39487 40164 57017 60001 333 11040 21179 70000
AAXX 16184 71274 NIL
AAXX 16184 71275 NIL
AAXX 16184 71276 NIL
AAXX 16184 71277 NIL
AAXX 16184 71278 NIL
AAXX 16184 71279 16/// /3113 10006 21019 39878 49943 53030 60001 333 10010 21039 70107
AAXX 16184 71281 NIL
AAXX 16184 71282 46/// /3310 10023 20013 39923 40195 58009 6///1 333 10028 20008 7////
AAXX 16184 71283 NIL
AAXX 16184 71284 16/// ///// 11048 21083 60001 333 11044 21154 70000
AAXX 16184 71285 NIL
AAXX 16184 71286 NIL
AAXX 16184 71287 NIL
AAXX 16184 71288 NIL
AAXX 16184 71289 NIL
AAXX 16184 71290 17424 82301 11050 21057 39391 40242 51005 60001 771// 333 11049 21085 70000
AAXX 16184 71291 16/// /2805 11146 21188 39998 40309 50000 60001 333 11121 21173 70024
AAXX 16184 71292 15966 02008 11105 21114 39638 40270 58009 60001 333 11104 21152 70000
AAXX 16184 71294 16/// /3505 10008 21030 39780 40185 50002 60001 333 10027 20002 70011
AAXX 16184 71295 NIL
AAXX 16184 71296 NIL
AAXX 16184 71297 NIL
AAXX 16184 71298 16/// /2609 10011 21043 30022 40258 50001 60001 333 10028 21014 70003
AAXX 16184 71299 NIL
AAXX 16184 71300 NIL
AAXX 16184 71301 NIL
AAXX 16184 71302 17/// /1811 11001 21001 39397 40228 53002 60031 7//4/ 333 11001 21084 70066 555 10110
AAXX 16184 71303 46/// ///// 10017 21047 6///1 333 10033 20002 7////
AAXX 16184 71305 15766 62613 11081 21099 39781 40077 56010 60001 333 11081 21224 70000
AAXX 16184 71306 NIL
AAXX 16184 71307 NIL
AAXX 16184 71308 16/// /2110 10096 20084 39862 49944 56044 60001 333 10105 20013 70072
AAXX 16184 71309 NIL
AAXX 16184 71310 17/// /2613 10070 20058 39894 49930 55026 60021 7//4/ 333 10102 21008 70121
AAXX 16184 71311 NIL
AAXX 16184 71312 16/// /1704 11131 21145 39748 40226 58026 60001 333 11131 21239 70000
AAXX 16184 71314 NIL
AAXX 16184 71315 NIL
AAXX 16184 71316 16/// /2711 11019 21068 39470 40169 53009 60001 333 11019 21163 70000
AAXX 16184 71317 NIL
AAXX 16184 71318 16/// /2512 11042 21073 39245 40216 50002 60001 333 11042 21152 70000 555 10010
AAXX 16184 71319 NIL
AAXX 16184 71320 NIL
AAXX 16184 71321 NIL
AAXX 16184 71322 NIL
AAXX 16184 71323 17/// /2805 10008 21025 39817 40096 51048 60011 7//4/ 333 10078 20008 70110
AAXX 16184 71331 16/// /1703 11118 21146 60001 333 11118 21229 70000
AAXX 16184 71332 NIL
AAXX 16184 71334 46/// /1803 11291 21325 39856 40207 58013 6///1 333 11261 21323 7////
AAXX 16184 71335 46420 82710 11082 56020 6///1 333 11081 21091 7////
AAXX 16184 71336 46/// ///31 10035 20016 30026 40048 56052 6///1 333 10035 21026 7////
AAXX 16184 71337 46/// /1813 10036 20033 39726 49960 56038 6///1 333 10036 21031 7////
AAXX 16184 71338 46964 01804 11190 21249 39981 49988 56011 6///1 333 11169 21242 7////
AAXX 16184 71339 17364 81813 10014 20003 39909 49923 56052 60021 74144 333 10015 21074 70020
AAXX 16184 71340 NIL
AAXX 16184 71341 NIL
AAXX 16184 71342 NIL
AAXX 16184 71343 NIL
AAXX 16184 71344 NIL
AAXX 16184 71345 NIL
AAXX 16184 71346 NIL
AAXX 16184 71347 NIL
AAXX 16184 71348 NIL
AAXX 16184 71349 NIL
AAXX 16184 71397 11474 72620 10083 20057 39959 49993 53005 60021 70285 87500 333 10115 20029 70110 90926
AAXX 16184 71400 17/64 /1910 10055 20045 60011 7//4/ 333 10055 21021 70025
AAXX 16184 71403 46/// /2427 10084 39945 49964 56026 6///1 333 10096 20035 7////
AAXX 16184 71411 17/// /2715 10095 20071 30003 40015 51016 69971 7//4/ 333 10111 20062 70106
AAXX 16184 71412 16/// /2110 10087 20072 39908 49917 58039 60001 333 10093 20002 70119
AAXX 16184 71421 NIL
AAXX 16184 71430 16/// /2817 10046 20006 30091 40188 58008 60001 333 10067 20038 70088
AAXX 16184 71431 16/// /3307 10051 21009 30088 40184 58010 60001 333 10057 20028 70013
AAXX 16184 71432 NIL
AAXX 16184 71433 NIL
AAXX 16184 71435 NIL
AAXX 16184 71441 46/// /1710 11101 21132 39977 40301 58001 6///1 333 11099 21153 7////
AAXX 16184 71443 16/// /2310 11086 21106 39832 40262 58010 60001 333 11086 21185 70000
AAXX 16184 71444 NIL
AAXX 16184 71447 16/// /1906 11067 21087 39725 40289 58001 60001 333 11063 21101 70000
AAXX 16184 71467 16/// /0204 11301 21330 30009 40129 51007 60001 333 11223 21310 70000
AAXX 16184 71472 NIL
AAXX 16184 71474 16040 82007 11033 21038 39004 40268 53005 69951 333 11033 21054 70015
AAXX 16184 71510 16/// /2409 11054 21070 39494 40219 58011 60001 333 11054 21117 70000
AAXX 16184 71538 12574 82411 10017 21059 30026 40261 50003 60001 885// 333 10026 21005 79999
AAXX 16184 71600 17230 82322 10106 20103 30002 40008 56043 60061 7//44 333 10121 20024 70095
AAXX 16184 71601 NIL
AAXX 16184 71744 NIL
AAXX 16184 71750 16/// /0501 11145 21188 30042 40288 50000 60001 333 11114 21181 70030 555 10010
AAXX 16184 71751 NIL
AAXX 16184 71752 NIL
AAXX 16184 71753 17/// /2608 10075 20063 39929 49957 56015 60041 7//4/ 333 10124 20008 70150
AAXX 16184 71754 16/// /1805 11053 21078 39524 40207 58017 60001 333 11053 21144 70000
AAXX 16184 71755 43/// /2607 11188 21236 39905 40271 58005 6///1 333 11188 21274 7////
AAXX 16184 71756 16/// /2101 11005 21011 39183 40296 52001 60001 333 11004 21019 70000
AAXX 16184 71758 NIL
AAXX 16184 71760 NIL
AAXX 16184 71761 NIL
AAXX 16184 71762 NIL
AAXX 16184 71763 NIL
AAXX 16184 71765 16/// /3103 10047 21002 39996 40275 53002 60001 333 10059 21016 70000
AAXX 16184 71766 16/// /1004 10060 20052 30219 40292 55004 60001 333 10060 20030 70000
AAXX 16184 71767 16/// /3308 11011 21044 39954 40219 50000 60001 333 10021 21012 70020
AAXX 16184 71768 46/// /1605 11008 21037 39774 40339 53005 6///1 333 11008 21049 7////
AAXX 16184 71769 16/// /1122 10065 20058 30276 40292 55002 60001 333 10065 20041 70024
AAXX 16184 71770 16/// /0702 11002 21017 39553 40347 52013 60001 333 11002 21020 70000
AAXX 16184 71771 NIL
AAXX 16184 71772 16/// /1217 10066 20062 30287 40293 55006 60001 333 10067 20048 70022
AAXX 16184 71773 16/// /2005 11039 21078 39232 40089 57009 60001 333 10000 21059 70000
AAXX 16184 71774 46/// ///// 10044 6///1 333 10044 20026 7////
AAXX 16184 71775 46/// /0207 10047 20042 30318 40324 53003 6///1 333 10048 20034 7////
AAXX 16184 71776 46/// /2811 10002 21023 39679 40338 50007 6///1 333 10005 21013 7////
AAXX 16184 71777 16/// ///// 11004 21005 30058 40316 51001 60001 333 11003 21013 70024
AAXX 16184 71778 46/// /0801 6///1 333 7////
AAXX 16184 71779 17/// /1408 10002 20000 39572 40244 55000 60111 7//4/ 333 10002 21041 70174 555 10200
AAXX 16184 71780 16/// /0903 10067 20047 30292 40320 53002 60001 333 10067 20052 70000
AAXX 16184 71781 46/// /1125 10064 20055 30263 40288 55000 6///1 333 10065 20047 7////
AAXX 16184 71782 46/// /1805 11015 21040 38953 40311 53012 6///1 333 11015 7////
AAXX 16184 71783 17/// /1401 10066 20061 30239 40314 53003 69921 7//4/ 333 10066 20047 70016
AAXX 16184 71784 17/// /0902 10057 20052 30103 40311 53001 60041 7//4/ 333 10057 20036 70082
AAXX 16184 71785 17/// /0201 10067 20055 30310 40326 51003 60021 7//4/ 333 10069 20045 70054
AAXX 16184 71786 46/// /2617 11073 21085 38433 40316 51012 6///1 333 11073 21093 7////
AAXX 16184 71787 17/// /2719 10034 20032 39494 49971 53008 60061 7//4/ 333 10074 21006 70219
AAXX 16184 71788 NIL
AAXX 16184 71789 NIL
AAXX 16184 71791 NIL
AAXX 16184 71792 NIL
AAXX 16184 71793 NIL
AAXX 16184 71794 NIL
AAXX 16184 71795 NIL
AAXX 16184 71796 NIL
AAXX 16184 71797 NIL
AAXX 16184 71603 11569 22715 10092 20031 39989 40041 53015 69921 70281 82500 333 10106 20060 70084 90935
AAXX 16184 71607 16/// /2813 10074 20006 39995 40027 53032 60001 333 10091 20044 70082
AAXX 16184 71609 11569 82914 10065 20029 39871 40002 53023 60021 78062 886// 333 10093 20029 70172 90917
AAXX 16184 71610 17566 83014 10017 21022 39832 40127 51032 69951 7004/ 333 10083 20016 70103
AAXX 16184 71621 11474 63208 10045 21001 30083 40189 58006 69901 72581 85501 333 10065 20025 70020 90926
AAXX 16184 71623 NIL
AAXX 16184 71624 12574 72811 10049 21003 39992 40206 56012 60001 87601 333 10050 20011 70028
AAXX 16184 71625 16564 63209 11023 21105 30045 40208 52009 60001 333 10045 21026 70005
AAXX 16184 71627 12583 22916 10029 21034 30114 40158 52022 60001 82500 333 10091 20028 70104
AAXX 16184 71628 13560 62814 10015 21044 30045 40186 53015 69961 86500 333 10075 20012 70044
AAXX 16184 71630 NIL
AAXX 16184 71631 16/// /2907 10002 21008 39703 40210 55010 60001 333 10002 21010 70021
AAXX 16184 71633 11316 83503 10009 21005 39933 40208 58004 69961 77176 887// 333 10025 20006 70040 90917
AAXX 16184 71705 11269 82715 10065 20055 39874 49959 53007 60041 78082 887// 333 10094 20002 70088 90946
AAXX 16184 71706 11466 82612 10071 20061 39884 49943 55014 60041 78022 885// 333 10095 20000 70232 90931
AAXX 16184 71707 11358 82012 10091 20079 39876 49951 58041 60021 78066 885// 333 10096 21001 70348 90927
AAXX 16184 71709 11266 82206 10073 20071 39905 49918 58031 69941 78022 887// 333 10082 20003 70278 90921
AAXX 16184 71711 NIL
AAXX 16184 71714 16/// /2914 10009 21053 30040 40132 51056 60001 333 10063 20008 70217
AAXX 16184 71715 16/// /3213 11014 21066 39884 40064 53049 60001 333 10063 21015 70031
AAXX 16184 71718 11483 82919 10009 21032 39961 40026 52049 69981 70277 885// 333 10064 21004 41004 70076 90912
AAXX 16184 71719 17/// /2615 10036 20026 39927 49933 53006 69931 7//4/ 333 10060 7////
AAXX 16184 71550 NIL
AAXX 16184 71551 NIL
AAXX 16184 71552 46/// /2008 11125 21153 6///1 333 11125 21165 7////
AAXX 16184 71553 16/// /2009 11107 21121 60001 333 11107 21185 70000
AAXX 16184 71554 NIL
AAXX 16184 71555 16/// /2515 10013 21076 38654 40244 50013 60001 333 10017 21063 70000
AAXX 16184 71556 NIL
AAXX 16184 71557 46/// /2208 10067 21007 6///1 333 10069 21075 7////
AAXX 16184 71558 46/// ///// 10017 20008 39884 49920 56048 6///1 333 10017 21053 7////
AAXX 16184 71559 46/// /2106 11072 21081 39557 40282 58004 6///1 333 11072 21127 7////
AAXX 16184 71560 16/// /1709 11101 21129 39991 40316 58001 60001 333 11101 21143 70000
AAXX 16184 71563 NIL
AAXX 16184 71564 16/// /2204 11082 21111 39915 40305 58001 60001 333 11081 21136 70003
AAXX 16184 71565 NIL
AAXX 16184 71566 NIL
AAXX 16184 71567 NIL
AAXX 16184 71568 17/// /1308 10056 20038 30275 40288 53006 60021 7//4/ 333 10056 20025 70132
AAXX 16184 71569 16/// /1912 11047 21066 39523 40243 56014 60001 333 11045 21143 70000
AAXX 16184 71570 16/// /1704 11128 21161 39984 40314 58004 60001 333 11128 21185 70000
AAXX 16184 71571 NIL
AAXX 16184 71572 NIL
AAXX 16184 71573 16/// /2606 10010 21031 39942 40228 55000 60001 333 10015 20000 70046
AAXX 16184 71574 11574 42715 10037 21009 39890 49962 53025 69941 71581 81430 333 10059 21028 43020 70176 90925
AAXX 16184 71575 16/// /0310 11169 21186 39825 49890 58010 60001 333 11154 21175 70000 555 10030
AAXX 16184 71576 NIL
AAXX 16184 71577 NIL
AAXX 16184 71578 16/// /2815 10017 21049 60001 333 10056 20008 70237
AAXX 16184 71579 16/// /2201 11118 21153 30001 40299 58006 60001 333 11117 21161 70003
AAXX 16184 71580 12469 33118 11254 21293 30000 40037 50002 60001 83500 333 11214 21261 46033 79999
AAXX 16184 71581 NIL
AAXX 16184 71582 17348 81105 10054 20051 30163 40217 55000 60141 76144 333 10056 20019 70483
AAXX 16184 71583 NIL
AAXX 16184 71584 17/04 /2511 10015 20014 39850 49896 55006 69951 7614/ 333 10023 21067 70095
AAXX 16184 71585 NIL
AAXX 16184 71586 16/// /1706 11116 21131 39685 40164 58038 60001 333 11116 21185 70000
AAXX 16184 71587 NIL
AAXX 16184 71588 16/// /1506 10049 20040 60001 333 10049 21020 70000
AAXX 16184 71589 17/// /1813 10025 20024 39900 40032 56046 60021 7//4/ 333 10025 21048 70019
AAXX 16184 71590 16/// /3110 10011 21027 39844 40034 53051 60001 333 10049 21009 70134
AAXX 16184 71592 NIL
AAXX 16184 71593 NIL
AAXX 16184 71596 NIL
AAXX 16184 71598 17/64 /2717 10042 20015 39934 49940 53013 69941 7//4/ 333 10061 21011 70232
AAXX 16184 71599 NIL
AAXX 16184 71401 16/// /1803 11010 21029 39646 40349 51010 60001 333 11008 21023 70000
AAXX 16184 71402 NIL
AAXX 16184 71404 NIL
AAXX 16184 71405 NIL
AAXX 16184 71406 NIL
AAXX 16184 71407 NIL
AAXX 16184 71408 NIL
AAXX 16184 71409 NIL
AAXX 16184 71410 17766 82209 11127 21152 39965 40259 58009 60001 771// 333 11127 21233 70000
AAXX 16184 71413 NIL
AAXX 16184 71414 NIL
AAXX 16184 71415 17/// /2714 10085 20059 39937 49940 55019 69961 7//4/ 333 10113 20008 70042
AAXX 16184 71417 NIL
AAXX 16184 71418 NIL
AAXX 16184 71419 46/// /2120 10090 20088 39945 49955 56048 6///1 333 10098 20031 7////
AAXX 16184 71423 NIL
AAXX 16184 71424 46/// /2906 6///1 333 7////
AAXX 16184 71425 16/// /2820 10004 21011 39914 49950 53036 60001 333 10057 21016 70010
AAXX 16184 71426 NIL
AAXX 16184 71427 17/// /2910 10009 21031 39985 49992 53055 60011 7//4/ 333 10019 21007 70210
AAXX 16184 71428 16/// /2922 10002 21015 39978 49984 53050 60001 333 10046 21001 70100
AAXX 16184 71429 NIL
AAXX 16184 71434 NIL
AAXX 16184 71436 15566 83106 10039 20003 39955 40191 58005 60001 333 10042 20011 70021
AAXX 16184 71437 46/// /2408 10040 21019 30120 40216 55006 6///1 333 10044 20024 7////
AAXX 16184 71438 NIL
AAXX 16184 71439 NIL
AAXX 16184 71440 NIL
AAXX 16184 71442 16/// /2009 11121 21151 39967 40298 58009 60001 333 11121 21231 70000
AAXX 16184 71445 NIL
AAXX 16184 71446 16/// /2313 11050 21075 39230 40239 55003 60001 333 11050 21140 70000
AAXX 16184 71448 NIL
AAXX 16184 71449 NIL
AAXX 16184 71102 NIL
AAXX 16184 71105 NIL
AAXX 16184 71107 NIL
AAXX 16184 71110 NIL
AAXX 16184 71111 15566 82506 10056 20052 30140 40148 55002 60001 333 10062 20006 70013
AAXX 16184 71112 17/// ///// 60031 7//4/ 333 70074
AAXX 16184 71113 17/// /3301 10043 20042 30295 40319 53005 69921 7//4/ 333 10044 20023 70020
AAXX 16184 71115 16/// /0802 11009 21017 39719 40316 53005 60001 333 11009 21034 70000
AAXX 16184 71116 16/// /0801 11075 21081 39145 40275 51011 60001 333 11066 21119 70000
AAXX 16184 71118 16/// /2209 11051 21074 39353 40201 58001 60001 333 11051 21131 70000
AAXX 16184 71121 16964 02508 11024 21107 39358 40199 51013 60001 333 11024 21136 70000
AAXX 16184 71127 16/// /2607 11042 21080 39269 40206 51011 60001 333 11037 21099 70000
AAXX 16184 71130 15766 61507 11122 21134 39751 40228 58026 60001 333 11122 21218 70000
AAXX 16184 71132 17366 81006 11159 21175 39791 40119 58036 60001 771// 333 11158 21308 70001
AAXX 16184 71133 NIL
AAXX 16184 71139 16/// /2303 11083 21094 38741 40237 51001 60001 333 11070 21106 70017
AAXX 16184 71141 NIL
AAXX 16184 71142 15966 82116 11051 21062 39242 40240 55003 60001 333 11051 21137 70000
AAXX 16184 71143 NIL
AAXX 16184 71144 NIL
AAXX 16184 71147 NIL
AAXX 16184 71149 NIL
AAXX 16184 71950 17566 81801 11060 21067 39574 40221 56003 69931 7004/ 333 11064 21089 70009
AAXX 16184 71952 16/// /0000 11053 21058 39343 40214 50002 60001 333 11053 21155 70014 555 10040
AAXX 16184 71954 NIL
AAXX 16184 71956 16/// /3309 11041 21071 39993 40229 50004 60001 333 10016 21042 70000
AAXX 16184 71959 NIL
AAXX 16184 71960 460// /0205 11266 30010 40149 50000 6///1 333 11253 21279 7////
AAXX 16184 71962 16/// /2802 11117 21164 39870 40313 58002 60001 333 11109 21139 70000
AAXX 16184 71963 NIL
AAXX 16184 71967 16/// /3117 10019 21024 30044 40149 51027 60001 333 10088 20019 70063
AAXX 16184 71970 NIL
AAXX 16184 71971 16/// /1202 11209 21245 30006 40052 50001 60001 333 11176 21245 70000
AAXX 16184 71972 460// ///// 11081 39438 49896 56025 6///1 333 11069 21123 7////
AAXX 16184 71973 46/// /2003 10061 20046 39761 49945 58025 6///1 333 10065 21020 7////
AAXX 16184 71974 NIL
AAXX 16184 71975 460// /0620 11161 39196 49926 56034 6///1 333 11160 21184 7////
AAXX 16184 71976 NIL
AAXX 16184 71977 NIL
AAXX 16184 71978 NIL
AAXX 16184 71979 NIL
AAXX 16184 71980 NIL
AAXX 16184 71981 NIL
AAXX 16184 71982 NIL
AAXX 16184 71983 NIL
AAXX 16184 71984 16/// /2504 11281 21308 30128 40137 50005 60001 333 11191 21299 70000
AAXX 16184 71985 NIL
AAXX 16184 71986 NIL
AAXX 16184 71987 17/// /2719 10047 20044 39920 49929 55003 69971 7//4/ 333 10079 21016 70149
AAXX 16184 71988 NIL
AAXX 16184 71989 NIL
AAXX 16184 71990 NIL
AAXX 16184 71999 46/// ///// 10038 6///1 333 10039 21013 7////
AAXX 16184 71150 46/// /2103 11098 21117 39571 40280 58005 6///1 333 11098 21198 7////
AAXX 16184 71151 NIL
AAXX 16184 71152 47/// /1927 10067 20061 39961 49974 6///1 7//4/ 333 7////
AAXX 16184 71153 16/// /2715 10028 21048 60001 333 10028 21083 70000
AAXX 16184 71154 16/// /2423 10004 21050 60001 333 10004 21019 70000
AAXX 16184 71155 NIL
AAXX 16184 71156 NIL
AAXX 16184 71157 46/// ///// 11024 21061 6///1 333 11024 21100 7////
AAXX 16184 71158 NIL
AAXX 16184 71159 NIL
AAXX 16184 71160 NIL
AAXX 16184 71161 16/// /3109 10034 21023 30031 40180 53010 60001 333 10068 20020 70044
AAXX 16184 71162 NIL
AAXX 16184 71163 46/// /0103 11165 21178 39753 40105 53018 6///1 333 11161 21231 7////
AAXX 16184 71164 NIL
AAXX 16184 71165 NIL
AAXX 16184 71166 NIL
AAXX 16184 71167 15966 32406 10000 21058 39089 40207 50007 60001 333 10000 21108 70000
AAXX 16184 71168 16/// /1710 11023 21049 39674 40286 58022 60001 333 11023 21122 70000
AAXX 16184 71170 16/// /3006 11107 21127 60001 333 11107 21161 70000
AAXX 16184 71171 16/// /2612 10045 21014 30109 40206 56011 60001 333 10049 20019 70058
AAXX 16184 71172 NIL
AAXX 16184 71175 46/// /2018 10084 20081 39919 49953 56044 6///1 333 10095 20015 7////
AAXX 16184 71176 460// /2715 11091 39207 49880 56011 6///1 333 11075 21108 7////
AAXX 16184 71177 460// /2004 11087 38876 49869 56019 6///1 333 11086 21129 7////
AAXX 16184 71178 16/// /1830 10028 20013 30013 40045 56053 60001 333 10028 21044 70000
AAXX 16184 71179 460// ///// 11047 39059 49873 56029 6///1 333 11047 21152 7////
AAXX 16184 71180 17/// /1721 10080 20073 39906 49944 58041 69961 7//4/ 333 10084 21002 70242
AAXX 16184 71181 17419 81826 10060 20053 39972 40008 56052 60161 74344 333 10060 21015 70165
AAXX 16184 71183 16/// /3015 30115 51024 60001 333 70098
AAXX 16184 71184 46/// /3112 10029 21022 6///1 333 10091 20029 7////
AAXX 16184 71186 NIL
AAXX 16184 71187 NIL
AAXX 16184 71189 NIL
AAXX 16184 71190 NIL
AAXX 16184 71191 17/// ///// 10068 20046 60021 7//4/ 333 10097 20025 70226
AAXX 16184 71192 17316 81409 10003 20002 39576 40249 53001 60111 77144 333 10003 21038 70131
AAXX 16184 71193 16/// /2807 11160 21186 39876 40255 58001 60001 333 11088 21166 70000
AAXX 16184 71196 16/// /3209 11025 21069 30002 40203 51009 60001 333 10046 21027 70006
AAXX 16184 71197 16004 81814 10062 20062 39904 49952 56036 69951 333 10068 21001 70180
AAXX 16184 71198 46/// /3018 10010 21049 6///1 333 10086 20010 7////
AAXX 16184 71199 46/// /2902 11242 21269 39313 40185 53003 6///1 333 11180 21252 7////
AAXX 16184 71930 13969 70000 11072 21120 39251 40209 53015 60003 82071 333 11062 21105 47015 70000
AAXX 16184 71931 16/// /1926 10020 20006 30003 40015 56045 60001 333 10047 21044 70000
AAXX 16184 71934 12874 61702 11138 21159 39810 40073 55000 60001 86030 333 11125 21219 79999
AAXX 16184 71935 NIL
AAXX 16184 71936 11474 63604 11154 21175 39820 40087 52015 69901 77177 82570 333 11152 21227 48020 79999 90983
AAXX 16184 71937 NIL
AAXX 16184 71938 11574 82310 11230 21255 30107 40138 51003 69901 77171 885// 333 11230 21315 44023 79999 90931
AAXX 16184 71940 12782 72708 11010 21043 39377 40199 51009 60001 81571 333 10019 21158 70000
AAXX 16184 71943 12974 62415 11023 21081 39332 40179 52007 60001 83071 333 11015 21144 70000
AAXX 16184 71944 160// ///// 11051 50003 60001 333 11051 21092 70000
AAXX 16184 71945 NIL
AAXX 16184 71946 12874 23307 11193 21222 39904 40126 53020 60001 81071 333 11163 21206 79999
AAXX 16184 71948 46064 /2906 11252 30019 40137 53005 6///1 333 11224 21255 7////
AAXX 16184 71949 46/// /1405 11155 21166 39232 40123 53003 6///1 333 11092 21192 7////
AAXX 16184 71951 11258 80107 11046 21054 39945 40219 51003 60011 77177 885// 333 11045 21071 47043 70056 90983 93101
AAXX 16184 71957 47564 60903 11258 21325 30051 40144 55001 6///1 745// 333 11235 21272 7////
AAXX 16184 71964 12986 21710 11038 21094 39235 40092 58009 60001 82030 333 11006 21062 70000
AAXX 16184 71966 16/// /0000 11255 21284 39622 40099 50003 60001 333 11160 21257 70000
AAXX 16184 71968 470// /3007 11237 30077 40144 55002 6///1 745// 333 11236 21289 7////
AAXX 16184 71114 17250 82305 10044 20041 30273 40322 53008 69951 74344 333 10051 20008 70025
AAXX 16184 71120 11958 12506 11063 21090 39498 40172 58006 69901 71081 80001 333 11063 21144 42004 79999 90941
AAXX 16184 71122 16/// /2408 11025 21082 38641 40278 51017 60001 333 21073 7////
AAXX 16184 71123 12874 61905 11051 21080 39322 40210 51011 60001 83078 333 11037 21163 79999
AAXX 16184 71125 11474 22415 11041 21075 39566 40169 56026 69921 73681 82571 333 48001 70002 90911
AAXX 16184 71129 11562 72206 11069 21080 39371 40224 58004 60001 70141 81571 333 11067 21108 70000
AAXX 16184 71131 16/// /2505 11093 21100 38957 40249 50002 60001 333 11060 21110 70000
AAXX 16184 71135 16/// /2210 11075 21091 39143 40263 58010 60001 333 11075 21125 70008 555 10010
AAXX 16184 71137 NIL
AAXX 16184 71140 11474 50000 11093 21115 39771 40296 5/006 69901 70177 81501 333 11088 21158 46997 70002 90925
AAXX 16184 71145 11574 72405 11171 21207 39961 40273 58008 69921 77122 87500 333 11171 21239 48035 70002 90962
AAXX 16184 71148 16/// /2306 11081 21096 39695 40299 50001 60001 333 11081 21138 70000
AAXX 16184 71185 17964 02017 10069 39892 49915 56018 60021 7//44 333 10077 21008 70030
AAXX 16184 71188 11474 63006 10042 20023 39881 49923 53006 69941 70162 86500 333 10046 21021 43014 70036 90921
AAXX 16184 71200 16/// /1003 10066 20059 60001 333 10066 20045 70010
AAXX 16184 71207 17/// /3302 10014 30249 40315 55001 60051 7//4/ 333 10014 20002 70059
AAXX 16184 71260 13/// ///// 11057 21104 30014 40256 50002 69901 333 10022 21058 46001 70024
AAXX 16184 71500 NIL
AAXX 16184 71501 NIL
AAXX 16184 71502 NIL
AAXX 16184 71503 NIL
AAXX 16184 71504 NIL
AAXX 16184 71505 46/// /3502 11123 21141 39338 40067 58022 6///1 333 10021 21128 7////
AAXX 16184 71506 NIL
AAXX 16184 71507 16/// /2108 11070 21114 60001 333 11050 21157 70000
AAXX 16184 71508 16/// ///// 10062 20008 30069 40208 56016 60001 333 10063 20023 70016
AAXX 16184 71509 NIL
AAXX 16184 71511 16/// /2410 11063 21073 39584 40241 57009 60001 333 11063 21150 70000
AAXX 16184 71512 NIL
AAXX 16184 71513 17261 82005 10021 20021 39881 49896 56010 69951 761// 333 10033 21010 70093
AAXX 16184 71514 NIL
AAXX 16184 71515 16/// /2010 11071 21083 39535 40259 58012 60001 333 11071 21146 70000
AAXX 16184 71516 16/// /2107 11065 21074 60001 333 11064 21131 70007
AAXX 16184 71517 NIL
AAXX 16184 71518 NIL
AAXX 16184 71519 NIL
AAXX 16184 71520 NIL
AAXX 16184 71521 NIL
AAXX 16184 71522 NIL
AAXX 16184 71523 NIL
AAXX 16184 71524 16/// /2811 10025 21041 30134 40160 51029 60001 333 10086 20022 70060
AAXX 16184 71525 NIL
AAXX 16184 71526 NIL
AAXX 16184 71527 15966 02604 11145 21183 39780 40315 58002 60001 333 11145 21184 70000
AAXX 16184 71528 NIL
AAXX 16184 71529 46/// /0903 11136 21157 39842 40075 56002 6///1 333 11136 21261 7////
AAXX 16184 71532 15466 83208 10009 21012 39846 40193 58002 60001 333 10022 20000 70119
AAXX 16184 71534 17464 83409 10026 20012 39922 40196 57013 60001 743// 333 10055 20004 70000
AAXX 16184 71535 NIL
AAXX 16184 71536 NIL
AAXX 16184 71537 NIL
AAXX 16184 71539 NIL
AAXX 16184 71540 NIL
AAXX 16184 71541 NIL
AAXX 16184 71542 16/// /2516 11039 21106 60001 333 11034 21212 70005
AAXX 16184 71543 NIL
AAXX 16184 71544 NIL
AAXX 16184 71545 17/// ///// 11022 21071 69961 7//4/ 333 11022 21159 70012
AAXX 16184 71546 NIL
AAXX 16184 71547 NIL
AAXX 16184 71548 NIL
AAXX 16184 71549 NIL
AAXX 16184 71900 46/// /26// 11025 21042 39865 49877 56026 6///1 333 11021 21098 7////
AAXX 16184 71903 NIL
AAXX 16184 71904 NIL
AAXX 16184 71914 16/// /0202 10057 20050 30093 40318 54000 60001 333 10058 20034 70026
AAXX 16184 71916 NIL
AAXX 16184 71918 460// ///// 11242 6///1 333 7////
AAXX 16184 71920 NIL
AAXX 16184 71921 NIL
AAXX 16184 71923 NIL
AAXX 16184 71927 16/// /0000 10046 20039 30255 40314 53001 60001 333 10046 20028 70000
AAXX 16184 71941 17448 83310 11135 21163 39794 40222 50006 60001 771// 333 11013 21135 70023
AAXX 16184 71947 15466 62911 11148 21174 39860 40218 51006 60001 333 11050 21152 70008
AAXX 16184 71450 NIL
AAXX 16184 71451 16/// /1903 11104 21123 39730 40169 58033 60001 333 11103 21256 70000
AAXX 16184 71452 46/// /1807 11059 21069 39538 40270 58006 6///1 333 11059 21126 7////
AAXX 16184 71453 NIL
AAXX 16184 71454 NIL
AAXX 16184 71455 46/// /2212 11042 21052 39412 40230 58008 6///1 333 11042 21117 7////
AAXX 16184 71456 NIL
AAXX 16184 71457 16/// /2003 11083 21117 39316 40239 51006 60001 333 11083 21179 70000
AAXX 16184 71458 16/// /2508 11006 21066 39404 40194 53003 60001 333 11006 21173 70000
AAXX 16184 71459 16/// /2603 11069 21082 39403 40239 54000 60001 333 11068 21148 70000
AAXX 16184 71460 16/// /3305 11040 21078 39984 40230 50001 60001 333 10015 21045 70000
AAXX 16184 71461 NIL
AAXX 16184 71462 NIL
AAXX 16184 71463 46/// /2621 10022 21043 30003 40230 56010 6///1 333 10028 20013 7////
AAXX 16184 71464 NIL
AAXX 16184 71465 NIL
AAXX 16184 71466 NIL
AAXX 16184 71468 NIL
AAXX 16184 71470 NIL
AAXX 16184 71471 15966 81302 11042 21070 39387 40188 53008 60001 333 10005 21171 70000
AAXX 16184 71473 17/// /1909 10058 20045 30283 40314 55000 69921 7//4/ 333 10058 20034 70018
AAXX 16184 71475 17/// /3403 10029 20026 30216 40312 53004 69921 7//4/ 333 10029 20015 70014
AAXX 16184 71476 NIL
AAXX 16184 71477 16/// /1421 10061 20058 60001 333 10061 20026 70142
AAXX 16184 71478 NIL
AAXX 16184 71479 NIL
AAXX 16184 71480 NIL
AAXX 16184 71481 NIL
AAXX 16184 71482 NIL
AAXX 16184 71483 NIL
AAXX 16184 71484 NIL
AAXX 16184 71485 17/// /1232 10059 20052 30207 40228 50006 60071 7//4/ 333 10063 20048 70180
AAXX 16184 71486 16/// /1706 10011 21059 39023 40241 50004 60001 333 10014 21073 70000
AAXX 16184 71487 NIL
AAXX 16184 71489 16/// /2109 11062 21079 39391 40216 58008 60001 333 11062 21106 70000
AAXX 16184 71490 NIL
AAXX 16184 71491 17/// /0000 11226 21254 69931 7//4/ 333 11067 21367 70003
AAXX 16184 71492 NIL
AAXX 16184 71493 17/// /2609 10077 20059 39929 49966 53008 60031 7//4/ 333 10105 20028 70259
AAXX 16184 71494 17/// /3113 11011 21030 39586 40104 51035 60021 7//4/ 333 10068 21011 70157
AAXX 16184 71495 NIL
AAXX 16184 71496 NIL
AAXX 16184 71497 46/// /2210 11070 21117 39845 40116 53013 6///1 333 11049 21203 7////
AAXX 16184 71498 NIL
AAXX 16184 71499 17359 61909 11116 21128 39480 40126 58037 60001 771// 333 11113 21227 70000
AAXX 16184 71001 15966 01112 11046 21091 39070 40050 56020 60001 333 11017 21164 70000
AAXX 16184 71002 17466 83014 11061 21081 39378 49915 53014 60011 7714/ 333 11044 21108 70020
AAXX 16184 71003 17566 82813 11120 21171 39726 40113 60001 771//
AAXX 16184 71005 16/// ///// 11027 21062 60001 333 11027 21133 7////
AAXX 16184 71006 NIL
AAXX 16184 71007 NIL
AAXX 16184 71008 NIL
AAXX 16184 71009 NIL
AAXX 16184 71010 NIL
AAXX 16184 71011 NIL
AAXX 16184 71012 NIL
AAXX 16184 71013 NIL
AAXX 16184 71014 NIL
AAXX 16184 71015 NIL
AAXX 16184 71016 NIL
AAXX 16184 71017 NIL
AAXX 16184 71018 NIL
AAXX 16184 71019 NIL
AAXX 16184 71020 NIL
AAXX 16184 71021 NIL
AAXX 16184 71022 17566 81405 10050 20033 30117 40161 51002 69931 7004/ 333 10062 21003 70049
AAXX 16184 71023 17964 02608 11071 21080 39365 40153 56014 69951 74544 333 11071 21164 70005
AAXX 16184 71024 16/// /3202 11146 21156 60001 333 11140 21195 70000 555 10010
AAXX 16184 71026 NIL
AAXX 16184 71027 16/// /2207 10109 20082 39921 49931 58040 60001 333 10120 20001 70243
AAXX 16184 71028 16/// /2602 11002 21022 39200 40251 51011 60001 333 10032 21075 70000 555 10010
AAXX 16184 71029 16/// /0404 11265 21291 30078 40119 51006 60001 333 11265 21305 70000
AAXX 16184 71030 16/64 /2815 10077 20011 39927 40015 53018 60001 333 10095 20055 70147
AAXX 16184 71032 46/// /0000 11028 21040 39470 40326 53003 6///1 333 11028 21050 7////
AAXX 16184 71033 46/// /1809 11124 21135 39479 40127 58038 6///1 333 11121 21256 7////
AAXX 16184 71035 NIL
AAXX 16184 71036 17566 82408 11061 21096 39883 40273 58011 60001 771// 333 11061 21160 70000
AAXX 16184 71039 46/// /1701 11165 6///1 333 11091 21232 7////
AAXX 16184 71040 46/// /2917 11053 21094 39913 40113 51060 6///1 333 10052 21053 7////
AAXX 16184 71041 17148 82211 10090 20087 39807 49945 56049 69931 7614/ 333 10101 20007 70099
AAXX 16184 71042 17/// /0902 10057 20052 30317 40321 57001 60031 7//4/ 333 10057 20026 70070
AAXX 16184 71044 16/// /0511 11198 21235 39778 40107 52002 60001 333 11194 21231 70000
AAXX 16184 71046 460// /2707 11289 30142 40160 55001 6///1 333 11289 21335 7////
AAXX 16184 71047 16/// ///// 11020 21054 60001 333 11020 21131 70000
AAXX 16184 71048 NIL
AAXX 16184 71049 NIL
AAXX 16184 71060 NIL
AAXX 16184 71063 16/// /2911 10010 21044 30085 40183 51017 60001 333 10074 20005 70000
AAXX 16184 71604 NIL
AAXX 16184 71605 17/// /3402 10044 20044 30160 40313 55001 60051 7//4/ 333 10046 20036 70119
AAXX 16184 71611 NIL
AAXX 16184 71612 NIL
AAXX 16184 71614 NIL
AAXX 16184 71616 16/// /3014 10012 21056 30020 40140 51041 60001 333 10093 20012 70120
AAXX 16184 71617 17/// /2922 11051 21092 39953 40122 53058 69931 7//4/ 333 10037 21052 7////
AAXX 16184 71618 15966 02713 11236 21267 30157 40197 58001 60001 333 11222 21241 70000
AAXX 16184 71619 NIL
AAXX 16184 71622 NIL
AAXX 16184 71632 NIL
AAXX 16184 71634 17/// /3005 10040 20016 39818 49969 53024 69931 7//4/ 333 10058 21025 70120
AAXX 16184 71638 17/// /1206 10066 20050 30195 40302 55004 60031 7//4/ 333 10067 20021 70096
AAXX 16184 71639 12574 62908 10051 21022 39955 40198 56015 60001 86100 333 10058 20015 70022
AAXX 16184 71642 11574 73202 11151 21173 39693 40261 50000 69901 70277 85508 333 11090 21157 48024 70068 90967
AAXX 16184 71051 NIL
AAXX 16184 71055 NIL
AAXX 16184 71057 NIL
AAXX 16184 71059 460// ///// 11216 30035 40129 53004 6///1 333 11208 21249 7////
AAXX 16184 71061 16/// /1905 11053 21086 39384 40190 51015 60001 333 11043 21160 70000
AAXX 16184 71062 46/// /2508 11011 21074 39099 40185 53013 6///1 333 11006 21095 7////
AAXX 16184 71064 460// /3412 11252 39904 40128 51004 6///1 333 11241 21262 7////
AAXX 16184 71065 NIL
AAXX 16184 71067 NIL
AAXX 16184 71070 NIL
AAXX 16184 71073 NIL
AAXX 16184 71074 NIL
AAXX 16184 71075 16/// /1810 11160 21178 39506 40136 58042 60001 333 11160 21244 70000
AAXX 16184 71078 17340 81706 11166 21180 39729 40191 58029 60001 771// 333 11166 21282 70000
AAXX 16184 71084 460// ///// 11288 30058 40108 58002 6///1 333 11278 21293 7////
AAXX 16184 71085 15966 62724 10013 21047 38858 40259 50016 60001 333 10013 21038 70000
AAXX 16184 71087 NIL
AAXX 16184 71088 460// /0308 11234 51001 6///1 333 11221 21265 7////
AAXX 16184 71089 NIL
AAXX 16184 71096 460// ///// 11204 39235 49976 58008 6///1 333 11191 21211 7////
AAXX 16184 71097 46208 80614 11126 39437 49909 56029 6///1 333 11126 21156 7////
AAXX 16184 71098 43/// /2503 11181 21216 39899 40282 58008 6///1 333 11180 21261 7////
AAXX 16184 71099 43/// /2713 11222 21278 30170 40191 51004 6///1 333 11222 21258 7////
AAXX 16184 71851 NIL
AAXX 16184 71857 NIL
AAXX 16184 71860 12683 62808 10007 21068 38814 40245 51007 60001 81530 333 10020 21124 70000
AAXX 16184 71876 15866 81805 11046 21060 39527 40210 58018 60001 333 11046 21125 70000
AAXX 16184 71885 NIL
AAXX 16184 71886 NIL
AAXX 16184 71888 NIL
AAXX 16184 71890 16/// /0618 10006 21046 39975 40002 52044 60001 333 10018 21013 7//// 555 10020
AAXX 16184 71895 NIL
AAXX 16184 71812 46964 33011 11241 21284 30140 40154 50005 6///1 333 7////
AAXX 16184 71819 15366 81717 10016 20010 39889 49930 56047 60001 333 10016 21053 70003
AAXX 16184 71820 16/// /2807 10042 20007 30070 40185 58003 60001 333 10067 20025 70086 555 10020
AAXX 16184 71823 17564 82911 11134 21179 39727 40114 51018 60001 745// 333 11044 21134 70015
AAXX 16184 71824 NIL
AAXX 16184 71826 16/// /1007 11133 21185 39898 49941 58034 60001 333 11132 21200 70000
AAXX 16184 71829 17/// /2721 11005 21046 39831 49991 53042 69991 7//4/ 333 10017 21023 7////
AAXX 16184 71833 46/// /2707 10018 21008 6///1 333 10018 21006 7////
AAXX 16184 71835 16/// /2706 11199 21242 39778 40289 58004 60001 333 11199 21248 70000 555 10010
AAXX 16184 71837 NIL
AAXX 16184 71839 NIL
AAXX 16184 71840 NIL
AAXX 16184 71846 16/// /2608 11190 21234 39933 40268 58005 60001 333 11190 21239 70003
AAXX 16184 71847 NIL
AAXX 16184 71848 NIL
AAXX 16184 71849 16/// /1810 11119 21143 39993 40311 58006 60001 333 11118 21179 70000
AAXX 16184 71350 17/// /2610 10068 20054 39870 49934 55019 60041 7//4/ 333 10091 21007 70239
AAXX 16184 71351 NIL
AAXX 16184 71352 16/// /2912 10014 21007 39754 40214 55006 60001 333 10015 21010 70043
AAXX 16184 71353 NIL
AAXX 16184 71354 NIL
AAXX 16184 71355 16/// /0000 11312 21344 30010 40099 53004 60001 333 11305 21349 70000
AAXX 16184 71356 NIL
AAXX 16184 71357 NIL
AAXX 16184 71358 16/// /1205 11201 21252 39945 49980 51015 60001 333 11153 21241 70000 555 10030
AAXX 16184 71359 NIL
AAXX 16184 71360 NIL
AAXX 16184 71361 NIL
AAXX 16184 71362 NIL
AAXX 16184 71363 NIL
AAXX 16184 71364 NIL
AAXX 16184 71365 NIL
AAXX 16184 71368 15466 82513 10014 21012 39829 40224 55001 60001 333 10016 21003 70083
AAXX 16184 71369 15966 13404 11068 21085 39469 40194 51020 60001 333 11065 21146 70000
AAXX 16184 71370 46/// /3010 11008 21064 30003 40139 51044 6///1 333 10060 21008 7////
AAXX 16184 71371 15566 63115 10038 21032 30118 40152 51025 60001 333 10086 20029 70095
AAXX 16184 71372 NIL
AAXX 16184 71373 17/// /2810 10022 21026 60021 7//4/ 333 10090 20022 70074
AAXX 16184 71374 NIL
AAXX 16184 71375 NIL
AAXX 16184 71376 NIL
AAXX 16184 71377 16/// /2913 10026 21035 30109 40157 51022 60001 333 10087 20023 70066
AAXX 16184 71378 16/// /3008 11045 21112 39942 40152 51049 60001 333 10048 21045 70031
AAXX 16184 71379 16/// /2918 11078 21114 39955 40127 52040 60001 333 10024 21079 70008
AAXX 16184 71380 NIL
AAXX 16184 71381 NIL
AAXX 16184 71382 NIL
AAXX 16184 71383 NIL
AAXX 16184 71384 16/// /2605 10031 21051 30086 40093 52055 60001 333 10061 20002 70190
AAXX 16184 71385 NIL
AAXX 16184 71386 17/// /3114 11007 21027 39795 49999 53046 60021 7//4/ 333 10046 21022 70170
AAXX 16184 71387 NIL
AAXX 16184 71388 NIL
AAXX 16184 71389 NIL
AAXX 16184 71390 46/// /3015 10007 6///1 333 10017 21021 7////
AAXX 16184 71391 16/// ///// 11023 21060 60001 333 10044 21023 70040
AAXX 16184 71392 16/// /2912 10009 21055 60001 333 10070 20009 70239
AAXX 16184 71393 NIL
AAXX 16184 71395 11574 82511 10068 20054 39805 49979 55007 69981 72782 8657/ 333 10102 20011 70165 90921
AAXX 16184 71398 15966 02514 11176 21226 30223 40235 58002 60001 333 11124 21209 70003
AAXX 16184 71399 NIL
AAXX 16184 71726 16/// /2907 11090 21125 39621 40170 51024 60001 333 10003 21091 70037
AAXX 16184 71727 11562 83020 11050 21079 39916 40114 52057 60021 77173 885// 333 10047 21054 48024 70062 90983
AAXX 16184 71728 11582 63215 11062 21097 39915 40138 52041 69901 77172 86500 333 10038 21063 44997 70008 90917
AAXX 16184 71730 11474 73610 11089 21119 39799 40234 50006 60001 77122 85580 333 10003 21092 70020 90966
AAXX 16184 71731 11474 73407 11074 21101 39761 40221 51007 69901 77172 87500 333 10004 21078 43001 70048 90942
AAXX 16184 71735 NIL
AAXX 16184 71738 12974 83504 11150 21186 39912 40282 50001 60001 8801/ 333 11105 21163 43017 70040
AAXX 16184 71739 41469 73106 11157 21182 39877 40256 50001 6//// 77177 87570 333 11088 21163 4//// 7//// 90983 93101
AAXX 16184 71749 16764 32807 11132 21179 30053 40312 58001 60001 333 11128 21160 70000
AAXX 16184 71799 11266 71507 10074 20063 30292 40316 55001 69901 70262 86570 333 10074 20040 70014 90930
AAXX 16184 71800 16/// /1824 10039 20031 30074 40107 57045 60001 333 10046 21036 70000
AAXX 16184 71801 11369 81826 10022 20014 39922 40096 56049 69941 76172 887// 333 10022 21057 41997 70004 90942
AAXX 16184 71803 11469 71823 10037 20019 39833 40018 56040 69981 78076 86530 333 10037 21045 42001 70016 90917
AAXX 16184 71807 NIL
AAXX 16184 71808 11112 81711 10024 20024 39868 49914 56040 60071 76176 885// 333 10024 21063 44020 70136 90983
AAXX 16184 71809 11574 72106 10073 20047 39924 49951 56030 69921 72162 87500 333 10074 21011 42002 70016 90947
AAXX 16184 71810 17/// /2711 10011 20007 39841 49906 53003 69931 7//4/ 333 10025 21020 70034
AAXX 16184 71811 NIL
AAXX 16184 71813 NIL
AAXX 16184 71814 17/// /2109 10024 20024 39891 49900 56008 60041 7//4/ 333 10032 21017 70151
AAXX 16184 71815 11474 81810 10062 20055 39913 49943 58032 69981 70282 885// 333 10066 21004 41001 70008 90923
AAXX 16184 71914 46/// /0202 10057 20050 30093 6///1 333 20034 7////
AAXX 16184 71700 17466 82911 10047 20026 39981 40006 53035 60021 7614/ 333 10086 20008 70091
AAXX 16184 71701 11574 82818 10051 20019 39942 40003 53030 60021 72162 887// 333 10089 20011 70120 90927
AAXX 16184 71702 17/// /2812 10067 20052 39923 49938 55006 60021 7//4/ 333 10083 21006 70122
AAXX 16184 71703 11574 73015 10008 21016 39733 40027 53044 60011 70262 87500 333 10038 21003 42005 70138 90941
AAXX 16184 71704 15566 82807 10007 21041 30027 40252 53007 69931 333 10008 21002 70011
AAXX 16184 71710 16/// /2205 10070 20063 39905 49914 58033 60001 333 10078 21003 70250
AAXX 16184 71712 16/// /3010 10037 21012 30108 40168 51015 60001 333 10085 20029 70035
AAXX 16184 71713 NIL
AAXX 16184 71716 NIL
AAXX 16184 71717 NIL
AAXX 16184 71720 16/// /1011 10060 20042 30147 40302 55000 60001 333 10060 20025 70038
AAXX 16184 71721 NIL
AAXX 16184 71723 16/// /3113 10007 21056 30134 40144 51039 60001 333 10080 20007 70074
AAXX 16184 71724 NIL
AAXX 16184 71732 16/// /3508 11079 21117 60001 333 10017 21080 70044
AAXX 16184 71733 16/// /3406 11089 21119 39790 40229 51003 60001 333 10004 21092 70015
AAXX 16184 71734 NIL
AAXX 16184 71736 NIL
AAXX 16184 71737 NIL
AAXX 16184 71741 16/// /0804 11007 21027 39867 40299 52009 60001 333 11001 21029 70009
AAXX 16184 71742 NIL
AAXX 16184 71743 NIL
AAXX 16184 71744 NIL
AAXX 16184 71745 NIL
AAXX 16184 71746 NIL
AAXX 16184 71747 NIL
AAXX 16184 71748 NIL
AAXX 16184 06030 01258 30304 10021 20013 39807 49823 52006 6///2 71022 81671 333 10040 20020 6///7 81705 83357
AAXX 16184 06060 01240 83506 10022 20017 39756 49820 52012 6///2 71022 886// 333 10035 20021 6///7 83704 87705
AAXX 16184 06070 07756 83505 10031 20021 39781 49811 52003 60042 71000 333 10039 20030 6///7 88/50
AAXX 16184 06120 36478 70313 10040 20031 39765 49790 52007 333 10040 20024 81/14 83/30 87/50
AAXX 16184 06180 02475 80516 10045 20022 39767 49773 56014 69952 8357/ 333 10052 20043 6///7 81616 83624 87358
AAXX 16184 06193 07350 70915 10032 20020 39746 49757 57039 60012 76265 333 10050 20032 55300 20000 60017 81/08 83/10 85/16 87/20 91028 91129
AAXX 16184 71893 11280 81419 10068 20051 30260 40292 55002 69941 70262 86630 333 10068 20033 70034 90940
AAXX 16184 71894 17/// /1012 10081 20081 30270 40279 53002 60051 7//4/ 333 10081 20053 70128
AAXX 16184 71896 17224 81812 10000 21006 39387 40233 53003 60041 77144 333 10000 21089 70061
AAXX 16184 71897 11222 81430 10074 20063 3//// 4//// 52005 60101 76366 887XX 333 10073 20063 70422 90999
AAXX 16184 71898 160// ///// 10058 50001 60011 333 10064 21002 70040
AAXX 16184 71899 11269 81706 10068 20068 3//// 4//// 58003 60011 70154 886XX 333 10070 20006 70090 90913
AAXX 16184 71902 11456 82906 11054 21087 39884 49892 56019 60011 77177 8852/ 333 11042 21092 70018 90917
AAXX 16184 71905 NIL
AAXX 16184 71906 11562 73016 11150 21195 39957 40008 52024 60021 77177 86570 333 11079 21150 48015 70054 90983 93102
AAXX 16184 71907 17002 92720 11146 21163 39986 40019 58005 60001 745// 333 11142 21159 70000
AAXX 16184 71909 16564 83205 11140 21176 39882 49925 57011 60001 333 11117 21235 70000
AAXX 16184 71910 46764 30111 11169 21183 39835 49898 56008 6///1 333 11155 21176 7////
AAXX 16184 71911 46020 02914 11282 39990 40048 50003 6///1 333 11234 21282 7////
AAXX 16184 71912 12974 02510 11218 21272 30043 40238 58009 60001 333 11218 21295 70000
AAXX 16184 71915 11974 13214 11266 21306 39885 49969 53019 69901 77677 81070 333 11240 21286 48044 70002 90983
AAXX 16184 71917 12974 10000 11394 21433 30087 40102 52004 60001 81070 333 11361 21397 79999
AAXX 16184 71922 12774 81808 11115 21157 39685 40166 57041 60001 885// 333 11116 21186 79999
AAXX 16184 71924 11574 70807 11224 21270 39950 40042 57002 69901 77172 87510 333 11221 21312 48038 79999 90921
AAXX 16184 71925 11674 12905 11295 21340 30079 40122 56002 69901 77677 81570 333 11279 21301 42017 79999 90973
AAXX 16184 71926 11980 12707 11255 21303 30107 40132 53006 69901 73673 81030 333 11225 21266 48043 79999 90999
AAXX 16184 71928 16/// /1302 11080 21114 39032 40228 52007 60001 333 11080 21123 70000
AAXX 16184 71043 11474 80000 11238 21288 30051 40149 53004 69901 77177 86572 333 11238 21245 48021 79999 90983
AAXX 16184 71045 NIL
AAXX 16184 71050 NIL
AAXX 16184 71051 NIL
AAXX 16184 71052 NIL
AAXX 16184 71066 12774 10000 11159 21188 39691 40125 53014 60001 81140 333 11148 21194 79999
AAXX 16184 71068 12974 22710 11021 21081 39472 40179 53015 60001 82070 333 11013 21164 70000
AAXX 16184 71069 16964 03503 11070 21082 39468 40193 51020 60001 333 11069 21159 70000
AAXX 16184 71076 16/// /0701 11164 21180 39688 40094 58019 60001 333 11147 21284 70000
AAXX 16184 71077 16/// /2005 11062 21077 39581 40134 58027 60001 333 11062 21174 70000
AAXX 16184 71079 11974 51603 11180 21216 39939 40236 58016 69901 77671 82071 333 11178 21283 48007 70006 90937
AAXX 16184 71081 46964 03409 11285 21321 39960 49972 51002 6///1 333 11243 21296 7////
AAXX 16184 71082 NIL
AAXX 16184 71083 11912 03418 11261 21300 30060 40104 51013 60001 73833 333 11224 21261 70000
AAXX 16184 71090 46964 01105 11191 21268 39946 49981 52014 6///1 333 11152 21245 7////
AAXX 16184 71091 460// /0511 11261 39749 49963 54000 6///1 333 7////
AAXX 16184 71092 46311 81014 11229 39292 49972 55001 6///1 333 11229 21283 7////
AAXX 16184 71093 460// /1314 11200 39474 49977 58004 6///1 333 11188 21214 7////
AAXX 16184 71094 46011 /1008 11168 39045 49949 58012 6///1 333 11165 21207 7////
AAXX 16184 71095 47211 91212 11115 21126 39889 49969 52006 6///1 745// 333 11109 21204 7////
AAXX 16184 71101 160// /2505 30138 55002 60001 333 70035
AAXX 16184 71104 NIL
AAXX 16184 71108 11266 80000 10058 20053 30247 40321 53002 60021 76162 8657/ 333 10058 20036 70038 90917
AAXX 16184 71109 11362 81210 10058 20042 30215 40242 51007 60101 76166 8657/ 333 10058 20040 70296 90983
AAXX 16184 71665 NIL
AAXX 16184 71666 17/// /2913 10060 20041 39911 49954 53011 60041 7//4/ 333 10090 21008 70078
AAXX 16184 71667 NIL
AAXX 16184 71668 17/// /3015 10046 20017 39959 40002 53034 60031 7//4/ 333 10086 20003 70107
AAXX 16184 71669 NIL
AAXX 16184 71670 17/// ///// 10057 20039 60031 7//4/ 333 10078 21012 70112
AAXX 16184 71671 17/// /2713 10081 20047 39917 49976 51010 60021 7//4/ 333 10110 20031 70088
AAXX 16184 71672 16/// /3004 10034 21013 39921 40187 58006 60001 333 10039 20013 70028
AAXX 16184 71673 NIL
AAXX 16184 71674 NIL
AAXX 16184 71675 15966 02711 11203 21258 39958 40254 58003 60001 333 11203 21238 70030
AAXX 16184 71679 NIL
AAXX 16184 71680 NIL
AAXX 16184 71681 46/// /0000 10000 21013 6///1 333 10000 21034 7////
AAXX 16184 71682 NIL
AAXX 16184 71683 NIL
AAXX 16184 71684 15566 13110 11118 21157 39931 40240 56006 60001 333 11001 21129 70003
AAXX 16184 71685 17366 82201 10004 20000 39771 40323 51010 69931 7614/ 333 10008 21019 70006
AAXX 16184 71686 469// /0601 11157 21170 39199 40185 55005 6///1 333 11133 21186
AAXX 16184 71687 17/// /0000 10004 21001 39503 40300 52001 69971 7//4/ 333 10005 21004 70010
AAXX 16184 71688 16/// /0000 11009 21009 39238 40291 51002 60001 333 11009 21016 70000 555 10030
AAXX 16184 71689 15966 02509 11056 21085 39659 40126 50004 60001 333 11051 21189 70000
AAXX 16184 71690 NIL
AAXX 16184 71691 17966 33119 10008 21048 39978 40005 51043 60041 70044 333 10021 21011 70196
AAXX 16184 71692 NIL
AAXX 16184 71694 16/// /3504 11004 21028 39841 40208 50001 60001 333 10021 21007 70076
AAXX 16184 71695 16/// /1604 11174 21196 39888 40240 58016 60001 333 11173 21225 70000
AAXX 16184 71696 16/// /2710 11238 21270 30153 40192 58001 60001 333 11224 21244 70000
AAXX 16184 71697 15566 83108 10050 21013 30023 40195 58013 60001 333 10058 20016 70028
AAXX 16184 71699 16/// /2912 10077 20016 30007 40014 53028 60001 333 10095 20060 70092
AAXX 16184 71114 17250 82305 10044 20041 30273 40322 53008 69951 74344 333 10051 20008 70025
AAXX 16184 71120 11958 12506 11063 21090 39498 40172 58006 69901 71081 80001 333 11063 21144 42004 79999 90941
AAXX 16184 71122 16/// /2408 11025 21082 38641 40278 51017 60001 333 21073 7////
AAXX 16184 71123 12874 61905 11051 21080 39322 40210 51011 60001 83078 333 11037 21163 79999
AAXX 16184 71125 11474 22415 11041 21075 39566 40169 56026 69921 73681 82571 333 48001 70002 90911
AAXX 16184 71129 11562 72206 11069 21080 39371 40224 58004 60001 70141 81571 333 11067 21108 70000
AAXX 16184 71131 16/// /2505 11093 21100 38957 40249 50002 60001 333 11060 21110 70000
AAXX 16184 71135 16/// /2210 11075 21091 39143 40263 58010 60001 333 11075 21125 70008 555 10010
AAXX 16184 71137 NIL
AAXX 16184 71140 11474 50000 11093 21115 39771 40296 5/006 69901 70177 81501 333 11088 21158 46997 70002 90925
AAXX 16184 71145 11574 72405 11171 21207 39961 40273 58008 69921 77122 87500 333 11171 21239 48035 70002 90962
AAXX 16184 71148 16/// /2306 11081 21096 39695 40299 50001 60001 333 11081 21138 70000
AAXX 16184 71185 17964 02017 10069 39892 49915 56018 60021 7//44 333 10077 21008 70030
AAXX 16184 71188 11474 63006 10042 20023 39881 49923 53006 69941 70162 86500 333 10046 21021 43014 70036 90921
AAXX 16184 71200 16/// /1003 10066 20059 60001 333 10066 20045 70010
AAXX 16184 71207 17/// /3302 10014 30249 40315 55001 60051 7//4/ 333 10014 20002 70059
AAXX 16184 71260 13/// ///// 11057 21104 30014 40256 50002 69901 333 10022 21058 46001 70024
AAXX 16184 71397 11474 72620 10083 20057 39959 49993 53005 60021 70285 87500 333 10115 20029 70110 90926
AAXX 16184 71400 17/64 /1910 10055 20045 60011 7//4/ 333 10055 21021 70025
AAXX 16184 71403 46/// /2427 10084 39945 49964 56026 6///1 333 10096 20035 7////
AAXX 16184 71411 17/// /2715 10095 20071 30003 40015 51016 69971 7//4/ 333 10111 20062 70106
AAXX 16184 71412 16/// /2110 10087 20072 39908 49917 58039 60001 333 10093 20002 70119
AAXX 16184 71421 NIL
AAXX 16184 71430 16/// /2817 10046 20006 30091 40188 58008 60001 333 10067 20038 70088
AAXX 16184 71431 16/// /3307 10051 21009 30088 40184 58010 60001 333 10057 20028 70013
AAXX 16184 71432 NIL
AAXX 16184 71433 NIL
AAXX 16184 71435 NIL
AAXX 16184 71441 46/// /1710 11101 21132 39977 40301 58001 6///1 333 11099 21153 7////
AAXX 16184 71443 16/// /2310 11086 21106 39832 40262 58010 60001 333 11086 21185 70000
AAXX 16184 71444 NIL
AAXX 16184 71447 16/// /1906 11067 21087 39725 40289 58001 60001 333 11063 21101 70000
AAXX 16184 71467 16/// /0204 11301 21330 30009 40129 51007 60001 333 11223 21310 70000
AAXX 16184 71472 NIL
AAXX 16184 71474 16040 82007 11033 21038 39004 40268 53005 69951 333 11033 21054 70015
AAXX 16184 71510 16/// /2409 11054 21070 39494 40219 58011 60001 333 11054 21117 70000
AAXX 16184 71538 12574 82411 10017 21059 30026 40261 50003 60001 885// 333 10026 21005 79999
AAXX 16184 71600 17230 82322 10106 20103 30002 40008 56043 60061 7//44 333 10121 20024 70095
AAXX 16184 71601 NIL
AAXX 16184 71816 11374 82803 10015 21004 39814 49874 56023 69901 78087 885// 333 10022 21118 43045 70016 90917
AAXX 16184 71817 11374 81715 10014 20001 39908 49921 57055 60031 76177 886// 333 42014 70052 90999
AAXX 16184 71818 11358 81710 10003 20003 39876 49894 56050 60021 77172 887// 333 10004 21100 43022 70020 90973 93102
AAXX 16184 71822 11569 73411 11118 21159 39678 40162 51012 60031 77177 87500 333 11025 21125 47032 70034 90983
AAXX 16184 71825 11456 82915 11110 21142 39309 49982 53040 69981 77177 885// 333 11054 21110 47075 70092 90983
AAXX 16184 71827 11462 72714 11152 21191 39902 40154 51008 69901 78572 87500 333 11113 21154 47017 70010 90937
AAXX 16184 71828 17416 93218 11139 21163 39334 49977 53050 60011 74544 333 11070 21139 70020
AAXX 16184 71831 12974 82804 11173 21220 39971 40266 58006 60001 8802/ 333 11124 21202 70080
AAXX 16184 71832 NIL
AAXX 16184 71834 12574 62805 11168 21217 39835 40288 58009 60001 82506 333 11168 21219 70024
AAXX 16184 71841 NIL
AAXX 16184 71842 12974 12804 11166 21222 39814 40314 58003 60001 81070 333 11166 21211 70002
AAXX 16184 71844 16964 02710 11204 21274 39959 40255 58003 60001 333 11204 21239 70000
AAXX 16184 71845 12874 22603 11199 21258 39789 40295 58003 60001 81071 333 11198 21249 70008
AAXX 16184 71850 11974 42405 11130 21180 39785 40312 58003 69941 77677 82071 333 11129 21176 70006 90983
AAXX 16184 71852 17564 81810 11119 21139 39993 40303 58007 60001 745// 333 11118 21183 70000
AAXX 16184 71854 11974 12106 11186 21230 39806 40310 58001 69901 77011 81030 333 11186 21252 48011 70008 90942
AAXX 16184 71858 NIL
AAXX 16184 71861 46/// /1806 11076 21088 39519 40269 58008 6///1 333 11076 21163 7////
AAXX 16184 71862 11558 72205 11073 21081 39560 40285 58003 69901 71074 87500 333 11072 21131 42002 70002 90942
AAXX 16184 71863 46264 82111 11054 21074 39541 40260 56011 6///1 333 11054 21135 7////
AAXX 16184 71864 NIL
AAXX 16184 71865 16/// /2115 11058 21081 39536 40236 58017 60001 333 11058 21118 70000
AAXX 16184 71866 46264 82007 11068 21089 39597 40229 58009 6///1 333 11068 21126 7////
AAXX 16184 71867 11574 61703 11180 21197 39892 40245 58017 69901 70277 81571 333 11177 21222 48025 79999 90960
AAXX 16184 71868 NIL
AAXX 16184 71869 12574 82205 11073 21081 39667 40210 57027 60001 84871 333 11073 21217 43005 70002
AAXX 16184 71871 15766 12412 11038 21066 39360 40186 57009 60001 333 11038 21132 70000
AAXX 16184 71877 12986 62306 10030 21070 38940 40233 52009 60001 86070 333 10034 21082 70000
AAXX 16184 71878 12974 52105 11073 21109 39131 40236 51005 60001 81071 333 11068 21119 79999
AAXX 16184 71879 16964 02306 11024 21082 39380 40201 51014 60001 333 11021 21100 70000
AAXX 16184 71880 11282 70000 11048 21050 39196 40340 53012 60001 70241 87500 333 11047 21094 70000
AAXX 16184 71882 17358 80000 10003 21006 39772 40324 51010 69951 74144 333 10009 21018 70015
AAXX 16184 71883 46/// /0000 11027 21033 39465 40306 53004 6///1 333 11027 21046 7////
AAXX 16184 71887 12383 80804 10000 21018 39871 40303 53009 60001 8557/ 333 10003 21026 70008
AAXX 16184 71889 11474 81714 10004 21029 39911 40341 51006 69901 72272 8357/ 333 10004 21009 46001 70002 90941
AAXX 16184 71891 16764 33002 10046 20005 39999 40278 53003 60001 333 10059 21014 70005
AAXX 16184 71892 11256 80907 10061 20052 30313 40318 55001 60031 72065 886// 333 10061 20046 70080 90913
AAXX 16184 71726 16/// /2907 11090 21125 39621 40170 51024 60001 333 10003 21091 70037
AAXX 16184 71727 11562 83020 11050 21079 39916 40114 52057 60021 77173 885// 333 10047 21054 48024 70062 90983
AAXX 16184 71728 11582 63215 11062 21097 39915 40138 52041 69901 77172 86500 333 10038 21063 44997 70008 90917
AAXX 16184 71730 11474 73610 11089 21119 39799 40234 50006 60001 77122 85580 333 10003 21092 70020 90966
AAXX 16184 71731 11474 73407 11074 21101 39761 40221 51007 69901 77172 87500 333 10004 21078 43001 70048 90942
AAXX 16184 71735 NIL
AAXX 16184 71738 12974 83504 11150 21186 39912 40282 50001 60001 8801/ 333 11105 21163 43017 70040
AAXX 16184 71739 41469 73106 11157 21182 39877 40256 50001 6//// 77177 87570 333 11088 21163 4//// 7//// 90983 93101
AAXX 16184 71749 16764 32807 11132 21179 30053 40312 58001 60001 333 11128 21160 70000
AAXX 16184 71799 11266 71507 10074 20063 30292 40316 55001 69901 70262 86570 333 10074 20040 70014 90930
AAXX 16184 71800 16/// /1824 10039 20031 30074 40107 57045 60001 333 10046 21036 70000
AAXX 16184 71801 11369 81826 10022 20014 39922 40096 56049 69941 76172 887// 333 10022 21057 41997 70004 90942
AAXX 16184 71803 11469 71823 10037 20019 39833 40018 56040 69981 78076 86530 333 10037 21045 42001 70016 90917
AAXX 16184 71807 NIL
AAXX 16184 71808 11112 81711 10024 20024 39868 49914 56040 60071 76176 885// 333 10024 21063 44020 70136 90983
AAXX 16184 71809 11574 72106 10073 20047 39924 49951 56030 69921 72162 87500 333 10074 21011 42002 70016 90947
AAXX 16184 71810 17/// /2711 10011 20007 39841 49906 53003 69931 7//4/ 333 10025 21020 70034
AAXX 16184 71811 NIL
AAXX 16184 71813 NIL
AAXX 16184 71814 17/// /2109 10024 20024 39891 49900 56008 60041 7//4/ 333 10032 21017 70151
AAXX 16184 71815 11474 81810 10062 20055 39913 49943 58032 69981 70282 885// 333 10066 21004 41001 70008 90923
AAXX 16184 71603 11569 22715 10092 20031 39989 40041 53015 69921 70281 82500 333 10106 20060 70084 90935
AAXX 16184 71607 16/// /2813 10074 20006 39995 40027 53032 60001 333 10091 20044 70082
AAXX 16184 71609 11569 82914 10065 20029 39871 40002 53023 60021 78062 886// 333 10093 20029 70172 90917
AAXX 16184 71610 17566 83014 10017 21022 39832 40127 51032 69951 7004/ 333 10083 20016 70103
AAXX 16184 71621 11474 63208 10045 21001 30083 40189 58006 69901 72581 85501 333 10065 20025 70020 90926
AAXX 16184 71623 NIL
AAXX 16184 71624 12574 72811 10049 21003 39992 40206 56012 60001 87601 333 10050 20011 70028
AAXX 16184 71625 16564 63209 11023 21105 30045 40208 52009 60001 333 10045 21026 70005
AAXX 16184 71627 12583 22916 10029 21034 30114 40158 52022 60001 82500 333 10091 20028 70104
AAXX 16184 71628 13560 62814 10015 21044 30045 40186 53015 69961 86500 333 10075 20012 70044
AAXX 16184 71630 NIL
AAXX 16184 71631 16/// /2907 10002 21008 39703 40210 55010 60001 333 10002 21010 70021
AAXX 16184 71633 11316 83503 10009 21005 39933 40208 58004 69961 77176 887// 333 10025 20006 70040 90917
AAXX 16184 71705 11269 82715 10065 20055 39874 49959 53007 60041 78082 887// 333 10094 20002 70088 90946
AAXX 16184 71706 11466 82612 10071 20061 39884 49943 55014 60041 78022 885// 333 10095 20000 70232 90931
AAXX 16184 71707 11358 82012 10091 20079 39876 49951 58041 60021 78066 885// 333 10096 21001 70348 90927
AAXX 16184 71709 11266 82206 10073 20071 39905 49918 58031 69941 78022 887// 333 10082 20003 70278 90921
AAXX 16184 71711 NIL
AAXX 16184 71714 16/// /2914 10009 21053 30040 40132 51056 60001 333 10063 20008 70217
AAXX 16184 71715 16/// /3213 11014 21066 39884 40064 53049 60001 333 10063 21015 70031
AAXX 16184 71718 11483 82919 10009 21032 39961 40026 52049 69981 70277 885// 333 10064 21004 41004 70076 90912
AAXX 16184 71719 17/// /2615 10036 20026 39927 49933 53006 69931 7//4/ 333 10060 7////
AAXX 16184 71930 13969 70000 11072 21120 39251 40209 53015 60003 82071 333 11062 21105 47015 70000
AAXX 16184 71931 16/// /1926 10020 20006 30003 40015 56045 60001 333 10047 21044 70000
AAXX 16184 71934 12874 61702 11138 21159 39810 40073 55000 60001 86030 333 11125 21219 79999
AAXX 16184 71935 NIL
AAXX 16184 71936 11474 63604 11154 21175 39820 40087 52015 69901 77177 82570 333 11152 21227 48020 79999 90983
AAXX 16184 71937 NIL
AAXX 16184 71938 11574 82310 11230 21255 30107 40138 51003 69901 77171 885// 333 11230 21315 44023 79999 90931
AAXX 16184 71940 12782 72708 11010 21043 39377 40199 51009 60001 81571 333 10019 21158 70000
AAXX 16184 71943 12974 62415 11023 21081 39332 40179 52007 60001 83071 333 11015 21144 70000
AAXX 16184 71944 160// ///// 11051 50003 60001 333 11051 21092 70000
AAXX 16184 71945 NIL
AAXX 16184 71946 12874 23307 11193 21222 39904 40126 53020 60001 81071 333 11163 21206 79999
AAXX 16184 71948 46064 /2906 11252 30019 40137 53005 6///1 333 11224 21255 7////
AAXX 16184 71949 46/// /1405 11155 21166 39232 40123 53003 6///1 333 11092 21192 7////
AAXX 16184 71951 11258 80107 11046 21054 39945 40219 51003 60011 77177 885// 333 11045 21071 47043 70056 90983 93101
AAXX 16184 71957 47564 60903 11258 21325 30051 40144 55001 6///1 745// 333 11235 21272 7////
AAXX 16184 71964 12986 21710 11038 21094 39235 40092 58009 60001 82030 333 11006 21062 70000
AAXX 16184 71966 16/// /0000 11255 21284 39622 40099 50003 60001 333 11160 21257 70000
AAXX 16184 71968 470// /3007 11237 30077 40144 55002 6///1 745// 333 11236 21289 7////
AAXX 16184 78948 42484 50914 10299 20236 30107 40115 60001 70111 83901 333 06206 10304 20231 58008 70005 81918 85080
AAXX 16184 06011 07456 53020 10025 21004 39857 49926 52017 60042 78180 333 10031 20013 55300 20000 60017 81/12 83/32 85/37 91133
AAXX 16184 65352 31940 70402 10304 20024 3//// 4//// 70522 80002 333 10352 5//// 87076
AAXX 16184 65361 32958 70000 10265 20074 3//// 4//// 80002 333 10345 5//// 87076
AAXX 16184 65376 31920 70000 10298 20083 39641 40098 70522 80002 333 10332 59005 87073
AAXX 16184 65387 31935 71802 10290 20223 30065 40083 70522 80002 333 10351 58000 87073
AAXX 16184 71816 11374 82803 10015 21004 39814 49874 56023 69901 78087 885// 333 10022 21118 43045 70016 90917
AAXX 16184 71817 11374 81715 10014 20001 39908 49921 57055 60031 76177 886// 333 42014 70052 90999
AAXX 16184 71818 11358 81710 10003 20003 39876 49894 56050 60021 77172 887// 333 10004 21100 43022 70020 90973 93102
AAXX 16184 71822 11569 73411 11118 21159 39678 40162 51012 60031 77177 87500 333 11025 21125 47032 70034 90983
AAXX 16184 71825 11456 82915 11110 21142 39309 49982 53040 69981 77177 885// 333 11054 21110 47075 70092 90983
AAXX 16184 71827 11462 72714 11152 21191 39902 40154 51008 69901 78572 87500 333 11113 21154 47017 70010 90937
AAXX 16184 71828 17416 93218 11139 21163 39334 49977 53050 60011 74544 333 11070 21139 70020
AAXX 16184 71831 12974 82804 11173 21220 39971 40266 58006 60001 8802/ 333 11124 21202 70080
AAXX 16184 71832 NIL
AAXX 16184 71834 12574 62805 11168 21217 39835 40288 58009 60001 82506 333 11168 21219 70024
AAXX 16184 71841 NIL
AAXX 16184 71842 12974 12804 11166 21222 39814 40314 58003 60001 81070 333 11166 21211 70002
AAXX 16184 71844 16964 02710 11204 21274 39959 40255 58003 60001 333 11204 21239 70000
AAXX 16184 71845 12874 22603 11199 21258 39789 40295 58003 60001 81071 333 11198 21249 70008
AAXX 16184 71850 11974 42405 11130 21180 39785 40312 58003 69941 77677 82071 333 11129 21176 70006 90983
AAXX 16184 71852 17564 81810 11119 21139 39993 40303 58007 60001 745// 333 11118 21183 70000
AAXX 16184 71854 11974 12106 11186 21230 39806 40310 58001 69901 77011 81030 333 11186 21252 48011 70008 90942
AAXX 16184 71858 NIL
AAXX 16184 71861 46/// /1806 11076 21088 39519 40269 58008 6///1 333 11076 21163 7////
AAXX 16184 71862 11558 72205 11073 21081 39560 40285 58003 69901 71074 87500 333 11072 21131 42002 70002 90942
AAXX 16184 71863 46264 82111 11054 21074 39541 40260 56011 6///1 333 11054 21135 7////
AAXX 16184 71864 NIL
AAXX 16184 71865 16/// /2115 11058 21081 39536 40236 58017 60001 333 11058 21118 70000
AAXX 16184 71866 46264 82007 11068 21089 39597 40229 58009 6///1 333 11068 21126 7////
AAXX 16184 71867 11574 61703 11180 21197 39892 40245 58017 69901 70277 81571 333 11177 21222 48025 79999 90960
AAXX 16184 71868 NIL
AAXX 16184 71869 12574 82205 11073 21081 39667 40210 57027 60001 84871 333 11073 21217 43005 70002
AAXX 16184 71871 15766 12412 11038 21066 39360 40186 57009 60001 333 11038 21132 70000
AAXX 16184 71877 12986 62306 10030 21070 38940 40233 52009 60001 86070 333 10034 21082 70000
AAXX 16184 71878 12974 52105 11073 21109 39131 40236 51005 60001 81071 333 11068 21119 79999
AAXX 16184 71879 16964 02306 11024 21082 39380 40201 51014 60001 333 11021 21100 70000
AAXX 16184 71880 11282 70000 11048 21050 39196 40340 53012 60001 70241 87500 333 11047 21094 70000
AAXX 16184 71882 17358 80000 10003 21006 39772 40324 51010 69951 74144 333 10009 21018 70015
AAXX 16184 71883 46/// /0000 11027 21033 39465 40306 53004 6///1 333 11027 21046 7////
AAXX 16184 71887 12383 80804 10000 21018 39871 40303 53009 60001 8557/ 333 10003 21026 70008
AAXX 16184 71889 11474 81714 10004 21029 39911 40341 51006 69901 72272 8357/ 333 10004 21009 46001 70002 90941
AAXX 16184 71891 16764 33002 10046 20005 39999 40278 53003 60001 333 10059 21014 70005
AAXX 16184 71892 11256 80907 10061 20052 30313 40318 55001 60031 72065 886// 333 10061 20046 70080 90913
AAXX 16184 71930 13969 70000 11072 21120 39251 40209 53015 60003 82071 333 11062 21105 47015 70000
AAXX 16184 71931 16/// /1926 10020 20006 30003 40015 56045 60001 333 10047 21044 70000
AAXX 16184 71934 12874 61702 11138 21159 39810 40073 55000 60001 86030 333 11125 21219 79999
AAXX 16184 71935 NIL
AAXX 16184 71936 11474 63604 11154 21175 39820 40087 52015 69901 77177 82570 333 11152 21227 48020 79999 90983
AAXX 16184 71937 NIL
AAXX 16184 71938 11574 82310 11230 21255 30107 40138 51003 69901 77171 885// 333 11230 21315 44023 79999 90931
AAXX 16184 71940 12782 72708 11010 21043 39377 40199 51009 60001 81571 333 10019 21158 70000
AAXX 16184 71943 12974 62415 11023 21081 39332 40179 52007 60001 83071 333 11015 21144 70000
AAXX 16184 71944 160// ///// 11051 50003 60001 333 11051 21092 70000
AAXX 16184 71945 NIL
AAXX 16184 71946 12874 23307 11193 21222 39904 40126 53020 60001 81071 333 11163 21206 79999
AAXX 16184 71948 46064 /2906 11252 30019 40137 53005 6///1 333 11224 21255 7////
AAXX 16184 71949 46/// /1405 11155 21166 39232 40123 53003 6///1 333 11092 21192 7////
AAXX 16184 71951 11258 80107 11046 21054 39945 40219 51003 60011 77177 885// 333 11045 21071 47043 70056 90983 93101
AAXX 16184 71957 47564 60903 11258 21325 30051 40144 55001 6///1 745// 333 11235 21272 7////
AAXX 16184 71964 12986 21710 11038 21094 39235 40092 58009 60001 82030 333 11006 21062 70000
AAXX 16184 71966 16/// /0000 11255 21284 39622 40099 50003 60001 333 11160 21257 70000
AAXX 16184 71968 470// /3007 11237 30077 40144 55002 6///1 745// 333 11236 21289 7////
AAXX 16184 61017 32960 50000 10160 20043 39760 40179 80002 333 10260 59009 85080
AAXX 16184 61024 32960 51214 10212 21064 39586 40164 80002 333 10275 59009 85080
AAXX 16184 61036 32960 70000 10270 21018 39887 40127 80008 333 10310 59005 87280
AAXX 16184 61043 32960 70608 10247 21080 39691 40139 80008 333 10295 58003 87280
AAXX 16184 61045 31956 70606 10210 21025 39646 40154 7052/ 80008 333 10265 58003 87280
AAXX 16184 61049 32960 70000 10220 21010 39811 40137 80008 333 10275 59003 87280
AAXX 16184 61052 32960 51604 10270 21015 39876 40134 80002 333 10317 58005 85080
AAXX 16184 61075 31956 60000 10250 21011 39819 40131 70622 80008 333 10310 58002 86280
AAXX 16184 61080 31925 70000 10220 21010 39719 40147 70622 80008 333 10277 58001 87280
AAXX 16184 61090 31957 70204 10226 20063 39623 40142 70622 80008 333 10267 59009 87280
AAXX 16184 61091 NIL
AAXX 16184 61096 32960 63604 10227 21018 39755 40145 80008 333 10287 59002 86280
AAXX 16184 61099 32960 70206 10285 20010 39878 40103 80008 333 10330 59002 87280
AAXX 16181 10870 01581 82413 10074 20044 39330 49847 53039 60072 72162 8453/ 333 10110 20044 32003 55300 69977 84622 85358 91125 90210 91218 91218 96263
AAXX 16184 17026 12970 41705 10135 20037 30038 40076 58009 60002 80001 333 10167 84070 91112 92428
AAXX 16184 17034 12970 41802 10108 21002 30058 40104 57007 60002 84030 333 10142 84360 92428
AAXX 16184 17070 11565 72504 10073 20036 39241 40114 52012 69912 76022 84520 333 10124 84630 87459 91114
AAXX 16184 17084 12670 73101 10012 20000 39225 40159 57007 60002 84570 333 10074 84635 87360 91105
AAXX 16184 17090 12965 40000 10010 21049 38694 48463 56001 60002 84030 333 10067 84360
AAXX 16184 17098 12960 00000 11148 21148 38203 48525 58001 60002 333 11014
AAXX 16184 17150 11660 72005 10090 20067 30015 40139 51015 60162 70282 83250 333 10155 83835 85360
AAXX 16184 17160 12670 33101 10025 21018 38969 48435 57011 60002 83500 333 10080 83640 91107
AAXX 16184 17184 11670 20000 10076 20056 30027 40140 52006 60102 70181 82100 333 10131 82840
AAXX 16184 17189 11670 72108 10042 21006 38983 48443 52005 60052 72582 84250 333 10118 84835 87359
AAXX 16184 17210 11640 20402 10083 20000 39163 40204 51004 60002 70500 82100 333 10116 82840
AAXX 16184 17234 11970 20903 10085 20062 30093 40162 52010 60082 70191 82030 333 10132 82360 91114
AAXX 16184 17260 12960 00000 10022 21023 39370 40214 51002 60002 333 10149
AAXX 16184 17290 11670 70204 10122 20102 30129 40161 52016 60052 70298 84270 333 10188 84835 87360 91120 92428
AAXX 16184 17370 12665 51602 10134 20034 30179 40183 58002 60002 83230 333 10180 83835 85360 92417
AAXX 16184 17500 NIL
AAXX 16184 17501 12560 51210 10165 20076 30148 40167 57006 60002 83101 333 10199 83830 84070 92427
AAXX 16184 17505 12560 51604 10136 20073 30076 40181 56003 60002 83101 333 10186 83830 84070
AAXX 16184 17507 NIL
AAXX 16184 17510 12560 50000 10157 20101 30140 40150 57010 60002 83101 333 10192 83830 84070 92417
AAXX 16184 17515 12560 50000 10113 20080 30012 40189 57002 60002 83101 333 10200 83830 84070
AAXX 16184 17521 12560 42206 10114 20083 30028 40165 58002 60002 82130 333 10196 82830 83360
AAXX 16184 17530 12560 52104 10124 20095 30124 40181 58003 60002 83101 333 10197 83830 84070
AAXX 16184 17535 12560 52904 10132 20094 30128 40164 58003 60002 83101 333 10192 83830 84070
AAXX 16184 17540 NIL
AAXX 16184 17547 NIL
AAXX 16184 17550 12560 51716 10150 20096 30023 40168 58007 60002 83101 333 10184 83830 84070 92437
AAXX 16184 17572 12560 5//// 10153 20087 30154 40178 57008 60002 83101 333 10185 83830 84070 92417
AAXX 16184 17042 12970 01116 10163 21051 30071 40110 57018 60002 333 10169 92428
AAXX 16184 17074 11509 83001 10003 20002 39180 40134 55007 60002 74444 8352/ 333 10018 83630 88460 91105
AAXX 16184 17086 11658 50000 10043 21001 39411 40145 58003 60002 71011 83550 333 10086 83635 85360
AAXX 16184 17088 12970 02003 10016 21058 38779 48476 50000 60002 333 10073
AAXX 16184 17140 12965 02206 10049 21031 38650 48439 56006 60002 333 10070
AAXX 16184 17155 11650 72505 10036 20003 39012 40139 52012 60062 76062 84570 333 10095 84635 87359 91120
AAXX 16184 17203 12970 00000 11007 21047 38898 48539 51002 60002 333 10035
AAXX 16184 17237 11670 10000 10051 20045 39653 40159 50005 60092 70198 81100 333 10160 81838 91123
AAXX 16184 17250 12975 50501 10038 21023 38766 48457 57003 60002 85050 333 10119 85360
AAXX 16184 17270 12970 02902 10068 20000 39543 40198 51002 60002 333 10147
AAXX 16184 17295 11560 50206 10076 20062 30159 40166 53007 60102 70198 82130 333 10188 82825 84358
AAXX 16184 17320 11657 72505 10128 20118 30148 40153 57013 60172 78282 84270 333 10182 84833 87357 92426
AAXX 16184 17375 11670 43401 10136 20076 30137 40139 53009 60142 70198 84200 333 10183 84836 91119 92437
AAXX 16184 08055 12570 23608 10052 20003 39136 48498 52037 69972 82500 333 10128 95090
AAXX 16184 08075 11575 53611 10042 20017 39143 48483 52041 60062 70165 84770 333 10105
AAXX 16184 08084 01575 63010 10094 20023 39746 40180 51042 60062 70264 86700 333 10195 69997
AAXX 16184 08171 11783 42813 10126 20062 39866 40103 53015 60012 70166 84041 333 10155
AAXX 16184 08184 06/// /0102 10137 20063 39893 40045 52021 60002 333 10172 60007
AAXX 16184 08202 01465 83019 10096 20075 39282 42823 53025 60022 76162 8757/ 333 10139 60027
AAXX 16184 08235 NIL
AAXX 16184 08238 12675 63216 10160 20060 30032 40092 52018 60002 84104 333 10202
AAXX 16184 08280 12470 72617 10088 20059 39364 40188 57024 60002 878// 333 10102
AAXX 16184 08330 12565 72313 10149 20109 30006 40235 57013 60002 85660 333 10156
AAXX 16184 08348 11464 82408 10107 20093 39493 40230 58013 69902 72052 8372/ 333 10116
AAXX 16184 08360 02682 62512 10159 20043 30142 40180 51011 60002 81836 333 10183 60007
AAXX 16184 08373 02560 82632 10168 20082 30098 40119 58027 60002 8282/ 333 10168 60007 91050 91524 91150 91524
AAXX 16184 08410 02662 62704 10117 20085 30155 40267 56009 60002 86535 333 10127 60007
AAXX 16184 08419 02580 82504 10107 20064 39596 40270 55004 60002 888// 333 10122 60007
AAXX 16184 08451 02375 72306 10156 20110 30246 40279 58012 60002 8687/ 333 10171 60007
AAXX 16184 08487 02970 22302 10151 20081 30162 40187 55008 60002 80001 333 10188 60007
AAXX 16181 03976 11566 73011 10058 20034 30049 40061 52066 60042 78782 879// 333 10074 84920 82820 85636 96489 96487
AAXX 16184 60020 NIL
AAXX 16184 60030 02575 20116 10191 20139 30212 40268 56007 60002 82500 333 10217 60007 92428
AAXX 16184 60040 02570 10313 10193 20132 30258 40283 55001 60002 81500 333 10226 60007 92428
AAXX 16184 60338 12580 62620 10152 20096 30178 40244 57013 60002 81516 333 10176 81630 92448
AAXX 16181 13160 32697 81706 10096 20054 39853 49959 57048 885// 333 10098
AAXX 16181 13262 32998 81602 10120 20017 39834 49978 57044 8807/ 333 10150
AAXX 16181 13272 32970 61707 10117 20007 39883 40000 57031 86030 333 10129 82358
AAXX 16181 13285 12998 60701 10064 20040 39930 40032 57028 69952 86070 333 10095
AAXX 16181 13289 32898 31705 10040 21027 38857 48371 58019 83030 333 10049 91010 91112 93197
AAXX 16181 13376 32998 61103 10098 20015 39779 40036 57028 86030 333 10118
AAXX 16181 13388 32998 20501 10084 20024 39822 40067 57019 82030 333 10130
AAXX 16181 13462 11660 83202 10097 20089 30056 40096 57020 60022 72162 8552/ 333 10131 85640 88458
AAXX 16181 13473 NIL
AAXX 16181 13489 31696 43002 10068 20037 39871 40087 56012 71000 84500 333 10128
AAXX 16184 43466 22970 30505 10258 20213 30087 40099 80001 333 59006 60007 83080
AAXX 16181 02019 05/99 /1801 11072 21075 39267 49890 52011 60002 333 11012 21087 60005 90710 91102
AAXX 16181 02081 07/80 /1903 11024 21041 39503 49905 52017 69912 70087 333 11011 21025 60005 90710 91107
AAXX 16181 02095 07277 /1904 11012 21021 39721 49924 52016 69922 70087 333 11001 21014 69915 88/06 90710 91107
AAXX 16181 02101 45484 /1406 11026 21052 39335 49890 52013 8//// 333 11020 21066 88/16
AAXX 16181 02119 05499 /1101 11085 21088 39525 49914 51014 60002 333 11029 21122 60005 88/10 90710 91102
AAXX 16181 02124 07283 /1302 11059 21067 39388 49915 52014 69902 70010 333 11030 21093 60005 88/03 90710 91105
AAXX 16181 02126 07458 /3500 11043 21045 39572 49910 51008 60002 71010 333 11043 21095 60005 88/18 90710 91101
AAXX 16181 02151 37260 81701 11078 21079 39584 49922 53015 60002 77731 333 11025 21116 60005 88/05 91003 90710 91103 90710 91202
AAXX 16181 02186 07273 71001 11002 21003 39898 49923 51007 69902 78074 333 10013 21006 69905 84/05 85/06 87/26 91002 90710 91102 90710 91201
AAXX 16181 02197 07/60 /1704 10020 20019 39918 49937 52012 60022 78086 333 10024 20016 69915 90710 91107
AAXX 16181 02207 05599 /1801 11041 21070 39169 49863 52007 69902 333 11011 21045 60005 82/28 90710 91108
AAXX 16181 02219 07/61 /0903 11040 21046 39221 49884 51011 69902 70071 333 11013 21049 60005 90710 91106
AAXX 16181 02226 45984 /1305 11026 21036 39433 49885 51006 8//// 333 11003 21037
AAXX 16181 02243 07/60 /1101 11018 21018 39634 49902 52003 69902 70087 333 11018 21043 60005 90710 91102
AAXX 16181 02269 07469 /1906 10037 20022 69922 70087 333 10040 20009 60005 85/13 87/48 90710 91109
AAXX 16181 02287 07480 /1502 10017 20008 39916 49926 52008 69922 72386 333 10036 20010 69925 85/10 87/40 90710 91103
AAXX 16181 02297 05599 /1903 10012 20002 39883 49928 51012 60002 333 10026 21006 60005 83/29 87/41 90710 91106
AAXX 16181 02308 07357 /1103 11028 21037 39024 49877 53007 69902 77170 333 11022 21041 69905 86/09 88/13 90710 91106
AAXX 16181 02327 05/77 /1402 11012 21015 39459 49891 52007 60002 333 10000 21067 60005 90710 91104
AAXX 16181 02355 07267 /1103 10023 20019 39889 49902 58005 69932 76186 333 10036 20019 69935 85/06 87/11 90710 91104
AAXX 16181 02366 45364 /1401 10004 20004 39904 49910 52004 8//// 333 10009 21023 81/08 83/09 88/12
AAXX 16181 02407 07399 /1202 10000 21013 39517 49883 52006 69922 70010 333 10019 20000 60005 88/09 90710 91104
AAXX 16181 02418 47162 /0403 10007 20003 39737 49867 57001 723// 8//// 333 10035 20004 88/03
AAXX 16181 02435 47/03 /0802 10001 21007 39704 49890 50001 734// 8//// 333 10027 20001 89/01
AAXX 16181 02440 07007 /1201 11001 21006 69922 73473 333 10029 21001 60005 88/01 90710 91102
AAXX 16181 02452 07109 /0703 10000 20000 60012 77287 333 10008 21007 69995 89/02 90710 91105
AAXX 16181 02456 07376 /1202 10019 20015 39854 49896 58005 69962 78186 333 10028 20008 69945 81/07 83/50 88/57 90710 91105
AAXX 16181 02469 07/23 /0000 10004 21002 60032 71086 333 10040 20003 60005 90710 91103
AAXX 16181 02498 07571 /1408 10032 20022 39880 49896 56015 60022 72386 333 10054 20026 69955 86/20 90710 91115
AAXX 16181 02518 468// /0606 10033 20024 333 10045 20024 81/57 83/59 90710 91108
AAXX 16181 02520 07373 80603 10023 20010 39780 49847 57004 69922 72286 333 10030 20014 69905 82/09 86/33 88/56 91004 90710 91105 90710 91204
AAXX 16181 02550 45384 /0803 10014 20014 39569 49840 56007 8//// 333 10021 20007 81/09 85/20
AAXX 16181 02562 17370 80902 10026 20022 39746 49860 57008 69922 70085 333 10027 20004 60005 81/07 88/14 91004 90710 91104 90710 91203
AAXX 16181 02563 07564 /1106 10036 20032 39841 49862 57015 60022 70061 333 10038 20022 60005 82/29 88/57 90710 91108
AAXX 16181 02565 07461 /0703 10027 20018 39725 49843 57017 69972 70086 333 10033 20018 60005 85/10 87/17 88/20 90710 91105
AAXX 16181 02589 07467 /1604 10044 20032 39861 49882 57019 69952 76186 333 10050 20032 69905 81/18 87/56 90710 91107
AAXX 16181 02590 45464 /1104 10037 20028 39806 49866 57021 8//// 333 10042 20032 86/12 88/17
AAXX 16181 02618 07/58 /0503 10022 20021 39657 49818 57009 69922 71086 333 10030 20018 60005 90710 91105
AAXX 16181 02664 15474 50606 10032 20018 39732 49802 56033 69912 333 10045 20031 60005 81/12 85/17 91008 90710 91109 90710 91206
AAXX 16181 02679 05/73 /1109 10044 20030 39804 49848 57032 69902 333 10048 20038 60005 90710 91113
AAXX 16181 48820 32598 80502 10170 20089 30233 40241 50001 888// 333 58021 83895 88697
AAXX 16181 48823 32697 80000 10159 20134 30231 40234 58002 885// 333 58015 88696
AAXX 16184 68070 42560 60909 10225 20195 48533 52013 84580 333 10278
AAXX 16181 01257 11482 10901 11037 21061 39699 49861 52006 60002 70100 81500 333 11013 91103
AAXX 16181 01277 16/// /0000 11040 21051 60002 333 11017 91104
AAXX 16181 01476 16/// /0306 10029 20016 39850 49856 52009 6//// 333 10032 91110
AAXX 16181 01265 16/// /2301 11055 21061 39297 49882 52009 60002 333 11038 91103
AAXX 16181 01440 46/// /0302 11091 21100 38595 49892 52013 333 11047 91103
AAXX 16181 01441 16/// /0801 11088 21099 38887 49887 53013 69962 333 11021 91102
AAXX 16181 01015 46/// /1608 10030 21021 333 10038 91111
AAXX 16181 01180 11980 01801 10011 21053 39806 49862 52010 60002 70200 333 10043 91107
AAXX 16181 01450 16/// /1001 11059 21072 38732 49876 52009 69942 333 11028 91103
AAXX 16181 01199 11575 82006 11028 21046 39444 49907 52017 69972 70273 885// 333 11018 91107
AAXX 16181 01262 46/// /1611 10032 21020 333 10053 91113
AAXX 16181 01393 16/// /1301 11031 21041 39083 49879 52009 6//// 333 11017 91104
AAXX 16184 67002 12580 21005 10245 20231 30078 40112 60062 81802 333 10316 59016 81822 92408
AAXX 16184 67009 NIL
AAXX 16184 67012 NIL
AAXX 16184 67025 NIL
AAXX 16184 67027 32580 52010 10288 20248 30065 40086 51010 81908 333 10333 81820 81920 85273 94964 95834 555 82640
AAXX 16184 67083 11358 80000 10190 20187 38740 48515 53017 60082 76162 889// 333 10291 82707 81917 85620 94965 95815=83 67095 32475 30000 10260 20231 30109 40115 52015 83800 333 10315 83817 555 81633
AAXX 16184 67113 NIL
AAXX 16184 67117 NIL
AAXX 16184 67137 NIL
AAXX 16184 67143 NIL
AAXX 16184 67157 NIL
AAXX 16184 67161 NIL
AAXX 16184 67197 31460 70814 10255 20237 30081 40091 51014 71522 878// 333 10314 83817 85633
AAXX 16181 12120 11458 81108 10027 20014 39766 49773 58054 69922 76122 8652/ 333 10042 20023 91112 93092
AAXX 16181 12250 11559 81407 10037 20019 39686 49773 57058 60012 76122 8752/ 333 10050 20014 91116 93001
AAXX 16181 12295 11358 51306 10026 20020 39710 49892 57054 60002 71011 85600 333 10026 21023 85706 91111 93000
AAXX 16181 12330 11460 81608 10046 20034 39622 49727 57056 60062 76162 885// 333 10048 20004 91013 91115 93006
AAXX 16181 12375 12765 71408 10056 21003 39710 49838 57055 60002 875// 333 10056 21012 91017 91117 93000
AAXX 16181 12424 11699 71711 10080 20035 39617 49763 56030 69982 70262 875// 333 10083 20010 91016 91118 93001
AAXX 16181 13168 32698 81608 10122 20037 39879 49983 58044 885// 333 10122 91112
AAXX 16181 13174 32698 81608 10088 20036 39883 49985 57044 885// 333 10091 91111
AAXX 16181 13269 32998 81403 10123 20007 39789 49996 57043 8807/ 333 10147
AAXX 16181 13274 32697 81906 10122 20009 39843 49999 57035 885// 333 10125 91011 91111
AAXX 16181 13278 32998 81803 10101 20033 39818 40036 57023 8807/ 333 10120
AAXX 16181 13378 31/91 92110 11014 21015 38153 48380 57021 74542 333 11008 4/005 91014 91114
AAXX 16181 13397 32998 01404 10024 20009 39553 40097 56018 333 10114
AAXX 16181 13457 32570 81506 10144 20087 30078 40085 57023 8682/ 333 10156 82825 83633 88458
AAXX 16181 13481 NIL
AAXX 16181 13173 32698 81805 10092 20040 39890 49988 57040 885// 333 10094
AAXX 16181 13180 32698 81610 10090 20060 39895 40004 57036 885// 333 10101 91113
AAXX 16181 13266 32998 81405 10111 20029 39885 49983 57043 8807/ 333 10117
AAXX 16181 13369 32598 72104 10060 20004 38859 48354 57024 87500 333 10076 4/002
AAXX 16181 13383 32998 51002 10093 20009 39847 40048 57019 85070 333 10114
AAXX 16181 13384 32698 41402 10072 20042 39898 40049 57024 84500 333 10134
AAXX 16181 13389 32698 60000 10082 21015 39795 40074 57021 86500 333 10132
AAXX 16181 13477 NIL
AAXX 16181 12160 11465 81206 10039 20006 39756 49808 56055 69902 76111 8552/ 333 10048 20018 91013 91113 93097
AAXX 16181 12205 11212 81108 10006 20006 39667 49675 56054 60072 77176 8672/ 333 10041 20005 91117 93007
AAXX 16181 12465 11565 81608 10043 20010 39579 49807 56046 69902 76162 8652/ 333 10058 21026 91013 91115 93097
AAXX 16181 12566 11782 81904 10070 20019 39556 49841 56036 69922 76166 8552/ 333 10083 21032 91113 93092
AAXX 16184 64600 32960 81804 10230 20174 39447 40098 8807/ 333 10301 55029 58001 88365
AAXX 16184 64601 31940 70000 10228 20090 38997 48505 70411 8703/ 333 10298 58002 87365
AAXX 16184 64605 32960 80000 10236 20125 39353 40080 8807/ 333 10297 58002 88365
AAXX 16184 64610 32960 70000 10242 20140 3//// 4//// 8703/ 333 10340 5//// 87365
AAXX 16184 64650 31940 51002 10250 20180 39682 40090 70422 85030 333 10303 55005 58005 85365
AAXX 16184 64654 32960 50804 10246 20116 39537 40107 80002 333 10345 58002 85080
AAXX 16184 64655 32960 00000 10240 20178 39448 40095 333 1//// 58001
AAXX 16184 64656 32960 00000 10264 20184 39540 40090 333 10328 58003
AAXX 16184 64659 NIL
AAXX 16184 64660 32960 30000 10255 20159 39558 40085 83030 333 10344 58010 83365
AAXX 16184 64662 32960 50000 10272 20194 39581 40077 83032 333 10343 58002 83365 85080
AAXX 16184 64665 32960 00000 10250 20205 3//// 4//// 333 10333 5////
AAXX 16184 60715 12560 61606 10148 20090 30143 40150 58027 60002 83282 333 10195 59113 81823 83359 91008 91120
AAXX 16184 60723 12960 30000 10127 20086 39976 40155 53008 60002 80002 333 10192 83070
AAXX 16184 60725 12960 52006 10128 2//// 39988 40160 56023 60002 82082 333 10210 82360 84070
AAXX 16184 60735 12962 62208 10184 20056 30081 40162 57028 60002 80002 333 10217 86070
AAXX 16184 60745 12960 42212 10130 20042 39837 40209 58016 60002 80002 333 10177 59064 84070 91019 91123
AAXX 16184 60748 12960 41816 10146 20054 39773 40189 58013 60002 80002 333 10191 84070
AAXX 16184 60750 12960 42317 10162 20039 30169 40194 58015 60002 80002 333 10195 84070
AAXX 16184 60760 12960 02409 10142 20037 30114 40219 58015 60002 333 10190 91011 91114
AAXX 16184 60765 12558 32508 10176 20079 30314 40218 58018 60002 82502 333 20207 82630 92436 925//
AAXX 16184 60767 12960 52310 10139 20039 30070 40215 55011 60002 80002 333 10197 85070
AAXX 16184 60769 12460 32610 10152 20108 30196 40200 56015 60002 81202 333 10205 81816 83070
AAXX 16184 60710 12560 52304 10177 20032 30064 40142 56028 60002 82202 333 10193 82826 85070
AAXX 16184 60714 12968 52606 10129 2//// 30151 40157 58025 60002 82082 333 10187 82360 84070
AAXX 16184 60720 12560 61806 10143 20114 30132 40164 56006 60002 83202 333 10196 83823 84070
AAXX 16184 60728 NIL
AAXX 16184 60729 NIL
AAXX 16184 60731 NIL
AAXX 16184 60732 12560 73206 10144 20035 39566 40167 57020 60002 84802 333 10190 83820 83070
AAXX 16184 60734 12962 52202 10132 20052 39651 40168 56010 60002 80002 333 10199 85070
AAXX 16184 60738 12960 43017 10101 20040 38943 48512 58017 60002 80002 333 10156 84070
AAXX 16184 60739 NIL
AAXX 16184 60740 12960 52012 10174 20039 30165 40167 57025 60002 80002 333 10205 85070
AAXX 16184 60742 NIL
AAXX 16184 60764 12962 02404 10121 20035 30190 40242 55008 60002 333 10186
AAXX 16184 60770 12975 22208 10162 20072 30072 40210 56014 60002 80002 333 10214 82070
AAXX 16184 60772 NIL
AAXX 16184 60775 12975 02302 10139 20022 39874 40230 58006 60002 333 10201
AAXX 16184 60780 12960 02204 10164 20049 39940 40243 57003 60002 333 10202
AAXX 16181 12105 11457 81106 10020 20007 39684 49726 57061 60022 76822 8772/ 333 10043 20018 87710 91011 91113 93002
AAXX 16181 12195 11250 71406 10012 20012 39671 49897 57046 60002 71042 876// 333 10012 21017 93000
AAXX 16181 12235 11225 81209 10012 20009 39544 49750 57066 60042 76962 8672/ 333 10032 20007 86705 91014 91114 93004
AAXX 16181 12270 11558 81307 10035 20012 39648 49827 57052 69902 76122 8452/ 333 10035 20001 91113 93097
AAXX 16181 12280 11958 71308 10024 20006 39711 49866 56047 60002 71011 8705/ 333 10034 21007 91013 91113 93000
AAXX 16181 12300 11356 81905 10040 20039 39599 49686 56051 60092 76176 8672/ 333 10041 20006 91115 93009
AAXX 16181 12400 11580 81704 10049 20043 39486 49713 56031 60072 72586 875// 333 10049 20000 91115 93007
AAXX 16181 12435 11462 81610 10049 20026 39601 49768 57046 60022 76162 875// 333 10059 20004 91015 91118 93002
AAXX 16181 12495 12982 81608 10038 20003 39598 49886 57050 60002 8257/ 333 10055 20001 91013 91113 93000
AAXX 16181 12530 11774 81708 10060 20032 39610 49804 56028 69962 70362 885// 333 10072 20009 91013 91118 93096
AAXX 16181 12570 12782 81508 10045 20003 39540 49851 56045 60002 885// 333 10050 21029 91112 93000
AAXX 16181 12580 12580 71712 10058 20005 39638 49892 56048 60002 875// 333 10075 20010 91018 91118 93000
AAXX 16184 13600 11656 81810 10132 20090 30055 40107 57030 60012 71062 885// 333 10136 88640
AAXX 16184 13610 12660 51812 10108 21006 39691 40110 57014 60002 85500 333 10132 85646
AAXX 16184 13611 12662 41806 10112 20051 30056 40147 54001 60002 84500 333 10158 84633
AAXX 16184 13619 12660 50904 10084 20013 39352 42747 57022 60002 85500 333 10104 85640
AAXX 16184 13622 12665 62208 10152 20065 30107 40114 57024 60002 86400 333 10180 86640
AAXX 16184 13624 NIL
AAXX 16184 13625 12960 10000 10100 20065 39927 40158 57018 60002 80001 333 10150
AAXX 16184 13629 12668 21408 10072 20043 39068 42726 57022 60002 82500 333 10090 82643
AAXX 16184 13601 12660 61202 10118 20065 39996 40096 57019 60002 83530 333 10165 83633 83360
AAXX 16184 13602 NIL
AAXX 16184 13623 12970 50000 10110 20098 30130 40136 57006 60002 85030 333 10150 85360
AAXX 16184 65351 32958 70406 10290 20058 3//// 4//// 80002 333 10330 5//// 87076
AAXX 16184 65355 32958 70606 10274 20021 39591 40106 80002 333 10330 59003 87073
AAXX 16184 65357 32960 60804 10295 20000 39713 40104 80002 333 10360 59003 86076
AAXX 16184 65380 32958 70000 10282 20178 3//// 4//// 80002 333 10360 5//// 87076
AAXX 16181 15501 12970 32704 10053 20036 39999 40043 57022 60002 80005 333 10112 20050 555 589//
AAXX 16181 15505 12980 02005 10113 21013 39688 40052 57017 60002 333 10132 20035 555 541//
AAXX 16181 15511 12970 01404 10058 20029 30028 40067 57014 60002 333 10122 20058 555 582//
AAXX 16181 15514 12968 00000 10067 20026 30035 40070 57013 60002 333 10111 20067 555 575//
AAXX 16181 15530 12965 00000 10045 20031 39844 40083 57006 60002 333 10119 20045 555 590//
AAXX 16181 15533 12970 00000 10066 20019 30005 40037 57003 60002 333 10110 20066 555 572//
AAXX 16181 15550 12970 02505 10064 20030 30034 40054 52001 60002 333 10093 20020 555 579//
AAXX 16181 15561 11470 52704 10076 20039 30070 40077 53012 69942 70262 85500 222// 00098 2//01 333 10112 20074 555 577// 92023 92428
AAXX 16181 15562 11483 22708 10090 20040 30004 40075 53005 60012 70161 82500 333 10100 20080 555 571// 71800 92035 92438
AAXX 16181 15600 11989 32316 11016 21027 38207 48411 57008 60002 70241 82031 333 10025 21025 44003 91120 555 592//
AAXX 16181 15601 12970 20000 10030 21007 39464 40087 58011 60002 81031 333 10125 20030 555 577//
AAXX 16181 15605 12970 00701 11001 21009 39246 40102 57013 60002 333 10083 21003 555 594//
AAXX 16181 15613 11982 02314 11063 21071 37611 47946 57008 60022 70240 333 11047 21070 48025 555 594//
AAXX 16181 15628 12980 12702 10037 21003 39830 40089 56002 60002 80001 333 10134 20029 555 575//
AAXX 16181 15642 12980 01803 10064 20057 39923 40091 52004 60042 333 10098 20054 555 595//
AAXX 16181 15661 12970 02303 10082 20078 30047 40082 54000 60062 222// 20000 333 10140 20075 555 597// 92012 92418
AAXX 16181 15726 11981 22202 11013 21109 38181 48445 54000 60022 70200 80002 333 10029 21021 41999 555 548//
AAXX 16184 08160 11657 52919 10102 20078 39844 40152 52053 60062 76062 82571 333 10180
AAXX 16184 85223 32584 50707 10258 20099 37462 47102 57030 84931 333 56000 59052 83827 81930 83070
AAXX 16184 85283 11130 80408 10107 20097 37191 47118 57009 69911 71052 8752/ 333 56109 59001 81703 87607 88457
AAXX 16184 85293 32584 60308 10150 20075 36344 57005 84901 333 56500 59017 83620 81923 86070
AAXX 16184 85312 32884 70000 10232 20173 38795 57020 87020 333 56000 58010 87457
AAXX 16184 85345 32584 21704 10288 20188 39628 40081 57027 81230 333 56000 58010 81827
AAXX 16184 85364 32570 70000 10214 20141 38136 48238 57018 83230 333 56000 59002 82830 81836 86357
AAXX 16184 85365 32584 53604 10291 20191 39359 40057 57020 85100 333 56100 58003 85823
AAXX 16184 85394 32584 53604 10302 20232 39765 40090 57027 85500 333 56400 58000 85623
AAXX 16184 84202 31570 70904 10292 20191 30152 70544 81250 333 58005 555 30054
AAXX 16184 84143 32665 71604 10177 20109 37395 85830 333 58008 555 30064
AAXX 16184 84088 31560 62202 10153 20118 37063 71544 86200 333 59008 555 30080
AAXX 16184 84270 12670 63604 10216 20132 60021 86300 555 10024 30059
AAXX 16184 84036 11568 80402 10142 20127 69951 71544 8451/ 555 10005 30091
AAXX 16184 84135 32675 70402 10318 20205 30056 86158 333 58008 555 30051
AAXX 16184 84072 31565 70408 10179 20115 37289 71544 86330 333 58003 555 30066
AAXX 16184 84008 32680 12310 10277 20209 30123 40133 81800 00174 333 58007 555 30066
AAXX 16184 84173 31675 50908 10210 20117 70544 83352 555 30055
AAXX 16184 84142 31110 83606 10166 20160 74044 886// 555 30096
AAXX 16184 84076 11565 70504 10182 20115 69931 72054 84552 555 10003 30065
AAXX 16184 84056 31275 62708 10174 20087 70544 86800 555 30057
AAXX 16184 84226 31670 80000 10130 20130 74042 885// 555 30100
AAXX 16184 84050 31580 42704 10289 20200 70544 83130 555 30059
AAXX 16184 84140 32581 62302 10305 20191 30024 40109 86800 333 58002 555 30051
AAXX 16184 84179 31570 60903 10269 20200 39040 71544 85330 333 58005 555 30066
AAXX 16184 84160 31565 61404 10193 20090 37255 70544 83230 333 58003 555 30051
AAXX 16184 84132 11475 73204 10251 20233 39881 60061 72166 86870 333 58006 555 10063 30090
AAXX 16184 84105 31565 61406 10294 20194 31001 70544 84110 333 58000 555 30055
AAXX 16181 11603 01462 81306 10036 20020 39288 49756 56024 60162 76076 885// 333 10036 44003 60025 83613 87622 91116
AAXX 16183 91551 31598 40000 10255 20255 4//// 5//// 70222 84200 333 563// 84820
AAXX 16183 91553 11598 89902 10245 20223 40102 53002 60041 78022 889// 333 561// 60041 85820 81925 88640
AAXX 16183 91554 31598 60000 10230 20223 40086 56005 70222 83230 333 5699/ 83820 86362
AAXX 16183 91555 11598 50205 10268 20251 40089 53004 60021 78028 85900 333 569// 60021 85820 81925
AAXX 16183 91557 31598 39902 10250 20235 40068 56003 70222 81101 333 569/9 81820 83080
AAXX 16183 91565 11598 80000 10240 20240 40087 54000 60041 78029 8497/ 333 5699/ 60041 83820 81922 88460
AAXX 16183 91568 11398 82608 10250 20241 40100 53005 60141 79599 8692/ 333 5679/ 60141 82708 84820 83925 88460
AAXX 16183 91551 31598 40000 10255 20255 4//// 5//// 70222 84200 333 563// 84820
AAXX 16183 91553 11598 89902 10245 20223 40102 53002 60041 78022 889// 333 561// 60041 85820 81925 88640
AAXX 16183 91554 31598 60000 10230 20223 40086 56005 70222 83230 333 5699/ 83820 86362
AAXX 16183 91555 11598 50205 10268 20251 40089 53004 60021 78028 85900 333 569// 60021 85820 81925
AAXX 16183 91557 31598 39902 10250 20235 40068 56003 70222 81101 333 569/9 81820 83080
AAXX 16183 91565 11598 80000 10240 20240 40087 54000 60041 78029 8497/ 333 5699/ 60041 83820 81922 88460
AAXX 16183 91568 11398 82608 10250 20241 40100 53005 60141 79599 8692/ 333 5679/ 60141 82708 84820 83925 88460
AAXX 16184 64500 11406 80804 10258 20212 30099 40112 60022 79592 889// 333 10285 58019 84610 81920 88533 94921 95831
AAXX 16181 36974 329// 41001 11139 21166 38334 48606 54000 80002 333 11085
AAXX 16181 33088 31596 82003 10036 20031 39785 49974 57024 71022 885// 333 10044
AAXX 16181 33177 12597 70805 10028 20015 39707 49942 57043 69982 87500 333 10070
AAXX 16181 33261 11496 81505 10041 20031 39865 40046 57014 60022 78086 889// 333 10069 87710
AAXX 16181 33275 12597 81506 10018 20002 39860 40085 57015 69902 8335/ 333 10051
AAXX 16181 33301 32497 41603 10020 20010 39701 49982 57025 84500 333 10037
AAXX 16181 33325 12497 82501 10036 20021 39740 40007 57009 60052 883// 333 10052 84915
AAXX 16181 33377 11396 81604 10046 20034 39860 40053 57013 60022 75165 886// 333 10062 88707
AAXX 16181 33415 31395 81804 10020 20012 39604 40001 57023 71022 8673/ 333 10039 86708
AAXX 16181 33429 12397 81804 10027 20025 39581 40002 57018 60032 886// 333 10030 88708
AAXX 16181 33466 11343 81703 10072 20068 39835 40019 57012 60032 76162 8872/ 333 10083 86710
AAXX 16181 33526 12960 31704 10023 21007 39641 49980 57035 69902 80001 333 10073
AAXX 16181 33562 11340 82505 10036 20029 39659 40018 58003 60032 72162 886// 333 10055 88708
AAXX 16181 33614 11340 81404 10056 20047 39960 40064 57005 69982 75165 886// 333 10072 88709
AAXX 16181 33761 11496 82201 10073 20067 39810 40029 54000 60042 76162 8872/ 333 10084
AAXX 16181 33902 11597 81503 10094 20068 39990 40054 57007 69902 70282 883// 333 10096
AAXX 16181 33983 32997 81104 10078 20056 30043 40103 57014 80001 333 10124
AAXX 16181 34415 32597 61406 10023 20004 30042 40140 57010 86500 333 10032
AAXX 16181 34523 NIL
AAXX 16181 34712 31496 80907 10026 20023 30051 40138 57014 71022 886// 333 10026 88712
AAXX 16181 01300 41598 73211 10043 20017 49855 52011 76082 83/// 22200 02062 10807 70034 333 91113
AAXX 16181 01400 41699 33410 10067 21023 49892 52040 70120 83100 22200 06082 10605 70027 333 91114
AAXX 16184 91348 11474 80910 10277 20217 30032 40085 55003 69901 78022 8527/ 333 56299 70010 555 91618
AAXX 16184 91348 11474 80910 10277 20217 30032 40085 55003 69901 78022 8527/ 333 56299 70010 555 91618
AAXX 16181 48845 32798 80000 10149 20127 30223 40230 57002 885// 333 58019 88697
AAXX 16184 68299 36/// /1405 10147 20111 38982 48567 52012 333 10188 20147 91011 555 91024
AAXX 16184 71125 11474 22415 11041 21075 39566 40169 56026 69921 73687 82571 333 48001 70002 90911
AAXX 16184 16560 12462 62619 10168 20080 30089 40095 57028 60002 84830 333 10186 82818
AAXX 16181 40009 32965 00000 10055 20031 40178 51002 333 10158
AAXX 16181 40016 32970 00000 10066 20038 40225 51002 333 10140
AAXX 16181 40022 32565 31003 10130 20087 40189 51006 83200 222// 20000 333 10200 83830
AAXX 16181 40030 32970 00000 10070 20040 40195 53003 333 10148
AAXX 16181 40039 32970 00000 10068 20008 40198 53008 333 10140
AAXX 16181 40066 32570 30000 10120 20080 40190 56004 83500 333 10180 83626
AAXX 16181 40072 32970 00000 10070 20016 40224 52010 333 10142
AAXX 16181 40083 32970 01801 10046 21033 48490 54000 333 10110
BBXX A8QJ7 16184 99052 50311 41/98 11412 10280 20237 40110 58017 7//00 81200 22253 20602 3//// 4//// 5//// 80250
AAXX 16184 71125 11474 22415 11041 21075 39566 40169 56026 69921 73687 82571 333 48001 70002 90911
AAXX 16181 40001 32970 00301 10039 21005 40210 53004 333 10146
AAXX 16181 40007 31950 00000 10053 20025 40203 53001 71000 333 10132
AAXX 16181 40025 32960 00602 10090 20070 40188 57005 333 10190
AAXX 16181 40045 32970 00000 10048 20017 40217 51004 333 10146
AAXX 16181 40061 32970 00000 10060 21020 40203 51005 333 10146
AAXX 16181 40080 32965 02001 10074 20011 39482 40214 51008 333 10166
AAXX 16181 400887 NIL
AAXX 16181 40095 NIL
AAXX 16181 06447 16/// /2707 10006 21003 39778 49903 51063 60092 333 10112 91114 91208
AAXX 16181 02464 45476 /0101 10022 20016 39869 49887 56008 8//// 333 10040 20018 81/10 83/13 85/22
AAXX 16181 02500 07683 /0404 10030 20015 39812 49854 52006 69912 70086 333 10050 20029 60005 87/37 90710 91107
AAXX 16181 02513 NIL
AAXX 16181 02615 05478 /0507 10041 20020 39757 49761 57019 69972 333 10051 20038 60005 81/16 82/18 87/50 90710 91111
AAXX 16181 02635 05/72 /0505 10039 20021 60012 333 10047 20035 60005 90710 91109
AAXX 16181 06431 16/// /2909 10026 20020 39882 49893 51059 60152 333 10052 91118 91211
AAXX 16181 06432 17/60 /2608 10031 20015 39841 49917 51057 60062 75165 333 10120 81/11 83/15 85/18 91118 91212
AAXX 16181 06458 17929 /2507 10010 20009 39744 49898 51061 60072 77176 333 10116 81/03 85/06 88/10 91112 91208
AAXX 16181 06465 17249 /2607 10018 20018 39817 49883 51064 60072 762// 333 10114 81/05 85/07 87/12 91112 91208
AAXX 16181 06496 17/06 92707 11002 21008 39207 49878 51076 60122 77274 333 10080 89/05 91117 91211
AAXX 16181 06428 17233 /3004 10019 20013 39861 49910 51057 60142 76265 333 10107 81/05 83/09 85/11 91114 91208
AAXX 16184 88963 11256 52735 10048 20023 39738 49768 53024 69901 71562 83750 333 56770 83706 85350 90055 90081 92436 94072 95002
AAXX 16184 88968 31156 83628 10022 20017 39949 49964 57037 71022 886// 333 56799 88702 90040 90090 92436 92731 92851 94070 95080
AAXX 16184 89034 32970 01802 11020 21104 39486 49799 51005 333 92407 92830
AAXX 16184 89053 11230 82736 10040 20030 39840 49853 57015 60011 71062 887// 333 88705 90068 90084 90315 90912 92435 94072 94479 95092 96461 97536 98530
AAXX 16184 89055 31456 40208 10056 20011 39502 4973553012 71022 82530 333 56860 82617 90065 90083 95152
AAXX 16184 89066 11450 82006 10014 21002 39664 49672 55007 60081 77377 886// 333 56799 87710 88712 90563 90977 92406 92734 92801 93008 93102 94070 95020
AAXX 16181 91925 02681 21206 10300 20211 30077 40137 51011 60001 82200 333 56100 60007 82833 90710 91109 555 60005 11209 59003
AAXX 16181 91929 04/86 /0808 10291 20221 30147 40150 51016 60002 700// 333 10291 20253 60007 90710 91110 555 60005
AAXX 16181 91938 01581 13302 10284 20214 30149 40151 51016 60002 702// 81200 333 10284 20244 60007 81820 90710 91106 555 60005 10607 59008
AAXX 16181 91943 16/// /1105 10278 20214 30143 40145 51012 60012 333 10283 59009
AAXX 16181 91944 06/// /1109 10285 20197 30138 40141 50004 60002 333 10285 20249 60007 90710 91113 555 60005
AAXX 16181 91948 02582 21907 10259 20205 30038 40139 50004 60001 82800 333 56200 60007 82820 90710 91116 555 60005 11920 59030
AAXX 16181 91954 06/// /2502 10267 20217 30154 40157 51006 69921 333 60007 555 59020
AAXX 16181 91958 02581 40706 10259 20200 30167 40169 51002 60001 84801 333 56300 60007 84823 90710 91109 555 60005 10812 59028
AAXX 16181 91945 36/// /0708 10281 20219 30147 40152 51013
AAXX 16184 89564 45/// /1805 10018 21110 30048 40068 51009
AAXX 16184 89570 46/// /1019 11116 21158 39282 53009
AAXX 16184 89571 45/// /1408 11024 21104 39922 49951 53009
AAXX 16184 89573 NIL
AAXX 16184 89610 NIL
AAXX 16184 89611 45/// /0809 11060 21094 39876 49928 50003
AAXX 16184 89614 NIL
AAXX 16184 89615 46/// /1011 11125 21149 39024 52004
AAXX 16184 89807 NIL
AAXX 16184 89809 46/// /0913 11114 21146 39469 50002
AAXX 16184 41241 NIL
AAXX 16184 41242 26/// /2002 10174 20128 30155 40179 333 0E019 10265 59022 70004
AAXX 16184 41244 36/// /3404 10183 20110 39824 48126 333 0E019 10257 59018
AAXX 16184 41246 32660 21903 10219 20164 30162 40166 82500 333 10257 59020 82630
AAXX 16184 41251 NIL
AAXX 16184 41252 36/// /3004 10189 20037 39792 40081 333 0E021 10278 59017
AAXX 16184 41253 36/// /0000 10186 20140 39797 40181 333 0E020 10265 59017
AAXX 16184 41254 36/// /3104 10089 21017 37963 47968 333 0E007 10182 59013
AAXX 16184 41255 36/// /1402 10191 20054 39632 40189 333 0E021 10284 59019
AAXX 16184 41256 32960 01902 10211 20140 30157 40167 333 10251 59021
AAXX 16184 41257 36/// /3402 10192 20137 39692 40182 333 0E018 10262 59020
AAXX 16184 41258 36/// /1302 10233 20147 30156 40161 333 0E/// 10247 59021
AAXX 16184 41259 36/// /3206 10065 21189 37135 40309 333 0E/// 10099 59012
AAXX 16184 41262 NIL
AAXX 16184 41263 NIL
AAXX 16184 41264 36/70 /2209 10203 20041 39784 40154 333 0E022 10281 59019
AAXX 16184 41265 36/// /9902 10216 20107 39629 40182 333 0E023 10284 59019
AAXX 16184 41267 35/84 /2906 10224 20133 30151 40167 333 0E022 10256 59022
AAXX 16184 41268 36/// /2400 10204 20140 30150 48085 333 0E022 10266 59022
AAXX 16184 41270 NIL
AAXX 16184 41275 NIL
AAXX 16184 41287 NIL
AAXX 16184 41288 36/// ///// 10230 20163 30147 40171 333 0E022 10267 59020
AAXX 16184 41290 NIL
AAXX 16184 41295 NIL
AAXX 16184 41304 NIL
AAXX 16184 41312 36/// /2801 10239 20153 30120 40159 333 0E/// 10296 59014
AAXX 16184 41314 32960 00304 10184 20084 39670 40179 333 10252 59022
AAXX 16184 41315 NIL
AAXX 16184 41316 32960 03105 10226 20111 30135 40161 333 10297 59014
AAXX 16184 94102 46/// /1508 10283 20249 30043 40052
AAXX 16184 94103 NIL
AAXX 16184 94120 46/// /1506 10258 20238 30009 40049
AAXX 16184 94122 46/// /0000 10244 20227 30036 40044
AAXX 16184 94131 46/// /2703 10239 20227 39904 40054
AAXX 16184 94132 NIL
AAXX 16184 94147 NIL
AAXX 16184 94150 46/// /0000 10259 20248 39986 40045
AAXX 16184 94151 46/// /0205 10284 20244 30027 4////
AAXX 16184 94170 46/// /0903 10249 20246 30045 40067
AAXX 16184 94200 NIL
AAXX 16184 94203 46/// /2808 10279 20231 30041 40051
AAXX 16184 94206 NIL
AAXX 16184 94207 46/// /2914 10274 30039 40047 56008
AAXX 16184 94211 NIL
AAXX 16184 94212 46/// /0505 10215 20207 39593 40055
AAXX 16184 94216 46/// /2405 10255 20222 30007 40057
AAXX 16184 94236 NIL
AAXX 16184 94238 46/// /1707 10240 20212 39645 40058
AAXX 16184 94248 NIL
AAXX 16184 94255 46/// /3603 10267 20205 39801 40057
AAXX 16184 94268 46/// /0000 10246 20243 30059 40071
AAXX 16184 94287 46/// /1709 10260 20227 30081 40090
AAXX 16184 94290 NIL
AAXX 16184 94294 46/// /1110 10254 20210 30101 40111
AAXX 16184 94296 NIL
AAXX 16184 94298 46/// /1225 10260 30093 40099 56007
AAXX 16184 95641 NIL
AAXX 16184 94299 46/// /1225 10257 20243 30072 40082
AAXX 16184 94300 46/// /1814 10252 20175 30035 40045
AAXX 16184 94302 46/// /2311 10234 20209 30041 40047
AAXX 16184 94312 46/// /3111 10254 20225 30028 40037
AAXX 16184 94313 NIL
AAXX 16184 94317 46/// /0711 10276 20132 39460 40027
AAXX 16184 94319 46/// /3108 10258 20180 39706 40027
AAXX 16184 94324 NIL
AAXX 16184 94326 46/// /2907 10258 20168 39444 40042
AAXX 16184 94327 46/// /3103 10252 20196 39684 40047
AAXX 16184 94332 46/// /3107 10262 20210 39683 40059
AAXX 16184 94333 NIL
AAXX 16184 94341 46/// /0408 10267 20186 39853 40082
AAXX 16184 94346 46/// ///// 10235 20190 39882 40097
AAXX 16184 94363 46/// /0808 10202 20189 39925 40140
AAXX 16184 94366 NIL
AAXX 16184 94367 46/// /1012 10257 20193 30082 40124
AAXX 16184 94374 46/// /1205 10198 20173 30129 40145
AAXX 16184 94388 46/// /1117 10234 20160 30145 40150
AAXX 16184 94393 46/// /1321 10249 30104 40116 56007
AAXX 16184 94394 46/// /1319 10234 30126 40134 56009
AAXX 16184 94403 46/// /1505 10169 20137 30035 40076
AAXX 16184 94429 46/// /0805 10205 20132 39602 40054
AAXX 16184 94430 46/// /1007 10231 20086 39474 40041
AAXX 16184 94449 46/// /1405 10174 20119 39556 40073
AAXX 16184 94451 NIL
AAXX 16184 94461 46/// /2103 10196 20191 39388 40039
AAXX 16184 94462 46/// /0105 10200 20180 39489 40028
AAXX 16184 94477 NIL
AAXX 16184 94488 NIL
AAXX 16184 94500 NIL
AAXX 16184 94510 46/// /0306 10205 20180 39778 40118
AAXX 16184 94515 46/// /0507 10183 20157 39798 40142
AAXX 16184 94552 46/// /1205 10138 20113 39709 40169
AAXX 16184 94578 46/// /2108 10168 20140 30166 40177
AAXX 16184 94584 46/// /1218 10218 20137 30049 40158
AAXX 16184 94601 46/// /0709 10178 20145 30082 40099
AAXX 16184 94610 46/// /3404 10154 20134 30064 40087
AAXX 16184 94637 46/// /1505 10152 20119 39665 40081
AAXX 16184 94638 46/// /1806 10165 20142 30074 40105
AAXX 16184 94642 NIL
AAXX 16184 94643 NIL
AAXX 16184 94647 46/// /2706 10169 20164 39922 40040
AAXX 16184 94651 46/// /2509 10171 20166 39964 40039
AAXX 16184 94653 46/// /0811 10194 20152 30001 40019
AAXX 16184 94659 46/// /0810 10216 20160 39870 40060
AAXX 16184 94672 46/// /0212 10268 20078 30076 40086
AAXX 16184 94691 46/// /0410 10232 20142 39783 40102
AAXX 16184 94693 46/// /0406 10237 20112 30049 40109
AAXX 16184 94700 NIL
AAXX 16184 94703 46/// /0607 10193 20163 30015 40138
AAXX 16184 94710 46/// /0710 10211 20143 39894 40142
AAXX 16184 94729 46/// /0904 10097 20080 39344 40183
AAXX 16184 94750 46/// /0000 10147 20122 30091 40214
AAXX 16184 94767 46/// /1207 10172 20104 30210 40216
AAXX 16184 94776 46/// /3005 10149 20124 30201 40211
AAXX 16184 94791 NIL
AAXX 16184 94802 46/// /0503 10107 20105 30030 40111
AAXX 16184 94804 46/// /1012 10191 20144 30025 40062
AAXX 16184 94807 NIL
AAXX 16184 94821 46/// /1007 10165 20123 30039 40121
AAXX 16184 94842 46/// /0921 10158 20115 30066 40165
AAXX 16184 94847 NIL
AAXX 16184 94850 46/// /0717 10148 20122 30141 40187
AAXX 16184 94865 46/// /0805 10130 20117 30144 40168
AAXX 16184 94866 46/// /3204 10139 20119 30030 40169
AAXX 16184 94875 46/// /0805 10163 20115 30033 40167
BBXX UCKZ 16181 99629 30408 41195 80620 10013 20007 49868 55001 71022 886// 22233 01008 20809 ICE 0/1/0
AAXX 16184 94299 46/// /1225 10257 20243 30072 40082
AAXX 16184 94300 46/// /1814 10252 20175 30035 40045
AAXX 16184 94302 46/// /2311 10234 20209 30041 40047
AAXX 16184 94312 46/// /3111 10254 20225 30028 40037
AAXX 16184 94313 NIL
AAXX 16184 94317 46/// /0711 10276 20132 39460 40027
AAXX 16184 94319 46/// /3108 10258 20180 39706 40027
AAXX 16184 94324 NIL
AAXX 16184 94326 46/// /2907 10258 20168 39444 40042
AAXX 16184 94327 46/// /3103 10252 20196 39684 40047
AAXX 16184 94332 46/// /3107 10262 20210 39683 40059
AAXX 16184 94333 NIL
AAXX 16184 94341 46/// /0408 10267 20186 39853 40082
AAXX 16184 94346 46/// ///// 10235 20190 39882 40097
AAXX 16184 94363 46/// /0808 10202 20189 39925 40140
AAXX 16184 94366 NIL
AAXX 16184 94367 46/// /1012 10257 20193 30082 40124
AAXX 16184 94374 46/// /1205 10198 20173 30129 40145
AAXX 16184 94388 46/// /1117 10234 20160 30145 40150
AAXX 16184 94393 46/// /1321 10249 30104 40116 56007
AAXX 16184 94394 46/// /1319 10234 30126 40134 56009
AAXX 16184 94403 46/// /1505 10169 20137 30035 40076
AAXX 16184 94429 46/// /0805 10205 20132 39602 40054
AAXX 16184 94430 46/// /1007 10231 20086 39474 40041
AAXX 16184 94449 46/// /1405 10174 20119 39556 40073
AAXX 16184 94451 NIL
AAXX 16184 94461 46/// /2103 10196 20191 39388 40039
AAXX 16184 94462 46/// /0105 10200 20180 39489 40028
AAXX 16184 94477 NIL
AAXX 16184 94488 NIL
AAXX 16184 94893 46/// /0632 10153 20130 30079 40195
AAXX 16184 94907 46/// /0609 10145 20121 30194 40204
AAXX 16184 94910 46/// /0812 10155 20100 39933 40179
AAXX 16184 94926 46/// /1005 10129 20097 39540 40201
AAXX 16184 94935 46/// /3103 10097 20083 30191 40218
AAXX 16184 94954 46/// /0617 10146 20124 30102 40213
AAXX 16184 94956 46/// /0401 10087 20072 30195 40222
AAXX 16184 94975 46/// /3605 10129 20100 30200 40233
AAXX 16184 94983 46/// /0706 10149 20120 30209 40234
AAXX 16184 94995 46/// /2209 10181 20066 30162 40170
AAXX 16184 94996 46/// /2409 10184 20111 39996 40124
AAXX 16184 94997 NIL
AAXX 16184 94998 46/// /2425 10047 21003 30096 40107
AAXX 16184 95111 46/// /0903 10254 20242 30016 40052
AAXX 16184 95205 46/// /3305 10265 20227 30045 40052
AAXX 16184 95322 NIL
AAXX 16184 95448 46/// /0805 10185 20118 39504 40051
AAXX 16184 95458 46/// /3413 10233 20161 39798 40051
AAXX 16184 95480 46/// /1108 10236 20166 30007 40065
AAXX 16184 95481 46/// /0909 10253 20194 30023 40067
AAXX 16184 95482 46/// /0614 10298 20183 39990 40044
AAXX 16184 95485 46/// /0710 10237 20192 39902 40101
AAXX 16184 95492 46/// /0710 10250 20175 39954 40105
AAXX 16184 95527 46/// /0709 10170 20150 39920 40169
AAXX 16184 95634 46/// /1204 10151 20124 39697 40089
AAXX 16184 95637 46/// /1005 10134 20117 39772 40099
AAXX 16184 95646 46/// /2711 10160 20157 39861 40043
AAXX 16184 95666 NIL
AAXX 16184 95719 46/// /1013 10139 20093 39857 40183
AAXX 16184 95762 46/// /1405 10103 20065 39733 40183
AAXX 16184 95826 NIL
AAXX 16184 95839 46/// /0913 10199 20119 39969 40126
AAXX 16184 95864 NIL
AAXX 16184 95909 NIL
AAXX 16184 95954 NIL
AAXX 16184 95966 46/// /3403 10135 20107 30031 40232
AAXX 16184 96995 NIL
AAXX 16184 96996 455// 81213 10268 20226 30080 40084 58014
AAXX 16184 94500 NIL
AAXX 16184 94510 46/// /0306 10205 20180 39778 40118
AAXX 16184 94515 46/// /0507 10183 20157 39798 40142
AAXX 16184 94552 46/// /1205 10138 20113 39709 40169
AAXX 16184 94578 46/// /2108 10168 20140 30166 40177
AAXX 16184 94584 46/// /1218 10218 20137 30049 40158
AAXX 16184 94601 46/// /0709 10178 20145 30082 40099
AAXX 16184 94610 46/// /3404 10154 20134 30064 40087
AAXX 16184 94637 46/// /1505 10152 20119 39665 40081
AAXX 16184 94638 46/// /1806 10165 20142 30074 40105
AAXX 16184 94642 NIL
AAXX 16184 94643 NIL
AAXX 16184 94647 46/// /2706 10169 20164 39922 40040
AAXX 16184 94651 46/// /2509 10171 20166 39964 40039
AAXX 16184 94653 46/// /0811 10194 20152 30001 40019
AAXX 16184 94659 46/// /0810 10216 20160 39870 40060
AAXX 16184 94672 46/// /0212 10268 20078 30076 40086
AAXX 16184 94691 46/// /0410 10232 20142 39783 40102
AAXX 16184 94693 46/// /0406 10237 20112 30049 40109
AAXX 16184 94700 NIL
AAXX 16184 94703 46/// /0607 10193 20163 30015 40138
AAXX 16184 94710 46/// /0710 10211 20143 39894 40142
AAXX 16184 94729 46/// /0904 10097 20080 39344 40183
AAXX 16184 94750 46/// /0000 10147 20122 30091 40214
AAXX 16184 94767 46/// /1207 10172 20104 30210 40216
AAXX 16184 94776 46/// /3005 10149 20124 30201 40211
AAXX 16184 94791 NIL
AAXX 16184 94802 46/// /0503 10107 20105 30030 40111
AAXX 16184 94804 46/// /1012 10191 20144 30025 40062
AAXX 16184 94807 NIL
AAXX 16184 94821 46/// /1007 10165 20123 30039 40121
AAXX 16184 94842 46/// /0921 10158 20115 30066 40165
AAXX 16184 94847 NIL
AAXX 16184 94850 46/// /0717 10148 20122 30141 40187
AAXX 16184 94865 46/// /0805 10130 20117 30144 40168
AAXX 16184 94866 46/// /3204 10139 20119 30030 40169
AAXX 16184 94875 46/// /0805 10163 20115 30033 40167
AAXX 16184 94893 46/// /0632 10153 20130 30079 40195
AAXX 16184 94907 46/// /0609 10145 20121 30194 40204
AAXX 16184 94910 46/// /0812 10155 20100 39933 40179
AAXX 16184 94926 46/// /1005 10129 20097 39540 40201
AAXX 16184 94935 46/// /3103 10097 20083 30191 40218
AAXX 16184 94954 46/// /0617 10146 20124 30102 40213
AAXX 16184 94956 46/// /0401 10087 20072 30195 40222
AAXX 16184 94975 46/// /3605 10129 20100 30200 40233
AAXX 16184 94983 46/// /0706 10149 20120 30209 40234
AAXX 16184 94995 46/// /2209 10181 20066 30162 40170
AAXX 16184 94996 46/// /2409 10184 20111 39996 40124
AAXX 16184 94997 NIL
AAXX 16184 94998 46/// /2425 10047 21003 30096 40107
AAXX 16184 95111 46/// /0903 10254 20242 30016 40052
AAXX 16184 95205 46/// /3305 10265 20227 30045 40052
AAXX 16184 95322 NIL
AAXX 16184 95448 46/// /0805 10185 20118 39504 40051
AAXX 16184 95458 46/// /3413 10233 20161 39798 40051
AAXX 16184 95480 46/// /1108 10236 20166 30007 40065
AAXX 16184 95481 46/// /0909 10253 20194 30023 40067
AAXX 16184 95482 46/// /0614 10298 20183 39990 40044
AAXX 16184 95485 46/// /0710 10237 20192 39902 40101
AAXX 16184 95492 46/// /0710 10250 20175 39954 40105
AAXX 16184 95527 46/// /0709 10170 20150 39920 40169
AAXX 16184 95634 46/// /1204 10151 20124 39697 40089
AAXX 16184 95637 46/// /1005 10134 20117 39772 40099
AAXX 16184 95646 46/// /2711 10160 20157 39861 40043
AAXX 16184 95666 NIL
AAXX 16184 95719 46/// /1013 10139 20093 39857 40183
AAXX 16184 95762 46/// /1405 10103 20065 39733 40183
AAXX 16184 95826 NIL
AAXX 16184 95839 46/// /0913 10199 20119 39969 40126
AAXX 16184 95864 NIL
AAXX 16184 95909 NIL
AAXX 16184 95954 NIL
AAXX 16184 95966 46/// /3403 10135 20107 30031 40232
AAXX 16184 96995 NIL
AAXX 16184 96996 455// 81213 10268 20226 30080 40084 58014
AAXX 16183 91502 01465 83605 10251 20240 40062 55002 69931 71698 8597/ 333 56899 69937 83814 81915 84629 87360
AAXX 16183 91507 NIL
AAXX 16183 91520 NIL
AAXX 16183 91541 NIL
AAXX 16184 89564 45/// /1805 10018 21110 30048 40068 51009
AAXX 16184 89570 46/// /1019 11116 21158 39282 53009
AAXX 16184 89571 45/// /1408 11024 21104 39922 49951 53009
AAXX 16184 89573 NIL
AAXX 16184 89610 NIL
AAXX 16184 89611 45/// /0809 11060 21094 39876 49928 50003
AAXX 16184 89614 NIL
AAXX 16184 89615 46/// /1011 11125 21149 39024 52004
AAXX 16184 89807 NIL
AAXX 16184 89809 46/// /0913 11114 21146 39469 50002
BBXX VMAL 16183 99353 31260 41/97 81417 10160 20146 40094 57020 71522 88/// 22263 20303 80152
BBXX 3ECI3 16184 99411 31732 41597 61610 10155 20098 40044 54000 70311 86434 22200 00170 20500 316// 40802 80125
BBXX V2OG2 16183 99116 31060 41697 71616 10270 20248 40083 58012 70300 87900 22233 20403 317// 40502 80254
BBXX ZCBU6 16184 99331 31700 41498 22425 10185 20160 40075 57006 70222 821// 22234 00194 20405 324// 40706 5//// 80170
BBXX VNSZ 16164 99402 31458 46/// /0730 10159 20123 30177 40203 52023 22235 04168 85138
BBXX VNSZ 16174 99405 31460 46/// /0625 10160 20128 30182 40208 52012 22235 04167 85141
BBXX 9HA2479 16164 99239 31646 46/// /1427 10230 20171 30087 40116 57012 22254 04255 85191
BBXX C6FS9 16164 99238 31512 46/// /1809 10216 20174 30125 40161 57018 22200 04269 85188
BBXX VROB 16164 99167 31532 46/// /1328 10257 20228 30054 40079 57017 22243 04287 85236
BBXX FHZI 16164 99495 31459 46/// /2812 10089 20068 30219 40230 57004 22243 04101 85078
BBXX VNAH 16164 99333 31157 46/// /1507 10176 20119 30074 40098 57010 22200 85142
BBXX 9HA2479 16174 99241 31644 46/// /1524 10229 20148 30093 40122 52004 22254 04256 85177
BBXX C6FS9 16174 99238 31512 46/// /1807 10213 20176 30122 40158 57016 22200 04269 85189
BBXX VROB 16174 99169 31532 46/// /1327 10268 20230 30050 40075 57014 22243 04285 85240
BBXX FHZI 16174 99497 31458 46/// /2514 10082 20066 30216 40227 57005 22243 04100 85074
BBXX VNAH 16174 99333 31157 46/// /1306 10171 20124 30074 40098 57009 22200 85143
BBXX VNSZ 16184 99409 31462 46/// /0819 10157 20128 30187 40214 52018 22235 04169 85140
BBXX 9HA2479 16184 99243 31641 46/// /1521 10228 20145 30094 40123 52008 22254 04252 85175
BBXX C6FS9 16184 99238 31512 46/// /1807 10211 20175 30123 40159 57008 22200 04269 85187
BBXX VRZN7 16184 99247 31653 416// 61415 10220 2014/ 40120 51010 7//22 8646/ 22253 04260 20506 320// 4//// 5//// 85170
BBXX A8KO3 16180 99205 31538 41497 81615 10260 20232 40070 54000 70355 8/263 22244 00260 20506 80240
AAXX 16184 94102 46/// /1508 10283 20249 30043 40052
AAXX 16184 94103 NIL
AAXX 16184 94120 46/// /1506 10258 20238 30009 40049
AAXX 16184 94122 46/// /0000 10244 20227 30036 40044
AAXX 16184 94131 46/// /2703 10239 20227 39904 40054
AAXX 16184 94132 NIL
AAXX 16184 94147 NIL
AAXX 16184 94150 46/// /0000 10259 20248 39986 40045
AAXX 16184 94151 46/// /0205 10284 20244 30027 4////
AAXX 16184 94170 46/// /0903 10249 20246 30045 40067
AAXX 16184 94200 NIL
AAXX 16184 94203 46/// /2808 10279 20231 30041 40051
AAXX 16184 94206 NIL
AAXX 16184 94207 46/// /2914 10274 30039 40047 56008
AAXX 16184 94211 NIL
AAXX 16184 94212 46/// /0505 10215 20207 39593 40055
AAXX 16184 94216 46/// /2405 10255 20222 30007 40057
AAXX 16184 94236 NIL
AAXX 16184 94238 46/// /1707 10240 20212 39645 40058
AAXX 16184 94248 NIL
AAXX 16184 94255 46/// /3603 10267 20205 39801 40057
AAXX 16184 94268 46/// /0000 10246 20243 30059 40071
AAXX 16184 94287 46/// /1709 10260 20227 30081 40090
AAXX 16184 94290 NIL
AAXX 16184 94294 46/// /1110 10254 20210 30101 40111
AAXX 16184 94296 NIL
AAXX 16184 94298 46/// /1225 10260 30093 40099 56007
AAXX 16184 95641 NIL
AAXX 16183 NIL
AAXX 16184 91375 NIL
AAXX 16184 91519 NIL
AAXX 16184 91531 NIL
AAXX 16184 91532 45/// /0610 10273 20238 30069 40077 57001
AAXX 16184 91559 NIL
AAXX 16184 91611 NIL
AAXX 16184 91642 NIL
AAXX 16184 91679 NIL
AAXX 16184 91689 NIL
AAXX 16184 91756 NIL
AAXX 16184 91844 NIL
AAXX 16184 92036 NIL
AAXX 16184 93713 NIL
AAXX 16184 41024 42660 23306 10250 20190 30114 40133 82400 333 10300 59004 55072 82635
AAXX 16184 41030 42960 10503 10248 20180 39855 40126 81030 333 10344 59006 55/// 81360
AAXX 16184 41036 42560 33002 10174 20120 38574 48524 82230 333 10240 59001 55090 82830 555 04410 50130
AAXX 16184 41055 42960 00000 10160 20120 38376 48523 333 10245 59001 55095 555 04410 50147
AAXX 16184 41061 42960 21504 10150 21010 39442 40153 80002 333 10260 59023 55105 82075
AAXX 16184 41084 42960 00000 10180 20030 38869 48523 333 10264 58000 55093 555 04410 50135
AAXX 16184 41112 42960 01703 10131 20110 37959 48524 333 10212 59006 55093 555 04410 50153
AAXX 16184 41114 42960 00000 10142 20110 37991 48521 333 10240 59009 55/// 555 04410 50148
AAXX 16184 41128 42960 00204 10176 21120 38820 48525 333 10292 59024 55085 555 04410 50144
AAXX 16184 41136 42960 00712 10194 20030 39322 40136 333 10278 59033 55103
AAXX 16184 41140 42960 00805 10269 20200 30116 40123 333 10304 59012 55///
BBXX ZCAS2 16183 99056 11280 41498 50101 10270 20241 40055 57/// 70311 83114 22284 00292 20101 327// 40101 80250
AAXX 16184 40356 42960 03406 10050 21050 39218 48501 333 10140 58033 55087 555 04410 50222
AAXX 16184 40357 42960 03108 10077 21010 39554 40207 333 10165 58031 55///
AAXX 16184 40360 42960 01402 10072 21030 39604 40201 333 10170 58015 55088
AAXX 16184 40361 42960 12910 10090 21050 39429 40216 80008 333 10168 58038 55///
AAXX 16184 40362 42960 02803 10088 21100 39657 40181 333 10175 58020 55///
AAXX 16184 40373 42960 03302 10124 20040 39737 40161 333 10220 59024 55///
AAXX 16184 40375 42960 23603 10094 20000 39309 40206 80002 333 10160 58011 55082 82070
AAXX 16184 40377 42960 03314 10123 20020 39689 40179 333 10217 59011 55///
AAXX 16184 40394 42960 03505 10106 21020 39055 48528 333 10184 58026 55089 555 04410 50186
AAXX 16184 40400 42960 03505 10200 20110 30133 40161 333 10262 59001 55092
AAXX 16184 40401 41959 23610 10160 21030 39481 40186 70600 80001 333 10210 58040 82070
AAXX 16184 40405 42960 03404 10140 20020 39439 40183 333 10240 58022 55///
AAXX 16184 40416 42960 29902 10150 20100 30128 40148 82030 333 10200 59032 55/// 82360
AAXX 16184 40417 42660 41407 10143 20070 30146 40161 81530 333 10215 59036 55/// 81640 83360
AAXX 16184 40420 42960 02406 10140 20050 39950 40159 333 10230 59038 55///
AAXX 16184 40430 42960 40000 10208 20010 39426 40140 84040 333 10264 58003 55073 84360
AAXX 16184 40435 NIL
AAXX 16184 40437 42960 23003 10153 20010 39465 40168 82030 333 10244 59021 55092 82360
AAXX 16184 40439 42960 02906 10208 20140 30122 40141 333 10280 59003 55090
BBXX VMAL 16183 99353 31260 41/97 81417 10160 20146 40094 57020 71522 88/// 22263 20303 80152
BBXX 3ECI3 16184 99411 31732 41597 61610 10155 20098 40044 54000 70311 86434 22200 00170 20500 316// 40802 80125
BBXX V2OG2 16183 99116 31060 41697 71616 10270 20248 40083 58012 70300 87900 22233 20403 317// 40502 80254
BBXX ZCBU6 16184 99331 31700 41498 22425 10185 20160 40075 57006 70222 821// 22234 00194 20405 324// 40706 5//// 80170
BBXX VNSZ 16164 99402 31458 46/// /0730 10159 20123 30177 40203 52023 22235 04168 85138
BBXX VNSZ 16174 99405 31460 46/// /0625 10160 20128 30182 40208 52012 22235 04167 85141
BBXX 9HA2479 16164 99239 31646 46/// /1427 10230 20171 30087 40116 57012 22254 04255 85191
BBXX C6FS9 16164 99238 31512 46/// /1809 10216 20174 30125 40161 57018 22200 04269 85188
BBXX VROB 16164 99167 31532 46/// /1328 10257 20228 30054 40079 57017 22243 04287 85236
BBXX FHZI 16164 99495 31459 46/// /2812 10089 20068 30219 40230 57004 22243 04101 85078
BBXX VNAH 16164 99333 31157 46/// /1507 10176 20119 30074 40098 57010 22200 85142
BBXX 9HA2479 16174 99241 31644 46/// /1524 10229 20148 30093 40122 52004 22254 04256 85177
BBXX C6FS9 16174 99238 31512 46/// /1807 10213 20176 30122 40158 57016 22200 04269 85189
BBXX VROB 16174 99169 31532 46/// /1327 10268 20230 30050 40075 57014 22243 04285 85240
BBXX FHZI 16174 99497 31458 46/// /2514 10082 20066 30216 40227 57005 22243 04100 85074
BBXX VNAH 16174 99333 31157 46/// /1306 10171 20124 30074 40098 57009 22200 85143
BBXX VNSZ 16184 99409 31462 46/// /0819 10157 20128 30187 40214 52018 22235 04169 85140
BBXX 9HA2479 16184 99243 31641 46/// /1521 10228 20145 30094 40123 52008 22254 04252 85175
BBXX C6FS9 16184 99238 31512 46/// /1807 10211 20175 30123 40159 57008 22200 04269 85187
BBXX VRZN7 16184 99247 31653 416// 61415 10220 2014/ 40120 51010 7//22 8646/ 22253 04260 20506 320// 4//// 5//// 85170
BBXX A8KO3 16180 99205 31538 41497 81615 10260 20232 40070 54000 70355 8/263 22244 00260 20506 80240
AAXX 16184 94310 46/// /2918 10260 20202 30029 40040 57006
AAXX 16184 95283 46/// /1208 10268 20249 30073 40080
AAXX 16184 95288 46/// /1421 10266 30061 40076 55008
AAXX 16184 95675 46/// /3615
AAXX 16184 95872 46/// /0812
AAXX 16184 95961 35/// /0307 10107 30178 40220 57003
AAXX 16181 37395 32997 00915 10102 21019 30015 40154 57004 333 10130
AAXX 16181 37409 32898 00915 11030 21034 38773 48484 57007 333 11005 95000
AAXX 16181 37432 32697 60000 10005 21025 38971 48502 52001 86500 333 10045
AAXX 16181 37514 32996 00000 11033 21057 39030 40208 56001 333 10078
AAXX 16181 37545 325// 60000 10003 21008 39702 40231 57007 84410 333 10075
AAXX 16181 37621 329// 00000 11014 21046 39580 40244 57007 333 10080
AAXX 16181 37484 NIL
AAXX 16181 38141 12998 00000 11144 21195 30194 40367 57005 69900 333 11068
AAXX 16181 38149 42998 00304 11083 21135 30271 40354 57008 333 11019
AAXX 16181 38178 429// 00402 11112 21208 30074 40384 57009 333 11057
AAXX 16181 38262 329// 00503 11085 21138 30262 40351 57005 333 11032
AAXX 16181 38264 42998 00603 11077 21095 30247 40347 57007 333 11020
AAXX 16181 38396 42997 00604 11053 21086 30204 40337 57008 333 10005
AAXX 16181 38403 429// 00903 11053 21132 30220 40348 57004 333 10008
AAXX 16181 38413 429// 00804 11077 21095 30053 40363 57010 333 11032
AAXX 16181 38457 12997 00501 11025 21054 39736 40351 57009 69902 333 10020
AAXX 16181 38462 429// 00000 11085 21149 38846 48566 57008 333 11019
AAXX 16181 38565 329// 00000 11041 21064 39718 40332 57009 333 10006
AAXX 16181 38579 325// 70201 11007 21032 39905 40340 57010 87500 333 10004
AAXX 16181 38583 32997 43601 11008 21023 30009 40344 57010 80001 333 10030
AAXX 16181 38611 41795 80001 10018 21001 39768 40357 57010 71022 885// 333 10036 83386
AAXX 16181 38618 329// 81501 10004 21043 39628 40341 57006 8805/ 333 10020
AAXX 16181 38683 41996 03604 11036 21054 30016 40307 57023 71011 333 10002
AAXX 16181 38696 129// 60904 11023 21029 39425 40317 57011 69902 86050 333 10021
AAXX 16181 38812 41396 80103 11005 21020 39821 40291 52014 71022 883// 333 10021 85707
AAXX 16181 38927 31941 00101 11012 21024 39907 40300 57015 71012 333 10049
AAXX 16184 40550 37/56 /2202 10147 20103 40167 55000 71010 333 55300 00000 10131 20000 30000 41231 51364 60000 55407 40000 90069 90400 91003 91113 91205 91303
AAXX 16184 40551 36/// /0904 10141 20112 333 90401 91007 91123 91219 91309
AAXX 16184 40552 37/57 /1211 10130 20104 40166 56002 71010 333 55300 90069 90400 91013 91119 91215 91309
AAXX 16184 40553 37/59 /1514 10144 20109 40164 50000 71011 333 55300 90069 90400 91017 91117 91213 91309
AAXX 16184 40568 36/// /0807 10150 20121 333 90400 91009 91113 91211 91307
AAXX 16184 40569 NIL
AAXX 16184 40570 35/70 /1007 10125 20013 40167 51018 333 55300 90069 90401 91009 91117 91213 91309
AAXX 16184 40571 NIL
AAXX 16184 40572 NIL
AAXX 16184 40573 36/// /1107 10117 20079 333 90401 91009 91121 91217 91311
AAXX 16184 40580 46/// /0602 10157 20126 333 553// 00000 10154 20000 30000 41229 51382 60000 55407 40000 90401 91005 91113 91203 91301
AAXX 16184 40581 36/// /0602 10155 20134 333 90400 91003 91109 91205 91301
AAXX 16184 40582 31657 70204 10149 20123 40168 51010 71022 82430 333 55300 00000 10115 20000 30000 41264 51379 60000 55407 40000 82640 87358 90400 91005 91117 91211 91303
AAXX 16184 40583 NIL
AAXX 16184 40585 36/// /3503 10154 20130 222// 1//// 3//// 4//// 70/// 333 90400 91007 91115 91211 91305
AAXX 16184 40586 36/// /0505 10147 20120 333 90401 91005 91115 91211 91305
AAXX 16184 40587 36/// /0302 10141 20114 333 553// 00000 10109 20000 30000 41241 51350 60000 55407 40000 90400 91003 91113 91207 91303
AAXX 16184 40588 37/57 /0605 10151 20126 40169 51007 71011 333 55300 90069 90401 91007 91115 91211 91305
AAXX 16184 40589 NIL
AAXX 16184 40590 46/// /0908 10133 20088 333 90400 91009 91123 91217 91309
AAXX 16184 40591 NIL
AAXX 16184 40592 37/57 /3602 10123 20075 40167 52009 71010 333 55300 00000 10166 20000 30000 41159 51326 60000 55407 40000 90069 90400 91003 91119 91211 91303
AAXX 16184 40593 36/// /1106 10170 20139 333 90400 91007 91115 91211 91305
AAXX 16184 40594 36/// /1006 10155 20125 333 90401 91009 91115 91207 91303
AAXX 16184 40596 46/// /1006 10184 20146 333 90401 91007 91117 91215 91309
AAXX 16183 91502 01465 83605 10251 20240 40062 55002 69931 71698 8597/ 333 56899 69937 83814 81915 84629 87360
AAXX 16183 91507 NIL
AAXX 16183 91520 NIL
AAXX 16183 91541 NIL
AAXX 16184 91577 06/// /1507 10236 20203 30074 40095 53004 60001 333 58013 60007
AAXX 16184 48453 32560 60302 10258 20168 30127 40130 57005 82536 333 58016
AAXX 16184 48357 32960 10000 10168 20138 30012 40187 57005 80001 333 58029
AAXX 16184 48425 31950 40605 10250 20173 30134 40144 57001 70511 82035 333 58020
AAXX 16184 48440 31958 00000 10222 20184 30085 40135 57001 71000 333 58018
AAXX 16184 04005 21460 60502 11014 21063 40051 54000 77172 86800 333 11007 21035 69908 555 3/203
AAXX 16184 04048 32689 13523 11022 21070 40056 52028 81502 333 11005 21025 555 3/433
AAXX 16184 61091 32960 70000 10190 20069 39693 40153 80008 333 10270 59001 87280
AAXX 16184 61091 32960 70000 10190 20069 39693 40153 80008 333 10270 59001 87280
AAXX 16184 48552 01460 81504 10240 20233 30099 40105 57010 60213 70296 86937 333 58004 69927 70791
BBXX TBWAA05 16183 99592 10212 41497 72218 10050 20003 49911 57028 70222 8583/ 22263 02060 2//// 3//// 4//// 5//// 80030 00/87 1/764 5989300/ 871/7 64598 93931/65 1/626 /807
AAXX 16181 50468 11970 83202 11139 21179 39969 40191 57002 69901 77000 8802/ 333 11125
AAXX 16181 50953 32975 02203 11175 21236 30062 40255 57012 333 11132
AAXX 16181 51076 NIL
AAXX 16181 51243 NIL
AAXX 16181 51288 32980 00702 11159 21198 38406 57001 333 00054 11085
AAXX 16181 51463 NIL
AAXX 16181 51573 NIL
AAXX 16181 51709 NIL
AAXX 16181 52533 NIL
AAXX 16181 52652 NIL
AAXX 16181 52866 32970 70000 11103 21162 37726 57005 80002 333 05403 10012
AAXX 16181 52983 NIL
AAXX 16181 53463 32980 01101 11156 21237 39079 40429 57003 333 05401 11103
AAXX 16181 53513 32970 03401 11157 21194 39086 40399 57001 333 05602 11068
AAXX 16181 53588 NIL
AAXX 16181 53772 NIL
AAXX 16181 53915 NIL
AAXX 16181 54218 32980 00401 11163 21295 39493 40352 57006 333 11054
AAXX 16181 54337 32960 00000 11119 21228 30231 40319 57012 333 11020
AAXX 16181 54342 NIL
AAXX 16181 54401 NIL
AAXX 16181 54471 32962 01603 11102 21184 30322 40328 57012 333 11058
AAXX 16181 54497 32965 02501 11145 21224 30325 40343 57003 333 11069
AAXX 16181 54511 NIL
AAXX 16181 54823 32978 01402 11082 21168 30160 40384 54000 333 11011
AAXX 16181 56080 NIL
AAXX 16181 56096 NIL
AAXX 16181 57083 31958 00901 11034 21092 30224 40368 57013 71000 333 10036
BBXX PCSV 16183 99005 30744 41/98 82705 10250 20222 40105 57002 70082 8//// 22253 04280 21001 80230 90432
BBXX PEBT 16183 99364 70082 41498 53022 10180 20118 40290 57020 7//11 858// 22273 02143 20402 328// 40704 5//// 80143
AAXX 16181 56187 11962 80202 10057 20029 39631 40294 57009 69921 76060 8807/ 333 05451 10088
AAXX 16181 56778 NIL
AAXX 16181 57265 NIL
AAXX 16181 57461 33/// 90901 10047 21009 30191 40359 57009 333 10101
AAXX 16181 57494 NIL
AAXX 16181 57516 11720 80000 10090 20030 39979 40296 57003 69901 71060 885// 333 05400 10113
AAXX 16181 57687 31950 72201 10041 20001 30255 40342 57002 70500 8704/ 333 10095
AAXX 16181 57816 31650 80903 10018 21013 38869 40306 57004 71000 885// 333 05200 10034
AAXX 16181 58040 NIL
AAXX 16181 58102 32970 00902 11030 21117 30328 40379 57010 333 10041
AAXX 16181 58150 32962 03202 11035 21115 30374 40378 57001 333 10023
AAXX 16181 58221 32960 01101 11021 21097 30351 40381 57004 333 10042
AAXX 16181 58238 NIL
AAXX 16181 58251 NIL
AAXX 16181 58362 NIL
AAXX 16181 58457 32961 00203 10008 21122 30316 40371 57002 333 10063
AAXX 16181 58606 32962 00902 10027 21059 30283 40343 57001 333 10097
AAXX 16181 58752 NIL
AAXX 16181 58847 32964 10703 10079 21013 30215 40320 52001 81040 333 10131
AAXX 16181 59117 32662 82001 10091 20043 30173 40281 52008 885// 333 10179
AAXX 16181 59134 NIL
AAXX 16181 59287 NIL
AAXX 16181 59316 32762 70703 10132 20027 30265 40270 52007 875// 333 10190
AAXX 16181 59431 NIL
AAXX 16181 59644 32560 83604 10138 20062 30234 40251 57003 888// 333 10160
AAXX 16181 59758 NIL
BBXX PCAW 16183 99360 10243 41/98 42711 10172 20138 40170 53010 70100 84/// 22223 00132 20303 80151 90432
AAXX 16184 78792 21458 81505 10259 20226 30096 40109 57015 69912 76055 85220 333 024// 10264 20240 32/// 58012 81705 83815 86458
AAXX 16184 78793 31470 82206 10280 20233 30075 40106 58011 70242 8422/ 333 10284 20230 31/// 58004 84810 85460
AAXX 16184 78795 11359 82704 10260 20233 30006 40106 57008 69971 75065 83210 333 10262 20238 32/// 5600/ 57841 58007 83812 85459
AAXX 16184 78792 21458 81505 10259 20226 30096 40109 57015 69912 76055 85220 333 024// 10264 20240 32/// 58012 81705 83815 86458
AAXX 16184 78793 31470 82206 10280 20233 30075 40106 58011 70242 8422/ 333 10284 20230 31/// 58004 84810 85460
AAXX 16184 78795 11359 82704 10260 20233 30006 40106 57008 69971 75065 83210 333 10262 20238 32/// 5600/ 57841 58007 83812 85459
AAXX 16184 78792 21458 81505 10259 20226 30096 40109 57015 69912 76055 85220 333 024// 10264 20240 32/// 58012 81705 83815 86458
AAXX 16184 78793 31470 82206 10280 20233 30075 40106 58011 70242 8422/ 333 10284 20230 31/// 58004 84810 85460
AAXX 16184 78795 11359 82704 10260 20233 30006 40106 57008 69971 75065 83210 333 10262 20238 32/// 5600/ 57841 58007 83812 85459
AAXX 16184 78397 11574 71707 10305 20214 30122 40138 60001 70522 81208 333 00909 10310 20222 58012 81824 87274
AAXX 16181 48840 32498 83202 10158 20122 30227 40233 58005 888// 333 58019 82894 88696
AAXX 16184 89514 32696 71117 11009 49785 57008 8702/ 333 87443
AAXX 16184 89514 32696 71117 11009 49785 57008 8702/ 333 87443
AAXX 16184 78397 11574 71707 10305 20214 30122 40138 60001 70522 81208 333 00909 10310 20222 58012 81824 87274
AAXX 16181 26045 01364 81403 10009 20003 39967 49970 58020 60002 70222 886// 333 10030 20005 60007 88707 555 1/001 20005 3/001 50026
BBXX 44139 16181 99442 70571 46/// /1815 10107 40061 57048 22200 00091 10707 70035 333 91219
BBXX DQVG 16183 99325 11640 41497 72321 10210 20194 40030 58010 70311 8777/ 22264 00226 21202 325// 41004 5//// 80200
BBXX LAYG5 16184 99505 11604 41496 82732 11020 21050 49870 54000 78572 88/// 22253 00033 20808 328// 4//// 5//// 81030
BBXX 3FZK3 16184 99541 71625 46/// /2519 10038 20021 49839 51038 7//// 8//// 22223 0//// 2////
BBXX 46035 16181 99571 71778 46/// /0310 1//// 49907 58013 91750 22200 11109 20705 300// 41108 70047 333 91213 555 11104 22111 31718 40314 61749 029104 025106 015102 018109 013100 017086 80213 91718
BBXX C6FY8 16184 99545 71629 41696 82322 10030 20010 49860 51030 70222 8874/ 22252 00050 20204 32523 40408 50408 6//// 80020 ICE /////
BBXX DFWV2 16184 99300 71767 41/98 71918 10215 20175 40200 54000 7//22 8/7// 2226/ 04200 29903 3//// 4//// 5////
BBXX KEY796 16183 99571 71703 41/97 83316 11028 21044 49821 53/// 785// 8//// 222// 00006 2//// 3//// 4//// 5//// 6//// 8//// ICE /////
BBXX LAOX5 16181 99318 71730 41597 52018 00/// 10210 20130 40220 54000 70121 85828 22214 00210 21005 331// 41210 5//// 6//// 80163
BBXX NWS0003 16184 99549 71650 43/// /2828 10030 20005 49808 5//// 7//// 8//// 222// 04052 2//// 3//// 4//// 5//// 6//// 8//// ICE /////
BBXX SHIP 16184 99351 71726 41598 72035 10180 20150 40160 57030 72565 879// 22262 00200 20606 328// 41008 5//// 6//// 80160 ICE /////
BBXX SHIP 16184 99490 71612 41/98 62430 10055 20009 40025 52020 70182 864// 22224 00060 2//07 327// 41414 802//
BBXX 9VVN 16184 99409 11396 41697 82833 10000 21030 40165 56010 70277 88700 22214 00130 2//// 3//// 4//// 5//// 65//1 81010 ICE 0
BBXX A8JX8 16180 99363 11439 41598 63321 10080 20005 40130 53010 7//22 8385/ 22214 20610 33132 40610 50509 80050
BBXX C6SI6 16184 99343 11251 46/// /3616 10030 21050 40323 53009 7//// 8//// 22273 0//// 2////
BBXX DQXQ 16184 99384 11351 41298 83238 10018 21042 40220 52005 70375 8572/ 22213 00120 299// 331// 41010 81004
BBXX MGPU2 16183 99406 11338 41298 73235 11060 21110 40280 53/// 70322 8/7// 22241 00034 2//// 331// 40512 5//// 81070
BBXX MIBR 16183 99305 11301 41598 83620 10111 20007 40255 54000 70222 885// 22214 00230 2//// 3//// 4//// 5//// 80068
BBXX WCX8882 16184 99324 11342 41498 63024 10090 2//// 40257 52020 70222 862// 22254 00220 2//// 3//// 4//// 5//// 6//// 81050 ICE /////
AAXX 16181 26135 27259 81303 10001 21007 39885 49960 57021 71011 88/// 333 10016 20000 60007 88/06 555 1/001 20000 3/001 50017 52000
AAXX 16181 26058 01260 81302 10007 20000 39973 49980 58024 60002 71022 886// 333 10017 20002 60007 88705 555 1/100 20002 3/100 50020 52101
AAXX 16184 16539 12597 82525 10158 20150 39981 40093 57027 60002 884// 333 10164 84620 84356 555 0////
AAXX 16184 06670 01582 62620 10061 21005 39445 49948 5//// 60132 70298 865// 333 10095 32/// 553// 20000 60005 83631 84646 90766 93100
AAXX 16184 06700 01673 62508 10078 21014 39516 40001 5//// 60152 78086 868// 333 10100 32/// 553// 20000 60005 83835 85656 90766 93100
AAXX 16184 06680 01/01 92530 11067 21067 37253 47771 5//// 60032 77293 333 11011 47125 553// 20000 60005 90766 93107
AAXX 16184 06990 03/// /3617 10060 20020 39398 49936 5//// 60072 333 10121 553// 20000 60025
AAXX 16184 06760 01256 80606 10015 20009 39498 49947 5//// 60082 76364 8372/ 333 10050 32/// 553// 20000 60015 83704 88531 90766 93100
AAXX 16184 06720 01458 8//// 10016 20008 39401 49978 5//// 60412 76176 88020 333 10015 41005 553// 20000 69975 88517 90766 93104
AAXX 16184 06610 01557 82618 10056 21008 39411 49989 5//// 60102 72162 8477/ 333 10092 32/// 553// 20000 60005 84727 86357 90766 93100
BBXX MINUK03 1618/ 99549 70011 46/// ///// 10068 49956 52053
AAXX 16181 37989 42596 80000 10060 20046 40250 57011 885// 333 10073
AAXX 16181 37923 42596 80000 10069 20046 40216 57026 885// 333 1006 555 53004
AAXX 16181 37851 42598 80000 10076 20051 30167 40242 57010 885// 333 10087
AAXX 16181 37985 41496 80000 10057 20038 30269 40254 56002 71022 886// 333 10067
AAXX 16181 37749 41596 81801 10052 20033 30155 40274 57006 71022 885// 333 10075 555 53006
AAXX 16181 37661 42597 73101 10020 20004 39473 40249 57003 875// 333 10056
AAXX 16181 37905 42997 02501 10005 21009 40241 53011 333 10075
AAXX 16181 37740 42596 80501 10023 20013 39425 40248 57001 885// 333 10055
AAXX 16181 37925 42997 82701 10054 20047 30269 40239 57022 8807/ 333 10068
AAXX 16181 37864 32997 41803 10040 20026 40235 57008 84040 333 10090
AAXX 16181 37675 41495 82501 10024 20014 39549 40220 57017 75152 886// 333 10039 555 53003
AAXX 16181 37832 32997 70000 10041 20018 40239 57006 87/20 333 10084
AAXX 16184 60340 32970 13210 10129 20090 40265 58003 80002 333 10174 81070
BBXX 44139 16181 99442 70571 46/// /1815 10107 40061 57048 22200 00091 10707 70035 333 91219
AAXX 16184 89002 42397 80808 11006 21012 39700 49754 52025 888//
BBXX SKUN 16183 99499 70392 43/99 51813 10070 40252 5500 22214 00060 2//// 4////
BBXX SBLI 16181 99300 71592 43/98 10212 10181 40249 53027 22264 00216 2//// 4//// 426621110
BBXX SKWI 16184 99432 70422 43/97 80624 10137 40168 58004 22264 00170 20604 40808
BBXX SBLW 16183 99246 70559 43/98 40420 10226 40121 55001 22254 00261 29999 40505
BBXX SLCO 16184 99104 11430 43/97 51016 10283 40084 58011 22234 00281 2//// 4////
BBXX 9V8797 16184 99263 10542 43/98 12306 10217 40169 57010 22234 00256 2//// 4////
AAXX 16181 80402 NIL
AAXX 16181 80412 NIL
AAXX 16181 80416 NIL
AAXX 16181 80420 32470 20504 10322 20195 30096 40102 82800 333 30/// 56900 58017 82813 555 10115
AAXX 16181 80425 32470 82901 10300 20246 30081 40112 8347/ 333 31/// 5699/ 58012 83613 85460 555 10113
AAXX 16181 80426 32470 80702 10254 20207 39483 40129 885// 333 30/// 569// 58012 88616 555 10158
AAXX 16181 80427 11470 60202 10298 20241 39850 40102 60011 70262 8357/ 333 30/// 5699/ 58017 83613 83458 555 10119
AAXX 16181 80431 NIL
AAXX 16181 80434 NIL
AAXX 16181 80437 11459 82701 10295 20209 30006 40091 60011 76026 885// 333 31/// 569// 58015 88613 555 10097
AAXX 16181 80440 32570 61104 10307 20178 39890 40100 8453/ 333 30/// 5699/ 59014 84623 555 10110
AAXX 16181 80442 32470 4//// 10339 2//// 39967 4//// 84500 333 30/// 56900 58005 84613 555 10077
AAXX 16181 80472 32465 60702 10317 20226 39623 40099 82230 333 30/// 56990 58014 82816 84360 555 10145
AAXX 16181 80475 32560 61101 10311 20178 39736 40100 865// 333 31/// 569// 59005 86620 555 10120
AAXX 16181 80476 32370 6//// 10320 20261 30094 40124 8342/ 333 30/// 5699/ 58002 83610 83457
AAXX 16181 80478 NIL
AAXX 16181 80479 NIL
AAXX 16181 80400 NIL
AAXX 16181 80403 32470 60906 10312 20265 30099 40118 8221/ 333 30/// 5699/ 58001 82813 84456 555 10121
AAXX 16181 80405 NIL
AAXX 16181 80407 32470 6//// 10311 20227 30047 4//// 854// 333 30/// 569// 5//// 85616 555 10120
AAXX 16181 80410 12470 50902 10264 20215 39438 40113 60081 856// 333 30/// 569// 58011 85716 555 10150
AAXX 16181 80413 32470 70000 10292 20187 39618 40105 872// 333 30/// 569// 58015 87816 555 10135
AAXX 16181 80415 12470 40202 10304 20242 30059 40113 60061 842// 333 32/// 569// 58016 84816 555 10115
AAXX 16181 80419 NIL
AAXX 16181 80421 NIL
AAXX 16181 80423 11470 4//// 10311 20181 30060 40078 69971 70250 84200 333 30/// 56200 58004 84810 555 10076
AAXX 16181 80428 32470 80502 10323 20229 39913 40096 85501 333 30/// 56909 58013 85617 555 10109
AAXX 16181 80432 NIL
AAXX 16181 80435 11470 60505 10308 20224 30009 40084 60031 70265 862// 333 31/// 569// 58014 86813 555 10082
AAXX 16181 80438 32565 72506 10226 20189 38513 48510 8353/ 333 30/// 5699/ 58009 83620 85360 555 10195
AAXX 16181 80444 32470 3//// 10328 2//// 30024 4//// 83200 333 30/// 56200 58004 83813 555 10072
AAXX 16181 80447 31560 43603 10276 20202 39656 40075 70222 84500 333 30/// 56900 58011 84620 555 10128
AAXX 16181 80448 32570 40702 10316 20234 3//// 4//// 84200 333 30/// 56900 5//// 84820
AAXX 16181 80450 32475 81103 10309 20234 30059 40114 84508 333 30/// 56909 58009 84616 85280 555 10111
AAXX 16181 80453 NIL
AAXX 16181 80457 32470 7//// 10333 20102 30014 40099 83108 333 30/// 56909 58002 83813 555 10099
AAXX 16181 80462 NIL
AAXX 16184 78397 111574 71707 10305 20214 30122 40138 60001 70522 81208 333 00909 10310 20222 58012 81824 87274
AAXX 16181 01488 16/// /2301 10001 21003 6//// 333 10006 4/014 91101
AAXX 16181 48852 11496 80000 10184 20184 30188 40198 57012 60251 76366 8672/ 333 58026 86894 88499 96163
AAXX 16181 48855 11597 80503 10216 20189 30183 40191 58010 69981 70262 888// 333 58023 83895 88697
AAXX 16181 48848 11597 83204 10158 20146 30206 40214 58011 69981 70262 888// 333 58019 85895 88697
AAXX 16181 01059 11589 11304 11002 21032 39875 49884 53016 60002 70100 81100 333 10016 91114
AAXX 16184 71868 16/// /2203 11127 21153 39788 40247 58022 60001 333 11125 21210 70000
AAXX 16184 71300 16/// /3110 10014 21035 30063 40186 53015 60001 333 10073 20014 70015
AAXX 16184 71309 16/// /2406 11175 21232 30221 40233 58003 60001 333 11125 21209 70006 555 10070
AAXX 16184 71311 17/// /2413 10074 20056 39937 49961 53006 60051 7//4/ 333 10101 20004 70103
AAXX 16184 71315 17/// /2716 10023 21008 39923 49976 53032 69931 7//4/ 333 10040 21029 70153 555 10020
AAXX 16184 71317 17/// /2712 10070 20054 39914 49960 55006 60021 7//4/ 333 10106 20003 70121
AAXX 16184 71319 16/// /3309 11041 21083 39211 40068 51050 60001 333 10033 21041 70114
AAXX 16184 71320 16/// /3307 11285 21312 39964 49964 51002 60001 333 11249 21298 70000
AAXX 16184 71321 16/// /3204 11139 21165 39898 49941 58011 60001 333 11114 21233 70000
AAXX 16184 71322 16/// /3211 11241 21267 30141 40154 50005 60001 333 11230 21259 70010
AAXX 16184 71332 16/// /2310 11231 21255 30096 40127 50003 60001 333 11231 21314 70000
AAXX 16184 71137 16/// /2111 11083 21091 39288 40262 58005 60001 333 11067 21116 70003
AAXX 16184 71758 17/// /1913 10086 20080 39875 49950 58042 69981 7//4/ 333 10090 21005 70243
AAXX 16184 71771 46/// /2405 10075 20067 30126 40147 55002 6///1 333 10083 20036 7////
AAXX 16184 71959 16/// ///// 10119 20080 60001 333 10128 20012 70139
AAXX 16184 71970 16/// /2416 11041 21076 39560 40163 57028 60001 333 11039 21188 70000
AAXX 16184 71977 46/// /0000 11199 21199 39380 40112 55001 6///1 333 11199 21270 7//// 555 10010
AAXX 16184 71978 46/// /0303 11246 21271 39799 40129 56004 6///1 333 11241 21349 7////
AAXX 16184 71988 17/// /2826 10089 20042 30016 40035 53022 69971 7//4/ 333 10105 20060 70124
AAXX 16184 71989 16/// /0601 11361 21398 30129 40146 53010 60001 333 11286 21380 70000
AAXX 16184 71087 46/// /2704 11199 21221 39897 40109 51036 6///1 333 11180 21237 7////
AAXX 16184 71015 16/// ///// 10002 60001 333 10003 21069 70000
AAXX 16184 71017 16/// /2807 11322 21356 30086 40101 53003 60001 333 11300 21337 70000
AAXX 16184 71018 16/// ///04 11225 21252 39951 40040 58003 60001 333 11225 21313 70000
AAXX 16184 71019 46/// /3019 10009 21012 39726 40025 53046 6///1 333 10042 21002 7////
AAXX 16184 71020 46/// /0403 11180 21206 39833 40095 53026 6///1 333 10005 21242 7//// 555 10010
AAXX 16184 71021 46/// /0000 11174 21186 39753 40111 52015 6///1 333 11057 21235 7//// 555 10010
AAXX 16184 71250 16/// /1814 10027 20015 39956 40092 56044 60001 333 10027 21048 70000
AAXX 16184 71270 16/// /3413 10026 20004 39974 40196 58007 60001 333 10041 20013 70009
AAXX 16184 71295 16/// /2504 11161 21206 39839 40312 58002 60001 333 11161 21221 70000
AAXX 16184 71296 16/// /3207 10033 20003 39881 40189 58016 60001 333 10047 20005 70009
AAXX 16184 71402 46/// /1912 10042 20020 39875 49988 56037 6///1 333 10043 21023 7////
AAXX 16184 71407 16/// /2711 11215 21241 39999 40020 51001 60001 333 11181 21224 70000
AAXX 16184 71449 16/// /2303 11107 21145 39888 40312 50000 60001 333 11107 21172 70000
AAXX 16184 71450 16/// /1706 11051 21063 39499 40237 58004 60001 333 11051 21115 70000
AAXX 16184 71453 16/// /2310 11012 21074 39306 40237 52003 60001 333 11011 21097 70000 555 10010
AAXX 16184 71454 16/// /1806 11089 21112 39473 40186 58029 60001 333 11089 21186 70000
AAXX 16184 71456 16/// /2010 11077 21092 39605 40224 58019 60001 333 11077 21192 70000
AAXX 16184 71470 16/// /0504 11214 21236 39474 40120 53006 60001 333 11213 21285 70000
AAXX 16184 71476 17/// /0625 30151 50000 69981 7//4/ 333 70202
AAXX 16184 71482 46/// /0511 10036 30192 40231 50000 6///1 333 10036 20008 7////
AAXX 16184 71484 16/// /1414 10066 20058 30130 40148 50002 60001 333 10067 20014 70000
AAXX 16184 71487 16/// /1803 11077 21086 39364 40258 58007 60001 333 11070 21123 70000
AAXX 16184 71492 46/// ///01 11295 21322 39390 40113 51006 6///1 333 11218 21295 7//// 555 10020
AAXX 16184 71851 16/// /2105 11088 21111 39946 40297 58004 60001 333 11087 21168 70000
AAXX 16184 71885 16/// ///// 10026 60001 333 10027 7////
AAXX 16184 71886 16/// /2008 11106 21127 39637 40269 58008 60001 333 11106 21153 70000
AAXX 16184 71721 16/// /3306 11040 21089 39941 40190 50012 60001 333 10038 21041 70010
AAXX 16184 71724 16/// /3011 10006 21058 30135 40142 51043 60001 333 10079 20006 70140
AAXX 16184 71736 46/// ///// 10014 21051 6///1 333 10014 21038 7////
AAXX 16184 71742 46/// /1724 10037 20024 39833 40018 56039 6///1 333 10037 21045 7////
AAXX 16184 71744 17/// /2909 10058 20022 39922 49962 53022 60021 7//4/ 333 10076 21013 70082
AAXX 16184 71746 16/// /2807 10008 21044 30021 40246 53007 60001 333 10010 21002 70000
AAXX 16184 71747 16/// /2602 11129 21171 39810 40310 58001 60001 333 11106 21164 70006
AAXX 16184 71920 16/// /2730 10091 20061 30033 40039 53014 60001 333 10102 20068 70090
AAXX 16184 71935 12974 42910 11156 21171 39877 40090 53031 60001 83072 333 11093 21187 77999
AAXX 16184 71551 16/// /2006 11048 21055 39555 40234 58008 60001 333 11048 21113 70000
AAXX 16184 71556 16/// /2012 11071 21081 39619 40242 58010 60001 333 11070 21130 70000 555 10020
AAXX 16184 71577 46/// /2108 11121 21152 6///1 333 11121 21177 7////
AAXX 16184 71581 17/// /3503 11029 21047 39705 40192 50003 69931 7//4/ 333 10020 70036
AAXX 16184 71599 17/// /2803 10061 20061 39819 40017 53008 60031 7//4/ 333 10096 20026 70152
AAXX 16184 71151 16/// /2003 11132 21166 39776 40307 58003 60001 333 11131 21181 70000
AAXX 16184 71155 16/// ///// 11050 21071 60001 333 11038 21160 70000
AAXX 16184 71156 16/// /2605 11020 21059 39087 40207 50008 60001 333 11020 21110 70000 555 10010
AAXX 16184 71158 16/// /1906 11141 21167 39985 40277 58017 60001 333 11141 21261 70000
AAXX 16184 71159 16/// /1704 10063 20048 39867 49937 58033 60001 333 10064 21011 70017
AAXX 16184 71160 16/// /1505 11150 21175 39863 40083 56006 60001 333 11149 21275 70000
AAXX 16184 71162 16/// /0108 11125 21141 39848 40061 52013 60001 333 11119 21167 70000
AAXX 16184 71164 46/// /0000 11224 21249 30065 40149 50001 6///1 333 11224 21241 7////
AAXX 16184 71165 46/// ///04 11170 21187 39822 40113 50010 6///1 333 11160 21226 7////
AAXX 16184 71166 46/// /2307 39483 51023 6///1 333 7////
AAXX 16184 71356 16/// /3015 11263 21293 30064 40133 55001 60001 333 11251 21269 70012
AAXX 16184 71363 16/// /3117 11289 21320 30012 40069 53005 60001 333 11265 21291 70000
AAXX 16184 71364 16/// /0802 11254 21281 39998 40137 55001 60001 333 11240 21260 70000 555 10010
AAXX 16184 71365 16/// /3405 11192 21209 39898 40118 53019 60001 333 11165 21204 70000
AAXX 16184 71381 47/// /3019 11060 21076 6///1 7//4/ 333 21061 7////
AAXX 16184 71387 17/// /3108 11068 21096 39715 40090 51052 69961 7//4/ 333 10037 21068 70000
AAXX 16184 71388 46/// /3020 11045 21080 39922 40111 53058 6///1 333 10041 21045 7////
AAXX 16184 71393 16/// ///// 10009 21068 38935 40231 51010 60001 333 10029 21086 70000
AAXX 16184 71110 17/// /1729 10062 20057 39968 40027 56057 60121 7//4/ 333 10062 21008 70121
AAXX 16184 71141 16/// /3108 11297 21327 30060 40088 53004 60001 333 11271 21299 70000
AAXX 16184 71147 16/// /1709 11107 21128 60001 333 11104 21155 70000
AAXX 16184 71667 16/// /2807 11130 21188 30047 40306 58001 60001 333 11127 21159 70000
AAXX 16184 71669 16/// /2505 10014 21074 38595 40236 50008 60001 333 10014 21107 70000
AAXX 16184 71807 17/// /1725 10045 20032 30054 40073 58045 60061 7//4/ 333 10046 21023 70061
AAXX 16184 71837 16/// ///// 10007 60001 333 21084 7////
AAXX 16184 71839 16/// ///// 10022 60001 333 10022 7////
AAXX 16184 71612 16/// /0104 10030 21033 30065 40155 51024 60001 333 10090 20027 70110
AAXX 16184 71619 17/// /2814 10034 20011 39882 49939 53011 60011 7//4/ 333 10036 21020 70380
AAXX 16184 71622 16/// ///// 10007 21024 39895 40238 53003 60001 333 10013 21002 70022
AAXX 16184 71435 16/// /2605 11157 21197 39674 40302 58001 60001 333 11155 21200 70012
AAXX 16184 71444 16/// /2402 11107 21116 39489 40280 58008 60001 333 11106 21233 70000
AAXX 16184 71472 16/// /1809 10074 20068 30118 40135 50052 60001 333 10075 20027 70032
AAXX 16184 71243 16/// /2715 10034 21053 39155 40265 51016 60001 333 10034 21079 70000
AAXX 16184 71246 16/// /2506 11045 21084 39482 40158 51009 60001 333 11045 21161 70000
AAXX 16184 91753 01475 70707 10269 20242 30089 40121 53011 69982 7152/ 84831 333 10279 20264 69987 83818 83633 90710 91114 555 69905
AAXX 16184 91754 06/// /0806 10277 20231 30080 40121 53010 60001 333 60007 555 60005
AAXX 16184 71832 16/// /2305 11178 21206 39923 40267 58010 60001 333 11140 21216 70000 555 10100
AAXX 16184 71858 16/// /2404 11126 21154 39966 40262 58010 60001 333 11124 21264 70000
AAXX 16184 71501 16/// /3504 11250 21276 30144 40146 58002 60001 333 11244 21334 70006
AAXX 16184 71512 17/// /2604 10021 20021 39889 49902 53006 60011 7//4/ 333 10027 21057 70094
AAXX 16184 71514 16/// /2010 11053 21070 39540 40259 57011 60001 333 11053 21133 70000
AAXX 16184 71522 46/// /2912 11088 21112 39607 40097 5/046 6///1 333 7////
AAXX 16184 71104 11416 81402 11016 21024 39125 40257 56002 60051 77177 855// 333 11014 21042 47034 70080 90973 93105
AAXX 16184 78397 111574 71707 10305 20214 30122 40138 60001 70522 81208 333 00909 10310 20222 58012 81824 87274
BBXX 44150 16181 99425 70640 46/// /2914 10106 40053 52003 22200 00110 10806 70030 333 91217
AAXX 16184 71137 16/// /2111 11083 21091 39288 40262 58005 60001 333 11067 21116 70003
AAXX 16184 71868 16/// /2203 11127 21153 39788 40247 58022 60001 333 11125 21210 70000
AAXX 16184 71435 16/// /2605 11157 21197 39674 40302 58001 60001 333 11155 21200 70012
AAXX 16184 71444 16/// /2402 11107 21116 39489 40280 58008 60001 333 11106 21233 70000
AAXX 16184 71472 16/// /1809 10074 20068 30118 40135 50052 60001 333 10075 20027 70032
AAXX 16184 71832 16/// /2305 11178 21206 39923 40267 58010 60001 333 11140 21216 70000 555 10100
AAXX 16184 71858 16/// /2404 11126 21154 39966 40262 58010 60001 333 11124 21264 70000
AAXX 16184 71807 17/// /1725 10045 20032 30054 40073 58045 60061 7//4/ 333 10046 21023 70061
AAXX 16184 71935 12974 42910 11156 21171 39877 40090 53031 60001 83072 333 11093 21187 77999
BBXX 44150 16181 99425 70640 46/// /2914 10106 40053 52003 22200 00110 10806 70030 333 91217
AAXX 16184 71104 11416 81402 11016 21024 39125 40257 56002 60051 77177 855// 333 11014 21042 47034 70080 90973 93105
AAXX 16181 80400 NIL
AAXX 16181 80403 32470 60906 10312 20265 30099 40118 8221/ 333 30/// 5699/ 58001 82813 84456 555 10121
AAXX 16181 80405 NIL
AAXX 16181 80407 32470 6//// 10311 20227 30047 4//// 854// 333 30/// 569// 5//// 85616 555 10120
AAXX 16181 80410 12470 50902 10264 20215 39438 40113 60081 856// 333 30/// 569// 58011 85716 555 10150
AAXX 16181 80413 32470 70000 10292 20187 39618 40105 872// 333 30/// 569// 58015 87816 555 10135
AAXX 16181 80415 12470 40202 10304 20242 30059 40113 60061 842// 333 32/// 569// 58016 84816 555 10115
AAXX 16181 80419 NIL
AAXX 16181 80421 NIL
AAXX 16181 80423 11470 4//// 10311 20181 30060 40078 69971 70250 84200 333 30/// 56200 58004 84810 555 10076
AAXX 16181 80428 32470 80502 10323 20229 39913 40096 85501 333 30/// 56909 58013 85617 555 10109
AAXX 16181 80432 NIL
AAXX 16181 80435 11470 60505 10308 20224 30009 40084 60031 70265 862// 333 31/// 569// 58014 86813 555 10082
AAXX 16181 80438 32565 72506 10226 20189 38513 48510 8353/ 333 30/// 5699/ 58009 83620 85360 555 10195
AAXX 16181 80444 32470 3//// 10328 2//// 30024 4//// 83200 333 30/// 56200 58004 83813 555 10072
AAXX 16181 80447 31560 43603 10276 20202 39656 40075 70222 84500 333 30/// 56900 58011 84620 555 10128
AAXX 16181 80448 32570 40702 10316 20234 3//// 4//// 84200 333 30/// 56900 5//// 84820
AAXX 16181 80450 32475 81103 10309 20234 30059 40114 84508 333 30/// 56909 58009 84616 85280 555 10111
AAXX 16181 80453 NIL
AAXX 16181 80457 32470 7//// 10333 20102 30014 40099 83108 333 30/// 56909 58002 83813 555 10099
AAXX 16181 80462 NIL
AAXX 16181 0000075401SAVN20 SVMR 161800 METAR SVCR 161800Z 09012KT 9999 FEW013 SCT060 31/27 Q1012
AAXX 16181 METAR SVMC 161800Z /////KT 9999 BKN013 31/23 Q1012
AAXX 16181 METAR SVBM 161800Z 09004KT 9999 BKN016 26/22 Q1015 BECMG
AAXX 16181 METAR SVBS 161800Z 00000KT 9999 BKN016 29/19 Q1013
AAXX 16181 METAR SVMI 161800Z 02003KT 9999 SCT016 30/24 Q1011 NOSIG
AAXX 16181 METAR SVFM 161800Z NIL
AAXX 16181 METAR SVBC 161800Z NIL
AAXX 16181 METAR SVCU 161800Z 05008KT 9999 FEW013 32/20 Q1011
AAXX 16181 METAR SVMG 161800Z NIL
AAXX 16181 METAR SVAC 161800Z 02005KT 9999 SCT013 SCT080 30/24 Q1011 BECMG
AAXX 16181 METAR SVMT 161800Z 05010KT 9999 BKN013 31/22 Q1008
AAXX 16181 METAR SVBI 161800Z 11007KT 9999 SCT023 31/18 Q1011
AAXX 16181 METAR SVCB 161800Z /////KT 9999 SCT013 33/// Q1007
AAXX 16181 METAR SVVA 161800Z 07004KT 9999 FEW016 SCT100 32/23 Q1012
AAXX 16181 METAR SVSO 161800Z 11003KT 9999 BKN020 31/18 Q1012
AAXX 16181 0000102701SMVN20 SVMR 161800
AAXX 16181 80402 NIL
AAXX 16181 80412 NIL
AAXX 16181 80416 NIL
AAXX 16181 80420 32470 20504 10322 20195 30096 40102 82800 333 30/// 56900 58017 82813 555 10115
AAXX 16181 80425 32470 82901 10300 20246 30081 40112 8347/ 333 31/// 5699/ 58012 83613 85460 555 10113
AAXX 16181 80426 32470 80702 10254 20207 39483 40129 885// 333 30/// 569// 58012 88616 555 10158
AAXX 16181 80427 11470 60202 10298 20241 39850 40102 60011 70262 8357/ 333 30/// 5699/ 58017 83613 83458 555 10119
AAXX 16181 80431 NIL
AAXX 16181 80434 NIL
AAXX 16181 80437 11459 82701 10295 20209 30006 40091 60011 76026 885// 333 31/// 569// 58015 88613 555 10097
AAXX 16181 80440 32570 61104 10307 20178 39890 40100 8453/ 333 30/// 5699/ 59014 84623 555 10110
AAXX 16181 80442 32470 4//// 10339 2//// 39967 4//// 84500 333 30/// 56900 58005 84613 555 10077
AAXX 16181 80472 32465 60702 10317 20226 39623 40099 82230 333 30/// 56990 58014 82816 84360 555 10145
AAXX 16181 80475 32560 61101 10311 20178 39736 40100 865// 333 31/// 569// 59005 86620 555 10120
AAXX 16181 80476 32370 6//// 10320 20261 30094 40124 8342/ 333 30/// 5699/ 58002 83610 83457
AAXX 16181 80478 NIL
AAXX 16181 80479 NIL
AAXX 16181 37279 32994 00903 10102 21033 39986 40128 57016 333 10165
AAXX 16181 37308 329// 00000 10014 21015 39549 40213 52006 333 10120
AAXX 16181 37531 329// 01203 10010 21025 39492 40233 57016 333 10075
AAXX 16181 37553 326// 81801 10027 21009 39568 40226 57011 885// 333 10070
AAXX 16181 37651 16/// ///00 11023 21030 3//// 4//// 5//// 60002 333 10063
AAXX 16181 37492 NIL
AAXX 16181 14024 11398 81910 10056 20042 38827 48252 57037 69922 76064 8587/ 333 10058 82808 83615 91120 95000
AAXX 16181 14106 11495 81806 10118 20100 39847 49913 57008 60122 76564 887// 333 10078 88710 95090
AAXX 16184 61974 11470 10000 10250 20236 40097 69912 70281 81200 333 10328 55077 59014 81819
AAXX 16184 61986 12470 21504 10268 20230 40098 60002 82200 333 10295 59018 82818
AAXX 16184 61988 12470 31205 10235 20206 40110 60002 83800 333 10286 59010 83818 91120
AAXX 16184 61989 NIL
AAXX 16184 61990 11458 81409 10244 20208 40119 60112 78022 88800 333 10284 55088 59022 81706 86814 84650 91120
AAXX 16184 61995 11470 21208 10203 20186 39630 60022 70181 82200 333 10264 55106 59027 82818
AAXX 16181 48900 32497 30306 10242 20194 30098 40108 57006 83800 333 58004 81894 83696
AAXX 16181 48917 32598 70504 10273 20213 30090 40096 57010 81208 222// 00286 333 59003 81895 87299
AAXX 16181 48918 32498 70505 10262 20217 30107 40118 58002 83908 222// 00262 2//// 333 58006 82894 82995 8629 9 91116 91502
AAXX 16181 48914 32698 70501 10255 20236 30108 40110 58004 82508 333 58007 82696 87299
AAXX 16181 48919 11598 70511 10270 20245 30072 40094 58006 69941 70382 8321/ 22200 02275 333 59006 83895 8749 9
AAXX 16181 48916 11597 73601 10246 20228 30061 40108 57006 60021 78082 879// 333 58011 86995 96160
AAXX 16184 68383 16/// /0000 10220 20149 39957 48604 52017 69922 333 10294 20220 91000 555 20002 91020
AAXX 16184 64700 32960 20206 10234 20040 39787 40132 80002 333 10317 58006 82075
AAXX 16184 64750 32960 60000 10250 20132 39680 40092 8002 91754 333 10360 58006 86075
BBXX 44255 16181 99473 70573 46/// /1813 10066 4//// 5//// 22200 0//// 1//// 70/// 333 912//
AAXX 16184 89578 46/// /2101 11351 36928 4//// 5////
AAXX 16184 89016 46/// /1009 11001 29066 39368 4//// 5////
AAXX 16184 89577 46/// /2703 11377 35802 4//// 5////
AAXX 1618/ 89767 46/// ///// 11082 39912 4//// 5////
BBXX 44255 16181 99473 70573 46/// /1813 10066 4//// 5//// 22200 0//// 1//// 70/// 333 912//
AAXX 16184 40310 32960 20000 10072 21013 38974 48514 52010 80002 333 10154 82070
AAXX 16184 04211 47/84 /1210 11072 21114 39871 40032 52015 72477 333 11058 21108 91125
AAXX 16184 04220 07484 71605 11075 21087 39994 40047 57001 60012 72270 333 11042 21129 55300 20004 69917 83/12 87/67
AAXX 16184 04221 45784 71212 11061 21126 30013 40051 52005 333 11050 21078 81/50 85/56 87/58
AAXX 16184 04231 12884 70608 11044 21117 39974 40048 57008 6///2 8707/ 333 11043 21065 85357 87459
AAXX 16184 04234 47658 70816 11038 21105 30004 40014 57024 78087 333 11038 21065 85/40 87/// 91124 91024
AAXX 16184 04241 47413 80919 11039 21047 39979 40018 57020 77477 333 11026 21047 81/19 85/24 88/28
AAXX 16184 04250 07550 81521 11019 21050 39902 40007 57020 60042 77187 333 11017 21041 55300 20007 69967 81/22 85/30 88/37 91133
AAXX 16184 04254 47516 71618 11011 21079 39910 40024 57019 77177 333 10005 21046 87/23 91137 91223 91037
AAXX 16184 04260 45684 71316 11009 21108 39998 40042 57020 333 11007 21029 87/38
AAXX 16184 04270 45984 12503 11072 21151 30077 40117 57011 333 11052 21084 81/60
AAXX 16184 04272 05684 5//// 11029 21071 30031 40104 57012 69912 333 11028 21053 69917 81/33 85/50
AAXX 16184 04312 46/// ///// 11274 21312 30007 40050 52001
AAXX 16184 04320 NIL
AAXX 16184 04339 45/84 ///// 11151 21195 39937 40032 52008 333 11094 21156 55300 20000
AAXX 16184 04360 06/// /2821 11088 21169 39979 40051 57007 6///2 333 11073 21102 55300 20000 6///7 91131
AAXX 16184 04361 46/// /3407 11079 21205 39997 40051 57005 333 11070 21100
AAXX 16184 04390 05684 12504 11032 21090 30014 40109 57003 60122 333 11013 21040 60037 81/37 91214
AAXX 16180 44214 NIL
AAXX 16180 44231 319// 00000 11318 21375 38836 40621 52006 70400
AAXX 16180 44259 32997 02102 11248 21294 39388 40396 53013
AAXX 16180 44277 329// 50000 11192 21218 37831 40497 53001 83074
AAXX 16180 44288 32999 02502 11151 21217 38219 40445 52006
AAXX 16180 44292 32999 00000 11302 21325 38798 40545 52011
AAXX 16180 44304 329// 02305 11308 21338 39080 40479 52013
AAXX 16180 44354 329// 02303 11224 21256 39174 40401 53002
AAXX 16180 44373 32999 42702 11174 21224 38596 40421 51003 83070
AAXX 16181 50136 32970 02501 11243 21276 39667 40248 54000 333 11153
AAXX 16181 50745 32967 02702 11145 21167 30042 40239 57002 333 11096
AAXX 16181 50774 32960 00000 11233 21268 39892 40225 57011 333 11164
AAXX 16181 50788 32970 02506 11174 21221 30115 40208 57005 333 11164
AAXX 16181 51133 NIL
AAXX 16181 51431 NIL
AAXX 16181 51747 NIL
AAXX 16181 52203 NIL
AAXX 16181 52418 NIL
AAXX 16181 52681 NIL
AAXX 16181 53564 NIL
AAXX 16181 53614 32970 03601 11110 21130 39003 40374 57004 333 05600 11035
AAXX 16181 53646 32970 02701 11117 21191 38952 40382 57006 333 05504 11049
AAXX 16181 53798 NIL
AAXX 16181 53845 32965 02701 11079 21129 39188 40371 57008 333 05501 11009
AAXX 16181 53959 NIL
AAXX 16181 54094 32960 02002 11190 21245 39959 40285 57006 333 11142
AAXX 16181 54102 32980 00701 11245 21277 39109 40426 57003 333 11186
AAXX 16181 54161 32960 02205 11156 21232 39971 40288 57012 333 11125
AAXX 16181 54292 32970 02702 11175 21248 39953 40300 57005 333 11136
AAXX 16181 54374 32962 03602 11230 21261 39853 40364 57002 333 11122
AAXX 16181 54423 NIL
AAXX 16181 54618 NIL
AAXX 16181 54843 32976 02702 11072 21147 30345 40375 57007 333 11013
AAXX 16181 54909 32963 01101 11051 21108 30305 40372 57007 333 10009
AAXX 16181 56029 32680 73201 11059 21133 36417 52004 879// 333 05204 10009
AAXX 16181 57127 NIL
AAXX 16181 57131 32970 73201 11021 21068 39849 40367 57009 80002 333 10025
AAXX 16184 41858 31/00 90000 10113 20100 30117 40165 74544 89/// 333 56999 59007 70000
AAXX 16184 41863 NIL
AAXX 16184 41886 31905 92702 10140 20130 30142 40163 74544 89/// 333 58006 70000
AAXX 16184 41895 32950 02701 10110 20100 30146 40170 333 58003 70000
AAXX 16184 41909 NIL
AAXX 16184 41915 31/01 90000 10145 20145 30140 40167 74544 89/// 333 58000 70000
AAXX 16184 41926 31908 00000 10090 20080 30156 40170 74244 333 58000 70000
AAXX 16184 41929 31950 00000 10125 20120 30150 40160 70544 333 59001 70000
AAXX 16184 41933 31920 00000 10147 20140 30152 40161 71044 333 58001 70000
AAXX 16184 41939 31940 00000 10136 20130 40164 70544 333 59003 70000
AAXX 16184 41941 31940 00000 10168 20150 30144 40150 70500 333 58000 70000
AAXX 16184 41946 32950 00000 10130 20120 30157 40161 333 59003 70000
AAXX 16184 41947 31940 00000 10130 20110 30154 40156 70500 333 59004 70000
AAXX 16184 41951 NIL
AAXX 16184 41953 NIL
AAXX 16184 41958 31930 00000 10145 20130 30151 40153 70500 333 58001 70000
AAXX 16184 41960 31940 00000 10126 20120 30164 40165 70500 333 58002 70000
AAXX 16184 41963 31920 00000 10143 20130 30153 40156 70500 333 58001 70000
AAXX 16184 41964 NIL
AAXX 16184 41965 NIL
AAXX 16184 41966 NIL
AAXX 16184 41984 32940 00000 10122 20110 30147 40149 333 59005 70000
AAXX 16184 41989 NIL
AAXX 16184 41998 NIL
AAXX 16180 44203 329// 00000 11401 21427 38522 40701 52009
AAXX 16180 44207 329// 00000 11288 21325 38395 40561 53007
AAXX 16180 44212 32999 01806 11322 21352 39293 40543 51001
AAXX 16180 44213 32699 60000 11308 21339 38909 40599 52002 86500
AAXX 16180 44215 32998 00000 11310 21334 38485 40563 51001
AAXX 16180 44218 329// 01801 11253 21284 38693 40515 53002
AAXX 16180 44225 329// 60000 11323 21339 38350 40612 53004 86010
AAXX 16180 44230 329// 00302 11305 21338 38914 40610 52006
AAXX 16180 44232 329// 00000 11364 21396 39262 40596 52008
AAXX 16180 44237 NIL
AAXX 16180 44239 329// 01301 11302 21339 38904 40523 52006
AAXX 16180 44241 329// 00000 11333 21356 39414 40543 52015
AAXX 16180 44256 32999 03207 11192 21218 39417 40348 51007
AAXX 16180 44265 329// 00000 11235 21260 38929 40484 54000
AAXX 16180 44272 329// 40000 11235 21275 38273 40470 52004 82038
AAXX 16180 44275 328// 60000 11249 21274 37752 40492 54000 85075
AAXX 16180 44282 NIL
AAXX 16180 44284 328// 63601 11279 21309 37893 40607 51003 84074
AAXX 16180 44285 32999 00000 11280 21308 38390 40558 51005
AAXX 16180 44287 329// 50606 11165 21234 38166 40456 53004 80007
AAXX 16180 44294 329// 03604 11270 21299 38629 40522 52011
AAXX 16180 44298 329// 03207 11287 21293 38779 40481 52011
AAXX 16180 44302 329// 02704 11260 21302 39194 40441 51008
AAXX 16180 44305 32999 02703 11280 21316 39125 40429 52014
AAXX 16180 44313 32999 21803 11243 21290 39431 40357 56002 80004
AAXX 16180 44314 32998 03201 11201 21242 39198 40385 52008
AAXX 16180 44317 32998 03208 11224 21263 38989 40398 52009
AAXX 16180 44336 329// 00000 11278 21308 38778 40542 53009
AAXX 16180 44341 329// 03508 11179 21251 38664 40440 51003
AAXX 16180 44347 32999 00000 11194 21243 38785 40426 52007
AAXX 16180 44352 32999 02704 11226 21258 38972 40400 53005
AAXX 16180 44358 329// 00000 11267 21285 39162 40453 52001
AAXX 16184 89664 11561 60705 11048 21123 39841 49884 54000 69903 70172 86500 333 56300 82830 86650 90923 93197
AAXX 16181 48803 32497 80000 10151 20140 30126 40243 50002 888// 333 58018 83894 88696
AAXX 16184 47407 11/58 71705 11130 21151 39936 40120 50003 60011 78582 873//
AAXX 16184 47409 12/70 12408 11101 21150 30038 40095 53001 60001 81200
AAXX 16184 47418 12980 03107 11099 21160 30054 40106 52006 60001
AAXX 16184 47421 17/68 /3111 11050 21122 30087 40132 50008 60021 77170
AAXX 16184 47430 11/65 60803 11090 21109 30082 40139 53006 69901 78582 86200
AAXX 16184 47570 17/17 /2809 11017 21030 39918 40187 53020 69901 77177
AAXX 16184 47575 11/20 82806 11042 21054 30145 40150 51010 60061 78582 883//
AAXX 16184 47584 11/65 11603 11056 21083 39956 40155 51006 69901 70281 81200
AAXX 16184 47604 11/65 73113 10018 21029 30185 40194 53017 69951 72682 872//
AAXX 16184 47605 11/60 70406 10020 20002 30178 40221 53017 60061 72798 872//
AAXX 16184 47610 11/60 60402 11017 21028 39677 40199 53010 69901 78588 86200
AAXX 16184 47624 12/80 13206 10005 21041 30034 40178 53012 60001 81500
AAXX 16184 47629 12/80 13303 11018 21038 30131 40171 53011 60001 81100
AAXX 16184 47636 11/65 73005 10023 20007 30139 40210 53007 69901 72682 872//
AAXX 16184 47651 13/// /2820 10032 21042 30185 40208 53005 60001
AAXX 16184 47655 15/70 /2812 10030 21017 30130 40189 51010 60001
AAXX 16184 47675 17/70 /0907 10054 20010 30072 40165 53009 69901 70060
AAXX 16184 47741 11/65 82308 10020 21007 30220 40248 51004 60031 78382 882//
AAXX 16184 47746 11360 80909 10009 21004 30221 40241 51008 60071 78582 88200
AAXX 16184 47750 11/58 81906 10013 20003 30204 40233 51008 60121 79388 889//
AAXX 16184 47765 11/65 63403 10018 21018 30199 40267 53007 69901 72682 86200
AAXX 16184 47772 12/80 13303 10033 21042 30132 40236 51011 60001 81500
AAXX 16184 47800 15/84 /3303 10011 21082 30280 40285 53004 60001
AAXX 16184 47815 12/65 72304 10028 21058 30256 40273 53004 60001 87200
AAXX 16184 47817 12/80 73205 10055 21036 30230 40275 50000 60001 872//
AAXX 16184 47830 12/80 12902 11003 21038 30253 40272 58001 60001 81100
AAXX 16184 47887 12/70 30902 10019 21036 30222 40265 53005 60001 83200
AAXX 16184 47891 12/70 22806 10030 21033 30235 40253 51006 60001 82100
AAXX 16184 47895 12/80 12910 10031 21041 30237 40245 51006 60001 81200
AAXX 16184 47927 11/60 70216 10170 20117 30193 40243 58010 69901 72162 878//
AAXX 16181 48826 31596 80000 10151 20127 30100 40239 56003 71022 888// 333 58017 82895 88697
AAXX 16181 48839 32497 80508 10164 20106 30167 40234 56005 888// 222// 00183 2//// 333 58027 83894 88696
AAXX 16181 48808 32498 80000 10134 20077 39966 40258 52005 888// 333 58005 83894 88696
AAXX 16181 48830 32798 83605 10123 20050 39945 40264 51009 885// 333 58022 88697
AAXX 16184 41241 36/// /1704 10212 20062 30128 40166 333 0E024 10283 59019
AAXX 16184 41263 36/// /0000 10200 20022 39490 40181 333 0E019 10277 59019
AAXX 16184 41270 36/70 /3509 10220 20130 30113 40125 333 0E021 10257 59020
AAXX 16184 47401 11/50 72811 11070 21119 30075 40090 55000 60081 78582 872//
AAXX 16184 47412 11/70 22607 11068 21139 30087 40121 50002 69901 70282 82200
AAXX 16184 47420 15/70 /3017 11055 21148 30048 40083 50004 60001
AAXX 16184 47426 15/70 /3508 11076 21151 30069 40119 52007 60001
AAXX 16184 47582 11/08 83013 11028 21056 30143 40171 53010 60021 78682 883//
AAXX 16184 47590 11/40 72304 11011 21028 30110 40166 53009 69951 72682 873//
AAXX 16184 47600 17/70 /3113 10025 21030 30208 40216 53015 60011 76776
AAXX 16184 47648 12/70 22906 10027 21026 30130 40165 53009 60001 82200
AAXX 16184 47662 12980 02804 10033 21072 30125 40171 53009 60001
AAXX 16184 47678 17/70 /2909 10087 21009 39985 40175 53008 69901 72360
AAXX 16184 47740 17/40 /2805 10007 21004 30209 40245 51010 60041 78587
AAXX 16184 47778 15/70 /3310 10044 21046 30143 40229 53010 60001
AAXX 16184 47807 12/70 53006 10051 21061 30255 40274 50002 60001 85200
AAXX 16184 47827 12/82 73407 10050 21038 30232 40272 54000 60001 874//
AAXX 16184 47843 17/84 /3406 10052 21021 30251 40285 55000 69901 75185
AAXX 16184 47893 12/70 12702 10010 21042 30246 40252 53009 60001 81200
AAXX 16184 47909 11/65 73410 10146 20081 30237 40247 56004 69901 70282 872//
AAXX 16184 47918 11/65 80314 10174 20114 30224 40242 58007 69901 70262 888//
AAXX 16184 47936 11/70 83614 10163 20083 30187 40247 58004 69901 72582 888//
AAXX 16184 47945 11/60 80113 10180 20125 30190 40215 58010 69951 72562 8787/
AAXX 16184 47971 11357 81005 10188 20166 30163 40173 53001 60011 78182 882//
AAXX 16184 47991 16/// /1804 10239 20198 30150 40160 56008 60001
AAXX 16184 48451 32961 20302 10251 20184 30127 40139 57004 80005 333 58018 70000
AAXX 16184 89664 11561 60705 11048 21123 39841 49884 54000 69903 70172 86500 333 56300 82830 86650 90923 93197
AAXX 16184 16021 11/03 91717 11028 21034 37730 48248 57049 69942 77174 333 11014 43018 89/01 92802 93101
AAXX 16181 08501 NIL
AAXX 16181 08505 32262 62502 10187 20169 30262 40312 51003 84802 333 10196 82706 83709 85070
AAXX 16181 08509 11460 52306 10184 20170 30245 40310 55004 60032 78082 82804 333 10194 81815 83070 91110
AAXX 16181 08512 32480 62202 10175 20150 30235 40321 54000 83801 333 10195 81816 83640
AAXX 16181 08515 32489 32302 10188 20138 30208 40329 56001 83801 333 10205 81819 83640 910// 911//
AAXX 16181 08533 32/// /0000 10169 20145 30262 40291 54000 333 10181 91008 91111
AAXX 16181 08541 32/// /2706 10160 20140 30159 40277 57005 333 10173
AAXX 16181 08545 11565 53305 10115 20065 30172 40256 52025 60032 70282 84802 333 10163 83825 91011 91111
AAXX 16181 08548 12/// /3404 10125 20111 30047 40253 52019 60042 333 10156 91008 91110
AAXX 16181 08554 32565 72707 10165 20136 30276 40286 57004 86801 333 10181 82824 86640
AAXX 16181 08558 NIL
AAXX 16181 08560 11358 83105 10079 20061 39473 40239 53024 60072 71062 887// 333 10125 88707 91011 91112
AAXX 16181 08567 12/// /3206 10091 20048 39574 40242 52044 60042 333 10142 91010 91110
AAXX 16181 08570 11465 62909 10137 20111 39765 40221 52005 60012 72162 8487/ 333 10161 81812 83817 91114
AAXX 16181 08575 12/// /3106 10067 20020 39398 40217 52035 60092 333 10136 91012 91115
AAXX 16181 08579 12/// /2406 10164 20149 30135 40259 57006 69932 333 10176 91010 91112
AAXX 16181 80400 NIL
AAXX 16181 80403 32470 60906 10312 20265 30099 40118 8221/ 333 30/// 5699/ 58001 82813 84456 555 10121
AAXX 16181 80405 NIL
AAXX 16181 80407 32470 6//// 10311 20227 30047 4//// 854// 333 30/// 569// 5//// 85616 555 10120
AAXX 16181 80410 12470 50902 10264 20215 39438 40113 60081 856// 333 30/// 569// 58011 85716 555 10150
AAXX 16181 80413 32470 70000 10292 20187 39618 40105 872// 333 30/// 569// 58015 87816 555 10135
AAXX 16181 80415 12470 40202 10304 20242 30059 40113 60061 842// 333 32/// 569// 58016 84816 555 10115
AAXX 16181 80419 NIL
AAXX 16181 80421 NIL
AAXX 16181 80423 11470 4//// 10311 20181 30060 40078 69971 70250 84200 333 30/// 56200 58004 84810 555 10076
AAXX 16181 80428 32470 80502 10323 20229 39913 40096 85501 333 30/// 56909 58013 85617 555 10109
AAXX 16181 80432 NIL
AAXX 16181 80435 11470 60505 10308 20224 30009 40084 60031 70265 862// 333 31/// 569// 58014 86813 555 10082
AAXX 16181 80438 32565 72506 10226 20189 38513 48510 8353/ 333 30/// 5699/ 58009 83620 85360 555 10195
AAXX 16181 80444 32470 3//// 10328 2//// 30024 4//// 83200 333 30/// 56200 58004 83813 555 10072
AAXX 16181 80447 31560 43603 10276 20202 39656 40075 70222 84500 333 30/// 56900 58011 84620 555 10128
AAXX 16181 80448 32570 40702 10316 20234 3//// 4//// 84200 333 30/// 56900 5//// 84820
AAXX 16181 80450 32475 81103 10309 20234 30059 40114 84508 333 30/// 56909 58009 84616 85280 555 10111
AAXX 16181 80453 NIL
AAXX 16181 80457 32470 7//// 10333 20102 30014 40099 83108 333 30/// 56909 58002 83813 555 10099
AAXX 16181 80462 NIL
AAXX 16181 0000076501SAVN21 SVMR 161800 METAR SVLO 161800Z NIL
AAXX 16181 METAR SVGI 161800Z /////KT 9999 SCT010 31/18 Q1008 REDZ
AAXX 16181 METAR SVMN 161800Z 29002KT 9999 SCT013 BKN100 30/25 Q1011
AAXX 16181 METAR SVVL 161800Z 07005KT 9999 BKN016 25/21 Q1015
AAXX 16181 METAR SVGU 161800Z 05003KT 9999 BKN017 32/23 Q1010
AAXX 16181 METAR SVJM 161800Z NIL
AAXX 16181 METAR SVCZ 161800Z NIL
AAXX 16181 METAR SVVP 161800Z NIL
AAXX 16181 METAR SVVG 161800Z 27002KT 9000 RA OVC013 30/21 Q1009
AAXX 16181 METAR SVMD 161800Z 25011KT 9999 SCT020 SCT100 23/19 Q1019
AAXX 16181 METAR SVCL 161800Z /////KT 9999 SCT019 34/// Q1007
AAXX 16181 METAR SVSA 161800Z 36006KT 9999 SCT020 28/20 Q1012
AAXX 16181 METAR SVGD 161800Z 07004KT 9999 SCT020 32/23 Q////
AAXX 16181 METAR SVSR 161800Z 11004KT 9999 SCT016 BKN300 31/23 Q1011
AAXX 16181 METAR SVTM 161800Z NIL
AAXX 16181 METAR SVPA 161800Z /////KT 9999 SCTO13 33/10 Q1009
AAXX 16181 METAR SVSE 161800Z NIL
AAXX 16181 0000078201SAVN20 SVMR 161800 METAR SVCR 161800Z 09012KT 9999 FEW013 SCT060 31/27 Q1012
AAXX 16181 METAR SVMC 161800Z /////KT 9999 BKN013 31/23 Q1012
AAXX 16181 METAR SVBM 161800Z 09004KT 9999 BKN016 26/22 Q1015 BECMG
AAXX 16181 METAR SVBS 161800Z 00000KT 9999 BKN016 29/19 Q1013
AAXX 16181 METAR SVMI 161800Z 02003KT 9999 SCT016 30/24 Q1011 NOSIG
AAXX 16181 METAR SVFM 161800Z NIL
AAXX 16181 METAR SVBC 161800Z /////KT 9999 SCT010 32/22 Q1011
AAXX 16181 METAR SVCU 161800Z 05008KT 9999 FEW013 32/20 Q1011
AAXX 16181 METAR SVMG 161800Z NIL
AAXX 16181 METAR SVAC 161800Z 02005KT 9999 SCT013 SCT080 30/24 Q1011 BECMG
AAXX 16181 METAR SVMT 161800Z 05010KT 9999 BKN013 31/22 Q1008
AAXX 16181 METAR SVBI 161800Z 11007KT 9999 SCT023 31/18 Q1011
AAXX 16181 METAR SVCB 161800Z /////KT 9999 SCT013 33/// Q1007
AAXX 16181 METAR SVVA 161800Z 07004KT 9999 FEW016 SCT100 32/23 Q1012
AAXX 16181 METAR SVSO 161800Z 11003KT 9999 BKN020 31/18 Q1012
AAXX 16181 0000102701SMVN20 SVMR 161800
AAXX 16181 80402 NIL
AAXX 16181 80412 NIL
AAXX 16181 80416 NIL
AAXX 16181 80420 32470 20504 10322 20195 30096 40102 82800 333 30/// 56900 58017 82813 555 10115
AAXX 16181 80425 32470 82901 10300 20246 30081 40112 8347/ 333 31/// 5699/ 58012 83613 85460 555 10113
AAXX 16181 80426 32470 80702 10254 20207 39483 40129 885// 333 30/// 569// 58012 88616 555 10158
AAXX 16181 80427 11470 60202 10298 20241 39850 40102 60011 70262 8357/ 333 30/// 5699/ 58017 83613 83458 555 10119
AAXX 16181 80431 NIL
AAXX 16181 80434 NIL
AAXX 16181 80437 11459 82701 10295 20209 30006 40091 60011 76026 885// 333 31/// 569// 58015 88613 555 10097
AAXX 16181 80440 32570 61104 10307 20178 39890 40100 8453/ 333 30/// 5699/ 59014 84623 555 10110
AAXX 16181 80442 32470 4//// 10339 2//// 39967 4//// 84500 333 30/// 56900 58005 84613 555 10077
AAXX 16181 80472 32465 60702 10317 20226 39623 40099 82230 333 30/// 56990 58014 82816 84360 555 10145
AAXX 16181 80475 32560 61101 10311 20178 39736 40100 865// 333 31/// 569// 59005 86620 555 10120
AAXX 16181 80476 32370 6//// 10320 20261 30094 40124 8342/ 333 30/// 5699/ 58002 83610 83457
AAXX 16181 80478 NIL
AAXX 16181 80479 NIL
AAXX 16184 48357 32960 10000 10168 20137 30012 40187 57004 81001 333 5//// 70000
AAXX 16184 48357 32960 10000 10168 20137 30012 40187 57004 81001 333 5//// 70000
AAXX 16181 40703 11958 00000 11040 21058 38954 40275 54000 60001 71000 333 55000
AAXX 16181 40712 11612 22702 11054 21068 38707 40277 51001 60001 71021 81502 333 55006 27013 81640
AAXX 16181 40729 12660 50000 11010 21039 38349 40234 51003 60001 83408 333 55017 20677 83635 83269
AAXX 16181 40736 12960 60000 10092 20059 30252 40226 58005 60001 80008 333 55036 86269
AAXX 16181 40739 12965 50000 10020 21058 38696 40216 58001 60001 80006 333 55074 85269
AAXX 16181 40743 12965 00604 10044 21088 39079 40216 58001 60001 333 55060
AAXX 16181 40762 12962 00000 11020 21130 38563 40223 58004 60001 333 55064
AAXX 16181 40768 12660 61202 10000 21032 38274 40247 51006 60001 81406 333 55012 20576 81640 86269
AAXX 16181 40769 11956 40000 10014 21051 38308 40229 52008 60001 70521 80001 333 55052 20940 84069
AAXX 16181 40785 12960 20000 10046 21017 39098 40215 58002 60001 82030 333 55060 82360
AAXX 16181 40809 12965 00906 10042 21120 38510 40187 56003 60001 333 55078 21290
AAXX 16181 40821 12660 42702 10044 21043 38800 40216 53003 60001 81502 333 55084 21039 81635 84070
AAXX 16181 40831 12660 41702 10154 20087 30158 40166 50002 60001 84300 333 55074 81935 83640
AAXX 16181 40706 11415 50602 11048 21065 38680 40287 54000 60001 71022 83606 333 55022 20748 83715 85268
AAXX 16181 40718 11530 83105 10088 20084 30268 40239 51003 69901 71052 8552/ 333 55000 85620 88457
AAXX 16181 40732 11440 80000 10092 20071 30245 40220 58009 69901 75022 86607 333 55003 86715 88266
AAXX 16181 40745 11950 01602 11010 21037 39073 40264 58011 60001 70521 333 55036 20799
AAXX 16181 40754 11657 63102 10060 21034 38844 40208 53005 60001 70522 82476 333 55047 82640 84460 86270
AAXX 16181 40766 12660 81102 10050 21007 38720 40227 52011 60001 8432/ 333 55000 20544 82935 83640 88459
AAXX 16181 40800 12960 50000 10054 20007 38445 40183 53006 60001 85050 333 55055 2//// 85360
AAXX 16181 40811 11658 60000 10154 20058 30136 40163 53004 60001 70521 81531 333 55060 20419 81640 83360 86070
AAXX 16181 40841 12960 00902 10044 21086 38259 40187 50001 60001 333 55085 21240
AAXX 16181 40848 12960 10000 10064 21071 38524 40177 50002 60001 81030 333 55088 21417 81360
AAXX 16181 40856 12965 02002 10056 21128 38650 40178 55000 60001 333 55095
AAXX 16181 40875 12960 03502 10124 20016 30150 40162 51006 60001 333 55098 21594
AAXX 16184 89667 46/// /0805 11066 39888 4//// 5////
AAXX 1618/ 89828 46/// ///// 11379 36473 4//// 5////
AAXX 1618/ 89108 46/// ///// 11244 36882 4//// 5////
AAXX 1618/ 89879 46/// ///// 10004 39752 4//// 5////
AAXX 1618/ 89872 46/// ///// 11084 39837 4//// 5////
AAXX 1618/ 89869 46/// ///// 11100 39819 4//// 5////
AAXX 1618/ 89866 46/// ///// 11059 39767 4//// 5////
AAXX 1618/ 89329 46/// ///// 11144 38711 4//// 5////
AAXX 1618/ 89799 46/// ///// 11293 4//// 5////
AAXX 1618/ 89332 46/// ///// 11135 39216 4//// 5////
AAXX 1618/ 89769 46/// ///// 11079 39855 4//// 5////
AAXX 1618/ 89314 46/// ///// 11131 38167 4//// 5////
AAXX 1618/ 89108 46/// ///// 11246 36882 4//// 5////
AAXX 1618/ 89879 46/// ///// 10001 39752 4//// 5////
AAXX 1618/ 89872 46/// ///// 11083 39837 4//// 5////
AAXX 1618/ 89869 46/// ///// 11093 39819 4//// 5////
AAXX 1618/ 89329 46/// ///// 11149 38710 4//// 5////
AAXX 1618/ 89799 46/// ///// 11291 4//// 5////
AAXX 1618/ 89332 46/// ///// 11138 39216 4//// 5////
AAXX 1618/ 89314 46/// ///// 11130 38167 4//// 5////
AAXX 16184 89667 46/// /0804 11062 29056 39888 4//// 5////
AAXX 16184 89664 11561 60705 11048 21123 39841 49884 54000 69903 70172 86500 333 56300 82830 86650 90923 93197
AAXX 16184 48426 31557 20505 10246 20161 30128 40142 57005 70500 82105 333 58019
AAXX 16184 48465 31558 73505 10246 20206 30123 40128 57007 71022 83546 333 58014
AAXX 16184 48464 31557 83205 10236 20195 30109 40122 57003 71022 83476 333 58013 79999
AAXX 16181 53564 32975 00000 11162 21209 39322 40425 52004 333 05500 11057
AAXX 16181 53959 32965 02201 11044 21100 39898 40361 57002 333 10040
AAXX 16181 57127 32960 81401 10050 20027 39686 40307 57013 8807/ 333 10086
AAXX 16181 57461 32960 50901 10047 21009 30191 40359 57009 85030 333 10101
AAXX 16181 52533 32980 02201 11133 21166 38592 40372 57005 333 00000 11021
AAXX 16181 52652 32980 01101 11155 21186 38599 40368 57008 333 00056 11023
AAXX 16181 53588 32980 02506 11145 21283 37810 57001 333 11095
AAXX 16181 53772 31930 01402 11105 21156 39407 40391 57002 70400 333 11030
AAXX 16181 53915 32761 81102 11047 21084 38740 40344 57008 885// 333 05402 11008
AAXX 16181 54342 32962 00901 11178 21215 30258 40325 57011 333 11095
AAXX 16181 54511 32970 02501 11086 21181 30311 40354 57005 333 11005
AAXX 16181 56080 32980 70000 11090 21171 37147 57008 80002 333 05406 10002
AAXX 16181 56096 11770 83202 10040 21016 39008 40275 57007 69901 70060 885// 333 05501 10072
AAXX 16181 51076 32980 52501 11174 21199 39467 40425 52003 80002 333 00159 11082
AAXX 16181 51573 32975 20701 11064 21123 30325 40371 54000 80002 333 00152 11013
AAXX 16181 51709 32865 73601 11035 21071 38807 40351 52001 83502 333 00105 11001
AAXX 16181 52983 32961 62501 11091 21112 38148 57007 80002 333 05402 11007
AAXX 16181 54401 32970 03203 11147 21265 39464 40396 54000 333 11067
AAXX 16181 48887 32798 70502 10263 20195 30102 40108 57008 81508 333 58005 81697 87299
AAXX 16181 48870 11498 80205 10240 20211 30149 40156 58010 69991 72162 888// 333 58020 83894 88696
AAXX 16181 48877 11497 80208 10247 20217 30134 40139 57013 69911 78082 888// 333 58014 82894 83895 85696 96160
AAXX 16181 53798 32960 01801 11044 21125 30263 40365 57012 333 11002
AAXX 16181 56778 31659 83401 10069 20054 38142 57003 71000 885// 333 05201 10069
AAXX 16181 57265 32963 03601 10007 21047 30244 40360 57010 333 10070
AAXX 16181 57494 32965 00201 11014 21033 30324 40355 57003 333 10093
AAXX 16181 58362 32978 12702 11003 21102 30355 40364 57006 81030 333 10052
AAXX 16181 58040 32961 03401 11070 21135 30364 40378 57002 333 10006
AAXX 16181 58238 32962 00000 11038 21090 30328 40375 57005 333 10049
AAXX 16181 58251 31958 03402 11048 21080 30363 40368 57006 71000 333 10032
AAXX 16181 58752 32966 00202 10043 21072 30297 40344 57001 333 10123
AAXX 16181 59134 32965 00405 10090 20012 30119 40291 52007 333 10162
AAXX 16181 59287 32663 73603 10112 20009 30187 40274 52009 8554/ 333 10180
AAXX 16181 59431 32962 73402 10119 20042 30128 40277 52001 8704/ 333 10173
AAXX 16181 59758 32465 70705 10176 20114 30152 40229 57011 878// 333 10187
AAXX 16181 48892 32598 80210 10269 20242 30092 40097 58009 888// 333 58006 83895 85697 91116 91502
AAXX 16181 51133 11670 70000 11130 21160 39722 40421 57001 69901 77070 875// 333 05102 11061
AAXX 16181 51431 11970 80702 11064 21084 39559 40401 57002 69901 72270 8802/ 333 05152 11025
AAXX 16181 51747 32980 00000 11163 21195 39035 40407 52014 333 00200 11009
AAXX 16181 52203 32980 10902 11099 21177 39433 40363 57003 80002 333 00101 11006
AAXX 16181 52418 32980 31801 11107 21155 38961 40356 57008 80002 333 00000 11006
AAXX 16181 52681 32980 00701 11130 21189 38714 40383 57006 333 05252 11041
AAXX 16181 53798 32960 01801 11044 21125 30263 40365 57012 333 11002
AAXX 16181 54423 32980 00701 11154 21220 39818 40373 57006 333 11059
AAXX 16181 54618 32962 62001 11070 21183 30351 40370 57007 80002 333 11013
AAXX 16181 01238 41384 22302 11083 21089 38737 49853 52008 70120 82600 333 11045 91106
AAXX 16181 01271 17/84 00503 11037 21059 39839 49861 52008 60002 700// 333 11021 91106
AAXX 16181 01415 17/66 00000 10007 21003 39866 49877 53016 6//// 700// 333 10033 91104
AAXX 16184 87022 32660 40000 10304 20181 39563 40089 57023 84800 333 56400 82635 82835
AAXX 16184 87046 32565 40906 10285 20141 39076 48470 57023 84200 333 56000 57800 84820
AAXX 16184 87047 32468 50904 10241 20135 38765 48484 57021 84303 333 56106 57994 83817 81925
AAXX 16184 87097 NIL
AAXX 16184 87121 32665 61403 10299 20154 39597 40074 57021 83303 333 56605 57961 83840 81945 83380
AAXX 16184 87129 32965 40905 10310 20162 39867 40093 57023 80001
AAXX 16184 87155 32565 61803 10282 20172 30020 40080 58013 85504 333 56506 85630
AAXX 16184 87162 32570 61812 10313 20140 39999 40067 57016 85808 333 56206 83830 86270
AAXX 16184 87166 32560 22008 10296 20142 30008 40079 57012 82100 333 56300 82830
AAXX 16184 87178 32570 52311 10292 20145 39920 40063 57012 85800 333 56500 83630 83840
AAXX 16184 87217 31770 71806 10318 20168 39584 40056 57018 71511 87800 333 56600 83850 84656
AAXX 16184 87222 31665 70514 10315 20141 39542 40043 57020 71521 85671 333 56555 83735 83645
AAXX 16184 87257 32765 51811 10292 20137 39997 40097 57016 85205 333 56404 85856
AAXX 16184 87270 32565 31811 10276 20172 30030 40092 57009 83100 333 56300 83820
AAXX 16184 87289 32562 62317 10262 20158 39990 40072 57013 86560 333 56550 86620 83360
AAXX 16184 87311 32765 41821 10306 20102 39436 40091 57019 82270 333 56000 57810 82850
AAXX 16184 87320 NIL
AAXX 16184 87328 32780 41805 10303 20094 39453 40088 57020 84100 333 56600 84850 95000
AAXX 16181 30372 42999 80501 11279 21303 39330 40292 57024 82047
AAXX 16181 30433 42999 22801 11149 21183 39738 40373 57002 80001
AAXX 16181 30554 429// 50000 11243 21261 39172 40368 57002 80001
AAXX 16181 30635 418// 81002 11224 21256 39786 40417 54000 77171 8807/
AAXX 16181 30673 42999 01201 11318 21323 39450 40317 58003
AAXX 16181 30692 42998 22704 11181 21231 39688 40214 54000 82030
AAXX 16181 30758 41970 00000 11278 21310 39486 40404 52004 70400
AAXX 16181 30802 42999 00000 11305 21312 38812 48557 52009
AAXX 16181 30823 42999 22902 11268 21293 39747 40463 52010 80002
AAXX 16181 30879 42999 00000 11272 21296 39478 40322 58001
AAXX 16181 30935 41997 80000 11233 21258 39434 40471 52011 71511 8807/
AAXX 16181 30949 42999 03202 11206 21225 39211 40401 54000
AAXX 16181 30965 429// 02601 11278 21297 39448 40372 52006
AAXX 16181 31168 42999 02304 11176 21267 30064 40076 53002
AAXX 16181 31300 41984 83402 11158 21218 39870 40175 52005 70272 80007
AAXX 16181 31329 42999 00000 11394 21422 39484 40260 54000
AAXX 16181 31369 42998 82906 11205 21254 39992 40083 57002 80007 333 91111
AAXX 16181 31416 42999 01101 11322 21334 30039 40139 56001
AAXX 16181 31484 NIL
AAXX 16181 31512 419// 82601 11137 21198 30012 40187 54000 77071 8805/
AAXX 16181 31538 42998 50801 11294 21311 39730 40213 58001 80001
AAXX 16181 31707 42998 80000 11186 21254 30105 40204 57008 84071
AAXX 16181 31735 42997 01902 11237 21292 30077 40174 53001
AAXX 16181 31770 42974 03202 11190 21280 30091 40123 57001
AAXX 16183 87007 32570 20505 10172 21017 36702 47 95 57028 82200 333 56800 57896 82830
AAXX 16183 87148 32670 41616 10314 20144 39962 40070 57028 84100 333 56500 84845
AAXX 16184 82143 NIL
AAXX 16184 82599 32570 51316 10287 20218 30040 40100 85100 333 59001
AAXX 16184 82824 32570 70406 10308 20247 39964 40064 86230 333 59002
AAXX 16184 82899 32570 21110 10293 20197 30119 40131 82200 333 58020
AAXX 16184 83117 NIL
AAXX 16184 83248 32470 30716 10285 20226 30096 40118 83100 333 59002
AAXX 16184 83746 21456 71410 10260 20233 30057 40067 53003 76196 85460 333 60031
AAXX 16184 82586 32598 33608 10353 20199 39842 40076 83200 333 59005
AAXX 16184 82678 32596 51403 10340 20193 39932 40070 84200 333 58001
AAXX 16184 82784 32598 40000 10313 20240 39628 40076 84200 333 58006
AAXX 16184 82791 32599 50908 10353 20157 39794 40068 85202 333 58005
AAXX 16184 82983 32598 60906 10332 20207 39337 40073 84206 333 58012
AAXX 16184 83096 NIL
AAXX 16184 83186 NIL
AAXX 16184 83236 NIL
AAXX 16184 83242 NIL
AAXX 16184 83288 NIL
AAXX 16184 83344 NIL
AAXX 16184 NIL
AAXX 16184 NIL
AAXX 16184 82022 32570 41011 10335 20204 39975 40070 84100 333 59004
AAXX 16184 82193 32570 43307 10313 20243 30060 40078 84200 333 58003
AAXX 16184 82281 32570 40720 10313 20173 30019 40080 84200 333 58000
AAXX 16184 82332 NIL
AAXX 16184 82398 32570 31114 10286 20213 30067 40096 83100 333 59002
AAXX 16184 82400 32470 31310 10274 20223 30043 40108 83100 333 58005
AAXX 16184 82579 32570 21802 10360 20188 39989 40065 82100 333 59010
AAXX 16184 82917 21558 71708 10282 20255 39843 40062 70262 85230 333 59007 60081
AAXX 16184 82965 21469 70704 10245 20230 39752 40080 76062 83270 333 58020 60121
AAXX 16184 82993 32570 31016 10291 20218 39981 40117 83100 333 58007
AAXX 16184 83208 21460 50906 10237 20220 39393 48510 79596 85300 333 59007 60031
AAXX 16184 83349 21560 80305 10282 20244 30117 40123 71062 8322/ 333 58010 60021
AAXX 16184 83362 32970 01505 10341 20101 39846 40058 333 59001
AAXX 16184 83378 21570 73312 10223 20173 38926 48480 70262 85131 333 58009 60021
AAXX 16184 83460 32570 30412 10273 20217 30060 40117 83100 333 58011
AAXX 16184 83497 NIL
AAXX 16184 83566 21460 70410 10218 20184 39173 48490 79196 86230 333 59004 60031
AAXX 16184 83599 NIL
AAXX 16184 83612 32970 02711 10308 20105 39450 48490 57020
AAXX 16184 83649 32970 80108 10289 20217 30098 40103 57009 81531
AAXX 16184 83650 NIL
AAXX 16184 83780 32770 43313 10286 20091 39181 48480 57012 84100
AAXX 16184 83827 32570 42606 10274 20147 39794 40070 51014 84200
AAXX 16184 83840 32970 63311 10253 20109 39059 48460 57009 86500
AAXX 16184 83899 32570 31213 10272 20211 30034 4//// 58008 83100
AAXX 16184 83925 NIL
AAXX 16184 83970 NIL
AAXX 16184 83971 21357 72505 10219 20206 30036 40040 53007 79596 889// 333 60011
AAXX 16184 83384 NIL
AAXX 16184 83386 NIL
AAXX 16184 83388 NIL
AAXX 16184 83393 NIL
AAXX 16184 83442 NIL
AAXX 16184 83479 NIL
AAXX 16184 83483 NIL
AAXX 16184 83531 NIL
AAXX 16184 83538 NIL
AAXX 16184 83574 NIL
AAXX 16184 83582 NIL
AAXX 16184 83595 NIL
AAXX 16184 83687 NIL
AAXX 16184 83692 NIL
AAXX 16184 83695 32698 42306 10302 20226 39949 40084 57020 82230
AAXX 16184 83718 NIL
AAXX 16184 NIL
AAXX 16184 83437 NIL
AAXX 16184 83550 31597 8//// 10284 20235 30069 40098 70222 8337/ 333 58013
AAXX 16184 83552 NIL
AAXX 16184 83565 NIL
AAXX 16184 83579 NIL
AAXX 16184 83592 NIL
AAXX 16184 83623 NIL
AAXX 16184 83630 NIL
AAXX 16184 83676 NIL
AAXX 16184 83698 32399 83603 10272 20241 30058 40072 56010 8802/
AAXX 16184 83702 NIL
AAXX 16184 83704 NIL
AAXX 16184 83716 NIL
AAXX 16184 83726 NIL
AAXX 16184 83738 21698 50000 10302 20199 39552 40035 56008 70260 84300 333 60021
AAXX 16184 NIL
AAXX 16180 44210 NIL
AAXX 16180 44216 32999 03202 11310 21334 39119 40559 58013
AAXX 16180 44217 NIL
AAXX 16180 44219 419// 20000 11277 21294 38710 40546 52001 70270 80004
AAXX 16180 44221 329// 70000 11310 21334 38683 40572 57002 87050
AAXX 16180 44224 419// 70000 11248 21273 38097 40510 58010 70272 80007
AAXX 16180 44229 32999 20000 11304 21334 37958 40561 58010 80001
AAXX 16180 44242 329// 30000 11361 21397 39481 40563 52011 83040
AAXX 16180 44243 329// 70000 11287 21319 39580 40531 52010 87070
AAXX 16180 44254 329// 02502 11278 21310 39116 40442 51011
AAXX 16180 44257 329// 03202 11208 21255 39055 40439 51011
AAXX 16180 44263 NIL
AAXX 16180 44266 329// 23202 11191 21232 37793 40424 58001 82080
AAXX 16180 44286 329// 00000 11263 21294 38721 40498 52011
AAXX 16180 44291 319// 00000 11365 21409 38838 40619 52013 70400
AAXX 16180 44325 329// 21403 11189 21215 38932 40438 53006 80008
AAXX 16180 44329 328// 62303 11157 21199 37793 40404 56001 81047
AAXX 16180 44338 32999 00000 11189 21230 38521 40416 53003
AAXX 16180 44348 329// 03205 11204 21216 38739 40398 52002
AAXX 16180 44374 32999 02003 11146 21221 38304 40428 58002
AAXX 16180 44385 32999 00000 11126 21209 38995 40398 51007
AAXX 16180 44386 329// 00000 11198 21239 39121 40405 52003
AAXX 16184 82392 NIL
AAXX 16184 82583 NIL
AAXX 16184 82594 32697 40511 10316 20217 30076 40084 83200 333 58003
AAXX 16184 82683 NIL
AAXX 16184 82780 32598 30503 10357 20170 39840 40086 83200 333 58007
AAXX 16184 82789 NIL
AAXX 16184 82795 32597 21408 10300 20191 39515 40125 82200 333 58016
AAXX 16184 82879 32598 30505 10340 20189 39806 40067 83200 333 58001
AAXX 16184 82893 NIL
AAXX 16184 82979 NIL
AAXX 16184 82986 NIL
AAXX 16184 83179 NIL
AAXX 16184 83192 NIL
AAXX 16184 83339 NIL
AAXX 16184 83498 NIL
AAXX 16184 03008 11470 73216 10051 21001 49910 69902 72582 879// 91750 333 10060 83912 85818 90710 91129 91027
AAXX 16184 NIL
AAXX 16184 78615 31482 80904 10270 20220 30038 40180 58004 71522 8555/ 333 10274 20214 30/// 5629/ 58012 85618 86359
AAXX 16184 78627 31582 51206 10214 20106 38176 58004 70341 84201 333 10218 20066 30/// 56209 57885 58006 84825
AAXX 16184 78637 32482 73610 10270 20229 30150 40166 58004 85230 333 10280 20218 30/// 56190 57843 58011 85818
AAXX 16184 78641 32482 83614 10232 20135 38563 40147 50007 83204 333 10236 20136 30/// 56809 57836 58009 83618 86070
AAXX 16184 78647 31482 83614 10312 20227 30128 40135 58008 70440 81104 333 10314 20202 30/// 56209 57888 58012 81818 85070
AAXX 16184 03896 16/// ///// 10071 60022 333 10090
BBXX C6SW3 16184 99169 10554 41899 00417 10250 20191 40150 52030 7//00 80000 22214 00250 20302 3//// 40302 50302 6//// 80210 ICE /////
BBXX PINX 16184 99169 70734 41697 31035 10270 2//// 40120 58010 70200 81/78 22274 00280 20303 308// 40908 5//// 6//// 8//// ICE /////
BBXX C6XC2 16184 99024 31327 41498 61107 10260 20246 40060 57020 70222 8529/ 22200 00300 2//// 3//// 4//// 5//// 6//// 80250 ICE /////
BBXX VRHO2 16184 99396 11464 41796 73230 10010 21015 40080 54000 78362 8539/ 22254 00150 20301 332// 40805 50000 64004 80000 ICE 0////
BBXX WUR8857 16184 99468 70849 41/98 /0000 11177 2//// 40000 5//// 70200 8//// 222// 01178 2//00 3//// 4//// 5//// 6//// 8//// ICE /////
BBXX WE4805 16184 99479 70865 41/97 83604 1//// 2//// 40268 54000 77207 88/// 22233 00061 20302 3//// 4//// 5//// 6//// 8//// ICE /////
BBXX C6VG7 16184 99193 70814 41596 40619 10260 2//// 40170 57010 7//// 84462 2221/ 0//// 20402 3//// 40402 50402 6//// 8//// ICE /////
BBXX 3ETA8 16184 99240 70822 41898 81213 10240 2016/ 40220 54000 7//// 888// 22265 04240 2//// 3//// 4//// 5//// 6//// 80190 ICE /////
BBXX WKAB 16184 99397 70243 41/// /2417 10170 20162 40314 5//// 7//// 8//// 22225 00158 2//// 3//// 4//// 5//// 6//// 80165 ICE /////
AAXX 16184 NIL
BBXX 46054 16181 99342 71204 46/// /3309 10129 40208 51010 91750 22200 00138 11104 20602 300// 41104 70021 333 91210 555 11092 22097 31745 43310 61749 329084 327079 325073 328077 330081 333078
AAXX 16184 70133 32666 80514 11122 21172 39980 49986 58009 91753 333 11122 21239 555 91618
AAXX 16184 70174 11416 80000 11172 21189 39785 40040 58001 60021 771// 91753 333 11150 21222 4/074 96010 555 91618
AAXX 16184 70200 11408 /0319 11094 21111 39883 49889 56010 69901 773// 91753 333 11089 21122 91026 96041 555 91618
AAXX 16184 70219 32966 80607 11022 21044 39756 49813 53003 91753 333 11022 21106 4/003 555 91618
AAXX 16184 70231 32866 60000 11144 21167 39814 49946 58002 91753 333 11139 21178 4/099 555 91618
AAXX 16184 70261 32766 60000 11172 21183 39804 49982 58001 91753 333 11089 21183 555 91618
AAXX 16184 70267 32966 60706 11083 21122 39521 40010 53004 91753 333 11061 21100 555 91618
AAXX 16184 70271 32866 40000 11078 21094 39422 40013 55000 91753 333 11022 21111 4/008 555 91618
AAXX 16184 70273 32866 60000 10000 21028 39909 49966 55001 91753 333 10033 21061 4/048 555 91618
AAXX 16184 70316 11466 82514 10022 20011 39776 49811 53031 60011 761// 91753 333 10044 20017 91025 555 91618
AAXX 16184 70326 32566 61215 10028 21017 39832 49844 53005 91754 333 10033 20011 91020 555 91618
AAXX 16184 70340 32566 61119 10050 21011 39837 49896 58008 91753 333 10050 20022 91027 555 91618
AAXX 16184 70350 11466 81209 10028 20006 39885 49925 56008 60031 761// 91753 333 10044 20011 555 91618
AAXX 16184 70361 11456 81011 10011 20000 30006 40016 56035 60071 773// 91753 333 10044 20011 91020 96073 555 91618
AAXX 16184 70381 11366 81111 10022 20011 30102 40111 56008 69901 761// 91753 333 10022 21010 555 91618
AAXX 16184 70414 35666 43610 11006 21078 39825 49864 56003 91756 333 11006 21039 555 91618
AAXX 16184 78526 32666 40511 10272 20183 30132 40153 58018 91756 333 10283 20250 555 91618
AAXX 16184 78543 32766 40510 10272 20189 30065 40147 58016 91753 333 10278 20256 91026 555 91618
AAXX 16181 26997 11456 81806 10041 20026 39836 40053 57013 60042 71062 886// 333 10062 88712
AAXX 16181 27595 32597 81703 11064 21080 30152 40308 52002 885// 333 11043
AAXX 16181 27612 114// 81704 10023 20010 39899 40092 57012 60062 72162 887// 333 10030
AAXX 16181 27707 11456 71805 10021 20013 39774 40066 57007 60052 72586 87900 333 10037 85918
AAXX 16181 27719 11497 81206 10005 21006 39871 40123 57009 60072 70282 883// 333 10016 91114
AAXX 16181 27786 32497 81606 11076 21085 30143 40313 57003 885// 333 11054 88710
AAXX 16181 27857 32497 81407 11015 21022 30057 40224 57010 886// 333 11007 88710 91114
AAXX 16181 27906 NIL
AAXX 16181 27928 31496 81604 10004 21002 39947 40156 57013 71022 886// 333 10007
AAXX 16181 27947 32397 81610 11006 21015 30046 40209 57012 886// 333 10002 88707 91016
AAXX 16181 27962 32397 81508 11062 21081 40276 57004 885// 333 11032 88608
AAXX 16181 27983 32465 81305 11106 21119 30200 40338 57001 886// 333 11100 88714
AAXX 16181 27995 31568 81303 11101 21129 40350 54000 77172 8802/ 333 11080
AAXX 16181 28506 12997 81702 11070 21095 30209 40328 52002 69900 8807/ 333 11060
AAXX 16181 28704 12998 81605 11091 21116 30241 40344 54000 69920 8807/ 333 11080
AAXX 16181 28711 12697 81805 11099 21125 39963 40363 57001 69900 885// 333 11100 88633
AAXX 16181 28807 31597 81403 11103 21139 30307 40362 58003 77172 885// 333 11079 88622
AAXX 16181 34009 12597 81305 10003 21011 39801 40109 57014 69902 884// 333 10026
AAXX 16181 34110 32897 81604 10004 21007 39859 40140 57009 8805/ 333 10014
AAXX 16181 34123 32397 81408 10006 21008 39984 40171 58016 886// 333 10005 88708
AAXX 16181 34152 31330 81405 11026 21029 30046 40250 57007 71022 886// 333 11024 88708
AAXX 16181 34163 31496 81002 11067 21072 40296 57005 71044 885// 333 11065 88620 93503
AAXX 16181 34171 11/06 91505 11068 21068 30099 40302 57007 69900 74744 333 11065 89/02 93626
AAXX 16181 34186 11374 81508 11089 21096 30185 40332 57006 69940 70272 886// 333 11083 88708
AAXX 16181 34247 31356 81505 10017 20012 30102 40218 57007 75122 886// 333 10013 88707
AAXX 16181 34336 31497 81303 10024 20019 30102 40206 57010 75122 886// 333 10013
AAXX 16181 34391 32597 51405 11078 21088 30299 40332 57005 85500 333 11065 85620
AAXX 16181 35011 11975 81604 11115 21135 40387 57004 69900 70272 8705/ 333 11115
AAXX 16181 35121 12998 31103 11179 21204 30244 40406 58008 69900 83030 333 11125
AAXX 16181 20107 11497 71105 10021 21029 39847 49939 52011 69902 78582 87900 333 10022 91008
AAXX 16181 22113 11484 82005 10015 21002 39868 49931 52018 60022 70282 8593/ 333 10015 91009
AAXX 16181 22217 11460 81801 10008 20003 39942 49974 52017 60012 70282 886// 333 10015 86712 91003
AAXX 16181 22235 11444 72104 10006 21002 39803 49996 53016 69932 78582 87900 333 10012 86710 91008 91110
AAXX 16181 22349 11497 82110 10017 21009 30027 40039 52017 69942 78082 889// 333 10027 91013 91114
AAXX 16181 22408 12484 81702 10009 20004 39847 49995 52014 69902 886// 333 10010 88710
AAXX 16181 22602 11257 81703 10014 20014 39783 40007 52009 69902 75152 886// 333 10014 88704
AAXX 16181 22619 11381 81802 10009 20004 39867 40027 52005 69962 70252 886// 333 10018 88707
AAXX 16181 22721 11497 81401 10008 20003 39942 40043 57001 60022 70286 889// 333 10018 86710
AAXX 16181 22802 12584 81202 10018 20002 30002 40025 58004 69912 885// 333 10032
AAXX 16181 22820 12484 71502 10010 21004 39903 40041 57011 69902 87500 333 10023 87615
AAXX 16181 26059 32397 81001 10011 20003 39960 49985 58026 886// 333 10016 88709
AAXX 16181 26063 32397 80701 10025 20006 39989 49997 57028 886// 333 10026 88707
AAXX 16181 26094 11956 81002 10010 20005 39939 40015 57030 69982 76876 8802/ 333 10026
AAXX 16181 26157 32297 80902 10005 21003 39927 49977 57026 885// 333 10012 86706
AAXX 16181 26167 11226 80601 10010 20007 39867 49978 57035 60022 76876 8872/ 333 10017 88705
AAXX 16181 26258 11497 80801 10015 20010 39920 49975 57023 69902 76122 8872/ 333 10016
AAXX 16181 26298 11496 81304 10015 20010 39780 40009 57031 60042 76176 8872/ 333 10015
AAXX 16181 26359 11462 80000 10011 20006 39842 49976 57022 60012 76165 8872/ 333 10028
AAXX 16181 26702 31596 81304 10022 20000 39827 49852 57048 71011 885// 333 10052 91008 91109
AAXX 16181 26781 11396 81707 10057 20050 39699 49984 57015 60092 76362 8872/ 333 10059 86708 91012 91112
AAXX 16181 27208 11195 81605 10022 20019 39858 40033 57023 60042 75176 886// 333 10025
AAXX 16181 27402 11497 81505 10035 20028 39868 40046 57022 60072 70262 886// 333 10035 88710
AAXX 16181 28676 319// 00000 11278 21305 30281 40426 58003 77671 333 11253
AAXX 16181 28766 319// 00000 11289 21299 30220 40437 53002 71000 333 11242
AAXX 16181 28867 32998 00000 11277 21301 30129 40439 58003 333 11223
AAXX 16181 28879 329// 02703 11250 21275 30109 40433 58003 333 11217
AAXX 16181 28952 329// 80000 11240 21265 30213 40427 58004 8801/ 333 11206
AAXX 16181 28966 329// 00000 11317 21344 30122 40451 58004 333 11241
AAXX 16181 29802 119// 81303 11238 21260 30208 40367 52002 60020 77177 8802/ 333 11212
AAXX 16181 29807 115// 32601 11214 21234 30236 40366 54000 60020 70173 83500 333 11212
AAXX 16181 34691 32998 81407 11054 21083 30314 40301 57017 8802/ 333 11041
AAXX 16181 35067 329// 00000 11316 21348 30129 40449 58003 333 11192
AAXX 16181 35078 329// 03201 11325 21350 30015 40455 57003 333 11278
AAXX 16181 35085 329// 02704 11259 21282 39888 40423 58009 333 11216
AAXX 16181 35108 115// 81103 11118 21137 30328 40377 54000 69900 77177 8802/ 333 11118
AAXX 16181 35188 319// 00000 11280 21311 39950 40444 57001 70400 333 11220
AAXX 16181 35217 119// 01104 11184 21203 30335 40379 57002 69900 70171 333 11114
AAXX 16181 35229 329// 20000 11249 21270 30114 40422 57007 80001 333 11157
AAXX 16181 35302 115// 81706 11091 21107 30336 40356 52003 69920 70272 885// 333 11090
AAXX 16181 35357 329// 01402 11313 21342 39946 40446 54000 333 11200
AAXX 16181 35394 12998 02102 11240 21266 39683 40437 54000 69900 333 11170
AAXX 16181 35406 329// 51204 11126 21146 30355 40358 57003 85030 333 11062
AAXX 16181 35416 129// 21202 11212 21243 30265 40399 58003 69920 80005 333 11129
AAXX 16181 35426 329// 03601 11223 21249 30097 40422 56001 333 11155
AAXX 16181 35497 329// 00000 11259 21292 39556 40452 54000 333 11151
AAXX 16181 35532 32998 01103 11110 21154 39893 40406 53007 333 11066
AAXX 16181 35671 32998 81202 11152 21173 39955 40419 58001 8807/ 333 11096
AAXX 16181 35700 32598 81105 11078 21100 30361 40336 57002 885// 333 11043
AAXX 16181 35746 314// 80501 11168 21187 30337 40410 57002 77171 8802/ 333 11120
AAXX 16181 35796 11596 80000 11210 21238 39957 40438 58004 69900 77372 8802/ 333 11175
AAXX 16181 35849 32998 00000 11189 21215 30314 40409 57003 333 11104
AAXX 16181 35925 NIL
AAXX 16181 35953 129// 30502 11166 21185 30267 40408 57003 69900 83030 333 11125
AAXX 16181 35969 325// 70202 11122 21149 30234 40421 57001 87500 333 11064
AAXX 16181 36003 11596 81904 11214 21234 30217 40384 57010 69990 77377 8802/ 333 11227
AAXX 16181 36152 NIL
AAXX 16181 36177 NIL
AAXX 16181 36208 NIL
AAXX 16181 36397 NIL
AAXX 16181 36428 NIL
AAXX 16181 36535 NIL
AAXX 16181 36639 NIL
AAXX 16181 36821 125// 80000 11076 21093 39890 40402 57004 69900 889// 333 11050
AAXX 16181 36859 119// 81001 11044 21056 39581 40389 58002 69900 77172 8802/ 333 11012
AAXX 16181 36864 326// 81102 11072 21089 39452 40386 57009 885// 333 11054
AAXX 16181 36870 112// 80101 11073 21082 39324 40383 57007 69900 77772 886// 333 11058
AAXX 16181 38001 NIL
AAXX 16181 38062 119// 00802 11132 21152 30223 40398 57006 69900 70172 333 11076
AAXX 16181 38069 329// 03201 11112 21125 30176 40381 57011 333 11045
AAXX 16181 38196 NIL
AAXX 16181 38198 NIL
AAXX 16181 38222 32597 80502 11071 21100 39806 40394 57013 885// 333 11061
AAXX 16181 38232 NIL
AAXX 16181 38328 NIL
AAXX 16181 38334 NIL
AAXX 16181 38341 31/92 93202 11090 21094 39560 40393 57002 74942 333 11046
AAXX 16181 38343 32697 80000 11096 21096 39495 40389 57012 885// 333 11082
AAXX 16181 38439 NIL
AAXX 16181 38598 NIL
AAXX 16181 38599 NIL
AAXX 16181 38725 NIL
AAXX 16181 38734 429// 00701 11100 21163 47090 51001
AAXX 16181 38744 429// 00000 11130 21150 38067 48600 57005
AAXX 16181 38836 31/// 90000 11029 21042 39328 40308 58009 74744 333 10055
AAXX 16181 38838 NIL
AAXX 16181 38844 NIL
AAXX 16181 38846 NIL
AAXX 16181 38847 NIL
AAXX 16181 38932 NIL
AAXX 16181 38933 NIL
AAXX 16181 38944 326// 80401 10011 21006 39683 40231 57003 885// 333 10028
AAXX 16181 38954 329// 00000 11134 21106 37983 48580 52013 333 10022
AAXX 16181 22028 11577 82211 10017 21005 39899 49937 52014 69902 78082 889// 333 10018 91015 91117
AAXX 16181 22106 11598 82103 10012 20004 39853 49930 52019 60022 72582 8595/ 333 10012 85920 91009
AAXX 16181 22127 32698 62105 10011 21031 39760 49958 52014 85530 333 10023 85639 91009 91112
AAXX 16181 22324 11584 81806 10018 20005 39940 49989 53015 69902 70282 889// 333 10019 91010 91110
AAXX 16181 22621 32498 81904 10011 21006 39894 40033 52006 885// 333 10019 88617
AAXX 16181 22831 32597 70000 10014 20009 30003 40063 57014 85930 333 10027
AAXX 16181 22892 11497 81002 10006 21005 39986 40002 57016 60012 72052 886// 333 10036 88711
AAXX 16181 26275 11397 81402 10003 21003 39949 49979 57034 60042 77176 8872/ 333 10043
AAXX 16181 26389 11396 81602 10032 20027 39722 49981 57030 60082 78082 889// 333 10034
AAXX 16181 26499 11497 81507 10038 20028 39799 40025 57023 60072 76162 8872/ 333 10038 87710
AAXX 16181 26695 11996 81507 10043 20031 39729 40032 57023 60052 76165 8672/ 333 10044 86707
AAXX 16181 26882 11458 81707 10048 20036 39747 40018 57008 60052 76162 8872/ 333 10060 88713 91012 91114
AAXX 16184 78255 42559 60807 10264 20186 30035 40184 57020 86800 333 10270 20194 85820
AAXX 16181 22271 11598 82110 10005 21015 30030 40040 52016 69930 70282 885// 333 10007
AAXX 16181 22520 11498 81904 10020 20007 30006 40015 52011 69912 70282 885// 333 10021 88616
AAXX 16181 22550 11574 82002 10022 21015 30074 40084 52004 69950 70262 885// 333 10028 88622
AAXX 16181 22583 12480 51602 10011 20000 30057 40138 51002 60020 875// 333 10014 87614
AAXX 16181 22768 12497 81302 10017 20001 30062 40119 57011 69900 885// 333 10027 88610
AAXX 16181 22845 31497 81301 10013 20007 39923 40079 57021 76162 8672/ 333 10026 86713
AAXX 16181 22887 11221 81604 10007 20001 30088 40159 57022 69900 77372 8872/ 333 10018 86706 91108
AAXX 16181 23205 NIL
AAXX 16181 23219 31498 82010 11046 21062 30069 40177 53010 73633 886// 333 11034
AAXX 16181 23418 11565 71205 11052 21069 30134 40210 52005 60020 70273 87500 333 11057 87620
AAXX 16181 23606 11460 81706 11037 21048 30038 40215 52004 60020 70282 885// 333 11041 88614
AAXX 16181 23711 11498 81402 11066 21082 30082 40263 52003 60010 70282 889// 333 11070
AAXX 16181 23804 12297 81703 10004 21005 30059 40209 58006 60020 886// 333 10005 88704
AAXX 16181 27037 11497 81604 10008 21003 39935 40097 57015 60020 77172 885// 333 10022 88610
AAXX 16181 27199 11398 81603 11030 21037 30050 40252 51001 60020 72452 886// 333 10000 93403
AAXX 16181 27271 11397 81206 10003 21003 30039 40197 57003 69900 76165 8872/ 333 10006
AAXX 16181 27459 12398 81803 10000 21015 30004 40202 57007 60020 8752/ 333 10004 87709 91112
AAXX 16181 27730 12397 81806 11003 21018 39956 40153 57013 60030 886// 333 10008 88709 91114
AAXX 16181 28676 319// 00000 11278 21305 30281 40426 58003 77671 333 11253
AAXX 16181 28766 319// 00000 11289 21299 30220 40437 53002 71000 333 11242
AAXX 16181 28867 32998 00000 11277 21301 30129 40439 58003 333 11223
AAXX 16181 28879 329// 02703 11250 21275 30109 40433 58003 333 11217
AAXX 16181 28952 329// 80000 11240 21265 30213 40427 58004 8801/ 333 11206
AAXX 16181 28966 329// 00000 11317 21344 30122 40451 58004 333 11241
AAXX 16181 29802 119// 81303 11238 21260 30208 40367 52002 60020 77177 8802/ 333 11212
AAXX 16181 29807 115// 32601 11214 21234 30236 40366 54000 60020 70173 83500 333 11212
AAXX 16181 34691 32998 81407 11054 21083 30314 40301 57017 8802/ 333 11041
AAXX 16181 35067 329// 00000 11316 21348 30129 40449 58003 333 11192
AAXX 16181 35078 329// 03201 11325 21350 30015 40455 57003 333 11278
AAXX 16181 35085 329// 02704 11259 21282 39888 40423 58009 333 11216
AAXX 16181 35108 115// 81103 11118 21137 30328 40377 54000 69900 77177 8802/ 333 11118
AAXX 16181 35188 319// 00000 11280 21311 39950 40444 57001 70400 333 11220
AAXX 16181 35217 119// 01104 11184 21203 30335 40379 57002 69900 70171 333 11114
AAXX 16181 35229 329// 20000 11249 21270 30114 40422 57007 80001 333 11157
AAXX 16181 35302 115// 81706 11091 21107 30336 40356 52003 69920 70272 885// 333 11090
AAXX 16181 35357 329// 01402 11313 21342 39946 40446 54000 333 11200
AAXX 16181 35394 12998 02102 11240 21266 39683 40437 54000 69900 333 11170
AAXX 16181 35406 329// 51204 11126 21146 30355 40358 57003 85030 333 11062
AAXX 16181 35416 129// 21202 11212 21243 30265 40399 58003 69920 80005 333 11129
AAXX 16181 35426 329// 03601 11223 21249 30097 40422 56001 333 11155
AAXX 16181 35497 329// 00000 11259 21292 39556 40452 54000 333 11151
AAXX 16181 35532 32998 01103 11110 21154 39893 40406 53007 333 11066
AAXX 16181 35671 32998 81202 11152 21173 39955 40419 58001 8807/ 333 11096
AAXX 16181 35700 32598 81105 11078 21100 30361 40336 57002 885// 333 11043
AAXX 16181 35746 314// 80501 11168 21187 30337 40410 57002 77171 8802/ 333 11120
AAXX 16181 35796 11596 80000 11210 21238 39957 40438 58004 69900 77372 8802/ 333 11175
AAXX 16181 35849 32998 00000 11189 21215 30314 40409 57003 333 11104
AAXX 16181 35925 NIL
AAXX 16181 35953 129// 30502 11166 21185 30267 40408 57003 69900 83030 333 11125
AAXX 16181 35969 325// 70202 11122 21149 30234 40421 57001 87500 333 11064
AAXX 16181 36003 11596 81904 11214 21234 30217 40384 57010 69990 77377 8802/ 333 11227
AAXX 16181 36152 NIL
AAXX 16181 36177 NIL
AAXX 16181 36208 NIL
AAXX 16181 36397 NIL
AAXX 16181 36428 NIL
AAXX 16181 36535 NIL
AAXX 16181 36639 NIL
AAXX 16181 36821 125// 80000 11076 21093 39890 40402 57004 69900 889// 333 11050
AAXX 16181 36859 119// 81001 11044 21056 39581 40389 58002 69900 77172 8802/ 333 11012
AAXX 16181 36864 326// 81102 11072 21089 39452 40386 57009 885// 333 11054
AAXX 16181 36870 112// 80101 11073 21082 39324 40383 57007 69900 77772 886// 333 11058
AAXX 16181 38001 NIL
AAXX 16181 38062 119// 00802 11132 21152 30223 40398 57006 69900 70172 333 11076
AAXX 16181 38069 329// 03201 11112 21125 30176 40381 57011 333 11045
AAXX 16181 38196 NIL
AAXX 16181 38198 NIL
AAXX 16181 38222 32597 80502 11071 21100 39806 40394 57013 885// 333 11061
AAXX 16181 38232 NIL
AAXX 16181 38328 NIL
AAXX 16181 38334 NIL
AAXX 16181 38341 31/92 93202 11090 21094 39560 40393 57002 74942 333 11046
AAXX 16181 38343 32697 80000 11096 21096 39495 40389 57012 885// 333 11082
AAXX 16181 38439 NIL
AAXX 16184 91165 32466 40411 10228 20194 30165 40201 53013 91753 555 91618
AAXX 16184 91182 32566 40305 10228 20189 30188 40192 52010 91753 333 10250 20194 555 91618
AAXX 16184 91190 32566 20605 10222 20178 30185 40203 53014 91754 333 10222 20167 555 91618
AAXX 16184 91212 32666 20705 10261 20233 31360 40096 56010 91754 555 91618
AAXX 16184 91285 12566 62503 10200 20178 30181 40195 53006 60021 91753 333 10211 555 91618
AAXX 16184 91348 11474 80910 10277 20217 30032 40085 55003 69901 78022 8527/ 333 56299 70010 555 91618
AAXX 16184 91245 32566 20613 10250 20210 30147 91755 555 91618
AAXX 16184 78615 31482 80904 10270 20220 30038 40180 58004 71522 8555/ 333 10274 20214 30/// 5629/ 58012 85618 86359
AAXX 16184 78627 31582 51206 10214 20106 38176 58004 70341 84201 333 10218 20066 30/// 56209 57885 58006 84825
AAXX 16184 78637 32482 73610 10270 20229 30150 40166 58004 85230 333 10280 20218 30/// 56190 57843 58011 85818
AAXX 16184 78641 32482 83614 10232 20135 38563 40147 50007 83204 333 10236 20136 30/// 56809 57836 58009 83618 86070
AAXX 16184 78647 31482 83614 10312 20227 30128 40135 58008 70440 81104 333 10314 20202 30/// 56209 57888 58012 81818 85070
AAXX 16184 64500 11406 80804 10258 20212 30099 40112 60022 79592 889// 333 10285 58019 84610 81920 88533 94921 95831
AAXX 16184 17310 11560 73007 10126 20088 30150 40157 55005 60062 79582 84970 333 10176 81925 83830 87460 91116 92427
AAXX 16181 08558 12/// /2506 10138 20136 39960 40254 57007 69922 333 10156 91009 91109
AAXX 16184 40100 12558 31403 10156 20064 30164 40196 56002 60001 82204 918// 333 10204 82826 92427
AAXX 16184 40101 12957 00000 10075 20031 39120 48514 50003 60001 918// 333 10148
AAXX 16184 40103 32560 52204 10142 20086 40194 55008 83102 333 10188 83824 84070
AAXX 16184 40102 NIL
BBXX 3FMV6 16183 99015 10049 41698 61810 10280 20237 40089 54000 70222 84465 22213 06285 20601 80250
BBXX WRYC 16184 99135 10566 43/// /0513 10265 2024/ 40130 52002 7//// 8//// 22275 00253 20302 301// 40504 5//// 6//// 80250 ICE /////
BBXX 9V8797 16184 99263 10542 43/98 12306 10217 40169 57010 22234 00256 2//// 4////
BBXX DPKZ 16183 99042 70079 41496 41207 10285 20250 40110 52010 710// 8/1// 22274 29901 80260
BBXX A8QJ7 16184 99052 50311 41/98 11412 10280 20237 40110 58017 7//00 81200 22253 20602 3//// 4//// 5//// 80250
BBXX WRYW 16184 99213 10599 43/// /0110 10210 2018/ 40151 51005 7//// 8//// 22215 00251 20502 302// 40703 5//// 6//// 80190 ICE /////
BBXX PHOB 16184 99121 10607 41/98 50623 10255 20227 40113 50011 70322 82/// 22224 00255 2//// 3//// 4//// 5//// 80235
BBXX DDDI2 16184 99324 30310 41998 01013 10223 20156 40200 51010 70200 80000 22254 04230 2//// 3//// 4//// 5//// 80180
BBXX DGWD2 16183 99287 10329 41998 03417 10202 20119 40192 54000 70200 80000 22234 00190 2//// 80152
BBXX DGZL 16183 99236 10365 41497 63618 10230 20185 40150 56010 70322 86142 22274 00250 2//// 80200
BBXX PHQW 16183 99031 70036 41497 10906 10268 20241 40095 52006 70500 811// 22263 00284 2//// 318// 40602 80248 90431
BBXX PHKL 16183 99128 10476 41998 01008 10260 20186 40146 52011 70200 80000 22264 00262 20401 300// 4//// 5//// 80210
BBXX UBAU 16181 99151 70174 41597 80205 10260 40142 54000 70222 8822/ 22282 04254 20101
BBXX DCHO 16184 99063 70270 41598 60812 10272 20214 40111 52010 70222 8112/ 22254 04270 20602 303// 40803 80231
BBXX VK4041 16180 99101 50953 41/97 81311 40156 57001 71882 8//// 22241 20304 315// 40810 5////
AAXX 16181 08521 32470 40306 10172 20094 30254 40325 56002 84800 333 10197 83816
AAXX 16181 08524 32470 30703 10163 20103 30230 40329 54000 83800 333 10186 81816 83630 91107
BBXX 44255 16181 99473 70573 46/// /1813 10066 4//// 5//// 22200 0//// 1//// 70/// 333 912//
BBXX 3ETA8 16184 99240 70822 41898 81213 10240 2016/ 40220 54000 7//// 888// 22265 04240 2//// 3//// 4//// 5//// 6//// 80190 ICE /////
BBXX A8EH2 16183 99229 71117 41198 73015 10190 20118 40162 52012 87258 22275 00225 20401 330// 41003 80150
BBXX A8CI8 16184 99500 70667 41597 73323 10020 49950 51030 70322 85474 22200 04000 20101
BBXX 4XFX 16184 99559 71545 41/97 32132 00/// 10040 2002/ 49900 57025 70222 83/// 22252 0//// 20815 31820 40718 50184 6//// 80030
BBXX 44150 16181 99425 70640 46/// /2914 10106 40053 52003 22200 00110 10806 70030 333 91217
BBXX SBLW 16183 99246 70559 43/98 40420 10226 40121 55001 22254 00261 29999 40505
BBXX SKWI 16184 99432 70422 43/97 80624 10137 40168 58004 22264 00170 20604 40808
BBXX SKUN 16183 99499 70392 43/99 51813 10070 40252 5500 22214 00060 2//// 4////
BBXX SBLI 16181 99300 71592 43/98 10212 10181 40249 53027 22264 00216 2//// 4//// NNNN 426621110
BBXX 44139 16181 99442 70571 46/// /1815 10107 40061 57048 22200 00091 10707 70035 333 91219
BBXX DDSB2 16183 99111 70753 41698 70523 10280 20246 40100 57015 70222 85466 22214 20304 304// 40405 80255
BBXX SHIP 16184 99477 71381 41/92 92130 10130 20113 40120 56015 74544 89/// 91800 22274 00110 20604 322// 40806 80120
BBXX WBDS 16183 99377 70381 43296 81723 10192 2017/ 40238 56020 7//// 886// 22264 00187 20404 33424 41207 51006 6//// 80180 ICE /////
BBXX A8CN8 16180 99513 71325 41/97 81712 40140 57030 76166 8//// 22274 2//// 327// 40505 5////
BBXX VQKR7 16184 99486 71225 41196 60910 10070 20035 40333 50000 70022 86470 22200 04120 20401 310// 40401 80055
BBXX WDC3786 16184 99303 71305 41498 73624 10187 2013/ 40264 52004 7//22 874/5 22264 00200 20302 302// 40604 5//// 6//// 80154 ICE /////
BBXX OYCY2 16184 99419 71307 43596 62207 10200 2019/ 40340 52010 7//// 861/2 22273 00150 20302 3//// 40806 5//// 6//// 80190 ICE /////
BBXX 9HXC9 16184 99250 70753 41598 31015 10251 20140 40182 55003 7//11 83200 22274 04266 20604 3//// 40802 5//// 6//// 80181 ICE /////
BBXX J8AZ2 16183 99222 70712 41597 60519 10000 2000/ 40200 54000 7//11 84181 22233 0//// 20402 30505 40504 50605 6//// 80000 ICE /////
BBXX A8JX9 16183 99558 71536 41296 81824 10050 20003 49920 54000 70222 886// 22262 20707 323// 41712 5//// 80030
BBXX C6SE5 16184 99258 70882 43/// /1212 1//// 2//// 40220 5//// 7//// 8//// 22275 0//// 2//// 3//// 4//// 5//// 6//// ICE /////
BBXX J8PR3 16183 99108 70610 41198 60713 10300 2027/ 40110 56020 70222 86288 22222 00290 20201 30707 40201 50201 6//// 80280 ICE /////
BBXX PINX 16184 99169 70734 41697 31035 10270 2//// 40120 58010 70200 81/78 22274 00280 20303 308// 40908 5//// 6//// 8//// ICE /////
BBXX DDIG2 16184 99247 70529 41498 63620 10220 20189 40110 54000 7//22 862// 22254 04240 20502 336// 41206 80200
BBXX SKUN 16183 99499 70392 43/99 51813 10070 40252 22214 00060 2//// 4////
BBXX DDSD2 16183 99347 70388 41/96 61623 10220 20190 40215 58015 71000 85/1/ 22225 00208 20808 312// 41009 5//// 80200
BBXX C6KD7 16183 99240 70586 41498 50124 10244 20209 40124 57/// 70211 83201 22214 02259 20907 301// 41106 5//// 80221
BBXX FLAO 1618/ 99764 70847 46/// ///// 11235 40057 52001
BBXX 46219 16181 99332 71199 46/// ///// 1//// 91758 22200 00137 11205 20904 330// 41202 70023
BBXX 46214 16181 99379 71235 46/// ///// 1//// 91755 22200 00117 10905 20904 331// 41102 70023
BBXX 51205 16181 99210 71564 46/// ///// 1//// 91748 22200 00241 11404 20903 333// 41403 70021
BBXX 44022 16181 99409 70737 46/// ///07 10073 21041 40193 55000 91800 22200 00094 333 91211 555 11082 22088
BBXX 41038 16181 99341 70777 46/// /1902 10179 40201 58015 91800 22200 00145 333 91203
BBXX SHIP 16184 99421 11635 41698 82724 10040 2002/ 40011 56021 70222 8894/ 22224 00100 20305 32727 40406 5//// 6//// 80030 ICE /////
BBXX SLCO 16184 99104 11430 43/97 51016 10283 40084 58011 22234 00281 2//// 4////
BBXX MIBR 16183 99305 11301 41598 83620 10111 20007 40255 54000 70222 885// 22214 00230 2//// 3//// 4//// 5//// 80068
BBXX A8IF4 16183 99298 11428 41498 83318 10190 20142 40150 54000 70222 8677/ 22264 06190 20904 329// 41104 80160
BBXX A8UD6 16181 99127 11514 41598 50912 10270 20241 40100 54000 70300 85263 22274 21005 309// 41206 5//// 80250
BBXX ZCAS2 16183 99056 11280 41498 50101 10270 20241 40055 57/// 70311 83114 22284 00292 20101 327// 40101 80250
BBXX VRHO2 16184 99396 11464 41796 73230 10010 21015 40080 54000 78362 8539/ 22254 00150 20301 332// 40805 50000 64004 80000 ICE 0////
BBXX WDB9986 16184 99381 11487 41597 83024 10040 2002/ 40080 54000 76165 886// 22214 00150 20404 327// 40606 5//// 6//// 80030 ICE /////
BBXX SHIP 16183 99221 11267 41497 80237 10210 2018/ 40190 54000 70222 8877/ 22283 00260 20306 304// 40810 5//// 6//// 80190 ICE /////
BBXX ONFE 16184 99260 11287 41398 83528 10180 2009/ 40220 54000 70222 887// 22214 00250 2//// 3//// 4//// 5//// 6//// 80130 ICE /////
BBXX A8OY9 16184 99071 10759 44359 70108 10276 20233 40113 51011 89/// 22224 00300 20801 312// 40903 80243
BBXX A8QR9 16184 99085 10765 41997 21010 10290 20204 40120 52/// 70322 82070 22234 04280 20102 80230
BBXX DQVG 16183 99325 11640 41497 72321 10210 20194 40030 58010 70311 8777/ 22264 00226 21202 325// 41004 5//// 80200
BBXX DGZT2 16183 99058 10826 41/97 80222 10280 20232 40100 56005 70222 88/// 22264 04290 2//// 80245
BBXX MGPU2 16183 99406 11338 41298 73235 11060 21110 40280 53/// 70322 8/7// 22241 00034 2//// 331// 40512 5//// 81070
BBXX DGZR2 16183 99095 10747 41998 02605 10275 20241 40105 52020 7//00 80000 22234 00280 2//// 80250
BBXX 9V7955 16184 99109 70898 41597 70810 10300 2030/ 40110 56010 70111 86185 22274 00270 20102 30908 40104 50104 6//// 80300 ICE /////
BBXX A8OH4 16183 99138 70917 41398 39902 10280 20260 40115 57005 70200 83145 22223 04310 20000 331// 40402 80265
BBXX WE3592 16184 99458 70851 43/// 83412 11044 2//// 40251 5//// 7//// 8//// 222// 0//// 2//02 3//// 4//// 5//// 6//// 8//// ICE /////
BBXX PCSV 16183 99005 30744 41/98 82705 10250 20222 40105 57002 70082 8//// 22253 04280 21001 80230 90432
BBXX A8KO3 16180 99205 31538 41497 81615 10260 20232 40070 54000 70355 8/263 22244 00260 20506 80240
BBXX VRZN7 16184 99247 31653 416// 61415 10220 2014/ 40120 51010 7//22 8646/ 22253 04260 20506 320// 4//// 5//// 85170
BBXX C6FS9 16184 99238 31512 46/// /1807 10211 20175 30123 40159 57008 22200 04269 85187
BBXX 9HA2479 16184 99243 31641 46/// /1521 10228 20145 30094 40123 52008 22254 04252 85175
BBXX VNSZ 16184 99409 31462 46/// /0819 10157 20128 30187 40214 52018 22235 04169 85140
BBXX V2OG2 16183 99116 31060 41697 71616 10270 20248 40083 58012 70300 87900 22233 20403 317// 40502 80254
BBXX ZCBU6 16184 99331 31700 41498 22425 10185 20160 40075 57006 70222 821// 22234 00194 20405 324// 40706 5//// 80170
BBXX VMAL 16183 99353 31260 41/97 81417 10160 20146 40094 57020 71522 88/// 22263 20303 80152
BBXX 3ECI3 16184 99411 31732 41597 61610 10155 20098 40044 54000 70311 86434 22200 00170 20500 316// 40802 80125
BBXX C6XC2 16184 99024 31327 41498 61107 10260 20246 40060 57020 70222 8529/ 22200 00300 2//// 3//// 4//// 5//// 6//// 80250 ICE /////
BBXX A8CP6 16180 99205 31536 41398 41211 10250 20235 40130 56020 70211 841// 22285 00263 20604 312// 40804 5//// 80240
BBXX A8UU2 16184 99031 31185 41697 82726 10270 20241 40048 55020 79592 8/370 22213 04310 20003 80250
BBXX PFBF 16184 99096 31344 41698 53605 10281 20201 40050 56011 70181 81209 22223 02294 2//// 30000 4//// 5//// 80225
BBXX PCCL 16183 99327 31637 41097 81716 10170 40130 54000 70300 887// 22232 04209 20501 31822 41008 51206
BBXX KAOU 16184 99040 10890 43/// /0905 10281 20239 40086 5//// 7//// 8//// 222// 04293 2//// 3//// 4//// 5//// 6//// 8//// ICE /////
BBXX UCKZ 16181 99629 30408 41195 80620 10013 20007 49868 55001 71022 886// 22233 01008 20809 ICE 0/1/0
BBXX WKAB 16184 99397 70243 41/// /2417 10170 20162 40314 5//// 7//// 8//// 22225 00158 2//// 3//// 4//// 5//// 6//// 80165 ICE /////
BBXX MINUK03 1618/ 99549 70011 46/// ///// 10068 49956 52053
BBXX PCAW 16183 99360 10243 41/98 42711 10172 20138 40170 53010 70100 84/// 22223 00132 20303 80151 90432
BBXX TBWAA05 16183 99592 10212 41497 72218 10050 20003 49911 57028 70222 8583/ 22263 02060 2//// 3//// 4//// 5//// 80030 00/87 1/764 5989300/ 871/7 64598 93931/65 1/626 /807
BBXX PEBT 16183 99364 70082 41498 53022 10180 20118 40290 57020 7//11 858// 22273 02143 20402 328// 40704 5//// 80143
BBXX 62023 16183 99514 70079 46/97 /3132 10078 2//// 40039 5//// 22200 10810 70049 333 91148 555 70073 81002
BBXX LAHV 16181 99589 10057 43/// /0200 10020 20001 49877 222// 04086 1////
BBXX LF4H 16184 99596 10022 46/98 13020 10040 20005 49878 52009 8//// 22200 06084 333 91127
BBXX UFJN 16181 99715 10399 41/96 82213 11020 49914 52025 72122 88/// 22200 0//// 20402
BBXX PDHW 16183 99498 70046 41/99 /3124 10095 20044 40010 52040 70011 8//// 22263 00120 2//// 80070
BBXX PHIN 16184 99509 70214 41397 72922 10082 20054 40247 56007 71511 86420 22223 00120 20505 332// 40908 80068
BBXX UGGA 16181 99691 10412 41/98 92013 10030 49963 52020 70222 89/// 22261 20706
BBXX UFEQ 16181 99626 10042 41297 71813 10060 49820 52020 70225 22252 00100 20706
BBXX A8PX4 16184 99364 70078 41398 72713 10178 20125 40283 57012 70322 87700 22264 00179 2//// 80146
BBXX UCAC 16181 99578 10042 41/98 23209 10060 49884 52015 70110 89/// 22283 00090 20607
BBXX DDVK2 16183 99451 70084 41397 63030 10102 20065 40200 54000 78162 8437/ 22213 00145 21006 333// 41416 80083
BBXX NWS0020 16184 99369 10009 43/// /2432 10162 20114 40185 5//// 7//// 8//// 222// 04174 2//// 3//// 4//// 5//// 6//// 8//// ICE /////
AAXX 16181 40716 11958 50000 10010 21021 38940 40253 50003 60001 70500 80001 333 55018 85069
AAXX 16181 40719 11530 82502 10074 20065 30239 40229 56010 69901 71052 8652/ 333 55000 86620 88458
AAXX 16181 40721 12960 01705 10032 21005 39684 40244 57009 60001 333 55006
AAXX 16181 40858 11660 50000 10186 20148 30156 40167 50004 60001 70500 83570 333 55074 83640 85360
AAXX 16181 40872 12960 00000 10198 20135 30160 40165 52009 60001 222// 00/// 20000 333 55083
AAXX 16181 40877 12960 00000 10114 21008 39596 40145 52010 60001 333 55098
AAXX 16181 40898 12962 00000 10212 20092 30150 40159 51010 60001 222// 00242 10900 333 55098 2////
BBXX 46238 16181 99334 71195 46/// ///// 1//// 91750 22200 00145 11204 20803 328// 41202 70020
BBXX 46239 16181 99363 71221 46/// ///// 1//// 91751 22200 00129 11105 20904 331// 41103 70027
BBXX PDNN 16183 99445 70575 41297 81835 10090 20086 40035 57030 72586 886// 22222 00060 20510 80088 90432
BBXX DMRX 16184 99469 71464 41398 42108 10076 20060 40122 53007 70211 81142 22224 00090 20601 329// 41306 80068
BBXX PDVN 16183 99172 70614 41498 40223 10272 20206 40138 58007 70211 84200 22262 20504 399// 4//09 80226
BBXX DDJS2 16183 99273 71187 41598 53208 10145 20107 40182 51005 70322 84565 22234 04170 20201 329// 40303 5//// 80125
BBXX VRFX8 16184 99408 70410 41597 82316 10180 20170 40160 54000 76162 8872/ 22264 00160 20403 320// 41108 80175
BBXX 2AKI3 16184 99248 70896 41598 50624 10252 20195 40208 51012 70300 82269 22263 04250 20101 300// 4//// 5//// 80215
BBXX PECF 16184 99185 70682 41198 60518 10270 20243 40150 58020 70322 85778 22243 06278 20705 305// 41204 80250
BBXX NWS0029 16184 99255 70452 43/// /1725 10243 20212 40090 5//// 7//// 8//// 222// 04245 2//// 3//// 4//// 5//// 6//// 8//// ICE /////
BBXX NWS0003 16184 99549 71650 43/// /2828 10030 20005 49808 5//// 7//// 8//// 222// 04052 2//// 3//// 4//// 5//// 6//// 8//// ICE /////
BBXX WXJ63 16183 99611 71464 41/96 80100 10003 21002 40006 57/// 768// 8//// 222// 00056 2//// 3//// 4//// 5//// 6//// 8//// ICE /////
AAXX 16181 40701 11630 80000 11064 21072 38621 40300 58001 60001 71022 885// 333 55000 88640
AAXX 16181 40704 12970 00000 11040 21064 38620 40257 58002 60001 333 55060 20926
AAXX 16181 40708 11202 80000 11056 21060 38670 40241 58005 60001 74242 886// 333 55000 20580 88704
AAXX 16181 40710 11640 20000 11130 21146 38335 40338 50001 60001 70510 81501 333 55021 81635
AAXX 16181 40713 11630 80902 11008 21037 38690 40260 54000 60001 71022 8251/ 333 55000 82640 88460
AAXX 16181 40719 11530 82502 10074 20065 30239 40229 56010 69901 71052 8652/ 333 55000 86620 88458
AAXX 16181 40731 12960 70000 10017 21026 38753 40225 53003 60001 80006 333 55030 20621 87269
AAXX 16181 40738 11658 80000 10082 20073 30245 40247 58003 60001 71022 83577 333 55044 2//// 83635 86458 88270
AAXX 16181 40740 12960 00607 11018 21044 38742 40235 56007 60001 333 55018
AAXX 16181 40747 11658 40000 10022 20017 38652 40230 52005 60001 71021 83260 333 55000 20333 81835
AAXX 16181 40757 12962 00000 10034 21025 38908 40206 55006 60001 333 55081 21011
AAXX 16181 40763 12965 01102 10040 21073 38912 40189 57022 60001 333 55072
AAXX 16181 40782 12662 61602 10074 21029 38892 40212 51006 60001 82570 333 55047 82640 86359
AAXX 16181 40783 12665 62105 10048 21067 37990 40188 51010 60001 82510 333 55080 82640 86460
AAXX 16181 40789 12965 40000 10068 21041 39216 40206 54000 60001 84030 333 55074 21144 84360
AAXX 16181 40798 12660 42508 10052 21112 37960 40191 51006 60001 81450 333 55077 21235 81640 83359
AAXX 16181 40818 12970 02403 10080 21166 37970 40144 53006 60001 333 55084
AAXX 16181 40827 12965 00000 10026 21081 38858 40247 56004 60001 333 55075
AAXX 16181 40836 12765 61304 10054 21026 38215 40199 52011 60001 82570 333 55073 21295 82650 86358
AAXX 16181 40851 12960 01104 10094 21149 38274 40158 51007 60001 333 55085
AAXX 16181 40853 12960 00000 10042 21151 37768 40173 52008 60001 333 55095
AAXX 16181 40854 12960 00000 10070 21050 38954 40162 51011 60001 333 55083
AAXX 16181 40857 NIL
AAXX 16181 40859 12965 00000 10046 21055 38722 40172 54000 60001 333 55096
AAXX 16181 40878 12965 00000 10060 21142 38868 40224 51006 60001 333 55100
AAXX 16181 40879 12960 00000 10124 21153 39502 40184 51012 60001 333 55100
AAXX 16181 40883 12960 00000 10178 20090 30139 40162 53006 60001 333 55097
AAXX 16181 40898 12962 00000 10212 20092 30150 40159 51010 60001 222// 00242 10900 333 55098 2////
AAXX 16181 45032 36/// /0003 10138 20028 30244 40261 57001
AAXX 16181 45035 36/// /0504 10145 20046 30216 40259 57001
AAXX 16181 45039 36/// /0303 10146 20051 30240 40255 57002
AAXX 16181 45044 36/// /0206 10154 20072 30154 40250 57002
AAXX 16181 45032 36/// /0003 10138 20028 30244 40261 57001
AAXX 16181 45035 36/// /0504 10145 20046 30216 40259 57001
AAXX 16181 45039 36/// /0303 10146 20051 30240 40255 57002
AAXX 16181 45044 36/// /0206 10154 20072 30154 40250 57002
BBXX UANA 16181 99702 10437 41/99 01909 10038 49962 52000 70221 80000 22251 04019 29503
BBXX UCAD 16181 99705 10172 41/97 92211 11050 49863 57004 70221 88/// 22253 00080 20202
BBXX AUTQ 16184 99363 10027 42597 32830 10170 20138 40104 56024 70702 84401 22253 00190
AAXX 16184 91945 36/// /0708 10281 20219 30147 40152 51013
BBXX 46207 16181 99509 71299 46/// /2009 10091 40182 57003 22200 00085 11407 70036 333 91211
BBXX 46207 16181 99509 71299 46/// /2009 10091 40182 57003 22200 00085 11407 70036 333 91211
BBXX 46042 16181 99368 71224 46/// /1005 10096 40244 53008 91750 22200 00124 10905 20301 331// 40905 70023 333 91206 555 11048 22049 31714 41107 61749 094046 097051 102049 098051 098047 095046
BBXX 46054 16181 99342 71204 46/// /3309 10129 40208 51010 91750 22200 00138 11104 20602 300// 41104 70021 333 91210 555 11092 22097 31745 43310 61749 329084 327079 325073 328077 330081 333078
BBXX A8CN8 16180 99513 71325 41/97 81712 40140 57030 76166 8//// 22274 2//// 327// 40505 5////
BBXX CG2965 16184 99487 71235 46/// /1504 10071 20059 40315 55000 7//// 8//// 22200 0//// 2////
BBXX CGBR 16184 99532 71291 46/// /2334 10039 20038 40193 53006 7//// 8//// 22281 00071 2////
BBXX DMRX 16184 99469 71464 41398 42108 10076 20060 40122 53007 70211 81142 22224 00090 20601 329// 41306 80068
BBXX KGTZ 16184 99540 71361 41397 82805 10067 20040 40120 57006 72854 8867/ 22274 00072 21007 326// 4//// 5//// 6//// 80056 ICE /////
BBXX OYCY2 16184 99419 71307 43596 62207 10200 20190 40340 52010 7//// 861/2 22273 00150 20302 3//// 40806 5//// 6//// 80190 ICE /////
BBXX SHIP 16184 99349 71335 41697 70511 10155 20121 40308 51005 70222 8645/ 22233 00180 20301 309// 40502 80135
BBXX VQKR7 16184 99486 71225 41196 60910 10070 20035 40333 50000 70022 86470 22200 04120 20401 310// 40401 80055
BBXX WDC3786 16184 99303 71305 41498 73624 10187 20130 40264 52004 7//22 874/5 22264 00200 20302 302// 40604 5//// 6//// 80154 ICE /////
BBXX WDF4764 16184 99367 71230 41997 03619 10133 20070 40238 52020 7//00 80000 22213 0//// 20304 331// 40707 5//// 6//// 80100 ICE /////
BBXX WSRL 16184 99314 71368 41498 71110 10170 20140 40280 5//// 70222 82462 22255 00172 2//// 332// 41106 5//// 6//// 80150 ICE /////
AAXX 16184 60360 12970 60000 10138 20088 40145 56024 60002 80002 333 10201 86073 95990
AAXX 16184 60390 12575 72509 10169 20049 40186 58007 60002 81234 333 10212 81826 83360 85070 95990
AAXX 16184 60402 12960 62610 10184 20053 40158 56011 60002 82032 333 10219 82359 85073 95990
AAXX 16184 60419 12965 42223 10108 20031 40189 58015 60002 80001 333 10171 84073 95990
AAXX 16184 60475 12965 53010 10117 20053 39249 48507 57009 60002 80002 333 10170 85073 95990
AAXX 16184 60490 12970 62512 10138 20106 40234 53002 60002 80002 333 10172 86073 95990
AAXX 16184 60525 12960 00000 10140 20080 40211 58011 60002 333 10201 95990
AAXX 16184 60531 12570 33007 10123 20112 40153 56002 60002 81202 333 10205 81826 83073 95990
AAXX 16184 60566 12960 03003 10161 20029 40249 57008 60002 333 10197
AAXX 16184 60571 12965 20000 10145 20059 39327 48571 56009 60002 80002 333 10178 82073 95900
AAXX 16184 60580 12960 00000 10145 20075 40237 56007 60002 333 10200
AAXX 16184 60590 12960 00000 10140 20065 40263 55002 60002 333 10195
AAXX 16184 60611 12960 00000 10129 20030 40241 53003 60002 333 10180
AAXX 16184 60620 NIL
AAXX 16184 60630 12960 00712 10185 20018 40222 53005 60002 333 10240
AAXX 16184 60656 12965 00000 10198 21006 40250 56006 60002 333 10230
AAXX 16184 60670 12970 50000 10133 21041 39110 48542 51005 60002 81034 333 10200 81360 85073 95990
AAXX 16184 60680 12970 43107 10163 21112 38675 48551 53006 60002 82032 333 10224 82362 83073 95990
AAXX 16184 60351 12965 70000 10133 20110 40145 56017 60002 80032 333 10205 83359 85070 95990
AAXX 16184 60355 12960 42004 10163 20106 40137 58019 60002 82032 333 0//00 10210 82360 83073 95990
AAXX 16184 60445 12560 62217 10079 20044 39039 48511 56009 60002 82232 333 10136 82826 83360 95990
AAXX 16184 60468 12560 12412 10110 21009 39244 48505 56013 60002 81200 333 10171 81826 95990
AAXX 16184 60507 12960 62112 10133 21007 40235 57014 60002 82034 333 10183 82360 86073 95990
AAXX 16184 60511 12560 62520 10099 21012 39101 48531 55012 60002 81504 333 10150 81626 86071 95990
AAXX 16184 60535 12970 33210 10105 20002 38880 48543 58010 60002 80001 333 10142 83070 95900
AAXX 16184 60536 12960 72410 10150 21045 39364 48545 58008 60002 80002 333 10180 87073 95990
AAXX 16184 60549 11960 32016 10126 21008 38984 48576 56005 60002 70200 80002 333 10170 83073 95990
AAXX 16184 60550 12960 70000 10088 20014 38729 48563 56007 60002 80002 333 10130 87073 95990
AAXX 16184 60555 12970 20000 10124 20071 40238 56012 60002 80002 333 10194 82073
AAXX 16184 60559 12960 10000 10135 20056 40231 58011 60002 80001 333 10193 81073
AAXX 16184 60581 12960 02105 10138 20026 40245 56009 60002 333 10192
AAXX 16184 60602 12960 00804 10162 20059 40263 56005 60002 333 10190 95990
AAXX 16184 60607 12960 00109 10160 21021 40248 53003 60002 333 10203
AAXX 16184 60640 12960 00906 10155 20017 40235 56003 60002 333 10204
AAXX 16184 60690 NIL
AAXX 16184 87344 32562 51806 10268 20131 39573 40109 57017 85200 333 56500 57864 83625 82830
AAXX 16184 87349 32570 61806 10271 20129 39728 40114 57017 86100 333 56400 86820
AAXX 16184 87371 32562 31411 10244 20158 30094 40115 57011 82501 333 56409 82625
AAXX 16184 87374 32565 41615 10256 20126 30016 40102 57013 84500 333 56200 84625
AAXX 16184 87395 32565 52312 10262 20147 30032 40076 56013 85800 333 56400 83820 84630
AAXX 16184 87418 32765 10000 10278 20102 39330 40103 57023 81500 333 56600 81650
AAXX 16184 87436 32670 41411 10299 20065 39314 40098 57016 82453 333 56444 82645
AAXX 16184 87448 32565 62305 10280 20119 39572 40123 57017 84905 333 56505 57983 82630 81940
AAXX 16184 87453 32565 51413 10260 20109 39638 40117 57015 85200 333 56000 57890 85820
AAXX 16184 87467 32570 41811 10264 20137 39977 40109 57016 84100 333 56500 84830
AAXX 16184 87497 32565 71810 10244 20156 30060 40087 57019 87200 333 56400 57892 87825
AAXX 16184 87506 32670 51804 10250 20072 38581 48506 57017 85900 333 56600 57900 84835 82940 95000
AAXX 16184 87509 32570 40908 10281 20104 39284 40112 57020 83252 333 56777 57881 83825
AAXX 16184 87534 32660 21412 10271 20104 39961 40120 57020 82104 333 56406 82840
AAXX 16184 87548 32562 21810 10267 20108 30013 40107 57023 82100 333 56300 82822
AAXX 16184 87576 11660 61614 10239 20159 30082 40106 56013 69901 72582 86800 333 56400 85635
AAXX 16184 87582 11540 81824 10235 20156 30100 40107 55007 69901 79592 8592/ 333 56559 57956 84620 81950 88550
AAXX 16184 87585 11459 71404 10224 20186 30077 40106 58012 69961 72162 86505 333 56101 86615
AAXX 16183 87480 32565 61813 10265 20117 30073 40102 57017 86100 333 56300 86825
AAXX 16183 87532 32670 61808 10262 20134 39962 40130 57019 86100 333 56400 86840
AAXX 16184 60360 12970 60000 10138 20088 40145 56024 60002 80002 333 10201 86073 95990
AAXX 16184 60390 12575 72509 10169 20049 40186 58007 60002 81234 333 10212 81826 83360 85070 95990
AAXX 16184 60402 12960 62610 10184 20053 40158 56011 60002 82032 333 10219 82359 85073 95990
AAXX 16184 60419 12965 42223 10108 20031 40189 58015 60002 80001 333 10171 84073 95990
AAXX 16184 60475 12965 53010 10117 20053 39249 48507 57009 60002 80002 333 10170 85073 95990
AAXX 16184 60490 12970 62512 10138 20106 40234 53002 60002 80002 333 10172 86073 95990
AAXX 16184 60525 12960 00000 10140 20080 40211 58011 60002 333 10201 95990
AAXX 16184 60531 12570 33007 10123 20112 40153 56002 60002 81202 333 10205 81826 83073 95990
AAXX 16184 60566 12960 03003 10161 20029 40249 57008 60002 333 10197
AAXX 16184 60571 12965 20000 10145 20059 39327 48571 56009 60002 80002 333 10178 82073 95900
AAXX 16184 60580 12960 00000 10145 20075 40237 56007 60002 333 10200
AAXX 16184 60590 12960 00000 10140 20065 40263 55002 60002 333 10195
AAXX 16184 60611 12960 00000 10129 20030 40241 53003 60002 333 10180
AAXX 16184 60620 NIL
AAXX 16184 60630 12960 00712 10185 20018 40222 53005 60002 333 10240
AAXX 16184 60656 12965 00000 10198 21006 40250 56006 60002 333 10230
AAXX 16184 60670 12970 50000 10133 21041 39110 48542 51005 60002 81034 333 10200 81360 85073 95990
AAXX 16184 60680 12970 43107 10163 21112 38675 48551 53006 60002 82032 333 10224 82362 83073 95990
AAXX 16184 60351 12965 70000 10133 20110 40145 56017 60002 80032 333 10205 83359 85070 95990
AAXX 16184 60355 12960 42004 10163 20106 40137 58019 60002 82032 333 0//00 10210 82360 83073 95990
AAXX 16184 60445 12560 62217 10079 20044 39039 48511 56009 60002 82232 333 10136 82826 83360 95990
AAXX 16184 60468 12560 12412 10110 21009 39244 48505 56013 60002 81200 333 10171 81826 95990
AAXX 16184 60507 12960 62112 10133 21007 40235 57014 60002 82034 333 10183 82360 86073 95990
AAXX 16184 60511 12560 62520 10099 21012 39101 48531 55012 60002 81504 333 10150 81626 86071 95990
AAXX 16184 60535 12970 33210 10105 20002 38880 48543 58010 60002 80001 333 10142 83070 95900
AAXX 16184 60536 12960 72410 10150 21045 39364 48545 58008 60002 80002 333 10180 87073 95990
AAXX 16184 60549 11960 32016 10126 21008 38984 48576 56005 60002 70200 80002 333 10170 83073 95990
AAXX 16184 60550 12960 70000 10088 20014 38729 48563 56007 60002 80002 333 10130 87073 95990
AAXX 16184 60555 12970 20000 10124 20071 40238 56012 60002 80002 333 10194 82073
AAXX 16184 60559 12960 10000 10135 20056 40231 58011 60002 80001 333 10193 81073
AAXX 16184 60581 12960 02105 10138 20026 40245 56009 60002 333 10192
AAXX 16184 60602 12960 00804 10162 20059 40263 56005 60002 333 10190 95990
AAXX 16184 60607 12960 00109 10160 21021 40248 53003 60002 333 10203
AAXX 16184 60640 12960 00906 10155 20017 40235 56003 60002 333 10204
AAXX 16184 60690 NIL
AAXX 16184 41315 36/// /3508 10165 20082 39176 42814 333 0E/// 10225 59017
AAXX 16181 22165 12598 81511 10016 20008 39944 40005 53019 60010 885// 333 10015 91115
AAXX 16181 22676 11484 81403 10013 20002 30057 40136 57006 69910 70282 889// 333 10022
AAXX 16181 22837 31459 80903 10013 20005 39971 40041 58034 78082 889// 333 10032 85710
AAXX 16181 22954 31296 81603 10004 21002 39846 40096 57024 77172 8872/ 333 10017 86704
AAXX 16181 23405 12572 81904 10000 21026 30064 40165 52013 60020 885// 333 11015 88632
AAXX 16181 23412 11498 81605 11044 21060 30088 40188 52015 60010 70282 887// 333 11052 84711
AAXX 16181 23803 11499 81302 11140 21115 30066 40251 51001 60020 70272 8802/ 333 11043 88517
AAXX 16181 27066 11496 81804 10005 21001 39992 40171 57011 69970 77177 8872/ 333 10008 88712
AAXX 16181 27083 11450 81804 11003 21006 39978 40205 57010 69940 71082 886// 333 10003 93402
AAXX 16181 27113 11250 81604 10010 20007 39924 40070 57020 60020 76176 8872/ 333 10023 86705
AAXX 16181 27242 11397 81103 10012 20009 30005 40134 57011 60040 78582 887// 333 10024 88708
AAXX 16181 27329 11568 81805 10018 20013 39979 40105 57014 60030 78082 889// 333 10019
AAXX 16181 27355 12497 81807 10002 21007 30010 40176 57021 69930 885// 333 10008
AAXX 16181 27373 12296 81707 11008 21024 30004 40226 57003 69930 886// 333 11001 88706 91112 93404
AAXX 16181 27665 32997 81604 11018 21042 39956 40233 57014 8807/ 333 11007
AAXX 16181 27835 11396 81804 10000 21006 30021 40182 57013 69950 71022 886// 333 10006 88709
AAXX 16181 28009 11497 81905 11036 21044 30053 40270 54000 69970 78583 889// 333 11020
AAXX 16181 28411 11497 81505 11077 21095 30130 40335 52006 69930 70272 8872/ 333 11050 88712 93401
AAXX 16181 28418 32598 81704 11093 21113 30165 40341 58001 885// 333 11068 88627
AAXX 16181 22282 NIL
AAXX 16181 22438 NIL
AAXX 16181 22471 12484 82005 10016 21000 30061 40085 52008 69910 885// 333 10020 88612
AAXX 16181 22563 12497 81703 10015 20004 30062 40101 52006 60020 885// 333 10020 88615
AAXX 16181 22641 12999 31602 10012 21008 30046 40062 54000 69900 83030 333 10030 91110
AAXX 16181 22695 12498 81803 10002 21001 30017 40171 54000 60030 887// 333 10002 87712
AAXX 16181 22867 31497 81402 10007 21001 30005 40119 57014 77176 8872/ 333 10023 86710 91106
AAXX 16181 22939 11496 81404 10003 21003 29898 40060 57022 69930 77172 8872/ 333 10021 84710
AAXX 16181 22996 11496 81804 11003 21012 30025 40218 57007 60010 78587 8392/ 333 10007
AAXX 16181 23324 11477 82306 11038 21050 30115 40194 52012 69960 73673 886// 333 11021 88713
AAXX 16181 27008 11397 81103 10003 20000 39866 40036 57034 60020 77176 8772/ 333 10022
AAXX 16181 27051 11497 81703 10006 20001 39972 40140 57005 60020 70272 8655/ 333 10016 84711
AAXX 16181 27225 11459 81704 10017 20006 39953 40084 57018 60040 76176 8872/ 333 10027 88716
AAXX 16181 27252 11496 81605 10004 20001 39977 40165 57003 60020 76176 8877/ 333 10007 88713
AAXX 16181 27333 11277 81706 10011 20008 39965 40122 57014 60020 76176 887// 333 10016 88706
AAXX 16181 27369 12697 81705 11004 21016 30075 40215 57002 69940 885// 333 10007
AAXX 16181 27393 11398 82006 11050 21060 30108 40282 53005 69960 70252 8665/ 333 11024 93403
AAXX 16181 27479 12498 81803 10001 21019 30111 40247 57002 69930 886// 333 10006 88711
AAXX 16181 27532 11396 81708 10002 21006 39931 40149 57010 60040 71062 885// 333 10010 86706 91012 91112
AAXX 16181 27648 12497 81704 11003 21024 30021 40192 57009 69900 886// 333 20006 88711
AAXX 16181 27675 42497 81505 11013 21030 30090 40263 57001 885// 333 11002 88616
AAXX 16181 27679 32598 81606 11037 21048 30045 40276 57007 885// 333 11018 88623
AAXX 16181 28214 11596 81703 11050 21060 30082 40303 52004 60010 78522 889// 333 11035
AAXX 16181 34560 11/01 91309 11019 21019 30087 40258 57009 69970 74554 333 10003 89/01 93616
AAXX 16181 34720 32999 00905 10038 20019 30113 40153 56014 333 10032
AAXX 16181 34730 32497 61209 10054 20023 30073 40165 57011 86500 333 10041 86617
AAXX 16181 34740 32598 81106 10049 20030 30078 40175 58011 885// 333 10064
AAXX 16181 34824 31996 61204 10043 20021 30117 40122 57016 71022 80001 333 10077
AAXX 16181 34858 31496 81305 10031 20016 30092 40200 57012 71022 886// 333 10051
AAXX 16181 34866 31496 81107 11012 21012 30249 40240 58013 71022 8860/ 333 10043
AAXX 16181 34880 31395 80802 11027 21030 30303 40276 57011 71022 886// 333 11006 88709 93402
AAXX 16181 37018 32998 60402 10090 21006 30039 40114 56017 80031 333 10144
AAXX 16181 37054 31496 81204 10013 20001 39798 40189 57016 71022 886// 333 10019
AAXX 16181 37472 31596 81306 10061 20047 30215 40193 57010 75052 886// 333 10068 91014 91116
AAXX 16183 64800 NIL
AAXX 16183 64820 NIL
AAXX 16183 64860 31930 70000 10270 20078 39840 40112 70522 80002 333 10330 58006 87080
AAXX 16183 64861 NIL
AAXX 16183 64870 32960 50402 10203 20062 38913 48505 80002 333 10295 58002 85080
AAXX 16183 64871 NIL
AAXX 16183 64892 NIL
AAXX 16183 64893 NIL
AAXX 16183 64894 NIL
AAXX 16184 64910 31430 72604 10280 20255 30093 40102 70522 83302 333 10328 58001 83616 81920 87080 94945 95835
AAXX 16184 64911 NIL
AAXX 16184 64950 NIL
BBXX 41053 16181 99185 70661 46/// /0407 10264 40142 58018 91800 22200 00275 11005 70023 333 91209
BBXX 41053 16181 99185 70661 46/// /0407 10264 40143 91750 333 91209
BBXX 41053 16181 99185 70661 46/// /0407 10264 40144 91740 333 91209
AAXX 16181 40650 12960 03203 10110 20070 40198 52013 60002
AAXX 16181 40604 12960 00000 10089 20016 40203 51006 60002
AAXX 16181 40608 11558 60000 10098 20077 40208 52007 69912 780// 86800
AAXX 16181 40621 12960 00302 10112 20052 40231 53005 69922
AAXX 16181 40629 12960 00000 10070 20026 40219 52008 60002
AAXX 16181 40631 12960 00000 10110 20080 40213 52012 60032
AAXX 16181 40634 12960 02703 10080 20016 40192 52020 60002
AAXX 16181 40642 42960 00000 10058 21034 40227 52009 60002
AAXX 16181 40656 12960 00000 10131 20053 40175 52011 60002
AAXX 16181 40665 12960 00000 10100 20035 40198 52013 60002
AAXX 16181 40670 12960 00000 10130 20015 40181 53012 60002
AAXX 16181 40674 42960 00000 10119 21004 40188 57015 60002
AAXX 16181 40680 12960 23201 10120 20045 40192 52018 60002 80002
AAXX 16181 40676 42960 13503 10138 20042 40186 51019 60002 80001
AAXX 16181 40691 12960 50302 10150 20104 40186 50004 60002 85030
AAXX 16181 40623 12960 01201 10076 20012 40221 53017 60002
AAXX 16181 40637 12960 20000 10090 20071 40188 50002 69902 80002
AAXX 16181 40689 12960 62103 10160 20081 40178 52012 60002 86030
BBXX 3ERR2 16184 99635 10053 43/// /2025 10054 20038 49811 52012 22200 10706 70032 333 91134
BBXX LF3F 16184 99643 10078 43/// /2023 10053 20013 49815 52003 22200 04091 10708 70039 333 91133
BBXX LF3N 16184 99653 10073 41497 82120 10048 20033 49782 52013 78182 8//// 22200 00090 10707 70035
BBXX LF4B 16184 99606 10037 47/98 /2715 10035 49867 52006 761// 22200 00055 10805 70027 333 91124
BBXX LF4C 16184 99584 10019 41598 43018 10062 20008 49902 52014 70204 89/// 22200 00075 10805 70024 333 91120
BBXX LF5T 16184 99660 10081 43/// /1925 10047 20024 49774 52010 22200 06083 10805 70025 333 91135
AAXX 16181 01311 47772 41303 10000 21002 39813 49875 50007 723// 333 10021 91106
BBXX 42067 16181 99300 70886 46/// ///// 10135 20131 40228 91740 22200 00164 10602 70009
AAXX 16181 01144 41986 01111 10040 21035 70100 333 10053 91114
AAXX 16181 01025 17/84 02003 10016 21031 39858 49869 52011 6//// 700// 333 10032 91109
BBXX 44067 16181 99384 70770 46/// /0606 10083 40221 50003 91800
BBXX 41029 16181 99328 70796 46/// /2103 1//// 91800 555 11039 22045
BBXX 44032 16181 99437 70694 46/30 /3012 10086 40075 53026 91804 22200 00089 10804 70022 333 91216 555 11153 22163
BBXX DBKR 16181 99541 10121 46/// /0508 10007 20007 49699 57022 22200 00047
BBXX DBND 16181 99/// ///// 46/// ///// 10042 20032 49762 52052 22220 00081
BBXX 61001 16184 99434 10078 46/// /2427 10152 20111 49948 57026 22200 00153 10907 70036 555 1/035
BBXX DBFH 16181 99535 10086 46/// /3508 10045 20033 49770 52042 22232 00044
BBXX 41101 16184 99146 70562 46/// /3406 10268 20218 40104 57020 22200 00278 10903 70015
BBXX BAREU08 16184 99348 70388 46/// ///// 40223 52013 22224
BBXX BAREU11 16184 99111 70753 46/// ///// 40100 57025 22283
BBXX BAREU54 16184 99096 70800 46/// ///// 40109 57008 22223
BBXX A8BZ6 16184 99389 70484 41/98 /0220 10180 40170 57010 70322 8//// 22264 04180 2//// 301// 40510
BBXX A8SF8 16184 99201 70647 41298 50517 10270 20181 40175 50010 70300 83745 22264 04270 20905 336// 41204 80210
BBXX BAREU06 16184 99482 70695 46/// ///// 40052 52065 22253
BBXX FVNM 16184 99061 70925 46/// /2117 10240 20230 40119 58003 22222 00264
BBXX BATEU01 16184 99487 70628 44597 72913 10034 20024 49915 55001 70222 84365 22234 00030 21002 318// 41002 5////
BBXX DBBC 16181 99542 10079 46/// /0110 10050/2//// 497/5 52043 22270 04073
BBXX DBBA 16181 99538 10082 46/// /3515 10049 20028 49781 52063 22272 00050
BBXX DBCK 16181 99/// ///// 46/// ///// 10043 20042 49761 52053 22220 04047
BBXX BAREU63 16184 99337 10348 46/// /2411 10178 29062 40190 54000 22213
BBXX TESTFR9 16184 99498 70039 46/// /2851 10075 29076 49994 52002 22284
BBXX BAREU05 16184 99422 70320 46/// ///// 40232 57006 22263
BBXX BAREU60 16184 99441 10152 46/// ///// 49979 22200
BBXX BATFR32 16184 99427 10095 46/// /2414 10173 20090 49958 5//// 7//// 8//// 2229/ 00172
BBXX BATFR04 16184 99597 70110 46/// /3521 10050 21012 49989 51022 22200 00102
BBXX BATFR16 16184 99495 70001 46/// /3131 10089 21003 49971 22273 00120
BBXX BATFR11 16184 99323 10287 46/// /2814 10182 20129 40202 53006 22223 00202
BBXX BATFR22 16184 99428 10095 46/// /2546 10172 49951 22284 00177
BBXX BATFR09 16184 99379 70096 44497 62926 10172 20139 40272 58007 70311 85620 22283 00179 20304 328// 40606 5////
BBXX BATEU06 16184 99558 70239 46/// /3033 10064 20012 40165 52032 22264 00100
BBXX BATEU04 16184 99603 70070 46/// /3419 10037 21013 49965 51015 22223
BBXX BATFR02 16184 99503 70007 46/// /2837 10075 20000 49961 51028 22284 00130
BBXX PHQX 16183 99496 70065 41297 82813 10130 20058 40052 71322 8/7// 22224 20705 328// 41407 5//// 80093
BBXX BATFR42 16184 99503 70018 46/// /3319 10077 20015 49983 22243 00122
BBXX BATFR54 16184 99446 70058 46/// /2836 10107 20045 40190 50013 22223 00142
BBXX BATFR60 16184 99521 10031 46/// /3122 10059 20034 49875 53038 22213 00094
BBXX BATFR52 16184 99498 70039 46/// /2743 10075 20025 40010 50011 22284 00124
BBXX BATUK01 16184 99582 70064 46/// /2706 10010 21026 49982 51028 22200 00107
BBXX DCPY2 16184 99097 10673 41/// /2321 10275 20239 40120 52010 71511 8//// 22224 00280 20304 80250
BBXX A8YW2 16184 99263 30531 41/98 /0922 10243 20156 40150 58005 70322 8//// 22213 00230 20905 80190
BBXX C6OM8 16180 99052 50333 41497 31409 10272 20225 40109 56010 70211 832// 22243 06272 20403 314// 40403 5//// 80240
BBXX BATFR56 16184 99177 30608 46/// /1310 10259 20224 40110 51007 22252 00279
BBXX BATFR05 16184 99063 10034 46/// /1811 10285 20202 40099 53009 22200 00259
BBXX A8QJ7 16184 99052 50311 41/98 11412 10280 20237 40110 58017 7//00 81200 22253 20602 3//// 4//// 5//// 80250
BBXX DBEB 16181 99538 14081 41/// /3616 10046 20445 49776 52053/ 7//// 22200 00055
BBXX BATFR08 16184 99486 30711 46/// /2008 10037 20007 40185 51011 22213 00047
AAXX 16181 40700 12960 60000 10002 21009 30145 40237 58009 60001 80008 333 55000 86267
AAXX 16181 40723 12960 00000 11022 21059 38933 40250 56008 60001 333 55053 20839
AAXX 16181 40726 11620 82802 11002 21013 38679 40248 54000 69901 71072 8352X 333 55000 83635 88458
AAXX 16181 40727 11920 80000 11032 21054 38500 40260 51002 60001 71022 80008 333 55000 20450 88270
AAXX 16181 40734 12560 89901 10090 20073 30256 40230 57010 60001 8532/ 333 55009 81920 84630 88459
AAXX 16181 40737 12960 70000 10078 20069 30211 40229 58008 60001 87070 333 55038 2//// 87360
AAXX 16181 40741 11956 00902 10012 20002 39932 40281 58010 60001 71000 333 55033
AAXX 16181 40780 12960 60000 10070 21040 38701 40198 52008 60001 83036 333 55000 20464 83360 86270
AAXX 16181 40791 12960 00802 10072 21077 39353 40190 58003 60001 333 55080 2////
AAXX 16181 40792 12970 00000 10020 21075 38720 40197 58004 60001 333 55075
AAXX 16181 40794 12960 00000 10108 20061 30078 40177 53006 60001 91445 333 55020 20691
AAXX 16181 40812 12960 30000 10158 20027 39782 40158 50000 60001 83030 333 55014 83360
AAXX 16181 40829 12962 33502 10061 21093 39629 40213 54000 60001 80007 333 55073 83269
AAXX 16181 40833 12660 40000 10156 20098 30147 40179 54000 60001 84400 333 91745 55062 84640
AAXX 16181 40835 12660 60000 10140 20033 39344 40174 51002 60001 82470 333 55074 82640 86360
AAXX 16181 40845 12960 30802 10180 20153 30160 40169 56005 60001 80002 222// 00/// 20301 333 55075 83070
AAXX 16181 40882 12960 02802 10198 20102 30126 40161 51003 60001 333 55100
AAXX 16181 40889 NIL
AAXX 16181 40890 NIL
AAXX 16181 40893 12960 03003 10202 20107 30154 40160 51006 60001 222// 00/// 20301 333 55098
AAXX 16181 40897 NIL
AAXX 16181 08501 NIL
AAXX 16181 08505 32262 62502 10187 20169 30262 40312 51003 84802 333 10196 82706 83709 85070 555 60007
AAXX 16181 08506 32/// /2404 10176 20166 30246 40318 52002 333 10192 91006 91106 555 60005
AAXX 16181 08509 11460 52306 10184 20170 30245 40310 55004 60032 78082 82804 333 10194 81815 83070 91110 555 60017
AAXX 16181 08511 32/// /2602 10172 2//// 30208 40316 54000 333 10177 91105 555 60005
AAXX 16181 08512 32480 62202 10175 20150 30235 40321 54000 83801 333 10195 81816 83640 555 60005
AAXX 16181 08515 32489 32302 10188 20138 30208 40329 56001 83801 333 10205 81819 83640 910// 911// 555 60007 912//
AAXX 16181 08521 32470 40306 10172 20094 30254 40325 56002 84800 333 10197 83816 555 60007
AAXX 16181 08522 32570 10000 10177 20090 30249 40319 57001 81800 222// 314// 40301 333 10210 81823 91105 555 60005
AAXX 16181 08524 32470 30703 10163 20103 30230 40329 54000 83800 333 10186 81816 83630 91107 555 60005
AAXX 16181 08530 NIL
AAXX 16181 08531 12/// /3308 10156 20139 30222 40261 52004 60012 333 10170 91013 91117 555 69975
AAXX 16181 08532 NIL
AAXX 16181 08533 32/// /0000 10169 20145 30262 40291 54000 333 10181 91008 91111 555 60005
AAXX 16181 08534 11460 82604 10166 20150 30241 40258 57008 69932 75886 888// 333 10186 84716 85820 85630 555 69907
AAXX 16181 08535 12/// /2705 10163 20151 30170 40262 57005 69952 333 10178 91011 91111 555 69925
AAXX 16181 08537 NIL
AAXX 16181 08540 11260 83406 10142 20128 30181 40250 53008 60032 72065 8787/ 333 10162 84705 84812 85630 91120 555 60027
AAXX 16181 08541 32/// /2706 10160 20140 30159 40277 57005 333 10173 555 60005
AAXX 16181 08544 11460 73608 10130 20093 30227 40248 52019 60042 70252 86801 333 10170 81812 83818 85822 91013 91113 555 69937
AAXX 16181 08545 11565 53305 10115 20065 30172 40256 52025 60032 70282 84802 333 10163 83825 91011 91111 555 60005
AAXX 16181 08548 12/// /3404 10125 20111 30047 40253 52019 60042 333 10156 91008 91110 555 60005
AAXX 16181 08551 11466 49902 10106 20062 30199 40257 52024 60042 70162 84801 333 10163 83818 91006 91108 555 60005
AAXX 16181 08554 32565 72707 10165 20136 30276 40286 57004 86801 333 10181 82824 86640 555 60005
AAXX 16181 08558 12/// /2506 10138 20136 39960 40254 57007 69922 333 10156 91009 91109 555 69925
AAXX 16181 08560 11358 83105 10079 20061 39473 40239 53024 60072 71062 887// 333 10125 88707 91011 91112 555 60005
AAXX 16181 08561 32470 72707 10150 20133 30033 40265 57010 86801 333 10160 85815 85640 91010 91110 555 60007
AAXX 16181 08562 32/// /2606 10144 20125 39970 40264 57005 333 10162 91109 555 60005
AAXX 16181 08567 12/// /3206 10091 20048 39574 40242 52044 60042 333 10142 91010 91110 555 60005
AAXX 16181 08568 NIL
AAXX 16181 08570 11465 62909 10137 20111 39765 40221 52005 60012 72162 8487/ 333 10161 81812 83817 91114 555 69935
AAXX 16181 08571 12/// /3004 10121 20121 39531 40233 57010 60052 333 10121 91012 91112 555 60025
AAXX 16181 08575 12/// /3106 10067 20020 39398 40217 52035 60092 333 10136 91012 91115 555 60005
AAXX 16181 08579 12/// /2406 10164 20149 30135 40259 57006 69932 333 10176 91010 91112 555 69935
AAXX 16181 14235 11760 6//// 10051 20045 38784 48260 57031 60002 70144 86070 333 10054
AAXX 16181 14246 11480 71807 10112 20051 39703 49899 57/// 60002 700// 87800 333 10125
AAXX 16181 14314 12665 82111 10158 20045 39889 49951 57/// 60002 8487/ 333 10160 92345 92457
AAXX 16181 14323 11662 81508 10142 20092 39915 49948 57/// 60012 76162 8802/ 333 10162 92333 92437
AAXX 16181 14324 11/00 92717 10011 20011 38222 48331 57/// 60042 761// 333 10016 41998
AAXX 16181 14328 NIL
AAXX 16181 14330 12560 82005 10106 20052 39312 49957 57/// 60032 885// 333 10111
AAXX 16181 14438 11970 51604 10153 20088 39898 49986 57/// 60002 702// 80002 333 10164 923//
AAXX 16181 14443 32698 618// 10158 20110 39828 40016 57032 86510 333 10168 92345 911//
AAXX 16181 14447 NIL
AAXX 16181 14472 12565 81614 10154 20095 30022 40085 58023 60002 8527/ 333 10154 92323
AAXX 16184 65501 32960 70000 10256 21041 39815 40134 80002 333 10306 58000 87076
AAXX 16184 65502 32960 70402 10258 20017 39742 40124 80002 333 10320 58002 87076
AAXX 16184 65503 31935 50404 10275 20008 39775 40122 70622 80002 333 10328 58002 85076
AAXX 16184 65505 32960 70404 10285 20047 39774 40115 80002 333 10334 59004 87076
AAXX 16184 65507 32960 70404 10282 20012 39762 40112 80002 333 10336 59008 87076
AAXX 16184 65510 32960 63604 10292 20004 39596 40111 80002 333 10326 58000 86076
AAXX 16184 65516 32965 60000 10295 20019 39801 40108 80002 333 10336 59003 86076
AAXX 16184 65518 32965 73602 10280 20050 39737 40102 80002 333 10333 59013 87076
AAXX 16184 65522 32960 70000 10307 21009 39775 40105 80002 333 10342 58003 87076
AAXX 16181 50844 32962 03202 11183 21243 40247 57002 333 11082
AAXX 16181 50854 32970 00000 11203 21250 40245 57007 333 11126
AAXX 16181 50968 32962 02502 11201 21237 40282 57014 333 11141
AAXX 16181 51379 31758 81603 11109 21124 40407 57002 71000 885// 333 00002 11049
AAXX 16181 51467 32980 00000 11110 21167 38319 52009 333 00101 11033
AAXX 16181 51495 32980 03607 11066 21121 40364 57004 333 00153 11014
AAXX 16181 53480 32980 00401 11203 21262 40421 52003 333 11099
AAXX 16181 53673 32961 03601 11129 21187 40397 57003 333 11051
AAXX 16181 53698 32965 02501 11058 21117 40364 57010 333 10004
AAXX 16181 53898 32965 01601 11075 21113 40368 57008 333 10005
AAXX 16181 54308 32980 00000 11195 21263 40388 57004 333 11072
AAXX 16181 54602 32961 02001 11090 21136 40361 57008 333 11010
AAXX 16181 54725 32965 02503 11066 21174 40380 57001 333 11015
AAXX 16181 54751 32975 02907 11015 21103 40345 57011 333 11011
AAXX 16181 54916 32962 00000 11088 21116 40385 57001 333 10008
AAXX 16181 57014 32963 81104 11014 21071 40311 57007 8807/ 333 05504 10041
AAXX 16181 57025 32762 62001 11036 21070 40356 57007 86500 333 10000
AAXX 16181 57046 32967 22006 11048 21104 37992 57008 82030 333 05305 11011
AAXX 16181 58208 32962 30902 11004 21074 40371 57004 83040 333 10053
AAXX 16184 87593 11560 51821 10193 20182 30085 40113 50001 69901 72582 85200 333 56400 57800 85822
AAXX 16184 87623 32780 41407 10278 20117 39912 40133 57020 84100 333 56300 84856
AAXX 16184 87641 32665 71411 10241 20115 39962 40135 57013 87500 333 56300 87640
AAXX 16184 87645 32570 71411 10220 20105 39937 40141 56005 85570 333 56440 85620
AAXX 16184 87648 11460 81612 10200 20150 30116 40127 57007 69991 72582 8762/ 333 56379 87710
AAXX 16184 87692 NIL
AAXX 16184 87715 32770 20905 10328 20073 39804 40109 57019 82100 333 56600 82656
AAXX 16184 87750 32565 21420 10248 20129 30054 40154 57012 81102 333 56302 81825
AAXX 16184 87765 31930 23218 10295 20074 39185 48507 57011 70400 80001 333 56006 82070 96104 96120
AAXX 16184 87784 32580 11411 10250 20109 30118 40142 57017 81100 333 56600 81830
AAXX 16184 87800 31965 01810 10308 20094 39733 40116 57032 70400 333 96104
AAXX 16184 87803 31660 12712 10292 20035 39218 40095 58003 70400 81100 333 56100 81835 96104
AAXX 16184 87828 31970 00221 10292 20123 30066 40117 57024 70400
AAXX 16184 87860 31665 71406 10259 20157 30013 40067 57015 70411 81176 333 56677 81840 83360 85270 96120
AAXX 16184 87904 32680 42713 10222 20062 39848 40087 54000 81464 333 56666 81640
AAXX 16184 87909 NIL
AAXX 16184 87925 32980 72508 10248 20044 30057 40080 52004 83076 333 56055 83360 84270
AAXX 16184 87938 32680 72527 10137 20079 39986 40054 52037 86570 333 56550 86634 85556
AAXX 16184 89022 42483 60712 11052 21090 39758 49795 52025 865/1 333 86625
AAXX 16184 89062 41456 80210 10013 21002 39621 49661 52003 76876 886// 333 87710
AAXX 16184 87078 32770 32303 10336 20134 39934 40082 57020 83100 333 56500 83850
AAXX 16184 87244 NIL
AAXX 16184 87393 31558 61815 10272 20144 30014 40077 57015 70422 86800 333 56400 84623
AAXX 16184 87416 32665 10902 10288 20093 39389 40113 57017 81100 333 56100 81845
AAXX 16184 87563 32565 70917 10241 20117 30067 40119 57020 87400 56680 87625
AAXX 16184 87640 32965 00906 10265 20085 30025 4//// 57017
AAXX 16184 87688 32470 70908 10217 20114 30020 40157 57013 85105 333 56200 85812
AAXX 16184 87774 32582 62705 10319 20132 39116 48491 5//// 84205 333 56600 57896 84830 86270
AAXX 16184 87852 32982 12726 10258 20032 39602 40090 56003 70400 81070 333 56010 81360
AAXX 16183 87791 32680 20506 10274 20120 30145 40153 57020 81130 333 56800 81840
AAXX 16181 28049 12997 51702 11147 21161 30179 40356 58003 69920 80050 333 11143
AAXX 16181 28144 11497 81402 11104 21115 30180 40347 58003 69900 77172 8372/ 333 11113
AAXX 16181 28319 11496 81902 11079 21097 30164 40338 53002 69960 77172 8802/ 333 11069
AAXX 16181 28321 11999 81504 11081 21095 30115 40327 52003 69930 70282 8802/ 333 11073
AAXX 16181 28334 11496 82101 11080 21102 30042 40362 52003 69950 77172 8802/ 333 11079
AAXX 16181 28434 11498 81502 11074 21098 30095 40366 52001 69920 70282 889// 333 11077 86918
AAXX 16181 28552 12998 51102 11234 21258 30291 40418 58004 69900 80002 333 11218
AAXX 16181 28666 12999 02201 11264 21291 30229 40428 57002 69900 333 11210
AAXX 16181 28825 32597 72201 11111 21129 30207 40391 58003 82530 333 11082
AAXX 16181 29111 42998 80000 11268 21289 30335 40434 52011 80005
AAXX 16181 29209 42998 30000 11254 21272 30279 40421 52024 80002
AAXX 16181 29551 42997 00000 11227 21252 30259 40463 53015
AAXX 16181 29602 42998 00903 11274 21298 30234 40393 52013
AAXX 16181 29636 42998 00000 11219 21225 30202 40444 52007
AAXX 16181 29654 42999 30000 11182 21194 39778 40449 53006 83040
AAXX 16181 29712 42998 01202 11267 21292 30243 40404 51006
AAXX 16181 29724 42997 00000 11289 21314 30196 40428 52007
AAXX 16181 29726 42998 00000 11269 21293 30253 40443 52012
AAXX 16181 29814 41497 81205 11243 21268 30231 40395 53007 78582 889// 333 88915
AAXX 16181 29827 42997 01401 11270 21301 30253 40428 51002
AAXX 16181 29923 41999 00000 11248 21273 30123 40433 53002 70271
AAXX 16181 29939 42997 83101 11196 21215 30112 40423 53005 80001
AAXX 16181 35026 32996 00000 11174 21190 39724 40420 58005 71000 333 11089
AAXX 16181 36021 42999 01603 11283 21300 30208 40412 53001
AAXX 16181 36022 42997 00701 11357 21387 30139 40446 53004
AAXX 16181 36038 41496 50000 11181 21200 39938 40420 53001 78582 85900 333 85914
AAXX 16181 36058 42999 70000 11138 21144 39853 40412 52001 80002
AAXX 16181 36064 41599 10503 11081 21117 39779 40400 54000 70270 81600
AAXX 16181 36229 42999 80000 11217 21222 39181 40468 54000 8293/
AAXX 16181 36259 42999 00000 11291 21322 38290 48582 54000
AAXX 16181 23914 11497 81604 11071 21076 30030 40300 52003 60030 77172 8377/ 333 11076
AAXX 16181 23921 11496 80000 11117 21130 30193 40319 57005 69900 78582 889// 333 11136 88918
AAXX 16181 23955 42484 60000 11269 21285 30357 40427 52005 86600 333 86712
AAXX 16181 23966 42999 00000 11306 21330 30283 40429 52008
AAXX 16181 28138 11996 82602 11094 21101 39748 40347 54000 69930 77172 8802/ 333 11096
AAXX 16181 28224 11496 81803 11076 21094 30109 40333 52005 60010 77172 885// 333 11073
AAXX 16181 28255 32994 01701 11241 21265 30254 40399 55003 333 11235
AAXX 16181 28440 31597 81502 11086 21101 3//// 4//// 5//// 78782 8890/ 333 11082
AAXX 16181 28645 11997 81601 11126 21139 30088 40405 52005 69930 8802/ 333 11124
AAXX 16181 28661 32997 01701 11248 21272 30324 40428 55001 333 11212
AAXX 16181 28722 12697 81601 11096 21122 30239 40378 57001 69900 885// 333 11081
AAXX 16181 28748 11959 80701 11121 21134 30147 40405 52003 69960 71072 8807/ 333 11124
AAXX 16181 28838 12996 80801 11066 21078 39887 40385 52002 69920 8807/ 333 11046
AAXX 16181 29231 42998 00000 11273 21298 30336 40446 52016
AAXX 16181 29313 41998 00101 11288 21307 30294 40434 52018 70271
AAXX 16181 29612 42998 01203 11268 21293 30237 40408 52009
AAXX 16181 29638 41596 60000 11211 21236 30257 40441 52009 77172 82501
AAXX 16181 29838 41996 80000 11191 21210 30172 40428 52002 77172 8802/
AAXX 16181 29846 41938 53601 11186 21198 30007 40429 54000 71022 80001
AAXX 16181 36061 42999 60000 11219 21232 39975 40427 53003 80001
AAXX 16181 40716 11958 50000 10010 21021 38940 40253 50003 60001 70500 80001 333 55018 85069
AAXX 16181 40719 11530 82502 10074 20065 30239 40229 56010 69901 71052 8652/ 333 55000 86620 88458
AAXX 16181 40721 12960 01705 10032 21005 39684 40244 57009 60001 333 55006
AAXX 16181 40858 11660 50000 10186 20148 30156 40167 50004 60001 70500 83570 333 55074 83640 85360
AAXX 16181 40872 12960 00000 10198 20135 30160 40165 52009 60001 222// 00/// 20000 333 55083
AAXX 16181 40877 12960 00000 10114 21008 39596 40145 52010 60001 333 55098
AAXX 16181 40898 12962 00000 10212 20092 30150 40159 51010 60001 222// 00242 10900 333 55098 2////
AAXX 16184 60395 12965 61404 10177 20046 40168 56006 60002 80002 333 10208 86073 95990
AAXX 16184 60421 12660 61812 10112 20056 39161 48502 56008 60002 83202 333 10165 83840 84070 95990
AAXX 16184 60423 12965 32608 10129 20038 39199 48475 56016 60002 80002 333 10157 83073 95990
AAXX 16184 60430 12965 62824 10120 21005 40211 57019 60002 80002 333 10150 86073 95990
AAXX 16184 60437 12570 72408 10088 20036 38997 48500 56012 60002 83802 333 10129 81826 85070 95990
AAXX 16184 60444 12960 32214 10086 20043 39106 48516 56015 60002 80002 333 10116 83073 95900
AAXX 16184 60452 12665 5//// 10160 20103 40218 56004 60002 82502 222// 2//// 333 10195 82640 84073 91826
AAXX 16184 60457 12565 12408 10136 20106 40224 55008 60002 81200 333 10173 81820 95990
AAXX 16184 60514 12960 62614 10124 20041 39324 48568 57015 60002 83032 333 10176 83360 85073 95990
AAXX 16184 60518 12565 72716 10153 20121 40229 56003 60002 82572 222// 29903 333 10178 82620 84360 91857 95990
AAXX 16184 60520 12960 62610 10115 20086 40237 56013 60002 80002 333 10189 86073 95990
AAXX 16184 60540 11560 22508 10124 20048 39099 48555 53005 60002 70200 80001 333 10151 82073 95990
AAXX 16184 60560 11960 50000 10112 21047 39019 48558 56003 60002 70211 81032 333 10193 81360 85073 95990
AAXX 16184 17310 11560 73007 10126 20088 30150 40157 55005 60062 79582 84970 333 10176 81925 83830 87460 911 16 92427
AAXX 16181 23909 11498 71803 11050 21060 30018 40274 51002 60010 73673 875// 333 11050
AAXX 16181 28044 32597 81602 11095 21106 30156 40328 57010 885// 333 11122
AAXX 16181 28116 11498 81303 11065 21081 30056 40298 52002 60010 70287 889// 333 11054 93402
AAXX 16181 28240 11998 82002 11080 21009 30015 40355 54001 69900 70272 8807/ 333 11083
AAXX 16181 28522 11997 81805 11097 21117 30097 40371 52004 69930 70272 8805/ 333 11085
AAXX 16181 28621 12497 81603 11097 21123 30118 40365 53002 69900 889// 333 11083
AAXX 16181 29023 41996 80000 11296 21320 30326 40437 52011 77171 8802/
AAXX 16181 29122 42999 00000 11285 21304 30351 40434 52012
AAXX 16181 29328 42998 00000 11256 21278 30288 40445 52015
AAXX 16181 29348 42997 00000 11225 21241 30294 40456 52014
AAXX 16181 29405 42997 50902 11252 21277 30240 40406 52012 80001
AAXX 16181 29418 42998 00901 11256 21288 30245 40425 52016
AAXX 16181 29430 42998 00000 11221 21240 30255 40451 52013
AAXX 16181 29524 42998 01102 11264 21282 30246 40430 52014
AAXX 16181 29605 41998 00702 11261 21273 30229 40389 52019 70281
AAXX 16181 29631 42697 31901 11225 21243 30235 40442 52008 83500
AAXX 16181 29645 42997 00000 11232 21250 30236 40445 52002
AAXX 16181 29706 41998 01404 11254 21278 30223 40387 52010 70271
AAXX 16181 29736 42997 82801 11244 21269 30158 40437 53007 80001
AAXX 16181 29937 42997 60000 11213 21238 30187 40431 52003 80005
AAXX 16181 36034 41998 03201 11307 21336 30126 40444 54000 70271
AAXX 16181 36096 41996 80701 11281 21305 39677 40561 53001 77177 8807/ 333 95090
AAXX 16183 RTD 91848 36/// /1602 10259 20230 40095 52004 555 20000
AAXX 16181 34357 11598 81505 10019 20000 30076 40239 57005 69900 70254 885// 333 10003
AAXX 16181 34363 11/91 91304 11040 21040 30129 40288 57008 69900 75654 333 11033 93403 96045
AAXX 16181 34545 11498 71307 10029 20011 30099 40211 57005 69900 70352 87500 333 10032
AAXX 16181 34579 31996 81004 11058 21061 30241 40286 57011 71022 8705/ 333 11022 93603
AAXX 16181 34838 32997 01403 10032 20009 30052 40149 58014 333 10066
AAXX 16181 34927 32997 70802 10037 20004 30095 40132 57009 80031 333 10106
AAXX 16181 34949 32498 81308 10025 20011 39620 40170 57017 885// 333 10023 88612
AAXX 16181 37001 32997 70902 10101 20019 30063 40103 57015 80002 333 10142
AAXX 16181 37031 32997 61307 10035 20007 39950 40146 57019 80001 333 10065
AAXX 16181 37061 31457 81004 10038 20025 30030 40198 56014 69940 71052 886// 333 10053
AAXX 16181 37085 32596 81008 10054 20024 30238 40265 57018 885// 333 10075 91012 91112
AAXX 16181 37107 32998 23502 10041 21005 39464 40142 57011 82010 333 10121
AAXX 16181 37126 42999 22003 11019 21124 37901 48471 57002 80001 333 10016
AAXX 16181 37171 32996 80702 10077 20027 30097 40115 57011 80001 333 10148
AAXX 16181 37228 31/93 91001 11021 21026 39333 40188 58017 74542 333 10019
AAXX 16181 37470 11496 81701 10056 20046 30232 40210 57017 60010 75155 886// 333 10065
AAXX 16181 37663 32996 00000 11034 21045 39007 48472 57015 333 10047
AAXX 16184 71228 16/// /2508 11032 21071 60001 333 11032 21149 70005
AAXX 16183 87016 32562 51404 10305 20184 39661 40055 57025 82206 333 56404 82820
AAXX 16183 87896 41960 2363 10260 20137 39986 40080 57013 70400 80005 333 56007 82270
AAXX 16184 71503 46/// /0000 11186 21207 39850 40129 51013 6///1 333 11184 21207 7////
AAXX 16184 71506 46/// /1402 11233 21252 39157 40073 58004 6///1 333 11224 21253 7////
AAXX 16184 71682 16/// /0201 11223 21243 39896 40134 53032 60001 333 11134 21227 70000
AAXX 16184 71840 46/// /2408 11072 21102 6///1 333 11070 21148 7////
AAXX 16184 71752 16/// /2508 10033 21018 30002 40222 55010 60001 333 10037 20010 70106
AAXX 16184 71550 16/// /2208 11065 21097 39882 40272 58011 60001 333 11065 21177 70000
AAXX 16184 71585 16/// /2608 11055 21086 39650 40124 50003 60001 333 21208 7////
AAXX 16184 71186 46/// /2927 11029 21078 6///1 333 10033 21030 7////
AAXX 16184 71190 46/// /2931 10000 21047 6///1 333 10053 21001 7////
AAXX 16184 71954 46/// /1705 11167 21184 39837 40232 58020 6///1 333 11162 21213 7////
AAXX 16184 71340 16/// /2408 11040 21078 60001 333 11040 21178 70000
AAXX 16184 71341 16/// /2521 10014 21049 60001 333 10014 21097 70000
AAXX 16184 71342 16/// /2413 11064 21086 60001 333 11064 21109 70023
AAXX 16184 71344 16/// /2415 11056 21097 60001 333 11042 21120 70000
AAXX 16184 71347 16/// /0105 11059 21081 60001 333 11032 21179 70000
AAXX 16184 71348 16/// /2808 11008 21058 60001 333 10006 21174 70000
AAXX 16184 71349 16/// ///// 11026 21078 60001 333 11026 21175 70000
AAXX 16184 71361 16/// /3212 11154 21180 39868 40079 53031 60001 333 11090 21186 70000
AAXX 16184 71362 16/// /1902 11136 21155 39803 40064 55000 60001 333 11122 21229 70010
AAXX 16184 71432 16/// /2506 10050 21007 30117 40215 55007 60001 333 10054 20027 70057
AAXX 16184 71026 16/// /2310 11045 21087 39362 40239 51010 60001 333 21120 7////
AAXX 16184 71269 16/// /2516 11053 21083 60001 333 11053 21125 70000
AAXX 16184 71285 46/// /2507 11052 21082 6///1 333 11052 21193 7////
AAXX 16184 71299 16/// /2809 11177 21205 39973 40264 58005 60001 333 11125 21217 70009 555 10100
AAXX 16184 71465 46/// /2410 10011 21040 30033 40254 50005 6///1 333 10030 21001 7////
AAXX 16184 71478 17/// /1924 10085 20083 30069 40206 53004 60201 7//4/ 333 10085 20045 70378
AAXX 16184 71479 16/// /1129 10082 20082 30110 40231 53016 60001 333 10082 20059 70000
AAXX 16184 71480 16/// /1601 11242 21269 30015 40142 53004 60001 333 11241 21259 70000
AAXX 16184 71496 16/// /2007 11069 21081 39595 40225 58008 60001 333 11069 21132 70000
AAXX 16184 71743 16/// /2614 11140 21167 39791 40011 58009 60001 333 11139 21173 70006
AAXX 16184 71748 16/// /2009 11120 21153 39998 40306 58009 60001 333 11120 21192 70000
AAXX 16184 71903 47/// /1507 10063 20060 30074 40123 6///1 7//4/ 333 7////
AAXX 16184 71107 16/// /2009 10077 20073 30048 40161 58007 60001 333 10079 20029 70000
AAXX 16184 71133 46/// /2106 11051 21088 39449 40177 58026 6///1 333 11051 21189 7////
AAXX 16184 71149 16/// /2706 11082 21130 60001 333 11079 21204 70000
AAXX 16184 71434 16/// /2811 11219 21265 30118 40188 50003 60001 333 11218 70000
AAXX 16184 71448 16/// /1704 11127 21168 39958 40307 58003 60001 333 11126 21185 70000
AAXX 16181 34523 32597 81305 10051 20018 30093 40169 56011 885// 333 10051 88621
AAXX 16181 10004 46/60 /3613 10066 20019 39829 49829 53048 222// 00087 333 10070 20050 55300 91118 91214
AAXX 16184 60353 NIL
AAXX 16184 60367 12560 3//// 10138 20087 40180 58027 60002 83100 333 10178 83820
AAXX 16184 60369 12959 61806 10181 20070 40174 55010 60002 82082 333 10215 82360 84070 91836
AAXX 16184 60401 NIL
AAXX 16184 60403 12960 62214 10184 21001 40165 56016 60002 81034 333 10210 81360 86075 95990
AAXX 16184 60425 12970 52414 10140 20040 40214 56012 60002 80002 333 10178 85073 95990
AAXX 16184 60461 12570 52205 10159 20095 40231 53002 60002 81502 222// 20000 333 10191 81626 85073 91838 95990
AAXX 16184 60467 12670 40000 10107 20070 40223 57017 60002 81801 333 10162 81833 84073 95990
AAXX 16184 60492 12965 52406 10140 20102 40225 56007 60002 82032 333 10194 82360 85073 95990
AAXX 16184 60515 12960 30000 10114 20064 40224 57012 60002 80002 333 10175 83070 95990
AAXX 16184 60517 12960 62002 10158 20123 40254 58003 60002 81032 333 10178 81360 86073 95990
AAXX 16184 60522 12975 32604 10117 20087 40264 55002 60002 80002 333 10197 83073 95990
AAXX 16184 60557 11970 32810 10110 21038 38925 48563 56005 60002 70200 80002 333 10161 83073 95990
AAXX 16184 60563 12960 22708 10113 20017 39346 48546 56010 60002 80002 333 10170 82073
AAXX 16184 60603 12960 00000 10152 20023 40256 54000 60002 333 10215
AAXX 16184 60638 12960 0//// 10154 20061 40252 53008 60002 333 10196
AAXX 16184 60686 12960 33608 10220 21036 40186 57007 60002 82032 333 10265 82360
AAXX 16181 60370 36/// /2405 10173 20033 333 10206
AAXX 16181 60371 36/// /2102 10166 20074 333 10203
AAXX 16181 60372 36/// /2608 10144 20039 333 10176
AAXX 16181 60373 NIL
AAXX 16181 60374 NIL
AAXX 16181 60376 NIL
AAXX 16181 60379 NIL
AAXX 16181 60380 NIL
AAXX 16181 60381 NIL
AAXX 16181 60393 NIL
AAXX 16181 60394 NIL
AAXX 16181 60593 NIL
AAXX 16181 60595 NIL
AAXX 16181 60605 NIL
AAXX 16181 60613 NIL
AAXX 16181 60623 NIL
AAXX 16184 60624 36/// /0000 10199 21021 333 10232
AAXX 16184 60639 NIL
AAXX 16184 60645 36/// /0000 10194 21046 333 10247
BBXX A8ZS7 16184 99293 30375 41597 41517 10240 20176 40160 52020 76022 847// 22254 04240 29902 80200
BBXX A8SG4 16184 99156 51299 41598 40719 10255 20197 40140 54000 70222 83142 22213 04260 20101 308// 40102 80215
BBXX A8UA9 16184 99361 70040 41/98 32740 10153 20123 40240 56023 70200 8///5 22263 20408 80135
AAXX 16181 40700 12960 60000 10002 21009 30145 40237 58009 60001 80008 333 55000 86267
AAXX 16181 40723 12960 00000 11022 21059 38933 40250 56008 60001 333 55053 20839
AAXX 16181 40726 11620 82802 11002 21013 38679 40248 54000 69901 71072 8352X 333 55000 83635 88458
AAXX 16181 40727 11920 80000 11032 21054 38500 40260 51002 60001 71022 80008 333 55000 20450 88270
AAXX 16181 40734 12560 89901 10090 20073 30256 40230 57010 60001 8532/ 333 55009 81920 84630 88459
AAXX 16181 40737 12960 70000 10078 20069 30211 40229 58008 60001 87070 333 55038 2//// 87360
AAXX 16181 40741 11956 00902 10012 20002 39932 40281 58010 60001 71000 333 55033
AAXX 16181 40780 12960 60000 10070 21040 38701 40198 52008 60001 83036 333 55000 20464 83360 86270
AAXX 16181 40791 12960 00802 10072 21077 39353 40190 58003 60001 333 55080 2////
AAXX 16181 40792 12970 00000 10020 21075 38720 40197 58004 60001 333 55075
AAXX 16181 40794 12960 00000 10108 20061 30078 40177 53006 60001 91445 333 55020 20691
AAXX 16181 40812 12960 30000 10158 20027 39782 40158 50000 60001 83030 333 55014 83360
AAXX 16181 40829 12962 33502 10061 21093 39629 40213 54000 60001 80007 333 55073 83269
AAXX 16181 40833 12660 40000 10156 20098 30147 40179 54000 60001 84400 333 91745 55062 84640
AAXX 16181 40835 12660 60000 10140 20033 39344 40174 51002 60001 82470 333 55074 82640 86360
AAXX 16181 40845 12960 30802 10180 20153 30160 40169 56005 60001 80002 222// 00/// 20301 333 55075 83070
AAXX 16181 40882 12960 02802 10198 20102 30126 40161 51003 60001 333 55100
AAXX 16181 40889 NIL
AAXX 16181 40890 NIL
AAXX 16181 40893 12960 03003 10202 20107 30154 40160 51006 60001 222// 00/// 20301 333 55098
AAXX 16181 40897 NIL
AAXX 16184 68398 16/// /3611 10195 20171 39418 48558 52011 69922 333 10259 20195 91017 555 20002 91019
AAXX 16184 71432 16/// /2506 10050 21007 30117 40215 55007 60001 333 10054 20027 70057
AAXX 16180 44214 32998 00000 11286 21312 38335 40574 54000
AAXX 16180 44231 319// 00000 11318 21375 38836 40621 52006 70400
AAXX 16180 44259 32997 02102 11248 21294 39388 40396 53013
AAXX 16180 44277 329// 50000 11192 21218 37831 40497 53001 83074
AAXX 16180 44288 32999 02502 11151 21217 38219 40445 52006
AAXX 16180 44292 32999 00000 11302 21325 38798 40545 52011
AAXX 16180 44304 329// 02305 11308 21338 39080 40479 52013
AAXX 16180 44354 329// 02303 11224 21256 39174 40401 53002
AAXX 16180 44373 32999 42702 11174 21224 38596 40421 51003 83070
AAXX 16184 41295 36/// /1004 10186 20120 39983 40164 333 0E021 10278 59018
AAXX 16181 28216 11698 81804 11074 21087 30018 40313 52004 69970 70272 885// 333 11073
AAXX 16181 28428 11598 82105 11094 21115 30171 40368 52003 69970 70272 885// 333 11075
AAXX 16181 28451 11996 81701 11163 21181 30225 40399 58003 69920 77172 8802/ 333 11167
AAXX 16181 28541 11982 82301 11085 21104 39857 40375 58004 69920 72272 8807/ 333 11088
AAXX 16181 28655 12998 51901 11223 21246 30173 40421 58001 69900 85030 333 11200
AAXX 16181 28756 32997 01102 11296 21324 30264 40435 57002 333 11219
AAXX 16181 29557 42998 00000 11227 21252 30163 40460 52014
AAXX 16181 29625 42998 01603 11256 21275 30231 40433 52009
AAXX 16181 29813 42999 01604 11253 21278 30197 40399 53014
AAXX 16181 29822 42997 01601 11278 21303 30250 40436 52006
AAXX 16181 29915 41996 81705 11234 21252 30223 40399 52003 77173 8802/
AAXX 16181 36020 42998 21501 11270 21282 30204 40431 52001 80001
AAXX 16184 48465 31558 73505 10246 20206 30122 40127 57007 71022 83546 333 58014 70000
AAXX 16184 48465 31558 73505 10246 20206 30122 40127 57007 71022 83546 333 58014 70000
AAXX 16181 10124 46/// ///// 10044 2//// 39746 49783 53054 222// 00057 333 10046 20032 553// 911// 912//
AAXX 16183 41150 41958 41308 10171 20125 40166 70500 84031 333 10206 59031 84364 81070
BBXX BAREU51 16184 99381 10134 46/// ///// 40114 57009 22235
BBXX BAREU00 16184 99499 70392 46/// ///// 40250 52001 22224
BBXX 61001 16184 99434 10078 46/// /2427 10152 20111 49948 57026 22200 00153 10907 70036 555 1/035
BBXX 41101 16184 99146 70562 46/// /3406 10268 20218 40104 57020 22200 00278 10903 70015
BBXX DBBH 16181 99371 70115 41598 42910 10175 20144 40310 53006 70211 83802 22261 04181 20402 330// 41203
AAXX 16181 13463 11560 82301 10100 20094 30034 40093 57022 60022 76162 8682/ 333 10132
AAXX 16181 13459 11565 81605 10060 20060 39338 40099 57024 60062 76366 8582/ 333 10075 85696 88597 91111
AAXX 16181 13461 32570 81606 10157 20103 30086 40094 57023 888// 333 10167 83827 85650 92344 92447
AAXX 16181 13363 32670 71406 10091 20030 39126 48369 57031 87500 333 10091 91116
BBXX 46111 16181 99481 71227 46/// /1305 10079 40309 54000 91800 22200 00057
BBXX 46112 16181 99481 71227 46/// /1503 10078 40310 54000 91800
BBXX 46249 16181 99338 71197 46/// ///// 1//// 91812 22200 00147 11202 21002 327// 41201 70010
BBXX 46248 16181 99461 71247 46/// ///// 1//// 91804 22200 00088 11504 20803 330// 41503 70022
BBXX 46244 16181 99409 71244 46/// ///// 1//// 91805 22200 00098 11005 21004 330// 41802 70023
AAXX 16184 48464 31557 83205 10236 20195 30109 40122 57003 71022 83476 333 58013 70000
BBXX 46240 16181 99366 71219 46/// ///// 1//// 91812 22200 00123 11102 21002 335// 41102 70012
BBXX 46241 16181 99330 71173 46/// ///// 1//// 91741 22200 00143 11201 20901 327// 41201 70007
BBXX 44172 16181 99445 70634 46/// ///// 1//// 91801 22200 00075 10805 20805 312// 41101 70027
BBXX 44098 16181 99428 70702 46/// ///// 1//// 91807 22200 00093 10504 20504 312// 41101 70019
BBXX 46216 16181 99343 71198 46/// ///// 1//// 91757 22200 00143 11002 21002 326// 41101 70012
BBXX 46236 16181 99368 71219 46/// ///// 1//// 91750 22200 00126 11103 21003 329// 41102 70016
BBXX 46217 16181 99342 71194 46/// ///// 1//// 91812 22200 00150 11302 20902 327// 41301 70010
BBXX 46223 16181 99335 71178 46/// ///// 1//// 91800 22200 00154 11202 20901 326// 41201 70008
AAXX 16181 56146 32980 33401 11065 21112 36697 52001 80002 333 05300 10075
AAXX 16181 56444 32680 42902 11029 21104 36808 52003 84400 333 00052 10038
AAXX 16181 56492 11715 80000 10078 20064 39872 40290 57007 69971 76060 885// 333 05451 10085
AAXX 16181 56571 32670 81601 10055 20018 38429 57004 888// 333 05401 10076
AAXX 16181 57799 32965 02901 10029 21043 30245 40338 57002 333 10107
AAXX 16181 57866 32763 80204 10060 21021 30122 40336 52002 885// 333 10095
AAXX 16181 57957 31757 70203 10076 20001 30112 40315 52004 70500 875// 333 10138
AAXX 16181 57993 32965 03401 10050 21012 30149 40321 54000 333 10128
AAXX 16181 58027 32962 00000 11058 21108 30320 40375 57005 333 10025
AAXX 16181 58141 31940 00000 11052 21084 30357 40377 57004 70500 333 10026
AAXX 16181 58265 31958 52903 11017 21087 30358 40366 57004 70500 85040 333 10045
AAXX 16181 58472 32480 73407 10023 21034 30252 40351 57005 878// 333 10049
AAXX 16181 58477 32980 03204 10014 21053 30303 40350 57005 333 10078
AAXX 16181 58527 32960 00401 10011 21067 30264 40343 57006 333 10109
AAXX 16181 58633 32965 00403 10003 21068 30255 40360 57002 333 10081
AAXX 16181 58666 32562 13610 10036 21030 30235 40342 54000 81100 333 10074 91117 91502
AAXX 16181 58725 32960 02001 10006 21008 30053 40325 52001 333 10134
AAXX 16181 58921 31959 01801 10053 20035 30051 40306 52004 71000 333 10146
AAXX 16181 59082 32960 70402 10075 21022 30152 40302 52007 8704/ 333 10155
AAXX 16181 59211 32961 70201 10095 20059 30070 40282 54000 8704/ 333 10178
AAXX 16181 59265 31856 70705 10110 20018 30139 40280 52009 70500 875// 333 10169
AAXX 16181 59293 32965 70206 10099 21012 30195 40283 52007 8704/ 333 10157
AAXX 16181 59501 31758 80702 10143 20049 30237 40258 52003 70500 885// 333 10200
AAXX 16181 59663 32760 70206 10144 20023 30144 40253 52001 875// 333 10175
AAXX 16181 59838 32760 70407 10175 20118 30198 40208 57008 875// 333 10210
AAXX 16181 59948 32370 70711 10163 20123 39716 40206 57011 878// 333 10209 91117 91507
AAXX 16181 59981 11570 50405 10235 20194 30165 40172 57011 69921 70080 82140 333 10259
BBXX 46231 16181 99327 71174 46/// ///// 1//// 91754 22200 00143 11102 21001 328// 41101 70008
BBXX 46222 16181 99336 71183 46/// ///// 1//// 91756 22200 00151 11102 20801 326// 41101 70008
BBXX 46242 16181 99332 71174 46/// ///// 1//// 91758 22200 00148 11101 21001 324// 41101 70005
BBXX 46211 16181 99469 71242 46/// ///// 1//// 91806 22200 00083 11704 20802 328// 41703 70018
AAXX 16181 27906 11497 81207 10013 21004 39853 40095 57011 60012 70262 886// 333 10037
BBXX 44099 16181 99369 70757 46/// ///// 1//// 91752 22200 00120 11302 20402 310// 41301 70012
AAXX 16184 84202 31570 70904 10292 20191 30152 70544 81250 333 58005 555 30054
AAXX 16184 84143 32665 71604 10177 20109 37395 85830 333 58008 555 30064
AAXX 16184 84088 31560 62202 10153 20118 37063 71544 86200 333 59008 555 30080
AAXX 16184 84270 12670 63604 10216 20132 60021 86300 555 10024 30059
AAXX 16184 84036 11568 80402 10142 20127 69951 71544 8451/ 555 10005 30091
AAXX 16184 84135 32675 70402 10318 20205 30056 86158 333 58008 555 30051
AAXX 16184 84072 31565 70408 10179 20115 37289 71544 86330 333 58003 555 30066
AAXX 16184 84008 32680 12310 10277 20209 30123 40133 81800 00174 333 58007 555 30066
AAXX 16184 84076 11565 70504 10182 20115 69931 72054 84552 555 10003 30065
AAXX 16184 84056 31275 62708 10174 20087 70544 86800 555 30057
AAXX 16184 84226 31670 80000 10130 20130 74042 885// 555 30100
AAXX 16184 84050 31580 42704 10289 20200 70544 83130 555 30059
AAXX 16184 84140 32581 62302 10305 20191 30024 40109 86800 333 58002 555 30051
AAXX 16184 84179 31570 60903 10269 20200 39040 71544 85330 333 58005 555 30066
AAXX 16184 84160 31565 61404 10193 20090 37255 70544 83230 333 58003 555 30051
AAXX 16184 84132 11475 73204 10251 20233 39881 60061 72166 86870 333 58006 555 10063 30090
AAXX 16184 84105 31565 61406 10294 20194 31001 70544 84110 333 58000 555 30055
AAXX 16184 84204 31675 50902 10315 20191 70544 82239 555 30048
AAXX 16184 84001 31565 60605 10279 20180 30105 40125 70544 82130 333 58004
AAXX 16184 84010 31580 11514 10262 20203 70142 81100
AAXX 16184 84027 31570 60000 10139 20119 37168 47131 71542 84230 333 58008
AAXX 16184 84063 11420 80000 10240 20234 39747 40080 60051 79584 8592/ 333 58012 555 10053
AAXX 16184 84069 31565 72204 10259 20188 70342 85230
AAXX 16184 84071 31560 73408 10155 20100 37277 47127 71644 84230 333 58004
AAXX 16184 84099 11570 80000 10265 20226 3//// 40095 69981 70264 8451/ 333 5//// 555 10008
AAXX 16184 84101 31562 73008 10263 20224 30094 40108 70544 83130 333 58005
AAXX 16184 84117 31560 52608 10293 20205 30088 40111 70544 82130 333 58007
AAXX 16184 84123 31570 71604 10174 20110 37286 47124 71542 85250 333 58003
AAXX 16184 84147 31565 50000 10198 20138 70142 83130
AAXX 16184 84163 31570 41204 10263 20191 38928 48485 71622 83230 333 58003
AAXX 16184 84176 32680 50910 10222 20114 85200
AAXX 16184 84200 31965 22307 10247 20197 70544 82030
AAXX 16184 84203 31560 41204 10309 20165 30098 40103 70544 83230 333 58006
AAXX 16184 84217 11670 60606 10254 20202 69971 71584 83230 555 10007
AAXX 16184 84239 32680 50803 10221 20109 37527 47144 85200 333 59001
AAXX 16184 84252 31570 13407 10298 20219 30104 40112 70544 81200 333 58000
AAXX 16184 84265 11680 60000 10250 20152 38762 4//// 69954 70262 84130 333 59013 555 10005
AAXX 16183 87244 32570 51105 10281 20180 39717 4//// 5//// 85200 333 56400 57896 85824
AAXX 16181 48806 32498 81404 10136 20086 39450 40242 57002 888// 333 58009 83894 88696
AAXX 16184 62002 32960 02312 10145 20029 39508 48560 56007 333 10175
AAXX 16184 62010 32960 02902 10148 20076 40222 56006 333 10204
AAXX 16184 62012 32560 32504 10155 20124 30198 40228 57004 83200 333 10210 83825
AAXX 16184 62016 32560 20000 10140 20110 40246 55004 82500 333 10210 82625
AAXX 16184 62053 12560 30000 10145 20090 40224 51001 69902 83500 333 O//19 10210 83620
AAXX 16184 62124 32960 21906 10162 20043 39718 40228 55002 82040 333 10203 82360
AAXX 16184 62161 32960 00000 10152 20096 40224 53005 333 10196
AAXX 16184 62259 32960 00000 10145 20052 40260 53016 333 10200
AAXX 16181 23226 31450 81809 11080 21098 39955 40178 54000 77173 885// 333 11054 88612
AAXX 16181 23701 11367 81803 10003 21010 30073 40204 51001 60030 70272 8802/ 333 10004 88508
AAXX 16181 28909 32599 71505 11110 21130 30267 40374 57003 84530 333 11108
BBXX MINUK04 1618/ 99519 10013 46/// ///// 10033 4//// 52007
AAXX 16184 60595 36/// /0000 11451 333 11451
AAXX 16184 60381 36/// /2303 10174 20030 333 10218
AAXX 16184 60639 36/// /0705 10128 20000 333 10189
AAXX 16184 60605 36/// /3402 10170 20019 333 10195
AAXX 16180 44203 329// 00000 11401 21427 38522 40701 52009
AAXX 16180 44207 329// 00000 11288 21325 38395 40561 53007
AAXX 16180 44212 32999 01806 11322 21352 39293 40543 51001
AAXX 16180 44213 32699 60000 11308 21339 38909 40599 52002 86500
AAXX 16180 44215 32998 00000 11310 21334 38485 40563 51001
AAXX 16180 44218 329// 01801 11253 21284 38693 40515 53002
AAXX 16180 44225 329// 60000 11323 21339 38350 40612 53004 86010
AAXX 16180 44230 329// 00302 11305 21338 38914 40610 52006
AAXX 16180 44232 329// 00000 11364 21396 39262 40596 52008
AAXX 16180 44237 32999 00000 11321 21350 38569 40569 52007
AAXX 16180 44239 329// 01301 11302 21339 38904 40523 52006
AAXX 16180 44241 329// 00000 11333 21356 39414 40543 52015
AAXX 16180 44256 32999 03207 11192 21218 39417 40348 51007
AAXX 16180 44265 329// 00000 11235 21260 38929 40484 54000
AAXX 16180 44272 329// 40000 11235 21275 38273 40470 52004 82038
AAXX 16180 44275 328// 60000 11249 21274 37752 40492 54000 85075
AAXX 16180 44282 32999 03401 11202 21260 38362 40468 52006
AAXX 16180 44284 328// 63601 11279 21309 37893 40607 51003 84074
AAXX 16180 44285 32999 00000 11280 21308 38390 40558 51005
AAXX 16180 44287 329// 50606 11165 21234 38166 40456 53004 80007
AAXX 16180 44294 329// 03604 11270 21299 38629 40522 52011
AAXX 16180 44298 329// 03207 11287 21293 38779 40481 52011
AAXX 16180 44302 329// 02704 11260 21302 39194 40441 51008
AAXX 16180 44305 32999 02703 11280 21316 39125 40429 52014
AAXX 16180 44313 32999 21803 11243 21290 39431 40357 56002 80004
AAXX 16180 44314 32998 03201 11201 21242 39198 40385 52008
AAXX 16180 44317 32998 03208 11224 21263 38989 40398 52009
AAXX 16180 44336 329// 00000 11278 21308 38778 40542 53009
AAXX 16180 44341 329// 03508 11179 21251 38664 40440 51003
AAXX 16180 44347 32999 00000 11194 21243 38785 40426 52007
AAXX 16180 44352 32999 02704 11226 21258 38972 40400 53005
AAXX 16180 44358 329// 00000 11267 21285 39162 40453 52001
AAXX 16181 50353 32970 73204 11140 21222 39949 40184 54000 80002 333 11121
AAXX 16181 50557 32970 02903 11167 21232 39894 40218 54000 333 11137
AAXX 16181 50756 32960 62203 11172 21222 39907 40229 57013 80002 333 11167
AAXX 16181 50949 32965 02202 11158 21250 30075 40259 57013 333 11113
AAXX 16181 50963 32965 02203 11204 21246 30103 40253 57015 333 11153
AAXX 16181 50978 32980 02506 11182 21241 39876 40254 57007 333 11153
AAXX 16181 51087 11680 71601 11212 21236 39384 40441 57001 69901 77000 83532 333 00161 11091
AAXX 16181 51156 32980 43401 11152 21201 38803 40407 57001 80002 333 05153 11078
AAXX 16181 51644 11960 80000 11046 21061 39046 40368 52003 69901 77070 8807/ 333 00100 11034
AAXX 16181 51656 32975 01601 11076 21103 39216 40367 57002 333 00054 11002
AAXX 16181 51886 32780 70000 11120 21276 37125 57002 81902 333 05103 11079
AAXX 16181 52602 32980 72501 11153 21301 37277 57001 80002 333 05201 11032
AAXX 16181 52713 32980 50000 11126 21256 36906 54000 80002 333 05207 11041
AAXX 16181 52754 32980 03404 11148 21251 36781 57007 333 05301 11046
AAXX 16181 52818 32980 62201 11102 21241 37255 52001 80002 333 00002 11057
AAXX 16181 52836 32980 72502 11116 21257 36900 52004 80002 333 05102 11019
AAXX 16181 52955 32980 70000 11153 21251 36966 57007 80002 333 05403 11025
AAXX 16181 53068 32980 00401 11245 21278 39154 40415 52001 333 05752 11136
AAXX 16181 53276 32980 02206 11169 21232 38940 40393 57003 333 11116
AAXX 16181 54135 32980 02504 11155 21255 30057 40296 57015 333 11079
AAXX 16181 54236 32975 02002 11156 21216 30199 40313 57013 333 11073
AAXX 16181 54539 32970 02702 11093 21178 30336 40351 57005 333 11023
AAXX 16181 54662 32970 01801 11058 21125 30222 40343 57010 333 11044
AAXX 16181 54753 32565 72705 11016 21104 30347 40354 57008 87400 333 11012
AAXX 16181 54857 32978 03405 11043 21124 30274 40372 57004 333 11019
AAXX 16181 57067 32962 60000 11038 21069 39655 40362 57006 86030 333 10066
AAXX 16181 57178 32960 50201 10004 21076 30206 40372 57005 80002 333 10053
AAXX 16181 57245 32962 71401 10047 21038 39969 40329 57005 8703/ 333 05303 10106
AAXX 16181 57297 31958 02901 11024 21071 30224 40372 57004 71000 333 10050
AAXX 16184 62305 32960 02508 10130 20078 40215 57001 333 10186
AAXX 16184 62306 32560 60000 10134 20099 40216 52002 86800 333 10200
AAXX 16184 62318 32560 21804 10165 20104 40206 52003 82100 333 10206
AAXX 16184 62337 NIL
AAXX 16184 62366 32960 01302 10156 20079 40210 52004 333 10192
AAXX 16184 62393 32960 03411 10136 20089 40210 51010 333 10202
AAXX 16184 62405 32960 01604 10146 20047 40180 52016 333 10238
AAXX 16184 62414 32960 03204 10174 20035 40183 52011 333 10231
AAXX 16184 62417 32960 32704 10150 20100 40218 52004 80001 333 10210
AAXX 16184 62440 32960 03603 10147 20111 40209 52006 333 10206
AAXX 16184 62463 32960 03010 10155 20077 40191 52015 333 10220
AAXX 16184 62465 32960 03207 10185 20114 40177 52012 333 10220
AAXX 16184 62419 NIL
AAXX 16181 34523 32597 81305 10051 20018 30093 40169 56011 885// 333 10051 88621
AAXX 16181 40665 12960 00000 10100 20035 40198 52013 60002
AAXX 16181 40656 12960 00000 10131 20053 40175 52011 60002
AAXX 16181 40670 12960 00000 10130 20015 40181 53012 60002
AAXX 16181 40674 42960 00000 10119 21004 40188 57015 60002
AAXX 16181 40676 42960 13503 10138 20042 40186 51019 60002 80001
AAXX 16181 40680 12960 23201 10120 20045 40192 52018 60002 80002
AAXX 16181 40689 12960 62103 10160 20081 40178 52012 60002 86030
AAXX 16181 40691 12960 50302 10150 20104 40186 50004 60002 85030
AAXX 16181 91945 36/// /0708 10281 20219 30147 40152 51013
BBXX JGQH 16184 99295 11303 41/97 23621 10125 20047 40258 53001 70182 82200 22212 00232 1//05 20604 399// 4//02 70026
BBXX JGQH 16184 99295 11303 41/97 23621 10125 20047 40258 53001 70182 82200 22212 00232 1//05 20604 399// 4//02 70026
BBXX JPBN 16184 99348 11402 41/98 60118 10066 21063 40161 53006 70211 86200 22221 00184 1//03 20503 399// 4//02 70017
BBXX JPBN 16184 99348 11402 41/98 60118 10066 21063 40161 53006 70211 86200 22221 00184 1//03 20503 399// 4//02 70017
AAXX 16181 23929 32976 21702 11216 21234 30299 40373 57004 80001 333 11215
AAXX 16184 40582 31657 70204 10149 20123 40168 51010 71022 82430 333 55300 00000 10115 20000 30000 41264 51379 60000 55407 40000 82640 87358 90400 91005 91117 91211 91303
AAXX 16184 41150 NIL
AAXX 16184 41168 NIL
AAXX 16184 41170 41958 09902 10170 20129 30166 40179 70500 333 10235 59028
AAXX 16184 41176 NIL
AAXX 16184 41184 NIL
AAXX 16184 41194 NIL
AAXX 16184 41196 NIL
AAXX 16184 41198 NIL
AAXX 16184 41210 NIL
AAXX 16184 41216 NIL
AAXX 16184 41217 NIL
AAXX 16184 41218 NIL
AAXX 16184 41226 NIL
AAXX 16184 41244 36/// /3404 10183 20110 39824 48126 333 0E019 10257 59018
AAXX 16184 41246 32660 21903 10219 20164 30162 40166 82500 333 10257 59020 82630
AAXX 16184 41254 36/// /3104 10089 21017 37963 47968 333 0E007 10182 59013
AAXX 16184 41256 32960 01902 10211 20140 30157 40167 333 10251 59021
AAXX 16184 41258 36/// /1302 10233 20147 30156 40161 333 0E/// 10247 59021
AAXX 16184 41268 36/// /2400 10204 20140 30150 48085 333 0E022 10266 59022
AAXX 16184 41312 36/// /2801 10239 20153 30120 40159 333 0E/// 10296 59014
AAXX 16184 41314 32960 00304 10184 20084 39670 40179 333 10252 59022
AAXX 16184 41316 32960 03105 10226 20111 30135 40161 333 10297 59014
AAXX 16184 41404 42560 10000 10146 21042 37880 48534 81100 333 10245 59010 81830
AAXX 16184 41407 NIL
AAXX 16184 41431 42960 00000 10262 20216 30108 40121 333 10296 59010
AAXX 16184 41466 42960 01608 10164 20101 38574 48472 333 10256 59003
AAXX 16184 41477 NIL
AAXX 16184 41480 42460 21008 10257 20178 30147 40150 82500 333 10295 59014 82818
AAXX 16181 29998 42999 00000 11362 21372 38742 48565 53002
AAXX 16181 30385 42999 20000 11266 21277 39657 40242 57012 80001
AAXX 16181 30469 429// 80000 11210 21260 39487 40302 58006 80005
AAXX 16181 30636 429// 60000 11324 21331 39754 40451 52001 86030
AAXX 16181 30650 42984 30000 11249 21268 39170 40397 57004 82041
AAXX 16181 30664 42999 80000 11298 21316 39265 40371 58012 83045
AAXX 16181 30781 42999 00000 11329 21351 39790 40324 52005
AAXX 16181 30777 42998 02502 11294 21311 39615 40346 52005
AAXX 16181 30844 42999 00000 11292 21303 39371 40472 52005
AAXX 16181 30925 429// 00000 11262 21281 39402 40487 52008
AAXX 16181 31371 42999 83404 11169 21228 39912 40191 53002 83037
AAXX 16181 31388 41956 80000 11238 21256 39899 40184 53001 77171 8802/
AAXX 16181 31478 NIL
AAXX 16181 31532 42999 20000 11341 21358 39846 40234 58002 80001
AAXX 16181 31594 42999 81202 11228 21253 30009 40194 57005 80007
AAXX 16181 31655 42998 21602 11240 21256 30115 40167 57001 82050
AAXX 16181 31754 41999 00000 11299 21317 39644 40202 57003 70271
AAXX 16181 28465 32998 00000 11262 21289 30344 40432 57001 333 11236
AAXX 16181 28696 11997 00404 11226 21244 30220 40375 53014 60040 77677 333 11183
AAXX 16181 28586 12997 63303 11217 21235 30227 40392 52007 69900 86050 333 11204
AAXX 16181 28383 12997 00000 11256 21274 30310 40405 52004 69920 333 11218
BBXX 2AUO5 16183 99606 10016 41997 03232 10055 20031 49866 54000 7//88 80000 22200 20703 332// 40904 80045
BBXX 62303 16184 99516 70051 46/// /3225 10073 20029 49996 53037 22200 00113 10707 70034 333 90710 91134
BBXX 64046 16184 99605 70049 46/// /3225 10057 20010 49932 51021 22200 00077 10707 70036
BBXX 62163 16184 99475 70084 46/// /3132 10113 20049 40146 51038 22200 00129 11017 70085 333 90710 91144
BBXX 62105 16184 99554 70122 46/// /3021 10084 20026 40058 51030 22200 00106 10910 70050 333 90710 91130
BBXX 62001 16184 99452 70050 46/// /3029 10113 20066 40156 53033 22200 00145 10914 70071 333 90710 91147
BBXX 62029 16184 99487 70125 46/// /3227 10105 20056 40194 51042 22200 00132 11018 70089 333 90710 91141
BBXX 62442 16184 99490 70164 46/// /3122 1//// 2//// 40244 51023 22200 00127 333 90710 91133
BBXX 62081 16184 99510 70134 46/// ///// 10097 20044 40166 51050 22200 00121 11017 70083
BBXX 62301 16184 99524 70047 46/// /3223 10071 20037 49982 52047 22200 00099 10606 70029 333 90710 91134
BBXX 64045 16184 99591 70117 46/// /3221 10037 20013 40002 53023 22200 00102 10705 70027 333 90710 91127
BBXX 63110 16183 99595 10015 41/98 /3122 10067 49875 700// 8//// 22200 10606 70028
BBXX AMOUK06 16184 99507 70014 46/// ///// 10058 20012 39944 49962 52040 91750
BBXX AMOUK27 16184 99579 70052 46/// ///// 11025 21194 39977 49970 52026 91750
BBXX AMOUK09 16184 99504 70002 46/// ///// 10073 20014 39944 49961 52032 91750
BBXX AMOUK08 16184 99501 70061 46/// ///// 10099 20049 30018 4//// 52034 91750
BBXX AMOUK14 16184 99534 70060 46/// ///// 10061 20037 39962 49996 52056 91750
BBXX AMOUK16 16184 99523 70063 46/// ///// 10057 20021 39996 49996 52044 91750
BBXX AMOUK19 16184 99571 70021 46/// ///// 10028 2//// 39955 49959 52037 91750
BBXX AMOUK12 16184 99534 70055 46/// ///// 10067 20031 39950 49990 52047 91750
BBXX AMOUK21 16184 99567 70064 46/// ///// 10066 20011 39990 4//// 52040 91750
BBXX 64041 16184 99607 70026 47598 /3022 10049 21001 49906 52020 700// 22200 10808 70038
BBXX 63110 16184 99595 10015 47598 /3119 10067 20016 49881 52009 700// 22200 10706 70029
BBXX 63056 16184 99597 10016 47497 /3024 10042 20012 49866 52010 771// 22200 10706 70029
BBXX MWYG6 16184 99603 70040 47998 /3028 10067 700// 22200
BBXX 63115 16184 99616 10013 47498 /3020 10037 21000 49861 52021 762// 22200 10708 70041
BBXX 63117 16184 99613 10011 47598 /3224 10054 21001 49859 52018 700// 22200
BBXX 63104 16184 99612 10016 47498 /3123 10053 20006 49855 53016 700// 22200
BBXX 62111 16184 99580 70003 46/// /3322 10066 20004 49931 52026 22200 10604 70020
BBXX PJAI 16184 99581 70014 47598 /2919 10074 20012 49936 52024 700// 22200
BBXX 62112 16184 99584 70002 47598 /3218 10053 20008 49921 52019 761// 22200
BBXX 63103 16184 99612 10011 46/// /3223 10050 21015 49863 52021 22200 10707 70034
BBXX 63055 16184 99606 10016 47995 /3021 10049 20012 49864 53014 704// 22200 10706 70030
BBXX 63108 16184 99608 10017 47498 /3221 10068 20006 49857 53014 751// 22200 10806 70032
BBXX 63106 16184 99610 10017 46/// /3121 10047 49858 52015 22200
BBXX 63105 16184 99610 10017 47497 ///// 10059 20009 49857 52015 751// 22200
BBXX 63113 16184 99610 10017 46/// /3224 10043 20004 49864 53020 22200 10707 70035
BBXX 63112 16184 99611 10010 47498 /3222 10042 21005 49860 52020 700// 22200 10807 70037
BBXX 63107 16184 99611 10017 46/// /3124 10048 49856 52017 22200
BBXX 63101 16184 99612 10009 46/// /3425 10058 20005 49861 52022 22200
BBXX 62164 16184 99572 10008 47998 /3317 10087 21004 49923 52032 700// 22200 00097 10604 70021
BBXX PJGO 16184 99571 10022 47799 /3320 10066 21030 49908 52030 700// 22200
BBXX 62133 16184 99571 10009 46/// /3317 10068 21038 49922 52033 22200 10604 70018
BBXX 62119 16184 99570 10019 47698 /3418 10064 21029 49910 52033 700// 22200 10604 70022
BBXX 62152 16184 99570 10018 46/// /3319 10074 21025 49911 52033 22200 10504 70022
BBXX 62154 16184 99564 10022 46/// /3620 10066 21039 49900 52037 22200
BBXX 62120 16184 99564 10021 47998 /3622 10064 21042 49917 52035 700// 22200
BBXX 62132 16184 99564 10020 46/// /0314 10097 21034 49904 52039 22200
BBXX 62123 16184 99563 10022 47699 /3521 10070 21013 49902 52038 700// 22200
BBXX 62165 16184 99540 10009 47998 /0118 10072 21003 49919 52054 700// 22200 10403 70014
BBXX 62127 16184 99540 10007 47598 ///// 10070 20002 49917 52054 700// 22200 10403 70013
BBXX 62131 16184 99539 10012 46/// /03// 10068 20026 49909 52054 22200
BBXX 62149 16184 99537 10011 47598 /3518 10067 20016 49912 52055 751// 22200 10403 70015
BBXX 62148 16184 99536 10015 46/// /3516 10064 20004 49908 52055 22200
BBXX 62150 16184 99536 10007 47599 /3617 10068 20006 49927 52054 700// 22200 10503 70016
BBXX 62121 16184 99535 10027 46/// ///// 22200
BBXX 62144 16184 99534 10017 47998 /3514 10068 20011 49902 52053 700// 22200 10503 70015
BBXX 62145 16184 99531 10028 47598 /3418 10072 20005 49890 52055 700// 22200 10503 70016
BBXX 62142 16184 99530 10021 47598 /3407 10067 20013 49895 52054 700// 22200 10503 70015
BBXX 63057 16184 99592 10015 47598 /3222 10053 20011 49886 52009 762// 22200 10705 70026
BBXX 62128 16184 99587 10014 47498 /3018 10041 20002 49906 53011 700// 22200 10604 70019
BBXX 62129 16184 99584 10003 46/// ///// 10053 20013 49911 51018 22200
BBXX 62113 16184 99584 10002 47497 /3218 10057 20014 49910 52016 762// 22200
BBXX ZQSD5 16184 99583 10007 46/// /2916 10063 20017 49920 51021 22200 10905 70027
BBXX 62114 16184 99583 10000 46/// /3025 10059 20017 49913 51011 22200
BBXX 62134 16184 99580 10014 47598 /3117 10052 20000 49911 52023 700// 22200 10705 70023
BBXX 62102 16184 99579 10018 46/// /3221 10065 21016 49907 52022 22200 10604 70020
BBXX 62117 16184 99579 10000 47998 /3122 10062 20007 49922 52022 700// 22200 10503 70014
BBXX 62143 16184 99577 10018 47998 /3213 10059 21011 49916 52030 700// 22200 10604 70021
BBXX 62118 16184 99577 10009 46696 /3220 10045 20003 49917 52031 22200 10604 70021
BBXX 62155 16184 99577 10007 47298 /3117 10038 21003 49926 52032 762// 22200 10604 70018
BBXX 62116 16184 99576 10011 47597 /3216 10062 21002 49916 52028 700// 22200 10604 70020
BBXX 62104 16184 99574 10013 47698 /3516 10066 21014 49917 52034 700// 22200
BBXX 62153 16184 99573 10020 47699 /3420 10065 21035 49911 52028 700// 22200 10604 70021
BBXX 62122 16184 99573 10016 47699 /3415 10064 21035 49912 52031 700// 22200 10604 70022
BBXX 62140 16184 99573 10013 46/// /35// 10064 21026 49915 52030 22200
BBXX 62146 16184 99572 10021 47/99 /3620 10062 21047 49906 52033 700// 22200 10604 70022
BBXX AMOUK05 16184 99537 70003 46/// ///// 10031 20016 39884 49922 52050 91750
BBXX SHIP 16183 99384 10021 41/97 /2622 10175 20134 40150 58060 70111 8/18/ 22213 00210 29906 80150
BBXX A8IY4 16181 99494 70071 41496 73425 10108 20093 40058 52058 70366 877// 22252 04120 21206 331// 41414 80100
BBXX 63119 16184 99583 10009 41/97 83327 10047 20006 49902 55/// 703// 8//// 22200 2//// 333// 40503 5////
BBXX 62103 16184 99499 70029 46/99 /2931 10088 20026 49994 51036 22200 00123 10807 70035 333 90710 91145
BBXX ZCBF3 16183 99422 70320 41996 82125 10170 20162 40228 54000 70242 88010 22263 20904 323// 41208 5//// 80165
BBXX ZCDN9 16184 99477 70069 41298 82037 10082 20028 40104 52078 70782 887// 22253 00128 20308 332// 40712 5////
BBXX 62027 16184 99491 70022 46/// /3324 1//// 2//// 40009 52034 22200 00115 10806 330// 70031 333 90710 91131
BBXX DDZA2 16184 99460 70111 41/97 43245 10115 20044 40215 51015 78288 8//// 22284 04140 20608 331// 41012 80080
BBXX 62169 16183 99614 10014 41298 83123 10050 20025 49861 52014 70282 887// 22200 20306 331// 40610 5//// 80040
BBXX 62094 16184 99517 70067 46/// /2923 10076 20047 40016 53037 22200 00107 10807 70036 333 90710 91132
BBXX 62103 16184 99499 70029 46/99 /2930 10087 20020 49990 52042 22200 00122 10907 70035 333 90710 91142
BBXX 62170 16184 99514 10020 46/96 /3037 10050 20023 49908 52046 22200 00112 10604 70021 333 90710 91147
BBXX 62304 16184 99511 10018 46/98 /3031 10053 20004 49923 52048 22200 00118 10603 70016 333 90710 91141
BBXX 62305 16184 99504 10000 46/98 /2832 10072 20010 49967 52042 22200 00120 10704 70021 333 90710 91143
BBXX 46114 16181 99364 71222 46/// ///// 1//// 91804 22200 00126 11105 21004 331// 41103 70023
BBXX 44033 16181 99441 70690 46/30 /2911 10089 40065 53028 91804 22200 00083 10302 70010 333 91217 555 11144 22154
BBXX 44034 16181 99441 70681 46/30 /2912 10088 40051 53021 91804 22200 00088 10805 70024 333 91214 555 11149 22159
BBXX 44060 16181 99413 70721 46/// ///10 10077 40167 91815 22200 00109 333 91213 555 11108 22113
BBXX 44022 16181 99409 70737 46/// ///07 10074 21037 40193 91815 22200 00093 333 91211 555 11077 22082
BBXX 41037 16181 99340 70775 46/// /2606 10193 40205 58010 91800 22200 00183 333 91207
BBXX 42362 16181 99278 70907 46/// /0000 10250 20189 40224 91815
BBXX 42363 16181 99282 70892 46/// /0903 10228 20161 40231 91815 333 91203
BBXX 42364 16181 99291 70881 46/// /2102 10222 20172 40231 91815
BBXX 41115 16181 99184 70673 46/// ///// 1//// 91805 22200 11104 21004 300// 41102 70022
BBXX 41114 16181 99276 70802 46/// ///// 1//// 91816 22200 00235 11103 21002 307// 41101 70013
AAXX 16184 83096 32695 10906 10287 20233 30108 40115 81200 333 58010
AAXX 16184 83186 32598 60906 10292 20195 39558 40082 83201 333 58008
AAXX 16184 83242 32497 81805 10305 20205 39605 40090 887// 333 58005
AAXX 16184 83288 32998 43204 10309 20213 39582 40066 80002 333 58004
AAXX 16184 83344 32498 80505 10263 20205 39142 40098 84398 333 58005
BBXX 46221 16181 99339 71186 46/// ///// 1//// 91745 22200 00154 11301 20701 325// 41301 70007
AAXX 16181 40621 12960 00302 10112 20052 40231 53005 69922
AAXX 16181 40629 12960 00000 10070 20026 40219 52008 60002
AAXX 16181 40637 12960 20000 10090 20071 40188 50002 69902 80002
AAXX 16181 40604 12960 00000 10089 20016 40203 51006 60002
AAXX 16181 40608 11558 60000 10098 20077 40208 52007 69912 780// 86800
AAXX 16181 40623 12960 01201 10076 20012 40221 53017 60002
AAXX 16181 40631 12960 00000 10110 20080 40213 52012 60032
AAXX 16181 40634 12960 02703 10080 20016 40192 52020 60002
AAXX 16181 40642 42960 00000 10058 21034 40227 52009 60002
AAXX 16181 40650 12960 03203 10110 20070 40198 52013 60002
AAXX 16181 38847 3//// /2000 11002 21013 39490 40280 333 10031 777 92092
AAXX 16181 22282 115// 82109 10010 21004 30037 40045 51012 60010 70282 885// 333 10004
BBXX SHIP 16184 99038 11290 41498 50204 10266 20231 40057 57015 70211 82166 22213 00301 10605 20100 306// 40805
AAXX 16181 28688 32997 63303 11220 21245 30217 40394 52001 86010 333 11227
AAXX 16181 28588 11998 03403 11221 21247 30220 40397 53003 69920 70171 333 11227
AAXX 16181 28791 11996 83203 11201 21220 30220 40379 52003 60020 77172 8802/ 333 11198
AAXX 16184 89062 41456 80210 10013 21002 39621 49661 52003 76876 886// 333 87710
BBXX 51203 16181 99208 71570 46/// ///// 1//// 91813 22200 00250 11202 20801 326// 41201 70009
AAXX 16184 78762 32970 71108 10265 20155 39094 40106 58009 85032 333 10270 20192 30/// 56/20 58005 85362 83075
BBXX BAREU51 16184 99381 10134 46/// ///// 40114 57009 22235
AAXX 16184 04203 46/// /0207 11132 21172 30027 40045 52002
AAXX 16184 04205 45/84 /0401 11206 21270 30030 40054 52001 333 11176 21223
AAXX 16184 04208 46/// /1019 11075 21149 39982 40029 52016
AAXX 16184 04213 46/// /1516 11057 21144 39927 40038 52008 333 11054 21089
AAXX 16184 04214 46/// /1711 11048 21103 39994 40027 52017
AAXX 16184 04224 47983 31705 11072 21103 30011 40044 57001 72477 333 11033 21074 83/65
AAXX 16184 04228 NIL
AAXX 16184 04242 46/// /1123 11032 21046 30003 40020 57024
AAXX 16184 04253 46/// /1422 11009 21058 30010 40037 57021
AAXX 16184 04266 46/// /0929 11020 21030 30028 40067 57016 333 91041
AAXX 16184 04285 NIL
AAXX 16184 04301 46/// ///// 11331 21380 30091 40096 52008
AAXX 16184 04313 46/// ///// 11165 21187 39981 49993 57001
AAXX 16184 04330 46/// /3504 11217 21274 30006 40024 52010
AAXX 16184 04351 46/// /2302 11153 21218 30010 40027 57005
AAXX 16184 04373 46/// /3325 11081 21159 39984 40079 52006
AAXX 16184 04382 46/// /2702 11066 21168 30062 40111 52003
AAXX 16184 04416 46/// ///// 11533 21549 36577 52011
BBXX BAREU00 16184 99499 70392 46/// ///// 40250 52001 22224
AAXX 16181 38388 NIL
AAXX 16181 38392 32997 00705 11050 21086 30229 40338 57008 333 10012
AAXX 16181 38507 32996 81004 10026 20005 30148 40253 53008 83031 333 10066
AAXX 16181 38511 NIL
AAXX 16181 38545 32998 00201 11046 21089 30144 40329 57012 333 10005
AAXX 16181 38647 32697 70906 10020 21029 30202 40245 57008 87500 333 10060
AAXX 16181 38656 32998 00904 11004 21032 30184 40298 57008 333 10041
AAXX 16181 38687 32396 83602 11018 21030 30068 40313 57015 886// 333 10004 88710
AAXX 16181 38750 32597 61802 10064 20048 30267 40238 57009 86500 333 10107
AAXX 16181 38763 32597 50907 10020 21041 30151 40259 57010 85500 333 10054 85623
AAXX 16181 38774 31495 80904 10018 21016 30087 40289 53001 71022 886// 333 10045
AAXX 16181 38799 32997 00000 11031 21038 30065 40310 57016 333 10000
AAXX 16181 38806 32997 00501 11024 21040 30034 40307 57011 333 10038
AAXX 16181 38880 31396 80704 10005 21015 30015 40279 57011 71022 886// 333 10056 88708
AAXX 16181 38886 31996 00902 11002 21017 30050 40288 57013 71000 333 10058
AAXX 16181 38895 31495 80703 11002 21008 39998 40300 57015 71022 887// 333 10026
AAXX 16181 38911 32997 03601 10006 21011 39990 40295 57013 333 10032
AAXX 16181 38915 32997 01501 10010 21016 39963 40298 58015 333 10055
AAXX 16181 38974 32998 00000 10004 21007 39927 40273 57013 333 10072
AAXX 16181 38987 32596 82601 10013 21013 39511 40276 57014 885// 333 10025
AAXX 16181 38847 425// 70000 11002 21013 40317 57007 875//
AAXX 16184 78762 32970 71108 10265 20155 39094 40106 58009 85032 333 10270 20192 30/// 56/20 58005 85362 83075
AAXX 16184 17310 11560 73007 10126 20088 30150 40157 55005 60062 79582 84970 333 10180 81925 83830 87460 91116 92427
BBXX 7JJA 16184 99317 11375 41797 73130 00 10120 20062 40190 52005 70322 863// 9//// 22213 0 2//08 332 4//08 5 6//// 80090 ICE /////
BBXX SHIP 16184 99119 11124 41596 60331 10260 20232 40114 55005 70222 85/// 22254 00271 2//// 3//// 4//// 80240
BBXX SHIP 16184 99172 11306 41298 70422 10260 20232 40113 56021 70322 8645/ 22244 00287 399// 4//// 5//// 80240
BBXX 3EIU9 16184 99052 11112 41197 70804 10260 20230 40105 53011 70311 88456 91750 22212 00254 1//// 2//// 336// 40403 5//// 6//// 80240 /////
BBXX SHIP 16183 99071 11280 41/98 31612 10270 20257 40118 58008 822// 22213 00280 2//01 80260
BBXX SHIP 16184 99181 11142 41/96 60527 10230 20201 41017 51002 70212 8//// 91800 22283 00260 1//// 2//// 3//// 4//// 5//// 6//// 80210 //////
BBXX SHIP 16184 99133 11274 41797 30519 10270 20243 40091 56012 70111 83332 22243 00184 20305 309// 40305 80250
BBXX SHIP 16184 99230 71668 41497 60822 10235 20205 40194 52006 70181 84363 22223 04240 20404 30633 40704 50904
BBXX SHIP 16184 99310 71789 41/98 92133 10220 20196 40165 56/// 70203 8//// 91750 22264 00210 2//// 3//// 4//// 5//// 80200
BBXX DHEB 16183 99543 71659 41/97 /2518 10025 21013 49810 52010 7//22 8//// 22224 04050 29903 3//// 4//// 5//// 80010
AAXX 16184 91648 11499 61015 10281 20248 40096 60011 70228 83208 333 562/9
AAXX 16184 91648 11499 61015 10281 20248 40096 60011 70228 83208 333 562/9
AAXX 16181 21432 41996 71709 11217 21249 30119 40140 52013 73832 87030
AAXX 16181 21824 41998 81808 11167 21189 30085 40094 53006 73632 86071
AAXX 16181 21908 42999 53201 11165 21184 30029 40117 52026 80002
AAXX 16181 21921 41997 80000 11270 21301 30082 40130 53007 77072 82037
AAXX 16181 21931 42998 02302 11348 21377 30093 40128 54000
AAXX 16181 21946 41297 80303 11230 21249 30075 40159 57005 77172 886// 333 88706
AAXX 16181 21982 32998 00704 11236 21255 30187 40217 57007 333 21253 48023 91106
AAXX 16181 25062 32997 31003 11310 21340 30182 40186 57005 83070 333 21329 48040 91105
AAXX 16181 25123 42296 80000 11270 21294 30132 40167 53003 885// 333 88606
AAXX 16181 25138 42599 71101 11246 21263 30034 40165 58002 83531 333 91104
AAXX 16181 25173 31996 00000 11376 21393 30194 40199 57007 71000 333 21378 48074 91101
AAXX 16181 25248 42998 80000 11333 21362 39719 40219 57005 82035 333 91101
AAXX 16181 25282 12980 03204 11275 21287 30167 40174 57006 69900 333 21275 48011 91107
AAXX 16181 25325 NIL
AAXX 16181 25356 32999 00000 11337 21365 30073 40186 57009 333 21353 48017 55000 91000
AAXX 16181 25399 31468 30111 11160 21194 30024 40033 57007 73730 83800 333 21167 48038 55000 91113
AAXX 16181 25428 42984 70000 11308 21338 39800 40166 57005 80001 333 91100
AAXX 16181 25551 32998 13402 11277 21294 30138 40172 58001 80001 333 21344 47039 55000 91103
AAXX 16181 25563 32984 03405 11196 21254 30073 40156 57005 333 21232 48031 55030 91114
AAXX 16181 25594 31998 03608 11139 21191 39947 49999 53006 73630 333 21165 49037 91114
AAXX 16181 25677 11991 83316 11124 21124 30076 40082 57004 60012 73932 8802/ 333 21166 91019 91121 92992
AAXX 16181 31054 41998 80701 11387 21413 39933 40246 57002 77172 8807/
AAXX 16181 31123 41997 81601 11341 21371 39889 40256 52003 77171 80007
AAXX 16184 93800 16/// /1508 10095 20046 40068 52002 60001
AAXX 16184 93805 16/// /1211 10093 20064 40137 52006 60001
AAXX 16184 93994 16/// /2802 10224 20219 40115 52007 60021
BBXX ZMFR 16184 99466 31664 43/// /16// 10104 20044 40143 52003 22261 00122
BBXX ZMENA 16184 99387 31783 46/// ///// 10155 20139 40044 52008 22243
BBXX V2QD4 16183 99382 31509 41798 60912 10170 20137 40236 53020 70311 8587/ 22223 00180 20401 314// 41203
BBXX VRDX2 16183 99278 31604 41497 51823 10215 20161 40139 7//// 84613 22274 00220 20606
BBXX ZMFR 16184 99466 31664 43/// /16// 10104 20044 40143 52003 22261 00122
BBXX ZMENA 16184 99387 31783 46/// ///// 10155 20139 40044 52008 22243
BBXX V2QD4 16183 99382 31509 41798 60912 10170 20137 40236 53020 70311 8587/ 22223 00180 20401 314// 41203
BBXX VRDX2 16183 99278 31604 41497 51823 10215 20161 40139 7//// 84613 22274 00220 20606
AAXX 16184 48409 32960 20406 10190 20143 30011 40163 50002 80001 333 58025
AAXX 16184 48372 32560 60000 10242 20210 30090 40148 52002 82536 333 58018
AAXX 16184 48310 31956 00000 10180 20167 39699 40166 52001 71000 333 58004
AAXX 16184 48310 31956 00000 10180 20166 39699 40166 52001 71000 333 58008 70000
AAXX 16181 14106 11495 81806 10118 20100 39847 49913 57008 60122 76564 887// 333 10125 88710 91113 95090
AAXX 16181 13492 NIL
AAXX 16181 13584 NIL
AAXX 16181 13585 42898 32004 10069 21006 39305 40092 57020 83030 333 10117 94073
AAXX 16181 13597 42998 02701 10071 20025 30019 40092 57006 333 10177 94071
AAXX 16181 13598 42598 31102 10027 21053 48403 57008 83030 333 10100 94037
AAXX 16181 60373 36/// /2706 10161 20024 333 10193
AAXX 16181 60623 36/// /0000 10142 21045 333 10193
AAXX 16181 60393 36/// /2002 10175 20045 333 10215
AAXX 16184 61600 NIL
AAXX 16184 61612 NIL
AAXX 16184 61627 NIL
AAXX 16184 61630 NIL
AAXX 16184 61641 32957 73405 10254 20184 30094 40127 86032 333 10300 59001 86363
AAXX 16184 61666 NIL
AAXX 16184 61679 NIL
AAXX 16184 61687 NIL
AAXX 16184 61695 NIL
AAXX 16184 61697 NIL
AAXX 16184 61698 NIL
AAXX 16184 61699 NIL
AAXX 16184 48310 31956 00000 10180 20166 39699 40166 52001 71000 333 58008 70000
AAXX 16181 14216 NIL
AAXX 16181 14219 11510 81912 10061 20051 38932 48269 56/// 60192 76586 8802/ 333 10094
AAXX 16181 14232 12584 52010 10150 20042 39784 49913 57/// 69912 85800 333 10150
AAXX 16181 14234 11680 81903 10113 20065 39666 49903 56/// 60002 700// 885// 333 10114
AAXX 16181 14236 12780 42102 10108 20053 39714 49905 57/// 60002 84500 333 10116
AAXX 16181 14244 11484 71905 10136 20036 39805 49929 57/// 69922 700// 84570 333 10139
AAXX 16181 14248 12760 41806 10119 20048 39744 49911 57/// 60002 82570 333 10126
AAXX 16181 14253 12560 52309 10124 20033 39737 49903 57/// 60002 85400 333 10125
AAXX 16181 14256 12570 82104 10107 20038 39608 49915 55034 69902 8557/ 333 10109
AAXX 16181 14280 12960 71706 10106 20043 39846 49952 57039 60002 87070 333 10111
AAXX 16181 14308 11560 82005 10104 20078 39598 49940 57/// 60062 763// 8802/ 333 10122
AAXX 16181 14321 11560 81507 10135 20101 39932 49956 57/// 69952 761// 8802/ 333 10145 92334 92447
AAXX 16181 14370 12560 81903 10124 20030 39845 49950 57042 60002 886// 333 10134
AAXX 16181 14382 12660 81604 10120 20019 39843 49959 57041 60002 885// 333 10134
AAXX 16181 14428 12470 71804 10157 20110 39971 49978 57/// 60002 85870 333 10159 92312
AAXX 16181 14441 12980 72006 10169 20107 39979 40002 57/// 60002 87070 333 10169 92334
AAXX 16181 14452 NIL
AAXX 16181 14454 12670 81306 10160 20092 39970 40028 57/// 60002 8787/ 333 10160 92323
AAXX 16181 14462 12580 61607 10160 20082 30041 40047 57/// 69912 86800 333 10160 91114
AAXX 16181 14216 11550 81806 10124 20095 39795 49942 57/// 60052 763// 8802/ 333 10142 923// 924/6
AAXX 16181 14328 11456 82211 10113 20070 39523 49903 57/// 60102 7636/ 8772/ 333 10128
AAXX 16181 14447 12582 71806 10164 20095 39985 40015 57/// 60002 82270 333 1064 92323
BBXX 46147 16181 99518 71312 46/// /1605 10084 40156 57004 22200 00081 11208 70039 333 91206
BBXX 46147 16181 99518 71312 46/// /1605 10084 40156 57004 22200 00081 11208 70039 333 91206
AAXX 16184 41251 32/60 /0204 10107 20004 36151 47815 91838 333 10176 591913
AAXX 16181 25703 41698 80000 11251 21275 39866 40155 54000 72272 8251/
AAXX 16181 25745 NIL
AAXX 16181 25913 41699 70605 11067 21133 39838 49986 53004 70283 85530 333 91116 92980
AAXX 16181 25954 42698 80407 11081 21183 39933 40048 53009 8253/
AAXX 16181 25956 42598 50606 11114 21169 30045 40051 58005 85500
AAXX 16181 31088 42599 70106 11182 21241 30021 40029 54000 82546
AAXX 16181 31873 42997 02503 11219 21254 30090 40236 55001
AAXX 16181 31909 42998 02806 11166 21258 30085 40168 53001 333 91114
AAXX 16181 31960 42998 03603 11161 21241 30015 40268 52001
AAXX 16181 31961 42998 01901 11230 21256 30215 40266 58001
AAXX 16181 32053 42997 62603 11223 21255 30004 40057 57012 80005 333 91006 91106
AAXX 16181 32061 NIL
AAXX 16181 32098 42998 33102 11242 21260 30073 40084 57007 80003 333 91003 91103
AAXX 16181 32150 42996 63501 11210 21222 30062 40094 57003 82031 333 91002 91104
AAXX 16181 32165 41598 62905 11054 21119 30006 40068 57007 72681 86900 333 91008 91111
AAXX 16181 32215 41493 82608 11050 21057 39860 49889 57004 78683 889// 333 91015 91122
AAXX 16181 32252 NIL
AAXX 16181 32389 41496 80902 11030 21030 31031 49839 59875 77072 8872/ 333 85715
AAXX 16181 32477 42997 20801 11082 21092 39826 49858 56001 82030
AAXX 16181 32583 41595 83603 11049 21066 39816 49846 53006 78582 889//
AAXX 16181 32618 42598 21304 11040 21085 39867 49889 52005 82500
AAXX 16184 62309 32560 32503 10154 20117 40204 54000 83200 333 10208
AAXX 16184 62325 32960 00000 10149 20132 40207 54000 333 10214
AAXX 16184 62332 32960 33603 10161 20126 40205 57001 80004 333 10202
AAXX 16184 62387 32960 03402 10137 20098 40209 52005 333 10198
AAXX 16184 62459 32960 00000 10164 20104 40181 52009 333 10216
AAXX 16184 62452 32960 00000 10086 20027 40230 52006 333 10172
AAXX 16184 71537 16/// /2103 11128 21143 60001 333 11121 21175 70000
AAXX 16184 71423 17/// /2610 10032 20028 39895 49904 56016 69971 7//4/ 333 10040 21011 70096 555 11140
AAXX 16184 71737 16/// /2907 11060 21094 39626 40152 51028 60001 333 10029 21061 70027
AAXX 16184 71276 16/// ///13 11016 21072 60001 333 11016 21149 70000
AAXX 16184 71976 46/// /2117 11243 21269 39290 49934 58013 6///1 333 11215 21251 7//// 555 10010
AAXX 16184 71979 16/// ///// 11016 21055 38514 40194 50004 60001 333 11008 21113 70000
AAXX 16184 71306 17402 82724 11120 21136 39983 40016 57005 60001 773// 333 11120 21134 70000
AAXX 16184 71343 16/// /2514 10009 21047 60001 333 10009 21094 70000
AAXX 16184 71345 16/// /2310 10001 21054 60001 333 10001 21097 70000
AAXX 16184 71421 47/// ///// 11014 21015 39215 49917 5/003 6///1 7//4/ 333 7////
AAXX 16184 71189 46/// /2828 11021 21067 6///1 333 10034 21022 7////
AAXX 16184 71217 16/// /2306 11062 21075 60001 333 11056 21136 70000
AAXX 16184 71224 46/// /2709 11007 21060 6///1 333 10000 21088 7////
AAXX 16184 71225 16/// /2512 11001 21052 60001 333 11001 21114 70000
AAXX 16181 08501 32/// /1804 10192 20147 30243 40279 57002 333 10208 91007 91111 555 60005
AAXX 16184 89002 42397 80808 11006 21012 39700 49754 52025 888//
AAXX 16181 08501 32/// /1804 10192 20147 30243 40279 57002 333 10208 91007 91111
AAXX 16184 91643 11498 80709 10275 20251 40096 53012 69951 71508 8437/ 333 5629/ 84918 88460
AAXX 16184 61600 32960 80606 10276 20040 30125 40130 8807/ 333 10303 58003 88463
AAXX 16184 61612 32958 70804 10285 20011 30130 40138 8707/ 333 10311 58001 87363
AAXX 16184 61627 32957 80404 10280 20016 3//// 4//// 8807/ 333 10307 5//// 88462
AAXX 16184 61630 32960 70804 10292 20070 30111 40130 80002 333 10325 58007 87073
AAXX 16184 61666 32962 70404 10294 20179 30110 40118 80002 333 10312 58005 87071
AAXX 16184 61679 32960 70408 10305 20116 30118 40126 8707/ 333 10325 58010 87363
AAXX 16184 61687 32960 60410 10325 20072 30054 40112 82032 333 10345 58005 82363 85073
AAXX 16184 61695 32960 63602 10292 20130 30087 40113 85082 333 10330 58008 85363 83073
AAXX 16184 61697 32960 60404 10286 20132 30093 40108 85082 333 10315 59001 85363 83073
AAXX 16184 61698 32960 60802 10315 20122 30099 40110 84032 333 10345 58008 84363 85073
AAXX 16184 61699 32960 50804 10317 21011 39904 40093 80002 333 10333 58004 85073
AAXX 16184 71421 47/// ///// 11014 21015 39215 49917 5/003 6///1 7//4/ 333 7////
AAXX 16181 50434 11980 61803 11327 21365 39332 40324 52005 69901 70070 80002 333 11199
AAXX 16181 50527 11970 82504 11265 21290 39451 40332 52004 69911 72270 8801/ 333 11223
AAXX 16181 50603 32978 03203 11196 21238 39594 40336 52008 333 11182
AAXX 16181 50632 32980 33403 11198 21236 39316 40283 57002 80002 333 11171
AAXX 16181 50727 32980 00000 11291 21327 39048 40375 52003 333 11219
AAXX 16181 50915 32980 02503 11238 21287 39274 40384 52002 333 11177
AAXX 16181 51716 32965 00201 11068 21092 38996 40354 57003 333 00100 10010
AAXX 16181 51765 32980 63601 11088 21112 39315 40373 52004 80002 333 00004 10001
AAXX 16181 51777 32975 72201 11080 21120 39276 40379 52016 80002 333 00101 11008
AAXX 16181 51811 32962 20201 11069 21091 38862 40349 57006 80002 333 00000 10006
AAXX 16181 51828 32965 21402 11034 21096 38713 40344 57003 80002 333 00100 10015
AAXX 16181 52267 32980 02501 11136 21238 39205 40392 57001 333 05351 11041
AAXX 16181 52323 32980 02201 11170 21202 38278 57004 333 05102 11032
AAXX 16181 52495 32980 00401 11152 21222 38760 40386 57006 333 05401 11041
AAXX 16181 53149 32980 02905 11141 21212 38851 40373 57004 333 05709 11082
AAXX 16181 53192 32980 02201 11270 21295 38962 40447 57002 333 11222
AAXX 16181 53231 32980 01604 11135 21213 38551 57004 333 05405 11044
AAXX 16181 53336 32980 00000 11177 21229 38800 40416 57004 333 05503 11111
AAXX 16181 53391 32980 00000 11196 21254 38566 40417 52002 333 05404 11139
AAXX 16181 53529 32980 00000 11141 21202 38698 40386 57009 333 05502 11061
AAXX 16181 53543 32980 02002 11123 21216 38610 40387 57003 333 11073
AAXX 16181 53723 32970 02901 11132 21172 38728 40365 57006 333 05602 11016
AAXX 16181 54012 32980 02708 11197 21255 39079 40375 52002 333 11174
AAXX 16181 54026 32980 02703 11121 21254 39935 40282 57005 333 11063
AAXX 16181 54027 32980 02701 11149 21255 39675 40306 57004 333 11068
AAXX 16181 54208 32980 01601 11268 21306 38823 40429 57006 333 11155
AAXX 16181 54776 11580 33606 11018 21069 30282 40342 57006 69901 70080 83400 333 11013
AAXX 16181 56004 32980 22703 11189 21253 35798 52015 80002 333 00100 11080
AAXX 16181 56033 11680 70702 11145 21193 35979 52001 69941 70080 82502 333 05302 11080
AAXX 16181 56046 11665 70000 11138 21161 36223 57002 69921 78580 879// 333 05305 11075
AAXX 16184 48331 32660 60000 10222 20172 39931 40165 52002 83571 333 58009
AAXX 16181 56193 NIL
AAXX 16181 56196 11820 83601 10052 20042 40303 57010 60021 76166 8802/ 333 05401 10064
AAXX 16181 56287 11440 80000 10057 20051 40300 57005 60021 76066 885// 333 05351 10097
AAXX 16181 56684 32560 80000 10026 20005 37921 57005 885// 333 05403 10039
AAXX 16181 56751 32780 21605 10088 20015 38033 52004 82400 333 05103 10168
AAXX 16181 56786 31557 81604 10047 20027 38140 57002 71000 885// 333 05303 10047
AAXX 16181 56977 32465 80401 10131 20120 40202 57004 884// 333 00102 10177
AAXX 16181 57259 32965 41402 11004 21039 40349 57009 84030 333 10086
AAXX 16181 57279 32961 00901 10001 21065 40365 57007 333 10072
AAXX 16181 57348 32860 83202 10098 21010 40311 54000 885// 333 10128
AAXX 16181 57399 32960 03602 10005 21085 40363 57001 333 10101
AAXX 16181 57554 32863 80402 10053 21063 40349 57008 885// 333 10101
AAXX 16181 57793 31958 01102 10031 21016 40343 57005 71000 333 10107
AAXX 16181 58345 32962 00000 11032 21067 40374 57008 333 10048
AAXX 16181 58506 32966 01402 11028 21238 40345 57006 333 10021
AAXX 16181 58813 32962 00000 10022 20003 40326 54000 333 10118
AAXX 16181 58834 32965 03402 10065 21014 40318 52006 333 10141
AAXX 16181 58926 31950 03401 10061 20036 40300 52006 71000 333 10168
AAXX 16181 58944 32461 80206 10101 20017 40305 52002 885// 333 10127
AAXX 16181 59096 32665 70201 10078 21009 40298 52009 875// 333 10163
AAXX 16181 59102 32960 00402 10060 21003 40300 52005 333 10135
AAXX 16181 59278 32762 70204 10138 20001 40274 52008 875// 333 10180
AAXX 16181 59456 32768 80202 10147 20050 40252 52001 885// 333 10182
AAXX 16181 59493 31759 70203 10141 20030 40259 52004 70500 875// 333 10184
AAXX 16181 59658 32760 73602 10144 20070 40244 57002 875// 333 10189
AAXX 16181 59673 32563 70208 10155 20057 40246 57004 878// 333 10168
AAXX 16181 59845 32460 80901 10159 20121 40234 57008 888// 333 10186
AAXX 16124 91648 11499 70914 10278 20244 40092 60001 70222 83208 333 10307 562/9
AAXX 16124 91648 11499 70914 10278 20244 40092 60001 70222 83208 333 10307 562/9
BBXX 46183 16181 99536 71311 46/// /1410 10077 40153 52003 22200 00080 10804 70021 333 91212
BBXX 46183 16181 99536 71311 46/// /1410 10077 40153 52003 22200 00080 10804 70021 333 91212
AAXX 16184 87320 32670 50912 10316 20159 39566 40081 57020 83202 333 56306 57848 83840 83070
AAXX 16181 78458 32566 50905 10285 20210 40180 57016 84830 333 10291 20184 31/// 56200 58011 84820
AAXX 16181 78460 31560 51505 10256 20205 40143 57024 70544 82230 333 10261 20172 31/// 56110 58007 82822 83358
AAXX 16181 78467 32566 70405 10274 20205 40171 57017 87200 333 10275 20185 30/// 56100 58017 87820
AAXX 16181 78479 31566 60708 10277 20202 40141 52014 70262 83230 333 10284 20233 30/// 56200 58013 83825 84358
AAXX 16181 78482 32566 21305 10304 20188 40170 57020 81201 333 10305 20170 30/// 56000 58031 81825
AAXX 16181 78485 32466 60704 10268 20154 57014 85860 333 10295 20180 30/// 56100 58015 85818
AAXX 16181 78486 32566 60304 10286 20212 40140 57026 83230 333 10300 20205 30/// 56800 58014 83826 84358
AAXX 16181 78488 21458 60205 10255 20213 40160 57016 76010 85870 333 10282 20170 31/// 56800 58017 60010 85818 83357
AAXX 16181 78458 32566 50905 10285 20210 40180 57016 84830 333 10291 20184 31/// 56200 58011 84820
AAXX 16181 78460 31560 51505 10256 20205 40143 57024 70544 82230 333 10261 20172 31/// 56110 58007 82822 83358
AAXX 16181 78467 32566 70405 10274 20205 40171 57017 87200 333 10275 20185 30/// 56100 58017 87820
AAXX 16181 78479 31566 60708 10277 20202 40141 52014 70262 83230 333 10284 20233 30/// 56200 58013 83825 84358
AAXX 16181 78482 32566 21305 10304 20188 40170 57020 81201 333 10305 20170 30/// 56000 58031 81825
AAXX 16181 78485 32466 60704 10268 20154 57014 85860 333 10295 20180 30/// 56100 58015 85818
AAXX 16181 78486 32566 60304 10286 20212 40140 57026 83230 333 10300 20205 30/// 56800 58014 83826 84358
AAXX 16181 78488 21458 60205 10255 20213 40160 57016 76010 85870 333 10282 20170 31/// 56800 58017 60010 85818 83357
AAXX 16181 78458 32566 50905 10285 20210 40180 57016 84830 333 10291 20184 31/// 56200 58011 84820
AAXX 16181 78460 31560 51505 10256 20205 40143 57024 70544 82230 333 10261 20172 31/// 56110 58007 82822 83358
AAXX 16181 78467 32566 70405 10274 20205 40171 57017 87200 333 10275 20185 30/// 56100 58017 87820
AAXX 16181 78479 31566 60708 10277 20202 40141 52014 70262 83230 333 10284 20233 30/// 56200 58013 83825 84358
AAXX 16181 78482 32566 21305 10304 20188 40170 57020 81201 333 10305 20170 30/// 56000 58031 81825
AAXX 16181 78485 32466 60704 10268 20154 57014 85860 333 10295 20180 30/// 56100 58015 85818
AAXX 16181 78486 32566 60304 10286 20212 40140 57026 83230 333 10300 20205 30/// 56800 58014 83826 84358
AAXX 16181 78488 21458 60205 10255 20213 40160 57016 76010 85870 333 10282 20170 31/// 56800 58017 60010 85818 83357
BBXX MINFR03 1618/ 99142 30618 46/// ///// 10273 40096 52005
BBXX MINUK05 1618/ 99602 70062 46/// ///// 10055 49956 52026
BBXX MINUK01 1618/ 99601 70011 46/// ///// 10048 49908 52019
BBXX 46131 16181 99499 71250 46/// /1210 1//// 40291 54000 22200 00078 10502 70010 333 91212
AAXX 16181 80001 01468 80703 10274 20240 30125 40126 69911 75052 83236 333 56200 58010 83816 84358
AAXX 16181 80002 NIL
AAXX 16181 80009 31560 53002 10284 20249 30099 40104 70522 82234 333 56600 57822 58015 82820 83358
AAXX 16181 80022 01461 82303 10258 20241 30108 40110 60061 72065 8572/ 333 5629/ 58015 60067 85713 85457
AAXX 16181 80028 41460 81302 10279 20246 30081 40116 70595 8487/ 333 5639/ 58012 84815 86358
AAXX 16181 80035 01460 80000 10252 20244 30118 40123 60091 76052 8527/ 333 5609/ 57832 58012 60097 85815 83459
AAXX 16181 80036 31465 30407 10311 20215 70510 82202 333 560/0 57893 82815
AAXX 16181 80063 31468 50000 10302 20246 70522 85410 333 5600/ 85620
AAXX 16181 80084 31465 72104 10287 20236 71522 84215 333 56999 57833 84817 83459
AAXX 16181 80091 11465 52502 10276 20242 69921 70552 83830 333 5690/ 83610
AAXX 16181 80094 31464 52805 10230 20181 38803 70522 848/5 333 567/9 58006 84815
AAXX 16181 80097 32566 73604 10284 20237 39737 40094 84831 333 56999 59012 84820 83359
AAXX 16181 80099 31466 30802 10310 20229 39917 40060 70500 83106 333 564/9 58010 83815
AAXX 16181 80110 31563 70203 10246 20141 38499 71622 83280 333 5600/ 57893 58000 83633 85358
AAXX 16181 80112 01459 80903 10188 20132 37899 69901 75052 8497/ 333 5699/ 57991 58010 69907 84917 86358
AAXX 16181 80139 32570 60805 10335 20218 83202 333 561/9 83823 83070
AAXX 16181 80144 01230 81703 10240 20234 60021 75152 8571/ 333 5600/ 69987 85705 88457
AAXX 16181 80149 NIL
AAXX 16181 80210 11364 82900 10215 20185 38660 60011 70565 85278 333 56890 57/91 58011 85813 83358
AAXX 16181 80211 11562 71602 10230 20181 60041 71552 86230 333 5662/ 86823
AAXX 16181 80214 31460 60504 10268 20223 39110 71522 86970 333 56500 57981 58006 82915 86817
AAXX 16181 80222 31468 82604 10159 20124 37505 70522 86255 333 56999 57892 58002 83817 83820
AAXX 16181 80234 32562 70902 10310 20205 39585 40080 86532 333 56239 59002 86623
AAXX 16181 80241 NIL
AAXX 16181 80259 11459 82001 10227 20193 39059 60101 71552 8377/ 333 56399 58009 83712 88458
AAXX 16181 80315 40000 10262 20219 39590 40090 60131 70196 83250 333 5644/ 58014 60107 83807
AAXX 16181 80342 11562 53404 10202 20164 38214 60011 70265 85800 333 564// 58005 85820
AAXX 16181 80370 31462 71504 10136 20102 71522 87800 333 563// 87818
AAXX 16181 80398 01440 80503 10238 20234 30006 40101 69901 79522 889// 333 561// 57910 58015 69907 83910 85815
AAXX 16184 41863 31950 00000 10110 20100 30117 40163 70500 333 59004 70000
AAXX 16184 41953 31930 00000 10180 20170 30158 40164 70500 333 59002 70000
BBXX 46131 16181 99499 71250 46/// /1210 1//// 40291 54000 22200 00078 10502 70010 333 91212
AAXX 16181 51243 32865 70000 11117 21130 39815 40411 54000 83502 333 00053 11058
AAXX 16181 51463 11770 63601 11090 21108 39228 40399 57002 69901 70070 82502 333 05254 11051
AAXX 16184 17128 11556 73504 10014 20009 39030 40161 53001 69962 76822 85520 333 10049 85630 87458 93100
AAXX 16181 60379 16/// /2403 10162 20085 69922 333 10206
AAXX 16181 60380 36/// /3004 10159 20045 333 10210
AAXX 16181 60394 36/// /2203 10171 20033 333 10218
AAXX 16181 60374 36/// /2304 10164 20108 333 10189
AAXX 16181 60613 36/// /0000 10141 20012 333 10191
AAXX 16184 08284 02682 42420 10160 20072 30056 40130 58028 60002 81572 333 10160 60007 91151 91527
AAXX 16184 62458 32960 23605 10173 20045 40178 52010 80001 333 10212
AAXX 16184 62420 32960 00000 10144 20084 40220 52006 333 10212
AAXX 16184 62432 32960 02905 10160 20059 40198 52006 333 10225
AAXX 16184 62435 32960 00209 10174 20046 40195 52011 333 10228
AAXX 16184 62455 32960 03405 10158 20083 40196 52009 333 10201
AAXX 16184 62476 32960 03610 10210 20124 40148 52010 333 10248
BBXX 46204 16181 99514 71288 46/// /0913 10075 40194 54000 22200 00083 10708 70039 333 91216
BBXX 46204 16181 99514 71288 46/// /0913 10075 40194 54000 22200 00083 10708 70039 333 91216
AAXX 16184 89532 41/15 80551 10006 21001 39901 49928 58004 76873 885// 333 00454 92961
AAXX 16184 89532 41/15 80551 10006 21001 39901 49928 58004 76873 885// 333 00454 92961
BBXX ZDLP 16183 99606 50517 41/92 92927 10026 20021 49937 57030 74544 89/// 22223 04005 20301 33126 40505 50503 80024
BBXX 41036 16181 99342 70770 46/// ///// 10192 20146 40204 91820 22200 00179
AAXX 16184 82106 32598 70904 10342 20239 3//// 4//// 84220 333 5////
AAXX 16184 82113 21495 71402 10298 20260 3//// 4//// 75122 84860 333 5//// 60021
AAXX 16184 82212 31698 41402 10328 20243 30007 40088 70512 83340 333 59013
AAXX 16184 82336 21194 80000 10286 20258 3//// 4//// 75198 881// 333 5//// 60041
AAXX 16184 82425 32597 61404 10340 20242 3//// 4//// 863// 333 5////
AAXX 16184 82533 32197 52302 10302 20253 3//// 4//// 85700 333 5////
AAXX 16184 82704 32195 80000 10293 20241 39851 40044 887// 333 59019
AAXX 16184 82723 32497 80506 10286 20237 30010 40092 889// 333 58011
AAXX 16184 83552 32998 0//// 10341 20138 39934 4//// 333 58010
AAXX 16184 83623 31996 6//// 1//// 2//// 39483 4//// 58040 70544 85240
AAXX 16184 83630 32597 42306 10260 20154 3//// 4//// 57020 82130
AAXX 16184 83702 32599 83204 10293 20115 39331 40073 58020 82368
AAXX 16184 83704 32898 50902 10301 20199 39644 40046 58050 86100
AAXX 16184 83726 32597 33202 10285 20136 39136 40083 56020 83130
AAXX 16184 83064 32898 40000 10290 20234 39798 40066 87080 333 59006
AAXX 16184 83235 21698 80000 10242 20201 39415 40080 75152 885// 333 59008 60011
AAXX 16184 83332 32697 83202 10246 20207 39174 40071 887// 333 59002
AAXX 16184 83423 21598 83204 10244 20203 39263 40071 70365 885// 333 58024 60031
AAXX 16184 83470 22698 70906 10235 20205 39221 40071 87200 333 58015 60021
AAXX 16184 91650 11599 71005 10260 2025/ 40100 55003 60031 70288 83106 333 569/9 83820 86280
AAXX 16184 91652 NIL
AAXX 16184 91656 NIL
AAXX 16184 91659 NIL
AAXX 16184 91660 NIL
AAXX 16184 91669 36/// /1603 10244 2//// 40128 52010 91815
AAXX 16184 91670 36/// /0600 10255 20236 40121
AAXX 16184 91676 14/// /0502 10265 20240 30057 40117 50010 69951
AAXX 16184 91680 11599 71405 10232 20225 40124 51008 60001 70312 81107 333 569/9 81828 87278
AAXX 16184 91682 NIL
AAXX 16184 91683 11599 70000 10234 20230 40124 53010 60001 70222 84802 333 569/9 82823 87080
AAXX 16184 91691 14/// /0601 10245 20241 30130 40133 50010 60001
AAXX 16184 91693 11599 50000 10266 2025/ 40121 53011 60001 70222 82102 333 569/9 82825 85078
AAXX 16184 91697 14/// /0601 10261 20232 30124 40129 50009 60001
AAXX 16184 91699 14/// /3606 10268 20239 30103 40135 50010 60001
AAXX 16184 82042 21198 60504 10285 20256 3//// 4//// 70381 83632 333 5//// 60041
AAXX 16184 82240 32596 40000 10332 20241 3//// 4//// 82202 333 5////
AAXX 16184 82317 32594 43602 10330 20242 3//// 4//// 83202 333 5////
AAXX 16184 82610 32496 40000 10336 20258 3//// 4//// 83430 333 5////
AAXX 16184 82807 32595 63602 10303 20243 3//// 4//// 84330 333 5////
BBXX VROB 16184 99171 31533 46/// /1223 10260 20225 30056 40081 57002 22243 04281 85235
BBXX FHZI 16184 99499 31458 46/// /2716 10081 20066 30214 40225 57004 22243 04097 85073
BBXX VNAH 16184 99333 31157 46/// /1008 10177 20127 30067 40090 57011 22200 85147
BBXX JPAT 16182 99215 30983 41497 81116 00/// 10227 20147 40131 53000 70322 884// 22223 00240 10803 308//
AAXX 16184 67755 NIL
AAXX 16184 67771 NIL
AAXX 16184 67773 NIL
AAXX 16184 67774 NIL
AAXX 16184 67785 NIL
AAXX 16184 67789 NIL
AAXX 16184 67855 NIL
AAXX 16184 67857 NIL
AAXX 16184 67863 NIL
AAXX 16184 67871 NIL
AAXX 16184 67875 NIL
AAXX 16184 67891 NIL
AAXX 16184 67895 NIL
AAXX 16184 67897 NIL
AAXX 16184 67899 NIL
AAXX 16184 67951 NIL
AAXX 16184 67963 NIL
AAXX 16184 67967 NIL
AAXX 16184 67971 41470 81405 10202 20198 38/// 48/// 75052 886// 333 10238 5//// 86710 88625
AAXX 16184 67976 NIL
AAXX 16184 67979 NIL
AAXX 16184 67765 41675 71101 10213 20190 38669 48512 71398 81978 333 10291 58007 81940 85460 87280
AAXX 16184 67775 41356 81307 10182 20176 38521 48525 76196 82773 333 10283 58011 81835 82704 88458
AAXX 16184 67779 NIL
AAXX 16184 67853 NIL
AAXX 16184 67861 NIL
AAXX 16184 67867 41580 81503 10187 20187 38602 48530 70296 885// 333 10274 88620
AAXX 16184 67881 NIL
AAXX 16184 67965 41475 81610 10190 20172 38704 48528 72196 8657/ 333 10281 58020 86610 88458
AAXX 16184 67975 41970 70902 10200 20192 38949 48537 76062 8707/ 333 10234 58032 87460
AAXX 16184 67977 NIL
AAXX 16184 67983 NIL
AAXX 16184 67991 42675 71302 10228 20198 39619 48520 8457/ 333 10280 58064 84630 87460
AAXX 16183 67765 41675 71101 10213 20190 38669 48512 71398 81978 333 10291 81940 85460 87280
AAXX 16183 67775 41656 81307 10182 20176 38521 48525 76196 82773 333 10283 81835 82704 88458
AAXX 16183 67867 41580 81503 10187 20187 38602 48530 70296 885// 333 10274 88620
AAXX 16183 67965 41475 81610 10190 20172 38704 48528 72196 8657/ 333 10281 86610 88458
AAXX 16183 67975 41970 70902 10200 20192 38949 48537 76062 8707/ 333 10234 87460
AAXX 16183 67991 42575 71302 10228 20198 39619 48520 8457/ 333 10280 84630 87460
BBXX VROB 16184 99171 31533 46/// /1223 10260 20225 30056 40081 57002 22243 04281 85235
BBXX FHZI 16184 99499 31458 46/// /2716 10081 20066 30214 40225 57004 22243 04097 85073
BBXX VNAH 16184 99333 31157 46/// /1008 10177 20127 30067 40090 57011 22200 85147
BBXX JPAT 16182 99215 30983 41497 81116 00/// 10227 20147 40131 53000 70322 884// 22223 00240 10803 308//
AAXX 16181 21802 41997 83408 11134 21141 30061 40086 52018 73673 86030
AAXX 16181 24125 42998 03402 11185 21191 39839 40133 52009
AAXX 16181 24136 41998 80000 11223 21248 30002 40107 53009 77172 82037
AAXX 16181 24143 NIL
AAXX 16181 24266 41997 80601 11385 21413 30004 40206 53001 77177 8802/
AAXX 16181 24329 NIL
AAXX 16181 24343 41497 81604 11347 21377 30034 40168 54000 77173 85607 333 85712
AAXX 16181 24382 41999 80000 11351 21380 39900 40182 53004 70272 82031
AAXX 16181 24639 41997 82203 11184 21203 39985 40146 57008 77172 8802/
AAXX 16181 24641 41998 80801 11237 21261 30003 40156 57003 77177 85011
AAXX 16181 24652 42997 01303 11375 21405 30086 40227 57001
AAXX 16181 24656 42999 00000 11432 21468 30120 40241 58004
AAXX 16181 24671 42999 00000 11460 21485 39660 40260 52005
AAXX 16181 24688 NIL
AAXX 16181 24724 41999 82704 11174 21193 39620 40176 53002 73683 83031
AAXX 16181 24738 41997 82203 11172 21184 39977 40162 57006 77172 8802/
AAXX 16181 24768 42997 20000 11462 21498 39954 40231 54000 80001
AAXX 16181 24923 41596 82405 11161 21187 39882 40204 56005 77173 885// 333 88622
AAXX 16181 24944 41595 82302 11172 21184 39881 40188 57012 77172 8352/
AAXX 16181 24951 41998 80000 11246 21270 30017 40198 57008 77177 85027
AAXX 16181 24661 41998 00000 11456 21498 39929 40246 53001 74000
AAXX 16181 24959 41993 83401 11408 21438 30067 40217 57002 77174 80005 333 96044
AAXX 16181 24962 41998 00702 11383 21409 30003 40218 53002 70271
AAXX 16181 24966 41998 80401 11364 21387 39969 40217 56001 77172 82037
AAXX 16181 24967 42999 80000 11318 21347 39983 40228 54000 80006
AAXX 16181 25206 42999 72002 11278 21303 30140 40170 53001 86031
AAXX 16181 25400 41898 81702 11262 21287 30107 40167 54000 77172 8802/
AAXX 16181 30054 41696 82206 11139 21166 39999 40252 57008 77173 86057
AAXX 16181 30089 41998 80000 11188 21200 39984 40223 57010 77177 8802/
AAXX 16181 30393 41998 80000 11237 21255 39122 40247 57005 77173 83037
AAXX 16181 30493 41698 80502 11216 21256 39117 40235 58002 77172 83507
AAXX 16181 31004 41999 52101 11260 21277 39328 40238 57012 70272 82031
AAXX 16181 31137 NIL
BBXX 44029 16181 99425 70706 46/30 /2810 10089 40112 53012 91804 22200 00092 10502 70010 333 91214 555 11131 22140
BBXX 44030 16181 99432 70704 46/// /2913 1//// 40098 53014 91804 22200 00092 10503 70014 333 91215 555 11160 22171
AAXX 16181 35925 319// 81105 11126 21139 40370 56003 71011 8801/ 333 11049
AAXX 16181 36152 329// 51604 11270 21311 30204 40417 57010 80002 333 11226
AAXX 16181 36177 129// 30000 11270 21290 30157 40435 54000 69900 80001 333 11166
AAXX 16181 36208 119// 81002 11118 21135 39360 40393 52002 69900 77177 8572/ 333 11091
AAXX 16181 36397 115// 80000 11138 21159 39805 40404 51004 60010 77177 8802/ 333 11082
AAXX 16181 36428 325// 82702 11140 21160 39883 40416 53004 886// 333 11090 95090
AAXX 16181 36535 329// 52901 11175 21209 39746 40439 58002 85030 333 11104
AAXX 16181 36639 325// 80000 11102 21130 39771 40408 58003 885// 333 11124
AAXX 16181 38001 32997 00705 10012 21033 30295 40265 57017 333 10038
AAXX 16181 38196 32998 00000 11097 21168 39340 40378 57007 333 11033
AAXX 16181 38198 319// 00000 11142 21148 30103 40384 57012 74241 333 11075
AAXX 16181 38232 32998 70905 11020 21045 30205 40307 57007 87080 333 11004
AAXX 16181 38328 319// 01401 11083 21106 39595 40366 57010 71011 333 10014
AAXX 16181 38334 32997 00801 11074 21128 39352 40363 57013 333 11027
AAXX 16181 38439 32598 83606 11038 21053 39997 40349 57010 885// 333 10002
BBXX 46088 16181 99483 71232 46/// /1102 10072 40311 91820 22200 00080 1//00 70001 333 91203 555 11023 22023 31753 41204 61819 109022 115022 125026 128025 131025 127024
BBXX 46088 16181 99483 71232 46/// /1102 10072 40311 91820 22200 00080 1//00 70001 333 91203 555 11023 22023 31753 41204 61819 109022 115022 125026 128025 131025 127024
BBXX 46087 16181 99485 71247 46/// /1106 10082 20081 40310 91820 22200 00080 333 91208 555 11063 22068 31732 41108 61819 108060 113057 116063 119063 115063 112060
AAXX 16181 30157 41996 80000 11200 21226 39976 40282 57018 77172 8802/
AAXX 16181 35925 319// 81105 11126 21139 40370 56003 71011 8801/ 333 11049
AAXX 16181 36152 329// 51604 11270 21311 30204 40417 57010 80002 333 11226
AAXX 16181 36177 129// 30000 11270 21290 30157 40435 54000 69900 80001 333 11166
AAXX 16181 36208 119// 81002 11118 21135 39360 40393 52002 69900 77177 8572/ 333 11091
AAXX 16181 36397 115// 80000 11138 21159 39805 40404 51004 60010 77177 8802/ 333 11082
AAXX 16181 36428 325// 82702 11140 21160 39883 40416 53004 886// 333 11090 95090
AAXX 16181 36535 329// 52901 11175 21209 39746 40439 58002 85030 333 11104
AAXX 16181 36639 325// 80000 11102 21130 39771 40408 58003 885// 333 11124
AAXX 16181 38001 32997 00705 10012 21033 30295 40265 57017 333 10038
AAXX 16181 38196 32998 00000 11097 21168 39340 40378 57007 333 11033
AAXX 16181 38198 319// 00000 11142 21148 30103 40384 57012 74241 333 11075
AAXX 16181 38232 32998 70905 11020 21045 30205 40307 57007 87080 333 11004
AAXX 16181 38328 319// 01401 11083 21106 39595 40366 57010 71011 333 10014
AAXX 16181 38334 32997 00801 11074 21128 39352 40363 57013 333 11027
AAXX 16181 38439 32598 83606 11038 21053 39997 40349 57010 885// 333 10002
BBXX WFLH 16183 99223 71552 43498 30609 10233 20184 40202 52011 7//// 832// 22213 00233 20801 310// 41404 5//// 6//// 80200 ICE /////
BBXX ZCDM8 16183 99168 70195 41697 60516 10242 20168 40139 51012 70522 84469 22243 00233 20303 301// 40505 5//// 80196
BBXX V7NV4 16184 99255 11247 41798 80327 10190 20159 40195 52005 75021 87543 22263 00190 20204 30303 40204 50204 6//// 80170 ICE /////
BBXX PDGS 16184 99157 70961 41/98 41306 10260 40150 54000 70211 8417/ 22200 00250 20000
BBXX WZJC 16183 99194 70689 41598 30517 10267 2019/ 40154 57019 71511 82971 22273 00267 20402 302// 40805 5//// 6//// 80217 ICE /////
BBXX C6XC6 16184 99251 70568 41397 40130 10240 2//// 40100 54/// 70210 8124/ 22264 00222 20806 336// 40808 5//// 6//// 8//// ICE /////
AAXX 16184 16008 11210 83505 11012 21036 38271 48243 57126 69922 77077 887// 333 11012 43010 88705 92820 93101
BBXX MRGU3 16183 99413 70097 41398 82930 10145 20074 40256 55020 70222 887// 22284 04164 20810 329// 41210 5//// 80110
BBXX OVSB2 16183 99234 30088 41598 81411 10183 20114 40172 55004 70222 885// 22234 00194 20402 317// 40704 5//// 80145
BBXX DDDO2 16184 99125 10593 41397 40524 10264 20216 40125 52010 70111 83770 22224 00270 2//// 80230=40506 80238
BBXX TBWUK12 16184 99297 50014 41/// /0229 10190 20174 40190 56020 7//// 8//// 22263 2//// 3//// 4//// 5//// 80180
BBXX TBWUK17 16183 99106 30974 41597 52311 10271 20250 40122 52015 70211 85874 22253 04290 20101 31819 40403 50604 80256
BBXX DCPX2 16184 99228 10378 41/98 /3217 10235 20158 40140 55000 70300 8//// 22234 04250 2//// 80185
BBXX VRCZ7 16183 99376 10031 41/97 52740 10160 20124 40147 55/// 70322 85/// 22264 2//// 3//// 4//// 5//// 80140
BBXX ZNQO3 16180 99341 10233 41/97 52710 10180 20172 40194 58010 70222 8//// 22264 04178 2//// 3//// 4//// 5//// 80175
AAXX 16184 40250 32960 00000 10084 21023 39403 40215 52007 333 10144
AAXX 16184 40265 32960 30000 10060 20025 39420 40241 52006 80001 333 10148 83070
AAXX 16184 40296 32960 00000 10140 20100 40200 57003 333 10215
AAXX 16184 40310 32960 20000 10072 21013 38974 48514 52010 80002 333 10154 82070
BBXX MINFR03 1618/ 99142 30618 46/// ///// 10273 40096 52005
BBXX A8ZS7 16184 99293 30375 41597 41517 10240 20176 40160 52020 76022 847// 22254 04240 29902 80200
BBXX ZCDM8 16183 99168 70195 41697 60516 10242 20168 40139 51012 70522 84469 22243 00233 20303 301// 40505 5//// 80196
BBXX PBOF 16183 99388 11180 41997 02618 11020 21020 40365 58010 702// 80000 22200 04060 20301 81020 90432
BBXX 7JJA 16184 99317 11375 41797 73130 00 10120 20062 40190 52005 70322 863// 9//// 22213 0 2//08 332 4//08 5 6//// 80090 ICE /////
BBXX SHIP 16183 99071 11280 41/98 31612 10270 20257 40118 58008 822// 22213 00280 2//01 80260
BBXX SHIP 16184 99172 11306 41298 70422 10260 20232 40113 56021 70322 8645/ 22244 00287 399// 4//// 5//// 80240
BBXX 3EIU9 16184 99052 11112 41197 70804 10260 20230 40105 53011 70311 88456 91750 22212 00254 1//// 2//// 336// 40403 5//// 6//// 80240 /////
BBXX SHIP 16184 99119 11124 41596 60331 10260 20232 40114 55005 70222 85/// 22254 00271 2//// 3//// 4//// 80240
BBXX SHIP 16184 99181 11142 41/96 60527 10230 20201 41017 51002 70212 8//// 91800 22283 00260 1//// 2//// 3//// 4//// 5//// 6//// 80210 //////
BBXX SHIP 16184 99133 11274 41797 30519 10270 20243 40091 56012 70111 83332 22243 00184 20305 309// 40305 80250
BBXX JPBN 16184 99348 11402 41/98 60118 10066 21063 40161 53006 70211 86200 22221 00184 1//03 20503 399// 4//02 70017
BBXX JGQH 16184 99295 11303 41/97 23621 10125 20047 40258 53001 70182 82200 22212 00232 1//05 20604 399// 4//02 70026
BBXX TBWUK36 16183 99258 11285 41398 80322 10181 20103 40234 51005 70222 887// 22254 00240 20505 334// 40604 5//// 80139
BBXX VREX8 16184 99272 11737 41597 11313 10240 2021/ 40220 54000 70100 811// 22265 0//// 20202 327// 40404 5//// 6//// 80220 ICE /////
BBXX V7NV4 16184 99255 11247 41798 80327 10190 20159 40195 52005 75021 87543 22263 00190 20204 30303 40204 50204 6//// 80170 ICE /////
BBXX UHFW 16180 99475 11416 41/96 93609 11070 40093 58015 78682 22272 06040 20402
BBXX 46204 16181 99514 71288 46/// /0913 10075 40194 54000 22200 00083 10708 70039 333 91216
BBXX 46131 16181 99499 71250 46/// /1210 1//// 40291 54000 22200 00078 10502 70010 333 91212
BBXX 46183 16181 99536 71311 46/// /1410 10077 40153 52003 22200 00080 10804 70021 333 91212
BBXX DCTA2 16180 99367 71328 41598 51305 10135 20127 40305 53010 70222 84245 22224 04150 20502 33132 40603 50502 80130
BBXX C6XC6 16184 99251 70568 41397 40130 10240 2//// 40100 54/// 70210 8124/ 22264 00222 20806 336// 40808 5//// 6//// 8//// ICE /////
BBXX 46147 16181 99518 71312 46/// /1605 10084 40156 57004 22200 00081 11208 70039 333 91206
BBXX SHIP 16184 99310 71789 41/98 92133 10220 20196 40165 56/// 70203 8//// 91750 22264 00210 2//// 3//// 4//// 5//// 80200
BBXX DHEB 16183 99543 71659 41/97 /2518 10025 21013 49810 52010 7//22 8//// 22224 04050 29903 3//// 4//// 5//// 80010
BBXX SHIP 16184 99230 71668 41497 60822 10235 20205 40194 52006 70181 84363 22223 04240 20404 30633 40704 50904
BBXX 46221 16181 99339 71186 46/// ///// 1//// 91745 22200 00154 11301 20701 325// 41301 70007
BBXX 44060 16181 99413 70721 46/// ///10 10077 40167 91815 22200 00109 333 91213 555 11108 22113
BBXX 44022 16181 99409 70737 46/// ///07 10074 21037 40193 91815 22200 00093 333 91211 555 11077 22082
BBXX 44034 16181 99441 70681 46/30 /2912 10088 40051 53021 91804 22200 00088 10805 70024 333 91214 555 11149 22159
BBXX 44033 16181 99441 70690 46/30 /2911 10089 40065 53028 91804 22200 00083 10302 70010 333 91217 555 11144 22154
BBXX 41037 16181 99340 70775 46/// /2606 10193 40205 58010 91800 22200 00183 333 91207
BBXX 41115 16181 99184 70673 46/// ///// 1//// 91805 22200 11104 21004 300// 41102 70022
BBXX 42362 16181 99278 70907 46/// /0000 10250 20189 40224 91815
BBXX 46114 16181 99364 71222 46/// ///// 1//// 91804 22200 00126 11105 21004 331// 41103 70023
BBXX 42364 16181 99291 70881 46/// /2102 10222 20172 40231 91815
BBXX 41114 16181 99276 70802 46/// ///// 1//// 91816 22200 00235 11103 21002 307// 41101 70013
BBXX 42363 16181 99282 70892 46/// /0903 10228 20161 40231 91815 333 91203
BBXX WZJC 16183 99194 70689 41598 30517 10267 2019/ 40154 57019 71511 82971 22273 00267 20402 302// 40805 5//// 6//// 80217 ICE /////
BBXX DGTX 16183 99330 71617 41/98 21305 10165 20073 40270 52027 70300 82140 22264 00220 29901 329// 40909 80115
BBXX V7DI7 16183 99404 70612 41596 82337 10200 2019/ 40045 57035 78162 887// 22200 00100 20204 323// 40506 5//// 6//// 80190 ICE /////
BBXX 44099 16181 99369 70757 46/// ///// 1//// 91752 22200 00120 11302 20402 310// 41301 70012
BBXX 46222 16181 99336 71183 46/// ///// 1//// 91756 22200 00151 11102 20801 326// 41101 70008
BBXX 46242 16181 99332 71174 46/// ///// 1//// 91758 22200 00148 11101 21001 324// 41101 70005
BBXX 46231 16181 99327 71174 46/// ///// 1//// 91754 22200 00143 11102 21001 328// 41101 70008
BBXX 46211 16181 99469 71242 46/// ///// 1//// 91806 22200 00083 11704 20802 328// 41703 70018
BBXX 46223 16181 99335 71178 46/// ///// 1//// 91800 22200 00154 11202 20901 326// 41201 70008
BBXX 46236 16181 99368 71219 46/// ///// 1//// 91750 22200 00126 11103 21003 329// 41102 70016
BBXX 46216 16181 99343 71198 46/// ///// 1//// 91757 22200 00143 11002 21002 326// 41101 70012
BBXX 46217 16181 99342 71194 46/// ///// 1//// 91812 22200 00150 11302 20902 327// 41301 70010
BBXX 44172 16181 99445 70634 46/// ///// 1//// 91801 22200 00075 10805 20805 312// 41101 70027
BBXX 44098 16181 99428 70702 46/// ///// 1//// 91807 22200 00093 10504 20504 312// 41101 70019
BBXX 46240 16181 99366 71219 46/// ///// 1//// 91812 22200 00123 11102 21002 335// 41102 70012
BBXX WUR8857 16184 99468 70849 41/98 /0000 11177 2//// 40000 5//// 70200 8//// 222// 01178 2//00 3//// 4//// 5//// 6//// 8//// ICE /////
BBXX WE4805 16184 99479 70865 41/97 83604 1//// 2//// 40268 54000 77207 88/// 22233 00061 20302 3//// 4//// 5//// 6//// 8//// ICE /////
BBXX 46241 16181 99330 71173 46/// ///// 1//// 91741 22200 00143 11201 20901 327// 41201 70007
BBXX 46249 16181 99338 71197 46/// ///// 1//// 91812 22200 00147 11202 21002 327// 41201 70010
BBXX 46248 16181 99461 71247 46/// ///// 1//// 91804 22200 00088 11504 20803 330// 41503 70022
BBXX 46111 16181 99481 71227 46/// /1305 10079 40309 54000 91800 22200 00057
BBXX 46112 16181 99481 71227 46/// /1503 10078 40310 54000 91800
BBXX 46244 16181 99409 71244 46/// ///// 1//// 91805 22200 00098 11005 21004 330// 41802 70023
BBXX BAREU00 16184 99499 70392 46/// ///// 40250 52001 22224
BBXX 41101 16184 99146 70562 46/// /3406 10268 20218 40104 57020 22200 00278 10903 70015
BBXX 44067 16181 99384 70770 46/// /0606 10083 40221 50003 91800
BBXX 44032 16181 99437 70694 46/30 /3012 10086 40075 53026 91804 22200 00089 10804 70022 333 91216 555 11153 22163
BBXX 41029 16181 99328 70796 46/// /2103 1//// 91800 555 11039 22045
BBXX 42067 16181 99300 70886 46/// ///// 10135 20131 40228 91740 22200 00164 10602 70009
BBXX 41053 16181 99185 70661 46/// /0407 10264 40142 58018 91800 22200 00275 11005 70023 333 91209
BBXX 41053 16181 99185 70661 46/// /0407 10264 40143 91750 333 91209
BBXX 41053 16181 99185 70661 46/// /0407 10264 40144 91740 333 91209
BBXX C6KJ5 16184 99276 70923 41498 32612 01505 41307 10245 2023/ 40215 52015 70122 84891 22272 00234 80225
BBXX WFLH 16183 99223 71552 43498 30609 10233 20184 40202 52011 7//// 832// 22213 00233 20801 310// 41404 5//// 6//// 80200 ICE /////
BBXX 46207 16181 99509 71299 46/// /2009 10091 40182 57003 22200 00085 11407 70036 333 91211
BBXX 46054 16181 99342 71204 46/// /3309 10129 40208 51010 91750 22200 00138 11104 20602 300// 41104 70021 333 91210 555 11092 22097 31745 43310 61749 329084 327079 325073 328077 330081 333078
BBXX C6VG7 16184 99193 70814 41596 40619 10260 2//// 40170 57010 7//// 84462 2221/ 0//// 20402 3//// 40402 50402 6//// 8//// ICE /////
AAXX 16184 89050 41196 83626 10024 20021 49830 57020 71064 8762/
AAXX 16184 89512 12998 71330 11006 21009 39641 49788 57005 60022 87030 333 11005
AAXX 16184 89574 42998 11110 11025 21126 49956 52005 80001
AAXX 16184 89592 42998 61609 11085 21127 49910 52003 80001
AAXX 16184 89606 42998 32408 11390 21447 36281 47743 52007 80001 333 11305
BBXX PDGS 16184 99157 70961 41/98 41306 10260 40150 54000 70211 8417/ 22200 00250 20000
BBXX 62145 16184 99531 10028 47598 /3418 10072 20005 49890 52055 700// 22200 10503 70016
BBXX 62144 16184 99534 10017 47998 /3514 10068 20011 49902 52053 700// 22200 10503 70015
BBXX 62150 16184 99536 10007 47599 /3617 10068 20006 49927 52054 700// 22200 10503 70016
BBXX 62121 16184 99535 10027 46/// ///// 22200
BBXX 62131 16184 99539 10012 46/// /03// 10068 20026 49909 52054 22200
BBXX 62149 16184 99537 10011 47598 /3518 10067 20016 49912 52055 751// 22200 10403 70015
BBXX 62127 16184 99540 10007 47598 ///// 10070 20002 49917 52054 700// 22200 10403 70013
BBXX 62148 16184 99536 10015 46/// /3516 10064 20004 49908 52055 22200
BBXX 62165 16184 99540 10009 47998 /0118 10072 21003 49919 52054 700// 22200 10403 70014
BBXX 62120 16184 99564 10021 47998 /3622 10064 21042 49917 52035 700// 22200
BBXX 62123 16184 99563 10022 47699 /3521 10070 21013 49902 52038 700// 22200
BBXX 62132 16184 99564 10020 46/// /0314 10097 21034 49904 52039 22200
BBXX 62152 16184 99570 10018 46/// /3319 10074 21025 49911 52033 22200 10504 70022
BBXX 62119 16184 99570 10019 47698 /3418 10064 21029 49910 52033 700// 22200 10604 70022
BBXX 62154 16184 99564 10022 46/// /3620 10066 21039 49900 52037 22200
BBXX 63101 16184 99612 10009 46/// /3425 10058 20005 49861 52022 22200
BBXX PJGO 16184 99571 10022 47799 /3320 10066 21030 49908 52030 700// 22200
BBXX 62164 16184 99572 10008 47998 /3317 10087 21004 49923 52032 700// 22200 00097 10604 70021
BBXX 62133 16184 99571 10009 46/// /3317 10068 21038 49922 52033 22200 10604 70018
BBXX 63107 16184 99611 10017 46/// /3124 10048 49856 52017 22200
BBXX 63112 16184 99611 10010 47498 /3222 10042 21005 49860 52020 700// 22200 10807 70037
BBXX 63113 16184 99610 10017 46/// /3224 10043 20004 49864 53020 22200 10707 70035
BBXX 63106 16184 99610 10017 46/// /3121 10047 49858 52015 22200
BBXX PJAI 16184 99581 70014 47598 /2919 10074 20012 49936 52024 700// 22200
BBXX 63105 16184 99610 10017 47497 ///// 10059 20009 49857 52015 751// 22200
BBXX 63108 16184 99608 10017 47498 /3221 10068 20006 49857 53014 751// 22200 10806 70032
BBXX 63055 16184 99606 10016 47995 /3021 10049 20012 49864 53014 704// 22200 10706 70030
BBXX 62111 16184 99580 70003 46/// /3322 10066 20004 49931 52026 22200 10604 70020
BBXX 62112 16184 99584 70002 47598 /3218 10053 20008 49921 52019 761// 22200
BBXX 63103 16184 99612 10011 46/// /3223 10050 21015 49863 52021 22200 10707 70034
BBXX 63104 16184 99612 10016 47498 /3123 10053 20006 49855 53016 700// 22200
BBXX 63115 16184 99616 10013 47498 /3020 10037 21000 49861 52021 762// 22200 10708 70041
BBXX 63117 16184 99613 10011 47598 /3224 10054 21001 49859 52018 700// 22200
BBXX MWYG6 16184 99603 70040 47998 /3028 10067 700// 22200
BBXX 63110 16184 99595 10015 47598 /3119 10067 20016 49881 52009 700// 22200 10706 70029
BBXX 63056 16184 99597 10016 47497 /3024 10042 20012 49866 52010 771// 22200 10706 70029
BBXX 64041 16184 99607 70026 47598 /3022 10049 21001 49906 52020 700// 22200 10808 70038
BBXX AMOUK12 16184 99534 70055 46/// ///// 10067 20031 39950 49990 52047 91750
BBXX AMOUK21 16184 99567 70064 46/// ///// 10066 20011 39990 4//// 52040 91750
BBXX AMOUK19 16184 99571 70021 46/// ///// 10028 2//// 39955 49959 52037 91750
BBXX AMOUK16 16184 99523 70063 46/// ///// 10057 20021 39996 49996 52044 91750
BBXX AMOUK14 16184 99534 70060 46/// ///// 10061 20037 39962 49996 52056 91750
BBXX AMOUK08 16184 99501 70061 46/// ///// 10099 20049 30018 4//// 52034 91750
BBXX AMOUK06 16184 99507 70014 46/// ///// 10058 20012 39944 49962 52040 91750
BBXX AMOUK09 16184 99504 70002 46/// ///// 10073 20014 39944 49961 52032 91750
BBXX 64045 16184 99591 70117 46/// /3221 10037 20013 40002 53023 22200 00102 10705 70027 333 90710 91127
BBXX MINUK05 1618/ 99602 70062 46/// ///// 10055 49956 52026
BBXX MINUK01 1618/ 99601 70011 46/// ///// 10048 49908 52019
BBXX KABL 16184 99380 70243 41598 62211 10190 2016/ 40340 53003 70222 83188 22224 00191 20201 322// 40504 5//// 6//// 80170 ICE /////
BBXX WGAX 16184 99408 70224 43297 62417 10165 2016/ 40264 52020 7//// 82138 22263 00157 20404 33427 40806 51004 6//// 80160 ICE /////
BBXX BAREU51 16184 99381 10134 46/// ///// 40114 57009 22235
BBXX 62305 16184 99504 10000 46/98 /2832 10072 20010 49967 52042 22200 00120 10704 70021 333 90710 91143
BBXX 62170 16184 99514 10020 46/96 /3037 10050 20023 49908 52046 22200 00112 10604 70021 333 90710 91147
BBXX 62103 16184 99499 70029 46/99 /2930 10087 20020 49990 52042 22200 00122 10907 70035 333 90710 91142
BBXX 62304 16184 99511 10018 46/98 /3031 10053 20004 49923 52048 22200 00118 10603 70016 333 90710 91141
BBXX DDZA2 16184 99460 70111 41/97 43245 10115 20044 40215 51015 78288 8//// 22284 04140 20608 331// 41012 80080
BBXX 62027 16184 99491 70022 46/// /3324 1//// 2//// 40009 52034 22200 00115 10806 330// 70031 333 90710 91131
BBXX ZCDN9 16184 99477 70069 41298 82037 10082 20028 40104 52078 70782 887// 22253 00128 20308 332// 40712 5////
BBXX 62169 16183 99614 10014 41298 83123 10050 20025 49861 52014 70282 887// 22200 20306 331// 40610 5//// 80040
BBXX ZCBF3 16183 99422 70320 41996 82125 10170 20162 40228 54000 70242 88010 22263 20904 323// 41208 5//// 80165
BBXX 63119 16184 99583 10009 41/97 83327 10047 20006 49902 55/// 703// 8//// 22200 2//// 333// 40503 5////
BBXX 62094 16184 99517 70067 46/// /2923 10076 20047 40016 53037 22200 00107 10807 70036 333 90710 91132
BBXX 62103 16184 99499 70029 46/99 /2931 10088 20026 49994 51036 22200 00123 10807 70035 333 90710 91145
BBXX A8IY4 16181 99494 70071 41496 73425 10108 20093 40058 52058 70366 877// 22252 04120 21206 331// 41414 80100
BBXX SHIP 16183 99384 10021 41/97 /2622 10175 20134 40150 58060 70111 8/18/ 22213 00210 29906 80150
BBXX 62146 16184 99572 10021 47/99 /3620 10062 21047 49906 52033 700// 22200 10604 70022
BBXX AMOUK05 16184 99537 70003 46/// ///// 10031 20016 39884 49922 52050 91750
BBXX 62140 16184 99573 10013 46/// /35// 10064 21026 49915 52030 22200
BBXX 62104 16184 99574 10013 47698 /3516 10066 21014 49917 52034 700// 22200
BBXX 62116 16184 99576 10011 47597 /3216 10062 21002 49916 52028 700// 22200 10604 70020
BBXX 62122 16184 99573 10016 47699 /3415 10064 21035 49912 52031 700// 22200 10604 70022
BBXX 62118 16184 99577 10009 46696 /3220 10045 20003 49917 52031 22200 10604 70021
BBXX 62153 16184 99573 10020 47699 /3420 10065 21035 49911 52028 700// 22200 10604 70021
BBXX 62155 16184 99577 10007 47298 /3117 10038 21003 49926 52032 762// 22200 10604 70018
BBXX 62143 16184 99577 10018 47998 /3213 10059 21011 49916 52030 700// 22200 10604 70021
BBXX 62102 16184 99579 10018 46/// /3221 10065 21016 49907 52022 22200 10604 70020
BBXX 62117 16184 99579 10000 47998 /3122 10062 20007 49922 52022 700// 22200 10503 70014
BBXX 62113 16184 99584 10002 47497 /3218 10057 20014 49910 52016 762// 22200
BBXX 62129 16184 99584 10003 46/// ///// 10053 20013 49911 51018 22200
BBXX 62114 16184 99583 10000 46/// /3025 10059 20017 49913 51011 22200
BBXX 62134 16184 99580 10014 47598 /3117 10052 20000 49911 52023 700// 22200 10705 70023
BBXX 62128 16184 99587 10014 47498 /3018 10041 20002 49906 53011 700// 22200 10604 70019
BBXX ZQSD5 16184 99583 10007 46/// /2916 10063 20017 49920 51021 22200 10905 70027
BBXX 63057 16184 99592 10015 47598 /3222 10053 20011 49886 52009 762// 22200 10705 70026
BBXX 62142 16184 99530 10021 47598 /3407 10067 20013 49895 52054 700// 22200 10503 70015
BBXX ZMENA 16184 99387 31783 46/// ///// 10155 20139 40044 52008 22243
BBXX ZMFR 16184 99466 31664 43/// /16// 10104 20044 40143 52003 22261 00122
BBXX VRDX2 16183 99278 31604 41497 51823 10215 20161 40139 7//// 84613 22274 00220 20606
BBXX V2QD4 16183 99382 31509 41798 60912 10170 20137 40236 53020 70311 8587/ 22223 00180 20401 314// 41203
BBXX SHIP 16184 99038 11290 41498 50204 10266 20231 40057 57015 70211 82166 22213 00301 10605 20100 306// 40805
BBXX A8SG4 16184 99156 51299 41598 40719 10255 20197 40140 54000 70222 83142 22213 04260 20101 308// 40102 80215
BBXX BATEU00 16184 99692 30089 46/// /0920 11010 21011 49770 22263
BBXX IDDUK02 16184 99606 50517 46/// ///// 49939 222//
BBXX AMOUK27 16184 99579 70052 46/// ///// 11025 21194 39977 49970 52026 91750
BBXX 62301 16184 99524 70047 46/// /3223 10071 20037 49982 52047 22200 00099 10606 70029 333 90710 91134
BBXX 63110 16183 99595 10015 41/98 /3122 10067 49875 700// 8//// 22200 10606 70028
BBXX 62081 16184 99510 70134 46/// ///// 10097 20044 40166 51050 22200 00121 11017 70083
BBXX 62442 16184 99490 70164 46/// /3122 1//// 2//// 40244 51023 22200 00127 333 90710 91133
BBXX 2AUO5 16183 99606 10016 41997 03232 10055 20031 49866 54000 7//88 80000 22200 20703 332// 40904 80045
BBXX 64046 16184 99605 70049 46/// /3225 10057 20010 49932 51021 22200 00077 10707 70036
BBXX 62163 16184 99475 70084 46/// /3132 10113 20049 40146 51038 22200 00129 11017 70085 333 90710 91144
BBXX 62029 16184 99487 70125 46/// /3227 10105 20056 40194 51042 22200 00132 11018 70089 333 90710 91141
BBXX 62303 16184 99516 70051 46/// /3225 10073 20029 49996 53037 22200 00113 10707 70034 333 90710 91134
BBXX 62105 16184 99554 70122 46/// /3021 10084 20026 40058 51030 22200 00106 10910 70050 333 90710 91130
BBXX 62001 16184 99452 70050 46/// /3029 10113 20066 40156 53033 22200 00145 10914 70071 333 90710 91147
BBXX MINUK04 1618/ 99519 10013 46/// ///// 10033 4//// 52007
BBXX DBBH 16181 99371 70115 41598 42910 10175 20144 40310 53006 70211 83802 22261 04181 20402 330// 41203
BBXX 61001 16184 99434 10078 46/// /2427 10152 20111 49948 57026 22200 00153 10907 70036 555 1/035
BBXX A8UA9 16184 99361 70040 41/98 32740 10153 20123 40240 56023 70200 8///5 22263 20408 80135
BBXX DBBC 16181 99542 10079 46/// /0110 10050/2//// 497/5 52043 22270 04073
BBXX BATFR52 16184 99498 70039 46/// /2743 10075 20025 40010 50011 22284 00124
BBXX BATUK01 16184 99582 70064 46/// /2706 10010 21026 49982 51028 22200 00107
BBXX BATFR60 16184 99521 10031 46/// /3122 10059 20034 49875 53038 22213 00094
BBXX BATFR54 16184 99446 70058 46/// /2836 10107 20045 40190 50013 22223 00142
BBXX PHQX 16183 99496 70065 41297 82813 10130 20058 40052 71322 8/7// 22224 20705 328// 41407 5//// 80093
BBXX BATFR42 16184 99503 70018 46/// /3319 10077 20015 49983 22243 00122
BBXX BATEU04 16184 99603 70070 46/// /3419 10037 21013 49965 51015 22223
BBXX BATFR02 16184 99503 70007 46/// /2837 10075 20000 49961 51028 22284 00130
BBXX BATEU06 16184 99558 70239 46/// /3033 10064 20012 40165 52032 22264 00100
BBXX BATFR22 16184 99428 10095 46/// /2546 10172 49951 22284 00177
BBXX BATFR11 16184 99323 10287 46/// /2814 10182 20129 40202 53006 22223 00202
BBXX BATFR04 16184 99597 70110 46/// /3521 10050 21012 49989 51022 22200 00102
BBXX BATFR09 16184 99379 70096 44497 62926 10172 20139 40272 58007 70311 85620 22283 00179 20304 328// 40606 5////
BBXX BATFR16 16184 99495 70001 46/// /3131 10089 21003 49971 22273 00120
BBXX BATFR32 16184 99427 10095 46/// /2414 10173 20090 49958 5//// 7//// 8//// 2229/ 00172
BBXX BAREU60 16184 99441 10152 46/// ///// 49979 22200
BBXX BAREU05 16184 99422 70320 46/// ///// 40232 57006 22263
BBXX TESTFR9 16184 99498 70039 46/// /2851 10075 29076 49994 52002 22284
BBXX BAREU63 16184 99337 10348 46/// /2411 10178 29062 40190 54000 22213
BBXX DBFH 16181 99535 10086 46/// /3508 10045 20033 49770 52042 22232 00044
BBXX DBBA 16181 99538 10082 46/// /3515 10049 20028 49781 52063 22272 00050
BBXX DBKR 16181 99541 10121 46/// /0508 10007 20007 49699 57022 22200 00047
BBXX LF3F 16184 99643 10078 43/// /2023 10053 20013 49815 52003 22200 04091 10708 70039 333 91133
BBXX LF3N 16184 99653 10073 41497 82120 10048 20033 49782 52013 78182 8//// 22200 00090 10707 70035
BBXX LF4B 16184 99606 10037 47/98 /2715 10035 49867 52006 761// 22200 00055 10805 70027 333 91124
BBXX LF4C 16184 99584 10019 41598 43018 10062 20008 49902 52014 70204 89/// 22200 00075 10805 70024 333 91120
BBXX 3ERR2 16184 99635 10053 43/// /2025 10054 20038 49811 52012 22200 10706 70032 333 91134
BBXX LF5T 16184 99660 10081 43/// /1925 10047 20024 49774 52010 22200 06083 10805 70025 333 91135
BBXX UCAD 16181 99705 10172 41/97 92211 11050 49863 57004 70221 88/// 22253 00080 20202
BBXX UANA 16181 99702 10437 41/99 01909 10038 49962 52000 70221 80000 22251 04019 29503
BBXX AUTQ 16184 99363 10027 42597 32830 10170 20138 40104 56024 70702 84401 22253 00190
BBXX V2OT9 16183 99372 70013 41997 52435 10180 20092 40170 56030 70211 83040 22253 20307 30000 4//// 5//// 80130
AAXX 16183 61701 32960 60903 10282 20154 40110 82032 333 10322 58004 82361 84072
AAXX 16183 61701 32960 60903 10282 20154 40110 82032 333 10322 58004 82361 84072
AAXX 16183 61705 32960 30000 10285 20166 4//// 80003 333 10323 5//// 82271 83072
AAXX 16183 61707 32960 40503 10310 20188 4//// 80006 333 10330 5//// 81273 84074
AAXX 16183 61711 NIL
AAXX 16183 61712 NIL
AAXX 16183 61717 NIL
AAXX 16183 61720 NIL
AAXX 16183 61721 32960 63608 10319 20029 4//// 85032 333 10339 5//// 85362 83073
AAXX 16183 61722 NIL
AAXX 16183 61731 32960 63603 10305 20095 4//// 83032 333 10352 5//// 83362 84073
AAXX 16183 61733 NIL
BBXX UBQE6 16181 99067 70135 41998 00000 10260 2//// 40091 53001 70200 80000 22274 00024 29999 39999 49999 59999
BBXX A8IQ2 16180 99028 30823 41698 72708 10280 20246 40105 53010 70011 8451/ 22253 00293 20502 327// 40603 5//// 80255
BBXX V7LZ9 16183 99078 30655 41/98 19902 10280 20232 40100 54000 7//00 811// 22244 2//00 314// 4//02 5//// 80245
BBXX 2ALE5 16183 99375 70095 41597 52923 10170 20115 40269 55008 70211 855// 22284 20507 332// 40507 80140
AAXX 16184 61017 32960 50000 10160 20043 39760 40179 80002 333 10260 59009 85080
AAXX 16184 61024 32960 51214 10212 21064 39586 40164 80002 333 10275 59009 85080 P 089
AAXX 16184 61036 32960 70000 10270 21018 39887 40127 80008 333 10310 59005 87280
AAXX 16184 61043 32960 70608 10247 21080 39691 40139 80008 333 10295 58003 87280
AAXX 16184 61045 31956 70606 10210 21025 39646 40154 7052/ 80008 333 10265 58003 87280
AAXX 16184 61049 32960 70000 10220 21010 39811 40137 80008 333 10275 59003 87280
AAXX 16184 61052 32960 51604 10270 21015 39876 40134 80002 333 10317 58005 85080
AAXX 16184 61075 31956 60000 10250 21011 39819 40131 70622 80008 333 10310 58002 86280
AAXX 16184 61080 31925 70000 10220 21010 39719 40147 70622 80008 333 10277 58001 87280
AAXX 16184 61090 31957 70204 10226 20063 39623 40142 70622 80008 333 10267 59009 87280
AAXX 16184 61091 32960 70000 10190 20069 39693 40153 80008 333 10270 59001 87280
AAXX 16184 61096 32960 63604 10227 21018 39755 40145 80008 333 10287 59002 86280
AAXX 16184 61099 32960 70206 10285 20010 39878 40103 80008 333 10330 59002 87280
BBXX DAJC 16183 99257 71218 41498 83613 10190 20124 40200 54000 70382 8772/ 22224 04190 20904 333// 41404 5//// 80150
AAXX 16184 65046 31915 60307 10208 20056 40150 70522 80008 333// 10257 58004 86280
AAXX 16184 60593 36/// /0000 10146 333 10196
AAXX 16184 60376 16/// /2203 10160 20094 69922 333 10208
AAXX 16184 48433 31950 20105 10185 20141 39997 40167 57003 71000 80005 333 58023
AAXX 16181 28676 319// 00000 11278 21305 30281 40426 58003 77671 333 11253
AAXX 16181 28766 319// 00000 11289 21299 30220 40437 53002 71000 333 11242
AAXX 16181 28867 32998 00000 11277 21301 30129 40439 58003 333 11223
AAXX 16181 28879 329// 02703 11250 21275 30109 40433 58003 333 11217
AAXX 16181 28952 329// 80000 11240 21265 30213 40427 58004 8801/ 333 11206
AAXX 16181 28966 329// 00000 11317 21344 30122 40451 58004 333 11241
AAXX 16181 29802 119// 81303 11238 21260 30208 40367 52002 60020 77177 8802/ 333 11212
AAXX 16181 29807 115// 32601 11214 21234 30236 40366 54000 60020 70173 83500 333 11212
AAXX 16181 34691 32998 81407 11054 21083 30314 40301 57017 8802/ 333 11041
AAXX 16181 35067 329// 00000 11316 21348 30129 40449 58003 333 11192
AAXX 16181 35078 329// 03201 11325 21350 30015 40455 57003 333 11278
AAXX 16181 35085 329// 02704 11259 21282 39888 40423 58009 333 11216
AAXX 16181 35108 115// 81103 11118 21137 30328 40377 54000 69900 77177 8802/ 333 11118
AAXX 16181 35188 319// 00000 11280 21311 39950 40444 57001 70400 333 11220
AAXX 16181 35217 119// 01104 11184 21203 30335 40379 57002 69900 70171 333 11114
AAXX 16181 35229 329// 20000 11249 21270 30114 40422 57007 80001 333 11157
AAXX 16181 35302 115// 81706 11091 21107 30336 40356 52003 69920 70272 885// 333 11090
AAXX 16181 35357 329// 01402 11313 21342 39946 40446 54000 333 11200
AAXX 16181 35394 12998 02102 11240 21266 39683 40437 54000 69900 333 11170
AAXX 16181 35406 329// 51204 11126 21146 30355 40358 57003 85030 333 11062
AAXX 16181 35416 129// 21202 11212 21243 30265 40399 58003 69920 80005 333 11129
AAXX 16181 35426 329// 03601 11223 21249 30097 40422 56001 333 11155
AAXX 16181 35497 329// 00000 11259 21292 39556 40452 54000 333 11151
AAXX 16181 35532 32998 01103 11110 21154 39893 40406 53007 333 11066
AAXX 16181 35671 32998 81202 11152 21173 39955 40419 58001 8807/ 333 11096
AAXX 16181 35700 32598 81105 11078 21100 30361 40336 57002 885// 333 11043
AAXX 16181 35746 314// 80501 11168 21187 30337 40410 57002 77171 8802/ 333 11120
AAXX 16181 35796 11596 80000 11210 21238 39957 40438 58004 69900 77372 8802/ 333 11175
AAXX 16181 35849 32998 00000 11189 21215 30314 40409 57003 333 11104
AAXX 16181 35925 319// 81105 11126 21139 40370 56003 71011 8801/ 333 11049
AAXX 16181 35953 129// 30502 11166 21185 30267 40408 57003 69900 83030 333 11125
AAXX 16181 35969 325// 70202 11122 21149 30234 40421 57001 87500 333 11064
AAXX 16181 36003 11596 81904 11214 21234 30217 40384 57010 69990 77377 8802/ 333 11227
AAXX 16181 36152 329// 51604 11270 21311 30204 40417 57010 80002 333 11226
AAXX 16181 36177 129// 30000 11270 21290 30157 40435 54000 69900 80001 333 11166
AAXX 16181 36208 119// 81002 11118 21135 39360 40393 52002 69900 77177 8572/ 333 11091
AAXX 16181 36397 115// 80000 11138 21159 39805 40404 51004 60010 77177 8802/ 333 11082
AAXX 16181 36428 325// 82702 11140 21160 39883 40416 53004 886// 333 11090 95090
AAXX 16181 36535 329// 52901 11175 21209 39746 40439 58002 85030 333 11104
AAXX 16181 36639 325// 80000 11102 21130 39771 40408 58003 885// 333 11124
AAXX 16181 36821 125// 80000 11076 21093 39890 40402 57004 69900 889// 333 11050
AAXX 16181 36859 119// 81001 11044 21056 39581 40389 58002 69900 77172 8802/ 333 11012
AAXX 16181 36864 326// 81102 11072 21089 39452 40386 57009 885// 333 11054
AAXX 16181 36870 112// 80101 11073 21082 39324 40383 57007 69900 77772 886// 333 11058
AAXX 16181 38001 32997 00705 10012 21033 30295 40265 57017 333 10038
AAXX 16181 38062 119// 00802 11132 21152 30223 40398 57006 69900 70172 333 11076
AAXX 16181 38069 329// 03201 11112 21125 30176 40381 57011 333 11045
AAXX 16181 38196 32998 00000 11097 21168 39340 40378 57007 333 11033
AAXX 16181 38198 319// 00000 11142 21148 30103 40384 57012 74241 333 11075
AAXX 16181 38222 32597 80502 11071 21100 39806 40394 57013 885// 333 11061
AAXX 16181 38232 32998 70905 11020 21045 30205 40307 57007 87080 333 11004
AAXX 16181 38328 319// 01401 11083 21106 39595 40366 57010 71011 333 10014
AAXX 16181 38334 32997 00801 11074 21128 39352 40363 57013 333 11027
AAXX 16181 38341 31/92 93202 11090 21094 39560 40393 57002 74942 333 11046
AAXX 16181 38343 32697 80000 11096 21096 39495 40389 57012 885// 333 11082
AAXX 16181 38439 32598 83606 11038 21053 39997 40349 57010 885// 333 10002
AAXX 16181 28676 319// 00000 11278 21305 30281 40426 58003 77671 333 11253
AAXX 16181 28766 319// 00000 11289 21299 30220 40437 53002 71000 333 11242
AAXX 16181 28867 32998 00000 11277 21301 30129 40439 58003 333 11223
AAXX 16181 28879 329// 02703 11250 21275 30109 40433 58003 333 11217
AAXX 16181 28952 329// 80000 11240 21265 30213 40427 58004 8801/ 333 11206
AAXX 16181 28966 329// 00000 11317 21344 30122 40451 58004 333 11241
AAXX 16181 29802 119// 81303 11238 21260 30208 40367 52002 60020 77177 8802/ 333 11212
AAXX 16181 29807 115// 32601 11214 21234 30236 40366 54000 60020 70173 83500 333 11212
AAXX 16181 34691 32998 81407 11054 21083 30314 40301 57017 8802/ 333 11041
AAXX 16181 35067 329// 00000 11316 21348 30129 40449 58003 333 11192
AAXX 16181 35078 329// 03201 11325 21350 30015 40455 57003 333 11278
AAXX 16181 35085 329// 02704 11259 21282 39888 40423 58009 333 11216
AAXX 16181 35108 115// 81103 11118 21137 30328 40377 54000 69900 77177 8802/ 333 11118
AAXX 16181 35188 319// 00000 11280 21311 39950 40444 57001 70400 333 11220
AAXX 16181 35217 119// 01104 11184 21203 30335 40379 57002 69900 70171 333 11114
AAXX 16181 35229 329// 20000 11249 21270 30114 40422 57007 80001 333 11157
AAXX 16181 35302 115// 81706 11091 21107 30336 40356 52003 69920 70272 885// 333 11090
AAXX 16181 35357 329// 01402 11313 21342 39946 40446 54000 333 11200
AAXX 16181 35394 12998 02102 11240 21266 39683 40437 54000 69900 333 11170
AAXX 16181 35406 329// 51204 11126 21146 30355 40358 57003 85030 333 11062
AAXX 16181 35416 129// 21202 11212 21243 30265 40399 58003 69920 80005 333 11129
AAXX 16181 35426 329// 03601 11223 21249 30097 40422 56001 333 11155
AAXX 16181 35497 329// 00000 11259 21292 39556 40452 54000 333 11151
AAXX 16181 35532 32998 01103 11110 21154 39893 40406 53007 333 11066
AAXX 16181 35671 32998 81202 11152 21173 39955 40419 58001 8807/ 333 11096
AAXX 16181 35700 32598 81105 11078 21100 30361 40336 57002 885// 333 11043
AAXX 16181 35746 314// 80501 11168 21187 30337 40410 57002 77171 8802/ 333 11120
AAXX 16181 35796 11596 80000 11210 21238 39957 40438 58004 69900 77372 8802/ 333 11175
AAXX 16181 35849 32998 00000 11189 21215 30314 40409 57003 333 11104
AAXX 16181 35925 319// 81105 11126 21139 40370 56003 71011 8801/ 333 11049
AAXX 16181 35953 129// 30502 11166 21185 30267 40408 57003 69900 83030 333 11125
AAXX 16181 35969 325// 70202 11122 21149 30234 40421 57001 87500 333 11064
AAXX 16181 36003 11596 81904 11214 21234 30217 40384 57010 69990 77377 8802/ 333 11227
AAXX 16181 36152 329// 51604 11270 21311 30204 40417 57010 80002 333 11226
AAXX 16181 36177 129// 30000 11270 21290 30157 40435 54000 69900 80001 333 11166
AAXX 16181 36208 119// 81002 11118 21135 39360 40393 52002 69900 77177 8572/ 333 11091
AAXX 16181 36397 115// 80000 11138 21159 39805 40404 51004 60010 77177 8802/ 333 11082
AAXX 16181 36428 325// 82702 11140 21160 39883 40416 53004 886// 333 11090 95090
AAXX 16181 36535 329// 52901 11175 21209 39746 40439 58002 85030 333 11104
AAXX 16181 36639 325// 80000 11102 21130 39771 40408 58003 885// 333 11124
AAXX 16181 36821 125// 80000 11076 21093 39890 40402 57004 69900 889// 333 11050
AAXX 16181 36859 119// 81001 11044 21056 39581 40389 58002 69900 77172 8802/ 333 11012
AAXX 16181 36864 326// 81102 11072 21089 39452 40386 57009 885// 333 11054
AAXX 16181 36870 112// 80101 11073 21082 39324 40383 57007 69900 77772 886// 333 11058
AAXX 16181 38001 32997 00705 10012 21033 30295 40265 57017 333 10038
AAXX 16181 38062 119// 00802 11132 21152 30223 40398 57006 69900 70172 333 11076
AAXX 16181 38069 329// 03201 11112 21125 30176 40381 57011 333 11045
AAXX 16181 38196 32998 00000 11097 21168 39340 40378 57007 333 11033
AAXX 16181 38198 319// 00000 11142 21148 30103 40384 57012 74241 333 11075
AAXX 16181 38222 32597 80502 11071 21100 39806 40394 57013 885// 333 11061
AAXX 16181 38232 32998 70905 11020 21045 30205 40307 57007 87080 333 11004
AAXX 16181 38328 319// 01401 11083 21106 39595 40366 57010 71011 333 10014
AAXX 16181 38334 32997 00801 11074 21128 39352 40363 57013 333 11027
AAXX 16181 38341 31/92 93202 11090 21094 39560 40393 57002 74942 333 11046
AAXX 16181 38343 32697 80000 11096 21096 39495 40389 57012 885// 333 11082
AAXX 16181 38439 32598 83606 11038 21053 39997 40349 57010 885// 333 10002
BBXX 46145 16181 99544 71324 46/// /1507 10070 40139 52001 22200 00072 11304 70018 333 91208
AAXX 16180 44214 32998 00000 11286 21312 38335 40574 54000
AAXX 16180 44237 32999 00000 11321 21350 38569 40569 52007
AAXX 16180 44282 32999 03401 11202 21260 38362 40468 52006
AAXX 16181 55299 32880 60000 11120 21261 35825 52011 86400 333 00102 11003
AAXX 16181 55591 32680 10000 11019 21213 36454 52014 81400 333 05151 10127
AAXX 16181 56739 32980 03602 10054 20034 38371 52001 333 00000 10174
AAXX 16181 56951 32975 01401 10080 20056 38533 52004 333 00151 10198
AAXX 16181 56964 32565 71101 10133 20103 38743 40181 57001 874// 333 00102 10200
AAXX 16181 57328 11830 83201 10073 20046 39885 40306 57005 69901 71060 885// 333 10110
AAXX 16181 57411 11420 80402 10077 20066 39918 40298 57005 69901 76066 8577/ 333 10102
AAXX 16181 57447 11965 82502 10067 21033 39775 40331 57002 69901 70060 8807/ 333 10105
AAXX 16181 57662 32963 70000 10052 21041 30304 40349 57007 8704/ 333 10101
AAXX 16181 57745 32960 80402 10061 21058 39996 40332 57004 8807/ 333 10112
AAXX 16181 57972 31956 00000 10045 20025 30098 40330 52002 71000 333 10110
AAXX 16181 58203 32962 00901 11036 21104 30333 40377 57005 333 10052
AAXX 16181 58314 32960 00000 11051 21052 30258 40371 57002 333 10062
AAXX 16181 58424 32961 20403 10011 21079 30336 40363 57008 80002 333 10061
AAXX 16181 59023 32962 72501 10085 20045 39977 40296 57002 8704/ 333 10121
AAXX 16181 59417 11466 80902 10133 20045 30111 40267 52004 69901 72100 885// 333 10188
AAXX 16181 59985 11570 60407 10232 20201 30169 40174 57009 69991 70080 86200 333 10265
AAXX 16181 59995 NIL
AAXX 16184 94996 457// 62609 10189 20117 39989 40125 53002 91830
AAXX 16184 94996 457// 62609 10189 20117 39989 40125 53002 91830
BBXX 46185 16181 99524 71298 46/// /1609 10081 40168 57001 22200 00077 10806 70032 333 91211
AAXX 16184 48433 31950 20105 10185 20134 33329 43556 57004 71000 82005 333 5//// 70000
BBXX A8DH2 16183 99343 70124 41498 60112 10190 20101 40318 53005 70222 86717 22222 04198 20102 30508 40302 50202 80142
BBXX 46145 16181 99544 71324 46/// /1507 10070 40139 52001 22200 00072 11304 70018 333 91208
AAXX 16184 42398 31990 90000 10103 20103 40164 89/// 333 59002
AAXX 16184 42706 31995 00000 10142 20091 40161 70500 333 59001
AAXX 16184 42809 31994 00000 10130 20111 40161 71000 333 58001
AAXX 16184 42886 31996 00000 10140 20110 40166 70500 333 58005
AAXX 16184 42895 31996 00000 10158 20129 40158 70500 333 58002
AAXX 16184 42971 31995 03602 10190 20174 40156 70500 333 58003
AAXX 16184 43333 31495 60511 10262 20245 40110 70521 85401 333 56109 59003 82616 83818
AAXX 16184 42309 NIL
AAXX 16184 42314 NIL
AAXX 16184 42410 NIL
AAXX 16184 42415 NIL
AAXX 16184 42492 NIL
AAXX 16184 42587 NIL
AAXX 16184 42591 NIL
AAXX 16184 42623 NIL
AAXX 16184 42701 NIL
AAXX 16184 42724 NIL
AAXX 16184 42798 NIL
AAXX 16184 42977 NIL
AAXX 16184 43368 NIL
AAXX 16184 62357 32960 03202 10146 20112 40206 57011 333 10212
AAXX 16184 62423 32960 03404 10124 20058 40224 52006 333 10203
AAXX 16184 62403 32960 02506 10158 20075 40187 52014 333 10228
AAXX 16183 61701 32960 60903 10282 20154 40110 82032 333 10322 58004 82361 84072
AAXX 16183 61705 32960 30000 10285 20166 4//// 80003 333 10323 5//// 82271 83072
AAXX 16183 61707 32960 40503 10310 20188 4//// 80006 333 10330 5//// 81273 84074
AAXX 16183 61711 NIL
AAXX 16183 61712 NIL
AAXX 16183 61717 NIL
AAXX 16183 61720 NIL
AAXX 16183 61721 32960 63608 10319 20029 4//// 85032 333 10339 5//// 85362 83073
AAXX 16183 61722 NIL
AAXX 16183 61731 32960 63603 10305 20095 4//// 83032 333 10352 5//// 83362 84073
AAXX 16183 61733 NIL
AAXX 16181 23205 11598 72205 10001 21022 30089 40104 53021 69960 70283 87500 333 11025 87600 91109
BBXX 46185 16181 99524 71298 46/// /1609 10081 40168 57001 22200 00077 10806 70032 333 91211
AAXX 16181 24790 41999 70302 11221 21240 39278 40136 57004 70272 84031
AAXX 16181 24988 42999 33003 11206 21255 39780 40046 57001 80001
AAXX 16181 25378 31998 03308 11143 21214 30115 40150 57007 73630 333 21154 48020 91118
AAXX 16181 25503 41699 80000 11274 21298 30028 40166 57003 70272 8455/
AAXX 16181 25705 41698 80000 11252 21270 39791 49147 57004 77172 8252/
AAXX 16181 25927 41695 11059 21107 39992 49999 53011 73932 889// 333 91124
AAXX 16181 25932 42999 80713 11068 21125 39979 40017 57004 8805/ 333 91118
AAXX 16181 31152 42997 81802 11315 21352 39761 40209 58007 83036
AAXX 16181 31174 42999 10102 11163 21214 30080 40101 54000 80001
AAXX 16181 31489 42997 52001 11325 21362 30019 40150 57007 80002
AAXX 16181 31866 42999 03303 11248 21295 30141 40147 58004
AAXX 16181 31959 42998 02803 11154 21235 30134 40179 52001
AAXX 16181 31989 42999 02801 11142 21251 30164 40222 54000
AAXX 16181 32027 42999 02908 11179 21238 30063 40072 57006 333 91010 91112
AAXX 16181 32076 42998 02703 11270 21301 30045 40056 57008 333 91004 91104
AAXX 16181 32099 NIL
AAXX 16181 32121 41493 83105 11163 21182 30067 40091 57001 78682 889// 333 91007 91110
AAXX 16181 32213 41395 82915 11030 21037 39818 49881 58011 78583 85903 333 91019 91119 92993
AAXX 16181 32287 41999 70406 11037 21073 39869 49879 57002 73632 87070
AAXX 16181 32408 41597 60503 11058 21073 39842 49880 52006 70283 83530
AAXX 16181 32509 41394 80210 11030 21043 39797 49831 58007 78683 889// 333 91015 91117 92992
AAXX 16181 32594 41496 82714 11036 21047 39834 49870 57006 78583 889// 333 91018 91122
AAXX 16184 61401 NIL
AAXX 16184 61404 NIL
AAXX 16184 61415 NIL
AAXX 16184 61421 NIL
AAXX 16184 61437 32958 00404 10277 20140 30042 40180 333 10298 58018
AAXX 16184 61442 31950 60809 10283 21107 30147 40150 70622 86080 333 10302 58002 86363
AAXX 16184 61450 31930 60808 10255 20010 39708 40167 70722 80002 333 10290 58009 86073
AAXX 16184 61461 NIL
AAXX 16184 61489 31956 80000 10280 21019 30137 40144 70522 8807/ 333 10294 58007 88463
AAXX 16184 61492 32960 70806 19275 21005 30111 40130 87070 333 10290 58002 87363
AAXX 16184 61497 35960 70804 10274 21051 39894 4//// 80003 333 10294 58000 87073
AAXX 16184 61498 31956 70406 10283 20115 39997 40130 705// 87070 333 10305 59001 87363
AAXX 16184 61499 32960 80804 10267 20026 39890 40147 8802/ 333 10290 58001 88463
AAXX 16184 61510 NIL
BBXX A8IE6 16184 99364 11236 41297 83320 10030 21053 40330 51010 70200 8/6// 22285 04107 20707 336// 40807 80000
BBXX TBWUK35 16183 99365 70088 41598 82716 10185 20163 40279 55015 75082 884// 22263 00190 20402 333// 40805 80172
BBXX C6CU6 16183 99337 70421 41296 82026 10210 20194 40212 57040 70222 886// 22263 04200 20909 31531 41008 50908 80200
AAXX 16184 06670 01582 62620 10061 21005 39445 49948 52083 60132 70298 865// 333 10095 32/// 55300 20000 60005 83631 84646 90766 93100 91152 91227
AAXX 16184 06700 01673 62508 10078 21014 39516 40001 51058 60152 78086 868// 333 10100 32/// 55300 20000 60005 83835 85656 90766 93100 91148 91227
AAXX 16184 06680 01/01 92530 11067 21067 37253 47771 53017 60032 77293 333 11011 47125 55300 20000 60005 90766 93107 91178 91241
AAXX 16184 06990 03/// /3617 10060 20020 39398 49936 52065 60072 333 10121 55300 20000 60025 91143 91221
AAXX 16184 06760 01256 80606 10015 20009 39498 49947 55017 60082 76364 8372/ 333 10050 32/// 55300 20000 60015 83704 88531 90766 93100 91111 91206
AAXX 16184 06720 01458 8//// 10016 20008 39401 49978 52026 60412 76176 88020 333 10015 41005 55300 20000 69975 88517 90766 93104
BBXX V7LZ9 16183 99078 30655 41/98 19902 10280 20232 40100 54000 7//00 811// 22244 2//00 314// 4//02 5//// 80245
BBXX UBQE6 16181 99067 70135 41998 00000 10260 2//// 40091 53001 70200 80000 22274 00024 29999 39999 49999 59999
BBXX V7SY6 16184 99139 10516 41997 10517 10280 20211 40270 54000 70100 80002 22223 0//// 20602 305// 40602 5//// 6//// 80220 ICE /////
BBXX DCAX2 16183 99178 11436 41/92 91212 10280 20252 40135 58005 74344 8//// 22232 21204 318// 41204 5//// 80260
AAXX 16184 61017 32960 50000 10160 20043 39760 40179 80002 333 10260 59009 85080
AAXX 16184 61024 32960 51214 10212 21064 39586 40164 80002 333 10275 59009 85080
AAXX 16184 61036 32960 70000 10270 21018 39887 40127 80008 333 10310 59005 87280
AAXX 16184 61043 32960 70608 10247 21080 39691 40139 80008 333 10295 58003 87280
AAXX 16184 61045 31956 70606 10210 21025 39646 40154 7052/ 80008 333 10265 58003 87280
AAXX 16184 61049 32960 70000 10220 21010 39811 40137 80008 333 10275 59003 87280
AAXX 16184 61052 32960 51604 10270 21015 39876 40134 80002 333 10317 58005 85080
AAXX 16184 61075 31956 60000 10250 21011 39819 40131 70622 80008 333 10310 58002 86280
AAXX 16184 61080 31925 70000 10220 21010 39719 40147 70622 80008 333 10277 58001 87280
AAXX 16184 61090 31957 70204 10226 20063 39623 40142 70622 80008 333 10267 59009 87280
AAXX 16184 61091 32960 70000 10190 20069 39693 40153 80008 333 10270 59001 87280
AAXX 16184 61096 32960 63604 10227 21018 39755 40145 80008 333 10287 59002 86280
AAXX 16184 61099 32960 70206 10285 20010 39878 40103 80008 333 10330 59002 87280
BBXX A8IQ2 16180 99028 30823 41698 72708 10280 20246 40105 53010 70011 8451/ 22253 00293 20502 327// 40603 5//// 80255
AAXX 16184 06610 01557 82618 10056 21008 39411 49989 51070 60102 72162 8477/ 333 10092 32/// 55300 20000 60005 84727 86357 90766 93100 91148 91228
BBXX DAJC 16183 99257 71218 41498 83613 10190 20124 40200 54000 70382 8772/ 22224 04190 20904 333// 41404 5//// 80150
BBXX C6CU6 16183 99337 70421 41296 82026 10210 20194 40212 57040 70222 886// 22263 04200 20909 31531 41008 50908 80200
BBXX NIL
BBXX NIL
BBXX NIL
BBXX NIL
BBXX PCSV 16183 99005 30744 41/98 82705 10250 20222 40105 57002 70082 8//// 22253 04280 21001 80230 90432
BBXX A8IQ2 16180 99028 30823 41698 72708 10280 20246 40105 53010 70011 8451/ 22253 00293 20502 327// 40603 5//// 80255
BBXX V7LZ9 16183 99078 30655 41/98 19902 10280 20232 40100 54000 7//00 811// 22244 2//00 314// 4//02 5//// 80245
BBXX TBWUK17 16183 99106 30974 41597 52311 10271 20250 40122 52015 70211 85874 22253 04290 20101 31819 40403 50604 80256
BBXX V2OG2 16183 99116 31060 41697 71616 10270 20248 40083 58012 70300 87900 22233 20403 317// 40502 80254
BBXX OVYB2 16181 99118 30628 41598 22905 10287 20224 40124 52010 70200 821// 22243 00310 20200 30000 4//// 5//// 80244
BBXX ONDY 16184 99124 30103 41799 72113 10210 2016/ 40130 54000 70322 872// 22244 00250 2//// 3//// 4//// 5//// 6//// 80180 ICE /////
BBXX BATFR56 16184 99177 30608 46/// /1310 10259 20224 40110 51007 22252 00279
BBXX OVSB2 16183 99234 30088 41598 81411 10183 20114 40172 55004 70222 885// 22234 00194 20402 317// 40704 5//// 80145
BBXX A8YW2 16184 99263 30531 41/98 /0922 10243 20156 40150 58005 70322 8//// 22213 00230 20905 80190
BBXX A8ZS7 16184 99293 30375 41597 41517 10240 20176 40160 52020 76022 847// 22254 04240 29902 80200
BBXX DDDI2 16184 99324 30310 41998 01013 10223 20156 40200 51010 70200 80000 22254 04230 2//// 3//// 4//// 5//// 80180
BBXX BATFR08 16184 99486 30711 46/// /2008 10037 20007 40185 51011 22213 00047
AAXX 16184 40250 32960 00000 10084 21023 39403 40215 52007 333 10144
AAXX 16184 40265 32960 30000 10060 20025 39420 40241 52006 80001 333 10148 83070
AAXX 16184 40296 32960 00000 10140 20100 40200 57003 333 10215
AAXX 16184 40310 32960 20000 10072 21013 38974 48514 52010 80002 333 10154 82070
BBXX NIL
AAXX 16181 38388 32998 00704 11026 21063 30241 40315 57008 333 10007
OOXX AABRI 16184 99839 51342 60134 05251 46/// /0204 11095 21187 39268 49898 5//// 91750
OOXX AAPEG 16184 99779 31666 57186 00051 46/// /0805 11066 21144 39888 49894 52001 91800
OOXX AAMIZ 16184 99707 30443 58304 22602 46/// /0115 11034 2//// 37569 49735 57002 91750
OOXX AALAU 16184 99775 31708 57070 00371 46/// /2006 11082 21137 39844 49891 52003 91750
OOXX AAERI 16184 99849 51288 60048 09901 46/// /0611 11112 21144 38738 49866 5//// 91750
AAXX 16184 87909 32980 51111 10221 20108 30010 40083 51001 82036 333 56000 82359 84070
AAXX 16180 44210 32999 30000 11252 21264 38597 53004 80001
AAXX 16180 44217 32998 10000 11237 21261 37883 40508 58011 80001
AAXX 16180 44229 32999 20000 11304 21334 37958 40561 58010 80001
AAXX 16180 44263 32998 00000 11270 21309 38123 40583 52003
AAXX 16181 23074 41997 81907 11205 21238 30237 40264 58003 77173 8802/
AAXX 16181 23274 41497 72002 11223 21248 30283 40322 53006 77172 875// 333 87611
AAXX 16181 23383 41897 82802 11164 21183 39932 40305 53005 77172 8802/
AAXX 16181 23472 41497 82104 11198 21224 30300 40353 53003 78587 889//
AAXX 16181 23678 429// 60000 11238 21263 30331 40395 53001 8601/
AAXX 16181 23884 429// 00000 11268 21268 30346 40428 52006
AAXX 16181 23891 42696 80901 11236 21269 30024 57007 82536
AAXX 16181 24507 429// 62702 11126 21153 30011 40263 58002 83032
AAXX 16181 24817 415// 82703 11121 21141 39856 40236 53002 78582 889//
AAXX 16181 24908 41998 82602 11107 21135 39978 40322 57009 77122 8801/
AAXX 16181 29263 42976 30000 11294 21324 30330 40445 52010 80001
AAXX 16181 29282 42977 00000 11304 21328 30248 40442 57002
AAXX 16181 29379 42998 00000 11335 21365 30216 40457 52003
AAXX 16181 29570 415// 70000 11205 21224 30070 40451 78582 85930
AAXX 16181 29698 429// 00000 11296 21319 39902 40487 53004
AAXX 16181 30230 41596 82104 11127 21147 30007 40352 57001 78582 8697/
AAXX 16181 30252 419// 80000 11200 21219 39946 40285 56025 77572 8802/
AAXX 16181 30309 42998 32201 11219 21238 39878 40451 56001 81031
AAXX 16181 30328 415// 81404 11228 21253 39997 40469 56001 78587 8792/
AAXX 16181 30521 429// 81301 11313 21330 39912 40513 53002 83031
AAXX 16181 30710 41996 80401 11261 21203 39844 40500 52007 71000
AAXX 16181 23973 42999 20000 11280 21304 30362 40433 53006 80001
AAXX 16181 23975 429// 00000 11331 21360 30311 40437 52009
AAXX 16181 23986 42999 00000 11212 21231 39733 40427 55000
AAXX 16181 23987 42999 01201 11273 21298 30354 40437 52010
AAXX 16181 24606 418// 32701 11120 21155 39966 40244 52004 70271 83040
AAXX 16181 29253 419// 80000 11198 21224 30249 40438 58001 77172 80007
AAXX 16181 29471 41496 80000 11216 21234 30198 40451 52006 78522 889// 333 88918
AAXX 16181 29481 42999 80000 11332 21356 30186 40462 53007 8802/
AAXX 16181 29553 41959 02501 11192 21204 30061 40461 52012 71011
AAXX 16181 29562 41584 32801 11178 21190 39998 40451 52006 70281 83900
AAXX 16181 29581 429// 70000 11312 21336 30171 40466 53008 80001
AAXX 16181 29594 42999 03301 11276 21300 30030 40467 52002
AAXX 16181 29653 42997 01901 11274 21298 39936 40483 52008
AAXX 16181 29675 41998 70000 11198 21224 39821 40468 52005 70271 80005
AAXX 16181 29676 41996 80000 11241 21267 39995 40467 52004 77171 80006
AAXX 16181 29752 429// 10801 11171 21190 38936 48557 52005 80001
AAXX 16181 29759 429// 00000 11175 21187 39360 40470 54000
AAXX 16181 29766 42999 72901 11206 21218 30076 40467 52001 80001
AAXX 16181 29789 42999 00000 11309 21320 39193 40543 52003
AAXX 16181 29864 429// 03305 11169 21182 39751 40455 52005
AAXX 16181 29866 419// 60000 11214 21226 30106 40459 52005 77172 86020
AAXX 16181 29869 419// 00000 11208 21227 30056 40468 52003 70271
AAXX 16181 29956 41858 80501 11161 21180 39850 40454 52005 77172 8807/
AAXX 16181 30337 41597 80000 11181 21200 39946 40430 53007 78582 889//
AAXX 16181 30405 429// 00000 11331 21354 39888 40498 52002
AAXX 16181 30504 42997 00000 11291 21309 39758 40494 53002
AAXX 16181 30603 41996 30000 11308 21320 39844 40497 51001 71000 80001
AAXX 16181 30612 429// 00000 11325 21342 39891 40506 54000
AAXX 16181 30622 429// 63001 11296 21320 39769 40501 51003 80003
AAXX 16181 30627 42999 00000 11268 21293 39450 40492 52003
AAXX 16181 30703 429// 00000 11339 21350 39721 40500 56004
AAXX 16181 36307 41896 80901 11292 21309 39085 48579 52003 77172 8802/ 333 95090
AAXX 16184 71751 46/// /2910 11125 21176 30024 6///1 333 7////
AAXX 16184 71351 16/// /2605 11003 21071 60001 333 11003 7////
AAXX 16184 71353 17/// /2509 11011 21096 69941 7//4/ 333 11008 21096 70004
AAXX 16184 71375 46/// /2614 10014 6///1 333 10024 21040 7////
AAXX 16184 71385 46/// /2927 10014 6///1 333 10050 21006 7////
AAXX 16184 71916 46/// /3204 11336 21366 30052 40109 52007 6///1 333 11249 21341 7////
AAXX 16184 71445 16/// /2110 11141 21176 39981 40272 58010 60001 333 11138 21188 70000 555 10010
AAXX 16184 71679 16/// /0504 11011 21014 39169 40196 50003 60001 333 11004 21074 70000
AAXX 16184 71683 46/// /0502 11240 30010 40125 55001 6///1 333 11235 21250 7////
AAXX 16184 71257 16/// /1906 11073 21089 60001 333 11073 21129 70011
AAXX 16184 71258 16/// /2310 11003 21086 60001 333 11003 21101 70004
AAXX 16184 71259 16/// /2104 11120 21139 60001 333 11120 21161 70000
AAXX 16184 71274 16/// /2605 11056 21076 60001 333 11056 21189 70000
AAXX 16184 71275 46/// /2308 11053 21074 6///1 333 11053 21142 7////
AAXX 16184 71278 46/// /2608 11010 21057 6///1 333 11010 21157 7////
AAXX 16184 71286 16/// /2808 11012 21059 60001 333 11012 21154 70000
AAXX 16184 71287 16/// /2305 11041 21073 60001 333 11041 21163 70000
AAXX 16184 71289 16/// /2306 11021 21076 60001 333 11021 21122 70000
AAXX 16184 71010 16/// /2514 11015 21074 60001 333 11015 21116 70000
AAXX 16184 71464 46/// ///18 10017 30008 40225 57004 6///1 333 10027 20004 7////
AAXX 16184 71466 46/// ///// 10011 30020 40262 5/001 6///1 333 7////
AAXX 16184 71525 16/// /2208 11039 21067 60001 333 11039 21120 70000
AAXX 16184 71526 16/// /2207 11046 21095 60001 333 11043 21113 70000
AAXX 16184 71535 16/// /2511 10005 21047 60001 333 10006 21106 70000
AAXX 16184 71536 16/// /2622 10032 21035 60001 333 10032 21108 70000
AAXX 16184 71214 16/// /2207 11035 21067 60001 333 11035 21115 70000
AAXX 16184 71223 16/// /2210 11062 21080 60001 333 11062 21118 70000
AAXX 16184 71227 46/// /2311 11036 21070 6///1 333 11033 21157 7////
AAXX 16184 71229 46/// /2608 11057 21100 6///1 333 11054 21155 7////
AAXX 16184 71244 16/// /2810 11001 21066 39000 40256 51017 60001 333 11001 21100 70000
AAXX 16184 89003 46/89 /3119 11049 29069 38968 4//// 5////
AAXX 16184 89507 46/89 /3311 11187 29075 36806 4//// 5////
AAXX 16181 51711 11975 82702 11119 21141 38056 57002 69901 77070 8802/ 333 00101 11081
AAXX 16181 51730 32970 60701 11085 21101 40368 52002 80002 333 00202 10004
AAXX 16181 52112 32980 00000 11110 21172 40395 57003 333 05154 11023
AAXX 16181 52737 32980 70901 11121 21295 37078 57003 80002 333 05301 11019
AAXX 16181 52787 32980 63203 11120 21218 37025 57006 80002 333 05302 11029
AAXX 16181 53352 32980 00000 11170 21224 40409 57001 333 11092
AAXX 16181 53593 32980 02501 11173 21238 40415 57001 333 11084
AAXX 16181 53705 32970 00701 11080 21129 40355 57003 333 05501 11016
AAXX 16181 53863 32962 00000 11104 21127 40387 57003 333 11005
AAXX 16181 53975 32970 02501 11068 21119 40375 57004 333 10024
AAXX 16181 54273 32970 00201 11275 21307 40337 57013 333 11147
AAXX 16181 54324 32970 02203 11111 21257 40326 57010 333 11038
AAXX 16181 54405 32975 00701 11127 21244 40380 54000 333 11067
AAXX 16181 54436 32980 00000 11152 21203 40358 57005 333 11026
AAXX 16181 54808 32962 01401 11059 21120 40375 57008 333 11002
AAXX 16181 54826 32980 02909 11105 21277 38526 54000 333 11083
AAXX 16181 54836 32968 01101 11093 21141 40386 57003 333 11022
AAXX 16181 54863 32970 02201 11066 21110 40364 57010 333 10001
AAXX 16181 56018 32680 72902 11061 21213 36150 52011 879// 333 05107 11010
AAXX 16181 56021 32980 70000 11144 21175 36042 52006 80002 333 05204 11069
AAXX 16181 57071 32960 00202 11038 21104 40369 57012 333 10028
OOXX AAERC 16184 99815 31639 60713 00451 46/// /3405 11108 21158 39815 49873 5//// 91750
OOXX AAVIT 16184 99785 31778 57087 00501 46/// /1304 11091 21141 39843 49907 5//// 91800
AAXX 16184 42027 31995 00000 11006 21020 38469 48557 71000 333 58020
AAXX 16184 42101 31995 00000 10094 20077 40188 70500 333 58009
AAXX 16184 42111 31994 00501 10092 20076 39392 40187 71000 333 58007
AAXX 16184 42131 32996 01801 10072 20049 40196 333 58007
AAXX 16184 42165 32996 01402 10150 20012 40179 333 58009
AAXX 16184 42182 31994 02502 10090 20069 40191 71010 333 58009
AAXX 16184 42189 31/92 90000 10100 20100 40180 74744 333 58///
AAXX 16184 42328 32996 00501 10124 21016 40179 333 58009
AAXX 16184 42339 31995 00503 10168 21057 40173 70500 333 58005
AAXX 16184 42348 31995 00000 10122 20048 40184 70400 333 58008
AAXX 16184 42361 31995 00000 10090 20073 40185 70500 333 58006
AAXX 16184 42369 31990 00000 10080 20063 40185 74640 333 58001
AAXX 16184 42379 31/90 90000 10086 20060 40171 74740 89/// 333 58005
AAXX 16184 42452 32996 02702 10162 20069 40180 333 58006
AAXX 16184 42475 31994 00000 10110 20086 40181 71000 333 58005
AAXX 16184 42071 NIL
AAXX 16184 42260 NIL
AAXX 16184 68513 36/// /1316 10172 20101 30035 40147 53002 333 10232 20172 91021 555 91014
AAXX 16184 68514 32/// /2312 10320 21017 39651 48560 52011 333 10367 20320 91017 555 91012
AAXX 16184 68523 36/// /2208 10275 21130 39115 48545 53007 333 10325 20275 91012 555 91018
AAXX 16184 68527 36/// /2007 10292 21141 39072 48531 52009 333 10347 20292 91010 555 91016
AAXX 16184 68572 36/// /1005 10150 20130 38445 48554 52016 333 10265 20150 91009 555 91025
AAXX 16184 68575 16/// /0802 10158 20148 39150 48566 52012 69922 333 10230 20157 91007 555 20002 91023
AAXX 16184 68581 36/// /1102 10176 20149 39432 48571 53013 333 10246 20175 91006 555 91022
AAXX 16184 68583 16/// /0802 10224 20176 30089 40199 52013 69922 333 10260 20224 91004 555 20002 91020
AAXX 16184 68589 36/// /0402 10158 20134 38297 48558 53015 333 10243 20156 91003 555 91026
AAXX 16184 68613 36/// /2208 10167 20121 30059 40175 55000 333 10218 20163 91013 555 91017
AAXX 16184 68647 36/// /1411 10188 20135 38951 48548 53013 333 10285 20188 91017 555 91021
AAXX 16184 68651 36/// /1407 10164 20137 38596 48558 53011 333 10237 20164 91011 555 91025
AAXX 16184 68715 36/// /2204 10187 20116 30049 40176 52006 333 10269 20187 91008 555 91017
AAXX 16184 68717 36/// /2008 10209 20096 30021 40163 52008 333 10293 20209 91011 555 91016
AAXX 16184 68723 36/// /1604 10237 20091 39405 48547 52017 333 10322 20237 91011 555 91017
AAXX 16184 68737 36/// /1213 10239 20100 39255 48540 52011 333 10311 20239 91021 555 91017
AAXX 16184 68744 32980 01716 10206 20126 39116 48533 52018 333 10307 20206 91024 555 91018
AAXX 16184 68747 36/// /1510 10207 20155 39657 48572 53017 333 10272 20207 91015 555 91019
AAXX 16184 68754 36/// /0906 10166 20151 39184 48564 53016 333 10256 20164 91009 555 91022
AAXX 16184 68817 NIL
AAXX 16184 68821 36/// /1210 10228 20100 39924 40160 52018 333 10294 20228 91016 555 91016
AAXX 16184 68835 36/// /1402 10194 20132 30084 40198 53012 333 10262 20194 91004 555 91020
AAXX 16184 68843 36/// /0710 10208 20154 30093 40191 53013 333 10233 20208 91014 555 91019
AAXX 16184 68849 36/// /1309 10169 20142 39457 48561 53014 333 10240 20169 91014 555 91020
AAXX 16184 68912 36/// /1608 10182 20139 30177 40186 52005 333 10208 20182 91011 555 91018
AAXX 16184 68918 36/// /1202 10191 20146 30173 40192 53005 333 10218 20191 91003 555 91019
AAXX 16184 68921 36/// /1902 10198 20148 30189 40192 52007 333 10239 20197 91004 555 91019
AAXX 16184 68925 NIL
AAXX 16184 68926 32969 11605 10196 20087 30013 40191 52013 80002 333 10288 20196 91010 555 91019
AAXX 16184 68935 36/// /1103 10181 20119 30131 40195 53011 333 10229 20181 91006 555 91019
AAXX 16181 78310 12570 70606 10263 20200 30183 40193 58006 60001 86802 333 10265 20194 30/// 56909 58015 81820 85622 92035
AAXX 16181 78315 12575 61202 10260 20179 30124 40190 58013 60001 85802 333 10275 20169 30/// 56309 58009 84820 555 11202
AAXX 16181 78318 11561 30705 10279 20188 30183 40187 58015 60001 70500 82202 333 10282 20167 31/// 56909 58004 82820
AAXX 16181 78322 11559 70603 10280 20173 30175 40192 58018 60001 70522 83242 333 10280 20174 30/// 56999 58006 83820 84080
AAXX 16181 78324 11410 60705 10254 20199 30175 40186 57006 60001 70511 86800 333 10256 20223 30/// 56200 58010 82817 86620 555 10702
AAXX 16181 78325 11563 40607 10258 20186 30132 40190 58017 60001 70511 83202 333 10272 20191 30/// 56909 58004 83820 91114
AAXX 16181 78328 11461 71104 10248 20190 30199 40/// 56007 60001 70511 85851 333 10258 20225 30/// 56299 58007 84817 92427 555 10903
AAXX 16181 78333 11410 70902 10258 20186 30178 40185 58016 60001 70511 8323/ 333 10258 20185 30/// 56209 58008 83819 85360 555 10902
AAXX 16181 78344 11563 40705 10260 20181 30128 40177 58018 60001 70500 84942 333 10277 20176 30/// 56999 57927 58001 82820 819//
AAXX 16181 78345 01465 60304 10256 20225 30176 40179 58015 69941 70282 868// 333 10257 20200 31/// 56099 58004 69927 70038 84816 83623
AAXX 16181 78348 11556 70705 10252 20183 30133 40185 58017 60001 70522 87840 333 10252 20213 30/// 56290 57855 58004 70001 83821 87631 555 10902
AAXX 16181 78349 01420 80701 10228 20216 30085 40195 58006 69931 76186 8422/ 333 10263 20184 31/// 56199 57872 58003 69936 70003 84819 88460 555 10503
AAXX 16181 78351 12550 60608 10296 20119 30161 40163 58011 60001 81201 333 10296 20172 30/// 56909 58009 81830 86083
AAXX 16181 78353 01570 61001 10233 20217 30162 40184 58011 60031 72162 86800 333 10261 20220 31/// 56200 58009 60027 70041 83820 84626 555 10903
AAXX 16181 78355 11570 60706 10260 20192 30032 40173 58015 69901 70281 86800 333 10266 20190 31/// 56200 58000 70005 85820 555 10803
AAXX 16181 78358 11540 60808 10265 20187 30154 40169 58014 60001 70511 86800 333 10276 20201 31/// 56900 58007 70028 84823 85629
AAXX 16181 78360 12/70 60507 10293 20172 30150 40162 58018 60001 81402 333 10300 20180 30/// 56909 58008 818// 86// 92034
AAXX 16181 78363 11563 40904 10286 20154 30027 40142 58028 60001 70500 84200 333 10286 20135 30/// 56200 58003 84820 555 10902
AAXX 16181 78365 11562 60910 10267 20197 20168 40173 57017 60001 70522 85860 333 10270 20224 31/// 56290 57833 58001 70005 84821 92046 555 10903
AAXX 16181 78369 NIL
BBXX 4XFX 16184 99559 71545 41/97 32132 00/// 10040 20020 49900 57025 70222 83/// 22252 0//// 20815 31820 40718 50184 6//// 80030
BBXX A8JX9 16183 99558 71536 41296 81824 10050 20003 49920 54000 70222 886// 22262 20707 323// 41712 5//// 80030
BBXX DGTX 16183 99330 71617 41/98 21305 10165 20073 40270 52027 70300 82140 22264 00220 29901 329// 40909 80115
BBXX DHEB 16183 99543 71659 41/97 /2518 10025 21013 49810 52010 7//22 8//// 22224 04050 29903 3//// 4//// 5//// 80010
BBXX SBLI 16181 99300 71592 43/98 10212 10181 40249 53027 22264 00216 2//// 4////
BBXX SHIP 16184 99310 71789 41/98 92133 10220 20196 40165 56/// 70203 8//// 91750 22264 00210 2//// 3//// 4//// 5//// 80200
AAXX 16184 68817 NIL
AAXX 16184 68925 NIL
AAXX 16181 50548 32980 20401 11208 21260 40241 52005 80002 333 11110
AAXX 16181 50564 11970 82202 11178 21213 40207 57002 69901 77000 8801/ 333 11142
AAXX 16181 51334 11765 80201 11066 21081 40401 57006 69901 77077 885// 333 00051 11043
AAXX 16181 51818 32965 00000 11067 21104 40350 57012 333 00052 10006
AAXX 16181 52378 32980 02501 11138 21209 40397 57003 333 05304 11049
AAXX 16181 53487 32960 03403 11184 21248 40420 57003 333 11092
AAXX 16181 53502 32980 00201 11157 21223 40406 57002 333 05400 11053
AAXX 16181 53923 32980 02002 11052 21104 40347 57010 333 11009
AAXX 16181 54049 32970 02203 11168 21262 40278 57011 333 11107
AAXX 16181 54115 32980 02502 11142 21263 40336 57002 333 11098
AAXX 16181 54157 32962 02003 11140 21226 40301 57015 333 11117
AAXX 16181 54186 32970 02002 11195 21261 40311 57008 333 11161
AAXX 16181 54311 32980 00203 11169 21297 40371 57005 333 11113
AAXX 16181 54346 32966 00901 11165 21228 40342 57006 333 11096
AAXX 16181 54377 32970 03603 11194 21224 40353 54000 333 11091
AAXX 16181 54386 32970 00402 11260 21299 40363 52001 333 11153
AAXX 16181 54493 32970 01101 11185 21220 40347 57003 333 11094
AAXX 16181 54587 NIL
AAXX 16181 54715 32970 02001 11084 21140 40381 57003 333 11011
AAXX 16181 54929 32970 00000 11077 21131 40384 52001 333 11001
AAXX 16181 54945 32975 02901 11061 21172 40381 57004 333 11007
AAXX 16181 56065 32980 81601 11102 21146 36601 57005 80007 333 05410 11037
AAXX 16181 57193 32960 00902 11020 21098 40373 57009 333 10044
AAXX 16181 57290 32965 00000 11013 21101 40372 57005 333 10043
BBXX 46208 16181 99525 71327 46/// /1503 10082 40142 5//// 22200 00075 11006 70028 333 91204
BBXX 46208 16181 99525 71327 46/// /1503 10082 40142 5//// 22200 00075 11006 70028 333 91204
AAXX 16181 47008 42970 00000 11104 21179 30211 40268 58003
AAXX 16181 47014 42950 00000 11181 21222 39874 40311 52004
AAXX 16181 47016 42970 00000 11242 21273 39419 40344 58008
AAXX 16181 47020 42965 00000 11182 21201 39946 40362 58003
AAXX 16181 47025 42960 03201 11108 21204 30233 40264 52003
AAXX 16181 47035 42970 00000 11129 21165 30346 40353 54000
AAXX 16181 47041 42970 00000 11116 21163 30246 40275 52001
AAXX 16181 47055 42970 03201 11078 21144 30239 40287 57007
AAXX 16181 47058 42960 00000 11104 21167 30284 40335 58003
AAXX 16181 47069 42965 03402 11074 21139 30222 40328 53001
AAXX 16181 47003 42980 03206 11099 21210 30268 40272 58001
AAXX 16181 47005 42980 01802 11246 21263 38603 58003
AAXX 16181 47022 42975 00000 11227 21259 38855 52001
AAXX 16181 47028 42964 00000 11137 21198 30229 40331 58008
AAXX 16181 47031 42970 00000 11234 21252 38961 58009
AAXX 16181 47037 42970 03602 11117 21159 30198 40331 58002
AAXX 16181 47039 42960 00000 11148 21182 30130 40339 54000
AAXX 16181 47046 42969 00000 11088 21142 30247 40271 52002
AAXX 16181 47050 42965 00000 11132 21167 30288 40325 52001
AAXX 16181 47052 42965 00000 11180 21206 39967 40349 52013
AAXX 16181 47060 42960 00501 11092 21142 30273 40336 54000
AAXX 16181 47061 42980 01403 11076 21131 30227 40273 57003
AAXX 16181 47065 42970 03201 11108 21160 30265 40335 52001
AAXX 16181 47067 42965 00000 11122 21159 30211 40441 57001
AAXX 16181 47068 42970 60501 11110 21131 30286 40323 54000 86030
AAXX 16181 47070 42970 00000 11120 21147 30240 40335 52005
AAXX 16181 47075 42980 00000 11143 21186 39812 40273 52010
AAXX 16181 47101 32970 00001 11116 21163 30230 40334 52011
AAXX 16181 47105 369// /2509 11065 21188 30256 40290 52007
AAXX 16181 47108 32970 00201 11103 21178 30218 40332 52005
AAXX 16181 47115 41515 82303 11016 21046 39982 40264 53004 78587 888// 333 92041
AAXX 16181 47133 31668 63403 11063 21096 30240 40330 52005 77077 86500
AAXX 16181 47138 32970 02904 11047 21154 30293 40296 53003 333 92022
AAXX 16181 47159 32975 03405 11039 21155 30202 40292 53002 333 92022
AAXX 16181 47165 41561 60503 11022 21045 30266 40315 56002 78588 86800 333 92022
AAXX 16181 47168 32970 03614 11029 21116 30213 40296 57004 333 92024
AAXX 16181 47184 32668 62910 10037 21042 30287 40313 51002 86500 333 92043
AAXX 16181 47090 32973 02702 11073 21192 30261 40285 53004 333 92031
AAXX 16181 47095 32970 02901 11143 21174 30133 40340 52011
AAXX 16181 47097 329// /3402 11106 21170 30230 40334 52010
AAXX 16181 47098 329// /0902 11122 21165 30186 40332 52009
AAXX 16181 47099 329// /1602 11129 21150 30295 40335 52008
AAXX 16181 47100 32970 02308 11157 21196 39335 40333 52011
AAXX 16181 47102 32670 62908 11045 21102 30142 40330 53001 85500
AAXX 16181 47104 32970 01406 11077 21187 30184 40288 52007
AAXX 16181 47106 329// /2306 11059 21170 30235 40287 52006
AAXX 16181 47112 32970 03602 11087 21170 30244 40334 52007 333 92011
AAXX 16181 47114 32968 02003 11101 21174 30135 40332 52012
AAXX 16181 47119 32970 02903 11093 21160 30289 40334 52007
AAXX 16181 47121 329// /2703 11117 21146 30014 40332 52012
AAXX 16181 47127 329// /0001 11108 21152 30183 40336 52011
AAXX 16181 47129 32665 63607 11039 21099 30294 40332 51002 86500
AAXX 16181 47130 32970 02307 11059 21156 30223 40288 52003 333 92033
AAXX 16181 47131 32670 23403 11077 21133 30256 40331 52008 82500
AAXX 16181 47135 329// /2710 11070 21121 30002 40319 53003
AAXX 16181 47136 32970 03203 11085 21150 30133 40317 52006
AAXX 16181 47137 329// /2704 11069 21129 30192 40318 52003
AAXX 16181 47140 32670 60502 11043 21105 30294 40324 58003 85500 333 92012
AAXX 16181 47143 32970 03203 11054 21134 30238 40322 52006
AAXX 16181 47145 32670 23604 11079 21162 30298 40326 52008 82500
AAXX 16181 47146 32670 20502 11058 21117 30257 40327 55001 81500
AAXX 16181 47150 32668 60206 11039 21105 30302 40322 58003 86500
AAXX 16181 47152 32970 03606 11056 21134 30250 40295 53003
AAXX 16181 47154 329// /3205 11060 21123 30252 40316 53002
AAXX 16181 47155 32970 00904 11040 21126 30253 40301 53002
AAXX 16181 47156 32670 70507 11036 21073 30228 40322 55001 87500
AAXX 16181 47157 32975 00503 11084 21122 30016 40304 53001
AAXX 16181 47162 32970 00204 11030 21117 30255 40297 55002 333 92022
AAXX 16181 47169 32668 63416 10019 21050 30216 40313 57002 86500 333 92065
AAXX 16181 47170 32670 43410 11004 21059 30267 40312 50002 84500 333 92023
AAXX 16181 47171 329// /0001 11053 21104 30266 40324 56003
AAXX 16181 47172 329// /3403 11042 21088 30248 40318 55001
AAXX 16181 47173 329// /0503 11069 21107 30208 40326 54000
AAXX 16181 47174 32970 02907 11050 21100 30096 40310 55001
AAXX 16181 47175 32561 63410 11037 21046 39712 40312 50003 86500 333 92024
AAXX 16181 47185 41570 63223 10043 21023 30211 40304 50001 72688 86800 333 92056
AAXX 16181 47188 32670 63604 10030 21033 30278 40300 56005 86500 333 92032
AAXX 16181 47189 32670 50704 10028 21019 30228 40290 58008 85500 333 92032
AAXX 16181 47192 32970 00502 11063 21112 30266 40306 53003
AAXX 16184 68174 31665 40507 10184 20143 38817 48539 53010 70500 81172 333 10251 20184 91010 555 91021
AAXX 16184 68191 36/// /1706 10233 20162 39676 48577 53010 333 10268 20233 91009 555 91018
AAXX 16184 68242 32680 21204 10261 21005 38728 48513 53007 81402 333 10310 20261 91006 555 91018
AAXX 16184 68262 36/// /0702 10270 20072 38714 48527 53008 333 10316 20270 91003 555 91019
AAXX 16184 68263 32880 30000 10245 20065 38503 48529 53008 83070 333 10285 20245 91002 555 91021
AAXX 16184 68267 NIL
AAXX 16184 68289 16/// /0905 10219 20144 39195 48569 53013 69922 333 10256 20219 91008 555 20002 91021
AAXX 16184 68350 36/// /0000 10223 20054 38679 48531 53006 333 10339 20223 91003 555 91020
AAXX 16184 68368 42980 12506 10231 20035 38344 48538 53012 80082 333 10277 555 91024
AAXX 16184 68403 36/// /2112 10171 20114 30139 40172 52011 333 10223 20171 91019 555 91017
AAXX 16184 68424 32982 01907 10274 21080 39194 48533 53005 333 10369 20274 91008 555 91015
AAXX 16184 68438 32982 01906 10240 21069 38817 48516 53006 333 10323 20236 91006 555 91017
AAXX 16184 68442 32982 02902 10215 20013 38670 48524 55000 333 10243 20215 91003 555 91020
AAXX 16184 68461 32980 00910 10201 20097 38346 48530 53008 333 10268 20198 91015 555 91022
AAXX 16184 68512 32982 02105 10225 20022 39033 48537 53010 333 10284 20225 91006 555 91018
AAXX 16184 68538 32982 02907 10241 21068 38723 48512 53002 333 10311 20241 91010 555 91018
AAXX 16184 68587 36/// /0507 10231 20172 30179 40191 53011 333 10250 20231 91014 555 91019
AAXX 16184 68588 16/// /0406 10227 20163 30194 40210 53011 69922 333 10284 20227 91010 555 20002 91021
AAXX 16184 68591 NIL
AAXX 16184 68592 NIL
AAXX 16184 68618 32980 02309 10235 20001 39071 48546 53006 333 10303 20235 91014 555 91019
AAXX 16184 68633 36/// /1613 10224 20016 38518 48513 53007 333 10296 20224 91018 555 91019
AAXX 16184 68668 32570 61210 10178 20147 39340 48560 53013 86500 333 10252 20178 91013 555 91021
AAXX 16184 68714 36/// /1911 10182 20111 30136 40172 53003 333 10236 20182 91016 555 91017
AAXX 16184 68727 36/// /1908 10270 21045 39130 48533 52013 333 10304 20270 91011 555 91016
AAXX 16184 68752 36/// /0812 10190 20164 39511 48566 53013 333 10252 20190 91019 555 91020
AAXX 16184 68816 32982 01713 10189 20136 30127 40181 53008 333 10246 91015 555 91018
AAXX 16184 68828 42570 22306 10165 20141 39963 40196 53018 81530 333 10216 555 91019
AAXX 16184 68842 32570 71405 10197 20155 30126 40196 52019 87500 333 10235 555 91019
AAXX 16184 68858 32670 20609 10207 20158 30038 40193 53016 82000 333 10254 555 91020
AAXX 16184 68906 11598 52416 10107 20048 39982 40047 53003 60082 72588 85200 222// 00116 20601 320// 40802 333 10158 20093 91028 555 20088 91004
AAXX 16184 68994 12598 42407 10084 20006 30081 40110 53037 60012 84500 222// 00065 333 10129 20080 91018 555 20012 91010
AAXX 16184 89004 31000 80841 11071 21071 38756 49755 53001 77577 886// 333 11065 21071 91046 555
BBXX 46206 16181 99488 71260 46/// /1508 10091 40291 52004 22200 00092 11604 70022 333 91211
AAXX 16184 40153 11002 82408 10092 20084 39124 48519 52002 60002 71022 88/// 333 10140
AAXX 16184 40179 12565 31504 10139 20109 30164 40202 54000 60002 82101 333 10209
AAXX 16184 40180 12560 31306 10140 20099 30157 40207 55000 60002 83100 333 10203
AAXX 16184 40190 16/// ///// 10117 20090 39874 40210 52003 60002 333 10192
AAXX 16184 40199 13/// /0304 10174 20025 30174 40197 52008 60002 333 10216
AAXX 16181 08568 12/// /3019 10051 20051 38644 48516 52005 60242 333 10085 91029 91129 555 60005 90401 91220
AAXX 16181 40001 32970 00301 10039 21005 40210 53004 333 10146
AAXX 16181 40007 31950 00000 10053 20025 40203 53001 71000 333 10132
AAXX 16181 40025 32960 00602 10090 20070 40188 57005 333 10190
AAXX 16181 40045 32970 00000 10048 20017 40217 51004 333 10146
AAXX 16181 40061 32970 00000 10060 21020 40203 51005 333 10146
AAXX 16181 40080 32965 02001 10074 20011 39482 40214 51008 333 10166
AAXX 16181 400887 NIL
AAXX 16181 40095 NIL
AAXX 16181 40009 32965 00000 10055 20031 40178 51002 333 10158
AAXX 16181 40016 32970 00000 10066 20038 40225 51002 333 10140
AAXX 16181 40022 32565 31003 10130 20087 40189 51006 83200 222// 20000 333 10200 83830
AAXX 16181 40030 32970 00000 10070 20040 40195 53003 333 10148
AAXX 16181 40039 32970 00000 10068 20008 40198 53008 333 10140
AAXX 16181 40066 32570 30000 10120 20080 40190 56004 83500 333 10180 83626
AAXX 16181 40072 32970 00000 10070 20016 40224 52010 333 10142
AAXX 16181 40083 32970 01801 10046 21033 48490 54000 333 10110
BBXX 46206 16181 99488 71260 46/// /1508 10091 40291 52004 22200 00092 11604 70022 333 91211
AAXX 16181 50658 32962 22903 11151 21162 40218 57006 80002 333 11150
AAXX 16181 50888 32980 02502 11176 21231 40224 57003 333 11148
AAXX 16181 50983 32970 02703 11180 21233 40238 57003 333 11158
AAXX 16181 51053 32970 10903 11135 21153 40421 52001 80002 333 00054 11090
AAXX 16181 51542 32980 20000 11231 21253 37588 52001 80002 333 00054 11107
AAXX 16181 52436 32980 02202 11136 21166 38531 40359 57004 333 00000 11007
AAXX 16181 52908 32980 42907 11190 21250 35726 52008 80002 333 00001 11101
AAXX 16181 52996 31/00 91402 11070 21073 37583 57007 74900 333 05402 11040
AAXX 16181 53083 32980 02902 11255 21285 40429 57008 333 05604 11223
AAXX 16181 53764 32970 03601 11102 21157 40398 57001 333 11026
AAXX 16181 53787 32980 00401 11134 21167 40382 57001 333 11007
AAXX 16181 54096 32970 02708 11195 21249 40264 52001 333 11179 91118 91525
AAXX 16181 54226 32980 01602 11119 21284 40313 57015 333 11072
AAXX 16181 54259 32965 00000 11237 21272 40345 57010 333 11118
AAXX 16181 54527 32965 02503 11074 21199 40365 57007 333 11014
AAXX 16181 54534 32965 02901 11140 21184 40352 57007 333 11027
AAXX 16184 68267 NIL
AAXX 16184 68591 NIL
AAXX 16184 68592 NIL
BBXX 46205 16181 99542 71343 46/// /2306 10076 40127 52005 22200 00078 11006 70031 333 91207
AAXX 16184 42559 32996 00901 10144 20066 40168 333 58003
AAXX 16184 42571 32996 00000 10108 20051 40181 333 58006
AAXX 16184 42667 32996 00504 10144 20092 39568 40173 333 58000
AAXX 16184 42675 31996 00000 10116 20084 40180 70500 333 58002
AAXX 16184 42754 31996 00905 10176 20060 39514 40161 70500 333 59002
AAXX 16184 42867 31996 03602 10168 20113 40161 70500 333 58003
AAXX 16184 42933 32996 00000 10176 20092 40154 333 58001
AAXX 16184 43041 32996 00000 10150 20114 39536 40172 333 58002
AAXX 16184 42779 NIL
AAXX 16184 42874 NIL
BBXX 46205 16181 99542 71343 46/// /2306 10076 40127 52005 22200 00078 11006 70031 333 91207
BBXX 46181 16181 99538 71288 46/// /0506 11003 40212 52005 22200 00064 10200 70002 333 91207
AAXX 16184 89020 46/// /0407 11053 21090 39753 49788 52028 91800
AAXX 16184 89108 46/// /0507 11244 36877 4//// 5//// 91800
AAXX 16184 89314 46/// /0814 11131 38163 4//// 5//// 91800
AAXX 16184 89329 46/// /0004 11144 38708 49794 5//// 91800
AAXX 16184 89332 46/// /3307 11135 39216 49845 5//// 91800
AAXX 16184 89376 46/// /2405 11139 39813 49883 52004 91750
AAXX 16184 89667 46/// /0805 11066 39888 49898 52001 91800
AAXX 16184 89734 46/// /3014 11264 36085 4//// 5//// 91800
AAXX 16184 89744 46/// /2409 11196 36524 4//// 52009 91800
AAXX 16184 89769 46/// ///02 11079 39838 49891 5//// 91750
AAXX 16184 89799 46/// /2509 11292 36692 4//// 57007 91750
AAXX 16184 89828 46/// /2204 11379 36443 4//// 5//// 91750
AAXX 16184 89832 46/// /1717 11111 39524 49826 52012 91750
AAXX 16184 89834 46/// /1915 11229 38087 4//// 5//// 91800
AAXX 16184 89865 46/// ///// 1//// 3//// 4//// 5//// 91800
AAXX 16184 89866 46/// /1310 11059 39754 49889 52001 91750
AAXX 16184 89869 46/// /0104 11100 39806 49886 57001 91750
AAXX 16184 89872 46/// /1804 11084 39833 49890 52003 91800
AAXX 16184 89873 46/// /2402 11109 39795 49874 5//// 91750
AAXX 16184 89879 46/// ///01 10004 39737 49773 5//// 91750
BBXX MGSM3 16184 99249 31540 41198 32311 10230 20180 40116 52006 70200 83/// 22243 06250 20603 31717 41003 51003 80200
BBXX S6OM 16184 99233 11200 41/96 80231 10152 20140 40266 51014 70222 8//// 22200 00195 20303 302// 40605 5//// 80145
AAXX 16184 88878 46/// /3209 10135 20116 40127 57005
AAXX 16184 88883 46/// /3318 10139 20124 40104 57010
AAXX 16184 88897 46/// /3519 10167 20104 40079 57011
BBXX AMOUK01 16184 99443 30104 46/// ///// 10101 20084 30013 40020 57008 91750
BBXX AMOUK15 16184 99159 50057 46/// ///// 10209 20146 30151 40175 57005 91750
BBXX AMOUK17 16184 99335 30443 46/// ///// 10204 20186 30141 40155 54000 91750
BBXX AMOUK20 16184 99185 50339 46/// ///// 10262 20214 30151 4//// 52012 91750
BBXX A8PK8 16183 99144 10531 41398 60515 10245 20207 40141 51020 70111 83770 22215 04255 20404 323// 40603 5//// 80220
BBXX DMDZ 16183 99239 70317 41598 50912 10240 20180 40220 54000 7//11 83164 22253 04230 20602 309// 40705 5//// 80200
BBXX ZDLS1 16183 99442 30104 41397 73328 10095 20091 40009 57021 70222 876// 22253 04082 20408 329// 40610 80093
BBXX 46181 16181 99538 71288 46/// /0506 11003 40212 52005 22200 00064 10200 70002 333 91207
AAXX 16184 82893 32798 31408 10290 20190 39198 40085 83200 333 58007
AAXX 16184 82979 32498 51405 10307 20194 39637 40080 85200 333 58005
AAXX 16184 82986 32598 51406 10320 20129 39799 40077 83206 333 58014
AAXX 16184 83179 32598 60506 10323 20189 39615 40059 83202 333 58001
AAXX 16184 83192 32597 40906 10340 20145 39933 40095 82270 333 58004
AAXX 16184 83339 32497 61406 10260 20189 39123 40072 84231 333 58008
AAXX 16184 83498 32595 63609 10282 20252 30115 40120 82250 333 58001
BBXX A8CJ2 16184 99286 50733 41598 70607 10215 20143 40185 54000 70222 84464 22284 04160 20601 323// 41004 5//// 80170
BBXX 62141 16183 99493 50591 41998 03628 10126 20124 40174 57008 70200 80000 22200 20604 336// 40602 5//// 80125
BBXX ZCDF4 16183 99154 70970 41698 20705 10290 20248 40144 53015 70311 82545 22275 00280 20000 319// 40301 5//// 80260
BBXX PBHZ 16183 99279 70883 41299 31516 10260 20252 40220 50/// 7//22 821// 22233 06269 20302 80254
BBXX DGAF 16183 99537 70382 41298 82417 10035 20012 40210 54000 78587 8371/ 22254 00080 20504 80025
BBXX GDTT 16184 99205 70744 41498 50724 10285 20211 40175 58/// 7//11 85562 22233 00280 20508 80235
BBXX VQHO7 16184 99093 70572 41598 40411 10310 20239 40094 57002 702// 83201 22274 00286 20302 308// 40606 5//// 80260
BBXX A8LP6 16184 99379 70378 41/96 81821 10200 20193 40220 57020 71022 88/// 22265 04137 2//// 325// 42008 80195
BBXX ZCEE2 16184 99198 70676 41/98 30433 10290 20172 40150 57027 70200 83100 22233 00270 20302 307// 40506 5//// 80215
BBXX VQKZ6 16183 99120 70766 41398 80619 10273 20240 40114 50010 76062 84727 22253 02245 20304 306// 40706 5//// 80250
AAXX 16184 82098 32597 50711 10330 20230 30060 40077 83330 333 58005
AAXX 16184 82246 32497 60703 10309 20240 39884 40080 84202 333 59004
AAXX 16184 82445 31597 70502 10301 20246 30043 40095 70544 82279 333 58005
AAXX 16184 82460 32597 60503 10373 20193 30037 40066 86100 333 58003
AAXX 16184 82562 32598 53603 10314 20235 39945 40052 85200 333 59005
AAXX 16184 82571 32497 40504 10335 20204 39893 40064 83201 333 58007
AAXX 16184 82765 32598 43203 10298 20240 39863 40102 84200 333 58001
AAXX 16184 82141 32498 40210 10298 20235 30073 40085 84200 333 58004
AAXX 16184 82145 32598 70503 10314 20227 30066 40107 85240 333 58018
AAXX 16184 82181 32496 60710 10324 20222 39960 40098 83264 333 58008
AAXX 16184 82198 32495 40509 10324 20206 30033 40084 84200 333 58000
AAXX 16184 82353 32598 61802 10335 20231 39947 40030 84230 333 59002
AAXX 16184 82361 32497 63604 10322 20237 30046 40083 86200 333 58002
AAXX 16184 82476 32595 30704 10359 20181 39947 40064 83100 333 59002
AAXX 16184 82861 32597 60504 10289 20241 39880 40048 8472/ 333 59002
AAXX 16184 83264 21797 63208 10284 20224 39644 40105 70066 83214 333 58016 69931
AAXX 16184 83358 32698 52304 10318 20198 39643 40037 83250 333 59003
AAXX 16184 82863 21598 80000 10259 20236 39862 40073 70295 8497/ 333 58006 60001
AAXX 16184 83228 31799 82703 10246 20211 39794 40069 71522 8826/ 333 59003
AAXX 16184 83270 32797 60000 10270 20222 39616 40096 82530 333 59009
AAXX 16184 83309 31697 83605 10266 20236 39736 40106 70392 8371/ 333 58012
AAXX 16184 83319 31697 82605 10266 20236 39736 40106 70392 8371/ 333 58012
AAXX 16184 83368 21698 70000 10296 20226 39701 40063 70362 85204 333 58012 60091
AAXX 16184 83374 21598 83206 10255 20214 39514 40081 70265 885// 333 58010 60071
AAXX 16184 83405 32997 0//// 10366 20191 39910 40040 333 58012
AAXX 16184 83526 21498 70505 10240 20215 39138 40068 70365 87500 333 58008 69961
AAXX 16184 41184 42960 02102 10185 20135 40160 333 10282 59018
AAXX 16184 41194 12960 01603 10221 20133 30165 40170 60001 333 10257 59020
AAXX 16184 41196 42960 09903 10177 20109 30134 40174 333 10263 59018
AAXX 16184 41198 42960 02501 10220 20154 40166 333 20252 59023
AAXX 16184 41217 42960 02803 10202 20140 30139 40168 333 10245 59018
AAXX 16184 41218 42960 03506 10180 20114 39864 40174 333 10259 59018
AAXX 16181 30455 429// 63101 11188 21207 38936 48473 57011 83032
AAXX 16181 30731 419// 82003 11099 21120 39748 40385 52005 77172 8808/
AAXX 16181 30739 429// 00502 11330 21360 39534 40479 52004
AAXX 16181 30741 425// 23108 11151 21164 38765 48553 52001 82500
AAXX 16181 30745 429// 01803 11260 21284 39153 40424 52001
AAXX 16181 30764 42998 00000 11326 21355 39481 40384 58001
AAXX 16181 30829 42984 13301 11277 21295 39714 40490 52008 81040
AAXX 16181 30838 42698 60000 11294 21311 39387 40498 52008 86500
AAXX 16181 30846 42999 02305 11173 21223 39406 40378 52002
AAXX 16181 30859 42999 02403 11201 21242 39455 40359 52007
AAXX 16181 30862 42984 02505 11193 21234 39530 40321 54000
AAXX 16181 30957 429// 02203 11243 21255 39419 40405 52010
AAXX 16181 30967 NIL
AAXX 16181 30975 42998 00000 11351 21387 39615 40357 53007
AAXX 16184 68183 12570 80404 10214 20186 39476 48565 53008 60022 8657/ 333 10217 20210 91005 555 20020 91019
AAXX 16184 68188 36/// /0000 10199 20177 39236 48560 53011 333 10247 20198 91002 555 91021
AAXX 16184 68268 36/// /0102 10244 20152 38891 48537 52010 333 10331 20244 91003 555 91019
AAXX 16184 68272 36/// /0104 10233 20174 39088 48538 53020 333 10347 20232 91007 555 91018
AAXX 16184 68296 16/// /1303 10238 20174 39863 48583 52020 69922 333 10304 20238 91008 555 20002 91017
AAXX 16184 68322 32982 01902 10281 21036 39129 48518 52010 333 10382 20281 91004 555 91014
AAXX 16184 68338 32780 13004 10224 20016 38772 48507 52014 81070 333 10326 20224 91007 555 91017
AAXX 16184 68345 36/// /2003 10240 20018 38683 48528 53005 333 10304 20239 91004 555 91020
AAXX 16184 68362 32980 20000 10175 20094 38522 48524 52012 81064 333 10301 20175 91002 555 91021
AAXX 16184 68400 36/// /1702 10215 20161 30111 40185 52016 333 10308 20215 91005 555 91018
AAXX 16184 68408 36/// /1508 10154 20121 30150 40158 53007 333 10200 20154 91014 555 91015
AAXX 16184 68416 36/// /2206 10280 21075 39043 48532 52010 333 10318 20280 91008 555 91017
AAXX 16184 68478 32589 21902 10180 20152 38916 48553 52023 82500 333 10281 20180 91007 555 91022
AAXX 16184 68488 36/// /1005 10177 20150 39321 48565 52011 333 10252 20177 91008 555 91021
AAXX 16184 68494 NIL
AAXX 16184 68524 32986 02506 10282 21148 39064 48534 52010 333 10335 20282 91008 555 91017
AAXX 16184 68546 36/// /1102 10186 20041 38665 48511 52006 333 10294 20186 91003 555 91018
AAXX 16184 68558 36/// /1205 10157 20096 38217 48533 52010 333 10244 20157 91009 555 91023
AAXX 16184 68570 32470 21405 10161 20119 38552 48544 52023 82010 333 10290 20161 91010 555 91023
AAXX 16184 68580 16/// /1205 10140 20135 39005 48559 52013 69922 333 10247 20140 91008 555 20002 69925 91023
AAXX 16184 68614 36/// /2408 10198 20111 30109 40150 52005 333 10294 20198 91016 555 91015
AAXX 16184 68624 32982 01405 10245 21045 38759 48536 52008 333 10306 20245 91009 555 91020
AAXX 16184 68674 36/// /0103 10234 20177 30164 40194 52015 333 10286 20232 91012 555 91019
AAXX 16184 68712 36/// /1814 10158 20133 30102 40167 53002 333 10201 20158 91017 555 91016
AAXX 16184 68718 36/// /1106 10207 20109 39941 40186 52018 333 10329 20207 91015 555 91019
AAXX 16184 68722 32980 01902 10175 21102 38576 48533 52007 333 10267 20175 91005 555 91022
AAXX 16184 68814 36/// /1908 1//// 2//// 30175 4//// 52002 333 1//// 2//// 91009 555 91018
AAXX 16184 68832 32970 00910 10207 20085 39222 48549 52023 333 10306 20207 91017 555 91019
AAXX 16184 68916 36/// /0602 10175 20132 39922 40191 52007 333 10202 20175 91003 555 91019
AAXX 16184 68920 NIL
AAXX 16184 68928 NIL
AAXX 16181 31825 42984 00602 11224 21281 39940 40165 56005
AAXX 16181 31845 42998 00000 11319 21344 30042 40228 56003
AAXX 16181 31878 42984 02502 11217 21257 30118 40254 54001
AAXX 16181 31915 42998 02803 11166 21246 39973 40256 58004
AAXX 16181 31921 42999 01502 11204 21253 30150 40257 58001
AAXX 16181 31969 42/// /2302 11136 21239 30226 40278 55004
AAXX 16181 31981 42999 02202 11283 21300 30014 40278 52002
AAXX 16181 31987 42999 00205 11171 21254 39979 40259 53003 333 91112
AAXX 16181 32069 41596 83208 11148 21168 30087 40092 57002 78583 889// 333 91012 91114
AAXX 16184 68155 36/// /0405 10273 20173 39204 48546 53017 333 10327 20273 91016 555 91017
AAXX 16184 68171 NIL
AAXX 16184 68176 36/// /0903 10199 20173 39164 48545 53011 333 10268 20198 91007 555 91019
AAXX 16184 68181 NIL
AAXX 16184 68182 16/// /0000 10206 20180 39375 48559 53006 60012 333 10218 20204 91002 555 20016 91019
AAXX 16184 68185 16/// /1006 10181 20134 38482 48414 58002 69922 333 10258 20181 91013 555 20002 91008
AAXX 16184 68253 36/// /0806 10274 20177 39051 48534 53013 333 10348 20273 91014 555 91017
AAXX 16184 68255 36/// /2203 10236 20090 38861 48513 53008 333 10326 20236 91005 555 91017
AAXX 16184 68271 36/// /0204 10215 20152 38931 48536 53013 333 10298 20215 91012 555 91019
AAXX 16184 68273 36/// /1010 10217 20144 38481 48535 53008 333 10305 20217 91015 555 91022
AAXX 16184 68287 NIL
AAXX 16184 68291 36/// /1102 10218 20170 39573 48567 53010 333 10281 20218 91005 555 91018
AAXX 16184 68297 NIL
AAXX 16184 68329 36/// /1502 10284 21045 39085 48531 53006 333 10367 20284 91003 555 91016
AAXX 16184 68331 36/// /1906 10283 21073 38832 48526 53002 333 10346 20283 91008 555 91018
AAXX 16184 68335 36/// /1004 10257 21001 38934 48549 52017 333 10341 20255 91008 555 91020
AAXX 16184 68341 36/// /3203 10225 20042 38545 48530 53007 333 10311 20225 91004 555 91021
AAXX 16184 68342 NIL
AAXX 16184 68343 36/// ///// 10237 20102 38792 48519 53005 333 10311 20237 555 91018
AAXX 16184 68349 36/// /1303 10242 20062 38522 48516 53008 333 10313 20242 91006 555 91020
AAXX 16184 68353 36/// /0503 10203 20071 38533 48512 53006 333 10294 20203 91004 555 91019
AAXX 16184 68355 36/// /2003 10232 20033 38590 48525 53007 333 10296 20232 91004 555 91020
AAXX 16184 68370 NIL
AAXX 16184 68377 36/// /0813 10220 20156 38787 48529 53019 333 10302 20220 91019 555 91019
AAXX 16184 68380 36/// /2710 10158 20129 3//// 4//// 5//// 333 10267 20158 91019 555
AAXX 16184 68387 36/// /0706 10203 20175 38898 48558 53011 333 10273 20203 91018 555 91022
AAXX 16184 68411 36/// /1911 10315 20030 39919 40118 53008 333 10383 20315 91017 555 91013
AAXX 16184 68429 36/// /0000 10249 21086 38697 48521 53009 333 10319 20249 91000 555 91019
AAXX 16184 68449 36/// /1702 10210 20043 38407 48519 53008 333 10277 20210 91003 555 91021
AAXX 16184 68471 36/// /0903 10186 20126 38358 48536 53010 333 10234 20186 91015 555 91023
AAXX 16184 68474 36/// /0502 10188 20088 38660 48551 52020 333 10266 20173 91005 555 91023
AAXX 16184 68479 36/// /1210 10217 20151 38984 48550 53020 333 10294 20217 91014 555 91021
AAXX 16184 68481 36/// /1107 10223 20171 39827 40195 52020 333 10292 20223 91012 555 91020
AAXX 16184 68487 36/// /1205 10152 20137 39047 48559 53014 333 10246 20152 91009 555 91023
AAXX 16184 68491 36/// /1803 10216 20174 30182 40191 52011 333 10277 20216 91007 555 91019
AAXX 16184 68497 16/// /1202 10224 20180 30156 40200 52012 69922 333 10270 20224 91004 555 20002 91020
AAXX 16181 30499 42999 32602 11201 21234 39522 40221 53001 80001
AAXX 16181 30683 429// 20000 11244 21269 39550 40255 57001 83040
AAXX 16181 30695 42999 03601 11232 21264 39863 40226 53004
AAXX 16181 31253 42999 60000 11290 21314 39694 40199 53003 80001
AAXX 16181 31295 42999 53202 11223 21264 39718 40208 52004 83031
AAXX 16181 31348 42999 00000 11361 21372 39933 40155 57001
AAXX 16181 31418 42984 00000 11295 21320 39869 40151 56001
AAXX 16181 31439 42999 01802 11228 21260 30054 40101 57003
AAXX 16181 31442 42997 82903 11162 21222 39803 40174 54000 8801/
AAXX 16181 31445 42984 82903 11160 21202 39905 40171 57004 80007
AAXX 16181 31474 42998 00000 11389 21425 39689 40245 58001
AAXX 16181 31521 31958 81401 11261 21279 39873 40192 57007 77172 80007
AAXX 16181 31527 42998 22301 11221 21262 39862 40188 57010 80001
AAXX 16181 31534 41998 81401 11252 21271 39830 40206 57005 77171 80007
AAXX 16181 31587 42999 82301 11178 21228 30039 40194 57005 80001
AAXX 16181 31632 NIL
AAXX 16181 31702 42998 80203 11271 21302 39846 40217 57006 80007
AAXX 16181 31713 42999 80000 11213 21246 30072 40178 57005 80007
AAXX 16181 31725 42998 02502 11254 21278 30107 40180 53002
AAXX 16181 31801 41999 00000 11324 21348 39956 40212 53001 70271
BBXX 44059 16181 99368 70763 46/// /0507 1//// 91820 333 91210
BBXX 44059 16181 99368 70763 46/// /0607 1//// 40203 91810 333 91211
BBXX 44059 16181 99368 70763 46/// /0507 10108 40202 50007 91800 22200 00112 333 91210
BBXX 44057 16181 99395 70761 46/// /3307 1//// 91820 333 91209
BBXX 44057 16181 99395 70761 46/// /3307 1//// 40220 91810 333 91209
BBXX 44057 16181 99395 70761 46/// /3206 10070 40221 50000 91800 22200 00053 333 91207
BBXX 44058 16181 99376 70763 46/// /0206 1//// 91810 333 91208
BBXX 44058 16181 99376 70763 46/// /0307 10096 40211 58003 91800 22200 00098 10302 70008 333 91208
BBXX 44040 16181 99410 70736 46/// /3307 10077 21026 40198 91815 22200 10301 70004 333 91209 555 11088 22103
BBXX 44062 16181 99386 70764 46/// /3508 1//// 91820 22200 00089 333 91209
BBXX 44062 16181 99386 70764 46/// /3408 1//// 40199 91810 22200 00089 333 91210
BBXX 44062 16181 99386 70764 46/// /3507 10077 40199 58006 91800 22200 00089 10301 70003 333 91209
BBXX 44063 16181 99390 70764 46/// /3206 1//// 91820 333 91209
BBXX 44063 16181 99390 70764 46/// /3206 1//// 40242 91810 333 91208
BBXX 44063 16181 99390 70764 46/// /3206 10072 40239 50000 91800 22200 00088 1//00 70001 333 91208
BBXX 44041 16181 99372 70768 46/// /3605 1//// 91820 333 91207
BBXX 44041 16181 99372 70768 46/// /0104 1//// 40232 91810 333 91206
BBXX 44041 16181 99372 70768 46/// /0105 10118 40232 50005 91800 22200 00100 1//00 70001 333 91207
BBXX 44042 16181 99380 70763 46/// /3507 1//// 91820 333 91208
BBXX 44042 16181 99380 70763 46/// /3606 1//// 40215 91810 333 91208
BBXX 44042 16181 99380 70763 46/// /0304 10093 40216 50000 91800 22200 00098 10201 70003 333 91206
BBXX 44043 16181 99392 70764 46/// /3106 1//// 91820 333 91208
BBXX 44043 16181 99392 70764 46/// /3107 1//// 40223 91810 333 91208
BBXX 44043 16181 99392 70764 46/// /3107 10072 40220 58003 91800 22200 00078 10301 70005 333 91209
BBXX 46092 16181 99368 71220 46/// /0906 10084 40238 53006 91757 22200 00126 555 11057 22062
AAXX 16184 78767 11463 82002 10242 20211 30140 40142 50010 75855 87820 333 10242 20204 32/// 56000 58010 81815 86630
AAXX 16184 68171 NIL
AAXX 16184 68181 NIL
AAXX 16184 68287 NIL
AAXX 16184 68297 NIL
AAXX 16184 68342 NIL
AAXX 16184 68370 NIL
AAXX 16184 64005 NIL
AAXX 16184 64040 NIL
AAXX 16184 64210 32558 70000 10264 20232 39744 40097 8357/ 333 10285 59014 83623 87362
AAXX 16184 64360 NIL
BBXX 46184 16181 99539 71389 46/// /2703 10059 40120 52016 22200 00065 11711 70053 333 91205
AAXX 16184 78767 11463 82002 10242 20211 30140 40142 50010 75855 87820 333 10242 20204 32/// 56000 58010 81815 86630
BBXX A8OF6 16183 99473 70108 41296 73340 10110 20072 40210 52080 76222 867// 22253 04130 20308 329// 41014 80090
BBXX 7JJA 16184 99317 11375 41797 73130 00 10120 20062 40190 52005 70322 863// 9//// 22213 0 2//08 332 4//08 5 6//// 80090 ICE /////
BBXX A8IE6 16184 99364 11236 41297 83320 10030 21053 40330 51010 70200 8/6// 22285 04107 20707 336// 40807 80000
BBXX JPBN 16184 99348 11402 41/98 60118 10066 21063 40161 53006 70211 86200 22221 00184 1//03 20503 399// 4//02 70017
BBXX UHFW 16180 99475 11416 41/96 93609 11070 40093 58015 78682 22272 06040 20402
BBXX VRHO2 16184 99396 11464 41796 73230 10010 21015 40080 54000 78362 8539/ 22254 00150 20301 332// 40805 50000 64004 80000 ICE 0////
BBXX WDB9986 16184 99381 11487 41597 83024 10040 20020 40080 54000 76165 886// 22214 00150 20404 327// 40606 5//// 6//// 80030 ICE /////
BBXX 46184 16181 99539 71389 46/// /2703 10059 40120 52016 22200 00065 11711 70053 333 91205
AAXX 16181 45032 36/// /0003 10138 20028 30242 40259 57002
AAXX 16181 45035 36/// /0604 10144 20048 30213 40255 57003
AAXX 16181 45039 36/// /0203 10147 20050 30238 40253 57002 333 91108
AAXX 16181 45044 36/// /0206 10154 20073 30153 40248 57001
AAXX 16184 42634 32996 00000 10164 20067 40150 333 59007
AAXX 16184 42647 31996 00202 10194 20101 40153 70400 333 59003
AAXX 16184 42737 32996 00503 10200 20141 40149 333 59004
AAXX 16184 42840 32996 00502 10220 20153 40146 333 59004
AAXX 16184 42909 32996 30503 10216 20137 40149 80001 333 59008 83070
AAXX 16184 42921 32996 00000 10150 20111 40193 333 59004
AAXX 16184 43003 31995 00000 10208 20147 40128 70400 333 59004
AAXX 16184 43014 32996 00000 10160 20114 39440 40154 333 59004
AAXX 16184 43063 32996 00000 10156 20117 39508 40148 333 59003
AAXX 16184 43110 32996 00902 10226 20167 40129 333 58001
AAXX 16184 43117 32996 00000 10192 20116 40144 333 58003
AAXX 16184 43192 32996 00202 10236 20212 40119 333 58001
AAXX 16181 45032 36/// /0003 10138 20028 30242 40259 57002
AAXX 16181 45035 36/// /0604 10144 20048 30213 40255 57003
AAXX 16181 45039 36/// /0203 10147 20050 30238 40253 57002 333 91108
AAXX 16181 45044 36/// /0206 10154 20073 30153 40248 57001
AAXX 16184 91723 NIL
AAXX 16184 91759 11498 30904 10254 20235 40129 53015 60001 71500 83900 333 82820 81918
AAXX 16184 91762 11598 20915 10282 20252 40125 53014 60001 70500 82100 333 82822
AAXX 16181 31913 NIL
AAXX 16181 32128 41495 70801 11124 21137 30043 40097 56005 78682 87300 333 91003 91105
AAXX 16181 24856 41997 30503 11424 21448 30038 40219 53002 70271 80001
AAXX 16181 30679 NIL
AAXX 16181 30686 42999 03202 11185 21218 39846 40241 57001
AAXX 16181 30961 42999 02803 11189 21222 39498 40343 52007
AAXX 16181 30971 42999 02401 11252 21277 39264 40341 52006
AAXX 16181 30978 42999 01502 11272 21296 39578 40332 52005
AAXX 16181 31513 42999 80000 11201 21213 39939 40180 57005 80007
AAXX 16181 31624 NIL
AAXX 16181 31832 42968 01001 11234 21266 30123 40217 54000
BBXX 46004 16181 99509 71361 46/// /0202 10078 40124 57001 22200 00078 11807 70037 333 91203
AAXX 16181 56671 32970 02001 10022 20009 38229 54000 333 05253 10102
AAXX 16181 57378 32960 70202 10017 21028 40359 57009 8703/ 333 10088
AAXX 16181 57426 31756 80702 10073 21009 40301 57006 71000 885// 333 05203 10110
AAXX 16181 57476 32960 70201 10040 21031 40356 57007 8703/ 333 10089
AAXX 16181 57584 32962 00202 10044 21025 40348 57008 333 10086
AAXX 16181 57598 32960 61801 10010 21035 40349 57001 86030 333 10114
AAXX 16181 57655 32960 80703 10063 21045 40340 57011 8807/ 333 10099
AAXX 16181 57713 NIL
AAXX 16181 57776 11/00 90405 11037 21045 40346 57005 69911 74974 333 11009
AAXX 16181 58321 32960 00701 11012 21100 40385 57001 333 10058
AAXX 16181 58437 32980 03605 11031 21397 38213 57005 333 11022
AAXX 16181 58445 NIL
AAXX 16181 58556 32965 03402 11004 21090 40366 57001 333 10063
AAXX 16181 58569 32968 03405 10011 21062 40352 57001 333 10071
AAXX 16181 58646 32960 01101 10006 21058 40361 54000 333 10095
AAXX 16181 58653 NIL
AAXX 16181 58660 NIL
AAXX 16181 58715 32960 03602 10024 21025 40330 57006 333 10106
AAXX 16181 58730 32965 03601 10030 21027 40329 57001 333 10138
AAXX 16181 58731 32962 02901 10004 21026 40337 57001 333 10110
AAXX 16181 58754 32962 03401 10034 21017 40341 52002 333 10136
AAXX 16181 58911 31958 00401 10029 20013 40314 52008 71000 333 10124
AAXX 16181 58931 31/01 90713 11029 21033 38398 57005 74840 333 10044
AAXX 16181 59254 31758 70701 10128 20043 40274 52007 70500 875// 333 10167
AAXX 16181 59632 32761 70203 10138 20047 40260 57001 875// 333 10175
AAXX 16181 59855 32566 83402 10175 20126 40224 57012 888// 333 10201
BBXX SHIP 16184 99421 11635 41698 82724 10040 20020 40011 56021 70222 8894/ 22224 00100 20305 32727 40406 5//// 6//// 80030 ICE /////
BBXX 46145 16181 99544 71324 46/// /1507 10070 40139 52001 22200 00072 11304 70018 333 91208
BBXX 46181 16181 99538 71288 46/// /0506 11003 40212 52005 22200 00064 10200 70002 333 91207
BBXX 46183 16181 99536 71311 46/// /1410 10077 40153 52003 22200 00080 10804 70021 333 91212
BBXX 46185 16181 99524 71298 46/// /1609 10081 40168 57001 22200 00077 10806 70032 333 91211
BBXX 46204 16181 99514 71288 46/// /0913 10075 40194 54000 22200 00083 10708 70039 333 91216
BBXX 46205 16181 99542 71343 46/// /2306 10076 40127 52005 22200 00078 11006 70031 333 91207
BBXX 46206 16181 99488 71260 46/// /1508 10091 40291 52004 22200 00092 11604 70022 333 91211
BBXX 46207 16181 99509 71299 46/// /2009 10091 40182 57003 22200 00085 11407 70036 333 91211
BBXX 46208 16181 99525 71327 46/// /1503 10082 40142 5//// 22200 00075 11006 70028 333 91204
BBXX DCTA2 16180 99367 71328 41598 51305 10135 20127 40305 53010 70222 84245 22224 04150 20502 33132 40603 50502 80130
BBXX SHIP 16184 99477 71381 41/92 92130 10130 20113 40120 56015 74544 89/// 91800 22274 00110 20604 322// 40806 80120
BBXX 44039 16181 99411 70727 46/// /3008 10084 21014 40187 91753 22200 00102 10502 70009 333 91211
BBXX 46004 16181 99509 71361 46/// /0202 10078 40124 57001 22200 00078 11807 70037 333 91203
AAXX 16184 43086 32996 00000 10180 20143 39968 40151 333 58006
AAXX 16184 43128 31996 00904 10206 20147 39539 40153 70500 333 58002
AAXX 16184 43150 31596 20000 10228 20187 30078 40154 70500 81501 333 58004 81620
AAXX 16184 43185 31596 20902 10240 20216 30137 40141 70500 81530 333 58000 81620
AAXX 16184 43189 32596 20000 10244 20198 30142 40151 81501 333 58004
AAXX 16184 43198 32996 20000 10176 20105 39305 40143 80001 333 58005 82075
AAXX 16184 43201 32997 00902 10188 20138 39407 40137 333 58002
AAXX 16184 43213 32996 09901 10226 20164 39821 40141 333 58000
AAXX 16184 43226 32996 00901 10254 20127 30093 40122 333 58004
AAXX 16184 43233 32996 00000 10186 20143 39323 40144 333 59003
AAXX 16184 43237 32596 40903 10220 20188 39741 40139 81501 333 58001 81620 83075
AAXX 16184 43245 32996 10502 10230 20199 30114 40141 80001 333 59004
AAXX 16184 43279 31996 20502 10246 20179 30123 40141 70510 80001 333 59007 81075
AAXX 16184 43284 32996 00000 10246 20219 39995 40111 333 58006
AAXX 16184 43295 32996 00000 10184 20144 39117 48518 333 58015
AAXX 16184 43311 22596 40902 10260 20242 40114 82501 333 58009 6994/ 82620
AAXX 16184 43314 32996 02702 10268 20227 40110 333 59007
AAXX 16184 43321 31495 30503 10216 20177 39690 40142 71041 82501 333 59006
AAXX 16184 43329 32596 20000 10240 20206 30119 40132 82500 333 59003
AAXX 16184 43344 31495 40506 10224 20209 30039 40140 70522 82501 333 58003 82618 85075
AAXX 16184 43346 32596 60508 10264 20210 30114 40121 84501 333 59004 84620 85075
AAXX 16184 43353 31496 50000 10276 20219 40112 70522 82871 333 56699 58001 82614 83359 85072
AAXX 16184 43369 21596 40000 10264 20247 40111 76061 84400 333 58000 6992/ 83620
AAXX 16184 43371 32596 40000 10270 20229 30035 40108 82401 333 59003 82620 83075
AAXX 16184 71283 16/// /2809 11051 21080 60001 333 11048 7////
AAXX 16184 71011 16/// ///// 11078 21096 60001 333 11078 21113 7////
AAXX 16184 71049 16/// /3118 11232 30014 40038 51015 60001 333 11182 21234 70000
AAXX 16184 71576 16/// /1212 11115 21133 39885 49970 52006 60001 333 11108 21203 70000
AAXX 16184 71357 16/// /1703 11189 21235 39985 49992 56010 60001 333 11170 21236 70000
AAXX 16184 71359 16/// /2505 11035 21058 60001 333 11035 21128 70000
AAXX 16184 71405 16/// ///// 11039 21075 60001 333 11032 21165 70000
AAXX 16184 71417 17/// /1410 10018 20018 39909 49943 56043 60041 7//4/ 333 10020 21013 70068
AAXX 16184 71426 46/// /3036 11005 6///1 333 10045 21006 7////
AAXX 16184 71500 16/// /1702 11037 21084 60001 333 11012 21109 70000
AAXX 16184 71504 16/// ///// 11032 21075 60001 333 11013 21118 70000
AAXX 16184 71541 16/// /2306 11078 21100 60001 333 11059 21159 70000
AAXX 16184 71543 16/// /2504 11026 21060 60001 333 11006 21161 7////
AAXX 16184 71546 16/// /2508 10005 21055 60001 333 10010 21159 70000
AAXX 16184 71547 16/// /2708 11025 21073 60001 333 11014 21144 70000
AAXX 16184 71788 16/// /2310 11012 21052 60001 333 11012 21122 70000
AAXX 16184 71792 16/// ///// 11055 21083 60001 333 11055 21147 70004
AAXX 16184 71221 16/// /2703 11012 21076 60001 333 11003 21189 70012
AAXX 16184 71226 16/// /2508 11010 21054 60001 333 21173 7////
AAXX 16184 71461 16/// /1203 11073 21085 60001 333 11024 21167 70000
AAXX 16184 71468 16/// /3111 11120 21127 39955 40292 50000 60001 333 21125 70010
AAXX 16184 71483 16/// ///// 10000 21058 60001 333 10000 21138 70000
AAXX 16184 71632 46/// /1704 11165 21181 39730 40189 58029 6///1 333 11165 21305 7////
AAXX 16184 71067 16/// ///// 11033 21088 60001 333 11033 21138 70000
AAXX 16184 71673 16/// ///// 11022 21067 60001 333 11019 21152 70004
AAXX 16184 71690 16/// ///// 11044 21069 60001 333 11008 21162 70000
AAXX 16184 71888 16/// ///// 11020 21064 60001 333 11020 21151 70000
AAXX 16184 71895 16/// ///// 11029 21071 60001 333 11029 21146 70000
AAXX 16181 89064 16/// /3109 10029 29087 49814 57033 69981
AAXX 16184 60619 36/// /0109 10132 21017 333 10184
AAXX 16184 60664 36/// /0000 10136 21102 333 10204
BBXX 62087 16181 99547 10068 46/// /1704 10070 20035 4//// 5//// 22270 00089
AAXX 16184 60645 36/// /0000 10194 21046 333 10247
BBXX 61002 16184 99421 10047 46/// ///40 10147 2//// 40052 52050 22200 00153 10808 70042 555 1/054
AAXX 16184 60663 36/// /1201 10181 21095 333 10233
AAXX 16184 60621 36/// /0507 10180 21025 333 10227
AAXX 16184 60612 36/// /0000 10147 21065 333 10196
BBXX 44060 16181 99413 70721 46/// ///10 10078 40168 91830 22200 00109 333 91212 555 11108 22113
BBXX 46232 16181 99325 71174 46/// ///// 1//// 91808 22200 00145 11202 21002 328// 41201 70011
BBXX 46247 16181 99378 71228 46/// ///// 1//// 91821 22200 00117 11104 20903 328// 41102 70019
BBXX 61002 16184 99421 10047 46/// ///40 10147 2//// 40052 52050 22200 00153 10808 70042 555 1/054
AAXX 16184 78922 46/// /0519 10258 20215 30077 40122 58017
AAXX 16184 45011 47557 /0116 10143 20063 40253 52003 71011 333 58028
AAXX 16184 45011 47557 /0116 10143 20063 40253 52003 71011 333 58028
AAXX 16181 56144 32780 80000 11026 21126 36819 54000 884// 333 05301 10069
AAXX 16181 56152 32680 73201 11102 21119 36268 57007 82402 333 05302 11004
AAXX 16181 56167 32980 02501 11059 21091 37056 52002 333 05300 10101
AAXX 16181 56182 32980 00000 11073 21117 37206 57002 333 05452 10020
AAXX 16181 56357 32980 00000 11090 21146 36438 57003 333 05154 10051
AAXX 16181 56586 32460 83402 11001 21009 38087 57003 885// 333 05400 10008
AAXX 16181 56748 32580 20701 10071 20044 38375 52001 82400 333 00002 10174
AAXX 16181 56763 32680 10702 10093 20073 40170 52008 81400 333 05100 10214
AAXX 16181 56768 32980 02001 10071 20065 38206 52002 333 00000 10135
AAXX 16181 56838 32668 10000 10099 20082 40183 52002 81400 333 00051 10233
AAXX 16181 56886 31750 82002 10040 20033 38343 57003 71000 885// 333 05200 10056
AAXX 16181 56946 32680 10000 10091 20083 40185 52004 81400 333 00100 10224
AAXX 16181 56959 32762 80000 10168 20157 40181 54000 884// 333 00103 10244
AAXX 16181 56969 31458 70000 10143 20135 40200 57004 71000 875// 333 00103 10199
AAXX 16181 57731 32665 82002 10070 21060 40320 57002 885// 333 05201 10102
AAXX 16181 57766 32960 71601 10047 21011 40341 57003 8704/ 333 10099
AAXX 16181 57845 32960 72201 10016 21010 40316 57003 8704/ 333 10115
AAXX 16181 57853 32960 73401 10045 21019 40339 57002 8704/ 333 10101
AAXX 16181 57916 32662 81401 10087 20043 40289 57005 885// 333 05200 10120
AAXX 16181 57922 32661 82901 10038 20005 40307 57006 885// 333 05201 10058
AAXX 16181 57932 32664 82201 10067 20033 40311 57008 885// 333 05152 10116
AAXX 16181 58338 32962 00902 11007 21109 40372 57005 333 10060
AAXX 16181 59007 32665 81402 10068 20017 40263 57002 885// 333 10088
AAXX 16181 59046 31758 70402 10104 20018 40296 52006 70500 875// 333 10145
AAXX 16181 59058 31857 73202 10099 20013 40291 52006 70500 875// 333 10156
AAXX 16181 59072 31956 73402 10072 20021 40309 52005 70500 8704/ 333 10143
AAXX 16181 59087 32760 70705 10101 21029 40288 52010 875// 333 10172
AAXX 16181 59209 32561 82901 10082 20055 40271 57002 888// 333 10131
BBXX 46146 16181 99493 71237 46/// /1008 10065 40309 54000 22200 00067 10301 70004 333 91210
BBXX 46246 16181 99500 71451 46/// ///// 1//// 91759 22200 00074 11714 20906 328// 41712 70068
BBXX 46146 16181 99493 71237 46/// /1008 10065 40309 54000 22200 00067 10301 70004 333 91210
AAXX 16184 67881 41375 80000 10180 20175 38595 48522 76098 8277/ 333 10279 58015 82707 88460
BBXX 46246 16181 99500 71451 46/// ///// 1//// 91829 22200 00074 11512 21006 329// 41510 70058
BBXX 46243 16181 99462 71241 46/// ///// 1//// 91829 22200 00087 11504 20802 327// 41503 70018
BBXX 46237 16181 99378 71226 46/// ///// 1//// 91810 22200 00112 11104 21003 327// 41102 70018
BBXX 46225 16181 99329 71174 46/// ///// 1//// 91814 22200 00146 11301 20901 328// 41301 70007
BBXX 46213 16181 99403 71247 46/// ///// 1//// 91824 22200 00106 11005 21004 329// 41703 70026
BBXX 46215 16181 99352 71209 46/// ///// 1//// 91808 22200 00153 11104 21003 328// 41102 70019
BBXX 41010 16181 99289 70785 46/// /1204 10225 40220 91820 22200 00244 11003 20401 300// 41003 70016 333 91205 555 11039 22041
BBXX 41009 16181 99285 70802 46/// /1205 10237 20164 40218 91820 22200 00244 11003 20501 300// 41003 70015 333 91206 555 11053 22055
BBXX 42362 16181 99278 70907 46/// /0901 10250 20189 40224 91830
BBXX 42363 16181 99282 70892 46/// /0804 10228 20161 40227 91830 333 91204
BBXX 42364 16181 99291 70881 46/// /2202 10222 20172 40227 91830
BBXX 42361 16181 99276 70925 46/// ///01 10244 20189 40203 58010 91830 555 11010 22011
BBXX 44100 16181 99363 70756 46/// ///// 1//// 91822 22200 00131 11302 21002 309// 41301 70010
BBXX 41110 16181 99341 70777 46/// ///// 1//// 91821 22200 00147 11001 21001 311// 41101 70007
BBXX 42099 16181 99273 70842 46/// ///// 1//// 91827 22200 00236 10502 20502 70008
BBXX 41113 16181 99284 70805 46/// ///// 1//// 91821 22200 00229 11102 20902 310// 41101 70009
BBXX 41112 16181 99307 70813 46/// ///// 1//// 91821 22200 00169 11102 21001 311// 41101 70008
BBXX 42013 16181 99272 70829 46/// ///// 1//// 40220 91740 22200 00204
BBXX VOXS 16184 99467 70480 41498 81812 10030 2002/ 40184 56036 70222 885// 22200 04025 20301 312// 40804 80025
BBXX 2ALE5 16183 99375 70095 41597 52923 10170 20115 40269 55008 70211 855// 22284 20507 332// 40507 80140
BBXX V2OT9 16183 99372 70013 41997 52435 10180 20092 40170 56030 70211 83040 22253 20307 30000 4//// 5//// 80130
BBXX TBWUK35 16183 99365 70088 41598 82716 10185 20163 40279 55015 75082 884// 22263 00190 20402 333// 40805 80172
BBXX V7SY6 16184 99139 10516 41997 10517 10280 20211 40270 54000 70100 80002 22223 0//// 20602 305// 40602 5//// 6//// 80220
BBXX VCXF 16184 99464 70484 41998 71719 10035 2002/ 40184 57032 70322 80009 22200 02029 20302 310// 40803 80030
BBXX VOXS 16184 99467 70480 41498 81812 10030 2002/ 40184 56036 70222 885// 22200 04025 20301 312// 40804 80025
BBXX VCXF 16184 99464 70484 41998 71719 10035 2002/ 40184 57032 70322 80009 22200 02029 20302 310// 40803 80030
BBXX 44258 16181 99445 70634 46/// /2510 10080 49987 57005 22200 00074 10805 70027 333 91212
BBXX 44258 16181 99445 70634 46/// /2510 10080 49987 57005 22200 00074 10805 70027 333 91212
AAXX 16180 44210 32999 30000 11252 21264 38597 53004 80001
AAXX 16180 44216 32999 03202 11310 21334 39119 40559 58013
AAXX 16180 44217 32998 10000 11237 21261 37883 40508 58011 80001
AAXX 16180 44219 419// 20000 11277 21294 38710 40546 52001 70270 80004
AAXX 16180 44221 329// 70000 11310 21334 38683 40572 57002 87050
AAXX 16180 44224 419// 70000 11248 21273 38097 40510 58010 70272 80007
AAXX 16180 44229 32999 20000 11304 21334 37958 40561 58010 80001
AAXX 16180 44242 329// 30000 11361 21397 39481 40563 52011 83040
AAXX 16180 44243 329// 70000 11287 21319 39580 40531 52010 87070
AAXX 16180 44254 329// 02502 11278 21310 39116 40442 51011
AAXX 16180 44257 329// 03202 11208 21255 39055 40439 51011
AAXX 16180 44263 32998 00000 11270 21309 38123 40583 52003
AAXX 16180 44266 329// 23202 11191 21232 37793 40424 58001 82080
AAXX 16180 44286 329// 00000 11263 21294 38721 40498 52011
AAXX 16180 44291 319// 00000 11365 21409 38838 40619 52013 70400
AAXX 16180 44325 329// 21403 11189 21215 38932 40438 53006 80008
AAXX 16180 44329 328// 62303 11157 21199 37793 40404 56001 81047
AAXX 16180 44338 32999 00000 11189 21230 38521 40416 53003
AAXX 16180 44348 329// 03205 11204 21216 38739 40398 52002
AAXX 16180 44374 32999 02003 11146 21221 38304 40428 58002
AAXX 16180 44385 32999 00000 11126 21209 38995 40398 51007
AAXX 16180 44386 329// 00000 11198 21239 39121 40405 52003
BBXX KS098 16184 99441 71242 43/// /1503 10093 40316 22281 06000
BBXX KS088 16184 99267 70801 43/// /1006 10242 40207 22200 06223
BBXX KS094 16184 99133 70596 43/// /0505 10284 40116 22200 06274
AAXX 16184 97014 32560 31102 10238 20229 39972 40065 57020 81531 333 56000 81622
AAXX 16184 97028 NIL
AAXX 16184 97048 32458 50000 10252 20239 30028 40052 57013 84231 333 56700 57874 88817 83617 80860
AAXX 16184 97072 NIL
AAXX 16184 97086 NIL
AAXX 16184 97096 32460 73603 10248 20220 30056 40078 59011 82321 333 56000 57803 82818 83460 80860
AAXX 16184 97120 32459 50000 10274 20245 30032 40065 57014 82231 333 56000 57801 82818 83360 80860
AAXX 16184 97146 NIL
AAXX 16184 97180 01458 70805 10244 20241 30052 40070 56025 60291 72196 82272 333 56000 60027 82819 84360
AAXX 16184 97192 NIL
AAXX 16184 97230 NIL
AAXX 16184 97260 NIL
AAXX 16184 97270 31450 80000 10252 20243 30053 40058 58016 71322 8692/ 333 56009 57900 81913 83817 88460 809//
AAXX 16184 97300 32560 50000 10247 20231 30029 40069 57010 83231 333 56000 57802 83820 80857
AAXX 16184 97340 32560 71103 10256 20245 30049 40063 56010 82232 333 56000 82820 85080
AAXX 16184 97372 32558 20000 10232 20226 39937 40057 57019 81101 333 56000 81820
AAXX 16184 97430 32460 63503 10258 20237 30037 40066 57014 84232 333 56700 57871 84818 80860
AAXX 16184 97460 32460 50000 10234 20219 30041 40055 56002 83836 333 56000 57802 82817 80857
AAXX 16184 97502 32450 30000 10250 20244 30049 40053 57020 82431 333 56000 82615
AAXX 16184 97530 NIL
AAXX 16184 97560 31460 60306 10267 20251 30041 34056 57018 71322 83946 333 56000 57902 57804 81917 82820 84361 86280 80980 80860
AAXX 16184 97686 NIL
AAXX 16184 97690 32450 60000 10240 20222 39962 40064 57019 84832 333 56000 57800 81815 83620 85080
AAXX 16184 97724 01460 43502 10252 20242 30041 40057 57019 69961 71396 82932 333 56600 57963 69967 81920 80957
AAXX 16184 97748 NIL
AAXX 16184 97760 32458 60000 10250 20236 30056 40065 57010 82202 333 56000 57801 82816 80860
AAXX 16184 97796 NIL
AAXX 16184 97810 NIL
AAXX 16184 97900 32563 30402 10264 20250 30019 40047 57015 81105 333 56000 57805 81820 83275 80825
AAXX 16184 97980 NIL
AAXX 16184 96009 NIL
AAXX 16184 96011 32560 70000 10254 20233 30076 40102 57003 83532 333 56000 83620
AAXX 16184 96035 01456 80000 10257 20238 30067 40105 57003 69901 76062 86928 333 56000 57902 69907 81917 85618 80956
AAXX 16184 96073 31450 70000 10246 20237 30077 40088 56010 70522 84972 333 56000 57901 84913 80959
AAXX 16184 96091 32458 60205 10260 20246 30074 40097 57006 84811 333 56000 57802 82613 83817 80860
AAXX 16184 96109 11458 80000 10256 20242 30048 40087 51005 60211 71362 84972 333 56000 57901 81918 83615 80960
AAXX 16184 96145 11456 63608 10268 20241 30086 40089 56006 69901 70262 84520 333 56800 84616 85460
AAXX 16184 96147 NIL
AAXX 16184 96163 32560 60000 10250 20241 30089 40091 57012 82521 333 56000 82620
AAXX 16184 96179 32460 70000 10246 20234 30069 40096 57006 83208 333 56000 57802 83817 80850
AAXX 16184 96195 NIL
AAXX 16184 96221 31456 73005 10266 20250 30063 40078 58005 71321 84931 333 56999 57993 81920 80980 83815
AAXX 16184 96237 NIL
AAXX 16184 96249 32560 73503 10253 20242 30017 40078 57007 83232 333 56700 57872 83820 84358 80863
AAXX 16184 96253 01458 70000 10248 20245 30051 40072 57007 60051 76262 83972 333 56000 57900 57800 60057 81915 82820 84460
AAXX 16184 96295 NIL
AAXX 16184 96509 32457 70000 10264 20239 30056 40067 57008 82231 333 56000 57803 82815 86362 80858
AAXX 16184 96581 32456 70000 10254 20248 30076 40083 57011 85170 333 56200 85811 80858
AAXX 16184 96633 NIL
AAXX 16184 96645 NIL
AAXX 16184 96655 NIL
AAXX 16184 96685 11356 70000 10240 20237 30054 40081 57016 60041 72922 86512 333 56000 86609
AAXX 16184 96749 32560 72405 10261 20239 30063 40077 58012 82571 333 56000 82622 86461
AAXX 16184 96781 NIL
AAXX 16184 96805 32558 40000 10252 20235 30074 40083 56011 82271 333 56000 57802 82820 80860
AAXX 16184 96839 32440 71803 10286 20236 30064 40071 57015 71799 82976 333 56000 57900 82919 809//
AAXX 16184 96935 32559 53202 10262 20237 30056 40063 58017 81171 333 56000 81820 84060
AAXX 16184 97008 32560 12004 10248 20236 30050 40060 57006 81101 333 56000 81820
AAXX 16184 97016 32460 20000 10254 20233 30055 40057 57017 81131 333 56000 57802 81818 80860
AAXX 16184 97126 31457 70101 10250 20230 30012 40073 56012 71322 82920 333 56000 57900 81917 87460 80980
AAXX 16184 97182 NIL
AAXX 16184 97240 NIL
AAXX 16184 97310 32558 20000 10242 20233 30042 40054 57014 82101 333 56000 82820
AAXX 16184 97320 NIL
AAXX 16184 97378 32560 40000 10244 20241 39897 40060 56010 81101 333 56000 81820 83080
AAXX 16184 97406 32460 60000 10238 20232 30035 40060 57012 84231 333 56000 57801 84819 80860
AAXX 16184 97570 NIL
AAXX 16184 97630 NIL
AAXX 16184 97700 32459 40000 10250 20237 30040 40054 57014 82232 333 56000 57804 82817 80850
AAXX 16184 97722 32463 50000 10252 20242 30047 40082 57004 83932 333 56600 57962 81919 80971
AAXX 16184 96001 NIL
AAXX 16184 96015 32430 70000 10250 20247 30082 40089 56008 85572 333 56000 85615
AAXX 16184 96033 01440 80000 10242 20233 30094 40100 55000 60061 76062 84928 333 56000 57903 60067 81918 84617 86457 80980
AAXX 16184 96075 32456 60000 10240 20237 30090 40096 57012 83571 333 56000 83617 85462
AAXX 16184 96087 32459 60104 10253 20231 30044 40077 58021 82531 333 56000 82615
AAXX 16184 96171 01440 70000 10254 20245 30064 40088 52008 60101 72162 85522 333 56000 60107 85615
AAXX 16184 96207 NIL
AAXX 16184 96525 32458 40000 10260 20245 30062 40069 57008 82435 333 56000 82615
AAXX 16184 96529 32550 70000 10253 20248 30061 40086 56009 84131 333 56000 84820
AAXX 16184 96559 01320 80000 10236 20234 30059 40097 52002 60041 76162 8692/ 333 56609 57963 57864 60047 81913 85808 88460 80972 80846
AAXX 16184 96607 31458 73404 10270 20249 30060 40075 57013 71722 85921 333 56000 57980 82914 84813 809//
AAXX 16184 96615 01450 70000 10254 20239 30076 40089 57008 60071 71796 84931 333 56000 57902 60077 82914 85362 80959
AAXX 16184 96737 32458 30000 10268 20235 30034 40064 58008 82501 333 56000 82616
AAXX 16184 96739 NIL
AAXX 16184 96741 NIL
AAXX 16184 96745 NIL
AAXX 16184 96751 32540 60000 10197 20179 39017 48920 56011 84510 333 56400 84620 83460
AAXX 16184 96791 NIL
AAXX 16184 96797 01456 82605 10246 20240 30072 40078 58010 60491 79166 8597/ 333 56009 57901 60077 81918 85618 80980
AAXX 16184 96837 32558 60000 10270 20241 30077 40080 57003 82272 333 56000 57800 82823
AAXX 16184 96925 11460 73107 10273 20244 30065 40069 56012 69901 71792 84972 333 56600 57960 57860 81917 83817 80980 80860
AAXX 16184 96933 32960 32804 10270 20244 30077 40081 57001 82031 333 56000 82360
AAXX 16184 96937 32558 43105 10274 20248 30061 40066 57013 82506 333 56000 82620
AAXX 16184 96973 31458 60000 10266 20252 30055 40060 57013 71792 83931 333 56000 57903 81919 80976 82820 80850
AAXX 16184 96987 NIL
BBXX 44140 16181 99429 70515 46/// /1307 10122 40183 57038 22200 00095 11104 70019 333 91209
AAXX 16183 67881 41375 80000 10180 20175 38595 48522 76098 8277/ 333 10279 82707 88460
BBXX 44140 16181 99429 70515 46/// /1307 10122 40183 57038 22200 00095 11104 70019 333 91209
BBXX 46036 16181 99484 71339 46/// /1914 10098 40165 57009 22200 00085 10707 70036 333 91217
AAXX 16184 86330 32598 62115 10264 20130 40057 57012 86500
AAXX 16184 86360 32597 62114 10254 20155 40074 57014 85805
AAXX 16184 86460 11597 81908 10210 20174 40067 58002 60031 72162 8327/
AAXX 16184 86490 11495 61510 10204 20188 40084 58007 60071 76061 84260
AAXX 16184 86530 11596 71917 10208 20186 40059 55008 60081 76065 86205
AAXX 16184 86545 11496 81814 10224 20179 40068 57009 60031 75052 887//
AAXX 16184 86565 11497 61812 10210 20178 40053 57005 60011 70165 86400
AAXX 16184 86580 42497 61714 10214 20182 40077 56005 84406
BBXX 46036 16181 99484 71339 46/// /1914 10098 40165 57009 22200 00085 10707 70036 333 91217
AAXX 16184 83766 32597 62706 10294 20132 39432 40072 5//// 83202
AAXX 16184 83836 32497 82705 10244 20110 39088 40048 58009 83367
AAXX 16184 83881 21497 62306 10288 20142 39760 40038 58013 70151 86200 333 69911
AAXX 16184 83980 31596 42706 10242 20134 39759 40035 56010 70521 84200
AAXX 16184 83997 32497 61410 10231 20179 30018 40061 53002 86200
AAXX 16184 82143 31198 60410 10290 20236 40083 7022/ 83636 222// 80250 333 58004
AAXX 16184 83117 11296 83502 10240 20212 40085 56002 69955 7032/ 8747/ 222// 02200 20102 80220
BBXX 2AUO5 16183 99606 10016 41997 03232 10055 20031 49866 54000 7//88 80000 22200 20703 332// 40904 80045
BBXX 63110 16183 99595 10015 41/98 /3122 10067 49875 700// 8//// 22200 10606 70028
BBXX 63106 16184 99610 10017 46/// /3121 10047 49858 52015 22200
BBXX 63105 16184 99610 10017 47497 ///// 10059 20009 49857 52015 751// 22200
BBXX 62103 16184 99499 70029 46/99 /2931 10088 20026 49994 51036 22200 00123 10807 70035 333 90710 91145
BBXX DAXJ 16183 99364 70124 41598 32615 10181 20137 40315 53005 70200 81561 22234 00178 20403 334// 40907 5//// 80154
BBXX 62107 16184 99501 70061 46/// /3443 10096 20035 40025 51025 22200 00114 10807 70035 333 90710 91153
BBXX 62095 16184 99530 70159 46/// /3125 10070 20013 40164 52027 22200 00113 10912 70060 333 90710 91137
BBXX 62095 16184 99530 70159 46/// /3125 10070 20009 40178 52027 22200 00113 10912 70060 333 90710 91137
AAXX 16181 20046 NIL
AAXX 16181 20069 NIL
AAXX 16181 20087 42998 20203 11239 21264 30190 40201 52010 80001
AAXX 16181 20292 NIL
AAXX 16181 20353 46/// /1214 11055 21079 30132 40136 52003 333 91118
AAXX 16181 20667 NIL
AAXX 16181 20674 42998 71203 11106 21112 30106 40167 52001 8705/ 333 91106
AAXX 16181 20744 11496 81611 11021 21039 39994 40012 56006 69930 78583 8595/ 333 10003 85917
AAXX 16181 20891 41598 72305 11168 21181 30127 40171 52011 70273 8553/ 333 85625 91107
AAXX 16181 23022 31497 82110 11052 21069 30047 40108 57009 73632 885// 333 11044 91115
AAXX 16181 23032 NIL
AAXX 16181 23058 32298 82106 11209 21234 30238 40243 57003 886// 333 11201 88706
AAXX 16181 23242 31994 52212 11203 21228 30232 40249 58015 73832 85030 333 11215 91114
AAXX 16181 23256 11298 82209 11211 21236 30249 40288 57004 69940 73673 84606 333 11209 84704 91013 91114
AAXX 16181 23330 11296 82504 11199 21218 30240 40263 57012 69900 77172 8677/ 333 11209 86704 93538
AAXX 16181 23445 32997 51504 11192 21211 30299 40327 57007 80001 333 11203
AAXX 16181 23552 32497 52602 11224 21242 30331 40369 57001 85500 333 11234 85614
AAXX 16181 23631 11498 82104 11179 21205 30262 40307 57005 69920 70277 885// 333 11210 88615
AAXX 16181 23662 32998 52301 11234 21259 30348 40397 52004 80001 333 11235
AAXX 16181 23724 11998 81903 11123 21136 30220 40289 57003 77172 8802/ 333 11147
AAXX 16181 23734 11997 61701 11245 21270 30260 40362 57008 69900 77172 86020 333 11254
AAXX 16181 23849 41226 80000 11226 21253 40426 57003 71022 886// 333 88704
AAXX 16181 23867 32999 80000 11279 21303 30344 40425 52006 84011 333 11276
AAXX 16181 23933 11997 21602 11271 21291 30348 40412 53001 69900 70271 80001 333 11271
AAXX 16181 28064 31997 81601 11226 21244 30302 40404 54000 77171 8802/ 333 11223
AAXX 16181 28275 12997 00000 11300 21323 30361 40430 53003 69900 333 11243
AAXX 16181 28493 11997 80802 11212 21230 30291 40393 52015 69900 70272 8801/ 333 11161
AAXX 16181 28698 11997 83402 11214 21233 30207 40377 52007 60030 70272 80001 333 11189
AAXX 16183 63723 32980 00000 10285 20238 40079 333 10332 59026
AAXX 16183 63793 32480 70908 10260 20227 40072 875// 333 10330 59025 87616
AAXX 16181 23426 31958 82003 11208 21233 30243 40269 57010 77172 8802/ 333 11218
AAXX 16181 23625 31996 81402 11168 21187 30247 40283 57005 77172 8802/ 333 11195
AAXX 16181 28076 32997 40000 11272 21283 30330 40412 57001 80001 333 11247
AAXX 16181 28367 32984 01101 11242 21260 30276 40420 57001 333 11196
AAXX 16181 28382 12998 00000 11261 21285 30335 40415 53005 69900 333 11210
AAXX 16181 28481 12997 03302 11249 21267 30303 40415 58004 69900 333 11230
AAXX 16181 28491 32997 20401 11240 21265 30283 40406 52014 80001 333 11203
AAXX 16181 28573 11997 80000 11256 21274 30303 40420 53002 69900 70271 80007 333 11244
AAXX 16181 28593 11997 00801 11224 21242 30283 40392 52020 60020 70271 333 11170
AAXX 16181 28786 11997 83403 11215 21233 30212 40387 54000 69970 72273 8801/ 333 11228
AAXX 16181 28797 11996 83201 11198 21217 30200 40373 53001 60030 77173 8802/ 333 11208
AAXX 16181 28799 11996 83401 11222 21240 30203 40363 52007 60040 77172 80007 333 11169
AAXX 16184 63688 32480 70905 10148 20129 48/// 82963 333 10244 59011 81919 84358 87076
AAXX 16184 63708 12575 63405 10217 20185 48483 69932 81950 333 10298 59009 81921 86358
AAXX 16184 63612 NIL
AAXX 16184 63661 NIL
AAXX 16184 63671 NIL
AAXX 16184 63695 NIL
AAXX 16184 63714 NIL
AAXX 16184 63723 NIL
AAXX 16184 63740 NIL
AAXX 16184 63772 NIL
AAXX 16184 63793 NIL
AAXX 16184 63820 NIL
BBXX 51204 16181 99213 71581 46/// ///// 1//// 91822 22200 00249 11303 21002 331// 41302 70015
BBXX 52200 16181 99134 11448 46/// ///// 1//// 91815 22200 00287 11005 21004 309// 41102 70024
BBXX 51201 16181 99217 71581 46/// ///// 1//// 91812 22200 00243 11504 21002 332// 41504 70020
BBXX 51202 16181 99214 71577 46/// ///// 1//// 91809 22200 00245 10903 20903 336// 41701 70016
BBXX 44097 16181 99410 70711 46/// ///// 1//// 91802 22200 00127 10906 20905 317// 41102 70028
BBXX 44022 16181 99409 70737 46/// ///08 10074 21038 40195 91830 22200 00093 333 91211 555 11082 22088
BBXX 41024 16181 99338 70785 46/// /2104 10166 40209 91800
BBXX 44040 16181 99410 70736 46/// /3307 10077 21026 40198 91819 22200 10301 70004 333 91209 555 11088 22103
BBXX 51205 16181 99210 71564 46/// ///// 1//// 91818 22200 00241 11504 20903 333// 41503 70022
BBXX 46238 16181 99334 71195 46/// ///// 1//// 91820 22200 00145 10904 20903 328// 41201 70018
AAXX 16184 78318 11561 30705 10279 20188 30183 40187 58015 60001 70500 82202 333 10282 20167 31/// 56909 58004 82820
AAXX 16184 78325 11563 40607 10258 20186 30132 40190 58017 60001 70511 83202 333 10272 20191 30/// 56909 58004 83820 91114
AAXX 16184 78333 11410 70902 10258 20186 30178 40185 58016 60001 70511 8323/ 333 10258 20185 30/// 56209 58008 83819 85360 555 10902
AAXX 16184 78348 11556 70705 10252 20183 30133 40185 58017 60001 70522 87840 333 10252 20213 30/// 56290 57855 58004 70001 83821 87631 555 10902
AAXX 16184 78349 01420 80701 10228 20216 30085 40195 58006 69931 76186 8422/ 333 10263 20184 31/// 56199 57872 58003 69936 70003 84819 88460 555 10503
AAXX 16184 78353 01570 61001 10233 20217 30162 40184 58011 60031 72162 86800 333 10261 20220 31/// 56200 58009 60027 70041 83820 84626 555 10903
AAXX 16184 78360 12/70 60507 10293 20172 30150 40162 58018 60001 81402 333 10300 20180 30/// 56909 58008 818// 86// 92034
BBXX WC5932 16184 99417 70874 43/// /2709 00/// 10023 21044 40293 52004 7//// 8//// 22200 0//// 2//// 3//// 4//// 5//// 6//// 81002 ICE /////
BBXX WDA2768 16184 99458 70871 43/// /3609 00/// 11046 21089 40267 57004 7//// 8//// 22200 0//// 2//// 3//// 4//// 5//// 6//// 81070 ICE /////
BBXX WKDY 16183 99370 70121 41498 22813 10175 20159 40311 51003 70200 812/9 22224 00181 20204 333// 40605 5//// 6//// 80165 ICE /////
BBXX WRAH 16183 99367 10135 41598 32719 10180 2//// 40159 57011 70200 811/8 22264 00197 20304 324// 40605 5//// 6//// 8//// ICE /////
BBXX V7MO2 16184 99262 70914 41997 01105 10233 20190 40218 52002 7//// 80000 22200 00236 20201 315// 40502 5//// 6//// 80204 ICE /////
AAXX 16184 60115 32970 52312 10145 20033 40245 56003 80002 333 10208 85073
BBXX PDZS 16183 99540 50379 41092 82715 10045 20030 40150 54000 71040 886// 22232 02024 20301 301// 40402 5//// 80038
BBXX A8CJ2 16184 99286 50733 41598 70607 10215 20143 40185 54000 70222 84464 22284 04160 20601 323// 41004 5//// 80170
BBXX 62141 16183 99493 50591 41998 03628 10126 20124 40174 57008 70200 80000 22200 20604 336// 40602 5//// 80125
BBXX S6OM 16184 99233 11200 41/96 80231 10152 20140 40266 51014 70222 8//// 22200 00195 20303 302// 40605 5//// 80145
BBXX DCAX2 16183 99178 11436 41/92 91212 10280 20252 40135 58005 74344 8//// 22232 21204 318// 41204 5//// 80260
BBXX A8IE6 16184 99364 11236 41297 83320 10030 21053 40330 51010 70200 8/6// 22285 04107 20707 336// 40807 80000
BBXX V7SY6 16184 99139 10516 41997 10517 10280 20211 40270 54000 70100 80002 22223 0//// 20602 305// 40602 5//// 6//// 80220
BBXX A8PK8 16183 99144 10531 41398 60515 10245 20207 40141 51020 70111 83770 22215 04255 20404 323// 40603 5//// 80220
BBXX AMOUK20 16184 99185 50339 46/// ///// 10262 20214 30151 4//// 52012 91750
BBXX ZDLS1 16183 99442 30104 41397 73328 10095 20091 40009 57021 70222 876// 22253 04082 20408 329// 40610 80093
BBXX AMOUK15 16184 99159 50057 46/// ///// 10209 20146 30151 40175 57005 91750
BBXX AMOUK01 16184 99443 30104 46/// ///// 10101 20084 30013 40020 57008 91750
BBXX AMOUK17 16184 99335 30443 46/// ///// 10204 20186 30141 40155 54000 91750
BBXX DMDZ 16183 99239 70317 41598 50912 10240 20180 40220 54000 7//11 83164 22253 04230 20602 309// 40705 5//// 80200
BBXX V7LZ9 16183 99078 30655 41/98 19902 10280 20232 40100 54000 7//00 811// 22244 2//00 314// 4//02 5//// 80245
BBXX UBQE6 16181 99067 70135 41998 00000 10260 2//// 40091 53001 70200 80000 22274 00024 29999 39999 49999 59999
BBXX TBWUK12 16184 99297 50014 41/// /0229 10190 20174 40190 56020 7//// 8//// 22263 2//// 3//// 4//// 5//// 80180
BBXX OVSB2 16183 99234 30088 41598 81411 10183 20114 40172 55004 70222 885// 22234 00194 20402 317// 40704 5//// 80145
BBXX DDDO2 16184 99125 10593 41397 40524 10264 20216 40125 52010 70111 83770 22224 00270 2//// 80230
BBXX DCPX2 16184 99228 10378 41/98 /3217 10235 20158 40140 55000 70300 8//// 22234 04250 2//// 80185
BBXX 46036 16181 99484 71339 46/// /1914 10098 40165 57009 22200 00085 10707 70036 333 91217
BBXX 44140 16181 99429 70515 46/// /1307 10122 40183 57038 22200 00095 11104 70019 333 91209
BBXX KS094 16184 99133 70596 43/// /0505 10284 40116 22200 06274
BBXX KS098 16184 99441 71242 43/// /1503 10093 40316 22281 06000
BBXX KS088 16184 99267 70801 43/// /1006 10242 40207 22200 06223
BBXX 44258 16181 99445 70634 46/// /2510 10080 49987 57005 22200 00074 10805 70027 333 91212
BBXX VCXF 16184 99464 70484 41998 71719 10035 2002/ 40184 57032 70322 80009 22200 02029 20302 310// 40803 80030
BBXX VOXS 16184 99467 70480 41498 81812 10030 2002/ 40184 56036 70222 885// 22200 04025 20301 312// 40804 80025
BBXX 41113 16181 99284 70805 46/// ///// 1//// 91821 22200 00229 11102 20902 310// 41101 70009
BBXX 44100 16181 99363 70756 46/// ///// 1//// 91822 22200 00131 11302 21002 309// 41301 70010
BBXX 41110 16181 99341 70777 46/// ///// 1//// 91821 22200 00147 11001 21001 311// 41101 70007
BBXX 42099 16181 99273 70842 46/// ///// 1//// 91827 22200 00236 10502 20502 70008
BBXX 41112 16181 99307 70813 46/// ///// 1//// 91821 22200 00169 11102 21001 311// 41101 70008
BBXX 42363 16181 99282 70892 46/// /0804 10228 20161 40227 91830 333 91204
BBXX 42361 16181 99276 70925 46/// ///01 10244 20189 40203 58010 91830 555 11010 22011
BBXX 42362 16181 99278 70907 46/// /0901 10250 20189 40224 91830
BBXX 42364 16181 99291 70881 46/// /2202 10222 20172 40227 91830
BBXX 41010 16181 99289 70785 46/// /1204 10225 40220 91820 22200 00244 11003 20401 300// 41003 70016 333 91205 555 11039 22041
BBXX 42013 16181 99272 70829 46/// ///// 1//// 40220 91740 22200 00204
BBXX 41009 16181 99285 70802 46/// /1205 10237 20164 40218 91820 22200 00244 11003 20501 300// 41003 70015 333 91206 555 11053 22055
BBXX 46243 16181 99462 71241 46/// ///// 1//// 91829 22200 00087 11504 20802 327// 41503 70018
BBXX 46215 16181 99352 71209 46/// ///// 1//// 91808 22200 00153 11104 21003 328// 41102 70019
BBXX 46237 16181 99378 71226 46/// ///// 1//// 91810 22200 00112 11104 21003 327// 41102 70018
BBXX 46225 16181 99329 71174 46/// ///// 1//// 91814 22200 00146 11301 20901 328// 41301 70007
BBXX 46213 16181 99403 71247 46/// ///// 1//// 91824 22200 00106 11005 21004 329// 41703 70026
BBXX 46246 16181 99500 71451 46/// ///// 1//// 91829 22200 00074 11512 21006 329// 41510 70058
BBXX 46246 16181 99500 71451 46/// ///// 1//// 91759 22200 00074 11714 20906 328// 41712 70068
BBXX 46146 16181 99493 71237 46/// /1008 10065 40309 54000 22200 00067 10301 70004 333 91210
BBXX 46247 16181 99378 71228 46/// ///// 1//// 91821 22200 00117 11104 20903 328// 41102 70019
BBXX 46232 16181 99325 71174 46/// ///// 1//// 91808 22200 00145 11202 21002 328// 41201 70011
BBXX 44060 16181 99413 70721 46/// ///10 10078 40168 91830 22200 00109 333 91212 555 11108 22113
BBXX 44039 16181 99411 70727 46/// /3008 10084 21014 40187 91753 22200 00102 10502 70009 333 91211
BBXX 46004 16181 99509 71361 46/// /0202 10078 40124 57001 22200 00078 11807 70037 333 91203
BBXX V7MO2 16184 99262 70914 41997 01105 10233 20190 40218 52002 7//// 80000 22200 00236 20201 315// 40502 5//// 6//// 80204 ICE /////
BBXX A8NW9 16184 99293 70555 41596 60233 10240 20226 40195 55010 70362 864// 22213 04230 20505 301// 40709 80230
BBXX LAIP5 16183 99370 70516 41597 60515 10160 20133 40177 56024 70311 8699/ 22233 04176 20504 3//// 4//// 5//// 80145
BBXX 46184 16181 99539 71389 46/// /2703 10059 40120 52016 22200 00065 11711 70053 333 91205
BBXX 44057 16181 99395 70761 46/// /3307 1//// 40220 91810 333 91209
BBXX 44058 16181 99376 70763 46/// /0307 10096 40211 58003 91800 22200 00098 10302 70008 333 91208
BBXX 44043 16181 99392 70764 46/// /3107 10072 40220 58003 91800 22200 00078 10301 70005 333 91209
BBXX 44058 16181 99376 70763 46/// /0206 1//// 91810 333 91208
BBXX 44040 16181 99410 70736 46/// /3307 10077 21026 40198 91815 22200 10301 70004 333 91209 555 11088 22103
BBXX 44057 16181 99395 70761 46/// /3206 10070 40221 50000 91800 22200 00053 333 91207
BBXX 44059 16181 99368 70763 46/// /0507 1//// 91820 333 91210
BBXX 44062 16181 99386 70764 46/// /3508 1//// 91820 22200 00089 333 91209
BBXX 44062 16181 99386 70764 46/// /3408 1//// 40199 91810 22200 00089 333 91210
BBXX 44062 16181 99386 70764 46/// /3507 10077 40199 58006 91800 22200 00089 10301 70003 333 91209
BBXX 44063 16181 99390 70764 46/// /3206 1//// 91820 333 91209
BBXX 44042 16181 99380 70763 46/// /3507 1//// 91820 333 91208
BBXX 44059 16181 99368 70763 46/// /0507 10108 40202 50007 91800 22200 00112 333 91210
BBXX 44059 16181 99368 70763 46/// /0607 1//// 40203 91810 333 91211
BBXX 44057 16181 99395 70761 46/// /3307 1//// 91820 333 91209
BBXX 44043 16181 99392 70764 46/// /3107 1//// 40223 91810 333 91208
BBXX 44042 16181 99380 70763 46/// /0304 10093 40216 50000 91800 22200 00098 10201 70003 333 91206
BBXX 44043 16181 99392 70764 46/// /3106 1//// 91820 333 91208
BBXX 44042 16181 99380 70763 46/// /3606 1//// 40215 91810 333 91208
BBXX 44041 16181 99372 70768 46/// /0104 1//// 40232 91810 333 91206
BBXX 44041 16181 99372 70768 46/// /3605 1//// 91820 333 91207
BBXX 44041 16181 99372 70768 46/// /0105 10118 40232 50005 91800 22200 00100 1//00 70001 333 91207
BBXX 44063 16181 99390 70764 46/// /3206 1//// 40242 91810 333 91208
BBXX 44063 16181 99390 70764 46/// /3206 10072 40239 50000 91800 22200 00088 1//00 70001 333 91208
BBXX 46092 16181 99368 71220 46/// /0906 10084 40238 53006 91757 22200 00126 555 11057 22062
BBXX ZCEE2 16184 99198 70676 41/98 30433 10290 20172 40150 57027 70200 83100 22233 00270 20302 307// 40506 5//// 80215
BBXX VQHO7 16184 99093 70572 41598 40411 10310 20239 40094 57002 702// 83201 22274 00286 20302 308// 40606 5//// 80260
BBXX GDTT 16184 99205 70744 41498 50724 10285 20211 40175 58/// 7//11 85562 22233 00280 20508 80235
BBXX A8LP6 16184 99379 70378 41/96 81821 10200 20193 40220 57020 71022 88/// 22265 04137 2//// 325// 42008 80195
BBXX VQKZ6 16183 99120 70766 41398 80619 10273 20240 40114 50010 76062 84727 22253 02245 20304 306// 40706 5//// 80250
BBXX PBHZ 16183 99279 70883 41299 31516 10260 20252 40220 50/// 7//22 821// 22233 06269 20302 80254
BBXX DGAF 16183 99537 70382 41298 82417 10035 20012 40210 54000 78587 8371/ 22254 00080 20504 80025
BBXX 46181 16181 99538 71288 46/// /0506 11003 40212 52005 22200 00064 10200 70002 333 91207
BBXX 46205 16181 99542 71343 46/// /2306 10076 40127 52005 22200 00078 11006 70031 333 91207
BBXX 46206 16181 99488 71260 46/// /1508 10091 40291 52004 22200 00092 11604 70022 333 91211
BBXX 46208 16181 99525 71327 46/// /1503 10082 40142 5//// 22200 00075 11006 70028 333 91204
BBXX C6CU6 16183 99337 70421 41296 82026 10210 20194 40212 57040 70222 886// 22263 04200 20909 31531 41008 50908 80200
BBXX 46185 16181 99524 71298 46/// /1609 10081 40168 57001 22200 00077 10806 70032 333 91211
BBXX 46145 16181 99544 71324 46/// /1507 10070 40139 52001 22200 00072 11304 70018 333 91208
BBXX DAJC 16183 99257 71218 41498 83613 10190 20124 40200 54000 70382 8772/ 22224 04190 20904 333// 41404 5//// 80150
BBXX 46088 16181 99483 71232 46/// /1102 10072 40311 91820 22200 00080 1//00 70001 333 91203 555 11023 22023 31753 41204 61819 109022 115022 125026 128025 131025 127024
BBXX ZDLP 16183 99606 50517 41/92 92927 10026 20021 49937 57030 74544 89/// 22223 04005 20301 33126 40505 50503 80024
BBXX 46087 16181 99485 71247 46/// /1106 10082 20081 40310 91820 22200 00080 333 91208 555 11063 22068 31732 41108 61819 108060 113057 116063 119063 115063 112060
BBXX 44030 16181 99432 70704 46/// /2913 1//// 40098 53014 91804 22200 00092 10503 70014 333 91215 555 11160 22171
BBXX 44029 16181 99425 70706 46/30 /2810 10089 40112 53012 91804 22200 00092 10502 70010 333 91214 555 11131 22140
BBXX 41036 16181 99342 70770 46/// ///// 10192 20146 40204 91820 22200 00179
BBXX WDA2768 16184 99458 70871 43/// /3609 00/// 11046 21089 40267 57004 7//// 8//// 22200 0//// 2//// 3//// 4//// 5//// 6//// 81070 ICE /////
BBXX WC5932 16184 99417 70874 43/// /2709 00/// 10023 21044 40293 52004 7//// 8//// 22200 0//// 2//// 3//// 4//// 5//// 6//// 81002 ICE /////
BBXX MGSM3 16184 99249 31540 41198 32311 10230 20180 40116 52006 70200 83/// 22243 06250 20603 31717 41003 51003 80200
BBXX SHIP 1618/ 99215 30983 41497 81116 00/// 10227 20147 40131 53000 70322 884// 22223 00240 10803 308//
BBXX A8IQ2 16180 99028 30823 41698 72708 10280 20246 40105 53010 70011 8451/ 22253 00293 20502 327// 40603 5//// 80255
BBXX TBWUK17 16183 99106 30974 41597 52311 10271 20250 40122 52015 70211 85874 22253 04290 20101 31819 40403 50604 80256
BBXX VNAH 16184 99333 31157 46/// /1008 10177 20127 30067 40090 57011 22200 85147
BBXX VROB 16184 99171 31533 46/// /1223 10260 20225 30056 40081 57002 22243 04281 85235
BBXX FHZI 16184 99499 31458 46/// /2716 10081 20066 30214 40225 57004 22243 04097 85073
BBXX TBWUK35 16183 99365 70088 41598 82716 10185 20163 40279 55015 75082 884// 22263 00190 20402 333// 40805 80172
BBXX 2ALE5 16183 99375 70095 41597 52923 10170 20115 40269 55008 70211 855// 22284 20507 332// 40507 80140
BBXX V2OT9 16183 99372 70013 41997 52435 10180 20092 40170 56030 70211 83040 22253 20307 30000 4//// 5//// 80130
BBXX 61002 16184 99421 10047 46/// ///40 10147 2//// 40052 52050 22200 00153 10808 70042 555 1/054
BBXX 62087 16181 99547 10068 46/// /1704 10070 20035 4//// 5//// 22270 00089
BBXX A8OF6 16183 99473 70108 41296 73340 10110 20072 40210 52080 76222 867// 22253 04130 20308 329// 41014 80090
BBXX WRAH 16183 99367 10135 41598 32719 10180 2//// 40159 57011 70200 811/8 22264 00197 20304 324// 40605 5//// 6//// 8//// ICE /////
BBXX WKDY 16183 99370 70121 41498 22813 10175 20159 40311 51003 70200 812/9 22224 00181 20204 333// 40605 5//// 6//// 80165 ICE /////
BBXX A8DH2 16183 99343 70124 41498 60112 10190 20101 40318 53005 70222 86717 22222 04198 20102 30508 40302 50202 80142
BBXX ZNQO3 16180 99341 10233 41/97 52710 10180 20172 40194 58010 70222 8//// 22264 04178 2//// 3//// 4//// 5//// 80175
BBXX VRCZ7 16183 99376 10031 41/97 52740 10160 20124 40147 55/// 70322 85/// 22264 2//// 3//// 4//// 5//// 80140
BBXX MRGU3 16183 99413 70097 41398 82930 10145 20074 40256 55020 70222 887// 22284 04164 20810 329// 41210 5//// 80110
AAXX 16184 42309 31994 20000 10148 20134 40153 71000 82030 333 58008
AAXX 16184 42314 31594 30000 10150 20128 40162 71040 82530 333 58010 82620 83360
AAXX 16184 42410 31495 40000 10166 20166 40174 70522 82530 333 58008 82618 83359
AAXX 16184 42415 31995 20000 10144 20133 40178 70500 82030 333 59003 82360
AAXX 16184 42492 31/93 93203 10118 20106 40179 74540 333 58011
AAXX 16184 42587 31994 00000 10100 20079 40178 71000 333 58001
AAXX 16184 42591 31/90 90000 10082 20082 40181 74744 333 58004
AAXX 16184 42701 31995 02301 10106 20047 39422 40179 70500 333 58000
AAXX 16184 42724 31993 03203 10154 20147 40165 74240 333 59001
AAXX 16184 42798 31995 00000 10140 20102 40165 70500 333 58007
OOXX AAEMI 16184 99785 31731 57083 00521 46/// /2005 11109 21191 39870 49937 5//// 91800
AAXX 16184 91723 NIL
AAXX 16184 91964 NIL
BBXX 44137 16181 99423 70620 46/// /2613 10132 40050 57010 22200 00108 10808 70038 333 91217
BBXX 44137 16181 99423 70620 46/// /2613 10132 40050 57010 22200 00108 10808 70038 333 91217
AAXX 16181 31152 42997 81802 11315 21352 39761 40209 58007 83036
AAXX 16181 31163 NIL
AAXX 16181 31285 42999 22501 11299 21337 30086 40174 54000 80001
AAXX 16181 31561 42999 02501 11288 21306 30134 40165 54000
AAXX 16181 31683 42999 30000 11303 21315 30052 40135 58004 83030
AAXX 16181 32010 41496 63007 11152 21172 39970 40021 57011 78583 83930 333 91014 91114
AAXX 16184 71592 16/// /1001 11207 21234 39969 49982 57003 60001 333 11200 21239 70000
AAXX 16184 71963 16/// /1113 11240 21262 39696 40117 58020 60001 333 11238 21294 70000
AAXX 16184 71923 16/// ///06 11259 21281 39691 40158 58024 60001 333 11223 21274 70000
AAXX 16184 71761 16/// ///// 11038 21071 60001 333 11038 21162 70000
AAXX 16184 71490 16/// /2604 11274 21298 39823 40160 58007 60001 333 11256 21292 70000
AAXX 16184 60101 32458 72610 10150 20096 40301 56008 872// 333 10157 87816
AAXX 16184 60135 32456 30602 10106 20078 40309 57001 82502 333 10172 82615 83070
AAXX 16184 60156 15060 00109 10134 20093 40316 51004 69902 333 10174
AAXX 16184 60230 15957 20104 10179 20052 40279 58001 60002 80002 333 10245 82070
AAXX 16184 60252 12958 01905 10165 20097 40265 56001 60002 333 10244 95800
BBXX 44138 16181 99443 70536 46/// /1713 10086 40138 57042 22200 00104 11106 70028 333 91216
BBXX 44138 16181 99443 70536 46/// /1713 10086 40138 57042 22200 00104 11106 70028 333 91216
AAXX 16181 15090 01496 81501 10053 20050 39940 40033 58008 60022 72052 886// 333 10059 20051 31006 55300 10027 20001 3//// 60007 91002 91102 96010
AAXX 16181 24688 41999 20000 11418 21449 39219 40276 52004 77611 80001
BBXX VEP717 16184 99467 70487 41998 71528 10030 2003/ 40180 57040 70322 87030 22200 06030 20301 303// 40704 80029
AAXX 16181 98134 11460 70406 10200 20180 39999 40193 5//// 60011 70584 84270 333 56199 84819 87357
AAXX 16181 98223 32462 33607 10248 20213 40124 58010 81805 333 56999 81619 83079
AAXX 16181 98232 NIL
AAXX 16181 98325 32458 31802 10264 20238 40108 55001 82201 333 56999 82817
AAXX 16181 98328 31461 61101 10164 20148 38516 40082 58008 70544 81230 333 56999 81814 85358
AAXX 16181 98330 32475 20601 10266 20224 30079 40111 58013 81201 333 56999 81818
AAXX 16181 98336 11460 80405 10222 20220 30136 40141 57003 60141 76366 8352/ 333 56199 83615 88456
AAXX 16181 98429 31560 60604 10214 20219 40117 57014 70544 82230 333 56999 82825 86360
AAXX 16181 98430 31558 53601 10254 20224 40107 58006 70544 82170 333 56999 82820 83358
AAXX 16181 98431 11458 80602 10256 20240 30058 40105 56007 69961 70382 8485/ 333 56999 84818 88359
AAXX 16181 98440 11458 80905 10260 20245 30110 40115 58004 60021 78062 8622/ 333 56299 86815 88457
AAXX 16181 98444 11458 80503 10245 20238 30078 40097 58012 60241 78086 83270 333 56999 83818 88459
AAXX 16181 98526 32570 80402 10264 20237 40086 58012 8227/ 333 56999 82820 88358
AAXX 16181 98531 31568 80702 10268 20229 30078 40082 58010 70544 8227/ 333 56199 82820 88358
AAXX 16181 98536 11465 80404 10236 20218 39889 40088 58007 69901 72582 8327/ 333 56199 83818 88357
AAXX 16181 98543 11465 80402 10256 20241 30080 40091 58014 60121 71662 83507 333 56999 83618 88272
AAXX 16181 98550 11460 73402 10250 20242 40060 52028 60111 70162 82270 333 56999 82818 87357
AAXX 16181 98618 31470 63202 10261 20233 40077 58014 71322 83908 333 56999 81917 83819 86274
AAXX 16181 98630 32470 60205 10266 20247 40126 58009 82208 222// 2//03 333 56199 82818 86275
AAXX 16181 98637 NIL
AAXX 16181 98646 12559 83605 10254 20241 30046 40074 57030 69921 70262 8387/ 333 56899 83820 88459
AAXX 16181 98653 11460 80404 10279 20257 30000 40045 58005 69901 78044 8227/ 333 56199 82817 88358
AAXX 16181 98741 11460 82704 10250 20236 40044 57022 60301 76186 8552/ 333 56999 85617 88457
AAXX 16181 98747 11402 83604 10231 20227 39830 40034 53012 60971 76166 8662/ 333 56999 86716 88457
AAXX 16181 98753 NIL
AAXX 16181 98755 11575 82701 10250 20240 40061 58023 60871 72588 8357/ 333 56399 83620 88359
AAXX 16181 98836 32460 70000 10250 20236 40065 58012 81208 333 56999 81818 87281
AAXX 16184 48360 32960 00909 10198 20137 39905 40171 57000 333 58024
AAXX 16184 94210 35/// /2403 10263 30051 40056 57003
AAXX 16184 94289 46/// /1224 10280 30074 40081 53001 91815
AAXX 16184 94379 46/// /1219 10248 30123 40132 55002 91826
AAXX 16184 94997 46/// ///// 10009 30090 40105 5////
AAXX 16184 94290 46/// /1125 10275 30088 40097 53007 91824
AAXX 16184 89807 46/// /2618 11056 29082 39847 4//// 5//// 333 90700 91124
AAXX 16184 94997 46/// ///// 10009 30090 40105 5////
AAXX 16184 89807 46/// /2618 11056 29082 39847 4//// 5//// 333 90700 91124
AAXX 16184 94290 46/// /1125 10275 30088 40097 53007 91824
AAXX 16181 01293 11965 21801 11063 21070 39659 49870 52007 60002 70220 80001 333 11029 91104
AAXX 16184 08184 02570 50102 10137 20063 39893 40045 52021 60002 848// 333 10172 60007
BBXX 41053 16181 99185 70661 46/// /0407 10264 40140 91830 333 91209
BBXX 41053 16181 99185 70661 46/// /0407 10264 40140 91820 333 91208
BBXX 41053 16181 99185 70661 46/// /0507 10264 40142 91810 333 91209
BBXX SHIP 16184 99258 11219 41697 70331 10140 20105 40226 54/// 7//22 87527 22214 00240 299// 399// 4//// 80120
AAXX 16181 55228 32980 12702 11079 21353 36018 52011 80002 333 00200 10006
AAXX 16181 55578 32980 02206 10042 21303 36336 52014 333 00003 10109
AAXX 16181 55664 32980 00000 11087 21252 35997 52007 333 00158 10068
AAXX 16181 55773 32970 03601 11112 21172 36004 52004 333 00101 10029
AAXX 16181 56116 32680 71102 11028 21148 36307 52003 82402 333 05105 10017
AAXX 16181 56137 32780 70000 11017 21174 36761 52008 85502 333 05204 10103
AAXX 16181 56172 32980 00000 11044 21082 37332 57001 333 05353 10088
AAXX 16181 56247 32980 02001 10054 21126 37409 52008 333 05204 10147
AAXX 16181 56312 32680 80000 10013 21072 37085 52002 884// 333 00001 10066
AAXX 16181 56462 32580 82703 11017 21066 37140 57006 884// 333 05151 10051
AAXX 16181 56651 32980 02204 10054 21020 37651 52004 333 05105 10134
AAXX 16181 56691 11230 81602 11010 21014 37803 57004 69921 76664 887// 333 05302 11005 93428
AAXX 16181 56985 32560 61802 10091 20071 38756 40227 57004 82140 333 00052 10121
AAXX 16181 57633 11761 80701 10045 21061 39533 40336 57007 69901 70070 885// 333 05101 10085
AAXX 16181 57902 11450 81102 10031 20031 38695 40284 57005 69901 76000 885// 333 05200 10054
AAXX 16181 55279 32680 61402 11114 21336 35671 52003 85902 333 00253 11031
AAXX 16181 55472 32980 02502 11103 21275 35705 52008 333 00152 10006
AAXX 16181 55696 32980 00704 11055 21103 36328 52015 333 05100 10101
AAXX 16181 56079 11780 21601 11109 21126 36661 57011 69961 70080 82500 333 05400 11030
AAXX 16181 56106 32780 20702 11042 21294 36169 52004 82100 333 05106 10029
AAXX 16181 56257 32680 20000 11062 21140 36254 57002 82400 333 05200 10031
AAXX 16181 56374 11580 80903 11048 21072 37443 57004 69901 78580 884// 333 05400 10010
AAXX 16181 56385 11/00 93201 11087 21091 37018 57007 69981 77274 333 05300 11062
AAXX 16181 56954 31559 70701 10118 20116 40188 52004 71000 872// 333 00100 10234
AAXX 16181 56966 32768 61104 10164 20103 40195 52002 86400 333 00151 10243
AAXX 16181 57237 11965 80000 10053 20005 40302 57007 69901 70060 8807/ 333 10117
AAXX 16181 57306 11957 80000 10069 20068 40302 57010 60021 76066 8802/ 333 10072
AAXX 16181 57604 31730 83601 10077 20073 40290 57001 71000 885// 333 10089
AAXX 16181 57707 11450 81601 10009 20008 38552 57004 69951 76066 887// 333 05451 10033
AAXX 16181 57832 32762 80203 10044 21046 39562 40322 57004 885// 333 05200 10077
AAXX 16184 84202 31570 70904 10292 20191 30152 70544 81250 333 58005 555 30054
AAXX 16184 84143 32665 71604 10177 20109 37395 85830 333 58008 555 30064
AAXX 16184 84088 31560 62202 10153 20118 37063 71544 86200 333 59008 555 30080
AAXX 16184 84270 12670 63604 10216 20132 60021 86300 555 10024 30059
AAXX 16184 84036 11568 80402 10142 20127 69951 71544 8451/ 555 10005 30091
AAXX 16184 84135 32675 70402 10318 20205 30056 86158 333 58008 555 30051
AAXX 16184 84072 31565 70408 10179 20115 37289 71544 86330 333 58003 555 30066
AAXX 16184 84008 32680 12310 10277 20209 30123 40133 81800 00174 333 58007 555 30066
AAXX 16184 84076 11565 70504 10182 20115 69931 72054 84552 555 10003 30065
AAXX 16184 84056 31275 62708 10174 20087 70544 86800 555 30057
AAXX 16184 84226 31670 80000 10130 20130 74042 885// 555 30100
AAXX 16184 84050 31580 42704 10289 20200 70544 83130 555 30059
AAXX 16184 84140 32581 62302 10305 20191 30024 40109 86800 333 58002 555 30051
AAXX 16184 84179 31570 60903 10269 20200 39040 71544 85330 333 58005 555 30066
AAXX 16184 84160 31565 61404 10193 20090 37255 70544 83230 333 58003 555 30051
AAXX 16184 84132 11475 73204 10251 20233 39881 60061 72166 86870 333 58006 555 10063 30090
AAXX 16184 84105 31565 61406 10294 20194 31001 70544 84110 333 58000 555 30055
AAXX 16184 84204 31675 50902 10315 20191 70544 82239 555 30048
AAXX 16184 84045 31540 70000 10126 20100 74044 87800 555 30084
AAXX 16184 84001 31565 60605 10279 20180 30105 40125 70544 82130 333 58004
AAXX 16184 84010 31580 11514 10262 20203 70142 81100
AAXX 16184 84027 31570 60000 10139 20119 37168 47131 71542 84230 333 58008
AAXX 16184 84063 11420 80000 10240 20234 39747 40080 60051 79584 8592/ 333 58012 555 10053
AAXX 16184 84069 31565 72204 10259 20188 70342 85230
AAXX 16184 84071 31560 73408 10155 20100 37277 47127 71644 84230 333 58004
AAXX 16184 84099 11570 80000 10265 20226 3//// 40095 69981 70264 8451/ 333 5//// 555 10008
AAXX 16184 84101 31562 73008 10263 20224 30094 40108 70544 83130 333 58005
AAXX 16184 84117 31560 52608 10293 20205 30088 40111 70544 82130 333 58007
AAXX 16184 84123 31570 71604 10174 20110 37286 47124 71542 85250 333 58003
AAXX 16184 84147 31565 50000 10198 20138 70142 83130
AAXX 16184 84163 31570 41204 10263 20191 38928 48485 71622 83230 333 58003
AAXX 16184 84176 32680 50910 10222 20114 85200
AAXX 16184 84200 31965 22307 10247 20197 70544 82030
AAXX 16184 84203 31560 41204 10309 20165 30098 40103 70544 83230 333 58006
AAXX 16184 84217 11670 60606 10254 20202 69971 71584 83230 555 10007
AAXX 16184 84239 32680 50803 10221 20109 37527 47144 85200 333 59001
AAXX 16184 84252 31570 13407 10298 20219 30104 40112 70544 81200 333 58000
AAXX 16184 84265 11680 60000 10250 20152 38762 4//// 69954 70262 84130 333 59013 555 10005
AAXX 16184 84001 31565 60605 10279 20180 30105 40125 70544 82130 333 58004
AAXX 16184 84010 31580 11514 10262 20203 70142 81100
AAXX 16184 84027 31570 60000 10139 20119 37168 47131 71542 84230 333 58008
AAXX 16184 84063 11420 80000 10240 20234 39747 40080 60051 79584 8592/ 333 58012 555 10053
AAXX 16184 84069 31565 72204 10259 20188 70342 85230
AAXX 16184 84071 31560 73408 10155 20100 37277 47127 71644 84230 333 58004
AAXX 16184 84099 11570 80000 10265 20226 3//// 40095 69981 72064 8451/ 333 58/// 555 10008
AAXX 16184 84101 31562 73008 10263 20224 30094 40108 70544 83130 333 58005
AAXX 16184 84117 31560 52608 10293 20205 30088 40111 70544 82130 333 58007
AAXX 16184 84123 31570 71604 10174 20110 37286 47124 71542 85250 333 58003
AAXX 16184 84147 31565 50000 10198 20138 70142 83130
AAXX 16184 84163 31570 41204 10263 20191 38928 48485 71622 83230 333 58003
AAXX 16184 84176 32680 50910 10222 20114 85200
AAXX 16184 84200 31965 22307 10247 20197 70544 82030
AAXX 16184 84203 31560 41204 10309 20165 30098 40103 70544 83230 333 58006
AAXX 16184 84217 11670 60606 10254 20202 69971 71584 83230 555 10007
AAXX 16184 84239 32680 50803 10221 20109 37527 47144 85200 333 59001
AAXX 16184 84252 31570 13407 10298 20219 30104 40112 70544 81200 333 58000
AAXX 16184 84265 11680 60000 10250 20152 38762 4//// 69954 70262 84130 333 59013 555 10005
AAXX 1618/ 48969 NIL
AAXX 1618/ 48962 NIL
AAXX 1618/ 48990 NIL
AAXX 1618/ 48986 NIL
AAXX 1618/ 48995 NIL
AAXX 1618/ 48967 NIL
AAXX 1618/ 48992 NIL
AAXX 1618/ 48965 NIL
AAXX 1618/ 48985 NIL
AAXX 1618/ 48970 NIL
AAXX 1618/ 48991 NIL
AAXX 1618/ 48964 NIL
AAXX 1618/ 48997 NIL
AAXX 1618/ 48968 NIL
AAXX 1618/ 48973 NIL
AAXX 1618/ 48966 NIL
AAXX 1618/ 48983 NIL
AAXX 1618/ 48972 NIL
AAXX 1618/ 48998 NIL
AAXX 1618/ 48993 NIL
AAXX 1618/ 48971 NIL
AAXX 1618/ 48963 NIL
AAXX 1618/ 48987 NIL
AAXX 16184 68920 36/// /2002 10197 20143 30183 40196 52010 333 10226 20197 91003 555 91019
AAXX 16184 68925 36/// /1702 10174 20117 39821 40185 52013 333 10235 20174 91004 555 91019
AAXX 16184 48435 31958 21016 10190 20149 39709 40157 57003 71000 80005 333 58029
AAXX 16181 32061 41513 83305 11160 21166 30044 40085 57005 78683 889// 333 91008 91110
AAXX 16184 71048 16/// /1503 11068 21094 60001 333 11067 21127 70000
AAXX 16184 71406 17/// /1920 10035 20029 39897 49907 56035 60041 7//4/ 333 10035 21026 70047
AAXX 16184 71418 46/// /1716 10073 20065 39887 49919 58040 6///1 333 10100 20000 7////
AAXX 16184 71354 16/// /2710 11007 21065 60001 333 11007 21140 70005
AAXX 16184 71277 46/// /2005 11029 21057 6///1 333 11021 21118 7////
AAXX 16184 71981 16/// /2510 10014 21054 60001 333 10017 21114 70006
AAXX 16184 71982 16/// /2804 11059 21098 60001 333 11056 21131 70000
AAXX 16184 71986 16/// /1905 11092 21104 60001 333 11089 21147 70000
AAXX 16184 71990 16/// /2516 11093 21108 38473 40086 51009 60001 333 11083 21121 70043 555 10060
AAXX 16184 16022 11/00 92031 11024 21027 37589 48222 57039 69902 77174 333 11015 48014 89/00 92805 93102
BBXX 42360 16181 99267 70905 46/// /1205 10227 91800 22200 00246 10703 70013 333 91207
BBXX 44056 16181 99362 70757 46/// ///// 1//// 91750 22200 00131 11302 21001 309// 41301 70010
BBXX 41052 16181 99183 70648 46/// /0407 10264 40133 58016 91800 22200 00279 333 91209
BBXX 41052 16181 99183 70648 46/// /0308 10264 40135 91750 333 91210
BBXX 41052 16181 99183 70648 46/// /0407 10264 40135 91740 333 91209
AAXX 16184 60692 36/// /0702 10209 21087 333 10255
AAXX 16184 60677 36/// /0000 10149 21064 333 10209
AAXX 16184 60691 36/// /0607 10195 21109 333 10251
AAXX 16184 60662 36/// /0000 10139 21082 333 10180
AAXX 16184 60676 36/// /0614 10130 21006 333 10161
AAXX 16184 60633 36/// /1704 10219 21119 333 10263
AAXX 16184 60667 36/// /0000 10165 21011 333 10196
AAXX 16184 60661 36/// /0205 10149 21118 333 10224
AAXX 16184 60650 36/// /0610 10202 21066 333 10236
AAXX 16184 60679 36/// /3614 10054 21171 333 10135
AAXX 16184 60672 36/// /0000 10159 21143 333 10199
AAXX 16181 38844 429// 02701 11022 21095 48500 51003
AAXX 16184 89657 46/// /1516 11065 20004 49797 52003
AAXX 16184 89528 46/// /3539 4//// 5////
AAXX 16184 89628 46/// /3121 4//// 5////
BBXX A8RL4 16184 99178 70180 41997 50614 10250 40150 57025 7//// 85/7/ 22244 00230 20301 302// 40402
BBXX 41052 16181 99183 70648 46/// /0307 10266 40132 91830 333 91209
BBXX 41052 16181 99183 70648 46/// /0307 10264 40133 91820 333 91208
BBXX 41052 16181 99183 70648 46/// /0308 10263 40133 91810 333 91209
BBXX 44024 16181 99423 70659 46/28 /2813 10097 40063 91804 22200 00089 10808 70040 333 91216 555 11159 22171
AAXX 16184 82917 21558 71708 10282 20255 39843 40062 71562 85230 333 59007 60081
AAXX 16184 83599 31997 299// 10285 20264 40020 56015 71000 82/3/ 222// 0501 80270
AAXX 16184 83925 32697 70607 10230 20204 40050 57004 7030/ 8740/ 222// 20401 80212
AAXX 16184 83970 41398 52801 10260 20188 30040 40044 57010 7032/ 85280 222// 02230 20000 80210
AAXX 16184 83437 31596 82304 10256 20223 39362 40073 71622 8597/ 333 58003
AAXX 16184 83579 21598 73202 10228 20205 38974 40078 70362 87800 333 58014 60031
AAXX 16184 83592 21597 60507 10244 20201 39420 40095 70365 83460 333 59001 60031
AAXX 16184 83811 32597 63202 10260 20128 39177 40073 58006 83490
AAXX 16184 83844 32597 305// 10286 20203 30034 40041 54000 81260
AAXX 16184 83887 32597 72710 10206 20107 39031 40069 57010 85260
AAXX 16184 83907 32497 52309 10288 20146 39783 40060 56007 85200
AAXX 16184 83914 31596 73213 10242 20112 39291 40049 57010 71722 83920
AAXX 16184 83919 21395 73209 10166 20137 38906 40081 57004 72521 8572/ 333 60011
AAXX 16184 83927 32597 51804 10238 20150 39999 40069 57008 85200
AAXX 16184 83936 31496 63204 10270 20160 39932 40052 57011 70541 86400
AAXX 16184 83948 21497 60502 10233 20205 30030 40036 58003 70251 84360 333 69901
AAXX 16184 83964 32597 42302 10239 20150 39555 40036 57006 84200
AAXX 16184 83995 21597 60902 10232 20202 30030 40033 56010 70352 86200 333 69921
AAXX 16184 83384 32597 73204 10256 20208 39516 40090 85380 333 58025
AAXX 16184 83386 21498 70501 10253 20240 39541 40067 70286 81371 333 58003 60101
AAXX 16184 83388 32497 60506 10306 20193 39399 40055 8421/ 333 58002
AAXX 16184 83393 32599 80503 10286 20175 39379 40088 85830 333 58009
AAXX 16184 83442 32597 70000 10294 20221 39735 40079 81332 333 58020
AAXX 16184 83479 21598 53208 10277 20204 39292 40079 70181 85300 333 58016 60031
AAXX 16184 83483 21598 83203 10247 20228 39521 40083 70262 8572/ 333 58013 60011
AAXX 16184 83531 21597 73204 10230 20205 39050 40074 70162 87700 333 58004 60021
AAXX 16184 83538 21394 83603 10195 20188 38685 40075 76352 886// 333 58010 60021
AAXX 16184 83582 21598 83604 10256 20204 39312 40070 57010 76362 88700 333 60191
AAXX 16184 83595 21596 80000 10260 20240 30020 40104 76065 885// 333 58028 60021
AAXX 16184 83692 21697 83606 10226 20214 39048 40070 58008 72162 882// 333 60041
BBXX C6YA5 16183 99455 50568 41998 40418 10167 2//// 40190 56010 7//// 8///1 22284 00180 20401 304// 40805 5//// 6//// 8//// ICE /////
BBXX ZCDQ5 16183 99346 10255 43598 13327 10140 20110 40160 54000 70202 8534/ 22274 00132 20204 80120
BBXX SHIP 16184 99258 11219 41697 70331 10140 20105 40226 54/// 7//22 87527 22214 00240 299// 399// 4//// 80120
BBXX C6YA5 16183 99455 50568 41998 40418 10167 2//// 40190 56010 7//// 8///1 22284 00180 20401 304// 40805 5//// 6//// 8//// ICE /////
BBXX 41052 16181 99183 70648 46/// /0407 10264 40135 91740 333 91209
BBXX 41052 16181 99183 70648 46/// /0308 10264 40135 91750 333 91210
BBXX 41052 16181 99183 70648 46/// /0407 10264 40133 58016 91800 22200 00279 333 91209
BBXX 44056 16181 99362 70757 46/// ///// 1//// 91750 22200 00131 11302 21001 309// 41301 70010
BBXX 42360 16181 99267 70905 46/// /1205 10227 91800 22200 00246 10703 70013 333 91207
BBXX 41053 16181 99185 70661 46/// /0407 10264 40140 91820 333 91208
BBXX 41053 16181 99185 70661 46/// /0507 10264 40142 91810 333 91209
BBXX 41053 16181 99185 70661 46/// /0407 10264 40140 91830 333 91209
BBXX C6OT4 16184 99215 71677 41298 60915 10250 20212 40182 53009 70322 857// 22223 04258 21006 331// 41206 5//// 80225
BBXX 44138 16181 99443 70536 46/// /1713 10086 40138 57042 22200 00104 11106 70028 333 91216
BBXX 44137 16181 99423 70620 46/// /2613 10132 40050 57010 22200 00108 10808 70038 333 91217
BBXX 44040 16181 99410 70736 46/// /3307 10077 21026 40198 91819 22200 10301 70004 333 91209 555 11088 22103
BBXX 41024 16181 99338 70785 46/// /2104 10166 40209 91800
BBXX 44097 16181 99410 70711 46/// ///// 1//// 91802 22200 00127 10906 20905 317// 41102 70028
BBXX 44022 16181 99409 70737 46/// ///08 10074 21038 40195 91830 22200 00093 333 91211 555 11082 22088
BBXX 51205 16181 99210 71564 46/// ///// 1//// 91818 22200 00241 11504 20903 333// 41503 70022
BBXX 46238 16181 99334 71195 46/// ///// 1//// 91820 22200 00145 10904 20903 328// 41201 70018
BBXX 62095 16184 99530 70159 46/// /3125 10070 20013 40164 52027 22200 00113 10912 70060 333 90710 91137
BBXX 62095 16184 99530 70159 46/// /3125 10070 20009 40178 52027 22200 00113 10912 70060 333 90710 91137
BBXX DAXJ 16183 99364 70124 41598 32615 10181 20137 40315 53005 70200 81561 22234 00178 20403 334// 40907 5//// 80154
BBXX 62107 16184 99501 70061 46/// /3443 10096 20035 40025 51025 22200 00114 10807 70035 333 90710 91153
AAXX 16181 47008 42970 00000 11104 21179 30211 40268 58003
AAXX 16181 47014 42950 00000 11181 21222 39874 40311 52004
AAXX 16181 47016 42970 00000 11242 21273 39419 40344 58008
AAXX 16181 47020 42965 00000 11182 21201 39946 40362 58003
AAXX 16181 47025 42960 03201 11108 21204 30233 40264 52003
AAXX 16181 47035 42970 00000 11129 21165 30346 40353 54000
AAXX 16181 47041 42970 00000 11116 21163 30246 40275 52001
AAXX 16181 47055 42970 03201 11078 21144 30239 40287 57007
AAXX 16181 47058 42960 00000 11104 21167 30284 40335 58003
AAXX 16181 47069 42965 03402 11074 21139 30222 40328 53001
AAXX 16181 47003 42980 03206 11099 21210 30268 40272 58001
AAXX 16181 47005 42980 01802 11246 21263 38603 58003
AAXX 16181 47022 42975 00000 11227 21259 38855 52001
AAXX 16181 47028 42964 00000 11137 21198 30229 40331 58008
AAXX 16181 47031 42970 00000 11234 21252 38961 58009
AAXX 16181 47037 42970 03602 11117 21159 30198 40331 58002
AAXX 16181 47039 42960 00000 11148 21182 30130 40339 54000
AAXX 16181 47046 42969 00000 11088 21142 30247 40271 52002
AAXX 16181 47050 42965 00000 11132 21167 30288 40325 52001
AAXX 16181 47052 42965 00000 11180 21206 39967 40349 52013
AAXX 16181 47060 42960 00501 11092 21142 30273 40336 54000
AAXX 16181 47061 42980 01403 11076 21131 30227 40273 57003
AAXX 16181 47065 42970 03201 11108 21160 30265 40335 52001
AAXX 16181 47067 42965 00000 11122 21159 30211 40441 57001
AAXX 16181 47068 42970 60501 11110 21131 30286 40323 54000 86030
AAXX 16181 47070 42970 00000 11120 21147 30240 40335 52005
AAXX 16181 47075 42980 00000 11143 21186 39812 40273 52010
AAXX 16184 47746 11360 80909 10009 21004 30221 40241 51008 60071 78582 882//
AAXX 16181 45032 36/// /3503 10137 20028 30242 40259 54000
AAXX 16181 45035 36/// /0603 10143 20051 30213 40255 54000
AAXX 16181 45039 36/// /0303 10147 20051 30238 40253 54000
AAXX 16181 45044 36/// /0106 10151 20072 30152 40247 57001
AAXX 16181 45032 36/// /3503 10137 20028 30242 40259 54000
AAXX 16181 45035 36/// /0603 10143 20051 30213 40255 54000
AAXX 16181 45039 36/// /0303 10147 20051 30238 40253 54000
AAXX 16181 45044 36/// /0106 10151 20072 30152 40247 57001
AAXX 16184 89646 46/// /0107 11310 29071 37521 4//// 5////
AAXX 16184 89648 46/// /1908 11338 29069 37116 4//// 5////
AAXX 16184 89659 46/// /1706 11217 29077 37614 4//// 5////
AAXX 16184 89661 46/// /2503 11077 29087 39222 4//// 5////
AAXX 16184 89662 42558 82505 11038 21093 39774 49878 52003 8552/ 222 ICE 98015 333 21050 85633 88457
AAXX 16184 89666 46/// /3501 11067 29074 39703 4//// 5////
BBXX MINFR05 1618/ 99496 70003 46/// ///// 10080 49982 52041
AAXX 16184 71974 46/// /1604 11365 21400 30088 40133 52008 6///1 333 11282 21377 7////
AAXX 16184 71793 16/// ///// 11074 21088 60001 333 11074 21147 70000
AAXX 16184 71565 17/// /1309 11064 21093 69941 7//4/ 333 11064 21105 70004
AAXX 16184 71566 16/// /2203 11053 21077 60001 333 11053 21095 70000
AAXX 16184 71567 16/// /2510 11057 21076 60001 333 11057 7////
AAXX 16184 71495 16/// /2510 10017 21073 60001 333 10017 21112 70000
AAXX 16184 71073 16/// /1806 11043 21099 60001 333 11038 21118 70000
AAXX 16184 71848 16/// ///// 11031 21083 60001 333 11002 21100 70000
AAXX 16184 71012 16/// /2210 11043 21070 60001 333 11043 21113 70000
AAXX 16184 71060 16/// /3303 10018 21085 38666 40259 53012 60001 333 10018 21090 70000
AAXX 16184 71399 16/// ///// 11073 21085 60001 333 11073 21149 70000
AAXX 16184 68479 36/// /1309 10216 20150 38984 48550 52025 333 10294 20216 91015 555 91021
BBXX 46004 16181 99509 71361 46/// /0202 10078 40124 57001 22200 00078 11807 70037 333 91203
BBXX 46036 16181 99484 71339 46/// /1914 10098 40165 57009 22200 00085 10707 70036 333 91217
BBXX KS098 16184 99441 71242 43/// /1503 10093 40316 22281 06000
AAXX 16181 38846 419// 00404 11014 21033 38562 48520 57008 71000
AAXX 16181 38933 327// 80000 10008 21035 39777 40310 57007 585// 333 10037
AAXX 16181 38598 429// 00919 11291 21022 43390 57008 333 91017
BBXX 46241 16181 99330 71173 46/// ///// 1//// 91811 22200 00143 11201 21001 327// 41201 70006
AAXX 16181 89063 41/93 90109 10007 20004 39686 49697 57030 77576 333 44124 91121
AAXX 16184 63705 32560 51603 10222 20199 38850 48505 82907 10247 59008 82621 81923 84377 10205
AAXX 16184 96009 01456 80000 10250 20232 30060 40085 57016 60181 72162 8692/ 333 56009 57903 60177 82917 84617 80965
AAXX 16184 96645 31440 70000 10252 20248 30040 40072 57014 71022 85572 333 56000 85612
AAXX 16184 97182 01460 80604 10240 20229 30076 40080 57012 60051 76162 8322/ 333 56009 57800 60037 83819 86459 808//
BBXX 46239 16181 99363 71221 46/// ///// 1//// 91821 22200 00129 11006 21005 330// 41103 70030
BBXX 46229 16181 99438 71246 46/// ///// 1//// 91821 22200 00103 11704 20803 329// 41703 70021
BBXX 46216 16181 99343 71198 46/// ///// 1//// 91827 22200 00143 11202 20902 327// 41201 70011
BBXX 46223 16181 99335 71178 46/// ///// 1//// 91830 22200 00154 11302 21001 328// 41301 70008
BBXX 46231 16181 99327 71174 46/// ///// 1//// 91824 22200 00143 11202 21001 328// 41201 70008
BBXX 46222 16181 99336 71183 46/// ///// 1//// 91826 22200 00151 11201 20801 327// 41201 70007
BBXX 46242 16181 99332 71174 46/// ///// 1//// 91828 22200 00148 11301 20501 323// 41301 70005
BBXX 46214 16181 99379 71235 46/// ///// 1//// 91825 22200 00118 11005 21004 331// 41103 70025
BBXX 46221 16181 99339 71186 46/// ///// 1//// 91815 22200 00154 11301 20701 325// 41301 70007
BBXX AMOUK08 16184 99501 70061 46/// ///// 10099 20049 30018 4//// 52034 91750
BBXX 63110 16184 99595 10015 47598 /3119 10067 20016 49881 52009 700// 22200 10706 70029
BBXX 63055 16184 99606 10016 47995 /3021 10049 20012 49864 53014 704// 22200 10706 70030
BBXX 63106 16184 99610 10017 46/// /3121 10047 49858 52015 22200
BBXX 63113 16184 99610 10017 46/// /3224 10043 20004 49864 53020 22200 10707 70035
BBXX 62103 16184 99499 70029 46/99 /2930 10087 20020 49990 52042 22200 00122 10907 70035 333 90710 91142
BBXX 62095 16184 99530 70159 46/// /3125 10070 20013 40164 52027 22200 00113 10912 70060 333 90710 91137
BBXX 44099 16181 99369 70757 46/// ///// 1//// 91822 22200 00121 11303 20402 310// 41301 70013
BBXX 9MBW7 16184 99174 11199 41397 80109 10285 20250 40070 51001 70303 88/// 22214 00290 2//// 80260
BBXX V7OE6 16183 99080 10761 41498 72206 10272 20228 40109 51005 70222 8486/ 22274 00300 20302 80242
BBXX DDYL2 16183 99122 11109 41/98 /0326 10246 20221 40120 58015 70322 8//// 22254 00260 2//// 80228
BBXX 9VDD2 16184 99387 11358 41596 93132 11020 21050 40210 52005 7//33 89/// 22253 04010 20812 33030 40812 50812 81030
BBXX VRBQ6 16184 99339 71487 41398 82712 10200 20169 40204 51010 75252 885// 22225 00194 20404 318// 40504 80180
BBXX DQVN 16183 99055 11068 41498 50313 10265 20237 40100 54000 7//// 851// 22254 00274 2//// 80245
BBXX VQOG5 16184 99048 11041 41498 60430 10272 20239 40088 54000 70222 842// 22243 00267 2//// 80249
BBXX TBWUK37 16184 99109 11182 41598 60225 10280 20252 40069 54000 72582 8434/ 22284 04290 20806 302// 41006 80260
BBXX A8CQ5 16183 99060 10945 41597 60518 10280 20/// 40090 54000 70311 8699/ 22214 04300 2////
BBXX 3FUL2 16183 99069 11069 41398 70416 10260 20246 40122 54000 70322 83718 22214 04300 20302 303// 40504 80250
BBXX ZQDI9 16183 99044 10989 41497 80308 10286 20242 40091 58003 70222 8371/ 22233 00286 20301 80255
BBXX DDZF2 16184 99061 10955 41697 51014 10280 20239 40100 54000 70322 82474 22224 00290 20603 80250
BBXX A8SZ5 16184 99010 31189 41498 21504 10270 20243 40050 54000 703// 821// 22243 00/// 2//01 80250
BBXX A8HJ8 16183 99012 11034 41/96 /3509 10260 20241 40092 54000 70200 8//// 22200 00/// 20302 80246
AAXX 16184 91824 11499 31002 10259 20248 40153 52013 60001 70222 838/2 333 562/9 555
AAXX 16184 =201////
AAXX 16184 Scanned by MailMarshal - M86 Security's comprehensive email content s ecur
AAXX 16184 ity solution.
AAXX 16184 --_000_15A73B2E9A32B34CBBB7D7F59DAEB2C0DCC005B7mailniuegovloca_ html code found in mail The rest of this message has been deleted
BBXX 44039 16181 99411 70727 46/// /3008 10084 21016 40188 91830 22200 00102 10502 70009 333 91211
AAXX 16184 71006 16/// /2510 11001 21068 60001 333 11001 21129 70000
AAXX 16184 71007 16/// ///// 11019 21062 60001 333 11019 21128 7////
AAXX 16184 71008 16/// /2614 11067 21101 60001 333 11067 21142 70000
AAXX 16184 71009 16/// /3401 11080 21097 60001 333 11070 21129 70000
AAXX 16184 71035 16/// ///// 11064 21096 60001 333 11059 21162 70000
AAXX 16184 71433 46/// /3408 11082 21141 30035 40273 50005 6///1 333 11029 21084 7////
AAXX 16184 71841 16/// /3006 11162 21212 39876 40298 58003 60001 333 11162 21236 70027
AAXX 16184 71051 46/// ///// 11085 21096 6///1 333 11078 7////
AAXX 16184 71057 16/// ///// 11036 21089 60001 333 11033 21135 70000
AAXX 16184 71070 16/// ///// 11022 21060 60001 333 11022 21115 7////
AAXX 16184 71089 16/// ///// 11036 21066 60001 333 11036 21125 70000
AAXX 16184 71409 16/// ///// 11051 21082 60001 333 11051 21138 70004
AAXX 16184 71102 16/// ///// 11048 21066 60001 333 11048 21132 70000
AAXX 16184 71105 16/// ///// 11079 21090 60001 333 11079 21148 70000
AAXX 16184 71502 16/// /0603 11236 21254 30104 40120 55002 60001 333 11231 21269 70000
AAXX 16184 71517 16/// /2823 10026 21040 60001 333 10031 21111 7////
AAXX 16184 71518 46/// /2204 11027 21059 6///1 333 11027 21137 7////
AAXX 16184 71519 16/// /2405 11013 21051 60001 333 11013 21132 70000
AAXX 16184 71528 16/// /2616 10005 21041 60001 333 10005 21108 70000
AAXX 16184 71789 16/// ///// 10017 21047 60001 333 10017 21126 70000
AAXX 16184 71791 16/// /2414 11034 21066 60001 333 11034 21124 70000
AAXX 16184 71794 16/// ///// 11045 21071 60001 333 11045 21130 70000
AAXX 16184 71795 16/// ///// 11012 21063 60001 333 11012 21118 70009
AAXX 16184 71796 16/// ///// 11034 21074 60001 333 11034 21132 70000
AAXX 16184 71797 16/// ///// 11035 21061 60001 333 11035 21127 70000
AAXX 16184 63671 32980 00000 10268 20184 333 10305
AAXX 16184 63772 32580 21208 10275 20251 82500 10314 82620
AAXX 16184 71841 16/// /3006 11162 21212 39876 40298 58003 60001 333 11162 21236 70027
AAXX 16184 71433 46/// /3408 11082 21141 30035 40273 50005 6///1 333 11029 21084 7////
BBXX VRIB2 16184 99178 10676 41998 /0308 10260 20202 40147 51010 70200 8//// 22234 0//// 2//// 3//// 4//// 80220
BBXX VRIB2 16184 99178 10676 41998 /0308 10260 20202 40147 51010 70200 8//// 22234 0//// 2//// 3//// 4//// 80220
AAXX 16184 96995 46/// /1310 10240 20240 39778 40072
AAXX 16184 96995 46/// /1310 10240 20240 39778 40072
AAXX 16184 61202 NIL
AAXX 16184 61214 NIL
AAXX 16184 61223 32960 50604 10247 21026 39852 40153 80002 333 10285 59002 85075
AAXX 16184 61226 32960 10604 10250 20044 39849 40150 80002 333 10295 58000 81075
AAXX 16184 61230 32960 70608 10203 21078 39842 40113 84042 333 10309 58004 84365 85075
AAXX 16184 61233 32960 70804 10266 21018 3//// 4//// 80002 333 10315 5//// 87075
AAXX 16184 61235 32960 70408 10290 21046 3//// 4//// 80002 333 10320 5//// 87075
AAXX 16184 61240 32960 50000 10260 20013 39810 40138 80002 333 10305 58004 85075
AAXX 16184 61250 32960 40000 10265 20071 3//// 4//// 80002 333 10295 5//// 84075
AAXX 16184 61257 32960 70410 10300 21034 30061 40116 80002 333 10328 58010 87075
AAXX 16184 61265 32970 50404 10267 21034 39815 40126 80002 333 10317 58002 85075
AAXX 16184 61270 32960 60406 10300 20028 3//// 4//// 80002 333 10335 5//// 86075
AAXX 16184 61272 32960 60000 10270 20077 39798 40126 80002 333 10330 59005 86075
AAXX 16184 61277 32960 30000 10286 20010 39799 40121 81042 333 10326 59005 81365 83075
AAXX 16184 61285 32960 60804 10312 20008 39962 40112 80002 333 10338 58005 86075
AAXX 16184 61291 32960 60604 10280 20048 39699 40112 80002 333 10315 58006 86075
AAXX 16184 61293 32960 70404 10290 20072 3//// 4//// 80002 333 10323 5//// 87075
AAXX 16184 61296 32960 60000 10285 20126 3//// 4//// 81042 333 10335 5//// 81365 86075
AAXX 16184 61297 32960 73406 10290 20042 3//// 4//// 80002 333 10320 5//// 87075
AAXX 16184 61202 32965 20402 10245 21065 39604 40159 80002 333 10280 59012 82075
AAXX 16184 61214 NIL
AAXX 16184 61223 32960 50604 10247 21026 39852 40153 80002 333 10285 59002 85075
AAXX 16184 61226 32960 10604 10250 20044 39849 40150 80002 333 10295 58000 81075
AAXX 16184 61230 32960 70608 10203 21078 39842 40113 84042 333 10309 58004 84365 85075
AAXX 16184 61233 32960 70804 10266 21018 3//// 4//// 80002 333 10315 5//// 87075
AAXX 16184 61235 32960 70408 10290 21046 3//// 4//// 80002 333 10320 5//// 87075
AAXX 16184 61240 32960 50000 10260 20013 39810 40138 80002 333 10305 58004 85075
AAXX 16184 61250 32960 40000 10265 20071 3//// 4//// 80002 333 10295 5//// 84075
AAXX 16184 61257 32960 70410 10300 21034 30061 40116 80002 333 10328 58010 87075
AAXX 16184 61265 32970 50404 10267 21034 39815 40126 80002 333 10317 58002 85075
AAXX 16184 61270 32960 60406 10300 20028 3//// 4//// 80002 333 10335 5//// 86075
AAXX 16184 61272 32960 60000 10270 20077 39798 40126 80002 333 10330 59005 86075
AAXX 16184 61277 32960 30000 10286 20010 39799 40121 81042 333 10326 59005 81365 83075
AAXX 16184 61285 32960 60804 10312 20008 39962 40112 80002 333 10338 58005 86075
AAXX 16184 61291 32960 60604 10280 20048 39699 40112 80002 333 10315 58006 86075
AAXX 16184 61293 32960 70404 10290 20072 3//// 4//// 80002 333 10323 5//// 87075
AAXX 16184 61296 32960 60000 10285 20126 3//// 4//// 81042 333 10335 5//// 81365 86075
AAXX 16184 61297 32960 73406 10290 20042 3//// 4//// 80002 333 10320 5//// 87075
AAXX 16181 89063 41/93 90109 10007 20004 39686 49697 57030 77576 333 44124 91121
BBXX VQGQ4 16184 99217 11456 41/98 /0914 10270 20249 40130 51010 70352 8//// 22284 00279 2//// 80255
BBXX SHIP 16181 99265 11212 41/97 80314 10110 20076 40288 51007 70222 88/// 22213 00165 2//// 3//// 4//// 80090
BBXX DDZF2 16184 99061 10955 41697 51014 10280 20239 40100 54000 70322 82474 22224 00290 20603 80250
BBXX DQVN 16183 99055 11068 41498 50313 10265 20237 40100 54000 7//// 851// 22254 00274 2//// 80245
BBXX SHIP 16184 99174 11199 41397 80109 10285 20250 40070 51001 70303 88/// 22214 00290 2//// 80260
BBXX DDYL2 16183 99122 11109 41/98 /0326 10246 20221 40120 58015 70322 8//// 22254 00260 2//// 80228
BBXX V7OE6 16183 99080 10761 41498 72206 10272 20228 40109 51005 70222 8486/ 22274 00300 20302 80242
BBXX 9VDD2 16184 99387 11358 41596 93132 11020 21050 40210 52005 7//33 89/// 22253 04010 20812 33030 40812 50812 81030
BBXX TBWUK37 16184 99109 11182 41598 60225 10280 20252 40069 54000 72582 8434/ 22284 04290 20806 302// 41006 80260
BBXX A8CQ5 16183 99060 10945 41597 60518 10280 20/// 40090 54000 70311 8699/ 22214 04300 2////
BBXX 3FUL2 16183 99069 11069 41398 70416 10260 20246 40122 54000 70322 83718 22214 04300 20302 303// 40504 80250
BBXX VRIB2 16184 99178 10676 41998 /0308 10260 20202 40147 51010 70200 8//// 22234 0//// 2//// 3//// 4//// 80220
BBXX A8RL4 16184 99178 70180 41997 50614 10250 40150 57025 7//// 85/7/ 22244 00230 20301 302// 40402
BBXX 44039 16181 99411 70727 46/// /3008 10084 21016 40188 91830 22200 00102 10502 70009 333 91211
BBXX SHIP 16184 99339 71487 41398 82712 10200 20169 40204 51010 75252 885// 22225 00194 20404 318// 40504 80180
BBXX 44099 16181 99369 70757 46/// ///// 1//// 91822 22200 00121 11303 20402 310// 41301 70013
BBXX 46231 16181 99327 71174 46/// ///// 1//// 91824 22200 00143 11202 21001 328// 41201 70008
BBXX 46214 16181 99379 71235 46/// ///// 1//// 91825 22200 00118 11005 21004 331// 41103 70025
BBXX 46229 16181 99438 71246 46/// ///// 1//// 91821 22200 00103 11704 20803 329// 41703 70021
BBXX 46221 16181 99339 71186 46/// ///// 1//// 91815 22200 00154 11301 20701 325// 41301 70007
BBXX 46216 16181 99343 71198 46/// ///// 1//// 91827 22200 00143 11202 20902 327// 41201 70011
BBXX 46223 16181 99335 71178 46/// ///// 1//// 91830 22200 00154 11302 21001 328// 41301 70008
BBXX 46242 16181 99332 71174 46/// ///// 1//// 91828 22200 00148 11301 20501 323// 41301 70005
BBXX 46222 16181 99336 71183 46/// ///// 1//// 91826 22200 00151 11201 20801 327// 41201 70007
BBXX 46239 16181 99363 71221 46/// ///// 1//// 91821 22200 00129 11006 21005 330// 41103 70030
BBXX 46241 16181 99330 71173 46/// ///// 1//// 91811 22200 00143 11201 21001 327// 41201 70006
BBXX 44024 16181 99423 70659 46/28 /2813 10097 40063 91804 22200 00089 10808 70040 333 91216 555 11159 22171
BBXX 41052 16181 99183 70648 46/// /0307 10266 40132 91830 333 91209
BBXX 41052 16181 99183 70648 46/// /0307 10264 40133 91820 333 91208
BBXX 41052 16181 99183 70648 46/// /0308 10263 40133 91810 333 91209
BBXX A8SZ5 16184 99010 31189 41498 21504 10270 20243 40050 54000 703// 821// 22243 00/// 2//01 80250
BBXX A8HJ8 16183 99012 11034 41/96 /3509 10260 20241 40092 54000 70200 8//// 22200 00/// 20302 80246
BBXX ZQDI9 16183 99044 10989 41497 80308 10286 20242 40091 58003 70222 8371/ 22233 00286 20301 80255
BBXX VQOG5 16184 99048 11041 41498 60430 10272 20239 40088 54000 70222 842// 22243 00267 2//// 80249
BBXX MINFR05 1618/ 99496 70003 46/// ///// 10080 49982 52041
BBXX ZCDQ5 16183 99346 10255 43598 13327 10140 20110 40160 54000 70202 8534/ 22274 00132 20204 80120
AAXX 16184 96655 01456 80000 10242 20234 30066 40100 57015 60181 76062 86573 333 56000 60047 86612
AAXX 16184 91824 11499 31002 10259 20248 40153 25013 60001 70222 838/2 333 562/9 555 1////
AAXX 16184 Scanned by MailMarshal - M86 Security's comprehensive email content s ecur
AAXX 16184 ity solution.
AAXX 16184 --_000_15A73B2E9A32B34CBBB7D7F59DAEB2C0DCC005EFmailniuegovloca_ html code found in mail The rest of this message has been deleted
AAXX 16184 06610 21557 82618 10056 21008 39411 49989 51070 6///2 72162 8477/ 333 32/// 55300 20000 60005 84727 86357 90766 93100 91148 91228
AAXX 16184 06670 21582 62620 10061 21005 39445 49948 52083 6///2 70298 865// 333 32/// 55300 20000 60005 83631 84646 90766 93100 91152 91227
AAXX 16184 06700 21673 62508 10078 21014 39516 40001 51058 6///2 78086 868// 333 32/// 55300 20000 60005 83835 85656 90766 93100 91148 91227
AAXX 16184 06680 21/01 92530 11067 21067 37253 47771 53017 6///2 77293 333 47125 55300 20000 60005 90766 93107 91178 91241
AAXX 16184 06990 23/// /3617 10060 20020 39398 49936 52065 6///2 333 55300 20000 60025 91143 91221
AAXX 16184 06760 21256 80606 10015 20009 39498 49947 55017 6///2 76364 8372/ 333 32/// 55300 20000 60015 83704 88531 90766 93100 91111 91206
AAXX 16184 06720 21458 8//// 10016 20008 39401 49978 52026 6///2 76176 88020 333 41005 55300 20000 69975 88517 90766 93104
AAXX 16184 71674 16/// ///// 11030 21074 60001 333 11030 21131 70000
AAXX 16184 71520 16/// /3218 11134 21166 39401 40078 51039 60001 333 11039 21140 70000
AAXX 16184 71521 16/// ///// 11113 21141 60001 333 11006 21113 70038
AAXX 16184 71523 16/// ///// 11110 21153 39759 40138 53031 60001 333 10006 21113 70000
AAXX 16184 71540 16/// /3201 11075 21104 60001 333 11069 21127 70000
AAXX 16184 71544 16/// ///// 11011 21065 60001 333 11011 21143 70000
AAXX 16184 71055 46/// /1002 11214 21234 39770 40112 50000 6///1 333 11214 21243 7////
AAXX 16184 71065 16/// ///// 11032 21065 60001 333 11032 21173 70000
AAXX 16184 71014 16/// /1703 11009 21095 60001 333 11009 21102 7////
AAXX 16184 71249 16/// /2715 11047 21093 60001 333 11047 21113 70004
AAXX 16184 71481 16/// /2710 10015 21064 60001 333 10015 21112 70000
AAXX 16184 71498 16/// /2111 11063 21095 60001 333 11063 21129 70004
AAXX 16184 71346 16/// /2714 10012 21043 60001 333 10012 21106 70000
AAXX 16184 71857 16/// ///// 11060 21077 60001 333 11060 21148 70000
AAXX 16184 71904 16/// ///// 11031 21095 60001 333 11011 21088 70000
AAXX 16184 71360 16/// ///// 11032 21067 60001 333 11032 21134 70000
AAXX 16184 71380 16/// /2512 11008 21071 60001 333 11008 21112 70000
AAXX 16184 71383 16/// ///// 11119 21166 39473 40084 51042 60001 333 10001 21120 70017
AAXX 16184 71413 16/// ///// 11014 21064 60001 333 11014 21137 70000
AAXX 16184 71414 16/// ///// 11031 21066 60001 333 11031 21167 70000
AAXX 16184 71440 16/// ///// 11012 21077 60001 333 11012 21107 70000
AAXX 16184 88903 45/// /3512 10129 20057 30083 40083 56012
BBXX C6W2032 16184 99015 70048 41398 61613 10270 2024/ 40100 54000 70222 8416/ 22243 00270 20702 318// 40702 5//// 6//// 80250 ICE /////
BBXX A8OU4 16184 99412 71608 41598 32724 10100 20056 40210 52030 70111 81444 22224 00140 20908 327// 41008 5//// 80080
AAXX 16184 82332 21430 70104 10242 20238 39976 40069 79596 85930 333 59003 60071
AAXX 16184 83574 32794 60904 10316 20220 39545 40142 5//// 86400
AAXX 16183 63695 32480 50000 10190 20176 83530 333 10249 83618
AAXX 16181 38388 32998 00504 11026 21063 30241 40315 57008 333 10007
OOXX ARP01 16161 99345 50585 ///// 00311 26/// /2002 10100 29035 30085 91610 333 60000
OOXX ARP01 16161 99345 50585 ///// 00311 26/// /2001 10102 29035 30083 91620 333 60000
OOXX ARP01 16161 99345 50585 ///// 00311 26/// /2001 10102 29034 30082 91630 333 60000
OOXX ARP01 16161 99345 50585 ///// 00311 26/// /2301 10104 29034 30080 91640 333 60000
OOXX ARP01 16161 99345 50585 ///// 00311 26/// /2302 10103 29034 30078 91650 333 60000
OOXX ARP01 16171 99345 50585 ///// 00311 26/// /2001 10106 29034 30078 91700 333 60000
OOXX ARP01 16171 99345 50585 ///// 00311 26/// /2002 10108 29033 30078 91710 333 60000
OOXX ARP01 16171 99345 50585 ///// 00311 26/// /2001 10109 29033 30077 91720 333 60000
OOXX ARP01 16171 99345 50585 ///// 00311 26/// /2002 10104 29034 30079 91730 333 60000
OOXX ARP01 16171 99345 50585 ///// 00311 26/// /2002 10095 29037 30080 91740 333 60000
OOXX ARP01 16171 99345 50585 ///// 00311 26/// /2001 10093 29039 30079 91750 333 60000
OOXX ARP01 16181 99345 50585 ///// 00311 26/// /2301 10096 29039 30078 91800 333 60000
AAXX 16184 78388 111572 30815 10285 20202 30131 40140 70500 81102 333 00200 58010 81824
AAXX 16184 78388 111572 30815 10285 20202 30131 40140 70500 81102 333 00200 58010 81824
AAXX 16184 91844 46/// /0000 10282 40159 22200 00271
AAXX 16184 94206 46/// /0704 10248 20209 39932 40060
AAXX 16184 94206 46/// /0704 10248 20209 39932 40060
AAXX 16184 63125 32565 20908 10262 20208 40157 82200 333 10305 59012 82820
BBXX 46224 16181 99332 71175 46/// ///// 1//// 91736 22200 00149 11501 21001 320// 41501 70005
BBXX 46224 16181 99332 71175 46/// ///// 1//// 91806 22200 00148 11301 20501 320// 41501 70005
BBXX 2AUO5 16183 99606 10016 41997 03232 10055 20031 49866 54000 7//88 80000 22200 20703 332// 40904 80045
BBXX 63110 16183 99595 10015 41/98 /3122 10067 49875 700// 8//// 22200 10606 70028
BBXX 63106 16184 99610 10017 46/// /3121 10047 49858 52015 22200
BBXX 63105 16184 99610 10017 47497 ///// 10059 20009 49857 52015 751// 22200
BBXX 62103 16184 99499 70029 46/99 /2931 10088 20026 49994 51036 22200 00123 10807 70035 333 90710 91145
BBXX 62107 16184 99501 70061 46/// /3443 10096 20035 40025 51025 22200 00114 10807 70035 333 90710 91153
BBXX 62095 16184 99530 70159 46/// /3125 10070 20009 40178 52027 22200 00113 10912 70060 333 90710 91137
BBXX AMOUK04 16184 99533 70062 46/// ///// 10038 20016 39975 4//// 52069 91750
BBXX S6SR 16184 99315 50158 41599 62315 10230 20216 40200 51010 7//22 861// 22213 00180 2//02 31919 41405 51405 6//// 80220 ICE /////
BBXX BSH05 16181 99550 10079 46/// ///// 22200 20503 70013
BBXX BSH03 16181 99540 10081 46/// ///// 22200 00067 20604 70019
BBXX BSH02 16181 99542 10079 46/// ///// 22200 00082 20602 70012
BBXX C6W2032 16184 99015 70048 41398 61613 10270 2024/ 40100 54000 70222 8416/ 22243 00270 20702 318// 40702 5//// 6//// 80250 ICE /////
BBXX S6SR 16184 99315 50158 41599 62315 10230 20216 40200 51010 7//22 861// 22213 00180 2//02 31919 41405 51405 6//// 80220 ICE /////
BBXX 46224 16181 99332 71175 46/// ///// 1//// 91806 22200 00148 11301 20501 320// 41501 70005
BBXX 46224 16181 99332 71175 46/// ///// 1//// 91736 22200 00149 11501 21001 320// 41501 70005
BBXX A8OU4 16184 99412 71608 41598 32724 10100 20056 40210 52030 70111 81444 22224 00140 20908 327// 41008 5//// 80080
AAXX 16184 89807 46/// /2724 11057 29086 39847 4//// 5//// 91830 333 90700 91131
AAXX 16184 89614 46/// /0914 11110 29084 39059 4//// 5//// 91830 333 90700 91118
AAXX 16184 89614 46/// /0914 11110 29084 39059 4//// 5//// 91830 333 90700 91118
AAXX 16184 89807 46/// /2724 11057 29086 39847 4//// 5//// 91830 333 90700 91131
OOXX MRP43 16161 99181 70159 ///// 00101 26/// /0605 10284 29009 30138 91640 333 60000
OOXX MRP43 16161 99181 70159 ///// 00101 26/// /0605 10284 29009 30138 91650 333 60000
OOXX MRP43 16171 99181 70159 ///// 00101 26/// /0706 10282 29009 30138 91700 333 60000
OOXX MRP43 16171 99181 70159 ///// 00101 26/// /0605 10280 29009 30137 91710 333 60000
OOXX MRP43 16171 99181 70159 ///// 00101 26/// /0605 10280 29009 30137 91720 333 60000
OOXX MRP43 16171 99181 70159 ///// 00101 26/// /0605 10279 29009 30139 91730 333 60000
OOXX MRP43 16171 99181 70159 ///// 00101 26/// /0605 10278 29009 30140 91740 333 60000
OOXX MRP43 16171 99181 70159 ///// 00101 26/// /0604 10277 29009 30142 91750 333 60000
OOXX MRP43 16181 99181 70159 ///// 00101 26/// /0605 10275 29009 30141 91800 333 60000
OOXX MRP43 16181 99181 70159 ///// 00101 26/// /0704 10273 29009 30143 91810 333 60000
OOXX MRP43 16181 99181 70159 ///// 00101 26/// /0604 10271 29009 30142 91820 333 60000
OOXX MRP43 16181 99181 70159 ///// 00101 26/// /0604 10268 29009 30142 91830 333 60000
OOXX RUP54 16161 99586 10494 ///// 01271 26/// /0314 11038 29091 30094 91627 333 60120
OOXX RUP54 16161 99586 10494 ///// 01271 26/// /0614 11039 29091 30093 91637 333 60120
OOXX RUP54 16161 99586 10494 ///// 01271 26/// /0514 11039 29091 30094 91647 333 60120
OOXX RUP54 16161 99586 10494 ///// 01271 26/// /3514 11040 29091 30094 91657 333 60120
OOXX RUP54 16171 99586 10494 ///// 01271 26/// /0114 11040 29091 30093 91707 333 60120
OOXX RUP54 16171 99586 10494 ///// 01271 26/// /3314 11040 29091 30093 91717 333 60120
OOXX RUP54 16171 99586 10494 ///// 01271 26/// /0614 11040 29091 30093 91727 333 60120
OOXX RUP54 16171 99586 10494 ///// 01271 26/// /0414 11039 29091 30093 91737 333 60120
OOXX RUP54 16171 99586 10494 ///// 01271 26/// /0214 11039 29091 30094 91747 333 60120
OOXX RUP54 16171 99586 10494 ///// 01271 26/// /0514 11039 29091 30095 91757 333 60120
OOXX RUP54 16181 99586 10494 ///// 01271 26/// /0114 11039 29091 30094 91807 333 60120
OOXX RUP54 16181 99586 10494 ///// 01271 26/// /3614 11038 29091 30095 91817 333 60120
OOXX NZP46 16161 99438 51765 ///// 00221 26/// /3404 10147 29/// 39984 91630 333 60000
OOXX NZP46 16161 99438 51765 ///// 00221 26/// /3404 10148 29/// 39982 91640 333 60000
OOXX NZP46 16161 99438 51765 ///// 00221 26/// /3404 10148 29/// 39982 91650 333 60000
OOXX NZP46 16171 99438 51765 ///// 00221 26/// /3404 10148 29/// 39981 91700 333 60000
OOXX NZP46 16171 99438 51765 ///// 00221 26/// /3304 10148 29/// 39982 91710 333 60000
OOXX NZP46 16171 99438 51765 ///// 00221 26/// /3204 10149 29/// 39982 91720 333 60000
OOXX NZP46 16171 99438 51765 ///// 00221 26/// /3204 10149 29/// 39981 91730 333 60000
OOXX NZP46 16171 99438 51765 ///// 00221 26/// /3204 10150 29/// 39979 91740 333 60000
OOXX NZP46 16171 99438 51765 ///// 00221 26/// /3204 10151 29/// 39978 91750 333 60000
OOXX NZP46 16181 99438 51765 ///// 00221 26/// /3204 10152 29/// 39978 91800 333 60000
OOXX NZP46 16181 99438 51765 ///// 00221 26/// /3203 10152 29/// 39977 91810 333 60000
OOXX NZP46 16181 99438 51765 ///// 00221 26/// /3103 10154 29/// 39976 91820 333 60000
OOXX AUP07 16161 99/// ///// ///// ///// 26/// /2413 10043 29086 30093 91649 333 60000
OOXX AUP07 16161 99/// ///// ///// ///// 26/// /2412 10044 29085 30092 91659 333 60000
OOXX AUP07 16171 99/// ///// ///// ///// 26/// /2412 10046 29081 30093 91709 333 60000
OOXX AUP07 16171 99/// ///// ///// ///// 26/// /2413 10046 29077 30095 91719 333 60000
OOXX AUP07 16171 99/// ///// ///// ///// 26/// /2413 10046 29074 30097 91729 333 60000
OOXX AUP07 16171 99/// ///// ///// ///// 26/// /2414 10046 29072 30098 91739 333 60000
OOXX AUP07 16171 99/// ///// ///// ///// 26/// /2412 10047 29072 30097 91749 333 60000
OOXX AUP07 16171 99/// ///// ///// ///// 26/// /2412 10048 29075 30098 91759 333 60000
OOXX AUP07 16181 99/// ///// ///// ///// 26/// /2413 10047 29070 30100 91809 333 60000
OOXX AUP07 16181 99/// ///// ///// ///// 26/// /2412 10049 29071 30100 91819 333 69920
OOXX AUP07 16181 99/// ///// ///// ///// 26/// /2413 10046 29069 30102 91829 333 60000
OOXX AUP07 16181 99/// ///// ///// ///// 26/// /2412 10046 29066 30101 91839 333 60000
OOXX KIP39 16161 99020 51574 ///// 00181 26/// /1005 10254 29082 30114 91630 333 60000
OOXX KIP39 16161 99020 51574 ///// 00181 26/// /1004 10256 29082 30115 91640 333 60000
OOXX KIP39 16161 99020 51574 ///// 00181 26/// /1004 10257 29082 30117 91650 333 60000
OOXX KIP39 16171 99020 51574 ///// 00181 26/// /1005 10258 29082 30118 91700 333 60000
OOXX KIP39 16171 99020 51574 ///// 00181 26/// /1005 10258 29081 30120 91710 333 60000
OOXX KIP39 16171 99020 51574 ///// 00181 26/// /1005 10261 29081 30121 91720 333 60000
OOXX KIP39 16171 99020 51574 ///// 00181 26/// /1005 10262 29081 30121 91730 333 60000
OOXX KIP39 16171 99020 51574 ///// 00181 26/// /1005 10264 29080 30122 91740 333 60000
OOXX KIP39 16171 99020 51574 ///// 00181 26/// /1004 10266 29079 30123 91750 333 60000
OOXX KIP39 16181 99020 51574 ///// 00181 26/// /0904 10264 29079 30123 91800 333 60000
OOXX KIP39 16181 99020 51574 ///// 00181 26/// /1005 10265 29079 30125 91810 333 60000
OOXX KIP39 16181 99020 51574 ///// 00181 26/// /0905 10265 29079 30126 91820 333 60000
OOXX AUP06 16161 99192 31468 ///// 00071 26/// /1306 10254 29082 30094 91652 333 60000
OOXX AUP06 16171 99192 31468 ///// 00071 26/// /1206 10255 29080 30094 91702 333 60000
OOXX AUP06 16171 99192 31468 ///// 00071 26/// /1206 10255 29080 30094 91712 333 60000
OOXX AUP06 16171 99192 31468 ///// 00071 26/// /1206 10255 29079 30095 91722 333 60000
OOXX AUP06 16171 99192 31468 ///// 00071 26/// /1206 10255 29078 30095 91732 333 60000
OOXX AUP06 16171 99192 31468 ///// 00071 26/// /1206 10255 29078 30095 91742 333 60000
OOXX AUP06 16171 99192 31468 ///// 00071 26/// /1206 10254 29078 30096 91752 333 60000
OOXX AUP06 16181 99192 31468 ///// 00071 26/// /1105 10254 29077 30097 91802 333 60000
OOXX AUP06 16181 99192 31468 ///// 00071 26/// /1205 10254 29076 30099 91812 333 60000
OOXX AUP06 16181 99192 31468 ///// 00071 26/// /1206 10254 29076 30098 91822 333 60000
OOXX AUP06 16181 99192 31468 ///// 00071 26/// /1205 10253 29077 30099 91832 333 60000
OOXX AUP06 16181 99192 31468 ///// 00071 26/// /1205 10254 29075 30100 91842 333 60000
OOXX CAP14 16161 99487 71234 ///// 00431 26/// /1402 10061 29090 30240 91620 333 60000
OOXX CAP14 16161 99487 71234 ///// 00431 26/// /1402 10064 29090 30241 91630 333 60000
OOXX CAP14 16161 99487 71234 ///// 00431 26/// /1601 10065 29090 30240 91640 333 60000
OOXX CAP14 16161 99487 71234 ///// 00431 26/// /1701 10066 29089 30240 91650 333 60000
OOXX CAP14 16171 99487 71234 ///// 00431 26/// /1801 10068 29088 30240 91700 333 60000
OOXX CAP14 16171 99487 71234 ///// 00431 26/// /2001 10068 29087 30242 91710 333 60000
OOXX CAP14 16171 99487 71234 ///// 00431 26/// /1401 10068 29086 30242 91720 333 60000
OOXX CAP14 16171 99487 71234 ///// 00431 26/// /1402 10068 29086 30241 91730 333 60000
OOXX CAP14 16171 99487 71234 ///// 00431 26/// /1501 10069 29086 30242 91740 333 60000
OOXX CAP14 16171 99487 71234 ///// 00431 26/// /1502 10072 29086 30244 91750 333 60000
OOXX CAP14 16181 99487 71234 ///// 00431 26/// /1602 10073 29086 30245 91800 333 60000
OOXX CAP14 16181 99487 71234 ///// 00431 26/// /1601 10075 29086 30247 91810 333 60000
OOXX FJP26 16161 99178 31775 ///// 00311 26/// /1101 10236 29091 30082 91610 333 60000
OOXX FJP26 16161 99178 31775 ///// 00311 26/// /1101 10235 29091 30083 91620 333 60000
OOXX FJP26 16161 99178 31775 ///// 00311 26/// /0000 10234 29092 30083 91630 333 60000
OOXX FJP26 16161 99178 31775 ///// 00311 26/// /1101 10233 29092 30083 91640 333 60000
OOXX FJP26 16161 99178 31775 ///// 00311 26/// /1201 10233 29093 30084 91650 333 60000
OOXX FJP26 16171 99178 31775 ///// 00311 26/// /1101 10232 29093 30085 91700 333 60000
OOXX FJP26 16171 99178 31775 ///// 00311 26/// /1301 10231 29093 30085 91710 333 60000
OOXX FJP26 16171 99178 31775 ///// 00311 26/// /1102 10231 29093 30087 91720 333 60000
OOXX FJP26 16171 99178 31775 ///// 00311 26/// /1202 10231 29093 30087 91730 333 60000
OOXX FJP26 16171 99178 31775 ///// 00311 26/// /1102 10232 29092 30088 91740 333 60000
OOXX FJP26 16171 99178 31775 ///// 00311 26/// /1202 10233 29092 30089 91750 333 60000
OOXX FJP26 16181 99178 31775 ///// 00311 26/// /1302 10235 29091 30089 91800 333 60000
OOXX RUP60 16161 99531 11588 ///// 00651 26/// /3003 11048 29079 39755 91652 333 60000
OOXX RUP60 16171 99531 11588 ///// 00651 26/// /3104 11049 29082 39754 91702 333 60000
OOXX RUP60 16171 99531 11588 ///// 00651 26/// /3202 11051 29084 39755 91712 333 60000
OOXX RUP60 16171 99531 11588 ///// 00651 26/// /3303 11055 29086 39755 91722 333 60000
OOXX RUP60 16171 99531 11588 ///// 00651 26/// /3102 11055 29087 39756 91732 333 60000
OOXX RUP60 16171 99531 11588 ///// 00651 26/// /3302 11055 29088 39756 91742 333 60000
OOXX RUP60 16171 99531 11588 ///// 00651 26/// /3202 11056 29088 39757 91752 333 60000
OOXX RUP60 16181 99531 11588 ///// 00651 26/// /3101 11056 29088 39756 91802 333 60000
OOXX RUP60 16181 99531 11588 ///// 00651 26/// /3206 11055 29087 39756 91812 333 60000
OOXX RUP60 16181 99531 11588 ///// 00651 26/// /3205 11055 29086 39755 91822 333 60000
OOXX RUP60 16181 99531 11588 ///// 00651 26/// /3203 11052 29085 39754 91832 333 60000
OOXX RUP60 16181 99531 11588 ///// 00651 26/// /3303 11052 29085 39754 91842 333 60000
OOXX RUP58 16161 99442 11320 ///// 01121 26/// /2202 11188 29058 30079 91642 333 60000
OOXX RUP58 16161 99442 11320 ///// 01121 26/// /2302 11191 29059 30080 91652 333 60000
OOXX RUP58 16171 99442 11320 ///// 01121 26/// /2202 11188 29058 30080 91702 333 60000
OOXX RUP58 16171 99442 11320 ///// 01121 26/// /2302 11188 29058 30081 91712 333 60000
OOXX RUP58 16171 99442 11320 ///// 01121 26/// /2302 11190 29058 30081 91722 333 60000
OOXX RUP58 16171 99442 11320 ///// 01121 26/// /2302 11188 29058 30082 91732 333 60000
OOXX RUP58 16171 99442 11320 ///// 01121 26/// /2501 11187 29058 30081 91742 333 60000
OOXX RUP58 16171 99442 11320 ///// 01121 26/// /2301 11186 29057 30080 91752 333 60000
OOXX RUP58 16181 99442 11320 ///// 01121 26/// /2502 11185 29057 30081 91802 333 60000
OOXX RUP58 16181 99442 11320 ///// 01121 26/// /2201 11185 29057 30079 91812 333 60000
OOXX RUP58 16181 99442 11320 ///// 01121 26/// /3101 11183 29056 30079 91822 333 60000
OOXX RUP58 16181 99442 11320 ///// 01121 26/// /2701 11186 29056 30077 91832 333 60000
OOXX RUP59 16161 99539 10848 ///// 02121 26/// /0000 11272 29071 30101 91640 333 60000
OOXX RUP59 16161 99539 10848 ///// 02121 26/// /0000 11274 29070 30102 91650 333 60000
OOXX RUP59 16171 99539 10848 ///// 02121 26/// /0000 11274 29071 30102 91700 333 60000
OOXX RUP59 16171 99539 10848 ///// 02121 26/// /0000 11275 29070 30104 91710 333 60000
OOXX RUP59 16171 99539 10848 ///// 02121 26/// /0000 11276 29071 30104 91720 333 60000
OOXX RUP59 16171 99539 10848 ///// 02121 26/// /0000 11277 29071 30105 91730 333 60000
OOXX RUP59 16171 99539 10848 ///// 02121 26/// /0000 11277 29071 30106 91740 333 60000
OOXX RUP59 16171 99539 10848 ///// 02121 26/// /0000 11277 29071 30106 91750 333 60000
OOXX RUP59 16181 99539 10848 ///// 02121 26/// /0000 11276 29071 30106 91800 333 60000
OOXX RUP59 16181 99539 10848 ///// 02121 26/// /0000 11278 29071 30106 91810 333 60000
OOXX RUP59 16181 99539 10848 ///// 02121 26/// /0000 11280 29069 30105 91820 333 60000
OOXX RUP59 16181 99539 10848 ///// 02121 26/// /0000 11284 29069 30106 91830 333 60000
AAXX 16184 78906 11478 40411 10281 20205 30115 40120 69921 70181 84800 333 10281 20220 58015 70066 81819 83640 90935
AAXX 16184 78906 11478 40411 10281 20205 30115 40120 69921 70181 84800 333 10281 20220 58015 70066 81819 83640 90935
AAXX 16184 78906 11478 40411 10281 20205 30115 40120 69921 70181 84800 333 10281 20220 58015 70066 81819 83640 90935
AAXX 16181 59158 32662 80103 10146 20092 30130 40233 51004 885//
AAXX 16181 59562 32665 23502 10170 20110 30226 40238 58003 82500
AAXX 16181 59567 46/// /0109 10167 20156 39830 40214 58003
AAXX 16181 58968 32560 80805 10131 20091 30272 40280 58004 885//
AAXX 16181 58974 46/// /0211 10131 20078 30155 40283 58008
AAXX 16181 59358 32660 70105 10146 20102 30201 40234 54000 875//
AAXX 16181 59559 32565 20409 10192 20130 30178 40207 58002 82100
AAXX 16181 59792 32460 80411 10204 20167 30208 40213 57005 8442/
AAXX 16181 59997 11458 80508 10270 20251 30087 40095 57013 60081 72582 8382/
AAXX 16184 89667 46/// /0705 11077 39888 4//// 5//// 91840
AAXX 16184 89667 46/// /0805 11075 39888 4//// 5//// 91830
AAXX 1618/ 89828 46/// ///// 11380 36475 4//// 5//// 91840
AAXX 1618/ 89667 46/// ///// 11070 39887 4//// 5//// 91820
AAXX 1618/ 89667 46/// ///// 11065 39888 4//// 5//// 91810
AAXX 1618/ 89799 46/// ///// 11290 4//// 5//// 91840
BBXX 9VDD2 16184 99387 11358 41596 93132 11020 21050 40210 52005 7//33 89/// 22253 04010 20812 33030 40812 50812 81030
BBXX VRCI9 16184 99349 11405 41/98 /0222 10090 20013 40075 50010 70300 8//// 22215 00193 2//// 3//// 4//// 80055
BBXX SHIP 16184 99339 71487 41398 82712 10200 20169 40204 51010 75252 885// 22225 00194 20404 318// 40504 80180
BBXX VRBQ6 16184 99339 71487 41398 82712 10200 20169 40204 51010 75252 885// 22225 00194 20404 318// 40504 80180
AAXX 16184 91559 46/// /0000 10265 40077 22200 00291
AAXX 16181 98753 11465 70000 10250 20238 40058 58006 69921 70564 82278 333 56999 82816 85359 87279
AAXX 16184 71713 16/// /2915 10025 21050 60001 333 10072 20012 70105
AAXX 16184 71734 16/// /2806 11134 21174 39825 40228 58005 60001 333 11027 21150 70024
AAXX 16184 71824 46/// /3004 11115 21139 6///1 333 11027 21121 7////
AAXX 16184 71297 16/// /2505 10036 21007 60001 333 10045 20016 70034
AAXX 16184 71172 16/// ///// 11012 21039 39976 40195 50000 60001 333 10028 21013 70031
AAXX 16184 71382 17/// /0307 11078 21101 39148 40079 53039 60011 7//4/ 333 10022 21078 70210
AAXX 16184 71389 46/// /3112 10002 21047 6///1 333 10063 20002 7////
AAXX 16184 96745 32556 62406 10271 20231 30073 40078 57011 83521 333 56000 83620 85460
AAXX 16184 91531 46/// /0508 1//// 40060 22200 00253
AAXX 16184 97320 32560 70000 10274 20236 30041 40054 57015 82126 333 56000 82820 85280
AAXX 16184 78906 11478 40411 10281 20205 30115 40120 69921 70181 84800 333 10281 20220 58015 70066 81819 83640 90935
BBXX 44056 16181 99362 70757 46/// ///// 1//// 91820 22200 00130 11302 20302 308// 41302 70011
AAXX 16184 71016 16/// ///// 10014 60001 333 10015 21039 70000
BBXX 42085 16181 99179 70665 46/// /0405 10271 40134 58021 91800 22200 00282 10501 70006 333 91206
BBXX 42085 16181 99179 70665 46/// /0304 10269 40136 91750 333 91205
BBXX 42085 16181 99179 70665 46/// /0405 10269 40137 91740 333 91206
AAXX 16184 91642 46/// /0000 1//// 40092 22200 0////
BBXX 42085 16181 99179 70665 46/// /0406 10276 40131 91830 333 91207
BBXX 42085 16181 99179 70665 46/// /0405 10274 40132 91820 333 91206
BBXX 42085 16181 99179 70665 46/// /0505 10273 40133 91810 333 91207
BBXX 46109 16181 99481 71234 46/// /0601 10072 40310 91757 22200 00080
BBXX 46110 16181 99481 71230 46/// /1501 10066 40309 91758
AAXX 16184 97086 11458 72706 10264 20234 30055 40079 56004 60171 71562 83571 333 56000 83617 85460
AAXX 16184 91367 11474 60808 10272 20242 60051 70382 82230 333 5622/ 82815 82360 555 91618
AAXX 16184 91367 11474 60808 10272 20242 60051 70382 82230 333 5622/ 82815 82360 555 91618
AAXX 16184 89610 46/// /0411 11092 39738 4//// 5//// 333 90700 91112
AAXX 16184 89610 46/// /0411 11092 39738 4//// 5//// 333 90700 91112
AAXX 16184 89610 46/// /0411 11092 39738 4//// 5//// 333 90700 91112
AAXX 16184 91367 11474 60808 10272 20242 60051 70382 82230 333 5622/ 82815 82360 555 91618
AAXX 16184 63714 11980 00000 10153 20133 48503 60042 70192 333 10257 58000
BBXX 46094 16181 99446 71243 46/// /0103 10084 91750
BBXX 46094 16181 99446 71243 46/// /0302 10089 91740
BBXX 46094 16181 99446 71243 46/// /0503 10085 91830
BBXX 46094 16181 99446 71243 46/// /0403 10087 91820
BBXX 46094 16181 99446 71243 46/// /0404 10087 91810
BBXX 46094 16181 99446 71243 46/// /0803 10085 91800
AAXX 16184 61017 32960 50000 10160 20043 39760 40179 80002 333 10260 59009 85080
AAXX 16184 61024 32960 51214 10212 21064 39586 40164 80002 333 10275 59009 85080
AAXX 16184 61036 32960 70000 10270 21018 39887 40127 80008 333 10310 59005 87280
AAXX 16184 61043 32960 70608 10247 21080 39691 40139 80008 333 10295 58003 87280
AAXX 16184 61045 31956 70606 10210 21025 39646 40154 7052/ 80008 333 10265 58003 87280
AAXX 16184 61049 32960 70000 10220 21010 39811 40137 80008 333 10275 59003 87280
AAXX 16184 61052 32960 51604 10270 21015 39876 40134 80002 333 10317 58005 85080
AAXX 16184 61075 31956 60000 10250 21011 39819 40131 70622 80008 333 10310 58002 86280
AAXX 16184 61080 31925 70000 10220 21010 39719 40147 70622 80008 333 10277 58001 87280
AAXX 16184 61090 31957 70204 10226 20063 39623 40142 70622 80008 333 10267 59009 87280
AAXX 16184 61091 NIL
AAXX 16184 61096 32960 63604 10227 21018 39755 40145 80008 333 10287 59002 86280
AAXX 16184 61099 32960 70206 10285 20010 39878 40103 80008 333 10330 59002 87280
BBXX 44055 16181 99391 70753 46/// ///// 1//// 91830 22200 00090 10401 70006
BBXX 42043 16181 99290 70949 46/// /0408 1//// 40224 91830 22200 00160 333 91209
BBXX 42043 16181 99290 70949 46/// /0407 1//// 40227 51004 91800 22200 00161 333 91209
BBXX 42044 16181 99262 70971 46/// /3403 10165 20148 40212 91830 22200 00188 333 91210
BBXX 42044 16181 99262 70971 46/// /3304 10165 20149 40215 52006 91800 22200 00188 333 91209
BBXX 42045 16181 99262 70965 46/// /0104 10200 40202 91830 22200 00210 333 91206
BBXX 42045 16181 99262 70965 46/// /3605 10200 40206 91800 22200 00210 333 91206
BBXX 42047 16181 99279 70936 46/// /1603 10222 20197 40209 91830 22200 00230 333 91203
BBXX 42047 16181 99279 70936 46/// /1603 10220 20198 40212 91800 22200 00229 333 91203
AAXX 16184 67002 12580 21005 10245 20231 30078 40112 60062 81802 333 10316 59016 81822 92408
AAXX 16184 67009 NIL
AAXX 16184 67012 NIL
AAXX 16184 67025 NIL
AAXX 16184 67027 32580 52010 10288 20248 30065 40086 51010 81908 333 10333 81820 81920 85273 94964 95834 555 82640
AAXX 16184 67083 11358 80000 10190 20187 38740 48515 53017 60082 76162 889// 333 10291 82707 81917 85620 94965 95815
AAXX 16184 67095 32475 30000 10260 20231 30109 40115 52015 83800 333 10315 83817 555 81633
AAXX 16184 67113 NIL
AAXX 16184 67117 NIL
AAXX 16184 67137 NIL
AAXX 16184 67143 NIL
AAXX 16184 67157 NIL
AAXX 16184 67161 NIL
AAXX 16184 67197 31460 70814 10255 20237 30081 40091 51014 71522 878// 333 10314 83817 85633
AAXX 16184 64700 32960 20206 10234 20040 39787 40132 80002 333 10317 58006 82075
AAXX 16184 64750 32960 60000 10250 20132 39680 40092 80002 91754 333 10360 58006 86075
AAXX 16183 64800 NIL
AAXX 16183 64820 NIL
AAXX 16183 64860 31930 70000 10270 20078 39840 40112 70522 80002 333 10330 58006 87080
AAXX 16183 64861 NIL
AAXX 16183 64870 32960 50402 10203 20062 38913 48505 80002 333 10295 58002 85080
AAXX 16183 64871 NIL
AAXX 16183 64892 NIL
AAXX 16183 64893 NIL
AAXX 16183 64894 NIL
AAXX 16183 64910 31430 72604 10280 20255 30093 40102 70522 83302 333 10328 58001 83616 81920 87080 94945 95835
AAXX 16183 64911 NIL
AAXX 16183 64950 NIL
BBXX MYNJ6 16183 99098 70790 415// 70519 10270 20256 40120 54000 7//22 87247 22243 00290 20504 30505 40504 50504 6//// 80260 ICE /////
BBXX 42047 16181 99279 70936 46/// /1603 10220 20198 40212 91800 22200 00229 333 91203
BBXX 42045 16181 99262 70965 46/// /3605 10200 40206 91800 22200 00210 333 91206
BBXX 42045 16181 99262 70965 46/// /0104 10200 40202 91830 22200 00210 333 91206
BBXX 42047 16181 99279 70936 46/// /1603 10222 20197 40209 91830 22200 00230 333 91203
BBXX 42044 16181 99262 70971 46/// /3304 10165 20149 40215 52006 91800 22200 00188 333 91209
BBXX 42044 16181 99262 70971 46/// /3403 10165 20148 40212 91830 22200 00188 333 91210
BBXX 42043 16181 99290 70949 46/// /0407 1//// 40227 51004 91800 22200 00161 333 91209
BBXX 42043 16181 99290 70949 46/// /0408 1//// 40224 91830 22200 00160 333 91209
BBXX 44055 16181 99391 70753 46/// ///// 1//// 91830 22200 00090 10401 70006
BBXX 46094 16181 99446 71243 46/// /0103 10084 91750
BBXX 46094 16181 99446 71243 46/// /0302 10089 91740
BBXX 46094 16181 99446 71243 46/// /0403 10087 91820
BBXX 46094 16181 99446 71243 46/// /0803 10085 91800
BBXX 46094 16181 99446 71243 46/// /0503 10085 91830
BBXX 46094 16181 99446 71243 46/// /0404 10087 91810
BBXX 46110 16181 99481 71230 46/// /1501 10066 40309 91758
BBXX 46109 16181 99481 71234 46/// /0601 10072 40310 91757 22200 00080
BBXX 42085 16181 99179 70665 46/// /0405 10274 40132 91820 333 91206
BBXX 42085 16181 99179 70665 46/// /0406 10276 40131 91830 333 91207
BBXX 42085 16181 99179 70665 46/// /0505 10273 40133 91810 333 91207
BBXX 42085 16181 99179 70665 46/// /0304 10269 40136 91750 333 91205
BBXX 42085 16181 99179 70665 46/// /0405 10271 40134 58021 91800 22200 00282 10501 70006 333 91206
BBXX 42085 16181 99179 70665 46/// /0405 10269 40137 91740 333 91206
BBXX 44056 16181 99362 70757 46/// ///// 1//// 91820 22200 00130 11302 20302 308// 41302 70011
BBXX MYNJ6 16183 99098 70790 415// 70519 10270 20256 40120 54000 7//22 87247 22243 00290 20504 30505 40504 50504 6//// 80260 ICE /////
BBXX 66022 16181 99541 10142 46/// /0815 10023 39680 22200 00042
BBXX AMOUK04 16184 99533 70062 46/// ///// 10038 20016 39975 4//// 52069 91750
AAXX 16184 63740 32580 30811 10200 20160 48502 83931 333 10275 59027 81920 83621
AAXX 16184 61017 32960 50000 10160 20043 39760 40179 80002 333 10260 59009 85080
AAXX 16184 61024 32960 51214 10212 21064 39586 40164 80002 333 10275 59009 85080
AAXX 16184 61036 32960 70000 10270 21018 39887 40127 80008 333 10310 59005 87280
AAXX 16184 61043 32960 70608 10247 21080 39691 40139 80008 333 10295 58003 87280
AAXX 16184 61045 31956 70606 10210 21025 39646 40154 7052/ 80008 333 10265 58003 87280
AAXX 16184 61049 32960 70000 10220 21010 39811 40137 80008 333 10275 59003 87280
AAXX 16184 61052 32960 51604 10270 21015 39876 40134 80002 333 10317 58005 85080
AAXX 16184 61075 31956 60000 10250 21011 39819 40131 70622 80008 333 10310 58002 86280
AAXX 16184 61080 31925 70000 10220 21010 39719 40147 70622 80008 333 10277 58001 87280
AAXX 16184 61090 31957 70204 10226 20063 39623 40142 70622 80008 333 10267 59009 87280
AAXX 16184 61091 32960 70000 10190 20069 39693 40153 80008 333 10270 59001 87280
AAXX 16184 61096 32960 63604 10227 21018 39755 40145 80008 333 10287 59002 86280
AAXX 16184 61099 32960 70206 10285 20010 39878 40103 80008 333 10330 59002 87280
AAXX 16184 63705 32560 51603 10222 20199 38850 48505 82907 333 10247 59008 82621 81923 84377
AAXX 16184 63671 32980 00000 10268 20184 333 10305
AAXX 16184 63772 32580 21208 10275 20251 82500 333 10314 82620
AAXX 16184 63705 32560 51603 10222 20199 38850 48505 82907 333 10247 59008 82621 81923 84377
BBXX A8OU4 16184 99412 71608 41598 32724 10100 20056 40210 52030 70111 81444 22224 00140 20908 327// 41008 5//// 80080
AAXX 16184 71539 16/// /1908 11065 21078 39546 40266 57004 60001 333 11065 21157 70000
AAXX 16184 41287 36/// /1003 10192 20134 30124 40193 333 0E022 10291 59017
AAXX 16184 92036 46/// /2905 10265 40056 22200 00311
BBXX AMOUK08 16184 99501 70061 46/// ///// 10099 20049 30018 4//// 52034 91750
BBXX 63110 16184 99595 10015 47598 /3119 10067 20016 49881 52009 700// 22200 10706 70029
BBXX 63055 16184 99606 10016 47995 /3021 10049 20012 49864 53014 704// 22200 10706 70030
BBXX 63106 16184 99610 10017 46/// /3121 10047 49858 52015 22200
BBXX 63113 16184 99610 10017 46/// /3224 10043 20004 49864 53020 22200 10707 70035
BBXX 62103 16184 99499 70029 46/99 /2930 10087 20020 49990 52042 22200 00122 10907 70035 333 90710 91142
BBXX 62095 16184 99530 70159 46/// /3125 10070 20013 40164 52027 22200 00113 10912 70060 333 90710 91137
AAXX 16184 97320 32560 70000 10274 20236 30041 40054 57015 82126 333 56000 82820 85460
AAXX 16184 93713 46/// /0000 10133 40044 22200 00159
AAXX 16184 91689 46/// /0111 10256 40119 22200 00283
AAXX 16184 16294 12597 62520 10146 20102 39894 40084 57035 60002 85400 333 10152 86630 555 0////
BBXX ZSAF 16184 99608 30000 41599 81906 11027 21043 49673 58008 77172 885// 22263 05015 2//// 314// 40601 5//// ICE 26110
BBXX V7QX2 16184 99119 10735 41796 31806 10260 2026/ 40100 54/// 7//// 8/29/ 22272 00290 20301 328// 4//// 5//// 6//// 80260 ICE /////
BBXX C6VG8 16184 99301 70766 41/98 31605 10210 2//// 40210 54/// 7//11 8311/ 22284 00240 20102 323// 40306 5//// 6//// 8//// ICE /////
BBXX AMOUK04 16184 99533 70062 46/// ///// 10038 20016 39975 4//// 52069 91750
BBXX MINFR05 1618/ 99496 70003 46/// ///// 10080 49982 52041
BBXX ZCDQ5 16183 99346 10255 43598 13327 10140 20110 40160 54000 70202 8534/ 22274 00132 20204 80120
BBXX V7QX2 16184 99119 10735 41796 31806 10260 2026/ 40100 54/// 7//// 8/29/ 22272 00290 20301 328// 4//// 5//// 6//// 80260 ICE /////
AAXX 16184 04418 NIL
AAXX 16184 04425 NIL
AAXX 16184 04432 NIL
AAXX 16184 04436 46/// /0000 11336 21368
AAXX 16184 04464 46/// /1710 11253 21276 333 553// 20004
AAXX 16184 04485 NIL
AAXX 16184 04488 46/// /2605 11374 21402 37352 57001 333 553// 20000
BBXX 2AUO5 16183 99606 10016 41997 03232 10055 20031 49866 54000 7//88 80000 22200 20703 332// 40904 80045
BBXX 63110 16183 99595 10015 41/98 /3122 10067 49875 700// 8//// 22200 10606 70028
BBXX 63106 16184 99610 10017 46/// /3121 10047 49858 52015 22200
BBXX 63105 16184 99610 10017 47497 ///// 10059 20009 49857 52015 751// 22200
BBXX 62103 16184 99499 70029 46/99 /2931 10088 20026 49994 51036 22200 00123 10807 70035 333 90710 91145
BBXX 62107 16184 99501 70061 46/// /3443 10096 20035 40025 51025 22200 00114 10807 70035 333 90710 91153
BBXX 62095 16184 99530 70159 46/// /3125 10070 20009 40178 52027 22200 00113 10912 70060 333 90710 91137
BBXX 42013 16181 99272 70829 46/// ///// 1//// 40218 91820 22200 00203
BBXX 42013 16181 99272 70829 46/// ///// 1//// 40218 58009 91800 22200 00204
AAXX 16184 41515 02995 00000 10073 21117 38580 48541 60003 333 58013 60007
AAXX 16184 41560 22996 01803 10010 21080 38250 48483 60003 333 59005 60007
AAXX 16184 41571 119// 00000 10080 20010 39598 40202 60003 70500 333 58008
AAXX 16184 41594 319// 40000 10100 20056 39967 40192 71000 81031 333 56099 58007
AAXX 16184 41685 32993 00000 10110 21025 38945 48522 333 58004
AAXX 16184 41710 02997 01802 10105 21134 39391 40182 60003 333 59041 60007
AAXX 16184 41718 12996 00000 10105 20074 30087 40195 60003 333 58015
AAXX 16184 41739 02996 00000 10105 20041 39077 48522 60003 333 59024 60007
AAXX 16184 41744 32996 00000 10125 21018 38798 48519 333 59010
AAXX 16184 41749 11995 00000 10150 20081 30145 40178 60003 70400 333 58006
AAXX 16184 41506 02994 00000 10020 21036 48549 60003 333 58000 60007
AAXX 16184 41508 22996 00000 10042 21085 48554 60003 333 58015 60007
AAXX 16184 41523 12996 00000 10055 21023 48528 60003 333 58012 60007
AAXX 16184 41535 12997 00000 10040 20003 48484 60003 333 58002
AAXX 16184 41536 NIL
AAXX 16184 41573 12996 00000 10040 21008 48522 60003 333 58010
AAXX 16184 41600 01995 40000 10075 20053 39876 40184 60003 71000 333 58007 60007
AAXX 16184 41630 11996 00000 10085 20052 40204 60003 70410 333 58016
AAXX 16184 41678 12996 00000 10125 20085 40195 60003 333 58004 60007
AAXX 16184 41696 02996 00000 10010 21101 38032 48557 60003 333 59020 60007
AAXX 16184 41697 02996 00000 10117 20050 40187 60003 333 58012 60007
AAXX 16184 41700 11995 00000 10120 20056 40179 60003 70400 333 58007
AAXX 16184 41725 02996 00000 10155 20075 40173 60003 333 59020 60007
AAXX 16184 41746 02996 00000 10130 20091 40184 60003 333 58006 60007
AAXX 16184 41759 12996 00000 10175 20077 30161 40167 60002 333 59009
AAXX 16184 41785 02996 00000 10170 20115 40163 60003 333 59005 60007
BBXX C6VG8 16184 99301 70766 41/98 31605 10210 2//// 40210 54/// 7//11 8311/ 22284 00240 20102 323// 40306 5//// 6//// 8//// ICE /////
BBXX ZSAF 16184 99608 30000 41599 81906 11027 21043 49673 58008 77172 885// 22263 05015 2//// 314// 40601 5//// ICE 26110
AAXX 16184 41529 12995 00000 10059 20023 39815 40213 60003 333 59013
AAXX 16184 41598 11996 00000 10075 20040 39907 40191 60003 70500 333 58006
AAXX 16184 41620 32995 02705 10070 21036 38623 48523 333 58001
AAXX 16184 41624 02995 00000 10095 20063 39983 40192 60003 333 58011 60007
AAXX 16184 41640 01995 00000 10120 20068 39931 40186 60003 70400 333 58001 60007
AAXX 16184 41660 119// 40000 10010 21054 38455 48547 60003 70500 82031 333 56099 59026 82362
AAXX 16184 41675 11995 00000 10100 20057 30042 40186 60003 70400 333 58008
AAXX 16184 41712 12996 00000 10050 21117 39228 48521 60003 333 59035
AAXX 16184 41715 01995 00000 10140 20102 30116 40183 60003 70400 333 58005 60007
AAXX 16184 41756 01996 01802 10185 20123 30089 40153 60003 70500 333 59017 60007
AAXX 16184 41764 32996 03406 10170 20094 30114 40165 60003 333 58002 60007
AAXX 16184 41768 02996 00000 10125 20074 30166 40173 60003 333 59005 60007
AAXX 16184 41780 02996 00000 10160 20057 30141 40168 60006 333 59003 60007
AAXX 16184 41529 12995 00000 10059 20023 39815 40213 60003 333 59013
AAXX 16184 41598 11996 00000 10075 20040 39907 40191 60003 70500 333 58006
AAXX 16184 41620 32995 02705 10070 21036 38623 48523 333 58001
AAXX 16184 41624 02995 00000 10095 20063 39983 40192 60003 333 58011 60007
AAXX 16184 41640 01995 00000 10120 20068 39931 40186 60003 70400 333 58001 60007
AAXX 16184 41660 119// 40000 10010 21054 38455 48547 60003 70500 82031 333 56099 59026 82362
AAXX 16184 41675 11995 00000 10100 20057 30042 40186 60003 70400 333 58008
AAXX 16184 41712 12996 00000 10050 21117 39228 48521 60003 333 59035
AAXX 16184 41715 01995 00000 10140 20102 30116 40183 60003 70400 333 58005 60007
AAXX 16184 41756 01996 01802 10185 20123 30089 40153 60003 70500 333 59017 60007
AAXX 16184 41764 32996 03406 10170 20094 30114 40165 60003 333 58002 60007
AAXX 16184 41768 02996 00000 10125 20074 30166 40173 60003 333 59005 60007
AAXX 16184 41780 02996 00000 10160 20057 30141 40168 60006 333 59003 60007
AAXX 1618/ 89868 46/// ///// 11085 39835 4//// 5////
AAXX 1618/ 89327 46/// ///// 11026 39596 4//// 5////
AAXX 16184 87692 32560 61415 10190 20138 30126 40151 56012 82170 333 56150 82820 84360 555 10150
AAXX 16184 87692 32560 61415 10190 20138 30126 40151 56012 82170 333 56150 82820 84360
AAXX 16184 71408 46/// /1645 10059 20056 39905 49983 5/041 6///1 333 7////
AAXX 16181 98132 11460 80410 10209 20181 40233 58010 60011 70564 8527/ 333 56199 85816 88357
AAXX 16181 98133 NIL
AAXX 16181 98222 NIL
AAXX 16181 98233 31570 80000 10228 20202 40145 54000 70544 885// 333 56999 88620
AAXX 16181 98324 60000 10250 20227 40104 58013 70544 82161 333 56999 82816 84358
AAXX 16181 98327 31665 63504 10231 20197 39938 40112 57010 70544 81108 333 56999 81842 86280
AAXX 16181 98334 32465 80000 10240 20226 39930 40133 57008 8227/ 333 56999 82817 88357
AAXX 16181 98425 32557 80903 10266 20231 40108 58007 8282/ 333 56999 82620 88459
AAXX 16181 98426 31562 20703 10247 20205 40110 58011 70544 81170 333 56999 81820
AAXX 16181 98427 11472 80405 10242 20231 39918 40096 58003 60201 76066 8327/ 333 56199 83818 88357
AAXX 16181 98428 32458 60403 10275 20236 40110 58003 81458 333 56999 82618 84359
AAXX 16181 98432 11466 80404 10254 20232 40102 58006 60131 76164 8257/ 333 56999 82618 88356
AAXX 16181 98433 11/00 91007 10206 20199 39390 40110 58002 60051 76122 89/// 333 56999 89///
AAXX 16181 98434 11468 73602 10247 20243 30110 40118 58005 83271 333 56999 83818 85358
AAXX 16181 98435 11465 80407 10250 20234 40108 5//// 60161 76086 8527/ 333 56999 85816 88357
AAXX 16181 98442 NIL
AAXX 16181 98446 11462 80401 10252 20238 30050 40096 57017 60021 71582 84207 333 56299 84818 88270
AAXX 16181 98447 11465 80905 10228 20222 39841 40107 5//// 60031 71562 8487/ 333 59299 84815 88357
AAXX 16181 98538 11458 80405 10252 20238 30060 40065 58010 60091 76162 83267 333 56119 83811 85357 88272
AAXX 16181 98546 11440 80705 10247 20243 30071 40079 58026 60321 78086 8492/ 333 56999 84915 88457
AAXX 16181 98548 11465 80000 10245 20238 30061 40067 58021 60061 70262 84807 333 56999 84816 88272
AAXX 16181 98553 11450 80204 10250 20245 30070 40074 57020 60181 78086 8497/ 333 56999 84915 88357
AAXX 16181 98558 11458 80614 10257 20248 40061 58023 60021 78082 8497/ 333 56999 83915 88357
AAXX 16181 98642 11430 83204 10248 20237 30048 40057 57014 60071 76386 8522/ 333 56199 85815 88456
AAXX 16181 98644 11460 80302 10255 20242 30042 40051 58015 60051 76022 8322/ 333 56999 83817 88457
AAXX 16181 98648 11458 70402 10236 20225 39981 40063 57009 60031 76044 8492/ 333 56999 84912 88457
AAXX 16181 98746 11458 80902 10236 20212 40068 58028 60061 70586 8397/ 333 56999 83918 88358
AAXX 16181 98751 11458 8//// 10215 20209 39395 40068 56003 60501 76066 8561/ 333 56999 85715 88456
AAXX 16181 98752 11458 71805 10257 20233 40059 58013 60301 71562 82538 333 56999 82616 87272
AAXX 16181 98851 32468 82702 10248 20229 39912 40061 56006 8227/ 333 56999 82818 88358
AAXX 16184 63756 01580 70000 10236 20205 38863 48501 69902 72962 8393/ 333 0//11 10283 59005 69907 83823 81924 87359
AAXX 16184 63791 32580 31112 10270 20165 39100 48492 83900 333 10346 55300 59021 81927 83628
AAXX 16184 32480 10508 10270 20256 30072 40090 81200 333 10336 55300 59018 81818
BBXX 42369 16181 99272 70903 46/// /1605 1//// 91740 22200 10603 70013
BBXX 42370 16181 99273 70905 46/// ///// 10220 91740 22200 10504 70018
AAXX 16181 38838 429// 80000 11022 21020 39613 40308 57002 889//
BBXX MINFR03 1618/ 99142 30618 46/// ///// 10273 40096 52005
BBXX JPAT 16182 99215 30983 41497 81116 00/// 10227 20147 40131 53000 70322 884// 22223 00240 10803 308//
BBXX AMOUK17 16184 99335 30443 46/// ///// 10204 20186 30141 40155 54000 91750
BBXX ZDLS1 16183 99442 30104 41397 73328 10095 20091 40009 57021 70222 876// 22253 04082 20408 329// 40610 80093
BBXX AMOUK01 16184 99443 30104 46/// ///// 10101 20084 30013 40020 57008 91750
BBXX BAREU60 16184 99441 10152 46/// ///// 49979 22200
BBXX 61001 16184 99434 10078 46/// /2427 10152 20111 49948 57026 22200 00153 10907 70036 555 1/035
BBXX BATFR22 16184 99428 10095 46/// /2546 10172 49951 22284 00177
BBXX BATFR32 16184 99427 10095 46/// /2414 10173 20090 49958 5//// 7//// 8//// 2229/ 00172
BBXX 61002 16184 99421 10047 46/// ///40 10147 2//// 40052 52050 22200 00153 10808 70042 555 1/054
BBXX SHIP 16183 99384 10021 41/97 /2622 10175 20134 40150 58060 70111 8/18/ 22213 00210 29906 80150
BBXX BAREU51 16184 99381 10134 46/// ///// 40114 57009 22235
BBXX VRCZ7 16183 99376 10031 41/97 52740 10160 20124 40147 55/// 70322 85/// 22264 2//// 3//// 4//// 5//// 80140
BBXX NWS0020 16184 99369 10009 43/// /2432 10162 20114 40185 5//// 7//// 8//// 222// 04174 2//// 3//// 4//// 5//// 6//// 8//// ICE /////
BBXX WRAH 16183 99367 10135 41598 32719 10180 2//// 40159 57011 70200 811/8 22264 00197 20304 324// 40605 5//// 6//// 8//// ICE /////
BBXX AUTQ 16184 99363 10027 42597 32830 10170 20138 40104 56024 70702 84401 22253 00190
BBXX PCAW 16183 99360 10243 41/98 42711 10172 20138 40170 53010 70100 84/// 22223 00132 20303 80151 90432
BBXX 8PSH 16184 99356 10186 46/// /2813 10172 20108 40186 58006 7//// 8//// 22223 0//// 2////
BBXX WKPN 16184 99342 10223 41/98 02914 10170 2//// 40205 54000 70110 80400 222// 00214 20016 30401 40047 509// 6//// ICE /////
BBXX ZNQO3 16180 99341 10233 41/97 52710 10180 20172 40194 58010 70222 8//// 22264 04178 2//// 3//// 4//// 5//// 80175
BBXX BATFR11 16184 99323 10287 46/// /2814 10182 20129 40202 53006 22223 00202
BBXX BATFR04 16184 99597 70110 46/// /3521 10050 21012 49989 51022 22200 00102
BBXX 64045 16184 99591 70117 46/// /3221 10037 20013 40002 53023 22200 00102 10705 70027 333 90710 91127
BBXX 62112 16184 99584 70002 47598 /3218 10053 20008 49921 52019 761// 22200
BBXX 62113 16184 99584 10002 47497 /3218 10057 20014 49910 52016 762// 22200
BBXX 62129 16184 99584 10003 46/// ///// 10053 20013 49911 51018 22200
BBXX 62114 16184 99583 10000 46/// /3025 10059 20017 49913 51011 22200
BBXX BATUK01 16184 99582 70064 46/// /2706 10010 21026 49982 51028 22200 00107
BBXX PJAI 16184 99581 70014 47598 /2919 10074 20012 49936 52024 700// 22200
BBXX 62111 16184 99580 70003 46/// /3322 10066 20004 49931 52026 22200 10604 70020
BBXX AMOUK27 16184 99579 70052 46/// ///// 11025 21194 39977 49970 52026 91750
BBXX 62117 16184 99579 10000 47998 /3122 10062 20007 49922 52022 700// 22200 10503 70014
BBXX AMOUK19 16184 99571 70021 46/// ///// 10028 2//// 39955 49959 52037 91750
BBXX AMOUK21 16184 99567 70064 46/// ///// 10066 20011 39990 4//// 52040 91750
BBXX BATEU06 16184 99558 70239 46/// /3033 10064 20012 40165 52032 22264 00100
BBXX 62105 16184 99554 70122 46/// /3021 10084 20026 40058 51030 22200 00106 10910 70050 333 90710 91130
BBXX MINUK03 1618/ 99549 70011 46/// ///// 10068 49956 52053
BBXX AMOUK05 16184 99537 70003 46/// ///// 10031 20016 39884 49922 52050 91750
BBXX AMOUK14 16184 99534 70060 46/// ///// 10061 20037 39962 49996 52056 91750
BBXX AMOUK12 16184 99534 70055 46/// ///// 10067 20031 39950 49990 52047 91750
BBXX 62095 16184 99530 70159 46/// /3125 10070 20013 40164 52027 22200 00113 10912 70060 333 90710 91137
BBXX 62301 16184 99524 70047 46/// /3223 10071 20037 49982 52047 22200 00099 10606 70029 333 90710 91134
BBXX AMOUK16 16184 99523 70063 46/// ///// 10057 20021 39996 49996 52044 91750
BBXX 62094 16184 99517 70067 46/// /2923 10076 20047 40016 53037 22200 00107 10807 70036 333 90710 91132
BBXX 62303 16184 99516 70051 46/// /3225 10073 20029 49996 53037 22200 00113 10707 70034 333 90710 91134
BBXX 62023 16183 99514 70079 46/97 /3132 10078 2//// 40039 5//// 22200 10810 70049 333 91148 555 70073 81002
BBXX 62081 16184 99510 70134 46/// ///// 10097 20044 40166 51050 22200 00121 11017 70083
BBXX PHIN 16184 99509 70214 41397 72922 10082 20054 40247 56007 71511 86420 22223 00120 20505 332// 40908 80068
BBXX AMOUK06 16184 99507 70014 46/// ///// 10058 20012 39944 49962 52040 91750
BBXX AMOUK09 16184 99504 70002 46/// ///// 10073 20014 39944 49961 52032 91750
BBXX 62305 16184 99504 10000 46/98 /2832 10072 20010 49967 52042 22200 00120 10704 70021 333 90710 91143
BBXX BATFR42 16184 99503 70018 46/// /3319 10077 20015 49983 22243 00122
BBXX BATFR02 16184 99503 70007 46/// /2837 10075 20000 49961 51028 22284 00130
BBXX AMOUK08 16184 99501 70061 46/// ///// 10099 20049 30018 4//// 52034 91750
BBXX 62103 16184 99499 70029 46/99 /2931 10088 20026 49994 51036 22200 00123 10807 70035 333 90710 91145
BBXX PDHW 16183 99498 70046 41/99 /3124 10095 20044 40010 52040 70011 8//// 22263 00120 2//// 80070
BBXX TESTFR9 16184 99498 70039 46/// /2851 10075 29076 49994 52002 22284
BBXX PHQX 16183 99496 70065 41297 82813 10130 20058 40052 71322 8/7// 22224 20705 328// 41407 5//// 80093
BBXX WDC6925 16184 99495 70048 41798 82930 10090 20049 40020 52050 72162 86266 22214 00130 20606 330// 41012 5//// 6//// 80070 ICE /////
BBXX BATFR16 16184 99495 70001 46/// /3131 10089 21003 49971 22273 00120
BBXX A8IY4 16181 99494 70071 41496 73425 10108 20093 40058 52058 70366 877// 22252 04120 21206 331// 41414 80100
BBXX 62027 16184 99491 70022 46/// /3324 1//// 2//// 40009 52034 22200 00115 10806 330// 70031 333 90710 91131
BBXX 62442 16184 99490 70164 46/// /3122 1//// 2//// 40244 51023 22200 00127 333 90710 91133
BBXX 62029 16184 99487 70125 46/// /3227 10105 20056 40194 51042 22200 00132 11018 70089 333 90710 91141
BBXX ZCDN9 16184 99477 70069 41298 82037 10082 20028 40104 52078 70782 887// 22253 00128 20308 332// 40712 5////
BBXX 62163 16184 99475 70084 46/// /3132 10113 20049 40146 51038 22200 00129 11017 70085 333 90710 91144
BBXX A8OF6 16183 99473 70108 41296 73340 10110 20072 40210 52080 76222 867// 22253 04130 20308 329// 41014 80090
BBXX DDZA2 16184 99460 70111 41/97 43245 10115 20044 40215 51015 78288 8//// 22284 04140 20608 331// 41012 80080
BBXX 62001 16184 99452 70050 46/// /3029 10113 20066 40156 53033 22200 00145 10914 70071 333 90710 91147
BBXX DDVK2 16183 99451 70084 41397 63030 10102 20065 40200 54000 78162 8437/ 22213 00145 21006 333// 41416 80083
BBXX BATFR54 16184 99446 70058 46/// /2836 10107 20045 40190 50013 22223 00142
BBXX MRGU3 16183 99413 70097 41398 82930 10145 20074 40256 55020 70222 887// 22284 04164 20810 329// 41210 5//// 80110
BBXX WGAX 16184 99408 70224 43297 62417 10165 2016/ 40264 52020 7//// 82138 22263 00157 20404 33427 40806 51004 6//// 80160 ICE /////
BBXX WKAB 16184 99397 70243 41/// /2417 10170 20162 40314 5//// 7//// 8//// 22225 00158 2//// 3//// 4//// 5//// 6//// 80165 ICE /////
BBXX KABL 16184 99380 70243 41598 62211 10190 2016/ 40340 53003 70222 83188 22224 00191 20201 322// 40504 5//// 6//// 80170 ICE /////
BBXX BATFR09 16184 99379 70096 44497 62926 10172 20139 40272 58007 70311 85620 22283 00179 20304 328// 40606 5////
BBXX WDC6736 16184 99376 70295 41798 22309 10200 2017/ 40306 56014 70300 81358 22264 00200 20402 327// 40604 5//// 6//// 80180 ICE /////
BBXX 2ALE5 16183 99375 70095 41597 52923 10170 20115 40269 55008 70211 855// 22284 20507 332// 40507 80140
BBXX V2OT9 16183 99372 70013 41997 52435 10180 20092 40170 56030 70211 83040 22253 20307 30000 4//// 5//// 80130
BBXX DBBH 16181 99371 70115 41598 42910 10175 20144 40310 53006 70211 83802 22261 04181 20402 330// 41203
BBXX WKDY 16183 99370 70121 41498 22813 10175 20159 40311 51003 70200 812/9 22224 00181 20204 333// 40605 5//// 6//// 80165 ICE /////
BBXX TBWUK35 16183 99365 70088 41598 82716 10185 20163 40279 55015 75082 884// 22263 00190 20402 333// 40805 80172
BBXX DAXJ 16183 99364 70124 41598 32615 10181 20137 40315 53005 70200 81561 22234 00178 20403 334// 40907 5//// 80154
BBXX PEBT 16183 99364 70082 41498 53022 10180 20118 40290 57020 7//11 858// 22273 02143 20402 328// 40704 5//// 80143
BBXX A8PX4 16184 99364 70078 41398 72713 10178 20125 40283 57012 70322 87700 22264 00179 2//// 80146
BBXX A8UA9 16184 99361 70040 41/98 32740 10153 20123 40240 56023 70200 8///5 22263 20408 80135
AAXX 16184 89614 46/// /0910 11105 29085 39059 4//// 5//// 333 90700 91112
BBXX 42376 16181 99291 70879 46/// /2102 10229 40207 91740 22200 10402 70012
BBXX 42392 16181 99272 70900 46/// ///// 1//// 91740 22200 10503 70013
BBXX 42887 16181 99282 70885 46/// /0602 1//// 91740 22200 10603 70015
AAXX 16184 89614 46/// /0910 11105 29085 39059 4//// 5//// 333 90700 91112
BBXX 42376 16181 99291 70879 46/// /2102 10229 40207 91740 22200 10402 70012
BBXX 42887 16181 99282 70885 46/// /0602 1//// 91740 22200 10603 70015
BBXX 42392 16181 99272 70900 46/// ///// 1//// 91740 22200 10503 70013
BBXX 42369 16181 99272 70903 46/// /1605 1//// 91740 22200 10603 70013
BBXX 42370 16181 99273 70905 46/// ///// 10220 91740 22200 10504 70018
BBXX 42013 16181 99272 70829 46/// ///// 1//// 40218 91820 22200 00203
BBXX 42013 16181 99272 70829 46/// ///// 1//// 40218 58009 91800 22200 00204
AAXX 16181 20046 31996 20000 11241 21260 30147 40181 57002 71000 82030 333 11165
AAXX 16181 20069 42977 00702 11191 21217 30206 40220 52008
AAXX 16184 91648 11499 61015 10281 20248 40096 60011 70228 83208 333 562/9
BBXX AMOUK08 16184 99501 70061 46/// ///// 10099 20049 30018 4//// 52034 91750
BBXX 63110 16184 99595 10015 47598 /3119 10067 20016 49881 52009 700// 22200 10706 70029
BBXX 63055 16184 99606 10016 47995 /3021 10049 20012 49864 53014 704// 22200 10706 70030
BBXX 63106 16184 99610 10017 46/// /3121 10047 49858 52015 22200
BBXX 63113 16184 99610 10017 46/// /3224 10043 20004 49864 53020 22200 10707 70035
BBXX 62103 16184 99499 70029 46/99 /2930 10087 20020 49990 52042 22200 00122 10907 70035 333 90710 91142
BBXX 62095 16184 99530 70159 46/// /3125 10070 20013 40164 52027 22200 00113 10912 70060 333 90710 91137
AAXX 16184 91371 32474 40917 10256 20248 30098 40101 83264 333 56229 84815 82360 84880 555 91618
AAXX 16181 98222 31575 13601 10232 20204 40126 58009 70544 81200 333 56999 81820
AAXX 16184 91371 32474 40917 10256 20248 30098 40101 83264 333 56229 84815 82360 84880 555 91618
AAXX 1618/ 68902 46/// ///// 40047 57004
AAXX 16184 91371 32474 40917 10256 20248 30098 40101 83264 333 56229 84815 82360 84880 555 91618
BBXX mpjh9 16184 99223 11309 41698 80131 10205 20189 40211 57020 75152 887// 22234 00245 20406 80195
AAXX 16184 89266 46/// /1822 11053 21062 39581 49718 57026 91810
AAXX 16184 89262 46/// /2613 10007 20000 39585 49627 57021 91810
AAXX 16184 89065 46/// /3603 10002 21011 39583 49658 5//// 91810
AAXX 16184 89257 46/// /0907 11033 21057 39698 49767 57015 91810
AAXX 16184 783388 11572 30912 10289 20205 30137 40146 60001 70511 82202 333 01209 10301 20232 58010 82822
AAXX 16184 783388 11572 30912 10289 20205 30137 40146 60001 70511 82202 333 01209 10301 20232 58010 82822
BBXX MPJH9 16184 99223 11309 41698 80131 10205 20189 40211 57020 75152 887// 22234 00245 20406 80195
AAXX 16184 89013 46/// /0611 11192 21232 37570 49574 52007 91750
AAXX 16184 89065 46/// /9901 10008 21007 39584 49659 57014 91800
AAXX 16184 89257 46/// /0910 11034 21055 39699 49768 57014 91800
AAXX 16184 89262 46/// /2713 10007 20001 39588 49630 5//// 91800
AAXX 16184 89266 46/// /1822 11053 21061 39583 49720 57032 91800
AAXX 16184 89272 46/// /0710 11069 21108 3//// 4//// 5//// 91800
AAXX 16184 89065 46/// /3603 10002 21011 39583 49658 5//// 91810
AAXX 16184 91375 46/// /0511 10271 40079 22200 00283
BBXX 42369 16181 99272 70903 46/// /1604 1//// 91800 22200 10603 70013
BBXX 42370 16181 99273 70905 46/// ///// 10220 91800 22200 10504 70018
BBXX 42376 16181 99291 70879 46/// /2102 10229 40203 58011 91800 22200 10402 70012
BBXX 42392 16181 99272 70900 46/// ///// 1//// 91800 22200 10603 70013
BBXX 42887 16181 99282 70885 46/// /0702 1//// 91800 22200 10603 70014
AAXX 16184 91165 32466 40411 10228 20194 30165 40201 53013 91753
AAXX 16184 91212 32666 20705 10261 20233 31360 40096 56010 91754
AAXX 16184 91245 32566 20613 10250 20210 30147 91755
AAXX 16184 91285 12566 62503 10200 20178 30181 40195 53006 60021 91753
AAXX 16184 91334 32474 60512 10277 20227 30069 40072 55005 82301
AAXX 16184 91348 11474 80910 10277 20217 30032 40085 55003 69901 78022 8527/
AAXX 16184 91367 11474 60808 10272 20242 60051 70382 82230
AAXX 16184 91376 11474 60710 10264 20236 30078 40081 53003 60021 72582 84801
AAXX 16184 91408 11474 80000 10263 20249 30034 40072 57015 69981 70282 83978
AAXX 16184 91413 32469 80607 10268 20241 30058 40083 57017 83272
AAXX 16184 91610 11599 40815 10267 20231 40076 53001 60001 70200 84200
AAXX 16184 91155 NIL
AAXX 16184 91203 NIL
AAXX 16184 91217 NIL
AAXX 16184 91232 NIL
AAXX 16184 91250 NIL
AAXX 16184 91275 NIL
AAXX 16184 91317 NIL
AAXX 16184 91324 NIL
AAXX 16184 91339 NIL
AAXX 16184 91353 NIL
AAXX 16184 91356 NIL
AAXX 16184 91366 NIL
AAXX 16184 91369 NIL
AAXX 16184 91371 NIL
AAXX 16184 91378 NIL
AAXX 16184 91425 NIL
AAXX 16184 91434 NIL
AAXX 16184 91601 NIL
BBXX 2AUO5 16183 99606 10016 41997 03232 10055 20031 49866 54000 7//88 80000 22200 20703 332// 40904 80045
BBXX 63110 16183 99595 10015 41/98 /3122 10067 49875 700// 8//// 22200 10606 70028
BBXX 63106 16184 99610 10017 46/// /3121 10047 49858 52015 22200
BBXX 63105 16184 99610 10017 47497 ///// 10059 20009 49857 52015 751// 22200
BBXX 62103 16184 99499 70029 46/99 /2931 10088 20026 49994 51036 22200 00123 10807 70035 333 90710 91145
BBXX 62107 16184 99501 70061 46/// /3443 10096 20035 40025 51025 22200 00114 10807 70035 333 90710 91153
BBXX 62095 16184 99530 70159 46/// /3125 10070 20009 40178 52027 22200 00113 10912 70060 333 90710 91137
AAXX 16184 783388 11572 30912 10289 20205 30137 40146 60001 70511 82202 333 01209 10301 20232 58010 82822
AAXX 16184 91165 32466 40411 10228 20194 30165 40201 53013 91753
AAXX 16184 91212 32666 20705 10261 20233 31360 40096 56010 91754
AAXX 16184 91285 12566 62503 10200 20178 30181 40195 53006 60021 91753
AAXX 16184 91334 32474 60512 10277 20227 30069 40072 55005 82301
AAXX 16184 91348 11474 80910 10277 20217 30032 40085 55003 69901 78022 8527/
AAXX 16184 91371 32474 40917 10256 20248 30098 40101 83264 333 56229 84815 82360 84880 555 91618
AAXX 16184 91376 11474 60710 10264 20236 30078 40081 53003 60021 72582 84801
AAXX 16184 91408 11474 80000 10263 20249 30034 40072 57015 69981 70282 83978
AAXX 16184 91413 32469 80607 10268 20241 30058 40083 57017 83272
AAXX 16184 91245 32566 20613 10250 20210 30147 91755
BBXX 42392 16181 99272 70900 46/// ///// 1//// 91800 22200 10603 70013
BBXX 42376 16181 99291 70879 46/// /2102 10229 40203 58011 91800 22200 10402 70012
BBXX 42887 16181 99282 70885 46/// /0702 1//// 91800 22200 10603 70014
BBXX 42369 16181 99272 70903 46/// /1604 1//// 91800 22200 10603 70013
BBXX 42370 16181 99273 70905 46/// ///// 10220 91800 22200 10504 70018
BBXX MPJH9 16184 99223 11309 41698 80131 10205 20189 40211 57020 75152 887// 22234 00245 20406 80195
BBXX mpjh9 16184 99223 11309 41698 80131 10205 20189 40211 57020 75152 887// 22234 00245 20406 80195
AAXX 16184 71307 16/// /2506 10010 21035 30001 40256 50004 60001 333 10021 21011 70003
AAXX 16184 71050 46/// /0000 11035 21043 39152 40248 53005 6///1 333 11034 21093 7////
AAXX 16184 71614 16/// /3010 10026 21034 30086 40152 53023 60001 333 10096 20026 70066
AAXX 16184 08284 02682 42420 10160 20072 30056 40130 58028 60002 81572 333 10160 60007 91151 91237 91527
AAXX 16184 71050 46/// /0000 11035 21043 39152 40248 53005 6///1 333 11034 21093 7////
AAXX 16181 98232 11560 80412 10234 20210 40145 58018 60061 76066 8557/ 333 56199 85620 88358
AAXX 16184 78858 12580 30312 10268 20184 30081 40137 60001 83200 333 10276 20240 58026 83824
AAXX 16184 71665 17/// /2907 11054 21072 39878 49888 56019 60011 7//4/ 333 11050 21092 70018 555 10030
AAXX 16184 71665 17/// /2907 11054 21072 39878 49888 56019 60011 7//4/ 333 11050 21092 70018 555 10030
AAXX 16184 42779 32996 00000 10130 20058 39460 40182 333 58003
AAXX 16184 42874 32996 00000 10164 20108 40157 333 58002
AAXX 16184 97796 31450 80000 10244 20232 30013 40064 57010 70522 8697/ 333 56009 57900 82911 86612 80980
BBXX 42046 16181 99279 70940 46/// /3607 1//// 40211 91830 22200 00229 333 91208
BBXX 42046 16181 99279 70940 46/// /1602 1//// 40216 91800 22200 00229 333 91203
BBXX AMOUK08 16184 99501 70061 46/// ///// 10099 20049 30018 4//// 52034 91750
BBXX 63110 16184 99595 10015 47598 /3119 10067 20016 49881 52009 700// 22200 10706 70029
BBXX 63055 16184 99606 10016 47995 /3021 10049 20012 49864 53014 704// 22200 10706 70030
BBXX 63106 16184 99610 10017 46/// /3121 10047 49858 52015 22200
BBXX 63113 16184 99610 10017 46/// /3224 10043 20004 49864 53020 22200 10707 70035
BBXX 62103 16184 99499 70029 46/99 /2930 10087 20020 49990 52042 22200 00122 10907 70035 333 90710 91142
BBXX 62095 16184 99530 70159 46/// /3125 10070 20013 40164 52027 22200 00113 10912 70060 333 90710 91137
BBXX 42369 16181 99272 70903 46/// /1604 1//// 91820 22200 10603 70013
BBXX 42370 16181 99273 70905 46/// ///// 10220 91820 22200 10504 70018
BBXX 42376 16181 99291 70879 46/// /2102 10229 40203 91820 22200 10402 70012
BBXX 42392 16181 99272 70900 46/// ///// 1//// 91820 22200 10603 70013
BBXX 42887 16181 99282 70885 46/// /0702 1//// 91820 22200 10603 70015
BBXX 42887 16181 99282 70885 46/// /0702 1//// 91820 22200 10603 70015
BBXX 42376 16181 99291 70879 46/// /2102 10229 40203 91820 22200 10402 70012
BBXX 42392 16181 99272 70900 46/// ///// 1//// 91820 22200 10603 70013
BBXX 42370 16181 99273 70905 46/// ///// 10220 91820 22200 10504 70018
BBXX 42369 16181 99272 70903 46/// /1604 1//// 91820 22200 10603 70013
BBXX 42046 16181 99279 70940 46/// /1602 1//// 40216 91800 22200 00229 333 91203
BBXX 42046 16181 99279 70940 46/// /3607 1//// 40211 91830 22200 00229 333 91208
BBXX 52243 16181 99193 11666 46/// ///// 1//// 91800 22200 00254
BBXX 51179 16181 99143 51708 46/// ///// 1//// 91800 22200 00284
BBXX 51178 16181 99142 51695 46/// ///// 1//// 91800 22200 00284
BBXX 52246 16181 99152 11457 46/// ///// 1//// 91800 22200 00282
BBXX 52245 16181 99181 11458 46/// ///// 1//// 91800 22200 00282
BBXX 51174 16181 99142 51697 46/// ///// 1//// 91800 22200 00284
BBXX 52244 16181 99200 11452 46/// ///// 1//// 91800 22200 00269
BBXX 51173 16181 99260 71739 46/// ///// 1//// 91800 22200 00237
BBXX 51172 16181 99284 71783 46/// ///// 1//// 91800 22200 00225
BBXX 51171 16181 99064 71623 46/// ///// 1//// 91800 22200 00279
BBXX 51170 16181 99168 71695 46/// ///// 1//// 91800 22200 00260
BBXX 51169 16181 99004 51600 46/// ///// 1//// 91800 22200 00258
BBXX 52248 16181 99135 11448 46/// ///// 1//// 91800 22200 00279
BBXX ZCDQ4 16184 99396 10147 41798 ///// 10165 20120 40107 54000 70301 85034 22234 00186 2//// 3//// 4//// 5//// 80135
BBXX ZCDQ4 16184 99396 10147 41798 ///// 10165 20120 40107 54000 70301 85034 22234 00186 2//// 3//// 4//// 5//// 80135
BBXX 2AUO5 16183 99606 10016 41997 03232 10055 20031 49866 54000 7//88 80000 22200 20703 332// 40904 80045
BBXX 63110 16183 99595 10015 41/98 /3122 10067 49875 700// 8//// 22200 10606 70028
BBXX 63106 16184 99610 10017 46/// /3121 10047 49858 52015 22200
BBXX 63105 16184 99610 10017 47497 ///// 10059 20009 49857 52015 751// 22200
BBXX 62103 16184 99499 70029 46/99 /2931 10088 20026 49994 51036 22200 00123 10807 70035 333 90710 91145
BBXX 62107 16184 99501 70061 46/// /3443 10096 20035 40025 51025 22200 00114 10807 70035 333 90710 91153
BBXX 62095 16184 99530 70159 46/// /3125 10070 20009 40178 52027 22200 00113 10912 70060 333 90710 91137
BBXX WDE4430 16183 99345 71219 41698 30513 10133 20114 40225 53005 70200 82038 22233 0//// 20302 30635 40504 50504 6//// 80122 ICE /////
BBXX WDE4430 16183 99345 71219 41698 30513 10133 20114 40225 53005 70200 82038 22233 0//// 20302 30635 40504 50504 6//// 80122 ICE /////
BBXX 51173 16181 99260 71739 46/// ///// 1//// 91800 22200 00237
BBXX 51172 16181 99284 71783 46/// ///// 1//// 91800 22200 00225
BBXX 51170 16181 99168 71695 46/// ///// 1//// 91800 22200 00260
BBXX 51171 16181 99064 71623 46/// ///// 1//// 91800 22200 00279
BBXX 51178 16181 99142 51695 46/// ///// 1//// 91800 22200 00284
BBXX 51169 16181 99004 51600 46/// ///// 1//// 91800 22200 00258
BBXX 51179 16181 99143 51708 46/// ///// 1//// 91800 22200 00284
BBXX 51174 16181 99142 51697 46/// ///// 1//// 91800 22200 00284
BBXX 52248 16181 99135 11448 46/// ///// 1//// 91800 22200 00279
BBXX 52246 16181 99152 11457 46/// ///// 1//// 91800 22200 00282
BBXX 52243 16181 99193 11666 46/// ///// 1//// 91800 22200 00254
BBXX 52244 16181 99200 11452 46/// ///// 1//// 91800 22200 00269
BBXX 52245 16181 99181 11458 46/// ///// 1//// 91800 22200 00282
BBXX ZCDQ4 16184 99396 10147 41798 ///// 10165 20120 40107 54000 70301 85034 22234 00186 2//// 3//// 4//// 5//// 80135
AAXX 16181 31137 41998 80000 11441 21459 39097 40300 54000 77172 80005
AAXX 16181 01473 11670 80000 11006 21010 39664 49871 52010 60022 70222 8462/ 333 11005 91102
BBXX MINFR09 1618/ 99380 31449 46/// ///// 40171 57004
AAXX 16184 97192 11440 72806 10266 20246 30028 40085 57010 60041 71596 86910 333 56200 57922 81917 85616 87460 80958
AAXX 16181 14106 11495 81806 10118 20100 39847 49913 57038 60122 76564 887// 333 10125 88710 91113 95090
BBXX AMOUK08 16184 99501 70061 46/// ///// 10099 20049 30018 4//// 52034 91750
BBXX 63110 16184 99595 10015 47598 /3119 10067 20016 49881 52009 700// 22200 10706 70029
BBXX 63055 16184 99606 10016 47995 /3021 10049 20012 49864 53014 704// 22200 10706 70030
BBXX 63106 16184 99610 10017 46/// /3121 10047 49858 52015 22200
BBXX 63113 16184 99610 10017 46/// /3224 10043 20004 49864 53020 22200 10707 70035
BBXX 62103 16184 99499 70029 46/99 /2930 10087 20020 49990 52042 22200 00122 10907 70035 333 90710 91142
BBXX 62095 16184 99530 70159 46/// /3125 10070 20013 40164 52027 22200 00113 10912 70060 333 90710 91137
AAXX 16184 97810 01457 70000 10251 20239 30034 40044 57014 83232 333 56700 57873 83819 85360 80845
AAXX 16184 17067 11560 72806 10087 20077 30102 40125 52027 60022 78088 87200 333 10179 87830 91126 92427
BBXX WDE4430 16183 99345 71219 41698 30513 10133 20114 40225 53005 70200 82038 22233 0//// 20302 30635 40504 50504 6//// 80122 ICE /////
AAXX 16184 97630 31460 60000 10236 20224 39910 40071 56007 71522 86952 333 56000 57901 82912 84813 80978
AAXX 16181 01008 11482 71207 10011 21043 39910 49943 53011 69902 70272 8457/ 333 10020 91119
BBXX MINFR09 1618/ 99380 31449 46/// ///// 40171 57004
AAXX 16181 24143 42999 21801 11313 21350 30081 40136 57003 73673 82070
AAXX 16181 24329 41997 80000 11140 21160 39813 40122 57005 77172 8802/
AAXX 16181 02805 11463 81803 11016 21028 39765 49896 52011 69902 77172 8672/ 333 11016 21048 47///
AAXX 16184 96237 32457 70000 10250 20241 30042 40084 50003 83138 333 56000 83816 83360 88280
AAXX 16184 97028 32560 51002 10238 20223 30059 40065 51007 82521 333 56000 82620 84460
AAXX 16184 48440 31958 00000 10222 20183 30085 40135 57001 71000 333 58017 70000
AAXX 16184 48556 11558 60000 10238 20234 30098 40114 57002 60153 71022 82507 333 58010 70422
AAXX 16184 97260 11558 61303 10249 20238 30048 40055 57008 69901 70562 84501 333 56000 84620
BBXX 2AUO5 16183 99606 10016 41997 03232 10055 20031 49866 54000 7//88 80000 22200 20703 332// 40904 80045
BBXX 63110 16183 99595 10015 41/98 /3122 10067 49875 700// 8//// 22200 10606 70028
BBXX 63106 16184 99610 10017 46/// /3121 10047 49858 52015 22200
BBXX 63105 16184 99610 10017 47497 ///// 10059 20009 49857 52015 751// 22200
BBXX 62103 16184 99499 70029 46/99 /2931 10088 20026 49994 51036 22200 00123 10807 70035 333 90710 91145
BBXX 62107 16184 99501 70061 46/// /3443 10096 20035 40025 51025 22200 00114 10807 70035 333 90710 91153
BBXX 62095 16184 99530 70159 46/// /3125 10070 20009 40178 52027 22200 00113 10912 70060 333 90710 91137
AAXX 16184 03797 15583 /2717 10039 20003 39868 49928 51042 60052 91750 333 10044 55300 20000 87/24 90710 91129
BBXX ONAN 16184 99086 71661 41798 40519 10270 2026/ 40130 51020 7//22 843// 22273 04260 20805 303// 405// 5//// 6//// 80260 ICE /////
BBXX ONAN 16184 99086 71661 41798 40519 10270 2026/ 40130 51020 7//22 843// 22273 04260 20805 303// 405// 5//// 6//// 80260 ICE /////
AAXX 16184 71301 17/// ///// 11129 21164 39822 40233 58002 69931 7//4/ 333 11028 21148 70021 555 10020
AAXX 16184 71376 16/// /2904 11028 21055 39878 40172 51027 60001 333 10052 21028 70160
AAXX 16181 29570 415// 70000 11205 21224 30070 40451 52006 78582 85930
AAXX 16184 96987 32460 60000 10258 20234 30001 40061 57001 83271 333 56000 57802 82819 84460 80860
AAXX 16181 31484 42999 02701 11260 21291 39791 40160 53002
AAXX 16181 25745 42698 60902 11174 21233 30066 40120 52001 86500
AAXX 16184 97530 11450 70000 10244 20242 30060 40065 57005 69901 70522 84872 333 56000 57801 82814 83615 85460 80833
BBXX AMOUK08 16184 99501 70061 46/// ///// 10099 20049 30018 4//// 52034 91750
BBXX 63110 16184 99595 10015 47598 /3119 10067 20016 49881 52009 700// 22200 10706 70029
BBXX 63055 16184 99606 10016 47995 /3021 10049 20012 49864 53014 704// 22200 10706 70030
BBXX 63106 16184 99610 10017 46/// /3121 10047 49858 52015 22200
BBXX 63113 16184 99610 10017 46/// /3224 10043 20004 49864 53020 22200 10707 70035
BBXX 62103 16184 99499 70029 46/99 /2930 10087 20020 49990 52042 22200 00122 10907 70035 333 90710 91142
BBXX 62095 16184 99530 70159 46/// /3125 10070 20013 40164 52027 22200 00113 10912 70060 333 90710 91137
AAXX 16184 97686 31350 80000 10168 20158 38340 40072 56008 70522 86747 333 56000 84709 87360
AAXX 16184 97072 32558 50000 10248 20233 39985 40085 56009 82521 333 56000 82620
AAXX 16183 63612 32680 10905 10300 20183 40096 81100 333 10353 59010 81830
AAXX 16183 63661 32980 23004 10183 20148 48523 83073 333 10265 59006 83359 84078
AAXX 16181 38725 429// 00000 11072 21215 48580 51004
AAXX 1618/ 89332 46/// ///// 11133 39218 4//// 5//// 91830
AAXX 1618/ 89332 46/// ///// 11130 39219 4//// 5//// 91840
AAXX 1618/ 89769 46/// ///// 11061 39854 4//// 5//// 91830
AAXX 1618/ 89769 46/// ///// 11071 39854 4//// 5//// 91840
AAXX 1618/ 89314 46/// ///// 11126 38168 4//// 5//// 91830
AAXX 1618/ 89314 46/// ///// 11130 38168 4//// 5//// 91840
AAXX 1618/ 89329 46/// ///// 11150 38715 4//// 5//// 91830
AAXX 1618/ 89329 46/// ///// 11150 38716 4//// 5//// 91840
AAXX 1618/ 89868 46/// ///// 11090 39836 4//// 5//// 91830
AAXX 1618/ 89108 46/// ///// 11243 36882 4//// 5//// 91840
AAXX 1618/ 89872 46/// ///// 11079 39838 4//// 5//// 91830
AAXX 1618/ 89872 46/// ///// 11064 39838 4//// 5//// 91840
AAXX 1618/ 89869 46/// ///// 11724 39818 4//// 5//// 91830
AAXX 1618/ 89869 46/// ///// 11083 39818 4//// 5//// 91840
AAXX 1618/ 89866 46/// ///// 11058 39769 4//// 5//// 91840
AAXX 1618/ 89799 46/// ///// 11290 4//// 5//// 91830
AAXX 1618/ 89828 46/// ///// 11385 36474 4//// 5//// 91830
AAXX 1618/ 89879 46/// ///// 10004 39750 4//// 5//// 91830
AAXX 1618/ 89879 46/// ///// 10004 39750 4//// 5//// 91840
AAXX 16181 10453 11/90 92625 11054 21054 38391 48051 53043 60252 77374 333 11001 21054 3/103 49092 55300 91140 91232 96049 96039 96475 96469 96467 96449 96439
AAXX 16184 63820 32580 50509 10275 20249 40097 85100 333 10340 59023 85822
BBXX 2AUO5 16183 99606 10016 41997 03232 10055 20031 49866 54000 7//88 80000 22200 20703 332// 40904 80045
BBXX 63110 16183 99595 10015 41/98 /3122 10067 49875 700// 8//// 22200 10606 70028
BBXX 63106 16184 99610 10017 46/// /3121 10047 49858 52015 22200
BBXX 63105 16184 99610 10017 47497 ///// 10059 20009 49857 52015 751// 22200
BBXX 62103 16184 99499 70029 46/99 /2931 10088 20026 49994 51036 22200 00123 10807 70035 333 90710 91145
BBXX 62107 16184 99501 70061 46/// /3443 10096 20035 40025 51025 22200 00114 10807 70035 333 90710 91153
BBXX 62095 16184 99530 70159 46/// /3125 10070 20009 40178 52027 22200 00113 10912 70060 333 90710 91137
AAXX 16181 20667 11996 81705 11029 21033 30128 40135 57003 60010 77172 8802/ 333 11011
AAXX 16184 96739 32460 72505 10255 20237 30045 40094 57001 85570 333 56000 85618
AAXX 16181 20292 41498 62204 11159 21172 30142 40162 52017 70281 86500 333 91107
AAXX 16184 97980 32460 50000 10253 20234 30057 40064 52002 83842 333 56000 83817
AAXX 16184 96741 32556 72607 10276 20236 30073 40077 57008 83571 333 56000 83622
BBXX AMOUK08 16184 99501 70061 46/// ///// 10099 20049 30018 4//// 52034 91750
BBXX 63110 16184 99595 10015 47598 /3119 10067 20016 49881 52009 700// 22200 10706 70029
BBXX 63055 16184 99606 10016 47995 /3021 10049 20012 49864 53014 704// 22200 10706 70030
BBXX 63106 16184 99610 10017 46/// /3121 10047 49858 52015 22200
BBXX 63113 16184 99610 10017 46/// /3224 10043 20004 49864 53020 22200 10707 70035
BBXX 62103 16184 99499 70029 46/99 /2930 10087 20020 49990 52042 22200 00122 10907 70035 333 90710 91142
BBXX 62095 16184 99530 70159 46/// /3125 10070 20013 40164 52027 22200 00113 10912 70060 333 90710 91137
AAXX 16184 48427 31950 30000 10250 20169 30129 40137 57005 70500 80005 333 58016
AAXX 16184 48555 11550 80000 10242 20227 30081 40124 55019 60383 71022 83576 333 58000 70377
BBXX 2AUO5 16183 99606 10016 41997 03232 10055 20031 49866 54000 7//88 80000 22200 20703 332// 40904 80045
BBXX 63110 16183 99595 10015 41/98 /3122 10067 49875 700// 8//// 22200 10606 70028
BBXX 63106 16184 99610 10017 46/// /3121 10047 49858 52015 22200
BBXX 63105 16184 99610 10017 47497 ///// 10059 20009 49857 52015 751// 22200
BBXX 62103 16184 99499 70029 46/99 /2931 10088 20026 49994 51036 22200 00123 10807 70035 333 90710 91145
BBXX 62107 16184 99501 70061 46/// /3443 10096 20035 40025 51025 22200 00114 10807 70035 333 90710 91153
BBXX 62095 16184 99530 70159 46/// /3125 10070 20009 40178 52027 22200 00113 10912 70060 333 90710 91137
AAXX 16184 71429 17/// /2508 10035 20032 39898 49917 53003 60011 7//4/ 333 10036 21007 70219
AAXX 16184 71429 17/// /2508 10035 20032 39898 49917 53003 60011 7//4/ 333 10036 21007 70219
AAXX 16184 96207 31430 70000 10208 20198 39225 40147 57004 71422 84931 333 56000 57901 81914 83615 80958
AAXX 16181 25927 41695 80317 11059 21107 39992 49999 53011 73932 889// 333 91124
BBXX AMOUK08 16184 99501 70061 46/// ///// 10099 20049 30018 4//// 52034 91750
BBXX 63110 16184 99595 10015 47598 /3119 10067 20016 49881 52009 700// 22200 10706 70029
BBXX 63055 16184 99606 10016 47995 /3021 10049 20012 49864 53014 704// 22200 10706 70030
BBXX 63106 16184 99610 10017 46/// /3121 10047 49858 52015 22200
BBXX 63113 16184 99610 10017 46/// /3224 10043 20004 49864 53020 22200 10707 70035
BBXX 62103 16184 99499 70029 46/99 /2930 10087 20020 49990 52042 22200 00122 10907 70035 333 90710 91142
BBXX 62095 16184 99530 70159 46/// /3125 10070 20013 40164 52027 22200 00113 10912 70060 333 90710 91137
BBXX 52249 16181 99052 31503 46/// ///// 1//// 91800 22200 00305
BBXX 2AUO5 16183 99606 10016 41997 03232 10055 20031 49866 54000 7//88 80000 22200 20703 332// 40904 80045
BBXX 63110 16183 99595 10015 41/98 /3122 10067 49875 700// 8//// 22200 10606 70028
BBXX 63106 16184 99610 10017 46/// /3121 10047 49858 52015 22200
BBXX 63105 16184 99610 10017 47497 ///// 10059 20009 49857 52015 751// 22200
BBXX 62103 16184 99499 70029 46/99 /2931 10088 20026 49994 51036 22200 00123 10807 70035 333 90710 91145
BBXX 62107 16184 99501 70061 46/// /3443 10096 20035 40025 51025 22200 00114 10807 70035 333 90710 91153
BBXX 62095 16184 99530 70159 46/// /3125 10070 20009 40178 52027 22200 00113 10912 70060 333 90710 91137
BBXX 52249 16181 99052 31503 46/// ///// 1//// 91800 22200 00305
BBXX AMOUK08 16184 99501 70061 46/// ///// 10099 20049 30018 4//// 52034 91750
BBXX 63110 16184 99595 10015 47598 /3119 10067 20016 49881 52009 700// 22200 10706 70029
BBXX 63055 16184 99606 10016 47995 /3021 10049 20012 49864 53014 704// 22200 10706 70030
BBXX 63106 16184 99610 10017 46/// /3121 10047 49858 52015 22200
BBXX 63113 16184 99610 10017 46/// /3224 10043 20004 49864 53020 22200 10707 70035
BBXX 62103 16184 99499 70029 46/99 /2930 10087 20020 49990 52042 22200 00122 10907 70035 333 90710 91142
BBXX 62095 16184 99530 70159 46/// /3125 10070 20013 40164 52027 22200 00113 10912 70060 333 90710 91137
AAXX 16181 78090 15/// /0000 10226 30210 40214 69901 91800 222// 00127
AAXX 16184 48554 01458 80000 10243 20239 30107 40111 57022 60503 71062 84827 333 58004 60187 71123
AAXX 16184 48554 01457 80000 10243 20238 30106 40110 57022 60503 71096 85227 333 5//// 60187 70899
BBXX 2AUO5 16183 99606 10016 41997 03232 10055 20031 49866 54000 7//88 80000 22200 20703 332// 40904 80045
BBXX 63110 16183 99595 10015 41/98 /3122 10067 49875 700// 8//// 22200 10606 70028
BBXX 63106 16184 99610 10017 46/// /3121 10047 49858 52015 22200
BBXX 63105 16184 99610 10017 47497 ///// 10059 20009 49857 52015 751// 22200
BBXX 62103 16184 99499 70029 46/99 /2931 10088 20026 49994 51036 22200 00123 10807 70035 333 90710 91145
BBXX 62107 16184 99501 70061 46/// /3443 10096 20035 40025 51025 22200 00114 10807 70035 333 90710 91153
BBXX 62095 16184 99530 70159 46/// /3125 10070 20009 40178 52027 22200 00113 10912 70060 333 90710 91137
BBXX WL3108 16184 99475 70864 41/97 80116 11080 40300 77172 22233 00040 20602
BBXX WL3108 16184 99475 70864 41/97 80116 11080 40300 77172 22233 00040 20602
AAXX 16184 71554 17/// /2914 10016 21026 30028 40034 51050 60021 7//4/ 333 10048 20002 70085
BBXX AMOUK08 16184 99501 70061 46/// ///// 10099 20049 30018 4//// 52034 91750
BBXX 63110 16184 99595 10015 47598 /3119 10067 20016 49881 52009 700// 22200 10706 70029
BBXX 63055 16184 99606 10016 47995 /3021 10049 20012 49864 53014 704// 22200 10706 70030
BBXX 63106 16184 99610 10017 46/// /3121 10047 49858 52015 22200
BBXX 63113 16184 99610 10017 46/// /3224 10043 20004 49864 53020 22200 10707 70035
BBXX 62103 16184 99499 70029 46/99 /2930 10087 20020 49990 52042 22200 00122 10907 70035 333 90710 91142
BBXX 62095 16184 99530 70159 46/// /3125 10070 20013 40164 52027 22200 00113 10912 70060 333 90710 91137
AAXX 16184 96295 32460 80000 10256 20242 39978 40080 56007 8552/ 333 56000 85612 88462
BBXX 2AUO5 16183 99606 10016 41997 03232 10055 20031 49866 54000 7//88 80000 22200 20703 332// 40904 80045
BBXX 63110 16183 99595 10015 41/98 /3122 10067 49875 700// 8//// 22200 10606 70028
BBXX 63106 16184 99610 10017 46/// /3121 10047 49858 52015 22200
BBXX 63105 16184 99610 10017 47497 ///// 10059 20009 49857 52015 751// 22200
BBXX 62103 16184 99499 70029 46/99 /2931 10088 20026 49994 51036 22200 00123 10807 70035 333 90710 91145
BBXX 62107 16184 99501 70061 46/// /3443 10096 20035 40025 51025 22200 00114 10807 70035 333 90710 91153
BBXX 62095 16184 99530 70159 46/// /3125 10070 20009 40178 52027 22200 00113 10912 70060 333 90710 91137
AAXX 16184 91723 NIL
AAXX 16184 91964 NIL
BBXX UGPK 17001 99553 11490 43/99 43208 11010 49880 54000 22211 00010 2//40 3//04
BBXX AMOUK08 16184 99501 70061 46/// ///// 10099 20049 30018 4//// 52034 91750
BBXX 63110 16184 99595 10015 47598 /3119 10067 20016 49881 52009 700// 22200 10706 70029
BBXX 63055 16184 99606 10016 47995 /3021 10049 20012 49864 53014 704// 22200 10706 70030
BBXX 63106 16184 99610 10017 46/// /3121 10047 49858 52015 22200
BBXX 63113 16184 99610 10017 46/// /3224 10043 20004 49864 53020 22200 10707 70035
BBXX 62103 16184 99499 70029 46/99 /2930 10087 20020 49990 52042 22200 00122 10907 70035 333 90710 91142
BBXX 62095 16184 99530 70159 46/// /3125 10070 20013 40164 52027 22200 00113 10912 70060 333 90710 91137
AAXX 16184 48405 32960 30507 10200 20139 30003 40170 57001 80005 333 5//// 70000
AAXX 16184 48405 32960 30507 10200 20139 30003 40170 57001 80005 333 5//// 70000
AAXX 16181 32099 42598 63210 11137 21157 30051 40059 56001 83530 333 91012 91114
AAXX 16181 31295 42999 53202 11223 21264 39718 40208 52004 82031
BBXX 2AUO5 16183 99606 10016 41997 03232 10055 20031 49866 54000 7//88 80000 22200 20703 332// 40904 80045
BBXX 63110 16183 99595 10015 41/98 /3122 10067 49875 700// 8//// 22200 10606 70028
BBXX 63106 16184 99610 10017 46/// /3121 10047 49858 52015 22200
BBXX 63105 16184 99610 10017 47497 ///// 10059 20009 49857 52015 751// 22200
BBXX 62103 16184 99499 70029 46/99 /2931 10088 20026 49994 51036 22200 00123 10807 70035 333 90710 91145
BBXX 62107 16184 99501 70061 46/// /3443 10096 20035 40025 51025 22200 00114 10807 70035 333 90710 91153
BBXX 62095 16184 99530 70159 46/// /3125 10070 20009 40178 52027 22200 00113 10912 70060 333 90710 91137
AAXX 16184 48583 31457 80810 10270 20233 30091 40097 57007 71022 82877 333 58002 70378
AAXX 16184 97240 31458 50000 10254 20243 39944 40058 57020 70521 83131 333 56000 83816
AAXX 16181 36982 429// 52004 11211 21278 36516 47190 54000 81034 333 1115
AAXX 16181 36982 429// 52004 11211 21278 36516 47190 54000 81034 333 1115
AAXX 16181 36982 429// 52004 11211 21278 36516 47190 54000 81034 333 11155
AAXX 16184 48581 01540 80000 10239 20235 30069 40111 57004 60753 72166 8257/ 333 59006 60047 70800
BBXX AMOUK08 16184 99501 70061 46/// ///// 10099 20049 30018 4//// 52034 91750
BBXX 63110 16184 99595 10015 47598 /3119 10067 20016 49881 52009 700// 22200 10706 70029
BBXX 63055 16184 99606 10016 47995 /3021 10049 20012 49864 53014 704// 22200 10706 70030
BBXX 63106 16184 99610 10017 46/// /3121 10047 49858 52015 22200
BBXX 63113 16184 99610 10017 46/// /3224 10043 20004 49864 53020 22200 10707 70035
BBXX 62103 16184 99499 70029 46/99 /2930 10087 20020 49990 52042 22200 00122 10907 70035 333 90710 91142
BBXX 62095 16184 99530 70159 46/// /3125 10070 20013 40164 52027 22200 00113 10912 70060 333 90710 91137
AAXX 16184 48426 31557 20505 10246 20160 30128 40141 57005 70500 82105 333 58018 70000
AAXX 16184 48426 31557 20505 10246 20160 30128 40141 57005 70500 82105 333 58018 70000
AAXX 16184 48001 NIL
AAXX 16184 48004 NIL
AAXX 16184 48008 31910 00000 10150 20134 40154 71044 333 58015
AAXX 16184 48010 NIL
AAXX 16184 48018 32920 00000 10170 20154 40140 333 59009
AAXX 16184 48019 NIL
AAXX 16184 48020 NIL
AAXX 16184 48025 NIL
AAXX 16184 48035 NIL
AAXX 16184 48037 NIL
AAXX 16184 48042 32956 00000 10172 20135 40146 333 58008
AAXX 16184 48045 NIL
AAXX 16184 48048 NIL
AAXX 16184 48053 32940 00000 10160 20123 40148 333 58004
AAXX 16184 48057 NIL
AAXX 16184 48060 32410 80000 10190 20159 40149 84970 333 56560 59013
AAXX 16184 48062 31540 40000 10180 20160 40140 74011 83830 333 56990 58002
AAXX 16184 48071 /1930 00000 10172 20154 40139 71000 333 58003
AAXX 16184 48077 NIL
AAXX 16184 48078 NIL
AAXX 16184 48080 32950 00000 10168 20144 40131 333 59010
AAXX 16184 48094 32950 00000 10210 20200 40137 333 59003
AAXX 16184 48097 32950 00000 10210 20200 40137 333 59003
AAXX 16184 48108 31596 60000 10250 20212 40127 70522 82205 333 56109 58005
AAXX 16184 48109 32496 30401 10270 20226 40113 81531 333 56999 58007
AAXX 16184 48110 31595 80903 10250 20219 40125 705// 82257 333 56999 58007
AAXX 16184 48001 NIL
AAXX 16184 48004 NIL
AAXX 16184 48008 31910 00000 10150 20134 40154 71044 333 58015
AAXX 16184 48010 NIL
AAXX 16184 48018 32920 00000 10170 20154 40140 333 59009
AAXX 16184 48019 NIL
AAXX 16184 48020 NIL
AAXX 16184 48025 NIL
AAXX 16184 48035 NIL
AAXX 16184 48037 NIL
AAXX 16184 48042 32956 00000 10172 20135 40146 333 58008
AAXX 16184 48045 NIL
AAXX 16184 48048 NIL
AAXX 16184 48053 32940 00000 10160 20123 40148 333 58004
AAXX 16184 48057 NIL
AAXX 16184 48060 32410 80000 10190 20159 40149 84970 333 56560 59013
AAXX 16184 48062 31540 40000 10180 20160 40140 74011 83830 333 56990 58002
AAXX 16184 48071 /1930 00000 10172 20154 40139 71000 333 58003
AAXX 16184 48077 NIL
AAXX 16184 48078 NIL
AAXX 16184 48080 32950 00000 10168 20144 40131 333 59010
AAXX 16184 48094 32950 00000 10210 20200 40137 333 59003
AAXX 16184 48097 32950 00000 10210 20200 40137 333 59003
AAXX 16184 48108 31596 60000 10250 20212 40127 70522 82205 333 56109 58005
AAXX 16184 48109 32496 30401 10270 20226 40113 81531 333 56999 58007
AAXX 16184 48110 31595 80903 10250 20219 40125 705// 82257 333 56999 58007
BBXX LAOW5 16184 99233 51482 41897 19902 10260 20217 40150 54/// 71900 81483 22254 00270 21001 31616 41002 51002 6//// 80230 ICE /////
BBXX LAOW5 16184 99233 51482 41897 19902 10260 20217 40150 54/// 71900 81483 22254 00270 21001 31616 41002 51002 6//// 80230 ICE /////
BBXX 2AUO5 16183 99606 10016 41997 03232 10055 20031 49866 54000 7//88 80000 22200 20703 332// 40904 80045
BBXX 63110 16183 99595 10015 41/98 /3122 10067 49875 700// 8//// 22200 10606 70028
BBXX 63106 16184 99610 10017 46/// /3121 10047 49858 52015 22200
BBXX 63105 16184 99610 10017 47497 ///// 10059 20009 49857 52015 751// 22200
BBXX 62103 16184 99499 70029 46/99 /2931 10088 20026 49994 51036 22200 00123 10807 70035 333 90710 91145
BBXX 62107 16184 99501 70061 46/// /3443 10096 20035 40025 51025 22200 00114 10807 70035 333 90710 91153
BBXX 62095 16184 99530 70159 46/// /3125 10070 20009 40178 52027 22200 00113 10912 70060 333 90710 91137
BBXX A8VL8 16184 99114 30793 41298 40402 10300 20246 40080 54000 7//22 842// 22213 00260 202// 3//// 402// 5//// 6//// 80260 ICE /////
BBXX A8VL8 16184 99114 30793 41298 40402 10300 20246 40080 54000 7//22 842// 22213 00260 202// 3//// 402// 5//// 6//// 80260 ICE /////
AAXX 16184 71604 17/// /2411 10068 20062 69981 7//4/ 333 10074 21034 70223
BBXX A8VL8 16184 99114 30793 41298 40402 10300 20246 40080 54000 7//22 842// 22213 00260 202// 3//// 402// 5//// 6//// 80260 ICE /////
BBXX SHIP 16184 99371 31287 41/97 81322 10166 20166 40069 71554 222// 00166 20500 310// 40803 5////
BBXX SHIP 16184 99371 31287 41/97 81322 10166 20166 40069 71554 222// 00166 20500 310// 40803 5////
BBXX SHIP 16184 99371 31287 41/97 81322 10166 20166 40069 71554 222// 00166 20500 310// 40803 5////
AAXX 16184 89573 35980 01119 11020 21144 39935 49957 52008
AAXX 16184 89573 35980 01119 11020 21144 39935 49957 52008
BBXX VRAC9 16184 99185 10701 41398 20812 10230 2019/ 40160 54/// 7//00 82/8/ 22233 00280 2//// 3//// 4//// 5//// 6//// 80200 ICE /////
AAXX 16184 67009 32580 30000 10265 20236 39982 40100 51009 83200 333 10325 83820
BBXX VRAC9 16184 99185 10701 41398 20812 10230 2019/ 40160 54/// 7//00 82/8/ 22233 00280 2//// 3//// 4//// 5//// 6//// 80200 ICE /////
BBXX UAWH 16180 99705 10163 42698 72308 10040 2//// 49830 51013 70202 8//// 22281 00077 20504
AAXX 16184 71314 17/// /3504 10016 20002 39836 40191 58007 69991 7//4/ 333 10020 20005 70044
AAXX 16184 68004 36/// /2602 10290 20018 38535 48491 53002 333 10344 20290 91005 555 91017
AAXX 16184 68006 36/// /0000 10294 20051 38901 48491 53003 333 10359 20294 91003 555 91013
AAXX 16184 68010 36/// /3404 10284 20068 38901 48511 52003 333 10363 20282 91006 555 91015
AAXX 16184 68018 36/// /0903 10276 20155 38892 48505 52015 333 10352 20274 91005 555 91015
AAXX 16184 68098 32880 32412 10163 20108 30041 40149 53005 83080 333 10234 20163 91013 555 91014
AAXX 16184 68102 36/// /2207 10284 21023 38730 48486 53002 333 10350 20284 91013 555 91014
AAXX 16184 68112 36/// /1803 10217 20090 38331 48513 53002 333 10336 20217 91003 555 91021
AAXX 16184 68116 36/// /0000 10279 20063 38565 48515 53002 333 10354 20279 91002 555 91019
AAXX 16184 68212 36/// /0000 10320 21030 38892 48522 53004 333 10380 20320 91000 555 91016
AAXX 16184 68312 36/// /0000 10324 21014 38939 48519 53002 333 10369 20324 91003 555 91015
AAXX 16184 68110 36/// /2407 10268 21036 38283 48497 53002 333 10334 20268 91014 555 91020
AAXX 16184 68014 36/// /2705 10217 20040 38595 48512 52007 333 10335 20214 91006 555 91019
AAXX 16184 68102 36/// /2206 10283 21014 38732 48488 52011 333 10350 20283 91012 555 91014
AAXX 16184 68116 36/// /0000 10277 20073 38566 48516 52011 333 10354 20277 91003 555 91019
AAXX 16184 68212 36/// /0000 10316 21033 38893 48522 52007 333 10380 20316 91002 555 91016
AAXX 16184 68312 36/// /0000 10326 21012 38939 48520 52007 333 10369 20324 91002 555 91015
AAXX 16184 68004 36/// /2802 10289 20017 38535 48491 52007 333 10344 20289 91004 555 91017
AAXX 16184 68300 36/// /1918 10140 20098 39985 40136 52010 333 10222 20140 91023 555 91013
AAXX 16184 91487 NIL
AAXX 16184 91490 NIL
AAXX 16184 91533 NIL
AAXX 16184 91601 NIL
AAXX 16184 91610 11599 40815 10267 20231 40076 53001 60001 70200 84200 333 562//
AAXX 16184 84818
AAXX 16184 91623 NIL
AAXX 16184 91629 NIL
AAXX 16184 91701 NIL
AAXX 16184 91487 NIL
AAXX 16184 91490 NIL
AAXX 16184 91533 NIL
AAXX 16184 91601 NIL
AAXX 16184 91610 11599 40815 10267 20231 40076 53001 60001 70200 84200 333 562//
AAXX 16184 84818
AAXX 16184 91623 NIL
AAXX 16184 91629 NIL
AAXX 16184 91701 NIL
AAXX 16184 44454 42557 10000 10058 20050 38681 48513 81100 333 58004
AAXX 16184 44454 42557 10000 10058 20050 38681 48513 81100 333 58004
AAXX 16181 10554 01275 72718 10020 20000 39364 49743 53058 60022 76862 8451/ 333 10084 20013 31000 55300 20000 30000 69927 82704 83616 87463 91126 90211 91218 91220
AAXX 16181 10506 01245 82706 10008 20000 39292 49870 53075 60122 77187 8372/ 333 10086 20008 31000 55300 20000 30000 69957 83705 88526 91119 91212 96483
AAXX 16181 10548 01468 72606 10012 21004 39255 49787 53063 60192 78586 873// 333 10067 21001 3/000 42002 55300 20000 30000 69917 87913 91119 91211
AAXX 16181 10554 01275 72718 10020 20000 39364 49743 53058 60022 76876 8451/ 333 10084 20013 31000 55300 20000 30000 69927 82704 83616 87463 91126 90211 91218 91220
AAXX 16184 71288 16/// /2806 11287 21315 30089 40115 56002 60001 333 11276 21299 70003
AAXX 16181 10506 01245 82706 10008 20000 39292 49870 53075 60122 77186 8372/ 333 10086 20008 31000 55300 20000 30000 69957 83705 88526 91119 91212 96483
AAXX 16181 10788 07688 72312 10082 20049 39403 49819 53021 60122 72365 333 10099 20020 3/001 55300 20000 30000 69967 81/41 84/50 91121 91214
AAXX 16181 10532 17488 72507 10036 20010 39572 49816 53078 60122 70060 333 10101 20027 3/002 55300 20000 30000 87/15 87/32 87/71 91122 91217
AAXX 16181 10554 01275 72718 10020 20000 39364 49743 53058 60022 76862 8451/ 333 10084 20013 31000 55300 20000 30000 69927 82704 83616 87463 91126 90211 91218 91220
AAXX 16184 71372 16/// /2908 10032 21021 60001 333 7////
AAXX 16184 71372 16/// /2908 10032 21021 60001 333 7////
