AAXX 22184 40340 32960 00404 10176 20099 40146 52010 333 10225
BBXX 44172 22181 99445 70634 46/// ///// 1//// 91731 22200 00065 10805 20805 316// 41101 70023
BBXX 44097 22181 99410 70711 46/// ///// 1//// 91732 22200 00116 10905 20905 322// 41101 70026
BBXX 46218 22181 99345 71208 46/// ///// 1//// 91732 22200 00140 11306 21003 331// 41305 70028
BBXX ZMFR 22174 99415 31747 43/// /22// 10130 20107 40265 57009 22212 00123
BBXX ZMENA 22174 99368 31748 46/// ///// 10163 20141 40228 57009 22200
BBXX WZP8164 22184 99472 70867 43/// /0124 11050 2//// 40217 5//// 7//// 8//// 222// 0//// 2//04 3//// 4//// 5//// 6//// 8//// ICE /////
AAXX 22184 40296 32960 00000 10170 20118 40146 54002 333 10230
AAXX 22184 78764 31460 70910 10234 20170 39024 40148 58005 71522 82532 333 10245 20200 30/// 56220 58012 82610 83360 87075
AAXX 22184 78764 31460 70910 10234 20170 39024 40148 58005 71522 82532 333 10245 20200 30/// 56220 58012 82610 83360 87075
AAXX 22184 78764 31460 70910 10234 20170 39024 40148 58005 71522 82532 333 10245 20200 30/// 56220 58012 82610 83360 87075
AAXX 22184 40255 32960 00000 10126 20051 39449 40167 52004 333 10178
AAXX 22184 40270 31956 00000 10110 20033 39260 40161 52009 70500 333 10174
AAXX 22184 40272 32960 00000 10070 20023 39323 40174 54002 333 10174
BBXX C6WK7 22184 99289 70135 41697 40614 10177 2//// 40280 53/// 7//11 82202 22200 00200 2//// 319// 41001 5//// 6//// 8//// ICE /////
BBXX WDD2876 22184 99446 70865 41/98 80128 10022 2//// 40196 53/// 70222 8//// 22243 00061 2//02 3//// 4//// 5//// 6//// 8//// ICE /////
AAXX 22184 08495 12982 02607 10160 20112 30255 40263 52001 60002 91750 333 10191
BBXX 46249 22181 99338 71197 46/// ///// 1//// 91742 22200 00145 10504 20503 325// 41302 70019
BBXX 46248 22181 99461 71247 46/// ///// 1//// 91734 22200 00079 11103 21002 327// 41102 70017
BBXX 46244 22181 99409 71244 46/// ///// 1//// 91735 22200 00095 11305 21003 330// 41303 70023
BBXX 46240 22181 99366 71219 46/// ///// 1//// 91742 22200 00122 11302 21002 335// 41302 70012
BBXX 46237 22181 99378 71226 46/// ///// 1//// 91740 22200 00110 11303 21002 326// 41302 70015
BBXX 46212 22181 99408 71243 46/// ///// 1//// 91742 22200 00096 11304 20703 330// 41303 70021
BBXX 46217 22181 99342 71194 46/// ///// 1//// 91742 22200 00145 11303 20503 327// 41302 70017
BBXX 46211 22181 99469 71242 46/// ///// 1//// 91736 22200 00080 11303 21002 327// 41302 70015
BBXX 44098 22181 99428 70702 46/// ///// 1//// 91737 22200 00087 10402 20402 70010
AAXX 22184 61902 11482 61415 10252 20198 40125 69952 70182 868// 333 10275 58005 82815 85635
AAXX 22184 68392 36/// /3412 10224 20148 39875 4//// 53020 333 10307 20224 91020 555
BBXX 51205 22181 99210 71564 46/// ///// 1//// 91748 22200 00237 10805 20805 332// 41101 70024
BBXX 46114 22181 99364 71222 46/// ///// 1//// 91734 22200 00121 11305 21003 330// 41304 70027
BBXX 44039 22181 99411 70727 46/// /2405 10104 20079 40183 91745 22200 00095 10401 70006 333 91206
BBXX 44060 22181 99413 70721 46/// ///04 10100 40169 91745 22200 00109 333 91205 555 11036 22041
BBXX 44022 22181 99409 70737 46/// ///06 10128 20038 40178 91745 22200 00084 333 91208 555 11067 22082
BBXX 41115 22181 99184 70673 46/// ///// 1//// 91735 22200 11105 21003 301// 41103 70024
BBXX 41114 22181 99276 70802 46/// ///// 1//// 91746 22200 00246 11203 20502 307// 41201 70013
BBXX 42363 22181 99282 70892 46/// /1916 10244 20206 40163 91745 333 91217
BBXX 42364 22181 99291 70881 46/// /1811 10233 20217 40163 91745
BBXX 51203 22181 99208 71570 46/// ///// 1//// 91743 22200 00249 11501 20901 320// 41501 70006
BBXX 52200 22181 99134 11448 46/// ///// 1//// 91745 22200 00287 11105 21004 311// 41102 70023
BBXX 51201 22181 99217 71581 46/// ///// 1//// 91742 22200 00239 10703 20703 331// 41201 70017
AAXX 22184 91376 32474 80518 10273 20235 30046 40049 53002 84808 333 561/9 70015 555 92218
AAXX 22184 91376 32474 80518 10273 20235 30046 40049 53002 84808 333 561/9 70015 555 92218
AAXX 22184 08583 31520 10615 10252 20170 40149 70400 81500 333 10277 58002 81620
AAXX 22184 08589 31930 00712 10252 20195 40136 70500 333 10273 58006
AAXX 22184 08594 31450 10817 10246 20172 40141 70544 81500 333 10263 58006 81614
BBXX BAREU63 22184 99414 10125 46/// /1308 10109 29055 40169 52017 22272
BBXX TESTFR9 22184 99508 70011 46/// /2619 10107 29089 40292 57014 22272
AAXX 22184 68382 36/// /2905 10255 20145 39317 48513 53012 333 10316 20253 91010 555 91013
AAXX 22184 16597 32665 33325 10104 21012 30062 40150 53022 81260 333 10136 81845 83360 91139 91534
AAXX 22184 96315 11157 81703 10244 20242 40079 60353 76186 8487/ 333 81702 86465
AAXX 22184 96323 NIL
AAXX 22184 91772 11498 50705 10256 20243 4//// 60021 72522 8383/ 333 5619/ 82817 83630 85362
AAXX 22184 91776 NIL
AAXX 22184 91779 31498 60000 10254 20240 40077 53007 60001 70212 82701 333 569/9 81709 86078
AAXX 22184 91784 11498 80710 10248 20227 40077 53003 60401 70268 81238 333 56199 81817 84362 88277
AAXX 22184 91792 31498 70000 10236 20230 40085 53008 60001 70222 8217/ 333 5699/ 82815 87360
AAXX 22184 91772 11498 50705 10256 20243 4//// 60021 72522 8383/ 333 5619/ 82817 83630 85362
AAXX 22184 91776 NIL
AAXX 22184 91779 31498 60000 10254 20240 40077 53007 60001 70212 82701 333 569/9 81709 86078
AAXX 22184 91784 11498 80710 10248 20227 40077 53003 60401 70268 81238 333 56199 81817 84362 88277
AAXX 22184 91792 31498 70000 10236 20230 40085 53008 60001 70222 8217/ 333 5699/ 82815 87360
BBXX DBKV 22181 99169 70250 46/// /0705 10241 20174 40147 57005 22230 00237
BBXX DBBU 22181 99547 10133 46/// /1808 10019 20025 40179 52003 22241 00061
BBXX DBBT 22181 99339 30184 46/// /1902 10195 20089 40171 52024 22260 00156
BBXX DBFR 22181 99535 10086 46/// /2402 10076 20076 40195 52014 22250 00046
AAXX 22181 13579 11665 83609 11002 21047 39279 40133 52019 69902 72272 8351/ 333 11001 83640 88460 99601
AAXX 22184 78954 12582 40923 10290 20211 30067 40131 83201 333 10299 20254 58004 83820 83080
AAXX 22184 61901 169// /1311 10169 20132 39667 40175 53001 69922 91750 333 10198 8//99 555 7/090
AAXX 22184 78858 11477 60717 10270 20197 30113 40169 69901 70381 86800 333 10277 20226 58004 86817
AAXX 22184 89009 42961 30810 11241 36878 51003 80008 333 83265
AAXX 22184 78954 12582 40923 10290 20211 30067 40131 83201 333 10299 20254 58004 83820 83080
AAXX 22184 89009 42961 30810 11241 36878 51003 80008 333 83265
AAXX 22184 91643 11498 79903 10260 20243 40057 53013 60031 71628 8437/ 333 5689/ 84918 87460
AAXX 22184 78384 12560 31109 10287 20221 40161 60001 83100 333 10295 20247 58004 70000 83823
AAXX 22184 78383 12460 11113 10290 20221 40155 60001 81202 333 10295 20247 59012 70000 81818
AAXX 22184 91643 11498 79903 10260 20243 40057 53013 60031 71628 8437/ 333 5689/ 84918 87460
BBXX WCZ5238 22184 99242 71563 41698 32019 10250 20222 40126 57004 7//00 83231 22273 00265 20303 315// 40504 5//// 6//// 80230 ICE /////
BBXX C6DM2 22183 99056 11001 419// 00202 10260 20232 40080 50010 78088 80/// 22231 0//// 2//// 3//// 4//// 5//// 6//// 80240 ICE /////
BBXX NWS0022 22184 99416 70714 43/// /3113 10147 20037 40155 5//// 7//// 8//// 222// 04117 2//// 3//// 4//// 5//// 6//// 8//// ICE /////
BBXX WSNB 22184 99495 71349 41197 81944 00/// 10100 2009/ 49958 56004 75352 886// 22232 0//// 20617 319// 40812 5//// 6//// 80093 ICE /////
BBXX WACW 22184 99528 71381 41/96 /1435 10070 2005/ 49890 57040 75122 8/64/ 22232 00070 20909 3//// 40909 5//// 6//// 80060 ICE /////
BBXX WDC6698 22184 99091 71462 43/// /0514 1//// 2//// 40090 5//// 7//// 8//// 222// 04254 2//// 3//// 4//// 5//// 6//// 8//// ICE /////
BBXX C6XP7 22183 99221 70711 41298 61220 10250 20236 40190 51/// 75051 8427/ 22274 00250 20303 327// 4//// 5//// 6//// 80240 ICE /////
BBXX PCHM 22184 99440 31667 41898 51404 10140 20140 40258 55003 70222 84012 22233 00160 20101 30000 80140
BBXX V7NV4 22184 99300 71649 41597 62313 10200 20185 40210 54000 703// 82416 22263 00180 20200 328// 40506 5//// 6//// 80190 ICE /////
BBXX SHIP 22184 99218 11443 41998 01912 10250 2024/ 40130 54000 70200 80000 22213 00380 20702 306// 41004 5//// 6//// 80240 ICE /////
BBXX LAIG7 22184 99334 11769 41797 73307 10170 2017/ 40250 52010 70222 8747/ 22223 00195 20501 332// 41207 5//// 6//// 80170 ICE /////
BBXX C6DM2 22183 99056 11001 419// 00202 10260 20232 40080 50010 78088 80/// 22231 0//// 2//// 3//// 4//// 5//// 6//// 80240 ICE /////
BBXX V7DI8 22183 99199 11214 43/95 /0433 10220 2019/ 40160 53010 7//// 8//// 22200 00280 2//// 3//// 4//// 5//// 6//// 80200 ICE /////
BBXX ELZA8 22183 99023 70461 41498 30820 10275 20255 40090 54000 70300 83100 22275 04280 20802 309// 41003 80260
BBXX DBBT 22181 99339 30184 46/// /1902 10195 20089 40171 52024 22260 00156
BBXX DBKV 22181 99169 70250 46/// /0705 10241 20174 40147 57005 22230 00237
BBXX ONDY 22184 99331 30302 41396 81817 10220 2016/ 40110 52030 75252 8//// 22213 00231 2//// 3//// 4//// 5//// 6//// 80180 ICE /////
BBXX C6WK7 22184 99289 70135 41697 40614 10177 2//// 40280 53/// 7//11 82202 22200 00200 2//// 319// 41001 5//// 6//// 8//// ICE /////
BBXX V7NV4 22184 99300 71649 41597 62313 10200 20185 40210 54000 703// 82416 22263 00180 20200 328// 40506 5//// 6//// 80190 ICE /////
BBXX KFMV 22183 99332 71251 41998 30110 10122 2010/ 40247 52020 70510 80004 22264 00150 20302 33133 40604 50802 6//// 80111 ICE /////
BBXX WACW 22184 99528 71381 41/96 /1435 10070 2005/ 49890 57040 75122 8/64/ 22232 00070 20909 3//// 40909 5//// 6//// 80060 ICE /////
BBXX WDE9586 22183 99482 71256 43898 31115 10080 2004/ 40255 56015 7//// 83/81 22214 00090 20603 3//// 4//// 5//// 6//// 80060 ICE /////
BBXX WSNB 22184 99495 71349 41197 81944 00/// 10100 2009/ 49958 56004
BBXX C6OT4 22184 99181 71396 41598 80623 40151 51010 70222 888// 22223 04236 20906 309// 40905 5////
BBXX 46114 22181 99364 71222 46/// ///// 1//// 91734 22200 00121 11305 21003 330// 41304 70027
BBXX 51205 22181 99210 71564 46/// ///// 1//// 91748 22200 00237 10805 20805 332// 41101 70024
BBXX 42363 22181 99282 70892 46/// /1916 10244 20206 40163 91745 333 91217
BBXX 42364 22181 99291 70881 46/// /1811 10233 20217 40163 91745
BBXX 41114 22181 99276 70802 46/// ///// 1//// 91746 22200 00246 11203 20502 307// 41201 70013
BBXX 41115 22181 99184 70673 46/// ///// 1//// 91735 22200 11105 21003 301// 41103 70024
BBXX 44060 22181 99413 70721 46/// ///04 10100 40169 91745 22200 00109 333 91205 555 11036 22041
BBXX 44039 22181 99411 70727 46/// /2405 10104 20079 40183 91745 22200 00095 10401 70006 333 91206
BBXX 44022 22181 99409 70737 46/// ///06 10128 20038 40178 91745 22200 00084 333 91208 555 11067 22082
BBXX ZCDF4 22183 99223 71094 41598 50330 10190 20147 40179 53008 70200 85418 22235 00210 20302 330// 40802 5//// 80165
BBXX 44098 22181 99428 70702 46/// ///// 1//// 91737 22200 00087 10402 20402 70010
BBXX 46211 22181 99469 71242 46/// ///// 1//// 91736 22200 00080 11303 21002 327// 41302 70015
BBXX 46217 22181 99342 71194 46/// ///// 1//// 91742 22200 00145 11303 20503 327// 41302 70017
BBXX 46240 22181 99366 71219 46/// ///// 1//// 91742 22200 00122 11302 21002 335// 41302 70012
BBXX 46212 22181 99408 71243 46/// ///// 1//// 91742 22200 00096 11304 20703 330// 41303 70021
BBXX 46237 22181 99378 71226 46/// ///// 1//// 91740 22200 00110 11303 21002 326// 41302 70015
BBXX 46244 22181 99409 71244 46/// ///// 1//// 91735 22200 00095 11305 21003 330// 41303 70023
BBXX 46248 22181 99461 71247 46/// ///// 1//// 91734 22200 00079 11103 21002 327// 41102 70017
BBXX 46249 22181 99338 71197 46/// ///// 1//// 91742 22200 00145 10504 20503 325// 41302 70019
BBXX 4XIS 22183 99380 71657 43/97 82625 10130 2005/ 40170 53035 22225 80090
BBXX WKAW 22184 99464 70437 41498 52419 10060 2002/ 40268 56006 70222 8517/ 22224 00060 20503 301// 41005 5//// 6//// 80040 ICE /////
BBXX ZCDA9 22183 99315 71241 41598 33506 10135 20122 40243 52018 70200 82404 22264 00170 20202 333// 40404 5//// 80128
BBXX WJBU 22184 99487 71345 41198 71837 10094 2008/ 40051 54000 75052 871// 22232 0//// 21212 318// 4//// 5//// 6//// 80089 ICE /////
BBXX WSRH 22184 99339 71340 41498 10213 10150 2012/ 40250 54000 7//00 81100 22254 00144 20402 302// 40504 5//// 6//// 80133 ICE /////
BBXX WGEB 22184 99208 71767 41598 20814 10244 2020/ 40171 54000 70200 824// 22265 00262 20403 308// 40704 5//// 6//// 80211 ICE /////
BBXX SHIP 22183 99152 70754 41598 30929 10280 2022/ 40090 5//// 7//00 832// 22273 00280 20708 309// 41006 5//// 6//// 80240 ICE /////
BBXX DADD 22183 99282 70728 41498 61118 10228 20186 40235 57015 70311 8324/ 22224 00250 20402 312// 40703 5//// 80200
BBXX WCZ5238 22184 99242 71563 41698 32019 10250 20222 40126 57004 7//00 83231 22273 00265 20303 315// 40504 5//// 6//// 80230 ICE /////
BBXX WDD2876 22184 99446 70865 41/98 80128 10022 2//// 40196 53/// 70222 8//// 22243 00061 2//02 3//// 4//// 5//// 6//// 8//// ICE /////
BBXX A8CK2 22184 99100 30800 41/97 /2107 10285 20264 40090 52010 70200 8//// 22254 20702 3//// 4//// 5//// 80270
BBXX ZCDE3 22183 99167 30874 41698 81220 10248 20204 40096 54000 70322 8692/ 22214 00270 20607 305// 40404 5//// 80219
BBXX 3FSB4 22184 99170 71018 437// 43407 10280 2024/ 40130 52010 7//// 84//6 22234 0//// 20301 3//// 40202 5//// 6//// 80250 ICE /////
AAXX 22184 78384 12560 31109 10287 20221 40161 60001 83100 333 10295 20247 58004 70000 83823
AAXX 22184 78383 12460 11113 10290 20221 40155 60001 81202 333 10295 20247 59012 70000 81818
BBXX DBBU 22181 99547 10133 46/// /1808 10019 20025 40179 52003 22241 00061
BBXX DBFR 22181 99535 10086 46/// /2402 10076 20076 40195 52014 22250 00046
BBXX WDD6126 22184 99439 70247 41298 52924 10140 2009/ 40256 52020 70222 8519/ 22254 00130 20505 327// 40607 5//// 6//// 80110 ICE /////
BBXX MYSU5 22183 99479 70271 41398 23215 10100 20031 40243 52030 70200 82300 22223 00120 20403 329// 41005 5//// 80070
BBXX OZDJ2 22183 99355 70124 41498 50220 10162 20130 40324 53/// 70322 84710 22283 00190 20201 334// 40303 5//// 80144
AAXX 22181 76040 32960 03104 10133 21003 30245 40260 52029 91740 333 10207 20050 30/// 58081 98660
AAXX 22181 76055 32980 03315 10146 20041 30207 40226 53038 91740 333 10212 20073 30/// 58068
AAXX 22181 76113 32980 03001 10128 20067 39719 40190 52010 91745 333 10135 20030 30/// 58041
AAXX 22181 76122 32670 11401 10082 21008 38552 40223 57005 81100 91750 333 10090 21008 30/// 56700 58054 81834
AAXX 22181 76225 32960 00901 10101 21023 38650 40215 57006 91745 333 10101 21016 30/// 58070
AAXX 22181 76256 32980 00402 10173 20109 30197 40211 52001 91745 333 10179 20076 31/// 58029
AAXX 22181 76305 32970 03303 10198 20090 30186 40194 51002 91740 333 10202 20088 30/// 59027
AAXX 22181 76342 32962 00701 10200 20033 39515 40239 52012 91755 333 10203 20076 30/// 58046
AAXX 22181 76390 31966 01805 10143 21048 38237 40173 52006 70544 91730 333 10156 20032 30/// 54307 58038
AAXX 22181 76402 31962 00205 10204 20095 30132 40191 52006 70544 91745 333 10204 20080 30/// 58018
AAXX 22181 76458 32970 32504 10198 20141 30152 40157 57004 80004 91738 333 10221 20094 30/// 56//3 58004 83072
AAXX 22181 76471 32980 42102 10154 21002 37680 40130 57002 80005 91750 333 10160 20040 30/// 56005 59020 84075
AAXX 22181 76499 31560 40000 10230 20125 30149 40171 52013 70122 84230 91750 333 10232 20167 30/// 56590 58028 82820 82357
AAXX 22181 76525 32980 72211 10086 20032 37465 40170 52005 80006 91740 333 10086 20050 30/// 56//5 58018 87080
AAXX 22181 76539 32970 02703 10189 20095 38161 40162 52004 91750 333 10252 20039 30/// 58020
AAXX 22181 76556 32970 70703 10226 20144 39122 40152 51002 80006 91735 333 10235 20115 30/// 56007 58009 87070
AAXX 22181 76577 32970 72304 10175 20133 38051 40177 58003 80004 91740 333 10181 20081 30/// 56005 58016 87081
AAXX 22181 76581 32970 50802 10214 20155 39040 40156 57006 85030 91750 333 10222 20089 30/// 56030 58023 85360
AAXX 22181 76644 32460 71404 10294 20216 30141 40154 57003 84200 91750 333 10300 20218 30/// 563// 59002 84810 86610
AAXX 22181 76662 32970 40401 10210 20104 38469 40174 57002 80005 91740 333 10230 20038 30/// 5600/ 58014 84070
AAXX 22181 76665 32962 02402 10228 20068 38127 40178 57002 91750 333 10270 20066 30/// 58013
AAXX 22181 76680 31862 53601 10193 20043 37757 40084 57010 70511 82011 91755 333 10198 20090 30/// 58016 83070
AAXX 22181 76683 32968 21601 10202 20097 37831 40204 56014 80005 91745 333 10210 20040 30/// 56005 58011 82080
AAXX 22181 76685 31950 13601 10208 20024 37875 40152 57002 70544 81001 91745 333 10210 20060 30/// 56009 58016 81077
AAXX 22181 76687 31570 20701 10240 20136 38674 40156 56004 70500 81105 91738 333 10243 20116 30/// 563/6 58004 81830 81070
AAXX 22181 76692 31456 31603 10270 20218 30117 40136 58003 70544 8310/ 91745 333 10283 20208 30/// 563// 59007 82817 81640
AAXX 22181 76726 32970 02201 10253 20151 38408 40131 52013 91740 333 10253 20134 30/// 58021
AAXX 22181 76737 31480 31802 10261 20173 38765 40125 50004 70320 81104 91735 333 10265 20142 30/// 56209 58001 81813 82080 91111 91523
AAXX 22181 76750 32560 20904 10300 20239 30140 40150 57007 82100 91750 333 10310 20232 30/// 56200 58007 82820
AAXX 22181 76762 32904 13201 10274 20220 38763 40164 51008 80005 91730 333 10276 20128 30/// 56001 58023 81070
AAXX 22181 76775 31965 02201 10265 20097 38521 40161 57009 70000 91745 333 10314 20110 30/// 58001
AAXX 22181 76805 32770 42402 10300 20231 30117 40121 56008 82034 91745 333 10311 20218 30/// 56/6/ 58008 82342 82068
AAXX 22181 76833 32970 01404 10310 20229 30112 40114 57009 91745 333 10310 20186 30/// 58009 92001
AAXX 22181 76840 32950 00000 10334 20236 30059 40115 57009 80000 91740 333 10345 20180 30/// 56000 58012 80000
AAXX 22181 76843 32965 03601 10266 20190 39485 40126 57012 91730 333 10278 20180 30/// 58008
AAXX 22181 76845 32560 30601 10218 20147 37946 40167 56013 83200 91745 333 10234 20048 30/// 56200 58007 83827
AAXX 22181 76848 32770 10501 10252 20112 38381 40098 58006 81100 91755 333 10256 20091 30/// 56100 58010 81850
AAXX 22181 76903 32981 02202 10327 20189 39990 40120 57009 91740 333 10340 20237 30/// 58013
AAXX 22181 76160 32962 00201 10144 20082 39952 40207 52003 91730 333 10144 20050 30/// 58029
AAXX 22181 76311 32980 00000 10182 20069 39895 40183 50002 91740 333 10182 20041 30/// 58024
AAXX 22181 76405 32970 23603 10190 20115 30169 40191 52011 82030 91750 333 10190 20128 30/// 56080 58017 82356
AAXX 22181 76412 32966 02201 10220 20043 30142 40187 52005 91750 333 10230 20078 30/// 58007
AAXX 22181 76640 31258 83201 10228 20113 30161 40173 52020 70222 8442/ 91740 333 10240 20194 30/// 5679/ 58003 84606 84440
AAXX 22181 76855 32580 22301 10318 20233 30057 40106 51006 81208 91745 333 10322 20210 30/// 56909 59006 81820 92000
AAXX 22181 76040 32960 03104 10133 21003 30245 40260 52029 91740 33310207 20050 30/// 58081 98660
AAXX 22181 76055 32980 03315 10146 20041 30207 40226 53038 91740 33310212 20073 30/// 58068
AAXX 22181 76113 32980 03001 10128 20067 39719 40190 52010 91745 33310135 20030 30/// 58041
AAXX 22181 76122 32670 11401 10082 21008 38552 40223 57005 81100 91750333 10090 21008 30/// 56700 58054 81834
AAXX 22181 76225 32960 00901 10101 21023 38650 40215 57006 91745 33310101 21016 30/// 58070
AAXX 22181 76256 32980 00402 10173 20109 30197 40211 52001 91745 33310179 20076 31/// 58029
AAXX 22181 76305 32970 03303 10198 20090 30186 40194 51002 91740 33310202 20088 30/// 59027
AAXX 22181 76342 32962 00701 10200 20033 39515 40239 52012 91755 33310203 20076 30/// 58046
AAXX 22181 76390 31966 01805 10143 21048 38237 40173 52006 70544 91730333 10156 20032 30/// 54307 58038
AAXX 22181 76402 31962 00205 10204 20095 30132 40191 52006 70544 91745333 10204 20080 30/// 58018
AAXX 22181 76458 32970 32504 10198 20141 30152 40157 57004 80004 91738333 10221 20094 30/// 56//3 58004 83072
AAXX 22181 76471 32980 42102 10154 21002 37680 40130 57002 80005 91750333 10160 20040 30/// 56005 59020 84075
AAXX 22181 76499 31560 40000 10230 20125 30149 40171 52013 70122 8423091750 333 10232 20167 30/// 56590 58028 82820 82357
AAXX 22181 76525 32980 72211 10086 20032 37465 40170 52005 80006 91740333 10086 20050 30/// 56//5 58018 87080
AAXX 22181 76539 32970 02703 10189 20095 38161 40162 52004 91750 33310252 20039 30/// 58020
AAXX 22181 76556 32970 70703 10226 20144 39122 40152 51002 80006 91735333 10235 20115 30/// 56007 58009 87070
AAXX 22181 76577 32970 72304 10175 20133 38051 40177 58003 80004 91740333 10181 20081 30/// 56005 58016 87081
AAXX 22181 76581 32970 50802 10214 20155 39040 40156 57006 85030 91750333 10222 20089 30/// 56030 58023 85360
AAXX 22181 76644 32460 71404 10294 20216 30141 40154 57003 84200 91750333 10300 20218 30/// 563// 59002 84810 86610
AAXX 22181 76662 32970 40401 10210 20104 38469 40174 57002 80005 91740333 10230 20038 30/// 5600/ 58014 84070
AAXX 22181 76665 32962 02402 10228 20068 38127 40178 57002 91750 33310270 20066 30/// 58013
AAXX 22181 76680 31862 53601 10193 20043 37757 40084 57010 70511 8201191755 333 10198 20090 30/// 58016 83070
AAXX 22181 76683 32968 21601 10202 20097 37831 40204 56014 80005 91745333 10210 20040 30/// 56005 58011 82080
AAXX 22181 76685 31950 13601 10208 20024 37875 40152 57002 70544 8100191745 333 10210 20060 30/// 56009 58016 81077
AAXX 22181 76687 31570 20701 10240 20136 38674 40156 56004 70500 8110591738 333 10243 20116 30/// 563/6 58004 81830 81070
AAXX 22181 76692 31456 31603 10270 20218 30117 40136 58003 70544 8310/91745 333 10283 20208 30/// 563// 59007 82817 81640
AAXX 22181 76726 32970 02201 10253 20151 38408 40131 52013 91740 33310253 20134 30/// 58021
AAXX 22181 76737 31480 31802 10261 20173 38765 40125 50004 70320 8110491735 333 10265 20142 30/// 56209 58001 81813 82080 9111191523
AAXX 22181 76750 32560 20904 10300 20239 30140 40150 57007 82100 91750333 10310 20232 30/// 56200 58007 82820
AAXX 22181 76762 32904 13201 10274 20220 38763 40164 51008 80005 91730333 10276 20128 30/// 56001 58023 81070
AAXX 22181 76775 31965 02201 10265 20097 38521 40161 57009 70000 91745333 10314 20110 30/// 58001
AAXX 22181 76805 32770 42402 10300 20231 30117 40121 56008 82034 91745333 10311 20218 30/// 56/6/ 58008 82342 82068
AAXX 22181 76833 32970 01404 10310 20229 30112 40114 57009 91745 33310310 20186 30/// 58009 92001
AAXX 22181 76840 32950 00000 10334 20236 30059 40115 57009 80000 91740333 10345 20180 30/// 56000 58012 80000
AAXX 22181 76843 32965 03601 10266 20190 39485 40126 57012 91730 33310278 20180 30/// 58008
AAXX 22181 76845 32560 30601 10218 20147 37946 40167 56013 83200 91745333 10234 20048 30/// 56200 58007 83827
AAXX 22181 76848 32770 10501 10252 20112 38381 40098 58006 81100 91755333 10256 20091 30/// 56100 58010 81850
AAXX 22181 76903 32981 02202 10327 20189 39990 40120 57009 91740 33310340 20237 30/// 58013
AAXX 22181 76160 32962 00201 10144 20082 39952 40207 52003 91730 33310144 20050 30/// 58029
AAXX 22181 76311 32980 00000 10182 20069 39895 40183 50002 91740 33310182 20041 30/// 58024
AAXX 22181 76405 32970 23603 10190 20115 30169 40191 52011 82030 91750333 10190 20128 30/// 56080 58017 82356
AAXX 22181 76412 32966 02201 10220 20043 30142 40187 52005 91750 33310230 20078 30/// 58007
AAXX 22181 76640 31258 83201 10228 20113 30161 40173 52020 70222 8442/91740 333 10240 20194 30/// 5679/ 58003 84606 84440
AAXX 22181 76855 32580 22301 10318 20233 30057 40106 51006 81208 91745333 10322 20210 30/// 56909 59006 81820 92000
AAXX 22184 78862 11478 40616 10273 20181 30142 40165 60001 70511 84800 333 10274 20225 58004 84818
AAXX 22184 815
AAXX 22184 SHRA BKN015 BKN038
AAXX 22184 TAF TKPN 221000Z 2210/2312 07017KT 9999 SCT020 PROB40 TEMPO 2212/2312 07017G27KT SHRA BKN015 BKN038
AAXX 22184 TAF TQPF 221000Z 2210/2312 07017KT 9999 SCT020 PROB40 TEMPO 2212/2312 07017G27KT SHRA BKN015 BKN038
AAXX 22184 TAF TUPJ 221000Z 2210/2312 07017KT 9999 SCT020 PROB40 TEMPO 2212/2312 07017G27KT SHRA BKN015 BKN038
AAXX 22184 EMPO 0600/0624 SHRA BKN015=+TSRA SCT012CB
AAXX 22184 TAF TUPJ 041000Z 04012/0512 07008KT 9999 SCT016 BKN038 SCT270 TEMPO 0412/0512 SHRA BKN015 PROB40 TEMPO 0418/0512 5000 SHRA BKN014 BKN036 PROB30 0420/0512 4000 TSRA FEW012CB
AAXX 22184 918 4000 TSRA FEW012CB
AAXX 22184 N015 BKN036 PROB40 TEMPO 0704/0724 3000 +TSRA SCT011CB BKN012 BECMG 0712/0714 14008KT
AAXX 22184 21/2712 07017G28KT 5000 SHRA BKN015 BKN036 PROB TEMPO 2700/2712 4000 TSRA FEW013CB
AAXX 22184 PROB30 TEMPO 0800/0806 4000 TSRA FEW012CB PROB40 TEMPO 0800/0824 2000 +SHRA/TSRA SCT010CB BKN012 BKN250
AAXX 22184 78862 11478 40616 10273 20181 30142 40165 60001 70511 84800 333 10274 20225 58004 84818
AAXX 22184 815
AAXX 22184 SHRA BKN015 BKN038
AAXX 22184 TAF TKPN 221000Z 2210/2312 07017KT 9999 SCT020 PROB40 TEMPO 2212/2312 07017G27KT SHRA BKN015 BKN038
AAXX 22184 TAF TQPF 221000Z 2210/2312 07017KT 9999 SCT020 PROB40 TEMPO 2212/2312 07017G27KT SHRA BKN015 BKN038
AAXX 22184 TAF TUPJ 221000Z 2210/2312 07017KT 9999 SCT020 PROB40 TEMPO 2212/2312 07017G27KT SHRA BKN015 BKN038
AAXX 22184 EMPO 0600/0624 SHRA BKN015=+TSRA SCT012CB
AAXX 22184 TAF TUPJ 041000Z 04012/0512 07008KT 9999 SCT016 BKN038 SCT270 TEMPO 0412/0512 SHRA BKN015 PROB40 TEMPO 0418/0512 5000 SHRA BKN014 BKN036 PROB30 0420/0512 4000 TSRA FEW012CB
AAXX 22184 918 4000 TSRA FEW012CB
AAXX 22184 N015 BKN036 PROB40 TEMPO 0704/0724 3000 +TSRA SCT011CB BKN012 BECMG 0712/0714 14008KT
AAXX 22184 21/2712 07017G28KT 5000 SHRA BKN015 BKN036 PROB TEMPO 2700/2712 4000 TSRA FEW013CB
AAXX 22184 PROB30 TEMPO 0800/0806 4000 TSRA FEW012CB PROB40 TEMPO 0800/0824 2000 +SHRA/TSRA SCT010CB BKN012 BKN250
AAXX 22184 78862 11478 40616 10273 20181 30142 40165 60001 70511 84800 333 10274 20225 58004 84818
AAXX 22184 815
AAXX 22184 SHRA BKN015 BKN038
AAXX 22184 TAF TKPN 221000Z 2210/2312 07017KT 9999 SCT020 PROB40 TEMPO 2212/2312 07017G27KT SHRA BKN015 BKN038
AAXX 22184 TAF TQPF 221000Z 2210/2312 07017KT 9999 SCT020 PROB40 TEMPO 2212/2312 07017G27KT SHRA BKN015 BKN038
AAXX 22184 TAF TUPJ 221000Z 2210/2312 07017KT 9999 SCT020 PROB40 TEMPO 2212/2312 07017G27KT SHRA BKN015 BKN038
AAXX 22184 EMPO 0600/0624 SHRA BKN015=+TSRA SCT012CB
AAXX 22184 TAF TUPJ 041000Z 04012/0512 07008KT 9999 SCT016 BKN038 SCT270 TEMPO 0412/0512 SHRA BKN015 PROB40 TEMPO 0418/0512 5000 SHRA BKN014 BKN036 PROB30 0420/0512 4000 TSRA FEW012CB
AAXX 22184 918 4000 TSRA FEW012CB
AAXX 22184 N015 BKN036 PROB40 TEMPO 0704/0724 3000 +TSRA SCT011CB BKN012 BECMG 0712/0714 14008KT
AAXX 22184 21/2712 07017G28KT 5000 SHRA BKN015 BKN036 PROB TEMPO 2700/2712 4000 TSRA FEW013CB
AAXX 22184 PROB30 TEMPO 0800/0806 4000 TSRA FEW012CB PROB40 TEMPO 0800/0824 2000 +SHRA/TSRA SCT010CB BKN012 BKN250
BBXX BAREU54 22184 99152 70753 46/// ///// 40112 57013 22213
BBXX BAREU00 22184 99514 10039 46/// ///// 40250 52003 22223
BBXX BAREU62 22184 99407 10291 46/// ///// 40083 22224
BBXX BATFR53 22184 99188 51711 44598 40712 10274 20225 40083 51011 70200 83232 22222 00282 20102 307// 403// 5//// 60/// ICE 0////
BBXX BAREU11 22184 99365 70462 46/// ///// 40301 57002 22214
BBXX BAREU06 22184 99445 70441 46/// ///// 40275 57010 22224
BBXX BAREU04 22184 99458 70563 46/// ///// 49990 57049 22263
BBXX VCXF 22184 99464 70484 41998 81734 10031 2001/ 40181 57049 70222 8801/ 22200 02024 20504 33425 40804 50802 80022
BBXX 41012 22181 99300 70805 46/// /1906 10216 40199 58024 91750 22200 00227 10602 20401 311// 40602 70011 333 91206 555 11058 22060 31650 41906 61749 192054 197052 205048 213042 219041 222040
BBXX 41001 22181 99347 70727 46/// ///// 10204 20185 40221 58014 91750 22200 00221 10806 70029
BBXX 41049 22181 99275 70630 46/// /0506 10222 20140 40260 58024 91750 22200 00236 11004 20602 300// 41003 70020 333 91207 555 11067 22071 31657 40709 61749 053064 058062 058063 056070 054073 062079 80608 91657
BBXX 42020 22181 99270 70967 46/// /3508 10169 20144 40178 51010 91750 22200 00233 10603 20603 312// 40801 70014 333 91211 555 11088 22092 31656 43511 61749 350084 351086 352087 357088 355090 355092
BBXX 41060 22181 99148 70510 46/// ///// 1//// 91750 22200 11406 70030
BBXX 41044 22181 99217 70587 46/// /0710 10245 20169 40207 56018 91750 22200 00264 10807 20806 300// 41004 70033 333 91212 555 11105 22111 31739 40713 61749 066099 074101 078091 076091 081092 081098 80611 91740
BBXX 41048 22181 99320 70696 46/// /2007 10226 20140 40257 58018 91750 22200 00228 11002 20401 3//// 41002 70011 333 91208 555 11066 22070 31706 42109 61749 197067 199069 206066 207073 205079 207077 82108 91706
BBXX 42065 22181 99149 70750 46/// /0709 10274 20236 91750 22200 11006 20605 3//// 41004 70031 333 91212 555 11100 22106 31653 40713 61749 070095 071097 076086 075095 074099 072099 80811 91703
BBXX 42001 22181 99259 70897 46/// /1808 10248 20223 40178 52003 91750 22200 00252 10803 20502 3//// 40801 70013 333 91210 555 11085 22090 31707 41611 61749 183080 178082 173083 169082 167091 166090
BBXX 42012 22181 99301 70876 46/// /1610 10220 20215 40139 58014 91750 22200 00207 10703 20703 70015 333 91213 555 11110 22120 31743 41613 61749 157102 155099 154098 158104 158096 156091
BBXX 42035 22181 99292 70944 46/// /0906 10149 20143 40171 51006 91750 22200 00161 10902 20301 316// 40901 70008 333 91207 555 11059 22062 31659 40708 61749 090056 086063 084066 087069 081066 067069
BBXX 42058 22181 99149 70749 46/// /0913 10274 20225 40115 58017 91750 22200 00277 10907 20505 310// 40904 70034 333 91216 555 11135 22144 31745 40916 61749 092126 091120 093127 092127 092115 087116 81014 91718
BBXX 42060 22181 99163 70635 46/// /0611 10265 20209 40158 57019 91750 22200 00276 10706 20706 70030 333 91213 555 11115 22122 31710 40717 61749 061108 061103 067111 072119 075131 068128 80814 91710
BBXX 42036 22181 99285 70845 46/// /1609 10222 20208 40171 58024 91750 22200 00218 10603 20603 318// 41201 70014 333 91211 555 11097 22104 31741 41511 61749 158090 157091 155088 156086 157083 158087
BBXX 42056 22181 99198 70849 46/// /1008 10270 20239 40159 58005 91750 22200 00270 10804 20804 70021 333 91210 555 11089 22095 31742 41010 61749 098083 102080 102085 100083 102083 102081 81009 91742
BBXX 42019 22181 99279 70954 46/// /0407 10184 20149 40167 51014 91750 22200 10603 20603 310// 40901 70015 333 91209 555 11078 22083 31727 42910 61749 027072 286077 288075 288073 286074 289080
BBXX 42059 22181 99151 70675 46/// /0809 10279 20223 40140 58020 91750 22200 00279 10807 20807 70034 333 91211 555 11095 22102 31700 40713 61749 076092 078103 071101 076094 077101 074096 80811 91700
BBXX 44005 22181 99432 70691 46/// /3307 10085 20054 40127 51014 91750 22200 00086 10803 20502 3//// 40802 70016 333 91208 555 11071 22076 31711 43211 61749 324067 325069 324074 321084 322085 317081
BBXX 42040 22181 99292 70882 46/// /1808 10234 40146 58006 91750 22200 00229 10703 20702 315// 40801 70013 333 91210 555 11084 22091 31700 41711 61749 177084 172085 174086 173089 169091 168093
BBXX 46105 22181 99590 71522 46/// ///// 1//// 91750 22200 10603 70017
BBXX 46070 22181 99551 11753 46/// /3409 10007 21021 40024 56015 91750 22200 00038 10805 20704 3//// 40803 70026 333 91211 555 11093 22098 31659 43016 61749 341088 336092 342097 343094 341110 298107 83113 91659
BBXX 44025 22181 99402 70732 46/// /2505 10112 20081 40181 55011 91750 22200 00108 10804 20401 317// 40804 70019 333 91205 555 11050 22055 31715 42406 61749 248046 245045 242045 244048 243044 250041
BBXX 41008 22181 99314 70809 46/// /1704 10181 20171 40197 58023 91750 22200 00165 10602 20401 300// 40601 70008 333 91204 555 11042 22049 31713 42006 61749 168037 179042 187043 193051 204045 193041
BBXX 41004 22181 99325 70791 46/// /1907 10211 20184 40204 58021 91750 22200 00214 10603 20603 3//// 41001 70015 333 91209 555 11076 22080 31735 41811 61749 188071 184081 202049 208048 208049 205047
BBXX 44009 22181 99385 70747 46/// /1602 10124 40202 57023 91750 22200 00119 10702 20401 300// 40702 70012 333 91203 555 11027 22032 31745 41603 61749 160024 162015 166008 144003 075003 113008
BBXX 44014 22181 99366 70748 46/// /2003 1//// 40195 58019 91750 22200 00145 10803 20401 316// 40803 70015 333 91204 555 11031 22031 31728 41804 61749 198032 194034 182032 181029 187029 181032
BBXX 44027 22181 99443 70673 46/// /3008 10064 20031 40109 53012 91750 22200 00084 10803 20402 3//// 40802 70014 333 91209 555 11084 22088 31704 43010 61749 301079 298081 297086 293083 295089 294087
BBXX 44065 22181 99404 70737 46/// /2905 10118 20064 40182 55015 91750 22200 00101 10802 20501 315// 40802 70012 333 91206 555 11058 22067 31748 42906 61749 292052 287045 276048 273049 278051 279047 82905 91749
BBXX 41013 22181 99334 70777 46/// /2106 10212 20183 40199 58023 91750 22200 00189 10703 20602 318// 40702 70016 333 91209 555 11072 22082 31744 42109 61749 207062 194051 208043 206035 193056 205051
BBXX 44040 22181 99410 70736 46/// /3005 10121 20049 40184 91745 22200 1//00 70000 333 91206 555 11062 22072
BBXX 44020 22181 99414 70702 46/// /2605 10099 20064 40154 50007 91750 22200 00076 10401 20401 70004 333 91205 555 11050 22053 31704 42607 61749 262047 268040 267045 264055 262062 262061
BBXX 42003 22181 99260 70856 46/// /1408 1//// 91750 22200 10602 20602 315// 40801 70012 333 91209 555 11080 22085 31654 41509 61749 144075 142077 145073 139071 140074 144077 81408 91738
BBXX 42002 22181 99258 70937 46/// /2305 10250 20236 40154 50000 91750 22200 00241 10703 20401 311// 40702 70013 333 91206 555 11049 22052 31743 42306 61749 231048 229045 225048 226043 234040 232036
BBXX 42055 22181 99222 70940 46/// /1604 10259 20226 40149 51011 91750 22200 00253 10802 20401 307// 40801 70008 333 91205 555 11044 22050 31712 41606 61749 158039 158042 156045 157051 160050 160050 81606 91712
BBXX 41047 22181 99275 70715 46/// /1210 10224 40246 58017 91750 22200 00248 10704 20704 305// 41302 70020 333 91212 555 11103 22108 31745 41212 61749 120102 123102 118089 121087 130082 127080 81211 91734
BBXX 41043 22181 99211 70650 46/// /0910 10251 20195 40205 58023 91750 22200 00261 10907 20705 300// 40904 70033 333 91212 555 11111 22118 31712 40914 61749 088103 087109 085108 083113 082110 082108 80812 91657
BBXX 41036 22181 99342 70770 46/// ///// 10203 20177 40201 58022 91750 22200 00187 10703 70015
BBXX 44066 22181 99396 70726 46/// /2605 10126 20078 40187 57013 91750 22200 00129 10904 20401 3//// 40904 70019 333 91206 555 11052 22054 31652 42906 61749 262049 265048 260047 261047 266048 278053
BBXX 46060 22181 99606 71468 46/// /0107 10003 49822 57051 91750 22200 00056 333 91208 555 11073 22076 31731 43608 61749 008068 357071 007060 018053 013049 036050 83608 91731
BBXX 32012 22181 99197 50856 46/// ///// 1//// 91750 22200 11505 70027
BBXX 46002 22181 99426 71305 46/// ///// 10103 40271 53003 91750 22200 00119 11103 70015
BBXX 46006 22181 99408 71375 46/// /2309 10135 40241 53019 91750 22200 00124 10806 20805 3//// 40903 70028 333 91211 555 11096 22105 31650 42112 61749 226088 228088 224095 224092 220090 214092
BBXX 46084 22181 99566 71361 46/// /1418 10075 20070 49926 56034 91750 22200 00075 11116 20709 300// 41113 70079 333 91224 555 11195 22208 31658 41625 61749 138183 139182 140174 140174 141179 141192
BBXX 46075 22181 99539 71608 46/// /0603 10018 21039 40014 58016 91750 22200 00050 11104 20301 300// 41104 70020 333 91204 555 11026 22026 31742 40604 61749 057024 042027 042026 057024 034023 026017 80603 91742
BBXX 46005 22181 99461 71310 46/// ///13 10103 40201 55008 91750 22200 00100 10806 20806 3//// 41203 70032 333 91216 555 11136 22146
BBXX 46059 22181 99380 71300 46/// /0705 10120 40283 53005 91750 22200 00142 10804 20401 3//// 40804 70022 333 91206 555 11048 22050 31658 40607 61749 070046 062049 059048 056051 060055 059055
BBXX 46080 22181 99580 71500 46/// /3216 10027 21028 49837 56034 91750 22200 00054 10707 20707 70036 333 91219 555 11167 22177 31734 43219 61749 317156 318159 319157 320148 323148 323143 83217 91728
AAXX 22184 81405 01460 70809 10280 20248 30084 40093 60251 70286 872// 333 60017 59010 84816 85833 555 69985
BBXX 46088 22181 99483 71232 46/// /0705 10043 40301 56008 91750 22200 00077 1//00 70002 333 91206 555 11050 22052 31707 40607 61749 072048 084044 071046 064045 056049 053051
BBXX 46014 22181 99394 71240 46/// /1004 10095 40272 53026 91750 22200 00105 11304 20401 3//// 41304 70021 333 91205 555 11042 22043 31711 40907 61749 094040 086047 089050 089053 089051 092049
BBXX 46011 22181 99350 71210 46/// /0708 10121 40247 51029 91750 22200 00137 11304 20601 329// 41304 70022 333 91209 555 11079 22083 31733 40810 61749 068077 068080 068074 069071 072067 077060
BBXX 46047 22181 99324 71195 46/// /0606 10133 40236 51026 91750 22200 00134 11304 20501 329// 41304 70021 333 91207 555 11058 22062 31726 40508 61749 059054 046046 044050 027043 027040 021036
BBXX 46088 22181 99483 71232 46/// /0705 10043 40301 91750 22200 00077 1//00 70002 333 91206 555 11050 22052 31707 40607 61749 072048 084044 071046 064045 056049 053051
BBXX 46027 22181 99419 71244 46/// /1303 10094 40271 53014 91750 22200 00088 11204 20301 329// 41204 70020 333 91205 555 11037 22042 31650 41207 61749 125033 131035 128035 125037 127045 124049
BBXX 46086 22181 99325 71180 46/// /0203 10144 40233 51027 91750 22200 00150 11404 20301 328// 41403 70018 333 91204 555 11031 22032 31748 40204 61749 025030 033018 026015 032011 026012 044013
BBXX 46050 22181 99442 71246 46/// /0706 10072 40274 53004 91750 22200 00096 11304 20402 327// 41303 70018 333 91207 555 11061 22063 31705 40910 61749 072057 077069 085077 088078 096081 092080
BBXX 46069 22181 99337 71202 46/// /0812 10142 40238 51026 91750 22200 00141 11304 20302 331// 41304 70021 333 91215 555 11129 22138 31737 40716 61749 074122 073127 076111 086084 091079 093059
BBXX 46012 22181 99374 71229 46/// /0508 10124 40260 53023 91750 22200 00118 11305 20602 329// 41304 70024 333 91210 555 11089 22097 31650 40511 61749 046083 049076 046075 045077 051077 048088
BBXX 46013 22181 99382 71233 46/// /1005 10127 40265 51030 91750 22200 00114 11204 20401 3//// 41204 70021 333 91206 555 11052 22059 31721 40908 61749 098047 097056 093065 097056 101055 110053
BBXX 46087 22181 99485 71247 46/// /1112 10055 20030 40283 56012 91750 22200 00076 333 91214 555 11125 22132 31747 41114 61749 112118 111116 109113 111109 100101 106110
BBXX 46029 22181 99461 71245 46/// /1106 10061 20014 40276 57004 91750 22200 00076 11303 20401 328// 41303 70016 333 91207 555 11062 22065 31701 41007 61749 107059 105058 101057 101059 102062 105061
BBXX 46054 22181 99342 71204 46/// /1209 1//// 91750 555 11098 22105
BBXX 46028 22181 99357 71219 46/// /0803 10130 40240 53026 91750 22200 00126 11405 20401 331// 41405 70025 333 91205 555 11037 22042 31715 41205 61749 080034 093034 099039 113039 129037 133038
BBXX 46025 22181 99337 71191 46/// /0707 10147 40237 51029 91750 22200 00151 11402 20301 327// 41402 70011 333 91208 555 11070 22074 31653 40610 61749 069066 069073 062077 058081 060081 063085
BBXX VCXF 22184 99464 70484 41998 81734 10031 2001/ 40181 57049 70222 8801/ 22200 02024 20504 33425 40804 50802 80022
AAXX 22184 78384 12560 31109 10287 20221 40161 60001 83100 333 10295 20247 58004 70000 83823
AAXX 22184
AAXX 22184 78383 12460 11113 10290 20221 40155 60001 81202 333 10295 20247 59012 70000 81818
AAXX 22184 85406 12980 02212 10236 20133 40095 58007 60001
AAXX 22184 85418 12570 22512 10228 20150 40096 53008 60001 82500 333 56000 82625
AAXX 22184 85432 12970 32520 10254 20029 37724 48437 57013 60001 80001 333 56006 83072
AAXX 22184 85488 12968 03012 10203 20116 40100 58013 60001
AAXX 22184 81405 01460 70809 10280 20248 30084 40093 60251 70286 872// 333 60017 59010 84816 85833 555 69985
AAXX 22184 85574 12960 01813 10284 20068 39564 40090 57014 60001
AAXX 22184 85577 12960 02205 10282 20049 39517 40096 57012 60001
AAXX 22184 85585 12598 82111 10169 20099 30187 40223 40000 60001 888// 333 56499 83825 85630
AAXX 22184 85586 12960 02317 10184 20078 40133 57013 60001
AAXX 22184 85629 12980 02408 10238 20069 40125 57015 60001
AAXX 22184 85672 13980 02014 10215 20059 40164 57009 60001 333
AAXX 22184 85682 12965 02319 10195 20046 40179 58010 60001
AAXX 22184 85743 12560 52508 10176 20017 40199 58005 60001 87500 333 56600 85620
AAXX 22184 85782 11560 61807 10146 20082 40204 54002 69951 70282 86200 333 56500 86830
AAXX 22184 85799 11610 62409 10142 20061 40203 54000 60021 70182 86800 333 56500 83840 85656
AAXX 22184 78384 12560 31109 10287 20221 40161 60001 83100 333 10295 20247 58004 70000 83823
AAXX 22184 78383 12460 11113 10290 20221 40155 60001 81202 333 10295 20247 59012 70000 81818
AAXX 22184 89664 11761 60612 11026 21086 39846 49887 58020 69903 70172 82579 333 56334 82650 84357 90930 93197
AAXX 22184 89664 11761 60612 11026 21086 39846 49887 58020 69903 70172 82579 333 56334 82650 84357 90930 93197
AAXX 22184 85836 12670 52310 10107 20033 40222 50005 60001 85200 333 56600 85840
BBXX 46006 22181 99408 71375 46/// /2309 10135 40241 53019 91750 22200 00124 10806 20805 3//// 40903 70028 333 91211 555 11096 22105 31650 42112 61749 226088 228088 224095 224092 220090 214092
BBXX 46028 22181 99357 71219 46/// /0803 10130 40240 53026 91750 22200 00126 11405 20401 331// 41405 70025 333 91205 555 11037 22042 31715 41205 61749 080034 093034 099039 113039 129037 133038
BBXX 46029 22181 99461 71245 46/// /1106 10061 20014 40276 57004 91750 22200 00076 11303 20401 328// 41303 70016 333 91207 555 11062 22065 31701 41007 61749 107059 105058 101057 101059 102062 105061
BBXX 46050 22181 99442 71246 46/// /0706 10072 40274 53004 91750 22200 00096 11304 20402 327// 41303 70018 333 91207 555 11061 22063 31705 40910 61749 072057 077069 085077 088078 096081 092080
BBXX 46054 22181 99342 71204 46/// /1209 1//// 91750 555 11098 22105
BBXX KFMV 22183 99332 71251 41998 30110 10122 20100 40247 52020 70510 80004 22264 00150 20302 33133 40604 50802 6//// 80111 ICE /////
BBXX WACW 22184 99528 71381 41/96 /1435 10070 20050 49890 57040 75122 8/64/ 22232 00070 20909 3//// 40909 5//// 6//// 80060 ICE /////
BBXX WDE9586 22183 99482 71256 43898 31115 10080 20040 40255 56015 7//// 83/81 22214 00090 20603 3//// 4//// 5//// 6//// 80060 ICE /////
BBXX WJBU 22184 99487 71345 41198 71837 10094 20080 40051 54000 75052 871// 22232 0//// 21212 318// 4//// 5//// 6//// 80089 ICE /////
BBXX WSNB 22184 99495 71349 41197 81944 00/// 10100 20090 49958 56004 75352 886// 22232 0//// 20617 319// 40812 5//// 6//// 80093 ICE /////
BBXX WSRH 22184 99339 71340 41498 10213 10150 20120 40250 54000 7//00 81100 22254 00144 20402 302// 40504 5//// 6//// 80133 ICE /////
BBXX ZCDA9 22183 99315 71241 41598 33506 10135 20122 40243 52018 70200 82404 22264 00170 20202 333 // 40404 5//// 80128
AAXX 22184 78700 32578 50406 10338 20219 30132 40137 58008 81106 333 10338 20230 30/// 56000 59007 81830 85075
AAXX 22184 78703 31466 20914 10289 20229 30137 40139 57012 70544 82940 333 10289 20257 30/// 56000 58001 81919 81819
AAXX 22184 78704 31570 20805 10302 20231 30123 40128 56010 70544 82100 333 10304 20206 30/// 56200 59014 82827
AAXX 22184 78705 31570 33004 10286 20219 30111 40139 58015 70544 83963 333 10286 20193 30/// 56200 58004 81922 82822
AAXX 22184 78706 31570 23604 10289 20235 30143 40148 57007 70544 82100 333 10289 20208 30/// 56200 59010 82824
AAXX 22184 78707 NIL
AAXX 22184 78708 31565 23606 10302 20221 30103 40133 58019 70544 82100 333 10302 20208 30/// 56800 58002 82830
AAXX 22184 78711 31560 70710 10288 20245 30114 40129 58013 70544 87200 333 10295 20236 30/// 56200 59005 87826
AAXX 22184 78714 11570 61905 10261 20208 69931 71552 84230 333 10261 20192 30/// 56220 84828 86458
AAXX 22184 78717 31562 30203 10234 20142 38960 40139 55002 70544 83100 333 10234 20150 30/// 56800 58006 83825
AAXX 22184 78718 31660 13604 10278 70544 81100 333 10282 20166 30/// 56800 81840
AAXX 22184 78719 32560 20000 10212 20135 38353 40125 58007 82101 333 10218 20098 30/// 56200 58001 82824
AAXX 22184 78720 31562 60306 10259 20181 39032 40101 58017 70544 85241 333 10266 20140 30/// 56200 59002 85828
AAXX 22184 78724 32578 70314 10336 20174 30046 40103 56012 82151 333 10336 20260 30/// 56110 59002 82834 87357
AAXX 22184 78925 11566 60718 10289 20226 40147 56022 69941 78086 86200 333 10294 20258 58002 86828
AAXX 22181 33815 32997 33503 11002 21031 30004 40218 52013 83030 333 10037 555 80009
AAXX 22184 85832 11570 62710 10105 20024 40173 58006 60051 70282 86200 333 56600 82720 86840
AAXX 22184 85864 11680 61204 10103 20040 40142 52007 69901 70282 86200 333 56500 86835
AAXX 22184 85874 12582 52919 10120 21008 39498 40113 54000 60001 85200 333 56600 85830
AAXX 22184 85886 12670 62725 10128 20082 40116 52007 60001 85250 333 56660 85840 86358
AAXX 22184 85892 12670 52315 10147 21036 40104 52008 60001 85200 333 56600 85840
AAXX 22184 85934 12580 72215 10122 21013 40083 52015 6001 83130 333 56550 86820 83360
AAXX 22184 85968 11660 72611 10100 20005 40030 56005 60011 70282 86220 333 56660 86841 87458
AAXX 22184 89057 12470 52310 10020 21015 49860 57010 60003 84401 333 56606 84617 85070
AAXX 22184 89058 32470 72509 10012 21027 39843 49864 57008 878//
AAXX 22184 89059 12460 82005 10003 21027 49842 57012 69963 886// 333 74699 88711
BBXX VOXS 22184 99467 70480 41898 81725 10028 2000/ 40202 57040 70322 8803/ 22200 04020 20503 326// 40705 80018
AAXX 22184 89664 11761 60612 11026 21086 39846 49887 58020 69903 70172 82579 333 56334 82650 84357 90930 93197
AAXX 22184 78583 11570 41107 10293 20235 40144 69901 70181 84800 333 02300 58007 83823
AAXX 22184 78925 11566 60718 10289 20226 40147 56022 69941 78086 86200 333 10294 20258 58002 86828
BBXX VOXS 22184 99467 70480 41898 81725 10028 2000/ 40202 57040 70322 8803/ 22200 04020 20503 326// 40705 80018
AAXX 22184 97180 12457 60703 10253 20253 30025 40043 58029 69921 82232 333 56000 82819 83360
AAXX 22184 85574 12960 01813 10284 20068 39564 40090 57014 60001
AAXX 22184 85577 12960 02205 10282 20049 39517 40096 57012 60001
AAXX 22184 85585 12598 82111 10169 20099 30187 40223 40000 60001 888// 333 56499 83825 85630
AAXX 22184 85586 12960 02317 10184 20078 40133 57013 60001
AAXX 22184 85629 12980 02408 10238 20069 40125 57015 60001
AAXX 22184 85672 13980 02014 10215 20059 40164 57009 60001 333
AAXX 22184 85682 12965 02319 10195 20046 40179 58010 60001
AAXX 22184 85743 12560 52508 10176 20017 40199 58005 60001 87500 333 56600 85620
AAXX 22184 85782 11560 61807 10146 20082 40204 54002 69951 70282 86200 333 56500 86830
AAXX 22184 85799 11610 62409 10142 20061 40203 54000 60021 70182 86800 333 56500 83840 85656
AAXX 22184 85406 12980 02212 10236 20133 40095 58007 60001
AAXX 22184 85418 12570 22512 10228 20150 40096 53008 60001 82500 333 56000 82625
AAXX 22184 85432 12970 32520 10254 20029 37724 48437 57013 60001 80001 333 56006 83072
AAXX 22184 85488 12968 03012 10203 20116 40100 58013 60001
AAXX 2218/ 89872 46/// ///// 11040 39824 4//// 5////
AAXX 2218/ 89769 46/// ///// 11040 39839 4//// 5////
AAXX 2218/ 89828 46/// ///// 11258 36478 4//// 5////
AAXX 2218/ 89879 46/// ///// 10005 39813 4//// 5////
AAXX 22181 12772 31658 80000 11010 21029 39947 40243 53009 70372 875// 333 10003 4/000 87633
AAXX 22181 12822 36/// /0000 11006 21020 30096 40245 53008 333 10047
AAXX 22181 12843 31430 70401 11009 21016 30062 40239 52009 71011 876// 333 10018 4/000 87710
AAXX 22181 12882 31967 80402 11012 21025 30101 40239 52011 70222 8807/ 333 10015 4/000
AAXX 22181 12925 36/// /0000 11016 21038 30073 40252 52013 333 10058
AAXX 22181 12942 31970 73302 11011 21031 39989 40245 52008 70222 8707/ 333 10026 43005
AAXX 22181 12982 31457 83503 11001 21017 30134 40239 52013 70222 886// 333 10004 41998 88711
AAXX 22181 13586 11670 83205 10020 21027 39870 40168 52020 60012 77172 885// 333 10023 84633 88643
AAXX 22181 01001 11470 43613 10009 21002 39695 49706 56016 69922 70162 83560 333 10036 91122
AAXX 22181 01008 11585 71209 11001 21044 39918 49952 58021 69902 70232 8157/ 333 10000 91118
AAXX 22181 01010 16/// /1710 10022 21071 39936 49952 58027 6//// 333 10022 91115
AAXX 22181 01026 41889 62005 10001 21060 39828 49969 56024 70320 84058 333 10002 4/019 91108
AAXX 22181 01055 46/// /1509 10003 21045 39975 49993 58025 333 10027 91110
AAXX 22181 01062 11240 81106 11008 21011 39984 49997 57022 69932 78587 883// 333 11007 91111
AAXX 22181 01098 11480 82008 10000 21017 30034 40052 58008 69902 70322 885// 333 10002 40999 91113
AAXX 22181 01115 11886 81814 10051 20030 39937 49957 58016 60002 70222 8807/ 333 10052 91119
AAXX 22181 01152 11581 81009 10020 21047 39964 49980 56012 60002 70311 8657/ 333 10022 91114
AAXX 22181 01205 46/// /1812 10088 20063 39969 40013 58020 333 10097 91124
AAXX 22181 01212 16/// /2112 10087 20047 30000 40015 58020 6//// 333 10089 91120
AAXX 22181 01271 16/// /0000 10006 21005 30024 40046 55005 69992 333 10012 91105
AAXX 22181 01288 11570 72301 11086 21098 39328 40105 58004 60012 70222 8653/ 333 11059 91107
AAXX 22181 01300 NIL
AAXX 22181 01317 11260 81708 10071 20052 30072 40087 56015 60032 76165 877// 333 10072 91110
AAXX 22181 01367 11789 63202 11086 21102 39665 40128 55002 60002 70322 81531 333 11083 91105
AAXX 22181 01384 11117 83502 11031 21033 39866 40119 53008 69912 77787 886// 333 11030 91106
AAXX 22181 01403 11560 82008 10083 20075 30030 40098 58013 60032 75052 886// 333 10084 91111
AAXX 22181 01415 16/// /1704 10066 20056 30105 40115 58006 6//// 333 10068 91105
AAXX 22181 01482 46/// /2306 10042 20030 30105 40112 55001 333 10047 91112
AAXX 22181 01492 NIL
AAXX 22181 01003 NIL
AAXX 22181 01007 11780 81112 10002 21066 39938 49947 56028 60002 70222 885// 333 10008 91119
AAXX 22181 01028 11580 21107 11001 21011 39930 49950 58026 69902 70242 82500 333 10011 91109
AAXX 22181 01047 31588 81807 11072 21084 39660 40037 58015 70222 885// 333 11058
AAXX 22181 01049 16/// /1404 11043 21080 30021 40025 57019 60002 333 11041 91109
AAXX 22181 01078 11370 7//// 11025 21056 30002 40015 58018 6//// 70322 86350 333 11020 91109
AAXX 22181 01102 46/// /1712 10057 20047 39976 49995 58003 333 10058 91119
AAXX 22181 01160 41989 81504 10038 21041 39953 49970 56017 70222 80002 333 10039 91109
AAXX 22181 01218 NIL
AAXX 22181 01238 41560 82903 11011 21045 38930 40070 56003 70222 885// 333 11006 91106
AAXX 22181 01241 11384 71309 10034 20018 30012 40023 57009 60022 70265 8657/ 333 10072 91111
AAXX 22181 01281 NIL
AAXX 22181 01338 16/// /0806 10006 21007 30029 40097 58016 60022 333 10006 91110
AAXX 22181 01359 11589 82406 10035 21007 39180 40087 50000 60002 70320 8327/ 333 10043 91113
AAXX 22181 01397 16/// /0801 11077 21084 39673 40128 50000 60002 333 11076 91104
AAXX 22181 01400 NIL
AAXX 22181 01427 11315 83402 10062 20053 30112 40128 58003 69932 71065 886// 333 10062 91102
AAXX 22181 01447 NIL
AAXX 22181 01448 46/// /2703 10045 20038 30114 40124 57002 333 10060 91106
BBXX VEP717 22184 99467 70487 41698 81738 10026 2002/ 40177 57041 70322 885// 22200 06025 20404 325// 40704 80023
AAXX 22184 85832 11570 62710 10105 20024 40173 58006 60051 70282 86200 333 56600 82720 86840
AAXX 22184 85864 11680 61204 10103 20040 40142 52007 69901 70282 86200 333 56500 86835
AAXX 22184 85874 12582 52919 10120 21008 39498 40113 54000 60001 85200 333 56600 85830
AAXX 22184 85886 12670 62725 10128 20082 40116 52007 60001 85250 333 56660 85840 86358
AAXX 22184 85892 12670 52315 10147 21036 40104 52008 60001 85200 333 56600 85840
AAXX 22184 85934 12580 72215 10122 21013 40083 52015 6001 83130 333 56550 86820 83360
AAXX 22184 85968 11660 72611 10100 20005 40030 56005 60011 70282 86220 333 56660 86841 87458
AAXX 22184 89057 12470 52310 10020 21015 49860 57010 60003 84401 333 56606 84617 85070
AAXX 22184 89058 32470 72509 10012 21027 39843 49864 57008 878//
AAXX 22184 89059 12460 82005 10003 21027 49842 57012 69963 886// 333 74699 88711
AAXX 22184 85836 12670 52310 10107 20033 40222 50005 60001 85200 333 56600 85840
AAXX 22181 10004 NIL
AAXX 22181 10015 01125 82604 10077 20071 30182 40192 53012 60022 72065 876// 222// 02067 333 10087 20061 31006 55300 20000 30000 69907 87702 96010 96245
AAXX 22181 10020 07017 72504 10073 20073 30140 40173 51010 69962 72253 333 10080 20040 3/004 55300 20000 30000 69907 85/01 87/22
AAXX 22181 10035 01/03 92603 10067 20067 30120 40179 51014 60032 74554 333 10069 20020 32002 55300 20000 30000 41253 69917 89/01 96020
AAXX 22181 10055 01135 82304 10050 20048 30163 40174 53010 60012 75152 886// 333 10050 20018 31002 55300 20000 30000 69917 88702
AAXX 22181 10147 01129 82803 10075 20075 30169 40188 51015 60042 75065 886// 333 10075 20024 31001 55300 20000 30000 41261 69917 87702
AAXX 22181 10162 07008 82203 10044 20044 30099 40183 53009 60022 73065 333 10044 20000 3/100 55300 20000 30000 69917 87/01 88/07
AAXX 22181 10184 01140 81603 10023 20020 30182 40190 53001 69902 72142 876// 333 10023 20009 31100 4/998 55300 20000 30000 69907 87703
AAXX 22181 10200 01140 82604 10083 20083 30205 40203 52013 60012 75052 887// 333 10090 20058 32006 55300 20000 30000 69927 87702
AAXX 22181 10224 01133 72704 10087 20087 30194 40200 51017 60042 71052 877// 333 10090 20047 32004 55300 20000 30000 69907 86703
AAXX 22181 10270 16348 81703 10042 20036 30145 40201 53005 60002 222// 06041 333 10043 20009 3/001 55300 88/08
AAXX 22181 10338 01130 82703 10082 20080 30130 40203 53018 60042 72052 886// 333 10082 20042 32004 55300 20000 30000 69917 85703 87709 96010 96251 96250 96453 96451 96450
AAXX 22181 10361 01125 82501 10051 20046 30092 40197 53007 69932 72065 886// 333 10052 20020 31001 55300 20000 30000 69907 88703
AAXX 22181 10393 01630 81702 10029 20026 30075 40205 52002 69902 71062 875// 333 10033 20010 31001 55300 20000 30000 69907 87636
AAXX 22181 10400 01128 82804 10093 20089 30183 40233 53013 60042 72052 886// 333 10097 20058 32006 55300 20000 30000 69937 83702 88704 96010 96251 96453
AAXX 22181 10438 07038 81703 10043 20040 39939 40225 53017 60062 72365 333 10043 20026 3/003 55300 60017 81/00 88/10
AAXX 22181 10469 01135 82304 10043 20039 30038 40206 53009 69922 75165 877// 333 10048 20021 32002 55300 69917 87703 96010
AAXX 22181 10488 12472 81603 10036 20017 39928 40215 53007 60002 875// 333 10043 20018 31001 55300 20000 30000 41161 86617 87656
AAXX 22181 10506 01012 82703 10071 20067 39659 40245 53016 60052 75165 887// 333 10073 20030 31003 55300 20000 30000 69917 88701 96245 96445
AAXX 22181 10548 01/04 91401 10010 20009 39679 40236 53012 60062 75165 333 10015 20004 31000 4/998 55300 20000 30000 69977 96045 96445
AAXX 22181 10637 01170 82002 10071 20066 30096 40235 53014 60032 70265 875// 333 10074 20032 31003 55300 69917 81703 86635 96458 96451 96410
AAXX 22181 10685 01235 82603 10010 20006 39531 40222 53006 69982 72076 885// 333 10011 20002 3/100 43006 55300 20000 30000 69917 86704 87609 96010 96250 96471 96461
AAXX 22181 10738 01448 82302 10061 20052 39771 40246 52013 60092 76166 8472/ 333 10061 20018 32001 4/998 55300 60027 84712 87518
AAXX 22181 10763 01145 81601 10035 20030 39843 40234 53009 60032 75165 886// 333 10035 20022 31002 55300 20000 30000 69917 85703 88705
AAXX 22181 10788 07315 71401 10019 20019 39797 40241 52002 60022 75765 333 10030 20010 3/100 55300 20000 30000 69997 87/07
AAXX 22181 10852 01158 82504 10036 20035 39664 40244 53008 60042 72176 887// 333 10036 20012 31001 55300 20000 30000 69977 88703
AAXX 22181 10946 07559 72104 10031 20026 39413 40260 53012 60102 75176 333 10031 20008 3/000 4/010 55300 20000 30000 60027 87/25
AAXX 22184 78897 14583 60617 10273 20201 40157 56024 60021 700// 333 10276 20222 58003 70070
BBXX FVNM 22184 99089 70795 46/// /1806 10297 20242 40080 58024 22200 00279
BBXX BATFR08 22184 99365 30759 46/// /2218 10164 20142 40268 51012 22273 00167
BBXX BATEU04 22184 99619 70067 46/// /2314 10107 20077 49842 58081 22262
BBXX BATFR56 22184 99162 30632 46/// /1324 10257 20230 40132 52005 22213 00284
BBXX BATFR45 22184 99180 10611 46/// ///// 10244 20144 40162 51018 22284 00269
BBXX BATFR19 22184 99066 30057 46/// /1813 10234 20194 40129 53017 22200 00252
AAXX 22184 78897 14583 60617 10273 20201 40157 56024 60021 700// 333 10276 20222 58003 70070
BBXX BATFR05 22184 99063 10034 46/// /2209 10284 20252 40102 53011 22200 00262
BBXX BATFR03 22184 99499 70006 46/// /2726 10119 20090 40279 53006 22234
BBXX BATFR04 22184 99584 70062 46/// /2026 10112 20094 40006 56022 22200 00102
BBXX BATFR12 22184 99481 70066 46/// /2011 10177 20087 40305 58001 22281 00144
BBXX BATFR01 22184 99359 10215 46/// /2927 10134 20062 40021 51010 22271 00192
BBXX PBBB 22183 99393 70407 41298 73505 10170 20054 40320 52003 70322 8/736 22263 00180 20302 332// 40907 5//// 80109
BBXX BATFR42 22184 99502 70018 46/// /2424 10119 20094 40274 22244 00124
BBXX BATFR02 22184 99497 70004 46/// /2617 10115 20085 40290 22284 00120
BBXX BATEU07 22184 99169 31085 46/// /1819 10255 40065 58019 22284
BBXX PHCQ 22183 99299 70902 41/// /3012 10175 20134 40152 52011 78184 8//// 22200 00090 20000 3//// 4//// 5//// 80150
BBXX BATFR27 22184 99439 70038 46/// /1013 10149 20057 40311 22285 00154
BBXX BATEU01 22184 99514 10031 46/// /2212 10082 20067 40249 22224 00072
BBXX BATEU05 22184 99582 70243 46/// /2836 10034 21017 49945 53041 22223
BBXX BATFR52 22184 99508 70011 46/// /2516 10109 20082 40274 57020 22282 00090
BBXX BATFR14 22184 99392 70282 44398 80316 10159 20134 40293 53017 70322 886// 22213 00165 201// 326// 408// 5//// 60000 ICE 0/0//
BBXX BATFR54 22184 99486 70061 46/// /2017 10127 20089 40304 51020 22233 00119
AAXX 22181 10609 01460 82302 10092 20078 39922 40253 52015 60012 72162 875// 333 10096 20038 31004 55300 20000 30000 69907 87615
AAXX 22181 10616 01/01 92904 10071 20067 39644 40248 53018 60052 76165 333 10072 20026 32003 55300 69927 96047 96445
AAXX 22181 10641 NIL
AAXX 22181 10655 01257 82101 10050 20048 39898 40232 53012 60062 72164 877// 333 10050 20026 31002 55300 20000 30000 69957 87704
AAXX 22181 10675 07123 81701 10035 20030 39936 40234 53011 60032 71065 333 10035 20026 3/002 55300 20000 30000 69907 87/02 88/07
AAXX 22181 10688 07237 81902 10015 20015 39698 40235 53005 60022 75176 333 10018 20006 3/001 55300 20000 30000 69977 86/04 87/28 88/50
AAXX 22181 10708 11258 82606 10089 20086 39866 40253 51015 60032 70264 875// 333 10090 20031 32003 55300 20000 30000 86705 87610
AAXX 22181 10729 07236 81502 10065 20065 30128 40252 53014 60092 71065 333 10065 20035 3/003 55300 20000 30000 60017 85/04 88/31 88/39
AAXX 22181 10731 01250 82305 10084 20079 30103 40248 53012 60142 76166 877// 333 10084 20044 32004 55300 20000 30000 60047 87706
AAXX 22181 10742 07005 82703 10063 20060 39905 40241 53013 60092 75865 333 10063 20031 3/003 55300 20000 30000 60017 88/00
AAXX 22181 10776 01130 81502 10018 20015 39783 40239 53005 60022 75165 876// 333 10028 20013 31001 55300 20000 30000 69987 87703
AAXX 22181 10791 01/02 92707 11024 21024 38549 48491 53006 69932 77174 333 11021 21054 49100 55300 69937 96041 96471 96449
AAXX 22181 10805 01468 81904 10088 20076 30068 40260 51015 60062 75862 887// 333 10088 20046 31004 55300 20000 30000 69957 87716
AAXX 22181 10815 01456 82708 10046 20045 39300 48528 53013 60062 76166 8472/ 333 10046 20002 3/000 43026 55300 20000 30000 60037 84711 88520 91113 96010 96263 96463
AAXX 22181 10836 01/01 92907 10029 20029 39360 40245 53012 60112 76164 333 10031 20000 3/000 44016 55300 20000 30000 60027 89/02
AAXX 22181 10870 01240 82403 10028 20028 39697 40243 53005 60042 75176 8572/ 333 10028 20011 32001 4/998 55300 60027 85705 88508
AAXX 22181 10895 01/01 92302 10010 20007 39658 40245 51002 69962 76876 333 10012 20000 3/101 44003 55300 20000 30000 69967 96045 96251 96468 96458 96447
AAXX 22181 10908 01/01 93212 10021 20021 38549 48542 53016 60132 76364 333 10025 21013 39101 4/070 55300 20000 30000 60047 89/01 91119 91213 96045
AAXX 22181 10929 01258 82903 10054 20052 39723 40263 53009 60152 75866 8752/ 333 10055 20019 32002 55300 20000 30000 60047 83704 87609
AAXX 22181 10948 07456 81603 10012 20012 39308 48532 53012 60272 76276 333 10016 20001 3/100 4/049 55300 20000 30000 60077 81/12 85/23 88/32
AAXX 22181 10961 11/00 93410 11074 21074 37087 47056 53015 60222 77374 333 11073 21117 49220 55300 20000 41088 91120 91214 96049
AAXX 22181 10962 01/00 92407 10011 20011 39082 48515 53013 60112 76376 333 10013 21009 3/101 44029 55300 20000 30000 60047 96045
AAXX 22181 10980 11/01 92907 11024 21024 38163 48512 52010 60082 77174 333 11024 21064 3/106 48070 55300 20000 30000 96049 96471 96449
AAXX 22181 10007 NIL
AAXX 22181 10044 NIL
AAXX 22181 10046 11007 82503 10064 20059 30140 40179 52014 69992 75154 877// 333 10065 20026 32002 87701
AAXX 22181 10091 17137 81908 10022 20021 30128 40180 52001 60002 71010 333 10024 20012 3/001 55300 20000 30000 88/02
AAXX 22181 10113 01239 82605 10070 20069 30180 40199 53012 69972 75052 886// 333 10076 20054 32005 55300 20000 30000 69907 88705
AAXX 22181 10124 NIL
AAXX 22181 10131 01/05 92705 10072 20070 30177 40192 53014 60042 75165 333 10079 20035 31004 55300 20000 30000 69937 89/00 96047 98005
AAXX 22181 10170 01235 81703 10046 20041 30163 40179 53003 69942 72052 886// 333 10046 20017 31001 55300 20000 30000 69907 88704 98035
AAXX 22181 10264 06229 81903 10042 20039 30077 40185 53006 69932 333 10047 20006 3/000 55300 20000 30000 69927 88/03 88/07
AAXX 22181 10291 01240 81503 10024 20019 30135 40205 53002 69902 71062 886// 333 10026 20001 31100 55300 20000 30000 69907 88704
AAXX 22181 10315 01128 82704 10088 20087 30155 40219 52017 60032 72065 876// 333 10093 20054 31005 55300 20000 30000 69927 82702 87703 96010
AAXX 22181 10379 12360 81703 10043 20032 30075 40199 53006 60002 876// 333 10049 20013 31001 55300 20000 30000 41195 87709
AAXX 22181 10382 12360 71702 10048 20030 30155 40201 53004 60002 875// 333 10050 20015 31001 55300 20000 30000 83709 87611
AAXX 22181 10384 16/// /1603 10044 20033 30140 40201 53004 69902 333 10052 20018 3/001 55300 20000 30000
AAXX 22181 10427 01/01 92906 10039 20039 39207 48504 53019 60072 76164 333 10042 20000 3/100 44052 55300 20000 30000 60017 96045
AAXX 22181 10430 01006 82702 10082 20081 30023 40216 52017 60102 75165 887// 333 10083 20042 31004 55300 20000 30000 69987 88701 96042
AAXX 22181 10439 11250 82201 10047 20040 30003 40227 52017 60052 75165 886// 333 10048 20032 32003 83704 88706
AAXX 22181 10453 11/90 93011 10010 20010 38853 48479 51014 60112 75365 333 10012 21024 3/102 49127 55300 91119 91213 96045 96466 96456 96453 96445
AAXX 22181 10496 11656 81702 10041 20029 30122 40209 52001 60002 71022 875// 333 10043 20015 31001 55300 20000 30000 87638
AAXX 22181 10499 12560 81904 10015 20001 39919 40218 51006 60002 82537 333 10032 20006 31101 55300 20000 30000 82620 88270
AAXX 22181 10505 01/09 9//// 10084 20083 39960 40243 51010 60042 75154 333 10087 20075 32007 55300 20000 30000 69917 96047
AAXX 22181 10513 01125 82803 10092 20092 30115 40237 53011 60062 75155 886// 333 10096 20044 31004 55300 20000 30000 69967 85702 88704 96010 96453
AAXX 22181 10532 17112 70501 10047 20046 39977 40230 53016 60032 72065 333 10049 20029 3/003 55300 20000 30000 82/02 87/09 87/31
AAXX 22181 10544 01/01 93106 10016 20016 39129 48497 53016 60082 74565 333 10017 21010 3/101 44024 55300 69947 96250 96459 96453
AAXX 22181 10554 01168 82705 10038 20035 39819 40214 53012 69972 72065 885// 333 10040 20021 31002 55300 20000 30000 69917 81703 88613
AAXX 22181 10567 01261 82503 10032 20030 39830 40213 53007 69982 75165 876// 333 10036 20013 31000 55300 20000 30000 69907 87705
AAXX 22181 10578 11/01 92611 11012 21013 38788 48480 53007 69932 75674 333 11012 21037 35104 44067 55300 20000 30000 96049
BBXX DGUG2 22184 99165 70256 41/96 /0721 10245 20186 40140 51005 705// 8//// 22294 04250 20704 80205
BBXX A8VL5 22184 99340 10233 41397 82723 10120 20079 40180 53010 70362 888// 22264 00180 20606 30000 80100
BBXX MSTM6 22183 99373 10049 41/98 70217 10165 20120 40257 56010 70222 8//// 22224 00165 2//// 80140
BBXX CGDS 22184 99450 70746 46/// /2411 10040 21001 4//// 5//// 7//// 8//// 22221 00058 2////
AAXX 22181 01015 46/// /1613 10014 21063 333 10014 91117
AAXX 22181 01023 11689 41201 11106 21111 39891 49991 56018 60002 70300 81578 333 11054 91102
AAXX 22181 01033 46/// /1507 10028 21034 39928 49959 58026 333 10033 91112
AAXX 22181 01059 16/// /1608 11031 21057 30017 40026 58016 6//// 333 11029 91113
AAXX 22181 01089 11484 81906 11019 21024 39952 40060 58010 69904 70272 8167/ 333 11018 91109
AAXX 22181 01167 41787 61610 10037 21089 39948 49953 58027 70321 84570 333 10038 91113
AAXX 22181 01180 NIL
AAXX 22181 01210 41685 81908 10092 20038 39995 40021 58017 70222 8457/ 333 10094 91114
AAXX 22181 01228 46/// /2613 10086 20054 30000 40007 58011 333 10086 91119
AAXX 22181 01240 16/// /2313 10082 20063 39986 40006 58009 6//// 333 10083 91118
AAXX 22181 01304 46/// /1612 10071 20060 30013 40043 57021 333 10079 91115
AAXX 22181 01311 46/// /1507 10058 20055 30027 40089 56012 333 10062 91109
AAXX 22181 01340 16/// /1301 10002 21004 39234 40110 58004 60022 333 10011 91104
AAXX 22181 01355 16/// ///// 11016 21028 30101 40106 58015 69972 333 11012
AAXX 22181 01360 NIL
AAXX 22181 01392 11256 82801 11040 21045 39891 40124 50002 69952 71022 888// 333 11038 91102
AAXX 22181 01406 46/// /1507 10070 20066 30073 40091 57012 333 10071 91110
AAXX 22181 01411 16/// /1707 10075 20071 30082 40108 58010 6//// 333 10088 91109
AAXX 22181 01425 16/// /3501 10005 20002 30053 40134 58001 60022 333 10015 91103
AAXX 22181 01433 46/// /0000 10011 20002 38853 40107 58003 333 10015 91106
AAXX 22181 01442 11180 83602 11005 21013 39866 40129 51006 6//// 70252 886// 333 11003 91104
AAXX 22181 01450 NIL
AAXX 22181 01452 11935 40501 10000 21002 30103 40124 50000 60032 71041 80002 333 10013 91102
AAXX 22181 01473 11680 53601 11015 21020 39899 40112 53002 60002 70222 85020 333 11006 91104
AAXX 22181 01494 11156 82303 10031 20028 30047 40113 55000 60012 71022 886// 333 10034 91107
AAXX 22181 01037 16/// /1807 11043 21089 39996 40002 55016 60002 333 11028 91113
AAXX 22181 01046 16/// /1509 11029 21085 39982 49989 58031 6//// 333 11026 91114
AAXX 22181 01058 16/// /1805 11077 21088 39565 40043 55013 60002 333 11075 4/018 91109
AAXX 22181 01065 11689 82102 11030 21041 39886 40050 57009 60002 70222 885// 333 11028 91106
AAXX 22181 01092 46/// /2309 11028 21054 333 11019 91118
AAXX 22181 01107 16/// /1813 10063 2//// 39939 49944 58022 60002 333 10063 91119
AAXX 22181 01114 16/// /1908 10060 20014 39964 49974 58010 60002 333 10060 91112
AAXX 22181 01144 41886 81308 10038 21015 70322 84/26 333 10042 91115
AAXX 22181 01199 NIL
AAXX 22181 01245 11670 72803 10007 21037 39340 40049 56009 60022 70222 875// 333 10029 91106
AAXX 22181 01259 16/// /2011 10075 20060 39984 40006 58005 69942 333 10075 91118
AAXX 22181 01262 NIL
AAXX 22181 01278 11680 81101 11003 21010 39941 40044 58006 69972 75052 8802/ 333 10002
AAXX 22181 01293 16/// /1901 10001 21002 39845 40055 57004 69962 333 10001 91102
AAXX 22181 01329 11130 80202 10017 20008 30047 40109 58009 60052 78084 888// 333 10017 91104
AAXX 22181 01337 16/// /1401 10002 21011 30036 40104 58013 60022 333 10004 91102
AAXX 22181 01344 16/// ///// 10029 20006 60012 333 10037 4/076
AAXX 22181 01364 16/// /2905 10015 21012 38971 40086 50003 69932 333 10022 4/041 91113
AAXX 22181 01373 11686 80000 11077 21087 39919 40127 55000 60002 70222 885// 333 11077 91101
AAXX 22181 01374 11370 80000 11087 21090 69902 70122 886// 333 11077
AAXX 22181 01380 11375 80601 11089 21102 69932 70242 876// 333 11082 4/024 91103
AAXX 22181 01389 11880 80201 11076 21087 39810 40134 50003 69982 70222 8802/ 333 11071 91104
AAXX 22181 01393 NIL
AAXX 22181 01424 16/// ///// 10005 21002 30121 40124 57006 60042 333 10007
AAXX 22181 01431 16/// /0201 10001 21005 39460 40134 50002 60052 333 10004 91103
AAXX 22181 01436 11235 82905 10069 20062 60022 74142 886// 333 10069 91107
AAXX 22181 01465 11275 32402 10024 20018 30100 40119 57002 69942 71052 82601 333 10049 91106
AAXX 22181 01471 16/// /0000 11049 21060 60002 333 11041 91105
AAXX 22181 01483 NIL
AAXX 22181 01025 16/// /2009 10001 21047 39958 49969 58026 60002 333 10006 91111
AAXX 22181 01052 16/// /1404 11028 21071 39893 49992 58021 60002 333 11005 91107
AAXX 22181 01122 16/// /1604 11007 21022 39931 40022 57005 60002 333 11007 91111
AAXX 22181 01132 16/// /1603 11025 21042 39654 40048 57003 69952 333 11022 4/043 91111
AAXX 22181 01156 16/// /1713 10045 21015 39938 49947 56024 60002 333 10045 91117
AAXX 22181 01203 46/// /1815 10085 20056 39974 40022 58020 333 10092 91123
AAXX 22181 01233 16/// /1901 11095 21102 60002 333 11070 91103
AAXX 22181 01265 16/// /2602 11098 21111 39510 40118 58006 60032 333 11070 91105
AAXX 22181 01273 16/// /0000 10002 21008 39857 40055 58005 60012 333 10004 91103
AAXX 22181 01307 46/// /1712 10079 20067 30040 40067 58015 333 10083 91114
AAXX 22181 01321 16/// /1003 10038 20035 39805 40058 58013 69942 333 10040 91105
AAXX 22181 01327 11250 81004 10022 20013 60132 76165 8662/ 333 10027 91106
AAXX 22181 01350 16/// /0000 10007 20001 38699 40087 50001 60022 333 10009 91136
AAXX 22181 01361 16/// /0201 11052 21067 39046 40095 58004 69982 333 11046 91104
AAXX 22181 01375 16/// /1905 11036 21045 6//// 333 11031 91106
AAXX 22181 01378 16/// /0301 11079 21095 39817 40122 55004 69962 333 11073 91103
AAXX 22181 01385 16/// /3301 11055 21060 39847 40129 50005 69992 333 11052 91102
AAXX 22181 01412 16/// /1506 10062 20059 30088 40117 58007 69932 333 10062 91108
AAXX 22181 01422 16/// /0802 10053 20046 69942 333 10055 91104
AAXX 22181 01440 NIL
AAXX 22181 01441 NIL
AAXX 22181 01467 NIL
AAXX 22181 01469 16/// /3001 11037 21055 39944 40122 53003 60002 333 11036 91104
AAXX 22181 01477 16/// /3001 11039 21043 60002 333 11009 4/022 91102
AAXX 22181 01480 16/// /3401 11032 21041 60002 333 11015 91104
AAXX 22181 01484 16/// /2401 11001 21010 39956 40115 53002 60032 333 10002 91103
AAXX 22181 01490 16/// /1501 11025 21027 69972 333 11012 91107
AAXX 22181 01495 16/// /2306 10055 20043 30101 40114 55000 69942 333 10060 91112
AAXX 22181 01121 46/// /1609 10056 20026 39973 49985 58008 333 10056 91115
AAXX 22181 01135 16/// /1501 11015 21023 39870 40024 58003 69952 333 11011 4/004 91107
AAXX 22181 01143 16/// /1803 10025 21085 60002 333 10025 91107
AAXX 22181 01150 16/// /1104 11029 21080 60002 333 11025 91110
AAXX 22181 01192 16/// /1303 10014 21121 60002 333 10020 4/007 91110
AAXX 22181 01225 46/// /2010 10083 20056 30005 40010 56010 333 10088 91121
AAXX 22181 01230 16/// /0801 11071 21081 60002 333 11052 4/036 91106
AAXX 22181 01232 16/// /1806 10009 21046 39971 40051 58013 6//// 333 10015 4/024 91113
AAXX 22181 01234 16/// /2003 11009 21015 60012 333 11006 91105
AAXX 22181 01253 16/// /1702 11022 21047 60032 333 11005 4/036 91106
AAXX 22181 01254 16/// /1501 11035 21041 60032 333 11012 4/024 91102
AAXX 22181 01257 NIL
AAXX 22181 01277 NIL
AAXX 22181 01291 16/// /2201 11018 21022 60022 333 11017 4/025 91103
AAXX 22181 01332 16/// /0000 11001 21011 60032 333 11001 91100
AAXX 22181 01366 46/// /2404 11018 21026 38469 40083 58004 333 11014 91109
AAXX 22181 01370 16/// /3301 11079 21088 38989 40203 55004 60002 333 11076 4/026 91103
AAXX 22181 01376 16/// /3101 11062 21074 60002 333 11056 91103
AAXX 22181 01383 46/// /1701 11088 21094 39803 40132 58002 333 11083 91103
AAXX 22181 01386 16/// ///// 11052 21063 69962 333 11052
AAXX 22181 01416 16/// ///// 10068 2//// 69982 333 10069
AAXX 22181 01419 16/// /0101 10013 20011 60032 333 10018 91102
AAXX 22181 01430 16/// ///// 10015 20010 69982 333 10028
AAXX 22181 01434 16/// /2502 10014 20001 39141 40112 50001 69952 333 10025 91104
AAXX 22181 01455 16/// /0701 11004 21013 39807 40123 53003 69962 333 10002 91102
AAXX 22181 01468 16/// /0302 11023 21028 60022 333 11020 91104
AAXX 22181 01470 16/// /0502 11025 21029 30000 40118 55001 69932 333 11020 4/007 91105
AAXX 22181 01476 NIL
AAXX 22181 01481 16/// /2102 10016 20013 30081 40114 53001 69972 333 10023 91106
AAXX 22181 01488 NIL
AAXX 22184 86011 32570 53618 10374 20204 39899 40051 57021 85800 333 85830
AAXX 22184 86033 32670 40210 10376 20188 39962 40053 57020 84200 333 84834
AAXX 22184 86065 32970 50415 10386 20179 39786 40009 57018 80005 333 85270
AAXX 22184 86068 32670 22318 10388 20200 39830 40011 57022 82102 333 82840 82070
AAXX 22184 86086 32570 23608 10374 20192 39968 40054 57018 82200 333 82833
AAXX 22184 86097 32670 33510 10352 20177 39446 40057 57008 83200 333 83840
AAXX 22184 86128 32670 40415 10388 20200 39928 40035 56008 83201 333 83840 82070
AAXX 22184 86134 32570 23612 10380 20201 39967 40049 57014 82100 333 82833
AAXX 22184 86170 32670 33614 10394 20213 39919 40016 57016 83100 333 83840
AAXX 22184 86185 32570 10508 10376 20225 39962 40051 57012 81100 333 81833
AAXX 22184 86192 NIL
AAXX 22184 86210 32570 20906 10350 20180 39720 40046 57008 82200 333 82833
AAXX 22184 86218 32670 23615 10392 20201 39950 40041 57022 82100 333 82840
AAXX 22184 86221 32670 33608 10386 20199 39943 40070 57014 83100 333 83840
AAXX 22184 86233 32970 03611 10372 20189 39887 40068 56007
AAXX 22184 86234 32570 23408 10362 20211 39838 40012 58002 81101 333 81630 81070
AAXX 22184 86246 32670 13610 10362 20246 39797 40068 57009 81201 333 81840 81070
AAXX 22184 86251 32670 63608 10374 20206 39875 40034 53002 86200 333 86840
AAXX 22184 86255 32670 23611 10402 20148 39973 40036 55016 82200 333 82840
AAXX 22184 86260 32570 20208 10380 20183 39894 40037 57005 82100 333 82833
AAXX 22184 86268 32970 00602 10374 20144 39903 40059 56007
AAXX 22184 86285 32670 53610 10376 20202 39790 40058 56009 85200 333 85840
AAXX 22184 86297 32570 83602 10388 20235 39902 40001 57013 82807 333 82827 87270
AAXX 22184 62010 32660 43312 10152 20105 40171 52014 84500 333 10176 84636
AAXX 22184 07005 04/69 /2712 10102 20080 30181 40272 53005 60002 700// 333 10108 20094 60007 90710 91122 555 60005
AAXX 22184 07015 02580 72505 10097 20076 30203 40261 53005 60002 875// 333 10128 20093 60007 87624 90710 91109 93100 555 60005
AAXX 22184 07020 02668 62511 10121 20091 30269 40296 57002 60002 86500 333 10124 20114 60007 86633 90710 91119 555 60005
AAXX 22184 07027 02582 82306 10100 20079 30216 40298 55000 60002 875// 333 10118 20093 60007 87628 90710 91111 93100 555 60005
AAXX 22184 07037 04482 82809 10096 20077 30100 40286 55001 60002 700// 333 10108 20088 60007 90710 91116 555 60005
AAXX 22184 07070 04468 82605 10103 20074 30166 40277 51010 60002 700// 333 10120 20096 60007 90710 91111 555 60005
AAXX 22184 07110 02570 82005 10109 20085 30191 40307 56002 60002 885// 333 10120 20101 60007 88633 90710 91108 93100 555 60005
AAXX 22184 07117 02570 72205 10110 20080 30233 40304 58002 60002 875// 333 10119 20110 60007 90710 91112 92428 555 60005
AAXX 22184 07130 04585 83003 10103 20081 30261 40314 53003 60002 700// 333 10127 20098 60007 90710 91107 555 60005
AAXX 22184 07139 06/// /3105 10097 20060 30128 40305 53004 60002 333 10119 20073 60007 90710 91115 555 60005
AAXX 22184 07149 02480 73009 10105 20083 30182 40292 53007 60002 875// 333 10117 20090 60007 83616 86626 90710 91119 93100 555 60005
AAXX 22184 07168 04/67 /2406 10099 20078 30148 40293 51011 60002 700// 333 10115 20099 60007 90710 91109 555 60005
AAXX 22184 07181 04466 82908 10093 20084 39858 40272 53015 69922 700// 333 10096 20068 60007 90710 91117 555 60005
AAXX 22184 07190 04458 81502 10074 20067 30075 40261 53015 60042 700// 333 10074 20041 69907 90710 91104 555 69905
AAXX 22184 07207 02768 83005 10124 20079 60002 88500 222// 327// 333 10129 20108 60007 90710 91110 92427 555 60005
AAXX 22184 07222 02565 52602 10083 20074 30283 40315 53002 60002 84501 333 10136 20070 60007 84625 90710 91105 555 60005
AAXX 22184 07240 02580 82104 10104 20082 30174 40311 53003 60002 875// 333 10119 20094 60007 87630 90710 91106 93100 555 60005
AAXX 22184 07255 04469 83004 10100 20081 30110 40313 53012 60002 700// 333 10110 20100 60007 90710 91110 555 60005
AAXX 22184 07280 04769 83006 10107 20079 30015 40290 53014 60002 700// 333 10117 20051 60007 90710 91117 555 60005
AAXX 22184 07299 01462 82613 10096 20080 39937 40268 53018 60032 72162 885// 333 10097 20036 69907 83710 87640 90710 91123 93100 555 60005
AAXX 22184 07314 06/// /3604 10109 20098 30296 40324 52004 60002 333 10123 20109 60007 90710 91106 555 60005
AAXX 22184 07335 04478 83204 10103 20087 30174 40321 53008 60002 700// 333 10112 20099 60007 90710 91108 555 60005
AAXX 22184 07434 04467 83102 10082 20067 39833 40322 53008 60002 700// 333 10104 20082 60007 90710 91105 555 60005
AAXX 22184 07460 02580 70405 10095 20078 39912 40307 53011 60002 875// 333 10125 20095 60007 82623 87646 90710 91108 93100 555 60005
AAXX 22184 07471 04470 83209 10065 20047 39312 48888 53007 69922 700// 333 10085 20057 60007 90710 91116 555 60005
AAXX 22184 07481 01530 83406 10073 20062 39997 40291 53007 60012 71022 885// 333 10084 20042 60007 84623 84635 86648 90710 91108 93100 555 60005
AAXX 22184 07510 01765 30203 10097 20085 30252 40319 52002 60002 71111 81501 333 10138 20097 60007 81650 83076 90710 91107 93100 555 60005
AAXX 22184 07535 06/// /2802 10087 20081 30000 40319 53008 69942 333 10113 20087 60007 90710 91105 555 60005
AAXX 22184 07558 06/// /3113 10076 20054 39442 40290 52010 69902 333 10100 20076 60007 90710 91120 555 60005
AAXX 22184 07577 04/70 /0311 10117 20076 30166 40256 53005 60002 700// 333 10129 20100 60007 90710 91122 555 60005
AAXX 22184 07591 04/// /0000 10024 20003 39204 4//// 53011 60002 700// 333 10118 21023 60007 90710 91103 555 60005
AAXX 22184 07607 04678 81302 10112 20096 30247 40319 55000 69902 700// 333 10134 20112 60007 90710 91103 555 60005
AAXX 22184 07621 01470 72003 10095 20086 39883 40323 53001 69962 70252 878// 333 10107 20095 60007 83816 85823 87636 90710 91104 93100 555 60005
AAXX 22184 07627 06/// /0000 10088 20066 39826 40323 51001 60022 333 10132 20088 60007 90710 91103 555 60005
AAXX 22184 07630 02770 52805 10098 20087 30135 40319 53003 69982 85500 333 10122 20098 60007 85650 90710 91107 93100 555 60005
AAXX 22184 07643 02886 42909 10129 20048 30246 40256 52009 60002 81501 333 10182 20129 60007 81656 84070 90710 91111 555 60005
AAXX 22184 07650 02786 23321 10128 20068 30175 40214 51011 60002 81502 333 10158 20120 60007 81650 90710 91136 93100 555 60005
AAXX 22184 07661 06/// /0503 10112 20082 30050 40212 52007 60002 333 10130 20092 60007 90710 91106 555 60005
AAXX 22184 07690 02984 13209 10085 20031 30181 40216 53005 60002 80001 333 10151 20053 60007 81073 90710 91112 93100 555 60005
AAXX 22184 07747 02682 43217 10140 20061 30216 40269 53005 60002 82501 333 10161 20137 60007 81640 84073 90710 91130 555 60005
AAXX 22184 07761 02670 10508 10079 20041 30204 40215 53009 60002 81500 333 10153 20027 60007 81640 90710 91110 93100 555 60005
AAXX 22184 07790 02965 12204 10059 20022 30199 40214 51009 60002 80001 333 10148 20043 60007 81071 90710 91107 93100 555 60005
AAXX 22181 02741 37961 72204 10010 20001 30130 40146 54001 70010 87/// 91739 333 10014 21002
AAXX 22181 02755 17464 81801 11013 21017 30036 40133 52005 69932 77187 88/// 91739 333 11012 21020
AAXX 22181 02805 37483 82102 11029 21037 39915 40049 57011 70087 88/// 91739 333 11029 21059
AAXX 22181 02807 47483 82005 11019 21038 39889 40074 700// 88/// 91800 333 11013 21050
AAXX 22181 02836 37357 81803 11026 21032 39865 40091 57009 78587 88/// 91739 333 11015 21029
AAXX 22181 02845 47258 81903 11023 21023 39850 40103 57003 76787 88/// 91739 333 11015 21028
AAXX 22181 02849 47483 71703 11030 21038 39833 40113 57005 78587 87/// 91739 333 11022 21039
AAXX 22181 02866 37277 81802 11020 21021 39971 40123 54000 77774 88/// 91739 333 11012 21025
AAXX 22181 02897 47380 81802 11017 21025 39954 40140 771// 88/// 91800 333 11013 21018
AAXX 22181 02913 47583 81503 11001 21011 30078 40131 700// 88/// 333 11001 21006
AAXX 22181 02917 47380 81802 11012 21020 30027 40152 700// 88/// 91800 333 11008 21017
AAXX 22181 02924 47262 70000 11013 21014 39944 40145 52006 70087 87/// 91739 333 11009 21019
AAXX 22181 02926 17566 71403 11006 21008 30130 40143 54001 69972 780// 87/// 91800 333 10002 21013
AAXX 22181 02935 37472 71801 11012 21018 39976 40153 52007 78587 87/// 91739 333 11008 21013
AAXX 22181 02939 37525 81801 11030 21030 39963 40162 52004 77187 88/// 91739 333 11026 21036
AAXX 22181 02944 47670 81802 11013 21017 30005 40156 700// 88/// 91800 333 11010 21013
AAXX 22181 02947 47260 80000 11014 21014 40165 52008 70082 88/// 91751 333 11006 21017
AAXX 22181 02963 46/// /0000 11020 21024 40159 333 1//// 2////
AAXX 22181 02974 31556 72201 11023 21027 30102 40170 52005 71042 875// 333 11007 21034 41///
AAXX 22181 02976 46/// /2801 11008 21009 30152 40168 52007 91739 333 10014 21009
AAXX 22181 02981 37481 12507 10033 20003 30148 40158 52003 70000 81/// 91739 333 10035 20013
AAXX 22181 02982 46/// /2004 10019 20005 30155 40163 52005 91739 333 10030 21001
AAXX 22181 11816 12665 59901 10014 21020 30076 40245 53009 60002 85500 333 10054 85644
AAXX 22181 11826 11612 70801 11011 21018 30038 40246 52010 60002 71022 875// 333 10025 47004 87640
AAXX 22181 11903 11637 60000 11045 21045 39848 40248 52014 60002 71022 86500 333 11001 47997 86645
AAXX 22181 11934 12460 82901 11023 21043 39385 42811 52010 69902 885// 333 11005 42001 81710 88616
AAXX 22181 11968 11335 70000 11016 21027 39947 40239 52008 69902 71077 87500 333 10003 41998 82709 87650
AAXX 22181 02741 37961 72204 10010 20001 30130 40146 54001 70010 87/// 91739 333 10014 21002
AAXX 22181 02755 17464 81801 11013 21017 30036 40133 52005 69932 77187 88/// 91739 333 11012 21020
AAXX 22181 02805 37483 82102 11029 21037 39915 40049 57011 70087 88/// 91739 333 11029 21059
AAXX 22181 02807 47483 82005 11019 21038 39889 40074 700// 88/// 91800 333 11013 21050
AAXX 22181 02836 37357 81803 11026 21032 39865 40091 57009 78587 88/// 91739 333 11015 21029
AAXX 22181 02845 47258 81903 11023 21023 39850 40103 57003 76787 88/// 91739 333 11015 21028
AAXX 22181 02849 47483 71703 11030 21038 39833 40113 57005 78587 87/// 91739 333 11022 21039
AAXX 22181 02866 37277 81802 11020 21021 39971 40123 54000 77774 88/// 91739 333 11012 21025
AAXX 22181 02897 47380 81802 11017 21025 39954 40140 771// 88/// 91800 333 11013 21018
AAXX 22181 02913 47583 81503 11001 21011 30078 40131 700// 88/// 333 11001 21006
AAXX 22181 02917 47380 81802 11012 21020 30027 40152 700// 88/// 91800 333 11008 21017
AAXX 22181 02924 47262 70000 11013 21014 39944 40145 52006 70087 87/// 91739 333 11009 21019
AAXX 22181 02926 17566 71403 11006 21008 30130 40143 54001 69972 780// 87/// 91800 333 10002 21013
AAXX 22181 02935 37472 71801 11012 21018 39976 40153 52007 78587 87/// 91739 333 11008 21013
AAXX 22181 02939 37525 81801 11030 21030 39963 40162 52004 77187 88/// 91739 333 11026 21036
AAXX 22181 02944 47670 81802 11013 21017 30005 40156 700// 88/// 91800 333 11010 21013
AAXX 22181 02947 47260 80000 11014 21014 40165 52008 70082 88/// 91751 333 11006 21017
AAXX 22181 02963 46/// /0000 11020 21024 40159 333 1//// 2////
AAXX 22181 02974 31556 72201 11023 21027 30102 40170 52005 71042 875// 333 11007 21034 41///
AAXX 22181 02976 46/// /2801 11008 21009 30152 40168 52007 91739 333 10014 21009
AAXX 22181 02981 37481 12507 10033 20003 30148 40158 52003 70000 81/// 91739 333 10035 20013
AAXX 22181 02982 46/// /2004 10019 20005 30155 40163 52005 91739 333 10030 21001
AAXX 22184 91408 32474 80503 10268 20243 30002 40040 57022 8322/ 333 56999 70107 555 92218
AAXX 22184 91348 11474 80707 10273 20234 39998 40051 55003 60011 70282 85101 333 562/9 70074 555 92218
AAXX 22184 03005 11465 72432 10099 20081 39911 40010 58028 60022 70265 875// 91750 333 10104 55300 20000 87616 90710 91139
AAXX 22184 03017 15680 /1916 10096 20081 30005 40036 58026 60012 91750 333 10109 55300 20000 83/33 87/49
AAXX 22184 03023 17257 /2129 10106 20105 30034 40038 56030 69962 722// 91750 333 10108 87/05 85/14 90710 91139
AAXX 22184 03026 17463 /2023 10112 20102 39999 40017 56032 60012 761// 91750 333 10118 55300 20000 88/18 90710 91137
AAXX 22184 03063 17463 /2208 10091 20079 39806 40080 56028 60032 723// 91750 333 10099 55300 20000 87/18 90710 91126
AAXX 22184 03066 15689 /2114 10117 20076 30056 40062 56032 60002 91750 333 10129 55300 20000 85/44 86/74
AAXX 22184 03075 15669 /1918 10097 20076 30003 40046 56031 69922 91750 333 10116 88/43 90710 91125
AAXX 22184 03091 15980 /2216 10100 20077 30021 40100 56014 60002 91750 333 10131 55300 20000 8//99 90710 91127
AAXX 22184 03100 17324 /2225 10109 20108 30068 40084 56026 60012 723// 91750 333 10112 55300 20000 88/07 90710 91136
AAXX 22184 03111 16782 /2019 10123 20095 30124 40136 57018 60002 91750 333 10130 88/56 90710 91129
AAXX 22184 03134 15366 /2113 10102 20091 30054 40125 58026 69922 91750 333 10115 55300 20000 84/09 87/56
AAXX 22184 03136 NIL
AAXX 22184 03162 17262 /2114 10089 20081 39877 40163 58019 60022 761// 91750 333 10095 55300 20000 88/05 90710 91126 91024
AAXX 22184 03166 15482 /2313 10114 20093 30062 40131 56020 69902 91750 333 10120 55300 20000 85/18 83/25 85/56 90710 91129
AAXX 22184 03171 11470 82419 10109 20090 30109 40121 56019 69922 72162 885// 91750 333 10119 55300 20000 81713 85615 88622 90710 91125
AAXX 22184 03204 11465 82116 10108 20097 30165 40184 57020 60002 70252 885// 91750 333 10121 55300 20000 81710 88650
AAXX 22184 03240 15982 /2524 10110 20087 30128 40156 55007 60002 91750 333 10121 55300 20000 8//99 90710 91141
AAXX 22184 03257 15475 /2606 10107 20079 30152 40192 57005 60002 91750 333 10124 55300 20000 81/17 83/21
AAXX 22184 03292 166// /2505 10093 20071 30181 40199 58001 60002 91750 333 10128 81/36
AAXX 22184 03302 17350 /1918 10106 20106 30196 40208 58016 60002 710// 91750 333 10120 55300 20000 86/06 88/46
AAXX 22184 03354 15680 /2309 10104 20074 30083 40226 58003 60002 91750 333 10126 55300 20000 87/41
AAXX 22184 03377 12682 52312 10102 20074 30135 40220 58004 60002 85500 91750 333 10122 55300 20000 85630
AAXX 22184 03414 15481 /2004 10109 20094 30140 40228 58007 60002 91750 333 10119 55300 20000 85/17 84/37
AAXX 22184 03462 15582 /2308 10096 20068 30142 40232 58005 60002 91750 333 10117 55300 20000 82/29 83/33
AAXX 22184 03482 15962 /2007 10070 20060 30205 40231 50002 60002 91750 333 10115 8//99
AAXX 22184 03502 15663 /2318 10109 20093 30077 40239 58012 69922 91750 333 10111 55300 20000 88/42
AAXX 22184 03535 15582 /1907 10103 20080 30117 40235 58004 60002 91750 333 10125 55300 20000 86/22 87/40
AAXX 22184 03590 15971 /2507 10067 20061 30130 40241 51006 60002 91750 333 10110 55300 20000 8//99
AAXX 22184 03649 11475 72204 10102 20085 30152 40252 56001 69922 76011 875// 91750 333 10126 55300 2//// 83710 87628
AAXX 22184 03716 15670 /2611 10107 20097 30196 40256 56005 69922 91750 333 10116 55300 20000 88/42
AAXX 22184 03740 16264 /2411 10098 20096 30081 40259 56002 60002 91750 333 10113 55300 2//// 87/03 84/30
AAXX 22184 03746 17239 /2407 10092 20092 30112 40267 51002 69902 751// 91750 333 10118 87/04
AAXX 22184 03772 15572 /2608 10109 20080 30223 40254 50001 60002 91750 333 10126 55300 20000 87/28
AAXX 22184 03796 46/// /2811 10092 20075 30110 40254 53007 91750 333 10123
AAXX 22184 03803 NIL
AAXX 22184 03808 12670 82510 10112 20089 30172 40279 56003 60002 885// 91750 333 10119 55300 20000 88634
AAXX 22184 03809 11468 82510 10112 20104 30186 40279 56005 69902 70562 885// 91750 333 10116 82714 88628
AAXX 22184 03827 15465 /2410 10112 20102 30217 40279 58003 69902 91750 333 10120 81/13 87/37
AAXX 22184 03840 15376 /2607 10096 20093 39963 40271 58002 69922 91750 333 10101 87/08
AAXX 22184 03853 15479 /2306 10113 20096 30243 40267 57002 60002 91750 333 10120 55300 20000 82/16 87/41
AAXX 22184 03874 46/// /2716 10097 20084 30257 40268 53001 91750 333 10119
AAXX 22184 03882 15565 /2203 10078 20060 30198 40262 53005 60002 91750 333 10140 55300 20000 82/29
AAXX 22184 03894 11480 72508 10107 20030 40297 56002 69902 72162 875// 333 10114 83618 87624
AAXX 22184 03917 17478 /1911 10111 20095 30078 40154 56019 69922 781// 91750 333 10118 55300 20000 87/17
AAXX 22184 61901 169// /1311 10169 20132 39667 40175 53001 69922 91750 333 10198 8//99 555 7/090
AAXX 22184 61902 11482 61415 10252 20198 40125 69952 70182 868// 333 10275 58005 82815 85635
BBXX 42039 22181 99288 70860 46/// /1609 10235 40159 56012 91750 22200 00229 10604 20604 70018 333 91211 555 11099 22107 31702 41614 61749 164092 161097 161102 160101 158109 157103 81612 91705
BBXX 41040 22181 99145 70530 46/// /0608 10267 20206 40139 56021 91750 22200 00279 11406 20704 3//// 41405 70032 333 91210 555 11088 22093 31735 40611 61749 060082 060085 059083 062085 061079 063076 80609 91720
BBXX 41010 22181 99289 70785 46/// /1706 10238 40217 58015 91750 22200 00239 10703 20402 300// 40702 70014 333 91207 555 11062 22065
BBXX 42057 22181 99168 70815 46/// /0910 10281 20225 40140 58013 91750 22200 00277 10805 20503 3//// 40803 70025 333 91214 555 11104 22111 31704 40919 61749 086103 087099 089097 098123 096141 084108 81016 91705
BBXX 41009 22181 99285 70802 46/// /1803 10235 20201 40211 58014 91750 22200 00241 11103 20401 300// 41102 70013 333 91204 555 11035 22037
AAXX 22181 78221 41462 30706 10268 20209 30155 40182 57020 70100 83200 333 83815
AAXX 22181 78224 12250 79903 10281 20152 30103 40176 58017 69921 70300 82100 333 82846
AAXX 22181 78229 42560 21001 10194 20169 30126 40201 52010 82201 333 82820
AAXX 22181 78239 31559 40808 10264 20206 30176 40179 52137 70500 84800 333 10277 20232 83820
AAXX 22181 12345 42560 40501 10282 20205 30130 40170 57021 84100 333 84825
AAXX 22181 78243 42559 60805 10266 20195 30058 40181 57021 86210 333 86820
AAXX 22181 78255 42559 50906 10258 20186 30031 40180 57020 84202 333 10269 20187 84820
AAXX 22181 78264 31560 21406 10287 20195 30090 40165 57020 70300 82100 333 10290 20209 82820
AAXX 22181 78265 31560 30807 10286 20173 30065 40165 57030 70544 83200 333 10289 20185 83825
AAXX 22181 78256 11559 32101 10313 20097 30110 40171 57026 60004 70544 83100 333 10319 20210 83825
AAXX 22181 78259 31559 21303 10311 20129 30090 40172 57027 70544 82200 333 10311 20296 82820
AAXX 22181 78268 11560 31208 10280 20234 30163 40182 57018 60001 70112 83200 333 83820
AAXX 22184 91408 32474 80503 10268 20243 30002 40040 57022 8322/ 333 56999 70107 555 92218
BBXX 44007 22181 99435 70701 46/// /2806 10097 20026 40132 51008 91750 22200 00078 10702 20501 3//// 40701 70009 333 91208 555 11070 22079 31746 42708 61749 277062 280046 277038 287047 283058 284036
BBXX 46082 22181 99597 71434 46/// ///// 10055 49793 56030 91750 22200 00065 10810 70051
BBXX 46072 22181 99517 71722 46/// /0212 10012 20003 49952 57008 91750 22200 00048 10605 20604 3//// 41002 70023 333 91214 555 11122 22129 31655 40416 61749 018117 028117 033119 038124 039123 038126 80414 91654
BBXX 46035 22181 99571 71778 46/// /0904 1//// 40028 53006 91750 22200 10904 20401 300// 40904 70018 333 91204 555 11035 22037 31730 41005 61749 086035 091042 094042 094034 096040 106041 80905 91730
BBXX 46077 22181 99579 71543 46/// /3406 10017 21078 49935 56018 91750 22200 00048 11002 20401 3//// 41001 70008 333 91207 555 11059 22061 31729 43107 61749 333055 320058 313055 312054 310052 319025 83106 91731
BBXX 51101 22181 99243 71621 46/// /0707 10228 20181 40196 53013 91750 22200 00238 10905 20602 310// 40904 70025 333 91209 555 11077 22081 31715 40810 61749 068072 061073 068075 072079 069075 067071
BBXX 46061 22181 99602 71468 46/// /3513 10007 49803 56062 91750 22200 00053 10802 20402 300// 40801 70012 333 91217 555 11139 22147 31745 43517 61749 353130 354129 354125 353117 352122 357129
BBXX 46072 22181 99517 71722 46/// /0212 10012 20003 49952 57008 91750 22200 00048 10605 20604 3//// 41002 70023 333 91214 555 11122 22129 31655 40416 61749 018117 028117 033119 038124 039123 038126 80414 91654
BBXX 46026 22181 99378 71228 46/// /1007 10113 40262 52026 91750 22200 00115 11304 20402 329// 41303 70019 333 91210 555 11077 22081 31723 42912 61749 103074 283085 286095 286084 286065 287073
BBXX 46041 22181 99474 71247 46/// /1309 10055 40277 55003 91750 22200 00077 11204 20503 3//// 41202 70018 333 91211 555 11095 22100 31722 41312 61749 128092 126092 123096 125097 120087 119089
AAXX 22184 78862 11478 40616 10273 20181 30142 40165 60001 70511 84800 333 10274 20225 58004 84818
AAXX 22184 815
AAXX 22184 SHRA BKN015 BKN038
AAXX 22184 TAF TKPN 221000Z 2210/2312 07017KT 9999 SCT020 PROB40 TEMPO 2212/2312 07017G27KT SHRA BKN015 BKN038
AAXX 22184 TAF TQPF 221000Z 2210/2312 07017KT 9999 SCT020 PROB40 TEMPO 2212/2312 07017G27KT SHRA BKN015 BKN038
AAXX 22184 TAF TUPJ 221000Z 2210/2312 07017KT 9999 SCT020 PROB40 TEMPO 2212/2312 07017G27KT SHRA BKN015 BKN038
AAXX 22184 EMPO 0600/0624 SHRA BKN015=+TSRA SCT012CB
AAXX 22184 TAF TUPJ 041000Z 04012/0512 07008KT 9999 SCT016 BKN038 SCT270 TEMPO 0412/0512 SHRA BKN015 PROB40 TEMPO 0418/0512 5000 SHRA BKN014 BKN036 PROB30 0420/0512 4000 TSRA FEW012CB
AAXX 22184 918 4000 TSRA FEW012CB
AAXX 22184 N015 BKN036 PROB40 TEMPO 0704/0724 3000 +TSRA SCT011CB BKN012 BECMG 0712/0714 14008KT
AAXX 22184 21/2712 07017G28KT 5000 SHRA BKN015 BKN036 PROB TEMPO 2700/2712 4000 TSRA FEW013CB
AAXX 22184 PROB30 TEMPO 0800/0806 4000 TSRA FEW012CB PROB40 TEMPO 0800/0824 2000 +SHRA/TSRA SCT010CB BKN012 BKN250
AAXX 22184 78897 11570 70617 10273 20201 40157 56024 60021 71586 878// 333 022// 10276 20222 58003 70070 86828 83650
BBXX 51004 22181 99175 71524 46/// /0611 10229 20203 91750 555 11112 22120
BBXX 51002 22181 99171 71578 46/// /0708 10240 40138 51015 91750 22200 00250 333 91210 555 11088 22093 31748 40710 61749 065081 059078 057075 057077 056081 066080
BBXX 51100 22181 99236 71539 46/// /0810 10223 40198 53008 91750 22200 00231 10805 20804 333// 41202 70024 333 91212 555 11108 22114 31745 40812 61749 080100 077096 078099 082093 086095 076085
AAXX 22181 11812 36/// /3602 11013 21033 39525 42818 52009 333 10000
AAXX 22181 11813 12670 79901 10013 21028 39887 40247 52008 60002 875// 333 10048 42001 87640
AAXX 22181 11816 12665 59901 10014 21020 30076 40245 53009 60002 85500 333 10054 85644
AAXX 22181 11819 16/// /0101 11008 21021 30025 40250 52012 60042 333 10036
AAXX 22181 11826 11612 70801 11011 21018 30038 40246 52010 60002 71022 875// 333 10025 47004 87640
AAXX 22181 11841 11415 89901 11020 21028 39857 40249 53011 69902 71074 885// 333 11001 47003 85617 88637
AAXX 22181 11855 12665 73302 10006 21013 30074 40246 53011 60002 875// 333 10027 42001 87643
AAXX 22181 11856 36/// /9902 10004 21018 39915 40244 52014 333 10027
AAXX 22181 11858 12680 29901 11011 21018 30088 40246 52012 60002 82540 333 10032 41998 82640
AAXX 22181 11867 11620 89901 11009 21025 39918 40247 52012 69912 71022 885// 333 10010 43004 88640
AAXX 22181 11880 11420 30000 11047 21054 30069 40250 52013 69902 71000 83600 333 10024 42001 83710
AAXX 22181 11900 16/// /0000 11015 21029 39900 40249 52015 69912 333 10027
AAXX 22181 11903 11637 60000 11045 21045 39848 40248 52014 60002 71022 86500 333 11001 47997 86645
AAXX 22181 11916 11/01 93507 11122 21141 37930 48460 52009 69922 74944 333 11105 48048 89/00 93598
AAXX 22181 11918 11566 82001 11035 21046 39394 42816 51016 69912 72277 885// 333 11011 47008 88620
AAXX 22181 11927 11457 80000 11021 21029 39971 40244 52010 60002 71022 885// 333 11006 42001 83610 88650
AAXX 22181 11930 12988 13305 11144 21161 37297 47958 52007 69912 80002 333 11128 48033 81060 93564 444 86244
AAXX 22181 11933 11/04 90000 11069 21072 38665 48476 53010 69922 77044 333 11052 48041 89/00
AAXX 22181 11934 12460 82901 11023 21043 39385 42811 52010 69902 885// 333 11005 42001 81710 88616
AAXX 22181 11938 11340 80701 11039 21053 39134 42805 52010 69902 71022 885// 333 11011 44016 84706 88630
AAXX 22181 11952 16/// /9901 11029 21036 39377 42812 52011 60002 333 11017
AAXX 22181 11958 36/// /9902 11059 21068 38753 48478 52010 333 11049
AAXX 22181 11968 11335 70000 11016 21027 39947 40239 52008 69902 71077 87500 333 10003 41998 82709 87650
AAXX 22181 11976 11330 80000 11009 21016 39969 40243 52010 69972 77077 885// 333 11001 43002 85708 88620
AAXX 22181 11978 11350 81201 11008 21015 30102 40237 52009 69912 71077 886// 333 10013 41998 88708
AAXX 22181 11993 11661 80000 11012 21012 30018 40243 52009 69912 77072 885// 333 10005 42001 88646
AAXX 22184 78897 11570 70617 10273 20201 40157 56024 60021 71586 878// 333 022// 10276 20222 58003 70070 86828 83650
BBXX A8IM7 22184 99310 11350 41298 83415 10150 20097 40140 702// 8/7// 22225 04180 2//05 3//// 4//// 5//// 80120
AAXX 22181 14528 NIL
AAXX 22181 14537 NIL
AAXX 22181 14544 NIL
AAXX 22181 14557 12960 80000 11001 21009 39867 40248 51012 69902 8807/ 333 46002 86360 88461
AAXX 22181 14640 NIL
AAXX 22184 91348 11474 80707 10273 20234 39998 40051 55003 60011 70282 85101 333 562/9 70074 555 92218
BBXX VCRG 22184 99463 70623 46/// /3516 10032 20030 40061 51026 7//// 8//// 22252 00085 2////
BBXX CGUM 22184 99454 70609 46/// /3226 10055 20054 40020 58002 7//// 8//// 22211 0//// 2////
BBXX CG2350 22184 99433 70798 46/// /2309 10059 20015 40176 50001 7//// 8//// 22200 0//// 2////
AAXX 22184 78982 01480 60719 10288 20234 30115 40120 57020 60001 71511 83278 333 59001 60007 83818 84358 85280
AAXX 22184 78948 11576 30723 10289 20223 30128 40136 69901 70500 83202 333 02205 10299 20261 58000 79999 83824 90930
AAXX 22184 78947 11578 60918 10278 20219 30136 40139 60001 70511 86200 333 02200 10293 20238 58000 70002 86824
AAXX 22181 89061 379// 02405 11004 21021 39861 49867 57010 72477 333 91006 91107
AAXX 22184 78866 02582 40817 10282 20188 30169 40174 57022 60001 84200 333 58005 60007 84824
AAXX 22184 78062 12569 61411 10259 20210 40206 60001 86100 333 59004 86825 90908
AAXX 22184 78016 32664 72412 10214 20134 30275 40279 58014 86508 333 10216 20165 70000
AAXX 22184 78062 12569 61411 10259 20210 40206 60001 86100 333 59004 86825 90908
AAXX 22184 78866 02582 40817 10282 20188 30169 40174 57022 60001 84200 333 58005 60007 84824
AAXX 22184 78016 32664 72412 10214 20134 30275 40279 58014 86508 333 10216 20165 70000
AAXX 22184 78958 11572 60814 10295 20219 30113 40123 60001 70622 82802 333 10304 20238 59002 82823 86044
BBXX CGUM 22184 99454 70609 46/// /3226 10055 20054 40020 58002 7//// 8//// 22211 0//// 2////
BBXX CG2350 22184 99433 70798 46/// /2309 10059 20015 40176 50001 7//// 8//// 22200 0//// 2////
AAXX 22184 78866 02582 40817 10282 20188 30169 40174 57022 60001 84200 333 58005 60007 84824
BBXX VCRG 22184 99463 70623 46/// /3516 10032 20030 40061 51026 7//// 8//// 22252 00085 2////
AAXX 22184 78970 11464 70614 10276 20233 30090 40115 60031 71586 84878 333 02299 10295 20243 58001 82816 83638 87272 90926
AAXX 22184 78962 11460 70811 10241 20227 30121 40129 60251 71586 8687/ 333 02299 10288 20225 58007 83814 85638 87360 90916
AAXX 22181 01492 11X08 90601 11002 21006 39993 40113 53002 60022 77072 333 11001 91104
AAXX 22181 89061 379// 02405 11004 21021 39861 49867 57010 72477 333 91006 91107
AAXX 22181 01281 16/// /0402 11025 21036 39873 40051 57005 60012 333 11025 91103
BBXX VOLG 22184 99446 70636 46/// /3306 10086 20072 40063 51021 7//// 8//// 22200 0//// 2////
BBXX CGJK 22184 99484 71234 46/// /0107 10041 20019 40307 56009 7//// 8//// 22200 0//// 2////
BBXX VAAP 22184 99446 70635 46/// /3109 10085 20073 40049 53020 7//// 8//// 22200 0//// 2////
BBXX CGDR 22184 99492 71239 46/// /1705 10036 20027 40314 56008 7//// 8//// 22261 00101 2////
BBXX CGSB 22184 99500 70640 46/// /2818 11008 21040 40065 56009 7//// 8//// 22223 00028 2////
BBXX VCLM 22184 99468 70712 46/// /2606 10014 21020 40136 51003 7//// 8//// 22200 0//// 2////
BBXX VAAZ 22184 99/// ///// 46/// /2222 10007 20004 40088 56032 7//// 8//// 22200 0//// 2////
BBXX VRYO3 22184 99497 70289 46/// /1117 10068 20077 40215 51031 7//// 8//// 22264 00120 2////
BBXX VOFG 22184 99456 70614 46/// /3120 10049 20047 40036 51017 7//// 8//// 22200 0//// 2////
BBXX C6SI6 22184 99337 11275 46/// /3321 10012 21055 40256 51007 7//// 8//// 22213 0//// 2////
BBXX VOKF 22184 99490 70669 46/// /2417 11007 21032 40086 58002 7//// 8//// 22200 0//// 2////
BBXX CG2958 22184 99519 71279 46/// /0603 10035 20012 40206 56030 7//// 8//// 22282 0//// 2////
BBXX VOPP 22184 99456 70735 46/// /2404 10027 21018 4//// 5//// 7//// 8//// 22200 0//// 2////
BBXX CGDG 22184 99447 70636 46/// /3310 10076 20159 40064 51020 7//// 8//// 22200 0//// 2////
BBXX CGBN 22184 99447 70636 46/// /3110 10082 20068 40065 51022 7//// 8//// 22200 0//// 2////
BBXX CGDX 22184 99490 70669 46/// /2410 11005 21028 40092 58001 7//// 8//// 22200 0//// 2////
BBXX CG2960 22184 99423 70830 46/// /2905 10059 20000 4//// 5//// 7//// 8//// 22200 0//// 2////
BBXX CGDT 22184 99468 70712 46/// /2407 10007 21020 40140 53003 7//// 8//// 22200 0//// 2////
BBXX CGTF 22184 99476 70527 46/// /1312 10044 20035 40046 56082 7//// 8//// 22200 0//// 2////
BBXX CGHL 22184 99476 70527 46/// /2214 10047 20038 40045 56083 7//// 8//// 22200 0//// 2////
BBXX CZ9742 22184 99506 70969 46/// /1902 11059 21105 40243 58005 7//// 8//// 22200 0//// 2////
BBXX VOKJ 22184 99457 70735 46/// /2512 10022 21019 40153 53008 7//// 8//// 22252 0//// 2////
BBXX CGBR 22184 99526 71285 46/// /0103 10048 20046 40194 56040 7//// 8//// 22200 0//// 2////
BBXX 3FZK3 22184 99462 71231 46/// /0509 11007 21008 40295 51027 7//// 8//// 22222 0//// 2////
BBXX CGBY 22184 99487 71235 46/// /3404 10014 20002 40314 56006 7//// 8//// 22200 0//// 2////
AAXX 22184 68386 16/// /2906 10253 20210 39653 48586 52016 69922 333 10371 20253 91014 555 20002 69925 91019
AAXX 22181 11423 NIL
AAXX 22181 11487 01325 82101 10003 20001 39595 40236 52004 69932 76872 885// 333 10015 42997 69925 84609 88616
AAXX 22181 11518 02562 72205 10018 20005 39778 40229 53004 60002 875// 333 10025 41998 60005 86630 87650
AAXX 22181 11603 01459 61302 10008 21006 39733 40229 52009 60002 71022 85530 333 10025 43009 60005 84613 85630
AAXX 22181 11659 01513 31002 11017 21017 39580 40243 52006 60002 71011 83100 333 10012 44007 60005 83824
AAXX 22181 11723 02675 10702 11007 21027 39934 40244 53007 60002 81500 333 10030 41998 60005 81640
AAXX 22181 11782 01640 69902 11013 21019 39925 40243 50009 69902 71022 86500 333 10006 60005 86640
AAXX 22184 78958 11572 60814 10295 20219 30113 40123 60001 70622 82802 333 10304 20238 59002 82823 86044
AAXX 22184 91413 32469 70808 10268 20236 30015 40040 57027 82232 333 56299 555 92218
AAXX 22184 87692 32560 42015 10242 20168 30028 40052 53004 84100 333 56600 84820 555 10052
AAXX 22184 91334 11474 83510 10265 20243 30030 40033 57007 60091 70282 83371 333 56899 70231 555 92218
AAXX 22184 78970 11464 70614 10276 20233 30090 40115 60031 71586 84878 333 02299 10295 20243 58001 82816 83638 87272 90926
AAXX 22184 78962 11460 70811 10241 20227 30121 40129 60251 71586 8687/ 333 02299 10288 20225 58007 83814 85638 87360 90916
BBXX CG2960 22184 99423 70830 46/// /2905 10059 20000 4//// 5//// 7//// 8//// 22200 0//// 2////
BBXX VOKF 22184 99490 70669 46/// /2417 11007 21032 40086 58002 7//// 8//// 22200 0//// 2////
BBXX VAAP 22184 99446 70635 46/// /3109 10085 20073 40049 53020 7//// 8//// 22200 0//// 2////
BBXX CGBY 22184 99487 71235 46/// /3404 10014 20002 40314 56006 7//// 8//// 22200 0//// 2////
BBXX CGDT 22184 99468 70712 46/// /2407 10007 21020 40140 53003 7//// 8//// 22200 0//// 2////
BBXX CG2958 22184 99519 71279 46/// /0603 10035 20012 40206 56030 7//// 8//// 22282 0//// 2////
BBXX CGDG 22184 99447 70636 46/// /3310 10076 20159 40064 51020 7//// 8//// 22200 0//// 2////
BBXX CGTF 22184 99476 70527 46/// /1312 10044 20035 40046 56082 7//// 8//// 22200 0//// 2////
BBXX VOPP 22184 99456 70735 46/// /2404 10027 21018 4//// 5//// 7//// 8//// 22200 0//// 2////
BBXX 3FZK3 22184 99462 71231 46/// /0509 11007 21008 40295 51027 7//// 8//// 22222 0//// 2////
BBXX VCLM 22184 99468 70712 46/// /2606 10014 21020 40136 51003 7//// 8//// 22200 0//// 2////
BBXX VOLG 22184 99446 70636 46/// /3306 10086 20072 40063 51021 7//// 8//// 22200 0//// 2////
BBXX CGBN 22184 99447 70636 46/// /3110 10082 20068 40065 51022 7//// 8//// 22200 0//// 2////
BBXX VOKJ 22184 99457 70735 46/// /2512 10022 21019 40153 53008 7//// 8//// 22252 0//// 2////
BBXX CGHL 22184 99476 70527 46/// /2214 10047 20038 40045 56083 7//// 8//// 22200 0//// 2////
BBXX VOFG 22184 99456 70614 46/// /3120 10049 20047 40036 51017 7//// 8//// 22200 0//// 2////
BBXX VRYO3 22184 99497 70289 46/// /1117 10068 20077 40215 51031 7//// 8//// 22264 00120 2////
BBXX CGBR 22184 99526 71285 46/// /0103 10048 20046 40194 56040 7//// 8//// 22200 0//// 2////
BBXX CGSB 22184 99500 70640 46/// /2818 11008 21040 40065 56009 7//// 8//// 22223 00028 2////
BBXX C6SI6 22184 99337 11275 46/// /3321 10012 21055 40256 51007 7//// 8//// 22213 0//// 2////
BBXX CZ9742 22184 99506 70969 46/// /1902 11059 21105 40243 58005 7//// 8//// 22200 0//// 2////
BBXX CGDX 22184 99490 70669 46/// /2410 11005 21028 40092 58001 7//// 8//// 22200 0//// 2////
BBXX CGJK 22184 99484 71234 46/// /0107 10041 20019 40307 56009 7//// 8//// 22200 0//// 2////
BBXX CGDR 22184 99492 71239 46/// /1705 10036 20027 40314 56008 7//// 8//// 22261 00101 2////
BBXX VAAZ 22184 99/// ///// 46/// /2222 10007 20004 40088 56032 7//// 8//// 22200 0//// 2////
AAXX 22184 91413 32469 70808 10268 20236 30015 40040 57027 82232 333 56299 555 92218
AAXX 22184 91334 11474 83510 10265 20243 30030 40033 57007 60091 70282 83371 333 56899 70231 555 92218
BBXX VXKF 22184 99467 70598 46/// /3124 10042 20037 49997 55004 7//// 8//// 22254 0//// 2////
BBXX CG2965 22184 99487 71235 46/// /3404 10020 20009 40315 56006 7//// 8//// 22200 0//// 2////
BBXX VCBW 22184 99471 70651 46/// /2711 10003 21014 40072 51009 7//// 8//// 22252 00026 2////
BBXX VCSZ 22184 99469 70578 46/// /2917 10046 20048 49995 55004 7//// 8//// 22234 0//// 2////
AAXX 22184 60060 32958 00404 10167 20117 40265 52002 333 10183
AAXX 22184 60105 32558 12406 10141 20124 40276 56003 81500 333 10178 81620
AAXX 22184 60141 32960 00000 10112 20076 39609 40284 51004 333 10180
AAXX 22184 60185 32965 00409 10166 20128 40276 53004 333 10214
AAXX 22184 60190 32970 02402 10173 20056 40254 56002 333 10216
AAXX 22184 60191 32970 00000 10172 20081 40267 56004 333 10212
AAXX 22184 60210 32970 02402 10165 21086 39077 48600 53002 333 10201
AAXX 22184 60220 32958 00210 10164 20123 40261 54000 333 10180
AAXX 22184 60106 NIL
AAXX 22184 60107 NIL
AAXX 22184 60127 NIL
AAXX 22184 60195 NIL
AAXX 22184 60265 NIL
AAXX 22184 60318 NIL
AAXX 22184 81401 06/// /1302 10268 20241 30087 40093 6///1 333 60027 555 60005
AAXX 22184 81408 06/// /0303 10281 20253 30076 40084 60201 333 60017 59007 555 60005
AAXX 22184 65306 4014 80002 333 10341 58005 85076 65319 32958 50000 10290 20111 39596 40106 80002 333 10354 58000 85076
AAXX 22184 65330 333 65335 333 65344 333
AAXX 22184 60096 NIL
AAXX 22184 60101 NIL
AAXX 22184 60115 NIL
AAXX 22184 60135 NIL
AAXX 22184 60150 NIL
AAXX 22184 60155 NIL
AAXX 22184 60156 NIL
AAXX 22184 60230 NIL
AAXX 22184 60252 NIL
AAXX 22184 89642 40/// /1215 11019 21093 39855 49908 50004
AAXX 22184 64500 32460 52208 10275 20239 30088 40101 82502 333 10287 59002 82610 85073
AAXX 22184 60285 32960 03608 10177 20079 40252 56004 333 10222
AAXX 22184 60340 32970 02403 10135 20081 40270 53001 333 10209
AAXX 22184 65338 31956 50000 10305 20209 39909 40094 70522 80002 333 10353 58001 85076
BBXX VXKF 22184 99467 70598 46/// /3124 10042 20037 49997 55004 7//// 8//// 22254 0//// 2////
BBXX VCBW 22184 99471 70651 46/// /2711 10003 21014 40072 51009 7//// 8//// 22252 00026 2////
BBXX VCSZ 22184 99469 70578 46/// /2917 10046 20048 49995 55004 7//// 8//// 22234 0//// 2////
BBXX CG2965 22184 99487 71235 46/// /3404 10020 20009 40315 56006 7//// 8//// 22200 0//// 2////
AAXX 22181 76040 32960 03104 10133 21003 30245 40260 52029 91740 333 10207 20050 30/// 58081 98660
AAXX 22181 76055 32980 03315 10146 20041 30207 40226 53038 91740 333 10212 20073 30/// 58068
AAXX 22181 76113 32980 03001 10128 20067 39719 40190 52010 91745 333 10135 20030 30/// 58041
AAXX 22181 76122 32670 11401 10082 21008 38552 40223 57005 81100 91750 333 10090 21008 30/// 56700 58054 81834
AAXX 22181 76220 31/02 /0000 11017 21017 38164 40313 52008 91750 333 11017 21094 30/// 58066
AAXX 22181 76225 32960 00901 10101 21023 38650 40215 57006 91745 333 10101 21016 30/// 58070
AAXX 22181 76256 32980 00402 10173 20109 30197 40211 52001 91745 333 10179 20076 31/// 58029
AAXX 22181 76305 32970 03303 10198 20090 30186 40194 51002 91740 333 10202 20088 30/// 59027
AAXX 22181 76323 32970 00901 10102 21010 38286 40281 50008 91755 333 10120 21031 30/// 58070
AAXX 22181 76342 32962 00701 10200 20033 39515 40239 52012 91755 333 10203 20076 30/// 58046
AAXX 22181 76373 32965 00000 10071 21111 38208 40155 57014 91750 333 10180 21078 30/// 58046
AAXX 22181 76390 31966 01805 10143 21048 38237 40173 52006 70544 91730 333 10156 20032 30/// 54307 58038
AAXX 22181 76393 31910 11201 10210 20082 39600 40184 52010 70544 81010 91745 333 10222 20106 30/// 56030 58033
AAXX 22181 76402 31962 00205 10204 20095 30132 40191 52006 70544 91745 333 10204 20080 30/// 58018
AAXX 22181 76458 32970 32504 10198 20141 30152 40157 57004 80004 91738 333 10221 20094 30/// 56//3 58004 83072
AAXX 22181 76471 32980 42102 10154 21002 37680 40130 57002 80005 91750 333 10160 20040 30/// 56005 59020 84075
AAXX 22181 76491 32960 33603 10225 20130 39802 40196 52006 80009 91750 333 10230 20106 30/// 56009 58026 83177
AAXX 22181 76499 31560 40000 10230 20125 30149 40171 52013 70122 84230 91750 333 10232 20167 30/// 56590 58028 82820 82357
AAXX 22181 76525 32980 72211 10086 20032 37465 40170 52005 80006 91740 333 10086 20050 30/// 56//5 58018 87080
AAXX 22181 76539 32970 02703 10189 20095 38161 40162 52004 91750 333 10252 20039 30/// 58020
AAXX 22181 76548 31468 70205 10228 20183 30161 40171 51013 70544 8213/ 91750 333 10236 20186 30/// 5611/ 58013 82813 85357
AAXX 22181 76556 32970 70703 10226 20144 39122 40152 51002 80006 91735 333 10235 20115 30/// 56007 58009 87070
AAXX 22181 76577 32970 72304 10175 20133 38051 40177 58003 80004 91740 333 10181 20081 30/// 56005 58016 87081
AAXX 22181 76581 32970 50802 10214 20155 39040 40156 57006 85030 91750 333 10222 20089 30/// 56030 58023 85360
AAXX 22181 76593 32470 51804 10282 20255 30145 40147 58013 83260 91750 333 10307 20210 30/// 5644/ 58003 83824 82330 91006 91518
AAXX 22181 76612 32962 40000 10192 20093 38479 40169 58004 80005 91750 333 10213 20075 30/// 56006 58016 84272
AAXX 22181 76625 32960 63602 10212 20059 38146 40136 57011 83076 91750 333 10215 20093 30/// 56055 58016 83360
AAXX 22181 76634 31670 50201 10226 20036 37854 40153 57006 70522 81105 91750 333 10226 20096 30/// 563/7 58019 81834 84069
AAXX 22181 76644 32460 71404 10294 20216 30141 40154 57003 84200 91750 333 10300 20218 30/// 563// 59002 84810 86610
AAXX 22181 76654 31956 42702 10280 20210 30138 40142 57005 70544 80001 91755 333 10283 20216 30/// 5600/ 58009 84070
AAXX 22181 76658 31956 63202 10284 20161 39629 40134 56012 70542 80002 91748 333 10290 20168 30/// 56001 59001 86070 98924
AAXX 22181 76662 32970 40401 10210 20104 38469 40174 57002 80005 91740 333 10230 20038 30/// 5600/ 58014 84070
AAXX 22181 76665 32962 02402 10228 20068 38127 40178 57002 91750 333 10270 20066 30/// 58013
AAXX 22181 76680 31862 53601 10193 20043 37757 40084 57010 70511 82011 91755 333 10198 20090 30/// 58016 83070
AAXX 22181 76681 31965 03602 10210 20093 37779 40159 57010 70500 91745 333 10210 20050 30/// 58013
AAXX 22181 76683 32968 21601 10202 20097 37831 40204 56014 80005 91745 333 10210 20040 30/// 56005 58011 82080
AAXX 22181 76685 31950 13601 10208 20024 37875 40152 57002 70544 81001 91745 333 10210 20060 30/// 56009 58016 81077
AAXX 22181 76687 31570 20701 10240 20136 38674 40156 56004 70500 81105 91738 333 10243 20116 30/// 563/6 58004 81830 81070
AAXX 22181 76692 31456 31603 10270 20218 30117 40136 58003 70544 8310/ 91745 333 10283 20208 30/// 563// 59007 82817 81640
AAXX 22181 76695 32960 00902 10310 20215 30121 40127 57010 91748 333 10314 20194 30/// 58003 91007 91509
AAXX 22181 76726 32970 02201 10253 20151 38408 40131 52013 91740 333 10253 20134 30/// 58021
AAXX 22181 76737 31480 31802 10261 20173 38765 40125 50004 70320 81104 91735 333 10265 20142 30/// 56209 58001 81813 82080 91111 91523
AAXX 22181 76743 31357 30901 10271 20254 30116 40124 57010 70211 838// 91745 333 10293 20205 30/// 56200 59005 83807
AAXX 22181 76750 32560 20904 10300 20239 30140 40150 57007 82100 91750 333 10310 20232 30/// 56200 58007 82820
AAXX 22181 76762 32904 13201 10274 20220 38763 40164 51008 80005 91730 333 10276 20128 30/// 56001 58023 81070
AAXX 22181 76773 31568 33601 10244 20085 38426 40153 57012 7050/ 81206 91746 333 10252 20090 30/// 56909 58009 81820
AAXX 22181 76775 31965 02201 10265 20097 38521 40161 57009 70000 91745 333 10314 20110 30/// 58001
AAXX 22181 76805 32770 42402 10300 20231 30117 40121 56008 82034 91745 333 10311 20218 30/// 56/6/ 58008 82342 82068
AAXX 22181 76833 32970 01404 10310 20229 30112 40114 57009 91745 333 10310 20186 30/// 58009 92001
AAXX 22181 76840 32950 00000 10334 20236 30059 40115 57009 80000 91740 333 10345 20180 30/// 56000 58012 80000
AAXX 22181 76843 32965 03601 10266 20190 39485 40126 57012 91730 333 10278 20180 30/// 58008
AAXX 22181 76845 32560 30601 10218 20147 37946 40167 56013 83200 91745 333 10234 20048 30/// 56200 58007 83827
AAXX 22181 76848 32770 10501 10252 20112 38381 40098 58006 81100 91755 333 10256 20091 30/// 56100 58010 81850
AAXX 22181 76903 32981 02202 10327 20189 39990 40120 57009 91740 333 10340 20237 30/// 58013
AAXX 22181 76160 32962 00201 10144 20082 39952 40207 52003 91730 333 10144 20050 30/// 58029
AAXX 22181 76311 32980 00000 10182 20069 39895 40183 50002 91740 333 10182 20041 30/// 58024
AAXX 22181 76405 32970 23603 10190 20115 30169 40191 52011 82030 91750 333 10190 20128 30/// 56080 58017 82356
AAXX 22181 76412 32966 02201 10220 20043 30142 40187 52005 91750 333 10230 20078 30/// 58007
AAXX 22181 76640 31258 83201 10228 20113 30161 40173 52020 70222 8442/ 91740 333 10240 20194 30/// 5679/ 58003 84606 84440
AAXX 22181 76855 32580 22301 10318 20233 30057 40106 51006 81208 91745 333 10322 20210 30/// 56909 59006 81820 92000
BBXX VCWL 22184 99456 70735 46/// /2704 10030 21015 40158 53007 7//// 8//// 22200 0//// 2////
BBXX 3FZK3 22184 99462 71231 46/// /0509 11007 21008 40295 51027 7//// 8//// 22222 0//// 2////
BBXX 46002 22181 99426 71305 46/// ///// 10103 40271 53003 91750 22200 00119 11103 70015
BBXX 46005 22181 99461 71310 46/// ///13 10103 40201 55008 91750 22200 00100 10806 20806 3//// 41203 70032 333 91216 555 11136 22146
BBXX 46012 22181 99374 71229 46/// /0508 10124 40260 53023 91750 22200 00118 11305 20602 329// 41304 70024 333 91210 555 11089 22097 31650 40511 61749 046083 049076 046075 045077 051077 048088
BBXX 46013 22181 99382 71233 46/// /1005 10127 40265 51030 91750 22200 00114 11204 20401 3//// 41204 70021 333 91206 555 11052 22059 31721 40908 61749 098047 097056 093065 097056 101055 110053
BBXX 46014 22181 99394 71240 46/// /1004 10095 40272 53026 91750 22200 00105 11304 20401 3//// 41304 70021 333 91205 555 11042 22043 31711 40907 61749 094040 086047 089050 089053 089051 092049
BBXX 46026 22181 99378 71228 46/// /1007 10113 40262 52026 91750 22200 00115 11304 20402 329// 41303 70019 333 91210 555 11077 22081 31723 42912 61749 103074 283085 286095 286084 286065 287073
BBXX CG2958 22184 99519 71279 46/// /0603 10035 20012 40206 56030 7//// 8//// 22282 0//// 2////
BBXX CG2965 22184 99487 71235 46/// /3404 10020 20009 40315 56006 7//// 8//// 22200 0//// 2////
BBXX CGBR 22184 99526 71285 46/// /0103 10048 20046 40194 56040 7//// 8//// 22200 0//// 2////
BBXX CGBY 22184 99487 71235 46/// /3404 10014 20002 40314 56006 7//// 8//// 22200 0//// 2////
BBXX CGDR 22184 99492 71239 46/// /1705 10036 20027 40314 56008 7//// 8//// 22261 00101 2////
BBXX CGJK 22184 99484 71234 46/// /0107 10041 20019 40307 56009 7//// 8//// 22200 0//// 2////
AAXX 22184 91503 31470 20000 10239 20239 40042 55004 70500 81202 333 56000 81815
AAXX 22184 91517 31475 12006 10244 20236 40054 57002 70500 81100 333 56000 81815
AAXX 22184 91503 31470 20000 10239 20239 40042 55004 70500 81202 333 56000 81815
AAXX 22184 91517 31475 12006 10244 20236 40054 57002 70500 81100 333 56000 81815
AAXX 22184 97180 32457 60703 10253 20253 30025 40043 58029 82232 333 56000 82819 83360
AAXX 22184 78615 31482 30904 10290 20215 30010 40149 58016 70341 83200 333 10300 20194 30/// 56200 57824 58008 83818
AAXX 22184 78627 31982 00000 10246 20023 38160 58009 70240 333 10248 20035 30/// 54505 54406 54305 58008
AAXX 22184 78637 32582 23606 10278 20246 30125 40141 58009 82200 333 10282 20200 30/// 56200 57844 58005 82820
AAXX 22184 78641 31582 23608 10240 20127 38556 40141 50006 70341 82100 333 10240 20142 30/// 56800 57847 58012 82820
AAXX 22184 78647 31982 02106 10328 20214 30122 40129 58018 70241 333 10340 20210 30/// 58007
AAXX 22181 76040 32960 03104 10133 21003 30245 40260 52029 91740 33310207 20050 30/// 58081 98660
AAXX 22181 76055 32980 03315 10146 20041 30207 40226 53038 91740 33310212 20073 30/// 58068
AAXX 22181 76113 32980 03001 10128 20067 39719 40190 52010 91745 33310135 20030 30/// 58041
AAXX 22181 76122 32670 11401 10082 21008 38552 40223 57005 81100 91750333 10090 21008 30/// 56700 58054 81834
AAXX 22181 76220 31/02 /0000 11017 21017 38164 40313 52008 91750 33311017 21094 30/// 58066
AAXX 22181 76225 32960 00901 10101 21023 38650 40215 57006 91745 33310101 21016 30/// 58070
AAXX 22181 76256 32980 00402 10173 20109 30197 40211 52001 91745 33310179 20076 31/// 58029
AAXX 22181 76305 32970 03303 10198 20090 30186 40194 51002 91740 33310202 20088 30/// 59027
AAXX 22181 76323 32970 00901 10102 21010 38286 40281 50008 91755 33310120 21031 30/// 58070
AAXX 22181 76342 32962 00701 10200 20033 39515 40239 52012 91755 33310203 20076 30/// 58046
AAXX 22181 76373 32965 00000 10071 21111 38208 40155 57014 91750 33310180 21078 30/// 58046
AAXX 22181 76390 31966 01805 10143 21048 38237 40173 52006 70544 91730333 10156 20032 30/// 54307 58038
AAXX 22181 76393 31910 11201 10210 20082 39600 40184 52010 70544 8101091745 333 10222 20106 30/// 56030 58033
AAXX 22181 76402 31962 00205 10204 20095 30132 40191 52006 70544 91745333 10204 20080 30/// 58018
AAXX 22181 76458 32970 32504 10198 20141 30152 40157 57004 80004 91738333 10221 20094 30/// 56//3 58004 83072
AAXX 22181 76471 32980 42102 10154 21002 37680 40130 57002 80005 91750333 10160 20040 30/// 56005 59020 84075
AAXX 22181 76491 32960 33603 10225 20130 39802 40196 52006 80009 91750333 10230 20106 30/// 56009 58026 83177
AAXX 22181 76499 31560 40000 10230 20125 30149 40171 52013 70122 8423091750 333 10232 20167 30/// 56590 58028 82820 82357
AAXX 22181 76525 32980 72211 10086 20032 37465 40170 52005 80006 91740333 10086 20050 30/// 56//5 58018 87080
AAXX 22181 76539 32970 02703 10189 20095 38161 40162 52004 91750 33310252 20039 30/// 58020
AAXX 22181 76548 31468 70205 10228 20183 30161 40171 51013 70544 8213/91750 333 10236 20186 30/// 5611/ 58013 82813 85357
AAXX 22181 76556 32970 70703 10226 20144 39122 40152 51002 80006 91735333 10235 20115 30/// 56007 58009 87070
AAXX 22181 76577 32970 72304 10175 20133 38051 40177 58003 80004 91740333 10181 20081 30/// 56005 58016 87081
AAXX 22181 76581 32970 50802 10214 20155 39040 40156 57006 85030 91750333 10222 20089 30/// 56030 58023 85360
AAXX 22181 76593 32470 51804 10282 20255 30145 40147 58013 83260 91750333 10307 20210 30/// 5644/ 58003 83824 82330 91006 91518
AAXX 22181 76612 32962 40000 10192 20093 38479 40169 58004 80005 91750333 10213 20075 30/// 56006 58016 84272
AAXX 22181 76625 32960 63602 10212 20059 38146 40136 57011 83076 91750333 10215 20093 30/// 56055 58016 83360
AAXX 22181 76634 31670 50201 10226 20036 37854 40153 57006 70522 8110591750 333 10226 20096 30/// 563/7 58019 81834 84069
AAXX 22181 76644 32460 71404 10294 20216 30141 40154 57003 84200 91750333 10300 20218 30/// 563// 59002 84810 86610
AAXX 22181 76654 31956 42702 10280 20210 30138 40142 57005 70544 8000191755 333 10283 20216 30/// 5600/ 58009 84070
AAXX 22181 76658 31956 63202 10284 20161 39629 40134 56012 70542 8000291748 333 10290 20168 30/// 56001 59001 86070 98924
AAXX 22181 76662 32970 40401 10210 20104 38469 40174 57002 80005 91740333 10230 20038 30/// 5600/ 58014 84070
AAXX 22181 76665 32962 02402 10228 20068 38127 40178 57002 91750 33310270 20066 30/// 58013
AAXX 22181 76680 31862 53601 10193 20043 37757 40084 57010 70511 8201191755 333 10198 20090 30/// 58016 83070
AAXX 22181 76681 31965 03602 10210 20093 37779 40159 57010 70500 91745333 10210 20050 30/// 58013
AAXX 22181 76683 32968 21601 10202 20097 37831 40204 56014 80005 91745333 10210 20040 30/// 56005 58011 82080
AAXX 22181 76685 31950 13601 10208 20024 37875 40152 57002 70544 8100191745 333 10210 20060 30/// 56009 58016 81077
AAXX 22181 76687 31570 20701 10240 20136 38674 40156 56004 70500 8110591738 333 10243 20116 30/// 563/6 58004 81830 81070
AAXX 22181 76692 31456 31603 10270 20218 30117 40136 58003 70544 8310/91745 333 10283 20208 30/// 563// 59007 82817 81640
AAXX 22181 76695 32960 00902 10310 20215 30121 40127 57010 91748 33310314 20194 30/// 58003 91007 91509
AAXX 22181 76726 32970 02201 10253 20151 38408 40131 52013 91740 33310253 20134 30/// 58021
AAXX 22181 76737 31480 31802 10261 20173 38765 40125 50004 70320 8110491735 333 10265 20142 30/// 56209 58001 81813 82080 9111191523
AAXX 22181 76743 31357 30901 10271 20254 30116 40124 57010 70211 838//91745 333 10293 20205 30/// 56200 59005 83807
AAXX 22181 76750 32560 20904 10300 20239 30140 40150 57007 82100 91750333 10310 20232 30/// 56200 58007 82820
AAXX 22181 76762 32904 13201 10274 20220 38763 40164 51008 80005 91730333 10276 20128 30/// 56001 58023 81070
AAXX 22181 76773 31568 33601 10244 20085 38426 40153 57012 7050/ 8120691746 333 10252 20090 30/// 56909 58009 81820
AAXX 22181 76775 31965 02201 10265 20097 38521 40161 57009 70000 91745333 10314 20110 30/// 58001
AAXX 22181 76805 32770 42402 10300 20231 30117 40121 56008 82034 91745333 10311 20218 30/// 56/6/ 58008 82342 82068
AAXX 22181 76833 32970 01404 10310 20229 30112 40114 57009 91745 33310310 20186 30/// 58009 92001
AAXX 22181 76840 32950 00000 10334 20236 30059 40115 57009 80000 91740333 10345 20180 30/// 56000 58012 80000
AAXX 22181 76843 32965 03601 10266 20190 39485 40126 57012 91730 33310278 20180 30/// 58008
AAXX 22181 76845 32560 30601 10218 20147 37946 40167 56013 83200 91745333 10234 20048 30/// 56200 58007 83827
AAXX 22181 76848 32770 10501 10252 20112 38381 40098 58006 81100 91755333 10256 20091 30/// 56100 58010 81850
AAXX 22181 76903 32981 02202 10327 20189 39990 40120 57009 91740 33310340 20237 30/// 58013
AAXX 22181 76160 32962 00201 10144 20082 39952 40207 52003 91730 33310144 20050 30/// 58029
AAXX 22181 76311 32980 00000 10182 20069 39895 40183 50002 91740 33310182 20041 30/// 58024
AAXX 22181 76405 32970 23603 10190 20115 30169 40191 52011 82030 91750333 10190 20128 30/// 56080 58017 82356
AAXX 22181 76412 32966 02201 10220 20043 30142 40187 52005 91750 33310230 20078 30/// 58007
AAXX 22181 76640 31258 83201 10228 20113 30161 40173 52020 70222 8442/91740 333 10240 20194 30/// 5679/ 58003 84606 84440
AAXX 22181 76855 32580 22301 10318 20233 30057 40106 51006 81208 91745333 10322 20210 30/// 56909 59006 81820 92000
AAXX 22181 76040 32960 03104 10133 21003 30245 40260 52029 91740 333 10207 20050 30/// 58081 98660
AAXX 22181 76055 32980 03315 10146 20041 30207 40226 53038 91740 333 10212 20073 30/// 58068
AAXX 22181 76113 32980 03001 10128 20067 39719 40190 52010 91745 333 10135 20030 30/// 58041
AAXX 22181 76122 32670 11401 10082 21008 38552 40223 57005 81100 91750 333 10090 21008 30/// 56700 58054 81834
AAXX 22181 76220 31/02 /0000 11017 21017 38164 40313 52008 91750 333 11017 21094 30/// 58066
AAXX 22181 76225 32960 00901 10101 21023 38650 40215 57006 91745 333 10101 21016 30/// 58070
AAXX 22181 76256 32980 00402 10173 20109 30197 40211 52001 91745 333 10179 20076 31/// 58029
AAXX 22181 76305 32970 03303 10198 20090 30186 40194 51002 91740 333 10202 20088 30/// 59027
AAXX 22181 76323 32970 00901 10102 21010 38286 40281 50008 91755 333 10120 21031 30/// 58070
AAXX 22181 76342 32962 00701 10200 20033 39515 40239 52012 91755 333 10203 20076 30/// 58046
AAXX 22181 76373 32965 00000 10071 21111 38208 40155 57014 91750 333 10180 21078 30/// 58046
AAXX 22181 76390 31966 01805 10143 21048 38237 40173 52006 70544 91730 333 10156 20032 30/// 54307 58038
AAXX 22181 76393 31910 11201 10210 20082 39600 40184 52010 70544 81010 91745 333 10222 20106 30/// 56030 58033
AAXX 22181 76402 31962 00205 10204 20095 30132 40191 52006 70544 91745 333 10204 20080 30/// 58018
AAXX 22181 76458 32970 32504 10198 20141 30152 40157 57004 80004 91738 333 10221 20094 30/// 56//3 58004 83072
AAXX 22181 76471 32980 42102 10154 21002 37680 40130 57002 80005 91750 333 10160 20040 30/// 56005 59020 84075
AAXX 22181 76491 32960 33603 10225 20130 39802 40196 52006 80009 91750 333 10230 20106 30/// 56009 58026 83177
AAXX 22181 76499 31560 40000 10230 20125 30149 40171 52013 70122 84230 91750 333 10232 20167 30/// 56590 58028 82820 82357
AAXX 22181 76525 32980 72211 10086 20032 37465 40170 52005 80006 91740 333 10086 20050 30/// 56//5 58018 87080
AAXX 22181 76539 32970 02703 10189 20095 38161 40162 52004 91750 333 10252 20039 30/// 58020
AAXX 22181 76548 31468 70205 10228 20183 30161 40171 51013 70544 8213/ 91750 333 10236 20186 30/// 5611/ 58013 82813 85357
AAXX 22181 76556 32970 70703 10226 20144 39122 40152 51002 80006 91735 333 10235 20115 30/// 56007 58009 87070
AAXX 22181 76577 32970 72304 10175 20133 38051 40177 58003 80004 91740 333 10181 20081 30/// 56005 58016 87081
AAXX 22181 76581 32970 50802 10214 20155 39040 40156 57006 85030 91750 333 10222 20089 30/// 56030 58023 85360
AAXX 22181 76593 32470 51804 10282 20255 30145 40147 58013 83260 91750 333 10307 20210 30/// 5644/ 58003 83824 82330 91006 91518
AAXX 22181 76612 32962 40000 10192 20093 38479 40169 58004 80005 91750 333 10213 20075 30/// 56006 58016 84272
AAXX 22181 76625 32960 63602 10212 20059 38146 40136 57011 83076 91750 333 10215 20093 30/// 56055 58016 83360
AAXX 22181 76634 31670 50201 10226 20036 37854 40153 57006 70522 81105 91750 333 10226 20096 30/// 563/7 58019 81834 84069
AAXX 22181 76644 32460 71404 10294 20216 30141 40154 57003 84200 91750 333 10300 20218 30/// 563// 59002 84810 86610
AAXX 22181 76654 31956 42702 10280 20210 30138 40142 57005 70544 80001 91755 333 10283 20216 30/// 5600/ 58009 84070
AAXX 22181 76658 31956 63202 10284 20161 39629 40134 56012 70542 80002 91748 333 10290 20168 30/// 56001 59001 86070 98924
AAXX 22181 76662 32970 40401 10210 20104 38469 40174 57002 80005 91740 333 10230 20038 30/// 5600/ 58014 84070
AAXX 22181 76665 32962 02402 10228 20068 38127 40178 57002 91750 333 10270 20066 30/// 58013
AAXX 22181 76680 31862 53601 10193 20043 37757 40084 57010 70511 82011 91755 333 10198 20090 30/// 58016 83070
AAXX 22181 76681 31965 03602 10210 20093 37779 40159 57010 70500 91745 333 10210 20050 30/// 58013
AAXX 22181 76683 32968 21601 10202 20097 37831 40204 56014 80005 91745 333 10210 20040 30/// 56005 58011 82080
AAXX 22181 76685 31950 13601 10208 20024 37875 40152 57002 70544 81001 91745 333 10210 20060 30/// 56009 58016 81077
AAXX 22181 76687 31570 20701 10240 20136 38674 40156 56004 70500 81105 91738 333 10243 20116 30/// 563/6 58004 81830 81070
AAXX 22181 76692 31456 31603 10270 20218 30117 40136 58003 70544 8310/ 91745 333 10283 20208 30/// 563// 59007 82817 81640
AAXX 22181 76695 32960 00902 10310 20215 30121 40127 57010 91748 333 10314 20194 30/// 58003 91007 91509
AAXX 22181 76726 32970 02201 10253 20151 38408 40131 52013 91740 333 10253 20134 30/// 58021
AAXX 22181 76737 31480 31802 10261 20173 38765 40125 50004 70320 81104 91735 333 10265 20142 30/// 56209 58001 81813 82080 91111 91523
AAXX 22181 76743 31357 30901 10271 20254 30116 40124 57010 70211 838// 91745 333 10293 20205 30/// 56200 59005 83807
AAXX 22181 76750 32560 20904 10300 20239 30140 40150 57007 82100 91750 333 10310 20232 30/// 56200 58007 82820
AAXX 22181 76762 32904 13201 10274 20220 38763 40164 51008 80005 91730 333 10276 20128 30/// 56001 58023 81070
AAXX 22181 76773 31568 33601 10244 20085 38426 40153 57012 7050/ 81206 91746 333 10252 20090 30/// 56909 58009 81820
AAXX 22181 76775 31965 02201 10265 20097 38521 40161 57009 70000 91745 333 10314 20110 30/// 58001
AAXX 22181 76805 32770 42402 10300 20231 30117 40121 56008 82034 91745 333 10311 20218 30/// 56/6/ 58008 82342 82068
AAXX 22181 76833 32970 01404 10310 20229 30112 40114 57009 91745 333 10310 20186 30/// 58009 92001
AAXX 22181 76840 32950 00000 10334 20236 30059 40115 57009 80000 91740 333 10345 20180 30/// 56000 58012 80000
AAXX 22181 76843 32965 03601 10266 20190 39485 40126 57012 91730 333 10278 20180 30/// 58008
AAXX 22181 76845 32560 30601 10218 20147 37946 40167 56013 83200 91745 333 10234 20048 30/// 56200 58007 83827
AAXX 22181 76848 32770 10501 10252 20112 38381 40098 58006 81100 91755 333 10256 20091 30/// 56100 58010 81850
AAXX 22181 76903 32981 02202 10327 20189 39990 40120 57009 91740 333 10340 20237 30/// 58013
AAXX 22181 76160 32962 00201 10144 20082 39952 40207 52003 91730 333 10144 20050 30/// 58029
AAXX 22181 76311 32980 00000 10182 20069 39895 40183 50002 91740 333 10182 20041 30/// 58024
AAXX 22181 76405 32970 23603 10190 20115 30169 40191 52011 82030 91750 333 10190 20128 30/// 56080 58017 82356
AAXX 22181 76412 32966 02201 10220 20043 30142 40187 52005 91750 333 10230 20078 30/// 58007
AAXX 22181 76640 31258 83201 10228 20113 30161 40173 52020 70222 8442/ 91740 333 10240 20194 30/// 5679/ 58003 84606 84440
AAXX 22181 76855 32580 22301 10318 20233 30057 40106 51006 81208 91745 333 10322 20210 30/// 56909 59006 81820 92000
BBXX VCWL 22184 99456 70735 46/// /2704 10030 21015 40158 53007 7//// 8//// 22200 0//// 2////
AAXX 22184 78615 31482 30904 10290 20215 30010 40149 58016 70341 83200 333 10300 20194 30/// 56200 57824 58008 83818
AAXX 22184 78627 31982 00000 10246 20023 38160 58009 70240 333 10248 20035 30/// 54505 54406 54305 58008
AAXX 22184 78637 32582 23606 10278 20246 30125 40141 58009 82200 333 10282 20200 30/// 56200 57844 58005 82820
AAXX 22184 78641 31582 23608 10240 20127 38556 40141 50006 70341 82100 333 10240 20142 30/// 56800 57847 58012 82820
AAXX 22184 78647 31982 02106 10328 20214 30122 40129 58018 70241 333 10340 20210 30/// 58007
AAXX 22184 17600 11460 71109 10145 20116 30118 40128 56005 60062 72586 8588/ 333 10189 20122 83617 83822
AAXX 22184 17601 11681 23603 10115 20103 30103 40135 55001 60012 71386 81803 91750 333 10181 81830
AAXX 22184 17607 NIL
AAXX 22184 17609 11570 43303 10126 20117 30134 40138 52001 69992 70181 83880 333 10184 20115 81825 83650
AAXX 22184 48698 01464 70103 10250 20244 30058 40076 69901 71062 81148 333 60007 81816 87365
AAXX 22184 16008 11215 83606 11010 21029 38553 48511 52010 69962 77177 887// 333 11010 43020 88705 92810 93197
AAXX 22184 16084 12960 12501 11018 21021 30055 40231 53006 60002 81040 333 10050 81360
AAXX 22184 16088 12960 02501 10008 20004 30108 40231 53006 60002 333 10061
AAXX 22184 16110 12898 50514 10070 21024 30215 40220 53006 60002 85030 333 10112 85357 555 0////
AAXX 22184 16134 12984 03129 11032 21079 37816 48505 53002 60002 333 11018 44004 92845
AAXX 22184 16153 12999 02704 10100 20069 39951 40218 52005 60002 333 10137 555 0////
AAXX 22184 16158 12965 02902 10050 21021 30209 40217 51005 60002 333 10112
AAXX 22184 16206 12980 03608 10046 21021 30202 40211 52007 60002 333 10114
AAXX 22184 16219 NIL
AAXX 22184 16252 11450 63220 10010 21044 39206 42768 52011 60042 71011 86500 333 10020 47006 86610
AAXX 22184 16280 12998 03519 10102 20018 39934 40157 52003 60002 333 10114 555 0////
AAXX 22184 16310 12998 03610 10074 21063 39898 40123 53018 60002 333 10108 55300 555 0////
AAXX 22184 16320 12560 50226 10102 20016 30084 40096 53015 60002 85100 333 10112 85830 555 0////
AAXX 22184 16325 12597 63315 10094 20003 30087 40101 53017 60002 86500 333 10104 86622 98068 555 0////
AAXX 22184 16360 12597 20127 10078 21028 39919 40055 52013 60002 82500 333 10100 82620 91050 91158 555 0////
AAXX 22184 16400 12498 30711 10102 21050 39871 40163 51008 60002 83100 333 10132 55300 83817 555 0651/
AAXX 22184 16420 11497 73207 10088 20034 30048 40114 53017 60052 72798 87800 333 10126 83815 84620 90101 90915 91019 96495 555 0////
AAXX 22184 16429 12564 33616 10124 21012 30152 40163 53007 69922 83200 333 10144 83825
AAXX 22184 16470 12560 13418 10126 20051 39930 40167 52012 60002 81100 333 10134 55300 22/// 81830 95000
AAXX 22184 16480 12497 33409 10070 20025 30050 40113 52019 60002 83200 333 10116 83815 555 0////
AAXX 22184 16522 12998 00606 10112 20088 39962 40208 52012 60002 333 10140 555 0////
AAXX 22184 16539 12998 10000 10108 20099 30090 40205 53011 60002 80001 333 10140 555 0////
AAXX 22184 16550 12998 03310 10122 20034 30006 40187 53015 60002 333 10134 555 0////
AAXX 22184 16021 NIL
AAXX 22184 16022 12986 03619 11020 21030 37850 48493 53006 60002 333 11008 48016 92835
AAXX 22184 16033 11220 83004 10006 20003 38809 48511 53007 69942 77072 885// 333 10008 47020 88605 92802 93197
AAXX 22184 16040 12965 40000 11004 21018 39291 42813 53004 60002 84030 333 10006 42998 84359 92832
AAXX 22184 16052 11/01 90536 11094 21114 36650 47090 52009 69982 77174 333 11092 49999 89/01 93199 96045
AAXX 22184 16061 12981 00000 10044 21018 39373 42817 51008 60002 333 10052
AAXX 22184 16098 12965 00302 10022 21014 30173 40226 53011 60002 333 10102
AAXX 22184 16138 11959 00000 10024 21021 30216 40227 53006 60002 71011 333 10086
AAXX 22184 16148 12961 20000 10031 20013 30212 40225 54002 60002 80002 333 10079
AAXX 22184 16168 NIL
AAXX 22184 16172 12965 00000 10030 21029 39918 40227 53006 60002 333 10094
AAXX 22184 16179 12981 22404 10020 21021 39520 42805 53002 60002 82030 333 10038 42004 82359 92851
AAXX 22184 16224 12970 03520 10072 21023 39862 40185 51002 60002 333 10096
AAXX 22184 16232 12598 23136 10108 20016 30108 40162 51010 60002 82100 333 10108 82825 555 0////
AAXX 22184 16245 12965 03310 10076 21024 30156 40183 52009 60002 333 10118
AAXX 22184 16253 12670 23610 10070 21027 30155 40167 52014 60002 82200 333 10106 82635
AAXX 22184 16258 12568 43523 10004 21060 39119 42733 52006 60002 84500 333 10018 44004 84620
AAXX 22184 16263 12270 53324 11004 21036 38867 48429 53008 60002 85500 333 10004 47002 85605 92802
AAXX 22184 16294 12998 00708 10086 20006 39962 40157 52014 60002 333 10092 555 0////
AAXX 22184 16337 12598 20220 10048 21047 39541 40121 52017 60002 82100 333 10072 82821 555 0////
AAXX 22184 16344 11260 60715 11048 21048 38207 48401 53005 60002 70242 86500 333 11042 47042 86604 95000 95100
AAXX 22184 16434 11570 40317 10020 21045 38931 48432 52015 69962 70272 84200 333 10032 84821 95000 95100
AAXX 22184 16450 11360 42909 10026 21010 39007 48468 53007 60002 72274 84700 333 10046 84707
AAXX 22184 16459 11560 52810 10078 20027 30095 40131 53013 60022 76062 84870 333 10130 82620 83825 85357
AAXX 22184 16546 12468 10502 10088 20066 30175 40204 52014 60002 81600 333 10154 81710
AAXX 22184 16564 12998 00406 10122 20069 30059 40201 53013 60002 333 10174 555 0////
AAXX 22181 06407 12563 72505 10093 20075 30248 40254 53003 60002 875// 333 10106 87622 91110 91207
AAXX 22181 06447 NIL
AAXX 22184 16045 NIL
AAXX 22184 16090 12965 12401 10012 20009 30140 40226 54001 60002 81050 333 10096 81362
AAXX 22184 16149 12965 12103 10014 20002 30207 40224 52004 60002 80001 333 10077
AAXX 22184 16261 12560 32914 10080 20003 30079 40152 52017 69902 83200 333 10100 55300 83830
AAXX 22184 16453 11597 30302 10094 20036 30065 40144 52022 69902 70161 81130 333 10136 55300 81821 83358 555 0////
AAXX 22184 16560 12980 00101 10112 20048 30198 40204 53014 60002 333 10160
AAXX 22181 06431 NIL
AAXX 22181 06432 NIL
AAXX 22181 06449 11132 82505 10087 20081 30032 40262 53007 69932 75152 875// 333 10101 85603 86622 91109 91205
AAXX 22181 06450 12460 72603 10102 20079 30235 40251 52009 69902 866// 333 10109 86712 91108 91205
AAXX 22181 06458 NIL
AAXX 22181 06465 NIL
AAXX 22181 06478 11230 82605 10084 20075 30031 40253 52010 60012 71022 866// 333 10093 83704 85705 91108 91205
AAXX 22181 06496 NIL
AAXX 22181 06400 32562 72404 10092 20084 30245 40256 53004 875// 333 10122 87626 91111 91209
AAXX 22181 06428 NIL
AAXX 22181 06451 12465 62603 10099 20080 30188 40255 53009 69912 8653/ 333 10108 83616 85622 91108 91206
AAXX 22181 06456 11245 82605 10083 20079 39896 40266 53011 69912 75152 877// 333 10098 85703 87705 91108 91206
AAXX 22181 06476 17008 82805 10065 20061 39591 40260 52007 60022 73264 333 10068 88/00 91110 91206
AAXX 22181 06479 11221 82603 10092 20088 30169 40249 52011 60012 71022 886// 333 10099 83704 87707 91108 91205
AAXX 22181 06490 17/01 92704 10068 20063 39679 40254 52009 60052 76175 333 10073 91110 91205
AAXX 22181 06590 12365 72804 10085 20073 39796 40251 52013 69912 875// 333 10092 81708 86620 91111 91207
AAXX 22184 13600 12962 00410 10080 21062 30054 40107 52017 60002 333 10095
AAXX 22184 13610 NIL
AAXX 22184 13611 NIL
AAXX 22184 13619 NIL
AAXX 22184 13622 12662 53308 10070 21010 30048 40055 52020 60062 85500 333 10080 85636
AAXX 22184 13624 NIL
AAXX 22184 13625 NIL
AAXX 22184 13629 NIL
AAXX 22184 13601 NIL
AAXX 22184 13602 NIL
AAXX 22184 13623 NIL
AAXX 22184 65201 31458 72407 10285 20242 30065 40118 70522 82208 333 10351 56500 57832 58000 82812 86280 91114
BBXX DBLK 22181 99705 50081 41498 62205 11015 21045 49841 52007 70222 81538 22200 05014 ICE 18780
AAXX 22184 48698 01464 70103 10250 20244 30058 40076 69901 71062 81148 333 60007 81816 87365
BBXX A8SI8 22184 99367 10130 43498 53325 10130 2008/ 40215 51040 22275 00190 80080
AAXX 22184 71805 01105 82216 10061 20061 39981 49990 56032 60162 74465 886// 333 10072 20031 69947 88701 90710 91126 93100 555 69905
AAXX 22184 61968 16/// /0000 10270 20235 40134 60002 333 10315 58014 90710 91102 555 60005
AAXX 22184 61972 16/// /0402 10266 20202 40114 60002 333 10299 58011 90710 91105 555 60005
AAXX 22184 61980 12560 21111 10250 20219 40175 60002 82800 333 10288 58019 82820 90710 91115 924/7 555 60005
AAXX 22184 67005 14/// /2904 10275 20239 40137 60002 700// 333 10316 58014 90710 91106 555 60005
BBXX CGCC 22184 99463 70726 46/// /2402 10002 21012 40152 53008 7//// 8//// 22200 0//// 2////
AAXX 22181 01218 16/// /2101 10017 20005 30018 40040 58012 69922 333 10063 91103
AAXX 22181 01447 16/// /2801 11035 21040 39440 40127 50005 69922 333 11029 91103
BBXX CGCC 22184 99463 70726 46/// /2402 10002 21012 40152 53008 7//// 8//// 22200 0//// 2////
AAXX 22181 45007 12550 40407 10147 20059 30196 40205 54000 60001 84500 333 58014 81625 83630
AAXX 22184 85041 11458 70000 10245 20238 39814 40076 57021 60111 76186 85970 333 56000 58003 81610 84820 82923 85357
AAXX 22184 85140 32470 73406 10305 20258 39878 40085 57022 85506 333 56700 59024 85615 87270
AAXX 22184 85141 31458 73304 10290 20256 39847 40076 57023 71522 86304 333 56707 59015 86615 81920 87070
AAXX 22184 85151 NIL
AAXX 22184 85152 32470 63010 10302 20242 39848 40077 57020 84230 333 56770 59017 84817 85357
AAXX 22184 85201 31465 73208 10124 20056 36288 55007 71522 85933 333 56200 59006 83817 82920 87070
AAXX 22184 85230 NIL
AAXX 22184 85242 31484 72406 10152 20068 36535 57018 72922 84320 333 56000 59014 83817 81920 87457
AAXX 22181 45007 12550 40407 10147 20059 30196 40205 54000 60001 84500 333 58014 81625 83630
AAXX 22181 45032 36/// /3504 10126 20041 30194 40211 57001
AAXX 22181 45035 36/// /0605 10134 20059 30167 40210 57001
AAXX 22181 45039 36/// /0404 10139 20064 30190 40206 54000
AAXX 22181 45044 36/// /0106 10141 20078 30103 40198 57001
AAXX 22181 45032 36/// /3504 10126 20041 30194 40211 57001
AAXX 22181 45035 36/// /0605 10134 20059 30167 40210 57001
AAXX 22181 45039 36/// /0404 10139 20064 30190 40206 54000
AAXX 22181 45044 36/// /0106 10141 20078 30103 40198 57001
AAXX 22181 06201 45763 82406 10091 20083 30146 40199 51004 8//// 333 10098 88/50 91007 91111 91210
AAXX 22181 06203 45562 8//07 10101 20089 30182 40233 52008 8//// 333 10108 86/30 88/34 91008 91110 91208
AAXX 22181 06204 45562 82709 10103 20085 30168 40219 53008 8//// 333 10117 85/23 85/33 88/50 91009 91111 91209
AAXX 22181 06205 47258 82409 10088 20080 30113 40173 51002 71000 8//// 333 10095 81/06 88/50 91010 91111 91210
AAXX 22181 06208 47459 82806 10082 20075 30157 40207 51013 71010 8//// 333 10091 81/11 84/19 88/22 91007 91110 91208
AAXX 22181 06211 45960 02507 10092 20079 30151 40207 51006 333 10101 91008 91112 91210
AAXX 22181 06212 45561 82608 1//// 2//// 30156 40220 51008 8//// 333 1//// 81/20 88/28 91009 91110 91209
AAXX 22181 06235 17559 82605 10089 20082 30220 40220 53009 69932 71010 8//// 333 10098 88/26 91006 91109 91207
AAXX 22181 06240 15462 82605 10093 20086 30234 40229 51007 69952 8//// 333 10104 88/12 91007 91110 91207
AAXX 22181 06251 15762 82805 10089 20084 30206 40207 52007 69922 8//// 333 10096 88/50 91007 91110 91207
AAXX 22181 06258 46/// /2507 333 91008 91110 91208
AAXX 22181 06269 17258 82605 10091 20090 30230 40224 51010 69972 71010 8//// 333 10097 83/06 87/09 88/11 91007 91109 91206
AAXX 22181 06280 17122 82603 10088 20086 30206 40210 52012 60012 72381 8//// 333 10099 86/03 88/04 91004 91107 91205
AAXX 22181 06310 15460 82607 10085 20080 30235 40245 53005 60002 8//// 333 10095 84/19 88/22 91008 91111 91209
AAXX 22181 06344 15563 82604 10096 20085 30244 40237 52008 69932 8//// 333 10105 88/20 91005 91109 91206
AAXX 22181 06370 17257 82704 10094 20089 30214 40240 51012 60022 71085 8//// 333 10100 85/05 88/07 91006 91110 91204
AAXX 22181 06380 17115 82603 10090 20087 30110 40251 53012 60012 71010 8//// 333 10097 84/02 87/03 88/04 91005 91107 91204
AAXX 22181 06206 46566 82507 10098 20079 30154 40207 51006 8//// 333 10107 88/26 91008 91111 91208
AAXX 22181 06207 45760 82708 10074 20065 30149 40204 53005 8//// 333 10081 88/50 91009 91111 91210
AAXX 22181 06239 47459 8//08 10092 20084 3//// 4//// 5//// 71000 8//// 333 10097 81/11 84/22 88/26 91009 91111 91209
AAXX 22181 06252 46/// /2708 10100 20087 30174 40221 52009 222// 00098 10503 333 10102 91009 91111 91209
AAXX 22181 06260 15463 82703 10099 20085 30228 40230 51009 60022 8//// 333 1//// 82/10 88/12 91006 91107 91204
AAXX 22181 06270 15560 82805 10087 20084 30209 40209 51010 69942 8//// 333 10093 88/21 91006 91109 91206
AAXX 22181 06290 17015 82603 10090 20090 30180 40221 51014 6///2 71010 8//// 333 1//// 85/01 88/03 91004 91108 91205
AAXX 22181 37682 11596 70000 11039 21044 38148 48540 57002 60040 70272 875// 333 11045
AAXX 22181 37717 115// 82101 11018 21026 38090 48519 54000 69940 78582 883// 333 10016
AAXX 22181 37788 11393 80000 11025 21031 39248 40288 57006 69900 74474 8602/ 333 86706 96044
AAXX 22184 13610 11660 83620 11014 21015 39708 40147 54002 60022 77177 885// 333 10022 88633
AAXX 22184 13619 12660 60000 11002 21047 39336 42731 52016 60002 86500 333 10012 86640
AAXX 22184 89577 46/// /1605 11327 35834 4//// 5////
AAXX 22184 89578 46/// /1202 11333 36876 4//// 5////
AAXX 22184 13624 12960 50406 10060 21016 30010 40050 52008 60002 85050 333 10086 85360
AAXX 22184 48601 11559 60000 10244 20239 30078 40082 69921 71062 81531 333 81625 83364 86078
AAXX 22184 48615 11562 70811 10267 20238 30081 40087 69901 70562 83542 333 83620 87074
AAXX 22184 48620 11360 70101 10251 20247 30072 40081 69981 72162 83548 333 82708 83630 87276
AAXX 22184 48647 NIL
AAXX 22184 48650 11460 70000 10242 20238 30057 40076 60001 71322 83942 333 81917 83364 86077
AAXX 22184 48657 11259 83407 10242 20238 30059 40077 69921 76166 85727 333 82706 84624 88276
AAXX 22184 48665 12564 70402 10238 20229 30070 40080 60001 82542 333 82628 84364 86077
AAXX 22184 96413 12565 72001 10244 20239 30047 40073 6///1 82531 333 82620 86365
AAXX 22184 96421 11465 71601 10249 20242 30036 40072 60001 70322 82531 333 82616 84365 85080
AAXX 22184 96441 12468 70000 10253 20247 30042 40069 60001 83531 333 83616 84365 85080
AAXX 22184 96449 11458 70603 10237 20234 30054 40073 60021 76062 8457/ 333 84614 87365
AAXX 22184 96465 11458 81801 10249 20244 30040 40073 60291 76162 8587/ 333 82810 83640 87463
AAXX 22184 96471 11468 72009 10261 20239 30070 40073 69901 71396 83948 333 81814 81917 84364 87277
AAXX 22184 96481 12462 63404 10257 20239 30039 40058 60001 82841 333 81817 86080
AAXX 22184 96491 12465 70505 10275 20249 30050 40062 60001 81831 333 81815 87079
AAXX 22184 91573 06/// /0612 10256 20223 39972 40068 56010 69961 333 59017 69947
AAXX 22184 91579 06/// /1116 10248 20219 30075 40083 55005 60001 333 59015 60007
AAXX 22184 91582 04570 /1110 10247 20216 30051 40085 55005 60002 700// 333 10263 20240 60007 90710 91119 555 60005
AAXX 22184 91590 04986 /1004 10224 20182 30047 40090 55005 60002 700// 333 10279 20215 60007 90710 91107 555 60005
AAXX 22184 91592 06/// /0511 10238 20201 30012 40097 55004 60001 333 59008 60007
AAXX 22184 91596 06/// /1012 10230 20200 39994 40103 55004 60001 333 59011 60007
AAXX 22184 91577 NIL
AAXX 22184 91583 NIL
AAXX 22184 91587 NIL
AAXX 22184 91574 46/// ///// 29096 39958 49964 53048
AAXX 22184 91570 NIL
AAXX 22184 91598 NIL
AAXX 22181 03951 17250 /2109 10111 20106 30182 40208 57016 69932 71081 88/// 333 10119 83/05 88/29
AAXX 22181 03953 12465 82110 10125 20102 30155 40191 56019 69902 886// 333 10128 88710 92447
AAXX 22181 03955 11136 82111 10102 20102 30008 40205 57022 69962 75052 886// 333 10112 87702 87703
AAXX 22181 03956 17257 /2307 10105 20097 30136 40213 57017 69922 7101/ 88/// 333 10107 88/04
AAXX 22181 03962 12580 71905 10122 20098 30155 40179 57020 69902 875// 333 10133 81621 83627 87645
AAXX 22181 03963 17/56 /2013 10110 20098 30116 40144 57024 60002 7101/ 333 10118 90710 91117
AAXX 22181 03966 17680 /1905 10114 20086 30088 40180 55020 69902 7038/ 88/// 333 10125 88/46
AAXX 22181 03967 11482 42209 10112 20089 30069 40183 57019 69902 70151 84500 333 10126 81714 84650
AAXX 22181 03969 31480 62107 10119 20095 30080 40183 58021 70281 865// 333 10128 81716 86650
AAXX 22181 03973 11150 82109 10100 20098 39893 40146 57019 69922 75865 886// 333 10109 88702
AAXX 22181 03976 11357 82014 10115 20107 30106 40118 57023 69912 75865 886// 333 10128 86708 88716 90710 91124
AAXX 22181 03980 17566 /2112 10119 20099 30086 40111 57024 6//// 70385 87/// 333 10127 87/26
BBXX TFBKF 22184 99635 70202 46/// ///// 22200 10705 70024
BBXX TFBLK 22184 99657 70248 46/// ///// 22200 10908 70039
BBXX TFDRN 22184 99658 70212 46/// ///// 22200 10603 70015
BBXX TFGRS 22184 99663 70182 46/// ///// 22200 10603 70016
BBXX TFGRV 22184 99638 70225 46/// ///// 22200 11005 70025
BBXX TFGSK 22184 99641 70229 46/// ///// 22200 10705 70026
BBXX TFHFN 22184 99642 70152 46/// ///// 22200 10906 70032
BBXX TFKGR 22184 99657 70136 46/// ///// 22200 10703 70014
BBXX TFSRT 22184 99633 70203 46/// ///// 22200 10807 70037
BBXX TFSTD 22184 99664 70234 46/// ///// 22200 10705 70027
AAXX 22184 89532 41/60 80419 10001 21028 39821 49848 55000 70272 8757/
AAXX 22181 33135 11597 82906 11018 21042 30006 40191 52011 69922 78582 883// 333 11011
AAXX 22181 33317 32497 83002 11038 21053 39879 40231 52009 885// 333 11021 88613
AAXX 22181 33345 NIL
AAXX 22181 33393 11350 83502 11026 21039 39838 40245 52018 60012 77177 8672/ 333 11008 86708
AAXX 22181 33506 11597 83204 11015 21035 39993 40196 52011 69902 70282 885// 333 11010
AAXX 22181 33587 32565 83101 11010 21039 39951 40223 52010 885// 333 10003 88625
AAXX 22181 33631 11996 83202 11003 21015 30092 40241 52009 69932 71072 8807/ 333 10006
AAXX 22181 33663 31995 00000 11036 21047 30130 40230 52010 71000 333 10032
AAXX 22181 33658 32497 80000 11028 21054 39928 40240 52012 886// 333 11015 88715
AAXX 22181 33711 32597 83303 11012 21028 39996 40213 52009 885// 333 11004 88627
AAXX 22181 33791 NIL
AAXX 22181 33837 31947 83501 10006 20001 30163 40216 53011 71022 88030 333 10027
AAXX 22181 33924 32597 80706 10036 20007 30186 40198 52005 8457/ 333 10061
AAXX 22181 33946 32697 80509 10023 20013 39963 40188 53002 83501 333 10078 83640
AAXX 22181 34300 11597 82706 11010 21045 39984 40181 52009 69932 70272 885// 333 11002 88621
AAXX 22181 34504 32497 83103 11009 21031 30019 40203 52007 886// 333 11008 88717
AAXX 22181 34519 11460 82904 11012 21045 39918 40201 52011 69902 70272 886// 333 10004 88718
AAXX 22181 34601 11560 73102 11005 21034 30072 40213 52007 69902 70282 87500 333 10007 87620
AAXX 22181 01440 46/// /2504 10000 21001 38833 40119 54001 333 91111
AAXX 22181 01180 11680 71904 10014 21084 39910 49967 58022 60002 70222 87500 333 10015 91109
AAXX 22181 01450 16/// /1503 10003 21032 38959 40105 50002 60002 333 10008 91107
AAXX 22181 01471 11686 80000 11049 21060 60002 70322 885// 333 11041 91105
AAXX 22181 01393 16/// /0000 11106 21119 39280 40118 58005 6//// 333 11054 91104
AAXX 22181 01257 16/// /2102 10015 21005 39883 40045 55005 60022 333 10017 91105
AAXX 22181 01277 16/// /0000 10002 21005 60032 333 10002 91104
AAXX 22181 01476 16/// /3101 10007 21000 30108 40114 50001 6//// 333 10012 91105
OOXX AAUNI 22184 99798 50833 56093 07671 46/// /2429 11028 21080 38922 49787 5//// 91800
AAXX 22184 78388 11578 11014 10289 20199 30138 40147 69901 70186 81201 333 01209 10302 20230 58006 81824
AAXX 22184 78951 12570 41217 10302 20211 30120 40135 60001 83208 333 10304 20240 58000 83824
AAXX 22184 78958 11572 60814 10295 20219 30113 40123 60001 70622 82802 333 10304 20238 59002 82823 86044
AAXX 22181 11010 01342 82501 10025 20023 39859 40247 52001 69922 76166 333 10036 69925 82708 87614
AAXX 22181 11012 11240 82302 10020 20012 39765 40246 54000 60012 76122 887// 333 10031 20015 55300
AAXX 22181 11022 12563 52903 10024 21005 39842 40238 53006 60002 85100 333 10045 21001 55300 85828
AAXX 22181 11035 11570 72903 10031 20007 39982 40241 52007 69902 70382 878// 333 10051 20025 82827 86645
AAXX 22181 11036 32570 63502 10025 21009 30015 40244 52009 333 10049 82830 85645
AAXX 22181 11101 11450 81805 10025 20020 39741 40283 52012 60312 76376 887// 333 10026 20010 88713
AAXX 22181 11120 01215 80000 10000 21001 39543 40272 52008 60152 77372 333 10005 60025 84705 86713 86622
AAXX 22181 11126 17/// /3311 11041 21041 37752 48519 53012 60112 7404/ 333 11041 21073 55300 91118
AAXX 22181 11130 17/// /2402 10004 20000 39657 40264 53008 60072 7404/ 333 10009 20002 55300
AAXX 22181 11146 NIL
AAXX 22181 11150 01350 81603 10011 20003 39698 40254 50004 60032 76376 333 10018 69985 81708 83714 86623
AAXX 22181 11155 11/00 93205 11038 21045 38375 48504 53005 69962 77374 333 11038 21063 55300 89/01 91116
AAXX 22181 11157 11250 80000 11002 21004 39457 40248 53006 69922 77177 885// 333 10026 82705 88612
AAXX 22181 11172 NIL
AAXX 22181 11190 12665 83302 10007 21017 30003 40244 53008 69902 885// 333 10054 21001 55300
AAXX 22181 11204 17/// /0000 10008 21008 39434 40245 53013 69922 7408/ 333 10024 21023 55300
AAXX 22181 11212 11/70 73604 11068 21076 37823 48506 53005 69932 77174 84870 333 11062 827// 84458
AAXX 22181 11231 32781 83102 11010 21024 39661 40252 52008 333 10004 81850 85658 86361
AAXX 22181 11240 32770 43502 11004 21025 39795 40249 53008 333 10049 81656 83362
AAXX 22181 11244 16/// /0000 11017 21028 39910 40252 53011 60002 333 10054 21049 55300
AAXX 22181 11389 12550 82204 10024 20006 39912 40246 53004 60002 885// 333 10035 20015 55300
AAXX 22184 78951 12570 41217 10302 20211 30120 40135 60001 83208 333 10304 20240 58000 83824
AAXX 22184 78388 11578 11014 10289 20199 30138 40147 69901 70186 81201 333 01209 10302 20230 58006 81824
AAXX 22184 78062 12569 61411 10259 20210 40206 60001 86100 333 59004 86825 90908
AAXX 22184 78016 32664 72412 10214 20134 30275 40279 58014 86508 333 10216 20165 70000
BBXX 61001 22184 99434 10078 46/// /2603 10129 20034 40210 52008 22200 00146 10802 70010
BBXX DBBC 22181 99535 10100 46/// /2803 10072 2//// 40188 52017 22270 00037
BBXX DBND 22181 99536 10486 46/// /2604 10079 20078 40193 52013 22250 00053
BBXX DBEB 22181 99539 10079 41/// /2508 10063 20063 40191 52015 7//// 22200 00062
BBXX DBBA 22181 99541 10121 46/// /1602 10043 20042 40178 52003 22220 00050
BBXX 41101 22184 99146 70562 46/// /0621 10267 20218 40128 57024 22200 00270 11007 70035 555 1/027
BBXX DBFH 22181 99535 10086 46/// /2502 10085 20079 40195 52014 22200 00045
BBXX DBBI 22181 99535 10100 46/// /2803 10068 20068 40186 52017 22260 00031
BBXX DBKR 22181 99541 10121 46/// /1803 10044 20044 40177 52002 22200 00047
BBXX DBJM 22181 99542 10076 46/// /2606 10081 20073 40191 52012 22223 00075
BBXX DBCK 22181 99/// ///// 46/// ///// 10079 20079 40193 52014 22220 00044
AAXX 22184 13629 11640 80404 11020 21020 39023 42691 52016 60042 77177 885// 333 11014 47022 88633
AAXX 22184 13623 12960 00310 10060 21072 30108 40114 52018 60002 333 10080
AAXX 22184 85032 31440 73410 10284 20238 39908 40068 57034 71622 86904 333 56706 59012 85615 81920 87070 91020
AAXX 22184 85043 11456 60906 10245 20232 39922 40082 57025 60021 71582 86904 333 56200 58002 85615 81920 86070
AAXX 22184 85104 31458 43215 10305 20243 39913 40072 57025 71522 84904 333 56706 59017 83817 81920 84070
AAXX 22184 85109 31457 63206 10285 20245 39925 40084 57023 71722 86900 333 56700 59015 85817 81923 96015
AAXX 22184 85114 11450 83010 10245 20238 39930 40093 57017 60091 71762 8692/ 333 56779 59010 85615 81920 88457 96016
AAXX 22184 85116 11450 63604 10250 20237 39900 40078 57023 60011 71522 84904 333 56806 59010 83817 81923 85070
AAXX 22184 85123 31458 73114 10303 20237 39903 40067 57027 71522 86901 333 56706 59020 85817 81923 85070
AAXX 22184 85139 32465 63510 10304 20254 39854 40045 57015 85930 333 56760 59004 84815 81923 86358
AAXX 22184 85153 31457 62706 10300 20224 39900 40082 57018 71522 85904 333 56706 59018 84817 81923 86070
AAXX 22184 85154 32470 32909 10300 20250 39890 40065 57032 83900 333 56700 59029 82817 81920
AAXX 22184 48310 31957 00000 10159 20148 39674 40143 57004 71000 333 59013
AAXX 22184 48325 31956 00000 10175 20167 39884 40133 57001 71000 333 59008
AAXX 22184 48329 31940 00000 10175 20161 39791 40139 52002 71000 333 59018
AAXX 22184 48352 NIL
AAXX 22184 48357 32960 20000 10175 20149 39972 40146 57009 80001 333 58003
AAXX 22184 48380 32957 60000 10228 20208 30033 40128 57004 80006 333 59001
AAXX 22184 48383 NIL
AAXX 22184 48403 31956 30803 10229 20174 39917 40130 57002 71011 80005 333 58000
AAXX 22184 48405 32560 70405 10200 20149 39972 40138 52000 83536 333 58009
AAXX 22184 48420 31950 70000 10256 20223 30103 40107 56005 71022 80006 333 58003
AAXX 22184 48421 31950 20000 10218 20206 30007 40122 57003 71000 80005 333 58002
AAXX 22184 48425 31956 30000 10236 20199 30109 40119 57008 71011 80006 333 58001
AAXX 22184 48426 31958 20000 10242 20195 30101 40114 58009 71010 80001 333 59001
AAXX 22184 48429 31958 73602 10256 20197 30102 40109 57004 71022 84036 333 58000
AAXX 22184 48430 31958 20904 10270 20191 30099 40106 57009 70500 80005 333 59002
AAXX 22184 48450 31956 00000 10265 20174 30079 40112 57010 70500 333 59001
AAXX 22184 48459 32560 70000 10272 20217 30101 40104 57008 83556 333 59002
AAXX 22184 48465 31958 63303 10255 20201 30105 40109 57005 71022 80006 333 58004
AAXX 22184 48550 11558 60705 10265 20240 30087 40094 57008 60013 71062 82146 333 58000 70012
AAXX 22184 48552 31457 60000 10241 20235 30088 40095 57012 71022 83806 333 58003 70128
AAXX 22184 48566 32560 31205 10270 20226 30077 40085 57008 82145 333 58004
AAXX 22184 48568 01460 81205 10270 20238 30081 40088 57013 69983 70262 83977 333 59004 69967 70041
AAXX 22184 48300 31957 00000 10170 20153 39819 40140 51003 71000 333 59007
AAXX 22184 48327 32960 00000 10182 20164 39781 40145 57001 333 59011
AAXX 22184 48331 32960 00000 10185 20172 39903 40139 57004 333 59014
AAXX 22184 48353 31950 20000 10200 20176 39839 40134 57007 71000 82030 333 59010
AAXX 22184 48356 31958 00000 10184 20151 39951 40153 56004 71000 333 58009
AAXX 22184 48375 32560 60000 10205 20181 39888 40117 57001 82536 333 58000
AAXX 22184 48378 31550 40000 10212 20193 30072 40126 57007 71022 82506 333 58002
AAXX 22184 48381 32960 20603 10215 20166 39916 40136 57003 80005 333 58001
AAXX 22184 48407 32960 60307 10211 20159 39972 40116 57009 82046 333 59001
AAXX 22184 48431 NIL
AAXX 22184 48456 NIL
AAXX 22184 48480 31557 20302 10247 20214 30091 40095 57012 71000 82201 333 58000
AAXX 22184 48500 31956 30000 10250 20199 30095 40102 57009 71011 80005 333 58006
AAXX 22184 48551 01440 80703 10252 20242 30082 40090 57013 60603 76062 8482/ 333 59009 60175 70604
AAXX 22184 48565 31458 60000 10260 20235 30070 40080 57009 71022 82246 333 58000 70034
AAXX 22184 48569 01560 70000 10258 20225 30054 40094 57011 60023 70262 82846 333 58004 69917 70028
AAXX 22184 48583 NIL
AAXX 22184 48302 NIL
AAXX 22184 48304 31958 00000 10148 20139 39672 40147 56005 71000 333 59015
AAXX 22184 48334 31958 00000 10175 20163 39778 40150 52007 71000 333 59009
AAXX 22184 48360 31958 00000 10217 20183 39871 40135 57006 71000 333 59009
AAXX 22184 48372 NIL
AAXX 22184 48373 NIL
AAXX 22184 48386 31940 00000 10208 20199 30077 40121 57006 71000 333 58001
AAXX 22184 48387 NIL
AAXX 22184 48408 32660 60000 10208 20170 39967 40119 57008 82536 333 58002
AAXX 22184 48415 31956 20606 10246 20198 30102 40113 57010 71000 80005 333 59005
AAXX 22184 48433 NIL
AAXX 22184 48437 NIL
AAXX 22184 48440 31957 50000 10240 20214 30058 40108 57005 71022 80006 333 59005
AAXX 22184 48451 32560 70000 10251 20199 30102 40113 57011 82570 333 59002
AAXX 22184 48454 NIL
AAXX 22184 48457 NIL
AAXX 22184 48463 NIL
AAXX 22184 48464 31557 63305 10250 20197 30090 40103 57003 71022 83554 333 58003
AAXX 22184 48479 NIL
AAXX 22184 48520 31956 40000 10245 20219 30083 40098 55011 71011 80005 333 58001
AAXX 22184 48554 01456 80000 10242 20236 30095 40099 57006 60183 72162 888// 333 58007 69925 70210
AAXX 22184 48563 32560 50000 10240 20230 30047 40083 57013 82246 333 58002 70046
AAXX 22184 48571 01560 60000 10258 20235 30077 40088 57011 60043 72162 82846 333 59008 69965 70138
AAXX 22181 11423 01/02 92707 11004 21005 39325 42813 52004 69952 75674 333 11004 44019 69905 89/01 91111 93606 96049
AAXX 22181 15015 02597 81100 11028 21049 39607 42803 52008 60002 8457/ 333 11017 21042 3/000 43997 60007 91001 91101
AAXX 22181 15020 02597 72801 11054 21065 30027 40236 52010 60002 87500 333 10012 21077 3/004 43002 60007 91001 91101 92840
AAXX 22181 15090 01996 83000 11030 21033 30136 40233 52013 60002 71022 80007 333 10032 21044 34004 55300 0//// 20004 3//// 60007 91000 91102 92600
AAXX 22181 15108 02298 32904 11124 21124 38051 48484 52009 60002 83500 333 11072 21137 3//// 44016 60007 92843
AAXX 22181 15120 02597 82801 11019 21035 39716 40233 52008 69902 8457/ 333 11012 21030 30002 55300 10065 2//// 3//// 60007 91002 91102
AAXX 22181 15150 02997 23401 11033 21050 30011 40234 52012 60002 82030 333 10012 21063 3/000 41998 60007 91002 91102 92870
AAXX 22181 15170 01995 03401 11153 21159 39420 42800 52015 60002 71011 333 11065 21179 3/104 47005 60007 91002 91102 92800
AAXX 22181 15200 02597 63402 10007 21007 30078 40228 52012 60002 86500 333 10035 21013 34009 60007 91003 91104
AAXX 22181 15230 02997 22103 11027 21056 39931 40238 52014 60002 82070 333 10017 21027 30005 55300 10253 20004 3//// 60007 91005 91105
AAXX 22181 15260 02997 02400 11083 21088 39681 40252 52012 60002 333 11032 21092 3/102 43001 60007 91001 91101 92822
AAXX 22181 15280 02599 70504 11140 21175 37421 47937 52009 60002 87070 333 11121 21166 3//// 48043 60007 92825
AAXX 22181 15292 02998 01501 11024 21024 39920 40228 52013 60002 333 10031 21033 34003 60007 91001 91102 92600
AAXX 22181 15310 01996 80103 10004 21012 30127 40216 52013 60002 71022 84037 333 10022 21001 31005 55300 10079 20003 3//// 60007 91006 91106
AAXX 22181 15335 01496 80202 10013 20005 30198 40205 52009 60002 71022 886// 333 10028 21002 31005 60007 91004 91106
AAXX 22181 15346 02997 73501 10001 21034 39916 40216 52018 60002 87070 333 10034 21024 34001 60007 91003 91103
AAXX 22181 15350 02597 81204 10017 21027 30091 40214 51015 60002 885// 333 10032 21001 31005 60007 91008 91108
AAXX 22181 15360 01497 80510 10043 20002 30171 40185 52009 69982 76122 8672/ 222// 06050 20502 333 10053 20014 3//// 69987 91012 91113 92437
AAXX 22181 15410 02597 63401 11011 21032 30119 40219 52016 60002 86500 333 10055 21044 34005 60007 91001 91101
AAXX 22181 15420 01597 80504 10009 21012 30092 40208 52013 69922 77172 885// 333 10028 21013 31004 55300 0//// 20000 3//// 69927 91008 91108
AAXX 22181 15450 01496 80801 11007 21012 39969 40213 52014 69932 77177 8672/ 333 10014 21023 3/001 43997 55300 10048 20002 3//// 69937 91002 91104 96010
AAXX 22181 15460 01496 80105 10003 20002 30169 40194 52013 60012 77176 8672/ 333 10029 21006 3/004 43001 60017 91008 91108 96010 92801
AAXX 22181 15470 01495 80303 11001 21001 30078 40208 52013 60022 77177 8672/ 333 10000 21023 3/001 47001 69977 91004 91105 92801
AAXX 22181 15480 01496 80302 10043 20043 30158 40176 52010 60032 76122 8672/ 222// 06061 2//// 333 10047 20009 31005 60037 91008 91110 92436 96010
BBXX UFTA 22181 99848 71240 11196 83203 11232 21258 40059 57012 69902 77773 886//
AAXX 22184 48307 31950 00000 10178 20166 39761 40150 57004 71000 333 59013
AAXX 22184 48324 NIL
AAXX 22184 48333 31940 00000 10173 20159 39839 40149 52005 71000 333 59008
AAXX 22184 48350 NIL
AAXX 22184 48355 31956 00000 10170 20153 39920 40146 57006 71000 333 58002
AAXX 22184 48358 31958 10000 10170 20153 39966 40147 56010 71000 80005 333 58000
AAXX 22184 48384 31958 00501 10199 20176 39944 40139 57002 71000 333 58003
AAXX 22184 48401 31950 20000 10235 20201 30018 40126 57007 71000 80005 333 59002
AAXX 22184 48404 NIL
AAXX 22184 48409 31958 10102 10205 20167 39975 40125 57001 71000 80001 333 58005
AAXX 22184 48419 31959 50205 10270 20200 30100 40108 56009 71011 80005 333 59007
AAXX 22184 48427 NIL
AAXX 22184 48435 31959 30904 10224 20172 39683 40124 58006 71010 80005 333 58004
AAXX 22184 48453 NIL
AAXX 22184 48458 32960 60000 10254 20198 30042 40123 57005 80006 333 59003
AAXX 22184 48474 31958 80000 10245 20205 39984 40108 57009 71022 80007 333 58002
AAXX 22184 48481 32960 21502 10247 20206 30071 40099 57015 80001 333 59001
AAXX 22184 48555 NIL
AAXX 22184 48556 11550 80000 10245 20238 30075 40091 57005 60033 71022 82507 333 58003 70031
AAXX 22184 48557 NIL
AAXX 22184 48560 31558 21003 10270 20241 30085 40090 56009 71000 81102 333 59005 70039
AAXX 22184 48574 32560 60000 10255 20230 30058 40087 57003 83156 333 59003 70143
AAXX 22184 48581 NIL
AAXX 22184 68399 36/// /0503 10285 20196 39973 40079 52020 333 10375 20285 91037 555 91008
AAXX 22184 68383 36/// /0000 10295 20169 39851 48541 52022 333 10371 20295 91000 555 91009
AAXX 22184 68379 36/// /0303 10294 20196 39773 48538 52020 333 10388 20294 91010 555 91010
AAXX 22184 68398 36/// /3605 10239 20190 39331 48488 52016 333 10325 20239 91007 555 91010
AAXX 22184 68299 16/// /3005 10170 20115 38909 48500 52006 69982 333 10252 20154 91007 555 20008 69985 91016
AAXX 22184 91930 06/// ///// 10246 20221 60061 333 60067
AAXX 22184 91943 16/// /0410 10265 20219 30119 40121 51016 60052 333 10265 58006
AAXX 22184 89061 379// 02405 11004 21021 39861 49867 57010 72477 333 91006 91107
AAXX 22184 03008 16/// /2225 10099 20077 39961 40029 56023 69922 91750 333 10103 90710 91135 91035
AAXX 22184 03010 46/// /2031 10107 20106 40011 56033 333 90710 91149
AAXX 22184 03014 46/// /2325 10065 20052 40016 58023 91750 333 8//// 90710 91135
AAXX 22184 03031 17456 /2311 10103 20081 39734 40055 57026 60012 762// 91750 333 10120 553// 20000 87/16 90710 91131 91024
AAXX 22184 03034 17460 /2230 10114 20099 30030 40043 56031 60012 723// 91750 333 10117 82/12 85/30 90710 91143 91042
AAXX 22184 03037 17416 /2218 10109 20103 30046 40068 58027 60052 762// 91750 333 10113 86/10 86/20 90710 91130 91030
AAXX 22184 03041 46/// /2246 10044 20044 91750 333 10063 90710 91176 91070
AAXX 22184 03044 17650 /2215 10113 20090 39933 40030 56034 6///2 782// 91750 333 10125 553// 20000 81/32 86/37 90710 91135 91025
AAXX 22184 03047 17550 /2115 10101 20084 39800 40099 58023 60042 761// 91750 333 10111 553// 20000 87/24 90710 91128 91026
AAXX 22184 03062 15984 /2016 10107 20079 30043 40047 57038 69902 91750 333 10125 553// 20000 86/74
AAXX 22184 03065 46/// /2465 10037 20037 91750 333 10056 90710 91190 91080
AAXX 22184 03068 12582 72111 10113 20074 30060 40068 56029 60002 875// 91750 333 10127 82627 84632 87644
AAXX 22184 03080 15684 /1909 10107 20073 39928 40097 56023 60002 91750 333 10132 87/38 87/50
AAXX 22184 03088 17460 /2126 10081 20081 39949 40113 58007 69922 751// 91750 333 10110 553// 20000 84/14 84/19 85/30 90710 91131
AAXX 22184 03094 15986 /2224 10107 20067 30067 40072 58024 60002 91750 333 10141 87/74 90710 91132
AAXX 22184 03105 15678 /1916 10119 20095 30108 40124 56023 60002 91750 333 10122 84/35 87/56
AAXX 22184 03132 15467 /2010 10109 20104 30153 40166 56018 69902 91750 333 10115 81/10 87/27 87/56
AAXX 22184 03144 17447 /2308 10106 20090 30074 40117 56025 60022 758// 91750 333 10116 553// 20000 86/12 87/19
AAXX 22184 03148 46/// /2225 10090 20083 91750 333 10097 90710 91145 91039
AAXX 22184 03153 17456 /2115 10092 20088 30029 40167 57017 69902 710// 91750 333 10102 553// 20000 81/17 87/50 90710 91131
AAXX 22184 03155 16480 /2219 10101 20081 39845 40140 57023 69922 91750 333 10104 87/14 90710 91129 91029
AAXX 22184 03158 15374 /2013 10096 20088 30015 40152 58011 69902 91750 333 10111 553// 20000 87/09
AAXX 22184 03210 16009 /2015 10087 20085 30034 40186 58016 60002 91750 333 10100 88/01
AAXX 22184 03212 17465 /2310 10114 20088 30084 40183 58017 69902 723// 91750 333 10118 81/19 87/44
AAXX 22184 03214 17658 /2214 10094 20086 30175 40193 58014 6///2 710// 91750 333 10108 81/36 86/42 87/50
AAXX 22184 03220 16572 ///// 10107 20094 30139 40173 58015 69922 91750 333 10114 81/20 87/31
AAXX 22184 03225 16348 /2413 10088 20079 39882 40188 58018 60002 91750 333 10104 553// 20000 83/07 85/28
AAXX 22184 03226 15376 /2414 10092 20081 39912 40188 55012 69902 91750 333 10104 81/08 87/43 90710 91126
AAXX 22184 03227 46/// /2436 10046 2//// 91750 333 10055 90710 91143
AAXX 22184 03230 16350 /2312 10092 20084 39917 40173 58008 69922 91750 333 10099 88/09
AAXX 22184 03238 15584 /2203 10095 20073 30002 40175 51017 60002 91750 333 10112 81/27 87/46
AAXX 22184 03261 16477 /2415 10104 20076 30159 40199 58002 60002 91750 333 10129 84/19
AAXX 22184 03265 15581 /1909 10102 20079 30167 40198 57004 60002 91750 333 10130 87/20
AAXX 22184 03266 16481 /1805 10109 20075 30184 40201 58001 60002 91750 333 10137 86/18 86/50
AAXX 22184 03275 15974 /2314 10087 20066 39992 40185 58005 60002 91750 333 10113 8//99
AAXX 22184 03281 16/// /2310 10082 20073 60002 91750 333 10109
AAXX 22184 03903 16468 /2116 10120 20102 30090 40147 56021 69922 91750 333 10127 553// 20000 87/14 87/21 90710 91129
AAXX 22184 03904 15478 /2015 10119 20094 30077 40136 56018 69902 91750 333 10125 86/17 86/56 90710 91125
AAXX 22184 03907 17480 /2017 10125 20095 30119 40127 57018 69902 723// 91750 333 10126 55300 20000 87/19 90710 91125
AAXX 22184 03911 16381 /2113 10105 20097 39873 40144 56023 60002 91750 333 10108 87/07 90710 91126
AAXX 22184 03915 16471 /1813 10108 20108 30064 40142 5//// 60002 91750 333 10118 81/11 88/14
AAXX 22184 03916 16482 /2108 10111 20094 39948 40136 58022 60002 91750 333 10111 553// 20000 81/14 83/20 87/50
AAXX 22184 03923 17350 /2110 10102 20096 39962 40157 56022 69922 757// 91750 333 10110 87/06 85/14
AAXX 22184 03301 16259 /2020 10105 20105 30139 40212 58015 60002 91750 333 10118 88/03 90710 91128
AAXX 22184 03305 17113 /2222 10093 20089 39955 40219 58015 60032 782// 91750 333 10104 87/02 90710 91132
AAXX 22184 03313 16682 /2211 10111 20095 30121 40214 56012 60002 91750 333 10122 87/41 91022
AAXX 22184 03316 15681 /2110 10093 20074 30199 40210 56010 60002 91750 333 10114 81/36 86/45
AAXX 22184 03318 16/// /2419 10094 20084 60002 91750 333 10101 90710 91125
AAXX 22184 03321 16583 /1705 10110 20083 30207 40219 56010 60002 91750 333 10128 553// 20000 82/20 83/44
AAXX 22184 03330 15680 /2309 10089 20072 39862 40225 56004 60002 91750 333 10104 88/34
AAXX 22184 03344 15684 /2210 10092 20072 39885 40203 50002 60002 91750 333 10099 88/40
AAXX 22184 03346 16/// /2520 10091 20073 60002 91750 333 10108 90710 91127
AAXX 22184 03348 15681 /2211 10107 20086 30107 40215 57009 60002 91750 333 10126 55300 20000 88/42
AAXX 22184 03355 15582 /2309 10105 20082 30193 40204 58004 60002 91750 333 10130 55300 20000 82/23 87/48
AAXX 22184 03373 16972 /2212 10092 20068 30145 40215 57003 60002 91750 333 10124 8//99
AAXX 22184 03379 16682 /2513 10097 20069 30147 40225 58003 60002 91750 333 10118 84/31
AAXX 22184 03382 15581 /2004 10096 20075 30193 40201 58004 60002 91750 333 10125 55300 20000 83/27
AAXX 22184 03385 46669 /2107 10093 20077 30204 40214 50000 91750 333 10131 81/30
AAXX 22184 03391 12680 62510 10101 20071 30212 40219 58003 60002 865// 91750 333 10125 86632
AAXX 22184 03392 16670 /2411 10101 20079 30217 40221 53001 69922 91750 333 10119 86/31 90710 91126
AAXX 22184 03405 16359 /2225 10107 20107 30112 40228 57013 60002 91750 333 10114 553// 20000 85/06 86/45 90710 91130
AAXX 22184 03409 16/// /2417 10100 20097 60002 91750 333 10108 55300 2////
AAXX 22184 03410 16143 /2414 10091 20091 39792 40227 57003 60002 91750 333 10099 553// 20000 86/02 83/34 90710 91125
AAXX 22184 03469 15681 /2311 10090 20072 30219 40223 50000 60002 91750 333 10120 553// 20000 81/32
AAXX 22184 03488 15980 /2415 10097 20073 30195 40221 52002 60002 91750 333 10114 8//99
AAXX 22184 03503 15467 /2304 10117 20102 30163 40240 57011 69962 91750 333 10118 87/12
AAXX 22184 03507 17150 /2411 10093 20093 39874 40247 57005 60012 723// 91750 333 10093 87/02
AAXX 22184 03520 16681 /2710 10108 20086 30116 40237 57006 60002 91750 333 10131 553// 20000 84/41
AAXX 22184 03522 15484 /2403 10117 20102 30152 40245 57007 60002 91750 333 10127 88/15
AAXX 22184 03529 17564 /2406 10116 20086 30204 40247 57004 69902 757// 91750 333 10131 88/23
AAXX 22184 03544 15581 /2104 10100 20082 30108 40240 58002 60002 91750 333 10128 553// 20000 87/23 87/37
AAXX 22184 03560 15583 /2505 10099 20076 30137 40241 58001 60002 91750 333 10110 553// 20000 88/26
AAXX 22184 03604 16669 /2510 10114 20099 30191 40245 58012 69922 91750 333 10116 88/43
AAXX 22184 03605 16657 /2305 10102 20097 30245 40253 58008 60002 91750 333 10109 88/45
AAXX 22184 03609 16/// /2415 10103 20101 30208 40261 57007 69922 91750 333 10115
AAXX 22184 03628 17259 /2508 10103 20099 30184 40257 56004 69902 757// 91750 333 10113 55300 20000 87/03 84/44
AAXX 22184 03647 16562 /2210 10090 20084 39990 40247 56002 60002 91750 333 10112 553// 20000 88/21
AAXX 22184 03658 16674 /2307 10106 20082 30184 40254 58001 60002 91750 333 10127 88/30
AAXX 22184 03660 15570 /2805 10096 20081 30003 40252 58002 60002 91750 333 10110 88/24
AAXX 22184 03672 12675 72606 10102 20075 30213 40253 51002 60002 875// 91750 333 10128 87630
AAXX 22184 03684 15973 /2709 10079 20066 30136 40244 51006 60002 91750 333 10114 8//99
AAXX 22184 03693 16976 /2507 10090 20073 30245 40248 52005 60002 91750 333 10128 8//99
AAXX 22184 03707 15464 /2512 10113 20108 30258 40266 57006 60002 91750 333 10121 85/12 87/43
AAXX 22184 03710 16263 /2716 10092 20092 39841 40264 57004 60002 91750 333 10092 553// 20000 88/03 90710 91126 91026
AAXX 22184 03743 16056 /2305 10092 20089 30103 40265 52001 60002 91750 333 10114 83/01 87/07
AAXX 22184 03749 16330 /2305 10095 20089 30155 40267 51002 69922 91750 333 10118 88/09
AAXX 22184 03761 12580 72410 10105 20072 30115 40260 50000 60002 875// 91750 333 10120 55300 20000 87626
AAXX 22184 03768 16580 /2711 10109 20079 30177 40257 58002 60002 91750 333 10123 88/28
AAXX 22184 03769 15578 /2405 10094 20076 30176 40258 51004 60002 91750 333 10125 55300 20000 87/27
AAXX 22184 03770 16/// ///// 10100 20079 60002 91750 333 10126
AAXX 22184 03781 15581 /2509 10094 20075 30048 40257 51001 60002 91750 333 10112 553// 20000 87/23
AAXX 22184 03797 15964 /2409 10081 20068 30192 40253 52008 60002 91750 333 10118 55300 20000 8//99
AAXX 22184 03823 15368 /2411 10103 20093 30029 40274 57004 69902 91750 333 10112 553// 20000 81/08 88/31
AAXX 22184 03839 16/// ///// 10113 20098 60002 91750 333 10123 553// 20000
AAXX 22184 03857 15562 /2715 10111 20102 30212 40276 55000 60002 91750 333 10115 82/20 87/33
AAXX 22184 03862 15469 /2606 10107 20088 30259 40271 54000 60002 91750 333 10121 55300 20000 87/13 83/29
AAXX 22184 03866 16/// /2614 10109 20090 30246 40271 52001 60002 91750 333 10115
AAXX 22184 03872 15571 /2611 10106 20088 30262 40267 54000 60002 91750 333 10125 553// 20000 88/23
AAXX 22184 03876 16/// /2405 10102 20083 30263 40265 52003 60002 91750 333 10131
AAXX 22184 03895 41583 72709 10109 20083 40298 56003 70262 875// 333 10113 86625
AAXX 22184 03896 16/// ///// 10114 69902 333 10116
AAXX 22184 68024 42660 73305 10237 20175 48498 52040 83980 333 10345
AAXX 22184 68029 42560 33503 10266 20205 48492 52020 82973 333 10316
AAXX 22184 68038 42960 20000 10285 20192 48481 53019 80001 333 10355
AAXX 22184 68040 42660 60905 10301 20147 48484 52020 86903 333 10360 30095
AAXX 22184 68054 42960 20902 10270 20176 48504 53013 81082 333 10336
AAXX 22184 68070 42960 30000 10299 20188 48491 53015 81082 333 10349
AAXX 22184 68148 42660 40000 10260 20196 48485 51008 81980 333 10370
AAXX 22184 68226 42960 53605 10310 20117 48485 53016 85070 333 10342
AAXX 22184 68240 41560 82714 10256 20146 48484 52030 79522 8498/ 333 10355
AAXX 22184 68320 42660 61807 10312 20085 48499 52028 81983 333 10366
AAXX 22184 68325 41660 70909 10209 20179 48488 52025 71396 81970 333 10329
BBXX KAOU 22184 99004 10813 43/// /3121 10275 20240 40088 5//// 7//// 8//// 222// 04288 2//// 3//// 4//// 5//// 6//// 8//// ICE /////
BBXX NWS0003 22184 99539 71665 43/// /0000 10008 21021 49985 5//// 7//// 8//// 222// 0//// 2//// 3//// 4//// 5//// 6//// 8//// ICE /////
BBXX WDJK 22184 99463 71306 41597 71925 10102 20089 40214 57009 70211 87140 22274 00100 20603 32421 41006 51005 6//// 80095 ICE /////
BBXX NWS0020 22184 99322 70333 43/// /1115 10206 20179 40236 5//// 7//// 8//// 222// 04213 2//// 3//// 4//// 5//// 6//// 8//// ICE /////
BBXX NWS0029 22184 99400 70692 43/// /2813 10129 20083 40171 5//// 7//// 8//// 222// 04123 2//// 3//// 4//// 5//// 6//// 8//// ICE /////
BBXX C6XC2 22184 99024 31327 41498 83310 10260 20232 40040 57010 70222 8725/ 22200 00300 2//// 3//// 4//// 5//// 6//// 80240 ICE /////
BBXX KEY796 22183 99571 71703 41/97 13604 11111 21128 40018 58/// 702// 8//// 222// 00011 2//// 3//// 4//// 5//// 6//// 8//// ICE /////
BBXX WBO3345 22184 99196 70693 41697 50724 10272 20242 40150 54/// 70122 85363 22232 0//// 20407 310// 40407 5//// 6//// 80250 ICE /////
BBXX WKAU 22184 99317 70805 41498 31813 10210 2020/ 40182 54000 70211 831// 22242 00180 20401 313// 40401 5//// 6//// 80200 ICE /////
BBXX WXJ63 22183 99611 71464 41/96 81113 11002 21042 49853 57/// 771// 8//// 222// 00035 2//// 3//// 4//// 5//// 6//// 8//// ICE /////
AAXX 22184 70026 NIL
AAXX 22184 70133 NIL
AAXX 22184 70174 NIL
AAXX 22184 70200 NIL
AAXX 22184 70219 NIL
AAXX 22184 70231 NIL
AAXX 22184 70261 NIL
AAXX 22184 70267 NIL
AAXX 22184 70271 NIL
AAXX 22184 70273 NIL
AAXX 22184 70308 NIL
AAXX 22184 70316 NIL
AAXX 22184 70326 NIL
AAXX 22184 70340 NIL
AAXX 22184 70350 NIL
AAXX 22184 70361 NIL
AAXX 22184 70381 NIL
AAXX 22184 70398 NIL
AAXX 22184 70414 NIL
AAXX 22181 26554 32462 83502 11020 21062 30035 40203 52012 886// 333 11010 88713
AAXX 22181 26666 11459 83203 11009 21041 39949 40169 52014 69932 77072 886// 333 11007 88714
AAXX 22181 26850 11560 73201 11020 21041 39921 40202 52007 69902 77172 875// 333 11020 87624
AAXX 22181 26863 11450 83107 11019 21027 39924 40166 52009 69962 77187 8802/ 333 11015 88516 91011 91112
AAXX 22181 26941 32660 73102 11022 21047 39978 40224 52008 87500 333 11022
AAXX 22181 26951 32466 73303 11020 21048 30005 40211 52009 875// 333 11019 87618
AAXX 22181 33008 11350 83602 11037 21051 30057 40243 52014 69902 71022 886// 333 11012 88708
AAXX 22181 33019 31336 82502 11037 21042 30048 40229 52009 71022 886// 333 11036 88707
AAXX 22181 33036 11365 73002 11028 21048 39967 40206 52012 69902 70272 875// 333 11019 86709
AAXX 22181 33041 11558 72903 11014 21034 30018 40177 52012 69932 77187 875// 333 11013 87621
BBXX 44011 22181 99411 70666 46/// /2709 10111 20089 40145 51006 91750 22200 00096 11107 20605 3//// 41105 70036 333 91210 555 11096 22105 31733 40811 61749 265089 262090 261092 263091 261091 262092
BBXX 41046 22181 99238 70683 46/// /0909 10246 20186 40218 58019 91750 22200 00254 10806 20704 300// 40804 70029 333 91210 555 11093 22098 31733 41011 61749 093088 096093 096093 096091 093092 088094 81010 91731
BBXX 41041 22181 99142 70460 46/// /0707 10265 20210 40132 56020 91750 22200 00266 11405 20502 3//// 41405 70026 333 91208 555 11070 22075 31709 40609 61749 071066 065066 068069 069069 068071 070064 80708 91749
AAXX 22184 78526 NIL
AAXX 22184 78543 NIL
AAXX 22184 78255 42559 50906 10258 20186 30031 40180 57020 84202 333 10269 20187 84820
AAXX 22184 78317 NIL
AAXX 22184 78318 NIL
AAXX 22184 78325 NIL
AAXX 22184 78333 NIL
AAXX 22184 78338 NIL
AAXX 22184 78348 NIL
AAXX 22184 78349 NIL
AAXX 22184 78353 NIL
AAXX 22184 78360 NIL
AAXX 22184 78367 NIL
AAXX 22184 78369 NIL
AAXX 22184 91165 NIL
AAXX 22184 91182 NIL
AAXX 22184 91190 NIL
AAXX 22184 91212 NIL
AAXX 22184 91217 NIL
AAXX 22184 91285 NIL
AAXX 22184 91317 NIL
AAXX 22184 91334 11474 83510 10265 20243 30030 40033 57007 60091 70282 83371 333 56899 70231 555 92218
AAXX 22184 91348 11474 80707 10273 20234 39998 40051 55003 60011 70282 85101 333 562/9 70074 555 92218
AAXX 22184 91356 NIL
AAXX 22184 91366 NIL
AAXX 22184 91369 NIL
AAXX 22184 91371 NIL
AAXX 22184 91376 32474 80518 10273 20235 30046 40049 53002 84808 333 561/9 70015 555 92218
AAXX 22184 91408 32474 80503 10268 20243 30002 40040 57022 8322/ 333 56999 70107 555 92218
AAXX 22184 91413 32469 70808 10268 20236 30015 40040 57027 82232 333 56299 555 92218
AAXX 22184 91425 NIL
AAXX 22184 91434 NIL
AAXX 22184 91765 NIL
BBXX UITJ 22181 99663 10075 41498 82121 10085 49933 57003 70222 885// 22253 00080 20911
BBXX DILE 22183 99500 70018 41/98 /2520 10125 20088 40280 54000 7//22 8//// 22224 2//// 80105
BBXX UFJN 22181 99722 10477 41/96 71703 11030 40080 57010 72222 87/// 22200 0//// 20301
BBXX UBEF5 22181 99376 10088 41498 43606 10130 40211 52002 70200 841// 22263 00170 20403
BBXX TBWUK35 22183 99689 10125 412// 81631 10046 20039 49908 56010 70286 887// 22214 00090 20407 80043
BBXX UGGA 22181 99691 10406 41/98 92809 10040 40093 54000 70222 89/// 22251 20403
BBXX PHIN 22184 99491 70167 41296 82820 10150 20135 40171 56005 72586 887// 22252 00130 20504 399// 41108 80141
BBXX PCDE 22183 99338 31517 41297 80302 10200 20156 40150 57020 75851 877// 22213 2//// 30000 80172
BBXX PCBU 22183 99093 31455 41497 83308 10270 20236 40040 57030 70222 8/89/ 22223 02295 20702 80245
AAXX 22184 91222 NIL
AAXX 22184 91245 NIL
AAXX 22184 91323 NIL
AAXX 22184 91339 NIL
AAXX 22184 91343 NIL
AAXX 22184 91353 NIL
AAXX 22184 91442 NIL
BBXX 46083 22181 99582 71380 46/// /1517 10070 20068 49891 56024 91750 22200 00067 333 91222 555 11186 22199 31708 41523 61749 153173 154173 153178 155182 155173 152174 81619 91711
BBXX 46001 22181 99563 71480 46/// /3319 10019 49811 53025 91750 22200 00049 10910 20910 70051 333 91224 555 11204 22218 31722 43424 61749 332190 331183 335181 334183 333186 336180
BBXX 46089 22181 99459 71258 46/// /1507 10084 20034 40270 57003 91750 22200 00091 11203 20602 326// 41203 70016 333 91208 555 11069 22072 31652 41408 61749 145065 140064 142064 142063 144062 141063
BBXX 46042 22181 99368 71224 46/// /1207 10111 40253 51026 91750 22200 00123 11205 20602 331// 41204 70023 333 91209 555 11071 22074 31721 41110 61749 123067 115061 113067 111071 110075 112068
BBXX 46053 22181 99342 71198 46/// /1004 10135 40242 52025 91750 22200 00141 11302 20401 325// 41302 70012 333 91205 555 11037 22038 31727 41005 61749 103035 094038 100043 104041 107034 114038
BBXX 44008 22181 99405 70692 46/// /3007 10118 20086 40161 50000 91750 22200 00114 11007 20703 322// 41006 70034 333 91209 555 11077 22083 31651 43013 61749 303071 300080 303081 301084 300090 294093
BBXX 51000 22181 99235 71541 46/// /0810 10224 40194 51010 91750 22200 00231 10805 20804 331// 41103 70025 333 91212 555 11106 22112 31705 40712 61749 076100 079099 083099 076097 075098 081087
BBXX 51003 22181 99193 71606 46/// /0610 10246 40144 53013 91750 22200 00255 10906 20705 3//// 40905 70032 333 91212 555 11104 22111 31701 40612 61749 057099 056101 058096 058098 056099 053099
AAXX 22181 10004 46/60 /2606 10089 20087 30191 40191 51009 222// 00078 333 10095 20085 55300
AAXX 22181 14648 12970 03612 10055 21068 30037 40159 53014 60002 333 10081
AAXX 22181 14652 11000 90223 11117 21120 37848 48434 52010 60002 74574 333 11112 49074 98/00
AAXX 22181 14542 11920 00000 11022 21036 30055 40254 52017 60002 71011 333 10035 43005 95990
AAXX 22181 10015 01125 82604 10077 20071 30182 40192 53012 60022 72065 876// 222// 02067 333 10087 20061 31006 55300 20000 30000 69907 87702 96010 96445
BBXX OVYB2 22181 99251 30382 41598 60306 10255 20215 40134 54000 70222 8387/ 22263 00260 20201 30000 4//// 5//// 80228
BBXX TBWUK42 22184 99326 30343 41598 83510 10245 20199 40112 53003 70222 884// 22213 20303 3//// 4//// 5//// 80215
BBXX A8SU4 22184 99120 10455 41998 00908 10245 20173 40150 55/// 70100 80000 22224 00250 20000 30000 40000 50000 80200
BBXX DGUG2 22184 99165 70256 41/96 /0721 10245 20186 40140 51005 705// 8//// 22294 04250 20704 80205
BBXX BATFR56 22184 99162 30632 46/// /1324 10257 20230 40132 52005 22213 00284
BBXX BATFR19 22184 99066 30057 46/// /1813 10234 20194 40129 53017 22200 00252
BBXX BATFR05 22184 99063 10034 46/// /2209 10284 20252 40102 53011 22200 00262
BBXX BATFR45 22184 99180 10611 46/// ///// 10244 20144 40162 51018 22284 00269
BBXX ZCBZ5 22183 99278 10511 41797 23009 10193 20086 40216 54000 70122 82/15 22234 02201 20000 333// 40401 5//// 80137
BBXX TBWUK18 22184 99330 30056 41298 71006 10190 20190 40227 52010 70222 877// 22222 20601 319// 41405 5//// 80190
BBXX 3FBC9 22184 99043 71054 41798 61718 10260 40085 55005 70322 86344 9//// 22233 00210 20304 315// 40405 5//// 6//// 80230
BBXX WCX7445 22184 99531 50709 43/// /3022 10104 2//// 40034 5//// 7//// 8//// 22200 00151 2//// 3//// 4//// 5//// 6//// ICE /////
BBXX A8DE3 22183 99069 50808 41397 31407 10214 20198 40157 51003 70141 81130 22243 20101 317// 40706 80203
BBXX 32012 22181 99197 50856 46/// ///// 1//// 91750 22200 11505 70027
AAXX 22184 64810 NIL
AAXX 22184 64820 32460 62408 10280 20250 30101 40110 82532 333 10305 58000 82613 86363 86070
BBXX LAHR7 22184 99475 11591 41497 83214 10005 2101/ 40200 5//// 70222 884// 22214 00020 2//// 3//// 4//// 5//// 6//// 80000 ICE /////
BBXX WRYW 22184 99123 10733 43/// /0205 10260 2020/ 40100 50001 7//// 8//// 22235 00286 20302 305// 40302 5//// 6//// 80220 ICE /////
BBXX C6SI6 22184 99337 11275 46/// /3321 10012 21055 40256 51007 7//// 8//// 22213 0//// 2////
BBXX A8IM7 22184 99310 11350 41298 83415 10150 20097 40140 702// 8/7// 22225 04180 2//05 3//// 4//// 5//// 80120
BBXX ZCAO7 22184 99330 11283 41/98 53420 10050 21019 40226 51030 70311 8//// 22254 00200 2//// 80025
BBXX DDZC2 22184 99324 11579 41398 41417 10200 20169 40110 50040 7//// 8367/ 22264 00190 2//03 3//// 4//// 5//// 80180
BBXX 46070 22181 99551 11753 46/// /3409 10007 21021 40024 56015 91750 22200 00038 10805 20704 3//// 40803 70026 333 91211 555 11093 22098 31659 43016 61749 341088 336092 342097 343094 341110 298107 83113 91659
BBXX SHIP 22183 99231 11266 41/96 80222 10195 2016/ 40165 56010 75055 88/// 22244 00256 2//// 3//// 4//// 5//// 6//// 80175 ICE /////
AAXX 22184 61766 31958 80806 10290 20120 30060 40104 70522 80001 333 10306 58002 88075
AAXX 22184 61769 31958 71403 10286 20150 3//// 4//// 70522 80001 333 10312 5//// 87075
BBXX 41060 22181 99148 70510 46/// ///// 1//// 91750 22200 11406 70030
BBXX 46059 22181 99380 71300 46/// /0705 10120 40283 53005 91750 22200 00142 10804 20401 3//// 40804 70022 333 91206 555 11048 22050 31658 40607 61749 070046 062049 059048 056051 060055 059055
BBXX 46005 22181 99461 71310 46/// ///13 10103 40201 55008 91750 22200 00100 10806 20806 3//// 41203 70032 333 91216 555 11136 22146
BBXX 46075 22181 99539 71608 46/// /0603 10018 21039 40014 58016 91750 22200 00050 11104 20301 300// 41104 70020 333 91204 555 11026 22026 31742 40604 61749 057024 042027 042026 057024 034023 026017 80603 91742
BBXX 46084 22181 99566 71361 46/// /1418 10075 20070 49926 56034 91750 22200 00075 11116 20709 300// 41113 70079 333 91224 555 11195 22208 31658 41625 61749 138183 139182 140174 140174 141179 141192
BBXX 46006 22181 99408 71375 46/// /2309 10135 40241 53019 91750 22200 00124 10806 20805 3//// 40903 70028 333 91211 555 11096 22105 31650 42112 61749 226088 228088 224095 224092 220090 214092
BBXX 46002 22181 99426 71305 46/// ///// 10103 40271 53003 91750 22200 00119 11103 70015
BBXX 42040 22181 99292 70882 46/// /1808 10234 40146 58006 91750 22200 00229 10703 20702 315// 40801 70013 333 91210 555 11084 22091 31700 41711 61749 177084 172085 174086 173089 169091 168093
BBXX 46060 22181 99606 71468 46/// /0107 10003 49822 57051 91750 22200 00056 333 91208 555 11073 22076 31731 43608 61749 008068 357071 007060 018053 013049 036050 83608 91731
BBXX 42059 22181 99151 70675 46/// /0809 10279 20223 40140 58020 91750 22200 00279 10807 20807 70034 333 91211 555 11095 22102 31700 40713 61749 076092 078103 071101 076094 077101 074096 80811 91700
BBXX 44005 22181 99432 70691 46/// /3307 10085 20054 40127 51014 91750 22200 00086 10803 20502 3//// 40802 70016 333 91208 555 11071 22076 31711 43211 61749 324067 325069 324074 321084 322085 317081
BBXX 42019 22181 99279 70954 46/// /0407 10184 20149 40167 51014 91750 22200 10603 20603 310// 40901 70015 333 91209 555 11078 22083 31727 42910 61749 027072 286077 288075 288073 286074 289080
BBXX 42056 22181 99198 70849 46/// /1008 10270 20239 40159 58005 91750 22200 00270 10804 20804 70021 333 91210 555 11089 22095 31742 41010 61749 098083 102080 102085 100083 102083 102081 81009 91742
BBXX 42060 22181 99163 70635 46/// /0611 10265 20209 40158 57019 91750 22200 00276 10706 20706 70030 333 91213 555 11115 22122 31710 40717 61749 061108 061103 067111 072119 075131 068128 80814 91710
BBXX 42036 22181 99285 70845 46/// /1609 10222 20208 40171 58024 91750 22200 00218 10603 20603 318// 41201 70014 333 91211 555 11097 22104 31741 41511 61749 158090 157091 155088 156086 157083 158087
BBXX 42035 22181 99292 70944 46/// /0906 10149 20143 40171 51006 91750 22200 00161 10902 20301 316// 40901 70008 333 91207 555 11059 22062 31659 40708 61749 090056 086063 084066 087069 081066 067069
BBXX 42058 22181 99149 70749 46/// /0913 10274 20225 40115 58017 91750 22200 00277 10907 20505 310// 40904 70034 333 91216 555 11135 22144 31745 40916 61749 092126 091120 093127 092127 092115 087116 81014 91718
BBXX 46105 22181 99590 71522 46/// ///// 1//// 91750 22200 10603 70017
BBXX 42002 22181 99258 70937 46/// /2305 10250 20236 40154 50000 91750 22200 00241 10703 20401 311// 40702 70013 333 91206 555 11049 22052 31743 42306 61749 231048 229045 225048 226043 234040 232036
BBXX 44066 22181 99396 70726 46/// /2605 10126 20078 40187 57013 91750 22200 00129 10904 20401 3//// 40904 70019 333 91206 555 11052 22054 31652 42906 61749 262049 265048 260047 261047 266048 278053
BBXX CGSB 22184 99500 70640 46/// /2818 11008 21040 40065 56009 7//// 8//// 22223 00028 2////
BBXX VOFG 22184 99456 70614 46/// /3120 10049 20047 40036 51017 7//// 8//// 22200 0//// 2////
BBXX CGUM 22184 99454 70609 46/// /3226 10055 20054 40020 58002 7//// 8//// 22211 0//// 2////
BBXX VCRG 22184 99463 70623 46/// /3516 10032 20030 40061 51026 7//// 8//// 22252 00085 2////
BBXX 46041 22181 99474 71247 46/// /1309 10055 40277 55003 91750 22200 00077 11204 20503 3//// 41202 70018 333 91211 555 11095 22100 31722 41312 61749 128092 126092 123096 125097 120087 119089
BBXX 46026 22181 99378 71228 46/// /1007 10113 40262 52026 91750 22200 00115 11304 20402 329// 41303 70019 333 91210 555 11077 22081 31723 42912 61749 103074 283085 286095 286084 286065 287073
BBXX 46061 22181 99602 71468 46/// /3513 10007 49803 56062 91750 22200 00053 10802 20402 300// 40801 70012 333 91217 555 11139 22147 31745 43517 61749 353130 354129 354125 353117 352122 357129
BBXX 51101 22181 99243 71621 46/// /0707 10228 20181 40196 53013 91750 22200 00238 10905 20602 310// 40904 70025 333 91209 555 11077 22081 31715 40810 61749 068072 061073 068075 072079 069075 067071
BBXX 46072 22181 99517 71722 46/// /0212 10012 20003 49952 57008 91750 22200 00048 10605 20604 3//// 41002 70023 333 91214 555 11122 22129 31655 40416 61749 018117 028117 033119 038124 039123 038126 80414 91654
BBXX 46077 22181 99579 71543 46/// /3406 10017 21078 49935 56018 91750 22200 00048 11002 20401 3//// 41001 70008 333 91207 555 11059 22061 31729 43107 61749 333055 320058 313055 312054 310052 319025 83106 91731
BBXX 46082 22181 99597 71434 46/// ///// 10055 49793 56030 91750 22200 00065 10810 70051
BBXX 46035 22181 99571 71778 46/// /0904 1//// 40028 53006 91750 22200 10904 20401 300// 40904 70018 333 91204 555 11035 22037 31730 41005 61749 086035 091042 094042 094034 096040 106041 80905 91730
BBXX 44007 22181 99435 70701 46/// /2806 10097 20026 40132 51008 91750 22200 00078 10702 20501 3//// 40701 70009 333 91208 555 11070 22079 31746 42708 61749 277062 280046 277038 287047 283058 284036
BBXX 41009 22181 99285 70802 46/// /1803 10235 20201 40211 58014 91750 22200 00241 11103 20401 300// 41102 70013 333 91204 555 11035 22037
BBXX 41010 22181 99289 70785 46/// /1706 10238 40217 58015 91750 22200 00239 10703 20402 300// 40702 70014 333 91207 555 11062 22065
BBXX 42057 22181 99168 70815 46/// /0910 10281 20225 40140 58013 91750 22200 00277 10805 20503 3//// 40803 70025 333 91214 555 11104 22111 31704 40919 61749 086103 087099 089097 098123 096141 084108 81016 91705
BBXX 41040 22181 99145 70530 46/// /0608 10267 20206 40139 56021 91750 22200 00279 11406 20704 3//// 41405 70032 333 91210 555 11088 22093 31735 40611 61749 060082 060085 059083 062085 061079 063076 80609 91720
BBXX 42039 22181 99288 70860 46/// /1609 10235 40159 56012 91750 22200 00229 10604 20604 70018 333 91211 555 11099 22107 31702 41614 61749 164092 161097 161102 160101 158109 157103 81612 91705
BBXX CGDS 22184 99450 70746 46/// /2411 10040 21001 4//// 5//// 7//// 8//// 22221 00058 2////
BBXX PHCQ 22183 99299 70902 41/// /3012 10175 20134 40152 52011 78184 8//// 22200 00090 20000 3//// 4//// 5//// 80150
BBXX PBBB 22183 99393 70407 41298 73505 10170 20054 40320 52003 70322 8/736 22263 00180 20302 332// 40907 5//// 80109
BBXX VQAJ8 22183 99340 71230 41998 00515 10125 20085 40244 52011 70200 80000 22252 00158 20402 335// 40603 5//// 80105
BBXX HZRX 22183 99275 70917 41993 82630 /// 10290 20180 40151 55002 70322 80920 22273 10180 20102 32626 40101 5//// 6//// 80180 ///// /////
BBXX UFTA 22181 99848 71240 11196 83203 11232 21258 40059 57012 69902 77773 886//
BBXX 41101 22184 99146 70562 46/// /0621 10267 20218 40128 57024 22200 00270 11007 70035 555 1/027
BBXX ELQQ4 22184 99388 70724 437// 33213 10170 2015/ 40190 5//// 7//// 8//// 22264 00180 205// 3//// 4//// 5//// 6//// 80160 ICE /////
BBXX DDSB2 22183 99365 70461 41598 80812 10170 20079 40300 54000 76022 8/4// 22214 2//03 330// 40907
BBXX 9V8796 22184 99382 70658 41298 62821 10235 20166 40186 56010 70222 8471/ 22224 00233 20806 326// 41106 80190
BBXX WAHG 22183 99538 71356 41595 81444 10070 2005/ 49910 54000 75555 88/2/ 22233 0//// 20505 316// 41009 5//// 6//// 80060 ICE /////
BBXX VCYL 22184 99499 70649 46/// /2816 11007 21032 40069 56011 7//// 8//// 22223 00011 2////
BBXX C6JS 22183 99284 70533 41598 50317 10270 2020/ 40260 54000 70300 852// 22254 20403 334// 40704 5//// 80220
BBXX CGCC 22184 99463 70726 46/// /2402 10002 21012 40152 53008 7//// 8//// 22200 0//// 2////
BBXX VCWL 22184 99456 70735 46/// /2704 10030 21015 40158 53007 7//// 8//// 22200 0//// 2////
BBXX VCBW 22184 99471 70651 46/// /2711 10003 21014 40072 51009 7//// 8//// 22252 00026 2////
BBXX VCSZ 22184 99469 70578 46/// /2917 10046 20048 49995 55004 7//// 8//// 22234 0//// 2////
BBXX CG2965 22184 99487 71235 46/// /3404 10020 20009 40315 56006 7//// 8//// 22200 0//// 2////
BBXX VXKF 22184 99467 70598 46/// /3124 10042 20037 49997 55004 7//// 8//// 22254 0//// 2////
BBXX WGAX 22184 99350 70629 43398 72430 10210 2016/ 40206 58013 7//// 83188 22262 00206 20404 327// 41206 5//// 6//// 80175 ICE /////
BBXX WKAU 22184 99317 70805 41498 31813 10210 2020/ 40182 54000 70211 831// 22242 00180 20401 313// 40401 5//// 6//// 80200 ICE /////
BBXX WBO3345 22184 99196 70693 41697 50724 10272 20242 40150 54/// 70122 85363 22232 0//// 20407 310// 40407 5//// 6//// 80250 ICE /////
BBXX CGBY 22184 99487 71235 46/// /3404 10014 20002 40314 56006 7//// 8//// 22200 0//// 2////
BBXX CGHL 22184 99476 70527 46/// /2214 10047 20038 40045 56083 7//// 8//// 22200 0//// 2////
BBXX 3FZK3 22184 99462 71231 46/// /0509 11007 21008 40295 51027 7//// 8//// 22222 0//// 2////
BBXX CGBN 22184 99447 70636 46/// /3110 10082 20068 40065 51022 7//// 8//// 22200 0//// 2////
BBXX CG2958 22184 99519 71279 46/// /0603 10035 20012 40206 56030 7//// 8//// 22282 0//// 2////
BBXX CZ9742 22184 99506 70969 46/// /1902 11059 21105 40243 58005 7//// 8//// 22200 0//// 2////
BBXX VOKJ 22184 99457 70735 46/// /2512 10022 21019 40153 53008 7//// 8//// 22252 0//// 2////
BBXX VOPP 22184 99456 70735 46/// /2404 10027 21018 4//// 5//// 7//// 8//// 22200 0//// 2////
BBXX VCLM 22184 99468 70712 46/// /2606 10014 21020 40136 51003 7//// 8//// 22200 0//// 2////
BBXX CGTF 22184 99476 70527 46/// /1312 10044 20035 40046 56082 7//// 8//// 22200 0//// 2////
BBXX VOLG 22184 99446 70636 46/// /3306 10086 20072 40063 51021 7//// 8//// 22200 0//// 2////
BBXX CGBR 22184 99526 71285 46/// /0103 10048 20046 40194 56040 7//// 8//// 22200 0//// 2////
BBXX CGDT 22184 99468 70712 46/// /2407 10007 21020 40140 53003 7//// 8//// 22200 0//// 2////
BBXX VAAP 22184 99446 70635 46/// /3109 10085 20073 40049 53020 7//// 8//// 22200 0//// 2////
BBXX CGDX 22184 99490 70669 46/// /2410 11005 21028 40092 58001 7//// 8//// 22200 0//// 2////
BBXX VOKF 22184 99490 70669 46/// /2417 11007 21032 40086 58002 7//// 8//// 22200 0//// 2////
BBXX CGDR 22184 99492 71239 46/// /1705 10036 20027 40314 56008 7//// 8//// 22261 00101 2////
BBXX CGDG 22184 99447 70636 46/// /3310 10076 20159 40064 51020 7//// 8//// 22200 0//// 2////
BBXX CGJK 22184 99484 71234 46/// /0107 10041 20019 40307 56009 7//// 8//// 22200 0//// 2////
BBXX WGJT 22184 99220 70702 43698 41424 10267 2021/ 40189 57016 7//// 84470 22234 00244 20605 314// 41007 5//// 6//// 80228 ICE /////
BBXX WSRL 22184 99340 71460 41498 81613 10185 2016/ 40253 53013 70222 824/7 22214 00194 2//// 32813 40905 50604 6//// 80170 ICE /////
BBXX WSLH 22184 99430 71333 41497 82128 10130 2007/ 40230 54000 71522 8864/ 22215 00100 20902 327// 41406 5//// 6//// 80100 ICE /////
BBXX WDJK 22184 99463 71306 41597 71925 10102 20089 40214 57009 70211 87140 22274 00100 20603 32421 41006 51005 6//// 80095 ICE /////
BBXX C6LU3 22183 99418 70375 41598 73315 10125 2006/ 40345 53010 70211 87200 22214 20403 331// 40906 80090
BBXX VOXS 22184 99467 70480 41898 81725 10028 2000/ 40202 57040 70322 8803/ 22200 04020 20503 326// 40705 80018
BBXX 46014 22181 99394 71240 46/// /1004 10095 40272 53026 91750 22200 00105 11304 20401 3//// 41304 70021 333 91205 555 11042 22043 31711 40907 61749 094040 086047 089050 089053 089051 092049
BBXX 46050 22181 99442 71246 46/// /0706 10072 40274 53004 91750 22200 00096 11304 20402 327// 41303 70018 333 91207 555 11061 22063 31705 40910 61749 072057 077069 085077 088078 096081 092080
BBXX 46069 22181 99337 71202 46/// /0812 10142 40238 51026 91750 22200 00141 11304 20302 331// 41304 70021 333 91215 555 11129 22138 31737 40716 61749 074122 073127 076111 086084 091079 093059
BBXX 46012 22181 99374 71229 46/// /0508 10124 40260 53023 91750 22200 00118 11305 20602 329// 41304 70024 333 91210 555 11089 22097 31650 40511 61749 046083 049076 046075 045077 051077 048088
BBXX 46086 22181 99325 71180 46/// /0203 10144 40233 51027 91750 22200 00150 11404 20301 328// 41403 70018 333 91204 555 11031 22032 31748 40204 61749 025030 033018 026015 032011 026012 044013
BBXX 46047 22181 99324 71195 46/// /0606 10133 40236 51026 91750 22200 00134 11304 20501 329// 41304 70021 333 91207 555 11058 22062 31726 40508 61749 059054 046046 044050 027043 027040 021036
BBXX 46027 22181 99419 71244 46/// /1303 10094 40271 53014 91750 22200 00088 11204 20301 329// 41204 70020 333 91205 555 11037 22042 31650 41207 61749 125033 131035 128035 125037 127045 124049
BBXX 46088 22181 99483 71232 46/// /0705 10043 40301 91750 22200 00077 1//00 70002 333 91206 555 11050 22052 31707 40607 61749 072048 084044 071046 064045 056049 053051
BBXX 46011 22181 99350 71210 46/// /0708 10121 40247 51029 91750 22200 00137 11304 20601 329// 41304 70022 333 91209 555 11079 22083 31733 40810 61749 068077 068080 068074 069071 072067 077060
BBXX 46025 22181 99337 71191 46/// /0707 10147 40237 51029 91750 22200 00151 11402 20301 327// 41402 70011 333 91208 555 11070 22074 31653 40610 61749 069066 069073 062077 058081 060081 063085
BBXX 46028 22181 99357 71219 46/// /0803 10130 40240 53026 91750 22200 00126 11405 20401 331// 41405 70025 333 91205 555 11037 22042 31715 41205 61749 080034 093034 099039 113039 129037 133038
BBXX 46054 22181 99342 71204 46/// /1209 1//// 91750 555 11098 22105
BBXX 46029 22181 99461 71245 46/// /1106 10061 20014 40276 57004 91750 22200 00076 11303 20401 328// 41303 70016 333 91207 555 11062 22065 31701 41007 61749 107059 105058 101057 101059 102062 105061
BBXX 46087 22181 99485 71247 46/// /1112 10055 20030 40283 56012 91750 22200 00076 333 91214 555 11125 22132 31747 41114 61749 112118 111116 109113 111109 100101 106110
BBXX 46013 22181 99382 71233 46/// /1005 10127 40265 51030 91750 22200 00114 11204 20401 3//// 41204 70021 333 91206 555 11052 22059 31721 40908 61749 098047 097056 093065 097056 101055 110053
BBXX 46088 22181 99483 71232 46/// /0705 10043 40301 56008 91750 22200 00077 1//00 70002 333 91206 555 11050 22052 31707 40607 61749 072048 084044 071046 064045 056049 053051
BBXX 44020 22181 99414 70702 46/// /2605 10099 20064 40154 50007 91750 22200 00076 10401 20401 70004 333 91205 555 11050 22053 31704 42607 61749 262047 268040 267045 264055 262062 262061
BBXX 44065 22181 99404 70737 46/// /2905 10118 20064 40182 55015 91750 22200 00101 10802 20501 315// 40802 70012 333 91206 555 11058 22067 31748 42906 61749 292052 287045 276048 273049 278051 279047 82905 91749
BBXX 41013 22181 99334 70777 46/// /2106 10212 20183 40199 58023 91750 22200 00189 10703 20602 318// 40702 70016 333 91209 555 11072 22082 31744 42109 61749 207062 194051 208043 206035 193056 205051
BBXX 44027 22181 99443 70673 46/// /3008 10064 20031 40109 53012 91750 22200 00084 10803 20402 3//// 40802 70014 333 91209 555 11084 22088 31704 43010 61749 301079 298081 297086 293083 295089 294087
BBXX 44040 22181 99410 70736 46/// /3005 10121 20049 40184 91745 22200 1//00 70000 333 91206 555 11062 22072
BBXX 41001 22181 99347 70727 46/// ///// 10204 20185 40221 58014 91750 22200 00221 10806 70029
BBXX 42020 22181 99270 70967 46/// /3508 10169 20144 40178 51010 91750 22200 00233 10603 20603 312// 40801 70014 333 91211 555 11088 22092 31656 43511 61749 350084 351086 352087 357088 355090 355092
BBXX 42001 22181 99259 70897 46/// /1808 10248 20223 40178 52003 91750 22200 00252 10803 20502 3//// 40801 70013 333 91210 555 11085 22090 31707 41611 61749 183080 178082 173083 169082 167091 166090
BBXX 44009 22181 99385 70747 46/// /1602 10124 40202 57023 91750 22200 00119 10702 20401 300// 40702 70012 333 91203 555 11027 22032 31745 41603 61749 160024 162015 166008 144003 075003 113008
BBXX 44014 22181 99366 70748 46/// /2003 1//// 40195 58019 91750 22200 00145 10803 20401 316// 40803 70015 333 91204 555 11031 22031 31728 41804 61749 198032 194034 182032 181029 187029 181032
BBXX 41004 22181 99325 70791 46/// /1907 10211 20184 40204 58021 91750 22200 00214 10603 20603 3//// 41001 70015 333 91209 555 11076 22080 31735 41811 61749 188071 184081 202049 208048 208049 205047
BBXX 42012 22181 99301 70876 46/// /1610 10220 20215 40139 58014 91750 22200 00207 10703 20703 70015 333 91213 555 11110 22120 31743 41613 61749 157102 155099 154098 158104 158096 156091
BBXX 44025 22181 99402 70732 46/// /2505 10112 20081 40181 55011 91750 22200 00108 10804 20401 317// 40804 70019 333 91205 555 11050 22055 31715 42406 61749 248046 245045 242045 244048 243044 250041
BBXX 41048 22181 99320 70696 46/// /2007 10226 20140 40257 58018 91750 22200 00228 11002 20401 3//// 41002 70011 333 91208 555 11066 22070 31706 42109 61749 197067 199069 206066 207073 205079 207077 82108 91706
BBXX 41008 22181 99314 70809 46/// /1704 10181 20171 40197 58023 91750 22200 00165 10602 20401 300// 40601 70008 333 91204 555 11042 22049 31713 42006 61749 168037 179042 187043 193051 204045 193041
BBXX 46080 22181 99580 71500 46/// /3216 10027 21028 49837 56034 91750 22200 00054 10707 20707 70036 333 91219 555 11167 22177 31734 43219 61749 317156 318159 319157 320148 323148 323143 83217 91728
BBXX 41044 22181 99217 70587 46/// /0710 10245 20169 40207 56018 91750 22200 00264 10807 20806 300// 41004 70033 333 91212 555 11105 22111 31739 40713 61749 066099 074101 078091 076091 081092 081098 80611 91740
BBXX 42065 22181 99149 70750 46/// /0709 10274 20236 91750 22200 11006 20605 3//// 41004 70031 333 91212 555 11100 22106 31653 40713 61749 070095 071097 076086 075095 074099 072099 80811 91703
BBXX 42055 22181 99222 70940 46/// /1604 10259 20226 40149 51011 91750 22200 00253 10802 20401 307// 40801 70008 333 91205 555 11044 22050 31712 41606 61749 158039 158042 156045 157051 160050 160050 81606 91712
BBXX 41036 22181 99342 70770 46/// ///// 10203 20177 40201 58022 91750 22200 00187 10703 70015
BBXX 42003 22181 99260 70856 46/// /1408 1//// 91750 22200 10602 20602 315// 40801 70012 333 91209 555 11080 22085 31654 41509 61749 144075 142077 145073 139071 140074 144077 81408 91738
BBXX 41047 22181 99275 70715 46/// /1210 10224 40246 58017 91750 22200 00248 10704 20704 305// 41302 70020 333 91212 555 11103 22108 31745 41212 61749 120102 123102 118089 121087 130082 127080 81211 91734
BBXX 41049 22181 99275 70630 46/// /0506 10222 20140 40260 58024 91750 22200 00236 11004 20602 300// 41003 70020 333 91207 555 11067 22071 31657 40709 61749 053064 058062 058063 056070 054073 062079 80608 91657
BBXX 41043 22181 99211 70650 46/// /0910 10251 20195 40205 58023 91750 22200 00261 10907 20705 300// 40904 70033 333 91212 555 11111 22118 31712 40914 61749 088103 087109 085108 083113 082110 082108 80812 91657
BBXX 41012 22181 99300 70805 46/// /1906 10216 40199 58024 91750 22200 00227 10602 20401 311// 40602 70011 333 91206 555 11058 22060 31650 41906 61749 192054 197052 205048 213042 219041 222040
BBXX VCXF 22184 99464 70484 41998 81734 10031 2001/ 40181 57049 70222 8801/ 22200 02024 20504 33425 40804 50802 80022
BBXX BAREU04 22184 99458 70563 46/// ///// 49990 57049 22263
BBXX BAREU06 22184 99445 70441 46/// ///// 40275 57010 22224
BBXX BAREU11 22184 99365 70462 46/// ///// 40301 57002 22214
BBXX BAREU54 22184 99152 70753 46/// ///// 40112 57013 22213
BBXX WSNB 22184 99495 71349 41197 81944 00/// 10100 2009/ 49958 56004 75352 886// 22232 0//// 20617 319// 40812 5//// 6//// 80093 ICE /////
BBXX NWS0022 22184 99416 70714 43/// /3113 10147 20037 40155 5//// 7//// 8//// 222// 04117 2//// 3//// 4//// 5//// 6//// 8//// ICE /////
BBXX 9HXC9 22184 99197 70699 41497 50718 10281 20192 40164 55003 7//11 85010 22275 06274 20604 3//// 40803 5//// 6//// 80220 ICE /////
BBXX PDBP 22183 99340 70409 41498 70419 10190 20142 40263 56007 71522 86268 22224 04209 20604 30733 41205 51104 80160
BBXX A8SI3 22183 99546 71659 43398 8//// 10040 2104/ 40080 58008 22264 00040 80010
BBXX C6XP7 22183 99221 70711 41298 61220 10250 20236 40190 51/// 75051 8427/ 22274 00250 20303 327// 4//// 5//// 6//// 80240 ICE /////
BBXX KRGB 22184 99360 71283 41/98 70111 10128 2011/ 40259 52012 7//22 87/// 22254 00117 20902 333// 41205 5//// 6//// 80117 ICE /////
BBXX KGTZ 22184 99492 71269 41698 41434 10067 2001/ 40236 52003 70111 821/6 22234 00089 20607 3//// 4//// 5//// 6//// 80044 ICE /////
BBXX FVNM 22184 99089 70795 46/// /1806 10297 20242 40080 58024 22200 00279
BBXX P3GY9 22184 99075 70539 41697 70830 10290 2025/ 40110 57025 70322 87992 22231 00290 20807 305// 41205 5//// 6//// 80260 ICE /////
BBXX WDC6698 22184 99091 71462 43/// /0514 1//// 2//// 40090 5//// 7//// 8//// 222// 04254 2//// 3//// 4//// 5//// 6//// 8//// ICE /////
BBXX CG2960 22184 99423 70830 46/// /2905 10059 20000 4//// 5//// 7//// 8//// 22200 0//// 2////
BBXX CG2350 22184 99433 70798 46/// /2309 10059 20015 40176 50001 7//// 8//// 22200 0//// 2////
BBXX DBLK 22181 99705 50081 41498 62205 11015 21045 49841 52007 70222 81538 22200 05014 ICE 18780
BBXX BATFR08 22184 99365 30759 46/// /2218 10164 20142 40268 51012 22273 00167
BBXX BATEU07 22184 99169 31085 46/// /1819 10255 40065 58019 22284
BBXX C6XC2 22184 99024 31327 41498 83310 10260 20232 40040 57010 70222 8725/ 22200 00300 2//// 3//// 4//// 5//// 6//// 80240 ICE /////
BBXX BATFR53 22184 99188 51711 44598 40712 10274 20225 40083 51011 70200 83232 22222 00282 20102 307// 403// 5//// 60/// ICE 0////
BBXX PCHM 22184 99440 31667 41898 51404 10140 20140 40258 55003 70222 84012 22233 00160 20101 30000 80140
BBXX DBBC 22181 99535 10100 46/// /2803 10072 2//// 40188 52017 22270 00037
BBXX DBND 22181 99536 10486 46/// /2604 10079 20078 40193 52013 22250 00053
BBXX DBJM 22181 99542 10076 46/// /2606 10081 20073 40191 52012 22223 00075
BBXX DBEB 22181 99539 10079 41/// /2508 10063 20063 40191 52015 7//// 22200 00062
BBXX DBFH 22181 99535 10086 46/// /2502 10085 20079 40195 52014 22200 00045
BBXX DBBI 22181 99535 10100 46/// /2803 10068 20068 40186 52017 22260 00031
BBXX DBBA 22181 99541 10121 46/// /1602 10043 20042 40178 52003 22220 00050
BBXX DBKR 22181 99541 10121 46/// /1803 10044 20044 40177 52002 22200 00047
BBXX TFSRT 22184 99633 70203 46/// ///// 22200 10807 70037
BBXX TFSTD 22184 99664 70234 46/// ///// 22200 10705 70027
BBXX TFBLK 22184 99657 70248 46/// ///// 22200 10908 70039
BBXX TFKGR 22184 99657 70136 46/// ///// 22200 10703 70014
BBXX TFHFN 22184 99642 70152 46/// ///// 22200 10906 70032
BBXX TFGRS 22184 99663 70182 46/// ///// 22200 10603 70016
BBXX TFBKF 22184 99635 70202 46/// ///// 22200 10705 70024
BBXX TFDRN 22184 99658 70212 46/// ///// 22200 10603 70015
BBXX TFGSK 22184 99641 70229 46/// ///// 22200 10705 70026
BBXX TFGRV 22184 99638 70225 46/// ///// 22200 11005 70025
BBXX A8SI8 22184 99367 10130 43498 53325 10130 2008/ 40215 51040 22275 00190 80080
BBXX VRYO3 22184 99497 70289 46/// /1117 10068 20077 40215 51031 7//// 8//// 22264 00120 2////
BBXX DK7210 22181 99540 10066 46/// /2708 10093 20093 30172 222// 20503 70013
BBXX WCZ5535 22184 99341 70278 41497 41515 10215 2019/ 40225 51010 7//22 842// 22223 0//// 2//// 3//// 4//// 5//// 6//// 80195 ICE /////
AAXX 22184 04005 22489 63604 11007 21065 49796 57167 86800 333 11007 21019 69908 555 3/204
AAXX 22184 04018 22380 70124 10005 21027 49734 57022 70272 81770 333 10011 20005 69938 555 3//24 81709 85359 87362
AAXX 22184 04030 22684 70108 10015 21026 49723 57027 875/5 333 10057 20006 69928 555 3//11 81633 87660 81266
AAXX 22184 04048 NIL
AAXX 22184 04063 32782 82906 11008 21047 49766 57031 8352/ 333 10030 21015 555 3//07
AAXX 22184 04077 NIL
AAXX 22184 04082 NIL
AAXX 22184 04097 31682 80113 10025 21011 49741 57055 71522 8472/ 333 10092 20025 555 3/313
BBXX UANA 22181 99696 10523 41/98 12104 10018 40102 50000 70110 80000 22252 00021 20201
BBXX PDNN 22183 99471 70153 41298 52028 10135 20127 40229 52005 70011 84130 22223 02134 20406 320// 40806 80130 90663
AAXX 22184 91925 02580 31014 10283 20192 30061 40121 51021 60001 83200 333 56200 60007 83823 90710 91122 555 60005 11022 58007
AAXX 22184 91929 04583 71206 10254 20215 30106 40109 51017 69902 700// 333 10267 20248 69907 90710 91118 555 69905
AAXX 22184 91938 01465 72605 10242 20209 30120 40122 53012 60032 761// 8397/ 333 10250 20225 69987 81915 86360 90710 91112 555 69925 10913 58007
AAXX 22184 91943 16/// /0410 10265 20219 30119 40121 51016 60052 333 10265 58006
AAXX 22184 91944 06/// /0810 10265 20208 30138 40141 51017 60032 333 10273 20233 60017 90710 91137 555 60015
AAXX 22184 91948 02582 20908 10264 20185 30090 40192 51011 60001 81201 333 56100 60007 81820 90710 91118 555 60005 11118 58008
AAXX 22184 91954 06/// /0616 10253 20216 30156 40159 51019 60051 333 60057 555 58010
AAXX 22184 91958 01481 30608 10262 20223 30183 40185 51013 69981 70186 83200 333 56100 69947 83818 90710 91112 555 60005 10612 58005
AAXX 22184 91945 NIL
AAXX 22184 68328 42960 22404 10300 20196 48495 52020 82080 333 10345
AAXX 22181 38353 429// 00000 11177 21203 39438 40437 58020 333 11105
AAXX 22181 38613 429// 00101 11084 21126 40380 57007 333 11040
AAXX 22181 38616 429// 00000 11097 21123 39306 40398 56008 333 11043
AAXX 22181 38345 32998 00901 11144 21195 38880 48548 57007 333 11064
AAXX 22181 36911 429// 00000 11174 21193 39367 40434 58018 333 11116
AAXX 22181 36974 329// 00901 11189 21215 38068 48651 51001 333 11130
AAXX 22181 36982 429// 00000 11225 21275 36561 47242 52001 333 11147
AAXX 22181 76040 32960 03104 10133 21003 30245 40260 52029 91740 333 10207 20050 30/// 58081 98660
AAXX 22181 76055 32980 03315 10146 20041 30207 40226 53038 91740 333 10212 20073 30/// 58068
AAXX 22181 76113 32980 03001 10128 20067 39719 40190 52010 91745 333 10135 20030 30/// 58041
AAXX 22181 76122 32670 11401 10082 21008 38552 40223 57005 81100 91750 333 10090 21008 30/// 56700 58054 81834
AAXX 22181 76123 06/// 10802 10110 21030 3//// 4//// 5//// 60002 7//// 81100 91750 333 0//// 10115 21016 56700 57/// 5//// 60007 81834 8//// 8//// 8//// 9//// 9//// 9//// 444 ///// 555
AAXX 22181 76220 31/02 /0000 11017 21017 38164 40313 52008 91750 333 11017 21094 30/// 58066
AAXX 22181 76225 32960 00901 10101 21023 38650 40215 57006 91745 333 10101 21016 30/// 58070
AAXX 22181 76256 32980 00402 10173 20109 30197 40211 52001 91745 333 10179 20076 31/// 58029
AAXX 22181 76305 32970 03303 10198 20090 30186 40194 51002 91740 333 10202 20088 30/// 59027
AAXX 22181 76323 32970 00901 10102 21010 38286 40281 50008 91755 333 10120 21031 30/// 58070
AAXX 22181 76342 32962 00701 10200 20033 39515 40239 52012 91755 333 10203 20076 30/// 58046
AAXX 22181 76373 32965 00000 10071 21111 38208 40155 57014 91750 333 10180 21078 30/// 58046
AAXX 22181 76390 31966 01805 10143 21048 38237 40173 52006 70544 91730 333 10156 20032 30/// 54307 58038
AAXX 22181 76393 31910 11201 10210 20082 39600 40184 52010 70544 81010 91745 333 10222 20106 30/// 56030 58033
AAXX 22181 76402 31962 00205 10204 20095 30132 40191 52006 70544 91745 333 10204 20080 30/// 58018
AAXX 22181 76458 32970 32504 10198 20141 30152 40157 57004 80004 91738 333 10221 20094 30/// 56//3 58004 83072
AAXX 22181 76471 32980 42102 10154 21002 37680 40130 57002 80005 91750 333 10160 20040 30/// 56005 59020 84075
AAXX 22181 76490 06/// /0203 10238 20092 39786 40169 50005 60002 7//// 8//// 91750 333 0//// 10238 20126 30/// 54/// 56/// 57/// 58028 60007 8//// 8//// 8//// 8//// 9//// 9//// 9//// 44
AAXX 22181 76491 32960 33603 10225 20130 39802 40196 52006 80009 91750 333 10230 20106 30/// 56009 58026 83177
AAXX 22181 76499 31560 40000 10230 20125 30149 40171 52013 70122 84230 91750 333 10232 20167 30/// 56590 58028 82820 82357
AAXX 22181 76525 32980 72211 10086 20032 37465 40170 52005 80006 91740 333 10086 20050 30/// 56//5 58018 87080
AAXX 22181 76539 32970 02703 10189 20095 38161 40162 52004 91750 333 10252 20039 30/// 58020
AAXX 22181 76543 31670 83606 10217 20175 30148 40180 50004 70544 885// 91750 333 10230 20162 30/// 563// 58017 88640
AAXX 22181 76547 06/// /0306 10229 20184 30149 40161 50009 60002 7//// 8//// 91750 333 0//// 10241 20187 56/// 57/// 58016 60007 8//// 8//// 8//// 8//// 9//// 9//// 9//// 444 ///// 555
AAXX 22181 76548 31468 70205 10228 20183 30161 40171 51013 70544 8213/ 91750 333 10236 20186 30/// 5611/ 58013 82813 85357
AAXX 22181 76556 32970 70703 10226 20144 39122 40152 51002 80006 91735 333 10235 20115 30/// 56007 58009 87070
AAXX 22181 76571 32875 42402 10190 20049 38169 40184 57005 80004 91755 333 10192 20050 30/// 56005 58018
AAXX 22181 76577 32970 72304 10175 20133 38051 40177 58003 80004 91740 333 10181 20081 30/// 56005 58016 87081
AAXX 22181 76581 32970 50802 10214 20155 39040 40156 57006 85030 91750 333 10222 20089 30/// 56030 58023 85360
AAXX 22181 76586 06/// /1302 10264 20189 30000 40152 50012 60002 7//// 8//// 91750 333 0//// 10264 20134 30/// 4//// 54/// 56/// 57/// 58008 60007 8//// 8//// 8//// 9//// 9//// 9//// 44
AAXX 22181 76592 06/// /1409 10287 21013 30145 40145 58012 60002 7//// 8//// 91750 333 0//// 10307 20220 30/// 4//// 54/// 56/// 57/// 58004 60007 8//// 8//// 8//// 9//// 9//// 9//// 44
AAXX 22181 76593 32470 51804 10282 20255 30145 40147 58013 83260 91750 333 10307 20210 30/// 5644/ 58003 83824 82330 91006 91518
AAXX 22181 76612 32962 40000 10192 20093 38479 40169 58004 80005 91750 333 10213 20075 30/// 56006 58016 84272
AAXX 22181 76625 32960 63602 10212 20059 38146 40136 57011 83076 91750 333 10215 20093 30/// 56055 58016 83360
AAXX 22181 76632 32568 22504 10178 20112 37625 40122 57026 82400 91745 333 10182 20080 30/// 56500 58013 82634
AAXX 22181 76634 31670 50201 10226 20036 37854 40153 57006 70522 81105 91750 333 10226 20096 30/// 563/7 58019 81834 84069
AAXX 22181 76641 06/// /1202 10242 20214 30143 40155 50012 60002 7//// 8//// 91750 333 0//// 10242 20192 30/// 4//// 54/// 56/// 57/// 58006 60007 8//// 8//// 8//// 8//// 9//// 9//// 9/
AAXX 22181 76644 32460 71404 10294 20216 30141 40154 57003 84200 91750 333 10300 20218 30/// 563// 59002 84810 86610
AAXX 22181 76645 06/// /1305 10296 20217 30137 40150 58011 60002 7//// 8//// 91750 333 0//// 10301 20220 30/// 4//// 54/// 56/// 57/// 58005 60007 8//// 8//// 8//// 9//// 9//// 9//// 44
AAXX 22181 76648 06/// /1802 10279 20224 30123 40153 58011 60002 7//// 8//// 91750 333 0//// 10298 20204 30/// 4//// 54/// 56/// 57/// 58006 60007 8//// 8//// 8//// 8//// 9//// 9//// 9/
AAXX 22181 76654 31956 42702 10280 20210 30138 40142 57005 70544 80001 91755 333 10283 20216 30/// 5600/ 58009 84070
AAXX 22181 76658 31956 63202 10284 20161 39629 40134 56012 70542 80002 91748 333 10290 20168 30/// 56001 59001 86070 98924
AAXX 22181 76662 32970 40401 10210 20104 38469 40174 57002 80005 91740 333 10230 20038 30/// 5600/ 58014 84070
AAXX 22181 76665 32962 02402 10228 20068 38127 40178 57002 91750 333 10270 20066 30/// 58013
AAXX 22181 76675 31975 22502 10179 20013 37384 40196 54000 70541 80004 91752 333 10186 21002 30/// 56//9 58017 98475
AAXX 22181 76680 31862 53601 10193 20043 37757 40084 57010 70511 82011 91755 333 10198 20090 30/// 58016 83070
AAXX 22181 76681 31965 03602 10210 20093 37779 40159 57010 70500 91745 333 10210 20050 30/// 58013
AAXX 22181 76683 32968 21601 10202 20097 37831 40204 56014 80005 91745 333 10210 20040 30/// 56005 58011 82080
AAXX 22181 76685 31950 13601 10208 20024 37875 40152 57002 70544 81001 91745 333 10210 20060 30/// 56009 58016 81077
AAXX 22181 76687 31570 20701 10240 20136 38674 40156 56004 70500 81105 91738 333 10243 20116 30/// 563/6 58004 81830 81070
AAXX 22181 76692 31456 31603 10270 20218 30117 40136 58003 70544 8310/ 91745 333 10283 20208 30/// 563// 59007 82817 81640
AAXX 22181 76693 06/// /1301 10274 20218 30116 40135 58008 60002 7//// 8//// 91750 333 0//// 10280 20208 30/// 4//// 56/// 57/// 59006 60007 8//// 8//// 8//// 8//// 9//// 9//// 9//// 44
AAXX 22181 76695 32960 00902 10310 20215 30121 40127 57010 91748 333 10314 20194 30/// 58003 91007 91509
AAXX 22181 76726 32970 02201 10253 20151 38408 40131 52013 91740 333 10253 20134 30/// 58021
AAXX 22181 76737 31480 31802 10261 20173 38765 40125 50004 70320 81104 91735 333 10265 20142 30/// 56209 58001 81813 82080 91111 91523
AAXX 22181 76738 06/// /2302 10274 20161 38763 40088 50001 60002 7//// 8//// 333 10276 20136 30/// 56/// 57/// 58001 60007 8//// 8//// 8//// 8//// 9//// 9//// 9//// 444 ///// 555 30193
AAXX 22181 76743 31357 30901 10271 20254 30116 40124 57010 70211 838// 91745 333 10293 20205 30/// 56200 59005 83807
AAXX 22181 76750 32560 20904 10300 20239 30140 40150 57007 82100 91750 333 10310 20232 30/// 56200 58007 82820
AAXX 22181 76751 06/// /1104 10304 20246 30140 40150 58007 60002 7//// 8//// 91750 333 0//// 10309 20234 30/// 4//// 54/// 56/// 57/// 58007 60007 8//// 8//// 8//// 9//// 9//// 9//// 44
AAXX 22181 76762 32904 13201 10274 20220 38763 40164 51008 80005 91730 333 10276 20128 30/// 56001 58023 81070
AAXX 22181 76772 06/// /2602 10253 20084 38431 40097 58011 60002 7//// 8//// 91750 333 0//// 10255 20090 30/// 4//// 56/// 57/// 58012 60007 8//// 8//// 8//// 9//// 9//// 9//// 444 ////
AAXX 22181 76773 31568 33601 10244 20085 38426 40153 57012 7050/ 81206 91746 333 10252 20090 30/// 56909 58009 81820
AAXX 22181 76775 31965 02201 10265 20097 38521 40161 57009 70000 91745 333 10314 20110 30/// 58001
AAXX 22181 76805 32770 42402 10300 20231 30117 40121 56008 82034 91745 333 10311 20218 30/// 56/6/ 58008 82342 82068
AAXX 22181 76806 06/// /2202 10302 20228 30116 40120 58014 60002 7//// 8//// 91750 333 10314 20210 30/// 56/// 57/// 58002 60007 8//// 8//// 8//// 8//// 9//// 9//// 9//// 555 30271
AAXX 22181 76833 32970 01404 10310 20229 30112 40114 57009 91745 333 10310 20186 30/// 58009 92001
AAXX 22181 76840 32950 00000 10334 20236 30059 40115 57009 80000 91740 333 10345 20180 30/// 56000 58012 80000
AAXX 22181 76843 32965 03601 10266 20190 39485 40126 57012 91730 333 10278 20180 30/// 58008
AAXX 22181 76845 32560 30601 10218 20147 37946 40167 56013 83200 91745 333 10234 20048 30/// 56200 58007 83827
AAXX 22181 76848 32770 10501 10252 20112 38381 40098 58006 81100 91755 333 10256 20091 30/// 56100 58010 81850
AAXX 22181 76902 06/// /2502 10328 20198 39988 40123 58010 60002 7//// 8//// 91750 333 0//// 10330 20231 30/// 4//// 54/// 56/// 57/// 58010 60007 8//// 8//// 8//// 8//// 9//// 9//// 9/
AAXX 22181 76903 32981 02202 10327 20189 39990 40120 57009 91740 333 10340 20237 30/// 58013
AAXX 22181 76160 32962 00201 10144 20082 39952 40207 52003 91730 333 10144 20050 30/// 58029
AAXX 22181 76243 32974 02601 10142 20069 39899 40202 52008 91750 333 10154 20046 30/// 58024
AAXX 22181 76311 32980 00000 10182 20069 39895 40183 50002 91740 333 10182 20041 30/// 58024
AAXX 22181 76405 32970 23603 10190 20115 30169 40191 52011 82030 91750 333 10190 20128 30/// 56080 58017 82356
AAXX 22181 76412 32966 02201 10220 20043 30142 40187 52005 91750 333 10230 20078 30/// 58007
AAXX 22181 76640 31258 83201 10228 20113 30161 40173 52020 70222 8442/ 91740 333 10240 20194 30/// 5679/ 58003 84606 84440
AAXX 22181 76647 01465 71802 10278 20230 30132 40163 58007 69901 72122 8522/ 91750 333 10291 20206 31/// 563// 58005 69907 85219 82458
AAXX 22181 76656 32975 70000 10220 20090 38513 40188 58007 80007 91750 333 10228 20067 30/// 56005 58016 87280
AAXX 22181 76698 32560 41203 10292 20252 30141 40152 57010 84200 91750 333 10309 20224 30/// 56300 58006 84820
AAXX 22181 76855 32580 22301 10318 20233 30057 40106 51006 81208 91745 333 10322 20210 30/// 56909 59006 81820 92000
AAXX 22181 15502 11566 80000 10006 20000 30173 40214 53015 69902 77172 8802/ 333 10023 21030 555 596// 61899 71800
AAXX 22181 15525 11556 80000 11018 21026 39926 40202 53012 60042 77177 8657/ 333 10004 21018 47005 555 59401 69999 71854
AAXX 22181 15528 11510 80000 11018 21023 39995 40192 52013 60042 77377 8802/ 333 10004 21018 43003 555 59602 69999 71851
AAXX 22181 15535 11504 80702 10005 20002 30136 40184 52010 60052 77377 8802/ 333 10008 21002 47003 555 59803 69999
AAXX 22181 15549 11435 80509 11005 21015 39757 40186 53008 60072 77377 8872/ 333 11002 21018 47014 555 59202 69999 71854
AAXX 22181 15552 11460 83610 10042 20032 30095 40145 57002 60032 76166 8802/ 222// 2//01 314// 4//01 333 10046 20020 555 59302 69999 71855 92026 92427
AAXX 22181 15614 11530 80000 11026 21037 39458 40189 52020 60082 77177 8802/ 333 11007 21034 47014 555 591// 69999 71848
AAXX 22181 15615 11/00 90514 11118 21132 36996 47919 52007 60142 77177 333 11015 21162 91118 92993 555 589// 69999 71851 92717
AAXX 22181 15626 11/04 92703 10006 20006 39966 40160 52011 60142 77274 333 10014 20002 47016 555 50001 69999
AAXX 22181 15627 11/01 90712 11121 21136 37523 47937 53013 60042 77147 333 11085 21122 48017 93512 555 589// 69999 92713
AAXX 22181 15640 11556 83610 10024 21028 39820 40139 53001 60032 77176 8802/ 333 10048 20012 555 56901 69999 71841
AAXX 22181 15655 11470 80214 10050 20020 30096 40129 53002 60032 70262 885// 222// 00083 20503 333 10051 20038 91120 555 58100 69199 71800 92048 92448
AAXX 22181 15712 11670 73202 10018 21019 39861 40117 53015 60072 70172 87500 333 10021 20000 47009 555 577// 71859
AAXX 22181 15730 11550 83404 10004 20004 39736 40138 53009 60112 77174 8802/ 333 10008 21001 47015 91118 555 50003 69999 71860
AAXX 22184 93004 16/// /1410 10152 20136 40231 54000 60001
AAXX 22184 93023 16/// /2005 10136 20127 40236 57002 60001
AAXX 22184 93069 16/// /1109 10156 20130 40232 57002 60001
AAXX 22184 93110 17798 /0606 10158 20146 40232 54000 60001
AAXX 22184 93186 17698 /2101 10144 20134 40246 57003 60051
AAXX 22184 93196 16/// /1711 10146 20097 40236 57004 60001
AAXX 22184 93245 16698 /0905 10094 20071 40261 52004 60001
AAXX 22184 93292 17697 /3403 10126 20108 40253 54000 60001
AAXX 22184 93309 17/98 /1306 10132 20110 40244 52002 60001
AAXX 22184 93334 16/// /0000 10075 20046 39291 54000 60001
AAXX 22184 93339 16/// /0208 10060 20034 39297 54000 60001
AAXX 22184 93373 17798 /2403 10147 20106 40261 52001 60001
AAXX 22184 93404 17/98 /1207 10127 20094 40262 54000 60001
AAXX 22184 93420 17598 /1201 10125 20097 40259 57001 60001
AAXX 22184 93439 17/98 /2105 10124 20090 40267 52002 60001
AAXX 22184 93498 16/// /2003 10130 20112 40266 54000 60001
AAXX 22184 93515 17/98 /1605 10146 20142 40253 57002 60001
AAXX 22184 93527 16/// /0608 10148 20115 40258 52001 60001
AAXX 22184 93546 17/98 /0000 10119 20109 40257 54000 60001
AAXX 22184 93597 16/// /1104 10141 20107 40270 57005 60001
AAXX 22184 93615 17997 /3401 10152 20143 40252 57004 60001
AAXX 22184 93678 16/98 /3403 10113 20093 40270 57005 60001
AAXX 22184 93709 16/// /0000 10097 20089 40255 57001 60001
AAXX 22184 93773 17998 /0000 10113 20112 40263 57009 60001
AAXX 22184 93781 17998 /3203 10105 20103 40268 57007 60001
AAXX 22184 93800 NIL
AAXX 22184 93805 NIL
AAXX 22184 93831 17/98 /0000 10117 20109 40262 57001 60001
AAXX 22184 93845 17093 /0000 10098 20096 40257 57004 60001
AAXX 22184 93891 17195 /0601 10113 20108 40263 57002 60001
AAXX 22184 93909 16/// /1203 10110 20107 40262 57004 60001
AAXX 22184 93929 16/// /0000 10100 20098 40231 57005 60011
AAXX 22184 93947 16/// /2304 10075 20066 40224 57004 60001
AAXX 22184 93987 16/// /2303 10109 20082 40262 52001 60001
AAXX 22184 93994 NIL
BBXX LAHV 22181 99589 10057 43/// /1606 10074 20062 40113 222// 04087 1////
BBXX LDGJ 22181 99603 10053 43/// /1406 10073 20056 40085 5//// 222/0 04094 1//// 3//// 4//// 5////
BBXX LF4H 22184 99596 10022 46/97 12318 10097 20084 40067 57015 8//// 22200 06086 10704 70019 333 91122
BBXX LMEL 22181 99603 10053 43/// /1306 10067 20068 40082 5//// 222/0 04095 1//// 3//// 4//// 5////
AAXX 22181 76040 32960 03104 10133 21003 30245 40260 52029 91740 33310207 20050 30/// 58081 98660
AAXX 22181 76055 32980 03315 10146 20041 30207 40226 53038 91740 33310212 20073 30/// 58068
AAXX 22181 76113 32980 03001 10128 20067 39719 40190 52010 91745 33310135 20030 30/// 58041
AAXX 22181 76122 32670 11401 10082 21008 38552 40223 57005 81100 91750333 10090 21008 30/// 56700 58054 81834
AAXX 22181 76123 06/// 10802 10110 21030 3//// 4//// 5//// 60002 7////81100 91750 333 0//// 10115 21016 56700 57/// 5//// 6000781834 8//// 8//// 8//// 9//// 9//// 9//// 444 ///// 555
AAXX 22181 76220 31/02 /0000 11017 21017 38164 40313 52008 91750 33311017 21094 30/// 58066
AAXX 22181 76225 32960 00901 10101 21023 38650 40215 57006 91745 33310101 21016 30/// 58070
AAXX 22181 76256 32980 00402 10173 20109 30197 40211 52001 91745 33310179 20076 31/// 58029
AAXX 22181 76305 32970 03303 10198 20090 30186 40194 51002 91740 33310202 20088 30/// 59027
AAXX 22181 76323 32970 00901 10102 21010 38286 40281 50008 91755 33310120 21031 30/// 58070
AAXX 22181 76342 32962 00701 10200 20033 39515 40239 52012 91755 33310203 20076 30/// 58046
AAXX 22181 76373 32965 00000 10071 21111 38208 40155 57014 91750 33310180 21078 30/// 58046
AAXX 22181 76390 31966 01805 10143 21048 38237 40173 52006 70544 91730333 10156 20032 30/// 54307 58038
AAXX 22181 76393 31910 11201 10210 20082 39600 40184 52010 70544 8101091745 333 10222 20106 30/// 56030 58033
AAXX 22181 76402 31962 00205 10204 20095 30132 40191 52006 70544 91745333 10204 20080 30/// 58018
AAXX 22181 76458 32970 32504 10198 20141 30152 40157 57004 80004 91738333 10221 20094 30/// 56//3 58004 83072
AAXX 22181 76471 32980 42102 10154 21002 37680 40130 57002 80005 91750333 10160 20040 30/// 56005 59020 84075
AAXX 22181 76490 06/// /0203 10238 20092 39786 40169 50005 60002 7////8//// 91750 333 0//// 10238 20126 30/// 54/// 56/// 57///58028 60007 8//// 8//// 8//// 8//// 9//// 9//// 9//// 44
AAXX 22181 76491 32960 33603 10225 20130 39802 40196 52006 80009 91750333 10230 20106 30/// 56009 58026 83177
AAXX 22181 76499 31560 40000 10230 20125 30149 40171 52013 70122 8423091750 333 10232 20167 30/// 56590 58028 82820 82357
AAXX 22181 76525 32980 72211 10086 20032 37465 40170 52005 80006 91740333 10086 20050 30/// 56//5 58018 87080
AAXX 22181 76539 32970 02703 10189 20095 38161 40162 52004 91750 33310252 20039 30/// 58020
AAXX 22181 76543 31670 83606 10217 20175 30148 40180 50004 70544 885//91750 333 10230 20162 30/// 563// 58017 88640
AAXX 22181 76547 06/// /0306 10229 20184 30149 40161 50009 60002 7////8//// 91750 333 0//// 10241 20187 56/// 57/// 58016 600078//// 8//// 8//// 8//// 9//// 9//// 9//// 444 ///// 555
AAXX 22181 76548 31468 70205 10228 20183 30161 40171 51013 70544 8213/91750 333 10236 20186 30/// 5611/ 58013 82813 85357
AAXX 22181 76556 32970 70703 10226 20144 39122 40152 51002 80006 91735333 10235 20115 30/// 56007 58009 87070
AAXX 22181 76571 32875 42402 10190 20049 38169 40184 57005 80004 91755333 10192 20050 30/// 56005 58018
AAXX 22181 76577 32970 72304 10175 20133 38051 40177 58003 80004 91740333 10181 20081 30/// 56005 58016 87081
AAXX 22181 76581 32970 50802 10214 20155 39040 40156 57006 85030 91750333 10222 20089 30/// 56030 58023 85360
AAXX 22181 76586 06/// /1302 10264 20189 30000 40152 50012 60002 7////8//// 91750 333 0//// 10264 20134 30/// 4//// 54/// 56///57/// 58008 60007 8//// 8//// 8//// 9//// 9//// 9//// 44
AAXX 22181 76592 06/// /1409 10287 21013 30145 40145 58012 60002 7////8//// 91750 333 0//// 10307 20220 30/// 4//// 54/// 56///57/// 58004 60007 8//// 8//// 8//// 9//// 9//// 9//// 44
AAXX 22181 76593 32470 51804 10282 20255 30145 40147 58013 83260 91750333 10307 20210 30/// 5644/ 58003 83824 82330 91006 91518
AAXX 22181 76612 32962 40000 10192 20093 38479 40169 58004 80005 91750333 10213 20075 30/// 56006 58016 84272
AAXX 22181 76625 32960 63602 10212 20059 38146 40136 57011 83076 91750333 10215 20093 30/// 56055 58016 83360
AAXX 22181 76632 32568 22504 10178 20112 37625 40122 57026 82400 91745333 10182 20080 30/// 56500 58013 82634
AAXX 22181 76634 31670 50201 10226 20036 37854 40153 57006 70522 8110591750 333 10226 20096 30/// 563/7 58019 81834 84069
AAXX 22181 76641 06/// /1202 10242 20214 30143 40155 50012 60002 7////8//// 91750 333 0//// 10242 20192 30/// 4//// 54/// 56///57/// 58006 60007 8//// 8//// 8//// 8//// 9//// 9//// 9/
AAXX 22181 76644 32460 71404 10294 20216 30141 40154 57003 84200 91750333 10300 20218 30/// 563// 59002 84810 86610
AAXX 22181 76645 06/// /1305 10296 20217 30137 40150 58011 60002 7////8//// 91750 333 0//// 10301 20220 30/// 4//// 54/// 56///57/// 58005 60007 8//// 8//// 8//// 9//// 9//// 9//// 44
AAXX 22181 76648 06/// /1802 10279 20224 30123 40153 58011 60002 7////8//// 91750 333 0//// 10298 20204 30/// 4//// 54/// 56///57/// 58006 60007 8//// 8//// 8//// 8//// 9//// 9//// 9/
AAXX 22181 76654 31956 42702 10280 20210 30138 40142 57005 70544 8000191755 333 10283 20216 30/// 5600/ 58009 84070
AAXX 22181 76658 31956 63202 10284 20161 39629 40134 56012 70542 8000291748 333 10290 20168 30/// 56001 59001 86070 98924
AAXX 22181 76662 32970 40401 10210 20104 38469 40174 57002 80005 91740333 10230 20038 30/// 5600/ 58014 84070
AAXX 22181 76665 32962 02402 10228 20068 38127 40178 57002 91750 33310270 20066 30/// 58013
AAXX 22181 76675 31975 22502 10179 20013 37384 40196 54000 70541 8000491752 333 10186 21002 30/// 56//9 58017 98475
AAXX 22181 76680 31862 53601 10193 20043 37757 40084 57010 70511 8201191755 333 10198 20090 30/// 58016 83070
AAXX 22181 76681 31965 03602 10210 20093 37779 40159 57010 70500 91745333 10210 20050 30/// 58013
AAXX 22181 76683 32968 21601 10202 20097 37831 40204 56014 80005 91745333 10210 20040 30/// 56005 58011 82080
AAXX 22181 76685 31950 13601 10208 20024 37875 40152 57002 70544 8100191745 333 10210 20060 30/// 56009 58016 81077
AAXX 22181 76687 31570 20701 10240 20136 38674 40156 56004 70500 8110591738 333 10243 20116 30/// 563/6 58004 81830 81070
AAXX 22181 76692 31456 31603 10270 20218 30117 40136 58003 70544 8310/91745 333 10283 20208 30/// 563// 59007 82817 81640
AAXX 22181 76693 06/// /1301 10274 20218 30116 40135 58008 60002 7////8//// 91750 333 0//// 10280 20208 30/// 4//// 56/// 57///59006 60007 8//// 8//// 8//// 8//// 9//// 9//// 9//// 44
AAXX 22181 76695 32960 00902 10310 20215 30121 40127 57010 91748 33310314 20194 30/// 58003 91007 91509
AAXX 22181 76726 32970 02201 10253 20151 38408 40131 52013 91740 33310253 20134 30/// 58021
AAXX 22181 76737 31480 31802 10261 20173 38765 40125 50004 70320 8110491735 333 10265 20142 30/// 56209 58001 81813 82080 9111191523
AAXX 22181 76738 06/// /2302 10274 20161 38763 40088 50001 60002 7////8//// 333 10276 20136 30/// 56/// 57/// 58001 60007 8////8//// 8//// 8//// 9//// 9//// 9//// 444 ///// 555 30193
AAXX 22181 76743 31357 30901 10271 20254 30116 40124 57010 70211 838//91745 333 10293 20205 30/// 56200 59005 83807
AAXX 22181 76750 32560 20904 10300 20239 30140 40150 57007 82100 91750333 10310 20232 30/// 56200 58007 82820
AAXX 22181 76751 06/// /1104 10304 20246 30140 40150 58007 60002 7////8//// 91750 333 0//// 10309 20234 30/// 4//// 54/// 56///57/// 58007 60007 8//// 8//// 8//// 9//// 9//// 9//// 44
AAXX 22181 76762 32904 13201 10274 20220 38763 40164 51008 80005 91730333 10276 20128 30/// 56001 58023 81070
AAXX 22181 76772 06/// /2602 10253 20084 38431 40097 58011 60002 7////8//// 91750 333 0//// 10255 20090 30/// 4//// 56/// 57///58012 60007 8//// 8//// 8//// 9//// 9//// 9//// 444 ////
AAXX 22181 76773 31568 33601 10244 20085 38426 40153 57012 7050/ 8120691746 333 10252 20090 30/// 56909 58009 81820
AAXX 22181 76775 31965 02201 10265 20097 38521 40161 57009 70000 91745333 10314 20110 30/// 58001
AAXX 22181 76805 32770 42402 10300 20231 30117 40121 56008 82034 91745333 10311 20218 30/// 56/6/ 58008 82342 82068
AAXX 22181 76806 06/// /2202 10302 20228 30116 40120 58014 60002 7////8//// 91750 333 10314 20210 30/// 56/// 57/// 58002 600078//// 8//// 8//// 8//// 9//// 9//// 9//// 555 30271
AAXX 22181 76833 32970 01404 10310 20229 30112 40114 57009 91745 33310310 20186 30/// 58009 92001
AAXX 22181 76840 32950 00000 10334 20236 30059 40115 57009 80000 91740333 10345 20180 30/// 56000 58012 80000
AAXX 22181 76843 32965 03601 10266 20190 39485 40126 57012 91730 33310278 20180 30/// 58008
AAXX 22181 76845 32560 30601 10218 20147 37946 40167 56013 83200 91745333 10234 20048 30/// 56200 58007 83827
AAXX 22181 76848 32770 10501 10252 20112 38381 40098 58006 81100 91755333 10256 20091 30/// 56100 58010 81850
AAXX 22181 76902 06/// /2502 10328 20198 39988 40123 58010 60002 7////8//// 91750 333 0//// 10330 20231 30/// 4//// 54/// 56///57/// 58010 60007 8//// 8//// 8//// 8//// 9//// 9//// 9/
AAXX 22181 76903 32981 02202 10327 20189 39990 40120 57009 91740 33310340 20237 30/// 58013
AAXX 22181 76160 32962 00201 10144 20082 39952 40207 52003 91730 33310144 20050 30/// 58029
AAXX 22181 76243 32974 02601 10142 20069 39899 40202 52008 91750 33310154 20046 30/// 58024
AAXX 22181 76311 32980 00000 10182 20069 39895 40183 50002 91740 33310182 20041 30/// 58024
AAXX 22181 76405 32970 23603 10190 20115 30169 40191 52011 82030 91750333 10190 20128 30/// 56080 58017 82356
AAXX 22181 76412 32966 02201 10220 20043 30142 40187 52005 91750 33310230 20078 30/// 58007
AAXX 22181 76640 31258 83201 10228 20113 30161 40173 52020 70222 8442/91740 333 10240 20194 30/// 5679/ 58003 84606 84440
AAXX 22181 76647 01465 71802 10278 20230 30132 40163 58007 69901 721228522/ 91750 333 10291 20206 31/// 563// 58005 69907 8521982458
AAXX 22181 76656 32975 70000 10220 20090 38513 40188 58007 80007 91750333 10228 20067 30/// 56005 58016 87280
AAXX 22181 76698 32560 41203 10292 20252 30141 40152 57010 84200 91750333 10309 20224 30/// 56300 58006 84820
AAXX 22181 76855 32580 22301 10318 20233 30057 40106 51006 81208 91745333 10322 20210 30/// 56909 59006 81820 92000
AAXX 22181 76040 32960 03104 10133 21003 30245 40260 52029 91740 333 10207 20050 30/// 58081 98660
AAXX 22181 76055 32980 03315 10146 20041 30207 40226 53038 91740 333 10212 20073 30/// 58068
AAXX 22181 76113 32980 03001 10128 20067 39719 40190 52010 91745 333 10135 20030 30/// 58041
AAXX 22181 76122 32670 11401 10082 21008 38552 40223 57005 81100 91750 333 10090 21008 30/// 56700 58054 81834
AAXX 22181 76123 06/// 10802 10110 21030 3//// 4//// 5//// 60002 7//// 81100 91750 333 0//// 10115 21016 56700 57/// 5//// 60007 81834 8//// 8//// 8//// 9//// 9//// 9//// 444 ///// 555
AAXX 22181 76220 31/02 /0000 11017 21017 38164 40313 52008 91750 333 11017 21094 30/// 58066
AAXX 22181 76225 32960 00901 10101 21023 38650 40215 57006 91745 333 10101 21016 30/// 58070
AAXX 22181 76256 32980 00402 10173 20109 30197 40211 52001 91745 333 10179 20076 31/// 58029
AAXX 22181 76305 32970 03303 10198 20090 30186 40194 51002 91740 333 10202 20088 30/// 59027
AAXX 22181 76323 32970 00901 10102 21010 38286 40281 50008 91755 333 10120 21031 30/// 58070
AAXX 22181 76342 32962 00701 10200 20033 39515 40239 52012 91755 333 10203 20076 30/// 58046
AAXX 22181 76373 32965 00000 10071 21111 38208 40155 57014 91750 333 10180 21078 30/// 58046
AAXX 22181 76390 31966 01805 10143 21048 38237 40173 52006 70544 91730 333 10156 20032 30/// 54307 58038
AAXX 22181 76393 31910 11201 10210 20082 39600 40184 52010 70544 81010 91745 333 10222 20106 30/// 56030 58033
AAXX 22181 76402 31962 00205 10204 20095 30132 40191 52006 70544 91745 333 10204 20080 30/// 58018
AAXX 22181 76458 32970 32504 10198 20141 30152 40157 57004 80004 91738 333 10221 20094 30/// 56//3 58004 83072
AAXX 22181 76471 32980 42102 10154 21002 37680 40130 57002 80005 91750 333 10160 20040 30/// 56005 59020 84075
AAXX 22181 76490 06/// /0203 10238 20092 39786 40169 50005 60002 7//// 8//// 91750 333 0//// 10238 20126 30/// 54/// 56/// 57/// 58028 60007 8//// 8//// 8//// 8//// 9//// 9//// 9//// 44
AAXX 22181 76491 32960 33603 10225 20130 39802 40196 52006 80009 91750 333 10230 20106 30/// 56009 58026 83177
AAXX 22181 76499 31560 40000 10230 20125 30149 40171 52013 70122 84230 91750 333 10232 20167 30/// 56590 58028 82820 82357
AAXX 22181 76525 32980 72211 10086 20032 37465 40170 52005 80006 91740 333 10086 20050 30/// 56//5 58018 87080
AAXX 22181 76539 32970 02703 10189 20095 38161 40162 52004 91750 333 10252 20039 30/// 58020
AAXX 22181 76543 31670 83606 10217 20175 30148 40180 50004 70544 885// 91750 333 10230 20162 30/// 563// 58017 88640
AAXX 22181 76547 06/// /0306 10229 20184 30149 40161 50009 60002 7//// 8//// 91750 333 0//// 10241 20187 56/// 57/// 58016 60007 8//// 8//// 8//// 8//// 9//// 9//// 9//// 444 ///// 555
AAXX 22181 76548 31468 70205 10228 20183 30161 40171 51013 70544 8213/ 91750 333 10236 20186 30/// 5611/ 58013 82813 85357
AAXX 22181 76556 32970 70703 10226 20144 39122 40152 51002 80006 91735 333 10235 20115 30/// 56007 58009 87070
AAXX 22181 76571 32875 42402 10190 20049 38169 40184 57005 80004 91755 333 10192 20050 30/// 56005 58018
AAXX 22181 76577 32970 72304 10175 20133 38051 40177 58003 80004 91740 333 10181 20081 30/// 56005 58016 87081
AAXX 22181 76581 32970 50802 10214 20155 39040 40156 57006 85030 91750 333 10222 20089 30/// 56030 58023 85360
AAXX 22181 76586 06/// /1302 10264 20189 30000 40152 50012 60002 7//// 8//// 91750 333 0//// 10264 20134 30/// 4//// 54/// 56/// 57/// 58008 60007 8//// 8//// 8//// 9//// 9//// 9//// 44
AAXX 22181 76592 06/// /1409 10287 21013 30145 40145 58012 60002 7//// 8//// 91750 333 0//// 10307 20220 30/// 4//// 54/// 56/// 57/// 58004 60007 8//// 8//// 8//// 9//// 9//// 9//// 44
AAXX 22181 76593 32470 51804 10282 20255 30145 40147 58013 83260 91750 333 10307 20210 30/// 5644/ 58003 83824 82330 91006 91518
AAXX 22181 76612 32962 40000 10192 20093 38479 40169 58004 80005 91750 333 10213 20075 30/// 56006 58016 84272
AAXX 22181 76625 32960 63602 10212 20059 38146 40136 57011 83076 91750 333 10215 20093 30/// 56055 58016 83360
AAXX 22181 76632 32568 22504 10178 20112 37625 40122 57026 82400 91745 333 10182 20080 30/// 56500 58013 82634
AAXX 22181 76634 31670 50201 10226 20036 37854 40153 57006 70522 81105 91750 333 10226 20096 30/// 563/7 58019 81834 84069
AAXX 22181 76641 06/// /1202 10242 20214 30143 40155 50012 60002 7//// 8//// 91750 333 0//// 10242 20192 30/// 4//// 54/// 56/// 57/// 58006 60007 8//// 8//// 8//// 8//// 9//// 9//// 9/
AAXX 22181 76644 32460 71404 10294 20216 30141 40154 57003 84200 91750 333 10300 20218 30/// 563// 59002 84810 86610
AAXX 22181 76645 06/// /1305 10296 20217 30137 40150 58011 60002 7//// 8//// 91750 333 0//// 10301 20220 30/// 4//// 54/// 56/// 57/// 58005 60007 8//// 8//// 8//// 9//// 9//// 9//// 44
AAXX 22181 76648 06/// /1802 10279 20224 30123 40153 58011 60002 7//// 8//// 91750 333 0//// 10298 20204 30/// 4//// 54/// 56/// 57/// 58006 60007 8//// 8//// 8//// 8//// 9//// 9//// 9/
AAXX 22181 76654 31956 42702 10280 20210 30138 40142 57005 70544 80001 91755 333 10283 20216 30/// 5600/ 58009 84070
AAXX 22181 76658 31956 63202 10284 20161 39629 40134 56012 70542 80002 91748 333 10290 20168 30/// 56001 59001 86070 98924
AAXX 22181 76662 32970 40401 10210 20104 38469 40174 57002 80005 91740 333 10230 20038 30/// 5600/ 58014 84070
AAXX 22181 76665 32962 02402 10228 20068 38127 40178 57002 91750 333 10270 20066 30/// 58013
AAXX 22181 76675 31975 22502 10179 20013 37384 40196 54000 70541 80004 91752 333 10186 21002 30/// 56//9 58017 98475
AAXX 22181 76680 31862 53601 10193 20043 37757 40084 57010 70511 82011 91755 333 10198 20090 30/// 58016 83070
AAXX 22181 76681 31965 03602 10210 20093 37779 40159 57010 70500 91745 333 10210 20050 30/// 58013
AAXX 22181 76683 32968 21601 10202 20097 37831 40204 56014 80005 91745 333 10210 20040 30/// 56005 58011 82080
AAXX 22181 76685 31950 13601 10208 20024 37875 40152 57002 70544 81001 91745 333 10210 20060 30/// 56009 58016 81077
AAXX 22181 76687 31570 20701 10240 20136 38674 40156 56004 70500 81105 91738 333 10243 20116 30/// 563/6 58004 81830 81070
AAXX 22181 76692 31456 31603 10270 20218 30117 40136 58003 70544 8310/ 91745 333 10283 20208 30/// 563// 59007 82817 81640
AAXX 22181 76693 06/// /1301 10274 20218 30116 40135 58008 60002 7//// 8//// 91750 333 0//// 10280 20208 30/// 4//// 56/// 57/// 59006 60007 8//// 8//// 8//// 8//// 9//// 9//// 9//// 44
AAXX 22181 76695 32960 00902 10310 20215 30121 40127 57010 91748 333 10314 20194 30/// 58003 91007 91509
AAXX 22181 76726 32970 02201 10253 20151 38408 40131 52013 91740 333 10253 20134 30/// 58021
AAXX 22181 76737 31480 31802 10261 20173 38765 40125 50004 70320 81104 91735 333 10265 20142 30/// 56209 58001 81813 82080 91111 91523
AAXX 22181 76738 06/// /2302 10274 20161 38763 40088 50001 60002 7//// 8//// 333 10276 20136 30/// 56/// 57/// 58001 60007 8//// 8//// 8//// 8//// 9//// 9//// 9//// 444 ///// 555 30193
AAXX 22181 76743 31357 30901 10271 20254 30116 40124 57010 70211 838// 91745 333 10293 20205 30/// 56200 59005 83807
AAXX 22181 76750 32560 20904 10300 20239 30140 40150 57007 82100 91750 333 10310 20232 30/// 56200 58007 82820
AAXX 22181 76751 06/// /1104 10304 20246 30140 40150 58007 60002 7//// 8//// 91750 333 0//// 10309 20234 30/// 4//// 54/// 56/// 57/// 58007 60007 8//// 8//// 8//// 9//// 9//// 9//// 44
AAXX 22181 76762 32904 13201 10274 20220 38763 40164 51008 80005 91730 333 10276 20128 30/// 56001 58023 81070
AAXX 22181 76772 06/// /2602 10253 20084 38431 40097 58011 60002 7//// 8//// 91750 333 0//// 10255 20090 30/// 4//// 56/// 57/// 58012 60007 8//// 8//// 8//// 9//// 9//// 9//// 444 ////
AAXX 22181 76773 31568 33601 10244 20085 38426 40153 57012 7050/ 81206 91746 333 10252 20090 30/// 56909 58009 81820
AAXX 22181 76775 31965 02201 10265 20097 38521 40161 57009 70000 91745 333 10314 20110 30/// 58001
AAXX 22181 76805 32770 42402 10300 20231 30117 40121 56008 82034 91745 333 10311 20218 30/// 56/6/ 58008 82342 82068
AAXX 22181 76806 06/// /2202 10302 20228 30116 40120 58014 60002 7//// 8//// 91750 333 10314 20210 30/// 56/// 57/// 58002 60007 8//// 8//// 8//// 8//// 9//// 9//// 9//// 555 30271
AAXX 22181 76833 32970 01404 10310 20229 30112 40114 57009 91745 333 10310 20186 30/// 58009 92001
AAXX 22181 76840 32950 00000 10334 20236 30059 40115 57009 80000 91740 333 10345 20180 30/// 56000 58012 80000
AAXX 22181 76843 32965 03601 10266 20190 39485 40126 57012 91730 333 10278 20180 30/// 58008
AAXX 22181 76845 32560 30601 10218 20147 37946 40167 56013 83200 91745 333 10234 20048 30/// 56200 58007 83827
AAXX 22181 76848 32770 10501 10252 20112 38381 40098 58006 81100 91755 333 10256 20091 30/// 56100 58010 81850
AAXX 22181 76902 06/// /2502 10328 20198 39988 40123 58010 60002 7//// 8//// 91750 333 0//// 10330 20231 30/// 4//// 54/// 56/// 57/// 58010 60007 8//// 8//// 8//// 8//// 9//// 9//// 9/
AAXX 22181 76903 32981 02202 10327 20189 39990 40120 57009 91740 333 10340 20237 30/// 58013
AAXX 22181 76160 32962 00201 10144 20082 39952 40207 52003 91730 333 10144 20050 30/// 58029
AAXX 22181 76243 32974 02601 10142 20069 39899 40202 52008 91750 333 10154 20046 30/// 58024
AAXX 22181 76311 32980 00000 10182 20069 39895 40183 50002 91740 333 10182 20041 30/// 58024
AAXX 22181 76405 32970 23603 10190 20115 30169 40191 52011 82030 91750 333 10190 20128 30/// 56080 58017 82356
AAXX 22181 76412 32966 02201 10220 20043 30142 40187 52005 91750 333 10230 20078 30/// 58007
AAXX 22181 76640 31258 83201 10228 20113 30161 40173 52020 70222 8442/ 91740 333 10240 20194 30/// 5679/ 58003 84606 84440
AAXX 22181 76647 01465 71802 10278 20230 30132 40163 58007 69901 72122 8522/ 91750 333 10291 20206 31/// 563// 58005 69907 85219 82458
AAXX 22181 76656 32975 70000 10220 20090 38513 40188 58007 80007 91750 333 10228 20067 30/// 56005 58016 87280
AAXX 22181 76698 32560 41203 10292 20252 30141 40152 57010 84200 91750 333 10309 20224 30/// 56300 58006 84820
AAXX 22181 76855 32580 22301 10318 20233 30057 40106 51006 81208 91745 333 10322 20210 30/// 56909 59006 81820 92000
AAXX 22184 16622 11358 83323 10030 20020 30087 40098 52029 60052 76162 8572/ 333 10034 82707 85625 88456 90730 91133 555 10000 40020 30000 10040 2//// 30060 4//// 5//// 40000 47594 44200 50000 50026 60000 60049 61200 70000 77RY/ 7RY//
AAXX 22184 16641 11560 70105 10088 20021 30026 40031 52021 60072 70262 85820 333 10090 82825 85630 87458 90730 91110 555 10000 40070 40000 47548 44200 50000 50060 60000 60071 60445 70000 77/// 7R///
AAXX 22184 16682 12560 51104 10088 20084 39980 49999 52007 60062 84230 333 10128 84820 83357 90730 91107 555 10000 40088 30000 10110 20120 30120 40122 50128 60180 40000 47514 44190 50000 50086 60000 60064 60120
AAXX 22184 16716 11460 83610 10094 20059 39980 49999 51001 60032 76066 8482/ 333 10136 83816 84625 88458 555 10000 40094 40000 47511 44160 50000 50078 60000 60032 60440 70000 77R// 7R///
AAXX 22184 16734 NIL
AAXX 22184 16743 NIL
AAXX 22184 16749 11460 71708 10132 20089 30031 40045 57008 60072 72162 85670 333 10164 82710 84620 86357 90730 91115 555 10000 40132 40000 47557 44230 50000 50110 60000 60070 60430 70000 77R// 7R///
AAXX 22184 16754 11460 52005 10104 20079 39987 40034 52013 60032 70162 83850 333 10166 81818 83625 85358 90730 91120 555 10000 40104 40000 47521 44200 50000 50092 60000 60026 60220 70000 77/// 7R///
AAXX 22181 78458 32466 41106 10286 20235 40185 57017 84800 333 10288 20201 31/// 56200 59002 84818
AAXX 22181 78460 31460 71005 10275 20210 40176 57024 70544 85921 333 10280 20173 30/// 56200 59034 81918 84620
AAXX 22181 78467 21566 30908 10280 20224 40178 57021 70280 83200 333 10284 20200 30/// 56200 59005 60016 83820
AAXX 22181 78479 31566 40808 10288 20210 40166 57008 70161 82231 333 10295 20235 30/// 56220 58000 82820 83080
AAXX 22181 78482 32566 31306 10300 20209 40185 57024 82231 333 10305 20170 30/// 56500 58009 82823
AAXX 22181 78485 32466 60806 10270 20183 49169 57024 85201 333 10304 20195 30/// 56200 58001 85820 85080
AAXX 22181 78486 32566 70603 10284 20206 40156 57024 83520 333 10305 20207 30/// 56200 58001 83628 85457
AAXX 22181 78488 32566 40408 10280 20210 40175 57021 84204 333 10290 20185 30/// 56100 58001 84824
AAXX 22181 78458 32466 41106 10286 20235 40185 57017 84800 333 10288 20201 31/// 56200 59002 84818
AAXX 22181 78460 31460 71005 10275 20210 40176 57024 70544 85921 333 10280 20173 30/// 56200 59034 81918 84620
AAXX 22181 78467 21566 30908 10280 20224 40178 57021 70280 83200 333 10284 20200 30/// 56200 59005 60016 83820
AAXX 22181 78479 31566 40808 10288 20210 40166 57008 70161 82231 333 10295 20235 30/// 56220 58000 82820 83080
AAXX 22181 78482 32566 31306 10300 20209 40185 57024 82231 333 10305 20170 30/// 56500 58009 82823
AAXX 22181 78485 32466 60806 10270 20183 49169 57024 85201 333 10304 20195 30/// 56200 58001 85820 85080
AAXX 22181 78486 32566 70603 10284 20206 40156 57024 83520 333 10305 20207 30/// 56200 58001 83628 85457
AAXX 22181 78488 32566 40408 10280 20210 40175 57021 84204 333 10290 20185 30/// 56100 58001 84824
AAXX 22181 78458 32466 41106 10286 20235 40185 57017 84800 333 10288 20201 31/// 56200 59002 84818
AAXX 22181 78460 31460 71005 10275 20210 40176 57024 70544 85921 333 10280 20173 30/// 56200 59034 81918 84620
AAXX 22181 78467 21566 30908 10280 20224 40178 57021 70280 83200 333 10284 20200 30/// 56200 59005 60016 83820
AAXX 22181 78479 31566 40808 10288 20210 40166 57008 70161 82231 333 10295 20235 30/// 56220 58000 82820 83080
AAXX 22181 78482 32566 31306 10300 20209 40185 57024 82231 333 10305 20170 30/// 56500 58009 82823
AAXX 22181 78485 32466 60806 10270 20183 49169 57024 85201 333 10304 20195 30/// 56200 58001 85820 85080
AAXX 22181 78486 32566 70603 10284 20206 40156 57024 83520 333 10305 20207 30/// 56200 58001 83628 85457
AAXX 22181 78488 32566 40408 10280 20210 40175 57021 84204 333 10290 20185 30/// 56100 58001 84824
AAXX 22181 26038 NIL
AAXX 22181 26045 NIL
AAXX 22181 26058 NIL
AAXX 22181 26115 NIL
AAXX 22181 26135 NIL
AAXX 22181 26141 01265 82502 11011 21015 30030 40182 52005 60002 70222 875// 333 11011 21033 60007 87606 555 1/101 21033 3/102 51024 52103
AAXX 22181 26231 01436 62200 11014 21015 30172 40188 52007 69902 71084 86500 333 10004 21017 60007 86615 555 1/100 21017 3/100 51013
AAXX 22181 26242 01376 82302 11018 21035 30102 40192 52005 69902 70222 886// 333 11008 21030 60007 88708 555 1/101 21030 3/101 51019 52103
AAXX 22181 26247 01371 82202 11012 21023 30115 40197 52006 60002 70222 886// 333 11010 21024 60007 88710 555 1/101 21024 3/101 51015
AAXX 22181 26645 32497 62901 11025 21047 39946 40215 52011 86600 333 11021 86711
AAXX 22181 26659 12564 73403 11018 21046 39974 40195 52013 69902 875// 333 11014 87630
AAXX 22181 26763 11456 83204 11014 21034 39930 40164 52015 69992 77177 8872/ 333 11013 88715
AAXX 22181 26825 31250 82702 11046 21052 30041 40232 52011 71022 886// 333 11034 88704 93401
AAXX 22181 26832 12560 72802 11023 21052 30027 40227 52009 69902 875// 333 11014 87622
AAXX 22181 26887 11395 83004 11020 21026 39932 40144 52007 60012 77175 8872/ 333 11019 88708 93400
AAXX 22181 26961 32562 73004 11019 21045 39994 40193 52011 875// 333 11015 87625
AAXX 22181 33027 11496 83002 11028 21041 30046 40220 52009 69902 75652 886// 333 11018 93400
AAXX 22184 60106 32965 02403 10126 20088 40285 50013 333 10202
AAXX 22184 60318 32965 01102 10144 20110 40266 56001 333 10224
AAXX 22181 37575 42595 81102 10061 20016 39643 40233 56002 885// 333 10095
AAXX 22181 37675 42995 02301 10028 20015 39561 40231 52003 333 10126 555 53007
AAXX 22181 37735 42596 81401 10036 20015 39786 40167 52010 886// 333 10111
AAXX 22181 37749 42598 83602 10067 20026 30143 40261 52007 885// 333 10097 555 53005
AAXX 22181 37756 42997 03001 10026 21007 39361 40278 53003 333 10113
AAXX 22181 37864 32397 73405 10068 20050 40222 50006 87700 333 10101 87712
AAXX 22181 37985 41496 80701 10082 20070 30232 40218 54000 71022 886// 333 10116
BBXX BATUK01 22184 99574 70017 46/// /2226 10095 20062 40089 56015 22241 00087
AAXX 22184 13601 12660 40606 10084 21066 39940 40041 52009 60002 82530 333 10106 82640
AAXX 22184 08001 12975 0//// 10120 20096 30214 40296 51004 60002 333 10157 92428
AAXX 22184 08015 12970 10903 10110 20077 39900 40308 57003 60002 80001 333 10143
AAXX 22184 08023 12560 20909 10116 20092 30240 40312 57007 60002 82800 333 10142
AAXX 22184 08027 12462 80802 10112 20079 30002 40316 57003 60012 888// 333 10125
AAXX 22184 08045 02962 02803 10100 20086 39993 40307 51004 69902 333 10150 60007
AAXX 22184 08141 NIL
AAXX 22184 08160 12989 12814 10117 20060 39973 40284 55002 60002 81041 333 10157
AAXX 22184 08181 02576 23103 10116 20069 30253 40259 53013 60002 81808 333 10182 60007
AAXX 22184 08221 02975 20000 10085 20032 39591 40285 55004 60002 80001 333 10159 60007
AAXX 22184 08231 12970 33402 10114 20011 39177 48581 52003 60002 80005 333 10183
AAXX 22184 08261 11975 02402 10088 20071 39819 40309 56002 60002 70040 333 10138
AAXX 22184 08284 02980 10502 10148 20087 30181 40256 53015 60002 80001 333 10235 60007
AAXX 22184 08306 12575 13502 10132 20085 30256 40262 53011 60002 81101 333 10202
AAXX 22184 08314 02468 33614 10148 20104 30153 40256 53010 60002 83808 333 10171 60007
AAXX 22184 08430 12965 12603 10154 20048 30179 40254 52001 60002 80002 333 10221
AAXX 22184 08482 12580 10000 10146 20116 30251 40259 53001 60002 81800 333 10200
AAXX 22184 13611 12665 53614 10056 21002 39982 40074 52007 60002 85500 333 10106 85633
BBXX 44172 22181 99445 70634 46/// ///// 1//// 91801 22200 00065 10804 20804 315// 41101 70022
BBXX 44097 22181 99410 70711 46/// ///// 1//// 91802 22200 00116 10805 20804 321// 41101 70023
AAXX 22181 14241 12665 72501 10009 21024 30110 40245 52010 60002 87500 333 10059
AAXX 22181 14284 12960 50000 11010 21021 30129 40242 52010 60002 85050 10017 42001
AAXX 22181 14307 32982 10504 10051 21022 30146 40224 53008 81030 333 10098
AAXX 22181 14317 NIL
AAXX 22181 14431 12680 23502 10052 21062 30101 40197 52008 60002 81140 333 10098 81840
AAXX 22181 14444 33980 00702 10061 21076 30150 40180 52018 333 10094
AAXX 22181 14474 12982 01405 10056 21079 39929 40122 52028 60002 333 10077 91014 91507 91136 91505
AAXX 22181 06414 36/// /2603 10099 20073 30220 40253 53004 60002 333 10119 91109 91205
AAXX 22181 06459 36/// /2503 10089 20089 30070 40264 53008 60002 333 10103 91108 91206
AAXX 22181 06494 16/// /2805 10053 20050 39448 40255 52014 60132 333 10057 4/015 91110 91206
AAXX 22184 65306 32960 50000 10275 20047 39784 40114 80002 333 10341 58005 85076
AAXX 22184 65319 32958 50000 10290 20111 39596 40108 80002 333 10354 58000 85076
AAXX 22184 65330 31915 50202 10294 20101 39657 40094 70522 80002 333 10355 58001 85076
AAXX 22184 65335 31956 53602 10317 20149 39872 40094 70522 80002 333 10367 58001 85076
AAXX 22184 65344 32958 52006 10293 20252 30083 40094 80002 333 10317 59004 85076
AAXX 22184 16614 11220 83311 10004 21047 39319 40113 52022 60012 77177 8762/ 333 10004 43010 83704 87618 88556 90730 91124 93199 555 10000 41014 60000 60011 61110 70000 77*Y/ 7*Y//
AAXX 22184 16627 NIL
AAXX 22184 16667 11457 71904 10108 20088 30050 40055 51010 60112 76162 86870 333 10152 83816 85620 87358 90730 91119 555 10000 40108 30000 20110 30120 40000 47567 44200 50000 50098 60000 60112 60800 70000 77RY/ 7RY//
AAXX 22184 16675 NIL
AAXX 22184 16710 36/// /2208 10059 20023 39259 40027 52017 333 10085 90730 91111 555 10000 40058
AAXX 22184 16723 11460 71122 10128 20084 30019 40035 56006 60042 70262 85870 333 10170 82818 85625 87358 90730 91135 555 10000 40128 40000 47548 44230 50000 50106 60000 60036 60210 70000 77/// 7R///
AAXX 22184 16738 NIL
AAXX 22184 16746 11560 52714 10094 20064 39843 40025 51001 60092 70162 83250 333 10118 83820 85358 90730 91124 555 10000 40094 40000 47412 44190 50000 50080 60000 60085 60620 70000 77/// 7R///
AAXX 22181 26509 11439 81101 11034 21038 30206 40215 52007 69962 77172 8872/ 333 11016 91003 91104 93602 555 4/997 53004
AAXX 22181 26518 31/07 90000 11065 21070 40226 52009 74942 333 10052 91001 91101 93510 555 4/014 53002
AAXX 22181 26524 31/92 92101 11040 21040 30082 40221 52009 74942 333 11018 91002 91104 93501 555 53005
AAXX 22181 26531 31245 82401 11022 21025 40214 52009 71022 886// 333 11004 88705 91003 91104 555 53005
AAXX 22181 26629 31356 82801 11054 21058 30131 40231 52009 71022 885// 333 11021 88607 91003 91104 555 53004
AAXX 22181 26633 32470 72901 11016 21040 30081 40216 52012 87500 333 11008 87616 91003 91105 555 53006
AAXX 22181 26730 31358 82602 11028 21048 30025 40224 52012 71022 886// 333 11016 88708 91003 91105 555 42997 53006
AAXX 22183 04013 32589 80218 11016 21034 49771 57020 82510 333 10002 21016 555 3//18
AAXX 22183 04064 22689 52009 10018 20013 49683 57060 70172 82232 333 10022 21010 60088 555 3//13
AAXX 22181 14008 12/98 63215 11072 21078 37458 47006 52009 60002 83870 333 11072 49105 92838 95170
AAXX 22181 14015 11108 71901 11014 21018 39881 40255 52008 60002 74642 86670 333 11004 86701
AAXX 22181 14024 12899 21302 11031 21035 39112 48491 52006 60002 81041 333 10012 48020 92835 95000
AAXX 22181 14026 12598 60000 11019 21035 39919 40254 52011 60002 84570 333 10051 82623 84650
AAXX 22181 14031 12597 40201 11009 21018 30012 40250 52010 60002 83031 333 10055
AAXX 22181 14105 12999 51101 10047 21016 30222 40227 52009 60002 85050 333 10108
AAXX 22181 14106 12999 30902 10057 21032 30155 40225 52010 60002 83030 333 10104 95000
AAXX 22181 14121 11993 00000 11009 21017 39966 40244 52006 60002 74611 333 10046 42002 92831
AAXX 22181 14122 12665 42301 11016 21027 30045 40250 52007 60002 84500 333 10055 84635
AAXX 22181 14240 12670 63401 10003 21015 30083 40244 52009 60002 82530 333 10061
AAXX 22181 14258 12670 61201 11026 21026 30040 40237 52003 60002 86500 333 10040 43005 86633
AAXX 22181 14445 12970 40608 10055 21071 30009 40167 51014 60002 82032 333 10078 82399 82099 91016 91505 91120 91507 92323
AAXX 22184 16643 11460 80217 10086 20030 30029 40034 52024 60072 76062 8487/ 333 10090 82818 84635 88360 90730 91120 555 10000 40076 40000 47550 44200 50000 50062 60000 60065 60730 70000 77R// 7R///
AAXX 22184 16648 11258 82710 10030 20020 39980 40071 52018 60042 76166 8667/ 333 10054 83706 85625 88356 90730 91119 555 10000 40024 30000 10058 2//// 30068 40060 5//// 6//// 40000 47516 44210 50000 50026 60000 60035 60800 70000 77RY/ 7RY//
AAXX 22184 16650 11356 80521 10094 20078 30034 40038 52016 60402 76366 8667/ 333 10122 83708 86630 88358 90730 91134 555 10000 40090 30000 10100 20100 30100 40100 50118 60140 40000 47555 44210 50000 50086 60000 60403 61200 70000 77R// 7R///
AAXX 22184 16684 11460 82814 10100 20071 39991 40019 51029 60182 70265 8777/ 333 10134 82715 86620 88357 90730 91122 555 10000 40100 40000 47524 44210 50000 50086 60000 60180 60400 70000 77/// 7RD//
AAXX 22184 16732 11470 61512 10130 20082 30002 40014 55000 60022 70162 84830 333 10152 82818 83625 90730 91123 555 10000 40130 40000 47527 44160 50000 50106 60000 60020 60110 70000 77/// 7R///
AAXX 22181 33088 32597 83602 11037 21048 30032 40232 52008 885// 333 11026
AAXX 22181 33177 32597 82302 11026 21039 39986 40233 52013 885// 333 11020
AAXX 22181 33261 11496 82704 11018 21036 39986 40174 51010 69922 78582 889// 333 11015 88916
AAXX 22181 33275 11597 82705 11018 21046 39940 40170 52013 69942 70282 8435/ 333 11008 84920
AAXX 22181 33301 32497 83002 11032 21049 39939 40233 52008 885// 333 11030 88611
AAXX 22181 33325 32397 83201 11030 21054 39945 40224 52011 885// 333 11013 86708
AAXX 22181 33377 31597 83102 11020 21059 30001 40202 52013 70232 885// 333 11014 88624
AAXX 22181 33415 NIL
AAXX 22181 33429 32497 72601 11048 21051 39790 40233 52007 87500 333 11045 87616
AAXX 22181 33466 12465 83303 11012 21045 30022 40216 53015 69902 883// 333 11005 85918
AAXX 22181 33526 11440 82501 11019 21027 39882 40234 52007 69942 77177 885// 333 11018 88613
AAXX 22181 33562 32497 82904 11039 21058 39851 40228 52011 886// 333 11013 88710
AAXX 22181 33614 11565 83206 11002 21046 30095 40203 52007 69982 70272 885// 333 11001 88627
AAXX 22181 33761 31596 83502 11014 21025 39989 40220 52010 71022 885// 333 10011 88622
AAXX 22181 33902 31996 53601 11001 21013 30137 40204 52012 71022 80001 333 10039
AAXX 22181 33983 32997 70304 10039 20013 30141 40203 53003 87030 333 10077
AAXX 22181 34415 11497 82704 11004 21028 30092 40191 52010 69912 70282 886// 333 10012
AAXX 22181 34523 11597 82304 10007 21027 30120 40198 52013 69902 70372 885// 333 10023 88626
AAXX 22181 34712 32998 63202 10005 21019 30122 40210 52008 80001 333 10042
AAXX 22181 48823 32697 71601 10190 20141 30170 40173 57010 875// 333 59012 87696
AAXX 22181 48820 32597 80000 10194 20130 30166 40174 57008 888// 333 59015 85895 88697
AAXX 22184 17026 12470 51510 10104 20091 30090 40129 57007 60002 83650 333 10120 83715 85359 91123 92438
AAXX 22184 17034 12670 40000 10094 20062 30099 40145 57008 60002 82130 333 10130 82835 84360 92428
AAXX 22184 17070 12565 60203 10088 20015 39243 40116 55002 60002 83250 333 10121 83830 86360 91114
AAXX 22184 17084 12970 21501 10025 20001 39233 40161 57003 60002 80001 333 10119 82070 91103
AAXX 22184 17090 12965 30903 10050 21042 38699 48473 57003 60002 83030 333 10104 83360
AAXX 22184 17098 11560 83201 11076 21076 38215 48530 58003 60032 77177 8551/ 333 11048 85625 88457 93104
AAXX 22184 17150 12660 73302 10081 20048 39945 40069 56001 60002 84250 333 10130 84835 86360
AAXX 22184 17160 12670 32801 10061 21008 38962 48435 56009 60002 83500 333 10127 83641 91108
AAXX 22184 17184 12670 60808 10123 20038 39947 40057 56001 60002 84230 333 10137 84840 86360 91112
AAXX 22184 17189 11570 71612 10050 20018 38944 48412 55003 69962 70282 85250 333 10102 85830 87360
AAXX 22184 17210 11657 30000 10079 20003 39145 40179 58004 60002 70500 83100 333 10115 83840
AAXX 22184 17234 12670 60603 10104 20060 39987 40055 56007 60032 83250 333 10114 83836 86360 91117
AAXX 22184 17260 12660 70102 10080 20026 39346 40171 58001 60002 84250 333 10111 84840 87360
AAXX 22184 17290 11670 71207 10111 20090 30018 40050 50002 60172 72582 84270 333 10169 84835 87360 91128 9242 8
AAXX 22184 17370 12665 22505 10151 20039 30141 40145 53001 60002 82200 333 10186 82835 92427
AAXX 22184 17022 12662 71203 10135 20027 39933 40097 57006 60002 81150 333 10145 81834 87360 91108 92427
AAXX 22184 17031 11358 60000 10101 20088 30127 40133 57013 60002 71011 84601 333 10143 84709 86070
AAXX 22184 17038 11257 79902 10093 20072 30098 40149 57012 69902 71022 82650 333 10121 82706 87360 92426
AAXX 22184 17050 11670 53612 10031 20021 30049 40112 52007 60132 70162 83570 333 10064 83635 85360 91124
AAXX 22184 17060 11660 63506 10108 20065 30047 40087 55004 60012 70182 83130 333 10132 83840 85360
AAXX 22184 17096 11640 62201 11033 21038 38240 48510 58005 60022 71072 84550 333 10007 84635 86358 93102
AAXX 22184 17124 11660 71006 10065 20045 39185 40109 53003 69902 76162 84520 333 10086 84635 87460
AAXX 22184 17128 12670 50207 10036 20016 39031 40153 57004 60002 82150 333 10105 82840 85360
AAXX 22184 17170 NIL
AAXX 22184 17195 12670 21411 10078 20000 38921 48446 58006 60002 82100 333 10119 82840
AAXX 22184 17199 12570 52002 10054 20008 39080 40190 57005 60002 83550 333 10094 83630 85360
AAXX 22184 17219 11565 72004 10092 20077 39902 40044 50004 60042 78098 84250 333 10133 84830 87360 91127
AAXX 22184 17240 11570 71603 10044 20017 38952 40096 50001 60072 72582 85250 333 10069 85830 87360 91114
AAXX 22184 17244 11670 61509 10063 20037 38932 48431 51003 69932 76022 84550 333 10122 84635 86359
AAXX 22184 17280 11657 53104 10045 20016 39380 40186 57006 60002 71022 82430 333 10114 82640 85360
AAXX 22184 17350 12660 71002 10124 20103 30065 40143 51002 60002 84270 333 10186 84835 87360
AAXX 22184 17024 12670 81703 10103 20052 30034 40112 57008 60002 8452/ 333 10122 84635 88460 91115 92438
AAXX 22184 17056 11670 70208 10099 20098 30081 40085 53003 60022 70282 84270 333 10102 84835 87360 91119 92448
AAXX 22184 17067 11560 71602 10094 20080 30083 40105 53011 60012 78088 87200 333 10126 87830 91111 92407
AAXX 22184 17092 12660 42706 11016 21051 38858 48486 58004 60002 84400 333 10101 84640
AAXX 22184 17112 11558 80407 10105 20086 30060 40062 52010 60092 76022 8452/ 333 10106 84630 88459 91121 92416
AAXX 22184 17115 12660 70906 10103 20060 30017 40068 50001 69902 83270 333 10122 83835 87360
AAXX 22184 17116 11660 70704 10102 20064 39958 40079 57011 69922 70282 84250 333 10120 84835 87360 91110
AAXX 22184 17188 11660 60305 10042 20027 39023 40088 57012 60112 70162 84550 333 10077 84638 86360 91111
AAXX 22184 17202 12660 32205 10017 21002 39157 40203 58005 60002 83500 333 10097 83635
AAXX 22184 17248 11560 82002 10054 20006 38921 48433 55004 69902 76011 8452/ 333 10068 84630 88459
AAXX 22184 17292 11558 71005 10065 20064 39312 40067 57011 60422 79592 85970 333 10088 81927 84830 87359 91115
AAXX 22184 17300 11460 60208 10108 20091 30016 40087 58003 60372 79588 86900 333 10145 81915 85830
AAXX 22184 17310 11560 70704 10124 20082 30109 40116 57019 60162 78082 84270 333 10190 84830 87460 91118 92437
AAXX 22184 17330 11558 72603 10115 20102 30124 40142 55003 60122 79582 85970 333 10152 81932 84834 87358
BBXX 46232 22181 99325 71174 46/// ///// 1//// 91738 22200 00151 11303 21002 327// 41302 70013
BBXX 46247 22181 99378 71228 46/// ///// 1//// 91751 22200 00118 11304 21003 329// 41303 70021
BBXX 46243 22181 99462 71241 46/// ///// 1//// 91759 22200 00082 11303 20902 325// 41302 70013
BBXX 46236 22181 99368 71219 46/// ///// 1//// 91750 22200 00124 11304 21003 329// 41303 70020
BBXX 46229 22181 99438 71246 46/// ///// 1//// 91751 22200 00098 11304 21003 328// 41303 70019
BBXX 46225 22181 99329 71174 46/// ///// 1//// 91744 22200 00144 11402 20601 326// 41401 70009
BBXX 46213 22181 99403 71247 46/// ///// 1//// 91754 22200 00099 11304 20803 329// 41303 70020
BBXX 46215 22181 99352 71209 46/// ///// 1//// 91738 22200 00138 11303 21002 327// 41302 70015
AAXX 22184 89667 46/// /0411 11046 29083 39887 4//// 5////
AAXX 2218/ 89108 46/// ///// 11184 36961 4//// 5////
AAXX 2218/ 89866 46/// ///// 11031 39784 4//// 5////
AAXX 2218/ 89329 46/// ///// 11064 38727 4//// 5////
AAXX 2218/ 89799 46/// ///// 11213 4//// 5////
AAXX 2218/ 89314 46/// ///// 11085 38218 4//// 5////
BBXX 46218 22181 99345 71208 46/// ///// 1//// 91802 22200 00140 11305 21003 330// 41304 70025
AAXX 22184 43533 11459 71105 10273 20231 30096 40099 60001 70522 82238 333 59012 82818 87276
AAXX 22184 43555 12460 71104 10267 20235 30102 40105 60001 82271 333 59010 82818 86363
AAXX 22184 43577 11462 79902 10247 20243 30110 40112 69901 70282 8227/ 333 59002 82818 87363
AAXX 22184 43588 12465 72909 10275 20249 30109 40111 60001 8223/ 333 58005 82818 87363
AAXX 22184 43599 11460 73204 10257 20247 30112 40114 60031 72582 8337/ 333 58001 82817 81918 86361
AAXX 22181 01010 11487 81710 10022 21071 39936 49952 58027 60002 70221 8757/ 333 10022 91115
AAXX 22181 01271 17/72 /0000 10006 21005 30024 40046 55005 69992 700// 333 10012 91105
AAXX 22181 01415 17234 81704 10066 20056 30105 40115 58006 6//// 710// 333 10068 91105
AAXX 22184 43533 11459 71105 10273 20231 30096 40099 60001 70522 82238 333 59012 82818 87276
AAXX 22184 43555 12460 71104 10267 20235 30102 40105 60001 82271 333 59010 82818 86363
AAXX 22184 43577 11462 79902 10247 20243 30110 40112 69901 70282 8227/ 333 59002 82818 87363
AAXX 22184 43588 12465 72909 10275 20249 30109 40111 60001 8223/ 333 58005 82818 87363
AAXX 22184 43599 11460 73204 10257 20247 30112 40114 60031 72582 8337/ 333 58001 82817 81918 86361
AAXX 22181 26115 01681 22208 10032 20005 30162 40170 51004 60032 70200 82500 333 10034 20002 60007 82648 91010 91111 555 1/100 20002 3/101 50016
AAXX 22181 13160 32697 70000 11003 21008 30131 40244 52012 87500 333 10011 4/005
AAXX 22181 13262 11696 83401 10007 21008 30084 40238 52013 69942 71022 885// 333 10020 4/997 93197
AAXX 22181 13272 31358 80201 10006 21014 30112 40236 52016 71022 886// 333 10018 88708
AAXX 22181 13285 32698 62902 10008 21012 30111 40217 52014 86800 333 10042
AAXX 22181 13289 31297 83205 11052 21061 38968 48457 50015 70142 886// 333 11045 4/006
AAXX 22181 13376 11696 82902 10007 21002 39961 40232 57016 69902 71022 885// 333 10008 4/004 93197
AAXX 22181 13388 11597 83402 10010 21007 39944 40199 52014 69902 70277 885// 333 10017 93197
AAXX 22181 13462 32970 00109 10060 21067 30088 40128 52018 333 10080
AAXX 22181 13473 NIL
AAXX 22181 13489 11595 73602 11006 21025 39638 40174 52012 69982 71077 87600 333 10003
AAXX 22181 26106 31/96 82103 11014 21024 40210 52006 71022 886// 333 11001
AAXX 22181 26313 32/// 82403 11012 21021 40194 52005 889// 333 10001
AAXX 22181 26346 32497 83004 11028 21041 40201 52009 886// 333 11025 88713
AAXX 22181 26406 11596 81302 11010 21013 40202 52005 69982 71082 885// 333 11005 88623 93503
AAXX 22181 26416 33/// /2001 11019 21024 40210 52006 333 11019
AAXX 22181 26424 32497 62302 11027 21030 40213 52010 82530 333 11020
AAXX 22181 26544 32597 73002 11028 21047 40212 52012 87500 333 11011
AAXX 22181 26038 01128 82002 11008 21009 30134 40176 52005 69902 71074 886// 333 11008 21024 60007 88702 555 1/100 21024 3/102 51018 52102
AAXX 22184 78397 12578 11214 10317 20212 30122 40138 60001 81400 333 00200 10326 20237 58001 81822
AAXX 22181 15015 02597 81100 11028 21049 39607 42803 52008 60002 8457/ 333 11017 21042 3/000 43997 60007 91001 91101
AAXX 22181 15020 02597 72801 11054 21065 30027 40236 52010 60002 87500 333 10012 21077 3/004 43002 60007 91001 91101 92840
AAXX 22181 15090 01996 83000 11030 21033 30136 40233 52013 60002 71022 80007 333 10032 21044 34004 55300 0//// 20004 3//// 60007 91000 91102 92600
AAXX 22181 15108 02298 32904 11124 21124 38051 48484 52009 60002 83500 333 11072 21137 3//// 44016 60007 92843
AAXX 22181 15120 02597 82801 11019 21035 39716 40233 52008 69902 8457/ 333 11012 21030 30002 55300 10065 2//// 3//// 60007 91002 91102
AAXX 22181 15150 02997 23401 11033 21050 30011 40234 52012 60002 82030 333 10012 21063 3/000 41998 60007 91002 91102 92870
AAXX 22181 15170 01995 03401 11153 21159 39420 42800 52015 60002 71011 333 11065 21179 3/104 47005 60007 91002 91102 92800
AAXX 22181 15200 02597 63402 10007 21007 30078 40228 52012 60002 86500 333 10035 21013 34009 60007 91003 91104
AAXX 22181 15230 02997 22103 11027 21056 39931 40238 52014 60002 82070 333 10017 21027 30005 55300 10253 20004 3//// 60007 91005 91105
AAXX 22181 15260 02997 02400 11083 21088 39681 40252 52012 60002 333 11032 21092 3/102 43001 60007 91001 91101 92822
AAXX 22181 15280 02599 70504 11140 21175 37421 47937 52009 60002 87070 333 11121 21166 3//// 48043 60007 92825
AAXX 22181 15292 02998 01501 11024 21024 39920 40228 52013 60002 333 10031 21033 34003 60007 91001 91102 92600
AAXX 22181 15310 01996 80103 10004 21012 30127 40216 52013 60002 71022 84037 333 10022 21001 31005 55300 10079 20003 3//// 60007 91006 91106
AAXX 22181 15335 01496 80202 10013 20005 30198 40205 52009 60002 71022 886// 333 10028 21002 31005 60007 91004 91106
AAXX 22181 15346 02997 73501 10001 21034 39916 40216 52018 60002 87070 333 10034 21024 34001 60007 91003 91103
AAXX 22181 15350 02597 81204 10017 21027 30091 40214 51015 60002 885// 333 10032 21001 31005 60007 91008 91108
AAXX 22181 15360 01497 80510 10043 20002 30171 40185 52009 69982 76122 8672/ 222// 06050 20502 333 10053 20014 3//// 69987 91012 91113 92437
AAXX 22181 15410 02597 63401 11011 21032 30119 40219 52016 60002 86500 333 10055 21044 34005 60007 91001 91101
AAXX 22181 15420 01597 80504 10009 21012 30092 40208 52013 69922 77172 885// 333 10028 21013 31004 55300 0//// 20000 3//// 69927 91008 91108
AAXX 22181 15450 01496 80801 11007 21012 39969 40213 52014 69932 77177 8672/ 333 10014 21023 3/001 43997 55300 10048 20002 3//// 69937 91002 91104 96010
AAXX 22181 15460 01496 80105 10003 20002 30169 40194 52013 60012 77176 8672/ 333 10029 21006 3/004 43001 60017 91008 91108 96010 92801
AAXX 22181 15470 01495 80303 11001 21001 30078 40208 52013 60022 77177 8672/ 333 10000 21023 3/001 47001 69977 91004 91105 92801
AAXX 22181 15480 01496 80302 10043 20043 30158 40176 52010 60032 76122 8672/ 222// 06061 2//// 333 10047 20009 31005 60037 91008 91110 92436 96010
AAXX 22184 71450 NIL
AAXX 22184 71451 NIL
AAXX 22184 71452 NIL
AAXX 22184 71453 16/// /1805 11032 21076 39289 40228 56012 60001 333 11005 21131 70000 555 10010
AAXX 22184 71454 NIL
AAXX 22184 71455 NIL
AAXX 22184 71456 NIL
AAXX 22184 71457 16/// /3305 11025 21100 39302 40215 51009 60001 333 11025 21128 70000
AAXX 22184 71458 16/// /2606 11003 21051 39395 40176 50001 60001 333 10003 21089 70000
AAXX 22184 71459 NIL
AAXX 22184 71460 16/// /0107 10020 21015 39927 40170 53002 60001 333 10029 20000 70000
AAXX 22184 71461 NIL
AAXX 22184 71462 NIL
AAXX 22184 71463 46/// /2605 10045 20006 39959 40183 58003 6///1 333 10057 20040 7////
AAXX 22184 71464 NIL
AAXX 22184 71465 NIL
AAXX 22184 71466 NIL
AAXX 22184 71468 NIL
AAXX 22184 71470 NIL
AAXX 22184 71471 15966 82507 10012 21058 39387 40184 50001 60001 333 10014 21046 70000
AAXX 22184 71473 16/// /0811 10021 21024 30276 40307 58008 60001 333 10026 21001 70000
AAXX 22184 71475 16/// /1305 11013 21015 30216 40312 56010 60001 333 11004 21016 70000
AAXX 22184 71476 NIL
AAXX 22184 71477 17/// /1444 10060 20044 60031 7//4/ 333 10065 20041 70060
AAXX 22184 71478 NIL
AAXX 22184 71479 NIL
AAXX 22184 71480 NIL
AAXX 22184 71481 NIL
AAXX 22184 71482 NIL
AAXX 22184 71483 NIL
AAXX 22184 71484 NIL
AAXX 22184 71485 16/// /1240 10056 20011 30192 40212 56032 60001 333 10059 20035 70000
AAXX 22184 71486 16/// /1603 11046 21105 39053 40286 55000 60001 333 11046 21083 70000 555 10010
AAXX 22184 71487 NIL
AAXX 22184 71489 16/// /2607 11035 21084 39365 40180 56009 60001 333 11035 21112 70000
AAXX 22184 71490 NIL
AAXX 22184 71491 NIL
AAXX 22184 71492 NIL
AAXX 22184 71493 16/// /3207 10029 20019 30046 40084 53034 60001 333 10089 20017 70268
AAXX 22184 71494 16/// /2604 11018 21019 39615 40138 55000 60001 333 10005 21037 70039
AAXX 22184 71495 NIL
AAXX 22184 71496 16/// /2212 11062 21091 39548 40172 58022 60001 333 11062 21121 70000
AAXX 22184 71497 46/// /2203 11037 21082 39829 40095 52005 6///1 333 10030 21071 7////
AAXX 22184 71498 NIL
AAXX 22184 71499 17436 82006 11116 21128 39468 40115 56021 60001 771// 333 11116 21230 70000
AAXX 22184 71893 12480 51607 10033 20004 30272 40304 57012 60001 85570 333 10033 21018 70000
AAXX 22184 71894 NIL
AAXX 22184 71896 15766 11713 11038 21074 39408 40258 58013 60001 333 11026 21092 70000
AAXX 22184 71897 12574 51435 10068 20012 3//// 4//// 57032 60001 82550 333 10069 20055 70000
AAXX 22184 71898 160// ///// 10072 56033 69951 333 10072 20021 70015
AAXX 22184 71899 11566 81411 10064 20061 3//// 4//// 57037 69961 7612X 887XX 333 10077 20032 70048 90910
AAXX 22184 71902 12574 22916 11137 21192 30027 40036 53004 60001 82500 333 11119 21165 70000
AAXX 22184 71905 NIL
AAXX 22184 71906 12474 22712 11199 21242 39990 40042 58005 60001 81501 333 11172 21216 79999
AAXX 22184 71907 16956 02715 11230 21271 30029 40063 53004 60001 333 11224 21231 70000
AAXX 22184 71909 16661 33417 11171 21203 39839 49882 54000 60001 333 11120 21172 70000
AAXX 22184 71910 46964 02707 11214 21257 39898 49962 53006 6///1 333 11169 21215 7////
AAXX 22184 71911 46464 32407 11334 30036 40096 53001 6///1 333 11318 21369 7////
AAXX 22184 71912 12974 02808 11262 21311 30036 40233 50003 60001 333 11261 21291 70004
AAXX 22184 71915 NIL
AAXX 22184 71917 11874 21104 11316 21358 39996 40011 57007 69901 77677 82070 333 11297 21393 47015 79999 90983
AAXX 22184 71922 12474 81503 11081 21092 39652 40132 57028 60001 8257/ 333 11080 21199 79999
AAXX 22184 71924 11674 63308 11275 21315 39967 40060 55000 69921 77672 86530 333 11252 21295 48038 70006 90977
AAXX 22184 71925 12974 20805 11336 21385 30045 40088 56012 60001 82030 333 11306 21351 79999
AAXX 22184 71926 11580 13013 11323 21379 30128 40154 58001 69901 70273 81500 333 11297 21329 44043 79999 90941
AAXX 22184 71928 16/// /0201 11060 21113 39025 40223 53002 60001 333 11059 21161 70000
AAXX 22184 71900 46/// /32// 11116 21164 30020 40033 53005 6///1 333 11086 21138 7////
AAXX 22184 71903 NIL
AAXX 22184 71904 NIL
AAXX 22184 71914 16/// /0402 10002 21023 30085 40312 56008 60001 333 10011 21017 70000
AAXX 22184 71916 NIL
AAXX 22184 71918 460// ///// 11338 6///1 333 7////
AAXX 22184 71920 NIL
AAXX 22184 71921 NIL
AAXX 22184 71923 NIL
AAXX 22184 71927 16/// /0000 11026 21037 30256 40316 56007 60001 333 11026 21052 70000
AAXX 22184 71941 17466 83510 11069 21083 39749 40173 51014 60001 771// 333 11025 21073 70000
AAXX 22184 71947 17466 83108 11144 21161 39834 40192 51015 60001 771// 333 11080 21145 70000
AAXX 22184 71500 NIL
AAXX 22184 71501 NIL
AAXX 22184 71502 NIL
AAXX 22184 71503 NIL
AAXX 22184 71504 NIL
AAXX 22184 71505 46/// /1501 11048 21058 39224 49940 58036 6///1 333 11027 21048 7////
AAXX 22184 71506 NIL
AAXX 22184 71507 16/// /1809 11047 21089 60001 333 11013 21073 70000
AAXX 22184 71508 17/// ///// 10068 20011 30037 40175 50002 69981 7//4/ 333 10069 20029 70028
AAXX 22184 71509 NIL
AAXX 22184 71511 16/// /1905 11058 21086 39538 40189 56024 60001 333 11043 21123 70000
AAXX 22184 71512 16/// /2706 11006 21031 30046 40060 57006 60001 333 10000 21070 70012
AAXX 22184 71513 15966 02910 11026 21061 30033 40049 56006 60001 333 11023 21101 70000
AAXX 22184 71514 NIL
AAXX 22184 71515 16/// /2111 11074 21101 39500 40217 58017 60001 333 11046 21127 70000
AAXX 22184 71516 16/// /2314 11053 21092 60001 333 11052 21121 70000
AAXX 22184 71517 NIL
AAXX 22184 71518 NIL
AAXX 22184 71519 NIL
AAXX 22184 71520 NIL
AAXX 22184 71521 NIL
AAXX 22184 71522 NIL
AAXX 22184 71523 NIL
AAXX 22184 71524 17/// /2507 10020 21002 30142 40168 53004 60071 7//4/ 333 10020 21057 70110
AAXX 22184 71525 NIL
AAXX 22184 71526 NIL
AAXX 22184 71527 15666 82107 11107 21137 39728 40253 58004 60001 333 11100 21136 70000
AAXX 22184 71528 NIL
AAXX 22184 71529 46/// /1101 11177 21201 39870 40107 53001 6///1 333 11177 21301 7////
AAXX 22184 71532 15366 82906 10019 20015 39819 40166 53002 60001 333 10021 21017 70068
AAXX 22184 71534 16564 82706 10040 20001 39897 40170 50005 60001 333 10049 21007 70120
AAXX 22184 71535 NIL
AAXX 22184 71536 NIL
AAXX 22184 71537 NIL
AAXX 22184 71539 NIL
AAXX 22184 71540 NIL
AAXX 22184 71541 NIL
AAXX 22184 71542 16/// /2514 11025 21088 60001 333 11018 21131 70000
AAXX 22184 71543 NIL
AAXX 22184 71544 NIL
AAXX 22184 71545 16/// ///// 11003 21071 60001 333 11003 21070 70000
AAXX 22184 71546 NIL
AAXX 22184 71547 NIL
AAXX 22184 71548 NIL
AAXX 22184 71549 NIL
AAXX 22184 71001 17556 80801 11107 21118 38976 49953 58041 69951 7714/ 333 11097 21167 70005
AAXX 22184 71002 15966 03211 11110 21144 39499 40048 53007 60001 333 11079 21134 70000
AAXX 22184 71003 17966 02510 11184 21220 39735 40130 51005 60001 771// 333 11135 21199 70008
AAXX 22184 71005 16/// ///// 10001 21055 60001 333 10001 21087 70000
AAXX 22184 71006 NIL
AAXX 22184 71007 NIL
AAXX 22184 71008 NIL
AAXX 22184 71009 NIL
AAXX 22184 71010 NIL
AAXX 22184 71011 NIL
AAXX 22184 71012 NIL
AAXX 22184 71013 NIL
AAXX 22184 71014 NIL
AAXX 22184 71015 NIL
AAXX 22184 71016 NIL
AAXX 22184 71017 NIL
AAXX 22184 71018 NIL
AAXX 22184 71019 NIL
AAXX 22184 71020 NIL
AAXX 22184 71021 NIL
AAXX 22184 71022 15766 81522 10070 20015 30073 40117 56033 60001 333 10070 20021 70005
AAXX 22184 71023 16964 02608 11054 21092 39361 40144 53001 60001 333 11053 21105 70000
AAXX 22184 71024 16/// /2701 11148 21157 60001 333 11143 21170 70000
AAXX 22184 71026 NIL
AAXX 22184 71027 17/// /3004 10056 20034 30007 40017 53008 69961 7//4/ 333 10072 21023 70127
AAXX 22184 71028 16/// /3304 11043 21088 39208 40273 58015 60001 333 11041 21106 70000
AAXX 22184 71029 16/// /0906 11205 21226 39983 40023 56002 60001 333 11199 21263 70006
AAXX 22184 71030 16/64 /3206 10041 20026 30016 40105 51022 60001 333 10093 20030 70231
AAXX 22184 71032 46/// /0000 11133 21146 39497 40377 53002 6///1 333 11126 21176 7//// 555 10020
AAXX 22184 71033 46/// /2004 11124 21135 39468 40117 56020 6///1 333 11124 21267 7////
AAXX 22184 71035 NIL
AAXX 22184 71036 15566 81703 11056 21079 39841 40226 58009 60001 333 11056 21126
AAXX 22184 71039 46/// /0000 11096 6///1 333 11096 21143 7////
AAXX 22184 71040 46/// /2706 11004 21042 39922 40123 53005 6///1 333 11003 21038 7////
AAXX 22184 71041 17156 83112 10040 20039 39901 40041 53018 69951 7104/ 333 10094 21010 70118
AAXX 22184 71042 16/// /0000 11013 21017 30301 40305 57011 60001 333 11013 21059 70000
AAXX 22184 71044 16/// /0404 11195 21224 39750 40077 55000 60001 333 11189 21215 70000 555 10020
AAXX 22184 71046 460// /2613 11257 30117 40135 56002 6///1 333 11220 21278 7////
AAXX 22184 71047 NIL
AAXX 22184 71048 NIL
AAXX 22184 71049 NIL
AAXX 22184 71060 NIL
AAXX 22184 71063 NIL
AAXX 22184 71604 NIL
AAXX 22184 71605 16/// /0000 10020 21034 30150 40303 56013 60001 333 10021 21005 70000
AAXX 22184 71611 16/// /2410 10011 21021 60001 333 10020 21008 70066
AAXX 22184 71612 17/// /2603 10032 21018 30074 40165 53005 60061 7//4/ 333 10032 21034 70140
AAXX 22184 71614 NIL
AAXX 22184 71616 16/// /2602 10007 20003 30040 40161 53008 60001 333 10007 21027 70080
AAXX 22184 71617 16/// /2405 11005 21034 39963 40133 53004 60001 333 11005 21054 70000
AAXX 22184 71618 NIL
AAXX 22184 71619 16/// /2810 10000 21051 30023 40081 53006 60001 333 10004 21058 70000
AAXX 22184 71622 NIL
AAXX 22184 71632 46/// /1505 11196 21216 39721 40188 58028 6///1 333 11196 21344 7////
AAXX 22184 71634 17/// /2803 11003 21017 39944 40098 53013 60011 7//4/ 333 11002 21033 70036
AAXX 22184 71638 16/// /3501 10008 21028 30195 40303 56008 60001 333 10009 21033 70000
AAXX 22184 71639 12774 72505 10058 21017 39928 40170 50003 60001 81506 333 10061 21004 70034
AAXX 22184 71642 11674 60103 11123 21154 39657 40218 53007 69921 72272 86500 333 11040 21128 44023 70010 90973
AAXX 22184 71930 13974 82603 11025 21107 39239 40187 51004 60003 85052 333 11024 21087 47018 70000
AAXX 22184 71931 NIL
AAXX 22184 71934 12974 70000 11176 21209 39827 40092 53011 60001 81071 333 11139 21196 79999
AAXX 22184 71935 12874 72603 11161 21174 39885 40099 51026 60001 82077 333 11105 21187 70000
AAXX 22184 71936 11266 80705 11186 21212 39831 40100 52017 69901 77122 885// 333 11176 21264 48021 79999
AAXX 22184 71937 NIL
AAXX 22184 71938 11556 70000 11247 21297 30016 40047 58002 60001 77111 87520 333 11238 21340 70000
AAXX 22184 71940 12782 82520 10017 21046 39373 40185 51001 60001 83570 333 10017 21048 70000
AAXX 22184 71943 12974 72220 10005 21070 39318 40160 57012 60001 87070 333 10005 21054 70000
AAXX 22184 71944 160// ///// 11034 56011 60001 333 11033 21123 70000
AAXX 22184 71945 12783 72804 11104 21146 39641 40121 55001 60001 82530 333 11095 21134 70000
AAXX 22184 71946 12974 40000 11182 21203 39880 40101 51017 60001 84010 333 11176 21190 70000
AAXX 22184 71948 46058 /2914 11254 39937 40053 51021 6///1 333 11185 21262 7////
AAXX 22184 71949 46/// /1210 11048 21061 39136 40005 56034 6///1 333 11048 21192 7////
AAXX 22184 71951 11480 71408 10030 21014 39904 40173 57031 69921 70188 87500 333 10034 21012 43022 70007 90923
AAXX 22184 71957 46664 83105 11214 21280 30027 40119 50004 6///1 333 11204 21235 7////
AAXX 22184 71964 11269 81715 11019 21039 39117 49961 56032 60011 77172 8757/ 333 11015 21029 47018 70034 90917 93101
AAXX 22184 71966 16/// /0501 11190 21213 39558 40031 56040 60001 333 11182 21227 70004 555 10010
AAXX 22184 71968 460// /3110 11230 30059 40126 53006 6///1 333 11216 21274 7////
AAXX 22184 71397 11369 83107 10050 20042 30063 40097 52038 60011 72085 887// 333 10085 20013 70188 90927
AAXX 22184 71400 17/48 /0201 10028 20028 60021 7//4/ 333 10028 21053 70033
AAXX 22184 71403 46/// /3211 10074 20066 30030 40050 52027 6///1 333 10094 20017 7////
AAXX 22184 71411 16/// /3011 10084 20071 30077 40089 53026 60001 333 10113 20040 70251
AAXX 22184 71412 16/// /3518 10023 20016 30041 40050 51025 60001 333 10070 21007 70235
AAXX 22184 71421 NIL
AAXX 22184 71430 NIL
AAXX 22184 71431 16/// /2607 10046 20020 30064 40160 58008 60001 333 10054 20008 70057
AAXX 22184 71432 16/// /2608 10058 20024 30076 40173 58001 60001 333 10071 20045 70025
AAXX 22184 71433 NIL
AAXX 22184 71435 NIL
AAXX 22184 71441 46/// /1904 11049 21080 39927 40244 58001 6///1 333 11048 21122 7////
AAXX 22184 71443 16/// /3601 11094 21105 39786 40211 58016 60001 333 11080 21151 70000
AAXX 22184 71444 16/// /2402 11067 21079 39448 40227 58002 60001 333 11067 21123 70004
AAXX 22184 71447 NIL
AAXX 22184 71467 16/// /3505 11235 21257 39921 40039 53014 60001 333 11214 21261 70000 555 10010
AAXX 22184 71472 NIL
AAXX 22184 71474 16964 01806 11083 21101 39034 40316 56005 60001 333 11076 21101 70000
AAXX 22184 71510 NIL
AAXX 22184 71538 12569 82706 10058 21002 39953 40184 58001 60001 885// 333 10062 20051 79999
AAXX 22184 71600 17111 82715 10089 20088 30034 40040 53016 60121 74344 333 10111 20025 70240
AAXX 22184 71601 NIL
AAXX 22184 71043 11583 50000 11180 21226 30012 40108 50008 69901 70177 82571 333 11142 21180 48023 70002 90943
AAXX 22184 71045 17/// /1305 11001 21027 39150 40001 56030 60011 7//4/ 333 11001 21042 70044 555 10090
AAXX 22184 71050 NIL
AAXX 22184 71051 NIL
AAXX 22184 71052 NIL
AAXX 22184 71066 12974 62104 11033 21103 39692 40118 53014 60001 80009 333 11006 21152 70000
AAXX 22184 71068 12974 72609 10006 21043 39457 40154 50001 60001 80002 333 10008 21065 70000
AAXX 22184 71069 16964 02816 10005 21059 39447 40156 53005 60001 333 10009 21042 70000
AAXX 22184 71076 16/// /0805 11139 21155 39695 40100 55003 60001 333 11139 21254 70000
AAXX 22184 71077 16/// /2203 11058 21084 39570 40118 58009 60001 333 11058 21115 70013 555 10020
AAXX 22184 71079 11974 10000 11272 21309 39944 40245 58006 60001 77677 88180 333 11266 21368 70002 90942
AAXX 22184 71081 46937 03213 11321 21366 39989 40002 56005 6///1 333 11316 21341 7////
AAXX 22184 71082 NIL
AAXX 22184 71083 11966 63015 11303 21346 30092 40137 53001 69901 77677 81071 333 11302 21319 48054 79999 90983
AAXX 22184 71090 46128 83317 11193 21226 39971 40006 57001 6///1 333 11181 21201 7////
AAXX 22184 71091 460// /3611 11226 39742 49955 56005 6///1 333 7////
AAXX 22184 71092 47806 30934 11184 39254 49923 58001 6///1 745// 333 11184 21248 7////
AAXX 22184 71093 460// /0515 11187 39451 49951 56004 6///1 333 11186 21208 7////
AAXX 22184 71094 46004 /0320 11180 38965 49865 56010 6///1 333 11180 21221 7////
AAXX 22184 71095 46120 81902 11259 21295 39948 40030 56004 6///1 333 11240 21282 7////
AAXX 22184 71101 160// /1427 30058 56031 60001 333 70000
AAXX 22184 71104 12974 81407 11061 21102 39153 40302 56010 60001 86071 333 11061 21119 70000
AAXX 22184 71108 12983 20106 10002 21025 30240 40315 57007 60001 81041 333 10002 21034 70000
AAXX 22184 71109 12980 41115 10047 21006 30207 40234 57026 60001 82071 333 10048 20004 70000
AAXX 22184 71250 NIL
AAXX 22184 71251 16/// /2708 11007 21078 39289 40241 51009 60001 333 11007 21126 70000
AAXX 22184 71252 NIL
AAXX 22184 71253 46/// /2102 11126 21129 6///1 333 11106 21225 7////
AAXX 22184 71254 16/// /2309 11009 21077 60001 333 11009 21084 70006
AAXX 22184 71255 16/// /2712 11040 21090 60001 333 11040 21146 70003
AAXX 22184 71256 46/// /2803 11023 21085 39234 40184 51004 6///1 333 11022 21080 7////
AAXX 22184 71257 NIL
AAXX 22184 71258 NIL
AAXX 22184 71259 NIL
AAXX 22184 71261 16/// /2707 10032 20001 39915 40177 51005 60001 333 10044 20027 70121
AAXX 22184 71263 13560 82608 10054 20012 39887 40177 58006 69901 885// 333 10055 20020 70032
AAXX 22184 71264 17/// /3407 10085 20071 30027 40058 53018 69971 7//4/ 333 10102 20028 70281
AAXX 22184 71265 15966 12610 10067 20001 30078 40172 50001 60001 333 10068 20026 70015
AAXX 22184 71266 NIL
AAXX 22184 71267 15966 02618 10008 21098 39128 40247 51005 60001 333 10008 21111 70000
AAXX 22184 71268 11574 73604 10007 21005 39769 40177 53009 69901 70372 87500 333 10014 21040 79999 90959
AAXX 22184 71269 NIL
AAXX 22184 71270 NIL
AAXX 22184 71271 16/// ///// 11012 21076 60001 333 11011 21061 70000
AAXX 22184 71272 15966 01502 11302 21332 39832 40212 58010 60001 333 11293 21327 70000
AAXX 22184 71273 16/// /2607 11023 21101 39473 40144 57006 60001 333 11023 21123 70000
AAXX 22184 71274 NIL
AAXX 22184 71275 NIL
AAXX 22184 71276 NIL
AAXX 22184 71277 NIL
AAXX 22184 71278 NIL
AAXX 22184 71279 16/// /2703 11016 21053 30006 40072 56006 60001 333 11015 21079 70011
AAXX 22184 71281 NIL
AAXX 22184 71282 46/// /2610 10031 20026 39899 40170 58001 6///1 333 10032 20020 7////
AAXX 22184 71283 NIL
AAXX 22184 71284 16/// ///// 11024 21080 60001 333 11009 21092 70000
AAXX 22184 71285 NIL
AAXX 22184 71286 NIL
AAXX 22184 71287 NIL
AAXX 22184 71288 NIL
AAXX 22184 71289 NIL
AAXX 22184 71290 15466 81409 11030 21049 39394 40243 56013 60001 333 11031 21121 70000
AAXX 22184 71291 16/// /3007 11120 21165 39957 40261 51015 60001 333 11070 21126 70000
AAXX 22184 71292 15966 82008 11086 21102 39591 40215 58016 60001 333 11045 21101 70006
AAXX 22184 71294 16/// /2404 10023 20003 39753 40157 55004 60001 333 10030 21010 70121
AAXX 22184 71295 NIL
AAXX 22184 71296 NIL
AAXX 22184 71297 16/// /2605 10069 20019 60001 333 10070 20024 70010
AAXX 22184 71298 16/// /2506 10056 20028 39949 40180 58002 60001 333 10058 20048 70000 555 10010
AAXX 22184 71299 NIL
AAXX 22184 71864 NIL
AAXX 22184 71865 16/// /2113 11055 21094 39493 40186 58027 60001 333 11049 21107 70000
AAXX 22184 71866 46864 82212 11062 21099 39552 40178 58021 6///1 333 11062 21120 7////
AAXX 22184 71867 11574 81412 11121 21139 39853 40199 58028 69901 77122 885// 333 11121 21153 47021 79999 90942
AAXX 22184 71868 16/// /0701 11088 21119 39735 40189 58024 60001 333 11088 21172 70000
AAXX 22184 71869 12974 82107 11073 21097 39621 40156 57029 60001 87071 333 11061 21106 79999
AAXX 22184 71871 15966 02714 11025 21084 39349 40169 58002 60001 333 11024 21085 70000
AAXX 22184 71877 12986 81806 10015 21128 38936 40232 52004 60001 81071 333 10026 21092 70000
AAXX 22184 71878 12874 82103 11042 21093 39125 40229 51003 60001 83071 333 11042 21145 70000
AAXX 22184 71879 16764 32204 11001 21090 39369 40184 56001 60001 333 10009 21062 70005
AAXX 22184 71880 12582 62903 11087 21121 39217 40367 53006 60001 81571 333 11086 21130 70000
AAXX 22184 71882 160// /3206 11025 21071 39815 40373 50003 60001 333 11025 21059 70000
AAXX 22184 71883 46/// /0000 11097 21105 39504 40362 55002 6///1 333 11097 21147 7////
AAXX 22184 71887 12986 51006 11050 21081 39921 40360 53004 60001 82071 333 11025 21086 70000
AAXX 22184 71889 12974 60902 11034 21086 39940 40376 52010 60001 82071 333 11033 21092 70000
AAXX 22184 71891 16964 00000 11041 21055 30062 40347 53004 60001 333 11038 21051 70000
AAXX 22184 71892 12980 21202 10020 21018 30308 40313 56010 60001 81072 333 10020 21029 70000
AAXX 22184 71150 NIL
AAXX 22184 71151 NIL
AAXX 22184 71152 17/// /3307 10062 20057 39975 49988 55015 60081 7//4/ 333 10064 21013 70234
AAXX 22184 71153 16/// /2816 10016 21124 60001 333 10026 21104 70000
AAXX 22184 71154 17/// /2324 11019 21116 60021 7//4/ 333 11016 21072 70045
AAXX 22184 71155 NIL
AAXX 22184 71156 NIL
AAXX 22184 71157 NIL
AAXX 22184 71158 NIL
AAXX 22184 71159 NIL
AAXX 22184 71160 NIL
AAXX 22184 71161 16/// /2407 10057 20000 30010 40159 56005 60001 333 10060 20000 70088
AAXX 22184 71162 NIL
AAXX 22184 71163 46/// /3201 11235 21256 39739 40093 51018 6///1 333 11171 21235 7////
AAXX 22184 71164 NIL
AAXX 22184 71165 NIL
AAXX 22184 71166 NIL
AAXX 22184 71167 15866 62710 11006 21102 39085 40203 53001 60001 333 10012 21106 70000
AAXX 22184 71168 NIL
AAXX 22184 71170 NIL
AAXX 22184 71171 16/// /2709 10069 20021 30069 40165 58004 60001 333 10072 20036 70023
AAXX 22184 71172 16/// ///// 10028 20011 39933 40151 58002 60001 333 10035 21005 70041
AAXX 22184 71175 NIL
AAXX 22184 71176 460// /2455 11222 39189 49880 58035 6///1 333 11171 21222 7////
AAXX 22184 71177 460// /2217 11217 38937 49961 56012 6///1 333 11182 21219 7////
AAXX 22184 71178 17/// /1724 10034 20026 39974 40006 56089 60041 7//4/ 333 10034 21048 70043
AAXX 22184 71179 460// /2615 11132 39164 49998 56010 6///1 333 11114 21201 7////
AAXX 22184 71180 16/// /3318 10037 20029 39975 40014 53006 60001 333 10081 21016 70188
AAXX 22184 71181 17328 82114 10077 20069 39935 49971 56041 60181 74344 333 10080 21035 70210
AAXX 22184 71183 17/// /2709 30118 51002 60051 7//4/ 333 70117
AAXX 22184 71184 46/// /2613 10029 21005 6///1 333 10030 21037 7////
AAXX 22184 71186 NIL
AAXX 22184 71187 15966 00909 11011 21028 30287 40337 56004 60001 333 10002 21027 70005
AAXX 22184 71189 NIL
AAXX 22184 71190 NIL
AAXX 22184 71191 17/// ///// 10033 20020 69941 7//4/ 333 10054 20025 70276
AAXX 22184 71192 15966 01905 11059 21074 39612 40298 58009 60001 333 11034 21115 70000
AAXX 22184 71193 16/// /3207 11140 21182 39841 40216 53009 60001 333 11041 21144 70000
AAXX 22184 71196 17/// /0000 10001 21001 39956 40156 58005 60021 7//4/ 333 10002 21035 70097 555 10010
AAXX 22184 71197 17150 83017 10054 20051 39957 40006 55003 60021 74344 333 10069 21015 70190
AAXX 22184 71198 46/// /2311 10012 21003 6///1 333 10019 21040 7////
AAXX 22184 71199 46/// /1108 11026 21045 39230 40061 56018 6///1 333 11018 21084 7//// 555 10100
AAXX 22184 71816 12574 62104 11065 21101 39969 40031 56010 60001 81570 333 11064 21154 70000
AAXX 22184 71817 12474 83104 11020 21060 30000 40013 57028 60001 886// 333 70000
AAXX 22184 71818 11674 82708 11064 21082 30003 40021 57019 69901 77122 86505 333 11058 21123 43018 79999 90910
AAXX 22184 71822 11566 83110 11116 21135 39671 40155 53013 69901 77177 885// 333 11034 21121 47040 70004 90973
AAXX 22184 71825 11574 22810 11104 21152 39375 40055 51005 69901 70171 82500 333 11071 21121 47086 70008 90913
AAXX 22184 71827 11474 22810 11206 21238 39903 40160 52018 69901 78571 82501 333 11194 21243 47020 79999 90962
AAXX 22184 71828 16464 82809 11180 21228 39407 40061 55002 60001 333 11120 21183 70010
AAXX 22184 71831 11574 12807 11157 21205 39942 40235 51007 69901 70177 81500 333 11121 21163 48039 79999 90943
AAXX 22184 71832 NIL
AAXX 22184 71834 11574 73306 11145 21205 39800 40248 52006 69901 77177 87500 333 11130 21153 48026 70004 90983
AAXX 22184 71841 NIL
AAXX 22184 71842 11574 83303 11121 21155 39767 40256 58001 69901 77177 885// 333 11108 21139 47011 70004 90983
AAXX 22184 71844 NIL
AAXX 22184 71845 12474 22906 11169 21211 39750 40249 50001 60001 82100 333 11152 21213 70002
AAXX 22184 71850 11474 82103 11082 21127 39734 40252 58002 69901 70277 885// 333 11082 21113 48007 79999 90923
AAXX 22184 71852 16464 81806 11069 21090 39942 40245 58003 60001 333 11064 21122 70000
AAXX 22184 71854 11461 83004 11116 21144 39760 40253 51004 69901 77177 885// 333 11115 21159 48016 70008 90993
AAXX 22184 71858 NIL
AAXX 22184 71861 NIL
AAXX 22184 71862 12974 72313 11052 21096 39533 40253 58008 60001 80001 333 11050 21108 70000
AAXX 22184 71863 46864 32110 11064 21108 39507 40223 58018 6///1 333 11045 21131 7////
AAXX 22184 71665 16/// /2916 11137 21219 30021 40031 53003 60001 333 11113 21151 70000
AAXX 22184 71666 16/// /3106 10005 20002 30044 40089 53018 60001 333 10036 20003 70082
AAXX 22184 71667 NIL
AAXX 22184 71668 16/// /2809 10025 21004 30057 40100 53013 60001 333 10032 21062 70123
AAXX 22184 71669 NIL
AAXX 22184 71670 17/// ///// 10005 20000 69931 7//4/ 333 10007 21009 70099
AAXX 22184 71671 16/// /3204 10044 20041 30022 40082 52029 60001 333 10090 20011 70119
AAXX 22184 71672 16/// /2704 10046 21011 39901 40166 56005 60001 333 10056 21008 70050
AAXX 22184 71673 NIL
AAXX 22184 71674 NIL
AAXX 22184 71675 15966 02710 11236 21272 39939 40235 50002 60001 333 11216 21269 70043
AAXX 22184 71679 NIL
AAXX 22184 71680 NIL
AAXX 22184 71681 46/// /1301 11072 21084 6///1 333 11060 21081 7////
AAXX 22184 71682 NIL
AAXX 22184 71683 NIL
AAXX 22184 71684 17459 83110 11078 21105 39888 40195 52025 60001 771// 333 11009 21078 70000
AAXX 22184 71685 15566 83206 11023 21062 39813 40371 50002 60001 333 11023 21057 70000
AAXX 22184 71686 469// /2106 11002 21040 39105 40056 6///1
AAXX 22184 71687 NIL
AAXX 22184 71688 16/// /2702 11059 21065 39236 40303 58004 60001 333 11052 21083 70000
AAXX 22184 71689 15966 02511 11041 21084 39653 40117 58003 60001 333 11041 21162 70000
AAXX 22184 71690 NIL
AAXX 22184 71691 15566 62306 11015 21045 30074 40102 53003 60001 333 11015 21128 70000
AAXX 22184 71692 NIL
AAXX 22184 71694 16/// /2906 10020 20003 39808 40174 50001 60001 333 10022 21019 70051
AAXX 22184 71695 16/// /1409 11120 21146 39848 40194 58029 60001 333 11120 21151 70000
AAXX 22184 71696 16/// /2811 11273 21307 30153 40192 51006 60001 333 11258 21283 70000
AAXX 22184 71697 15966 02808 10052 21008 39997 40169 58002 60001 333 10055 21018 70043
AAXX 22184 71699 16/// /3209 10042 20026 30094 40101 51015 60001 333 10089 20032 70103
AAXX 22184 71950 15966 61405 11060 21074 39544 40189 57025 60001 333 11059 21110 70000
AAXX 22184 71952 16/// /1003 11043 21080 39337 40209 58019 60001 333 11043 21182 70000
AAXX 22184 71954 46/// /1606 11136 21158 39800 40190 58030 6///1 333 11136 21165 7////
AAXX 22184 71956 NIL
AAXX 22184 71959 NIL
AAXX 22184 71960 460// /3012 11235 39970 40107 51021 6///1 333 11200 21251 7////
AAXX 22184 71962 16/// /2202 11081 21106 39823 40260 58001 60001 333 11070 21129 70000
AAXX 22184 71963 NIL
AAXX 22184 71967 16/// /2410 10004 21010 30066 40172 53009 60001 333 10006 21005 70105
AAXX 22184 71970 NIL
AAXX 22184 71971 16/// /0503 11278 21304 39972 40019 56003 60001 333 11263 21306 70000
AAXX 22184 71972 460// ///// 11164 39416 49877 58001 6///1 333 11096 21164 7////
AAXX 22184 71973 46/// /0701 10039 20024 39819 40004 56012 6///1 333 10045 21034 7////
AAXX 22184 71974 NIL
AAXX 22184 71975 460// /0616 11148 39124 49846 51002 6///1 333 11147 21177 7////
AAXX 22184 71976 NIL
AAXX 22184 71977 NIL
AAXX 22184 71978 NIL
AAXX 22184 71979 NIL
AAXX 22184 71980 46/// /0801 11177 21199 6///1 333 11176 7////
AAXX 22184 71981 NIL
AAXX 22184 71982 NIL
AAXX 22184 71983 NIL
AAXX 22184 71984 16/// /2913 11210 21230 30062 40070 53026 60001 333 11110 21210 70003
AAXX 22184 71985 NIL
AAXX 22184 71986 NIL
AAXX 22184 71987 16/// /3313 10007 21023 30069 40078 53017 60001 333 10023 20000 70113
AAXX 22184 71988 NIL
AAXX 22184 71989 16/// /0404 11350 21386 30031 40048 52003 60001 333 11240 21373 70000
AAXX 22184 71990 NIL
AAXX 22184 71999 46/// ///// 11017 6///1 333 11016 21057 7////
AAXX 22184 71700 15766 12704 10026 20011 30078 40104 51013 69931 333 10029 21062 70111
AAXX 22184 71701 11374 82706 10028 20014 30040 40102 53009 69941 70265 885// 333 10028 21058 41997 70108 90923
AAXX 22184 71702 16/// /3610 10013 21006 30065 40080 53027 60001 333 10046 20004 70167
AAXX 22184 71703 11674 82704 11011 21034 39813 40112 55002 69901 70372 83572 333 11011 21050 42007 70032 90951
AAXX 22184 71704 15566 82907 10049 20001 39961 40183 5/002 60001 333 10054 20035 70013
AAXX 22184 71710 NIL
AAXX 22184 71712 17/// /2506 10029 20001 30106 40167 53001 60031 7//4/ 333 10030 21017 70138
AAXX 22184 71713 16/// /2411 10001 21013 60001 333 10006 21019 70000
AAXX 22184 71716 NIL
AAXX 22184 71717 NIL
AAXX 22184 71720 16/// /0803 10002 21015 30152 40309 58011 60001 333 10007 21024 70000
AAXX 22184 71721 NIL
AAXX 22184 71723 NIL
AAXX 22184 71724 NIL
AAXX 22184 71732 NIL
AAXX 22184 71733 16/// /3408 11021 21034 39734 40167 53009 60001 333 11011 21054 70000
AAXX 22184 71734 NIL
AAXX 22184 71736 NIL
AAXX 22184 71737 NIL
AAXX 22184 71741 16/// /1106 11050 21079 39917 40354 51005 60001 333 11025 21086 70000
AAXX 22184 71742 NIL
AAXX 22184 71743 NIL
AAXX 22184 71744 NIL
AAXX 22184 71745 NIL
AAXX 22184 71746 NIL
AAXX 22184 71747 NIL
AAXX 22184 71748 NIL
AAXX 22184 71744 NIL
AAXX 22184 71750 16/// /0304 11115 21165 30005 40248 51014 60001 333 11064 21117 70000
AAXX 22184 71751 NIL
AAXX 22184 71752 NIL
AAXX 22184 71753 16/// /3309 10057 20032 30035 40064 53031 60001 333 10097 20014 70178
AAXX 22184 71754 16/// /2705 11029 21098 39493 40168 56015 60001 333 11029 21112 70000
AAXX 22184 71755 43/// /2707 11218 21269 39885 40251 50005 6///1 333 11218 21314 7////
AAXX 22184 71756 16/// /0000 11054 21091 39183 40309 57005 60001 333 11040 21072 70000 555 10010
AAXX 22184 71758 NIL
AAXX 22184 71760 NIL
AAXX 22184 71761 NIL
AAXX 22184 71762 NIL
AAXX 22184 71763 NIL
AAXX 22184 71765 16/// /0000 11043 21054 30060 40345 53004 60001 333 11041 21053 70000
AAXX 22184 71766 16/// /1503 10002 21016 30229 40302 56009 60001 333 10003 21033 70000
AAXX 22184 71767 NIL
AAXX 22184 71768 46/// /2702 11052 21107 39802 40373 53008 6///1 333 11049 21088 7////
AAXX 22184 71769 16/// /1212 10034 20009 30278 40294 56011 60001 333 10040 20020 70000
AAXX 22184 71770 16/// /1002 11036 21071 39576 40377 51005 60001 333 11036 21056 70000
AAXX 22184 71771 NIL
AAXX 22184 71772 16/// /1608 10038 20015 30295 40301 55010 60001 333 10040 20024 70000
AAXX 22184 71773 17/// /1707 11021 21028 39113 49957 56033 60011 7//4/ 333 11016 21037 70035 555 10030
AAXX 22184 71774 46/// ///// 11003 6///1 333 10005 21020 7////
AAXX 22184 71775 46/// /0000 11003 21004 30309 40315 56009 6///1 333 11003 21045 7////
AAXX 22184 71776 46/// /2609 11058 21075 39717 40385 53002 6///1 333 11039 21076 7////
AAXX 22184 71777 16/// ///// 11075 21081 30080 40343 58001 60001 333 11064 21096 70000
AAXX 22184 71778 46/// /0218 6///1 333 7////
AAXX 22184 71779 16/// /1402 11059 21078 39608 40292 58009 60001 333 11033 21120 70000
AAXX 22184 71780 16/// /1011 10039 21004 30275 40303 56011 60001 333 10039 20011 70000
AAXX 22184 71781 46/// /1315 10033 20010 30271 40296 56007 6///1 333 10043 20032 7////
AAXX 22184 71782 46/// /0000 11125 21142 38974 40365 53003 6///1 333 11114 21152 7////
AAXX 22184 71783 16/// /0204 10032 20007 30229 40304 55006 60001 333 10032 21016 70000
AAXX 22184 71784 16/// /3101 10006 21016 30093 40303 56009 60001 333 10006 21012 70000 555 10010
AAXX 22184 71785 16/// /0704 10017 21028 30302 40318 56007 60001 333 10019 21011 70000
AAXX 22184 71786 46/// /2519 11133 21150 38446 40352 53008 6///1 333 11116 21133 7////
AAXX 22184 71787 16/// /3109 11001 21001 39601 40086 53020 60001 333 10064 21010 70115
AAXX 22184 71788 NIL
AAXX 22184 71789 NIL
AAXX 22184 71791 NIL
AAXX 22184 71792 NIL
AAXX 22184 71793 NIL
AAXX 22184 71794 NIL
AAXX 22184 71795 NIL
AAXX 22184 71796 NIL
AAXX 22184 71797 NIL
AAXX 22184 71300 NIL
AAXX 22184 71301 17/// ///// 11105 21130 39782 40189 51015 69991 7//4/ 333 11013 21105 70009 555 10020
AAXX 22184 71302 16/// /1812 11037 21071 39418 40254 58014 60001 333 11024 21080 70000
AAXX 22184 71303 46/// ///// 10052 20035 6///1 333 10052 20045 7////
AAXX 22184 71305 15966 00902 11174 21190 39799 40098 53012 60001 333 11119 21186 70000
AAXX 22184 71306 17348 12717 11190 21221 30028 40061 53005 60001 704// 333 11190 21196 70000
AAXX 22184 71307 NIL
AAXX 22184 71308 16/// /3212 10043 20038 39967 40050 53019 60001 333 10098 21004 70093
AAXX 22184 71309 NIL
AAXX 22184 71310 16/// /3509 10013 20008 30027 40064 53023 60001 333 10060 21008 70146
AAXX 22184 71311 NIL
AAXX 22184 71312 16/// /1809 11090 21102 39693 40161 58034 60001 333 11090 21138 70004
AAXX 22184 71314 16/// /2704 10029 20001 39809 40163 50001 60001 333 10035 21005 70142
AAXX 22184 71315 16/// /2506 11002 21050 30035 40089 50000 60001 333 11001 21077 70000
AAXX 22184 71316 16/// /2710 11015 21081 39459 40151 53002 60001 333 11013 21070 70000
AAXX 22184 71317 NIL
AAXX 22184 71318 16/// /2608 11019 21093 39236 40199 51001 60001 333 10000 21110 70000 555 10010
AAXX 22184 71319 16/// /3104 11036 21038 39244 40110 53001 60001 333 11025 21064 70010
AAXX 22184 71320 16/// /3113 11321 21352 39993 49993 56005 60001 333 11316 21341 70000
AAXX 22184 71321 NIL
AAXX 22184 71322 17/// /3210 11291 21320 30166 40180 53007 69991 7//4/ 333 11265 21316 70012
AAXX 22184 71323 NIL
AAXX 22184 71331 16/// /1505 11144 21166 60001 333 11144 21219 70000
AAXX 22184 71332 NIL
AAXX 22184 71334 NIL
AAXX 22184 71335 46964 02734 11188 58003 6///1 333 11150 21191 7////
AAXX 22184 71336 46/// ///38 10043 20037 39964 49986 56092 6///1 333 10044 21037 7////
AAXX 22184 71337 46/// /1203 10005 20004 39764 40000 56038 6///1 333 10006 21069 7////
AAXX 22184 71338 47564 80506 11174 21208 39945 49952 5/008 6///1 745// 333 11174 21269 7////
AAXX 22184 71339 16464 83303 11020 21060 39998 40013 56029 60001 333 11009 21092 70000
AAXX 22184 71340 NIL
AAXX 22184 71341 NIL
AAXX 22184 71342 NIL
AAXX 22184 71343 NIL
AAXX 22184 71344 NIL
AAXX 22184 71345 NIL
AAXX 22184 71346 NIL
AAXX 22184 71347 NIL
AAXX 22184 71348 NIL
AAXX 22184 71349 NIL
AAXX 22184 71051 NIL
AAXX 22184 71055 NIL
AAXX 22184 71057 NIL
AAXX 22184 71059 460// ///// 11193 39940 40032 51013 6///1 333 11132 21264 7////
AAXX 22184 71061 16/// /2405 11007 21092 39378 40169 53003 60001 333 11002 21064 70006
AAXX 22184 71062 46/// /2406 11024 21114 39088 40172 50003 6///1 333 11017 21067 7////
AAXX 22184 71064 460// /0806 11308 39849 40075 56013 6///1 333 11286 21316 7////
AAXX 22184 71065 NIL
AAXX 22184 71067 NIL
AAXX 22184 71070 NIL
AAXX 22184 71073 NIL
AAXX 22184 71074 NIL
AAXX 22184 71075 NIL
AAXX 22184 71078 NIL
AAXX 22184 71084 460// ///// 11315 30054 40104 58009 6///1 333 11314 21323 7////
AAXX 22184 71085 15966 02621 11018 21118 38863 40274 53007 60001 333 11018 21080 70000
AAXX 22184 71087 NIL
AAXX 22184 71088 460// /3213 11262 56006 6///1 333 11234 21266 7////
AAXX 22184 71089 NIL
AAXX 22184 71096 460// ///// 11206 39199 49942 57005 6///1 333 11203 21241 7////
AAXX 22184 71097 46964 02606 11151 39395 49867 55001 6///1 333 11140 21153 7////
AAXX 22184 71098 43/// /0000 11195 21239 39876 40258 50001 6///1 333 11194 21291 7////
AAXX 22184 71099 43/// /2709 11262 21315 30172 40194 51007 6///1 333 11261 21309 7////
AAXX 22184 71350 16/// /3508 10014 20005 30003 40068 53024 60001 333 10055 20000 70161
AAXX 22184 71351 NIL
AAXX 22184 71352 16/// /2810 10029 20003 39713 40170 50000 60001 333 10033 21001 70038
AAXX 22184 71353 NIL
AAXX 22184 71354 NIL
AAXX 22184 71355 16/// /0706 11236 21265 39895 49982 56009 60001 333 11216 21264 70000
AAXX 22184 71356 NIL
AAXX 22184 71357 NIL
AAXX 22184 71358 16/// /3416 11192 21213 39969 40004 58001 60001 333 11180 21200 70000
AAXX 22184 71359 NIL
AAXX 22184 71360 NIL
AAXX 22184 71361 NIL
AAXX 22184 71362 NIL
AAXX 22184 71363 NIL
AAXX 22184 71364 NIL
AAXX 22184 71365 NIL
AAXX 22184 71368 15966 02810 10044 20000 39782 40172 58004 60001 333 10050 20001 70053
AAXX 22184 71369 15966 62817 10005 21065 39446 40156 53005 60001 333 10007 21040 70000
AAXX 22184 71370 46/// /2405 10013 21006 30006 40143 53003 6///1 333 10013 21058 7////
AAXX 22184 71371 15966 02713 10032 21019 30127 40161 53002 60001 333 10032 21031 70093
AAXX 22184 71372 NIL
AAXX 22184 71373 16/// /2704 10027 21017 60001 333 10033 21007 70070
AAXX 22184 71374 NIL
AAXX 22184 71375 NIL
AAXX 22184 71376 16/// /2201 10000 21008 39865 40160 50006 60001 333 10002 21027 70060
AAXX 22184 71377 17/// /2805 10032 21002 30109 40158 56003 60041 7//4/ 333 10032 21040 70123
AAXX 22184 71378 16/// /0901 11003 21043 39932 40143 53002 60001 333 11003 21085 70000
AAXX 22184 71379 16/// /3112 11012 21050 39944 40116 53011 60001 333 10001 21071 70000
AAXX 22184 71380 NIL
AAXX 22184 71381 NIL
AAXX 22184 71382 16/// /2003 11047 21058 39175 40114 53007 60001 333 11031 21063 70000
AAXX 22184 71383 NIL
AAXX 22184 71384 NIL
AAXX 22184 71385 NIL
AAXX 22184 71386 16/// /3205 11005 21056 39884 40091 55002 60001 333 11005 21083 70000
AAXX 22184 71387 NIL
AAXX 22184 71388 46/// /2908 11001 21031 39936 40125 53003 6///1 333 11001 21064 7////
AAXX 22184 71389 NIL
AAXX 22184 71390 46/// /2807 11007 6///1 333 11007 21070 7////
AAXX 22184 71391 16/// ///// 10006 21002 60001 333 10007 21036 70101
AAXX 22184 71392 16/// /2404 10001 21022 60001 333 10002 21049 70040
AAXX 22184 71393 NIL
AAXX 22184 71395 11374 83408 10061 20057 39890 40066 53020 69981 70265 885// 333 10100 20013 70245 90926
AAXX 22184 71398 17966 02809 11189 21232 30212 40224 50014 60001 771// 333 11159 21203 70000
AAXX 22184 71399 NIL
AAXX 22184 71550 NIL
AAXX 22184 71551 NIL
AAXX 22184 71552 NIL
AAXX 22184 71553 16/// /2309 11071 21088 60001 333 11062 21111 70007
AAXX 22184 71554 16/// /2412 10002 21020 30102 40108 55003 60001 333 10004 21073 70000
AAXX 22184 71555 16/// /2716 10011 21170 38645 40232 53010 60001 333 10011 21086 70000
AAXX 22184 71556 NIL
AAXX 22184 71557 46/// /0801 11075 21094 6///1 333 11074 21122 7////
AAXX 22184 71558 46/// ///// 10002 21006 39964 40001 56031 6///1 333 10002 21080 7////
AAXX 22184 71559 46/// /2411 11051 21095 39531 40250 58008 6///1 333 11051 21107 7////
AAXX 22184 71560 16/// /1905 11055 21083 39939 40251 50002 60001 333 11055 21118 70000
AAXX 22184 71563 NIL
AAXX 22184 71564 NIL
AAXX 22184 71565 NIL
AAXX 22184 71566 NIL
AAXX 22184 71567 NIL
AAXX 22184 71568 16/// /1212 10041 20004 30275 40288 58014 60001 333 10044 20024 70000
AAXX 22184 71569 16/// /2111 11053 21092 39491 40208 58019 60001 333 11053 21124 70000
AAXX 22184 71570 16/// /2503 11065 21105 39927 40249 58001 60001 333 11065 21099 70000
AAXX 22184 71571 NIL
AAXX 22184 71572 NIL
AAXX 22184 71573 17/// /2703 10048 20012 39888 40171 58001 69951 7//4/ 333 10049 20034 70022
AAXX 22184 71574 12574 72908 10006 21051 30017 40090 53006 60001 81878 333 10009 21053 70034
AAXX 22184 71575 16/// /2907 11215 21243 39892 49958 53007 60001 333 11168 21215 70000
AAXX 22184 71576 16/// /1801 11259 21288 39944 40032 56003 60001 333 11240 21281 70000
AAXX 22184 71577 46/// /2102 11053 21101 6///1 333 11053 21091 7////
AAXX 22184 71578 16/// /2508 10006 21031 60001 333 10011 21045 70033
AAXX 22184 71579 16/// /2103 11068 21098 39949 40241 58002 60001 333 11057 21090 70000
AAXX 22184 71580 11574 11507 11333 21366 30043 40081 50001 69901 70370 81500 333 11324 21361 44030 79999 90937
AAXX 22184 71581 NIL
AAXX 22184 71582 15966 00602 10020 20002 30155 40209 56036 60001 333 10029 20010 70000
AAXX 22184 71583 NIL
AAXX 22184 71584 15966 02708 11021 21045 30008 40055 60001 333 70000
AAXX 22184 71585 NIL
AAXX 22184 71586 16/// /1502 11082 21096 39650 40128 57025 60001 333 11082 21198 70000
AAXX 22184 71587 NIL
AAXX 22184 71588 16/// /2301 10037 20025 60001 333 10037 21038 70000
AAXX 22184 71589 17/// /1809 10034 20033 39868 40000 56073 60051 7//4/ 333 10034 21077 70059
AAXX 22184 71590 16/// /3305 10006 21045 39916 40108 55003 60001 333 10007 21037 70005
AAXX 22184 71592 NIL
AAXX 22184 71593 NIL
AAXX 22184 71596 NIL
AAXX 22184 71598 17/64 /2708 10003 21028 30075 40081 53003 69951 7//4/ 333 10005 21040 70033
AAXX 22184 71599 NIL
AAXX 22184 71201 16/// ///// 10046 21025 60001 333 10050 20003 70000
AAXX 22184 71202 16/// ///// 11023 21078 60001 333 11019 21101 70000
AAXX 22184 71203 15966 01801 11069 21096 39831 40376 53006 60001 333 11064 21109 70000
AAXX 22184 71209 46/// /1502 10016 6///1 333 10031 20010 7////
AAXX 22184 71211 46/// /0523 10021 21027 30292 40304 56016 6///1 333 10028 20017 7////
AAXX 22184 71212 16/// /3105 11035 21053 39310 40119 53007 60001 333 11014 21059 70006 555 10010
AAXX 22184 71213 46/// /3209 11077 21098 39887 40193 53024 6///1 333 11007 7////
AAXX 22184 71214 NIL
AAXX 22184 71215 46/// /1606 11043 21103 30016 40376 53007 6///1 333 11042 21089 7////
AAXX 22184 71216 16/// /1101 11026 21071 39737 40377 53009 60001 333 11026 21072 70000
AAXX 22184 71217 NIL
AAXX 22184 71218 16/// /2203 11048 21075 39917 40362 50005 60001 333 11036 21079 70000
AAXX 22184 71219 46/// /1433 10066 20025 30119 40125 56033 6///1 333 10071 20039 7////
AAXX 22184 71220 46/// /1439 10059 20027 6///1 333 10060 20034 7////
AAXX 22184 71221 NIL
AAXX 22184 71222 16/// /2205 11005 21036 39105 40070 58021 60001 333 11002 21137 70000
AAXX 22184 71223 NIL
AAXX 22184 71224 NIL
AAXX 22184 71225 NIL
AAXX 22184 71226 NIL
AAXX 22184 71227 NIL
AAXX 22184 71228 NIL
AAXX 22184 71229 NIL
AAXX 22184 71230 16/// /2706 10004 21064 39284 40183 50001 60001 333 10013 21079 70000
AAXX 22184 71231 16/// /2910 11002 21078 60001 333 11002 21117 70000
AAXX 22184 71232 16/// /2409 11037 21151 38719 40248 53011 60001 333 11035 21064 70000
AAXX 22184 71233 16/// /2402 11002 21124 60001 333 11001 21073 70000
AAXX 22184 71234 16/// /2715 10028 21145 39023 40227 53011 60001 333 10028 21123 70000
AAXX 22184 71235 16/// /2910 10014 21149 60001 333 10014 21100 70000
AAXX 22184 71236 46/// /3217 11042 21119 6///1 333 11037 21083 7////
AAXX 22184 71237 46/// /1401 11064 21113 39381 40223 51004 6///1 333 11064 21143 7////
AAXX 22184 71238 16/// /2603 11001 21077 60001 333 10004 21086 70007
AAXX 22184 71239 16/// /2809 11042 21067 39768 40246 50000 60001 333 11042 21122 70000
AAXX 22184 71240 16/// ///// 11027 21103 39338 40202 58001 60001 333 11027 21094 70000
AAXX 22184 71241 NIL
AAXX 22184 71242 16/// /1705 11044 21102 60001 333 11044 21117 70000 555 10010
AAXX 22184 71243 NIL
AAXX 22184 71244 16/// /2913 11001 21107 38982 40241 53006 60001 333 11001 21141 70000
AAXX 22184 71245 NIL
AAXX 22184 71246 NIL
AAXX 22184 71247 15966 62308 11013 21065 39357 40232 53001 60001 333 11011 21112 70000
AAXX 22184 71248 16/// /0000 11059 21123 38888 40230 50001 60001 333 11059 21173 70007
AAXX 22184 71249 NIL
AAXX 22184 71102 NIL
AAXX 22184 71105 NIL
AAXX 22184 71107 NIL
AAXX 22184 71110 NIL
AAXX 22184 71111 17458 81432 10068 20058 30057 40065 56035 69981 7614/ 333 10089 20020 70008
AAXX 22184 71112 16/// ///// 60001 333 70000
AAXX 22184 71113 17/// /3403 10017 21036 30295 40319 56007 69921 7//4/ 333 10018 21013 70002
AAXX 22184 71115 16/// /1206 11059 21092 39758 40363 52009 60001 333 11047 21080 70003
AAXX 22184 71116 16/// /1002 11053 21086 39126 40255 56007 60001 333 11053 21138 70000
AAXX 22184 71118 16/// /2910 11016 21071 39345 40186 50004 60001 333 11014 21096 70000
AAXX 22184 71121 16764 32405 11008 21108 39347 40182 56001 60001 333 11001 21075 70000
AAXX 22184 71127 16/// /2405 11026 21095 39259 40185 50001 60001 333 11020 21064 70000
AAXX 22184 71130 15866 81510 11086 21094 39698 40167 58032 60001 333 11086 21131 70000
AAXX 22184 71132 17559 80908 11158 21174 39797 40124 56016 60001 771// 333 11157 21291 70000
AAXX 22184 71133 46/// /2610 11047 21113 39424 40141 56011 6///1 333 11039 21109 7////
AAXX 22184 71139 NIL
AAXX 22184 71141 NIL
AAXX 22184 71142 15966 82219 11070 21107 39219 40213 56017 60001 333 11070 21114 70000
AAXX 22184 71143 NIL
AAXX 22184 71144 NIL
AAXX 22184 71147 NIL
AAXX 22184 71149 NIL
AAXX 22184 71114 160// /0909 11011 21038 30287 40337 56004 60001 333 10005 21027 70000
AAXX 22184 71120 12974 82812 11027 21096 39484 40150 57002 60001 83071 333 11027 21076 79999
AAXX 22184 71122 16/// /2310 11092 21141 38647 40309 58001 60001 333 21121 7////
AAXX 22184 71123 12774 82307 11006 21071 39311 40191 50001 60001 8657/ 333 11005 21114 70000
AAXX 22184 71125 12874 62513 11043 21088 39550 40145 50000 60001 82071 333 79999
AAXX 22184 71129 12474 82606 11049 21092 39350 40202 58006 60001 84572 333 11049 21122 79999
AAXX 22184 71131 16/// /2508 11116 21126 38944 40246 58004 60001 333 11108 21151 70000
AAXX 22184 71135 16/// /2515 11079 21113 39124 40246 58015 60001 333 11079 21131 70000
AAXX 22184 71137 16/// /0902 11139 21153 39274 40262 58009 60001 333 11128 21227 70000
AAXX 22184 71140 11574 72711 11044 21061 39728 40246 5/001 69901 70277 87500 333 11044 21121 43002 70002 90933
AAXX 22184 71145 12974 00000 11223 21264 39947 40260 50001 60001 333 11210 21262 70004
AAXX 22184 71148 16/// /2805 11049 21073 39652 40250 58001 60001 333 11048 21122 70000
AAXX 22184 71185 17019 80000 10020 39978 40002 56016 60021 7//44 333 10026 21029 70030
AAXX 22184 71188 12674 73306 10009 21069 30029 40072 53001 60001 81574 333 10012 21104 79999
AAXX 22184 71200 16/// /0107 10024 20017 60001 333 10026 20000 70000
AAXX 22184 71207 16/// /3603 11019 21034 30253 40319 56009 60001 333 11019 21044 70000
AAXX 22184 71260 13/// ///// 11031 21075 39967 40207 50016 69901 333 10025 21033 45997 79999
AAXX 22184 71726 16/// /2603 11020 21030 39591 40136 51008 60001 333 11018 21040 70000
AAXX 22184 71727 12482 82809 11003 21038 39929 40128 53002 60001 885// 333 11001 21064 79999
AAXX 22184 71728 12582 82707 10008 21044 39906 40129 53003 60001 8757/ 333 10008 21058 70000
AAXX 22184 71730 11374 83412 11021 21033 39741 40171 53010 69901 77172 885// 333 11010 21037 41997 79999 90945
AAXX 22184 71731 11159 82505 11014 21022 39707 40164 53004 69901 77174 885// 333 11009 21034 41997 79999 90962
AAXX 22184 71735 NIL
AAXX 22184 71738 11774 60505 11116 21168 39871 40234 50010 69901 72277 86500 333 11010 21118 47024 79999 90972
AAXX 22184 71739 41474 43307 11137 21182 39842 40216 53008 6//// 72272 84500 333 11034 21139 4//// 7//// 90983
AAXX 22184 71749 16564 83313 11096 21145 30007 40261 53011 60001 333 11046 21097 70000
AAXX 22184 71799 11080 22905 10009 20001 30288 40313 56007 60001 71111 81101 333 10012 21035 70000
AAXX 22184 71800 17/// /1732 10053 20053 39985 40018 56091 60071 7//4/ 333 10058 21035 70074
AAXX 22184 71801 11356 81731 10032 20028 39864 40037 57077 60061 76122 887// 333 10034 21054 42004 70064 90952
AAXX 22184 71803 11124 81409 10020 20015 39816 40001 56063 60041 75176 887// 333 10021 21067 42005 70042 90973
AAXX 22184 71807 NIL
AAXX 22184 71808 11328 83606 11013 21022 39969 40015 57023 69901 77176 885// 333 11010 21089 70010 90922
AAXX 22184 71809 11148 80703 10018 20011 39979 40006 56022 60011 75186 887// 333 10021 21064 43008 70040 90983
AAXX 22184 71810 16/// /2809 11014 21049 39994 40061 56002 60001 333 10001 21117 70000
AAXX 22184 71811 NIL
AAXX 22184 71813 16/// /2910 11025 21061 30030 40044 56006 60001 333 11023 21102 70000
AAXX 22184 71814 17/// /3309 11021 21033 30019 40029 55005 69951 7//4/ 333 11018 21113 70005
AAXX 22184 71815 11240 82808 10049 20049 39997 40007 55003 69941 78062 885// 333 10061 21014 42005 70046 90917
AAXX 22184 71603 12274 83214 10062 20051 30056 40109 53016 60001 88600 333 10106 20046 70294
AAXX 22184 71607 16/// /3207 10039 20009 30084 40116 51021 60001 333 10066 21005 70138
AAXX 22184 71609 11362 83212 10034 20018 39969 40102 53022 69941 70252 886// 333 10088 20014 70279 90950
AAXX 22184 71610 17466 82610 10000 21020 39863 40161 53005 69931 7004/ 333 10013 21006 70058
AAXX 22184 71621 12574 82208 10054 20008 30062 40168 58009 60001 82571 333 10060 20011 70092
AAXX 22184 71623 NIL
AAXX 22184 71624 12874 82710 10058 20002 39958 40170 50000 60001 81077 333 10058 20007 70018
AAXX 22184 71625 17156 8//// 10002 20000 39996 40158 58005 60021 7//44 333 10004 21040 70050
AAXX 22184 71627 12574 32709 10031 21018 30118 40163 51004 60001 81530 333 10033 21036 70118
AAXX 22184 71628 13560 32307 10035 20006 30020 40161 50002 60001 81870 333 10039 21036 70154
AAXX 22184 71630 NIL
AAXX 22184 71631 16/// /2505 10018 21003 39665 40168 50000 60001 333 10025 21006 70054
AAXX 22184 71633 11366 82504 10029 20016 39897 40170 50001 69941 78076 887// 333 10035 20016 70042 90915
AAXX 22184 71705 11274 83206 10016 20007 30009 40096 53022 69901 78082 887// 333 10051 20011 70104 90916
AAXX 22184 71706 NIL
AAXX 22184 71707 11574 23209 10081 20047 39945 40020 53011 69901 70155 82500 333 10099 21056 70168 90943
AAXX 22184 71709 11480 23417 10015 21011 30040 40053 53020 69901 70154 82571 333 10052 21008 41997 70164 90920
AAXX 22184 71711 NIL
AAXX 22184 71714 16/// /2607 10007 21028 30065 40158 53003 60001 333 10008 21044 70024 555 10010
AAXX 22184 71715 16/// /2206 11007 21026 39937 40120 53001 60001 333 11003 21031 70000
AAXX 22184 71718 12783 62509 10000 21029 30042 40108 55001 60001 85570 333 10005 21063 70000
AAXX 22184 71719 NIL
AAXX 22184 71401 17/// /1702 11069 21083 39676 40391 53002 60011 7//4/ 333 11067 21116 70012
AAXX 22184 71402 NIL
AAXX 22184 71404 NIL
AAXX 22184 71405 NIL
AAXX 22184 71406 NIL
AAXX 22184 71407 NIL
AAXX 22184 71408 NIL
AAXX 22184 71409 NIL
AAXX 22184 71410 15466 81803 11197 21218 39951 40246 58007 60001 333 11178 21288 70000
AAXX 22184 71413 NIL
AAXX 22184 71414 NIL
AAXX 22184 71415 16/// /3220 10033 20026 30054 40057 53020 60001 333 10091 20004 70057
AAXX 22184 71417 NIL
AAXX 22184 71418 NIL
AAXX 22184 71419 46/// /3120 10055 20050 30024 40034 53018 6///1 333 10101 20009 7////
AAXX 22184 71423 NIL
AAXX 22184 71424 46/// /2311 6///1 333 7////
AAXX 22184 71425 16/// /2912 11004 21048 30039 40075 50000 60001 333 11003 21055 70000
AAXX 22184 71426 NIL
AAXX 22184 71427 16/// /2612 11003 21045 30080 40087 55001 60001 333 11002 21052 70000
AAXX 22184 71428 16/// /2416 11006 21034 30080 40086 58002 60001 333 11006 21040 70000
AAXX 22184 71429 NIL
AAXX 22184 71434 NIL
AAXX 22184 71436 15966 02808 10048 21002 39933 40169 56006 60001 333 10049 21023 70061
AAXX 22184 71437 46/// /2306 10064 20005 30074 40169 58006 6///1 333 10065 20036 7////
AAXX 22184 71438 NIL
AAXX 22184 71439 NIL
AAXX 22184 71440 NIL
AAXX 22184 71442 NIL
AAXX 22184 71445 NIL
AAXX 22184 71446 NIL
AAXX 22184 71448 NIL
AAXX 22184 71449 17/// /2404 11068 21103 39836 40252 50004 69931 7//4/ 333 11067 21099 70003
BBXX 44099 22181 99369 70757 46/// ///// 1//// 91752 22200 00115 10802 20802 70009
AAXX 22184 71812 46964 03110 11292 21336 30165 40179 53006 6///1 333 11265 21317 7////
AAXX 22184 71819 15266 81503 10001 21002 39968 40009 56030 60001 333 10001 21079 70000
AAXX 22184 71820 16/// /2308 10057 20012 30050 40165 57010 60001 333 10061 20015 70149
AAXX 22184 71823 16564 62507 11204 21244 39735 40130 51004 60001 333 11146 21221 70010
AAXX 22184 71824 NIL
AAXX 22184 71826 NIL
AAXX 22184 71829 16/// /2609 11008 21057 39930 40093 55001 60001 333 11004 21080 70000
AAXX 22184 71833 46/// /2908 10038 21003 6///1 333 10045 21002 7////
AAXX 22184 71835 16/// /3008 11169 21202 39740 40243 50001 60001 333 11152 21214 70000
AAXX 22184 71837 NIL
AAXX 22184 71839 NIL
AAXX 22184 71840 46/// /2707 11038 21060 6///1 333 11037 21108 7////
AAXX 22184 71846 16/// /2705 11200 21234 39910 40244 50002 60001 333 11200 21260 70003
AAXX 22184 71847 NIL
AAXX 22184 71848 NIL
AAXX 22184 71849 NIL
AAXX 22184 71851 NIL
AAXX 22184 71857 NIL
AAXX 22184 71860 12883 82910 10014 21142 38806 40229 52004 60001 81041 333 10015 21116 70000
AAXX 22184 71876 15966 02606 11025 21084 39497 40173 56014 60001 333 11025 21097 70000
AAXX 22184 71885 NIL
AAXX 22184 71886 NIL
AAXX 22184 71888 NIL
AAXX 22184 71890 16/// /0505 11016 21053 30070 40098 53003 60001 333 11015 21129 70000 555 10020
AAXX 22184 71895 NIL
AAXX 22184 06030 01/03 92704 10058 20054 30122 40138 52008 69902 74354 333 10059 20017 69907 89/01
AAXX 22184 06060 01122 82507 10079 20078 30087 40152 52008 60012 71042 886// 333 10080 20025 6///7 86702
AAXX 22184 06070 07/05 02305 10056 20048 30123 40154 52004 69902 73333 333 10056 20025 6///7
AAXX 22184 06120 NIL
AAXX 22184 06180 02260 81910 10046 20035 30163 40170 52004 6///2 886// 333 10050 20012 6///7 82705 87706
AAXX 22184 06193 07258 72009 10029 20017 30174 40186 52002 6///2 71010 333 10036 20021 55300 20000 6///7 81/05 85/36 87/58
AAXX 22184 78397 12578 11214 10317 20212 30122 40138 60001 81400 333 00200 10326 20237 58001 81822
AAXX 22184 60715 12562 52906 10130 20081 30196 40203 51013 60002 84230 333 10168 58038 84826 91008 91122
AAXX 22184 60723 11565 20000 10116 20101 30028 40219 53017 60012 70161 82200 333 10165 82823
AAXX 22184 60725 12560 73508 10130 2//// 30044 40223 51015 60022 878// 333 10156 84820 84630
AAXX 22184 60735 12562 53504 10138 20077 30115 40197 52020 60022 84802 333 10171 83820
AAXX 22184 60745 12560 53506 10154 20072 39832 40200 52017 60002 85800 333 10175 85826
AAXX 22184 60748 12560 62906 10137 20094 39787 40204 52016 60002 86800 333 10158 84823 83640
AAXX 22184 60750 11560 43508 10141 20079 30169 40194 53021 69902 84800 333 10181 83820
AAXX 22184 60760 12550 63206 10166 20053 30102 40206 53013 60002 85202 333 10192 85830 91008 91118
AAXX 22184 60765 12558 63206 10169 20109 30197 40201 53013 60002 86800 333 10186 83820 84630 92436 925//
AAXX 22184 60767 12560 73608 10155 20063 30054 40197 52018 60002 878// 333 10179 82820 86626
AAXX 22184 60769 12558 70112 10165 20110 30182 40186 52018 69922 87800 333 10183 83820 85626
BBXX 44100 22181 99363 70756 46/// ///// 1//// 91752 22200 00125 10802 20802 309// 41201 70009
BBXX 41110 22181 99341 70777 46/// ///// 1//// 91751 22200 00141 10702 20702 70011
BBXX 42099 22181 99273 70842 46/// ///// 1//// 91757 22200 00231 10603 20603 70014
BBXX 41113 22181 99284 70805 46/// ///// 1//// 91751 22200 00222 10502 20502 310// 41101 70009
BBXX 41112 22181 99307 70813 46/// ///// 1//// 91751 22200 00163 11301 20601 310// 41301 70007
BBXX 42362 22181 99278 70907 46/// /2014 10239 20222 40163 91745
AAXX 22184 17500 NIL
AAXX 22184 17501 12560 73507 10133 20076 30109 40128 52004 60002 84850 333 10180 82830 83635 85360 92437
AAXX 22184 17505 12560 70000 10127 20093 30025 40138 51001 60002 84850 333 10185 82830 83635 85360
AAXX 22184 17507 NIL
AAXX 22184 17510 11560 71804 10153 20086 30105 40115 53003 69902 70282 84830 333 10186 81630 83830 85360 92427
AAXX 22184 17515 11560 70000 10132 20085 39978 40153 53004 69902 70382 84850 333 10191 82830 83635 85360
AAXX 22184 17521 11560 52103 10119 20093 39995 40132 55005 69912 70182 82150 333 10182 82825 85358
AAXX 22184 17530 11560 70000 10130 20112 30087 40144 51002 60001 70382 84850 333 10198 82830 83635 85360
AAXX 22184 17535 11560 73604 10134 20107 30090 40126 52002 69922 72582 84850 333 10188 82830 83635 85360
AAXX 22184 17540 NIL
AAXX 22184 17547 NIL
AAXX 22184 17550 12560 71410 10136 20081 39990 40135 50003 60002 84850 333 10157 82830 83635 85360 92437
AAXX 22184 17572 12560 7//// 10157 20087 30117 40141 51002 60002 84830 333 10180 81630 83830 85360 92427
AAXX 22184 17042 12970 03203 10102 20083 30112 40152 57011 60002 333 10130 92428
AAXX 22184 17074 12665 72303 10014 20007 39201 40157 57007 60002 83570 333 10087 83635 87360
AAXX 22184 17086 12670 51208 10101 21017 39420 40134 57002 60002 83530 333 10160 83635 85360
AAXX 22184 17088 12970 00802 10036 21050 38790 48491 51003 60002 333 10086
AAXX 22184 17140 12965 01404 10050 21008 38654 48443 57007 60002 333 10095
AAXX 22184 17155 11650 71503 10056 20037 38982 40100 51006 69982 76062 84570 333 10091 84635 87359 91113
AAXX 22184 17203 12670 60000 10042 21013 38884 48533 57004 60002 84250 333 10060 84840 86360
AAXX 22184 17237 11670 41004 10091 20040 39566 40066 55011 60092 70162 84500 333 10123 83635 91114
AAXX 22184 17250 12975 50305 10057 21021 38747 48442 57010 60002 85050 333 10120 85360
AAXX 22184 17270 12670 42501 10093 20019 39519 40168 58003 60002 82130 333 10143 82840 84360
AAXX 22184 17295 11560 71314 10119 20082 30065 40072 57011 60302 79598 86970 333 10161 82920 84825 87358
AAXX 22184 17320 11556 70604 10113 20077 30129 40134 53006 60112 79588 85970 333 10168 81920 84830 87358 92446
AAXX 22184 17375 11670 41001 10107 20107 30097 40099 58001 60232 70198 84100 333 10130 84836 91108 92438
AAXX 22181 13492 NIL
AAXX 22181 13584 NIL
AAXX 22181 13585 11595 83607 11015 21025 39322 40138 52022 60012 77177 8802/ 333 10001 94000 47011 92215
AAXX 22181 13597 11696 83603 10026 20006 30026 40100 52015 60082 76166 333 10042 94000
AAXX 22181 13598 11595 83604 11027 21033 48392 52018 60042 77077 8802/ 333 11018 47015 94000
AAXX 22181 13168 32697 83402 10003 21007 30127 40238 51011 855// 333 10012
AAXX 22181 13174 31696 83403 10002 21011 30127 40231 52015 71022 885// 333 10013
AAXX 22181 13269 11596 83102 10009 21006 30015 40237 52014 69902 71072 885// 333 10014 93197
AAXX 22181 13274 31696 83403 10008 21009 30070 40236 52016 71022 885// 333 10019
AAXX 22181 13278 32697 80502 10008 21012 39995 40227 52011 885// 333 10013 4/001
AAXX 22181 13378 11/92 90304 11094 21103 38213 48430 53013 69992 74944 333 11070 4/015 91011 91112 93101
AAXX 22181 13397 11597 82502 11010 21019 39634 40189 52022 60012 70277 887// 333 11008 4/002 93101
AAXX 22181 13457 32960 03507 10075 21070 30110 40117 52018 333 10098 91115
AAXX 22181 13481 NIL
AAXX 22181 10044 46/// /2506 10065 20063 30143 40175 52013 222// 00047 333 10068 20023 55300
AAXX 22181 10124 46/// ///// 10071 2//// 30152 40190 53015 222// 00053 333 10081 20043 553//
AAXX 22181 13173 31696 83402 10003 21005 30133 40237 52014 71022 885// 333 10014
AAXX 22181 13180 32697 83203 10010 21008 30112 40226 52013 885// 333 10034
AAXX 22181 13266 32697 83202 10005 21008 30133 40238 52012 885// 333 10021
AAXX 22181 13369 11497 83603 11042 21057 38973 48442 52016 60012 72272 885// 333 11032 4/011 93102
AAXX 22181 13383 31696 73102 10010 21009 30004 40214 52015 71022 87500 333 10023
AAXX 22181 13384 32697 83401 10010 21012 30064 40221 52016 885// 333 10030
AAXX 22181 13389 31596 83405 10004 21025 39900 40190 52018 71022 886// 333 10010 4/003
AAXX 22181 13477 NIL
AAXX 22184 13625 11650 80000 11005 21031 39815 40053 54004 69922 75152 885// 333 10020 88633
AAXX 22184 60710 12560 83106 10134 20098 30131 40211 52014 60022 888// 333 10167 84820 86630
AAXX 22184 60714 12460 53106 1//// 2//// 30214 40220 51014 60002 85800 333 1//// 84816
AAXX 22184 60720 NIL
AAXX 22184 60728 NIL
AAXX 22184 60729 NIL
AAXX 22184 60731 05958 /3009 10128 20081 30195 40202 53017 69942 333 10169 20109 58036 60007 91012 91127
AAXX 22184 60732 11558 73310 10102 20085 39605 40217 53016 60082 72582 879// 333 10116 83820 91923 85626
AAXX 22184 60734 12558 63106 10103 20098 39682 40205 52013 60022 84882 333 10134 82823 83630
AAXX 22184 60738 11006 80000 10069 20069 38958 48525 52009 60022 70262 887// 333 10076 88700
AAXX 22184 60739 11556 63219 10097 20096 39387 40212 53009 69932 76062 86802 333 10129 82823 85830 94269
AAXX 22184 60740 12460 23316 10152 20070 30193 40195 52014 60012 82200 333 10172 82816
AAXX 22184 60742 NIL
AAXX 22184 60764 12562 72606 10149 20074 30152 40204 53012 60002 878// 333 10185 84830 84633
AAXX 22184 60770 11560 83008 10156 20122 30059 40197 53016 60012 8788/ 333 10184 83826 85630
AAXX 22184 60772 NIL
AAXX 22184 60775 12658 53008 10148 20064 39845 40199 53007 60002 83580 333 10180 83633 83360
AAXX 22184 60780 12960 22908 10134 20053 39901 40204 57004 60002 82080 333 10183 82360
AAXX 22184 17026 12470 51510 10104 20091 30090 40129 57007 60002 83650 333 10120 83715 85359 91123 92438
AAXX 22184 17034 12670 40000 10094 20062 30099 40145 57008 60002 82130 333 10130 82835 84360 92428
AAXX 22184 17070 12565 60203 10088 20015 39243 40116 55002 60002 83250 333 10121 83830 86360 91114
AAXX 22184 17084 12970 21501 10025 20001 39233 40161 57003 60002 80001 333 10119 82070 91103
AAXX 22184 17090 12965 30903 10050 21042 38699 48473 57003 60002 83030 333 10104 83360
AAXX 22184 17098 11560 83201 11076 21076 38215 48530 58003 60032 77177 8551/ 333 11048 85625 88457 93104
AAXX 22184 17150 12660 73302 10081 20048 39945 40069 56001 60002 84250 333 10130 84835 86360
AAXX 22184 17160 12670 32801 10061 21008 38962 48435 56009 60002 83500 333 10127 83641 91108
AAXX 22184 17184 12670 60808 10123 20038 39947 40057 56001 60002 84230 333 10137 84840 86360 91112
AAXX 22184 17189 11570 71612 10050 20018 38944 48412 55003 69962 70282 85250 333 10102 85830 87360
AAXX 22184 17210 11657 30000 10079 20003 39145 40179 58004 60002 70500 83100 333 10115 83840
AAXX 22184 17234 12670 60603 10104 20060 39987 40055 56007 60032 83250 333 10114 83836 86360 91117
AAXX 22184 17260 12660 70102 10080 20026 39346 40171 58001 60002 84250 333 10111 84840 87360
AAXX 22184 17290 11670 71207 10111 20090 30018 40050 50002 60172 72582 84270 333 10169 84835 87360 91128 92428
AAXX 22184 17370 12665 22505 10151 20039 30141 40145 53001 60002 82200 333 10186 82835 92427
AAXX 22184 08055 11010 80902 10032 20032 39246 48591 58004 69912 71042 886// 333 10042 95090
AAXX 22184 08075 12980 10502 10036 20026 39263 48586 56003 60002 80001 333 10099
AAXX 22184 08084 02580 63004 10110 20057 39871 40307 57003 60002 86700 333 10132 60007
AAXX 22184 08171 12885 32506 10122 20063 30024 40265 53002 60002 81048 333 10176
AAXX 22184 08184 02970 30000 10120 20073 30097 40253 51014 60002 81031 333 10187 60007
AAXX 22184 08202 NIL
AAXX 22184 08235 NIL
AAXX 22184 08238 12675 62910 10156 20066 30187 40247 52014 60002 81144 333 10191
AAXX 22184 08280 12980 29901 10093 20035 39444 40274 53001 60002 80001 333 10158
AAXX 22184 08330 11940 02004 10088 20055 30052 40287 57004 60002 71040 333 10129
AAXX 22184 08348 12965 22902 10110 20069 39545 40286 56004 60002 80005 333 10160
AAXX 22184 08360 02970 10000 10141 20078 30218 40255 53009 60002 80002 333 10213 60007
AAXX 22184 08373 02970 03503 10120 20101 30238 40260 53006 60002 333 10198 60007
AAXX 22184 08410 02982 00000 10134 20078 30156 40267 55000 60002 333 10218 60007
AAXX 22184 08419 02975 02104 10099 20041 39596 40272 53006 60002 333 10186 60007
AAXX 22184 08451 02975 00000 10149 20098 30237 40270 53002 60002 333 10211 60007
AAXX 22184 08487 02982 10000 10138 20111 30229 40255 55000 60002 80001 333 10185 60007
AAXX 22181 15501 12566 80000 10013 20005 30166 40212 52017 60002 885// 333 10018 21025 555 594//
AAXX 22181 15505 11518 82901 11020 21026 39821 40209 52015 60092 77177 8802/ 333 11015 21022 47015 555 59602 69999 71858
AAXX 22181 15511 11515 80503 10008 20006 30181 40222 52016 60012 71074 885// 333 10008 21014 47001 555 59801 69599
AAXX 22181 15514 11556 80000 11003 21011 30174 40211 52013 60022 77177 8802/ 333 10005 21009 47001 555 59401 69999
AAXX 22181 15533 11514 80000 10002 21005 30141 40174 52012 60062 77377 8802/ 333 10004 21002 47004 555 59404 69999
AAXX 22181 15550 11563 83607 10006 21002 30162 40182 52013 60042 77376 8802/ 333 10026 20002 555 59404 69999
AAXX 22181 15561 11470 80508 10074 20056 30139 40146 53001 60022 76162 8802/ 222// 00082 2//02 333 10080 20018 555 58802 64499 71842 92035 92438
AAXX 22181 15562 11450 83612 10070 20047 30075 40147 53005 60022 76162 8802/ 222// 2//02 333 10070 20028 555 58502 61899 71850 92036 92436 96010
AAXX 22181 15600 11/00 93612 11110 21123 38233 48449 53019 60002 74944 333 11108 21110 44011 555 590// 92712 92982
AAXX 22181 15601 11620 82903 11004 21030 39519 40154 53022 60022 77177 8802/ 333 11004 21030 43009 555 58100 69999 71854
AAXX 22181 15605 11662 82702 11028 21054 39310 40182 52018 69982 70272 885// 333 11026 21048 48008 555 58000 69199 71853
AAXX 22181 15613 11/01 90716 11124 21134 37605 47926 52015 60012 77177 333 11101 21128 48045 91128 555 592//
AAXX 22181 15628 11525 82704 10002 21004 39901 40165 52013 60082 77177 8802/ 333 10010 21003 47014 555 59603 69999 71852
AAXX 22181 15642 11570 83603 10010 20007 39968 40140 52007 60062 77176 8802/ 333 10028 20008 555 59800 67199 71853
AAXX 22181 15661 11565 80208 10090 20073 30072 40107 57005 60122 76166 8802/ 222// 20503 333 10090 20070 555 58903 69999 71840 92044 92447
AAXX 22181 15726 11/00 90304 11076 21081 38163 48437 52006 60122 77377 333 11052 21078 48038 555 59602 69999 71846
AAXX 22184 08141 12965 33302 10052 20039 39445 40326 56001 60002 80001 333 10098
AAXX 22184 06011 07326 72325 10105 20091 39791 49858 57042 60112 78186 333 10107 20076 55300 20000 60057 81/07 85/10 87/16 91040 91148
AAXX 22184 71397 11369 83107 10050 20042 30063 40097 52038 60011 72085 887// 333 10085 20013 70188 90927
AAXX 22184 71400 17/48 /0201 10028 20028 60021 7//4/ 333 10028 21053 70033
AAXX 22184 71403 46/// /3211 10074 20066 30030 40050 52027 6///1 333 10094 20017 7////
AAXX 22184 71411 16/// /3011 10084 20071 30077 40089 53026 60001 333 10113 20040 70251
AAXX 22184 71412 16/// /3518 10023 20016 30041 40050 51025 60001 333 10070 21007 70235
AAXX 22184 71421 NIL
AAXX 22184 71430 NIL
AAXX 22184 71431 16/// /2607 10046 20020 30064 40160 58008 60001 333 10054 20008 70057
AAXX 22184 71432 16/// /2608 10058 20024 30076 40173 58001 60001 333 10071 20045 70025
AAXX 22184 71433 NIL
AAXX 22184 71435 NIL
AAXX 22184 71441 46/// /1904 11049 21080 39927 40244 58001 6///1 333 11048 21122 7////
AAXX 22184 71443 16/// /3601 11094 21105 39786 40211 58016 60001 333 11080 21151 70000
AAXX 22184 71444 16/// /2402 11067 21079 39448 40227 58002 60001 333 11067 21123 70004
AAXX 22184 71447 NIL
AAXX 22184 71467 16/// /3505 11235 21257 39921 40039 53014 60001 333 11214 21261 70000 555 10010
AAXX 22184 71472 NIL
AAXX 22184 71474 16964 01806 11083 21101 39034 40316 56005 60001 333 11076 21101 70000
AAXX 22184 71510 NIL
AAXX 22184 71538 12569 82706 10058 21002 39953 40184 58001 60001 885// 333 10062 20051 79999
AAXX 22184 71600 17111 82715 10089 20088 30034 40040 53016 60121 74344 333 10111 20025 70240
AAXX 22184 71601 NIL
AAXX 22184 71893 12480 51607 10033 20004 30272 40304 57012 60001 85570 333 10033 21018 70000
AAXX 22184 71894 NIL
AAXX 22184 71896 15766 11713 11038 21074 39408 40258 58013 60001 333 11026 21092 70000
AAXX 22184 71897 12574 51435 10068 20012 3//// 4//// 57032 60001 82550 333 10069 20055 70000
AAXX 22184 71898 160// ///// 10072 56033 69951 333 10072 20021 70015
AAXX 22184 71899 11566 81411 10064 20061 3//// 4//// 57037 69961 7612X 887XX 333 10077 20032 70048 90910
AAXX 22184 71902 12574 22916 11137 21192 30027 40036 53004 60001 82500 333 11119 21165 70000
AAXX 22184 71905 NIL
AAXX 22184 71906 12474 22712 11199 21242 39990 40042 58005 60001 81501 333 11172 21216 79999
AAXX 22184 71907 16956 02715 11230 21271 30029 40063 53004 60001 333 11224 21231 70000
AAXX 22184 71909 16661 33417 11171 21203 39839 49882 54000 60001 333 11120 21172 70000
AAXX 22184 71910 46964 02707 11214 21257 39898 49962 53006 6///1 333 11169 21215 7////
AAXX 22184 71911 46464 32407 11334 30036 40096 53001 6///1 333 11318 21369 7////
AAXX 22184 71912 12974 02808 11262 21311 30036 40233 50003 60001 333 11261 21291 70004
AAXX 22184 71915 NIL
AAXX 22184 71917 11874 21104 11316 21358 39996 40011 57007 69901 77677 82070 333 11297 21393 47015 79999 90983
AAXX 22184 71922 12474 81503 11081 21092 39652 40132 57028 60001 8257/ 333 11080 21199 79999
AAXX 22184 71924 11674 63308 11275 21315 39967 40060 55000 69921 77672 86530 333 11252 21295 48038 70006 90977
AAXX 22184 71925 12974 20805 11336 21385 30045 40088 56012 60001 82030 333 11306 21351 79999
AAXX 22184 71926 11580 13013 11323 21379 30128 40154 58001 69901 70273 81500 333 11297 21329 44043 79999 90941
AAXX 22184 71928 16/// /0201 11060 21113 39025 40223 53002 60001 333 11059 21161 70000
AAXX 22184 71864 NIL
AAXX 22184 71865 16/// /2113 11055 21094 39493 40186 58027 60001 333 11049 21107 70000
AAXX 22184 71866 46864 82212 11062 21099 39552 40178 58021 6///1 333 11062 21120 7////
AAXX 22184 71867 11574 81412 11121 21139 39853 40199 58028 69901 77122 885// 333 11121 21153 47021 79999 90942
AAXX 22184 71868 16/// /0701 11088 21119 39735 40189 58024 60001 333 11088 21172 70000
AAXX 22184 71869 12974 82107 11073 21097 39621 40156 57029 60001 87071 333 11061 21106 79999
AAXX 22184 71871 15966 02714 11025 21084 39349 40169 58002 60001 333 11024 21085 70000
AAXX 22184 71877 12986 81806 10015 21128 38936 40232 52004 60001 81071 333 10026 21092 70000
AAXX 22184 71878 12874 82103 11042 21093 39125 40229 51003 60001 83071 333 11042 21145 70000
AAXX 22184 71879 16764 32204 11001 21090 39369 40184 56001 60001 333 10009 21062 70005
AAXX 22184 71880 12582 62903 11087 21121 39217 40367 53006 60001 81571 333 11086 21130 70000
AAXX 22184 71882 160// /3206 11025 21071 39815 40373 50003 60001 333 11025 21059 70000
AAXX 22184 71883 46/// /0000 11097 21105 39504 40362 55002 6///1 333 11097 21147 7////
AAXX 22184 71887 12986 51006 11050 21081 39921 40360 53004 60001 82071 333 11025 21086 70000
AAXX 22184 71889 12974 60902 11034 21086 39940 40376 52010 60001 82071 333 11033 21092 70000
AAXX 22184 71891 16964 00000 11041 21055 30062 40347 53004 60001 333 11038 21051 70000
AAXX 22184 71892 12980 21202 10020 21018 30308 40313 56010 60001 81072 333 10020 21029 70000
AAXX 22184 71043 11583 50000 11180 21226 30012 40108 50008 69901 70177 82571 333 11142 21180 48023 70002 90943
AAXX 22184 71045 17/// /1305 11001 21027 39150 40001 56030 60011 7//4/ 333 11001 21042 70044 555 10090
AAXX 22184 71050 NIL
AAXX 22184 71051 NIL
AAXX 22184 71052 NIL
AAXX 22184 71066 12974 62104 11033 21103 39692 40118 53014 60001 80009 333 11006 21152 70000
AAXX 22184 71068 12974 72609 10006 21043 39457 40154 50001 60001 80002 333 10008 21065 70000
AAXX 22184 71069 16964 02816 10005 21059 39447 40156 53005 60001 333 10009 21042 70000
AAXX 22184 71076 16/// /0805 11139 21155 39695 40100 55003 60001 333 11139 21254 70000
AAXX 22184 71077 16/// /2203 11058 21084 39570 40118 58009 60001 333 11058 21115 70013 555 10020
AAXX 22184 71079 11974 10000 11272 21309 39944 40245 58006 60001 77677 88180 333 11266 21368 70002 90942
AAXX 22184 71081 46937 03213 11321 21366 39989 40002 56005 6///1 333 11316 21341 7////
AAXX 22184 71082 NIL
AAXX 22184 71083 11966 63015 11303 21346 30092 40137 53001 69901 77677 81071 333 11302 21319 48054 79999 90983
AAXX 22184 71090 46128 83317 11193 21226 39971 40006 57001 6///1 333 11181 21201 7////
AAXX 22184 71091 460// /3611 11226 39742 49955 56005 6///1 333 7////
AAXX 22184 71092 47806 30934 11184 39254 49923 58001 6///1 745// 333 11184 21248 7////
AAXX 22184 71093 460// /0515 11187 39451 49951 56004 6///1 333 11186 21208 7////
AAXX 22184 71094 46004 /0320 11180 38965 49865 56010 6///1 333 11180 21221 7////
AAXX 22184 71095 46120 81902 11259 21295 39948 40030 56004 6///1 333 11240 21282 7////
AAXX 22184 71101 160// /1427 30058 56031 60001 333 70000
AAXX 22184 71104 12974 81407 11061 21102 39153 40302 56010 60001 86071 333 11061 21119 70000
AAXX 22184 71108 12983 20106 10002 21025 30240 40315 57007 60001 81041 333 10002 21034 70000
AAXX 22184 71109 12980 41115 10047 21006 30207 40234 57026 60001 82071 333 10048 20004 70000
AAXX 22184 71642 11674 60103 11123 21154 39657 40218 53007 69941 72272 86500 333 11040 21128 44023 70010 90973
AAXX 22184 71930 13974 82603 11025 21107 39239 40187 51004 60003 85052 333 11024 21087 47018 70000
AAXX 22184 71931 NIL
AAXX 22184 71934 12974 70000 11176 21209 39827 40092 53011 60001 81071 333 11139 21196 79999
AAXX 22184 71935 12874 72603 11161 21174 39885 40099 51026 60001 82077 333 11105 21187 70000
AAXX 22184 71936 11266 80705 11186 21212 39831 40100 52017 69901 77122 885// 333 11176 21264 48021 79999
AAXX 22184 71937 NIL
AAXX 22184 71938 11556 70000 11247 21297 30016 40047 58002 60001 77111 87520 333 11238 21340 70000
AAXX 22184 71940 12782 82520 10017 21046 39373 40185 51001 60001 83570 333 10017 21048 70000
AAXX 22184 71943 12974 72220 10005 21070 39318 40160 57012 60001 87070 333 10005 21054 70000
AAXX 22184 71944 160// ///// 11034 56011 60001 333 11033 21123 70000
AAXX 22184 71945 12783 72804 11104 21146 39641 40121 55001 60001 82530 333 11095 21134 70000
AAXX 22184 71946 12974 40000 11182 21203 39880 40101 51017 60001 84010 333 11176 21190 70000
AAXX 22184 71948 46058 /2914 11254 39937 40053 51021 6///1 333 11185 21262 7////
AAXX 22184 71949 46/// /1210 11048 21061 39136 40005 56034 6///1 333 11048 21192 7////
AAXX 22184 71951 11480 71408 10030 21014 39904 40173 57031 69921 70188 87500 333 10034 21012 43022 70007 90923
AAXX 22184 71957 46664 83105 11214 21280 30027 40119 50004 6///1 333 11204 21235 7////
AAXX 22184 71964 11269 81715 11019 21039 39117 49961 56032 60011 77172 8757/ 333 11015 21029 47018 70034 90917 93101
AAXX 22184 71966 16/// /0501 11190 21213 39558 40031 56040 60001 333 11182 21227 70004 555 10010
AAXX 22184 71968 460// /3110 11230 30059 40126 53006 6///1 333 11216 21274 7////
AAXX 22184 71816 12574 62104 11065 21101 39969 40031 56010 60001 81570 333 11064 21154 70000
AAXX 22184 71817 12474 83104 11020 21060 30000 40013 57028 60001 886// 333 70000
AAXX 22184 71818 11674 82708 11064 21082 30003 40021 57019 69901 77122 86505 333 11058 21123 43018 79999 90910
AAXX 22184 71822 11566 83110 11116 21135 39671 40155 53013 69901 77177 885// 333 11034 21121 47040 70004 90973
AAXX 22184 71825 11574 22810 11104 21152 39375 40055 51005 69901 70171 82500 333 11071 21121 47086 70008 90913
AAXX 22184 71827 11474 22810 11206 21238 39903 40160 52018 69901 78571 82501 333 11194 21243 47020 79999 90962
AAXX 22184 71828 16464 82809 11180 21228 39407 40061 55002 60001 333 11120 21183 70010
AAXX 22184 71831 11574 12807 11157 21205 39942 40235 51007 69901 70177 81500 333 11121 21163 48039 79999 90943
AAXX 22184 71832 NIL
AAXX 22184 71834 11574 73306 11145 21205 39800 40248 52006 69901 77177 87500 333 11130 21153 48026 70004 90983
AAXX 22184 71841 NIL
AAXX 22184 71842 11574 83303 11121 21155 39767 40256 58001 69901 77177 885// 333 11108 21139 47011 70004 90983
AAXX 22184 71844 NIL
AAXX 22184 71845 12474 22906 11169 21211 39750 40249 50001 60001 82100 333 11152 21213 70002
AAXX 22184 71850 11474 82103 11082 21127 39734 40252 58002 69901 70277 885// 333 11082 21113 48007 79999 90923
AAXX 22184 71852 16464 81806 11069 21090 39942 40245 58003 60001 333 11064 21122 70000
AAXX 22184 71854 11461 83004 11116 21144 39760 40253 51004 69901 77177 885// 333 11115 21159 48016 70008 90993
AAXX 22184 71858 NIL
AAXX 22184 71861 NIL
AAXX 22184 71862 12974 72313 11052 21096 39533 40253 58008 60001 80001 333 11050 21108 70000
AAXX 22184 71863 46864 32110 11064 21108 39507 40223 58018 6///1 333 11045 21131 7////
AAXX 22184 71930 13974 82603 11025 21107 39239 40187 51004 60003 85052 333 11024 21087 47018 70000
AAXX 22184 71931 NIL
AAXX 22184 71934 12974 70000 11176 21209 39827 40092 53011 60001 81071 333 11139 21196 79999
AAXX 22184 71935 12874 72603 11161 21174 39885 40099 51026 60001 82077 333 11105 21187 70000
AAXX 22184 71936 11266 80705 11186 21212 39831 40100 52017 69901 77122 885// 333 11176 21264 48021 79999
AAXX 22184 71937 NIL
AAXX 22184 71938 11556 70000 11247 21297 30016 40047 58002 60001 77111 87520 333 11238 21340 70000
AAXX 22184 71940 12782 82520 10017 21046 39373 40185 51001 60001 83570 333 10017 21048 70000
AAXX 22184 71943 12974 72220 10005 21070 39318 40160 57012 60001 87070 333 10005 21054 70000
AAXX 22184 71944 160// ///// 11034 56011 60001 333 11033 21123 70000
AAXX 22184 71945 12783 72804 11104 21146 39641 40121 55001 60001 82530 333 11095 21134 70000
AAXX 22184 71946 12974 40000 11182 21203 39880 40101 51017 60001 84010 333 11176 21190 70000
AAXX 22184 71948 46058 /2914 11254 39937 40053 51021 6///1 333 11185 21262 7////
AAXX 22184 71949 46/// /1210 11048 21061 39136 40005 56034 6///1 333 11048 21192 7////
AAXX 22184 71951 11480 71408 10030 21014 39904 40173 57031 69921 70188 87500 333 10034 21012 43022 70007 90923
AAXX 22184 71957 46664 83105 11214 21280 30027 40119 50004 6///1 333 11204 21235 7////
AAXX 22184 71964 11269 81715 11019 21039 39117 49961 56032 60011 77172 8757/ 333 11015 21029 47018 70034 90917 93101
AAXX 22184 71966 16/// /0501 11190 21213 39558 40031 56040 60001 333 11182 21227 70004 555 10010
AAXX 22184 71968 460// /3110 11230 30059 40126 53006 6///1 333 11216 21274 7////
AAXX 22184 71864 NIL
AAXX 22184 71865 16/// /2113 11055 21094 39493 40186 58027 60001 333 11049 21107 70000
AAXX 22184 71866 46864 82212 11062 21099 39552 40178 58021 6///1 333 11062 21120 7////
AAXX 22184 71867 11574 81412 11121 21139 39853 40199 58028 69901 77122 885// 333 11121 21153 47021 79999 90942
AAXX 22184 71868 16/// /0701 11088 21119 39735 40189 58024 60001 333 11088 21172 70000
AAXX 22184 71869 12974 82107 11073 21097 39621 40156 57029 60001 87071 333 11061 21106 79999
AAXX 22184 71871 15966 02714 11025 21084 39349 40169 58002 60001 333 11024 21085 70000
AAXX 22184 71877 12986 81806 10015 21128 38936 40232 52004 60001 81071 333 10026 21092 70000
AAXX 22184 71878 12874 82103 11042 21093 39125 40229 51003 60001 83071 333 11042 21145 70000
AAXX 22184 71879 16764 32204 11001 21090 39369 40184 56001 60001 333 10009 21062 70005
AAXX 22184 71880 12582 62903 11087 21121 39217 40367 53006 60001 81571 333 11086 21130 70000
AAXX 22184 71882 160// /3206 11025 21071 39815 40373 50003 60001 333 11025 21059 70000
AAXX 22184 71883 46/// /0000 11097 21105 39504 40362 55002 6///1 333 11097 21147 7////
AAXX 22184 71887 12986 51006 11050 21081 39921 40360 53004 60001 82071 333 11025 21086 70000
AAXX 22184 71889 12974 60902 11034 21086 39940 40376 52010 60001 82071 333 11033 21092 70000
AAXX 22184 71891 16964 00000 11041 21055 30062 40347 53004 60001 333 11038 21051 70000
AAXX 22184 71892 12980 21202 10020 21018 30308 40313 56010 60001 81072 333 10020 21029 70000
AAXX 22184 71893 12480 51607 10033 20004 30272 40304 57012 60001 85570 333 10033 21018 70000
AAXX 22184 71894 NIL
AAXX 22184 71896 15766 11713 11038 21074 39408 40258 58013 60001 333 11026 21092 70000
AAXX 22184 71897 12574 51435 10068 20012 3//// 4//// 57032 60001 82550 333 10069 20055 70000
AAXX 22184 71898 160// ///// 10072 56033 69951 333 10072 20021 70015
AAXX 22184 71899 11566 81411 10064 20061 3//// 4//// 57037 69961 7612X 887XX 333 10077 20032 70048 90910
AAXX 22184 71902 12574 22916 11137 21192 30027 40036 53004 60001 82500 333 11119 21165 70000
AAXX 22184 71905 NIL
AAXX 22184 71906 12474 22712 11199 21242 39990 40042 58005 60001 81501 333 11172 21216 79999
AAXX 22184 71907 16956 02715 11230 21271 30029 40063 53004 60001 333 11224 21231 70000
AAXX 22184 71909 16661 33417 11171 21203 39839 49882 54000 60001 333 11120 21172 70000
AAXX 22184 71910 46964 02707 11214 21257 39898 49962 53006 6///1 333 11169 21215 7////
AAXX 22184 71911 46464 32407 11334 30036 40096 53001 6///1 333 11318 21369 7////
AAXX 22184 71912 12974 02808 11262 21311 30036 40233 50003 60001 333 11261 21291 70004
AAXX 22184 71915 NIL
AAXX 22184 71917 11874 21104 11316 21358 39996 40011 57007 69901 77677 82070 333 11297 21393 47015 79999 90983
AAXX 22184 71922 12474 81503 11081 21092 39652 40132 57028 60001 8257/ 333 11080 21199 79999
AAXX 22184 71924 11674 63308 11275 21315 39967 40060 55000 69921 77672 86530 333 11252 21295 48038 70006 90977
AAXX 22184 71925 12974 20805 11336 21385 30045 40088 56012 60001 82030 333 11306 21351 79999
AAXX 22184 71926 11580 13013 11323 21379 30128 40154 58001 69901 70273 81500 333 11297 21329 44043 79999 90941
AAXX 22184 71928 16/// /0201 11060 21113 39025 40223 53002 60001 333 11059 21161 70000
AAXX 22184 71043 11583 50000 11180 21226 30012 40108 50008 69901 70177 82571 333 11142 21180 48023 70002 90943
AAXX 22184 71045 17/// /1305 11001 21027 39150 40001 56030 60011 7//4/ 333 11001 21042 70044 555 10090
AAXX 22184 71050 NIL
AAXX 22184 71051 NIL
AAXX 22184 71052 NIL
AAXX 22184 71066 12974 62104 11033 21103 39692 40118 53014 60001 80009 333 11006 21152 70000
AAXX 22184 71068 12974 72609 10006 21043 39457 40154 50001 60001 80002 333 10008 21065 70000
AAXX 22184 71069 16964 02816 10005 21059 39447 40156 53005 60001 333 10009 21042 70000
AAXX 22184 71076 16/// /0805 11139 21155 39695 40100 55003 60001 333 11139 21254 70000
AAXX 22184 71077 16/// /2203 11058 21084 39570 40118 58009 60001 333 11058 21115 70013 555 10020
AAXX 22184 71079 11974 10000 11272 21309 39944 40245 58006 60001 77677 88180 333 11266 21368 70002 90942
AAXX 22184 71081 46937 03213 11321 21366 39989 40002 56005 6///1 333 11316 21341 7////
AAXX 22184 71082 NIL
AAXX 22184 71083 11966 63015 11303 21346 30092 40137 53001 69901 77677 81071 333 11302 21319 48054 79999 90983
AAXX 22184 71090 46128 83317 11193 21226 39971 40006 57001 6///1 333 11181 21201 7////
AAXX 22184 71091 460// /3611 11226 39742 49955 56005 6///1 333 7////
AAXX 22184 71092 47806 30934 11184 39254 49923 58001 6///1 745// 333 11184 21248 7////
AAXX 22184 71093 460// /0515 11187 39451 49951 56004 6///1 333 11186 21208 7////
AAXX 22184 71094 46004 /0320 11180 38965 49865 56010 6///1 333 11180 21221 7////
AAXX 22184 71095 46120 81902 11259 21295 39948 40030 56004 6///1 333 11240 21282 7////
AAXX 22184 71101 160// /1427 30058 56031 60001 333 70000
AAXX 22184 71104 12974 81407 11061 21102 39153 40302 56010 60001 86071 333 11061 21119 70000
AAXX 22184 71108 12983 20106 10002 21025 30240 40315 57007 60001 81041 333 10002 21034 70000
AAXX 22184 71109 12980 41115 10047 21006 30207 40234 57026 60001 82071 333 10048 20004 70000
AAXX 22184 71603 12274 83214 10062 20051 30056 40109 53016 60001 88600 333 10106 20046 70294
AAXX 22184 71607 16/// /3207 10039 20009 30084 40116 51021 60001 333 10066 21005 70138
AAXX 22184 71609 11362 83212 10034 20018 39969 40102 53022 69941 70252 886// 333 10088 20014 70279 90950
AAXX 22184 71610 17466 82610 10000 21020 39863 40161 53005 69931 7004/ 333 10013 21006 70058
AAXX 22184 71621 12574 82208 10054 20008 30062 40168 58009 60001 82571 333 10060 20011 70092
AAXX 22184 71623 NIL
AAXX 22184 71624 12874 82710 10058 20002 39958 40170 50000 60001 81077 333 10058 20007 70018
AAXX 22184 71625 17156 8//// 10002 20000 39996 40158 58005 60021 7//44 333 10004 21040 70050
AAXX 22184 71627 12574 32709 10031 21018 30118 40163 51004 60001 81530 333 10033 21036 70118
AAXX 22184 71628 13560 32307 10035 20006 30020 40161 50002 60001 81870 333 10039 21036 70154
AAXX 22184 71630 NIL
AAXX 22184 71631 16/// /2505 10018 21003 39665 40168 50000 60001 333 10025 21006 70054
AAXX 22184 71633 11366 82504 10029 20016 39897 40170 50001 69941 78076 887// 333 10035 20016 70042 90915
AAXX 22184 71705 11274 83206 10016 20007 30009 40096 53022 69901 78082 887// 333 10051 20011 70104 90916
AAXX 22184 71706 NIL
AAXX 22184 71707 11574 23209 10081 20047 39945 40020 53011 69901 70155 82500 333 10099 21056 70168 90943
AAXX 22184 71709 11480 23417 10015 21011 30040 40053 53020 69901 70154 82571 333 10052 21008 41997 70164 90920
AAXX 22184 71711 NIL
AAXX 22184 71714 16/// /2607 10007 21028 30065 40158 53003 60001 333 10008 21044 70024 555 10010
AAXX 22184 71715 16/// /2206 11007 21026 39937 40120 53001 60001 333 11003 21031 70000
AAXX 22184 71718 12783 62509 10000 21029 30042 40108 55001 60001 85570 333 10005 21063 70000
AAXX 22184 71719 NIL
AAXX 22181 33415 11396 82902 11028 21041 39817 40231 52008 69912 77172 8772/ 333 11020 86707
AAXX 22181 01025 17/84 22009 10001 21047 39958 49969 58026 60002 700// 333 10006 91111
AAXX 22181 01441 16/// /0501 10028 20002 39119 40100 58002 60072 333 10029 91105
AAXX 22181 01199 16/// /1704 11066 21072 39575 40052 56011 6//// 333 91108
AAXX 22181 01311 47150 81507 10058 20055 30027 40089 56012 761// 333 10062 91109
AAXX 22181 01488 16/// /3301 11028 21033 60012 333 11028 91102
AAXX 22184 60020 NIL
AAXX 22184 60030 02580 20112 10186 20121 30200 40256 53002 60002 82500 333 10205 60007 92428
AAXX 22184 60040 02575 23510 10190 20130 30240 40265 53004 60002 82500 333 10221 60007 92428
AAXX 22184 60338 12980 02404 10156 20123 30192 40258 56003 60002 333 10200 92428
AAXX 22184 67341 32580 50808 10258 20211 40075 52023 85500 333 10315 94350
AAXX 22184 48431 32960 10405 10230 20179 39910 40126 57005 80001 333 58000
AAXX 22184 48601 11559 60000 10244 20239 30078 40082 69921 71062 81531 333 81625 83364 86078
AAXX 22184 48615 11562 70811 10267 20238 30081 40087 69901 70562 83542 333 83620 87074
AAXX 22184 48620 11360 70101 10251 20247 30072 40081 69981 72162 83548 333 82708 83630 87276
AAXX 22184 48647 11056 72801 10258 20250 30053 40078 60001 71022 82631 333 81700 87078
AAXX 22184 48657 11259 83407 10242 20238 30059 40077 69921 76166 85727 333 82706 84624 88276
AAXX 22184 48665 12564 70402 10238 20229 30070 40080 60001 82542 333 82628 84364 86077
AAXX 22184 96413 12565 72001 10244 20239 30047 40073 6///1 82531 333 82620 86365
AAXX 22184 96421 11465 71601 10249 20242 30036 40072 60001 70322 82531 333 82616 84365 85080
AAXX 22184 96441 12468 70000 10253 20247 30042 40069 60001 83531 333 83616 84365 85080
AAXX 22184 96449 11458 70603 10237 20234 30054 40073 60021 76062 8457/ 333 84614 87365
AAXX 22184 96465 11458 81801 10249 20244 30040 40073 60291 76162 8587/ 333 82810 83640 87463
AAXX 22184 96471 11468 72009 10261 20239 30070 40073 69901 71396 83948 333 81814 81917 84364 87277
AAXX 22184 96481 12462 63404 10257 20239 30039 40058 60001 82841 333 81817 86080
AAXX 22184 96491 12465 70505 10275 20249 30050 40062 60001 81831 333 81815 87079
AAXX 22184 48372 31956 40000 10214 20205 30070 40129 57004 71011 82035 333 58000
AAXX 22184 48373 31950 20000 10210 20194 30060 40123 57005 71000 80001 333 59009
AAXX 22184 84072 31575 60410 10201 20097 37281 70544 86200 333 58001 555 30051
AAXX 22184 84204 31668 70504 10326 20201 70544 83810 555 30048
AAXX 22184 84135 32575 70404 10313 20225 30036 85230 333 59002 555 30059
AAXX 22184 84088 32675 50902 10182 20069 37053 85200 333 58003 555 30048
AAXX 22184 84202 31575 82304 10320 20214 30119 70544 8421/ 333 59005 555 30053
AAXX 22184 84143 32570 71814 10163 20107 37393 87100 333 58000 555 30069
AAXX 22184 84036 31570 72706 10159 20105 70542 84231 555 30067
AAXX 22184 84050 31575 82208 10282 20212 70544 8521/ 555 30066
AAXX 22184 84270 31560 80406 10166 20104 71622 887// 555 30067
AAXX 22184 84076 31565 63202 10214 20118 70544 86400 555 30054
AAXX 22184 84160 31460 81402 10133 20088 37265 74044 888// 333 58002 555 30074
AAXX 22184 84140 31575 60902 10302 20218 39998 40083 70544 86800 333 59005 555 30061
AAXX 22184 84008 32570 61808 10265 20210 30107 40117 84830 00218 333 58010 555 30072
AAXX 22184 84179 11565 70000 10211 20196 39062 60011 72165 87800 333 59009 555 10013 30091
AAXX 22184 84056 31280 60516 10198 20011 70544 86800 555 30029
AAXX 22184 84173 31670 80410 10166 20101 71544 8665/ 555 30065
AAXX 22184 84105 32562 71404 10295 20227 39986 83110 333 59001 555 30067
AAXX 22184 84132 11575 73204 10286 20247 39885 60031 70546 84250 333 58001 555 10031 30079
AAXX 22184 48404 31558 70606 10195 20158 39951 40134 56005 71020 82536 333 58008
AAXX 22184 48453 32960 50000 10270 20210 30106 40109 57003 80006 333 58003
AAXX 22181 40009 32965 00000 10090 20051 40142 58005 333 10150
AAXX 22181 40016 NIL
AAXX 22181 40022 32565 30401 10136 20071 40137 56002 83200 222 20000 33 10210 83830
AAXX 22181 40030 32970 00000 10084 20062 40162 51004 333 10140
AAXX 22181 40039 32970 00000 10081 20042 40157 54001 333 10128
AAXX 22181 40066 NIL
AAXX 22181 40072 32970 00000 10096 20015 401670 53006 333 10184
AAXX 22181 40083 32570 10000 10048 20020 48470 53003 81100 333 10118 81826
AAXX 22181 40001 32570 50705 10100 20001 40166 58002 83550 333 10151 83626 85360
AAXX 22181 40007 32560 50000 10082 20050 40170 53002 83550 333 10129 83630 85360
AAXX 22181 40025 32560 50402 10120 20080 40148 53004 82402 333 101088 82630 85070
AAXX 22181 40045 32970 00000 10076 20000 40161 55002 333 10161
AAXX 22181 40061 32970 00000 10085 20041 40159 50004 333 10161- 40080 32965 02103 10060 20000 39436 40163 51004 333 10176
AAXX 22181 40087 NIL- 40095 NIL
AAXX 22181 06428 35461 /2503 10101 20085 30207 40256 53005 333 10114 88/18 91107 91204
AAXX 22181 37905 42997 30000 10023 20006 40219 54000 83040 333 10094
AAXX 22181 37989 42596 80000 10097 20078 40227 52001 885// 333 10111
AAXX 22181 37985 41496 80701 10082 20070 30232 40218 54000 71022 886// 333 10116
AAXX 22181 37661 42998 02901 10057 20022 39459 40220 52002 333 10105
AAXX 22181 37740 42596 83601 10048 20001 39414 40228 52001 885// 333 10105
AAXX 22181 37749 42598 83602 10067 20026 30143 40261 52007 885// 333 10097 555 53005
AAXX 22181 37925 42997 00000 10064 20062 30255 40226 54000 333 10122 555 53003
AAXX 22181 37864 32397 73405 10068 20050 40222 50006 87700 333 10101 87712
AAXX 22181 37735 42596 81401 10036 20015 39786 40167 52010 886// 333 10111
AAXX 22181 37851 42598 81502 10066 20048 30158 40231 52005 885// 333 10109
AAXX 22181 37923 42996 80000 10060 20036 40207 53004 8807/ 333 10105 555 53004
AAXX 22181 37675 42995 02301 10028 20015 39561 40231 52003 333 10126 555 53007
AAXX 22181 12120 11535 82104 11023 21027 30204 40212 53008 60002 71011 885// 333 11011 21056 93000
AAXX 22181 12250 11456 81703 11025 21042 30138 40231 52007 60002 71022 885// 333 11019 21043 88611 93000
AAXX 22181 12295 11123 82702 11058 21058 30043 40237 52011 69902 72072 886// 333 11047 21060 88703 93097
AAXX 22181 12330 11120 81603 11009 21009 30110 40222 50002 60002 71022 886// 333 11004 21029 88703 93000
AAXX 22181 12375 11511 20000 11042 21043 30104 40242 53010 60002 71022 82500 333 11017 21047 93000
AAXX 22181 12424 11556 51401 11001 21004 30070 40228 51005 69902 71022 85500 333 10026 21004 93000
AAXX 22181 12160 11430 81703 11025 21039 30172 40227 53008 60002 71022 885// 333 11010 21036 93000
AAXX 22181 12205 11350 71601 10017 20017 30196 40204 52005 60002 71022 876// 333 10017 20003 93000
AAXX 22181 12465 11222 80000 11022 21029 39996 40240 52010 60002 71022 886// 333 11015 21030 88706 93000
AAXX 22181 12566 11230 82001 11014 21018 39938 40244 52009 69912 71072 876// 333 11004 21017 87706 93097
AAXX 22184 63980 11483 70407 10280 20213 40108 60112 78082 84832 333 10285 59009 84818 84358 87075 943// 911//
AAXX 22181 06432 15/60 /2503 10096 20081 30186 40263 53008 69962 333 10118 81/15 85/19 88/22 91109 91207
AAXX 22181 06458 35561 /2503 10096 20085 30103 40257 53010 333 10104 85/22 88/26 91107 91205
AAXX 22181 06465 37244 /2604 10093 20088 30183 40250 52009 71000 333 10105 81/03 83/05 85/08 91106 91205
AAXX 22181 06496 17/04 92604 10056 20056 39567 40248 52013 60032 73253 333 10060 43014 89/02 91108 91206
AAXX 22184 64600 32960 00000 10249 20195 39452 40103 333 10329 55046 58004
AAXX 22184 64601 31940 70406 10236 20056 38996 48508 70422 80002 333 10298 58005 87080
AAXX 22184 64605 32960 00000 10230 20119 39355 40097 333 10315 58006
AAXX 22184 64610 32970 80000 10220 20151 3//// 4//// 80002 333 10330 5//// 88080
AAXX 22184 64650 31930 71004 10276 20198 39681 40094 70422 8707/ 333 10339 55088 58009 87365
AAXX 22184 64654 32960 60806 10240 20086 39541 40115 80002 333 10355 58014 86080
AAXX 22184 64655 32960 00000 10230 20141 39449 40099 333 1//// 58011
AAXX 22184 64656 32960 00000 10260 20187 39537 40090 333 10328 58009
AAXX 22184 64659 NIL
AAXX 22184 64660 32960 40000 10257 20138 39555 40082 84030 333 10337 58002 84365
AAXX 22184 64662 32960 51802 10267 20181 39586 40085 85072 333 10331 58012 85365 83080
AAXX 22184 64665 32960 80000 10260 20231 3//// 4//// 80002 333 10325 5//// 88080
AAXX 22184 61401 NIL
AAXX 22184 61404 31958 99814 10210 21080 39817 40219 70700 333 10228 58008
AAXX 22184 61415 31958 10000 10233 20066 30185 40190 70600 80002 333 10254 58012 81080
AAXX 22184 61421 33958 00610 10242 21017 39901 40160 333 10252 59003
AAXX 22184 61437 32958 00406 10252 20060 30045 40185 333 10264 58021
AAXX 22184 61442 31920 20911 10258 21045 30159 40162 70600 80002 333 10271 58009 82073
AAXX 22184 61450 31956 00812 10220 21054 39712 40177 70700 333 10260 59004
AAXX 22184 61461 NIL
AAXX 22184 61489 31956 00000 10275 21069 30141 40148 70500 333 10284 58005
AAXX 22184 61492 32958 00807 10270 21059 30153 40173 333 10280 58005
AAXX 22184 61497 35958 00806 10240 21054 39918 4//// 333 10251 58008
AAXX 22184 61498 31950 00404 10255 20051 30009 40142 705// 333 10270 58002
AAXX 22184 61499 31956 00408 10237 21077 39901 40160 70600 333 10255 59006
BBXX 61002 22184 99421 10047 46/// ///30 10145 2//// 40230 52006 22200 00139 10707 70034 555 1/039
BBXX 62087 22181 99547 10068 46/// /9900 10088 20087 4//// 5//// 22230 00083
AAXX 22184 60621 36/// /3609 10175 21021 333 10215
AAXX 22184 60645 36/// /0000 10179 21025 333 10224
AAXX 22181 12105 11230 81803 11003 21009 30166 40210 53005 60002 71022 886// 333 11003 21022 88703 93000
AAXX 22181 12195 11113 82801 11065 21069 39995 40236 52010 69912 77777 886// 333 11051 21066 93091
AAXX 22181 12235 11/06 91902 11029 21039 30001 40221 52008 69902 74987 333 11029 21066 93097
AAXX 22181 12270 11416 62403 11028 21031 30046 40236 53009 60002 71022 865// 333 11009 21028 93000
AAXX 22181 12280 11926 01402 11059 21062 30071 40237 53011 60002 71041 333 11037 21064 93000
AAXX 22181 12300 11120 81902 10007 20007 30121 40214 53003 60002 71022 886// 333 10009 21009 93000
AAXX 22181 12400 11540 71502 10000 21001 39974 40217 58001 69902 71011 8555/ 333 10013 21005 93000
AAXX 22181 12435 11316 81202 11012 21028 30053 40232 50003 69902 71072 886// 333 10001 21025 93097
AAXX 22181 12495 11535 83202 11036 21043 39938 40244 52012 60002 71022 885// 333 11036 21076 93000
AAXX 22181 12530 11608 72001 10002 20001 30032 40238 52012 69932 74477 875// 333 10006 21010 93092
AAXX 22181 12570 11320 80000 11018 21019 39912 40243 52011 69902 77077 885// 333 11013 21019 82708 88611 93097
AAXX 22181 12580 11556 80501 11022 21032 39975 40246 52014 69932 71072 885// 333 11002 21023 93093
AAXX 22184 60663 36/// /1103 10152 21108 333 10188
AAXX 22184 60612 36/// /0000 10146 21045 333 10200
AAXX 22184 60619 36/// /0106 10145 21012 333 10190
AAXX 22184 47090 32970 02910 11067 21222 30223 40247 51004 333 92033
AAXX 22184 47095 32970 00000 11154 21191 30086 40293 51005
AAXX 22184 47097 329// /3201 11100 21216 30183 40286 51007
AAXX 22184 47098 329// /0000 11119 21185 30140 40285 50003
AAXX 22184 47099 329// /0001 11136 21180 30249 40289 50002
AAXX 22184 47100 32970 02303 11169 21240 39290 40288 50009
AAXX 22184 47102 32970 03405 11046 21139 30104 40291 55003
AAXX 22184 47104 32970 01604 11082 21227 30145 40248 53004
AAXX 22184 47106 329// /2005 11056 21216 30194 40246 52007
AAXX 22184 47112 32970 03606 11074 21202 30197 40286 56001 333 92022
AAXX 22184 47114 32970 00901 11112 21180 30087 40284 52010
AAXX 22184 47119 32970 03604 11083 21192 30241 40286 50001
AAXX 22184 47121 329// /0001 11127 21179 39969 40287 52015
AAXX 22184 47127 329// /2002 11098 21182 30135 40287 52010
AAXX 22184 47129 32970 00506 11061 21132 30255 40293 54000
AAXX 22184 47130 32970 02305 11058 21214 30180 40245 52005 333 92032
AAXX 22184 47131 32970 03203 11080 21184 30213 40288 52008
AAXX 22184 47135 329// /2506 11082 21150 39962 40280 52009
AAXX 22184 47136 32970 00001 11089 21174 30087 40271 52009
AAXX 22184 47137 329// /2705 11079 21191 30150 40276 52007
AAXX 22184 47140 32970 00202 11062 21113 30260 40290 52009 333 92021
AAXX 22184 47143 32972 02905 11054 21178 30191 40274 52005
AAXX 22184 47145 32970 03208 11077 21215 30254 40282 51004
AAXX 22184 47146 32970 03404 11062 21123 30219 40289 52010
AAXX 22184 47150 32970 00204 11065 21145 30267 40287 52005
AAXX 22184 47152 32973 00205 11056 21183 30202 40247 52006
AAXX 22184 47154 329// /2906 11062 21154 30210 40274 52008
AAXX 22184 47155 32972 01407 11043 21162 30205 40253 53004
AAXX 22184 47156 32670 20205 11054 21109 30192 40286 52007 82500
AAXX 22184 47157 32975 02002 11095 21152 39973 40261 51001
AAXX 22184 47162 32975 00705 11037 21166 30209 40251 53005 333 92022
AAXX 22184 47169 41670 63418 10014 21031 30175 40272 50002 72682 86500 333 92055
AAXX 22184 47170 32670 23602 11032 21103 30231 40277 52006 82300 333 92021
AAXX 22184 47171 329// /0001 11064 21126 30231 40289 53008
AAXX 22184 47172 329// /3606 11041 21120 30209 40279 53005
AAXX 22184 47173 329// /0000 11095 21123 30169 40288 52009
AAXX 22184 47174 32970 03209 11062 21133 30059 40273 53005
AAXX 22184 47175 31561 73606 11060 21069 39675 40278 52003 72672 87500 333 92022
AAXX 22184 47185 32665 73424 10043 21021 30160 40253 58001 87500 333 92056
AAXX 22184 47188 32670 50506 10018 21049 30233 40255 56001 85500 333 92032
AAXX 22184 47189 32670 52903 10027 21026 30181 40243 50002 85500 333 92032
AAXX 22184 47192 32975 03203 11044 21190 30222 40261 53002
AAXX 22181 01300 41296 82212 10096 20090 40022 57022 76065 88700 22200 02075 10707 70033 333 91113
AAXX 22181 01400 41497 72706 10099 20091 40140 57009 70222 875// 22200 06083 10503 70016 333 91111
AAXX 22181 02019 07/82 /3601 11091 21099 39379 40012 55011 60002 70031 333 11060 21107 60005 90710 91102
AAXX 22181 02081 05/66 /1804 11072 21076 39640 40052 58013 69902 333 11067 21145 60005 90710 91109
AAXX 22181 02095 07270 /1904 11046 21051 39875 40082 57009 69902 70010 333 11038 21064 60005 88/04 90710 91108
AAXX 22181 02101 47/36 /1104 11095 21108 39489 40062 58006 777// 8//// 333 11095 21149 89/28
AAXX 22181 02119 07207 /1601 11193 21210 39673 40076 57009 69922 77287 333 11168 21216 69905 85/05 86/25 87/50 90710 91101
AAXX 22181 02124 07276 /1501 11121 21127 39533 40075 56010 69912 77187 333 11121 21166 69905 88/04 90710 91101
AAXX 22181 02126 07480 /1901 11165 21182 39739 40091 58007 69912 70087 333 11165 21219 60005 81/15 87/48 87/57 90710 91102
AAXX 22181 02151 07256 91401 11158 21167 39728 40077 57014 69972 77180 333 11142 21191 69925 89/04 91002 90710 91102 90710 91201
AAXX 22181 02186 37980 01902 11098 21107 30072 40097 58004 60002 70031 333 11026 21110 60005 91003 90710 91103 90710 91202
AAXX 22181 02197 07/60 /2103 11006 21010 30083 40102 57002 60032 72487 333 10003 21032 69905 90710 91106
AAXX 22181 02207 07476 /2204 11007 21020 39355 40058 53005 69982 70087 333 10024 21057 60005 88/13 90710 91110
AAXX 22181 02219 07/// /1901 11078 21082 39386 40068 55000 69942 70087 333 11055 21094 60005 90710 91104
AAXX 22181 02226 45584 /1602 11043 21054 39616 40078 50002 8//// 333 11043 21066 82/25 86/43
AAXX 22181 02243 07/56 /0901 11137 21148 39815 40094 58003 69902 71010 333 11136 21178 60005 90710 91101
AAXX 22181 02269 05483 /1907 10013 21008 60002 333 10017 21064 60005 87/15 90710 91111
AAXX 22181 02287 07436 /2104 10004 21006 30101 40111 57003 69902 78580 333 10007 21040 69905 87/18 90710 91108
AAXX 22181 02297 05/99 /1903 11044 21047 30061 40107 57003 60002 333 11030 21055 60005 90710 91106
AAXX 22181 02308 05/99 /1301 11061 21072 39215 40092 50003 69902 333 11050 21081 60005 90710 91103
AAXX 22181 02327 05/99 /1501 11096 21105 39659 40108 50006 60002 333 11078 21197 60005 90710 91103
AAXX 22181 02355 05499 /2003 11002 21010 30101 40114 50002 60002 333 11002 21051 60005 81/14 88/22 90710 91104
AAXX 22181 02366 45484 /3501 11093 21100 30107 40113 50000 8//// 333 11093 21123 88/16
AAXX 22181 02407 07257 ///// 11028 21029 39740 40116 50002 69962 71071 333 11027 21109 60005 88/05
AAXX 22181 02418 45160 /2002 10020 20017 39994 40128 54000 8//// 333 1//// 2//// 88/03
AAXX 22181 02435 45378 /2002 10007 21003 39931 40122 50000 8//// 333 10007 21096 81/08 83/10 85/11 88/23
AAXX 22181 02440 07332 /2501 11002 21007 69912 77171 333 10000 21103 69905 82/07 85/11 88/17 90710 91104
AAXX 22181 02452 07102 /2002 11003 21003 69992 73487 333 11003 21015 60005 89/02 90710 91104
AAXX 22181 02456 07258 /2002 10001 21004 30095 40139 57002 60002 71011 333 10002 21012 60005 88/05 90710 91105
AAXX 22181 02469 07/61 /2001 11005 21013 60002 70010 333 11003 21049 60005 90710 91102
AAXX 22181 02498 05781 /2208 10029 20006 30137 40154 54000 60002 333 10029 21003 60005 87/56 87/60 90710 91111
AAXX 22181 02518 462// /1907 10055 20052 333 10055 20039 89/04 90710 91110
AAXX 22181 02520 17128 81603 10020 20013 30071 40140 53003 69922 71065 333 10024 20002 60005 88/03 91004 90710 91106 90710 91205
AAXX 22181 02550 47140 /1903 10005 20005 39876 40156 51005 710// 8//// 333 10006 21016 88/03
AAXX 22181 02562 07345 71703 10002 20000 30040 40158 53002 69922 77481 333 10004 21051 69925 81/06 84/09 87/21 91004 90710 91104 90710 91203
AAXX 22181 02563 05676 /2204 10011 21002 30141 40163 53002 60002 333 10011 21008 60005 88/45 90710 91106
AAXX 22181 02565 07656 /1901 11012 21015 30048 40171 53004 60002 71011 333 11012 21076 60005 88/37 90710 91102
AAXX 22181 02589 05582 /2205 10028 21012 30146 40167 54000 60002 333 10031 20020 60005 84/24 90710 91109
AAXX 22181 02590 45962 /1602 11009 21015 30115 40177 54000 8//// 333 10007 21041 85/59
AAXX 22181 02618 07/19 /1902 10014 20014 39990 40157 55000 69912 72387 333 10014 21003 69905 90710 91105
AAXX 22181 02664 35480 82003 10032 20014 30109 40182 53005 60002 333 10032 21023 60005 82/13 85/19 88/41 91005 90710 91105 90710 91203
AAXX 22181 02679 05472 /2204 10028 20012 30140 40185 52004 60002 333 10032 20000 60005 82/11 85/22 87/57 90710 91106
AAXX 22181 48845 32798 80000 10178 20169 30168 40175 57008 885// 333 59006 88697
AAXX 22181 48840 32498 80000 10188 20168 30156 40162 57013 888// 333 59016 83894 88696
AAXX 22184 48647 11056 72801 10258 20250 30053 40078 60001 71022 82631 333 81700 87078
AAXX 22181 02464 47260 /1802 10000 21009 30137 40155 52002 710// 8//// 333 10000 21017 81/06 83/34 88/42
AAXX 22181 02500 07258 /1907 10054 20050 30075 40117 55002 69902 71051 333 10056 20008 60005 87/05 88/09 90710 91110
AAXX 22181 02513 NIL
AAXX 22181 02615 07256 /1908 10043 20034 30169 40173 53003 69902 71061 333 10048 20026 60005 88/05 90710 91110
AAXX 22181 02635 07/50 /1803 10039 20029 60002 71010 333 10047 20021 60005 90710 91106
AAXX 22181 14023 12799 20000 11038 21040 39948 40259 52012 60002 82500 333 10045 42001 82650 92831
AAXX 22181 33415 11396 82902 11028 21041 39817 40231 52008 69912 77172 8772/ 333 11020 86707
AAXX 22181 33088 32597 83602 11037 21048 30032 40232 52008 885// 333 11026
AAXX 22181 33177 32597 82302 11026 21039 39986 40233 52013 885// 333 11020
AAXX 22181 33261 11496 82704 11018 21036 39986 40174 51010 69922 78582 889// 333 11015 88916
AAXX 22181 33275 11597 82705 11018 21046 39940 40170 52013 69942 70282 8435/ 333 11008 84920
AAXX 22181 33301 32497 83002 11032 21049 39939 40233 52008 885// 333 11030 88611
AAXX 22181 33325 32397 83201 11030 21054 39945 40224 52011 885// 333 11013 86708
AAXX 22181 33377 31597 83102 11020 21059 30001 40202 52013 70232 885// 333 11014 88624
AAXX 22181 33415 NIL
AAXX 22181 33429 32497 72601 11048 21051 39790 40233 52007 87500 333 11045 87616
AAXX 22181 33466 12465 83303 11012 21045 30022 40216 53015 69902 883// 333 11005 85918
AAXX 22181 33526 11440 82501 11019 21027 39882 40234 52007 69942 77177 885// 333 11018 88613
AAXX 22181 33562 32497 82904 11039 21058 39851 40228 52011 886// 333 11013 88710
AAXX 22181 33614 11565 83206 11002 21046 30095 40203 52007 69982 70272 885// 333 11001 88627
AAXX 22181 33761 31596 83502 11014 21025 39989 40220 52010 71022 885// 333 10011 88622
AAXX 22181 33902 31996 53601 11001 21013 30137 40204 52012 71022 80001 333 10039
AAXX 22181 33983 32997 70304 10039 20013 30141 40203 53003 87030 333 10077
AAXX 22181 34415 11497 82704 11004 21028 30092 40191 52010 69912 70282 886// 333 10012
AAXX 22181 34523 11597 82304 10007 21027 30120 40198 52013 69902 70372 885// 333 10023 88626
AAXX 22181 34712 32998 63202 10005 21019 30122 40210 52008 80001 333 10042
AAXX 22184 60107 32965 02002 10123 20102 40263 58007 333 10204
AAXX 22184 60265 23970 00101 10169 21062 38965 48592 53001 333 10197
AAXX 22184 60101 32458 32301 10126 20101 40282 56002 83500 333 10169 83613
AAXX 22184 60115 32970 03404 10144 20072 40261 53001 333 10216
AAXX 22184 60135 14440 23502 10123 20105 40278 53001 69902 71000 82600 333 10179 82710
AAXX 22184 60150 32960 00000 10126 20066 39622 40282 53003 333 10170
AAXX 22184 60156 15459 20107 10144 20119 40285 53003 60002 82600 333 10192 82710
AAXX 22184 60230 15956 03003 10183 20034 40258 53004 60002 333 10244
AAXX 22184 60252 32960 02306 10159 20109 40260 53007 333 10227 95800
AAXX 22184 78922 46/// /1023 10268 20209 30103 40148 56022
AAXX 22184 64500 32460 52208 10275 20239 30088 40101 82502 333 10287 59002 82610 85073
AAXX 22184 64501 32358 72006 10265 20242 3//// 4//// 879// 333 10285 5//// 83608 81920 87630 94942 95832
AAXX 22184 64550 32458 8//// 10260 20232 30/// 40/// 885// 333 10310 5//// 84611 88616
AAXX 22184 64551 32460 50000 10275 20240 30079 40108 85500 333 10304 58002 83610 85630
AAXX 22184 64570 32460 83604 10238 20226 39612 40119 8457/ 333 10273 59007 84611 88360
AAXX 22184 48352 31959 00000 10195 20153 39936 40141 57010 71000 333 59002
AAXX 22184 48383 31957 00000 10184 20150 39975 40139 56005 71000 333 58005
AAXX 22184 47101 32970 00000 11127 21170 30181 40285 50007
AAXX 22184 47105 369// /2507 11064 21228 30215 40249 52004
AAXX 22184 47108 32970 03202 11095 21212 30173 40286 50001
AAXX 22184 47115 41556 70505 11021 21076 39937 40218 52008 78588 87800
AAXX 22184 47133 32970 03203 11083 21181 30201 40292 52011
AAXX 22184 47138 32972 02305 11047 21217 30247 40250 52005 333 92032
AAXX 22184 47159 32975 03605 11045 21220 30158 40248 52008 333 92022
AAXX 22184 47165 32668 60503 11029 21083 30228 40277 51003 85500 333 92022
AAXX 22184 47168 32970 03415 11039 21171 30173 40256 51007 333 92024
AAXX 22184 47184 32668 73613 10030 21044 30243 40269 50001 87500 333 92044
AAXX 22184 43400 NIL
AAXX 22184 43404 NIL
AAXX 22184 43410 NIL
AAXX 22184 43413 NIL
AAXX 22184 43415 NIL
AAXX 22184 43418 22470 40204 10250 20232 3//// 4//// 82106 333 5//// 60007 82818 84278
AAXX 22184 43421 22460 70000 10240 20228 39997 40099 85170 333 59010 60007 85818 86460
AAXX 22184 43422 NIL
AAXX 22184 43424 21468 80202 10243 20229 30090 40092 70182 8217/ 333 59008 60007 82816 86458
AAXX 22184 43436 21470 80502 10248 20239 30086 40090 75085 8417/ 333 59008 60137 84818 88460
AAXX 22184 43441 NIL
AAXX 22184 43444 21465 70000 10216 20209 39564 40096 78082 84106 333 59007 69937 84818 87278
AAXX 22184 43467 22460 80206 10253 20221 30083 40088 8311/ 333 59003 60007 83816 88458
AAXX 22184 43473 22470 61801 10149 20141 38113 48479 86100 333 59006 60007 86810
AAXX 22184 43475 NIL
AAXX 22184 43476 NIL
AAXX 22184 43479 NIL
AAXX 22184 43486 22470 60000 10236 20227 39991 40085 83220 333 59001 60007 83810 84450
AAXX 22184 43495 22960 5//// 10250 20226 30076 40092 85030 333 59006 60007 85358
AAXX 22184 43497 22472 80204 10250 20226 30069 40085 8222/ 333 59004 60007 82818 87458
AAXX 22184 91487 NIL
AAXX 22184 91490 NIL
AAXX 22184 91533 NIL
AAXX 22184 91601 NIL
AAXX 22184 91610 11499 71115 10267 20249 40048 53004 60001 70300 86868 333 56399
AAXX 22184 82815 85482
AAXX 22184 91623 NIL
AAXX 22184 91629 NIL
AAXX 22184 91701 11489 50906 10269 2025/ 60001 71522 82208 333 562/9 82817 84280
AAXX 22181 91925 02580 31014 10283 20192 30061 40121 51021 60001 83200 333 56200 60007 83823 90710 91122 555 60005 11022 58007
AAXX 22181 91929 04583 71206 10254 20215 30106 40109 51017 69902 700// 333 10267 20248 69907 90710 91118 555 69905
AAXX 22181 91938 01465 72605 10242 20209 30120 40122 53012 60032 761// 8397/ 333 10250 20225 69987 81915 86360 90710 91112 555 69925 10913 58007
AAXX 22181 91948 02582 20908 10264 20185 30090 40192 51011 60001 81201 333 56100 60007 81820 90710 91118 555 60005 11118 58008
AAXX 22181 91954 06/// /0616 10253 20216 30156 40159 51019 60051 333 60057 555 58010
AAXX 22181 91943 16/// /0410 10265 20219 30119 40121 51016 60052 333 10265 58006
AAXX 22181 91944 06/// /0810 10265 20208 30138 40141 51017 60032 333 10273 20233 60017 90710 91137 555 60015
AAXX 22181 91958 01481 30608 10262 20223 30183 40185 51013 69981 70186 83200 333 56100 69947 83818 90710 91112 555 60005 10612 58005
AAXX 22181 91945 06/// /0716 10276 20230 30139 40144 51016 60021 333 60027
AAXX 22184 94102 46/// /2510 10295 20275 30006 40015
AAXX 22184 94103 NIL
AAXX 22184 94120 46/// /1005 10259 20243 39966 40006
AAXX 22184 94122 46/// /0000 10257 20239 39998 40006
AAXX 22184 94131 46/// /1204 10263 20229 39867 40017
AAXX 22184 94132 NIL
AAXX 22184 94147 NIL
AAXX 22184 94150 46/// /3511 10242 20239 39955 40014
AAXX 22184 94151 46/// /0713 10242 20205 30001 4////
AAXX 22184 94170 46/// /1103 10241 20233 30016 40038
AAXX 22184 94200 NIL
AAXX 22184 94203 46/// /2406 10294 20262 30012 40022
AAXX 22184 94206 46/// /0000 10263 2//// 39884 40011
AAXX 22184 94207 46/// /3414 10287 30003 40011 56023
AAXX 22184 94211 NIL
AAXX 22184 94212 46/// /1802 10261 20196 39552 40012
AAXX 22184 94216 46/// /2506 10275 20230 39967 40017
AAXX 22184 94236 NIL
AAXX 22184 94238 46/// /0906 10241 20215 39621 40033
AAXX 22184 94248 NIL
AAXX 22184 94255 46/// /0303 10235 20202 39788 40043
AAXX 22184 94268 46/// /0000 10263 20250 30025 40037
AAXX 22184 94287 46/// /3501 10243 20216 30039 40048
AAXX 22184 94290 NIL
AAXX 22184 94294 46/// /1306 10248 20213 30045 40055
AAXX 22184 94296 NIL
AAXX 22184 94298 46/// /1907 10263 30015 40021 56005
AAXX 22184 95641 NIL
AAXX 22184 94299 46/// /1807 10268 20246 30017 40027
AAXX 22184 94300 46/// /1817 10243 20191 30065 40075
AAXX 22184 94302 46/// /2108 10248 20173 30031 40037
AAXX 22184 94312 46/// /2306 10276 20262 30021 40030
AAXX 22184 94313 NIL
AAXX 22184 94317 46/// /0000 10263 20023 39465 40033
AAXX 22184 94319 46/// /1513 10315 20051 39695 40016
AAXX 22184 94324 NIL
AAXX 22184 94326 46/// /0000 10211 20078 39463 40063
AAXX 22184 94327 46/// /1007 10265 20055 39695 40058
AAXX 22184 94332 46/// /1904 10205 20194 39664 40039
AAXX 22184 94333 NIL
AAXX 22184 94341 46/// /0000 10209 20169 39816 40045
AAXX 22184 94346 46/// /1707 10203 20184 39845 40059
AAXX 22184 94363 46/// /1704 10217 20198 39856 40068
AAXX 22184 94366 NIL
AAXX 22184 94367 46/// /1512 10252 20211 30012 40053
AAXX 22184 94374 46/// /1308 10227 20181 30048 40064
AAXX 22184 94388 46/// /1621 10230 20223 30052 40057
AAXX 22184 94393 46/// /1517 10258 39990 40002 56014
AAXX 22184 94394 46/// /0929 10234 30031 40039 56013
AAXX 22184 94403 46/// /1717 10218 20174 30058 40099
AAXX 22184 94429 46/// /2009 10280 20111 39613 40065
AAXX 22184 94430 46/// /1704 10283 20058 39476 40043
AAXX 22184 94449 46/// /0413 10285 20019 39544 40060
AAXX 22184 94451 NIL
AAXX 22184 94461 46/// /0000 10264 20163 39395 40046
AAXX 22184 94462 46/// /1205 10247 20123 39518 40058
AAXX 22184 94477 NIL
AAXX 22184 94488 NIL
AAXX 22184 94893 46/// /0517 10163 20165 3//// 4////
AAXX 22184 94907 46/// /3102 10143 20139 30123 40133
AAXX 22184 94910 46/// /1007 10165 20128 39879 40124
AAXX 22184 94926 46/// /1404 10127 20122 39482 40139
AAXX 22184 94935 46/// /3405 10144 20138 30110 40136
AAXX 22184 94954 46/// /1009 10137 20132 30039 40149
AAXX 22184 94956 46/// /0000 10123 20112 30128 40154
AAXX 22184 94975 46/// /2703 10153 20116 30119 40151
AAXX 22184 94983 46/// /0000 10151 20133 30123 40148
AAXX 22184 94995 46/// /0716 10211 20187 30153 40161
AAXX 22184 94996 46/// /1015 10196 20150 30042 40170
AAXX 22184 94997 NIL
AAXX 22184 94998 46/// /2813 10065 20055 30163 40174
AAXX 22184 95111 46/// /1103 10268 20235 39973 40008
AAXX 22184 95205 46/// /2304 10281 20241 30010 40017
AAXX 22184 95322 NIL
AAXX 22184 95448 46/// /0310 10292 21001 39491 40037
AAXX 22184 95458 46/// /0107 10255 20093 39824 40078
AAXX 22184 95480 46/// /1306 10233 20061 30035 40093
AAXX 22184 95481 46/// /1106 10188 20038 30039 40083
AAXX 22184 95482 46/// /1304 10242 20029 30023 40077
AAXX 22184 95485 46/// /1801 10210 2//// 39888 40087
AAXX 22184 95492 46/// /0000 10227 20178 39940 40091
AAXX 22184 95527 46/// /1104 10204 20166 39865 40113
AAXX 22184 95634 46/// /1612 10212 20104 39691 40083
AAXX 22184 95637 46/// /1510 10171 20161 39791 40118
AAXX 22184 95646 NIL
AAXX 22184 95666 NIL
AAXX 22184 95719 46/// /1206 10156 20148 39791 40115
AAXX 22184 95762 46/// /1507 10164 20139 39669 40117
AAXX 22184 95826 NIL
AAXX 22184 95839 46/// /1603 10150 20127 39944 40101
AAXX 22184 95864 NIL
AAXX 22184 95909 NIL
AAXX 22184 95954 NIL
AAXX 22184 95966 46/// /3605 10145 20132 39952 40151
AAXX 22184 96995 NIL
AAXX 22184 96996 454// 31115 10263 20241 30048 40052 58017
AAXX 22184 94500 NIL
AAXX 22184 94510 46/// /1404 10193 20179 39739 40078
AAXX 22184 94515 46/// /0000 10186 20160 39745 40086
AAXX 22184 94552 46/// /1108 10171 20154 39644 40101
AAXX 22184 94578 46/// /2106 10212 20195 30102 40113
AAXX 22184 94584 46/// /1123 10227 20193 39973 40081
AAXX 22184 94601 46/// /1310 10184 20106 30127 40144
AAXX 22184 94610 46/// /1911 10186 20150 30094 40117
AAXX 22184 94637 46/// /1607 10235 20129 39653 40068
AAXX 22184 94638 46/// /1511 10192 20167 30081 40112
AAXX 22184 94642 NIL
AAXX 22184 94643 NIL
AAXX 22184 94647 46/// /0904 10181 20169 39978 40097
AAXX 22184 94651 46/// /2207 10177 20175 30020 40096
AAXX 22184 94653 46/// /0000 10168 20144 3//// 4////
AAXX 22184 94659 46/// /0810 10253 20058 39902 40093
AAXX 22184 94672 46/// /0604 10171 20090 30097 40107
AAXX 22184 94691 46/// /2304 10200 20041 39782 40101
AAXX 22184 94693 46/// /1907 10180 20063 30039 40099
AAXX 22184 94700 NIL
AAXX 22184 94703 46/// /0908 10187 20163 39981 40104
AAXX 22184 94710 46/// /0905 10166 20141 39859 40106
AAXX 22184 94729 46/// /1104 10146 20133 39284 40118
AAXX 22184 94750 46/// /2902 10137 20135 30021 40144
AAXX 22184 94767 46/// /1405 10193 20180 30138 40144
AAXX 22184 94776 46/// /0000 10169 20164 30124 40134
AAXX 22184 94791 NIL
AAXX 22184 94802 46/// /2104 10157 20122 30059 40141
AAXX 22184 94804 46/// /0911 10174 20152 30076 40113
AAXX 22184 94807 NIL
AAXX 22184 94821 46/// /1808 10154 20151 30035 40117
AAXX 22184 94842 46/// /0911 10165 20149 30027 40125
AAXX 22184 94847 NIL
AAXX 22184 94850 46/// /1107 10153 20144 30088 40134
AAXX 22184 94865 46/// /3205 10151 20141 30097 40121
AAXX 22184 94866 46/// /0000 10159 20150 39983 40122
AAXX 22184 94875 46/// /0706 10186 20128 39990 40123
AAXX 22184 89564 45/// /1014 10007 21051 39844 49864 52005
AAXX 22184 89570 46/// /0811 11056 21080 39199 53005
AAXX 22184 89571 45/// /3605 10012 21042 39831 49860 53005
AAXX 22184 89573 NIL
AAXX 22184 89610 NIL
AAXX 22184 89611 45/// /2006 11007 21034 39756 49808 58019
AAXX 22184 89614 NIL
AAXX 22184 89615 469// 81029 11073 21113 38916 56013
AAXX 22184 89807 NIL
AAXX 22184 89809 46/// /1908 11022 21036 39357 58023
AAXX 22184 94102 46/// /2510 10295 20275 30006 40015
AAXX 22184 94103 NIL
AAXX 22184 94120 46/// /1005 10259 20243 39966 40006
AAXX 22184 94122 46/// /0000 10257 20239 39998 40006
AAXX 22184 94131 46/// /1204 10263 20229 39867 40017
AAXX 22184 94132 NIL
AAXX 22184 94147 NIL
AAXX 22184 94150 46/// /3511 10242 20239 39955 40014
AAXX 22184 94151 46/// /0713 10242 20205 30001 4////
AAXX 22184 94170 46/// /1103 10241 20233 30016 40038
AAXX 22184 94200 NIL
AAXX 22184 94203 46/// /2406 10294 20262 30012 40022
AAXX 22184 94206 46/// /0000 10263 2//// 39884 40011
AAXX 22184 94207 46/// /3414 10287 30003 40011 56023
AAXX 22184 94211 NIL
AAXX 22184 94212 46/// /1802 10261 20196 39552 40012
AAXX 22184 94216 46/// /2506 10275 20230 39967 40017
AAXX 22184 94236 NIL
AAXX 22184 94238 46/// /0906 10241 20215 39621 40033
AAXX 22184 94248 NIL
AAXX 22184 94255 46/// /0303 10235 20202 39788 40043
AAXX 22184 94268 46/// /0000 10263 20250 30025 40037
AAXX 22184 94287 46/// /3501 10243 20216 30039 40048
AAXX 22184 94290 NIL
AAXX 22184 94294 46/// /1306 10248 20213 30045 40055
AAXX 22184 94296 NIL
AAXX 22184 94298 46/// /1907 10263 30015 40021 56005
AAXX 22184 95641 NIL
AAXX 22184 41241 36/// /1606 10194 20031 30160 40198 333 0E022 10252 5////
AAXX 22184 41242 36/// /0000 10131 20060 30187 40211 333 0E018 10244 59019
AAXX 22184 41244 NIL
AAXX 22184 41246 32960 02204 10178 20075 30191 40196 333 10239 59020
AAXX 22184 41251 32960 02802 10072 20004 38045 48198 333 10131 59011
AAXX 22184 41252 36/// /3402 10190 20005 39811 40101 333 0E021 10244 59011
AAXX 22184 41253 36/// /0000 10147 20049 39821 40206 333 0E017 10232 59018
AAXX 22184 41254 NIL
AAXX 22184 41255 36/// /2702 10166 20008 39653 40216 333 0E019 10244 59011
AAXX 22184 41256 32960 02002 10180 20053 30188 40198 333 10233 59020
AAXX 22184 41257 NIL
AAXX 22184 41258 36/// /1801 10212 20061 30188 40193 333 0E/// 10232 59019
AAXX 22184 41259 36/// /0506 10047 21432 37123 40294 333 0E/// 10094 58001
AAXX 22184 41262 NIL
AAXX 22184 41263 NIL
AAXX 22184 41264 NIL
AAXX 22184 41265 36/// /1102 10160 20051 39646 40200 333 0E019 10248 59016
AAXX 22184 41267 35/// /3212 10208 20076 30178 40194 333 0E020 10230 59017
AAXX 22184 41268 NIL
AAXX 22184 41270 36/70 /3409 10191 20076 30137 40149 333 0E019 10235 59019
AAXX 22184 41275 NIL
AAXX 22184 41287 36/// /0705 10173 20074 30147 40216 333 0E020 10264 59010
AAXX 22184 41288 NIL
AAXX 22184 41290 NIL
AAXX 22184 41295 NIL
AAXX 22184 41304 NIL
AAXX 22184 41312 36/// /2802 10224 20139 30135 40175 333 0E/// 10279 59012
AAXX 22184 41314 36/// /0204 10178 20059 39672 40226 333 0E017 10239 59013
AAXX 22184 41315 36/// /3608 10156 20062 39187 42825 333 0E/// 10201 59013
AAXX 22184 41316 32960 03304 10213 20105 30150 40177 333 10281 59011
AAXX 22184 89564 45/// /1014 10007 21051 39844 49864 52005
AAXX 22184 89570 46/// /0811 11056 21080 39199 53005
AAXX 22184 89571 45/// /3605 10012 21042 39831 49860 53005
AAXX 22184 89573 NIL
AAXX 22184 89610 NIL
AAXX 22184 89611 45/// /2006 11007 21034 39756 49808 58019
AAXX 22184 89614 NIL
AAXX 22184 89615 469// 81029 11073 21113 38916 56013
AAXX 22184 89807 NIL
AAXX 22184 89809 46/// /1908 11022 21036 39357 58023
AAXX 22184 94299 46/// /1807 10268 20246 30017 40027
AAXX 22184 94300 46/// /1817 10243 20191 30065 40075
AAXX 22184 94302 46/// /2108 10248 20173 30031 40037
AAXX 22184 94312 46/// /2306 10276 20262 30021 40030
AAXX 22184 94313 NIL
AAXX 22184 94317 46/// /0000 10263 20023 39465 40033
AAXX 22184 94319 46/// /1513 10315 20051 39695 40016
AAXX 22184 94324 NIL
AAXX 22184 94326 46/// /0000 10211 20078 39463 40063
AAXX 22184 94327 46/// /1007 10265 20055 39695 40058
AAXX 22184 94332 46/// /1904 10205 20194 39664 40039
AAXX 22184 94333 NIL
AAXX 22184 94341 46/// /0000 10209 20169 39816 40045
AAXX 22184 94346 46/// /1707 10203 20184 39845 40059
AAXX 22184 94363 46/// /1704 10217 20198 39856 40068
AAXX 22184 94366 NIL
AAXX 22184 94367 46/// /1512 10252 20211 30012 40053
AAXX 22184 94374 46/// /1308 10227 20181 30048 40064
AAXX 22184 94388 46/// /1621 10230 20223 30052 40057
AAXX 22184 94393 46/// /1517 10258 39990 40002 56014
AAXX 22184 94394 46/// /0929 10234 30031 40039 56013
AAXX 22184 94403 46/// /1717 10218 20174 30058 40099
AAXX 22184 94429 46/// /2009 10280 20111 39613 40065
AAXX 22184 94430 46/// /1704 10283 20058 39476 40043
AAXX 22184 94449 46/// /0413 10285 20019 39544 40060
AAXX 22184 94451 NIL
AAXX 22184 94461 46/// /0000 10264 20163 39395 40046
AAXX 22184 94462 46/// /1205 10247 20123 39518 40058
AAXX 22184 94477 NIL
AAXX 22184 94488 NIL
AAXX 22184 94500 NIL
AAXX 22184 94510 46/// /1404 10193 20179 39739 40078
AAXX 22184 94515 46/// /0000 10186 20160 39745 40086
AAXX 22184 94552 46/// /1108 10171 20154 39644 40101
AAXX 22184 94578 46/// /2106 10212 20195 30102 40113
AAXX 22184 94584 46/// /1123 10227 20193 39973 40081
AAXX 22184 94601 46/// /1310 10184 20106 30127 40144
AAXX 22184 94610 46/// /1911 10186 20150 30094 40117
AAXX 22184 94637 46/// /1607 10235 20129 39653 40068
AAXX 22184 94638 46/// /1511 10192 20167 30081 40112
AAXX 22184 94642 NIL
AAXX 22184 94643 NIL
AAXX 22184 94647 46/// /0904 10181 20169 39978 40097
AAXX 22184 94651 46/// /2207 10177 20175 30020 40096
AAXX 22184 94653 46/// /0000 10168 20144 3//// 4////
AAXX 22184 94659 46/// /0810 10253 20058 39902 40093
AAXX 22184 94672 46/// /0604 10171 20090 30097 40107
AAXX 22184 94691 46/// /2304 10200 20041 39782 40101
AAXX 22184 94693 46/// /1907 10180 20063 30039 40099
AAXX 22184 94700 NIL
AAXX 22184 94703 46/// /0908 10187 20163 39981 40104
AAXX 22184 94710 46/// /0905 10166 20141 39859 40106
AAXX 22184 94729 46/// /1104 10146 20133 39284 40118
AAXX 22184 94750 46/// /2902 10137 20135 30021 40144
AAXX 22184 94767 46/// /1405 10193 20180 30138 40144
AAXX 22184 94776 46/// /0000 10169 20164 30124 40134
AAXX 22184 94791 NIL
AAXX 22184 94802 46/// /2104 10157 20122 30059 40141
AAXX 22184 94804 46/// /0911 10174 20152 30076 40113
AAXX 22184 94807 NIL
AAXX 22184 94821 46/// /1808 10154 20151 30035 40117
AAXX 22184 94842 46/// /0911 10165 20149 30027 40125
AAXX 22184 94847 NIL
AAXX 22184 94850 46/// /1107 10153 20144 30088 40134
AAXX 22184 94865 46/// /3205 10151 20141 30097 40121
AAXX 22184 94866 46/// /0000 10159 20150 39983 40122
AAXX 22184 94875 46/// /0706 10186 20128 39990 40123
AAXX 22184 91487 NIL
AAXX 22184 91490 NIL
AAXX 22184 91533 NIL
AAXX 22184 91601 NIL
AAXX 22184 91610 11499 71115 10267 20249 40048 53004 60001 70300 86868 333 56399
AAXX 22184 82815 85482
AAXX 22184 91623 NIL
AAXX 22184 91629 NIL
AAXX 22184 91701 11489 50906 10269 2025/ 60001 71522 82208 333 562/9 82817 84280
BBXX VRAE3 22184 99033 11297 41496 80213 10282 20239 40052 53008 76025 88/// 22233 00310 20403 304// 40403 5//// 80252
BBXX VNSZ 22174 99405 31460 46/// /1011 10164 20152 30124 40150 52002 22236 04172 85156
BBXX VMAL 22183 99359 31225 41/98 61407 10180 20172 40152 55015 71300 86/// 22223 2//// 80175
BBXX PCAM 22183 99412 31732 41598 21903 10155 20126 40265 55001 70200 81541 22200 20100 30000 80138
BBXX VNSZ 22164 99401 31457 46/// /0811 10164 20146 30123 40149 52007 22236 04170 85153
BBXX C6FS9 22164 99293 31538 46/// /0914 10232 20181 30099 40135 57012 22244 04253 85198
BBXX 9HA2479 22164 99186 31681 46/// /1228 10265 20232 30043 40072 57023 22283 04280 85241
BBXX 9HA2479 22174 99184 31681 46/// /1119 10266 20230 30042 40071 57013 22283 04278 85240
BBXX C6FS9 22174 99296 31537 46/// /0916 10227 20188 30100 40136 57008 22244 04253 85201
BBXX VROB 22164 99378 31449 46/// /3207 10184 20152 30102 40127 57006 22200 04201 85163
BBXX VROB 22174 99378 31449 46/// /3204 10175 20148 30100 40126 57005 22200 04200 85158
BBXX VNAH 22164 99347 31154 46/// /1612 10183 20090 30129 40153 52002 22233 04207 85130
BBXX VNAH 22174 99348 31156 46/// /1813 10184 20078 30128 40152 57007 22233 04204 85125
BBXX VNSZ 22184 99409 31462 46/// /1302 10165 20147 30126 40152 52009 22236 04176 85154
BBXX 9HA2479 22184 99181 31681 46/// /1233 10267 20231 30038 40067 57011 22283 04277 85241
BBXX C6FS9 22184 99298 31536 46/// /1112 10224 20184 30101 40137 57004 22244 04253 85197
BBXX V2BE4 22181 99024 11443 41397 80712 10260 20238 40031 57007 76366 887// 22243 04290 20506 309// 40606 80245
BBXX mpjh9 22184 99083 31539 41/98 /3214 10290 20255 40062 57030 70200 8//// 22244 2//// 80265
BBXX VRRD 22183 99275 31536 41498 71427 10240 20210 40105 55/// 70380 879// 22244 2//// 80220
BBXX VRAE2 22184 99314 31757 41598 11327 10195 20126 40179 53006 70011 81100 22244 04220 20403 314// 40605 80156
AAXX 22183 91502 31470 70000 10251 20238 40041 55004 71522 81936 333 56999 81814 81915 87280
AAXX 22183 91507 NIL
AAXX 22183 91520 31480 30000 10229 20226 40053 55003 70500 81238 333 56900 81815
AAXX 22183 91541 NIL
AAXX 22184 94893 46/// /0517 10163 20165 3//// 4////
AAXX 22184 94907 46/// /3102 10143 20139 30123 40133
AAXX 22184 94910 46/// /1007 10165 20128 39879 40124
AAXX 22184 94926 46/// /1404 10127 20122 39482 40139
AAXX 22184 94935 46/// /3405 10144 20138 30110 40136
AAXX 22184 94954 46/// /1009 10137 20132 30039 40149
AAXX 22184 94956 46/// /0000 10123 20112 30128 40154
AAXX 22184 94975 46/// /2703 10153 20116 30119 40151
AAXX 22184 94983 46/// /0000 10151 20133 30123 40148
AAXX 22184 94995 46/// /0716 10211 20187 30153 40161
AAXX 22184 94996 46/// /1015 10196 20150 30042 40170
AAXX 22184 94997 NIL
AAXX 22184 94998 46/// /2813 10065 20055 30163 40174
AAXX 22184 95111 46/// /1103 10268 20235 39973 40008
AAXX 22184 95205 46/// /2304 10281 20241 30010 40017
AAXX 22184 95322 NIL
AAXX 22184 95448 46/// /0310 10292 21001 39491 40037
AAXX 22184 95458 46/// /0107 10255 20093 39824 40078
AAXX 22184 95480 46/// /1306 10233 20061 30035 40093
AAXX 22184 95481 46/// /1106 10188 20038 30039 40083
AAXX 22184 95482 46/// /1304 10242 20029 30023 40077
AAXX 22184 95485 46/// /1801 10210 2//// 39888 40087
AAXX 22184 95492 46/// /0000 10227 20178 39940 40091
AAXX 22184 95527 46/// /1104 10204 20166 39865 40113
AAXX 22184 95634 46/// /1612 10212 20104 39691 40083
AAXX 22184 95637 46/// /1510 10171 20161 39791 40118
AAXX 22184 95646 NIL
AAXX 22184 95666 NIL
AAXX 22184 95719 46/// /1206 10156 20148 39791 40115
AAXX 22184 95762 46/// /1507 10164 20139 39669 40117
AAXX 22184 95826 NIL
AAXX 22184 95839 46/// /1603 10150 20127 39944 40101
AAXX 22184 95864 NIL
AAXX 22184 95909 NIL
AAXX 22184 95954 NIL
AAXX 22184 95966 46/// /3605 10145 20132 39952 40151
AAXX 22184 96995 NIL
AAXX 22184 96996 454// 31115 10263 20241 30048 40052 58017
AAXX 22184 NIL
AAXX 22183 NIL
BBXX VRAE3 22184 99033 11297 41496 80213 10282 20239 40052 53008 76025 88/// 22233 00310 20403 304// 40403 5//// 80252
BBXX VNSZ 22174 99405 31460 46/// /1011 10164 20152 30124 40150 52002 22236 04172 85156
BBXX VMAL 22183 99359 31225 41/98 61407 10180 20172 40152 55015 71300 86/// 22223 2//// 80175
BBXX PCAM 22183 99412 31732 41598 21903 10155 20126 40265 55001 70200 81541 22200 20100 30000 80138
BBXX VNSZ 22164 99401 31457 46/// /0811 10164 20146 30123 40149 52007 22236 04170 85153
BBXX C6FS9 22164 99293 31538 46/// /0914 10232 20181 30099 40135 57012 22244 04253 85198
BBXX 9HA2479 22164 99186 31681 46/// /1228 10265 20232 30043 40072 57023 22283 04280 85241
BBXX 9HA2479 22174 99184 31681 46/// /1119 10266 20230 30042 40071 57013 22283 04278 85240
BBXX C6FS9 22174 99296 31537 46/// /0916 10227 20188 30100 40136 57008 22244 04253 85201
BBXX VROB 22164 99378 31449 46/// /3207 10184 20152 30102 40127 57006 22200 04201 85163
BBXX VROB 22174 99378 31449 46/// /3204 10175 20148 30100 40126 57005 22200 04200 85158
BBXX VNAH 22164 99347 31154 46/// /1612 10183 20090 30129 40153 52002 22233 04207 85130
BBXX VNAH 22174 99348 31156 46/// /1813 10184 20078 30128 40152 57007 22233 04204 85125
BBXX VNSZ 22184 99409 31462 46/// /1302 10165 20147 30126 40152 52009 22236 04176 85154
BBXX 9HA2479 22184 99181 31681 46/// /1233 10267 20231 30038 40067 57011 22283 04277 85241
BBXX C6FS9 22184 99298 31536 46/// /1112 10224 20184 30101 40137 57004 22244 04253 85197
BBXX V2BE4 22181 99024 11443 41397 80712 10260 20238 40031 57007 76366 887// 22243 04290 20506 309// 40606 80245
BBXX mpjh9 22184 99083 31539 41/98 /3214 10290 20255 40062 57030 70200 8//// 22244 2//// 80265
BBXX VRRD 22183 99275 31536 41498 71427 10240 20210 40105 55/// 70380 879// 22244 2//// 80220
BBXX VRAE2 22184 99314 31757 41598 11327 10195 20126 40179 53006 70011 81100 22244 04220 20403 314// 40605 80156
BBXX 42363 22181 99282 70892 46/// /1917 10244 20206 40159 58007 91800 333 91217
BBXX 42364 22181 99291 70881 46/// /1808 10233 20217 40163 58003 91800
BBXX 44060 22181 99413 70721 46/// ///04 10099 40170 55013 91800 22200 00109 333 91205 555 11046 22046
BBXX 44022 22181 99409 70737 46/// ///05 10124 20044 40179 55014 91800 22200 00084 333 91207 555 11057 22072
BBXX 46238 22181 99334 71195 46/// ///// 1//// 91750 22200 00142 11403 21002 328// 41402 70014
BBXX 46239 22181 99363 71221 46/// ///// 1//// 91751 22200 00131 11305 21003 330// 41304 70027
BBXX UCKZ 22181 99626 30611 41498 82708 11009 21016 49851 53008 70284 8567/ 22223 01003 20402 331// 41004 ICE 0/8/0
BBXX FHZI 22164 99666 31400 46/// /1210 11020 21078 39896 49907 52014 22200 05018 86038
BBXX FHZI 22174 99666 31400 46/// /1212 11023 21081 39900 49911 52015 22200 05018 86041
AAXX 22181 38141 32998 50905 11108 21181 30134 40304 57004 80002 333 11090
AAXX 22181 38149 42998 00502 11078 21128 30229 40311 57007 333 11008
AAXX 22181 38178 429// 00903 11131 21253 30047 40358 57012 333 11049
AAXX 22181 38262 329// 00502 11096 21166 30241 40329 53003 333 11026
AAXX 22181 38264 42998 00703 11091 21130 30211 40310 57009 333 11019
AAXX 22181 38396 42997 00904 11081 21139 30181 40315 57009 333 10002
AAXX 22181 38403 429// 00202 11089 21168 30190 40319 57010 333 11011
AAXX 22181 38413 429// 01103 11084 21107 30020 40330 57024 333 11054
AAXX 22181 38457 32997 01101 11053 21099 39720 40341 57012 333 10004
AAXX 22181 38462 429// 00000 11077 21137 38834 48548 58016 333 10013
AAXX 22181 38565 329// 00000 11086 21114 39704 40327 57014 333 11014
AAXX 22181 38579 329// 00101 11068 21097 39897 40343 57015 333 11016
AAXX 22181 38583 32997 03601 11070 21083 30003 40347 57012 333 11001
AAXX 22181 38611 41696 73401 11065 21093 39768 40376 57015 71011 84500 333 11010 83346
AAXX 22181 38618 329// 30000 11077 21091 39625 40361 57015 80002 333 11020
AAXX 22181 38683 41996 00000 11070 21113 30012 40307 57016 71000 333 10015
AAXX 22181 38696 329// 00000 11065 21073 39421 40328 57009 333 10013
AAXX 22181 38812 42997 00902 11038 21087 39811 40289 57011 333 10040
AAXX 22181 38927 32960 00102 11061 21084 39927 40328 57012 333 10028
AAXX 22184 94310 46/// /2509 10280 20266 30014 40025 57009
AAXX 22184 95283 46/// /1404 10263 20232 30036 40043
AAXX 22184 95288 46/// /1514 10279 30018 40033 56017
AAXX 22184 95675 46/// /0703
AAXX 22184 95872 46/// /3506
AAXX 22184 95961 35/// /0000 10121 30113 40154 57008
BBXX 2ALD3 22183 99164 11257 41397 60515 10250 20236 40081 54000 70222 85793 22234 04300 20504 80240
AAXX 22181 37395 32797 50906 10114 20043 30043 40181 57010 82530 333 10140
AAXX 22181 37409 32598 70906 10016 21003 38766 48493 57008 85431 333 10062 95080
AAXX 22181 37432 11596 80000 10026 21029 38978 48518 57002 69960 8872/ 333 10055
AAXX 22181 37514 32696 20000 10018 21016 39056 40230 53002 82500 333 10090
AAXX 22181 37545 325// 80002 10047 20017 39686 40206 52001 884// 333 10086
AAXX 22181 37621 325// 80000 10055 21022 39569 40214 53008 885// 333 10128
AAXX 22181 37484 NIL
BBXX 46219 22181 99332 71199 46/// ///// 1//// 91758 22200 00136 11305 21002 330// 41304 70023
BBXX 46224 22181 99332 71175 46/// ///// 1//// 91736 22200 00144 11301 21001 324// 41301 70007
BBXX 46214 22181 99379 71235 46/// ///// 1//// 91753 22200 00116 11305 21003 330// 41303 70023
BBXX 51204 22181 99213 71581 46/// ///// 1//// 91752 22200 00247 10603 20603 331// 41101 70014
BBXX 51202 22181 99214 71577 46/// ///// 1//// 91739 22200 00243 10905 20904 302// 41101 70023
AAXX 22184 40356 42960 02904 10120 21010 39171 48480 333 10190 59026 55044 555 04410 50147
AAXX 22184 40357 42960 00903 10143 20020 39504 40143 333 10269 59044 55///
AAXX 22184 40360 42960 02404 10116 20020 39557 40153 333 10190 59025 55069
AAXX 22184 40361 42960 11104 10172 21040 39374 40133 80008 333 10260 59028 55///
AAXX 22184 40362 42960 01510 10164 21030 39634 40146 333 10278 59051 55///
AAXX 22184 40373 42960 01506 10130 20010 39761 40185 333 10250 59040 55///
AAXX 22184 40375 42960 02010 10180 20060 39272 40144 82020 333 10240 59016 55090 82460
AAXX 22184 40377 42960 01809 10108 20010 39701 40192 333 10231 59042 55///
AAXX 22184 40394 42960 02404 10142 20010 39042 48519 333 10242 59028 55096 555 04410 50166
AAXX 22184 40400 42960 03504 10226 20140 30122 40150 333 10270 59009 55085
AAXX 22184 40401 42960 02005 10220 20070 39453 40149 333 10284 59016 55///
AAXX 22184 40405 42960 01505 10160 20050 39435 40179 333 10246 59031 55///
AAXX 22184 40416 42960 00000 10170 20130 30170 40190 333 10240 59023 55///
AAXX 22184 40417 41958 01003 10159 20110 30190 40205 70500 333 10238 59025 55///
AAXX 22184 40420 42960 00000 10152 20080 39997 40207 333 10235 59019 55///
AAXX 22184 40430 42960 30000 10210 20010 39428 40143 80001 333 10280 59018 55085 83070
AAXX 22184 40435 NIL
AAXX 22184 40437 42960 31103 10126 20060 39498 40212 83030 333 10206 59021 55090 83360
AAXX 22184 40439 42960 02702 10236 20190 30123 40133 333 10286 59006 55075
AAXX 22184 41024 42960 20304 10254 20210 30115 40134 80002 333 10310 59012 55080 82070
AAXX 22184 41030 42960 00000 10264 20170 39859 40129 333 10344 59012 55///
AAXX 22184 41036 42960 30000 10180 20130 38580 48530 83030 333 10255 59014 55090 83358 555 04410 50128
AAXX 22184 41055 42960 01006 10160 20000 38386 48534 333 10230 59015 55097 555 04410 50161
AAXX 22184 41061 42960 21106 10134 20080 39478 40194 80002 333 10230 59017 55100 82075
AAXX 22184 41084 42960 00000 10169 20010 38885 48533 333 10266 59012 55100 555 04410 50170
AAXX 22184 41112 42960 00000 10131 20120 37963 48533 333 10232 59011 55095 555 04410 50183
AAXX 22184 41114 42960 00000 10140 20110 37996 48529 333 10255 59010 55/// 555 04410 50166
AAXX 22184 41128 42960 00000 10142 21040 38848 48549 333 10240 59013 55085 555 04410 50189
AAXX 22184 41136 42960 00705 10163 20020 39360 40182 333 10250 59017 55095
AAXX 22184 41140 42960 01004 10274 20210 30130 40143 333 10311 59009 55///
AAXX 22181 03969 31480 62107 10119 20095 30080 40183 58021 69902 70181 865// 333 10128 81716 86650
AAXX 22184 65352 31950 70000 10298 20067 3//// 4//// 70522 80002 333 10354 5//// 87076
AAXX 22184 65361 NIL
AAXX 22184 65376 32956 70402 10298 20182 39644 40101 80002 333 10325 58002 87076
AAXX 22184 65387 32458 72006 10295 20275 30069 40087 81802 333 10340 58006 81616 87073
AAXX 22181 33902 31996 53601 11001 21013 30137 40204 52012 71022 80001 333 10030
AAXX 22184 40550 37/28 /1902 10136 20105 40197 50003 71011 333 55300 00000 10210 20000 30000 41122 51333 60000 55407 40000 90069 90401 91005 91111 91205 91301
AAXX 22184 40551 36/// /1105 10131 20115 333 90400 91011 91123 91215 91305
AAXX 22184 40552 37/18 /1509 10122 20108 40196 50002 71011 333 55300 90069 90401 91009 91119 91215 91311
AAXX 22184 40553 37/50 /1410 10132 20107 40197 52002 71010 333 55300 90069 90401 91011 91117 91215 91311
AAXX 22184 40568 36/// /1208 10147 20129 333 90400 91009 91111 91209 91307
AAXX 22184 40569 NIL
AAXX 22184 40570 35/63 /1605 10127 20047 40194 51005 333 55300 90069 90401 91009 91117 91207 91305
AAXX 22184 40571 NIL
AAXX 22184 40572 NIL
AAXX 22184 40573 36/// /1606 10116 20060 333 90401 91011 91119 91209 91307
AAXX 22184 40580 36/// /1303 10164 20123 333 553// 00000 10257 20000 30000 41107 51364 60000 55407 40000 90400 91011 91115 91205 91303
AAXX 22184 40581 36/// /1702 10171 20131 333 90400 91005 91109 91203 91301
AAXX 22184 40582 31940 31406 10149 20120 40197 50030 71000 80001 333 55300 00000 10243 20000 30000 41119 51361 60000 55407 40000 90400 91007 91117 91211 91307
AAXX 22184 40583 NIL
AAXX 22184 40585 36/// /1606 10164 20142 222// 1//// 3//// 4//// 70/// 333 90401 91011 91113 91209 91307
AAXX 22184 40586 36/// /1405 10137 20120 333 90401 91007 91115 91211 91305
AAXX 22184 40587 36/// /1207 10128 20115 333 553// 00000 10206 20000 30000 41098 51303 60000 55407 40000 90400 91009 91115 91209 91305
AAXX 22184 40588 37/35 /1205 10146 20124 40198 50001 71011 333 55300 90069 90400 91007 91113 91209 91307
AAXX 22184 40589 NIL
AAXX 22184 40590 36/// /1409 10132 20100 333 90401 91011 91119 91211 91309
AAXX 22184 40591 NIL
AAXX 22184 40592 37/32 /1504 10139 20112 40201 53004 71011 333 55300 00000 10230 20000 30000 41108 51338 60000 55407 40000 90069 90401 91005 91113 91207 91305
AAXX 22184 40593 36/// /1708 10169 20147 333 90400 91009 91113 91211 91307
AAXX 22184 40594 36/// /1502 10149 20122 333 90400 91005 91115 91209 91305
AAXX 22184 40596 46/// /1409 10192 20136 333 90401 91011 91111 91209 91307
AAXX 22181 50468 NIL
AAXX 22181 50953 NIL
AAXX 22181 51076 NIL
AAXX 22181 51243 NIL
AAXX 22181 51288 32980 03403 11134 21186 38453 52001 333 00200 11113
AAXX 22181 51463 NIL
AAXX 22181 51573 NIL
AAXX 22181 51709 NIL
AAXX 22181 52533 NIL
AAXX 22181 52652 NIL
AAXX 22181 52866 NIL
AAXX 22181 52983 NIL
AAXX 22181 53463 NIL
AAXX 22181 53513 NIL
AAXX 22181 53588 NIL
AAXX 22181 53772 NIL
AAXX 22181 53915 NIL
AAXX 22181 54218 NIL
AAXX 22181 54337 NIL
AAXX 22181 54342 NIL
AAXX 22181 54401 NIL
AAXX 22181 54471 NIL
AAXX 22181 54497 NIL
AAXX 22181 54511 NIL
AAXX 22181 54823 NIL
AAXX 22181 56080 NIL
AAXX 22181 56096 NIL
AAXX 22181 57083 NIL
AAXX 22184 43466 22470 80508 10256 20223 30074 40086 8517/ 333 59009 60007 85818 87460
AAXX 22183 91551 31598 10000 10255 20248 40055 53002 70111 81100 333 569// 81825
AAXX 22183 91553 31598 69903 10265 20258 40061 53001 70222 83904 333 561/9 83820 81925 86080
AAXX 22183 91554 11598 80000 10240 20238 40096 56004 60011 70228 8697/ 333 5699/ 60011 83820 86640 88461
AAXX 22183 91555 11598 79903 10257 20240 40060 56004 60041 70288 8497/ 333 5699/ 60041 83820 81924 87461
AAXX 22183 91557 11498 80703 10251 20242 40044 56001 69921 70222 8581/ 333 5699/ 69921 81718 84820 88460
AAXX 22183 91565 NIL
AAXX 22183 91568 31598 71012 10260 20225 40086 53002 70222 878// 333 563// 84823 87640
BBXX 44139 22181 99442 70571 46/// /2411 10096 40025 57024 22200 00062 11008 70038 333 91213
AAXX 22183 91551 31598 10000 10255 20248 40055 53002 70111 81100 333 569// 81825
AAXX 22183 91553 31598 69903 10265 20258 40061 53001 70222 83904 333 561/9 83820 81925 86080
AAXX 22183 91554 11598 80000 10240 20238 40096 56004 60011 70228 8697/ 333 5699/ 60011 83820 86640 88461
AAXX 22183 91555 11598 79903 10257 20240 40060 56004 60041 70288 8497/ 333 5699/ 60041 83820 81924 87461
AAXX 22183 91557 11498 80703 10251 20242 40044 56001 69921 70222 8581/ 333 5699/ 69921 81718 84820 88460
AAXX 22183 91565 NIL
AAXX 22183 91568 31598 71012 10260 20225 40086 53002 70222 878// 333 563// 84823 87640
AAXX 22184 06670 01132 82004 10054 20045 39750 40271 52/// 60142 76366 8672/ 333 10055 41998 55300 20000 60025 82702 85707 88511 90766 93100 91110 91207
AAXX 22184 06700 01362 70403 10054 20043 39797 40301 52/// 69912 71082 875// 333 10062 31/// 55300 20004 60005 81708 87634 90766 93100 91106 91203
AAXX 22184 06680 01/01 92612 11040 21040 37534 47071 52/// 60672 77374 333 11042 47270 55300 20000 60085 90766 93119 91140 91219
AAXX 22184 06990 01430 81503 10015 20007 39723 40289 52/// 60182 76362 887// 333 43/// 55300 20000 60015 88712 91110 91206
AAXX 22184 06760 31956 20201 10055 21034 39769 40224 50/// 70511 82030 333 10082 30/// 55300 20000 82359 90766 93100 91110 91205
AAXX 22184 06720 01358 8//// 10028 20023 39713 40306 53/// 60022 76166 887// 333 10037 43013 55300 20000 69945 88707 90766 93100
AAXX 22184 06610 01558 82107 10069 20055 39699 40292 52/// 60022 76166 887// 333 10070 32/// 55300 20000 60005 88727 90766 93100 91115 91210
AAXX 22181 26424 31496 62302 11027 21030 40213 52010 71022 82530 333 11020
AAXX 22181 26045 01369 82302 11006 21010 30174 40176 51004 69902 70222 886// 333 11006 21033 60007 88707 555 1/101 21033 3/102 51020
AAXX 22184 89002 42899 72108 11018 21044 39784 49838 52007 84031
AAXX 22184 60127 32960 00000 10145 20075 39678 40276 53003 333 10210
AAXX 22184 65351 32960 70406 10295 20074 3//// 4//// 80002 333 10330 5//// 87076
AAXX 22184 65355 32960 70404 10265 21016 39791 40107 80002 333 10337 58003 87073
AAXX 22184 65357 32960 70402 10305 20051 39724 40114 80002 333 10360 58012 87076
AAXX 22184 65380 32958 70000 10291 20245 3//// 4//// 83072 333 10359 5//// 83363 87076
BBXX 44139 22181 99442 70571 46/// /2411 10096 40025 57024 22200 00062 11008 70038 333 91213
BBXX 46035 22181 99571 71778 46/// /0904 1//// 40028 53006 91750 22200 10904 20401 300// 40904 70018 333 91204 555 11035 22037 31730 41005 61749 086035 091042 094042 094034 096040 106041 80905 91730
BBXX 4XIS 22183 99380 71657 43/97 82625 10130 20050 40170 53035 22225 80090
BBXX A8SI3 22183 99546 71659 43398 8//// 10040 21040 40080 58008 22264 00040 80010
BBXX KEY796 22183 99571 71703 41/97 13604 11111 21128 40018 58/// 702// 8//// 222// 00011 2//// 3//// 4//// 5//// 6//// 8//// ICE /////
BBXX NWS0003 22184 99539 71665 43/// /0000 10008 21021 49985 5//// 7//// 8//// 222// 0//// 2//// 3//// 4//// 5//// 6//// 8//// ICE /////
BBXX V7NV4 22184 99300 71649 41597 62313 10200 20185 40210 54000 703// 82416 22263 00180 20200 328// 40506 5//// 6//// 80190 ICE /////
BBXX DDZC2 22184 99324 11579 41398 41417 10200 20169 40110 50040 7//// 8367/ 22264 00190 2//03 3//// 4//// 5//// 80180
BBXX LAHR7 22184 99475 11591 41497 83214 10005 21010 40200 5//// 70222 884// 22214 00020 2//// 3//// 4//// 5//// 6//// 80000 ICE /////
BBXX LAIG7 22184 99334 11769 41797 73307 10170 20170 40250 52010 70222 8747/ 22223 00195 20501 332// 41207 5//// 6//// 80170 ICE /////
AAXX 22181 26058 27360 82102 11010 21013 30171 40178 52002 70011 88/// 333 10003 21022 60007 88/08 555 1/101 21022 3/102 51011 52103
AAXX 22181 26135 27129 82302 11014 21016 30109 40186 52007 71010 88/// 333 11005 21022 60007 88/02 555 1/100 21022 3/100 51016 52101
AAXX 22181 48826 32797 80502 10162 20145 30040 40179 56009 885// 333 59007 88697
AAXX 22181 48839 32697 80511 10176 20122 30109 40176 58011 885// 222// 00195 2//// 333 59005 88696
AAXX 22181 48808 32498 81801 10124 20114 39910 40203 58005 888// 333 59009 83894 88696
AAXX 22181 48830 32797 83603 10123 20071 39883 40200 58005 885// 333 59005 88697
AAXX 22181 48803 32497 80000 10170 20148 30057 40172 55005 888// 333 59016 84894 88696
AAXX 22184 41244 36/// /1300 10167 21030 39840 48230 333 0E018 10247 59015
AAXX 22184 41263 36/// /1804 10192 20024 39509 40202 333 0E018 10236 59011
AAXX 22184 41288 36/// ///// 10213 20108 30169 40193 333 0E021 10256 59004
AAXX 22184 88963 11460 70000 10030 20004 39810 49839 57012 69901 72372 87500 333 56700 83710 87630 90117 90310 90520 90664 90921 92407 93100 94073 95003 96110
AAXX 22184 88968 11465 83410 10016 21022 39836 49851 56013 69901 70272 8667/ 333 56779 84712 86625 88360 90961 92417 92734 92851 94070 95060
AAXX 22184 89034 31258 70910 11022 21044 39502 49814 53015 71022 84670 333 56250 84705 84360 92870
AAXX 22184 89053 31350 72310 10020 20002 39856 49870 57007 71022 85770 333 56770 85708 84557 90068 90084 92416 94073 94477 95083 97516 98550
AAXX 22184 89055 31340 71814 11019 21024 39697 49941 53005 71022 84670 333 56440 84708 87540 90045 90083 92760 95190
AAXX 22184 89066 11456 80000 10004 21009 39857 49866 56005 60031 77175 886// 333 56799 84712 88715 90008 90308 90956 92406 93003 93195 94072 95012 96480
AAXX 22181 48806 32998 00000 10129 20115 39399 40193 58005 333 59007 96122
AAXX 22184 71807 17/// /1726 10073 20062 39987 40005 56064 60091 7//4/ 333 10074 21020 70094
AAXX 22184 71956 16/// /3309 10024 20000 39931 40164 50003 60001 333 10024 21016 70003
AAXX 22184 71959 16/// ///// 10038 20036 60001 333 10089 21009 70118
AAXX 22184 71977 46/// /3301 11256 21256 39349 40081 55001 6///1 333 11183 21265 7////
AAXX 22184 71978 46/// /0105 11233 21259 39773 40096 53001 6///1 333 11208 21244 7//// 555 10010
AAXX 22184 71015 16/// ///// 11013 60001 333 11004 21105 7////
AAXX 22184 71017 16/// /2011 11228 21252 30042 40057 58008 60001 333 11215 21345 70000
AAXX 22184 71019 46/// /2803 11007 21040 39807 40110 55002 6///1 333 11007 21048 7////
AAXX 22184 71020 46/// /0101 11018 21071 39806 40057 51003 6///1 333 10034 21063 7////
AAXX 22184 71021 46/// /0000 11133 21157 39741 40099 51001 6///1 333 11115 21180 7////
AAXX 22184 71063 17/// /2705 10036 20003 30058 40156 58002 60011 7//4/ 333 10042 21029 70133
AAXX 22184 71915 11569 53613 11265 21312 39939 40022 58003 69901 77677 81501 333 11211 21290 48043 70004 90983
AAXX 22184 71832 16/// /2507 11158 21187 39899 40241 51008 60001 333 11144 21208 70000
AAXX 22184 71858 16/// /1604 11112 21143 39934 40226 58012 60001 333 11112 21134 70003
AAXX 22184 71861 16/// /2307 11076 21106 39482 40225 58009 60001 333 11048 21126 70000
AAXX 22184 71243 16/// /2613 10019 21109 39144 40259 51007 60001 333 10019 21113 7////
AAXX 22184 71246 16/// /2608 11017 21072 39473 40141 53004 60001 333 11017 21057 70000
AAXX 22184 71110 17/// /2112 10063 20061 39929 49988 56038 60181 7//4/ 333 10073 21021 70221
AAXX 22184 71139 16/// /2305 11088 21127 38727 40228 58005 60001 333 11046 21116 70003
AAXX 22184 71141 16/// /3104 11339 21374 30066 40094 58002 60001 333 11329 21347 70000
AAXX 22184 71147 16/// /2201 11048 21071 60001 333 11048 21130 70003
AAXX 22184 71149 17/// /1502 11068 21089 69931 7//4/ 333 11068 21153 70006
AAXX 22184 71920 16/// /2920 10077 20062 30096 40102 53019 60001 333 10099 20049 70219
AAXX 22184 71402 46/// /1404 10015 20007 39893 40007 56051 6///1 333 10015 21045 7////
AAXX 22184 71442 16/// /2203 11078 21110 39916 40240 58002 60001 333 11077 21113 70000
AAXX 22184 71446 16/// /2513 11072 21116 39206 40210 56017 60001 333 11072 21119 70000
AAXX 22184 71075 16/// /1605 11179 21199 39507 40137 56025 60001 333 11179 21263 70000 555 10010
AAXX 22184 71087 46/// /0402 11213 21240 39887 40100 53023 6///1 333 11204 21231 7////
AAXX 22184 71706 11374 83409 10017 20014 30018 40078 52029 60001 70242 87//1 333 10059 20001 70197
AAXX 22184 71719 16/// /2904 10015 21045 30075 40081 53004 60001 333 10016 21036 70022 555 10010
AAXX 22184 71250 17/// /1816 10039 20030 39896 40031 56075 60101 7//4/ 333 10039 21073 70100
AAXX 22184 71295 16/// /2604 11106 21141 39787 40250 58004 60001 333 11106 21148 70000
AAXX 22184 71296 16/// /2805 10038 20002 39858 40165 50005 60001 333 10045 21010 70109
AAXX 22184 71450 16/// /2311 11039 21085 39468 40201 55014 60001 333 11039 21114 70000
AAXX 22184 71451 16/// /1703 11156 21175 39707 40149 58040 60001 333 11156 21262 70000
AAXX 22184 71452 46/// /2207 11038 21096 39508 40235 58015 6///1 333 11038 21102 7//// 555 10010
AAXX 22184 71454 16/// /2003 11068 21104 39439 40141 56018 60001 333 11064 21095 70013
AAXX 22184 71455 46/// /2314 11060 21091 39380 40195 56020 6///1 333 11060 21124 7////
AAXX 22184 71456 16/// /2210 11066 21096 39555 40164 58033 60001 333 11057 21144 70012
AAXX 22184 71459 16/// /2611 11040 21076 39381 40212 58007 60001 333 11040 21154 70000
AAXX 22184 71465 46/// /3203 10052 20026 39960 40177 58004 6///1 333 10062 20045 7////
AAXX 22184 71470 16/// /2005 11179 21197 39438 40083 56006 60001 333 11179 21341 70000
AAXX 22184 71476 16/// /1641 30086 56037 60001 333 70058
AAXX 22184 71480 16/// /1401 11209 21233 39976 40101 51007 60001 333 11146 21211 70000
AAXX 22184 71484 16/// /1643 10060 20049 30080 40098 56035 60001 333 10072 20039 70000
AAXX 22184 71492 46/// ///23 11230 21250 39319 40021 50009 6///1 333 11127 21230 7////
AAXX 22184 71614 16/// /2806 10031 21009 30088 40154 55002 60001 333 10031 21010 70087
AAXX 22184 71622 16/// ///// 10044 20011 39841 40180 50001 60001 333 10048 20025 70015
AAXX 22184 71309 17/// /2805 11189 21234 30210 40222 50013 69931 7//4/ 333 11159 21203 70003 555 10020
AAXX 22184 71311 17/// /3610 10011 20004 30066 40090 53022 69931 7//4/ 333 10081 20011 70070
AAXX 22184 71317 17/// /3309 10035 20019 30032 40078 53032 69931 7//4/ 333 10078 21001 70186
AAXX 22184 71332 16/// /3302 11251 21278 30005 40035 58002 60001 333 11234 21339 70000
AAXX 22184 71758 16/// /3209 10079 20050 39943 40019 53010 60001 333 10092 21044 70177
AAXX 22184 71356 16/// /2908 11323 21357 30086 40157 58004 60001 333 11301 21327 70000
AAXX 22184 71357 17/// /0606 11174 21195 39949 49956 58008 69991 7//4/ 333 11174 21265 70009 555 10020
AAXX 22184 71361 16/// /2804 11159 21178 39876 40088 53026 60001 333 11107 21185 70000
AAXX 22184 71362 16/// /1802 11181 21202 39821 40084 53011 60001 333 11137 21207 70000
AAXX 22184 71381 46/// /2406 11001 21033 6///1 333 11001 21043 7////
AAXX 22184 71384 16/// /2606 10016 21012 30119 40127 55002 60001 333 10016 21032 70030
AAXX 22184 71393 16/// ///// 10011 21135 38928 40222 53003 60001 333 10021 21088 70000
AAXX 22184 71851 16/// /3004 11051 21076 39899 40243 58002 60001 333 11051 21125 70000
AAXX 22184 71885 16/// ///// 10022 60001 333 10022 21082 70003
AAXX 22184 71886 16/// /2008 11087 21116 39590 40213 58016 60001 333 11046 21103 70006 555 10010
AAXX 22184 71150 46/// /2706 11058 21079 39527 40226 58003 6///1 333 11053 21106 7////
AAXX 22184 71151 16/// /2203 11084 21122 39725 40246 58002 60001 333 11083 21114 70000
AAXX 22184 71156 16/// /2705 10009 21123 39082 40194 55000 60001 333 10012 21108 70000 555 10010
AAXX 22184 71157 46/// ///// 11003 21067 6///1 333 10004 21062 7////
AAXX 22184 71159 16/// /2804 10043 20030 39931 40002 55004 60001 333 10054 21017 70032
AAXX 22184 71160 16/// /0403 11187 21210 39888 40111 54000 60001 333 11186 21348 70000
AAXX 22184 71162 16/// /1208 11142 21160 39870 40085 53022 60001 333 11142 21196 70000
AAXX 22184 71164 46/// /3502 11192 21217 30043 40126 51005 6///1 333 11136 21211 7////
AAXX 22184 71165 46/// ///02 11190 21210 39800 40091 51012 6///1 333 11161 21216 7////
AAXX 22184 71166 46/// /2406 39480 51010 6///1 333 7////
AAXX 22184 71732 16/// /3504 10007 21017 60001 333 10009 21026 70000
AAXX 22184 71736 46/// ///// 11016 21119 6///1 333 11016 21082 7////
AAXX 22184 71742 46/// /1409 10021 20021 39817 40002 56064 6///1 333 10021 21063 7////
AAXX 22184 71744 17/// /3004 10006 21012 30055 40096 53012 69991 7//4/ 333 10008 21019 70064
AAXX 22184 71746 17/// /2907 10049 21004 39955 40177 58002 69961 7//4/ 333 10055 20035 70014
AAXX 22184 71552 46/// /2405 11067 21098 6///1 333 11035 21082 7////
AAXX 22184 71556 16/// /1912 11078 21093 39580 40199 56024 60001 333 11039 21128 70000 555 10010
AAXX 22184 71581 17/// /2701 10005 21001 39665 40149 55001 69931 7//4/ 333 10005 21017 70082
AAXX 22184 71585 16/// /2510 11041 21085 39645 40113 58003 60001 333 21181 7////
AAXX 22184 71599 16/// /3102 10039 20039 39900 40101 53024 60001 333 10093 20000 70264
AAXX 22184 71447 16/// /2610 11048 21084 39692 40254 50001 60001 333 11047 21117 70000
AAXX 22184 71472 17/// /1845 10069 20052 69941 7//4/ 333 10084 20061 7////
AAXX 22184 71510 16/// /2512 11052 21099 39459 40180 58019 60001 333 11052 21122 70000
AAXX 22184 71669 16/// /2605 10000 21182 38593 40236 53010 60001 333 10000 21131 70000
AAXX 22184 71837 16/// ///// 11003 60001 333 11002 21092 70000
AAXX 22184 71839 16/// ///// 10012 60001 333 10012 21090 70000
AAXX 22184 71849 16/// /1706 11070 21093 39941 40249 58003 60001 333 11064 21123 70000
AAXX 22184 71501 16/// /3113 11256 21285 30120 40122 53002 60001 333 11219 21257 7//// 555 10010
AAXX 22184 91753 04486 /1006 10270 20243 30033 40065 53011 60102 700// 333 10282 20242 60007 90710 91111 555 60005
AAXX 22184 91754 01480 70706 10275 20237 30023 40064 53013 60001 702// 85860 333 60007 83819 83360 555 60005
AAXX 22181 33902 31996 53601 11001 21013 30137 40204 52012 71022 80001 333 10030
AAXX 22181 50468 32970 03402 11304 21330 30025 40259 52002 333 11201
AAXX 22181 50953 32965 01801 11212 21264 30068 40263 57007 333 11130
AAXX 22181 52866 32968 71801 11095 21169 37757 52012 80002 333 00003 11017
AAXX 22181 53463 32980 00202 11117 21189 39021 40339 57011 333 05751 11051
AAXX 22181 53513 32970 02506 11102 21201 39064 40351 57002 333 05506 11029
AAXX 22181 54218 32970 02503 11109 21195 39437 40282 57015 333 11048
AAXX 22181 54337 32960 00402 11122 21174 30179 40267 57017 333 11023
AAXX 22181 54342 32965 30401 11187 21230 30217 40284 57017 80002 333 11093
AAXX 22181 54471 32962 01403 11108 21197 30271 40277 57020 333 11057
AAXX 22181 54497 32965 10703 11136 21216 30286 40304 57009 80002 333 11066
AAXX 22181 54823 32975 01402 11020 21154 30085 40303 57018 333 10043
AAXX 22184 71915 11569 53613 11265 21312 39939 40022 58003 69901 77677 81501 333 11211 21290 48043 70004 90983
AAXX 22184 71832 16/// /2507 11158 21187 39899 40241 51008 60001 333 11144 21208 70000
AAXX 22184 71858 16/// /1604 11112 21143 39934 40226 58012 60001 333 11112 21134 70003
AAXX 22184 71861 16/// /2307 11076 21106 39482 40225 58009 60001 333 11048 21126 70000
AAXX 22184 71807 17/// /1726 10073 20062 39987 40005 56064 60091 7//4/ 333 10074 21020 70094
AAXX 22184 71447 16/// /2610 11048 21084 39692 40254 50001 60001 333 11047 21117 70000
AAXX 22184 71472 17/// /1845 10069 20052 69941 7//4/ 333 10084 20061 7////
AAXX 22184 71510 16/// /2512 11052 21099 39459 40180 58019 60001 333 11052 21122 70000
AAXX 22184 71706 11374 83409 10017 20014 30018 40078 52029 60001 70242 87//1 333 10059 20001 70197
AAXX 22184 71719 16/// /2904 10015 21045 30075 40081 53004 60001 333 10016 21036 70022 555 10010
AAXX 22181 52533 32980 03202 11101 21162 38654 40436 52002 333 00103 11014
AAXX 22181 53588 32980 02205 11161 21215 37765 57015 333 11110
AAXX 22181 53772 31957 01801 11071 21153 39362 40329 57015 70400 333 11004
AAXX 22181 54511 32962 20000 11062 21159 30234 40276 57016 80002 333 10036
AAXX 22181 56080 11970 73401 11122 21164 37158 52005 69901 77000 80002 333 05102 10005
AAXX 22181 57083 31956 02501 11029 21065 30164 40306 57008 71000 333 10061
AAXX 22181 33345 12998 63003 11023 21052 39999 40212 52010 69902 86030 333 11009
AAXX 22181 56187 11964 80202 10057 20003 39623 40286 52004 69901 76060 8807/ 333 05251 10086
AAXX 22181 57461 32960 02701 10017 21005 30149 40317 57005 333 10098
AAXX 22181 57687 31920 82901 10064 20009 30205 40291 57008 70500 8807/ 333 10089
AAXX 22181 57816 11420 80903 11006 21012 38835 40277 57002 69951 76660 885// 333 05253 10027 93427
AAXX 22181 58040 32962 00000 11047 21086 30303 40317 57009 333 10037
AAXX 22181 58150 32960 03202 11022 21089 30318 40322 57007 333 10053
AAXX 22181 58221 32960 00000 11022 21073 30289 40319 57013 333 10052
AAXX 22181 59644 32560 83605 10122 20054 30184 40201 57005 888// 333 10202
AAXX 22181 59758 32464 80704 10189 20133 30104 40180 57008 888// 333 10215
AAXX 22181 56778 32565 12501 10049 20046 38106 52001 81100 333 05303 10181
AAXX 22181 57494 32965 00000 11022 21029 30274 40305 57003 333 10105
AAXX 22181 58362 32980 03402 10039 21041 30295 40303 57002 333 10071
AAXX 22181 57265 32960 03601 10007 21038 30200 40315 57002 333 10072
AAXX 22181 57516 31750 83202 10080 20053 39954 40272 54000 71000 885// 333 05200 10091
AAXX 22181 58102 32965 01401 11041 21077 30272 40322 57011 333 10047
AAXX 22181 58238 32962 03602 11014 21065 30269 40315 57010 333 10070
AAXX 22181 58251 32960 03401 11017 21064 30310 40315 57008 333 10064
AAXX 22181 58457 32965 03402 10024 21048 30252 40307 57005 333 10076
AAXX 22181 58606 31956 20403 10036 21039 30230 40290 57005 70500 82040 333 10084
AAXX 22181 58752 31758 73604 10079 21039 30223 40270 57006 70500 875// 333 10123
AAXX 22181 58847 31658 80703 10099 20030 30144 40248 57006 71000 885// 333 10128
AAXX 22181 59117 32663 71801 10090 20046 30127 40234 52001 875// 333 10193
AAXX 22181 59134 32662 70703 10102 20026 30059 40229 52001 875// 333 10173
AAXX 22181 59287 32965 23603 10097 20034 30140 40227 52007 80002 333 10190
AAXX 22181 59316 31557 72501 10130 20075 30209 40214 52003 70500 875// 333 10195
AAXX 22181 59431 32960 70702 10112 20040 30074 40222 52001 8703/ 333 10187
AAXX 22181 51076 32980 00902 11264 21296 39545 40552 57002 333 00253 11206
AAXX 22181 51243 32965 43401 11212 21237 39910 40536 54000 80002 333 00200 11162
AAXX 22181 51463 32980 02202 11141 21180 39295 40499 57003 333 00105 11093
AAXX 22181 51573 32980 02901 11091 21152 30418 40465 52005 333 00300 11031
AAXX 22181 51709 32865 73601 11053 21097 38886 40453 52004 82502 333 00301 11033
AAXX 22181 52652 32980 03402 11166 21208 38672 40464 52006 333 00253 11041
AAXX 22181 52983 32965 72201 11118 21158 38192 52007 80002 333 00051 11030
AAXX 22181 53915 32980 02703 11060 21160 38759 40369 52001 333 05301 10001
AAXX 22181 54401 32965 03402 11097 21197 39394 40300 57014 333 11011
AAXX 22181 56096 32770 70401 10015 21078 39035 40311 52001 87502 333 05201 10069
AAXX 22181 06447 16/// /2603 10098 20081 30130 40256 53008 69912 333 10106 91109 91205
AAXX 22181 06431 36/// /2303 10100 20088 30238 40250 53005 60002 333 10110 91108 91206
AAXX 22184 85223 32584 72606 10280 20101 37468 47117 57029 84301 333 56000 59030 82827 82930 83070 555 10191 29031
AAXX 22184 85283 32584 20106 10243 20108 37177 47105 57013 82200 333 56100 59014 82823
AAXX 22184 85293 32584 20914 10158 20054 36354 57010 82100 333 56600 59010 82820
AAXX 22184 85312 32984 00905 10330 20209 38705 57015 333 59035
AAXX 22184 85345 32984 40510 10370 20232 39538 49991 57018 80006 333 56000 59033 84070
AAXX 22184 85364 32970 30000 10322 20191 38104 48266 57006 80002 333 56000 59026 83070
AAXX 22184 85365 32984 63608 10342 20245 39281 49970 57014 80008 333 56000 59033 86270
AAXX 22184 85394 32984 50000 10367 20268 39572 49984 57038 80001 333 56000 59036 85070
AAXX 22184 61974 11465 31503 10268 20235 40127 60162 71581 83802 333 10324 55065 58005 83817
AAXX 22184 61986 12470 61203 10274 20241 40142 60002 86800 333 10310 58004 83818 84650
AAXX 22184 61988 12470 51212 10254 20218 40170 60002 85802 333 10286 55083 58008 85818 91131
AAXX 22184 61989 NIL
AAXX 22184 61990 12468 71111 10261 20223 40177 69902 87800 333 10287 55107 58015 86816 83650
AAXX 22184 61995 11450 61306 10220 20208 39694 60012 78081 86800 333 10270 55100 58016 84817 84650
BBXX SBHI 22183 99613 10175 43/98 81818 10014 40120 58005 22201 06040
BBXX SFIR 22184 99454 70338 43/97 53211 10100 40290 51001 22223 00130 2//// 40604
AAXX 22184 04211 45/84 /0710 11140 21189 39808 49973 57014 333 11128 21140
AAXX 22184 04220 05/84 00612 11111 21170 39878 49931 57018 69902 333 11110 21155 55300 20004 6///7
AAXX 22184 04221 45/84 /0813 11133 21317 39903 49942 57019 333 11133 21183
AAXX 22184 04231 12984 30710 11183 21285 39854 49931 57020 6///2 80004 333 11178 21264 83070
AAXX 22184 04234 45984 21406 11079 21230 39875 49885 57018 333 11068 21093 82/60 91123
AAXX 22184 04241 47641 80819 11076 21101 39834 49874 57020 75465 333 11071 21096 83/35 88/41
AAXX 22184 04250 07611 71532 11035 21094 39738 49842 57033 69982 78587 333 11034 21079 55300 20007 69987 81/44 83/57 85/60 87/61 91048 91148
AAXX 22184 04254 47101 61532 11033 21119 39749 49862 57023 78587 333 11030 21088 81/03 84/48 86/60 91145 91045
AAXX 22184 04260 47/01 91518 11052 21083 39865 49909 57004 77377 333 11046 21076 89/05 91129
AAXX 22184 04270 45784 70714 11074 21173 39927 49966 57019 333 11074 21170 85/56 87/57
AAXX 22184 04272 07557 8//// 11067 21100 39885 49959 57013 69912 77170 333 11062 21122 69917 81/31 83/42 88/49
AAXX 22184 04312 46/// /2105 11225 21254 39950 49992 57012
AAXX 22184 04320 NIL
AAXX 22184 04339 47/08 ///// 11056 21061 39751 49841 57015 77287 333 11045 21105 55300 20000
AAXX 22184 04360 06/// /3004 11132 21176 39815 49887 52001 6///2 333 11092 21132 55300 20000 6///7
AAXX 22184 04361 46/// /2002 11108 21178 39835 49889 52002 333 11083 21123
AAXX 22184 04390 05583 32208 11037 21101 39859 49953 57006 60152 333 11032 21056 60057 81/31 83/58
AAXX 22181 40706 11658 49901 10006 21050 38671 40256 57011 60001 70521 82370 333 55045 20794 81635 81940
AAXX 22181 40718 11520 70000 10100 20083 30242 40213 53006 60001 71022 87600 333 55000 87720
AAXX 22181 40732 11330 80000 10106 20085 30225 40200 50001 60001 71022 886// 333 55051 88707
AAXX 22181 40745 12960 01702 10003 21114 39063 40248 50002 60001 333 55083 21013
AAXX 22181 40754 11956 40000 10034 21080 38867 40245 51003 60001 70510 81031 333 55073 81360 83070
AAXX 22181 40766 12960 20000 10070 21072 38728 40237 58001 60001 82030 333 55071 20967 82360
AAXX 22181 40800 11958 30000 10030 21034 38483 40239 53002 60001 70500 80002 333 55085 2//// 83070
AAXX 22181 40811 11958 30501 10140 20079 30170 40198 51004 60001 70511 80006 333 55072 21043 83270
AAXX 22181 40841 12965 00000 11004 21112 38298 40280 51016 60001 333 55098 21499
AAXX 22181 40848 12965 00000 10028 21037 38559 40234 51008 60001 333 55091 21438
AAXX 22181 40856 12960 12202 11018 21383 38671 40244 58003 60001 80002 333 55090 2//// 81070
AAXX 22181 40875 12962 03403 10107 21069 30182 40194 51010 60001 333 55097 21604
BBXX DDZD2 22184 99382 70099 41598 63615 10147 20129 40300 58005 70222 865// 22245 00160 20602 334// 40802 80136
BBXX DCAX2 22183 99008 11682 41497 21005 10280 20237 40050 54000 7//00 82222 22233 20605 3//// 4//// 5//// 80250
BBXX DHSI 22184 99359 70108 41598 70317 10180 20131 40290 50000 70322 87800 22214 00170 21004 303// 41204 80150
BBXX SHIP 22184 99414 70382 41398 73206 10117 20044 40315 51011 70022 875// 22263 04150 20502 328// 40906 80081
BBXX DANM 22184 99368 10012 41999 12805 10161 20119 40257 53002 7//00 81010 22265 00150 20502 80136
AAXX 22181 37279 /2894 30901 10067 20053 30018 40162 57012 83040 333 10145
AAXX 22181 37308 327// 40000 10015 21005 39572 40237 53010 82530 333 10068
AAXX 22181 37531 325// 70000 10016 21000 39504 40244 54000 87500 333 10050
AAXX 22181 37553 329// 01801 10026 21020 39557 40216 52009 333 10118
AAXX 22181 37651 16/// ///00 10059 20043 3//// 4//// 5//// 69972 333 10143
AAXX 22181 37492 NIL
BBXX SMGW 22181 99347 11791 43/98 23109 10155 40247 53013 22224 00193 2//// 4////
BBXX SBLI 22181 99300 11560 43/98 81814 10218 40089 56047 22264 00219 2//// 4//// 426621110
BBXX SLKU 22183 99264 11300 41/98 /0118 10179 40146 54000 70200 8//// 22274 00242 203//
BBXX 9V8797 22184 99060 10889 43/98 30718 10275 40078 54001 22224 00280 2//// 4////
BBXX SHJC 22181 99080 11086 43/97 50313 11254 40089 58010 22254 00250 2//// 4////
BBXX SJCD 22181 99526 71431 43/94 81610 10058 49764 55031 22263 00053
BBXX SERW 22183 99225 70197 43/98 00918 10205 2//// 40208 55002 72000 80/// 22252 06210 20403 3//// 4////
BBXX A8GU5 22184 99023 50285 41498 61123 10270 20213 40120 56020 70222 84160 22214 20502 307// 40604 80230
AAXX 22181 50136 32970 02701 11386 21433 39689 40297 52005 333 11219
AAXX 22181 50745 32968 00000 11227 21295 30057 40259 54000 333 11145
AAXX 22181 50774 32960 00000 11289 21315 39927 40264 54000 333 11153
AAXX 22181 50788 32970 02507 11230 21263 30140 40234 57004 333 11146
AAXX 22181 51133 32980 00401 11179 21212 39768 40483 57016 333 05102 11114
AAXX 22181 51431 32965 00701 11186 21212 39592 40468 57011 333 05254 11105
AAXX 22181 51747 32970 70000 11161 21186 39105 40505 52004 80002 333 00300 11070
AAXX 22181 52203 32980 00401 11137 21194 39515 40464 52003 333 00201 11033
AAXX 22181 52418 32980 02502 11101 21162 39061 40475 52005 333 00405 11022
AAXX 22181 52681 32980 02706 11090 21201 38754 40412 52007 333 00005 11033
AAXX 22181 53564 32972 00000 11148 21178 39268 40352 57013 333 05600 11019
AAXX 22181 53614 32962 00701 11112 21134 39013 40383 52009 333 05451 11030
AAXX 22181 53646 32970 02201 11124 21166 38939 40364 57002 333 05402 11033
AAXX 22181 53798 32960 72501 11035 21091 30192 40292 57024 80002 333 10047
AAXX 22181 53845 32965 02002 11085 21149 39183 40364 52003 333 05451 10001
AAXX 22181 53959 32965 02001 11057 21094 39882 40345 52001 333 10050
AAXX 22181 54094 32960 01801 11234 21278 39950 40279 52005 333 11114
AAXX 22181 54102 32980 01803 11167 21193 39035 40313 57011 333 11151
AAXX 22181 54161 32960 02203 11167 21256 39958 40275 57008 333 11129
AAXX 22181 54292 32970 02704 11184 21267 39927 40273 54000 333 11104
AAXX 22181 54374 32962 00202 11243 21279 39819 40328 52001 333 11111
AAXX 22181 54423 32975 03401 11137 21198 39753 40299 57010 333 11025
AAXX 22181 54618 32962 62002 11026 21143 30274 40292 57017 80002 333 10035
AAXX 22181 54843 32966 02001 11047 21101 30284 40313 57012 333 10022
AAXX 22181 54909 32962 01802 11022 21069 30238 40304 57016 333 10054
AAXX 22181 56029 32980 00701 11066 21225 36416 52005 333 05105 10090
AAXX 22181 57127 32960 82001 10047 20014 39690 40313 54000 8807/ 333 10069
AAXX 22181 57131 32965 02003 11008 21048 39839 40353 57002 333 10044
AAXX 22184 84401 31860 52108 10297 20171 30054 40097 70202 8503/ 333 5600/ 58007 85358
AAXX 22184 84686 21658 82705 10119 20062 36871 76022 882// 333 56900 59001 69981 82833 83650 85656
AAXX 22184 84658 21359 73303 10250 20243 39839 40073 70162 8751/ 333 56791 58000 60311 84607 83460
AAXX 22184 84452 31960 01915 10278 20178 30070 40100 70102 333 58030
AAXX 22184 84531 31960 32016 10218 20164 30061 40078 70100 83030 333 56090 58004 83362
AAXX 22184 84425 21458 62705 10269 20225 39930 40138 70266 868// 333 568// 58006 60031 86815
AAXX 22184 84735 21240 8//// 10071 20054 36451 76166 87120 333 56990 58014 60101 87805 88560
AAXX 22184 84455 21460 80000 10266 20218 39810 40162 70224 8453/ 333 5600/ 59010 60031 84617 88458
AAXX 22184 84720 31960 62405 10288 20171 39471 40136 70222 86010 333 56090 58001 86466
AAXX 22184 84688 21459 80105 10121 20064 36661 70262 886// 333 568// 58000 60061 83615 85630
AAXX 22184 84377 31560 83104 10296 20238 39994 40097 70224 85130 333 5600/ 58002 85820 83360
AAXX 22184 84474 31560 70404 10310 20234 39764 7022/ 87700 333 56900 59016 87730
AAXX 22184 84515 21460 80110 10268 20222 39935 40110 70262 8552/ 333 5600/ 59005 60041 85617 88458
AAXX 22184 84628 34560 82704 10210 20169 30085 40101 70222 84530 333 56610 58012 84621 84360
AAXX 22184 84782 31765 42211 10236 20138 39586 40083 70122 84530 333 56990 59016 82656 82358
AAXX 22184 84673 31660 80105 10162 20086 37352 70222 8252/ 333 5699/ 58000 82640 88463
AAXX 22184 84542 31670 31310 10210 20083 37341 7022/ 83500 333 56900 58015 83640
AAXX 22184 84370 31960 33309 10300 20209 30052 40092 70122 83030 333 56900 59005 83362
AAXX 22184 84752 32860 82611 10189 20048 37507 70222 84032 333 56099 59012 84360 84273
AAXX 22184 84501 31960 31810 10212 20162 30080 40107 70210 83030 333 56000 58012 83364
AAXX 22184 84773 31562 81005 10234 20174 30084 40109 70222 885// 333 569// 59017 88630
AAXX 22184 84390 31965 31815 10280 20192 39996 40095 70210 83030 333 56/4/ 58011 83359
AAXX 22184 84534 21560 7//// 10275 20215 39370 40075 7012/ 8222/ 333 5699/ 58000 60021 82820 87458
AAXX 22184 84691 31960 52907 10242 20192 30094 40101 70204 8503/ 333 5600/ 58023 85360
AAXX 22184 84564 31560 70605 10224 20158 38149 7022/ 8452/ 333 5611/ 58009 84632 83464
AAXX 22184 84444 21430 83511 10136 20130 37528 76166 8312/ 333 5699/ 59002 60051 83810 85630 88460
AAXX 22184 84472 31560 82005 10196 20115 37388 70322 885// 333 56900 59007 83733 86640
AAXX 22180 44214 32998 00902 11151 21214 38377 40497 52001
AAXX 22180 44231 329// 03202 11141 21235 38785 40428 58003
AAXX 22180 44259 419// 73001 11200 21223 39308 40286 51005 70472 87070
AAXX 22180 44277 329// 02706 11164 21183 37859 40501 58005
AAXX 22180 44288 32999 02802 11179 21256 38192 40440 58006
AAXX 22180 44292 318// 80000 11256 21281 38732 40432 56003 70421 8801/
AAXX 22180 44304 329// 02703 11244 21276 39003 40346 58001
AAXX 22180 44354 329// 03212 11180 21214 39129 40335 54000
AAXX 22180 44373 32999 20701 11174 21217 38586 40409 53001 82040
AAXX 22180 44203 326// 40000 11277 21301 38448 40497 58005 82810
AAXX 22180 44207 329// 00000 11237 21276 38345 40438 57004
AAXX 22180 44212 32999 61802 11294 21324 39299 40591 56001 86030
AAXX 22180 44213 41699 60000 11283 21312 38917 40590 57005 70272 86500
AAXX 22180 44215 32998 00000 11265 21283 38507 40554 52005
AAXX 22180 44218 329// 00000 11254 21278 38718 40551 54000
AAXX 22180 44225 329// 70000 11260 21277 38341 40538 56002 83046
AAXX 22180 44230 329// 00104 11212 21255 38844 40458 54000
AAXX 22180 44232 329// 03205 11128 21197 39158 40354 54001
AAXX 22180 44237 32999 22702 11112 21196 38530 40345 54000 82040
AAXX 22180 44239 329// 03506 11168 21237 38835 40354 54000 555 99905
AAXX 22180 44241 329// 01802 11249 21274 39307 40393 52003
AAXX 22180 44256 32999 20000 11268 21286 39348 40303 51003 82070
AAXX 22180 44265 329// 00000 11277 21301 38993 40581 51009
AAXX 22180 44272 419// 20000 11237 21268 38299 40508 52001 77672 82040
AAXX 22180 44275 328// 00000 11299 21311 37763 40582 58005
AAXX 22180 44282 32999 03405 11120 21244 38335 40372 58002
AAXX 22180 44284 328// 01101 11255 21307 37891 40579 53002
AAXX 22180 44285 32999 01102 11186 21241 38356 40425 58003
AAXX 22180 44287 328// 70505 11180 21252 38163 40469 54000 87010
AAXX 22180 44294 329// 00000 11232 21256 38582 40434 54000
AAXX 22180 44298 329// 00000 11229 21235 38737 40390 54000
AAXX 22180 44302 329// 02706 11212 21250 39109 40318 58022
AAXX 22180 44305 32999 03204 11220 21255 39044 40302 58007
AAXX 22180 44313 32999 32705 11229 21269 39377 40298 54000 83070
AAXX 22180 44314 32998 03606 11168 21202 39114 40269 57001
AAXX 22180 44317 32998 03209 11180 21221 38920 40279 57003
AAXX 22180 44336 329// 03501 11203 21243 38750 40457 51004
AAXX 22180 44341 329// 03207 11181 21223 38635 40406 54000
AAXX 22180 44347 32999 00000 11167 21209 38763 40389 54000
AAXX 22180 44352 32999 03207 11171 21197 38916 40306 58003
AAXX 22180 44358 329// 02703 11173 21192 39112 40343 53001
AAXX 22181 48917 32598 60504 10267 20236 30080 40086 57010 82208 222// 00278 333 58000 82895 86299
AAXX 22181 48918 32498 70704 10258 20219 30089 40100 58005 82208 222// 00259 2//// 333 59001 81894 87299
AAXX 22181 48914 32698 70000 10256 20237 30089 40091 58011 875// 333 59003 87696
AAXX 22181 48900 32497 63604 10240 20220 30070 40080 57015 868// 333 59019 83894 83696
AAXX 22181 48892 32598 60206 10268 20248 30080 40085 58005 82208 333 59011 83895 86299
AAXX 22184 47407 11/60 82102 11065 21082 39797 49974 58031 69951 72622 882//
AAXX 22184 47409 11/30 81112 10003 21005 39942 49996 56045 60011 78582 882//
AAXX 22184 47418 11/65 81119 10022 20009 39930 49979 58043 60161 78088 887//
AAXX 22184 47421 17/70 /1708 10000 21034 39901 49944 58014 60051 70060
AAXX 22184 47430 11/60 72519 10001 21028 39930 49985 58004 60061 78582 873//
AAXX 22184 47570 17/64 /3112 10001 21033 39843 40108 53005 60031 77176
AAXX 22184 47575 11/20 82315 11011 21028 30033 40038 51007 60031 78582 883//
AAXX 22184 47584 11/40 82513 11015 21043 39872 40066 51007 60011 78588 883//
AAXX 22184 47604 11/60 82915 10028 21066 30119 40128 51013 69901 70282 882//
AAXX 22184 47605 11/65 83315 10040 21033 30119 40161 53014 60081 70298 882//
AAXX 22184 47610 11/60 60706 11001 21017 39609 40124 52005 69901 78581 86200
AAXX 22184 47624 12/70 13108 10034 21050 39946 40087 50000 60001 81100
AAXX 22184 47629 12960 03503 10008 21008 30032 40071 56004 60001
AAXX 22184 47636 11/65 12907 10032 21008 30059 40129 56005 69901 70280 81130
AAXX 22184 47651 13/// /2705 10046 21029 30117 40140 52005 60001
AAXX 22184 47655 15/70 /2818 10047 21048 30024 40082 55005 60001
AAXX 22184 47675 15/70 /0710 10076 20012 39977 40069 50000 60001
AAXX 22184 47741 11/65 83204 10036 21017 30163 40191 53003 60021 78382 883//
AAXX 22184 47746 11/70 83109 10050 21056 30161 40181 51010 69951 72682 882//
AAXX 22184 47750 11/65 72807 10022 20003 30142 40171 53009 60021 78382 872//
AAXX 22184 47765 12/75 70405 10052 21055 30123 40190 51006 69901 87200
AAXX 22184 47772 11/80 23007 10050 21051 30067 40170 53009 69901 70182 82200
AAXX 22184 47800 15/84 /3211 10022 21077 30222 40227 53009 60001
AAXX 22184 47815 12/70 33110 10054 21044 30182 40199 55002 60001 83400
AAXX 22184 47817 12/80 20105 10046 21057 30170 40215 51006 60001 82800
AAXX 22184 47830 12970 02702 10017 21009 30171 40190 50009 60001
AAXX 22184 47887 11/70 80206 10058 21064 30148 40190 53008 69901 70282 882//
AAXX 22184 47891 12/80 73005 10051 21039 30168 40185 53011 60001 872//
AAXX 22184 47895 11/75 73109 10056 21048 30164 40172 52009 69901 72582 87200
AAXX 22184 47927 11/60 80213 10167 20131 30129 40179 55002 69901 76162 888//
AAXX 22184 47401 11/30 81124 10006 21008 39974 49989 56042 60031 78588 883//
AAXX 22184 47412 11/60 81910 10022 21029 39913 49945 56026 60091 72382 882//
AAXX 22184 47420 17/39 /1130 10016 20006 39960 49994 58056 60041 76866
AAXX 22184 47426 17/62 /2627 10028 21021 39946 49993 55000 60061 72360
AAXX 22184 47582 11/30 82724 10004 21042 30052 40079 51009 60011 72682 883//
AAXX 22184 47590 11/68 83107 10025 21034 30019 40073 56004 69901 78582 883//
AAXX 22184 47600 17/65 /3114 10015 21052 30153 40161 52012 69901 77176
AAXX 22184 47648 12970 03421 10069 20006 30029 40063 57005 60001
AAXX 22184 47662 12980 03406 10061 21061 30028 40073 57004 60001
AAXX 22184 47678 15/70 /2812 10091 20020 39897 40085 58005 60001
AAXX 22184 47740 17/83 /3107 10020 21031 30152 40187 50007 69901 70080
AAXX 22184 47778 15/70 /3010 10062 21032 30059 40144 51009 60001
AAXX 22184 47807 12/70 73511 10057 21039 30194 40213 53004 60001 872//
AAXX 22184 47827 12/80 13305 10027 21026 30162 40202 51005 60001 81100
AAXX 22184 47843 15/84 /3513 10055 21052 30191 40225 50010 60001
AAXX 22184 47893 12/60 72703 10045 21037 30162 40168 51004 60001 86801
AAXX 22184 47909 11/65 73411 10141 20052 30168 40178 56006 69901 72582 87200
AAXX 22184 47918 11/60 80110 10161 20121 30166 40184 55001 69901 76162 888//
AAXX 22184 47936 11/65 70113 10164 20086 30117 40177 52001 69901 78082 878//
AAXX 22184 47945 11/60 50109 10185 20118 30118 40142 57005 69901 72582 83830
AAXX 22184 47971 11/65 80210 10200 20142 30068 40078 50005 60211 78082 882//
AAXX 22184 47991 16/// /1708 10249 20224 30093 40103 56014 69901
AAXX 22181 48919 32598 70510 10266 20243 30059 40081 57010 8221/ 22200 02272 333 59011 82895 87499
AAXX 22181 48916 32598 70000 10261 20229 30044 40091 57009 879// 333 58001 86995
AAXX 22181 48887 32998 73601 10250 20208 30089 40095 58004 80008 333 58005 87299
AAXX 22181 48870 11498 83602 10237 20208 30124 40131 58010 60021 70262 888// 333 58002 83894 88696
AAXX 22181 48877 11598 63606 10240 20197 30116 40121 57004 69911 72582 862// 333 58000 86895
AAXX 22181 48852 11497 83202 10183 20180 30148 40158 57008 60101 76166 888// 333 58000 86894 88697 96160
AAXX 22181 48855 11596 83401 10210 20206 30145 40153 58009 60061 76362 8682/ 333 59002 86895 88499 96162
AAXX 22181 48848 32597 83203 10185 20156 30160 40168 58011 888// 333 58000 82895 88697
AAXX 22184 62002 32960 53320 10140 20044 39474 48542 51005 85030 333 10150 85360
AAXX 22184 62007 NIL
AAXX 22184 62008 NIL
AAXX 22184 62010 32660 43312 10152 20105 40171 52014 84500 333 10176 84636
AAXX 22184 62012 31560 62829 10157 20106 30118 40148 52006 60032 86500 333 10157 86625
AAXX 22184 62016 11560 63214 10145 20094 40166 52016 60022 72582 86800 333 0//11 10130 82820 86625
AAXX 22184 62019 NIL
AAXX 22184 62053 11457 72720 10122 20058 40108 52006 60052 70262 81900 333 0//24 10160 81915 83820 86625
AAXX 22184 62055 NIL
AAXX 22184 62056 NIL
AAXX 22184 62059 NIL
AAXX 22184 62062 NIL
AAXX 22184 62103 NIL
AAXX 22184 62120 NIL
AAXX 22184 62124 32960 02517 10144 20012 39673 40190 57005 333 10169
AAXX 22184 62131 NIL
AAXX 22184 62161 32960 02408 10143 20024 40142 53003 333 10190
AAXX 22184 62176 NIL
AAXX 22184 62200 NIL
AAXX 22184 62212 NIL
AAXX 22184 62259 32960 00000 10145 20035 40196 56001 333 10196
AAXX 22184 62271 NIL
AAXX 22181 08501 12/// /3505 10148 20097 30270 40306 52017 60012 333 10158 91009 91110
AAXX 22181 08505 12470 79901 10182 20154 30234 40283 52016 69902 86832 333 10198 82812 85630
AAXX 22181 08509 32360 83004 10188 20171 30221 40286 53010 71622 8787/ 333 10200 81708 85816
AAXX 22181 08512 NIL
AAXX 22181 08515 31465 21503 10176 20162 30177 40303 53006 71022 82800 333 10196 81814 910// 911//
AAXX 22181 08533 32/// /9901 10136 20127 30256 40285 52004 333 10183 91109
AAXX 22181 08541 32/// /3503 10119 20102 30169 40290 52002 333 10156 91105
AAXX 22181 08545 NIL
AAXX 22181 08548 32/// /0602 10104 20064 30091 40300 54000 333 10142
AAXX 22181 08554 32970 02701 10145 20113 30270 40280 57003 333 10191
AAXX 22181 08558 12/// /9901 10112 20090 39988 40285 54000 69912 333 10186
AAXX 22181 08560 31965 00404 10059 20030 39537 40313 57004 70200 333 10111
AAXX 22181 08567 12/// /9901 10052 20046 39652 40336 57004 69912 333 10060
AAXX 22181 08570 31975 00201 10107 20041 39828 40292 57001 70200 333 10160
AAXX 22181 08575 32/// /0000 10041 20038 39503 40340 57003 333 10048
AAXX 22181 08579 32/// /2402 10134 20113 30164 40290 54000 333 10154 91105
AAXX 22181 45032 36/// /3503 10125 20041 30194 40211 54000
AAXX 22181 45035 36/// /0605 10133 20055 30166 40208 57001
AAXX 22181 45039 36/// /0404 10138 20066 30190 40206 54000
AAXX 22181 45044 36/// /0106 10141 20079 30101 40197 57002
AAXX 22181 45032 36/// /3503 10125 20041 30194 40211 54000
AAXX 22181 45035 36/// /0605 10133 20055 30166 40208 57001
AAXX 22181 45039 36/// /0404 10138 20066 30190 40206 54000
AAXX 22181 45044 36/// /0106 10141 20079 30101 40197 57002
AAXX 22181 40701 11540 80000 11048 21060 38622 40286 58004 60001 71022 886// 333 55000 88720
AAXX 22181 40704 12665 43105 10060 21055 38624 40192 58004 60001 82570 333 55055 20758 82640 84358
AAXX 22181 40708 12960 02204 10084 21039 38671 40165 58004 60001 333 55081 20963
AAXX 22181 40710 12662 59901 11030 21046 38339 40306 58007 60001 82570 333 55033 82635 84459
AAXX 22181 40713 11615 70000 10002 21008 38688 40260 50000 60001 71022 81520 333 55013 87460
AAXX 22181 40719 11220 80000 10090 20077 30223 40212 53002 60001 71022 886// 333 55000 88706
AAXX 22181 40731 12960 30000 10018 21039 38767 40239 54000 60001 80003 333 55085 20992 83070
AAXX 22181 40738 11/02 92902 10060 20060 30216 40218 58002 60001 74540 333 89/02
AAXX 22181 40740 12960 00000 11070 21079 38749 40257 56004 60001 333 55084
AAXX 22181 40747 12960 03601 10015 21041 38655 40239 58003 60001 333 55068 20922
AAXX 22181 40757 12965 03602 10002 21081 38943 40261 50004 60001 333 55084 2////
AAXX 22181 40763 12965 00302 11010 21101 38959 40266 58001 60001 333 55079
AAXX 22181 40782 12962 21503 10042 21048 38913 40247 51005 60001 80001 333 55068 82070
AAXX 22181 40783 12968 21103 10052 21085 38016 40217 50003 60001 81031 333 55084 81359
AAXX 22181 40789 12965 00000 10038 21073 39252 40253 58001 60001 333 55088 21227
AAXX 22181 40798 12960 33004 10020 21097 37989 40246 54000 60001 83030 333 55078 21274 83359
AAXX 22181 40818 12970 20000 10016 21104 38010 40237 51009 60001 80002 333 55090 82070
AAXX 22181 40827 12965 00000 11004 21140 38882 40300 50004 60001 333 55093
AAXX 22181 40836 12965 01502 10066 21072 38230 40230 51008 60001 333 55094 21430
AAXX 22181 40851 12960 00302 11012 21161 38301 40264 52008 60001 333 55088
AAXX 22181 40853 12960 00000 10036 21131 37778 40206 51005 60001 333 55097
AAXX 22181 40854 12960 00000 10060 21117 38999 40223 52007 60001 333 55084
AAXX 22181 40857 12960 20202 10166 20134 30187 40197 58003 60001 80002 222// 00/// 20000 333 55080 82070
AAXX 22181 40859 12965 00000 10046 21071 38749 40214 51015 60001 333 55097
AAXX 22181 40878 11958 00402 10053 21301 38885 40261 50007 60001 70500 333 55097
AAXX 22181 40879 12960 00102 10072 21300 39533 40233 50009 60001 333 55100
AAXX 22181 40883 12960 00302 10152 20033 30168 40191 51003 60001 333 55098
AAXX 22181 40898 11958 00000 10158 20036 30180 40190 51010 60001 70500 222// 00239 10600 333 55090 2////
AAXX 22181 40703 12658 30000 11024 21039 38958 40271 58003 60001 83500 333 55000 83640
AAXX 22181 40712 11512 52402 11030 21040 38703 40261 58003 60001 71021 84602 333 55000 29565 82720 83635 83068
AAXX 22181 40729 12660 30000 10024 21050 38366 40234 50001 60001 81131 333 55073 20990 81835 83070
AAXX 22181 40736 11450 70000 10088 20080 30231 40205 51005 60001 71020 87600 333 55043 87715
AAXX 22181 40739 12965 00102 11014 21106 38727 40269 50003 60001 333 55083
AAXX 22181 40743 12965 00302 11002 21117 39114 40271 55002 60001 333 55085
AAXX 22181 40762 12962 00000 11045 21196 38580 40256 50000 60001 333 55073
AAXX 22181 40768 12960 20000 10000 21065 38292 40252 52001 60001 80001 333 55087 21126 82070
AAXX 22181 40769 12960 43402 10042 21050 38333 40246 53006 60001 80001 333 55080 21095 84069
AAXX 22181 40785 12960 00000 10046 21036 39124 40244 50002 60001 333 55069
AAXX 22181 40809 12962 01404 11046 21199 38543 40280 50005 60001 333 55095 21329
AAXX 22181 40821 12960 02202 10040 21116 38831 40256 50007 60001 333 55093 21308
AAXX 22181 40831 12960 31802 10140 20055 30192 40200 51004 60001 80002 333 55080 83070
AAXX 22184 88883 46/// /1716 10114 20057 49987 52015
AAXX 22184 88889 12589 62108 10099 20024 39906 49989 51016 60001 85402 91750 333 82820 84628
AAXX 22181 40716 12960 00000 10044 21006 38945 40246 55002 60001 80002 333 83069
AAXX 22181 40719 11220 80000 10090 20077 30223 40212 53002 60001 71022 886// 333 55000 88706
AAXX 22181 40721 12960 01704 10104 21048 39663 40210 53002 60001 333 55077
AAXX 22181 40858 12960 00202 10170 20127 30185 40196 51002 60001 333 55086
AAXX 22181 40872 12962 03202 10186 20037 30187 40192 51009 60001 222// 00/// 20401 333 55092
AAXX 22181 40877 12960 00000 10060 21050 39629 40187 51005 60001 333 55098
AAXX 22181 40898 11958 00000 10158 20036 30180 40190 51010 60001 70500 222// 00239 10600 333 55090 2////
AAXX 22184 70133 12566 80606 11139 21161 30034 40041 50000 69901 91753 333 11117 21139 555 92218
AAXX 22184 70174 11548 83205 11167 21189 39765 40018 58002 69951 771// 91753 333 11122 21167 4/079 96010 555 92218
AAXX 22184 70200 32966 00308 11194 21228 30052 40058 56004 91753 333 11100 21206 555 92218
AAXX 22184 70219 11104 93103 11128 21144 39969 40025 58008 69901 741// 91753 333 11117 21144 4/003 555 92218
AAXX 22184 70231 12566 83608 11089 21117 39868 49998 56011 69901 91753 333 21089 4/097 555 92218
AAXX 22184 70261 31108 60000 11178 21189 39818 49997 56016 741// 91753 333 11139 21194 555 92218
AAXX 22184 70267 32066 82103 11150 21161 39504 40003 58030 91753 333 11094 21167 555 92218
AAXX 22184 70271 32766 81607 11111 21128 39325 49918 56041 91753 333 11072 21150 4/003 555 92218
AAXX 22184 70273 32966 60109 11056 21100 39845 49906 56045 91753 333 11039 21072 4/041 555 92218
AAXX 22184 70316 32966 01304 11061 21089 39979 40015 56013 91753 333 11033 21128 555 92218
AAXX 22184 70326 31128 63104 11122 21133 39964 49977 58014 710// 91754 333 11072 21122 4/008 555 92218
AAXX 22184 70340 32966 03107 11061 21094 39901 49963 57023 91753 333 11011 21067 555 92218
AAXX 22184 70350 32966 62915 10000 21078 39868 49909 58019 91753 333 10006 21038 91020 555 92218
AAXX 22184 70361 11458 81218 10050 20028 39874 49884 56026 60271 763// 91753 333 10056 20006 91034 96010 555 92218
AAXX 22184 70381 11566 81117 10067 20028 39973 49983 56039 60051 761// 91753 333 10067 20011 91029 555 92218
AAXX 22184 70414 35566 83314 11011 21078 30021 40057 53009 91756 333 11011 21078 555 92218
AAXX 22184 82022 21570 51204 10306 20222 39987 40083 70262 84260 333 59003 60251
AAXX 22184 82193 21570 73410 10308 20253 30051 40069 86930 333 59024 69911
AAXX 22184 82281 NIL
AAXX 22184 82332 32470 50311 10310 20242 39981 40073 85200 333 59005
AAXX 22184 82398 32570 30913 10283 20208 30065 40094 83100 333 58001
AAXX 22184 82400 32470 31008 10274 20227 30045 40109 83100 333 59005
AAXX 22184 82579 32570 51603 10369 20211 39988 40064 82104 333 59001
AAXX 22184 82917 21556 73611 1//// 2//// 39872 4//// 76062 86230 333 59002 69951
AAXX 22184 82965 32570 41002 10327 20216 39745 40068 83201 333 59028
AAXX 22184 82993 32570 51013 10291 20211 39973 40108 82104 333 58001
AAXX 22184 83208 32570 53307 10300 20214 39396 48520 84230 333 59027
AAXX 22184 83349 32570 60706 10285 20224 30120 40126 82131 333 59006
AAXX 22184 83362 32570 43509 10322 20198 39853 40065 84100 333 59021
AAXX 22184 83378 32470 71006 10211 20164 38962 48520 84531 333 59019
AAXX 22184 83460 32570 50811 10258 20215 30070 40126 82230 333 58014
AAXX 22184 83497 NIL
AAXX 22184 83566 21458 70314 10224 20151 39197 48510 79596 86901 333 58008 69901
AAXX 22184 83599 NIL
AAXX 22184 83612 32970 43309 10325 20167 39449 48500 57024 84100
AAXX 22184 83649 32470 70511 10275 20235 30121 40126 57016 83530
AAXX 22184 83650 NIL
AAXX 22184 83780 32970 53204 10323 20114 39219 48530 55002 86500
AAXX 22184 83827 32570 23509 10359 20164 39799 40069 58017 82100
AAXX 22184 83840 32970 72214 10297 20106 39092 48500 56004 87200
AAXX 22184 83899 32570 13309 10327 20238 30053 40059 58020 81200
AAXX 22184 83925 NIL
AAXX 22184 83970 NIL
AAXX 22184 83971 32570 72405 10356 20186 30038 40041 58022 81131
AAXX 22184 NIL
AAXX 22184 NIL
AAXX 22183 87007 32970 60505 10220 21056 36726 47121 57012 80005 333 56007 86270
AAXX 22183 87148 31458 30518 10422 20179 39894 49996 58017 70500 83100 333 56000 83815
AAXX 22184 87022 32960 53608 10386 20204 39477 49956 57013 80006 333 56003 85270
AAXX 22184 87046 32565 30905 10380 20131 39008 48418 57013 81106 333 56009 81830 83270
AAXX 22184 87047 32568 73403 10321 20169 38713 48437 57008 81236 333 56066 57883 81825 87270
AAXX 22184 87097 32570 43609 10370 20154 39770 40072 57019 81101 333 56000 81830 83075
AAXX 22184 87121 31758 41408 10388 20185 39497 49976 58009 70500 81206 333 56606 57864 81856 83270
AAXX 22184 87129 32665 11406 10395 20201 39777 49994 57012 81100 333 81845
AAXX 22184 87155 NIL
AAXX 22184 87162 32570 23613 10415 20198 39955 40022 57022 82200 333 56700 56871 81630 81835
AAXX 22184 87166 32660 30208 10401 20196 39946 40015 57021 83203 333 56704 57874 83835
AAXX 22184 87178 31565 62907 10382 20189 39906 40046 57017 70422 82271 333 56450 57892 82830 83360 86070
AAXX 22184 87217 31965 00000 10390 20146 39522 49979 57027 70600
AAXX 22184 87222 32970 01612 10384 20133 39482 49968 57028
AAXX 22184 87257 31960 01412 10350 20203 39918 40016 57019 70500
AAXX 22184 87270 31558 10715 10336 20212 39962 40021 57016 70500 81270 333 56700 57895 81830
AAXX 22184 87289 11962 60718 10250 20198 39982 40062 56007 60351 70192 85076 333 56016 85360 86270
AAXX 22184 87311 31960 01615 10304 20065 39378 40030 57040 70700
AAXX 22184 87320 32970 00910 10376 20157 39505 40000 57005
AAXX 22184 87328 32780 10903 10355 20057 39389 40009 57019 81100 333 56000 81850 95000
AAXX 22184 NIL
AAXX 22184 82143 NIL
AAXX 22184 82599 32570 51012 10293 20224 30040 40100 85200 333 59005
AAXX 22184 82824 32470 50000 10217 20250 39976 40078 83210 333 59006
AAXX 22184 82899 32570 30608 10294 20208 30100 40112 83200 333 59004
AAXX 22184 83117 NIL
AAXX 22184 83248 32570 51112 10293 20224 30100 40122 82201 333 59004
AAXX 22184 83746 31560 11212 10328 20173 40083 56017 70500 81200
AAXX 22184 NIL
AAXX 22184 83437 NIL
AAXX 22184 83550 21597 8//// 10262 20244 30093 40122 70262 8397/ 333 58019 60041
AAXX 22184 83552 NIL
AAXX 22184 83565 NIL
AAXX 22184 83579 NIL
AAXX 22184 83592 NIL
AAXX 22184 83623 NIL
AAXX 22184 83630 NIL
AAXX 22184 83676 NIL
AAXX 22184 83698 32999 03608 10310 20218 30088 40102 56006
AAXX 22184 83702 NIL
AAXX 22184 83704 NIL
AAXX 22184 83716 NIL
AAXX 22184 83726 NIL
AAXX 22184 83738 32698 10903 10336 20120 39590 40077 57010 81300
AAXX 22184 78526 12666 40817 10267 20189 30156 40179 56021 69901 91756 333 10283 20244 91024 555 92218
AAXX 22184 78543 32666 80411 10289 20189 30092 40173 58019 91753 333 10289 20256 91020 555 92218
AAXX 22184 NIL
AAXX 22184 NIL
AAXX 22181 30372 42999 30000 11384 21414 39375 40387 58002 80001
AAXX 22181 30433 42999 22901 11258 21290 39683 40341 52003 80001
AAXX 22181 30554 429// 20000 11349 21377 39134 40381 53004 80001
AAXX 22181 30635 429// 01202 11245 21257 39695 40325 52004
AAXX 22181 30673 42999 01701 11395 21405 39457 40355 52002
AAXX 22181 30692 NIL
AAXX 22181 30758 41960 60000 11318 21348 39417 40345 52004 70422 82031
AAXX 22181 30802 42999 62502 11109 21172 38729 48508 58003 82031
AAXX 22181 30823 41596 82202 11133 21153 39629 40298 52002 77177 8802/
AAXX 22181 30879 42999 00000 11344 21368 39453 40321 52003
AAXX 22181 30935 41997 82602 11109 21145 39309 40282 58001 71572 8807/
AAXX 22181 30949 42699 60000 11132 21193 39113 40255 52002 83530
AAXX 22181 30965 329// 01302 11379 21403 39405 40366 52006
AAXX 22181 31168 42999 80202 11177 21189 30248 40260 52005 8802/
AAXX 22181 31300 41981 70000 11238 21250 39922 40239 53004 77172 80006
AAXX 22181 31329 42999 80000 11284 21302 39507 40250 54000 80007
AAXX 22181 31369 42998 82802 11268 21286 30151 40245 53004 80002
AAXX 22181 31416 41998 43502 11214 21220 30131 40227 53001 70271 82021
AAXX 22181 31484 41998 80000 11248 21260 39872 40243 54000 70272 8802/
AAXX 22181 31512 429// 03101 11273 21305 30068 40254 52002
AAXX 22181 31538 41997 82102 11227 21246 39758 40230 54000 77177 80007
AAXX 22181 31707 42998 03201 11259 21284 30139 40240 54000
AAXX 22181 31735 41995 80000 11177 21198 30106 40201 50004 77172 8802/
AAXX 22181 31770 41538 83602 11112 21132 30113 40144 57018 78582 889//
AAXX 22184 NIL
AAXX 22184 NIL
AAXX 22180 44210 32999 30000 11231 21242 38636 51005 83070
AAXX 22180 44216 32999 23203 11300 21323 39152 40587 58005 81044
AAXX 22180 44217 32998 00000 11235 21253 37924 40549 54000
AAXX 22180 44219 419// 80000 11205 21224 38732 40507 52002 77177 8802/
AAXX 22180 44221 419// 00000 11280 21298 38693 40559 58006 70270
AAXX 22180 44224 419// 70000 11265 21297 38126 40558 51002 72272 87070
AAXX 22180 44229 32999 43202 11165 21224 37959 40405 58003 84040
AAXX 22180 44242 329// 02001 11238 21264 39367 40380 52004
AAXX 22180 44243 329// 20501 11268 21296 39464 40397 51005 82060
AAXX 22180 44254 329// 23602 11135 21212 39014 40242 51004 82040
AAXX 22180 44257 319// 03208 11117 21191 38951 40268 58008 73630 333 91112
AAXX 22180 44263 32998 20000 11218 21266 38158 40581 52005 82020
AAXX 22180 44266 329// 00000 11186 21212 37826 40477 53001
AAXX 22180 44286 329// 02708 11179 21227 38679 40390 52001
AAXX 22180 44291 319// 01802 11326 21361 38771 40506 54000 70400
AAXX 22180 44325 329// 20000 11176 21202 38943 40443 52004 82042
AAXX 22180 44329 328// 13204 11184 21198 37806 40456 54000 81040
AAXX 22180 44338 32699 21803 11143 21186 38526 40389 52001 82500
AAXX 22180 44348 329// 33205 11174 21186 38709 40342 56015 83040
AAXX 22180 44374 32999 22702 11127 21188 38306 40414 58001 82040
AAXX 22180 44385 32999 02304 11118 21190 38970 40358 58006
AAXX 22180 44386 329// 00000 11185 21211 39087 40349 53002
AAXX 22184 83384 NIL
AAXX 22184 83386 NIL
AAXX 22184 83388 NIL
AAXX 22184 83393 NIL
AAXX 22184 83442 NIL
AAXX 22184 83479 NIL
AAXX 22184 83483 NIL
AAXX 22184 83531 NIL
AAXX 22184 83538 NIL
AAXX 22184 83574 NIL
AAXX 22184 83582 NIL
AAXX 22184 83595 NIL
AAXX 22184 83687 NIL
AAXX 22184 83692 NIL
AAXX 22184 83695 32698 60000 10330 20202 39970 40104 57012 82250
AAXX 22184 83718 NIL
AAXX 22181 20107 11597 81102 10003 21046 39857 49951 57022 69932 70282 885// 333 10012 91004
AAXX 22181 22113 11483 71805 11014 21034 30030 40094 57007 69902 78582 87900 333 11012 91009
AAXX 22181 22217 32684 72201 11052 21059 30095 40128 54000 87500 333 11015 87644 91001 93730
AAXX 22181 22235 12482 62603 11052 21062 39932 40132 52003 69952 86500 333 11019 86618 91004
AAXX 22181 22349 11598 82901 10001 21014 30127 40139 54000 69902 72682 889// 333 10015 91002
AAXX 22181 22408 12484 71901 11051 21058 39993 40147 58003 69922 87500 333 11020 87612
AAXX 22181 22602 12472 82101 11032 21036 39923 40153 52004 69922 885// 333 11023 88611
AAXX 22181 22619 32482 82901 11022 21034 39997 40161 52006 885// 333 11015 88613
AAXX 22181 22721 11597 83001 11016 21018 30053 40156 52003 69902 78587 889// 333 11009 85921
AAXX 22181 22802 31559 70000 11020 21023 30147 40171 53009 71022 87500 333 11005 93703
AAXX 22181 22820 11379 83201 11020 21020 30015 40156 53003 60012 77172 887// 333 11015 88707 93701
AAXX 22181 26059 31294 82401 11018 21023 30158 40184 52007 71022 886// 333 11009 88705
AAXX 22181 26063 12597 50000 11013 21028 30164 40172 52004 69902 85500 333 11003
AAXX 22181 26094 32470 83101 11036 21041 30074 40153 53002 886// 333 11034 88712
AAXX 22181 26157 32497 83002 11001 21015 30136 40187 52007 885// 333 11001 86710
AAXX 22181 26167 11465 82802 11018 21029 30066 40181 52008 69902 70272 886// 333 11004 88712
AAXX 22181 26258 32598 83203 11007 21022 30122 40178 54000 886// 333 11004
AAXX 22181 26298 11497 83403 11046 21070 39905 40142 52009 69902 70272 886// 333 11041
AAXX 22181 26359 32472 83403 11021 21033 30054 40192 52012 8872/ 333 11006
AAXX 22181 26702 31996 00000 11066 21074 30198 40225 52008 71011 333 11027 91000 91100 93515
AAXX 22181 26781 11497 83404 11029 21049 39841 40141 52013 69942 70272 8802/ 333 11029 88512
AAXX 22181 27208 11496 83603 11044 21053 39936 40117 52005 60082 77172 8872/ 333 11035
AAXX 22181 27402 11293 83502 11044 21050 39931 40117 52013 60102 77372 8872/ 333 11031 88703
AAXX 22181 22271 12498 62102 11017 21038 30112 40122 53002 69930 86300 333 10005
AAXX 22181 22520 32497 72401 11020 21032 30136 40146 52001 87500 333 11008 87613
AAXX 22181 22550 32373 81401 11051 21068 30148 40158 53002 886// 333 11036 88707
AAXX 22181 22583 12684 71401 11113 21126 30080 40164 57004 69900 875// 333 11075 87636
AAXX 22181 22768 11497 80000 11059 21066 30087 40145 57006 69900 72272 885// 333 11052 88610
AAXX 22181 22845 NIL
AAXX 22181 22887 11427 71001 11068 21080 30070 40142 57012 69930 78682 8595/ 333 11063 84711 91103
AAXX 22181 23205 NIL
AAXX 22181 23219 32398 82704 11082 21101 30080 40190 57003 8802/ 333 11070
AAXX 22181 23418 11965 01102 11100 21112 30111 40188 57002 69920 70171 333 11076
AAXX 22181 23606 11560 81603 11077 21087 30002 40181 58005 60020 70272 885// 333 11076 88620
AAXX 22181 23711 NIL
AAXX 22181 23804 11497 81602 11074 21083 30009 40163 57017 60030 77172 887// 333 11067 85710
AAXX 22181 27037 11393 80202 11064 21072 39956 40122 57002 60050 77572 8872/ 333 11053 87708
AAXX 22181 27199 11497 81502 11086 21105 39964 40169 57008 60040 77172 885// 333 11070
AAXX 22181 27271 11496 81203 11077 21095 39977 40139 57016 60040 72172 8872/ 333 11067
AAXX 22181 27459 /1396 81103 11071 21080 39908 40109 57008 60040 77172 8872/ 333 11059 88707 93400
AAXX 22181 27730 11396 80000 11012 21018 39877 40073 53001 60020 77172 8872/ 333 10007 88507
AAXX 22184 91245 32566 40720 10260 20230 30120 91755 555 92218
AAXX 22181 22028 32582 72506 11016 21042 30062 40101 58005 82504 333 11012 91008 91111
AAXX 22181 22106 11998 22103 11032 21046 30018 40098 58005 69932 70281 82030 333 11020 91006
AAXX 22181 22127 31/93 90000 11078 21088 39912 40121 54000 74542 333 11056 93506
AAXX 22181 22324 11582 82502 11009 21016 30088 40138 53003 69902 78582 889// 333 11005 91004
AAXX 22181 22621 32682 83201 11024 21033 30020 40163 53008 885// 333 11020 88639
AAXX 22181 22831 11997 80000 11051 21058 30091 40153 52003 69932 70272 8802/ 333 11044
AAXX 22181 22892 32497 82402 11003 21009 30152 40168 52001 886// 333 10001 88711
AAXX 22181 26275 12498 83303 11009 21028 30138 40169 52009 69902 885// 333 11007 88613
AAXX 22181 26389 11496 83404 11037 21055 39872 40142 52010 69902 78583 889// 333 11032
AAXX 22181 26499 11395 83405 11042 21058 39887 40123 52017 60082 77373 8872/ 333 11030 87706 93401
AAXX 22181 26695 11396 83405 11036 21051 39802 40117 52014 60092 77173 8672/ 333 11018 86707
AAXX 22181 26882 11350 83205 11034 21048 39849 40132 52010 60062 77173 8872/ 333 11027 88710 91112
AAXX 22181 26997 11323 82903 11022 21025 39912 40136 52010 60012 77122 8872/ 333 11020 87709
AAXX 22181 27595 11397 81604 11096 21113 30032 40184 57007 69950 77172 8872/ 333 11075 88507 91111
AAXX 22181 27612 114// 83201 11028 21038 39889 40086 52010 60052 77172 8872/ 333 11023
AAXX 22181 27707 11550 73203 11034 21042 39799 40098 52021 60052 71082 87500 333 11009 87625
AAXX 22181 27719 11495 80000 10007 20004 39821 40072 52012 69902 75152 886// 333 10023
AAXX 22181 27786 11497 81605 11091 21116 30021 40189 56001 60020 70272 885// 333 11083 88612
AAXX 22181 27857 11395 81805 11002 21003 39924 40088 57006 60030 77172 8802/ 333 11003 88509
AAXX 22181 27906 11496 62606 11027 21043 39861 40108 52021 60032 78572 86900 333 10014
AAXX 22181 27928 11396 82504 11019 21027 39891 40102 53030 60030 75675 886// 333 10023 93608
AAXX 22181 27947 11497 82107 11007 21022 39938 40099 53011 60020 78587 883// 333 10009 86919 93708
AAXX 22181 27962 11296 81608 11036 21051 40142 58004 69950 76673 8802/ 333 11050 88505 92982 93401
AAXX 22181 27983 11460 81606 11093 21105 30072 40207 56006 60030 77173 886// 333 11096 88710
AAXX 22181 27995 11470 81503 11092 21103 40231 57002 60020 77177 8802/ 333 11088
AAXX 22181 28506 31997 81704 11077 21115 30103 40220 57013 77173 8802/ 333 11051 91111
AAXX 22181 28704 31497 81808 11096 21115 30122 40222 57004 77173 8802/ 333 11080 88513 91010 91112
AAXX 22181 28711 31697 81706 11101 21127 39857 40252 56008 77173 885// 333 11065 88633 91012 91116
AAXX 22181 28807 11397 81604 11096 21126 30191 40245 58002 69900 70272 886// 333 11074 88709
AAXX 22181 34009 11597 82804 11027 21050 39825 40136 52017 60032 70282 884// 333 10013 93601
AAXX 22181 34110 12597 82706 11017 21051 39856 40139 52008 60012 8535/ 333 10012
AAXX 22181 34123 11497 82606 11005 21020 39936 40123 52019 60020 70282 885// 333 10033 88615
AAXX 22181 34152 12484 82005 10004 21010 39952 40151 52006 60010 886// 333 10012 88711
AAXX 22181 34163 11497 81904 11002 21017 40168 53002 69900 71022 885// 333 11028 88620
AAXX 22181 34171 11240 81804 11018 21026 39980 40177 58004 69980 76676 886// 333 11036 88706 93402
AAXX 22181 34186 11356 81708 11079 21089 30080 40225 57001 69940 77173 887// 333 11088 88708 91112
AAXX 22181 34247 12362 82504 10001 21033 30049 40165 52012 69950 885// 333 10041 85708
AAXX 22181 34336 12598 82304 11002 21033 30071 40177 52017 69900 8532/ 333 10051
AAXX 22181 34391 32997 81805 11060 21075 30205 40237 53002 8802/ 333 11061
AAXX 22181 35011 32984 81304 11094 21157 40285 57006 8807/ 333 11071
AAXX 22181 35121 32998 51404 11097 21150 30160 40315 57017 82031 333 11083
BBXX WE3806 22184 99476 70874 41/98 93617 11055 2//// 40203 53/// 70222 8//// 22233 00050 2//04 3//// 4//// 5//// 6//// 8//// ICE /////
BBXX WDF7020 22184 99453 70833 41/97 83323 1//// 2//// 40179 54/// 70202 88/4/ 22273 0//// 20302 3//// 4//// 5//// 6//// 8//// ICE /////
BBXX WE3592 22184 99473 70867 43/// 80117 11055 2//// 40210 5//// 70007 8//// 222// 0//// 2//// 3//// 4//// 5//// 6//// 8//// ICE /////
BBXX WRAH 22183 99313 70390 41598 70819 10200 2//// 40217 56004 72582 878// 22264 00220 20202 33009 40705 50604 6//// 8//// ICE /////
BBXX WCAJ 22184 99465 71260 41998 31420 10083 20036 40240 57010 70211 80008 22243 00100 20602 303// 41205 5//// 6//// 80061 ICE /////
BBXX V7MO2 22184 99262 70914 41397 82110 10239 20140 40157 57004 7//// 8894/ 22200 00239 20301 314// 40502 5//// 6//// 80177 ICE /////
BBXX WSM5364 22183 99598 71452 41/97 80230 10022 2//// 49750 57/// 702// 8//// 222// 00072 2//06 318// 4//06 5//// 6//// 8//// ICE /////
BBXX WBS5272 22184 99453 70834 41/98 83620 10027 2//// 40220 54000 70222 8//// 22272 0//// 20302 3//// 4//// 5//// 6//// 8//// ICE /////
BBXX WYX2079 22183 99606 71465 41/94 80130 10000 2//// 49830 57/// 773// 8//// 222// 0//// 2//02 3//// 4//// 5//// 6//// 8//// ICE /////
AAXX 22184 91165 12566 60519 10228 20178 30145 40179 53011 69901 91753 555 92218
AAXX 22184 91182 12566 40609 10233 20183 30164 40167 53014 69901 91753 333 10256 20222 555 92218
AAXX 22184 91190 32666 40410 10228 20172 30154 40172 53012 91754 333 10228 20211 555 92218
AAXX 22184 91212 12566 80709 10261 20239 31320 40058 56012 69901 91754 333 10300 20250 555 92218
AAXX 22184 91285 12566 80805 10217 20194 30161 40173 52017 60111 91753 555 92218
AAXX 22181 28676 329// 81704 11140 21205 30273 40410 57008 80007 333 11122
AAXX 22181 28766 329// 82205 11144 21187 30213 40418 57009 8805/ 333 11121
AAXX 22181 28867 32998 02301 11180 21230 30137 40434 57010 333 11151
AAXX 22181 28879 329// 61702 11117 21203 30127 40435 57009 80005 333 11086
AAXX 22181 28952 329// 21601 11176 21202 30216 40425 57012 80001 333 11132
AAXX 22181 28966 329// 01402 11176 21233 30157 40468 53004 333 11127
AAXX 22181 29802 319// 52308 11104 21177 30249 40401 58014 73633 80001 333 11098
AAXX 22181 29807 329// 02303 11152 21180 30309 40438 57003 333 11130
AAXX 22181 34691 32998 81403 11028 21079 30256 40243 58003 8802/ 333 11020
AAXX 22181 35067 329// 20000 11230 21264 30151 40460 57011 80001 333 11122
AAXX 22181 35078 329// 00903 11247 21276 30055 40482 57011 333 11185
AAXX 22181 35085 329// 00000 11196 21238 39957 40482 57009 333 11096
AAXX 22181 35108 319// 81705 11092 21143 30216 40264 57005 70233 8807/ 333 11090
AAXX 22181 35188 319// 01503 11181 21234 30011 40488 57009 70400 333 11135
AAXX 22181 35217 325// 81507 11108 21144 30244 40285 57004 885// 333 11098
AAXX 22181 35229 329// 81402 11121 21163 30062 40353 57013 8803/ 333 11076
AAXX 22181 35302 325// 82108 11090 21135 30246 40266 54000 885// 333 11089
AAXX 22181 35357 329// 01801 11244 21276 39997 40486 57008 333 11150
AAXX 22181 35394 32998 01201 11177 21199 39758 40499 57012 333 11055
AAXX 22181 35406 329// 61604 11109 21153 30269 40271 57008 86050 333 11095
AAXX 22181 35416 329// 71307 11121 21185 30183 40311 56008 86055 333 11094
AAXX 22181 35426 329// 41404 11140 21175 30045 40357 57010 80001 333 11114
AAXX 22181 35497 329// 00000 11108 21163 39628 40477 57013 333 11047
AAXX 22181 35532 31998 01109 11172 21206 39822 40352 57037 70233 333 11161
AAXX 22181 35671 32998 00000 11227 21267 30003 40484 57011 333 11130
AAXX 22181 35700 32998 71305 11085 21123 30288 40263 53002 88075 333 11062
AAXX 22181 35746 329// 30706 11168 21194 30312 40385 57014 80002 333 11111
AAXX 22181 35796 32997 00505 11179 21220 30005 40482 57015 333 11140
AAXX 22181 35849 32998 01104 11152 21186 30278 40371 57019 333 11116
AAXX 22181 35925 329// 21409 11109 21137 40302 57008 80002 333 11107
AAXX 22181 35953 329// 00906 11153 21187 30241 40381 57018 333 11130
AAXX 22181 35969 329// 00706 11174 21215 30229 40419 57017 333 11137
AAXX 22181 36003 32998 02101 11194 21232 30294 40460 57007 333 11108
AAXX 22181 36152 329// 01402 11245 21294 30276 40488 57005 333 11121
AAXX 22181 36177 329// 31102 11220 21241 30237 40512 57001 80001 333 11161
AAXX 22181 36208 329// 52702 11174 21203 39444 40509 57005 85030 333 11137
AAXX 22181 36397 329// 00000 11230 21262 39896 40524 57005 333 11124
AAXX 22181 36428 329// 10000 11275 21300 39984 40553 56003 80001 333 11184 95090
AAXX 22181 36535 329// 00000 11317 21347 39843 40576 57002 333 11208
AAXX 22181 36639 329// 00000 11270 21294 39823 40509 58014 333 11152
AAXX 22181 36821 329// 00000 11235 21260 39931 40480 57012 333 11131
AAXX 22181 36859 329// 00000 11186 21212 39622 40481 57008 333 11104
AAXX 22181 36864 325// 60000 11154 21181 39481 40450 58013 86700 333 11124
AAXX 22181 36870 319// 00000 11141 21158 39341 40432 57013 70400 333 11101
AAXX 22181 38001 32997 80501 10018 21117 30270 40240 54000 885// 333 10020
AAXX 22181 38062 329// 01005 11167 21209 30205 40385 57011 333 11115
AAXX 22181 38069 329// 01001 11135 21170 30162 40368 57007 333 11030
AAXX 22181 38196 32998 00502 11031 21154 39333 40344 58012 333 11020
AAXX 22181 38198 329// 00000 11135 21162 30086 40366 57016 333 11055
AAXX 22181 38222 32997 00000 11218 21243 39824 40447 57011 333 11150
AAXX 22181 38232 32998 01205 11018 21119 30146 40247 58004 333 10032
AAXX 22181 38328 329// 01201 11090 21134 39576 40348 57022 333 11012
AAXX 22181 38334 32998 00803 11086 21157 39336 40340 57016 333 11041
AAXX 22181 38341 32997 02401 11202 21221 39562 40434 57020 333 11123
AAXX 22181 38343 32997 00000 11181 21200 39497 40423 57020 333 11134
AAXX 22181 38439 31996 03602 11075 21101 39985 40342 57014 71000 333 11025
AAXX 22181 38598 429// 00910 11023 21052 40361 57011
AAXX 22181 38599 NIL
AAXX 22181 38725 NIL
AAXX 22181 38734 NIL
AAXX 22181 38744 429// 00073 11104 21177 38080 48600 51004
AAXX 22181 38836 319// 00000 11109 21129 39348 40362 57011 74640 333 11110
AAXX 22181 38838 429// 00503 11079 21125 39620 40337 57017
AAXX 22181 38844 429// 01801 11062 21168 48510 58003
AAXX 22181 38846 429// 00504 11150 21195 38562 48520 57008
AAXX 22181 38847 NIL
AAXX 22181 38932 NIL
AAXX 22181 38933 NIL
AAXX 22181 38944 329// 00000 11050 21067 39697 40263 52003 333 11010
AAXX 22181 38954 NIL
AAXX 22181 22820 11379 83201 11020 21020 30015 40156 53003 60012 77172 887// 333 11018 88707 93701
AAXX 22181 28676 329// 81704 11140 21205 30273 40410 57008 80007 333 11122
AAXX 22181 28766 329// 82205 11144 21187 30213 40418 57009 8805/ 333 11121
AAXX 22181 28867 32998 02301 11180 21230 30137 40434 57010 333 11151
AAXX 22181 28879 329// 61702 11117 21203 30127 40435 57009 80005 333 11086
AAXX 22181 28952 329// 21601 11176 21202 30216 40425 57012 80001 333 11132
AAXX 22181 28966 329// 01402 11176 21233 30157 40468 53004 333 11127
AAXX 22181 29802 319// 52308 11104 21177 30249 40401 58014 73633 80001 333 11098
AAXX 22181 29807 329// 02303 11152 21180 30309 40438 57003 333 11130
AAXX 22181 34691 32998 81403 11028 21079 30256 40243 58003 8802/ 333 11020
AAXX 22181 35067 329// 20000 11230 21264 30151 40460 57011 80001 333 11122
AAXX 22181 35078 329// 00903 11247 21276 30055 40482 57011 333 11185
AAXX 22181 35085 329// 00000 11196 21238 39957 40482 57009 333 11096
AAXX 22181 35108 319// 81705 11092 21143 30216 40264 57005 70233 8807/ 333 11090
AAXX 22181 35188 319// 01503 11181 21234 30011 40488 57009 70400 333 11135
AAXX 22181 35217 325// 81507 11108 21144 30244 40285 57004 885// 333 11098
AAXX 22181 35229 329// 81402 11121 21163 30062 40353 57013 8803/ 333 11076
AAXX 22181 35302 325// 82108 11090 21135 30246 40266 54000 885// 333 11089
AAXX 22181 35357 329// 01801 11244 21276 39997 40486 57008 333 11150
AAXX 22181 35394 32998 01201 11177 21199 39758 40499 57012 333 11055
AAXX 22181 35406 329// 61604 11109 21153 30269 40271 57008 86050 333 11095
AAXX 22181 35416 329// 71307 11121 21185 30183 40311 56008 86055 333 11094
AAXX 22181 35426 329// 41404 11140 21175 30045 40357 57010 80001 333 11114
AAXX 22181 35497 329// 00000 11108 21163 39628 40477 57013 333 11047
AAXX 22181 35532 31998 01109 11172 21206 39822 40352 57037 70233 333 11161
AAXX 22181 35671 32998 00000 11227 21267 30003 40484 57011 333 11130
AAXX 22181 35700 32998 71305 11085 21123 30288 40263 53002 88075 333 11062
AAXX 22181 35746 329// 30706 11168 21194 30312 40385 57014 80002 333 11111
AAXX 22181 35796 32997 00505 11179 21220 30005 40482 57015 333 11140
AAXX 22181 35849 32998 01104 11152 21186 30278 40371 57019 333 11116
AAXX 22181 35925 329// 21409 11109 21137 40302 57008 80002 333 11107
AAXX 22181 35953 329// 00906 11153 21187 30241 40381 57018 333 11130
AAXX 22181 35969 329// 00706 11174 21215 30229 40419 57017 333 11137
AAXX 22181 36003 32998 02101 11194 21232 30294 40460 57007 333 11108
AAXX 22181 36152 329// 01402 11245 21294 30276 40488 57005 333 11121
AAXX 22181 36177 329// 31102 11220 21241 30237 40512 57001 80001 333 11161
AAXX 22181 36208 329// 52702 11174 21203 39444 40509 57005 85030 333 11137
AAXX 22181 36397 329// 00000 11230 21262 39896 40524 57005 333 11124
AAXX 22181 36428 329// 10000 11275 21300 39984 40553 56003 80001 333 11184 95090
AAXX 22181 36535 329// 00000 11317 21347 39843 40576 57002 333 11208
AAXX 22181 36639 329// 00000 11270 21294 39823 40509 58014 333 11152
AAXX 22181 36821 329// 00000 11235 21260 39931 40480 57012 333 11131
AAXX 22181 36859 329// 00000 11186 21212 39622 40481 57008 333 11104
AAXX 22181 36864 325// 60000 11154 21181 39481 40450 58013 86700 333 11124
AAXX 22181 36870 319// 00000 11141 21158 39341 40432 57013 70400 333 11101
AAXX 22181 38001 32997 80501 10018 21117 30270 40240 54000 885// 333 10020
AAXX 22181 38062 329// 01005 11167 21209 30205 40385 57011 333 11115
AAXX 22181 38069 329// 01001 11135 21170 30162 40368 57007 333 11030
AAXX 22181 38196 32998 00502 11031 21154 39333 40344 58012 333 11020
AAXX 22181 38198 329// 00000 11135 21162 30086 40366 57016 333 11055
AAXX 22181 38222 32997 00000 11218 21243 39824 40447 57011 333 11150
AAXX 22181 38232 32998 01205 11018 21119 30146 40247 58004 333 10032
AAXX 22181 38328 329// 01201 11090 21134 39576 40348 57022 333 11012
AAXX 22181 38334 32998 00803 11086 21157 39336 40340 57016 333 11041
AAXX 22181 38341 32997 02401 11202 21221 39562 40434 57020 333 11123
AAXX 22181 38343 32997 00000 11181 21200 39497 40423 57020 333 11134
AAXX 22181 38439 31996 03602 11075 21101 39985 40342 57014 71000 333 11025
BBXX SMGW 22181 99347 11791 43/98 23109 10155 40247 53013 22224 00193 2//// 4////
BBXX 9V8797 22184 99060 10889 43/98 30718 10275 40078 54001 22224 00280 2//// 4////
BBXX SHJC 22181 99080 11086 43/97 50313 11254 40089 58010 22254 00250 2//// 4////
BBXX SLKU 22183 99264 11300 41/98 /0118 10179 40146 54000 70200 8//// 22274 00242 203//
BBXX SBLI 22181 99300 11560 43/98 81814 10218 40089 56047 22264 00219 2//// 4//// NNNN 426621110
BBXX WECH 22184 99169 11348 41598 30805 10265 2024/ 40085 57015 70222 83100 22275 00280 20301 307// 40905 5//// 6//// 80245 ICE /////
BBXX PHPP 22184 99061 10926 41197 50715 10250 20236 40075 58010 75855 85500 22274 00300 20804 80240
BBXX 2ALD3 22183 99164 11257 41397 60515 10250 20236 40081 54000 70222 85793 22234 04300 20504 80240
BBXX UBNY 22181 99738 10729 41/95 92316 11046 40069 57020 71072 22263 ICE 52092
BBXX DGDD 22181 99347 11428 41998 03209 10135 20058 40040 57020 70200 80000 22224 00200 2//// 3//// 4//// 5//// 80095
BBXX A8UU2 22184 99250 11224 41596 80230 10170 20115 40169 50020 75865 8/879 22282 04230 20512 303// 40508 80140
BBXX DIHC 22183 99350 11452 41498 43320 10135 20105 40024 57056 72582 84400 22264 00190 2//// 80118
BBXX MIBR 22183 99172 11145 41397 80425 10235 20180 40145 54000 70322 886// 22254 00248 20301 3//// 4//// 5//// 80200
BBXX DFNB2 22183 99119 10728 41997 09902 10275 20226 40130 51010 70500 80000 22234 00270 20401 80240
BBXX A8GU5 22184 99023 50285 41498 61123 10270 20213 40120 56020 70222 84160 22214 20502 307// 40604 80230
BBXX SERW 22183 99225 70197 43/98 00918 10205 2//// 40208 55002 72000 80/// 22252 06210 20403 3//// 4////
BBXX 3FMV6 22183 99198 30114 41998 51621 10190 20138 40128 53010 70111 82085 22244 06180 21203 80160
BBXX PHQW 22183 99253 70163 41998 00520 10198 20124 40231 52001 7//00 80000 22283 00205 20201 336// 40402 80153 90663
BBXX UBAU 22181 99123 70175 41798 30000 10275 40165 52001 70100 83033 22241 04249 20100
BBXX DEIR 22183 99254 30688 41/98 60817 10230 20167 40241 53016 70311 8//// 22223 20903 80189
BBXX A8KH9 22184 99338 30179 41698 40216 10180 20164 40140 56140 70322 83453 22244 02160 20102 30102 40204 50306 80170
BBXX PCSV 22183 99214 30543 41/98 10502 10251 20203 40172 53001 70022 8/100 22253 04260 21002 305// 41002 80218 90663
BBXX SJCD 22181 99526 71431 43/94 81610 10058 49764 55031 22263 00053
BBXX SHIP 22184 99414 70382 41398 73206 10117 20044 40315 51011 70022 875// 22263 04150 20502 328// 40906 80081
BBXX SHIP 22184 99300 71764 41597 60515 10200 2017/ 40220 5//// 7//21 8487/ 22263 00220 2//// 3//// 4//// 5//// 6//// 80180 ICE /////
BBXX WDF4764 22184 99389 71244 41797 32509 10122 2010/ 40260 52030 70500 80005 22273 0//// 20202 33132 41007 50605 6//// 80111 ICE /////
BBXX 9HXD9 22184 99228 70840 41898 21107 10260 2//// 40140 51030 70111 811/3 22214 04290 20803 310// 4//// 5//// 6//// 8//// ICE /////
BBXX 9HA2064 22183 99502 71517 41697 83124 10050 20028 40030 52020 7//22 8874/ 22273 0//// 2//// 3//// 4//// 5//// 6//// 80040 ICE /////
BBXX VQKR7 22184 99445 71256 41398 41608 10085 20011 40268 52020 70300 84544 22243 04120 20403 31600 40403 80055
BBXX 44139 22181 99442 70571 46/// /2411 10096 40025 57024 22200 00062 11008 70038 333 91213
BBXX 46214 22181 99379 71235 46/// ///// 1//// 91753 22200 00116 11305 21003 330// 41303 70023
BBXX 46224 22181 99332 71175 46/// ///// 1//// 91736 22200 00144 11301 21001 324// 41301 70007
BBXX 46219 22181 99332 71199 46/// ///// 1//// 91758 22200 00136 11305 21002 330// 41304 70023
BBXX 46238 22181 99334 71195 46/// ///// 1//// 91750 22200 00142 11403 21002 328// 41402 70014
BBXX 46239 22181 99363 71221 46/// ///// 1//// 91751 22200 00131 11305 21003 330// 41304 70027
BBXX 42363 22181 99282 70892 46/// /1917 10244 20206 40159 58007 91800 333 91217
BBXX 42364 22181 99291 70881 46/// /1808 10233 20217 40163 58003 91800
BBXX 44060 22181 99413 70721 46/// ///04 10099 40170 55013 91800 22200 00109 333 91205 555 11046 22046
BBXX 44022 22181 99409 70737 46/// ///05 10124 20044 40179 55014 91800 22200 00084 333 91207 555 11057 22072
BBXX V7MO2 22184 99262 70914 41397 82110 10239 20140 40157 57004 7//// 8894/ 22200 00239 20301 314// 40502 5//// 6//// 80177 ICE /////
BBXX C6KJ5 22184 99226 70878 41497 30313 11806 31219 10259 2023/ 40175 52005 70100 82190 22273 00257 80241
BBXX 9V7955 22183 99301 71301 41497 80305 10172 2017/ 40240 54010 7//22 88143 22274 00170 20400 33200 40501 50501 6//// 80170 ICE /////
BBXX V7DI7 22183 99404 70613 41697 32937 10160 2014/ 40100 52010 70111 832// 22200 0//// 20507 325// 40306 5//// 6//// 80150 ICE /////
BBXX WKPF 22183 99396 70363 41/98 73609 10140 2006/ 40320 50000 702// 8714/ 22225 00179 20706 32710 40706 50807 6//// 80100 ICE /////
BBXX 41110 22181 99341 70777 46/// ///// 1//// 91751 22200 00141 10702 20702 70011
BBXX 41112 22181 99307 70813 46/// ///// 1//// 91751 22200 00163 11301 20601 310// 41301 70007
BBXX 41113 22181 99284 70805 46/// ///// 1//// 91751 22200 00222 10502 20502 310// 41101 70009
BBXX 44100 22181 99363 70756 46/// ///// 1//// 91752 22200 00125 10802 20802 309// 41201 70009
BBXX 42362 22181 99278 70907 46/// /2014 10239 20222 40163 91745
BBXX 42099 22181 99273 70842 46/// ///// 1//// 91757 22200 00231 10603 20603 70014
BBXX 44099 22181 99369 70757 46/// ///// 1//// 91752 22200 00115 10802 20802 70009
BBXX SHIP 22183 99322 71192 41498 73006 10140 2011/ 40280 5//// 7//22 8617/ 22223 00140 20202 329// 40503 5//// 6//// 80120 ICE /////
BBXX WRAH 22183 99313 70390 41598 70819 10200 2//// 40217 56004 72582 878// 22264 00220 20202 33009 40705 50604 6//// 8//// ICE /////
BBXX DGAF 22184 99382 70743 41798 70118 10135 20079 40200 54000 70222 8707/ 22244 00130 20201 316// 40702 80105
BBXX C6SI3 22183 99492 71672 41796 81637 10040 2002/ 49840 57030 78166 88977 22213 0//// 20407 318// 4//// 5//// 6//// 80030 ICE /////
BBXX WCAJ 22184 99465 71260 41998 31420 10083 20036 40240 57010 70211 80008 22243 00100 20602 303// 41205 5//// 6//// 80061 ICE /////
BBXX 41041 22181 99142 70460 46/// /0707 10265 20210 40132 56020 91750 22200 00266 11405 20502 3//// 41405 70026 333 91208 555 11070 22075 31709 40609 61749 071066 065066 068069 069069 068071 070064 80708 91749
BBXX 41046 22181 99238 70683 46/// /0909 10246 20186 40218 58019 91750 22200 00254 10806 20704 300// 40804 70029 333 91210 555 11093 22098 31733 41011 61749 093088 096093 096093 096091 093092 088094 81010 91731
BBXX 44011 22181 99411 70666 46/// /2709 10111 20089 40145 51006 91750 22200 00096 11107 20605 3//// 41105 70036 333 91210 555 11096 22105 31733 40811 61749 265089 262090 261092 263091 261091 262092
BBXX NWS0003 22184 99539 71665 43/// /0000 10008 21021 49985 5//// 7//// 8//// 222// 0//// 2//// 3//// 4//// 5//// 6//// 8//// ICE /////
BBXX NWS0029 22184 99400 70692 43/// /2813 10129 20083 40171 5//// 7//// 8//// 222// 04123 2//// 3//// 4//// 5//// 6//// 8//// ICE /////
BBXX WXJ63 22183 99611 71464 41/96 81113 11002 21042 49853 57/// 771// 8//// 222// 00035 2//// 3//// 4//// 5//// 6//// 8//// ICE /////
BBXX KEY796 22183 99571 71703 41/97 13604 11111 21128 40018 58/// 702// 8//// 222// 00011 2//// 3//// 4//// 5//// 6//// 8//// ICE /////
BBXX J8PB 22184 99181 70689 41598 60819 10260 20232 40155 55040 7//11 86462 22222 0//// 20604 30807 40604 50604 6////
BBXX 46218 22181 99345 71208 46/// ///// 1//// 91802 22200 00140 11305 21003 330// 41304 70025
BBXX 46213 22181 99403 71247 46/// ///// 1//// 91754 22200 00099 11304 20803 329// 41303 70020
BBXX 46229 22181 99438 71246 46/// ///// 1//// 91751 22200 00098 11304 21003 328// 41303 70019
BBXX 46225 22181 99329 71174 46/// ///// 1//// 91744 22200 00144 11402 20601 326// 41401 70009
BBXX 46236 22181 99368 71219 46/// ///// 1//// 91750 22200 00124 11304 21003 329// 41303 70020
BBXX 46247 22181 99378 71228 46/// ///// 1//// 91751 22200 00118 11304 21003 329// 41303 70021
BBXX 46232 22181 99325 71174 46/// ///// 1//// 91738 22200 00151 11303 21002 327// 41302 70013
BBXX 46243 22181 99462 71241 46/// ///// 1//// 91759 22200 00082 11303 20902 325// 41302 70013
BBXX 46215 22181 99352 71209 46/// ///// 1//// 91738 22200 00138 11303 21002 327// 41302 70015
BBXX 44172 22181 99445 70634 46/// ///// 1//// 91801 22200 00065 10804 20804 315// 41101 70022
BBXX 44097 22181 99410 70711 46/// ///// 1//// 91802 22200 00116 10805 20804 321// 41101 70023
BBXX C6KD6 22184 99229 70710 41598 30925 10260 20199 40195 57015 70311 82171 22214 02262 20806 309// 41106 80220
BBXX DFFA2 22183 99300 70777 41598 11718 10250 20183 40220 57010 70000 81400 22214 00230 20402 310// 41003 5//// 80205
BBXX 46053 22181 99342 71198 46/// /1004 10135 40242 52025 91750 22200 00141 11302 20401 325// 41302 70012 333 91205 555 11037 22038 31727 41005 61749 103035 094038 100043 104041 107034 114038
BBXX 46089 22181 99459 71258 46/// /1507 10084 20034 40270 57003 91750 22200 00091 11203 20602 326// 41203 70016 333 91208 555 11069 22072 31652 41408 61749 145065 140064 142064 142063 144062 141063
BBXX 46042 22181 99368 71224 46/// /1207 10111 40253 51026 91750 22200 00123 11205 20602 331// 41204 70023 333 91209 555 11071 22074 31721 41110 61749 123067 115061 113067 111071 110075 112068
BBXX 44008 22181 99405 70692 46/// /3007 10118 20086 40161 50000 91750 22200 00114 11007 20703 322// 41006 70034 333 91209 555 11077 22083 31651 43013 61749 303071 300080 303081 301084 300090 294093
BBXX 46083 22181 99582 71380 46/// /1517 10070 20068 49891 56024 91750 22200 00067 333 91222 555 11186 22199 31708 41523 61749 153173 154173 153178 155182 155173 152174 81619 91711
BBXX 46001 22181 99563 71480 46/// /3319 10019 49811 53025 91750 22200 00049 10910 20910 70051 333 91224 555 11204 22218 31722 43424 61749 332190 331183 335181 334183 333186 336180
BBXX PCBT 22183 99222 70532 41598 70526 10248 20166 40189 57020 70222 86568 22213 20604 302// 41006 80194
BBXX PCEX 22183 99159 70784 41698 60926 10280 20239 40140 52020 70322 85462 22273 02290 20706 308// 40807 80250
BBXX DEDI 22183 99267 70797 41598 20916 10250 20191 40210 58010 70100 8114/ 22284 00277 20502 30000 80210
BBXX A8NQ5 22183 99422 70655 41397 33314 10100 20073 40100 50050 71300 8372/ 22254 04080 21004 80086
BBXX PJFF 22184 99280 70441 41699 30320 10260 20175 40210 56030 70200 83100 22254 04230 20402 317// 41004 80203
BBXX A8OF6 22183 99255 70566 41698 60522 10240 20180 40240 58012 70322 862// 22264 04240 20403 399// 40806 80200
BBXX C6KD4 22183 99320 70398 41598 60521 10205 20164 40237 57021 70322 85418 22254 04210 20806 399// 41205 80180
BBXX C6VR5 22183 99240 70467 41298 50525 10226 20185 40194 57012 70251 84268 22224 02246 20504 30106 41207 50704 80200
BBXX PECF 22183 99195 70820 41598 40907 10295 20215 40155 58015 70211 82180 22274 02277 20601 399// 40702 80238
BBXX A8ID9 22184 99139 71487 41698 70530 10250 20214 40130 51025 75052 83278 22214 04250 20306 306// 40406 5//// 80225
BBXX DDIG2 22184 99052 70801 41698 62110 10270 20241 40100 58010 7//22 864// 22244 04280 20301 319// 40703 80250
BBXX SLKR 22183 99154 51444 43/98 70817 10313 40135 51020 22253 00282 2//// 4////
BBXX DCAX2 22183 99008 11682 41497 21005 10280 20237 40050 54000 7//00 82222 22233 20605 3//// 4//// 5//// 80250
BBXX VRRD 22183 99275 31536 41498 71427 10240 20210 40105 55/// 70380 879// 22244 2//// 80220
BBXX VRAE2 22184 99314 31757 41598 11327 10195 20126 40179 53006 70011 81100 22244 04220 20403 314// 40605 80156
BBXX V2BE4 22181 99024 11443 41397 80712 10260 20238 40031 57007 76366 887// 22243 04290 20506 309// 40606 80245
BBXX mpjh9 22184 99083 31539 41/98 /3214 10290 20255 40062 57030 70200 8//// 22244 2//// 80265
BBXX VNSZ 22184 99409 31462 46/// /1302 10165 20147 30126 40152 52009 22236 04176 85154
BBXX 9HA2479 22184 99181 31681 46/// /1233 10267 20231 30038 40067 57011 22283 04277 85241
BBXX C6FS9 22184 99298 31536 46/// /1112 10224 20184 30101 40137 57004 22244 04253 85197
BBXX PCAM 22183 99412 31732 41598 21903 10155 20126 40265 55001 70200 81541 22200 20100 30000 80138
BBXX VRAE3 22184 99033 11297 41496 80213 10282 20239 40052 53008 76025 88/// 22233 00310 20403 304// 40403 5//// 80252
BBXX VMAL 22183 99359 31225 41/98 61407 10180 20172 40152 55015 71300 86/// 22223 2//// 80175
BBXX ELUC5 22183 99208 51271 41098 41020 10262 20262 40165 54000 70222 83260 22224 06220 20804 30000 80262
BBXX C6YA7 22184 99032 11048 41/97 80216 10240 2023/ 40060 56010 70221 88/// 22243 0//// 2//// 3//// 4//// 5//// 6//// 80235 ICE /////
BBXX PCDE 22183 99338 31517 41297 80302 10200 20156 40150 57020 75851 877// 22213 2//// 30000 80172
BBXX PCBU 22183 99093 31455 41497 83308 10270 20236 40040 57030 70222 8/89/ 22223 02295 20702 80245
BBXX KAOU 22184 99004 10813 43/// /3121 10275 20240 40088 5//// 7//// 8//// 222// 04288 2//// 3//// 4//// 5//// 6//// 8//// ICE /////
BBXX SFIR 22184 99454 70338 43/97 53211 10100 40290 51001 22223 00130 2//// 40604
BBXX SBHI 22183 99613 10175 43/98 81818 10014 40120 58005 22201 06040
BBXX WRYD 22184 99337 10258 41797 82634 10150 2010/ 40075 52015 7//66 84942 22235 00190 20806 32626 40806 50605 6/00/ 80120 ICE /////
BBXX 62023 22183 99514 70079 46/96 /2130 10106 2//// 40237 5//// 22200 10605 70025 333 91138 555 70042 80003
BBXX 62087 22181 99547 10068 46/// /9900 10088 20087 4//// 5//// 22230 00083
BBXX LDGJ 22181 99603 10053 43/// /1406 10073 20056 40085 5//// 222/0 04094 1//// 3//// 4//// 5////
BBXX LMEL 22181 99603 10053 43/// /1306 10067 20068 40082 5//// 222/0 04095 1//// 3//// 4//// 5////
BBXX LF4H 22184 99596 10022 46/97 12318 10097 20084 40067 57015 8//// 22200 06086 10704 70019 333 91122
BBXX LAHV 22181 99589 10057 43/// /1606 10074 20062 40113 222// 04087 1////
BBXX PDNN 22183 99471 70153 41298 52028 10135 20127 40229 52005 70011 84130 22223 02134 20406 320// 40806 80130 90663
BBXX UANA 22181 99696 10523 41/98 12104 10018 40102 50000 70110 80000 22252 00021 20201
BBXX PHIN 22184 99491 70167 41296 82820 10150 20135 40171 56005 72586 887// 22252 00130 20504 399// 41108 80141
BBXX UGGA 22181 99691 10406 41/98 92809 10040 40093 54000 70222 89/// 22251 20403
BBXX UFJN 22181 99722 10477 41/96 71703 11030 40080 57010 72222 87/// 22200 0//// 20301
BBXX TBWUK35 22183 99689 10125 412// 81631 10046 20039 49908 56010 70286 887// 22214 00090 20407 80043
BBXX UBEF5 22181 99376 10088 41498 43606 10130 40211 52002 70200 841// 22263 00170 20403
BBXX DILE 22183 99500 70018 41/98 /2520 10125 20088 40280 54000 7//22 8//// 22224 2//// 80105
BBXX UITJ 22181 99663 10075 41498 82121 10085 49933 57003 70222 885// 22253 00080 20911
BBXX NWS0020 22184 99322 70333 43/// /1115 10206 20179 40236 5//// 7//// 8//// 222// 04213 2//// 3//// 4//// 5//// 6//// 8//// ICE /////
BBXX UCKZ 22181 99626 30611 41498 82708 11009 21016 49851 53008 70284 8567/ 22223 01003 20402 331// 41004 ICE 0/8/0
AAXX 22181 33791 32697 83602 10001 21029 30057 40212 52008 885// 333 10004 88643
AAXX 22184 60351 12458 62816 10160 20123 40249 53010 60002 86800 333 10179 84816 84633 95990
AAXX 22184 60355 NIL
AAXX 22184 60445 12460 52812 10085 20042 39087 48562 52013 60012 85200 333 10107 81710 85826 95990
AAXX 22184 60468 12460 42808 10090 20052 39287 48552 53016 69962 84800 333 10120 81813 84823 95990
AAXX 22184 60507 12975 00000 10112 20071 40278 53001 60002 333 95990
AAXX 22184 60511 12965 03206 10090 20070 39132 48559 53001 60002 333 10151 95990
AAXX 22184 60535 12970 00416 10080 20054 38895 48555 56005 60002 333 10113 95900
AAXX 22184 60536 12960 00000 10106 20064 39388 48559 54000 60002 333 10186 95990
AAXX 22184 60549 11960 00000 10108 20033 38995 48584 54000 60002 70200 333 10142 95990
AAXX 22184 60550 12960 00000 10085 20031 38744 48577 52003 60002 333 10120 95990
AAXX 22184 60555 12960 20000 10157 20055 40221 53007 60002 82030 333 10216 82360
AAXX 22184 60559 12560 40000 10170 20072 40209 50001 60002 82000 333 10217 84833
AAXX 22184 60581 12960 03606 10175 20065 40226 53001 60002 333 10204
AAXX 22184 60602 12960 00206 10170 20021 40259 55000 60002 333 10206 95990
AAXX 22184 60607 12960 03610 10171 21070 40243 54000 60002 333 10199
AAXX 22184 60640 12960 03108 10134 21047 40242 53004 60002 333 10209
AAXX 22184 60690 NIL
AAXX 22184 60360 11558 83009 10141 20131 40223 51009 60012 72162 889// 333 10170 83820 81926 86633 95990
AAXX 22184 60390 12565 21705 10133 20115 40278 51005 60002 81130 333 10200 81826 95990
AAXX 22184 60402 11460 60000 10142 20135 40267 53004 60072 70162 86900 333 10173 83816 81923 83640 95900
AAXX 22184 60419 11557 73220 10104 20067 40239 53010 60122 70362 878// 333 10112 83820 87623 95990
AAXX 22184 60475 11560 83017 10093 20081 39270 48532 53013 60022 70362 888// 333 10100 83826 87833 95990
AAXX 22184 60490 12970 03602 10132 20095 40263 53001 60002 333 10200 95990
AAXX 22184 60525 12660 23314 10180 20044 40207 52012 60002 82200 333 10216 82840 95990
AAXX 22184 60531 12970 00000 10146 20057 40269 53001 60002 333 10218 95990
AAXX 22184 60566 12960 03608 10168 20050 40248 53002 60002 333 10198
AAXX 22184 60571 12965 00000 10160 20051 39326 48573 52003 60002 333 0//00 10210 95990
AAXX 22184 60580 12960 23408 10180 20093 40225 58002 60002 82030 333 10232 82360
AAXX 22184 60590 12960 03106 10155 20044 40260 53008 60002 333 10193
AAXX 22184 60611 12960 02705 10122 21010 40220 53001 60002 333 10165
AAXX 22184 60620 12960 03608 10168 21018 40246 53001 60002 333 10207
AAXX 22184 60630 12975 00608 10182 21043 40236 53001 60002 333 10217
AAXX 22184 60656 12965 00000 10203 20004 40244 56001 60002 333 10230
AAXX 22184 60670 NIL
AAXX 22184 60680 12980 03108 10144 21082 38671 48546 53005 60002 333 10190 95990
BBXX A8IN9 22183 99376 70301 41298 73516 10175 20140 40281 53009 70122 8/77/ 22214 06190 20401 335// 41005 5//// 80155
AAXX 22184 60360 11558 83009 10141 20131 40223 51009 60012 72162 889// 333 10170 83820 81926 86633 95990
AAXX 22184 60390 12565 21705 10133 20115 40278 51005 60002 81130 333 10200 81826 95990
AAXX 22184 60402 11460 60000 10142 20135 40267 53004 60072 70162 86900 333 10173 83816 81923 83640 95900
AAXX 22184 60419 11557 73220 10104 20067 40239 53010 60122 70362 878// 333 10112 83820 87623 95990
AAXX 22184 60475 11560 83017 10093 20081 39270 48532 53013 60022 70362 888// 333 10100 83826 87833 95990
AAXX 22184 60490 12970 03602 10132 20095 40263 53001 60002 333 10200 95990
AAXX 22184 60525 12660 23314 10180 20044 40207 52012 60002 82200 333 10216 82840 95990
AAXX 22184 60531 12970 00000 10146 20057 40269 53001 60002 333 10218 95990
AAXX 22184 60566 12960 03608 10168 20050 40248 53002 60002 333 10198
AAXX 22184 60571 12965 00000 10160 20051 39326 48573 52003 60002 333 0//00 10210 95990
AAXX 22184 60580 12960 23408 10180 20093 40225 58002 60002 82030 333 10232 82360
AAXX 22184 60590 12960 03106 10155 20044 40260 53008 60002 333 10193
AAXX 22184 60611 12960 02705 10122 21010 40220 53001 60002 333 10165
AAXX 22184 60620 12960 03608 10168 21018 40246 53001 60002 333 10207
AAXX 22184 60630 12975 00608 10182 21043 40236 53001 60002 333 10217
AAXX 22184 60656 12965 00000 10203 20004 40244 56001 60002 333 10230
AAXX 22184 60670 NIL
AAXX 22184 60680 12980 03108 10144 21082 38671 48546 53005 60002 333 10190 95990
BBXX A8CG7 22180 99088 31300 41397 62710 10275 20248 40000 56020 70311 84770 22224 04295 20503 300// 40000 5//// 80255
AAXX 22184 60351 12458 62816 10160 20123 40249 53010 60002 86800 333 10179 84816 84633 95990
AAXX 22184 60355 NIL
AAXX 22184 60445 12460 52812 10085 20042 39087 48562 52013 60012 85200 333 10107 81710 85826 95990
AAXX 22184 60468 12460 42808 10090 20052 39287 48552 53016 69962 84800 333 10120 81813 84823 95990
AAXX 22184 60507 12975 00000 10112 20071 40278 53001 60002 333 95990
AAXX 22184 60511 12965 03206 10090 20070 39132 48559 53001 60002 333 10151 95990
AAXX 22184 60535 12970 00416 10080 20054 38895 48555 56005 60002 333 10113 95900
AAXX 22184 60536 12960 00000 10106 20064 39388 48559 54000 60002 333 10186 95990
AAXX 22184 60549 11960 00000 10108 20033 38995 48584 54000 60002 70200 333 10142 95990
AAXX 22184 60550 12960 00000 10085 20031 38744 48577 52003 60002 333 10120 95990
AAXX 22184 60555 12960 20000 10157 20055 40221 53007 60002 82030 333 10216 82360
AAXX 22184 60559 12560 40000 10170 20072 40209 50001 60002 82000 333 10217 84833
AAXX 22184 60581 12960 03606 10175 20065 40226 53001 60002 333 10204
AAXX 22184 60602 12960 00206 10170 20021 40259 55000 60002 333 10206 95990
AAXX 22184 60607 12960 03610 10171 21070 40243 54000 60002 333 10199
AAXX 22184 60640 12960 03108 10134 21047 40242 53004 60002 333 10209
AAXX 22184 60690 NIL
AAXX 22183 64800 NIL
AAXX 22183 64820 NIL
AAXX 22183 64860 32960 70000 10285 20087 39831 40102 80002 333 10345 58009 87080
AAXX 22183 64861 NIL
AAXX 22183 64870 32960 70000 10202 20063 38915 48505 80002 333 0//00 10302 58007 87080
AAXX 22183 64871 NIL
AAXX 22183 64892 NIL
AAXX 22183 64893 NIL
AAXX 22183 64894 NIL
AAXX 22184 64910 31457 62204 10280 20249 30098 40107 70522 83502 333 10332 58003 83616 86080
AAXX 22184 64911 NIL
AAXX 22184 64950 NIL
BBXX MGSH7 22183 99562 10187 41/97 /2215 10035 21006 40197 52010 70222 8/6// 22213 20201 322// 40302 5//// 80020
AAXX 22184 40100 12558 31703 10144 20115 30117 40149 51005 60001 83200 918// 333 10211 83826 92426
AAXX 22184 40101 12558 10000 10092 20070 39085 48487 51010 60001 81400 918// 333 10158 81630
AAXX 22184 40103 32558 61802 10138 20111 40150 53001 86800 333 10202 82824 84640 555 10187
AAXX 22184 40102 NIL
BBXX 46207 22181 99509 71299 46/// /1719 10086 40149 57032 22200 00082 10811 70055 333 91223
AAXX 22183 64800 NIL
AAXX 22183 64820 NIL
AAXX 22183 64860 32960 70000 10285 20087 39831 40102 80002 333 10345 58009 87080
AAXX 22183 64861 NIL
AAXX 22183 64870 32960 70000 10202 20063 38915 48505 80002 333 0//00 10302 58007 87080
AAXX 22183 64871 NIL
AAXX 22183 64892 NIL
AAXX 22183 64893 NIL
AAXX 22183 64894 NIL
AAXX 22183 64910 31457 62204 10280 20249 30098 40107 70522 83502 333 10332 58003 83616 86080
AAXX 22183 64911 NIL
AAXX 22183 64950 NIL
BBXX 3ERR2 22184 99635 10053 41497 82130 10090 20085 49975 57026 70262 8672/ 22200 06103 10605 70027 333 91136
BBXX LF3F 22184 99643 10078 43/// /2225 10082 20066 49979 57016 91810 22200 04084 10707 70034 333 91131
BBXX LF3N 22184 99653 10073 41496 82322 10084 20063 49947 57014 71052 886// 22200 00088 10706 70028
BBXX LF4B 22184 99606 10037 47/95 /2121 10089 40060 57018 781// 22200 00069 10704 70022 333 91125
BBXX LF4C 22184 99584 10019 41697 82420 10105 20090 40092 57015 72582 89/// 22200 00079 10703 70015 333 91124
BBXX LF5T 22184 99660 10081 415// /2520 10084 20050 49939 57012 702// 22200 333 91128
AAXX 22184 91945 06/// /0716 10276 20230 30139 40144 51016 60021 333 60027
BBXX 46207 22181 99509 71299 46/// /1719 10086 40149 57032 22200 00082 10811 70055 333 91223
AAXX 22184 16627 11456 80226 10058 20039 30075 40079 51001 60072 76166 8777/ 333 10080 82710 85620 88358 90730 91140 555 10000 40058 30000 10068 20066 30080 40090 50104 6//// 40000 47588 44230 50000 50050 60000 60073 60930 70000 77R// 7R///
AAXX 22183 87480 32565 71806 10289 20197 30021 40050 57017 87100 333 56500 87830
AAXX 22184 87344 32960 11108 10317 20117 39521 40042 57017 81060 333 56050 81360
AAXX 22184 87349 NIL
AAXX 22184 87371 32562 71406 10272 20209 30036 40057 57012 82570 333 56360 82630 87360
AAXX 22184 87374 32465 71404 10284 20211 39962 40047 57012 84570 333 56890 84615 86360
AAXX 22184 87395 31365 80506 10219 20205 30004 40047 55001 60121 71792 8397/ 333 56549 57900 83707 81950 88360
AAXX 22184 87418 32965 00505 10264 20037 39280 40045 57027
AAXX 22184 87436 32670 10914 10304 20093 39256 40031 57023 81500 333 56800 81640
AAXX 22184 87448 31958 01412 10289 20081 39522 40066 57020 70700
AAXX 22184 87453 32565 10512 10290 20129 39585 40056 57017 81500 333 56000 81620
AAXX 22184 87467 32570 61810 10276 20215 39929 40059 58011 86800 333 56400 81626 85827
AAXX 22184 87497 32565 52704 10280 20195 30036 40062 57012 84505 333 56105 84625 83270
AAXX 22184 87506 32570 10506 10236 20003 38521 48446 57024 81100 333 56300 81830 95000
AAXX 22184 87509 NIL
AAXX 22184 87532 31956 01824 10267 20012 39917 40083 57008 70700 333 96104
AAXX 22184 87534 31958 01416 10313 20032 39912 40067 57009 70710
AAXX 22184 87548 32562 11612 10308 20104 39957 40049 58011 81500 333 56300 81625
AAXX 22184 87576 32660 62708 10298 20199 30026 40049 58007 86200 333 56600 57895 83645 83850
AAXX 22184 87582 32660 62709 10293 20191 30044 40051 58007 86200 333 56600 57892 86840
AAXX 22184 87585 32460 62705 10313 20220 30025 40053 58001 86200 333 56600 57891 86815
AAXX 22181 22165 NIL
AAXX 22181 22676 11864 83202 11083 21093 30077 40159 56002 69960 77072 8802/ 333 11066
AAXX 22181 22837 31560 71001 11062 21081 30078 40150 52004 77172 875// 333 11048 87627
AAXX 22181 22954 11296 80401 11063 21071 39881 40139 53002 69940 77172 8872/ 333 11055 86706
AAXX 22181 23405 32673 81401 11090 21106 30066 40170 57005 885// 333 11083 88644
AAXX 22181 23412 32999 81302 11094 21106 30082 40184 57007 8805/ 333 11080
AAXX 22181 23803 11396 81501 11070 21079 30006 40192 57007 60010 77372 8872/ 333 11070 87708
AAXX 22181 27066 11296 81602 11074 21083 39952 40136 57009 60020 77177 8872/ 333 11068 88707
AAXX 22181 27083 11457 81702 11082 21092 39927 40160 53001 60040 77172 8802/ 333 11075
AAXX 22181 27113 11217 80301 11051 21061 39973 40123 57003 60040 77572 8872/ 333 11044 86706
AAXX 22181 27242 12497 81202 11060 21068 39974 40106 57006 60040 70282 889// 333 11050 87712
AAXX 22181 27329 11572 80501 11046 21055 39967 40095 53003 60070 70272 885// 333 11036
AAXX 22181 27355 11497 81102 11065 21077 39948 40118 57001 69980 72272 885// 333 11054
AAXX 22181 27373 11496 81404 11091 21111 39917 40144 57009 60020 77172 8872/ 333 11066 88711
AAXX 22181 27665 11496 81405 11056 21074 39841 40119 57007 60020 77173 8872/ 333 11070 86711
AAXX 22181 27835 11396 82001 10001 21002 39914 40073 53008 69980 77172 8872/ 333 10009 87707
AAXX 22181 28009 11998 81803 11088 21126 39983 40203 57006 69990 70232 85030 333 11065
AAXX 22181 28411 31997 81406 11079 21135 30025 40229 57014 73632 85031 333 11070
AAXX 22181 28418 32998 81803 11073 21143 30067 40241 57015 80003 333 11065
BBXX 46001 22181 99563 71480 46/// /3319 10019 49811 53025 91750 22200 00049 10910 20910 70051 333 91224 555 11204 22218 31722 43424 61749 332190 331183 335181 334183 333186 336180
BBXX 46042 22181 99368 71224 46/// /1207 10111 40253 51026 91750 22200 00123 11205 20602 331// 41204 70023 333 91209 555 11071 22074 31721 41110 61749 123067 115061 113067 111071 110075 112068
BBXX KGTZ 22184 99492 71269 41698 41434 10067 20010 40236 52003 70111 821/6 22234 00089 20607 3//// 4//// 5//// 6//// 80044 ICE /////
BBXX KRGB 22184 99360 71283 41/98 70111 10128 20110 40259 52012 7//22 87/// 22254 00117 20902 333 // 41205 5//// 6//// 80117 ICE /////
BBXX SJCD 22181 99526 71431 43/94 81610 10058 49764 55031 22263 00053
BBXX VQAJ8 22183 99340 71230 41998 00515 10125 20085 40244 52011 70200 80000 22252 00158 20402 335// 40603 5//// 80105
BBXX VQKR7 22184 99445 71256 41398 41608 10085 20011 40268 52020 70300 84544 22243 04120 20403 31600 40403 80055
BBXX WAHG 22183 99538 71356 41595 81444 10070 20050 49910 54000 75555 88/2/ 22233 0//// 20505 316// 41009 5//// 6//// 80060 ICE /////
BBXX WCAJ 22184 99465 71260 41998 31420 10083 20036 40240 57010 70211 80008 22243 00100 20602 303// 41205 5//// 6//// 80061 ICE /////
BBXX WDJK 22184 99463 71306 41597 71925 10102 20089 40214 57009 70211 87140 22274 00100 20603 32421 41006 51005 6//// 80095 ICE /////
BBXX WSLH 22184 99430 71333 41497 82128 10130 20070 40230 54000 71522 8864/ 22215 00100 20902 327// 41406 5//// 6//// 80100 ICE /////
BBXX WSM5364 22183 99598 71452 41/97 80230 10022 2//// 49750 57/// 702// 8//// 222// 00072 2//06 318// 4//06 5//// 6//// 8//// ICE /////
BBXX WSRL 22184 99340 71460 41498 81613 10185 20160 40253 53013 70222 824/7 22214 00194 2//// 32813 40905 50604 6//// 80170 ICE /////
AAXX 22184 67002 31580 53603 10260 20234 30114 40148 70192 82903 333 10322 55070 58009 82923 84630 92408
AAXX 22184 67009 NIL
AAXX 22184 67025 NIL
AAXX 22184 67027 32580 32810 10282 20252 30102 40123 52016 83800 333 10322 81823 83640
AAXX 22184 67083 31470 10000 10210 20146 38758 48533 53020 71311 81900 333 10288 81817 81917 94963 95813
AAXX 22184 67095 31470 60206 10279 20264 30128 40135 52016 71322 84902 333 10316 81917 82817 83633 85073 94976 95836
AAXX 22184 67113 NIL
AAXX 22184 67117 NIL
AAXX 22184 67137 NIL
AAXX 22184 67143 NIL
AAXX 22184 67161 NIL
AAXX 22184 67197 11480 10000 10241 20216 30119 40129 52015 60232 70162 81800 333 10295 81817 555 81633
AAXX 22181 34560 32597 52205 10011 21007 30031 40200 54000 85500 333 10059 85626
AAXX 22181 34720 32997 22801 10012 20000 30165 40206 53006 80001 333 10040
AAXX 22181 34730 32997 40000 11009 21019 30113 40208 52004 80001 333 10038
AAXX 22181 34740 32598 73502 10024 20007 30109 40207 58003 84531 333 10069
AAXX 22181 34824 31596 80801 10022 20015 30201 40206 52002 71011 8850/ 333 10064
AAXX 22181 34858 31996 60901 10052 20033 30106 40214 57002 71011 86030 333 10100
AAXX 22181 34866 32998 81902 10047 20046 30228 40219 54001 8007/ 333 10074
AAXX 22181 34880 12997 70902 11012 21032 30260 40233 54000 69900 87030 333 10037 87300
AAXX 22181 37018 32998 00202 10096 20028 30088 40163 57009 333 10143
AAXX 22181 37054 12697 50702 10049 20040 39824 40210 58004 69900 85500 333 10100
AAXX 22181 37472 31595 81102 10044 20042 30247 40224 53013 71022 8357/ 333 10066
AAXX 22181 22282 NIL
AAXX 22181 22438 NIL
AAXX 22181 22471 31258 82002 11054 21058 30127 40152 57002 78584 889// 333 11040 86703
AAXX 22181 22563 31295 80000 11057 21061 30117 40154 57003 71022 886// 333 11055 88706
AAXX 22181 22641 12799 80000 11030 21040 30136 40152 58001 69900 885// 333 11020 88650 91102
AAXX 22181 22695 11497 81402 11079 21085 30005 40164 57006 60010 77172 8672/ 333 11068 85710
AAXX 22181 22867 11497 80000 11061 21069 30023 40140 57004 69900 77072 8872/ 333 11055 88713 91103
AAXX 22181 22939 11496 83504 11065 21073 39967 40135 53002 69940 77172 8872/ 333 11053 84710
AAXX 22181 22996 11996 81702 11082 21105 39968 40165 57010 60030 77172 8802/ 333 11054
AAXX 22181 23324 12681 82102 11079 21101 30114 40195 57002 69920 885// 333 12075 88644
AAXX 22181 27008 32598 83202 11063 21071 39963 40138 52002 885// 333 11048
AAXX 22181 27051 NIL
AAXX 22181 27225 11458 80202 11055 21073 39974 40109 53002 60080 77172 8872/ 333 11043 88717
AAXX 22181 27252 11496 81102 11070 21079 39927 40119 57005 60030 77177 8877/ 333 11063 88716
AAXX 22181 27333 11484 80000 11054 21064 39943 40105 57002 60040 77172 887// 333 11048
AAXX 22181 27369 11597 81402 11082 21092 39986 40129 57010 60030 72272 8802/ 333 11067 88525
AAXX 22181 27393 11496 81806 11084 21103 30009 40183 57010 69900 77173 8872/ 333 11074
AAXX 22181 27479 11997 81404 11080 21107 30005 40144 57010 60020 77173 8802/ 333 11072
AAXX 22181 27532 11396 80802 11043 21049 39870 40087 53003 60032 77177 8872/ 333 11034 86708
AAXX 22181 27648 11395 81102 11042 21054 39915 40087 57003 60030 77172 8872/ 333 11035 88707
AAXX 22181 27675 32596 81407 11072 21089 39969 40144 57006 77173 8872/ 333 11074 88516
AAXX 22181 27679 11598 81506 11082 21092 39924 40156 57004 60020 73632 885// 333 11076 88620
AAXX 22181 28214 31696 81705 11074 21118 39985 40205 57016 73632 885// 333 11062
BBXX A8IM7 22184 99310 11350 41298 83415 10150 20097 40140 702// 8/7// 22225 04180 2//05 3//// 4//// 5//// 80120
BBXX C6SI6 22184 99337 11275 46/// /3321 10012 21055 40256 51007 7//// 8//// 22213 0//// 2////
BBXX DGDD 22181 99347 11428 41998 03209 10135 20058 40040 57020 70200 80000 22224 00200 2//// 3//// 4//// 5//// 80095
BBXX DIHC 22183 99350 11452 41498 43320 10135 20105 40024 57056 72582 84400 22264 00190 2//// 80118
BBXX ZCAO7 22184 99330 11283 41/98 53420 10050 21019 40226 51030 70311 8//// 22254 00200 2//// 80025
AAXX 22181 50844 32962 00901 11239 21297 40253 57003 333 11132
AAXX 22181 50854 32970 00000 11233 21287 40255 57009 333 11150
AAXX 22181 50968 32962 02001 11255 21283 40283 57003 333 11125
AAXX 22181 51379 32780 11603 11225 21260 40523 57001 81500 333 00055 11121
AAXX 22181 51467 32980 00201 11133 21218 38383 52005 333 00351 11044
AAXX 22181 51495 32980 03603 11114 21220 40466 52001 333 00201 11050
AAXX 22181 53480 32980 02705 11111 21197 40310 57013 333 11066
AAXX 22181 53673 32961 03401 11105 21156 40327 57015 333 11022
AAXX 22181 53698 32963 01101 11042 21106 40291 57020 333 10054
AAXX 22181 53898 31957 02501 11058 21078 40297 57016 71000 333 10052
AAXX 22181 54308 32980 03601 11167 21226 40301 57014 333 11036
AAXX 22181 54602 32960 02002 11067 21114 40280 57021 333 10044
AAXX 22181 54725 32965 02002 11040 21142 40302 57019 333 10029
AAXX 22181 54751 32975 02005 11010 21074 40297 57014 333 10010
AAXX 22181 54916 32960 00000 11063 21086 40313 57016 333 10044
AAXX 22181 57014 32965 21401 11043 21079 40355 54000 80002 333 05201 10033
AAXX 22181 57025 32963 03205 11027 21088 40356 57001 333 10019
AAXX 22181 57046 32964 02908 11106 21116 37971 57004 333 05300 11057
AAXX 22181 58208 31959 01102 11009 21068 40319 57006 71000 333 10056
AAXX 22181 40700 11958 70000 10060 20036 30126 40216 50008 60001 71022 80006 333 55050 87267
AAXX 22181 40723 12960 00000 11030 21085 38946 40265 55000 60001 333 55084 21036
AAXX 22181 40726 11620 20000 11006 21023 38678 40251 55000 60001 71000 82500 333 55017 82640
AAXX 22181 40727 12660 40000 10042 21025 38500 40230 58005 60001 82430 333 55044 20789 82640 83360
AAXX 22181 40734 11356 80000 10104 20096 30232 40206 54000 60001 71022 886// 333 55060 88707
AAXX 22181 40737 11/01 90000 10042 20042 30187 40205 51007 60001 74520 333 55074 89/01
AAXX 22181 40741 12960 00000 11036 21083 39902 40254 50001 60001 333 55082
AAXX 22181 40780 12960 51204 10094 21088 38711 40201 53002 60001 85030 333 55073 21109 85359
AAXX 22181 40791 12965 00602 10052 21125 39402 40252 53003 60001 333 55093
AAXX 22181 40792 12970 00802 10026 21118 38756 40243 51004 60001 333 55091
AAXX 22181 40794 12960 00000 10120 20088 30102 40201 58003 60001 91740 333 5571 2////
AAXX 22181 40812 12960 00000 10140 20046 39820 40199 52013 60001 91745 333 55071
AAXX 22181 40829 12960 03302 11006 21173 39680 40285 52009 60001 333 55060 20000
AAXX 22181 40833 12960 00000 10136 20070 30175 40208 50005 60001 333 55079
AAXX 22181 40835 12962 20000 10110 20001 39368 40209 50003 60001 80001 333 55093 82070
AAXX 22181 40845 NIL
AAXX 22181 40882 12960 00000 10192 20098 30157 40192 51007 60001 333 55093
AAXX 22181 40889 NIL
AAXX 22181 40890 NIL
AAXX 22181 40893 12960 03205 10207 20058 30185 40191 52007 60001 222// 00/// 20401 333 55098
AAXX 22181 40897 15960 00000 10122 21008 30180 40195 53009 60001 333
AAXX 22181 40700 11958 70000 10060 20036 30126 40216 50008 60001 71022 80006 333 55050 87267
AAXX 22181 40723 12960 00000 11030 21085 38946 40265 55000 60001 333 55084 21036
AAXX 22181 40726 11620 20000 11006 21023 38678 40251 55000 60001 71000 82500 333 55017 82640
AAXX 22181 40727 12660 40000 10042 21025 38500 40230 58005 60001 82430 333 55044 20789 82640 83360
AAXX 22181 40734 11356 80000 10104 20096 30232 40206 54000 60001 71022 886// 333 55060 88707
AAXX 22181 40737 11/01 90000 10042 20042 30187 40205 51007 60001 74520 333 55074 89/01
AAXX 22181 40741 12960 00000 11036 21083 39902 40254 50001 60001 333 55082
AAXX 22181 40780 12960 51204 10094 21088 38711 40201 53002 60001 85030 333 55073 21109 85359
AAXX 22181 40791 12965 00602 10052 21125 39402 40252 53003 60001 333 55093
AAXX 22181 40792 12970 00802 10026 21118 38756 40243 51004 60001 333 55091
AAXX 22181 40794 12960 00000 10120 20088 30102 40201 58003 60001 91740 333 5571 2////
AAXX 22181 40812 12960 00000 10140 20046 39820 40199 52013 60001 91745 333 55071
AAXX 22181 40829 12960 03302 11006 21173 39680 40285 52009 60001 333 55060 20000
AAXX 22181 40833 12960 00000 10136 20070 30175 40208 50005 60001 333 55079
AAXX 22181 40835 12962 20000 10110 20001 39368 40209 50003 60001 80001 333 55093 82070
AAXX 22181 40845 NIL
AAXX 22181 40882 12960 00000 10192 20098 30157 40192 51007 60001 333 55093
AAXX 22181 40889 NIL
AAXX 22181 40890 NIL
AAXX 22181 40893 12960 03205 10207 20058 30185 40191 52007 60001 222// 00/// 20401 333 55098
AAXX 22181 40897 15960 00000 10122 21008 30180 40195 53009 60001 333
AAXX 22184 60395 12665 50000 10146 20135 40263 51008 60002 83230 333 10180 83840 83360 95990
AAXX 22184 60421 11558 72812 10097 20077 39187 48533 53007 60072 76062 872// 333 10102 87830 95990
AAXX 22184 60423 11556 82808 10085 20083 39238 48508 53012 60202 76262 888// 333 10092 81826 87640 95990
AAXX 22184 60430 12565 30000 10102 20078 40286 54000 60002 83200 333 10161 83826 95990
AAXX 22184 60437 12570 12804 10077 20056 39047 48546 54000 60002 81100 333 10121 81820 95990
AAXX 22184 60444 12560 73407 10095 20064 39152 48564 55001 60002 872// 333 10135 87830 95900
AAXX 22184 60452 12970 1//// 10171 20124 40257 55000 60002 80002 222// 2//// 333 10197 81073 91838
AAXX 22184 60457 12965 00000 10110 20075 40269 53005 60002 333 10208 95990
AAXX 22184 60514 12960 30000 10101 20067 39344 48583 55000 60002 80002 333 10164 83073 95990
AAXX 22184 60518 12965 00000 10153 20079 40247 55000 60002 222// 20000 333 10213 91807 95990
AAXX 22184 60520 12960 03302 10135 20091 40269 53003 60002 333 10203 95990
AAXX 22184 60540 11960 02804 10120 20037 39115 48569 53016 60002 70200 333 10153 95990
AAXX 22184 60560 11960 00000 10111 20037 39031 48570 53002 60002 70200 333 10188 95990
AAXX 22181 08521 32470 70204 10184 20123 30231 40302 53003 87800 333 10203 83816 86630
AAXX 22181 08524 32470 70602 10176 20103 30207 40305 52002 87800 333 10191 83815 85630 91105
AAXX 22184 68298 36/// /0809 1//// 2//// 39449 4//// 52015 333 1//// 2//// 91012 555 91011
AAXX 22184 67002 31580 53603 10260 20234 30114 40148 70192 82903 333 10322 55070 58009 82923 84630 92408
AAXX 22184 67009 NIL
AAXX 22184 67025 NIL
AAXX 22184 67027 32580 32810 10282 20252 30102 40123 52016 83800 333 10322 81823 83640
AAXX 22184 67083 31470 10000 10210 20146 38758 48533 53020 71311 81900 333 10288 81817 81917 94963 95813
AAXX 22184 67095 31470 60206 10279 20264 30128 40135 52016 71322 84902 333 10316 81917 82817 83633 85073 94976/7 95836/7
AAXX 22184 67113 NIL
AAXX 22184 67117 NIL
AAXX 22184 67137 NIL
AAXX 22184 67143 NIL
AAXX 22184 67161 NIL
AAXX 22184 67197 11480 10000 10241 20216 30119 40129 52015 60232 70162 81800 333 10295 81817 555 81633=22 6
AAXX 22184 60360 11558 83009 10141 20131 40223 51009 60012 72162 889// 333 10170 83820 81926 86633 95990
AAXX 22184 60390 12565 21705 10133 20115 40278 51005 60002 81130 333 10200 81826 95990
AAXX 22184 60402 11460 60000 10142 20135 40267 53004 60072 70162 86900 333 10173 83816 81923 83640 95900
AAXX 22184 60419 11557 73220 10104 20067 40239 53010 60122 70362 878// 333 10112 83820 87623 95990
AAXX 22184 60475 11560 83017 10093 20081 39270 48532 53013 60022 70362 888// 333 10100 83826 87833 95990
AAXX 22184 60490 12970 03602 10132 20095 40263 53001 60002 333 10200 95990
AAXX 22184 60525 12660 23314 10180 20044 40207 52012 60002 82200 333 10216 82840 95990
AAXX 22184 60531 12970 00000 10146 20057 40269 53001 60002 333 10218 95990
AAXX 22184 60566 12960 03608 10168 20050 40248 53002 60002 333 10198
AAXX 22184 60571 12965 00000 10160 20051 39326 48573 52003 60002 333 0//00 10210 95990
AAXX 22184 60580 12960 23408 10180 20093 40225 58002 60002 82030 333 10232 82360
AAXX 22184 60590 12960 03106 10155 20044 40260 53008 60002 333 10193
AAXX 22184 60611 12960 02705 10122 21010 40220 53001 60002 333 10165
AAXX 22184 60620 12960 03608 10168 21018 40246 53001 60002 333 10207
AAXX 22184 60630 12975 00608 10182 21043 40236 53001 60002 333 10217
AAXX 22184 60656 12965 00000 10203 20004 40244 56001 60002 333 10230
AAXX 22184 60670 NIL
AAXX 22184 60680 12980 03108 10144 21082 38671 48546 53005 60002 333 10190 95990
AAXX 22184 60351 12458 62816 10160 20123 40249 53010 60002 86800 333 10179 84816 84633 95990
AAXX 22184 60355 NIL
AAXX 22184 60445 12460 52812 10085 20042 39087 48562 52013 60012 85200 333 10107 81710 85826 95990
AAXX 22184 60468 12460 42808 10090 20052 39287 48552 53016 69962 84800 333 10120 81813 84823 95990
AAXX 22184 60507 12975 00000 10112 20071 40278 53001 60002 333 95990
AAXX 22184 60511 12965 03206 10090 20070 39132 48559 53001 60002 333 10151 95990
AAXX 22184 60535 12970 00416 10080 20054 38895 48555 56005 60002 333 10113 95900
AAXX 22184 60536 12960 00000 10106 20064 39388 48559 54000 60002 333 10186 95990
AAXX 22184 60549 11960 00000 10108 20033 38995 48584 54000 60002 70200 333 10142 95990
AAXX 22184 60550 12960 00000 10085 20031 38744 48577 52003 60002 333 10120 95990
AAXX 22184 60555 12960 20000 10157 20055 40221 53007 60002 82030 333 10216 82360
AAXX 22184 60559 12560 40000 10170 20072 40209 50001 60002 82000 333 10217 84833
AAXX 22184 60581 12960 03606 10175 20065 40226 53001 60002 333 10204
AAXX 22184 60602 12960 00206 10170 20021 40259 55000 60002 333 10206 95990
AAXX 22184 60607 12960 03610 10171 21070 40243 54000 60002 333 10199
AAXX 22184 60640 12960 03108 10134 21047 40242 53004 60002 333 10209
AAXX 22184 60690 NIL
AAXX 22183 87896 11580 61830 10130 20005 39977 40075 52012 60011 70382 83570 333 56650 83625 84360
AAXX 22184 87593 32560 32705 10294 20189 30025 40051 57001 83200 333 56900 57895 83825
AAXX 22184 87623 31940 01812 10259 20025 39870 40090 57017 70700 333 96104 96120
AAXX 22184 87641 NIL
AAXX 22184 87645 31558 12319 10264 20080 39853 40053 58001 70400 81100 333 56500 81820
AAXX 22184 87648 32560 32714 10304 20158 30033 40043 56004 83200 333 56500 57899 83830
AAXX 22184 87692 32560 42015 10242 20168 30028 40052 53004 84100 333 56600 84820
AAXX 22184 87715 32770 12513 10212 20003 39796 40111 57027 81100 333 56500 81850
AAXX 22184 87750 32962 02720 10244 21085 39988 40085 58009
AAXX 22184 87765 31559 72716 10097 21005 39190 48473 52004 71522 87800 333 56600 84820 86625 96120
AAXX 22184 87784 32580 51605 10200 20061 30081 40105 57007 85500 333 56600 85630
AAXX 22184 87791 NIL
AAXX 22184 87800 32680 81810 10125 20022 39778 40184 53001 8477/ 333 56669 84735 84548
AAXX 22184 87803 11580 62715 10085 21012 39212 40144 53009 69901 70372 84570 333 56660 84630
AAXX 22184 87828 32580 62522 10184 21116 30030 40082 57009 85260 333 56660 57801 82830
AAXX 22184 87860 31580 62010 10177 21029 30022 40077 53001 71421 84263 333 56666 57873 81630 83845
AAXX 22184 87904 31680 62720 10126 21019 39862 40109 50015 71422 85870 333 56660 84640
AAXX 22184 87909 11580 71808 10130 20008 30009 40085 51009 60011 72581 87300 333 56000 57990 87930
AAXX 22184 87925 11580 62020 10128 21016 30046 40069 51009 69901 72782 85302 333 56500 57900 82925 83830
AAXX 22184 87938 31570 72326 10099 20038 39985 40055 52011 71522 85870 333 56550 84630 84360
AAXX 22181 23914 12999 81803 11093 21149 39957 40226 58016 60010 8807/ 333 11073
AAXX 22181 23921 12697 80000 11077 21103 30095 40218 57011 69900 8657/ 333 11043
AAXX 22181 23955 42684 82504 11071 21092 30174 40238 57004 885// 333 88639
AAXX 22181 23966 41496 60000 11138 21151 30116 40249 57011 78582 85950
AAXX 22181 28138 32599 82402 11080 21178 39676 40269 57012 83531 333 11066
AAXX 22181 28224 32898 81704 11067 21150 30018 40239 57016 86050 333 11047
AAXX 22181 28255 32994 82302 11055 21143 30153 40287 57009 86031 333 11018
AAXX 22181 28440 32197 71502 11056 21173 39933 40294 57015 87300 333 11015
AAXX 22181 28645 32997 82003 11108 21171 30044 40358 57012 8801/ 333 11098
AAXX 22181 28661 32997 82107 11117 21159 30275 40374 57012 85031 333 11104
AAXX 22181 28722 31697 82003 11049 21122 30144 40280 57016 70232 885// 333 11041
AAXX 22181 28748 32965 41802 11146 21189 30129 40390 57010 80001 333 11107
AAXX 22181 28838 32996 21901 11178 21190 39876 40398 57013 82030 333 11139
AAXX 22181 29231 41498 81901 11100 21113 30172 40273 57007 70287 8595/
AAXX 22181 29313 42998 82503 11068 21115 30162 40289 57005 8805/
AAXX 22181 29612 42998 72405 11092 21148 30192 40351 57002 87070
AAXX 22181 29638 41598 81805 11115 21159 30180 40356 57015 73632 889//
AAXX 22181 29838 42997 82002 11135 21187 30153 40402 57004 80005
AAXX 22181 29846 41560 82108 11129 21172 39982 40392 56003 73683 8595/
AAXX 22181 36061 42699 80000 11109 21122 39995 40429 54000 86571
AAXX 22181 23909 11498 81703 11100 21128 39944 40203 57014 69980 70232 84506 333 11069
AAXX 22181 28044 32597 82005 11033 21163 30062 40229 57010 885// 333 11035
AAXX 22181 28116 32899 81703 11077 21143 39977 40218 57013 8807/ 333 11060
AAXX 22181 28240 32598 82202 11022 21187 39936 40266 57010 885// 333 11017
AAXX 22181 28522 32997 01806 11063 21136 30007 40275 57018 333 11056
AAXX 22181 28621 31997 81806 11059 21127 30027 40268 57009 73632 80007 333 11055
AAXX 22181 29023 41398 82001 11101 21114 30149 40250 57007 70282 889// 333 87707
AAXX 22181 29122 41999 32202 11099 21111 30187 40263 56003 70281 82031
AAXX 22181 29328 41598 82303 11098 21134 30148 40294 57007 70283 8597/
AAXX 22181 29348 41596 72302 11121 21138 30153 40306 56005 78582 83906
AAXX 22181 29405 42997 62404 11073 21137 30170 40323 57001 86030
AAXX 22181 29418 42598 82404 11067 21164 30155 40320 57006 8597/
AAXX 22181 29430 41398 82401 11128 21141 30135 40322 57011 77172 886// 333 88710
AAXX 22181 29524 42998 82405 11081 21143 30158 40328 57004 8802/
AAXX 22181 29605 41598 82505 11082 21157 30209 40358 57006 73632 86502
AAXX 22181 29631 42997 82103 21162 30143 40340 57014 80002
AAXX 22181 29645 41596 81703 11129 21156 30158 40357 58008 78582 889// 333 88920
AAXX 22181 29706 41998 82507 11108 21144 30227 40383 57007 73632 80002
AAXX 22181 29736 42598 81903 11152 21186 30117 40386 57011 8457/
AAXX 22181 29937 41997 82108 11135 21187 30198 40436 58008 73632 8807/
AAXX 22181 36034 42998 82204 11187 21228 30184 40488 58003 80001
AAXX 22181 36096 41996 80000 11228 21253 39632 40491 57006 77172 8807/ 333 95090
AAXX 22184 87016 NIL
AAXX 22184 87078 32770 20903 10414 20190 39875 40017 57019 82100 333 56800 82850
AAXX 22184 87244 31565 11408 10330 20194 39654 4//// 5//// 60500 81100 333 56300 61825
AAXX 22184 87393 11370 70513 10246 20212 39996 40057 57020 60251 72992 83676 333 56766 82708 83613 86270
AAXX 22184 87416 32965 01608 10273 20024 39334 40052 57029
AAXX 22184 87563 32965 00000 10321 20060 30012 40052 58010
AAXX 22184 87640 31930 01830 10287 20003 39956 4//// 57009 70400
AAXX 22184 87688 32462 41816 10209 20087 39952 40088 52021 84100 333 56400 84816
AAXX 22184 87774 31620 72318 10138 21005 39092 48439 5//// 70711 85808 333 56509 83840 84636 87270
AAXX 22184 87852 31582 72723 10108 20001 39598 40110 51003 71522 85272 333 56100 57810 85820
AAXX 22181 28049 32997 72005 11028 21158 30076 40244 57009 80030 333 11028
AAXX 22181 28144 32598 82003 11032 21169 30090 40252 57010 8351/ 333 11023
AAXX 22181 28319 32499 71804 11068 21146 30071 40242 57016 87500 333 11066 87615
AAXX 22181 28321 32999 71304 11074 21144 30020 40231 57016 87030 333 11069
AAXX 22181 28334 32997 01901 11063 21173 39958 40273 57016 333 11038
AAXX 22181 28434 32998 00000 11165 21183 30013 40291 57016 333 11045
AAXX 22181 28552 32598 52303 11096 21155 30228 40347 57011 80002 333 11084
AAXX 22181 28666 32999 51906 11119 21159 30198 40385 57008 80002 333 11115
AAXX 22181 28825 32997 81804 11052 21116 30121 40299 57016 8807/ 333 11046
AAXX 22181 29111 42798 82604 11066 21090 30174 40264 57003 885// 333 88653
AAXX 22181 29209 41498 82503 11059 21122 30164 40294 53002 70282 889//
AAXX 22181 29551 41497 82203 11116 21136 30135 40327 57010 78583 883//
AAXX 22181 29602 41998 82306 11075 21146 30205 40352 57005 70272 8801/
AAXX 22181 29636 41597 82304 11128 21171 30115 40346 57012 78582 883//
AAXX 22181 29654 41396 81905 11131 21144 39702 40352 57009 78583 889// 333 85709
AAXX 22181 29712 41998 22505 11110 21146 30222 40374 58010 73631 82070
AAXX 22181 29724 41697 22306 11113 21157 30157 40372 57010 73631 82500
AAXX 22181 29726 41998 82005 11130 21173 30195 40374 57008 73632 8807/
AAXX 22181 29814 42999 82305 11112 21174 30252 40408 57006 82072
AAXX 22181 29827 41997 02508 11124 21176 30244 40408 57007 73631
AAXX 22181 29923 41999 82307 11134 21186 30123 40418 57004 73632 8801/
AAXX 22181 29939 42997 62603 11095 21194 30119 40418 57005 83031
AAXX 22181 35026 32597 61403 11153 21200 39684 40371 57021 86500 333 11097
AAXX 22181 36021 42999 02504 11137 21208 30258 40452 58005
AAXX 22181 36022 42998 02004 11177 21219 30189 40476 58002
AAXX 22181 36038 42999 02001 11155 21174 30020 40500 57006
AAXX 22181 36058 42999 60803 11092 21127 39914 40465 57005 80001
AAXX 22181 36064 41499 80901 11060 21066 39817 40431 57006 70272 82508
AAXX 22181 36229 42999 00000 11247 21255 39271 40587 57003
AAXX 22181 36259 42599 70000 11252 21284 38363 48641 52008 83901
AAXX 22183 NIL
AAXX 22184 71107 16/// /2037 10067 20053 30006 40118 56036 60001 333 10070 20061 70000
AAXX 22184 71503 46/// /2605 11198 21221 39825 40103 51024 6///1 333 11151 21205 7////
AAXX 22184 71506 46/// /3001 11153 21164 39136 40029 56005 6///1 333 11108 21158 7////
AAXX 22184 71514 16/// /2109 11064 21104 39506 40221 58018 60001 333 11044 21129 70000
AAXX 22184 71539 16/// /2305 11054 21106 39511 40223 56020 60001 333 11041 21128 70000
AAXX 22184 71300 16/// /2406 10040 20009 30037 40160 58002 60001 333 10045 21013 70103
AAXX 22184 71321 16/// /3314 11170 21190 39855 49898 55001 60001 333 11120 21170 70000
AAXX 22184 71334 46/// /1701 11301 21336 39860 40214 58010 6///1 333 11297 21344 7////
AAXX 22184 71340 46/// /2509 10000 21075 6///1 333 10001 21069 7////
AAXX 22184 71341 16/// /2528 11001 21119 60001 333 10000 21110 70000
AAXX 22184 71342 16/// /2910 11036 21103 60001 333 11036 21113 70016
AAXX 22184 71344 16/// /2613 11009 21127 60001 333 11007 21101 70000
AAXX 22184 71347 16/// /2715 10007 21041 60001 333 10008 21070 70000
AAXX 22184 71348 16/// /2714 10020 21056 60001 333 10020 7////
AAXX 22184 71349 16/// ///// 11026 21096 60001 333 11026 21066 70000
AAXX 22184 71903 47/// /1411 10062 20052 39966 40015 56035 6///1 7//4/ 333 10074 20033 7////
AAXX 22184 71970 16/// /2510 11042 21089 39545 40142 50000 60001 333 11042 21111 70000
AAXX 22184 71976 46/// /2518 11263 21292 39296 49942 55000 6///1 333 11244 21273 7////
AAXX 22184 71421 16/// ///// 11066 21090 39345 40066 55003 60001 333 11063 21116 70006
AAXX 22184 71435 16/// /2703 11117 21152 39630 40244 58001 60001 333 11078 21132 70000
AAXX 22184 71269 16/// /2516 11025 21073 60001 333 11025 21113 70000
AAXX 22184 71270 16/// /2705 10042 20001 39943 40163 50005 60001 333 10051 20019 70054
AAXX 22184 71285 46/// /2406 11033 21069 6///1 333 11031 21106 7////
AAXX 22184 71288 16/// /0804 11333 21367 30055 40081 56012 60001 333 11304 21352 70000
AAXX 22184 71299 16/// /3107 11161 21212 39944 40233 51008 60001 333 11119 21170 70000 555 10010
AAXX 22184 71826 16/// /1417 11104 21172 39816 49858 55001 60001 333 11088 21159 70000
AAXX 22184 71158 16/// /1104 11121 21143 39953 40239 58004 60001 333 11110 21131 70000
AAXX 22184 71168 16/// /3307 11026 21080 39703 40309 50017 60001 333 11023 21095 70000
AAXX 22184 71170 16/// /2806 11045 21066 60001 333 11045 21126 70000
AAXX 22184 71186 46/// /3008 11009 21036 6///1 333 11009 21063 7////
AAXX 22184 71190 46/// /3009 10021 21028 6///1 333 10021 21035 7////
AAXX 22184 71667 16/// /3213 11096 21150 30002 40256 53011 60001 333 11046 21096 70000
AAXX 22184 71682 16/// /0000 11045 21068 39850 40077 51004 60001 333 10035 21154 70000
AAXX 22184 71050 46/// /2301 11102 21117 39167 40287 57012 6///1 333 11101 21161 7////
AAXX 22184 71737 16/// /2305 11007 21032 39610 40135 50004 60001 333 11007 7////
AAXX 22184 71743 16/// /2411 11209 21237 39818 40042 58007 60001 333 11198 21256 70000
AAXX 22184 71747 17/// /3103 11111 21159 39767 40259 50002 60121 7//4/ 333 11037 21117 70120
AAXX 22184 71748 16/// /1802 11064 21108 39947 40244 58005 60001 333 11063 21122 70000
AAXX 22184 71364 16/// /3205 11219 21242 39974 40112 50004 60001 333 11210 21240 70000
AAXX 22184 71365 16/// /3501 11186 21203 39873 40093 51014 60001 333 11177 21191 70000
AAXX 22184 71374 46/// /3215 11021 21035 6///1 333 11006 21033 7////
AAXX 22184 71387 16/// /2203 11016 21051 39731 40109 53002 60001 333 11015 21058 70000
AAXX 22184 71551 16/// /2207 11032 21093 39517 40190 58021 60001 333 11032 21101 70000
AAXX 22184 71564 16/// /2805 11032 21063 39866 40245 50000 60001 333 11032 21095 70003
AAXX 22184 71228 16/// /2711 11011 21081 60001 333 11003 21102 70000
AAXX 22181 34357 12598 82302 10007 21014 30022 40179 52007 69900 885// 333 10029
AAXX 22181 34363 32497 82003 10009 21007 30040 40195 52002 886// 333 10011
AAXX 22181 34545 32598 62403 10004 21014 30086 40200 52005 86500 333 10039
AAXX 22181 34579 32998 01604 11021 21038 30176 40221 58002 333 10017
AAXX 22181 34838 32997 80401 10041 20016 30108 40206 54000 8005/ 333 10078
AAXX 22181 34927 32697 60401 10053 20021 30161 40199 57005 86500 333 10094
AAXX 22181 34949 32698 61302 10038 20030 39659 40208 57005 83530 333 10097
AAXX 22181 37001 32997 60505 10047 20018 30142 40183 57005 80002 333 10093
AAXX 22181 37031 32997 01201 10030 20020 30002 40199 58006 333 10103
AAXX 22181 37061 11559 71402 10066 20049 30045 40211 57002 69970 71022 87500 333 10097
AAXX 22181 37085 32596 81203 10038 20030 30249 40276 57002 885// 333 10079
AAXX 22181 37107 32998 00101 10041 20026 39503 40184 57007 333 10102
AAXX 22181 37126 42997 61903 11023 21048 37928 48502 58004 82031 333 10008
AAXX 22181 37171 32996 00601 10071 20068 30142 40161 57011 333 10134
AAXX 22181 37228 31596 80000 10046 20029 39368 40204 58005 71022 885// 333 10081
AAXX 22181 37470 32596 72701 10056 20039 30248 40226 54001 87500 333 10084
AAXX 22181 37663 32996 00000 10044 20014 39028 48504 50001 333 10102
BBXX TESTFR9 22184 99508 70011 46/// /2619 10107 29089 40292 57014 22272
BBXX BAREU63 22184 99414 10125 46/// /1308 10109 29055 40169 52017 22272
BBXX BAREU00 22184 99514 10039 46/// ///// 40250 52003 22223
BBXX BAREU62 22184 99407 10291 46/// ///// 40083 22224
BBXX BATFR02 22184 99497 70004 46/// /2617 10115 20085 40290 22284 00120
BBXX BATFR03 22184 99499 70006 46/// /2726 10119 20090 40279 53006 22234
BBXX BATFR04 22184 99584 70062 46/// /2026 10112 20094 40006 56022 22200 00102
BBXX BATEU05 22184 99582 70243 46/// /2836 10034 21017 49945 53041 22223
BBXX BATFR27 22184 99439 70038 46/// /1013 10149 20057 40311 22285 00154
BBXX BATFR01 22184 99359 10215 46/// /2927 10134 20062 40021 51010 22271 00192
BBXX BATFR52 22184 99508 70011 46/// /2516 10109 20082 40274 57020 22282 00090
BBXX BATFR12 22184 99481 70066 46/// /2011 10177 20087 40305 58001 22281 00144
BBXX BATFR54 22184 99486 70061 46/// /2017 10127 20089 40304 51020 22233 00119
BBXX BATFR14 22184 99392 70282 44398 80316 10159 20134 40293 53017 70322 886// 22213 00165 201// 326// 408// 5//// 60000 ICE 0/0//
BBXX BATEU04 22184 99619 70067 46/// /2314 10107 20077 49842 58081 22262
BBXX BATEU01 22184 99514 10031 46/// /2212 10082 20067 40249 22224 00072
BBXX BATFR42 22184 99502 70018 46/// /2424 10119 20094 40274 22244 00124
BBXX A8VL5 22184 99340 10233 41397 82723 10120 20079 40180 53010 70362 888// 22264 00180 20606 30000 80100
BBXX MSTM6 22183 99373 10049 41/98 70217 10165 20120 40257 56010 70222 8//// 22224 00165 2//// 80140
BBXX 61001 22184 99434 10078 46/// /2603 10129 20034 40210 52008 22200 00146 10802 70010
BBXX BATUK01 22184 99574 70017 46/// /2226 10095 20062 40089 56015 22241 00087
BBXX 61002 22184 99421 10047 46/// ///30 10145 2//// 40230 52006 22200 00139 10707 70034 555 1/039
BBXX DDZD2 22184 99382 70099 41598 63615 10147 20129 40300 58005 70222 865// 22245 00160 20602 334// 40802 80136
BBXX DHSI 22184 99359 70108 41598 70317 10180 20131 40290 50000 70322 87800 22214 00170 21004 303// 41204 80150
BBXX DANM 22184 99368 10012 41999 12805 10161 20119 40257 53002 7//00 81010 22265 00150 20502 80136
BBXX ELWR5 22183 99027 50818 41/98 /2016 10230 20201 40090 50010 70211 8/635 22263 04253 20604 320// 41004 80210
BBXX IDDUK02 22184 99528 50448 46/// ///// 49874 222//
BBXX BAREU04 22184 99458 70563 46/// ///// 49990 57049 22263
BBXX BAREU11 22184 99365 70462 46/// ///// 40301 57002 22214
BBXX BAREU54 22184 99152 70753 46/// ///// 40112 57013 22213
BBXX BAREU06 22184 99445 70441 46/// ///// 40275 57010 22224
BBXX FVNM 22184 99089 70795 46/// /1806 10297 20242 40080 58024 22200 00279
BBXX PBBB 22183 99393 70407 41298 73505 10170 20054 40320 52003 70322 8/736 22263 00180 20302 332// 40907 5//// 80109
BBXX PHCQ 22183 99299 70902 41/// /3012 10175 20134 40152 52011 78184 8//// 22200 00090 20000 3//// 4//// 5//// 80150
BBXX 41101 22184 99146 70562 46/// /0621 10267 20218 40128 57024 22200 00270 11007 70035 555 1/027
BBXX SHIP 22184 99414 70382 41398 73206 10117 20044 40315 51011 70022 875// 22263 04150 20502 328// 40906 80081
BBXX SBLW 22183 99081 70838 43/98 42906 10274 40108 58017 22274 00280 2//// 4////
BBXX BATFR56 22184 99162 30632 46/// /1324 10257 20230 40132 52005 22213 00284
BBXX BATFR45 22184 99180 10611 46/// ///// 10244 20144 40162 51018 22284 00269
BBXX BATFR05 22184 99063 10034 46/// /2209 10284 20252 40102 53011 22200 00262
BBXX BATFR19 22184 99066 30057 46/// /1813 10234 20194 40129 53017 22200 00252
BBXX DGUG2 22184 99165 70256 41/96 /0721 10245 20186 40140 51005 705// 8//// 22294 04250 20704 80205
BBXX A8GU5 22184 99023 50285 41498 61123 10270 20213 40120 56020 70222 84160 22214 20502 307// 40604 80230
BBXX BATFR53 22184 99188 51711 44598 40712 10274 20225 40083 51011 70200 83232 22222 00282 20102 307// 403// 5//// 60/// ICE 0////
BBXX BATFR08 22184 99365 30759 46/// /2218 10164 20142 40268 51012 22273 00167
BBXX BATEU07 22184 99169 31085 46/// /1819 10255 40065 58019 22284
BBXX DCAX2 22183 99008 11682 41497 21005 10280 20237 40050 54000 7//00 82222 22233 20605 3//// 4//// 5//// 80250
AAXX 22181 08512 32265 71503 10177 20175 30209 40294 52008 8683/ 333 10195 81705 84811 91105
AAXX 22184 71752 16/// /2704 10055 20028 39957 40174 58004 60001 333 10059 20040 70040 555 10020
AAXX 22184 71771 46/// /1637 10071 20066 30047 40067 56041 6///1 333 10086 20062 7////
AAXX 22184 71478 16/// /1654 10063 20032 30034 40171 58037 60001 333 10070 20054 70000
AAXX 22184 71479 16/// /1248 10063 20002 30064 40185 56036 60001 333 10064 20040 70000
AAXX 22184 71482 46/// /0512 10027 30175 40214 56034 6///1 333 10029 20014 7////
AAXX 22184 71487 16/// /2414 11055 21095 39333 40222 58020 60001 333 11055 21112 70000
AAXX 22184 71018 16/// ///06 11273 21300 39969 40059 53001 60001 333 11253 21297 70000
AAXX 22184 71026 16/// /2310 11018 21075 39349 40225 55000 60001 333 21119 7////
AAXX 22184 71047 16/// ///// 10002 21064 60001 333 10002 21080 70000
AAXX 22184 71423 17/// /3513 11014 21046 30041 40050 53007 69991 7//4/ 333 10007 21022 70026 555 10020
AAXX 22184 71434 16/// /2610 11273 21312 30119 40190 51009 60001 333 11246 70000
AAXX 22183 61701 31959 60000 10293 20117 40118 70522 80002 333 10332 58160 86074
AAXX 22183 61705 32960 40000 10308 20116 4//// 80002 333 10340 5//// 84073
AAXX 22183 61707 NIL
AAXX 22183 61711 NIL
AAXX 22183 61712 32960 52703 10310 20075 4//// 80002 333 10335 5//// 85072
AAXX 22183 61717 32960 23602 10311 20091 4//// 82030 333 10334 5//// 82362
AAXX 22183 61720 NIL
AAXX 22183 61721 32960 50000 10307 20073 4//// 80002 333 10330 5//// 85072
AAXX 22183 61722 32960 00806 10310 20071 4//// 80000 333 10332 5////
AAXX 22183 61731 32960 50905 10300 20103 4//// 80002 333 10332 5//// 85074
AAXX 22183 61733 32960 50503 10307 20065 4//// 85030 333 10340 5//// 85363
AAXX 22181 08501 12/// /3505 10148 20097 30270 40306 52017 60012 333 10158 91009 91110 555 60005
AAXX 22181 08505 12470 79901 10182 20154 30234 40283 52016 69902 86832 333 10198 82812 85630 555 60007
AAXX 22181 08506 12/// /0507 10160 20136 30224 40296 52017 60012 333 10193 555 60005
AAXX 22181 08509 32360 83004 10188 20171 30221 40286 53010 71622 8787/ 333 10200 81708 85816 555 60007
AAXX 22181 08511 12/// /2403 10171 2//// 30180 40288 52010 69932 333 10189 91108 555 69935
AAXX 22181 08512 NIL
AAXX 22181 08515 31465 21503 10176 20162 30177 40303 53006 71022 82800 333 10196 81814 910// 911// 555 60007 912//
AAXX 22181 08521 32470 70204 10184 20123 30231 40302 53003 87800 333 10203 83816 86630 555 60007
AAXX 22181 08522 32570 59902 10182 20090 30230 40299 52002 85800 222// 314// 40301 333 10223 82821 83630 555 60005
AAXX 22181 08524 32470 70602 10176 20103 30207 40305 52002 87800 333 10191 83815 85630 91105 555 60005
AAXX 22181 08530 NIL
AAXX 22181 08531 32/// /3505 10140 20117 30260 40299 54000 333 10152 555 60005
AAXX 22181 08532 NIL
AAXX 22181 08533 32/// /9901 10136 20127 30256 40285 52004 333 10183 91109 555 60005
AAXX 22180 08534 31/00 99901 10092 20092 30273 40291 57004 74544 333 10106 89/// 555 60007 96645
AAXX 22181 08535 32/// /2301 10101 20096 30198 40293 54000 333 10147 555 60005
AAXX 22181 08537 NIL
AAXX 22181 08540 31930 03302 10114 20107 30224 40294 51001 71000 333 10158 555 60007
AAXX 22181 08541 32/// /3503 10119 20102 30169 40290 52002 333 10156 91105 555 60005
AAXX 22181 08544 11004 40201 10102 20098 30276 40297 55000 69922 74641 84600 333 10138 84701 555 60007 90206 96646
AAXX 22181 08545 NIL
AAXX 22181 08548 32/// /0602 10104 20064 30091 40300 54000 333 10142 555 60005
AAXX 22181 08551 31459 10000 10093 20081 30245 40304 52002 71000 81100 333 10129 81815 555 60005
AAXX 22181 08554 32970 02701 10145 20113 30270 40280 57003 333 10191 555 60005
AAXX 22181 08558 12/// /9901 10112 20090 39988 40285 54000 69912 333 10186 555 60005
AAXX 22181 08560 31965 00404 10059 20030 39537 40313 57004 70200 333 10111 555 60005
AAXX 22181 08561 32970 03001 10122 20104 30045 40279 58001 333 10180 555 60007
AAXX 22181 08562 12/// /3401 10123 20096 39986 40282 57001 69912 333 10186 555 60005
AAXX 22181 08567 12/// /9901 10052 20046 39652 40336 57004 69912 333 10060 555 60005
AAXX 22181 08568 32/// /3102 10138 21122 38741 48614 54000 333 10172 555 60005
AAXX 22181 08570 31975 00201 10107 20041 39828 40292 57001 70200 333 10160 555 60005
AAXX 22181 08571 32/// /9901 10135 20039 39582 40284 57001 333 10168 555 60005
AAXX 22181 08575 32/// /0000 10041 20038 39503 40340 57003 333 10048 555 60005
AAXX 22181 08579 32/// /2402 10134 20113 30164 40290 54000 333 10154 91105 555 60005
AAXX 22184 60353 NIL
AAXX 22184 60367 12560 8//// 10124 20105 40200 53003 60062 888// 333 10158 84820 87840
AAXX 22184 60369 12960 10000 10165 20098 40262 50000 60002 80002 333 10199 81070 91827
AAXX 22184 60401 NIL
AAXX 22184 60403 11550 83011 10130 20111 40235 52017 60032 72162 888// 333 10141 83820 87833 95990
AAXX 22184 60425 12970 00000 10134 20075 40273 53003 60002 333 10180 95990
AAXX 22184 60461 12970 00000 10152 20110 40257 53003 60002 222// 20000 333 10200 91808 95990
AAXX 22184 60467 12665 43406 10149 20054 40256 53009 60004 83231 333 10181 83833 95990
AAXX 22184 60492 12965 00000 10133 20109 40264 53003 60002 333 10192 95990
AAXX 22184 60515 12560 50000 10143 20089 40258 53009 60002 85800 333 10183 85830 95990
AAXX 22184 60517 12960 00000 10147 20084 40266 53002 60002 333 10186 95990
AAXX 22184 60522 12975 00000 10132 20065 40278 55000 60002 333 10206 95990
AAXX 22184 60557 11970 00000 10091 20042 38936 48571 56002 60002 70200 333 10153 95990
AAXX 22184 60563 12960 00212 10130 20048 39358 48557 53006 60002 333 10178
AAXX 22184 60603 12960 03010 10153 20036 40248 54004 60002 333 10187
AAXX 22184 60638 12960 0//// 10152 20021 40239 55000 60002 333 10176
AAXX 22184 60686 NIL
AAXX 22181 60370 36/// /2701 10147 20121 333 10192
AAXX 22181 60371 36/// /1702 10147 20118 333 10189
AAXX 22181 60372 36/// /0000 10122 20122 333 10167
AAXX 22181 60373 NIL
AAXX 22181 60374 NIL
AAXX 22181 60376 NIL
AAXX 22181 60379 NIL
AAXX 22181 60380 NIL
AAXX 22181 60381 NIL
AAXX 22181 60393 NIL
AAXX 22181 60394 NIL
AAXX 22181 60593 NIL
AAXX 22181 60595 NIL
AAXX 22181 60605 NIL
AAXX 22181 60613 NIL
AAXX 22181 60623 NIL
AAXX 22184 60624 36/// /0000 10200 21055 333 10224
AAXX 22184 60639 NIL
AAXX 22184 60645 36/// /0000 10179 21025 333 10224
AAXX 22181 14235 12060 6//// 11033 21043 39050 48488 52007 60002 86100 333 11021 47023
AAXX 22181 14246 11980 42401 10000 21021 30035 40246 53/// 69912 700// 84030 333 10055
AAXX 22181 14314 12980 20104 10071 21032 30145 40211 52/// 60002 81042 333 10097 92312 92428
AAXX 22181 14323 11682 21010 10058 21028 30164 40198 55/// 60002 702// 82530 333 10082 91022 92334 92448
AAXX 22181 14324 11/00 90912 11090 21101 38370 48478 53/// 69962 749// 333 11077 44042
AAXX 22181 14328 11640 53201 11023 21029 39837 40250 51/// 60002 710// 85500 333 10045 43018
AAXX 22181 14330 12660 12901 11046 21058 39546 40248 52/// 60002 81100 333 10017 47015 92802
AAXX 22181 14438 11970 10107 10055 21064 30085 40178 51/// 60002 701// 80002 333 10081 91119 91502 923//
AAXX 22181 14443 32699 235// 10087 20030 30050 40150 52015 82800 333 10100 92345 911//
AAXX 22181 14447 12984 00603 10067 21068 30132 40164 53/// 60002 333 10115 92311
AAXX 22181 14472 12980 00309 10077 21083 30055 40120 52024 60002 333 10101 92312
AAXX 22184 61017 32960 50404 10206 10007 39748 40159 80002 333 10250 58004 85080
AAXX 22184 61024 32960 21210 10240 21039 39579 40149 80002 333 10298 58007 8208
AAXX 22184 61036 32965 70000 10284 20011 39885 40124 81038 333 10321 58007 81364 87280
AAXX 22184 61043 32960 70606 10270 21057 39685 40127 80008 333 10313 58010 87280
AAXX 22184 61045 32965 50402 10227 21005 39640 40143 80002 333 10286 58010 85080
AAXX 22184 61049 32960 70000 10225 20011 39806 40129 80008 333 10298 58014 87280
AAXX 22184 61052 32960 20606 10288 20004 39870 40128 80002 333 10318 58006 82080
AAXX 22184 61075 32960 50000 10276 20021 39813 40122 80002 333 10328 58014 85080
AAXX 22184 61080 32960 70602 10250 21008 39710 40135 80008 333 20309 58010 87280
AAXX 22184 61090 32960 70202 10247 21033 39620 40134 80008 333 10295 58018 87280
AAXX 22184 61091 32960 50000 10220 20082 39688 40151 80002 333 10302 58011 85080
AAXX 22184 61096 32965 73604 10245 21018 39752 40138 80008 333 10307 58008 87280
AAXX 22184 61099 32960 70206 10295 20030 39875 40103 80008 333 10340 58008 87280
AAXX 22181 13463 32970 00207 10065 21057 30075 40136 52017 333 10081 91120
AAXX 22181 13459 32670 40205 10006 21061 39365 40142 54000 84800 333 10030 47009 84696 91120
AAXX 22181 13461 32970 10209 10072 21069 30093 40101 52015 81040 333 10095 81360 91126 92344 92448
AAXX 22181 13363 11665 73602 11018 21042 39271 48472 52015 69982 70272 87500 333 11005 47008 93102
AAXX 22184 60595 36/// /0000 11451 333 11451
AAXX 22184 61970 16/// ///// 10280 20229 40129 60002 333 10324 58013 555 60005
AAXX 22184 71050 46/// /2301 11102 21117 39167 40287 57012 6///1 333 11101 21161 7////
AAXX 22184 71421 16/// ///// 11066 21090 39345 40066 55003 60001 333 11063 21116 70006
AAXX 22184 71435 16/// /2703 11117 21152 39630 40244 58001 60001 333 11078 21132 70000
AAXX 22181 08512 32265 71503 10177 20175 30209 40294 52008 8683/ 333 10195 81705 84811 91105 555 60005
AAXX 22184 61017 32960 50404 10206 10007 39748 40159 80002 333 10250 58004 85080
AAXX 22184 61024 32960 21210 10240 21039 39579 40149 80002 333 10298 58007 8208
AAXX 22184 61036 32965 70000 10284 20011 39885 40124 81038 333 10321 58007 81364 87280
AAXX 22184 61043 32960 70606 10270 21057 39685 40127 80008 333 10313 58010 87280
AAXX 22184 61045 32965 50402 10227 21005 39640 40143 80002 333 10286 58010 85080
AAXX 22184 61049 32960 70000 10225 20011 39806 40129 80008 333 10298 58014 87280
AAXX 22184 61052 32960 20606 10288 20004 39870 40128 80002 333 10318 58006 82080
AAXX 22184 61075 32960 50000 10276 20021 39813 40122 80002 333 10328 58014 85080
AAXX 22184 61080 32960 70602 10250 21008 39710 40135 80008 333 20309 58010 87280
AAXX 22184 61090 32960 70202 10247 21033 39620 40134 80008 333 10295 58018 87280
AAXX 22184 61091 32960 50000 10220 20082 39688 40151 80002 333 10302 58011 85080
AAXX 22184 61096 32965 73604 10245 21018 39752 40138 80008 333 10307 58008 87280
AAXX 22184 61099 32960 70206 10295 20030 39875 40103 80008 333 10340 58008 87280
AAXX 22181 28216 32899 71604 11079 21157 39928 40222 57016 87010 333 11064
AAXX 22181 28428 32998 51803 11079 21159 30082 40276 57020 80001 333 11056
AAXX 22181 28451 32996 81902 11081 21157 30148 40315 57013 80007 333 11065
AAXX 22181 28541 32984 70000 11078 21193 39796 40311 57015 80001 333 11028
AAXX 22181 28655 32998 72206 11125 21174 30137 40375 57007 80002 333 11105
AAXX 22181 28756 32997 72105 11148 21187 30242 40403 57013 87070 333 11135
AAXX 22181 29557 41497 82504 11102 21146 30047 40327 57006 78583 883// 333 88915
AAXX 22181 29625 41598 82605 11104 21140 30159 40347 57008 73632 885// 333 88623
AAXX 22181 29813 42999 22404 11110 21163 30186 40376 57008 80001
AAXX 22181 29822 42997 82503 11140 21175 30223 40399 57008 8805/
AAXX 22181 29915 41998 02404 11132 21184 30259 40429 57004 70231
AAXX 22181 36020 42998 02205 11147 21208 30236 40452 58003
AAXX 22181 23226 11560 82005 11084 21107 39957 40180 54000 69980 77172 885// 333 11084 88622
AAXX 22181 23701 11480 81001 11074 21083 30037 40172 56006 60010 70272 8802/ 333 11066 88515
AAXX 22181 28909 31499 81606 11089 21144 30165 40271 57002 77173 8472/ 333 11073 91012 91114
AAXX 22184 60672 36/// /0506 10140 21103 333 10179
AAXX 22181 15530 11911 82706 11008 21021 39959 40206 52012 60072 77377 8802/ 333 10004 21008 47015 555 59003 69999
AAXX 22181 89064 11401 81603 10005 29081 49864 57013 69901 72025 887//
AAXX 22184 60633 36/// /0209 10193 21099 333 10239
AAXX 22184 60664 36/// /0000 10145 21082 333 10199
AAXX 22184 60661 36/// /0407 10121 21129 333 10183
AAXX 22184 60679 36/// /0213 10032 21138 333 10090
AAXX 22184 60677 36/// /0000 10135 21074 333 10179
AAXX 22184 60650 36/// /0111 10164 21038 333 10195
AAXX 22184 60667 36/// /0000 10138 21048 333 10176
AAXX 22184 60676 36/// /3410 10121 21053 333 10167
AAXX 22184 60662 36/// /0000 10106 21095 333 10153
AAXX 22184 60692 36/// /0308 10213 21095 333 10262
AAXX 22184 60691 36/// /0310 10200 21100 333 10255
BBXX 41052 22181 99183 70648 46/// /0710 10267 40163 91750 333 91212
BBXX 41052 22181 99183 70648 46/// /0810 10268 40164 91740 333 91213
AAXX 22181 56146 32980 03402 11031 21208 36679 52003 333 05203 10132
AAXX 22181 56444 32980 02702 11029 21169 36798 57002 333 05100 10101
AAXX 22181 56492 11725 83202 10061 20044 39862 40281 52004 69971 76066 885// 333 05252 10083
AAXX 22181 56571 32980 03602 10061 21006 38387 52009 333 05501 10141
AAXX 22181 57799 32762 83202 10063 21002 30188 40280 57009 885// 333 10087
AAXX 22181 57866 31758 80701 10056 20026 30075 40289 57008 71000 885// 333 10076
AAXX 22181 57957 31757 70403 10073 20014 30067 40271 57003 71000 875// 333 10107
AAXX 22181 57993 32760 83402 10068 20031 30098 40269 57004 885// 333 10105
AAXX 22181 58027 31956 00000 11044 21085 30257 40311 57010 71000 333 10048
AAXX 22181 58141 31950 00000 11037 21070 30299 40319 57012 71000 333 10047
AAXX 22181 58265 32961 02904 10001 21031 30301 40309 52001 333 10071
AAXX 22181 58472 32480 83412 10050 21002 30186 40283 57002 8217/ 333 10076
AAXX 22181 58477 32480 23605 10050 21012 30237 40283 57002 82100 333 10089
AAXX 22181 58527 32960 00201 10030 21033 30209 40288 57006 333 10094
AAXX 22181 58633 32960 00403 10029 21024 30191 40295 57003 333 10083
AAXX 22181 58666 32562 83613 10058 20008 30162 40267 57002 888// 333 10093 91117 91536
AAXX 22181 58725 32760 81601 10066 20034 39996 40266 57004 885// 333 10085
AAXX 22181 58921 11940 83403 10085 20066 39995 40248 57001 69901 72160 8807/ 333 10120
AAXX 22181 59082 31658 83604 10084 20015 30104 40254 54000 70500 885// 333 10142
AAXX 22181 59211 32962 80402 10125 20065 30010 40220 52001 8807/ 333 10151
AAXX 22181 59265 31957 00704 10086 20022 30094 40235 52002 70500 333 10172
AAXX 22181 59293 32963 00204 10086 20020 30151 40238 52004 333 10176
AAXX 22181 59501 32760 80202 10122 20049 30189 40210 52003 885// 333 10210
AAXX 22181 59663 31956 00405 10125 20050 30093 40202 57002 70500 333 10209
AAXX 22181 59838 32762 70704 10199 20143 30147 40157 57011 875// 333 10252
AAXX 22181 59948 32370 70708 10166 20128 39679 40167 57006 86102 333 10206
AAXX 22181 59981 32570 70704 10232 20174 30139 40146 57004 84102 333 10259
AAXX 22181 80001 01570 60907 10282 20245 30112 40113 69931 70252 333 56200 58000 69937 81820 85270
AAXX 22181 80002 11470 50707 10280 20246 60011 70165 84101 333 562// 84218
AAXX 22181 80009 31560 10000 10310 20236 30073 40078 70500 81800 333 560// 59003 81820
AAXX 22181 80022 31566 20306 10310 20239 30079 40081 70500 81101 333 56699 58000 81825
AAXX 22181 80028 31460 30504 10306 20245 30056 40091 70500 83500 333 561// 59007 83615
AAXX 22181 80035 31565 51006 10296 20233 30112 40117 70521 82236 333 56299 57812 58004 82820 83360
AAXX 22181 80036 31568 20707 10332 20203 70500 81801 333 560/0 81820
AAXX 22181 80063 NIL
AAXX 22181 80084 31562 73303 10305 20219 70521 8383/ 333 5649/ 83825 85358
AAXX 22181 80091 31465 32803 10318 20232 70521 83200 333 560// 83815
AAXX 22181 80094 31468 33005 10242 20204 38787 70500 82170 333 5679/ 59002 82815
AAXX 22181 80097 NIL
AAXX 22181 80099 31466 30904 10308 20227 39917 40060 70500 83101 333 569/9 59003 83815
AAXX 22181 80110 31670 32003 10286 20110 38486 70500 83100 333 560// 58006 83835
AAXX 22181 80112 31570 11406 10215 20090 37893 70510 81100 333 562// 58003 81823
AAXX 22181 80139 NIL
AAXX 22181 80144 11560 21603 10300 20228 69941 70552 82200 333 560// 82820
AAXX 22181 80149 NIL
AAXX 22181 80210 31565 22101 10265 20172 38642 70500 82800 333 562// 57823 58000 82825
AAXX 22181 80211 31570 50000 10266 20183 70522 83230 333 5631/ 83830 83360
AAXX 22181 80214 31560 31504 10290 20208 39099 70500 82805 333 565/9 59004 82820
AAXX 22181 80222 31568 50906 10191 20072 37511 70522 85805 333 562/9 58003 85823
AAXX 22181 80234 32562 21701 10316 20183 39598 40090 81101 333 562/9 59013 81823
AAXX 22181 80241 NIL
AAXX 22181 80259 31560 30902 10303 20205 39027 70510 83100 333 5683/ 58002 83830
AAXX 22181 80342 32570 43304 10232 20178 38196 84800 333 563// 59002 84825
AAXX 22181 80342 32570 43304 10232 20178 38196 84800 333 563// 59002 84825
AAXX 22181 80370 11461 71703 10108 20082 69921 71552 86850 333 5633/ 86818
AAXX 22181 80398 32470 53203 10303 20255 30009 40104 85104 333 562/9 58006 85817 84070
AAXX 22181 22845 11396 83501 11069 21074 39984 40147 58004 69900 77177 8672/ 333 11065 86709
AAXX 22181 23205 11698 82203 11071 21100 30132 40147 54000 69920 70272 885// 333 11030 88643 91105
AAXX 22181 27051 11396 80702 11068 21076 39954 40126 57015 60010 77177 8652/ 333 11062 84708
AAXX 22181 23711 11497 81402 11074 21087 30016 40196 57008 60020 78582 889// 333 11065
AAXX 22181 38954 329// 00000 11069 21168 37989 48800 51001 333 11023
AAXX 22181 38599 31925 00708 11049 21077 39800 40346 57014 71011 333 11022
AAXX 22181 38933 329// 00000 11054 21083 39796 40343 57014 333 11001
AAXX 22181 38734 429// 20502 11127 21179 47060 54000 80003
AAXX 22181 38725 429// 00000 11098 21199 48570 52004
AAXX 22184 61017 32960 50404 10206 39748 40159 80002 333 10250 58004 85080
AAXX 22184 61024 32960 21210 10240 21039 39579 40149 80002 333 10298 58007
AAXX 22184 61036 32965 70000 10284 20011 39885 40124 81038 333 10321 58007 81364 87280
AAXX 22184 61043 32960 70606 10270 21057 39685 40127 80008 333 10313 58010 87280
AAXX 22184 61045 32965 50402 10227 21005 39640 40143 80002 333 10286 58010 85080
AAXX 22184 61049 32960 70000 10225 20011 39806 40129 80008 333 10298 58014 87280
AAXX 22184 61052 32960 20606 10288 20004 39870 40128 80002 333 10318 58006 82080
AAXX 22184 61075 32960 50000 10276 20021 39813 40122 80002 333 10328 58014 85080
AAXX 22184 61080 32960 70602 10250 21008 39710 40135 80008 333 20309 58010 87280
AAXX 22184 61090 32960 70202 10247 21033 39620 40134 80008 333 10295 58018 87280
AAXX 22184 61091 32960 50000 10220 20082 39688 40151 80002 333 10302 58011 85080
AAXX 22184 61096 32965 73604 10245 21018 39752 40138 80008 333 10307 58008 87280
AAXX 22184 61099 32960 70206 10295 20030 39875 40103 80008 333 10340 58008 87280
AAXX 22181 50353 11970 80000 11310 21348 30003 40252 52001 69901 77000 80007 333 11208
AAXX 22181 50557 32970 00201 11319 21354 39925 40263 52003 333 11197
AAXX 22181 50756 32960 00000 11251 21288 39936 40266 57008 333 11188
AAXX 22181 50949 32965 02001 11186 21284 30075 40260 57010 333 11130
AAXX 22181 50963 11762 22503 11261 21289 30113 40265 57003 69921 70070 82500 333 11141
AAXX 22181 50978 32980 02902 11227 21262 39877 40256 57005 333 11115
AAXX 22181 51087 32980 00000 11267 21297 39460 40560 52001 333 00251 11180
AAXX 22181 51156 32980 00000 11174 21222 38867 40497 52002 333 00251 11089
AAXX 22181 51644 32960 03601 11129 21155 39123 40481 52003 333 00353 11025
AAXX 22181 51656 32975 01601 11092 21130 39301 40471 52002 333 00351 11023
AAXX 22181 51886 32980 21101 11137 21259 37146 52002 80002 333 00301 11060
AAXX 22181 52602 32980 03403 11153 21290 37296 52008 333 00203 11025
AAXX 22181 52713 32980 01102 11128 21245 36921 52002 333 00203 11032
AAXX 22181 52754 32980 00000 11139 21191 36784 52014 333 05102 11053
AAXX 22181 52818 32980 02502 11110 21252 37277 52010 333 00351 11029
AAXX 22181 52836 32980 01801 11151 21254 36922 52020 333 00200 11012
AAXX 22181 52955 32980 00000 11176 21235 36970 52011 333 00000 11024
AAXX 22181 53068 32980 02903 11162 21194 39105 40324 57001 333 05703 11078
AAXX 22181 53276 32980 02203 11138 21195 38896 40324 57002 333 11090
AAXX 22181 54135 32980 01602 11165 21259 30023 40263 57018 333 11094
AAXX 22181 54236 32970 02004 11143 21225 30162 40275 57017 333 11071
AAXX 22181 54539 32970 02001 11056 21128 30274 40289 57017 333 10012
AAXX 22181 54662 32975 02203 11023 21118 30173 40293 57017 333 11023
AAXX 22181 54753 32965 02002 11036 21102 30296 40303 57012 333 10015
AAXX 22181 54857 32972 03402 11022 21096 30219 40316 57008 333 10019
AAXX 22181 57067 32962 62001 11050 21091 39629 40338 52004 86030 333 10050
AAXX 22181 57178 32962 03401 11009 21064 30159 40324 57003 333 10071
AAXX 22181 57245 32962 81401 10048 21016 39947 40307 57001 8807/ 333 05301 10093
AAXX 22181 57297 31950 70000 11019 21054 30172 40319 57005 71000 8703/ 333 10052
BBXX 46111 22181 99481 71227 46/// /1403 10034 40299 58007 91800 22200 00055
BBXX 46112 22181 99481 71227 46/// /1301 10029 40301 56007 91800
BBXX 46249 22181 99338 71197 46/// ///// 1//// 91812 22200 00145 10604 20604 328// 41302 70020
BBXX 46248 22181 99461 71247 46/// ///// 1//// 91804 22200 00080 11203 20902 328// 41203 70017
BBXX 46244 22181 99409 71244 46/// ///// 1//// 91805 22200 00095 11204 21003 329// 41203 70022
AAXX 22184 84072 31575 60410 10201 20097 37281 70544 86200 333 58001 555 30051
AAXX 22184 84204 31668 70504 10326 20201 70544 83810 555 30048
AAXX 22184 84135 32575 70404 10313 20225 30036 85230 333 59002 555 30059
AAXX 22184 84088 32675 50902 10182 20069 37053 85200 333 58003 555 30048
AAXX 22184 84202 31575 82304 10320 20214 30119 70544 8421/ 333 59005 555 30053
AAXX 22184 84143 32570 71814 10163 20107 37393 87100 333 58000 555 30069
AAXX 22184 84036 31570 72706 10159 20105 70542 84231 555 30067
AAXX 22184 84050 31575 82208 10282 20212 70544 8521/ 555 30066
AAXX 22184 84270 31560 80406 10166 20104 71622 887// 555 30067
AAXX 22184 84076 31565 63202 10214 20118 70544 86400 555 30054
AAXX 22184 84160 31460 81402 10133 20088 37265 74044 888// 333 58002 555 30074
AAXX 22184 84140 31575 60902 10302 20218 39998 40083 70544 86800 333 59005 555 30061
AAXX 22184 84008 32570 61808 10265 20210 30107 40117 84830 00218 333 58010 555 30072
AAXX 22184 84179 11565 70000 10211 20196 39062 60011 72165 87800 333 59009 555 10013 30091
AAXX 22184 84056 31280 60516 10198 20011 70544 86800 555 30029
AAXX 22184 84105 32562 71404 10295 20227 39986 83110 333 59001 555 30067
AAXX 22184 84132 11575 73204 10286 20247 39885 60031 70546 84250 333 58001 555 10031 30079
AAXX 22184 84018 31570 72913 10281 20240 30083 40090 70544 83239 333 58005
AAXX 22184 84027 11570 80906 10118 20092 37173 47145 69921 70252 882// 333 58005 555 10002
AAXX 22184 84063 32580 60000 10293 20234 39757 40085 82130 333 59001
AAXX 22184 84069 31460 72103 10260 20212 70242 85230
AAXX 22184 84071 32670 50705 10194 20072 37264 47115 85200 333 58002
AAXX 22184 84099 11570 72506 10280 20223 3//// 40110 69981 70162 83270 333 5//// 555 10008
AAXX 22184 84117 31560 42907 10279 20234 30066 40089 70544 82130 333 59003
AAXX 22184 84123 32670 71719 10176 20105 37282 47122 86230 333 58003
AAXX 22184 84163 11565 80404 10206 20197 38951 48501 60031 71662 8452/ 333 59008 555 10032
AAXX 22184 84176 32680 70528 10184 20111 86230
AAXX 22184 84200 31960 22410 10257 20208 70544 82030
AAXX 22184 84203 31660 50304 10326 20170 30069 40074 70544 82130 333 59001
AAXX 22184 84217 32558 80112 10230 20190 8521/
AAXX 22184 84239 32680 80604 10190 20095 37532 47144 8623/ 333 58001
AAXX 22184 84252 31465 63207 10292 20226 30083 40091 70544 82830 333 58000
AAXX 22184 84265 32680 61605 10280 20131 38751 86100 333 58018
BBXX 46241 22181 99330 71173 46/// ///// 1//// 91741 22200 00143 11301 20501 326// 41301 70007
BBXX 46240 22181 99366 71219 46/// ///// 1//// 91812 22200 00122 11102 20901 334// 41102 70012
BBXX 46237 22181 99378 71226 46/// ///// 1//// 91810 22200 00111 11303 21002 325// 41303 70016
BBXX 46217 22181 99342 71194 46/// ///// 1//// 91812 22200 00145 10503 20503 327// 41301 70016
BBXX 46216 22181 99343 71198 46/// ///// 1//// 91757 22200 00144 11302 21002 326// 41302 70012
BBXX 46223 22181 99335 71178 46/// ///// 1//// 91800 22200 00150 11302 21001 327// 41302 70010
BBXX SHIP 22184 99160 11443 41/98 30813 10276 20236 40066 57013 70200 8//// 22213 00290 10605 20102 308// 40804
BBXX 46231 22181 99327 71174 46/// ///// 1//// 91754 22200 00148 11402 21001 328// 41402 70010
BBXX 46222 22181 99336 71183 46/// ///// 1//// 91756 22200 00151 11402 21001 327// 41402 70010
BBXX 46242 22181 99332 71174 46/// ///// 1//// 91758 22200 00143 11301 20601 323// 41301 70006
AAXX 22184 91945 06/// /0716 10276 20230 30139 40144 51016 60021 333 60027
AAXX 22184 41254 36/// /9902 10044 21008 37951 47956 333 0E004 10132 59053
BBXX V2NA1 22184 99486 70084 41598 82119 10130 20103 40283 57003 70222 887// 22223 04110 20404 329// 41005 80115
BBXX 62163 22184 99475 70084 46/// /2115 10123 20080 40302 58002 22200 00127 10704 70022
BBXX 64045 22184 99591 70117 46/// /2336 10088 20039 49908 56012 22200 00101 10915 70074 333 90710 91152
BBXX 62105 22184 99554 70121 46/// /2622 10104 20069 40068 53012 22200 00109 10811 70055 333 90710 91134
BBXX 62029 22184 99487 70125 46/// /2021 10130 20118 40240 56011 22200 00130 10707 70035 333 90710 91128
BBXX 62001 22184 99452 70050 46/// /0808 10133 20079 40322 52002 22200 00141 10704 70019
BBXX 64046 22184 99606 70049 46/// /2129 10102 20095 49940 57039 22200 00075 10810 70052
BBXX 62081 22184 99510 70134 46/// ///// 10128 20113 40166 57015 22200 00119 10810 70048
BBXX 62301 22184 99524 70047 46/// /2214 10102 20094 40228 56015 22200 00088 10403 70015
BBXX 62442 22184 99490 70164 46/// /2125 1//// 2//// 40178 56010 22200 00126 333 90710 91132
BBXX 62303 22184 99516 70051 46/// /2316 10120 20100 40246 57010 22200 00111 10503 70017
BBXX 63110 22183 99595 10015 41/97 /2228 10098 40054 700// 8//// 22200 10604 70022
BBXX PJAI 22184 99581 70014 47998 /1920 10111 20063 40075 57025 700// 22200
BBXX 62111 22184 99580 70003 46/// /2225 10101 20080 40100 56019 22200 10503 70016
BBXX 63056 22184 99597 10016 47797 /2225 10095 20086 40052 57015 700// 22200 10605 70024
BBXX 63110 22184 99595 10015 47797 /2221 10098 20087 40058 57016 700// 22200 10605 70023
BBXX 63057 22184 99592 10015 47697 /2424 10100 20083 40067 57016 700// 22200 10704 70022
BBXX 62128 22184 99587 10014 47798 /2323 10101 20083 40082 57014 700// 22200 10603 70017
BBXX 62129 22184 99584 10003 46/// ///// 10107 20077 40094 56014 22200
BBXX 62113 22184 99584 10002 47898 /2228 10107 20075 40095 56012 700// 22200
BBXX ZQSD5 22184 99583 10007 46/// /2224 10105 20079 40091 57017 22200 10604 70020
BBXX 62112 22184 99584 70002 47897 /2022 10101 20073 40083 56019 700// 22200
BBXX 63055 22184 99606 10016 47997 /2114 10100 20091 40036 57019 700// 22200 10504 70020
BBXX 63108 22184 99608 10017 47796 /2223 10094 20080 40029 57019 700// 22200 10705 70024
BBXX 63106 22184 99610 10017 46/// /2223 10098 40018 56020 22200
BBXX 63105 22184 99610 10017 47796 ///// 10101 20089 40019 57021 700// 22200
BBXX 63113 22184 99610 10017 46/// /2323 10100 20090 40026 57019 22200 10706 70030
BBXX 63112 22184 99611 10010 47496 /2424 10121 20078 40005 57023 700// 22200 10707 70033
BBXX 63107 22184 99611 10017 46/// /2225 10100 40015 57021 22200
BBXX 63101 22184 99612 10009 46/// /2521 10100 20084 40005 57028 22200
BBXX 63103 22184 99612 10011 46/// /2426 10102 20087 40015 57021 22200 10706 70031
BBXX 63104 22184 99612 10016 47796 /2225 10097 20091 40010 57025 704// 22200
BBXX 63117 22184 99613 10011 47496 /2226 10204 20095 40007 57024 704// 22200
BBXX 63115 22184 99616 10013 47396 /2124 10137 20091 49992 57025 700// 22200 10708 70039
BBXX MWYG6 22184 99603 70040 47496 /2016 10109 704// 22200
BBXX 64041 22184 99607 70026 47396 /1932 10100 20097 49978 57031 762// 22200 10808 70039
BBXX 62142 22184 99530 10021 47997 /2717 10098 20075 40220 52008 700// 22200 10302 70009
BBXX 62145 22184 99531 10028 47797 /2412 10097 20076 40224 52005 700// 22200 10403 70014
BBXX 62144 22184 99534 10017 47997 /2517 10091 20073 40219 51005 700// 22200 10402 70010
BBXX 62121 22184 99535 10027 46/// ///// 22200
BBXX 62150 22184 99536 10007 47998 /2510 10099 20073 40222 51003 700// 22200 10402 70008
BBXX 62148 22184 99536 10015 46/// /2413 10095 20077 40214 51004 22200
BBXX 62149 22184 99537 10011 47998 /2313 10097 20074 40214 52002 751// 22200 10402 70010
BBXX 62131 22184 99539 10012 46/// /26// 10110 20075 40203 50002 22200
BBXX 62127 22184 99540 10007 47998 ///// 10114 20070 40204 51003 700// 22200 10402 70009
BBXX 62165 22184 99540 10009 47998 /2521 10110 20071 40206 50001 700// 22200 10402 70011
BBXX 62123 22184 99563 10022 47797 /2620 10102 20085 40142 58005 700// 22200
BBXX 62132 22184 99564 10020 46/// /2714 10101 20084 40143 58009 22200
BBXX 62120 22184 99564 10021 47797 /2721 10101 40142 58003 700// 22200
BBXX 62154 22184 99564 10022 46/// /2621 10101 20086 40141 58005 22200
BBXX 62152 22184 99570 10018 47/97 /2414 10102 20083 40135 57009 700// 22200 10404 70020
BBXX 62119 22184 99570 10019 47797 /2721 10105 20084 40135 57008 700// 22200 10504 70019
BBXX 62114 22184 99583 10000 46/// /2027 10104 20076 40083 57016 22200
BBXX 62134 22184 99580 10014 47797 /2321 10102 20084 40100 58015 700// 22200 10503 70015
BBXX 62102 22184 99579 10018 46/// /2316 10099 20080 40104 58012 22200 10503 70017
BBXX 62117 22184 99579 10000 47997 /2125 10101 20080 40099 56009 700// 22200 10504 70019
BBXX 62143 22184 99577 10018 47797 /2418 10101 20084 40110 58018 700// 22200 10504 70018
BBXX 62118 22184 99577 10009 47996 /2326 10114 20080 40100 57015 704// 22200 10504 70019
BBXX 62155 22184 99577 10007 47997 /2425 10103 20085 40112 57012 700// 22200 10504 70020
BBXX 62116 22184 99576 10011 47997 /2529 10101 20081 40103 58016 700// 22200 10504 70019
BBXX 62104 22184 99574 10013 47997 /2521 10103 20085 40109 58015 700// 22200
BBXX 62153 22184 99573 10020 47797 /2415 10100 20086 40119 58012 700// 22200 10504 70019
BBXX 62122 22184 99573 10016 47797 /2419 10103 20083 40125 58011 700// 22200 10503 70016
BBXX 62140 22184 99573 10013 46/// /26// 10102 20085 40109 58015 22200
BBXX 62146 22184 99572 10021 47/96 /2515 10099 20080 40126 58012 704// 22200 10504 70020
BBXX 62164 22184 99572 10008 47997 /2220 10110 20083 40124 56010 700// 22200 00094 10605 70024
BBXX PJGO 22184 99571 10022 47796 /2415 10098 20089 40129 57008 700// 22200
BBXX 62133 22184 99571 10009 46/// /2329 10104 20072 40118 57014 22200 10504 70021
BBXX 62027 22184 99491 70022 46/// /2909 1//// 2//// 40295 55002 22200 00114 11102 329// 70012
BBXX DPTL 22184 99345 70075 41598 60104 10170 20137 40260 51005 70311 86500 22254 20000 331// 40501 5//// 80150
BBXX LAXP4 22184 99366 70295 41597 80111 00/// 10210 2020/ 40292 52010 70222 86526 22253 00190 20401 325// 40403 80200 NNNN
BBXX 63119 22184 99583 10009 41/97 62423 10102 20073 40081 58/// 701// 8//// 22200 2//// 322// 40603 5////
BBXX 62094 22184 99517 70067 46/// /2221 10116 20103 40230 58011 22200 00107 10504 70022 333 90710 91130
BBXX 62103 22184 99499 70029 46/99 /2684 10123 20093 40278 57007 22200 00122 10702 70010
BBXX 62170 22184 99514 10020 46/97 /2513 10108 20092 40252 52004 22200 00109 10501 70003
BBXX 62304 22184 99511 10018 46/98 /2411 10110 20090 40257 52005 22200 00110 10601 70003
BBXX 64045 22184 99591 70117 46/// /2336 10088 20039 49908 57012 22200 00099 10915 70074 333 90710 91152
BBXX 62305 22184 99504 10000 46/98 /2723 10120 20092 40279 54000 22200 00120 10602 70008 333 90710 91130
BBXX 62107 22184 99501 70061 46/// /2419 10121 20090 40277 58001 22200 00117 10904 70019
BBXX 62095 22184 99531 70159 46/// /2616 10105 20069 40120 52016 22200 00113 10910 70049
BBXX 62305 22184 99504 10000 46/98 /2723 10120 2//// 40279 54000 22200 00120 10602 70008 333 90710 91130
BBXX PFFH 22183 99374 10008 41/98 /2310 10154 40250 57003 70000 8//// 22263 00159 2////
BBXX 62103 22184 99499 70029 46/99 /2514 10123 20096 40280 55002 22200 00122 10702 70010
BBXX PDXQ 22183 99469 70138 41398 81818 10140 20114 40270 53005 70000 84770 22223 04125 20504 325// 40605 80125
AAXX 22184 40582 31940 31406 10149 20120 40197 50030 71000 80001 333 55300 00000 10243 20000 30000 41119 51361 60000 55407 40000 90400 91007 91117 91211 91307
AAXX 22184 41150 NIL
AAXX 22184 41168 NIL
AAXX 22184 41170 NIL
AAXX 22184 41176 NIL
AAXX 22184 41184 NIL
AAXX 22184 41194 NIL
AAXX 22184 41196 NIL
AAXX 22184 41198 NIL
AAXX 22184 41210 NIL
AAXX 22184 41216 NIL
AAXX 22184 41217 NIL
AAXX 22184 41218 NIL
AAXX 22184 41226 NIL
AAXX 22184 41244 36/// /1300 10167 21030 39840 48230 333 0E018 10247 59015
AAXX 22184 41246 32960 02204 10178 20075 30191 40196 333 10239 59020
AAXX 22184 41254 36/// /9902 10044 21008 37951 47956 333 0E004 10132 59053
AAXX 22184 41256 32960 02002 10180 20053 30188 40198 333 10233 59020
AAXX 22184 41258 36/// /1801 10212 20061 30188 40193 333 0E/// 10232 59019
AAXX 22184 41268 NIL
AAXX 22184 41312 36/// /2802 10224 20139 30135 40175 333 0E/// 10279 59012
AAXX 22184 41314 36/// /0204 10178 20059 39672 40226 333 0E017 10239 59013
AAXX 22184 41316 32960 03304 10213 20105 30150 40177 333 10281 59011
AAXX 22184 41404 42960 03201 10111 21077 37889 48551 333 10246 59010
AAXX 22184 41407 NIL
AAXX 22184 41431 41958 01806 10256 20224 30120 40133 70544 333 10286 59013
AAXX 22184 41466 42960 00000 10146 20108 38580 48482 333 10244 59014
AAXX 22184 41477 NIL
AAXX 22184 41480 42460 11007 10255 20159 30171 40174 81500 333 10284 59002 81618
AAXX 22184 83096 32695 10905 10291 20232 30105 40112 81100 333 58000
AAXX 22184 83186 32598 51408 10310 20109 39548 40069 81104 333 59002
AAXX 22184 83242 32497 81406 10322 20192 39613 40100 82733 333 58008
AAXX 22184 83288 32598 52303 10307 20203 39598 40084 82106 333 58014
AAXX 22184 83344 32498 81406 10251 20196 39152 40116 81126 333 58008
AAXX 22181 29998 42999 01801 11144 21195 38647 48510 57003
AAXX 22181 30385 42999 00201 11362 21378 39735 40348 52004
AAXX 22181 30469 429// 60000 11413 21426 39491 40380 52012 80002
AAXX 22181 30636 429// 00000 11341 21359 39663 40358 52002
AAXX 22181 30650 42984 00000 11380 21403 39101 40390 52004
AAXX 22181 30664 42999 00000 11396 21417 39242 40393 52005
AAXX 22181 30781 42999 00000 11420 21444 39802 40358 52004
AAXX 22181 30777 42998 00000 11373 21401 39601 40356 52008
AAXX 22181 30844 41599 52703 11167 21193 39261 40293 52003 70173 85800 333 85631
AAXX 22181 30925 429// 00101 11154 21167 39288 40313 54000
AAXX 22181 31371 42999 00000 11323 21353 39955 40253 52005
AAXX 22181 31388 41956 80000 11302 21313 39955 40249 58001 77171 80007
AAXX 22181 31478 NIL
AAXX 22181 31532 41996 82001 11210 21222 39853 40221 58002 77172 8802/
AAXX 22181 31594 42998 00000 11345 21362 30057 40253 53003
AAXX 22181 31655 42997 62302 11212 21218 30159 40211 52007 86050
AAXX 22181 31754 41597 80000 11215 21233 39663 40202 52003 78587 84907
AAXX 22181 38388 NIL
AAXX 22181 38392 32997 81007 11062 21143 30200 40310 57012 80002 333 10017
AAXX 22181 38507 32996 40000 10004 21019 30112 40218 58002 80001 333 10089
AAXX 22181 38511 NIL
AAXX 22181 38545 32998 00803 11072 21139 30133 40321 57002 333 10019
AAXX 22181 38647 32997 00906 11009 21092 30158 40202 57002 333 10038
AAXX 22181 38656 NIL
AAXX 22181 38687 32996 01803 11066 21094 30061 40311 57007 333 10033
AAXX 22181 38750 32997 02702 10037 20022 30237 40208 53004 333 10081
AAXX 22181 38763 32997 00905 10008 21078 30112 40221 57002 333 10038
AAXX 22181 38774 32995 01402 11014 21043 30046 40250 57012 333 10044
AAXX 22181 38799 32996 00906 11014 21109 30054 40296 57007 333 10030
AAXX 22181 38806 32997 02301 11048 21106 30028 40304 57016 333 10039
AAXX 22181 38880 32997 01003 11009 21115 39980 40245 57008 333 10057
AAXX 22181 38886 31996 01102 11018 20197 30021 40260 57007 70500 333 10080
AAXX 22181 38895 31993 50905 11009 21038 39777 40279 57008 73332 80007 333 10045
AAXX 22181 38911 32997 01804 11044 21083 39994 40305 57002 333 10044
AAXX 22181 38915 32997 00000 11042 21047 39967 40309 58007 333 10042
AAXX 22181 38974 32998 02302 11022 21060 39900 40252 58002 333 10109
AAXX 22181 38987 32996 02502 11022 21069 39504 40278 53003 333 10065
AAXX 22181 38847 3//// /2500 11072 21091 39510 40330 333 11020 777 92087
BBXX 41052 22181 99183 70648 46/// ///// 1//// 91800 22200 00272
BBXX 44067 22181 99384 70770 46/// /2102 10113 40186 56016 91800
BBXX 42085 22181 99179 70665 46/// ///// 1//// 91800 22200 00274
BBXX 44098 22181 99428 70702 46/// ///// 1//// 91807 22200 00087 10802 20802 70010
BBXX 46211 22181 99469 71242 46/// ///// 1//// 91806 22200 00080 11303 21002 327// 41302 70014
AAXX 22181 28465 32998 82206 11107 21151 30263 40345 57008 80001 333 11100
AAXX 22181 22165 11598 81503 11014 21019 30053 40115 52001 69940 70282 885// 333 10000
AAXX 22181 22282 115// 82305 11018 21026 30126 40134 54000 69920 70282 885// 333 11008
AAXX 22181 23929 32578 82303 11039 21116 30170 40238 57010 889// 333 11036
AAXX 22181 28696 31997 82305 11094 21170 30227 40375 57006 73631 80001 333 11085
AAXX 22181 28586 31997 62507 11080 21148 30202 40358 57006 73632 80001 333 11062 91112
AAXX 22181 28588 31998 02404 11087 21172 30204 40371 57003 70131 333 11064 91113
AAXX 22181 28383 32997 82204 11071 21146 30223 40310 57002 8801/ 333 11042
AAXX 22184 16168 12965 03522 10038 21054 39441 42796 53003 60002 333 10094
AAXX 22181 28688 32997 02604 11112 21185 30224 40394 57007 333 11095
AAXX 22181 60381 36/// /1501 10134 20117 333 10202
AAXX 22181 60639 36/// /3008 10146 20007 333 10174
AAXX 22181 60605 36/// /0000 10191 21071 333 10207
AAXX 22181 60373 36/// /3102 10134 20133 333 10175
AAXX 22181 60623 36/// /0000 10125 21107 333 10164
AAXX 22181 60393 36/// /1201 10147 20123 333 10199
AAXX 22181 28791 32998 02505 11113 21166 30245 40400 57005 333 11101
AAXX 22184 04203 46/// /1506 11168 21205 39988 40006 57002
AAXX 22184 04205 47/57 /3004 11179 21238 39989 40012 52005 77777 333 11169 21233
AAXX 22184 04208 46/// /1010 11125 21161 39932 49978 57006
AAXX 22184 04213 46/// /2106 11158 21231 39852 49967 57013 333 11147 21159
AAXX 22184 04214 46/// /0703 11116 21171 39917 49950 57015
AAXX 22184 04224 45/84 /0714 11104 21191 39896 49929 57018 333 11098 21144
AAXX 22184 04228 NIL
AAXX 22184 04242 46/// /0918 11052 21091 39854 49870 57021
AAXX 22184 04253 46/// /1425 11043 21054 39868 49895 57008
AAXX 22184 04266 46/// /0922 11055 21067 39893 49931 57007
AAXX 22184 04285 46/// /0807 11040 21069 39942 49961 57009
AAXX 22184 04301 46/// /1102 11203 21234 39957 49962 57016
AAXX 22184 04313 46/// ///// 11115 21130 39953 49965 57016
AAXX 22184 04330 46/// /3410 11104 21153 39853 49870 57021
AAXX 22184 04351 46/// /2706 11115 21167 39836 49852 57010
AAXX 22184 04373 46/// /3232 11110 21182 39795 49888 52008
AAXX 22184 04382 46/// /2305 11066 21160 39877 49926 57005
AAXX 22184 04416 NIL
AAXX 22184 04048 21456 80227 10016 20005 49667 56034 76862 8672/ 333 10044 20010 60128 555 3/531
BBXX 41115 22181 99184 70673 46/// ///// 1//// 91805 22200 11305 21004 301// 41303 70025
BBXX 41114 22181 99276 70802 46/// ///// 1//// 91816 22200 00246 11202 20502 307// 41201 70012
BBXX 41037 22181 99340 70775 46/// /1804 10201 40197 58016 91800 22200 00174 333 91205
BBXX 46221 22181 99339 71186 46/// ///// 1//// 91745 22200 00148 11302 21001 326// 41301 70009
BBXX 51203 22181 99208 71570 46/// ///// 1//// 91813 22200 00249 11101 20801 323// 41101 70006
BBXX 52200 22181 99134 11448 46/// ///// 1//// 91815 22200 00287 11104 21004 310// 41102 70022
BBXX 51201 22181 99217 71581 46/// ///// 1//// 91812 22200 00240 10803 20803 334// 41101 70016
BBXX MZER8 22180 99295 11224 41297 83513 10075 20013 40272 54000 70222 887// 22200 00127 20202 335// 40403 5//// 80050
BBXX DGTX 22183 99330 11480 41596 83422 10170 20154 40030 57035 76366 8/8// 22264 00230 20504 80160
BBXX SHIP 22184 99353 11410 41297 43234 00/// 10100 20061 40075 52004 70211 82263 9//// 22253 00252 2//// 3//// 4//// 5//// 6//// 80080 THNKS/B.REGARDS MASTER PACIFIC GLORY INM C - 443272110
BBXX SHIP 22184 99113 11276 41698 40610 10250 20222 40066 57071 70200 8320/ 22284 00289 80230
BBXX A8CN8 22180 99511 11683 41396 83315 10000 40130 52050 70272 887// 22264 00040 2//08 327// 4//08 5////
BBXX 51205 22181 99210 71564 46/// ///// 1//// 91818 22200 00237 10904 20904 332// 41201 70022
BBXX 46114 22181 99364 71222 46/// ///// 1//// 91804 22200 00121 11305 20903 331// 41303 70024
BBXX PEBT 22183 99576 10109 41396 81916 10062 20027 40130 53010 75052 887// 22233 02070 20601 3//// 4//// 5//// 80046
BBXX SHIP 22184 99543 71743 41598 40113 10000 21000 40010 56006 70222 84/// 91800 22224 00040 2//// 3//// 4//// 80000
BBXX H9UY 22184 99232 71687 41899 40718 00/// 10230 40171 51015 70211 84131 9//// 22273 04250 20402 307// 40403 5//// 6//// 80200
BBXX SHIP 22184 99124 31277 41/97 22407 10296 20288 40012 57014 71399 8//// 2220/ 00307 10502 80290
BBXX SHIP 22184 99124 31277 41/97 22407 10296 20288 40012 57014 71399 8//// 2220/ 00307 10502 80290
AAXX 22181 21432 42998 01802 11280 21311 30354 40375 53005
AAXX 22181 21824 41997 82702 11324 21337 30354 40364 52008 77872 80005
AAXX 22181 21908 42999 00000 11475 21449 30239 40336 58001
AAXX 22181 21921 42999 20000 11426 21461 30339 40392 53003 82030
AAXX 22181 21931 42998 72302 11374 21407 30331 40368 52006 8705/
AAXX 22181 21946 41498 82204 11345 21381 30281 40371 52007 77872 885// 333 88611
AAXX 22181 21982 11598 83104 11162 21188 30208 40236 52012 69962 70273 8257/ 333 21172 48012 91120
AAXX 22181 25062 12597 82704 11250 21274 30303 40307 52009 69902 885// 333 21251 48040 91106
AAXX 22181 25123 41996 01503 11336 21365 30330 40367 52012 77102
AAXX 22181 25138 41999 30000 11412 21438 30240 40384 52008 77670 80001 333 91103
AAXX 22181 25173 11394 83211 11213 21225 30252 40257 53004 60012 77373 885// 333 21215 48068 91117
AAXX 22181 25248 42998 00000 11380 21409 39856 40374 52005 333 91100
AAXX 22181 25282 31980 33407 11205 21217 30215 40222 58008 73631 80001 333 21208 48009 91112
AAXX 22181 25325 NIL
AAXX 22181 25356 32999 22902 11205 21254 30153 40260 52009 81031 333 21207 48017 55000 91004
AAXX 22181 25399 31574 23305 11240 21258 30148 40158 58007 73630 82501 333 21240 48071 55000 91108
AAXX 22181 25428 41937 60000 11445 21475 30006 40403 52007 71011 80001 333 91100
AAXX 22181 25551 32998 02902 11266 21304 30223 40257 52007 333 21303 47035 55000 91104
AAXX 22181 25563 32984 03206 11282 21306 30150 40238 52003 333 21282 40030 55016 91108
AAXX 22181 25594 32998 00402 11306 21246 30103 40157 53005 333 21208 49040 91105
AAXX 22181 25677 31996 03410 11172 21184 30194 40200 52007 73830 333 21194 91112
AAXX 22181 31054 42999 50000 11438 21461 30075 40398 52001 80006
AAXX 22181 31123 41997 80000 11334 21362 39974 40343 52008 77172 82017
AAXX 22184 45011 47956 /0115 10131 20078 40203 54000 70411 333 58012
AAXX 22184 48352 31959 00000 10195 20153 39941 40147 57004 71000 333 58004
AAXX 22184 48383 31957 00000 10184 20150 39973 40137 56005 71000 333 58004
AAXX 22184 48433 31957 00000 10205 20167 39959 40128 57009 71000 333 58002
AAXX 22184 61600 32959 00606 10284 20005 30128 40133 333 10314 58004
AAXX 22184 61612 31945 00804 10277 21038 30140 40148 70600 333 10300 58013
AAXX 22184 61627 31948 00608 10290 20003 3//// 4//// 707// 333 10313 5////
AAXX 22184 61630 32960 00804 10286 20059 30114 40134 333 10310 58000
AAXX 22184 61641 31948 23610 10253 20166 30096 40129 70600 80002 333 10296 58008 82073
AAXX 22184 61666 32962 00404 10312 20071 30110 40119 333 10330 58004
AAXX 22184 61679 32965 30804 10315 20133 30119 40127 80002 333 10340 58011 83073
AAXX 22184 61687 31940 30308 10315 21031 30063 40120 70600 80001 333 10335 58005 83073
AAXX 22184 61695 32960 51004 10299 20112 30090 40116 80002 333 10321 58009 85073
AAXX 22184 61697 32960 20404 10290 20138 30096 40100 80001 333 10310 58003 82073
AAXX 22184 61698 32960 60802 10306 20100 30099 40110 80002 333 10336 58007 86073
AAXX 22184 61699 32958 41006 10310 20037 39915 40105 80002 333 10330 58005 84073
AAXX 22183 91802 NIL
AAXX 22183 91809 NIL
AAXX 22183 91831 36/// /0806 10273 20228 40119 52003 555 2////
AAXX 22183 91841 36/// /0804 10267 20220 40107 52013 555 20008
AAXX 22183 91843 31498 30806 10269 20233 40106 52012 60001 70380 83201 333 562/9 83818
AAXX 22183 91848 36/// /0903 10255 20238 40057 54000 555 20074
AAXX 22184 91643 11498 79903 10260 20243 40057 53013 60031 71628 8437/ 333 5689/ 84918 87460
AAXX 22184 48324 32960 20000 10169 20157 39913 40139 52001 80005 333 59004
AAXX 22181 80001 01570 60907 10282 20245 30112 40113 69931 70252 333 56200 58000 69937 81820 85270
AAXX 22181 80002 11470 50707 10280 20246 60011 70165 84101 333 562// 84218
AAXX 22181 80009 31560 10000 10310 20236 30073 40078 70500 81800 333 560// 59003 81820
AAXX 22181 80022 31566 20306 10310 20239 30079 40081 70500 81101 333 56699 58000 81825
AAXX 22181 80028 31460 30504 10306 20245 30056 40091 70500 83500 333 561// 59007 83615
AAXX 22181 80035 31565 51006 10296 20233 30112 40117 70521 82236 333 56299 57812 58004 82820 83360
AAXX 22181 80036 31568 20707 10332 20203 70500 81801 333 560/0 81820
AAXX 22181 80063 NIL
AAXX 22181 80084 31562 73303 10305 20219 70521 8383/ 333 5649/ 83825 85358
AAXX 22181 80091 31465 32803 10318 20232 70521 83200 333 560// 83815
AAXX 22181 80094 31468 33005 10242 20204 38787 70500 82170 333 5679/ 59002 82815
AAXX 22181 80097 NIL
AAXX 22181 80099 31466 30904 10308 20227 39917 40060 70500 83101 333 569/9 59003 83815
AAXX 22181 80110 31670 32003 10286 20110 38486 70500 83100 333 560// 58006 83835
AAXX 22181 80112 31570 11406 10215 20090 37893 70510 81100 333 562// 58003 81823
AAXX 22181 80139 NIL
AAXX 22181 80144 11560 21603 10300 20228 69941 70552 82200 333 560// 82820
AAXX 22181 80149 NIL
AAXX 22181 80210 31565 22101 10265 20172 38642 70500 82800 333 562// 57823 58000 82825
AAXX 22181 80211 31570 50000 10266 20183 70522 83230 333 5631/ 83830 83360
AAXX 22181 80214 31560 31504 10290 20208 39099 70500 82805 333 565/9 59004 82820
AAXX 22181 80222 31568 50906 10191 20072 37511 70522 85805 333 562/9 58003 85823
AAXX 22181 80234 32562 21701 10316 20183 39598 40090 81101 333 562/9 59013 81823
AAXX 22181 80241 NIL
AAXX 22181 80259 31560 30902 10303 20205 39027 70510 83100 333 5683/ 58002 83830
AAXX 22181 80342 32570 43304 10232 20178 38196 84800 333 563// 59002 84825
AAXX 22181 80342 32570 43304 10232 20178 38196 84800 333 563// 59002 84825
AAXX 22181 80370 11461 71703 10108 20082 69921 71552 86850 333 5633/ 86818
AAXX 22181 80398 32470 53203 10303 20255 30009 40104 85104 333 562/9 58006 85817 84070
AAXX 22184 65528 NIL
AAXX 22184 65536 NIL
AAXX 22184 65545 NIL
AAXX 22184 65548 NIL
AAXX 22184 65555 NIL
AAXX 22184 65557 32958 4//// 10290 20226 39863 40102 84009 333 10/// 58007 84976
AAXX 22184 65560 32460 6//// 10287 20192 39788 40095 85230 333 10325 58009 85815 84360 94914
AAXX 22184 65562 NIL
AAXX 22184 65563 32958 70604 10290 20225 39860 40099 80002 333 10328 58007 87076
AAXX 22184 65578 11458 62204 10278 20258 30091 40108 60152 72996 84902 333 10300 59002 81916 84620 85076 94908 95878
AAXX 22184 65585 NIL
AAXX 22184 65592 12460 3//// 10278 20242 30068 40090 69902 80002 333 10305 58001 83076
AAXX 22184 65594 31460 71602 10278 20251 30027 40101 71799 82303 333 10302 59001 82813 81920 85080 94908 94946 94916
AAXX 22184 65599 31460 6//// 10274 20254 30017 40091 71399 82302 333 10305 58005 82813 81916 86076 94902 94944 95834
AAXX 22181 14216 12980 50501 10038 21023 30072 40228 52/// 60002 80008 333 10096 923// 924/8
AAXX 22181 14219 12670 21303 11024 21046 39200 48491 51/// 60002 82500 333 10026 43015
AAXX 22181 14232 12981 02001 11013 21021 30102 40244 53/// 60002 333 10068
AAXX 22181 14234 11675 20301 10004 21014 39994 40249 52/// 60002 700// 82501 333 10052
AAXX 22181 14236 12665 60601 10035 21015 30036 40238 52/// 60002 86500 333 10062
AAXX 22181 14244 12460 72501 10009 21001 30114 40248 51/// 60002 87500 333 10062 42002
AAXX 22181 14248 12565 10502 10009 21022 30064 40244 52/// 69902 81600 333 10056
AAXX 22181 14253 11530 50000 10005 21013 30060 40240 52/// 60002 710// 85400 333 10060 43002
AAXX 22181 14256 12970 03403 10003 21032 39912 40242 52008 60002 333 10049 43015
AAXX 22181 14280 11940 60901 11010 21015 30122 40235 51009 60002 7102/ 86030 333 10016 44003
AAXX 22181 14308 12970 20000 10006 21034 39867 40232 51/// 60002 80001 333 10098
AAXX 22181 14321 12682 10303 10081 21052 30182 40207 52/// 60002 81400 333 10107 92323 92438
AAXX 22181 14370 12560 72501 10008 21010 30118 40231 52009 60002 87500 333 10052
AAXX 22181 14382 12560 61901 11001 21011 30116 40241 51012 60002 86500 333 10014 42002 93197
AAXX 22181 14428 12970 03503 10070 21068 30186 40193 51/// 60002 333 10105 92312
AAXX 22181 14441 11986 00504 10081 21052 30135 40160 52/// 60002 700// 333 10104 92313
AAXX 22181 14452 NIL
AAXX 22181 14454 12960 00109 10090 21095 30063 40123 51/// 60002 333 10095 91136 91501 92322
AAXX 22181 14462 12980 00206 10065 21068 30154 40160 52/// 60002 333 10088 91115
BBXX 46147 22181 99518 71312 46/// /1617 10078 40100 57038 22200 00079 10912 70060 333 91223
BBXX 46147 22181 99518 71312 46/// /1617 10078 40100 57038 22200 00079 10912 70060 333 91223
AAXX 22181 25703 41998 80000 11406 21438 30097 40413 52009 77172 84037
AAXX 22181 25745 NIL
AAXX 22181 25913 42699 70804 11187 21255 30109 40268 52008 85530
AAXX 22181 25954 41698 83403 11175 21225 30088 40209 52012 72682 885//
AAXX 22181 25956 42598 80606 11145 21207 30175 40181 52015 885//
AAXX 22181 31088 42999 23605 11240 21280 30272 40280 51005 82040
AAXX 22181 31873 42997 02702 11227 21249 30094 40241 51002
AAXX 22181 31909 41997 82811 11114 21187 39997 40077 56013 77173 8802/ 333 91018 91121
AAXX 22181 31960 42998 03410 11175 21254 39982 40236 58006 333 91016 91116
AAXX 22181 31961 42998 00802 11227 21275 30202 40253 58003
AAXX 22181 32053 41497 83403 11144 21157 30146 40198 57009 78582 889// 333 88911 91006 91106
AAXX 22181 32061 42978 21002 11126 21146 30126 40167 57009 80002 333 91004 91104
AAXX 22181 32098 41596 83403 11091 21102 30151 40161 58012 78582 889// 333 88922 91005 91107
AAXX 22181 32150 41596 81105 11006 21021 30033 40062 57036 78583 889// 333 91010 91114
AAXX 22181 32165 41598 60914 10002 21007 39982 40042 57045 78583 86900 333 91017 91121
AAXX 22181 32215 42996 03405 11052 21126 30195 40225 52009 333 91010 91113
AAXX 22181 32252 NIL
AAXX 22181 32389 41998 20000 11364 21376 30211 40253 52012 74040 82030
AAXX 22181 32477 42998 00902 11222 21263 30202 40237 52005
AAXX 22181 32583 42999 03503 11159 21186 30192 40224 52009
AAXX 22181 32618 41597 83609 11040 21066 30139 40161 52015 78582 889// 333 91012 91112
AAXX 22184 71307 17/// /3005 10054 20021 39931 40182 58008 69941 7//4/ 333 10054 20043 70009
AAXX 22184 71343 16/// /2615 10001 21090 60001 333 10001 21109 70004
AAXX 22184 71767 17/// /3206 10030 21015 39906 40168 50001 60031 7//4/ 333 10033 20009 70029
AAXX 22184 71276 16/// ///11 11011 21065 60001 333 11011 21094 70000
AAXX 22184 71407 16/// /2413 11313 21351 30059 40081 51006 60001 333 11291 21319 70000
AAXX 22184 71363 16/// /2406 11350 21388 30038 40096 58002 60001 333 11319 21350 70000
AAXX 22184 71375 46/// /2818 11008 6///1 333 10012 21064 7////
AAXX 22184 71979 16/// ///// 11002 21089 38508 40179 55005 60001 333 11002 21078 70006
AAXX 22184 71217 16/// /2707 11005 21076 60001 333 10009 21148 7////
AAXX 22184 71224 16/// /2715 11015 21112 60001 333 11014 21123 70000
AAXX 22184 71189 46/// /2811 10001 21038 6///1 333 10001 21069 7////
AAXX 22184 93800 16/// /1506 10130 20112 40257 54000 60001
AAXX 22184 93805 16/// /1306 10135 20122 40262 52001 60001
AAXX 22184 93994 16/// /1309 10203 20161 40128 52002 60001
AAXX 22181 08545 31940 03501 10099 20079 30220 40305 52001 71000 333 10164
AAXX 22181 08545 31940 03501 10099 20079 30220 40305 52001 71000 333 10164 555 60005
AAXX 22184 91487 NIL
AAXX 22184 91490 NIL
AAXX 22184 91533 NIL
AAXX 22184 91601 NIL
AAXX 22184 91610 11499 71115 10267 20249 40048 53004 60001 70300 86868 333 56399 82815 85482
AAXX 22184 91623 NIL
AAXX 22184 91629 NIL
AAXX 22184 91701 11489 50906 10269 2025/ 60001 71522 82208 333 562/9 82817 84280
AAXX 22184 89002 42899 72108 11018 21044 39784 49838 52007 84031
AAXX 22181 60379 16/// /0000 10130 20130 69922 333 10190
AAXX 22181 60380 36/// /0000 10125 20108 333 10188
AAXX 22181 30692 42999 40502 11350 21368 39719 40286 52/// 84030
AAXX 22181 50434 32980 00000 11391 21436 39309 40316 52003 333 11221
AAXX 22181 50527 32970 02001 11342 21376 39418 40316 54000 333 11266
AAXX 22181 50603 32978 00401 11247 21281 39549 40299 52009 333 11209
AAXX 22181 50632 11980 02901 11265 21297 39294 40278 52003 69901 70070 333 11200
AAXX 22181 50727 11570 70000 11285 21323 38984 40295 57005 69921 77070 82502 333 11214
AAXX 22181 50915 32980 00000 11200 21246 39202 40285 57001 333 11132
AAXX 22181 51716 32965 70000 11066 21105 39080 40461 52001 84032 333 00303 11038
AAXX 22181 51765 32980 00000 11145 21173 39402 40485 52004 333 00351 11016
AAXX 22181 51777 32970 42201 11106 21145 39357 40480 52004 80002 333 00402 11024
AAXX 22181 51811 32962 02701 11114 21140 38947 40462 52007 333 00252 10002
AAXX 22181 51828 32965 02002 11091 21134 38784 40453 52003 333 00251 11030
AAXX 22181 52267 32980 22704 11090 21207 39213 40389 54000 80002 333 05306 11042
AAXX 22181 52323 32980 02506 11147 21207 38321 57003 333 00006 11053
AAXX 22181 52495 32980 02705 11121 21224 38773 40388 52001 333 05305 11038
AAXX 22181 53149 32980 01601 11164 21204 38822 40337 57004 333 05651 11056
AAXX 22181 53192 32980 12001 11212 21233 38901 40346 57007 80002 333 11179
AAXX 22181 53231 32980 02004 11160 21222 38546 57003 333 05402 11086
AAXX 22181 53336 32980 22902 11119 21200 38767 40344 57006 80002 333 05603 11062
AAXX 22181 53391 32980 02908 11138 21183 38508 40306 57013 333 05606 11099
AAXX 22181 53529 32980 02201 11113 21225 38694 40365 57006 333 05404 11042
AAXX 22181 53543 32980 02904 11112 21213 38573 40326 57012 333 11041
AAXX 22181 53723 32970 02702 11114 21191 38737 40375 54000 333 05403 11035
AAXX 22181 54012 32980 02510 11161 21215 39010 40280 57014 333 11148
AAXX 22181 54026 32980 03202 11165 21252 39897 40248 57019 333 11087
AAXX 22181 54027 32980 00902 11175 21248 39630 40263 57013 333 11077
AAXX 22181 54208 32680 72703 11135 21181 38763 40302 57010 84502 333 11119
AAXX 22181 54776 32980 03205 11022 21134 30247 40307 57005 333 10000
AAXX 22181 56004 32980 02903 11187 21361 35791 57004 333 05151 11004
AAXX 22181 56033 32680 20402 11169 21308 35992 52002 81902 333 00001 11023
AAXX 22181 56046 32980 00000 11162 21218 36229 52003 333 00052 10007
AAXX 22181 56193 NIL
AAXX 22181 56196 11861 80401 10058 21001 40286 52003 69901 76060 885// 333 05251 10090
AAXX 22181 56287 11430 80000 10040 20030 40303 52004 69911 76060 885// 333 05152 10064
AAXX 22181 56684 32560 80701 10019 21002 37895 52001 885// 333 05402 10056
AAXX 22181 56751 32980 00905 10097 20014 37998 52002 333 05203 10200
AAXX 22181 56786 31558 80000 10054 20031 38101 57001 71000 884// 333 05402 10060
AAXX 22181 56977 32465 12701 10105 20103 40169 57005 81600 333 00052 10191
AAXX 22181 57259 32965 01801 10026 21008 40310 57002 333 10082
AAXX 22181 57279 32961 00401 10004 21056 40316 57002 333 10083
AAXX 22181 57348 32865 70000 10072 20023 40280 52002 87500 333 10125
AAXX 22181 57399 32960 00401 11001 21057 40313 57001 333 10114
AAXX 22181 57554 31958 80000 10040 20009 40307 57003 71000 8807/ 333 10077
AAXX 22181 57793 31756 81101 10063 21021 40286 57012 70500 885// 333 10094
AAXX 22181 58345 32961 00202 11003 21051 40320 57003 333 10066
AAXX 22181 58506 32963 00208 11042 21126 40304 57009 333 11002
AAXX 22181 58813 11663 83601 10061 20039 40269 57008 69901 70060 885// 333 10079
AAXX 22181 58834 32760 80403 10082 20044 40258 52001 885// 333 10120
AAXX 22181 58926 31657 81101 10108 20060 40230 57001 71000 885// 333 10175
AAXX 22181 58944 32560 80406 10109 20027 40242 57003 885// 333 10143
AAXX 22181 59096 32563 80204 10083 20023 40247 54000 885// 333 10164
AAXX 22181 59102 32661 83602 10068 20032 40250 57002 885// 333 10120
AAXX 22181 59278 31959 00204 10121 20043 40225 52003 70500 333 10187
AAXX 22181 59456 32966 00403 10134 20038 40200 57003 333 10218
AAXX 22181 59493 31756 70204 10128 20050 40210 52002 70500 87500 333 10195
AAXX 22181 59658 32760 60202 10144 20067 40188 57003 86500 333 10240
AAXX 22181 59673 32962 00209 10141 20069 40197 57006 333 10194
AAXX 22181 59845 32560 81403 10179 20136 40179 57011 888// 333 10227
AAXX 22184 62305 32960 02216 10156 20062 40113 57016 333 10164
AAXX 22184 62306 32960 02414 10146 20007 40138 52005 333 10190
AAXX 22184 62318 32960 00000 10104 20059 40149 54000 333 10192
AAXX 22184 62337 NIL
AAXX 22184 62366 32960 02202 10147 21006 40170 52009 333 10194
AAXX 22184 62393 32960 02803 10128 20054 40184 52008 333 10202
AAXX 22184 62405 32960 00000 10160 20084 40164 52008 333 10240
AAXX 22184 62414 32960 03607 10194 20030 40166 52011 333 10258
AAXX 22184 62417 32960 02305 10152 20025 40148 52010 333 10216
AAXX 22184 62440 32960 02704 10144 20065 40165 52011 333 10201
AAXX 22184 62463 32960 03206 10172 20089 40160 52013 333 10227
AAXX 22184 62465 32960 03004 10186 20137 40149 52011 333 10230
AAXX 22184 62419 NIL
AAXX 22184 62458 32960 03404 10172 20070 40156 52012 333 10210
AAXX 22184 62420 32960 00000 10128 20034 40175 52004 333 10206
AAXX 22184 62432 32960 03501 10160 20052 40193 52012 333 10216
AAXX 22184 62435 32960 03603 10148 20040 40177 52014 333 10228
AAXX 22184 62455 32960 03004 10180 20076 40156 52015 333 10212
AAXX 22184 62476 32960 00000 10226 20195 40141 51016 333 10254
AAXX 22184 62309 32960 02103 10137 20027 40135 54000 333 10186
AAXX 22184 62325 32960 01804 10128 20084 40158 52002 333 10203
AAXX 22184 62332 32560 22607 10151 20085 40165 52009 82500 333 10200
AAXX 22184 62387 32960 20000 10122 20032 40177 52008 80001 333 10210
AAXX 22184 62459 32960 00308 10167 20059 40156 52013 333 10221
AAXX 22184 62452 32960 03003 10130 20071 40181 52013 333 10212
AAXX 22184 62305 32960 02216 10156 20062 40113 57016 333 10164
AAXX 22184 62306 32960 02414 10146 20007 40138 52005 333 10190
AAXX 22184 62318 32960 00000 10104 20059 40149 54000 333 10192
AAXX 22184 62337 NIL
AAXX 22184 62366 32960 02202 10147 21006 40170 52009 333 10194
AAXX 22184 62393 32960 02803 10128 20054 40184 52008 333 10202
AAXX 22184 62405 32960 00000 10160 20084 40164 52008 333 10240
AAXX 22184 62414 32960 03607 10194 20030 40166 52011 333 10258
AAXX 22184 62417 32960 02305 10152 20025 40148 52010 333 10216
AAXX 22184 62440 32960 02704 10144 20065 40165 52011 333 10201
AAXX 22184 62463 32960 03206 10172 20089 40160 52013 333 10227
AAXX 22184 62465 32960 03004 10186 20137 40149 52011 333 10230
AAXX 22184 62419 NIL
AAXX 22184 62357 32960 02204 10140 20018 40162 52004 333 10204
AAXX 22184 62423 32960 01202 10114 20007 40187 52006 333 10201
AAXX 22184 62403 32960 02504 10160 20093 40168 52013 333 10228
AAXX 22184 62357 32960 02204 10140 20018 40162 52004 333 10204
AAXX 22184 62423 32960 01202 10114 20007 40187 52006 333 10201
AAXX 22184 62403 32960 02504 10160 20093 40168 52013 333 10228
AAXX 22184 62458 32960 03404 10172 20070 40156 52012 333 10210
AAXX 22184 62420 32960 00000 10128 20034 40175 52004 333 10206
AAXX 22184 62432 32960 03501 10160 20052 40193 52012 333 10216
AAXX 22184 62435 32960 03603 10148 20040 40177 52014 333 10228
AAXX 22184 62455 32960 03004 10180 20076 40156 52015 333 10212
AAXX 22184 62476 32960 00000 10226 20195 40141 51016 333 10254
AAXX 22184 62309 32960 02103 10137 20027 40135 54000 333 10186
AAXX 22184 62325 32960 01804 10128 20084 40158 52002 333 10203
AAXX 22184 62332 32560 22607 10151 20085 40165 52009 82500 333 10200
AAXX 22184 62387 32960 20000 10122 20032 40177 52008 80001 333 10210
AAXX 22184 62459 32960 00308 10167 20059 40156 52013 333 10221
AAXX 22184 62452 32960 03003 10130 20071 40181 52013 333 10212
BBXX 44039 22181 99411 70727 46/// /2404 10105 20078 40183 57013 91800 22200 00094 10301 70005 333 91206
BBXX 44060 22181 99413 70721 46/// ///04 10100 40171 91815 22200 00111 333 91205 555 11046 22046
BBXX 44022 22181 99409 70737 46/// ///05 10123 20044 40179 91815 22200 00084 333 91207 555 11057 22067
BBXX 41029 22181 99328 70796 46/// /1704 1//// 91800 555 11056 22066
BBXX 44039 22181 99411 70727 46/// /2405 10104 20079 40183 91745 22200 00095 10301 70005 333 91206
BBXX 2AJI3 22183 99046 10004 41497 31807 10290 20248 40107 55/// 70200 83100 22213 00280 20000 300// 4//// 5//// 80260
BBXX A8AF6 22183 99225 70176 41998 10514 10185 20118 40210 57020 70200 80007 22243 02180 20202 305// 40603 80145
AAXX 22184 60686 12960 00111 10190 21048 40205 57001 60002 333 10255
BBXX 46131 22181 99499 71250 46/// /1206 1//// 40301 57013 22200 00070 10301 70003 333 91207
BBXX 46131 22181 99499 71250 46/// /1206 1//// 40301 57013 22200 00070 10301 70003 333 91207
AAXX 22184 41257 36/// /3002 10153 20060 39714 40204 333 0E014 10229 59019
AAXX 22184 41268 36/// /0008 10204 20073 30176 48292 333 0E021 10242 59017
AAXX 22184 41295 36/// /0504 10170 20109 30002 40185 333 0E020 10254 59010
AAXX 22181 38511 32998 01103 11002 21120 30093 40239 53001 333 10045
AAXX 22181 38656 32998 00903 11002 21062 30138 40251 57005 333 10076
AAXX 22181 38388 32998 00904 11022 21143 30201 40274 58007 333 10044
AAXX 22181 60394 36/// /1901 10139 20123 333 10203
AAXX 22181 60374 36/// /1302 10141 20140 333 10181
AAXX 22181 60613 36/// /3106 10121 20016 333 10168
AAXX 22181 60376 36/// /2701 10150 20150 333 10183
AAXX 22181 60593 36/// /0000 10158 333 10199
AAXX 2218/ 89799 46/// ///// 11210 4//// 5////
AAXX 2218/ 89314 46/// ///// 11084 38220 4//// 5////
AAXX 2218/ 89869 46/// ///// 11053 39807 4//// 5////
AAXX 2218/ 89332 46/// ///// 11020 39178 4//// 5////
BBXX 46204 22181 99514 71288 46/// /0915 10068 40173 57036 22200 00082 10708 70039 333 91218
BBXX 46204 22181 99514 71288 46/// /0915 10068 40173 57036 22200 00082 10708 70039 333 91218
AAXX 22184 82098 32597 30709 10328 20240 30053 40070 82640 333 59013
AAXX 22184 82106 32698 61806 10334 20246 3//// 4//// 84501 333 5////
AAXX 22184 82113 21596 63202 10332 20252 3//// 4//// 72122 84208 333 5//// 69921
AAXX 22184 82212 31797 53204 10333 20241 30015 40097 70521 83342 333 58001
AAXX 22184 82246 32497 31102 10322 20250 39896 40092 83200 333 59003
AAXX 22184 82336 32598 61802 10233 20231 3//// 4//// 84208 333 5////
AAXX 22184 82425 32597 33602 10332 20270 3//// 4//// 82201 333 5////
AAXX 22184 82445 21598 40905 10318 20252 30039 40091 70162 82263 333 59009 69981
AAXX 22184 82460 32597 60503 10356 20225 30044 40073 84530 333 59002
AAXX 22184 82533 32497 21802 10340 20237 3//// 4//// 82200 333 5////
AAXX 22184 82562 32598 50905 10327 20236 39945 40051 84201 333 59015
AAXX 22184 82571 32497 31403 10314 20238 39898 40070 83200 333 59010
AAXX 22184 82704 21895 80000 10231 20223 39870 40065 70362 8807/ 333 58002 60231
AAXX 22184 82723 32598 40000 10332 20244 30014 40095 84200 333 59002
AAXX 22184 82765 32598 71803 10292 20252 39867 40106 83110 333 59006
AAXX 22184 82586 32598 40906 10330 20233 39841 40075 84200 333 58001
AAXX 22184 82678 21596 82703 10260 20231 39953 40093 70262 84522 333 58022 60011
AAXX 22184 82784 32598 31802 10301 20253 39628 40074 83200 333 58000
AAXX 22184 82791 32599 70509 10313 20177 39804 40080 87500 333 58013
AAXX 22184 82983 32597 61403 10342 20183 39661 40066 83200 333 59003
AAXX 22184 83064 21598 51805 10334 20231 39795 40060 70362 86700 333 59005 69961
AAXX 22184 83332 21697 71802 10246 20197 39192 40091 70362 83260 333 59003 60061
AAXX 22184 83423 21495 83602 10227 20197 39288 40104 75165 887// 333 58014 60051
AAXX 22184 83470 32698 73606 10265 20205 39241 40091 87200 333 58010
AAXX 22184 82042 32198 60500 10272 20255 3//// 4//// 83763 333 5////
AAXX 22184 82141 32598 40208 10307 20252 30068 40080 84200 333 59004
AAXX 22184 82145 32598 50904 10320 20224 30044 40085 83240 333 58001
AAXX 22184 82181 32496 20709 10329 20220 39957 40095 82200 333 59010
AAXX 22184 82198 32495 80508 10313 20208 30035 40086 8554/ 333 58002
AAXX 22184 82240 32596 40000 10344 20234 3//// 4//// 82201 333 5////
AAXX 22184 82317 32594 30902 10336 20245 3//// 4//// 82201 333 5////
AAXX 22184 82353 32598 61802 10317 20238 39961 40045 84340 333 58010
AAXX 22184 82361 32497 50504 10324 20244 30046 40083 84211 333 59006
AAXX 22184 82476 32595 53205 10353 20216 39952 40069 85200 333 59004
AAXX 22184 82610 21595 80000 10235 20227 3//// 4//// 702// 887// 333 5//// 60081
AAXX 22184 82807 21295 81802 10242 20230 3//// 4//// 70266 887// 333 5//// 60041
AAXX 22184 82861 31597 61406 10315 20248 39881 40048 71392 84340 333 59003
BBXX ZDLS1 22183 99672 50030 41397 71816 11016 21040 49823 52010 78522 8787/ 22252 05019 20101 30000 82023 ICE 46192
BBXX ZSAF 22184 99702 50081 41599 62703 11008 21050 49841 52007 70311 81536 22242 05013 20000 30000 40000 50000 ICE 78850
AAXX 22181 21802 42999 01503 11439 21465 30309 40338 58001
AAXX 22181 24125 42998 00000 11427 21438 39986 40321 58004
AAXX 22181 24136 42999 00000 11470 21501 30226 40345 54000
AAXX 22181 24143 42999 03601 11462 21492 30320 40380 52002
AAXX 22181 24266 42998 02601 11510 21530 30225 40442 52007
AAXX 22181 24329 42998 20000 11478 21505 39985 40348 57003 82010
AAXX 22181 24343 41996 81701 11448 21476 30242 40385 52001 77172 80007
AAXX 22181 24382 41994 00000 11478 21505 30128 40434 52005 71042
AAXX 22181 24639 41994 80000 11464 21485 30177 40362 54000 71074 80007
AAXX 22181 24641 42999 00701 11479 21511 30200 40373 52001
AAXX 22181 24652 42997 00402 11466 21494 30253 40402 52002
AAXX 22181 24656 42999 00000 11476 21511 30283 40409 54000
AAXX 22181 24671 42999 00000 11492 21516 39827 40445 52002
AAXX 22181 24688 41999 00000 11522 21551 39404 40533 52006 77600
AAXX 22181 24724 41999 02002 11373 21401 39723 40333 56001 70271
AAXX 22181 24738 41995 20000 11466 21489 30146 40358 53001 71011 80001
AAXX 22181 24768 41996 00000 11462 21498 30119 40401 53003 71040
AAXX 22181 24923 41995 80000 11426 21461 39999 40363 57001 71022 80006
AAXX 22181 24944 42996 40702 11478 21505 30037 40391 52005 80001
AAXX 22181 24951 42999 00000 11425 21448 30192 40391 51002
AAXX 22181 24661 41998 00000 11484 21511 30081 40405 53004 74000
AAXX 22181 24959 41992 80000 11410 21438 30237 40390 54000 77174 80005 333 96048
AAXX 22181 24962 41998 60901 11433 21461 30177 40401 52005 77171 80008
AAXX 22181 24966 42999 00000 11463 21485 30128 40392 53004
AAXX 22181 24967 41997 80000 11359 21386 30139 40391 52001 77172 80007
AAXX 22181 25206 41998 82202 11344 21374 30350 40381 52008 77177 80007
AAXX 22181 25400 41996 81801 11399 21421 30331 40396 52008 77172 82037
AAXX 22181 30054 41998 82101 11362 21390 30078 40357 52001 77172 80007
AAXX 22181 30089 42999 00000 11480 21505 30130 40404 51001
AAXX 22181 30393 41999 83401 11359 21380 39169 40363 52004 70272 80007
AAXX 22181 30493 41998 80902 11323 21359 39154 40330 52008 77172 8802/
AAXX 22181 31004 41996 00000 11373 21395 39412 40376 52003 71000
AAXX 22181 31137 41998 80000 11346 21367 39170 40343 51004 77172 80005
BBXX WHKM 22184 99140 10520 41997 00919 10230 20185 40155 52005 7//00 80/// 22213 0//// 2//// 3//// 4//// 5//// 6//// 80200 ICE /////
BBXX WKAE 22183 99464 70352 41498 63013 10083 20027 40280 52024 71522 86240 22264 00120 20202 328// 40910 5//// 6//// 80057 ICE /////
BBXX WKAB 22184 99314 10323 41/98 /2712 10170 20067 40168 51020 700// 8//// 222// 00186 20201 327// 40402 5//// 6//// 80115 ICE /////
BBXX WKPN 22184 99188 10591 41998 00719 10260 20132 40165 54000 70200 80000 22215 00277 20604 3//// 4//// 5//// 6//// 80180 ICE /////
BBXX S6SR 22184 99080 50010 41599 71411 10250 20236 40150 56020 7//22 87/4/ 22213 00240 2//02 32020 41503 51503 6//// 80240 ICE /////
AAXX 22181 30157 41998 30000 11345 21374 30037 40364 53002 70171 80001
AAXX 22184 91650 11599 70000 10267 2025/ 40056 53009 69951 70382 83802 333 569/9 83820 86080
AAXX 22184 91652 NIL
AAXX 22184 91656 NIL
AAXX 22184 91659 NIL
AAXX 22184 91660 NIL
AAXX 22184 91669 NIL
AAXX 22184 91670 36/// /1800 10251 20232 40073
AAXX 22184 91676 14/// /1801 10235 20227 30002 40063 50009 60351
AAXX 22184 91680 11698 81105 10230 20229 40076 53010 69941 70228 8487/ 333 5699/ 81830 84650 88461
AAXX 22184 91682 NIL
AAXX 22184 91683 11598 80000 10226 20223 40079 53012 60131 70182 8787/ 333 5699/ 84820 86648 87461
AAXX 22184 91691 14/// /0102 10238 20232 30078 40081 50016 60031
AAXX 22184 91693 11498 80000 10232 2023/ 40075 53004 60121 76166 8587/ 333 5699/ 83818 85643 86462
AAXX 22184 91697 14/// /0702 10230 20222 30080 40085 50018 60271
AAXX 22184 91699 14/// /1003 10253 20230 30051 40083 50006 60001
BBXX A8TX8 22183 99122 31070 41998 01510 10280 20244 40068 58015 700// 80000 22285 04290 20802 321// 41003 80255
BBXX VROB 22184 99378 31449 46/// /3404 10178 20146 30100 40126 57002 22200 04200 85158
BBXX VNAH 22184 99349 31158 46/// /1511 10180 20088 30122 40146 57010 22233 04205 85128
BBXX A8TX8 22183 99122 31070 41998 01510 10280 20244 40068 58015 700// 80000 22285 04290 20802 321// 41003 80255
BBXX VROB 22184 99378 31449 46/// /3404 10178 20146 30100 40126 57002 22200 04200 85158
BBXX VNAH 22184 99349 31158 46/// /1511 10180 20088 30122 40146 57010 22233 04205 85128
AAXX 22184 67765 42882 11801 10236 20154 38644 48489 81402 333 10316 59006 81657
AAXX 22184 67775 42780 10607 10230 20131 38485 48489 81400 333 10295 59006 81656
AAXX 22184 67779 NIL
AAXX 22184 67853 NIL
AAXX 22184 67861 NIL
AAXX 22184 67867 NIL
AAXX 22184 67881 NIL
AAXX 22184 67965 42980 11505 10249 20059 38662 48490 81501 333 10328 59012 81659
AAXX 22184 67975 42980 01102 10232 20120 38897 48490 333 10311 59007
AAXX 22184 67977 NIL
AAXX 22184 67983 42980 10902 10220 20176 38860 48489 81060 333 10297 59011 81360
AAXX 22184 67991 42980 01602 10314 20143 39518 48449 333 10382 59019
BBXX 44039 22181 99411 70727 46/// /2404 10105 20078 40183 91800 22200 00094 10301 70005 333 91206
BBXX 44060 22181 99413 70721 46/// ///04 10099 40170 91800 22200 00109 333 91205 555 11046 22046
BBXX 44060 22181 99413 70721 46/// ///04 10100 40171 91815 22200 00111 333 91205 555 11046 22046
BBXX 44022 22181 99409 70737 46/// ///05 10124 20044 40179 91800 22200 00084 333 91207 555 11057 22072
BBXX 44022 22181 99409 70737 46/// ///05 10123 20044 40179 91815 22200 00084 333 91207 555 11057 22067
BBXX 44040 22181 99410 70736 46/// /3003 10120 20050 40185 91815 22200 1//00 70000 333 91204 555 11041 22046
BBXX 46088 22181 99483 71232 46/// /0704 10038 40300 91820 22200 00077 1//00 70002 333 91206 555 11046 22047 31746 40706 61819 074044 082047 079052 072048 084044 071046
BBXX 46088 22181 99483 71232 46/// /0704 10038 40300 91820 22200 00077 1//00 70002 333 91206 555 11046 22047 31746 40706 61819 074044 082047 079052 072048 084044 071046
BBXX 46087 22181 99485 71247 46/// /1111 10056 20032 40284 91820 22200 00076 333 91214 555 11120 22127 31752 41114 61819 114113 118113 116116 112118 111116 109113
BBXX 42362 22181 99278 70907 46/// /2014 10239 20217 40159 57004 91800
BBXX 42362 22181 99278 70907 46/// /2013 10239 20222 40159 91815
BBXX 42364 22181 99291 70881 46/// /1907 10233 20217 40159 91815
BBXX 41036 22181 99342 70770 46/// ///// 10207 20180 40196 91820 22200 00188
AAXX 22184 41268 36/// /0008 10204 20073 30176 48292 333 0E021 10242 59017
BBXX A8AF6 22183 99225 70176 41998 10514 10185 20118 40210 57020 70200 80007 22243 02180 20202 305// 40603 80145
BBXX 2AJI3 22183 99046 10004 41497 31807 10290 20248 40107 55/// 70200 83100 22213 00280 20000 300// 4//// 5//// 80260
BBXX 2AJI3 22183 99046 10004 41497 31807 10290 20248 40107 55/// 70200 83100 22213 00280 20000 300// 4//// 5//// 80260
BBXX A8AF6 22183 99225 70176 41998 10514 10185 20118 40210 57020 70200 80007 22243 02180 20202 305// 40603 80145
BBXX S6SR 22184 99080 50010 41599 71411 10250 20236 40150 56020 7//22 87/4/ 22213 00240 2//02 32020 41503 51503 6//// 80240 ICE /////
BBXX WHKM 22184 99140 10520 41997 00919 10230 20185 40155 52005 7//00 80/// 22213 0//// 2//// 3//// 4//// 5//// 6//// 80200 ICE /////
BBXX WKPN 22184 99188 10591 41998 00719 10260 20132 40165 54000 70200 80000 22215 00277 20604 3//// 4//// 5//// 6//// 80180 ICE /////
BBXX C6IO9 22184 99274 70166 41898 33311 10190 20138 40267 54000 70100 8/045 22253 06195 20301 309// 40502 5//// 80160
BBXX PCIM 22184 99100 10687 41/98 /0313 10267 20219 40115 54000 70022 8//// 22234 00283 20602 80233
BBXX SHIP 22184 99353 11410 41297 43234 00/// 10100 20061 40075 52004 70211 82263 9//// 22253 00252 2//// 3//// 4//// 5//// 6//// 80080 THNKS/B/REGARDS MASTER PACIFIC GLORY INM C - 443272110
BBXX SHIP 22184 99113 11276 41698 40610 10250 20222 40066 57071 70200 8320/ 22284 00289 80230
BBXX MZER8 22180 99295 11224 41297 83513 10075 20013 40272 54000 70222 887// 22200 00127 20202 335// 40403 5//// 80050
BBXX SHIP 22184 99353 11410 41297 43234 00/// 10100 20061 40075 52004 70211 82263 9//// 22253 00252 2//// 3//// 4//// 5//// 6//// 80080 THNKS/B.REGARDS MASTER PACIFIC GLORY INM C - 443272110
BBXX A8CN8 22180 99511 11683 41396 83315 10000 40130 52050 70272 887// 22264 00040 2//08 327// 4//08 5////
BBXX DGTX 22183 99330 11480 41596 83422 10170 20154 40030 57035 76366 8/8// 22264 00230 20504 80160
BBXX SHIP 22184 99160 11443 41/98 30813 10276 20236 40066 57013 70200 8//// 22213 00290 10605 20102 308// 40804
BBXX SHIP 22184 99383 11514 41498 81133 10110 2009/ 40050 57020 75155 887// 22263 00160 20306 31111 40602 50602 6//// 80100 ICE /////
BBXX C6SI4 22184 99487 11551 43/// /0413 11040 2108/ 40220 52020 7//// 8//// 22253 00020 20303 3//// 40404 5//// 6//// 81050 ICE /////
BBXX DCPP2 22184 99056 10973 41697 20912 10253 20228 40085 57002 70100 821// 22265 20703 307// 40802 5//// 80235
BBXX PDZS 22183 99549 50358 41294 82403 10048 20044 49827 57030 70352 886// 22241 02040 20300 324// 41103 5//// 80046
BBXX 3EPD8 22184 99138 50352 41397 70820 10251 20220 40127 7//22 85760 22283 04273 299// 80230
BBXX ELWR5 22183 99027 50818 41/98 /2016 10230 20201 40090 50010 70211 8/635 22263 04253 20604 320// 41004 80210
BBXX IDDUK02 22184 99528 50448 46/// ///// 49874 222//
BBXX WBS5272 22184 99453 70834 41/98 83620 10027 2//// 40220 54000 70222 8//// 22272 0//// 20302 3//// 4//// 5//// 6//// 8//// ICE /////
BBXX WE3806 22184 99476 70874 41/98 93617 11055 2//// 40203 53/// 70222 8//// 22233 00050 2//04 3//// 4//// 5//// 6//// 8//// ICE /////
BBXX WDF7020 22184 99453 70833 41/97 83323 1//// 2//// 40179 54/// 70202 88/4/ 22273 0//// 20302 3//// 4//// 5//// 6//// 8//// ICE /////
BBXX WE3592 22184 99473 70867 43/// 80117 11055 2//// 40210 5//// 70007 8//// 222// 0//// 2//// 3//// 4//// 5//// 6//// 8//// ICE /////
AAXX 22184 42309 31995 10000 10116 20104 40135 70500 81030 333 59007
AAXX 22184 42314 31595 20000 10124 20101 40152 70500 81530 333 59016 81620
AAXX 22184 42398 31992 00000 10081 20081 40149 74440 333 59015
AAXX 22184 42410 31394 90000 10126 20126 40159 71042 333 58002
AAXX 22184 42415 31995 00000 10128 20117 40163 71000 333 59014
AAXX 22184 42623 31495 33202 10080 20064 39257 40164 70500 83600 333 59015 83710
AAXX 22184 42706 31995 00000 10131 20099 40150 70500 333 59009
AAXX 22184 42724 21494 60000 10138 20119 40148 71022 86600 333 59005 6990/ 84710 83615
AAXX 22184 42809 31995 00000 10132 20109 40140 70500 333 59010
AAXX 22184 42492 NIL
AAXX 22184 42587 NIL
AAXX 22184 42591 NIL
AAXX 22184 42701 NIL
AAXX 22184 42798 NIL
AAXX 22184 42886 NIL
AAXX 22184 42895 NIL
AAXX 22184 42971 NIL
AAXX 22184 42977 NIL
AAXX 22184 43333 NIL
AAXX 22184 43368 NIL
BBXX 46204 22181 99514 71288 46/// /0915 10068 40173 57036 22200 00082 10708 70039 333 91218
BBXX 46131 22181 99499 71250 46/// /1206 1//// 40301 57013 22200 00070 10301 70003 333 91207
BBXX 44039 22181 99411 70727 46/// /2405 10104 20079 40183 91745 22200 00095 10301 70005 333 91206
BBXX 41029 22181 99328 70796 46/// /1704 1//// 91800 555 11056 22066
BBXX 44060 22181 99413 70721 46/// ///04 10100 40171 91815 22200 00111 333 91205 555 11046 22046
BBXX 44039 22181 99411 70727 46/// /2404 10105 20078 40183 57013 91800 22200 00094 10301 70005 333 91206
BBXX 44022 22181 99409 70737 46/// ///05 10123 20044 40179 91815 22200 00084 333 91207 555 11057 22067
BBXX WKAE 22183 99464 70352 41498 63013 10083 20027 40280 52024 71522 86240 22264 00120 20202 328// 40910 5//// 6//// 80057 ICE /////
BBXX 9VAW8 22184 99292 70945 41697 81009 10170 20154 40180 51030 78022 8827/ 22200 04151 20502 31010 40502 50502 6//// 80160 ICE /////
BBXX 46147 22181 99518 71312 46/// /1617 10078 40100 57038 22200 00079 10912 70060 333 91223
BBXX SHIP 22184 99543 71743 41598 40113 10000 21000 40010 56006 70222 84/// 91800 22224 00040 2//// 3//// 4//// 80000
BBXX H9UY 22184 99232 71687 41899 40718 00/// 10230 40171 51015 70211 84131 9//// 22273 04250 20402 307// 40403 5//// 6//// 80200
BBXX 46221 22181 99339 71186 46/// ///// 1//// 91745 22200 00148 11302 21001 326// 41301 70009
BBXX 46114 22181 99364 71222 46/// ///// 1//// 91804 22200 00121 11305 20903 331// 41303 70024
BBXX 51205 22181 99210 71564 46/// ///// 1//// 91818 22200 00237 10904 20904 332// 41201 70022
BBXX 41037 22181 99340 70775 46/// /1804 10201 40197 58016 91800 22200 00174 333 91205
BBXX 41114 22181 99276 70802 46/// ///// 1//// 91816 22200 00246 11202 20502 307// 41201 70012
BBXX 41115 22181 99184 70673 46/// ///// 1//// 91805 22200 11305 21004 301// 41303 70025
BBXX 46211 22181 99469 71242 46/// ///// 1//// 91806 22200 00080 11303 21002 327// 41302 70014
BBXX 44098 22181 99428 70702 46/// ///// 1//// 91807 22200 00087 10802 20802 70010
BBXX 42085 22181 99179 70665 46/// ///// 1//// 91800 22200 00274
BBXX 44067 22181 99384 70770 46/// /2102 10113 40186 56016 91800
BBXX 41052 22181 99183 70648 46/// ///// 1//// 91800 22200 00272
BBXX 46231 22181 99327 71174 46/// ///// 1//// 91754 22200 00148 11402 21001 328// 41402 70010
BBXX 46222 22181 99336 71183 46/// ///// 1//// 91756 22200 00151 11402 21001 327// 41402 70010
BBXX 46242 22181 99332 71174 46/// ///// 1//// 91758 22200 00143 11301 20601 323// 41301 70006
BBXX 46223 22181 99335 71178 46/// ///// 1//// 91800 22200 00150 11302 21001 327// 41302 70010
BBXX 46237 22181 99378 71226 46/// ///// 1//// 91810 22200 00111 11303 21002 325// 41303 70016
BBXX 46217 22181 99342 71194 46/// ///// 1//// 91812 22200 00145 10503 20503 327// 41301 70016
BBXX 46240 22181 99366 71219 46/// ///// 1//// 91812 22200 00122 11102 20901 334// 41102 70012
BBXX 46216 22181 99343 71198 46/// ///// 1//// 91757 22200 00144 11302 21002 326// 41302 70012
BBXX 46241 22181 99330 71173 46/// ///// 1//// 91741 22200 00143 11301 20501 326// 41301 70007
BBXX 46244 22181 99409 71244 46/// ///// 1//// 91805 22200 00095 11204 21003 329// 41203 70022
BBXX 46112 22181 99481 71227 46/// /1301 10029 40301 56007 91800
BBXX 46111 22181 99481 71227 46/// /1403 10034 40299 58007 91800 22200 00055
BBXX 46248 22181 99461 71247 46/// ///// 1//// 91804 22200 00080 11203 20902 328// 41203 70017
BBXX 46249 22181 99338 71197 46/// ///// 1//// 91812 22200 00145 10604 20604 328// 41302 70020
BBXX C6LU4 22184 99172 70763 41596 60930 10268 2021/ 40095 58005 70300 8674/ 22284 20909 30807 4//// 5//// 80220
BBXX 41052 22181 99183 70648 46/// /0710 10267 40163 91750 333 91212
BBXX WKAB 22184 99314 10323 41/98 /2712 10170 20067 40168 51020 700// 8//// 222// 00186 20201 327// 40402 5//// 6//// 80115 ICE /////
BBXX PEBT 22183 99576 10109 41396 81916 10062 20027 40130 53010 75052 887// 22233 02070 20601 3//// 4//// 5//// 80046
BBXX PDXQ 22183 99469 70138 41398 81818 10140 20114 40270 53005 70000 84770 22223 04125 20504 325// 40605 80125
BBXX 62103 22184 99499 70029 46/99 /2514 10123 20096 40280 55002 22200 00122 10702 70010
BBXX 62305 22184 99504 10000 46/98 /2723 10120 2//// 40279 54000 22200 00120 10602 70008 333 90710 91130
BBXX PFFH 22183 99374 10008 41/98 /2310 10154 40250 57003 70000 8//// 22263 00159 2////
BBXX 62095 22184 99531 70159 46/// /2616 10105 20069 40120 52016 22200 00113 10910 70049
BBXX 62170 22184 99514 10020 46/97 /2513 10108 20092 40252 52004 22200 00109 10501 70003
BBXX 62305 22184 99504 10000 46/98 /2723 10120 20092 40279 54000 22200 00120 10602 70008 333 90710 91130
BBXX 64045 22184 99591 70117 46/// /2336 10088 20039 49908 57012 22200 00099 10915 70074 333 90710 91152
BBXX 62107 22184 99501 70061 46/// /2419 10121 20090 40277 58001 22200 00117 10904 70019
BBXX 62304 22184 99511 10018 46/98 /2411 10110 20090 40257 52005 22200 00110 10601 70003
BBXX 62027 22184 99491 70022 46/// /2909 1//// 2//// 40295 55002 22200 00114 11102 329// 70012
BBXX 63119 22184 99583 10009 41/97 62423 10102 20073 40081 58/// 701// 8//// 22200 2//// 322// 40603 5////
BBXX 62103 22184 99499 70029 46/99 /2684 10123 20093 40278 57007 22200 00122 10702 70010
BBXX 62133 22184 99571 10009 46/// /2329 10104 20072 40118 57014 22200 10504 70021
BBXX LAXP4 22184 99366 70295 41597 80111 00/// 10210 2020/ 40292 52010 70222 86526 22253 00190 20401 325// 40403 80200 NNNN
BBXX DPTL 22184 99345 70075 41598 60104 10170 20137 40260 51005 70311 86500 22254 20000 331// 40501 5//// 80150
BBXX 62094 22184 99517 70067 46/// /2221 10116 20103 40230 58011 22200 00107 10504 70022 333 90710 91130
BBXX PJGO 22184 99571 10022 47796 /2415 10098 20089 40129 57008 700// 22200
BBXX 62122 22184 99573 10016 47797 /2419 10103 20083 40125 58011 700// 22200 10503 70016
BBXX 62153 22184 99573 10020 47797 /2415 10100 20086 40119 58012 700// 22200 10504 70019
BBXX 62164 22184 99572 10008 47997 /2220 10110 20083 40124 56010 700// 22200 00094 10605 70024
BBXX 62140 22184 99573 10013 46/// /26// 10102 20085 40109 58015 22200
BBXX 62146 22184 99572 10021 47/96 /2515 10099 20080 40126 58012 704// 22200 10504 70020
BBXX 62144 22184 99534 10017 47997 /2517 10091 20073 40219 51005 700// 22200 10402 70010
BBXX 62104 22184 99574 10013 47997 /2521 10103 20085 40109 58015 700// 22200
BBXX 62121 22184 99535 10027 46/// ///// 22200
BBXX 62116 22184 99576 10011 47997 /2529 10101 20081 40103 58016 700// 22200 10504 70019
BBXX 62118 22184 99577 10009 47996 /2326 10114 20080 40100 57015 704// 22200 10504 70019
BBXX 62143 22184 99577 10018 47797 /2418 10101 20084 40110 58018 700// 22200 10504 70018
BBXX 62155 22184 99577 10007 47997 /2425 10103 20085 40112 57012 700// 22200 10504 70020
BBXX 62102 22184 99579 10018 46/// /2316 10099 20080 40104 58012 22200 10503 70017
BBXX 62117 22184 99579 10000 47997 /2125 10101 20080 40099 56009 700// 22200 10504 70019
BBXX 62134 22184 99580 10014 47797 /2321 10102 20084 40100 58015 700// 22200 10503 70015
BBXX 62152 22184 99570 10018 47/97 /2414 10102 20083 40135 57009 700// 22200 10404 70020
BBXX 62154 22184 99564 10022 46/// /2621 10101 20086 40141 58005 22200
BBXX 62114 22184 99583 10000 46/// /2027 10104 20076 40083 57016 22200
BBXX 62120 22184 99564 10021 47797 /2721 10101 40142 58003 700// 22200
BBXX 62119 22184 99570 10019 47797 /2721 10105 20084 40135 57008 700// 22200 10504 70019
BBXX 41052 22181 99183 70648 46/// /0810 10268 40164 91740 333 91213
BBXX WDC3786 22184 99202 71537 41398 30824 10230 2018/ 40174 5//// 7//00 831/8 22224 0//// 20402 308// 40806 5//// 6//// 80198 ICE /////
BBXX VRCI9 22184 99370 71569 41398 82222 10190 20175 40100 52010 70252 887// 22225 00176 20504 332// 40905 80170
BBXX 46207 22181 99509 71299 46/// /1719 10086 40149 57032 22200 00082 10811 70055 333 91223
BBXX A8IP2 22183 99141 70816 41398 70623 10290 20249 40116 58022 70311 85758 22244 20401 333// 40703 5//// 80260
BBXX PCBZ 22184 99187 71271 41598 62007 10212 20149 40163 53010 70222 83176 22223 00200 20402 336// 41203 80172 90663
BBXX WYX2079 22183 99606 71465 41/94 80130 10000 2//// 49830 57/// 773// 8//// 222// 0//// 2//02 3//// 4//// 5//// 6//// 8//// ICE /////
BBXX WSM5364 22183 99598 71452 41/97 80230 10022 2//// 49750 57/// 702// 8//// 222// 00072 2//06 318// 4//06 5//// 6//// 8//// ICE /////
AAXX 22184 64700 32960 63408 10261 21009 39774 40115 80002 91755 333 10340 58004 86075
AAXX 22184 64750 32960 60000 10250 20132 39675 40086 80002 91755 333 10370 59001 86075
BBXX SHIP 22184 99124 31277 41/97 22407 10296 20288 40012 57014 71399 8//// 2220/ 00307 10502 80290
BBXX A8CG7 22180 99088 31300 41397 62710 10275 20248 40000 56020 70311 84770 22224 04295 20503 300// 40000 5//// 80255
AAXX 22184 40153 11658 22305 10088 20049 39084 48481 52004 60002 71000 82400 333 10140
AAXX 22184 40179 12560 21504 10146 20108 30121 40158 52012 60002 81101 333 10223
AAXX 22184 40180 12560 21005 10152 20093 30114 40163 52014 60002 82100 333 10221
AAXX 22184 40190 16/// ///// 10148 20112 39831 40162 52012 60002 333 10212
AAXX 22184 40199 12970 00602 10173 20091 30128 40151 52017 60002 333 10235
AAXX 22184 61017 32960 50404 10206 10007 39748 40159 80002 333 10250 58004 85080
AAXX 22184 61024 32960 21210 10240 21039 39579 40149 80002 333 10298 58007 82080 P066
AAXX 22184 61036 32965 70000 10284 20011 39885 40124 81038 333 10321 58007 81364 87280
AAXX 22184 61043 32960 70606 10270 21057 39685 40127 80008 333 10313 58010 87280
AAXX 22184 61045 32965 50402 10227 21005 39640 40143 80002 333 10286 58010 85080
AAXX 22184 61049 32960 70000 10225 20011 39806 40129 80008 333 10298 58014 87280
AAXX 22184 61052 32960 20606 10288 20004 39870 40128 80002 333 10318 58006 82080
AAXX 22184 61075 32960 50000 10276 20021 39813 40122 80002 333 10328 58014 85080
AAXX 22184 61080 32960 70602 10250 21008 39710 40135 80008 333 20309 58010 87280
AAXX 22184 61090 32960 70202 10247 21033 39620 40134 80008 333 10295 58018 87280
AAXX 22184 61091 32960 50000 10220 20082 39688 40151 80002 333 10302 58011 85080
AAXX 22184 61096 32965 73604 10245 21018 39752 40138 80008 333 10307 58008 87280
AAXX 22184 61099 32960 70206 10295 20030 39875 40103 80008 333 10340 58008 87280
BBXX SBLW 22183 99081 70838 43/98 42906 10274 40108 58017 22274 00280 2//// 4////
AAXX 22183 64810 32460 32804 10275 20246 30071 40097 82500 333 10315 55/// 58001 82613
BBXX V2NA1 22184 99486 70084 41598 82119 10130 20103 40283 57003 70222 887// 22223 04110 20404 329// 41005 80115
BBXX 62163 22184 99475 70084 46/// /2115 10123 20080 40302 58002 22200 00127 10704 70022
BBXX 62001 22184 99452 70050 46/// /0808 10133 20079 40322 52002 22200 00141 10704 70019
BBXX DANM 22184 99368 10012 41999 12805 10161 20119 40257 53002 7//00 81010 22265 00150 20502 80136
BBXX DHSI 22184 99359 70108 41598 70317 10180 20131 40290 50000 70322 87800 22214 00170 21004 303// 41204 80150
BBXX DDZD2 22184 99382 70099 41598 63615 10147 20129 40300 58005 70222 865// 22245 00160 20602 334// 40802 80136
BBXX BATUK01 22184 99574 70017 46/// /2226 10095 20062 40089 56015 22241 00087
BBXX 61002 22184 99421 10047 46/// ///30 10145 2//// 40230 52006 22200 00139 10707 70034 555 1/039
BBXX 61001 22184 99434 10078 46/// /2603 10129 20034 40210 52008 22200 00146 10802 70010
BBXX MSTM6 22183 99373 10049 41/98 70217 10165 20120 40257 56010 70222 8//// 22224 00165 2//// 80140
BBXX A8VL5 22184 99340 10233 41397 82723 10120 20079 40180 53010 70362 888// 22264 00180 20606 30000 80100
BBXX BATFR42 22184 99502 70018 46/// /2424 10119 20094 40274 22244 00124
BBXX BATEU01 22184 99514 10031 46/// /2212 10082 20067 40249 22224 00072
BBXX BATEU04 22184 99619 70067 46/// /2314 10107 20077 49842 58081 22262
BBXX BATFR14 22184 99392 70282 44398 80316 10159 20134 40293 53017 70322 886// 22213 00165 201// 326// 408// 5//// 60000 ICE 0/0//
BBXX BATFR54 22184 99486 70061 46/// /2017 10127 20089 40304 51020 22233 00119
BBXX BATFR12 22184 99481 70066 46/// /2011 10177 20087 40305 58001 22281 00144
BBXX BATFR52 22184 99508 70011 46/// /2516 10109 20082 40274 57020 22282 00090
BBXX BATFR01 22184 99359 10215 46/// /2927 10134 20062 40021 51010 22271 00192
BBXX BATFR27 22184 99439 70038 46/// /1013 10149 20057 40311 22285 00154
BBXX BATEU05 22184 99582 70243 46/// /2836 10034 21017 49945 53041 22223
BBXX BATFR04 22184 99584 70062 46/// /2026 10112 20094 40006 56022 22200 00102
BBXX BATFR03 22184 99499 70006 46/// /2726 10119 20090 40279 53006 22234
BBXX BATFR02 22184 99497 70004 46/// /2617 10115 20085 40290 22284 00120
BBXX BAREU62 22184 99407 10291 46/// ///// 40083 22224
BBXX BAREU00 22184 99514 10039 46/// ///// 40250 52003 22223
BBXX BAREU63 22184 99414 10125 46/// /1308 10109 29055 40169 52017 22272
BBXX TESTFR9 22184 99508 70011 46/// /2619 10107 29089 40292 57014 22272
BBXX LF5T 22184 99660 10081 415// /2520 10084 20050 49939 57012 702// 22200 333 91128
BBXX LF3N 22184 99653 10073 41496 82322 10084 20063 49947 57014 71052 886// 22200 00088 10706 70028
BBXX 3ERR2 22184 99635 10053 41497 82130 10090 20085 49975 57026 70262 8672/ 22200 06103 10605 70027 333 91136
BBXX LF4C 22184 99584 10019 41697 82420 10105 20090 40092 57015 72582 89/// 22200 00079 10703 70015 333 91124
BBXX LF4B 22184 99606 10037 47/95 /2121 10089 40060 57018 781// 22200 00069 10704 70022 333 91125
BBXX LF3F 22184 99643 10078 43/// /2225 10082 20066 49979 57016 91810 22200 04084 10707 70034 333 91131
BBXX MGSH7 22183 99562 10187 41/97 /2215 10035 21006 40197 52010 70222 8/6// 22213 20201 322// 40302 5//// 80020
BBXX A8IN9 22183 99376 70301 41298 73516 10175 20140 40281 53009 70122 8/77/ 22214 06190 20401 335// 41005 5//// 80155
BBXX 62132 22184 99564 10020 46/// /2714 10101 20084 40143 58009 22200
BBXX 62148 22184 99536 10015 46/// /2413 10095 20077 40214 51004 22200
BBXX 62131 22184 99539 10012 46/// /26// 10110 20075 40203 50002 22200
BBXX 62149 22184 99537 10011 47998 /2313 10097 20074 40214 52002 751// 22200 10402 70010
BBXX 62123 22184 99563 10022 47797 /2620 10102 20085 40142 58005 700// 22200
BBXX 62127 22184 99540 10007 47998 ///// 10114 20070 40204 51003 700// 22200 10402 70009
BBXX 62165 22184 99540 10009 47998 /2521 10110 20071 40206 50001 700// 22200 10402 70011
BBXX 62150 22184 99536 10007 47998 /2510 10099 20073 40222 51003 700// 22200 10402 70008
BBXX 62145 22184 99531 10028 47797 /2412 10097 20076 40224 52005 700// 22200 10403 70014
BBXX 64041 22184 99607 70026 47396 /1932 10100 20097 49978 57031 762// 22200 10808 70039
BBXX MWYG6 22184 99603 70040 47496 /2016 10109 704// 22200
BBXX 62142 22184 99530 10021 47997 /2717 10098 20075 40220 52008 700// 22200 10302 70009
BBXX 63115 22184 99616 10013 47396 /2124 10137 20091 49992 57025 700// 22200 10708 70039
BBXX 63117 22184 99613 10011 47496 /2226 10204 20095 40007 57024 704// 22200
BBXX 63104 22184 99612 10016 47796 /2225 10097 20091 40010 57025 704// 22200
BBXX 63103 22184 99612 10011 46/// /2426 10102 20087 40015 57021 22200 10706 70031
BBXX 63101 22184 99612 10009 46/// /2521 10100 20084 40005 57028 22200
BBXX 63107 22184 99611 10017 46/// /2225 10100 40015 57021 22200
BBXX 63113 22184 99610 10017 46/// /2323 10100 20090 40026 57019 22200 10706 70030
BBXX 63108 22184 99608 10017 47796 /2223 10094 20080 40029 57019 700// 22200 10705 70024
BBXX 63105 22184 99610 10017 47796 ///// 10101 20089 40019 57021 700// 22200
BBXX 63112 22184 99611 10010 47496 /2424 10121 20078 40005 57023 700// 22200 10707 70033
BBXX 63106 22184 99610 10017 46/// /2223 10098 40018 56020 22200
BBXX 63055 22184 99606 10016 47997 /2114 10100 20091 40036 57019 700// 22200 10504 70020
BBXX ZQSD5 22184 99583 10007 46/// /2224 10105 20079 40091 57017 22200 10604 70020
BBXX 62113 22184 99584 10002 47898 /2228 10107 20075 40095 56012 700// 22200
BBXX 62112 22184 99584 70002 47897 /2022 10101 20073 40083 56019 700// 22200
BBXX 63057 22184 99592 10015 47697 /2424 10100 20083 40067 57016 700// 22200 10704 70022
BBXX 62129 22184 99584 10003 46/// ///// 10107 20077 40094 56014 22200
BBXX 62128 22184 99587 10014 47798 /2323 10101 20083 40082 57014 700// 22200 10603 70017
BBXX 63056 22184 99597 10016 47797 /2225 10095 20086 40052 57015 700// 22200 10605 70024
BBXX 62111 22184 99580 70003 46/// /2225 10101 20080 40100 56019 22200 10503 70016
BBXX 63110 22184 99595 10015 47797 /2221 10098 20087 40058 57016 700// 22200 10605 70023
BBXX 62442 22184 99490 70164 46/// /2125 1//// 2//// 40178 56010 22200 00126 333 90710 91132
BBXX 63110 22183 99595 10015 41/97 /2228 10098 40054 700// 8//// 22200 10604 70022
BBXX PJAI 22184 99581 70014 47998 /1920 10111 20063 40075 57025 700// 22200
BBXX 62303 22184 99516 70051 46/// /2316 10120 20100 40246 57010 22200 00111 10503 70017
BBXX 62081 22184 99510 70134 46/// ///// 10128 20113 40166 57015 22200 00119 10810 70048
BBXX 64046 22184 99606 70049 46/// /2129 10102 20095 49940 57039 22200 00075 10810 70052
BBXX 62301 22184 99524 70047 46/// /2214 10102 20094 40228 56015 22200 00088 10403 70015
BBXX 64045 22184 99591 70117 46/// /2336 10088 20039 49908 56012 22200 00101 10915 70074 333 90710 91152
BBXX 62029 22184 99487 70125 46/// /2021 10130 20118 40240 56011 22200 00130 10707 70035 333 90710 91128
BBXX 62105 22184 99554 70121 46/// /2622 10104 20069 40068 53012 22200 00109 10811 70055 333 90710 91134
AAXX 22184 67765 42882 11801 10236 20154 38644 48489 81402 333 10316 59006 81657
AAXX 22184 67775 42780 10607 10230 20131 38485 48489 81400 333 10295 59006 81656
AAXX 22184 67779 NIL
AAXX 22184 67853 NIL
AAXX 22184 67861 NIL
AAXX 22184 67867 NIL
AAXX 22184 67881 NIL
AAXX 22184 67965 42980 11505 10249 20059 38662 48490 81501 333 10328 59012 81659
AAXX 22184 67975 42980 01102 10232 20120 38897 48490 333 10311 59007
AAXX 22184 67977 NIL
AAXX 22184 67983 42980 10902 10220 20176 38860 48489 81060 333 10297 59011 81360
AAXX 22184 67991 42980 01602 10314 20143 39518 48449 333 10382 59019
AAXX 22184 78762 32570 80911 10253 20173 39083 40093 57006 82577 333 10264 20196 30/// 56220 58010 82630 84365 86070
AAXX 22184 94996 455// 81016 10201 20144 30039 40176 53007 91830
AAXX 22184 94996 455// 81016 10201 20144 30039 40176 53007 91830
AAXX 22181 55299 32980 00000 11135 21285 35847 52003 333 00000 10039
AAXX 22181 55591 32980 00000 11043 21185 36488 52004 333 05251 10161
AAXX 22181 56739 32980 00201 10043 20013 38352 57003 333 05100 10184
AAXX 22181 56951 32970 01401 10072 20042 38508 52001 333 05100 10225
AAXX 22181 56964 32565 10000 10106 20094 38714 40154 57004 81100 333 05100 10203
AAXX 22181 57328 31856 80401 10063 20028 39858 40280 54000 71000 885// 333 10074
AAXX 22181 57411 11430 83601 10069 20058 39900 40282 52001 69991 76066 8672/ 333 10079
AAXX 22181 57447 32965 82701 10055 20030 39739 40297 57002 8807/ 333 10083
AAXX 22181 57662 32962 80201 10063 21080 30258 40303 57003 8807/ 333 10092
AAXX 22181 57745 31956 80402 10058 21052 39954 40291 57006 70500 8807/ 333 10073
AAXX 22181 57972 11450 83401 10056 20047 30051 40284 57007 69951 72166 887// 333 10070
AAXX 22181 58203 32962 00000 11059 21096 30283 40327 57005 333 10063
AAXX 22181 58314 31958 03401 11042 21042 30205 40317 57007 71000 333 10057
AAXX 22181 58424 32962 00403 10017 21095 30283 40310 57010 333 10065
AAXX 22181 59023 32760 80703 10095 20021 39933 40249 57002 885// 333 10128
AAXX 22181 59417 32962 00902 10134 20060 30053 40208 52002 333 10210
AAXX 22181 59985 32570 60406 10230 20198 30140 40145 57006 86200 333 10258
AAXX 22181 59995 NIL
AAXX 22184 89050 41498 72706 10007 21028 49863 57009 70222 87400
AAXX 22184 89512 31596 81126 11004 21039 39678 49825 52012 77172 885// 333 10012
AAXX 22184 89574 42998 31105 10011 21077 49862 52006 82031
AAXX 22184 89592 42998 71405 11020 21044 49834 57006 87030
AAXX 22184 89606 41996 82112 11263 21313 36277 47788 57009 77673 80007 333 11258
AAXX 22181 80400 NIL
AAXX 22181 80403 11459 70000 10274 20247 30104 40123 60131 75066 875// 333 32/// 569// 58000 87613 555 10126
AAXX 22181 80405 NIL
AAXX 22181 80407 NIL
AAXX 22181 80410 11470 40903 10290 20229 39437 40110 69901 70252 84900 333 30/// 56900 59001 81916 83816 555 10149
AAXX 22181 80413 12470 80904 10261 20163 39630 40119 8352/ 333 31/// 5699/ 58003 83613 85458 555 10140
AAXX 22181 80415 32470 50203 10268 20221 30075 40128 855// 333 30/// 569// 58009 85616 555 10131
AAXX 22181 80419 NIL
AAXX 22181 80421 NIL
AAXX 22181 80423 NIL
AAXX 22181 80428 32468 60902 10316 20233 39921 40104 8353/ 333 30/// 5699/ 59008 83617 83357 555 10117
AAXX 22181 80432 NIL
AAXX 22181 80435 11359 80704 1244 2236 30029 40104 60171 75058 887// 333 32/// 569// 58007 88710 555 10103
AAXX 22181 80438 32575 32503 10250 20163 38518 48515 83500 333 30/// 56900 58012 83630 555 10201
AAXX 22181 80444 11470 5//// 10292 2//// 30037 4//// 69931 72025 852// 333 30/// 562// 59004 85813 555 10085
AAXX 22181 80447 32562 31401 10350 20179 39643 40058 82520 333 30/// 56990 58003 82620 555 10115
AAXX 22181 80448 NIL
AAXX 22181 80450 32470 81102 10434 20239 30067 40122 8552/ 333 30/// 56999 58001 85616 555 10119
AAXX 22181 80453 NIL
AAXX 22181 80457 32470 6//// 10335 20139 30015 40099 8423/ 333 30/// 5699/ 59003 84813 555 10117
AAXX 22181 80462 NIL
AAXX 22184 87641 32965 02712 10282 20104 39886 40056 56003
AAXX 22181 80402 NIL
AAXX 22181 80412 NIL
AAXX 22181 80416 NIL
AAXX 22181 80420 11470 60706 10264 20247 30104 40110 60011 70265 868// 333 31/// 569// 58007 86813 555 10123
AAXX 22181 80425 32570 42301 10322 20240 30074 40105 84100 333 30/// 56900 59001 84820 555 10106
AAXX 22181 80426 32570 60202 10268 20194 39479 40122 862// 333 30/// 569// 58012 86823 555 10154
AAXX 22181 80427 32570 60702 10319 20250 39859 40110 8422/ 333 30/// 5699/ 59005 84820 555 10128
AAXX 22181 80431 11570 6//// 10282 20205 39623 40099 69941 72025 868// 333 31/// 569// 58000 83820 555 10125
AAXX 22181 80434 NIL
AAXX 22181 80437 32470 40502 10315 20186 39994 40079 84500 333 30/// 56900 59004 84613 555 10085
AAXX 22181 80440 32570 60903 10314 20220 39897 40107 8353/ 333 30/// 5699/ 58000 83623 83359 555 1011
AAXX 22181 80442 NIL
AAXX 22181 80472 32468 80904 10266 20205 39627 40108 8422/ 333 30/// 5699/ 58001 84816 85460 555 10129
AAXX 22181 80475 32560 50903 10303 20160 39767 40166 854// 333 30/// 569// 58014 85623 555 10172
AAXX 22181 80476 32370 5//// 10338 20257 30089 40119 8357/ 333 30/// 5699/ 58004 83610
AAXX 22181 80478 NIL
AAXX 22181 80479 NIL
AAXX 22184 78762 32570 80911 10253 20173 39083 40093 57006 82577 333 10264 20196 30/// 56220 58010 82630 84365 86070
AAXX 22184 87155 31558 30212 10420 20193 39956 40013 57023 70400 83100 333 56100 83820
BBXX 46185 22181 99524 71298 46/// /1718 10074 40146 57030 22200 00073 11012 70060 333 91223
AAXX 22181 47003 42980 03208 11127 21222 30239 40243 54000
AAXX 22181 47005 42980 01802 11258 21289 38567 53005
AAXX 22181 47022 42975 00000 11225 21291 38820 52004
AAXX 22181 47028 42962 03201 11151 21211 30200 40303 52003
AAXX 22181 47031 42970 03202 11204 21244 38925 53001
AAXX 22181 47037 42970 00000 11148 21199 30167 40301 58001
AAXX 22181 47039 42960 00000 11160 21194 30100 40308 52002
AAXX 22181 47046 42969 00000 11105 21168 30210 40234 51000
AAXX 22181 47050 42965 00000 11133 21194 30261 40297 52003
AAXX 22181 47052 42965 00000 11180 21199 39939 40311 52006
AAXX 22181 47060 42970 00000 11097 21168 30226 40288 54000
AAXX 22181 47061 42980 01401 11076 21148 30198 40244 52010
AAXX 22181 47065 42970 00000 11106 21169 30233 40303 52003
AAXX 22181 47067 42965 03201 11104 21167 30183 40312 52002
AAXX 22181 47068 42970 00000 11092 21132 30251 40288 58001
AAXX 22181 47070 42970 00000 11092 21214 30199 40292 52006
AAXX 22181 47075 42980 02301 11142 21201 39760 40220 52010
AAXX 22181 24790 41999 20000 11475 21494 39498 40479 52007 77670 80001
AAXX 22181 24988 42999 03004 11279 21317 30020 40300 52008
AAXX 22181 25378 32998 03306 11152 21227 30185 40220 52006 333 21162 48004 91114
AAXX 22181 25503 41697 80000 11365 21387 30250 40398 52006 77072 8652/
AAXX 22181 25705 41996 82202 11426 21455 30020 40413 52005 77172 82037
AAXX 22181 25927 42998 03101 11275 21299 30282 40289 52005
AAXX 22181 25932 42999 03002 11193 21219 30218 40259 53008
AAXX 22181 31152 42997 80000 11404 21433 39900 40371 52003 80036
AAXX 22181 31174 42999 60203 11228 21234 30240 40253 52005 80001
AAXX 22181 31489 41997 73001 11206 21225 30102 40228 53003 70272 80002
AAXX 22181 31866 41996 83404 11077 21091 30061 40067 56029 77187 8802/
AAXX 22181 31959 41597 82709 11121 21183 30045 40090 56002 77173 8672/ 333 91020 91122 92980
AAXX 22181 31989 42999 00203 11131 21247 30081 40137 51013 333 91118
AAXX 22181 32027 41997 83408 11199 21225 30212 40222 57005 77172 8802/ 333 91010 91111
AAXX 22181 32076 41998 80000 11113 21126 30174 40185 57008 70272 8807/ 333 91000 91102
AAXX 22181 32099 42599 81409 11037 21053 30139 40147 57014 70282 885// 333 91011 91112
AAXX 22181 32121 41494 80908 11012 21041 30062 40084 57025 78683 889// 333 91012 91114
AAXX 22181 32213 42598 13215 11070 21087 30139 40204 52003 81500 333 91019 91123
AAXX 22181 32287 42999 81302 11184 21217 30241 40252 52007 8805/
AAXX 22181 32408 42999 00301 11254 21293 30186 40229 52011
AAXX 22181 32509 NIL
AAXX 22181 32594 42598 30403 11101 21185 30182 40220 58002 82501
AAXX 22181 47008 42970 00501 11106 21248 30189 40246 58002
AAXX 22181 47014 42950 00000 11236 21268 39866 40314 52001
AAXX 22181 47016 42970 00501 11251 21282 39379 40300 52006
AAXX 22181 47020 42965 00000 11188 21221 39915 40331 52003
AAXX 22181 47025 42960 00000 11104 21247 30205 40236 58001
AAXX 22181 47035 42970 03602 11121 21193 30293 40302 57005
AAXX 22181 47041 42970 00502 11127 21219 30214 40244 54000
AAXX 22181 47055 42970 02305 11066 21156 30212 40260 58004
AAXX 22181 47058 42960 03201 11108 21204 30254 40305 53003
AAXX 22181 47069 42965 03204 11074 21163 30184 40289 54000
AAXX 22181 47101 32970 00000 11127 21170 30181 40285 50007
AAXX 22181 47105 369// /2507 11064 21228 30215 40249 52004
AAXX 22181 47108 32970 03202 11095 21212 30173 40286 50001
AAXX 22181 47115 41556 70505 11021 21076 39937 40218 52008 78588 87800
AAXX 22181 47133 32970 03203 11083 21181 30201 40292 52011
AAXX 22181 47138 32972 02305 11047 21217 30247 40250 52005 333 92032
AAXX 22181 47159 32975 03605 11045 21220 30158 40248 52008 333 92022
AAXX 22181 47165 32668 60503 11029 21083 30228 40277 51003 85500 333 92022
AAXX 22181 47168 32970 03415 11039 21171 30173 40256 51007 333 92024
AAXX 22181 47184 32668 73613 10030 21044 30243 40269 50001 87500 333 92044
AAXX 22184 41264 36/70 /2507 10180 20037 39804 40178 333 0E020 10248 59013
AAXX 22181 47090 32970 02910 11067 21222 30223 40247 51004 333 92033
AAXX 22181 47095 32970 00000 11154 21191 30086 40293 51005
AAXX 22181 47097 329// /3201 11100 21216 30183 40286 51007
AAXX 22181 47098 329// /0000 11119 21185 30140 40285 50003
AAXX 22181 47099 329// /0001 11136 21180 30249 40289 50002
AAXX 22181 47100 32970 02303 11169 21240 39290 40288 50009
AAXX 22181 47102 32970 03405 11046 21139 30104 40291 55003
AAXX 22181 47104 32970 01604 11082 21227 30145 40248 53004
AAXX 22181 47106 329// /2005 11056 21216 30194 40246 52007
AAXX 22181 47112 32970 03606 11074 21202 30197 40286 56001 333 92022
AAXX 22181 47114 32970 00901 11112 21180 30087 40284 52010
AAXX 22181 47119 32970 03604 11083 21192 30241 40286 50001
AAXX 22181 47121 329// /0001 11127 21179 39969 40287 52015
AAXX 22181 47127 329// /2002 11098 21182 30135 40287 52010
AAXX 22181 47129 32970 00506 11061 21132 30255 40293 54000
AAXX 22181 47130 32970 02305 11058 21214 30180 40245 52005 333 92032
AAXX 22181 47131 32970 03203 11080 21184 30213 40288 52008
AAXX 22181 47135 329// /2506 11082 21150 39962 40280 52009
AAXX 22181 47136 32970 00001 11089 21174 30087 40271 52009
AAXX 22181 47137 329// /2705 11079 21191 30150 40276 52007
AAXX 22181 47140 32970 00202 11062 21113 30260 40290 52009 333 92021
AAXX 22181 47143 32972 02905 11054 21178 30191 40274 52005
AAXX 22181 47145 32970 03208 11077 21215 30254 40282 51004
AAXX 22181 47146 32970 03404 11062 21123 30219 40289 52010
AAXX 22181 47150 32970 00204 11065 21145 30267 40287 52005
AAXX 22181 47152 32973 00205 11056 21183 30202 40247 52006
AAXX 22181 47154 329// /2906 11062 21154 30210 40274 52008
AAXX 22181 47155 32972 01407 11043 21162 30205 40253 53004
AAXX 22181 47156 32670 20205 11054 21109 30192 40286 52007 82500
AAXX 22181 47157 32975 02002 11095 21152 39973 40261 51001
AAXX 22181 47162 32975 00705 11037 21166 30209 40251 53005 333 92022
AAXX 22181 47169 41670 63418 10014 21031 30175 40272 50002 72682 86500 333 92055
AAXX 22181 47170 32670 23602 11032 21103 30231 40277 52006 82300 333 92021
AAXX 22181 47171 329// /0001 11064 21126 30231 40289 53008
AAXX 22181 47172 329// /3606 11041 21120 30209 40279 53005
AAXX 22181 47173 329// /0000 11095 21123 30169 40288 52009
AAXX 22181 47174 32970 03209 11062 21133 30059 40273 53005
AAXX 22181 47175 31561 73606 11060 21069 39675 40278 52003 72672 87500 333 92022
AAXX 22181 47185 32665 73424 10043 21021 30160 40253 58001 87500 333 92056
AAXX 22181 47188 32670 50506 10018 21049 30233 40255 56001 85500 333 92032
AAXX 22181 47189 32670 52903 10027 21026 30181 40243 50002 85500 333 92032
AAXX 22181 47192 32975 03203 11044 21190 30222 40261 53002
BBXX 46185 22181 99524 71298 46/// /1718 10074 40146 57030 22200 00073 11012 70060 333 91223
AAXX 22184 89132 NIL
AAXX 22184 89542 46/// /1406 10004 20050 49860 57003
AAXX 22184 89575 NIL
AAXX 22184 89657 NIL
AAXX 22184 16219 41460 40354 11058 21066 38066 48463 51010 6///2 73830 84500 333 11052 42008 84610 92840
BBXX NIL
BBXX NIL
BBXX NIL
AAXX 22184 06610 01558 82107 10069 20055 39699 40292 52013 60022 76166 887// 333 10070 32/// 55300 20000 60005 88727 90766 93100 91115 91210
BBXX NIL
AAXX 22184 61017 32960 50404 10206 20007 39748 40159 80002 333 10250 58004 85080
AAXX 22184 61024 32960 21210 10240 21039 39579 40149 80002 333 10298 58007 82080
AAXX 22184 61036 32965 70000 10284 20011 39885 40124 81038 333 10321 58007 81364 87280
AAXX 22184 61043 32960 70606 10270 21057 39685 40127 80008 333 10313 58010 87280
AAXX 22184 61045 32965 50402 10227 21005 39640 40143 80002 333 10286 58010 85080
AAXX 22184 61049 32960 70000 10225 20011 39806 40129 80008 333 10298 58014 87280
AAXX 22184 61052 32960 20606 10288 20004 39870 40128 80002 333 10318 58006 82080
AAXX 22184 61075 32960 50000 10276 20021 39813 40122 80002 333 10328 58014 85080
AAXX 22184 61080 32960 70602 10250 21008 39710 40135 80008 333 20309 58010 87280
AAXX 22184 61090 32960 70202 10247 21033 39620 40134 80008 333 10295 58018 87280
AAXX 22184 61091 32960 50000 10220 20082 39688 40151 80002 333 10302 58011 85080
AAXX 22184 61096 32965 73604 10245 21018 39752 40138 80008 333 10307 58008 87280
AAXX 22184 61099 32960 70206 10295 20030 39875 40103 80008 333 10340 58008 87280
AAXX 22183 61701 31959 60000 10293 20117 40118 70522 80002 333 10332 58160 86074
AAXX 22183 61705 32960 40000 10308 20116 4//// 80002 333 10340 5//// 84073
AAXX 22183 61707 NIL
AAXX 22183 61711 32960 50903 10296 20184 4//// 80002 333 5//// 85074
AAXX 22183 61712 32960 52703 10310 20075 4//// 80002 333 10335 5//// 85072
AAXX 22183 61717 32960 23602 10311 20091 4//// 82030 333 10334 5//// 82362
AAXX 22183 61720 NIL
AAXX 22183 61721 32960 50000 10307 20073 4//// 80002 333 10330 5//// 85072
AAXX 22183 61722 32960 00806 10310 20071 4//// 80000 333 10332 5////
AAXX 22183 61731 32960 50905 10300 20103 4//// 80002 333 10332 5//// 85074
AAXX 22183 61733 32960 50503 10307 20065 4//// 85030 333 10340 5//// 85363
BBXX NIL
AAXX 22184 06670 01132 82004 10054 20045 39750 40271 52013 60142 76366 8672/ 333 10055 41998 55300 20000 60025 82702 85707 88511 90766 93100 91110 91207
AAXX 22184 06700 01362 70403 10054 20043 39797 40301 52011 69912 71082 875// 333 10062 31/// 55300 20004 60005 81708 87634 90766 93100 91106 91203
AAXX 22184 06680 01/01 92612 11040 21040 37534 47071 52012 60672 77374 333 11042 47270 55300 20000 60085 90766 93119 91140 91219
AAXX 22184 06990 01430 81503 10015 20007 39723 40289 52010 60182 76362 887// 333 43/// 55300 20000 60015 88712 91110 91206
AAXX 22184 06760 31956 20201 10055 21034 39769 40224 50005 70511 82030 333 10082 30/// 55300 20000 82359 90766 93100 91110 91205
AAXX 22184 06720 01358 8//// 10028 20023 39713 40306 53014 60022 76166 887// 333 10037 43013 55300 20000 69945 88707 90766 93100
AAXX 22184 61202 NIL
AAXX 22184 61214 NIL
AAXX 22184 61223 32960 20404 10255 21001 39850 40150 80002 333 10290 59008 82075
AAXX 22184 61226 32960 10408 10268 20064 39845 40145 81030 333 10310 58006 81365
AAXX 22184 61230 42960 00410 10266 21058 39853 40136 333 10282 59006
AAXX 22184 61233 32960 20404 10257 21018 3//// 4//// 80002 333 10285 5//// 82075
AAXX 22184 61235 31959 30412 10280 21035 3//// 4//// 70600 80002 333 10303 5//// 83075
AAXX 22184 61240 32960 20000 10280 20037 39807 40133 82040 333 10325 58005 82365
AAXX 22184 61250 32960 10000 10276 20086 3//// 4//// 80002 333 10310 5//// 81075
AAXX 22184 61257 31956 00410 10290 21033 30067 40162 70600 333 10305 59003
AAXX 22184 61265 32970 10208 10277 20009 39819 40128 80002 333 10318 59004 81075
AAXX 22184 61270 32960 20406 10302 20041 3//// 4//// 80002 333 10335 5//// 82075
AAXX 22184 61272 32960 30000 10270 20053 39804 40134 80002 333 10320 59005 83075
AAXX 22184 61277 32960 20804 10300 20023 39799 40120 81042 333 10327 59007 81365
AAXX 22184 61285 32960 40810 10314 21023 39966 40113 80002 333 10341 58004 84075
AAXX 22184 61291 32960 20604 10280 20039 39698 40110 80002 333 10305 59002 82075
AAXX 22184 61293 32960 60604 10280 20088 3//// 4//// 80002 333 10305 5//// 86075
AAXX 22184 61296 32960 60000 10261 20120 3//// 4//// 80002 333 10300 5//// 86075
AAXX 22184 61297 32960 73404 10280 20049 3//// 4//// 80002 333 10310 5//// 87075
AAXX 22184 89022 41560 80514 11044 21064 39795 49832 52014 70272 885// 333 84625 88632
AAXX 22184 89062 41250 73203 10003 21019 39806 49846 57008 77172 875// 333 82705 83708 86630
AAXX 22181 23973 41997 81803 11136 21156 30207 40273 57008 77172 8802/
AAXX 22181 23975 415// 81901 11143 21170 30153 40269 57009 78582 889//
AAXX 22181 23986 41998 81701 11174 21193 39603 40278 58013 77172 8802/
AAXX 22181 23987 41496 81503 11146 21166 30205 40283 57012 78582 889//
AAXX 22181 24606 419// 80000 11416 21444 30014 40330 57006 77171 80007
AAXX 22181 29253 419// 80000 11136 21163 30111 40293 57009 77172 8802/
AAXX 22181 29471 41495 82601 11109 21129 30074 40312 57010 78582 889// 333 88918
AAXX 22181 29481 41997 80000 11136 21149 30070 40321 57003 77172 8802/
AAXX 22181 29553 41538 82702 11117 21130 39938 40322 57008 78582 8692/
AAXX 22181 29562 41565 82603 11113 21133 39892 40328 57003 78582 889//
AAXX 22181 29581 419// 82402 11089 21100 30045 40312 57011 77172 8802/
AAXX 22181 29594 41598 82501 11106 21119 39913 40314 57009 78582 889//
AAXX 22181 29653 41996 82301 11093 21109 39817 40319 57005 77172 8802/
AAXX 22181 29675 41896 80000 11082 21119 39708 40319 57017 77172 8802/
AAXX 22181 29676 41696 80000 11079 21093 39869 40306 57010 77173 885//
AAXX 22181 29752 414// 82408 11126 21139 38847 48494 57002 78683 889// 333 91119
AAXX 22181 29759 419// 82303 11116 21151 39279 40353 57004 77173 8802/ 333 91112
AAXX 22181 29766 41896 81902 11067 21083 39968 40334 57019 77172 8802/
AAXX 22181 29789 42599 80000 11108 21161 39093 40319 57008 83901
AAXX 22181 29864 425// 63104 11082 21129 39673 40347 57010 83942
AAXX 22181 29866 415// 82404 11039 21097 30003 40331 57024 70283 889//
AAXX 22181 29869 415// 82302 11053 21053 39971 40355 57017 77373 8872/ 333 95090
AAXX 22181 29956 42662 82705 11035 21105 39800 40371 57012 889// 333 88040
AAXX 22181 30337 42998 80000 11356 21384 39866 40384 54000 80008
AAXX 22181 30405 419// 82401 11158 21171 39763 40325 57010 77177 8807/
AAXX 22181 30504 41997 80000 11134 21140 39646 40327 57007 77172 8802/
AAXX 22181 30603 41995 82401 11122 21135 39729 40327 57004 77372 8802/
AAXX 22181 30612 415// 81102 11170 21182 39769 40338 58002 70282 82977
AAXX 22181 30622 429// 00000 11311 21328 39657 40386 54000
AAXX 22181 30627 41998 32702 11189 21208 39341 40337 58005 70271 83030
AAXX 22181 30703 419// 80000 11139 21145 39622 40330 57008 77172 82077
AAXX 22181 36307 41896 80000 11261 21279 39085 48579 53007 77172 8802/ 333 95090
AAXX 22181 23074 41996 81402 11175 21201 30147 40173 57009 77172 8802/
AAXX 22181 23274 41596 71503 11200 21219 30164 40203 57009 77172 8252/
AAXX 22181 23383 41897 80000 11308 21338 39880 40275 57009 77172 8802/
AAXX 22181 23472 41497 80802 11190 21216 30163 40215 57008 78587 889//
AAXX 22181 23678 415// 71402 11126 21134 30175 40235 57009 78588 87900
AAXX 22181 23884 415// 81501 11136 21156 30186 40264 57007 77172 8252/
AAXX 22181 23891 41996 80000 11293 21331 39934 57011 77177 80006
AAXX 22181 24507 419// 60000 11375 21405 30022 40303 57008 70272 82078
AAXX 22181 24817 419// 00000 11438 21463 39912 40350 57009 74000
AAXX 22181 24908 41997 80000 11342 21378 39941 40317 57012 77177 8801/
AAXX 22181 29263 41559 80000 11128 21198 30190 40296 57011 78582 8595/
AAXX 22181 29282 41962 80000 11251 21269 30117 40305 57009 77072 80007
AAXX 22181 29379 41897 80000 11152 21165 30094 40316 57009 77177 8802/
AAXX 22181 29570 41596 62703 11089 21109 39954 40315 57006 78582 86900
AAXX 22181 29698 415// 80000 11104 21115 39782 40317 57008 78582 889//
AAXX 22181 30230 42998 30000 11406 21439 39990 40377 57005 80001
AAXX 22181 30252 419// 70000 11320 21344 30004 40363 52004 70172 80001
AAXX 22181 30309 41998 82701 11182 21194 39763 40320 57007 77172 80005
AAXX 22181 30328 429// 20000 11330 21354 39894 40381 58008 80007
AAXX 22181 30521 415// 50801 11259 21278 39784 40364 58001 70282 82901
AAXX 22181 30710 41596 83102 11114 21128 39722 40332 58008 78582 86901
AAXX 22184 71257 17/// /1905 11072 21124 60011 7//4/ 333 11072 21132 70015
AAXX 22184 71258 16/// /2210 11051 21142 60001 333 11034 21113 70000
AAXX 22184 71259 16/// /1902 11092 21124 60001 333 11092 21164 70000
AAXX 22184 71274 16/// /2711 11021 21072 60001 333 11021 21093 70000
AAXX 22184 71275 46/// /2410 11031 21078 6///1 333 11031 21094 7////
AAXX 22184 71278 16/// /2707 11018 21059 60001 333 11018 21078 70004
AAXX 22184 71286 16/// /2707 11003 21058 60001 333 11003 21088 70000
AAXX 22184 71287 16/// /2506 11030 21080 60001 333 11030 21071 70000
AAXX 22184 71289 16/// /2107 11021 21092 60001 333 11018 21104 70000
AAXX 22184 71464 46/// ///02 10042 39954 40168 58001 6///1 333 10052 20041 7////
AAXX 22184 42027 32596 63201 10016 21007 38450 48537 84420 333 58002
AAXX 22184 42101 31995 00000 10086 20073 40185 70500 333 59004
AAXX 22184 42111 31996 00502 10074 20039 39383 40184 70500 333 59015
AAXX 22184 42131 31994 00000 10072 20063 40186 71000 333 58006
AAXX 22184 42165 31995 03601 10110 21025 40176 70500 333 59008
AAXX 22184 42182 31994 02702 10094 20082 40179 71000 333 59004
AAXX 22184 42189 31995 00000 10126 20063 40166 74144 333 58///
AAXX 22184 42328 31995 03606 10114 21060 40180 70500 333 59008
AAXX 22184 42339 31995 00505 10154 21032 40163 70500 333 59007
AAXX 22184 42348 31995 00504 10148 20016 40163 70500 333 59007
AAXX 22184 42361 31994 00000 10102 20081 40170 71044 333 59005
AAXX 22184 42369 31994 00000 10110 20077 40164 71000 333 59020
AAXX 22184 42379 31992 00000 10080 20053 40160 74641 333 59013
AAXX 22184 42452 32996 20901 10150 20096 40160 80001 333 59008
AAXX 22184 42475 31993 00000 10120 20105 40163 74240 333 59024
AAXX 22184 42071 NIL
AAXX 22184 42260 NIL
AAXX 22184 71525 16/// /2310 11023 21065 60001 333 11022 21124 70000
AAXX 22184 71535 16/// /2513 10004 21079 60001 333 10004 21117 70000
AAXX 22184 71536 16/// /2617 10011 21108 60001 333 10013 21093 70000
AAXX 22184 71537 16/// /2205 11067 21094 60001 333 11067 21157 70000
AAXX 22184 71214 16/// /2612 11008 21085 60001 333 11008 21086 7////
AAXX 22184 71223 16/// /2813 10004 21067 60001 333 10004 21117 70000
AAXX 22184 71225 16/// /2714 10009 21090 60001 333 10009 21112 70000
AAXX 22184 71227 46/// /2309 11026 21064 6///1 333 11019 21101 7////
AAXX 22184 71345 16/// /2311 10010 21088 60001 333 10010 21101 70000
AAXX 22184 71683 46/// /2805 11223 39981 40095 53003 6///1 333 11207 21267 7////
AAXX 22184 71445 16/// /1103 11127 21167 39953 40241 58008 60001 333 11115 21141 70000
AAXX 22184 71351 16/// /2503 10004 21085 60001 333 10004 21051 70004
AAXX 22184 71353 16/// /2409 11005 21126 60001 333 11005 21077 70000
AAXX 22184 71385 46/// /2319 10021 6///1 333 10025 7////
AAXX 22184 71916 46/// /1601 11252 21271 39958 40015 55004 6///1 333 11246 21365 7////
AAXX 22183 42071 31995 00000 10062 20039 40186 71000 333 59013
AAXX 22184 63729 32480 60000 10213 20198 38859 48/// 81932 333 10263 55300 59006 81618 81920 86072
AAXX 22184 63756 12580 60000 10202 20192 38865 48499 69952 81932 333 0//19 10255 58000 81820 81921 85076
AAXX 22184 63791 32580 41015 10268 20158 39111 48502 84500 333 10330 55300 59004 84627
AAXX 22184 63801 31580 71204 10228 20201 39210 48534 71792 8197/ 333 10290 58010 81820 81921 87359
AAXX 22184 63832 01480 70000 10198 20185 38824 48494 60152 70362 8297/ 333 10268 55300 58006 60027 82817 81918 87358
AAXX 22184 63862 11480 70000 10222 20198 38896 48503 60072 81173 333 0//94 59009 81820 86359
AAXX 22184 63866 22580 40512 10248 20220 39515 48/// 60122 83900 333 10274 58004 83622 81924
AAXX 22184 63881 01480 70000 10166 20156 38199 48/// 60412 71796 879// 333 1//29 10242 58004 60087 87618 81920
AAXX 22184 63887 32580 30000 10198 20169 38589 48505 81931 333 10250 55300 58002 81619 81921 83358
AAXX 22184 63894 12580 50308 10272 20256 30057 40117 60072 85900 333 10308 59001 85821 81922
AAXX 22184 63932 3212580 60000 1017020160 38300 48497 69902 86900 333 10240 59005 86822 81923
AAXX 22184 63962 31580 30909 10237 20194 38949 48512 71792 83900 333 10286 59001 83823 81924
AAXX 22184 63971 32580 60000 10257 20234 39997 40126 8423/ 333 10304 55300 58009 84820 84358
AAXX 22184 63733 NIL
AAXX 22184 63870 NIL
AAXX 22181 10505 01/09 92707 10084 20083 39960 40243 51010 60042 75154 333 10087 20075 32007 55300 20000 30000 69917 96047
AAXX 22184 61017 32960 50404 10206 20007 39748 40159 80002 333 10250 58004 85080
AAXX 22184 61024 32960 21210 10240 21039 39579 40149 80002 333 10298 58007 82080
AAXX 22184 61036 32965 70000 10284 20011 39885 40124 81038 333 10321 58007 81364 87280
AAXX 22184 61043 32960 70606 10270 21057 39685 40127 80008 333 10313 58010 87280
AAXX 22184 61045 32965 50402 10227 21005 39640 40143 80002 333 10286 58010 85080
AAXX 22184 61049 32960 70000 10225 20011 39806 40129 80008 333 10298 58014 87280
AAXX 22184 61052 32960 20606 10288 20004 39870 40128 80002 333 10318 58006 82080
AAXX 22184 61075 32960 50000 10276 20021 39813 40122 80002 333 10328 58014 85080
AAXX 22184 61080 32960 70602 10250 21008 39710 40135 80008 333 20309 58010 87280
AAXX 22184 61090 32960 70202 10247 21033 39620 40134 80008 333 10295 58018 87280
AAXX 22184 61091 32960 50000 10220 20082 39688 40151 80002 333 10302 58011 85080
AAXX 22184 61096 32965 73604 10245 21018 39752 40138 80008 333 10307 58008 87280
AAXX 22184 61099 32960 70206 10295 20030 39875 40103 80008 333 10340 58008 87280
AAXX 22181 78310 12570 51307 10268 20225 30160 40170 58012 60001 82202 333 10225 20213 30/// 56909 59004 82820 84074
AAXX 22181 78315 11474 41204 10274 20197 30109 40174 58013 60001 70511 84200 333 10279 20180 30/// 56900 58001 84819
AAXX 22181 78318 11562 31505 10278 20170 30165 40169 58016 60001 70500 83200 333 10278 20193 30/// 56900 59004 83820
AAXX 22181 78322 11559 21304 10268 20178 30167 40184 58012 60001 70500 81240 333 10275 20184 30/// 56990 58001 81820
AAXX 22181 78324 11/10 20504 10269 20214 30162 40173 56009 60001 70500 82240 333 10269 20235 30/// 56990 58002 828//
AAXX 22181 78325 11564 11704 10287 20167 30114 40172 58021 60001 70500 81800 333 10291 20190 30/// 56200 59004 81820 555 10901
AAXX 22181 78328 11461 31202 10270 20211 30178 40/// 58019 60001 70500 82250 333 10270 20215 30/// 56290 59007 82818 92417 555 11102
AAXX 22181 78333 11/10 11403 10274 20191 30169 40176 57013 60001 70500 81232 333 10278 20182 30/// 56999 58000 818//
AAXX 22181 78344 11564 30901 10294 20186 30118 40166 58020 60001 70500 83240 333 10300 20188 30/// 56990 59001 83820
AAXX 22181 78345 12565 31106 10290 20201 30169 40172 57021 60001 82802 333 10290 20164 30/// 56909 59008 82820
AAXX 22181 78348 01556 70904 10251 20213 30122 40174 58018 69921 70582 87800 333 10257 20199 30/// 56200 57815 59012 69927 70002 83820 86630 555 10902
AAXX 22181 78349 11566 41104 10288 20185 30066 40175 57024 60001 70511 84232 333 10288 20188 30/// 56299 57852 59010 84823 555 10903
AAXX 22181 78351 12550 30806 10300 20146 30157 40159 58007 82202 333 10301 20183 30/// 56909 59005 82830
AAXX 22181 78353 12570 51204 10274 20193 30157 40179 58021 60001 84802 333 10274 20232 30/// 56209 59008 83823 555 11103
AAXX 22181 78355 12570 50807 10270 20185 30033 40169 58023 60001 83842 333 10279 20185 30/// 56999 59007 82823
AAXX 22181 78358 11540 50808 10277 20217 30150 40165 58024 60001 70511 83282 333 10278 20217 31/// 56999 59007 83823
AAXX 22181 78360 12570 31307 10292 20202 30152 40164 58017 60001 83800 333 10300 20193 30/// 56900 59001 83820 92034
AAXX 22181 78363 11563 11002 10295 20141 30029 40144 57027 60001 70500 81240 333 10295 20154 30/// 56990 59005 81820
AAXX 22181 78365 11558 70914 10252 20221 30173 40178 58020 69921 71582 878// 333 10266 20234 30/// 56299 57812 59007 70004 85820 92047 555 10903
AAXX 22181 78369 NIL
AAXX 22181 40650 12660 21607 10160 20033 40167 51001 60002 81501
AAXX 22181 40608 12560 50702 10128 20027 40179 50002 60002 85500
AAXX 22181 40621 12960 51402 10153 20034 40184 57010 60002 80008
AAXX 22181 40634 12960 00602 10125 10125 20054 40170 54000 60002
AAXX 22181 40642 12960 60000 10112 21009 40165 53003 60003 86010
AAXX 22181 40656 12560 31204 10165 20049 40143 54000 60002 83100
AAXX 22181 40665 12960 01203 10126 20036 40198 54000 60002
AAXX 22181 40674 12960 01706 10158 20042 40176 53003 60002
AAXX 22181 40691 12960 20302 10148 20107 40222 5000 60002 80001
AAXX 22181 51711 32980 02502 11181 21211 38123 54000 333 00353 11073
AAXX 22181 51730 32968 42501 11145 21163 40479 52001 80002 333 00300 11024
AAXX 22181 52112 32980 02702 11154 21207 40475 52004 333 00201 11074
AAXX 22181 52737 32980 00000 11125 21242 37093 52011 333 00100 11021
AAXX 22181 52787 32970 73609 11145 21238 37036 52006 80002 333 00002 11112 91117 91502
AAXX 22181 53352 32980 00000 11138 21197 40339 57006 333 11065
AAXX 22181 53593 32970 03601 11137 21190 40322 57013 333 11032
AAXX 22181 53705 32970 63602 11069 21158 40390 52007 80002 333 05103 11006
AAXX 22181 53863 32970 02003 11045 21164 40336 57007 333 10020
AAXX 22181 53975 32968 02201 11060 21138 40325 57006 333 10032
AAXX 22181 54273 32970 00000 11291 21328 40312 57005 333 11143
AAXX 22181 54324 32970 01801 11133 21225 40271 57011 333 11029
AAXX 22181 54405 32980 00901 11087 21180 40290 57018 333 11013
AAXX 22181 54436 32980 02701 11123 21179 40296 57017 333 10003
AAXX 22181 54808 32961 01401 11024 21104 40301 57018 333 10045
AAXX 22181 54826 32975 02708 11111 21179 38483 57013 333 11071
AAXX 22181 54836 32963 00000 11067 21107 40321 57012 333 10017
AAXX 22181 54863 32970 03201 11060 21095 40313 57008 333 10020
AAXX 22181 56018 32980 00000 11083 21279 36145 52005 333 05101 10061
AAXX 22181 56021 32980 00000 11160 21333 36045 54000 333 05151 10025
AAXX 22181 57071 32965 02901 11018 21114 40311 57006 333 10063
AAXX 22181 80400 NIL
AAXX 22181 80403 11459 70000 10274 20247 30104 40123 60131 75066 875// 333 32/// 569// 58000 87613 555 10126
AAXX 22181 80405 NIL
AAXX 22181 80407 NIL
AAXX 22181 80410 11470 40903 10290 20229 39437 40110 69901 70252 84900 333 30/// 56900 59001 81916 83816 555 10149
AAXX 22181 80413 12470 80904 10261 20163 39630 40119 8352/ 333 31/// 5699/ 58003 83613 85458 555 10140
AAXX 22181 80415 32470 50203 10268 20221 30075 40128 855// 333 30/// 569// 58009 85616 555 10131
AAXX 22181 80419 NIL
AAXX 22181 80421 NIL
AAXX 22181 80423 NIL
AAXX 22181 80428 32468 60902 10316 20233 39921 40104 8353/ 333 30/// 5699/ 59008 83617 83357 555 10117
AAXX 22181 80432 NIL
AAXX 22181 80435 11359 80704 1244 2236 30029 40104 60171 75058 887// 333 32/// 569// 58007 88710 555 10103
AAXX 22181 80438 32575 32503 10250 20163 38518 48515 83500 333 30/// 56900 58012 83630 555 10201
AAXX 22181 80444 11470 5//// 10292 2//// 30037 4//// 69931 72025 852// 333 30/// 562// 59004 85813 555 10085
AAXX 22181 80447 32562 31401 10350 20179 39643 40058 82520 333 30/// 56990 58003 82620 555 10115
AAXX 22181 80448 NIL
AAXX 22181 80450 32470 81102 10434 20239 30067 40122 8552/ 333 30/// 56999 58001 85616 555 10119
AAXX 22181 80453 NIL
AAXX 22181 80457 32470 6//// 10335 20139 30015 40099 8423/ 333 30/// 5699/ 59003 84813 555 10117
AAXX 22181 80462 NIL
AAXX 22181 0000101201SMVN20 SVMR 221800
AAXX 22181 80402 NIL
AAXX 22181 80412 NIL
AAXX 22181 80416 NIL
AAXX 22181 80420 11470 60706 10264 20247 30104 40110 60011 70265 868// 333 31/// 569// 58007 86813 555 10123
AAXX 22181 80425 32570 42301 10322 20240 30074 40105 84100 333 30/// 56900 59001 84820 555 10106
AAXX 22181 80426 32570 60202 10268 20194 39479 40122 862// 333 30/// 569// 58012 86823 555 10154
AAXX 22181 80427 32570 60702 10319 20250 39859 40110 8422/ 333 30/// 5699/ 59005 84820 555 10128
AAXX 22181 80431 11570 6//// 10282 20205 39623 40099 69941 72025 868// 333 31/// 569// 58000 83820 555 10125
AAXX 22181 80434 NIL
AAXX 22181 80437 32470 40502 10315 20186 39994 40079 84500 333 30/// 56900 59004 84613 555 10085
AAXX 22181 80440 32570 60903 10314 20220 39897 40107 8353/ 333 30/// 5699/ 58000 83623 83359 555 1011
AAXX 22181 80442 NIL
AAXX 22181 80472 32468 80904 10266 20205 39627 40108 8422/ 333 30/// 5699/ 58001 84816 85460 555 10129
AAXX 22181 80475 32560 50903 10303 20160 39767 40166 854// 333 30/// 569// 58014 85623 555 10172
AAXX 22181 80476 32370 5//// 10338 20257 30089 40119 8357/ 333 30/// 5699/ 58004 83610
AAXX 22181 80478 NIL
AAXX 22181 80479 NIL
AAXX 22184 68513 36/// /1810 10183 20136 30052 40164 53012 333 10226 20183 91013 555 91016
AAXX 22184 68514 32/// /2314 10228 20071 39664 48537 52017 333 10299 20228 91025 555 91014
AAXX 22184 68523 36/// /2313 10209 20050 39099 48515 52013 333 10272 20209 91019 555 91016
AAXX 22184 68527 36/// /2309 10279 21108 39039 48495 52016 333 10340 20279 91015 555 91012
AAXX 22184 68572 16/// /0102 10157 20133 38376 48485 58002 60042 333 10314 20156 91005 555 20042 69945 91017
AAXX 22184 68575 16/// /3402 10205 20175 39066 48495 53003 60242 333 10331 20182 91005 555 20248 91014
AAXX 22184 68581 36/// /1602 10239 20175 39341 48504 53018 333 10369 20239 91004 555 91012
AAXX 22184 68583 16/// /2404 10242 20215 39978 40086 52025 69922 333 10309 20242 91008 555 20002 69925 91009
AAXX 22184 68589 16/// /1202 10187 20103 38238 48495 52020 69922 333 10271 20180 91005 555 20002 91019
AAXX 22184 68613 36/// /2304 10161 20139 30058 40175 52011 333 10228 20161 91006 555 91017
AAXX 22184 68647 36/// /1009 10168 20151 38908 48504 53017 333 10292 20168 91014 555 91016
AAXX 22184 68651 NIL
AAXX 22184 68715 16/// /2203 10175 20102 30047 40175 52016 69942 333 10236 20175 91009 555 20004 91017
AAXX 22184 68717 36/// /1502 10184 20124 30027 40171 52015 333 10226 20175 91004 555 91017
AAXX 22184 68723 36/// /2007 10199 20104 39383 48515 52023 333 10286 20199 91016 555 91014
AAXX 22184 68737 32770 21815 10185 20111 39212 48486 52024 81580 333 10300 20184 91026 555 91012
AAXX 22184 68744 36/// /1618 10155 20122 39075 48484 52022 333 10273 20155 91027 555 91013
AAXX 22184 68747 36/// /1507 10177 20120 39622 48529 52028 333 10221 20177 91010 555 91015
AAXX 22184 68754 16/// /2002 10143 20130 39141 48518 53028 60022 333 10253 20143 91005 555 20020 91018
AAXX 22184 68817 36/// /2002 10194 20088 30165 40178 52017 333 10251 20176 91006 555 91017
AAXX 22184 68821 36/// /2704 10184 20108 39916 40155 53018 333 10244 20184 91009 555 91015
AAXX 22184 68835 36/// /2604 10194 20125 30035 40149 53017 333 10239 20194 91009 555 91015
AAXX 22184 68843 16/// /2604 10185 20130 30041 40140 53018 69922 333 10216 20185 91006 555 20002 91014
AAXX 22184 68849 36/// /2009 10148 20114 39412 48513 53018 333 10182 20148 91014 555 91016
AAXX 22184 68912 16/// /1908 10170 20123 30166 40175 52015 60182 333 10185 20162 91010 555 20182 91017
AAXX 22184 68918 16/// /2505 10185 20106 30151 40170 53015 60022 333 10233 20174 91008 555 20026 91017
AAXX 22184 68921 NIL
AAXX 22184 68925 16/// /2803 10151 20109 39804 40171 53016 60052 333 10188 20146 91005 555 20058 91017
AAXX 22184 68926 32170 82310 10183 20109 39987 40166 52027 885// 333 10281 20183 91017 555 91016
AAXX 22184 68935 NIL
AAXX 22184 68651 NIL
AAXX 22184 68921 NIL
AAXX 22184 68935 NIL
AAXX 22181 50548 32980 00401 11332 21374 40270 52002 333 11162
AAXX 22181 50564 32970 02501 11322 21350 40268 52001 333 11190
AAXX 22181 51334 11770 71401 11188 21218 40522 57005 69901 77077 82502 333 00201 11134
AAXX 22181 51818 32965 30000 11113 21148 40458 52004 80002 333 00200 11011
AAXX 22181 52378 32980 02508 11075 21188 40390 52003 333 05305 11030
AAXX 22181 53487 32960 02902 11119 21187 40318 57015 333 11037
AAXX 22181 53502 32980 02004 11123 21221 40394 52001 333 05303 11010
AAXX 22181 53923 32980 03203 11073 21148 40370 52007 333 11012
AAXX 22181 54049 32970 01803 11166 21282 40262 57014 333 11126
AAXX 22181 54115 32980 03403 11123 21199 40262 57011 333 11084
AAXX 22181 54157 32963 01802 11158 21253 40280 57011 333 11117
AAXX 22181 54186 32970 03202 11244 21296 40293 57003 333 11144
AAXX 22181 54311 32980 00201 11184 21224 40309 57011 333 11079
AAXX 22181 54346 32965 00902 11170 21245 40300 57013 333 11097
AAXX 22181 54377 32970 00204 11202 21249 40318 57003 333 11089
AAXX 22181 54386 32970 00403 11266 21307 40317 52003 333 11133
AAXX 22181 54493 32970 03601 11183 21238 40314 52001 333 11090
AAXX 22181 54587 NIL
AAXX 22181 54715 32970 00000 11048 21129 40297 57021 333 10036
AAXX 22181 54929 32962 01801 11052 21079 40316 57013 333 10043
AAXX 22181 54945 32970 02701 11033 21110 40319 57010 333 10033
AAXX 22181 56065 32980 30000 11174 21208 36600 57003 80002 333 05251 11009
AAXX 22181 57193 32960 01801 11002 21072 40314 57012 333 10053
AAXX 22181 57290 32960 00000 11013 21064 40316 57009 333 10055
AAXX 22184 86330 11596 83607 10194 20194 40079 53013 60361 79596 8497/
AAXX 22184 86360 11497 63214 10235 20203 40048 58004 60031 71796 83925
AAXX 22184 86460 11598 53308 10304 20179 40044 55002 69931 70262 81406
AAXX 22184 86490 32697 52904 10301 20196 40048 58011 83236
AAXX 22184 86530 11597 52608 10298 20180 40041 58004 69901 70362 83205
AAXX 22184 86545 32497 43513 10280 20194 40051 54000 84401
AAXX 22184 86565 32497 73208 10288 20183 40036 57014 85276
AAXX 22184 86580 32698 23108 10281 20204 40042 57009 81201
AAXX 22184 89055 32465 70207 11002 21008 39604 49846 57011 85650 333 56270 85710 92700 92840 95170
AAXX 22184 68174 31765 60000 10245 20153 38764 48493 53011 71399 82983 333 10329 20242 91001 555 91015
AAXX 22184 68191 36/// /1007 10309 20135 39577 48512 53018 333 10380 20309 91013 555 91008
AAXX 22184 68242 12780 60705 10186 20151 38705 48485 52026 60112 86070 333 10315 20162 91007 555 20116 91015
AAXX 22184 68262 16/// /0904 10211 20152 38687 48495 52012 60042 333 10316 20206 91009 555 20042 60185 91016
AAXX 22184 68263 11680 70909 10185 20144 38472 48497 52020 60022 70299 82973 333 10280 20180 91012 555 20028 60125 91018
AAXX 22184 68267 31865 20515 10173 20146 38244 48515 52013 70500 82070 333 10286 20172 91020 555 91021
AAXX 22184 68289 36/// /2705 10233 20184 39131 48510 53018 333 10308 20233 91007 555 91014
AAXX 22184 68350 36/// /2303 10222 20156 38659 48511 53018 333 10305 20222 91008 555 91018
AAXX 22184 68368 41960 61103 10177 20144 38316 48505 50021 71392 8697/ 333 10260 555 91020
AAXX 22184 68403 36/// /2209 10182 20141 30143 40176 53005 333 10228 20182 91014 555 91017
AAXX 22184 68424 32882 22109 10271 21068 39169 48508 53010 82070 333 10330 20271 91014 555 91013
AAXX 22184 68438 12782 60307 10212 20142 38786 48482 53011 60012 81980 333 10295 20212 91011 555 20014 91014
AAXX 22184 68442 12882 60105 10173 20151 38641 48493 53007 60012 86070 333 10253 20173 91006 555 20012 91016
AAXX 22184 68461 12480 62106 10168 20137 38313 48498 56001 69942 84570 333 10218 20168 91009 555 20004 91019
AAXX 22184 68512 32482 12112 10146 20090 39028 48517 53010 81500 333 10212 20146 91018 555 91018
AAXX 22184 68538 32782 52210 10245 21076 38685 48474 53016 81270 333 10316 20245 91014 555 91013
AAXX 22184 68587 NIL
AAXX 22184 68588 16/// /1402 10243 20216 30085 40101 53026 69962 333 10326 20241 91004 555 20006 69965 91010
AAXX 22184 68591 NIL
AAXX 22184 68592 NIL
AAXX 22184 68618 32580 12212 10165 20095 39059 48521 53011 81500 333 10233 20165 91016 555 91018
AAXX 22184 68633 36/// /1704 10202 20089 38475 48469 53015 333 10303 20201 91007 555 91014
AAXX 22184 68668 NIL
AAXX 22184 68714 16/// /1910 10178 20105 30137 40173 52021 60012 333 10221 20171 91014 555 20014 91017
AAXX 22184 68727 36/// /2013 10242 20037 39094 48492 52020 333 10298 20242 91018 555 91012
AAXX 22184 68752 NIL
AAXX 22184 68816 12670 22007 10179 20100 30117 40171 53021 60022 82500 333 10205 91009 555 91017
AAXX 22184 68828 32470 72510 10180 20120 39927 40159 53028 875// 333 10253 555 91016
AAXX 22184 68842 32870 32414 10190 20144 30067 40137 52028 83070 333 10229 555 91013
AAXX 22184 68858 31670 82208 10193 20146 39986 40141 52030 70522 885// 333 10216 555 91014
AAXX 22184 68906 NIL
AAXX 22184 68994 NIL
AAXX 22184 89004 NIL
AAXX 22184 42559 32996 00000 10142 20085 40152 333 59007
AAXX 22184 42571 32996 00000 10116 20061 40159 333 59014
AAXX 22184 42667 32996 00506 10170 20076 39554 40154 333 59009
AAXX 22184 42675 31996 00000 10104 20066 40166 70500 333 59011
AAXX 22184 42754 31996 01105 10184 20118 39499 40142 70500 333 59010
AAXX 22184 42867 31995 20000 10152 20098 40147 70500 82030 333 59014 82360
AAXX 22184 42933 32996 00000 10162 20064 40145 333 59013
AAXX 22184 42779 NIL
AAXX 22184 42874 NIL
AAXX 22184 43041 NIL
AAXX 22184 68587 NIL
AAXX 22184 68591 NIL
AAXX 22184 68592 NIL
BBXX 46206 22181 99488 71260 46/// /1213 10061 40264 57018 22200 00087 11204 70021 333 91215
BBXX A8CN8 22180 99511 11683 41396 83315 10000 40130 52050 70272 887// 22264 00040 2//08 327// 4//08 5////
BBXX C6SI4 22184 99487 11551 43/// /0413 11040 21080 40220 52020 7//// 8//// 22253 00020 20303 3//// 40404 5//// 6//// 81050 ICE /////
BBXX SBLI 22181 99300 11560 43/98 81814 10218 40089 56047 22264 00219 2//// 4////
BBXX SHIP 22184 99383 11514 41498 81133 10110 20090 40050 57020 75155 887// 22263 00160 20306 31111 40602 50602 6//// 80100 ICE /////
BBXX SMGW 22181 99347 11791 43/98 23109 10155 40247 53013 22224 00193 2//// 4////
BBXX 46206 22181 99488 71260 46/// /1213 10061 40264 57018 22200 00087 11204 70021 333 91215
AAXX 22184 61017 32960 50404 10206 39748 40159 80002 333 10250 58004 85080
AAXX 22184 61024 32960 21210 10240 21039 39579 40149 80002 333 10298 58007 82080
AAXX 22184 61036 32965 70000 10284 20011 39885 40124 81038 333 10321 58007 81364 87280
AAXX 22184 61043 32960 70606 10270 21057 39685 40127 80008 333 10313 58010 87280
AAXX 22184 61045 32965 50402 10227 21005 39640 40143 80002 333 10286 58010 85080
AAXX 22184 61049 32960 70000 10225 20011 39806 40129 80008 333 10298 58014 87280
AAXX 22184 61052 32960 20606 10288 20004 39870 40128 80002 333 10318 58006 82080
AAXX 22184 61075 32960 50000 10276 20021 39813 40122 80002 333 10328 58014 85080
AAXX 22184 61080 32960 70602 10250 21008 39710 40135 80008 333 20309 58010 87280
AAXX 22184 61090 32960 70202 10247 21033 39620 40134 80008 333 10295 58018 87280
AAXX 22184 61091 32960 50000 10220 20082 39688 40151 80002 333 10302 58011 85080
AAXX 22184 61096 32965 73604 10245 21018 39752 40138 80008 333 10307 58008 87280
AAXX 22184 61099 32960 70206 10295 20030 39875 40103 80008 333 10340 58008 87280
AAXX 22184 68668 NIL
AAXX 22184 68752 NIL
AAXX 22181 50658 31957 03401 11300 21317 40263 57002 70400 333 11198
AAXX 22181 50888 32980 62702 11212 21262 40240 57004 80002 333 11102
AAXX 22181 50983 32970 02701 11222 21244 40243 54000 333 11098
AAXX 22181 51053 32975 10902 11250 21281 40558 57004 80002 333 00103 11218
AAXX 22181 51542 32980 00000 11319 21354 37655 52001 333 00456 11190
AAXX 22181 52436 32980 02504 11118 21147 38602 40448 57001 333 00205 11040
AAXX 22181 52908 32980 02202 11212 21361 35733 52001 333 05153 11029
AAXX 22181 52996 32970 73605 11142 21199 37605 57001 80002 333 05152 11057
AAXX 22181 53083 32980 00000 11255 21278 40351 57005 333 05652 11187
AAXX 22181 53764 32970 03201 11102 21150 40365 57005 333 11019
AAXX 22181 53787 32980 03201 11119 21158 40326 57009 333 10003
AAXX 22181 54096 32968 02706 11219 21264 40252 54000 333 11124
AAXX 22181 54226 32980 02001 11182 21254 40274 57013 333 11063
AAXX 22181 54259 32962 01101 11232 21271 40315 57005 333 11116
AAXX 22181 54527 32960 01803 11068 21123 40281 57020 333 10027
AAXX 22181 54534 32965 02002 11092 21130 40287 57016 333 10014
BBXX 46205 22181 99542 71343 46/// /1620 10081 49956 57044 22200 00080 11118 70088 333 91225
BBXX 46132 22181 99497 71279 46/// /1316 10074 40216 57029 22200 00085 10708 70039 333 91220
AAXX 22181 40608 12560 50702 10128 20027 40179 50002 60002 85500
AAXX 22181 40621 12960 51402 10153 20034 40184 57010 60002 80008
AAXX 22181 40634 12960 00602 10125 10125 20054 40170 54000 60002
AAXX 22181 40650 12660 21607 10160 20033 40167 51001 60002 81501
AAXX 22181 40642 12960 60000 10112 21009 40165 53003 60003 86010
AAXX 22181 89062 41250 73203 10003 21019 39806 49846 57008 77172 875// 333 82705 83708 86630
AAXX 22181 40656 12560 31204 10165 20049 40143 54000 60002 83100
AAXX 22181 40665 12960 01203 10126 20036 40198 54000 60002
AAXX 22181 40674 12960 01706 10158 20042 40176 53003 60002
AAXX 22181 40691 12960 20302 10148 20107 40222 5000 60002 80001
AAXX 22181 30499 41997 82602 11330 21347 39566 40308 52009 77171 80008
AAXX 22181 30683 429// 00000 11380 21403 39573 40321 52004
AAXX 22181 30695 41997 63203 11298 21335 39897 40273 51006 77071 82018
AAXX 22181 31253 41997 80000 11255 21287 39753 40253 52009 77172 80007
AAXX 22181 31295 41999 83202 11276 21300 39755 40259 52008 70272 80007
AAXX 22181 31348 41997 83401 11217 21223 30045 40256 53006 77172 80007
AAXX 22181 31418 41970 32701 11211 21230 39969 40243 58003 70271 82071
AAXX 22181 31439 41999 80206 11238 21256 30177 40226 54000 73631 82071 333 91110
AAXX 22181 31442 42997 00000 11357 21386 39855 40260 54000
AAXX 22181 31445 42984 03001 11343 21365 39965 40253 54000
AAXX 22181 31474 41997 80000 11230 21256 39703 40224 58005 77172 8802/
AAXX 22181 31521 32980 00000 11318 21335 39928 40257 58001
AAXX 22181 31527 42998 00000 11317 21335 39915 40257 54000
AAXX 22181 31534 41998 80000 11283 21300 39868 40250 58002 77072 80007
AAXX 22181 31587 42999 00000 11352 21368 30097 40265 52004
AAXX 22181 31632 NIL
AAXX 22181 31702 41998 00202 11317 21348 39885 40265 52001 70271
AAXX 22181 31713 41996 82301 11230 21237 30100 40204 52004 77172 8802/
AAXX 22181 31725 41496 82702 11172 21178 30130 40200 53010 78582 889//
AAXX 22181 31801 NIL
AAXX 22184 82594 32697 20511 10306 20219 30076 40084 82220 333 58004
AAXX 22184 82780 32598 50908 10349 20204 39841 40087 83210 333 58003
AAXX 22184 82795 32596 81406 10251 20205 39503 40117 878// 333 58013
AAXX 22184 82879 32598 70905 10358 20188 39804 40064 87800 333 58000
AAXX 22184 82979 32498 3//// 10321 20168 39637 40078 82140 333 58001
AAXX 22184 82986 32598 63604 10337 20185 39795 40074 82210 333 58004
AAXX 22184 83179 32598 40503 10350 20153 39611 40045 84200 333 58008
AAXX 22184 83192 32597 20908 10340 20124 39930 40092 82200 333 59006
AAXX 22184 83339 32496 71409 10245 20186 39141 40096 8622/ 333 58014
AAXX 22184 83498 32595 83606 10278 20240 30133 40138 8355/ 333 58012
AAXX 22184 83552 32498 3//// 10361 20214 39914 4//// 83300 333 59028
AAXX 22184 83565 32897 40504 10310 20173 39616 40077 84060 333 58000
AAXX 22184 83623 31996 6//// 1//// 2//// 39496 4//// 58040 70544 85240
AAXX 22184 83630 21295 82308 10172 20162 3//// 4//// 56016 79596 8597/ 333 60481
AAXX 22184 83702 32599 73206 10337 20179 39333 40061 54000 86305
AAXX 22184 83704 32698 40502 10351 20179 39641 40039 58012 84100
AAXX 22184 83726 31597 43202 10308 20185 39152 40096 58028 70544 83201
AAXX 22184 83264 32797 40502 10319 20235 39647 40105 82234 333 59020
AAXX 22184 83358 31698 70000 10273 20222 39662 40059 70942 83671 333 59019
AAXX 22184 89020 46/// /0412 11042 21063 39790 49825 52013 91740
AAXX 22184 82863 32598 61404 10324 20228 39858 40066 83944 333 58002
AAXX 22184 83228 32799 81406 10311 20220 39795 40066 84206 333 58011
AAXX 22184 83270 32898 40000 10307 20217 39637 40110 81038 333 59004
AAXX 22184 83309 31595 40000 10313 20255 39754 40072 70541 84200 333 59038
AAXX 22184 83319 32697 61406 10312 20244 39740 40108 82250 333 59009
AAXX 22184 83368 32698 60502 10308 20232 39721 40070 84204 333 59011
AAXX 22184 83374 32598 60504 10264 20214 39534 40100 86800 333 58008
AAXX 22184 83405 32597 5//// 10366 20191 39920 40053 85200 333 59016
AAXX 22184 83526 32898 30503 10254 20178 39171 40104 83030 333 58015
AAXX 22184 68183 31775 43404 10305 20148 39385 48506 53010 70511 84070 333 10348 20305 91005 555 91009
AAXX 22184 68188 36/// /0000 10249 20189 39157 48496 53012 333 10333 20249 91003 555 91012
AAXX 22184 68268 16/// /1804 10197 20180 38867 48507 52022 60052 333 10365 20197 91010 555 20052 91017
AAXX 22184 68272 36/// /2004 10243 20164 39053 48506 53020 333 10354 20239 91007 555 91014
AAXX 22184 68296 36/// /0000 1//// 2//// 38909 4//// 52002 333 1//// 2//// 91002 555
AAXX 22184 68322 32982 02106 10282 21060 39109 48498 52015 333 10350 20282 91010 555 91012
AAXX 22184 68338 11780 61102 10194 20168 38750 48483 52022 60022 70266 86070 333 10309 20186 91005 555 20026 91014
AAXX 22184 68345 NIL
AAXX 22184 68362 12680 80000 10196 20151 38497 48499 52017 60012 85270 333 10242 20196 91002 555 20010 91018
AAXX 22184 68400 32565 20404 10270 20187 39998 40069 52020 8/100 333 10379 20270 91010 555 91007
AAXX 22184 68408 36/// /1505 10173 20144 30164 40172 52010 333 10202 20173 91010 555 91017
AAXX 22184 68416 32984 01913 10228 20025 39027 48507 52016 333 10282 20228 91021 555 91015
AAXX 22184 68478 11470 81706 10223 20155 38846 48490 52023 69922 71722 889// 333 10316 20223 91012 555 20002 91014
AAXX 22184 68488 36/// /0000 10269 20167 39216 48488 52017 333 10342 20264 91003 555 91010
AAXX 22184 68494 36/// /1805 10238 20204 39951 40079 52047 333 10358 20238 91014 555 91008
AAXX 22184 68524 32986 52710 10251 21072 39032 48496 52015 85080 333 10305 20251 91015 555 91013
AAXX 22184 68546 16/// /1003 10199 20132 38627 48474 52013 69942 333 10295 20199 91005 555 20004 91014
AAXX 22184 68558 16/// /1402 10162 20105 38171 48485 52008 60032 333 10236 20162 91004 555 20032 91018
AAXX 22184 68570 11360 80903 10183 20132 38492 48484 52007 60012 75011 885// 333 10299 20177 91006 555 20018 91016
AAXX 22184 68580 36/// /0702 10203 20155 38932 48499 52020 333 10331 20202 91004 555 91015
AAXX 22184 68614 32580 62604 10195 20146 30120 40161 52012 86500 333 10261 20195 91009 555 91016
AAXX 22184 68624 32882 12105 10202 20027 38725 48499 52017 81200 333 10280 20202 91015 555 91016
AAXX 22184 68674 NIL
AAXX 22184 68712 12470 81809 10156 20131 30104 40169 52015 69962 885// 333 10196 20156 91012 555 20006 91017
AAXX 22184 68718 NIL
AAXX 22184 68722 32480 42108 10161 20060 38547 48504 52013 84500 333 10210 20161 91017 555 91018
AAXX 22184 68814 36/// /2107 1//// 2//// 30174 4//// 52017 333 1//// 2//// 91008 555 91018
AAXX 22184 68832 NIL
AAXX 22184 68916 16/// /2107 10166 20115 39908 40177 52015 60052 333 10184 20161 91014 555 20054 91017
AAXX 22184 68920 NIL
AAXX 22184 68928 NIL
AAXX 22184 68155 16/// /1707 10260 20175 39152 48492 52032 69942 333 10381 20260 91012 555 20004 91011
AAXX 22184 68171 NIL
AAXX 22184 68176 36/// /0905 10302 20129 39091 48496 53008 333 10377 20299 91011 555 91011
AAXX 22184 68181 NIL
AAXX 22184 68182 36/// /0302 10284 20125 39287 48497 53010 333 10353 20284 91003 555 91010
AAXX 22184 68185 NIL
AAXX 22184 68253 36/// /0403 10272 20157 39016 48499 53015 333 10373 20272 91008 555 91013
AAXX 22184 68255 36/// /0903 10236 20144 38830 48482 52027 333 10341 20233 91006 555 91013
AAXX 22184 68271 16/// /1106 10217 20173 38890 48496 52030 60042 333 10357 20216 91008 555 20042 91015
AAXX 22184 68273 16/// /2506 10211 20146 38457 48511 52021 69922 333 10311 20211 91011 555 20002 91020
AAXX 22184 68287 36/// /2204 10200 20172 38568 48504 53011 333 10277 20193 91007 555 91018
AAXX 22184 68291 36/// /0000 10297 20153 39483 48509 53017 333 10383 20297 91003 555 91009
AAXX 22184 68297 NIL
AAXX 22184 68329 36/// /2103 10280 21107 39060 48505 52015 333 10348 20280 91005 555 91013
AAXX 22184 68331 36/// /2208 10266 21101 38820 48512 53002 333 10329 20266 91012 555 91017
AAXX 22184 68335 16/// /0605 10209 20159 38899 48508 56001 60022 333 10310 20188 91009 555 20024 91016
AAXX 22184 68341 16/// /1708 10177 20157 38522 48507 52036 60032 333 10285 20177 91014 555 20038 60245 91019
AAXX 22184 68342 NIL
AAXX 22184 68343 NIL
AAXX 22184 68349 NIL
AAXX 22184 68353 16/// /1205 10221 20148 38509 48488 53015 69922 333 10267 20221 91006 555 20002 91016
AAXX 22184 68355 16/// /2106 10178 20158 38578 48511 53018 69982 333 10236 20178 91014 555 20008 69965 91019
AAXX 22184 68370 32470 80000 10214 20190 38365 48512 52027 885// 333 10313 2//// 555 91020
AAXX 22184 68377 36/// /0000 10261 20150 38729 48474 53015 333 10343 20261 91004 555 91013
AAXX 22184 68380 36/// /3205 10168 20160 3//// 4//// 5//// 333 10314 20168 91010 555
AAXX 22184 68387 36/// /3310 10236 20174 38829 48494 53021 333 10334 20231 91018 555 91015
AAXX 22184 68411 36/// /1714 10235 20069 39945 40150 53012 333 10298 20235 91020 555 91015
AAXX 22184 68429 36/// /0000 10233 21098 38660 48483 53012 333 10326 20233 91001 555 91015
AAXX 22184 68449 16/// /3204 10163 20145 38378 48491 56004 60012 333 10253 20159 91005 555 20010 91017
AAXX 22184 68471 NIL
AAXX 22184 68474 36/// /3102 10188 20109 38600 48492 52017 333 10257 20177 91006 555 91016
AAXX 22184 68479 36/// /1502 10254 20137 38913 48486 53011 333 10314 20254 91005 555 91013
AAXX 22184 68481 36/// /3103 10302 20185 39716 40070 52025 333 10360 20301 91006 555 91009
AAXX 22184 68487 36/// /1504 10227 20195 38973 48501 53028 333 10324 20227 91007 555 91015
AAXX 22184 68491 36/// /0210 10251 20220 30058 40067 52011 333 10320 20251 91018 555 91006
AAXX 22184 68497 16/// /2511 10254 20225 30039 40082 52041 60022 333 10362 20254 91018 555 20026 91008
BBXX LEQZ3 22183 99539 11752 41298 40619 10000 2000/ 40060 51010 70200 22253 00110 80000 NNNN
BBXX ZCBZ 22183 99070 11214 41/// 50410 10290 20262 40079 56010 70000 8//// 22264 20302 30404 40302 50201 80270
BBXX ZCDF4 22183 99223 71094 41598 50330 10190 20147 40179 53008 70200 85418 22235 00210 20302 330// 40802 5//// 80165
BBXX A8MH2 22184 99066 31197 41797 52905 10270 40020 58020 70322 83144 22224 299// 32699 40302 5////
BBXX ELUC5 22183 99208 51271 41098 41020 10262 20262 40165 54000 70222 83260 22224 06220 20804 30000 80262
BBXX ZDLP 22183 99527 50448 41599 43210 10070 20066 49877 56005 70222 83442 22263 04045 20000 332// 40501 5//// 80068
BBXX 62141 22183 99493 50591 41698 62327 10105 20074 49999 52003 70211 8646/ 22200 20705 324// 40703 5//// 80090
AAXX 22181 30455 429// 20000 11327 21351 38898 48421 51003 82030
AAXX 22181 30731 429// 63302 11130 21182 39656 40296 52002 84051
AAXX 22181 30739 426// 62304 11170 21220 39426 40295 54000 83972
AAXX 22181 30741 429// 23001 11211 21223 38675 48467 52003 80007
AAXX 22181 30745 429// 02502 11236 21262 39065 40312 52003
AAXX 22181 30764 42998 00000 11401 21434 39455 40387 52005
AAXX 22181 30829 41984 63104 11101 21129 39592 40306 52002 70282 83031
AAXX 22181 30838 41598 62702 11149 21176 39272 40304 52006 70272 84902
AAXX 22181 30846 42999 20000 11212 21269 39321 40299 52003 80001
AAXX 22181 30859 41998 80000 11315 21339 39397 40340 52006 77172 80007
AAXX 22181 30862 42972 00000 11340 21375 39504 40344 52006
AAXX 22181 30957 429// 10000 11242 21248 39334 40310 51004 80002
AAXX 22181 30967 NIL
AAXX 22181 30975 42998 00000 11409 21451 39606 40367 53016
AAXX 22181 31825 41547 80000 11173 21192 39925 40246 57021 78582 889//
AAXX 22181 31845 41996 81902 11168 21210 30047 40221 52014 77172 8802/
AAXX 22181 31878 41984 12701 11227 21248 30110 40246 52002 70271 81030
AAXX 22181 31915 42998 02902 11204 21271 39966 40253 58004
AAXX 22181 31921 42999 02903 11185 21253 30144 40250 50000
AAXX 22181 31969 42/// /2903 11157 21247 30201 40254 50000
AAXX 22181 31981 42999 20201 11190 21258 39992 40247 50003 80001
AAXX 22181 31987 42998 03410 11178 21256 39929 40208 51008 333 91120 91015 91120
AAXX 22181 32069 42998 81202 11130 21150 30146 40151 57016 80002 333 91003 91108
BBXX 44062 22181 99386 70764 46/// /2301 1//// 91820 22200 00093 333 91201
BBXX 44062 22181 99386 70764 46/// /2401 1//// 40171 91810 22200 00095 333 91201
BBXX 44062 22181 99386 70764 46/// /2601 10105 40173 56014 91800 22200 00093 1//00 70001 333 91201
BBXX 44063 22181 99390 70764 46/// /0000 1//// 91820 333 91200
BBXX 44063 22181 99390 70764 46/// /0000 1//// 40196 91810 333 91200
BBXX 44063 22181 99390 70764 46/// /0000 10103 40195 56023 91800 22200 00088 1//00 70001 333 91202
BBXX 44041 22181 99372 70768 46/// /1303 1//// 91820 333 91204
BBXX 44041 22181 99372 70768 46/// /1304 1//// 40202 91810 333 91204
BBXX 44041 22181 99372 70768 46/// /1403 10156 40201 58021 91800 22200 00103 1//00 70001 333 91204
BBXX 44042 22181 99380 70763 46/// /0801 1//// 91820 333 91201
BBXX 44042 22181 99380 70763 46/// /0000 1//// 40189 91810 333 91201
BBXX 44042 22181 99380 70763 46/// /1601 10115 40191 91800 22200 00096 1//00 70001 333 91202
BBXX 44043 22181 99392 70764 46/// /1803 1//// 91820 333 91203
BBXX 44043 22181 99392 70764 46/// /1803 1//// 40181 91810 333 91203
BBXX 44043 22181 99392 70764 46/// /1803 10102 40183 56019 91800 22200 00076 1//00 70001 333 91203
AAXX 22184 42634 32996 00000 10164 20067 40148 333 59017
AAXX 22184 42647 32996 03404 10194 20123 40138 333 59013
AAXX 22184 42737 32996 00203 10170 20123 40139 333 59023
AAXX 22184 42840 32996 03602 10206 20152 40137 333 59011
AAXX 22184 42909 32996 03606 10200 20086 40129 333 59010
AAXX 22184 42921 32996 00000 10154 20091 40180 333 59012
AAXX 22184 43003 31995 03603 10206 20174 40120 70500 333 59016
AAXX 22184 43063 32996 00000 10158 20119 39502 40142 333 59015
AAXX 22184 43110 31996 00201 10224 20176 40119 70040 333 59015
AAXX 22184 43117 32996 20000 10198 20075 40130 80001 333 59013
AAXX 22184 43192 32996 40202 10244 20194 40114 80032 333 59012
AAXX 22184 43014 NIL
BBXX 46132 22181 99497 71279 46/// /1316 10074 40216 57029 22200 00085 10708 70039 333 91220
BBXX 46205 22181 99542 71343 46/// /1620 10081 49956 57044 22200 00080 11118 70088 333 91225
BBXX 44059 22181 99368 70763 46/// /1702 1//// 91820 333 91202
BBXX 44059 22181 99368 70763 46/// /2401 1//// 40175 91810 333 91203
BBXX 44059 22181 99368 70763 46/// /2202 10193 40175 58022 91800 22200 00114 333 91203
BBXX 44057 22181 99395 70761 46/// /1803 1//// 91820 333 91203
BBXX 44057 22181 99395 70761 46/// /1804 1//// 40183 91810 333 91204
BBXX 44057 22181 99395 70761 46/// /1803 10105 40184 56019 91800 22200 00060 333 91204
BBXX 44058 22181 99376 70763 46/// /0000 1//// 91820 333 91201
BBXX 44058 22181 99376 70763 46/// /0801 1//// 40184 91810 333 91201
BBXX 44058 22181 99376 70763 46/// /0501 10107 40184 58017 91800 22200 00095 1//00 70001 333 91201
BBXX 46092 22181 99368 71220 46/// /1110 10101 40251 51022 91757 22200 00124 555 11103 22108
BBXX 46181 22181 99538 71288 46/// /2203 10036 40172 57035 22200 00045 10200 70001 333 91206
AAXX 22184 63729 32480 60000 10213 20198 38859 48/// 81932 333 10263 55300 59006 81618 81920 86072
AAXX 22184 63756 12580 60000 10202 20192 38865 48499 69952 81932 333 0//19 10255 58000 81820 81921 85076
AAXX 22184 63791 32580 41015 10268 20158 39111 48502 84500 333 10330 55300 59004 84627
AAXX 22184 63801 31580 71204 10228 20201 39210 48534 71792 8197/ 333 10290 58010 81820 81921 87359
AAXX 22184 63832 01480 70000 10198 20185 38824 48494 60152 70362 8297/ 333 10268 55300 58006 60027 82817 81918 87358
AAXX 22184 63862 11480 70000 10222 20198 38896 48503 60072 81173 333 0//94 59009 81820 86359
AAXX 22184 63866 22580 40512 10248 20220 39515 48/// 60122 83900 333 10274 58004 83622 81924
AAXX 22184 63881 01480 70000 10166 20156 38199 48/// 60412 71796 879// 333 10242 58004 60087 87618 81920
AAXX 22184 63887 32580 30000 10198 20169 38589 48505 81931 333 10250 55300 58002 81619 81921 83358
AAXX 22184 63894 12580 50308 10272 20256 30057 40117 60072 85900 333 10308 59001 85821 81922
AAXX 22184 63932 32125 60000 10170 20160 38300 48497 69902 86900 333 10240 59005 86822 81923
AAXX 22184 63962 31580 30909 10237 20194 38949 48512 71792 83900 333 10286 59001 83823 81924
AAXX 22184 63971 32580 60000 10257 20234 39997 40126 8423/ 333 10304 55300 58009 84820 84358
AAXX 22184 63733 NIL
AAXX 22184 63870 NIL
BBXX 46184 22181 99539 71389 46/// /1514 10073 49833 57042 22200 00064 11211 70057 333 91217
BBXX 46181 22181 99538 71288 46/// /2203 10036 40172 57035 22200 00045 10200 70001 333 91206
AAXX 22184 68171 NIL
AAXX 22184 68181 NIL
AAXX 22184 68185 NIL
AAXX 22184 68297 NIL
AAXX 22184 68342 NIL
AAXX 22184 68343 NIL
AAXX 22184 68349 NIL
AAXX 22184 68471 NIL
BBXX 46184 22181 99539 71389 46/// /1514 10073 49833 57042 22200 00064 11211 70057 333 91217
AAXX 22184 91723 NIL
AAXX 22184 91759 11598 20902 10251 20237 40071 53012 60001 70500 82101 333 82822 83078
AAXX 22184 91762 11598 51303 10252 20240 40067 53012 60111 71560 84802 333 84820 85078
AAXX 22181 24856 42998 00000 11415 21443 30206 40389 54000
AAXX 22181 30679 NIL
AAXX 22181 30686 42999 00000 11404 21417 39893 40337 52015
AAXX 22181 30961 42999 00000 11343 21365 39451 40348 58003
AAXX 22181 30971 42999 02401 11373 21415 39226 40358 52005
AAXX 22181 30978 42999 00000 11267 21404 39558 40344 58003
AAXX 22181 31513 42999 02901 11307 21312 39997 40251 51001
AAXX 22181 31624 NIL
AAXX 22181 31832 41563 80000 11185 21226 30131 40223 52003 70272 8452/
AAXX 22181 31913 NIL
AAXX 22181 32128 41497 73603 11027 21030 30010 40062 57036 78581 87300 333 91005 91107
AAXX 22184 68345 NIL
AAXX 22184 68674 NIL
AAXX 22184 43086 32996 00000 10178 20124 39955 40138 333 59007
AAXX 22184 43128 31996 01406 10212 20128 39523 40133 70500 333 59013
AAXX 22184 43150 31996 13602 10220 20121 30065 40141 70500 80002 333 59006 81075
AAXX 22184 43185 31596 20903 10234 20190 30128 40132 70500 81501 333 59010 81620
AAXX 22184 43189 32996 20000 10206 20133 30129 40138 80001 333 59008
AAXX 22184 43198 32996 20000 10162 20100 39290 40130 80001 333 59015 82075
AAXX 22184 43201 32996 00902 10196 20108 39396 40123 333 59013
AAXX 22184 43213 32996 09902 10214 20134 39809 40130 333 59013
AAXX 22184 43226 32996 00901 10210 20167 30084 40114 333 59014
AAXX 22184 43233 32996 30903 10194 20134 39312 40129 80004 333 59014
AAXX 22184 43237 32996 40902 10210 20153 39728 40126 80001 333 59014 84075
AAXX 22184 43245 32596 20000 10220 20188 30104 40131 81501 333 59014
AAXX 22184 43279 32496 63602 10234 20187 30110 40128 84501 333 59014 84618 83075
AAXX 22184 43284 32996 52504 10236 20196 39989 40105 80001 333 59011 85075
AAXX 22184 43295 32996 20902 10176 20132 39106 48506 80001 333 59015 82075
AAXX 22184 43311 32996 00902 10244 20223 40104 333 59011
AAXX 22184 43314 32996 30702 10246 20219 40105 81032 333 59013
AAXX 22184 43321 31995 20703 10210 20164 39676 40130 70500 80001 333 59000
AAXX 22184 43329 32996 00000 10230 20189 30103 40117 333 59015
AAXX 22184 43344 31596 50508 10224 20196 30019 40120 70522 82531 333 59012 82620 83360
AAXX 22184 43346 32596 83612 10258 20210 30100 40107 87502 333 59010 87620 83075
AAXX 22184 43353 31496 50503 10264 20200 40103 70522 82871 333 56699 59009 82614 83458 85072
AAXX 22184 43369 32596 50000 10274 20251 40099 83501 333 59013 83620 85075
AAXX 22184 43371 32596 60503 10256 20191 30027 40100 82402 333 59012 82620 86075
BBXX 9HA2064 22183 99502 71517 41697 83124 10050 20028 40030 52020 7//22 8874/ 22273 0//// 2//// 3//// 4//// 5//// 6//// 80040 ICE /////
BBXX C6SI3 22183 99492 71672 41796 81637 10040 20020 49840 57030 78166 88977 22213 0//// 20407 318// 4//// 5//// 6//// 80030 ICE /////
BBXX SHIP 22184 99543 71743 41598 40113 10000 21000 40010 56006 70222 84/// 91800 22224 00040 2//// 3//// 4//// 80000
BBXX SHIP 22184 99300 71764 41597 60515 10200 20170 40220 5//// 7//21 8487/ 22263 00220 2//// 3//// 4//// 5//// 6//// 80180 ICE /////
BBXX VRCI9 22184 99370 71569 41398 82222 10190 20175 40100 52010 70252 887// 22225 00176 20504 332// 40905 80170
BBXX 46181 22181 99538 71288 46/// /2203 10036 40172 57035 22200 00045 10200 70001 333 91206
BBXX 46185 22181 99524 71298 46/// /1718 10074 40146 57030 22200 00073 11012 70060 333 91223
BBXX 46204 22181 99514 71288 46/// /0915 10068 40173 57036 22200 00082 10708 70039 333 91218
BBXX 46205 22181 99542 71343 46/// /1620 10081 49956 57044 22200 00080 11118 70088 333 91225
BBXX 46206 22181 99488 71260 46/// /1213 10061 40264 57018 22200 00087 11204 70021 333 91215
BBXX 46207 22181 99509 71299 46/// /1719 10086 40149 57032 22200 00082 10811 70055 333 91223
BBXX 9V7955 22183 99301 71301 41497 80305 10172 20170 40240 54010 7//22 88143 22274 00170 20400 33200 40501 50501 6//// 80170 ICE /////
BBXX WDF4764 22184 99389 71244 41797 32509 10122 20100 40260 52030 70500 80005 22273 0//// 20202 33132 41007 50605 6//// 80111 ICE /////
BBXX MINUK01 2218/ 99602 70012 46/// ///// 10105 40023 57030
BBXX 46004 22181 99509 71361 46/// /1917 10085 49933 57031 22200 00075 11114 70072 333 91221
BBXX 44039 22181 99411 70727 46/// /2405 10107 20077 40184 91753 22200 00095 10301 70005 333 91207
AAXX 22181 56671 32980 01601 10024 20001 38185 52004 333 05300 10174
AAXX 22181 57378 31958 03601 10016 21035 40312 57003 71000 333 10094
AAXX 22181 57426 31757 80000 10051 20047 40280 52002 71000 885// 333 05252 10078
AAXX 22181 57476 32960 00201 10011 21039 40309 57001 333 10096
AAXX 22181 57584 31958 80203 10041 21021 40304 57003 71000 8807/ 333 10087
AAXX 22181 57598 32960 81601 10023 21005 40300 57005 8807/ 333 10106
AAXX 22181 57655 32960 80201 10051 21011 40297 57006 8807/ 333 10085
AAXX 22181 57713 NIL
AAXX 22181 57776 11/00 90405 11028 21033 40301 57010 69941 74974 333 11016
AAXX 22181 58321 32960 00702 10000 21100 40326 57010 333 10066
AAXX 22181 58437 32980 03603 11068 21299 38169 57008 333 11051
AAXX 22181 58445 NIL
AAXX 22181 58556 32975 03603 10027 21032 40301 54000 333 10077
AAXX 22181 58569 32975 63405 10042 21016 40281 52001 86030 333 10094
AAXX 22181 58646 31656 80000 10057 21034 40287 57007 70500 885// 333 10098
AAXX 22181 58653 NIL
AAXX 22181 58660 NIL
AAXX 22181 58715 31740 83204 10058 20023 40275 57007 71000 8557/ 333 10075
AAXX 22181 58730 32662 83202 10070 20002 40268 57007 885// 333 10111
AAXX 22181 58731 11660 80401 10047 20037 40273 57006 69931 70060 885// 333 10101
AAXX 22181 58754 32661 80202 10088 21022 40267 57003 885// 333 10128
AAXX 22181 58911 31656 83402 10063 20029 40260 57004 71000 885// 333 10089
AAXX 22181 58931 11/00 90404 10007 20007 38361 57007 69931 75454 333 10040
AAXX 22181 59254 31957 00701 10103 20051 40230 52002 70500 333 10191
AAXX 22181 59632 32960 70203 10121 20043 40210 57001 8704/ 333 10194
AAXX 22181 59855 32568 70401 10186 20143 40178 57008 878// 333 10229
AAXX 22181 45032 36/// /3503 10124 20040 30192 40209 57002
AAXX 22181 45035 36/// /0606 10131 20054 30165 40207 57001 333 91111
AAXX 22181 45039 36/// /0405 10136 20063 30189 40205 57001
AAXX 22181 45044 36/// /0108 10140 20074 30101 40197 54000
BBXX 46004 22181 99509 71361 46/// /1917 10085 49933 57031 22200 00075 11114 70072 333 91221
AAXX 22181 45032 36/// /3503 10124 20040 30192 40209 57002
AAXX 22181 45035 36/// /0606 10131 20054 30165 40207 57001 333 91111
AAXX 22181 45039 36/// /0405 10136 20063 30189 40205 57001
AAXX 22181 45044 36/// /0108 10140 20074 30101 40197 54000
AAXX 22184 71221 16/// /2614 10013 21050 60001 333 21105 7////
AAXX 22184 71226 16/// /2710 10008 21051 60001 333 10008 21037 70000
AAXX 22184 71229 46/// /1705 11044 21076 6///1 333 11036 21102 7////
AAXX 22184 71359 16/// /2809 11016 21074 60001 333 11016 21079 70000
AAXX 22184 71405 16/// ///// 11030 21065 60001 333 11002 21111 70004
AAXX 22184 71417 16/// /1205 10007 20007 39969 40003 56034 60001 333 10007 21048 70000
AAXX 22184 71426 46/// /2410 10014 6///1 333 10019 21015 7////
AAXX 22184 71010 16/// /2807 11007 21075 60001 333 11005 21093 70000
AAXX 22184 71011 16/// ///// 11064 21121 60001 333 11064 21130 70000
AAXX 22184 71049 16/// /3109 11288 30061 40086 51002 60001 333 11252 21298 70000
AAXX 22184 71894 16/// /1009 10047 20012 30251 40260 56020 60001 333 10057 20012 70000
AAXX 22184 71067 16/// ///// 11021 21080 60001 333 11009 21096 70000
AAXX 22184 71788 16/// /2510 10001 21068 60001 333 10002 21107 70000
AAXX 22184 71792 16/// ///// 11054 21103 60001 333 11037 21105 70000
AAXX 22184 71283 16/// /2612 10006 21038 60001 333 10006 21064 70000
AAXX 22184 71888 16/// ///// 11012 21059 60001 333 11012 21093 70000
AAXX 22184 71895 16/// ///// 11009 21076 60001 333 21105 7////
AAXX 22184 71500 16/// /2904 11002 21101 60001 333 10011 21054 70000
AAXX 22184 71504 16/// ///// 10001 21091 60001 333 10005 21115 70000
AAXX 22184 71526 16/// /2707 11003 21139 60001 333 11002 21113 70000
AAXX 22184 71541 16/// /2714 11005 21025 60001 333 11002 21064 70000
AAXX 22184 71543 16/// /2513 11003 21056 60001 333 10001 21091 7////
AAXX 22184 71546 16/// /2617 10020 21054 60001 333 10021 21047 70000
AAXX 22184 71547 16/// /2518 10004 21062 60001 333 10004 21044 70000
AAXX 22184 71673 16/// ///// 11035 21077 60001 333 11034 21128 70000
AAXX 22184 71690 17/// ///// 10006 21043 69941 7//4/ 333 10007 21085 70004
AAXX 22184 71461 16/// /2717 10013 21031 60001 333 10015 21051 70000
AAXX 22184 71468 16/// /3114 11117 21133 39919 40253 51013 60001 333 21117 70000
AAXX 22184 71483 16/// ///// 11022 21084 60001 333 11014 21064 70000
BBXX 44060 22181 99413 70721 46/// ///05 10100 40171 91830 22200 00110 333 91206 555 11051 22051
AAXX 22184 61202 32965 10000 10230 21072 39614 40176 81080 333 10264 58010 81365
BBXX 46246 22181 99500 71451 46/// ///// 1//// 91759 22200 00073 11717 21009 322// 41714 70084
BBXX 46232 22181 99325 71174 46/// ///// 1//// 91808 22200 00151 11303 21002 328// 41302 70013
BBXX 46247 22181 99378 71228 46/// ///// 1//// 91821 22200 00118 11104 20903 330// 41103 70020
BBXX 46246 22181 99500 71451 46/// ///// 1//// 91829 22200 00073 11417 21009 321// 41414 70086
AAXX 22184 71894 16/// /1009 10047 20012 30251 40260 56020 60001 333 10057 20012 70000
AAXX 22181 56144 32980 00901 11023 21206 36816 52007 333 05101 10147
AAXX 22181 56152 32980 00000 11131 21185 36274 52003 333 00000 10074
AAXX 22181 56167 32980 00000 11064 21110 37041 52008 333 05100 10154
AAXX 22181 56182 32980 00000 11076 21109 37195 52010 333 05254 10077
AAXX 22181 56357 32980 00000 11079 21228 36430 57001 333 05201 10123
AAXX 22181 56586 11456 83603 11003 21024 38063 54000 69901 76666 885// 333 05400 10017 93427
AAXX 22181 56748 32980 00000 10054 20032 38351 57001 333 05101 10195
AAXX 22181 56763 32980 01105 10166 20043 40085 54000 333 05206 10246
AAXX 22181 56768 32980 00701 10091 20060 38169 57002 333 05202 10170
AAXX 22181 56838 32968 00000 10113 20100 40156 54000 333 05100 10246
AAXX 22181 56886 31720 81802 10046 20043 38299 57002 72800 884// 333 05252 10098
AAXX 22181 56946 32980 02202 10086 20077 40157 52001 333 05101 10238
AAXX 22181 56959 32965 00000 10125 20125 40152 57002 333 05100 10252
AAXX 22181 56969 31456 71101 10111 20108 40168 57004 71000 87600 333 05151 10242
AAXX 22181 57731 32662 80401 10056 21011 40286 57004 885// 333 05200 10075
AAXX 22181 57766 32760 83602 10063 20004 40293 57009 885// 333 10075
AAXX 22181 57845 32760 83401 10058 21014 40271 57007 885// 333 10081
AAXX 22181 57853 31956 80702 10054 21002 40287 57013 70500 8807/ 333 10073
AAXX 22181 57916 11660 81401 10056 20047 40262 52001 69901 76060 885// 333 05154 10109
AAXX 22181 57922 11340 83601 10015 20012 40274 57001 69921 76060 887// 333 05252 10036
AAXX 22181 57932 11662 80401 10068 20009 40276 57004 69901 76000 885// 333 05252 10083
AAXX 22181 58338 32962 00702 11003 21047 40310 57010 333 10070
AAXX 22181 59007 32461 80201 10057 20037 40218 57001 885// 333 10071
AAXX 22181 59046 31956 70201 10082 20031 40250 57005 71000 8703/ 333 10131
AAXX 22181 59058 31956 02903 10075 20007 40248 57003 70500 333 10149
AAXX 22181 59072 31957 80203 10071 20020 40265 57003 70500 8807/ 333 10122
AAXX 22181 59087 32960 00905 10084 20013 40241 52001 333 10167
AAXX 22181 59209 32461 83201 10096 20065 40213 57004 888// 333 10120
BBXX 46146 22181 99493 71237 46/// /1304 10044 40308 57008 22200 00065 10301 70003 333 91206
BBXX 46146 22181 99493 71237 46/// /1304 10044 40308 57008 22200 00065 10301 70003 333 91206
BBXX 46243 22181 99462 71241 46/// ///// 1//// 91829 22200 00080 11303 20902 326// 41302 70013
BBXX 46236 22181 99368 71219 46/// ///// 1//// 91820 22200 00124 11304 21002 329// 41303 70019
BBXX 46229 22181 99438 71246 46/// ///// 1//// 91821 22200 00098 11304 21003 328// 41303 70019
BBXX 46212 22181 99408 71243 46/// ///// 1//// 91812 22200 00096 11304 21003 330// 41303 70021
BBXX 46225 22181 99329 71174 46/// ///// 1//// 91814 22200 00145 11302 20501 325// 41301 70008
BBXX 46213 22181 99403 71247 46/// ///// 1//// 91824 22200 00100 11304 20703 330// 41303 70022
BBXX 46215 22181 99352 71209 46/// ///// 1//// 91808 22200 00152 11303 21002 327// 41303 70015
AAXX 22181 26518 31/07 90000 11065 21070 40226 52009 74942 333 11052 91001 91101 93510 555 4/014 53002
BBXX 42013 22181 99272 70829 46/// ///// 1//// 40196 91740 22200 00201
BBXX 41010 22181 99289 70785 46/// /1507 10237 40213 91820 22200 00239 10603 20602 300// 40601 70013 333 91209 555 11069 22073
BBXX 41009 22181 99285 70802 46/// /1607 10244 20198 40205 91820 22200 00242 10602 20602 300// 41101 70012 333 91208 555 11072 22077
BBXX 42362 22181 99278 70907 46/// /2013 10239 20217 40156 91830
BBXX 42363 22181 99282 70892 46/// /2013 10239 20206 40159 91830 333 91213
BBXX 42364 22181 99291 70881 46/// /1809 10233 20217 40156 91830
BBXX 42361 22181 99276 70925 46/// ///18 10200 20139 40156 50007 91830 555 11142 22152
BBXX 44100 22181 99363 70756 46/// ///// 1//// 91822 22200 00125 10802 20802 308// 41301 70009
BBXX 41110 22181 99341 70777 46/// ///// 1//// 91821 22200 00142 10702 20702 70010
BBXX 42099 22181 99273 70842 46/// ///// 1//// 91827 22200 00231 10603 20603 70014
BBXX 41113 22181 99284 70805 46/// ///// 1//// 91821 22200 00226 10502 20502 309// 41201 70009
BBXX 41112 22181 99307 70813 46/// ///// 1//// 91821 22200 00164 11202 21001 310// 41201 70008
BBXX BATFR19 22184 99066 30057 46/// /1813 10234 20194 40129 53017 22200 00252
BBXX A8CK2 22184 99100 30800 41/97 /2107 10285 20264 40090 52010 70200 8//// 22254 20702 3//// 4//// 5//// 80270
BBXX BATFR56 22184 99162 30632 46/// /1324 10257 20230 40132 52005 22213 00284
BBXX ZCDE3 22183 99167 30874 41698 81220 10248 20204 40096 54000 70322 8692/ 22214 00270 20607 305// 40404 5//// 80219
BBXX BATEU07 22184 99169 31085 46/// /1819 10255 40065 58019 22284
BBXX 3FMV6 22183 99198 30114 41998 51621 10190 20138 40128 53010 70111 82085 22244 06180 21203 80160
BBXX PCSV 22183 99214 30543 41/98 10502 10251 20203 40172 53001 70022 8/100 22253 04260 21002 305// 41002 80218 90663
BBXX OVYB2 22181 99251 30382 41598 60306 10255 20215 40134 54000 70222 8387/ 22263 00260 20201 30000 4//// 5//// 80228
BBXX DEIR 22183 99254 30688 41/98 60817 10230 20167 40241 53016 70311 8//// 22223 20903 80189
BBXX TBWUK42 22184 99326 30343 41598 83510 10245 20199 40112 53003 70222 884// 22213 20303 3//// 4//// 5//// 80215
BBXX TBWUK18 22184 99330 30056 41298 71006 10190 20190 40227 52010 70222 877// 22222 20601 319// 41405 5//// 80190
BBXX ONDY 22184 99331 30302 41396 81817 10220 2016/ 40110 52030 75252 8//// 22213 00231 2//// 3//// 4//// 5//// 6//// 80180 ICE /////
BBXX A8KH9 22184 99338 30179 41698 40216 10180 20164 40140 56140 70322 83453 22244 02160 20102 30102 40204 50306 80170
BBXX DBBT 22181 99339 30184 46/// /1902 10195 20089 40171 52024 22260 00156
BBXX BATFR08 22184 99365 30759 46/// /2218 10164 20142 40268 51012 22273 00167
BBXX 44258 22181 99445 70634 46/// /3304 10078 40064 52021 22200 00064 10805 70023 333 91205
BBXX 44258 22181 99445 70634 46/// /3304 10078 40064 52021 22200 00064 10805 70023 333 91205
AAXX 22184 87349 32570 11810 10303 20178 39682 40059 57011 81100 333 56000 81820
AAXX 22184 96009 31457 60000 10249 20237 30042 40077 58013 71321 82972 333 56000 57904 81915 81620 83361 80966
AAXX 22184 96011 32560 80000 10244 20231 30057 40083 57020 84532 333 56000 84620
AAXX 22184 96035 31450 70000 10260 20248 30044 40082 57008 70522 84576 333 56000 84618
AAXX 22184 96073 01430 70000 10248 20246 30070 40081 56002 60281 76362 84972 333 56000 57901 60287 84910 80958
AAXX 22184 96091 32458 60000 10250 20244 30062 40085 57011 83811 333 56000 57803 83613
AAXX 22184 96109 31450 70000 10246 20240 30037 40076 57008 70522 83572 333 56000 83616
AAXX 22184 96145 NIL
AAXX 22184 96147 NIL
AAXX 22184 96163 11558 70000 10246 20242 30075 40077 57020 60231 70162 83528 333 56000 83620
AAXX 22184 96179 32460 70000 10248 20236 30052 40089 52004 83208 333 56000 57802 83817 80850
AAXX 22184 96195 31457 63204 10252 20238 30044 40080 56015 70522 82521 333 56000 82615
AAXX 22184 96221 31458 60000 10258 20249 30057 40072 57010 70522 82531 333 56999 82615
AAXX 22184 96237 11456 80000 10256 20247 30029 40071 58013 69901 70262 84218 333 56000 57802 83816 85460 86280 80858
AAXX 22184 96249 01558 73104 10255 20247 30011 40072 57012 69901 71362 84932 333 56000 57901 57801 69907 81920 83820 80981
AAXX 22184 96253 NIL
AAXX 22184 96295 21457 80000 10264 20255 39965 40067 56016 69901 70522 8552/ 333 56009 85612
AAXX 22184 96509 31458 50000 10277 20255 30044 40055 57017 71321 84931 333 56000 57902 82915 82615 80965
AAXX 22184 96581 32456 70000 10260 20254 30067 40074 57012 86170 333 56600 86811 80860
AAXX 22184 96633 01456 82212 10258 20256 30042 40050 57003 69981 79196 8592/ 333 56559 57950 69987 81917 84617 84617 88459 809//
AAXX 22184 96645 31440 80000 10252 20250 30030 40062 57014 71022 85572 333 56000 85612
AAXX 22184 96655 11458 60000 10248 20242 30050 40080 57010 60011 70262 83422 333 56000 83613 85462
AAXX 22184 96685 01458 80000 10254 20249 30038 40064 57015 60081 72166 8452/ 333 56009 60017 84615 88462
AAXX 22184 96749 01456 72505 10266 20235 30054 40067 57020 60041 71362 83971 333 56000 57980 60027 81919 82621 85361
AAXX 22184 96781 NIL
AAXX 22184 96805 01558 50000 10264 20246 30072 40082 56012 60011 70262 84211 333 56000 57801 69977 84820 80860
AAXX 22184 96839 NIL
AAXX 22184 96935 31557 62705 10264 20249 30046 40053 57018 70522 81172 333 56000 81820 85080
AAXX 22184 96001 NIL
AAXX 22184 96015 12440 80000 10248 20242 30081 40088 57007 60011 8457/ 333 56009 84613
AAXX 22184 96033 31456 80000 10264 20246 30074 40079 57012 70522 83927 333 56000 57903 81920 83617 84457 80980
AAXX 22184 96075 32440 82709 10254 20248 30078 40084 57004 8452/ 333 56009 84616 88460
AAXX 22184 96087 32459 70000 10250 20238 30043 40077 56013 83538 333 56000 83615 85280
AAXX 22184 96171 31440 70000 10248 20236 30053 40088 50000 70522 84522 333 56000 84616
AAXX 22184 96207 NIL
AAXX 22184 96525 01440 82904 10261 20254 30052 40059 57013 69901 79596 8297/ 333 56009 57900 69907 82915 88460 809//
AAXX 22184 96529 32950 20000 10254 20251 30050 40075 59006 80001 333 56000 82080
AAXX 22184 96559 31320 80000 10250 20238 30033 40071 57009 71322 8592/ 333 56009 57902 57804 81913 84809 88462 80974 80857
AAXX 22184 96607 32458 50000 10266 20251 30046 40061 57015 82221 333 56000 82815
AAXX 22184 96615 01440 80000 10262 20253 30067 40081 57011 60041 76196 8532/ 333 56009 57903 57803 60037 81914 84811 88460 80959 80856
AAXX 22184 96737 32460 70000 10270 20241 30031 40062 58008 84521 333 56000 84617 83460
AAXX 22184 96739 32557 72309 10266 20236 30023 40072 57015 85522 333 56000 85620
AAXX 22184 96741 01556 82504 10278 20245 30063 40067 57016 60011 70262 8357/ 333 56009 60017 83620 85460
AAXX 22184 96745 NIL
AAXX 22184 96751 32540 50000 10208 20189 39014 48920 56011 83510 333 56400 83620 83460
AAXX 22184 96791 NIL
AAXX 22184 96797 32457 62310 10276 20232 30071 40076 50001 83971 333 56000 57902 81920 82620 80980
AAXX 22184 96837 32558 60000 10290 20247 30061 40064 57011 82272 333 56000 57800 82823
AAXX 22184 96925 31464 72603 10283 20258 30049 40053 57018 71792 84972 333 56600 57960 57860 81917 83817 84080 80980 80860
AAXX 22184 96933 31460 80000 10276 20247 30059 40063 57012 70292 8252/ 333 56609 82618 88460
AAXX 22184 96937 32958 40000 10279 20249 30051 40056 57017 80008 333 56000 84280
AAXX 22184 96973 32558 42904 10272 20252 30049 40055 57017 82131 333 56000 57803 82820 80850
AAXX 22184 96987 32559 70000 10258 20243 39996 40056 57015 83511 333 56000 83620
AAXX 22184 97014 32560 50000 10237 20227 39966 40059 57020 81571 333 56000 81623
AAXX 22184 97028 NIL
AAXX 22184 97048 31450 60000 10247 20243 30022 40046 57014 71021 84271 333 56000 57804 84817 80860
AAXX 22184 97072 32558 60000 10252 20228 39969 40069 57002 82521 333 56000 82620 84460
AAXX 22184 97086 01458 72806 10286 20240 30035 40060 58004 69901 79196 83971 333 56000 57904 69907 82917 85460 80980
AAXX 22184 97096 NIL
AAXX 22184 97120 32459 50000 10268 20241 30012 40045 56020 82231 333 56000 57802 82818 80860
AAXX 22184 97146 NIL
AAXX 22184 97180 32457 60703 10253 20253 30025 40043 58029 82232 333 56000 82819 83360
AAXX 22184 97192 NIL
AAXX 22184 97230 01460 72909 10282 20257 30039 40046 57017 60011 72162 84231 333 56600 57861 69917 85814 80859
AAXX 22184 97260 31558 41302 10236 20221 30023 40030 57025 71321 82901 333 56000 57907 81920 80980
AAXX 22184 97270 NIL
AAXX 22184 97300 32560 60000 10260 20245 30012 40052 55006 82271 333 56000 82820
AAXX 22184 97340 NIL
AAXX 22184 97372 NIL
AAXX 22184 97430 NIL
AAXX 22184 97460 NIL
AAXX 22184 97502 01430 70305 10244 30041 40045 57013 60091 85531 333 56000 60097 85610
AAXX 22184 97530 NIL
AAXX 22184 97560 NIL
AAXX 22184 97686 NIL
AAXX 22184 97690 NIL
AAXX 22184 97724 01458 83203 10261 20231 30012 40028 57026 60051 76062 8787/ 333 56709 57871 69967 86814 80842
AAXX 22184 97748 31459 83510 10276 20238 30057 40059 55004 71322 84976 333 56800 67980 83914 85458 80940
AAXX 22184 97760 11450 73206 10263 20240 30028 40038 57019 60021 71522 84832 333 56000 57801 82816 83617 80860
AAXX 22184 97796 01356 80908 10246 20240 30001 40051 57017 69901 70562 8453/ 333 56009 69907 84608 87460
AAXX 22184 97810 NIL
AAXX 22184 97900 01456 82807 10257 20249 39974 40003 57024 60171 72162 8682/ 333 56609 57861 60177 85614 88458 80858
AAXX 22184 97980 NIL
AAXX 22184 97008 32459 60000 10258 20246 30045 40055 57003 84232 333 56000 84818 80860
AAXX 22184 97016 32459 62912 10282 20211 30046 40048 57015 82867 333 56000 57801 82819 85280 80864
AAXX 22184 97126 01456 80403 10244 20238 30005 40065 56018 60061 76162 8392/ 333 56009 57900 60067 81915 82615 88460 80980
AAXX 22184 97182 NIL
AAXX 22184 97240 NIL
AAXX 22184 97310 32556 30000 10250 20238 30014 40026 57018 83101 333 56000 83820
AAXX 22184 97320 32560 50000 10262 20245 30014 40026 57012 82121 333 56000 82820 83460
AAXX 22184 97378 NIL
AAXX 22184 97406 NIL
AAXX 22184 97570 NIL
AAXX 22184 97630 01450 80105 10246 20234 39873 40032 56025 60031 76166 88923 333 56000 57901 69967 82910 86707 88458 80977
AAXX 22184 97700 01456 70000 10248 20238 30020 40034 57029 60201 71562 84872 333 56000 57804 60097 82817 84458 80850
AAXX 22184 97722 01460 70000 10256 20238 30030 40045 57010 69941 71396 85972 333 56600 57961 57861 69947 81918 83819 80971 80857
BBXX 44140 22181 99429 70515 46/// /1611 10142 40158 57063 22200 00076 11005 70025 333 91213
AAXX 22181 98134 11450 80404 10190 20183 39950 40143 5//// 60031 76166 8552/ 333 56199 85617 88456
AAXX 22181 98223 32562 13606 10240 20221 40091 58004 81100 333 56999 81820
AAXX 22181 98232 11560 80410 10232 20222 40123 58005 60031 70242 8557/ 333 56199 85618 88358
AAXX 22181 98325 32458 71602 10257 20245 40083 58007 83270 333 56999 83816 84358
AAXX 22181 98328 31460 31102 10168 20162 38500 40063 58006 74044 82201 333 56999 82813 33302 56999 82818 84070
AAXX 22181 98330 NIL
AAXX 22181 98336 32468 60702 10238 20236 30093 40098 57010 81571 333 56999 81616 84076
AAXX 22181 98429 31560 21202 10264 20235 40083 58014 70544 82800 333 56999 82825
AAXX 22181 98430 31558 21401 10240 20333 40085 58002 70540 81140 333 56999 81820
AAXX 22181 98431 31458 41601 10245 20234 30037 40084 58008 70221 82230 333 56999 82818
AAXX 22181 98440 NIL
AAXX 22181 98444 11465 40000 10261 20246 30052 40071 58017 69901 70382 82202 333 56999 82818 84070
AAXX 22181 98526 32570 80401 10242 20232 40076 58014 82207 333 56999 82820 88274
AAXX 22181 98531 NIL
AAXX 22181 98536 11465 60302 10249 20227 39879 40084 58004 69961 70182 82260 333 56199 82818 84357
AAXX 22181 98543 32468 63603 10261 20244 30064 40075 58010 82201 333 56999 82818 85075
AAXX 22181 98550 11459 70000 10257 20248 40064 58018 69981 78086 84970 333 56999 82915 87357
AAXX 22181 98618 32570 52703 10249 20242 40077 58001 82201 333 56999 82820 84075
AAXX 22181 98630 NIL
AAXX 22181 98637 NIL
AAXX 22181 98646 11558 83301 10266 20254 30056 40084 57012 60031 78086 8427/ 333 56199 84820 88459
AAXX 22181 98653 31465 80000 10261 20253 30000 40045 58013 69921 72544 8227/ 333 56999 82818 88358
AAXX 22181 98741 NIL
AAXX 22181 98747 11458 62201 10238 20224 39860 40062 58011 60121 70586 82870 333 56999 82818 85358
AAXX 22181 98753 31465 73602 10253 20235 40058 58013 70544 82238 333 56999 82816 85359 85279
AAXX 22181 98755 32701 10250 20236 40056 58020 60071 70280 82201 333 56999 82820 83080
AAXX 22181 98836 31460 80000 10252 20236 40064 58015 70544 8227/ 333 56999 82818 88362
BBXX 44140 22181 99429 70515 46/// /1611 10142 40158 57063 22200 00076 11005 70025 333 91213
BBXX 46036 22181 99484 71339 46/// /1914 10095 40070 57006 22200 00082 11011 70056 333 91218
BBXX 64045 22184 99591 70117 46/// /2336 10088 20039 49908 56012 22200 00101 10915 70074 333 90710 91152
BBXX 63110 22183 99595 10015 41/97 /2228 10098 40054 700// 8//// 22200 10604 70022
BBXX 63106 22184 99610 10017 46/// /2223 10098 40018 56020 22200
BBXX 63105 22184 99610 10017 47796 ///// 10101 20089 40019 57021 700// 22200
BBXX 62305 22184 99504 10000 46/98 /2723 10120 20092 40279 54000 22200 00120 10602 70008 333 90710 91130
BBXX 62103 22184 99499 70029 46/99 /2684 10123 20093 40278 57007 22200 00122 10702 70010
BBXX 62169 22183 99614 10014 41/97 82230 10102 20098 40000 57010 70282 8//// 22200 20609 3//// 4//// 5//// 80100
BBXX TBWUK34 22183 99378 10052 41298 63621 10175 20108 40254 52020 72152 867// 22263 00190 20501 336// 40705 5//// 80139
BBXX SHIP 22184 99336 10352 41597 31808 10180 20130 40137 5//// 83200 222// 02200 20000 330// 40501 333 83820
AAXX 22181 23426 32584 60000 11153 21166 30163 40189 57002 82501 333 11121
AAXX 22181 23625 11996 81301 11101 21114 30159 40194 57008 69900 77172 8802/ 333 11100
AAXX 22181 28076 12997 80000 11045 21116 30183 40257 57005 69900 8807/ 333 11034
AAXX 22181 28367 32984 22002 11085 21176 30190 40324 57009 80002 333 11069
AAXX 22181 28382 32998 62203 11071 21146 30236 40309 57002 86070 333 11042
AAXX 22181 28481 32997 72102 11092 21154 30233 40337 57003 87030 333 11059
AAXX 22181 28491 32997 82303 11087 21153 30206 40321 54000 83031 333 11058
AAXX 22181 28573 32997 82304 11080 21148 30254 40363 57009 8805/ 333 11074
AAXX 22181 28593 12997 82202 11091 21153 30238 40340 57001 69900 8801/ 333 11066
AAXX 22181 28786 32997 82505 11102 21175 30250 40418 57002 83032 333 11090
AAXX 22181 28797 31997 82405 11106 21169 30243 40410 57005 73632 80001 333 11093
AAXX 22181 28799 11997 32704 11113 21175 30253 40408 57005 69900 70271 80005 333 11096
AAXX 22181 20046 NIL
AAXX 22181 20069 NIL
AAXX 22181 20087 41894 81214 11211 21236 30169 40180 57005 77173 8802/ 333 91117 92983
AAXX 22181 20292 NIL
AAXX 22181 20353 46/// /3305 11064 21101 30092 40096 57003
AAXX 22181 20667 32998 81804 11032 21036 30078 40085 57006 8805/ 333 11025
AAXX 22181 20674 41395 82010 11163 21176 30067 40130 57009 77173 8572/ 333 85707 91114 92982
AAXX 22181 20744 NIL
AAXX 22181 20891 42998 00603 11332 21362 30204 40251 57004 333 91105
AAXX 22181 23022 NIL
AAXX 22181 23032 NIL
AAXX 22181 23058 NIL
AAXX 22181 23242 NIL
AAXX 22181 23256 11496 82102 11176 21188 30135 40173 57002 60020 77172 85506 333 11118 85613
AAXX 22181 23330 12997 62103 11200 21219 30153 40176 57007 69920 83031 333 11175
AAXX 22181 23445 32295 82501 11156 21169 30154 40181 57002 71074 886// 333 11160 88706
AAXX 22181 23552 11496 81801 11158 21171 30152 40189 57006 69920 77172 885// 333 11164 88612
AAXX 22181 23631 32998 80000 11125 21138 30156 40199 57004 8805/ 333 11133
AAXX 22181 23662 11497 80000 11141 21161 30159 40206 57012 69940 77872 885// 333 11129 86619
AAXX 22181 23724 11997 82302 11067 21075 30140 40206 57006 69930 77372 8802/ 333 11058
AAXX 22181 23734 11496 80000 11080 21090 30119 40214 57002 60010 77172 8802/ 333 11089
AAXX 22181 23849 41696 72503 11081 21098 40233 57001 78588 83930 333 83933
AAXX 22181 23867 11996 81801 11092 21108 30153 40228 57009 69960 77172 8802/ 333 11094
AAXX 22181 23933 11596 82302 11056 21082 30176 40234 57004 69900 78587 8597/ 333 11056
AAXX 22181 28064 32598 82001 11030 21127 30162 40255 57003 885// 333 11020
AAXX 22181 28275 32997 82203 11077 21161 30236 40298 58007 85032 333 11054
AAXX 22181 28493 32997 72403 11072 21147 30227 40322 54000 87070 333 11053
AAXX 22181 28698 31997 82403 11085 21168 30218 40380 57009 73632 86032 333 11072
BBXX 46238 22181 99334 71195 46/// ///// 1//// 91820 22200 00142 11403 21002 328// 41402 70017
BBXX 46239 22181 99363 71221 46/// ///// 1//// 91821 22200 00131 11305 21003 331// 41304 70025
AAXX 22183 63723 32980 00904 10297 20186 40097 333 59001
AAXX 22184 78318 11562 31505 10278 20170 30165 40169 58016 60001 70500 83200 333 10278 20193 30/// 56900 59004 83820
AAXX 22184 78325 11564 11704 10287 20167 30114 40172 58021 60001 70500 81800 333 10291 20190 30/// 56200 59004 81820 555 10901
AAXX 22184 78333 11/10 11403 10274 20191 30169 40176 57013 60001 70500 81232 333 10278 20182 30/// 56999 58000 818//
AAXX 22184 78348 01556 70904 10251 20213 30122 40174 58018 69921 70582 87800 333 10257 20199 30/// 56200 57815 59012 69927 70002 83820 86630 555 10902
AAXX 22184 78349 11566 41104 10288 20185 30066 40175 57024 60001 70511 84232 333 10288 20188 30/// 56299 57852 59010 84823 555 10903
AAXX 22184 78353 12570 51204 10274 20193 30157 40179 58021 60001 84802 333 10274 20232 30/// 56209 59008 83823 555 11103
AAXX 22184 78360 12570 31307 10292 20202 30152 40164 58017 60001 83800 333 10300 20193 30/// 56900 59001 83820 92034
BBXX 44099 22181 99369 70757 46/// ///// 1//// 91822 22200 00115 10802 20802 70010
BBXX 44022 22181 99409 70737 46/// ///05 10126 20041 40178 91830 22200 00084 333 91207 555 11062 22077
BBXX 44040 22181 99410 70736 46/// /3003 10121 20049 40184 91819 22200 1//00 70000 333 91204 555 11041 22051
BBXX 51204 22181 99213 71581 46/// ///// 1//// 91822 22200 00247 10703 20702 322// 41201 70013
BBXX 51202 22181 99214 71577 46/// ///// 1//// 91809 22200 00243 10805 20805 303// 41101 70024
BBXX 46219 22181 99332 71199 46/// ///// 1//// 91828 22200 00136 11404 21002 330// 41404 70022
BBXX 46224 22181 99332 71175 46/// ///// 1//// 91806 22200 00144 11401 20501 323// 41401 70007
BBXX 46214 22181 99379 71235 46/// ///// 1//// 91823 22200 00117 11304 21003 329// 41303 70021
BBXX WC5932 22184 99417 70874 43/// /3507 00/// 10041 21044 40198 58004 7//// 8//// 22200 0//// 2//// 3//// 4//// 5//// 6//// 80009 ICE /////
BBXX 3EEE2 22184 99182 70812 43697 34515 10280 20250 40130 51007 70303 83319 91745 22233 04270 2//02 303// 4//03 80240
BBXX WYP8657 22184 99476 70890 41/98 53322 10210 2//// 40238 5//// 70322 8/5/5 22223 00044 20402 3//// 4//// 5//// 6//// 8//// ICE /////
BBXX 46036 22181 99484 71339 46/// /1914 10095 40070 57006 22200 00082 11011 70056 333 91218
BBXX MINUK01 2218/ 99602 70012 46/// ///// 10105 40023 57030
BBXX C6VF5 22184 99343 10246 43/// 62726 10130 2007/ 40070 5//// 7//// 8626/ 22274 00180 2//// 3//// 4//// 5//// 6//// 80100 ICE /////
BBXX UIFC 22181 99315 11238 41/97 90211 10091 40235 54012 70222 22212 00131 20301 0306 40603
BBXX UFLT 22181 99575 11494 42/97 90108 11050 40188 54000 22213 00000 20603 301// 40603
BBXX UDWE 22181 99475 11530 42998 01506 11030 40215 58004 22253 00028 20101
BBXX LEQZ3 22183 99539 11752 41298 40619 10000 2000/ 40060 51010 70200 22253 00110 80000 NNNN
BBXX ZCBZ 22183 99070 11214 41/// 50410 10290 20262 40079 56010 70000 8//// 22264 20302 30404 40302 50201 80270
BBXX ZDLP 22183 99527 50448 41599 43210 10070 20066 49877 56005 70222 83442 22263 04045 20000 332// 40501 5//// 80068
BBXX 62141 22183 99493 50591 41698 62327 10105 20074 49999 52003 70211 8646/ 22200 20705 324// 40703 5//// 80090
BBXX DFCX2 22183 99276 50713 41997 11926 10198 20150 40090 57010 70100 80007 22244 06171 20506 321// 40607
BBXX 44057 22181 99395 70761 46/// /1804 1//// 40183 91810 333 91204
BBXX 44058 22181 99376 70763 46/// /0801 1//// 40184 91810 333 91201
BBXX 44057 22181 99395 70761 46/// /1803 1//// 91820 333 91203
BBXX 44043 22181 99392 70764 46/// /1803 10102 40183 56019 91800 22200 00076 1//00 70001 333 91203
BBXX 44043 22181 99392 70764 46/// /1803 1//// 40181 91810 333 91203
BBXX 44042 22181 99380 70763 46/// /1601 10115 40191 91800 22200 00096 1//00 70001 333 91202
BBXX 44041 22181 99372 70768 46/// /1403 10156 40201 58021 91800 22200 00103 1//00 70001 333 91204
BBXX 44062 22181 99386 70764 46/// /2301 1//// 91820 22200 00093 333 91201
BBXX 44042 22181 99380 70763 46/// /0000 1//// 40189 91810 333 91201
BBXX 44043 22181 99392 70764 46/// /1803 1//// 91820 333 91203
BBXX 44042 22181 99380 70763 46/// /0801 1//// 91820 333 91201
BBXX 44063 22181 99390 70764 46/// /0000 10103 40195 56023 91800 22200 00088 1//00 70001 333 91202
BBXX 44041 22181 99372 70768 46/// /1303 1//// 91820 333 91204
BBXX 44062 22181 99386 70764 46/// /2401 1//// 40171 91810 22200 00095 333 91201
BBXX 44041 22181 99372 70768 46/// /1304 1//// 40202 91810 333 91204
BBXX 44063 22181 99390 70764 46/// /0000 1//// 40196 91810 333 91200
BBXX 44063 22181 99390 70764 46/// /0000 1//// 91820 333 91200
BBXX 44062 22181 99386 70764 46/// /2601 10105 40173 56014 91800 22200 00093 1//00 70001 333 91201
BBXX 46205 22181 99542 71343 46/// /1620 10081 49956 57044 22200 00080 11118 70088 333 91225
BBXX 46132 22181 99497 71279 46/// /1316 10074 40216 57029 22200 00085 10708 70039 333 91220
BBXX 46206 22181 99488 71260 46/// /1213 10061 40264 57018 22200 00087 11204 70021 333 91215
BBXX ELWG7 22184 99520 71378 414// 81744 10090 2007/ 49860 54000 75044 886// 22232 00090 20810 316// 40812 5//// 6//// 80080 ICE /////
BBXX OXVA2 22183 99378 70502 41398 71926 10183 20107 40271 57021 7//22 877// 22224 00203 20405 332// 40605 5//// 80142
BBXX SHIP 22184 99182 70812 43697 34515 10280 20250 40130 51007 70303 83319 91745 22233 04270 2//02 303// 4//03 80240
BBXX 46185 22181 99524 71298 46/// /1718 10074 40146 57030 22200 00073 11012 70060 333 91223
BBXX 46087 22181 99485 71247 46/// /1111 10056 20032 40284 91820 22200 00076 333 91214 555 11120 22127 31752 41114 61819 114113 118113 116116 112118 111116 109113
BBXX 46088 22181 99483 71232 46/// /0704 10038 40300 91820 22200 00077 1//00 70002 333 91206 555 11046 22047 31746 40706 61819 074044 082047 079052 072048 084044 071046
BBXX 44039 22181 99411 70727 46/// /2404 10105 20078 40183 91800 22200 00094 10301 70005 333 91206
BBXX 44040 22181 99410 70736 46/// /3003 10120 20050 40185 91815 22200 1//00 70000 333 91204 555 11041 22046
BBXX 44060 22181 99413 70721 46/// ///04 10099 40170 91800 22200 00109 333 91205 555 11046 22046
BBXX 44022 22181 99409 70737 46/// ///05 10124 20044 40179 91800 22200 00084 333 91207 555 11057 22072
BBXX 42362 22181 99278 70907 46/// /2013 10239 20222 40159 91815
BBXX 42362 22181 99278 70907 46/// /2014 10239 20217 40159 57004 91800
BBXX 42364 22181 99291 70881 46/// /1907 10233 20217 40159 91815
BBXX 41036 22181 99342 70770 46/// ///// 10207 20180 40196 91820 22200 00188
BBXX SHIP 22184 99543 71743 41598 40113 10000 21000 40010 56006 70222 84/// 91800 22224 00040 2//// 3//// 4//// 80000
BBXX A8MH2 22184 99066 31197 41797 52905 10270 40020 58020 70322 83144 22224 299// 32699 40302 5////
BBXX VNAH 22184 99349 31158 46/// /1511 10180 20088 30122 40146 57010 22233 04205 85128
BBXX A8TX8 22183 99122 31070 41998 01510 10280 20244 40068 58015 700// 80000 22285 04290 20802 321// 41003 80255
BBXX VROB 22184 99378 31449 46/// /3404 10178 20146 30100 40126 57002 22200 04200 85158
BBXX 46036 22181 99484 71339 46/// /1914 10095 40070 57006 22200 00082 11011 70056 333 91218
BBXX 44140 22181 99429 70515 46/// /1611 10142 40158 57063 22200 00076 11005 70025 333 91213
BBXX 44258 22181 99445 70634 46/// /3304 10078 40064 52021 22200 00064 10805 70023 333 91205
BBXX 41112 22181 99307 70813 46/// ///// 1//// 91821 22200 00164 11202 21001 310// 41201 70008
BBXX 42361 22181 99276 70925 46/// ///18 10200 20139 40156 50007 91830 555 11142 22152
BBXX 41009 22181 99285 70802 46/// /1607 10244 20198 40205 91820 22200 00242 10602 20602 300// 41101 70012 333 91208 555 11072 22077
BBXX 42362 22181 99278 70907 46/// /2013 10239 20217 40156 91830
BBXX 44100 22181 99363 70756 46/// ///// 1//// 91822 22200 00125 10802 20802 308// 41301 70009
BBXX 41010 22181 99289 70785 46/// /1507 10237 40213 91820 22200 00239 10603 20602 300// 40601 70013 333 91209 555 11069 22073
BBXX 42363 22181 99282 70892 46/// /2013 10239 20206 40159 91830 333 91213
BBXX 41113 22181 99284 70805 46/// ///// 1//// 91821 22200 00226 10502 20502 309// 41201 70009
BBXX 42364 22181 99291 70881 46/// /1809 10233 20217 40156 91830
BBXX 42099 22181 99273 70842 46/// ///// 1//// 91827 22200 00231 10603 20603 70014
BBXX 41110 22181 99341 70777 46/// ///// 1//// 91821 22200 00142 10702 20702 70010
BBXX 42013 22181 99272 70829 46/// ///// 1//// 40196 91740 22200 00201
BBXX 46213 22181 99403 71247 46/// ///// 1//// 91824 22200 00100 11304 20703 330// 41303 70022
BBXX 46225 22181 99329 71174 46/// ///// 1//// 91814 22200 00145 11302 20501 325// 41301 70008
BBXX 46215 22181 99352 71209 46/// ///// 1//// 91808 22200 00152 11303 21002 327// 41303 70015
BBXX 46236 22181 99368 71219 46/// ///// 1//// 91820 22200 00124 11304 21002 329// 41303 70019
BBXX 46212 22181 99408 71243 46/// ///// 1//// 91812 22200 00096 11304 21003 330// 41303 70021
BBXX 46229 22181 99438 71246 46/// ///// 1//// 91821 22200 00098 11304 21003 328// 41303 70019
BBXX 46243 22181 99462 71241 46/// ///// 1//// 91829 22200 00080 11303 20902 326// 41302 70013
BBXX 46146 22181 99493 71237 46/// /1304 10044 40308 57008 22200 00065 10301 70003 333 91206
BBXX 46246 22181 99500 71451 46/// ///// 1//// 91829 22200 00073 11417 21009 321// 41414 70086
BBXX 46247 22181 99378 71228 46/// ///// 1//// 91821 22200 00118 11104 20903 330// 41103 70020
BBXX 46246 22181 99500 71451 46/// ///// 1//// 91759 22200 00073 11717 21009 322// 41714 70084
BBXX 46232 22181 99325 71174 46/// ///// 1//// 91808 22200 00151 11303 21002 328// 41302 70013
BBXX 44060 22181 99413 70721 46/// ///05 10100 40171 91830 22200 00110 333 91206 555 11051 22051
BBXX 44039 22181 99411 70727 46/// /2405 10107 20077 40184 91753 22200 00095 10301 70005 333 91207
BBXX 46004 22181 99509 71361 46/// /1917 10085 49933 57031 22200 00075 11114 70072 333 91221
BBXX A8XD5 22184 99421 71664 41397 82742 10075 20065 40050 55/// 76566 888// 22223 04100 21014 32722 41412 51412 80070
BBXX 46184 22181 99539 71389 46/// /1514 10073 49833 57042 22200 00064 11211 70057 333 91217
BBXX 46181 22181 99538 71288 46/// /2203 10036 40172 57035 22200 00045 10200 70001 333 91206
BBXX 46092 22181 99368 71220 46/// /1110 10101 40251 51022 91757 22200 00124 555 11103 22108
BBXX 44059 22181 99368 70763 46/// /2401 1//// 40175 91810 333 91203
BBXX 44059 22181 99368 70763 46/// /2202 10193 40175 58022 91800 22200 00114 333 91203
BBXX 44059 22181 99368 70763 46/// /1702 1//// 91820 333 91202
BBXX 44057 22181 99395 70761 46/// /1803 10105 40184 56019 91800 22200 00060 333 91204
BBXX 44058 22181 99376 70763 46/// /0501 10107 40184 58017 91800 22200 00095 1//00 70001 333 91201
BBXX 44058 22181 99376 70763 46/// /0000 1//// 91820 333 91201
BBXX WYP8657 22184 99476 70890 41/98 53322 10210 2//// 40238 5//// 70322 8/5/5 22223 00044 20402 3//// 4//// 5//// 6//// 8//// ICE /////
BBXX WC5932 22184 99417 70874 43/// /3507 00/// 10041 21044 40198 58004 7//// 8//// 22200 0//// 2//// 3//// 4//// 5//// 6//// 80009 ICE /////
BBXX ZSAF 22184 99702 50081 41599 62703 11008 21050 49841 52007 70311 81536 22242 05013 20000 30000 40000 50000 ICE 78850
BBXX ZDLS1 22183 99672 50030 41397 71816 11016 21040 49823 52010 78522 8787/ 22252 05019 20101 30000 82023 ICE 46192
BBXX 9V7951 22184 99166 71011 41597 63210 00/// 10275 20269 40141 54005 70301 83/// 22234 /0285 20401 31212 40201 50201 ///// ///// /////
BBXX 3FQS8 22184 99079 70837 41398 52905 00/// 10270 2025/ 40093 52006 70222 82110 22274 00280 20301 320// 40501 5//// 6//// 80252 /////
AAXX 22181 37470 32596 72701 10056 20039 30248 40226 54001 87500 333 10084
AAXX 22181 37472 31595 81102 10044 20042 30247 40224 53013 71022 8357/ 333 10066
AAXX 22181 38111 32597 80202 10009 21116 30262 40233 58001 886// 333 10025
AAXX 22181 38750 32997 02702 10037 20022 30237 40208 53004 333 10081
AAXX 22184 42492 31993 00000 10110 20102 40158 74444 333 59017
AAXX 22184 42587 31994 00000 10110 20086 40164 71000 333 59011
AAXX 22184 42591 31/90 90000 10100 20100 40173 74744 333 59006
AAXX 22184 42701 31995 02702 10106 20043 39410 40166 70500 333 59007
AAXX 22184 42798 31995 00000 10124 20084 40153 70500 333 59013
AAXX 22184 42886 31996 00000 10132 20066 40153 70500 333 59008
AAXX 22184 42971 31995 22702 10154 20105 40141 70510 80001 333 59007 82075
AAXX 22184 43333 31495 70709 10268 20242 40093 70522 86401 333 56209 59006 83616 86818
AAXX 22184 91723 NIL
AAXX 22184 91964 NIL
BBXX KS007 22184 99267 70801 43/// ///// 10249 40159 22200
BBXX KS098 22184 99441 71244 43/// /3119 10068 40256 22281 06000
BBXX KS088 22184 99267 70801 43/// /0708 10249 40197 22200 06232
BBXX KS089 22184 99491 70051 43/// /1816 10126 22263
BBXX KS094 22184 99126 70614 43/// /0924 10276 40128 22200 06268
AAXX 22184 63661 32980 03606 10178 20112 48528 333 10265 59001
AAXX 22184 63671 32980 00000 10262 20183 333 10334
AAXX 22184 63688 32480 10908 10124 20091 48/// 81900 333 10245 59005 81918
AAXX 22184 63695 32980 00000 10161 20145 333 10249
AAXX 22184 63708 32580 32707 10234 20213 48487 83400 333 10300 58001 83623
AAXX 22184 63740 32570 60512 10202 20142 48516 8453/ 333 10262 59001 84622
AAXX 22184 63772 32580 00908 10270 20241 333 10315
AAXX 22184 63820 12580 10609 10270 20241 40115 69902 81100 333 10320 58002 81821
AAXX 22184 63612 NIL
AAXX 22184 63714 NIL
AAXX 22184 63723 NIL
AAXX 22184 63793 NIL
AAXX 22184 89528 46/// /3613 4//// 5////
AAXX 22184 89628 46/// /3014 4//// 5////
AAXX 22184 60670 12970 ///// 10150 21057 39091 48526 53003 60002 333 10197 95990
BBXX 44137 22181 99423 70620 46/// /2714 10117 40097 52020 22200 00118 10909 70047 333 91217
BBXX DGTX 22183 99330 11480 41596 83422 10170 20154 40030 57035 76366 8/8// 22264 00230 20504 80160
BBXX SHIP 22184 99353 11410 41297 43234 00/// 10100 20061 40075 52004 70211 82263 9//// 22253 00252 2//// 3//// 4//// 5//// 6//// 80080 THNKS/B/REGARDS MASTER PACIFIC GLORY INM C - 443272110
BBXX UFLT 22181 99575 11494 42/97 90108 11050 40188 54000 22213 00000 20603 301// 40603
BBXX UIFC 22181 99315 11238 41/97 90211 10091 40235 54012 70222 22212 00131 20301 0306 40603
AAXX 22184 60670 12970 ///// 10150 21057 39091 48526 53003 60002 333 10197 95990
BBXX 44137 22181 99423 70620 46/// /2714 10117 40097 52020 22200 00118 10909 70047 333 91217
AAXX 22181 31152 42997 80000 11404 21433 39900 40371 52003 80036
AAXX 22181 31163 NIL
AAXX 22181 31285 41497 80201 11172 21191 30160 40244 58002 77372 8872/
AAXX 22181 31561 41598 83605 11181 21214 30179 40209 56005 70272 8255/
AAXX 22181 31683 41699 50501 11149 21162 30094 40172 57011 70272 85500
AAXX 22181 32010 41996 43202 11211 21223 30177 40231 57003 71000 80001 333 91002 91103
AAXX 22184 87016 32960 51406 10382 20231 39572 49962 58016 82056 333 56067
AAXX 22183 87791 32580 22310 10205 21047 30090 40098 57008 82100 333 56600 82830
AAXX 22184 71592 16/// /0803 11262 21291 30019 40033 55000 60001 333 11245 21279 70000
AAXX 22184 71923 16/// ///06 11295 21321 39702 40175 58014 60001 333 11295 21326 70000
AAXX 22184 71490 16/// /2405 11311 21340 39815 40160 56011 60001 333 11308 7////
AAXX 22184 71761 16/// ///// 11025 21074 60001 333 11025 21072 70000
AAXX 22184 71963 16/// /1806 11326 21358 39711 40141 56010 60001 333 11318 21342 70000
AAXX 22184 65001 31940 70000 10270 20145 3//// 4//// 70522 80008 333 10355 5//// 87280
AAXX 22184 65019 32960 30504 10245 20002 39419 40120 80008 333 10314 58010 83280
AAXX 22184 65101 31956 70605 10302 20133 39708 40092 70522 80008 333 10352 59009 87280
AAXX 22184 65112 31958 72404 10295 20090 3//// 4//// 70522 80008 333 10359 5//// 87280
AAXX 22184 65134 31958 71213 10174 20037 38724 70522 80008 333 10285 58008 87280
AAXX 22184 65208 31940 71102 10310 20161 39842 40098 70522 80008 333 10348 59012 87280
AAXX 22184 65213 32960 71704 10310 20202 3//// 4//// 80008 333 10362 5//// 87280
AAXX 22184 65215 32960 70000 10289 20180 3//// 4//// 80008 333 10344 5//// 87280
AAXX 22184 65271 31957 60000 10286 20188 30006 40104 70522 80008 333 10344 58007 86280
BBXX 44138 22181 99443 70536 46/// /1716 10113 40065 57074 22200 00100 10807 70037 333 91220
BBXX 44138 22181 99443 70536 46/// /1716 10113 40065 57074 22200 00100 10807 70037 333 91220
AAXX 22184 60670 12970 00000 10150 21057 39091 48526 53003 60002 333 10197 95990
AAXX 22184 60670 12970 00000 10150 21057 39091 48526 53003 60002 333 10197 95990
AAXX 22184 63661 32980 03606 10178 20112 48528 333 10265 59001
AAXX 22184 63671 32980 00000 10262 20183 333 10334
AAXX 22184 63688 32480 10908 10124 20091 48/// 81900 333 10245 59005 81918
AAXX 22184 63695 32980 00000 10161 20145 333 10249
AAXX 22184 63708 32580 32707 10234 20213 48487 83400 33310300 58001 83623
AAXX 22184 63740 32570 60512 10202 20142 48516 8453/ 333 10262 59001 84622
AAXX 22184 63772 32580 00908 10270 20241 333 10315
AAXX 22184 63820 12580 10609 10270 20241 40115 69902 81100 333 10320 58002 81821
AAXX 22184 63612 NIL
AAXX 22184 63714 NIL
AAXX 22184 63723 NIL
AAXX 22184 63793 NIL
AAXX 22181 38847 429// 00000 11073 21091 40363 57009
AAXX 22181 36034 41998 02204 11187 21228 30184 40488 58003 70231
BBXX MINUK03 2218/ 99549 70011 46/// ///// 10105 40167 52022
BBXX MINUK05 2218/ 99571 70021 46/// ///// 10105 40099 57022
BBXX MINUK04 2218/ 99520 10013 46/// ///// 10098 4//// 57097
AAXX 22184 94290 46/// /1521 10273 30024 40033 56012 91824
AAXX 22184 94997 46/// ///// 10094 39967 49982 5////
AAXX 22184 91532 45/// /0606 10268 20241 30042 40050 52003
AAXX 22184 82143 31198 70313 10290 20236 40077 7031/ 84686 222// 80250 333 59009
AAXX 22184 83117 31596 31301 10270 20243 40106 57012 7030/ 8624/ 222// 02220 20101 80250
AAXX 22184 94210 35/// /2606 10278 30009 40014 57020
AAXX 22184 94289 46/// /1617 10279 30025 40032 56011 91815
AAXX 22184 94379 46/// /1406 10253 30022 40031 56007 91826
AAXX 22184 94997 46/// ///// 10094 39967 49982 5////
AAXX 22184 94290 46/// /1521 10273 30024 40033 56012 91824
BBXX 41033 22181 99323 70804 46/// /1603 10176 40192 58020 91800 555 11036 22041
BBXX 46208 22181 99525 71327 46/// /1518 10082 40030 57044 22200 00075 11013 70065 333 91222
BBXX 7JJA 22184 99359 11411 41/97 13518 00 10090 21002 40157 57008 70200 81/00 9//// 22200 00160 2//02 3 4 5 6//// 80050 ICE /////
BBXX 46208 22181 99525 71327 46/// /1518 10082 40030 57044 22200 00075 11013 70065 333 91222
AAXX 22184 43014 32996 00000 10150 20091 39480 40145 333 59012
AAXX 22181 55279 32980 02208 11030 21357 35697 54000 333 00000 10026
AAXX 22181 55472 32980 00402 11075 21390 35737 54000 333 00001 10041
AAXX 22181 55696 32980 00000 11069 21093 36351 52009 333 00001 10124
AAXX 22181 56079 32980 00204 11097 21131 36656 52003 333 05202 10010
AAXX 22181 56106 32980 00000 11099 21267 36196 52007 333 05100 10078
AAXX 22181 56257 32980 00000 11019 21198 36253 52005 333 05100 10113
AAXX 22181 56374 32580 81103 11046 21080 37427 52002 884// 333 05300 10023
AAXX 22181 56385 11/00 92201 11091 21095 37006 54000 69911 74974 333 05351 11065
AAXX 22181 56954 32962 00000 10095 20095 40165 54000 333 05100 10238
AAXX 22181 56966 32765 71105 10181 20107 40139 52005 874// 333 05200 10263
AAXX 22181 57237 11958 82001 10028 21001 40304 57004 69901 76870 8807/ 333 10057
AAXX 22181 57306 11561 80000 10063 20046 40288 54000 69941 76066 8272/ 333 10073
AAXX 22181 57604 11630 81602 10069 20066 40270 52002 60011 76066 885// 333 10081
AAXX 22181 57707 11450 81101 10005 20005 38530 54000 60011 76066 887// 333 05351 10037
AAXX 22181 57832 32664 80401 10030 21027 39525 40289 57004 885// 333 05300 10041
AAXX 22181 55228 32980 03403 11074 21428 36010 52001 333 00001 11004
AAXX 22181 55578 32980 00000 11093 21145 36369 52007 333 05101 10105
AAXX 22181 55664 32980 00000 11103 21280 36015 52004 333 00000 10095
AAXX 22181 55773 32970 00000 11114 21198 36017 54000 333 05101 10074
AAXX 22181 56116 32980 00000 11078 21162 36323 52005 333 00051 10070
AAXX 22181 56137 32980 00000 11046 21184 36767 52007 333 05100 10136
AAXX 22181 56172 32980 01101 11050 21081 37321 52010 333 05151 10092
AAXX 22181 56247 32980 02001 10027 21154 37400 52016 333 05101 10169
AAXX 22181 56312 32680 42701 10009 21078 37095 52001 84400 333 00051 10114
AAXX 22181 56462 32980 03202 11039 21073 37114 52002 333 05351 10118
AAXX 22181 56651 32980 02505 10094 21168 37615 57001 333 05207 10187
AAXX 22181 56691 11462 80403 11013 21020 37778 54000 69931 76666 887// 333 05301 11007 93428
AAXX 22181 56985 32560 71602 10117 20068 38714 40156 57003 87400 333 05201 10168
AAXX 22181 57633 31759 80000 10023 20000 39496 40303 57007 71000 885// 333 05252 10054
AAXX 22181 57902 11420 80402 10032 20032 38658 40245 54000 60011 76066 887// 333 05300 10044
AAXX 22184 65001 31940 70000 10270 20145 3//// 4//// 70522 80008 333 10355 5//// 87280
AAXX 22184 65019 32960 30504 10245 20002 39419 40120 80008 333 10314 58010 83280
AAXX 22184 65101 31956 70605 10302 20133 39708 40092 70522 80008 333 10352 59009 87280
AAXX 22184 65112 31958 72404 10295 20090 3//// 4//// 70522 80008 333 10359 5//// 87280
AAXX 22184 65134 31958 71213 10174 20037 38724 70522 80008 333 10285 58008 87280
AAXX 22184 65208 31940 71102 10310 20161 39842 40098 70522 80008 333 10348 59012 87280
AAXX 22184 65213 32960 71704 10310 20202 3//// 4//// 80008 333 10362 5//// 87280
AAXX 22184 65215 32960 70000 10289 20180 3//// 4//// 80008 333 10344 5//// 87280
AAXX 22184 65271 31957 60000 10286 20188 30006 40104 70522 80008 333 10344 58007 86280
AAXX 2218/ 48969 NIL
AAXX 2218/ 48962 NIL
AAXX 2218/ 48990 NIL
AAXX 2218/ 48986 NIL
AAXX 2218/ 48995 NIL
AAXX 2218/ 48967 NIL
AAXX 2218/ 48992 NIL
AAXX 2218/ 48965 NIL
AAXX 2218/ 48985 NIL
AAXX 2218/ 48970 NIL
AAXX 2218/ 48991 NIL
AAXX 2218/ 48964 NIL
AAXX 2218/ 48997 NIL
AAXX 2218/ 48968 NIL
AAXX 2218/ 48973 NIL
AAXX 2218/ 48966 NIL
AAXX 2218/ 48983 NIL
AAXX 2218/ 48972 NIL
AAXX 2218/ 48998 NIL
AAXX 2218/ 48993 NIL
AAXX 2218/ 48971 NIL
AAXX 2218/ 48963 NIL
AAXX 2218/ 48987 NIL
AAXX 22184 71354 16/// /2607 11002 21065 60001 333 11002 21085 70000
AAXX 22184 71406 16/// /0504 10005 20000 39990 40000 56027 60001 333 10007 21053 70006
AAXX 22184 71418 46/// /3323 10029 20024 39982 40014 53013 6///1 333 10065 21004 7////
AAXX 22184 71048 16/// /2705 11034 21105 60001 333 11034 21133 70000
AAXX 22184 71981 46/// /2808 10025 21138 6///1 333 10025 21109 7////
AAXX 22184 71982 16/// /2302 11014 21142 60001 333 11014 21141 70000
AAXX 22184 71986 16/// /2305 11064 21100 60001 333 11064 21147 70000
AAXX 22184 71990 17/// /0103 11107 21121 38431 40038 56023 69931 7//4/ 333 11080 21120 7////
AAXX 22184 71277 46/// /1902 11005 21057 6///1 333 11005 21061 7////
AAXX 22184 71175 16/// /3107 10078 20048 39989 40023 53010 60001 333 10093 21015 70167
AAXX 22184 08202 01245 80402 10059 20049 39383 42911 51002 60002 71022 886// 333 10094 60007
AAXX 22181 31801 41596 80000 11168 21187 39952 40195 58005 78782 889//
BBXX FLAO 2218/ 99764 70847 46/// ///// 11268 40019 57005
AAXX 2218/ 89667 46/// ///// 4//// 5////
AAXX 2218/ 89872 46/// ///// 11035 39826 4//// 5//// 91820
AAXX 2218/ 89872 46/// ///// 11031 39826 4//// 5//// 91830
AAXX 2218/ 89869 46/// ///// 11053 39804 4//// 5//// 91820
AAXX 2218/ 89866 46/// ///// 11036 39779 4//// 5//// 91830
AAXX 2218/ 89329 46/// ///// 11063 38728 4//// 5//// 91820
AAXX 2218/ 89799 46/// ///// 11219 4//// 5//// 91830
AAXX 2218/ 89327 46/// ///// 10000 39726 4//// 5//// 91830
AAXX 2218/ 89769 46/// ///// 11034 39838 4//// 5//// 91830
AAXX 2218/ 89828 46/// ///// 11259 36477 4//// 5//// 91820
AAXX 2218/ 89108 46/// ///// 11183 36963 4//// 5//// 91830
AAXX 2218/ 89879 46/// ///// 10013 39815 4//// 5//// 91820
AAXX 2218/ 89314 46/// ///// 11079 38221 4//// 5//// 91830
AAXX 22184 89667 46/// /0408 11035 29075 39884 4//// 5//// 91830
AAXX 22184 89667 46/// /0408 11036 39885 4//// 5//// 91820
AAXX 22184 89667 46/// /0410 11039 39886 4//// 5//// 91810
AAXX 22184 89657 46/// /3204 11051 20012 49939 52012
BBXX 44034 22181 99441 70681 46/28 /3206 10079 40119 52013 91804 22200 00084 10803 70017 333 91208 555 11078 22082
BBXX 44024 22181 99423 70659 46/26 /2906 10090 40118 53011 91804 22200 00082 11106 70028 333 91208 555 11081 22088
BBXX 41053 22181 99185 70661 46/// /0809 10266 40166 91830 333 91212
BBXX 41053 22181 99185 70661 46/// /0809 10267 40167 91820 333 91211
BBXX 41053 22181 99185 70661 46/// /0809 10268 40167 91810 333 91212
BBXX 42085 22181 99179 70665 46/// /0911 10275 40149 91830 333 91213
BBXX 42085 22181 99179 70665 46/// /0911 10275 40150 91820 333 91213
AAXX 22184 83811 21496 72702 10316 20143 39200 40078 58008 70562 84270 333 69951
AAXX 22184 83844 32597 309// 10319 20243 30060 40067 56010 81140
AAXX 22184 83887 32597 72710 10316 20092 39054 40076 58017 84220
AAXX 22184 83907 21497 81807 10243 20179 39814 40097 50012 72051 8372/ 333 69901
AAXX 22184 83914 31596 73213 10352 20065 39330 40060 57008 70521 83404
AAXX 22184 83919 31496 52712 10310 20104 38932 40084 57006 70521 85100
AAXX 22184 83927 21597 83610 10226 20169 39972 40042 54000 70262 885// 333 60361
AAXX 22184 83936 32997 82706 10278 20176 39978 40097 50006 8807/
AAXX 22184 83948 21494 80506 10245 20236 30055 40061 58015 79598 889// 333 60081
AAXX 22184 83964 31996 81802 10274 20207 39587 40065 57004 70510 8801/
AAXX 22184 83995 32497 83604 10256 20217 30052 40055 58020 886//
AAXX 22184 83599 31998 099// 10300 20287 40054 56020 70500 80000 222// 20501 80290
AAXX 22184 83970 41194 80808 10270 20243 30060 40064 57020 7052/ 88500 222// 02240 20502 83998 42397 83308 10280 20194 40045 57010 8617/ 222// 02200 20402 80220
BBXX GLNE 22183 99117 70925 41399 20609 10284 20238 40113 58010 71500 82100 22242 04283 20302 300// 40000 5//// 80252
BBXX 44056 22181 99362 70757 46/// ///// 1//// 91750 22200 00126 10801 20801 307// 41301 70007
AAXX 22184 83766 32597 60506 10324 20193 39447 40077 5//// 86200
AAXX 22184 83836 32397 83603 10300 20175 39119 40068 56005 83973
AAXX 22184 83881 31496 82309 10370 20155 39786 40057 58008 70541 8421/
AAXX 22184 83980 31796 80510 10260 20182 39780 40052 58029 70522 8801/
AAXX 22184 83997 32897 83206 10269 20201 30030 40072 55006 8807/
BBXX WDF7994 22184 99451 70857 41/98 83426 11005 2//// 40183 54/// 70202 8//// 22213 0//// 20504 3//// 4//// 5//// 6//// 8//// ICE /////
BBXX PDGS 22184 99309 71224 41298 73515 10130 40250 50010 70322 8672/ 22264 00160 20401 331// 41005
BBXX WDE4430 22183 99439 71258 41598 53609 10106 20073 40270 52007 70211 82838 22283 0//// 20402 33501 40502 50602 6//// 80089 ICE /////
BBXX PBDH 22184 99126 10476 41/98 /1015 10240 40165 51/// 70000 8//// 22224 04259 2//03 30000
BBXX HZGH 22183 99243 10613 41597 63210 10205 20023 40205 51/// 70222 84610 22264 02220 20302 33200 40301 5//// 80120
BBXX PHOB 22184 99057 10927 41/97 60910 10260 20246 40068 51012 70211 8//// 22223 00275 20301 310// 40503 5//// 80250
BBXX 7JJA 22184 99359 11411 41/97 13518 00 10090 21002 40157 57008 70200 81/00 9//// 22200 00160 2//02 3 4 5 6//// 80050 ICE /////
BBXX 44034 22181 99441 70681 46/28 /3206 10079 40119 52013 91804 22200 00084 10803 70017 333 91208 555 11078 22082
BBXX 41053 22181 99185 70661 46/// /0809 10268 40167 91810 333 91212
BBXX 42085 22181 99179 70665 46/// /0911 10275 40149 91830 333 91213
BBXX 41053 22181 99185 70661 46/// /0809 10267 40167 91820 333 91211
BBXX 42085 22181 99179 70665 46/// /0911 10275 40150 91820 333 91213
BBXX 41053 22181 99185 70661 46/// /0809 10266 40166 91830 333 91212
BBXX 44024 22181 99423 70659 46/26 /2906 10090 40118 53011 91804 22200 00082 11106 70028 333 91208 555 11081 22088
BBXX FLAO 2218/ 99764 70847 46/// ///// 11268 40019 57005
BBXX WDE4430 22183 99439 71258 41598 53609 10106 20073 40270 52007 70211 82838 22283 0//// 20402 33501 40502 50602 6//// 80089 ICE /////
BBXX 46208 22181 99525 71327 46/// /1518 10082 40030 57044 22200 00075 11013 70065 333 91222
BBXX 41033 22181 99323 70804 46/// /1603 10176 40192 58020 91800 555 11036 22041
BBXX WJBJ 22183 99232 70714 41298 21027 10250 2022/ 40196 57014 70200 82100 22233 00269 20906 311// 41007 5//// 6//// 80230 ICE /////
BBXX PDGS 22184 99309 71224 41298 73515 10130 40250 50010 70322 8672/ 22264 00160 20401 331// 41005
BBXX 44138 22181 99443 70536 46/// /1716 10113 40065 57074 22200 00100 10807 70037 333 91220
BBXX 44137 22181 99423 70620 46/// /2714 10117 40097 52020 22200 00118 10909 70047 333 91217
BBXX KS007 22184 99267 70801 43/// ///// 10249 40159 22200
BBXX KS088 22184 99267 70801 43/// /0708 10249 40197 22200 06232
BBXX KS094 22184 99126 70614 43/// /0924 10276 40128 22200 06268
BBXX KS098 22184 99441 71244 43/// /3119 10068 40256 22281 06000
BBXX 44099 22181 99369 70757 46/// ///// 1//// 91822 22200 00115 10802 20802 70010
BBXX 46214 22181 99379 71235 46/// ///// 1//// 91823 22200 00117 11304 21003 329// 41303 70021
BBXX 44022 22181 99409 70737 46/// ///05 10126 20041 40178 91830 22200 00084 333 91207 555 11062 22077
BBXX 44040 22181 99410 70736 46/// /3003 10121 20049 40184 91819 22200 1//00 70000 333 91204 555 11041 22051
BBXX 46224 22181 99332 71175 46/// ///// 1//// 91806 22200 00144 11401 20501 323// 41401 70007
BBXX 46219 22181 99332 71199 46/// ///// 1//// 91828 22200 00136 11404 21002 330// 41404 70022
BBXX 46239 22181 99363 71221 46/// ///// 1//// 91821 22200 00131 11305 21003 331// 41304 70025
BBXX 46238 22181 99334 71195 46/// ///// 1//// 91820 22200 00142 11403 21002 328// 41402 70017
AAXX 22181 23242 12497 82402 11168 21187 30142 40158 54000 60010 885// 333 11121 88610
AAXX 22181 23032 11397 82307 11034 21038 30083 40114 53002 6994/ 73673 886// 333 11044 88707
AAXX 22181 23058 12998 00000 11194 21206 30154 40159 57002 69910 333 11092
AAXX 22181 20744 32998 81403 11038 21071 30091 40109 54000 8805/ 333 11037
AAXX 22181 23022 11497 82405 11026 21032 30066 40127 52004 69960 70282 885// 333 11015
BBXX MINUK04 2218/ 99520 10013 46/// ///// 10098 4//// 57097
BBXX MINUK03 2218/ 99549 70011 46/// ///// 10105 40167 52022
BBXX MINUK05 2218/ 99571 70021 46/// ///// 10105 40099 57022
BBXX KS089 22184 99491 70051 43/// /1816 10126 22263
BBXX SHIP 22184 99336 10352 41597 31808 10180 20130 40137 5//// 83200 222// 02200 20000 330// 40501 333 83820
BBXX 62169 22183 99614 10014 41/97 82230 10102 20098 40000 57010 70282 8//// 22200 20609 3//// 4//// 5//// 80100
BBXX TBWUK34 22183 99378 10052 41298 63621 10175 20108 40254 52020 72152 867// 22263 00190 20501 336// 40705 5//// 80139
AAXX 22184 89807 46/// /2019 11019 29069 39753 4//// 5//// 91830 333 90700 91126
AAXX 22184 89807 46/// /2019 11019 29069 39753 4//// 5//// 91830 333 90700 91126
AAXX 22184 42779 32996 00000 10130 20022 39449 40170 333 59009
AAXX 22184 42874 32996 00000 10160 20051 40157 333 59001
AAXX 22184 43041 32996 00000 10126 20067 39523 40162 333 59007
AAXX 22181 47008 42970 00501 11106 21248 30189 40246 58002
AAXX 22181 47014 42950 00000 11236 21268 39866 40314 52001
AAXX 22181 47016 42970 00501 11251 21282 39379 40300 52006
AAXX 22181 47020 42965 00000 11188 21221 39915 40331 52003
AAXX 22181 47025 42960 00000 11104 21247 30205 40236 58001
AAXX 22181 47035 42970 03602 11121 21193 30293 40302 57005
AAXX 22181 47041 42970 00502 11127 21219 30214 40244 54000
AAXX 22181 47055 42970 02305 11066 21156 30212 40260 58004
AAXX 22181 47058 42960 03201 11108 21204 30254 40305 53003
AAXX 22181 47069 42965 03204 11074 21163 30184 40289 54000
AAXX 22181 47003 42980 03208 11127 21222 30239 40243 54000
AAXX 22181 47005 42980 01802 11258 21289 38567 53005
AAXX 22181 47022 42975 00000 11225 21291 38820 52004
AAXX 22181 47028 42962 03201 11151 21211 30200 40303 52003
AAXX 22181 47031 42970 03202 11204 21244 38925 53001
AAXX 22181 47037 42970 00000 11148 21199 30167 40301 58001
AAXX 22181 47039 42960 00000 11160 21194 30100 40308 52002
AAXX 22181 47046 42969 00000 11105 21168 30210 40234 51000
AAXX 22181 47050 42965 00000 11133 21194 30261 40297 52003
AAXX 22181 47052 42965 00000 11180 21199 39939 40311 52006
AAXX 22181 47060 42970 00000 11097 21168 30226 40288 54000
AAXX 22181 47061 42980 01401 11076 21148 30198 40244 52010
AAXX 22181 47065 42970 00000 11106 21169 30233 40303 52003
AAXX 22181 47067 42965 03201 11104 21167 30183 40312 52002
AAXX 22181 47068 42970 00000 11092 21132 30251 40288 58001
AAXX 22181 47070 42970 00000 11092 21214 30199 40292 52006
AAXX 22181 47075 42980 02301 11142 21201 39760 40220 52010
AAXX 22184 47765 11/75 70405 10052 21055 30123 40190 51006 69901 70282 87200
AAXX 22184 47582 11/60 82724 10004 21042 30052 40079 51009 60011 72682 883//
BBXX LEQZ3 22183 99539 11752 41298 40619 10000 20000 40060 51010 70200 22253 00110 80000
BBXX UDWE 22181 99475 11530 42998 01506 11030 40215 58004 22253 00028 20101
AAXX 22181 45032 36/// /3503 10121 20041 30192 40209 54000
AAXX 22181 45035 36/// /0507 10129 20050 30165 40207 54000
AAXX 22181 45039 36/// /0404 10134 20064 30189 40205 54000
AAXX 22181 45044 36/// /0107 10140 20072 30101 40197 54000
AAXX 22181 45032 36/// /3503 10121 20041 30192 40209 54000
AAXX 22181 45035 36/// /0507 10129 20050 30165 40207 54000
AAXX 22181 45039 36/// /0404 10134 20064 30189 40205 54000
AAXX 22181 45044 36/// /0107 10140 20072 30101 40197 54000
AAXX 22184 89625 46/// /2502 11275 29077 36452 4//// 5//// 91800
AAXX 22184 89646 46/// ///// 11298 29076 37609 4//// 5////
AAXX 22184 89648 46/// /0701 11234 29077 37172 4//// 5////
AAXX 22184 89659 46/// /2409 11192 29079 37689 4//// 5////
AAXX 22184 89661 46/// /2439 11074 29092 39221 4//// 5////
AAXX 22184 89662 42556 83013 11036 21061 39813 49918 57002 8461/ 222 ICE 98015 333 21037 84720 88461
AAXX 22184 89666 46/// /0301 11042 29073 39722 4//// 5////
AAXX 22184 71073 16/// /1905 11031 21134 60001 333 11017 21113 70004
AAXX 22184 71679 16/// /0503 11025 21069 39166 40195 58022 60001 333 10009 21078 70000
AAXX 22184 71495 16/// /2616 11001 21144 60001 333 11001 21082 70000
AAXX 22184 71012 16/// /2913 11005 21071 60001 333 11005 21100 70000
AAXX 22184 71060 16/// /3004 11003 21150 38664 40254 51006 60001 333 11003 21066 70000
AAXX 22184 71848 16/// ///// 10001 21120 60001 333 10015 21099 70000
AAXX 22184 71974 46/// /0000 11269 21291 39995 40039 55002 6///1 333 11267 21301 7////
AAXX 22184 71793 16/// ///// 11057 21093 60001 333 11056 21166 70000
AAXX 22184 71565 16/// /2009 11060 21101 60001 333 11060 21126 70010
AAXX 22184 71566 16/// /2403 11010 21113 60001 333 11003 21070 70004
AAXX 22184 71567 16/// /2912 11022 21081 60001 333 11022 21092 70000
AAXX 22184 71399 16/// ///// 11053 21097 60001 333 11052 21120 70004
BBXX 46004 22181 99509 71361 46/// /1917 10085 49933 57031 22200 00075 11114 70072 333 91221
BBXX 46036 22181 99484 71339 46/// /1914 10095 40070 57006 22200 00082 11011 70056 333 91218
BBXX 46208 22181 99525 71327 46/// /1518 10082 40030 57044 22200 00075 11013 70065 333 91222
BBXX ELWG7 22184 99520 71378 414// 81744 10090 20070 49860 54000 75044 886// 22232 00090 20810 316// 40812 5//// 6//// 80080 ICE /////
BBXX KS098 22184 99441 71244 43/// /3119 10068 40256 22281 06000
BBXX PDGS 22184 99309 71224 41298 73515 10130 40250 50010 70322 8672/ 22264 00160 20401 331// 41005
BBXX WDE4430 22183 99439 71258 41598 53609 10106 20073 40270 52007 70211 82838 22283 0//// 20402 33501 40502 50602 6//// 80089 ICE /////
AAXX 22181 01293 11765 71901 10001 21002 39845 40055 57004 69962 70272 8317/ 333 10001 91102
BBXX 46241 22181 99330 71173 46/// ///// 1//// 91811 22200 00143 11301 20601 326// 41301 70007
BBXX 46216 22181 99343 71198 46/// ///// 1//// 91827 22200 00144 11403 21002 327// 41402 70013
BBXX 46223 22181 99335 71178 46/// ///// 1//// 91830 22200 00151 11302 21001 325// 41302 70009
BBXX 46231 22181 99327 71174 46/// ///// 1//// 91824 22200 00148 11402 21001 327// 41402 70011
BBXX 46222 22181 99336 71183 46/// ///// 1//// 91826 22200 00151 11302 21001 327// 41302 70010
BBXX 46242 22181 99332 71174 46/// ///// 1//// 91828 22200 00143 11301 20501 323// 41301 70006
BBXX 44029 22181 99425 70706 46/30 /2706 10099 40144 53006 91804 22200 00086 10301 70005 333 91207 555 11083 22092
BBXX 44030 22181 99432 70704 46/// /2904 1//// 40137 55000 91804 22200 00085 10401 70006 333 91206 555 11054 22057
BBXX 44032 22181 99437 70694 46/30 /3105 10087 40124 51016 91804 22200 00087 10803 70013 333 91206 555 11059 22063
BBXX 44033 22181 99441 70690 46/30 /3203 10089 40125 53012 91804 22200 00072 10602 70008 333 91204 555 11044 22052
BBXX 44039 22181 99411 70727 46/// /2405 10107 20077 40184 91830 22200 00095 10301 70005 333 91207
AAXX 22184 97182 32562 80407 10268 20251 30034 40038 57028 83871 333 56000 57800 82820 85460 808//
BBXX 63110 22184 99595 10015 47797 /2221 10098 20087 40058 57016 700// 22200 10605 70023
BBXX 63106 22184 99610 10017 46/// /2223 10098 40018 56020 22200
BBXX 63113 22184 99610 10017 46/// /2323 10100 20090 40026 57019 22200 10706 70030
BBXX 64045 22184 99591 70117 46/// /2336 10088 20039 49908 57012 22200 00099 10915 70074 333 90710 91152
BBXX 62305 22184 99504 10000 46/98 /2723 10120 2//// 40279 54000 22200 00120 10602 70008 333 90710 91130
BBXX 62103 22184 99499 70029 46/99 /2514 10123 20096 40280 55002 22200 00122 10702 70010
AAXX 22184 83437 32599 82304 10236 20191 39400 40119 8447/ 333 59006
AAXX 22184 83579 32599 62709 10264 20183 38998 40098 86700 333 58003
AAXX 22184 83592 32597 63609 10260 20201 39440 40117 83242 333 58016
AAXX 2218/ 89767 46/// ///// 11058 39770 4//// 5////
AAXX 22184 89016 46/// /2902 29062 39428 4//// 5////
AAXX 22184 89507 46/// /1106 29070 36821 4//// 5////
AAXX 22184 89614 46/// /1030 11064 29073 38953 4//// 5//// 91830 333 90700 91136
AAXX 22184 89614 46/// /1030 11064 29073 38953 4//// 5//// 91830 333 90700 91136
AAXX 2218/ 89828 46/// ///// 11264 36478 4//// 5//// 91830
AAXX 2218/ 89879 46/// ///// 10006 39816 4//// 5//// 91830
AAXX 2218/ 89869 46/// ///// 11048 39802 4//// 5//// 91830
AAXX 2218/ 89866 46/// ///// 11040 39777 4//// 5//// 91840
AAXX 2218/ 89329 46/// ///// 11060 38728 4//// 5//// 91830
AAXX 2218/ 89332 46/// ///// 11020 39179 4//// 5//// 91830
BBXX VVPG 22183 99186 10711 41798 40412 10280 20261 40100 51005 70201 84021 22200 00///
BBXX AUYK 22184 99256 11238 44197 70332 10160 20108 4//// 54000 70225 88300 22212 00261 29906
BBXX VRDN3 22184 99198 10700 41/97 03612 10260 20230 40130 51004 70200 80000 22273 00/// 2//// 80190
BBXX VQOG5 22184 99055 10828 41398 80411 10269 20240 40076 50011 71622 887// 22263 00274 2//02 80249
BBXX DDYL2 22183 99058 10817 41/98 /3527 10265 20237 40075 50003 76362 8//// 22264 00280 2//// 80245
BBXX DDGK2 22184 99224 11164 41297 60330 10160 20117 40190 50000 70211 8479/ 22224 00190 2//// 80135
BBXX ZQDI9 22183 99141 11141 41498 60322 10273 20220 40107 54000 70222 8371/ 22212 00269 20503 80237
BBXX A8UX5 22184 99127 10579 41997 00316 10245 20164 40148 52032 70200 80000 22264 04266 2//// 80195
BBXX A8CG7 22180 99088 31300 41397 62710 10275 20248 40000 56020 70311 84770 22224 04295 20503 80255
BBXX A8HJ8 22183 99012 11034 41/96 /3405 10255 20236 40085 57005 70222 8//// 22200 00/// 20301 80241
BBXX PHJV 22184 99038 31098 41498 52610 10270 20243 40060 58012 70211 85262 22283 06292 20102 80250
BBXX PCSV 22183 99214 30543 41/98 10502 10251 20203 40172 53001 70022 8/100 22253 04260 21002 305// 41002 80218
BBXX DGZS2 22183 99304 11225 41598 83424 10060 20015 40260 50/// 75822 8/8// 22200 00110 20405 335// 40605 80040
BBXX V7SY6 22184 99057 10823 41797 80220 10260 20246 40210 56020 78122 87740 22223 00240 20603 30303 40604 50502 80250
AAXX 22184 68583 16/// /2305 10242 20215 39979 40087 52018 69922 333 10309 20241 91008 555 20002 69925 91009
AAXX 22184 68589 16/// /0000 10187 20111 38238 48495 52013 69922 333 10271 20180 91003 555 20002 91019
AAXX 22184 68479 36/// /1403 10254 20134 38913 48486 52011 333 10314 20254 91005 555 91013
AAXX 22184 68487 36/// /2403 10227 20195 38973 48501 52023 333 10324 20227 91004 555 91015
AAXX 22184 68494 36/// /1904 10238 20204 39951 40079 52028 333 10358 20238 91015 555 91008
AAXX 22184 68588 16/// /1903 10243 20216 30086 40102 52023 69962 333 10326 20241 91005 555 20006 69965 91010
BBXX A8XD5 22184 99421 71664 41397 82742 10075 20065 40050 55/// 76566 888// 22223 04100 21014 32722 41412 51412 80070
BBXX 46221 22181 99339 71186 46/// ///// 1//// 91815 22200 00149 11302 21001 326// 41301 70008
AAXX 22184 71789 16/// ///// 10016 21116 60001 333 10016 21129 70000
AAXX 22184 71791 16/// /2611 11017 21067 60001 333 11017 21081 70004
AAXX 22184 71794 16/// ///// 10004 21071 60001 333 10004 21111 70000
AAXX 22184 71795 16/// ///// 11001 21063 60001 333 11001 21102 7////
AAXX 22184 71796 16/// ///// 10017 21064 60001 333 10017 21092 70000
AAXX 22184 71797 16/// ///// 11027 21073 60001 333 11027 21089 70000
AAXX 22184 71433 46/// /0211 11066 21089 39990 40226 51010 6///1 333 7////
AAXX 22184 71006 16/// /2707 11006 21073 60001 333 11006 21083 70000
AAXX 22184 71007 46/// ///// 10015 21109 6///1 333 10015 21131 7////
AAXX 22184 71008 16/// /2512 11047 21104 60001 333 11034 21128 70000
AAXX 22184 71009 16/// /2505 11024 21116 60001 333 11020 21109 7////
AAXX 22184 71035 16/// ///// 11044 21118 60001 333 11044 21170 7////
AAXX 22184 71841 16/// /3006 11147 21195 39839 40254 50004 60001 333 11124 21164 70006 555 10010
AAXX 22184 71409 16/// ///// 11035 21085 60001 333 11035 21147 70000
AAXX 22184 71102 16/// ///// 11025 21082 60001 333 11025 21102 70000
AAXX 22184 71105 16/// ///// 11006 21078 60001 333 11006 21132 70000
AAXX 22184 71051 16/// ///// 11067 21098 60001 333 11066 21178 70005
AAXX 22184 71057 16/// ///// 11015 21119 60001 333 11011 21155 70004
AAXX 22184 71065 16/// ///// 10006 21080 60001 333 10006 21094 70000
AAXX 22184 71070 16/// ///// 10002 21076 60001 333 10003 21098 70000
AAXX 22184 71089 16/// ///// 11007 21074 60001 333 11007 21085 70000
AAXX 22184 71502 16/// /3310 11237 21255 30072 40088 53003 60001 333 11208 21254 7////
AAXX 22184 71509 16/// /2715 10012 21095 60001 333 10012 21130 7////
AAXX 22184 71517 16/// /2824 10006 21108 60001 333 10007 21134 7////
AAXX 22184 71518 16/// /2206 10006 21063 60001 333 10007 21123 70000
AAXX 22184 71519 16/// /2606 11008 21068 60001 333 11008 21114 70000
AAXX 22184 71528 16/// /2616 10006 21081 60001 333 10006 21112 70000
AAXX 22184 71433 46/// /0211 11066 21089 39990 40226 51010 6///1 333 7////
AAXX 22184 71789 16/// ///// 10016 21116 60001 333 10016 21129 70000
AAXX 22184 71791 16/// /2611 11017 21067 60001 333 11017 21081 70004
AAXX 22184 71794 16/// ///// 10004 21071 60001 333 10004 21111 70000
AAXX 22184 71795 16/// ///// 11001 21063 60001 333 11001 21102 7////
AAXX 22184 71796 16/// ///// 10017 21064 60001 333 10017 21092 70000
AAXX 22184 71797 16/// ///// 11027 21073 60001 333 11027 21089 70000
AAXX 22184 71841 16/// /3006 11147 21195 39839 40254 50004 60001 333 11124 21164 70006 555 10010
AAXX 22184 89610 46/// /0422 11028 39610 4//// 5//// 333 90700 91126
AAXX 22184 89610 46/// /0422 11028 39610 4//// 5//// 333 90700 91126
AAXX 22184 89610 46/// /0422 11028 39610 4//// 5//// 333 90700 91126
AAXX 22181 23032 11397 82307 11034 21038 30083 40114 53002 69940 73673 886// 333 11044 88707
AAXX 22184 96995 46/// /0000 10232 20229 39778 40072
AAXX 22184 96995 46/// /0000 10232 20229 39778 40072
AAXX 22181 98330 32470 20000 10242 20238 30057 40089 58013 82200 333 56999 82818
BBXX 3ELR6 22183 99119 31281 41497 52308 10300 20274 49996 57021 71311 822// 22224 06340 2//// 80280
BBXX 3ELR6 22183 99119 31281 41497 52308 10300 20274 49996 57021 71311 822// 22224 06340 2//// 80280
BBXX C6XC6 22184 99162 70750 41598 40930 10270 2//// 40120 58020 78081 82297 22244 00296 20804 309// 40806 5//// 6//// 8//// ICE /////
BBXX V7SY6 22184 99057 10823 41797 80220 10260 20246 40210 56020 78122 87740 22223 00240 20603 30303 40604 50502 80250
BBXX DGZS2 22183 99304 11225 41598 83424 10060 20015 40260 50/// 75822 8/8// 22200 00110 20405 335// 40605 80040
BBXX VRDN3 22184 99198 10700 41/97 03612 10260 20230 40130 51004 70200 80000 22273 00/// 2//// 80190
BBXX DDYL2 22183 99058 10817 41/98 /3527 10265 20237 40075 50003 76362 8//// 22264 00280 2//// 80245
BBXX AUYK 22184 99256 11238 44197 70332 10160 20108 4//// 54000 70225 88300 22212 00261 29906
BBXX DDGK2 22184 99224 11164 41297 60330 10160 20117 40190 50000 70211 8479/ 22224 00190 2//// 80135
BBXX VQOG5 22184 99055 10828 41398 80411 10269 20240 40076 50011 71622 887// 22263 00274 2//02 80249
BBXX ZQDI9 22183 99141 11141 41498 60322 10273 20220 40107 54000 70222 8371/ 22212 00269 20503 80237
BBXX VVPG 22183 99186 10711 41798 40412 10280 20261 40100 51005 70201 84021 22200 00///
BBXX PCSV 22183 99214 30543 41/98 10502 10251 20203 40172 53001 70022 8/100 22253 04260 21002 305// 41002 80218
BBXX A8UX5 22184 99127 10579 41997 00316 10245 20164 40148 52032 70200 80000 22264 04266 2//// 80195
BBXX WDF7994 22184 99451 70857 41/98 83426 11005 2//// 40183 54/// 70202 8//// 22213 0//// 20504 3//// 4//// 5//// 6//// 8//// ICE /////
BBXX GLNE 22183 99117 70925 41399 20609 10284 20238 40113 58010 71500 82100 22242 04283 20302 300// 40000 5//// 80252
BBXX 46221 22181 99339 71186 46/// ///// 1//// 91815 22200 00149 11302 21001 326// 41301 70008
BBXX C6XC6 22184 99162 70750 41598 40930 10270 2//// 40120 58020 78081 82297 22244 00296 20804 309// 40806 5//// 6//// 8//// ICE /////
BBXX OXES2 22184 99403 70401 412// 70604 10140 2012/ 40300 52050 7//22 86721 22264 00170 20201 33332 40806 50001 6//// 80130 ICE /////
BBXX 44032 22181 99437 70694 46/30 /3105 10087 40124 51016 91804 22200 00087 10803 70013 333 91206 555 11059 22063
BBXX 44030 22181 99432 70704 46/// /2904 1//// 40137 55000 91804 22200 00085 10401 70006 333 91206 555 11054 22057
BBXX 44033 22181 99441 70690 46/30 /3203 10089 40125 53012 91804 22200 00072 10602 70008 333 91204 555 11044 22052
BBXX 44039 22181 99411 70727 46/// /2405 10107 20077 40184 91830 22200 00095 10301 70005 333 91207
BBXX 44029 22181 99425 70706 46/30 /2706 10099 40144 53006 91804 22200 00086 10301 70005 333 91207 555 11083 22092
BBXX 46242 22181 99332 71174 46/// ///// 1//// 91828 22200 00143 11301 20501 323// 41301 70006
BBXX 46222 22181 99336 71183 46/// ///// 1//// 91826 22200 00151 11302 21001 327// 41302 70010
BBXX 46223 22181 99335 71178 46/// ///// 1//// 91830 22200 00151 11302 21001 325// 41302 70009
BBXX 46231 22181 99327 71174 46/// ///// 1//// 91824 22200 00148 11402 21001 327// 41402 70011
BBXX 46216 22181 99343 71198 46/// ///// 1//// 91827 22200 00144 11403 21002 327// 41402 70013
BBXX 46241 22181 99330 71173 46/// ///// 1//// 91811 22200 00143 11301 20601 326// 41301 70007
BBXX 44056 22181 99362 70757 46/// ///// 1//// 91750 22200 00126 10801 20801 307// 41301 70007
BBXX PHJV 22184 99038 31098 41498 52610 10270 20243 40060 58012 70211 85262 22283 06292 20102 80250
BBXX A8HJ8 22183 99012 11034 41/96 /3405 10255 20236 40085 57005 70222 8//// 22200 00/// 20301 80241
BBXX A8CG7 22180 99088 31300 41397 62710 10275 20248 40000 56020 70311 84770 22224 04295 20503 80255
AAXX 22184 97270 31440 70000 10252 20240 30038 40043 56008 70522 86821 333 56000 82815 85617 86460
BBXX A8TX8 22183 99122 31070 41998 01510 10280 20244 40068 58015 700// 80000 22285 04290 20802 321// 41003 80255
BBXX 7JJA 22184 99359 11411 41/97 13518 00 10090 21002 40157 57008 70200 81/00 9//// 22200 00160 2//02 3 4 5 6//// 80050 ICE /////
BBXX 9MBW7 22184 99381 11389 41397 62569 10050 20039 40070 57010 70323 86/// 22213 00140 2//// 3//// 4//// 5//// 80045
BBXX DGZS2 22183 99304 11225 41598 83424 10060 20015 40260 50/// 75822 8/8// 22200 00110 20405 335// 40605 80040
AAXX 22184 71904 16/// ///// 11046 21140 60001 333 11028 21097 70000
AAXX 22184 71055 46/// /3202 11216 21235 39744 40083 50014 6///1 333 11164 21229 7////
AAXX 22184 71346 16/// /2513 10011 21074 60001 333 10011 21126 70000
AAXX 22184 71360 16/// ///// 11022 21080 60001 333 11022 21078 70000
AAXX 22184 71380 16/// /3302 10002 21113 60001 333 10002 21112 70000
AAXX 22184 71245 46/// /2621 11062 21205 6///1 333 21134 7////
AAXX 22184 71249 16/// /2614 11056 21131 60001 333 11056 21110 70000
AAXX 22184 71481 16/// /2712 10018 21121 60001 333 10023 21086 70000
AAXX 22184 71498 16/// /2205 11056 21113 60001 333 11030 21112 70000
AAXX 22184 71014 46/// /2105 11012 21127 6///1 333 10001 21085 7////
AAXX 22184 71857 16/// ///// 11030 21088 60001 333 11030 21085 70000
AAXX 22184 71674 16/// ///// 11021 21089 60001 333 11021 21107 70004
AAXX 22184 71540 16/// /1201 11062 21099 60001 333 11057 21148 70004
AAXX 22184 71544 16/// ///// 11002 21081 60001 333 11001 21058 70000
AAXX 22184 71548 16/// ///// 11019 21093 60001 333 11019 21065 70000
AAXX 22184 71413 16/// ///// 11005 21094 60001 333 11005 21111 70000
AAXX 22184 71414 16/// ///// 11031 21089 60001 333 11031 21084 70000
AAXX 22184 71440 16/// ///// 11010 21119 60001 333 11010 21082 70000
AAXX 22184 89003 46/89 /3312 11061 29067 39038 4//// 5////
BBXX PHJV 22184 99038 31098 41498 52610 10270 20243 40060 58012 70211 85262 22283 06292 20102 80250
AAXX 22184 83384 21496 80000 10220 20204 39550 40132 72152 8657/ 333 58015 60011
AAXX 22184 83386 32398 71809 10270 20201 39577 40103 82998 333 58019
AAXX 22184 83388 32497 82304 10290 20187 39421 40078 8411/ 333 58015
AAXX 22184 83393 32599 81804 10264 20183 39400 40113 84807 333 58017
AAXX 22184 83442 32597 80000 10260 20210 39759 40104 888// 333 58029
AAXX 22184 83479 21598 80508 10202 20192 39336 40137 75452 887// 333 58032 60031
AAXX 22184 83483 21597 83602 10219 20207 39557 40125 75062 8472/ 333 58039 60021
AAXX 22184 83531 32597 63604 10240 20175 39084 40109 86500 333 58020
AAXX 22184 83574 32794 60502 10338 20171 39552 40146 5//// 86400
AAXX 22184 83582 32398 80901 10280 20210 30227 40402 57001 88700
AAXX 22184 83595 32597 80902 10292 20232 30035 40119 885// 333 58012
AAXX 22184 83692 32699 43606 10270 20175 39076 40091 58010 84200
AAXX 22184 88903 45/// /1706 10078 20068 39814 49814 58038
BBXX C6W2032 22184 99022 10052 41398 61807 10280 2024/ 40100 54000 70222 8616/ 22243 00270 20602 318// 40602 5//// 6//// 80205 ICE ///// .....
AAXX 22184 89667 46/// /0408 11032 29073 39884 4//// 5//// 91840
AAXX 22184 78988 02470 60915 10260 20240 30113 40123 57021 60011 70282 83202 333 58001 60007 83816 86081
AAXX 22184 78873 02570 20619 10269 20203 30124 40169 57018 60001 82200 333 58005 60007 82824
AAXX 22184 78990 01459 /0000 10273 20235 30124 57020 60031 70000 333 59004 69987
AAXX 2218/ 89327 46/// ///// 10005 39653 4//// 5////
AAXX 2218/ 89108 46/// ///// 11171 36963 4//// 5//// 91840
AAXX 2218/ 89872 46/// ///// 11030 39826 4//// 5//// 91840
AAXX 2218/ 89329 46/// ///// 11059 38728 4//// 5//// 91840
AAXX 2218/ 89799 46/// ///// 11219 4//// 5//// 91840
AAXX 2218/ 89332 46/// ///// 11020 39179 4//// 5//// 91840
AAXX 2218/ 89769 46/// ///// 11031 39839 4//// 5//// 91840
AAXX 2218/ 89314 46/// ///// 11076 38221 4//// 5//// 91840
AAXX 22184 78988 02470 60915 10260 20240 30113 40123 57021 60011 70282 83202 333 58001 60007 83816 86081
AAXX 22184 78873 02570 20619 10269 20203 30124 40169 57018 60001 82200 333 58005 60007 82824
AAXX 22184 78990 01459 /0000 10273 20235 30124 57020 60031 70000 333 59004 69987
AAXX 22184 78988 02470 60915 10260 20240 30113 40123 57021 60011 70282 83202 333 58001 60007 83816 86081
AAXX 22184 78873 02570 20619 10269 20203 30124 40169 57018 60001 82200 333 58005 60007 82824
AAXX 22184 78990 01459 /0000 10273 20235 30124 57020 60031 70000 333 59004 69987
AAXX 22181 12435 11320 81202 11012 21028 30053 40232 50003 69902 71072 886// 333 11011 21025 93097
AAXX 22181 58968 11556 81202 10127 20107 30212 40220 54000 60041 76166 887//
AAXX 22181 58974 46/// /0209 10131 20099 30097 40224 50002
AAXX 22181 59358 31657 80105 10149 20106 30150 40182 53003 71022 885//
AAXX 22181 59559 32565 40306 10196 20135 30127 40155 54000 84400
AAXX 22181 59792 32460 60310 10196 20146 30165 40170 56003 85470
AAXX 22181 59997 11458 80504 10271 20253 30078 40086 57014 69921 78082 8382/
AAXX 22181 59158 32560 80103 10146 20092 30075 40178 54000 885//
AAXX 22181 59562 32660 83601 10179 20123 30163 40175 58005 8552/
AAXX 22181 59567 46/// /0218 10167 20160 39769 40151 56010
AAXX 22184 16021 11/09 93506 11032 21043 37984 48508 53005 60002 74342 333 11018 43026 89/03 92842
BBXX 64045 22184 99591 70117 46/// /2336 10088 20039 49908 56012 22200 00101 10915 70074 333 90710 91152
BBXX BATFR04 22184 99584 70062 46/// /2026 10112 20094 40006 56022 22200 00102
BBXX 62112 22184 99584 70002 47897 /2022 10101 20073 40083 56019 700// 22200
BBXX 62113 22184 99584 10002 47898 /2228 10107 20075 40095 56012 700// 22200
BBXX 62129 22184 99584 10003 46/// ///// 10107 20077 40094 56014 22200
BBXX 62114 22184 99583 10000 46/// /2027 10104 20076 40083 57016 22200
BBXX BATEU05 22184 99582 70243 46/// /2836 10034 21017 49945 53041 22223
BBXX PJAI 22184 99581 70014 47998 /1920 10111 20063 40075 57025 700// 22200
BBXX 62111 22184 99580 70003 46/// /2225 10101 20080 40100 56019 22200 10503 70016
BBXX 62117 22184 99579 10000 47997 /2125 10101 20080 40099 56009 700// 22200 10504 70019
BBXX BATUK01 22184 99574 70017 46/// /2226 10095 20062 40089 56015 22241 00087
BBXX 62105 22184 99554 70121 46/// /2622 10104 20069 40068 53012 22200 00109 10811 70055 333 90710 91134
BBXX 62095 22184 99531 70159 46/// /2616 10105 20069 40120 52016 22200 00113 10910 70049
BBXX 62301 22184 99524 70047 46/// /2214 10102 20094 40228 56015 22200 00088 10403 70015
BBXX 62094 22184 99517 70067 46/// /2221 10116 20103 40230 58011 22200 00107 10504 70022 333 90710 91130
BBXX 62303 22184 99516 70051 46/// /2316 10120 20100 40246 57010 22200 00111 10503 70017
BBXX 62023 22183 99514 70079 46/96 /2130 10106 2//// 40237 5//// 22200 10605 70025 333 91138 555 70042 80003
BBXX 62081 22184 99510 70134 46/// ///// 10128 20113 40166 57015 22200 00119 10810 70048
BBXX TESTFR9 22184 99508 70011 46/// /2619 10107 29089 40292 57014 22272
BBXX 62305 22184 99504 10000 46/98 /2723 10120 20092 40279 54000 22200 00120 10602 70008 333 90710 91130
BBXX BATFR42 22184 99502 70018 46/// /2424 10119 20094 40274 22244 00124
BBXX 62107 22184 99501 70061 46/// /2419 10121 20090 40277 58001 22200 00117 10904 70019
BBXX DILE 22183 99500 70018 41/98 /2520 10125 20088 40280 54000 7//22 8//// 22224 2//// 80105
BBXX 62103 22184 99499 70029 46/99 /2684 10123 20093 40278 57007 22200 00122 10702 70010
BBXX BATFR03 22184 99499 70006 46/// /2726 10119 20090 40279 53006 22234
BBXX VRYO3 22184 99497 70289 46/// /1117 10068 20077 40215 51031 7//// 8//// 22264 00120 2////
BBXX BATFR02 22184 99497 70004 46/// /2617 10115 20085 40290 22284 00120
BBXX PHIN 22184 99491 70167 41296 82820 10150 20135 40171 56005 72586 887// 22252 00130 20504 399// 41108 80141
BBXX 62027 22184 99491 70022 46/// /2909 1//// 2//// 40295 55002 22200 00114 11102 329// 70012
BBXX 62442 22184 99490 70164 46/// /2125 1//// 2//// 40178 56010 22200 00126 333 90710 91132
BBXX 62029 22184 99487 70125 46/// /2021 10130 20118 40240 56011 22200 00130 10707 70035 333 90710 91128
BBXX V2NA1 22184 99486 70084 41598 82119 10130 20103 40283 57003 70222 887// 22223 04110 20404 329// 41005 80115
BBXX BATFR54 22184 99486 70061 46/// /2017 10127 20089 40304 51020 22233 00119
BBXX BATFR12 22184 99481 70066 46/// /2011 10177 20087 40305 58001 22281 00144
BBXX MYSU5 22183 99479 70271 41398 23215 10100 20031 40243 52030 70200 82300 22223 00120 20403 329// 41005 5//// 80070
BBXX 62163 22184 99475 70084 46/// /2115 10123 20080 40302 58002 22200 00127 10704 70022
BBXX PDNN 22183 99471 70153 41298 52028 10135 20127 40229 52005 70011 84130 22223 02134 20406 320// 40806 80130 90663
BBXX PDXQ 22183 99469 70138 41398 81818 10140 20114 40270 53005 70000 84770 22223 04125 20504 325// 40605 80125
BBXX 62001 22184 99452 70050 46/// /0808 10133 20079 40322 52002 22200 00141 10704 70019
BBXX WDD6126 22184 99439 70247 41298 52924 10140 2009/ 40256 52020 70222 8519/ 22254 00130 20505 327// 40607 5//// 6//// 80110 ICE /////
BBXX BATFR27 22184 99439 70038 46/// /1013 10149 20057 40311 22285 00154
BBXX BATFR14 22184 99392 70282 44398 80316 10159 20134 40293 53017 70322 886// 22213 00165 201// 326// 408// 5//// 60000 ICE 0/0//
BBXX DDZD2 22184 99382 70099 41598 63615 10147 20129 40300 58005 70222 865// 22245 00160 20602 334// 40802 80136
BBXX LAXP4 22184 99366 70295 41597 80111 00/// 10210 2020/ 40292 52010 70222 86526 22253 00190 20401 325// 40403 80200 NNNN
BBXX DHSI 22184 99359 70108 41598 70317 10180 20131 40290 50000 70322 87800 22214 00170 21004 303// 41204 80150
BBXX OZDJ2 22183 99355 70124 41498 50220 10162 20130 40324 53/// 70322 84710 22283 00190 20201 334// 40303 5//// 80144
BBXX TBWUK17 22183 99228 30699 41597 31014 10242 20210 40225 52039 70111 83422 22263 04258 20403 31009 40404 50505 80221
BBXX DPUW 22184 99130 10487 41598 30918 10260 20210 40170 54000 70200 8324/ 22225 00270 20803 309// 40602 5//// 80225
BBXX ZNQO3 22180 99433 70096 41598 43608 10140 20091 40309 54000 70300 8346/ 22213 04148 2//// 3//// 4//// 5//// 80115
BBXX VRGM8 22183 99366 10214 41497 72725 10140 20064 40020 54000 70322 8677/ 22274 00185 20605 330// 40707 5//// 80100
BBXX A8IY8 22184 99160 11135 41298 60219 10245 20209 40135 57005 70322 86727 22254 04250 2//// 3//// 4//// 5//// 80220
BBXX TBWUK17 22183 99228 30699 41597 31014 10242 20210 40225 52039 70111 83422 22263 04258 20403 31009 40404 50505 80221
BBXX 61001 22184 99434 10078 46/// /2603 10129 20034 40210 52008 22200 00146 10802 70010
BBXX 61002 22184 99421 10047 46/// ///30 10145 2//// 40230 52006 22200 00139 10707 70034 555 1/039
BBXX BAREU63 22184 99414 10125 46/// /1308 10109 29055 40169 52017 22272
BBXX BAREU62 22184 99407 10291 46/// ///// 40083 22224
BBXX TBWUK34 22183 99378 10052 41298 63621 10175 20108 40254 52020 72152 867// 22263 00190 20501 336// 40705 5//// 80139
BBXX UBEF5 22181 99376 10088 41498 43606 10130 40211 52002 70200 841// 22263 00170 20403
BBXX PFFH 22183 99374 10008 41/98 /2310 10154 40250 57003 70000 8//// 22263 00159 2////
BBXX MSTM6 22183 99373 10049 41/98 70217 10165 20120 40257 56010 70222 8//// 22224 00165 2//// 80140
BBXX DANM 22184 99368 10012 41999 12805 10161 20119 40257 53002 7//00 81010 22265 00150 20502 80136
BBXX A8SI8 22184 99367 10130 43498 53325 10130 2008/ 40215 51040 22275 00190 80080
BBXX BATFR01 22184 99359 10215 46/// /2927 10134 20062 40021 51010 22271 00192
BBXX C6VF5 22184 99343 10246 43/// 62726 10130 2007/ 40070 5//// 7//// 8626/ 22274 00180 2//// 3//// 4//// 5//// 6//// 80100
BBXX A8VL5 22184 99340 10233 41397 82723 10120 20079 40180 53010 70362 888// 22264 00180 20606 30000 80100
BBXX WRYD 22184 99337 10258 41797 82634 10150 2010/ 40075 52015 7//66 84942 22235 00190 20806 32626 40806 50605 6/00/ 80120
AAXX 22184 91844 46/// /0405 10272 40102 22200 00279
AAXX 22181 01262 46/// /2312 10074 20064 333 10078 91117
AAXX 22184 78988 02470 60915 10260 20240 30113 40123 57021 60011 70282 83202 333 58001 60007 83816 86081
AAXX 22184 78873 02570 20619 10269 20203 30124 40169 57018 60001 82200 333 58005 60007 82824
AAXX 22184 78990 01459 /0000 10273 20235 30124 57020 60031 70000 333 59004 69987
BBXX ONFP 22184 99182 30697 436// 71130 10260 2023/ 40150 54/// 7//21 87363 22213 04250 20308 31010 40308 50308 6//// 80240 ICE /////
BBXX 64045 22184 99591 70117 46/// /2336 10088 20039 49908 56012 22200 00101 10915 70074 333 90710 91152
BBXX 63110 22183 99595 10015 41/97 /2228 10098 40054 700// 8//// 22200 10604 70022
BBXX 63106 22184 99610 10017 46/// /2223 10098 40018 56020 22200
BBXX 63105 22184 99610 10017 47796 ///// 10101 20089 40019 57021 700// 22200
BBXX 62305 22184 99504 10000 46/98 /2723 10120 20092 40279 54000 22200 00120 10602 70008 333 90710 91130
BBXX 62103 22184 99499 70029 46/99 /2684 10123 20093 40278 57007 22200 00122 10702 70010
AAXX 22184 03008 11670 72225 10099 20077 40029 69922 70254 8357/ 91750 333 10103 83640 87362 90710 91135 91035
BBXX A8IY8 22184 99160 11135 41298 60219 10245 20209 40135 57005 70322 86727 22254 04250 2//// 3//// 4//// 5//// 80220
BBXX SHIP 22184 99381 11389 41397 62569 10050 20039 40070 57010 70323 86/// 22213 00140 2//// 3//// 4//// 5//// 80045
BBXX DPUW 22184 99130 10487 41598 30918 10260 20210 40170 54000 70200 8324/ 22225 00270 20803 309// 40602 5//// 80225
BBXX TBWUK17 22183 99228 30699 41597 31014 10242 20210 40225 52039 70111 83422 22263 04258 20403 31009 40404 50505 80221
BBXX ONFP 22184 99182 30697 436// 71130 10260 2023/ 40150 54/// 7//21 87363 22213 04250 20308 31010 40308 50308 6//// 80240 ICE /////
BBXX C6W2032 22184 99022 10052 41398 61807 10280 2024/ 40100 54000 70222 8616/ 22243 00270 20602 318// 40602 5//// 6//// 80205 ICE ///// .....
BBXX ZNQO3 22180 99433 70096 41598 43608 10140 20091 40309 54000 70300 8346/ 22213 04148 2//// 3//// 4//// 5//// 80115
BBXX VRGM8 22183 99366 10214 41497 72725 10140 20064 40020 54000 70322 8677/ 22274 00185 20605 330// 40707 5//// 80100
BBXX BSH03 22181 99540 10081 46/// ///// 22200 00060 20502 70008
BBXX BSH05 22181 99549 10082 46/// ///// 22200 20502 70008
BBXX 3ELR6 22183 99119 31281 41497 52308 10300 20274 49996 57021 71311 822// 22224 06340 2//// 80280
OOXX NOP49 22161 99782 10154 ///// 04691 26/// /2311 11050 29092 39400 91610 333 6///0
OOXX NOP49 22161 99782 10154 ///// 04691 26/// /2312 11046 29091 39397 91620 333 6///0
OOXX NOP49 22161 99782 10154 ///// 04691 26/// /2311 11048 29091 39394 91630 333 6///0
OOXX NOP49 22161 99782 10154 ///// 04691 26/// /2313 11047 29091 39392 91640 333 6///0
OOXX NOP49 22161 99782 10154 ///// 04691 26/// /2313 11047 29092 39390 91650 333 6///0
OOXX NOP49 22171 99782 10154 ///// 04691 26/// /2313 11046 29092 39388 91700 333 6///0
OOXX NOP49 22171 99782 10154 ///// 04691 26/// /2313 11046 29092 39387 91710 333 6///0
OOXX NOP49 22171 99782 10154 ///// 04691 26/// /2214 11044 29091 39385 91720 333 6///0
OOXX NOP49 22171 99782 10154 ///// 04691 26/// /2213 11043 29091 39385 91730 333 6///0
OOXX NOP49 22171 99782 10154 ///// 04691 26/// /2214 11040 29090 39384 91740 333 6///0
OOXX NOP49 22171 99782 10154 ///// 04691 26/// /2212 11041 29090 39382 91750 333 6///0
OOXX NOP49 22181 99782 10154 ///// 04691 26/// /2212 11041 29090 39384 91800 333 6///0
OOXX RUP60 22161 99531 11588 ///// 00651 26/// /2902 11210 29063 30120 91652 333 60000
OOXX RUP60 22171 99531 11588 ///// 00651 26/// /3104 11205 29061 30120 91702 333 60000
OOXX RUP60 22171 99531 11588 ///// 00651 26/// /3203 11197 29057 30120 91712 333 60000
OOXX RUP60 22171 99531 11588 ///// 00651 26/// /3103 11196 29058 30121 91722 333 60000
OOXX RUP60 22171 99531 11588 ///// 00651 26/// /3403 11207 29060 30122 91732 333 60000
OOXX RUP60 22171 99531 11588 ///// 00651 26/// /3103 11213 29063 30121 91742 333 60000
OOXX RUP60 22171 99531 11588 ///// 00651 26/// /3202 11206 29062 30122 91752 333 60000
OOXX RUP60 22181 99531 11588 ///// 00651 26/// /2905 11198 29061 30123 91802 333 60000
OOXX RUP60 22181 99531 11588 ///// 00651 26/// /3102 11195 29056 30124 91812 333 60000
OOXX RUP60 22181 99531 11588 ///// 00651 26/// /3505 11186 29057 30124 91822 333 60000
OOXX RUP60 22181 99531 11588 ///// 00651 26/// /2907 11184 29056 30126 91832 333 60000
OOXX RUP60 22181 99531 11588 ///// 00651 26/// /3002 11190 29057 30126 91842 333 60000
OOXX NZP46 22161 99438 51765 ///// 00221 26/// /2103 10112 29090 30246 91630 333 60000
OOXX NZP46 22161 99438 51765 ///// 00221 26/// /2204 10112 29092 30246 91640 333 60000
OOXX NZP46 22161 99438 51765 ///// 00221 26/// /2203 10111 29095 30246 91650 333 60000
OOXX NZP46 22171 99438 51765 ///// 00221 26/// /2203 10110 29095 30246 91700 333 60000
OOXX NZP46 22171 99438 51765 ///// 00221 26/// /1903 10111 29095 30246 91710 333 60000
OOXX NZP46 22171 99438 51765 ///// 00221 26/// /1904 10112 29093 30245 91720 333 60000
OOXX NZP46 22171 99438 51765 ///// 00221 26/// /1904 10113 29091 30245 91730 333 60000
OOXX NZP46 22171 99438 51765 ///// 00221 26/// /1904 10114 29090 30246 91740 333 60000
OOXX NZP46 22171 99438 51765 ///// 00221 26/// /1904 10114 29089 30246 91750 333 60000
OOXX NZP46 22181 99438 51765 ///// 00221 26/// /2005 10114 29089 30247 91800 333 60000
OOXX NZP46 22181 99438 51765 ///// 00221 26/// /1905 10113 29089 30246 91810 333 60000
OOXX NZP46 22181 99438 51765 ///// 00221 26/// /1904 10114 29089 30245 91820 333 60000
OOXX FJP26 22161 99178 31775 ///// 00311 26/// /0802 10235 29091 30031 91620 333 60000
OOXX FJP26 22161 99178 31775 ///// 00311 26/// /0802 10235 29092 30031 91630 333 60000
OOXX FJP26 22161 99178 31775 ///// 00311 26/// /1002 10234 29093 30031 91640 333 60000
OOXX FJP26 22161 99178 31775 ///// 00311 26/// /1101 10233 29093 30032 91650 333 60000
OOXX FJP26 22171 99178 31775 ///// 00311 26/// /1002 10233 29093 30033 91700 333 60000
OOXX FJP26 22171 99178 31775 ///// 00311 26/// /0902 10234 29092 30034 91710 333 60000
OOXX FJP26 22171 99178 31775 ///// 00311 26/// /0902 10234 29092 30036 91720 333 60000
OOXX FJP26 22171 99178 31775 ///// 00311 26/// /1002 10233 29092 30037 91730 333 60000
OOXX FJP26 22171 99178 31775 ///// 00311 26/// /1102 10234 29092 30039 91740 333 60000
OOXX FJP26 22171 99178 31775 ///// 00311 26/// /1202 10233 29093 30040 91750 333 60000
OOXX FJP26 22181 99178 31775 ///// 00311 26/// /1102 10232 29094 30041 91800 333 60000
OOXX FJP26 22181 99178 31775 ///// 00311 26/// /1102 10233 29094 30041 91810 333 60000
OOXX RUP58 22161 99442 11320 ///// 01121 26/// /1001 11188 29050 30069 91652 333 60000
OOXX RUP58 22171 99442 11320 ///// 01121 26/// /1101 11192 29051 30070 91702 333 60000
OOXX RUP58 22171 99442 11320 ///// 01121 26/// /0801 11190 29051 30069 91712 333 60000
OOXX RUP58 22171 99442 11320 ///// 01121 26/// /0901 11190 29050 30068 91722 333 60000
OOXX RUP58 22171 99442 11320 ///// 01121 26/// /0601 11193 29052 30068 91732 333 60000
OOXX RUP58 22171 99442 11320 ///// 01121 26/// /1101 11193 29051 30067 91742 333 60000
OOXX RUP58 22171 99442 11320 ///// 01121 26/// /1301 11194 29052 30067 91752 333 60000
OOXX RUP58 22181 99442 11320 ///// 01121 26/// /1001 11196 29053 30065 91802 333 60000
OOXX RUP58 22181 99442 11320 ///// 01121 26/// /1801 11197 29053 30065 91812 333 60000
OOXX RUP58 22181 99442 11320 ///// 01121 26/// /1901 11199 29054 30066 91822 333 60000
OOXX RUP58 22181 99442 11320 ///// 01121 26/// /1101 11195 29053 30065 91832 333 60000
OOXX RUP58 22181 99442 11320 ///// 01121 26/// /2201 11195 29051 30064 91842 333 60000
OOXX SEP63 22161 99594 10180 ///// 00401 26/// /0102 10002 29090 30100 91610 333 60000
OOXX SEP63 22161 99594 10180 ///// 00401 26/// /0302 10002 29090 30100 91620 333 60000
OOXX SEP63 22161 99594 10180 ///// 00401 26/// /0403 10001 29090 30100 91630 333 60000
OOXX SEP63 22161 99594 10180 ///// 00401 26/// /0402 10002 29090 30100 91640 333 60000
OOXX SEP63 22161 99594 10180 ///// 00401 26/// /0402 10001 29091 30100 91650 333 60000
OOXX SEP63 22171 99594 10180 ///// 00401 26/// /0402 10001 29091 30100 91700 333 60000
OOXX SEP63 22171 99594 10180 ///// 00401 26/// /0402 10000 29091 30100 91710 333 60000
OOXX SEP63 22171 99594 10180 ///// 00401 26/// /0602 10000 29091 30100 91720 333 60000
OOXX SEP63 22171 99594 10180 ///// 00401 26/// /0402 10001 29091 30100 91730 333 60000
OOXX SEP63 22171 99594 10180 ///// 00401 26/// /0402 10001 29091 30100 91740 333 60000
OOXX SEP63 22171 99594 10180 ///// 00401 26/// /3602 10001 29091 30110 91750 333 60000
OOXX SEP63 22181 99594 10180 ///// 00401 26/// /0402 10002 29091 30110 91800 333 60000
OOXX AUP09 22161 99124 31309 ///// 00321 26/// ///// 1//// 29/// 3//// 91614 333 6///0
OOXX AUP09 22161 99124 31309 ///// 00321 26/// ///// 1//// 29/// 3//// 91624 333 6///0
OOXX AUP09 22161 99124 31309 ///// 00321 26/// ///// 1//// 29/// 3//// 91634 333 6///0
OOXX AUP09 22161 99124 31309 ///// 00321 26/// ///// 1//// 29/// 3//// 91644 333 6///0
OOXX AUP09 22161 99124 31309 ///// 00321 26/// ///// 1//// 29/// 3//// 91654 333 6///0
OOXX AUP09 22171 99124 31309 ///// 00321 26/// ///// 1//// 29/// 3//// 91704 333 6///0
OOXX AUP09 22171 99124 31309 ///// 00321 26/// ///// 1//// 29/// 3//// 91714 333 6///0
OOXX AUP09 22171 99124 31309 ///// 00321 26/// ///// 1//// 29/// 3//// 91724 333 6///0
OOXX AUP09 22171 99124 31309 ///// 00321 26/// ///// 1//// 29/// 3//// 91734 333 6///0
OOXX AUP09 22171 99124 31309 ///// 00321 26/// ///// 1//// 29/// 3//// 91744 333 6///0
OOXX AUP09 22171 99124 31309 ///// 00321 26/// ///// 1//// 29/// 3//// 91754 333 6///0
OOXX AUP09 22181 99124 31309 ///// 00321 26/// ///// 1//// 29/// 3//// 91804 333 6///0
OOXX ISP34 22161 99641 70219 ///// 01301 26/// ///02 10028 29001 39663 91610 333 6///0
OOXX ISP34 22161 99641 70219 ///// 01301 26/// /0603 10029 29001 39661 91620 333 6///0
OOXX ISP34 22161 99641 70219 ///// 01301 26/// /0504 10029 29001 39659 91630 333 6///0
OOXX ISP34 22161 99641 70219 ///// 01301 26/// /0505 10026 29001 39658 91640 333 6///0
OOXX ISP34 22161 99641 70219 ///// 01301 26/// /0405 10026 29001 39656 91650 333 6///0
OOXX ISP34 22171 99641 70219 ///// 01301 26/// /0504 10026 29001 39657 91700 333 6///0
OOXX ISP34 22171 99641 70219 ///// 01301 26/// /0604 10024 29001 39656 91710 333 6///0
OOXX ISP34 22171 99641 70219 ///// 01301 26/// /0504 10024 29001 39656 91720 333 6///0
OOXX ISP34 22171 99641 70219 ///// 01301 26/// /0602 10024 29001 39655 91730 333 6///0
OOXX ISP34 22171 99641 70219 ///// 01301 26/// /0702 10025 29001 39653 91740 333 6///0
OOXX ISP34 22171 99641 70219 ///// 01301 26/// /0603 10026 29001 39652 91750 333 6///0
OOXX ISP34 22181 99641 70219 ///// 01301 26/// /0606 10025 29001 39653 91800 333 6///0
OOXX KIP39 22161 99020 51574 ///// 00181 26/// /1104 10251 29085 30082 91630 333 60000
OOXX KIP39 22161 99020 51574 ///// 00181 26/// /1203 10249 29086 30084 91640 333 60000
OOXX KIP39 22161 99020 51574 ///// 00181 26/// /1103 10252 29085 30084 91650 333 60000
OOXX KIP39 22171 99020 51574 ///// 00181 26/// /1103 10254 29085 30085 91700 333 60000
OOXX KIP39 22171 99020 51574 ///// 00181 26/// /1104 10254 29084 30087 91710 333 60000
OOXX KIP39 22171 99020 51574 ///// 00181 26/// /1104 10255 29084 30089 91720 333 60000
OOXX KIP39 22171 99020 51574 ///// 00181 26/// /1104 10257 29083 30090 91730 333 60000
OOXX KIP39 22171 99020 51574 ///// 00181 26/// /1104 10259 29082 30090 91740 333 60000
OOXX KIP39 22171 99020 51574 ///// 00181 26/// /1104 10261 29081 30093 91750 333 60000
OOXX KIP39 22181 99020 51574 ///// 00181 26/// /1104 10262 29080 30094 91800 333 60000
OOXX KIP39 22181 99020 51574 ///// 00181 26/// /1104 10263 29080 30096 91810 333 60000
OOXX KIP39 22181 99020 51574 ///// 00181 26/// /1104 10265 29079 30095 91820 333 60000
OOXX FRP30 22161 99493 30703 ///// 00361 26/// /2705 10130 29053 30073 91657 333 60000
OOXX FRP30 22171 99493 30703 ///// 00361 26/// /2705 10134 29050 30073 91707 333 60000
OOXX FRP30 22171 99493 30703 ///// 00361 26/// /2904 10128 29054 30073 91717 333 60000
OOXX FRP30 22171 99493 30703 ///// 00361 26/// /2903 10123 29056 30072 91727 333 60000
OOXX FRP30 22171 99493 30703 ///// 00361 26/// /3002 10126 29055 30071 91737 333 60000
OOXX FRP30 22171 99493 30703 ///// 00361 26/// /2703 10128 29053 30070 91747 333 60000
OOXX FRP30 22171 99493 30703 ///// 00361 26/// /2802 10128 29056 30069 91757 333 60000
OOXX FRP30 22181 99493 30703 ///// 00361 26/// /2904 10125 29061 30069 91807 333 60000
OOXX FRP30 22181 99493 30703 ///// 00361 26/// /3107 10122 29065 30066 91817 333 60000
OOXX FRP30 22181 99493 30703 ///// 00361 26/// /3007 10123 29069 30066 91827 333 60000
OOXX FRP30 22181 99493 30703 ///// 00361 26/// /2906 10126 29071 30066 91837 333 60000
OOXX FRP30 22181 99493 30703 ///// 00361 26/// /3006 10124 29074 30067 91847 333 60000
OOXX RUP59 22161 99539 10848 ///// 02121 26/// /0601 11148 29066 30084 91640 333 60000
OOXX RUP59 22161 99539 10848 ///// 02121 26/// /0601 11147 29066 30082 91650 333 60000
OOXX RUP59 22171 99539 10848 ///// 02121 26/// /0701 11147 29065 30081 91700 333 60000
OOXX RUP59 22171 99539 10848 ///// 02121 26/// /0802 11147 29066 30081 91710 333 60000
OOXX RUP59 22171 99539 10848 ///// 02121 26/// /0902 11146 29066 30082 91720 333 60000
OOXX RUP59 22171 99539 10848 ///// 02121 26/// /0802 11145 29066 30080 91730 333 60000
OOXX RUP59 22171 99539 10848 ///// 02121 26/// /0701 11145 29066 30078 91740 333 60000
OOXX RUP59 22171 99539 10848 ///// 02121 26/// /0601 11143 29065 30079 91750 333 60000
OOXX RUP59 22181 99539 10848 ///// 02121 26/// /0701 11143 29064 30078 91800 333 60000
OOXX RUP59 22181 99539 10848 ///// 02121 26/// /0902 11141 29066 30081 91810 333 60000
OOXX RUP59 22181 99539 10848 ///// 02121 26/// /0902 11139 29064 30078 91820 333 60000
OOXX RUP59 22181 99539 10848 ///// 02121 26/// /0902 11137 29065 30075 91830 333 60000
OOXX MYP42 22161 99045 11014 ///// 15551 26/// /0902 10181 29095 38418 91605 333 60000
OOXX MYP42 22161 99045 11014 ///// 15551 26/// /0305 10186 29095 38409 91615 333 60000
OOXX MYP42 22161 99045 11014 ///// 15551 26/// /0803 10184 29094 38416 91625 333 60000
OOXX MYP42 22161 99045 11014 ///// 15551 26/// /0104 10180 29094 38412 91635 333 60000
OOXX MYP42 22161 99045 11014 ///// 15551 26/// /0302 10180 29094 38405 91645 333 60000
OOXX MYP42 22161 99045 11014 ///// 15551 26/// /0603 10180 29095 38412 91655 333 60000
OOXX MYP42 22171 99045 11014 ///// 15551 26/// /0504 10179 29094 38420 91705 333 60000
OOXX MYP42 22171 99045 11014 ///// 15551 26/// /1303 10181 29095 38403 91715 333 60000
OOXX MYP42 22171 99045 11014 ///// 15551 26/// /0503 10179 29094 38403 91725 333 60000
OOXX MYP42 22171 99045 11014 ///// 15551 26/// /0604 10180 29093 38418 91735 333 60000
OOXX MYP42 22171 99045 11014 ///// 15551 26/// /0201 10181 29093 38410 91745 333 60000
OOXX MYP42 22171 99045 11014 ///// 15551 26/// /2901 10182 29094 38416 91755 333 60000
OOXX RUP54 22161 99586 10494 ///// 01271 26/// /0303 11092 29089 30014 91627 333 60120
OOXX RUP54 22161 99586 10494 ///// 01271 26/// /0404 11092 29089 30013 91637 333 60120
OOXX RUP54 22161 99586 10494 ///// 01271 26/// /0403 11092 29089 30013 91647 333 60120
OOXX RUP54 22161 99586 10494 ///// 01271 26/// /0504 11092 29089 30012 91657 333 60120
OOXX RUP54 22171 99586 10494 ///// 01271 26/// /0504 11092 29089 30012 91707 333 60120
OOXX RUP54 22171 99586 10494 ///// 01271 26/// /0303 11092 29089 30011 91717 333 60120
OOXX RUP54 22171 99586 10494 ///// 01271 26/// /0604 11092 29089 30009 91727 333 60120
OOXX RUP54 22171 99586 10494 ///// 01271 26/// /0103 11092 29089 30007 91737 333 60120
OOXX RUP54 22171 99586 10494 ///// 01271 26/// /0402 11091 29089 30007 91747 333 60120
OOXX RUP54 22171 99586 10494 ///// 01271 26/// /0603 11092 29089 30006 91757 333 60120
OOXX RUP54 22181 99586 10494 ///// 01271 26/// /0504 11092 29089 30006 91807 333 60120
OOXX RUP54 22181 99586 10494 ///// 01271 26/// /0404 11093 29089 30006 91817 333 60120
OOXX ARP01 22161 99345 50585 ///// 00311 26/// /0201 10126 29035 30032 91610 333 60000
OOXX ARP01 22161 99345 50585 ///// 00311 26/// /0201 10126 29034 30032 91620 333 60000
OOXX ARP01 22161 99345 50585 ///// 00311 26/// /0201 10129 29034 30031 91630 333 60000
OOXX ARP01 22161 99345 50585 ///// 00311 26/// /3601 10129 29034 30030 91640 333 60000
OOXX ARP01 22161 99345 50585 ///// 00311 26/// /0201 10127 29034 30029 91650 333 60000
OOXX ARP01 22171 99345 50585 ///// 00311 26/// /0201 10131 29034 30028 91700 333 60000
OOXX ARP01 22171 99345 50585 ///// 00311 26/// /3601 10132 29033 30028 91710 333 60000
OOXX ARP01 22171 99345 50585 ///// 00311 26/// /0201 10131 29034 30027 91720 333 60000
OOXX ARP01 22171 99345 50585 ///// 00311 26/// /2301 10130 29034 30026 91730 333 60000
OOXX ARP01 22171 99345 50585 ///// 00311 26/// /2301 10132 29033 30026 91740 333 60000
OOXX ARP01 22171 99345 50585 ///// 00311 26/// /0201 10132 29033 30025 91750 333 60000
OOXX ARP01 22181 99345 50585 ///// 00311 26/// /0201 10131 29033 30025 91800 333 60000
OOXX AUP04 22171 99377 31451 ///// 00311 26/// /3301 10172 29089 30064 91706 333 60000
OOXX AUP04 22171 99377 31451 ///// 00311 26/// /3201 10169 29089 30064 91716 333 60000
OOXX AUP04 22171 99377 31451 ///// 00311 26/// /3101 10168 29089 30065 91726 333 60000
OOXX AUP04 22171 99377 31451 ///// 00311 26/// /3301 10168 29090 30064 91736 333 60000
OOXX AUP04 22171 99377 31451 ///// 00311 26/// /3401 10169 29090 30063 91746 333 60000
OOXX AUP04 22171 99377 31451 ///// 00311 26/// /3501 10170 29089 30064 91756 333 60000
OOXX AUP04 22181 99377 31451 ///// 00311 26/// /3301 10169 29089 30064 91806 333 60000
OOXX AUP04 22181 99377 31451 ///// 00311 26/// /3201 10168 29090 30064 91816 333 60000
OOXX AUP04 22181 99377 31451 ///// 00311 26/// /3501 10168 29089 30063 91826 333 60000
OOXX AUP04 22181 99377 31451 ///// 00311 26/// /3401 10168 29089 30063 91836 333 60000
OOXX AUP04 22181 99377 31451 ///// 00311 26/// /3201 10167 29090 30064 91846 333 60000
OOXX AUP04 22181 99377 31451 ///// 00311 26/// /3201 10165 29090 30065 91856 333 60000
OOXX GBP68 22161 99371 50123 ///// 00641 26/// /3510 10000 29094 30135 91610 333 60000
OOXX GBP68 22161 99371 50123 ///// 00641 26/// /3509 10000 29093 30137 91620 333 60000
OOXX GBP68 22161 99371 50123 ///// 00641 26/// /3511 10000 29093 30136 91630 333 60000
OOXX GBP68 22161 99371 50123 ///// 00641 26/// /3510 10000 29093 30137 91640 333 60000
OOXX GBP68 22161 99371 50123 ///// 00641 26/// /3509 10000 29093 30138 91650 333 60000
OOXX GBP68 22171 99371 50123 ///// 00641 26/// /3510 10000 29093 30135 91700 333 60000
OOXX GBP68 22171 99371 50123 ///// 00641 26/// /3508 10000 29093 30135 91710 333 60000
OOXX GBP68 22171 99371 50123 ///// 00641 26/// /3508 10000 29092 30137 91720 333 60000
OOXX GBP68 22171 99371 50123 ///// 00641 26/// /3509 10000 29092 30137 91730 333 60000
OOXX GBP68 22171 99371 50123 ///// 00641 26/// /3510 10000 29093 30136 91740 333 60000
OOXX GBP68 22171 99371 50123 ///// 00641 26/// /3510 10000 29090 30136 91750 333 60000
OOXX GBP68 22181 99371 50123 ///// 00641 26/// /3509 10000 29090 30136 91800 333 60000
OOXX AUP07 22161 99/// ///// ///// ///// 26/// /2907 10065 29093 30169 91649 333 60000
OOXX AUP07 22161 99/// ///// ///// ///// 26/// /2907 10066 29093 30169 91659 333 60000
OOXX AUP07 22171 99/// ///// ///// ///// 26/// /2907 10065 29092 30168 91709 333 60000
OOXX AUP07 22171 99/// ///// ///// ///// 26/// /3007 10065 29092 30168 91719 333 60000
OOXX AUP07 22171 99/// ///// ///// ///// 26/// /2907 10065 29093 30168 91729 333 60000
OOXX AUP07 22171 99/// ///// ///// ///// 26/// /2907 10064 29093 30168 91739 333 60000
OOXX AUP07 22171 99/// ///// ///// ///// 26/// /2807 10065 29093 30169 91749 333 60000
OOXX AUP07 22171 99/// ///// ///// ///// 26/// /2807 10065 29093 30167 91759 333 60000
OOXX AUP07 22181 99/// ///// ///// ///// 26/// /2807 10066 29093 30166 91809 333 60000
OOXX AUP07 22181 99/// ///// ///// ///// 26/// /2907 10067 29093 30164 91819 333 60000
OOXX AUP07 22181 99/// ///// ///// ///// 26/// /2808 10068 29093 30166 91829 333 60000
OOXX AUP07 22181 99/// ///// ///// ///// 26/// /2809 10068 29093 30166 91839 333 60000
OOXX CAP14 22161 99487 71234 ///// 00431 26/// /2902 10004 29090 30241 91630 333 60000
OOXX CAP14 22161 99487 71234 ///// 00431 26/// /2901 10004 29089 30239 91640 333 60000
OOXX CAP14 22161 99487 71234 ///// 00431 26/// /3001 10005 29088 30240 91650 333 60000
OOXX CAP14 22171 99487 71234 ///// 00431 26/// /3102 10007 29087 30241 91700 333 60000
OOXX CAP14 22171 99487 71234 ///// 00431 26/// /3001 10010 29086 30240 91710 333 60000
OOXX CAP14 22171 99487 71234 ///// 00431 26/// /3102 10009 29087 30242 91720 333 60000
OOXX CAP14 22171 99487 71234 ///// 00431 26/// /3202 10007 29088 30242 91730 333 60000
OOXX CAP14 22171 99487 71234 ///// 00431 26/// /3202 10010 29088 30242 91740 333 60000
OOXX CAP14 22171 99487 71234 ///// 00431 26/// /3202 10013 29086 30241 91750 333 60000
OOXX CAP14 22181 99487 71234 ///// 00431 26/// /3302 10014 29086 30239 91800 333 60000
OOXX CAP14 22181 99487 71234 ///// 00431 26/// /3401 10012 29087 30240 91810 333 60000
OOXX CAP14 22181 99487 71234 ///// 00431 26/// /3401 10014 29088 30241 91820 333 60000
OOXX AABRI 22184 99839 51342 60134 05251 46/// /0617 11040 21203 39189 49801 52001 91750
OOXX AAEMI 22184 99785 31731 57083 00521 46/// /2218 11046 21063 39840 49905 57006 91750
OOXX AALAU 22184 99775 31708 57070 00371 46/// /2419 11058 21072 39834 49880 57006 91740
OOXX AAPEG 22184 99779 31666 57186 00051 46/// /0411 11046 21070 39887 49893 57005 91750
OOXX AAERC 22184 99815 31639 60713 00451 46/// /3207 11060 21114 39797 49853 57030 91750
OOXX AAMIZ 22184 99707 30443 58304 22602 46/// /0805 11138 2//// 37430 49642 54000 91750
OOXX AAERI 22184 99849 51288 60048 09901 46/// /0822 11076 21098 38761 49877 57001 91740
OOXX AAVIT 22184 99785 31778 57087 00501 46/// /2120 11055 21077 39785 49847 57008 91740
AAXX 22184 91559 46/// /0000 10254 40053 22200 00280
AAXX 22184 71824 46/// /2804 11126 21147 6///1 333 11035 21126 7////
AAXX 22184 71448 16/// /1903 11064 21101 39903 40244 58001 60001 333 11063 21091 70000
AAXX 22184 71323 17/// /3002 11001 21017 39850 40132 55000 60021 7//4/ 333 10008 21061 70060
AAXX 22184 71724 17/// /2307 10006 21011 30146 40154 53008 60021 7//4/ 333 10008 21049 70042
AAXX 22184 71734 17/// /3308 11094 21125 39782 40181 51012 60011 7//4/ 333 11016 21094 70012
AAXX 22184 71389 46/// /2903 10010 21010 6///1 333 10011 21049 7////
BBXX ZCDQ4 31112 22184 99334 10311 41198 32124 10170 20140 40110 54000 70301 83034 22274 00194 20302 3//// 4//// 5//// 80150
AAXX 22184 97560 01460 82110 10250 20241 30021 40036 57021 60011 70262 83847 333 56000 57803 69907 82818 83360 87279 80860
BBXX ZCDQ4 31112 22184 99334 10311 41198 32124 10170 20140 40110 54000 70301 83034 22274 00194 20302 3/ /// 4//// 5//// 80150
AAXX 22184 91531 46/// /0603 1//// 40032 22200 00269
AAXX 22181 01218 11787 62101 10017 20005 30018 40040 58012 69922 70320 82280 333 10063 91103
AAXX 22184 41529 12995 00000 10061 21023 39815 40210 60003 333 59007
AAXX 22184 41598 11996 00000 10080 20005 39896 40180 60003 70500 333 59020
AAXX 22184 41620 32995 02305 10020 20008 38611 48510 333 59006
AAXX 22184 41624 02995 00000 10085 21040 39987 40197 60003 333 59006 60007
AAXX 22184 41640 01996 00000 10120 20056 39924 40179 60003 70400 333 58007 60007
AAXX 22184 41675 11995 00000 10060 21006 30048 40192 60003 70400 333 59011
AAXX 22184 41712 12996 00502 10005 21075 39258 48522 60003 333 59026
AAXX 22184 41715 01995 00000 10110 20043 30136 40205 60003 70400 333 58001 60007
AAXX 22184 41756 01994 03606 10145 20062 30121 40186 60003 70600 333 59015 60007
AAXX 22184 41764 31996 03610 10155 20020 30124 40175 70400 60003 333 59008 60007
AAXX 22184 41768 02996 00502 10105 20050 30172 40179 60003 333 59005 60007
AAXX 22184 41780 02996 00504 10140 20004 30156 40184 60003 333 59008 60007
BBXX A8KM8 22184 99406 11445 41/94 /2843 10080 40010 50/// 7//99 8//// 22225 2////
AAXX 22184 71016 16/// ///// 10000 60001 333 10012 21100 70000
BBXX 44056 22181 99362 70757 46/// ///// 1//// 91820 22200 00126 10801 20801 308// 41301 70007
AAXX 22184 41529 12995 00000 10061 21023 39815 40210 60003 333 59007
AAXX 22184 41598 11996 00000 10080 20005 39896 40180 60003 70500 333 59020
AAXX 22184 41620 32995 02305 10020 20008 38611 48510 333 59006
AAXX 22184 41624 02995 00000 10085 21040 39987 40197 60003 333 59006 60007
AAXX 22184 41640 01996 00000 10120 20056 39924 40179 60003 70400 333 58007 60007
AAXX 22184 41675 11995 00000 10060 21006 30048 40192 60003 70400 333 59011
AAXX 22184 41712 12996 00502 10005 21075 39258 48522 60003 333 59026
AAXX 22184 41715 01995 00000 10110 20043 30136 40205 60003 70400 333 58001 60007
AAXX 22184 41756 01994 03606 10145 20062 30121 40186 60003 70600 333 59015 60007
AAXX 22184 41764 31996 03610 10155 20020 30124 40175 70400 60003 333 59008 60007
AAXX 22184 41768 02996 00502 10105 20050 30172 40179 60003 333 59005 60007
AAXX 22184 41780 02996 00504 10140 20004 30156 40184 60003 333 59008 60007
BBXX 41053 22181 99185 70661 46/// /0809 10268 40169 91800 22200 00272 10905 70026 333 91212
BBXX 46109 22181 99481 71234 46/// /1503 10026 40301 91757 22200 00078
BBXX 46110 22181 99481 71230 46/// /1401 10019 40298 91758
BBXX 44055 22181 99391 70753 46/// ///// 1//// 91830 22200 00090 1//00 70002
BBXX 41038 22181 99341 70777 46/// /2003 10175 40192 58024 91800 22200 00141 333 91204
BBXX 42360 22181 99267 70905 46/// /1807 10241 91800 22200 00244 10803 70016 333 91209
AAXX 22184 91642 46/// /0000 1//// 40050 22200 0////
AAXX 22184 41515 02995 00000 10043 21055 38586 48546 60003 333 58005 60007
AAXX 22184 41685 32993 00000 10055 21136 38947 48515 333 59005
AAXX 22184 41710 01995 00502 10020 21154 39436 40255 60003 70600 333 59019 60007
AAXX 22184 41718 11995 00000 10075 20040 30087 40196 60003 70400 333 59004
AAXX 22184 41739 01994 03606 10025 21047 39103 48529 60003 70540 333 59008 60007
AAXX 22184 41744 32996 00000 10070 21076 38799 48515 333 59010
AAXX 22184 41749 01995 03104 10140 20056 30170 40202 60003 70400 333 59007 60007
AAXX 22184 41515 02995 00000 10043 21055 38586 48546 60003 333 58005 60007
AAXX 22184 41685 32993 00000 10055 21136 38947 48515 333 59005
AAXX 22184 41710 01995 00502 10020 21154 39436 40255 60003 70600 333 59019 60007
AAXX 22184 41718 11995 00000 10075 20040 30087 40196 60003 70400 333 59004
AAXX 22184 41739 01994 03606 10025 21047 39103 48529 60003 70540 333 59008 60007
AAXX 22184 41744 32996 00000 10070 21076 38799 48515 333 59010
AAXX 22184 41749 01995 03104 10140 20056 30170 40202 60003 70400 333 59007 60007
AAXX 22184 41506 02694 60000 11010 21040 48554 60003 84420 333 56990 58028 60007 84640 82460
AAXX 22184 41508 22696 30000 10028 21047 48557 60003 83400 333 56900 58008 60007 83630
AAXX 22184 41523 12996 00000 10045 21020 48536 60003 333 58005 60007
AAXX 22184 41535 12997 00000 10030 20005 48494 60003 333 59002
AAXX 22184 41573 12996 03602 10035 21044 48503 60003 333 59006
AAXX 22184 41600 02996 00000 10090 20045 39867 40173 60003 333 59020 60007
AAXX 22184 41630 11996 00000 10075 20013 40200 60003 70400 333 59010
AAXX 22184 41678 12996 00000 10095 20051 40197 60003 333 58004 60007
AAXX 22184 41696 02996 00000 11040 21150 38030 48565 60003 333 59004 60007
AAXX 22184 41697 02996 00000 10078 20033 40202 60003 333 59003 60007
AAXX 22184 41700 11995 00000 10075 20027 40187 60003 70400 333 59005
AAXX 22184 41725 02996 00000 10110 20062 40202 60003 333 58004 60007
AAXX 22184 41746 02996 03602 10105 20074 40195 60003 333 59016 60007
AAXX 22184 41759 11995 02302 10125 21011 30179 40185 60002 70600 333 59013
AAXX 22184 41785 02996 00000 10140 20068 40171 60003 333 59009 60007
BBXX ONFP 22184 99182 30697 436// 71130 10260 2023/ 40150 54/// 7//21 87363 22213 04250 20308 31010 40308 50308 6//// 80240 ICE /////
BBXX 42043 22181 99290 70949 46/// /0804 1//// 40169 54000 91800 22200 00163 333 91205
BBXX 42045 22181 99262 70965 46/// /3306 10164 40166 91800 22200 00218 333 91208
BBXX 42046 22181 99279 70940 46/// /0408 1//// 40164 52005 91800 22200 00225 333 91210
BBXX 46094 22181 99446 71243 46/// /0907 10096 91830
BBXX 46094 22181 99446 71243 46/// /0809 10094 91820
BBXX 46094 22181 99446 71243 46/// /0809 10089 91810
BBXX 46094 22181 99446 71243 46/// /1007 10086 91800
BBXX 46094 22181 99446 71243 46/// /0907 10088 91750
BBXX 46094 22181 99446 71243 46/// /0808 10077 91740
AAXX 22184 89329 46/// /0210 11064 38723 49779 57002 91750
AAXX 22184 89667 46/// /0411 11046 39887 49897 57005 91750
AAXX 22184 89734 46/// /1206 11283 36076 4//// 52004 91800
AAXX 22184 89744 46/// /0411 11236 36427 4//// 57002 91800
AAXX 22184 89828 46/// ///02 11258 36449 4//// 57002 91750
AAXX 22184 89832 46/// /1210 11050 39576 49872 52005 91750
AAXX 22184 89834 46/// /1611 11153 38146 4//// 52004 91750
AAXX 22184 89865 46/// ///// 1//// 3//// 4//// 5//// 91750
AAXX 22184 89869 46/// /3011 11052 39799 49878 57019 91750
BBXX 66022 22181 99541 10142 46/// /1707 10018 30180 22200 00033
BBXX 46094 22181 99446 71243 46/// /0809 10094 91820
BBXX 46094 22181 99446 71243 46/// /0809 10089 91810
BBXX 46094 22181 99446 71243 46/// /1007 10086 91800
BBXX 46094 22181 99446 71243 46/// /0907 10096 91830
BBXX 46094 22181 99446 71243 46/// /0907 10088 91750
BBXX 46094 22181 99446 71243 46/// /0808 10077 91740
BBXX 42046 22181 99279 70940 46/// /0408 1//// 40164 52005 91800 22200 00225 333 91210
BBXX 42045 22181 99262 70965 46/// /3306 10164 40166 91800 22200 00218 333 91208
BBXX 42043 22181 99290 70949 46/// /0804 1//// 40169 54000 91800 22200 00163 333 91205
BBXX 42360 22181 99267 70905 46/// /1807 10241 91800 22200 00244 10803 70016 333 91209
BBXX 41038 22181 99341 70777 46/// /2003 10175 40192 58024 91800 22200 00141 333 91204
BBXX 46109 22181 99481 71234 46/// /1503 10026 40301 91757 22200 00078
BBXX 44055 22181 99391 70753 46/// ///// 1//// 91830 22200 00090 1//00 70002
BBXX 46110 22181 99481 71230 46/// /1401 10019 40298 91758
BBXX 41053 22181 99185 70661 46/// /0809 10268 40169 91800 22200 00272 10905 70026 333 91212
BBXX 44056 22181 99362 70757 46/// ///// 1//// 91820 22200 00126 10801 20801 308// 41301 70007
AAXX 22184 62600 32970 00206 10205 20060 39958 40173 333 10260 58002
AAXX 22184 62640 31968 73606 10270 20120 39751 40104 70622 80007 333 10330 56009 58002 87275
AAXX 22184 62641 31960 00404 10258 20213 30099 40147 70600 333 10294 59004
AAXX 22184 62650 32970 03506 10235 20075 39865 40134 333 10294 59001
AAXX 22184 62680 32970 03604 10270 20160 39710 40101 333 10338 58006
AAXX 22184 62721 32970 73211 10280 20070 39673 40108 80007 333 10340 56009 58002 87275
AAXX 22184 62730 32970 03603 10275 20120 39577 40133 333 10370 59003
AAXX 22184 62750 32970 73406 10270 20120 39651 40079 80007 333 10336 56009 59003 87275
AAXX 22184 62751 32970 73403 10288 20066 39684 40085 80007 333 10365 56009 59014 87275
AAXX 22184 62752 32970 73602 10295 20077 39416 40075 80007 333 10380 56009 58000 87275
AAXX 22184 62600 32970 00206 10205 20060 39958 40173 333 10260 58002
AAXX 22184 62640 31968 73606 10270 20120 39751 40104 70622 80007 333 10330 56009 58002 87275
AAXX 22184 62641 31960 00404 10258 20213 30099 40147 70600 333 10294 59004
AAXX 22184 62650 32970 03506 10235 20075 39865 40134 333 10294 59001
AAXX 22184 62680 32970 03604 10270 20160 39710 40101 333 10338 58006
AAXX 22184 62721 32970 73211 10280 20070 39673 40108 80007 333 10340 56009 58002 87275
AAXX 22184 62730 32970 03603 10275 20120 39577 40133 333 10370 59003
AAXX 22184 62750 32970 73406 10270 20120 39651 40079 80007 333 10336 56009 59003 87275
AAXX 22184 62751 32970 73403 10288 20066 39684 40085 80007 333 10365 56009 59014 87275
AAXX 22184 62752 32970 73602 10295 20077 39416 40075 80007 333 10380 56009 58000 87275
AAXX 22184 71550 16/// /1803 11062 21083 39840 40225 58009 60001 333 11062 21144 7////
AAXX 22184 71520 16/// /2910 11119 21145 39414 40093 53006 60001 333 11054 21119 70000
AAXX 22184 71521 16/// ///// 11082 21111 60001 333 11043 21088 70007
AAXX 22184 71522 47/// /2907 11047 21072 39622 49619 53006 6///1 7//4/ 333 21069 70003
AAXX 22184 71523 16/// ///// 11058 21094 39749 40128 53022 60001 333 11027 21058 70000
AAXX 22184 71383 16/// ///// 11095 21155 39491 40106 53012 60001 333 11044 21095 70000
AAXX 22184 71155 16/// ///// 11006 21053 60001 333 11006 21114 70000
AAXX 22184 92036 46/// /2102 10273 40023 22200 00308
AAXX 22184 97430 32460 63502 10260 20242 30042 40071 50000 83232 333 56700 57872 83818 80860
BBXX 63110 22184 99595 10015 47797 /2221 10098 20087 40058 57016 700// 22200 10605 70023
BBXX 63106 22184 99610 10017 46/// /2223 10098 40018 56020 22200
BBXX 63113 22184 99610 10017 46/// /2323 10100 20090 40026 57019 22200 10706 70030
BBXX 64045 22184 99591 70117 46/// /2336 10088 20039 49908 57012 22200 00099 10915 70074 333 90710 91152
BBXX 62305 22184 99504 10000 46/98 /2723 10120 2//// 40279 54000 22200 00120 10602 70008 333 90710 91130
BBXX 62103 22184 99499 70029 46/99 /2514 10123 20096 40280 55002 22200 00122 10702 70010
AAXX 22184 93713 46/// /0000 10127 40243 22200 00156
BBXX A8KM8 22184 99406 11445 41/94 /2843 10080 40010 50/// 7//99 8//// 22225 2////
BBXX SHIP 22184 99381 11389 41397 62569 10050 20039 40070 57010 70323 86/// 22213 00140 2//// 3//// 4//// 5//// 80045
AAXX 22184 91689 46/// /3536 10231 40072 22200 00279
AAXX 22184 62762 32970 73604 10230 20150 39608 40081 80007 333 10355 56009 58003 87275
AAXX 22184 62771 32970 73407 10260 20050 39474 40113 80007 333 10322 56009 58000 87275
AAXX 22184 62772 32970 03603 10270 20140 39668 40096 333 10345 59003
AAXX 22184 62781 32970 73602 10235 20090 39483 40114 80007 333 10335 56009 58000 87275
AAXX 22184 62790 32970 70304 10260 20020 39393 40109 80007 333 10325 56009 59004 87275
AAXX 22184 62795 32970 73604 10300 20120 39582 40072 80007 333 10382 56009 58003 87275
AAXX 22184 62805 32970 73204 10290 20120 39543 40061 80007 333 10380 56009 59002 87275
AAXX 22184 62809 32970 73603 10268 20110 39595 40099 80007 333 10336 56009 58000 87275
AAXX 22184 62810 32970 73603 10295 20105 39/// 40/// 80007 333 10357 56009 5//// 87275
AAXX 22184 62762 32970 73604 10230 20150 39608 40081 80007 333 10355 56009 58003 87275
AAXX 22184 62771 32970 73407 10260 20050 39474 40113 80007 333 10322 56009 58000 87275
AAXX 22184 62772 32970 03603 10270 20140 39668 40096 333 10345 59003
AAXX 22184 62781 32970 73602 10235 20090 39483 40114 80007 333 10335 56009 58000 87275
AAXX 22184 62790 32970 70304 10260 20020 39393 40109 80007 333 10325 56009 59004 87275
AAXX 22184 62795 32970 73604 10300 20120 39582 40072 80007 333 10382 56009 58003 87275
AAXX 22184 62805 32970 73204 10290 20120 39543 40061 80007 333 10380 56009 59002 87275
AAXX 22184 62809 32970 73603 10268 20110 39595 40099 80007 333 10336 56009 58000 87275
AAXX 22184 62810 32970 73603 10295 20105 39/// 40/// 80007 333 10357 56009 5//// 87275
BBXX FHZI 22184 99666 31400 46/// /1113 11020 21088 39901 49912 52008 22200 05018 86041
BBXX ZMFR 22184 99414 31748 43/// /20// 10122 20099 40266 57003 22212 00127
BBXX ZMENA 22184 99368 31748 46/// ///// 10152 20139 40229 57003 22200
BBXX MINUK05 2218/ 99571 70021 46/// ///// 10105 40099 57022
BBXX MINUK03 2218/ 99549 70011 46/// ///// 10105 40167 52022
BBXX KS089 22184 99491 70051 43/// /1816 10126 22263
BBXX ZNQO3 22180 99433 70096 41598 43608 10140 20091 40309 54000 70300 8346/ 22213 04148 2//// 3//// 4//// 5//// 80115
BBXX VRGM8 22183 99366 10214 41497 72725 10140 20064 40020 54000 70322 8677/ 22274 00185 20605 330// 40707 5//// 80100
BBXX ZMFR 22184 99414 31748 43/// /20// 10122 20099 40266 57003 22212 00127
BBXX ZMENA 22184 99368 31748 46/// ///// 10152 20139 40229 57003 22200
BBXX A8KM8 22184 99406 11445 41/94 /2843 10080 40010 50/// 7//99 8//// 22225 2////
BBXX SHIP 22184 99275 31541 41597 81216 10230 2019/ 40070 5//// 7//22 88778 22283 00250 20502 310// 40603 5//// 6//// 80200 ICE /////
AAXX 22184 04418 NIL
AAXX 22184 04425 NIL
AAXX 22184 04432 NIL
AAXX 22184 04436 46/// /0000 11486 21533 52019
AAXX 22184 04464 46/// /1709 11420 21462 333 553// 20004
AAXX 22184 04485 46/// /0000 11440 21472 37139 333 553// 20000
AAXX 22184 04488 46/// /2515 11432 21468 37178 333 553// 20000
BBXX 46092 22181 99368 71220 46/// /1109 10108 40255 91827 22200 00124 555 11098 22103
BBXX SKEC 22181 99649 10236 46/// ///// 10004 40079 57001 22241 00067
AAXX 22184 71988 16/// /3116 10058 20043 30093 40112 51018 60001 333 10107 20051 70210
AAXX 22181 98132 31460 80706 10189 20176 40176 58014 70544 8527/ 333 56199 85816 88357
AAXX 22181 98133 NIL
AAXX 22181 98222 31575 10401 10225 20204 40094 58006 70544 81200 333 56999 81820
AAXX 22181 98233 31570 83601 10220 20201 40106 58007 70544 885// 333 56999 88620
AAXX 22181 98324 31462 20000 10260 20234 40080 58001 70544 81161 333 56999 81816
AAXX 22181 98327 31665 53102 10244 20217 39922 40095 57008 70544 82108 333 56999 82842 85280
AAXX 22181 98334 32470 20000 10240 20230 39896 40099 57009 82200 333 56999 82818
AAXX 22181 98425 32557 61602 10264 20232 40081 58011 82108 333 56999 82820 86280
AAXX 22181 98426 31562 10000 10258 20227 40090 58008 70544 81100 333 56999 81820
AAXX 22181 98427 21472 60000 10246 20230 38890 40067 58009 69901 72582 83270 333 56999 82818 86357
AAXX 22181 98428 32458 21405 10270 20243 40083 58003 81101 333 56999 81819
AAXX 22181 98432 31568 30000 10260 20233 40075 58008 70544 82202 333 56999 82820
AAXX 22181 98433 32462 80903 10212 20191 39368 40087 57010 8227/ 333 56999 82812 88357
AAXX 22181 98434 NIL
AAXX 22181 98435 32470 70000 10242 20226 40082 5//// 83270 333 56999 83818 85358
AAXX 22181 98442 NIL
AAXX 22181 98446 11470 43001 10244 20235 30040 40086 58017 69981 70182 82201 333 56999 82818 84070
AAXX 22181 98447 32470 60402 10246 20238 39821 40084 5//// 83202 333 56999 83818 84070
AAXX 22181 98538 32464 63605 10262 20242 30062 40067 58013 82206 333 56199 82811 85072
AAXX 22181 98546 NIL
AAXX 22181 98548 11465 10000 10255 20244 30050 40056 58015 69921 70181 81100 333 56999 81815
AAXX 22181 98553 11464 82701 10255 20247 30063 40067 57015 60031 70544 84270 333 56999 84818 87358
AAXX 22181 98558 NIL
AAXX 22181 98642 11460 80000 10260 20249 30052 40061 58017 60051 71562 8527/ 333 56999 85815 88358
AAXX 22181 98644 11460 80401 10258 20245 30054 40063 56015 60041 70262 8387/ 333 56199 83817 88358
AAXX 22181 98648 11462 83601 10235 20218 39995 40077 57016 60087 71584 83967 333 56299 82912 84358 88270
AAXX 22181 98746 11460 80902 10242 20214 40070 52026 60021 70584 8397/ 333 56999 83918 88358
AAXX 22181 98751 32465 20000 10219 20212 39380 40045 57015 82200 333 56999 82815
AAXX 22181 98752 11458 80000 10250 20241 40063 58018 60151 71586 8357/ 333 56999 83616 88358
AAXX 22181 98851 32470 80000 10250 20231 39908 40056 58015 8127/ 333 56999 81818 88358
BBXX 64045 22184 99591 70117 46/// /2336 10088 20039 49908 56012 22200 00101 10915 70074 333 90710 91152
BBXX 63110 22183 99595 10015 41/97 /2228 10098 40054 700// 8//// 22200 10604 70022
BBXX 63106 22184 99610 10017 46/// /2223 10098 40018 56020 22200
BBXX 63105 22184 99610 10017 47796 ///// 10101 20089 40019 57021 700// 22200
BBXX 62305 22184 99504 10000 46/98 /2723 10120 20092 40279 54000 22200 00120 10602 70008 333 90710 91130
BBXX 62103 22184 99499 70029 46/99 /2684 10123 20093 40278 57007 22200 00122 10702 70010
BBXX WCF3012 22184 99468 70866 41/97 83436 11030 40210 77227 22223 00050 20605
BBXX 42013 22181 99272 70829 46/// ///// 1//// 40191 91820 22200 00201
BBXX 42013 22181 99272 70829 46/// ///// 1//// 40192 58016 91800 22200 00201
BBXX FHZI 22184 99666 31400 46/// /1113 11020 21088 39901 49912 52008 22200 05018 86041
BBXX ZMFR 22184 99414 31748 43/// /20// 10122 20099 40266 57003 22212 00127
BBXX ZMENA 22184 99368 31748 46/// ///// 10152 20139 40229 57003 22200
BBXX 46092 22181 99368 71220 46/// /1109 10108 40255 91827 22200 00124 555 11098 22103
BBXX SKEC 22181 99649 10236 46/// ///// 10004 40079 57001 22241 00067
BBXX WCF3012 22184 99468 70866 41/97 83436 11030 40210 77227 22223 00050 20605
OOXX AAMIZ 22184 99707 30443 58304 22602 46/// /0904 11144 2//// 37430 49647 5//// 91830
OOXX AAERI 22184 99849 51288 60048 09901 46/// /0823 11076 21094 38762 49878 5//// 91830
OOXX AABRI 22184 99839 51342 60134 05251 46/// /0619 11038 21199 39193 49805 5//// 91830
OOXX AAVIT 22184 99785 31778 57087 00501 46/// /2023 11060 21085 39783 49846 5//// 91830
OOXX AALAU 22184 99775 31708 57070 00371 46/// /2423 11056 21073 39831 49877 57007 91830
OOXX AAERC 22184 99815 31639 60713 00451 46/// /3110 11058 21111 39790 49846 5//// 91830
AAXX 22184 71408 46/// /1823 10054 20053 39900 49978 55035 6///1 333 7////
AAXX 22184 41571 119// 00000 10070 20024 39587 40194 60003 70500 333 59017
BBXX 42369 22181 99272 70903 46/// /2009 1//// 91740 22200 10603 70017
BBXX 42370 22181 99273 70905 46/// ///// 10234 91740 22200 10704 70020
BBXX 42376 22181 99291 70879 46/// /1409 10245 40129 91740 22200 10403 70013
BBXX 42887 22181 99282 70885 46/// /2112 1//// 91740 22200 10504 70018
AAXX 22184 89108 46/// /0005 11171 36961 4//// 5//// 91840
AAXX 22184 89269 46/// /0000 1//// 3//// 4//// 5//// 91750
AAXX 22184 89314 46/// /0915 11076 38213 4//// 5//// 91830
AAXX 22184 89332 46/// /0212 11020 39179 49779 52009 91830
AAXX 22184 89376 46/// /2118 11051 39733 49800 5//// 91830
AAXX 22184 89769 46/// /2214 11031 39823 49875 5//// 91830
AAXX 22184 89799 46/// /2610 11219 36777 4//// 5//// 91830
AAXX 22184 89866 46/// /2704 11040 39756 49890 5//// 91830
AAXX 22184 89872 46/// /2415 11030 39822 49878 5//// 91830
AAXX 22184 89873 46/// /2309 11043 39747 49824 5//// 91820
AAXX 22184 89879 46/// ///01 10006 39803 49840 52011 91830
BBXX WDA2768 22184 99452 70869 41/98 /0441 00/// 11008 21050 40216 50024 70022 8//// 22283 0//// 2//04 3//// 4//// 5//// 6//// 81024 ICE /////
BBXX WDA2768 22184 99452 70869 41/98 /0441 00/// 11008 21050 40216 50024 70022 8//// 22283 0//// 2//04 3//// 4//// 5//// 6//// 81024 ICE /////
BBXX 42887 22181 99282 70885 46/// /2112 1//// 91740 22200 10504 70018
BBXX 42376 22181 99291 70879 46/// /1409 10245 40129 91740 22200 10403 70013
BBXX 42370 22181 99273 70905 46/// ///// 10234 91740 22200 10704 70020
BBXX 42369 22181 99272 70903 46/// /2009 1//// 91740 22200 10603 70017
BBXX 42013 22181 99272 70829 46/// ///// 1//// 40191 91820 22200 00201
BBXX 42013 22181 99272 70829 46/// ///// 1//// 40192 58016 91800 22200 00201
BBXX MINFR05 2218/ 99281 70154 46/// ///// 10183 40276 52002
AAXX 2218/ 89327 46/// ///// 10004 39655 4//// 5//// 91840
AAXX 2218/ 89828 46/// ///// 11258 36478 4//// 5//// 91840
AAXX 2218/ 89332 46/// ///// 11020 39179 4//// 5//// 91820
AAXX 22181 11816 12665 59901 10014 21020 30076 40245 53009 60002 85500 333 10054 41998 85644
AAXX 22181 11816 12665 59901 10014 21020 30076 40245 53009 60002 85500 333 10054 41998 85644
BBXX 63110 22184 99595 10015 47797 /2221 10098 20087 40058 57016 700// 22200 10605 70023
BBXX 63106 22184 99610 10017 46/// /2223 10098 40018 56020 22200
BBXX 63113 22184 99610 10017 46/// /2323 10100 20090 40026 57019 22200 10706 70030
BBXX 64045 22184 99591 70117 46/// /2336 10088 20039 49908 57012 22200 00099 10915 70074 333 90710 91152
BBXX 62305 22184 99504 10000 46/98 /2723 10120 2//// 40279 54000 22200 00120 10602 70008 333 90710 91130
BBXX 62103 22184 99499 70029 46/99 /2514 10123 20096 40280 55002 22200 00122 10702 70010
AAXX 22183 63793 12980 00000 10260 20183 40093 69901 333 10318 58000
AAXX 22184 91367 32474 70812 10278 20248 84870 333 5622/ 84815 83760 555 92218
AAXX 22184 91367 32474 70812 10278 20248 84870 333 5622/ 84815 83760 555 92218
AAXX 22184 91367 32474 70812 10278 20248 84870 333 5622/ 84815 83760 555 92218
BBXX A8PF6 22184 99476 70607 41596 80219 10030 20030 40030 54000 71022 88/4/ 22233 0//// 20402 302// 40805 5//// 6//// 80030 ICE /////
BBXX MINFR05 2218/ 99281 70154 46/// ///// 10183 40276 52002
BBXX A8PF6 22184 99476 70607 41596 80219 10030 20030 40030 54000 71022 88/4/ 22233 0//// 20402 302// 40805 5//// 6//// 80030 ICE /////
AAXX 22184 89266 46/// /2803 10040 21033 39686 49820 52007 91840
AAXX 22184 89257 46/// /2412 11012 21035 39711 49779 5//// 91840
AAXX 22184 89272 46/// /2307 11064 21115 38058 49663 5//// 91840
AAXX 22184 89272 46/// /2307 11067 21118 38057 49664 52010 91830
AAXX 22184 89013 46/// /0614 11147 21180 37663 49656 52021 91750
AAXX 22184 89065 46/// /0803 10013 21020 39787 49864 5//// 91840
AAXX 22184 89257 46/// /2414 11013 21039 39712 49780 5//// 91750
AAXX 22184 89262 46/// /0514 11017 21031 39777 49820 5//// 91840
AAXX 22184 89266 46/// /2704 10037 21030 39685 49819 52006 91830
AAXX 22184 89272 46/// /2008 11083 21121 38056 49673 52009 91750
AAXX 22184 91375 46/// /0314 10218 40049 22200 00280
AAXX 22184 71604 17/// /3212 10004 20004 60021 7//4/ 333 10053 21053 70164 555 10040
BBXX 42369 22181 99272 70903 46/// /2009 1//// 91800 22200 10504 70018
BBXX 42370 22181 99273 70905 46/// ///// 10234 91800 22200 10704 70021
BBXX 42376 22181 99291 70879 46/// /1408 10245 40124 58017 91800 22200 10403 70013
BBXX 42887 22181 99282 70885 46/// /2111 1//// 91800 22200 10503 70017
AAXX 22184 71604 17/// /3212 10004 20004 60021 7//4/ 333 10053 21053 70164 555 10040
AAXX 22184 91165 12566 60519 10228 20178 30145 40179 53011 69901 91753
AAXX 22184 91212 12566 80709 10261 20239 31320 40058 56012 69901 91754
AAXX 22184 91245 32566 40720 10260 20230 30120 91755
AAXX 22184 91285 12566 80805 10217 20194 30161 40173 52017 60111 91753
AAXX 22184 91334 11474 83510 10265 20243 30030 40033 57007 60091 70282 83371
AAXX 22184 91348 11474 80707 10273 20234 39998 40051 55003 60011 70282 85101
AAXX 22184 91376 32474 80518 10273 20235 30046 40049 53002 84808
AAXX 22184 91408 32474 80503 10268 20243 30002 40040 57022 8322/
AAXX 22184 91413 32469 70808 10268 20236 30015 40040 57027 82232
AAXX 22184 91610 11499 71115 10267 20249 40048 53004 60001 70300 86868
AAXX 22184 91155 NIL
AAXX 22184 91203 NIL
AAXX 22184 91217 NIL
AAXX 22184 91232 NIL
AAXX 22184 91250 NIL
AAXX 22184 91275 NIL
AAXX 22184 91317 NIL
AAXX 22184 91324 NIL
AAXX 22184 91339 NIL
AAXX 22184 91353 NIL
AAXX 22184 91356 NIL
AAXX 22184 91366 NIL
AAXX 22184 91367 NIL
AAXX 22184 91369 NIL
AAXX 22184 91371 NIL
AAXX 22184 91378 NIL
AAXX 22184 91425 NIL
AAXX 22184 91434 NIL
AAXX 22184 91601 NIL
AAXX 22184 89065 46/// /0803 10013 21020 39787 49864 5//// 91840
AAXX 22184 03039 46/// /2154 10064 20032 91750 333 10071 90710 91169 91067
BBXX 64045 22184 99591 70117 46/// /2336 10088 20039 49908 56012 22200 00101 10915 70074 333 90710 91152
BBXX 63110 22183 99595 10015 41/97 /2228 10098 40054 700// 8//// 22200 10604 70022
BBXX 63106 22184 99610 10017 46/// /2223 10098 40018 56020 22200
BBXX 63105 22184 99610 10017 47796 ///// 10101 20089 40019 57021 700// 22200
BBXX 62305 22184 99504 10000 46/98 /2723 10120 20092 40279 54000 22200 00120 10602 70008 333 90710 91130
BBXX 62103 22184 99499 70029 46/99 /2684 10123 20093 40278 57007 22200 00122 10702 70010
AAXX 22184 91165 12566 60519 10228 20178 30145 40179 53011 69901 91753
AAXX 22184 91212 12566 80709 10261 20239 31320 40058 56012 69901 91754
AAXX 22184 91285 12566 80805 10217 20194 30161 40173 52017 60111 91753
AAXX 22184 91334 11474 83510 10265 20243 30030 40033 57007 60091 70282 83371
AAXX 22184 91348 11474 80707 10273 20234 39998 40051 55003 60011 70282 85101
AAXX 22184 91376 32474 80518 10273 20235 30046 40049 53002 84808
AAXX 22184 91408 32474 80503 10268 20243 30002 40040 57022 8322/
AAXX 22184 91413 32469 70808 10268 20236 30015 40040 57027 82232
AAXX 22184 91245 32566 40720 10260 20230 30120 91755
BBXX 42887 22181 99282 70885 46/// /2111 1//// 91800 22200 10503 70017
BBXX 42370 22181 99273 70905 46/// ///// 10234 91800 22200 10704 70021
BBXX 42369 22181 99272 70903 46/// /2009 1//// 91800 22200 10504 70018
BBXX 42376 22181 99291 70879 46/// /1408 10245 40124 58017 91800 22200 10403 70013
AAXX 22184 71710 16/// /3416 10014 20005 30039 40048 53020 60001 333 10044 21010 70150
AAXX 22184 71372 16/// /2706 10031 21002 60001 333 10031 21011 70094
AAXX 22181 20292 42998 00000 11214 21254 30259 40280 53002 333 91104
AAXX 22181 20046 11997 81301 11112 21125 30101 40134 57002 69930 77172 8802/ 333 11084
AAXX 22181 20069 41976 00607 11190 21220 30114 40128 57007 73630
AAXX 22184 91367 32474 70812 10278 20248 84870 333 5622/ 84815 83760 555 92218 91371 32474 40917 10267 20252 30084 40087 84213 333 56229 84815 82180 555 92218
AAXX 22184 91367 32474 70812 10278 20248 84870 333 5622/ 84815 83760 555 92218 91371 32474 40917 10267 20252 30084 40087 84213 333 56229 84815 82180 555 92218
AAXX 22181 27037 11393 80202 11064 21072 39956 40122 57002 60050 77572 8672/ 333 11053 86708
BBXX 44040 22181 99410 70736 46/// /3005 10117 20052 40197 91819 22200 1//00 70000 333 91206 555 11067 22077
AAXX 2218/ 68902 46/// ///// 40138 52005
BBXX 42047 22181 99279 70936 46/// /0309 10172 20135 40159 91830 22200 00225 333 91210
BBXX 42047 22181 99279 70936 46/// /0310 10175 20136 40157 57010 91800 22200 00225 333 91211
BBXX 42046 22181 99279 70940 46/// /0608 1//// 40158 91830 22200 00225 333 91209
AAXX 22184 82281 32570 40617 10309 20185 30020 40081 84200 333 59004
AAXX 22184 91371 32474 40917 10267 20252 30084 40087 84213 333 56229 84815 82180 555 92218
BBXX 42046 22181 99279 70940 46/// /0608 1//// 40158 91830 22200 00225 333 91209
BBXX 42047 22181 99279 70936 46/// /0309 10172 20135 40159 91830 22200 00225 333 91210
BBXX 42047 22181 99279 70936 46/// /0310 10175 20136 40157 57010 91800 22200 00225 333 91211
BBXX 44040 22181 99410 70736 46/// /3005 10117 20052 40197 91819 22200 1//00 70000 333 91206 555 11067 22077
AAXX 22181 01199 11470 81704 11066 21072 39575 40052 56011 60012 77173 887// 333 91108
BBXX 63110 22184 99595 10015 47797 /2221 10098 20087 40058 57016 700// 22200 10605 70023
BBXX 63106 22184 99610 10017 46/// /2223 10098 40018 56020 22200
BBXX 63113 22184 99610 10017 46/// /2323 10100 20090 40026 57019 22200 10706 70030
BBXX 64045 22184 99591 70117 46/// /2336 10088 20039 49908 57012 22200 00099 10915 70074 333 90710 91152
BBXX 62305 22184 99504 10000 46/98 /2723 10120 2//// 40279 54000 22200 00120 10602 70008 333 90710 91130
BBXX 62103 22184 99499 70029 46/99 /2514 10123 20096 40280 55002 22200 00122 10702 70010
BBXX 42369 22181 99272 70903 46/// /2009 1//// 91820 22200 10504 70018
BBXX 42370 22181 99273 70905 46/// ///// 10234 91820 22200 10704 70021
BBXX 42376 22181 99291 70879 46/// /1408 10245 40124 91820 22200 10403 70013
BBXX 42887 22181 99282 70885 46/// /2110 1//// 91820 22200 10504 70018
BBXX 42887 22181 99282 70885 46/// /2110 1//// 91820 22200 10504 70018
BBXX 42376 22181 99291 70879 46/// /1408 10245 40124 91820 22200 10403 70013
BBXX 42370 22181 99273 70905 46/// ///// 10234 91820 22200 10704 70021
BBXX 42369 22181 99272 70903 46/// /2009 1//// 91820 22200 10504 70018
BBXX 52243 22181 99193 11666 46/// ///// 1//// 91800 22200 00258
BBXX 51179 22181 99143 51708 46/// ///// 1//// 91800 22200 00286
BBXX 51178 22181 99142 51695 46/// ///// 1//// 91800 22200 00283
BBXX 52246 22181 99152 11457 46/// ///// 1//// 91800 22200 00282
BBXX 51176 22181 99278 71758 46/// ///// 1//// 91800 22200 00238
BBXX 52245 22181 99181 11458 46/// ///// 1//// 91800 22200 00280
BBXX 51174 22181 99142 51697 46/// ///// 1//// 91800 22200 00285
BBXX 52244 22181 99200 11452 46/// ///// 1//// 91800 22200 00268
BBXX 51173 22181 99260 71739 46/// ///// 1//// 91800 22200 00246
BBXX 51172 22181 99284 71783 46/// ///// 1//// 91800 22200 00227
BBXX 51171 22181 99064 71623 46/// ///// 1//// 91800 22200 00278
BBXX 51170 22181 99168 71695 46/// ///// 1//// 91800 22200 00257
BBXX 51169 22181 99004 51600 46/// ///// 1//// 91800 22200 00258
BBXX 52248 22181 99135 11448 46/// ///// 1//// 91800 22200 00284
AAXX 22184 71706 11374 83409 10017 20014 30018 40078 52029 60001 70242 887// 333 10059 20001 70197
AAXX 22184 71706 11374 83409 10017 20014 30018 40078 52029 60001 70242 887// 333 10059 20001 70197
AAXX 22181 03969 11480 62107 10119 20095 30080 40183 58021 69902 70181 865// 333 10128 81716 86650
BBXX 64045 22184 99591 70117 46/// /2336 10088 20039 49908 56012 22200 00101 10915 70074 333 90710 91152
BBXX 63110 22183 99595 10015 41/97 /2228 10098 40054 700// 8//// 22200 10604 70022
BBXX 63106 22184 99610 10017 46/// /2223 10098 40018 56020 22200
BBXX 63105 22184 99610 10017 47796 ///// 10101 20089 40019 57021 700// 22200
BBXX 62305 22184 99504 10000 46/98 /2723 10120 20092 40279 54000 22200 00120 10602 70008 333 90710 91130
BBXX 62103 22184 99499 70029 46/99 /2684 10123 20093 40278 57007 22200 00122 10702 70010
BBXX VRXL7 22184 99278 70237 41297 63213 10210 2015/ 40245 51005 70222 84261 22253 04210 20202 309// 40202 5//// 6//// 80170 ICE /////
BBXX VRXL7 22184 99278 70237 41297 63213 10210 2015/ 40245 51005 70222 84261 22253 04210 20202 309// 40202 5//// 6//// 80170 ICE /////
BBXX 51176 22181 99278 71758 46/// ///// 1//// 91800 22200 00238
BBXX 51172 22181 99284 71783 46/// ///// 1//// 91800 22200 00227
BBXX 51173 22181 99260 71739 46/// ///// 1//// 91800 22200 00246
BBXX 51169 22181 99004 51600 46/// ///// 1//// 91800 22200 00258
BBXX 51174 22181 99142 51697 46/// ///// 1//// 91800 22200 00285
BBXX 51178 22181 99142 51695 46/// ///// 1//// 91800 22200 00283
BBXX 51179 22181 99143 51708 46/// ///// 1//// 91800 22200 00286
BBXX 51170 22181 99168 71695 46/// ///// 1//// 91800 22200 00257
BBXX 51171 22181 99064 71623 46/// ///// 1//// 91800 22200 00278
BBXX 52248 22181 99135 11448 46/// ///// 1//// 91800 22200 00284
BBXX 52244 22181 99200 11452 46/// ///// 1//// 91800 22200 00268
BBXX 52246 22181 99152 11457 46/// ///// 1//// 91800 22200 00282
BBXX 52245 22181 99181 11458 46/// ///// 1//// 91800 22200 00280
BBXX 52243 22181 99193 11666 46/// ///// 1//// 91800 22200 00258
AAXX 22184 97980 11460 70000 10257 20242 30026 40033 56011 69901 70262 86842 333 56000 84816 82620
AAXX 22184 96791 11556 70000 10251 20243 30011 40085 56014 60021 70262 84531 333 56000 84620 84362
AAXX 22184 97460 32459 70000 10248 20233 30034 40048 56002 84376 333 56000 57902 81917 83818 80959 80858
AAXX 22181 98558 11460 80906 10258 20254 40076 58011 60051 71682 8397/ 333 56999 82915 88357
AAXX 2218/ 89868 46/// ///// 11044 39803 4//// 5////
AAXX 2218/ 89872 46/// ///// 11040 39825 4//// 5////
AAXX 2218/ 89866 46/// ///// 11034 39782 4//// 5////
AAXX 2218/ 89329 46/// ///// 11064 38727 4//// 5////
AAXX 2218/ 89327 46/// ///// 10004 39516 4//// 5////
AAXX 2218/ 89828 46/// ///// 11261 36478 4//// 5////
AAXX 2218/ 89108 46/// ///// 11184 36961 4//// 5////
AAXX 2218/ 89332 46/// ///// 11021 39179 4//// 5////
AAXX 2218/ 89769 46/// ///// 11041 39840 4//// 5////
BBXX 63110 22184 99595 10015 47797 /2221 10098 20087 40058 57016 700// 22200 10605 70023
BBXX 63106 22184 99610 10017 46/// /2223 10098 40018 56020 22200
BBXX 63113 22184 99610 10017 46/// /2323 10100 20090 40026 57019 22200 10706 70030
BBXX 64045 22184 99591 70117 46/// /2336 10088 20039 49908 57012 22200 00099 10915 70074 333 90710 91152
BBXX 62305 22184 99504 10000 46/98 /2723 10120 2//// 40279 54000 22200 00120 10602 70008 333 90710 91130
BBXX 62103 22184 99499 70029 46/99 /2514 10123 20096 40280 55002 22200 00122 10702 70010
AAXX 22184 97690 32450 50000 10250 20236 39935 40037 57004 82832 333 56000 57800 82815 84080
AAXX 22184 89614 46/// /1028 11063 29073 38953 4//// 5//// 333 90700 91134
AAXX 22184 89807 46/// /1918 11016 29065 39753 4//// 5//// 333 90700 91121
AAXX 22184 89807 46/// /1918 11016 29065 39753 4//// 5//// 333 90700 91121
AAXX 22184 89614 46/// /1028 11063 29073 38953 4//// 5//// 333 90700 91134
AAXX 22184 97406 32460 70000 10238 20230 30017 40042 57016 84231 333 56000 57801 84819 80860
AAXX 22184 97372 32458 40000 10230 20227 39910 40030 57018 82231 333 56000 82818
AAXX 22181 98553 11464 72701 10255 20247 30063 40067 57015 60031 70584 84270 333 56999 84818 87358
AAXX 22184 97810 01456 73116 10253 20245 30023 40033 58010 60391 76162 84872 333 56700 57871 60017 82818 80858
AAXX 22181 23921 42697 80000 11092 21111 30085 40208 57010 8557/
AAXX 22184 97240 01458 60000 10262 20256 39938 40052 57017 60011 72196 83131 333 56000 60017 83816
AAXX 22181 02805 32483 82102 11029 21037 39915 40049 57011 70222 8772/ 333 11029 21059 47///
AAXX 22184 96207 31456 60000 10211 20192 39210 40132 57014 71622 84931 333 56000 57902 81911 83614 80960
BBXX 64045 22184 99591 70117 46/// /2336 10088 20039 49908 56012 22200 00101 10915 70074 333 90710 91152
BBXX 63110 22183 99595 10015 41/97 /2228 10098 40054 700// 8//// 22200 10604 70022
BBXX 63106 22184 99610 10017 46/// /2223 10098 40018 56020 22200
BBXX 63105 22184 99610 10017 47796 ///// 10101 20089 40019 57021 700// 22200
BBXX 62305 22184 99504 10000 46/98 /2723 10120 20092 40279 54000 22200 00120 10602 70008 333 90710 91130
BBXX 62103 22184 99499 70029 46/99 /2684 10123 20093 40278 57007 22200 00122 10702 70010
AAXX 22184 68906 11297 62713 10157 20137 30061 40125 53006 60042 75055 83676 222// 00125 333 10182 20156 91031 555 20048 91012
AAXX 22184 68906 11297 62713 10157 20137 30061 40125 53006 60042 75055 83676 222// 00125 333 10182 20156 91031 555 20048 91012
AAXX 22181 36864 425// 80000 11151 21170 39466 40432 57015 8672/
AAXX 22184 71721 17/// /2203 10000 21008 39904 40152 50002 60021 7//4/ 333 10000 21028 70050
AAXX 22184 71723 17/// /2304 10003 21008 30147 40157 53008 60031 7//4/ 333 10009 21044 70045
AAXX 22184 71429 16/// /2006 10005 21045 30049 40068 52009 60001 333 10009 21047 70000
AAXX 22184 48427 31950 20000 10245 20183 30102 40109 57014 71000 80005 333 58006
AAXX 22184 89327 46/// /0000 10004 39485 49757 52022 91750
AAXX 22184 89868 46/// /2412 11044 39794 49861 57014 91750
AAXX 22181 98434 11458 83602 10246 20244 30084 40092 58011 60071 76162 8587/ 333 56199 85817 88357
AAXX 22184 97192 32420 31003 10260 20252 30003 40060 57012 82521 333 56000 82617
BBXX 42043 22181 99290 70949 46/// /0704 1//// 40165 91830 22200 00164 333 91205
BBXX 42044 22181 99262 70971 46/// /3405 10146 20120 40172 91830 22200 00168 333 91208
BBXX 42044 22181 99262 70971 46/// /3304 10147 20119 40175 91800 22200 00169 333 91209
BBXX 42045 22181 99262 70965 46/// /3306 10168 40160 91830 22200 00218 333 91208
BBXX 63110 22184 99595 10015 47797 /2221 10098 20087 40058 57016 700// 22200 10605 70023
BBXX 63106 22184 99610 10017 46/// /2223 10098 40018 56020 22200
BBXX 63113 22184 99610 10017 46/// /2323 10100 20090 40026 57019 22200 10706 70030
BBXX 64045 22184 99591 70117 46/// /2336 10088 20039 49908 57012 22200 00099 10915 70074 333 90710 91152
BBXX 62305 22184 99504 10000 46/98 /2723 10120 2//// 40279 54000 22200 00120 10602 70008 333 90710 91130
BBXX 62103 22184 99499 70029 46/99 /2514 10123 20096 40280 55002 22200 00122 10702 70010
BBXX MINFR09 2218/ 99263 31534 46/// ///// 40099 57025
AAXX 22181 98546 32575 60000 10257 20242 30069 40077 58013 82208 333 56999 82820 86275
AAXX 22184 97028 32560 80902 10250 20238 30050 40056 58004 83521 333 56000 83620 87460
BBXX 42045 22181 99262 70965 46/// /3306 10168 40160 91830 22200 00218 333 91208
BBXX 42044 22181 99262 70971 46/// /3405 10146 20120 40172 91830 22200 00168 333 91208
BBXX 42044 22181 99262 70971 46/// /3304 10147 20119 40175 91800 22200 00169 333 91209
BBXX 42043 22181 99290 70949 46/// /0704 1//// 40165 91830 22200 00164 333 91205
BBXX MINFR09 2218/ 99263 31534 46/// ///// 40099 57025
AAXX 22181 98440 31462 70903 10271 20246 30076 40081 58012 70544 83230 333 56199 83815 86358
AAXX 22181 98741 32465 80000 10250 20242 40067 57017 8327/ 333 56999 83817 88358
AAXX 22181 98531 31568 20401 10250 20236 30065 40069 58020 70544 81240 333 56199 81820
AAXX 22184 97530 31450 70000 10250 20233 30040 40045 57008 70544 83832 333 56000 57803 82814 85080 80833
AAXX 22183 63612 32980 10706 10290 20137 40104 80002 333 10357 58012 81080
BBXX 64045 22184 99591 70117 46/// /2336 10088 20039 49908 56012 22200 00101 10915 70074 333 90710 91152
BBXX 63110 22183 99595 10015 41/97 /2228 10098 40054 700// 8//// 22200 10604 70022
BBXX 63106 22184 99610 10017 46/// /2223 10098 40018 56020 22200
BBXX 63105 22184 99610 10017 47796 ///// 10101 20089 40019 57021 700// 22200
BBXX 62305 22184 99504 10000 46/98 /2723 10120 20092 40279 54000 22200 00120 10602 70008 333 90710 91130
BBXX 62103 22184 99499 70029 46/99 /2684 10123 20093 40278 57007 22200 00122 10702 70010
AAXX 22184 97378 32565 70000 10240 20240 39887 40050 56001 81171 333 56000 81820 85459
AAXX 22183 91565 31598 80000 10250 20228 40065 54000 70222 8297/ 333 5629/ 82822 81925 88461
AAXX 22183 91565 31598 80000 10250 20228 40065 54000 70222 8297/ 333 5629/ 82822 81925 88461
AAXX 22181 01046 11989 61509 11029 21085 39982 49989 58031 60002 70320 80006 333 11026 91114
AAXX 22184 42895 32996 00202 10150 20113 40138 333 59010
BBXX MINFR03 2218/ 99188 10724 46/// ///// 10263 40115 52005
BBXX 63110 22184 99595 10015 47797 /2221 10098 20087 40058 57016 700// 22200 10605 70023
BBXX 63106 22184 99610 10017 46/// /2223 10098 40018 56020 22200
BBXX 63113 22184 99610 10017 46/// /2323 10100 20090 40026 57019 22200 10706 70030
BBXX 64045 22184 99591 70117 46/// /2336 10088 20039 49908 57012 22200 00099 10915 70074 333 90710 91152
BBXX 62305 22184 99504 10000 46/98 /2723 10120 2//// 40279 54000 22200 00120 10602 70008 333 90710 91130
BBXX 62103 22184 99499 70029 46/99 /2514 10123 20096 40280 55002 22200 00122 10702 70010
AAXX 22181 25745 42698 52701 11281 21304 30212 40270 52011 85500
AAXX 22184 96839 31456 71604 10278 20249 30052 40059 57016 71792 84932 333 56000 57901 81918 84819 80980
AAXX 22184 97686 01450 80000 10162 20149 38316 40048 56013 60121 72166 86747 333 56000 60047 84709 87360
BBXX MINFR03 2218/ 99188 10724 46/// ///// 10263 40115 52005
BBXX 64045 22184 99591 70117 46/// /2336 10088 20039 49908 56012 22200 00101 10915 70074 333 90710 91152
BBXX 63110 22183 99595 10015 41/97 /2228 10098 40054 700// 8//// 22200 10604 70022
BBXX 63106 22184 99610 10017 46/// /2223 10098 40018 56020 22200
BBXX 63105 22184 99610 10017 47796 ///// 10101 20089 40019 57021 700// 22200
BBXX 62305 22184 99504 10000 46/98 /2723 10120 20092 40279 54000 22200 00120 10602 70008 333 90710 91130
BBXX 62103 22184 99499 70029 46/99 /2684 10123 20093 40278 57007 22200 00122 10702 70010
BBXX 63110 22184 99595 10015 47797 /2221 10098 20087 40058 57016 700// 22200 10605 70023
BBXX 63106 22184 99610 10017 46/// /2223 10098 40018 56020 22200
BBXX 63113 22184 99610 10017 46/// /2323 10100 20090 40026 57019 22200 10706 70030
BBXX 64045 22184 99591 70117 46/// /2336 10088 20039 49908 57012 22200 00099 10915 70074 333 90710 91152
BBXX 62305 22184 99504 10000 46/98 /2723 10120 2//// 40279 54000 22200 00120 10602 70008 333 90710 91130
BBXX 62103 22184 99499 70029 46/99 /2514 10123 20096 40280 55002 22200 00122 10702 70010
BBXX 52249 22181 99052 31503 46/// ///// 1//// 91800 22200 00306
BBXX 64045 22184 99591 70117 46/// /2336 10088 20039 49908 56012 22200 00101 10915 70074 333 90710 91152
BBXX 63110 22183 99595 10015 41/97 /2228 10098 40054 700// 8//// 22200 10604 70022
BBXX 63106 22184 99610 10017 46/// /2223 10098 40018 56020 22200
BBXX 63105 22184 99610 10017 47796 ///// 10101 20089 40019 57021 700// 22200
BBXX 62305 22184 99504 10000 46/98 /2723 10120 20092 40279 54000 22200 00120 10602 70008 333 90710 91130
BBXX 62103 22184 99499 70029 46/99 /2684 10123 20093 40278 57007 22200 00122 10702 70010
BBXX 52249 22181 99052 31503 46/// ///// 1//// 91800 22200 00306
AAXX 22181 89063 42597 82303 11005 21020 39856 49867 57010 886// 222// ICE 45882 333 44114
BBXX A8ZS7 22184 99353 50085 41498 32810 10200 20169 40205 52010 70122 82440 22264 04150 20501 322// 40602 80180
BBXX A8UA9 22184 99110 70180 41/97 30412 10260 20218 40115 57010 70200 8///1 22243 20501 304// 40503 80230
BBXX A8SF9 22184 99206 51450 41498 50822 10270 20213 40145 52010 70322 84468 22214 04280 21004 30302 41104 50603 80230
BBXX DDID2 22183 99116 50354 41698 50816 10265 20227 40115 58005 70200 83478 22215 04260 20602 80238
BBXX DAJT 22184 99259 30471 41598 60423 10260 20232 40085 52005 70322 8599/ 22254 04260 80240
BBXX A8CB7 22183 99254 30485 41397 40619 10250 20222 40140 52010 70322 84478 22254 06270 21102 311// 41004 80230
BBXX 63110 22184 99595 10015 47797 /2221 10098 20087 40058 57016 700// 22200 10605 70023
BBXX 63106 22184 99610 10017 46/// /2223 10098 40018 56020 22200
BBXX 63113 22184 99610 10017 46/// /2323 10100 20090 40026 57019 22200 10706 70030
BBXX 64045 22184 99591 70117 46/// /2336 10088 20039 49908 57012 22200 00099 10915 70074 333 90710 91152
BBXX 62305 22184 99504 10000 46/98 /2723 10120 2//// 40279 54000 22200 00120 10602 70008 333 90710 91130
BBXX 62103 22184 99499 70029 46/99 /2514 10123 20096 40280 55002 22200 00122 10702 70010
BBXX A8CB7 22183 99254 30485 41397 40619 10250 20222 40140 52010 70322 84478 22254 06270 21102 311// 41004 80230
BBXX DAJT 22184 99259 30471 41598 60423 10260 20232 40085 52005 70322 8599/ 22254 04260 80240
AAXX 22181 78090 15/// /0000 10282 30207 40211 69901 91800 222// 00196
AAXX 22181 89063 42597 82303 11005 21020 39856 49867 57010 886// 222// ICE 45882 333 44114
BBXX DDID2 22183 99116 50354 41698 50816 10265 20227 40115 58005 70200 83478 22215 04260 20602 80238
BBXX A8ZS7 22184 99353 50085 41498 32810 10200 20169 40205 52010 70122 82440 22264 04150 20501 322// 40602 80180
BBXX A8UA9 22184 99110 70180 41/97 30412 10260 20218 40115 57010 70200 8///1 22243 20501 304// 40503 80230
BBXX A8CB7 22183 99254 30485 41397 40619 10250 20222 40140 52010 70322 84478 22254 06270 21102 311// 41004 80230
BBXX DAJT 22184 99259 30471 41598 60423 10260 20232 40085 52005 70322 8599/ 22254 04260 80240
BBXX A8SF9 22184 99206 51450 41498 50822 10270 20213 40145 52010 70322 84468 22214 04280 21004 30302 41104 50603 80230
AAXX 22184 48555 01450 80000 10244 20238 30078 40121 55010 60473 76022 8672/ 333 58007 60256 70470
BBXX 64045 22184 99591 70117 46/// /2336 10088 20039 49908 56012 22200 00101 10915 70074 333 90710 91152
BBXX 63110 22183 99595 10015 41/97 /2228 10098 40054 700// 8//// 22200 10604 70022
BBXX 63106 22184 99610 10017 46/// /2223 10098 40018 56020 22200
BBXX 63105 22184 99610 10017 47796 ///// 10101 20089 40019 57021 700// 22200
BBXX 62305 22184 99504 10000 46/98 /2723 10120 20092 40279 54000 22200 00120 10602 70008 333 90710 91130
BBXX 62103 22184 99499 70029 46/99 /2684 10123 20093 40278 57007 22200 00122 10702 70010
AAXX 22181 32509 32509 41998 03408 11122 21217 30178 40214 53014 73630
AAXX 22181 32509 32509 41998 03408 11122 21217 30178 40214 53014 73630 333 91012 91113
AAXX 22181 25594 32998 00402 11206 21246 30103 40157 53005 333 21208 49040 91105
AAXX 22181 30975 42998 00000 11409 21451 39607 40368 53017
BBXX 63110 22184 99595 10015 47797 /2221 10098 20087 40058 57016 700// 22200 10605 70023
BBXX 63106 22184 99610 10017 46/// /2223 10098 40018 56020 22200
BBXX 63113 22184 99610 10017 46/// /2323 10100 20090 40026 57019 22200 10706 70030
BBXX 64045 22184 99591 70117 46/// /2336 10088 20039 49908 57012 22200 00099 10915 70074 333 90710 91152
BBXX 62305 22184 99504 10000 46/98 /2723 10120 2//// 40279 54000 22200 00120 10602 70008 333 90710 91130
BBXX 62103 22184 99499 70029 46/99 /2514 10123 20096 40280 55002 22200 00122 10702 70010
AAXX 22184 68994 12398 71206 10075 20069 39973 40002 52008 60032 8353/ 222// 00072 303// 40901 333 10129 20075 91008 555 20030 91000
AAXX 22184 68994 12398 71206 10075 20069 39973 40002 52008 60032 8353/ 222// 00072 303// 40901 333 10129 20075 91008 555 20030 91000
AAXX 22184 16450 11360 42909 10026 21010 39007 48468 53007 60012 72274 84700 333 10046 84707
BBXX 64045 22184 99591 70117 46/// /2336 10088 20039 49908 56012 22200 00101 10915 70074 333 90710 91152
BBXX 63110 22183 99595 10015 41/97 /2228 10098 40054 700// 8//// 22200 10604 70022
BBXX 63106 22184 99610 10017 46/// /2223 10098 40018 56020 22200
BBXX 63105 22184 99610 10017 47796 ///// 10101 20089 40019 57021 700// 22200
BBXX 62305 22184 99504 10000 46/98 /2723 10120 20092 40279 54000 22200 00120 10602 70008 333 90710 91130
BBXX 62103 22184 99499 70029 46/99 /2684 10123 20093 40278 57007 22200 00122 10702 70010
AAXX 22184 89573 35980 20913 10005 21090 39838 49860 52006 82030
AAXX 22184 89573 35980 20913 10005 21090 39838 49860 52006 82030
AAXX 22184 91723 NIL
AAXX 22184 91964 NIL
BBXX 63110 22184 99595 10015 47797 /2221 10098 20087 40058 57016 700// 22200 10605 70023
BBXX 63106 22184 99610 10017 46/// /2223 10098 40018 56020 22200
BBXX 63113 22184 99610 10017 46/// /2323 10100 20090 40026 57019 22200 10706 70030
BBXX 64045 22184 99591 70117 46/// /2336 10088 20039 49908 57012 22200 00099 10915 70074 333 90710 91152
BBXX 62305 22184 99504 10000 46/98 /2723 10120 2//// 40279 54000 22200 00120 10602 70008 333 90710 91130
BBXX 62103 22184 99499 70029 46/99 /2514 10123 20096 40280 55002 22200 00122 10702 70010
BBXX A8SI8 23184 99375 10107 43598 23425 10130 2005/ 40270 52030 81/// 22274 00160 80090
AAXX 22184 71618 15966 02710 11290 21321 30169 40209 51006 60001 333 11256 21290 70000
BBXX 64045 22184 99591 70117 46/// /2336 10088 20039 49908 56012 22200 00101 10915 70074 333 90710 91152
BBXX 63110 22183 99595 10015 41/97 /2228 10098 40054 700// 8//// 22200 10604 70022
BBXX 63106 22184 99610 10017 46/// /2223 10098 40018 56020 22200
BBXX 63105 22184 99610 10017 47796 ///// 10101 20089 40019 57021 700// 22200
BBXX 62305 22184 99504 10000 46/98 /2723 10120 20092 40279 54000 22200 00120 10602 70008 333 90710 91130
BBXX 62103 22184 99499 70029 46/99 /2684 10123 20093 40278 57007 22200 00122 10702 70010
BBXX ONAN 22184 99184 11645 41/98 /0919 10260 2023/ 40130 54/// 7//// 8//// 22213 04280 20604 309// 40604 5//// 6//// 80240 ICE /////
BBXX ONAN 22184 99184 11645 41/98 /0919 10260 2023/ 40130 54/// 7//// 8//// 22213 04280 20604 309// 40604 5//// 6//// 80240 ICE /////
AAXX 22184 96745 01550 80000 10274 20239 30069 40073 57010 60021 70262 8552/ 333 56009 60017 85620 88460
BBXX 63110 22184 99595 10015 47797 /2221 10098 20087 40058 57016 700// 22200 10605 70023
BBXX 63106 22184 99610 10017 46/// /2223 10098 40018 56020 22200
BBXX 63113 22184 99610 10017 46/// /2323 10100 20090 40026 57019 22200 10706 70030
BBXX 64045 22184 99591 70117 46/// /2336 10088 20039 49908 57012 22200 00099 10915 70074 333 90710 91152
BBXX 62305 22184 99504 10000 46/98 /2723 10120 2//// 40279 54000 22200 00120 10602 70008 333 90710 91130
BBXX 62103 22184 99499 70029 46/99 /2514 10123 20096 40280 55002 22200 00122 10702 70010
AAXX 22184 48583 11458 80608 10265 20239 30081 40087 57014 60123 71062 8582/ 333 59006 70177
AAXX 22184 48387 31956 20902 10153 20146 39164 40140 57006 71000 80005 333 59009
AAXX 22184 48554 01456 80000 10242 20236 30095 40099 57006 60183 72162 84827 333 58007 69925 70210
AAXX 22184 48563 32560 50000 10240 20230 30047 40083 57013 82246 333 58002 70046
AAXX 22184 48581 01450 80000 10242 20232 30059 40101 57005 60033 71062 82576 333 58005 60017 70263
AAXX 22181 37126 42997 52103 11033 21065 37917 48491 57011 80001 333 55002
BBXX UGSN 22181 99514 11410 41/98 /3608 11135 40204 57005 70272 22200 00014 2//// ICE 51092
BBXX UGSN 22181 99514 11410 41/98 /3608 11135 40204 57005 70272 22200 00014 2//// ICE 51092
BBXX 64045 22184 99591 70117 46/// /2336 10088 20039 49908 56012 22200 00101 10915 70074 333 90710 91152
BBXX 63110 22183 99595 10015 41/97 /2228 10098 40054 700// 8//// 22200 10604 70022
BBXX 63106 22184 99610 10017 46/// /2223 10098 40018 56020 22200
BBXX 63105 22184 99610 10017 47796 ///// 10101 20089 40019 57021 700// 22200
BBXX 62305 22184 99504 10000 46/98 /2723 10120 20092 40279 54000 22200 00120 10602 70008 333 90710 91130
BBXX 62103 22184 99499 70029 46/99 /2684 10123 20093 40278 57007 22200 00122 10702 70010
AAXX 22184 89514 32797 60717 10026 49805 52012 85056 333 10026 21016 85350 84270
BBXX UGWJ 22181 99043 30831 41/97 92811 10265 40128 54000 76062 22251 00279 20504
BBXX UGWJ 22181 99043 30831 41/97 92811 10265 40128 54000 76062 22251 00279 20504
BBXX WDE8293 22184 99377 70417 413// 50510 10150 20096 40310 51003 7//// 84876 22274 00200 21004 32905 41207 51005 6//// 80120 ICE /////
BBXX WDE8293 22184 99377 70417 413// 50510 10150 20096 40310 51003 7//// 84876 22274 00200 21004 32905 41207 51005 6//// 80120 ICE /////
BBXX V7QX2 22184 99252 10565 41797 33600 10230 2023/ 40190 54/// 7//// 8/19/ 2223/ 00260 20200 329// 4//// 5//// 6//// 80230 ICE /////
BBXX V7QX2 22184 99252 10565 41797 33600 10230 2023/ 40190 54/// 7//// 8/19/ 2223/ 00260 20200 329// 4//// 5//// 6//// 80230 ICE /////
AAXX 22184 41859 31/08 90000 10100 20100 30114 40153 74142 89/// 333 56999 59014 70000
AAXX 22184 41883 31/09 90000 10120 20115 30127 40149 74744 89/// 333 56999 59012 70000
AAXX 22184 41891 31425 83102 10146 20140 30103 40143 71021 8532/ 333 56999 58000 70000 85615 81930 88460
AAXX 22184 41907 31/02 90000 10105 20105 30132 40148 74744 89/// 333 56999 59007 70000
AAXX 22184 41923 31/09 90000 10138 20120 30129 40189 74344 89/// 333 56999 59008 70000
AAXX 22184 41936 31910 00000 10102 20090 40146 70500 333 59012 70000
AAXX 22184 41943 31430 40000 10126 20120 30137 40145 70522 83530 333 56990 59010 70000 83616 84362
AAXX 22184 41978 31920 03303 10147 20140 30121 40128 71044 333 59004 70000
AAXX 22184 41992 31925 00000 10162 20150 30123 40125 71000 333 59003 70000
AAXX 22184 41950 31325 80000 10132 20130 30140 40143 71020 8662/ 333 56899 59004 70000 83708 84616 88458
AAXX 22184 48437 32960 30000 10200 20177 39912 40127 57005 80005 333 59001
AAXX 22181 38932 429// 00000 1108021098 40356 57016
AAXX 22184 67009 32580 30000 10260 20246 30007 40125 52015 83900 333 10320 81920 83820 94974/8 95814/8
AAXX 22184 67009 32580 30000 10260 20246 30007 40125 52015 83900 333 10320 81920 83820 94974 95814
AAXX 22184 67009 32580 30000 10260 20246 30007 40125 52015 83900 333 10320 81920 83820 94974 94978 95814 95818
AAXX 22184 41560 22696 40505 11014 21023 38244 48480 60003 82530 333 59004 60007
AAXX 22181 01424 11350 8//// 10005 21002 30121 40124 57006 60042 76161 886// 333 10007
AAXX 22184 68906 11297 62719 10157 20137 30061 40125 53006 60042 75055 83676 222// 00125 333 10182 20156 91031 555 20048 91012
AAXX 22184 68296 32975 02303 10306 20259 38909 4//// 52002 333 10385 2//// 91002 555
BBXX A8AF6 22183 99225 70176 41998 10514 10185 20118 40210 57020 70200 80007 22243 02180 20202 305// 40603 80145
BBXX A8AF6 22183 99225 70176 41998 10514 10185 20118 40210 57020 70200 80007 22243 02180 20202 305// 40603 80145
AAXX 22184 60195 32965 00000 10136 20003 38591 48604 57007 333 10182 95500
AAXX 22181 10609 01460 82302 10092 20078 39922 40253 52015 60012 72122 875// 333 10096 20038 31004 55300 20000 30000 69907 87615
AAXX 22184 03136 15677 /2411 10120 20093 30107 40140 57023 60002 91750 333 10121 55300 20000 81/40 87/56
AAXX 22184 44454 42356 10000 10050 20039 38665 48499 81600 333 59009
AAXX 22181 10908 01/01 93212 10021 20021 38549 48542 53016 60132 76364 333 10025 21013 3/101 49070 55300 20000 30000 60047 89/01 91119 91213 96045
AAXX 22181 57259 33/// 91801 10026 21008 40310 57002 333 10082
AAXX 22184 71430 16/// /2710 10054 20021 30068 40165 58012 60001 333 10054 7////
AAXX 22184 85585 NIL
AAXX 22184 85586 12960 02317 10184 20078 40133 57013 60001
AAXX 22184 85629 12980 02408 10238 20069 40125 57015 60001
AAXX 22184 85672 13980 02014 10215 20059 40164 57009 60001 333
AAXX 22184 85682 12965 02319 10195 20046 40179 58010 60001
AAXX 22184 85743 12560 52508 10176 20017 40199 58005 60001 87500 333 56600 85620
AAXX 22184 85766 12670 32419 10164 20060 40205 57002 60001 83100 333 56500 83840
AAXX 22184 85782 11560 61807 10146 20082 40204 54002 69951 70282 86200 333 56500 86830
AAXX 22184 85799 11610 62409 10142 20061 40203 54000 60021 70182 86800 333 56500 83840 85656
AAXX 22184 85830 NIL
AAXX 22184 85406 12980 02212 10236 20133 40095 58007 60001
AAXX 22184 85418 12570 22512 10228 20150 40096 53008 60001 82500 333 56000 82625
AAXX 22184 85432 12970 32520 10254 20029 37724 48437 57013 60001 80001 333 56006 83072
AAXX 22184 85442 12465 31915 10212 20148 40085 57015 60001 82508 333 56400 83623
AAXX 22184 85467 12970 02412 10215 20122 40098 56021 60001
AAXX 22184 85469 12565 50000 10207 20157 40191 52015 60004 82201 333 20150 30/// 55107 56200 70000 82820 84078
AAXX 22184 85488 12968 03012 10203 20116 40100 58013 60001
AAXX 22184 85574 12960 01813 10284 20068 39564 40090 57014 60001
AAXX 22184 85577 12960 02205 10282 20049 39517 40096 57012 60001
