AAXX 22064 40270 31920 40000 10092 20076 39277 40178 54000 71000 80001 333 20080 30002 84070
BBXX 44172 22061 99445 70634 46/// ///// 1//// 90531 22200 00064 10706 20706 317// 41101 70029
BBXX 44097 22061 99410 70711 46/// ///// 1//// 90532 22200 00120 10807 20807 317// 41101 70037
BBXX ZMFR 22054 99424 31738 43/// /08// 10153 20104 40279 57011 22212 00153
BBXX ZMENA 22054 99368 31748 46/// ///// 10186 20127 40242 57019 22241
BBXX 46218 22061 99345 71208 46/// ///// 1//// 90532 22200 00140 11406 20903 331// 41405 70030
AAXX 22064 40255 32660 51204 10094 20065 39469 40190 54001 82130 333 20070 30001 82830 84360
BBXX WWU8 22063 99610 71513 41/// /3308 11020 2//// 40040 5//// 7//// 8//// 22200 0//// 2//// 3//// 4//// 5//// 6//// 8//// ICE /////
BBXX WFLG 22063 99226 71546 41398 10720 10222 20199 40180 53012 70111 81100 22254 00200 20504 311// 40806 5//// 6//// 80206 ICE /////
BBXX C6DM2 22064 99054 11003 41999 70204 10310 20242 40080 56010 7//11 8624/ 22200 0//// 2//// 3//// 4//// 5//// 6//// 80260 ICE /////
AAXX 22064 67341 32980 00308 10255 20169 40119 50009 333 20201 50/// 55/// 555 10000 94300
AAXX 22064 08495 12980 02608 10118 20088 30254 40262 54000 60002 90550 333 20117 30010 70000
AAXX 22063 91487 NIL
AAXX 22063 91490 NIL
AAXX 22063 91533 NIL
AAXX 22063 91601 NIL
AAXX 22063 91610 11599 30808 10284 20219 40043 53002 60001 70200 82101 333 562/9
AAXX 22063 91623 NIL
AAXX 22063 91629 NIL
AAXX 22063 91701 NIL
AAXX 22063 91487 NIL
AAXX 22063 91490 NIL
AAXX 22063 91533 NIL
AAXX 22063 91601 NIL
AAXX 22063 91610 11599 30808 10284 20219 40043 53002 60001 70200 82101 333 562/9
AAXX 22063 91623 NIL
AAXX 22063 91629 NIL
AAXX 22063 91701 NIL
BBXX 46249 22061 99338 71197 46/// ///// 1//// 90542 22200 00146 11302 21002 325// 41302 70012
BBXX 46248 22061 99461 71247 46/// ///// 1//// 90534 22200 00095 11305 21003 328// 41304 70027
BBXX 46244 22061 99409 71244 46/// ///// 1//// 90535 22200 00094 11306 20805 329// 41304 70031
BBXX BAREU56 22064 99329 10132 46/// ///// 40166 22200
BBXX 46240 22061 99366 71219 46/// ///// 1//// 90542 22200 00123 11303 21001 335// 41303 70016
BBXX 46237 22061 99378 71226 46/// ///// 1//// 90540 22200 00109 11304 21002 327// 41303 70019
BBXX 46212 22061 99408 71243 46/// ///// 1//// 90542 22200 00094 11306 21004 330// 41304 70031
BBXX 46217 22061 99342 71194 46/// ///// 1//// 90542 22200 00150 11302 21002 327// 41302 70012
BBXX 44098 22061 99428 70702 46/// ///// 1//// 90537 22200 00086 10603 20603 313// 41101 70013
AAXX 22064 78705 31566 21402 10212 20199 30106 40124 58006 70544 82130 333 10288 20197 30/// 56000 59005 82828
AAXX 22064 78708 31560 10000 10219 20219 30097 40127 58003 70544 81500 333 10308 20203 30/// 56000 59007 81624
AAXX 22064 78714 32570 20000 10223 20210 82100 333 10288 20202 30/// 56100 82828
AAXX 22064 78717 31558 40000 10174 20171 38348 40124 58002 71044 84500 333 10252 20170 30/// 56100 59003 84620
AAXX 22064 78720 31560 32403 10166 20144 39031 40138 56001 70544 83500 333 10266 20168 30/// 56200 59006 83628
AAXX 22064 78724 32578 10000 10260 20219 30037 40094 51004 81500 333 10340 20258 30//// 56000 59006 81630
AAXX 22064 91334 11474 80310 10280 20247 30032 40035 56010 60011 70282 83321 333 56199 70071 555 92206
AAXX 22064 91334 11474 80310 10280 20247 30032 40035 56010 60011 70282 83321 333 56199 70071 555 92206
AAXX 22064 16597 32665 13115 10098 20031 30030 40118 53002 81200 333 20087 30008 70154 81842 91120 91531
AAXX 22064 40272 31904 40000 10040 20038 39353 40203 52012 74400 80001 333 20006 30000 84070
AAXX 22064 08589 32465 20413 10210 20210 40140 82500 333 20208 59001 82617
AAXX 22064 08594 32462 20711 10208 20184 40144 82200 333 20203 59002 82614
AAXX 22064 08583 32562 20511 10207 20170 40151 82500 333 20191 59004 82623
AAXX 22064 68906 11395 80119 10136 20126 30060 40124 58007 69954 76066 8657/ 222// 00123 333 20118 91028 555 10168 20005 91012
AAXX 22064 91376 32474 80611 10280 20234 30052 40056 53003 8487/ 333 5619/ 70015 555 92206
AAXX 22064 91408 11474 80912 10314 20257 30000 40038 57015 60011 70282 83278 333 56999 70122 555 92206
BBXX 42363 22061 99282 70892 46/// /1204 10217 20194 40166 90545 333 91205
BBXX 41115 22061 99184 70673 46/// ///// 1//// 90535 22200 11305 21003 300// 41304 70024
BBXX 41114 22061 99276 70802 46/// ///// 1//// 90546 22200 00237 11302 21001 306// 41302 70010
BBXX 41012 22061 99300 70805 46/// /1907 10225 40195 56009 90550 22200 00226 11302 20402 306// 41302 70011 333 91208 555 11071 22076 30548 41808 60549 185067 184067 186068 190065 193065 190064
BBXX 46114 22061 99364 71222 46/// ///// 1//// 90534 22200 00121 11407 21003 329// 41406 70033
BBXX 46060 22061 99606 71468 46/// /1106 10018 40038 58023 90550 22200 00057 333 91208 555 11067 22070 30510 41111 60549 106063 111067 111075 112083 107085 109075 81110 90513
BBXX 52200 22061 99134 11448 46/// ///// 1//// 90545 22200 00288 10905 20905 309// 41101 70024
BBXX 46211 22061 99469 71242 46/// ///// 1//// 90536 22200 00081 11204 21002 327// 41204 70021
BBXX 46088 22061 99483 71232 46/// /0701 10055 40337 52003 90550 22200 00078 11101 322// 41101 70004 333 91203 555 11013 22014 30535 40703 60549 066013 047017 033014 030012 038002 091010
AAXX 22064 91376 32474 80611 10280 20234 30052 40056 53003 8487/ 333 5619/ 70015 555 92206
AAXX 22064 91408 11474 80912 10314 20257 30000 40038 57015 60011 70282 83278 333 56999 70122 555 92206
AAXX 22064 68994 11393 83122 10103 20103 39949 49977 58002 60034 74522 886// 222// 00072 303// 41002 333 20079 91029 555 10114 20038 90997
AAXX 22064 68392 36/// /3104 10226 20169 39935 4//// 51001 333 20169 91008 555 10301
AAXX 22064 68382 36/// /0104 10218 20166 39337 48522 52006 333 20176 91008 555 10319 91015
BBXX DBKV 22061 99169 70250 46/// /0603 10225 20174 40150 57013 22230 00235
BBXX DBBU 22061 99546 10135 46/// /2204 10048 20040 40181 52005 22200 00057
BBXX DBFR 22061 99535 10086 46/// /1604 10042 20042 40167 57010 22250 00049
BBXX DBBT 22061 99339 30184 46/// /3410 10157 20137 40124 52018 22212 00135
BBXX 44025 22061 99402 70732 46/// /2509 10128 20109 40091 53029 90550 22200 00108 10806 20806 311// 41101 70029 333 91211 555 11102 22113 30450 42718 60549 244094 242096 244096 250094 255115 259127
BBXX 41008 22061 99314 70809 46/// /1805 10182 20175 40193 58012 90550 22200 00163 10602 20501 300// 40602 70009 333 91206 555 11058 22067 30538 41806 60549 178052 178054 179051 182052 181053 178048
BBXX BAREU63 22064 99401 10147 46/// /1309 10104 29063 40114 52016 22272
BBXX TESTFR9 22064 99486 70020 46/// ///// 10113 29096 40323 52024 22200
AAXX 22064 61901 169// /1313 10164 20147 39674 40184 53009 60002 90550 333 20157 3/014 70000 8//99 555 7/090
AAXX 22064 91348 11474 80808 10283 20246 30003 40056 53002 60041 72582 86271 333 56299 70099 555 92206
BBXX PINX 22064 99123 70698 41/98 30732 10270 2//// 40100 54000 70111 8//// 22233 00290 2//// 3//// 4//// 5//// 6//// 8//// ICE /////
BBXX PHSG 22064 99243 71121 41/// 10218 10180 40170 52010 70300 8//// 22274 00200 20503
BBXX NWS0022 22064 99416 70714 43/// /2512 10144 20115 40041 5//// 7//// 8//// 222// 04112 2//// 3//// 4//// 5//// 6//// 8//// ICE /////
BBXX WDC6698 22064 99093 71455 43/// /3218 1//// 2//// 40080 5//// 7//// 8//// 222// 04254 2//// 3//// 4//// 5//// 6//// 8//// ICE /////
BBXX V7NV4 22064 99300 71616 41597 52013 10200 20185 40220 52015 702// 83286 22263 00180 20201 332// 40405 5//// 6//// 80190 ICE /////
BBXX PBAD 22061 99229 70737 41998 01013 10250 20204 40189 58009 70200 80000 22234 00265 20502 3//// 4//// 5//// 80220
AAXX 22064 91348 11474 80808 10283 20246 30003 40056 53002 60041 72582 86271 333 56299 70099 555 92206
AAXX 22064 91772 31498 40705 10279 20243 4//// 60001 70221 82808 333 561/9 82817 83640 84180
AAXX 22064 91776 31498 60000 1//// 2//// 4//// 60001 70312 8323/ 333 5699/ 83818 86361
AAXX 22064 91779 31498 60906 10273 20242 40095 53011 60001 70222 83201 333 562/9 83817 86079
AAXX 22064 91784 31498 70704 10274 20254 40089 53002 60001 70222 8477/ 333 5619/ 81710 84817 87461
AAXX 22064 91792 11498 89902 10229 20228 40107 53008 60223 78068 8317/ 333 5699/ 83815 88360
BBXX DBBT 22061 99339 30184 46/// /3410 10157 20137 40124 52018 22212 00135
BBXX DBKV 22061 99169 70250 46/// /0603 10225 20174 40150 57013 22230 00235
BBXX ONDY 22064 99343 30274 41/97 81614 10220 2017/ 40110 52030 75021 8//// 22212 00260 2//// 320// 4//// 5//// 6//// 80190 ICE /////
BBXX WECH 22064 99154 11390 41598 10915 10265 2024/ 40075 57030 70222 81100 22275 00260 20403 309// 40805 5//// 6//// 80245 ICE /////
BBXX SHIP 22064 99207 11420 41798 51125 10280 2024/ 40120 57020 70222 85100 22213 00380 20804 306// 41207 5//// 6//// 80250 ICE /////
BBXX S6JU 22064 99463 11604 41998 13218 10070 20040 40105 50010 70100 81/// 22234 04080 2//// 3//// 4//// 5//// 6//// 80030
BBXX LEQZ3 22063 99545 11788 412// 62913 10000 2000/ 40040 54000 70211 86483 22253 00110 80000
BBXX VSJG7 22063 99477 11479 41597 31718 11010 2//// 40210 56010 7//00 831// 22254 00020 20803 317// 4//// 5//// 6//// ICE /////
BBXX LAOX5 22061 99443 71366 41/97 81921 00/// 10110 2009/ 40230 54000 70320 88/// 22213 00120 20403 321// 40503 5//// 6//// 80100
BBXX WSLH 22064 99399 71379 41498 41623 10135 2010/ 40265 51010 70211 844// 22215 00128 2//// 3//// 4//// 5//// 6//// 80115 ICE /////
BBXX WGEB 22064 99211 71717 41/98 31017 10256 2021/ 40178 52013 7//00 8/1// 22265 00256 29904 3//// 4//05 5//// 6//// 80222 ICE /////
BBXX DADD 22063 99277 70769 41/98 /1019 10220 20190 40210 57010 78011 8//// 22224 20502 3//// 4//// 5//// 80200
BBXX LAVX4 22064 99365 70642 41/97 /2325 10200 2019/ 40240 54005 70222 8//// 22213 00000 20704 327// 40905 5//// 6//// 80200
BBXX ELZA8 22063 99000 50425 41498 70819 10265 20237 40085 58015 70322 87700 22275 04280 29903 80245
BBXX 44025 22061 99402 70732 46/// /2509 10128 20109 40091 53029 90550 22200 00108 10806 20806 311// 41101 70029 333 91211 555 11102 22113 30450 42718 60549 244094 242096 244096 250094 255115 259127
BBXX 41008 22061 99314 70809 46/// /1805 10182 20175 40193 58012 90550 22200 00163 10602 20501 300// 40602 70009 333 91206 555 11058 22067 30538 41806 60549 178052 178054 179051 182052 181053 178048
BBXX 46211 22061 99469 71242 46/// ///// 1//// 90536 22200 00081 11204 21002 327// 41204 70021
BBXX 46060 22061 99606 71468 46/// /1106 10018 40038 58023 90550 22200 00057 333 91208 555 11067 22070 30510 41111 60549 106063 111067 111075 112083 107085 109075 81110 90513
BBXX 46088 22061 99483 71232 46/// /0701 10055 40337 52003 90550 22200 00078 11101 322// 41101 70004 333 91203 555 11013 22014 30535 40703 60549 066013 047017 033014 030012 038002 091010
BBXX 46114 22061 99364 71222 46/// ///// 1//// 90534 22200 00121 11407 21003 329// 41406 70033
BBXX 41115 22061 99184 70673 46/// ///// 1//// 90535 22200 11305 21003 300// 41304 70024
BBXX 41012 22061 99300 70805 46/// /1907 10225 40195 56009 90550 22200 00226 11302 20402 306// 41302 70011 333 91208 555 11071 22076 30548 41808 60549 185067 184067 186068 190065 193065 190064
BBXX 42363 22061 99282 70892 46/// /1204 10217 20194 40166 90545 333 91205
BBXX 41114 22061 99276 70802 46/// ///// 1//// 90546 22200 00237 11302 21001 306// 41302 70010
BBXX PDBP 22063 99348 70445 41598 20519 10185 20118 40263 51005 70282 82200 22224 04198 2//05 309// 41204 80145
BBXX C6OT4 22064 99181 71420 41/98 80822 10225 20177 40148 54000 70222 8//// 22223 2//// 3//// 4//// 5//// 80195
BBXX V7NV4 22064 99300 71616 41597 52013 10200 20185 40220 52015 702// 83286 22263 00180 20201 332// 40405 5//// 6//// 80190 ICE /////
BBXX WPGK 22064 99328 70710 41498 52113 10211 2017/ 40227 57016 70221 858// 22284 00228 20502 301// 40403 5//// 6//// 80183 ICE /////
BBXX 3FSB4 22064 99189 71053 438// 23219 10240 2021/ 40140 54000 7//// 82//5 22234 0//// 20603 3//// 40504 5//// 6//// 80220 ICE /////
BBXX PINX 22064 99123 70698 41/98 30732 10270 2//// 40100 54000 70111 8//// 22233 00290 2//// 3//// 4//// 5//// 6//// 8//// ICE /////
BBXX ZCDF4 22063 99251 71130 41/98 20215 10164 20136 40186 53009 70200 82/// 22235 00180 20301 332// 41003 5//// 80148
BBXX C6LU3 22063 99409 70425 41/97 /3328 10095 2007/ 40320 52020 70211 8//// 22214 20706 80080
BBXX A8SI3 22063 99541 71601 43998 00324 10027 2103/ 40110 54000 80/// 22264 00030 20703 80030
BBXX DMDZ 22063 99221 70611 41/97 /0821 10234 20179 40235 54000 76022 8//// 22263 00260 2//// 3//// 4//// 5//// 80197
BBXX C6SA3 22064 99158 70619 41/// /0739 10260 20232 40130 54/// 791// 8//// 22232 00270 20510 3//// 40510 50510 6//// 80240 ICE /////
BBXX PHSG 22064 99243 71121 41/// 10218 10180 40170 52010 70300 8//// 22274 00200 20503
BBXX 44098 22061 99428 70702 46/// ///// 1//// 90537 22200 00086 10603 20603 313// 41101 70013
BBXX 46217 22061 99342 71194 46/// ///// 1//// 90542 22200 00150 11302 21002 327// 41302 70012
BBXX 46212 22061 99408 71243 46/// ///// 1//// 90542 22200 00094 11306 21004 330// 41304 70031
BBXX 46237 22061 99378 71226 46/// ///// 1//// 90540 22200 00109 11304 21002 327// 41303 70019
BBXX 46240 22061 99366 71219 46/// ///// 1//// 90542 22200 00123 11303 21001 335// 41303 70016
BBXX 46248 22061 99461 71247 46/// ///// 1//// 90534 22200 00095 11305 21003 328// 41304 70027
BBXX 46244 22061 99409 71244 46/// ///// 1//// 90535 22200 00094 11306 20805 329// 41304 70031
BBXX 46249 22061 99338 71197 46/// ///// 1//// 90542 22200 00146 11302 21002 325// 41302 70012
BBXX A8CK2 22060 99076 30821 41498 8//// 10279 40082 52010 76000 8672/ 22253 299// 326// 40804 5////
BBXX DBBU 22061 99546 10135 46/// /2204 10048 20040 40181 52005 22200 00057
BBXX DBFR 22061 99535 10086 46/// /1604 10042 20042 40167 57010 22250 00049
AAXX 22061 76040 32902 01501 10105 20039 30151 40165 52014 90540 333 10207 20058 30/// 55093 58006 98602
AAXX 22061 76225 32920 02901 10064 21031 38606 40111 52021 90540 333 10177 21020 30/// 55090 58022
AAXX 22061 76342 01420 61301 10080 20065 39452 40170 52002 69931 70121 867// 90550 333 10146 20076 31/// 55020 20119 561// 59036 69907 86720
AAXX 22061 76373 32906 02301 10019 21030 38186 40126 52020 90550 333 10178 20093 30/// 55043 20966 59021
AAXX 22061 76390 31850 32508 10151 20008 38180 40040 52012 70544 83050 90530 333 10220 20100 30/// 55077 21328 56080 59020 83356 91113
AAXX 22061 76402 32950 00000 10128 20096 30119 40176 52011 90545 333 10225 20070 30/// 55090 2//// 58022
AAXX 22061 76458 32960 03103 10164 20085 30151 40156 52003 90538 333 10254 20109 30/// 55027 58020
AAXX 22061 76525 32460 22010 10071 20035 37441 40092 52007 82600 90540 333 10160 20058 30/// 55096 22713 565// 59014 82715
AAXX 22061 76548 32960 00201 10204 20195 30111 40121 58002 90540 333 10256 20184 30/// 55048 59038
AAXX 22061 76556 32960 00801 10157 20118 39119 40135 52011 90534 333 10226 20107 30/// 55090 58014
AAXX 22061 76571 32910 00315 20118 20017 38145 40095 54005 90550 333 10240 20048 30/// 55088 59007
AAXX 22061 76581 32960 00302 10148 20134 39018 40100 52013 90550 333 10295 20141 30/// 55080 59030
AAXX 22061 76644 32350 11203 20236 20219 30127 40139 52006 81200 90550 333 10330 20214 30/// 55086 20886 561// 59004 81810
AAXX 22061 76654 31956 00201 10234 20209 30143 40147 52015 70544 90550 333 10289 20218 30/// 55079 20815 58001
AAXX 22061 76658 31958 41402 10208 20186 39635 40134 52012 70540 80006 90546 333 10314 20166 30/// 55086 56001 58002 84070 98914
AAXX 22061 76665 32958 01602 10126 20059 38109 40088 52002 90550 333 10270 20056 30/// 55082 21162 59007
AAXX 22061 76680 31962 02702 10137 20066 37738 40071 52002 70500 90545 333 10236 20089 30/// 55097 21354 59007
AAXX 22061 76683 32962 00000 10088 20053 37817 40144 52007 90540 333 10227 20044 30/// 50301 55100 22036 59007
AAXX 22061 76685 32950 00000 10114 20041 37868 40094 52018 90550 333 10236 20068 30/// 55104 58000
AAXX 22061 76750 32558 30902 10250 20231 30122 40132 57005 82130 90545 333 10324 20209 30/// 55061 56220 59003 82820
AAXX 22061 76762 32902 30000 10174 20152 38750 40106 52005 80001 90546 333 10308 2012 30/// 55097 21247 56006 59015 83070
AAXX 22061 76775 32960 02701 10146 20084 38513 40105 52011 90545 333 10293 20110 30/// 55082 59004
AAXX 22061 76805 32960 03101 10229 20221 30116 40120 52010 90535 333 10311 20220 30/// 55094 21060 59004
AAXX 22061 76311 32920 00000 10090 20074 39886 40165 50015 90552 333 10230 20041 30/// 55064 58037
AAXX 22061 76412 32960 02402 10126 20098 30140 40186 52011 90540 333 10250 20120 30/// 55050 58028
AAXX 22061 76040 32902 01501 10105 20039 30151 40165 52014 90540 33310207 20058 30/// 55093 58006 98602
AAXX 22061 76225 32920 02901 10064 21031 38606 40111 52021 90540 33310177 21020 30/// 55090 58022
AAXX 22061 76342 01420 61301 10080 20065 39452 40170 52002 69931 70121867// 90550 333 10146 20076 31/// 55020 20119 561// 5903669907 86720
AAXX 22061 76373 32906 02301 10019 21030 38186 40126 52020 90550 33310178 20093 30/// 55043 20966 59021
AAXX 22061 76390 31850 32508 10151 20008 38180 40040 52012 70544 8305090530 333 10220 20100 30/// 55077 21328 56080 59020 8335691113
AAXX 22061 76402 32950 00000 10128 20096 30119 40176 52011 90545 33310225 20070 30/// 55090 2//// 58022
AAXX 22061 76458 32960 03103 10164 20085 30151 40156 52003 90538 33310254 20109 30/// 55027 58020
AAXX 22061 76525 32460 22010 10071 20035 37441 40092 52007 82600 90540333 10160 20058 30/// 55096 22713 565// 59014 82715
AAXX 22061 76548 32960 00201 10204 20195 30111 40121 58002 90540 33310256 20184 30/// 55048 59038
AAXX 22061 76556 32960 00801 10157 20118 39119 40135 52011 90534 33310226 20107 30/// 55090 58014
AAXX 22061 76571 32910 00315 20118 20017 38145 40095 54005 90550 33310240 20048 30/// 55088 59007
AAXX 22061 76581 32960 00302 10148 20134 39018 40100 52013 90550 33310295 20141 30/// 55080 59030
AAXX 22061 76644 32350 11203 20236 20219 30127 40139 52006 81200 90550333 10330 20214 30/// 55086 20886 561// 59004 81810
AAXX 22061 76654 31956 00201 10234 20209 30143 40147 52015 70544 90550333 10289 20218 30/// 55079 20815 58001
AAXX 22061 76658 31958 41402 10208 20186 39635 40134 52012 70540 8000690546 333 10314 20166 30/// 55086 56001 58002 84070 98914
AAXX 22061 76665 32958 01602 10126 20059 38109 40088 52002 90550 33310270 20056 30/// 55082 21162 59007
AAXX 22061 76680 31962 02702 10137 20066 37738 40071 52002 70500 90545333 10236 20089 30/// 55097 21354 59007
AAXX 22061 76683 32962 00000 10088 20053 37817 40144 52007 90540 33310227 20044 30/// 50301 55100 22036 59007
AAXX 22061 76685 32950 00000 10114 20041 37868 40094 52018 90550 33310236 20068 30/// 55104 58000
AAXX 22061 76750 32558 30902 10250 20231 30122 40132 57005 82130 90545333 10324 20209 30/// 55061 56220 59003 82820
AAXX 22061 76762 32902 30000 10174 20152 38750 40106 52005 80001 90546333 10308 2012 30/// 55097 21247 56006 59015 83070
AAXX 22061 76775 32960 02701 10146 20084 38513 40105 52011 90545 33310293 20110 30/// 55082 59004
AAXX 22061 76805 32960 03101 10229 20221 30116 40120 52010 90535 33310311 20220 30/// 55094 21060 59004
AAXX 22061 76311 32920 00000 10090 20074 39886 40165 50015 90552 33310230 20041 30/// 55064 58037
AAXX 22061 76412 32960 02402 10126 20098 30140 40186 52011 90540 33310250 20120 30/// 55050 58028
BBXX 46105 22061 99590 71522 46/// ///// 1//// 90550 22200 11002 70011
BBXX 46070 22061 99551 11753 46/// /0207 11015 21039 40025 52005 90550 22200 00039 10904 20602 3//// 40903 70020 333 91208 555 11072 22075 30508 40109 60549 015068 008072 011070 008072 005069 002057 80108 90509
BBXX 42055 22061 99222 70940 46/// /1309 10250 20217 40110 58009 90550 22200 00252 10802 20502 300// 40801 70010 333 91210 555 11091 22096 30532 41310 60549 129084 130083 128077 125078 126078 127076 81309 90549
BBXX 42003 22061 99260 70856 46/// /1408 1//// 90550 22200 10803 20602 314// 40801 70014 333 91209 555 11083 22089 30545 41409 60549 140076 140074 138070 137071 141073 144072 81408 90546
BBXX 41047 22061 99275 70715 46/// /1109 10229 40249 58010 90550 22200 00247 11204 20703 305// 41203 70021 333 91210 555 11089 22094 30517 41112 60549 108089 115090 111096 108096 113091 115091 81111 90518
BBXX 41043 22061 99211 70650 46/// /0812 10245 20192 40205 58007 90550 22200 00262 10907 20605 300// 40905 70037 333 91214 555 11125 22132 30451 40915 60549 082116 087116 081116 083118 076101 077115 80813 90452
BBXX 41036 22061 99342 70770 46/// ///// 10202 20176 40185 56014 90550 22200 00186 10703 70016
BBXX 44066 22061 99396 70726 46/// /2413 10148 20138 40098 55000 90550 22200 00131 10807 20807 70033 333 91217 555 11139 22151 30459 42417 60549 243129 240129 240133 239133 237139 235140
BBXX 41049 22061 99275 70630 46/// /1107 10220 20119 40270 56011 90550 22200 00236 11104 20502 300// 41104 70022 333 91209 555 11073 22076 30454 41109 60549 105067 118066 106055 107057 103047 110064 81108 90455
BBXX 41001 22061 99347 70727 46/// ///// 10219 20165 40200 56015 90550 22200 00221 10806 70030
BBXX 41060 22061 99148 70510 46/// ///// 1//// 90550 22200 11407 70036
BBXX 42020 22061 99270 70967 46/// /1608 10237 20209 40094 56009 90550 22200 00234 10603 20603 309// 40801 70015 333 91210 555 11088 22094 30549 41610 60549 163083 161078 158078 161072 158075 155072
BBXX 41044 22061 99217 70587 46/// /0811 10242 20175 90550 555 11118 22126
BBXX 42065 22061 99149 70750 46/// /0811 10269 20225 90550 22200 11007 20705 3//// 41005 70035 333 91214 555 11117 22125 30531 40714 60549 079109 077112 075102 076105 079103 078105 80812 90535
BBXX 41048 22061 99320 70696 46/// /2207 10211 20131 40260 58014 90550 22200 00226 11302 20501 3//// 41302 70012 333 91209 555 11074 22078 30532 42010 60549 219075 213082 207073 206074 201077 208078 82009 90532
BBXX 42012 22061 99301 70876 46/// /1705 10212 20212 40157 50000 90550 22200 00207 10803 20401 315// 40803 70014 333 91206 555 11053 22059 30523 41706 60549 169049 169048 174053 167047 166044 160049
BBXX 42001 22061 99259 70897 46/// /1507 10246 20225 40164 50000 90550 22200 00251 10902 20501 3//// 40901 70010 333 91208 555 11075 22080 30524 41409 60549 146072 143074 145075 147074 148071 151066
BBXX 42035 22061 99292 70944 46/// /0606 10157 20133 40118 58020 90550 22200 00160 10801 20301 315// 40801 70007 333 91207 555 11067 22071 30542 40507 60549 057063 052058 049058 051058 050053 055048
BBXX 42058 22061 99149 70749 46/// /0813 10272 20218 40108 58012 90550 22200 00277 10907 20506 309// 40904 70034 333 91216 555 11144 22153 30533 40817 60549 079131 081134 079132 079132 078131 080128 80814 90532
BBXX 42060 22061 99163 70635 46/// /0713 10245 20213 40156 58009 90550 22200 00276 10805 20805 300// 41302 70027 333 91217 555 11142 22150 30540 40617 60549 070133 061119 064119 059117 056106 051107 80715 90542
BBXX 42036 22061 99285 70845 46/// /1607 10222 20209 40172 58007 90550 22200 00218 10703 20602 317// 40702 70014 333 91209 555 11077 22084 30533 41709 60549 163071 164072 163071 161071 162073 161072
BBXX 42056 22061 99198 70849 46/// /1009 10268 20236 40143 58010 90550 22200 00272 10904 20604 310// 40903 70022 333 91210 555 11093 22098 30525 41011 60549 103088 102088 101094 099089 097086 100088 81010 90524
BBXX 42059 22061 99151 70675 46/// /0811 10273 20223 40135 58009 90550 22200 00278 10806 20806 3//// 41203 70032 333 91213 555 11114 22122 30515 40814 60549 080106 079107 072113 072114 071111 072104 80813 90526
BBXX 42019 22061 99279 70954 46/// /1410 10228 20211 40090 58024 90550 22200 10903 20402 310// 40902 70014 333 91212 555 11105 22112 30507 42813 60549 146098 281091 282098 283106 282108 281109
BBXX 44005 22061 99432 70691 46/// /2209 10104 20104 40015 58020 90550 22200 00086 10704 20704 3//// 41101 70022 333 91211 555 11097 22107 30517 42111 60549 214089 209095 207092 211092 214091 214094
BBXX 42040 22061 99292 70882 46/// /1506 10219 40154 58003 90550 22200 00229 10803 20601 314// 40803 70016 333 91207 555 11063 22066 30548 41507 60549 153062 149052 151060 157054 161055 161056
BBXX 42002 22061 99258 70937 46/// /1508 10243 20238 40120 58007 90550 22200 00238 10903 20602 311// 40902 70014 333 91209 555 11078 22083 30536 41410 60549 150078 147083 146081 145078 145080 146084
BBXX 32012 22061 99197 50856 46/// ///// 1//// 90550 22200 11605 70026
BBXX 46002 22061 99426 71305 46/// ///// 10093 40291 58011 90550 22200 00117 11305 70025
BBXX 46006 22061 99408 71375 46/// /1610 10124 40261 50000 90550 22200 00124 11204 20503 3//// 41203 70020 333 91212 555 11108 22115 30518 41612 60549 159100 156101 158098 161097 160094 157091
BBXX 46084 22061 99566 71361 46/// /1413 10074 20069 40030 56035 90550 22200 00072 11012 20405 300// 41011 70060 333 91216 555 11144 22154 30459 41418 60549 143134 144132 145135 143134 141138 141140
BBXX 46075 22061 99539 71608 46/// /3307 10027 21017 40045 52003 90550 22200 00049 11105 20602 300// 41105 70027 333 91209 555 11072 22075 30500 43210 60549 325069 326069 327069 332070 331075 331075 83308 90500
BBXX 46005 22061 99461 71310 46/// ///09 10091 40273 56015 90550 22200 00099 11204 20402 3//// 41203 70021 333 91212 555 11097 22103
BBXX 46059 22061 99380 71300 46/// /0208 10117 40273 53004 90550 22200 00145 11207 20503 3//// 41206 70033 333 91210 555 11084 22088 30451 40311 60549 023078 025075 027081 029078 030082 029086
BBXX 46080 22061 99580 71500 46/// /0507 10037 21008 40001 58028 90550 22200 00051 11105 20602 3//// 41104 70024 333 91209 555 11078 22082 30518 40609 60549 048073 051072 052070 054069 051069 053066 80508 90546
BBXX 41004 22061 99325 70791 46/// /2107 10224 20177 40191 58006 90550 22200 00209 10704 20703 3//// 41102 70018 333 91209 555 11079 22088 30545 42109 60549 210072 208072 208070 207066 209064 210061
BBXX 44060 22061 99413 70721 46/// ///10 10112 40062 90545 22200 00104 333 91212 555 11113 22124
BBXX 44009 22061 99385 70747 46/// /2109 10129 40140 53015 90550 22200 00110 10704 20704 70020 333 91210 555 11097 22107 30512 42111 60549 213089 212086 213090 212093 211093 210091
BBXX 44014 22061 99366 70748 46/// /2107 1//// 40162 50004 90550 22200 00144 10704 20603 317// 40703 70018 333 91208 555 11073 22073 30456 42010 60549 210073 208074 206077 207080 207082 209084
BBXX 44022 22061 99409 70737 46/// ///10 10130 20080 40088 90545 22200 00083 333 91213 555 11113 22124
BBXX 44027 22061 99443 70673 46/// /2308 10096 20090 40011 58015 90550 22200 00082 10805 20704 3//// 40803 70024 333 91210 555 11086 22095 30451 42311 60549 227080 229085 230088 229087 230091 229094
BBXX 44065 22061 99404 70737 46/// /2610 10134 20094 40096 53031 90550 22200 00103 10704 20603 317// 40702 70020 333 91212 555 11110 22121 30530 42614 60549 263099 261106 253101 250101 249094 249083 82612 90535
BBXX 41013 22061 99334 70777 46/// /2207 10218 20200 40186 58011 90550 22200 00215 10704 20603 319// 40703 70018 333 91208 555 11070 22075 30529 42108 60549 221065 217068 218067 216063 225060 231063
BBXX 44020 22061 99414 70702 46/// /2211 10118 20118 40040 58022 90550 22200 00075 10401 20401 70007 333 91214 555 11122 22130 30525 42717 60549 229115 256119 256118 255089 255074 254072
BBXX 46014 22061 99394 71240 46/// /3504 10107 40212 53008 90550 22200 00106 11406 20401 3//// 41406 70030 333 91205 555 11039 22041 30512 43505 60549 352037 350038 352038 350038 343040 342039
BBXX 46011 22061 99350 71210 46/// /3402 10134 40185 53017 90550 22200 00138 11406 20301 330// 41406 70029 333 91203 555 11018 22018 30507 43606 60549 331017 345025 358033 008040 359044 343039
BBXX 46047 22061 99324 71195 46/// /2807 10135 40188 51010 90550 22200 00137 11505 20602 329// 41504 70023 333 91208 555 11069 22073 30534 42808 60549 277064 285066 284057 283059 291054 289052
BBXX 46027 22061 99419 71244 46/// /0304 10092 40237 53004 90550 22200 00089 11405 20401 328// 41405 70026 333 91204 555 11039 22043 30529 40205 60549 028037 031039 026037 030036 035035 024031
BBXX 46086 22061 99325 71180 46/// /2803 10136 40187 51016 90550 22200 00150 11403 20301 330// 41403 70014 333 91205 555 11032 22033 30512 43008 60549 275035 276046 282037 290051 285041 278050
BBXX 46088 22061 99483 71232 46/// /0701 10055 40337 90550 22200 00078 11101 322// 41101 70004 333 91203 555 11013 22014 30535 40703 60549 066013 047017 033014 030012 038002 091010
BBXX 46050 22061 99442 71246 46/// /0606 10064 40296 54000 90550 22200 00096 11206 20401 329// 41205 70028 333 91207 555 11060 22062 30549 40707 60549 062056 061052 063051 063049 062048 064051
BBXX 46069 22061 99337 71202 46/// /3108 10123 40179 51010 90550 22200 00140 11405 20502 331// 41405 70024 333 91210 555 11079 22083 30538 43210 60549 308075 313076 306071 306073 312064 306060
BBXX 46013 22061 99382 71233 46/// /2601 10106 40204 52010 90550 22200 00109 11406 20401 3//// 41406 70029 333 91202 555 11006 22006 30450 41003 60549 252005 263003 271003 237005 154009 096018
BBXX 46012 22061 99374 71229 46/// /3304 10111 40202 52009 90550 22200 00122 11406 20401 331// 41406 70028 333 91205 555 11039 22040 30454 43205 60549 334037 331032 334034 340035 336037 336038
BBXX 46087 22061 99485 71247 46/// /0704 10054 20031 40333 54000 90550 22200 00076 11205 20401 327// 41205 70024 333 91206 555 11046 22047 30450 40807 60549 065043 067043 076047 077050 067040 075050
BBXX 46029 22061 99461 71245 46/// /0707 10061 20037 40313 54000 90550 22200 00085 11204 20602 328// 41204 70022 333 91209 555 11077 22081 30507 40811 60549 070073 065069 067082 069080 070080 068081
BBXX 46054 22061 99342 71204 46/// /3405 10127 40178 53017 90550 22200 00137 11404 20501 300// 41404 70022 333 91207 555 11055 22057 30506 43408 60549 340052 321060 325061 331058 329062 326065
BBXX 46028 22061 99357 71219 46/// /3404 10127 40181 51012 90550 22200 00127 11406 20401 331// 41406 70028 333 91205 555 11040 22043 30517 43107 60549 343038 330040 325046 317049 303048 292048
BBXX 46025 22061 99337 71191 46/// /0301 10138 20106 40175 53015 90550 22200 00151 11402 20401 326// 41402 70011 333 91203 555 11012 22013 30504 40303 60549 031012 027009 029011 034017 019019 013016
BBXX BAREU08 22064 99537 10062 46/// ///// 40154 57007 22224
BBXX BAREU54 22064 99135 70775 46/// ///// 40083 57007 22213
BBXX BAREU11 22064 99341 70499 46/// ///// 40277 52002 22214
BBXX BAREU60 22064 99436 10135 46/// ///// 40194 52030 22252
BBXX BAREU04 22064 99466 70523 46/// ///// 40214 57004 22253
BBXX BAREU00 22064 99503 10000 46/// ///// 40255 57010 22223
AAXX 22064 61902 11475 81210 10228 20200 40136 69974 70382 888// 333 20213 58004 82712 83818 88628
AAXX 22064 48001 32960 01301 10150 20092 40152 333 59016
AAXX 22064 48004 32563 10401 10191 20139 81100 333 56900
AAXX 22064 48008 32958 00000 10230 20143 40144 333 59007
AAXX 22064 48010 32960 01801 10210 20160 40150 70244 333 59014
AAXX 22064 48018 32960 00901 10245 20150 40149 333 59012
AAXX 22064 48019 32960 00402 10228 20124 40152 333 59007
AAXX 22064 48020 32460 22701 10220 20136 82800 333 56900
AAXX 22064 48025 31358 23201 10230 20181 40155 70144 82800 333 56800 59009
AAXX 22064 48035 31558 12701 10209 20143 40129 70500 81500 333 56900 58010
AAXX 22064 48037 32562 20401 10250 20150 40142 81102 333 56606 59010
AAXX 22064 48042 32958 02701 10262 20160 40143 333 59002
AAXX 22064 48045 32560 52301 10177 20129 85800 333 56100
AAXX 22064 48048 32962 00000 10205 20167 40151 333 59005
AAXX 22064 48053 32956 03605 10260 20138 40145 333 59002
AAXX 22064 48057 32957 02201 10227 20097 333
AAXX 22064 48060 31940 00000 10185 20159 40139 70142 333 59020
AAXX 22064 48062 32558 13202 10250 20170 40134 81030 333 56090 59010
AAXX 22064 48071 /2960 03204 10258 20215 40145 333 58000
AAXX 22064 48077 32960 00401 10290 20159 40147 333 59001
AAXX 22064 48078 32958 13604 10276 20154 40131 80001 333 56009 59000
AAXX 22064 48080 32961 03201 10315 20189 40120 333 59006
AAXX 22064 48094 32962 20402 10290 20210 40126 80006 333 56009 58000
AAXX 22064 48097 32957 01301 10310 20164 40122 333 59009
AAXX 22064 48108 31596 63201 10320 20200 40114 70511 82255 333 56789 59008
AAXX 22064 48109 32997 00401 10310 20237 40123 333 59000
AAXX 22064 48110 31396 70405 10310 20196 40101 70522 81246 333 56999 59005
AAXX 22064 48112 NIL
BBXX 46002 22061 99426 71305 46/// ///// 10093 40291 58011 90550 22200 00117 11305 70025
BBXX 46005 22061 99461 71310 46/// ///09 10091 40273 56015 90550 22200 00099 11204 20402 3//// 41203 70021 333 91212 555 11097 22103
BBXX 46006 22061 99408 71375 46/// /1610 10124 40261 50000 90550 22200 00124 11204 20503 3//// 41203 70020 333 91212 555 11108 22115 30518 41612 60549 159100 156101 158098 161097 160094 157091
BBXX 46012 22061 99374 71229 46/// /3304 10111 40202 52009 90550 22200 00122 11406 20401 331// 41406 70028 333 91205 555 11039 22040 30454 43205 60549 334037 331032 334034 340035 336037 336038
BBXX 46013 22061 99382 71233 46/// /2601 10106 40204 52010 90550 22200 00109 11406 20401 3//// 41406 70029 333 91202 555 11006 22006 30450 41003 60549 252005 263003 271003 237005 154009 096018
BBXX 46028 22061 99357 71219 46/// /3404 10127 40181 51012 90550 22200 00127 11406 20401 331// 41406 70028 333 91205 555 11040 22043 30517 43107 60549 343038 330040 325046 317049 303048 292048
BBXX 46029 22061 99461 71245 46/// /0707 10061 20037 40313 54000 90550 22200 00085 11204 20602 328// 41204 70022 333 91209 555 11077 22081 30507 40811 60549 070073 065069 067082 069080 070080 068081
BBXX 46050 22061 99442 71246 46/// /0606 10064 40296 54000 90550 22200 00096 11206 20401 329// 41205 70028 333 91207 555 11060 22062 30549 40707 60549 062056 061052 063051 063049 062048 064051
BBXX 46054 22061 99342 71204 46/// /3405 10127 40178 53017 90550 22200 00137 11404 20501 300// 41404 70022 333 91207 555 11055 22057 30506 43408 60549 340052 321060 325061 331058 329062 326065
BBXX LAOX5 22061 99443 71366 41/97 81921 00/// 10110 20090 40230 54000 70320 88/// 22213 00120 20403 321// 40503 5//// 6//// 80100
BBXX WSLH 22064 99399 71379 41498 41623 10135 20100 40265 51010 70211 844// 22215 00128 2//// 3//// 4//// 5//// 6//// 80115 ICE /////
AAXX 22064 85874 32984 /3115 10024 21009 39481 40117 57001
AAXX 22064 85934 12480 32407 10044 20014 40024 52010 60001 83100 333 56500 83816
AAXX 22064 89056 11250 82507 10001 21003 49890 52011 69901 71044 886// 333 56699 88705
AAXX 22064 89057 11340 80000 10010 20006 49891 57010 60001 71022 885// 333 56799 88608
AAXX 22064 89058 32560 82505 10008 21001 39872 49893 57011 885//
AAXX 22064 89059 11408 80000 11014 21030 49875 57016 60001 71642 886// 333 70099 88710
AAXX 22064 89251 31258 82004 10008 20001 49886 57011 71022 8652/
AAXX 22064 78583 32470 11104 10250 20228 40129 60001 81100 333 00300 59001 81817
AAXX 22064 67665 32980 33302 10237 20185 48521 83030 333 10300 20172 59011 83360
AAXX 22064 68352 36/// /2634 10275 20060 39054 48516 52002 333 20187 91134 555 10351 91015
AAXX 22064 78583 32470 11104 10250 20228 40129 60001 81100 333 00300 59001 81817
AAXX 22064 81405 04482 60000 10241 20239 30081 40090 60041 700// 333 3/023 55011 60017 59012 70118 555 60015
AAXX 22064 78925 14584 70715 10264 20218 40138 58015 69901 700// 333 10298 20249 55089 22017 59004 79999
AAXX 22061 13579 11560 83407 11023 21046 39259 40118 51003 69982 77177 8672/ 333 21023 46001 83720 86635 88457
AAXX 22064 85874 32984 /3115 10024 21009 39481 40117 57001
AAXX 22064 85934 12480 32407 10044 20014 40024 52010 60001 83100 333 56500 83816
AAXX 22064 89056 11250 82507 10001 21003 49890 52011 69901 71044 886// 333 56699 88705
AAXX 22064 89057 11340 80000 10010 20006 49891 57010 60001 71022 885// 333 56799 88608
AAXX 22064 89058 32560 82505 10008 21001 39872 49893 57011 885//
AAXX 22064 89059 11408 80000 11014 21030 49875 57016 60001 71642 886// 333 70099 88710
AAXX 22064 89251 31258 82004 10008 20001 49886 57011 71022 8652/
AAXX 22064 41170 42964 03308 10209 20140 30228 40241 333 20174 58005 555 00140
AAXX 22064 85574 12960 01704 10155 20054 40140 58013 60001
AAXX 22064 85585 339// 91918 10164 20089 30179 40215 58008
AAXX 22064 85682 12965 02005 10105 20084 40194 58006 60001.........
AAXX 22064 85799 11560 80000 10064 20063 40193 58006 69941 72582 882// 333 56799 88830
AAXX 22064 85406 12970 53002 10193 20142 40109 58018 60001 85030 333 56000 85365
AAXX 22064 85418 12565 40000 10198 20130 40113 50018 60001 84500 333 56000 84630
AAXX 22064 85442 12470 71905 10188 20159 40110 58013 60001 87500 333 56400 86610 87625
AAXX 22064 85469 42565 40000 10170 20131 40195 52013 81102 333 56000 81820 83076
AAXX 22064 85488 12965 09903 10139 20118 40095 56010 60001
AAXX 22064 78925 14584 70715 10264 20218 40138 58015 69901 700// 333 10298 20249 55089 22017 59004 79999
AAXX 22064 78862 11478 60614 10237 20211 30139 40162 69991 72582 85802 333 10270 20218 58001 70011 85815
AAXX 22064 16G26KT SHRA BKN015
AAXX 22064 TAF TUPJ 212200Z 2200/2224 06016KT 9999 SCT022 BKN270 PROB40 TEMPO 2200/2218 06016G26KT SHRA BKN015
AAXX 22064 TAF TQPF 212200Z 2200/2224 06016KT 9999 SCT022 BKN270 PROB40 TEMPO 2200/2218 06016G26KT SHRA BKN015
AAXX 22064 TAF TKPN 212200Z 2200/2224 06016KT 9999 SCT022 BKN270 PROB40 TEMPO 2200/2218 06016G26KT SHRA BKN015
AAXX 22064 BKN035
AAXX 22064 EMPO 0600/0624 SHRA BKN015=+TSRA SCT012CB
AAXX 22064 TAF TUPJ 041000Z 04012/0512 07008KT 9999 SCT016 BKN038 SCT270 TEMPO 0412/0512 SHRA BKN015 PROB40 TEMPO 0418/0512 5000 SHRA BKN014 BKN036 PROB30 0420/0512 4000 TSRA FEW012CB
AAXX 22064 918 4000 TSRA FEW012CB
AAXX 22064 N015 BKN036 PROB40 TEMPO 0704/0724 3000 +TSRA SCT011CB BKN012 BECMG 0712/0714 14008KT
AAXX 22064 21/2712 07017G28KT 5000 SHRA BKN015 BKN036 PROB TEMPO 2700/2712 4000 TSRA FEW013CB
AAXX 22064 PROB30 TEMPO 0800/0806 4000 TSRA FEW012CB PROB40 TEMPO 0800/0824 2000 +SHRA/TSRA SCT010CB BKN012 BKN250
AAXX 22064 78862 11478 60614 10237 20211 30139 40162 69991 72582 85802 333 10270 20218 58001 70011 85815
AAXX 22064 16G26KT SHRA BKN015
AAXX 22064 TAF TUPJ 212200Z 2200/2224 06016KT 9999 SCT022 BKN270 PROB40 TEMPO 2200/2218 06016G26KT SHRA BKN015
AAXX 22064 TAF TQPF 212200Z 2200/2224 06016KT 9999 SCT022 BKN270 PROB40 TEMPO 2200/2218 06016G26KT SHRA BKN015
AAXX 22064 TAF TKPN 212200Z 2200/2224 06016KT 9999 SCT022 BKN270 PROB40 TEMPO 2200/2218 06016G26KT SHRA BKN015
AAXX 22064 BKN035
AAXX 22064 EMPO 0600/0624 SHRA BKN015=+TSRA SCT012CB
AAXX 22064 TAF TUPJ 041000Z 04012/0512 07008KT 9999 SCT016 BKN038 SCT270 TEMPO 0412/0512 SHRA BKN015 PROB40 TEMPO 0418/0512 5000 SHRA BKN014 BKN036 PROB30 0420/0512 4000 TSRA FEW012CB
AAXX 22064 918 4000 TSRA FEW012CB
AAXX 22064 N015 BKN036 PROB40 TEMPO 0704/0724 3000 +TSRA SCT011CB BKN012 BECMG 0712/0714 14008KT
AAXX 22064 21/2712 07017G28KT 5000 SHRA BKN015 BKN036 PROB TEMPO 2700/2712 4000 TSRA FEW013CB
AAXX 22064 PROB30 TEMPO 0800/0806 4000 TSRA FEW012CB PROB40 TEMPO 0800/0824 2000 +SHRA/TSRA SCT010CB BKN012 BKN250
AAXX 22064 78862 11478 60614 10237 20211 30139 40162 69991 72582 85802 333 10270 20218 58001 70011 85815
AAXX 22064 16G26KT SHRA BKN015
AAXX 22064 TAF TUPJ 212200Z 2200/2224 06016KT 9999 SCT022 BKN270 PROB40 TEMPO 2200/2218 06016G26KT SHRA BKN015
AAXX 22064 TAF TQPF 212200Z 2200/2224 06016KT 9999 SCT022 BKN270 PROB40 TEMPO 2200/2218 06016G26KT SHRA BKN015
AAXX 22064 TAF TKPN 212200Z 2200/2224 06016KT 9999 SCT022 BKN270 PROB40 TEMPO 2200/2218 06016G26KT SHRA BKN015
AAXX 22064 BKN035
AAXX 22064 EMPO 0600/0624 SHRA BKN015=+TSRA SCT012CB
AAXX 22064 TAF TUPJ 041000Z 04012/0512 07008KT 9999 SCT016 BKN038 SCT270 TEMPO 0412/0512 SHRA BKN015 PROB40 TEMPO 0418/0512 5000 SHRA BKN014 BKN036 PROB30 0420/0512 4000 TSRA FEW012CB
AAXX 22064 918 4000 TSRA FEW012CB
AAXX 22064 N015 BKN036 PROB40 TEMPO 0704/0724 3000 +TSRA SCT011CB BKN012 BECMG 0712/0714 14008KT
AAXX 22064 21/2712 07017G28KT 5000 SHRA BKN015 BKN036 PROB TEMPO 2700/2712 4000 TSRA FEW013CB
AAXX 22064 PROB30 TEMPO 0800/0806 4000 TSRA FEW012CB PROB40 TEMPO 0800/0824 2000 +SHRA/TSRA SCT010CB BKN012 BKN250
AAXX 22064 89009 41661 61103 11205 36875 56008 70177 81032 333 81346 83258
AAXX 22064 78948 12584 30722 10268 20201 30124 40132 60001 70200 81101 333 00205 10295 20245 59006 81826 83080
AAXX 22064 78925 14584 70715 10264 20218 40138 58015 69901 700// 333 10298 20249 55089 22017 59004 79999
AAXX 22064 89009 41661 61103 11205 36875 56008 70177 81032 333 81346 83258
AAXX 22064 78948 12584 30722 10268 20201 30124 40132 60001 70200 81101 333 00205 10295 20245 59006 81826 83080
BBXX 44007 22061 99435 70701 46/// /2201 10053 20053 40018 58022 90550 22200 00075 10603 20401 3//// 40603 70014 333 91202 555 11013 22014 30546 42102 60549 211013 223008 198008 195007 244004 124003
BBXX BATFR04 22064 99584 70062 46/// /2324 10109 20092 40079 58001 22200 00102
BBXX BATFR02 22064 99508 70011 46/// /2615 10094 20074 40273 53007 22283 00104
BBXX BATFR53 22064 99185 51733 44498 60809 10282 20229 40092 52010 72522 84379 22222 00287 201// 30521 403// 505// 60/// ICE 0////
BBXX BATFR56 22064 99177 30608 44597 61124 10235 20219 40146 50001 76022 85428 22213 00274 20604 312// 40604 5////
BBXX BATFR46 22064 99424 10036 46/// /3337 10150 20107 40225 53018 22282 00159
BBXX BATFR27 22064 99452 70041 46/// /3412 10142 20075 40334 53008 22245 00142
BBXX BATFR20 22064 99414 10094 46/// ///// 10122 20054 40169 53018 22284
BBXX BATFR45 22064 99146 10604 46/// ///// 10247 20169 40169 51021 22283 00280
BBXX BATFR11 22064 99428 10066 46/// ///// 10125 20059 40180 53018 22264 00159
BBXX BATFR55 22064 99073 30404 44598 60117 10289 20255 40125 70222 84122 22262 00290 207// 32121 411// 511//
BBXX BATEU07 22064 99205 31097 46/// /1719 10284 40085 56019 22284
BBXX BATFR01 22064 99354 10229 46/// /2327 10129 20090 40031 56028 22261 00184
BBXX BATFR54 22064 99517 70059 46/// /2321 10119 20089 40264 53015 22243 00115
BBXX BATEU04 22064 99610 70015 46/// /2823 10097 20045 4//// 22262
BBXX BATFR19 22064 99066 30057 46/// /1813 10235 20189 40143 52018 22200 00252
AAXX 22063 78970 11465 70909 10255 20234 30080 40105 6///1 71582 868/2 333 02299 10317 20243 59008 82815 86636 90930
AAXX 22061 12772 31540 80000 11018 21026 39913 40209 52015 71022 875// 333 21019 43997 55027 87623
AAXX 22061 12822 36/// /3102 10002 21008 30065 40213 53017 333 21007 70008
AAXX 22061 12843 11430 80501 11005 21011 30027 40204 53017 69952 71072 886// 333 21023 43997 55000 70008 88710
AAXX 22061 12882 31440 80000 11004 21012 30064 40201 53012 77722 886// 333 21010 41998 55051 88713
AAXX 22061 12925 36/// /0000 11029 21034 30041 40221 52015 333 21047
AAXX 22061 12942 31958 13303 11028 21036 39954 40210 53010 70300 81040 333 21052 43007 55000
AAXX 22061 12982 11445 83502 10000 21011 30089 40194 53012 69922 71022 886// 333 21015 43997 55042 70003 88710
AAXX 22061 10004 NIL
AAXX 22061 10015 01250 82010 10062 20054 30137 40147 56020 60042 76362 887// 222// 02063 333 10065 20053 32001 55021 55300 20000 30000 60047 70054 87705 96210 96459
AAXX 22061 10020 07007 81709 10043 20043 30102 40135 58021 60032 76165 333 10049 20035 3/102 55048 55300 20000 30000 60037 70039 88/00
AAXX 22061 10035 01120 81803 10020 20017 30103 40163 58010 60012 76362 875// 333 10021 21001 32103 55044 55300 20000 30000 41158 60017 70014 83703 87646
AAXX 22061 10055 12870 81803 10024 20015 30163 40174 58005 60002 8557/ 333 10039 20018 31001 55044 55300 20000 30000 70000 85657 87361
AAXX 22061 10147 01130 81602 10026 20025 30163 40182 58003 69952 76362 887// 333 10027 21018 32104 55020 55300 20000 30000 41173 69957 70015 82702 88703 96010
AAXX 22061 10162 11/08 92103 10000 20000 30104 40190 51004 60002 74344 333 10020 21009 31101 55019 55300 20000 30000 70000
AAXX 22061 10184 11458 82002 10009 20003 30180 40188 51006 69912 70362 8465/ 333 10021 20009 3/101 42001 55002 55300 20000 30000 70014 84710 88361
AAXX 22061 10200 01150 82105 10058 20058 30160 40158 56019 60032 75965 8572/ 333 10058 20040 32002 55017 55300 20000 30000 60037 70032 85703 88520 96010
AAXX 22061 10224 01125 81603 10047 20045 30172 40178 58004 60022 75964 876// 333 10047 20006 32101 55009 55300 20000 30000 60027 70031 87703
AAXX 22061 10270 NIL
AAXX 22061 10338 01440 81703 10043 20039 30118 40192 57004 60022 76362 8552/ 333 10044 20023 31101 55002 55300 20000 30000 60027 70019 85612 88525
AAXX 22061 10361 11524 81901 10025 20019 30101 40208 53005 60002 71022 8252/ 333 10035 20006 31102 55004 55300 20000 30000 70015 82626 88460
AAXX 22061 10393 11240 82803 10010 20010 30074 40205 51012 69922 71064 876// 333 10021 20009 31102 55000 55300 20000 30000 70009 87705
AAXX 22061 10400 01134 81605 10057 20057 30151 40201 57005 69962 75852 886// 333 10057 20032 32001 55000 55300 20000 30000 69967 70011 82702 86704 88706 96259 96453
AAXX 22061 10438 07213 81602 10026 20026 39928 40215 56003 69942 76265 333 10031 20021 3/001 55000 55300 69947 70009 87/04 87/09 88/41
AAXX 22061 10469 11556 72303 10024 20017 30044 40213 53002 69942 71022 875// 333 10031 20018 31001 55000 55300 70031 87626
AAXX 22061 10488 11257 82603 10019 20013 39928 40217 53010 60022 71062 878// 333 10023 20013 32000 55001 55300 20000 30000 41104 70034 84806 87622
AAXX 22061 10506 01259 82203 10030 20025 39627 40221 55001 60012 70252 886// 333 10030 20015 31001 55000 55300 20000 30000 69987 70012 88704
AAXX 22061 10548 11225 81602 10009 20006 39673 40230 53003 69902 71022 886// 333 10017 20008 31000 41998 55000 55300 20000 30000 70002 88704
AAXX 22061 10637 01140 82204 10031 20025 30086 40227 58003 69912 76162 877// 333 10036 20030 31002 55000 55300 69917 70001 87702 96010
AAXX 22061 10685 11250 82303 10002 21001 39531 40224 53005 69932 71075 885// 333 10003 21002 3/101 43008 55000 55300 20000 30000 70006 84704 86626
AAXX 22061 10738 01460 81501 10020 20010 39762 40245 50000 69912 72372 875// 333 10022 20013 3/000 42002 55000 55300 69907 70002 84718 87628 96268 96468
AAXX 22061 10763 01256 82002 10023 20015 39845 40238 51006 69922 71065 886// 333 10023 20017 31001 55000 55300 20000 30000 69907 70004 88705
AAXX 22061 10788 17459 82402 10012 20006 39798 40243 52013 69902 70065 333 10017 20011 3/100 55000 55300 20000 30000 70006 88/16
AAXX 22061 10852 01150 82403 10012 20012 39665 40251 53010 69992 71075 885// 333 10014 20004 31000 41998 55000 55300 20000 30000 69907 70025 85703 88615
AAXX 22061 10946 17480 82102 10012 20004 39402 40255 53012 60012 70075 333 10014 21001 3/000 4/015 55000 55300 20000 30000 70033 85/11 88/24
AAXX 22064 40340 32960 33606 10140 20105 40181 52010 80001 333 20126 30011 83070
AAXX 22064 48698 01464 80204 10265 20250 30069 40087 60011 72186 85878 333 69907 81612 84815 85468
AAXX 22064 48698 01464 80204 10265 20250 30069 40087 60011 72186 85878 333 69907 81612 84815 85468
AAXX 22061 01003 NIL
AAXX 22061 01007 11682 31110 11034 21079 30024 40034 56026 60002 70200 83500 333 21098 47006 70000 91113
AAXX 22061 01028 11580 7//// 11011 21019 39988 40008 56015 69902 70374 82506 333 21032 79999
AAXX 22061 01047 31588 80000 11084 21096 39690 40069 54001 70222 885// 333 21103 47030 70004
AAXX 22061 01049 16/// /1603 11040 21075 30054 40057 57004 60002 333 21055 70002 91107
AAXX 22061 01078 41375 61805 11037 21064 30040 40053 57004 70222 85200 333 21037 91107
AAXX 22061 01102 46/// /1514 10020 21033 30007 40026 58022 333 20013 91117
AAXX 22061 01160 41780 71608 10035 21013 30017 40034 58012 70282 87800 333 20018 91116
AAXX 22061 01218 NIL
AAXX 22061 01238 41425 82903 11069 21079 38912 40050 56008 77173 887// 333 21126 44014 91116
AAXX 22061 01241 11686 81409 10016 21055 30008 40019 56015 60002 71422 87577 333 21002 79999 91113
AAXX 22061 01281 NIL
AAXX 22061 01338 16/// /0604 11014 21019 30023 40091 55003 60062 333 21019 70065 91111
AAXX 22061 01359 11258 80501 11079 21094 39163 40109 56011 60012 77077 8362/ 333 21102 48042 70014 91105
AAXX 22061 01397 16/// /0000 11138 21148 39670 40136 58017 60002 333 21205 70000 91102
AAXX 22061 01400 NIL
AAXX 22061 01427 11440 81107 10036 20027 30075 40092 56014 60052 76162 8662/ 333 21009 70046 91110
AAXX 22061 01447 NIL
AAXX 22061 01448 46/// /1907 10047 20038 30104 40114 55010 333 21025 91110
AAXX 22061 01001 11560 80709 11001 21033 39852 49864 58032 69912 70282 885// 333 21030 44999 70002 91112
AAXX 22061 01008 11586 61207 11024 21073 30007 40041 58017 60002 70321 8157/ 333 21106 70000 91111
AAXX 22061 01010 11588 21904 10001 21018 30017 40033 57006 69932 70100 81530 333 21001 70003 91109
AAXX 22061 01026 11385 52105 11004 21017 39902 40045 54001 69902 70172 82270 333 21006 43020 79999 91109
AAXX 22061 01055 46/// /1503 10004 21029 30022 40040 57004 333 21007 91107
AAXX 22061 01062 11350 50607 11016 21020 30050 40063 57011 69902 71022 85800 333 21028 79999 91111
AAXX 22061 01098 NIL
AAXX 22061 01115 16/// /1611 10027 21018 30005 40026 57018 6//// 333 20008 91115
AAXX 22061 01152 11684 31006 10004 21037 30028 40044 58010 60002 70211 81870 333 20000 70018 91109
AAXX 22061 01205 46/// /2010 10083 20054 39961 40006 53012 333 20011 91119
AAXX 22061 01212 NIL
AAXX 22061 01271 17/84 70803 11006 21059 30019 40040 56019 60002 700// 333 21074 42005 70000 91108
AAXX 22061 01288 11570 82801 11142 21158 39311 40104 56019 60002 70222 885// 333 21232 47016 70000 91102
AAXX 22061 01300 NIL
AAXX 22061 01317 11456 81608 10042 20024 30051 40066 53009 60022 75565 8757/ 333 21010 42998 70018 91116
AAXX 22061 01367 NIL
AAXX 22061 01384 11456 81601 11084 21094 39871 40126 56013 60002 77174 886// 333 21096 91101
AAXX 22061 01403 11560 81710 10060 20051 30008 40076 53010 60132 76366 887// 333 20016 70129 91123
AAXX 22061 01415 NIL
AAXX 22061 01482 46/// /1906 10009 21020 30121 40129 56012 333 21020 91108
AAXX 22061 01492 11X02 90601 11051 21062 30006 40129 55010 69962 77172 333 21070 47001 70006 91102
AAXX 22064 97180 01456 73009 10293 20257 30029 40047 56023 60101 76166 85272 333 56000 60097 85819 84360
AAXX 22064 85406 12970 53002 10193 20142 40109 58018 60001 85030 333 56000 85365
AAXX 22064 85418 12565 40000 10198 20130 40113 50018 60001 84500 333 56000 84630
AAXX 22064 85442 12470 71905 10188 20159 40110 58013 60001 87500 333 56400 86610 87625
AAXX 22064 85469 42565 40000 10170 20131 40195 52013 81102 333 56000 81820 83076
AAXX 22064 85488 12965 09903 10139 20118 40095 56010 60001
AAXX 22064 85574 12960 01704 10155 20054 40140 58013 60001
AAXX 22064 85585 339// 91918 10164 20089 30179 40215 58008
AAXX 22064 85682 12965 02005 10105 20084 40194 58006 60001.........
AAXX 22064 85799 11560 80000 10064 20063 40193 58006 69941 72582 882// 333 56799 88830
AAXX 22061 78221 NIL
AAXX 22061 78224 31958 00703 10198 20180 30104 40179 56009 70544
AAXX 22061 78229 32/58 91001 10194 20169 30126 40201 52010
AAXX 22061 78239 31559 20905 10238 20199 30181 40184 57010 70500 82200 333 82820
AAXX 22061 78244 NIL
AAXX 22061 78243 42659 61004 10211 20200 30062 40185 57009 86028 333 86435
AAXX 22061 78255 42559 10904 10207 20192 30037 40186 57010 81200 333 81820
AAXX 22061 78264 31/59 03402 10209 20177 30096 40170 57010 70500
AAXX 22061 78265 41060 00602 10208 20191 30073 40173 57010 70000
AAXX 22061 78256 NIL
AAXX 22061 78259 NIL
AAXX 22061 78268 NIL
AAXX 22063 78970 11465 70909 10255 20234 30080 40105 6///1 71582 868/2 333 02299 10317 20243 59008 82815 86636 90930
AAXX 22064 78897 11575 40709 10247 20212 40155 58018 60011 70286 84800 333 022// 10294 20198 59002 70014 82820 83656
AAXX 22064 78897 11575 40709 10247 20212 40155 58018 60011 70286 84800 333 022// 10294 20198 59002 70014 82820 83656
AAXX 22061 78221 NIL
AAXX 22061 78224 31958 00703 10198 20180 30104 40179 56009 70544
AAXX 22061 78229 32/58 91001 10194 20169 30126 40201 52010
AAXX 22061 78239 31559 20905 10238 20199 30181 40184 57010 70500 82200 333 82820
AAXX 22061 78244 NIL
AAXX 22061 78243 42659 61004 10211 20200 30062 40185 57009 86028 333 86435
AAXX 22061 78255 42559 10904 10207 20192 30037 40186 57010 81200 333 81820
AAXX 22061 78264 31/59 03402 10209 20177 30096 40170 57010 70500
AAXX 22061 78265 41060 00602 10208 20191 30073 40173 57010 70000
AAXX 22061 78256 NIL
AAXX 22061 78259 NIL
AAXX 22061 78268 NIL
AAXX 22061 01037 16/// /1302 11033 21073 30049 40055 52001 69952 333 21050 70007 91107
AAXX 22061 01046 11989 21902 11034 21074 30042 40050 57002 60002 70200 80001 333 21041 44002 70000 91110
AAXX 22061 01058 16/// /1503 11091 21103 39591 40073 57001 60002 333 21162 4/017 70005 91104
AAXX 22061 01065 11689 80000 11083 21091 39912 40079 57002 69992 70222 885// 333 21139 70017 91100
AAXX 22061 01092 46/// /2111 11035 21069 333 21041 91115
AAXX 22061 01107 16/// /1710 10033 2//// 30018 40023 58011 60002 333 20019 70077 91114
AAXX 22061 01114 16/// /0402 11030 21061 30027 40038 58014 60002 333 21030 70006 91107
AAXX 22061 01144 41989 01407 10029 21030 70100 333 20022 91112
AAXX 22061 01199 NIL
AAXX 22061 01245 11350 83003 11019 21040 39334 40047 55008 60002 77171 8802/ 333 21059 48033 70000 91109
AAXX 22061 01259 16/// /1008 10012 21061 39994 40017 56026 60032 333 20008 70090 91114
AAXX 22061 01262 NIL
AAXX 22061 01278 31885 81405 11032 21054 39942 40046 57021 70311 8802/ 333 21063 43004 70000
AAXX 22061 01293 16/// /2001 11038 21052 39840 40053 57024 60002 333 21107 70000 91104
AAXX 22061 01329 11130 80000 10004 21007 30026 40089 53003 60062 75882 888// 333 21004 43006 70058 91107
AAXX 22061 01337 16/// /1001 11011 21026 30021 40088 53003 60032 333 21058 70030 91107
AAXX 22061 01344 16/// ///// 11018 21025 60022 333 21092 4/079 70021
AAXX 22061 01364 16/// /0000 11087 21097 38952 40109 50004 60022 333 21180 4/042 70022 91105
AAXX 22061 01373 11585 80000 11093 21105 39910 40119 56012 69962 72682 8372/ 333 21151 47017 70006 91100
AAXX 22061 01374 11570 80000 11084 21087 60012 77881 887// 333 21140 43036 70011
AAXX 22061 01380 16/// /1302 11088 21100 6//// 333 21156 4/023 91105
AAXX 22061 01389 11775 81702 11112 21125 39808 40137 56013 60002 70222 8172/ 333 21218 43020 70000 91103
AAXX 22061 01393 NIL
AAXX 22061 01424 11560 8//// 11010 21017 30101 40104 55002 60092 75675 887// 333 21050 47009 70090
AAXX 22061 01431 16/// /0301 11034 21040 39441 40123 56001 60042 333 21129 70038 91102
AAXX 22061 01436 11230 80906 10060 20053 60042 76162 8672/ 333 20005 70037 91110
AAXX 22061 01465 11356 81809 10035 20025 30105 40124 55013 60022 75652 886// 333 21026 70021 91110
AAXX 22061 01471 11483 81101 11071 21083 60012 77772 8772/ 333 21081 70010 91102
AAXX 22061 01483 NIL
AAXX 22061 01025 17/84 51907 10001 21020 30035 40046 54000 69902 700// 333 20000 43025 79999 91110
AAXX 22061 01052 16/// /2002 11013 21044 39939 40038 58002 60002 333 21053 70000 91107
AAXX 22061 01122 16/// /1901 11047 21054 39966 40058 57012 60002 333 21047 70008 91104
AAXX 22061 01132 16/// /1303 11036 21066 39671 40067 58012 60002 333 21040 4/042 70010 91107
AAXX 22061 01156 16/// /2109 10020 20004 30019 40029 55007 60012 333 20020 70017 91112
AAXX 22061 01203 46/// /1818 10072 20035 39962 40011 53024 333 20007 91133
AAXX 22061 01233 16/// /1603 11089 21096 60012 333 21136 70012 91105
AAXX 22061 01265 16/// /3401 11149 21167 39493 40112 56017 60002 333 21246 70000 91102
AAXX 22061 01273 16/// /0000 11037 21057 39846 40047 56020 69952 333 21095 70005 91104
AAXX 22061 01307 46/// /1713 10055 20042 30021 40049 53013 333 20016 91123
AAXX 22061 01321 16/// /1202 10002 20000 39794 40050 53002 60032 333 21033 70037 91104
AAXX 22061 01327 11465 81403 11013 21020 60002 70282 888// 333 21053 44072 70000 91108
AAXX 22061 01350 16/// /1003 11067 21071 38666 40061 56004 60012 333 21160 70013 91108
AAXX 22061 01361 16/// /1602 11088 21100 39032 40093 53004 60012 333 21140 70015 91113
AAXX 22061 01375 16/// /2006 11091 21099 6//// 333 21100 91112
AAXX 22061 01378 16/// /1901 11085 21097 39814 40119 55013 60002 333 21123 70000 91103
AAXX 22061 01385 16/// /0401 11095 21104 39842 40128 56016 60002 333 21135 70000 91102
AAXX 22061 01412 16/// /1410 10048 20033 30054 40084 53009 60022 333 20015 70023 91125
AAXX 22061 01422 16/// /0501 10026 20013 69942 333 21007 70005 91107
AAXX 22061 01440 NIL
AAXX 22061 01441 NIL
AAXX 22061 01467 NIL
AAXX 22061 01469 16/// /1401 11071 21088 39944 40123 55014 60022 333 21104 70016 91102
AAXX 22061 01477 16/// /2501 11054 21060 60012 333 21109 4/020 70013 91102
AAXX 22061 01480 16/// /0101 11046 21058 69952 333 21096 70005 91103
AAXX 22061 01484 16/// /1501 11060 21073 39970 40132 57011 69982 333 21125 70010 91102
AAXX 22061 01490 16/// /2104 11065 21070 60012 333 21069 70010 91107
AAXX 22061 01495 16/// /1402 11001 21017 30118 40131 56012 60002 333 21050 70000 91104
AAXX 22061 01121 46/// /1308 10019 21028 30025 40038 57017 333 20006 91112
AAXX 22061 01135 16/// /1202 11032 21045 39904 40060 57012 60002 333 21035 4/002 70008 91104
AAXX 22061 01143 16/// /1701 11017 21048 60002 333 21021 70000 91105
AAXX 22061 01150 16/// /1305 11032 21075 60002 333 21041 91108
AAXX 22061 01192 16/// /1401 10000 21045 60002 333 21027 4/006 70000 91105
AAXX 22061 01225 46/// /1304 10024 21005 30007 40011 57006 333 20019 91109
AAXX 22061 01230 16/// /1702 11053 21067 69942 333 21149 4/036 70004 91109
AAXX 22061 01232 16/// /1706 10002 21041 39967 40047 53003 60002 333 21044 4/024 70000 91114
AAXX 22061 01234 16/// /2104 11054 21071 60002 333 21080 70000 91105
AAXX 22061 01253 16/// /2001 11014 21049 60002 333 21117 4/033 70000 91104
AAXX 22061 01254 16/// /1601 11057 21066 60002 333 21143 4/021 70000 91104
AAXX 22061 01257 11577 61501 11007 21063 39872 40035 56018 60002 70221 86460 333 21050 70000 91105
AAXX 22061 01277 NIL
AAXX 22061 01291 16/// /1301 11054 21061 60002 333 21097 4/023 70002 91104
AAXX 22061 01332 16/// /0000 11023 21033 60082 333 21034 70087 91100
AAXX 22061 01366 46/// /2001 11058 21070 38437 40071 55001 333 21128 91108
AAXX 22061 01370 16/// /1101 11077 21087 38971 40181 56010 69942 333 21105 4/026 70004 91106
AAXX 22061 01376 16/// /2901 11072 21083 60012 333 21111 70011 91102
AAXX 22061 01383 46/// /1103 11120 21128 39798 40131 56016 333 21203 91104
AAXX 22061 01386 16/// ///// 11095 21109 60002 333 21141 70000
AAXX 22061 01416 16/// ///// 10052 20040 60012 333 21006 70013
AAXX 22061 01419 16/// /0101 10012 20008 60012 333 21048 70015 91107
AAXX 22061 01430 16/// ///// 10004 21001 60022 333 21038 70019
AAXX 22061 01434 16/// /0000 11080 21093 39127 40108 56002 60032 333 21155 70032 91102
AAXX 22061 01455 16/// /1401 11015 21028 39810 40127 55005 69972 333 21069 70007 91105
AAXX 22061 01468 16/// /0901 11086 21099 60002 333 21122 70000 91103
AAXX 22061 01470 16/// /2901 11038 21044 30013 40131 55006 69972 333 21070 4/005 70007 91103
AAXX 22061 01476 NIL
AAXX 22061 01481 16/// /3601 11038 21047 30097 40130 56012 69952 333 21070 70006 91102
AAXX 22061 01488 NIL
AAXX 22061 01015 NIL
AAXX 22061 01023 11689 41501 11053 21064 39961 40058 57001 69952 70172 83508 333 21055 48010 70005 91105
AAXX 22061 01033 46/// /1607 10019 20001 30002 40033 54000 333 20019 91109
AAXX 22061 01059 16/// /1706 11048 21068 30049 40059 57004 6//// 333 21073 91110
AAXX 22061 01089 16/// /1406 11075 21080 39974 40084 58008 6//// 333 21092 91107
AAXX 22061 01167 11586 51606 10021 21011 30028 40033 58008 69912 70282 83471 333 20008 70001 91109
AAXX 22061 01180 NIL
AAXX 22061 01210 11485 81705 10062 20030 39983 40009 55000 60034 70282 8457/ 333 20025 70031 91111
AAXX 22061 01228 46/// /1706 10028 21031 30007 40014 56010 333 20021 91110
AAXX 22061 01240 16/// /1510 10026 21041 39992 40012 57020 6//// 333 20023 91114
AAXX 22061 01304 46/// /1714 10056 20041 30000 40031 53007 333 20014 91121
AAXX 22061 01311 47433 81605 10032 20029 30006 40068 53008 753// 333 21006 91115
AAXX 22061 01340 16/// /1201 11027 21038 39206 40090 55001 60022 333 21084 70016 91111
AAXX 22061 01355 16/// ///// 11028 21037 30091 40096 55001 60012 333 21045 70013
AAXX 22061 01360 NIL
AAXX 22061 01392 11572 80501 11096 21110 39898 40136 57014 60002 78582 888// 333 21132 41002 70000 91102
AAXX 22061 01406 46/// /1609 10045 20038 30048 40066 53010 333 20010 91120
AAXX 22061 01411 16/// /1407 10052 20037 30058 40084 53009 6//// 333 20012 91119
AAXX 22061 01425 16/// /0000 11003 21005 30030 40111 55007 60042 333 21065 70044 91101
AAXX 22061 01433 46/// /0000 11040 21049 38825 40101 53002 333 21077 91105
AAXX 22061 01442 11150 83603 11028 21037 39861 40126 56008 60032 75675 886// 333 21041 70029 91106
AAXX 22061 01450 NIL
AAXX 22061 01452 11318 80602 11008 21012 30097 40119 55011 60022 75655 887// 333 21074 70022 91104
AAXX 22061 01473 16/// /1101 11067 21075 39912 40129 55011 6//// 333 21113 91102
AAXX 22061 01494 11550 81402 11038 21043 30063 40130 56010 60002 77170 8802/ 333 21074 70000 91103
AAXX 22061 10007 NIL
AAXX 22061 10044 NIL
AAXX 22061 10046 11450 81903 10027 20017 30133 40173 57006 69942 76162 875// 333 10029 21024 32105 55044 70004 82618 87650
AAXX 22061 10091 01950 72404 10016 20015 30127 40179 51005 69912 71065 8707/ 222// 06053 333 10027 20012 32001 55000 55300 20000 30000 69917 70010 87360
AAXX 22061 10113 01025 82105 10054 20052 30135 40154 56015 60022 76165 877// 222// 06050 333 10062 20043 32004 55007 55300 20000 30000 60027 70038 87701
AAXX 22061 10124 NIL
AAXX 22061 10131 01127 81705 10035 20031 30147 40162 58013 60032 76362 877// 222// 02037 333 10038 20029 31001 55022 55300 20000 30000 60037 70034 87703 98027
AAXX 22061 10170 12864 81803 10021 20007 30166 40182 50002 60002 8652/ 333 10044 20018 31001 55021 55300 20000 30000 79999 86657 88459
AAXX 22061 10264 11130 82103 10006 20005 30081 40191 50004 60002 71042 886// 333 10023 21002 31102 55004 55300 20000 30000 79999 88702
AAXX 22061 10291 11960 82403 10004 21000 30131 40201 52010 69902 70362 8707/ 333 10016 21003 31102 4/998 55003 55300 20000 30000 70007 87460
AAXX 22061 10315 01256 82103 10054 20050 30123 40188 58009 69972 75852 886// 333 10054 20047 31004 55000 55300 20000 30000 69977 70008 88704
AAXX 22061 10379 11140 82502 10013 20012 30077 40202 51007 60002 71022 886// 333 10027 20005 31101 55004 55300 20000 30000 41155 70004 88703
AAXX 22061 10382 11156 82602 10015 20009 30158 40204 52007 60002 71022 886// 333 10029 20005 31102 55002 55300 20000 30000 70006 88703
AAXX 22061 10384 16/// /2702 10019 20011 30142 40204 53008 60002 333 10037 20013 3/101 55008 55300 20000 30000 70008
AAXX 22061 10427 01/01 92408 10000 20000 39178 48469 57009 60012 76974 333 10000 21008 3/101 48061 55000 55300 20000 30000 69947 70049 96045 96471 96449
AAXX 22061 10430 01440 81601 10042 20034 30002 40198 56011 69942 75165 885// 333 10044 20038 31004 55000 55300 20000 30000 69947 70011 81713 85615 86619 96010
AAXX 22061 10439 11356 81902 10035 20023 39992 40217 58003 69932 76162 885// 333 10036 20022 31001 70004 85707 87620
AAXX 22061 10453 11/90 92511 11024 21024 38842 48465 53005 60032 77044 333 11024 21033 3/103 49128 55000 55300 70099 91115 91212 96049 96036 96449 96436
AAXX 22061 10496 11235 82702 10017 20011 30122 40209 53013 69902 71065 886// 333 10022 21006 31103 55000 55300 20000 30000 70037 88704
AAXX 22061 10499 01366 82603 10005 21003 39913 40212 53013 69952 70162 82607 333 10013 20004 31101 41998 55000 55300 20000 30000 69907 70037 82708 88280
AAXX 22061 10505 01/01 92505 10075 20075 39926 40209 55000 69982 75054 333 10075 20038 31003 55000 55300 20000 30000 69937 70011 96047
AAXX 22061 10513 01132 81302 10044 20044 30094 40218 58003 69972 75862 886// 333 10050 20042 31004 55000 55300 20000 30000 69977 70008 82703 87707 96010
AAXX 22061 10532 07229 72002 10031 20027 39963 40217 58005 69902 75765 333 10034 20028 3/002 55000 55300 20000 30000 69907 70003 87/06 87/37
AAXX 22061 10544 01/00 92306 11009 21009 39114 48479 55001 69992 77174 333 11009 21022 3/102 48028 55000 55300 69917 70035 96049 96043 96147 96473
AAXX 22061 10554 11470 82504 10024 20014 39823 40220 53004 69902 70382 8557/ 333 10024 20011 31100 55000 55300 20000 30000 70001 84610 83630 87358 96480
AAXX 22061 10567 11657 72203 10017 20011 39836 40222 53008 69912 71022 875// 333 10024 20014 31001 55000 55300 20000 30000 70007 87636
AAXX 22061 10578 11/00 92812 11037 21041 38775 48465 51006 60052 74974 333 11034 21043 3/104 48075 55000 55300 20000 30000 70145 96036
AAXX 22061 10609 01/01 92403 10038 20035 39895 40232 55000 60012 74554 333 10040 20032 31003 55000 55300 20000 30000 69937 70024
AAXX 22061 10616 01116 82502 10027 20027 39615 40227 56002 69942 75154 887// 333 10027 20014 31001 4/998 55000 55300 69937 70007 84702 87703 96010
AAXX 22061 10641 07235 82102 10034 20025 30079 40229 54000 69912 75165 333 10037 20032 3/002 55000 55300 69917 70001 88/04
AAXX 22061 10655 01360 82201 10027 20020 39898 40235 51003 69902 72122 885// 333 10028 20021 31001 55000 55300 20000 30000 69907 70002 84707 87615
AAXX 22061 10675 07241 71402 10026 20017 39935 40234 50004 69902 71065 333 10028 20023 3/002 55000 55300 20000 30000 69907 79999 87/04
AAXX 22061 10688 17256 72002 10006 20001 39701 40240 51014 69912 71050 333 10010 20002 3/101 55000 55300 20000 30000 70017 87/05
AAXX 22061 10708 01012 82103 10031 20031 39845 40240 50002 60012 75154 887// 333 10031 20017 32002 4/998 55000 55300 20000 30000 69947 70047 88700
AAXX 22061 10729 07256 81902 10035 20035 30121 40246 50001 69902 72365 333 10035 20025 3/001 4/001 55000 55300 20000 30000 69907 70001 87/05 87/21 88/58
AAXX 22061 10731 01230 82305 10044 20038 30092 40239 50000 69962 75866 887// 333 10044 20036 31004 55000 55300 20000 30000 69937 70012 88706
AAXX 22061 10742 07242 72302 10032 20027 39899 40238 50000 69902 72250 333 10032 20025 3/002 55000 55300 20000 30000 69907 70003 87/04
AAXX 22061 10776 11462 81902 10014 20005 39784 40241 51012 69902 70252 885// 333 10017 20008 31101 55000 55300 20000 30000 70005 88610
AAXX 22061 10791 01/90 93006 11054 21058 38540 48483 52010 60012 74974 333 11053 21054 49101 55000 55300 69907 70063
AAXX 22061 10805 01225 82004 10046 20041 30055 40250 52004 60032 75165 885// 333 10047 20034 31003 55000 55300 20000 30000 69917 70043 81705 85708 87619
AAXX 22061 10815 11150 82504 10003 20003 39283 48502 53005 69902 71072 886// 333 10003 21006 3/101 43034 55000 55300 20000 30000 70025 88702 96477
AAXX 22061 10836 11/01 92704 10000 20000 39351 40245 50004 60022 74564 333 10000 21006 3/101 44021 55000 55300 20000 30000 70058 89/03 96466
AAXX 22061 10870 01110 82603 10011 20011 39703 40253 53015 69942 71075 886// 333 10015 20005 3/000 42002 55000 55300 69907 70010 88703
AAXX 22061 10895 11250 82804 10004 21001 39658 40246 53017 69922 71072 886// 333 10005 20001 3/100 44005 55000 55300 20000 30000 70007 84704 88710
AAXX 22061 10908 01/00 93008 11013 21013 38522 48516 53010 60032 74974 333 11013 21037 3/104 49072 55000 55300 20000 30000 69917 70032 89/01
AAXX 22061 10929 01356 82801 10019 20018 39716 40263 53011 60022 75975 877// 222// 06054 333 10024 20014 31001 4/998 55000 55300 20000 30000 69987 70019 87707 96469
AAXX 22061 10948 01586 81503 10001 20001 39288 48512 53010 60032 72272 8262/ 333 10003 21012 3/101 43061 55000 55300 20000 30000 69917 70058 82720 88536
AAXX 22061 10961 11/00 93409 11117 21120 37049 47014 53013 60182 77174 333 11117 21142 49210 55000 55300 20000 41037 70379 91118 91211 96049
AAXX 22061 10962 01/01 92504 11009 21010 39073 48503 53012 60022 74974 333 11009 21022 3/102 48027 55000 55300 20000 30000 69957 70042
AAXX 22061 10980 11/01 93204 11064 21064 38147 48502 53012 60082 77174 333 11064 21074 3/107 48062 55000 55300 20000 30000 70174 96049 96471 96449
BBXX PBBB 22063 99396 70370 41598 33613 10150 20082 40245 52035 70211 8/541 22263 00170 20505 3//// 4//// 5//// 80113
AAXX 22064 78862 11478 60614 10237 20211 30139 40162 69991 72582 85802 333 10270 20218 58001 70011 85815
AAXX 22064 16G26KT SHRA BKN015
AAXX 22064 TAF TUPJ 212200Z 2200/2224 06016KT 9999 SCT022 BKN270 PROB40 TEMPO 2200/2218 06016G26KT SHRA BKN015
AAXX 22064 TAF TQPF 212200Z 2200/2224 06016KT 9999 SCT022 BKN270 PROB40 TEMPO 2200/2218 06016G26KT SHRA BKN015
AAXX 22064 TAF TKPN 212200Z 2200/2224 06016KT 9999 SCT022 BKN270 PROB40 TEMPO 2200/2218 06016G26KT SHRA BKN015
AAXX 22064 BKN035
AAXX 22064 EMPO 0600/0624 SHRA BKN015=+TSRA SCT012CB
AAXX 22064 TAF TUPJ 041000Z 04012/0512 07008KT 9999 SCT016 BKN038 SCT270 TEMPO 0412/0512 SHRA BKN015 PROB40 TEMPO 0418/0512 5000 SHRA BKN014 BKN036 PROB30 0420/0512 4000 TSRA FEW012CB
AAXX 22064 918 4000 TSRA FEW012CB
AAXX 22064 N015 BKN036 PROB40 TEMPO 0704/0724 3000 +TSRA SCT011CB BKN012 BECMG 0712/0714 14008KT
AAXX 22064 21/2712 07017G28KT 5000 SHRA BKN015 BKN036 PROB TEMPO 2700/2712 4000 TSRA FEW013CB
AAXX 22064 PROB30 TEMPO 0800/0806 4000 TSRA FEW012CB PROB40 TEMPO 0800/0824 2000 +SHRA/TSRA SCT010CB BKN012 BKN250
AAXX 22061 11816 11760 53104 10018 21008 30047 40215 52016 69912 70162 85540 333 20007 3/101 41998 70039 85650
AAXX 22061 11826 12361 80000 11041 21049 30005 40215 52016 69922 885// 333 21103 3/114 47006 70037 82708 88650
AAXX 22061 11903 11650 80000 11038 21045 39812 40210 52015 69902 71022 885// 333 21053 3/106 47001 70004 88646
AAXX 22061 11934 11245 80000 11063 21071 39350 42780 53016 69902 77144 885// 333 21089 3/110 42001 70001 85703 88640
AAXX 22061 11968 11435 80101 11022 21032 39916 40208 52017 60012 71074 885// 333 21028 3/105 43002 70010 88617
AAXX 22064 91503 01460 70000 10277 20260 40037 55001 60531 78082 8492/ 333 56000 60337 82816 81917 83622 87459
AAXX 22064 91517 31575 60504 10310 20238 40040 57001 71511 85808 333 56209 81820 85635
AAXX 22064 91503 01460 70000 10277 20260 40037 55001 60531 78082 8492/ 333 56000 60337 82816 81917 83622 87459
AAXX 22064 91517 31575 60504 10310 20238 40040 57001 71511 85808 333 56209 81820 85635
AAXX 22064 03005 11458 82714 10089 20071 39946 40045 52024 60052 72165 885// 90550 333 20072 32007 55000 55300 20000 70128 81712 87618 90710 91135
AAXX 22064 03017 17335 /2818 10097 20090 30045 40076 53009 69942 757// 90550 333 20097 3/009 55000 55300 20000 70052 86/09 86/19 90710 91131
AAXX 22064 03023 17232 /2320 10102 20102 30103 40108 58007 69942 710// 90550 333 20101 3/010 70016 88/03 90710 91125
AAXX 22064 03026 15460 /2214 10107 20099 30072 40090 50000 69982 90550 333 20104 3/010 55000 55300 20000 70056 87/13 83/31
AAXX 22064 03063 17657 /2206 10089 20083 39845 40120 51013 69922 723// 90550 333 20081 3/007 55001 55300 20000 70028 81/32 86/50
AAXX 22064 03066 15589 /2004 10118 20084 30097 40103 51017 60002 90550 333 20091 3/007 55000 55300 20000 70038 84/23 87/29
AAXX 22064 03075 15673 /2508 10091 20081 30039 40082 53012 60002 90550 333 20076 3/005 70020 82/31
AAXX 22064 03091 15681 /2406 10090 20073 30032 40111 51011 60002 90550 333 20061 3/003 55000 55300 20000 70048 84/33 83/74
AAXX 22064 03100 17235 /2519 10107 20107 30125 40141 58005 60012 710// 90550 333 20106 3/010 55000 55300 20000 70016 88/03 90710 91125
AAXX 22064 03111 16458 /2714 10106 20096 30159 40171 52002 60002 90550 333 20104 3/010 70002 87/12 84/15
AAXX 22064 03134 17356 /2611 10107 20100 30088 40160 51004 60012 751// 90550 333 20104 3/010 55000 55300 20000 70026 88/07
AAXX 22064 03136 NIL
AAXX 22064 03162 17336 /1910 10092 20086 39895 40181 53010 60032 751// 90550 333 20088 3/008 55000 55300 20000 70052 87/07
AAXX 22064 03166 15484 /2511 10112 20101 30085 40154 51007 69902 90550 333 20108 3/010 55000 55300 20000 70010 87/12
AAXX 22064 03171 12684 72516 10106 20085 30123 40135 51010 60002 875/1 90550 333 20084 31005 55000 55300 20000 70024 81630 87656
AAXX 22064 03204 12365 82214 10108 20095 30191 40211 52011 60002 886// 90550 333 20104 31009 55000 55300 20000 70000 83709 88712
AAXX 22064 03240 15984 /2514 10110 20091 30131 40159 52010 60002 90550 333 20101 3/009 55000 55300 20000 70014 87/73
AAXX 22064 03257 15975 /2510 10105 20080 30157 40198 51010 60002 90550 333 20092 3/007 55001 55300 20000 70002 8//99
AAXX 22064 03292 169// /2719 10107 20088 30162 40180 51015 60002 90550 333 20097 3/009 70008 8//99 90710 91132 91032
AAXX 22064 03302 17658 /2317 10105 20095 30219 40231 52005 60002 704// 90550 333 20096 3/008 55000 55300 20000 70000 87/36 90710 91125
AAXX 22064 03354 15469 /2907 10097 20078 30083 40227 52010 60002 90550 333 20078 3/004 55000 55300 20000 70000 81/12 87/21
AAXX 22064 03377 12481 82710 10106 20084 30131 40215 52009 60002 885// 90550 333 20091 31008 55000 55300 20000 70002 88616
AAXX 22064 03414 15969 /2509 10095 20084 30149 40238 53005 60002 90550 333 20092 3/007 55016 55300 20000 70000 8//99
AAXX 22064 03462 15971 /2520 10088 20078 30122 40212 50001 60002 90550 333 20080 3/007 55000 55300 20000 70002 8//99 90710 91125
AAXX 22064 03482 15965 /2613 10091 20072 30184 40210 53006 60002 90550 333 20069 3/004 70002 8//99
AAXX 22064 03502 17659 /2517 10099 20091 30095 40258 53002 60002 710// 90550 333 20087 3/007 55000 55300 20000 70000 86/30 87/43
AAXX 22064 03535 15972 /2515 10099 20079 30114 40231 50009 60002 90550 333 20067 3/003 55015 55300 20000 79999 8//99
AAXX 22064 03590 15980 /2811 10094 20077 30107 40217 53007 60002 90550 333 20088 3/007 55000 55300 20000 70004 8//99
AAXX 22064 03649 11259 72508 10081 20075 30151 40252 53009 60002 71022 81602 90550 333 20071 31005 55018 55300 2//// 79999 81705 87075
AAXX 22064 03716 15268 /2713 10104 20095 30200 40261 58001 60002 90550 333 20089 3/007 55000 55300 20000 70000 81/04 87/32
AAXX 22064 03740 16259 /2514 10091 20091 30084 40262 53007 60002 90550 333 20075 3/005 55004 55300 2//// 70000 88/03
AAXX 22064 03746 15362 /3019 10096 20094 30106 40261 53004 60002 90550 333 20077 3/004 70002 88/06 90710 91125
AAXX 22064 03772 15968 /2710 10085 20071 30216 40247 52012 60002 90550 333 20079 3/003 55001 55300 20000 79999 8//99
AAXX 22064 03796 46/// /3121 10105 20081 30081 40224 53003 90550 333 20099 90710 91129
AAXX 22064 03803 NIL
AAXX 22064 03808 11570 72909 10102 20087 30188 40295 56001 69902 70261 875// 90550 333 20095 31009 55000 55300 20000 79999 87624
AAXX 22064 03809 11470 82809 10103 20093 30201 40295 54000 69902 72161 885// 90550 333 20094 31007 70002 82714 83618 87624
AAXX 22064 03827 15564 /2711 10105 20090 30225 40287 56001 60002 90550 333 20097 3/008 70000 87/27
AAXX 22064 03840 15366 /2807 10089 20085 39967 40276 54000 60002 90550 333 20088 3/008 70002 87/06 85/22
AAXX 22064 03853 17459 /1802 10064 20064 30248 40273 53001 60002 710// 90550 333 20046 3/001 55000 55300 20000 70000 81/12 85/32
AAXX 22064 03874 46/// /2808 10084 20076 30250 40261 53007 90550 333 20084
AAXX 22064 03882 15960 /2804 10075 20066 30181 40245 53007 60002 90550 333 20075 3/004 55000 55300 20000 70006 8//99
AAXX 22064 03894 32362 72914 10105 20095 40294 52008 876// 333 20104 31009 82705 87707
AAXX 22064 03917 15362 /2306 10101 20093 30118 40195 50000 60002 90550 333 20093 3/009 55000 55300 20000 79999 88/08
AAXX 22064 61901 169// /1313 10164 20147 39674 40184 53009 60002 90550 333 20157 3/014 70000 8//99 555 7/090
AAXX 22064 61902 11475 81210 10228 20200 40136 69974 70382 888// 333 20213 58004 82712 83818 88628
AAXX 22064 88889 11580 72111 10073 20038 39841 49924 51007 60051 70186 875// 90550 333 70204 82622 87640
BBXX CGDS 22064 99450 70747 46/// /2805 10004 20002 4//// 5//// 7//// 8//// 22200 0//// 2////
AAXX 22064 78397 112570 13205 10256 20205 30131 40147 60001 81800 333 00000 10324 20240 59003 81824
AAXX 22061 02741 37380 82303 11001 21010 30130 40146 54001 70000 88/// 90539 333 10003 21019 3/106
AAXX 22061 02755 37468 71603 11012 21016 30019 40116 54001 78587 83/// 90539 333 11008 21022 3//// 4/007
AAXX 22061 02805 37499 82002 11059 21068 39938 40074 57007 70000 88/// 90539 333 11059 21213 3/122
AAXX 22061 02807 47499 70000 11048 21053 39901 40088 700// 87/// 90600 333 11048 21092 3////
AAXX 22061 02836 17247 81702 11018 21021 39867 40093 54000 69922 77187 88/// 90539 333 11017 21060 3/109 4/032
AAXX 22061 02845 47156 71604 11016 21016 39847 40099 52002 77176 87/// 90539 333 11010 21017 3/102 4/038
AAXX 22061 02849 47399 81801 11030 21038 39834 40114 52003 70087 88/// 90539 333 11014 21031 3////
AAXX 22061 02866 37280 81802 11013 21016 39969 40121 52002 74040 88/// 90539 333 11004 21019 3/102 4/022
AAXX 22061 02897 47483 71702 11013 21021 39947 40132 771// 87/// 90600 333 11007 21014 3////
AAXX 22061 02913 47581 81903 11004 21020 30060 40113 700// 88/// 333 10003 21009 3////
AAXX 22061 02917 47460 81803 11011 21019 30017 40142 771// 88/// 90600 333 11007 21022 3////
AAXX 22061 02924 47357 81701 11011 21011 39926 40127 54001 77187 88/// 90539 333 11006 21015 3/104
AAXX 22061 02926 17440 81701 11003 21005 30120 40133 53002 69982 771// 88/// 90600 333 10004 21004 3////
AAXX 22061 02935 37262 71401 11010 21015 39960 40137 54001 77187 87/// 90539 333 11007 21014 3/103 4/011
AAXX 22061 02939 37550 80000 11034 21034 39953 40152 52002 710// 88/// 90539 333 11013 21034 3/107 4/012
AAXX 22061 02944 47359 71902 11010 21016 39990 40140 785// 87/// 90600 333 11006 21012 3////
AAXX 22061 02947 47160 80000 11010 21013 40151 54000 70000 88/// 90551 333 11003 21016
AAXX 22061 02963 11040 80000 11018 21020 40141 54000 69964 71022 886// 333 1//// 2//// 3/106 47003
AAXX 22061 02974 37103 81701 11013 21016 30085 40153 52003 73487 88/// 90539 333 11006 21031 3/105
AAXX 22061 02976 46/// /1503 10008 21005 30137 40154 54000 90539 333 10009 21010 3////
AAXX 22061 02981 37499 72504 10017 21012 30141 40151 52004 70000 85/// 90539 333 10033 20013 3////
AAXX 22061 02982 46/// /2906 10023 20001 30140 40148 54001 90539 333 10029 20003 3////
AAXX 22061 02741 37380 82303 11001 21010 30130 40146 54001 70000 88/// 90539 333 10003 21019 3/106
AAXX 22061 02755 37468 71603 11012 21016 30019 40116 54001 78587 83/// 90539 333 11008 21022 3//// 4/007
AAXX 22061 02805 37499 82002 11059 21068 39938 40074 57007 70000 88/// 90539 333 11059 21213 3/122
AAXX 22061 02807 47499 70000 11048 21053 39901 40088 700// 87/// 90600 333 11048 21092 3////
AAXX 22061 02836 17247 81702 11018 21021 39867 40093 54000 69922 77187 88/// 90539 333 11017 21060 3/109 4/032
AAXX 22061 02845 47156 71604 11016 21016 39847 40099 52002 77176 87/// 90539 333 11010 21017 3/102 4/038
AAXX 22061 02849 47399 81801 11030 21038 39834 40114 52003 70087 88/// 90539 333 11014 21031 3////
AAXX 22061 02866 37280 81802 11013 21016 39969 40121 52002 74040 88/// 90539 333 11004 21019 3/102 4/022
AAXX 22061 02897 47483 71702 11013 21021 39947 40132 771// 87/// 90600 333 11007 21014 3////
AAXX 22061 02913 47581 81903 11004 21020 30060 40113 700// 88/// 333 10003 21009 3////
AAXX 22061 02917 47460 81803 11011 21019 30017 40142 771// 88/// 90600 333 11007 21022 3////
AAXX 22061 02924 47357 81701 11011 21011 39926 40127 54001 77187 88/// 90539 333 11006 21015 3/104
AAXX 22061 02926 17440 81701 11003 21005 30120 40133 53002 69982 771// 88/// 90600 333 10004 21004 3////
AAXX 22061 02935 37262 71401 11010 21015 39960 40137 54001 77187 87/// 90539 333 11007 21014 3/103 4/011
AAXX 22061 02939 37550 80000 11034 21034 39953 40152 52002 710// 88/// 90539 333 11013 21034 3/107 4/012
AAXX 22061 02944 47359 71902 11010 21016 39990 40140 785// 87/// 90600 333 11006 21012 3////
AAXX 22061 02947 47160 80000 11010 21013 40151 54000 70000 88/// 90551 333 11003 21016
AAXX 22061 02963 11040 80000 11018 21020 40141 54000 69964 71022 886// 333 1//// 2//// 3/106 47003
AAXX 22061 02974 37103 81701 11013 21016 30085 40153 52003 73487 88/// 90539 333 11006 21031 3/105
AAXX 22061 02976 46/// /1503 10008 21005 30137 40154 54000 90539 333 10009 21010 3////
AAXX 22061 02981 37499 72504 10017 21012 30141 40151 52004 70000 85/// 90539 333 10033 20013 3////
AAXX 22061 02982 46/// /2906 10023 20001 30140 40148 54001 90539 333 10029 20003 3////
AAXX 22064 96315 11460 72910 10294 20252 40074 60012 71582 84848 333 84815 86364
AAXX 22064 96323 NIL
BBXX 46082 22061 99597 71434 46/// ///// 10044 40016 56050 90550 22200 00064 11408 70038
BBXX 46072 22061 99517 71722 46/// /0102 10020 21035 40021 58016 90550 22200 00048 11105 20301 3//// 41105 70023 333 91203 555 11018 22019 30451 42904 60549 015019 346021 340020 326020 317018 305024 83503 90533
BBXX 46035 22061 99571 71778 46/// /1904 1//// 40008 53005 90550 22200 10904 20401 300// 40904 70022 333 91205 555 11036 22038 30520 42108 60549 190037 204051 208064 206063 207060 217047 82107 90520
BBXX 46077 22061 99579 71543 46/// /0306 10019 21050 40026 58010 90550 22200 00047 11302 20501 3//// 41302 70009 333 91208 555 11064 22066 30542 40208 60549 029062 031060 030057 033057 040060 048057 80307 90542
BBXX 51101 22061 99243 71621 46/// /0810 10234 20176 40194 53022 90550 22200 00239 10905 20704 309// 40903 70026 333 91211 555 11101 22108 30501 40613 60549 076093 066095 067090 068092 064097 066097
BBXX 46072 22061 99517 71722 46/// /0102 10020 21035 40021 58016 90550 22200 00048 11105 20301 3//// 41105 70023 333 91203 555 11018 22019 30451 42904 60549 015019 346021 340020 326020 317018 305024 83503 90533
BBXX 42039 22061 99288 70860 46/// /1303 10222 40161 57006 90550 22200 00230 10704 20401 300// 40703 70018 333 91203 555 11027 22028 30535 41404 60549 132026 130031 137021 134017 135022 139024 81303 90535
BBXX 41040 22061 99145 70530 46/// /0610 10263 20212 40142 58014 90550 22200 00278 11507 20705 3//// 41505 70034 333 91212 555 11102 22108 30519 40612 60549 062096 059095 056094 057097 061099 057099 80611 90457
BBXX 44040 22061 99410 70736 46/// /2608 10124 20114 40091 90545 22200 10301 70003 333 91212 555 11103 22124
AAXX 22064 78866 02581 10815 10245 20199 30169 40174 57009 60001 81800 333 58003 60007 81821
AAXX 22064 07139 02958 12304 10078 20064 30107 40284 51009 60002 80002 333 10113 20078 31005 55000 60007 70008 81075 90710 91108 93100 555 60005
AAXX 22064 07005 02865 82609 10099 20091 30157 40248 52006 60002 875// 333 10110 20090 31008 55000 60007 70006 87656 90710 91115 93100 555 60005
AAXX 22064 07015 01660 82708 10094 20083 30171 40229 53003 69982 703// 875// 333 10096 20075 32007 55000 60007 70028 87643 90710 91112 93100 555 60005
AAXX 22064 07020 06/// /2917 10117 20101 30262 40289 53004 60002 333 10125 20116 55/// 60007 70000 90710 91123 555 60005
AAXX 22064 07027 02970 22711 10096 20087 30198 40280 53007 60002 81031 333 10116 20092 31008 55000 60007 79999 81363 90710 91115 93100 555 60005
AAXX 22064 07037 02256 62807 10088 20085 30079 40265 53006 60002 86601 333 10109 20085 31005 55000 60007 70016 85705 84075 90710 91111 93100 555 60005
AAXX 22064 07070 04359 83010 10100 20091 30134 40245 53009 69962 700// 333 10102 20075 31007 55000 60007 70014 90710 91114 555 60005
AAXX 22064 07110 02570 72806 10104 20082 30200 40317 53002 60002 875// 333 10119 20084 31006 55000 60007 79999 87626 90710 91110 93100 555 60005
AAXX 22064 07117 02440 82809 10111 20094 30235 40306 51005 69902 886// 333 10124 20111 60007 90710 91118 92436 555 60005
AAXX 22064 07130 04465 82904 10105 20094 30252 40305 53013 60002 700// 333 10114 20103 31009 55000 60007 70002 90710 91110 555 60005
AAXX 22064 07149 01465 73007 10097 20088 30153 40263 53009 69922 70152 83502 333 10115 20097 32008 55000 60007 70029 83611 85075 90710 91113 93100 555 60005
AAXX 22064 07168 02457 82909 10103 20094 30113 40257 53010 69982 886// 333 10104 20081 32008 55000 60007 70040 87710 90710 91114 93100 555 60005
AAXX 22064 07181 04115 82304 10068 20068 39825 40241 53004 69982 710// 333 10068 20029 3/003 55/// 69907 70032 90710 91107 555 69905
AAXX 22064 07190 04232 81804 10041 20035 30061 40249 52006 60022 751// 333 10041 20033 3/003 55000 69927 70048 90710 91107 555 69925
AAXX 22064 07207 02662 33411 10111 20092 60002 83200 222// 327// 333 10126 20111 60007 90710 91120 92437 555 60005
AAXX 22064 07222 01765 83007 10105 20093 30273 40305 53007 60002 702// 875// 333 10129 20101 30009 55000 60007 70000 87650 90710 91110 555 60005
AAXX 22064 07240 01462 82805 10107 20095 30151 40288 53009 69902 701// 885// 333 10122 20107 32010 55000 60007 70019 81710 87650 90710 91111 93100 555 60005
AAXX 22064 07255 01262 82905 10103 20097 30077 40279 53009 69962 70165 885// 333 10111 20103 32010 55000 60007 70057 84706 87610 90710 91111 93100 555 60005
AAXX 22064 07280 04109 81502 10053 20050 39982 40262 53008 69922 745// 333 10053 20040 32004 55000 69927 70050 90710 91103 555 69925
AAXX 22064 07299 01458 81306 10036 20033 39921 40259 53006 60042 75052 885// 333 10036 20025 31002 55000 69907 70064 85610 87614 90710 91108 93100 555 69905
AAXX 22064 07314 06/// /3214 10119 20103 30283 40311 53003 60002 333 10124 20117 55/// 60007 79999 90710 91120 555 60005
AAXX 22064 07335 02370 83005 10103 20095 30151 40298 53007 69902 886// 333 10114 20103 31010 55000 60007 70014 87708 88648 90710 91109 555 60005
AAXX 22064 07434 04259 83206 10090 20087 39811 40297 53008 60012 700// 333 10100 20089 32009 55000 69907 70069 90710 91114 555 69905
AAXX 22064 07460 01570 70901 10099 20082 39882 40275 53007 60002 702// 875// 333 10117 20086 31008 55000 60007 70024 84620 87650 90710 91103 93100 555 60005
AAXX 22064 07471 01475 83209 10075 20069 39287 48866 53007 69902 72162 885// 333 10080 20056 32005 55003 69907 70006 88615 90710 91114 93100 555 69905
AAXX 22064 07481 01120 80000 10043 20037 39977 40274 53007 60052 75865 885// 333 10043 20034 32003 55/// 60017 70118 84702 88613 90710 91101 93100 555 69945
AAXX 22064 07510 01365 82506 10114 20108 30245 40311 52004 69942 70152 885// 333 10128 20114 32011 55001 69907 70008 81708 87641 90710 91108 93100 555 60005
AAXX 22064 07535 01008 82805 10098 20097 39980 40297 53004 69942 75054 887// 333 10105 20097 32010 55000 69927 70075 88701 90710 91112 93100 555 69925
AAXX 22064 07558 01258 83015 10080 20072 39421 40266 53003 69922 75055 887// 333 10090 20078 31007 55000 69927 70008 88705 90710 91123 93100 555 69905
AAXX 22064 07577 02470 70314 10102 20069 30146 40236 53010 60002 878// 333 10109 20057 31005 55014 60007 70004 82816 86633 90710 91133 93100 555 60005
AAXX 22064 07591 04/// /3503 11020 21027 39167 4//// 52007 60002 700// 333 11004 21033 3/105 55072 60007 70000 90710 91112 555 60005
AAXX 22064 07607 04238 83210 10119 20114 30248 40320 53003 69922 758// 333 10120 20110 3/011 55000 69927 70016 90710 91118 555 69925
AAXX 22064 07621 01358 72711 10098 20089 39886 40326 53005 60022 750// 875// 333 10109 20094 32009 55001 69927 70040 85708 87616 90710 91121 93100 555 69905
AAXX 22064 07627 02670 73306 10107 20066 39820 40313 53004 69922 875// 333 10119 20101 31009 55002 60007 70024 87633 90710 91113 93100 555 60005
AAXX 22064 07630 02362 82715 10112 20103 30120 40303 53002 69942 887// 333 10123 20106 32010 55000 60007 70049 88707 90710 91121 93100 555 60005
AAXX 22064 07643 01786 72908 10142 20075 30225 40235 53010 60002 703// 875// 333 10142 20068 30005 55022 60007 70000 84656 86657 90710 91114 555 60005
AAXX 22064 07650 02986 03228 10121 20068 30160 40199 53005 60002 333 10133 20094 30009 55030 60007 70000 91040 90710 91145 93100 555 60005
AAXX 22064 07661 01570 11306 10114 20073 30018 40179 52021 60002 701// 81100 333 10135 20106 55/// 60007 70000 81826 90710 91110 555 60005
AAXX 22064 07690 02980 03312 10054 21039 30155 40190 53018 60002 333 10075 20053 30005 55075 60007 70000 90710 91118 93100 555 60005
AAXX 22064 07747 02682 73218 10151 20088 30199 40252 53005 60002 875// 333 10162 20137 30013 55013 60007 70000 87633 91031 90710 91141 555 60005
AAXX 22064 07761 02780 10408 10028 21010 30172 40183 53021 60002 81500 333 10068 20023 30001 55081 60007 70000 81656 90710 91111 93100 555 60005
AAXX 22064 07790 02965 02106 10050 21015 30165 40180 53015 60002 333 10080 20042 30002 55058 60007 70000 90710 91109 93100 555 60005
AAXX 22064 78397 112570 13205 10256 20205 30131 40147 60001 81800 333 00000 10324 20240 59003 81824
BBXX 46026 22061 99378 71228 46/// /2802 10104 40201 51009 90550 22200 00109 11005 20301 330// 41005 70023 333 91203 555 11018 22018 30549 42803 60549 278014 317002 263003 241001 266003 280010
BBXX 46041 22061 99474 71247 46/// /1206 10058 40324 54000 90550 22200 00078 11204 20601 3//// 41204 70022 333 91208 555 11066 22069 30544 41208 60549 117063 117058 120056 118051 120048 117045
BBXX 51004 22061 99175 71524 46/// /1006 10242 20208 90550 555 11062 22066
BBXX 51002 22061 99171 71578 46/// /1209 10245 40120 53024 90550 22200 00251 333 91211 555 11100 22106 30547 41211 60549 123093 129092 131084 127086 127083 125080
BBXX 51100 22061 99236 71539 46/// /0709 10223 40192 52019 90550 22200 00232 10805 20604 309// 40803 70023 333 91210 555 11094 22099 30453 40712 60549 069088 068091 066086 060087 059089 061093
BBXX FVNM 22064 99082 70793 46/// /0307 10269 20249 40075 58011 22281 00272
AAXX 22064 44404 42975 10702 10145 20000 38147 48492 80001 333 59008
AAXX 22064 44406 NIL
AAXX 22064 44409 42560 60502 10118 20110 39948 40155 86200 333 59012
AAXX 22064 44416 42962 00000 10172 21005 39394 40176 333 59011
AAXX 22064 44418 NIL
AAXX 22064 44424 NIL
AAXX 22064 44429 NIL
AAXX 22064 44434 42558 21103 10164 20094 39238 48534 82200 333 59008
AAXX 22064 44438 41318 81603 10115 20100 30062 40194 71044 886// 333 59012
AAXX 22064 44449 41/10 92702 10114 20105 30017 40182 74344 333 59005
AAXX 22064 44454 41950 00000 10151 20061 38682 48514 71000 80000 333 59005
AAXX 22064 44462 NIL
AAXX 22064 44474 42970 10902 10155 20024 3//// 4//// 80001 333 5////
AAXX 22064 44477 NIL
AAXX 22064 44478 42556 52705 10146 20102 30090 40172 85200 333 59011
AAXX 22064 40260 31958 43210 10088 20049 39391 40176 54000 70500 80002 333 20050 30004 83070
AAXX 22064 40265 31940 50000 10054 20043 39399 40206 52004 71022 82032 333 20050 30000 82360 84070
AAXX 22064 40296 31958 30000 10144 20108 40180 54002 70500 80002 333 20135 30009 83070
BBXX BATFR42 22064 99507 70020 46/// /2806 10094 20077 40269 53005 22282 00124
BBXX BATFR12 22064 99482 70066 46/// /2509 10130 20099 40325 56003 22271 00140
AAXX 22061 14648 12770 13405 10064 21065 30007 40128 53003 60002 81500 333 20050 31003 55078 70000 81650
AAXX 22061 14652 NIL
AAXX 22061 14542 11665 52901 11037 21048 30019 40219 52004 69902 70172 83570 333 21045 3/107 43006 55022 79999 83642 82460 95900
BBXX BATEU01 22064 99504 10006 46/// /2817 10112 20092 40251 56013 22223 00119
AAXX 22061 14528 11430 70000 11058 21069 39915 40230 51005 60003 71022 84670 333 11010 21072 3/108 47022 55007 70000 84716 87460
AAXX 22061 14537 11950 20000 11063 21066 30007 40205 52005 69913 71072 82030 333 11012 21099 3/111 43013 55043 70001 82360
AAXX 22061 14544 11656 80401 11062 21073 39515 40218 54000 69913 77072 885// 333 11026 21100 3/111 43012 55014 70001 88640
AAXX 22061 14557 11558 82301 11016 21026 39831 40213 54000 69902 77072 885// 333 10021 21018 3/102 47002 55043 70000 88626
AAXX 22061 14640 12560 52906 11009 21044 39295 48437 52008 60003 85500 333 11009 21080 3/111 47007 55075 70000 85626
AAXX 22064 78866 02581 10815 10245 20199 30169 40174 57009 60001 81800 333 58003 60007 81821
AAXX 22064 78866 02581 10815 10245 20199 30169 40174 57009 60001 81800 333 58003 60007 81821
AAXX 22061 11423 01/02 92704 11011 21013 39329 42816 52013 69902 749// 333 21012 3/102 48020 60005 70022 89/01 93503
AAXX 22061 11487 01358 82803 10003 21003 39589 40230 51012 69962 722// 885// 333 20000 3/101 43001 60005 70015 82707 85613 88633 93704
AAXX 22061 11518 NIL
AAXX 22061 11603 01460 60000 11009 21017 39721 40220 52015 60032 701// 85531 333 21009 3/102 43011 60005 70100 82618 84625 93718
AAXX 22061 11659 01357 83203 11004 21004 39562 40221 52016 69942 710// 886// 333 21004 3/101 44007 60005 70044 88709
AAXX 22061 11723 01680 83002 11009 21025 39914 40223 53019 69922 70242 885// 333 21027 3/106 44001 60005 70007 88647 93501
AAXX 22061 11782 01350 89901 11004 21008 39901 40217 52019 60012 72272 886// 333 21006 3/101 43008 69905 70030 85707 88710
BBXX VOFG 22064 99456 70614 46/// /1513 10056 20047 40095 58055 7//// 8//// 22200 0//// 2////
BBXX VCLM 22064 99468 70712 46/// /0304 11010 21012 40041 55002 7//// 8//// 22200 0//// 2////
BBXX VCRG 22064 99474 70619 46/// /1723 10032 20029 40064 58050 7//// 8//// 22200 0//// 2////
BBXX VCSZ 22064 99485 70621 46/// /1711 10010 20010 40058 56027 7//// 8//// 22234 0//// 2////
BBXX CG2960 22064 99423 70830 46/// /2403 10069 20042 4//// 5//// 7//// 8//// 22200 0//// 2////
BBXX CG2350 22064 99433 70798 46/// /2510 10055 20046 40125 53037 7//// 8//// 22200 0//// 2////
BBXX C6SI6 22064 99320 11252 46/// /3626 10067 20000 40246 56021 7//// 8//// 22213 0//// 2////
BBXX VRYO3 22064 99492 70239 46/// /0916 10120 20133 40101 55014 7//// 8//// 22264 00121 2////
BBXX CGDT 22064 99468 70712 46/// /0405 11007 21009 40044 55002 7//// 8//// 22200 0//// 2////
BBXX CG2965 22064 99487 71235 46/// /3003 10024 20008 40348 51004 7//// 8//// 22200 0//// 2////
BBXX CGBY 22064 99487 71235 46/// /3002 10017 20001 40346 51004 7//// 8//// 22200 0//// 2////
BBXX CGUM 22064 99452 70613 46/// /1921 10061 20058 40101 56057 7//// 8//// 22200 0//// 2////
BBXX CGBN 22064 99447 70636 46/// /1403 10100 20093 40033 56072 7//// 8//// 22200 0//// 2////
BBXX VOPP 22064 99456 70735 46/// /0201 11009 21007 4//// 5//// 7//// 8//// 22200 0//// 2////
BBXX VCBW 22064 99485 70641 46/// /3510 11027 21042 40084 58013 7//// 8//// 22232 00025 2////
BBXX CGBR 22064 99526 71285 46/// /0000 10028 20027 40287 58008 7//// 8//// 22200 0//// 2////
BBXX VOLG 22064 99447 70624 46/// /1735 10074 20073 40046 57096 7//// 8//// 22253 0//// 2////
BBXX CGDR 22064 99491 71237 46/// /2803 10031 20030 40348 51008 7//// 8//// 22271 00103 2////
BBXX CZ9742 22064 99506 70969 46/// /2703 11073 21101 40226 53019 7//// 8//// 22200 0//// 2////
BBXX CG2958 22064 99517 71281 46/// /1712 10066 21023 40290 56011 7//// 8//// 22200 0//// 2////
AAXX 22061 01218 16/// /1606 10052 21027 30017 40038 55004 69952 333 20022 70007 91112
AAXX 22061 01281 16/// /0102 11058 21069 39887 40067 56018 60002 333 21103 70009 91103
AAXX 22061 01098 16/// /2110 11034 21044 30055 40074 50000 6//// 333 21045 91113
AAXX 22061 01367 16/// /3202 11100 21116 39659 40124 56011 6//// 333 21147 91105
AAXX 22061 01415 17583 81903 10041 20018 30073 40084 53010 6//// 700// 333 21009 91114
BBXX 3FZK3 22064 99469 71256 46/// /0517 10067 20040 40284 57002 7//// 8//// 22233 0//// 2////
BBXX CGSB 22064 99489 70674 46/// /1805 11018 21060 40057 55009 7//// 8//// 22211 00017 2////
BBXX VAAP 22064 99446 70635 46/// /0102 10089 20087 40037 58075 7//// 8//// 22200 0//// 2////
BBXX VOKF 22064 99490 70669 46/// /1203 11019 21067 40051 56013 7//// 8//// 22200 0//// 2////
BBXX CGCC 22064 99463 70725 46/// /3601 11003 21004 40028 58001 7//// 8//// 22200 0//// 2////
BBXX CGDG 22064 99447 70636 46/// /1814 10093 20179 40046 56073 7//// 8//// 22200 0//// 2////
AAXX 22064 78016 32564 62109 10182 20136 30275 40279 57009 85801 333 10214 20165 79999
AAXX 22064 78583 32470 11104 10250 20228 40129 60001 81100 333 00300 59001 81817
AAXX 22061 89061 379// 02405 11010 21012 39895 49901 57013 77177 333 91006 91106
AAXX 22064 78016 32564 62109 10182 20136 30275 40279 57009 85801 333 10214 20165 79999
AAXX 22064 87692 11958 30707 10182 20166 30038 40063 58008 69901 71061 83030 333 56050 83360 555 10062
AAXX 22061 76040 32902 01501 10105 20039 30151 40165 52014 90540 333 10207 20058 30/// 55093 58006 98602
AAXX 22061 76225 32920 02901 10064 21031 38606 40111 52021 90540 333 10177 21020 30/// 55090 58022
AAXX 22061 76342 01420 61301 10080 20065 39452 40170 52002 69931 70121 867// 90550 333 10146 20076 31/// 55020 20119 561// 59036 69907 86720
AAXX 22061 76373 32906 02301 10019 21030 38186 40126 52020 90550 333 10178 20093 30/// 55043 20966 59021
AAXX 22061 76382 32460 22502 10196 20088 38854 40065 52019 82400 90543 333 10248 20125 30/// 55005 2//// 56700 58000 82614
AAXX 22061 76390 31850 32508 10151 20008 38180 40040 52012 70544 83050 90530 333 10220 20100 30/// 55077 21328 56080 59020 83356 91113
AAXX 22061 76393 32420 23101 10120 20084 39549 40125 52016 82500 90550 333 10199 20080 30/// 55090 56500 59028 82615
AAXX 22061 76402 32950 00000 10128 20096 30119 40176 52011 90545 333 10225 20070 30/// 55090 2//// 58022
AAXX 22061 76458 32960 03103 10164 20085 30151 40156 52003 90538 333 10254 20109 30/// 55027 58020
AAXX 22061 76525 32460 22010 10071 20035 37441 40092 52007 82600 90540 333 10160 20058 30/// 55096 22713 565// 59014 82715
AAXX 22061 76548 32960 00201 10204 20195 30111 40121 58002 90540 333 10256 20184 30/// 55048 59038
AAXX 22061 76556 32960 00801 10157 20118 39119 40135 52011 90534 333 10226 20107 30/// 55090 58014
AAXX 22061 76571 32910 00315 20118 20017 38145 40095 54005 90550 333 10240 20048 30/// 55088 59007
AAXX 22061 76577 32960 00000 10122 20107 38031 40095 51009 90540 333 10229 20070 30/// 55064 59005
AAXX 22061 76581 32960 00302 10148 20134 39018 40100 52013 90550 333 10295 20141 30/// 55080 59030
AAXX 22061 76593 32950 01404 10240 20226 30136 40138 52005 90550 333 10310 20208 30/// 55081 21199 59006 91006 91514
AAXX 22061 76644 32350 11203 20236 20219 30127 40139 52006 81200 90550 333 10330 20214 30/// 55086 20886 561// 59004 81810
AAXX 22061 76654 31956 00201 10234 20209 30143 40147 52015 70544 90550 333 10289 20218 30/// 55079 20815 58001
AAXX 22061 76658 31958 41402 10208 20186 39635 40134 52012 70540 80006 90546 333 10314 20166 30/// 55086 56001 58002 84070 98914
AAXX 22061 76662 32960 20701 10132 20080 38451 40099 52005 80002 90530 333 10272 20048 30/// 55098 21136 5600/ 59004 82070
AAXX 22061 76665 32958 01602 10126 20059 38109 40088 52002 90550 333 10270 20056 30/// 55082 21162 59007
AAXX 22061 76675 32960 01402 10047 20009 37371 40095 54001 90550 333 10234 21020 30/// 55092 2//// 59002
AAXX 22061 76680 31962 02702 10137 20066 37738 40071 52002 70500 90545 333 10236 20089 30/// 55097 21354 59007
AAXX 22061 76683 32962 00000 10088 20053 37817 40144 52007 90540 333 10227 20044 30/// 50301 55100 22036 59007
AAXX 22061 76685 32950 00000 10114 20041 37868 40094 52018 90550 333 10236 20068 30/// 55104 58000
AAXX 22061 76687 31458 81801 10142 20131 38651 40117 58005 70122 84500 90545 333 10237 20116 30/// 55074 563// 59021 84620
AAXX 22061 76692 31520 72301 10226 20208 30104 40123 50001 71042 875// 90545 333 10270 20196 30/// 55075 563// 59014 87630
AAXX 22061 76737 31260 80000 10165 20149 38750 40111 56003 70222 886// 90535 333 10245 20109 30/// 55087 569// 59017 88707
AAXX 22061 76750 32558 30902 10250 20231 30122 40132 57005 82130 90545 333 10324 20209 30/// 55061 56220 59003 82820
AAXX 22061 76762 32902 30000 10174 20152 38750 40106 52005 80001 90546 333 10308 2012 30/// 55097 21247 56006 59015 83070
AAXX 22061 76775 32960 02701 10146 20084 38513 40105 52011 90545 333 10293 20110 30/// 55082 59004
AAXX 22061 76805 32960 03101 10229 20221 30116 40120 52010 90535 333 10311 20220 30/// 55094 21060 59004
AAXX 22061 76833 32958 00000 10245 20223 30103 40105 52007 90545 333 10324 20220 30/// 55081 59014 92040
AAXX 22061 76848 32450 60000 10146 20115 38371 40061 56001 86600 90550 333 10264 20109 30/// 55100 56100 59008 86710
AAXX 22061 76311 32920 00000 10090 20074 39886 40165 50015 90552 333 10230 20041 30/// 55064 58037
AAXX 22061 76412 32960 02402 10126 20098 30140 40186 52011 90540 333 10250 20120 30/// 55050 58028
AAXX 22061 76640 31910 60000 10206 20203 30129 40141 50020 70311 84270 90545 333 10254 20194 30/// 55002 59010 84801
AAXX 22061 76741 31240 43202 10238 20230 30074 40093 52010 70544 84200 90535 333 10278 20200 30/// 55082 561// 59004 84804
AAXX 22061 76855 32980 03204 10246 20193 30056 40105 51008 90535 333 10328 20214 30/// 55104 59011 92000
AAXX 22061 89061 379// 02405 11010 21012 39895 49901 57013 77177 333 91006 91106
AAXX 22064 78016 32564 62109 10182 20136 30275 40279 57009 85801 333 10214 20165 79999
AAXX 22064 68386 36/// /0302 10256 20193 39688 48620 52000 333 20192 91005 555 10361 91022
BBXX CGJK 22064 99484 71234 46/// /0203 10016 20010 40342 51003 7//// 8//// 22200 0//// 2////
BBXX VAAZ 22064 99/// ///// 46/// /2632 11018 21021 40079 55000 7//// 8//// 22200 0//// 2////
BBXX VCWL 22064 99456 70735 46/// /0000 10004 20003 40028 55006 7//// 8//// 22200 0//// 2////
BBXX CGTF 22064 99476 70527 46/// /1408 11009 21042 40199 56009 7//// 8//// 22200 0//// 2////
BBXX CGDX 22064 99490 70669 46/// /1602 11018 21059 40055 56013 7//// 8//// 22200 0//// 2////
BBXX VXKF 22064 99466 70598 46/// /1918 10044 20030 40111 58042 7//// 8//// 22212 0//// 2////
AAXX 22061 02947 47/60 80000 11010 21013 40151 54000 70000 88/// 90551 333 11003 21016 3////
AAXX 22064 64550 11/01 9//// 10200 20200 30/// 40/// 60044 74544 333 02129 20199 50155 55/// 5//// 89///
AAXX 22064 64500 32360 61806 10255 20230 30109 40122 86500 333 02500 20245 50131 55060 59002 84608 86633
AAXX 22061 76040 32902 01501 10105 20039 30151 40165 52014 90540 333 10207 20058 30/// 55093 58006 98602
AAXX 22061 76225 32920 02901 10064 21031 38606 40111 52021 90540 333 10177 21020 30/// 55090 58022
AAXX 22061 76342 01420 61301 10080 20065 39452 40170 52002 69931 70121 867// 90550 333 10146 20076 31/// 55020 20119 561// 59036 69907 86720
AAXX 22061 76373 32906 02301 10019 21030 38186 40126 52020 90550 333 10178 20093 30/// 55043 20966 59021
AAXX 22061 76382 32460 22502 10196 20088 38854 40065 52019 82400 90543 333 10248 20125 30/// 55005 2//// 56700 58000 82614
AAXX 22061 76390 31850 32508 10151 20008 38180 40040 52012 70544 83050 90530 333 10220 20100 30/// 55077 21328 56080 59020 83356 91113
AAXX 22061 76393 32420 23101 10120 20084 39549 40125 52016 82500 90550 333 10199 20080 30/// 55090 56500 59028 82615
AAXX 22061 76402 32950 00000 10128 20096 30119 40176 52011 90545 333 10225 20070 30/// 55090 2//// 58022
AAXX 22061 76458 32960 03103 10164 20085 30151 40156 52003 90538 333 10254 20109 30/// 55027 58020
AAXX 22061 76525 32460 22010 10071 20035 37441 40092 52007 82600 90540 333 10160 20058 30/// 55096 22713 565// 59014 82715
AAXX 22061 76548 32960 00201 10204 20195 30111 40121 58002 90540 333 10256 20184 30/// 55048 59038
AAXX 22061 76556 32960 00801 10157 20118 39119 40135 52011 90534 333 10226 20107 30/// 55090 58014
AAXX 22061 76571 32910 00315 20118 20017 38145 40095 54005 90550 333 10240 20048 30/// 55088 59007
AAXX 22061 76577 32960 00000 10122 20107 38031 40095 51009 90540 333 10229 20070 30/// 55064 59005
AAXX 22061 76581 32960 00302 10148 20134 39018 40100 52013 90550 333 10295 20141 30/// 55080 59030
AAXX 22061 76593 32950 01404 10240 20226 30136 40138 52005 90550 333 10310 20208 30/// 55081 21199 59006 91006 91514
AAXX 22061 76644 32350 11203 20236 20219 30127 40139 52006 81200 90550 333 10330 20214 30/// 55086 20886 561// 59004 81810
AAXX 22061 76654 31956 00201 10234 20209 30143 40147 52015 70544 90550 333 10289 20218 30/// 55079 20815 58001
AAXX 22061 76658 31958 41402 10208 20186 39635 40134 52012 70540 80006 90546 333 10314 20166 30/// 55086 56001 58002 84070 98914
AAXX 22061 76662 32960 20701 10132 20080 38451 40099 52005 80002 90530 333 10272 20048 30/// 55098 21136 5600/ 59004 82070
AAXX 22061 76665 32958 01602 10126 20059 38109 40088 52002 90550 333 10270 20056 30/// 55082 21162 59007
AAXX 22061 76675 32960 01402 10047 20009 37371 40095 54001 90550 333 10234 21020 30/// 55092 2//// 59002
AAXX 22061 76680 31962 02702 10137 20066 37738 40071 52002 70500 90545 333 10236 20089 30/// 55097 21354 59007
AAXX 22061 76683 32962 00000 10088 20053 37817 40144 52007 90540 333 10227 20044 30/// 50301 55100 22036 59007
AAXX 22061 76685 32950 00000 10114 20041 37868 40094 52018 90550 333 10236 20068 30/// 55104 58000
AAXX 22061 76687 31458 81801 10142 20131 38651 40117 58005 70122 84500 90545 333 10237 20116 30/// 55074 563// 59021 84620
AAXX 22061 76692 31520 72301 10226 20208 30104 40123 50001 71042 875// 90545 333 10270 20196 30/// 55075 563// 59014 87630
AAXX 22061 76737 31260 80000 10165 20149 38750 40111 56003 70222 886// 90535 333 10245 20109 30/// 55087 569// 59017 88707
AAXX 22061 76750 32558 30902 10250 20231 30122 40132 57005 82130 90545 333 10324 20209 30/// 55061 56220 59003 82820
AAXX 22061 76762 32902 30000 10174 20152 38750 40106 52005 80001 90546 333 10308 2012 30/// 55097 21247 56006 59015 83070
AAXX 22061 76775 32960 02701 10146 20084 38513 40105 52011 90545 333 10293 20110 30/// 55082 59004
AAXX 22061 76805 32960 03101 10229 20221 30116 40120 52010 90535 333 10311 20220 30/// 55094 21060 59004
AAXX 22061 76833 32958 00000 10245 20223 30103 40105 52007 90545 333 10324 20220 30/// 55081 59014 92040
AAXX 22061 76848 32450 60000 10146 20115 38371 40061 56001 86600 90550 333 10264 20109 30/// 55100 56100 59008 86710
AAXX 22061 76311 32920 00000 10090 20074 39886 40165 50015 90552 333 10230 20041 30/// 55064 58037
AAXX 22061 76412 32960 02402 10126 20098 30140 40186 52011 90540 333 10250 20120 30/// 55050 58028
AAXX 22061 76640 31910 60000 10206 20203 30129 40141 50020 70311 84270 90545 333 10254 20194 30/// 55002 59010 84801
AAXX 22061 76741 31240 43202 10238 20230 30074 40093 52010 70544 84200 90535 333 10278 20200 30/// 55082 561// 59004 84804
AAXX 22061 76855 32980 03204 10246 20193 30056 40105 51008 90535 333 10328 20214 30/// 55104 59011 92000
AAXX 22061 76040 32902 01501 10105 20039 30151 40165 52014 90540 33310207 20058 30/// 55093 58006 98602
AAXX 22061 76225 32920 02901 10064 21031 38606 40111 52021 90540 33310177 21020 30/// 55090 58022
AAXX 22061 76342 01420 61301 10080 20065 39452 40170 52002 69931 70121867// 90550 333 10146 20076 31/// 55020 20119 561// 5903669907 86720
AAXX 22061 76373 32906 02301 10019 21030 38186 40126 52020 90550 33310178 20093 30/// 55043 20966 59021
AAXX 22061 76382 32460 22502 10196 20088 38854 40065 52019 82400 90543333 10248 20125 30/// 55005 2//// 56700 58000 82614
AAXX 22061 76390 31850 32508 10151 20008 38180 40040 52012 70544 8305090530 333 10220 20100 30/// 55077 21328 56080 59020 8335691113
AAXX 22061 76393 32420 23101 10120 20084 39549 40125 52016 82500 90550333 10199 20080 30/// 55090 56500 59028 82615
AAXX 22061 76402 32950 00000 10128 20096 30119 40176 52011 90545 33310225 20070 30/// 55090 2//// 58022
AAXX 22061 76458 32960 03103 10164 20085 30151 40156 52003 90538 33310254 20109 30/// 55027 58020
AAXX 22061 76525 32460 22010 10071 20035 37441 40092 52007 82600 90540333 10160 20058 30/// 55096 22713 565// 59014 82715
AAXX 22061 76548 32960 00201 10204 20195 30111 40121 58002 90540 33310256 20184 30/// 55048 59038
AAXX 22061 76556 32960 00801 10157 20118 39119 40135 52011 90534 33310226 20107 30/// 55090 58014
AAXX 22061 76571 32910 00315 20118 20017 38145 40095 54005 90550 33310240 20048 30/// 55088 59007
AAXX 22061 76577 32960 00000 10122 20107 38031 40095 51009 90540 33310229 20070 30/// 55064 59005
AAXX 22061 76581 32960 00302 10148 20134 39018 40100 52013 90550 33310295 20141 30/// 55080 59030
AAXX 22061 76593 32950 01404 10240 20226 30136 40138 52005 90550 33310310 20208 30/// 55081 21199 59006 91006 91514
AAXX 22061 76644 32350 11203 20236 20219 30127 40139 52006 81200 90550333 10330 20214 30/// 55086 20886 561// 59004 81810
AAXX 22061 76654 31956 00201 10234 20209 30143 40147 52015 70544 90550333 10289 20218 30/// 55079 20815 58001
AAXX 22061 76658 31958 41402 10208 20186 39635 40134 52012 70540 8000690546 333 10314 20166 30/// 55086 56001 58002 84070 98914
AAXX 22061 76662 32960 20701 10132 20080 38451 40099 52005 80002 90530333 10272 20048 30/// 55098 21136 5600/ 59004 82070
AAXX 22061 76665 32958 01602 10126 20059 38109 40088 52002 90550 33310270 20056 30/// 55082 21162 59007
AAXX 22061 76675 32960 01402 10047 20009 37371 40095 54001 90550 33310234 21020 30/// 55092 2//// 59002
AAXX 22061 76680 31962 02702 10137 20066 37738 40071 52002 70500 90545333 10236 20089 30/// 55097 21354 59007
AAXX 22061 76683 32962 00000 10088 20053 37817 40144 52007 90540 33310227 20044 30/// 50301 55100 22036 59007
AAXX 22061 76685 32950 00000 10114 20041 37868 40094 52018 90550 33310236 20068 30/// 55104 58000
AAXX 22061 76687 31458 81801 10142 20131 38651 40117 58005 70122 8450090545 333 10237 20116 30/// 55074 563// 59021 84620
AAXX 22061 76692 31520 72301 10226 20208 30104 40123 50001 71042 875//90545 333 10270 20196 30/// 55075 563// 59014 87630
AAXX 22061 76737 31260 80000 10165 20149 38750 40111 56003 70222 886//90535 333 10245 20109 30/// 55087 569// 59017 88707
AAXX 22061 76750 32558 30902 10250 20231 30122 40132 57005 82130 90545333 10324 20209 30/// 55061 56220 59003 82820
AAXX 22061 76762 32902 30000 10174 20152 38750 40106 52005 80001 90546333 10308 2012 30/// 55097 21247 56006 59015 83070
AAXX 22061 76775 32960 02701 10146 20084 38513 40105 52011 90545 33310293 20110 30/// 55082 59004
AAXX 22061 76805 32960 03101 10229 20221 30116 40120 52010 90535 33310311 20220 30/// 55094 21060 59004
AAXX 22061 76833 32958 00000 10245 20223 30103 40105 52007 90545 33310324 20220 30/// 55081 59014 92040
AAXX 22061 76848 32450 60000 10146 20115 38371 40061 56001 86600 90550333 10264 20109 30/// 55100 56100 59008 86710
AAXX 22061 76311 32920 00000 10090 20074 39886 40165 50015 90552 33310230 20041 30/// 55064 58037
AAXX 22061 76412 32960 02402 10126 20098 30140 40186 52011 90540 33310250 20120 30/// 55050 58028
AAXX 22061 76640 31910 60000 10206 20203 30129 40141 50020 70311 8427090545 333 10254 20194 30/// 55002 59010 84801
AAXX 22061 76741 31240 43202 10238 20230 30074 40093 52010 70544 8420090535 333 10278 20200 30/// 55082 561// 59004 84804
AAXX 22061 76855 32980 03204 10246 20193 30056 40105 51008 90535 33310328 20214 30/// 55104 59011 92000
AAXX 22061 02947 47/60 80000 11010 21013 40151 54000 70000 88/// 90551 333 11003 21016 3////
AAXX 22064 60127 32960 00000 10070 20038 39681 40295 5//// 333 20065 81004
AAXX 22064 60141 32960 02107 10046 20016 39608 40300 58004 333 20030
AAXX 22064 60190 32975 00803 10037 20014 40294 54000 333 20037 30002
AAXX 22064 60191 32970 00000 10030 20022 40301 5//// 333 20025 30104
AAXX 22064 60210 32965 01203 10038 21037 39085 48583 53005 333 20034
AAXX 22064 60265 32970 03101 10020 21066 38987 48588 53001 333 20020
AAXX 22064 60060 NIL
AAXX 22064 60105 NIL
AAXX 22064 60106 NIL
AAXX 22064 60107 NIL
AAXX 22064 60185 NIL
AAXX 22064 60195 NIL
AAXX 22064 60220 NIL
AAXX 22064 60318 NIL
AAXX 22061 11812 36/// /9905 11015 21015 39497 42795 52016 333 21015 3////
AAXX 22061 11813 11465 62802 10004 21007 39861 40220 52016 69902 70262 86500 333 20002 3/102 43002 70030 81710 86640
AAXX 22061 11816 11760 53104 10018 21008 30047 40215 52016 69912 70162 85540 333 20007 3/101 41998 70039 85650
AAXX 22061 11819 16/// /3503 10001 21013 39992 40215 52018 60022 333 21065 3/112
AAXX 22061 11826 12361 80000 11041 21049 30005 40215 52016 69922 885// 333 21103 3/114 47006 70037 82708 88650
AAXX 22061 11841 11218 80000 11025 21035 39823 40214 52017 69962 77177 885// 333 21038 3/106 47005 70015 84704 88629
AAXX 22061 11855 12765 73203 11010 21024 30038 40210 52016 69942 875// 333 21037 3/107 47003 70022 87656
AAXX 22061 11856 16/// /9903 11004 21020 39878 40207 52017 69912 333 21029 3/105
AAXX 22061 11858 12580 72903 11023 21026 30054 40212 52017 69922 87500 333 21048 3/111 43001 70018 87630
AAXX 22061 11867 11625 82201 11029 21046 39883 40213 52016 69952 77172 885// 333 21030 3/103 47004 70029 84636 88650
AAXX 22061 11880 11420 80000 11026 21031 30031 40210 52017 69902 71072 885// 333 21031 3/104 47002 70004 88616
AAXX 22061 11900 16/// /0000 11034 21040 39865 40215 52017 69902 333 21039 3//// 70003
AAXX 22061 11903 11650 80000 11038 21045 39812 40210 52015 69902 71022 885// 333 21053 3/106 47001 70004 88646
AAXX 22061 11916 11/00 93410 11110 21127 37894 48421 52015 60012 77174 333 21110 3//// 48048 70027 89/00 93598 96049
AAXX 22061 11918 11463 83302 11026 21031 39353 42782 52016 69922 77122 885// 333 21044 3/105 47008 70007 88616
AAXX 22061 11927 11358 83601 11034 21041 39938 40212 52017 69912 71022 886// 333 21063 3/110 47001 70006 88707
AAXX 22061 11930 12/82 13506 11135 21148 37269 47929 52013 69992 81500 333 21156 3//// 48035 70024 816// 93564 444 16//9 76255
AAXX 22061 11933 11/20 80000 11066 21070 38631 48445 53016 69992 77177 885// 333 21082 3/112 48041 70012 817// 88616 444 17//1
AAXX 22061 11934 11245 80000 11063 21071 39350 42780 53016 69902 77144 885// 333 21089 3/110 42001 70001 85703 88640
AAXX 22061 11938 11450 89901 11078 21093 39099 42776 52016 69902 77122 885// 333 21097 3/111 44016 79999 82710 88630
AAXX 22061 11952 16/// /0000 11056 21060 39342 42781 52016 60002 333 21063 3/107 70000
AAXX 22061 11958 36/// /9902 11066 21075 38717 48446 52013 333 21096 3////
AAXX 22061 11968 11435 80101 11022 21032 39916 40208 52017 60012 71074 885// 333 21028 3/105 43002 70010 88617
AAXX 22061 11976 11320 81801 11014 21021 39936 40209 52017 69952 71072 885// 333 21018 3/102 43001 70005 85706 88623
AAXX 22061 11978 11230 81201 11009 21014 30070 40205 52015 60012 71077 886// 333 21015 3/103 43001 70010 88706
AAXX 22061 11993 11460 80000 11008 21021 39985 40209 52014 69902 70272 886// 333 21014 3/102 43001 79999 88713
AAXX 22064 81401 06/// /0101 10223 20215 30083 40089 60001 333 55/// 60007 59015 7//// 555 60005
AAXX 22064 81408 06/// /0000 10232 2//// 30078 40086 60001 333 55/// 60007 59010 7//// 555 60005
AAXX 22064 60150 32960 21602 10056 20033 39620 40298 57004 80002 333 20046 30002 82070
AAXX 22064 60155 32958 118// 10100 20076 40273 57005 80002 333 20098 81070
AAXX 22064 60096 NIL
AAXX 22064 60101 NIL
AAXX 22064 60115 NIL
AAXX 22064 60135 NIL
AAXX 22064 60156 NIL
AAXX 22064 60230 NIL
AAXX 22064 60252 NIL
AAXX 22064 89642 46/// /0102 10020 21052 39807 49859 53008 333 55208 23637
BBXX DBLK 22061 99705 50081 41498 71304 11057 21065 49801 52011 70222 86848 22200 05016 ICE 18780
AAXX 22064 60285 NIL
AAXX 22064 60340 NIL
BBXX 41010 22061 99289 70785 46/// /1507 10233 40209 58015 90550 22200 00239 10603 20602 300// 41101 70014 333 91208 555 11074 22078
BBXX 41009 22061 99285 70802 46/// /1706 10240 20189 40202 58008 90550 22200 00242 11303 20402 300// 41302 70014 333 91207 555 11064 22067
BBXX 42057 22061 99168 70815 46/// /0911 10278 20228 40129 58015 90550 22200 00277 10805 20805 70024 333 91214 555 11113 22120 30536 40915 60549 092113 088121 092109 089103 082104 083113 80913 90535
AAXX 22064 48601 11559 71104 10310 20255 30075 40079 60001 70522 82232 333 82820 85364 87077
AAXX 22064 48615 11462 70713 10284 20246 30082 40088 60001 70522 84148 333 84818 87272
AAXX 22064 48620 11465 70902 10299 20249 30073 40082 60011 70562 82948 333 81917 84365 87276
AAXX 22064 48647 11460 81302 10275 20256 30062 40087 60021 76162 82547 333 81710 84364 88276
AAXX 22064 48657 11340 80506 10254 20242 30071 40089 60211 76166 84548 333 81708 84624 86464
AAXX 22064 48665 11564 70205 10255 20241 30081 40091 60021 76162 83848 333 81820 84364 86277
AAXX 22064 96413 12575 72804 10305 20247 30042 40068 6///1 83131 333 83820 85365
AAXX 22064 96421 12480 72204 10299 20240 30027 40062 6///1 84131 333 84818 86365
AAXX 22064 96441 11480 72003 10297 20242 30034 40061 6///1 70362 84231 333 84812 85365
AAXX 22064 96449 11456 71903 10254 20244 30051 40070 60051 76166 8457/ 333 84614 87365
AAXX 22064 96465 11478 72807 10295 20260 30028 40061 6///1 70362 83938 333 82812 81914 84364 87279
AAXX 22064 96471 11474 72803 10326 20272 30055 40058 60001 70522 82848 333 82814 83364 87278
AAXX 22064 96481 11460 61806 10332 20269 30030 40049 60001 71522 83841 333 82817 85080
AAXX 22064 96491 11460 70103 10275 20255 30048 40060 60111 72162 84848 333 82815 83645 87276
AAXX 22061 11518 02568 62504 11004 21013 39773 40227 52013 60022 82571 333 21010 3/104 43001 60005 70023 82630 85365 93703
BBXX 46061 22061 99602 71468 46/// /0204 10017 40034 56025 90550 22200 00058 11105 20401 300// 41105 70025 333 91206 555 11037 22038 30450 41006 60549 023038 064030 103018 115032 111044 101050
AAXX 22064 78954 12580 30821 10259 20216 30058 40122 60001 83800 333 10297 20253 59010 83820
AAXX 22064 78954 12580 30821 10259 20216 30058 40122 60001 83800 333 10297 20253 59010 83820
BBXX 44172 22061 99445 70634 46/// ///// 1//// 90601 22200 00064 10806 20806 316// 41101 70030
BBXX 44097 22061 99410 70711 46/// ///// 1//// 90602 22200 00120 10808 20808 322// 41101 70039
AAXX 22061 33815 32997 50101 11006 21031 39970 40128 80030 333 21018 42000 555 80014
BBXX 46232 22061 99325 71174 46/// ///// 1//// 90538 22200 00151 11302 21002 325// 41302 70012
BBXX 46247 22061 99378 71228 46/// ///// 1//// 90551 22200 00111 11305 21004 329// 41303 70025
BBXX 46243 22061 99462 71241 46/// ///// 1//// 90559 22200 00080 11304 20903 326// 41303 70020
BBXX 46236 22061 99368 71219 46/// ///// 1//// 90550 22200 00125 11305 21003 329// 41304 70025
BBXX 46229 22061 99438 71246 46/// ///// 1//// 90551 22200 00098 11305 21003 329// 41303 70023
BBXX 46225 22061 99329 71174 46/// ///// 1//// 90544 22200 00147 11402 21001 326// 41401 70009
BBXX 46213 22061 99403 71247 46/// ///// 1//// 90554 22200 00100 11307 20805 330// 41304 70034
BBXX 46215 22061 99352 71209 46/// ///// 1//// 90538 22200 00142 11303 21002 327// 41303 70016
BBXX 46218 22061 99345 71208 46/// ///// 1//// 90602 22200 00140 11406 20903 331// 41406 70032
BBXX 46219 22061 99332 71199 46/// ///// 1//// 90558 22200 00139 11304 21003 329// 41303 70022
BBXX 46224 22061 99332 71175 46/// ///// 1//// 90536 22200 00148 11302 20501 324// 41301 70008
BBXX 46214 22061 99379 71235 46/// ///// 1//// 90553 22200 00116 11306 20904 330// 41304 70031
BBXX 44100 22061 99363 70756 46/// ///// 1//// 90552 22200 00121 10702 20702 308// 41301 70011
BBXX 41110 22061 99341 70777 46/// ///// 1//// 90551 22200 00139 10702 20702 310// 41401 70012
BBXX 42099 22061 99273 70842 46/// ///// 1//// 90557 22200 00231 10503 20503 70013
BBXX 41113 22061 99284 70805 46/// ///// 1//// 90551 22200 00211 10602 20602 308// 41401 70010
BBXX 41112 22061 99307 70813 46/// ///// 1//// 90551 22200 00160 10602 20602 309// 41301 70010
BBXX 44099 22061 99369 70757 46/// ///// 1//// 90552 22200 00107 10802 20802 309// 41101 70011
BBXX 44039 22061 99411 70727 46/// /2309 10118 20103 40076 90545 22200 00093 10402 70008 333 91211
AAXX 22064 71805 04568 82022 10031 20005 30166 40175 58023 60002 700// 333 10031 21007 31101 55008 60007 70000 90710 91132 555 60005
AAXX 22064 13600 NIL
AAXX 22064 13610 NIL
AAXX 22064 13611 NIL
AAXX 22064 13619 NIL
AAXX 22064 13622 NIL
AAXX 22064 13624 NIL
AAXX 22064 13625 NIL
AAXX 22064 13629 NIL
AAXX 22064 13601 12665 83610 10064 21038 39936 40037 57011 69922 84510 333 20050 31/// 84640 84461
AAXX 22064 13602 NIL
AAXX 22064 13623 NIL
AAXX 22064 16021 NIL
AAXX 22064 16022 NIL
AAXX 22064 16033 12562 31104 11052 21052 38775 48475 52005 60002 83500 333 21052 43020 55/// 2//// 83625 92822
AAXX 22064 16040 12965 00000 11036 21040 39275 42799 5//// 60002 333 21042 42998 55/// 2//// 92832
AAXX 22064 16052 11/01 90625 11108 21125 36610 47046 52014 69962 77174 333 21126 49999 55000 22800 89/01 93199 96045
AAXX 22064 16061 12984 00000 10032 21055 39339 42787 53020 60002 333 20032 30/// 55063 2////
AAXX 22064 16098 12965 23303 11002 21036 30145 40199 52016 60002 80001 333 21012 34///
AAXX 22064 16138 11956 00000 11024 21032 30190 40201 53008 60002 710// 333 21033 34/// 55/// 2////
AAXX 22064 16148 12970 02906 11012 21019 30188 40201 52015 60002 333 21020 32/// 55074 2//// 55300
AAXX 22064 16168 12980 00412 10034 21138 39399 42760 52007 60002 333 20034 30///
AAXX 22064 16172 12964 00000 11040 21044 39885 40200 53009 60002 333 21040 34/// 55/// 2//// 92611
AAXX 22064 16179 12575 42207 10000 21100 39490 42778 53010 60002 84100 333 21002 43005 84830 92842
AAXX 22064 16224 12868 10604 10048 21066 39826 40151 52009 60002 81030 333 20032 30/// 55078 2//// 81358
AAXX 22064 16232 12598 63430 10102 21021 30080 40133 51012 60002 86800 333 20080 30/// 55022 20240 55300 84826 555 0547/
AAXX 22064 16245 12968 00110 10032 21030 30125 40152 52011 60002 333 20022 30/// 55/// 2////
AAXX 22064 16253 12560 40120 10046 21008 30137 40150 52015 60002 84200 333 20010 30/// 55074 20809 55300 84825
AAXX 22064 16258 12565 73635 10004 21054 39080 42699 57022 60002 84530 333 21010 44005 55/// 2//// 84620 83358
AAXX 22064 16263 11062 33417 11006 21017 38852 48416 53000 60012 72874 83800 333 21010 48002 55/// 2//// 83800 92808 93120
AAXX 22064 16294 NIL
AAXX 22064 16337 12798 23615 10036 21067 39519 40100 52001 60002 82010 333 20028 32/// 55/// 2//// 82450 555 0326/
AAXX 22064 16344 11/00 90510 11054 21054 38209 48403 51005 60002 74544 333 21060 47042 55000 20697 89/00 95090 95190
AAXX 22064 16434 13468 40310 10014 21010 38911 48412 55001 60002 84200 333 20010 30/// 55/// 2//// 84818 95000 95100
AAXX 22064 16450 11160 63004 10028 20025 38995 48458 53003 60022 70364 86770 333 20028 31/// 55/// 2//// 83703 83806 85356
AAXX 22064 16459 12560 62710 10084 20048 30067 40102 51005 60002 83270 333 20052 32/// 55/// 2//// 83820 85357
AAXX 22064 16546 12364 23404 10050 20041 30133 40162 53011 60002 82600 333 20050 30/// 55/// 2//// 82708
AAXX 22064 16564 NIL
AAXX 22064 16008 12562 60106 11028 21063 38520 48480 52008 60002 86500 333 21040 43014 55/// 2//// 86620 92810
AAXX 22064 16084 12982 02705 11050 21050 30032 40209 52021 60002 333 21050 34/// 55026 20338
AAXX 22064 16088 12960 03101 11043 21043 30084 40209 52015 60002 333 21050 34/// 55/// 2////
AAXX 22064 16110 12998 40811 10060 21050 30181 40185 52007 60002 80005 333 20036 30/// 55043 20532 555 0////
AAXX 22064 16134 NIL
AAXX 22064 16153 12999 01601 10090 20056 39914 40181 52012 60002 333 20083 30/// 55072 2//// 555 0////
AAXX 22064 16158 12960 01404 11016 21024 30177 40185 52013 60002 333 21016 34/// 55049 2////
AAXX 22064 16206 12982 00506 11024 21040 30167 40176 53009 60002 333 21024 34/// 55/// 2////
AAXX 22064 16219 NIL
AAXX 22064 16252 11215 82906 11006 21010 39188 42754 54000 60012 72274 885// 333 21010 48008 55001 2//// 88605 95090
AAXX 22064 16280 12598 23610 10088 20015 39911 40135 52006 60002 82100 333 20086 30/// 55074 2//// 82820 555 0328/
AAXX 22064 16310 12597 52316 10076 21039 39873 40096 52003 60002 82270 333 20048 30/// 55014 2//// 82830 555 0////
AAXX 22064 16320 12660 30427 10094 20025 30064 40077 58003 60002 83500 333 20088 30002 55000 20205 55300 83635 555 0631/
AAXX 22064 16325 12598 13017 10054 20029 30070 40084 53002 60002 81100 333 20046 30/// 55/// 2//// 81820 98075 555 0100/
AAXX 22064 16360 12497 33420 10074 20013 39913 40048 56003 60042 81130 333 20056 32/// 55000 2//// 81818 83359 91035 555 0438/
AAXX 22064 16400 13498 51607 10098 20013 39839 40130 53001 60002 85100 333 20094 30/// 55033 2//// 55300 85817 555 0433/
AAXX 22064 16420 12597 63407 10110 21011 30029 40094 53005 69942 86800 333 20108 32/// 55012 2//// 82825 84635 555 0200/
AAXX 22064 16429 12562 43511 10120 20045 30123 40135 53001 60002 84200 333 20110 32/// 55060 2//// 55300 84823
AAXX 22064 16470 12460 33311 10120 20087 39897 40133 54000 60042 83500 333 20104 31/// 55031 2//// 55300 22/// 83616 95000
AAXX 22064 16480 12498 53107 10068 20023 30029 40091 55000 69982 85800 333 20064 32/// 55026 2//// 55300 82815 84620 555 0316/
AAXX 22064 16522 12998 00803 10108 20092 39924 40169 53013 60002 333 20108 30/// 55062 2//// 55300 555 0////
AAXX 22064 16539 13998 20906 10074 20064 30050 40167 53011 69942 80001 333 20074 31/// 55/// 2//// 555 0////
AAXX 22064 16550 12598 13013 10098 20029 39954 40135 52008 60002 81100 333 20086 30/// 55075 2//// 81830 555 0////
AAXX 22064 65201 31312 60000 10240 20234 30085 40140 71022 82508 333 20235 56000 57632 58009 82608 86280 94463
BBXX 51204 22061 99213 71581 46/// ///// 1//// 90552 22200 00247 11303 20702 330// 41301 70014
BBXX 51203 22061 99208 71570 46/// ///// 1//// 90543 22200 00249 11302 20301 328// 41301 70008
BBXX 51201 22061 99217 71581 46/// ///// 1//// 90542 22200 00240 11104 20704 333// 41102 70020
BBXX 51202 22061 99214 71577 46/// ///// 1//// 90539 22200 00242 10806 20806 334// 41101 70028
AAXX 22064 16045 NIL
AAXX 22064 16090 12960 03303 11030 21033 30115 40202 52014 60002 333 21034 34/// 55053 20470
AAXX 22064 16149 12965 02603 11020 21053 30171 40188 52008 60002 333 21040 34/// 55/// 2////
AAXX 22064 16261 12570 52913 10058 20008 30045 40119 58004 60002 83531 333 20016 30/// 55059 20455 55300 83630
AAXX 22064 16453 11597 30203 10102 20037 30032 40110 55001 60002 702// 83500 333 20092 31/// 55024 2//// 55300 83623 555 0100/
AAXX 22064 16560 12565 22805 10064 20038 30159 40165 53014 60002 82100 333 20060 31005 55080 20981 82820
AAXX 22064 86033 NIL
AAXX 22064 86086 32970 03606 10270 20210 39964 40053 52002
AAXX 22064 86097 32970 03612 10220 20171 39442 40082 57019
AAXX 22064 86134 32970 00712 10256 20198 39964 40050 56009
AAXX 22064 86170 NIL
AAXX 22064 86192 32970 03208 10266 20155 39886 40102 51001
AAXX 22064 86210 NIL
AAXX 22064 86218 32970 00106 10266 20210 39940 40034 57025
AAXX 22064 86221 NIL
AAXX 22064 86233 32970 00000 10242 20176 39869 40056 58011
AAXX 22064 86246 32970 00000 10194 20150 39776 40065 57014
AAXX 22064 86255 32970 00504 10284 20184 39967 40033 55002
AAXX 22064 86260 32970 00504 10266 20139 39877 40025 57018
AAXX 22064 86268 32970 00000 10258 20182 39910 40078 56003
AAXX 22064 86297 NIL
BBXX BATEU05 22064 99581 70295 46/// /2325 10057 20015 49764 55053 22223
BBXX 51205 22061 99210 71564 46/// ///// 1//// 90548 22200 00240 10905 20905 332// 41202 70025
BBXX 46238 22061 99334 71195 46/// ///// 1//// 90550 22200 00142 11403 20902 329// 41403 70017
BBXX 46239 22061 99363 71221 46/// ///// 1//// 90551 22200 00136 11107 21003 330// 41106 70033
AAXX 22064 61968 16/// /2403 10307 20241 40127 60024 333 20257 55/// 58000 90710 91109 555 60005
AAXX 22064 61980 11560 51012 10257 20228 40160 60214 72582 85802 333 023// 20235 55066 58006 83820 84643 90710 91124 92437 555 69925
AAXX 22064 67005 12575 33207 10288 20223 40127 60064 82831 333 02317 20243 55051 59001 81822 83360 90710 91111 555 60005
BBXX 44011 22061 99411 70666 46/// /2109 10125 20125 40088 56029 90550 22200 00095 10805 20805 3//// 41001 70025 333 91211 555 11096 22107 30517 40315 60549 209088 212099 210117 206122 208106 210115
BBXX 41046 22061 99238 70683 46/// /0810 10244 20170 40222 57008 90550 22200 00254 10806 20805 300// 41203 70031 333 91212 555 11109 22115 30519 40813 60549 083102 084101 084105 086107 084108 084106 80811 90519
BBXX 42363 22061 99282 70892 46/// /1206 10217 20200 40163 58003 90600 333 91206
BBXX 42364 22061 99291 70881 46/// /1605 10211 20194 40163 58003 90600
AAXX 22061 01447 16/// /0101 11067 21073 39437 40133 55004 60012 333 21107 70012 91102
AAXX 22064 48300 31962 02602 10235 20149 39817 40131 57034 70141 333 59012
AAXX 22064 48327 32960 10000 10279 20149 39778 40130 57034 80001 333 59012
AAXX 22064 48331 31960 10000 10276 20167 39904 40133 57033 70240 80001 333 59009
AAXX 22064 48353 31658 31504 10278 20162 39843 40130 57027 70541 82130 333 59005
AAXX 22064 48356 32960 50202 10275 20162 39937 40133 57031 85030 333 59005
AAXX 22064 48375 32560 60000 10290 20171 39881 40104 57029 82536 333 59001
AAXX 22064 48378 31557 63105 10278 20179 30080 40132 57020 70520 83846 333 59004
AAXX 22064 48381 32560 60605 10283 20166 39906 40121 57030 81155 333 59012
AAXX 22064 48407 NIL
AAXX 22064 48431 32560 40606 10283 20188 39904 40116 57030 82105 333 59012
AAXX 22064 48456 NIL
AAXX 22064 48480 32560 50105 10312 20195 30085 40089 57030 82805 333 59016
AAXX 22064 48500 31940 50108 10302 20200 30090 40097 57024 70511 80006 333 59011
AAXX 22064 48551 31556 60305 10280 20244 30088 40096 57015 71022 83867 333 59011 70004
AAXX 22064 48565 31557 60805 10305 20234 30074 40084 57004 71022 82246 333 59001
AAXX 22064 48569 01560 70711 10298 20253 30049 40089 57015 60011 70262 84246 333 59012 69907 70067
AAXX 22064 48583 NIL
AAXX 22064 48302 32560 21203 10170 20115 38487 40116 57003 81205 333 58001
AAXX 22064 48304 31565 20000 10259 20153 39676 40134 57032 70340 81105 333 59010
AAXX 22064 48334 31958 20000 10265 20159 39773 40133 57026 70500 80005 333 59008
AAXX 22064 48360 NIL
AAXX 22064 48372 31958 50000 10282 20203 30068 40126 57028 70511 82035 333 59015
AAXX 22064 48373 NIL
AAXX 22064 48386 31558 60000 10264 20177 30074 40118 55018 70522 82545 333 59008
AAXX 22064 48387 NIL
AAXX 22064 48408 32562 60408 10301 20187 39956 40104 57029 82146 333 59016
AAXX 22064 48415 31958 40506 10300 20193 30099 40110 57026 70511 81046 333 59012
AAXX 22064 48433 31559 40108 10298 20194 39946 40109 57033 70510 82506 333 59019
AAXX 22064 48437 NIL
AAXX 22064 48440 31958 10305 10314 20203 30048 40097 57029 70500 80005 333 59013
AAXX 22064 48451 32961 60304 10281 20193 30104 40115 57026 80006 333 59014
AAXX 22064 48454 32960 53103 10320 20203 30091 40098 57028 80006 333 59016
AAXX 22064 48457 31920 60000 10275 20207 30090 40107 57023 71022 80006 333 59012
AAXX 22064 48463 31940 63605 10309 20195 30022 40114 58023 70522 80006 333 59017
AAXX 22064 48464 31957 30112 10291 20196 30087 40099 57026 70511 80001 333 59011
AAXX 22064 48479 31958 40105 10325 20196 30047 40098 57025 70521 80006 333 59011
AAXX 22064 48520 31559 61010 10282 20216 30080 40095 55015 70522 83546 333 59010
AAXX 22064 48554 01430 80000 10272 20262 30085 40090 57012 69961 71662 889// 333 59009 69935 70039
AAXX 22064 48563 31558 60604 10295 20236 30045 40081 57013 71022 82246 333 59010
AAXX 22064 48571 01560 60805 10298 20233 30074 40085 57016 60031 70262 82876 333 59010 60016 70322
AAXX 22064 48310 31558 12808 10205 20092 39679 40141 57034 70540 81500 333 59005
AAXX 22064 48325 NIL
AAXX 22064 48329 31956 00000 10272 20164 39796 40132 57027 70500 333 59007
AAXX 22064 48352 31958 30403 10282 20140 39934 40133 57029 70510 81045 333 59003
AAXX 22064 48357 32560 70903 10284 20149 39962 40129 57027 81136 333 59007
AAXX 22064 48380 NIL
AAXX 22064 48383 NIL
AAXX 22064 48403 31558 60704 10286 20177 39907 40115 57030 70522 82546 333 59006
AAXX 22064 48405 32960 60206 10282 20176 39963 40125 57023 80006 333 59004
AAXX 22064 48420 31956 70602 10310 20173 30099 40104 57024 70522 81046 333 59013
AAXX 22064 48421 31957 20000 10327 20195 39994 40105 57029 70500 80005 333 59016
AAXX 22064 48425 31958 20608 10287 20182 30104 40114 57027 70500 80002 333 59015
AAXX 22064 48426 32560 60406 10311 20192 30096 40109 57028 81106 333 59014
AAXX 22064 48429 32960 30603 10311 20171 30096 40103 57025 80001 333 59015
AAXX 22064 48430 31959 21304 10318 20182 30098 40105 57023 70500 80005 333 59012
AAXX 22064 48450 31958 10306 10309 20176 30076 40109 57028 70500 80005 333 59012
AAXX 22064 48459 32960 20000 10320 20199 30093 40096 57028 80005 333 59015
AAXX 22064 48465 31958 73608 10301 20201 30098 40103 57028 70522 80006 333 59014
AAXX 22064 48550 31558 60307 10297 20241 30084 40091 57012 71022 82146 333 59007
AAXX 22064 48552 01458 70000 10270 20251 30085 40092 57012 60071 72162 85206 333 59007 60076 70118
AAXX 22064 48566 32560 60812 10310 20230 30071 40079 57013 82847 333 59008
AAXX 22064 48568 01460 80705 10283 20249 30083 40091 57013 69901 72122 84877 333 59004 69905 70146
AAXX 22063 91502 31470 60506 10316 20244 40035 53002 71522 81906 333 56109 81817 81918 86281
AAXX 22063 91507 31480 60000 10310 20246 40038 55001 70522 82936 333 56200 82815 81916 85280
AAXX 22063 91520 31580 60507 10302 20255 40037 55002 70500 82275 333 56299 82820 86360
AAXX 22063 91541 01480 30906 10295 20250 40054 57007 60091 70180 83200 333 56200 60047 83818
AAXX 22063 91502 31470 60506 10316 20244 40035 53002 71522 81906 333 56109 81817 81918 86281
AAXX 22063 91507 31480 60000 10310 20246 40038 55001 70522 82936 333 56200 82815 81916 85280
AAXX 22063 91520 31580 60507 10302 20255 40037 55002 70500 82275 333 56299 82820 86360
AAXX 22063 91541 01480 30906 10295 20250 40054 57007 60091 70180 83200 333 56200 60047 83818
AAXX 22064 48307 32962 00000 10280 20158 39757 40133 57029 333 59008
AAXX 22064 48324 32560 32304 10276 20138 39911 40129 55029 81105 333 59013
AAXX 22064 48333 32960 10602 10265 20149 39836 40137 57028 80001 333 59006
AAXX 22064 48350 NIL
AAXX 22064 48355 NIL
AAXX 22064 48358 32960 20903 10280 20154 39958 40132 56028 80005 333 59009
AAXX 22064 48384 32960 70502 10289 20181 39936 40125 57026 86035 333 59011
AAXX 22064 48401 31557 30506 10303 20210 30013 40119 57034 70511 81105 333 59010
AAXX 22064 48404 31558 50807 10280 20170 39949 40126 57016 70521 82506 333 59004
AAXX 22064 48409 NIL
AAXX 22064 48419 31559 80406 10294 20187 30101 40109 56020 70522 84545 333 59014
AAXX 22064 48427 32562 80210 10290 20200 30110 40117 57021 82142 333 59005
AAXX 22064 48435 32560 61012 10265 20172 39678 40113 57023 81106 333 59008
AAXX 22064 48453 31959 60104 10318 20182 30096 40099 57029 70522 80006 333 59015
AAXX 22064 48458 32960 60502 10305 20190 30033 40113 57027 80001 333 59014
AAXX 22064 48474 31958 70110 10301 20183 39979 40101 57027 70522 80006 333 59005
AAXX 22064 48481 32560 60804 10321 20206 30065 40092 57028 82206 333 59016
AAXX 22064 48555 11456 70905 10290 20235 30071 40113 55014 69921 71022 86870 333 59015 70032
AAXX 22064 48556 32460 70106 10285 20242 30073 40089 57010 83877 333 59007
AAXX 22064 48557 31457 60403 10305 20256 30050 40084 57013 71522 85806 333 59011 70009
AAXX 22064 48560 31558 81004 10303 20259 30083 40088 57026 71022 83856 333 59012 70039
AAXX 22064 48574 32560 70905 10295 20232 30057 40086 57012 82846 333 59011 70160
AAXX 22064 48581 11557 80604 10284 20244 30049 40090 57013 69921 71022 82724 333 59007 70269
AAXX 22064 48601 11559 71104 10310 20255 30075 40079 60001 70522 82232 333 82820 85364 87077
AAXX 22064 48615 11462 70713 10284 20246 30082 40088 60001 70522 84148 333 84818 87272
AAXX 22064 48620 11465 70902 10299 20249 30073 40082 60011 70562 82948 333 81917 84365 87276
AAXX 22064 48647 11460 81302 10275 20256 30062 40087 60021 76162 82547 333 81710 84364 88276
AAXX 22064 48650 11460 70000 10261 20244 30069 40088 60021 76166 83948 333 81917 84364 86276
AAXX 22064 48657 11340 80506 10254 20242 30071 40089 60211 76166 84548 333 81708 84624 86464
AAXX 22064 48665 11564 70205 10255 20241 30081 40091 60021 76162 83848 333 81820 84364 86277
AAXX 22064 96413 12575 72804 10305 20247 30042 40068 6///1 83131 333 83820 85365
AAXX 22064 96421 12480 72204 10299 20240 30027 40062 6///1 84131 333 84818 86365
AAXX 22064 96441 11480 72003 10297 20242 30034 40061 6///1 70362 84231 333 84812 85365
AAXX 22064 96449 11456 71903 10254 20244 30051 40070 60051 76166 8457/ 333 84614 87365
AAXX 22064 96465 11478 72807 10295 20260 30028 40061 6///1 70362 83938 333 82812 81914 84364 87279
AAXX 22064 96471 11474 72803 10326 20272 30055 40058 60001 70522 82848 333 82814 83364 87278
AAXX 22064 96481 11460 61806 10332 20269 30030 40049 60001 71522 83841 333 82817 85080
AAXX 22064 96491 11460 70103 10275 20255 30048 40060 60111 72162 84848 333 82815 83645 87276
AAXX 22061 06201 47761 72808 10090 20083 30110 40163 53013 70385 8//// 333 20069 87/56 91012 91114 91213
AAXX 22061 06203 47662 8//10 10107 20088 30140 40191 53006 70281 8//// 333 20081 87/35 88/40 91012 91112 91210
AAXX 22061 06204 47459 82910 10100 20087 30124 40175 53006 71085 8//// 333 20073 81/16 83/42 86/49 91013 91117 91212
AAXX 22061 06205 47358 73009 10090 20082 30076 40135 53010 72385 8//// 333 20065 81/08 86/42 86/50 91010 91112 91211
AAXX 22061 06208 47014 82706 10080 20075 30111 40161 56003 76185 8//// 333 20056 82/01 84/03 86/05 91007 91111 91209
AAXX 22061 06211 47560 72814 10100 20083 30110 40166 52008 70181 8//// 333 20069 81/27 87/57 91017 91117 91214
AAXX 22061 06212 47459 82911 1//// 2//// 30112 40176 53003 72385 8//// 333 2//// 83/10 84/14 86/18 91013 91114 91212
AAXX 22061 06235 17245 82906 10093 20088 30174 40174 55000 69982 72381 8//// 333 20059 3/006 70009 86/04 86/10 88/16 91010 91111 91207
AAXX 22061 06240 17226 82706 10093 20092 30190 40185 55002 69962 75281 8//// 333 20061 3/006 70007 84/04 86/06 88/07 91007 91109 91207
AAXX 22061 06251 17139 82807 10090 20089 30162 40163 53002 60012 76183 8//// 333 20053 3/005 70015 87/03 88/04 91010 91111 91207
AAXX 22061 06258 46/// /2406 333 91007 91109 91208
AAXX 22061 06269 17114 82504 10085 20085 30186 40180 55004 60022 75381 8//// 333 20054 3/005 70033 86/03 87/04 88/06 91006 91108 91206
AAXX 22061 06280 17138 82204 10067 20066 30162 40166 56008 60022 75831 8//// 333 20025 3/002 70023 84/03 88/04 91005 91107 91205
AAXX 22061 06310 15663 82606 10085 20077 30199 40209 53003 60012 8//// 333 20064 3/006 70026 81/36 88/50 91007 91110 91208
AAXX 22061 06344 17568 82605 10102 20089 30201 40194 53001 69952 72281 8//// 333 20060 3/006 70006 88/20 91008 91108 91205
AAXX 22061 06370 17240 82504 10090 20087 30172 40198 51001 69912 72283 8//// 333 20054 3/005 70003 83/04 84/05 86/07 91005 91105 91204
AAXX 22061 06380 17/03 92204 10080 20079 30070 40212 58001 60012 75183 333 20045 3/005 70013 89/00 91006 91107 91206
AAXX 22061 06206 46460 82809 10102 20085 30111 40164 51009 8//// 333 20070 84/12 88/19 91010 91111 91209
AAXX 22061 06207 NIL
AAXX 22061 06239 47359 8//10 10097 20086 3//// 4//// 5//// 71086 8//// 333 20075 82/07 87/08 88/10 91012 91113 91211
AAXX 22061 06252 46/// /3010 10101 20087 30129 40175 53012 222// 00098 10503 333 20078 91012 91116 91214
AAXX 22061 06260 17122 82603 10090 20087 30185 40187 55005 60022 78186 8//// 333 20059 3/006 70017 85/03 87/05 88/07 91005 91106 91204
AAXX 22061 06270 17122 82804 10082 20080 30163 40163 57003 60022 75881 8//// 333 20045 3/004 70022 85/02 88/03 91006 91107 91205
AAXX 22061 06290 17137 82103 10058 20057 30143 40184 57007 60022 75851 8//// 333 20048 3/004 70018 87/02 88/04 91005 91107 91205
AAXX 22064 91573 06/// /0516 10259 20226 39983 40079 55006 60011 333 59007 69967
AAXX 22064 91577 06/// /2401 10269 20214 30060 40080 55008 60001 333 59007 60007
AAXX 22064 91579 06/// /0912 10265 20221 30078 40086 56011 69921 333 59014 60007
AAXX 22064 91582 04570 61010 10263 20219 30056 40090 56012 69902 700// 333 10289 20247 3/024 55/// 60007 79999 90710 91117 555 60005
AAXX 22064 91583 06/// /1208 10253 20230 30079 40094 55008 60021 333 59010 60007
AAXX 22064 91587 06/// /1108 10256 20211 30054 40098 55010 60021 333 59015 60007
AAXX 22064 91590 04785 70307 10278 20191 30049 40091 55003 60002 700// 333 10300 20210 55002 60007 70000 90710 91116 555 60005
AAXX 22064 91592 06/// /0613 10279 20191 30016 40100 56008 60001 333 59004 60007
AAXX 22064 91596 06/// /0916 10265 20191 30000 40108 56008 60001 333 59010 60007
AAXX 22061 37682 32997 73001 11075 21081 38159 48562 52002 8707/ 333 21140 7000/
AAXX 22061 37717 32599 72102 11001 21087 38116 48549 52015 84571 333 21020 7000/
AAXX 22061 37788 41495 60000 11024 21046 39297 40342 52011 71022 866// 333 21032 86713
AAXX 22061 06407 12662 72605 10093 20074 30214 40220 55001 69992 875// 333 20076 31007 83635 87656 91108 91207
AAXX 22061 06447 NIL
AAXX 22064 91574 46/// ///// 29086 30046 40052 58124
AAXX 22064 91570 NIL
AAXX 22064 91598 NIL
AAXX 22061 06400 NIL
AAXX 22061 06428 NIL
AAXX 22061 06451 11560 72504 10093 20079 30147 40214 50000 69962 70252 875// 333 20057 32006 81622 86650 91107 91205
AAXX 22061 06456 NIL
AAXX 22061 06476 17/00 92602 10041 20040 39561 40234 53005 60042 77165 333 20013 3//// 91106 91203
AAXX 22061 06479 NIL
AAXX 22061 06490 17/01 92603 10055 20054 39646 40222 51003 60022 7//51 333 20016 3/002 91106 91204
AAXX 22061 06590 11003 82302 10038 20038 39773 40234 53003 60022 75154 886// 333 20028 31003 87701 91103 91202
AAXX 22061 06431 NIL
AAXX 22061 06432 NIL
AAXX 22061 06449 11123 82505 10088 20080 39996 40225 52002 60022 71054 875// 333 20054 31005 83703 85704 86618 91107 91205
AAXX 22061 06450 11458 82604 10093 20077 30194 40210 51002 60012 76065 875// 333 20065 32006 84616 87638 91107 91205
AAXX 22061 06458 NIL
AAXX 22061 06465 NIL
AAXX 22061 06478 11117 82504 10080 20074 39995 40215 50001 60012 72854 876// 333 20044 31005 85702 87703 91107 91205
AAXX 22061 06496 NIL
AAXX 22061 03951 17360 /2408 10111 20095 30234 40260 57006 60002 7011/ 87/// 333 20103 3/009 82/08 87/14
AAXX 22061 03953 NIL
AAXX 22061 03955 12481 72204 10098 20082 30058 40257 55006 69902 878// 333 20070 31003 55010 83816 87626
AAXX 22061 03956 17670 /2504 10093 20076 30175 40253 50001 69922 7031/ 88/// 333 20071 3/004 88/34
AAXX 22061 03962 12470 72105 10106 20089 30215 40239 58003 69902 875// 333 20098 3/008 55000 82714 85626 87634
AAXX 22061 03963 17/50 /2210 10108 20094 30187 40215 58003 60002 7101/ 333 20103 3/009
AAXX 22061 03966 15676 /2204 10103 20075 30138 40231 57006 60002 88/// 333 20084 3/006 85/33 88/38
AAXX 22061 03967 32482 12208 10093 20076 30109 40223 55001 81500 333 20091 31006 55000 81715
AAXX 22061 03969 32575 52409 10098 20077 30115 40219 55000 81502 333 20095 31008 55000 81620 85072
AAXX 22061 03973 12675 32106 10091 20079 39951 40206 58007 69942 83500 333 20089 31007 55001 83645
AAXX 22061 03976 11464 82010 10111 20103 30179 40191 57005 69902 71052 886// 333 20108 31010 55002 86816 88636
AAXX 22061 03980 17457 /2208 10108 20096 30145 40170 56004 69962 7101/ 87/// 333 20101 3/010 81/14 87/50
AAXX 22064 89532 42/70 60603 10017 21038 39789 49816 51018 84039 333 55151 23320
BBXX VOKJ 22064 99474 70704 46/// /2202 11008 21024 40035 58018 7//// 8//// 22254 0//// 2////
AAXX 22061 01262 46/// /1414 10018 21034 333 20016 91117
AAXX 22061 01393 16/// /1101 11088 21096 39272 40103 56017 6//// 333 21226 91103
AAXX 22061 01277 16/// /0903 11016 21052 60002 333 21060 70000 91106
AAXX 22061 01476 16/// /3602 10004 21009 30119 40125 55012 6//// 333 21024 91105
AAXX 22061 01488 16/// /0000 11081 21090 69972 333 21129 70007 91101
AAXX 22061 01015 46/// /1609 10014 21011 333 20013 91114
AAXX 22061 01180 11680 11703 10009 21023 39985 40042 57008 60002 70222 81300 333 21004 70000 91106
AAXX 22061 01450 16/// /1802 11063 21075 38943 40117 57001 60012 333 21123 70012 91105
AAXX 22061 45007 12950 13308 10197 20089 30170 40179 58032 60001 80001 333 58006 81080
AAXX 22061 45032 36/// /0005 10198 20053 30165 40182 57002
AAXX 22061 45035 36/// /0005 10194 20081 30137 40179 57003
AAXX 22061 45039 36/// /0303 10197 20079 30161 40176 57002
AAXX 22061 45044 36/// /3504 10220 20087 30080 40172 57002
AAXX 22061 45007 12950 13308 10197 20089 30170 40179 58032 60001 80001 333 58006 81080
AAXX 22061 45032 36/// /0005 10198 20053 30165 40182 57002
AAXX 22061 45035 36/// /0005 10194 20081 30137 40179 57003
AAXX 22061 45039 36/// /0303 10197 20079 30161 40176 57002
AAXX 22061 45044 36/// /3504 10220 20087 30080 40172 57002
BBXX VOKJ 22064 99474 70704 46/// /2202 11008 21024 40035 58018 7//// 8//// 22254 0//// 2////
AAXX 22064 78958 11565 20715 10263 20218 30107 40117 60001 70611 81802 333 10308 20249 59009 81822
OOXX AAUNI 22064 99798 50833 56093 07671 46/// /2332 11049 21089 38916 49787 57012 90600
AAXX 22064 78958 11565 20715 10263 20218 30107 40117 60001 70611 81802 333 10308 20249 59009 81822
AAXX 22061 33135 32497 82904 11020 21045 39955 40139 52020 87600 333 21022 42001 87711
AAXX 22061 33317 11496 82702 11021 21030 39844 40192 52016 69902 71022 885// 333 21021 43007 88615
AAXX 22061 33345 12498 83204 11010 21039 39949 40160 52021 69902 885// 333 21021 45998 88714
AAXX 22061 33393 11460 80000 11042 21054 39798 40206 52013 69902 77172 8802/ 333 21114 47007 88517
AAXX 22061 33506 NIL
AAXX 22061 33587 NIL
AAXX 22061 33631 11497 81601 11003 21024 30063 40211 52015 60012 70272 885// 333 21010 47001 88613
AAXX 22061 33663 32997 20000 11032 21039 30094 40194 52010 333 21034
AAXX 22061 33658 31995 30000 11104 21112 39899 40219 52014 71040 83030 333 21114 47005
AAXX 22061 33711 11497 83005 11016 21021 39957 40173 52026 60042 70282 883// 333 21018 47005 88917
AAXX 22061 33791 11597 83008 10000 21024 30018 40173 52025 69992 70282 8555/ 333 21005 43997 85628
AAXX 22061 33837 11544 23002 11008 21017 30141 40195 52013 69902 71000 81401 333 21016 42001
AAXX 22061 33924 32598 63503 10054 20016 30182 40194 52011 84930 333 20047
AAXX 22061 33946 32697 81402 10025 20006 39982 40208 52011 86501 333 20000 86649
AAXX 22061 34300 NIL
AAXX 22061 34504 11497 82708 11010 21026 39976 40159 52030 60012 70287 883// 333 21010 43001 85914
AAXX 22061 34519 11460 82504 10001 21023 39881 40162 52027 69972 72272 886// 333 21004 43997 88713
AAXX 22061 34601 11460 72806 10007 21015 30031 40170 52023 69952 70282 87500 333 20002 87619
AAXX 22061 76040 32902 01501 10105 20039 30151 40165 52014 90540 333 10207 20058 30/// 55093 58006 98602
AAXX 22061 76225 32920 02901 10064 21031 38606 40111 52021 90540 333 10177 21020 30/// 55090 58022
AAXX 22061 76323 32910 00000 10058 21090 38241 40142 52024 90540 333 10196 20010 30/// 58007
AAXX 22061 76342 01420 61301 10080 20065 39452 40170 52002 69931 70121 867// 90550 333 10146 20076 31/// 55020 20119 561// 59036 69907 86720
AAXX 22061 76373 32906 02301 10019 21030 38186 40126 52020 90550 333 10178 20093 30/// 55043 20966 59021
AAXX 22061 76382 32460 22502 10196 20088 38854 40065 52019 82400 90543 333 10248 20125 30/// 55005 2//// 56700 58000 82614
AAXX 22061 76390 31850 32508 10151 20008 38180 40040 52012 70544 83050 90530 333 10220 20100 30/// 55077 21328 56080 59020 83356 91113
AAXX 22061 76393 32420 23101 10120 20084 39549 40125 52016 82500 90550 333 10199 20080 30/// 55090 56500 59028 82615
AAXX 22061 76402 32950 00000 10128 20096 30119 40176 52011 90545 333 10225 20070 30/// 55090 2//// 58022
AAXX 22061 76423 32560 22402 10117 20051 38122 40090 52009 82100 90559 333 10206 20058 30/// 55069 28860 56900 59005 82820
AAXX 22061 76458 32960 03103 10164 20085 30151 40156 52003 90538 333 10254 20109 30/// 55027 58020
AAXX 22061 76525 32460 22010 10071 20035 37441 40092 52007 82600 90540 333 10160 20058 30/// 55096 22713 565// 59014 82715
AAXX 22061 76539 32958 02703 10154 20045 38130 40076 52006 90550 333 10252 20027 30/// 55070 59007
AAXX 22061 76548 32960 00201 10204 20195 30111 40121 58002 90540 333 10256 20184 30/// 55048 59038
AAXX 22061 76556 32960 00801 10157 20118 39119 40135 52011 90534 333 10226 20107 30/// 55090 58014
AAXX 22061 76571 32910 00315 20118 20017 38145 40095 54005 90550 333 10240 20048 30/// 55088 59007
AAXX 22061 76577 32960 00000 10122 20107 38031 40095 51009 90540 333 10229 20070 30/// 55064 59005
AAXX 22061 76581 32960 00302 10148 20134 39018 40100 52013 90550 333 10295 20141 30/// 55080 59030
AAXX 22061 76593 32950 01404 10240 20226 30136 40138 52005 90550 333 10310 20208 30/// 55081 21199 59006 91006 91514
AAXX 22061 76644 32350 11203 20236 20219 30127 40139 52006 81200 90550 333 10330 20214 30/// 55086 20886 561// 59004 81810
AAXX 22061 76654 31956 00201 10234 20209 30143 40147 52015 70544 90550 333 10289 20218 30/// 55079 20815 58001
AAXX 22061 76658 31958 41402 10208 20186 39635 40134 52012 70540 80006 90546 333 10314 20166 30/// 55086 56001 58002 84070 98914
AAXX 22061 76662 32960 20701 10132 20080 38451 40099 52005 80002 90530 333 10272 20048 30/// 55098 21136 5600/ 59004 82070
AAXX 22061 76665 32958 01602 10126 20059 38109 40088 52002 90550 333 10270 20056 30/// 55082 21162 59007
AAXX 22061 76675 32960 01402 10047 20009 37371 40095 54001 90550 333 10234 21020 30/// 55092 2//// 59002
AAXX 22061 76680 31962 02702 10137 20066 37738 40071 52002 70500 90545 333 10236 20089 30/// 55097 21354 59007
AAXX 22061 76683 32962 00000 10088 20053 37817 40144 52007 90540 333 10227 20044 30/// 50301 55100 22036 59007
AAXX 22061 76685 32950 00000 10114 20041 37868 40094 52018 90550 333 10236 20068 30/// 55104 58000
AAXX 22061 76687 31458 81801 10142 20131 38651 40117 58005 70122 84500 90545 333 10237 20116 30/// 55074 563// 59021 84620
AAXX 22061 76692 31520 72301 10226 20208 30104 40123 50001 71042 875// 90545 333 10270 20196 30/// 55075 563// 59014 87630
AAXX 22061 76737 31260 80000 10165 20149 38750 40111 56003 70222 886// 90535 333 10245 20109 30/// 55087 569// 59017 88707
AAXX 22061 76743 32930 03601 10235 20220 30104 40112 50001 90545 333 10293 20205 30/// 55046 59004
AAXX 22061 76750 32558 30902 10250 20231 30122 40132 57005 82130 90545 333 10324 20209 30/// 55061 56220 59003 82820
AAXX 22061 76762 32902 30000 10174 20152 38750 40106 52005 80001 90546 333 10308 2012 30/// 55097 21247 56006 59015 83070
AAXX 22061 76775 32960 02701 10146 20084 38513 40105 52011 90545 333 10293 20110 30/// 55082 59004
AAXX 22061 76805 32960 03101 10229 20221 30116 40120 52010 90535 333 10311 20220 30/// 55094 21060 59004
AAXX 22061 76833 32958 00000 10245 20223 30103 40105 52007 90545 333 10324 20220 30/// 55081 59014 92040
AAXX 22061 76845 32930 00000 10100 20096 37940 40122 56005 90550 333 10250 20054 30/// 55088 59010
AAXX 22061 76848 32450 60000 10146 20115 38371 40061 56001 86600 90550 333 10264 20109 30/// 55100 56100 59008 86710
AAXX 22061 76311 32920 00000 10090 20074 39886 40165 50015 90552 333 10230 20041 30/// 55064 58037
AAXX 22061 76412 32960 02402 10126 20098 30140 40186 52011 90540 333 10250 20120 30/// 55050 58028
AAXX 22061 76640 31910 60000 10206 20203 30129 40141 50020 70311 84270 90545 333 10254 20194 30/// 55002 59010 84801
AAXX 22061 76741 31240 43202 10238 20230 30074 40093 52010 70544 84200 90535 333 10278 20200 30/// 55082 561// 59004 84804
AAXX 22061 76855 32980 03204 10246 20193 30056 40105 51008 90535 333 10328 20214 30/// 55104 59011 92000
AAXX 22064 48360 31959 50000 10265 20159 39867 40126 57029 70500 82055 333 59002
AAXX 22064 48355 31956 70000 10279 20167 39909 40127 57027 70510 86031 333 59013
AAXX 22064 48409 32560 20102 10303 20198 39958 40104 57030 81101 333 59018
AAXX 22064 16022 12986 00317 11052 21098 37817 48467 53010 60002 333 21070 48016 55037 2//// 92835
AAXX 22064 16564 12598 10307 10114 20053 30011 40153 53009 60002 81200 333 20110 30/// 55/// 2//// 81820 555 0////
AAXX 22061 13586 11460 82602 11013 21921 39859 40160 52005 69902 77077 8572/ 333 21014 41/// 83713 85630 88540
AAXX 22064 16149 12965 02603 11020 21053 30171 40188 52008 60002 333 21047 34/// 55/// 2////
AAXX 22061 11010 11360 72505 10021 20007 39855 40244 52016 69902 70282 333 20019 31001 81708 87625
AAXX 22061 11012 11560 82503 10015 20002 39764 40246 53017 69912 70272 886// 333 10017 20011 3/001 41997 55300 93197
AAXX 22061 11022 11563 62702 10003 21013 39823 40221 53018 69902 70282 86100 333 10020 20000 3/102 55300 86825
AAXX 22061 11035 11670 73004 10031 20007 39961 40219 52018 69912 70276 8553/ 333 10032 20022 85645 85360
AAXX 22061 11036 32580 73104 10028 21008 39992 40220 53017 333 20018 30002 81823 86650
AAXX 22061 11101 11457 81804 10010 20007 39730 40274 52010 60112 75872 887// 333 10014 20005 44417 88717 93197
AAXX 22061 11120 01235 89901 10000 21001 39527 40255 52011 60062 77177 333 21002 3/000 47018 69945 83705 87615 93106
AAXX 22061 11126 17/// /3311 11073 21073 37723 48498 53011 60032 7408/ 333 11073 21100 55300 91117
AAXX 22061 11130 17/// /0000 10002 21002 39648 40255 53011 60092 7404/ 333 10003 20002 3/000 55300
AAXX 22061 11146 11/00 90306 11148 21164 36882 47985 53009 60102 77074 333 21162 49189 89/00 91120 92613 93135
AAXX 22061 11150 01245 89901 10010 20005 39697 40253 52013 60062 77177 333 20003 3/000 43006 69915 81704 85712 86623 93102
AAXX 22061 11155 11/00 93206 11063 21072 38364 48495 53013 60042 77174 333 11062 21070 3/107 48054 55300 93116
AAXX 22061 11157 11256 89901 11016 21019 39447 40242 51012 60032 77177 875// 333 21020 3/102 47035 81704 87625 93116
AAXX 22061 11172 NIL
AAXX 22061 11190 11660 82902 10033 21009 39980 40219 53015 69902 72162 885// 333 10035 20010 3/102 55300 88636
AAXX 22061 11204 32670 73201 11020 21029 39418 40237 52016 8557/ 333 10024 21021 43002 85640 555 10036 6000/
AAXX 22061 11212 11/65 11096 21109 37798 48488 53011 69932 77132 86700 333 21100 42017 817// 85720 92610 93197 444 16080
AAXX 22061 11231 32270 19901 11074 21081 39650 40255 53011 333 21090 34111 81705
AAXX 22061 11240 32770 31702 11064 21064 39775 40238 52017 333 21074 34110 83656
AAXX 22061 11244 16/// /3401 11044 21051 39886 40231 53018 60002 333 11012 21046 55300
AAXX 22061 11389 17650 82305 10018 20006 39899 40234 53018 69912 7//8/ 885// 333 10021 20012 3/000 55300
BBXX VEP717 22064 99467 70487 41598 82430 10011 2106/ 40238 52004 70222 885// 22200 06024 20504 323// 40705 81012
AAXX 22061 76040 32902 01501 10105 20039 30151 40165 52014 90540 33310207 20058 30/// 55093 58006 98602
AAXX 22061 76225 32920 02901 10064 21031 38606 40111 52021 90540 33310177 21020 30/// 55090 58022
AAXX 22061 76323 32910 00000 10058 21090 38241 40142 52024 90540 33310196 20010 30/// 58007
AAXX 22061 76342 01420 61301 10080 20065 39452 40170 52002 69931 70121867// 90550 333 10146 20076 31/// 55020 20119 561// 5903669907 86720
AAXX 22061 76373 32906 02301 10019 21030 38186 40126 52020 90550 33310178 20093 30/// 55043 20966 59021
AAXX 22061 76382 32460 22502 10196 20088 38854 40065 52019 82400 90543333 10248 20125 30/// 55005 2//// 56700 58000 82614
AAXX 22061 76390 31850 32508 10151 20008 38180 40040 52012 70544 8305090530 333 10220 20100 30/// 55077 21328 56080 59020 8335691113
AAXX 22061 76393 32420 23101 10120 20084 39549 40125 52016 82500 90550333 10199 20080 30/// 55090 56500 59028 82615
AAXX 22061 76402 32950 00000 10128 20096 30119 40176 52011 90545 33310225 20070 30/// 55090 2//// 58022
AAXX 22061 76423 32560 22402 10117 20051 38122 40090 52009 82100 90559333 10206 20058 30/// 55069 28860 56900 59005 82820
AAXX 22061 76458 32960 03103 10164 20085 30151 40156 52003 90538 33310254 20109 30/// 55027 58020
AAXX 22061 76525 32460 22010 10071 20035 37441 40092 52007 82600 90540333 10160 20058 30/// 55096 22713 565// 59014 82715
AAXX 22061 76539 32958 02703 10154 20045 38130 40076 52006 90550 33310252 20027 30/// 55070 59007
AAXX 22061 76548 32960 00201 10204 20195 30111 40121 58002 90540 33310256 20184 30/// 55048 59038
AAXX 22061 76556 32960 00801 10157 20118 39119 40135 52011 90534 33310226 20107 30/// 55090 58014
AAXX 22061 76571 32910 00315 20118 20017 38145 40095 54005 90550 33310240 20048 30/// 55088 59007
AAXX 22061 76577 32960 00000 10122 20107 38031 40095 51009 90540 33310229 20070 30/// 55064 59005
AAXX 22061 76581 32960 00302 10148 20134 39018 40100 52013 90550 33310295 20141 30/// 55080 59030
AAXX 22061 76593 32950 01404 10240 20226 30136 40138 52005 90550 33310310 20208 30/// 55081 21199 59006 91006 91514
AAXX 22061 76644 32350 11203 20236 20219 30127 40139 52006 81200 90550333 10330 20214 30/// 55086 20886 561// 59004 81810
AAXX 22061 76654 31956 00201 10234 20209 30143 40147 52015 70544 90550333 10289 20218 30/// 55079 20815 58001
AAXX 22061 76658 31958 41402 10208 20186 39635 40134 52012 70540 8000690546 333 10314 20166 30/// 55086 56001 58002 84070 98914
AAXX 22061 76662 32960 20701 10132 20080 38451 40099 52005 80002 90530333 10272 20048 30/// 55098 21136 5600/ 59004 82070
AAXX 22061 76665 32958 01602 10126 20059 38109 40088 52002 90550 33310270 20056 30/// 55082 21162 59007
AAXX 22061 76675 32960 01402 10047 20009 37371 40095 54001 90550 33310234 21020 30/// 55092 2//// 59002
AAXX 22061 76680 31962 02702 10137 20066 37738 40071 52002 70500 90545333 10236 20089 30/// 55097 21354 59007
AAXX 22061 76683 32962 00000 10088 20053 37817 40144 52007 90540 33310227 20044 30/// 50301 55100 22036 59007
AAXX 22061 76685 32950 00000 10114 20041 37868 40094 52018 90550 33310236 20068 30/// 55104 58000
AAXX 22061 76687 31458 81801 10142 20131 38651 40117 58005 70122 8450090545 333 10237 20116 30/// 55074 563// 59021 84620
AAXX 22061 76692 31520 72301 10226 20208 30104 40123 50001 71042 875//90545 333 10270 20196 30/// 55075 563// 59014 87630
AAXX 22061 76737 31260 80000 10165 20149 38750 40111 56003 70222 886//90535 333 10245 20109 30/// 55087 569// 59017 88707
AAXX 22061 76743 32930 03601 10235 20220 30104 40112 50001 90545 33310293 20205 30/// 55046 59004
AAXX 22061 76750 32558 30902 10250 20231 30122 40132 57005 82130 90545333 10324 20209 30/// 55061 56220 59003 82820
AAXX 22061 76762 32902 30000 10174 20152 38750 40106 52005 80001 90546333 10308 2012 30/// 55097 21247 56006 59015 83070
AAXX 22061 76775 32960 02701 10146 20084 38513 40105 52011 90545 33310293 20110 30/// 55082 59004
AAXX 22061 76805 32960 03101 10229 20221 30116 40120 52010 90535 33310311 20220 30/// 55094 21060 59004
AAXX 22061 76833 32958 00000 10245 20223 30103 40105 52007 90545 33310324 20220 30/// 55081 59014 92040
AAXX 22061 76845 32930 00000 10100 20096 37940 40122 56005 90550 33310250 20054 30/// 55088 59010
AAXX 22061 76848 32450 60000 10146 20115 38371 40061 56001 86600 90550333 10264 20109 30/// 55100 56100 59008 86710
AAXX 22061 76311 32920 00000 10090 20074 39886 40165 50015 90552 33310230 20041 30/// 55064 58037
AAXX 22061 76412 32960 02402 10126 20098 30140 40186 52011 90540 33310250 20120 30/// 55050 58028
AAXX 22061 76640 31910 60000 10206 20203 30129 40141 50020 70311 8427090545 333 10254 20194 30/// 55002 59010 84801
AAXX 22061 76741 31240 43202 10238 20230 30074 40093 52010 70544 8420090535 333 10278 20200 30/// 55082 561// 59004 84804
AAXX 22061 76855 32980 03204 10246 20193 30056 40105 51008 90535 33310328 20214 30/// 55104 59011 92000
AAXX 22064 17600 12582 20307 10122 20077 30166 40176 56001 60022 82800 333 10129 20108 31009 50271 55068 70017 81825 92428
AAXX 22064 17601 12684 13603 10101 20045 30144 40176 56001 60002 81800 90550 333 20083 30000 70000 81830
AAXX 22064 17607 11582 22202 10085 20066 39988 40183 51/// 60004 702// 81800 333 20064 70000 81825
AAXX 22064 17609 12570 13107 10115 20080 30176 40180 53001 60002 81800 333 10133 20097 31007 50261 55061 70000 81825
AAXX 22061 15015 01597 82901 11041 21057 39579 42779 52007 69912 7227/ 8657/ 333 11029 21061 3/104 43997 6///7 70007 91001 91101
AAXX 22061 15020 02997 22901 11067 21068 39995 40205 52014 60002 80001 333 10000 21067 3/110 43002 60007 70000 91002 91102 92600 92840
AAXX 22061 15090 01596 82300 11006 21014 30102 40198 52011 60002 71022 83577 333 10014 21006 31101 55300 10188 20003 3//// 60007 70000 91001 91101
AAXX 22061 15108 01698 22708 11137 21137 38013 48460 52004 60002 70233 81041 333 11121 21141 3//// 44016 60007 70000 92727 92843 95050 444 17081
AAXX 22061 15120 01697 80702 11027 21027 39687 40203 53007 69902 77172 8457/ 333 11020 21041 34105 55300 10028 2//// 3//// 69907 70003 91003 91103
AAXX 22061 15150 02997 33201 11063 21070 39980 40205 52012 60002 82031 333 11005 21070 3/109 41998 60007 70002 91002 91102 92600 92870
AAXX 22061 15170 01996 22600 11171 21182 39397 42780 53009 60002 71000 80001 333 11028 21173 3/119 47005 60007 70000 91001 91102 92800
AAXX 22061 15200 01597 81501 11006 21021 30043 40193 53008 69922 702// 885// 333 10003 21006 3/100 42998 60007 70004 91002 91103
AAXX 22061 15230 01496 83601 11025 21034 39898 40204 52005 60002 71022 886// 333 11019 21050 34104 55300 10052 20002 3//// 60007 70000 91001 91102
AAXX 22061 15260 02998 41201 11085 21093 39650 40220 52007 60002 84070 333 11051 21115 3/114 43001 60007 70000 91001 91103 92610 92832
AAXX 22061 15280 02599 53402 11166 21216 37401 47917 52006 69952 85050 333 11124 21173 3//// 48043 60007 70024 92825 444 36145
AAXX 22061 15292 02597 83400 11023 21025 39888 40194 52003 60002 886// 333 11018 21032 34104 60007 70003 91001 91101
AAXX 22061 15310 01496 83601 10003 20003 30108 40197 53011 60002 71022 8467/ 333 10017 20003 31100 55300 10040 20001 3//// 60007 70028 91002 91102
AAXX 22061 15335 01495 80401 11001 21001 30186 40193 52008 60002 710// 886// 333 10013 21014 3/102 41998 60007 70065 91003 91103
AAXX 22061 15346 02997 10303 11020 21072 39887 40189 53009 60002 80001 333 10018 21022 34104 60007 70000 91005 91106 92600
AAXX 22061 15350 01595 80603 10002 20002 30074 40199 53014 60002 71022 885// 333 10024 21001 31102 60007 70014 91006 91107
AAXX 22061 15360 02497 83604 10015 20010 30170 40185 52006 60002 8467/ 222// 06051 20000 333 10025 20014 3//// 60007 70007 91004 91106 92407
AAXX 22061 15410 02997 00000 11035 21061 30085 40186 53007 60002 333 10011 21041 34105 60007 70000 91001 91102 92600
AAXX 22061 15420 02497 80601 11013 21016 30068 40184 53009 60002 886// 333 10023 21021 31102 55300 0//// 20000 3//// 60007 70006 91001 91101
AAXX 22061 15450 02997 80601 11020 21022 39933 40178 53012 60002 8807/ 333 11009 21045 34103 55300 10037 20001 3//// 60007 70000 91002 91103 92600
AAXX 22061 15460 01996 71600 11006 21012 30159 40185 53005 60002 7102/ 87070 333 10024 21013 34101 60007 70004 91001 91101 92610
AAXX 22061 15470 01996 80200 11021 21022 30051 40182 53011 60002 7101/ 8807/ 333 10001 21028 34105 60007 70004 91000 91101 92600
AAXX 22061 15480 02497 82801 10009 20009 30171 40189 53005 60002 886// 222// 06060 2//// 333 10021 20003 34101 60007 70003 91001 91102 92427 92600
BBXX UFTA 22061 99849 71239 32997 03505 11347 21381 40076 58003 555 48044
AAXX 22064 43533 11459 70705 10307 20246 30113 40116 60001 70522 82238 333 58006 82818 87276
AAXX 22064 43555 11459 89902 10286 20241 30116 40119 60021 70262 8327/ 333 58005 83817 88461
AAXX 22064 43577 11462 82710 10253 20241 30120 40122 60212 76186 8222/ 333 58003 82817 88460
AAXX 22064 43588 11465 73213 10281 20247 30112 40114 69901 70186 83938 333 58005 82818 81919 83362 87275
AAXX 22064 43599 11459 73406 10280 20254 30114 40116 60021 72582 84968 333 58000 83817 81918 87275
AAXX 22064 43533 11459 70705 10307 20246 30113 40116 60001 70522 82238 333 58006 82818 87276
AAXX 22064 43555 11459 89902 10286 20241 30116 40119 60021 70262 8327/ 333 58005 83817 88461
AAXX 22064 43577 11462 82710 10253 20241 30120 40122 60212 76186 8222/ 333 58003 82817 88460
AAXX 22064 43588 11465 73213 10281 20247 30112 40114 69901 70186 83938 333 58005 82818 81919 83362 87275
AAXX 22064 43599 11459 73406 10280 20254 30114 40116 60021 72582 84968 333 58000 83817 81918 87275
AAXX 22064 11012 81924 11038 21049 39837 49880 52010 69901 77273 89/// 333 01838 56999 89/01 90973 93197 96038
AAXX 22061 89061 379// 02405 11010 21012 39895 49901 57013 77177 333 91006 91106
AAXX 22064 91930 16/// ///// 10249 20183 69921 555 60134
AAXX 22064 91943 16/// /0807 10263 20226 30106 40108 51015 69964 333 20250 59010
AAXX 22064 03008 16/// /2723 10099 20068 39983 40051 50013 60022 90550 333 20083 70062 90710 91136
AAXX 22064 03010 46/// /3113 10103 20102 40065 52014 333 90710 91141
AAXX 22064 03014 46/// /2924 10064 20043 40044 51016 90550 333 8//// 90710 91133
AAXX 22064 03031 17570 /2819 10094 20081 39775 40098 51003 69962 781// 90550 333 20084 3/007 55/// 553// 20000 70040 87/20 90710 91130
AAXX 22064 03034 17366 /2313 10108 20101 30097 40110 52004 60032 751// 90550 333 20106 3/010 70074 87/08
AAXX 22064 03037 17319 /2314 10107 20103 30105 40127 57002 60032 723// 90550 333 20106 3/010 70054 87/06
AAXX 22064 03039 46/// /2628 10067 20034 90550 333 20059 90710 91147
AAXX 22064 03041 46/// /2436 10047 20047 90550 333 20043 90710 91151
AAXX 22064 03044 17463 /2412 10108 20093 39991 40088 50003 69902 761// 90550 333 20103 3/008 55/// 553// 20000 79999 87/16 83/25
AAXX 22064 03047 17467 /2707 10109 20084 39838 40137 52005 60022 723// 90550 333 20101 3/009 55/// 553// 20000 70034 86/18 83/26 86/30 90710 91125
AAXX 22064 03062 15984 /2411 10096 20072 30090 40095 51008 60002 90550 333 20091 3/007 55/// 553// 20000 70046 8//99
AAXX 22064 03065 46/// /2751 10042 20042 90550 333 20036 90710 91166 91066
AAXX 22064 03068 12682 22516 10113 20080 30089 40097 51018 60002 81502 90550 333 20099 31007 70034 81640 90710 91127
AAXX 22064 03080 15984 /2411 10105 20074 39942 40111 52009 60002 90550 333 20081 3/006 7//// 8//99
AAXX 22064 03088 15984 /2522 10096 20085 39954 40116 50006 60002 90550 333 20059 3/004 55/// 553// 20000 70056 81/75 90710 91128
AAXX 22064 03094 15586 /1904 10107 20072 30095 40100 52017 60002 90550 333 20085 3/007 70028 87/26 84/35
AAXX 22064 03105 17456 /2409 10105 20100 30152 40169 57005 60002 710// 90550 333 20103 3/010 70002 88/10
AAXX 22064 03132 15364 /3008 10110 20106 30171 40185 50001 60002 90550 333 20107 3/009 70002 87/08 87/50
AAXX 22064 03144 15584 /2213 10111 20091 30100 40143 51013 69902 90550 333 20103 3/009 55/// 553// 20000 70020 87/28
AAXX 22064 03148 46/// /2622 10079 20079 90550 333 20072 90710 91134
AAXX 22064 03153 17368 /2517 10102 20096 30046 40184 50009 69902 723// 90550 333 20095 3/009 55/// 553// 20000 70016 88/07
AAXX 22064 03155 16259 /2513 10093 20088 39872 40168 51006 69922 90550 333 20093 3/009 70002 87/05
AAXX 22064 03158 15584 /2409 10106 20090 30018 40154 51008 69902 90550 333 20094 3/008 55/// 553// 20000 70018 87/21
AAXX 22064 03210 16359 /2211 10095 20087 30055 40207 53007 60002 90550 333 20094 3/009 70000 87/06 86/09
AAXX 22064 03212 17459 /2508 10109 20092 30103 40202 52011 69922 704// 90550 333 20109 3/010 70016 88/10 91020
AAXX 22064 03214 17358 /2412 10097 20088 30194 40212 51010 60002 704// 90550 333 20092 3/008 70002 88/09
AAXX 22064 03220 16472 ///// 10109 20096 30154 40189 53008 60002 90550 333 20101 3/009 70006 88/10
AAXX 22064 03225 16345 /2113 10091 20081 39901 40207 52018 69922 90550 333 20091 3/007 55/// 553// 20000 70004 85/07 87/14
AAXX 22064 03226 15380 /2108 10089 20084 39922 40198 53011 69922 90550 333 20089 3/007 70032 88/09
AAXX 22064 03230 16481 /2607 10097 20086 39917 40173 51010 60002 90550 333 20094 3/008 70016 87/11 83/36
AAXX 22064 03238 15365 /2614 10098 20088 30001 40173 53007 60002 90550 333 20097 3/009 70014 87/06 90710 91129 91025
AAXX 22064 03261 16478 /2615 10106 20085 30162 40202 53006 60002 90550 333 20100 3/008 70004 83/15
AAXX 22064 03265 15984 /2504 10106 20082 30172 40203 53010 60002 90550 333 20099 3/008 70006 8//99 90710 91127
AAXX 22064 03266 16581 /2713 10106 20081 30184 40202 53010 60002 90550 333 20102 3/009 70006 81/21 90710 91125
AAXX 22064 03275 15976 /2425 10096 20075 39982 40174 52010 60002 90550 333 20095 3/009 70008 81/74 90710 91135 91035
AAXX 22064 03281 16/// /2517 10091 20081 60002 90550 333 20073 70012 90710 91131 91029
AAXX 22064 03903 16464 /1504 10113 20095 30140 40197 56006 60002 90550 333 20091 3/006 55/// 553// 20000 70000 81/16 87/50 91015
AAXX 22064 03904 15462 /2506 10113 20093 30129 40189 58006 69922 90550 333 20104 3/010 70002 87/19 86/50
AAXX 22064 03907 17459 /2215 10106 20090 30174 40181 50000 60002 704// 90550 333 20098 3/009 55000 55300 20000 70000 88/12
AAXX 22064 03911 16267 /2409 10097 20094 39920 40193 58003 69922 90550 333 20091 3/008 70004 88/05
AAXX 22064 03915 16466 /1810 10114 20114 30107 40184 53001 60002 90550 333 20109 3/009 70000 87/10 87/49
AAXX 22064 03916 16370 /2808 10106 20096 39984 40173 58002 60002 90550 333 20102 3/009 55/// 553// 20000 70004 81/08 88/47 91021
AAXX 22064 03923 15364 /2510 10099 20084 39997 40193 58003 69902 90550 333 20099 3/008 79999 81/09
AAXX 22064 03301 16664 /2211 10101 20101 30164 40238 53009 60002 90550 333 20087 70000 86/30 86/40 90710 91125
AAXX 22064 03305 15471 /2122 10099 20075 39974 40238 51008 60002 90550 333 20090 3/009 70004 87/12 83/21 90710 91129
AAXX 22064 03313 16575 /2411 10111 20087 30137 40231 50007 60002 90550 333 20108 3/009 70002 87/23 85/50
AAXX 22064 03316 15560 /2413 10091 20072 30215 40226 52005 60002 90550 333 20091 3/008 79999 88/20
AAXX 22064 03318 16/// /2315 10092 20081 60002 90550 333 20086 70000 90710 91125
AAXX 22064 03321 16774 /2506 10114 20085 30219 40231 52004 60002 90550 333 20090 3/006 55/// 553// 20000 70000 87/50
AAXX 22064 03330 17260 /2306 10081 20077 39876 40240 53008 60002 710// 90550 333 20077 3/005 70040 88/04
AAXX 22064 03344 17257 /2617 10090 20083 39891 40210 58002 69922 722// 90550 333 20085 3/008 70008 85/04 86/19 90710 91128 91027
AAXX 22064 03346 16/// /2729 10090 20085 60002 90550 333 20088 3/008 70004 90710 91138
AAXX 22064 03348 15467 /1805 10096 20084 30124 40232 53008 60002 90550 333 20087 3/005 55000 55300 20000 70018 88/17
AAXX 22064 03355 15781 /2719 10111 20089 30190 40201 50005 60002 90550 333 20097 3/008 55000 55300 20000 70012 82/56 90710 91126
AAXX 22064 03373 16465 /2815 10106 20085 30141 40210 52011 60002 90550 333 20081 3/007 70004 88/16
AAXX 22064 03379 16472 /2714 10093 20077 30139 40216 50013 60002 90550 333 20084 3/005 70000 81/17
AAXX 22064 03382 15981 /2619 10109 20090 30180 40188 50012 60002 90550 333 20100 3/008 55000 55300 20000 70002 8//99 90710 91128
AAXX 22064 03385 46468 /2817 10107 20094 30187 40197 53017 90550 333 20100 87/14 90710 91134
AAXX 22064 03391 12570 72807 10092 20075 30209 40216 53016 60002 83502 90550 333 20083 31004 79999 83620 87075
AAXX 22064 03392 16967 /2721 10100 20085 30195 40198 51009 60002 90550 333 20092 3/008 70000 8//99 90710 91128
AAXX 22064 03405 16663 /2419 10102 20100 30132 40249 53005 60002 90550 333 20098 3/009 55/// 553// 20000 70000 83/45 90710 91130
AAXX 22064 03409 16/// /2516 10101 20080 60002 90550 333 20092 3/008 55004 55300 2//// 70000 90710 91125
AAXX 22064 03410 16371 /0403 10089 20079 39806 40243 53009 60002 90550 333 20079 3/007 55/// 553// 20000 70000 87/09
AAXX 22064 03469 15966 /2711 10082 20079 30208 40212 52012 60002 90550 333 20081 3/006 55/// 553// 20000 70002 8//99
AAXX 22064 03488 17459 /2916 10077 20067 30176 40202 53013 69922 704// 90550 333 20077 70004 84/16 90710 91134
AAXX 22064 03503 15361 /2510 10104 20092 30173 40250 57004 60002 90550 333 20097 3/007 70000 85/07 86/45
AAXX 22064 03507 17/17 /2506 10076 20076 39886 40262 53006 60002 720// 90550 333 20074 3/005 70008
AAXX 22064 03520 16970 /2408 10081 20069 30128 40251 53003 60002 90550 333 20080 3/004 55/// 553// 20000 70000 8//99
AAXX 22064 03522 15568 /3405 10082 20082 30164 40258 53005 60002 90550 333 20069 3/001 70000 81/22
AAXX 22064 03529 15974 /2406 10092 20071 30212 40255 52012 60002 90550 333 20081 3/004 70000 8//99
AAXX 22064 03544 15969 /1905 10082 20072 30097 40229 50000 60002 90550 333 20074 3/005 55/// 553// 20000 70000 8//99
AAXX 22064 03560 15969 /2307 10088 20074 30126 40230 50009 60002 90550 333 20088 3/007 55/// 553// 20000 70004 8//99
AAXX 22064 03604 16671 /2811 10107 20091 30208 40262 57001 60002 90550 333 20101 3/009 70000 87/41
AAXX 22064 03605 16460 /2708 10101 20091 30256 40265 54000 69922 90550 333 20095 70002 83/14 85/35 87/41
AAXX 22064 03609 16/// /2616 10107 20090 30217 40270 51002 60002 90550 333 20100 3/008 70000
AAXX 22064 03628 17258 /2510 10097 20090 30190 40263 52006 60002 710// 90550 333 20086 3/006 55025 55300 20000 70000 81/05 86/17 86/25
AAXX 22064 03647 16463 /2508 10071 20066 39987 40246 52007 60002 90550 333 20069 3/005 55/// 553// 20000 70000 81/13
AAXX 22064 03658 163// /2603 10076 20072 30183 40254 53013 60002 90550 333 20047 3/002 70000 82/09
AAXX 22064 03660 15961 /2909 10080 20073 39998 40248 52009 69922 90550 333 20080 3/003 70002 8//99
AAXX 22064 03672 13970 62605 10077 20065 30205 40246 51013 60002 80002 90550 333 20076 31005 70002 86075
AAXX 22064 03684 15974 /2708 10088 20071 30122 40229 53011 60002 90550 333 20087 3/007 70010 8//99
AAXX 22064 03693 16980 /2714 10099 20081 30224 40226 52006 60002 90550 333 20095 3/008 70004 8//99
AAXX 22064 03707 15569 /2712 10108 20094 30267 40275 58002 69922 90550 333 20090 3/006 70002 88/29
AAXX 22064 03710 16268 /2721 10082 20082 39845 40270 57004 60002 90550 333 20071 3/005 55/// 553// 20000 70002 85/04 85/12 86/16 90710 91129
AAXX 22064 03743 16371 /2811 10095 20089 30099 40262 53006 69922 90550 333 20075 3/004 70002 87/06 91021
AAXX 22064 03749 16367 /2810 10097 20087 30150 40261 53005 60002 90550 333 20079 3/004 70000 87/08
AAXX 22064 03761 15361 /2606 10081 20069 30108 40254 52008 60002 90550 333 20079 3/005 55000 55300 20000 70002 83/06
AAXX 22064 03768 16961 /2707 10084 20073 30172 40252 51011 60002 90550 333 20082 3/005 70002 8//99
AAXX 22064 03769 15969 /2204 10074 20068 30164 40247 52007 69922 90550 333 20062 3/003 55000 55300 20000 70012 8//99
AAXX 22064 03770 16/// ///// 10086 20077 60002 90550 333 20084 3/004 70002
AAXX 22064 03781 15968 /2712 10084 20074 30038 40247 52007 60002 90550 333 20083 3/006 55/// 553// 20000 70004 8//99
AAXX 22064 03797 15873 /2815 10107 20079 30170 40230 53007 60002 90550 333 20099 3/008 55000 55300 20000 70028 85/57
AAXX 22064 03839 16/// ///// 10109 20095 60002 90550 333 20083 55/// 553// 20000 70000
AAXX 22064 03857 15364 /3123 10108 20099 30204 40268 53001 60002 90550 333 20106 3/010 70000 81/08 90710 91130
AAXX 22064 03862 15967 /3007 10089 20078 30255 40267 53006 60002 90550 333 20074 3/002 55002 55300 20000 70000 8//99
AAXX 22064 03866 16/// /2806 10095 20082 30238 40262 52006 60002 90550 333 20091 3/007 70000
AAXX 22064 03872 15961 /2808 10084 20079 30253 40258 53008 60002 90550 333 20083 3/007 55/// 553// 20000 70000 8//99
AAXX 22064 03876 16/// /2806 10083 20077 30250 40252 53009 60002 90550 333 20071 70000
AAXX 22064 03895 42365 83015 10107 20095 40291 51006 886// 333 20107 87707
AAXX 22064 68399 36/// /0604 10268 20188 30017 40124 51002 333 20198 91029 555 10371 91012
AAXX 22064 68383 36/// /0000 10257 20167 39891 48561 52003 333 20208 91000 555 10365 91013
AAXX 22064 68299 36/// /1902 10175 20138 38926 48517 52005 333 20125 91004 555 10249 91018
AAXX 22064 68026 13560 70000 10235 20215 48488 51003 69924 81580 333 20218
AAXX 22064 68032 32960 32310 10258 20202 48504 51013 81084 333 20211
AAXX 22064 68040 42960 10308 10276 20192 48507 52011 80002
AAXX 22064 68070 31960 60204 10277 20163 48513 52013 70400 86080 333 20209
AAXX 22064 68226 32960 73313 10264 20139 48498 52016 87080 333 20225
AAXX 22064 68234 43960 61206 10239 20144 48483 54000 82980
AAXX 22064 68240 11560 80509 10225 20152 48502 52013 60024 71792 8397/ 333 20217
AAXX 22064 68320 32960 60504 10260 20178 48501 52019 60014 86080 333 20216
AAXX 22064 68328 32960 50305 10283 20170 48489 52013 85080 333 20257
BBXX C6XP7 22063 99199 70676 41298 61125 10250 20236 40170 53/// 7//21 848// 22274 00250 20304 324// 4//// 5//// 6//// 80240 ICE /////
BBXX KAOU 22064 99003 10812 43/// /3129 10266 20234 40076 5//// 7//// 8//// 222// 04288 2//// 3//// 4//// 5//// 6//// 8//// ICE /////
BBXX NWS0003 22064 99539 71665 43/// /0000 11003 21036 40041 5//// 7//// 8//// 222// 0//// 2//// 3//// 4//// 5//// 6//// 8//// ICE /////
BBXX NWS0029 22064 99387 70672 43/// /2236 10199 20150 40151 5//// 7//// 8//// 222// 04187 2//// 3//// 4//// 5//// 6//// 8//// ICE /////
BBXX NWS0020 22064 99326 70305 43/// /1413 10197 20174 40222 5//// 7//// 8//// 222// 04207 2//// 3//// 4//// 5//// 6//// 8//// ICE /////
BBXX WBO3345 22064 99200 70707 41697 60820 10250 20219 40150 57/// 70122 86473 22232 0//// 20405 310// 40405 5//// 6//// 80228 ICE /////
BBXX PCHM 22064 99422 31632 41297 30716 10160 20150 40253 50002 70222 82646 22233 00150 20202 308// 40202 80154
BBXX C6XC2 22064 99024 31327 41498 72619 10300 20260 40020 57040 70322 8624/ 22200 00300 20301 3//// 4//// 5//// 6//// 80270 ICE /////
BBXX VCPX 22064 99417 70812 41/98 22530 10008 2//// 41014 54/// 70000 8//// 22200 00050 20101 3//// 4//// 5//// 6//// 8//// ICE /////
BBXX WE3592 22064 99473 70902 43/// /3321 11005 2//// 40142 5//// 7//// 8//// 222// 0//// 2//// 3//// 4//// 5//// 6//// 8//// ICE /////
BBXX ZCDG7 22064 99210 71517 41398 30921 10228 20196 40178 53010 70111 82442 22264 00240 20303 310// 40404 5////
BBXX WSM5364 22063 99593 71415 41/97 80830 10022 2//// 40000 5//// 702// 8//// 222// 00072 2//// 31022 4//04 5//05 6//// 8//// ICE /////
BBXX WYX2079 22063 99601 71476 41/98 00110 10006 2//// 40040 5//// 702// 8//// 222// 00072 2//01 3//// 4//// 5//// 6//// 8//// ICE /////
BBXX WXJ63 22063 99611 71464 41/97 73503 11007 21022 40042 5//// 771// 8//// 222// 00044 2//// 3//// 4//// 5//// 6//// 8//// ICE /////
BBXX C6XC6 22064 99198 70741 41998 00930 10260 2//// 40160 54000 70100 80/// 22244 00284 20804 309// 40806 5//// 6//// 8//// ICE /////
BBXX 41041 22061 99142 70460 46/// /0706 10260 20214 40137 58017 90550 22200 00265 11204 20502 3//// 41204 70022 333 91207 555 11065 22069 30530 40708 60549 072061 070063 066063 065063 078052 077060 80707 90535
BBXX 41038 22061 99341 70777 46/// /2304 10160 40182 56006 90600 22200 00139 333 91205
BBXX PCDE 22063 99360 31503 41598 42202 10213 20162 40160 57020 7//11 83163 22283 20601 30000 80180
BBXX PCCL 22063 99370 31762 41497 40310 10170 40240 57007 70200 8404/ 22283 04188 20501 318// 40602
AAXX 22061 26554 11462 83202 11012 21048 39996 40163 52008 69902 70272 886// 333 21020 47997 88715 555 90012
AAXX 22061 26666 11559 73503 11020 21062 39914 40134 52005 69902 77172 875// 333 21031 47007 87620 555 90012
AAXX 22061 26850 11460 83002 11034 21051 39887 40168 52008 69902 72272 885// 333 21035 47997 88710 555 90010
AAXX 22061 26863 11460 83405 11032 21056 39888 40132 52007 69902 72682 883// 333 21040 47005 88619
AAXX 22061 26941 11350 83203 11038 21043 39942 40188 52012 69902 71022 887// 333 21044 555 90010
AAXX 22061 26951 32464 83404 11023 21042 39968 40173 52014 886// 333 21026 47002 88713 555 90012
AAXX 22061 33008 31122 80101 11022 21032 30013 40198 52014 71022 886// 333 21023 47001 88702 555 90010
AAXX 22061 33019 11356 82803 11030 21040 30008 40189 52015 69922 71022 886// 333 21031 47002 88708 555 90010
AAXX 22061 33036 32470 73103 11023 21055 39921 40159 52018 875// 333 21024 43006 87618 555 90011
AAXX 22061 33041 32460 73203 11021 21049 39968 40128 52014 875// 333 21032 43003 87617 91110 555 90011
BBXX UANA 22061 99701 10546 41/98 63407 10020 40102 52002 70321 80290 22222 00019 20301
BBXX UITJ 22061 99679 10095 41798 61710 10055 49993 57006 70184 82054 22253 00080 20704
BBXX UGGA 22061 99693 10437 41/97 92308 10015 40083 54000 70282 89/// 22251 20403
BBXX PHIN 22064 99504 70142 41/// /2023 10128 20123 40227 56001 7//// 8//// 22253 2//// 80125
BBXX TBWUK35 22064 99664 10066 41/// 82542 10051 20029 49961 57020 72162 8//// 22214 00100 2//// 80042
BBXX PFDH 22061 99375 10104 41/98 73313 10175 20118 40153 55005 70182 877// 22224 00171 2//// 80141
BBXX MGSH7 22063 99549 10138 41/98 81411 10030 20003 40182 52030 70222 8//// 22243 20201 332// 40504 5//// 80020
BBXX 44008 22061 99405 70692 46/// /2308 10142 20141 40076 58026 90550 22200 00115 10806 20705 323// 40804 70031 333 91210 555 11092 22102 30502 42213 60549 227085 235095 241094 247095 229093 223082
BBXX 44060 22061 99413 70721 46/// ///09 10112 40061 55006 90600 22200 00104 333 91212 555 11108 22113
BBXX 44022 22061 99409 70737 46/// ///09 10127 20079 40093 53035 90600 22200 00083 333 91213 555 11098 22113
AAXX 22064 11012 81924 11038 21049 39837 49880 52010 69901 77273 89/// 333 01838 56999 89/01 90973 93197 96038
BBXX 51000 22061 99235 71541 46/// /0709 10223 40187 51018 90550 22200 00231 10906 20605 311// 40903 70028 333 91211 555 11095 22100 30500 40613 60549 068088 064090 064091 062097 063096 067093
BBXX 51003 22061 99193 71606 46/// /0510 10249 40142 53021 90550 22200 00256 10906 20505 3//// 40904 70031 333 91212 555 11107 22113 30458 40512 60549 050101 050099 046100 045102 047100 048101
AAXX 22064 70026 NIL
AAXX 22064 70133 NIL
AAXX 22064 70174 NIL
AAXX 22064 70200 NIL
AAXX 22064 70219 NIL
AAXX 22064 70231 NIL
AAXX 22064 70261 NIL
AAXX 22064 70267 NIL
AAXX 22064 70271 NIL
AAXX 22064 70273 NIL
AAXX 22064 70308 NIL
AAXX 22064 70316 NIL
AAXX 22064 70326 NIL
AAXX 22064 70340 NIL
AAXX 22064 70350 NIL
AAXX 22064 70361 NIL
AAXX 22064 70381 NIL
AAXX 22064 70398 NIL
AAXX 22064 70414 NIL
BBXX 46083 22061 99582 71380 46/// /1216 10037 20029 40004 58044 90550 22200 00065 10910 20706 300// 40908 70050 333 91219 555 11173 22185 30510 41119 60549 123159 125153 124155 123156 123150 123146 81217 90547
BBXX 46001 22061 99563 71480 46/// /0415 10035 49918 57055 90550 22200 00049 10707 20707 300// 41203 70037 333 91218 555 11156 22166 30513 40418 60549 038144 040146 040145 042148 042140 041138
BBXX 46089 22061 99459 71258 46/// /0605 10074 20036 40319 53004 90550 22200 00091 11205 20401 329// 41205 70024 333 91206 555 11052 22054 30504 40707 60549 056050 057053 060053 058053 058052 054051
BBXX 46042 22061 99368 71224 46/// /3406 10123 40190 51007 90550 22200 00124 11406 20502 332// 41406 70031 333 91208 555 11068 22072 30532 43409 60549 344064 343071 341072 342072 343063 341065
BBXX 46053 22061 99342 71198 46/// /2405 10131 40174 52013 90550 22200 00137 11502 20401 327// 41502 70011 333 91206 555 11051 22053 30537 42406 60549 236048 233049 233046 214028 203008 223010
AAXX 22061 11130 16/// /0000 10002 21002 39648 40255 53011 60102 333 10003 20002 49032 93116
BBXX C6TZ9 22064 99238 50454 417// 10515 10260 20232 40080 54/// 7//00 81/// 22255 00240 2//// 3//// 4//// 5//// 6//// 80240 ICE /////
BBXX WCX7445 22064 99531 50709 43/// /2503 10059 2//// 49969 5//// 7//// 8//// 22200 00151 2//// 3//// 4//// 5//// 6//// ICE /////
BBXX PDZS 22063 99546 50357 41296 70405 10043 20032 49921 57022 70154 81640 22232 02020 20201 305// 40601 5//// 80038
BBXX 32012 22061 99197 50856 46/// ///// 1//// 90550 22200 11605 70026
BBXX DBJM 22061 99539 10078 46/// /2009 10055 20047 40154 57025 22221 00058
BBXX A8IM7 22064 99305 11297 41596 83530 10160 20088 40165 710// 8/4// 22225 04190 20706 3//// 4//// 5//// 80120
BBXX A8AJ4 22064 99503 11575 41997 03219 11030 2//// 40150 52020 7//// 80/// 22254 0//// 20604 3//// 40604 5//// 6//// 8//// ICE /////
BBXX C6SI6 22064 99320 11252 46/// /3626 10067 20000 40246 56021 7//// 8//// 22213 0//// 2////
BBXX 46070 22061 99551 11753 46/// /0207 11015 21039 40025 52005 90550 22200 00039 10904 20602 3//// 40903 70020 333 91208 555 11072 22075 30508 40109 60549 015068 008072 011070 008072 005069 002057 80108 90509
AAXX 22064 64810 32458 60000 10225 20217 30084 40110 84530 333 20215 58003 84614 86364
AAXX 22064 64820 32458 60000 10242 20237 30119 40128 82532 333 20241 58005 82613 83363 86070
BBXX DBEA 22061 99540 10083 46/// /1710 10043 20036 40152 57020 22221 00055
AAXX 22061 06414 16/// /2704 10101 20081 30186 40218 52001 60022 333 20071 91106 91204
AAXX 22061 06459 16/// /2605 10084 20084 30032 40226 54000 60022 333 20054 3/005 91108 91206
AAXX 22061 06494 16/// /2604 10036 20034 39411 40220 54000 69942 333 20002 4/023 91107 91204
BBXX DBBC 22061 99535 10100 46/// /1502 10025 2//// 40185 54000 22210 00036
BBXX DBCK 22061 99/// ///// 46/// ///// 10044 20044 40166 57009 22220 00047
BBXX DBBI 22061 99535 10100 46/// /9901 10025 20025 40184 52001 22250 00030
BBXX DBKR 22061 99541 10121 46/// /2103 10018 20018 40181 52002 22200 00042
BBXX DBFH 22061 99535 10086 46/// /1703 10045 20039 40167 57010 22200 00042
BBXX C6SW3 22064 99222 10623 41897 03625 10250 20119 40200 54000 7//00 80000 22234 00250 20303 3//// 40303 50303 6//// 80170 ICE /////
BBXX TBWUK18 22064 99327 30033 41298 81411 10180 20180 40218 53020 70222 887// 22222 20501 321// 41405 5//// 80180
BBXX BATFR45 22064 99146 10604 46/// ///// 10247 20169 40169 51021 22283 00280
BBXX BATFR55 22064 99073 30404 44598 60117 10289 20255 40125 70222 84122 22262 00290 207// 32121 411// 511//
BBXX BATFR19 22064 99066 30057 46/// /1813 10235 20189 40143 52018 22200 00252
BBXX BATFR56 22064 99177 30608 44597 61124 10235 20219 40146 50001 76022 85428 22213 00274 20604 312// 40604 5////
BBXX OVYB2 22061 99275 30408 41598 61306 10275 20224 40134 51020 70222 8346/ 22263 00270 20301 30000 4//// 5//// 80240
BBXX WDE8264 22063 99139 10516 41798 70516 10250 20191 40195 52020 7//22 87276 22214 00270 20502 305// 41004 5//// 6//// 80210 ICE /////
BBXX A8SU4 22064 99138 10424 41597 51528 10265 20205 40150 55/// 70522 83463 22234 00250 20506 31418 40406 50406 80225
BBXX DBEB 22061 99539 10079 41/// /1908 10050 20050 40146 57022 7//// 22200 00060
BBXX DBBA 22061 99541 10121 46/// /1602 10016 20006 40182 52003 22220 00047
BBXX 61001 22064 99434 10078 46/// /0502 10125 20030 40176 52016 22200 00149 10702 70008
BBXX DBND 22061 99536 10086 46/// /1705/10043 20043 40165 57009/ 22270 00456
AAXX 22064 64500 32360 61806 10255 20230 30109 40122 86500 333 02500 20250 50131 55060 59002 84608 86633
BBXX 41101 22064 99146 70562 46/// /0622 10263 20205 40132 57014 22200 00270 10906 70031 555 1/028
BBXX UFTA 22061 99849 71239 32997 03505 11347 21381 40076 58003 555 48044
BBXX V7MO2 22064 99262 70914 41797 51414 10229 20097 40136 54000 70011 85/// 22200 00235 20503 3//// 40703 5//// 6//// 80152 ICE /////
BBXX WSRH 22064 99352 71305 41998 00117 10133 2011/ 40230 54000 7//00 80/// 22234 00133 20405 336// 40505 5//// 6//// 80122 ICE /////
BBXX C6XC6 22064 99198 70741 41998 00930 10260 2//// 40160 54000 70100 80/// 22244 00284 20804 309// 40806 5//// 6//// 8//// ICE /////
BBXX 9HA2064 22063 99489 71480 41695 81724 10100 20081 49760 57050 71152 887// 22274 0//// 2//// 3//// 4//// 5//// 6//// 80090 ICE /////
BBXX WSRL 22064 99313 71488 41498 11415 10190 2017/ 40240 52010 70200 811// 22214 00211 2//// 3//// 4//// 5//// 6//// 80175 ICE /////
BBXX A8EH2 22064 99505 71421 41196 81835 10080 20080 49925 57055 887// 22274 00054 20708 399// 41008 80080
BBXX WDC6736 22064 99326 70767 41598 31213 10220 2019/ 40195 57015 70200 826// 22264 00270 20503 314// 40604 5//// 6//// 80200 ICE /////
BBXX WGJT 22064 99246 70734 43/// /1424 10256 2021/ 40204 57006 7//// 8//// 22234 00239 2//// 3//// 4//// 5//// 6//// 80228 ICE /////
BBXX SHIP 22064 99318 71223 41497 60508 10160 2013/ 40250 54000 70122 8548/ 22223 00150 2//// 3//// 4//// 5//// 6//// 80140 ICE /////
BBXX ZCDA9 22063 99327 71174 41398 42716 10140 20122 40178 53008 70200 83200 22264 00170 20202 333// 40502 5//// 80130
BBXX VOKJ 22064 99474 70704 46/// /2202 11008 21024 40035 58018 7//// 8//// 22254 0//// 2////
BBXX 44011 22061 99411 70666 46/// /2109 10125 20125 40088 56029 90550 22200 00095 10805 20805 3//// 41001 70025 333 91211 555 11096 22107 30517 40315 60549 209088 212099 210117 206122 208106 210115
BBXX 42363 22061 99282 70892 46/// /1206 10217 20200 40163 58003 90600 333 91206
BBXX 42364 22061 99291 70881 46/// /1605 10211 20194 40163 58003 90600
BBXX 41046 22061 99238 70683 46/// /0810 10244 20170 40222 57008 90550 22200 00254 10806 20805 300// 41203 70031 333 91212 555 11109 22115 30519 40813 60549 083102 084101 084105 086107 084108 084106 80811 90519
BBXX 46239 22061 99363 71221 46/// ///// 1//// 90551 22200 00136 11107 21003 330// 41106 70033
BBXX 46238 22061 99334 71195 46/// ///// 1//// 90550 22200 00142 11403 20902 329// 41403 70017
BBXX 51205 22061 99210 71564 46/// ///// 1//// 90548 22200 00240 10905 20905 332// 41202 70025
BBXX 41110 22061 99341 70777 46/// ///// 1//// 90551 22200 00139 10702 20702 310// 41401 70012
BBXX 41113 22061 99284 70805 46/// ///// 1//// 90551 22200 00211 10602 20602 308// 41401 70010
BBXX 42099 22061 99273 70842 46/// ///// 1//// 90557 22200 00231 10503 20503 70013
BBXX 44099 22061 99369 70757 46/// ///// 1//// 90552 22200 00107 10802 20802 309// 41101 70011
BBXX 41112 22061 99307 70813 46/// ///// 1//// 90551 22200 00160 10602 20602 309// 41301 70010
BBXX 44039 22061 99411 70727 46/// /2309 10118 20103 40076 90545 22200 00093 10402 70008 333 91211
BBXX 44100 22061 99363 70756 46/// ///// 1//// 90552 22200 00121 10702 20702 308// 41301 70011
BBXX 46219 22061 99332 71199 46/// ///// 1//// 90558 22200 00139 11304 21003 329// 41303 70022
BBXX 46224 22061 99332 71175 46/// ///// 1//// 90536 22200 00148 11302 20501 324// 41301 70008
BBXX 46214 22061 99379 71235 46/// ///// 1//// 90553 22200 00116 11306 20904 330// 41304 70031
BBXX 46218 22061 99345 71208 46/// ///// 1//// 90602 22200 00140 11406 20903 331// 41406 70032
BBXX 46229 22061 99438 71246 46/// ///// 1//// 90551 22200 00098 11305 21003 329// 41303 70023
BBXX 46225 22061 99329 71174 46/// ///// 1//// 90544 22200 00147 11402 21001 326// 41401 70009
BBXX 46215 22061 99352 71209 46/// ///// 1//// 90538 22200 00142 11303 21002 327// 41303 70016
BBXX BAREU54 22064 99135 70775 46/// ///// 40083 57007 22213
BBXX 46054 22061 99342 71204 46/// /3405 10127 40178 53017 90550 22200 00137 11404 20501 300// 41404 70022 333 91207 555 11055 22057 30506 43408 60549 340052 321060 325061 331058 329062 326065
BBXX 46028 22061 99357 71219 46/// /3404 10127 40181 51012 90550 22200 00127 11406 20401 331// 41406 70028 333 91205 555 11040 22043 30517 43107 60549 343038 330040 325046 317049 303048 292048
BBXX 46025 22061 99337 71191 46/// /0301 10138 20106 40175 53015 90550 22200 00151 11402 20401 326// 41402 70011 333 91203 555 11012 22013 30504 40303 60549 031012 027009 029011 034017 019019 013016
BBXX 46029 22061 99461 71245 46/// /0707 10061 20037 40313 54000 90550 22200 00085 11204 20602 328// 41204 70022 333 91209 555 11077 22081 30507 40811 60549 070073 065069 067082 069080 070080 068081
BBXX 46011 22061 99350 71210 46/// /3402 10134 40185 53017 90550 22200 00138 11406 20301 330// 41406 70029 333 91203 555 11018 22018 30507 43606 60549 331017 345025 358033 008040 359044 343039
BBXX 46087 22061 99485 71247 46/// /0704 10054 20031 40333 54000 90550 22200 00076 11205 20401 327// 41205 70024 333 91206 555 11046 22047 30450 40807 60549 065043 067043 076047 077050 067040 075050
BBXX 46086 22061 99325 71180 46/// /2803 10136 40187 51016 90550 22200 00150 11403 20301 330// 41403 70014 333 91205 555 11032 22033 30512 43008 60549 275035 276046 282037 290051 285041 278050
BBXX 46012 22061 99374 71229 46/// /3304 10111 40202 52009 90550 22200 00122 11406 20401 331// 41406 70028 333 91205 555 11039 22040 30454 43205 60549 334037 331032 334034 340035 336037 336038
BBXX 46027 22061 99419 71244 46/// /0304 10092 40237 53004 90550 22200 00089 11405 20401 328// 41405 70026 333 91204 555 11039 22043 30529 40205 60549 028037 031039 026037 030036 035035 024031
BBXX 46047 22061 99324 71195 46/// /2807 10135 40188 51010 90550 22200 00137 11505 20602 329// 41504 70023 333 91208 555 11069 22073 30534 42808 60549 277064 285066 284057 283059 291054 289052
BBXX 46014 22061 99394 71240 46/// /3504 10107 40212 53008 90550 22200 00106 11406 20401 3//// 41406 70030 333 91205 555 11039 22041 30512 43505 60549 352037 350038 352038 350038 343040 342039
BBXX 46069 22061 99337 71202 46/// /3108 10123 40179 51010 90550 22200 00140 11405 20502 331// 41405 70024 333 91210 555 11079 22083 30538 43210 60549 308075 313076 306071 306073 312064 306060
BBXX 46088 22061 99483 71232 46/// /0701 10055 40337 90550 22200 00078 11101 322// 41101 70004 333 91203 555 11013 22014 30535 40703 60549 066013 047017 033014 030012 038002 091010
BBXX 46013 22061 99382 71233 46/// /2601 10106 40204 52010 90550 22200 00109 11406 20401 3//// 41406 70029 333 91202 555 11006 22006 30450 41003 60549 252005 263003 271003 237005 154009 096018
BBXX 46050 22061 99442 71246 46/// /0606 10064 40296 54000 90550 22200 00096 11206 20401 329// 41205 70028 333 91207 555 11060 22062 30549 40707 60549 062056 061052 063051 063049 062048 064051
BBXX 44009 22061 99385 70747 46/// /2109 10129 40140 53015 90550 22200 00110 10704 20704 70020 333 91210 555 11097 22107 30512 42111 60549 213089 212086 213090 212093 211093 210091
BBXX 44027 22061 99443 70673 46/// /2308 10096 20090 40011 58015 90550 22200 00082 10805 20704 3//// 40803 70024 333 91210 555 11086 22095 30451 42311 60549 227080 229085 230088 229087 230091 229094
BBXX 44020 22061 99414 70702 46/// /2211 10118 20118 40040 58022 90550 22200 00075 10401 20401 70007 333 91214 555 11122 22130 30525 42717 60549 229115 256119 256118 255089 255074 254072
BBXX 44022 22061 99409 70737 46/// ///10 10130 20080 40088 90545 22200 00083 333 91213 555 11113 22124
BBXX 46243 22061 99462 71241 46/// ///// 1//// 90559 22200 00080 11304 20903 326// 41303 70020
BBXX 46232 22061 99325 71174 46/// ///// 1//// 90538 22200 00151 11302 21002 325// 41302 70012
BBXX 46236 22061 99368 71219 46/// ///// 1//// 90550 22200 00125 11305 21003 329// 41304 70025
BBXX 46213 22061 99403 71247 46/// ///// 1//// 90554 22200 00100 11307 20805 330// 41304 70034
BBXX 46247 22061 99378 71228 46/// ///// 1//// 90551 22200 00111 11305 21004 329// 41303 70025
BBXX 44172 22061 99445 70634 46/// ///// 1//// 90601 22200 00064 10806 20806 316// 41101 70030
BBXX 44097 22061 99410 70711 46/// ///// 1//// 90602 22200 00120 10808 20808 322// 41101 70039
BBXX 46061 22061 99602 71468 46/// /0204 10017 40034 56025 90550 22200 00058 11105 20401 300// 41105 70025 333 91206 555 11037 22038 30450 41006 60549 023038 064030 103018 115032 111044 101050
BBXX 41010 22061 99289 70785 46/// /1507 10233 40209 58015 90550 22200 00239 10603 20602 300// 41101 70014 333 91208 555 11074 22078
BBXX 42057 22061 99168 70815 46/// /0911 10278 20228 40129 58015 90550 22200 00277 10805 20805 70024 333 91214 555 11113 22120 30536 40915 60549 092113 088121 092109 089103 082104 083113 80913 90535
BBXX 41009 22061 99285 70802 46/// /1706 10240 20189 40202 58008 90550 22200 00242 11303 20402 300// 41302 70014 333 91207 555 11064 22067
BBXX VXKF 22064 99466 70598 46/// /1918 10044 20030 40111 58042 7//// 8//// 22212 0//// 2////
BBXX CGTF 22064 99476 70527 46/// /1408 11009 21042 40199 56009 7//// 8//// 22200 0//// 2////
BBXX CGDX 22064 99490 70669 46/// /1602 11018 21059 40055 56013 7//// 8//// 22200 0//// 2////
BBXX CGJK 22064 99484 71234 46/// /0203 10016 20010 40342 51003 7//// 8//// 22200 0//// 2////
BBXX VCWL 22064 99456 70735 46/// /0000 10004 20003 40028 55006 7//// 8//// 22200 0//// 2////
BBXX SHIP 22064 99378 71439 41697 82023 10160 2014/ 40229 52018 7//22 8897/ 22234 00180 20306 317// 40306 5//// 6//// 80150 ICE /////
BBXX ZCDG7 22064 99210 71517 41398 30921 10228 20196 40178 53010 70111 82442 22264 00240 20303 310// 40404 5////
BBXX CGCC 22064 99463 70725 46/// /3601 11003 21004 40028 58001 7//// 8//// 22200 0//// 2////
BBXX VAAP 22064 99446 70635 46/// /0102 10089 20087 40037 58075 7//// 8//// 22200 0//// 2////
BBXX CGDG 22064 99447 70636 46/// /1814 10093 20179 40046 56073 7//// 8//// 22200 0//// 2////
BBXX 3FZK3 22064 99469 71256 46/// /0517 10067 20040 40284 57002 7//// 8//// 22233 0//// 2////
BBXX CGSB 22064 99489 70674 46/// /1805 11018 21060 40057 55009 7//// 8//// 22211 00017 2////
BBXX VOKF 22064 99490 70669 46/// /1203 11019 21067 40051 56013 7//// 8//// 22200 0//// 2////
BBXX VCSZ 22064 99485 70621 46/// /1711 10010 20010 40058 56027 7//// 8//// 22234 0//// 2////
BBXX CGUM 22064 99452 70613 46/// /1921 10061 20058 40101 56057 7//// 8//// 22200 0//// 2////
BBXX CGBR 22064 99526 71285 46/// /0000 10028 20027 40287 58008 7//// 8//// 22200 0//// 2////
BBXX CZ9742 22064 99506 70969 46/// /2703 11073 21101 40226 53019 7//// 8//// 22200 0//// 2////
BBXX CGBY 22064 99487 71235 46/// /3002 10017 20001 40346 51004 7//// 8//// 22200 0//// 2////
BBXX VCBW 22064 99485 70641 46/// /3510 11027 21042 40084 58013 7//// 8//// 22232 00025 2////
BBXX VOPP 22064 99456 70735 46/// /0201 11009 21007 4//// 5//// 7//// 8//// 22200 0//// 2////
BBXX CG2958 22064 99517 71281 46/// /1712 10066 21023 40290 56011 7//// 8//// 22200 0//// 2////
BBXX VCRG 22064 99474 70619 46/// /1723 10032 20029 40064 58050 7//// 8//// 22200 0//// 2////
BBXX VOFG 22064 99456 70614 46/// /1513 10056 20047 40095 58055 7//// 8//// 22200 0//// 2////
BBXX VOLG 22064 99447 70624 46/// /1735 10074 20073 40046 57096 7//// 8//// 22253 0//// 2////
BBXX 4XIS 22063 99381 71709 43/97 72721 10160 2011/ 40060 55035 22225 80130
BBXX DFZB2 22064 99181 71266 41498 70520 10202 20143 40180 52025 70222 87700 22264 04210 2//// 3//// 4//// 5//// 80165
BBXX WGAX 22064 99348 70597 41898 72125 10200 2017/ 40200 57008 7//22 8764/ 22263 00204 2//// 3//// 4//// 5//// 6//// 80180 ICE /////
BBXX C6XP7 22063 99199 70676 41298 61125 10250 20236 40170 53/// 7//21 848// 22274 00250 20304 324// 4//// 5//// 6//// 80240 ICE /////
BBXX PBAD 22061 99229 70737 41998 01013 10250 20204 40189 58009 70200 80000 22234 00265 20502 3//// 4//// 5//// 80220
BBXX CG2960 22064 99423 70830 46/// /2403 10069 20042 4//// 5//// 7//// 8//// 22200 0//// 2////
BBXX CG2350 22064 99433 70798 46/// /2510 10055 20046 40125 53037 7//// 8//// 22200 0//// 2////
BBXX 42020 22061 99270 70967 46/// /1608 10237 20209 40094 56009 90550 22200 00234 10603 20603 309// 40801 70015 333 91210 555 11088 22094 30549 41610 60549 163083 161078 158078 161072 158075 155072
BBXX 41001 22061 99347 70727 46/// ///// 10219 20165 40200 56015 90550 22200 00221 10806 70030
BBXX 44005 22061 99432 70691 46/// /2209 10104 20104 40015 58020 90550 22200 00086 10704 20704 3//// 41101 70022 333 91211 555 11097 22107 30517 42111 60549 214089 209095 207092 211092 214091 214094
BBXX 42019 22061 99279 70954 46/// /1410 10228 20211 40090 58024 90550 22200 10903 20402 310// 40902 70014 333 91212 555 11105 22112 30507 42813 60549 146098 281091 282098 283106 282108 281109
BBXX 42059 22061 99151 70675 46/// /0811 10273 20223 40135 58009 90550 22200 00278 10806 20806 3//// 41203 70032 333 91213 555 11114 22122 30515 40814 60549 080106 079107 072113 072114 071111 072104 80813 90526
BBXX 42056 22061 99198 70849 46/// /1009 10268 20236 40143 58010 90550 22200 00272 10904 20604 310// 40903 70022 333 91210 555 11093 22098 30525 41011 60549 103088 102088 101094 099089 097086 100088 81010 90524
BBXX 42012 22061 99301 70876 46/// /1705 10212 20212 40157 50000 90550 22200 00207 10803 20401 315// 40803 70014 333 91206 555 11053 22059 30523 41706 60549 169049 169048 174053 167047 166044 160049
BBXX 42036 22061 99285 70845 46/// /1607 10222 20209 40172 58007 90550 22200 00218 10703 20602 317// 40702 70014 333 91209 555 11077 22084 30533 41709 60549 163071 164072 163071 161071 162073 161072
BBXX 42060 22061 99163 70635 46/// /0713 10245 20213 40156 58009 90550 22200 00276 10805 20805 300// 41302 70027 333 91217 555 11142 22150 30540 40617 60549 070133 061119 064119 059117 056106 051107 80715 90542
BBXX 42058 22061 99149 70749 46/// /0813 10272 20218 40108 58012 90550 22200 00277 10907 20506 309// 40904 70034 333 91216 555 11144 22153 30533 40817 60549 079131 081134 079132 079132 078131 080128 80814 90532
BBXX 41049 22061 99275 70630 46/// /1107 10220 20119 40270 56011 90550 22200 00236 11104 20502 300// 41104 70022 333 91209 555 11073 22076 30454 41109 60549 105067 118066 106055 107057 103047 110064 81108 90455
BBXX 41036 22061 99342 70770 46/// ///// 10202 20176 40185 56014 90550 22200 00186 10703 70016
BBXX 41043 22061 99211 70650 46/// /0812 10245 20192 40205 58007 90550 22200 00262 10907 20605 300// 40905 70037 333 91214 555 11125 22132 30451 40915 60549 082116 087116 081116 083118 076101 077115 80813 90452
BBXX 44066 22061 99396 70726 46/// /2413 10148 20138 40098 55000 90550 22200 00131 10807 20807 70033 333 91217 555 11139 22151 30459 42417 60549 243129 240129 240133 239133 237139 235140
BBXX 42055 22061 99222 70940 46/// /1309 10250 20217 40110 58009 90550 22200 00252 10802 20502 300// 40801 70010 333 91210 555 11091 22096 30532 41310 60549 129084 130083 128077 125078 126078 127076 81309 90549
BBXX 41047 22061 99275 70715 46/// /1109 10229 40249 58010 90550 22200 00247 11204 20703 305// 41203 70021 333 91210 555 11089 22094 30517 41112 60549 108089 115090 111096 108096 113091 115091 81111 90518
BBXX 42003 22061 99260 70856 46/// /1408 1//// 90550 22200 10803 20602 314// 40801 70014 333 91209 555 11083 22089 30545 41409 60549 140076 140074 138070 137071 141073 144072 81408 90546
BBXX 46105 22061 99590 71522 46/// ///// 1//// 90550 22200 11002 70011
BBXX NWS0022 22064 99416 70714 43/// /2512 10144 20115 40041 5//// 7//// 8//// 222// 04112 2//// 3//// 4//// 5//// 6//// 8//// ICE /////
BBXX KRGB 22064 99374 71238 41/98 13410 10117 2011/ 40191 52010 7//00 81/// 22254 00161 21002 332// 41602 5//// 6//// 80111 ICE /////
BBXX 44060 22061 99413 70721 46/// ///10 10112 40062 90545 22200 00104 333 91212 555 11113 22124
BBXX 44014 22061 99366 70748 46/// /2107 1//// 40162 50004 90550 22200 00144 10704 20603 317// 40703 70018 333 91208 555 11073 22073 30456 42010 60549 210073 208074 206077 207080 207082 209084
BBXX 41004 22061 99325 70791 46/// /2107 10224 20177 40191 58006 90550 22200 00209 10704 20703 3//// 41102 70018 333 91209 555 11079 22088 30545 42109 60549 210072 208072 208070 207066 209064 210061
BBXX 44065 22061 99404 70737 46/// /2610 10134 20094 40096 53031 90550 22200 00103 10704 20603 317// 40702 70020 333 91212 555 11110 22121 30530 42614 60549 263099 261106 253101 250101 249094 249083 82612 90535
BBXX 41013 22061 99334 70777 46/// /2207 10218 20200 40186 58011 90550 22200 00215 10704 20603 319// 40703 70018 333 91208 555 11070 22075 30529 42108 60549 221065 217068 218067 216063 225060 231063
BBXX 42001 22061 99259 70897 46/// /1507 10246 20225 40164 50000 90550 22200 00251 10902 20501 3//// 40901 70010 333 91208 555 11075 22080 30524 41409 60549 146072 143074 145075 147074 148071 151066
BBXX 42035 22061 99292 70944 46/// /0606 10157 20133 40118 58020 90550 22200 00160 10801 20301 315// 40801 70007 333 91207 555 11067 22071 30542 40507 60549 057063 052058 049058 051058 050053 055048
BBXX 42065 22061 99149 70750 46/// /0811 10269 20225 90550 22200 11007 20705 3//// 41005 70035 333 91214 555 11117 22125 30531 40714 60549 079109 077112 075102 076105 079103 078105 80812 90535
BBXX 46080 22061 99580 71500 46/// /0507 10037 21008 40001 58028 90550 22200 00051 11105 20602 3//// 41104 70024 333 91209 555 11078 22082 30518 40609 60549 048073 051072 052070 054069 051069 053066 80508 90546
BBXX 46059 22061 99380 71300 46/// /0208 10117 40273 53004 90550 22200 00145 11207 20503 3//// 41206 70033 333 91210 555 11084 22088 30451 40311 60549 023078 025075 027081 029078 030082 029086
BBXX 46005 22061 99461 71310 46/// ///09 10091 40273 56015 90550 22200 00099 11204 20402 3//// 41203 70021 333 91212 555 11097 22103
BBXX 46075 22061 99539 71608 46/// /3307 10027 21017 40045 52003 90550 22200 00049 11105 20602 300// 41105 70027 333 91209 555 11072 22075 30500 43210 60549 325069 326069 327069 332070 331075 331075 83308 90500
BBXX 41060 22061 99148 70510 46/// ///// 1//// 90550 22200 11407 70036
BBXX 41048 22061 99320 70696 46/// /2207 10211 20131 40260 58014 90550 22200 00226 11302 20501 3//// 41302 70012 333 91209 555 11074 22078 30532 42010 60549 219075 213082 207073 206074 201077 208078 82009 90532
BBXX 46084 22061 99566 71361 46/// /1413 10074 20069 40030 56035 90550 22200 00072 11012 20405 300// 41011 70060 333 91216 555 11144 22154 30459 41418 60549 143134 144132 145135 143134 141138 141140
BBXX 41044 22061 99217 70587 46/// /0811 10242 20175 90550 555 11118 22126
BBXX 46006 22061 99408 71375 46/// /1610 10124 40261 50000 90550 22200 00124 11204 20503 3//// 41203 70020 333 91212 555 11108 22115 30518 41612 60549 159100 156101 158098 161097 160094 157091
BBXX 46002 22061 99426 71305 46/// ///// 10093 40291 58011 90550 22200 00117 11305 70025
BBXX 42002 22061 99258 70937 46/// /1508 10243 20238 40120 58007 90550 22200 00238 10903 20602 311// 40902 70014 333 91209 555 11078 22083 30536 41410 60549 150078 147083 146081 145078 145080 146084
BBXX 42040 22061 99292 70882 46/// /1506 10219 40154 58003 90550 22200 00229 10803 20601 314// 40803 70016 333 91207 555 11063 22066 30548 41507 60549 153062 149052 151060 157054 161055 161056
BBXX A8YW2 22064 99066 30835 41498 60910 10275 20234 40090 58010 72588 85442 22213 00260 21201 80245
BBXX PCHM 22064 99422 31632 41297 30716 10160 20150 40253 50002 70222 82646 22233 00150 20202 308// 40202 80154
BBXX C6XC2 22064 99024 31327 41498 72619 10300 20260 40020 57040 70322 8624/ 22200 00300 20301 3//// 4//// 5//// 6//// 80270 ICE /////
BBXX BATEU07 22064 99205 31097 46/// /1719 10284 40085 56019 22284
BBXX BATFR53 22064 99185 51733 44498 60809 10282 20229 40092 52010 72522 84379 22222 00287 201// 30521 403// 505// 60/// ICE 0////
BBXX CGDR 22064 99491 71237 46/// /2803 10031 20030 40348 51008 7//// 8//// 22271 00103 2////
BBXX CGDT 22064 99468 70712 46/// /0405 11007 21009 40044 55002 7//// 8//// 22200 0//// 2////
BBXX CG2965 22064 99487 71235 46/// /3003 10024 20008 40348 51004 7//// 8//// 22200 0//// 2////
BBXX CGBN 22064 99447 70636 46/// /1403 10100 20093 40033 56072 7//// 8//// 22200 0//// 2////
BBXX VCLM 22064 99468 70712 46/// /0304 11010 21012 40041 55002 7//// 8//// 22200 0//// 2////
BBXX 46026 22061 99378 71228 46/// /2802 10104 40201 51009 90550 22200 00109 11005 20301 330// 41005 70023 333 91203 555 11018 22018 30549 42803 60549 278014 317002 263003 241001 266003 280010
BBXX 46041 22061 99474 71247 46/// /1206 10058 40324 54000 90550 22200 00078 11204 20601 3//// 41204 70022 333 91208 555 11066 22069 30544 41208 60549 117063 117058 120056 118051 120048 117045
BBXX 51101 22061 99243 71621 46/// /0810 10234 20176 40194 53022 90550 22200 00239 10905 20704 309// 40903 70026 333 91211 555 11101 22108 30501 40613 60549 076093 066095 067090 068092 064097 066097
BBXX 44040 22061 99410 70736 46/// /2608 10124 20114 40091 90545 22200 10301 70003 333 91212 555 11103 22124
BBXX 46035 22061 99571 71778 46/// /1904 1//// 40008 53005 90550 22200 10904 20401 300// 40904 70022 333 91205 555 11036 22038 30520 42108 60549 190037 204051 208064 206063 207060 217047 82107 90520
BBXX 46077 22061 99579 71543 46/// /0306 10019 21050 40026 58010 90550 22200 00047 11302 20501 3//// 41302 70009 333 91208 555 11064 22066 30542 40208 60549 029062 031060 030057 033057 040060 048057 80307 90542
BBXX 46072 22061 99517 71722 46/// /0102 10020 21035 40021 58016 90550 22200 00048 11105 20301 3//// 41105 70023 333 91203 555 11018 22019 30451 42904 60549 015019 346021 340020 326020 317018 305024 83503 90533
BBXX 46082 22061 99597 71434 46/// ///// 10044 40016 56050 90550 22200 00064 11408 70038
BBXX 42039 22061 99288 70860 46/// /1303 10222 40161 57006 90550 22200 00230 10704 20401 300// 40703 70018 333 91203 555 11027 22028 30535 41404 60549 132026 130031 137021 134017 135022 139024 81303 90535
BBXX 41040 22061 99145 70530 46/// /0610 10263 20212 40142 58014 90550 22200 00278 11507 20705 3//// 41505 70034 333 91212 555 11102 22108 30519 40612 60549 062096 059095 056094 057097 061099 057099 80611 90457
BBXX CGDS 22064 99450 70747 46/// /2805 10004 20002 4//// 5//// 7//// 8//// 22200 0//// 2////
BBXX PBBB 22063 99396 70370 41598 33613 10150 20082 40245 52035 70211 8/541 22263 00170 20505 3//// 4//// 5//// 80113
BBXX 44007 22061 99435 70701 46/// /2201 10053 20053 40018 58022 90550 22200 00075 10603 20401 3//// 40603 70014 333 91202 555 11013 22014 30546 42102 60549 211013 223008 198008 195007 244004 124003
BBXX C6JS 22063 99304 70491 41598 33618 10200 2015/ 40250 54000 70200 89/// 22254 20503 332// 40704 5//// 80170
BBXX P3GY9 22064 99083 70556 41797 60824 10280 2024/ 40110 57015 70322 86462 22233 00300 20806 308// 41205 5//// 6//// 80250 ICE /////
BBXX WBO3345 22064 99200 70707 41697 60820 10250 20219 40150 57/// 70122 86473 22232 0//// 20405 310// 40405 5//// 6//// 80228 ICE /////
BBXX HZRX 22063 99265 70889 41997 02412 /// 10250 20215 40156 54002 70222 80000 22273 10180 20102 32424 40101 5//// 6//// 80190 ///// /////
BBXX 9HA2583 22064 99265 70669 41798 30828 10210 2//// 40270 51010 70111 82130 22284 04260 20504 306// 4//// 5//// 6//// 8//// ICE /////
BBXX C6LU4 22064 99150 70787 41/96 40730 10260 2022/ 40080 51010 703// 8//// 22213 2//// 3//// 4//// 5//// 80225
BBXX BAREU04 22064 99466 70523 46/// ///// 40214 57004 22253
BBXX BAREU11 22064 99341 70499 46/// ///// 40277 52002 22214
BBXX 3FBC9 22064 99058 71078 41697 81819 10240 40083 55010 70211 85427 9//// 22233 00280 20304 317// 40505 5//// 6//// 80220
BBXX FVNM 22064 99082 70793 46/// /0307 10269 20249 40075 58011 22281 00272
BBXX A8ID9 22064 99114 71512 41498 60722 10250 20222 40110 52035 75052 84794 22214 00260 20404 30700 40607 5//// 80230
BBXX WDC6698 22064 99093 71455 43/// /3218 1//// 2//// 40080 5//// 7//// 8//// 222// 04254 2//// 3//// 4//// 5//// 6//// 8//// ICE /////
BBXX DDAC2 22060 99178 71021 41/98 29901 10240 20211 40100 54000 7//00 81190 22271 04280 2//// 330// 40303 5//// 80220
BBXX DBLK 22061 99705 50081 41498 71304 11057 21065 49801 52011 70222 86848 22200 05016 ICE 18780
BBXX VRYO3 22064 99492 70239 46/// /0916 10120 20133 40101 55014 7//// 8//// 22264 00121 2////
BBXX C6VF5 22064 99331 10285 41597 72622 10170 2008/ 40150 56030 70311 8726/ 22274 00200 2//// 3//// 4//// 5//// 6//// 80120 ICE /////
BBXX DK7210 22061 99540 10066 46/// /2510 10092 20092 30117 222// 20503 70013
BBXX MYSU5 22063 99476 70314 41/98 22530 10090 20018 40144 52020 70200 8//// 22223 00120 20709 325// 41208 5//// 80060
BBXX WDD6126 22064 99451 70204 41498 11930 10150 2013/ 40248 57009 7//00 811// 22254 00131 20405 320// 40806 5//// 6//// 80135 ICE /////
AAXX 22064 78526 NIL
AAXX 22064 78543 NIL
BBXX TFBKF 22064 99635 70202 46/// ///// 22200 10807 70035
BBXX TFBLK 22064 99657 70248 46/// ///// 22200 10705 70025
BBXX TFDRN 22064 99658 70212 46/// ///// 22200 10402 70011
BBXX TFGRS 22064 99663 70182 46/// ///// 22200 10505 70024
BBXX TFGRV 22064 99638 70225 46/// ///// 22200 11010 70048
BBXX TFGSK 22064 99641 70229 46/// ///// 22200 10909 70045
BBXX TFHFN 22064 99642 70152 46/// ///// 22200 10912 70059
BBXX TFKGR 22064 99657 70136 46/// ///// 22200 10506 70029
BBXX TFSRT 22064 99633 70203 46/// ///// 22200 11012 70059
BBXX TFSTD 22064 99664 70234 46/// ///// 22200 10606 70029
AAXX 22064 78255 42559 10904 10207 20192 30037 40186 57010 81200 333 81820
AAXX 22064 78317 NIL
AAXX 22064 78318 NIL
AAXX 22064 78325 NIL
AAXX 22064 78333 NIL
AAXX 22064 78338 NIL
AAXX 22064 78348 NIL
AAXX 22064 78349 NIL
AAXX 22064 78353 NIL
AAXX 22064 78360 NIL
AAXX 22064 78367 NIL
AAXX 22064 78369 NIL
AAXX 22064 48407 32560 60307 10290 20171 39962 40102 57032 81106 333 59018
AAXX 22064 48583 11559 70607 10280 20241 30080 40085 57013 60031 71062 82246 333 59004 70083
AAXX 22064 11012 81924 11038 21049 39837 49880 52010 69901 77273 89/// 333 01838 56999 89/01 90973 93197 96038
BBXX UCKD 22061 99561 10031 41/98 93112 10113 40120 52010 70021 89/// 22253 00090 20302
AAXX 22061 33088 11597 83503 11031 21038 39994 40193 52016 69902 70272 885// 333 21035 47006
AAXX 22061 33177 NIL
AAXX 22061 33261 NIL
AAXX 22061 33275 11395 82806 11011 21018 39859 40087 52032 60052 78582 883// 333 21011 47002 87708
AAXX 22061 33301 11295 82804 11037 21042 39904 40197 53016 69902 71022 886// 333 21037 47002 88706
AAXX 22061 33325 NIL
AAXX 22061 33377 11456 83307 11026 21039 39934 40134 52026 60172 73673 886// 333 21026 47010 88719 92990
AAXX 22061 33415 NIL
AAXX 22061 33429 31194 83103 11048 21051 39761 40203 52016 71022 886// 333 21050 47005 88702
AAXX 22061 33466 11598 83304 11005 21039 39971 40163 52022 69902 70282 885// 333 21013 88624
AAXX 22061 33526 32960 50000 11110 21123 29854 40219 52014 85030 333 21115
AAXX 22061 33562 31396 82804 11016 21033 39814 40186 52019 71022 886// 333 21017 47003
AAXX 22061 33614 11496 82706 11006 21018 30046 40153 52036 60052 71082 885// 333 21006 47002 88718
AAXX 22061 33761 11950 22702 11025 21031 39956 40187 52021 60012 71000 82030 333 21025 47004
AAXX 22061 33902 12997 62601 11004 21022 30118 40187 52012 69972 80001 333 21004
AAXX 22061 33983 32997 23004 10016 21012 30145 40207 52014 82030 333 20003
AAXX 22061 34415 11470 83208 10006 21011 30027 40125 53030 60012 72276 886// 333 20006
AAXX 22061 34523 32598 62405 10023 21017 30073 40150 52021 86500 333 20023
AAXX 22061 34712 NIL
BBXX MGRH9 22063 99386 31734 41498 21919 10168 20134 40237 57029 70200 81363 2229/ 00170 20403 315// 40502 5//// 80149
BBXX PDNN 22063 99472 70192 41/98 /1830 10140 20123 40220 54000 70111 8//// 22223 02126 2//// 80130 90638
AAXX 22064 91165 NIL
AAXX 22064 91182 NIL
AAXX 22064 91190 NIL
AAXX 22064 91212 NIL
AAXX 22064 91217 NIL
AAXX 22064 91285 NIL
AAXX 22064 91317 NIL
AAXX 22064 91334 11474 80310 10280 20247 30032 40035 56010 60011 70282 83321 333 56199 70071 555 92206
AAXX 22064 91348 11474 80808 10283 20246 30003 40056 53002 60041 72582 86271 333 56299 70099 555 92206
AAXX 22064 91356 NIL
AAXX 22064 91366 NIL
AAXX 22064 91369 NIL
AAXX 22064 91371 NIL
AAXX 22064 91376 32474 80611 10280 20234 30052 40056 53003 8487/ 333 5619/ 70015 555 92206
AAXX 22064 91408 11474 80912 10314 20257 30000 40038 57015 60011 70282 83278 333 56999 70122 555 92206
AAXX 22064 91413 NIL
AAXX 22064 91425 NIL
AAXX 22064 91434 NIL
AAXX 22064 91765 NIL
AAXX 22064 68024 32960 63007 10230 20164 48500 52014 86070 333 20198
AAXX 22064 68029 32960 23603 10245 20196 48488 52014 82080 333 10319
AAXX 22064 48325 31562 20000 10277 20160 39875 40116 57040 70140 81201 333 59011
AAXX 22064 16622 11260 83319 10034 20024 30054 40065 55026 60152 76366 887// 333 20034 33/// 5///0 55045 70152 83705 88630 90730 91131 555 10000 30072 20000 89053 99092 30000 10052 2//// 30064 4//// 5//// 40000 47570 44210 50000 50030 60000 60152 61030 70000 77R// 7R///
AAXX 22064 16641 11358 83609 10070 20066 30000 40006 56007 60252 76196 8672/ 333 20070 32/// 55000 70318 83708 83815 85625 90730 91120 555 10000 30094 20000 89059 99100 40000 47531 44210 50000 50068 60000 60248 61200 70000 77R// 7TR//
AAXX 22064 16682 NIL
AAXX 22064 16716 11460 81325 10130 20078 30019 40036 57005 60282 72162 8682/ 333 20114 32/// 55054 70280 83816 85625 88458 555 10000 30160 20000 89040 99079 40000 47540 44160 50000 50104 60000 60280 60720 70000 77R// 7R///
AAXX 22064 16734 NIL
AAXX 22064 16743 NIL
AAXX 22064 16749 11358 71608 10138 20087 30098 40113 57016 60072 76362 85750 333 20128 32/// 55043 70073 83709 85625 87358 90730 91124 555 10000 30150 20000 89064 99093 40000 47603 44190 50000 50112 60000 60068 60325 70000 77R// 7R///
AAXX 22064 16754 12460 51913 10142 20059 30016 40063 57014 69942 82250 333 20118 31/// 50180 55044 70020 82818 85358 90730 91127 555 10000 30142 20000 89055 99091 40000 47546 44220 50000 50102 60000 60004 60010
AAXX 22061 38353 42997 03201 11155 21197 39478 40473 54000 70400 333 21200
AAXX 22061 38613 42999 60201 11060 21134 40413 51003 80002 333 21110
AAXX 22061 38616 42597 70000 11073 21112 39346 40432 52012 84530 333 21130
AAXX 22061 38345 32999 85401 11119 21117 38906 48586 58002 82036 333 21184
AAXX 22061 36911 42998 20000 11143 21178 39402 40459 57003 82010 333 21191
AAXX 22061 36974 32998 01501 11152 21186 38050 48627 52008 333 21207
AAXX 22061 36982 42999 20000 11165 21224 36548 47206 52009 80001 333 21250
AAXX 22064 91222 NIL
AAXX 22064 91245 NIL
AAXX 22064 91323 NIL
AAXX 22064 91339 NIL
AAXX 22064 91343 NIL
AAXX 22064 91353 NIL
AAXX 22064 91442 NIL
AAXX 22064 47101 32980 02506 11019 21225 30145 40244 55005
AAXX 22064 47105 369// /3410 10015 21240 30169 40202 55001
AAXX 22064 47108 32970 02910 11041 21243 30150 40261 56008
AAXX 22064 47115 41510 80210 11021 21068 39896 40176 53006 78572 888// 333 92043
AAXX 22064 47133 32970 03207 11010 21172 30170 40258 56008
AAXX 22064 47138 32973 03207 10033 21279 30209 40212 53003 333 92023
AAXX 22064 47159 32975 03610 10046 21184 30119 40205 55006 333 92023
AAXX 22064 47165 32668 60222 10004 21066 30204 40252 55007 85500 333 92026
AAXX 22064 47168 32970 03416 10036 21141 30133 40214 57010 333 92035
AAXX 22064 47184 32567 73414 10044 21043 30229 40255 55004 87800 333 92054
AAXX 22061 26038 01133 81903 11024 21023 30122 40164 53002 60002 71042 886// 333 11011 21025 60007 88702 555 11101 21025 31102 51013 52103
AAXX 22061 26045 NIL
AAXX 22061 26058 NIL
AAXX 22061 26115 NIL
AAXX 22061 26135 NIL
AAXX 22061 26141 01105 92101 11032 21036 30016 40169 52002 69902 74974 333 11020 21039 60007 8//03 555 14102 21039 34102 51024 52103
AAXX 22061 26231 01157 81901 11013 21014 30157 40172 54001 60002 71042 886// 333 11009 21034 60007 88703 555 14100 21034 34100 51016
AAXX 22061 26242 01263 82802 11030 21039 30085 40175 52007 60002 70222 886// 333 11018 21031 60007 88704 555 14101 21031 34101 51019 52102
AAXX 22061 26247 NIL
AAXX 22064 47090 32973 03207 11004 21225 30184 40207 53001 333 92043
AAXX 22064 47095 32970 02508 11052 21236 30058 40256 55006
AAXX 22064 47097 329// /2908 11027 21220 30154 40254 55005
AAXX 22064 47098 329// /2905 11030 21223 30114 40254 55008
AAXX 22064 47099 329// /2908 11037 21229 30225 40263 56011
AAXX 22064 47100 32970 02715 11074 21213 39259 40215 53002
AAXX 22064 47102 41570 62910 11045 21119 30093 40280 57015 78588 86800
AAXX 22064 47104 32970 02907 10001 21235 30103 40203 53003
AAXX 22064 47106 329// /2910 10009 21229 30148 40198 53001
AAXX 22064 47112 32970 03417 11017 21182 30176 40263 57011 333 92025
AAXX 22064 47114 32970 02508 11024 21235 30052 40241 55007
AAXX 22064 47119 32970 03208 11027 21187 30218 40262 55006
AAXX 22064 47121 329// /2707 11021 21200 39925 40229 55005
AAXX 22064 47127 329// /2710 11022 21211 30100 40247 55010
AAXX 22064 47129 32670 23213 11019 21120 30235 40272 57011 81500
AAXX 22064 47130 32970 02709 10031 21227 30134 40197 53005 333 92023
AAXX 22064 47131 32970 03206 11027 21191 30186 40260 55006
AAXX 22064 47135 429// /2714 11023 21175 39928 40237 55008
AAXX 22064 47136 32970 02912 10000 21187 30044 40221 55003
AAXX 22064 47137 329// /2708 11011 21207 30110 40232 55009
AAXX 22064 47140 32670 23214 11014 21135 30232 40262 57007 82500 333 92024
AAXX 22064 47143 32972 02710 10017 21172 30150 40231 55007
AAXX 22064 47145 32970 03212 11032 21179 30230 40258 55004
AAXX 22064 47146 32670 23210 10002 21145 30183 40251 57013 82500
AAXX 22064 47150 32670 23410 11022 21134 30244 40264 58008 81500
AAXX 22064 47152 32975 02912 10025 21176 30164 40207 54000
AAXX 22064 47154 329// /3210 10002 21180 30171 40233 55005
AAXX 22064 47155 32980 01408 10033 21153 30163 40210 55001
AAXX 22064 47156 32670 50210 10004 21093 30158 40250 57012 85500
AAXX 22064 47157 32978 03412 10000 21159 39934 40211 55004
AAXX 22064 47162 32980 00513 10045 21171 30165 40206 55010 333 92024
AAXX 22064 47169 32670 63424 10014 21059 30158 40255 55011 85500 333 92066
AAXX 22064 47170 41675 53610 10014 21046 30197 40242 55007 72682 85500 333 92023
AAXX 22064 47171 329// /3206 11003 21116 30203 40260 56007
AAXX 22064 47172 329// /3210 11007 21093 30185 40254 56007
AAXX 22064 47173 329// /3409 10009 21115 30124 40238 57013
AAXX 22064 47174 32670 22905 10014 21131 30018 40225 57009 81500
AAXX 22064 47175 41562 63415 11029 21058 39651 40245 55005 78582 86800 333 92035
AAXX 22064 47185 41565 73433 10043 21017 30145 40238 55003 72682 87800 333 92058
AAXX 22064 47188 41568 60507 10028 21017 30214 40236 55006 72687 85800 333 92044
AAXX 22064 47189 32670 50906 10072 21033 30154 40214 55013 85500 333 92033
AAXX 22064 47192 32978 00208 10028 21163 30180 40218 57008
AAXX 22063 91551 31598 20000 10300 20258 40052 56006 70122 82204 333 561/9 82820
AAXX 22063 91553 31598 73605 10290 20264 40061 51003 70222 8597/ 333 5619/ 83820 81925 85640 87461
AAXX 22063 91554 11498 81203 10275 20261 40057 56005 69901 72522 8697/ 333 5639/ 69901 84818 81922 88461
AAXX 22063 91555 31598 81216 10286 20258 40062 56003 70222 8697/ 333 5639/ 84823 81925 86640 88461
AAXX 22063 91557 11598 80911 10273 20242 40048 57011 69901 70222 8587/ 333 5629/ 69901 85820 88461
AAXX 22063 91565 31598 80000 10270 20241 40064 57015 70222 8297/ 333 5619/ 82825 81928 88465
AAXX 22063 91568 31598 81012 10266 20228 40087 56012 70222 8512/ 333 5639/ 85823 88460
AAXX 22063 91551 31598 20000 10300 20258 40052 56006 70122 82204 333 561/9 82820
AAXX 22063 91553 31598 73605 10290 20264 40061 51003 70222 8597/ 333 5619/ 83820 81925 85640 87461
AAXX 22063 91554 11498 81203 10275 20261 40057 56005 69901 72522 8697/ 333 5639/ 69901 84818 81922 88461
AAXX 22063 91555 31598 81216 10286 20258 40062 56003 70222 8697/ 333 5639/ 84823 81925 86640 88461
AAXX 22063 91557 11598 80911 10273 20242 40048 57011 69901 70222 8587/ 333 5629/ 69901 85820 88461
AAXX 22063 91565 31598 80000 10270 20241 40064 57015 70222 8297/ 333 5619/ 82825 81928 88465
AAXX 22063 91568 31598 81012 10266 20228 40087 56012 70222 8512/ 333 5639/ 85823 88460
AAXX 22064 91925 06/// /0101 10230 20187 30046 40107 51024 60001 333 55054 60007 90710 91106 555 60005 11016 59006
AAXX 22064 91929 04970 /1021 10261 20204 30108 40111 53026 60032 700// 333 10278 20233 55/// 60007 70144 90710 91130 555 60005
AAXX 22064 91938 01460 80611 10227 20193 30106 40108 58014 60292 76086 8387/ 333 10282 20219 32/// 55016 60067 70291 82816 87461 90710 91116 555 69925 10616 59020
AAXX 22064 91943 16/// /0807 10263 20226 30106 40108 51015 69964 333 20250 59010
AAXX 22064 91944 06/// /0814 10264 20203 30132 40135 51022 60052 333 10287 20243 55071 60007 70047 90710 91118 555 60005
AAXX 22064 91948 06/// /0503 10240 20189 30081 40184 51015 60001 333 55103 60007 90710 91118 555 60005 11222 59007
AAXX 22064 91954 06/// /0419 10253 20222 30146 40149 53024 60001 333 55/// 60007 555 59006
AAXX 22064 91958 06/// /1204 10235 20214 30176 40178 53014 69961 333 55104 69967 90710 91111 555 69945 10312 59011
AAXX 22064 91945 NIL
BBXX LAHV 22061 99589 10057 43/// /1504 10062 20028 40086 222// 04087 1////
BBXX LF4H 22064 99596 10022 46/// /2614 10094 20081 40064 52021 8//// 22200 06084 10604 70018 333 91123
BBXX LMEL 22061 99603 10053 43/// /1306 10038 20039 40061 5//// 222/0 04093 1//// 3//// 4//// 5////
AAXX 22064 93004 16/// /0812 10172 20128 40238 57002 60001
AAXX 22064 93023 16/// /1108 10184 20119 40250 57009 60001
AAXX 22064 93069 16/// /1007 10186 20114 40246 57011 60001
AAXX 22064 93110 17998 /2408 10198 20145 40243 57007 60001
AAXX 22064 93186 17598 /0308 10178 20121 40249 57007 60001
AAXX 22064 93196 16/// /1409 10156 20092 40258 57009 60001
AAXX 22064 93245 16898 /0609 10167 20124 40237 52003 60001
AAXX 22064 93292 17698 /0904 10171 20080 40265 57003 60001
AAXX 22064 93309 17/98 /1608 10210 20091 40236 57014 60001
AAXX 22064 93334 16/// /1104 10163 20080 39293 57006 60001
AAXX 22064 93339 16/// /1809 10152 20083 39298 57009 60001
AAXX 22064 93373 17698 /0707 10181 20093 40268 57006 60001
AAXX 22064 93404 17/98 /1112 10193 20096 40254 57004 60001
AAXX 22064 93420 17/98 /2404 10195 20124 40247 57019 60001
AAXX 22064 93439 17/98 /1614 10160 20097 40259 57012 60001
AAXX 22064 93498 16/// /1207 10144 20096 40276 57005 60001
AAXX 22064 93515 17998 /2515 10182 20132 40259 57004 60001
AAXX 22064 93527 16/// /3406 10187 20146 40258 57013 60001
AAXX 22064 93546 17998 /0307 10191 20146 40259 57007 60001
AAXX 22064 93597 16/// /1310 10154 20115 40275 57006 60001
AAXX 22064 93615 17997 /2410 10179 20145 40257 57010 60001
AAXX 22064 93678 16/98 /0606 10149 20109 40279 57006 60001
AAXX 22064 93709 16/// /2707 10182 20121 40261 57012 60001
AAXX 22064 93773 17998 /1206 10156 20117 40278 57002 60001
AAXX 22064 93781 17998 /0610 10164 20109 40277 57003 60001
AAXX 22064 93800 NIL
AAXX 22064 93805 NIL
AAXX 22064 93831 17998 /1711 10218 20078 40235 57002 60001
AAXX 22064 93845 16/98 /2605 10183 20131 40276 57005 60001
AAXX 22064 93891 17/98 /3202 10167 20127 40279 52001 60001
AAXX 22064 93909 16/// /3006 10150 20116 40278 57004 60001
AAXX 22064 93929 16/// /0000 10108 20106 40251 57003 60001
AAXX 22064 93947 16/// /2309 10119 20036 40240 57003 60001
AAXX 22064 93987 16/// /2405 10108 20086 40277 57009 60001
AAXX 22064 93994 NIL
BBXX VCXF 22064 99464 70484 41598 72422 10012 2103/ 40240 52008 70222 87500 22200 02022 20504 326// 40806 81002
BBXX 3FZK3 22064 99469 71256 46/// /0517 10067 20040 40284 57002 7//// 8//// 22233 0//// 2////
BBXX 46014 22061 99394 71240 46/// /3504 10107 40212 53008 90550 22200 00106 11406 20401 3//// 41406 70030 333 91205 555 11039 22041 30512 43505 60549 352037 350038 352038 350038 343040 342039
BBXX 46026 22061 99378 71228 46/// /2802 10104 40201 51009 90550 22200 00109 11005 20301 330// 41005 70023 333 91203 555 11018 22018 30549 42803 60549 278014 317002 263003 241001 266003 280010
BBXX 46042 22061 99368 71224 46/// /3406 10123 40190 51007 90550 22200 00124 11406 20502 332// 41406 70031 333 91208 555 11068 22072 30532 43409 60549 344064 343071 341072 342072 343063 341065
BBXX CG2958 22064 99517 71281 46/// /1712 10066 21023 40290 56011 7//// 8//// 22200 0//// 2////
BBXX CG2965 22064 99487 71235 46/// /3003 10024 20008 40348 51004 7//// 8//// 22200 0//// 2////
BBXX CGBR 22064 99526 71285 46/// /0000 10028 20027 40287 58008 7//// 8//// 22200 0//// 2////
BBXX CGBY 22064 99487 71235 46/// /3002 10017 20001 40346 51004 7//// 8//// 22200 0//// 2////
BBXX CGDR 22064 99491 71237 46/// /2803 10031 20030 40348 51008 7//// 8//// 22271 00103 2////
BBXX CGJK 22064 99484 71234 46/// /0203 10016 20010 40342 51003 7//// 8//// 22200 0//// 2////
BBXX KRGB 22064 99374 71238 41/98 13410 10117 20110 40191 52010 7//00 81/// 22254 00161 21002 332// 41602 5//// 6//// 80111 ICE /////
BBXX SHIP 22064 99378 71439 41697 82023 10160 20140 40229 52018 7//22 8897/ 22234 00180 20306 317// 40306 5//// 6//// 80150 ICE /////
BBXX WSM5364 22063 99593 71415 41/97 80830 10022 2//// 40000 5//// 702// 8//// 222// 00072 2//// 31022 4//04 5//05 6//// 8//// ICE /////
BBXX VCXF 22064 99464 70484 41598 72422 10012 2103/ 40240 52008 70222 87500 22200 02022 20504 326// 40806 81002
AAXX 22061 26509 31440 81101 11043 21049 30186 40195 52007 71042 885// 333 21056 34/// 91002 91102 93604 555 53002 7000/
AAXX 22061 26518 31/07 90000 11063 21063 40199 52008 74944 333 21065 48014 91000 91101 93508 555 53002 7000/
AAXX 22061 26524 32398 82701 11018 21023 30054 40191 52009 886// 333 21018 34/// 88708 91003 91104 555 53004 7000/
AAXX 22061 26531 32470 80000 11011 21024 40183 51005 886// 333 21013 34/// 88712 91000 91103 555 53004 7000/
AAXX 22061 26629 31258 83301 11021 21024 30094 40193 52007 71022 886// 333 21028 34/// 88706 91003 91105 93503 555 53005 7000/
AAXX 22061 26633 32470 83201 11018 21032 30045 40180 51004 885// 333 21029 34/// 88616 91004 91104 555 53004 7000/
AAXX 22061 26730 11466 83201 11028 21035 39987 40185 52006 69902 72272 886// 333 21043 42997 88714 91003 91105 555 53005 7990/
AAXX 22061 26645 32497 83201 11030 21043 39909 40177 52006 886// 333 21039 42001 88710 555 90010
AAXX 22061 26659 11458 83303 11016 21033 39932 40153 52005 69902 77172 8872/ 333 21024 47003 88512 555 90010
AAXX 22061 26763 32460 83305 11027 21053 39892 40125 52005 8662/ 333 21033 47008 86715 91110 555 90010
AAXX 22061 26825 31219 83504 11043 21045 30002 40192 52009 71022 886// 333 21045 88703 93401
AAXX 22061 26832 11257 83002 11028 21041 39987 40186 52008 69902 77172 8872/ 333 21039 86705 555 90010
AAXX 22061 26887 32497 83406 11028 21048 39888 40099 53013 886// 333 21030 43008 88710 91111 555 90011
AAXX 22061 26961 31460 73305 11018 21046 39952 40149 52012 70232 875// 333 21019 47006 87618 555 90011
AAXX 22061 33027 31497 83002 11024 21040 30003 40176 52016 71022 886// 333 21024 43008 555 90012
AAXX 22064 63980 11460 82603 10242 20227 40139 60754 76198 84972 333 20227 50/// 55008 58020 81914 83815 86358 85075 943// 911//
AAXX 22064 60106 32965 02602 10025 20012 40313 55000 333 20021
AAXX 22064 60318 32960 22510 10154 20067 40264 55000 80002 333 20147 82070
AAXX 22061 15502 12968 80000 11030 21040 30139 40180 53009 60002 8807/ 333 11020 21036 55079 70000 555 34105 592// 92600
AAXX 22061 15525 11550 81803 11008 21014 39908 40183 53008 69922 77172 885// 333 11008 21030 45/// 70002 555 3/108 59600 66299 70600
AAXX 22061 15528 12568 80000 11016 21028 39955 40152 53007 60002 8652/ 333 11004 21024 55000 70000 555 31105 591// 92601
AAXX 22061 15535 12970 80000 11002 21020 30122 40170 53002 60002 8807/ 333 10015 21009 41997 55000 70008 555 588//
AAXX 22061 15549 11420 80501 11017 21028 39756 40187 53006 69982 77372 8872/ 333 11011 21028 47006 70008 555 3/104 59101 63599 70660
AAXX 22061 15552 11458 80504 10027 21015 30118 40168 54000 69902 77172 8802/ 222// 314// 4//00 333 10036 20004 55016 70000 555 31104 57400 67199 70600 92013 92416
AAXX 22061 15614 11650 80000 11032 21040 39439 40170 54000 60032 77377 885// 333 11012 21034 47004 55013 70028 555 3/105 59303 69999 70651
AAXX 22061 15615 11/00 90514 11132 21148 36975 47897 57016 60042 77174 333 11116 21162 49999 55039 70040 91124 92983 555 588// 69999 92716
AAXX 22061 15626 11620 80000 10002 20002 39958 40152 54000 60072 77372 8802/ 333 10036 20002 43008 55073 70065 555 3/100 50004 69999 70664
AAXX 22061 15627 11/01 91108 11099 21111 37514 47931 53003 60072 77347 333 11098 21118 48013 50050 70067 93506 555 591// 69999 92712
AAXX 22061 15640 11430 80000 10022 20003 39833 40152 57008 60062 76166 8802/ 333 10030 20006 55/// 70057 555 31102 58804 69999 70642
AAXX 22061 15655 11568 83616 10040 20025 30113 40147 57010 69952 76161 8802/ 222// 00084 20502 333 10049 20026 70005 91116 555 32/// 59000 69999 70649 92037 92437
AAXX 22061 15730 11508 80000 10002 20002 39739 40141 57003 60062 77374 8802/ 333 10035 21001 47008 55032 70061 555 3/101 50006 69999 70642
AAXX 22064 78016 32564 62109 10182 20136 30275 40279 57009 85801 333 10214 20165 79999
AAXX 22064 08001 12465 8//// 10122 20090 30235 40318 58018 60002 885// 333 20116 31010 50064 55000 70003 924/7
AAXX 22064 08015 11558 80803 10102 20090 39934 40344 53001 60002 71022 8687/ 333 20096 30010 50034 55000 70000
AAXX 22064 08023 11560 72507 10120 20101 30266 40338 58003 69912 72122 878// 333 20118 50003 55000 70009
AAXX 22064 08027 11457 82910 10106 20101 30015 40329 54000 60022 71062 887// 333 20104 31008 50030 55000 70049
AAXX 22064 08045 02958 02202 10076 20068 39996 40313 56006 60002 333 20074 3/004 55082 60007 79999
AAXX 22064 08141 NIL
AAXX 22064 08160 12665 12826 10110 20062 39976 40288 57003 60002 81501 333 20108 55046 70000
AAXX 22064 08181 02580 70207 10116 20041 30229 40235 53016 60002 81806 333 20081 3/009 55000 60007 70000
AAXX 22064 08221 02965 03407 10008 21002 39620 40336 53005 60002 333 21004 30102 55082 60007 70000
AAXX 22064 08231 NIL
AAXX 22064 08261 12960 00000 10042 20038 39823 40321 58004 60002 333 20034 31001 55076 70000
AAXX 22064 08284 06/// /2806 10069 20026 30183 40260 52008 60002 333 20069 3/005 55028 60007 70000
AAXX 22064 08306 12570 13111 10147 20105 30236 40242 52015 60002 81100 333 20144 55017 70000
AAXX 22064 08314 02567 23103 10116 20102 30128 40232 53016 69902 8287/ 333 20108 3//// 55000 60007 70014
AAXX 22064 08430 12970 02608 10140 20038 30188 40263 52003 60002 333 20101 30006 50111 55087 70000
AAXX 22064 08482 12975 13308 10126 20066 30249 40258 58006 60002 80001 333 20106 55084 70000
AAXX 22061 14008 12099 53219 11118 21136 37426 47965 53007 60002 85200 333 21128 49110 55035 70000 92838 91130 95120
AAXX 22061 14015 11/02 90301 11031 21035 39857 40233 52016 60002 7454/ 333 21031 34106 55012 79999 555 20007 30013
AAXX 22061 14023 12699 11101 11072 21074 39923 40237 53014 60002 81540 333 21078 3/111 42002 50046 70000 81646 92830 555 20005 30012
AAXX 22061 14024 12499 13602 11024 21091 39089 48469 52015 6990/ 81401 333 21028 3/107 48021 55058 70000 81615 92835 95000
AAXX 22061 14026 12998 33301 11049 21058 39893 40231 53016 60002 83030 333 21050 34109 55023 70000 555 20006 30014
AAXX 22061 14031 11596 62901 11012 21027 39987 40225 52018 60002 71010 86500 333 21023 33105 55007 70000 86623 555 21008 30002
AAXX 22061 14105 12999 21204 11012 21047 30193 40198 53015 60002 82031 333 21013 31103 55049 70000 555 20016 30029
AAXX 22061 14106 12999 20902 11031 21038 30126 40198 53015 60002 82030 333 21040 34105 55034 70000 92600 95000 555 20006 30012
AAXX 22061 14112 12/97 10000 11080 29097 60004 333 10019 21085 3/110 4/003 70000
AAXX 22061 14121 11994 10000 11035 21039 39943 40222 52016 60002 71040 81031 333 21036 3/106 42003 55045 70000 92840 555 20008 30016
AAXX 22061 14122 12950 22701 11044 21048 30022 40229 52016 60002 81031 333 21047 34/// 70000
BBXX BATUK01 22064 99581 70034 46/// /2632 10109 20072 40072 56021 22211 00087
BBXX BATFR23 22064 99412 10035 44998 13016 10160 20110 40227 53009 70211 81100 22284 00154 20504 334// 40504 5////
AAXX 22061 14240 11650 60000 11023 21031 30055 40217 52014 60002 71020 84530 333 21039 34108
AAXX 22061 14258 NIL
AAXX 22061 14445 12682 10508 10061 21061 39981 40138 50007 60002 81100 222// 00145 333 20060 34101 81896 91119 91502 92312
AAXX 22064 16614 NIL
AAXX 22064 16627 NIL
AAXX 22064 16667 11565 81410 10130 20099 30080 40086 57016 69902 70262 8592/ 333 20076 31/// 55071 79999 82920 84625 88458 90730 91124 555 10000 30136 20000 89043 99077 30000 20110 30118 40000 47590 44200 50000 50114 60000 65555 60050 70000 77/// 7R///
AAXX 22064 16675 17/// /2811 10039 20024 30038 40051 57020 60182 74144 333 20030 90730 91124 555 10000 30121 20000 89047 99098 60000 60178 61128
AAXX 22064 16710 36/// /9903 10060 20050 39260 40028 57015 333 20051 90730 91109 555 10000 30063 20000 89060 99095
AAXX 22064 16723 12460 71220 10142 20108 30070 40086 57016 60022 86856 333 20120 32/// 55/// 70020 84818 85625 90730 91128 555 10000 30142 20000 89047 99088 40000 47586 44230 50000 50124 60000 60020 60220
AAXX 22064 16738 17/// /2113 10118 20074 39850 40047 57019 60042 7414/ 333 20104 90730 91131 555 10000 30139 20000 89041 99086 60000 60038 60245
AAXX 22064 16746 11559 80000 10100 20088 39879 40062 57007 60032 76062 8322/ 333 20096 32/// 55023 70030 83820 88458 90730 91106 555 10000 30110 20000 89057 99092 40000 47439 44190 50000 50094 60000 60030 60200 70000 77R// 7R///
AAXX 22064 16643 11458 80116 10080 20053 30000 40006 51004 60162 76362 8677/ 333 20080 32/// 70312 83710 86630 88358 90730 91126 555 10000 30096 20000 89073 99097 40000 47532 44220 50000 50068 60000 60158 60740 70000 77RY/ 7RY//
AAXX 22064 16648 11356 80000 10024 20019 39973 40065 58002 60162 76166 8672/ 333 20024 32/// 51600 55019 70160 83707 85625 88457 90730 91104 555 10000 30062 20000 89059 99097 30000 10050 2//// 30064 40074 5//// 6//// 40000 47510 44210 50000 50022 60000 60160 61200 70000 77RY/ 7RY//
AAXX 22064 16650 11256 81316 10122 20107 30043 40047 57017 60092 76562 8797/ 333 20068 32/// 55069 70089 83706 82916 86620 88358 90730 91129 555 10000 30122 20000 89045 99090 30000 10098 20098 30098 40098 50124 60142 40000 47563 44220 50000 50114 60000 60089 60700 70000 77R// 7R///
AAXX 22064 16684 11460 71607 10130 20068 30011 40038 56015 60022 72162 86970 333 20108 32/// 55063 70015 82712 82918 86620 87357 90730 91130 555 10000 30134 20000 89038 99083 40000 47536 44190 50000 50100 60000 60015 60100 70000 77R// 7R///
AAXX 22064 16732 11568 71517 10142 20073 30053 40065 57025 60012 70162 84250 333 20124 31/// 55051 70017 84820 85358 90730 91125 555 10000 30146 20000 89043 99085 40000 47566 44170 50000 50108 60000 60012 6//// 70000 77/// 7R///
AAXX 22061 14241 12756 72501 11039 21048 30082 40219 53014 60002 87500 333 21051 34///
AAXX 22061 14284 12960 12903 11021 21029 30087 40200 52008 60002 81030 333 21027 3/104 42001
AAXX 22061 14307 32982 10404 10042 21049 30115 40193 53014 81040 333 20003 30///
AAXX 22061 14317 NIL
AAXX 22061 14431 12780 10404 10046 21038 30081 40177 52013 60002 81500 333 21016 31/// 81650
AAXX 22061 14444 33780 12603 10029 21045 30125 40155 52014 81500 333 20026 30000
AAXX 22061 14474 12980 60410 10058 21073 39911 40104 51012 60002 80008 333 20042 30/// 91019 91504 91125 91503
AAXX 22063 04013 42589 42509 11010 21020 49870 52032 82210 555 3//24
AAXX 22063 04064 42684 42705 10002 21021 49895 52024 82542 555 3//13
AAXX 22064 04005 41488 73604 11009 21025 49849 52023 71588 87800 555 3/314
AAXX 22064 04018 41580 72201 10011 21006 49877 50005 71511 87372 555 3//15 82924 85630 87650
AAXX 22064 04030 42584 71501 10015 21010 49882 50010 84571 555 3//10 82630 84646 86356
AAXX 22064 04048 NIL
AAXX 22064 04063 41570 42110 10028 21053 49821 52053 78571 82520 555 3//22
AAXX 22064 04077 NIL
AAXX 22064 04082 NIL
AAXX 22064 04097 42689 13312 10079 21069 49799 52028 81200 555 3/319
AAXX 22063 64501 31340 40000 10244 20235 3//// 4//// 71011 82530 333 0//00 20215 50274 55035 5//// 82608 84360
AAXX 22061 33815 32997 50101 11006 21031 39975 40189 52013 85040 333 21018 42000 555 80014
AAXX 22064 17022 12662 31005 10075 20026 39993 40160 58006 60002 81130 333 20063 30006 55018 81834 83360 91110 92427
AAXX 22064 17031 12670 50000 10074 20062 30189 40195 50002 60002 83130 333 20060 32005 70014 83836 85360
AAXX 22064 17038 12660 71003 10111 20071 30160 40211 51002 60002 84250 333 20099 30006 55003 20410 84835 86360 92427
AAXX 22064 17050 11558 82003 10042 20040 30062 40125 57011 60102 76162 8552/ 333 20029 32003 55042 70104 85630 88458 91113
AAXX 22064 17060 12660 50510 10090 20038 30081 40121 57019 60002 83150 333 20084 30006 50111 55059 20800 70014 83835 85360
AAXX 22064 17096 11556 71007 11017 21022 38268 48537 50001 69902 77072 85550 333 21028 3/104 47005 50024 55043 20343 85625 87357 93197
AAXX 22064 17124 12660 61107 10007 21010 39239 40172 57006 60002 83240 333 21002 31101 50154 55023 20511 83840 85360
AAXX 22064 17128 11640 49902 11024 21024 39088 40219 53009 60002 71011 82130 333 21026 34103 50184 55038 20247 82840 84360
AAXX 22064 17170 NIL
AAXX 22064 17195 11658 20105 10015 20006 38974 48495 58002 60002 71011 82500 333 21016 30103 50324 55018 20662 82640
AAXX 22064 17199 11558 51902 10018 21005 39119 40238 53005 60002 71022 84540 333 20005 34101 55021 20402 82720 83640 85360
AAXX 22064 17219 11565 71511 10109 20072 39943 40087 56020 60012 70282 84250 333 20074 32007 55023 20185 70018 84830 87360
AAXX 22064 17240 12570 51505 10069 20024 39001 40145 58005 60002 83250 333 20041 31003 55029 20729 83830 85360 91120
AAXX 22064 17244 12660 40804 11005 21017 38988 48480 53001 60002 82530 333 21017 30/// 55/// 2//// 82640 84360
AAXX 22064 17280 11657 50502 10016 20011 39425 40238 50003 60002 71022 83130 333 21002 34102 50011 55020 20172 83840 85360
AAXX 22064 17350 11660 70105 10120 20089 30107 40186 56004 69962 70282 84250 333 20103 32/// 70052 84835 87359
AAXX 22064 17024 12970 31810 10049 20031 30100 40179 57007 60002 83040 333 20048 31004 55008 70004 83360 91116 92428
AAXX 22064 17056 11670 70609 10092 20090 30114 40118 56007 60022 70282 84270 333 20048 32004 55045 20548 70020 84833 87360 91117 92438
AAXX 22064 17067 12670 41605 10063 20042 30114 40137 57019 60002 84200 333 20059 30005 55000 84840 91112 92428
AAXX 22064 17092 12670 61706 10048 21011 38893 48524 52008 60002 83550 333 20023 30002 50064 55017 20494 83640 86360
AAXX 22064 17112 11658 70406 10085 20071 30085 40087 57008 60062 78082 84280 333 20071 32005 50114 55044 20080 70056 84835 87360 91111 92416
AAXX 22064 17115 12660 61106 10058 20050 30054 40106 58011 60002 83250 333 20040 31003 50104 55042 20687 83835 86360
AAXX 22064 17116 12670 60901 10087 20026 30001 40123 57016 60002 84250 333 20051 30004 55041 20046 84835 86360 91109
AAXX 22064 17188 12660 60403 10045 20016 39073 40140 57009 69912 83240 333 20016 32101 55000 70001 83837 86360 91106
AAXX 22064 17202 12670 62703 10013 20001 39197 40248 52005 60002 84550 333 20001 3/101 44001 84635 86360
AAXX 22064 17248 12975 01301 10009 21031 38978 48484 50000 60002 333 21019 34105 55050 2////
AAXX 22064 17292 11560 70902 10069 20067 39371 40131 57010 60302 78022 85270 333 20059 32005 50064 55002 20389 70332 85830 87359 91110
AAXX 22064 17300 11558 60805 10112 20097 30089 40161 53001 60062 78082 83250 333 20073 32002 50181 55002 20004 70062 83825 85359
AAXX 22064 17310 1//// /0802 10130 20091 30169 40175 55001 60072 333 20124 3/010 4//// 70088
AAXX 22064 17330 11670 70000 10111 20094 30173 40191 52009 60022 78022 84270 333 20108 32008 50051 55045 70020 84836 87359
AAXX 22064 17026 12670 41409 10102 20070 30151 40190 58004 60002 84200 333 20094 30007 55001 20758 84835 91115 92428
AAXX 22064 17034 12670 70102 10107 20062 30160 40206 54000 60002 83250 333 20102 30009 83835 87360 92428
AAXX 22064 17070 11901 01902 10008 20006 39298 40182 57004 60002 74400 333 20007 31101 50074 55006 20289 70002 91107
AAXX 22064 17084 11658 31701 11020 21023 39287 40218 52009 60002 71011 82530 333 21024 34104 55013 70002 82635 83360 91103
AAXX 22064 17090 11665 60402 10036 21007 38736 48508 53005 69922 70262 86500 333 20031 3/002 45998 55043 70002 86640
AAXX 22064 17098 11530 80000 11079 21079 38243 48558 52007 69902 77011 8852/ 333 21130 3/115 41001 50034 55014 20821 86630 88457 93197
AAXX 22064 17150 12660 60000 10036 20032 39985 40110 57016 60002 86250 333 20022 31002 50151 55066 20959 83835 85360
AAXX 22064 17160 12970 03601 11003 21009 39023 48488 52006 60002 333 21015 34103 55029 91105
AAXX 22064 17184 12670 71704 10109 20045 39993 40104 57019 60002 84270 333 20050 32004 55046 70002 84840 87360 91110
AAXX 22064 17189 11640 41103 10003 21006 38996 48459 57006 60002 71000 84200 333 21031 34104 84835
AAXX 22064 17210 12670 63501 10087 21003 39187 40227 53005 60002 83170 333 20057 30004 55046 83840 86360
AAXX 22064 17234 11670 71204 10104 20063 30046 40114 57011 69922 70282 84270 333 20086 32008 50034 55011 70021 84840 87360 91112
AAXX 22064 17260 12660 30306 10050 20012 39381 40212 50003 60002 81130 333 20041 30002 50164 55055 20959 81840 83360
AAXX 22064 17290 11670 71514 10142 20100 30074 40106 56015 60042 72582 84270 333 20131 32012 50104 55029 70044 84835 87360 91131 92448
AAXX 22064 17370 12665 60000 10140 20039 30182 40186 56006 60002 84230 333 20135 30011 50224 55041 2//// 84835 86360 92417
AAXX 22064 17042 12670 70000 10106 20085 30180 40220 52005 60002 84250 333 20087 30008 55037 84835 87360 92428
AAXX 22064 17074 11658 62001 11013 21019 39255 40216 52005 60002 71011 83550 333 21022 34103 55000 20335 83635 86360 91104
AAXX 22064 17086 12670 60803 10060 20030 39468 40187 52008 60002 84550 333 20058 31004 55001 20297 70010 84635 86360
AAXX 22064 17088 12670 82101 10056 21031 38816 48518 52009 60002 8452/ 333 20049 30003 55009 20289 84640 88460
AAXX 22064 17140 12665 40801 10013 21005 38702 48487 52008 60002 84200 333 20001 32101 55006 2//// 70010 84840
AAXX 22064 17155 11650 71503 10044 20021 39026 40150 57008 69942 76022 84570 333 20004 32101 55055 70004 84635 87359 91112
AAXX 22064 17203 12670 70000 10002 21045 38921 48564 53002 60002 84250 333 21009 3/101 46997 55040 2//// 84840 87360
AAXX 22064 17237 12670 70903 10102 20035 39620 40122 57016 60002 84270 333 20071 32004 55000 70002 84835 87358 91109
AAXX 22064 17250 12975 00504 10006 21018 38805 48496 52003 60002 333 21001 34101 55042
AAXX 22064 17270 12670 31002 10094 21001 39557 40208 51004 60002 83230 333 20077 30003 55028 83840 83360
AAXX 22064 17295 11560 71515 10149 20085 30127 40134 57008 60062 72522 84270 333 20095 33009 50334 55029 70078 84830 86360
AAXX 22064 17320 12670 63304 10115 20062 30174 40179 58005 60002 83250 333 20110 31008 50181 55008 70002 83835 86360 92428
AAXX 22064 17375 11570 53605 10117 20111 30159 40161 58003 60052 70182 85200 333 20104 32007 50101 55070 70050 85830 91110 92437
AAXX 22064 17500 12560 30806 10066 20043 30133 40193 55000 60002 82230 333 20055 30003 50201 55078 20574 82825
AAXX 22064 17501 12560 11706 10120 20051 30158 40177 52001 60002 81100 333 20116 30010 55054 20917 81825 92427
AAXX 22064 17505 12560 10805 10099 20061 30074 40189 55001 60002 81100 333 20094 30007 55062 20991 81825
AAXX 22064 17507 12560 32311 10116 20046 30077 40199 53001 60002 82230 333 20107 30009 5///1 55/// 2//// 70007 82825
AAXX 22064 17510 12560 20000 10131 20077 30150 40160 53005 60002 82100 333 20118 30008 50121 55044 20389 82830 92417
AAXX 22064 17515 12560 10000 10048 20028 30024 40205 53002 60002 81100 333 20044 30002 50181 55065 21030 81825
AAXX 22064 17521 12560 12505 10071 20056 30038 40179 52001 60002 81100 333 20050 30/// 50101 55057 21957 81825
AAXX 22064 17530 12560 12603 10059 20049 30132 40190 53001 60002 81100 333 20042 31003 55048 20885 70007 81825
AAXX 22064 17535 12560 10000 10092 20073 30129 40166 53001 6002 81100 333 20060 31007 55021 20834 70002 81825
AAXX 22064 17540 12560 12409 10104 20064 30171 40195 5//// 60002 81200 333 20078 30004 50161 55/// 2//// 81830 92427
AAXX 22064 17547 12560 10000 10134 20108 39935 40178 5//// 60002 81200 333 20130 30009 5///1 55042 20811 81830 92427
AAXX 22064 17550 12560 30000 10123 20096 30031 40177 55000 69982 83100 333 20117 31009 55044 20778 70030 83825 92427
AAXX 22064 17572 12560 2//// 10121 20063 30165 40190 53001 60002 82100 333 20118 30008 82830 92417
AAXX 22064 78982 02480 40715 10262 20215 30109 40114 57011 60001 82231 333 59003 60007 82816 83458
AAXX 22061 26247 21374 83101 11024 21030 30096 40178 52006 70222 886// 333 11010 21025 60007 88710 555 11101 21025 31101 51013
AAXX 22061 26106 31/96 82201 11001 21012 40185 52008 71022 886// 333 21001
AAXX 22061 26313 32997 22403 11048 21054 40179 52004 80001 333 21063
AAXX 22061 26346 32497 83202 11030 21031 40172 52005 886// 333 21031 88710
AAXX 22061 26406 11296 81402 11031 21036 40188 52003 69922 77172 8872/ 333 21044 47002 86705 93503
AAXX 22061 26416 33/// /2401 11045 21051 40193 52007 333 21045
AAXX 22061 26424 31494 82502 11030 21033 40186 52007 71022 885// 333 21030 88616 93400
AAXX 22061 26544 11597 83202 11018 21033 40171 52004 69932 72682 883// 333 21024 47997
AAXX 22061 26115 01482 62102 10017 20011 30151 40160 50003 60032 70222 86600 333 10036 21010 43997 60017 86717 91110 555 1/100 21010 3/100 50020
AAXX 22064 06030 02570 81707 10017 20003 30120 40136 57018 69902 885// 333 10017 21030 31105 6///7 79999 83630 87642
AAXX 22064 06060 01456 51506 10025 20020 30069 40135 57014 69962 76061 85500 333 10025 21032 31104 69967 70006 85618
AAXX 22064 06070 05760 81602 10027 20015 30123 40154 57011 6///2 333 10027 21021 6///7 70000 87/50 88/56
AAXX 22064 06120 36760 71808 10022 20020 30133 40160 57011 333 10022 21023 87/50
AAXX 22064 06180 01850 82203 10012 20008 30163 40169 58003 6///2 71022 8807/ 333 10035 20006 31000 6///7 70004 88358
AAXX 22064 06193 05460 81907 10024 20002 30171 40183 52006 6///2 333 10027 20008 55300 20000 6///7 70000 81/14 85/17 88/20
AAXX 22061 48820 32798 60202 10225 20125 30173 40181 57031 865// 333 58008 86697
AAXX 22061 48823 32698 73601 10226 20145 30171 40174 57035 875// 333 59001 87696
AAXX 22064 60715 12560 62807 10129 20110 30151 40158 53008 69974 85282 333 20122 84826 83358 91010 91117
AAXX 22064 60723 11560 72908 10137 20126 39985 40173 53008 60274 7606/ 8428/ 333 20113 70266 84823 84630
AAXX 22064 60725 11558 83206 10130 2//// 30002 40187 53008 60124 72562 888// 333 20106 70124 84820 85630
AAXX 22064 60735 11558 81206 10106 20103 30081 40164 57012 60074 76062 888// 333 20106 70070 84823 85630
AAXX 22064 60745 NIL
AAXX 22064 60748 13560 62308 10133 20094 39752 40169 58006 60004 86800 333 20117 84823 83640
AAXX 22064 60750 11558 70000 10112 20082 30142 40167 57005 69904 76062 878// 333 20088 70000 83826 85630
AAXX 22064 60760 12558 42704 10090 20044 30097 40203 52001 60004 84200 333 20080 84830
AAXX 22064 60765 13558 22608 10125 20057 30188 40192 51004 60014 82500 333 20125 82630 92436 925//
AAXX 22064 60767 12558 42216 10105 20021 30042 40187 53004 69924 83802 333 20102 81820 83630
AAXX 22064 60769 12558 72814 10152 20072 30165 40169 56003 69904 86880 333 20159 70000 83820 85626
AAXX 22064 48373 31158 80000 10285 20174 30059 40121 57030 70522 82556 333 59007
AAXX 22061 10044 46/// /2008 10032 20020 30136 40169 57008 222// 00046 333 10045 20016 55050 55300
AAXX 22061 10124 46/// ///// 10044 2//// 30111 40149 56018 222// 00054 333 10064 20041 55/// 553//
AAXX 22064 65352 31940 70406 10195 20022 3//// 4//// 70522 80002 333 20195 5//// 87076
AAXX 22064 65361 32958 70000 10170 20091 3//// 4//// 80002 333 20170 5//// 87076
AAXX 22064 65376 32956 70402 10235 20197 39660 40118 80002 333 20223 58004 87076
AAXX 22064 65387 31425 70000 10257 20254 30081 40099 71022 81502 333 20255 81610 87073
AAXX 22064 08055 11/04 91002 10028 20028 39266 48607 53001 69922 74544 333 20018 31001 55084 70002 89/02 95090
AAXX 22064 08075 12475 70105 10038 20029 39282 48603 55001 60002 875// 333 20030 55006 70000
AAXX 22064 08084 NIL
AAXX 22064 08171 12960 02206 10098 20060 30032 40275 53002 60002 333 20095 31001 50230 55046 70000
AAXX 22064 08184 02162 30000 10036 20024 30071 40232 53010 60002 8164/ 333 20029 3/001 55025 60007 70000
AAXX 22064 08202 01/01 90905 10026 20023 39395 42920 55002 60002 74544 333 20010 31101 55054 60007 70000
AAXX 22064 08235 NIL
AAXX 22064 08238 12680 43414 10150 20051 30181 40241 51002 60002 82541 333 20146 55043 70000
AAXX 22064 08280 12965 02906 10030 20015 39459 40310 54000 60002 333 20018 50344 55082 70000
AAXX 22064 08330 11/01 90000 10011 20001 30064 40306 57005 60002 74544 333 20011 31000 50034 55048 70000 89/01
AAXX 22064 08348 12962 20701 10020 20014 39562 40331 53001 60002 80001 333 20020 50104 55085 70000
AAXX 22064 08360 02980 00000 10110 20039 30218 40256 53006 60002 333 20108 30011 5///4 55079 60007 70000
AAXX 22064 08373 02965 03302 10088 20074 30229 40251 53005 60002 333 20088 3/007 55065 60007 70000
AAXX 22064 08410 02982 00000 10039 20028 30178 40294 55003 60002 333 20033 31002 55088 60007 70000
AAXX 22064 08419 02970 01302 10010 21002 39612 40313 55000 60002 333 20010 3/000 55069 60007 70000
AAXX 22064 08451 02975 00306 10080 20055 30240 40274 55001 60002 333 20080 3/006 55/// 60007 70000
AAXX 22064 08487 02982 00304 10107 20061 30232 40258 55000 60002 333 20087 30008 55084 60007 70000
AAXX 22061 12120 11939 41902 11056 21061 30195 40203 52011 60002 71000 82032 333 11038 21062 34110 55038 93000
AAXX 22061 12250 11120 82401 11042 21043 30117 40210 52013 60002 71022 886// 333 11022 21045 34104 88703 93000
AAXX 22061 12295 11116 83402 11050 21050 30004 40197 53013 69902 77742 886// 333 11022 21051 3/107 47997 79999 88703 93097
AAXX 22061 12330 11335 80000 11026 21033 30097 40210 51011 69902 71022 886// 333 11013 21028 3/103 47003 70031 88707 93000
AAXX 22061 12375 11525 72302 11043 21046 30067 40204 52014 60002 71011 875// 333 11024 21073 3/110 47997 55009 93000
AAXX 22061 12424 11250 80000 10003 20000 30054 40211 52017 69922 77022 877// 333 10009 20001 3/100 42001 70031 93091
AAXX 22064 71001 15966 02503 11156 21170 39099 40082 58001 60001 333 10022 21163 70000
AAXX 22064 71002 15966 81703 11119 21136 39479 40028 58007 60001 333 11110 21229 70000
AAXX 22064 71003 15466 82905 11136 21155 39661 40046 53019 69931 333 11029 21136 70008
AAXX 22064 71005 16/// ///// 11076 21104 60001 333 11023 21087 70000
AAXX 22064 71006 NIL
AAXX 22064 71007 NIL
AAXX 22064 71008 NIL
AAXX 22064 71009 NIL
AAXX 22064 71010 NIL
AAXX 22064 71011 NIL
AAXX 22064 71012 NIL
AAXX 22064 71013 NIL
AAXX 22064 71014 NIL
AAXX 22064 71015 NIL
AAXX 22064 71016 NIL
AAXX 22064 71017 NIL
AAXX 22064 71018 NIL
AAXX 22064 71019 NIL
AAXX 22064 71020 NIL
AAXX 22064 71021 NIL
AAXX 22064 71022 17666 81418 10040 20020 30167 40211 57018 69951 7614/ 333 10046 20005 70005 555 31431 40062
AAXX 22064 71023 16964 02504 11100 21110 39411 40198 57008 60001 333 11034 21105 70000 555 33021 40211
AAXX 22064 71024 16/// /0401 11147 21154 60001 333 11056 21159 70000
AAXX 22064 71026 NIL
AAXX 22064 71027 17/// /2207 10038 20023 30087 40097 56046 69981 7//4/ 333 10038 21045 70008 555 32522 40141
AAXX 22064 71028 NIL
AAXX 22064 71029 16/// /1121 11221 21244 30009 40049 56016 60001 333 11218 21311 70006 555 10010 20006 31126 40041
AAXX 22064 71030 17/02 /2407 10092 20089 39919 40007 58019 60171 7//4/ 333 10103 21135 70231
AAXX 22064 71032 NIL
AAXX 22064 71033 46/// /2003 11227 21250 39552 40214 50000 6///1 333 11112 21267 7//// 555 33120 40121
AAXX 22064 71035 NIL
AAXX 22064 71036 15566 82508 11071 21109 39846 40231 51007 60001 333 11021 21078 70000
AAXX 22064 71039 NIL
AAXX 22064 71040 46/// /3304 11037 21057 39845 40044 53003 6///1 333 11008 21159 7//// 555 32017 40171
AAXX 22064 71041 17259 81612 10050 20046 39948 40090 57055 60031 7614/ 333 10046 21093 70033 555 31323 40051
AAXX 22064 71042 NIL
AAXX 22064 71044 NIL
AAXX 22064 71046 460// /2714 11222 30084 40102 51013 6///1 333 11221 21299 7//// 555 30321 40061
AAXX 22064 71047 16/// ///// 11065 21094 60001 333 11026 21073 70000
AAXX 22064 71048 NIL
AAXX 22064 71049 NIL
AAXX 22064 71060 NIL
AAXX 22064 71063 NIL
AAXX 22064 71603 11148 81418 10106 20104 39983 40035 57028 60151 76166 887// 333 10111 21083 70174 90973 555 10000 20000 31424 40020
AAXX 22064 71607 17/// /0000 10042 20038 39977 40009 56018 60091 7//4/ 333 10075 21155 70138
AAXX 22064 71609 11116 82308 10087 20079 39882 40014 56032 60241 76166 887// 333 10091 21144 70283 90983 555 10000 20000 31926 40221
AAXX 22064 71610 17348 80502 10006 20005 39723 40017 55009 60051 7104/ 333 10011 21142 70055
AAXX 22064 71621 17664 32406 10033 20019 39996 40102 51058 69951 7//44 333 10064 21028 70085 555 33218 40031
AAXX 22064 71623 NIL
AAXX 22064 71624 12474 82608 10045 20034 39911 40123 52040 60001 885// 333 10059 20002 70022 555 10000 20000
AAXX 22064 71625 16464 8//// 11005 21008 39923 40085 52031 60031 333 11003 21051 70035
AAXX 22064 71627 NIL
AAXX 22064 71628 11160 82808 10003 20000 39925 40066 53033 60151 70265 88600 333 10003 21106 70154 909/7 555 10000 20000
AAXX 22064 71630 NIL
AAXX 22064 71631 17/// /2505 10007 20006 39624 40124 51034 69931 7//4/ 333 10039 21010 70069
AAXX 22064 71633 11574 52405 10019 21005 39844 40116 52030 69921 70261 85500 333 10039 20002 70038 90960 555 10000 20000
AAXX 22064 71705 11262 81605 10049 20048 39930 40017 56043 60101 76182 885// 333 10051 21124 70100 90962 555 10000 20000 31921 40190
AAXX 22064 71706 11156 81712 10038 20034 39980 40040 56059 60151 76182 887// 333 10038 21109 41997 70155 90962 555 10010 20005 32022 40221
AAXX 22064 71707 11674 81813 10034 20021 30033 40110 58018 69941 78062 8657/ 333 10036 21074 44003 70004 90915 555 19999 29999 31818 40060
AAXX 22064 71709 NIL
AAXX 22064 71711 NIL
AAXX 22064 71714 17/// /0502 11009 21015 39963 40055 55000 60021 7//4/ 333 11009 21143 70018 555 10010 20018
AAXX 22064 71715 16/// /0204 11015 21043 39860 40041 57004 60001 333 11012 21096 70000 555 32220 40151
AAXX 22064 71718 12483 81102 11025 21059 39987 40053 55008 60001 885// 333 11008 21094 70000 555 10000 20000
AAXX 22064 71719 17/// /0210 11008 21011 30044 40050 56031 60021 7//4/ 333 11006 21099 70018 555 10010 20018 32520 40101
AAXX 22064 71450 NIL
AAXX 22064 71451 NIL
AAXX 22064 71452 46/// /2708 11057 21092 39527 40258 50003 6///1 333 11016 21088 7////
AAXX 22064 71453 NIL
AAXX 22064 71454 17/// /3201 11079 21095 39491 40199 52005 60011 7//4/ 333 11071 21105 70013 555 33121 40161
AAXX 22064 71455 46/// /2617 11077 21092 39430 40250 56003 6///1 333 10002 21100 7//// 555 32723 40061
AAXX 22064 71456 17/// /1604 11070 21079 39597 40210 50001 60011 7//4/ 333 11068 21118 70012 555 33120 40191
AAXX 22064 71457 16/// /2106 11108 21125 39342 40257 58013 60001 333 11005 21111 70000 555 33324 40111
AAXX 22064 71458 16/// /2208 11064 21089 39428 40216 58016 60001 333 11011 21085 70000 555 10010 32918 40181
AAXX 22064 71459 16/// /2410 11109 21128 39433 40268 58003 60001 333 10009 21131 70011 555 30221 40121
AAXX 22064 71460 16/// /2906 10009 21002 39864 40106 51024 60001 333 10022 21006 70000 555 32622 40071
AAXX 22064 71461 NIL
AAXX 22064 71462 NIL
AAXX 22064 71463 NIL
AAXX 22064 71464 NIL
AAXX 22064 71465 NIL
AAXX 22064 71466 NIL
AAXX 22064 71468 NIL
AAXX 22064 71470 NIL
AAXX 22064 71471 15866 82610 11003 21092 39392 40193 58004 60001 333 10005 21123 70000
AAXX 22064 71473 NIL
AAXX 22064 71475 NIL
AAXX 22064 71476 NIL
AAXX 22064 71477 NIL
AAXX 22064 71478 NIL
AAXX 22064 71479 NIL
AAXX 22064 71480 NIL
AAXX 22064 71481 NIL
AAXX 22064 71482 NIL
AAXX 22064 71483 NIL
AAXX 22064 71484 NIL
AAXX 22064 71485 16/// /1324 10056 20012 30270 40291 58012 60001 333 10067 20030 70000 555 31232 40062
AAXX 22064 71486 16/// /1503 11063 21101 39064 40297 56006 60001 333 11001 21064 70006 555 10010 20006
AAXX 22064 71487 16/// /2611 11087 21107 39373 40266 58002 60001 333 10003 21096 70000 555 30219 40131
AAXX 22064 71489 16/// /2710 11079 21106 39413 40234 50000 60001 333 11019 21085 70000 555 32918 40211
AAXX 22064 71490 NIL
AAXX 22064 71491 NIL
AAXX 22064 71492 NIL
AAXX 22064 71493 17/// /1604 10077 20070 39980 40018 56054 60241 7//4/ 333 10077 21133 70241 555 31225 40041
AAXX 22064 71494 17/// /0502 10000 20000 39497 40015 56012 60031 7//4/ 333 10001 21148 70032
AAXX 22064 71495 NIL
AAXX 22064 71496 16/// /2710 11065 21086 39594 40219 56001 60001 333 11015 21117 70000 555 33118 40201
AAXX 22064 71497 46/// /2204 11063 21108 39822 40087 58009 6///1 333 10024 21172 7//// 555 32420 40151
AAXX 22064 71498 NIL
AAXX 22064 71499 15366 82004 11202 21223 39552 40209 50000 60001 333 11106 21230 70000
AAXX 22064 71816 12974 72204 11107 21140 39987 40050 58006 60001 87070 333 11102 21223 79999 555 19999 29999 32421 40070
AAXX 22064 71817 NIL
AAXX 22064 71818 12974 02215 11100 21129 30026 40044 55001 60001 333 11096 21159 70000 555 10000 20000 32233 40051
AAXX 22064 71822 11256 82704 11039 21048 39574 40049 52011 69901 71072 886// 333 11039 21091 70030 90953 555 10030 20030
AAXX 22064 71825 11469 81908 11103 21120 39344 40022 58007 69941 77111 8477/ 333 11097 21192 47086 70022 90952 93101 555 10040 20022 32216 40120
AAXX 22064 71827 11374 82909 11205 21237 39841 40093 52018 69901 70277 886// 333 11038 21205 47020 70036 90960 555 10036 20036
AAXX 22064 71828 17450 83206 11120 21133 39350 49993 53002 60001 745// 333 11075 21199 70015 555 32326 40161
AAXX 22064 71831 11466 83607 11121 21139 39843 40128 51030 69901 77177 885// 333 10003 21122 48037 70008 90973 555 10008 20008
AAXX 22064 71832 NIL
AAXX 22064 71834 11466 83505 11131 21152 39721 40158 52027 69901 77177 885// 333 11014 21131 48026 70010 90973 555 10016 20010
AAXX 22064 71841 NIL
AAXX 22064 71842 11459 83213 11108 21136 39705 40186 52026 69901 77177 885// 333 11012 21108 47011 70006 90983 555 10006 20006 33221 40191
AAXX 22064 71844 NIL
AAXX 22064 71845 NIL
AAXX 22064 71850 11774 82905 11112 21144 39699 40212 52027 69901 77177 885// 333 11010 21112 48007 79999 90983 555 19999 29999 33318 40191
AAXX 22064 71852 16464 82805 11066 21077 39928 40230 51019 60001 333 11029 21074 70000 555 33226 40221
AAXX 22064 71854 NIL
AAXX 22064 71858 NIL
AAXX 22064 71861 NIL
AAXX 22064 71862 12774 22809 11056 21086 39545 40264 50005 60001 82500 333 11002 21098 79999 555 19999 29999
AAXX 22064 71863 46564 32712 11063 21094 39527 40246 57006 6///1 333 11012 21098 7//// 555 33526 40161
AAXX 22064 71893 12580 32302 11006 21022 30307 40339 58003 60001 83501 333 10060 21018 70000 555 10000 20000
AAXX 22064 71894 NIL
AAXX 22064 71896 15966 61912 11038 21084 39433 40290 57001 60001 333 11009 21103
AAXX 22064 71897 12169 81430 10040 20022 3//// 4//// 57034 60001 888XX 333 10055 20038 70008
AAXX 22064 71898 160// ///// 10040 58018 60011 333 10049 20007 70010
AAXX 22064 71899 11469 81806 10055 20055 3//// 4//// 57025 60031 76062 885// 333 10056 20025 70034 90973
AAXX 22064 71902 NIL
AAXX 22064 71905 NIL
AAXX 22064 71906 12974 02614 11173 21215 39941 49992 51020 60001 333 11069 21173 70008 555 10008 20008
AAXX 22064 71907 16232 92712 11225 21267 39990 40024 51014 60001 333 11092 21226 70000 555 32829 40122
AAXX 22064 71909 16664 80612 11122 21185 39817 49860 52004 60001 333 11114 21140 70000 555 30929 40152
AAXX 22064 71910 46948 03616 11179 21209 39844 49907 52016 6///1 333 11144 21193 7//// 555 30127 40021
AAXX 22064 71911 46962 02408 11333 30022 40082 53005 6///1 333 11320 21397 7////
AAXX 22064 71912 12974 02812 11270 21319 30005 40200 52012 60001 333 11215 21272 70010 555 10006 20006
AAXX 22064 71915 11/04 93324 11212 21249 39889 49972 53033 69901 77677 333 11198 21321 48042 70004 90983 555 10004 20004 30340 40032
AAXX 22064 71917 11974 00000 11376 21419 30014 40029 58001 69901 7767/ 333 11279 21379 47015 70008 90999 555 10010 20008
AAXX 22064 71922 12974 00000 11195 21224 39737 40222 52007 60001 333 11074 21199 79999 555 19999 29999
AAXX 22064 71924 11974 23605 11290 21333 39959 40052 51004 69901 70171 80001 333 11261 21318 48038 70004 90942 555 10004 20004
AAXX 22064 71925 12674 22707 11309 21350 30080 40123 56010 60001 82500 333 11297 21326 79999 555 19999 29999 33418 40081
AAXX 22064 71926 11456 33115 11306 21361 30116 40142 53012 69901 77677 83500 333 11268 21331 48043 79999 90983 555 19999 29999 33233 40172
AAXX 22064 71928 16/// /1203 11130 21154 39047 40247 57013 60001 333 11001 21161 70000 555 33127 40081
AAXX 22064 71300 NIL
AAXX 22064 71301 16/// ///// 11014 21016 39678 40076 52018 60001 333 10005 21043 70000
AAXX 22064 71302 NIL
AAXX 22064 71303 46/// ///// 10050 20039 6///1 333 10122 20047 7////
AAXX 22064 71305 15966 80905 11133 21146 39846 40146 57034 60001 333 11133 21230 70000
AAXX 22064 71306 17324 62815 11190 21215 39989 40022 52015 60001 771// 333 11078 21192 70000 555 32835 40123
AAXX 22064 71307 NIL
AAXX 22064 71308 17/// /1715 10056 20045 39988 40072 56060 60031 7//4/ 333 10056 21098 70031 555 10010 20031 31729 40062
AAXX 22064 71309 NIL
AAXX 22064 71310 17/// /1512 10036 20029 30004 40041 56062 60091 7//4/ 333 10036 21106 70089 555 31723 40011
AAXX 22064 71311 NIL
AAXX 22064 71312 17/// /1803 11093 21104 39742 40212 53001 69941 7//4/ 333 11036 21099 70004 555 33020 40151
AAXX 22064 71314 17/// /2808 10014 20004 39753 40105 51035 69931 7//4/ 333 10028 21019 70142
AAXX 22064 71315 NIL
AAXX 22064 71316 16/// /2306 11060 21084 39499 40196 56009 60001 333 11022 21069 70000 555 32818 40201
AAXX 22064 71317 NIL
AAXX 22064 71318 16/// /2510 11101 21132 39273 40244 58013 60001 333 10000 21110 70003 555 33226 40071
AAXX 22064 71319 16/// /0203 11028 21028 39163 40023 56004 60001 333 11022 21126 70000 555 32419 40161
AAXX 22064 71320 NIL
AAXX 22064 71321 NIL
AAXX 22064 71322 NIL
AAXX 22064 71323 NIL
AAXX 22064 71331 16/// /0801 11154 21185 60001 333 11093 21154 70000
AAXX 22064 71332 NIL
AAXX 22064 71334 NIL
AAXX 22064 71335 46964 02631 11150 51014 6///1 333 11099 21184 7//// 555 32558 40013
AAXX 22064 71336 46/// ///25 10010 21030 30132 40155 58007 6///1 333 10010 21038 7////
AAXX 22064 71337 46/// /1911 11027 21039 39870 40110 56009 6///1 333 11027 21069 7//// 555 32323 40221
AAXX 22064 71338 46564 61906 11221 21279 39964 49971 56003 6///1 333 7////
AAXX 22064 71339 16964 02309 11067 21117 30059 40074 56002 60001 333 11067 21150 70000 555 32321 40181
AAXX 22064 71340 NIL
AAXX 22064 71341 NIL
AAXX 22064 71342 NIL
AAXX 22064 71343 NIL
AAXX 22064 71344 NIL
AAXX 22064 71345 NIL
AAXX 22064 71346 NIL
AAXX 22064 71347 NIL
AAXX 22064 71348 NIL
AAXX 22064 71349 NIL
AAXX 22064 71864 NIL
AAXX 22064 71865 16/// /2612 11051 21069 39519 40216 55000 60001 333 11044 21094 70000 555 32521 40041
AAXX 22064 71866 46964 02610 11064 21093 39597 40226 56001 6///1 333 11015 21118 7//// 555 33118 40201
AAXX 22064 71867 11574 80000 11121 21152 39874 40219 51007 69901 70277 885// 333 11070 21121 47021 70002 90933 555 10018 20002 33419 40071
AAXX 22064 71868 16/// /2502 11100 21126 39761 40215 53002 60001 333 11022 21101 70000 555 33319 40171
AAXX 22064 71869 NIL
AAXX 22064 71871 15966 62612 11072 21096 39399 40225 50000 60001 333 11025 21083 70000
AAXX 22064 71877 12974 32107 11072 21116 38962 40268 58009 60001 80001 333 10001 21087 70012 555 10020 20012 33232 40111
AAXX 22064 71878 12974 22107 11122 21136 39149 40259 58016 60001 82070 333 10003 21134 70012 555 10012 20012 33025 40071
AAXX 22064 71879 16964 32106 11048 21101 39399 40219 56013 60001 333 11007 21048 70005 555 33018 40171
AAXX 22064 71880 12982 22805 11060 21105 39198 40338 53011 60001 80001 333 10015 21094 70000 555 10000 20000
AAXX 22064 71882 160// /0000 11041 21057 39799 40355 51007 60001 333 10026 21044 70000
AAXX 22064 71883 NIL
AAXX 22064 71887 12986 20000 11052 21088 39904 40338 55008 60001 80001 333 10050 21054 70000 555 10000 20000 33024 40091
AAXX 22064 71889 12974 60000 11070 21104 39927 40360 53006 60001 80001 333 10058 21070 70000 555 10000 20000
AAXX 22064 71891 16964 00105 11049 21057 30056 40340 58012 60001 333 10038 21051 70000
AAXX 22064 71892 12980 30902 11002 21019 30339 40344 52005 60001 80001 333 10060 21017 70000 555 10000 20000
AAXX 22064 71851 16/// /2904 11055 21080 39894 40237 53019 60001 333 10011 21058 70000 555 33420 40171
AAXX 22064 71857 NIL
AAXX 22064 71860 NIL
AAXX 22064 71876 15966 02708 11064 21084 39553 40233 51007 60001 333 11015 21081 70000
AAXX 22064 71885 NIL
AAXX 22064 71886 17/// /2405 11073 21081 39600 40223 58003 69961 7//4/ 333 11021 21090 70006 555 33023 40221
AAXX 22064 71888 NIL
AAXX 22064 71890 16/// /0701 11082 21095 30022 40049 55010 60001 333 11013 21135 70000 555 30523 40171
AAXX 22064 71895 NIL
AAXX 22064 71604 NIL
AAXX 22064 71605 NIL
AAXX 22064 71611 17/// /0101 10008 20002 60041 7//4/ 333 10010 21131 70042
AAXX 22064 71612 NIL
AAXX 22064 71614 17/// /3004 10001 21008 39962 40027 53016 60071 7//4/ 333 10028 21100 70070
AAXX 22064 71616 17/// /0302 10005 20004 39914 40034 53003 60071 7//4/ 333 10005 21142 70070
AAXX 22064 71617 16/// /2501 11035 21054 39888 40058 53005 60001 333 11013 21127 70000
AAXX 22064 71618 NIL
AAXX 22064 71619 NIL
AAXX 22064 71622 NIL
AAXX 22064 71632 46/// /3002 11313 21349 39767 40236 51016 6///1 333 11162 21313 7////
AAXX 22064 71634 17/// /3604 11018 21020 39891 40044 56029 60021 7//4/ 333 10008 21132 70023
AAXX 22064 71638 NIL
AAXX 22064 71639 12474 72704 10041 20015 39880 40122 53039 60001 87800 333 10046 21010 70036 555 10000 20000 33222 40010
AAXX 22064 71642 NIL
AAXX 22064 71744 NIL
AAXX 22064 71750 16/// /0508 11064 21090 39887 40123 51034 60001 333 10024 21064 70000 555 32121 40081
AAXX 22064 71751 NIL
AAXX 22064 71752 NIL
AAXX 22064 71753 17/// /1810 10073 20063 30013 40042 56068 60101 7//4/ 333 10073 21133 70103 555 10010 20103 31823 40051
AAXX 22064 71754 16/// /2807 11069 21101 39549 40228 51007 60001 333 11017 21085 70000 555 32924 40041
AAXX 22064 71755 43/// /2804 11223 21262 39834 40196 53022 6///1 333 11079 21223 7//// 555 30118 40071
AAXX 22064 71756 NIL
AAXX 22064 71758 NIL
AAXX 22064 71760 NIL
AAXX 22064 71761 NIL
AAXX 22064 71762 NIL
AAXX 22064 71763 NIL
AAXX 22064 71765 NIL
AAXX 22064 71766 NIL
AAXX 22064 71767 16/// /2506 10022 21012 39852 40113 53027 60001 333 10029 20009 70000
AAXX 22064 71768 NIL
AAXX 22064 71769 NIL
AAXX 22064 71770 NIL
AAXX 22064 71771 NIL
AAXX 22064 71772 16/// /2704 10028 20017 30326 40332 52004 60001 333 10070 20024 70000 555 33031 40072
AAXX 22064 71773 NIL
AAXX 22064 71774 NIL
AAXX 22064 71775 NIL
AAXX 22064 71776 NIL
AAXX 22064 71777 NIL
AAXX 22064 71778 NIL
AAXX 22064 71779 NIL
AAXX 22064 71780 NIL
AAXX 22064 71781 NIL
AAXX 22064 71782 NIL
AAXX 22064 71783 NIL
AAXX 22064 71784 NIL
AAXX 22064 71785 NIL
AAXX 22064 71786 NIL
AAXX 22064 71787 17/// /1810 10046 20046 39532 40014 56040 60101 7//4/ 333 10046 21144 70110 555 31826 40201
AAXX 22064 71788 NIL
AAXX 22064 71789 NIL
AAXX 22064 71791 NIL
AAXX 22064 71792 NIL
AAXX 22064 71793 NIL
AAXX 22064 71794 NIL
AAXX 22064 71795 NIL
AAXX 22064 71796 NIL
AAXX 22064 71797 NIL
AAXX 22064 71401 NIL
AAXX 22064 71402 NIL
AAXX 22064 71404 NIL
AAXX 22064 71405 NIL
AAXX 22064 71406 NIL
AAXX 22064 71407 NIL
AAXX 22064 71408 NIL
AAXX 22064 71409 NIL
AAXX 22064 71410 15566 33503 11179 21207 39938 40231 51023 60001 333 11091 21178 70000
AAXX 22064 71413 NIL
AAXX 22064 71414 NIL
AAXX 22064 71415 17/// /1825 10053 20044 30026 40029 56071 60041 7//4/ 333 10053 21101 70041 555 31839 40053
AAXX 22064 71417 NIL
AAXX 22064 71418 NIL
AAXX 22064 71419 46/// /1717 10060 20052 30090 40100 56052 6///1 333 10060 21081 7//// 555 31927 40021
AAXX 22064 71423 NIL
AAXX 22064 71424 NIL
AAXX 22064 71425 NIL
AAXX 22064 71426 NIL
AAXX 22064 71427 16/// /3202 11029 21056 30047 40054 55008 60001 333 11006 21121 70000 555 32331 40142
AAXX 22064 71428 16/// /1905 11031 21086 30045 40051 56012 60001 333 11014 21101 70000 555 32318 40201
AAXX 22064 71429 NIL
AAXX 22064 71434 NIL
AAXX 22064 71436 17466 82605 10030 20021 39873 40108 53044 69931 7004/ 333 10032 21033 70064
AAXX 22064 71437 46/// /2605 10057 20031 30027 40122 51031 6///1 333 10089 20010 7//// 555 32818 40001
AAXX 22064 71438 NIL
AAXX 22064 71439 NIL
AAXX 22064 71440 NIL
AAXX 22064 71442 16/// /2906 11081 21104 39905 40229 52015 60001 333 11014 21081 70000 555 33517 40141
AAXX 22064 71445 NIL
AAXX 22064 71446 16/// /2412 11076 21094 39260 40269 53002 60001 333 10001 21096 70000 555 32522 40021
AAXX 22064 71448 NIL
AAXX 22064 71449 16/// /3204 11089 21123 39807 40220 52020 60001 333 11015 21099 7//// 555 33421 40021
AAXX 22061 13160 32697 53203 11012 21016 30086 40199 52008 85500 333 21012 3/103 44006 55025 70002
AAXX 22061 13262 11494 80000 10001 21007 30047 40201 53005 60022 77372 8802/ 333 20001 3/101 43002 55079 70017 93102
AAXX 22061 13272 31457 72702 10004 21020 30066 40190 55003 71022 85530 333 20002 31101 55057 82715 84626 85357
AAXX 22061 13285 32697 71101 11020 21029 30082 40189 53001 87500 333 21028 34104 55039 70000
AAXX 22061 13289 32798 83204 11075 21087 38936 48426 53010 8801/ 333 21089 3/110 55038 70000 91112
AAXX 22061 13376 11696 80000 11020 21036 39926 40200 53009 69902 77172 885// 333 21057 3/110 43005 55028 79999 93197
AAXX 22061 13388 31996 83601 11012 21031 39926 40183 53006 71022 8807/ 333 21031 34105 55017 70000
AAXX 22061 13462 32670 70108 10051 21065 30072 40112 53005 83570 333 20048 30003 55/// 83640 87459
AAXX 22061 13473 NIL
AAXX 22061 13489 31695 60602 11018 21031 39624 40162 54000 71022 86600 333 21021 34103 55032 70000
AAXX 22064 71900 46/// /24// 11095 21129 39985 49998 53011 6///1 333 11089 21191 7////
AAXX 22064 71903 NIL
AAXX 22064 71904 NIL
AAXX 22064 71914 NIL
AAXX 22064 71916 NIL
AAXX 22064 71918 460// ///// 11297 6///1 333 7////
AAXX 22064 71920 NIL
AAXX 22064 71921 NIL
AAXX 22064 71923 NIL
AAXX 22064 71927 NIL
AAXX 22064 71941 15366 82804 11029 21036 39657 40074 51015 60001 333 11010 21073 70000
AAXX 22064 71947 15366 83310 11080 21085 39735 40085 51034 60001 333 11023 21080 70008
AAXX 22064 71114 160// /1106 11014 21027 30304 40353 52002 60001 333 10038 21016 70000
AAXX 22064 71120 12974 62505 11068 21097 39538 40209 58006 60001 83011 333 11017 21076 79999 555 19999 29999 32919 40210
AAXX 22064 71122 16/// /2407 11097 21136 38657 40312 51006 60001 333 7////
AAXX 22064 71123 12974 81910 11071 21105 39341 40228 56014 60001 87022 333 11002 21114 70007 555 10010 20007 32918 40160
AAXX 22064 71125 NIL
AAXX 22064 71129 12874 22404 11107 21130 39400 40256 58001 60001 82070 333 11010 21108 79999 555 19999 29999
AAXX 22064 71131 16/// /2709 11120 21127 38987 40289 53003 60001 333 11008 21147 70013 555 30228 40162
AAXX 22064 71135 16/// /2611 11128 21149 39164 40291 51003 60001 333 10001 21129 70008 555 10030 20008 30122 40161
AAXX 22064 71137 16/// /2706 11139 21152 39314 40295 50001 60001 333 10003 21139 70000 555 30324 40161
AAXX 22064 71140 11574 42405 11111 21130 39736 40254 5/013 69901 70277 84500 333 11035 21121 43002 79999 90923 555 19999 29999 33127 40231
AAXX 22064 71145 11574 22306 11210 21242 39908 40218 52023 69941 70177 81501 333 11112 21216 48041 70004 90942 555 10004 20004
AAXX 22064 71148 16/// /3111 11092 21120 39655 40251 51024 60001 333 11016 21092 70000 555 33122 40021
AAXX 22064 71185 17020 82608 11005 30071 40095 56010 69951 74544 333 10011 21058 70010
AAXX 22064 71188 11566 80000 11061 21092 30019 40062 57025 69901 77111 885// 333 11030 21138 43012 79999 90910 555 19999 29999
AAXX 22064 71200 NIL
AAXX 22064 71207 NIL
AAXX 22064 71260 13/// ///// 10017 21009 39868 40104 53019 60001 333 10041 21073 70000 555 10000 20000
AAXX 22064 71812 46840 33221 11283 21327 30117 40131 5/015 6///1 333 11283 21322 7////
AAXX 22064 71819 17459 82204 11047 21054 30051 40093 55004 60001 771// 333 11043 21148 70000
AAXX 22064 71820 17/// /2509 10031 20022 39973 40087 51067 60051 7//4/ 333 10081 21026 70159 555 33323 40031
AAXX 22064 71823 16464 82905 11147 21161 39662 40047 53019 60001 333 11031 21148 70020 555 32132 40072
AAXX 22064 71824 46/// /2603 11038 21040 6///1 333 11038 21095 7////
AAXX 22064 71826 16/// /0919 11148 21185 39845 49888 58013 60001 333 11144 21197 70000 555 30929 40062
AAXX 22064 71829 16/// /3006 11058 21072 39888 40050 55008 60001 333 11026 21136 70000 555 32017 40201
AAXX 22064 71833 46/// /2808 10022 20018 6///1 333 10049 21012 7//// 555 33117 40011
AAXX 22064 71835 16/// /2905 11157 21173 39681 40178 51018 60001 333 11033 21163 70007 555 10020 20007 30320 40141
AAXX 22064 71837 NIL
AAXX 22064 71839 NIL
AAXX 22064 71840 NIL
AAXX 22064 71846 17/// /2604 11209 21227 39848 40179 51016 69931 7//4/ 333 11030 21260 70003 555 30318 40121
AAXX 22064 71847 NIL
AAXX 22064 71848 NIL
AAXX 22064 71849 NIL
AAXX 22064 71051 NIL
AAXX 22064 71055 NIL
AAXX 22064 71057 NIL
AAXX 22064 71059 460// ///// 11152 39939 40031 56017 6///1 333 11144 21264 7////
AAXX 22064 71061 16/// /2107 11038 21091 39398 40193 56018 60001 333 11004 21064 70009 555 10020 20009
AAXX 22064 71062 46/// /2008 11047 21110 39109 40197 56016 6///1 333 11004 21068 7//// 555 33331 40082
AAXX 22064 71064 460// /2609 11307 39894 40121 56010 6///1 333 11274 21321 7//// 555 33430 40072
AAXX 22064 71065 NIL
AAXX 22064 71067 NIL
AAXX 22064 71070 NIL
AAXX 22064 71073 NIL
AAXX 22064 71074 NIL
AAXX 22064 71075 16/// /2401 11222 21246 39576 40213 58001 60001 333 11142 21263 70000 555 10010 33118 40131
AAXX 22064 71078 15966 02904 11278 21304 39765 40235 51015 60001 333 11160 21278 70000
AAXX 22064 71084 460// ///// 11315 30071 40121 56003 6///1 333 11306 21317 7////
AAXX 22064 71085 15966 32616 11031 21103 38870 40283 53008 60001 333 11003 21080 70000
AAXX 22064 71087 NIL
AAXX 22064 71088 460// /3308 11234 51002 6///1 333 11228 21305 7////
AAXX 22064 71089 NIL
AAXX 22064 71096 460// ///// 11237 39212 49959 57002 6///1 333 11213 21242 7////
AAXX 22064 71097 47214 83618 11140 39373 49843 53002 6///1 745// 333 11118 21158 7//// 555 31235 40203
AAXX 22064 71098 43/// /2802 11219 21221 39825 40203 51016 6///1 333 11033 21221 7//// 555 33518 40081
AAXX 22064 71099 43/// /2608 11290 21337 30122 40143 53014 6///1 333 11180 21290 7//// 555 32918 40201
AAXX 22064 71250 NIL
AAXX 22064 71251 16/// /1805 11117 21141 39328 40286 57010 60001 333 10002 21121 70000 555 33528 40152
AAXX 22064 71252 NIL
AAXX 22064 71253 46/// /0000 11221 21239 6///1 333 11128 21221 7////
AAXX 22064 71254 16/// /2205 11071 21099 60001 333 11015 21084 70006 555 10010 20006 33018 40181
AAXX 22064 71255 17/// /1604 11107 21121 69931 7//4/ 333 11077 21158 70006
AAXX 22064 71256 46/// /2203 11049 21110 39249 40201 58020 6///1 333 11008 21063 7//// 555 33122 40091
AAXX 22064 71257 NIL
AAXX 22064 71258 NIL
AAXX 22064 71259 NIL
AAXX 22064 71261 16/// /2609 10030 20009 39866 40127 51025 60001 333 10043 20016 70131
AAXX 22064 71263 13360 82612 10046 20034 39839 40128 51028 60011 88500 333 10106 21004 70032 555 32620 40001
AAXX 22064 71264 17/// /1918 10088 20086 30012 40043 56073 60211 7//4/ 333 10088 21078 70214 555 31830 40052
AAXX 22064 71265 15466 82612 10052 20035 30029 40123 51040 60001 333 10063 20015 70015
AAXX 22064 71266 NIL
AAXX 22064 71267 15966 32409 11066 21103 39161 40288 56004 60001 333 11010 21111 70005
AAXX 22064 71268 NIL
AAXX 22064 71269 NIL
AAXX 22064 71270 NIL
AAXX 22064 71271 16/// ///// 11043 21083 60001 333 11020 21061 70000
AAXX 22064 71272 15966 03005 11296 21325 39831 40208 51011 60001 333 11250 21297 70002
AAXX 22064 71273 16/// /2103 11080 21095 39532 40206 51003 60001 333 11017 21085 70000 555 32717 40231
AAXX 22064 71274 NIL
AAXX 22064 71275 NIL
AAXX 22064 71276 NIL
AAXX 22064 71277 NIL
AAXX 22064 71278 NIL
AAXX 22064 71279 16/// /0403 11070 21080 39986 40053 58016 60001 333 11069 21192 70011
AAXX 22064 71281 NIL
AAXX 22064 71282 46/// /2908 10027 20027 39841 40111 52033 6///1 333 10029 21015 7//// 555 33317 40031
AAXX 22064 71283 NIL
AAXX 22064 71284 16/// ///// 11049 21095 60001 333 11019 21092 70008
AAXX 22064 71285 NIL
AAXX 22064 71286 NIL
AAXX 22064 71287 NIL
AAXX 22064 71288 NIL
AAXX 22064 71289 NIL
AAXX 22064 71290 15966 81608 11050 21065 39419 40278 55005 60001 333 11043 21143 70000 555 31218 40031
AAXX 22064 71291 16/// /3405 11071 21094 39866 40160 51032 60001 333 10006 21072 70000 555 10010 33521 40011
AAXX 22064 71292 17328 82306 11072 21072 39601 40225 58003 69931 771// 333 11019 21089 70003
AAXX 22064 71294 17/// /2702 10011 20011 39684 40085 51038 60011 7//4/ 333 10019 21042 70121
AAXX 22064 71295 NIL
AAXX 22064 71296 NIL
AAXX 22064 71297 NIL
AAXX 22064 71298 16/// /2506 10053 20046 39906 40134 52010 60001 333 10112 20040 70081 555 32721 40231
AAXX 22064 71299 NIL
AAXX 22064 71150 46/// /2604 11099 21122 39535 40235 52008 6///1 333 11050 21111 7//// 555 33024 40011
AAXX 22064 71151 NIL
AAXX 22064 71152 16/// /2017 10031 20011 30132 40145 58025 60001 333 10032 21059 70000 555 32328 40022
AAXX 22064 71153 16/// /1705 11095 21128 60001 333 11004 21104 70003 555 33328 40152
AAXX 22064 71154 16/// /2220 11024 21111 60001 333 10002 21072 70008 555 32231 40052
AAXX 22064 71155 NIL
AAXX 22064 71156 NIL
AAXX 22064 71157 NIL
AAXX 22064 71158 NIL
AAXX 22064 71159 NIL
AAXX 22064 71160 NIL
AAXX 22064 71161 17/// /2806 10006 21002 39920 40068 53056 60061 7//4/ 333 10024 21051 70091
AAXX 22064 71162 NIL
AAXX 22064 71163 46/// /1305 11177 21192 39719 40072 56019 6///1 333 11177 21323 7////
AAXX 22064 71164 NIL
AAXX 22064 71165 NIL
AAXX 22064 71166 NIL
AAXX 22064 71167 15966 32504 11095 21134 39098 40224 58012 60001 333 10000 21101 70000
AAXX 22064 71168 16/// /0210 11036 21072 39620 40215 53037 60001 333 10035 21101 70000 555 30022 40201
AAXX 22064 71170 NIL
AAXX 22064 71171 16/// /2808 10065 20041 30021 40117 51034 60001 333 10117 20018 70053 555 33121 40011
AAXX 22064 71172 16/// ///// 11002 21006 39877 40094 53026 60001 333 10018 21006 70041
AAXX 22064 71175 17/// /1717 10053 20045 30071 40106 58050 60041 7//4/ 333 10053 21058 70043 555 31821 40061
AAXX 22064 71176 460// /2351 11177 39158 49840 56015 6///1 333 11125 21177 7////
AAXX 22064 71177 460// /2218 11185 38915 49930 50002 6///1 333 11123 21200 7//// 555 32043 40173
AAXX 22064 71178 16/// /2213 11016 21043 30133 40165 56005 60001 333 11010 21048 70003 555 33342 40113
AAXX 22064 71179 460// ///// 11120 39159 49999 53001 6///1 333 11120 21216 7////
AAXX 22064 71180 17/// /1619 10024 20012 30076 40115 58033 60021 7//4/ 333 10025 21044 70022 555 33234 40073
AAXX 22064 71181 16564 82211 10017 21024 30126 40163 55018 60001 333 10017 21045 70000 555 32933 40072
AAXX 22064 71183 17/// /0000 39997 53018 60051 7//4/ 333 70051
AAXX 22064 71184 46/// /0000 10000 21008 6///1 333 10001 21116 7////
AAXX 22064 71186 NIL
AAXX 22064 71187 15966 01106 11015 21019 30304 40353 52002 60001 333 10037 21015 70005
AAXX 22064 71189 NIL
AAXX 22064 71190 NIL
AAXX 22064 71191 17/// ///// 10040 20035 60241 7//4/ 333 10046 21121 70269
AAXX 22064 71192 15966 01403 11100 21105 39628 40319 58003 60001 333 11006 21133 70000
AAXX 22064 71193 16/// /3410 11041 21045 39726 40090 51026 60001 333 11015 21041 70000 555 31918 40071
AAXX 22064 71196 17/// /0000 11006 21008 39882 40081 51030 60061 7//4/ 333 11003 21061 70075 555 10010 20075
AAXX 22064 71197 17450 81817 10031 20023 30071 40121 57032 60011 74344 333 10032 21047 70010 555 33135 40073
AAXX 22064 71198 46/// /0101 10003 21003 6///1 333 10003 21083 7////
AAXX 22064 71199 NIL
AAXX 22064 71350 17/// /1612 10035 20029 39967 40032 56057 60131 7//4/ 333 10036 21121 70138 555 31925 40231
AAXX 22064 71351 NIL
AAXX 22064 71352 16/// /2708 10016 20015 39671 40126 51035 60001 333 10034 21016 70046 555 33021 40001
AAXX 22064 71353 NIL
AAXX 22064 71354 NIL
AAXX 22064 71355 NIL
AAXX 22064 71356 NIL
AAXX 22064 71357 NIL
AAXX 22064 71358 16/// /3317 11180 21200 39957 49992 53005 60001 333 11180 21216 70000 555 33224 40061
AAXX 22064 71359 NIL
AAXX 22064 71360 NIL
AAXX 22064 71361 NIL
AAXX 22064 71362 NIL
AAXX 22064 71363 NIL
AAXX 22064 71364 NIL
AAXX 22064 71365 NIL
AAXX 22064 71368 17232 82707 10027 20023 39740 40129 51034 69931 7104/ 333 10047 21012 70056
AAXX 22064 71369 15966 82807 11015 21078 39464 40177 58016 60001 333 11013 21048 70000
AAXX 22064 71370 46/// /3207 11013 21018 39896 40033 53004 6///1 333 11007 21127 7////
AAXX 22064 71371 17236 83611 11004 21007 39995 40029 53002 60091 7654/ 333 11002 21104 70090
AAXX 22064 71372 17/// /3403 10000 21002 60071 7//4/ 333 10029 21718 70066
AAXX 22064 71373 17/// /0000 10032 20022 60051 7//4/ 333 10046 21058 70064
AAXX 22064 71374 NIL
AAXX 22064 71375 NIL
AAXX 22064 71376 NIL
AAXX 22064 71377 17/// /0000 10000 21005 39990 40039 53016 60051 7//4/ 333 10000 21098 70050
AAXX 22064 71378 16/// /3504 11035 21061 39844 40054 53007 60001 333 11035 21097 70000
AAXX 22064 71379 16/// /2801 11055 21070 39864 40035 53001 60001 333 11023 21097 70000
AAXX 22064 71380 NIL
AAXX 22064 71381 NIL
AAXX 22064 71382 16/// /3601 11037 21040 39094 40026 55000 60001 333 11037 21169 70018
AAXX 22064 71383 NIL
AAXX 22064 71384 17/// /2703 11006 21016 30033 40040 55000 60021 7//4/ 333 11004 21129 70020
AAXX 22064 71385 NIL
AAXX 22064 71386 NIL
AAXX 22064 71387 NIL
AAXX 22064 71388 NIL
AAXX 22064 71389 46/// /0501 11009 21015 6///1 333 11007 21141 7////
AAXX 22064 71390 NIL
AAXX 22064 71391 17/// ///// 10000 21007 60091 7//4/ 333 10002 21099 70101
AAXX 22064 71392 17/// /0505 11010 21014 60021 7//4/ 333 11008 21140 70030
AAXX 22064 71393 NIL
AAXX 22064 71395 11232 81920 10082 20081 39868 40045 56065 60182 76162 887// 333 10082 21117 70182 90973 555 19999 29999 31829 40051
AAXX 22064 71398 15466 83007 11159 21179 30122 40134 51026 60001 333 11006 21159 70000
AAXX 22064 71399 NIL
AAXX 22064 71665 16/// /2919 11113 21177 39978 49988 51019 60001 333 11078 21215 70000 555 32925 40041
AAXX 22064 71666 17/// /0501 10036 20032 39972 40016 56039 60081 7//4/ 333 10040 21130 70082 555 32017 40171
AAXX 22064 71667 NIL
AAXX 22064 71668 17/// /3505 10006 20000 39969 40012 56025 60111 7//4/ 333 10008 21154 70116 555 10010 20116
AAXX 22064 71669 NIL
AAXX 22064 71670 17/// ///// 10004 20002 60091 7//4/ 333 10004 21116 70093
AAXX 22064 71671 17/// /2305 10083 20079 39958 40017 56046 60091 7//4/ 333 10083 21094 70090 555 31726 40031
AAXX 22064 71672 16/// /2504 10028 20014 39839 40103 53044 60001 333 10035 21035 70050
AAXX 22064 71673 NIL
AAXX 22064 71674 NIL
AAXX 22064 71675 17466 63107 11216 21243 39889 40182 53021 60021 7004/ 333 11097 21238 70086
AAXX 22064 71679 NIL
AAXX 22064 71680 NIL
AAXX 22064 71681 46/// /0000 11061 21073 6///1 333 10055 21061 7////
AAXX 22064 71682 NIL
AAXX 22064 71683 NIL
AAXX 22064 71684 15566 82504 11017 21036 39784 40085 52019 60001 333 10005 21055 70000
AAXX 22064 71685 15966 03202 11042 21046 39798 40355 51007 60001 333 10023 21042 70000
AAXX 22064 71686 469// /3201 11070 21077 39177 40148 58016 6///1 333 11070 21132
AAXX 22064 71687 NIL
AAXX 22064 71688 NIL
AAXX 22064 71689 15966 81105 11135 21146 39701 40171 58020 60001 333 11087 21162 70000
AAXX 22064 71690 NIL
AAXX 22064 71691 15666 63302 11082 21089 30026 40053 55010 60001 333 11013 21137 70000
AAXX 22064 71692 NIL
AAXX 22064 71694 17/// /2802 10000 21006 39753 40116 52033 69941 7//4/ 333 10017 21024 70051
AAXX 22064 71695 16/// /0901 11120 21158 39870 40215 51007 60001 333 11069 21120 70000 555 33119 40211
AAXX 22064 71696 16/// /3016 11272 21305 30115 40154 53010 60001 333 11265 21285 70000 555 33024 40041
AAXX 22064 71697 15466 82706 10042 20041 39945 40116 51046 60001 333 10054 20000 70043
AAXX 22064 71699 17/// /2305 10089 20084 30003 40010 56022 60091 7//4/ 333 10093 21126 70110
AAXX 22064 71500 NIL
AAXX 22064 71501 NIL
AAXX 22064 71502 NIL
AAXX 22064 71503 NIL
AAXX 22064 71504 NIL
AAXX 22064 71505 NIL
AAXX 22064 71506 NIL
AAXX 22064 71507 16/// /2408 11054 21094 60001 333 11021 21113 70000
AAXX 22064 71508 17/// ///// 10056 20044 39988 40126 51039 69971 7//4/ 333 10067 20018 70026
AAXX 22064 71509 NIL
AAXX 22064 71511 16/// /2712 11043 21066 39569 40222 55002 60001 333 11007 21106 70000 555 33521 40151
AAXX 22064 71512 16/// /0303 11047 21056 30047 40061 58017 60001 333 11020 21197 70012
AAXX 22064 71513 15966 60407 11096 21101 30055 40071 56019 60001 333 11022 21191 70000
AAXX 22064 71514 NIL
AAXX 22064 71515 16/// /2715 11054 21071 39513 40233 56007 60001 333 11003 21115 70000 555 33122 40201
AAXX 22064 71516 NIL
AAXX 22064 71517 NIL
AAXX 22064 71518 NIL
AAXX 22064 71519 NIL
AAXX 22064 71520 NIL
AAXX 22064 71521 NIL
AAXX 22064 71522 NIL
AAXX 22064 71523 NIL
AAXX 22064 71524 17/// /0000 11006 21010 30020 40046 53003 60041 7//4/ 333 11006 21124 70040
AAXX 22064 71525 NIL
AAXX 22064 71526 NIL
AAXX 22064 71527 15566 83207 11100 21135 39676 40194 51027 60001 333 11010 21100 70000
AAXX 22064 71528 NIL
AAXX 22064 71529 46/// /1006 11266 21298 39918 40160 58019 6///1 333 11203 21312 7////
AAXX 22064 71532 15466 33004 10005 20005 39759 40104 51034 60011 333 10021 21026 70068
AAXX 22064 71534 16764 82705 10025 20011 39846 40118 51036 60011 333 10038 21017 70120 555 33217 40011
AAXX 22064 71535 NIL
AAXX 22064 71536 NIL
AAXX 22064 71537 NIL
AAXX 22064 71539 NIL
AAXX 22064 71540 NIL
AAXX 22064 71541 NIL
AAXX 22064 71542 16/// /0302 11129 21140 60001 333 11043 21131 70000 555 32618 40181
AAXX 22064 71543 NIL
AAXX 22064 71544 NIL
AAXX 22064 71545 16/// ///// 11044 21082 60001 333 11020 21070 70004
AAXX 22064 71546 NIL
AAXX 22064 71547 NIL
AAXX 22064 71548 NIL
AAXX 22064 71549 NIL
AAXX 22064 71201 NIL
AAXX 22064 71202 16/// ///// 11071 21106 60001 333 11003 21101 70004
AAXX 22064 71203 15966 31503 11090 21104 39815 40357 53002 60001 333 10034 21096 70000
AAXX 22064 71209 46/// /0909 10027 6///1 333 10079 20025 7//// 555 33232 40072
AAXX 22064 71211 NIL
AAXX 22064 71212 17/// /3201 11038 21043 39225 40028 55001 69961 7//4/ 333 11038 21211 70006 555 10010 20006
AAXX 22064 71213 46/// /2603 11014 21030 39782 40082 53019 6///1 333 10019 21059 7////
AAXX 22064 71214 NIL
AAXX 22064 71215 NIL
AAXX 22064 71216 NIL
AAXX 22064 71217 NIL
AAXX 22064 71218 16/// /2001 11051 21073 39904 40345 55003 60001 333 10052 21061 70000 555 33122 40091
AAXX 22064 71219 NIL
AAXX 22064 71220 NIL
AAXX 22064 71221 NIL
AAXX 22064 71222 NIL
AAXX 22064 71223 NIL
AAXX 22064 71224 NIL
AAXX 22064 71225 NIL
AAXX 22064 71226 NIL
AAXX 22064 71227 NIL
AAXX 22064 71228 NIL
AAXX 22064 71229 NIL
AAXX 22064 71230 16/// /2712 11009 21096 39293 40199 58001 60001 333 11003 21112 70000 555 32625 40051
AAXX 22064 71231 16/// /1708 11111 21138 60001 333 11007 21117 70009 555 30421 40161
AAXX 22064 71232 16/// /2411 11046 21143 38722 40251 58003 60001 333 11007 21095 70000 555 32625 40051
AAXX 22064 71233 16/// /1904 11048 21122 60001 333 11002 21073 70024 555 33019 40111
AAXX 22064 71234 16/// /1303 11109 21135 39052 40278 56003 60001 333 11002 21123 70000 555 33530 40132
AAXX 22064 71235 16/// /2205 11095 21131 60001 333 11012 21095 70006 555 33531 40112
AAXX 22064 71236 46/// /3009 11041 21113 6///1 333 10013 21108 7//// 555 33123 40021
AAXX 22064 71237 46/// /1301 11128 21146 39411 40251 58015 6///1 333 10006 21132 7//// 555 33224 40081
AAXX 22064 71238 16/// /2502 11057 21079 60001 333 11009 21086 70007 555 10090 20007
AAXX 22064 71239 16/// /3009 11093 21124 39772 40249 51023 60001 333 11022 21096 70000 555 33019 40041
AAXX 22064 71240 16/// ///// 11074 21112 39383 40251 58006 60001 333 10005 21094 70000
AAXX 22064 71241 NIL
AAXX 22064 71242 16/// /1906 11090 21118 60001 333 11001 21117 70020 555 33325 40101
AAXX 22064 71243 NIL
AAXX 22064 71244 16/// /2903 11127 21152 39022 40292 55006 60001 333 10003 21141 70005 555 33531 40172
AAXX 22064 71245 NIL
AAXX 22064 71246 NIL
AAXX 22064 71247 15966 02308 11094 21109 39407 40289 56004 60001 333 10011 21112 70013
AAXX 22064 71248 16/// /0000 11141 21163 38912 40255 58013 60001 333 10006 21171 70007 555 10020 20007 33228 40112
AAXX 22064 71249 NIL
AAXX 22064 71700 17132 83106 10007 20006 39987 40013 56026 60091 7104/ 333 10007 21165 70108
AAXX 22064 71701 NIL
AAXX 22064 71702 17/// /1610 10038 20029 30003 40018 56051 60151 7//4/ 333 10038 21108 70153 555 32022 40201
AAXX 22064 71703 NIL
AAXX 22064 71704 15466 82504 10043 20028 39918 40139 51020 60001 333 10071 20033 70048
AAXX 22064 71710 NIL
AAXX 22064 71712 17/// /2901 10002 21002 39988 40049 53032 60081 7//4/ 333 10002 21105 70080
AAXX 22064 71713 NIL
AAXX 22064 71716 NIL
AAXX 22064 71717 NIL
AAXX 22064 71720 NIL
AAXX 22064 71721 NIL
AAXX 22064 71723 17/// /0202 11001 21010 30019 40029 51006 60021 7//4/ 333 11001 21118 70018
AAXX 22064 71724 NIL
AAXX 22064 71732 16/// /1704 11016 21033 60001 333 10019 21031 70000
AAXX 22064 71733 16/// /2603 11030 21042 39666 40094 53023 60001 333 10010 21069 70000 555 32221 40081
AAXX 22064 71734 NIL
AAXX 22064 71736 NIL
AAXX 22064 71737 NIL
AAXX 22064 71741 NIL
AAXX 22064 71742 NIL
AAXX 22064 71743 NIL
AAXX 22064 71744 NIL
AAXX 22064 71745 NIL
AAXX 22064 71746 NIL
AAXX 22064 71747 NIL
AAXX 22064 71748 NIL
AAXX 22064 71102 NIL
AAXX 22064 71105 NIL
AAXX 22064 71107 NIL
AAXX 22064 71110 NIL
AAXX 22064 71111 15366 81519 10061 20052 30171 40179 58022 60001 333 10066 21011 70000
AAXX 22064 71112 NIL
AAXX 22064 71113 NIL
AAXX 22064 71115 NIL
AAXX 22064 71116 16/// /2002 11097 21108 39174 40306 55001 60001 333 11010 21110 70000 555 33024 40141
AAXX 22064 71118 16/// /2208 11089 21115 39387 40233 58006 60001 333 11024 21096 70000 555 33017 40201
AAXX 22064 71121 16964 02307 11047 21121 39378 40219 55012 60001 333 11010 21075 70005 555 32920 40161
AAXX 22064 71127 16/// /2507 11048 21097 39286 40217 56016 60001 333 11005 21064 70009 555 10010 20009 32919 40141
AAXX 22064 71130 17766 81604 11088 21096 39745 40215 53001 60001 771// 333 11035 21094 70000
AAXX 22064 71132 15466 81104 11247 21275 39881 40211 58012 60001 333 11125 21291 70000
AAXX 22064 71133 NIL
AAXX 22064 71139 16/// /2703 11104 21121 38770 40276 53003 60001 333 11020 21110 70073 555 33226 40131
AAXX 22064 71141 NIL
AAXX 22064 71142 15966 02211 11086 21091 39273 40274 53003 60001 333 10000 21094 70003
AAXX 22064 71143 NIL
AAXX 22064 71144 NIL
AAXX 22064 71147 NIL
AAXX 22064 71149 16/// /2805 11082 21130 60001 333 10007 21082 70000 555 30117 40161
AAXX 22064 71550 NIL
AAXX 22064 71551 NIL
AAXX 22064 71552 46/// /3210 11074 21096 6///1 333 11004 21080 7//// 555 33423 40171
AAXX 22064 71553 NIL
AAXX 22064 71554 16/// /0202 11026 21055 30045 40051 56006 60001 333 11012 21099 70000 555 32020 40111
AAXX 22064 71555 16/// /2811 11046 21174 38667 40270 53003 60001 333 11011 21086 70003 555 33532 40132
AAXX 22064 71556 16/// /2611 11043 21062 39606 40225 56004 60001 333 11001 21103 70000 555 32920 40211
AAXX 22064 71557 NIL
AAXX 22064 71558 46/// ///// 11050 21060 30048 40085 55004 6///1 333 11044 21144 7////
AAXX 22064 71559 46/// /2810 11054 21081 39543 40262 50005 6///1 333 11001 21096 7//// 555 33220 40201
AAXX 22064 71560 16/// /3106 11056 21070 39923 40232 52020 60001 333 11013 21057 70000 555 33426 40191
AAXX 22064 71563 NIL
AAXX 22064 71564 NIL
AAXX 22064 71565 NIL
AAXX 22064 71566 NIL
AAXX 22064 71567 NIL
AAXX 22064 71568 NIL
AAXX 22064 71569 16/// /2515 11069 21091 39514 40234 58005 60001 333 11015 21098 70000 555 33324 40161
AAXX 22064 71570 16/// /2402 11096 21123 39906 40227 53018 60001 333 10003 21096 70000 555 33317 40191
AAXX 22064 71571 NIL
AAXX 22064 71572 NIL
AAXX 22064 71573 16/// /2705 10046 20028 39845 40125 51028 60001 333 10124 20011 70061 555 32327 40201
AAXX 22064 71574 11348 80000 11029 21033 39968 40041 57033 60031 76877 8172/ 333 11015 21142 43020 70034 90973 93103 555 10030 20030
AAXX 22064 71575 16/// /0214 11179 21196 39836 49901 53016 60001 333 11143 21191 70000 555 30425 40031
AAXX 22064 71576 16/// /1605 11240 21266 39935 40022 53006 60001 333 11218 21281 70000
AAXX 22064 71577 NIL
AAXX 22064 71578 17/// /0305 11010 21019 60021 7//4/ 333 11006 21129 70016
AAXX 22064 71579 NIL
AAXX 22064 71580 11974 00000 11332 21365 30024 40062 50001 69901 77677 333 11328 21355 46030 79999 90973 555 19999 29999
AAXX 22064 71581 NIL
AAXX 22064 71582 15966 81103 10027 20004 30246 40300 58005 60001 333 10048 21010 70000
AAXX 22064 71583 NIL
AAXX 22064 71584 15566 80508 11062 21076 30016 40064 58015 60001 333 11042 21188 70000
AAXX 22064 71585 NIL
AAXX 22064 71586 16/// /0502 11194 21211 39736 40220 52009 60001 333 11075 21198 70000 555 33321 40121
AAXX 22064 71587 NIL
AAXX 22064 71588 16/// /1803 10007 21015 60001 333 10007 21065 70000
AAXX 22064 71589 16/// /2103 11043 21058 30027 40162 56006 60001 333 11025 21083 70000 555 32623 40091
AAXX 22064 71590 17/// /3102 11031 21044 39844 40035 56016 69951 7//4/ 333 11029 21156 70005 555 10010 20005
AAXX 22064 71592 NIL
AAXX 22064 71593 NIL
AAXX 22064 71596 NIL
AAXX 22064 71598 17/40 /0310 11008 21012 30039 40045 56030 60031 7//4/ 333 11002 21107 70025
AAXX 22064 71599 NIL
AAXX 22064 71043 12683 80000 11152 21199 39931 40026 53015 60001 8657/ 333 11150 21205 70000 555 10000 20000
AAXX 22064 71045 NIL
AAXX 22064 71050 NIL
AAXX 22064 71051 NIL
AAXX 22064 71052 NIL
AAXX 22064 71066 12974 40000 11134 21165 39692 40119 56018 60001 80001 333 11036 21189 70000 555 10000 20000
AAXX 22064 71068 12974 72310 11024 21088 39459 40159 56014 60001 87070 333 11016 21089 70000 555 10000 20000 32620 40190
AAXX 22064 71069 16964 02806 11016 21071 39464 40176 58016 60001 333 11014 21051 70000 555 32822 40211
AAXX 22064 71076 16/// /0904 11211 21233 39774 40187 58014 60001 333 11146 21281 70000
AAXX 22064 71077 17/// /1902 11095 21107 39651 40207 50000 69981 7//4/ 333 11084 21119 70013 555 10010 20013 33226 40091
AAXX 22064 71079 12974 03108 11278 21309 39932 40229 51015 60001 333 11156 21316 70006 555 10008 20006
AAXX 22064 71081 46964 03211 11316 21353 39986 49999 53002 6///1 333 11233 21341 7////
AAXX 22064 71082 NIL
AAXX 22064 71083 11962 03420 11303 21347 30046 40091 52019 69901 77677 333 11302 21339 48054 79999 90983 555 19999 29999 33430 40151
AAXX 22064 71090 47011 83218 11182 21211 39958 49993 53004 6///1 745// 333 11181 21217 7//// 555 33025 40221
AAXX 22064 71091 460// /0211 11245 39760 49974 51002 6///1 333 7////
AAXX 22064 71092 46464 80610 11227 39275 49951 58005 6///1 333 11226 21261 7//// 555 30723 40041
AAXX 22064 71093 460// /0509 11193 39452 49954 56002 6///1 333 11193 21213 7//// 555 30317 40011
AAXX 22064 71094 46019 /0316 11217 38999 49904 56006 6///1 333 11180 21221 7//// 555 30219 40051
AAXX 22064 71095 46008 91705 11240 21275 39940 40022 53007 6///1 333 11220 21282 7////
AAXX 22064 71101 160// /1515 30171 58019 60001 333 70000 555 30222 40061
AAXX 22064 71104 12974 01103 11095 21121 39167 40323 58008 60001 333 11028 21151 70000 555 10000 20000
AAXX 22064 71108 12974 20305 11005 21021 30270 40345 51005 60001 80001 333 10057 21024 70000 555 10000 20000
AAXX 22064 71109 12974 61304 10030 21013 30275 40302 58011 60001 86070 333 10056 21007 70000 555 10000 20000
AAXX 22061 12105 11440 81302 11021 21031 30156 40200 52010 60002 71022 885// 333 11003 21025 3/103 43997 70002 93000
AAXX 22061 12195 11350 50301 11054 21057 39961 40200 52009 60002 71022 85600 333 11040 21055 3/106 47997 79999 93000
AAXX 22061 12235 11/04 92003 11066 21069 39989 40211 52011 60002 74944 333 11033 21072 3/108 47997 79999 93000
AAXX 22061 12270 11429 70000 11021 21022 30015 40204 52014 60002 71011 875// 333 11011 21025 34105 93000
AAXX 22061 12280 11/03 90000 11059 21062 30039 40204 52012 60002 74940 333 11014 21061 3/107 47001 79999 93000
AAXX 22061 12300 11120 81501 11009 21009 30110 40203 52011 60002 71022 876// 333 10005 21009 3/101 42002 70023 93000
AAXX 22061 12400 11212 82702 10007 20006 39963 40205 53010 69912 75022 886// 333 10011 20001 3/100 43002 70037 93097
AAXX 22061 12435 11325 83602 11022 21030 30032 40211 51018 69902 71022 886// 333 11018 21024 3/104 47002 70011 93000
AAXX 22061 12495 11734 80000 11076 21081 39897 40207 53015 69902 71074 885// 333 11073 21131 3/116 47009 70002 93097
AAXX 22061 12530 11450 83101 11009 21015 30005 40212 52017 69902 71022 886// 333 10004 21009 3/101 43003 70024 88710 93000
AAXX 22061 12570 11218 82802 11018 21019 39872 40202 52020 69912 77772 885// 333 11016 21024 3/102 47997 55017 70002 86706 88611 93097
AAXX 22061 12580 11257 82203 11007 21013 39928 40196 52016 69902 71072 886// 333 11004 21031 37105 55049 79999 88706 93097
AAXX 22061 13173 32697 72902 11001 21011 30082 40186 53004 87500 333 21001 34102 55069 70000
AAXX 22061 13180 32697 82901 11008 21011 30080 40195 51009 885// 333 21016 31102 55075 70000
AAXX 22061 13266 32697 82602 10003 21007 30086 40191 53011 885// 333 20000 31101 55069 70000
AAXX 22061 13369 11495 83301 11062 21076 38939 48408 53005 69942 77174 885// 333 21111 3/112 47010 55018 70004 93100
AAXX 22061 13383 32997 83101 11024 21029 39977 40189 52001 8807/ 333 21044 34108 55066 70000
AAXX 22061 13384 32697 60000 11026 21033 30037 40196 52012 86500 333 21065 3/108 43001 55056 70000
AAXX 22061 13389 31696 81401 11030 21036 39883 40176 54000 71044 885// 333 21044 3/106 43003 55042 70000
AAXX 22061 13477 NIL
AAXX 22061 12160 11440 71801 11018 21026 30147 40202 52008 60002 71022 875// 333 11007 21033 34105 55036 93000
AAXX 22061 12205 11220 82202 10009 20009 30187 40195 52008 60002 71022 886// 333 10010 20001 3/100 43002 70028 93000
AAXX 22061 12465 11638 80000 11029 21036 39966 40210 51022 69902 71022 885// 333 11021 21029 3/102 43997 55/// 20134 70002 93000
AAXX 22061 12566 11356 82604 11010 21018 39903 40208 53020 69942 71072 876// 333 11003 21017 3/102 47003 70014 87707 93097
AAXX 22064 71930 NIL
AAXX 22064 71931 16/// /2416 11011 21048 30125 40137 56008 60001 333 7////
AAXX 22064 71934 11258 81305 11155 21173 39862 40129 57038 60001 71022 886// 333 11155 21246 79999 555 19999 29999
AAXX 22064 71935 12874 61506 11125 21146 39858 40072 57027 60001 86070 333 11119 21194 70000 555 10000 20000
AAXX 22064 71936 11374 61012 11193 21221 39835 40107 57030 69901 77172 86500 333 11193 21291 48021 79999 90927 555 19999 29999
AAXX 22064 71937 NIL
AAXX 22064 71938 12974 00000 11292 21322 30051 40082 56018 60001 333 11249 21340 79999 555 19999 29999
AAXX 22064 71940 12782 82625 11009 21073 39384 40202 56007 60001 8657/ 333 11006 21091 70000 555 10000 20000 32625 40060
AAXX 22064 71943 12974 72420 11016 21106 39327 40175 57020 60001 87070 333 11011 21062 70000 555 10000 20000 32325 40031
AAXX 22064 71944 160// ///// 11053 55004 60001 333 11047 21144 70000
AAXX 22064 71945 12974 40000 11104 21150 39650 40130 57004 60001 84070 333 11058 21150 70000 555 10000 20000
AAXX 22064 71946 12874 71403 11182 21203 39839 40060 56017 60001 87070 333 11140 21190 48034 70000 555 10000 20000
AAXX 22064 71948 47011 /1016 11199 39890 40006 57010 6///1 745// 333 11199 21268 7//// 555 30922 40031
AAXX 22064 71949 NIL
AAXX 22064 71951 11358 81610 11001 21018 39982 40254 57013 69901 78522 8757/ 333 10006 21012 43022 79999 90921 555 19999 29999
AAXX 22064 71957 46464 83207 11211 21281 39970 40061 53026 6///1 333 11156 21258 7//// 555 33121 40041
AAXX 22064 71964 12786 81809 11017 21077 39222 40075 58008 60001 885// 333 10001 21065 70000 555 10000 20000 31626 40211
AAXX 22064 71966 NIL
AAXX 22064 71968 470// /2916 11219 30019 40086 51020 6///1 741// 333 11217 21331 7//// 555 33124 40021
AAXX 22064 71726 16/// /2802 11035 21038 39514 40055 53014 60001 333 11023 21096 70000
AAXX 22064 71727 11574 82902 11035 21054 39855 40054 53005 69901 70272 885// 333 11010 21142 48024 79999 90931 555 19999 29999
AAXX 22064 71728 12582 52305 11037 21068 39829 40051 55001 60001 85500 333 11014 21092 70000 555 10000 20000
AAXX 22064 71730 12874 82405 11027 21042 39672 40098 52023 60001 8805/ 333 10016 21049 70000 555 10000 20000 32221 40071
AAXX 22064 71731 11902 00000 11034 21036 39639 40092 53022 60001 74442 333 10001 21042 79999 555 10000 20000
AAXX 22064 71735 NIL
AAXX 22064 71738 NIL
AAXX 22064 71739 41366 83210 11034 21043 39726 40091 53025 6//// 77177 885// 333 11011 21039 7//// 90952
AAXX 22064 71749 16564 83306 11047 21091 39915 40164 51042 60001 333 10014 21048 70000 555 33120 40041
AAXX 22064 71799 12983 12405 11021 21029 30319 40344 52004 60001 80001 333 10063 21030 70000 555 10000 20000
AAXX 22064 71800 NIL
AAXX 22064 71801 12974 02417 11018 21046 30013 40189 55013 60001 333 11018 21054 70000 555 10000 20000 32830 40081
AAXX 22064 71803 12580 82207 11018 21051 39964 40154 58010 60001 885// 333 11018 21067 70010 555 10014 20010 32228 40031
AAXX 22064 71807 NIL
AAXX 22064 71808 NIL
AAXX 22064 71809 11574 80000 11002 21021 30092 40120 56011 69901 78522 885// 333 10008 21076 47009 70022 90910 555 10022 20022 32223 40011
AAXX 22064 71810 16/// /0704 11071 21095 39990 40057 58016 60001 333 11034 21129 70000
AAXX 22064 71811 NIL
AAXX 22064 71813 16/// /0407 11091 21096 30052 40066 56019 60001 333 11021 21197 70000 555 32021 40151
AAXX 22064 71814 16/// /3603 11072 21080 30071 40081 56020 60001 333 11052 21177 70000 555 33218 40071
AAXX 22064 71815 12474 82008 10021 20001 30084 40115 57029 60001 885// 333 10022 21057 79999 555 19999 29999 32328 40181
AAXX 22064 71397 11324 82603 10070 20068 39992 40026 57043 60111 76166 887// 333 10081 21108 70114 90973 555 10000 20000
AAXX 22064 71400 16/64 /1905 11013 21029 60001 333 11012 21070 70006
AAXX 22064 71403 46/// /1734 10071 20063 30026 40046 58080 6///1 333 10071 21077 7//// 555 31641 40053
AAXX 22064 71411 17/// /2214 10091 20089 30031 40043 56042 60151 7//4/ 333 10091 21094 70147 555 31740 40033
AAXX 22064 71412 17/// /1719 10044 20036 30045 40055 56062 60101 7//4/ 333 10044 21098 70096 555 32131 40232
AAXX 22064 71421 NIL
AAXX 22064 71430 NIL
AAXX 22064 71431 17/// /2809 10042 20030 30007 40102 51059 69961 7//4/ 333 10085 20003 70057 555 33117 40031
AAXX 22064 71432 NIL
AAXX 22064 71433 NIL
AAXX 22064 71435 NIL
AAXX 22064 71441 46/// /3209 11055 21072 39916 40232 53019 6///1 333 11008 21056 7//// 555 33529 40062
AAXX 22064 71443 16/// /2203 11084 21119 39795 40218 51002 60001 333 11015 21108 70000 555 32918 40221
AAXX 22064 71444 16/// /2603 11109 21138 39450 40230 51010 60001 333 11048 21110 70000 555 10010
AAXX 22064 71447 16/// /2406 11115 21130 39703 40265 53018 60001 333 11011 21117 70000 555 33322 40211
AAXX 22064 71467 16/// /0604 11236 21258 39911 40029 56011 60001 333 11224 21261 70000
AAXX 22064 71472 NIL
AAXX 22064 71474 16964 01805 11081 21106 39035 40310 56011 60001 333 11009 21091 70000 555 33218 40081
AAXX 22064 71510 NIL
AAXX 22064 71538 12469 80000 10055 20033 39907 40136 50009 60001 885// 333 10105 20039 70020 555 10000 20000 32525 40181
AAXX 22064 71600 17756 81619 10080 20062 30134 40140 58049 60001 743// 333 10083 21021 70000 555 33026 40081
AAXX 22064 71601 NIL
AAXX 22064 71950 15866 82104 11090 21098 39609 40262 57006 60001 333 11032 21113 70000
AAXX 22064 71952 NIL
AAXX 22064 71954 NIL
AAXX 22064 71956 NIL
AAXX 22064 71959 NIL
AAXX 22064 71960 460// /3413 11202 39882 40018 53013 6///1 333 11196 21302 7//// 555 30317 40061
AAXX 22064 71962 16/// /3110 11070 21119 39768 40199 52028 60001 333 10000 21070 70000 555 33420 40201
AAXX 22064 71963 NIL
AAXX 22064 71967 17/// /0107 11001 21001 39931 40036 51009 60081 7//4/ 333 10008 21110 70105 555 10010 20105
AAXX 22064 71970 NIL
AAXX 22064 71971 NIL
AAXX 22064 71972 460// ///// 11105 39378 49836 50002 6///1 333 11086 21160 7////
AAXX 22064 71973 46/// /1002 11007 21028 39928 40117 56017 6///1 333 11005 21072 7//// 555 32129 40212
AAXX 22064 71974 NIL
AAXX 22064 71975 460// /0534 11164 39118 49842 53002 6///1 333 11163 21192 7////
AAXX 22064 71976 NIL
AAXX 22064 71977 NIL
AAXX 22064 71978 NIL
AAXX 22064 71979 NIL
AAXX 22064 71980 NIL
AAXX 22064 71981 NIL
AAXX 22064 71982 NIL
AAXX 22064 71983 NIL
AAXX 22064 71984 16/// /1715 11111 21142 39987 49995 55005 60001 333 11109 21279 70000 555 31832 40222
AAXX 22064 71985 NIL
AAXX 22064 71986 NIL
AAXX 22064 71987 17/// /1402 10023 20020 30018 40027 56041 60111 7//4/ 333 10024 21092 70113 555 32329 40132
AAXX 22064 71988 NIL
AAXX 22064 71989 NIL
AAXX 22064 71990 NIL
AAXX 22064 71999 NIL
AAXX 22061 33506 11496 82706 11016 21021 39927 40128 52036 60012 78585 889// 333 21017 42997
AAXX 22061 33587 32597 83002 11006 21030 39912 40182 52021 885// 333 21008 43997 88628
AAXX 22064 60020 11560 62802 10150 20123 30223 40269 58003 60004 702// 865// 333 20150 55081 924/7
AAXX 22064 60030 02560 23411 10153 20113 30196 40253 58004 60004 82500 333 015// 20153 55087 60007 924/7
AAXX 22064 60040 02575 23507 10162 20120 30242 40267 55003 60004 82500 333 013// 20141 55087 60007 924/8
AAXX 22064 60338 12982 02102 10160 20076 30194 40260 56005 60004 333 20122 55077 92418
AAXX 22064 71816 12974 72204 11107 21140 39987 40050 58006 60001 87070 333 11102 21223 79999 555 19999 29999 32421 40070
AAXX 22064 71817 NIL
AAXX 22064 71818 12974 02215 11100 21129 30026 40044 55001 60001 333 11096 21159 70000 555 10000 20000 32233 40051
AAXX 22064 71822 11256 82704 11039 21048 39574 40049 52011 69901 71072 886// 333 11039 21091 70030 90953 555 10030 20030
AAXX 22064 71825 11469 81908 11103 21120 39344 40022 58007 69941 77111 8477/ 333 11097 21192 47086 70022 90952 93101 555 10040 20022 32216 40120
AAXX 22064 71827 11374 82909 11205 21237 39841 40093 52018 69901 70277 886// 333 11038 21205 47020 70036 90960 555 10036 20036
AAXX 22064 71828 17450 83206 11120 21133 39350 49993 53002 60001 745// 333 11075 21199 70015 555 32326 40161
AAXX 22064 71831 11466 83607 11121 21139 39843 40128 51030 69901 77177 885// 333 10003 21122 48037 70008 90973 555 10008 20008
AAXX 22064 71832 NIL
AAXX 22064 71834 11466 83505 11131 21152 39721 40158 52027 69901 77177 885// 333 11014 21131 48026 70010 90973 555 10016 20010
AAXX 22064 71841 NIL
AAXX 22064 71842 11459 83213 11108 21136 39705 40186 52026 69901 77177 885// 333 11012 21108 47011 70006 90983 555 10006 20006 33221 40191
AAXX 22064 71844 NIL
AAXX 22064 71845 NIL
AAXX 22064 71850 11774 82905 11112 21144 39699 40212 52027 69901 77177 885// 333 11010 21112 48007 79999 90983 555 19999 29999 33318 40191
AAXX 22064 71852 16464 82805 11066 21077 39928 40230 51019 60001 333 11029 21074 70000 555 33226 40221
AAXX 22064 71854 NIL
AAXX 22064 71858 NIL
AAXX 22064 71861 NIL
AAXX 22064 71862 12774 22809 11056 21086 39545 40264 50005 60001 82500 333 11002 21098 79999 555 19999 29999
AAXX 22064 71863 46564 32712 11063 21094 39527 40246 57006 6///1 333 11012 21098 7//// 555 33526 40161
AAXX 22064 71864 NIL
AAXX 22064 71865 16/// /2612 11051 21069 39519 40216 55000 60001 333 11044 21094 70000 555 32521 40041
AAXX 22064 71866 46964 02610 11064 21093 39597 40226 56001 6///1 333 11015 21118 7//// 555 33118 40201
AAXX 22064 71867 11574 80000 11121 21152 39874 40219 51007 69901 70277 885// 333 11070 21121 47021 70002 90933 555 10018 20002 33419 40071
AAXX 22064 71868 16/// /2502 11100 21126 39761 40215 53002 60001 333 11022 21101 70000 555 33319 40171
AAXX 22064 71869 NIL
AAXX 22064 71871 15966 62612 11072 21096 39399 40225 50000 60001 333 11025 21083 70000
AAXX 22064 71877 12974 32107 11072 21116 38962 40268 58009 60001 80001 333 10001 21087 70012 555 10020 20012 33232 40111
AAXX 22064 71878 12974 22107 11122 21136 39149 40259 58016 60001 82070 333 10003 21134 70012 555 10012 20012 33025 40071
AAXX 22064 71879 16964 32106 11048 21101 39399 40219 56013 60001 333 11007 21048 70005 555 33018 40171
AAXX 22064 71880 12982 22805 11060 21105 39198 40338 53011 60001 80001 333 10015 21094 70000 555 10000 20000
AAXX 22064 71882 160// /0000 11041 21057 39799 40355 51007 60001 333 10026 21044 70000
AAXX 22064 71883 NIL
AAXX 22064 71887 12986 20000 11052 21088 39904 40338 55008 60001 80001 333 10050 21054 70000 555 10000 20000 33024 40091
AAXX 22064 71889 12974 60000 11070 21104 39927 40360 53006 60001 80001 333 10058 21070 70000 555 10000 20000
AAXX 22064 71891 16964 00105 11049 21057 30056 40340 58012 60001 333 10038 21051 70000
AAXX 22064 71892 12980 30902 11002 21019 30339 40344 52005 60001 80001 333 10060 21017 70000 555 10000 20000
AAXX 22064 71893 12580 32302 11006 21022 30307 40339 58003 60001 83501 333 10060 21018 70000 555 10000 20000
AAXX 22064 71894 NIL
AAXX 22064 71896 15966 61912 11038 21084 39433 40290 57001 60001 333 11009 21103
AAXX 22064 71897 12169 81430 10040 20022 3//// 4//// 57034 60001 888XX 333 10055 20038 70008
AAXX 22064 71898 160// ///// 10040 58018 60011 333 10049 20007 70010
AAXX 22064 71899 11469 81806 10055 20055 3//// 4//// 57025 60031 76062 885// 333 10056 20025 70034 90973
AAXX 22064 71902 NIL
AAXX 22064 71905 NIL
AAXX 22064 71906 12974 02614 11173 21215 39941 49992 51020 60001 333 11069 21173 70008 555 10008 20008
AAXX 22064 71907 16232 92712 11225 21267 39990 40024 51014 60001 333 11092 21226 70000 555 32829 40122
AAXX 22064 71909 16664 80612 11122 21185 39817 49860 52004 60001 333 11114 21140 70000 555 30929 40152
AAXX 22064 71910 46948 03616 11179 21209 39844 49907 52016 6///1 333 11144 21193 7//// 555 30127 40021
AAXX 22064 71911 46962 02408 11333 30022 40082 53005 6///1 333 11320 21397 7////
AAXX 22064 71912 12974 02812 11270 21319 30005 40200 52012 60001 333 11215 21272 70010 555 10006 20006
AAXX 22064 71915 11/04 93324 11212 21249 39889 49972 53033 69901 77677 333 11198 21321 48042 70004 90983 555 10004 20004 30340 40032
AAXX 22064 71917 11974 00000 11376 21419 30014 40029 58001 69901 7767/ 333 11279 21379 47015 70008 90999 555 10010 20008
AAXX 22064 71922 12974 00000 11195 21224 39737 40222 52007 60001 333 11074 21199 79999 555 19999 29999
AAXX 22064 71924 11974 23605 11290 21333 39959 40052 51004 69901 70171 80001 333 11261 21318 48038 70004 90942 555 10004 20004
AAXX 22064 71925 12674 22707 11309 21350 30080 40123 56010 60001 82500 333 11297 21326 79999 555 19999 29999 33418 40081
AAXX 22064 71926 11456 33115 11306 21361 30116 40142 53012 69901 77677 83500 333 11268 21331 48043 79999 90983 555 19999 29999 33233 40172
AAXX 22064 71928 16/// /1203 11130 21154 39047 40247 57013 60001 333 11001 21161 70000 555 33127 40081
AAXX 22064 71603 11148 81418 10106 20104 39983 40035 57028 60151 76166 887// 333 10111 21083 70174 90973 555 10000 20000 31424 40020
AAXX 22064 71607 17/// /0000 10042 20038 39977 40009 56018 60091 7//4/ 333 10075 21155 70138
AAXX 22064 71609 11116 82308 10087 20079 39882 40014 56032 60241 76166 887// 333 10091 21144 70283 90983 555 10000 20000 31926 40221
AAXX 22064 71610 17348 80502 10006 20005 39723 40017 55009 60051 7104/ 333 10011 21142 70055
AAXX 22064 71621 17664 32406 10033 20019 39996 40102 51058 69951 7//44 333 10064 21028 70085 555 33218 40031
AAXX 22064 71623 NIL
AAXX 22064 71624 12474 82608 10045 20034 39911 40123 52040 60001 885// 333 10059 20002 70022 555 10000 20000
AAXX 22064 71625 16464 8//// 11005 21008 39923 40085 52031 60031 333 11003 21051 70035
AAXX 22064 71627 NIL
AAXX 22064 71628 11160 82808 10003 20000 39925 40066 53033 60151 70265 88600 333 10003 21106 70154 909/7 555 10000 20000
AAXX 22064 71630 NIL
AAXX 22064 71631 17/// /2505 10007 20006 39624 40124 51034 69931 7//4/ 333 10039 21010 70069
AAXX 22064 71633 11574 52405 10019 21005 39844 40116 52030 69921 70261 85500 333 10039 20002 70038 90960 555 10000 20000
AAXX 22064 71705 11262 81605 10049 20048 39930 40017 56043 60101 76182 885// 333 10051 21124 70100 90962 555 10000 20000 31921 40190
AAXX 22064 71706 11156 81712 10038 20034 39980 40040 56059 60151 76182 887// 333 10038 21109 41997 70155 90962 555 10010 20005 32022 40221
AAXX 22064 71707 11674 81813 10034 20021 30033 40110 58018 69941 78062 8657/ 333 10036 21074 44003 70004 90915 555 19999 29999 31818 40060
AAXX 22064 71709 NIL
AAXX 22064 71711 NIL
AAXX 22064 71714 17/// /0502 11009 21015 39963 40055 55000 60021 7//4/ 333 11009 21143 70018 555 10010 20018
AAXX 22064 71715 16/// /0204 11015 21043 39860 40041 57004 60001 333 11012 21096 70000 555 32220 40151
AAXX 22064 71718 12483 81102 11025 21059 39987 40053 55008 60001 885// 333 11008 21094 70000 555 10000 20000
AAXX 22064 71719 17/// /0210 11008 21011 30044 40050 56031 60021 7//4/ 333 11006 21099 70018 555 10010 20018 32520 40101
AAXX 22061 01380 11125 81302 11088 21100 60012 77172 886// 333 21156 49023 70010 91105
AAXX 22064 71043 12683 80000 11152 21199 39931 40026 53015 60001 8657/ 333 11150 21205 70000 555 10000 20000
AAXX 22064 71045 NIL
AAXX 22064 71050 NIL
AAXX 22064 71051 NIL
AAXX 22064 71052 NIL
AAXX 22064 71066 12974 40000 11134 21165 39692 40119 56018 60001 80001 333 11036 21189 70000 555 10000 20000
AAXX 22064 71068 12974 72310 11024 21088 39459 40159 56014 60001 87070 333 11016 21089 70000 555 10000 20000 32620 40190
AAXX 22064 71069 16964 02806 11016 21071 39464 40176 58016 60001 333 11014 21051 70000 555 32822 40211
AAXX 22064 71076 16/// /0904 11211 21233 39774 40187 58014 60001 333 11146 21281 70000
AAXX 22064 71077 17/// /1902 11095 21107 39651 40207 50000 69981 7//4/ 333 11084 21119 70013 555 10010 20013 33226 40091
AAXX 22064 71079 12974 03108 11278 21309 39932 40229 51015 60001 333 11156 21316 70006 555 10008 20006
AAXX 22064 71081 46964 03211 11316 21353 39986 49999 53002 6///1 333 11233 21341 7////
AAXX 22064 71082 NIL
AAXX 22064 71083 11962 03420 11303 21347 30046 40091 52019 69901 77677 333 11302 21339 48054 79999 90983 555 19999 29999 33430 40151
AAXX 22064 71090 47011 83218 11182 21211 39958 49993 53004 6///1 745// 333 11181 21217 7//// 555 33025 40221
AAXX 22064 71091 460// /0211 11245 39760 49974 51002 6///1 333 7////
AAXX 22064 71092 46464 80610 11227 39275 49951 58005 6///1 333 11226 21261 7//// 555 30723 40041
AAXX 22064 71093 460// /0509 11193 39452 49954 56002 6///1 333 11193 21213 7//// 555 30317 40011
AAXX 22064 71094 46019 /0316 11217 38999 49904 56006 6///1 333 11180 21221 7//// 555 30219 40051
AAXX 22064 71095 46008 91705 11240 21275 39940 40022 53007 6///1 333 11220 21282 7////
AAXX 22064 71101 160// /1515 30171 58019 60001 333 70000 555 30222 40061
AAXX 22064 71104 12974 01103 11095 21121 39167 40323 58008 60001 333 11028 21151 70000 555 10000 20000
AAXX 22064 71108 12974 20305 11005 21021 30270 40345 51005 60001 80001 333 10057 21024 70000 555 10000 20000
AAXX 22064 71109 12974 61304 10030 21013 30275 40302 58011 60001 86070 333 10056 21007 70000 555 10000 20000
AAXX 22064 71930 NIL
AAXX 22064 71931 16/// /2416 11011 21048 30125 40137 56008 60001 333 7////
AAXX 22064 71934 11258 81305 11155 21173 39862 40129 57038 60001 71022 886// 333 11155 21246 79999 555 19999 29999
AAXX 22064 71935 12874 61506 11125 21146 39858 40072 57027 60001 86070 333 11119 21194 70000 555 10000 20000
AAXX 22064 71936 11374 61012 11193 21221 39835 40107 57030 69901 77172 86500 333 11193 21291 48021 79999 90927 555 19999 29999
AAXX 22064 71937 NIL
AAXX 22064 71938 12974 00000 11292 21322 30051 40082 56018 60001 333 11249 21340 79999 555 19999 29999
AAXX 22064 71940 12782 82625 11009 21073 39384 40202 56007 60001 8657/ 333 11006 21091 70000 555 10000 20000 32625 40060
AAXX 22064 71943 12974 72420 11016 21106 39327 40175 57020 60001 87070 333 11011 21062 70000 555 10000 20000 32325 40031
AAXX 22064 71944 160// ///// 11053 55004 60001 333 11047 21144 70000
AAXX 22064 71945 12974 40000 11104 21150 39650 40130 57004 60001 84070 333 11058 21150 70000 555 10000 20000
AAXX 22064 71946 12874 71403 11182 21203 39839 40060 56017 60001 87070 333 11140 21190 48034 70000 555 10000 20000
AAXX 22064 71948 47011 /1016 11199 39890 40006 57010 6///1 745// 333 11199 21268 7//// 555 30922 40031
AAXX 22064 71949 NIL
AAXX 22064 71951 11358 81610 11001 21018 39982 40254 57013 69901 78522 8757/ 333 10006 21012 43022 79999 90921 555 19999 29999
AAXX 22064 71957 46464 83207 11211 21281 39970 40061 53026 6///1 333 11156 21258 7//// 555 33121 40041
AAXX 22064 71964 12786 81809 11017 21077 39222 40075 58008 60001 885// 333 10001 21065 70000 555 10000 20000 31626 40211
AAXX 22064 71966 NIL
AAXX 22064 71968 470// /2916 11219 30019 40086 51020 6///1 741// 333 11217 21331 7//// 555 33124 40021
AAXX 22064 71114 160// /1106 11014 21027 30304 40353 52002 60001 333 10038 21016 70000
AAXX 22064 71120 12974 62505 11068 21097 39538 40209 58006 60001 83011 333 11017 21076 79999 555 19999 29999 32919 40210
AAXX 22064 71122 16/// /2407 11097 21136 38657 40312 51006 60001 333 7////
AAXX 22064 71123 12974 81910 11071 21105 39341 40228 56014 60001 87022 333 11002 21114 70007 555 10010 20007 32918 40160
AAXX 22064 71125 NIL
AAXX 22064 71129 12874 22404 11107 21130 39400 40256 58001 60001 82070 333 11010 21108 79999 555 19999 29999
AAXX 22064 71131 16/// /2709 11120 21127 38987 40289 53003 60001 333 11008 21147 70013 555 30228 40162
AAXX 22064 71135 16/// /2611 11128 21149 39164 40291 51003 60001 333 10001 21129 70008 555 10030 20008 30122 40161
AAXX 22064 71137 16/// /2706 11139 21152 39314 40295 50001 60001 333 10003 21139 70000 555 30324 40161
AAXX 22064 71140 11574 42405 11111 21130 39736 40254 5/013 69901 70277 84500 333 11035 21121 43002 79999 90923 555 19999 29999 33127 40231
AAXX 22064 71145 11574 22306 11210 21242 39908 40218 52023 69941 70177 81501 333 11112 21216 48041 70004 90942 555 10004 20004
AAXX 22064 71148 16/// /3111 11092 21120 39655 40251 51024 60001 333 11016 21092 70000 555 33122 40021
AAXX 22064 71185 17020 82608 11005 30071 40095 56010 69951 74544 333 10011 21058 70010
AAXX 22064 71188 11566 80000 11061 21092 30019 40062 57025 69901 77111 885// 333 11030 21138 43012 79999 90910 555 19999 29999
AAXX 22064 71200 NIL
AAXX 22064 71207 NIL
AAXX 22064 71260 13/// ///// 10017 21009 39868 40104 53019 60001 333 10041 21073 70000 555 10000 20000
AAXX 22064 71726 16/// /2802 11035 21038 39514 40055 53014 60001 333 11023 21096 70000
AAXX 22064 71727 11574 82902 11035 21054 39855 40054 53005 69901 70272 885// 333 11010 21142 48024 79999 90931 555 19999 29999
AAXX 22064 71728 12582 52305 11037 21068 39829 40051 55001 60001 85500 333 11014 21092 70000 555 10000 20000
AAXX 22064 71730 12874 82405 11027 21042 39672 40098 52023 60001 8805/ 333 10016 21049 70000 555 10000 20000 32221 40071
AAXX 22064 71731 11902 00000 11034 21036 39639 40092 53022 60001 74442 333 10001 21042 79999 555 10000 20000
AAXX 22064 71735 NIL
AAXX 22064 71738 NIL
AAXX 22064 71739 41366 83210 11034 21043 39726 40091 53025 6//// 77177 885// 333 11011 21039 7//// 90952
AAXX 22064 71749 16564 83306 11047 21091 39915 40164 51042 60001 333 10014 21048 70000 555 33120 40041
AAXX 22064 71799 12983 12405 11021 21029 30319 40344 52004 60001 80001 333 10063 21030 70000 555 10000 20000
AAXX 22064 71800 NIL
AAXX 22064 71801 12974 02417 11018 21046 30013 40189 55013 60001 333 11018 21054 70000 555 10000 20000 32830 40081
AAXX 22064 71803 12580 82207 11018 21051 39964 40154 58010 60001 885// 333 11018 21067 70010 555 10014 20010 32228 40031
AAXX 22064 71807 NIL
AAXX 22064 71808 NIL
AAXX 22064 71809 11574 80000 11002 21021 30092 40120 56011 69901 78522 885// 333 10008 21076 47009 70022 90910 555 10022 20022 32223 40011
AAXX 22064 71810 16/// /0704 11071 21095 39990 40057 58016 60001 333 11034 21129 70000
AAXX 22064 71811 NIL
AAXX 22064 71813 16/// /0407 11091 21096 30052 40066 56019 60001 333 11021 21197 70000 555 32021 40151
AAXX 22064 71814 16/// /3603 11072 21080 30071 40081 56020 60001 333 11052 21177 70000 555 33218 40071
AAXX 22064 71815 12474 82008 10021 20001 30084 40115 57029 60001 885// 333 10022 21057 79999 555 19999 29999 32328 40181
AAXX 22064 71397 11324 82603 10070 20068 39992 40026 57043 60111 76166 887// 333 10081 21108 70114 90973 555 10000 20000
AAXX 22064 71400 16/64 /1905 11013 21029 60001 333 11012 21070 70006
AAXX 22064 71403 46/// /1734 10071 20063 30026 40046 58080 6///1 333 10071 21077 7//// 555 31641 40053
AAXX 22064 71411 17/// /2214 10091 20089 30031 40043 56042 60151 7//4/ 333 10091 21094 70147 555 31740 40033
AAXX 22064 71412 17/// /1719 10044 20036 30045 40055 56062 60101 7//4/ 333 10044 21098 70096 555 32131 40232
AAXX 22064 71421 NIL
AAXX 22064 71430 NIL
AAXX 22064 71431 17/// /2809 10042 20030 30007 40102 51059 69961 7//4/ 333 10085 20003 70057 555 33117 40031
AAXX 22064 71432 NIL
AAXX 22064 71433 NIL
AAXX 22064 71435 NIL
AAXX 22064 71441 46/// /3209 11055 21072 39916 40232 53019 6///1 333 11008 21056 7//// 555 33529 40062
AAXX 22064 71443 16/// /2203 11084 21119 39795 40218 51002 60001 333 11015 21108 70000 555 32918 40221
AAXX 22064 71444 16/// /2603 11109 21138 39450 40230 51010 60001 333 11048 21110 70000 555 10010
AAXX 22064 71447 16/// /2406 11115 21130 39703 40265 53018 60001 333 11011 21117 70000 555 33322 40211
AAXX 22064 71467 16/// /0604 11236 21258 39911 40029 56011 60001 333 11224 21261 70000
AAXX 22064 71472 NIL
AAXX 22064 71474 16964 01805 11081 21106 39035 40310 56011 60001 333 11009 21091 70000 555 33218 40081
AAXX 22064 71510 NIL
AAXX 22064 71538 12469 80000 10055 20033 39907 40136 50009 60001 885// 333 10105 20039 70020 555 10000 20000 32525 40181
AAXX 22064 71600 17756 81619 10080 20062 30134 40140 58049 60001 743// 333 10083 21021 70000 555 33026 40081
AAXX 22064 71601 NIL
AAXX 22064 71043 12683 80000 11152 21199 39931 40026 53015 60001 8657/ 333 11150 21205 70000 555 10000 20000
AAXX 22064 71045 NIL
AAXX 22064 71050 NIL
AAXX 22064 71051 NIL
AAXX 22064 71052 NIL
AAXX 22064 71066 12974 40000 11134 21165 39692 40119 56018 60001 80001 333 11036 21189 70000 555 10000 20000
AAXX 22064 71068 12974 72310 11024 21088 39459 40159 56014 60001 87070 333 11016 21089 70000 555 10000 20000 32620 40190
AAXX 22064 71069 16964 02806 11016 21071 39464 40176 58016 60001 333 11014 21051 70000 555 32822 40211
AAXX 22064 71076 16/// /0904 11211 21233 39774 40187 58014 60001 333 11146 21281 70000
AAXX 22064 71077 17/// /1902 11095 21107 39651 40207 50000 69981 7//4/ 333 11084 21119 70013 555 10010 20013 33226 40091
AAXX 22064 71079 12974 03108 11278 21309 39932 40229 51015 60001 333 11156 21316 70006 555 10008 20006
AAXX 22064 71081 46964 03211 11316 21353 39986 49999 53002 6///1 333 11233 21341 7////
AAXX 22064 71082 NIL
AAXX 22064 71083 11962 03420 11303 21347 30046 40091 52019 69901 77677 333 11302 21339 48054 79999 90983 555 19999 29999 33430 40151
AAXX 22064 71090 47011 83218 11182 21211 39958 49993 53004 6///1 745// 333 11181 21217 7//// 555 33025 40221
AAXX 22064 71091 460// /0211 11245 39760 49974 51002 6///1 333 7////
AAXX 22064 71092 46464 80610 11227 39275 49951 58005 6///1 333 11226 21261 7//// 555 30723 40041
AAXX 22064 71093 460// /0509 11193 39452 49954 56002 6///1 333 11193 21213 7//// 555 30317 40011
AAXX 22064 71094 46019 /0316 11217 38999 49904 56006 6///1 333 11180 21221 7//// 555 30219 40051
AAXX 22064 71095 46008 91705 11240 21275 39940 40022 53007 6///1 333 11220 21282 7////
AAXX 22064 71101 160// /1515 30171 58019 60001 333 70000 555 30222 40061
AAXX 22064 71104 12974 01103 11095 21121 39167 40323 58008 60001 333 11028 21151 70000 555 10000 20000
AAXX 22064 71108 12974 20305 11005 21021 30270 40345 51005 60001 80001 333 10057 21024 70000 555 10000 20000
AAXX 22064 71109 12974 61304 10030 21013 30275 40302 58011 60001 86070 333 10056 21007 70000 555 10000 20000
AAXX 22064 71726 16/// /2802 11035 21038 39514 40055 53014 60001 333 11023 21096 70000
AAXX 22064 71727 11574 82902 11035 21054 39855 40054 53005 69901 70272 885// 333 11010 21142 48024 79999 90931 555 19999 29999
AAXX 22064 71728 12582 52305 11037 21068 39829 40051 55001 60001 85500 333 11014 21092 70000 555 10000 20000
AAXX 22064 71730 12874 82405 11027 21042 39672 40098 52023 60001 8805/ 333 10016 21049 70000 555 10000 20000 32221 40071
AAXX 22064 71731 11902 00000 11034 21036 39639 40092 53022 60001 74442 333 10001 21042 79999 555 10000 20000
AAXX 22064 71735 NIL
AAXX 22064 71738 NIL
AAXX 22064 71739 41366 83210 11034 21043 39726 40091 53025 6//// 77177 885// 333 11011 21039 7//// 90952
AAXX 22064 71749 16564 83306 11047 21091 39915 40164 51042 60001 333 10014 21048 70000 555 33120 40041
AAXX 22064 71799 12983 12405 11021 21029 30319 40344 52004 60001 80001 333 10063 21030 70000 555 10000 20000
AAXX 22064 71800 NIL
AAXX 22064 71801 12974 02417 11018 21046 30013 40189 55013 60001 333 11018 21054 70000 555 10000 20000 32830 40081
AAXX 22064 71803 12580 82207 11018 21051 39964 40154 58010 60001 885// 333 11018 21067 70010 555 10014 20010 32228 40031
AAXX 22064 71807 NIL
AAXX 22064 71808 NIL
AAXX 22064 71809 11574 80000 11002 21021 30092 40120 56011 69901 78522 885// 333 10008 21076 47009 70022 90910 555 10022 20022 32223 40011
AAXX 22064 71810 16/// /0704 11071 21095 39990 40057 58016 60001 333 11034 21129 70000
AAXX 22064 71811 NIL
AAXX 22064 71813 16/// /0407 11091 21096 30052 40066 56019 60001 333 11021 21197 70000 555 32021 40151
AAXX 22064 71814 16/// /3603 11072 21080 30071 40081 56020 60001 333 11052 21177 70000 555 33218 40071
AAXX 22064 71815 12474 82008 10021 20001 30084 40115 57029 60001 885// 333 10022 21057 79999 555 19999 29999 32328 40181
AAXX 22064 71930 NIL
AAXX 22064 71931 16/// /2416 11011 21048 30125 40137 56008 60001 333 7////
AAXX 22064 71934 11258 81305 11155 21173 39862 40129 57038 60001 71022 886// 333 11155 21246 79999 555 19999 29999
AAXX 22064 71935 12874 61506 11125 21146 39858 40072 57027 60001 86070 333 11119 21194 70000 555 10000 20000
AAXX 22064 71936 11374 61012 11193 21221 39835 40107 57030 69901 77172 86500 333 11193 21291 48021 79999 90927 555 19999 29999
AAXX 22064 71937 NIL
AAXX 22064 71938 12974 00000 11292 21322 30051 40082 56018 60001 333 11249 21340 79999 555 19999 29999
AAXX 22064 71940 12782 82625 11009 21073 39384 40202 56007 60001 8657/ 333 11006 21091 70000 555 10000 20000 32625 40060
AAXX 22064 71943 12974 72420 11016 21106 39327 40175 57020 60001 87070 333 11011 21062 70000 555 10000 20000 32325 40031
AAXX 22064 71944 160// ///// 11053 55004 60001 333 11047 21144 70000
AAXX 22064 71945 12974 40000 11104 21150 39650 40130 57004 60001 84070 333 11058 21150 70000 555 10000 20000
AAXX 22064 71946 12874 71403 11182 21203 39839 40060 56017 60001 87070 333 11140 21190 48034 70000 555 10000 20000
AAXX 22064 71948 47011 /1016 11199 39890 40006 57010 6///1 745// 333 11199 21268 7//// 555 30922 40031
AAXX 22064 71949 NIL
AAXX 22064 71951 11358 81610 11001 21018 39982 40254 57013 69901 78522 8757/ 333 10006 21012 43022 79999 90921 555 19999 29999
AAXX 22064 71957 46464 83207 11211 21281 39970 40061 53026 6///1 333 11156 21258 7//// 555 33121 40041
AAXX 22064 71964 12786 81809 11017 21077 39222 40075 58008 60001 885// 333 10001 21065 70000 555 10000 20000 31626 40211
AAXX 22064 71966 NIL
AAXX 22064 71968 470// /2916 11219 30019 40086 51020 6///1 741// 333 11217 21331 7//// 555 33124 40021
AAXX 22061 33088 11597 83503 11031 21038 39994 40193 52016 69902 70272 885// 333 21035 47006
AAXX 22061 33177 NIL
AAXX 22061 33261 NIL
AAXX 22061 33275 11395 82806 11011 21018 39859 40087 52032 60052 78582 883// 333 21011 47002 87708
AAXX 22061 33301 11295 82804 11037 21042 39904 40197 53016 69902 71022 886// 333 21037 47002 88706
AAXX 22061 33325 NIL
AAXX 22061 33377 11456 83307 11026 21039 39934 40134 52026 60172 73673 886// 333 21026 47010 88719 92990
AAXX 22061 33415 NIL
AAXX 22061 33429 31194 83103 11048 21051 39761 40203 52016 71022 886// 333 21050 47005 88702
AAXX 22061 33466 11598 83304 11005 21039 39971 40163 52022 69902 70282 885// 333 21013 88624
AAXX 22061 33526 32960 50000 11110 21123 29854 40219 52014 85030 333 21115
AAXX 22061 33562 31396 82804 11016 21033 39814 40186 52019 71022 886// 333 21017 47003
AAXX 22061 33614 11496 82706 11006 21018 30046 40153 52036 60052 71082 885// 333 21006 47002 88718
AAXX 22061 33761 11950 22702 11025 21031 39956 40187 52021 60012 71000 82030 333 21025 47004
AAXX 22061 33902 12997 62601 11004 21022 30118 40187 52012 69972 80001 333 21004
AAXX 22061 33983 32997 23004 10016 21012 30145 40207 52014 82030 333 20003
AAXX 22061 34415 11470 83208 10006 21011 30027 40125 53030 60012 72276 886// 333 20006
AAXX 22061 34523 32598 62405 10023 21017 30073 40150 52021 86500 333 20023
AAXX 22061 34712 NIL
AAXX 22064 17202 12670 62703 10013 20001 39197 40248 52005 60002 84550 333 20001 31101 84635 86360
AAXX 22064 71851 16/// /2904 11055 21080 39894 40237 53019 60001 333 10011 21058 70000 555 33420 40171
AAXX 22064 71857 NIL
AAXX 22064 71860 NIL
AAXX 22064 71876 15966 02708 11064 21084 39553 40233 51007 60001 333 11015 21081 70000
AAXX 22064 71885 NIL
AAXX 22064 71886 17/// /2405 11073 21081 39600 40223 58003 69961 7//4/ 333 11021 21090 70006 555 33023 40221
AAXX 22064 71888 NIL
AAXX 22064 71890 16/// /0701 11082 21095 30022 40049 55010 60001 333 11013 21135 70000 555 30523 40171
AAXX 22064 71895 NIL
AAXX 22064 71604 NIL
AAXX 22064 71605 NIL
AAXX 22064 71611 17/// /0101 10008 20002 60041 7//4/ 333 10010 21131 70042
AAXX 22064 71612 NIL
AAXX 22064 71614 17/// /3004 10001 21008 39962 40027 53016 60071 7//4/ 333 10028 21100 70070
AAXX 22064 71616 17/// /0302 10005 20004 39914 40034 53003 60071 7//4/ 333 10005 21142 70070
AAXX 22064 71617 16/// /2501 11035 21054 39888 40058 53005 60001 333 11013 21127 70000
AAXX 22064 71618 NIL
AAXX 22064 71619 NIL
AAXX 22064 71622 NIL
AAXX 22064 71632 46/// /3002 11313 21349 39767 40236 51016 6///1 333 11162 21313 7////
AAXX 22064 71634 17/// /3604 11018 21020 39891 40044 56029 60021 7//4/ 333 10008 21132 70023
AAXX 22064 71638 NIL
AAXX 22064 71639 12474 72704 10041 20015 39880 40122 53039 60001 87800 333 10046 21010 70036 555 10000 20000 33222 40010
AAXX 22064 71642 NIL
AAXX 22064 71744 NIL
AAXX 22064 71750 16/// /0508 11064 21090 39887 40123 51034 60001 333 10024 21064 70000 555 32121 40081
AAXX 22064 71751 NIL
AAXX 22064 71752 NIL
AAXX 22064 71753 17/// /1810 10073 20063 30013 40042 56068 60101 7//4/ 333 10073 21133 70103 555 10010 20103 31823 40051
AAXX 22064 71754 16/// /2807 11069 21101 39549 40228 51007 60001 333 11017 21085 70000 555 32924 40041
AAXX 22064 71755 43/// /2804 11223 21262 39834 40196 53022 6///1 333 11079 21223 7//// 555 30118 40071
AAXX 22064 71756 NIL
AAXX 22064 71758 NIL
AAXX 22064 71760 NIL
AAXX 22064 71761 NIL
AAXX 22064 71762 NIL
AAXX 22064 71763 NIL
AAXX 22064 71765 NIL
AAXX 22064 71766 NIL
AAXX 22064 71767 16/// /2506 10022 21012 39852 40113 53027 60001 333 10029 20009 70000
AAXX 22064 71768 NIL
AAXX 22064 71769 NIL
AAXX 22064 71770 NIL
AAXX 22064 71771 NIL
AAXX 22064 71772 16/// /2704 10028 20017 30326 40332 52004 60001 333 10070 20024 70000 555 33031 40072
AAXX 22064 71773 NIL
AAXX 22064 71774 NIL
AAXX 22064 71775 NIL
AAXX 22064 71776 NIL
AAXX 22064 71777 NIL
AAXX 22064 71778 NIL
AAXX 22064 71779 NIL
AAXX 22064 71780 NIL
AAXX 22064 71781 NIL
AAXX 22064 71782 NIL
AAXX 22064 71783 NIL
AAXX 22064 71784 NIL
AAXX 22064 71785 NIL
AAXX 22064 71786 NIL
AAXX 22064 71787 17/// /1810 10046 20046 39532 40014 56040 60101 7//4/ 333 10046 21144 70110 555 31826 40201
AAXX 22064 71788 NIL
AAXX 22064 71789 NIL
AAXX 22064 71791 NIL
AAXX 22064 71792 NIL
AAXX 22064 71793 NIL
AAXX 22064 71794 NIL
AAXX 22064 71795 NIL
AAXX 22064 71796 NIL
AAXX 22064 71797 NIL
AAXX 22064 71250 NIL
AAXX 22064 71251 16/// /1805 11117 21141 39328 40286 57010 60001 333 10002 21121 70000 555 33528 40152
AAXX 22064 71252 NIL
AAXX 22064 71253 46/// /0000 11221 21239 6///1 333 11128 21221 7////
AAXX 22064 71254 16/// /2205 11071 21099 60001 333 11015 21084 70006 555 10010 20006 33018 40181
AAXX 22064 71255 17/// /1604 11107 21121 69931 7//4/ 333 11077 21158 70006
AAXX 22064 71256 46/// /2203 11049 21110 39249 40201 58020 6///1 333 11008 21063 7//// 555 33122 40091
AAXX 22064 71257 NIL
AAXX 22064 71258 NIL
AAXX 22064 71259 NIL
AAXX 22064 71261 16/// /2609 10030 20009 39866 40127 51025 60001 333 10043 20016 70131
AAXX 22064 71263 13360 82612 10046 20034 39839 40128 51028 60011 88500 333 10106 21004 70032 555 32620 40001
AAXX 22064 71264 17/// /1918 10088 20086 30012 40043 56073 60211 7//4/ 333 10088 21078 70214 555 31830 40052
AAXX 22064 71265 15466 82612 10052 20035 30029 40123 51040 60001 333 10063 20015 70015
AAXX 22064 71266 NIL
AAXX 22064 71267 15966 32409 11066 21103 39161 40288 56004 60001 333 11010 21111 70005
AAXX 22064 71268 NIL
AAXX 22064 71269 NIL
AAXX 22064 71270 NIL
AAXX 22064 71271 16/// ///// 11043 21083 60001 333 11020 21061 70000
AAXX 22064 71272 15966 03005 11296 21325 39831 40208 51011 60001 333 11250 21297 70002
AAXX 22064 71273 16/// /2103 11080 21095 39532 40206 51003 60001 333 11017 21085 70000 555 32717 40231
AAXX 22064 71274 NIL
AAXX 22064 71275 NIL
AAXX 22064 71276 NIL
AAXX 22064 71277 NIL
AAXX 22064 71278 NIL
AAXX 22064 71279 16/// /0403 11070 21080 39986 40053 58016 60001 333 11069 21192 70011
AAXX 22064 71281 NIL
AAXX 22064 71282 46/// /2908 10027 20027 39841 40111 52033 6///1 333 10029 21015 7//// 555 33317 40031
AAXX 22064 71283 NIL
AAXX 22064 71284 16/// ///// 11049 21095 60001 333 11019 21092 70008
AAXX 22064 71285 NIL
AAXX 22064 71286 NIL
AAXX 22064 71287 NIL
AAXX 22064 71288 NIL
AAXX 22064 71289 NIL
AAXX 22064 71290 15966 81608 11050 21065 39419 40278 55005 60001 333 11043 21143 70000 555 31218 40031
AAXX 22064 71291 16/// /3405 11071 21094 39866 40160 51032 60001 333 10006 21072 70000 555 10010 33521 40011
AAXX 22064 71292 17328 82306 11072 21072 39601 40225 58003 69931 771// 333 11019 21089 70003
AAXX 22064 71294 17/// /2702 10011 20011 39684 40085 51038 60011 7//4/ 333 10019 21042 70121
AAXX 22064 71295 NIL
AAXX 22064 71296 NIL
AAXX 22064 71297 NIL
AAXX 22064 71298 16/// /2506 10053 20046 39906 40134 52010 60001 333 10112 20040 70081 555 32721 40231
AAXX 22064 71299 NIL
AAXX 22064 71401 NIL
AAXX 22064 71402 NIL
AAXX 22064 71404 NIL
AAXX 22064 71405 NIL
AAXX 22064 71406 NIL
AAXX 22064 71407 NIL
AAXX 22064 71408 NIL
AAXX 22064 71409 NIL
AAXX 22064 71410 15566 33503 11179 21207 39938 40231 51023 60001 333 11091 21178 70000
AAXX 22064 71413 NIL
AAXX 22064 71414 NIL
AAXX 22064 71415 17/// /1825 10053 20044 30026 40029 56071 60041 7//4/ 333 10053 21101 70041 555 31839 40053
AAXX 22064 71417 NIL
AAXX 22064 71418 NIL
AAXX 22064 71419 46/// /1717 10060 20052 30090 40100 56052 6///1 333 10060 21081 7//// 555 31927 40021
AAXX 22064 71423 NIL
AAXX 22064 71424 NIL
AAXX 22064 71425 NIL
AAXX 22064 71426 NIL
AAXX 22064 71427 16/// /3202 11029 21056 30047 40054 55008 60001 333 11006 21121 70000 555 32331 40142
AAXX 22064 71428 16/// /1905 11031 21086 30045 40051 56012 60001 333 11014 21101 70000 555 32318 40201
AAXX 22064 71429 NIL
AAXX 22064 71434 NIL
AAXX 22064 71436 17466 82605 10030 20021 39873 40108 53044 69931 7004/ 333 10032 21033 70064
AAXX 22064 71437 46/// /2605 10057 20031 30027 40122 51031 6///1 333 10089 20010 7//// 555 32818 40001
AAXX 22064 71438 NIL
AAXX 22064 71439 NIL
AAXX 22064 71440 NIL
AAXX 22064 71442 16/// /2906 11081 21104 39905 40229 52015 60001 333 11014 21081 70000 555 33517 40141
AAXX 22064 71445 NIL
AAXX 22064 71446 16/// /2412 11076 21094 39260 40269 53002 60001 333 10001 21096 70000 555 32522 40021
AAXX 22064 71448 NIL
AAXX 22064 71449 16/// /3204 11089 21123 39807 40220 52020 60001 333 11015 21099 7//// 555 33421 40021
AAXX 22064 71665 16/// /2919 11113 21177 39978 49988 51019 60001 333 11078 21215 70000 555 32925 40041
AAXX 22064 71666 17/// /0501 10036 20032 39972 40016 56039 60081 7//4/ 333 10040 21130 70082 555 32017 40171
AAXX 22064 71667 NIL
AAXX 22064 71668 17/// /3505 10006 20000 39969 40012 56025 60111 7//4/ 333 10008 21154 70116 555 10010 20116
AAXX 22064 71669 NIL
AAXX 22064 71670 17/// ///// 10004 20002 60091 7//4/ 333 10004 21116 70093
AAXX 22064 71671 17/// /2305 10083 20079 39958 40017 56046 60091 7//4/ 333 10083 21094 70090 555 31726 40031
AAXX 22064 71672 16/// /2504 10028 20014 39839 40103 53044 60001 333 10035 21035 70050
AAXX 22064 71673 NIL
AAXX 22064 71674 NIL
AAXX 22064 71675 17466 63107 11216 21243 39889 40182 53021 60021 7004/ 333 11097 21238 70086
AAXX 22064 71679 NIL
AAXX 22064 71680 NIL
AAXX 22064 71681 46/// /0000 11061 21073 6///1 333 10055 21061 7////
AAXX 22064 71682 NIL
AAXX 22064 71683 NIL
AAXX 22064 71684 15566 82504 11017 21036 39784 40085 52019 60001 333 10005 21055 70000
AAXX 22064 71685 15966 03202 11042 21046 39798 40355 51007 60001 333 10023 21042 70000
AAXX 22064 71686 469// /3201 11070 21077 39177 40148 58016 6///1 333 11070 21132
AAXX 22064 71687 NIL
AAXX 22064 71688 NIL
AAXX 22064 71689 15966 81105 11135 21146 39701 40171 58020 60001 333 11087 21162 70000
AAXX 22064 71690 NIL
AAXX 22064 71691 15666 63302 11082 21089 30026 40053 55010 60001 333 11013 21137 70000
AAXX 22064 71692 NIL
AAXX 22064 71694 17/// /2802 10000 21006 39753 40116 52033 69941 7//4/ 333 10017 21024 70051
AAXX 22064 71695 16/// /0901 11120 21158 39870 40215 51007 60001 333 11069 21120 70000 555 33119 40211
AAXX 22064 71696 16/// /3016 11272 21305 30115 40154 53010 60001 333 11265 21285 70000 555 33024 40041
AAXX 22064 71697 15466 82706 10042 20041 39945 40116 51046 60001 333 10054 20000 70043
AAXX 22064 71699 17/// /2305 10089 20084 30003 40010 56022 60091 7//4/ 333 10093 21126 70110
AAXX 22064 71051 NIL
AAXX 22064 71055 NIL
AAXX 22064 71057 NIL
AAXX 22064 71059 460// ///// 11152 39939 40031 56017 6///1 333 11144 21264 7////
AAXX 22064 71061 16/// /2107 11038 21091 39398 40193 56018 60001 333 11004 21064 70009 555 10020 20009
AAXX 22064 71062 46/// /2008 11047 21110 39109 40197 56016 6///1 333 11004 21068 7//// 555 33331 40082
AAXX 22064 71064 460// /2609 11307 39894 40121 56010 6///1 333 11274 21321 7//// 555 33430 40072
AAXX 22064 71065 NIL
AAXX 22064 71067 NIL
AAXX 22064 71070 NIL
AAXX 22064 71073 NIL
AAXX 22064 71074 NIL
AAXX 22064 71075 16/// /2401 11222 21246 39576 40213 58001 60001 333 11142 21263 70000 555 10010 33118 40131
AAXX 22064 71078 15966 02904 11278 21304 39765 40235 51015 60001 333 11160 21278 70000
AAXX 22064 71084 460// ///// 11315 30071 40121 56003 6///1 333 11306 21317 7////
AAXX 22064 71085 15966 32616 11031 21103 38870 40283 53008 60001 333 11003 21080 70000
AAXX 22064 71087 NIL
AAXX 22064 71088 460// /3308 11234 51002 6///1 333 11228 21305 7////
AAXX 22064 71089 NIL
AAXX 22064 71096 460// ///// 11237 39212 49959 57002 6///1 333 11213 21242 7////
AAXX 22064 71097 47214 83618 11140 39373 49843 53002 6///1 745// 333 11118 21158 7//// 555 31235 40203
AAXX 22064 71098 43/// /2802 11219 21221 39825 40203 51016 6///1 333 11033 21221 7//// 555 33518 40081
AAXX 22064 71099 43/// /2608 11290 21337 30122 40143 53014 6///1 333 11180 21290 7//// 555 32918 40201
AAXX 22064 71700 17132 83106 10007 20006 39987 40013 56026 60091 7104/ 333 10007 21165 70108
AAXX 22064 71701 NIL
AAXX 22064 71702 17/// /1610 10038 20029 30003 40018 56051 60151 7//4/ 333 10038 21108 70153 555 32022 40201
AAXX 22064 71703 NIL
AAXX 22064 71704 15466 82504 10043 20028 39918 40139 51020 60001 333 10071 20033 70048
AAXX 22064 71710 NIL
AAXX 22064 71712 17/// /2901 10002 21002 39988 40049 53032 60081 7//4/ 333 10002 21105 70080
AAXX 22064 71713 NIL
AAXX 22064 71716 NIL
AAXX 22064 71717 NIL
AAXX 22064 71720 NIL
AAXX 22064 71721 NIL
AAXX 22064 71723 17/// /0202 11001 21010 30019 40029 51006 60021 7//4/ 333 11001 21118 70018
AAXX 22064 71724 NIL
AAXX 22064 71732 16/// /1704 11016 21033 60001 333 10019 21031 70000
AAXX 22064 71733 16/// /2603 11030 21042 39666 40094 53023 60001 333 10010 21069 70000 555 32221 40081
AAXX 22064 71734 NIL
AAXX 22064 71736 NIL
AAXX 22064 71737 NIL
AAXX 22064 71741 NIL
AAXX 22064 71742 NIL
AAXX 22064 71743 NIL
AAXX 22064 71744 NIL
AAXX 22064 71745 NIL
AAXX 22064 71746 NIL
AAXX 22064 71747 NIL
AAXX 22064 71748 NIL
AAXX 22064 71500 NIL
AAXX 22064 71501 NIL
AAXX 22064 71502 NIL
AAXX 22064 71503 NIL
AAXX 22064 71504 NIL
AAXX 22064 71505 NIL
AAXX 22064 71506 NIL
AAXX 22064 71507 16/// /2408 11054 21094 60001 333 11021 21113 70000
AAXX 22064 71508 17/// ///// 10056 20044 39988 40126 51039 69971 7//4/ 333 10067 20018 70026
AAXX 22064 71509 NIL
AAXX 22064 71511 16/// /2712 11043 21066 39569 40222 55002 60001 333 11007 21106 70000 555 33521 40151
AAXX 22064 71512 16/// /0303 11047 21056 30047 40061 58017 60001 333 11020 21197 70012
AAXX 22064 71513 15966 60407 11096 21101 30055 40071 56019 60001 333 11022 21191 70000
AAXX 22064 71514 NIL
AAXX 22064 71515 16/// /2715 11054 21071 39513 40233 56007 60001 333 11003 21115 70000 555 33122 40201
AAXX 22064 71516 NIL
AAXX 22064 71517 NIL
AAXX 22064 71518 NIL
AAXX 22064 71519 NIL
AAXX 22064 71520 NIL
AAXX 22064 71521 NIL
AAXX 22064 71522 NIL
AAXX 22064 71523 NIL
AAXX 22064 71524 17/// /0000 11006 21010 30020 40046 53003 60041 7//4/ 333 11006 21124 70040
AAXX 22064 71525 NIL
AAXX 22064 71526 NIL
AAXX 22064 71527 15566 83207 11100 21135 39676 40194 51027 60001 333 11010 21100 70000
AAXX 22064 71528 NIL
AAXX 22064 71529 46/// /1006 11266 21298 39918 40160 58019 6///1 333 11203 21312 7////
AAXX 22064 71532 15466 33004 10005 20005 39759 40104 51034 60011 333 10021 21026 70068
AAXX 22064 71534 16764 82705 10025 20011 39846 40118 51036 60011 333 10038 21017 70120 555 33217 40011
AAXX 22064 71535 NIL
AAXX 22064 71536 NIL
AAXX 22064 71537 NIL
AAXX 22064 71539 NIL
AAXX 22064 71540 NIL
AAXX 22064 71541 NIL
AAXX 22064 71542 16/// /0302 11129 21140 60001 333 11043 21131 70000 555 32618 40181
AAXX 22064 71543 NIL
AAXX 22064 71544 NIL
AAXX 22064 71545 16/// ///// 11044 21082 60001 333 11020 21070 70004
AAXX 22064 71546 NIL
AAXX 22064 71547 NIL
AAXX 22064 71548 NIL
AAXX 22064 71549 NIL
AAXX 22064 71150 46/// /2604 11099 21122 39535 40235 52008 6///1 333 11050 21111 7//// 555 33024 40011
AAXX 22064 71151 NIL
AAXX 22064 71152 16/// /2017 10031 20011 30132 40145 58025 60001 333 10032 21059 70000 555 32328 40022
AAXX 22064 71153 16/// /1705 11095 21128 60001 333 11004 21104 70003 555 33328 40152
AAXX 22064 71154 16/// /2220 11024 21111 60001 333 10002 21072 70008 555 32231 40052
AAXX 22064 71155 NIL
AAXX 22064 71156 NIL
AAXX 22064 71157 NIL
AAXX 22064 71158 NIL
AAXX 22064 71159 NIL
AAXX 22064 71160 NIL
AAXX 22064 71161 17/// /2806 10006 21002 39920 40068 53056 60061 7//4/ 333 10024 21051 70091
AAXX 22064 71162 NIL
AAXX 22064 71163 46/// /1305 11177 21192 39719 40072 56019 6///1 333 11177 21323 7////
AAXX 22064 71164 NIL
AAXX 22064 71165 NIL
AAXX 22064 71166 NIL
AAXX 22064 71167 15966 32504 11095 21134 39098 40224 58012 60001 333 10000 21101 70000
AAXX 22064 71168 16/// /0210 11036 21072 39620 40215 53037 60001 333 10035 21101 70000 555 30022 40201
AAXX 22064 71170 NIL
AAXX 22064 71171 16/// /2808 10065 20041 30021 40117 51034 60001 333 10117 20018 70053 555 33121 40011
AAXX 22064 71172 16/// ///// 11002 21006 39877 40094 53026 60001 333 10018 21006 70041
AAXX 22064 71175 17/// /1717 10053 20045 30071 40106 58050 60041 7//4/ 333 10053 21058 70043 555 31821 40061
AAXX 22064 71176 460// /2351 11177 39158 49840 56015 6///1 333 11125 21177 7////
AAXX 22064 71177 460// /2218 11185 38915 49930 50002 6///1 333 11123 21200 7//// 555 32043 40173
AAXX 22064 71178 16/// /2213 11016 21043 30133 40165 56005 60001 333 11010 21048 70003 555 33342 40113
AAXX 22064 71179 460// ///// 11120 39159 49999 53001 6///1 333 11120 21216 7////
AAXX 22064 71180 17/// /1619 10024 20012 30076 40115 58033 60021 7//4/ 333 10025 21044 70022 555 33234 40073
AAXX 22064 71181 16564 82211 10017 21024 30126 40163 55018 60001 333 10017 21045 70000 555 32933 40072
AAXX 22064 71183 17/// /0000 39997 53018 60051 7//4/ 333 70051
AAXX 22064 71184 46/// /0000 10000 21008 6///1 333 10001 21116 7////
AAXX 22064 71186 NIL
AAXX 22064 71187 15966 01106 11015 21019 30304 40353 52002 60001 333 10037 21015 70005
AAXX 22064 71189 NIL
AAXX 22064 71190 NIL
AAXX 22064 71191 17/// ///// 10040 20035 60241 7//4/ 333 10046 21121 70269
AAXX 22064 71192 15966 01403 11100 21105 39628 40319 58003 60001 333 11006 21133 70000
AAXX 22064 71193 16/// /3410 11041 21045 39726 40090 51026 60001 333 11015 21041 70000 555 31918 40071
AAXX 22064 71196 17/// /0000 11006 21008 39882 40081 51030 60061 7//4/ 333 11003 21061 70075 555 10010 20075
AAXX 22064 71197 17450 81817 10031 20023 30071 40121 57032 60011 74344 333 10032 21047 70010 555 33135 40073
AAXX 22064 71198 46/// /0101 10003 21003 6///1 333 10003 21083 7////
AAXX 22064 71199 NIL
AAXX 22064 71812 46840 33221 11283 21327 30117 40131 5/015 6///1 333 11283 21322 7////
AAXX 22064 71819 17459 82204 11047 21054 30051 40093 55004 60001 771// 333 11043 21148 70000
AAXX 22064 71820 17/// /2509 10031 20022 39973 40087 51067 60051 7//4/ 333 10081 21026 70159 555 33323 40031
AAXX 22064 71823 16464 82905 11147 21161 39662 40047 53019 60001 333 11031 21148 70020 555 32132 40072
AAXX 22064 71824 46/// /2603 11038 21040 6///1 333 11038 21095 7////
AAXX 22064 71826 16/// /0919 11148 21185 39845 49888 58013 60001 333 11144 21197 70000 555 30929 40062
AAXX 22064 71829 16/// /3006 11058 21072 39888 40050 55008 60001 333 11026 21136 70000 555 32017 40201
AAXX 22064 71833 46/// /2808 10022 20018 6///1 333 10049 21012 7//// 555 33117 40011
AAXX 22064 71835 16/// /2905 11157 21173 39681 40178 51018 60001 333 11033 21163 70007 555 10020 20007 30320 40141
AAXX 22064 71837 NIL
AAXX 22064 71839 NIL
AAXX 22064 71840 NIL
AAXX 22064 71846 17/// /2604 11209 21227 39848 40179 51016 69931 7//4/ 333 11030 21260 70003 555 30318 40121
AAXX 22064 71847 NIL
AAXX 22064 71848 NIL
AAXX 22064 71849 NIL
AAXX 22064 71350 17/// /1612 10035 20029 39967 40032 56057 60131 7//4/ 333 10036 21121 70138 555 31925 40231
AAXX 22064 71351 NIL
AAXX 22064 71352 16/// /2708 10016 20015 39671 40126 51035 60001 333 10034 21016 70046 555 33021 40001
AAXX 22064 71353 NIL
AAXX 22064 71354 NIL
AAXX 22064 71355 NIL
AAXX 22064 71356 NIL
AAXX 22064 71357 NIL
AAXX 22064 71358 16/// /3317 11180 21200 39957 49992 53005 60001 333 11180 21216 70000 555 33224 40061
AAXX 22064 71359 NIL
AAXX 22064 71360 NIL
AAXX 22064 71361 NIL
AAXX 22064 71362 NIL
AAXX 22064 71363 NIL
AAXX 22064 71364 NIL
AAXX 22064 71365 NIL
AAXX 22064 71368 17232 82707 10027 20023 39740 40129 51034 69931 7104/ 333 10047 21012 70056
AAXX 22064 71369 15966 82807 11015 21078 39464 40177 58016 60001 333 11013 21048 70000
AAXX 22064 71370 46/// /3207 11013 21018 39896 40033 53004 6///1 333 11007 21127 7////
AAXX 22064 71371 17236 83611 11004 21007 39995 40029 53002 60091 7654/ 333 11002 21104 70090
AAXX 22064 71372 17/// /3403 10000 21002 60071 7//4/ 333 10029 21718 70066
AAXX 22064 71373 17/// /0000 10032 20022 60051 7//4/ 333 10046 21058 70064
AAXX 22064 71374 NIL
AAXX 22064 71375 NIL
AAXX 22064 71376 NIL
AAXX 22064 71377 17/// /0000 10000 21005 39990 40039 53016 60051 7//4/ 333 10000 21098 70050
AAXX 22064 71378 16/// /3504 11035 21061 39844 40054 53007 60001 333 11035 21097 70000
AAXX 22064 71379 16/// /2801 11055 21070 39864 40035 53001 60001 333 11023 21097 70000
AAXX 22064 71380 NIL
AAXX 22064 71381 NIL
AAXX 22064 71382 16/// /3601 11037 21040 39094 40026 55000 60001 333 11037 21169 70018
AAXX 22064 71383 NIL
AAXX 22064 71384 17/// /2703 11006 21016 30033 40040 55000 60021 7//4/ 333 11004 21129 70020
AAXX 22064 71385 NIL
AAXX 22064 71386 NIL
AAXX 22064 71387 NIL
AAXX 22064 71388 NIL
AAXX 22064 71389 46/// /0501 11009 21015 6///1 333 11007 21141 7////
AAXX 22064 71390 NIL
AAXX 22064 71391 17/// ///// 10000 21007 60091 7//4/ 333 10002 21099 70101
AAXX 22064 71392 17/// /0505 11010 21014 60021 7//4/ 333 11008 21140 70030
AAXX 22064 71393 NIL
AAXX 22064 71395 11232 81920 10082 20081 39868 40045 56065 60182 76162 887// 333 10082 21117 70182 90973 555 19999 29999 31829 40051
AAXX 22064 71398 15466 83007 11159 21179 30122 40134 51026 60001 333 11006 21159 70000
AAXX 22064 71399 NIL
AAXX 22064 71201 NIL
AAXX 22064 71202 16/// ///// 11071 21106 60001 333 11003 21101 70004
AAXX 22064 71203 15966 31503 11090 21104 39815 40357 53002 60001 333 10034 21096 70000
AAXX 22064 71209 46/// /0909 10027 6///1 333 10079 20025 7//// 555 33232 40072
AAXX 22064 71211 NIL
AAXX 22064 71212 17/// /3201 11038 21043 39225 40028 55001 69961 7//4/ 333 11038 21211 70006 555 10010 20006
AAXX 22064 71213 46/// /2603 11014 21030 39782 40082 53019 6///1 333 10019 21059 7////
AAXX 22064 71214 NIL
AAXX 22064 71215 NIL
AAXX 22064 71216 NIL
AAXX 22064 71217 NIL
AAXX 22064 71218 16/// /2001 11051 21073 39904 40345 55003 60001 333 10052 21061 70000 555 33122 40091
AAXX 22064 71219 NIL
AAXX 22064 71220 NIL
AAXX 22064 71221 NIL
AAXX 22064 71222 NIL
AAXX 22064 71223 NIL
AAXX 22064 71224 NIL
AAXX 22064 71225 NIL
AAXX 22064 71226 NIL
AAXX 22064 71227 NIL
AAXX 22064 71228 NIL
AAXX 22064 71229 NIL
AAXX 22064 71230 16/// /2712 11009 21096 39293 40199 58001 60001 333 11003 21112 70000 555 32625 40051
AAXX 22064 71231 16/// /1708 11111 21138 60001 333 11007 21117 70009 555 30421 40161
AAXX 22064 71232 16/// /2411 11046 21143 38722 40251 58003 60001 333 11007 21095 70000 555 32625 40051
AAXX 22064 71233 16/// /1904 11048 21122 60001 333 11002 21073 70024 555 33019 40111
AAXX 22064 71234 16/// /1303 11109 21135 39052 40278 56003 60001 333 11002 21123 70000 555 33530 40132
AAXX 22064 71235 16/// /2205 11095 21131 60001 333 11012 21095 70006 555 33531 40112
AAXX 22064 71236 46/// /3009 11041 21113 6///1 333 10013 21108 7//// 555 33123 40021
AAXX 22064 71237 46/// /1301 11128 21146 39411 40251 58015 6///1 333 10006 21132 7//// 555 33224 40081
AAXX 22064 71238 16/// /2502 11057 21079 60001 333 11009 21086 70007 555 10090 20007
AAXX 22064 71239 16/// /3009 11093 21124 39772 40249 51023 60001 333 11022 21096 70000 555 33019 40041
AAXX 22064 71240 16/// ///// 11074 21112 39383 40251 58006 60001 333 10005 21094 70000
AAXX 22064 71241 NIL
AAXX 22064 71242 16/// /1906 11090 21118 60001 333 11001 21117 70020 555 33325 40101
AAXX 22064 71243 NIL
AAXX 22064 71244 16/// /2903 11127 21152 39022 40292 55006 60001 333 10003 21141 70005 555 33531 40172
AAXX 22064 71245 NIL
AAXX 22064 71246 NIL
AAXX 22064 71247 15966 02308 11094 21109 39407 40289 56004 60001 333 10011 21112 70013
AAXX 22064 71248 16/// /0000 11141 21163 38912 40255 58013 60001 333 10006 21171 70007 555 10020 20007 33228 40112
AAXX 22064 71249 NIL
AAXX 22064 71102 NIL
AAXX 22064 71105 NIL
AAXX 22064 71107 NIL
AAXX 22064 71110 NIL
AAXX 22064 71111 15366 81519 10061 20052 30171 40179 58022 60001 333 10066 21011 70000
AAXX 22064 71112 NIL
AAXX 22064 71113 NIL
AAXX 22064 71115 NIL
AAXX 22064 71116 16/// /2002 11097 21108 39174 40306 55001 60001 333 11010 21110 70000 555 33024 40141
AAXX 22064 71118 16/// /2208 11089 21115 39387 40233 58006 60001 333 11024 21096 70000 555 33017 40201
AAXX 22064 71121 16964 02307 11047 21121 39378 40219 55012 60001 333 11010 21075 70005 555 32920 40161
AAXX 22064 71127 16/// /2507 11048 21097 39286 40217 56016 60001 333 11005 21064 70009 555 10010 20009 32919 40141
AAXX 22064 71130 17766 81604 11088 21096 39745 40215 53001 60001 771// 333 11035 21094 70000
AAXX 22064 71132 15466 81104 11247 21275 39881 40211 58012 60001 333 11125 21291 70000
AAXX 22064 71133 NIL
AAXX 22064 71139 16/// /2703 11104 21121 38770 40276 53003 60001 333 11020 21110 70073 555 33226 40131
AAXX 22064 71141 NIL
AAXX 22064 71142 15966 02211 11086 21091 39273 40274 53003 60001 333 10000 21094 70003
AAXX 22064 71143 NIL
AAXX 22064 71144 NIL
AAXX 22064 71147 NIL
AAXX 22064 71149 16/// /2805 11082 21130 60001 333 10007 21082 70000 555 30117 40161
AAXX 22064 71900 46/// /24// 11095 21129 39985 49998 53011 6///1 333 11089 21191 7////
AAXX 22064 71903 NIL
AAXX 22064 71904 NIL
AAXX 22064 71914 NIL
AAXX 22064 71916 NIL
AAXX 22064 71918 460// ///// 11297 6///1 333 7////
AAXX 22064 71920 NIL
AAXX 22064 71921 NIL
AAXX 22064 71923 NIL
AAXX 22064 71927 NIL
AAXX 22064 71941 15366 82804 11029 21036 39657 40074 51015 60001 333 11010 21073 70000
AAXX 22064 71947 15366 83310 11080 21085 39735 40085 51034 60001 333 11023 21080 70008
AAXX 22064 71550 NIL
AAXX 22064 71551 NIL
AAXX 22064 71552 46/// /3210 11074 21096 6///1 333 11004 21080 7//// 555 33423 40171
AAXX 22064 71553 NIL
AAXX 22064 71554 16/// /0202 11026 21055 30045 40051 56006 60001 333 11012 21099 70000 555 32020 40111
AAXX 22064 71555 16/// /2811 11046 21174 38667 40270 53003 60001 333 11011 21086 70003 555 33532 40132
AAXX 22064 71556 16/// /2611 11043 21062 39606 40225 56004 60001 333 11001 21103 70000 555 32920 40211
AAXX 22064 71557 NIL
AAXX 22064 71558 46/// ///// 11050 21060 30048 40085 55004 6///1 333 11044 21144 7////
AAXX 22064 71559 46/// /2810 11054 21081 39543 40262 50005 6///1 333 11001 21096 7//// 555 33220 40201
AAXX 22064 71560 16/// /3106 11056 21070 39923 40232 52020 60001 333 11013 21057 70000 555 33426 40191
AAXX 22064 71563 NIL
AAXX 22064 71564 NIL
AAXX 22064 71565 NIL
AAXX 22064 71566 NIL
AAXX 22064 71567 NIL
AAXX 22064 71568 NIL
AAXX 22064 71569 16/// /2515 11069 21091 39514 40234 58005 60001 333 11015 21098 70000 555 33324 40161
AAXX 22064 71570 16/// /2402 11096 21123 39906 40227 53018 60001 333 10003 21096 70000 555 33317 40191
AAXX 22064 71571 NIL
AAXX 22064 71572 NIL
AAXX 22064 71573 16/// /2705 10046 20028 39845 40125 51028 60001 333 10124 20011 70061 555 32327 40201
AAXX 22064 71574 11348 80000 11029 21033 39968 40041 57033 60031 76877 8172/ 333 11015 21142 43020 70034 90973 93103 555 10030 20030
AAXX 22064 71575 16/// /0214 11179 21196 39836 49901 53016 60001 333 11143 21191 70000 555 30425 40031
AAXX 22064 71576 16/// /1605 11240 21266 39935 40022 53006 60001 333 11218 21281 70000
AAXX 22064 71577 NIL
AAXX 22064 71578 17/// /0305 11010 21019 60021 7//4/ 333 11006 21129 70016
AAXX 22064 71579 NIL
AAXX 22064 71580 11974 00000 11332 21365 30024 40062 50001 69901 77677 333 11328 21355 46030 79999 90973 555 19999 29999
AAXX 22064 71581 NIL
AAXX 22064 71582 15966 81103 10027 20004 30246 40300 58005 60001 333 10048 21010 70000
AAXX 22064 71583 NIL
AAXX 22064 71584 15566 80508 11062 21076 30016 40064 58015 60001 333 11042 21188 70000
AAXX 22064 71585 NIL
AAXX 22064 71586 16/// /0502 11194 21211 39736 40220 52009 60001 333 11075 21198 70000 555 33321 40121
AAXX 22064 71587 NIL
AAXX 22064 71588 16/// /1803 10007 21015 60001 333 10007 21065 70000
AAXX 22064 71589 16/// /2103 11043 21058 30027 40162 56006 60001 333 11025 21083 70000 555 32623 40091
AAXX 22064 71590 17/// /3102 11031 21044 39844 40035 56016 69951 7//4/ 333 11029 21156 70005 555 10010 20005
AAXX 22064 71592 NIL
AAXX 22064 71593 NIL
AAXX 22064 71596 NIL
AAXX 22064 71598 17/40 /0310 11008 21012 30039 40045 56030 60031 7//4/ 333 11002 21107 70025
AAXX 22064 71599 NIL
AAXX 22061 02019 07/83 /0700 11061 21065 39431 40063 57003 69952 70070 333 11049 21061 60005 70008 90710 91102
AAXX 22061 02081 07/81 /1801 11104 21113 39665 40080 54001 69912 70087 333 11091 21104 60005 70007 90710 91101
AAXX 22061 02095 07159 /1400 11047 21053 39880 40087 52001 69912 72487 333 11046 21074 69905 70001 88/02 90710 91101
AAXX 22061 02101 45284 /1202 11110 21123 39517 40093 57003 8//// 333 11067 21126 82/06 86/34
AAXX 22061 02119 07283 /1601 11178 21193 39691 40094 52002 69922 70070 333 11101 21192 60005 70004 87/06 90710 91102
AAXX 22061 02124 07203 /0000 11156 21162 39555 40102 55001 69912 77273 333 11090 21159 69905 70001 89/05 90710 91100
AAXX 22061 02126 07167 /1601 11191 21210 39755 40110 53002 69932 72487 333 11079 21193 69905 70005 89/02 90710 91102
AAXX 22061 02151 35984 00000 11146 21153 39743 40092 53002 60002 333 11087 21158 60005 79999 91000 90710 91100 90710 91200
AAXX 22061 02186 17380 82601 11032 21035 30071 40096 53001 69902 70084 333 11032 21064 60005 70016 88/09 91002 90710 91102 90710 91201
AAXX 22061 02197 07/59 /1600 11008 21008 30077 40096 52004 60012 72487 333 10004 21008 69925 70018 90710 91102
AAXX 22061 02207 05999 /1202 11049 21088 39341 40049 56019 60002 333 11029 21130 60005 70000 87/59 90710 91106
AAXX 22061 02219 07/58 /0803 11059 21069 39394 40072 57017 69902 71010 333 11030 21103 60005 70001 90710 91106
AAXX 22061 02226 45984 /1606 11051 21074 39618 40081 56017 8//// 333 11029 21092
AAXX 22061 02243 07/// /0701 11169 21182 39831 40112 57003 69902 72487 333 11078 21169 69905 90710 91101
AAXX 22061 02269 07/64 /3003 11046 21050 69912 70010 333 11022 21047 60005 70005 90710 91105
AAXX 22061 02287 05/83 /2603 11035 21048 30094 40104 52003 69912 333 11017 21036 60005 70006 90710 91104
AAXX 22061 02297 07777 /2502 11031 21032 30053 40099 52002 60002 70031 333 11007 21031 60005 70004 81/56 83/58 90710 91103
AAXX 22061 02308 05899 /1702 11078 21089 39204 40084 56018 60002 333 11077 21116 60005 70000 84/58 90710 91105
AAXX 22061 02327 05/99 /1000 11197 21215 39667 40125 56014 60002 333 11093 21226 60005 70001 90710 91102
AAXX 22061 02355 05/99 /1701 11039 21052 30108 40121 55003 60002 333 11034 21052 60005 70000 90710 91103
AAXX 22061 02366 45983 /3001 11105 21113 30112 40118 55002 8//// 333 11053 21112
AAXX 22061 02407 05899 /0200 11108 21123 39745 40128 58011 60002 333 11108 21138 60005 70000 87/57 87/65 90710 91102
AAXX 22061 02418 47257 /0000 11016 21019 30000 40134 58007 710// 8//// 333 11011 21029 85/05 88/58
AAXX 22061 02435 47481 /2601 11097 21112 39943 40139 55003 722// 8//// 333 11045 21133 83/20
AAXX 22061 02440 05399 /0000 11101 21112 60002 333 11056 21112 60005 70000 82/08 84/10 90710 91101
AAXX 22061 02452 07102 /2102 11010 21010 69952 73487 333 11007 21022 60005 70005 89/01 90710 91104
AAXX 22061 02456 07136 /2002 11011 21015 30097 40141 55003 69902 71075 333 11009 21024 60005 70001 88/02 90710 91105
AAXX 22061 02469 07/56 /0000 11016 21021 60002 71010 333 11007 21022 60005 90710 91102
AAXX 22061 02498 05273 /2606 11002 21011 30138 40155 55001 60002 333 10013 21011 60005 70000 88/06 90710 91109
AAXX 22061 02518 468// /1906 10039 20006 333 10042 20020 90710 91106
AAXX 22061 02520 17559 81803 10003 21007 30076 40145 58008 69902 71087 333 10005 21002 60005 79999 82/20 88/58 91005 90710 91105 90710 91204
AAXX 22061 02550 47257 /1702 11016 21016 39875 40157 58002 710// 8//// 333 11014 21058 88/04
AAXX 22061 02562 32970 71803 11033 21039 30039 40158 58003 60002 8707/ 333 11016 21062 43002 60005 70001 83363 86367 91004 90710 91104 90710 91203
AAXX 22061 02563 05699 /2404 11002 21024 30136 40159 57002 60002 333 11001 21013 60005 70000 81/41 88/50 90710 91107
AAXX 22061 02565 07761 /2600 11076 21083 30050 40174 58001 69912 70010 333 11047 21087 60005 70001 85/50 87/66 90710 91101
AAXX 22061 02589 07599 /2505 10021 21022 30141 40163 52001 69912 70086 333 10026 21003 60005 70003 90710 91109
AAXX 22061 02590 45969 /2003 11040 21043 30113 40176 53004 8//// 333 10014 21059
AAXX 22061 02618 07/17 /1702 11001 21001 39991 40159 58005 69902 71084 333 11001 21010 60005 70004 90710 91105
AAXX 22061 02664 32682 70000 11023 21033 30105 40179 50001 60002 875// 333 11016 21059 30/// 60005 70000 87641 91001 90710 91101 90710 91201
AAXX 22061 02679 07/99 /2403 10001 21043 30134 40180 52001 69902 70070 333 10020 21002 60005 70000 90710 91104
AAXX 22064 78962 11456 80803 10240 20230 30109 40117 60101 76086 8687/ 333 02299 10290 20231 59007 85815 86634 90916
AAXX 22064 78388 111570 31206 10245 20198 30143 40152 60001 70511 81102 90610 333 00909 10291 20220 59006 81824 83072
AAXX 22064 78388 111570 31206 10245 20198 30143 40152 60001 70511 81102 90610 333 00909 10291 20220 59006 81824 83072
AAXX 22064 78962 11456 80803 10240 20230 30109 40117 60101 76086 8687/ 333 02299 10290 20231 59007 85815 86634 90916
AAXX 22064 60710 11558 73015 10141 20125 30093 40172 51014 60174 72582 878// 333 20116 70166 84820 84630
AAXX 22064 60714 11458 63312 1//// 2//// 30164 40170 58005 69924 70262 86800 333 2//// 70002 84816 83630
AAXX 22064 60720 13560 63104 10122 20081 30113 40147 53004 60084 86800 333 20101 70076 83820 84630
AAXX 22064 60728 13558 62908 10114 20114 30064 40158 58007 60034 85802 333 20082 70028 82823 84626
AAXX 22064 60729 11550 82310 10110 20110 39986 40174 53005 60084 76086 888// 333 20087 70076 82820 87623
AAXX 22064 60731 07450 72207 10109 20104 30157 40164 53008 60054 76200 333 10133 20095 3//// 58017 5///4 60057 70046 85/18 87/25 91009 91120
AAXX 22064 60732 13558 73310 10106 20085 39576 40185 53001 60094 879// 333 20087 70090 83820 81823 85626
AAXX 22064 60734 11557 73212 10112 20112 39648 40170 53007 60084 7808/ 8688/ 333 20089 70082 83823 83630
AAXX 22064 60738 NIL
AAXX 22064 60739 11556 72917 10113 20085 39363 40181 54000 69924 760// 8787/ 333 20086 70002 82820 86826 94279
AAXX 22064 60740 11458 42708 10116 20102 30164 40166 53006 60024 76061 83280 333 20113 70024 84816 84360
AAXX 22064 60742 NIL
AAXX 22064 60764 NIL
AAXX 22064 60770 13960 72712 10134 20063 30043 40182 57004 60004 85082 333 20115 85360 83070
AAXX 22064 60772 13565 62414 10115 20035 39931 40189 58001 60004 86500 333 20115 86630
AAXX 22064 60775 13658 72610 10097 21005 39849 40210 53001 60004 8558/ 333 20076 55052 85633 83360
AAXX 22064 60780 13960 52302 10072 21025 39925 40240 53006 60004 85080 333 20067 85360
AAXX 22064 08141 11/06 93402 10030 20030 39463 40353 55005 60002 74344 333 20018 31002 55000 70000 89/92
AAXX 22061 06400 11766 72607 10110 20089 30211 40222 55001 69982 72011 875// 333 20084 31007 87656 91109 91207
AAXX 22061 06428 11660 72403 10095 20083 30172 40221 51003 69982 875// 333 20065 31006 87645 91106 91204
AAXX 22061 06479 11125 82404 10085 20082 30128 40208 50001 69942 71054 886// 333 20051 32004 83702 87704 91106 91204
AAXX 22061 48921 31457 40901 10165 20138 38575 48080 57012 71044 84200 333 59018
AAXX 22061 48924 31556 12202 10196 20139 39518 40147 57034 71044 81100 333 59010
AAXX 22061 48925 31450 30203 10212 20120 39411 40139 57025 70544 83200 333 59007
AAXX 22061 48926 32560 10904 10242 20152 39677 40145 57027 81100 333 59006
AAXX 22061 48927 31450 81203 10156 20120 39173 48635 57024 71044 888// 333 58002
AAXX 22061 48928 31457 70902 10171 20110 39088 48567 57029 71044 87800 333 58002
AAXX 22061 48930 32370 33601 10228 20137 39817 40170 57034 83100 333 59003
AAXX 22061 48935 32462 20405 10177 20098 38971 48464 57026 81101 333 59006
AAXX 22061 48938 31557 13602 10236 20137 39818 40152 57028 70544 81100 333 58002
AAXX 22061 48940 31657 33601 10269 20160 39930 40125 57028 70544 83500 333 59005
AAXX 22061 48941 NIL
AAXX 22061 48944 31558 73204 10204 20134 39527 40116 57002 71044 87500 333 59002
AAXX 22061 48945 31956 10903 10268 20136 39964 40143 57027 70544 80001 333 58001
AAXX 22061 48946 31557 61403 10283 20206 39960 40124 57022 70544 83850 333 59010
AAXX 22061 48947 32460 60902 10285 20185 39990 40154 57005 83230 333 58005
AAXX 22061 48948 32465 20903 10260 20151 39915 40129 57025 82200 333 59003
AAXX 22061 48952 31557 62701 10295 20189 39909 40098 57018 70544 83800 333 59008
AAXX 22061 48953 32565 43603 10318 20192 39893 40055 57032 84100 333 59009
AAXX 22061 48955 32465 33602 10308 20179 39980 40096 57036 81802 333 59015
AAXX 22061 48956 NIL
AAXX 22061 48957 31568 53602 10325 20187 39973 40078 57024 70544 83232 333 59002
AAXX 22061 06447 16/// /2503 10087 20081 30092 40218 54000 60022 333 20060 3/006 91105 91203
AAXX 22064 64600 31957 83604 10166 20158 39473 40126 71022 86032 333 01400 20158 55000 58011 83365 88080
AAXX 22064 64601 31930 73606 10195 20019 39010 48520 70422 80002 333 01500 20188 58007 87080
AAXX 22064 64605 32958 70000 10155 20124 39368 40114 80002 333 01100 20137 58009 87080
AAXX 22064 64610 32970 80406 10148 20134 3//// 4//// 80002 333 01000 20135 5//// 88080
AAXX 22064 64650 31930 30000 10160 20148 39712 40127 71000 81032 333 01400 20155 55098 81365 83080
AAXX 22064 64654 32970 40000 10155 20078 39555 40132 80002 333 01100 20135 58010 84080
AAXX 22064 64655 32960 40000 10138 20105 39480 40132 333 00900 20116 58017
AAXX 22064 64656 31960 30000 10185 20166 39575 40130 72844 83030 333 01400 20157 58023 83365
AAXX 22064 64659 NIL
AAXX 22064 64660 31930 82202 10160 20143 39586 40116 71011 80002 333 01000 20136 58007 86080
AAXX 22064 64662 32960 00000 10160 20143 39611 40113 333 01400 20142 58011
AAXX 22064 64665 32970 00000 10185 20168 3//// 4//// 333 00700 20175 5////
AAXX 22061 10004 46/60 /2508 10089 20086 30139 40139 56014 222// 00078 333 10090 20072 55024 55300
AAXX 22061 06431 16/// /2403 10090 20088 30201 40213 53003 69992 333 20065 3/006 91105 91204
AAXX 22061 06432 11440 82304 10090 20084 30149 40226 50001 69942 71022 875// 333 20061 31006 81712 86656 91105 91204
AAXX 22061 06458 32357 82405 10091 20088 30061 40215 58001 875// 333 20057 31005 82708 87650 91107 91205
AAXX 22061 06465 12356 72504 10091 20082 30142 40208 50000 69922 875// 333 20052 31005 83708 87650 91107 91205
AAXX 22061 06496 11003 89902 10027 20026 39534 40221 50000 69902 75165 877// 333 20003 3/001 43020 84701 87702 91105 91203
AAXX 22064 65351 32960 70808 10222 20043 3//// 4//// 80002 333 20217 5//// 87076
AAXX 22064 65355 32960 70000 10200 20021 39606 40121 80002 333 20180 58005 87073
AAXX 22064 65357 32960 71404 10190 20047 39739 40130 80002 333 20174 58011 87076
AAXX 22064 65380 31904 70000 10242 20239 3//// 4//// 74442 80002 333 20240 5//// 87076
AAXX 22064 16627 11458 80318 10060 20055 30098 40102 55000 60152 76166 8767/ 333 20050 32/// 5///0 55068 70153 82710 86620 88358 90730 91127 555 10000 30064 20000 89067 99097 30000 10070 20070 30080 40090 50108 6//// 40000 47603 44210 50000 50058 60000 60153 60540 70000 77RY/ 7RY//
AAXX 22061 15501 12570 80000 11025 21042 30126 40172 53008 60002 885// 333 11006 21027 70000 555 34/// 586// 92602
AAXX 22061 15505 12665 80000 11020 21041 39790 40176 52006 60002 885// 333 11010 21040 43006 70000 555 3/113 585// 92772
AAXX 22061 15511 12568 80000 11011 21033 30150 40191 53004 60002 885// 333 10001 21025 55063 70000 555 34/// 583// 92600
AAXX 22061 15514 12570 72701 11002 21026 30144 40181 52016 60002 87500 333 10014 21006 70000 555 34/// 582//
AAXX 22061 15530 11912 80000 11003 21009 39937 40183 53004 60052 77372 8802/ 333 10008 21006 47004 70045 555 3/103 59605 60899
AAXX 22061 15533 12970 80000 10002 21022 30120 40153 53013 60002 8802/ 333 10004 21010 70005 555 34/// 584// 92602
AAXX 22061 15550 12565 80000 10002 21016 30155 40175 52008 60002 885// 333 10022 20000 70005 555 31/// 588// 92600
AAXX 22061 15561 12470 83604 10024 20002 30168 40176 58010 60002 885// 222// 00090 2//00 333 10032 20002 70000 555 31000 586// 92013 92418
AAXX 22061 15562 12470 83609 10028 21005 30102 40176 58005 60002 885// 222// 2//02 333 10036 20020 55003 70000 555 31001 579// 92035 92438
AAXX 22061 15600 11/00 93612 11095 21107 38220 48434 58005 60002 74924 333 11059 21115 44011 55000 555 591// 92711
AAXX 22061 15601 11120 82903 11020 21036 39503 40141 57005 60022 77177 885// 333 11004 21026 47004 55046 70018 555 3/104 58701 69999
AAXX 22061 15605 12968 82701 11046 21052 39290 40166 57001 60002 8802/ 333 11044 21062 43002 70000 555 3/108 595//
AAXX 22061 15613 11/01 90208 11128 21138 37594 47915 56002 69972 77174 333 11104 21134 48045 55000 70007 555 592//
AAXX 22061 15628 11515 82902 11002 21011 39890 40155 54000 60082 77172 8802/ 333 10010 21008 47010 55074 70084 555 3/104 59407 69999 70659
AAXX 22061 15642 11568 80507 10028 20025 39971 40142 57010 60022 76162 8802/ 333 10034 20002 55044 70020 555 32103 59802 69999 70661
AAXX 22061 15661 11565 80904 10080 20053 30112 40148 57002 60012 76166 885// 222// 20501 333 10080 20030 70010 555 32001 58301 69999 70644 92023 92427
AAXX 22061 15726 11/01 90603 11054 21058 38160 48430 57001 60112 77377 333 11052 21064 47028 55063 70109 555 59704 69999 70646
AAXX 22064 61974 11460 60803 10300 20261 40129 60034 71581 85942 333 0//12 20264 58006 82915 83817 94323
AAXX 22064 61986 12580 11209 10292 20241 40142 60004 81200 333 20264 58010 81820 94322
AAXX 22064 61988 11475 30916 10267 20225 40161 69974 72582 83802 333 0//11 20232 50572 58006 83818 91131
AAXX 22064 61989 11468 71117 10265 20229 40172 69904 71582 87802 333 0//15 20236 58010 86817 83650
AAXX 22064 61990 12475 50913 10279 20217 40165 60054 83842 333 02219 20238 50362 58017 83817 91123 94322
AAXX 22064 61995 11470 50910 10250 20191 39680 69914 71522 85800 333 02019 20210 50162 58009 84818 91123 94322
AAXX 22061 01300 41597 82807 10096 20066 40035 52026 70262 88/// 22200 02068 10706 70030 333 91113
AAXX 22061 01098 41480 12110 11034 21044 30055 40074 50000 70200 81200 333 21045 91113
AAXX 22061 01212 16/// /1908 10052 20043 39990 40006 55007 60034 333 20030 70025 91112
AAXX 22061 01003 16/// /0610 11027 21050 30013 40025 57013 6////
AAXX 22061 01400 41697 42910 10096 20091 40125 52021 70121 84500 22200 06081 10504 70019 333 91112
AAXX 22064 48387 32560 31005 10230 20131 39167 40117 57021 81541 333 59006
AAXX 22061 02464 47358 /1801 11010 21016 30135 40153 54000 710// 8//// 333 11004 21012 81/08 88/16
AAXX 22061 02500 07465 /1403 10008 20000 30090 40133 55012 69902 78187 333 10008 21015 69905 70002 89/14 90710 91105
AAXX 22061 02513 NIL
AAXX 22061 02615 07957 /2502 10031 20019 30167 40172 50001 60002 71010 333 10039 20019 60005 70011 88/58 90710 91103
AAXX 22061 02635 07/57 /1501 10024 20012 60002 71010 333 10025 20007 60005 70003 90710 91102
AAXX 22064 08231 12970 03604 10022 21004 39195 48576 53001 60002 333 20022 30001 50184 55079 70000
BBXX A8QJ7 22064 99202 70201 41998 00815 10190 20156 40177 58016 7//00 80000 22213 2//// 3//// 4//// 5//// 80170
AAXX 22064 48380 31958 71501 10296 20184 30032 40125 57027 70500 86036 333 59008
AAXX 22061 14024 12499 13602 11024 21091 39089 48469 52015 60002 81401 333 21028 3/107 48021 55058 70000 81615 92835 95000
AAXX 22061 91925 06/// /0101 10230 20187 30046 40107 51024 60001 333 55054 60007 90710 91106 555 60005 11016 59006
AAXX 22061 91929 04970 /1021 10261 20204 30108 40111 53026 60032 700// 333 10278 20233 55/// 60007 70144 90710 91130 555 60005
AAXX 22061 91938 01460 80611 10227 20193 30106 40108 58014 60292 76086 8387/ 333 10282 20219 32/// 55016 60067 70291 82816 87461 90710 91116 555 69925 10616 59020
AAXX 22061 91943 16/// /0807 10263 20226 30106 40108 51015 69964 333 20250 59010
AAXX 22061 91944 06/// /0814 10264 20203 30132 40135 51022 60052 333 10287 20243 55071 60007 70047 90710 91118 555 60005
AAXX 22061 91948 06/// /0503 10240 20189 30081 40184 51015 60001 333 55103 60007 90710 91118 555 60005 11222 59007
AAXX 22061 91954 06/// /0419 10253 20222 30146 40149 53024 60001 333 55/// 60007 555 59006
AAXX 22061 91958 06/// /1204 10235 20214 30176 40178 53014 69961 333 55104 69967 90710 91111 555 69945 10312 59011
AAXX 22061 91945 16/// /0810 10261 20224 30135 40140 52019 60011 555 59006 60064
AAXX 22064 91413 32469 40910 10301 20240 30012 40037 57019 82101 333 569/9 70076 555 92206
AAXX 22063 NIL
AAXX 22064 88963 11330 80000 11002 21008 39848 49878 57013 69901 72272 887// 333 56799 88708 90110 90210 90283 90515 92405 94070 95080 96015
AAXX 22064 88968 11420 80908 11008 21015 39872 49887 57009 60021 72272 887// 333 56699 88710 90067 90092 90108 90913 92425 92731 92801 93002 93101 94072 95062 96010
AAXX 22064 89034 32270 70910 11044 21071 39452 49763 51009 87500 333 56100 87605 92417 92831
AAXX 22064 89053 31110 82706 10014 20005 39886 49901 57012 71022 887// 333 88703 90068 90084 92413 94070 94479 95090 97516 98510
AAXX 22064 89055 11156 81806 11025 21028 39637 49880 57011 69901 71074 8177/ 333 56459 81702 88360 90023 90076 92730 92850 95190
AAXX 22064 89066 32570 80000 11006 21024 39905 49914 57013 886// 333 56799 88730 92407 94070
AAXX 22064 94500 NIL
AAXX 22064 94510 46/// /1807 10244 20201 39736 40075
AAXX 22064 94515 46/// /1508 10286 20148 39738 40079
AAXX 22064 94552 46/// /1018 10233 20166 39655 40112
AAXX 22064 94578 46/// /1210 10254 20165 30116 40127
AAXX 22064 94584 46/// /1319 10217 20191 39999 40107
AAXX 22064 94601 46/// /1811 10204 20153 30126 40143
AAXX 22064 94610 46/// /2613 10298 20161 30079 40102
AAXX 22064 94637 46/// /2505 10388 20043 39658 40073
AAXX 22064 94638 46/// /1812 10246 20172 30073 40104
AAXX 22064 94642 NIL
AAXX 22064 94643 NIL
AAXX 22064 94647 46/// /1809 10242 20169 39993 40112
AAXX 22064 94651 46/// /2012 10295 20180 30025 40101
AAXX 22064 94653 46/// /2115 10296 20178 3//// 4////
AAXX 22064 94659 46/// /3407 10367 20033 39902 40092
AAXX 22064 94672 46/// /2112 10264 20087 30117 40127
AAXX 22064 94691 46/// /2211 10335 20002 39776 40095
AAXX 22064 94693 46/// /1605 10325 20078 30039 40099
AAXX 22064 94700 NIL
AAXX 22064 94703 46/// /0309 10328 20158 39956 40078
AAXX 22064 94710 46/// /2504 10251 20165 39842 40088
AAXX 22064 94729 46/// /0106 10220 20120 39290 40124
AAXX 22064 94750 46/// /0712 10206 20149 30030 40153
AAXX 22064 94767 46/// /0407 10211 20152 30157 40163
AAXX 22064 94776 46/// /1509 10194 20183 30152 40162
AAXX 22064 94791 NIL
AAXX 22064 94802 46/// /1811 10210 20176 30045 40127
AAXX 22064 94804 46/// /1511 10217 20160 30088 40125
AAXX 22064 94807 NIL
AAXX 22064 94821 46/// /1913 10244 20141 30047 40129
AAXX 22064 94842 46/// /0915 10180 20145 30047 40145
AAXX 22064 94847 NIL
AAXX 22064 94850 46/// /0815 10183 20126 30111 40157
AAXX 22064 94865 46/// /1612 10252 20146 30105 40129
AAXX 22064 94866 46/// /1713 10261 20140 39988 40127
AAXX 22064 94875 46/// /0304 10314 20112 39971 40104
BBXX VRAE2 22064 99280 31763 41499 31123 10220 20180 40142 55000 70122 83100 22244 04240 20302 315// 40403 80195
BBXX VRAE3 22064 99046 11270 41797 40309 10310 20229 40062 52017 70201 83831 22234 00310 20201 307// 40401 5//// 80254
BBXX PCAM 22063 99412 31732 41598 20106 10178 20132 40266 57011 70200 81440 22200 20200 30000 80150
BBXX 9MBX5 22054 99189 31129 41996 02903 10300 20273 40027 5/020 70100 80000 22244 04290 20804 319// 40804 80280
BBXX VMAL 22063 99355 31198 41/98 52308 10207 20176 40147 58010 70311 82556 22223 20501 30823 41003 51003 80188
BBXX VNSZ 22044 99378 31449 46/// /2109 10230 20155 30126 40152 57017 22200 04220 85182
BBXX 9HA2479 22044 99215 31674 46/// /1133 10254 20216 30072 40101 57026 22284 04264 85227
BBXX C6FS9 22044 99269 31532 46/// /1016 10243 20183 30105 40141 57013 22274 04250 85202
BBXX VNSZ 22054 99378 31449 46/// /2010 10227 20169 30120 40146 57014 22200 04223 85189
BBXX A8TX8 22063 99163 31085 41598 41814 10290 20240 40072 57015 703// 82105 22285 04290 20602 319// 40903 80255
BBXX 9HA2479 22054 99213 31674 46/// /1033 10256 20212 30064 40093 57024 22284 04267 85225
BBXX C6FS9 22054 99267 31532 46/// /1521 10238 20185 30089 40125 57021 22223 04251 85202
BBXX VROB 22054 99378 31449 46/// /2016 10218 20143 30112 40137 57017 22200 04205 85170
BBXX VNAH 22054 99327 31151 46/// /2215 10220 20159 30105 40128 57007 22243 04225 85180
BBXX VROB 22044 99378 31449 46/// /2013 10215 20135 30118 40143 57018 22200 04198 85165
BBXX VNSZ 22064 99378 31449 46/// /1815 10218 20163 30114 40140 57017 22200 04222 85182
BBXX VNAH 22044 99325 31152 46/// /2012 10217 20154 30110 40133 57003 22243 04224 85177
BBXX 9HA2479 22064 99210 31675 46/// /1129 10258 20206 30066 40095 57014 22283 04266 85222
BBXX C6FS9 22064 99268 31534 46/// /1519 10239 20190 30088 40124 57023 22233 04247 85206
BBXX V7EM3 22063 99103 31518 41597 53220 10290 20240 40027 58015 70322 85476 22284 00280 20503 80255
BBXX mpjh9 22064 99049 31533 41898 73411 10300 20243 40062 57025 70222 81078 22244 00300 2//00 302// 40601 80260
AAXX 22064 94893 46/// /0916 10170 20170 3//// 4////
AAXX 22064 94907 46/// /1013 10210 20137 30139 40149
AAXX 22064 94910 46/// /0612 10216 20153 39880 40125
AAXX 22064 94926 46/// /0915 10188 20131 39483 40140
AAXX 22064 94935 46/// /1708 10185 20159 30132 40158
AAXX 22064 94954 46/// /0713 10181 20113 30061 40172
AAXX 22064 94956 46/// /2312 10195 20137 30151 40177
AAXX 22064 94975 46/// /1613 10199 20128 30139 40171
AAXX 22064 94983 46/// /1616 10186 20147 30149 40174
AAXX 22064 94995 NIL
AAXX 22064 94996 46/// /0916 10223 20176 30042 40170
AAXX 22064 94997 NIL
AAXX 22064 94998 46/// /2915 10077 20058 30203 40214
AAXX 22064 95111 46/// /1310 10363 20225 39969 40004
AAXX 22064 95205 46/// /1405 10393 20193 30001 40008
AAXX 22064 95322 NIL
AAXX 22064 95448 46/// /1909 10379 20036 39510 40057
AAXX 22064 95458 46/// /1605 10364 20066 39826 40080
AAXX 22064 95480 46/// /1607 10379 20058 30030 40088
AAXX 22064 95481 46/// /1711 10377 20022 30030 40074
AAXX 22064 95482 46/// /1416 10391 20005 30000 40054
AAXX 22064 95485 46/// /1711 10335 2//// 39882 40080
AAXX 22064 95492 46/// /1305 10328 20134 39919 40069
AAXX 22064 95527 46/// /2604 10264 20168 39858 40106
AAXX 22064 95634 NIL
AAXX 22064 95637 46/// /1908 10314 20126 39768 40095
AAXX 22064 95646 NIL
AAXX 22064 95666 NIL
AAXX 22064 95719 46/// /0816 10254 20165 39792 40116
AAXX 22064 95762 46/// /1714 10194 20162 39675 40123
AAXX 22064 95826 NIL
AAXX 22064 95839 46/// /2905 10309 20067 39946 40103
AAXX 22064 95864 NIL
AAXX 22064 95909 NIL
AAXX 22064 95954 NIL
AAXX 22064 95966 46/// /3510 10228 20127 39963 40162
AAXX 22064 96995 46/// /0902 10249 20239 39780 40074
AAXX 22064 96996 41450 81415 10258 20245 30067 40071 58014 76262 8722/
AAXX 22064 41241 32960 01504 10209 21095 30195 40231 333 00024 20144 58001
AAXX 22064 41242 36/// /0000 10237 20063 30219 40243 333 0E014 20098 59002
AAXX 22064 41244 NIL
AAXX 22064 41246 32960 01803 10223 20088 30224 40229 333 20142 3/016 59001
AAXX 22064 41251 32965 01802 10099 21073 38061 48198 333 20043 3/004 58001
AAXX 22064 41252 NIL
AAXX 22064 41253 36/// /0302 10193 20064 39854 40239 333 0E013 20121 59000
AAXX 22064 41254 NIL
AAXX 22064 41255 32960 02305 10193 20064 39680 40208 333 20115 3/017 59005
AAXX 22064 41256 32960 01404 10222 20048 30223 40233 333 20139 58001
AAXX 22064 41257 36/// /1202 10184 20059 39745 40237 333 0E010 20108 58002
AAXX 22064 41258 NIL
AAXX 22064 41259 36/// /0508 10080 21256 37137 40313 333 0E/// 20024 58007
AAXX 22064 41262 NIL
AAXX 22064 41263 36/// /1904 10184 20048 39535 40229 333 0E012 20116 59004
AAXX 22064 41264 36/70 /1404 10195 20012 39836 40209 333 0E016 20119 59004
AAXX 22064 41265 36/// /3302 10197 21034 39672 40227 333 0E017 20083 59006
AAXX 22064 41267 35/// /3212 10223 20041 30211 40227 333 0E019 20198 58006
AAXX 22064 41268 31958 03609 10227 20061 30209 40225 70600 333 20190 3/019 58007
AAXX 22064 41270 36/65 /0111 10227 20059 30167 40179 333 0E018 20181 58006
AAXX 22064 41275 NIL
AAXX 22064 41287 36/// /0413 10218 20061 30174 40242 333 0E016 20147 59001
AAXX 22064 41288 31956 00718 10238 20125 30196 40218 70500 333 20207 58000
AAXX 22064 41290 NIL
AAXX 22064 41295 NIL
AAXX 22064 41304 NIL
AAXX 22064 41312 36/// /0113 10246 20113 30163 40203 333 0E/// 20217 58009
AAXX 22064 41314 32960 23007 10193 20068 39716 40226 82030 333 20136 59003 82359
AAXX 22064 41315 36/// /3312 10161 20086 39210 42846 333 0E/// 20123 58002
AAXX 22064 41316 2660 13611 10244 20103 30180 40206 81500 333 20209 58008 81630
AAXX 22064 94299 46/// /1717 10285 20246 30022 40032
AAXX 22064 94300 46/// /2116 10326 20175 30054 40064
AAXX 22064 94302 46/// /1409 10462 21021 30020 40026
AAXX 22064 94312 46/// /0112 10346 20235 30013 40022
AAXX 22064 94313 NIL
AAXX 22064 94317 46/// /1810 10418 20025 39462 40030
AAXX 22064 94319 46/// /1614 10419 20078 39694 40015
AAXX 22064 94324 NIL
AAXX 22064 94326 46/// /1111 10363 20057 39443 40041
AAXX 22064 94327 46/// /1512 10377 20069 39673 40036
AAXX 22064 94332 46/// /0507 10325 20199 39646 40020
AAXX 22064 94333 NIL
AAXX 22064 94341 46/// /2113 10302 20162 39810 40038
AAXX 22064 94346 46/// /0909 10323 20154 39835 40049
AAXX 22064 94363 46/// /0907 10313 20149 39849 40061
AAXX 22064 94366 NIL
AAXX 22064 94367 46/// /1511 10280 20221 30023 40064
AAXX 22064 94374 46/// /0911 10297 20191 30051 40067
AAXX 22064 94388 46/// /1423 10251 20202 30080 40085
AAXX 22064 94393 46/// /1420 10256 30021 40033 56006
AAXX 22064 94394 46/// /0719 10241 30052 40060 56010
AAXX 22064 94403 46/// /2017 10287 20177 30061 40102
AAXX 22064 94429 46/// /2407 10399 20039 39607 40059
AAXX 22064 94430 46/// /2707 10412 20039 39482 40049
AAXX 22064 94449 46/// /0912 10373 20063 39562 40079
AAXX 22064 94451 NIL
AAXX 22064 94461 46/// /1106 10364 20104 39388 40039
AAXX 22064 94462 46/// /0711 10364 20119 39508 40048
AAXX 22064 94477 NIL
AAXX 22064 94488 NIL
AAXX 22064 94102 46/// /0606 10326 20269 30008 40017
AAXX 22064 94103 NIL
AAXX 22064 94120 46/// /1309 10324 20233 39958 49998
AAXX 22064 94122 46/// /3506 10283 20247 39994 40002
AAXX 22064 94131 46/// /1210 10348 20193 39855 40005
AAXX 22064 94132 NIL
AAXX 22064 94147 NIL
AAXX 22064 94150 46/// /0208 10284 20248 39955 40014
AAXX 22064 94151 46/// /0711 10283 20241 30000 4////
AAXX 22064 94170 46/// /3306 10296 20254 30015 40037
AAXX 22064 94200 NIL
AAXX 22064 94203 46/// /2513 10380 20185 30000 40010
AAXX 22064 94206 46/// /1406 10367 20221 39892 40019
AAXX 22064 94207 46/// /3310 10297 30008 40016 56015
AAXX 22064 94211 NIL
AAXX 22064 94212 46/// /1106 10351 20180 39557 40017
AAXX 22064 94216 46/// /0911 10384 20210 39957 40007
AAXX 22064 94236 NIL
AAXX 22064 94238 46/// /0808 10351 20180 39606 40018
AAXX 22064 94248 NIL
AAXX 22064 94255 46/// /3412 10322 20211 39770 40025
AAXX 22064 94268 46/// /0802 10324 20206 30018 40030
AAXX 22064 94287 46/// /1312 10309 20212 30038 40047
AAXX 22064 94290 NIL
AAXX 22064 94294 46/// /0614 10293 20204 30049 40059
AAXX 22064 94296 35/// /0000 10281 30010 40020 57008
AAXX 22064 94298 46/// /1414 10269 30021 40027 56007
AAXX 22064 95641 NIL
AAXX 22061 48855 01560 83401 10214 20208 30137 40145 57030 60063 76062 888// 333 59005 69971 84895 88697 9616 0
AAXX 22061 48848 01497 83203 10183 20178 30159 40167 57023 60023 76162 8672/ 333 58000 60021 86894 88499 9616 1
AAXX 22061 48852 01560 83401 10202 20194 30137 40147 57029 60053 76062 888// 333 59014 69921 83895 88697 9616 0
AAXX 22064 89564 41581 71019 10024 21046 39810 49830 53008 70222 84570
AAXX 22064 89570 46/// /0721 11022 21069 39184 51003
AAXX 22064 89571 41775 20320 10044 21083 39816 49844 52002 70200 81531
AAXX 22064 89573 NIL
AAXX 22064 89610 NIL
AAXX 22064 89611 41470 72005 10008 21026 39801 49853 58006 77022 8452/
AAXX 22064 89614 NIL
AAXX 22064 89615 469// 61121 11025 21096 38963 56004
AAXX 22064 89807 NIL
AAXX 22064 89809 46/// /1706 10004 21010 39405 58003
BBXX UCKZ 22061 99637 30553 41395 82606 11007 21011 49826 52015 77074 8667/ 22213 01005 20301 332// 41004 ICE 0/6/0
BBXX FHZI 22054 99659 31408 46/// /2904 11014 21023 39850 49861 52004 22252 05013 86017
BBXX FHZI 22044 99659 31410 46/// /3110 11015 21024 39847 49858 54000 22283 05012 86018
AAXX 22060 67586 32580 30903 10236 20175 38787 48511 83201 333 20165 51121 55111 59008 83825 555 10290 7//11
AAXX 22060 67693 32980 10000 10261 39262 48514 80002 333 20192 5//// 55/// 59024 82075 555 20322 7//00
AAXX 22060 67485 32580 10000 10250 20170 81502 333 20161 5//// 55072 81620 555 10289 7//11
AAXX 22060 67584 32580 20805 10240 20180 81130 333 20175 5//// 55/// 81825 555 10300 7//11
AAXX 22060 67585 32980 11002 10242 20163 80001 333 20196 5//// 55/// 81080 555 10312 7//00
AAXX 22060 67591 32580 20000 10270 20186 82231 333 20214 5//// 55/// 82820 555 10289 7//00
AAXX 22060 67690 32580 20902 10280 20196 82930 333 20214 5//// 55/// 81925 555 10313 7//00
AAXX 22060 67695 32980 51504 10259 20189 85030 333 20201 5//// 55/// 85358 555 20324 7//11
AAXX 22064 41024 41958 30000 10240 20160 30132 40152 70500 83030 333 20200 58003 83360
AAXX 22064 41030 42960 30000 10233 20160 39875 40147 80001 333 20208 59001 83070
AAXX 22064 41036 42960 29903 10170 20000 38597 48546 82030 333 20090 59002 82358 555 04410 50164
AAXX 22064 41055 42960 01403 10142 20010 38401 48550 333 20084 59002 555 04410 50195
AAXX 22064 41061 42960 00804 10140 20080 39511 40230 333 20060 58014
AAXX 22064 41084 42960 00000 10128 21010 38909 48556 333 20072 59004 555 04410 50198
AAXX 22064 41112 42960 00000 10140 21010 37981 48556 333 20052 58003 555 04410 50209
AAXX 22064 41114 NIL
AAXX 22064 41128 42960 01504 10160 21080 38870 48568 333 20070 59005 555 04410 50221
AAXX 22064 41136 42960 00000 10140 21050 39394 40225 333 20040 58001
AAXX 22064 41140 42960 01506 10264 20220 30158 40163 333 20222 58011
AAXX 22064 91375 NIL
AAXX 22064 91519 NIL
AAXX 22064 91531 NIL
AAXX 22064 91532 45/// /0709 10287 20232 30034 40042 57001
AAXX 22064 91559 NIL
AAXX 22064 91611 NIL
AAXX 22064 91642 NIL
AAXX 22064 91679 NIL
AAXX 22064 91689 NIL
AAXX 22064 91756 NIL
AAXX 22064 91844 NIL
AAXX 22064 92036 NIL
AAXX 22064 93713 NIL
AAXX 22064 94310 46/// /0606 10331 20248 30007 40019 57022
AAXX 22064 95283 46/// /1212 10290 20211 30037 40044
AAXX 22064 95288 46/// /1817 10282 30024 40039 56014
AAXX 22064 95290 41/98 51818 10275 20239 3//// 4//// 70211 82281
AAXX 22064 95675 46/// /2011
AAXX 22064 95872 46/// /1615
AAXX 22064 95961 35/// /2910 10185 30137 40179 57009
BBXX 2ALD3 22063 99188 11230 41397 60120 10250 20236 40095 57080 70322 85798 22234 04300 20503 80240
BBXX V2BE4 22061 99053 11437 41697 40710 10310 20254 40022 57015 70300 84461 22243 04300 20605 309// 40606 80270
AAXX 22064 40356 42960 61402 10090 21010 39193 48498 86020 333 20060 59018 86460 555 04410 50171
AAXX 22064 40357 42660 62804 10101 20000 39534 40178 84560 333 20075 59037 84640 85360
AAXX 22064 40360 42960 62404 10072 20050 39587 40176 80005 333 20052 59011 86270
AAXX 22064 40361 42960 62305 10130 21020 39407 40177 83018 333 20100 59021 83460
AAXX 22064 40362 42960 51809 10156 21080 39668 40184 80002 333 20074 59035 85070
AAXX 22064 40373 42960 01604 10110 20020 39798 40224 333 20060 59019
AAXX 22064 40375 42660 50000 10118 20010 39291 40164 82230 333 20110 59011 82840 83360
AAXX 22064 40377 42660 22204 10100 20030 39737 40229 82400 333 20030 59023 82640
AAXX 22064 40394 42960 32408 10146 21050 39073 48545 80002 333 20080 59006 83070 555 04410 50206
AAXX 22064 40400 42960 40204 10204 20120 30131 40159 80004 333 20170 59004 84070
AAXX 22064 40401 42960 60000 10150 21020 39477 40177 83033 333 20112 59006 83070
AAXX 22064 40405 42960 31805 10130 20000 39468 40218 83030 333 20078 59016 83360
AAXX 22064 40416 41930 02604 10170 20150 30202 40222 71000 333 20110 59004
AAXX 22064 40417 41950 02803 10143 20110 30224 40239 71000 333 20111 59004
AAXX 22064 40420 41940 00000 10151 20150 30035 40247 71042 333 20108 58005
AAXX 22064 40430 42960 60506 10186 21020 39468 40186 80004 333 20142 59008 86070
AAXX 22064 40435 42660 51707 10130 20020 39174 40206 85500 333 20080 59004 85640
AAXX 22064 40437 41958 01504 10136 20080 39531 40248 70600 333 20040 59004
AAXX 22064 40439 42660 60000 10210 20130 30132 40150 83530 333 20170 59007 83640 83360
AAXX 22061 38141 32998 61302 11146 21197 30179 40352 57014 80002 333 21180
AAXX 22061 38149 42998 70904 11110 21163 30284 40367 54000 80001 333 21138
AAXX 22061 38178 42998 01102 11122 21246 30102 40414 53001 333 21191
AAXX 22061 38262 32998 30903 11088 21148 30282 40371 53005 80002 333 21160
AAXX 22061 38264 42998 50804 11106 21169 30266 40368 52003 80003 333 21147
AAXX 22061 38396 42996 31005 11071 21140 30238 40371 53005 80001 333 21137
AAXX 22061 38403 42997 00903 11079 21168 30248 40378 53004 333 21139
AAXX 22061 38413 42998 00903 11114 21128 30075 40391 58010 333 21156
AAXX 22061 38457 32997 03001 11026 21115 39769 40387 57003 333 21101
AAXX 22061 38462 42999 00000 11033 21133 38854 48577 58003 333 21143
AAXX 22061 38565 32998 00000 11082 21157 39763 40389 56003 333 21154
AAXX 22061 38579 31995 03302 11062 21097 39952 40399 57001 70010 333 21123
AAXX 22061 38583 32997 00000 11049 21062 30058 40401 54000 333 21105
AAXX 22061 38611 41996 30501 11050 21050 39818 40425 52003 71000 83070 333 21092
AAXX 22061 38618 32997 80701 11064 21100 39669 40404 52002 80008 333 21106
AAXX 22061 38683 42997 00702 11030 21088 30082 40374 54000 333 21114
AAXX 22061 38696 32999 00902 11051 21115 39465 40372 58005 333 21104
AAXX 22061 38812 42997 00802 11021 21092 39882 40359 57006 333 21090
AAXX 22061 38927 31950 00607 11016 21068 39998 40394 58001 70500 333 21091
AAXX 22061 02947 47/60 80000 11010 21013 40151 54000 70000 88/// 90551 333 11003 21016 3////
AAXX 22064 40550 35/69 /2401 10128 20008 40241 53007 333 55307 00381 10003 21022 30332 41020 51323 61354 55407 40690 90069 90400 91001 91103 91201 91301
AAXX 22064 40551 36/// /1606 10147 20006 333 90400 91007 91109 91209 91307
AAXX 22064 40552 35/70 /2003 10130 21001 40239 50007 333 55310 90069 90401 91005 91109 91209 91305
AAXX 22064 40553 35/69 /2104 10122 21002 40240 52009 333 55309 90069 90400 91005 91105 91205 91303
AAXX 22064 40568 36/// /0000 10159 20075 333 90401 91001 91109 91205 91301
AAXX 22064 40569 NIL
AAXX 22064 40570 35/62 /1706 10112 20044 40238 50006 333 55310 90069 90400 91009 91111 91207 91305
AAXX 22064 40571 NIL
AAXX 22064 40572 NIL
AAXX 22064 40573 36/// /1703 10124 20035 333 90401 91009 91111 91209 91305
AAXX 22064 40580 36/// /2101 10155 20039 333 553// 00340 10010 20827 30196 41044 51339 61023 55407 40631 90400 91003 91103 91201 91301
AAXX 22064 40581 36/// /1802 10169 20049 333 90400 91003 91105 91201 91301
AAXX 22064 40582 31957 12603 10114 20014 40244 52014 70500 80001 333 55310 00402 10000 20998 30313 41052 51329 61311 55407 40686 81070 90401 91003 91105 91205 91303
AAXX 22064 40583 NIL
AAXX 22064 40585 36/// /3204 10152 20092 222// 1//// 3//// 4//// 70/// 333 90401 91007 91111 91211 91303
AAXX 22064 40586 36/// /1602 10134 20006 333 90401 91003 91107 91203 91301
AAXX 22064 40587 36/// /2002 10129 20007 333 553// 00423 10000 21021 30323 41047 51316 61344 55407 40698 90400 91001 91109 91207 91303
AAXX 22064 40588 37/58 /0202 10156 20108 40240 51011 71031 333 55310 90069 90401 91003 91103 91203 91301
AAXX 22064 40589 NIL
AAXX 22064 40590 36/// /1806 10117 20011 333 90400 91007 91107 91205 91305
AAXX 22064 40591 NIL
AAXX 22064 40592 35/68 /2103 10171 20043 40240 51008 333 55310 00503 10000 21052 30266 41090 51367 61317 55407 40786 90069 90400 91005 91105 91201 91301
AAXX 22064 40593 36/// /2803 10153 20041 333 90400 91003 91107 91205 91301
AAXX 22064 40594 36/// /2002 10154 20047 333 90400 91003 91107 91205 91303
AAXX 22064 40596 36/// /0201 10181 20142 333 90400 91001 91103 91201 91301
AAXX 22064 91413 32469 40910 10301 20240 30012 40037 57019 82101 333 569/9 70076 555 92206
AAXX 22061 37395 32797 80000 10096 20050 30060 40199 54000 8452/ 333 20090
AAXX 22061 37409 31598 52703 10034 20019 38784 48503 52004 70142 83431 333 21011 95052
AAXX 22061 37432 32697 40000 11026 21066 38992 48500 57004 84500 333 21060
AAXX 22061 37514 32699 80000 11012 21035 39073 40262 53006 8872/ 333 21015
AAXX 22061 37545 32597 72904 10034 21001 39704 40227 52010 86410 555 21006 7000/
AAXX 22061 37621 32699 70000 10059 21027 39570 40214 52009 80001 333 21005
AAXX 22061 37484 NIL
AAXX 22061 48845 12498 83201 10193 20169 30175 40182 57023 69903 888// 333 58007 83894 88697
AAXX 22064 94893 46/// /0916 10170 20170 3//// 4////
AAXX 22064 94907 46/// /1013 10210 20137 30139 40149
AAXX 22064 94910 46/// /0612 10216 20153 39880 40125
AAXX 22064 94926 46/// /0915 10188 20131 39483 40140
AAXX 22064 94935 46/// /1708 10185 20159 30132 40158
AAXX 22064 94954 46/// /0713 10181 20113 30061 40172
AAXX 22064 94956 46/// /2312 10195 20137 30151 40177
AAXX 22064 94975 46/// /1613 10199 20128 30139 40171
AAXX 22064 94983 46/// /1616 10186 20147 30149 40174
AAXX 22064 94995 NIL
AAXX 22064 94996 46/// /0916 10223 20176 30042 40170
AAXX 22064 94997 NIL
AAXX 22064 94998 46/// /2915 10077 20058 30203 40214
AAXX 22064 95111 46/// /1310 10363 20225 39969 40004
AAXX 22064 95205 46/// /1405 10393 20193 30001 40008
AAXX 22064 95322 NIL
AAXX 22064 95448 46/// /1909 10379 20036 39510 40057
AAXX 22064 95458 46/// /1605 10364 20066 39826 40080
AAXX 22064 95480 46/// /1607 10379 20058 30030 40088
AAXX 22064 95481 46/// /1711 10377 20022 30030 40074
AAXX 22064 95482 46/// /1416 10391 20005 30000 40054
AAXX 22064 95485 46/// /1711 10335 2//// 39882 40080
AAXX 22064 95492 46/// /1305 10328 20134 39919 40069
AAXX 22064 95527 46/// /2604 10264 20168 39858 40106
AAXX 22064 95634 NIL
AAXX 22064 95637 46/// /1908 10314 20126 39768 40095
AAXX 22064 95646 NIL
AAXX 22064 95666 NIL
AAXX 22064 95719 46/// /0816 10254 20165 39792 40116
AAXX 22064 95762 46/// /1714 10194 20162 39675 40123
AAXX 22064 95826 NIL
AAXX 22064 95839 46/// /2905 10309 20067 39946 40103
AAXX 22064 95864 NIL
AAXX 22064 95909 NIL
AAXX 22064 95954 NIL
AAXX 22064 95966 46/// /3510 10228 20127 39963 40162
AAXX 22064 96995 46/// /0902 10249 20239 39780 40074
AAXX 22064 96996 41450 81415 10258 20245 30067 40071 58014 76262 8722/
BBXX VRAE2 22064 99280 31763 41499 31123 10220 20180 40142 55000 70122 83100 22244 04240 20302 315// 40403 80195
BBXX VRAE3 22064 99046 11270 41797 40309 10310 20229 40062 52017 70201 83831 22234 00310 20201 307// 40401 5//// 80254
BBXX PCAM 22063 99412 31732 41598 20106 10178 20132 40266 57011 70200 81440 22200 20200 30000 80150
BBXX 9MBX5 22054 99189 31129 41996 02903 10300 20273 40027 5/020 70100 80000 22244 04290 20804 319// 40804 80280
BBXX VMAL 22063 99355 31198 41/98 52308 10207 20176 40147 58010 70311 82556 22223 20501 30823 41003 51003 80188
BBXX VNSZ 22044 99378 31449 46/// /2109 10230 20155 30126 40152 57017 22200 04220 85182
BBXX 9HA2479 22044 99215 31674 46/// /1133 10254 20216 30072 40101 57026 22284 04264 85227
BBXX C6FS9 22044 99269 31532 46/// /1016 10243 20183 30105 40141 57013 22274 04250 85202
BBXX VNSZ 22054 99378 31449 46/// /2010 10227 20169 30120 40146 57014 22200 04223 85189
BBXX A8TX8 22063 99163 31085 41598 41814 10290 20240 40072 57015 703// 82105 22285 04290 20602 319// 40903 80255
BBXX 9HA2479 22054 99213 31674 46/// /1033 10256 20212 30064 40093 57024 22284 04267 85225
BBXX C6FS9 22054 99267 31532 46/// /1521 10238 20185 30089 40125 57021 22223 04251 85202
BBXX VROB 22054 99378 31449 46/// /2016 10218 20143 30112 40137 57017 22200 04205 85170
BBXX VNAH 22054 99327 31151 46/// /2215 10220 20159 30105 40128 57007 22243 04225 85180
BBXX VROB 22044 99378 31449 46/// /2013 10215 20135 30118 40143 57018 22200 04198 85165
BBXX VNSZ 22064 99378 31449 46/// /1815 10218 20163 30114 40140 57017 22200 04222 85182
BBXX VNAH 22044 99325 31152 46/// /2012 10217 20154 30110 40133 57003 22243 04224 85177
BBXX 9HA2479 22064 99210 31675 46/// /1129 10258 20206 30066 40095 57014 22283 04266 85222
BBXX C6FS9 22064 99268 31534 46/// /1519 10239 20190 30088 40124 57023 22233 04247 85206
BBXX V7EM3 22063 99103 31518 41597 53220 10290 20240 40027 58015 70322 85476 22284 00280 20503 80255
BBXX mpjh9 22064 99049 31533 41898 73411 10300 20243 40062 57025 70222 81078 22244 00300 2//00 302// 40601 80260
AAXX 22064 89564 41581 71019 10024 21046 39810 49830 53008 70222 84570
AAXX 22064 89570 46/// /0721 11022 21069 39184 51003
AAXX 22064 89571 41775 20320 10044 21083 39816 49844 52002 70200 81531
AAXX 22064 89573 NIL
AAXX 22064 89610 NIL
AAXX 22064 89611 41470 72005 10008 21026 39801 49853 58006 77022 8452/
AAXX 22064 89614 NIL
AAXX 22064 89615 469// 61121 11025 21096 38963 56004
AAXX 22064 89807 NIL
AAXX 22064 89809 46/// /1706 10004 21010 39405 58003
AAXX 22064 94102 46/// /0606 10326 20269 30008 40017
AAXX 22064 94103 NIL
AAXX 22064 94120 46/// /1309 10324 20233 39958 49998
AAXX 22064 94122 46/// /3506 10283 20247 39994 40002
AAXX 22064 94131 46/// /1210 10348 20193 39855 40005
AAXX 22064 94132 NIL
AAXX 22064 94147 NIL
AAXX 22064 94150 46/// /0208 10284 20248 39955 40014
AAXX 22064 94151 46/// /0711 10283 20241 30000 4////
AAXX 22064 94170 46/// /3306 10296 20254 30015 40037
AAXX 22064 94200 NIL
AAXX 22064 94203 46/// /2513 10380 20185 30000 40010
AAXX 22064 94206 46/// /1406 10367 20221 39892 40019
AAXX 22064 94207 46/// /3310 10297 30008 40016 56015
AAXX 22064 94211 NIL
AAXX 22064 94212 46/// /1106 10351 20180 39557 40017
AAXX 22064 94216 46/// /0911 10384 20210 39957 40007
AAXX 22064 94236 NIL
AAXX 22064 94238 46/// /0808 10351 20180 39606 40018
AAXX 22064 94248 NIL
AAXX 22064 94255 46/// /3412 10322 20211 39770 40025
AAXX 22064 94268 46/// /0802 10324 20206 30018 40030
AAXX 22064 94287 46/// /1312 10309 20212 30038 40047
AAXX 22064 94290 NIL
AAXX 22064 94294 46/// /0614 10293 20204 30049 40059
AAXX 22064 94296 35/// /0000 10281 30010 40020 57008
AAXX 22064 94298 46/// /1414 10269 30021 40027 56007
AAXX 22064 95641 NIL
AAXX 22064 94500 NIL
AAXX 22064 94510 46/// /1807 10244 20201 39736 40075
AAXX 22064 94515 46/// /1508 10286 20148 39738 40079
AAXX 22064 94552 46/// /1018 10233 20166 39655 40112
AAXX 22064 94578 46/// /1210 10254 20165 30116 40127
AAXX 22064 94584 46/// /1319 10217 20191 39999 40107
AAXX 22064 94601 46/// /1811 10204 20153 30126 40143
AAXX 22064 94610 46/// /2613 10298 20161 30079 40102
AAXX 22064 94637 46/// /2505 10388 20043 39658 40073
AAXX 22064 94638 46/// /1812 10246 20172 30073 40104
AAXX 22064 94642 NIL
AAXX 22064 94643 NIL
AAXX 22064 94647 46/// /1809 10242 20169 39993 40112
AAXX 22064 94651 46/// /2012 10295 20180 30025 40101
AAXX 22064 94653 46/// /2115 10296 20178 3//// 4////
AAXX 22064 94659 46/// /3407 10367 20033 39902 40092
AAXX 22064 94672 46/// /2112 10264 20087 30117 40127
AAXX 22064 94691 46/// /2211 10335 20002 39776 40095
AAXX 22064 94693 46/// /1605 10325 20078 30039 40099
AAXX 22064 94700 NIL
AAXX 22064 94703 46/// /0309 10328 20158 39956 40078
AAXX 22064 94710 46/// /2504 10251 20165 39842 40088
AAXX 22064 94729 46/// /0106 10220 20120 39290 40124
AAXX 22064 94750 46/// /0712 10206 20149 30030 40153
AAXX 22064 94767 46/// /0407 10211 20152 30157 40163
AAXX 22064 94776 46/// /1509 10194 20183 30152 40162
AAXX 22064 94791 NIL
AAXX 22064 94802 46/// /1811 10210 20176 30045 40127
AAXX 22064 94804 46/// /1511 10217 20160 30088 40125
AAXX 22064 94807 NIL
AAXX 22064 94821 46/// /1913 10244 20141 30047 40129
AAXX 22064 94842 46/// /0915 10180 20145 30047 40145
AAXX 22064 94847 NIL
AAXX 22064 94850 46/// /0815 10183 20126 30111 40157
AAXX 22064 94865 46/// /1612 10252 20146 30105 40129
AAXX 22064 94866 46/// /1713 10261 20140 39988 40127
AAXX 22064 94875 46/// /0304 10314 20112 39971 40104
AAXX 22061 48840 32498 80504 10217 20127 30168 40174 57029 888// 333 58002 82894 88696
AAXX 22064 94299 46/// /1717 10285 20246 30022 40032
AAXX 22064 94300 46/// /2116 10326 20175 30054 40064
AAXX 22064 94302 46/// /1409 10462 21021 30020 40026
AAXX 22064 94312 46/// /0112 10346 20235 30013 40022
AAXX 22064 94313 NIL
AAXX 22064 94317 46/// /1810 10418 20025 39462 40030
AAXX 22064 94319 46/// /1614 10419 20078 39694 40015
AAXX 22064 94324 NIL
AAXX 22064 94326 46/// /1111 10363 20057 39443 40041
AAXX 22064 94327 46/// /1512 10377 20069 39673 40036
AAXX 22064 94332 46/// /0507 10325 20199 39646 40020
AAXX 22064 94333 NIL
AAXX 22064 94341 46/// /2113 10302 20162 39810 40038
AAXX 22064 94346 46/// /0909 10323 20154 39835 40049
AAXX 22064 94363 46/// /0907 10313 20149 39849 40061
AAXX 22064 94366 NIL
AAXX 22064 94367 46/// /1511 10280 20221 30023 40064
AAXX 22064 94374 46/// /0911 10297 20191 30051 40067
AAXX 22064 94388 46/// /1423 10251 20202 30080 40085
AAXX 22064 94393 46/// /1420 10256 30021 40033 56006
AAXX 22064 94394 46/// /0719 10241 30052 40060 56010
AAXX 22064 94403 46/// /2017 10287 20177 30061 40102
AAXX 22064 94429 46/// /2407 10399 20039 39607 40059
AAXX 22064 94430 46/// /2707 10412 20039 39482 40049
AAXX 22064 94449 46/// /0912 10373 20063 39562 40079
AAXX 22064 94451 NIL
AAXX 22064 94461 46/// /1106 10364 20104 39388 40039
AAXX 22064 94462 46/// /0711 10364 20119 39508 40048
AAXX 22064 94477 NIL
AAXX 22064 94488 NIL
AAXX 22064 48383 31559 60810 10270 20175 39959 40119 57032 70521 86500 333 59008
AAXX 22061 02947 47/60 80000 11010 21013 40151 54000 70000 88/// 90551 333 11003 21016 3////
BBXX DILE 22063 99494 70074 41/98 /2514 10130 20103 40305 57005 7//22 8//// 22224 2//// 80115
BBXX UFJN 22061 99721 10495 41/98 72404 11025 40080 54000 72222 87/// 22200 0//// 20301
AAXX 22064 16614 11207 80000 11010 21015 39293 40090 53008 60072 77172 886// 333 21011 43012 55005 70099 84704 88620 90730 91105 93110 555 10000 30001 20000 89068 99097 60000 60073 61200 70000 77*F/ 7*F//
AAXX 22064 08284 02975 12806 10069 20026 30183 40260 52008 60002 80001 333 20069 30005 50384 55028 60007 70000
BBXX 44139 22061 99442 70571 46/// /1809 10075 40207 57032 22200 00060 10904 70021 333 91211
AAXX 22061 33177 11556 70000 11046 21055 39948 40196 52009 69902 71041 87500 333 21056 47001
AAXX 22061 33261 11496 82804 11021 21030 39921 40108 52029 60062 72272 889// 333 21022 47008 88914
AAXX 22061 33415 31993 00000 11117 21117 39790 40218 52013 74841 333 21118 43002
AAXX 22061 34712 11580 72706 10012 21017 30104 40192 52024 69902 70262 87500 333 20011 88625
AAXX 22063 91802 NIL
AAXX 22063 91809 NIL
AAXX 22063 91831 36/// /0705 ///// ///// 10261 20216 40127 53008
AAXX 22063 91841 36/// /0905 10252 20214 40110 52014
AAXX 22063 91843 11498 31403 10249 20221 40113 53018 60041 70128 82201 333 563/9 82818 83079
AAXX 22063 91848 36/// /1208 10246 20228 40165 57032
BBXX 44139 22061 99442 70571 46/// /1809 10075 40207 57032 22200 00060 10904 70021 333 91211
AAXX 22061 26045 21157 82103 11033 21033 30162 40164 53001 71022 886// 333 11016 21034 60007 88702 555 14102 21034 34103 51020
AAXX 22061 26058 27556 72200 11010 21011 30154 40161 52006 71011 87/// 333 11003 21022 60007 87/29 555 1/101 21022 3/103 51011 52104
AAXX 22061 26135 27141 82001 11020 21021 30095 40172 52004 71010 88/// 333 11011 21028 60007 88/03 555 1/100 21028 3/100 51013 52102
BBXX 46035 22061 99571 71778 46/// /1904 1//// 40008 53005 90550 22200 10904 20401 300// 40904 70022 333 91205 555 11036 22038 30520 42108 60549 190037 204051 208064 206063 207060 217047 82107 90520
BBXX 4XIS 22063 99381 71709 43/97 72721 10160 20110 40060 55035 22225 80130
BBXX A8SI3 22063 99541 71601 43998 00324 10027 21030 40110 54000 80/// 22264 00030 20703 80030
BBXX DHBN 22061 99348 71575 41497 80505 10170 20084 40230 52025 75022 885// 22224 00200 29901 329// 41004 5//// 80122
BBXX NWS0003 22064 99539 71665 43/// /0000 11003 21036 40041 5//// 7//// 8//// 222// 0//// 2//// 3//// 4//// 5//// 6//// 8//// ICE /////
BBXX V7NV4 22064 99300 71616 41597 52013 10200 20185 40220 52015 702// 83286 22263 00180 20201 332// 40405 5//// 6//// 80190 ICE /////
BBXX A8AJ4 22064 99503 11575 41997 03219 11030 2//// 40150 52020 7//// 80/// 22254 0//// 20604 3//// 40604 5//// 6//// 8//// ICE /////
BBXX DPCK 22063 99468 11538 41297 73215 11005 21005 40200 50010 73672 8677/ 22215 00020 20304 3//// 4//// 5//// 81005
BBXX LEQZ3 22063 99545 11788 412// 62913 10000 20000 40040 54000 70211 86483 22253 00110 80000
BBXX S6JU 22064 99463 11604 41998 13218 10070 20040 40105 50010 70100 81/// 22234 04080 2//// 3//// 4//// 5//// 6//// 80030
BBXX A8IM7 22064 99305 11297 41596 83530 10160 20088 40165 710// 8/4// 22225 04190 20706 3//// 4//// 5//// 80120
BBXX C6SI6 22064 99320 11252 46/// /3626 10067 20000 40246 56021 7//// 8//// 22213 0//// 2////
BBXX DIHC 22063 99356 11495 41298 82727 10165 20094 40090 53005 72582 887// 22264 00200 20304 324// 40404 80125
BBXX VSJG7 22063 99477 11479 41597 31718 11010 2//// 40210 56010 7//00 831// 22254 00020 20803 317// 4//// 5//// 6//// ICE /////
AAXX 22061 01059 11889 61706 11048 21068 30049 40059 57004 60002 70222 86030 333 21073 70000 91110
AAXX 22061 01473 11560 81101 11067 21075 39912 40129 55011 69952 77172 8472/ 333 21113 47019 70005 91102
AAXX 22060 67489 32580 20702 10245 20172 38764 48521 81143 333 20157 5//// 55056 59009 81822 555 10260 7//11
AAXX 22060 67423 12584 53403 10260 20215 39516 48528 69934 83138 333 20225 5//// 55/// 59019 70003 81820 85280 555 10275 7//96
AAXX 22061 01065 11689 80000 11083 21091 39912 40079 57002 69992 70222 885// 333 21139 48023 70017 91100
AAXX 22061 01441 16/// /2601 11064 21076 39099 40113 55001 60022 333 21158 70015 91102
AAXX 22061 10270 16/03 /2402 10008 20008 30148 40205 50006 60002 222// 06043 333 10022 21001 3/102 55000 55300 70001
AAXX 22061 50468 NIL
AAXX 22061 50953 NIL
AAXX 22061 51076 NIL
AAXX 22061 51243 NIL
AAXX 22061 51288 32980 01402 11126 21200 38437 57003 333 05253 21177
AAXX 22061 51463 NIL
AAXX 22061 51573 NIL
AAXX 22061 51709 NIL
AAXX 22061 52533 NIL
AAXX 22061 52652 NIL
AAXX 22061 52866 NIL
AAXX 22061 52983 NIL
AAXX 22061 53463 NIL
AAXX 22061 53513 NIL
AAXX 22061 53588 NIL
AAXX 22061 53772 NIL
AAXX 22061 53915 NIL
AAXX 22061 54218 NIL
AAXX 22061 54337 NIL
AAXX 22061 54342 NIL
AAXX 22061 54401 NIL
AAXX 22061 54471 NIL
AAXX 22061 54497 NIL
AAXX 22061 54511 NIL
AAXX 22061 54823 NIL
AAXX 22061 56080 NIL
AAXX 22061 56096 NIL
AAXX 22061 57083 NIL
AAXX 22061 78458 32466 10000 10210 20204 40193 57003 81800 333 10271 20196 31/// 56000 59006 81818
AAXX 22061 78460 31458 40000 10198 20190 40183 58007 70544 84500 333 10282 20180 30/// 56000 59010 84618
AAXX 22061 78479 21466 60908 10254 20203 40158 57008 70262 84234 333 10286 20230 31/// 56220 59002 60027 84818 84080
AAXX 22061 78485 32466 30203 10197 20178 40175 57008 81230 333 10310 20185 30/// 56000 59019 81818
AAXX 22061 78486 32466 33502 10226 20202 40162 57010 83200 333 10308 20207 30/// 56200 59007 83818
AAXX 22064 91753 02580 61007 10282 20238 30034 40066 53009 69902 82806 333 10313 20275 30027 55091 60007 70014 82823 85276 90710 91114 555 60005
AAXX 22064 91754 06/// /0804 10287 20236 30026 40066 53006 60001 333 60007 555 10309 20254 60044 60005
AAXX 22061 78458 32466 10000 10210 20204 40193 57003 81800 333 10271 20196 31/// 56000 59006 81818
AAXX 22061 78460 31458 40000 10198 20190 40183 58007 70544 84500 333 10282 20180 30/// 56000 59010 84618
AAXX 22061 78479 21466 60908 10254 20203 40158 57008 70262 84234 333 10286 20230 31/// 56220 59002 60027 84818 84080
AAXX 22061 78485 32466 30203 10197 20178 40175 57008 81230 333 10310 20185 30/// 56000 59019 81818
AAXX 22061 78486 32466 33502 10226 20202 40162 57010 83200 333 10308 20207 30/// 56200 59007 83818
AAXX 22064 41295 36/// /0210 10209 20089 30030 40211 333 0E018 20145 58001
AAXX 22061 78458 32466 10000 10210 20204 40193 57003 81800 333 10271 20196 31/// 56000 59006 81818
AAXX 22061 78460 31458 40000 10198 20190 40183 58007 70544 84500 333 10282 20180 30/// 56000 59010 84618
AAXX 22061 78479 21466 60908 10254 20203 40158 57008 70262 84234 333 10286 20230 31/// 56220 59002 60027 84818 84080
AAXX 22061 78485 32466 30203 10197 20178 40175 57008 81230 333 10310 20185 30/// 56000 59019 81818
AAXX 22061 78486 32466 33502 10226 20202 40162 57010 83200 333 10308 20207 30/// 56200 59007 83818
AAXX 22064 71472 17/// /1932 10069 20060 60021 7//4/ 333 10071 20040 70024 555 31850 40053
AAXX 22064 71510 16/// /2612 11070 21102 39513 40238 50000 60001 333 11010 21081 70000 555 32618 40061
AAXX 22064 71612 17/// /0102 11004 21013 39948 40038 53007 60071 7//4/ 333 11002 21051 70070
AAXX 22064 71619 16/// /0403 11019 21034 39983 40041 56032 60001 333 11019 21110 70000
AAXX 22064 71110 16/// /2214 10020 21005 30124 40185 55013 60001 333 10021 21055 70000 555 32830 40072
AAXX 22064 71133 46/// /2710 11064 21093 39477 40199 53008 6///1 333 11031 21114 7//// 555 32821 40041
AAXX 22064 71141 16/// /3108 11329 21362 30067 40095 56003 60001 333 11302 21331 70000 555 33420 40081
AAXX 22064 71147 17/// /2805 11060 21075 69931 7//4/ 333 10003 21061 70003 555 30018 40191
AAXX 22064 71954 46/// /0602 11137 21164 39834 40223 51008 6///1 333 11085 21137 7////
AAXX 22064 71956 16/// /2607 10002 21014 39867 40099 53019 60001 333 10025 21019 70000 555 32317 40071
AAXX 22064 71959 17/// ///// 10046 20027 60041 7//4/ 333 10046 21037 70035
AAXX 22064 71970 16/// /2706 11086 21110 39606 40206 51008 60001 333 11026 21132 70000 555 32717 40031
AAXX 22064 71977 46/// /1001 11185 21185 39328 40053 53019 6///1 333 11171 21313 7//// 555 10010
AAXX 22064 71978 46/// /0207 11217 21239 39741 40063 51012 6///1 333 11217 21260 7//// 555 32517 40071
AAXX 22064 71988 17/// /2211 10106 20103 30010 40029 56022 60161 7//4/ 333 10111 21040 70202 555 31536 40013
AAXX 22064 71989 16/// /2107 11245 21269 30032 40049 56011 60001 333 11241 21388 70000
AAXX 22064 71402 46/// /2216 11011 21042 30011 40127 56011 6///1 333 11011 21048 7//// 555 33440 40073
AAXX 22064 71407 16/// /2423 11291 21325 30032 40054 55002 60001 333 11260 21323 70000 555 32425 40051
AAXX 22064 71425 16/// /1610 11042 21080 30020 40056 56018 60001 333 11030 21114 70000 555 31722 40041
AAXX 22064 71429 16/// /3609 11030 21042 30025 40044 56032 60001 333 11022 21126 70000 555 32430 40122
AAXX 22064 71434 16/// /2808 11246 21277 30064 40133 53016 60001 333 11131 70000 555 33418 40071
AAXX 22064 71250 16/// /2411 11017 21047 30050 40189 55006 60001 333 11014 21073 70000 555 32823 40081
AAXX 22064 71270 17/// /2606 10029 20003 39892 40111 53030 69941 7//4/ 333 10044 21013 70054 555 33418 40001
AAXX 22064 71295 16/// /3005 11119 21149 39743 40201 51025 60001 333 11019 21119 70000 555 33120 40031
AAXX 22064 71296 16/// /2505 10018 20009 39808 40114 52038 60001 333 10031 21017 70115 555 33217 40011
AAXX 22064 71297 16/// /2707 10054 20044 60001 333 10088 20004 70014 555 32818 40001
AAXX 22064 71800 16/// /2320 10006 21020 30177 40210 56009 60001 333 10019 21043 70000 555 32929 40082
AAXX 22064 71807 16/// /2321 10025 21010 30180 40199 56010 60001 333 10025 21027 70000 555 32932 40082
AAXX 22064 71808 11559 82709 11048 21056 30041 40088 56007 69941 77171 885// 333 11041 21154 48022 70010 90942 555 10010 20010 32621 40040
AAXX 22064 71501 16/// /3216 11219 21242 30082 40084 51014 60001 333 11219 21299 7//// 555 10010
AAXX 22064 71516 16/// /2611 11097 21120 60001 333 10009 21111 70000 555 30122 40171
AAXX 22064 71522 47/// /0000 39560 55001 6///1 7//4/ 333 21140 7////
AAXX 22064 71087 46/// /1201 11219 21242 39853 40065 56018 6///1 333 11167 21234 7////
AAXX 22064 71920 17/// /2122 10094 20094 30037 40043 56038 60131 7//4/ 333 10097 21057 70134 555 31835 40043
AAXX 22064 71151 16/// /3106 11112 21139 39690 40207 51027 60001 333 11011 21112 70000 555 33122 40001
AAXX 22064 71155 16/// ///// 11072 21091 60001 333 11004 21114 70000
AAXX 22064 71156 16/// /2705 11094 21134 39096 40218 58012 60001 333 11009 21106 70000 555 32720 40071
AAXX 22064 71157 46/// ///// 11049 21081 6///1 333 11008 21049 7////
AAXX 22064 71158 16/// /3503 11110 21136 39929 40214 53017 60001 333 11043 21131 70000
AAXX 22064 71159 16/// /1906 10013 21006 30038 40110 56028 60001 333 10013 21060 70000 555 32323 40001
AAXX 22064 71160 16/// /0904 11284 21314 39944 40173 57020 60001 333 11233 21353 70000
AAXX 22064 71162 16/// /1119 11170 21189 39877 40093 57034 60001 333 11170 21208 70000 555 31223 40061
AAXX 22064 71164 46/// /3402 11140 21156 39950 40032 53028 6///1 333 11139 21236 7////
AAXX 22064 71165 46/// ///03 11176 21194 39793 40084 56017 6///1 333 11167 21320 7////
AAXX 22064 71166 46/// /2109 39455 56008 6///1 333 7////
AAXX 22064 71758 17/// /1615 10031 20026 30033 40110 58048 60011 7//4/ 333 10031 21075 70010 555 31821 40061
AAXX 22064 71627 11248 83605 11001 21015 39995 40040 53018 60111 76665 886// 333 11001 21085 70118 90927 555 19999 29999
AAXX 22064 71701 11/02 90000 10008 20008 39950 40012 56027 60101 75165 333 10011 21153 70098 90983 555 19999 29999
AAXX 22064 71736 46/// ///// 11032 21109 6///1 333 10009 21082 7//// 555 10010
AAXX 22064 71742 46/// /2206 11018 21042 39966 40155 57011 6///1 333 11018 21064 7//// 555 32124 40031
AAXX 22064 71744 17/// /0203 10003 21002 39990 40031 56036 60041 7//4/ 333 10003 21110 70047 555 10010 20047 32220 40141
AAXX 22064 71746 16/// /2504 10044 20026 39912 40132 51020 60001 333 10072 20033 70045
AAXX 22064 71747 16/// /3205 11066 21097 39692 40175 53022 60001 333 10021 21066 70000
AAXX 22064 71551 16/// /2716 11054 21082 39561 40235 56005 60001 333 11010 21072 70000 555 32724 40061
AAXX 22064 71553 16/// /2206 11093 21109 60001 333 11015 21101 70000 555 33122 40191
AAXX 22064 71564 16/// /3105 11056 21080 39862 40240 51021 60001 333 10009 21056 70000 555 30119 40191
AAXX 22064 71577 46/// /2903 11073 21102 6///1 333 11006 21077 7//// 555 33419 40171
AAXX 22064 71579 16/// /2902 11057 21089 39933 40223 51020 60001 333 10000 21059 70000 555 33519 40221
AAXX 22064 71581 17/// /0000 10001 21005 39603 40084 53032 69981 7//4/ 333 10007 21040 70079 555 10010 20079
AAXX 22064 71585 16/// /1105 11137 21146 39693 40170 58020 60001 333 7////
AAXX 22064 71599 17/// /2503 10090 20090 39837 40037 56041 60171 7//4/ 333 10090 21106 70177 555 31717 40031
AAXX 22064 71858 16/// /0205 11120 21160 39932 40223 51015 60001 333 11033 21120 70003 555 33217 40221
AAXX 22064 71861 16/// /2608 11056 21076 39488 40231 55003 60001 333 11009 21126 70000 555 33121 40211
AAXX 22064 71450 16/// /2617 11051 21077 39506 40242 57004 60001 333 11008 21095 70000 555 32722 40061
AAXX 22064 71451 16/// /2801 11174 21200 39781 40225 50009 60001 333 11096 21177 70000 555 33119 40171
AAXX 22064 71453 16/// /0000 11125 21150 39348 40296 55000 60001 333 10004 21125 70003
AAXX 22064 71470 16/// /2003 11297 21328 39478 40140 56014 60001 333 11261 21345 70000
AAXX 22064 71476 17/// /1528 30187 56020 60061 7//4/ 333 70058 555 31540 40063
AAXX 22064 71480 16/// /0302 11149 21175 39898 40021 53016 60001 333 11146 21203 70000
AAXX 22064 71484 16/// /1734 10064 20054 30179 40198 57017 60001 333 10069 20039 70000 555 31848 40063
AAXX 22064 71492 46/// ///09 11141 21159 39298 49994 55008 6///1 333 11129 21281 7////
AAXX 22064 71243 16/// /2407 11083 21129 39176 40304 56006 60001 333 11005 21113 7//// 555 33433 40152
AAXX 22064 71246 16/// /2006 11038 21085 39480 40151 56023 60001 333 11025 21079 70000
AAXX 22064 71869 11474 80000 11079 21081 39667 40205 51002 69901 77172 885// 333 11058 21107 47003 79999 90927 555 19999 29999
AAXX 22064 71300 17/// /2804 10005 20001 39939 40062 53039 60041 7//4/ 333 10005 21080 70101 555 10010 20101
AAXX 22064 71311 17/// /1811 10064 20053 39995 40019 56046 60061 7//4/ 333 10066 21125 70064 555 31825 40051
AAXX 22064 71317 17/// /3405 10058 20049 39989 40035 56065 60121 7//4/ 333 10062 21147 70132 555 31719 40041
AAXX 22064 71321 16/// /0609 11120 21169 39833 49876 53003 60001 333 11114 21138 70000 555 10030 31225 40141
AAXX 22064 71323 17/// /3203 10000 21005 39735 40016 55013 60031 7//4/ 333 10002 21174 70030
AAXX 22064 71334 46/// /3006 11300 21335 39858 40210 51011 6///1 333 11250 21302 7////
AAXX 22064 71837 16/// ///// 11076 60001 333 11002 21092 70003
AAXX 22064 71839 16/// ///// 11041 60001 333 11004 21090 70000
AAXX 22064 71840 46/// /2910 11069 21097 6///1 333 10007 21069 7//// 555 30120 40191
AAXX 22064 71849 16/// /2805 11067 21079 39927 40232 51019 60001 333 11031 21074 70000 555 33424 40221
AAXX 22064 71667 16/// /3307 11046 21091 39910 40159 51043 60001 333 10014 21047 70000 555 33120 40041
AAXX 22064 71669 16/// /2303 11044 21150 38609 40267 51002 60001 333 11033 21131 70000
AAXX 22064 71682 16/// /1608 10027 21095 39823 40049 56011 60001 333 10029 21205 70006 555 32522 40041
AAXX 22064 71355 16/// /2805 11241 21265 39935 40023 55003 60001 333 11150 21264 70000 555 32124 40071
AAXX 22064 71356 16/// /3009 11305 21339 30075 40145 51019 60001 333 11271 21337 70000 555 33231 40172
AAXX 22064 71357 16/// /1805 11228 21259 39967 49974 56004 60001 333 11209 21301 70000 555 10010
AAXX 22064 71361 16/// /1806 11128 21151 39847 40059 58029 60001 333 11119 21193 70000
AAXX 22064 71362 16/// /1504 11158 21174 39858 40122 56036 60001 333 11157 21238 70000
AAXX 22064 71365 16/// /1504 11183 21199 39833 40052 56018 60001 333 11142 21193 70000
AAXX 22064 71381 46/// /0000 11034 21051 6///1 333 21108 70000
AAXX 22064 71387 16/// /0000 11052 21060 39661 40040 58001 60001 333 11035 21123 70000
AAXX 22064 71393 16/// ///// 11083 21119 38955 40262 58010 60001 333 11004 21088 70000
AAXX 22064 71885 17/// ///// 11054 69931 7//4/ 333 10000 21082 70003
AAXX 22064 71015 46/// ///// 11089 6///1 333 7////
AAXX 22064 71017 16/// /2305 11300 21331 30065 40080 58008 60001 333 11296 21345 70000
AAXX 22064 71018 16/// ///06 11290 21319 39960 40050 53004 60001 333 11261 21319 70000
AAXX 22064 71019 46/// /0105 11023 21023 39728 40030 56019 6///1 333 11011 21141 7////
AAXX 22064 71020 46/// /2810 10034 21109 39781 40032 56020 6///1 333 10037 21201 7////
AAXX 22064 71021 46/// /0000 11117 21156 39719 40077 56008 6///1 333 11111 21238 7////
AAXX 22064 71800 16/// /2320 10006 21020 30177 40210 56009 60001 333 10019 21043 70000 555 32929 40082
AAXX 22064 71807 16/// /2321 10025 21010 30180 40199 56010 60001 333 10025 21027 70000 555 32932 40082
AAXX 22064 71808 11559 82709 11048 21056 30041 40088 56007 69941 77171 885// 333 11041 21154 48022 70010 90942 555 10010 20010 32621 40040
AAXX 22064 71627 11248 83605 11001 21015 39995 40040 53018 60111 76665 886// 333 11001 21085 70118 90927 555 19999 29999
AAXX 22064 71869 11474 80000 11079 21081 39667 40205 51002 69901 77172 885// 333 11058 21107 47003 79999 90927 555 19999 29999
AAXX 22064 71858 16/// /0205 11120 21160 39932 40223 51015 60001 333 11033 21120 70003 555 33217 40221
AAXX 22064 71861 16/// /2608 11056 21076 39488 40231 55003 60001 333 11009 21126 70000 555 33121 40211
AAXX 22064 71472 17/// /1932 10069 20060 60021 7//4/ 333 10071 20040 70024 555 31850 40053
AAXX 22064 71510 16/// /2612 11070 21102 39513 40238 50000 60001 333 11010 21081 70000 555 32618 40061
AAXX 22064 67243 32970 00906 10280 20181 40/// 333 20243 50/// 55/// 5//// 555 10000
AAXX 22064 67280 32980 1//// 10281 20195 40110 80001 333 20216 50760 55099 59025 94300 555 10000
AAXX 22064 67291 32580 2//// 10236 20154 3//// 48/// 82200 333 20206 50/// 55064 5//// 94320 555 10000
AAXX 22064 67323 32580 20305 10278 20194 40112 52019 82100 333 20190 50560 55128 94311 555 10000
AAXX 22064 67327 32980 03011 10256 20188 40121 50013 333 20189 50440 55113 555 10000
AAXX 22064 67331 32580 31906 10236 20197 40108 57012 83100 333 20200 50/// 55/// 94310 555 10000
AAXX 22064 67346 32980 03610 10243 20/// 40129 52016 333 20220 50600 55122 555 10000
AAXX 22064 71151 16/// /3106 11112 21139 39690 40207 51027 60001 333 11011 21112 70000 555 33122 40001
AAXX 22064 71155 16/// ///// 11072 21091 60001 333 11004 21114 70000
AAXX 22064 71156 16/// /2705 11094 21134 39096 40218 58012 60001 333 11009 21106 70000 555 32720 40071
AAXX 22064 71157 46/// ///// 11049 21081 6///1 333 11008 21049 7////
AAXX 22064 71158 16/// /3503 11110 21136 39929 40214 53017 60001 333 11043 21131 70000
AAXX 22064 71159 16/// /1906 10013 21006 30038 40110 56028 60001 333 10013 21060 70000 555 32323 40001
AAXX 22064 71160 16/// /0904 11284 21314 39944 40173 57020 60001 333 11233 21353 70000
AAXX 22064 71162 16/// /1119 11170 21189 39877 40093 57034 60001 333 11170 21208 70000 555 31223 40061
AAXX 22064 71164 46/// /3402 11140 21156 39950 40032 53028 6///1 333 11139 21236 7////
AAXX 22064 71165 46/// ///03 11176 21194 39793 40084 56017 6///1 333 11167 21320 7////
AAXX 22064 71166 46/// /2109 39455 56008 6///1 333 7////
AAXX 22064 71612 17/// /0102 11004 21013 39948 40038 53007 60071 7//4/ 333 11002 21051 70070
AAXX 22064 71619 16/// /0403 11019 21034 39983 40041 56032 60001 333 11019 21110 70000
AAXX 22064 71402 46/// /2216 11011 21042 30011 40127 56011 6///1 333 11011 21048 7//// 555 33440 40073
AAXX 22064 71407 16/// /2423 11291 21325 30032 40054 55002 60001 333 11260 21323 70000 555 32425 40051
AAXX 22064 71425 16/// /1610 11042 21080 30020 40056 56018 60001 333 11030 21114 70000 555 31722 40041
AAXX 22064 71429 16/// /3609 11030 21042 30025 40044 56032 60001 333 11022 21126 70000 555 32430 40122
AAXX 22064 71434 16/// /2808 11246 21277 30064 40133 53016 60001 333 11131 70000 555 33418 40071
AAXX 22064 71087 46/// /1201 11219 21242 39853 40065 56018 6///1 333 11167 21234 7////
AAXX 22064 71110 16/// /2214 10020 21005 30124 40185 55013 60001 333 10021 21055 70000 555 32830 40072
AAXX 22064 71133 46/// /2710 11064 21093 39477 40199 53008 6///1 333 11031 21114 7//// 555 32821 40041
AAXX 22064 71141 16/// /3108 11329 21362 30067 40095 56003 60001 333 11302 21331 70000 555 33420 40081
AAXX 22064 71147 17/// /2805 11060 21075 69931 7//4/ 333 10003 21061 70003 555 30018 40191
AAXX 22064 71250 16/// /2411 11017 21047 30050 40189 55006 60001 333 11014 21073 70000 555 32823 40081
AAXX 22064 71270 17/// /2606 10029 20003 39892 40111 53030 69941 7//4/ 333 10044 21013 70054 555 33418 40001
AAXX 22064 71295 16/// /3005 11119 21149 39743 40201 51025 60001 333 11019 21119 70000 555 33120 40031
AAXX 22064 71296 16/// /2505 10018 20009 39808 40114 52038 60001 333 10031 21017 70115 555 33217 40011
AAXX 22064 71297 16/// /2707 10054 20044 60001 333 10088 20004 70014 555 32818 40001
AAXX 22064 71758 17/// /1615 10031 20026 30033 40110 58048 60011 7//4/ 333 10031 21075 70010 555 31821 40061
AAXX 22064 71920 17/// /2122 10094 20094 30037 40043 56038 60131 7//4/ 333 10097 21057 70134 555 31835 40043
AAXX 22064 71954 46/// /0602 11137 21164 39834 40223 51008 6///1 333 11085 21137 7////
AAXX 22064 71956 16/// /2607 10002 21014 39867 40099 53019 60001 333 10025 21019 70000 555 32317 40071
AAXX 22064 71959 17/// ///// 10046 20027 60041 7//4/ 333 10046 21037 70035
AAXX 22064 71970 16/// /2706 11086 21110 39606 40206 51008 60001 333 11026 21132 70000 555 32717 40031
AAXX 22064 71977 46/// /1001 11185 21185 39328 40053 53019 6///1 333 11171 21313 7//// 555 10010
AAXX 22064 71978 46/// /0207 11217 21239 39741 40063 51012 6///1 333 11217 21260 7//// 555 32517 40071
AAXX 22064 71988 17/// /2211 10106 20103 30010 40029 56022 60161 7//4/ 333 10111 21040 70202 555 31536 40013
AAXX 22064 71989 16/// /2107 11245 21269 30032 40049 56011 60001 333 11241 21388 70000
AAXX 22064 71701 11/02 90000 10008 20008 39950 40012 56027 60101 75165 333 10011 21153 70098 90983 555 19999 29999
AAXX 22064 71736 46/// ///// 11032 21109 6///1 333 10009 21082 7//// 555 10010
AAXX 22064 71742 46/// /2206 11018 21042 39966 40155 57011 6///1 333 11018 21064 7//// 555 32124 40031
AAXX 22064 71744 17/// /0203 10003 21002 39990 40031 56036 60041 7//4/ 333 10003 21110 70047 555 10010 20047 32220 40141
AAXX 22064 71746 16/// /2504 10044 20026 39912 40132 51020 60001 333 10072 20033 70045
AAXX 22064 71747 16/// /3205 11066 21097 39692 40175 53022 60001 333 10021 21066 70000
AAXX 22064 71501 16/// /3216 11219 21242 30082 40084 51014 60001 333 11219 21299 7//// 555 10010
AAXX 22064 71516 16/// /2611 11097 21120 60001 333 10009 21111 70000 555 30122 40171
AAXX 22064 71522 47/// /0000 39560 55001 6///1 7//4/ 333 21140 7////
AAXX 22064 71801 12974 02417 11018 21046 30018 40195 55008 60001 333 11018 21054 70000 555 10000 20000 32830 40081
AAXX 22064 71243 16/// /2407 11083 21129 39176 40304 56006 60001 333 11005 21113 7//// 555 33433 40152
AAXX 22064 71246 16/// /2006 11038 21085 39480 40151 56023 60001 333 11025 21079 70000
AAXX 22064 71450 16/// /2617 11051 21077 39506 40242 57004 60001 333 11008 21095 70000 555 32722 40061
AAXX 22064 71451 16/// /2801 11174 21200 39781 40225 50009 60001 333 11096 21177 70000 555 33119 40171
AAXX 22064 71453 16/// /0000 11125 21150 39348 40296 55000 60001 333 10004 21125 70003
AAXX 22064 71470 16/// /2003 11297 21328 39478 40140 56014 60001 333 11261 21345 70000
AAXX 22064 71476 17/// /1528 30187 56020 60061 7//4/ 333 70058 555 31540 40063
AAXX 22064 71480 16/// /0302 11149 21175 39898 40021 53016 60001 333 11146 21203 70000
AAXX 22064 71484 16/// /1734 10064 20054 30179 40198 57017 60001 333 10069 20039 70000 555 31848 40063
AAXX 22064 71492 46/// ///09 11141 21159 39298 49994 55008 6///1 333 11129 21281 7////
AAXX 22064 71300 17/// /2804 10005 20001 39939 40062 53039 60041 7//4/ 333 10005 21080 70101 555 10010 20101
AAXX 22064 71311 17/// /1811 10064 20053 39995 40019 56046 60061 7//4/ 333 10066 21125 70064 555 31825 40051
AAXX 22064 71317 17/// /3405 10058 20049 39989 40035 56065 60121 7//4/ 333 10062 21147 70132 555 31719 40041
AAXX 22064 71321 16/// /0609 11120 21169 39833 49876 53003 60001 333 11114 21138 70000 555 10030 31225 40141
AAXX 22064 71323 17/// /3203 10000 21005 39735 40016 55013 60031 7//4/ 333 10002 21174 70030
AAXX 22064 71334 46/// /3006 11300 21335 39858 40210 51011 6///1 333 11250 21302 7////
AAXX 22064 71551 16/// /2716 11054 21082 39561 40235 56005 60001 333 11010 21072 70000 555 32724 40061
AAXX 22064 71553 16/// /2206 11093 21109 60001 333 11015 21101 70000 555 33122 40191
AAXX 22064 71564 16/// /3105 11056 21080 39862 40240 51021 60001 333 10009 21056 70000 555 30119 40191
AAXX 22064 71577 46/// /2903 11073 21102 6///1 333 11006 21077 7//// 555 33419 40171
AAXX 22064 71579 16/// /2902 11057 21089 39933 40223 51020 60001 333 10000 21059 70000 555 33519 40221
AAXX 22064 71581 17/// /0000 10001 21005 39603 40084 53032 69981 7//4/ 333 10007 21040 70079 555 10010 20079
AAXX 22064 71585 16/// /1105 11137 21146 39693 40170 58020 60001 333 7////
AAXX 22064 71599 17/// /2503 10090 20090 39837 40037 56041 60171 7//4/ 333 10090 21106 70177 555 31717 40031
AAXX 22064 71801 12974 02417 11018 21046 30018 40195 55008 60001 333 11018 21054 70000 555 10000 20000 32830 40081
AAXX 22061 33177 11556 70000 11046 21055 39948 40196 52009 69902 71041 87500 333 21056 47001
AAXX 22061 33261 11496 82804 11021 21030 39921 40108 52029 60062 72272 889// 333 21022 47008 88914
AAXX 22061 33415 31993 00000 11117 21117 39790 40218 52013 74841 333 21118 43002
AAXX 22061 34712 11580 72706 10012 21017 30104 40192 52024 69902 70262 87500 333 20011 88625
AAXX 22064 06610 01556 82305 10036 20024 39676 40275 52/// 60022 76166 887// 333 20011 32001 55000 55300 20000 60005 70051 88724 90768 93100 91113 91208
AAXX 22064 06670 01142 81502 10018 20010 39740 40267 52/// 60062 75076 887// 333 20006 3/000 43004 55000 55300 20000 60005 70066 82702 87706 90768 93100 91107 91206
AAXX 22064 06700 01464 83101 10026 20019 39774 40282 52/// 69992 71022 8557/ 333 20014 3/001 41998 55000 55300 20004 60005 70031 81710 85632 88459 90768 93100 91105 91204
AAXX 22064 06680 01/01 92312 11072 21072 37505 47034 52/// 60402 77374 333 21092 47251 55000 55300 20000 60045 70582 90768 93145 91138 91219
AAXX 22064 06990 01430 81603 10004 20004 39705 40272 52/// 60052 76977 887// 333 20002 3/100 42/// 55000 55300 20000 69955 70062 88715 91105 91204
AAXX 22064 06760 32967 12704 10023 21040 39751 40211 53/// 81048 333 20024 30000 55013 55300 20000 70000 81364 90768 93100 91115 91208
AAXX 22064 06720 01265 8//// 10019 20012 39688 40282 52/// 60022 70266 886// 333 20005 3/100 43023 55000 55300 20000 60005 70038 88704 90768 93100
AAXX 22064 89002 42999 40703 11082 21087 39744 49798 52012 83031
AAXX 22064 65338 31440 73204 10245 20238 39935 40121 71022 875// 333 02300 20244 50604 55078 58010 87611
BBXX SBHI 22063 99613 10174 43/98 32709 11007 40130 56006 22201 06040
AAXX 22064 68379 36/// /3104 10276 20187 39808 48563 56001 333 20207 91010 555 10385 91013
AAXX 22064 04211 45/84 /0614 11133 21176 39819 49983 52007 333 11117 21138
AAXX 22064 04220 05/84 00908 11154 21182 39923 49977 52003 6///2 333 11122 21159 55300 20004 6///7 70000
AAXX 22064 04221 45/84 /0808 11156 21291 39945 49984 52002 333 11150 21183
AAXX 22064 04231 12/89 00607 11262 21306 39917 49997 57005 6///2 333 11249 21271
AAXX 22064 04234 47929 80820 11093 21159 39937 49948 57011 77177 333 11089 21131 88/58 91027
AAXX 22064 04241 47946 70820 11096 21173 39899 49939 57010 71011 333 11091 21113 83/60 87/61 91129 91028
AAXX 22064 04250 05984 70606 11073 21166 39828 49935 57003 6///2 333 11072 21098 55300 20000 6///7 70000 83/60 85/63 87/64
AAXX 22064 04254 45982 40912 11082 21192 39823 49939 57012 333 11071 21118 83/59 84/61
AAXX 22064 04260 45757 71317 11073 21173 39904 49948 57013 333 11073 21119 85/56 87/61
AAXX 22064 04270 45984 10804 11157 21258 39952 49993 52010 333 11111 21177 81/61
AAXX 22064 04272 05984 8//// 11113 21164 39912 49986 52011 6///2 333 11096 21123 6///7 70000 88/71
AAXX 22064 04312 46/// /2703 11224 21255 30006 40049 57019
AAXX 22064 04320 47229 72911 11089 21101 39922 49937 57009 77177 333 11030 21094 81/06 87/10
AAXX 22064 04339 45/84 ///// 11103 21137 39798 49890 57005 333 11076 21133 55300 20000
AAXX 22064 04360 06/// /2704 11097 21139 39816 49887 57002 6///2 333 11081 21107 55300 20000 6///7 70000 91114
AAXX 22064 04361 46/// /2403 11100 21182 39837 49890 57001 333 11075 21130
AAXX 22064 04390 07/84 02712 11054 21174 39835 49929 52010 60092 72487 333 11045 21070 69977 70298 91134 91225
BBXX 44255 22061 99473 70573 46/// /1912 10041 40141 57027 22200 00038 10706 70028 333 91214
AAXX 22061 37279 /1498 83601 10093 20082 30071 40214 52012 76062 8872/ 555 20090
AAXX 22061 37308 32698 80000 10011 20000 39579 40246 52018 8451/ 333 21018
AAXX 22061 37531 32998 60000 11022 21028 39509 40262 57002 80051 333 21032
AAXX 22061 37553 32699 62902 10072 21038 39544 40189 53005 83531 333 21001
AAXX 22061 37651 16/// ///00 10033 21037 3//// 4//// 5//// 60002 333 21009
AAXX 22061 37492 NIL
BBXX 44255 22061 99473 70573 46/// /1912 10041 40141 57027 22200 00038 10706 70028 333 91214
BBXX SERW 22063 99236 70186 43/97 /0924 10205 2//// 40218 57006 70200 8//// 22252 06207 2//// 3//// 4////
BBXX 9V8797 22064 99059 10854 43/98 50514 10277 40090 53003 22224 00281 2//// 4////
BBXX SMGW 22061 99347 11762 43/98 82804 10133 40221 53031 22224 00183 2//// 4////
BBXX SFIR 22064 99448 70373 43/97 52732 10080 40208 51036 22223 00150 2//// 4////
BBXX MINUK04 2206/ 99532 10031 46/// ///// 10103 4//// 52025
AAXX 22061 40706 11530 60000 11034 21071 38725 40331 58001 60001 70522 84672 333 3/109 42001 70001 81720 83635 84358
AAXX 22061 40718 11308 80000 10080 20080 30235 40206 51009 60001 74622 886// 222// 00090 20300 333 31005 50091 70000 88708
AAXX 22061 40732 11957 10000 10088 20071 30225 40200 53005 60001 71042 81030 333 31102 50181 70000 81360
AAXX 22061 40745 12960 40000 10017 21121 39096 40294 53001 60001 80002 333 30112 70000 84070
AAXX 22061 40754 11958 41602 10046 21078 38893 40274 53004 60001 70511 83031 333 30104 5//// 70000 83360
AAXX 22061 40766 12660 40000 10016 21065 38764 40293 51010 60001 81450 333 30110 81645 84359
AAXX 22061 40800 11940 00000 10018 21024 38525 40296 51011 60001 70500 333 30107 5///1 70000
AAXX 22061 40811 11630 40000 10122 20062 30210 40238 52011 60001 70510 82101 333 30003 50171 70000 82840 84070
AAXX 22061 40841 12965 20000 10006 21133 38323 40312 51008 60001 80001 333 30113 5//// 70000 82070
AAXX 22061 40848 12962 10000 10066 21053 38591 40275 52019 60001 80001 333 30108 5///1 70000 81070
AAXX 22061 40856 12962 00000 10074 21310 38709 40302 52018 60001 333 30116 5///1 70000
AAXX 22061 40875 12960 03402 10184 21141 30227 40238 51021 60001 333 30000 50601 70000
AAXX 22061 40706 11530 60000 11034 21071 38725 40331 58001 60001 70522 84672 333 3/109 42001 70001 81720 83635 84358
AAXX 22061 40718 11308 80000 10080 20080 30235 40206 51009 60001 74622 886// 222// 00090 20300 333 31005 50091 70000 88708
AAXX 22061 40732 11957 10000 10088 20071 30225 40200 53005 60001 71042 81030 333 31102 50181 70000 81360
AAXX 22061 40745 12960 40000 10017 21121 39096 40294 53001 60001 80002 333 30112 70000 84070
AAXX 22061 40754 11958 41602 10046 21078 38893 40274 53004 60001 70511 83031 333 30104 5//// 70000 83360
AAXX 22061 40766 12660 40000 10016 21065 38764 40293 51010 60001 81450 333 30110 81645 84359
AAXX 22061 40800 11940 00000 10018 21024 38525 40296 51011 60001 70500 333 30107 5///1 70000
AAXX 22061 40811 11630 40000 10122 20062 30210 40238 52011 60001 70510 82101 333 30003 50171 70000 82840 84070
AAXX 22061 40841 12965 20000 10006 21133 38323 40312 51008 60001 80001 333 30113 5//// 70000 82070
AAXX 22061 40848 12962 10000 10066 21053 38591 40275 52019 60001 80001 333 30108 5///1 70000 81070
AAXX 22061 40856 12962 00000 10074 21310 38709 40302 52018 60001 333 30116 5///1 70000
AAXX 22061 40875 12960 03402 10184 21141 30227 40238 51021 60001 333 30000 50601 70000
AAXX 22064 16734 11460 72214 10142 20104 39913 49976 57026 60082 70292 85970 333 20072 32/// 55000 70167 82915 83820 87360 90730 91118 555 10000 30146 20000 89070 99095 40000 47460 44150 50000 50122 60000 60077 60640 70000 77/// 7TRV/
AAXX 22060 44214 32998 60701 11142 21213 38363 40472 58014 80007
AAXX 22060 44231 32999 22905 11099 21193 38776 40389 58014 80008
AAXX 22060 44259 32997 03206 11152 21199 39294 40249 56028
AAXX 22060 44277 41699 72904 11141 21168 37852 40463 58010 70272 85554
AAXX 22060 44288 32699 73206 11088 21196 38183 40341 58013 86540
AAXX 22060 44292 31995 21701 11160 21211 38722 40349 58020 70400 80001
AAXX 22060 44304 32999 62306 11166 21200 39003 40307 58024 84049
AAXX 22060 44354 32999 40000 11165 21199 39132 40325 57033 80004
AAXX 22060 44373 32999 30000 11081 21167 38564 40313 57025 80004
AAXX 22060 44203 32599 60000 11244 21262 38451 40462 58011 82518
AAXX 22060 44207 32999 73206 11116 21188 38348 40345 58010 83088
AAXX 22060 44212 32599 70000 11250 21274 39306 40580 58005 8702/
AAXX 22060 44213 32999 80000 11253 21286 38923 40575 57004 8802/
AAXX 22060 44215 32998 70000 11203 21236 38516 40514 52005 87010
AAXX 22060 44218 32998 53102 11196 21237 38706 40499 58014 80006
AAXX 22060 44225 32998 60202 11211 21236 38342 40490 58004 81086
AAXX 22060 44230 32998 60101 11126 21187 38834 40389 58010 82040
AAXX 22060 44232 32999 53404 11086 21156 39149 40322 57012 82041
AAXX 22060 44237 32999 23206 11100 21185 38527 40337 58005 82044
AAXX 22060 44239 32999 13601 11090 21177 38824 40292 56014 81040
AAXX 22060 44241 32999 20000 11179 21212 39305 40346 58022 82040
AAXX 22060 44256 41999 70000 11157 21199 39334 40237 57023 70272 87020
AAXX 22060 44265 32999 10000 11167 21217 38965 40473 58013 80001
AAXX 22060 44272 41998 50000 11177 21227 38290 40437 57006 80009
AAXX 22060 44275 32898 50000 11151 21170 37755 40386 58009 85075
AAXX 22060 44282 31999 73204 11091 21200 38324 40322 58009 70232 83048 333 91114
AAXX 22060 44284 32899 72701 11180 21229 37877 40465 56012 87070
AAXX 22060 44285 32699 73406 11091 21174 38342 40326 58015 86540
AAXX 22060 44287 32899 73406 11097 21172 38142 40359 57014 87070
AAXX 22060 44294 32998 60302 11193 21225 38574 40393 58016 80007
AAXX 22060 44298 32699 63203 11161 21174 38728 40330 57020 83540
AAXX 22060 44302 32999 22307 11158 21209 39106 40293 57029 82040
AAXX 22060 44305 32999 22904 11147 21204 39055 40277 57024 80002
AAXX 22060 44313 32999 40000 11198 21247 39401 40308 57018 84080
AAXX 22060 44314 32998 03207 11105 21168 39130 40259 58028
AAXX 22060 44317 32998 32707 11138 21190 38940 40285 57022 83040
AAXX 22060 44336 32999 71401 11124 21172 38727 40374 57018 80008
AAXX 22060 44341 32999 73106 11098 21153 38620 40327 58019 86071
AAXX 22060 44347 32999 62707 11092 21167 38743 40311 57028 83049
AAXX 22060 44352 32999 32707 11135 21170 38924 40289 57017 83040
AAXX 22060 44358 32998 52706 11088 21121 39127 40325 57030 83082
AAXX 22061 50468 32970 33202 11203 21261 30001 40230 52001 80002 333 21245
AAXX 22061 50953 11762 62703 11155 21227 30069 40261 57001 69921 77070 86500 333 21182
AAXX 22061 53463 32980 02201 11065 21191 39042 40360 57034 333 05351 21148
AAXX 22061 53513 32970 02504 11045 21199 39059 40360 57035 333 05600 21164
AAXX 22061 54218 32780 22505 11054 21228 39458 40311 57027 82500 333 21180
AAXX 22061 54337 32970 03604 11033 21231 30216 40304 57032 333 21104
AAXX 22061 54497 32975 03405 11067 21284 30279 40296 57015 333 21101
AAXX 22061 54823 32975 23203 10028 21174 30105 40323 57032 80001 333 21049
AAXX 22061 57265 31957 00202 10068 21034 30201 40316 57041 70500 333 20024
AAXX 22061 57494 32968 00203 10102 21062 30264 40294 57030 333 20024
AAXX 22061 58238 32965 00404 10065 21094 30260 40306 57032 333 20006
AAXX 22061 58362 32580 60206 10064 21035 30277 40285 57022 86100 333 20050
AAXX 22061 48803 32660 62303 10218 20145 30060 40174 57039 865// 333 59007 86696
AAXX 22061 56187 32962 80902 10084 21031 39597 40258 57037 8807/ 333 05152 20048
AAXX 22061 57461 32962 22201 10093 21065 30144 40311 57038 82040 333 20040
AAXX 22061 57687 11930 73402 10087 20035 30201 40287 57028 69901 70560 8704/ 333 20048
AAXX 22061 57816 11650 81102 10020 20001 38836 40269 57033 69901 71060 885// 333 00051 20009
AAXX 22061 58040 32968 30202 10034 21130 30301 40315 57035 80002 333 21036
AAXX 22061 58150 32670 40206 10049 21096 30307 40311 57022 81102 333 21005
AAXX 22061 58457 31940 70203 10069 21039 30231 40285 57032 70500 80002 333 20057
AAXX 22061 58606 11750 80903 10079 21011 30216 40276 57025 69911 70560 885// 333 20063
AAXX 22061 59117 32962 02901 10189 20043 30086 40193 57040 333 20096
AAXX 22061 59431 32960 03602 10179 20055 30060 40207 57043 333 20134
AAXX 22061 59644 32960 03605 10198 20069 30169 40186 57034 333 20153
AAXX 22061 59758 32468 70704 10213 20127 30095 40171 57031 878// 333 20186
AAXX 22064 47401 11/80 72202 11024 21057 30111 40126 56015 69901 70282 81232
AAXX 22064 47412 11/10 82001 11026 21040 30060 40093 56032 69951 78522 883//
AAXX 22064 47420 15/70 /1210 10006 21028 30118 40152 56018 60001
AAXX 22064 47426 17/70 /0814 10019 21040 30042 40090 58033 69901 72476
AAXX 22064 47582 11/62 71211 10024 20011 30028 40055 56027 60101 78098 872//
AAXX 22064 47590 12/65 41805 10057 20022 30020 40074 56029 60001 82572
AAXX 22064 47600 17/59 /2614 10060 20026 30079 40087 53005 60101 76160
AAXX 22064 47648 11/56 82604 10068 20038 30038 40072 56031 60001 71022 885//
AAXX 22064 47662 12/60 73402 10077 21008 30028 40072 56036 60001 81132
AAXX 22064 47678 17/60 /2403 10098 20087 39915 40103 56026 60131 76166
AAXX 22064 47740 17/77 /3115 10044 21010 30111 40146 53015 69951 72386
AAXX 22064 47778 15/69 /3009 10129 20013 30020 40103 56022 60001
AAXX 22064 47807 11/70 43413 10091 21022 30168 40186 55005 69901 70182 84200
AAXX 22064 47827 11665 73314 10107 20018 30129 40168 56012 69901 72581 87200
AAXX 22064 47843 17/80 /3214 10069 21020 30170 40203 58006 69901 70086
AAXX 22064 47893 12/65 32607 10125 21037 30117 40123 56018 60001 82202
AAXX 22064 47909 11/60 83416 10166 20100 30145 40155 56014 60011 72582 8722/
AAXX 22064 47918 11/60 80314 10201 20129 30138 40155 56024 69901 70262 8387/
AAXX 22064 47936 11/60 73614 10189 20110 30095 40154 56018 69901 70262 878//
AAXX 22064 47945 11/60 70216 10191 20156 30103 40127 56009 69951 72581 878//
AAXX 22064 47971 11/75 71513 10223 20179 30084 40094 56030 69901 78081 8727/
AAXX 22064 47991 16/// /0508 10246 20205 30120 40130 56006 69901
AAXX 22061 56778 32565 11605 10151 20050 38103 57041 81100 333 00052 20009
AAXX 22061 57516 11540 80901 10088 20054 39941 40258 57034 60011 76066 8572/ 333 05100 20079
AAXX 22061 58102 32961 01601 10043 21081 30278 40328 57036 333 21025
AAXX 22061 58221 32964 20403 10051 21124 30289 40318 57034 80002 333 21010
AAXX 22061 58251 32578 30206 10058 21052 30296 40301 57029 83400 333 21003
AAXX 22061 58752 32661 80204 10108 20013 30201 40248 57023 885// 333 20103
AAXX 22061 58847 11658 80401 10120 20075 30119 40222 57023 69901 71060 885// 333 20118
AAXX 22061 59134 32962 20904 10159 20077 30026 40194 57031 80002 333 20125
AAXX 22061 59287 32963 03604 10187 20055 30108 40193 57038 333 20129
AAXX 22061 59316 32960 01102 10193 20126 30177 40182 57032 333 20133
AAXX 22061 52652 32965 00202 11047 21182 38626 40399 57022 333 05301 21189
AAXX 22061 52866 32968 22201 11038 21157 37698 57040 80002 333 05501 21165
AAXX 22061 52983 32965 13201 11035 21149 38138 57035 80002 333 05500 21145
AAXX 22061 54401 32980 22504 11015 21190 39417 40325 57038 80002 333 21117
AAXX 22064 47407 11/65 80302 11094 21135 39948 40130 56026 69901 70272 8807/
AAXX 22064 47409 12/80 71604 11006 21052 30086 40141 56018 60001 81272
AAXX 22064 47418 11/80 70810 10016 21042 30088 40138 56026 69901 70282 8227/
AAXX 22064 47421 17/57 /1511 10006 21016 30005 40049 56043 69951 76776
AAXX 22064 47430 11/65 81109 10034 20010 39997 40051 56037 69901 78082 882//
AAXX 22064 47570 15/65 /2802 10023 21004 39830 40093 55010 60001
AAXX 22064 47575 11/58 83004 10013 20000 30050 40055 56024 69951 78087 882//
AAXX 22064 47584 11/50 81705 10012 20009 39880 40072 56027 60021 78388 883//
AAXX 22064 47604 11/60 72108 10068 20025 30063 40072 56012 60091 78098 872//
AAXX 22064 47605 11/60 82618 10083 20019 30059 40100 55002 60141 72982 889//
AAXX 22064 47610 12/60 70606 10065 21005 39568 40068 56019 60001 83201
AAXX 22064 47624 11958 72101 10065 21007 39937 40076 56031 60001 70522 80002
AAXX 22064 47629 12/60 83601 10074 20033 30035 40073 56027 60001 885//
AAXX 22064 47636 11/58 73006 10103 20006 30039 40107 56023 60001 70522 85872
AAXX 22064 47651 12/60 62812 10120 21030 30084 40106 56022 60001 81102
AAXX 22064 47655 15/65 /2817 10107 20004 30035 40091 56025 60001
AAXX 22064 47675 15/64 /2419 10122 20026 39989 40079 56032 60001
AAXX 22064 47741 11/70 72817 10068 21021 30128 40156 53009 69951 78082 872//
AAXX 22064 47746 11/65 82711 10064 21001 30127 40147 53008 69901 78782 883//
AAXX 22064 47750 12/68 62512 10086 20003 30102 40130 53002 60001 86230
AAXX 22064 47765 11/70 63412 10090 21029 30094 40160 53001 69901 72582 86200
AAXX 22064 47772 11/60 72608 10111 20005 30024 40124 55010 69901 72522 8627/
AAXX 22064 47800 15/80 /3110 10064 21072 30195 40200 53001 60001
AAXX 22064 47815 11/62 63311 10090 20002 30146 40163 55010 69901 70282 86200
AAXX 22064 47817 11/70 43510 10080 21020 30144 40188 56009 69901 70281 84200
AAXX 22064 47830 12/65 12713 10118 21028 30131 40149 56018 60001 81100
AAXX 22064 47887 11/70 63211 10099 21018 30109 40151 55011 69901 72522 86200
AAXX 22064 47891 11/70 72809 10095 21015 30123 40140 55001 69901 72582 84202
AAXX 22064 47895 11/65 73012 10095 20009 30127 40135 55001 69901 78082 86202
AAXX 22064 47927 11/65 80213 10188 20123 30110 40159 56019 69901 70262 888//
AAXX 22061 52533 32980 00402 11038 21197 38616 40400 57016 333 05301 21159
AAXX 22061 53588 32980 22507 11116 21195 37780 57025 80002 333 21186
AAXX 22061 53772 31957 32202 11009 21159 39364 40325 57044 70400 80002 333 21078
AAXX 22061 53915 32980 01102 11010 21142 38719 40325 57047 333 05501 21101
AAXX 22061 54342 32975 03203 11095 21259 30249 40315 57019 333 21130
AAXX 22061 54471 32962 00205 11059 21232 30306 40312 57028 333 21119
AAXX 22061 54511 32980 02502 10036 21206 30262 40304 57042 333 21041
AAXX 22061 56080 32970 00202 11032 21162 37116 57042 333 05451 21170
AAXX 22061 56096 32972 02701 10057 21114 38988 40260 57055 333 05352 21010
AAXX 22061 57083 31950 21101 10057 21101 30173 40314 57042 70500 80002 333 21016
AAXX 22064 40100 12558 40803 10167 20093 30148 40180 53001 69984 82270 906// 333 20142 30/// 50194 55012 20534 82826 83358 92427
AAXX 22064 40101 11920 00000 10060 20055 39112 48504 50004 60004 74044 906// 333 20043 31/// 50224 55034 20749
AAXX 22064 40102 NIL
AAXX 22064 40103 NIL
AAXX 22064 65352 31940 70406 10195 20022 3//// 4//// 70522 80002 333 20195 5//// 87076
AAXX 22064 65361 32958 70000 10170 20091 3//// 4//// 80002 333 20170 5//// 87076
AAXX 22064 65376 32956 70402 10235 20197 39660 40118 80002 333 20223 58004 87076
AAXX 22064 65387 31425 70000 10257 20254 30081 40099 71022 81502 333 20255 58005 81610 87073
AAXX 22061 08501 NIL
AAXX 22061 08505 NIL
AAXX 22061 08509 11460 61805 10172 20166 30188 40252 52007 69902 70362 86800 333 20164 50234 55002 91010 91116
AAXX 22061 08512 NIL
AAXX 22061 08515 11475 41605 10170 20164 30155 40276 58001 69902 70181 83841 333 20167 31015 50274 55/// 81812 83630 910// 911//
AAXX 22061 08533 32/// /0501 10121 20108 30260 40290 54000 333 20121 30008 5//// 55085 21247 91107
AAXX 22061 08541 12/// /0304 10103 20089 30173 40294 57004 69912 333 20091 30006 5//// 55081 21079 91107
AAXX 22061 08545 11057 30904 10085 20064 30219 40305 57007 60002 71041 83600 333 20077 30003 50094 55062 20711 83701
AAXX 22061 08548 32/// /0704 10090 20063 30090 40300 57005 333 20090 30005 5//// 55034 20523 91006 91106
AAXX 22061 08554 32965 03602 10098 20072 30277 40287 57002 333 20090 30009 5//// 55085 21114
AAXX 22061 08558 NIL
AAXX 22061 08560 32/// /0606 10092 20053 39541 40308 57005 333 20085 30003 5//// 55073 20866 91011 91111
AAXX 22061 08567 12/// /9901 10050 20048 39658 40343 57003 69912 333 20039 31002 5//// 55051 20689 91105
AAXX 22061 08570 32/// /0602 10103 20059 39834 40298 57001 333 20091 30006 5//// 55082 20913
AAXX 22061 08575 12/// /0000 10013 20010 39519 40365 54000 69922 333 20010 30001 5//// 55031 20469
AAXX 22061 08579 NIL
AAXX 22064 60135 32456 21405 10080 20068 40284 58005 82100 333 20049 82813
BBXX BAREU51 22064 99407 10115 46/// ///// 40136 52023 22285
BBXX BAREU06 22064 99450 70485 46/// ///// 40272 52012 22224
BBXX BAREU62 22064 99404 10291 46/// ///// 40116 52004 22221
AAXX 22061 01415 17583 81903 10041 20018 30073 40084 53010 6//// 700// 333 21009 70020 91114
AAXX 22061 48917 32598 70704 10310 20225 30090 40096 57010 82208 222// 00295 2//00 333 59007 82895 87299
AAXX 22061 48918 32470 60503 10276 20226 30082 40093 57021 862// 222// 00267 2//02 333 59004 82894 84895
AAXX 22061 48900 31496 43604 10315 20220 30071 40081 57007 70511 84200 333 59007 84894
AAXX 22061 48914 32598 70703 10311 20218 30084 40086 57023 86201 333 59008 86895
AAXX 22061 50136 32970 03203 11221 21323 39666 40263 57008 333 21359
AAXX 22061 50745 32965 02904 11146 21277 30058 40259 57011 333 21213
AAXX 22061 50774 32663 52703 11158 21241 39900 40228 54000 85500 333 21217
AAXX 22061 50788 11970 52705 11167 21210 30108 40200 52010 69901 70070 80002 333 21169
AAXX 22061 51133 NIL
AAXX 22061 51431 NIL
AAXX 22061 51747 NIL
AAXX 22061 52203 NIL
AAXX 22061 52418 32970 02903 11045 21180 39026 40448 57007 333 00001 21180
AAXX 22061 52681 32980 02904 11046 21177 38722 40390 57029 333 05400 21158
AAXX 22061 53564 32980 31601 11030 21178 39281 40367 57043 80002 333 05351 21176
AAXX 22061 53614 32961 71101 11036 21135 38992 40357 57042 80002 333 05500 21126
AAXX 22061 53646 32975 22202 11046 21177 38937 40366 57036 80002 333 05451 21165
AAXX 22061 53798 32960 50902 10039 21121 30212 40313 57044 80002 333 21048
AAXX 22061 53845 32975 31601 11005 21168 39167 40344 57043 80002 333 05351 21095
AAXX 22061 53959 32975 03602 10039 21148 39871 40330 57044 333 21045
AAXX 22061 54094 NIL
AAXX 22061 54102 32980 22006 11158 21207 39063 40367 57026 80002 333 21262
AAXX 22061 54161 32968 02904 11132 21283 39972 40289 57011 333 21200
AAXX 22061 54292 32580 72908 11137 21265 39906 40246 52005 87200 333 21144
AAXX 22061 54374 32670 53202 11118 21248 39791 40286 57008 82102 333 21154
AAXX 22061 54423 32980 03203 11031 21208 39775 40321 57036 333 21149
AAXX 22061 54618 32964 52202 10035 21186 30294 40313 57040 80002 333 21080
AAXX 22061 54843 32980 23204 10017 21136 30292 40321 57026 80002 333 21053
AAXX 22061 54909 32970 01601 10051 21110 30254 40320 57036 333 21035
AAXX 22061 56029 32980 00000 10050 21231 36405 57043 333 00002 21169
AAXX 22061 57127 32960 81402 10064 21020 39669 40289 57039 8807/ 333 20046
AAXX 22061 57131 32968 00902 10041 21115 39820 40333 57051 333 21018
AAXX 22064 88878 46/// /2219 10084 20059 49920 52003
AAXX 22064 88883 46/// /2211 10061 20052 49938 52006
AAXX 22064 88897 46/// /1814 10072 20024 49913 52005
AAXX 22063 87007 32970 01402 10096 20024 36738 47136 56007
AAXX 22063 87148 31957 00508 10297 20189 39893 49997 56007 70500
AAXX 22064 NIL
AAXX 22064 82143 NIL
AAXX 22064 82599 32570 31306 10251 20230 30060 40120 83100 333 59003
AAXX 22064 82824 42970 00000 10252 20240 39978 40078 333 59017
AAXX 22064 82899 32470 41010 10265 20221 30093 40105 84200 333 59005
AAXX 22064 83117 NIL
AAXX 22064 83248 32470 20404 10263 20226 30090 40112 82100 333 59007
AAXX 22064 83746 31962 03404 10223 20189 30076 40086 56020 71000
AAXX 22064 87022 32960 00504 10257 20201 39481 49971 57015
AAXX 22064 87046 32962 03208 10220 20164 39006 48415 57012
AAXX 22064 87047 31962 30000 10196 20161 38709 48434 57012 71000 80006 333 56006 83270
AAXX 22064 87097 32960 00506 10220 20200 39749 40051 58017
AAXX 22064 87121 32965 02710 10298 20140 39460 49935 56009
AAXX 22064 87129 NIL
AAXX 22064 87155 32965 00506 10280 20193 39956 40014 57008
AAXX 22064 87162 31958 03608 10289 20195 39954 40021 58009 70400
AAXX 22064 87166 31958 13610 10301 20199 39945 40013 57007 70400 80001 333 56006 81070
AAXX 22064 87178 31960 01403 10256 20190 39893 40032 57012 70400
AAXX 22064 87217 NIL
AAXX 22064 87222 32970 01810 10311 20112 39453 49935 52015
AAXX 22064 87257 32965 03609 10304 20153 39868 49964 57013
AAXX 22064 87270 31950 00212 10297 20156 39934 49993 57016 70500
AAXX 22064 87289 NIL
AAXX 22064 87311 NIL
AAXX 22064 87320 NIL
AAXX 22064 87328 11780 71407 10212 20146 39372 49984 57001 69941 71792 87900 333 56000 57990 84850 83955 95090
AAXX 22064 NIL
AAXX 22064 NIL
AAXX 22064 NIL
AAXX 22064 NIL
AAXX 22064 NIL
AAXX 22064 NIL
AAXX 22064 NIL
AAXX 22064 82022 32970 00804 10257 20222 39985 40081 333 59016
AAXX 22064 82193 32970 40000 10250 20238 30065 40083 84030 333 59008
AAXX 22064 82281 32970 00614 10271 20201 30024 40086 333 58000
AAXX 22064 82332 32970 20502 10257 20247 39987 40079 82030 333 58011
AAXX 22064 82398 32470 50806 10252 20220 30067 40096 85500 333 59001
AAXX 22064 82400 NIL
AAXX 22064 82579 21470 60000 10257 20243 30001 40077 70262 84210 333 59002 69911
AAXX 22064 82917 32570 63602 1//// 2//// 39869 4//// 82230 333 59001
AAXX 22064 82965 NIL
AAXX 22064 82993 32470 20802 10220 20212 39973 40109 82100 333 59006
AAXX 22064 83208 NIL
AAXX 22064 83349 32570 52805 10233 20222 30110 40116 83201 333 59007
AAXX 22064 83362 32970 60103 10234 20206 39869 40083 86030 333 59003
AAXX 22064 83378 21566 70000 10191 20176 38947 48510 76096 82120 333 59003 60021
AAXX 22064 83460 NIL
AAXX 22064 83497 NIL
AAXX 22064 83566 32970 41004 10193 20156 39191 48510 82130 333 59011
AAXX 22064 83599 NIL
AAXX 22064 83612 32970 00209 10224 20163 39456 48500 57015
AAXX 22064 83649 32570 43405 10253 20223 30108 40113 56011 82530
AAXX 22064 83650 NIL
AAXX 22064 83780 32970 00805 10238 20128 39215 48520 56007
AAXX 22064 83827 32970 00403 10189 20137 39779 40048 56014
AAXX 22064 83840 32170 41204 10170 20164 39092 48500 56016 84600
AAXX 22064 83899 32570 12404 10226 20216 30085 40091 56018 81500
AAXX 22064 83925 NIL
AAXX 22064 83970 NIL
AAXX 22064 83971 32970 01002 10204 20202 30075 40078 55002
AAXX 22064 NIL
AAXX 22064 NIL
BBXX 44067 22061 99384 70770 46/// /3204 10163 40129 51011 90600
BBXX 44032 22061 99437 70694 46/30 /2404 10074 40008 58018 90604 22200 00085 10603 70017 333 91205 555 11048 22050
BBXX 41029 22061 99328 70796 46/// /2401 1//// 90600 555 11018 22020
BBXX 41037 22061 99340 70775 46/// /2205 10187 40183 56015 90600 22200 00175 333 91206
AAXX 22064 03008 12675 72723 10099 20068 40052 60022 875// 90550 333 20083 31/// 70062 87640 90710 91136
AAXX 22064 70133 32966 80305 11106 21133 30014 40021 51008 90553 333 11067 21111 555 92206
AAXX 22064 70174 11432 83204 11122 21139 39755 40006 53002 60021 771// 90553 333 11100 21122 4/076 96010 555 92206
AAXX 22064 70200 32766 60603 11111 21128 30035 40041 52008 90553 333 11056 21111 4/066 555 92206
AAXX 22064 70219 11032 83003 11133 21144 39989 40047 52008 69901 710// 90553 333 11044 21161 555 92206
AAXX 22064 70231 17532 81905 11039 21061 39891 40021 53004 69931 771// 90553 333 11033 21061 96010 555 92206
AAXX 22064 70261 12466 60000 11150 21161 39864 40041 50003 69901 90553 333 11017 21150 555 92206
AAXX 22064 70267 12666 41204 11117 21139 39570 40061 58002 69901 90553 333 10022 21117 555 92206
AAXX 22064 70271 32966 41807 11072 21089 39460 40053 58013 90553 333 10006 21078 4/003 555 92206
AAXX 22064 70273 32866 60000 11044 21072 39976 40035 56010 90553 333 10028 21050 4/041 555 92206
AAXX 22064 70316 35966 02509 11056 21078 30012 40049 51001 90553 333 10011 21061 555 92206
AAXX 22064 70326 32666 40504 11078 21089 30018 40032 56010 90554 333 10006 21083 4/005 555 92206
AAXX 22064 70340 11232 80103 11011 21022 39985 40048 58004 69951 771// 90553 333 10017 21011 96010 555 92206
AAXX 22064 70350 32566 83207 10006 21050 39973 40015 58021 90553 333 10039 21028 555 92206
AAXX 22064 70361 17561 80703 10017 20006 30016 40026 58047 60021 761// 90553 333 10050 20006 555 92206
AAXX 22064 70381 11666 81221 10033 20017 30078 40089 56033 60041 761// 90553 333 10033 20011 91034 555 92206
AAXX 22064 70414 35966 03609 11050 21078 39988 40024 53005 90556 333 11006 21072 555 92206
AAXX 22064 78526 12566 40713 10244 20206 30153 40174 58012 69951 90556 333 10256 20233 91021 555 92206
AAXX 22064 78543 15566 80408 10239 20200 30088 40171 58013 69901 90553 333 10256 20239 555 92206
AAXX 22061 22028 32581 22408 11032 21049 30059 40098 53002 81540 333 21040 48009 91009 91113
AAXX 22061 22106 12998 80000 11062 21074 30024 40105 58001 69902 8805/ 333 21063 47019
AAXX 22061 22127 31/93 90000 11083 21093 39911 40120 52002 74942 333 21093 47029 91001 93504
AAXX 22061 22324 11582 82303 11005 21011 30077 40127 52002 69902 78582 889// 333 21021 47019 91004
AAXX 22061 22621 32582 80000 11022 21037 30006 40149 53002 885// 333 21022 43010 88624
AAXX 22061 22831 11496 80000 11049 21059 30086 40148 54000 69972 77172 8802/ 333 21054 47024
AAXX 22061 22892 32597 60000 11005 21014 30139 40155 58001 86500 333 21005
AAXX 22061 26275 11497 83601 11067 21073 30112 40144 52006 69962 77072 8872/ 333 21069 47012 88712
AAXX 22061 26389 31496 73604 11032 21053 39849 40119 54000 71022 87600 333 21036 47004
AAXX 22061 26499 11396 83405 11030 21034 39864 40098 57006 60032 77175 8872/ 333 21030 44014 87706 93401
AAXX 22061 26695 11195 83503 11019 21024 39769 40081 57003 60092 77372 8672/ 333 21020 47019 86703
AAXX 22061 26882 11221 83206 11028 21035 39802 40083 53004 60012 77373 8872/ 333 21028 48006 88706
AAXX 22061 26997 11322 83104 11020 21023 39840 40062 52008 60052 77177 8872/ 333 21023 44013 87707 93709
AAXX 22061 27595 31/97 81603 11083 21124 30076 40228 58013 70232 8007/ 333 21079
AAXX 22061 27612 11393 80901 11028 21035 39885 40082 57009 60052 77572 8872/ 333 21028 47023
AAXX 22061 27707 11415 80202 11009 21012 39745 40040 57004 60142 71072 886// 333 21010 47025 88713
AAXX 22061 27719 11394 80902 10006 20006 39807 40058 56006 60052 71085 886// 333 21011 43021 93402
AAXX 22061 27786 32497 81405 11099 21135 30058 40228 58017 70232 885// 333 21090 88613 91112
AAXX 22061 27857 11498 81504 11046 21059 39966 40134 57005 69930 70272 886// 333 21040 88710
AAXX 22061 27906 11394 81504 10014 20009 39786 40027 57003 60092 76176 8872/ 333 20002 43007
AAXX 22061 27928 11596 71802 10021 20013 39852 40059 57006 60040 71065 87550 333 20004 42003
AAXX 22061 27947 11217 81406 11008 21012 39947 40108 57005 60010 77175 8872/ 333 21016 43009 88704 934//
AAXX 22061 27962 11495 81306 11086 21105 40184 55005 69920 76676 885// 333 21086 88612 92980 93402
AAXX 22061 27983 32598 71403 11100 21108 30117 40253 57007 875// 333 21097 87621
AAXX 22061 27995 32998 81604 11092 21137 40266 57010 8802/ 333 21092
AAXX 22061 28506 32997 82301 11060 21136 30155 40272 55003 8807/ 333 21070
AAXX 22061 28704 31998 81809 11083 21120 30170 40273 57002 73632 8807/ 333 21087 91012 91112
AAXX 22061 28711 31970 81708 11079 21158 39900 40294 57011 73632 8807/ 333 21092 91012 91114
AAXX 22061 28807 32697 81505 11082 21134 30227 40281 57012 8357/ 333 21083
AAXX 22061 34009 11396 82803 10013 20008 39743 40048 53009 60152 78582 889// 333 20012
AAXX 22061 34110 11498 82103 10012 20001 39782 40060 53003 60062 70262 886// 333 20012 88716
AAXX 22061 34123 11458 81606 10028 20018 39888 40071 57005 60040 78182 883// 333 20008 88914
AAXX 22061 34152 11296 81603 11026 21029 39951 40153 53003 60070 71062 886// 333 21036 88703 93405
AAXX 22061 34163 31496 81004 11084 21090 40200 53002 71022 885// 333 88620
AAXX 22061 34171 11330 81508 11078 21092 30003 40205 55003 69920 75674 886// 333 21086 88707 91112 93400
AAXX 22061 34186 31498 81608 11100 21136 30104 40251 57006 73632 887// 333 21102 88714 91012 91113
AAXX 22061 34247 11359 82106 10028 20004 30004 40118 53002 60010 71062 885// 333 20018 85709
AAXX 22061 34336 11570 82105 10028 20007 30017 40121 53007 60010 70281 8533/ 333 20025
AAXX 22061 34391 32597 81405 11092 21112 30221 40254 57005 885// 333 21091 88620
AAXX 22061 35011 32999 80905 11089 21168 40331 57011 8801/ 333 21099
AAXX 22061 35121 32998 81003 11107 21158 30220 40377 57005 8807/ 333 21128
AAXX 22061 20107 11497 80000 11067 21087 39947 40043 57022 69902 78581 889// 333 21081 91001 93403
AAXX 22061 22113 32584 22004 11041 21053 30039 40104 52001 82500 333 21044 47014 91005
AAXX 22061 22217 11370 81902 11019 21021 30087 40119 53001 69932 70282 886// 333 21036 47033 88709 91003 93730
AAXX 22061 22235 32271 82501 11027 21030 39925 40123 51001 886// 333 21027 47030 88606 91002
AAXX 22061 22349 12598 82802 11008 21021 30120 40132 58002 69902 885// 333 21012 42001 91003
AAXX 22061 22408 32382 81601 11019 21021 39987 40140 52003 886// 333 21028 47018 88708
AAXX 22061 22602 12474 82301 11023 21029 39918 40147 54000 69922 885// 333 21024 47015 88614
AAXX 22061 22619 32483 82801 11015 21026 39983 40147 52002 885// 333 21016 44005 88613
AAXX 22061 22721 31396 80000 11012 21012 30045 40147 52002 71022 887// 333 21013 43026 85707
AAXX 22061 22802 12570 83001 11005 21008 30134 40157 54000 60012 885// 333 21005 43002 93705
AAXX 22061 22820 11325 80301 11018 21018 30005 40146 54000 69942 77372 8872/ 333 21019 47006 88707
AAXX 22061 26059 32697 63201 11017 21025 30136 40161 52008 86500 333 21018 86634
AAXX 22061 26063 11396 80000 11005 21008 30145 40153 52002 60012 77172 8872/ 333 21005 47002
AAXX 22061 26094 11470 80101 11039 21044 30064 40143 52005 69932 70272 885// 333 21041 47001 88618
AAXX 22061 26157 32497 70000 11008 21015 30115 40166 52005 87500 333 21008 87617
AAXX 22061 26167 11463 83202 11012 21022 30038 40152 52006 69952 70272 886// 333 21025 47001 88715
AAXX 22061 26258 12597 83602 11003 21017 30096 40152 58006 69922 885// 333 21010 46997
AAXX 22061 26298 31396 83602 11044 21053 39893 40130 52001 71022 886// 333 21045 47006
AAXX 22061 26359 11462 83402 11012 21022 30021 40158 52005 69902 70272 8872/ 333 21026 47005
AAXX 22061 26702 11/93 90000 11078 21088 30176 40204 52007 69942 74944 333 21083 91000 91101 935//
AAXX 22061 26781 11397 83404 11034 21055 39799 40100 53004 69902 70272 8802/ 333 21035 47006 88508
AAXX 22061 27208 11496 80202 11039 21044 39932 40113 57006 69962 77172 8872/ 333 21044 47010
AAXX 22061 27402 11194 80201 11031 21038 39915 40099 57009 60012 77372 8872/ 333 21031 47009 88703
AAXX 22061 30372 42999 61001 11305 21336 39354 40329 58001 83042
AAXX 22061 30433 42999 20403 11208 21257 39651 40294 57001 80001
AAXX 22061 30554 41998 81401 11261 21308 39115 40314 58008 70241 83041
AAXX 22061 30635 41897 81303 11188 21200 39662 40275 58008 71572 8807/
AAXX 22061 30673 41999 01101 11278 21303 39440 40292 57011 70240
AAXX 22061 30692 42999 23204 11232 21280 39696 40234 55/// 80001
AAXX 22061 30758 41997 60000 11236 21276 39387 40281 57011 72272 83031
AAXX 22061 30802 41697 73004 11086 21170 38730 48511 58007 71522 8437/ 333 95980
AAXX 22061 30823 41596 82305 11084 21103 39594 40248 58019 77177 8802/
AAXX 22061 30879 42999 00501 11235 21283 39447 40275 57013
AAXX 22061 30935 41697 82402 11091 21153 39299 40264 57020 71582 84931
AAXX 22061 30949 42999 60000 11173 21199 39104 40263 57018 83231
AAXX 22061 30965 42999 60701 11235 21268 39385 40286 57016 82042
AAXX 22061 31168 42999 83602 11195 21228 30230 40242 52010 82016
AAXX 22061 31300 NIL
AAXX 22061 31329 41997 80000 11227 21259 39485 40208 54000 77172 8807/
AAXX 22061 31369 42998 80000 11251 21269 30130 40223 57004 80002
AAXX 22061 31416 41997 82901 11211 21230 30122 40218 54000 77172 8802/
AAXX 22061 31484 41997 80901 11200 21219 39857 40220 57003 77172 8802/
AAXX 22061 31512 429// 32902 11196 21254 30044 40224 52003 80001
AAXX 22061 31538 41997 82202 11183 21202 39737 40199 53007 77177 80005
AAXX 22061 31707 42999 83205 11161 21221 30108 40206 52006 82071
AAXX 22061 31735 41996 80101 11162 21196 30084 40178 53004 77172 84035
AAXX 22061 31770 41595 83602 11109 21129 30150 40182 57006 78587 889//
AAXX 22061 28676 32697 81803 11148 21199 30305 40443 57008 83537 333 21165
AAXX 22061 28766 32997 82006 11157 21190 30242 40449 57007 84071 333 21165
AAXX 22061 28867 32998 42504 11176 21217 30183 40482 57001 80002 333 21205
AAXX 22061 28879 32998 62207 11116 21191 30164 40473 57007 80005 333 21162
AAXX 22061 28952 32599 51802 11184 21210 30267 40478 57002 85500 333 21215
AAXX 22061 28966 32998 32002 11176 21218 30181 40493 57004 82031 333 21225
AAXX 22061 29802 32997 82506 11130 21191 30269 40422 57003 85031 333 21164
AAXX 22061 29807 32997 02602 11159 21198 30324 40453 57004 333 21165
AAXX 22061 34691 32998 81407 11054 21100 30265 40252 52002 8807/ 333 21077
AAXX 22061 35067 32998 50000 11207 21240 30193 40501 57007 80001 333 21285
AAXX 22061 35078 31996 00000 11244 21271 30101 40530 56002 70400 333 21298
AAXX 22061 35085 32998 20000 11166 21213 39989 40510 58004 80001 333 21235
AAXX 22061 35108 31997 71705 11103 21156 30255 40304 53002 73633 86051 333 21096
AAXX 22061 35188 31997 81602 11202 21232 30050 40533 58002 70422 80001 333 21243
AAXX 22061 35217 32998 71409 11110 21154 30277 40320 57005 80003 333 21112 91015
AAXX 22061 35229 32998 61402 11130 21175 30125 40418 53002 82031 333 21170
AAXX 22061 35302 31998 61707 11106 21150 30276 40296 57003 70232 86075 333 21107
AAXX 22061 35357 32997 01601 11237 21261 30035 40526 57002 333 21304
AAXX 22061 35394 32998 00000 11106 21231 39785 40508 54000 333 21240
AAXX 22061 35406 32997 71605 11110 21163 30300 40302 58003 85081 333 21107
AAXX 22061 35416 31997 81306 11126 21184 30244 40373 53007 70232 8807/ 333 21141
AAXX 22061 35426 32999 80502 11123 21181 30107 40419 53005 8801/ 333 21165
AAXX 22061 35497 32998 00702 11047 21163 39650 40481 52001 333 21222
AAXX 22061 35532 31998 71207 11181 21222 39899 40434 58003 73633 80003 333 21205
AAXX 22061 35671 32998 03501 11202 21251 30039 40516 52001 333 21238
AAXX 22061 35700 31998 81308 11083 21135 30314 40289 58001 70232 80008 333 21088 91116
AAXX 22061 35746 32998 30505 11186 21219 30372 40447 57003 80001 333 21202
AAXX 22061 35796 32999 00403 11179 21240 30038 40516 52007 333 21217
AAXX 22061 35849 32998 00703 11159 21210 30343 40436 57004 333 21195
AAXX 22061 35925 NIL
AAXX 22061 35953 32999 00504 11164 21206 30307 40449 57003 333 21205
AAXX 22061 35969 32999 00705 11183 21224 30287 40479 53003 333 21237
AAXX 22061 36003 32999 22803 11141 21212 30310 40473 52003 80001 333 21186
AAXX 22061 36152 32998 10000 11145 21238 30289 40493 58004 80001 333 21270
AAXX 22061 36177 32997 21302 11184 21207 30242 40513 54000 80001 333 21258
AAXX 22061 36208 32999 71801 11157 21191 39437 40494 58008 84032 333 21240
AAXX 22061 36397 32999 80000 11174 21208 39903 40517 53002 8807/ 333 21258
AAXX 22061 36428 32999 20000 11234 21263 39982 40542 51004 80001 333 21292 95000
AAXX 22061 36535 32999 00000 11238 21277 39835 40544 58006 333 21346
AAXX 22061 36639 32999 00000 11174 21224 39838 40498 58001 333 21301
AAXX 22061 36821 32999 00000 11168 21191 39963 40498 58001 333 21252
AAXX 22061 36859 12998 61101 11115 21196 39644 40481 58003 69900 83045 333 21138
AAXX 22061 36864 32998 01101 11166 21200 39509 40486 52005 333 21208
AAXX 22061 36870 11996 00000 11135 21176 39365 40456 54000 69900 70400 333 21178
AAXX 22061 38001 NIL
AAXX 22061 38062 32999 00705 11154 21214 30262 40440 53002 333 21193
AAXX 22061 38069 32998 00901 11078 21139 30215 40417 58005 333 21160
AAXX 22061 38196 32998 00903 11037 21174 39353 40379 57014 333 21105
AAXX 22061 38198 32999 02903 11101 21154 30139 40417 58007 333 21190
AAXX 22061 38222 32998 00000 11194 21227 39865 40486 58001 333 21250
AAXX 22061 38232 NIL
AAXX 22061 38328 32999 01801 11043 21107 39630 40392 53002 333 21142
AAXX 22061 38334 32998 01003 11071 21158 39383 40395 54000 333 21150
AAXX 22061 38341 31996 02101 11155 21197 39603 40462 58002 71000 333 21224
AAXX 22061 38343 32998 00000 11179 21205 39545 40475 58001 333 21228
AAXX 22061 38439 31996 03602 11082 21106 30045 40406 58003 71000 333 21129
AAXX 22061 38598 41696 70906 11037 21052 40410 54000 71012 86531
AAXX 22061 38599 NIL
AAXX 22061 38725 42999 00000 11076 21186 48570 53015
AAXX 22061 38734 42699 20504 11115 21168 47070 53012 81503
AAXX 22061 38744 42699 20903 11032 21147 38070 48500 54000 80001
AAXX 22061 38836 31994 00000 11062 21131 39411 40414 51004 71011 333 21135
AAXX 22061 38838 42998 00505 11079 21110 39690 40412 53015
AAXX 22061 38844 NIL
AAXX 22061 38846 42999 22102 11070 21103 38585 48550 57002 82030
AAXX 22061 38847 42999 13202 11048 21092 40426 58002 80003
AAXX 22061 38932 NIL
AAXX 22061 38933 11996 03602 11046 21103 39872 40420 52003 69990 71000 333 21081
AAXX 22061 38944 32697 42705 11038 21053 39741 40305 52007 82530 333 21064
AAXX 22061 38954 NIL
AAXX 22061 28676 32697 81803 11148 21199 30305 40443 57008 83537 333 21165
AAXX 22061 28766 32997 82006 11157 21190 30242 40449 57007 84071 333 21165
AAXX 22061 28867 32998 42504 11176 21217 30183 40482 57001 80002 333 21205
AAXX 22061 28879 32998 62207 11116 21191 30164 40473 57007 80005 333 21162
AAXX 22061 28952 32599 51802 11184 21210 30267 40478 57002 85500 333 21215
AAXX 22061 28966 32998 32002 11176 21218 30181 40493 57004 82031 333 21225
AAXX 22061 29802 32997 82506 11130 21191 30269 40422 57003 85031 333 21164
AAXX 22061 29807 32997 02602 11159 21198 30324 40453 57004 333 21165
AAXX 22061 34691 32998 81407 11054 21100 30265 40252 52002 8807/ 333 21077
AAXX 22061 35067 32998 50000 11207 21240 30193 40501 57007 80001 333 21285
AAXX 22061 35078 31996 00000 11244 21271 30101 40530 56002 70400 333 21298
AAXX 22061 35085 32998 20000 11166 21213 39989 40510 58004 80001 333 21235
AAXX 22061 35108 31997 71705 11103 21156 30255 40304 53002 73633 86051 333 21096
AAXX 22061 35188 31997 81602 11202 21232 30050 40533 58002 70422 80001 333 21243
AAXX 22061 35217 32998 71409 11110 21154 30277 40320 57005 80003 333 21112 91015
AAXX 22061 35229 32998 61402 11130 21175 30125 40418 53002 82031 333 21170
AAXX 22061 35302 31998 61707 11106 21150 30276 40296 57003 70232 86075 333 21107
AAXX 22061 35357 32997 01601 11237 21261 30035 40526 57002 333 21304
AAXX 22061 35394 32998 00000 11106 21231 39785 40508 54000 333 21240
AAXX 22061 35406 32997 71605 11110 21163 30300 40302 58003 85081 333 21107
AAXX 22061 35416 31997 81306 11126 21184 30244 40373 53007 70232 8807/ 333 21141
AAXX 22061 35426 32999 80502 11123 21181 30107 40419 53005 8801/ 333 21165
AAXX 22061 35497 32998 00702 11047 21163 39650 40481 52001 333 21222
AAXX 22061 35532 31998 71207 11181 21222 39899 40434 58003 73633 80003 333 21205
AAXX 22061 35671 32998 03501 11202 21251 30039 40516 52001 333 21238
AAXX 22061 35700 31998 81308 11083 21135 30314 40289 58001 70232 80008 333 21088 91116
AAXX 22061 35746 32998 30505 11186 21219 30372 40447 57003 80001 333 21202
AAXX 22061 35796 32999 00403 11179 21240 30038 40516 52007 333 21217
AAXX 22061 35849 32998 00703 11159 21210 30343 40436 57004 333 21195
AAXX 22061 35925 NIL
AAXX 22061 35953 32999 00504 11164 21206 30307 40449 57003 333 21205
AAXX 22061 35969 32999 00705 11183 21224 30287 40479 53003 333 21237
AAXX 22061 36003 32999 22803 11141 21212 30310 40473 52003 80001 333 21186
AAXX 22061 36152 32998 10000 11145 21238 30289 40493 58004 80001 333 21270
AAXX 22061 36177 32997 21302 11184 21207 30242 40513 54000 80001 333 21258
AAXX 22061 36208 32999 71801 11157 21191 39437 40494 58008 84032 333 21240
AAXX 22061 36397 32999 80000 11174 21208 39903 40517 53002 8807/ 333 21258
AAXX 22061 36428 32999 20000 11234 21263 39982 40542 51004 80001 333 21292 95000
AAXX 22061 36535 32999 00000 11238 21277 39835 40544 58006 333 21346
AAXX 22061 36639 32999 00000 11174 21224 39838 40498 58001 333 21301
AAXX 22061 36821 32999 00000 11168 21191 39963 40498 58001 333 21252
AAXX 22061 36859 12998 61101 11115 21196 39644 40481 58003 69900 83045 333 21138
AAXX 22061 36864 32998 01101 11166 21200 39509 40486 52005 333 21208
AAXX 22061 36870 11996 00000 11135 21176 39365 40456 54000 69900 70400 333 21178
AAXX 22061 38001 NIL
AAXX 22061 38062 32999 00705 11154 21214 30262 40440 53002 333 21193
AAXX 22061 38069 32998 00901 11078 21139 30215 40417 58005 333 21160
AAXX 22061 38196 32998 00903 11037 21174 39353 40379 57014 333 21105
AAXX 22061 38198 32999 02903 11101 21154 30139 40417 58007 333 21190
AAXX 22061 38222 32998 00000 11194 21227 39865 40486 58001 333 21250
AAXX 22061 38232 NIL
AAXX 22061 38328 32999 01801 11043 21107 39630 40392 53002 333 21142
AAXX 22061 38334 32998 01003 11071 21158 39383 40395 54000 333 21150
AAXX 22061 38341 31996 02101 11155 21197 39603 40462 58002 71000 333 21224
AAXX 22061 38343 32998 00000 11179 21205 39545 40475 58001 333 21228
AAXX 22061 38439 31996 03602 11082 21106 30045 40406 58003 71000 333 21129
AAXX 22061 38598 41696 70906 11037 21052 40410 54000 71012 86531
AAXX 22061 38599 NIL
AAXX 22061 38725 42999 00000 11076 21186 48570 53015
AAXX 22061 38734 42699 20504 11115 21168 47070 53012 81503
AAXX 22061 38744 42699 20903 11032 21147 38070 48500 54000 80001
AAXX 22061 38836 31994 00000 11062 21131 39411 40414 51004 71011 333 21135
AAXX 22061 38838 42998 00505 11079 21110 39690 40412 53015
AAXX 22061 38844 NIL
AAXX 22061 38846 42999 22102 11070 21103 38585 48550 57002 82030
AAXX 22061 38847 42999 13202 11048 21092 40426 58002 80003
AAXX 22061 38932 NIL
AAXX 22061 38933 11996 03602 11046 21103 39872 40420 52003 69990 71000 333 21081
AAXX 22061 38944 32697 42705 11038 21053 39741 40305 52007 82530 333 21064
AAXX 22061 38954 NIL
BBXX WDF7020 22064 99434 70825 41/97 82508 1//// 2//// 40132 54/// 70002 8//// 22283 0//// 20302 3//// 4//// 5//// 6//// 8//// ICE /////
BBXX C6SW3 22064 99222 10623 41897 03625 10250 20119 40200 54000 7//00 80000 22234 00250 20303 3//// 40303 50303 6//// 80170 ICE /////
BBXX V7MO2 22064 99262 70914 41797 51414 10229 20097 40136 54000 70011 85/// 22200 00235 20503 3//// 40703 5//// 6//// 80152 ICE /////
BBXX WL3972 22064 99452 70831 41/98 32315 10010 2//// 40108 5//// 70221 8//// 22233 00060 2//02 3//// 4//// 5//// 6//// 8//// ICE /////
BBXX WFLH 22063 99330 71201 43598 43212 10144 20083 40195 54/// 7//// 84/4/ 22223 00144 20801 329// 41204 5//// 6//// 80111 ICE /////
BBXX 3ECJ7 22064 99059 70867 412// 70713 10290 20235 40100 51010 7//66 87/// 222// 0//// 20404 3//// 4//// 5//// 6//// 80250 ICE /////
BBXX WDJK 22064 99437 71279 41598 10618 10090 20049 40300 52015 70200 81100 22274 00100 20802 301// 41006 5//// 6//// 80070 ICE /////
BBXX WKAB 22064 99327 10293 41998 02320 10170 20079 40169 53011 70100 80000 22235 00191 20402 333// 40704 5//// 6//// 80120 ICE /////
BBXX C6VG7 22064 99189 70794 41595 40823 10270 2//// 40140 54/// 7//// 84443 22264 00270 20405 3//// 4//// 5//// 6//// 8//// ICE /////
BBXX 3EUS 22063 99206 71059 41192 70116 10210 2001/ 40130 51010 703// 86377 22274 04240 20504 331// 41206 5//// 6//// 80110 ICE /////
AAXX 22061 22271 /1498 82305 11010 21017 30105 40115 52002 70281 883//
AAXX 22061 22520 12597 82501 11009 21018 30127 40137 52001 69922 8657/ 333 21013
AAXX 22061 22550 32473 82002 11040 21066 30147 40157 53001 69920 885// 333 21037 88615
AAXX 22061 22583 32381 81401 11075 21084 30088 40171 57003 886// 333 21078 88707
AAXX 22061 22768 11497 80000 11062 21081 30100 40158 54000 60010 70272 886// 333 21068 85710
AAXX 22061 22845 NIL
AAXX 22061 22887 11397 71702 11066 21078 30107 40180 55002 60010 78582 8695/ 333 21076 85709 91106
AAXX 22061 23205 /1697 82103 11049 21073 30127 40142 58001 69900 77172 885// 333 21031 88639 91107
AAXX 22061 23219 11998 82506 11077 21095 30080 40190 52002 60012 73633 8802/ 333 47042
AAXX 22061 23418 11565 81503 11082 21101 30126 40203 53002 69930 72272 8655/ 333 21080 86621
AAXX 22061 23606 11330 81703 11083 21097 30017 40196 57004 60020 77372 8572/ 333 21092 85708
AAXX 22061 23711 11496 80902 11074 21087 30041 40222 56001 60020 78587 889// 333 21094
AAXX 22061 23804 31397 81802 11069 21078 30045 40199 57002 60040 77172 887// 333 21081 86707
AAXX 22061 27037 12498 81101 11055 21069 39981 40148 58005 69940 885// 333 21068 86710
AAXX 22061 27199 11423 81703 11076 21085 30011 40216 57006 69940 78583 889// 333 21075
AAXX 22061 27271 11494 80802 11072 21089 30018 40179 57005 69960 77372 8872/ 333 21074
AAXX 22061 27459 11397 81303 11063 21071 39943 40145 57011 60030 77177 8872/ 333 21065 88707 93400
AAXX 22061 27730 11294 81603 11001 21004 39890 40086 53003 60040 74672 886// 333 21024 47011 88705
BBXX 46111 22061 99481 71227 46/// /0000 10047 40338 53007 90600 22200 00058
BBXX 46112 22061 99481 71227 46/// /2101 10040 40338 52005 90600
AAXX 22064 91165 12566 40619 10228 20189 30142 40175 51023 69951 90553 333 10256 20211 91025 555 92206
AAXX 22064 91182 12566 60812 10244 20178 30154 40158 51024 69901 90553 333 91021 555 92206
AAXX 22064 91190 32566 40512 10228 20172 30148 40167 51024 90554 333 10267 20206 91019 555 92206
AAXX 22064 91212 32566 20814 10289 20222 31323 40061 56014 90554 333 10306 20267 555 92206
AAXX 22064 91285 32466 80906 10220 20200 30148 90614 555 92206
AAXX 22064 91317 32474 80910 10294 20272 30016 40020 82202 333 562/9 70025 82818 86080 555 92206
AAXX 22064 91413 32469 40910 10301 20240 30012 40037 57019 82101 333 569/9 70076 555 92206
AAXX 22064 91245 32566 40716 10270 20200 30123 90559 555 92206
AAXX 22064 63705 12565 53003 10230 20210 38869 48524 69904 81530 333 20191 58004 81823 85363 555 10215
AAXX 22061 40716 11958 10000 11010 21054 38993 40300 52018 60001 71000 80001 333 30109 70000 81069
AAXX 22061 40719 11210 80000 10076 20067 30218 40207 50009 60001 71022 886// 333 30000 50041 70000 88704
AAXX 22061 40721 12960 01802 10098 21079 39679 40227 51011 60001 333 30102 50901 70000
AAXX 22061 40858 11957 40000 10158 20058 30224 40235 52010 60001 70500 80002 333 30006 50451 70000 84068
AAXX 22061 40872 12960 13302 10194 20031 30218 40223 51015 60001 80001 222// 00210 20401 333 30012 50321 70000 81070
AAXX 22061 40877 12962 00603 10130 21145 39668 40227 52012 60001 333 31003 50421 70000
AAXX 22061 40898 12957 03405 10174 21105 30214 40224 51016 70500 222// 00237 10500 333 30012 50351 70000
AAXX 22064 13622 11665 80408 10042 20031 30027 40034 57008 60322 70266 885// 333 20000 30/// 88633
AAXX 22064 60101 32458 31001 10098 20084 40284 58002 83500 333 20074 83616
AAXX 22064 60156 17460 21406 10036 20032 40300 58002 60004 70010 82600 333 20026 82710
AAXX 22064 60230 12958 22303 10049 20017 40294 52005 60004 80002 90549 333 20042 82070
AAXX 22064 60252 12960 00504 10037 20021 40271 56003 60004 333 20034 95800
AAXX 22061 08521 32470 63602 10178 20119 30224 40295 56006 86800 333 20170 30/// 55075 84818
AAXX 22061 08524 32470 30703 10166 20118 30200 40298 57003 83800 333 20163 30014 5//// 55078 21243 82815 91105
AAXX 22064 13600 12960 80414 10062 21040 30051 40103 54001 60002 8805/ 333 20036 30/// 88360
AAXX 22061 08579 32/// /2401 10088 20081 30169 40297 57002 333 20088 30008 5//// 55082 20960
AAXX 22061 48916 32598 70503 10290 20246 30043 40089 57012 82208 333 59003 82895 87299
AAXX 22061 48919 12498 70510 10273 20243 30067 40089 58023 69923 8291/ 22200 02273 2//04 333 58003 81894 82995 87499
BBXX MINUK05 2206/ 99577 70017 46/// ///// 10108 40105 52035
AAXX 22061 45032 36/// /0104 10199 20051 30164 40181 57001
AAXX 22061 45035 36/// /0005 10194 20086 30136 40178 57001
AAXX 22061 45039 36/// /0503 10198 20078 30160 40175 57001
AAXX 22061 45044 36/// /3404 10219 20089 30079 40171 57001
AAXX 22061 45032 36/// /0104 10199 20051 30164 40181 57001
AAXX 22061 45035 36/// /0005 10194 20086 30136 40178 57001
AAXX 22061 45039 36/// /0503 10198 20078 30160 40175 57001
AAXX 22061 45044 36/// /3404 10219 20089 30079 40171 57001
AAXX 22061 08558 12/// /0201 10047 20047 39994 40299 57002 69912 333 20038 30000 5//// 55002 20819
AAXX 22064 60360 11560 73118 10161 20121 40194 53010 60054 70282 879// 333 00892 20114 82823 81930 86640 95990
AAXX 22064 60390 12570 11905 10082 20058 40274 53010 60004 81200 333 00400 20073 81820 95990
AAXX 22064 60402 NIL
AAXX 22064 60419 11456 82908 10097 20083 40218 55001 60104 76062 838// 333 00811 20088 83816 87623 95990
AAXX 22064 60475 12560 82817 10093 20081 39241 48505 56004 69914 888// 333 05419 20074 83820 87833 95990
AAXX 22064 60490 12970 20000 10043 20033 40276 53004 60004 80002 333 05100 20040 82073 95990
AAXX 22064 60525 12660 33312 10130 20053 40217 54000 60004 83200 333 00700 20129 83840 95990
AAXX 22064 60531 12970 20000 10061 20011 40278 56004 60004 700// 80002 333 00000 20051 82073 95990
AAXX 22064 60566 12960 03410 10093 20038 40254 55000 60004 333 00500 20092
AAXX 22064 60571 12962 00000 10054 20031 39333 48578 53001 60004 333 0//00 20054 95990
AAXX 22064 60580 12960 00000 10078 20054 40242 54000 60004 333 00300 20056
AAXX 22064 60590 12960 03108 10027 21038 40272 53002 60004 333 0//00 20021
AAXX 22064 60611 12960 02806 10018 21070 40263 53004 60004 333 05100 20018
AAXX 22064 60620 12960 00706 10040 21085 40275 53008 60004 333 0//00 20030
AAXX 22064 60630 12970 00000 10015 21075 40260 53001 60004 333 05300 20014
AAXX 22064 60656 12965 03507 10050 21020 40257 56008 60004 333 00200 20037
AAXX 22064 60670 12980 10000 10047 20021 39109 48542 53004 60004 80002 333 05100 20029 81073 95900
AAXX 22064 60680 12980 10502 10039 21072 38682 48550 53009 60004 80002 333 05400 20037 81073 95900
AAXX 22064 60351 11558 82618 10160 20152 40218 53008 60334 70362 888// 333 01215 20120 84816 85630 95990
AAXX 22064 60355 NIL
AAXX 22064 60445 11456 82808 10084 20063 39065 48541 53003 60044 70262 832// 333 00400 20069 83710 86826 95990
AAXX 22064 60468 11560 33014 10090 20070 39264 48532 54000 60024 83202 333 03018 20095 83826 95990
AAXX 22064 60507 12960 00000 10049 20020 55000 60004 333 05200 20026 95990
AAXX 22064 60511 12965 02807 10030 20005 39133 48556 56001 60004 333 05300 20014 95990
AAXX 22064 60535 12970 43612 10040 20016 38895 48554 53005 60004 700// 80001 333 00200 20035 84070 95900
AAXX 22064 60536 12960 20000 10030 20007 39401 48570 53007 60004 80002 333 0//00 20021 82073 95990
AAXX 22064 60549 11960 00000 10013 21002 38997 48585 53007 60004 700// 333 05200 20011 95990
AAXX 22064 60550 12960 00000 10008 21007 38742 48575 56001 60004 333 05400 20000 95990
AAXX 22064 60555 12965 00000 10074 20029 40229 55003 60004 333 00300 20074
AAXX 22064 60559 12960 12804 10088 20058 40219 53006 60004 81030 333 0//00 20077 81360
AAXX 22064 60581 12960 00000 10045 20012 40238 53004 60004 333 00200 20045
AAXX 22064 60602 11960 00000 10046 21009 40271 53002 60004 700// 333 0//00 20046 95990
AAXX 22064 60607 12960 00000 10060 21077 40258 53003 60004 333 0//00 20054
AAXX 22064 60640 12960 00000 10030 20040 40261 53006 60004 333 00100 20025
AAXX 22064 60690 NIL
AAXX 22064 60360 11560 73118 10161 20121 40194 53010 60054 70282 879// 333 00892 20114 82823 81930 86640 95990
AAXX 22064 60390 12570 11905 10082 20058 40274 53010 60004 81200 333 00400 20073 81820 95990
AAXX 22064 60402 NIL
AAXX 22064 60419 11456 82908 10097 20083 40218 55001 60104 76062 838// 333 00811 20088 83816 87623 95990
AAXX 22064 60475 12560 82817 10093 20081 39241 48505 56004 69914 888// 333 05419 20074 83820 87833 95990
AAXX 22064 60490 12970 20000 10043 20033 40276 53004 60004 80002 333 05100 20040 82073 95990
AAXX 22064 60525 12660 33312 10130 20053 40217 54000 60004 83200 333 00700 20129 83840 95990
AAXX 22064 60531 12970 20000 10061 20011 40278 56004 60004 700// 80002 333 00000 20051 82073 95990
AAXX 22064 60566 12960 03410 10093 20038 40254 55000 60004 333 00500 20092
AAXX 22064 60571 12962 00000 10054 20031 39333 48578 53001 60004 333 0//00 20054 95990
AAXX 22064 60580 12960 00000 10078 20054 40242 54000 60004 333 00300 20056
AAXX 22064 60590 12960 03108 10027 21038 40272 53002 60004 333 0//00 20021
AAXX 22064 60611 12960 02806 10018 21070 40263 53004 60004 333 05100 20018
AAXX 22064 60620 12960 00706 10040 21085 40275 53008 60004 333 0//00 20030
AAXX 22064 60630 12970 00000 10015 21075 40260 53001 60004 333 05300 20014
AAXX 22064 60656 12965 03507 10050 21020 40257 56008 60004 333 00200 20037
AAXX 22064 60670 12980 10000 10047 20021 39109 48542 53004 60004 80002 333 05100 20029 81073 95900
AAXX 22064 60680 12980 10502 10039 21072 38682 48550 53009 60004 80002 333 05400 20037 81073 95900
AAXX 22064 60351 11558 82618 10160 20152 40218 53008 60334 70362 888// 333 01215 20120 84816 85630 95990
AAXX 22064 60355 NIL
AAXX 22064 60445 11456 82808 10084 20063 39065 48541 53003 60044 70262 832// 333 00400 20069 83710 86826 95990
AAXX 22064 60468 11560 33014 10090 20070 39264 48532 54000 60024 83202 333 03018 20095 83826 95990
AAXX 22064 60507 12960 00000 10049 20020 55000 60004 333 05200 20026 95990
AAXX 22064 60511 12965 02807 10030 20005 39133 48556 56001 60004 333 05300 20014 95990
AAXX 22064 60535 12970 43612 10040 20016 38895 48554 53005 60004 700// 80001 333 00200 20035 84070 95900
AAXX 22064 60536 12960 20000 10030 20007 39401 48570 53007 60004 80002 333 0//00 20021 82073 95990
AAXX 22064 60549 11960 00000 10013 21002 38997 48585 53007 60004 700// 333 05200 20011 95990
AAXX 22064 60550 12960 00000 10008 21007 38742 48575 56001 60004 333 05400 20000 95990
AAXX 22064 60555 12965 00000 10074 20029 40229 55003 60004 333 00300 20074
AAXX 22064 60559 12960 12804 10088 20058 40219 53006 60004 81030 333 0//00 20077 81360
AAXX 22064 60581 12960 00000 10045 20012 40238 53004 60004 333 00200 20045
AAXX 22064 60602 11960 00000 10046 21009 40271 53002 60004 700// 333 0//00 20046 95990
AAXX 22064 60607 12960 00000 10060 21077 40258 53003 60004 333 0//00 20054
AAXX 22064 60640 12960 00000 10030 20040 40261 53006 60004 333 00100 20025
AAXX 22064 60690 NIL
AAXX 22061 14258 11656 71501 11051 21058 30017 40216 52015 60002 71072 87500 333 21060 3/111 43005 70000 87633 93197
AAXX 22061 15712 11930 81406 10001 21002 39852 40109 57002 60112 77177 8802/ 333 10041 20000 47007 55018 70111 555 3/000 598// 69999 70656
AAXX 22061 40703 11540 60000 11014 21022 38994 40310 51005 60001 71022 85670 333 30104 79999 85725 86459
AAXX 22061 40712 11410 82702 11022 21031 38754 40317 52006 60001 71042 8462/ 333 34105 79999 84715 88458
AAXX 22061 40729 12962 20902 10016 21070 38396 40280 53012 60001 80002 333 34110 70000 82070
AAXX 22061 40736 11/02 90602 10054 20049 30242 40216 53016 60001 74544 333 30100 50021 70000 89/03
AAXX 22061 40739 12665 50000 10016 21108 38756 40307 53013 60001 81502 333 30109 70000 81635 84069
AAXX 22061 40743 12965 10903 10023 21150 39144 40308 52011 60001 80002 333 30005 70000 81070
AAXX 22061 40762 12965 20000 10034 21187 38614 40306 51013 60001 80001 333 30110 70000 82070
AAXX 22061 40768 12960 00000 10028 21051 38320 40290 57001 60001 333 30110 70000
AAXX 22061 40769 11940 00000 11002 21035 38366 40296 51010 60001 70500 333 30108 5//// 70000
AAXX 22061 40785 12960 40000 10050 21053 39163 40292 52009 60001 84030 333 30103 5///1 70000 84360
AAXX 22061 40809 12968 10000 10028 21192 38567 40314 52010 60001 80001 333 30112 70000
AAXX 22061 40821 12965 11303 10056 21139 38864 40296 51017 60001 80002 333 5//// 70000 81070
AAXX 22061 40831 11958 20000 10126 20057 30234 40242 53007 60001 70510 80001 333 30001 50231 70000 82070
AAXX 22061 40701 11506 80000 11056 21060 38659 40333 53007 60001 74442 886// 333 30107 70000 88720
AAXX 22061 40704 12670 53303 10062 21086 38659 40242 52006 60001 81150 333 3/101 41001 70000 81840 84358
AAXX 22061 40708 12960 10000 10090 21060 38709 40218 52015 60001 81030 333 30101 70000 81359
AAXX 22061 40710 11940 10000 11126 21142 38385 40407 52016 60001 71000 80070 333 3/119 48007 70000 81359
AAXX 22061 40713 11301 89901 11046 21058 38735 40321 51007 60001 74244 886XX 333 34106 70000 88710
AAXX 22061 40719 11210 80000 10076 20067 30218 40207 50009 60001 71022 886// 333 30000 50041 70000 88704
AAXX 22061 40731 11956 21601 10052 21046 38797 40278 50007 60001 70500 82030 333 30106 70000 82360
AAXX 22061 40738 11928 60000 10048 20043 30230 40232 53005 60001 71042 80006 333 31101 50021 70000 86270
AAXX 22061 40740 12960 20602 11032 21076 38776 40285 53008 60001 80001 333 3/115 47003 70000 82070
AAXX 22061 40747 12960 10000 10001 21055 38709 40306 51014 60001 80001 333 34109 70000
AAXX 22061 40757 12665 50901 10048 21139 38971 40293 53009 60001 81502 333 30107 70000 81635 84070
AAXX 22061 40763 12965 10000 10030 21093 38992 40303 52012 60001 80001 333 30108 70000 81070
AAXX 22061 40782 12962 20000 10028 21046 38952 40294 52011 60001 80002 333 30108 5//// 70000 82070
AAXX 22061 40783 12968 01204 10034 21074 38045 40274 51004 60001 333 30106 5//// 70000
AAXX 22061 40789 12965 20000 10050 21089 39286 40295 51013 60001 80001 333 30105 5///1 70000 82070
AAXX 22061 40798 12960 00000 10000 21114 38029 40322 52010 60001 333 30114 70000
AAXX 22061 40818 12970 03502 10030 21118 38036 40285 51005 60001 333 30108 5///1 70000
AAXX 22061 40827 12970 20000 10042 21141 38912 40340 52006 60001 80001 333 30110 70000 82070
AAXX 22061 40836 12965 00000 10040 21066 38258 40272 52007 60001 333 30109 5///1 70000
AAXX 22061 40851 12960 32102 10022 21089 38332 40308 51013 60001 80001 333 30112 5///1 70000 83070
AAXX 22061 40853 12665 20000 10072 21129 37797 40239 52013 60001 333 30111 5//// 70000
AAXX 22061 40854 12965 00000 10116 21152 39030 40262 52015 60001 333 30102 50181 70000
AAXX 22061 40857 12960 50902 10158 20083 30227 40237 52013 60001 80006 222// 00172 20000 333 30007 50131 70000 85268
AAXX 22061 40859 12965 00000 10076 21099 38772 40246 53011 60001 333 30107 5///1 70000
AAXX 22061 40878 12962 03102 10067 21339 38912 40297 51007 60001 333 30107 5//// 70000
AAXX 22061 40879 12965 00000 10118 21321 39566 40270 51009 60001 333 30104 50391 70000
AAXX 22061 40883 12960 00704 10200 20028 30205 40228 52017 60001 222// 00196 20501 333 30009 50331 70000
AAXX 22061 40898 12957 03405 10174 21105 30214 40224 51016 70500 222// 00237 10500 333 30012 50351 70000
AAXX 22061 40701 11506 80000 11056 21060 38659 40333 53007 60001 74442 886// 333 30107 70000 88720
AAXX 22061 40704 12670 53303 10062 21086 38659 40242 52006 60001 81150 333 3/101 41001 70000 81840 84358
AAXX 22061 40708 12960 10000 10090 21060 38709 40218 52015 60001 81030 333 30101 70000 81359
AAXX 22061 40710 11940 10000 11126 21142 38385 40407 52016 60001 71000 80070 333 3/119 48007 70000 81359
AAXX 22061 40713 11301 89901 11046 21058 38735 40321 51007 60001 74244 886XX 333 34106 70000 88710
AAXX 22061 40719 11210 80000 10076 20067 30218 40207 50009 60001 71022 886// 333 30000 50041 70000 88704
AAXX 22061 40731 11956 21601 10052 21046 38797 40278 50007 60001 70500 82030 333 30106 70000 82360
AAXX 22061 40738 11928 60000 10048 20043 30230 40232 53005 60001 71042 80006 333 31101 50021 70000 86270
AAXX 22061 40740 12960 20602 11032 21076 38776 40285 53008 60001 80001 333 3/115 47003 70000 82070
AAXX 22061 40747 12960 10000 10001 21055 38709 40306 51014 60001 80001 333 34109 70000
AAXX 22061 40757 12665 50901 10048 21139 38971 40293 53009 60001 81502 333 30107 70000 81635 84070
AAXX 22061 40763 12965 10000 10030 21093 38992 40303 52012 60001 80001 333 30108 70000 81070
AAXX 22061 40782 12962 20000 10028 21046 38952 40294 52011 60001 80002 333 30108 5//// 70000 82070
AAXX 22061 40783 12968 01204 10034 21074 38045 40274 51004 60001 333 30106 5//// 70000
AAXX 22061 40789 12965 20000 10050 21089 39286 40295 51013 60001 80001 333 30105 5///1 70000 82070
AAXX 22061 40798 12960 00000 10000 21114 38029 40322 52010 60001 333 30114 70000
AAXX 22061 40818 12970 03502 10030 21118 38036 40285 51005 60001 333 30108 5///1 70000
AAXX 22061 40827 12970 20000 10042 21141 38912 40340 52006 60001 80001 333 30110 70000 82070
AAXX 22061 40836 12965 00000 10040 21066 38258 40272 52007 60001 333 30109 5///1 70000
AAXX 22061 40851 12960 32102 10022 21089 38332 40308 51013 60001 80001 333 30112 5///1 70000 83070
AAXX 22061 40853 12665 20000 10072 21129 37797 40239 52013 60001 333 30111 5//// 70000
AAXX 22061 40854 12965 00000 10116 21152 39030 40262 52015 60001 333 30102 50181 70000
AAXX 22061 40857 12960 50902 10158 20083 30227 40237 52013 60001 80006 222// 00172 20000 333 30007 50131 70000 85268
AAXX 22061 40859 12965 00000 10076 21099 38772 40246 53011 60001 333 30107 5///1 70000
AAXX 22061 40878 12962 03102 10067 21339 38912 40297 51007 60001 333 30107 5//// 70000
AAXX 22061 40879 12965 00000 10118 21321 39566 40270 51009 60001 333 30104 50391 70000
AAXX 22061 40883 12960 00704 10200 20028 30205 40228 52017 60001 222// 00196 20501 333 30009 50331 70000
AAXX 22061 40898 12957 03405 10174 21105 30214 40224 51016 70500 222// 00237 10500 333 30012 50351 70000
AAXX 22061 40703 11540 60000 11014 21022 38994 40310 51005 60001 71022 85670 333 30104 79999 85725 86459
AAXX 22061 40712 11410 82702 11022 21031 38754 40317 52006 60001 71042 8462/ 333 34105 79999 84715 88458
AAXX 22061 40729 12962 20902 10016 21070 38396 40280 53012 60001 80002 333 34110 70000 82070
AAXX 22061 40736 11/02 90602 10054 20049 30242 40216 53016 60001 74544 333 30100 50021 70000 89/03
AAXX 22061 40739 12665 50000 10016 21108 38756 40307 53013 60001 81502 333 30109 70000 81635 84069
AAXX 22061 40743 12965 10903 10023 21150 39144 40308 52011 60001 80002 333 30005 70000 81070
AAXX 22061 40762 12965 20000 10034 21187 38614 40306 51013 60001 80001 333 30110 70000 82070
AAXX 22061 40768 12960 00000 10028 21051 38320 40290 57001 60001 333 30110 70000
AAXX 22061 40769 11940 00000 11002 21035 38366 40296 51010 60001 70500 333 30108 5//// 70000
AAXX 22061 40785 12960 40000 10050 21053 39163 40292 52009 60001 84030 333 30103 5///1 70000 84360
AAXX 22061 40809 12968 10000 10028 21192 38567 40314 52010 60001 80001 333 30112 70000
AAXX 22061 40821 12965 11303 10056 21139 38864 40296 51017 60001 80002 333 5//// 70000 81070
AAXX 22061 40831 11958 20000 10126 20057 30234 40242 53007 60001 70510 80001 333 30001 50231 70000 82070
AAXX 22064 91945 16/// /0810 10261 20224 30135 40140 52019 60011 555 59006 60064
AAXX 22064 60402 12560 62606 10154 20094 40246 53013 60144 81270 333 01159 20123 81820 86359 95990
BBXX 3ERR2 22064 99635 10053 41497 82229 10079 20079 49966 57024 76162 887// 22200 06101 10908 70041 333 91133
BBXX LF3F 22064 99643 10078 41697 71419 10031 21015 49999 57018 76162 8372/ 22200 04083 10705 70023 333 91124
BBXX LF3N 22064 99653 10073 41598 61725 10043 20007 49979 57026 78082 868// 22200 00088 10705 70026
BBXX LF4B 22064 99606 10037 47/96 /2614 10092 40053 52028 781// 22200 00068 10707 70037 333 91142
BBXX LF4C 22064 99584 10019 41596 82821 10096 20091 40096 52022 780// 89/// 22200 00082 10604 70018 333 91128
BBXX LF5T 22064 99660 10081 43698 /1625 10056 20004 49978 57030 22200 10704 70019 333 91131
AAXX 22061 40701 11506 80000 11056 21060 38659 40333 53007 60001 74442 886// 333 30107 70000 88720
AAXX 22061 40704 12670 53303 10062 21086 38659 40242 52006 60001 81150 333 3/101 41001 70000 81840 84358
AAXX 22061 40708 12960 10000 10090 21060 38709 40218 52015 60001 81030 333 30101 70000 81359
AAXX 22061 40710 11940 10000 11126 21142 38385 40407 52016 60001 71000 80070 333 3/119 48007 70000 81359
AAXX 22061 40713 11301 89901 11046 21058 38735 40321 51007 60001 74244 886XX 333 34106 70000 88710
AAXX 22061 40719 11210 80000 10076 20067 30218 40207 50009 60001 71022 886// 333 30000 50041 70000 88704
AAXX 22061 40731 11956 21601 10052 21046 38797 40278 50007 60001 70500 82030 333 30106 70000 82360
AAXX 22061 40738 11928 60000 10048 20043 30230 40232 53005 60001 71042 80006 333 31101 50021 70000 86270
AAXX 22061 40740 12960 20602 11032 21076 38776 40285 53008 60001 80001 333 3/115 47003 70000 82070
AAXX 22061 40747 12960 10000 10001 21055 38709 40306 51014 60001 80001 333 34109 70000
AAXX 22061 40757 12665 50901 10048 21139 38971 40293 53009 60001 81502 333 30107 70000 81635 84070
AAXX 22061 40763 12965 10000 10030 21093 38992 40303 52012 60001 80001 333 30108 70000 81070
AAXX 22061 40782 12962 20000 10028 21046 38952 40294 52011 60001 80002 333 30108 5//// 70000 82070
AAXX 22061 40783 12968 01204 10034 21074 38045 40274 51004 60001 333 30106 5//// 70000
AAXX 22061 40789 12965 20000 10050 21089 39286 40295 51013 60001 80001 333 30105 5///1 70000 82070
AAXX 22061 40798 12960 00000 10000 21114 38029 40322 52010 60001 333 30114 70000
AAXX 22061 40818 12970 03502 10030 21118 38036 40285 51005 60001 333 30108 5///1 70000
AAXX 22061 40827 12970 20000 10042 21141 38912 40340 52006 60001 80001 333 30110 70000 82070
AAXX 22061 40836 12965 00000 10040 21066 38258 40272 52007 60001 333 30109 5///1 70000
AAXX 22061 40851 12960 32102 10022 21089 38332 40308 51013 60001 80001 333 30112 5///1 70000 83070
AAXX 22061 40853 12665 20000 10072 21129 37797 40239 52013 60001 333 30111 5//// 70000
AAXX 22061 40854 12965 00000 10116 21152 39030 40262 52015 60001 333 30102 50181 70000
AAXX 22061 40857 12960 50902 10158 20083 30227 40237 52013 60001 80006 222// 00172 20000 333 30007 50131 70000 85268
AAXX 22061 40859 12965 00000 10076 21099 38772 40246 53011 60001 333 30107 5///1 70000
AAXX 22061 40878 12962 03102 10067 21339 38912 40297 51007 60001 333 30107 5//// 70000
AAXX 22061 40879 12965 00000 10118 21321 39566 40270 51009 60001 333 30104 50391 70000
AAXX 22061 40883 12960 00704 10200 20028 30205 40228 52017 60001 222// 00196 20501 333 30009 50331 70000
AAXX 22061 40898 12957 03405 10174 21105 30214 40224 51016 70500 222// 00237 10500 333 30012 50351 70000
AAXX 22061 80001 11470 50809 10272 20237 30098 40099 60041 70155 82236 333 56300 59010 82818
AAXX 22061 80002 NIL
AAXX 22061 80009 NIL
AAXX 22061 80022 31962 30703 10260 20243 30072 40074 70500 333 59018
AAXX 22061 80028 NIL
AAXX 22061 80035 NIL
AAXX 22061 80036 NIL
AAXX 22061 80063 NIL
AAXX 22061 80084 NIL
AAXX 22061 80091 NIL
AAXX 22061 80094 NIL
AAXX 22061 80097 NIL
AAXX 22061 80099 NIL
AAXX 22061 80110 NIL
AAXX 22061 80112 31357 50000 10137 20129 37887 70510 83550 333 5600/ 59005 83608 83358
AAXX 22061 80139 NIL
AAXX 22061 80144 NIL
AAXX 22061 80149 NIL
AAXX 22061 80210 NIL
AAXX 22061 80211 NIL
AAXX 22061 80214 NIL
AAXX 22061 80222 NIL
AAXX 22061 80234 NIL
AAXX 22061 80241 NIL
AAXX 22061 80259 31560 20000 10212 20185 39028 70521 81530 333 5684/ 59004 81625
AAXX 22061 80315 NIL
AAXX 22061 80342 NIL
AAXX 22061 80370 NIL
AAXX 22061 80398 NIL
AAXX 22064 64500 32360 61806 10255 20230 30109 40122 86500 333 02500 20245 50131 55060 59002 84608 86633
AAXX 22063 64501 31340 40000 10244 20235 3//// 4//// 71011 82530 333 0//00 20215 50274 55035 5//// 82608 84360
AAXX 22063 64507 NIL
AAXX 22063 64510 NIL
AAXX 22064 64550 11/01 9//// 10200 20200 30/// 40/// 60044 74544 333 02129 20199 50155 55/// 5//// 89///
AAXX 22064 64551 32358 70000 10245 20224 30100 40129 8453/ 333 0//00 20224 50024 55/// 58000 84606 87360
AAXX 22064 64556 NIL
AAXX 22064 64570 11101 80000 10199 20199 39634 40150 60294 74444 8467/ 333 01929 20192 50014 55/// 58005 84701 88460
AAXX 22063 64800 NIL
AAXX 22063 64820 NIL
AAXX 22063 64860 32965 70000 10178 20096 39854 40125 80002 333 00600 20173 50720 55107 59010 87080
AAXX 22063 64861 NIL
AAXX 22063 64870 NIL
AAXX 22063 64871 NIL
AAXX 22063 64892 NIL
AAXX 22063 64893 NIL
AAXX 22063 64894 NIL
AAXX 22064 64910 31416 70000 10248 20244 30121 40130 71022 85302 333 02000 20245 50391 55066 58013 85613 82920 87080 94945 95835
AAXX 22064 64911 NIL
AAXX 22064 64950 NIL
BBXX 46207 22061 99509 71299 46/// /1809 10084 40253 57009 22200 00083 11205 70027 333 91211
BBXX 46207 22061 99509 71299 46/// /1809 10084 40253 57009 22200 00083 11205 70027 333 91211
AAXX 22060 44210 32999 80000 11190 21216 38623 58012 85011
AAXX 22060 44216 32599 73203 11241 21266 39156 40563 54000 82550
AAXX 22060 44217 32998 20000 11175 21209 37920 40680 58020 80004
AAXX 22060 44219 41997 80000 11216 21241 38732 40523 58012 77172 8802/
AAXX 22060 44221 32998 60000 11275 21299 38704 40571 58010 82048
AAXX 22060 44224 32998 40000 11227 21259 38122 40514 58008 84070 555 81016 82019
AAXX 22060 44229 32999 22903 11135 21196 37957 40384 58011 82084
AAXX 22060 44242 32998 30000 11172 21210 39358 40342 57016 83040
AAXX 22060 44243 32999 60201 11218 21249 39452 40364 58017 86070
AAXX 22060 44254 32699 62704 11077 21182 39009 40212 57031 86800
AAXX 22060 44257 32598 42905 11081 21164 38955 40253 57026 83341
AAXX 22060 44263 32998 03202 11200 21249 38143 40533 58013
AAXX 22060 44266 32598 70000 11146 21189 37824 40418 58005 85848
AAXX 22060 44286 32998 62905 11103 21164 38670 40320 58011 83078
AAXX 22060 44291 31995 00000 11192 21227 38761 40395 58019 70410
AAXX 22060 44325 32999 80901 11148 21182 38934 40413 58013 85017
AAXX 22060 44329 32898 43206 11086 21163 37792 40326 58016 81041
AAXX 22060 44338 32999 60205 11092 21160 38515 40338 58018 80007
AAXX 22060 44348 32997 42905 11121 21148 38702 40296 58019 82044
AAXX 22060 44374 32999 12907 11053 21183 38289 40327 58023 80001
AAXX 22060 44385 32999 22704 11049 21163 38955 40308 57024 80004
AAXX 22060 44386 32999 72704 11103 21156 39081 40307 58733 80008
AAXX 22063 87480 11560 80915 10211 20202 39993 40021 50011 60251 79592 82926 333 56555 57921 82628 84540 81945 86270 90557
AAXX 22063 87532 32970 01405 10170 20153 39886 40053 52008
AAXX 22064 41252 36/// /1604 10200 20062 39844 40135 333 0E017 20151 58002
AAXX 22064 41254 36/// /9902 10121 21076 38270 48275 333 0E001 20017 58064
AAXX 22064 41258 36/// /1204 10224 20044 30221 40225 333 0E/// 20195 58003
AAXX 22061 22165 12598 81904 10000 21021 30040 40102 58003 69950 885// 333 21010
AAXX 22061 22676 11860 70000 11084 21094 30087 40169 54000 60020 77172 87070 333 21073
AAXX 22061 22954 11262 81001 11063 21071 39897 40155 58003 69990 70272 886// 333 21076 88703
AAXX 22061 23405 31368 81602 11084 21099 30079 40183 58002 71002 886// 333 21085 88707
AAXX 22061 23412 12399 81503 11084 21099 30094 40196 53001 69900 886// 333 21088 86709
AAXX 22061 23803 11499 81903 11072 21085 30036 40223 54000 60030 70272 8802/ 333 21078 88518
AAXX 22061 27066 11996 81602 11068 21080 39994 40179 58010 69980 77172 8807/ 333 21075
AAXX 22061 27083 12499 81502 11077 21091 39962 40194 57007 69970 885// 333 21079
AAXX 22061 27113 12460 80601 11048 21061 39986 40137 58002 69900 885// 333 21058 85711
AAXX 22061 27242 11460 81402 11052 21055 30009 40141 57009 69950 78582 889// 333 21058 87711
AAXX 22061 27329 11430 81003 11043 21055 39984 40113 57012 69920 77372 8672/ 333 21044
AAXX 22061 27355 11496 81103 11062 21070 39981 40152 57024 60020 77172 8872/ 333 21062
AAXX 22061 27373 11497 81304 11079 21097 39955 40182 57013 60020 77172 8802/ 333 21078 88518
AAXX 22061 27665 11997 81604 11074 21100 39879 40160 57010 60040 73673 8802/ 21072
AAXX 22061 27835 11/05 81602 10006 21006 39923 40081 57012 60060 74774 333 21018 93402
AAXX 22061 28009 11410 81802 11070 21087 30017 40236 57006 69900 78687 889// 333 21072
AAXX 22061 28411 31697 81606 11085 21144 30080 40285 57010 70232 8355/ 333 21078
AAXX 22061 28418 31999 71605 11081 21155 30118 40293 57009 73631 87030 333 21073
AAXX 22061 22282 325// 82306 11011 21030 30107 40115 52001 8655/ 333 21017
AAXX 22061 22438 NIL
AAXX 22061 22471 12284 82103 11046 21059 30125 40150 58002 69900 886// 333 21040 88706
AAXX 22061 22563 32397 82101 11057 21064 30122 40162 58001 886// 333 21057 88707
AAXX 22061 22641 12599 81201 11025 21041 30134 40150 52002 69900 885// 333 21022 88632 91104
AAXX 22061 22695 11497 81102 11085 21027 30020 40179 58002 60030 77172 8652/ 333 21092 86613
AAXX 22061 22867 12598 81501 11060 21075 30038 40155 58004 60020 885// 333 21072 88628 91103
AAXX 22061 22939 11497 80601 11059 21066 39977 40145 58002 69920 8802/ 333 21070 88511
AAXX 22061 22996 41497 81903 11076 21085 30008 40206 58007 60020 77172 8452/ 333 21078
AAXX 22061 23324 11679 82504 11076 21106 30113 40193 52001 69990 70272 885// 333 21079 88645
AAXX 22061 27051 12497 81203 11067 21075 39994 40167 54000 60010 8655/ 333 21068 84911
AAXX 22061 27225 31457 80603 11046 21062 39988 40122 58011 77172 8872/ 333 21045 88717
AAXX 22061 27252 11458 81102 11063 21067 39963 40155 57011 69960 77172 8877/ 333 21068 88714
AAXX 22061 27333 11480 81002 11051 21065 39967 40128 57011 69920 77172 887// 333 21055 47005
AAXX 22061 27369 /1576 81303 11070 21083 30023 40165 57013 60010 77172 8802/ 333 21072 88524
AAXX 22061 27393 11998 81806 11074 21118 30055 40230 57008 60010 73673 8807/ 333 21077
AAXX 22061 27479 11930 81404 11073 21098 30041 40181 57017 60020 77373 8802/ 333 21076
AAXX 22061 27532 11294 81002 11045 21051 39889 40107 57008 60010 77177 8872/ 333 21052 86703
AAXX 22061 27648 11295 81503 11038 21046 39943 40115 57008 60040 71072 8872/ 333 21047 88705
AAXX 22061 27675 11497 81407 11076 21106 30008 40185 57017 69930 73673 885// 333 21081 88617
AAXX 22061 27679 31498 81510 11091 21116 39961 40195 57020 73732 885// 333 21083 88619
AAXX 22061 28214 31999 81705 11064 21129 30038 40259 57004 70232 8805/ 333 21062
AAXX 22061 34560 11296 81505 10000 21010 30022 40191 52007 69900 71062 886// 333 21019 41997 88704 93401
AAXX 22061 34720 12499 72506 10024 21004 30148 40188 52022 60020 87600 333 20028
AAXX 22061 34730 12497 72510 10026 21002 30095 40188 52022 60020 87500 333 20025 87618
AAXX 22061 34740 32598 12402 10039 20023 30109 40206 52019 81400 333 20036
AAXX 22061 34824 31996 02501 10030 20018 30200 40205 52018 71011 333 20034
AAXX 22061 34858 31996 52502 10057 20035 30108 40216 52017 71022 83032 333 20039
AAXX 22061 34866 31494 82002 10030 20030 30226 40217 51022 72824 8860/ 333 20020
AAXX 22061 34880 31996 80903 10000 21046 30256 40229 53002 70522 8807/ 333 21011
AAXX 22061 37018 12698 60202 10073 20050 30140 40215 51009 69960 84431 333 20079
AAXX 22061 37054 31496 80000 10041 20037 39851 40240 52011 76066 8852/ 333 20010
AAXX 22061 37472 31596 83102 10049 20031 30256 40234 51018 71022 8357/ 333 20046
AAXX 22064 87344 11560 71813 10258 20130 39501 40012 50004 69901 71392 84970 333 56400 57990 83625 82930 83360
AAXX 22064 87349 11568 71806 10259 20145 39650 40018 51011 69901 70292 84570 333 56200 84625 83360
AAXX 22064 87371 11656 81824 10240 20216 39988 40008 52028 69951 79592 8192/ 333 56459 57940 81948 88545
AAXX 22064 87374 11630 81416 10215 20200 39936 40020 53045 60061 79596 8292/ 333 56559 57900 82945 87540
AAXX 22064 87395 31765 80504 10259 20168 39970 40013 55017 71322 8197/ 333 56550 57950 81950 88556
AAXX 22064 87418 32965 01806 10254 20058 39282 40042 52016
AAXX 22064 87436 NIL
AAXX 22064 87448 32965 00000 10196 20143 39514 40051 50007
AAXX 22064 87453 11565 32308 10202 20160 39569 40033 52005 69951 71392 82905 333 56304 57980 81630 81940
AAXX 22064 87467 11550 81806 10202 20199 39908 40035 52027 60161 79592 8592/ 333 56559 57900 84630 81940 88550
AAXX 22064 87497 NIL
AAXX 22064 87506 NIL
AAXX 22064 87509 32970 01809 10198 20035 39247 40066 52011
AAXX 22064 87534 NIL
AAXX 22064 87548 11962 61404 10190 20180 39941 40034 53003 69961 70292 86070 333 56050 86360
AAXX 22064 87576 11960 80515 10232 20190 30006 40030 55020 60101 72196 8807/ 333 56059 88360
AAXX 22064 87582 11760 80520 10230 20196 30017 40024 55024 60121 72996 8257/ 333 56119 82650 88360
AAXX 22064 87585 11457 80514 10219 20199 39985 40014 58039 60141 79599 889// 333 56199 57900 88712 81945
BBXX BATFR53 22064 99185 51733 44498 60809 10282 20229 40092 52010 72522 84379 22222 00287 201// 30521 403// 505// 60/// ICE 0////
BBXX BATEU07 22064 99205 31097 46/// /1719 10284 40085 56019 22284
BBXX BATFR45 22064 99146 10604 46/// ///// 10247 20169 40169 51021 22283 00280
BBXX BATFR19 22064 99066 30057 46/// /1813 10235 20189 40143 52018 22200 00252
BBXX BATFR56 22064 99177 30608 44597 61124 10235 20219 40146 50001 76022 85428 22213 00274 20604 312// 40604 5////
BBXX BATFR55 22064 99073 30404 44598 60117 10289 20255 40125 70222 84122 22262 00290 207// 32121 411// 511//
BBXX A8QJ7 22064 99202 70201 41998 00815 10190 20156 40177 58016 7//00 80000 22213 2//// 3//// 4//// 5//// 80170
BBXX BAREU56 22064 99329 10132 46/// ///// 40166 22200
BBXX BAREU63 22064 99401 10147 46/// /1309 10104 29063 40114 52016 22272
BBXX TESTFR9 22064 99486 70020 46/// ///// 10113 29096 40323 52024 22200
BBXX BAREU08 22064 99537 10062 46/// ///// 40154 57007 22224
BBXX BAREU60 22064 99436 10135 46/// ///// 40194 52030 22252
BBXX BAREU00 22064 99503 10000 46/// ///// 40255 57010 22223
BBXX BATFR46 22064 99424 10036 46/// /3337 10150 20107 40225 53018 22282 00159
BBXX BATFR27 22064 99452 70041 46/// /3412 10142 20075 40334 53008 22245 00142
BBXX BATFR02 22064 99508 70011 46/// /2615 10094 20074 40273 53007 22283 00104
BBXX BATFR01 22064 99354 10229 46/// /2327 10129 20090 40031 56028 22261 00184
BBXX BATFR20 22064 99414 10094 46/// ///// 10122 20054 40169 53018 22284
BBXX BATFR04 22064 99584 70062 46/// /2324 10109 20092 40079 58001 22200 00102
BBXX BATFR54 22064 99517 70059 46/// /2321 10119 20089 40264 53015 22243 00115
BBXX BATFR11 22064 99428 10066 46/// ///// 10125 20059 40180 53018 22264 00159
BBXX BATEU04 22064 99610 70015 46/// /2823 10097 20045 4//// 22262
BBXX BATFR12 22064 99482 70066 46/// /2509 10130 20099 40325 56003 22271 00140
BBXX BATEU01 22064 99504 10006 46/// /2817 10112 20092 40251 56013 22223 00119
BBXX BATFR42 22064 99507 70020 46/// /2806 10094 20077 40269 53005 22282 00124
BBXX BATEU05 22064 99581 70295 46/// /2325 10057 20015 49764 55053 22223
BBXX 61001 22064 99434 10078 46/// /0502 10125 20030 40176 52016 22200 00149 10702 70008
BBXX BATUK01 22064 99581 70034 46/// /2632 10109 20072 40072 56021 22211 00087
BBXX BATFR23 22064 99412 10035 44998 13016 10160 20110 40227 53009 70211 81100 22284 00154 20504 334// 40504 5////
BBXX BAREU51 22064 99407 10115 46/// ///// 40136 52023 22285
BBXX BAREU62 22064 99404 10291 46/// ///// 40116 52004 22221
BBXX BAREU54 22064 99135 70775 46/// ///// 40083 57007 22213
BBXX BAREU11 22064 99341 70499 46/// ///// 40277 52002 22214
BBXX BAREU04 22064 99466 70523 46/// ///// 40214 57004 22253
BBXX PBBB 22063 99396 70370 41598 33613 10150 20082 40245 52035 70211 8/541 22263 00170 20505 3//// 4//// 5//// 80113
BBXX FVNM 22064 99082 70793 46/// /0307 10269 20249 40075 58011 22281 00272
BBXX 41101 22064 99146 70562 46/// /0622 10263 20205 40132 57014 22200 00270 10906 70031 555 1/028
BBXX BAREU06 22064 99450 70485 46/// ///// 40272 52012 22224
BBXX IDDUK02 22064 99531 50416 46/// ///// 49911 222//
AAXX 22064 65306 32960 50000 10158 20045 39804 40138 80002 333 01100 20157 50774 55097 58013 85076
AAXX 22064 65319 NIL
AAXX 22064 65330 31920 50204 10197 20049 39682 40120 70522 80002 333 01600 20197 50754 55096 0//// 58007 85076
AAXX 22064 65335 32960 50000 10227 20206 39896 40119 80002 333 02000 20220 50354 55086 58000 85076
AAXX 22064 65344 31420 53602 10258 20251 30102 40113 71022 81502 333 02400 20255 50294 55058 58005 81611 85076
AAXX 22061 37575 42999 50502 10071 21044 39624 40212 51011 85050
AAXX 22061 37675 42999 42502 10025 20017 39571 40243 52023 84002
AAXX 22061 37735 42999 62501 10052 21013 39775 40153 86070
AAXX 22061 37749 42998 30901 10036 20010 30138 40257 53017 83030
AAXX 22061 37756 41999 60000 10030 21028 39354 40274 52020 70341 80002
AAXX 22061 37864 31596 70000 10065 20054 40230 52019 71022 83570 333 20026 555 30///
AAXX 22061 37985 41595 83201 10046 20039 30234 40219 53027 71011 886//
AAXX 22061 08512 32465 51706 10172 20169 30180 40265 57002 85800 333 20159 30016 5//// 55048 20730 82810 83814 91110
AAXX 22064 63705 12565 53003 10230 20210 38869 48524 69904 81530 333 20191 58004 81823 85363 555 10215
AAXX 22064 16134 12980 03025 11050 21120 37783 48476 52008 60002 333 21052 44004 55030 2//// 92845
AAXX 22061 08512 32465 51706 10172 20169 30180 40265 57002 85800 333 20159 30016 5//// 55048 20730 82810 83814 91110 555 60005
AAXX 22064 16294 12698 50611 10084 20020 39931 40126 53002 60002 83230 333 20084 30/// 55/// 2//// 83640 83358 555 0////
AAXX 22061 01003 11656 60610 11027 21050 30013 40025 57013 69901 77173 82510 333 44002
AAXX 22064 60353 11558 83218 10168 20149 40228 53010 60364 700// 889// 333 009// 20128 84820 81926 86630 91855 95990
AAXX 22064 60367 NIL
AAXX 22064 60369 12960 01612 10144 20068 40257 53011 60004 333 20136 91837
AAXX 22064 60401 NIL
AAXX 22064 60403 11550 82818 10125 20108 40209 53008 60284 700// 888// 333 010// 20104 83820 87833 95990
AAXX 22064 60425 12965 20000 10064 20053 40280 53004 60004 80002 333 00100 20058 82073 95990
AAXX 22064 60461 13970 31816 10100 20057 40250 58008 60004 80002 222// 20000 333 20100 83073 91828 95990
AAXX 22064 60467 NIL
AAXX 22064 60492 11965 00000 10053 20058 40276 53008 60004 700// 333 00100 20030 95990
AAXX 22064 60515 NIL
AAXX 22064 60517 11960 01604 10095 20047 40269 53002 60004 700// 333 0//00 20095 95990
AAXX 22064 60522 11970 10000 10020 20001 40293 5//// 60004 700// 80001 333 05300 20020 81073 95990
AAXX 22064 60557 11965 00000 11006 21014 38941 48576 56003 60004 700// 333 05400 21009 95990
AAXX 22064 60563 12960 03612 10050 20041 39353 48537 53003 60004 333 00200 20038
AAXX 22064 60603 12960 01804 10035 21058 40265 54004 60004 333 0//00 20035
AAXX 22064 60638 12960 0//// 10012 21082 40256 53012 60004 333 05200 20002
AAXX 22064 60686 NIL
AAXX 22061 14235 12760 8//// 11034 21049 39021 48461 52009 60002 8807/ 333 21037 47024
AAXX 22061 14246 11462 82301 11019 21027 30009 40222 52017 69902 7731/ 8272/ 333 21036 34108 45998 79999
AAXX 22061 14314 12680 20306 10076 21031 30112 40177 52011 60002 81102 333 20071 30101 70000 92323 92438
AAXX 22061 14323 12682 10506 10043 21036 30148 40183 53009 60002 81600 333 20041 31002 92323 92438
AAXX 22061 14324 11/00 90910 11081 21091 38357 48466 53007 60002 74942 333 21093 3/110 44042 70000
AAXX 22061 14328 11410 50000 11086 21090 39809 40231 52013 60002 7284/ 84502 333 21086 3/112 43021
AAXX 22061 14330 12670 32701 11127 21142 39514 40236 52010 60002 83500 333 21133 3/118 47017 70000 92802
AAXX 22061 14438 12681 10307 10053 21044 30058 40151 53006 60002 81400 222// 00150 333 20033 31100 92322
AAXX 22061 14443 32699 636// 10085 20020 30025 40124 52008 86860 333 20085 92334 911//
AAXX 22061 14447 12684 13503 10074 21038 30111 40143 52/// 60002 81100 222// 00164 333 20021 31002 92312
AAXX 22061 14472 12980 20206 10080 21073 30037 40102 52015 60002 80001 222// 00161 333 20057 31/// 92312
AAXX 22061 60370 36/// /2101 10095 20070 333 20095
AAXX 22061 60371 36/// /1903 10141 20106 333 20130
AAXX 22061 60372 36/// /3104 10111 20109 333 20105
AAXX 22061 60373 NIL
AAXX 22061 60374 NIL
AAXX 22061 60376 NIL
AAXX 22061 60379 NIL
AAXX 22061 60380 NIL
AAXX 22061 60381 NIL
AAXX 22061 60393 NIL
AAXX 22061 60394 NIL
AAXX 22061 60593 NIL
AAXX 22061 60595 NIL
AAXX 22061 60605 NIL
AAXX 22061 60613 NIL
AAXX 22061 60623 NIL
AAXX 22064 60624 36/// /0000 10109 21037 333 20109
AAXX 22064 60639 NIL
AAXX 22064 60645 36/// /0000 10094 21071 333 20078
AAXX 22064 60395 12660 50000 10132 20109 40260 52011 60004 85200 333 01100 20130 85840 95990
AAXX 22064 60421 NIL
AAXX 22064 60423 11558 83614 10094 20090 39199 48472 58005 60484 76062 888// 333 0//// 20062 82830 83833 87640 95990
AAXX 22064 60430 11660 32808 10076 20059 40279 54000 60004 700// 82530 333 00400 20065 82633 95990
AAXX 22064 60437 11560 62804 10075 20047 39041 48539 51001 60004 700// 86800 333 00200 20052 81823 86626 95990
AAXX 22064 60444 12560 73408 10088 20061 39141 48553 53003 69934 872// 333 00500 20072 87830 95990
AAXX 22064 60452 12965 2//// 10115 20051 51001 60004 80002 222// 20000 333 0//// 20103 82073 91826
AAXX 22064 60457 12962 20000 10048 20033 40272 55000 60004 80001 333 05000 20041 82073 95990
AAXX 22064 60514 NIL
AAXX 22064 60518 11965 21808 10130 20013 40248 54000 60004 700// 80002 222// 20000 333 00500 20126 82073 91807 95990
AAXX 22064 60520 11960 20000 10019 20005 40273 56002 60004 700// 80002 333 05200 20016 82073 95990
AAXX 22064 60540 11960 00000 10010 21014 39109 48559 5//// 60004 700// 333 05200 20010 95990
AAXX 22064 60560 11960 00000 11030 21053 39039 48575 53006 60004 700// 333 05500 21034 95990
AAXX 22064 43400 NIL
AAXX 22064 43404 22470 8//// 10276 20220 30110 40120 8317/ 333 58010 60007 70007 83818 87458
AAXX 22064 43410 NIL
AAXX 22064 43413 22470 70510 10266 20246 30112 40116 84231 333 58004 60007 70000 84818
AAXX 22064 43415 22470 73602 10274 20231 30007 40115 84170 333 58008 60007 79999 84818 84460
AAXX 22064 43418 22470 80208 10275 20228 3//// 4//// 85736 333 5//// 60007 70000 82712 83816 85280
AAXX 22064 43421 22470 80203 10266 20221 30012 40114 85106 333 58007 60007 70000 85818 86280
AAXX 22064 43422 22469 702// 10266 20228 39984 40114 84106 333 58010 60007 70000 84818 86280
AAXX 22064 43424 22478 80406 10272 20218 30104 40106 8317/ 333 58016 60007 70000 83816 87458
AAXX 22064 43436 21470 80506 10262 20245 30106 40108 75082 85176 333 58010 60027 70020 85816 87458
AAXX 22064 43441 22470 736// 10268 20227 39973 40102 86631 333 58012 60007 70000 83716 83818
AAXX 22064 43444 22470 70000 10247 20206 39576 40110 8517/ 333 58012 60007 70020 85818 83358
AAXX 22064 43467 22460 80204 10267 20227 30101 40106 84216 333 58014 60007 70048 84816 87458
AAXX 22064 43473 22470 71306 10172 20137 38125 48488 87100 333 58006 60007 70071 87812
AAXX 22064 43475 22470 73604 10284 20238 30093 40101 86931 333 58008 60007 70354 82712 83818 82920
AAXX 22064 43476 21468 83603 10190 20164 38780 48523 70362 84206 333 58015 69907 70242 84811 86280
AAXX 22064 43479 21470 60501 10236 20194 39268 70124 84230 333 58010 60007 70180 84817 84358
AAXX 22064 43486 22370 70000 10260 20218 30008 40102 8527/ 333 58012 60007 70112 85808 86456
AAXX 22064 43495 21460 8//// 10254 20225 30098 40114 70282 84977 333 58022 69907 70215 82818 82920 84458 88278
AAXX 22064 43497 22474 82903 10266 20237 30081 40098 8112/ 333 58018 60007 70240 81818 88460
AAXX 22061 50844 32962 03406 11133 21301 40268 57010 333 21201
AAXX 22061 50854 32770 22502 11155 21266 40265 54000 82500 333 21195
AAXX 22061 50968 32662 12504 11162 21202 40270 52010 81500 333 21170
AAXX 22061 51379 NIL
AAXX 22061 51467 NIL
AAXX 22061 51495 NIL
AAXX 22061 53480 32980 02502 11067 21184 40346 57029 333 21167
AAXX 22061 53673 32961 22201 11026 21178 40336 57037 80002 333 21110
AAXX 22061 53698 32968 01101 10054 21177 40311 57043 333 21053
AAXX 22061 53898 32963 31802 10043 21122 40315 57041 80002 333 21069
AAXX 22061 54308 32980 02901 11037 21218 40322 57031 333 21167
AAXX 22061 54602 32970 00402 10041 21195 40306 57041 333 21097
AAXX 22061 54725 32965 00202 10024 21172 40322 57036 333 21083
AAXX 22061 54751 32580 43205 10001 21107 40310 57021 84500 333 21010
AAXX 22061 54916 32963 03401 10039 21154 40323 57036 333 21066
AAXX 22061 57014 32975 02201 10025 21129 40306 57054 333 05451 21079
AAXX 22061 57025 32963 01602 10013 21090 40325 57050 333 21041
AAXX 22061 57046 32967 02501 11064 21135 37962 57033 333 05303 21112
AAXX 22061 58208 32960 01102 10052 21083 40320 57030 333 21018
AAXX 22061 08501 NIL
AAXX 22061 08505 NIL
AAXX 22061 08506 12/// /2104 10174 20156 30173 40245 52003 69952 333 20167 30017 5//// 55041 20679 91010 91114 555 60005
AAXX 22061 08509 11460 61805 10172 20166 30188 40252 52007 69902 70362 86800 333 20164 50234 55002 91010 91116 555 69907
AAXX 22061 08511 32/// /2003 10171 20169 30146 40253 54000 333 20162 30015 5//// 55011 24734 91007 91111 555 60005
AAXX 22061 08512 NIL
AAXX 22061 08515 11475 41605 10170 20164 30155 40276 58001 69902 70181 83841 333 20167 31015 50274 55/// 81812 83630 910// 911// 555 69907 912//
AAXX 22061 08521 32470 63602 10178 20119 30224 40295 56006 86800 333 20170 30/// 55075 84818 555 60007
AAXX 22061 08522 32/// /0502 10159 20092 30224 40294 57005 333 20144 30012 5//// 55084 21279 91105 555 60005
AAXX 22061 08524 32470 30703 10166 20118 30200 40298 57003 83800 333 20163 30014 5//// 55078 21243 82815 91105 555 60005
AAXX 22061 08530 NIL
AAXX 22061 08531 32/// /0403 10138 20126 30260 40299 57004 333 20138 30013 5//// 55029 20616 91105 555 60005
AAXX 22061 08532 NIL
AAXX 22061 08533 32/// /0501 10121 20108 30260 40290 54000 333 20121 30008 5//// 55085 21247 91107 555 60005
AAXX 22060 08534 31205 30000 10064 20064 30278 40297 55005 74640 83600 333 20064 50104 55086 83705 555 60007 90224 96646
AAXX 22061 08535 32/// /9901 10099 20091 30204 40298 57002 333 20099 30006 5//// 55083 21107 555 60005
AAXX 22061 08537 NIL
AAXX 22061 08540 31/01 91702 10060 20060 30228 40299 56005 74544 333 20060 50084 55007 89/01 555 60007 96645
AAXX 22061 08541 12/// /0304 10103 20089 30173 40294 57004 69912 333 20091 30006 5//// 55081 21079 91107 555 60005
AAXX 22061 08544 31120 10000 10052 20048 30274 40296 57008 71000 81600 333 20042 50094 55076 81702 555 60007
AAXX 22061 08545 11057 30904 10085 20064 30219 40305 57007 60002 71041 83600 333 20077 30003 50094 55062 20711 83701 555 60005
AAXX 22061 08548 32/// /0704 10090 20063 30090 40300 57005 333 20090 30005 5//// 55034 20523 91006 91106 555 60005
AAXX 22061 08551 32/// /1003 10060 20052 30245 40305 57009 333 20059 30003 5//// 55080 21174 555 60005
AAXX 22061 08554 32965 03602 10098 20072 30277 40287 57002 333 20090 30009 5//// 55085 21114 555 60005
AAXX 22061 08558 12/// /0201 10047 20047 39994 40299 57002 69912 333 20038 30000 5//// 55002 20819 555 60005
AAXX 22061 08560 32/// /0606 10092 20053 39541 40308 57005 333 20085 30003 5//// 55073 20866 91011 91111 555 60005
AAXX 22061 08561 31907 009901 10046 20046 30057 40298 56003 74640 333 20046 50204 55071 555 60007 96640 90305 90205 96646
AAXX 22061 08562 32/// /0301 10086 20080 39989 40290 57006 333 20076 30000 5//// 55083 21163 555 60005
AAXX 22061 08567 12/// /9901 10050 20048 39658 40343 57003 69912 333 20039 31002 5//// 55051 20689 91105 555 60005
AAXX 22061 08568 32/// /3105 10121 21056 38744 48615 57006 333 20105 30001 5//// 55078 21172 555 60005
AAXX 22061 08570 32/// /0602 10103 20059 39834 40298 57001 333 20091 30006 5//// 55082 20913 555 60005
AAXX 22061 08571 32/// /9901 10133 20063 39587 40290 57006 333 20105 30010 5//// 55067 20909 555 60005
AAXX 22061 08575 12/// /0000 10013 20010 39519 40365 54000 69922 333 20010 30001 5//// 55031 20469 555 60005
AAXX 22061 08579 32/// /2401 10088 20081 30169 40297 57002 333 20088 30008 5//// 55082 20960 555 60005
AAXX 22063 87016 32962 00000 10248 20221 39573 49959 57021
AAXX 22064 87078 NIL
AAXX 22064 87244 NIL
AAXX 22064 87393 NIL
AAXX 22064 87416 32965 02305 10233 20068 39332 40043 52017
AAXX 22064 87563 NIL
AAXX 22064 87640 NIL
AAXX 22064 87688 NIL
AAXX 22064 87774 NIL
AAXX 22064 87852 NIL
AAXX 22064 87896 NIL
AAXX 22064 87593 NIL
AAXX 22064 87623 31959 01811 10205 20041 39854 40071 52016
AAXX 22064 87641 32965 31405 10160 20153 39878 40047 52001 83070 333 56040 83360
AAXX 22064 87645 32365 11403 10159 20156 39852 40053 51001 81600 333 56400 81707
AAXX 22064 87648 11960 40000 10185 20177 30025 40035 57015 60071 70198 84080 333 56060 84360
AAXX 22064 87692 11958 30707 10182 20166 30038 40063 58008 69901 71061 83030 333 56050 83360
AAXX 22064 87715 32965 02005 10135 20006 39813 40125 51003
AAXX 22064 87750 32962 01806 10158 20065 39956 40052 57007
AAXX 22064 87765 11456 72914 10019 21018 39184 48471 52001 69951 76165 86720 333 56660 82710 84620 87560 96120
AAXX 22064 87784 NIL
AAXX 22064 87791 NIL
AAXX 22064 87800 NIL
AAXX 22064 87803 NIL
AAXX 22064 87828 32980 02311 10126 21082 30037 40088 51005
AAXX 22064 87860 11980 02716 10087 21032 30014 40069 51009 69901 70161
AAXX 22064 87904 NIL
AAXX 22064 87909 NIL
AAXX 22064 87925 11980 22709 10039 21001 30005 40028 51008 69901 70281 81078 333 56059 81360
AAXX 22064 87938 11570 62512 10055 20018 39937 40006 53004 60031 71552 85570 333 56550 85625 84360
AAXX 22064 71463 46/// /2816 10056 20030 39909 40131 51027 6///1 333 10101 20050 7//// 555 32633 40002
AAXX 22064 71465 46/// /2405 10057 20038 39922 40138 51019 6///1 333 10096 20052 7//// 555 32129 40192
AAXX 22064 71478 16/// /1737 10064 20030 30135 40273 56013 60001 333 10074 20048 70000 555 31641 40063
AAXX 22064 71479 16/// /1135 10060 20041 30154 40276 56018 60001 333 10061 20039 70000 555 31245 40063
AAXX 22064 71482 46/// /0709 10022 30262 40301 58008 6///1 333 10033 20007 7//// 555 30523 40201
AAXX 22064 71503 46/// /0403 11167 21188 39748 40022 55005 6///1 333 11134 21212 7//// 555 30426 40211
AAXX 22064 71506 46/// /3010 11116 21124 39117 49996 53026 6///1 333 11044 21138 7//// 555 31918 40211
AAXX 22064 71514 16/// /2611 11062 21088 39528 40248 57005 60001 333 11012 21097 70000 555 33424 40161
AAXX 22064 71364 16/// /3109 11216 21241 39917 40053 53025 60001 333 11153 21257 70000 555 33021 40051
AAXX 22064 71374 46/// /2203 11006 21045 6///1 333 11006 21134 7//// 555 32236 40183
AAXX 22064 71228 16/// /2409 11070 21110 60001 333 11012 21096 70005 555 33017 40191
AAXX 22064 71107 16/// /2227 10068 20048 30121 40235 56009 60001 333 10075 20043 70000 555 32135 40063
AAXX 22064 71332 16/// /0102 11297 21329 30039 40070 56019 60001 333 11249 21346 70000
AAXX 22064 71340 16/// /2207 11045 21092 60001 333 7////
AAXX 22064 71341 16/// /2708 11050 21109 60001 333 10007 21110 70000 555 33433 40132
AAXX 22064 71342 17/// /2312 11111 21134 60021 7//4/ 333 10000 21111 70038 555 33018 40201
AAXX 22064 71344 16/// /2212 11081 21124 60001 333 11003 21101 70000 555 33330 40082
AAXX 22064 71347 16/// /2811 11023 21094 60001 333 11016 21139 70000 555 32718 40061
AAXX 22064 71348 16/// /2611 11005 21091 60001 333 11004 21123 7////
AAXX 22064 71349 16/// ///// 11065 21098 60001 333 7////
AAXX 22064 71186 46/// /3101 11025 21057 6///1 333 11023 21109 7////
AAXX 22064 71190 46/// /2907 11009 21042 6///1 333 10003 21076 7//// 555 32919 40161
AAXX 22064 71752 16/// /2611 10059 20043 39908 40123 51027 60001 333 10122 20023 70085 555 10020 20085
AAXX 22064 71771 46/// /1626 10073 20064 30161 40182 56025 6///1 333 10077 20028 7////
AAXX 22064 71550 16/// /2507 11077 21112 39845 40230 51006 60001 333 11022 21090 70000 555 30218 40151
AAXX 22064 71269 16/// /2514 11108 21122 60001 333 10007 21113 70005 555 30024 40131
AAXX 22064 71285 46/// /2406 11063 21089 6///1 333 11028 21106 7////
AAXX 22064 71288 16/// /2707 11305 21336 30089 40115 56010 60001 333 11294 21325 70000 555 33219 40141
AAXX 22064 71299 16/// /3409 11119 21131 39844 40121 51032 60001 333 10001 21120 70000 555 33420 40011
AAXX 22064 71423 16/// /2211 10006 21004 30060 40069 56023 60001 333 10011 21135 70000 555 32436 40173
AAXX 22061 28049 31999 82206 11039 21139 30102 40270 54001 70232 88020 333 21031
AAXX 22061 28144 32599 82303 11030 21157 30116 40278 57002 8257/ 333 21032
AAXX 22061 28319 32499 71502 11084 21160 30126 40298 57006 87500 333 21073 87614
AAXX 22061 28321 32999 61404 11080 21148 30075 40287 57004 84032 333 21069
AAXX 22061 28334 32499 72102 11050 21157 30005 40320 53002 86570 333 21038
AAXX 22061 28434 32999 81002 11052 21167 30064 40332 57002 80005 333 21045
AAXX 22061 28552 32597 82401 11106 21182 30263 40383 57005 82502 333 21106
AAXX 22061 28666 32998 62005 11119 21181 30227 40414 57005 80002 333 21139
AAXX 22061 28825 32998 81903 11060 21140 30180 40360 57011 8807/ 333 21088
AAXX 22061 29111 41996 82404 11079 21097 30195 40286 57009 77172 8802/
AAXX 22061 29209 42398 82002 11077 21127 30187 40319 57004 886//
AAXX 22061 29551 41097 82004 11110 21130 30167 40360 58018 78583 883//
AAXX 22061 29602 42999 82204 11115 21177 30231 40380 57007 8805/
AAXX 22061 29636 41597 82302 11126 21153 30140 40372 57015 78582 883//
AAXX 22061 29654 41396 81905 11143 21156 39741 40399 57010 78588 8695/ 333 84709
AAXX 22061 29712 42598 72505 11135 21187 30249 40402 53004 82570
AAXX 22061 29724 41999 82306 11153 21187 30184 40403 57006 73631 82039
AAXX 22061 29726 41998 82003 11151 21185 30227 40408 57006 70232 83072
AAXX 22061 29814 42999 82404 11138 21190 30267 40424 57008 82041
AAXX 22061 29827 42998 22307 11159 21193 30268 40435 57004 80002
AAXX 22061 29923 41999 82207 11144 21187 30136 40432 57017 73632 82041
AAXX 22061 29939 41598 82503 11105 21158 30144 40444 58014 70272 885// 333 88622
AAXX 22061 35026 32998 71602 11146 21204 39746 40436 57002 87050 333 21159
AAXX 22061 36021 42999 12604 11129 21201 30260 40453 58006 80002
AAXX 22061 36022 42998 22005 11178 21212 30193 40480 58004 81039
AAXX 22061 36038 41599 61604 11137 21172 30025 40501 50000 70281 84540
AAXX 22061 36058 41698 81202 11086 21140 39917 40466 58003 78582 86907
AAXX 22061 36064 41995 80000 11071 21084 39827 40446 58003 77372 8802/
AAXX 22061 36229 42599 60901 11227 21243 39261 40565 58007 82931
AAXX 22061 36259 41598 80000 11232 21272 38358 48640 53005 78581 889//
AAXX 22064 71903 47/// /2211 10069 20061 30088 40137 5/013 6///1 7//4/ 333 7////
AAXX 22064 71832 16/// /3206 11144 21164 39807 40140 53024 60001 333 11003 21144 70000 555 32817 40221
AAXX 22064 71737 17/// /2702 11025 21031 39519 40040 53011 60021 7//4/ 333 11025 21171 7////
AAXX 22064 71743 16/// /2808 11198 21226 39780 40001 51014 60001 333 11074 21198 70000 555 32828 40152
AAXX 22064 71748 16/// /2805 11072 21105 39930 40226 51017 60001 333 11012 21085 70000 555 33420 40161
AAXX 22061 23914 11398 81803 11075 21092 39989 40258 58006 69960 77172 8597/ 333 21075
AAXX 22061 23921 11699 82202 11044 21109 30120 40241 58004 69900 70282 8657/ 333 21076 88640
AAXX 22061 23955 41498 82102 11085 21100 30196 40260 57014 77187 885// 333 83714
AAXX 22061 23966 41496 81901 11134 21154 30132 40265 57009 78582 899//
AAXX 22061 28138 31999 82404 11084 21164 39701 40295 57004 70232 82041 333 21078
AAXX 22061 28224 32598 82005 11057 21159 30066 40288 57006 8455/ 333 21052
AAXX 22061 28255 32599 82502 11037 21136 30168 40301 56003 8557/ 333 21050 88630
AAXX 22061 28440 32599 72302 11026 21185 39975 40334 53003 86506 333 21024
AAXX 22061 28645 32967 61602 11110 21183 30080 40395 53003 86030 333 21120
AAXX 22061 28661 32998 82108 11133 21187 30305 40404 57005 83031 333 21132
AAXX 22061 28722 31697 81806 11064 21147 30202 40339 57014 73631 885// 333 21080
AAXX 22061 28748 32960 81804 11158 21200 30175 40437 57006 80006 333 21175
AAXX 22061 28838 32997 70000 11191 21203 39928 40456 57002 87030 333 21225
AAXX 22061 29231 41997 81601 11110 21123 30202 40303 57014 77187 8802/
AAXX 22061 29313 41598 82203 11086 21135 30190 40318 57012 70272 8457/
AAXX 22061 29612 42998 72203 11132 21175 30217 40380 57006 87070
AAXX 22061 29638 41480 81904 11130 21165 30210 40386 57007 73683 86901
AAXX 22061 29838 41997 81902 11142 21185 30180 40431 57011 70272 8802/
AAXX 22061 29846 41314 82105 11131 21144 30019 40432 57007 78582 889// 333 86707
AAXX 22061 36061 41596 80000 11113 21133 30028 40463 58007 78582 889//
AAXX 22061 23909 11497 82104 11073 21094 39980 40238 57006 60010 70287 886// 333 21077
AAXX 22061 28044 32599 72402 11046 21141 30094 40262 55003 87500 333 21046
AAXX 22061 28116 32599 81503 11061 21125 30017 40258 57008 8353/ 333 21065
AAXX 22061 28240 32598 82202 11035 21167 39974 40308 52005 885// 333 21027
AAXX 22061 28522 32998 71803 11088 21166 30066 40338 57012 80005 333 21085
AAXX 22061 28621 32998 71604 11084 21167 30082 40327 57005 70231 80005 333 21095
AAXX 22061 29023 41396 81801 11121 21141 30182 40285 57013 77172 8772/ 333 87707
AAXX 22061 29122 41496 82202 11094 21101 30218 40294 57013 77172 8552/ 333 85617
AAXX 22061 29328 41498 82203 11111 21136 30189 40336 57005 70282 8497/
AAXX 22061 29348 41497 82303 11117 21140 30180 40333 57018 77187 8272/
AAXX 22061 29405 42597 82505 11096 21148 30197 40352 57006 8633/
AAXX 22061 29418 42598 82405 11102 21187 30184 40352 57003 8397/
AAXX 22061 29430 41996 82102 11130 21143 30163 40350 57013 77172 8802/
AAXX 22061 29524 42998 82204 11118 21152 30190 40363 57005 8801/
AAXX 22061 29605 42998 82404 11109 21182 30232 40383 58012 8807/
AAXX 22061 29631 42597 82105 11132 21167 30177 40376 56003 889//
AAXX 22061 29645 41596 81705 11131 21151 30184 40383 57018 78583 889// 333 88920
AAXX 22061 29706 42998 82506 11137 21189 30252 40410 57001 88079
AAXX 22061 29736 41998 81903 11140 21167 30142 40410 57015 70282 8807/
AAXX 22061 29937 41998 72205 11147 21190 30218 40458 58013 70282 83039
AAXX 22061 36034 41998 82107 11168 21210 30190 40491 53002 73632 88052
AAXX 22061 36096 41995 80000 11269 21293 39650 40526 58010 71022 8807/ 333 95090
AAXX 22064 71421 17/// ///// 11091 21104 39342 40065 58010 69931 7//4/ 333 11091 21230 70006
AAXX 22064 71432 16/// /2712 10058 20041 30026 40123 51038 60001 333 10097 20023 70048 555 32727 40021
AAXX 22064 71435 16/// /2704 11078 21100 39555 40157 51020 60001 333 11018 21079 70000
AAXX 22061 34357 11497 81803 10022 20022 39992 40148 53004 69930 70252 885// 333 20001
AAXX 22061 34363 32497 81505 11053 21070 30046 40204 54001 886// 333 21061
AAXX 22061 34545 32598 72408 10037 20016 30054 40166 52008 87500 333 20035
AAXX 22061 34579 32998 81403 11019 21072 30180 40225 53006 8005/ 333 21040
AAXX 22061 34838 32997 62502 10033 20015 30115 40213 52018 80032 333 20048
AAXX 22061 34927 32697 63201 10051 20021 30181 40218 52017 86500 333 20034
AAXX 22061 34949 11998 72503 10033 20009 39674 40226 52012 60010 70282 83031 333 20025
AAXX 22061 37001 32597 40503 10046 20014 30172 40213 52013 84500 333 20070
AAXX 22061 37031 11996 81602 10038 20035 30024 40221 52017 60010 71022 82031 333 20057
AAXX 22061 37061 11496 82002 10057 20051 30059 40226 52012 69910 78082 883// 333 20040
AAXX 22061 37085 31496 82201 10045 20038 30254 40281 51013 71022 886// 333 20042
AAXX 22061 37107 12698 81101 10035 20035 39543 40228 52007 60320 884// 333 20030
AAXX 22061 37126 31/92 91405 11021 21021 37937 48507 52002 74942 333 21030 42001
AAXX 22061 37171 12698 70602 10081 20064 30196 40214 53015 60070 83930 333 20070
AAXX 22061 37228 32699 70000 10053 20003 39387 40223 52004 8653/ 333 20030
AAXX 22061 37470 32598 83303 10072 20036 30255 40233 51018 885// 333 20064
AAXX 22061 37663 32999 22501 10036 21034 39035 48508 5//// 82001 333 20099
AAXX 22064 68148 32960 01710 10215 20191 48502 52010 333 20185
AAXX 22063 NIL
AAXX 22064 71063 17/// /2602 10006 20005 39965 40063 53032 60101 7//4/ 333 10006 21070 70109 555 10020 20109
AAXX 22060 67699 32980 10000 10256 20186 81030 333 20149 81360 555 10314 7//00
AAXX 22060 67796 32980 21203 10272 20162 80002 333 20202 5//// 5//// 82080 555 10362 7//00
AAXX 22064 71622 16/// ///// 10036 20030 39799 40135 51027 60001 333 10108 20009 70009
AAXX 22061 13463 32670 60206 10056 21057 30049 40110 52008 82570 333 20056 30004 55044 91115
AAXX 22061 13459 32670 63605 10008 21076 39351 40127 56003 333 21007 37109 55058 48010 91112 82896 86499
AAXX 22061 13461 32870 83607 10071 21070 30080 40088 54000 8252/ 333 20068 32005 55039 82658 88460 91120 92333 92438 92512
AAXX 22061 13363 11520 82301 11049 21054 39240 48438 53004 69922 77172 8802/ 333 21053 3/107 47007 93101 55006
AAXX 22064 71421 17/// ///// 11091 21104 39342 40065 58010 69931 7//4/ 333 11091 21230 70006
AAXX 22064 71432 16/// /2712 10058 20041 30026 40123 51038 60001 333 10097 20023 70048 555 32727 40021
AAXX 22064 71435 16/// /2704 11078 21100 39555 40157 51020 60001 333 11018 21079 70000
AAXX 22064 71832 16/// /3206 11144 21164 39807 40140 53024 60001 333 11003 21144 70000 555 32817 40221
AAXX 22064 71228 16/// /2409 11070 21110 60001 333 11012 21096 70005 555 33017 40191
AAXX 22064 71752 16/// /2611 10059 20043 39908 40123 51027 60001 333 10122 20023 70085 555 10020 20085
AAXX 22064 71771 46/// /1626 10073 20064 30161 40182 56025 6///1 333 10077 20028 7////
AAXX 22064 71364 16/// /3109 11216 21241 39917 40053 53025 60001 333 11153 21257 70000 555 33021 40051
AAXX 22064 71374 46/// /2203 11006 21045 6///1 333 11006 21134 7//// 555 32236 40183
AAXX 22064 71332 16/// /0102 11297 21329 30039 40070 56019 60001 333 11249 21346 70000
AAXX 22064 71340 16/// /2207 11045 21092 60001 333 7////
AAXX 22064 71341 16/// /2708 11050 21109 60001 333 10007 21110 70000 555 33433 40132
AAXX 22064 71342 17/// /2312 11111 21134 60021 7//4/ 333 10000 21111 70038 555 33018 40201
AAXX 22064 71344 16/// /2212 11081 21124 60001 333 11003 21101 70000 555 33330 40082
AAXX 22064 71347 16/// /2811 11023 21094 60001 333 11016 21139 70000 555 32718 40061
AAXX 22064 71348 16/// /2611 11005 21091 60001 333 11004 21123 7////
AAXX 22064 71349 16/// ///// 11065 21098 60001 333 7////
AAXX 22064 71269 16/// /2514 11108 21122 60001 333 10007 21113 70005 555 30024 40131
AAXX 22064 71285 46/// /2406 11063 21089 6///1 333 11028 21106 7////
AAXX 22064 71288 16/// /2707 11305 21336 30089 40115 56010 60001 333 11294 21325 70000 555 33219 40141
AAXX 22064 71299 16/// /3409 11119 21131 39844 40121 51032 60001 333 10001 21120 70000 555 33420 40011
AAXX 22064 71186 46/// /3101 11025 21057 6///1 333 11023 21109 7////
AAXX 22064 71190 46/// /2907 11009 21042 6///1 333 10003 21076 7//// 555 32919 40161
AAXX 22064 71107 16/// /2227 10068 20048 30121 40235 56009 60001 333 10075 20043 70000 555 32135 40063
AAXX 22064 71503 46/// /0403 11167 21188 39748 40022 55005 6///1 333 11134 21212 7//// 555 30426 40211
AAXX 22064 71506 46/// /3010 11116 21124 39117 49996 53026 6///1 333 11044 21138 7//// 555 31918 40211
AAXX 22064 71514 16/// /2611 11062 21088 39528 40248 57005 60001 333 11012 21097 70000 555 33424 40161
AAXX 22064 71423 16/// /2211 10006 21004 30060 40069 56023 60001 333 10011 21135 70000 555 32436 40173
AAXX 22064 71463 46/// /2816 10056 20030 39909 40131 51027 6///1 333 10101 20050 7//// 555 32633 40002
AAXX 22064 71465 46/// /2405 10057 20038 39922 40138 51019 6///1 333 10096 20052 7//// 555 32129 40192
AAXX 22064 71478 16/// /1737 10064 20030 30135 40273 56013 60001 333 10074 20048 70000 555 31641 40063
AAXX 22064 71479 16/// /1135 10060 20041 30154 40276 56018 60001 333 10061 20039 70000 555 31245 40063
AAXX 22064 71482 46/// /0709 10022 30262 40301 58008 6///1 333 10033 20007 7//// 555 30523 40201
AAXX 22064 71550 16/// /2507 11077 21112 39845 40230 51006 60001 333 11022 21090 70000 555 30218 40151
AAXX 22064 71903 47/// /2211 10069 20061 30088 40137 5/013 6///1 7//4/ 333 7////
AAXX 22064 71622 16/// ///// 10036 20030 39799 40135 51027 60001 333 10108 20009 70009
AAXX 22064 71063 17/// /2602 10006 20005 39965 40063 53032 60101 7//4/ 333 10006 21070 70109 555 10020 20109
AAXX 22064 71737 17/// /2702 11025 21031 39519 40040 53011 60021 7//4/ 333 11025 21171 7////
AAXX 22064 71743 16/// /2808 11198 21226 39780 40001 51014 60001 333 11074 21198 70000 555 32828 40152
AAXX 22064 71748 16/// /2805 11072 21105 39930 40226 51017 60001 333 11012 21085 70000 555 33420 40161
AAXX 22064 85201 11257 82405 10059 20049 36291 57014 60051 79196 8572/ 333 56000 59004 82706 83610 88457
AAXX 22064 85223 32570 60000 10133 20105 37502 47121 57012 81536 333 56000 59017 81627 86070
AAXX 22064 85244 32970 53212 10240 20222 39636 40063 58016 80001 333 56009 59021 85070
AAXX 22064 61972 16/// /3305 10279 20231 40117 60004 333 20236 55/// 58006 90710 91109 555 60005
AAXX 22064 43466 22470 70504 10274 20229 30092 40104 8217/ 333 58011 60007 70019 82818 87460
AAXX 22061 40700 12960 01503 10060 21010 30127 40218 53018 60001 333 30104 70000
AAXX 22061 40723 11950 10000 10006 21100 38974 40302 51008 60001 70500 80070 333 3/112 41999 70000
AAXX 22061 40726 11609 80000 11016 21018 38723 40305 53008 60001 74644 8452/ 333 34105 70000 84635 88458
AAXX 22061 40727 12960 30000 11006 21023 38648 40427 52108 60001 80001 333 34109 70000 83070
AAXX 22061 40734 11340 71502 10074 20056 30237 40211 52007 60001 71022 87600 333 30101 50090 70000 87707
AAXX 22061 40737 11958 40000 10048 20033 30198 40217 51013 60001 71010 81032 333 31103 50041 70000 84069
AAXX 22061 40741 12960 01103 10012 21061 39943 40296 54000 60001 333 30105 70000
AAXX 22061 40780 12965 31003 10078 21074 38744 40258 50007 60001 82302 333 34102 5//// 70000 82359 83070
AAXX 22061 40791 12965 10000 10042 21154 39442 40300 53006 60001 81030 333 30106 5//// 70000
AAXX 22061 40792 12970 10000 10050 21129 38781 40288 51011 80001 333 30108 70000 81070
AAXX 22061 40794 12960 00000 10114 20063 30146 40246 53013 60001 90545 333 30001 50241 70000
AAXX 22061 40812 12960 00000 10114 20038 39849 40230 52010 60001 333 30004 50261 70000
AAXX 22061 40829 11940 00602 10011 21236 39716 40325 50006 60001 70500 333 36114 5///1 70000
AAXX 22061 40833 11957 20000 10118 20058 30213 40246 52010 60001 70500 80005 333 30003 50181 70000 82270
AAXX 22061 40835 12965 10000 10124 21003 39402 40246 53007 60001 80001 333 30101 50401 70000 81068
AAXX 22061 40845 12960 03602 10180 20105 30226 40231 52014 60003 80001 90545 333 30011 50241 70000 82070
AAXX 22061 40882 12960 11003 10218 20105 30189 40224 51012 60001 80001 333 30011 50681 70000 81070
AAXX 22061 40889 12960 00607 10222 20096 30227 40232 52019 60001 222// 00250 20401 333 30019 50901 70000
AAXX 22061 40890 12965 00605 10224 20038 30211 40219 51020 60003 222// 00222 20301 333 30017 50660 70000
AAXX 22061 40893 12962 00302 10198 21088 30221 40227 51014 60001 222// 00390 20501 333 30013 50601 70000
AAXX 22061 40897 14950 00704 10182 21159 30219 40233 51015 60001 70500 333 30007 50401 70000
AAXX 22061 48826 31756 72501 10235 20159 30037 40172 58036 71022 875// 333 59004 87697
AAXX 22061 48839 32997 70510 10191 20127 30109 40175 58028 80008 222// 00209 2//03 333 59001 87299 91116 9150 5
AAXX 22061 48830 31740 73604 10185 20082 39878 40188 57040 71022 875// 333 58002 87697
AAXX 22061 48808 32470 12301 10201 20117 39903 40188 57041 81100 333 58002 81894
AAXX 22061 28216 32899 72003 11076 21148 39976 40269 57003 87010 333 21072
AAXX 22061 28428 32599 82005 11086 21170 30139 40334 57005 83531 333 21081
AAXX 22061 28451 32998 82203 11095 21185 30183 40351 57001 83047 333 21095
AAXX 22061 28541 32984 72502 11055 21200 39843 40354 54000 80001 333 21064
AAXX 22061 28655 32998 72209 11112 21183 30165 40402 57006 82032 333 21135
AAXX 22061 28756 32998 72105 11167 21203 30285 40448 56005 80001 333 21169
AAXX 22061 29557 41596 82405 11101 21145 30074 40354 57018 78582 883//
AAXX 22061 29625 42598 62504 11134 21177 30189 40381 57005 84501
AAXX 22061 29813 42999 82203 11145 21196 30208 40401 58007 82032
AAXX 22061 29822 42997 22304 11163 21197 30247 40424 57003 82030
AAXX 22061 29915 42998 52704 11138 21190 30270 40440 57002 80001
AAXX 22061 36020 42998 32105 11172 21206 30234 40452 57006 80001
BBXX 41053 22061 99185 70661 46/// /0710 10264 40165 58013 90600 22200 00271 10805 70027 333 91213
AAXX 22064 13610 11556 73620 10016 21029 39703 40137 57014 60002 71022 87500 333 20000 31/// 87626
AAXX 22061 23226 11360 82107 11090 21115 39953 40176 57004 69960 77172 887// 333 21098 85709
AAXX 22061 23701 11360 81901 11076 21089 30055 40190 58005 60030 77172 8802/ 333 21089 88508
AAXX 22061 28909 32497 81607 11076 21160 30202 40306 57011 8252/ 333 21092 91012 91113
AAXX 22064 60595 36/// /0000 11451 333 21451
AAXX 22064 60381 36/// /1701 10082 20068 333 20082
AAXX 22064 60639 36/// /0000 10016 21097 333 20009
AAXX 22064 60605 36/// /2601 10092 21043 333 20085
AAXX 22064 13619 11540 81804 11024 21024 39329 42724 57011 69952 77072 885// 333 21052 47997 88626
BBXX 46241 22061 99330 71173 46/// ///// 1//// 90541 22200 00144 11302 20601 326// 41301 70008
BBXX 41053 22061 99185 70661 46/// /0710 10262 40166 90550 333 91212
BBXX 41053 22061 99185 70661 46/// /0710 10262 40167 90540 333 91212
BBXX 46249 22061 99338 71197 46/// ///// 1//// 90612 22200 00146 11402 20502 325// 41402 70011
BBXX 46248 22061 99461 71247 46/// ///// 1//// 90604 22200 00096 11304 21003 329// 41303 70021
BBXX 46244 22061 99409 71244 46/// ///// 1//// 90605 22200 00094 11306 20805 329// 41303 70029
BBXX 46240 22061 99366 71219 46/// ///// 1//// 90612 22200 00123 11103 21001 335// 41102 70013
BBXX 46237 22061 99378 71226 46/// ///// 1//// 90610 22200 00109 11404 21002 327// 41403 70021
BBXX 46212 22061 99408 71243 46/// ///// 1//// 90612 22200 00094 11306 20804 329// 41304 70029
BBXX 46216 22061 99343 71198 46/// ///// 1//// 90557 22200 00143 11402 21002 327// 41402 70012
AAXX 22064 89667 46/// /1929 11046 39883 4//// 5////
AAXX 22064 89667 46/// /1825 11043 29097 39885 4//// 5////
AAXX 22061 56146 32780 21602 10077 21173 36674 57046 81102 333 05100 21103
AAXX 22061 56444 32980 00202 10084 21152 36787 57026 333 05101 21061
AAXX 22061 56492 11450 83202 10081 20059 39840 40257 57036 69911 76066 885// 333 05252 20072
AAXX 22061 56571 32680 21603 10119 21009 38389 57048 82400 333 05152 20040
AAXX 22061 57799 32761 83204 10074 20035 30182 40274 57027 885// 333 20070
AAXX 22061 57866 32760 80204 10073 21006 30068 40281 57033 885// 333 20060
AAXX 22061 57957 31958 00206 10106 20003 30055 40258 57038 70500 333 20076
AAXX 22061 57993 32760 73403 10096 20031 30084 40255 57029 875// 333 20073
AAXX 22061 58027 32961 22902 10047 21127 30260 40314 57035 80002 333 21038
AAXX 22061 58141 32964 70204 10046 21119 30297 40317 57030 80002 333 21016
AAXX 22061 58265 32566 23406 10067 21027 30285 40293 57024 82500 333 20036
AAXX 22061 58472 32480 13610 10068 21006 30169 40266 57027 81100 333 20065 91117 91534
AAXX 22061 58477 32470 63404 10073 21027 30220 40266 57024 86100 333 20070
AAXX 22061 58527 11660 83602 10091 20018 30191 40269 57028 69941 70060 885// 333 20066
AAXX 22061 58633 11750 80704 10075 20028 30165 40268 57026 69901 70560 885// 333 20065
AAXX 22061 58666 31558 73609 10087 20007 30142 40246 57023 70500 8114/ 333 20078 91118 91536
AAXX 22061 58725 11760 82503 10079 20043 39979 40248 57024 69901 70060 885// 333 20072
AAXX 22061 58921 31957 83203 10116 20065 39974 40226 57030 71000 8807/ 333 20076
AAXX 22061 59082 31657 33203 10136 20025 30079 40228 57042 70500 83500 333 20081
AAXX 22061 59211 32965 83202 10146 20072 30013 40223 57038 8807/ 333 20132
AAXX 22061 59265 31957 00404 10166 20033 30069 40208 57040 70500 333 20109
AAXX 22061 59293 32965 00404 10170 20018 30112 40198 57038 333 20106
AAXX 22061 59501 32965 03602 10204 20078 30154 40175 57032 333 20150
AAXX 22061 59663 32960 00205 10202 20047 30067 40174 57036 333 20156
AAXX 22061 59838 32762 70406 10252 20131 30140 40150 57033 875// 333 20202
AAXX 22061 59948 32480 70708 10199 20143 39670 40156 57025 878// 333 20175
AAXX 22061 59981 11580 70407 10254 20195 30123 40130 57028 69921 70080 8684/ 333 20230
BBXX 46223 22061 99335 71178 46/// ///// 1//// 90600 22200 00150 11302 21001 326// 41302 70010
BBXX 46211 22061 99469 71242 46/// ///// 1//// 90606 22200 00081 11204 21002 328// 41203 70020
BBXX 46231 22061 99327 71174 46/// ///// 1//// 90554 22200 00150 11302 21002 326// 41302 70012
BBXX 46222 22061 99336 71183 46/// ///// 1//// 90556 22200 00151 11302 20601 327// 41302 70011
BBXX 46242 22061 99332 71174 46/// ///// 1//// 90558 22200 00144 11301 20601 323// 41301 70007
AAXX 2206/ 89327 46/// ///// 11016 39553 4//// 5////
AAXX 2206/ 89108 46/// ///// 11209 36959 4//// 5////
AAXX 2206/ 89872 46/// ///// 11033 39815 4//// 5////
AAXX 2206/ 89869 46/// ///// 11048 39860 4//// 5////
AAXX 2206/ 89329 46/// ///// 11081 38783 4//// 5////
AAXX 2206/ 89799 46/// ///// 11191 4//// 5////
AAXX 2206/ 89332 46/// ///// 11041 39210 4//// 5////
AAXX 2206/ 89769 46/// ///// 11038 30240 4//// 5////
AAXX 2206/ 89314 46/// ///// 11144 38264 4//// 5////
AAXX 2206/ 89828 46/// ///// 11213 36483 4//// 5////
AAXX 2206/ 89108 46/// ///// 11206 36959 4//// 5////
AAXX 2206/ 89872 46/// ///// 11030 39816 4//// 5////
AAXX 2206/ 89869 46/// ///// 11049 39860 4//// 5////
AAXX 2206/ 89866 46/// ///// 11004 39782 4//// 5////
AAXX 2206/ 89329 46/// ///// 11084 38783 4//// 5////
AAXX 2206/ 89799 46/// ///// 11185 4//// 5////
AAXX 2206/ 89332 46/// ///// 11041 39208 4//// 5////
AAXX 2206/ 89769 46/// ///// 11039 39858 4//// 5////
AAXX 2206/ 89314 46/// ///// 11141 38261 4//// 5////
AAXX 2206/ 89828 46/// ///// 11203 36483 4//// 5////
AAXX 2206/ 89879 46/// ///// 10009 39755 4//// 5////
AAXX 2206/ 89879 46/// ///// 10008 39755 4//// 5//// 90610
AAXX 2206/ 89868 46/// ///// 11056 39847 4//// 5////
AAXX 22061 31300 41999 80402 11189 21222 39887 40197 52001 70273 8807/ 333 91110
BBXX 46221 22061 99339 71186 46/// ///// 1//// 90545 22200 00148 11302 20501 326// 41301 70009
AAXX 22064 48350 32664 20403 10272 20186 39826 40124 57034 82101 333 59010
AAXX 22061 48806 32570 60903 10212 20111 39397 40163 57031 862// 333 59003 86895
AAXX 22064 61017 31958 51025 10167 21005 39760 40174 7072/ 80002 333 00100 20070 50434 55099 58010 85080
AAXX 22064 61024 32960 30408 10160 21024 39594 40160 80002 333 00800 20130 51501 58017 83080
AAXX 22064 61036 32965 70406 10195 21028 39899 40138 80008 333 01800 20194 51001 50864 55101 58011 87280
AAXX 22064 61043 32960 70610 10170 21047 39703 40146 80008 333 0//00 20169 51321 55103 58018 87280
AAXX 22064 61045 32965 70602 10150 21039 39656 40160 80008 333 01200 20150 50734 55103 58010 87280
AAXX 22064 61049 32960 70000 10150 21004 39822 40146 80008 333 01500 20150 50991 50724 55104 58015 87280
AAXX 22064 61052 32960 53606 10170 21002 39884 40142 80002 333 01400 20160 50891 55101 58005 85080
AAXX 22064 61075 32960 51002 10195 21030 39830 40140 80002 333 01700 20194 50681 50694 55103 58015 85080
AAXX 22064 61080 32960 70804 10142 21020 39715 40149 80008 333 01200 20140 50951 50954 55102 58008 87280
AAXX 22064 61090 32960 50204 10162 21046 39634 40149 80002 333 01400 20160 51111 50784 55107 58010 85080
AAXX 22064 61091 32965 50000 10120 20032 39701 40163 80002 333 00700 20119 50581 50494 55104 58010 85080
AAXX 22064 61096 31940 73602 10155 21045 39769 40155 70522 80008 333 01400 20150 50861 50784 55102 58010 87280
AAXX 22064 61099 32960 70206 10200 20013 39890 40119 80008 333 01600 20195 50971 55100 58005 87280
AAXX 22064 13624 11965 82202 10044 20032 30022 40061 57015 60102 70266 8802/ 333 20040 32/// 88460
AAXX 22061 22845 11498 70401 11065 21077 39991 40154 58004 60020 70272 85530 333 21064 84711
BBXX 61002 22064 99421 10047 46/// ///35 10144 2//// 40212 52028 22200 00138 10808 70041 555 1/046
BBXX 62087 22061 99547 10068 46/// /9900 10094 20091 4//// 5//// 22240 00083
AAXX 22064 60645 36/// /0000 10094 21071 333 20078
AAXX 22064 78922 46/// /0921 10264 20207 30098 40143 58014
AAXX 22064 60621 36/// /0505 10048 21088 333 20047
AAXX 22064 60619 36/// /0000 10044 21076 333 20043
AAXX 22064 60663 36/// /1104 10089 21028 333 20087
AAXX 22064 60612 36/// /3309 10055 21041 333 20049
AAXX 22064 60738 11006 80620 10072 20072 38927 48492 55000 60064 76066 887// 333 20044 70058 88700
AAXX 22061 50353 32970 03202 11209 21297 39980 40224 52003 333 21242
AAXX 22061 50557 32970 03403 11199 21295 39915 40249 57001 333 21310
AAXX 22061 50756 32960 72703 11192 21243 39933 40261 54000 80002 333 21241
AAXX 22061 50949 32965 03205 11134 21297 30095 40280 57006 333 21190
AAXX 22061 50963 32960 22707 11159 21210 30097 40245 52009 80002 333 21181
AAXX 22061 50978 11575 43206 11131 21209 39838 40208 52008 69901 70070 82202 333 21140
AAXX 22061 51087 NIL
AAXX 22061 51156 NIL
AAXX 22061 51644 NIL
AAXX 22061 51656 NIL
AAXX 22061 51886 32980 71101 11091 21255 37112 57010 80002 333 00053 21193
AAXX 22061 52602 32980 30000 11047 21254 37261 57018 80002 333 00153 21216
AAXX 22061 52713 32980 02501 11047 21232 36888 57020 333 00052 21188
AAXX 22061 52754 32980 01603 11061 21166 36758 57026 333 05200 21183
AAXX 22061 52818 32980 02902 11043 21223 37226 57015 333 00053 21146
AAXX 22061 52836 32980 00401 11021 21233 36868 57023 333 05103 21166
AAXX 22061 52955 32980 02902 11036 21187 36942 57032 333 05151 21204
AAXX 22061 53068 32980 02203 11095 21171 39114 40341 57038 333 05501 21207
AAXX 22061 53276 32980 12506 11092 21170 38913 40359 57030 80002 333 21199
AAXX 22061 54135 32980 02905 11097 21275 30066 40306 57019 333 21181
AAXX 22061 54236 32980 02904 11075 21266 30194 40307 57027 333 21149
AAXX 22061 54539 32980 02903 10009 21190 30294 40309 57037 333 21074
AAXX 22061 54662 32978 03605 11048 21179 30196 40317 57019 333 21064
AAXX 22061 54753 32570 23606 10009 21143 30308 40315 57020 82400 333 21005
AAXX 22061 54857 32570 63407 10014 21092 30213 40310 57027 81102 333 21028
AAXX 22061 57067 32962 60201 10042 21114 39611 40317 57049 80002 333 21048
AAXX 22061 57178 32964 20000 10068 21096 30155 40319 57040 80001 333 20006
AAXX 22061 57245 32965 70203 10085 21081 39934 40294 57041 8703/ 333 00051 20025
AAXX 22061 57297 31956 60401 10049 21036 30173 40319 57035 71000 86030 333 21003
AAXX 22061 51087 31980 02201 11204 21240 39447 40543 54000 77600 333 05253 21274
AAXX 22061 51156 32980 01101 11110 21187 38853 40478 57001 333 05252 21181
AAXX 22061 51644 32960 71102 11049 21125 39097 40442 52006 80002 333 05151 21134
AAXX 22061 51656 32980 03201 11037 21145 39276 40440 52003 333 05151 21124
BBXX LAXP4 22064 99379 70266 41098 11719 00/// 10130 2013/ 40277 56009 70222 87/// 22253 00160 20501 317// 40203 80130 NNNN
BBXX 64045 22064 99591 70117 46/// /2119 10102 20096 40014 58016 22200 00101 10911 70053
BBXX 62105 22064 99554 70121 46/// /2226 10119 20106 40122 56012 22200 00107 10809 70045 333 90710 91133
BBXX 62081 22064 99510 70134 46/// ///// 10128 20114 40234 58014 22200 00119 10707 70034
BBXX 62442 22064 99490 70164 46/// /2023 1//// 2//// 40240 57012 22200 00125 333 90710 91131
BBXX 62029 22064 99487 70125 46/// /2119 10133 20111 40250 58046 22200 00129 10705 70027
BBXX 62163 22064 99475 70084 46/// /2105 10129 20095 40328 57003 22200 00127 10905 70025
BBXX 62001 22064 99452 70050 46/// /0107 10134 20078 40338 55000 22200 00141 10704 70022
BBXX 64046 22064 99606 70049 46/// /2618 10087 20067 40024 51009 22200 00075 10808 70039
BBXX 62301 22064 99524 70047 46/// /2511 10097 20088 40250 52002 22200 00088 10503 70017
BBXX 62303 22064 99516 70051 46/// /2612 10118 20094 40262 57002 22200 00110 10604 70019
BBXX 63110 22063 99595 10015 41/97 /2821 10099 40057 700// 8//// 22200 10604 70020
BBXX 63055 22064 99606 10016 47897 /2817 10089 20087 40041 52025 700// 22200 10604 70022
BBXX 62112 22064 99584 70002 47497 /2611 10099 20088 40098 52014 700// 22200
BBXX PJAI 22064 99581 70014 47598 /2515 10114 20075 40099 52015 700// 22200
BBXX 62111 22064 99580 70003 46/// /2619 10105 20079 40110 52013 22200 10503 70014
BBXX 63056 22064 99597 10016 47597 /2618 10097 20085 40047 52021 700// 22200 10504 70020
BBXX 63110 22064 99595 10015 47596 /2816 10099 20085 40063 52023 700// 22200 10504 70020
BBXX 63057 22064 99592 10015 47496 /2721 10100 20081 40069 52019 700// 22200 10604 70020
BBXX 62128 22064 99587 10014 47597 /2722 10097 20088 40090 52026 700// 22200 10504 70018
BBXX 62129 22064 99584 10003 46/// ///// 10095 20087 40098 53018 22200
BBXX 62113 22064 99584 10002 47396 /2615 10094 20085 40098 53014 700// 22200
BBXX 63108 22064 99608 10017 47597 /2920 10094 20060 40033 52026 704// 22200 10704 70022
BBXX 63106 22064 99610 10017 46/// /2817 10092 40031 52032 22200
BBXX 63105 22064 99610 10017 47596 ///// 10100 20065 40031 52031 700// 22200
BBXX 63113 22064 99610 10017 46/// /2814 10100 20067 40037 52027 22200 10606 70028
BBXX 63112 22064 99611 10010 47496 /2818 10098 20055 40025 52029 700// 22200 10605 70026
BBXX 63107 22064 99611 10017 46/// /2813 10100 40028 52030 22200
BBXX 63101 22064 99612 10009 46/// /2915 10106 20068 40022 52030 22200
BBXX 63103 22064 99612 10011 46/// /2819 10097 20053 40029 52027 22200 10605 70027
BBXX 63104 22064 99612 10016 47597 /2717 10092 20083 40023 52031 700// 22200
BBXX 63117 22064 99613 10011 47597 /2718 10103 20048 40023 52027 700// 22200
BBXX 63115 22064 99616 10013 47597 /2520 10097 20062 40016 52028 700// 22200 10706 70032
BBXX MWYG6 22064 99603 70040 47997 /2618 10109 700// 22200
BBXX 64041 22064 99607 70026 47596 /2525 10094 20055 40029 51016 700// 22200 10807 70034
BBXX 62133 22064 99571 10009 46/// /2621 10103 20078 40116 52015 22200 10504 70018
BBXX 62119 22064 99570 10019 47597 /2919 10103 20090 40124 52018 700// 22200 10403 70016
BBXX 62152 22064 99570 10018 47/97 /2611 10101 20082 40126 52017 700// 22200 10403 70017
BBXX 62154 22064 99564 10022 46/// /2918 10100 20091 40125 52015 22200
BBXX 62120 22064 99564 10021 47697 /2921 10100 40126 52015 700// 22200
BBXX 62132 22064 99564 10020 46/// /3019 10103 20091 40134 52015 22200
BBXX 62123 22064 99563 10022 47697 /2817 10103 20088 40129 52018 700// 22200
BBXX 62165 22064 99540 10009 47897 /2721 10101 20079 40185 51014 700// 22200 10504 70018
BBXX 62127 22064 99540 10007 47997 ///// 10102 20079 40178 52015 700// 22200 10403 70016
BBXX 62131 22064 99539 10012 46/// /28// 10101 20083 40176 51013 22200
BBXX 62149 22064 99537 10011 47998 /2824 10104 20084 40184 51014 700// 22200 10503 70017
BBXX 62148 22064 99536 10015 46/// /2822 10098 20080 40194 51021 22200
BBXX 62150 22064 99536 10007 47997 /2729 10103 20081 40199 51018 700// 22200 10503 70014
BBXX 62121 22064 99535 10027 46/// ///// 22200
BBXX 62144 22064 99534 10017 47996 /2823 10096 20079 40199 51018 700// 22200 10403 70017
BBXX 62145 22064 99531 10028 47497 /2922 10098 20076 40195 52016 700// 22200 10402 70012
BBXX 62142 22064 99530 10021 47896 /3022 10093 20077 40188 53012 710// 22200 10403 70014
BBXX ZQSD5 22064 99583 10007 46/// /2511 10095 20085 40100 53018 22200 10703 70017
BBXX 62114 22064 99583 10000 46/// /2518 10099 20085 40096 53016 22200
BBXX 62134 22064 99580 10014 47597 /2618 10099 20086 40104 52016 700// 22200 10503 70015
BBXX 62102 22064 99579 10018 46/// /2817 10108 20088 40102 52017 22200 10503 70017
BBXX 62117 22064 99579 10000 47598 /2621 10103 20084 40102 51009 700// 22200 10403 70013
BBXX 62143 22064 99577 10018 47597 /2819 10100 20091 40114 51014 700// 22200 10503 70016
BBXX 62118 22064 99577 10009 47597 /2618 10109 20086 40101 52014 700// 22200 10503 70016
BBXX 62155 22064 99577 10007 47598 /2620 10107 20092 40111 51011 700// 22200 10503 70014
BBXX 62116 22064 99576 10011 47598 /2719 10105 20086 40106 52015 700// 22200 10503 70016
BBXX 62104 22064 99574 10013 47597 /2819 10101 20087 40108 52015 700// 22200
BBXX 62153 22064 99573 10020 47597 /2609 10099 20086 40113 51019 700// 22200 10503 70016
BBXX 62122 22064 99573 10016 47597 /2817 10103 20084 40115 51014 700// 22200 10503 70016
BBXX 62140 22064 99573 10013 46/// /28// 10103 20087 40108 52013 22200
BBXX 62146 22064 99572 10021 47/96 /0000 10101 20082 40117 52016 704// 22200 10503 70016
BBXX 62164 22064 99572 10008 47597 /2617 10117 20091 40116 52013 700// 22200 00094 10504 70020
BBXX PJGO 22064 99571 10022 47597 /2608 10099 20091 40118 52021 700// 22200
BBXX 9HA2950 22064 99349 70066 41398 11810 10153 20133 40277 53005 70200 811// 22253 00170 20401 320// 40602 5//// 80142
BBXX 62094 22064 99517 70067 46/// /2417 10119 20094 40260 57002 22200 00106 10503 70017 333 90710 91126
BBXX 62103 22064 99499 70029 46/98 /3127 10118 20093 40276 52002 22200 00123 10602 70012 333 90710 91132
BBXX 62170 22064 99514 10020 46/97 /2722 10111 20093 40220 52008 22200 00110 10502 70008 333 90710 91129
BBXX 62304 22064 99511 10018 46/98 /2714 10122 20087 40229 53005 22200 00110 10501 70004
BBXX 62305 22064 99504 10000 46/98 /2923 10118 20098 40261 53004 22200 00120 10601 70007 333 90710 91129
BBXX 62103 22064 99499 70029 46/98 /3126 10118 20090 40282 53006 22200 00123 10602 70012 333 90710 91133
BBXX 63119 22064 99583 10009 41497 72814 10091 20080 40097 52030 78172 8772/ 22200 20302 326// 40505 5////
AAXX 22061 51076 32980 01601 11216 21256 39534 40533 54000 333 05257 21278
AAXX 22061 51243 11965 62202 11175 21201 39902 40527 57003 69901 77000 80002 333 05154 21214
AAXX 22061 51463 32970 02002 11115 21168 39288 40502 57007 333 05102 21190
AAXX 22061 51573 32980 02001 11045 21149 30399 40446 57009 333 05153 21111
AAXX 22061 51709 32860 70702 11043 21084 38854 40420 52008 86502 333 05251 21079
AAXX 22064 41114 42960 00000 10144 21030 38014 48553 333 20050 58002 555 04410 50200
AAXX 22064 40582 31957 12603 10114 20014 40244 52014 70500 80001 333 55310 00402 10000 20998 30313 41052 51329 61311 55407 40686 81070 90401 91003 91105 91205 91303
AAXX 22064 41150 NIL
AAXX 22064 41168 NIL
AAXX 22064 41170 42964 03308 10209 20140 30228 40241 333 20174 58005 555 00140
AAXX 22064 41176 NIL
AAXX 22064 41184 NIL
AAXX 22064 41194 NIL
AAXX 22064 41196 NIL
AAXX 22064 41198 NIL
AAXX 22064 41210 NIL
AAXX 22064 41216 NIL
AAXX 22064 41217 NIL
AAXX 22064 41218 NIL
AAXX 22064 41226 NIL
AAXX 22064 41244 NIL
AAXX 22064 41246 32960 01803 10223 20088 30224 40229 333 20142 3/016 59001
AAXX 22064 41254 36/// /9902 10121 21076 38270 48275 333 0E001 20017 58064
AAXX 22064 41256 32960 01404 10222 20048 30223 40233 333 20139 58001
AAXX 22064 41258 36/// /1204 10224 20044 30221 40225 333 0E/// 20195 58003
AAXX 22064 41268 31958 03609 10227 20061 30209 40225 70600 333 20190 3/019 58007
AAXX 22064 41312 36/// /0113 10246 20113 30163 40203 333 0E/// 20217 58009
AAXX 22064 41314 32960 23007 10193 20068 39716 40226 82030 333 20136 59003 82359
AAXX 22064 41316 2660 13611 10244 20103 30180 40206 81500 333 20209 58008 81630
AAXX 22064 41404 42960 00000 10123 21059 37903 48564 333 20020 30102 58000
AAXX 22064 41407 42970 01808 10156 21094 38986 48535 333 20062 30/// 58008
AAXX 22064 41431 41958 01812 10256 20221 30150 40163 70544 333 20210 30/// 58006
AAXX 22064 41466 41456 41204 10172 20115 38602 48502 71044 84600 333 20138 30/// 58009 84715
AAXX 22064 41477 42960 01812 10256 20185 333 20235 30///
AAXX 22064 41480 42560 30817 10265 20168 30195 40198 83500 333 20238 30/// 58007 83620
AAXX 22061 51379 11762 22001 11133 21166 40510 57003 69901 72277 82500 333 05100 21227
AAXX 22061 51467 32980 01402 11078 21206 38352 57004 333 05151 21150
AAXX 22061 51495 32980 02002 11065 21182 40446 57001 333 05252 21136
BBXX 42363 22061 99282 70892 46/// /1505 10222 20200 40159 90630 333 91205
BBXX 42364 22061 99291 70881 46/// /1607 10211 20200 40163 90615
BBXX 41115 22061 99184 70673 46/// ///// 1//// 90605 22200 11504 21003 336// 41504 70022
BBXX 41114 22061 99276 70802 46/// ///// 1//// 90616 22200 00238 11402 21001 307// 41401 70010
BBXX SHIP 22064 99144 11420 41398 50918 10278 20234 40058 57020 71561 83463 22213 00293 10605 20102 308// 40804
AAXX 22061 51133 32980 01601 11120 21176 39781 40500 57009 333 00200 21212
AAXX 22061 51431 11775 70201 11117 21168 39611 40482 57007 69901 70070 82502 333 00101 21168
AAXX 22061 51747 11970 62203 11100 21131 39082 40478 52004 69911 70070 80002 333 00053 21179
AAXX 22061 52203 32980 01602 11055 21182 39492 40441 57005 333 05252 21179
AAXX 22061 54094 32670 62906 11140 21259 39925 40245 52014 81102 333 21144
BBXX 44098 22061 99428 70702 46/// ///// 1//// 90607 22200 00087 10703 20703 311// 41101 70014
AAXX 22061 29998 42799 81503 11108 21181 38648 48510 57017 85502
AAXX 22061 30385 42999 00000 11318 21335 39719 40320 58003
AAXX 22061 30469 42999 70000 11286 21315 39468 40308 57009 80002
AAXX 22061 30636 41997 81101 11217 21235 39633 40290 57008 77177 86031
AAXX 22061 30650 42999 50401 11263 21301 39081 40303 58009 82041
AAXX 22061 30664 41999 00000 11268 21307 39217 40303 58012 70240
AAXX 22061 30781 42999 00000 11267 21306 39774 40294 57021
AAXX 22061 30777 42998 02502 11256 21303 39577 40293 58013
AAXX 22061 30844 41599 82710 11106 21159 39231 40234 57007 73683 86307 333 86930
AAXX 22061 30925 42899 51001 11086 21151 39283 40279 57014 82061
AAXX 22061 31371 41999 62703 11224 21272 39934 40224 52005 70272 86010
AAXX 22061 31388 42999 01801 11194 21220 39922 40202 52011
AAXX 22061 31478 NIL
AAXX 22061 31532 41999 80202 11213 21238 39841 40209 58002 70272 83027
AAXX 22061 31594 42998 82902 11213 21246 30035 40220 52002 82031
AAXX 22061 31655 41996 80000 11173 21185 30120 40170 57009 77172 8802/
AAXX 22061 31754 42998 80000 11174 21208 39650 40180 57011 80002
BBXX 51205 22061 99210 71564 46/// ///// 1//// 90618 22200 00240 10805 20805 333// 41202 70027
BBXX 46114 22061 99364 71222 46/// ///// 1//// 90604 22200 00120 11406 21004 330// 41405 70032
AAXX 22061 91945 16/// /0810 10261 20224 30135 40140 52019 60011 555 59006 60064
AAXX 22061 22438 32572 51905 10004 21016 30105 40127 58002 85400 333 21006
AAXX 22061 28465 32999 82005 11122 21174 30288 40371 57009 80001 333 21134
AAXX 22061 28383 32998 72304 11061 21147 30237 40324 57006 87070 333 21084
AAXX 22061 23929 32576 82603 11043 21098 30184 40252 57001 86931 333 21055
AAXX 22061 28791 32999 82405 11128 21180 30275 40431 57006 80007 333 21159
AAXX 22061 28696 31980 62307 11113 21197 30258 40408 57004 73631 80009 333 21142
AAXX 22061 28588 31982 82005 11084 21197 30230 40397 57002 73631 8802/ 333 21109 91113
AAXX 22061 28688 32998 72404 11117 21179 30257 40428 57003 87070 333 21145
AAXX 22061 28586 31998 82506 11072 21171 30223 40379 57003 73632 8801/ 333 21108
BBXX 51203 22061 99208 71570 46/// ///// 1//// 90613 22200 00249 11102 21001 328// 41101 70008
BBXX 52200 22061 99134 11448 46/// ///// 1//// 90615 22200 00288 10905 20904 311// 41101 70023
BBXX 51201 22061 99217 71581 46/// ///// 1//// 90612 22200 00240 10704 20703 334// 41102 70019
AAXX 22061 34300 11394 82508 11002 21011 39905 40100 52035 69952 78687 883// 333 21002
AAXX 22061 33325 12397 82802 11013 21027 39902 40178 52018 69902 885// 333 21018 43004 87709
AAXX 22061 38388 32998 00904 11050 21140 30250 40324 53005 333 21084
AAXX 22061 38392 32998 81207 11082 21139 30256 40367 53004 80005 333 21129
AAXX 22061 38507 32998 80000 10010 21109 30135 40241 52025 80001 333 21020
AAXX 22061 38511 32998 10907 11030 21116 30119 40277 51003 80001 333 21052
AAXX 22061 38545 32998 00804 11042 21116 30178 40364 57005 333 21119
AAXX 22061 38647 32997 10912 11032 21120 30198 40242 52014 81050 333 21120
AAXX 22061 38656 32998 70905 11015 21049 30179 40294 57009 80002 333 21059
AAXX 22061 38687 32997 00904 11013 21089 30121 40368 54000 333 21103
AAXX 22061 38750 31993 00901 11004 21004 30253 40223 52011 74444 333 21012
AAXX 22061 38763 31997 00908 11036 21116 30150 40260 52026 70130 333 21050
AAXX 22061 38774 32998 20904 11026 21042 30076 40281 52001 80001 333 21072
AAXX 22061 38799 32997 01109 11028 21094 30106 40352 53002 333 21095
AAXX 22061 38806 32997 01403 11020 21105 30094 40369 52001 333 21094
AAXX 22061 38880 32997 20907 11027 21102 30012 40279 50001 80001 333 21070
AAXX 22061 38886 32997 51006 10017 21030 30058 40294 52001 80004 333 21058
AAXX 22061 38895 32996 31105 11002 21084 30026 40329 54000 80009 333 21070
AAXX 22061 38911 32997 00606 11004 21041 30049 40357 58006 333 21068
AAXX 22061 38915 32997 00912 10018 21035 30022 40360 58010 333 21050
AAXX 22061 38974 32998 51603 10030 21028 39934 40276 57008 85080 333 21059
AAXX 22061 38987 32996 32402 11025 21041 39542 40321 57005 80001 333 21090
AAXX 22063 61701 32960 00913 10188 20036 40129 80000 333 20170 50581 55099 58003
AAXX 22063 61705 NIL
AAXX 22063 61707 NIL
AAXX 22063 61711 NIL
AAXX 22063 61712 32960 00909 10190 20051 4//// 80000 333 20150 50401 55025 5////
AAXX 22063 61717 NIL
AAXX 22063 61720 NIL
AAXX 22063 61721 NIL
AAXX 22063 61722 NIL
AAXX 22063 61731 NIL
AAXX 22063 61733 NIL
AAXX 22064 40153 12960 20508 10084 20066 39103 48498 52002 60002 82080 333 20071 70000
AAXX 22064 40179 12960 50701 10125 20101 30141 40179 52001 60002 80004 333 20093 50161 55020 70000
AAXX 22064 40180 12960 49901 10132 20091 30132 40181 50001 60002 81031 333 20101 70000
AAXX 22064 40190 16/// ///// 10107 20098 39847 40183 52003 60002 333 20099 70000
AAXX 22064 40199 13/// /0406 10162 20103 30158 40181 52015 60002 333 20140 55020 70000
AAXX 22061 11101 11457 81804 10010 20007 39730 40274 52010 60112 75872 887// 333 10014 20005 44017 88717 93197
AAXX 22064 04203 46/// /3112 11166 21196 39966 49984 54000
AAXX 22064 04205 45/84 /2001 11224 21293 39950 49974 57008 333 11179 21226
AAXX 22064 04208 46/// /1112 11124 21158 39933 49979 52011
AAXX 22064 04213 46/// /1414 11149 21232 39873 49987 52008 333 11131 21150
AAXX 22064 04214 46/// /0905 11103 21159 39941 49974 52008
AAXX 22064 04224 45484 11010 11140 21187 39940 49974 52003 333 11125 21156 81/18
AAXX 22064 04228 NIL
AAXX 22064 04242 46/// /1021 11082 21147 39924 49940 57014
AAXX 22064 04253 46/// /1218 11073 21131 39916 49943 57017
AAXX 22064 04266 46/// /0912 11047 21091 39928 49966 57005
AAXX 22064 04285 46/// /3118 11054 21096 39955 49974 52014
AAXX 22064 04301 46/// ///// 11250 21287 30013 40018 57012
AAXX 22064 04313 46/// /0810 11118 21133 30015 40027 57018
AAXX 22064 04330 46/// /3321 11073 21095 39912 49930 57005
AAXX 22064 04351 46/// /2902 11131 21173 39865 49881 52007
AAXX 22064 04373 46/// /3131 11116 21175 39790 49883 52005
AAXX 22064 04382 46/// /2502 11069 21184 39866 49915 52001
AAXX 22064 04416 46/// ///// 11532 21548 36455 54000
BBXX 61002 22064 99421 10047 46/// ///35 10144 2//// 40212 52028 22200 00138 10808 70041 555 1/046
AAXX 22064 04048 41458 82507 10030 20003 49888 51001 76121 8472/ 555 3/629
AAXX 22064 13629 11640 80408 11016 21016 39011 42681 57006 60142 77177 8802/ 333 21030 47017 88533
BBXX SERW 22063 99236 70186 43/97 /0924 10205 2//// 40218 57006 70200 8//// 22252 06207 2//// 3//// 4////
BBXX MGGK4 22061 99248 70164 41998 00610 10195 20086 40237 55000 70200 80000 22214 00209 2//// 3//// 4//// 5//// 80138
BBXX TBWUK40 22063 99255 10566 41698 10000 10285 20184 40231 51018 70500 81100 22200 20000 307// 40501 5//// 80220
BBXX ELZU2 22064 99168 70219 41998 00310 00/// 10210 2017/ 40160 56010 70222 80/// 22253 0//// 20303 3//// 4//// 5//// 6//// 80180
BBXX A8QJ7 22064 99202 70201 41998 00815 10190 20156 40177 58016 7//00 80000 22213 2//// 3//// 4//// 5//// 80170
BBXX 3FMV6 22063 99168 30104 41998 31616 10180 20146 40118 53010 70111 80005 22244 06169 20803 80160
BBXX TBWUK42 22064 99335 30317 41297 81114 10240 20210 40083 57005 70552 85677 22213 20303 30400 40606 5//// 80220
BBXX C6IO9 22064 99298 70153 41898 43214 10180 20136 40282 53010 70100 8/065 22243 06193 20401 307// 40602 5//// 80155
BBXX PCIM 22064 99116 10654 41597 10224 10279 20209 40130 50002 70200 81110 22234 00276 20202 305// 40603 80230
BBXX PHQW 22063 99230 70173 41998 00816 10180 20110 40203 53003 7//00 80000 22283 00172 2//// 80139 90637
BBXX A8KH9 22064 99307 30166 41598 62010 10190 20175 40130 51150 70311 85797 22244 02180 20101 30103 40202 50303 80180
BBXX A8UX5 22064 99115 10618 41/97 /0512 10287 20218 40135 51011 76000 8/37/ 22264 04276 29902 336// 40405 80240
BBXX UBAU 22061 99124 70175 41798 40805 10265 40159 52004 70110 84034 22241 04250 20301
BBXX A8UU3 22064 99222 70271 41498 21016 10220 20190 40210 54000 70211 821// 22233 2//02 80200
BBXX 9V8797 22064 99059 10854 43/98 50514 10277 40090 53003 22224 00281 2//// 4////
BBXX SMGW 22061 99347 11762 43/98 82804 10133 40221 53031 22224 00183 2//// 4////
BBXX SHIP 22064 99539 11798 41598 51007 10000 21000 40016 55001 70222 84/// 90600 22214 00040 2//// 3//// 4//// 80000
BBXX WRYW 22064 99159 10711 41/97 ///15 10270 2023/ 40138 50000 705// 8//// 22235 00280 203// 3//// 405// 5//// 6//// 80240 ICE /////
BBXX DFNB2 22063 99143 10701 41597 70516 10295 20226 40140 50010 70500 87700 22234 00270 20402 80245
BBXX V2BE4 22061 99053 11437 41697 40710 10310 20254 40022 57015 70300 84461 22243 04300 20605 309// 40606 80270
BBXX 2ALD3 22063 99188 11230 41397 60120 10250 20236 40095 57080 70322 85798 22234 04300 20503 80240
BBXX DCCP2 22060 99052 11067 41398 80306 10265 20242 40080 57015 70222 8677/ 22254 00260 29903 302// 40805 5//// 80248
BBXX V7DI8 22063 99203 11212 41397 80432 10220 2021/ 40150 57030 70282 889// 22233 00240 20607 304// 40606 5//// 6//// 80210 ICE /////
BBXX MIBR 22064 99191 11180 41397 80324 10240 20194 40128 58020 70222 886// 22254 00243 20402 303// 40703 5//// 80210
BBXX A8UU2 22064 99232 11218 41596 80232 10200 20167 40113 55020 75865 8/879 22282 04250 20512 303// 40508 80180
BBXX DIHC 22063 99356 11495 41298 82727 10165 20094 40090 53005 72582 887// 22264 00200 20304 324// 40404 80125
BBXX DPCK 22063 99468 11538 41297 73215 11005 21005 40200 50010 73672 8677/ 22215 00020 20304 3//// 4//// 5//// 81005
BBXX MZER8 22060 99295 11224 41397 73615 10101 20009 40251 57020 70322 8576/ 22200 00129 20302 301// 40403 5//// 80063
BBXX SHIP 22064 99539 11798 41598 51007 10000 21000 40016 55001 70222 84/// 90600 22214 00040 2//// 3//// 4//// 80000
BBXX SHIP 22064 99082 11277 41698 53108 10280 20239 40043 57083 70211 8433/ 22284 00297 20000 336// 40404 80250
BBXX A8CN8 22060 99522 11740 41497 63409 10010 40020 52005 70222 867// 22263 00050 2//03 327// 4//03 5////
BBXX SHIP 22064 99526 11632 41/97 80125 11030 21061 40128 52022 77022 887// 90555 22264 00030 20503 301// 40604 81040
BBXX SHIP 22064 99379 11421 41297 62408 00/// 10100 20081 40072 57031 70222 85392 9//// 22243 00166 20401 310// 40402 5//// 6//// 80090 THNKS/B.REGARDS MASTER PACIFIC GLORY INM C - 443272110
BBXX DDZF2 22064 99198 11155 41397 50428 10235 20166 40140 58010 70222 82744 22214 00240 20806 305// 40804 80190
BBXX DGTX 22063 99330 11522 41598 42426 10192 20107 40128 56022 72586 8246/ 22264 00230 20505 322// 41004 80142
BBXX H9UY 22064 99224 71660 41899 40819 00/// 10240 40167 51020 70100 84131 9//// 22273 04250 20503 306// 40504 5//// 6//// 80210
BBXX BAREU06 22064 99450 70485 46/// ///// 40272 52012 22224
BBXX SFIR 22064 99448 70373 43/97 52732 10080 40208 51036 22223 00150 2//// 4////
BBXX 44255 22061 99473 70573 46/// /1912 10041 40141 57027 22200 00038 10706 70028 333 91214
BBXX 3EUS 22063 99206 71059 41192 70116 10210 2001/ 40130 51010 703// 86377 22274 04240 20504 331// 41206 5//// 6//// 80110 ICE /////
BBXX WJBJ 22063 99250 70737 41196 81116 10225 2020/ 40207 57003 78482 887// 22234 00263 20503 311// 40605 5//// 6//// 80210 ICE /////
BBXX 9HXD9 22064 99206 70834 41898 70921 10260 2//// 40110 54/// 70222 8549/ 22274 04290 20804 307// 4//// 5//// 6//// 8//// ICE /////
BBXX C6SE3 22064 99125 70693 41697 70929 10287 20270 40160 54/// 70322 87/9/ 22222 00305 20804 309// 41506 5//// 6//// 80274 ICE /////
BBXX J8PE4 22063 99115 70618 415// 53019 10280 2025/ 40120 50020 70311 85188 22244 00280 20704 330// 40402 5//// 6//// 80260 ICE /////
BBXX WDE9586 22063 99467 71300 43/98 /1821 10110 2007/ 40280 54000 7//// 8//// 22214 00100 2//// 3//// 4//// 5//// 6//// 80090 ICE /////
BBXX 44139 22061 99442 70571 46/// /1809 10075 40207 57032 22200 00060 10904 70021 333 91211
BBXX A8NQ5 22063 99442 70615 41597 40417 10070 20038 40060 55070 76066 8487/ 22254 04060 21203 80055
BBXX 9VAW8 22064 99274 70921 41798 21613 10230 20230 40140 52010 70100 82100 22273 04230 20502 31616 40502 50502 6//// 80230 ICE /////
BBXX VRCI9 22064 99370 71623 41/98 /2218 10150 20097 40140 58005 76022 8//// 22225 00175 20505 329// 41207 80120
BBXX WDJK 22064 99437 71279 41598 10618 10090 20049 40300 52015 70200 81100 22274 00100 20802 301// 41006 5//// 6//// 80070 ICE /////
BBXX C6FT7 22063 99149 70614 41498 40633 10270 2022/ 40140 5//// 7//11 844// 22284 00180 2//// 3//// 4//// 5//// 6//// 80239 ICE /////
BBXX KGTZ 22064 99513 71314 41697 51831 10089 2005/ 40208 52023 70122 852// 22234 00089 2//// 3//// 4//// 5//// 6//// 80072 ICE /////
BBXX WJBU 22064 99500 71357 41197 82044 10083 2008/ 40133 57022 75055 88/// 22233 0//// 21011 3//// 4//// 5//// 6//// 80083 ICE /////
BBXX WFLH 22063 99330 71201 43598 43212 10144 20083 40195 54/// 7//// 84/4/ 22223 00144 20801 329// 41204 5//// 6//// 80111 ICE /////
BBXX WAHG 22064 99555 71398 41/// 81430 10060 2004/ 49940 56020 75222 88/// 22234 0//// 20303 318// 40907 5//// 6//// 80050 ICE /////
BBXX C6XS8 22064 99189 70792 41/// /0915 10270 20256 40160 5//// 7//// 8//// 222// 0//// 2//// 3//// 4//// 5//// 6//// 80260 ICE /////
BBXX 9HRJ9 22063 99180 70638 41798 50437 1//// 2//// 40160 56010 70222 85040 22222 04280 20306 3//// 4//// 5//// 6//// 85260 ICE 0////
BBXX C6SE5 22064 99200 70844 43/// /1121 1//// 2//// 40150 5//// 7//// 8//// 22275 0//// 2//// 3//// 4//// 5//// 6//// ICE /////
BBXX C6SI3 22063 99482 71710 41797 81830 10050 2003/ 49930 57030 78166 88977 22213 0//// 20305 326// 4//// 5//// 6//// 80040 ICE /////
BBXX VCXF 22064 99464 70484 41598 72422 10012 2103/ 40240 52008 70222 87500 22200 02022 20504 326// 40806 81002
BBXX PCBT 22063 99204 70559 41298 70528 10231 20183 40200 54000 70322 8672/ 22213 20705 336// 41206 80199
BBXX 41101 22064 99146 70562 46/// /0622 10263 20205 40132 57014 22200 00270 10906 70031 555 1/028
BBXX 46001 22061 99563 71480 46/// /0415 10035 49918 57055 90550 22200 00049 10707 20707 300// 41203 70037 333 91218 555 11156 22166 30513 40418 60549 038144 040146 040145 042148 042140 041138
BBXX 46083 22061 99582 71380 46/// /1216 10037 20029 40004 58044 90550 22200 00065 10910 20706 300// 40908 70050 333 91219 555 11173 22185 30510 41119 60549 123159 125153 124155 123156 123150 123146 81217 90547
AAXX 22061 14216 12682 23503 10050 21049 30045 40200 52018 60002 81140 333 20042 31102 70000 923// 924/8
AAXX 22061 14219 12470 22502 11029 21058 39176 48468 53/// 60002 82400 333 21060 3/108 43016
AAXX 22061 14232 12765 42302 11048 21054 30078 40220 51014 60002 84500 333 21048 34107
AAXX 22061 14234 12665 62001 11033 21035 39969 40228 52018 60002 86500 333 21036 34107
AAXX 22061 14236 12762 60000 11006 21028 30010 40215 52/// 60002 84530 333 21013 34105
AAXX 22061 14244 12460 82501 11044 21047 30087 40223 52013 60002 8557/ 333 21046 34109 42002
AAXX 22061 14248 11715 70502 11029 21033 30037 40219 52/// 60002 7102/ 82550 333 21039 34107 41998
AAXX 22061 14253 11620 73301 11043 21046 30036 40219 52014 69902 71002 87500 333 21054 3/109 43002 70000 93197
AAXX 22061 14256 12560 73104 10003 21020 39879 40208 52013 69902 83570 333 21025 43019 70000 93197
AAXX 22061 14280 11658 23203 11028 21032 30084 40198 53011 69942 7102/ 82500 333 21042 3/108 44/// 70004
AAXX 22061 14308 12980 20202 11039 21056 39833 40204 51009 60002 82041 333 21044 34109 92611
AAXX 22061 14321 12683 13302 10075 21033 30157 40182 54/// 60002 81100 222// 00109 333 20058 30002 92311 92418
AAXX 22061 14370 11930 42401 11049 21058 30086 40201 52011 69952 71010 84030 333 21051 3/109 47001 70005 93101
AAXX 22061 14382 11550 83002 11005 21024 30072 40196 52008 69902 7102/ 885// 333 21013 34105 42002 79999 93197
AAXX 22061 14428 12470 20303 10050 21046 30166 40173 52014 60002 82800 222// 00139 333 20042 34101 92312
AAXX 22061 14441 12589 21107 10081 21041 30109 40133 53008 60002 82200 222// 00165 333 20048 30001 92312
AAXX 22061 14452 12999 10407 10071 21019 39897 40124 52/// 60002 81030 333 20061 92312
AAXX 22061 14454 12780 10416 10080 21069 30039 40099 53008 60002 81400 333 20078 31005 70000 91028 91136 92323
AAXX 22061 14462 12980 10210 10070 21063 30125 40131 53/// 60002 80008 333 20005 31105
BBXX 44008 22061 99405 70692 46/// /2308 10142 20141 40076 58026 90550 22200 00115 10806 20705 323// 40804 70031 333 91210 555 11092 22102 30502 42213 60549 227085 235095 241094 247095 229093 223082
BBXX 44022 22061 99409 70737 46/// ///09 10127 20079 40093 53035 90600 22200 00083 333 91213 555 11098 22113
BBXX 44060 22061 99413 70721 46/// ///09 10112 40061 55006 90600 22200 00104 333 91212 555 11108 22113
BBXX 46042 22061 99368 71224 46/// /3406 10123 40190 51007 90550 22200 00124 11406 20502 332// 41406 70031 333 91208 555 11068 22072 30532 43409 60549 344064 343071 341072 342072 343063 341065
BBXX 46053 22061 99342 71198 46/// /2405 10131 40174 52013 90550 22200 00137 11502 20401 327// 41502 70011 333 91206 555 11051 22053 30537 42406 60549 236048 233049 233046 214028 203008 223010
BBXX 46089 22061 99459 71258 46/// /0605 10074 20036 40319 53004 90550 22200 00091 11205 20401 329// 41205 70024 333 91206 555 11052 22054 30504 40707 60549 056050 057053 060053 058053 058052 054051
BBXX A8OF6 22063 99268 70525 41698 50921 10206 20166 40260 53010 70361 854// 22264 04240 20502 80180
BBXX C6KD6 22064 99204 70733 415// 20923 10260 20207 40167 52005 70311 82100 22214 02270 20705 305// 41005 80225
BBXX C6KD4 22063 99341 70357 41598 70612 10192 20169 40223 58003 70022 8647/ 22254 04200 20805 399// 40805 80178
BBXX OWFD2 22061 99251 70491 41/98 /3608 10210 20188 40160 55010 700// 8//// 22254 04240 2//// 80195
BBXX PJFF 22064 99297 70404 41/98 80518 10202 20171 40208 54000 70222 8//// 22254 04180 20403 80182
BBXX DHBN 22061 99348 71575 41497 80505 10170 20084 40230 52025 75022 885// 22224 00200 29901 329// 41004 5//// 80122
BBXX 41041 22061 99142 70460 46/// /0706 10260 20214 40137 58017 90550 22200 00265 11204 20502 3//// 41204 70022 333 91207 555 11065 22069 30530 40708 60549 072061 070063 066063 065063 078052 077060 80707 90535
BBXX 41038 22061 99341 70777 46/// /2304 10160 40182 56006 90600 22200 00139 333 91205
BBXX NWS0003 22064 99539 71665 43/// /0000 11003 21036 40041 5//// 7//// 8//// 222// 0//// 2//// 3//// 4//// 5//// 6//// 8//// ICE /////
BBXX WXJ63 22063 99611 71464 41/97 73503 11007 21022 40042 5//// 771// 8//// 222// 00044 2//// 3//// 4//// 5//// 6//// 8//// ICE /////
BBXX WYX2079 22063 99601 71476 41/98 00110 10006 2//// 40040 5//// 702// 8//// 222// 00072 2//01 3//// 4//// 5//// 6//// 8//// ICE /////
BBXX WSM5364 22063 99593 71415 41/97 80830 10022 2//// 40000 5//// 702// 8//// 222// 00072 2//// 31022 4//04 5//05 6//// 8//// ICE /////
BBXX NWS0029 22064 99387 70672 43/// /2236 10199 20150 40151 5//// 7//// 8//// 222// 04187 2//// 3//// 4//// 5//// 6//// 8//// ICE /////
AAXX 22064 48437 32960 60000 10285 20218 39895 40103 57039 80006 333 59029
BBXX WL3972 22064 99452 70831 41/98 32315 10010 2//// 40108 5//// 70221 8//// 22233 00060 2//02 3//// 4//// 5//// 6//// 8//// ICE /////
BBXX WE3592 22064 99473 70902 43/// /3321 11005 2//// 40142 5//// 7//// 8//// 222// 0//// 2//// 3//// 4//// 5//// 6//// 8//// ICE /////
BBXX VCPX 22064 99417 70812 41/98 22530 10008 2//// 41014 54/// 70000 8//// 22200 00050 20101 3//// 4//// 5//// 6//// 8//// ICE /////
BBXX 3ECJ7 22064 99059 70867 412// 70713 10290 20235 40100 51010 7//66 87/// 222// 0//// 20404 3//// 4//// 5//// 6//// 80250 ICE /////
AAXX 22061 21432 42698 20000 11295 21326 30335 40357 53005 82500
AAXX 22061 21824 41997 82002 11343 21356 30319 40329 52005 77872 82046
AAXX 22061 21908 42999 20000 11449 21471 30224 40318 52002 80002
AAXX 22061 21921 42999 20000 11429 21461 30316 40369 52006 82030
AAXX 22061 21931 42998 52302 11391 21424 30296 40333 52008 85030
AAXX 22061 21946 41498 82101 11363 21390 30248 40338 52007 77872 8263/
AAXX 22061 21982 11596 63311 11170 21196 30174 40202 52012 69952 73873 83530 333 11163 91119
AAXX 22061 25062 11597 82803 11236 21261 30262 40266 52011 69952 70272 885// 333 11234 91105
AAXX 22061 25123 41496 81604 11327 21357 30288 40325 52010 77172 885// 333 88615
AAXX 22061 25138 41999 21101 11408 21438 30199 40341 52006 70270 80001 333 91103
AAXX 22061 25173 11395 83110 11212 21224 30229 40234 52013 69982 77373 8872/ 333 11201 91115
AAXX 22061 25248 42998 00000 11436 21461 39824 40354 52012 333 91100
AAXX 22061 25282 31978 73308 11201 21213 30190 40197 53007 73632 86031 333 11200 91111
AAXX 22061 25325 NIL
AAXX 22061 25356 32999 23204 11203 21261 30121 40228 52010 80001 333 11197 91006
AAXX 22061 25399 31574 13305 11226 21251 30134 40144 52004 73631 81500 333 1//// 91108
AAXX 22061 25428 41942 30000 11434 21468 39964 40356 53011 71011 80001 333 91100
AAXX 22061 25551 32998 52902 11280 21311 30191 40225 53012 80001 333 11/// 91103
AAXX 22061 25563 32984 03105 11259 21277 30114 40199 52009 333 11174 91108
AAXX 22061 25594 31698 23603 11168 21202 30078 40131 52011 70230 82500 333 11116 91107
AAXX 22061 25677 31394 83410 11177 21183 30155 40161 52013 73832 887// 333 11142 88708 91112
AAXX 22061 31054 42999 80000 11384 21413 30058 40373 52004 85016
AAXX 22061 31123 41997 80701 11289 21327 39950 40311 54000 77172 86017
BBXX SLKR 22063 99146 51413 43/98 40816 10261 40122 51015 22253 00279 2//// 4////
BBXX mpjh9 22064 99049 31533 41898 73411 10300 20243 40062 57025 70222 81078 22244 00300 2//00 302// 40601 80260
BBXX 9HA2479 22064 99210 31675 46/// /1129 10258 20206 30066 40095 57014 22283 04266 85222
BBXX C6FS9 22064 99268 31534 46/// /1519 10239 20190 30088 40124 57023 22233 04247 85206
BBXX V7EM3 22063 99103 31518 41597 53220 10290 20240 40027 58015 70322 85476 22284 00280 20503 80255
BBXX VNSZ 22064 99378 31449 46/// /1815 10218 20163 30114 40140 57017 22200 04222 85182
BBXX A8TX8 22063 99163 31085 41598 41814 10290 20240 40072 57015 703// 82105 22285 04290 20602 319// 40903 80255
BBXX VRAE2 22064 99280 31763 41499 31123 10220 20180 40142 55000 70122 83100 22244 04240 20302 315// 40403 80195
BBXX VMAL 22063 99355 31198 41/98 52308 10207 20176 40147 58010 70311 82556 22223 20501 30823 41003 51003 80188
BBXX PCAM 22063 99412 31732 41598 20106 10178 20132 40266 57011 70200 81440 22200 20200 30000 80150
BBXX VRAE3 22064 99046 11270 41797 40309 10310 20229 40062 52017 70201 83831 22234 00310 20201 307// 40401 5//// 80254
BBXX MGRH9 22063 99386 31734 41498 21919 10168 20134 40237 57029 70200 81363 2229/ 00170 20403 315// 40502 5//// 80149
BBXX PCCL 22063 99370 31762 41497 40310 10170 40240 57007 70200 8404/ 22283 04188 20501 318// 40602
BBXX PCDE 22063 99360 31503 41598 42202 10213 20162 40160 57020 7//11 83163 22283 20601 30000 80180
BBXX KAOU 22064 99003 10812 43/// /3129 10266 20234 40076 5//// 7//// 8//// 222// 04288 2//// 3//// 4//// 5//// 6//// 8//// ICE /////
AAXX 22064 61600 31945 00608 10185 21004 30146 40151 70600 333 20180 50104 55097 58010
AAXX 22064 61612 32958 00404 10155 21027 30161 40169 333 01700 20152 50621 55044 58021
AAXX 22064 61627 32958 00804 10165 20021 3//// 4//// 333 01200 20163 50884 55019 5////
AAXX 22064 61630 32960 03604 10168 20031 30137 40157 333 01900 20162 50622 55026 58013
AAXX 22064 61641 32957 00412 10213 20055 30105 40138 333 01800 20212 50704 55071 58005
AAXX 22064 61666 32958 60404 10172 20040 30130 40139 80002 333 01200 20135 50634 55052 58014 86073
AAXX 22064 61679 32958 23608 10196 20054 30137 40145 82030 333 01700 20196 50954 55065 58016 82363
AAXX 22064 61687 32960 00606 10183 21031 30082 40140 333 01300 20160 51241 55098 58011
AAXX 22064 61695 32958 20410 10200 20031 30104 40130 80002 333 01300 20199 50434 55101 58002 82073
AAXX 22064 61697 NIL
AAXX 22064 61698 32958 40604 10170 20012 30119 40130 80002 333 00800 20164 50624 55083 84073
AAXX 22064 61699 32958 08006 10175 20043 39923 40113 333 01400 20161 50804 55101 58008
AAXX 22064 16219 42965 00340 11058 21104 38050 48447 51/// 6///2 333 21062 43008 55078 2//// 9509/ 9519/ 92843
AAXX 22061 08501 12/// /2502 10137 20124 30187 40224 52014 60132 333 20137 30012 5//// 55/// 2//// 555 60005
AAXX 22061 08501 12/// /2502 10137 20124 30187 40224 52014 60132 333 20137 30012 5//// 55/// 2////
AAXX 22061 60373 36/// /2802 10121 20075 333 20114
AAXX 22061 60623 36/// /0000 10026 21140 333 20026
AAXX 22061 60393 36/// /1702 10093 20069 333 20093
BBXX EIPT 22064 99544 70054 41/97 32111 10120 20111 40207 54000 70200 8//// 22200 20401 3//// 4//// 5//// 80115
AAXX 22061 33325 12397 82802 11013 21027 39902 40178 52018 69902 885// 333 21018 43004 87709
BBXX 46001 22061 99563 71480 46/// /0415 10035 49918 57055 90550 22200 00049 10707 20707 300// 41203 70037 333 91218 555 11156 22166 30513 40418 60549 038144 040146 040145 042148 042140 041138
BBXX 46207 22061 99509 71299 46/// /1809 10084 40253 57009 22200 00083 11205 70027 333 91211
BBXX 9HA2064 22063 99489 71480 41695 81724 10100 20081 49760 57050 71152 887// 22274 0//// 2//// 3//// 4//// 5//// 6//// 80090 ICE /////
BBXX A8EH2 22064 99505 71421 41196 81835 10080 20080 49925 57055 887// 22274 00054 20708 399// 41008 80080
BBXX KGTZ 22064 99513 71314 41697 51831 10089 20050 40208 52023 70122 852// 22234 00089 2//// 3//// 4//// 5//// 6//// 80072 ICE /////
BBXX SHIP 22064 99318 71223 41497 60508 10160 20130 40250 54000 70122 8548/ 22223 00150 2//// 3//// 4//// 5//// 6//// 80140 ICE /////
BBXX WAHG 22064 99555 71398 41/// 81430 10060 20040 49940 56020 75222 88/// 22234 0//// 20303 318// 40907 5//// 6//// 80050 ICE /////
BBXX WDE9586 22063 99467 71300 43/98 /1821 10110 20070 40280 54000 7//// 8//// 22214 00100 2//// 3//// 4//// 5//// 6//// 80090 ICE /////
BBXX WDJK 22064 99437 71279 41598 10618 10090 20049 40300 52015 70200 81100 22274 00100 20802 301// 41006 5//// 6//// 80070 ICE /////
BBXX WFLH 22063 99330 71201 43598 43212 10144 20083 40195 54/// 7//// 84/4/ 22223 00144 20801 329// 41204 5//// 6//// 80111 ICE /////
BBXX WJBU 22064 99500 71357 41197 82044 10083 20080 40133 57022 75055 88/// 22233 0//// 21011 3//// 4//// 5//// 6//// 80083 ICE /////
BBXX WSRH 22064 99352 71305 41998 00117 10133 20110 40230 54000 7//00 80/// 22234 00133 20405 336// 40505 5//// 6//// 80122 ICE /////
BBXX WSRL 22064 99313 71488 41498 11415 10190 20170 40240 52010 70200 811// 22214 00211 2//// 3//// 4//// 5//// 6//// 80175 ICE /////
AAXX 22064 65528 NIL
AAXX 22064 65536 NIL
AAXX 22064 65545 NIL
AAXX 22064 65548 NIL
AAXX 22064 65555 NIL
AAXX 22064 65557 NIL
AAXX 22064 65560 NIL
AAXX 22064 65562 NIL
AAXX 22064 65563 NIL
AAXX 22064 65578 12557 31002 10235 20235 30100 40117 60164 83500 333 20230 58000 83620
AAXX 22064 65585 NIL
AAXX 22064 65592 NIL
AAXX 22064 65594 NIL
AAXX 22064 65599 NIL
AAXX 22064 65563 31930 00000 10211 20209 39879 40118 71000 333 20202 58005
AAXX 22064 62305 32960 02011 10064 20039 40172 57006 333 20064
AAXX 22064 62306 32560 12203 10086 20005 40180 57001 81500 333 20073
AAXX 22064 62318 32960 02302 10105 20096 40186 52004 333 20090
AAXX 22064 62377 NIL
AAXX 22064 62366 31920 02502 10134 20106 40193 52009 71000 333 20114
AAXX 22064 62393 32960 02804 10086 20045 40114 51014 333 20066
AAXX 22064 62405 31956 00000 10114 20060 40183 52015 70500 333 20076
AAXX 22064 62414 32960 30209 10136 20038 40191 52016 80001 333 20114
AAXX 22064 62417 32960 00000 10048 20016 40193 52005 333 20032
AAXX 22064 62440 31512 42602 10094 20085 40186 52003 71000 84500 333 20083
AAXX 22064 62463 32960 33010 10154 20111 40178 52010 80002 333 20128
AAXX 22064 62465 32960 32904 10163 20139 40162 52008 80004 333 20142
AAXX 22064 62419 NIL
BBXX MINUK04 2206/ 99532 10031 46/// ///// 10103 4//// 52025
BBXX SBHI 22063 99613 10174 43/98 32709 11007 40130 56006 22201 06040
BBXX WKAB 22064 99327 10293 41998 02320 10170 20079 40169 53011 70100 80000 22235 00191 20402 333// 40704 5//// 6//// 80120 ICE /////
BBXX DILE 22063 99494 70074 41/98 /2514 10130 20103 40305 57005 7//22 8//// 22224 2//// 80115
BBXX UFJN 22061 99721 10495 41/98 72404 11025 40080 54000 72222 87/// 22200 0//// 20301
BBXX 62023 22063 99514 70079 46/96 /2523 10117 2//// 40277 5//// 22200 10503 70017 555 70027 81002
BBXX LF4H 22064 99596 10022 46/// /2614 10094 20081 40064 52021 8//// 22200 06084 10604 70018 333 91123
BBXX LMEL 22061 99603 10053 43/// /1306 10038 20039 40061 5//// 222/0 04093 1//// 3//// 4//// 5////
BBXX LAHV 22061 99589 10057 43/// /1504 10062 20028 40086 222// 04087 1////
BBXX PDNN 22063 99472 70192 41/98 /1830 10140 20123 40220 54000 70111 8//// 22223 02126 2//// 80130 90638
BBXX UCKD 22061 99561 10031 41/98 93112 10113 40120 52010 70021 89/// 22253 00090 20302
BBXX TFKGR 22064 99657 70136 46/// ///// 22200 10506 70029
BBXX TFSRT 22064 99633 70203 46/// ///// 22200 11012 70059
BBXX TFBLK 22064 99657 70248 46/// ///// 22200 10705 70025
BBXX TFSTD 22064 99664 70234 46/// ///// 22200 10606 70029
BBXX TFGRS 22064 99663 70182 46/// ///// 22200 10505 70024
BBXX TFHFN 22064 99642 70152 46/// ///// 22200 10912 70059
BBXX TFDRN 22064 99658 70212 46/// ///// 22200 10402 70011
BBXX TFGRV 22064 99638 70225 46/// ///// 22200 11010 70048
BBXX TFBKF 22064 99635 70202 46/// ///// 22200 10807 70035
BBXX TFGSK 22064 99641 70229 46/// ///// 22200 10909 70045
BBXX DBBI 22061 99535 10100 46/// /9901 10025 20025 40184 52001 22250 00030
BBXX DBND 22061 99536 10086 46/// /1705/10043 20043 40165 57009/ 22270 00456
BBXX DBKR 22061 99541 10121 46/// /2103 10018 20018 40181 52002 22200 00042
BBXX DBEB 22061 99539 10079 41/// /1908 10050 20050 40146 57022 7//// 22200 00060
BBXX DBBC 22061 99535 10100 46/// /1502 10025 2//// 40185 54000 22210 00036
BBXX DBEA 22061 99540 10083 46/// /1710 10043 20036 40152 57020 22221 00055
BBXX DBFH 22061 99535 10086 46/// /1703 10045 20039 40167 57010 22200 00042
BBXX DBBA 22061 99541 10121 46/// /1602 10016 20006 40182 52003 22220 00047
BBXX DBJM 22061 99539 10078 46/// /2009 10055 20047 40154 57025 22221 00058
BBXX MGSH7 22063 99549 10138 41/98 81411 10030 20003 40182 52030 70222 8//// 22243 20201 332// 40504 5//// 80020
BBXX PFDH 22061 99375 10104 41/98 73313 10175 20118 40153 55005 70182 877// 22224 00171 2//// 80141
BBXX PHIN 22064 99504 70142 41/// /2023 10128 20123 40227 56001 7//// 8//// 22253 2//// 80125
BBXX TBWUK35 22064 99664 10066 41/// 82542 10051 20029 49961 57020 72162 8//// 22214 00100 2//// 80042
BBXX UITJ 22061 99679 10095 41798 61710 10055 49993 57006 70184 82054 22253 00080 20704
BBXX UGGA 22061 99693 10437 41/97 92308 10015 40083 54000 70282 89/// 22251 20403
BBXX UANA 22061 99701 10546 41/98 63407 10020 40102 52002 70321 80290 22222 00019 20301
BBXX NWS0020 22064 99326 70305 43/// /1413 10197 20174 40222 5//// 7//// 8//// 222// 04207 2//// 3//// 4//// 5//// 6//// 8//// ICE /////
BBXX UCKZ 22061 99637 30553 41395 82606 11007 21011 49826 52015 77074 8667/ 22213 01005 20301 332// 41004 ICE 0/6/0
BBXX 46147 22061 99518 71312 46/// /1813 10082 40224 57009 22200 00079 10807 70035 333 91217
AAXX 22061 78310 12501 10702 10224 20214 30157 40167 58007 60001 81100 333 10284 20211 30/// 56900 59004 81820 92013
AAXX 22061 78315 12564 10000 10190 20179 30104 40170 58002 60001 81200 333 10276 20190 30/// 56900 59007 81820
AAXX 22061 78318 12565 10903 10202 20192 30163 40167 56010 60001 81100 333 10270 20196 30/// 56900 59015 81821
AAXX 22061 78322 12956 00303 10202 20192 30160 40177 58011 60001 333 10280 20190 30/// 59011
AAXX 22061 78324 12900 00801 10238 20213 30154 40165 56009 60001 333 10282 20238 30/// 59005
AAXX 22061 78325 11930 01406 10217 20209 30117 40175 58009 60001 70400 333 10300 20195 30/// 56/// 59011
AAXX 22061 78328 12/62 11306 10230 20207 30176 40/// 58006 60001 81100 333 10257 20209 30/// 56900 59014 818//
AAXX 22061 78333 12910 00501 10200 20188 30165 40172 56009 60001 333 10282 20175 30/// 59010
AAXX 22061 78344 12950 00605 10210 20196 30111 40159 58017 60001 333 10315 20197 30/// 56000 59015
AAXX 22061 78345 12565 10502 10207 20200 30175 40178 56006 60001 81500 333 10298 20169 30/// 56900 59014 81623
AAXX 22061 78348 11557 30000 10209 20200 30132 40184 58004 60001 70500 82802 333 10264 20186 30/// 56209 59006 81820 555 10902
AAXX 22061 78349 12940 00501 10214 20204 30075 40184 58006 60001 333 10296 20175 30/// 59004
AAXX 22061 78351 12550 10403 10204 20194 30162 40164 58002 60001 81500 333 10290 20176 30/// 56900 59004 81630
AAXX 22061 78353 12560 31003 10240 20207 30149 40171 58023 60001 82802 333 10270 20225 30/// 56909 59015 81820
AAXX 22061 78355 12560 10702 10214 20204 30040 40181 58011 60001 81200 333 10272 20180 30/// 56900 59013 81820
AAXX 22061 78358 12530 30804 10237 20217 30157 40172 58003 60001 82202 333 10275 20202 31/// 56909 59015 82823
AAXX 22061 78360 12/60 10401 10210 20198 30150 40162 58013 60001 81100 333 10300 20197 30/// 56900 59013 818// 92021
AAXX 22061 78363 12957 00000 10186 20179 30043 40158 58010 60001 333 10292 20149 30/// 56/// 59009
AAXX 22061 78365 11/50 10912 10256 20219 30176 40181 58009 69921 70180 81200 333 10270 20237 31/// 56900 57845 59013 70002 818// 92046
AAXX 22061 78369 12464 10708 10257 20209 30157 40166 56008 60001 81200 333 10272 20237 30/// 56900 59016 70002 81818
BBXX 46147 22061 99518 71312 46/// /1813 10082 40224 57009 22200 00079 10807 70035 333 91217
AAXX 22064 41244 36/// /1007 10208 21014 39870 48563 333 0E014 20127 59002
AAXX 22061 25703 41998 80000 11425 21455 30059 40377 52010 77172 83037
AAXX 22061 25745 42698 70000 11273 21304 30168 40224 52011 87500
AAXX 22061 25913 42699 70604 11189 21247 30072 40231 53008 86530
AAXX 22061 25954 42698 83603 11173 21232 30041 40161 52015 87501
AAXX 22061 25956 42999 80806 11122 21174 30126 40132 53026 8803/
AAXX 22061 31088 42599 73605 11198 21239 30231 40239 52009 87500
AAXX 22061 31873 41397 83202 11112 21139 30042 40182 53002 77172 8377/
AAXX 22061 31909 41599 83401 11073 21132 30042 40121 56023 70282 8641/
AAXX 22061 31960 42998 23512 11094 21200 39922 40166 57007 82030 333 91019 91119
AAXX 22061 31961 42998 83510 11098 21184 30142 40189 53001 88071
AAXX 22061 32053 42999 33401 11180 21199 30160 40213 55001 82032 333 91002 91102
AAXX 22061 32061 42998 60202 11123 21150 30151 40192 55005 81049 333 91003 91104
AAXX 22061 32098 41394 83303 11102 21108 30177 40188 56006 78682 889// 333 88907 91005 91106
AAXX 22061 32150 41599 73502 11052 21077 30128 40158 57011 70282 84302 333 91004 91105
AAXX 22061 32165 41597 81404 10000 21026 30101 40162 57014 70282 83901 333 91006 91108
AAXX 22061 32215 41561 83305 11047 21087 30156 40186 53009 78583 889// 333 91015 91116
AAXX 22061 32252 NIL
AAXX 22061 32389 41998 31201 11318 21335 30164 40206 52010 74011 83030
AAXX 22061 32477 42999 00302 11188 21237 30167 40202 53009
AAXX 22061 32583 42999 03404 11118 21171 30130 40162 53014
AAXX 22061 32618 41598 83608 11046 21085 30087 40109 53012 70283 885// 333 91114
AAXX 22060 67687 32980 13201 10259 20154 80001 333 20186 5//// 55/// 81081 555 10288 7//00
AAXX 22064 93800 16/// /2608 10174 20132 40271 57009 60001
AAXX 22064 93805 16/// /1504 10156 20128 40284 57007 60001
AAXX 22064 93994 16/// /1207 10206 20173 40147 57008 60001
AAXX 22064 71276 16/// ///07 11072 21101 60001 333 11037 21094 70000
BBXX 46183 22061 99536 71311 46/// /1615 10072 40192 57020 22200 0//// 1//// 70/// 333 912//
AAXX 22064 71363 16/// /2909 11330 21366 30033 40090 51003 60001 333 11279 21332 70000 555 33324 40011
AAXX 22064 71756 16/// /0000 11071 21097 39205 40335 57001 60001 333 11001 21071 70000
AAXX 22064 71976 46/// /2617 11244 21270 39268 49909 51012 6///1 333 11186 21244 7//// 555 10010 31631 40082
AAXX 22064 71979 16/// ///// 11061 21131 38508 40193 58022 60001 333 11058 21138 70009
AAXX 22064 71224 16/// /2310 11096 21139 60001 333 11021 21123 70010 555 33340 40163
AAXX 22064 71307 16/// /2703 10049 20039 39893 40142 51019 60001 333 10126 20046 70050 555 32126 40191
AAXX 22064 71343 16/// /2109 11071 21119 60001 333 11008 21109 70012 555 33530 40162
AAXX 22064 71189 46/// /0902 11034 21063 6///1 333 11031 21126 7////
AAXX 22061 40001 32970 30806 10106 21009 40211 53007 83050 333 20096 30/// 83360
AAXX 22061 40007 32560 50603 10071 20046 40205 50001 83550 333 20039 30/// 83630 85360
AAXX 22061 40025 32560 40702 10114 20094 40175 54000 84800 333 20100 32/// 70017 82826 84630
AAXX 22061 40045 31550 53503 10078 20022 40204 53002 71000 82550 333 20057 30/// 82630 85360
AAXX 22061 40061 32970 02301 10054 20028 40199 51012 333 20044 30///
AAXX 22061 40080 31902 00000 10018 20018 39471 40196 50006 74000 333 21015 30///
AAXX 22061 40087 NIL
AAXX 22061 40095 NIL
AAXX 22064 65319 32958 53604 10210 20135 39618 40130 80002 333 01900 20020 50774 55092 58015 85076
BBXX A8HD5 22061 99057 10969 41597 71110 10260 20246 40100 56010 76262 84875 22223 04262 20301 311// 40502 5//// 80250
BBXX TBWUK17 22063 99219 30722 41297 31114 10359 20222 40207 52022 70111 83625 22263 04261 20503 31010 40304 50405 80234
BBXX DPUW 22064 99119 10446 41598 21020 10270 20206 40195 51015 70200 82141 22235 00275 20804 312// 40802 5//// 80225
BBXX DBIP 22063 99381 10103 41598 43607 10157 20101 40150 53010 70111 83440 22223 04160 20502 30534 40903 50802 80125
BBXX 46183 22061 99536 71311 46/// /1615 10072 40192 57020 22200 0//// 1//// 70/// 333 912//
AAXX 22064 89002 42999 40703 11082 21087 39744 49798 52012 83031
AAXX 22061 40009 32570 30000 10060 20027 57007 83500 333 20042 30/// 83630
AAXX 22061 40016 32570 50000 10048 20024 40243 51020 85500 333 20040 31/// 85630
AAXX 22061 40022 11565 50803 10128 20070 40171 58005 69902 70262 85800 222// 20000 333 20124 30/// 83830 85632
AAXX 22061 40030 31560 50000 10060 20035 40197 53002 71011 83550 333 20047 31/// 83630 85360
AAXX 22061 40039 32970 20000 10032 20022 40198 51004 82050 333 20020 30/// 82360
AAXX 22061 40066 32570 30702 10118 20068 40170 57003 83400 333 20110 30/// 83626
AAXX 22061 40072 32970 00000 10090 20018 40212 53004
AAXX 22061 40083 32570 52901 10028 21003 48488 51003 85800 333 20020 30/// 82826 84630
AAXX 22061 40083 32570 52901 10028 48488 56003 85800 333 20020 30/// 82826 84826 84630
BBXX 41052 22061 99183 70648 46/// /0712 10266 40158 90550 333 91215
BBXX 41052 22061 99183 70648 46/// /0711 10266 40159 90540 333 91213
BBXX 44034 22061 99441 70681 46/08 /2306 10090 40011 58017 90604 22200 00083 10604 70021 333 91207 555 11070 22077
BBXX 44039 22061 99411 70727 46/// /2309 10119 20102 40080 53007 90600 22200 00093 10402 70008 333 91213
BBXX 44060 22061 99413 70721 46/// ///11 10116 40062 90615 22200 00104 333 91213 555 11124 22134
BBXX 44022 22061 99409 70737 46/// ///09 10128 20077 40096 90615 22200 00083 333 91212 555 11098 22113
BBXX 41052 22061 99183 70648 46/// /0711 10266 40157 58014 90600 22200 00272 333 91215
BBXX 42085 22061 99179 70665 46/// ///// 1//// 90600 22200 00273
AAXX 22064 71224 16/// /2310 11096 21139 60001 333 11021 21123 70010 555 33340 40163
AAXX 22064 71363 16/// /2909 11330 21366 30033 40090 51003 60001 333 11279 21332 70000 555 33324 40011
AAXX 22064 71976 46/// /2617 11244 21270 39268 49909 51012 6///1 333 11186 21244 7//// 555 10010 31631 40082
AAXX 22064 71979 16/// ///// 11061 21131 38508 40193 58022 60001 333 11058 21138 70009
AAXX 22064 71276 16/// ///07 11072 21101 60001 333 11037 21094 70000
AAXX 22064 71756 16/// /0000 11071 21097 39205 40335 57001 60001 333 11001 21071 70000
AAXX 22064 71307 16/// /2703 10049 20039 39893 40142 51019 60001 333 10126 20046 70050 555 32126 40191
AAXX 22064 71343 16/// /2109 11071 21119 60001 333 11008 21109 70012 555 33530 40162
AAXX 22064 71189 46/// /0902 11034 21063 6///1 333 11031 21126 7////
AAXX 22061 01028 11580 71005 11011 21019 39988 40008 56015 69902 70374 82506 333 21032
AAXX 22061 50434 32980 02704 11223 21313 39295 40271 57013 333 21346
AAXX 22061 50527 32970 01803 11272 21319 39424 40314 57013 333 21333
AAXX 22061 50603 32980 02503 11215 21268 39537 40285 57025 333 21299
AAXX 22061 50632 32980 02906 11203 21307 39295 40274 57013 333 21268
AAXX 22061 50727 32980 03602 11221 21295 39008 40328 57020 333 21344
AAXX 22061 50915 32980 02203 11142 21217 39217 40313 57030 333 21281
AAXX 22061 51716 32965 73602 11055 21086 39053 40439 52004 80002 333 05153 21103
AAXX 22061 51765 32980 22202 11044 21151 39378 40456 54000 80002 333 05101 21169
AAXX 22061 51777 32970 72203 11044 21121 39335 40460 52001 80002 333 00052 21145
AAXX 22061 51811 32962 70901 11026 21102 38916 40420 52003 80002 333 05201 21098
AAXX 22061 51828 32965 00401 11033 21141 38763 40424 57001 333 05102 21105
AAXX 22061 52267 32980 02704 11060 21220 39201 40388 57030 333 05500 21180
AAXX 22061 52323 32980 03204 11062 21192 38294 57009 333 05402 21209
AAXX 22061 52495 32980 02905 11043 21239 38752 40379 57036 333 05502 21219
AAXX 22061 53149 32980 02707 11069 21185 38822 40336 57033 333 05604 21195
AAXX 22061 53192 32980 12502 11184 21219 38931 40398 57023 80002 333 21285
AAXX 22061 53231 32980 02207 11087 21208 38538 57024 333 05501 21181
AAXX 22061 53336 32980 01803 11080 21198 38771 40359 57033 333 05600 21181
AAXX 22061 53391 32980 02906 11106 21183 38536 40363 57020 333 05202 21203
AAXX 22061 53529 32980 02503 11049 21191 38684 40366 57035 333 05500 21175
AAXX 22061 53543 32980 12202 11049 21202 38587 40348 57032 80002 333 21130
AAXX 22061 53723 32975 02503 11044 21179 38721 40366 57033 333 05500 21164
AAXX 22061 54012 32980 32511 11155 21219 39035 40324 57026 80002 333 21236
AAXX 22061 54026 32580 12902 11092 21281 39937 40288 57023 81100 333 21185
AAXX 22061 54027 32980 31402 11085 21255 39659 40291 57028 82032 333 21173
AAXX 22061 54208 32980 12908 11122 21200 38788 40351 57024 80002 333 21200
AAXX 22061 54776 32580 23412 11018 21096 30243 40303 57013 82400 333 21019 91120 91534
AAXX 22061 56004 32680 12712 11018 21366 35783 57027 81100 333 00051 21247 91123 91525
AAXX 22061 56033 32980 02703 11065 21282 35976 57027 333 00052 21223
AAXX 22061 56046 32980 00202 11022 21216 36213 57038 333 00001 21194
AAXX 22061 56193 NIL
AAXX 22061 56196 32965 80702 10087 21038 40260 57036 8807/ 333 05153 20062
AAXX 22061 56287 11856 80402 10063 20029 40271 57038 69911 72166 885// 333 05251 20054
AAXX 22061 56684 32570 80702 10029 21011 37893 57039 885// 333 05200 21001
AAXX 22061 56751 32780 13401 10163 20004 37996 57035 81100 333 05102 20037
AAXX 22061 56786 11558 81605 10057 20022 38110 57037 69901 71060 885// 333 00159 20023
AAXX 22061 56977 32570 60702 10180 20120 40163 57028 86400 333 00052 20108
AAXX 22061 57259 32975 01102 10080 21032 40299 57043 333 20006
AAXX 22061 57279 32963 02001 10080 21108 40314 57038 333 20021
AAXX 22061 57348 32865 70401 10117 21025 40267 57039 875// 333 20081
AAXX 22061 57399 32960 03603 10113 21129 40294 57033 333 20019
AAXX 22061 57554 32961 80203 10074 21029 40302 57033 8807/ 333 20043
AAXX 22061 57793 11750 80902 10087 20037 40280 57026 69921 71060 885// 333 20063
AAXX 22061 58345 32962 03603 10065 21055 40300 57033 333 20018
AAXX 22061 58506 32968 70408 11004 21117 40299 57014 8704/ 333 21041 91117 91507
AAXX 22061 58813 32664 80202 10074 20040 40257 57026 885// 333 20068
AAXX 22061 58834 31957 80402 10117 20070 40228 57027 70500 8807/ 333 20090
AAXX 22061 58926 32765 73603 10160 20062 40202 57036 8754/ 333 20084
AAXX 22061 58944 32562 80205 10130 20066 40219 57021 885// 333 20129
AAXX 22061 59096 32965 03404 10160 20024 40213 57037 333 20090
AAXX 22061 59102 32968 00206 10115 20035 40229 57025 333 20075
AAXX 22061 59278 31958 00403 10182 20044 40196 57040 70500 333 20145
AAXX 22061 59456 32975 03602 10214 20045 40174 57041 333 20166
AAXX 22061 59493 31957 03404 10191 20056 40180 57034 70500 333 20153
AAXX 22061 59658 32964 01101 10230 20059 40173 57033 333 20160
AAXX 22061 59673 32963 03408 10187 20089 40176 57028 333 20160
AAXX 22061 59845 32562 71403 10224 20135 40170 57032 878// 333 20176
AAXX 22064 67767 NIL
AAXX 22064 67843 32980 53503 10251 20188 38943 48504 80001 333 20165 59016 85080
AAXX 22064 67969 NIL
AAXX 2206/ 89767 46/// ///// 10030 39772 4//// 5////
AAXX 22064 89577 46/// /1310 11319 35816 4//// 5////
AAXX 22064 89578 46/// /0404 11335 36860 4//// 5////
AAXX 22061 60379 36/// /1301 10091 20091 333 20089
AAXX 22061 60380 36/// /2101 10088 20061 333 20088
AAXX 22061 60394 36/// /0000 10068 20064 333 20068
AAXX 22061 60374 36/// /1302 10114 20106 333 20109
AAXX 22061 60613 36/// /0000 10009 21089 333 20007
BBXX 46131 22061 99499 71250 46/// /2602 1//// 40343 57003 22200 00069 10200 70001 333 91202
AAXX 22064 41859 NIL
AAXX 22064 41883 31/06 10124 20110 30144 40166 74344 89/// 333 56999 59009 70000
AAXX 22064 41891 NIL
AAXX 22064 41907 NIL
AAXX 22064 41923 31330 62702 10170 20110 30143 40153 71044 85630 333 56890 59006 70000 84710 83615
AAXX 22064 41936 NIL
AAXX 22064 41943 31450 61302 10180 20130 30145 40152 70542 83520 333 56990 59015 70000 93616 86458
AAXX 22064 41950 31440 43602 10178 20130 30148 40151 70522 84500 333 56800 59004 70000 84616
AAXX 22064 41978 31318 43305 10158 20140 30142 40149 71042 84700 333 56900 58000 70000 84708
AAXX 22064 41992 31915 90000 10170 20160 30138 40141 71044 89/// 333 56999 58003 70000
AAXX 2206/ 41858 NIL
AAXX 2206/ 41863 NIL
AAXX 2206/ 41886 NIL
AAXX 2206/ 41895 NIL
AAXX 2206/ 41909 NIL
AAXX 2206/ 41915 NIL
AAXX 2206/ 41926 NIL
AAXX 2206/ 41929 NIL
AAXX 2206/ 41933 NIL
AAXX 2206/ 41939 NIL
AAXX 2206/ 41941 NIL
AAXX 2206/ 41946 NIL
AAXX 2206/ 41947 NIL
AAXX 2206/ 41951 NIL
AAXX 2206/ 41953 NIL
AAXX 2206/ 41958 NIL
AAXX 2206/ 41960 NIL
AAXX 2206/ 41963 NIL
AAXX 2206/ 41964 NIL
AAXX 2206/ 41965 NIL
AAXX 2206/ 41966 NIL
AAXX 2206/ 41984 NIL
AAXX 2206/ 41989 NIL
AAXX 2206/ 41998 NIL
AAXX 22064 41859 31/08 93102 10127 20120 30128 40167 74544 89/// 333 56999 59010 70000 81///
AAXX 22064 41891 31435 70502 10180 20130 30113 40153 70522 84370 333 58990 59002 70000 84615 81930 86460
AAXX 22064 41907 31/08 93102 10120 20110 30145 4016/ 74344 81/// 333 56999 59006 70000
AAXX 22064 41936 31407 50404 10130 20120 40162 74644 83530 333 56990 59012 70000 83615 84362
AAXX 22064 68325 11960 80505 10207 20171 48505 52028 69991 70262 8808/ 333 20205
BBXX 46131 22061 99499 71250 46/// /2602 1//// 40343 57003 22200 00069 10200 70001 333 91202
AAXX 22061 13168 12697 82702 10002 21003 30083 40193 53007 69902 885// 333 21005 31103 4/000 55060 79999 93197
AAXX 22061 13174 12697 83202 10000 21013 30087 40191 52008 69902 885// 333 21001 31100 55059 79999 93197
AAXX 22061 13269 11597 82902 10006 21001 39972 40193 53003 69922 70272 885// 333 21004 31102 55080 70002 93197
AAXX 22061 13274 32697 82901 10006 21019 30027 40193 53005 885// 333 21006 34102 55075 70000
AAXX 22061 13278 32697 80000 11007 21032 39964 40198 53008 885// 333 21034 3/106 42002 55050 70000
AAXX 22061 13378 11/92 90404 11088 21097 38183 48400 55000 69922 77374 333 21122 3/113 47015 55045 70002 93101 91011 91114
AAXX 22061 13397 32598 80000 11048 21061 39621 40184 51005 8361/ 333 21062 3/109 42001 55014 70000
AAXX 22061 13457 32970 63405 10077 21059 30089 40096 54000 82036 333 20039 31056 55/// 82361
AAXX 22061 13481 NIL
AAXX 22061 89064 36/// /1701 10005 29093 49894 57013
AAXX 22064 60664 36/// /0000 10056 21014 333 20055
AAXX 22064 60667 36/// /0000 10055 21013 333 20047
AAXX 22064 60692 36/// /3308 10106 21053 333 20103
BBXX 46204 22061 99514 71288 46/// /1011 10070 40272 57012 22200 00082 11205 70023 333 91213
BBXX C6CU6 22063 99268 70692 41597 41119 10215 20200 40260 58005 70211 835// 22263 04245 20805 305// 41405 5//// 80205
BBXX DGUG2 22064 99197 70242 41396 60920 10210 20172 40175 56005 703// 86775 22294 04240 20604 80185
AAXX 22064 63125 32570 21407 10265 20193 40198 82200 333 20228 58004 82820=2
BBXX DCPX2 22063 99101 10671 41/97 20221 10285 20214 40120 70500 81101 22224 00270 20203 30000 80235
BBXX A8IQ2 22060 99197 30574 41498 70908 10266 20223 40152 56008 70322 8/792 22253 06275 20403 314// 40603 5//// 80235
AAXX 22064 60633 36/// /3512 10127 21054 333 20116
AAXX 22064 60691 36/// /0213 10104 21072 333 20104
AAXX 22064 60677 36/// /0000 11002 21048 333 21004
AAXX 22064 60676 16/// /0000 10054 21015 60054 333 20034
AAXX 22064 60662 36/// /0000 10040 21025 333 20031
AAXX 22064 60672 36/// /3304 10017 21092 333 20016
AAXX 22064 60661 36/// /0000 10006 21096 333 20006
BBXX 46204 22061 99514 71288 46/// /1011 10070 40272 57012 22200 00082 11205 70023 333 91213
AAXX 22064 62423 32960 00000 10044 20007 40217 52013 333 20032
AAXX 22064 62357 32560 22203 10106 20084 40190 52008 82500 333 20098
AAXX 22064 62403 31958 03302 10097 20068 40194 52015 71000 333 20078
AAXX 22064 62423 32960 00000 10044 20007 40217 52013 333 20032
AAXX 22064 62357 32560 22203 10106 20084 40190 52008 82500 333 20098
AAXX 22064 62403 31958 03302 10097 20068 40194 52015 71000 333 20078
AAXX 22064 86330 32998 20610 10280 20128 40024 57008 80006
AAXX 22064 86360 NIL
AAXX 22064 86460 NIL
AAXX 22064 86490 NIL
AAXX 22064 86530 NIL
AAXX 22064 86545 11296 80000 10196 20196 40093 52/// 60071 762// 8477/
AAXX 22064 86565 11396 82416 10210 20194 40074 52030 69931 76022 8677/
AAXX 22064 86580 11696 80712 10204 20191 40067 52007 60081 76396 8547/
BBXX VOXS 22064 99467 70480 41598 72422 10008 2103/ 40244 51010 70222 87500 22200 04019 20403 326// 40807 81004
AAXX 22061 48887 32970 70708 10291 20231 30080 40086 57020 80008 333 59006 87299
AAXX 22061 48877 01570 70206 10257 20217 30116 40121 57021 60073 70382 878// 333 59004 60031 86895 48888 3299 8 70703 10304 20238 30059 40074 57029 80008 333 59011 87299
AAXX 22061 48870 11460 80204 10243 20217 30114 40121 58029 60033 76062 888// 333 59006 69951 84894 88696 9616 0
AAXX 22061 48920 32598 70210 10280 20253 30069 40072 57028 879 222// 00284 2//04 333 59006 82895 82996 86697
BBXX ZDLS1 22063 99659 50010 41397 71919 11023 2//// 49777 52008 70222 874// 22252 05019 20101 30000
BBXX FHZI 22064 99661 31406 46/// /2403 11012 21027 39849 49860 52002 22243 05011 86018
AAXX 22064 89050 41296 83108 10000 21001 49891 57012 77074 8762/
AAXX 22064 89512 32598 81318 10001 21082 39625 49771 52016 885// 333 21007
AAXX 22064 89574 42998 30101 10038 21074 49859 52002 81031
AAXX 22064 89592 42498 70908 11004 21010 49838 52003 87500
AAXX 22064 89606 42998 12110 11280 21329 36291 47767 53001 80001 333 21344
BBXX B2M1303 22063 99333 31148 41498 22018 10235 20199 40130 57017 702// 81101 22284 00210 20403 324// 40704 80210
BBXX C6HS4 22063 99212 31000 41598 52114 10265 20215 40136 58/// 7//22 8344/ 22273 20505 80230
BBXX VREN5 22063 99341 31720 41597 61313 10180 20163 40238 57/// 70211 8/440 22262 20803 80170
BBXX VNAH 22064 99329 31150 46/// /2323 10216 20171 30102 40125 57010 22243 04226 85187
AAXX 22061 48892 32598 60507 10296 20255 30075 40080 57011 83208 333 59006 83895 86299
AAXX 22064 41244 36/// /1007 10208 21014 39870 48563 333 0E014 20127 59002
AAXX 22064 03896 16/// ///// 10107 69902 333 20105 55000
AAXX 22064 91650 11599 31105 10287 2026/ 40051 54000 60001 70200 83101 333 569/9 83820
AAXX 22064 91652 NIL
AAXX 22064 91656 NIL
AAXX 22064 91659 NIL
AAXX 22064 91660 NIL
AAXX 22064 91669 36/// /1210 10279 20262 40082 52003 90615
AAXX 22064 91670 36/// /0200 10267 20232 40072
AAXX 22064 91676 14/// /1003 10275 20235 30008 40068 50001 69951
AAXX 22064 91680 11599 71107 10240 20224 40082 53010 60001 70222 8483/ 333 5699/ 83827 83647 86361
AAXX 22064 91682 NIL
AAXX 22064 91683 11599 80000 10275 20239 40081 53003 69901 70382 8687/ 333 5699/ 83823 86648 87462
AAXX 22064 91691 14/// /1001 10276 20256 30081 40084 50003 60011
AAXX 22064 91693 11599 70000 10262 2024/ 40078 53003 69911 72126 8483/ 333 5699/ 83820 84645 85462
AAXX 22064 91697 14/// /1304 10256 20226 30079 40084 50002 60001
AAXX 22064 91699 14/// /1002 10234 20214 30063 40095 50005 60071
BBXX B2M1303 22063 99333 31148 41498 22018 10235 20199 40130 57017 702// 81101 22284 00210 20403 324// 40704 80210
BBXX C6HS4 22063 99212 31000 41598 52114 10265 20215 40136 58/// 7//22 8344/ 22273 20505 80230
BBXX VREN5 22063 99341 31720 41597 61313 10180 20163 40238 57/// 70211 8/440 22262 20803 80170
BBXX VNAH 22064 99329 31150 46/// /2323 10216 20171 30102 40125 57010 22243 04226 85187
BBXX 44029 22061 99425 70706 46/22 /2306 10112 40016 56020 90604 22200 00087 10602 70011 333 91208 555 11086 22097
BBXX 44030 22061 99432 70704 46/// /3302 1//// 40014 58021 90604 22200 00083 10602 70012 333 91202 555 11018 22019
BBXX 44033 22061 99441 70690 46/30 /2304 10081 40010 56018 90604 22200 00071 10802 70011 333 91205 555 11055 22062
BBXX 44040 22061 99410 70736 46/// /2509 10123 20091 40098 90615 22200 10301 70005 333 91211 555 11113 22134
AAXX 22061 21802 42999 00000 11420 21437 30296 40324 52003
AAXX 22061 24125 42998 60000 11406 21415 39987 40315 57001 80001
AAXX 22061 24136 42999 50000 11489 21522 30214 40336 51003 82031
AAXX 22061 24143 42999 30000 11423 21455 30299 40357 52009 83070
AAXX 22061 24266 41998 02501 11491 21516 30186 40401 52007 70400
AAXX 22061 24329 41999 50000 11433 21461 39986 40341 58001 70271 84501
AAXX 22061 24343 41997 71401 11421 21448 30219 40360 52006 71072 85032
AAXX 22061 24382 41993 20000 11443 21469 30091 40390 52012 74441 80001
AAXX 22061 24639 41995 80000 11431 21455 30164 40345 58004 77174 80007
AAXX 22061 24641 41998 60000 11467 21501 30186 40358 53011 71211 80001
AAXX 22061 24652 41996 00000 11461 21485 30234 40383 52002 71000
AAXX 22061 24656 42999 20401 11466 21501 30268 40391 52003 80001
AAXX 22061 24671 42999 20000 11481 21505 39807 40421 51003 80001
AAXX 22061 24688 41999 10000 11501 21535 39367 40482 52010 70400 80001
AAXX 22061 24724 41997 82602 11377 21405 39723 40333 58002 72271 80009
AAXX 22061 24738 41994 80000 11440 21458 30134 40344 54000 71071 80001
AAXX 22061 24768 41993 00000 11473 21507 30107 40390 52002 74440
AAXX 22061 24923 41994 30000 11383 21415 39991 40347 58001 71000 80001
AAXX 22061 24944 41996 40702 11420 21443 30017 40360 58001 71022 80001
AAXX 22061 24951 42998 30000 11435 21468 30175 40375 53002 82041
AAXX 22061 24661 41998 10000 11481 21511 30066 40389 54000 74000 80001
AAXX 22061 24959 41992 80000 11415 21443 30225 40378 52007 77174 80005 333 96048
AAXX 22061 24962 41995 50000 11448 21476 30158 40382 58002 71041 83031
AAXX 22061 24966 41999 80000 11427 21449 30115 40373 53003 70271 80006
AAXX 22061 24967 41999 80000 11381 21408 30128 40381 58001 70272 8802/
AAXX 22061 25206 42999 32101 11370 21397 30312 40343 52006 81031
AAXX 22061 25400 41996 81601 11420 21443 30293 40358 52008 71011 82031
AAXX 22061 30054 41998 80000 11313 21342 30063 40335 57006 77172 82047
AAXX 22061 30089 42999 00000 11415 21437 30112 40376 58004
AAXX 22061 30393 41999 63302 11337 21359 39150 40329 57001 70272 82031
AAXX 22061 30493 41398 81102 11308 21345 39133 40298 58003 77172 82677
AAXX 22061 31004 41997 80000 11329 21351 39398 40342 53003 77172 80007
AAXX 22061 31137 41997 80000 11331 21353 39146 40309 58002 77172 8802/
BBXX 41036 22061 99342 70770 46/// ///// 10203 20178 40185 90620 22200 00187
BBXX 46088 22061 99483 71232 46/// /0000 10055 40338 90620 22200 00078 10801 70004 333 91200 555 30535 40703 60619 180000 151004 121011 066013 047017 033014
BBXX 46088 22061 99483 71232 46/// /0000 10055 40338 90620 22200 00078 10801 70004 333 91200 555 30535 40703 60619 180000 151004 121011 066013 047017 033014
BBXX 46087 22061 99485 71247 46/// /0806 10052 20031 40332 90620 22200 00076 333 91208 555 11063 22065 30618 40808 60619 077060 072053 065044 065043 067043 076047
BBXX C6YA5 22064 99387 50555 41597 50203 10170 2//// 40030 53/// 750// 8//// 22244 0//// 20601 3//// 4//// 5//// 6//// 8//// ICE /////
BBXX V7HC6 22064 99273 70907 41/// /1412 10230 20230 40137 54000 700// 8//// 222// 00230 2//// 3//// 4//// 5//// 6//// 80230 ICE /////
BBXX WKAE 22063 99464 70298 41598 62627 10113 20029 40150 52033 70122 86400 22264 00130 2//// 3//// 4//// 5//// 6//// 80073 ICE /////
BBXX VOXS 22064 99467 70480 41598 72422 10008 2103/ 40244 51010 70222 87500 22200 04019 20403 326// 40807 81004
AAXX 22061 30157 42998 80000 11286 21317 30016 40335 58007 82041
BBXX DGUG2 22064 99197 70242 41396 60920 10210 20172 40175 56005 703// 86775 22294 04240 20604 80185
BBXX DCPX2 22063 99101 10671 41/97 20221 10285 20214 40120 70500 81101 22224 00270 20203 30000 80235
BBXX A8IQ2 22060 99197 30574 41498 70908 10266 20223 40152 56008 70322 8/792 22253 06275 20403 314// 40603 5//// 80235
BBXX DPUW 22064 99119 10446 41598 21020 10270 20206 40195 51015 70200 82141 22235 00275 20804 312// 40802 5//// 80225
BBXX HZGH 22063 99240 10652 41497 80510 10225 20071 40218 52/// 70222 84610 22274 02210 20302 30500 40301 5//// 80145
BBXX SHIP 22064 99379 11421 41297 62408 00/// 10100 20081 40072 57031 70222 85392 9//// 22243 00166 20401 310// 40402 5//// 6//// 80090 THNKS/B/REGARDS MASTER PACIFIC GLORY INM C - 443272110
BBXX A8HD5 22061 99057 10969 41597 71110 10260 20246 40100 56010 76262 84875 22223 04262 20301 311// 40502 5//// 80250
BBXX MZER8 22060 99295 11224 41397 73615 10101 20009 40251 57020 70322 8576/ 22200 00129 20302 301// 40403 5//// 80063
BBXX DGTX 22063 99330 11522 41598 42426 10192 20107 40128 56022 72586 8246/ 22264 00230 20505 322// 41004 80142
BBXX A8CN8 22060 99522 11740 41497 63409 10010 40020 52005 70222 867// 22263 00050 2//03 327// 4//03 5////
BBXX SHIP 22064 99379 11421 41297 62408 00/// 10100 20081 40072 57031 70222 85392 9//// 22243 00166 20401 310// 40402 5//// 6//// 80090 THNKS/B.REGARDS MASTER PACIFIC GLORY INM C - 443272110
BBXX SHIP 22064 99526 11632 41/97 80125 11030 21061 40128 52022 77022 887// 90555 22264 00030 20503 301// 40604 81040
BBXX DDZF2 22064 99198 11155 41397 50428 10235 20166 40140 58010 70222 82744 22214 00240 20806 305// 40804 80190
BBXX SHIP 22064 99082 11277 41698 53108 10280 20239 40043 57083 70211 8433/ 22284 00297 20000 336// 40404 80250
BBXX SHIP 22064 99539 11798 41598 51007 10000 21000 40016 55001 70222 84/// 90600 22214 00040 2//// 3//// 4//// 80000
BBXX SHIP 22064 99144 11420 41398 50918 10278 20234 40058 57020 71561 83463 22213 00293 10605 20102 308// 40804
BBXX SHIP 22063 99269 11266 41395 83533 10170 2010/ 40179 57031 7//22 886// 22244 00236 20909 3//// 4//// 5//// 6//// 80130 ICE /////
BBXX OXOR2 22064 99167 11132 41/97 90320 10245 20186 40131 58032 702// 8971/ 22244 00253 20606 321// 40604 80205
BBXX 46244 22061 99409 71244 46/// ///// 1//// 90605 22200 00094 11306 20805 329// 41303 70029
BBXX 46249 22061 99338 71197 46/// ///// 1//// 90612 22200 00146 11402 20502 325// 41402 70011
BBXX 46248 22061 99461 71247 46/// ///// 1//// 90604 22200 00096 11304 21003 329// 41303 70021
BBXX 41053 22061 99185 70661 46/// /0710 10262 40167 90540 333 91212
BBXX 41053 22061 99185 70661 46/// /0710 10262 40166 90550 333 91212
BBXX 41053 22061 99185 70661 46/// /0710 10264 40165 58013 90600 22200 00271 10805 70027 333 91213
BBXX KFMV 22063 99330 71204 41498 42912 10117 2009/ 40185 52015 70210 8423/ 22264 00133 20301 301// 40501 5//// 6//// 80100 ICE /////
BBXX WKPF 22063 99402 70418 43/98 ///// 10110 2006/ 40282 51010 7//// 8//// 22265 00177 2//// 3//// 4//// 5//// 6//// 80085 ICE /////
BBXX 46207 22061 99509 71299 46/// /1809 10084 40253 57009 22200 00083 11205 70027 333 91211
BBXX 46112 22061 99481 71227 46/// /2101 10040 40338 52005 90600
BBXX 46111 22061 99481 71227 46/// /0000 10047 40338 53007 90600 22200 00058
BBXX C6VG7 22064 99189 70794 41595 40823 10270 2//// 40140 54/// 7//// 84443 22264 00270 20405 3//// 4//// 5//// 6//// 8//// ICE /////
BBXX 44067 22061 99384 70770 46/// /3204 10163 40129 51011 90600
BBXX 44032 22061 99437 70694 46/30 /2404 10074 40008 58018 90604 22200 00085 10603 70017 333 91205 555 11048 22050
BBXX 41029 22061 99328 70796 46/// /2401 1//// 90600 555 11018 22020
BBXX 41037 22061 99340 70775 46/// /2205 10187 40183 56015 90600 22200 00175 333 91206
BBXX WDF7020 22064 99434 70825 41/97 82508 1//// 2//// 40132 54/// 70002 8//// 22283 0//// 20302 3//// 4//// 5//// 6//// 8//// ICE /////
BBXX TBWUK17 22063 99219 30722 41297 31114 10359 20222 40207 52022 70111 83625 22263 04261 20503 31010 40304 50405 80234
BBXX IDDUK02 22064 99531 50416 46/// ///// 49911 222//
BBXX C6YA5 22064 99387 50555 41597 50203 10170 2//// 40030 53/// 750// 8//// 22244 0//// 20601 3//// 4//// 5//// 6//// 8//// ICE /////
BBXX VOXS 22064 99467 70480 41598 72422 10008 2103/ 40244 51010 70222 87500 22200 04019 20403 326// 40807 81004
BBXX C6CU6 22063 99268 70692 41597 41119 10215 20200 40260 58005 70211 835// 22263 04245 20805 305// 41405 5//// 80205
BBXX 46204 22061 99514 71288 46/// /1011 10070 40272 57012 22200 00082 11205 70023 333 91213
BBXX 46131 22061 99499 71250 46/// /2602 1//// 40343 57003 22200 00069 10200 70001 333 91202
BBXX 44039 22061 99411 70727 46/// /2309 10119 20102 40080 53007 90600 22200 00093 10402 70008 333 91213
BBXX 44022 22061 99409 70737 46/// ///09 10128 20077 40096 90615 22200 00083 333 91212 555 11098 22113
BBXX 44060 22061 99413 70721 46/// ///11 10116 40062 90615 22200 00104 333 91213 555 11124 22134
BBXX 41052 22061 99183 70648 46/// /0711 10266 40157 58014 90600 22200 00272 333 91215
BBXX 44034 22061 99441 70681 46/08 /2306 10090 40011 58017 90604 22200 00083 10604 70021 333 91207 555 11070 22077
BBXX 42085 22061 99179 70665 46/// ///// 1//// 90600 22200 00273
BBXX 41052 22061 99183 70648 46/// /0712 10266 40158 90550 333 91215
BBXX 41052 22061 99183 70648 46/// /0711 10266 40159 90540 333 91213
BBXX 46183 22061 99536 71311 46/// /1615 10072 40192 57020 22200 0//// 1//// 70/// 333 912//
BBXX WDE8265 22063 99410 70461 41398 73419 10095 2002/ 40299 52010 70222 8727/ 22224 0//// 20303 334// 40704 5//// 6//// 80060 ICE /////
BBXX ELQQ4 22064 99389 70681 41/97 53224 10180 2016/ 40140 56030 78121 8//// 22264 00180 20408 3//// 4//// 5//// 6//// 80170 ICE /////
BBXX 46147 22061 99518 71312 46/// /1813 10082 40224 57009 22200 00079 10807 70035 333 91217
BBXX A8IP3 22063 99372 70504 41697 20616 10160 20042 40290 52010 70111 81145 22214 04200 20302
BBXX H9UY 22064 99224 71660 41899 40819 00/// 10240 40167 51020 70100 84131 9//// 22273 04250 20503 306// 40504 5//// 6//// 80210
BBXX 41115 22061 99184 70673 46/// ///// 1//// 90605 22200 11504 21003 336// 41504 70022
BBXX 44098 22061 99428 70702 46/// ///// 1//// 90607 22200 00087 10703 20703 311// 41101 70014
BBXX 41114 22061 99276 70802 46/// ///// 1//// 90616 22200 00238 11402 21001 307// 41401 70010
BBXX 42364 22061 99291 70881 46/// /1607 10211 20200 40163 90615
BBXX 42363 22061 99282 70892 46/// /1505 10222 20200 40159 90630 333 91205
BBXX 46114 22061 99364 71222 46/// ///// 1//// 90604 22200 00120 11406 21004 330// 41405 70032
BBXX 51205 22061 99210 71564 46/// ///// 1//// 90618 22200 00240 10805 20805 333// 41202 70027
BBXX WDD6127 22064 99387 70605 41598 51628 10190 2014/ 40206 56012 70222 854// 22224 00220 20508 3//// 4//// 5//// 6//// 80160 ICE /////
BBXX 46221 22061 99339 71186 46/// ///// 1//// 90545 22200 00148 11302 20501 326// 41301 70009
BBXX 46242 22061 99332 71174 46/// ///// 1//// 90558 22200 00144 11301 20601 323// 41301 70007
BBXX 46222 22061 99336 71183 46/// ///// 1//// 90556 22200 00151 11302 20601 327// 41302 70011
BBXX 46231 22061 99327 71174 46/// ///// 1//// 90554 22200 00150 11302 21002 326// 41302 70012
BBXX 46211 22061 99469 71242 46/// ///// 1//// 90606 22200 00081 11204 21002 328// 41203 70020
BBXX 46223 22061 99335 71178 46/// ///// 1//// 90600 22200 00150 11302 21001 326// 41302 70010
BBXX 46216 22061 99343 71198 46/// ///// 1//// 90557 22200 00143 11402 21002 327// 41402 70012
BBXX 46212 22061 99408 71243 46/// ///// 1//// 90612 22200 00094 11306 20804 329// 41304 70029
BBXX 46237 22061 99378 71226 46/// ///// 1//// 90610 22200 00109 11404 21002 327// 41403 70021
BBXX 46240 22061 99366 71219 46/// ///// 1//// 90612 22200 00123 11103 21001 335// 41102 70013
BBXX 46241 22061 99330 71173 46/// ///// 1//// 90541 22200 00144 11302 20601 326// 41301 70008
BBXX DBIP 22063 99381 10103 41598 43607 10157 20101 40150 53010 70111 83440 22223 04160 20502 30534 40903 50802 80125
BBXX WKAE 22063 99464 70298 41598 62627 10113 20029 40150 52033 70122 86400 22264 00130 2//// 3//// 4//// 5//// 6//// 80073 ICE /////
BBXX EIPT 22064 99544 70054 41/97 32111 10120 20111 40207 54000 70200 8//// 22200 20401 3//// 4//// 5//// 80115
BBXX 61002 22064 99421 10047 46/// ///35 10144 2//// 40212 52028 22200 00138 10808 70041 555 1/046
BBXX 63112 22064 99611 10010 47496 /2818 10098 20055 40025 52029 700// 22200 10605 70026
BBXX 63119 22064 99583 10009 41497 72814 10091 20080 40097 52030 78172 8772/ 22200 20302 326// 40505 5////
BBXX 62305 22064 99504 10000 46/98 /2923 10118 20098 40261 53004 22200 00120 10601 70007 333 90710 91129
BBXX 62103 22064 99499 70029 46/98 /3126 10118 20090 40282 53006 22200 00123 10602 70012 333 90710 91133
BBXX 62304 22064 99511 10018 46/98 /2714 10122 20087 40229 53005 22200 00110 10501 70004
BBXX 62170 22064 99514 10020 46/97 /2722 10111 20093 40220 52008 22200 00110 10502 70008 333 90710 91129
BBXX 62103 22064 99499 70029 46/98 /3127 10118 20093 40276 52002 22200 00123 10602 70012 333 90710 91132
BBXX 62094 22064 99517 70067 46/// /2417 10119 20094 40260 57002 22200 00106 10503 70017 333 90710 91126
BBXX 9HA2950 22064 99349 70066 41398 11810 10153 20133 40277 53005 70200 811// 22253 00170 20401 320// 40602 5//// 80142
BBXX PJGO 22064 99571 10022 47597 /2608 10099 20091 40118 52021 700// 22200
BBXX 62164 22064 99572 10008 47597 /2617 10117 20091 40116 52013 700// 22200 00094 10504 70020
BBXX 62140 22064 99573 10013 46/// /28// 10103 20087 40108 52013 22200
BBXX 62146 22064 99572 10021 47/96 /0000 10101 20082 40117 52016 704// 22200 10503 70016
BBXX 62122 22064 99573 10016 47597 /2817 10103 20084 40115 51014 700// 22200 10503 70016
BBXX 62153 22064 99573 10020 47597 /2609 10099 20086 40113 51019 700// 22200 10503 70016
BBXX 62104 22064 99574 10013 47597 /2819 10101 20087 40108 52015 700// 22200
BBXX 62116 22064 99576 10011 47598 /2719 10105 20086 40106 52015 700// 22200 10503 70016
BBXX 62155 22064 99577 10007 47598 /2620 10107 20092 40111 51011 700// 22200 10503 70014
BBXX 62118 22064 99577 10009 47597 /2618 10109 20086 40101 52014 700// 22200 10503 70016
BBXX 62143 22064 99577 10018 47597 /2819 10100 20091 40114 51014 700// 22200 10503 70016
BBXX 62117 22064 99579 10000 47598 /2621 10103 20084 40102 51009 700// 22200 10403 70013
BBXX 62102 22064 99579 10018 46/// /2817 10108 20088 40102 52017 22200 10503 70017
BBXX 62134 22064 99580 10014 47597 /2618 10099 20086 40104 52016 700// 22200 10503 70015
BBXX 62114 22064 99583 10000 46/// /2518 10099 20085 40096 53016 22200
BBXX ZQSD5 22064 99583 10007 46/// /2511 10095 20085 40100 53018 22200 10703 70017
BBXX 62142 22064 99530 10021 47896 /3022 10093 20077 40188 53012 710// 22200 10403 70014
BBXX 62145 22064 99531 10028 47497 /2922 10098 20076 40195 52016 700// 22200 10402 70012
BBXX 62144 22064 99534 10017 47996 /2823 10096 20079 40199 51018 700// 22200 10403 70017
BBXX 62121 22064 99535 10027 46/// ///// 22200
BBXX 62150 22064 99536 10007 47997 /2729 10103 20081 40199 51018 700// 22200 10503 70014
BBXX 62148 22064 99536 10015 46/// /2822 10098 20080 40194 51021 22200
BBXX 62149 22064 99537 10011 47998 /2824 10104 20084 40184 51014 700// 22200 10503 70017
BBXX 62131 22064 99539 10012 46/// /28// 10101 20083 40176 51013 22200
BBXX 62165 22064 99540 10009 47897 /2721 10101 20079 40185 51014 700// 22200 10504 70018
BBXX 62127 22064 99540 10007 47997 ///// 10102 20079 40178 52015 700// 22200 10403 70016
BBXX 62123 22064 99563 10022 47697 /2817 10103 20088 40129 52018 700// 22200
BBXX BATFR23 22064 99412 10035 44998 13016 10160 20110 40227 53009 70211 81100 22284 00154 20504 334// 40504 5////
BBXX BATUK01 22064 99581 70034 46/// /2632 10109 20072 40072 56021 22211 00087
BBXX 61001 22064 99434 10078 46/// /0502 10125 20030 40176 52016 22200 00149 10702 70008
BBXX BAREU62 22064 99404 10291 46/// ///// 40116 52004 22221
BBXX BATEU05 22064 99581 70295 46/// /2325 10057 20015 49764 55053 22223
BBXX BATFR42 22064 99507 70020 46/// /2806 10094 20077 40269 53005 22282 00124
BBXX BATEU01 22064 99504 10006 46/// /2817 10112 20092 40251 56013 22223 00119
BBXX BATEU04 22064 99610 70015 46/// /2823 10097 20045 4//// 22262
BBXX BATFR12 22064 99482 70066 46/// /2509 10130 20099 40325 56003 22271 00140
BBXX BATFR11 22064 99428 10066 46/// ///// 10125 20059 40180 53018 22264 00159
BBXX BATFR01 22064 99354 10229 46/// /2327 10129 20090 40031 56028 22261 00184
BBXX BATFR20 22064 99414 10094 46/// ///// 10122 20054 40169 53018 22284
BBXX BATFR54 22064 99517 70059 46/// /2321 10119 20089 40264 53015 22243 00115
BBXX BATFR04 22064 99584 70062 46/// /2324 10109 20092 40079 58001 22200 00102
BBXX BATFR02 22064 99508 70011 46/// /2615 10094 20074 40273 53007 22283 00104
BBXX BATFR27 22064 99452 70041 46/// /3412 10142 20075 40334 53008 22245 00142
BBXX BATFR46 22064 99424 10036 46/// /3337 10150 20107 40225 53018 22282 00159
BBXX BAREU00 22064 99503 10000 46/// ///// 40255 57010 22223
BBXX BAREU60 22064 99436 10135 46/// ///// 40194 52030 22252
BBXX BAREU08 22064 99537 10062 46/// ///// 40154 57007 22224
BBXX TESTFR9 22064 99486 70020 46/// ///// 10113 29096 40323 52024 22200
BBXX LF5T 22064 99660 10081 43698 /1625 10056 20004 49978 57030 22200 10704 70019 333 91131
BBXX LF3N 22064 99653 10073 41598 61725 10043 20007 49979 57026 78082 868// 22200 00088 10705 70026
BBXX LF3F 22064 99643 10078 41697 71419 10031 21015 49999 57018 76162 8372/ 22200 04083 10705 70023 333 91124
BBXX LF4C 22064 99584 10019 41596 82821 10096 20091 40096 52022 780// 89/// 22200 00082 10604 70018 333 91128
BBXX LF4B 22064 99606 10037 47/96 /2614 10092 40053 52028 781// 22200 00068 10707 70037 333 91142
BBXX 3ERR2 22064 99635 10053 41497 82229 10079 20079 49966 57024 76162 887// 22200 06101 10908 70041 333 91133
BBXX MINUK05 2206/ 99577 70017 46/// ///// 10108 40105 52035
BBXX 62132 22064 99564 10020 46/// /3019 10103 20091 40134 52015 22200
BBXX 62120 22064 99564 10021 47697 /2921 10100 40126 52015 700// 22200
BBXX 62154 22064 99564 10022 46/// /2918 10100 20091 40125 52015 22200
BBXX 62152 22064 99570 10018 47/97 /2611 10101 20082 40126 52017 700// 22200 10403 70017
BBXX 62119 22064 99570 10019 47597 /2919 10103 20090 40124 52018 700// 22200 10403 70016
BBXX 64041 22064 99607 70026 47596 /2525 10094 20055 40029 51016 700// 22200 10807 70034
BBXX 62133 22064 99571 10009 46/// /2621 10103 20078 40116 52015 22200 10504 70018
BBXX MWYG6 22064 99603 70040 47997 /2618 10109 700// 22200
BBXX 63115 22064 99616 10013 47597 /2520 10097 20062 40016 52028 700// 22200 10706 70032
BBXX 63117 22064 99613 10011 47597 /2718 10103 20048 40023 52027 700// 22200
BBXX 63104 22064 99612 10016 47597 /2717 10092 20083 40023 52031 700// 22200
BBXX 63103 22064 99612 10011 46/// /2819 10097 20053 40029 52027 22200 10605 70027
BBXX 63101 22064 99612 10009 46/// /2915 10106 20068 40022 52030 22200
BBXX 63107 22064 99611 10017 46/// /2813 10100 40028 52030 22200
BBXX 63113 22064 99610 10017 46/// /2814 10100 20067 40037 52027 22200 10606 70028
BBXX 63105 22064 99610 10017 47596 ///// 10100 20065 40031 52031 700// 22200
BBXX 63106 22064 99610 10017 46/// /2817 10092 40031 52032 22200
BBXX 63108 22064 99608 10017 47597 /2920 10094 20060 40033 52026 704// 22200 10704 70022
BBXX 62113 22064 99584 10002 47396 /2615 10094 20085 40098 53014 700// 22200
BBXX 62129 22064 99584 10003 46/// ///// 10095 20087 40098 53018 22200
BBXX 62128 22064 99587 10014 47597 /2722 10097 20088 40090 52026 700// 22200 10504 70018
BBXX 63057 22064 99592 10015 47496 /2721 10100 20081 40069 52019 700// 22200 10604 70020
BBXX 63110 22064 99595 10015 47596 /2816 10099 20085 40063 52023 700// 22200 10504 70020
BBXX 62111 22064 99580 70003 46/// /2619 10105 20079 40110 52013 22200 10503 70014
BBXX 63056 22064 99597 10016 47597 /2618 10097 20085 40047 52021 700// 22200 10504 70020
BBXX 62112 22064 99584 70002 47497 /2611 10099 20088 40098 52014 700// 22200
BBXX PJAI 22064 99581 70014 47598 /2515 10114 20075 40099 52015 700// 22200
BBXX 63055 22064 99606 10016 47897 /2817 10089 20087 40041 52025 700// 22200 10604 70022
BBXX 63110 22063 99595 10015 41/97 /2821 10099 40057 700// 8//// 22200 10604 70020
BBXX 62303 22064 99516 70051 46/// /2612 10118 20094 40262 57002 22200 00110 10604 70019
BBXX 62301 22064 99524 70047 46/// /2511 10097 20088 40250 52002 22200 00088 10503 70017
BBXX 62001 22064 99452 70050 46/// /0107 10134 20078 40338 55000 22200 00141 10704 70022
BBXX 64046 22064 99606 70049 46/// /2618 10087 20067 40024 51009 22200 00075 10808 70039
BBXX 62163 22064 99475 70084 46/// /2105 10129 20095 40328 57003 22200 00127 10905 70025
BBXX 62029 22064 99487 70125 46/// /2119 10133 20111 40250 58046 22200 00129 10705 70027
BBXX 62442 22064 99490 70164 46/// /2023 1//// 2//// 40240 57012 22200 00125 333 90710 91131
BBXX 62081 22064 99510 70134 46/// ///// 10128 20114 40234 58014 22200 00119 10707 70034
BBXX LAXP4 22064 99379 70266 41098 11719 00/// 10130 2013/ 40277 56009 70222 87/// 22253 00160 20501 317// 40203 80130 NNNN
BBXX 62105 22064 99554 70121 46/// /2226 10119 20106 40122 56012 22200 00107 10809 70045 333 90710 91133
BBXX 64045 22064 99591 70117 46/// /2119 10102 20096 40014 58016 22200 00101 10911 70053
BBXX 62087 22061 99547 10068 46/// /9900 10094 20091 4//// 5//// 22240 00083
BBXX BAREU56 22064 99329 10132 46/// ///// 40166 22200
BBXX BAREU63 22064 99401 10147 46/// /1309 10104 29063 40114 52016 22272
BBXX BAREU51 22064 99407 10115 46/// ///// 40136 52023 22285
BBXX BATEU00 22064 99698 30069 46/// /1211 11023 21031 49767 22232
AAXX 22064 67771 32980 10203 10230 20162 38/// 48/// 80002 333 20171 5//// 81080
AAXX 22064 67969 32975 23301 10239 20153 38/// 48/// 82030 333 20173 5//// 82360
AAXX 22064 67971 32975 02703 10245 20128 38/// 48/// 333 20180 5////
AAXX 22064 67855 32980 41901 10242 20138 38/// 48/// 80001 333 20123 5//// 84080
AAXX 22064 67951 32980 20207 10229 20118 38/// 48/// 82030 333 20176 5//// 82360
AAXX 22064 67765 32982 10607 10236 20141 38663 48508 80002 333 20179 59018 81656
AAXX 22064 67775 32980 10512 10218 20138 38507 48511 80002 333 20147 59016 81080
AAXX 22064 67779 32980 21404 10238 20164 39053 48512 80002 333 20189 59011 82080
AAXX 22064 67853 NIL
AAXX 22064 67861 32980 10302 10255 20137 38723 48507 80002 333 20190 59011 81080
AAXX 22064 67867 32980 10403 10229 20105 38577 48506 80001 333 20115 59013 81080
AAXX 22064 67881 NIL
AAXX 22064 67965 32980 00703 10246 20130 38685 48513 333 20154 59014
AAXX 22064 67975 32980 00201 10224 20141 38915 48506 333 20136 59017
AAXX 22064 67977 32980 10000 10265 20174 39650 48535 80002 333 20178 59025 81080
AAXX 22064 67983 32975 13301 10240 20156 38876 48507 80001 333 20152 59026 81080
AAXX 22064 67991 32980 01102 10283 20161 39565 48481 333 20223 59020
AAXX 22064 67755 32975 31801 10276 20198 38/// 80001 333 20223 5//// 83080
AAXX 22064 67771 NIL
AAXX 22064 67773 32980 10605 10252 20140 38/// 48/// 80001 333 20170 5//// 81080
AAXX 22064 67774 NIL
AAXX 22064 67785 NIL
AAXX 22064 67789 NIL
AAXX 22064 67855 NIL
AAXX 22064 67857 NIL
AAXX 22064 67863 32980 10000 10234 20144 38/// 48/// 80001 333 20141 5//// 81080
AAXX 22064 67871 NIL
AAXX 22064 67875 NIL
AAXX 22064 67891 NIL
AAXX 22064 67895 NIL
AAXX 22064 67897 NIL
AAXX 22064 67899 32980 03003 10228 20156 38/// 48/// 333 20146 5////
AAXX 22064 67951 NIL
AAXX 22064 67963 32980 00201 10233 20130 38/// 48/// 333 20127 5////
AAXX 22064 67967 NIL
AAXX 22064 67971 NIL
AAXX 22064 67976 32980 02803 10260 20154 38/// 48/// 333 20161 5////
AAXX 22064 67979 NIL
AAXX 22064 42309 32996 00000 10246 20157 40146 333 59003
AAXX 22064 42314 32996 00000 10230 20093 40144 333 59010
AAXX 22064 42410 31/93 00000 10154 20140 40156 74344 333 59019
AAXX 22064 42415 31996 03601 10210 20145 40169 70544 333 59007
AAXX 22064 42809 31995 03402 10186 20104 40162 70511 333 59005
AAXX 22064 42398 NIL
AAXX 22064 42492 NIL
AAXX 22064 42587 NIL
AAXX 22064 42591 NIL
AAXX 22064 42623 NIL
AAXX 22064 42701 NIL
AAXX 22064 42706 NIL
AAXX 22064 42724 NIL
AAXX 22064 42798 NIL
AAXX 22064 42886 NIL
AAXX 22064 42895 NIL
AAXX 22064 42971 NIL
AAXX 22064 42977 NIL
AAXX 22064 43333 NIL
AAXX 22064 43368 NIL
BBXX AUTQ 22064 99524 10029 42/98 93021 10110 20049 40146 51014 70201 89/// 22215 00130
AAXX 22061 55299 32880 22907 10025 21299 35838 57024 81402 333 00000 21185
AAXX 22061 55591 32980 30000 10071 21214 36499 57032 80002 333 05251 21075
AAXX 22061 56739 32580 12203 10177 20017 38349 57026 81100 333 05100 20024
AAXX 22061 56951 32780 10000 10202 20043 38495 57038 81100 333 05101 20041
AAXX 22061 56964 32580 11601 10191 20101 38715 40154 57029 81100 333 00051 20095
AAXX 22061 57328 11857 80000 10070 20047 39848 40269 57032 69991 76066 885// 333 20066
AAXX 22061 57411 11440 80202 10071 20060 39881 40261 57035 60021 76066 887// 333 20070
AAXX 22061 57447 11968 71102 10078 20003 39734 40292 57033 69901 76060 8703/ 333 20050
AAXX 22061 57662 32963 80201 10092 21058 30252 40297 57032 8807/ 333 20059
AAXX 22061 57745 31756 80403 10070 20007 39954 40292 57029 71000 885// 333 20049
AAXX 22061 57972 11757 80202 10055 20027 30047 40279 57029 69901 71060 885// 333 20047
AAXX 22061 58203 32970 00703 10059 21137 30282 40325 57035 333 21045
AAXX 22061 58314 32960 83401 10053 21023 30202 40313 57030 8807/ 333 21018
AAXX 22061 58424 31940 50403 10058 21028 30274 40300 57029 70500 85040 333 20036
AAXX 22061 59023 32561 80403 10125 20029 39925 40240 57037 888// 333 20104
AAXX 22061 59417 32963 30402 10201 20065 30039 40193 57045 83040 333 20141
AAXX 22061 59985 32580 60407 10252 20213 30123 40128 57031 86800 333 20226
AAXX 22061 59995 NIL
AAXX 22064 40250 NIL
AAXX 22064 40265 31940 50000 10054 20043 39399 40206 52004 71022 82032 333 20050 30000 82360 84070
AAXX 22064 40296 31958 30000 10144 20108 40180 54002 70500 80002 333 20135 30009 83070
AAXX 22064 40310 NIL
AAXX 22064 67765 32982 10607 10236 20141 38663 48508 80002 333 20179 59018 81656
AAXX 22064 67775 32980 10512 10218 20138 38507 48511 80002 333 20147 59016 81080
AAXX 22064 67779 32980 21404 10238 20164 39053 48512 80002 333 20189 59011 82080
AAXX 22064 67853 NIL
AAXX 22064 67861 32980 10302 10255 20137 38723 48507 80002 333 20190 59011 81080
AAXX 22064 67867 32980 10403 10229 20105 38577 48506 80001 333 20115 59013 81080
AAXX 22064 67881 NIL
AAXX 22064 67965 32980 00703 10246 20130 38685 48513 333 20154 59014
AAXX 22064 67975 32980 00201 10224 20141 38915 48506 333 20136 59017
AAXX 22064 67977 32980 10000 10265 20174 39650 48535 80002 333 20178 59025 81080
AAXX 22064 67983 32975 13301 10240 20156 38876 48507 80001 333 20152 59026 81080
AAXX 22064 67991 32980 01102 10283 20161 39565 48481 333 20223 59020
BBXX 46185 22061 99524 71298 46/// /1714 10074 40246 57012 22200 00073 10706 70030 333 91217
AAXX 22064 67755 32975 31801 10276 20198 38/// 80001 333 20223 5//// 83080
AAXX 22064 67771 NIL
AAXX 22064 67773 32980 10605 10252 20140 38/// 48/// 80001 333 20170 5//// 81080
AAXX 22064 67774 NIL
AAXX 22064 67785 NIL
AAXX 22064 67789 NIL
AAXX 22064 67855 NIL
AAXX 22064 67857 NIL
AAXX 22064 67863 32980 10000 10234 20144 38/// 48/// 80001 333 20141 5//// 81080
AAXX 22064 67871 NIL
AAXX 22064 67875 NIL
AAXX 22064 67891 NIL
AAXX 22064 67895 NIL
AAXX 22064 67897 NIL
AAXX 22064 67899 32980 03003 10228 20156 38/// 48/// 333 20146 5////
AAXX 22064 67951 NIL
AAXX 22064 67963 32980 00201 10233 20130 38/// 48/// 333 20127 5////
AAXX 22064 67967 NIL
AAXX 22064 67971 NIL
AAXX 22064 67976 32980 02803 10260 20154 38/// 48/// 333 20161 5////
AAXX 22064 67979 NIL
AAXX 22064 41529 12997 03102 10133 21032 39852 40240 60001 333 59013 60007
AAXX 22064 41598 11996 03104 10140 21068 39934 40211 60001 70500 333 59001
AAXX 22064 41620 31996 02305 10065 21244 38637 48536 70500 333 59010
AAXX 22064 41624 02997 03108 10150 21070 30019 40224 60001 333 59005 60007
AAXX 22064 41640 01996 03104 10140 20028 39956 40212 60001 70500 333 58002 60007
AAXX 22064 41660 11994 03104 10020 21100 38485 48570 60002 70600 333 58005
AAXX 22064 41675 11995 03610 10150 21024 30083 40227 60001 70500 333 58002
AAXX 22064 41712 11992 00504 10015 21133 39293 48557 60001 70400 333 59010
AAXX 22064 41715 01995 00000 10150 20056 30153 40219 60001 70400 333 59009 60007
AAXX 22064 41756 01994 03612 10155 20087 30151 40218 60001 70600 333 59008 60007
AAXX 22064 41764 31996 00212 10175 20051 30153 40203 60001 70400 333 58006 60007
AAXX 22064 41768 01995 03604 10185 20090 30192 40199 60001 70400 333 58016 60007
AAXX 22064 41780 02996 00508 10200 20031 40209 60001 333 58002 60007
BBXX 46185 22061 99524 71298 46/// /1714 10074 40246 57012 22200 00073 10706 70030 333 91217
AAXX 22064 41529 12997 03102 10133 21032 39852 40240 60001 333 59013 60007
AAXX 22064 41598 11996 03104 10140 21068 39934 40211 60001 70500 333 59001
AAXX 22064 41620 31996 02305 10065 21244 38637 48536 70500 333 59010
AAXX 22064 41624 02997 03108 10150 21070 30019 40224 60001 333 59005 60007
AAXX 22064 41640 01996 03104 10140 20028 39956 40212 60001 70500 333 58002 60007
AAXX 22064 41660 11994 03104 10020 21100 38485 48570 60002 70600 333 58005
AAXX 22064 41675 11995 03610 10150 21024 30083 40227 60001 70500 333 58002
AAXX 22064 41712 11992 00504 10015 21133 39293 48557 60001 70400 333 59010
AAXX 22064 41715 01995 00000 10150 20056 30153 40219 60001 70400 333 59009 60007
AAXX 22064 41756 01994 03612 10155 20087 30151 40218 60001 70600 333 59008 60007
AAXX 22064 41764 31996 00212 10175 20051 30153 40203 60001 70400 333 58006 60007
AAXX 22064 41768 01995 03604 10185 20090 30192 40199 60001 70400 333 58016 60007
AAXX 22064 41780 02996 00508 10200 20031 40209 60001 333 58002 60007
AAXX 22061 47003 42580 13207 11090 21229 30200 40204 53005 81500
AAXX 22061 47005 11570 23204 11212 21260 38547 52003 69901 73873 82500
AAXX 22061 47022 42975 03206 11154 21235 38777 54000
AAXX 22061 47028 42967 03601 11069 21199 30187 40287 58020
AAXX 22061 47031 42970 03207 11151 21211 38894 58003
AAXX 22061 47037 42970 03603 11066 21325 30151 40281 58012
AAXX 22061 47039 42960 02503 11064 21196 30066 40266 57018
AAXX 22061 47046 42969 02306 11018 21166 30171 40194 58005
AAXX 22061 47050 42965 03203 11060 21247 30239 40275 57025
AAXX 22061 47052 42965 03206 11076 21174 39911 40267 57009
AAXX 22061 47060 42960 02906 11065 21174 30224 40285 58012
AAXX 22061 47061 42980 03203 11011 21120 30167 40212 54000
AAXX 22061 47065 42980 03211 11058 21175 30213 40282 58019
AAXX 22061 47067 42970 03207 11054 21167 30157 40283 58011
AAXX 22061 47068 42570 33605 11042 21132 30236 40273 58018 83500
AAXX 22061 47070 42980 03205 11039 21237 30176 40267 58008
AAXX 22061 47075 42980 02703 11054 21190 39737 40181 57004
AAXX 22061 47008 42970 03203 11078 21264 30153 40210 58002
AAXX 22061 47014 42950 52303 11121 21204 39846 40274 58011 80001
AAXX 22061 47016 11570 22303 11145 21226 39338 40242 57002 69901 77071 81502
AAXX 22061 47020 42965 02702 11102 21228 39891 40292 58009
AAXX 22061 47025 42978 03405 11051 21191 30164 40194 52010
AAXX 22061 47035 42970 03204 11065 21233 30285 40294 57019
AAXX 22061 47041 42970 03408 11040 21207 30183 40211 58006
AAXX 22061 47055 42970 02304 11037 21123 30186 40233 58009
AAXX 22061 47058 42962 03205 11056 21203 30232 40282 58016
AAXX 22061 47069 42965 03602 11035 21113 30168 40272 58010
AAXX 22061 24790 41999 00801 11447 21465 39461 40425 52010 77670
AAXX 22061 24988 42999 22703 11246 21285 39982 40258 52007 80001
AAXX 22061 25378 32998 23207 11149 21230 30150 40185 52008 80001 333 11139 91113
AAXX 22061 25503 41698 80000 11418 21437 30217 40367 52007 77072 82537
AAXX 22061 25705 41996 82501 11426 21455 39983 40374 52007 77072 85047
AAXX 22061 25927 42998 00000 11266 21290 30245 40252 53014
AAXX 22061 25932 42999 63001 11182 21201 30173 40213 52006 86030
AAXX 22061 31152 42998 80000 11376 21412 39877 40343 53002 82036
AAXX 22061 31174 42599 80501 11151 21157 30215 40227 54000 81507
AAXX 22061 31489 41997 83101 11202 21228 30093 40219 53001 77172 8802/
AAXX 22061 31866 42998 83501 11077 21149 30135 40141 57014 84017
AAXX 22061 31959 41496 82602 11055 21081 30060 40103 57019 77187 8572/
AAXX 22061 31989 41498 83605 11067 21106 30053 40108 53002 78582 889// 333 91012 91114
AAXX 22061 32027 42999 23603 11235 21260 30213 40223 57001 80002 333 91004 91105
AAXX 22061 32076 42499 82901 11132 21152 30195 40206 57004 8652/ 333 91002 91104
AAXX 22061 32099 42998 70202 11078 21093 30169 40177 54000 87030 333 91004 91104
AAXX 22061 32121 41597 60806 11052 21073 30128 40151 57007 78583 85930 333 91010 91111
AAXX 22061 32213 42598 13219 11076 21090 30103 40168 53005 81500 333 91023 91123
AAXX 22061 32287 42699 81404 11194 21220 30202 40213 52006 885// 333 88633
AAXX 22061 32408 42999 13503 11205 21254 30139 40180 52015 80001
AAXX 22061 32509 41999 03406 11085 21199 30103 40138 54000 70230
AAXX 22061 32594 42599 20506 11105 21178 30159 40197 59010 82500 333 91111
AAXX 22061 47101 32980 02506 11019 21225 30145 40244 55005
AAXX 22061 47105 369// /3410 10015 21240 30169 40202 55001
AAXX 22061 47108 32970 02910 11041 21243 30150 40261 56008
AAXX 22061 47115 41510 80210 11021 21068 39896 40176 53006 78572 888// 333 92043
AAXX 22061 47133 32970 03207 11010 21172 30170 40258 56008
AAXX 22061 47138 32973 03207 10033 21279 30209 40212 53003 333 92023
AAXX 22061 47159 32975 03610 10046 21184 30119 40205 55006 333 92023
AAXX 22061 47165 32668 60222 10004 21066 30204 40252 55007 85500 333 92026
AAXX 22061 47168 32970 03416 10036 21141 30133 40214 57010 333 92035
AAXX 22061 47184 32567 73414 10044 21043 30229 40255 55004 87800 333 92054
AAXX 22061 47090 32973 03207 11004 21225 30184 40207 53001 333 92043
AAXX 22061 47095 32970 02508 11052 21236 30058 40256 55006
AAXX 22061 47097 329// /2908 11027 21220 30154 40254 55005
AAXX 22061 47098 329// /2905 11030 21223 30114 40254 55008
AAXX 22061 47099 329// /2908 11037 21229 30225 40263 56011
AAXX 22061 47100 32970 02715 11074 21213 39259 40215 53002
AAXX 22061 47102 41570 62910 11045 21119 30093 40280 57015 78588 86800
AAXX 22061 47104 32970 02907 10001 21235 30103 40203 53003
AAXX 22061 47106 329// /2910 10009 21229 30148 40198 53001
AAXX 22061 47112 32970 03417 11017 21182 30176 40263 57011 333 92025
AAXX 22061 47114 32970 02508 11024 21235 30052 40241 55007
AAXX 22061 47119 32970 03208 11027 21187 30218 40262 55006
AAXX 22061 47121 329// /2707 11021 21200 39925 40229 55005
AAXX 22061 47127 329// /2710 11022 21211 30100 40247 55010
AAXX 22061 47129 32670 23213 11019 21120 30235 40272 57011 81500
AAXX 22061 47130 32970 02709 10031 21227 30134 40197 53005 333 92023
AAXX 22061 47131 32970 03206 11027 21191 30186 40260 55006
AAXX 22061 47135 429// /2714 11023 21175 39928 40237 55008
AAXX 22061 47136 32970 02912 10000 21187 30044 40221 55003
AAXX 22061 47137 329// /2708 11011 21207 30110 40232 55009
AAXX 22061 47140 32670 23214 11014 21135 30232 40262 57007 82500 333 92024
AAXX 22061 47143 32972 02710 10017 21172 30150 40231 55007
AAXX 22061 47145 32970 03212 11032 21179 30230 40258 55004
AAXX 22061 47146 32670 23210 10002 21145 30183 40251 57013 82500
AAXX 22061 47150 32670 23410 11022 21134 30244 40264 58008 81500
AAXX 22061 47152 32975 02912 10025 21176 30164 40207 54000
AAXX 22061 47154 329// /3210 10002 21180 30171 40233 55005
AAXX 22061 47155 32980 01408 10033 21153 30163 40210 55001
AAXX 22061 47156 32670 50210 10004 21093 30158 40250 57012 85500
AAXX 22061 47157 32978 03412 10000 21159 39934 40211 55004
AAXX 22061 47162 32980 00513 10045 21171 30165 40206 55010 333 92024
AAXX 22061 47169 32670 63424 10014 21059 30158 40255 55011 85500 333 92066
AAXX 22061 47170 41675 53610 10014 21046 30197 40242 55007 72682 85500 333 92023
AAXX 22061 47171 329// /3206 11003 21116 30203 40260 56007
AAXX 22061 47172 329// /3210 11007 21093 30185 40254 56007
AAXX 22061 47173 329// /3409 10009 21115 30124 40238 57013
AAXX 22061 47174 32670 22905 10014 21131 30018 40225 57009 81500
AAXX 22061 47175 41562 63415 11029 21058 39651 40245 55005 78582 86800 333 92035
AAXX 22061 47185 41565 73433 10043 21017 30145 40238 55003 72682 87800 333 92058
AAXX 22061 47188 41568 60507 10028 21017 30214 40236 55006 72687 85800 333 92044
AAXX 22061 47189 32670 50906 10072 21033 30154 40214 55013 85500 333 92033
AAXX 22061 47192 32978 00208 10028 21163 30180 40218 57008
AAXX 22064 41515 02697 60000 10029 21058 38585 48545 60001 84520 333 56990 59017 60007 84650 82458
AAXX 22064 41560 22696 41803 10045 21030 38247 48478 60001 83430 333 59003 60007
AAXX 22064 41571 11994 00000 10125 20054 39624 40219 60001 70500 333 59001
AAXX 22064 41594 31995 03104 10150 20012 30999 40221 70500 333 58001
AAXX 22064 41685 32997 00000 10110 21090 38961 48535 333 58002
AAXX 22064 41710 01995 01302 10055 21136 39468 40280 60001 70600 333 59011 60007
AAXX 22064 41718 11995 00502 10130 20043 30112 40219 60001 70440 333 58002
AAXX 22064 41739 01993 03606 10050 21090 39112 48542 60001 70540 333 59009 60007
AAXX 22064 41744 32996 00000 10105 21053 38802 48521 333 59002
AAXX 22064 41749 21994 03602 10150 20069 30193 40226 60001 70400 333 58001 60007
AAXX 22064 41515 02697 60000 10029 21058 38585 48545 60001 84520 333 56990 59017 60007 84650 82458
AAXX 22064 41560 22696 41803 10045 21030 38247 48478 60001 83430 333 59003 60007
AAXX 22064 41571 11994 00000 10125 20054 39624 40219 60001 70500 333 59001
AAXX 22064 41594 31995 03104 10150 20012 30999 40221 70500 333 58001
AAXX 22064 41685 32997 00000 10110 21090 38961 48535 333 58002
AAXX 22064 41710 01995 01302 10055 21136 39468 40280 60001 70600 333 59011 60007
AAXX 22064 41718 11995 00502 10130 20043 30112 40219 60001 70440 333 58002
AAXX 22064 41739 01993 03606 10050 21090 39112 48542 60001 70540 333 59009 60007
AAXX 22064 41744 32996 00000 10105 21053 38802 48521 333 59002
AAXX 22064 41749 21994 03602 10150 20069 30193 40226 60001 70400 333 58001 60007
AAXX 22064 89132 NIL
AAXX 22064 89542 46/// /0914 10005 20040 49839 52017
AAXX 22064 89575 NIL
AAXX 22064 89657 46/// /3501 10008 20060 49861 52025
BBXX DGUG2 22064 99197 70242 41396 60920 10210 20172 40175 56005 703// 86775 22294 04240 20604 80185
BBXX A8IQ2 22060 99197 30574 41498 70908 10266 20223 40152 56008 70322 8/792 22253 06275 20403 314// 40603 5//// 80235
BBXX DCPX2 22063 99101 10671 41/97 20221 10285 20214 40120 70500 81101 22224 00270 20203 30000 80235
BBXX C6CU6 22063 99268 70692 41597 41119 10215 20200 40260 58005 70211 835// 22263 04245 20805 305// 41405 5//// 80205
AAXX 22061 13492 ///// 8//// 11094 333 21101
AAXX 22061 13585 11595 80505 11026 21033 39302 40119 50002 60042 77177 8802/ 333 21028 3/103 47008 92215
AAXX 22061 13597 11696 83604 10004 20001 30019 40094 5//// 60242 7737/ 8802/ 333 20004 30600
AAXX 22061 13598 11595 83604 11035 21040 48387 57009 60062 77177 8802/ 333 21037 3/104 47008 99508 92200
BBXX MSTM6 22063 99366 70001 41998 02508 10200 20140 40261 54000 70200 80000 22225 00165 2//// 80165
AAXX 22064 60340 32965 02206 10045 20020 40279 55003 333 20040
AAXX 22061 60376 36/// /1604 10088 20088 333 20088
AAXX 22061 60593 36/// /0000 10066 333 20038
BBXX A8VL5 22064 99329 10278 41498 12225 10150 20092 40260 57020 70111 81100 22264 00180 20505 30000 80120
AAXX 22064 41506 02997 00000 10050 21030 48569 60001 333 58000 60007
AAXX 22064 41508 22697 32302 10044 21055 48575 60001 83200 333 56900 59002 60007 83835
AAXX 22064 41523 12997 00000 10100 21024 48561 60001 333 58002 60007
AAXX 22064 41535 12997 00000 10100 21024 48518 60001 333 58001
AAXX 22064 41536 12997 01802 10100 20008 48545 60001 333 59002
AAXX 22064 41573 12997 01304 10080 21045 48517 60001 333 59001
AAXX 22064 41600 01995 00000 10130 20068 39901 40204 60001 70400 333 59005 60007
AAXX 22064 41630 11996 00000 10140 20013 40227 60001 70500 333 58005
AAXX 22064 41678 12997 03604 10140 20056 40223 60001 333 58009 60007
AAXX 22064 41696 32997 00000 10060 21129 38040 48559 60001 333 58003 60007
AAXX 22064 41697 02997 00000 10144 20035 40230 60001 333 58001 60007
AAXX 22064 41700 11995 00000 10135 20021 40217 60001 70400 333 58007
AAXX 22064 41725 01996 00502 10155 20050 40226 60001 70500 333 58001 60007
AAXX 22064 41746 22996 00504 10160 20057 40234 60001 333 58023 60007
AAXX 22064 41759 11995 03604 10190 21107 30116 40202 60002 70600 333 59015
AAXX 22064 41785 02997 03602 10170 20057 40197 60001 333 58000 60007
AAXX 22064 61017 31958 51025 10167 21005 39760 40174 7072/ 80002 333 00100 20070 50434 55099 58010 85080
AAXX 22064 61024 32960 30408 10160 21024 39594 40160 80002 333 00800 20130 51501 55/// 58017 83080 P042
AAXX 22064 61036 32965 70406 10195 21028 39899 40138 80008 333 01800 20194 51001 50864 55101 58011 87280
AAXX 22064 61043 32960 70610 10170 21047 39703 40146 80008 333 0//00 20169 51321 55103 58018 87280
AAXX 22064 61045 32965 70602 10150 21039 39656 40160 80008 333 01200 20150 50734 55103 58010 87280
AAXX 22064 61049 32960 70000 10150 21004 39822 40146 80008 333 01500 20150 50991 50724 55104 58015 87280
AAXX 22064 61052 32960 53606 10170 21002 39884 40142 80002 333 01400 20160 50891 55101 58005 85080
AAXX 22064 61075 32960 51002 10195 21030 39830 40140 80002 333 01700 20194 50681 50694 55103 58015 85080
AAXX 22064 61080 32960 70804 10142 21020 39715 40149 80008 333 01200 20140 50951 50954 55102 58008 87280
AAXX 22064 61090 32960 50204 10162 21046 39634 40149 80002 333 01400 20160 51111 50784 55107 58010 85080
AAXX 22064 61091 32965 50000 10120 20032 39701 40163 80002 333 00700 20119 50581 50494 55104 58010 85080
AAXX 22064 61096 31940 73602 10155 21045 39769 40155 70522 80008 333 01400 20150 50861 50784 55102 58010 87280
AAXX 22064 61099 32960 70206 10200 20013 39890 40119 80008 333 01600 20195 50971 55100 58005 87280
BBXX BATFR19 22064 99066 30057 46/// /1813 10235 20189 40143 52018 22200 00252
BBXX A8YW2 22064 99066 30835 41498 60910 10275 20234 40090 58010 72588 85442 22213 00260 21201 80245
BBXX BATFR55 22064 99073 30404 44598 60117 10289 20255 40125 70222 84122 22262 00290 207// 32121 411// 511//
BBXX A8CK2 22060 99076 30821 41498 8//// 10279 40082 52010 76000 8672/ 22253 299// 326// 40804 5////
BBXX A8TX8 22063 99163 31085 41598 41814 10290 20240 40072 57015 703// 82105 22285 04290 20602 319// 40903 80255
BBXX 3FMV6 22063 99168 30104 41998 31616 10180 20146 40118 53010 70111 80005 22244 06169 20803 80160
BBXX BATFR56 22064 99177 30608 44597 61124 10235 20219 40146 50001 76022 85428 22213 00274 20604 312// 40604 5////
BBXX A8IQ2 22060 99197 30574 41498 70908 10266 20223 40152 56008 70322 8/792 22253 06275 20403 314// 40603 5//// 80235
BBXX BATEU07 22064 99205 31097 46/// /1719 10284 40085 56019 22284
BBXX TBWUK17 22063 99219 30722 41297 31114 10359 20222 40207 52022 70111 83625 22263 04261 20503 31010 40304 50405 80234
BBXX OVYB2 22061 99275 30408 41598 61306 10275 20224 40134 51020 70222 8346/ 22263 00270 20301 30000 4//// 5//// 80240
BBXX A8KH9 22064 99307 30166 41598 62010 10190 20175 40130 51150 70311 85797 22244 02180 20101 30103 40202 50303 80180
BBXX TBWUK18 22064 99327 30033 41298 81411 10180 20180 40218 53020 70222 887// 22222 20501 321// 41405 5//// 80180
BBXX TBWUK42 22064 99335 30317 41297 81114 10240 20210 40083 57005 70552 85677 22213 20303 30400 40606 5//// 80220
BBXX DBBT 22061 99339 30184 46/// /3410 10157 20137 40124 52018 22212 00135
BBXX ONDY 22064 99343 30274 41/97 81614 10220 2017/ 40110 52030 75021 8//// 22212 00260 2//// 320// 4//// 5//// 6//// 80190 /////
AAXX 22064 13623 12960 50000 10040 21143 30106 40113 54000 60002 85030 333 20040 30/// 85360
AAXX 22064 40255 32660 51204 10094 20065 39469 40190 54001 82130 333 20070 30001 82830 84360
AAXX 22064 40260 31958 43210 10088 20049 39391 40176 54000 70500 80002 333 20050 30004 83070
AAXX 22064 40270 31920 40000 10092 20076 39277 40178 54000 71000 80001 333 20080 30002 84070
AAXX 22064 40272 31904 40000 10040 20038 39353 40203 52012 74400 80001 333 20006 30000 84070
AAXX 22064 40290 NIL
AAXX 22064 40340 32960 33606 10140 20105 40181 52010 80001 333 20126 30011 83070
AAXX 22064 06670 01142 81502 10018 20010 39740 40267 52012 60062 75076 887// 333 20006 3/000 43004 55000 55300 20000 60005 70066 82702 87706 90768 93100 91107 91206
AAXX 22064 06700 01464 83101 10026 20019 39774 40282 52008 69992 71022 8557/ 333 20014 3/001 41998 55000 55300 20004 60005 70031 81710 85632 88459 90768 93100 91105 91204
AAXX 22064 06680 01/01 92312 11072 21072 37505 47034 52014 60402 77374 333 21092 47251 55000 55300 20000 60045 70582 90768 93145 91138 91219
AAXX 22064 06990 01430 81603 10004 20004 39705 40272 52010 60052 76977 887// 333 20002 3/100 42/// 55000 55300 20000 69955 70062 88715 91105 91204
AAXX 22064 06760 32967 12704 10023 21040 39751 40211 53024 81048 333 20024 30000 55013 55300 20000 70000 81364 90768 93100 91115 91208
AAXX 22064 06720 01265 8//// 10019 20012 39688 40282 52014 60022 70266 886// 333 20005 3/100 43023 55000 55300 20000 60005 70038 88704 90768 93100
AAXX 22064 06610 01556 82305 10036 20024 39676 40275 52014 60022 76166 887// 333 20011 32001 55000 55300 20000 60005 70051 88724 90768 93100 91113 91208
BBXX NIL
BBXX NIL
BBXX NIL
BBXX NIL
AAXX 22064 40250 NIL
AAXX 22064 40265 31940 50000 10054 20043 39399 40206 52004 71022 82032 333 20050 30000 82360 84070
AAXX 22064 40296 31958 30000 10144 20108 40180 54002 70500 80002 333 20135 30009 83070
AAXX 22064 40310 NIL
BBXX NIL
BBXX A8VL5 22064 99329 10278 41498 12225 10150 20092 40260 57020 70111 81100 22264 00180 20505 30000 80120
BBXX MSTM6 22063 99366 70001 41998 02508 10200 20140 40261 54000 70200 80000 22225 00165 2//// 80165
AAXX 22064 89022 46/// /0606 11049 21059 39739 49776 52009
AAXX 22064 89062 46/// /0101 11003 21039 39861 49902 57012 333 55092
AAXX 22061 23973 41997 81803 11127 21140 30224 40290 57003 77172 8802/
AAXX 22061 23975 41598 82402 11125 21152 30175 40290 58009 78582 889//
AAXX 22061 23986 41935 81602 11173 21192 39632 40308 53005 77372 8801/ 333 95090
AAXX 22061 23987 41496 71303 11145 21165 30226 40304 57004 78582 85930
AAXX 22061 24606 42899 20000 11415 21444 30036 40353 57008 82040
AAXX 22061 29253 41998 70000 11140 21167 30142 40325 57007 77172 87070
AAXX 22061 29471 41495 82802 11104 21132 30102 40341 58003 78582 889// 333 88919
AAXX 22061 29481 41997 83202 11108 21128 30078 40328 58010 77172 8802/
AAXX 22061 29553 41538 82503 11108 21121 39967 40351 57009 78582 8692/
AAXX 22061 29562 41597 82604 11100 21120 39920 40356 57004 78583 889//
AAXX 22061 29581 41998 82802 11087 21116 30069 40335 58006 77187 8802/
AAXX 22061 29594 41597 82901 11115 21135 39928 40332 58002 78582 889//
AAXX 22061 29653 41597 82303 11080 21142 39858 40361 57005 78582 883//
AAXX 22061 29675 41860 82501 11071 21114 39737 40348 57004 77177 8802/
AAXX 22061 29676 41696 83004 11057 21095 39890 40325 57006 77073 885//
AAXX 22061 29752 41496 72408 11158 21171 38893 48516 54000 78583 87900 333 91118
AAXX 22061 29759 41599 82304 11134 21177 39316 40402 57005 77173 8257/ 333 91112
AAXX 22061 29766 41898 80000 11084 21103 30012 40381 57009 77122 8802/
AAXX 22061 29789 42597 82301 11074 21139 39105 40317 58006 889//
AAXX 22061 29864 42899 82403 11071 21140 39706 40380 57006 8807/
AAXX 22061 29866 42999 82606 11057 21104 30043 40373 57012 8801/
AAXX 22061 29869 41698 72905 11051 21110 39999 40384 57012 73622 85549 333 91112 95030
AAXX 22061 29956 42698 82503 11069 21121 39835 40417 57006 889// 333 88940
AAXX 22061 30337 41998 80000 11294 21324 39844 40346 58008 77087 80008
AAXX 22061 30405 41998 83301 11128 21155 39766 40321 57004 77187 86035
AAXX 22061 30504 41998 83302 11120 21140 39648 40327 58001 77087 8802/
AAXX 22061 30603 41595 83102 11110 21116 39720 40314 52001 78682 889//
AAXX 22061 30612 41596 83203 11126 21139 39755 40314 58005 78682 8592/
AAXX 22061 30622 41998 80000 11213 21238 39642 40340 54000 70272 83033
AAXX 22061 30627 41997 82902 11131 21174 39320 40290 57005 77172 80005
AAXX 22061 30703 41999 80000 11102 21115 39613 40311 56010 72272 83077
AAXX 22061 36307 42899 83101 11259 21291 39108 48505 54000 8802/ 333 95000
AAXX 22061 23074 41997 81402 11188 21221 30172 40199 57007 77172 8807/
AAXX 22061 23274 41496 71602 11213 21231 30181 40220 58006 77172 8552/ 333 85618
AAXX 22061 23383 41897 80000 11329 21357 39901 40300 57004 77172 8801/
AAXX 22061 23472 41597 80902 11191 21217 30171 40223 54000 77187 8651/
AAXX 22061 23678 41497 80000 11111 21124 30190 40250 53001 78587 889//
AAXX 22061 23884 41967 81901 11119 21132 30202 40279 56001 77172 8802/
AAXX 22061 23891 41997 80000 11286 21324 39960 57008 77172 80006
AAXX 22061 24507 41995 50000 11416 21444 30055 40342 57013 71041 80002
AAXX 22061 24817 41999 20000 11388 21418 39923 40351 58002 74011 82040
AAXX 22061 24908 41962 80000 11375 21412 39970 40354 58004 77172 82037
AAXX 22061 29263 41596 72602 11125 21152 30218 40324 57004 78582 82932
AAXX 22061 29282 41997 82602 11144 21171 30132 40312 58003 77177 8807/
AAXX 22061 29379 41597 83003 11113 21141 30113 40332 57004 78587 8492/
AAXX 22061 29570 82602 11078 21119 39984 40345 58007 78582 889//
AAXX 22061 29698 41596 83503 11080 21106 39784 40314 58003 78582 889//
AAXX 22061 30230 41999 20000 11371 21415 39987 40367 58006 70240 80001
AAXX 22061 30252 41999 70000 11242 21267 39978 40324 54000 72272 82041
AAXX 22061 30309 41698 82902 11139 21166 39761 40309 58004 78582
AAXX 22061 30328 41997 80000 11233 21265 39877 40343 58005 77177 84077
AAXX 22061 30521 41997 80000 11201 21220 39764 40329 58007 70272 80001
AAXX 22061 30710 41593 82803 11078 21096 39703 40303 58007 78682 889//
AAXX 22064 71916 46/// /0000 11344 21374 39985 40043 56015 6///1 333 11302 21404 7////
AAXX 22064 71345 16/// /2211 11076 21109 60001 333 10000 21101 70006 555 30228 40172
AAXX 22064 71257 17/// /2008 11125 21150 69941 7//4/ 333 10005 21132 70009 555 33328 40082
AAXX 22064 71258 16/// /2212 11083 21144 60001 333 11005 21113 70000 555 33236 40103
AAXX 22064 71259 16/// /2108 11158 21177 60001 333 10013 21163 70000 555 33123 40091
AAXX 22064 71274 16/// /2504 11072 21094 60001 333 11028 21093 70000 555 32920 40171
AAXX 22064 71275 46/// /2104 11082 21097 6///1 333 11027 21094 7//// 555 32719 40191
AAXX 22064 71278 17/// /2607 11067 21093 69941 7//4/ 333 11019 21078 70004 555 33119 40201
AAXX 22064 71286 16/// /2505 11054 21082 60001 333 11018 21088 70004 555 32922 40171
AAXX 22064 71287 16/// /2307 11054 21085 60001 333 11012 21071 70000 555 32921 40161
AAXX 22064 71289 16/// /2211 11063 21110 60001 333 11003 21098 70007 555 33120 40081
AAXX 22064 71683 46/// /3116 11209 39915 40029 53023 6///1 333 11192 21282 7//// 555 33122 40051
AAXX 22064 71525 16/// /2207 11115 21125 60001 333 10006 21124 70009 555 33124 40121
AAXX 22064 71526 16/// /2208 11101 21124 60001 333 11003 21107 70004 555 33436 40123
AAXX 22064 71535 16/// /1708 11093 21116 60001 333 10004 21117 7////
AAXX 22064 71536 16/// /2210 11050 21114 60001 333 11012 21093 70011 555 33331 40162
AAXX 22064 71537 16/// /1807 11133 21145 60001 333 11001 21150 70000 555 33227 40091
AAXX 22064 71214 16/// /2510 11075 21110 60001 333 10002 21075 7////
AAXX 22064 71223 16/// /2411 11099 21128 60001 333 10001 21099 70000 555 32722 40031
AAXX 22064 71225 16/// /1806 11095 21119 60001 333 11003 21112 70008 555 30025 40161
AAXX 22064 71227 46/// /2209 11075 21101 6///1 333 11018 21101 7//// 555 33021 40181
AAXX 22064 71351 16/// /2306 11041 21087 60001 333 7////
AAXX 22064 71353 16/// /2110 11070 21121 60001 333 11007 21074 70011 555 33527 40101
AAXX 22064 71375 46/// /0206 11034 6///1 333 11015 21138 7//// 555 32224 40011
AAXX 22064 71385 46/// /3607 11012 6///1 333 7////
AAXX 22064 71445 16/// /3613 11115 21157 39932 40219 51020 60001 333 11035 21125 70000 555 33325 40031
AAXX 22064 71010 16/// /2606 11077 21110 60001 333 11010 21093 70004 555 33021 40191
AAXX 22064 71464 46/// ///14 10050 39907 40119 51023 6///1 333 10109 20050 7////
AAXX 22064 60650 36/// /0000 10049 21036 333 20045
AAXX 22064 60679 36/// /3514 11016 21132 333 21016
AAXX 22064 71445 16/// /3613 11115 21157 39932 40219 51020 60001 333 11035 21125 70000 555 33325 40031
AAXX 22064 71214 16/// /2510 11075 21110 60001 333 10002 21075 7////
AAXX 22064 71223 16/// /2411 11099 21128 60001 333 10001 21099 70000 555 32722 40031
AAXX 22064 71225 16/// /1806 11095 21119 60001 333 11003 21112 70008 555 30025 40161
AAXX 22064 71227 46/// /2209 11075 21101 6///1 333 11018 21101 7//// 555 33021 40181
AAXX 22064 71010 16/// /2606 11077 21110 60001 333 11010 21093 70004 555 33021 40191
AAXX 22064 71916 46/// /0000 11344 21374 39985 40043 56015 6///1 333 11302 21404 7////
AAXX 22064 71345 16/// /2211 11076 21109 60001 333 10000 21101 70006 555 30228 40172
AAXX 22064 71525 16/// /2207 11115 21125 60001 333 10006 21124 70009 555 33124 40121
AAXX 22064 71526 16/// /2208 11101 21124 60001 333 11003 21107 70004 555 33436 40123
AAXX 22064 71535 16/// /1708 11093 21116 60001 333 10004 21117 7////
AAXX 22064 71536 16/// /2210 11050 21114 60001 333 11012 21093 70011 555 33331 40162
AAXX 22064 71537 16/// /1807 11133 21145 60001 333 11001 21150 70000 555 33227 40091
AAXX 22064 71464 46/// ///14 10050 39907 40119 51023 6///1 333 10109 20050 7////
AAXX 22064 71683 46/// /3116 11209 39915 40029 53023 6///1 333 11192 21282 7//// 555 33122 40051
AAXX 22064 71257 17/// /2008 11125 21150 69941 7//4/ 333 10005 21132 70009 555 33328 40082
AAXX 22064 71258 16/// /2212 11083 21144 60001 333 11005 21113 70000 555 33236 40103
AAXX 22064 71259 16/// /2108 11158 21177 60001 333 10013 21163 70000 555 33123 40091
AAXX 22064 71274 16/// /2504 11072 21094 60001 333 11028 21093 70000 555 32920 40171
AAXX 22064 71275 46/// /2104 11082 21097 6///1 333 11027 21094 7//// 555 32719 40191
AAXX 22064 71278 17/// /2607 11067 21093 69941 7//4/ 333 11019 21078 70004 555 33119 40201
AAXX 22064 71286 16/// /2505 11054 21082 60001 333 11018 21088 70004 555 32922 40171
AAXX 22064 71287 16/// /2307 11054 21085 60001 333 11012 21071 70000 555 32921 40161
AAXX 22064 71289 16/// /2211 11063 21110 60001 333 11003 21098 70007 555 33120 40081
AAXX 22064 71351 16/// /2306 11041 21087 60001 333 7////
AAXX 22064 71353 16/// /2110 11070 21121 60001 333 11007 21074 70011 555 33527 40101
AAXX 22064 71375 46/// /0206 11034 6///1 333 11015 21138 7//// 555 32224 40011
AAXX 22064 71385 46/// /3607 11012 6///1 333 7////
AAXX 22063 42071 31996 03204 10138 20063 40211 70500 333 58002
AAXX 22064 42027 32595 23201 10044 21012 38472 48577 84200 333 58005
AAXX 22064 42101 31994 02702 10136 20075 40200 71044 333 59001
AAXX 22064 42111 31996 00000 10150 20064 39404 40186 70500 333 59004
AAXX 22064 42131 31993 02902 10108 20096 40212 74244 333 58006
AAXX 22064 42165 31995 00501 10156 20081 40200 70500 333 58008
AAXX 22064 42182 31993 00205 10188 20047 40187 70444 333 59003
AAXX 22064 42260 31994 09902 10208 20047 40185 70540 333 59011
AAXX 22064 42328 31995 00503 10152 20034 40199 70500 333 59002
AAXX 22064 42339 31995 20504 10176 20068 40186 70500 80001 333 58006 82070
AAXX 22064 42348 31995 00908 10198 20006 40182 70500 333 58003
AAXX 22064 42361 31994 00000 10190 20101 40187 71044 333 59007
AAXX 22064 42369 31995 02705 10140 20102 40190 71040 333 59016
AAXX 22064 42379 31595 82703 10114 20073 40180 71022 8652/ 333 59014 86625 88458
AAXX 22064 42452 31995 00902 10190 20072 40182 70500 333 58002
AAXX 22064 42475 31993 09902 10116 20112 40207 71044 333 59016
AAXX 22064 42071 NIL
AAXX 22064 42189 NIL
AAXX 22061 51711 32980 32703 11101 21170 38087 52002 80002 333 05253 21173
AAXX 22061 51730 32970 21401 11041 21111 40450 52006 80002 333 00052 21155
AAXX 22061 52112 32970 53202 11105 21185 40454 57011 80002 333 05352 21175
AAXX 22061 52737 32980 00000 11035 21222 37057 57027 333 05151 21167
AAXX 22061 52787 32965 03407 11119 21164 37000 57022 333 05500 21182
AAXX 22061 53352 32980 02504 11066 21180 40364 57031 333 21213
AAXX 22061 53593 32975 01402 11040 21198 40334 57036 333 21140
AAXX 22061 53705 32970 02703 11021 21166 40356 57034 333 05501 21120
AAXX 22061 53863 32970 21401 10006 21177 40325 57049 80002 333 21076
AAXX 22061 53975 32974 51401 10019 21165 40311 57046 80002 333 21051
AAXX 22061 54273 32970 02704 11144 21265 40299 57001 333 21189
AAXX 22061 54324 32970 02905 11035 21257 40302 57031 333 21149
AAXX 22061 54405 32980 02907 11025 21194 40324 57034 333 21100
AAXX 22061 54436 32980 02001 11004 21232 40311 57033 333 21119
AAXX 22061 54808 32962 31801 10043 21135 40319 57040 80002 333 21069
AAXX 22061 54826 32980 63403 11076 21204 38497 57024 80002 333 21118
AAXX 22061 54836 32980 53603 10010 21178 40322 57029 80002 333 21062
AAXX 22061 54863 11580 20402 10018 21107 40303 57024 69901 70080 82400 333 21043
AAXX 22061 56018 32980 02709 10056 21276 36127 57047 333 05100 21156
AAXX 22061 56021 32980 02901 11032 21286 36033 57030 333 00156 21216
AAXX 22061 57071 32970 02702 10056 21129 40308 57047 333 21020
AAXX 22064 63729 12480 30000 10200 20180 38882 48/// 60254 8293/ 333 0//29 20175 50191 55034 55300 58004 82818 81920 83358
AAXX 22064 63733 12580 70000 10223 20195 38876 48516 60024 81931 333 0//19 20185 5///1 55042 55300 58001 81921 87359
AAXX 22064 63756 11480 70909 10212 20196 38880 48514 60594 70296 8597/ 333 0//94 20170 50211 55059 55300 59002 85818 81920 87360
AAXX 22064 63791 32580 51110 10260 20185 39139 48527 83203 333 20210 50801 55073 55310 58000 83826
AAXX 22064 63801 32580 70000 10218 20197 39215 48531 8197/ 333 20198 50151 55055 55300 59012 81820 81921 87358
AAXX 22064 63832 32481 60605 10210 20193 38839 48505 82930 333 20199 50901 55057 55305 59004 82818 81920 85358
AAXX 22064 63866 12580 80000 10237 20218 39535 48/// 60104 8455/ 333 0//19 20228 50251 55038 55300 58006 84620 88358
AAXX 22064 63870 11458 80310 10240 20233 30116 40134 60384 76199 8597/ 333 0//91 20231 50011 55000 55300 58010 85812 81915 88457
AAXX 22064 63881 12480 51003 10190 20149 38206 48/// 69954 82933 333 20146 50301 55042 55308 59009 82616 81919 85075
AAXX 22064 63887 12280 70209 10185 20170 38604 48525 60054 8367/ 3333 0//15 20170 50211 55016 55300 58002 81706 83819 86358
AAXX 22064 63932 12580 60508 10194 20163 38313 48510 60054 81102 333 0//19 50181 55034 55310 59010 81822 86078
AAXX 22064 63971 32580 53610 10266 20242 39991 40120 8223/ 333 20220 50351 55037 55300 58002 82820 85358
AAXX 22064 63862 NIL
AAXX 22064 63894 NIL
AAXX 22064 63962 NIL
AAXX 22064 68513 36/// /3003 10173 20107 30038 40150 53017 333 20138 91005 555 10224 91015
AAXX 22064 68514 32/// /2504 10181 20076 39682 48535 52017 333 20155 91008 555 10341 91016
AAXX 22064 68523 36/// /2312 10131 20060 39096 48497 52013 333 20105 91017 555 10337 91016
AAXX 22064 68527 36/// /1908 10248 21008 39036 48487 52008 333 20219 91014 555 10399 91012
AAXX 22064 68572 11980 43215 10237 20095 38378 48483 52000 60084 70399 80000 333 20143 91023 555 10315 20088 91017
AAXX 22064 68575 16/// /0000 10219 20171 39044 48477 58005 69944 333 20163 91002 555 10342 20004 91011
AAXX 22064 68581 16/// /0802 10228 20190 39317 48478 58010 69924 333 20199 91005 555 10360 20002 91009
AAXX 22064 68583 36/// /0804 10290 20206 39953 40059 58002 333 20237 91008 555 10323 91006
AAXX 22064 68589 16/// /0402 10226 20118 38248 48502 51001 60014 333 20141 91016 555 10284 20016 91020
AAXX 22064 68613 36/// /3603 10174 20123 30041 40157 53011 333 20112 91006 555 10227 91015
AAXX 22064 68647 36/// /0000 10186 20151 38872 48471 52011 333 20149 91003 555 10337 91012
AAXX 22064 68651 16/// /0703 10252 20108 38515 48478 52005 60164 333 20131 91017 555 10309 20166 91015
AAXX 22064 68715 36/// /3404 10193 20124 30011 40137 52008 333 20112 91010 555 10275 91014
AAXX 22064 68717 36/// /3403 10178 20109 30001 40145 52013 333 20158 91005 555 10283 91014
AAXX 22064 68723 36/// /2812 10165 20080 39363 48487 53006 333 20143 91018 555 10338 91012
AAXX 22064 68737 12360 82005 10167 20143 39205 48475 52008 60024 886// 333 20150 91007 555 10354 20022 91012
AAXX 22064 68744 12280 30102 10185 20150 39053 48468 52002 60054 80002 333 20155 91004 555 10367 20056 91011
AAXX 22064 68747 16/// /1404 10185 20168 39573 48486 52010 60034 333 20181 91007 555 10307 20030 91010
AAXX 22064 68754 16/// /0000 10179 20167 39096 48483 53005 60194 333 20155 91003 555 10319 20198 91013
AAXX 22064 68817 36/// /3104 10171 20138 30121 40134 53007 333 20160 91009 555 10239 91013
AAXX 22064 68821 36/// /2918 10185 20082 39876 40114 52008 333 20156 91027 555 10291 91011
AAXX 22064 68835 36/// /1402 10199 20149 39987 40100 53006 333 20176 91005 555 10283 91010
AAXX 22064 68843 16/// /2705 10190 20157 39996 40094 52010 69924 333 20185 91007 555 10225 20002 91009
AAXX 22064 68849 16/// /1903 10156 20144 39368 48474 53007 69924 333 20151 91005 555 10234 20002 91011
AAXX 22064 68912 32370 83517 10162 20135 30112 40121 52009 888// 333 20150 91021 555 10192 91012
AAXX 22064 68918 36/// /3311 10202 20107 30083 40101 52002 333 20175 91025 555 10229 91010
AAXX 22064 68921 NIL
AAXX 22064 68925 36/// /2603 10179 20093 39750 40111 52008 333 20152 91006 555 10221 91011
AAXX 22064 68926 32270 32903 10208 20118 39927 40103 52005 83500 333 20150 91007 555 10269 91010
AAXX 22064 68935 36/// /2805 10201 20134 30038 40101 52007 333 20158 91008 555 10257 91010
AAXX 22061 38954 32899 70000 11050 21186 37986 48580 53025 83501 333 21090
AAXX 22061 38001 32997 80206 10007 21133 30272 40242 52011 885// 333 20001
AAXX 22061 38001 32997 80206 10007 21133 30272 40242 52011 885// 333 20001
AAXX 22061 35925 32998 71108 11132 21167 40365 53006 80002 333 21153
AAXX 22061 38232 32998 21207 11025 21140 30185 40287 53009 80002 333 21041
AAXX 22061 38232 32998 21207 11025 21140 30185 40287 53009 80002 333 21041
AAXX 22064 61401 NIL
AAXX 22064 61404 NIL
AAXX 22064 61415 31956 00615 10170 20018 30197 40202 70600 333 20170 50884 55002 58018
AAXX 22064 61421 NIL
AAXX 22064 61437 NIL
AAXX 22064 61442 31935 00810 10168 21117 30175 40179 70600 333 01500 20167 51144 55081 58018
AAXX 22064 61450 31956 21010 10112 21050 39729 40196 706// 80002 333 0//00 20105 5//// 55/// 58006 82073
AAXX 22064 61461 NIL
AAXX 22064 61489 NIL
AAXX 22064 61492 NIL
AAXX 22064 61497 NIL
AAXX 22064 61498 31956 00405 10140 21002 30040 40175 705// 333 0//00 20140 5//// 55/// 58021
AAXX 22064 61499 31950 53606 1037/ 21080 39922 40183 70511 85070 333 0//00 20130 51054 55/// 58014 85363
AAXX 22064 61510 NIL
AAXX 22064 62309 32960 02902 10072 20024 40181 52004 333 20062
AAXX 22064 62332 31912 42205 10130 20122 40185 52006 71000 80004 333 10115
AAXX 22064 62387 32960 00000 10096 20081 40198 52013 333 20076
AAXX 22064 62459 31956 00308 10128 20092 40173 52012 70500 333 20117
AAXX 22064 62325 31956 01803 10128 20130 40193 52012 71000 333 20126
AAXX 22064 62452 31558 60000 10104 20084 40201 52002 71020 86350 333 20090
AAXX 22064 62420 32960 00000 10089 20037 40207 52014 333 20080
AAXX 22064 62432 32960 02204 10093 20022 40204 52006 333 20052
AAXX 22064 62435 32960 00502 10099 20053 40192 52004 333 20060
AAXX 22064 62458 32960 20000 10134 20097 40162 52010 80001 333 20103
AAXX 22064 62455 32960 03104 10139 20110 40173 52008 333 20126
AAXX 22064 62476 32960 33604 10220 20161 40158 53017 80003 333 20180
AAXX 22064 62309 32960 02902 10072 20024 40181 52004 333 20062
AAXX 22064 62332 31912 42205 10130 20122 40185 52006 71000 80004 333 10115
AAXX 22064 62387 32960 00000 10096 20081 40198 52013 333 20076
AAXX 22064 62459 31956 00308 10128 20092 40173 52012 70500 333 20117
AAXX 22064 62325 31956 01803 10128 20130 40193 52012 71000 333 20126
AAXX 22064 62452 31558 60000 10104 20084 40201 52002 71020 86350 333 20090
AAXX 22064 68921 NIL
BBXX A8CN8 22060 99522 11740 41497 63409 10010 40020 52005 70222 867// 22263 00050 2//03 327// 4//03 5////
BBXX DGTX 22063 99330 11522 41598 42426 10192 20107 40128 56022 72586 8246/ 22264 00230 20505 322// 41004 80142
BBXX SHIP 22064 99539 11798 41598 51007 10000 21000 40016 55001 70222 84/// 90600 22214 00040 2//// 3//// 4//// 80000
BBXX SHIP 22064 99526 11632 41/97 80125 11030 21061 40128 52022 77022 887// 90555 22264 00030 20503 301// 40604 81040
BBXX SMGW 22061 99347 11762 43/98 82804 10133 40221 53031 22224 00183 2//// 4////
AAXX 22061 01367 11460 83202 11100 21116 39659 40124 56011 69982 77072 8872/ 333 21147 70008 91105
AAXX 22061 50548 32980 02904 11164 21307 40234 57015 333 21274
AAXX 22061 50564 32970 01601 11207 21263 40240 57002 333 21306
AAXX 22061 51334 11970 50000 11138 21168 40513 57005 69901 77077 81032 333 05252 21214
AAXX 22061 51818 32865 72001 11031 21128 40432 52003 875// 333 05103 21124
AAXX 22061 52378 32980 02706 11038 21219 40387 57028 333 05603 21174
AAXX 22061 53487 32965 22904 11045 21191 40343 57037 80002 333 21181
AAXX 22061 53502 32980 02205 11027 21210 40372 57038 333 05602 21174
AAXX 22061 53923 32980 01601 11019 21153 40330 57040 333 21085
AAXX 22061 54049 32970 03204 11128 21311 40294 57008 333 21205
AAXX 22061 54115 32980 22504 11087 21221 40298 57014 80002 333 21178
AAXX 22061 54157 32970 02703 11120 21281 40305 57012 333 21183
AAXX 22061 54186 32570 22904 11164 21263 40269 52001 82100 333 21181
AAXX 22061 54311 32980 03204 11086 21223 40326 57024 333 21212
AAXX 22061 54346 32968 02904 11098 21286 40314 57019 333 21133
AAXX 22061 54377 32980 01401 11090 21255 40292 57009 333 21155
AAXX 22061 54386 32970 01803 11156 21259 40256 52001 333 21175
AAXX 22061 54493 32974 02903 11092 21275 40295 57018 333 21133
AAXX 22061 54587 NIL
AAXX 22061 54715 32972 02203 10033 21164 40321 57039 333 21093
AAXX 22061 54929 32980 22902 10042 21146 40317 57037 80002 333 21050
AAXX 22061 54945 32975 63206 10027 21144 40316 57031 80002 333 21019
AAXX 22061 56065 32980 02901 11035 21161 36578 57035 333 05202 21211
AAXX 22061 57193 31958 02001 10052 21064 40326 57033 70500 333 21015
AAXX 22061 57290 32960 20701 10053 21054 40322 57036 80002 333 21001
AAXX 22064 68174 31975 10205 10238 20129 38781 48509 53010 70500 80001 333 20166 91007 555 10313 91017
AAXX 22064 68191 16/// /1104 10263 20139 39619 48535 52011 69924 333 20202 91007 555 10360 20002 91012
AAXX 22064 68242 12880 73006 10201 20136 38713 48494 52020 60024 8707/ 333 20194 91010 555 10330 20022 91016
AAXX 22064 68262 36/// /0702 10245 20153 38698 48509 52013 333 20198 91004 555 10326 91017
AAXX 22064 68263 12880 20703 10223 20155 38483 48508 52012 60034 82030 333 20175 91006 555 10301 20032 91019
AAXX 22064 68267 32970 33008 10221 20133 38247 48514 51011 80002 333 20148 91009 555 10298 91021
AAXX 22064 68289 36/// /0704 10228 20157 39140 48518 52008 333 20185 91006 555 10305 91015
AAXX 22064 68350 36/// /0804 10239 20144 38662 48515 53008 333 20190 91006 555 10354 91019
AAXX 22064 68368 11970 40607 10214 20153 38323 48517 52013 60034 70500 84002 333 20168 555 10286 20034 91021
AAXX 22064 68403 36/// /2403 10176 20123 30152 40185 53019 333 20155 91005 555 10218 91018
AAXX 22064 68424 32882 32109 10211 21006 39178 48503 53013 83070 333 20181 91012 555 10403 91014
AAXX 22064 68438 32882 53309 10237 20027 38783 48481 53015 85070 333 20180 91013 555 10352 91014
AAXX 22064 68442 32780 40111 10235 20135 38637 48492 53007 84070 333 20173 91016 555 10330 91016
AAXX 22064 68461 12780 70406 10189 20127 38324 48508 52013 60034 82973 333 20152 91008 555 10297 20030 91020
AAXX 22064 68512 32482 72210 10105 20062 39020 48503 53012 875// 333 20087 91014 555 10237 91017
AAXX 22064 68538 11874 42302 10224 20127 38676 48463 53008 69944 70522 84080 333 20169 91004 555 10345 20004 91012
AAXX 22064 68587 16/// /2209 10242 20208 30055 40067 52013 60054 333 20218 91014 555 10268 20050 91006
AAXX 22064 68588 36/// /3403 10310 20205 30054 40069 58008 333 20232 91005 555 10317 91007
AAXX 22064 68591 NIL
AAXX 22064 68592 NIL
AAXX 22064 68618 32580 42808 10127 20063 39043 48499 53010 83580 333 20090 91014 555 10285 91016
AAXX 22064 68633 36/// /0107 10226 20105 38468 48462 53007 333 20160 91012 555 10322 91014
AAXX 22064 68668 12670 41205 10217 20165 39244 48479 52013 60164 82530 333 20180 91010 555 10346 20168 91010
AAXX 22064 68714 36/// /3607 10178 20123 30100 40136 52010 333 20115 91010 555 10234 91013
AAXX 22064 68727 36/// /2110 10195 20103 39083 48472 53010 333 20172 91014 555 10349 91011
AAXX 22064 68752 16/// /1705 10190 20181 39423 48484 52006 60024 333 20180 91006 555 10276 20028 69925 91011
AAXX 22064 68816 12575 60113 10185 20130 30072 40126 53009 69904 85501 333 20155 91015 555 10246 20000 91012
AAXX 22064 68828 32680 62404 10183 20133 39871 40101 52009 86500 333 20151 555 10235 91010
AAXX 22064 68842 32680 72411 10200 20151 30029 40100 51013 875// 333 20176 555 10224 91010
AAXX 22064 68858 11365 72410 10206 20194 39937 40091 51007 60024 70522 875// 333 20194 555 10265 20018 91009
AAXX 22064 68906 11395 80119 10136 20126 30060 40124 58007 69954 76066 8657/ 222// 00123 333 20118 91028 555 10168 20005 91012
AAXX 22064 68994 11393 83122 10103 20103 39949 49977 58002 60034 74522 886// 222// 00072 303// 41002 333 20079 91029 555 10114 20038 90997
AAXX 22064 89004 31880 81016 11080 21118 38782 49788 53007 73622 80007 333 21100 91018 555 11040
AAXX 22064 64400 31440 81204 10240 20233 30108 40128 71022 888// 333 02200 20231 50124 55000 58005 82810 88630
AAXX 22064 64401 32460 81806 10234 20218 39753 40126 8657/ 333 01900 20225 50144 55002 58005 86616 88363
AAXX 22064 64450 12158 72404 10212 20203 39766 40121 69934 82602 333 01959 20228 50114 55000 58002 82703 87080
AAXX 22064 64453 31107 82602 10205 20199 39/// 40/// 74642 886// 333 01900 20188 50074 55000 5//// 88703
AAXX 22064 64456 32459 30000 10208 20197 39/// 40/// 83500 333 0//00 20199 50324 55008 5//// 83611
AAXX 22064 64458 31/01 90000 10207 20206 39721 40111 74744 333 01800 20195 50104 55/// 58007 89///
AAXX 22064 64459 31404 62202 10224 20223 39768 40129 74244 83530 333 01900 20219 50154 55/// 58033 83610 86360
BBXX 46206 22061 99488 71260 46/// /1109 10068 40317 57010 22200 00085 11304 70021 333 91211
AAXX 22064 60060 32956 01602 10135 20100 40263 5//// 333 20133 30010
BBXX MINFR00 2206/ 99177 70767 46/// ///// 10255 40150 57012
AAXX 22064 68591 NIL
AAXX 22064 68592 NIL
AAXX 22064 13611 12660 63604 10058 20029 30031 40123 54000 60002 86500 333 20044 31/// 86633
BBXX 46206 22061 99488 71260 46/// /1109 10068 40317 57010 22200 00085 11304 70021 333 91211
AAXX 22061 50658 32975 02903 11201 21266 40256 52003 333 21244
AAXX 22061 50888 11958 83204 11147 21171 40201 52016 69911 77077 8801/ 333 21147
AAXX 22061 50983 11960 83405 11124 21158 40194 52010 69951 77070 8802/ 333 21185
AAXX 22061 51053 32975 02002 11238 21276 40559 52001 333 05155 21287
AAXX 22061 51542 11980 10903 11216 21251 37631 52004 69901 70070 80002 333 00055 21266
AAXX 22061 52436 32980 02708 11050 21203 38566 40421 57008 333 05251 21181
AAXX 22061 52908 32980 02714 11047 21354 35719 57023 333 00151 21224 91117 91527
AAXX 22061 52996 32980 01102 11067 21142 37563 57032 333 05504 21137
AAXX 22061 53083 32980 22002 11195 21230 40374 57024 80002 333 05253 21304
AAXX 22061 53764 32970 11802 11030 21170 40354 57043 80002 333 21109
AAXX 22061 53787 32980 32501 11007 21161 40320 57040 80002 333 21137
AAXX 22061 54096 32570 72907 11152 21224 40202 52007 82102 333 21156
AAXX 22061 54226 32980 02904 11067 21259 40303 57027 333 21146
AAXX 22061 54259 32980 02205 11119 21256 40311 57010 333 21196
AAXX 22061 54527 32970 02702 10024 21183 40318 57037 333 21074
AAXX 22061 54534 32975 03205 10011 21188 40307 57040 333 21135
AAXX 22064 42559 32996 01402 10240 20072 40155 333 59002
AAXX 22064 42571 31996 00000 10210 20028 40174 70500 333 59007
AAXX 22064 42667 31996 01606 10240 20087 39575 40162 70500 333 59002
AAXX 22064 42675 31996 03603 10214 20053 40172 70500 333 59003
AAXX 22064 42754 31996 32308 10260 20056 39519 40148 70511 80001 333 58000 83075
AAXX 22064 42867 31996 31404 10246 20059 40164 70500 80001 333 58001 83075
AAXX 22064 42933 32997 23602 10269 20051 40159 80002 333 59001 82175
AAXX 22064 43041 31996 20503 10244 20057 39542 40158 70540 80001 333 58002 82075
AAXX 22064 42779 NIL
AAXX 22064 42874 NIL
AAXX 22064 89514 32697 81114 10012 49764 52016 87027 333 87447 88270
AAXX 22064 89514 32697 81114 10012 49764 52016 87027 333 87447 88270
AAXX 22061 13289 32798 83204 11075 21087 38936 48426 53010 8801/ 333 21089 3/110 44007 55038 70000 91112
BBXX 46132 22061 99497 71279 46/// /1411 10079 40293 57013 22200 00087 11205 70024 333 91213
BBXX 46205 22061 99542 71343 46/// /1816 10084 40104 57011 22200 00077 11011 70054 333 91219
BBXX 46205 22061 99542 71343 46/// /1816 10084 40104 57011 22200 00077 11011 70054 333 91219
BBXX 46132 22061 99497 71279 46/// /1411 10079 40293 57013 22200 00087 11205 70024 333 91213
AAXX 22061 89062 46/// /0101 11003 21039 39861 49902 57012 333 55092
AAXX 22064 89020 46/// /0709 11055 21061 39733 49768 52009 90540
BBXX ZCDF4 22063 99251 71130 41/98 20215 10164 20136 40186 53009 70200 82/// 22235 00180 20301 332// 41003 5//// 80148
BBXX A8OU4 22064 99252 71156 41998 03605 10160 20103 40200 52020 7//00 80000 22234 00190 20804 332// 40402 5//// 80130
BBXX ZCDT2 22064 99176 70692 41/98 20728 10260 20215 40148 57006 70122 8//// 22213 00270 20203 306// 40403 5//// 80230
BBXX PBHZ 22063 99347 70616 41596 52307 10220 20161 40258 57010 70211 855// 22213 04254 20301 322// 40703 80182
AAXX 22064 68155 36/// /3502 10279 20144 39172 48516 52013 333 20221 91004 555 10367 91014
AAXX 22064 68171 NIL
AAXX 22064 68176 36/// /0603 10279 20117 39121 48521 52013 333 20189 91007 555 10356 91015
AAXX 22064 68181 NIL
AAXX 22064 68182 36/// /2302 10263 20143 39322 48525 52011 333 20198 91006 555 10336 91014
AAXX 22064 68185 16/// /3303 10217 20156 38473 48405 53000 60014 333 20153 91006 555 10290 20014 91007
AAXX 22064 68253 36/// /0000 10282 20160 39031 48516 52008 333 20211 91004 555 10355 91015
AAXX 22064 68255 36/// /0202 10246 20127 38847 48500 52015 333 20198 91004 555 10338 91015
AAXX 22064 68271 36/// /3204 10263 20133 38899 48511 52010 333 20208 91007 555 10340 91016
AAXX 22064 68273 NIL
AAXX 22064 68287 36/// /0305 10216 20146 38568 48504 52005 333 20141 91009 555 10267 91018
AAXX 22064 68291 16/// /0702 10262 20157 39523 48535 52007 69924 333 20193 91005 555 10359 20002 91013
AAXX 22064 68297 NIL
AAXX 22064 68329 36/// /2107 10243 21005 39062 48500 53015 333 20232 91013 555 10401 91013
AAXX 22064 68331 36/// /1905 10256 21036 38819 48510 53003 333 20216 91007 555 10371 91016
AAXX 22064 68335 36/// /3205 10245 20132 38905 48519 53012 333 20224 91007 555 10368 91017
AAXX 22064 68341 16/// /2904 10192 20155 38527 48512 53019 60014 333 20182 91006 555 10324 20016 69985 91019
AAXX 22064 68342 NIL
AAXX 22064 68343 36/// ///// 10231 20142 38762 48489 53010 333 20209 555 10344 91015
AAXX 22064 68349 36/// /3407 10225 20134 38499 48492 52011 333 20192 91009 555 10327 91017
AAXX 22064 68353 36/// /1508 10202 20150 38520 48499 53013 333 20183 91011 555 10312 91018
AAXX 22064 68355 16/// /0712 10198 20144 38570 48504 52015 60024 333 20180 91016 555 10312 20024 91018
AAXX 22064 68370 32670 60000 10196 20177 38374 48522 52021 86100 333 20156 555 10331 91021
AAXX 22064 68377 NIL
AAXX 22064 68380 NIL
AAXX 22064 68387 NIL
AAXX 22064 68411 36/// /1906 10193 20081 39963 40171 53017 333 20176 91012 555 10320 91017
AAXX 22064 68429 36/// /0000 10233 21064 38657 48480 52017 333 20166 91003 555 10368 91014
AAXX 22064 68449 36/// /0408 10226 20115 38379 48490 53001 333 20162 91013 555 10306 91018
AAXX 22064 68471 NIL
AAXX 22064 68474 16/// /0000 10200 20142 38616 48508 58001 60014 333 20137 91002 555 10311 20014 91018
AAXX 22064 68479 16/// /3005 10242 20155 38929 48500 58001 69984 333 20194 91009 555 10350 20008 91015
AAXX 22064 68481 36/// /3604 10248 20192 39748 40110 51000 333 20200 91009 555 10356 91012
AAXX 22064 68487 36/// /0407 10240 20142 38955 48485 57012 333 20193 91013 555 10331 91013
AAXX 22064 68491 36/// /0108 10269 20206 30094 40103 52005 333 20205 91014 555 10312 91010
AAXX 22064 68497 36/// /0507 10281 20217 30048 40091 50000 333 20230 91014 555 10361 91009
AAXX 22064 68183 32975 02505 10255 20156 39420 48525 52011 333 20200 91007 555 10329 91013
AAXX 22064 68188 16/// /1602 10262 20157 39187 48528 52009 69924 333 20182 91005 555 10306 20002 91015
AAXX 22064 68268 36/// /2502 10295 20165 38875 48527 52007 333 20188 91005 555 10371 91017
AAXX 22064 68272 36/// /2603 10260 20164 39061 48517 52003 333 20181 91005 555 10347 91015
AAXX 22064 68296 36/// /0303 1//// 2//// 38914 4//// 52001 333 20571 91006 555 1////
AAXX 22064 68322 32682 42109 10238 20039 39122 48502 52015 84100 333 20209 91016 555 10416 91013
AAXX 22064 68338 36/// /2604 10224 20136 38753 48488 52017 333 20200 91008 555 10357 91015
AAXX 22064 68345 16/// /0416 10226 20140 38655 48499 52012 69944 333 20196 91022 555 10328 20004 91017
AAXX 22064 68362 11680 72303 10200 20137 38509 48512 52011 60084 70399 83210 333 20168 91006 555 10320 20082 91019
AAXX 22064 68400 36/// /0305 10279 20195 30031 40102 50000 333 20206 91012 555 10377 91010
AAXX 22064 68408 32/// /2903 10151 20126 30163 40171 52015 333 20133 91002 555 10196 91017
AAXX 22064 68416 32/// /2506 10148 20054 39034 48500 52016 333 20121 91010 555 10341 91016
AAXX 22064 68478 12480 60000 10227 20174 38855 48500 58002 60024 86500 333 20180 91003 555 10339 20026 91015
AAXX 22064 68488 36/// /1005 10261 20184 39240 48509 58001 333 20181 91009 555 10332 91013
AAXX 22064 68494 36/// /3504 10301 20205 39948 40074 58004 333 20218 91008 555 10355 91008
AAXX 22064 68524 32986 52505 10214 21052 39028 48486 52008 85080 333 20174 91009 555 10378 91013
AAXX 22064 68546 16/// /2302 10231 20147 38627 48475 52008 60034 333 20133 91004 555 10314 20032 91014
AAXX 22064 68558 16/// /3512 10216 20093 38167 48475 52004 60154 333 20105 91023 555 10278 20156 69925 91017
AAXX 22064 68570 12370 62704 10230 20099 38489 48481 51001 60024 86500 333 20144 91010 555 10317 20026 91016
AAXX 22064 68580 36/// /2606 10247 20149 38909 48483 57006 333 20172 91010 555 10330 91013
AAXX 22064 68614 32580 73003 10200 20116 30107 40148 52015 875// 333 20145 91008 555 10259 91014
AAXX 22064 68624 32882 42804 10181 21044 38709 48481 52010 84200 333 20125 91010 555 10340 91015
AAXX 22064 68674 16/// /2304 10260 20223 30047 48524 52021 60034 333 20212 91007 555 10296 20036 91007
AAXX 22064 68712 12470 73209 10158 20124 30072 40137 52011 69924 875// 333 20143 91012 555 10212 20002 91013
AAXX 22064 68718 NIL
AAXX 22064 68722 32980 01707 10144 20014 38518 48475 52005 333 20004 91013 555 10278 91015
AAXX 22064 68814 36/// /0111 1//// 2//// 30128 4//// 52005 333 2//// 91015 555 1//// 91013
AAXX 22064 68832 36/// /3203 10190 20101 39147 48473 52005 333 20141 91006 555 10324 91011
AAXX 22064 68916 32370 73223 10170 20123 39852 40119 52007 875// 333 20156 91031 555 10201 91012
AAXX 22064 68920 NIL
AAXX 22064 68928 36/// /2506 10216 20123 39947 40104 52008 333 20181 91011 555 10232 91010
BBXX E5U2123 22063 99222 70175 41997 00416 10185 20101 40213 52010 70200 80000 22283 00192 20402 3//// 4//// 5//// 80140
BBXX A8AX3 22063 99123 70180 41/96 20516 10248 40135 58002 70500 8/0// 22244 20603
BBXX MZFC6 22063 99132 10584 41297 70222 10270 20193 40165 52034 70222 8561/ 22264 04266 20406 301// 40604 5//// 80220
BBXX A8MV6 22063 99231 10613 41797 40122 10230 20103 40200 50010 70311 84186 22273 04260 20602 302// 40802 5//// 80160
BBXX LAVN4 22064 99296 50451 41998 20712 10230 2022/ 40093 57010 72200 80001 22213 00200 20402 304// 40402 5//// 6//// 80220 NNNN
BBXX 62141 22063 99493 50591 41/97 /2644 10102 49980 54000 72122 8//// 22200 20709 32626 40607 50709
BBXX ZDLP 22063 99530 50416 41/92 93311 10049 20047 49902 57011 74354 89/// 22273 04038 2//// 3//// 4//// 5//// 80048
AAXX 22064 88900 46/// /0610 10085 20078 39905 49907 58035 333 55019
BBXX ZCBZ4 22063 99059 11243 41/98 40410 10310 20269 40076 57020 70200 84108 22264 20301 30400 40201 50000 80280
BBXX 46181 22061 99538 71288 46/// /0802 10024 40265 57014 22200 00038 10200 70001 333 91203
AAXX 22064 83460 32370 60702 10217 20210 30055 40112 86800 333 59007
AAXX 22061 30455 42999 31401 11288 21326 38873 48410 58010 82031
AAXX 22061 30731 42499 83204 11119 21171 39634 40268 58009 70232 8272/
AAXX 22061 30739 41699 83306 11111 21164 39399 40245 53003 73673 8697/
AAXX 22061 30741 41598 83003 11190 21216 38658 48443 54000 70232 82541
AAXX 22061 30745 41999 82704 11153 21187 39040 40240 58005 70272 8801/
AAXX 22061 30764 41999 10000 11266 21321 39423 40298 57018 70240 80001
AAXX 22061 30829 41599 82002 11118 21162 39579 40296 58014 70282 8331/
AAXX 22061 30838 41596 82302 11111 21124 39248 40263 57015 77177 8272/
AAXX 22061 30846 41912 82001 11127 21154 39294 40236 58008 77173 8801/
AAXX 22061 30859 41897 80000 11187 21228 39367 40257 57015 77172 8801/
AAXX 22061 30862 42998 10201 11279 21333 39480 40297 57015 80001
AAXX 22061 30957 41997 82403 11169 21195 39304 40248 57020 77177 80007
AAXX 22061 30975 42899 21401 11257 21331 39588 40298 58017 82040
BBXX 44059 22061 99368 70763 46/// /2403 1//// 90620 333 91205
BBXX 44059 22061 99368 70763 46/// /2404 1//// 40147 90610 333 91207
BBXX 44059 22061 99368 70763 46/// /2404 10179 40145 53003 90600 22200 00111 333 91206
BBXX 44057 22061 99395 70761 46/// /3003 1//// 90620 333 91203
BBXX 44057 22061 99395 70761 46/// /2803 1//// 40128 90610 333 91203
BBXX 44057 22061 99395 70761 46/// /2803 10139 40128 51030 90600 22200 00057 333 91203
BBXX 44058 22061 99376 70763 46/// /2305 1//// 90620 333 91206
BBXX 44058 22061 99376 70763 46/// /2305 1//// 40142 90610 333 91205
BBXX 44058 22061 99376 70763 46/// /2505 10138 40140 52009 90600 22200 00093 10301 70004 333 91205
AAXX 22061 31825 41699 80301 11160 21202 39964 40184 56017 70282 83577
AAXX 22061 31845 41598 80000 11131 21158 39997 40169 56016 70272 8255/
AAXX 22061 31878 41593 83304 11109 21125 30050 40179 55002 77572 8802/
AAXX 22061 31915 42999 33005 11116 21188 39921 40197 53006 82045
AAXX 22061 31921 42999 73203 11097 21189 30087 40189 53002 80005
AAXX 22061 31969 42998 03010 11101 21227 30146 40197 53000 333 91017 91121
AAXX 22061 31981 41597 83102 11106 21142 39928 40173 55006 78582 889//
AAXX 22061 31987 41596 83509 11097 21155 39879 40147 55004 77172 8802/ 333 91012 91113
AAXX 22061 32069 42598 51303 11112 21140 30172 40177 57010 82501 333 91004 91105
AAXX 22061 30499 41979 82902 11264 21295 39542 40262 57002 77171 83025
AAXX 22061 30683 42999 00000 11224 21290 39548 40247 57007
AAXX 22061 30695 42999 32905 11224 21290 39876 40239 54000 80004
AAXX 22061 31253 41997 80703 11176 21218 39715 40199 54000 77172 80000
AAXX 22061 31295 41997 82704 11217 21249 39725 40215 52002 77172 83037
AAXX 22061 31348 42999 83401 11211 21229 30025 40236 57004 83037
AAXX 22061 31418 41997 83201 11191 21210 39953 40225 53001 77172 86022
AAXX 22061 31439 42999 80204 11230 21249 30167 40216 57006 83072
AAXX 22061 31442 42999 82803 11228 21260 39831 40214 52006 81031
AAXX 22061 31445 42999 02703 11222 21263 39941 40215 52010
AAXX 22061 31474 41998 80000 11177 21219 39685 40195 53003 77172 86027
AAXX 22061 31521 32978 02502 11223 21249 39908 40222 52009
AAXX 22061 31527 42998 02702 11215 21248 39895 40221 52005
AAXX 22061 31534 41998 82501 11197 21230 39844 40212 52004 70272 80007
AAXX 22061 31587 42999 00000 11207 21247 30075 40231 52002
AAXX 22061 31632 NIL
AAXX 22061 31702 41998 82802 11207 21247 39861 40223 53004 70272 81517
AAXX 22061 31713 42995 81401 11127 21147 30073 40177 57004 77172 8802/
AAXX 22061 31725 41498 80902 11141 21161 30101 40171 56001 70182 8549/
AAXX 22061 31801 41997 80901 11151 21178 39926 40165 57010 77172 82047
BBXX 44062 22061 99386 70764 46/// /2002 1//// 90620 22200 00086 333 91202
BBXX 44062 22061 99386 70764 46/// /1902 1//// 40117 90610 22200 00086 333 91202
BBXX 44062 22061 99386 70764 46/// /1902 10124 40116 53019 90600 22200 00086 1//00 70002 333 91202
BBXX 44063 22061 99390 70764 46/// /2901 1//// 90620 333 91204
BBXX 44063 22061 99390 70764 46/// /0000 1//// 40151 90610 333 91202
BBXX 44063 22061 99390 70764 46/// /2901 10145 40151 53026 90600 22200 00083 1//00 70002 333 91204
BBXX 44041 22061 99372 70768 46/// /2405 1//// 90620 333 91206
BBXX 44041 22061 99372 70768 46/// /2405 1//// 40168 90610 333 91207
BBXX 44041 22061 99372 70768 46/// /2404 10174 40167 53008 90600 22200 00094 1//00 70001 333 91206
BBXX 44042 22061 99380 70763 46/// /2403 1//// 90620 333 91203
BBXX 44042 22061 99380 70763 46/// /2503 1//// 40138 90610 333 91203
BBXX 44042 22061 99380 70763 46/// /2503 10127 40136 51013 90600 22200 00090 10301 70004 333 91204
BBXX 44043 22061 99392 70764 46/// /2701 1//// 90620 333 91202
BBXX 44043 22061 99392 70764 46/// /2501 1//// 40129 90610 333 91202
BBXX 44043 22061 99392 70764 46/// /2801 10123 40127 51027 90600 22200 00075 1//00 70002 333 91202
BBXX 46092 22061 99368 71220 46/// /1601 10118 40188 51011 90557 22200 00124 555 11010 22010
AAXX 22064 67002 12580 42803 10294 20242 30100 40133 60154 82972 333 20233 59003 81923 92408
AAXX 22064 67009 32582 50000 10310 20238 30013 40132 52011 85200 333 02200 10320 20230 50394 55090 85820
AAXX 22064 67012 32582 30000 10303 20254 30112 40123 51012 82232 333 0//00 10316 20250 50284 55/// 82820 555 81360 82075
AAXX 22064 67025 NIL
AAXX 22064 67027 32582 11408 10296 20213 30106 40127 52017 81232 333 01900 10318 20242 50444 55114 81820 555 81360 81073
AAXX 22064 67045 NIL
AAXX 22064 67072 32581 60206 10301 20258 30131 40134 51014 86800 333 02500 10320 20269 50294 55/// 82817 86640 92418 67073 32582 2//// 10292 20222 30098 40124 51012 82800 333 0//00 10311 20236 50//4 55/// 82820 555 81633
AAXX 22064 67083 32482 40204 10229 20152 38753 48527 52011 84800 333 01600 20148 50045 55114 84817
AAXX 22064 67095 32481 50408 10306 20253 30117 40124 51012 84903 333 02200 10320 20237 50324 55/// 81917 84817 94972/3 95832/3
AAXX 22064 67113 32581 3//// 10302 20254 30/// 40/// 5//// 83800 333 0//00 10318 20238 50544 55/// 83820 555 81640
AAXX 22064 67117 NIL
AAXX 22064 67137 32480 3//04 10249 20160 38893 48501 51009 83202 333 0//00 10283 20176 50444 55/// 83817 555 81073
AAXX 22064 67143 11580 3//// 10/// 20/// 30110 40117 52014 60044 70360 83500 333 0//00 10/// 20/// 50//4 55/// 83633 92437
AAXX 22064 67152 12580 4//// 10229 20182 39193 48498 52014 60094 84200 333 01529 10282 20186 50304 55/// 84820=8.6 67157 11475 5//// 10/// 20/// 30127 40134 53009 60164 71562 85800 333 0//13 10/// 20/// 50//4 55/// 82817 85633=16.0 67161 12582 1//04 10285 20211 30097 40106 51006 69984 81200 333 0//00 10293 20195 50204 55/// 81820
AAXX 22064 67197 12580 60808 10279 20205 30103 40113 52018 60044 85830 333 01319 10293 20222 50274 55092 82820 84633 555 83360 = RR 4.4MM
AAXX 22064 61202 32965 10000 10135 21045 39622 40186 81082 333 00700 20105 51084 55108 58016 81365
AAXX 22064 61214 NIL
AAXX 22064 61223 32960 30404 10094 21059 39870 40188 80002 333 01100 20090 50704 55091 5//// 83075
AAXX 22064 61226 32960 10606 10130 20000 39864 40165 80002 333 01400 20130 50894 55082 58014 81075
AAXX 22064 61230 32960 30604 10140 21059 39879 40147 83042 333 0//00 20134 50964 55047 58020 83365
AAXX 22064 61233 32960 50602 10116 21023 3//// 4//// 80002 333 00500 20116 50814 55/// 5//// 85075
AAXX 22064 61235 31958 40808 10184 21010 3//// 4//// 70622 81042 333 0//00 20182 51694 55050 5//// 81365 83075
AAXX 22064 61240 32960 20000 10173 21006 39832 40161 80002 333 01500 20152 50744 55103 58013 82075
AAXX 22064 61250 NIL
AAXX 22064 61257 31940 41006 10164 21037 30102 40197 70611 80002 333 01700 20162 50414 55054 58027 84075
AAXX 22064 61265 32960 10208 10140 21018 39841 40153 80002 333 01100 20140 51310 55076 58019 81075
AAXX 22064 61270 32960 20404 10165 20008 3//// 4//// 80002 333 01700 20161 50874 55090 5//// 82075
AAXX 22064 61272 32960 00000 10141 20014 39822 40159 333 01400 20141 5//// 55070 58009
AAXX 22064 61277 32960 00410 10150 20031 39831 40155 333 01500 20145 50911 55103 58016
AAXX 22064 61285 32960 31604 10225 21061 39990 40140 80002 333 01500 20218 51264 55101 58019 83075
AAXX 22064 61291 32960 00610 10170 21035 39731 40146 333 01000 20170 51001 55100 58016
AAXX 22064 61293 32960 33604 10155 20030 3//// 4//// 80002 333 01300 20152 50840 55103 5//// 83075
AAXX 22064 61296 32960 63606 10160 20046 3//// 4//// 80002 333 00850 20152 50650 55093 5//// 86075
AAXX 22064 61297 32960 73606 10156 20038 3//// 4//// 80002 333 01100 20155 51001 55106 5//// 87075
BBXX 46181 22061 99538 71288 46/// /0802 10024 40265 57014 22200 00038 10200 70001 333 91203
AAXX 22064 67017 NIL
AAXX 22064 67020 NIL
AAXX 22064 67023 32582 33610 10308 20252 30117 40123 51006 83232 333 02100 10332 20225 50324 55/// 83820 555 81360 81075
AAXX 22064 67037 32582 2/// 10/// 20/// 30078 40119 5/012 82200 333 0//00 10/// 20/// 50//4 55/// 82820
AAXX 22064 67067 32581 1//// 10256 20193 39251 48/// 51010 81202 333 0//00 10315 20168 50724 55/// 81820 555 81073
AAXX 22064 67107 NIL
AAXX 22064 67131 NIL
BBXX 46184 22061 99539 71389 46/// /1714 10077 49984 57029 22200 00065 11011 70056 333 91217
AAXX 22064 42634 31995 00506 10184 20123 40172 70500 333 58002
AAXX 22064 42647 32996 10703 10250 20107 40158 80001 333 59001 81070
AAXX 22064 42737 32996 03606 10210 20095 40168 333 58005
AAXX 22064 42840 32996 00502 10256 20136 40157 333 58004
AAXX 22064 42909 32997 00509 10262 20051 40153 222// 20000 333 58006
AAXX 22064 42921 32996 10503 10248 20079 40180 80001 333 58002 81075
AAXX 22064 43003 31995 10903 10300 20133 40134 70400 80001 333 58001 81075
AAXX 22064 43014 31996 20704 10248 20108 39501 40144 70040 333 58001
AAXX 22064 43063 32997 50904 10250 20092 39515 40137 80004 333 59001 85070
AAXX 22064 43110 31996 41404 10302 20136 40129 70541 80002 333 59002 84078
AAXX 22064 43117 32997 31102 10274 20143 40137 80001 333 58002
AAXX 22064 43192 31996 40906 10294 20163 40123 70500 80002 333 59005
AAXX 22064 68054 32960 13305 10245 20158 48518 52008 81080 333 20176
AAXX 22064 68171 NIL
AAXX 22064 68181 NIL
AAXX 22064 68273 NIL
AAXX 22064 68297 NIL
AAXX 22064 68342 NIL
AAXX 22064 68377 NIL
AAXX 22064 68380 NIL
AAXX 22064 68387 NIL
AAXX 22064 68471 NIL
BBXX 46184 22061 99539 71389 46/// /1714 10077 49984 57029 22200 00065 11011 70056 333 91217
AAXX 22064 91723 NIL
AAXX 22064 91759 NIL
AAXX 22064 91762 NIL
AAXX 22064 87803 32580 12713 10046 21049 39185 40115 53001 81500 90620 333 56600 81625
AAXX 22061 31913 43/// /3403 11112 21177 30072 40195 53010
AAXX 22061 32128 41598 61204 11024 21053 30093 40145 56011 78583 85330 333 91009 91111
AAXX 22061 24856 41997 00000 11427 21455 30191 40374 53002 70240
AAXX 22061 30679 NIL
AAXX 22061 30686 42998 02903 11234 21291 39857 40260 57008
AAXX 22061 30961 41999 51502 11240 21272 39427 40283 57018 70272 80005
AAXX 22061 30971 42999 00501 11209 21276 39209 40261 57018
AAXX 22061 30978 42999 32403 11235 21301 39546 40287 57016 80001
AAXX 22061 31513 42999 42901 11217 21242 39974 40217 52006 80005
AAXX 22061 31624 NIL
AAXX 22061 31832 41595 83301 11114 21142 30088 40178 53004 77372 8452/
AAXX 22064 64700 32960 60206 10162 21024 39795 40137 80002 333 01300 20160 51221 ///// 55109 58010 86075
AAXX 22064 64701 NIL
AAXX 22064 64702 NIL
AAXX 22064 64705 33960 70000 10160 20038 3//// 4//// 80002 90555 333 0//00 2//// 50684 55/// 5//// 5//// 87075
AAXX 22064 64706 33960 72204 10157 20113 39645 40121 80002 333 01200 20130 51164 ///// 55096 58000 87075
AAXX 22064 64708 NIL
AAXX 22064 64709 33960 70204 10195 20038 3//// 4//// 80002 90600 333 0//00 20175 5//// ///// 55/// 5//// 87075
AAXX 22064 64710 NIL
AAXX 22064 64713 NIL
AAXX 22064 64722 33960 60000 10200 20064 3//// 4//// 80002 90558 333 0//00 20120 50654 ///// 5//// 5//// 86075
AAXX 22064 64750 32960 60000 10185 20112 39692 40104 80002 90600 333 01000 20160 50521 ///// 55067 59004 86075
AAXX 22064 64751 33960 50000 10178 21018 3//// 4//// 82032 90600 333 0//00 20172 50714 ///// 55/// 5//// 82365 84075
AAXX 22064 64753 NIL
AAXX 22064 64754 33960 50000 10192 20047 3//// 4//// 80002 90610 333 0//00 20142 50434 ///// 55/// 5//// 85075
AAXX 22064 64756 33962 30604 10190 21028 39513 4//// 80002 90600 333 0//00 20165 5//// ///// 55/// 58007 83075
AAXX 22064 64757 33960 00000 10152 20004 3//// 4//// 90555 333 0//00 20130 5//// ///// 55/// 5////
AAXX 22064 64758 NIL
AAXX 22064 64761 NIL
AAXX 22064 45011 47956 /0115 10195 20076 40179 57032 71011 333 58005
BBXX 46004 22061 99509 71361 46/// /1815 10084 40102 57031 22200 00075 10810 70052 333 91218
AAXX 22064 43086 32997 00000 10252 20064 39978 40157 333 58003
AAXX 22064 43128 32997 20904 10248 20145 39545 40150 80001 333 58003 82070
AAXX 22064 43150 31596 40506 10276 20147 30084 40159 70511 81502 333 58007 81620 84075
AAXX 22064 43185 31596 40903 10280 20183 30146 40149 70511 82532 333 58008 82620
AAXX 22064 43189 32597 59902 10278 20173 30148 40157 81501 333 58009
AAXX 22064 43198 32996 40908 10250 20131 39307 40125 80001 333 58001 84075
AAXX 22064 43201 32997 20905 10250 20173 39413 40129 80001 333 58003 82075
AAXX 22064 43213 32597 30000 10260 20155 39830 40147 81402 333 58005
AAXX 22064 43226 32497 20901 10300 20154 30097 40126 81108 333 59003
AAXX 22064 43233 32997 30203 10240 20131 39330 40137 80001 333 58006
AAXX 22064 43237 32597 40903 10260 20130 39752 40145 81501 333 58004 81620 83075
AAXX 22064 43245 32597 60504 10274 20187 30119 40146 83808 333 58007
AAXX 22064 43279 32497 50506 10280 20180 30124 40141 84802 333 58005 81618 83825
AAXX 22064 43284 32996 20708 10302 20131 30000 40114 80002 333 58001 82075
AAXX 22064 43295 32997 20902 10228 20064 39118 48527 80001 333 58006 82075
AAXX 22064 43311 32597 30902 10304 20208 40116 81501 333 58004 81625 83075
AAXX 22064 43314 32597 51403 10300 20174 40119 81431 333 58002
AAXX 22064 43321 31996 20510 10268 20145 39689 40134 70500 80001 333 58008
AAXX 22064 43329 32597 70202 10280 20190 30120 40134 82531 333 58006
AAXX 22064 43344 31596 60512 10270 20186 30037 40136 70511 82502 333 58008 82620 86070
AAXX 22064 43346 32597 83612 10260 20212 30120 40127 87502 333 58008 87620 83075
AAXX 22064 43353 31496 60506 10292 20184 40119 70522 82871 333 56699 58014 82614 86072
AAXX 22064 43369 32597 60906 10302 20236 40116 84430 333 58005 82620 83825 85360
AAXX 22064 43371 32597 40000 10318 20190 30038 40109 82831 333 58009 81620 83075
AAXX 22061 56671 32780 12502 10149 20014 38190 57042 81100 333 05151 21003
AAXX 22061 57378 32962 03403 10091 21076 40308 57035 333 20026
AAXX 22061 57426 11559 80402 10074 20059 40267 57030 69941 76066 887// 333 00000 20064
AAXX 22061 57476 32965 50703 10094 21065 40303 57034 85030 333 20050
AAXX 22061 57584 31957 70203 10083 20000 40298 57029 70500 87040 333 20053
AAXX 22061 57598 32960 70903 10098 21028 40286 57023 87030 333 20048
AAXX 22061 57655 32960 83601 10083 21021 40294 57030 8807/ 333 20050
AAXX 22061 57713 NIL
AAXX 22061 57776 11/00 90204 11017 21021 40297 57025 69961 76664 333 21039 93441
AAXX 22061 58321 31950 00203 10063 21077 40317 57034 70500 333 20007
AAXX 22061 58437 11975 70206 11073 21122 38168 57024 69901 70074 8704/ 333 21094
AAXX 22061 58445 NIL
AAXX 22061 58556 32960 73604 10077 21026 40274 57031 8704/ 333 20057
AAXX 22061 58569 32460 73406 10079 21024 40261 57021 8113/ 333 20064
AAXX 22061 58646 31656 83401 10093 21003 40263 57031 70500 885// 333 20081
AAXX 22061 58653 NIL
AAXX 22061 58660 NIL
AAXX 22061 58715 11318 83202 10063 20045 40264 57025 69911 76066 885// 333 20061
AAXX 22061 58730 32672 83402 10095 20035 40243 57027 885// 333 20095
AAXX 22061 58731 32763 83604 10074 20038 40247 57025 885// 333 20073
AAXX 22061 58754 32962 80204 10112 20022 40241 57020 8807/ 333 20112
AAXX 22061 58911 31656 83204 10083 20038 40243 57025 71000 885// 333 20060
AAXX 22061 58931 31/00 93605 10035 20035 38358 57022 74544 333 20026
AAXX 22061 59254 31957 00402 10185 20036 40207 57040 70500 333 20124
AAXX 22061 59632 31758 70205 10188 20049 40195 57039 70500 8154/ 333 20152
AAXX 22061 59855 32572 70202 10219 20153 40170 57028 878// 333 20191
BBXX 46004 22061 99509 71361 46/// /1815 10084 40102 57031 22200 00075 10810 70052 333 91218
BBXX 46232 22061 99325 71174 46/// ///// 1//// 90608 22200 00151 11403 21002 328// 41402 70013
BBXX 46247 22061 99378 71228 46/// ///// 1//// 90621 22200 00111 11305 21003 329// 41303 70024
BBXX 46246 22061 99500 71451 46/// ///// 1//// 90629 22200 00073 11111 21008 319// 41107 70055
AAXX 22064 71315 16/// /2803 11059 21072 30001 40055 56024 60001 333 11058 21145 70003
AAXX 22064 71320 16/// /3209 11316 21346 39990 49990 53002 60001 333 11230 21341 70000
AAXX 22064 71283 16/// /2615 11016 21093 60001 333 11016 21109 70000 555 32624 40061
AAXX 22064 71673 16/// ///// 11106 21121 60001 333 11002 21128 70009
AAXX 22064 71690 16/// ///// 11032 21075 60001 333 11030 21097 70000
AAXX 22064 71405 16/// ///// 11078 21101 60001 333 11016 21111 70009
AAXX 22064 71417 16/// /2106 11006 21023 30062 40097 57005 60001 333 11006 21082 70006 555 32427 40161
AAXX 22064 71426 46/// /0411 11006 6///1 333 10002 21050 7//// 555 32136 40093
AAXX 22064 71971 16/// /1202 11277 21302 39971 40018 50001 60001 333 11176 21277 70003
AAXX 22064 71359 16/// /2704 11065 21090 60001 333 11023 21069 70000 555 32817 40211
AAXX 22064 71888 16/// ///// 11078 21103 60001 333 11029 21087 70000
AAXX 22064 71895 16/// ///// 11065 21103 60001 333 11001 21105 7////
AAXX 22064 71221 16/// /2617 11010 21090 60001 333 11003 21111 70000 555 32531 40052
AAXX 22064 71226 16/// /2311 11011 21075 60001 333 11011 21062 70000 555 32120 40061
AAXX 22064 71229 46/// /0503 11072 21095 6///1 333 11029 21117 7////
AAXX 22064 71761 16/// ///// 11058 21091 60001 333 11027 21067 70004
AAXX 22064 71788 16/// /1609 11101 21125 60001 333 10001 21107 70010 555 30024 40161
AAXX 22064 71792 16/// ///// 11095 21126 60001 333 11005 21105 70005
AAXX 22064 71011 16/// ///// 11114 21141 60001 333 10000 21120 70008
AAXX 22064 71049 16/// /2913 11281 30050 40075 51006 60001 333 11263 21307 70000 555 30231 40172
AAXX 22064 71461 16/// /2610 11012 21082 60001 333 11009 21083 70000 555 32621 40051
AAXX 22064 71468 16/// /3016 11070 21095 39832 40159 51022 60001 333 21080 70000 555 30324 40221
AAXX 22064 71483 16/// ///// 11053 21093 60001 333 11008 21064 70000
AAXX 22064 71500 16/// /2005 11035 21110 60001 333 11008 21056 70014 555 33123 40141
AAXX 22064 71504 16/// ///// 11049 21109 60001 333 11003 21115 70013
AAXX 22064 71541 16/// /2312 11030 21081 60001 333 11025 21093 70000 555 32120 40051
AAXX 22064 71543 16/// /2515 11021 21080 60001 333 11017 21152 7////
AAXX 22064 71546 16/// /2520 10003 21097 60001 333 10004 21071 70000 555 32629 40062
AAXX 22064 71547 16/// /2624 11015 21100 60001 333 11014 21068 70000 555 32636 40063
AAXX 22064 71067 16/// ///// 11074 21115 60001 333 11003 21096 70004
BBXX 46246 22061 99500 71451 46/// ///// 1//// 90559 22200 00073 11111 21008 318// 41107 70054
AAXX 22064 13625 11303 80000 10000 21023 39828 40065 57016 60032 77077 886// 333 21005 37/// 88706
AAXX 22061 37989 42999 10000 10051 20044 40228 52018 81030- 37851 42598 70000 10066 20043 30167 40242 52031 83539 555 20039- 37925 42998 00000 10042 20014 20150 40220 52016 333 20036- 37864 31596 70000 10065 20054 40230 52019 71022 83570 333 20026 555 30///- 37675 42999 42502 10025 20017 39571 40243 52023 84002- 37923 42997 40000 10077 20034 40211 52010 84030 333 20065- 37985 41595 83201 10046 20039 30234 40219 53027 71011 886//- 37905 42997 20000 10007 21022 40245 58030 82040- 37661 42998 02101 10095 21014 39445 40198 52004- 37740 42999 02302 10085 21022 39400 40202 52018- 37749 42998 30901 10036 20010 30138 40257 53017 83030- 37735 42999 62501 10052 21013 39775 40153 86070-
AAXX 22064 71221 16/// /2617 11010 21090 60001 333 11003 21111 70000 555 32531 40052
AAXX 22064 71226 16/// /2311 11011 21075 60001 333 11011 21062 70000 555 32120 40061
AAXX 22064 71229 46/// /0503 11072 21095 6///1 333 11029 21117 7////
AAXX 22064 71011 16/// ///// 11114 21141 60001 333 10000 21120 70008
AAXX 22064 71049 16/// /2913 11281 30050 40075 51006 60001 333 11263 21307 70000 555 30231 40172
AAXX 22064 71067 16/// ///// 11074 21115 60001 333 11003 21096 70004
AAXX 22064 71673 16/// ///// 11106 21121 60001 333 11002 21128 70009
AAXX 22064 71690 16/// ///// 11032 21075 60001 333 11030 21097 70000
AAXX 22064 71761 16/// ///// 11058 21091 60001 333 11027 21067 70004
AAXX 22064 71788 16/// /1609 11101 21125 60001 333 10001 21107 70010 555 30024 40161
AAXX 22064 71792 16/// ///// 11095 21126 60001 333 11005 21105 70005
AAXX 22064 71283 16/// /2615 11016 21093 60001 333 11016 21109 70000 555 32624 40061
AAXX 22064 71971 16/// /1202 11277 21302 39971 40018 50001 60001 333 11176 21277 70003
AAXX 22064 71359 16/// /2704 11065 21090 60001 333 11023 21069 70000 555 32817 40211
AAXX 22064 71405 16/// ///// 11078 21101 60001 333 11016 21111 70009
AAXX 22064 71417 16/// /2106 11006 21023 30062 40097 57005 60001 333 11006 21082 70006 555 32427 40161
AAXX 22064 71426 46/// /0411 11006 6///1 333 10002 21050 7//// 555 32136 40093
AAXX 22064 71315 16/// /2803 11059 21072 30001 40055 56024 60001 333 11058 21145 70003
AAXX 22064 71320 16/// /3209 11316 21346 39990 49990 53002 60001 333 11230 21341 70000
AAXX 22064 71461 16/// /2610 11012 21082 60001 333 11009 21083 70000 555 32621 40051
AAXX 22064 71468 16/// /3016 11070 21095 39832 40159 51022 60001 333 21080 70000 555 30324 40221
AAXX 22064 71483 16/// ///// 11053 21093 60001 333 11008 21064 70000
AAXX 22064 71500 16/// /2005 11035 21110 60001 333 11008 21056 70014 555 33123 40141
AAXX 22064 71504 16/// ///// 11049 21109 60001 333 11003 21115 70013
AAXX 22064 71541 16/// /2312 11030 21081 60001 333 11025 21093 70000 555 32120 40051
AAXX 22064 71543 16/// /2515 11021 21080 60001 333 11017 21152 7////
AAXX 22064 71546 16/// /2520 10003 21097 60001 333 10004 21071 70000 555 32629 40062
AAXX 22064 71547 16/// /2624 11015 21100 60001 333 11014 21068 70000 555 32636 40063
AAXX 22064 71888 16/// ///// 11078 21103 60001 333 11029 21087 70000
AAXX 22064 71895 16/// ///// 11065 21103 60001 333 11001 21105 7////
BBXX 46146 22061 99493 71237 46/// /0104 10042 40348 52008 22200 00069 10200 70001 333 91205
BBXX 46243 22061 99462 71241 46/// ///// 1//// 90629 22200 00080 11304 20903 326// 41303 70020
BBXX 46236 22061 99368 71219 46/// ///// 1//// 90620 22200 00124 11304 21003 328// 41303 70022
BBXX 46229 22061 99438 71246 46/// ///// 1//// 90621 22200 00098 11305 21003 330// 41304 70026
BBXX 46217 22061 99342 71194 46/// ///// 1//// 90612 22200 00150 11302 20501 327// 41302 70011
BBXX 46225 22061 99329 71174 46/// ///// 1//// 90614 22200 00147 11402 21001 327// 41401 70009
BBXX 46213 22061 99403 71247 46/// ///// 1//// 90624 22200 00101 11306 20805 330// 41304 70031
BBXX 46215 22061 99352 71209 46/// ///// 1//// 90608 22200 00139 11303 21002 327// 41303 70017
AAXX 22061 45032 36/// /0004 10198 20048 30162 40179 57002
AAXX 22061 45035 36/// /0105 10195 20074 30134 40176 57002
AAXX 22061 45039 36/// /0303 10198 20078 30158 40172 57002
AAXX 22061 45044 36/// /3404 10218 20089 30077 40170 57002
BBXX 46146 22061 99493 71237 46/// /0104 10042 40348 52008 22200 00069 10200 70001 333 91205
AAXX 22061 56144 32980 01402 10059 21196 36806 57055 333 05100 21086
AAXX 22061 56152 32980 11101 10027 21175 36260 57039 80002 333 00051 21177
AAXX 22061 56167 32980 10000 10101 21139 37022 57061 80002 333 05151 21098
AAXX 22061 56182 32980 01801 10037 21115 37165 57046 333 05302 21050
AAXX 22061 56357 32980 01401 10091 21222 36412 57041 333 05100 21130
AAXX 22061 56586 11462 80000 10014 21017 38057 57038 69901 70076 885// 333 05200 21008 93427
AAXX 22061 56748 32580 12005 10182 20008 38346 57034 81100 333 05100 20018
AAXX 22061 56763 32980 01107 10227 20047 40094 57053 333 05151 20061
AAXX 22061 56768 32680 11804 10152 20067 38172 57035 81100 333 00051 20039
AAXX 22061 56838 31667 12501 10184 20122 40158 57032 70040 81100 333 05100 20089
AAXX 22061 56886 32560 81802 10067 20042 38310 57031 884// 333 00159 20048
AAXX 22061 56946 32680 10901 10207 20099 40153 57041 81100 333 05101 20045
AAXX 22061 56959 32770 21401 10233 20132 40151 57038 82100 333 00000 20124
AAXX 22061 56969 31580 13201 10220 20128 40161 57040 70040 81100 333 00000 20111
AAXX 22061 57731 32665 81101 10070 20000 40282 57035 885// 333 00100 20059
AAXX 22061 57766 11458 80702 10068 20007 40288 57027 69901 76000 885// 333 20058
AAXX 22061 57845 32760 83602 10073 21004 40268 57032 885// 333 20054
AAXX 22061 57853 11956 80203 10070 21030 40284 57034 69901 70560 8807/ 333 20050
AAXX 22061 57916 32672 81402 10103 20036 40252 57034 885// 333 00151 20086
AAXX 22061 57922 31657 83402 10032 20009 40272 57031 71000 885// 333 00151 20020
AAXX 22061 57932 32667 80403 10081 20013 40272 57035 885// 333 00255 20074
AAXX 22061 58338 32961 00403 10062 21061 40301 57031 333 20026
AAXX 22061 59007 32665 80401 10068 20032 40230 57034 885// 333 20054
AAXX 22061 59046 31958 73403 10128 20037 40239 57037 70500 8703/ 333 20090
AAXX 22061 59058 31956 03204 10146 20022 40222 57041 70500 333 20085
AAXX 22061 59072 32960 00206 10117 20016 40241 57042 333 20063
AAXX 22061 59087 32960 00906 10162 20015 40207 57042 333 20109
AAXX 22061 59209 11465 83601 10098 20067 40223 57034 69901 70060 888// 333 20094
AAXX 22061 45032 36/// /0004 10198 20048 30162 40179 57002
AAXX 22061 45035 36/// /0105 10195 20074 30134 40176 57002
AAXX 22061 45039 36/// /0303 10198 20078 30158 40172 57002
AAXX 22061 45044 36/// /3404 10218 20089 30077 40170 57002
BBXX 44039 22061 99411 70727 46/// /2410 10121 20099 40087 90553 22200 00094 10402 70008 333 91214
BBXX 44099 22061 99369 70757 46/// ///// 1//// 90622 22200 00107 10702 20702 310// 41101 70012
BBXX 42013 22061 99272 70829 46/// ///// 1//// 40189 90540 22200 00199
BBXX 41010 22061 99289 70785 46/// /1608 10234 40209 90620 22200 00239 10603 20603 300// 41202 70015 333 91209 555 11080 22084
BBXX 41009 22061 99285 70802 46/// /1507 10242 20197 40200 90620 22200 00243 11103 20602 300// 41102 70013 333 91209 555 11079 22084
BBXX 44100 22061 99363 70756 46/// ///// 1//// 90622 22200 00120 10702 20702 309// 41101 70012
BBXX 41110 22061 99341 70777 46/// ///// 1//// 90621 22200 00139 10702 20702 312// 41301 70012
BBXX 42099 22061 99273 70842 46/// ///// 1//// 90627 22200 00230 10603 20603 70013
BBXX 41113 22061 99284 70805 46/// ///// 1//// 90621 22200 00211 10502 20502 309// 41201 70010
BBXX 41112 22061 99307 70813 46/// ///// 1//// 90621 22200 00160 10602 20602 311// 41101 70009
BBXX 42361 22061 99276 70925 46/// ///10 10233 20211 40122 58010 90630 555 11080 22086
BBXX 42364 22061 99291 70881 46/// /1609 10211 20200 40163 90630
AAXX 22061 38599 31995 60710 11039 21084 39855 40401 50001 71011 80001 333 21081 91115
AAXX 22061 38844 42999 00701 11071 21164 48540 53009
AAXX 22061 38599 31995 60710 11039 21084 39855 40401 50001 71011 80001 333 21081 91115
BBXX VRGM8 22063 99345 10253 41497 72325 10160 20108 40090 58040 70322 8677/ 22274 00185 20803 327// 40804 5//// 80130
AAXX 22064 60514 11960 30000 10061 20043 39349 48567 60004 700// 80002 333 00200 20054 83073 95990
AAXX 22064 67871 31970 10205 10217 20146 38542 48505 70500 80002 333 20134 59015 81075
BBXX 44258 22061 99445 70634 46/// /1813 10088 40039 57072 22200 00064 10706 70030 333 91216
AAXX 22064 67871 31970 10205 10217 20146 38542 48505 70500 80002 333 20134 59015 81075
BBXX 44258 22061 99445 70634 46/// /1813 10088 40039 57072 22200 00064 10706 70030 333 91216
AAXX 22064 16682 11456 72808 10098 20086 39973 49991 57030 60462 79596 86978 333 20094 32/// 5///0 55023 70653 82918 85625 87357 90730 91118 555 10000 30114 20000 89057 99093 30000 10100 20105 30108 40116 50142 60185 40000 47511 44210 50000 50092 60000 60461 61130 70000 77TR/ 7TR//
BBXX V2AJ8 22063 99292 11227 41597 60240 10120 21002 40211 54000 70111 8446/ 22284 20509 399// 40702 5//// 80070
AAXX 22064 97014 32560 62905 10293 20242 39960 40053 57022 84831 333 56700 57872 83821 80860
AAXX 22064 97028 32563 83107 10308 20239 30042 40048 58019 84221 333 56000 57802 84818 87459 80859
AAXX 22064 97048 01420 72403 10268 20244 30024 40048 57019 60021 76062 85921 333 56800 57981 57881 60027 82917 84617 86460 80980 80860
AAXX 22064 97072 32558 73512 10318 20231 30007 40107 57001 82271 333 56000 57803 82820 85360 80858
AAXX 22064 97086 32560 71405 10312 20262 30014 40039 56029 83210 333 56000 57803 82820 86460 80858
AAXX 22064 97096 32460 80210 10310 20265 30037 40058 57020 8422/ 333 56009 57801 84816 88460 80864
AAXX 22064 97120 32462 52812 10309 20236 30007 40040 57020 83932 333 56600 57903 57861 81917 82818 83080 80981 80860
AAXX 22064 97146 11456 70000 10276 20250 30033 40972 57024 69907 71796 85921 333 56000 57901 57802 81912 82814 80980 80860
AAXX 22064 97180 01456 73009 10293 20257 30029 40047 56023 60101 76166 85272 333 56000 60097 85819 84360
AAXX 22064 97192 11465 71703 10272 20246 30006 40063 57018 60021 71796 85921 333 56000 57903 81916 84616 80957
AAXX 22064 97230 32460 72411 10306 20262 30041 40048 57012 83231 333 56000 57801 83816 85080 80859
AAXX 22064 97260 32565 73007 10320 20266 30028 40035 57017 83101 333 56000 83820 86080
AAXX 22064 97270 32460 70912 10336 20246 30033 40038 58019 84821 333 56000 83815 85460
AAXX 22064 97300 11459 82108 10294 20240 30009 40049 57019 69931 70296 83271 333 56800 57822 83817 84460 80857
AAXX 22064 97340 NIL
AAXX 22064 97372 01460 81303 10262 20243 39917 40037 57022 60041 70296 86971 333 56000 60027 81915 85816
AAXX 22064 97430 01460 63021 10286 20248 30020 40050 57019 69901 83232 333 56700 57872 69907 84818 80860
AAXX 22064 97460 01459 70000 10294 20243 30013 40027 57024 69901 76062 84376 333 56600 57961 60037 81917 83818 80959 80858
AAXX 22064 97502 NIL
AAXX 22064 97530 01410 82306 10284 20257 30018 40022 57027 60041 76162 8683/ 333 56009 57801 60047 83814 84615 88460 80860
AAXX 22064 97560 01460 72908 10306 20251 30010 40025 57030 60021 72162 83878 333 56000 57864 69907 83818 85361 86279 80860
AAXX 22064 97580 12462 63104 10290 20261 30071 40078 51024 60031 83908 333 56000 57901 81916 82815 86275 80980
AAXX 22064 97600 32459 63006 10292 20246 30028 40034 57022 83271 333 56600 57863 82819 85460 80859
AAXX 22064 97686 31460 71309 10270 20163 38383 40014 57023 71622 85845 333 56000 57802 84814 86362 80860
AAXX 22064 97690 32462 72608 10312 20246 39915 40016 57022 84848 333 56000 57802 83815 87278 80860
AAXX 22064 97724 31456 73205 10322 20245 30015 40032 58014 71522 85872 333 56700 57871 84817 80856
AAXX 22064 97748 NIL
AAXX 22064 97760 01457 73011 10287 20243 30022 40031 57019 60041 72162 83932 333 56700 57901 60047 81915 82816 80960
AAXX 22064 97796 01430 80000 10298 20280 39981 40032 57020 60031 76162 8797/ 333 56009 57900 60037 81910 87611
AAXX 22064 97810 01462 72823 10294 20245 30002 40011 57024 60081 70262 84872 333 56700 57871 60077 82819 80850
AAXX 22064 97876 NIL
AAXX 22064 97900 01467 82807 10294 20251 39977 40006 57019 69961 70362 8582/ 333 56609 57861 69927 84615 88460 80858
AAXX 22064 97980 22460 71805 10292 20247 30021 40028 57018 69941 86842 333 56000 69947 82816 84620
AAXX 22064 96009 01430 81204 10262 20250 30050 40085 57005 60021 76062 8592/ 333 56009 57902 60027 82915 83616 85460 80965
AAXX 22064 96011 11559 80000 10294 20251 30056 40082 57018 76022 84532 333 56000 60037 84620
AAXX 22064 96035 NIL
AAXX 22064 96073 32560 70000 10306 20237 30073 40085 56006 83222 333 56000 57802 83820 80860
AAXX 22064 96091 32458 80505 10274 20246 30072 40095 57012 85978 333 56800 57981 81920 85613 87280 80980
AAXX 22064 96109 NIL
AAXX 22064 96145 11440 83509 10278 20243 30072 40075 58018 60041 70562 8682/ 333 56809 57882 82616 84817 88460 80857
AAXX 22064 96147 01456 80312 10276 20256 30074 40079 56037 69901 76062 82511 333 56000 69907 82612 85460
AAXX 22064 96163 NIL
AAXX 22064 96179 01458 73207 10263 20256 30053 40090 57012 60081 72162 83221 333 56500 57853 60047 83817 85460 80840
AAXX 22064 96195 32464 73304 10286 20234 30045 40081 57019 85321 333 56000 81915 83815 80950 80845
AAXX 22064 96221 32460 82804 10285 20243 30063 40077 57009 85576 333 56999 85615 87280
AAXX 22064 96237 32459 70000 10316 20237 30028 40070 56011 84232 333 56000 57801 84817 83360 80860
AAXX 22064 96249 32460 72510 10298 20246 30003 40064 57015 84932 333 56600 57961 57861 81917 83820 80981
AAXX 22064 96253 32460 72908 10300 20224 30041 40061 57013 83932 333 56000 57900 57800 81915 81820 83360
AAXX 22064 96295 NIL
AAXX 22064 96509 32459 50803 10307 20259 30040 40051 57031 83231 333 56000 57801 83815 80859
AAXX 22064 96581 01340 80000 10273 20237 30066 40073 57014 60101 76062 8637/ 333 56209 57922 81911 86809 85361 80978 80856
AAXX 22064 96633 NIL
AAXX 22064 96645 21440 82304 10286 20260 30026 40057 57018 69901 76062 85972 333 56000 57902 69907 81911 85612 80981
AAXX 22064 96655 01458 63306 10310 20258 30040 40075 57024 69931 72162 85271 333 56600 57862 69937 82812 83612 80863
AAXX 22064 96685 11460 63206 10296 20244 30027 40054 57028 69901 70262 84511 333 56000 84616
AAXX 22064 96749 32560 53109 10313 20246 30049 40063 58018 84211 333 56000 57821 84822 80860
AAXX 22064 96781 31456 72713 10288 20206 39252 48732 57018 70522 83231 333 56000 57802 83818 80858
AAXX 22064 96805 32562 32204 10321 20249 30060 40069 56024 82211 333 56300 57832 82820 80860
AAXX 22064 96839 NIL
AAXX 22064 96935 32560 83005 10314 20266 30039 40045 57021 83237 333 56000 83820 88280
AAXX 22064 97008 31459 50108 10304 20246 30036 40047 58019 71411 84202 333 56000 57801 84819 80860
AAXX 22064 97016 32461 60803 10328 20231 30048 40050 57011 84932 333 56000 57901 57801 81918 83820 80984 80860
AAXX 22064 97126 32458 71504 10324 20256 39975 40036 57027 83221 333 56000 57802 83816 87460 80860
AAXX 22064 97142 32560 52603 10320 20259 30011 40026 56029 82271 333 56000 57802 82820 80859
AAXX 22064 97182 11466 73009 10307 20258 30035 40040 57023 70262 84971 333 56000 57901 57801 60027 81919 83819 83460 80980 80877
AAXX 22064 97240 31460 62311 10310 20260 39937 40051 57013 70521 84132 333 56000 84816
AAXX 22064 97284 31460 63506 10246 20192 38828 40066 57016 71522 85821 333 56000 57801 83810 84612 80837
AAXX 22064 97310 32466 71807 10318 20250 30067 40079 57021 83221 333 56000 57802 83817 86457 80850
AAXX 22064 97320 32565 71808 10336 20261 30003 40015 57028 83276 333 56000 83820 85460 80850
AAXX 22064 97378 01468 70000 10236 20236 39882 40045 56015 60171 72196 8297/ 333 56600 60507 82818 85418
AAXX 22064 97380 01458 80000 10281 20281 30050 40071 50020 60111 79596 84971 333 56000 57901 57801 60117 81916 84818 87459 80957 80850
AAXX 22064 97406 32460 70705 10302 20226 30023 40048 57017 84231 333 56200 57821 84818 85360 80860
AAXX 22064 97570 32460 52407 10314 20257 30019 40026 57025 83232 333 56000 57801 83815 80857
AAXX 22064 97630 01465 72717 10308 20247 39868 40027 56023 60031 71586 85972 333 56000 57901 69987 82911 84812 86361 80980
AAXX 22064 97682 32465 63105 10327 20271 30004 40012 57026 86963 333 56000 57802 82917 84814 86078 80970
AAXX 22064 97698 NIL
AAXX 22064 97700 32460 60206 10306 20264 30010 40024 57016 82232 333 56000 57804 82818 84358 80856
AAXX 22064 97722 01459 73003 10318 20253 30012 40037 57007 69964 72162 86970 333 56600 57961 57861 69967 81917 83818 85457 80971 80856
AAXX 22064 97780 NIL
AAXX 22064 97790 32561 62810 10307 20257 29988 40009 57015 82835 333 56600 57862 81820 80858
AAXX 22064 96001 31557 71012 10300 20276 39945 40093 57011 70522 84272 333 56200 57822 84820 80860
AAXX 22064 96015 11450 81310 10248 20239 30084 40091 56004 60021 76062 8597/ 333 56009 57900 82912 83612 80980
AAXX 22064 96033 NIL
AAXX 22064 96075 32458 70809 10308 20263 30069 40075 57013 84971 333 56000 57901 82915 82816 84462 80965 80856
AAXX 22064 96087 32460 80105 10277 20237 30055 40088 56011 85538 333 56800 85614 84360 87280
AAXX 22064 96171 32458 73005 10298 20243 30058 40083 56009 85922 333 56000 57901 57801 82915 83816 80956 80858
AAXX 22064 96207 NIL
AAXX 22064 96505 32462 53002 10302 20244 39025 4//// 57026 84101 333 56000 84817
AAXX 22064 96525 32458 61611 10296 20259 30047 40055 57028 85975 333 56800 57901 81915 84815 80980
AAXX 22064 96529 32460 70000 10322 20257 30048 40072 57028 84121 333 56000 84818
AAXX 22064 96535 32460 73404 10282 20256 30066 40086 57019 83171 333 56000 83814 86362
AAXX 22064 96557 11460 73103 10305 20250 30013 40063 57026 69901 70262 85371 333 56600 57961 57861 81912 84813 85460 80980 80857
AAXX 22064 96559 32458 62705 10316 20245 30047 40085 57023 84131 333 56300 57831 84811 83362 80857
AAXX 22064 96565 NIL
AAXX 22064 96595 31462 70000 10327 20247 30008 40060 57035 71422 85836 333 56000 57802 81815 84612 80862
AAXX 22064 96607 32460 82709 10300 20239 30043 40058 57028 8522/ 333 56009 85814 88460
AAXX 22064 96615 01457 72904 10288 20257 30061 40075 57015 60021 76062 84331 333 56000 57901 57802 60017 81915 83812 80958 80856
AAXX 22064 96695 32458 62704 10328 20250 30034 40039 58032 83211 333 56000 57803 83617 83460 80860
AAXX 22064 96737 32460 52408 10332 20230 30030 40061 56006 84211 333 56000 57802 84815 80862
AAXX 22064 96739 32465 72611 10336 20235 30015 40064 56018 83232 333 56000 57802 83818 80858
AAXX 22064 96741 NIL
AAXX 22064 96745 32560 60000 10327 20257 30057 40062 57016 85221 333 56600 57862 85820 80825
AAXX 22064 96751 32560 52704 10265 20204 39009 48920 57016 84211 333 56200 57822 84820 80880
AAXX 22064 96791 NIL
AAXX 22064 96797 32561 63004 10328 20262 30048 40053 57025 83231 333 56000 57802 83820 80860
AAXX 22064 96837 32560 43504 10310 20252 30074 40077 57012 82231 333 56000 57800 82823
AAXX 22064 96925 32465 52206 10320 20243 30047 40052 56026 82242 333 56500 57850 82817 84080 80860
AAXX 22064 96933 32460 83204 10322 20242 30041 40045 57021 8552/ 333 56609 85618 88460
AAXX 22064 96937 32560 73308 10327 20253 30039 40044 57021 83121 333 56000 83820
AAXX 22064 96973 31460 83304 10326 20277 30043 40049 57016 71522 85971 333 56000 57901 82919 80977 83820 80850
AAXX 22064 96987 32460 71006 10324 20265 39989 40048 57015 84921 333 56000 57902 81918 83618 80980
AAXX 22064 63125 32570 21407 10265 20193 40198 82200 333 20228 58004 82820
AAXX 2206/ 89866 46/// ///// 11004 39781 4//// 5////
AAXX 22061 98134 11456 80404 10204 20198 39933 40125 5//// 60051 76064 8552/ 333 56199 85618 88456
AAXX 22061 98223 31562 60209 10272 20229 40075 57037 70544 81260 333 56999 81820 85360 91014
AAXX 22061 98232 31570 80205 10258 20239 40109 58028 71542 8457/ 222// 20105 333 56199 84620 88358
AAXX 22061 98325 31462 31404 10310 20269 40082 58022 70544 81270 333 56999 81817
AAXX 22061 98328 31450 82702 10232 20207 38500 40058 57020 74644 883// 333 56999 82912 86813
AAXX 22061 98330 31480 20000 10332 20276 30042 40074 57032 70344 82300 333 56999 82918
AAXX 22061 98336 NIL
AAXX 22061 98429 31560 72902 10299 20242 40072 57032 70544 83830 333 56999 83823 86360
AAXX 22061 98430 31458 80000 10299 20239 40060 58007 70544 8387/ 333 56999 83820 88358
AAXX 22061 98431 NIL
AAXX 22061 98440 31475 20403 10295 20256 30075 40080 57028 70544 82200 333 56199 82815
AAXX 22061 98444 32468 30602 10310 20251 30050 40069 58033 83202 333 56199 83818
AAXX 22061 98526 NIL
AAXX 22061 98531 NIL
AAXX 22061 98536 31470 30402 10276 20244 39871 40076 58025 70544 82160 222// 20000 333 56199 82818
AAXX 22061 98543 32480 50000 10317 20267 30047 40058 57036 82201 333 56299 82818 84075
AAXX 22061 98550 11460 70703 10302 20238 40063 57022 69901 70281 84270 333 56199 84818 87357
AAXX 22061 98618 32480 60906 10312 20255 40068 58014 83908 33303 56999 82917 82819 86274
AAXX 22061 98630 32575 80204 10308 20262 40121 58010 83207 222// 2//03 333 56199 83820 88275
AAXX 22061 98637 NIL
AAXX 22061 98646 32460 60405 10308 20259 30061 40089 57021 81901 333 56999 81918 86080
AAXX 22061 98653 NIL
AAXX 22061 98741 31470 50402 10308 20256 40050 57028 70544 82202 333 56199 82818 84075
AAXX 22061 98747 31460 63605 10317 20247 39844 40047 57032 70544 83972 333 56999 81917 82818 83358
AAXX 22061 98753 31465 73604 10310 20258 40045 57036 71544 84938 333 56899 81915 83816 85279
AAXX 22061 98755 11575 61401 10290 20257 40047 57029 60011 70282 86201 333 56899 33301 56899 86820
AAXX 22061 98836 31462 71802 10320 20262 40057 57029 70544 83201 333 56999 83818 84081
AAXX 22064 94996 41418 30915 10216 20176 30037 40174 55001 70580 83801 90630
BBXX 46036 22061 99484 71339 46/// /1714 10088 40195 57023 22200 00084 10606 70029 333 91217
AAXX 22064 94996 41418 30915 10216 20176 30037 40174 55001 70580 83801 90630
BBXX 46036 22061 99484 71339 46/// /1714 10088 40195 57023 22200 00084 10606 70029 333 91217
AAXX 22061 88900 46/// /0610 10085 20078 39905 49907 58035 333 55019
BBXX 63110 22063 99595 10015 41/97 /2821 10099 40057 700// 8//// 22200 10604 70020
BBXX 63106 22064 99610 10017 46/// /2817 10092 40031 52032 22200
BBXX 63105 22064 99610 10017 47596 ///// 10100 20065 40031 52031 700// 22200
BBXX 62103 22064 99499 70029 46/98 /3127 10118 20093 40276 52002 22200 00123 10602 70012 333 90710 91132
BBXX 62107 22064 99501 70061 46/// /2514 10116 20093 40297 55000 22200 00117 10804 70018
BBXX 62303 22064 99516 70051 46/// /2613 10118 20094 40262 57002 22200 00110 10604 70019
BBXX 62095 22064 99531 70159 46/// /2023 10125 20113 40140 57023 22200 00113 10810 70049 333 90710 91134
BBXX 62027 22064 99491 70022 46/// /3217 1//// 2//// 40290 52009 22200 00113 10703 331// 70015
BBXX DDYZ2 22064 99519 10016 41/98 42716 10110 20082 40220 54000 7//// 8//// 22200 00090 20201 80095
BBXX 62095 22064 99531 70159 46/// /2023 10125 20111 40140 57023 22200 00113 10810 70049 333 90710 91134
BBXX UASP 22061 99692 10352 41/97 /1906 11042 40100 54000 70111 8//// 222// 20302
BBXX DDZD2 22064 99420 70101 41/98 20218 10135 20118 40320 56011 70111 82/// 22245 00130 29902 80125
BBXX 64049 22063 99571 10022 41/97 72615 10103 20091 40114 54000 70211 8//// 22200 04094 20602 326// 40604 5//// 80097
BBXX KS094 22064 99125 70614 43/// /0821 10267 40122 22200 06266
BBXX KS044 22064 99352 31745 43/// /1806 10183 40245 22232 06185
BBXX KS098 22064 99441 71245 43/// /0612 10070 40285 22242 06000
BBXX KS088 22064 99267 70801 43/// /0707 10239 40193 22200 06230
BBXX KS007 22064 99267 70801 43/// ///// 10237 40153 22200
BBXX WC5932 22064 99433 70878 43/// /2618 00/// 10022 21067 40142 52029 7//// 8//// 22243 0//// 2//// 3//// 4//// 5//// 6//// 81009 ICE /////
BBXX WCF3012 22064 99466 70869 41/98 83320 10020 40100 77127 22263 00060 20302
BBXX WE3806 22064 99473 70906 41/98 93422 11016 2//// 40146 53/// 70222 8//// 22223 00033 2//03 3//// 4//// 5//// 6//// 8//// ICE /////
BBXX WKPN 22064 99159 10556 41998 00818 10250 20157 40190 54000 70200 80000 22215 00280 20604 3//// 4//// 5//// 6//// 80190 ICE /////
BBXX 44060 22061 99413 70721 46/// ///11 10117 40066 90630 22200 00104 333 91214 555 11129 22139
BBXX 44040 22061 99410 70736 46/// /2609 10122 20086 40100 90619 22200 10301 70005 333 91211 555 11113 22134
BBXX 46238 22061 99334 71195 46/// ///// 1//// 90620 22200 00142 11303 21002 328// 41303 70017
BBXX 46239 22061 99363 71221 46/// ///// 1//// 90621 22200 00136 11306 21004 329// 41305 70031
AAXX 22061 23426 32986 32201 11229 21254 30162 40189 57002 80001 333 21245
AAXX 22061 23625 32999 80301 11159 21178 30162 40198 52004 80006 333 21185
AAXX 22061 28076 32697 82302 11041 21105 30187 40261 57003 885// 333 21065
AAXX 22061 28367 32996 72304 11090 21192 30211 40346 57003 86031 333 21098
AAXX 22061 28382 32984 82206 11060 21158 30247 40320 57010 85079 333 21153
AAXX 22061 28481 32998 82404 11065 21161 30254 40357 56005 8807/ 333 21086
AAXX 22061 28491 32965 82404 11071 21164 30229 40344 57007 8802/ 333 21070
AAXX 22061 28573 32998 82407 11082 21171 30278 40388 57006 86030 333 21096
AAXX 22061 28593 31998 82304 11081 21176 30264 40366 57008 72271 8801/ 333 21126
AAXX 22061 28786 31998 82606 11122 21174 30280 40449 57002 73631 8801/ 333 21154
AAXX 22061 28797 31997 82605 11131 21183 30274 40444 57003 73632 8801/ 333 21156
AAXX 22061 28799 32998 82704 11136 21197 30280 40437 54000 80009 333 21171
AAXX 22063 63671 32980 01308 10264 20199 333 20206
AAXX 22063 63723 32582 50610 10285 20219 40135 85201 333 20240 58008 85825
AAXX 22063 63793 11330 80507 10240 20213 40113 69954 70252 886// 333 20226 58010 87706
AAXX 22061 20046 31997 83003 11086 21097 30092 40125 57004 77172 8807/ 333 21123
AAXX 22061 20069 41476 70906 11145 21177 30119 40132 57003 73632 875// 333 87613
AAXX 22061 20087 41895 81411 11231 21263 30185 40196 57003 77173 8802/ 333 91114 92982
AAXX 22061 20292 42998 01702 11278 21303 30253 40275 53007 333 91105
AAXX 22061 20353 46/// /3605 11069 21095 30087 40091 52005
AAXX 22061 20667 11998 71604 11058 21065 30091 40098 57004 69900 70272 87070 333 21055
AAXX 22061 20674 41896 81908 11183 21195 30089 40152 57004 77373 8802/ 333 91115 92980
AAXX 22061 20744 32998 61102 11047 21064 30083 40101 52005 85031 333 21057
AAXX 22061 20891 NIL
AAXX 22061 23022 11597 72010 11060 21075 30050 40112 57002 69900 73783 87500 333 21070 91114
AAXX 22061 23032 11597 72206 11076 21094 30099 40130 57006 69930 73633 87500 333 21069 87629
AAXX 22061 23058 11396 82303 11097 21109 30165 40170 57003 69900 77172 8802/ 333 21145 88509
AAXX 22061 23242 11396 82204 11125 21145 30150 40166 57006 69900 78582 889// 333 21177 88707
AAXX 22061 23256 11397 82004 11120 21133 30153 40190 57003 69950 78582 883// 333 21121 84709
AAXX 22061 23330 11598 52102 11195 21207 30155 40178 57003 69900 70272 81541 333 21177
AAXX 22061 23445 32297 81402 11174 21186 30166 40193 57010 886// 333 21199 88705
AAXX 22061 23552 11396 81401 11175 21194 30181 40218 57009 69900 77172 885// 333 21193 88607
AAXX 22061 23631 32998 82602 11203 21215 30160 40205 54000 80001 333 21166
AAXX 22061 23662 11497 81901 11133 21153 30192 40239 57010 69920 77872 885// 333 21142 88610
AAXX 22061 23724 32999 82202 11064 21096 30145 40211 53002 8802/ 333 21109
AAXX 22061 23734 32998 82401 11110 21123 30123 40218 57002 8801/ 333 21159
AAXX 22061 23849 41596 82103 11073 21083 40234 57010 77177 8552/ 333 85625
AAXX 22061 23867 11996 81901 11135 21155 30191 40267 57012 69930 77172 8802/ 333 21173
AAXX 22061 23933 11997 82603 11060 21113 30177 40235 57004 60020 70272 8807/ 333 21098
AAXX 22061 28064 32999 82701 11027 21127 30173 40266 52006 8802/ 333 21040
AAXX 22061 28275 31598 82305 11056 21157 30240 40301 57010 73632 8555/ 333 21088
AAXX 22061 28493 32998 72202 11069 21161 30248 40344 57005 87070 333 21104
AAXX 22061 28698 31956 82504 11098 21191 30244 40408 57008 73833 8801/ 333 21131
AAXX 22064 63688 32580 30613 10188 20089 48/// 81101 333 20072 58007 81821 83077
AAXX 22064 63695 32980 20000 10208 20150 80001 333 20114 82080
AAXX 22064 63708 32580 30000 10242 20172 48511 83201 333 20187 58008 83824
AAXX 22064 63740 32580 60417 10198 20145 48528 85202 333 20146 58004 85821
AAXX 22064 63772 12580 60707 10292 20248 60094 862// 333 20258 86822
AAXX 22064 63820 32580 50311 10290 20227 40135 85200 333 20253 58007 85821
AAXX 22064 63612 NIL
AAXX 22064 63661 NIL
AAXX 22064 63671 NIL
AAXX 22064 63714 NIL
AAXX 22064 63723 NIL
AAXX 22064 63793 NIL
BBXX 46219 22061 99332 71199 46/// ///// 1//// 90628 22200 00139 11405 21002 330// 41404 70024
BBXX 46224 22061 99332 71175 46/// ///// 1//// 90606 22200 00148 11301 20501 323// 41301 70007
BBXX 46214 22061 99379 71235 46/// ///// 1//// 90623 22200 00117 11306 21004 330// 41304 70031
BBXX 51202 22061 99214 71577 46/// ///// 1//// 90609 22200 00242 10805 20805 335// 41101 70027
AAXX 22064 78318 12565 10903 10202 20192 30163 40167 56010 60001 81100 333 10270 20196 30/// 56900 59015 81821
AAXX 22064 78325 11930 01406 10217 20209 30117 40175 58009 60001 70400 333 10300 20195 30/// 56/// 59011
AAXX 22064 78333 12910 00501 10200 20188 30165 40172 56009 60001 333 10282 20175 30/// 59010
AAXX 22064 78348 11557 30000 10209 20200 30132 40184 58004 60001 70500 82802 333 10264 20186 30/// 56209 59006 81820 555 10902
AAXX 22064 78349 12940 00501 10214 20204 30075 40184 58006 60001 333 10296 20175 30/// 59004
AAXX 22064 78353 12560 31003 10240 20207 30149 40171 58023 60001 82802 333 10270 20225 30/// 56909 59015 81820
AAXX 22064 78360 12/60 10401 10210 20198 30150 40162 58013 60001 81100 333 10300 20197 30/// 56900 59013 818// 92021
AAXX 22064 78369 12464 10708 10257 20209 30157 40166 56008 60001 81200 333 10272 20237 30/// 56900 59016 70002 81818
BBXX WKPN 22064 99159 10556 41998 00818 10250 20157 40190 54000 70200 80000 22215 00280 20604 3//// 4//// 5//// 6//// 80190 ICE /////
BBXX A8MV6 22063 99231 10613 41797 40122 10230 20103 40200 50010 70311 84186 22273 04260 20602 302// 40802 5//// 80160
BBXX MZFC6 22063 99132 10584 41297 70222 10270 20193 40165 52034 70222 8561/ 22264 04266 20406 301// 40604 5//// 80220
BBXX A8AX3 22063 99123 70180 41/96 20516 10248 40135 58002 70500 8/0// 22244 20603
BBXX E5U2123 22063 99222 70175 41997 00416 10185 20101 40213 52010 70200 80000 22283 00192 20402 3//// 4//// 5//// 80140
BBXX V2AJ8 22063 99292 11227 41597 60240 10120 21002 40211 54000 70111 8446/ 22284 20509 399// 40702 5//// 80070
BBXX PHPP 22064 99059 10960 41197 61411 10270 20243 40076 58018 70255 86800 22274 00300 20802 80250
BBXX UGSN 22061 99514 11410 42598 60509 11130 40210 54000 81501 22200 00013 2//// ICE 51092
BBXX ZCBZ4 22063 99059 11243 41/98 40410 10310 20269 40076 57020 70200 84108 22264 20301 30400 40201 50000 80280
BBXX 62141 22063 99493 50591 41/97 /2644 10102 49980 54000 72122 8//// 22200 20709 32626 40607 50709
BBXX ZDLP 22063 99530 50416 41/92 93311 10049 20047 49902 57011 74354 89/// 22273 04038 2//// 3//// 4//// 5//// 80048
BBXX LAVN4 22064 99296 50451 41998 20712 10230 2022/ 40093 57010 72200 80001 22213 00200 20402 304// 40402 5//// 6//// 80220 NNNN
BBXX VREN5 22063 99341 31720 41597 61313 10180 20163 40238 57/// 70211 8/440 22262 20803 80170
BBXX C6HS4 22063 99212 31000 41598 52114 10265 20215 40136 58/// 7//22 8344/ 22273 20505 80230
BBXX B2M1303 22063 99333 31148 41498 22018 10235 20199 40130 57017 702// 81101 22284 00210 20403 324// 40704 80210
BBXX VNAH 22064 99329 31150 46/// /2323 10216 20171 30102 40125 57010 22243 04226 85187
BBXX 46036 22061 99484 71339 46/// /1714 10088 40195 57023 22200 00084 10606 70029 333 91217
BBXX WDD2074 22064 99537 71383 41596 81830 10078 2008/ 40000 57040 75052 887// 22273 00067 2//// 3//// 4//// 5//// 6//// 80078 ICE /////
BBXX 44258 22061 99445 70634 46/// /1813 10088 40039 57072 22200 00064 10706 70030 333 91216
BBXX 41010 22061 99289 70785 46/// /1608 10234 40209 90620 22200 00239 10603 20603 300// 41202 70015 333 91209 555 11080 22084
BBXX 42361 22061 99276 70925 46/// ///10 10233 20211 40122 58010 90630 555 11080 22086
BBXX 41112 22061 99307 70813 46/// ///// 1//// 90621 22200 00160 10602 20602 311// 41101 70009
BBXX 44100 22061 99363 70756 46/// ///// 1//// 90622 22200 00120 10702 20702 309// 41101 70012
BBXX 41113 22061 99284 70805 46/// ///// 1//// 90621 22200 00211 10502 20502 309// 41201 70010
BBXX 41110 22061 99341 70777 46/// ///// 1//// 90621 22200 00139 10702 20702 312// 41301 70012
BBXX 42364 22061 99291 70881 46/// /1609 10211 20200 40163 90630
BBXX 42099 22061 99273 70842 46/// ///// 1//// 90627 22200 00230 10603 20603 70013
BBXX 42013 22061 99272 70829 46/// ///// 1//// 40189 90540 22200 00199
BBXX 41009 22061 99285 70802 46/// /1507 10242 20197 40200 90620 22200 00243 11103 20602 300// 41102 70013 333 91209 555 11079 22084
BBXX 44039 22061 99411 70727 46/// /2410 10121 20099 40087 90553 22200 00094 10402 70008 333 91214
BBXX 44099 22061 99369 70757 46/// ///// 1//// 90622 22200 00107 10702 20702 310// 41101 70012
BBXX 46225 22061 99329 71174 46/// ///// 1//// 90614 22200 00147 11402 21001 327// 41401 70009
BBXX 46243 22061 99462 71241 46/// ///// 1//// 90629 22200 00080 11304 20903 326// 41303 70020
BBXX 46229 22061 99438 71246 46/// ///// 1//// 90621 22200 00098 11305 21003 330// 41304 70026
BBXX 46236 22061 99368 71219 46/// ///// 1//// 90620 22200 00124 11304 21003 328// 41303 70022
BBXX 46215 22061 99352 71209 46/// ///// 1//// 90608 22200 00139 11303 21002 327// 41303 70017
BBXX 46217 22061 99342 71194 46/// ///// 1//// 90612 22200 00150 11302 20501 327// 41302 70011
BBXX 46213 22061 99403 71247 46/// ///// 1//// 90624 22200 00101 11306 20805 330// 41304 70031
BBXX 46146 22061 99493 71237 46/// /0104 10042 40348 52008 22200 00069 10200 70001 333 91205
BBXX 46246 22061 99500 71451 46/// ///// 1//// 90559 22200 00073 11111 21008 318// 41107 70054
BBXX 46246 22061 99500 71451 46/// ///// 1//// 90629 22200 00073 11111 21008 319// 41107 70055
BBXX 46247 22061 99378 71228 46/// ///// 1//// 90621 22200 00111 11305 21003 329// 41303 70024
BBXX 46232 22061 99325 71174 46/// ///// 1//// 90608 22200 00151 11403 21002 328// 41402 70013
BBXX 46004 22061 99509 71361 46/// /1815 10084 40102 57031 22200 00075 10810 70052 333 91218
BBXX 46184 22061 99539 71389 46/// /1714 10077 49984 57029 22200 00065 11011 70056 333 91217
BBXX 46092 22061 99368 71220 46/// /1601 10118 40188 51011 90557 22200 00124 555 11010 22010
BBXX 44062 22061 99386 70764 46/// /1902 1//// 40117 90610 22200 00086 333 91202
BBXX 44043 22061 99392 70764 46/// /2801 10123 40127 51027 90600 22200 00075 1//00 70002 333 91202
BBXX 44042 22061 99380 70763 46/// /2503 10127 40136 51013 90600 22200 00090 10301 70004 333 91204
BBXX 44043 22061 99392 70764 46/// /2501 1//// 40129 90610 333 91202
BBXX 44042 22061 99380 70763 46/// /2503 1//// 40138 90610 333 91203
BBXX 44043 22061 99392 70764 46/// /2701 1//// 90620 333 91202
BBXX 44042 22061 99380 70763 46/// /2403 1//// 90620 333 91203
BBXX 44041 22061 99372 70768 46/// /2405 1//// 40168 90610 333 91207
BBXX 44041 22061 99372 70768 46/// /2405 1//// 90620 333 91206
BBXX 44041 22061 99372 70768 46/// /2404 10174 40167 53008 90600 22200 00094 1//00 70001 333 91206
BBXX WCF3012 22064 99466 70869 41/98 83320 10020 40100 77127 22263 00060 20302
BBXX WC5932 22064 99433 70878 43/// /2618 00/// 10022 21067 40142 52029 7//// 8//// 22243 0//// 2//// 3//// 4//// 5//// 6//// 81009 ICE /////
BBXX 44063 22061 99390 70764 46/// /0000 1//// 40151 90610 333 91202
BBXX 44063 22061 99390 70764 46/// /2901 10145 40151 53026 90600 22200 00083 1//00 70002 333 91204
BBXX 44062 22061 99386 70764 46/// /1902 10124 40116 53019 90600 22200 00086 1//00 70002 333 91202
BBXX 44063 22061 99390 70764 46/// /2901 1//// 90620 333 91204
BBXX 44062 22061 99386 70764 46/// /2002 1//// 90620 22200 00086 333 91202
BBXX 44058 22061 99376 70763 46/// /2305 1//// 40142 90610 333 91205
BBXX 44058 22061 99376 70763 46/// /2505 10138 40140 52009 90600 22200 00093 10301 70004 333 91205
BBXX 44057 22061 99395 70761 46/// /2803 10139 40128 51030 90600 22200 00057 333 91203
BBXX 44058 22061 99376 70763 46/// /2305 1//// 90620 333 91206
BBXX 44059 22061 99368 70763 46/// /2403 1//// 90620 333 91205
BBXX 44057 22061 99395 70761 46/// /3003 1//// 90620 333 91203
BBXX 44057 22061 99395 70761 46/// /2803 1//// 40128 90610 333 91203
BBXX 44059 22061 99368 70763 46/// /2404 1//// 40147 90610 333 91207
BBXX 44059 22061 99368 70763 46/// /2404 10179 40145 53003 90600 22200 00111 333 91206
BBXX 46181 22061 99538 71288 46/// /0802 10024 40265 57014 22200 00038 10200 70001 333 91203
BBXX ZCDT2 22064 99176 70692 41/98 20728 10260 20215 40148 57006 70122 8//// 22213 00270 20203 306// 40403 5//// 80230
BBXX PBHZ 22063 99347 70616 41596 52307 10220 20161 40258 57010 70211 855// 22213 04254 20301 322// 40703 80182
BBXX A8OU4 22064 99252 71156 41998 03605 10160 20103 40200 52020 7//00 80000 22234 00190 20804 332// 40402 5//// 80130
BBXX 46132 22061 99497 71279 46/// /1411 10079 40293 57013 22200 00087 11205 70024 333 91213
BBXX 46205 22061 99542 71343 46/// /1816 10084 40104 57011 22200 00077 11011 70054 333 91219
BBXX MINFR00 2206/ 99177 70767 46/// ///// 10255 40150 57012
BBXX 46206 22061 99488 71260 46/// /1109 10068 40317 57010 22200 00085 11304 70021 333 91211
BBXX V7DI7 22064 99404 70613 41/98 /1937 10178 2015/ 40170 57040 70222 8//// 22200 0//// 20410 319// 40610 5//// 6//// 80160 ICE /////
BBXX 46185 22061 99524 71298 46/// /1714 10074 40246 57012 22200 00073 10706 70030 333 91217
BBXX V7HC6 22064 99273 70907 41/// /1412 10230 20230 40137 54000 700// 8//// 222// 00230 2//// 3//// 4//// 5//// 6//// 80230 ICE /////
BBXX 44029 22061 99425 70706 46/22 /2306 10112 40016 56020 90604 22200 00087 10602 70011 333 91208 555 11086 22097
BBXX 44040 22061 99410 70736 46/// /2509 10123 20091 40098 90615 22200 10301 70005 333 91211 555 11113 22134
BBXX 44033 22061 99441 70690 46/30 /2304 10081 40010 56018 90604 22200 00071 10802 70011 333 91205 555 11055 22062
BBXX 44030 22061 99432 70704 46/// /3302 1//// 40014 58021 90604 22200 00083 10602 70012 333 91202 555 11018 22019
BBXX 41036 22061 99342 70770 46/// ///// 10203 20178 40185 90620 22200 00187
BBXX 46088 22061 99483 71232 46/// /0000 10055 40338 90620 22200 00078 10801 70004 333 91200 555 30535 40703 60619 180000 151004 121011 066013 047017 033014
BBXX 46087 22061 99485 71247 46/// /0806 10052 20031 40332 90620 22200 00076 333 91208 555 11063 22065 30618 40808 60619 077060 072053 065044 065043 067043 076047
BBXX A8XD5 22064 99427 71692 41/96 81430 10090 20090 49990 57070 76366 8//// 22223 04090 21208 80090
BBXX WDB9986 22064 99407 71574 41698 83020 10120 2004/ 40195 51024 70222 8562/ 22224 00120 20608 329// 41111 5//// 6//// 80080 ICE /////
BBXX FHZI 22064 99661 31406 46/// /2403 11012 21027 39849 49860 52002 22243 05011 86018
BBXX ZDLS1 22063 99659 50010 41397 71919 11023 2//// 49777 52008 70222 874// 22252 05019 20101 30000
BBXX VRGM8 22063 99345 10253 41497 72325 10160 20108 40090 58040 70322 8677/ 22274 00185 20803 327// 40804 5//// 80130
BBXX A8VL5 22064 99329 10278 41498 12225 10150 20092 40260 57020 70111 81100 22264 00180 20505 30000 80120
BBXX MSTM6 22063 99366 70001 41998 02508 10200 20140 40261 54000 70200 80000 22225 00165 2//// 80165
BBXX AUTQ 22064 99524 10029 42/98 93021 10110 20049 40146 51014 70201 89/// 22215 00130
AAXX 22064 42492 31994 02904 10118 20090 40184 71140 333 59014
AAXX 22064 42587 32996 02704 10212 20056 40169 333 59010
AAXX 22064 42591 31994 02704 10122 20103 40184 71000 333 59016
AAXX 22064 42623 31/95 00000 10186 20083 39262 40134 70540 333 59010
AAXX 22064 42701 31996 03208 10212 20006 39422 40150 70500 333 59002
AAXX 22064 42706 31995 03602 10214 20070 40155 70500 333 59010
AAXX 22064 42798 31994 02704 10214 20042 40156 70400 333 59005
AAXX 22064 91723 NIL
AAXX 22064 91964 NIL
AAXX 22061 98431 31468 50901 10295 20242 30025 40072 58027 70544 82238 333 56999 82818 85280
BBXX SHIP 22064 99379 11421 41297 62408 00/// 10100 20081 40072 57031 70222 85392 9//// 22243 00166 20401 310// 40402 5//// 6//// 80090 THNKS/B/REGARDS MASTER PACIFIC GLORY INM C - 443272110
BBXX UGSN 22061 99514 11410 42598 60509 11130 40210 54000 81501 22200 00013 2//// ICE 51092
AAXX 22064 91643 11498 71307 10270 20255 40052 53008 60111 71582 84370 33 5639/ 84918 87461
AAXX 22064 91631 11599 20913 10284 20237 40044 60001 70110 82100 333 562//
AAXX 22064 91636 11599 31004 10287 20252 40067 60001 70200 83200 333 562//
AAXX 22064 91648 11498 70000 10269 20248 40044 60021 78022 83370 333 561//
AAXX 22064 --1060583355-984317232-1324535756=:11930 html code found in mail The rest of this message has been deleted
BBXX A8XD5 22064 99427 71692 41/96 81430 10090 20090 49990 57070 76366 8//// 22223 04090 21208 80090
BBXX C6SI3 22063 99482 71710 41797 81830 10050 20030 49930 57030 78166 88977 22213 0//// 20305 326// 4//// 5//// 6//// 80040 ICE /////
BBXX VRCI9 22064 99370 71623 41/98 /2218 10150 20097 40140 58005 76022 8//// 22225 00175 20505 329// 41207 80120
BBXX WDB9986 22064 99407 71574 41698 83020 10120 20040 40195 51024 70222 8562/ 22224 00120 20608 329// 41111 5//// 6//// 80080 ICE /////
AAXX 22004 91643 11599 30906 10310 20257 40064 60001 70200 83200 333 20267 562// 70062
AAXX 22004 --708812334-146272284-1324536034=:72390 html code found in mail The rest of this message has been deleted
AAXX 22064 41858 31403 82705 10131 20120 30112 40160 74344 8552/ 333 56699 59021 70000 85614 88458
AAXX 22064 41863 31956 02702 10127 20110 30117 40163 70544 333 59017 70000
AAXX 22064 41886 31414 82701 10147 20130 30140 40162 71042 8352/ 333 56999 59004 70000 83618 88460
AAXX 22064 41895 31940 00502 10143 20100 30143 40167 70542 333 59012 70000
AAXX 22064 41909 31420 83501 10132 20120 30140 40153 71042 8352/ 333 56999 59014 70000 83615 88458
AAXX 22064 41915 31340 72702 10162 20130 30137 40163 70542 87600 333 56900 59006 70000 85709 86615
AAXX 22064 41926 31940 03602 10123 20100 30153 40168 70500 333 58002 70000
AAXX 22064 41929 31/30 93202 10138 20120 30152 40162 71044 89/// 333 59006 70000
AAXX 22064 41939 31450 53601 10172 20130 40164 70542 82530 333 56890 59005 70000 82616 83362
AAXX 22064 41941 31420 73602 10154 20130 30146 40152 71042 85520 333 56990 59011 70000 85615 87460
AAXX 22064 41946 31950 03602 10140 20110 30159 40164 70500 333 59004 70000
AAXX 22064 41951 32950 43501 10186 20130 30146 40151 84010 333 56090 59003 70000 84459
AAXX 22064 41953 31330 83105 10160 20120 30144 40150 70522 886// 333 56999 59007 70000 88706
AAXX 22064 41958 31930 03604 10185 20130 30142 40144 70500 333 59014 70000
AAXX 22064 41960 31950 03302 10192 20130 30152 40154 70522 333 59007 70000
AAXX 22064 41964 31935 43602 10182 20130 30163 40166 70522 84500 333 56800 58000 70000 84620
AAXX 22064 41984 32957 03605 10197 20130 30139 40141 333 59011 70000
AAXX 22064 41989 31950 30702 10181 20140 30139 40143 70510 83030 333 56090 59008 70000 83362
AAXX 22064 41998 32956 00000 10220 20170 30131 40137 333 58004 70000
BBXX 44137 22061 99423 70620 46/// /1812 10129 40127 57053 22200 00098 10605 70025 333 91215
AAXX 22063 41150 41956 03007 10200 20147 40238 70500 333 20162 30012 58000
AAXX 22061 40650 11658 10905 10100 20038 40223 50001 60002 70500 81500
AAXX 22061 40608 11556 70000 10098 20029 40236 52007 60002 70522 87500
AAXX 22061 40621 12960 30501 10100 21007 40254 52002 60002 83030
AAXX 22061 40629 12960 51003 10092 20061 40226 54000 60002 83032
AAXX 22061 40634 12960 40802 10085 20060 40212 51003 60002 84030
AAXX 22061 40642 12960 50000 10130 21068 40204 54000 60002 83011
AAXX 22061 40656 12960 31103 10091 20038 40201 56002 60002 83030
AAXX 22061 40665 12960 30902 10095 20037 40247 51012 60002 80002
AAXX 22061 40670 11958 61203 10110 20014 40210 50002 60002 70622 80008
AAXX 22061 40676 12960 30000 10104 20035 40237 52011 60002 80002
AAXX 22061 40680 12960 20701 10107 20031 40232 53008 60002 80001
AAXX 22061 40689 12960 30000 10115 20046 40246 52012 60002 80001
BBXX A8ZS7 22064 99357 50042 41498 32704 10160 20127 40195 52005 70222 82460 22264 04140 20300 322// 40603 80140
BBXX DAJT 22064 99242 30504 41297 80815 10270 20243 40100 52010 70322 8/6// 22254 04250 309// 4//04 80250
BBXX DDID2 22063 99157 50372 41698 50316 10258 20216 40115 58005 70251 853// 22215 04260 20702 80228
BBXX A8UA9 22064 99135 70180 41/96 20618 10235 20149 40138 54000 71000 8///1 22243 20502 304// 40703 80180
BBXX 44137 22061 99423 70620 46/// /1812 10129 40127 57053 22200 00098 10605 70025 333 91215
AAXX 22061 31152 42998 80000 11376 21412 39877 40343 53002 82036
AAXX 22061 31163 NIL
AAXX 22061 31285 41496 80501 11156 21180 30134 40227 53003 77172 86607
AAXX 22061 31561 41597 80202 11187 21213 30176 40206 55003 77172 8802/
AAXX 22061 31683 41698 80000 11182 21208 30124 40204 56008 77172 85531
AAXX 22061 32010 42998 43301 11201 21227 30171 40224 53001 80001 333 91002 91103
AAXX 22064 71923 16/// ///06 11304 21331 39731 40207 53011 60001 333 11281 21320 70000
AAXX 22064 71592 16/// /0605 11246 21272 30006 40020 53002 60001 333 11182 21279 70000
AAXX 22064 71490 16/// /2512 11347 21380 39846 40192 58008 60001 333 11308 21350 7////
AAXX 22064 71963 16/// /2103 11341 21375 39754 40186 58013 60001 333 11295 21342 70000 555 33119 40141
AAXX 22064 60764 13562 41402 10060 20015 30150 40203 52002 60004 84200 333 20049 84830
BBXX ZNQO3 22060 99409 70098 41998 03510 10140 20102 40308 54000 70200 80000 22213 04163 2//// 3//// 4//// 5//// 80120
AAXX 22064 42189 31995 00000 10160 20081 40180 70544 333 59017
AAXX 22064 71923 16/// ///06 11304 21331 39731 40207 53011 60001 333 11281 21320 70000
AAXX 22064 68038 32960 20508 10265 20162 48504 52013 81080 333 20205
BBXX 44138 22061 99443 70536 46/// /2108 10065 40249 57013 22200 00095 11106 70031 333 91210
BBXX 44138 22061 99443 70536 46/// /2108 10065 40249 57013 22200 00095 11106 70031 333 91210
BBXX 46004 22061 99509 71361 46/// /1815 10084 40102 57031 22200 00075 10810 70052 333 91218
BBXX 46036 22061 99484 71339 46/// /1714 10088 40195 57023 22200 00084 10606 70029 333 91217
BBXX 46181 22061 99538 71288 46/// /0802 10024 40265 57014 22200 00038 10200 70001 333 91203
BBXX 46183 22061 99536 71311 46/// /1615 10072 40192 57020 22200 0//// 1//// 70/// 333 912//
BBXX 46185 22061 99524 71298 46/// /1714 10074 40246 57012 22200 00073 10706 70030 333 91217
BBXX 46204 22061 99514 71288 46/// /1011 10070 40272 57012 22200 00082 11205 70023 333 91213
BBXX 46205 22061 99542 71343 46/// /1816 10084 40104 57011 22200 00077 11011 70054 333 91219
BBXX 46206 22061 99488 71260 46/// /1109 10068 40317 57010 22200 00085 11304 70021 333 91211
BBXX KFMV 22063 99330 71204 41498 42912 10117 20090 40185 52015 70210 8423/ 22264 00133 20301 301// 40501 5//// 6//// 80100 ICE /////
BBXX KS098 22064 99441 71245 43/// /0612 10070 40285 22242 06000
BBXX WDD2074 22064 99537 71383 41596 81830 10078 2008/ 40000 57040 75052 887// 22273 00067 2//// 3//// 4//// 5//// 6//// 80078 ICE /////
AAXX 22064 68296 32975 00203 10260 20248 38914 4//// 51001 333 20571 91006 555 1////
AAXX 22061 20891 41996 00703 11342 21364 30212 40260 58005 71000 333 91104
BBXX 41033 22061 99323 70804 46/// /1905 10163 40186 56013 90600 555 11067 22079
BBXX 44022 22061 99409 70737 46/// ///07 10126 20076 40098 90630 22200 00083 333 91210 555 11088 22098
AAXX 22064 40608 11556 70000 10098 20029 40236 52007 60002 70522 87500
AAXX 22064 40621 12960 30501 10100 21007 40254 52002 60002 83030
AAXX 22064 40629 12960 51003 10092 20061 40226 54000 60002 83032
AAXX 22064 40634 12960 40802 10085 20060 40212 51003 60002 84030
AAXX 22064 40642 12960 50000 10130 21068 40204 54000 60002 83011
AAXX 22064 40650 11658 10905 10100 20038 40223 50001 60002 70500 81500
AAXX 22064 40656 12960 31103 10091 20038 40201 56002 60002 83030
AAXX 22064 40665 12960 30902 10095 20037 40247 51012 60002 80002
AAXX 22064 40670 11958 61203 10110 20014 40210 50002 60002 70622 80008
AAXX 22064 40676 12960 30000 10104 20035 40237 52011 60002 80002
AAXX 22064 40680 12960 20701 10107 20031 40232 53008 60002 80001
AAXX 22064 40689 12960 30000 10115 20046 40246 52012 60002 80001
AAXX 22064 89573 35980 10402 10037 21090 39835 49857 52001 80002
AAXX 22064 89614 46/// /1022 11032 29064 38988 4//// 5//// 333 90700 91127
AAXX 22064 89807 46/// /1415 10006 29078 39788 4//// 5//// 333 90700 91120
AAXX 22064 94290 46/// /1722 10280 30033 40042 56009 90624
AAXX 22064 94995 46/// /0716 10225 20178 30164 40172
AAXX 22064 94997 46/// ///// 10058 39997 40012 5////
AAXX 22064 94210 35/// /0103 10324 30015 40020 57017
AAXX 22064 94289 46/// /1518 10282 30028 40035 56013 90615
AAXX 22064 94379 46/// /1624 10251 30040 40049 56011 90626
AAXX 22064 94290 46/// /1722 10280 30033 40042 56009 90624
AAXX 22064 89573 35980 10402 10037 21090 39835 49857 52001 80002
AAXX 22064 89614 46/// /1022 11032 29064 38988 4//// 5//// 333 90700 91127
AAXX 22064 89807 46/// /1415 10006 29078 39788 4//// 5//// 333 90700 91120
AAXX 22064 94995 46/// /0716 10225 20178 30164 40172
AAXX 22064 94997 46/// ///// 10058 39997 40012 5////
AAXX 22061 98336 31470 70403 10282 20256 30088 40093 57026 70544 82271 333 56199 82818 84358
AAXX 22061 98531 31570 32101 10328 20266 30057 40061 58031 70544 81201 333 56599 81820 83080
AAXX 22061 98653 11465 80000 10287 20262 30000 40045 57025 69981 70584 82278 333 56999 82818 84358
BBXX SHIP 22064 99124 11271 41497 72004 10308 20291 40015 57019 70322 85262 22222 04307 10901 20901 32626 40701 50200 80295
BBXX MDGV9 22064 99493 70046 41/98 42618 10110 20090 40305 52030 70200 82790 22253 10803 70015 80100
AAXX 22061 55228 32980 02510 11023 21419 36007 57002 333 00001 21171 91117 91522
AAXX 22061 55578 32980 50901 10052 21229 36376 57019 80002 333 05151 21141
AAXX 22061 55664 32980 10000 10038 21275 36013 57017 80002 333 00000 21159
AAXX 22061 55773 32970 12003 10061 21258 36011 57019 80002 333 00001 21160
AAXX 22061 56116 32980 42201 10034 21153 36316 57032 80002 333 00051 21117
AAXX 22061 56137 32980 60000 10080 21197 36752 57050 80002 333 05100 21097
AAXX 22061 56172 32980 02904 10066 21089 37303 57061 333 00152 21075
AAXX 22061 56247 32980 20000 10118 21177 37382 57063 80002 333 05200 21027
AAXX 22061 56312 32980 61802 10087 21093 37076 57037 80002 333 05151 21011
AAXX 22061 56462 32980 01604 10096 21080 37084 57055 333 05152 21065
AAXX 22061 56651 32980 02206 10166 21129 37608 57038 333 05100 21026
AAXX 22061 56691 11465 80000 11008 21019 37775 57036 69901 72466 887// 333 05201 21025 93428
AAXX 22061 56985 32560 11803 10166 20067 38715 40161 57035 81100 333 00152 20091
AAXX 22061 57633 32561 82201 10053 21023 39493 40297 57030 888// 333 00102 20035
AAXX 22061 57902 32661 83601 10038 20038 38665 40253 57035 885// 333 00051 20031
AAXX 22061 55279 32980 22511 10014 21365 35697 57011 80002 333 00000 21099 91118 91525
AAXX 22061 55472 32980 02908 10009 21285 35736 57011 333 00051 21123
AAXX 22061 55696 32980 10000 10055 21157 36330 57038 80002 333 05101 21113
AAXX 22061 56079 32980 02202 11027 21117 36647 57036 333 05100 21171
AAXX 22061 56106 32780 23601 10028 21248 36192 57032 81102 333 00151 21161
AAXX 22061 56257 32980 62701 10090 21199 36235 57038 80002 333 05100 21081
AAXX 22061 56374 11580 61104 10002 21093 37403 57041 69901 70080 83402 333 05302 21054
AAXX 22061 56385 11/00 92204 11071 21074 36993 57030 60011 77074 333 05200 21090
AAXX 22061 56954 32580 12501 10212 20131 40157 57038 81100 333 05151 20086
AAXX 22061 56966 32768 21106 10254 20097 40124 57053 82100 333 05100 20163
AAXX 22061 57237 11860 80402 10030 21015 40288 57032 69941 76066 885// 333 20027
AAXX 22061 57306 11961 80201 10068 20054 40268 57033 69961 76066 8807/ 333 20062
AAXX 22061 57604 11715 82702 10077 20076 40255 57033 60021 76064 885// 333 20074
AAXX 22061 57707 11465 81101 10032 20014 38520 57037 69901 76060 887// 333 05251 20015
AAXX 22061 57832 32660 80401 10037 20002 39525 40289 57033 885// 333 00151 20027
BBXX ELUC5 22063 99216 51303 41998 00720 10255 20255 40165 55015 70222 80000 22224 06230 20803 30000 80255
BBXX ELUC5 22063 99216 51303 41998 00720 10255 20255 40165 55015 70222 80000 22224 06230 20803 30000 80255
AAXX 22063 63631 31959 30000 10215 20/// 48/// 70644 81031 333 20118 81362 83080 555 10/// 63602 32970 53000 10225 20159 38812 48/// 81831 333 20170 58001 81361 85080 555 10183 63641 32970 30903 10229 20182 48/// 80003 333 83078 555 10181 63682 32482 43204 10216 20192 82971 333 20176 81819 81922 83360 555 10200 63702 32970 50905 10212 20179 85038 333 20172 85362 555 10190 63674 12465 51106 10231 20189 39075 48524 60044 82531 333 20190 58009 82618 85361 555 10203
AAXX 22064 63894 01565 83203 10226 20225 30083 40143 60444 76166 8592/ 333 0//19 20225 60581 55000 55300 58009 60235 70438 85620 81921 87457
AAXX 2206/ 48969 NIL
AAXX 2206/ 48962 NIL
AAXX 2206/ 48990 NIL
AAXX 2206/ 48986 NIL
AAXX 2206/ 48995 NIL
AAXX 2206/ 48967 NIL
AAXX 2206/ 48992 NIL
AAXX 2206/ 48965 NIL
AAXX 2206/ 48985 NIL
AAXX 2206/ 48970 NIL
AAXX 2206/ 48991 NIL
AAXX 2206/ 48964 NIL
AAXX 2206/ 48997 NIL
AAXX 2206/ 48968 NIL
AAXX 2206/ 48973 NIL
AAXX 2206/ 48966 NIL
AAXX 2206/ 48983 NIL
AAXX 2206/ 48972 NIL
AAXX 2206/ 48998 NIL
AAXX 2206/ 48993 NIL
AAXX 2206/ 48971 NIL
AAXX 2206/ 48963 NIL
AAXX 2206/ 48987 NIL
BBXX 44056 22061 99362 70757 46/// ///// 1//// 90550 22200 00125 10702 20702 309// 41101 70008
AAXX 22064 71048 16/// /2612 11083 21113 60001 333 10005 21088 70000 555 30122 40101
AAXX 22064 71981 17/// /2606 11062 21129 69951 7//4/ 333 11011 21109 70009 555 33525 40121
AAXX 22064 71982 16/// /2503 11128 21151 60001 333 11010 21140 70000 555 33527 40111
AAXX 22064 71986 16/// /1607 11139 21149 60001 333 11001 21146 70005 555 33128 40092
AAXX 22064 71990 17/// /2209 11088 21099 38453 40060 53007 69941 7//4/ 333 7////
AAXX 22064 71406 17/// /2512 11012 21041 30073 40083 58006 69961 7//4/ 333 11007 21067 70006 555 32733 40012
AAXX 22064 71418 46/// /1732 10034 20019 30041 40073 58049 6///1 333 10034 21033 7//// 555 32842 40073
AAXX 22064 71277 46/// /2008 11040 21067 6///1 333 11030 21071 7//// 555 32519 40191
AAXX 22064 71354 16/// /2308 11070 21094 60001 333 7////
AAXX 22064 71406 17/// /2512 11012 21041 30073 40083 58006 69961 7//4/ 333 11007 21067 70006 555 32733 40012
AAXX 22064 71418 46/// /1732 10034 20019 30041 40073 58049 6///1 333 10034 21033 7//// 555 32842 40073
AAXX 22064 71981 17/// /2606 11062 21129 69951 7//4/ 333 11011 21109 70009 555 33525 40121
AAXX 22064 71982 16/// /2503 11128 21151 60001 333 11010 21140 70000 555 33527 40111
AAXX 22064 71986 16/// /1607 11139 21149 60001 333 11001 21146 70005 555 33128 40092
AAXX 22064 71990 17/// /2209 11088 21099 38453 40060 53007 69941 7//4/ 333 7////
AAXX 22064 71354 16/// /2308 11070 21094 60001 333 7////
AAXX 22064 71048 16/// /2612 11083 21113 60001 333 10005 21088 70000 555 30122 40101
AAXX 22064 71277 46/// /2008 11040 21067 6///1 333 11030 21071 7//// 555 32519 40191
BBXX VRDO9 22064 99063 10033 41396 43304 10250 20236 40140 5//// 70110 83216 22200 04200 20102 334// 40102 5//// 6//// 80240 ICE /////
AAXX 22064 89610 46/// /0427 11018 39662 4//// 5//// 333 90700 91133
AAXX 22064 89610 46/// /0427 11018 39662 4//// 5//// 333 90700 91133
AAXX 22064 89610 46/// /0427 11018 39662 4//// 5//// 333 90700 91133
AAXX 22061 01293 11865 82001 11038 21052 39840 40053 57024 60002 70222 8807/ 333 21107 70000 91104
AAXX 22064 65319 32958 53604 10210 20135 39618 40130 80002 333 01900 20200 50774 55092 58015 85076
AAXX 2206/ 89327 46/// ///// 11016 39549 4//// 5//// 90630
AAXX 22064 41184 42960 00000 10235 20111 40223 333 20093 58003
AAXX 22064 41194 12960 00906 10206 20048 30225 40230 60001 333 20144 58002
AAXX 22064 41196 32960 01008 10211 20044 30193 40233 333 20068 30005 58003
AAXX 22064 41198 42960 00305 10225 20046 40228 333 20151 59002
AAXX 22064 41217 42960 00608 10176 20036 30191 40221 333 20120 30008 58002
AAXX 22064 41218 42960 01110 10200 20006 39910 40219 333 20150 30013 59003
BBXX C6W2032 22064 99010 10050 41398 62012 10260 2023/ 40120 51010 70322 86458 22243 00270 20602 31818 40602 50501 6//// 80240 ICE ///// .....
BBXX ELUC5 22063 99216 51303 41998 00720 10255 20255 40165 55015 70222 80000 22224 06230 20803 30000 80255
BBXX UGWJ 22060 99037 30837 42598 62815 10293 40117 51053 86210 22251 00279 20604 32500 40706
BBXX 42360 22061 99267 70905 46/// /1405 10236 90600 22200 00249 10802 70011 333 91207
BBXX 41052 22061 99183 70648 46/// /0711 10265 40154 90630 333 91214
BBXX 41052 22061 99183 70648 46/// /0711 10265 40155 90620 333 91214
BBXX 41052 22061 99183 70648 46/// /0711 10266 40156 90610 333 91213
BBXX 41053 22061 99185 70661 46/// /0909 10264 40161 90630 333 91212
BBXX 41053 22061 99185 70661 46/// /0809 10260 40163 90620 333 91213
BBXX 41053 22061 99185 70661 46/// /0810 10264 40164 90610 333 91212
BBXX 42085 22061 99179 70665 46/// /0506 10257 40154 90630 333 91207
BBXX 42085 22061 99179 70665 46/// /0506 10257 40155 90620 333 91208
BBXX 42085 22061 99179 70665 46/// /0506 10257 40155 90610 333 91208
BBXX 44024 22061 99423 70659 46/18 /2211 10113 40059 56036 90604 22200 00080 10604 70022 333 91213 555 11140 22154
BBXX UGWJ 22060 99037 30837 42598 62815 10293 40117 51053 86210 22251 00279 20604 32500 40706
BBXX WDD2074 22064 99537 71383 41596 81830 10078 2008/ 40000 57040 75052 887// 22273 00067 2//// 3//// 4//// 5//// 6//// 80078 ICE /////
BBXX WDA2768 22064 99429 70876 43/// /2619 00/// 10027 20000 40132 50007 7//// 8//// 22283 0//// 2//// 3//// 4//// 5//// 6//// 80017 ICE /////
BBXX SHIP 22064 99124 11271 41497 72004 10308 20291 40015 57019 70322 85262 22222 04307 10901 20901 32626 40701 50200 80295
BBXX VRDO9 22064 99063 10033 41396 43304 10250 20236 40140 5//// 70110 83216 22200 04200 20102 334// 40102 5//// 6//// 80240 ICE /////
BBXX PBDH 22064 99122 10440 41593 10823 10270 40182 51/// 7//00 811// 22234 04259 2//05 30000
BBXX DAJT 22064 99242 30504 41297 80815 10270 20243 40100 52010 70322 8/6// 22254 04250 309// 4//04 80250
BBXX A8UA9 22064 99135 70180 41/96 20618 10235 20149 40138 54000 71000 8///1 22243 20502 304// 40703 80180
BBXX A8ZS7 22064 99357 50042 41498 32704 10160 20127 40195 52005 70222 82460 22264 04140 20300 322// 40603 80140
BBXX DDID2 22063 99157 50372 41698 50316 10258 20216 40115 58005 70251 853// 22215 04260 20702 80228
BBXX WDA2768 22064 99429 70876 43/// /2619 00/// 10027 20000 40132 50007 7//// 8//// 22283 0//// 2//// 3//// 4//// 5//// 6//// 80017 ICE /////
BBXX WE3806 22064 99473 70906 41/98 93422 11016 2//// 40146 53/// 70222 8//// 22223 00033 2//03 3//// 4//// 5//// 6//// 8//// ICE /////
BBXX ELUC5 22063 99216 51303 41998 00720 10255 20255 40165 55015 70222 80000 22224 06230 20803 30000 80255
BBXX KS044 22064 99352 31745 43/// /1806 10183 40245 22232 06185
BBXX 44056 22061 99362 70757 46/// ///// 1//// 90550 22200 00125 10702 20702 309// 41101 70008
BBXX 41033 22061 99323 70804 46/// /1905 10163 40186 56013 90600 555 11067 22079
BBXX 44022 22061 99409 70737 46/// ///07 10126 20076 40098 90630 22200 00083 333 91210 555 11088 22098
BBXX 44138 22061 99443 70536 46/// /2108 10065 40249 57013 22200 00095 11106 70031 333 91210
BBXX ICGU 22064 99177 70630 41797 50535 10260 20217 40150 54/// 70311 859// 22233 04270 21404 30505 41804 52206 6//// 85230 ICE /////
BBXX 44137 22061 99423 70620 46/// /1812 10129 40127 57053 22200 00098 10605 70025 333 91215
BBXX 9VKY3 22061 99109 70825 41597 80404 10250 20207 40056 57/// 8/770 22214 20403 30404 40404 50504 80220
BBXX 46224 22061 99332 71175 46/// ///// 1//// 90606 22200 00148 11301 20501 323// 41301 70007
BBXX 46219 22061 99332 71199 46/// ///// 1//// 90628 22200 00139 11405 21002 330// 41404 70024
BBXX 46214 22061 99379 71235 46/// ///// 1//// 90623 22200 00117 11306 21004 330// 41304 70031
BBXX 44040 22061 99410 70736 46/// /2609 10122 20086 40100 90619 22200 10301 70005 333 91211 555 11113 22134
BBXX KS098 22064 99441 71245 43/// /0612 10070 40285 22242 06000
BBXX KS007 22064 99267 70801 43/// ///// 10237 40153 22200
BBXX KS094 22064 99125 70614 43/// /0821 10267 40122 22200 06266
BBXX KS088 22064 99267 70801 43/// /0707 10239 40193 22200 06230
BBXX 46239 22061 99363 71221 46/// ///// 1//// 90621 22200 00136 11306 21004 329// 41305 70031
BBXX 46238 22061 99334 71195 46/// ///// 1//// 90620 22200 00142 11303 21002 328// 41303 70017
BBXX 44060 22061 99413 70721 46/// ///11 10117 40066 90630 22200 00104 333 91214 555 11129 22139
BBXX MDGV9 22064 99493 70046 41/98 42618 10110 20090 40305 52030 70200 82790 22253 10803 70015 80100
BBXX ZNQO3 22060 99409 70098 41998 03510 10140 20102 40308 54000 70200 80000 22213 04163 2//// 3//// 4//// 5//// 80120
BBXX 64049 22063 99571 10022 41/97 72615 10103 20091 40114 54000 70211 8//// 22200 04094 20602 326// 40604 5//// 80097
BBXX UASP 22061 99692 10352 41/97 /1906 11042 40100 54000 70111 8//// 222// 20302
BBXX DDZD2 22064 99420 70101 41/98 20218 10135 20118 40320 56011 70111 82/// 22245 00130 29902 80125
BBXX 62107 22064 99501 70061 46/// /2514 10116 20093 40297 55000 22200 00117 10804 70018
BBXX 62095 22064 99531 70159 46/// /2023 10125 20111 40140 57023 22200 00113 10810 70049 333 90710 91134
BBXX DDYZ2 22064 99519 10016 41/98 42716 10110 20082 40220 54000 7//// 8//// 22200 00090 20201 80095
BBXX 62095 22064 99531 70159 46/// /2023 10125 20113 40140 57023 22200 00113 10810 70049 333 90710 91134
BBXX 62303 22064 99516 70051 46/// /2613 10118 20094 40262 57002 22200 00110 10604 70019
BBXX 62027 22064 99491 70022 46/// /3217 1//// 2//// 40290 52009 22200 00113 10703 331// 70015
BBXX AVMI 22063 99330 31517 41198 81205 10120 20/// 40259 54000 70325 8//// 22200 00250
AAXX 22061 47003 42580 13207 11090 21229 30200 40204 53005 81500
AAXX 22061 47005 11570 23204 11212 21260 38547 52003 69901 73873 82500
AAXX 22061 47022 42975 03206 11154 21235 38777 54000
AAXX 22061 47028 42967 03601 11069 21199 30187 40287 58020
AAXX 22061 47031 42970 03207 11151 21211 38894 58003
AAXX 22061 47037 42970 03603 11066 21325 30151 40281 58012
AAXX 22061 47039 42960 02503 11064 21196 30066 40266 57018
AAXX 22061 47046 42969 02306 11018 21166 30171 40194 58005
AAXX 22061 47050 42965 03203 11060 21247 30239 40275 57025
AAXX 22061 47052 42965 03206 11076 21174 39911 40267 57009
AAXX 22061 47060 42960 02906 11065 21174 30224 40285 58012
AAXX 22061 47061 42980 03203 11011 21120 30167 40212 54000
AAXX 22061 47065 42980 03211 11058 21175 30213 40282 58019
AAXX 22061 47067 42970 03207 11054 21167 30157 40283 58011
AAXX 22061 47068 42570 33605 11042 21132 30236 40273 58018 83500
AAXX 22061 47070 42980 03205 11039 21237 30176 40267 58008
AAXX 22061 47075 42980 02703 11054 21190 39737 40181 57004
AAXX 22061 47008 42970 03203 11078 21264 30153 40210 58002
AAXX 22061 47014 42950 52303 11121 21204 39846 40274 58011 80001
AAXX 22061 47016 11570 22303 11145 21226 39338 40242 57002 69901 77071 81502
AAXX 22061 47020 42965 02702 11102 21228 39891 40292 58009
AAXX 22061 47025 42978 03405 11051 21191 30164 40194 52010
AAXX 22061 47035 42970 03204 11065 21233 30285 40294 57019
AAXX 22061 47041 42970 03408 11040 21207 30183 40211 58006
AAXX 22061 47055 42970 02304 11037 21123 30186 40233 58009
AAXX 22061 47058 42962 03205 11056 21203 30232 40282 58016
AAXX 22061 47069 42965 03602 11035 21113 30168 40272 58010
AAXX 22061 45032 36/// /0104 10202 20057 30160 40177 57002
AAXX 22061 45035 36/// /0005 10196 20081 30133 40175 57001
AAXX 22061 45039 36/// /0303 10199 20077 30156 40171 57002
AAXX 22061 45044 36/// /3504 10217 20089 30075 40167 57002
AAXX 22061 45032 36/// /0104 10202 20057 30160 40177 57002
AAXX 22061 45035 36/// /0005 10196 20081 30133 40175 57001
AAXX 22061 45039 36/// /0303 10199 20077 30156 40171 57002
AAXX 22061 45044 36/// /3504 10217 20089 30075 40167 57002
AAXX 22064 47412 11/10 82001 11026 21040 30060 40093 56032 60011 78522 883//
AAXX 22064 47662 12/60 73402 10077 21008 30028 40072 56036 60001 81172
AAXX 22064 60467 11660 32614 10082 20049 40244 55002 60004 700// 83831 333 00700 20077 83833 95990
AAXX 22064 17098 11530 80000 11079 21079 38243 48558 52007 69902 77011 8552/ 333 21130 3/115 42001 50034 55014 20821 79999 85630 88457 93197
AAXX 22064 71013 46/// ///// 11103 21129 6///1 333 11001 21123 7////
AAXX 22064 71060 16/// /3004 11037 21133 38678 40282 56006 60001 333 11009 21085 70000 555 32419 40091
AAXX 22064 71848 16/// ///// 11071 21113 60001 333 11015 21099 70004
AAXX 22064 71974 46/// /1409 11282 21305 30010 40054 58009 6///1 333 11261 21364 7////
AAXX 22064 71793 16/// ///// 11146 21161 60001 333 10004 21166 70009
AAXX 22064 71565 17/// /2210 11098 21120 69961 7//4/ 333 11002 21126 70016 555 32931 40072
AAXX 22064 71566 16/// /2204 11061 21107 60001 333 10003 21070 70015 555 33223 40101
AAXX 22064 71567 16/// /2307 11078 21097 60001 333 11024 21089 70000 555 32920 40211
AAXX 22064 71073 17/// /1905 11110 21137 69941 7//4/ 333 11019 21113 70004 555 33433 40132
AAXX 22064 71495 16/// /2613 11049 21140 60001 333 11004 21104 70000 555 33337 40113
AAXX 22064 71399 16/// ///// 11115 21136 60001 333 10000 21120 70004
AAXX 22061 37470 32598 83303 10072 20036 40255 40233 51018 885// 333 20064
AAXX 22061 37472 31596 83102 10049 20031 30256 40234 51018 71022 8357/ 333 20046
AAXX 22061 38111 32597 81006 11007 21112 30275 40246 52008 886// 333 21014
AAXX 22061 38750 31993 00901 11004 21004 30253 40223 52011 74444 333 21012
AAXX 22064 89625 46/// /1209 11254 29070 36457 4//// 5//// 90600
AAXX 22064 89646 46/// /0110 11167 29077 37575 4//// 5////
AAXX 22064 89648 46/// /1103 11197 29075 37168 4//// 5////
AAXX 22064 89659 46/// /1507 11153 29071 37652 4//// 5////
AAXX 22064 89661 46/// /2118 11070 29090 39216 4//// 5////
AAXX 22064 89662 42565 81204 10003 21069 39774 49879 52026 81627 222 ICE 98015 333 10014 81720 85457
AAXX 22064 89666 46/// /1612 11040 29085 39701 4//// 5////
AAXX 22064 71848 16/// ///// 11071 21113 60001 333 11015 21099 70004
AAXX 22064 71399 16/// ///// 11115 21136 60001 333 10000 21120 70004
AAXX 22064 71565 17/// /2210 11098 21120 69961 7//4/ 333 11002 21126 70016 555 32931 40072
AAXX 22064 71566 16/// /2204 11061 21107 60001 333 10003 21070 70015 555 33223 40101
AAXX 22064 71567 16/// /2307 11078 21097 60001 333 11024 21089 70000 555 32920 40211
AAXX 22064 71073 17/// /1905 11110 21137 69941 7//4/ 333 11019 21113 70004 555 33433 40132
AAXX 22064 71013 46/// ///// 11103 21129 6///1 333 11001 21123 7////
AAXX 22064 71060 16/// /3004 11037 21133 38678 40282 56006 60001 333 11009 21085 70000 555 32419 40091
AAXX 22064 71495 16/// /2613 11049 21140 60001 333 11004 21104 70000 555 33337 40113
AAXX 22064 71974 46/// /1409 11282 21305 30010 40054 58009 6///1 333 11261 21364 7////
AAXX 22064 71793 16/// ///// 11146 21161 60001 333 10004 21166 70009
BBXX A8RV7 22064 99075 31502 41297 81805 10280 20246 40040 56030 70262 83777 22273 00290 20501 301// 40502 80255
BBXX DGZS2 22063 99322 11233 41598 73620 10060 21012 40260 50/// 70222 8677/ 22244 00120 20405 336// 40805 80030
BBXX DDYL2 22063 99060 10854 41598 80511 10284 20226 40082 58010 70382 8327/ 22264 00280 2//// 336// 40504 80242
BBXX DQVN 22064 99061 10795 41498 20912 10263 20216 40120 50000 703// 8//2/ 22264 00287 2//08 80230
BBXX ELZU8 22063 99015 11044 41497 83610 10260 20239 40090 56015 76086 8312/ 22200 00/// 20101 303// 40405 80245
BBXX PCSV 22063 99199 30564 41498 20908 10272 20229 40157 53013 70111 811/1 22253 04260 20501 308// 41203 80241
BBXX PHJV 22064 99047 31121 41398 52406 10285 20225 40047 56021 70211 85262 22263 06296 20102 80242
BBXX MGRX9 22064 99025 30858 41397 82628 10265 20236 40087 57001 76366 887// 22233 00263 20308 80245
BBXX VQOG5 22064 99057 10856 41398 80613 10277 20241 40076 58012 70311 887// 22263 00275 20502 305// 40802 80252
BBXX VRDN3 22064 99173 10718 41497 11015 10285 20260 40160 53020 70200 816// 22273 00/// 20403 310// 40403 80255
BBXX A8RV7 22064 99075 31502 41297 81805 10280 20246 40040 56030 70262 83777 22273 00290 20501 301// 40502 80255
BBXX DGZS2 22063 99322 11233 41598 73620 10060 21012 40260 50/// 70222 8677/ 22244 00120 20405 336// 40805 80030
BBXX DDYL2 22063 99060 10854 41598 80511 10284 20226 40082 58010 70382 8327/ 22264 00280 2//// 336// 40504 80242
BBXX DQVN 22064 99061 10795 41498 20912 10263 20216 40120 50000 703// 8//2/ 22264 00287 2//08 80230
BBXX ELZU8 22063 99015 11044 41497 83610 10260 20239 40090 56015 76086 8312/ 22200 00/// 20101 303// 40405 80245
BBXX PCSV 22063 99199 30564 41498 20908 10272 20229 40157 53013 70111 811/1 22253 04260 20501 308// 41203 80241
BBXX PHJV 22064 99047 31121 41398 52406 10285 20225 40047 56021 70211 85262 22263 06296 20102 80242
BBXX MGRX9 22064 99025 30858 41397 82628 10265 20236 40087 57001 76366 887// 22233 00263 20308 80245
BBXX VQOG5 22064 99057 10856 41398 80613 10277 20241 40076 58012 70311 887// 22263 00275 20502 305// 40802 80252
BBXX VRDN3 22064 99173 10718 41497 11015 10285 20260 40160 53020 70200 816// 22273 00/// 20403 310// 40403 80255
BBXX 46241 22061 99330 71173 46/// ///// 1//// 90611 22200 00144 11302 20501 326// 41301 70008
BBXX 46216 22061 99343 71198 46/// ///// 1//// 90627 22200 00143 11302 21002 326// 41302 70012
BBXX 46223 22061 99335 71178 46/// ///// 1//// 90630 22200 00150 11302 21001 327// 41302 70010
BBXX 46231 22061 99327 71174 46/// ///// 1//// 90624 22200 00150 11302 20901 327// 41302 70011
BBXX 46222 22061 99336 71183 46/// ///// 1//// 90626 22200 00152 11402 20601 326// 41402 70011
BBXX 46242 22061 99332 71174 46/// ///// 1//// 90628 22200 00144 11301 20501 323// 41301 70007
AAXX 22064 65592 11456 7//// 10230 20223 30077 40100 60014 79196 8357/ 333 20225 59004 83613 87360
AAXX 22064 65599 11958 5//// 10224 20213 30028 40112 60034 70399 83032 333 20220 58004 83361 87360
AAXX 22064 89528 46/// /3636 4//// 5////
AAXX 22064 89628 46/// /3209 4//// 5////
AAXX 22064 87436 32970 01120 10238 20116 39248 40016 51001
AAXX 22064 97340 01560 72203 10262 20256 30033 40048 52004 60011 79596 86932 333 56000 57960 60017 81920 86620 80980
AAXX 22064 96633 32458 82505 10289 20265 30035 40042 57033 8427/ 333 56709 84617 88460
BBXX 44039 22061 99411 70727 46/// /2410 10121 20099 40087 90630 22200 00094 10402 70008 333 91214
AAXX 22064 62002 32960 52815 10076 21019 39477 48520 58003 85060 333 20050 50944 55066 85360
AAXX 22064 62010 12660 42512 10090 20035 40173 57001 60134 82530 333 0//29 20087 51194 55035 82640
AAXX 22064 62016 12560 42409 10092 20056 40179 53002 60074 84800 333 0//16 20092 50974 55061 83820
AAXX 22064 62053 11560 52615 10125 20062 40124 54000 60044 70182 85500 333 0//14 20109 50454 55025 85620
AAXX 22064 62124 32960 02807 10037 21065 39717 40234 52010 333 20037 50504 55087
AAXX 22064 62161 32970 61812 10120 21002 40171 56010 86030 333 20078 50404 55090 86360
AAXX 22064 62271 32960 00000 10080 20011 40239 51005 333 20080 50754
BBXX FLAO 2206/ 99764 70847 46/// ///// 11265 40017 57001
AAXX 22061 22113 32584 22004 11041 21053 30039 40104 54000 82500 333 21044 47014 91005
AAXX 22061 02924 11357 81701 11011 21011 39926 40127 54001 69904 771// 88/// 333 11006 21015 3/104 4/014
AAXX 22061 02981 12499 72504 10017 21012 30141 40151 52004 69912 700// 85/// 333 10033 20013 3////
AAXX 22064 68714 36/// /3607 10177 20122 30101 40137 52010 333 20115 91010 555 10234 91013
AAXX 22061 02935 11262 71401 11010 21015 39960 40137 54001 69902 771// 87/// 333 11007 21014 3/103 4/011
AAXX 22061 02849 12399 81801 11030 21038 39834 40114 52003 69934 700// 88/// 333 11014 21031 3//// 4/023
BBXX 62303 22064 99516 70051 46/// /2612 10118 20094 40262 57002 22200 00110 10604 70019
BBXX PJGO 22064 99571 10022 47597 /2608 10099 20091 40118 52021 700// 22200
BBXX 63110 22064 99595 10015 47596 /2816 10099 20085 40063 52023 700// 22200 10504 70020
BBXX 63106 22064 99610 10017 46/// /2817 10092 40031 52032 22200
BBXX 63113 22064 99610 10017 46/// /2814 10100 20067 40037 52027 22200 10606 70028
BBXX 62103 22064 99499 70029 46/98 /3126 10118 20090 40282 53006 22200 00123 10602 70012 333 90710 91133
BBXX 62095 22064 99531 70159 46/// /2023 10125 20113 40140 57023 22200 00113 10810 70049 333 90710 91134
BBXX TBWUK34 22063 99379 10091 41598 62810 10144 20116 40165 53005 70152 86800 22263 00190 20301 329// 40703 5//// 80129
AAXX 22063 63612 32980 12604 10259 20176 40146 81040 333 20193 58006 81359
AAXX 22063 63661 32580 10904 10192 20124 48550 81100 333 20092 59006 81820
AAXX 22064 62002 32960 52815 10076 21019 39477 48520 58003 85060 333 20050 50944 55066 85360
AAXX 22064 62010 12660 42512 10090 20035 40173 57001 60134 82530 333 0//29 20087 51194 55035 82640
AAXX 22064 62016 12560 42409 10092 20056 40179 53002 60074 84800 333 0//16 20092 50974 55061 83820
AAXX 22064 62053 11560 52615 10125 20062 40124 54000 60044 70182 85500 333 0//14 20109 50454 55025 85620
AAXX 22064 62124 32960 02807 10037 21065 39717 40234 52010 333 20037 50504 55087
AAXX 22064 62161 32970 61812 10120 21002 40171 56010 86030 333 20078 50404 55090 86360
AAXX 22064 62271 32960 00000 10080 20011 40239 51005 333 20080 50754
BBXX 46221 22061 99339 71186 46/// ///// 1//// 90615 22200 00148 11302 20501 326// 41301 70009
AAXX 2206/ 89327 46/// ///// 11016 39552 4//// 5////
AAXX 22064 89016 46/89 /3504 11047 29078 39378 4//// 5////
AAXX 2206/ 68902 46/// ///// 40126 52007
AAXX 22064 71952 16/// /0000 11127 21139 39385 40273 56007 60001 333 11110 21198 70000
AAXX 22064 71966 16/// /0000 11195 21217 39622 40093 51014 60001 333 11086 21223 70004 555 10010 20004
AAXX 22064 71502 46/// /3420 11208 21223 30012 40028 6///1 333 11201 21257 7////
AAXX 22064 71517 47/// /2712 11042 21095 6///1 7//4/ 333 11005 21134 7//// 555 33431 40152
AAXX 22064 71518 16/// /2109 11104 21120 60001 333 11008 21112 70005 555 30131 40152
AAXX 22064 71519 16/// /1806 11107 21121 60001 333 10006 21114 70009 555 30318 40151
AAXX 22064 71520 16/// /1507 11074 21081 39345 40017 55001 60001 333 11074 21159 70000
AAXX 22064 71521 16/// ///// 11071 21085 60001 333 11070 21150 70007
AAXX 22064 71523 16/// ///// 11047 21050 39657 40031 51004 60001 333 11033 21117 70000
AAXX 22064 71528 16/// /2512 11096 21115 60001 333 11013 21112 70000 555 33532 40152
AAXX 22064 71477 17/// /1634 10058 20039 60021 7//4/ 333 10059 20006 70026 555 31645 40053
AAXX 22064 71401 16/// /2202 11070 21087 39650 40362 53011 60001 333 11003 21080 70000
AAXX 22064 71409 16/// ///// 11144 21158 60001 333 11006 21147 7////
AAXX 22064 71222 16/// /0000 11079 21086 39177 40164 58015 60001 333 11079 21153 70000
AAXX 22064 71768 46/// /2906 11054 21109 39787 40354 51004 6///1 333 10063 21054 7////
AAXX 22064 71773 16/// /2004 11019 21062 39218 40073 58008 60001 333 11002 21053 70000 555 31519 40071
AAXX 22064 71776 46/// /2406 11040 21054 39691 40354 53010 6///1 333 10004 21041 7////
AAXX 22064 71777 16/// ///// 11091 21099 30098 40361 58002 60001 333 11020 21092 70000
AAXX 22064 71784 16/// /0201 11002 21029 30125 40335 52005 60001 333 10059 21003 70000
AAXX 22064 71789 16/// ///// 11089 21121 60001 333 11006 21129 70000
AAXX 22064 71791 16/// /2308 11078 21103 60001 333 11024 21081 70004 555 32826 40211
AAXX 22064 71794 16/// ///// 11097 21120 60001 333 11009 21111 70004
AAXX 22064 71795 46/// ///// 11096 21113 6///1 333 10001 21102 7////
AAXX 22064 71796 16/// ///// 11074 21113 60001 333 10000 21092 70000
AAXX 22064 71102 16/// ///// 11092 21111 60001 333 11019 21102 70000
AAXX 22064 71105 16/// ///// 11123 21141 60001 333 11004 21123 70000
AAXX 22064 71115 16/// /1108 11055 21087 39742 40341 58002 60001 333 10036 21056 70003
AAXX 22064 71051 16/// ///// 11171 21187 60001 333 11026 21173 70005
AAXX 22064 71057 17/// ///// 11093 21121 69941 7//4/ 333 11013 21148 70009
AAXX 22064 71070 16/// ///// 11090 21112 60001 333 11012 21098 70000
AAXX 22064 71089 16/// ///// 11072 21106 60001 333 11009 21077 70000
AAXX 22064 71383 16/// ///// 11056 21078 39423 40032 53001 60001 333 11056 21132 70000
AAXX 22064 71433 46/// /3610 10021 21006 39870 40100 51022 6///1 333 10030 20010 7//// 555 32431 40072
AAXX 22064 71841 16/// /0203 11124 21143 39762 40168 53022 60001 333 11015 21124 70006
AAXX 22064 71006 16/// /2413 11075 21107 60001 333 10000 21083 70016 555 33323 40071
AAXX 22064 71007 46/// ///// 11128 21146 6///1 333 11016 21131 7////
AAXX 22064 71008 16/// /2608 11112 21135 60001 333 11008 21128 70000 555 33335 40103
AAXX 22064 71009 46/// /2003 11088 21119 6///1 333 11002 21109 7////
AAXX 22064 71012 16/// /2509 11089 21119 60001 333 11008 21100 70005 555 33019 40201
AAXX 22064 71035 46/// ///// 11152 21163 6///1 333 10000 21170 7////
AAXX 22064 71568 16/// /1408 10030 20005 30320 40333 58007 60001 333 10067 20024 70000 555 32926 40071
AAXX 22064 71207 16/// /3602 11031 30284 40350 53006 60001 333 10033 21033 70000
AAXX 22064 71477 17/// /1634 10058 20039 60021 7//4/ 333 10059 20006 70026 555 31645 40053
AAXX 22064 71222 16/// /0000 11079 21086 39177 40164 58015 60001 333 11079 21153 70000
AAXX 22064 71401 16/// /2202 11070 21087 39650 40362 53011 60001 333 11003 21080 70000
AAXX 22064 71409 16/// ///// 11144 21158 60001 333 11006 21147 7////
AAXX 22064 71102 16/// ///// 11092 21111 60001 333 11019 21102 70000
AAXX 22064 71105 16/// ///// 11123 21141 60001 333 11004 21123 70000
AAXX 22064 71115 16/// /1108 11055 21087 39742 40341 58002 60001 333 10036 21056 70003
AAXX 22064 71502 46/// /3420 11208 21223 30012 40028 6///1 333 11201 21257 7////
AAXX 22064 71517 47/// /2712 11042 21095 6///1 7//4/ 333 11005 21134 7//// 555 33431 40152
AAXX 22064 71518 16/// /2109 11104 21120 60001 333 11008 21112 70005 555 30131 40152
AAXX 22064 71519 16/// /1806 11107 21121 60001 333 10006 21114 70009 555 30318 40151
AAXX 22064 71520 16/// /1507 11074 21081 39345 40017 55001 60001 333 11074 21159 70000
AAXX 22064 71521 16/// ///// 11071 21085 60001 333 11070 21150 70007
AAXX 22064 71523 16/// ///// 11047 21050 39657 40031 51004 60001 333 11033 21117 70000
AAXX 22064 71528 16/// /2512 11096 21115 60001 333 11013 21112 70000 555 33532 40152
AAXX 22064 71051 16/// ///// 11171 21187 60001 333 11026 21173 70005
AAXX 22064 71057 17/// ///// 11093 21121 69941 7//4/ 333 11013 21148 70009
AAXX 22064 71070 16/// ///// 11090 21112 60001 333 11012 21098 70000
AAXX 22064 71089 16/// ///// 11072 21106 60001 333 11009 21077 70000
AAXX 22064 71768 46/// /2906 11054 21109 39787 40354 51004 6///1 333 10063 21054 7////
AAXX 22064 71773 16/// /2004 11019 21062 39218 40073 58008 60001 333 11002 21053 70000 555 31519 40071
AAXX 22064 71776 46/// /2406 11040 21054 39691 40354 53010 6///1 333 10004 21041 7////
AAXX 22064 71777 16/// ///// 11091 21099 30098 40361 58002 60001 333 11020 21092 70000
AAXX 22064 71784 16/// /0201 11002 21029 30125 40335 52005 60001 333 10059 21003 70000
AAXX 22064 71789 16/// ///// 11089 21121 60001 333 11006 21129 70000
AAXX 22064 71791 16/// /2308 11078 21103 60001 333 11024 21081 70004 555 32826 40211
AAXX 22064 71794 16/// ///// 11097 21120 60001 333 11009 21111 70004
AAXX 22064 71795 46/// ///// 11096 21113 6///1 333 10001 21102 7////
AAXX 22064 71796 16/// ///// 11074 21113 60001 333 10000 21092 70000
AAXX 22064 71966 16/// /0000 11195 21217 39622 40093 51014 60001 333 11086 21223 70004 555 10010 20004
AAXX 2206/ 89667 46/// ///// 11042 39888 4//// 5//// 90610
AAXX 2206/ 89872 46/// ///// 11021 39819 4//// 5//// 90640
AAXX 2206/ 89869 46/// ///// 11046 39860 4//// 5//// 90640
AAXX 2206/ 89866 46/// ///// 11014 39786 4//// 5//// 90630
AAXX 2206/ 89866 46/// ///// 11016 39785 4//// 5//// 90640
AAXX 2206/ 89329 46/// ///// 11076 38781 4//// 5//// 90630
AAXX 2206/ 89329 46/// ///// 11078 38781 4//// 5//// 90640
AAXX 2206/ 89799 46/// ///// 11171 4//// 5//// 90630
AAXX 2206/ 89799 46/// ///// 11168 4//// 5//// 90640
AAXX 2206/ 89332 46/// ///// 11041 39201 4//// 5//// 90640
AAXX 2206/ 89769 46/// ///// 11044 39862 4//// 5//// 90630
AAXX 2206/ 89769 46/// ///// 11040 39864 4//// 5//// 90640
AAXX 2206/ 89108 46/// ///// 11203 36958 4//// 5//// 90630
AAXX 2206/ 89879 46/// ///// 10011 39760 4//// 5//// 90640
AAXX 2206/ 89314 46/// ///// 11138 38259 4//// 5//// 90630
AAXX 2206/ 89314 46/// ///// 11133 38258 4//// 5//// 90640
AAXX 22064 89667 46/// /1726 11044 29096 39893 4//// 5//// 90640
AAXX 22064 89667 46/// /1725 11043 39893 4//// 5//// 90630
AAXX 22064 89667 46/// /1827 11043 39889 4//// 5//// 90620
AAXX 22064 07168 02457 82909 10103 20094 30113 40257 53010 69982 886// 333 10104 20081 32008 55000 60007 70040 88710 90710 91114 93100 555 60005
AAXX 22064 03227 46/// /2624 10053 2//// 90550 333 20051 90710 91138
BBXX 3ELR6 22063 99113 31244 41397 72807 10292 20259 40026 57/// 70222 82178 22223 06330 2//// 80267
BBXX 3ELR6 22063 99113 31244 41397 72807 10292 20259 40026 57/// 70222 82178 22223 06330 2//// 80267
BBXX V7LZ4 22063 99062 10918 41090 83524 10280 20253 40090 53001 78066 88522 22223 00300 20604 30505 40604 50604 6//// 80260 ICE /////
BBXX 46221 22061 99339 71186 46/// ///// 1//// 90615 22200 00148 11302 20501 326// 41301 70009
BBXX FLAO 2206/ 99764 70847 46/// ///// 11265 40017 57001
BBXX 44039 22061 99411 70727 46/// /2410 10121 20099 40087 90630 22200 00094 10402 70008 333 91214
BBXX 46231 22061 99327 71174 46/// ///// 1//// 90624 22200 00150 11302 20901 327// 41302 70011
BBXX 46216 22061 99343 71198 46/// ///// 1//// 90627 22200 00143 11302 21002 326// 41302 70012
BBXX 46222 22061 99336 71183 46/// ///// 1//// 90626 22200 00152 11402 20601 326// 41402 70011
BBXX 46223 22061 99335 71178 46/// ///// 1//// 90630 22200 00150 11302 21001 327// 41302 70010
BBXX 46242 22061 99332 71174 46/// ///// 1//// 90628 22200 00144 11301 20501 323// 41301 70007
BBXX 46241 22061 99330 71173 46/// ///// 1//// 90611 22200 00144 11302 20501 326// 41301 70008
BBXX 44024 22061 99423 70659 46/18 /2211 10113 40059 56036 90604 22200 00080 10604 70022 333 91213 555 11140 22154
BBXX 42085 22061 99179 70665 46/// /0506 10257 40154 90630 333 91207
BBXX 42360 22061 99267 70905 46/// /1405 10236 90600 22200 00249 10802 70011 333 91207
BBXX 42085 22061 99179 70665 46/// /0506 10257 40155 90610 333 91208
BBXX 41052 22061 99183 70648 46/// /0711 10265 40155 90620 333 91214
BBXX 41052 22061 99183 70648 46/// /0711 10265 40154 90630 333 91214
BBXX 41052 22061 99183 70648 46/// /0711 10266 40156 90610 333 91213
BBXX 41053 22061 99185 70661 46/// /0909 10264 40161 90630 333 91212
BBXX 42085 22061 99179 70665 46/// /0506 10257 40155 90620 333 91208
BBXX 41053 22061 99185 70661 46/// /0809 10260 40163 90620 333 91213
BBXX 41053 22061 99185 70661 46/// /0810 10264 40164 90610 333 91212
BBXX PCSV 22063 99199 30564 41498 20908 10272 20229 40157 53013 70111 811/1 22253 04260 20501 308// 41203 80241
BBXX C6W2032 22064 99010 10050 41398 62012 10260 2023/ 40120 51010 70322 86458 22243 00270 20602 31818 40602 50501 6//// 80240 ICE ///// .....
BBXX VRDN3 22064 99173 10718 41497 11015 10285 20260 40160 53020 70200 816// 22273 00/// 20403 310// 40403 80255
BBXX DQVN 22064 99061 10795 41498 20912 10263 20216 40120 50000 703// 8//2/ 22264 00287 2//08 80230
BBXX VQOG5 22064 99057 10856 41398 80613 10277 20241 40076 58012 70311 887// 22263 00275 20502 305// 40802 80252
BBXX DDYL2 22063 99060 10854 41598 80511 10284 20226 40082 58010 70382 8327/ 22264 00280 2//// 336// 40504 80242
BBXX DGZS2 22063 99322 11233 41598 73620 10060 21012 40260 50/// 70222 8677/ 22244 00120 20405 336// 40805 80030
BBXX V7LZ4 22063 99062 10918 41090 83524 10280 20253 40090 53001 78066 88522 22223 00300 20604 30505 40604 50604 6//// 80260 ICE /////
BBXX ELZU8 22063 99015 11044 41497 83610 10260 20239 40090 56015 76086 8312/ 22200 00/// 20101 303// 40405 80245
BBXX MGRX9 22064 99025 30858 41397 82628 10265 20236 40087 57001 76366 887// 22233 00263 20308 80245
BBXX PHJV 22064 99047 31121 41398 52406 10285 20225 40047 56021 70211 85262 22263 06296 20102 80242
BBXX A8RV7 22064 99075 31502 41297 81805 10280 20246 40040 56030 70262 83777 22273 00290 20501 301// 40502 80255
BBXX AVMI 22063 99330 31517 41198 81205 10120 20/// 40259 54000 70325 8//// 22200 00250
BBXX UGWJ 22060 99037 30837 42598 62815 10293 40117 51053 86210 22251 00279 20604 32500 40706
BBXX TBWUK34 22063 99379 10091 41598 62810 10144 20116 40165 53005 70152 86800 22263 00190 20301 329// 40703 5//// 80129
AAXX 22064 65501 32960 70000 10134 21004 39831 40150 80002 333 01000 20130 50754 55102 58019 87076
AAXX 22064 65502 32960 60402 10175 21061 39762 40143 80002 333 01500 20175 50894 55100 58014 86076
AAXX 22064 65503 32960 53604 10180 20006 39798 40144 80002 333 01300 20175 50870 55101 51622 58022 85076
AAXX 22064 65505 32960 50206 10177 21034 39802 40141 80002 333 01300 20169 51174 55107 58020 85076
AAXX 22064 65507 32960 73604 10184 21007 39785 40135 80002 333 01200 20180 50754 55093 58013 87076
AAXX 22064 65510 32960 50210 10188 21037 39625 40140 80002 333 02300 20185 51150 55097 58025 85076
AAXX 22064 65516 32960 50406 10186 21054 39825 40132 80002 333 01500 20183 50824 55101 58014 85076
AAXX 22064 65518 32965 73604 10210 21094 39755 40117 80002 333 01200 20195 50994 55101 58006 87076
AAXX 22064 65522 32960 70000 10162 20043 39800 40129 80002 333 01500 20162 50724 55094 58011 87076
BBXX BAREU60 22064 99436 10135 46/// ///// 40194 52030 22252
BBXX 61001 22064 99434 10078 46/// /0502 10125 20030 40176 52016 22200 00149 10702 70008
BBXX BATFR11 22064 99428 10066 46/// ///// 10125 20059 40180 53018 22264 00159
BBXX BATFR46 22064 99424 10036 46/// /3337 10150 20107 40225 53018 22282 00159
BBXX 61002 22064 99421 10047 46/// ///35 10144 2//// 40212 52028 22200 00138 10808 70041 555 1/046
BBXX BATFR20 22064 99414 10094 46/// ///// 10122 20054 40169 53018 22284
BBXX BATFR23 22064 99412 10035 44998 13016 10160 20110 40227 53009 70211 81100 22284 00154 20504 334// 40504 5////
BBXX BAREU51 22064 99407 10115 46/// ///// 40136 52023 22285
BBXX BAREU62 22064 99404 10291 46/// ///// 40116 52004 22221
BBXX BAREU63 22064 99401 10147 46/// /1309 10104 29063 40114 52016 22272
BBXX DBIP 22063 99381 10103 41598 43607 10157 20101 40150 53010 70111 83440 22223 04160 20502 30534 40903 50802 80125
BBXX PFDH 22061 99375 10104 41/98 73313 10175 20118 40153 55005 70182 877// 22224 00171 2//// 80141
BBXX MSTM6 22063 99366 70001 41998 02508 10200 20140 40261 54000 70200 80000 22225 00165 2//// 80165
BBXX BATFR01 22064 99354 10229 46/// /2327 10129 20090 40031 56028 22261 00184
BBXX VRGM8 22063 99345 10253 41497 72325 10160 20108 40090 58040 70322 8677/ 22274 00185 20803 327// 40804 5//// 80130
BBXX C6VF5 22064 99331 10285 41597 72622 10170 2008/ 40150 56030 70311 8726/ 22274 00200 2//// 3//// 4//// 5//// 6//// 80120
BBXX BAREU56 22064 99329 10132 46/// ///// 40166 22200
BBXX A8VL5 22064 99329 10278 41498 12225 10150 20092 40260 57020 70111 81100 22264 00180 20505 30000 80120
BBXX WKAB 22064 99327 10293 41998 02320 10170 20079 40169 53011 70100 80000 22235 00191 20402 333// 40704 5//// 6//// 80120
BBXX DANM 22064 99373 10065 41297 83531 10140 20126 40185 51018 79088 8/7// 22265 00150 20507 80132
BBXX PEBT 22063 99563 10075 41396 82018 10090 20004 40110 58010 76162 887// 22213 02080 20402 330// 40602 5//// 80052
AAXX 22064 40103 12658 50000 10123 20102 40182 54001 60054 85500 333 20109 32/// 50124 20250 85640 555 10186
AAXX 22064 17330 11660 70000 10111 20094 30173 40191 52009 60022 78022 84270 333 20108 32008 50051 55045 70020 84836 87359
BBXX C6HS4 22063 99212 31000 41598 52114 10265 20215 40136 58/// 7//22 8344/ 22273 20505 80230
BBXX DAJT 22064 99242 30504 41297 80815 10270 20243 40100 52010 70322 8/6// 22254 04250 309// 4//04 80250
BBXX DANM 22064 99373 10065 41297 83531 10140 20126 40185 51018 79088 8/7// 22265 00150 20507 80132
AAXX 22064 42886 31996 03201 10260 20020 40161 70500 333 59003
AAXX 22064 42895 31996 03603 10252 20052 40157 70500 333 59004
AAXX 22064 42971 31995 03602 10250 20072 40158 70500 333 59005
AAXX 22064 71540 17/// /1101 11119 21135 69941 7//4/ 333 11001 21148 70004 555 33129 40082
AAXX 22064 71544 16/// ///// 11041 21088 60001 333 11022 21063 70000
AAXX 22064 71548 16/// ///// 11057 21089 60001 333 11015 21065 70004
AAXX 22064 71360 16/// ///// 11064 21104 60001 333 11017 21078 70000
AAXX 22064 71380 16/// /2211 11042 21106 60001 333 11004 21112 70017 555 32930 40072
AAXX 22064 71999 46/// ///// 11051 6///1 333 10071 21056 7////
AAXX 22064 71778 46/// /0306 6///1 333 7//// 555 32430 40072
AAXX 22064 71779 16/// /1402 11104 21113 39624 40313 58004 60001 333 11005 21134 70000
AAXX 22064 71780 16/// /0604 10037 21014 30314 40342 51001 60001 333 10067 20028 70000 555 31018 40211
AAXX 22064 71785 16/// /0302 10007 21008 30333 40349 53004 60001 333 10072 21007 70000
AAXX 22064 71797 16/// ///// 11070 21093 60001 333 11025 21089 70000
AAXX 22064 71014 16/// /1908 11070 21123 60001 333 11001 21085 70006 555 33023 40071
AAXX 22064 71032 46/// /0000 11129 21141 39500 40372 52001 6///1 333 11031 21139 7////
AAXX 22064 71044 16/// /0805 11194 21221 39742 40069 51022 60001 333 11168 21210 70000
AAXX 22064 71346 16/// /2207 11092 21120 60001 333 10006 21126 70012 555 33530 40152
AAXX 22064 71481 16/// /2207 11053 21112 60001 333 11002 21086 70008 555 32919 40101
AAXX 22064 71498 16/// /2110 11093 21118 60001 333 11006 21109 70005 555 33232 40122
AAXX 22064 71055 46/// /1604 11177 21192 39667 40004 52003 6///1 333 11164 21260 7////
AAXX 22064 71065 16/// ///// 11065 21096 60001 333 11017 21072 70000
AAXX 22064 71857 16/// ///// 11070 21095 60001 333 11021 21071 70000
AAXX 22064 71413 16/// ///// 11080 21118 60001 333 10000 21093 70000
AAXX 22064 71414 16/// ///// 11070 21089 60001 333 11013 21084 70000
AAXX 22064 71424 46/// /0514 6///1 333 7//// 555 30423 40051
AAXX 22064 71440 16/// ///// 11071 21109 60001 333 11003 21082 70012
AAXX 22064 71674 16/// ///// 11083 21117 60001 333 10001 21107 70008
AAXX 22064 71679 16/// /0205 11029 21078 39214 40252 56004 60001 333 11010 21086 70000
AAXX 22064 71199 46/// /1805 11021 21069 39289 40127 56009 6///1 333 11018 21237 7////
AAXX 22064 71904 16/// ///// 11081 21127 60001 333 10005 21097 70007
AAXX 22064 71045 16/// /0803 11029 21070 39240 40102 56010 60001 333 11006 21183 70000 555 10040
AAXX 22064 71050 46/// /3001 11153 21169 39196 40324 58007 6///1 333 11047 21172 7////
AAXX 22064 71216 16/// /0803 11028 21050 39708 40342 50005 60001 333 10043 21040 70000
AAXX 22064 71249 16/// /2316 11097 21126 60001 333 11001 21110 70005 555 33342 40083
AAXX 22064 71200 16/// /3606 10022 20012 60001 333 10067 20016 70000
AAXX 22064 60195 32960 00000 10038 21057 38590 48601 5//// 333 20038 30002 95500
BBXX 64045 22064 99591 70117 46/// /2119 10102 20096 40014 58016 22200 00101 10911 70053
BBXX BATFR04 22064 99584 70062 46/// /2324 10109 20092 40079 58001 22200 00102
BBXX 62112 22064 99584 70002 47497 /2611 10099 20088 40098 52014 700// 22200
BBXX 62113 22064 99584 10002 47396 /2615 10094 20085 40098 53014 700// 22200
BBXX 62129 22064 99584 10003 46/// ///// 10095 20087 40098 53018 22200
BBXX 62114 22064 99583 10000 46/// /2518 10099 20085 40096 53016 22200
BBXX BATEU05 22064 99581 70295 46/// /2325 10057 20015 49764 55053 22223
BBXX BATUK01 22064 99581 70034 46/// /2632 10109 20072 40072 56021 22211 00087
BBXX PJAI 22064 99581 70014 47598 /2515 10114 20075 40099 52015 700// 22200
BBXX 62111 22064 99580 70003 46/// /2619 10105 20079 40110 52013 22200 10503 70014
BBXX 62117 22064 99579 10000 47598 /2621 10103 20084 40102 51009 700// 22200 10403 70013
BBXX MINUK05 2206/ 99577 70017 46/// ///// 10108 40105 52035
BBXX 62105 22064 99554 70121 46/// /2226 10119 20106 40122 56012 22200 00107 10809 70045 333 90710 91133
BBXX EIPT 22064 99544 70054 41/97 32111 10120 20111 40207 54000 70200 8//// 22200 20401 3//// 4//// 5//// 80115
BBXX 62095 22064 99531 70159 46/// /2023 10125 20113 40140 57023 22200 00113 10810 70049 333 90710 91134
BBXX 62301 22064 99524 70047 46/// /2511 10097 20088 40250 52002 22200 00088 10503 70017
BBXX 62094 22064 99517 70067 46/// /2417 10119 20094 40260 57002 22200 00106 10503 70017 333 90710 91126
BBXX BATFR54 22064 99517 70059 46/// /2321 10119 20089 40264 53015 22243 00115
BBXX 62303 22064 99516 70051 46/// /2612 10118 20094 40262 57002 22200 00110 10604 70019
BBXX 62023 22063 99514 70079 46/96 /2523 10117 2//// 40277 5//// 22200 10503 70017 555 70027 81002
BBXX 62081 22064 99510 70134 46/// ///// 10128 20114 40234 58014 22200 00119 10707 70034
BBXX BATFR02 22064 99508 70011 46/// /2615 10094 20074 40273 53007 22283 00104
BBXX BATFR42 22064 99507 70020 46/// /2806 10094 20077 40269 53005 22282 00124
BBXX PHIN 22064 99504 70142 41/// /2023 10128 20123 40227 56001 7//// 8//// 22253 2//// 80125
BBXX 62305 22064 99504 10000 46/98 /2923 10118 20098 40261 53004 22200 00120 10601 70007 333 90710 91129
BBXX BAREU00 22064 99503 10000 46/// ///// 40255 57010 22223
BBXX 62107 22064 99501 70061 46/// /2514 10116 20093 40297 55000 22200 00117 10804 70018
BBXX 62103 22064 99499 70029 46/98 /3127 10118 20093 40276 52002 22200 00123 10602 70012 333 90710 91132
BBXX DILE 22063 99494 70074 41/98 /2514 10130 20103 40305 57005 7//22 8//// 22224 2//// 80115
BBXX VRYO3 22064 99492 70239 46/// /0916 10120 20133 40101 55014 7//// 8//// 22264 00121 2////
BBXX 62027 22064 99491 70022 46/// /3217 1//// 2//// 40290 52009 22200 00113 10703 331// 70015
BBXX 62442 22064 99490 70164 46/// /2023 1//// 2//// 40240 57012 22200 00125 333 90710 91131
BBXX 62029 22064 99487 70125 46/// /2119 10133 20111 40250 58046 22200 00129 10705 70027
BBXX TESTFR9 22064 99486 70020 46/// ///// 10113 29096 40323 52024 22200
BBXX BATFR12 22064 99482 70066 46/// /2509 10130 20099 40325 56003 22271 00140
BBXX 62163 22064 99475 70084 46/// /2105 10129 20095 40328 57003 22200 00127 10905 70025
BBXX PDNN 22063 99472 70192 41/98 /1830 10140 20123 40220 54000 70111 8//// 22223 02126 2//// 80130
BBXX WKAE 22063 99464 70298 41598 62627 10113 20029 40150 52033 70122 86400 22264 00130 2//// 3//// 4//// 5//// 6//// 80073
BBXX 62001 22064 99452 70050 46/// /0107 10134 20078 40338 55000 22200 00141 10704 70022
BBXX BATFR27 22064 99452 70041 46/// /3412 10142 20075 40334 53008 22245 00142
BBXX WDD6126 22064 99451 70204 41498 11930 10150 2013/ 40248 57009 7//00 811// 22254 00131 20405 320// 40806 5//// 6//// 80135
BBXX DDZD2 22064 99420 70101 41/98 20218 10135 20118 40320 56011 70111 82/// 22245 00130 29902 80125
BBXX ZNQO3 22060 99409 70098 41998 03510 10140 20102 40308 54000 70200 80000 22213 04163 2//// 3//// 4//// 5//// 80120
BBXX LAXP4 22064 99379 70266 41098 11719 00/// 10130 2013/ 40277 56009 70222 87/// 22253 00160 20501 317// 40203 80130
BBXX MSTM6 22063 99366 70001 41998 02508 10200 20140 40261 54000 70200 80000 22225 00165 2//// 80165
BBXX MINFR03 2206/ 99162 10716 46/// ///// 10288 40128 52008
AAXX 22064 71045 16/// /0803 11029 21070 39240 40102 56010 60001 333 11006 21183 70000 555 10040
AAXX 22064 71050 46/// /3001 11153 21169 39196 40324 58007 6///1 333 11047 21172 7////
AAXX 22064 71200 16/// /3606 10022 20012 60001 333 10067 20016 70000
AAXX 22063 64870 32960 70000 10093 20052 38929 48517 80002 333 00800 20072 50050 55104 58010 87080
BBXX MGRX9 22064 99025 30858 41397 82628 10265 20236 40087 57001 76366 887// 22233 00263 20308 80245
BBXX UGWJ 22060 99037 30837 42598 62815 10293 40117 51053 86210 22251 00279 20604 32500 40706
BBXX PCSV 22063 99199 30564 41498 20908 10272 20229 40157 53013 70111 811/1 22253 04260 20501 308// 41203 80241
AAXX 22061 33562 31396 82804 11016 21033 39814 40186 52019 71022 886// 333 21017 47003 88709
AAXX 22064 89108 46/// /0107 11201 36955 4//// 5//// 90640
AAXX 22064 89314 46/// /0909 11139 38248 4//// 5//// 90640
AAXX 22064 89327 46/// /0000 11016 39711 49992 5//// 90640
AAXX 22064 89329 46/// /0507 11078 38776 49844 5//// 90640
AAXX 22064 89376 46/// /1811 11035 39792 49859 5//// 90640
AAXX 22064 89734 46/// /0000 11172 36065 4//// 5//// 90640
AAXX 22064 89744 46/// /0115 11224 36433 4//// 52002 90640
AAXX 22064 89769 46/// /1817 11040 39844 49896 5//// 90640
AAXX 22064 89799 46/// /2202 11168 36768 4//// 57007 90640
AAXX 22064 89834 46/// /1508 11081 38110 4//// 52009 90640
AAXX 22064 89866 46/// /1319 11014 39754 49886 5//// 90640
AAXX 22064 89868 46/// /1915 11059 39836 49904 5//// 90640
AAXX 22064 89869 46/// /2116 11048 39852 49931 52010 90640
AAXX 22064 89872 46/// /1714 11020 39816 49872 52022 90640
AAXX 22064 89873 46/// /1813 11034 39853 49930 5//// 90640
AAXX 22064 89879 46/// ///01 10011 39741 49777 5//// 90640
AAXX 22061 59158 32560 80104 10184 20116 30050 40151 57021 885//
AAXX 22061 59562 32563 80504 10210 20150 30141 40152 57027 8582/
AAXX 22061 58968 11556 81402 10140 20121 30193 40201 56016 60021 76162 887//
AAXX 22061 58974 11440 83613 10142 20105 30074 40200 56017 69901 75152 8372/
AAXX 22061 59358 31650 83604 10207 20140 30123 40155 57026 70522 885//
AAXX 22061 59559 32565 80307 10217 20161 30109 40137 58023 884//
AAXX 22061 59792 32460 80409 10221 20174 30145 40150 57027 84410
AAXX 22061 59997 32460 60506 10298 20265 30074 40082 57027 83480
AAXX 22061 33562 31396 82804 11016 21033 39814 40186 52019 71022 886// 333 21017 47003 88709
AAXX 2206/ 89327 46/// ///// 11016 39741 4//// 5//// 90640
AAXX 2206/ 89828 46/// ///// 11201 36484 4//// 5//// 90640
AAXX 2206/ 89108 46/// ///// 11201 36957 4//// 5//// 90640
AAXX 22064 42779 32996 20000 10236 21003 39469 40164 80001 333 59003 82075
AAXX 22064 42874 32996 01405 10254 20049 40162 333 59003
BBXX MINFR09 2206/ 99274 31532 46/// ///// 40134 57013
AAXX 22064 91844 46/// /1002 10254 40109 22200 00285
AAXX 22064 71638 16/// /3304 11007 21036 30228 40336 53005 60001 333 10059 21020 70000
AAXX 22064 71386 16/// /0000 11045 21083 39840 40047 55016 60001 333 11045 21140 70000
AAXX 22064 71766 16/// /2201 11006 21012 30267 40340 51004 60001 333 10065 21020 70000
AAXX 22064 71769 16/// /2105 10024 20007 30316 40332 51004 60001 333 10067 20020 70000 555 33031 40082
AAXX 22064 71770 16/// /0703 11038 21060 39556 40351 51012 60001 333 10030 21042 70000
AAXX 22064 71774 46/// ///// 10000 6///1 333 10043 21006 7////
AAXX 22064 71775 46/// /0000 11021 21022 30340 40346 51003 6///1 333 10067 21034 7////
AAXX 22064 71781 46/// /2404 10041 20019 30308 40333 50001 6///1 333 10096 20041 7//// 555 33329 40092
AAXX 22064 71720 16/// /0901 11011 21012 30187 40344 50000 60001 333 10052 21024 70000
AAXX 22064 71039 46/// /0000 11126 6///1 333 10006 21198 7//// 555 31023 40161
AAXX 22064 71211 46/// /0319 10024 21018 30329 40341 53003 6///1 333 10049 20024 7//// 555 30229 40192
AAXX 22064 71219 46/// /1429 10053 20024 30209 40215 58016 6///1 333 10059 20027 7//// 555 31438 40063
AAXX 22064 71220 46/// /1437 10045 20021 6///1 333 10052 20030 7////
AAXX 22064 71894 16/// /0909 10049 20028 30309 40318 58007 60001 333 10067 20006 70000 555 31221 40001
AAXX 22064 71949 46/// /1405 11106 21125 39211 40101 53002 6///1 333 11041 21228 7////
AAXX 22064 71927 16/// /0000 11032 21038 30286 40346 52005 60001 333 10082 21035 70000
AAXX 22064 71688 16/// /0702 11076 21080 39261 40332 50002 60001 333 11007 21080 70000
AAXX 22064 60135 32456 21405 10080 20068 40282 58004 82100 333 20078 82813
AAXX 22064 71949 46/// /1405 11106 21125 39211 40101 53002 6///1 333 11041 21228 7////
AAXX 22064 71894 16/// /0909 10049 20028 30309 40318 58007 60001 333 10067 20006 70000 555 31221 40001
AAXX 22064 87311 32965 01809 10238 20071 39380 40027 52015
BBXX DGZS2 22063 99322 11233 41598 73620 10060 21012 40260 50/// 70222 8677/ 22244 00120 20405 336// 40805 80030
BBXX MINUK01 2206/ 99599 70011 46/// ///// 10103 40054 57001
AAXX 22064 89614 46/// /1120 11031 29070 38988 4//// 5//// 90630 333 90700 91124
AAXX 22064 89807 46/// /1417 29076 39788 4//// 5//// 90630
AAXX 22064 89807 46/// /1417 29076 39788 4//// 5//// 90630
AAXX 22064 89614 46/// /1120 11031 29070 38988 4//// 5//// 90630 333 90700 91124
BBXX 63110 22063 99595 10015 41/97 /2821 10099 40057 700// 8//// 22200 10604 70020
BBXX 63106 22064 99610 10017 46/// /2817 10092 40031 52032 22200
BBXX 63105 22064 99610 10017 47596 ///// 10100 20065 40031 52031 700// 22200
BBXX 62103 22064 99499 70029 46/98 /3127 10118 20093 40276 52002 22200 00123 10602 70012 333 90710 91132
BBXX 62303 22064 99516 70051 46/// /2613 10118 20094 40262 57002 22200 00110 10604 70019
BBXX 62095 22064 99531 70159 46/// /2023 10125 20111 40140 57023 22200 00113 10810 70049 333 90710 91134
BBXX 64049 22063 99571 10022 41/97 72615 10103 20091 40114 54000 70211 8//// 22200 04094 20602 326// 40604 5//// 80097
BBXX WDE8293 22064 99373 70366 41397 60128 10170 20100 40240 52008 7//82 85879 22275 00190 20804 30509 41005 51006 6//// 80130 ICE /////
BBXX ONFP 22064 99194 30679 43797 71124 10280 2024/ 40160 54000 7//11 87131 22213 04258 20306 31111 40306 50306 6//// 80250 ICE /////
BBXX WDE8293 22064 99373 70366 41397 60128 10170 20100 40240 52008 7//82 85879 22275 00190 20804 30509 41005 51006 6//// 80130 ICE /////
BBXX ONFP 22064 99194 30679 43797 71124 10280 2024/ 40160 54000 7//11 87131 22213 04258 20306 31111 40306 50306 6//// 80250 ICE /////
BBXX MINFR03 2206/ 99162 10716 46/// ///// 10288 40128 52008
BBXX MINUK01 2206/ 99599 70011 46/// ///// 10103 40054 57001
BBXX BSH03 22061 99540 10081 46/// ///// 22200 00062 20602 70009
BBXX BSH05 22061 99549 10082 46/// ///// 22200 20502 70009
BBXX DANM 22064 99373 10065 41297 83531 10140 20126 40185 51018 79088 8/7// 22265 00150 20507 80132
BBXX PEBT 22063 99563 10075 41396 82018 10090 20004 40110 58010 76162 887// 22213 02080 20402 330// 40602 5//// 80052
BBXX MINFR09 2206/ 99274 31532 46/// ///// 40134 57013
BBXX 3ELR6 22063 99113 31244 41397 72807 10292 20259 40026 57/// 70222 82178 22223 06330 2//// 80267
OOXX RUP59 22041 99539 10848 ///// 02121 26/// /0602 11145 29073 30112 90440 333 60000
OOXX RUP59 22041 99539 10848 ///// 02121 26/// /0702 11144 29073 30115 90450 333 60000
OOXX RUP59 22051 99539 10848 ///// 02121 26/// /0802 11142 29073 30112 90500 333 60000
OOXX RUP59 22051 99539 10848 ///// 02121 26/// /0702 11143 29072 30110 90510 333 60000
OOXX RUP59 22051 99539 10848 ///// 02121 26/// /0702 11141 29073 30108 90520 333 60000
OOXX RUP59 22051 99539 10848 ///// 02121 26/// /0702 11140 29072 30107 90530 333 60000
OOXX RUP59 22051 99539 10848 ///// 02121 26/// /0702 11138 29071 30105 90540 333 60000
OOXX RUP59 22051 99539 10848 ///// 02121 26/// /0602 11137 29071 30108 90550 333 60000
OOXX RUP59 22061 99539 10848 ///// 02121 26/// /0702 11135 29070 30106 90600 333 60000
OOXX RUP59 22061 99539 10848 ///// 02121 26/// /0702 11134 29070 30107 90610 333 60000
OOXX RUP59 22061 99539 10848 ///// 02121 26/// /0702 11135 29069 30104 90620 333 60000
OOXX RUP59 22061 99539 10848 ///// 02121 26/// /0602 11134 29069 30101 90630 333 60000
OOXX MYP42 22041 99045 11014 ///// 15551 26/// /1008 10186 29093 38431 90405 333 60000
OOXX MYP42 22041 99045 11014 ///// 15551 26/// /1112 10188 29094 38420 90415 333 69920
OOXX MYP42 22041 99045 11014 ///// 15551 26/// /0606 10191 29093 38412 90425 333 60000
OOXX MYP42 22041 99045 11014 ///// 15551 26/// /0410 10190 29092 38425 90435 333 60000
OOXX MYP42 22041 99045 11014 ///// 15551 26/// /3605 10193 29091 38429 90445 333 60000
OOXX MYP42 22041 99045 11014 ///// 15551 26/// /0903 10199 29090 38423 90455 333 60000
OOXX MYP42 22051 99045 11014 ///// 15551 26/// /0604 10202 29089 38425 90505 333 60000
OOXX MYP42 22051 99045 11014 ///// 15551 26/// /1103 10198 29090 38407 90515 333 60000
OOXX MYP42 22051 99045 11014 ///// 15551 26/// /0602 10192 29092 38418 90525 333 60000
OOXX MYP42 22051 99045 11014 ///// 15551 26/// /0604 10198 29092 38425 90535 333 60000
OOXX MYP42 22051 99045 11014 ///// 15551 26/// /1701 10198 29091 38414 90545 333 60000
OOXX MYP42 22051 99045 11014 ///// 15551 26/// /0704 10203 29088 38418 90555 333 60000
OOXX FRP31 22031 99052 70527 ///// 00091 26/// /0406 10266 29082 30160 90357 333 60000
OOXX FRP31 22041 99052 70527 ///// 00091 26/// /0405 10266 29083 30159 90407 333 60000
OOXX FRP31 22041 99052 70527 ///// 00091 26/// /0406 10265 29083 30157 90417 333 60000
OOXX FRP31 22041 99052 70527 ///// 00091 26/// /0405 10266 29083 30155 90427 333 60000
OOXX FRP31 22041 99052 70527 ///// 00091 26/// /0405 10266 29083 30154 90437 333 60000
OOXX FRP31 22041 99052 70527 ///// 00091 26/// /0406 10266 29084 30153 90447 333 60000
OOXX FRP31 22041 99052 70527 ///// 00091 26/// /0506 10264 29085 30155 90457 333 60000
OOXX FRP31 22051 99052 70527 ///// 00091 26/// /0506 10264 29085 30153 90507 333 60000
OOXX FRP31 22051 99052 70527 ///// 00091 26/// /0506 10263 29084 30153 90517 333 60000
OOXX FRP31 22051 99052 70527 ///// 00091 26/// /0506 10263 29084 30150 90527 333 60000
OOXX FRP31 22051 99052 70527 ///// 00091 26/// /0507 10263 29083 30151 90537 333 60000
OOXX FRP31 22051 99052 70527 ///// 00091 26/// /0506 10264 29082 30150 90547 333 60000
OOXX RUP60 22041 99531 11588 ///// 00651 26/// /3404 11113 29038 30059 90452 333 60000
OOXX RUP60 22051 99531 11588 ///// 00651 26/// /2902 11121 29039 30060 90502 333 60000
OOXX RUP60 22051 99531 11588 ///// 00651 26/// /3305 11130 29044 30062 90512 333 60000
OOXX RUP60 22051 99531 11588 ///// 00651 26/// /3504 11134 29045 30062 90522 333 60000
OOXX RUP60 22051 99531 11588 ///// 00651 26/// /3505 11140 29047 30064 90532 333 60000
OOXX RUP60 22051 99531 11588 ///// 00651 26/// /3104 11150 29049 30066 90542 333 60000
OOXX RUP60 22051 99531 11588 ///// 00651 26/// /2901 11154 29049 30067 90552 333 60000
OOXX RUP60 22061 99531 11588 ///// 00651 26/// /3302 11163 29051 30068 90602 333 60000
OOXX RUP60 22061 99531 11588 ///// 00651 26/// /3202 11159 29047 30069 90612 333 60000
OOXX RUP60 22061 99531 11588 ///// 00651 26/// /2906 11161 29047 30069 90622 333 60000
OOXX RUP60 22061 99531 11588 ///// 00651 26/// /3305 11167 29047 30069 90632 333 60000
OOXX RUP60 22061 99531 11588 ///// 00651 26/// /3403 11168 29047 30071 90642 333 60000
OOXX AUP04 22051 99377 31451 ///// 00311 26/// /2302 10295 29040 30068 90506 333 60000
OOXX AUP04 22051 99377 31451 ///// 00311 26/// /1903 10288 29039 30066 90516 333 60000
OOXX AUP04 22051 99377 31451 ///// 00311 26/// /1903 10286 29040 30066 90526 333 60000
OOXX AUP04 22051 99377 31451 ///// 00311 26/// /1802 10285 29040 30065 90536 333 60000
OOXX AUP04 22051 99377 31451 ///// 00311 26/// /2003 10290 29040 30064 90546 333 60000
OOXX AUP04 22051 99377 31451 ///// 00311 26/// /1703 10286 29041 30063 90556 333 60000
OOXX AUP04 22061 99377 31451 ///// 00311 26/// /1803 10285 29041 30062 90606 333 60000
OOXX AUP04 22061 99377 31451 ///// 00311 26/// /1603 10283 29041 30062 90616 333 60000
OOXX AUP04 22061 99377 31451 ///// 00311 26/// /1603 10283 29041 30062 90626 333 60000
OOXX AUP04 22061 99377 31451 ///// 00311 26/// /1703 10280 29041 30061 90636 333 60000
OOXX AUP04 22061 99377 31451 ///// 00311 26/// /1702 10282 29041 30061 90646 333 60000
OOXX AUP04 22061 99377 31451 ///// 00311 26/// /1403 10278 29043 30060 90656 333 60000
OOXX RUP54 22041 99586 10494 ///// 01271 26/// /0704 11083 29089 30055 90427 333 60120
OOXX RUP54 22041 99586 10494 ///// 01271 26/// /0603 11084 29089 30055 90437 333 60120
OOXX RUP54 22041 99586 10494 ///// 01271 26/// /0604 11083 29089 30055 90447 333 60120
OOXX RUP54 22041 99586 10494 ///// 01271 26/// /0704 11083 29089 30054 90457 333 60120
OOXX RUP54 22051 99586 10494 ///// 01271 26/// /0504 11083 29089 30053 90507 333 60120
OOXX RUP54 22051 99586 10494 ///// 01271 26/// /0504 11083 29089 30053 90517 333 60120
OOXX RUP54 22051 99586 10494 ///// 01271 26/// /0503 11083 29089 30053 90527 333 60120
OOXX RUP54 22051 99586 10494 ///// 01271 26/// /0704 11083 29089 30053 90537 333 60120
OOXX RUP54 22051 99586 10494 ///// 01271 26/// /0703 11083 29089 30053 90547 333 60120
OOXX RUP54 22051 99586 10494 ///// 01271 26/// /0603 11083 29089 30052 90557 333 60120
OOXX RUP54 22061 99586 10494 ///// 01271 26/// /0704 11083 29089 30052 90607 333 60120
OOXX RUP54 22061 99586 10494 ///// 01271 26/// /0604 11083 29089 30051 90617 333 60120
OOXX NZP46 22041 99438 51765 ///// 00221 26/// /2306 10125 29075 30263 90430 333 60000
OOXX NZP46 22041 99438 51765 ///// 00221 26/// /2305 10124 29076 30262 90440 333 60000
OOXX NZP46 22041 99438 51765 ///// 00221 26/// /2206 10123 29079 30261 90450 333 60000
OOXX NZP46 22051 99438 51765 ///// 00221 26/// /2206 10121 29080 30261 90500 333 60000
OOXX NZP46 22051 99438 51765 ///// 00221 26/// /2205 10120 29082 30261 90510 333 60000
OOXX NZP46 22051 99438 51765 ///// 00221 26/// /2305 10119 29080 30261 90520 333 60000
OOXX NZP46 22051 99438 51765 ///// 00221 26/// /2304 10119 29080 30261 90530 333 60000
OOXX NZP46 22051 99438 51765 ///// 00221 26/// /2204 10120 29081 30261 90540 333 60000
OOXX NZP46 22051 99438 51765 ///// 00221 26/// /2204 10119 29081 30261 90550 333 60000
OOXX NZP46 22061 99438 51765 ///// 00221 26/// /2204 10118 29081 30260 90600 333 60000
OOXX NZP46 22061 99438 51765 ///// 00221 26/// /2204 10118 29081 30259 90610 333 60000
OOXX NZP46 22061 99438 51765 ///// 00221 26/// /2205 10118 29082 30260 90620 333 60000
OOXX FRP30 22041 99493 30703 ///// 00361 26/// /2401 10162 29055 30102 90457 333 60000
OOXX FRP30 22051 99493 30703 ///// 00361 26/// /2403 10163 29054 30102 90507 333 60000
OOXX FRP30 22051 99493 30703 ///// 00361 26/// /2502 10164 29055 30101 90517 333 60000
OOXX FRP30 22051 99493 30703 ///// 00361 26/// /2502 10165 29055 30101 90527 333 60000
OOXX FRP30 22051 99493 30703 ///// 00361 26/// /2202 10165 29056 30102 90537 333 60000
OOXX FRP30 22051 99493 30703 ///// 00361 26/// /2202 10166 29056 30102 90547 333 60000
OOXX FRP30 22051 99493 30703 ///// 00361 26/// /2302 10171 29056 30102 90557 333 60000
OOXX FRP30 22061 99493 30703 ///// 00361 26/// /2503 10173 29055 30102 90607 333 60000
OOXX FRP30 22061 99493 30703 ///// 00361 26/// /2603 10177 29055 30103 90617 333 60000
OOXX FRP30 22061 99493 30703 ///// 00361 26/// /2703 10177 29055 30103 90627 333 60000
OOXX FRP30 22061 99493 30703 ///// 00361 26/// /2603 10176 29056 30104 90637 333 60000
OOXX FRP30 22061 99493 30703 ///// 00361 26/// /2704 10177 29057 30104 90647 333 60000
OOXX NOP49 22041 99782 10154 ///// 04691 26/// /2305 11077 29091 39475 90410 333 6///0
OOXX NOP49 22041 99782 10154 ///// 04691 26/// /2305 11077 29090 39474 90420 333 6///0
OOXX NOP49 22041 99782 10154 ///// 04691 26/// /2305 11072 29089 39474 90430 333 6///0
OOXX NOP49 22041 99782 10154 ///// 04691 26/// /2307 11073 29089 39472 90440 333 6///0
OOXX NOP49 22041 99782 10154 ///// 04691 26/// /2307 11072 29088 39471 90450 333 6///0
OOXX NOP49 22051 99782 10154 ///// 04691 26/// /2307 11071 29089 39471 90500 333 6///0
OOXX NOP49 22051 99782 10154 ///// 04691 26/// /2308 11074 29089 39470 90510 333 6///0
OOXX NOP49 22051 99782 10154 ///// 04691 26/// /2307 11075 29090 39470 90520 333 6///0
OOXX NOP49 22051 99782 10154 ///// 04691 26/// /2308 11071 29089 39466 90530 333 6///0
OOXX NOP49 22051 99782 10154 ///// 04691 26/// /2307 11074 29091 39466 90540 333 6///0
OOXX NOP49 22051 99782 10154 ///// 04691 26/// /2306 11072 29090 39465 90550 333 6///0
OOXX NOP49 22061 99782 10154 ///// 04691 26/// /2305 11071 29088 39464 90600 333 6///0
OOXX RUP58 22041 99442 11320 ///// 01121 26/// /0304 11093 29045 30004 90452 333 60000
OOXX RUP58 22051 99442 11320 ///// 01121 26/// /0203 11096 29047 30004 90502 333 60000
OOXX RUP58 22051 99442 11320 ///// 01121 26/// /0204 11096 29046 30005 90512 333 60000
OOXX RUP58 22051 99442 11320 ///// 01121 26/// /0205 11094 29045 30006 90522 333 60000
OOXX RUP58 22051 99442 11320 ///// 01121 26/// /0305 11096 29045 30005 90532 333 60000
OOXX RUP58 22051 99442 11320 ///// 01121 26/// /0204 11097 29046 30008 90542 333 60000
OOXX RUP58 22051 99442 11320 ///// 01121 26/// /0203 11097 29047 30008 90552 333 60000
OOXX RUP58 22061 99442 11320 ///// 01121 26/// /0304 11099 29047 30009 90602 333 60000
OOXX RUP58 22061 99442 11320 ///// 01121 26/// /0404 11102 29046 30011 90612 333 60000
OOXX RUP58 22061 99442 11320 ///// 01121 26/// /0204 11104 29046 30014 90622 333 60000
OOXX RUP58 22061 99442 11320 ///// 01121 26/// /0103 11106 29046 30016 90632 333 60000
OOXX RUP58 22061 99442 11320 ///// 01121 26/// /0205 11107 29047 30016 90642 333 60000
OOXX AUP09 22041 99124 31309 ///// 00321 26/// ///// 1//// 29/// 3//// 90414 333 6///0
OOXX AUP09 22041 99124 31309 ///// 00321 26/// ///// 1//// 29/// 3//// 90424 333 6///0
OOXX AUP09 22041 99124 31309 ///// 00321 26/// ///// 1//// 29/// 3//// 90434 333 6///0
OOXX AUP09 22041 99124 31309 ///// 00321 26/// ///// 1//// 29/// 3//// 90444 333 6///0
OOXX AUP09 22041 99124 31309 ///// 00321 26/// ///// 1//// 29/// 3//// 90454 333 6///0
OOXX AUP09 22051 99124 31309 ///// 00321 26/// ///// 1//// 29/// 3//// 90504 333 6///0
OOXX AUP09 22051 99124 31309 ///// 00321 26/// ///// 1//// 29/// 3//// 90514 333 6///0
OOXX AUP09 22051 99124 31309 ///// 00321 26/// ///// 1//// 29/// 3//// 90524 333 6///0
OOXX AUP09 22051 99124 31309 ///// 00321 26/// ///// 1//// 29/// 3//// 90534 333 6///0
OOXX AUP09 22051 99124 31309 ///// 00321 26/// ///// 1//// 29/// 3//// 90544 333 6///0
OOXX AUP09 22051 99124 31309 ///// 00321 26/// ///// 1//// 29/// 3//// 90554 333 6///0
OOXX AUP09 22061 99124 31309 ///// 00321 26/// ///// 1//// 29/// 3//// 90604 333 6///0
OOXX AUP07 22041 99/// ///// ///// ///// 26/// /2908 10081 29088 30208 90449 333 60000
OOXX AUP07 22041 99/// ///// ///// ///// 26/// /2907 10079 29088 30208 90459 333 60000
OOXX AUP07 22051 99/// ///// ///// ///// 26/// /2907 10078 29088 30207 90509 333 60000
OOXX AUP07 22051 99/// ///// ///// ///// 26/// /2908 10076 29089 30208 90519 333 60000
OOXX AUP07 22051 99/// ///// ///// ///// 26/// /2907 10075 29089 30207 90529 333 60000
OOXX AUP07 22051 99/// ///// ///// ///// 26/// /2908 10077 29089 30207 90539 333 60000
OOXX AUP07 22051 99/// ///// ///// ///// 26/// /2907 10075 29089 30207 90549 333 60000
OOXX AUP07 22051 99/// ///// ///// ///// 26/// /2908 10077 29089 30206 90559 333 60000
OOXX AUP07 22061 99/// ///// ///// ///// 26/// /2908 10077 29088 30205 90609 333 60000
OOXX AUP07 22061 99/// ///// ///// ///// 26/// /3008 10075 29088 30205 90619 333 60000
OOXX AUP07 22061 99/// ///// ///// ///// 26/// /2908 10075 29089 30204 90629 333 60000
OOXX AUP07 22061 99/// ///// ///// ///// 26/// /3008 10075 29089 30203 90639 333 60000
OOXX GBP68 22041 99371 50123 ///// 00641 26/// /3506 10000 29092 30119 90410 333 60000
OOXX GBP68 22041 99371 50123 ///// 00641 26/// /3506 10000 29092 30120 90420 333 60000
OOXX GBP68 22041 99371 50123 ///// 00641 26/// /3506 10000 29092 30121 90430 333 60000
OOXX GBP68 22041 99371 50123 ///// 00641 26/// /3506 10000 29093 30120 90440 333 60000
OOXX GBP68 22041 99371 50123 ///// 00641 26/// /3506 10000 29093 30121 90450 333 60000
OOXX GBP68 22051 99371 50123 ///// 00641 26/// /3507 10000 29093 30120 90500 333 60000
OOXX GBP68 22051 99371 50123 ///// 00641 26/// /3507 10000 29093 30122 90510 333 60000
OOXX GBP68 22051 99371 50123 ///// 00641 26/// /3507 10000 29094 30124 90520 333 60000
OOXX GBP68 22051 99371 50123 ///// 00641 26/// /3507 10000 29094 30126 90530 333 60000
OOXX GBP68 22051 99371 50123 ///// 00641 26/// /3508 10000 29095 30126 90540 333 60000
OOXX GBP68 22051 99371 50123 ///// 00641 26/// /3507 10000 29095 30126 90550 333 60000
OOXX GBP68 22061 99371 50123 ///// 00641 26/// /3507 10000 29095 30127 90600 333 60000
OOXX ARP01 22041 99345 50585 ///// 00311 26/// /1403 10094 29042 30015 90410 333 60000
OOXX ARP01 22041 99345 50585 ///// 00311 26/// /1102 10094 29043 30016 90420 333 60000
OOXX ARP01 22041 99345 50585 ///// 00311 26/// /1102 10094 29043 30031 90430 333 60000
OOXX ARP01 22041 99345 50585 ///// 00311 26/// /1602 10095 29043 30026 90440 333 60000
OOXX ARP01 22041 99345 50585 ///// 00311 26/// /1103 10095 29043 30016 90450 333 60000
OOXX ARP01 22051 99345 50585 ///// 00311 26/// /1102 10096 29042 30009 90500 333 60000
OOXX ARP01 22051 99345 50585 ///// 00311 26/// /1103 10096 29042 30013 90510 333 60000
OOXX ARP01 22051 99345 50585 ///// 00311 26/// /1103 10097 29042 30015 90520 333 60000
OOXX ARP01 22051 99345 50585 ///// 00311 26/// /1103 10097 29041 30016 90530 333 60000
OOXX ARP01 22051 99345 50585 ///// 00311 26/// /1102 10098 29041 30012 90540 333 60000
OOXX ARP01 22051 99345 50585 ///// 00311 26/// /1103 10097 29041 39996 90550 333 60000
OOXX ARP01 22061 99345 50585 ///// 00311 26/// /1103 10095 29041 39998 90600 333 60000
OOXX KIP39 22041 99020 51574 ///// 00181 26/// /1004 10255 29079 30064 90430 333 60000
OOXX KIP39 22041 99020 51574 ///// 00181 26/// /1104 10254 29079 30066 90440 333 60000
OOXX KIP39 22041 99020 51574 ///// 00181 26/// /1004 10254 29079 30069 90450 333 60000
OOXX KIP39 22051 99020 51574 ///// 00181 26/// /1004 10255 29080 30068 90500 333 60000
OOXX KIP39 22051 99020 51574 ///// 00181 26/// /1004 10253 29080 30070 90510 333 60000
OOXX KIP39 22051 99020 51574 ///// 00181 26/// /1004 10254 29080 30073 90520 333 60000
OOXX KIP39 22051 99020 51574 ///// 00181 26/// /1004 10254 29081 30073 90530 333 60000
OOXX KIP39 22051 99020 51574 ///// 00181 26/// /1004 10254 29080 30074 90540 333 60000
OOXX KIP39 22051 99020 51574 ///// 00181 26/// /1004 10254 29080 30077 90550 333 60000
OOXX KIP39 22061 99020 51574 ///// 00181 26/// /1004 10254 29080 30078 90600 333 60000
OOXX KIP39 22061 99020 51574 ///// 00181 26/// /1004 10253 29080 30079 90610 333 60000
OOXX KIP39 22061 99020 51574 ///// 00181 26/// /0904 10254 29081 30081 90620 333 60000
OOXX ISP34 22041 99641 70219 ///// 01301 26/// /1001 10031 29001 39807 90410 333 6///0
OOXX ISP34 22041 99641 70219 ///// 01301 26/// /1201 10031 29001 39808 90420 333 6///0
OOXX ISP34 22041 99641 70219 ///// 01301 26/// /1701 10029 29001 39809 90430 333 6///0
OOXX ISP34 22041 99641 70219 ///// 01301 26/// /2501 10029 29001 39811 90440 333 6///0
OOXX ISP34 22041 99641 70219 ///// 01301 26/// /3102 10029 29001 39812 90450 333 6///0
OOXX ISP34 22051 99641 70219 ///// 01301 26/// /3002 10026 29001 39813 90500 333 6///0
OOXX ISP34 22051 99641 70219 ///// 01301 26/// /2602 10024 29001 39813 90510 333 6///0
OOXX ISP34 22051 99641 70219 ///// 01301 26/// /2702 10024 29001 39812 90520 333 6///0
OOXX ISP34 22051 99641 70219 ///// 01301 26/// /2502 10025 29001 39812 90530 333 6///0
OOXX ISP34 22051 99641 70219 ///// 01301 26/// /2302 10023 29001 39812 90540 333 6///0
OOXX ISP34 22051 99641 70219 ///// 01301 26/// /2301 10022 29001 39811 90550 333 6///0
OOXX ISP34 22061 99641 70219 ///// 01301 26/// /2501 10022 29001 39810 90600 333 6///0
OOXX FJP26 22041 99178 31775 ///// 00311 26/// /1405 10268 29082 30040 90420 333 60000
OOXX FJP26 22041 99178 31775 ///// 00311 26/// /1404 10256 29084 30041 90430 333 60000
OOXX FJP26 22041 99178 31775 ///// 00311 26/// /1103 10252 29085 30043 90440 333 60000
OOXX FJP26 22041 99178 31775 ///// 00311 26/// /1402 10248 29088 30044 90450 333 60000
OOXX FJP26 22051 99178 31775 ///// 00311 26/// /1102 10248 29088 30045 90500 333 60000
OOXX FJP26 22051 99178 31775 ///// 00311 26/// /0902 10245 29088 30046 90510 333 60000
OOXX FJP26 22051 99178 31775 ///// 00311 26/// /1203 10243 29088 30046 90520 333 60000
OOXX FJP26 22051 99178 31775 ///// 00311 26/// /0903 10242 29087 30048 90530 333 60000
OOXX FJP26 22051 99178 31775 ///// 00311 26/// /0903 10240 29088 30048 90540 333 60000
OOXX FJP26 22051 99178 31775 ///// 00311 26/// /1003 10240 29088 30048 90550 333 60000
OOXX FJP26 22061 99178 31775 ///// 00311 26/// /1003 10239 29089 30049 90600 333 60000
OOXX FJP26 22061 99178 31775 ///// 00311 26/// /1003 10239 29090 30049 90610 333 60000
AAXX 22061 40001 32970 30806 10106 21009 40211 53007 83050 333 20096 30/// 83360
AAXX 22061 40007 32560 50603 10071 20046 40205 50001 83550 333 20039 30/// 83630 85360
AAXX 22061 40025 32560 40702 10114 20094 40175 54000 84800 333 20100 32/// 70017 82826 84630
AAXX 22061 40045 31550 53503 10078 20022 40204 53002 71000 82550 333 20057 30/// 82630 85360
AAXX 22061 40061 32970 02301 10054 20028 40199 51012 333 20044 30///
AAXX 22061 40080 31902 00000 10018 20018 39471 40196 50006 74000 333 21015 30///
AAXX 22061 40087 NIL
AAXX 22061 40095 NIL
AAXX 22061 40009 32570 30000 10060 20027 57007 83500 333 20042 30/// 83630
AAXX 22061 40016 32570 50000 10048 20024 40243 51020 85500 333 20040 31/// 85630
AAXX 22061 40022 11565 50803 10128 20070 40171 58005 69902 70262 85800 222// 20000 333 20124 30/// 83830 85632
AAXX 22061 40030 31560 50000 10060 20035 40197 53002 71011 83550 333 20047 31/// 83630 85360
AAXX 22061 40039 32970 20000 10032 20022 40198 51004 82050 333 20020 30/// 82360
AAXX 22061 40066 32570 30702 10118 20068 40170 57003 83400 333 20110 30/// 83626
AAXX 22061 40072 32970 00000 10090 20018 40212 53004
AAXX 22061 40083 32570 52901 10028 21003 48488 51003 85800 333 20020 30/// 82826 84630
AAXX 22061 40083 32570 52901 10028 48488 56003 85800 333 20020 30/// 82826 84826 84630
AAXX 22064 60107 32960 01806 10087 20050 40266 52004 333 20075 30006
OOXX AAMIZ 22064 99707 30443 58304 22602 46/// /0922 11164 2//// 37423 49655 52011 90550
AAXX 22064 91559 46/// /0503 10269 40056 22200 00284
AAXX 22064 71473 16/// /1008 10020 21004 30308 40339 55000 60001 333 10055 20014 70000 555 33321 40101
AAXX 22064 71475 16/// /0000 11005 21006 30253 40350 58002 60001 333 10027 21010 70000
AAXX 22064 71765 16/// /0105 11051 21058 30054 40338 58012 60001 333 10035 21053 70000
AAXX 22064 71782 46/// /0103 11115 21123 38962 40340 53010 6///1 333 11011 21115 7////
AAXX 22064 71786 46/// /2410 11116 21129 38441 40335 51002 6///1 333 11058 21119 7////
AAXX 22064 71388 46/// /3003 11033 21048 39859 40048 53004 6///1 333 11015 21160 7////
AAXX 22064 71028 16/// /3503 11098 21116 39244 40318 58008 60001 333 10005 21119 70000
AAXX 22064 71042 16/// /0401 11035 21038 30333 40337 53003 60001 333 10066 21035 70000
AAXX 22064 71557 46/// /0802 11096 21104 6///1 333 10014 21102 7////
AAXX 22064 71710 17/// /1718 10030 20020 30046 40055 58049 60051 7//4/ 333 10030 21056 70060 555 31729 40062
AAXX 22064 71713 16/// /0702 11013 21023 60001 333 10002 21072 70000 555 32223 40081
AAXX 22064 71721 17/// /2902 11019 21024 39823 40070 53030 60031 7//4/ 333 11018 21080 70030
AAXX 22064 71741 16/// /1101 11053 21088 39901 40335 55007 60001 333 10046 21056 70000 555 32922 40101
AAXX 22064 71914 16/// /0000 10009 21002 30117 40344 53006 60001 333 10045 20008 70000
AAXX 22064 71112 16/// ///// 60001 333 70000
AAXX 22064 71113 16/// /0402 10016 21023 30321 40345 53005 60001 333 10062 20015 70006 555 30418 40221
AAXX 22064 71605 16/// /0102 10010 21029 30184 40338 53004 60001 333 10060 20003 70000
AAXX 22064 71883 46/// /0000 11103 21111 39504 40360 55000 6///1 333 11031 21138 7////
AAXX 22064 71302 16/// /1911 11036 21079 39444 40284 57001 60001 333 11006 21102 70000 555 31819 40051
AAXX 22064 71505 16/// /3402 11027 21061 39340 40063 56008 60001 333 10030 21065 7////
AAXX 22064 71201 16/// ///// 10015 21025 60001 333 10074 20012 70000
AAXX 22064 71215 46/// /1101 11070 21097 39996 40355 51014 6///1 333 10056 21071 7////
AAXX 22064 71883 46/// /0000 11103 21111 39504 40360 55000 6///1 333 11031 21138 7////
AAXX 22064 87534 32960 00000 10199 20185 39885 40039 52009
BBXX CFO383 22064 99439 70602 47697 /1730 10087 2007/ 40134 5//// 751// 8//// 22200 00072 10604 2//// 3//// 70018 80077 91034
BBXX CFO383 22064 99439 70602 47697 /1730 10087 2007/ 40134 5//// 751// 8//// 22200 00072 10604 2//// 3//// 70018 80077 91034
AAXX 22064 91531 46/// /0707 1//// 40023 22200 00279
BBXX MINUK03 2206/ 99547 70003 46/// ///// 10105 40158 52021
AAXX 22061 11212 11/65 6//// 11096 21109 37798 48488 53011 69932 77132 86700 333 21100 42017 817// 85720 92610 93197 444 16080
AAXX 22064 71016 16/// ///// 11033 60001 333 11006 21100 70000
AAXX 22064 71539 16/// /2615 11049 21071 39543 40258 58003 60001 333 10007 21092 70003 555 32722 40031
BBXX 46109 22061 99481 71234 46/// /1503 10042 40337 90557 22200 00078
BBXX 46110 22061 99481 71230 46/// /1603 10035 40338 90558
BBXX 44056 22061 99362 70757 46/// ///// 1//// 90620 22200 00126 10702 20702 309// 41101 70008
BBXX 44055 22061 99391 70753 46/// ///// 1//// 90630 22200 00090 10401 70004
AAXX 22064 91642 46/// /0000 1//// 40045 22200 0////
AAXX 22064 16090 12960 03303 11030 21033 30115 40202 52014 60002 333 21034 34/// 55053 20470 92611
AAXX 22064 60367 11560 7//// 10106 20094 40194 53006 60124 760// 878// 333 0//// 20102 83820 87840
AAXX 22064 42398 31394 49903 10147 20115 40162 71042 82600 333 59014
AAXX 22064 89332 46/// /0914 11041 39200 49806 57040 90630
AAXX 22064 89828 46/// /1404 11201 36455 4//// 52002 90640
BBXX 44056 22061 99362 70757 46/// ///// 1//// 90620 22200 00126 10702 20702 309// 41101 70008
BBXX 44055 22061 99391 70753 46/// ///// 1//// 90630 22200 00090 10401 70004
BBXX 46109 22061 99481 71234 46/// /1503 10042 40337 90557 22200 00078
BBXX 46110 22061 99481 71230 46/// /1603 10035 40338 90558
BBXX CFO383 22064 99439 70602 47697 /1730 10087 2007/ 40134 5//// 751// 8//// 22200 00072 10604 2//// 3//// 70018 80077 91034
BBXX MINUK03 2206/ 99547 70003 46/// ///// 10105 40158 52021
BBXX 66022 22061 99541 10142 46/// /2105 10018 30180 22200 00033
AAXX 22061 11204 12670 73201 11020 21029 39418 40237 52016 69902 8557/ 333 10024 21021 43002 85640 555 10036 6000/
AAXX 22061 10729 07256 81902 10035 20035 30121 40246 50001 69902 72365 333 10035 20025 3/001 55000 55300 20000 30000 69907 70001 87/05 87/21 88/58
AAXX 22064 60686 12960 20405 10062 21058 40213 52008 60004 80002 333 00400 20060 82073
AAXX 22061 03953 12375 82005 10116 20102 30215 40252 57009 69902 885// 333 20105 31007 55004 82709 88628 92428
AAXX 22064 43333 31495 70510 10300 20246 40102 70522 83471 333 56199 58002 82616 83818 85458
AAXX 22063 63658 32580 60903 10240 20149 38892 48523 81107 3333 20184 58006 81820 86280 5555 10184
AAXX 22061 03953 12375 82005 10116 20102 30215 40252 57009 69902 885// 333 20105 31007 55004 82709 88628 92428
AAXX 22064 61017 31958 51025 10167 21005 39760 40174 7072/ 80002 333 00100 20070 50434 55099 58010 85080
AAXX 22064 61024 32960 30408 10160 21024 39594 40160 80002 333 00800 20130 51501 58017 83080
AAXX 22064 61036 32965 70406 10195 21028 39899 40138 80008 333 01800 20194 51001 50864 55101 58011 87280
AAXX 22064 61043 32960 70610 10170 21047 39703 40146 80008 333 0//00 20169 51321 55103 58018 87280
AAXX 22064 61045 32965 70602 10150 21039 39656 40160 80008 333 01200 20150 50734 55103 58010 87280
AAXX 22064 61049 32960 70000 10150 21004 39822 40146 80008 333 01500 20150 50991 50724 55104 58015 87280
AAXX 22064 61052 32960 53606 10170 21002 39884 40142 80002 333 01400 20160 50891 55101 58005 85080
AAXX 22064 61075 32960 51002 10195 21030 39830 40140 80002 333 01700 20194 50681 50694 55103 58015 85080
AAXX 22064 61080 32960 70804 10142 21020 39715 40149 80008 333 01200 20140 50951 50954 55102 58008 87280
AAXX 22064 61090 32960 50204 10162 21046 39634 40149 80002 333 01400 20160 51111 50784 55107 58010 85080
AAXX 22064 61091 32965 50000 10120 20032 39701 40163 80002 333 00700 20119 50581 50494 55104 58010 85080
AAXX 22064 61096 31940 73602 10155 21045 39769 40155 70522 80008 333 01400 20150 50861 50784 55102 58010 87280
AAXX 22064 61099 32960 70206 10200 20013 39890 40119 80008 333 01600 20195 50971 55100 58005 87280
AAXX 22064 63729 12480 30000 10200 20180 38882 48/// 60254 8293/ 333 0//29 20175 50191 55034 55300 58004 82818 81920 83358
AAXX 22064 63733 12580 70000 10223 20195 38876 48516 60024 81931 333 0//19 20185 5///1 55042 55300 58001 81921 87359
AAXX 22064 63756 11480 70909 10212 20196 38880 48514 60594 70296 8597/ 333 0//94 20170 50211 55059 55300 59002 85818 81920 87360
AAXX 22064 63791 32580 51110 10260 20185 39139 48527 83203 333 20210 50801 55073 55310 58000 83826
AAXX 22064 63801 32580 70000 10218 20197 39215 48531 8197/ 333 20198 50151 55055 55300 59012 81820 81921 87358
AAXX 22064 63832 32481 60605 10210 20193 38839 48505 82930 333 20199 50901 55057 55305 59004 82818 81920 85358
AAXX 22064 63866 12580 80000 10237 20218 39535 48/// 60104 8455/ 333 0//19 20228 50251 55038 55300 58006 84620 88358
AAXX 22064 63870 11458 80310 10240 20233 30116 40134 60384 76199 8597/ 333 0//91 20231 50011 55000 55300 58010 85812 81915 88457
AAXX 22064 63881 12480 51003 10190 20149 38206 48/// 69954 82933 333 20146 50301 55042 55308 59009 82616 81919 85075
AAXX 22064 63887 12280 70209 10185 20170 38604 48525 60054 8367/ 333 0//15 20170 50211 55016 55300 58002 81706 83819 86358
AAXX 22064 63932 12580 60508 10194 20163 38313 48510 60054 81102 333 0//19 50181 55034 55310 59010 81822 86078
AAXX 22064 63971 32580 53610 10266 20242 39991 40120 8223/ 333 20220 50351 55037 55300 58002 82820 85358
AAXX 22064 63862 NIL
AAXX 22064 63894 NIL
AAXX 22064 63962 NIL
AAXX 22064 61017 31958 51025 10167 21005 39760 40174 7072/ 80002 333 00100 20070 50434 55099 58010 85080
AAXX 22064 61024 32960 30408 10160 21024 39594 40160 80002 333 00800 20130 51501 55/// 58017 83080
AAXX 22064 61036 32965 70406 10195 21028 39899 40138 80008 333 01800 20194 51001 50864 55101 58011 87280
AAXX 22064 61043 32960 70610 10170 21047 39703 40146 80008 333 0//00 20169 51321 55103 58018 87280
AAXX 22064 61045 32965 70602 10150 21039 39656 40160 80008 333 01200 20150 50734 55103 58010 87280
AAXX 22064 61049 32960 70000 10150 21004 39822 40146 80008 333 01500 20150 50991 50724 55104 58015 87280
AAXX 22064 61052 32960 53606 10170 21002 39884 40142 80002 333 01400 20160 50891 55101 58005 85080
AAXX 22064 61075 32960 51002 10195 21030 39830 40140 80002 333 01700 20194 50681 50694 55103 58015 85080
AAXX 22064 61080 32960 70804 10142 21020 39715 40149 80008 333 01200 20140 50951 50954 55102 58008 87280
AAXX 22064 61090 32960 50204 10162 21046 39634 40149 80002 333 01400 20160 51111 50784 55107 58010 85080
AAXX 22064 61091 32965 50000 10120 20032 39701 40163 80002 333 00700 20119 50581 50494 55104 58010 85080
AAXX 22064 61096 31940 73602 10155 21045 39769 40155 70522 80008 333 01400 20150 50861 50784 55102 58010 87280
AAXX 22064 61099 32960 70206 10200 20013 39890 40119 80008 333 01600 20195 50971 55100 58005 87280
AAXX 22064 71309 16/// /3005 11159 21183 30120 40132 51026 60001 333 11004 21159 70017 555 10020 20017 33417 40211
AAXX 22064 71026 16/// /2310 11107 21130 39400 40281 57004 60001 333 7////
BBXX 42043 22061 99290 70949 46/// /0306 1//// 40113 90600 22200 00170 333 91207
AAXX 22064 67002 12580 42803 10294 20242 30100 40133 60154 82972 333 20233 59003 81923 92408
AAXX 22064 67009 32582 50000 10310 20238 30013 40132 52011 85200 333 02200 10320 20230 50394 55090 85820
AAXX 22064 67012 32582 30000 10303 20254 30112 40123 51012 82232 333 0//00 10316 20250 50284 55/// 82820 555 81360 82075
AAXX 22064 67025 NIL
AAXX 22064 67027 32582 11408 10296 20213 30106 40127 52017 81232 333 01900 10318 20242 50444 55114 81820 555 81360 81073
AAXX 22064 67045 NIL
AAXX 22064 67072 32581 60206 10301 20258 30131 40134 51014 86800 333 02500 10320 20269 50294 55/// 82817 86640 92418
AAXX 22064 67073 32582 2//// 10292 20222 30098 40124 51012 82800 333 0//00 10311 20236 50//4 55/// 82820 555 81633
AAXX 22064 67083 32482 40204 10229 20152 38753 48527 52011 84800 333 01600 20148 50045 55114 84817
AAXX 22064 67095 32481 50408 10306 20253 30117 40124 51012 84903 333 02200 10320 20237 50324 55/// 81917 84817
AAXX 22064 67113 32581 3//// 10302 20254 30/// 40/// 5//// 83800 333 0//00 10318 20238 50544 55/// 83820 555 81640
AAXX 22064 67117 NIL
AAXX 22064 67137 32480 3//04 10249 20160 38893 48501 51009 83202 333 0//00 10283 20176 50444 55/// 83817 555 81073
AAXX 22064 67143 11580 3//// 10/// 20/// 30110 40117 52014 60044 70360 83500 333 0//00 10/// 20/// 50//4 55/// 83633 92437
AAXX 22064 67152 12580 4//// 10229 20182 39193 48498 52014 60094 84200 333 01529 10282 20186 50304 55/// 84820
AAXX 22064 67157 11475 5//// 10/// 20/// 30127 40134 53009 60164 71562 85800 333 0//13 10/// 20/// 50//4 55/// 82817 85633
AAXX 22064 67161 12582 1//04 10285 20211 30097 40106 51006 69984 81200 333 0//00 10293 20195 50204 55/// 81820
AAXX 22064 67197 12580 60808 10279 20205 30103 40113 52018 60044 85830 333 01319 10293 20222 50274 55092 82820 84633 555 83360
BBXX A8SI8 22064 99355 10180 43498 72935 10140 2009/ 40140 52020 87360 22274 00170 20510 80110
AAXX 22064 92036 46/// /2903 10291 40018 22200 00318
BBXX 42045 22061 99262 70965 46/// /1706 10215 40099 90600 22200 00215 333 91207
BBXX 42046 22061 99279 70940 46/// /1307 1//// 40113 90600 22200 00226 333 91208
BBXX 42047 22061 99279 70936 46/// /1407 10215 20210 40112 90630 22200 00225 333 91207
BBXX 42047 22061 99279 70936 46/// /1306 10215 20210 40116 90600 22200 00225 333 91207
AAXX 22064 17310 11970 40801 10127 20088 30167 40174 56002 60072 70281 84030 333 20124 32010 55031 70105 84360 91107 92428
BBXX 46094 22061 99446 71243 46/// /0704 10059 90630
BBXX 46094 22061 99446 71243 46/// /0705 10053 90620
BBXX 46094 22061 99446 71243 46/// /0706 10052 90610
BBXX 46094 22061 99446 71243 46/// /0906 10053 90600
BBXX 46094 22061 99446 71243 46/// /0607 10054 90550
BBXX 46094 22061 99446 71243 46/// /0706 10055 90540
AAXX 22064 62305 32960 02011 10064 20039 40172 57006 333 20064
AAXX 22064 62306 32560 12203 10086 20005 40180 57001 81500 333 20073
AAXX 22064 62318 32960 02302 10105 20096 40186 52004 333 20090
AAXX 22064 62366 31920 02502 10134 20106 40193 52009 71000 333 20114
AAXX 22064 62393 32960 02804 10086 20045 40114 51014 333 20066
AAXX 22064 62405 31956 00000 10114 20060 40183 52015 70500 333 20076
AAXX 22064 62414 32960 30209 10136 20038 40191 52016 80001 333 20114
AAXX 22064 62417 32960 00000 10048 20016 40193 52005 333 20032
AAXX 22064 62440 31512 42602 10094 20085 40186 52003 71000 84500 333 20083
AAXX 22064 62463 32960 33010 10154 20111 40178 52010 80002 333 20128
AAXX 22064 62465 32960 32904 10163 20139 40162 52008 80004 333 20142
AAXX 22064 62419 NIL
AAXX 22064 62377 NIL
AAXX 22064 62305 32960 02011 10064 20039 40172 57006 333 20064
AAXX 22064 62306 32560 12203 10086 20005 40180 57001 81500 333 20073
AAXX 22064 62318 32960 02302 10105 20096 40186 52004 333 20090
AAXX 22064 62366 31920 02502 10134 20106 40193 52009 71000 333 20114
AAXX 22064 62393 32960 02804 10086 20045 40114 51014 333 20066
AAXX 22064 62405 31956 00000 10114 20060 40183 52015 70500 333 20076
AAXX 22064 62414 32960 30209 10136 20038 40191 52016 80001 333 20114
AAXX 22064 62417 32960 00000 10048 20016 40193 52005 333 20032
AAXX 22064 62440 31512 42602 10094 20085 40186 52003 71000 84500 333 20083
AAXX 22064 62463 32960 33010 10154 20111 40178 52010 80002 333 20128
AAXX 22064 62465 32960 32904 10163 20139 40162 52008 80004 333 20142
AAXX 22064 62419 NIL
AAXX 22064 62377 NIL
BBXX 62303 22064 99516 70051 46/// /2612 10118 20094 40262 57002 22200 00110 10604 70019
BBXX PJGO 22064 99571 10022 47597 /2608 10099 20091 40118 52021 700// 22200
BBXX 63110 22064 99595 10015 47596 /2816 10099 20085 40063 52023 700// 22200 10504 70020
BBXX 63106 22064 99610 10017 46/// /2817 10092 40031 52032 22200
BBXX 63113 22064 99610 10017 46/// /2814 10100 20067 40037 52027 22200 10606 70028
BBXX 62103 22064 99499 70029 46/98 /3126 10118 20090 40282 53006 22200 00123 10602 70012 333 90710 91133
BBXX 62095 22064 99531 70159 46/// /2023 10125 20113 40140 57023 22200 00113 10810 70049 333 90710 91134
AAXX 22064 93713 46/// /0000 10196 40237 22200 00153
AAXX 22064 60515 11560 43012 10120 20057 40256 58002 60004 700// 84800 333 00800 20095 84830 95990
AAXX 22064 08084 02670 62706 10104 20058 39891 40329 57003 60002 86700 333 20103 3/008 55006 60007 70000
AAXX 22064 62393 32960 02804 10086 20045 40207 51014 333 20066
AAXX 22064 42724 21494 73202 10142 20127 40163 71054 87600 333 59007 6990/ 84710 85618
AAXX 2206/ 89879 46/// ///// 10009 39755 4//// 5////
AAXX 22064 91689 46/// /0904 10271 40076 22200 00284
BBXX ZSAF 22064 99696 50078 41499 72503 11022 21052 49800 52008 70222 875// 22212 05015 2//// 30000 4//// 5//// ICE 10110
BBXX ZMFR 22064 99423 31739 43/// /06// 10152 20101 40279 57006 22212 00154
BBXX V2QD4 22063 99403 31770 41698 51010 10170 20154 40277 55010 70211 8/182 22253 00200 20401 314// 41402
BBXX ZMENA 22064 99368 31748 46/// ///// 10167 20137 40244 57010 22241
BBXX ZMFR 22064 99423 31739 43/// /06// 10152 20101 40279 57006 22212 00154
BBXX V2QD4 22063 99403 31770 41698 51010 10170 20154 40277 55010 70211 8/182 22253 00200 20401 314// 41402
BBXX ZMENA 22064 99368 31748 46/// ///// 10167 20137 40244 57010 22241
BBXX PHOB 22064 99051 10905 41/97 30510 10260 20246 40050 58021 70211 8/464 22223 00275 20301 303// 40502 5//// 80250
BBXX A8SI8 22064 99355 10180 43498 72935 10140 2009/ 40140 52020 87360 22274 00170 20510 80110
BBXX 46094 22061 99446 71243 46/// /0607 10054 90550
BBXX 46094 22061 99446 71243 46/// /0706 10055 90540
BBXX 46094 22061 99446 71243 46/// /0906 10053 90600
BBXX 46094 22061 99446 71243 46/// /0706 10052 90610
BBXX 46094 22061 99446 71243 46/// /0705 10053 90620
BBXX 46094 22061 99446 71243 46/// /0704 10059 90630
BBXX 42047 22061 99279 70936 46/// /1407 10215 20210 40112 90630 22200 00225 333 91207
BBXX 42047 22061 99279 70936 46/// /1306 10215 20210 40116 90600 22200 00225 333 91207
BBXX 42046 22061 99279 70940 46/// /1307 1//// 40113 90600 22200 00226 333 91208
BBXX 42045 22061 99262 70965 46/// /1706 10215 40099 90600 22200 00215 333 91207
BBXX 42043 22061 99290 70949 46/// /0306 1//// 40113 90600 22200 00170 333 91207
AAXX 22064 89257 46/// /2907 11139 21154 39727 49799 57011 90600
BBXX TBWUK34 22063 99379 10091 41598 62810 10144 20116 40165 53005 70152 86800 22263 00190 20301 329// 40703 5//// 80129
BBXX DANM 22064 99373 10065 41297 83531 10140 20126 40185 51018 79088 8/7// 22265 00150 20507 80132
BBXX A8SI8 22064 99355 10180 43498 72935 10140 2009/ 40140 52020 87360 22274 00170 20510 80110
BBXX MINUK01 2206/ 99599 70011 46/// ///// 10103 40054 57001
BBXX MINUK03 2206/ 99547 70003 46/// ///// 10105 40158 52021
BBXX MDGV9 22064 99493 70046 41/98 42618 10110 20090 40305 52030 70200 82790 22253 10803 70015 80100
AAXX 22061 10506 01259 82203 10030 20025 39627 40221 55001 60012 72052 886// 333 10030 20015 31001 55000 55300 20000 30000 69987 70012 88704
BBXX A8OZ3 31112 21184 99339 10260 43698 12520 10160 20150 40170 54000
AAXX 22064 89013 46/// /0711 11164 21197 37597 49586 52007 90550
AAXX 22064 89065 46/// /0603 11019 21026 39790 49868 57013 90550
AAXX 22064 89257 46/// /2907 11139 21154 39728 49800 57010 90550
AAXX 22064 89266 46/// /3314 11088 21097 39674 49814 57019 90550
AAXX 22064 89272 46/// /3312 11120 21141 38033 49668 52006 90550
BBXX SKEC 22061 99623 10199 46/// ///// 10010 40082 57006 22241 00081
AAXX 22061 98132 11456 80407 10217 20204 40157 57030 60041 76064 8527/ 333 56199 85816 88357
AAXX 22061 98133 11465 70405 10/// 20/// 40101 5//// 60021 71566 84550 222// 20703 333 56199 84618 86360
AAXX 22061 98222 31575 63603 10286 20244 40086 57029 70544 81260 333 56999 81820 86359
AAXX 22061 98233 31570 53603 10300 20247 40087 57033 70544 83370 333 56199 83920 85358
AAXX 22061 98324 31465 53203 10308 20245 40067 57027 70544 82261 333 56999 82816 84358
AAXX 22061 98327 31670 33604 10314 20194 39904 40077 57030 70544 81108 333 56999 81842 83280
AAXX 22061 98334 32480 51701 10290 20260 39888 40091 57030 82270 333 56999 82818 85358
AAXX 22061 98425 31562 72703 10298 20234 40069 57034 70544 84870 333 56999 84620 87358
AAXX 22061 98426 31570 22404 10301 20226 40077 57029 70544 82100 333 56999 81820
AAXX 22061 98427 11472 60202 10298 20242 39882 40059 57029 70682 83270 56199 83818 86357
AAXX 22061 98428 31462 73204 10310 20261 40073 57030 70544 82478 333 56999 82618 84359 85275
AAXX 22061 98432 30403 10320 20254 40068 57020 70544 82202 333 56999 82820
AAXX 22061 98433 31462 70203 10242 20223 39370 40089 57020 71544 86270 333 56199 86812
AAXX 22061 98434 21465 63602 10288 20254 30099 40117 58009 71586 83230 333 56199 60027 83817 85358
AAXX 22061 98435 NIL
AAXX 22061 98442 NIL
AAXX 22061 98446 32480 61202 10302 20276 30041 40087 57017 83208 333 56299 83818 86270
AAXX 22061 98447 31480 60702 10284 20256 39811 40073 5//// 71522 83202 333 56299 83818 85070
AAXX 22061 98538 31468 63603 10303 20253 30060 40065 58023 70544 82206 333 56199 82811 85072
AAXX 22061 98546 32575 50403 10303 20267 30057 40065 57023 82208 333 56199 82820 85275
AAXX 22061 98548 32480 62202 10300 20240 30050 40056 58034 84238 333 56199 84816 86272 98323
AAXX 22061 98553 NIL
AAXX 22061 98558 NIL
AAXX 22061 98642 31465 43603 10316 20252 30042 40051 57030 70544 81202 333 56199 81815 83072
AAXX 22061 98644 31465 60902 10310 20265 30042 40051 57035 70544 83260 333 56199 83817 86358
AAXX 22061 98648 31470 60902 10295 20254 39990 40072 57018 70544 82262 333 56299 82817 85072
AAXX 22061 98746 31462 70302 10329 20256 40068 58027 70544 82278 333 56699 82818 84358 86275
AAXX 22061 98751 31475 80401 10290 20232 39368 40037 57027 70544 8497/ 333 56999 84915 88356
AAXX 22061 98752 31462 82604 10297 20254 40060 57026 71542 8397/ 333 56999 83916 88358
AAXX 22061 98851 31470 60403 10324 20239 39892 40039 57031 70544 82266 333 56199 82818 83358 85075
AAXX 22064 89065 46/// /0603 11019 21026 39790 49868 57013 90550
BBXX 63110 22063 99595 10015 41/97 /2821 10099 40057 700// 8//// 22200 10604 70020
BBXX 63106 22064 99610 10017 46/// /2817 10092 40031 52032 22200
BBXX 63105 22064 99610 10017 47596 ///// 10100 20065 40031 52031 700// 22200
BBXX 62103 22064 99499 70029 46/98 /3127 10118 20093 40276 52002 22200 00123 10602 70012 333 90710 91132
BBXX 62303 22064 99516 70051 46/// /2613 10118 20094 40262 57002 22200 00110 10604 70019
BBXX 62095 22064 99531 70159 46/// /2023 10125 20111 40140 57023 22200 00113 10810 70049 333 90710 91134
BBXX 64049 22063 99571 10022 41/97 72615 10103 20091 40114 54000 70211 8//// 22200 04094 20602 326// 40604 5//// 80097
BBXX 42013 22061 99272 70829 46/// ///// 1//// 40189 90620 22200 00199
BBXX 42013 22061 99272 70829 46/// ///// 1//// 40189 57005 90600 22200 00199
BBXX ZSAF 22064 99696 50078 41499 72503 11022 21052 49800 52008 70222 875// 22212 05015 2//// 30000 4//// 5//// ICE 10110
BBXX SKEC 22061 99623 10199 46/// ///// 10010 40082 57006 22241 00081
BBXX ZMFR 22064 99423 31739 43/// /06// 10152 20101 40279 57006 22212 00154
BBXX V2QD4 22063 99403 31770 41698 51010 10170 20154 40277 55010 70211 8/182 22253 00200 20401 314// 41402
BBXX ZMENA 22064 99368 31748 46/// ///// 10167 20137 40244 57010 22241
BBXX PBKH 22064 99289 71333 41597 40717 10170 21048 40248 52015 70211 8456/ 22224 00200 299// 310// 40506 5//// 80085
AAXX 22064 71408 46/// /1926 10026 21004 30084 40164 5/015 6///1 333 7////
BBXX 42369 22061 99272 70903 46/// /1707 1//// 90540 22200 10603 70014
BBXX 42370 22061 99273 70905 46/// ///// 10229 90540 22200 10502 70011
BBXX 42376 22061 99291 70879 46/// /1208 10233 40139 90540 22200 10603 70016
BBXX 42887 22061 99282 70885 46/// /1105 1//// 90540 22200 10603 70015
BBXX 42369 22061 99272 70903 46/// /1707 1//// 90540 22200 10603 70014
BBXX 42376 22061 99291 70879 46/// /1208 10233 40139 90540 22200 10603 70016
BBXX 42370 22061 99273 70905 46/// ///// 10229 90540 22200 10502 70011
BBXX 42887 22061 99282 70885 46/// /1105 1//// 90540 22200 10603 70015
BBXX 9HXC9 22064 99184 70655 41396 60832 10249 20174 40161 55003 7//11 86540 22274 04279 20604 3//// 40903 5//// 6//// 80199 ICE /////
BBXX 42013 22061 99272 70829 46/// ///// 1//// 40189 90620 22200 00199
BBXX 42013 22061 99272 70829 46/// ///// 1//// 40189 57005 90600 22200 00199
BBXX ONAN 22064 99176 11668 41/98 80919 10270 2026/ 40120 54/// 76166 88/// 22213 04270 20604 307// 40604 5//// 6//// 80260 ICE /////
BBXX ONAN 22064 99176 11668 41/98 80919 10270 2026/ 40120 54/// 76166 88/// 22213 04270 20604 307// 40604 5//// 6//// 80260 ICE /////
AAXX 22064 60105 32950 01206 10080 20075 40287 5//// 333 20076 31003
BBXX 62303 22064 99516 70051 46/// /2612 10118 20094 40262 57002 22200 00110 10604 70019
BBXX PJGO 22064 99571 10022 47597 /2608 10099 20091 40118 52021 700// 22200
BBXX 63110 22064 99595 10015 47596 /2816 10099 20085 40063 52023 700// 22200 10504 70020
BBXX 63106 22064 99610 10017 46/// /2817 10092 40031 52032 22200
BBXX 63113 22064 99610 10017 46/// /2814 10100 20067 40037 52027 22200 10606 70028
BBXX 62103 22064 99499 70029 46/98 /3126 10118 20090 40282 53006 22200 00123 10602 70012 333 90710 91133
BBXX 62095 22064 99531 70159 46/// /2023 10125 20113 40140 57023 22200 00113 10810 70049 333 90710 91134
AAXX 22061 08540 31/01 91702 10060 20060 30228 40299 56005 74544 333 20060 50054 55043 89/01 555 60007 96645
AAXX 22061 08512 12465 51706 10172 20169 30180 40265 57002 60012 85800 333 20159 30016 5//// 55048 20730 82810 83814 91110
AAXX 22061 08512 12465 51706 10172 20169 30180 40265 57002 60012 85800 333 20159 30016 5//// 55048 20730 82810 83814 91110 555 60005
BBXX A8CG7 22060 99082 31266 41397 62705 10290 20249 40020 56030 70322 83770 22224 04300 20402 80260
BBXX A8HJ8 22063 99012 11034 41396 80105 10288 20243 40090 54000 70222 83710 22200 00/// 20401 80255
BBXX AUYK 22064 99226 11228 44196 80332 10200 20170 4//// 54000 72020 88200 22213 00260 29908
BBXX C6TL7 22061 99292 30336 41697 30908 10260 20199 40110 54000 70200 831// 22264 00/// 20401 309// 40601 80220
BBXX VRGW2 22064 99229 11172 41296 40521 10180 20165 40182 56028 70111 8/62/ 22253 04190 21404 80171
BBXX V7SY6 22064 99058 10801 41898 72513 10260 20232 40240 56010 76165 86722 22233 00220 20502 32618 40502 50501 80240
BBXX VVPG 22063 99186 10711 41798 40412 10295 20272 40115 51005 70201 84021 22200 00/// 2////
BBXX ZQDI9 22063 99125 11128 41498 60321 10312 20241 40091 57040 70222 8471/ 22212 00/// 20803 302// 42106 80262
BBXX 3FUL2 22063 99331 11275 41598 63427 10060 20009 40250 58010 70282 85442 22214 04220 20405 332// 40606 80040
BBXX 9MBR8 22064 99121 11185 41698 30204 10318 20265 40073 54000 70110 82242 22244 00290 20101 303// 40202 80280
BBXX A8CG7 22060 99082 31266 41397 62705 10290 20249 40020 56030 70322 83770 22224 04300 20402 80260
BBXX A8HJ8 22063 99012 11034 41396 80105 10288 20243 40090 54000 70222 83710 22200 00/// 20401 80255
BBXX AUYK 22064 99226 11228 44196 80332 10200 20170 4//// 54000 72020 88200 22213 00260 29908
BBXX C6TL7 22061 99292 30336 41697 30908 10260 20199 40110 54000 70200 831// 22264 00/// 20401 309// 40601 80220
BBXX VRGW2 22064 99229 11172 41296 40521 10180 20165 40182 56028 70111 8/62/ 22253 04190 21404 80171
BBXX V7SY6 22064 99058 10801 41898 72513 10260 20232 40240 56010 76165 86722 22233 00220 20502 32618 40502 50501 80240
BBXX VVPG 22063 99186 10711 41798 40412 10295 20272 40115 51005 70201 84021 22200 00/// 2////
BBXX ZQDI9 22063 99125 11128 41498 60321 10312 20241 40091 57040 70222 8471/ 22212 00/// 20803 302// 42106 80262
BBXX 3FUL2 22063 99331 11275 41598 63427 10060 20009 40250 58010 70282 85442 22214 04220 20405 332// 40606 80040
BBXX 9MBR8 22064 99121 11185 41698 30204 10318 20265 40073 54000 70110 82242 22244 00290 20101 303// 40202 80280
AAXX 22061 08545 31057 30904 10085 20064 30219 40305 57007 71041 83600 333 20077 30003 50094 55062 20711 83701
AAXX 22061 08545 31057 30904 10085 20064 30219 40305 57007 71041 83600 333 20077 30003 50094 55062 20711 83701 555 60005
BBXX SHIP 22064 99141 31218 41/97 73007 10328 20228 40009 70266 222// 0//// 20201 328// 40101 5////
BBXX VNW6069 22063 99122 31230 41697 82504 10314 20246 40032 58002 70522 8377/ 22200 02308 2//// 80266
BBXX SHIP 22064 99141 31218 41/97 73007 10328 20228 40009 70266 222// 0//// 20201 328// 40101 5////
BBXX VNW6069 22063 99122 31230 41697 82504 10314 20246 40032 58002 70522 8377/ 22200 02308 2//// 80266
BBXX PDGS 22064 99322 71185 41/98 82614 10125 40170 51010 70222 8//// 22264 00160 2////
BBXX C6YZ5 22064 99261 70789 41698 51014 10240 2//// 40160 56/// 7//// 852// 222// 00260 20102 308// 4//// 5//// 6//// 8//// ICE /////
BBXX C6YZ5 22064 99261 70789 41698 51014 10240 2//// 40160 56/// 7//// 852// 222// 00260 20102 308// 4//// 5//// 6//// 8//// ICE /////
BBXX PDGS 22064 99322 71185 41/98 82614 10125 40170 51010 70222 8//// 22264 00160 2////
BBXX SHIP 22064 99121 11185 41698 30204 10318 20265 40073 54000 70110 82242 22244 00290 20101 303// 40202 80280
BBXX VRGW2 22064 99229 11172 41296 40521 10180 20165 40182 56028 70111 8/62/ 22253 04190 21404 80171
BBXX V7SY6 22064 99058 10801 41898 72513 10260 20232 40240 56010 76165 86722 22233 00220 20502 32618 40502 50501 80240
BBXX VVPG 22063 99186 10711 41798 40412 10295 20272 40115 51005 70201 84021 22200 00/// 2////
BBXX ZQDI9 22063 99125 11128 41498 60321 10312 20241 40091 57040 70222 8471/ 22212 00/// 20803 302// 42106 80262
BBXX 3FUL2 22063 99331 11275 41598 63427 10060 20009 40250 58010 70282 85442 22214 04220 20405 332// 40606 80040
BBXX AUYK 22064 99226 11228 44196 80332 10200 20170 4//// 54000 72020 88200 22213 00260 29908
BBXX A8CG7 22060 99082 31266 41397 62705 10290 20249 40020 56030 70322 83770 22224 04300 20402 80260
BBXX A8HJ8 22063 99012 11034 41396 80105 10288 20243 40090 54000 70222 83710 22200 00/// 20401 80255
BBXX C6TL7 22061 99292 30336 41697 30908 10260 20199 40110 54000 70200 831// 22264 00/// 20401 309// 40601 80220
BBXX C6TL7 22061 99292 30336 41697 30908 10260 20199 40110 54000 70200 831// 22264 00/// 20401 309// 40601 80220
AAXX 22064 16021 12989 42712 11030 21138 37950 48474 51008 60002 80002 333 21072 43026 55/// 2//// 92842
AAXX 22064 81225 11105 60000 10228 20228 40109 74611 86601 333 56209 59014 86702
AAXX 22064 81200 NIL
AAXX 22064 81202 NIL
AAXX 22064 81209 NIL
AAXX 22064 81251 NIL
AAXX 22064 81225 11105 60000 10228 20228 40109 74611 86601 333 56209 59014 86702
AAXX 22064 81200 NIL
AAXX 22064 81202 NIL
AAXX 22064 81209 NIL
AAXX 22064 81251 NIL
AAXX 22064 91375 46/// /0311 10242 40054 22200 00282
AAXX 22061 08561 31907 09901 10046 20046 30057 40298 56003 74640 333 20046 50204 55071 555 60007 96640 90305 90205 96646
BBXX 42369 22061 99272 70903 46/// /1707 1//// 90600 22200 10503 70014
BBXX 42370 22061 99273 70905 46/// ///// 10231 90600 22200 10502 70010
BBXX 42376 22061 99291 70879 46/// /1310 10232 40140 90600 22200 10503 70016
BBXX 42887 22061 99282 70885 46/// /1104 1//// 90600 22200 10603 70016
AAXX 22064 91165 12566 40619 10228 20189 30142 40175 51023 69951 90553
AAXX 22064 91203 32474 60709 10311 20262 30058 40063 56017 82171
AAXX 22064 91212 32566 20814 10289 20222 31323 40061 56014 90554
AAXX 22064 91245 32566 40716 10270 20200 30123 90559
AAXX 22064 91285 32466 80906 10220 20200 30148 90614
AAXX 22064 91317 32474 80910 10294 20272 30016 40020 82202
AAXX 22064 91334 11474 80310 10280 20247 30032 40035 56010 60011 70282 83321
AAXX 22064 91348 11474 80808 10283 20246 30003 40056 53002 60041 72582 86271
AAXX 22064 91376 32474 80611 10280 20234 30052 40056 53003 8487/
AAXX 22064 91408 11474 80912 10314 20257 30000 40038 57015 60011 70282 83278
AAXX 22064 91413 32469 40910 10301 20240 30012 40037 57019 82101
AAXX 22064 91155 NIL
AAXX 22064 91217 NIL
AAXX 22064 91232 NIL
AAXX 22064 91250 NIL
AAXX 22064 91275 NIL
AAXX 22064 91324 NIL
AAXX 22064 91339 NIL
AAXX 22064 91353 NIL
AAXX 22064 91356 NIL
AAXX 22064 91366 NIL
AAXX 22064 91367 NIL
AAXX 22064 91369 NIL
AAXX 22064 91371 NIL
AAXX 22064 91378 NIL
AAXX 22064 91425 NIL
AAXX 22064 91434 NIL
AAXX 22064 91601 NIL
AAXX 22064 91610 NIL
BBXX 63110 22063 99595 10015 41/97 /2821 10099 40057 700// 8//// 22200 10604 70020
BBXX 63106 22064 99610 10017 46/// /2817 10092 40031 52032 22200
BBXX 63105 22064 99610 10017 47596 ///// 10100 20065 40031 52031 700// 22200
BBXX 62103 22064 99499 70029 46/98 /3127 10118 20093 40276 52002 22200 00123 10602 70012 333 90710 91132
BBXX 62303 22064 99516 70051 46/// /2613 10118 20094 40262 57002 22200 00110 10604 70019
BBXX 62095 22064 99531 70159 46/// /2023 10125 20111 40140 57023 22200 00113 10810 70049 333 90710 91134
BBXX 64049 22063 99571 10022 41/97 72615 10103 20091 40114 54000 70211 8//// 22200 04094 20602 326// 40604 5//// 80097
AAXX 22064 91245 32566 40716 10270 20200 30123 90559
AAXX 22064 91165 12566 40619 10228 20189 30142 40175 51023 69951 90553
AAXX 22064 91212 32566 20814 10289 20222 31323 40061 56014 90554
AAXX 22064 91285 32466 80906 10220 20200 30148 90614
AAXX 22064 91317 32474 80910 10294 20272 30016 40020 82202
AAXX 22064 91334 11474 80310 10280 20247 30032 40035 56010 60011 70282 83321
AAXX 22064 91348 11474 80808 10283 20246 30003 40056 53002 60041 72582 86271
AAXX 22064 91376 32474 80611 10280 20234 30052 40056 53003 8487/
AAXX 22064 91408 11474 80912 10314 20257 30000 40038 57015 60011 70282 83278
AAXX 22064 91413 32469 40910 10301 20240 30012 40037 57019 82101
BBXX WRAH 22063 99319 70348 41698 21509 10200 2//// 40200 54000 71561 824// 22264 00223 20202 330// 40605 5//// 6//// 8//// ICE /////
BBXX 42887 22061 99282 70885 46/// /1104 1//// 90600 22200 10603 70016
BBXX 42376 22061 99291 70879 46/// /1310 10232 40140 90600 22200 10503 70016
BBXX 42369 22061 99272 70903 46/// /1707 1//// 90600 22200 10503 70014
BBXX 42370 22061 99273 70905 46/// ///// 10231 90600 22200 10502 70010
BBXX SHIP 22064 99141 31218 41/97 73007 10328 20228 40009 70266 222// 0//// 20201 328// 40101 5////
BBXX VNW6069 22063 99122 31230 41697 82504 10314 20246 40032 58002 70522 8377/ 22200 02308 2//// 80266
BBXX WRAH 22063 99319 70348 41698 21509 10200 2//// 40200 54000 71561 824// 22264 00223 20202 330// 40605 5//// 6//// 8//// ICE /////
AAXX 22061 14122 11950 22701 11044 21048 30022 40229 52016 60002 710// 81031 333 21047 34/// 70000
AAXX 22064 60421 11456 83013 10088 20080 39161 48506 56002 60084 761// 882// 333 005// 20071 88826 95970
BBXX 3FUL2 22063 99331 11275 41598 63427 10060 20009 40250 58010 70282 85442 22214 04220 20405 332// 40606 80040
BBXX ONFP 22064 99194 30679 43797 71124 10280 2024/ 40160 54000 7//11 87131 22213 04258 20306 31111 40306 50306 6//// 80250 /////
AAXX 22064 71734 16/// /3003 11018 21028 39681 40072 51013 60001 333 11005 21048 70000 555 32017 40171
AAXX 22064 71783 16/// /3403 10016 20006 30262 40337 53005 60001 333 10062 21003 70000
AAXX 22064 67215 32580 23009 10270 20231 30131 82100 333 20240 5///0 55110 59004 94317 555 10041
AAXX 22064 67223 32580 40000 10255 20213 39546 48552 84200 333 20/// 50270 55105 59004 94320 555 10012
AAXX 22064 67231 32580 43601 10258 20191 39416 48472 84200 333 20184 5///0 55/// 59016 94320 555 10000
AAXX 22064 67237 32570 40809 10267 20200 40126 84130 333 20221 5///0 55110 59011 94322 555 10000
AAXX 22064 67241 32580 52704 10303 20258 40112 85200 333 20243 5///0 55083 59007 94356 555 10000
AAXX 22064 67273 32580 13003 10292 20221 40074 81100 333 20242 5///0 55/// 59009 94318 555 10000
AAXX 22064 67283 32980 00207 10231 20157 40126 333 20172 5///0 55124 59016 94300 555 10000
AAXX 22064 67295 32980 13408 10229 20152 39357 48527 80002 333 20150 50760 55122 59027 94300 555 10000
AAXX 22064 67297 32570 1//// 10278 20213 40110 81230 333 20220 50290 55115 59023 94320 555 10000
AAXX 22064 67301 32580 10402 10224 20174 39025 48/// 81100 333 20174 50/// 55/// 59021 94310 555 10000
AAXX 22064 67315 32580 20807 10276 20195 40118 52015 82100 333 20225 5///0 55113 94310 555 10000
AAXX 22064 67335 32980 03607 10262 20197 40099 50014 333 20/// 50/// 55129 94300 555 10000
AAXX 22064 71783 16/// /3403 10016 20006 30262 40337 53005 60001 333 10062 21003 70000
AAXX 22064 71734 16/// /3003 11018 21028 39681 40072 51013 60001 333 11005 21048 70000 555 32017 40171
BBXX A8AF6 22063 99247 70172 41998 10912 10195 20089 40245 57010 70100 80005 22243 02195 20202 305// 40603 80135
AAXX 22064 60185 32960 /0803 10076 20063 40288 5//// 8//// 333 20072 30003 8////
BBXX A8AF6 22063 99247 70172 41998 10912 10195 20089 40245 57010 70100 80005 22243 02195 20202 305// 40603 80135
AAXX 22064 64500 32360 61806 10255 20230 30109 40122 86500 333 02500 20245 50131 55060 59002 84608 86633
AAXX 22064 CHECK TEXT NEW ENDING ADDED GOOOYFYX
BBXX 42043 22061 99290 70949 46/// /0406 1//// 40107 90630 22200 00170 333 91208
BBXX 42044 22061 99262 70971 46/// /2806 10168 20157 40100 90630 22200 00173 333 91209
BBXX 42044 22061 99262 70971 46/// /2504 10179 20168 40100 90600 22200 00174 333 91206
BBXX 42045 22061 99262 70965 46/// /2105 10207 40097 90630 22200 00215 333 91206
BBXX 42046 22061 99279 70940 46/// /1307 1//// 40106 90630 22200 00226 333 91208
BBXX A8VL8 22064 99049 10989 41598 81109 10300 20260 40080 54/// 70322 8878/ 22233 00300 20502 309// 4//// 5//// 6//// 80270 ICE /////
BBXX A8AF6 22063 99247 70172 41998 10912 10195 20089 40245 57010 70100 80005 22243 02195 20202 305// 40603 80135
BBXX UGOD 22061 99493 11531 41495 43310 11015 40202 55011 72271 84260 22213 00025 20402 30300 40604
BBXX A8VL8 22064 99049 10989 41598 81109 10300 20260 40080 54/// 70322 8878/ 22233 00300 20502 309// 4//// 5//// 6//// 80270 ICE /////
BBXX 42046 22061 99279 70940 46/// /1307 1//// 40106 90630 22200 00226 333 91208
BBXX 42045 22061 99262 70965 46/// /2105 10207 40097 90630 22200 00215 333 91206
BBXX 42044 22061 99262 70971 46/// /2504 10179 20168 40100 90600 22200 00174 333 91206
BBXX 42044 22061 99262 70971 46/// /2806 10168 20157 40100 90630 22200 00173 333 91209
BBXX 42043 22061 99290 70949 46/// /0406 1//// 40107 90630 22200 00170 333 91208
BBXX 62303 22064 99516 70051 46/// /2612 10118 20094 40262 57002 22200 00110 10604 70019
BBXX PJGO 22064 99571 10022 47597 /2608 10099 20091 40118 52021 700// 22200
BBXX 63110 22064 99595 10015 47596 /2816 10099 20085 40063 52023 700// 22200 10504 70020
BBXX 63106 22064 99610 10017 46/// /2817 10092 40031 52032 22200
BBXX 63113 22064 99610 10017 46/// /2814 10100 20067 40037 52027 22200 10606 70028
BBXX 62103 22064 99499 70029 46/98 /3126 10118 20090 40282 53006 22200 00123 10602 70012 333 90710 91133
BBXX 62095 22064 99531 70159 46/// /2023 10125 20113 40140 57023 22200 00113 10810 70049 333 90710 91134
BBXX 42369 22061 99272 70903 46/// /1707 1//// 90620 22200 10503 70014
BBXX 42370 22061 99273 70905 46/// ///// 10231 90620 22200 10502 70010
BBXX 42370 22061 99273 70905 46/// ///// 10231 90620 22200 10502 70010
BBXX 42369 22061 99272 70903 46/// /1707 1//// 90620 22200 10503 70014
BBXX S6SR 22064 99101 50019 41699 81509 10220 20205 40140 56020 7//22 88/4/ 22213 00230 2//02 32020 41504 51504 6//// 80210 ICE /////
BBXX 52243 22061 99193 11666 46/// ///// 1//// 90600 22200 00264
BBXX 51179 22061 99143 51708 46/// ///// 1//// 90600 22200 00287
BBXX 51178 22061 99142 51695 46/// ///// 1//// 90600 22200 00286
BBXX 52246 22061 99152 11457 46/// ///// 1//// 90600 22200 00283
BBXX 51176 22061 99278 71758 46/// ///// 1//// 90600 22200 00240
BBXX 52245 22061 99181 11458 46/// ///// 1//// 90600 22200 00285
BBXX 51174 22061 99142 51697 46/// ///// 1//// 90600 22200 00286
BBXX 52244 22061 99200 11452 46/// ///// 1//// 90600 22200 00269
BBXX 51173 22061 99260 71739 46/// ///// 1//// 90600 22200 00246
BBXX 51172 22061 99284 71783 46/// ///// 1//// 90600 22200 00232
BBXX 51171 22061 99064 71623 46/// ///// 1//// 90600 22200 00279
BBXX 51170 22061 99168 71695 46/// ///// 1//// 90600 22200 00261
BBXX 51169 22061 99004 51600 46/// ///// 1//// 90600 22200 00258
BBXX 52248 22061 99135 11448 46/// ///// 1//// 90600 22200 00286
BBXX 42376 22061 99291 70879 46/// /1310 10232 40140 90620 22200 10503 70016
BBXX 42887 22061 99282 70885 46/// /1003 1//// 90620 22200 10603 70015
BBXX UGOD 22061 99493 11531 41495 43310 11015 40202 55011 72271 84260 22213 00025 20402 30300 40604
AAXX 22064 96839 32558 53505 10304 20246 30044 40051 57023 82132 333 56000 82822
AAXX 22064 96781 31456 72713 10288 20206 39252 48732 57018 70522 83231 333 56000 57802 83818 80818
AAXX 22061 01218 11785 81606 10052 21027 30017 40038 55004 69952 70382 84280 333 20022 43010 70007 91112
BBXX S6SR 22064 99101 50019 41699 81509 10220 20205 40140 56020 7//22 88/4/ 22213 00230 2//02 32020 41504 51504 6//// 80210 ICE /////
BBXX 42376 22061 99291 70879 46/// /1310 10232 40140 90620 22200 10503 70016
BBXX 42887 22061 99282 70885 46/// /1003 1//// 90620 22200 10603 70015
BBXX 51173 22061 99260 71739 46/// ///// 1//// 90600 22200 00246
BBXX 51172 22061 99284 71783 46/// ///// 1//// 90600 22200 00232
BBXX 51176 22061 99278 71758 46/// ///// 1//// 90600 22200 00240
BBXX 51169 22061 99004 51600 46/// ///// 1//// 90600 22200 00258
BBXX 51174 22061 99142 51697 46/// ///// 1//// 90600 22200 00286
BBXX 51178 22061 99142 51695 46/// ///// 1//// 90600 22200 00286
BBXX 51179 22061 99143 51708 46/// ///// 1//// 90600 22200 00287
BBXX 51170 22061 99168 71695 46/// ///// 1//// 90600 22200 00261
BBXX 51171 22061 99064 71623 46/// ///// 1//// 90600 22200 00279
BBXX 52246 22061 99152 11457 46/// ///// 1//// 90600 22200 00283
BBXX 52243 22061 99193 11666 46/// ///// 1//// 90600 22200 00264
BBXX 52248 22061 99135 11448 46/// ///// 1//// 90600 22200 00286
BBXX 52244 22061 99200 11452 46/// ///// 1//// 90600 22200 00269
BBXX 52245 22061 99181 11458 46/// ///// 1//// 90600 22200 00285
BBXX 63110 22063 99595 10015 41/97 /2821 10099 40057 700// 8//// 22200 10604 70020
BBXX 63106 22064 99610 10017 46/// /2817 10092 40031 52032 22200
BBXX 63105 22064 99610 10017 47596 ///// 10100 20065 40031 52031 700// 22200
BBXX 62103 22064 99499 70029 46/98 /3127 10118 20093 40276 52002 22200 00123 10602 70012 333 90710 91132
BBXX 62303 22064 99516 70051 46/// /2613 10118 20094 40262 57002 22200 00110 10604 70019
BBXX 62095 22064 99531 70159 46/// /2023 10125 20111 40140 57023 22200 00113 10810 70049 333 90710 91134
BBXX 64049 22063 99571 10022 41/97 72615 10103 20091 40114 54000 70211 8//// 22200 04094 20602 326// 40604 5//// 80097
AAXX 22061 10578 11/00 92812 11037 21041 38775 48465 51006 60052 74974 333 11034 21043 3/104 48068 55000 55300 20000 30000 70145 96036
AAXX 22064 71893 12580 62302 11006 21022 30307 40339 58003 60001 83530 333 10060 21018 70000 555 10000 20000 33421 40091
AAXX 22064 71893 12580 62302 11006 21022 30307 40339 58003 60001 83530 333 10060 21018 70000 555 10000 20000 33421 40091
AAXX 22061 10815 01150 82504 10003 20003 39283 48502 53005 69902 71072 886// 333 10003 21006 3/101 43034 55000 55300 20000 30000 69907 70025 88702 96477
AAXX 22061 11487 01358 82803 10003 21003 39589 40230 52012 69962 710// 885// 333 20000 3/101 43002 60005 70015 82707 85613 88633
BBXX MTDU5 22063 99196 30618 41698 31319 10275 20224 40138 57012 70111 8/46/ 22214 04276 21002 80240
BBXX MTDU5 22063 99196 30618 41698 31319 10275 20224 40138 57012 70111 8/46/ 22214 04276 21002 80240
BBXX 46208 22061 99525 71327 46/// /1613 1//// 40179 57015 22200 0//// 1//// 70/// 333 91216
BBXX 46208 22061 99525 71327 46/// /1613 1//// 40179 57015 22200 0//// 1//// 70/// 333 91216
BBXX 46145 22061 99544 71324 46/// /1713 1//// 40156 57017 22200 0//// 1//// 70/// 333 91216
BBXX A8CB7 22063 99239 30515 41497 60615 10280 20253 40140 52010 70322 86478 22254 06270 21104 80260
AAXX 22064 96565 11458 73604 10290 20256 30028 40081 57030 60011 70562 85221 333 56000 57802 85810 80850
BBXX 62303 22064 99516 70051 46/// /2612 10118 20094 40262 57002 22200 00110 10604 70019
BBXX PJGO 22064 99571 10022 47597 /2608 10099 20091 40118 52021 700// 22200
BBXX 63110 22064 99595 10015 47596 /2816 10099 20085 40063 52023 700// 22200 10504 70020
BBXX 63106 22064 99610 10017 46/// /2817 10092 40031 52032 22200
BBXX 63113 22064 99610 10017 46/// /2814 10100 20067 40037 52027 22200 10606 70028
BBXX 62103 22064 99499 70029 46/98 /3126 10118 20090 40282 53006 22200 00123 10602 70012 333 90710 91133
BBXX 62095 22064 99531 70159 46/// /2023 10125 20113 40140 57023 22200 00113 10810 70049 333 90710 91134
BBXX A8CB7 22063 99239 30515 41497 60615 10280 20253 40140 52010 70322 86478 22254 06270 21104 80260
BBXX VRFN8 22063 99203 31100 41998 01822 10280 20244 40056 7//// 80000 22284 00288 2//// 80255
BBXX VRFN8 22063 99203 31100 41998 01822 10280 20244 40056 7//// 80000 22284 00288 2//// 80255
BBXX 46145 22061 99544 71324 46/// /1713 1//// 40156 57017 22200 0//// 1//// 70/// 333 91216
BBXX 46208 22061 99525 71327 46/// /1613 1//// 40179 57015 22200 0//// 1//// 70/// 333 91216
BBXX A8CB7 22063 99239 30515 41497 60615 10280 20253 40140 52010 70322 86478 22254 06270 21104 80260
BBXX MTDU5 22063 99196 30618 41698 31319 10275 20224 40138 57012 70111 8/46/ 22214 04276 21002 80240
AAXX 22063 63680 32560 20000 10230 20188 38850 48/// 81100 3/3 20175 58000 81822 5/5 10202
AAXX 22064 89065 46/// /0305 11019 21028 39784 49862 57019 90630
AAXX 22064 89257 46/// /2806 11135 21148 39725 49797 57013 90630
AAXX 22064 89262 46/// /0103 11029 21051 39822 49865 5//// 90640
AAXX 22064 89272 46/// /3312 11119 21145 38034 49668 52008 90630
AAXX 22064 89257 46/// /2906 11136 21151 39724 49796 57012 90640
AAXX 22064 89272 46/// /3312 11119 21145 38034 49668 52008 90640
AAXX 22064 89266 46/// /3313 11087 21096 39672 49812 57020 90640
BBXX MTDU5 22063 99196 30618 41698 31319 10275 20224 40138 57012 70111 8/46/ 22214 04276 21002 80240
BBXX VRFN8 22063 99203 31100 41998 01822 10280 20244 40056 7//// 80000 22284 00288 2//// 80255
AAXX 22064 89262 46/// /0104 11029 21052 39824 49867 57020 90630
BBXX 46145 22061 99544 71324 46/// /1713 1//// 40156 57017 22200 0//// 1//// 70/// 333 91216
BBXX 46208 22061 99525 71327 46/// /1613 1//// 40179 57015 22200 0//// 1//// 70/// 333 91216
BBXX 63110 22063 99595 10015 41/97 /2821 10099 40057 700// 8//// 22200 10604 70020
BBXX 63106 22064 99610 10017 46/// /2817 10092 40031 52032 22200
BBXX 63105 22064 99610 10017 47596 ///// 10100 20065 40031 52031 700// 22200
BBXX 62103 22064 99499 70029 46/98 /3127 10118 20093 40276 52002 22200 00123 10602 70012 333 90710 91132
BBXX 62303 22064 99516 70051 46/// /2613 10118 20094 40262 57002 22200 00110 10604 70019
BBXX 62095 22064 99531 70159 46/// /2023 10125 20111 40140 57023 22200 00113 10810 70049 333 90710 91134
BBXX 64049 22063 99571 10022 41/97 72615 10103 20091 40114 54000 70211 8//// 22200 04094 20602 326// 40604 5//// 80097
BBXX VRFN8 22063 99203 31100 41998 01822 10280 20244 40056 7//// 80000 22284 00288 2//// 80255
AAXX 22061 37228 42598 80000 10063 20010 39382 40215 58005 885//
AAXX 22064 71724 17/// /3602 10000 21008 30026 40033 51006 60011 7//4/ 333 10000 21119 70010
AAXX 22064 71390 46/// /0402 11048 6///1 333 11044 21131 7////
AAXX 22064 71724 17/// /3602 10000 21008 30026 40033 51006 60011 7//4/ 333 10000 21119 70010
AAXX 22064 71390 46/// /0402 11048 6///1 333 11044 21131 7////
AAXX 22064 67280 32980 1//// 10281 20195 40110 80001 333 20216 50760 55109 59025 94300 555 10000
AAXX 22064 67020 32582 31602 10298 20228 30092 40119 51002 81805 333 02200 10347 20237 50434 55/// 81820 83273 555 81640
BBXX 62303 22064 99516 70051 46/// /2612 10118 20094 40262 57002 22200 00110 10604 70019
BBXX PJGO 22064 99571 10022 47597 /2608 10099 20091 40118 52021 700// 22200
BBXX 63110 22064 99595 10015 47596 /2816 10099 20085 40063 52023 700// 22200 10504 70020
BBXX 63106 22064 99610 10017 46/// /2817 10092 40031 52032 22200
BBXX 63113 22064 99610 10017 46/// /2814 10100 20067 40037 52027 22200 10606 70028
BBXX 62103 22064 99499 70029 46/98 /3126 10118 20090 40282 53006 22200 00123 10602 70012 333 90710 91133
BBXX 62095 22064 99531 70159 46/// /2023 10125 20113 40140 57023 22200 00113 10810 70049 333 90710 91134
AAXX 22064 61404 32960 31412 10100 21067 39824 40228 80002 333 0//00 20100 5//// 55/// 58003 83073
AAXX 22064 61489 31940 20804 10159 21043 30166 40173 70500 82070 333 0//00 20150 50994 55/// 58017 82363
AAXX 22064 61492 31956 00806 10170 21067 30173 40193 70600 333 0//00 20170 5//// 58025
AAXX 22064 61497 34956 60816 10156 21035 39920 4//// 707// 80002 333 0//00 20151 5//// 55/// 58010 86073
AAXX 2206/ 89872 46/// ///// 11029 39817 4//// 5//// 90610
AAXX 2206/ 89872 46/// ///// 11026 39818 4//// 5//// 90620
AAXX 2206/ 89869 46/// ///// 11048 39860 4//// 5//// 90610
AAXX 2206/ 89869 46/// ///// 11048 39861 4//// 5//// 90620
AAXX 2206/ 89866 46/// ///// 11008 39784 4//// 5//// 90610
AAXX 2206/ 89866 46/// ///// 11010 39786 4//// 5//// 90620
AAXX 2206/ 89329 46/// ///// 11084 38782 4//// 5//// 90610
AAXX 2206/ 89799 46/// ///// 11174 4//// 5//// 90610
AAXX 2206/ 89868 46/// ///// 11056 39847 4//// 5//// 90610
AAXX 2206/ 89868 46/// ///// 11058 39847 4//// 5//// 90620
AAXX 2206/ 89327 46/// ///// 11015 39640 4//// 5//// 90610
AAXX 2206/ 89828 46/// ///// 11204 36484 4//// 5//// 90610
AAXX 2206/ 89108 46/// ///// 11206 36958 4//// 5//// 90610
AAXX 2206/ 89879 46/// ///// 10006 39755 4//// 5//// 90620
AAXX 2206/ 89332 46/// ///// 11041 39205 4//// 5//// 90610
AAXX 2206/ 89332 46/// ///// 11041 39204 4//// 5//// 90620
AAXX 2206/ 89769 46/// ///// 11039 39860 4//// 5//// 90610
AAXX 2206/ 89314 46/// ///// 11140 38260 4//// 5//// 90610
AAXX 2206/ 89314 46/// ///// 11138 38260 4//// 5//// 90620
AAXX 22064 89003 46/89 /1402 11083 29064 38993 4//// 5////
AAXX 22064 89507 46/89 /1107 11199 29073 36786 4//// 5////
AAXX 22064 82143 31596 40306 10270 20243 40100 7030/ 8327/ 222// 80250 333 10/// 58002
AAXX 22061 28586 31998 82506 11072 21171 30223 40379 57003 73631 8801/ 333 21108
BBXX 63110 22063 99595 10015 41/97 /2821 10099 40057 700// 8//// 22200 10604 70020
BBXX 63106 22064 99610 10017 46/// /2817 10092 40031 52032 22200
BBXX 63105 22064 99610 10017 47596 ///// 10100 20065 40031 52031 700// 22200
BBXX 62103 22064 99499 70029 46/98 /3127 10118 20093 40276 52002 22200 00123 10602 70012 333 90710 91132
BBXX 62303 22064 99516 70051 46/// /2613 10118 20094 40262 57002 22200 00110 10604 70019
BBXX 62095 22064 99531 70159 46/// /2023 10125 20111 40140 57023 22200 00113 10810 70049 333 90710 91134
BBXX 64049 22063 99571 10022 41/97 72615 10103 20091 40114 54000 70211 8//// 22200 04094 20602 326// 40604 5//// 80097
AAXX 22064 96109 01456 81205 10284 20257 30034 40073 57013 60031 76062 8597/ 333 56309 57930 60057 82918 83615
AAXX 22061 98435 32472 70402 10289 20256 40079 5//// 84270 333 56199 84818 87358
AAXX 22061 98558 31468 70509 10284 20258 40062 57035 70544 83578 222// 20505 333 56999 83615 84357
BBXX C6CN4 22061 99374 70135 41497 43505 10157 20129 40330 56010 7//00 84794 22254 20503 3//// 4//// 5//// 80140
BBXX C6CN4 22061 99374 70135 41497 43505 10157 20129 40330 56010 7//00 84794 22254 20503 3//// 4//// 5//// 80140
BBXX C6CN4 22061 99374 70135 41497 43505 10157 20129 40330 56010 7//00 84794 22254 20503 3//// 4//// 5//// 80140
BBXX C6CN4 22061 99374 70135 41497 43505 10157 20129 40330 56010 7//00 84794 22254 20503 3//// 4//// 5//// 80140
AAXX 22064 96033 01450 80000 10280 20252 30092 40097 52010 69921 76062 84927 333 56000 57903 69927 81920 84617 86457 80980
BBXX MINFR05 2206/ 99281 70154 46/// ///// 10168 40273 57003
BBXX 62303 22064 99516 70051 46/// /2612 10118 20094 40262 57002 22200 00110 10604 70019
BBXX PJGO 22064 99571 10022 47597 /2608 10099 20091 40118 52021 700// 22200
BBXX 63110 22064 99595 10015 47596 /2816 10099 20085 40063 52023 700// 22200 10504 70020
BBXX 63106 22064 99610 10017 46/// /2817 10092 40031 52032 22200
BBXX 63113 22064 99610 10017 46/// /2814 10100 20067 40037 52027 22200 10606 70028
BBXX 62103 22064 99499 70029 46/98 /3126 10118 20090 40282 53006 22200 00123 10602 70012 333 90710 91133
BBXX 62095 22064 99531 70159 46/// /2023 10125 20113 40140 57023 22200 00113 10810 70049 333 90710 91134
AAXX 22064 71854 43/// ///// 333 11021 21132 48016 70010 555 10010 20010
AAXX 22064 71854 43/// ///// 333 11021 21132 48016 70010 555 10010 20010
BBXX MINFR05 2206/ 99281 70154 46/// ///// 10168 40273 57003
AAXX 22061 03976 11464 82010 10111 20103 30179 40191 57005 69902 71052 886// 333 20108 31010 55002 86716 88636
AAXX 22064 89262 46/// /3204 11030 21052 39826 49869 57018 90600
AAXX 22064 89065 46/// /0306 11020 21025 39786 49864 57017 90600
AAXX 22064 89266 46/// /3313 11087 21096 39674 49814 57018 90600
AAXX 22064 89257 46/// /2906 11138 21154 39726 49798 57012 90610
AAXX 22064 89272 46/// /3313 11119 21143 38034 49669 52008 90610
AAXX 22064 89272 46/// /3313 11119 21142 38033 49668 52007 90600
AAXX 22064 48481 32560 60804 10321 20206 30065 40092 57028 82206 333 59016
AAXX 22061 10815 01150 82504 10003 20003 39283 48502 53005 69902 71075 886// 333 10003 21006 3/101 43034 55000 55300 20000 30000 69907 70025 88702 96477
BBXX 63110 22063 99595 10015 41/97 /2821 10099 40057 700// 8//// 22200 10604 70020
BBXX 63106 22064 99610 10017 46/// /2817 10092 40031 52032 22200
BBXX 63105 22064 99610 10017 47596 ///// 10100 20065 40031 52031 700// 22200
BBXX 62103 22064 99499 70029 46/98 /3127 10118 20093 40276 52002 22200 00123 10602 70012 333 90710 91132
BBXX 62303 22064 99516 70051 46/// /2613 10118 20094 40262 57002 22200 00110 10604 70019
BBXX 62095 22064 99531 70159 46/// /2023 10125 20111 40140 57023 22200 00113 10810 70049 333 90710 91134
BBXX 64049 22063 99571 10022 41/97 72615 10103 20091 40114 54000 70211 8//// 22200 04094 20602 326// 40604 5//// 80097
BBXX 62303 22064 99516 70051 46/// /2612 10118 20094 40262 57002 22200 00110 10604 70019
BBXX PJGO 22064 99571 10022 47597 /2608 10099 20091 40118 52021 700// 22200
BBXX 63110 22064 99595 10015 47596 /2816 10099 20085 40063 52023 700// 22200 10504 70020
BBXX 63106 22064 99610 10017 46/// /2817 10092 40031 52032 22200
BBXX 63113 22064 99610 10017 46/// /2814 10100 20067 40037 52027 22200 10606 70028
BBXX 62103 22064 99499 70029 46/98 /3126 10118 20090 40282 53006 22200 00123 10602 70012 333 90710 91133
BBXX 62095 22064 99531 70159 46/// /2023 10125 20113 40140 57023 22200 00113 10810 70049 333 90710 91134
BBXX 52249 22061 99052 31503 46/// ///// 1//// 90600 22200 00315
AAXX 22061 28586 31998 82506 11072 21166 30223 40379 57003 73631 8801/ 333 21108
AAXX 22064 71322 16/// /3319 11284 21311 30118 40132 51015 60001 333 7////
BBXX 63110 22063 99595 10015 41/97 /2821 10099 40057 700// 8//// 22200 10604 70020
BBXX 63106 22064 99610 10017 46/// /2817 10092 40031 52032 22200
BBXX 63105 22064 99610 10017 47596 ///// 10100 20065 40031 52031 700// 22200
BBXX 62103 22064 99499 70029 46/98 /3127 10118 20093 40276 52002 22200 00123 10602 70012 333 90710 91132
BBXX 62303 22064 99516 70051 46/// /2613 10118 20094 40262 57002 22200 00110 10604 70019
BBXX 62095 22064 99531 70159 46/// /2023 10125 20111 40140 57023 22200 00113 10810 70049 333 90710 91134
BBXX 64049 22063 99571 10022 41/97 72615 10103 20091 40114 54000 70211 8//// 22200 04094 20602 326// 40604 5//// 80097
BBXX 52249 22061 99052 31503 46/// ///// 1//// 90600 22200 00315
AAXX 22064 71893 12580 62302 11006 21022 30307 40339 58003 60001 83530 333 10066 21018 70000 555 10000 20000 33421 40091
AAXX 22064 71893 12580 62302 11006 21022 30307 40339 58003 60001 83530 333 10066 21018 70000 555 10000 20000 33421 40091
BBXX 62303 22064 99516 70051 46/// /2612 10118 20094 40262 57002 22200 00110 10604 70019
BBXX PJGO 22064 99571 10022 47597 /2608 10099 20091 40118 52021 700// 22200
BBXX 63110 22064 99595 10015 47596 /2816 10099 20085 40063 52023 700// 22200 10504 70020
BBXX 63106 22064 99610 10017 46/// /2817 10092 40031 52032 22200
BBXX 63113 22064 99610 10017 46/// /2814 10100 20067 40037 52027 22200 10606 70028
BBXX 62103 22064 99499 70029 46/98 /3126 10118 20090 40282 53006 22200 00123 10602 70012 333 90710 91133
BBXX 62095 22064 99531 70159 46/// /2023 10125 20113 40140 57023 22200 00113 10810 70049 333 90710 91134
AAXX 22061 78090 15/// /0000 10210 30210 40213 69901 90600 222// 00154
AAXX 22064 71845 43/// ///// 333 11033 21162 44018 70022 90999 555 10038 20022
AAXX 22064 71845 43/// ///// 333 11033 21162 44018 70022 90999 555 10038 20022
BBXX 63110 22063 99595 10015 41/97 /2821 10099 40057 700// 8//// 22200 10604 70020
BBXX 63106 22064 99610 10017 46/// /2817 10092 40031 52032 22200
BBXX 63105 22064 99610 10017 47596 ///// 10100 20065 40031 52031 700// 22200
BBXX 62103 22064 99499 70029 46/98 /3127 10118 20093 40276 52002 22200 00123 10602 70012 333 90710 91132
BBXX 62303 22064 99516 70051 46/// /2613 10118 20094 40262 57002 22200 00110 10604 70019
BBXX 62095 22064 99531 70159 46/// /2023 10125 20111 40140 57023 22200 00113 10810 70049 333 90710 91134
BBXX 64049 22063 99571 10022 41/97 72615 10103 20091 40114 54000 70211 8//// 22200 04094 20602 326// 40604 5//// 80097
BBXX 62303 22064 99516 70051 46/// /2612 10118 20094 40262 57002 22200 00110 10604 70019
BBXX PJGO 22064 99571 10022 47597 /2608 10099 20091 40118 52021 700// 22200
BBXX 63110 22064 99595 10015 47596 /2816 10099 20085 40063 52023 700// 22200 10504 70020
BBXX 63106 22064 99610 10017 46/// /2817 10092 40031 52032 22200
BBXX 63113 22064 99610 10017 46/// /2814 10100 20067 40037 52027 22200 10606 70028
BBXX 62103 22064 99499 70029 46/98 /3126 10118 20090 40282 53006 22200 00123 10602 70012 333 90710 91133
BBXX 62095 22064 99531 70159 46/// /2023 10125 20113 40140 57023 22200 00113 10810 70049 333 90710 91134
AAXX 22064 71642 13/// ///// 11040 60001 333 11016 21045 70000 555 10000 20000
AAXX 22064 71642 13/// ///// 11040 60001 333 11016 21045 70000 555 10000 20000
AAXX 22064 71574 11348 80000 11029 21033 39968 40041 57033 60031 77976 8172/ 333 11015 21142 43020 70034 90973 93103 555 10030 20030
AAXX 22063 63680 32560 20000 10230 20188 38850 48/// 81100
AAXX 22063 63680 32560 20000 10230 20188 38850 48/// 81100
BBXX 63110 22063 99595 10015 41/97 /2821 10099 40057 700// 8//// 22200 10604 70020
BBXX 63106 22064 99610 10017 46/// /2817 10092 40031 52032 22200
BBXX 63105 22064 99610 10017 47596 ///// 10100 20065 40031 52031 700// 22200
BBXX 62103 22064 99499 70029 46/98 /3127 10118 20093 40276 52002 22200 00123 10602 70012 333 90710 91132
BBXX 62303 22064 99516 70051 46/// /2613 10118 20094 40262 57002 22200 00110 10604 70019
BBXX 62095 22064 99531 70159 46/// /2023 10125 20111 40140 57023 22200 00113 10810 70049 333 90710 91134
BBXX 64049 22063 99571 10022 41/97 72615 10103 20091 40114 54000 70211 8//// 22200 04094 20602 326// 40604 5//// 80097
AAXX 22064 91723 NIL
AAXX 22064 91964 NIL
BBXX 62303 22064 99516 70051 46/// /2612 10118 20094 40262 57002 22200 00110 10604 70019
BBXX PJGO 22064 99571 10022 47597 /2608 10099 20091 40118 52021 700// 22200
BBXX 63110 22064 99595 10015 47596 /2816 10099 20085 40063 52023 700// 22200 10504 70020
BBXX 63106 22064 99610 10017 46/// /2817 10092 40031 52032 22200
BBXX 63113 22064 99610 10017 46/// /2814 10100 20067 40037 52027 22200 10606 70028
BBXX 62103 22064 99499 70029 46/98 /3126 10118 20090 40282 53006 22200 00123 10602 70012 333 90710 91133
BBXX 62095 22064 99531 70159 46/// /2023 10125 20113 40140 57023 22200 00113 10810 70049 333 90710 91134
AAXX 22064 71618 17462 82811 11262 21288 30146 40186 53014 60001 771// 333 11257 21282 70000
AAXX 22064 87129 32965 00210 10304 20145 39739 49954 57009
BBXX 63110 22063 99595 10015 41/97 /2821 10099 40057 700// 8//// 22200 10604 70020
BBXX 63106 22064 99610 10017 46/// /2817 10092 40031 52032 22200
BBXX 63105 22064 99610 10017 47596 ///// 10100 20065 40031 52031 700// 22200
BBXX 62103 22064 99499 70029 46/98 /3127 10118 20093 40276 52002 22200 00123 10602 70012 333 90710 91132
BBXX 62303 22064 99516 70051 46/// /2613 10118 20094 40262 57002 22200 00110 10604 70019
BBXX 62095 22064 99531 70159 46/// /2023 10125 20111 40140 57023 22200 00113 10810 70049 333 90710 91134
BBXX 64049 22063 99571 10022 41/97 72615 10103 20091 40114 54000 70211 8//// 22200 04094 20602 326// 40604 5//// 80097
AAXX 22064 71376 17/// /0000 10001 20001 39761 40054 53025 60041 7//4/ 333 10002 21183 70060
BBXX KNJK 22063 99250 70844 41698 31219 10233 20210 40158 54000 70200 8388/ 22233 00250 20202 313// 40604 5//// 6//// 80217 ICE /////
BBXX KNJK 22063 99250 70844 41698 31219 10233 20210 40158 54000 70200 8388/ 22233 00250 20202 313// 40604 5//// 6//// 80217 ICE /////
BBXX A8OZ3 31112 22064 99347 10226 44487 72435 10130 20120 40060 56010 8643/
AAXX 22064 71268 43/// ///// 333 10014 21040 70000 555 10000 20000
BBXX 62303 22064 99516 70051 46/// /2612 10118 20094 40262 57002 22200 00110 10604 70019
BBXX PJGO 22064 99571 10022 47597 /2608 10099 20091 40118 52021 700// 22200
BBXX 63110 22064 99595 10015 47596 /2816 10099 20085 40063 52023 700// 22200 10504 70020
BBXX 63106 22064 99610 10017 46/// /2817 10092 40031 52032 22200
BBXX 63113 22064 99610 10017 46/// /2814 10100 20067 40037 52027 22200 10606 70028
BBXX 62103 22064 99499 70029 46/98 /3126 10118 20090 40282 53006 22200 00123 10602 70012 333 90710 91133
BBXX 62095 22064 99531 70159 46/// /2023 10125 20113 40140 57023 22200 00113 10810 70049 333 90710 91134
BBXX GLNE 22063 99122 70924 41999 09901 10274 20230 40098 58002 70200 80000 22231 04281 20000 300// 40000 5//// 80244
BBXX GLNE 22063 99122 70924 41999 09901 10274 20230 40098 58002 70200 80000 22231 04281 20000 300// 40000 5//// 80244
BBXX 63110 22063 99595 10015 41/97 /2821 10099 40057 700// 8//// 22200 10604 70020
BBXX 63106 22064 99610 10017 46/// /2817 10092 40031 52032 22200
BBXX 63105 22064 99610 10017 47596 ///// 10100 20065 40031 52031 700// 22200
BBXX 62103 22064 99499 70029 46/98 /3127 10118 20093 40276 52002 22200 00123 10602 70012 333 90710 91132
BBXX 62303 22064 99516 70051 46/// /2613 10118 20094 40262 57002 22200 00110 10604 70019
BBXX 62095 22064 99531 70159 46/// /2023 10125 20111 40140 57023 22200 00113 10810 70049 333 90710 91134
BBXX 64049 22063 99571 10022 41/97 72615 10103 20091 40114 54000 70211 8//// 22200 04094 20602 326// 40604 5//// 80097
AAXX 22064 03823 17264 /2912 10089 20087 30039 40285 55002 69902 723// 90550 333 20089 3/008 55/// 553// 20000 70006 85/03 86/22
AAXX 22061 01180 11680 11703 10009 21023 39985 40042 57008 60002 70200 81300 333 21004 70000 91106
AAXX 22064 71170 16/// /2808 11107 21136 60001 333 11036 21107 70000 555 33120 40041
AAXX 22064 64550 11/01 9//// 10200 20200 30/// 40/// 60044 74544 333 02129 20199 50155 55/// 5//// 89///
AAXX 22064 DUPE
AAXX 22061 32098 41394 83303 11102 21108 30177 40188 56006 78682 889// 333 91005 91106
AAXX 22061 38932 42999 00000 11074 21095 40433 51005
BBXX WDE4430 22063 99411 71256 41698 33519 10083 20050 40250 52020 70200 81180 22283 0//// 20403 33635 40604 50804 6//// 80067 ICE /////
BBXX WZJC 22064 99289 70940 41398 81009 10178 2016/ 40110 57012 70222 886// 22273 00189 2//// 3//// 4//// 5//// 6//// 80167 ICE /////
BBXX WZJC 22064 99289 70940 41398 81009 10178 2016/ 40110 57012 70222 886// 22273 00189 2//// 3//// 4//// 5//// 6//// 80167 ICE /////
BBXX WDE4430 22063 99411 71256 41698 33519 10083 20050 40250 52020 70200 81180 22283 0//// 20403 33635 40604 50804 6//// 80067 ICE /////
BBXX WDE4430 22063 99411 71256 41698 33519 10083 20050 40250 52020 70200 81180 22283 0//// 20403 33635 40604 50804 6//// 80067 ICE /////
AAXX 22061 89063 41497 82304 11012 21022 39893 49904 57010 71022 886//
AAXX 22061 80400 NIL
AAXX 22061 80403 11460 30000 10244 20240 30110 40119 69931 70252 83500 333 31/// 56900 58002 83613 555 10132
AAXX 22061 80405 NIL
AAXX 22061 80407 NIL
AAXX 22061 80410 32460 60000 10214 20209 39445 40118 866// 333 30/// 569// 58000 83716 555 10157
AAXX 22061 80413 11460 30000 10212 20202 39614 40095 60041 70252 83500 333 31/// 56900 58005 83613 555 10131
AAXX 22061 80415 31459 70000 10233 20202 30074 40128 75052 875// 333 31/// 569// 58002 83613 555 10130
AAXX 22061 80419 NIL
AAXX 22061 80421 NIL
AAXX 22061 80423 NIL
AAXX 22061 80428 32960 00000 10230 20213 39909 40091 333 30/// 59009 555 10105
AAXX 22061 80432 NIL
AAXX 22061 80435 11354 80204 10235 20235 30014 40089 60081 76026 887// 333 32/// 569// 59012 87810 555 10087
AAXX 22061 80438 32257 72501 10174 20171 38515 48512 877// 333 30/// 569// 59010 87707 555 10197
AAXX 22061 80444 32960 ///// 10248 2//// 30040 4//// 333 30/// 58011 555 10084
AAXX 22061 80447 32560 30000 10230 20221 39655 40067 83500 333 30/// 56900 59020 83620 555 10127
AAXX 22061 80448 32960 00000 10243 20230 3//// 4//// 333 30///
AAXX 22061 80450 32960 31402 10242 20228 30058 40113 80008 333 30/// 56009 59015 555 10110
AAXX 22061 80453 NIL
AAXX 22061 80457 NIL
AAXX 22061 80462 NIL
AAXX 22061 80402 NIL
AAXX 22061 80412 NIL
AAXX 22061 80416 NIL
AAXX 22061 80420 11460 41402 10231 20222 30102 40121 60011 75055 84800 333 31/// 56900 59004 84813 555 10134
AAXX 22061 80425 32460 20502 10254 20236 30082 40113 82400 333 30/// 56900 59005 82613 555 10114
AAXX 22061 80426 32560 80000 10228 20211 39464 40110 885// 333 30/// 569// 59012 88620 555 10144
AAXX 22061 80427 32960 03603 10242 20224 39859 40114 333 30/// 59010 555 10128
AAXX 22061 80431 NIL
AAXX 22061 80437 32460 20000 10242 20232 30015 10100 82500 333 30/// 56900 59006 82617 555 10107
AAXX 22061 80440 42960 00202 10241 20202 39885 40093 333 30/// 59025 555 10105
AAXX 22061 80442 NIL
AAXX 22061 80472 NIL
AAXX 22061 80475 32560 30000 10207 20202 39767 40134 83500 333 30/// 56900 59002 83620 555 10149
AAXX 22061 80476 32360 1//// 10262 20236 30079 40109 81500 333 30/// 56900 59015 81610
AAXX 22061 80478 NIL
AAXX 22061 80479 NIL
AAXX 22061 89063 41497 82304 11012 21022 39893 49904 57010 71022 886//
AAXX 22064 97180 01456 73009 10293 20257 30029 40047 56023 60101 76166 85272 333 56000 60097 85819 84360
BBXX WBS5272 22064 99436 70825 43/98 02814 10038 2//// 40163 53001 70020 8//// 22282 0//// 20201 3//// 4//// 5//// 6//// 8//// ICE /////
BBXX WBS5272 22064 99436 70825 43/98 02814 10038 2//// 40163 53001 70020 8//// 22282 0//// 20201 3//// 4//// 5//// 6//// 8//// ICE /////
AAXX 22064 71245 46/// /2208 11111 21202 6///1 333 11100 21134 7//// 555 32442 40003
AAXX 22064 71245 46/// /2208 11111 21202 6///1 333 11100 21134 7//// 555 32442 40003
AAXX 22064 71448 16/// /2601 11091 21120 39881 40220 51019 60001 333 10006 21091 70000 555 33319 40191
AAXX 22064 71604 17/// /1913 10011 20010 60031 7//4/ 333 10011 21085 70033 555 10020 20033 32337 40073
BBXX 3FHX2 22063 99034 31455 41396 81415 10260 20247 40040 54000 76562 8/622 22233 00///
BBXX 3FHX2 22063 99034 31455 41396 81415 10260 20247 40040 54000 76562 8/622 22233 00///
BBXX 3FHX2 22063 99034 31455 41396 81415 10260 20247 40040 54000 76562 8/622 22233 00///
AAXX 22064 91772 31498 40705 10279 20243 4//// 60001 70221 82808 333 561/9 82817 83640 84180
AAXX 22064 91776 31498 60000 1//// 2//// 4//// 60001 70312 8323/ 333 5699/ 83818 86361
AAXX 22064 91779 31498 60906 10273 20242 40095 53011 60001 70222 83201 333 562/9 83817 86079
AAXX 22064 91784 31498 70704 10274 20254 40089 53002 60001 70222 8477/ 333 5619/ 81710 84817 87461
AAXX 22064 91792 11498 89902 10229 20228 40107 53008 60223 78068 8317/ 333 5699/ 83815 88360
BBXX A8PQ6 22064 99261 10558 41597 30615 10200 2013/ 40230 51020 70200 83332 22200 00250 20301 30606 40301 50301 6//// 80160 ICE /////
AAXX 22061 10731 01230 82305 10044 20038 30092 40239 50000 69962 75865 887// 333 10044 20036 31004 55000 55300 20000 30000 69937 70012 88706
AAXX 22064 71430 17/// /2719 10044 20032 30001 51068 69931 7//4/ 333 7////
AAXX 22064 85585 339// 91918 10164 20089 30179 40215 58008
AAXX 22064 85586 NIL
AAXX 22064 85629 NIL
AAXX 22064 85672 NIL
AAXX 22064 85682 NIL
AAXX 22064 85743 12960 09903 10050 20043 40208 58006 60001
AAXX 22064 85766 NIL
AAXX 22064 85782 NIL
AAXX 22064 85799 11560 80000 10064 20063 40193 58006 69941 72582 882// 333 56799 88830
AAXX 22064 85830 NIL
AAXX 22064 85406 12970 53002 10193 20142 40109 58018 60001 85030 333 56000 85365
AAXX 22064 85418 12565 40000 10198 20130 40113 50018 60001 84500 333 56000 84630
AAXX 22064 85432 NIL
AAXX 22064 85442 12470 71905 10188 20159 40110 58013 60001 87500 333 56400 86610 87625
AAXX 22064 85467 NIL
AAXX 22064 85469 42565 40000 10170 20131 40195 52013 81102 333 56000 81820 83076
AAXX 22064 85488 12965 09903 10139 20118 40095 56010 60001
AAXX 22064 85574 12960 01704 10155 20054 40140 58013 60001
AAXX 22064 85577 11958 00000 10145 20068 39537 40147 58015 60001 70500
