BBXX V2AH1 17084 99349 30247 41/98 20827 10249 20192 40155 57005 70100 80004 22223 20405 3//// 4//// 5//// 80210
BBXX ZMFR 17114 99471 31670 43/// /19// 10105 20072 40175 52010 22211 00129
AAXX 17124 40340 32960 03610 10210 20063 40166 57003
BBXX 46218 17121 99345 71208 46/// ///// 1//// 91132 22200 00137 11703 21002 331// 41702 70017
BBXX 44172 17121 99445 70634 46/// ///// 1//// 91131 22200 00074 11003 21002 319// 41101 70014
AAXX 17124 40255 32660 30000 10158 20094 39477 40193 57006 83100 333 83830
AAXX 17124 4020 31950 50000 10152 20065 39287 40186 57001 70500 85100 333 85830
AAXX 17124 40272 32960 30000 10170 20049 39360 40204 57010 80001 333 83070
BBXX 42362 17121 99278 70907 46/// /0408 10211 20183 40244 91145
BBXX 42363 17121 99282 70892 46/// /0209 10200 20161 40247 91145 333 91209
BBXX 42364 17121 99291 70881 46/// /3507 10194 20172 40247 91145
BBXX PHFV 17124 99239 70848 41/98 /0613 10250 40210 52020 702// 8/14/ 22284 00270 2//// 3//// 4//// 5////
AAXX 17124 40296 32960 00000 10208 20099 40186 57023
BBXX 46249 17121 99338 71197 46/// ///// 1//// 91142 22200 00146 11202 20302 325// 41201 70010
BBXX 46244 17121 99409 71244 46/// ///// 1//// 91135 22200 00097 11404 20702 331// 41404 70022
BBXX 41115 17121 99184 70673 46/// ///// 1//// 91135 22200 11104 20903 301// 41103 70020
BBXX 51203 17121 99208 71570 46/// ///// 1//// 91143 22200 00250 11402 20901 330// 41402 70010
BBXX 44098 17121 99428 70702 46/// ///// 1//// 91137 22200 00091 11202 21001 310// 41201 70009
BBXX 44097 17121 99410 70711 46/// ///// 1//// 91132 22200 00121 10802 20802 316// 41301 70011
BBXX 46212 17121 99408 71243 46/// ///// 1//// 91142 22200 00099 11504 20602 330// 41503 70021
BBXX 46217 17121 99342 71194 46/// ///// 1//// 91142 22200 00145 11002 21001 327// 41101 70008
BBXX 46211 17121 99469 71242 46/// ///// 1//// 91136 22200 00082 12005 21002 328// 42004 70026
BBXX DBKV 17121 99172 70221 46/// /0609 10245 20159 40173 52009 22261 00242
BBXX DBBT 17121 99425 30003 46/// /2412 10067 20020 40002 52009 22223 00108
BBXX BAREU56 17124 99430 10098 46/// ///// 40030 52016 22232
BBXX DBBU 17121 99545 10124 46/// /3117 10044 20065 49895 52046 22252 00055
BBXX DBFR 17121 99542 10080 46/// /3214 10072 20032 49966 52019 22210 00067
BBXX DBJM 17121 99542 10079 46/// /3209 10073 20019 49971 52021 22210 00082
BBXX DBEA 17121 99540 10085 46/// /3311 10058 20024 49967 52024 22240 00046
AAXX 17124 91408 31474 60910 10272 20250 30058 40096 52017 70282 83271 333 10311 56999 58006 70008 555 91712
AAXX 17124 91334 32474 60510 10284 20239 30091 40094 51008 82171 333 10311 56299 58006 555 91712
AAXX 17124 91334 32474 60510 10284 20239 30091 40094 51008 82171 333 10311 56299 58006 555 91712
AAXX 17124 91408 31474 60910 10272 20250 30058 40096 52017 70282 83271 333 10311 56999 58006 70008 555 91712
AAXX 17124 68392 36/// /1009 10240 20094 30118 4//// 58008 333 10242 20127 91017 555
AAXX 17124 68382 36/// /1006 10251 20074 39389 48581 58013 333 10253 20137 91010 555 91020
AAXX 17124 91643 11599 50405 10280 20244 40100 51002 60001 70222 81205 333 10312 561/9 81820 85280
AAXX 17124 91643 11599 50405 10280 20244 40100 51002 60001 70222 81205 333 10312 561/9 81820 85280
BBXX 41114 17121 99276 70802 46/// ///// 1//// 91146 22200 00248 11002 21002 306// 41201 70012
BBXX 44060 17121 99413 70721 46/// ///05 10040 40189 91145 22200 00106 333 91206 555 11046 22051
BBXX 44022 17121 99409 70737 46/// ///06 10035 21022 40196 91145 22200 00090 333 91208 555 11067 22067
BBXX 46060 17121 99606 71468 46/// /1210 10022 40032 91150 22200 00061 333 91211 555 11103 22108
BBXX 46088 17121 99483 71232 46/// /1003 10067 40263 58022 91150 22200 00080 1//00 70002 333 91203 555 11027 22028 31108 41304 61149 103026 125020 135022 134029 131030 138029
BBXX 52200 17121 99134 11448 46/// ///// 1//// 91145 22200 00287 11005 21005 309// 41102 70026
BBXX 51201 17121 99217 71581 46/// ///// 1//// 91142 22200 00244 11506 20803 332// 41506 70032
AAXX 17124 61902 32482 61416 10269 20192 40144 868// 333 58000 81818 85635
AAXX 17124 68906 11598 62413 10084 20046 30020 40085 53006 60011 72588 85260 222// 00116 20401 319// 40803 333 10108 20065 91019 555 20016 91008
AAXX 17124 61901 12486 71311 10179 20124 39681 40188 60001 878// 91150 333 59002 81815 87628
AAXX 17124 68994 32598 13217 10110 20067 30199 40228 53002 81101 222// 00075 333 10128 20033 91025 555 91022
AAXX 17121 13579 11562 80702 10079 20052 39167 49984 57011 60061 76166 8552/ 333 83720 84636 88550
AAXX 17124 16597 32570 62815 10164 20126 30019 40105 58007 81800 333 81821 86657 91127 91529
AAXX 17124 68352 36/// /1011 10295 20293 39095 48560 58008 333 10296 20182 91017 555 91019
AAXX 17124 89664 12561 60000 11034 21088 39865 49906 52011 69902 81570 333 11018 21042 56660 59022 81630 84358 90977 93197
AAXX 17124 89664 12561 60000 11034 21088 39865 49906 52011 69902 81570 333 11018 21042 56660 59022 81630 84358 90977 93197
BBXX A8YW2 17124 99243 30577 41597 71021 10270 20193 40110 57020 70322 83279 22214 00230 20201 316// 40801 80220
BBXX A8IE7 17124 99187 10641 41598 20209 10270 40120 54000 70200 8/1// 22274 04270 21101
AAXX 17124 89664 12561 60000 11034 21088 39865 49906 52011 69902 81570 333 11018 21042 56660 59022 81630 84358 90977 93197
BBXX 32012 17121 99197 50856 46/// ///// 1//// 91150 22200 11404 70019
BBXX 46002 17121 99426 71305 46/// ///// 10101 40250 57010 91150 22200 00120 11907 70034
BBXX 46006 17121 99408 71375 46/// /1809 10136 40214 56010 91150 22200 00124 11608 20703 3//// 41607 70041 333 91211 555 11097 22106 31110 41912 61149 181090 181090 182093 180094 183092 185088
BBXX 46084 17121 99566 71361 46/// /2403 10051 20000 40129 53006 91150 22200 00072 11609 20401 300// 41609 70044 333 91206 555 11032 22033 31145 42506 61149 242028 228008 238025 257014 274017 216010
BBXX 46075 17121 99539 71608 46/// /1717 10048 20045 49834 58065 91150 22200 00048 10810 20808 300// 41106 70050 333 91221 555 11179 22192 31126 41622 61149 166168 164171 165168 161168 159157 159159 81719 91126
BBXX 46005 17121 99461 71310 46/// ///11 10097 40207 58013 91150 22200 00100 11510 20604 3//// 41508 70048 333 91213 555 11112 22120
BBXX 46059 17121 99380 71300 46/// /3407 10131 40242 56011 91150 22200 00149 11504 20602 3//// 41504 70020 333 91208 555 11070 22073 31120 43408 61149 339066 345066 343067 346064 343064 346066
BBXX 46080 17121 99580 71500 46/// /2209 10049 20028 40002 52015 91150 22200 00055 11108 20805 3//// 41106 70040 333 91212 555 11100 22106 31140 42112 61149 215095 219089 215091 207090 203085 204084 82210 91141
AAXX 17124 78862 12480 40509 10254 20175 30131 40154 60001 84840 333 10284 20237 58014 81818 84635
AAXX 17124 000Z 1612/1712 03014KT 9999 SCT022 PROB30 TEMPO 1612/1712 SHRA BKN020
AAXX 17124 TAF TQPF 161000Z 1612/1712 03014KT 9999 SCT022 PROB30 TEMPO 1612/1712 SHRA BKN020
AAXX 17124 TAF TUPJ 161000Z 1612/1712 03014KT 9999 SCT022 PROB30 TEMPO 1612/1712 SHRA BKN020
AAXX 17124 TAF TUPJ 121600Z 1218/1318 VRB04KT 9999 SCT016 PROB30 TEMPO 1218/1318 SHRA FEW012CB BKN015 BECMG 1312/1314 10008KT
AAXX 17124 EMPO 0600/0624 SHRA BKN015=+TSRA SCT012CB
AAXX 17124 TAF TUPJ 041000Z 04012/0512 07008KT 9999 SCT016 BKN038 SCT270 TEMPO 0412/0512 SHRA BKN015 PROB40 TEMPO 0418/0512 5000 SHRA BKN014 BKN036 PROB30 0420/0512 4000 TSRA FEW012CB
AAXX 17124 918 4000 TSRA FEW012CB
AAXX 17124 N015 BKN036 PROB40 TEMPO 0704/0724 3000 +TSRA SCT011CB BKN012 BECMG 0712/0714 14008KT
AAXX 17124 21/2712 07017G28KT 5000 SHRA BKN015 BKN036 PROB TEMPO 2700/2712 4000 TSRA FEW013CB
AAXX 17124 PROB30 TEMPO 0800/0806 4000 TSRA FEW012CB PROB40 TEMPO 0800/0824 2000 +SHRA/TSRA SCT010CB BKN012 BKN250
AAXX 17124 78862 12480 40509 10254 20175 30131 40154 60001 84840 333 10284 20237 58014 81818 84635
AAXX 17124 000Z 1612/1712 03014KT 9999 SCT022 PROB30 TEMPO 1612/1712 SHRA BKN020
AAXX 17124 TAF TQPF 161000Z 1612/1712 03014KT 9999 SCT022 PROB30 TEMPO 1612/1712 SHRA BKN020
AAXX 17124 TAF TUPJ 161000Z 1612/1712 03014KT 9999 SCT022 PROB30 TEMPO 1612/1712 SHRA BKN020
AAXX 17124 TAF TUPJ 121600Z 1218/1318 VRB04KT 9999 SCT016 PROB30 TEMPO 1218/1318 SHRA FEW012CB BKN015 BECMG 1312/1314 10008KT
AAXX 17124 EMPO 0600/0624 SHRA BKN015=+TSRA SCT012CB
AAXX 17124 TAF TUPJ 041000Z 04012/0512 07008KT 9999 SCT016 BKN038 SCT270 TEMPO 0412/0512 SHRA BKN015 PROB40 TEMPO 0418/0512 5000 SHRA BKN014 BKN036 PROB30 0420/0512 4000 TSRA FEW012CB
AAXX 17124 918 4000 TSRA FEW012CB
AAXX 17124 N015 BKN036 PROB40 TEMPO 0704/0724 3000 +TSRA SCT011CB BKN012 BECMG 0712/0714 14008KT
AAXX 17124 21/2712 07017G28KT 5000 SHRA BKN015 BKN036 PROB TEMPO 2700/2712 4000 TSRA FEW013CB
AAXX 17124 PROB30 TEMPO 0800/0806 4000 TSRA FEW012CB PROB40 TEMPO 0800/0824 2000 +SHRA/TSRA SCT010CB BKN012 BKN250
AAXX 17124 78862 12480 40509 10254 20175 30131 40154 60001 84840 333 10284 20237 58014 81818 84635
AAXX 17124 000Z 1612/1712 03014KT 9999 SCT022 PROB30 TEMPO 1612/1712 SHRA BKN020
AAXX 17124 TAF TQPF 161000Z 1612/1712 03014KT 9999 SCT022 PROB30 TEMPO 1612/1712 SHRA BKN020
AAXX 17124 TAF TUPJ 161000Z 1612/1712 03014KT 9999 SCT022 PROB30 TEMPO 1612/1712 SHRA BKN020
AAXX 17124 TAF TUPJ 121600Z 1218/1318 VRB04KT 9999 SCT016 PROB30 TEMPO 1218/1318 SHRA FEW012CB BKN015 BECMG 1312/1314 10008KT
AAXX 17124 EMPO 0600/0624 SHRA BKN015=+TSRA SCT012CB
AAXX 17124 TAF TUPJ 041000Z 04012/0512 07008KT 9999 SCT016 BKN038 SCT270 TEMPO 0412/0512 SHRA BKN015 PROB40 TEMPO 0418/0512 5000 SHRA BKN014 BKN036 PROB30 0420/0512 4000 TSRA FEW012CB
AAXX 17124 918 4000 TSRA FEW012CB
AAXX 17124 N015 BKN036 PROB40 TEMPO 0704/0724 3000 +TSRA SCT011CB BKN012 BECMG 0712/0714 14008KT
AAXX 17124 21/2712 07017G28KT 5000 SHRA BKN015 BKN036 PROB TEMPO 2700/2712 4000 TSRA FEW013CB
AAXX 17124 PROB30 TEMPO 0800/0806 4000 TSRA FEW012CB PROB40 TEMPO 0800/0824 2000 +SHRA/TSRA SCT010CB BKN012 BKN250
BBXX 41012 17121 99300 70805 46/// /2807 10213 40215 53006 91150 22200 00242 11002 20301 309// 41002 70012 333 91208 555 11071 22075 31138 42808 61149 281068 282065 280065 280064 275062 276057
BBXX 41060 17121 99148 70510 46/// ///// 1//// 91150 22200 11104 70020
BBXX 41049 17121 99275 70630 46/// /0307 10213 20130 40206 53014 91150 22200 00244 11005 20503 300// 41005 70027 333 91210 555 11077 22080 31120 40410 61149 031072 036073 031072 035076 037069 035075 80409 91120
BBXX 41001 17121 99347 70727 46/// ///// 10186 20143 40166 53016 91150 22200 00221 10604 70021
BBXX 42020 17121 99270 70967 46/// /0309 10186 20161 40257 53009 91150 22200 00236 10704 20704 70019 333 91212 555 11095 22099 31102 40313 61149 032092 031092 032093 031091 028093 028095
BBXX 41044 17121 99217 70587 46/// /0209 10246 20153 40158 53020 91150 22200 00265 11107 20704 300// 41106 70037 333 91212 555 11097 22102 31146 40112 61149 017090 016086 021080 021079 017078 011081 80210 91147
BBXX 41048 17121 99320 70696 46/// /2509 10215 20142 40200 53005 91150 22200 00230 11404 20602 3//// 41403 70020 333 91210 555 11086 22090 31137 42411 61149 250086 243088 242086 244081 246072 251079 82410 91137
BBXX 42065 17121 99149 70750 46/// /0810 10272 20193 91150 22200 10905 20804 3//// 40902 70023 333 91212 555 11106 22113 31057 40913 61149 082098 082095 081102 081098 080104 085108 80811 91100
BBXX 42012 17121 99301 70876 46/// /3507 10157 20138 40247 53017 91150 22200 00205 10701 20601 317// 40701 70007 333 91208 555 11073 22076 31138 43509 61149 352070 353075 351069 354069 356071 005068
BBXX 42001 17121 99259 70897 46/// /0601 10237 20189 40236 53007 91150 22200 00261 10702 20401 3//// 40702 70008 333 91202 555 11009 22009 31056 41004 61149 062008 062016 079018 076024 084026 099035
BBXX 42035 17121 99292 70944 46/// /0110 10119 20117 40275 53006 91150 22200 00173 10502 20502 316// 40801 70012 333 91212 555 11105 22109 31117 40213 61149 009099 016096 023104 024107 023104 025101
BBXX 42060 17121 99163 70635 46/// /0407 10261 20145 40158 53018 91150 22200 00279 10604 20603 300// 41102 70018 333 91209 555 11075 22078 31132 40511 61149 045072 051086 044081 024072 034065 037079 80510 91132
BBXX 42058 17121 99149 70749 46/// /0809 10273 20197 40135 51018 91150 22200 00278 10804 20603 308// 40803 70020 333 91210 555 11095 22101 31102 40811 61149 079089 081088 083091 079084 081092 081088 80810 91102
BBXX 42036 17121 99285 70845 46/// /3004 10214 20171 40224 53007 91150 22200 00218 10501 317// 40501 70004 333 91205 555 11041 22043 31149 43105 61149 304039 308035 306033 303031 303031 300031
BBXX 42056 17121 99198 70849 46/// /0810 10243 20213 40174 52007 91150 22200 00272 10803 20803 70016 333 91212 555 11101 22106 31135 40714 61149 079098 070104 074075 065071 056070 027046 80712 91136
BBXX 42059 17121 99151 70675 46/// /0609 10268 20184 40148 53018 91150 22200 00281 10705 20705 70025 333 91211 555 11100 22106 31120 40511 61149 060093 063093 057094 059097 059092 061093 80610 91111
BBXX 44005 17121 99432 70691 46/// /3201 10048 21027 40163 53006 91150 22200 00087 11102 20401 3//// 41102 70010 333 91202 555 11013 22014 31109 43303 61149 325012 333013 324016 301016 321020 320017
BBXX 42040 17121 99292 70882 46/// /0108 10180 40243 53012 91150 22200 00229 10802 20402 316// 40801 70010 333 91209 555 11077 22080 31137 43509 61149 007077 004077 008074 007069 001068 008063
BBXX 42055 17121 99222 70940 46/// /3304 10225 20204 40217 53013 91150 22200 00251 10802 20301 306// 40802 70009 333 91205 555 11039 22041 31116 43607 61149 331040 341055 341058 345044 274012 318013 83507 91116
BBXX WZJC 17123 99205 70727 41398 70715 10222 2020/ 40170 53012 76282 87748 22273 00267 20302 30805 40605 50704 6//// 80206 ICE /////
BBXX ICRA 17124 99046 30554 419// /2816 10300 2025/ 40080 54040 7//// 8/000 222// 00280 2//// 3//// 4//// 5//// 6//// 80260 ICE /////
BBXX NWS0022 17124 99416 70714 43/// /2702 10036 21008 40178 5//// 7//// 8//// 222// 04124 2//// 3//// 4//// 5//// 6//// 8//// ICE /////
BBXX WDE3569 17124 99452 70858 43/// 83107 11061 2//// 40220 5//// 7//// 8//// 22253 00044 20000 3//// 4//// 5//// 6//// 8//// ICE /////
BBXX WDC6698 17124 99075 71450 43/// /1313 11358 21730 40080 5//// 7//// 8//// 222// 04270 2//// 3//// 4//// 5//// 6//// 8//// ICE /////
AAXX 17124 78016 32564 62208 10200 20157 30199 40203 52006 86800 333 10212 20191 79999
AAXX 17124 78774 32670 80000 10238 20194 30011 40088 52006 83520 333 10312 20229 30/// 56230 59002 83835 87462
BBXX 44025 17121 99402 70732 46/// /3207 10060 21014 40191 53009 91150 22200 00114 11302 20401 311// 41301 70010 333 91208 555 11072 22075 31101 43309 61149 326069 327071 332073 327071 326069 326071
BBXX 41008 17121 99314 70809 46/// /2406 10162 20153 40215 53007 91150 22200 00164 333 91207 555 11058 22062 31148 42507 61149 245055 247054 254054 258054 253057 251057
BBXX 44014 17121 99366 70748 46/// /3508 1//// 40198 53008 91150 22200 00148 333 91210 555 11081 22081 31139 43610 61149 352080 357074 000072 003070 001072 003076
BBXX 41004 17121 99325 70791 46/// /2606 10194 20154 40201 53010 91150 22200 00222 11102 20402 3//// 41101 70012 333 91208 555 11062 22064 31051 42611 61149 261059 258059 258065 261071 261078 259082
BBXX 44009 17121 99385 70747 46/// /3310 10056 40218 53006 91150 22200 00119 10403 20402 300// 41301 70013 333 91212 555 11107 22112 31130 43313 61149 331100 324102 327104 323102 319101 321097
BBXX 44027 17121 99443 70673 46/// /3406 10002 21056 40167 51016 91150 22200 00086 11002 20301 3//// 41002 70010 333 91208 555 11061 22063 31051 43408 61149 344058 340057 335059 347052 339047 338061
BBXX 44065 17121 99404 70737 46/// /3108 10050 21007 40198 53008 91150 22200 00102 11102 20301 310// 41101 70009 333 91210 555 11086 22090 31147 43110 61149 311082 306077 308075 308072 317069 319068 83209 91148
BBXX 41013 17121 99334 70777 46/// /0108 10144 20115 40192 51018 91150 22200 00203 11403 20602 309// 41402 70014 333 91210 555 11086 22090 31140 40110 61149 011082 010079 007075 004070 006066 356074
BBXX 44040 17121 99410 70736 46/// /3007 10037 21018 40200 91145 22200 1//00 70002 333 91209 555 11077 22088
BBXX 44020 17121 99414 70702 46/// /3105 10049 20007 40178 53015 91150 22200 00085 10301 20301 70004 333 91206 555 11055 22059 31114 42608 61149 297053 254058 255061 255066 255064 257064
BBXX 46001 17121 99563 71480 46/// /2310 10052 40054 53019 91150 22200 00050 11409 20806 300// 41407 70045 333 91213 555 11106 22114 31051 42314 61149 228100 224100 221095 221097 227097 228104
BBXX 46105 17121 99590 71522 46/// ///// 1//// 91150 22200 10803 70014
BBXX 46070 17121 99551 11753 46/// /0309 11012 21073 49880 58003 91150 22200 00039 11108 20504 3//// 41107 70041 333 91211 555 11092 22096 31112 40213 61149 033087 038093 034096 032098 038066 043077 80211 91112
BBXX 42003 17121 99260 70856 46/// /3505 1//// 91150 22200 10601 20401 309// 40601 70007 333 91205 555 11049 22052 31104 43307 61149 350046 343048 343054 344057 341059 344055 83406 91105
BBXX 42002 17121 99258 70937 46/// /0406 10234 20205 40234 53005 91150 22200 00241 10702 20501 309// 40702 70011 333 91207 555 11060 22064 31140 40408 61149 037061 043062 042060 036057 040055 045052
BBXX 41047 17121 99275 70715 46/// /3404 10229 40221 52005 91150 22200 00253 11407 20401 305// 41407 70033 333 91205 555 11035 22036 31126 43306 61149 340035 357038 328041 321032 324020 118014 83306 91126
BBXX 41043 17121 99211 70650 46/// /0606 10233 20205 40178 52014 91150 22200 00266 11006 20503 300// 41005 70030 333 91208 555 11061 22063 31136 40712 61149 058058 076085 068063 088068 085082 073074 80810 91136
BBXX 41036 17121 99342 70770 46/// ///// 10115 20086 40197 53011 91150 22200 00185 10502 70012
BBXX 44066 17121 99396 70726 46/// /3205 10082 20018 40186 54000 91150 22200 00134 11102 20401 3//// 41102 70010 333 91207 555 11054 22056 31133 43008 61149 315052 311053 318055 319056 319050 324053
BBXX A8IE7 17124 99187 10641 41598 20209 10270 40120 54000 70200 8/1// 22274 04270 21101
BBXX A8YW2 17124 99243 30577 41597 71021 10270 20193 40110 57020 70322 83279 22214 00230 20201 316// 40801 80220
BBXX ZCDD6 17123 99215 70180 41299 20830 10215 20117 40220 51005 70200 8/1// 22255 00200 20805 306// 40806 5//// 80160
BBXX ICRA 17124 99046 30554 419// /2816 10300 2025/ 40080 54040 7//// 8/000 222// 00280 2//// 3//// 4//// 5//// 6//// 80260 ICE /////
BBXX ONCE 17124 99336 30433 417// 31630 10200 2014/ 40160 57020 70100 83500 22224 00218 20303 312// 40906 5//// 6//// 80160 ICE /////
BBXX DBBT 17121 99425 30003 46/// /2412 10067 20020 40002 52009 22223 00108
BBXX DBKV 17121 99172 70221 46/// /0609 10245 20159 40173 52009 22261 00242
BBXX DPKZ 17123 99067 70124 41296 63209 10290 20232 40128 55004 70311 86672 22274 29901 318// 41002 80250
BBXX 32012 17121 99197 50856 46/// ///// 1//// 91150 22200 11404 70019
BBXX VRCI9 17124 99369 11479 41/98 /2819 10100 20038 40125 52030 70262 8//// 22215 00158 2//// 3//// 4//// 80070
BBXX SHIP 17121 99307 11235 41/98 80408 10090 20060 40308 51010 70121 88/// 22283 00147 2//// 3//// 4//// 80070
BBXX C6YA7 17124 99141 11347 41898 30616 10265 2024/ 40120 52010 70211 831// 22253 00290 2//// 3//// 4//// 5//// 6//// 80250 ICE /////
BBXX WDB3161 17124 99520 11657 41497 53205 11010 2104/ 49920 52005 70222 857// 22253 00056 20801 305// 41007 5//// 6//// 81020 ICE /////
BBXX SHIP 17124 99064 10948 41/98 82716 10270 2024/ 40110 50010 7//22 88/7/ 22264 0//// 2//// 3//// 4//// 5//// 6//// 80250 ICE /////
BBXX C6SI3 17123 99403 11519 41/95 /2630 10030 2001/ 40130 54000 78377 8//// 22213 0//// 20704 3//// 40804 5//// 6//// 80020 ICE /////
BBXX ELWG7 17124 99483 11735 416// 63224 10030 2110/ 49930 54000 7//11 865// 22224 00090 20804 331// 40805 5//// 6//// 81010 ICE /////
BBXX 4XIS 17123 99335 11420 43/98 33318 10115 2006/ 40210 54000 821// 22225 80080
BBXX 46002 17121 99426 71305 46/// ///// 10101 40250 57010 91150 22200 00120 11907 70034
BBXX 46080 17121 99580 71500 46/// /2209 10049 20028 40002 52015 91150 22200 00055 11108 20805 3//// 41106 70040 333 91212 555 11100 22106 31140 42112 61149 215095 219089 215091 207090 203085 204084 82210 91141
BBXX 46059 17121 99380 71300 46/// /3407 10131 40242 56011 91150 22200 00149 11504 20602 3//// 41504 70020 333 91208 555 11070 22073 31120 43408 61149 339066 345066 343067 346064 343064 346066
BBXX 46084 17121 99566 71361 46/// /2403 10051 20000 40129 53006 91150 22200 00072 11609 20401 300// 41609 70044 333 91206 555 11032 22033 31145 42506 61149 242028 228008 238025 257014 274017 216010
BBXX 46075 17121 99539 71608 46/// /1717 10048 20045 49834 58065 91150 22200 00048 10810 20808 300// 41106 70050 333 91221 555 11179 22192 31126 41622 61149 166168 164171 165168 161168 159157 159159 81719 91126
BBXX 46005 17121 99461 71310 46/// ///11 10097 40207 58013 91150 22200 00100 11510 20604 3//// 41508 70048 333 91213 555 11112 22120
BBXX 46006 17121 99408 71375 46/// /1809 10136 40214 56010 91150 22200 00124 11608 20703 3//// 41607 70041 333 91211 555 11097 22106 31110 41912 61149 181090 181090 182093 180094 183092 185088
BBXX WDD3826 17124 99447 70419 41598 50606 10156 2013/ 40160 52020 7//22 85/78 22214 00110 2//// 3//// 4//// 5//// 6//// 80140 ICE /////
BBXX DGHJ 17123 99279 71358 41/98 40616 10178 20117 40224 54000 70111 8//// 22263 00190 2//// 3//// 4//// 5//// 80142
BBXX DGTX 17123 99330 71679 41598 42032 10200 20135 40215 56020 70211 841// 22264 00230 20404 80160
BBXX 46088 17121 99483 71232 46/// /1003 10067 40263 58022 91150 22200 00080 1//00 70002 333 91203 555 11027 22028 31108 41304 61149 103026 125020 135022 134029 131030 138029
BBXX 41114 17121 99276 70802 46/// ///// 1//// 91146 22200 00248 11002 21002 306// 41201 70012
BBXX 44022 17121 99409 70737 46/// ///06 10035 21022 40196 91145 22200 00090 333 91208 555 11067 22067
BBXX 46060 17121 99606 71468 46/// /1210 10022 40032 91150 22200 00061 333 91211 555 11103 22108
BBXX 44060 17121 99413 70721 46/// ///05 10040 40189 91145 22200 00106 333 91206 555 11046 22051
BBXX WCX8812 17124 99393 71358 41498 82120 10140 2011/ 40260 51007 70222 885// 22225 00150 20104 330// 41205 5//// 6//// 80125 ICE /////
BBXX ZCDG8 17123 99153 70620 41698 20626 10260 20163 40126 51020 70200 82145 22273 00290 20605 307// 40605 5//// 80200
BBXX 46211 17121 99469 71242 46/// ///// 1//// 91136 22200 00082 12005 21002 328// 42004 70026
BBXX 46217 17121 99342 71194 46/// ///// 1//// 91142 22200 00145 11002 21001 327// 41101 70008
BBXX 46212 17121 99408 71243 46/// ///// 1//// 91142 22200 00099 11504 20602 330// 41503 70021
BBXX 44098 17121 99428 70702 46/// ///// 1//// 91137 22200 00091 11202 21001 310// 41201 70009
BBXX 44097 17121 99410 70711 46/// ///// 1//// 91132 22200 00121 10802 20802 316// 41301 70011
BBXX 41115 17121 99184 70673 46/// ///// 1//// 91135 22200 11104 20903 301// 41103 70020
BBXX 46249 17121 99338 71197 46/// ///// 1//// 91142 22200 00146 11202 20302 325// 41201 70010
BBXX 46244 17121 99409 71244 46/// ///// 1//// 91135 22200 00097 11404 20702 331// 41404 70022
BBXX DMDZ 17123 99221 70352 41598 30913 10245 20178 40210 51010 70200 8/470 22263 04240 20501 309// 41204 5//// 80200
BBXX WHRN 17123 99227 71547 41598 30519 10230 2019/ 40182 56008 70211 8316/ 22215 00240 20904 329// 41405 5//// 6//// 80200 ICE /////
BBXX WDB9949 17124 99409 71280 41998 03416 10120 2010/ 40220 5//// 70200 80/// 22274 00090 20502 332// 41104 5//// 6//// 80110 ICE /////
BBXX 46014 17121 99394 71240 46/// /1606 10103 40204 54000 91150 22200 00103 11504 20501 3//// 41504 70020 333 91208 555 11068 22073 31144 41608 61149 158063 156056 145052 148058 146050 131044
BBXX 46011 17121 99350 71210 46/// /3301 10128 40191 56007 91150 22200 00133 11604 20301 332// 41603 70018 333 91203 555 11012 22013 31113 40606 61149 334013 358028 037035 043042 040039 042040
BBXX 46047 17121 99324 71195 46/// /3303 10143 40171 57006 91150 22200 00143 11104 20401 331// 41104 70018 333 91204 555 11032 22034 31120 43304 61149 336031 349018 305018 312029 323027 354022
BBXX 46027 17121 99419 71244 46/// /1004 10129 40202 56007 91150 22200 00091 11503 20401 330// 41503 70017 333 91205 555 11043 22051 31139 41206 61149 105037 117042 105025 115027 081035 057039
BBXX 46086 17121 99325 71180 46/// /3506 10151 40157 58008 91150 22200 00150 11003 20601 330// 41003 70016 333 91208 555 11068 22073 31147 43508 61149 349064 347060 348059 346059 341058 341053
BBXX 46088 17121 99483 71232 46/// /1003 10067 40263 91150 22200 00080 1//00 70002 333 91203 555 11027 22028 31108 41304 61149 103026 125020 135022 134029 131030 138029
BBXX 46050 17121 99442 71246 46/// /0604 10097 40244 56018 91150 22200 00101 11405 20301 328// 41405 70025 333 91205 555 11038 22039 31106 40806 61149 062036 067038 067042 070043 066044 066042
BBXX 46069 17121 99337 71202 46/// /3604 10152 40177 56007 91150 22200 00136 11003 20401 331// 41003 70017 333 91205 555 11047 22055 31102 40507 61149 357040 349037 005040 024039 037039 031040
BBXX 46013 17121 99382 71233 46/// /1501 10105 40206 50000 91150 22200 00110 11604 20401 3//// 41604 70018 333 91201 555 11007 22007 31105 41404 61149 159007 171014 157017 133025 138025 131016
BBXX 46012 17121 99374 71229 46/// /3304 10112 40200 58007 91150 22200 00119 11504 329// 41504 70019 333 91205 555 11039 22040 31129 43005 61149 333038 315039 304038 301040 302037 309027
BBXX 46087 17121 99485 71247 46/// /1005 10082 20073 40260 57022 91150 22200 00077 333 91207 555 11056 22062 31051 41007 61149 103052 100050 097050 099051 101050 099054
BBXX 46029 17121 99461 71245 46/// /0904 10077 20063 40252 56020 91150 22200 00081 12105 20401 330// 42105 70026 333 91205 555 11043 22045 31052 40906 61149 089041 089041 088045 091044 097045 090048
BBXX 46054 17121 99342 71204 46/// /3003 10134 40179 58011 91150 22200 00138 11003 20401 300// 41003 70016 333 91204 555 11032 22034 31051 43005 61149 302030 311030 309029 317027 313030 309035
BBXX 46028 17121 99357 71219 46/// /1001 10129 40193 57006 91150 22200 00137 11604 20401 330// 41604 70020 333 91202 555 11007 22007 31055 41303 61149 104008 104014 107016 109016 118018 131019
BBXX 46025 17121 99337 71191 46/// /3202 10159 20080 40165 58009 91150 22200 00149 11001 20301 328// 41001 70007 333 91202 555 11022 22026 31102 41804 61149 317018 331016 328014 330008 139015 098010
BBXX WDE5381 17124 99336 71204 41998 03515 10139 2009/ 40170 54000 7//00 80000 22264 0//// 2//// 329// 40604 5//// 6//// 80111 ICE /////
BBXX V7DI7 17124 99404 70612 41397 73218 10125 2008/ 40120 52010 70222 872// 22241 0//// 20403 329// 40604 5//// 6//// 80100 ICE /////
BBXX WZJC 17123 99205 70727 41398 70715 10222 2020/ 40170 53012 76282 87748 22273 00267 20302 30805 40605 50704 6//// 80206 ICE /////
BBXX 42363 17121 99282 70892 46/// /0209 10200 20161 40247 91145 333 91209
BBXX 42364 17121 99291 70881 46/// /3507 10194 20172 40247 91145
BBXX 42362 17121 99278 70907 46/// /0408 10211 20183 40244 91145
BBXX V2KU 17123 99324 70116 41497 40320 10200 20169 40290 53/// 70111 83124 22284 20305 80180
BBXX KABL 17124 99375 70182 41698 33112 10190 2014/ 40350 52010 7//00 837// 22224 00183 21002 332// 41003 5//// 6//// 80160 ICE /////
BBXX DBEA 17121 99540 10085 46/// /3311 10058 20024 49967 52024 22240 00046
BBXX DBJM 17121 99542 10079 46/// /3209 10073 20019 49971 52021 22210 00082
BBXX DBBU 17121 99545 10124 46/// /3117 10044 20065 49895 52046 22252 00055
BBXX DBFR 17121 99542 10080 46/// /3214 10072 20032 49966 52019 22210 00067
AAXX 17121 76305 32670 80000 10165 20075 30151 40160 5//// 8442/ 91134 333 10225 20148 30136 5655/ 58019 70000 84650
AAXX 17121 76342 11430 83601 10088 20077 39596 40330 54000 60011 75055 887// 91150 333 10134 20082 30074 561// 58058 70025 88710
AAXX 17121 76491 32456 73202 10124 20122 39891 40291 52009 875// 91145 333 10205 20120 30/// 569// 58098 79999 87620
AAXX 17121 76525 32260 31207 10072 20058 37503 40193 52003 83600 91140 333 10179 20069 30065 55089 22412 563// 58035 70000 83706
AAXX 17121 76539 32658 80601 10117 20114 38205 40221 52004 88400 91150 333 10240 20101 30074 56700 58030 70000 88626
AAXX 17121 76548 32960 83604 10168 20139 30250 40260 53011 8802/ 91140 333 10266 20166 30172 56050 58089 70000 88462
AAXX 17121 76556 32960 01602 10136 20109 39127 40151 52001 91130 333 10284 20134 30112 58027 70000
AAXX 17121 76586 06/// /0701 10162 20160 30097 40256 53011 60121 7//// 8//// 91150 333 0//// 10301 20161 30/// 4//// 50219 54/// 55030 56/// 57/// 58088 60037 70136 8//// 8//// 8//// 9/
AAXX 17121 76634 31970 82801 10108 20105 37894 40226 52002 71042 88400 91150 333 10211 20095 30082 563// 58040 70002 88620
AAXX 17121 76654 31956 00201 10209 20171 30147 40151 55002 70544 91150 333 10284 20207 30175 58015 70000
AAXX 17121 76675 32960 22102 10020 20000 37408 40231 51003 80005 91140 333 10225 20007 31019 56009 58027 70000
AAXX 17121 76685 32950 00000 10068 20048 37901 40200 54000 91150 333 10246 20066 30020 58034 70000
AAXX 17121 76687 01210 82301 10148 20139 38733 40228 52005 69901 75044 886// 91148 333 10236 20146 30131 563// 58057 69907 79999 86706 82608
AAXX 17121 76692 01520 83303 10216 20202 30190 40210 51000 60151 75865 85620 91145 333 10271 20214 31/// 5688/ 58054 60107 70151 85630 82456 81355
AAXX 17121 76737 01470 80000 10154 20141 38823 40211 51003 69921 75022 887// 91135 333 10229 20154 30143 562// 59055 69927 70002 88713 91102 91534
AAXX 17121 76743 32950 03401 10225 20212 30179 40187 52005 91145 333 10293 20225 30220 58042 70000
AAXX 17121 76840 32520 10207 10266 20183 30079 40134 52006 81100 91140 333 10344 20228 30/// 55082 569// 58021 79999 81827 91217 91502 90410
AAXX 17121 76843 32965 00000 10199 20162 39519 40160 52010 91140 333 10290 20191 30171 58029 79999
AAXX 17121 76845 32256 40602 10105 20096 37976 40223 5//// 84600 91147 333 10208 20095 30082 56200 58020 70003 84703
AAXX 17121 76412 32960 02801 10120 20087 30159 40205 52043 91150 333 10226 20104 30/// 58038 70000
AAXX 17121 76640 11010 83605 10204 20201 30236 40248 52009 60031 75052 8572/ 91140 333 10276 20190 30188 5689/ 58143 70028 85701 83440
AAXX 17121 76741 01240 50504 10241 20228 30160 40178 53006 60041 72146 84220 91135 333 10285 20229 30226 561// 58062 60047 70051 84806
BBXX A8VL5 17124 99139 10514 41397 20417 10230 20183 40250 56010 70200 81140 22265 00250 20302 30000 80200
BBXX BAREU05 17124 99434 70385 46/// ///// 40178 52006 22263
AAXX 17124 40310 32960 01404 10147 21010 38956 48500 57018
BBXX C6CU6 17123 99328 70455 41497 72403 10210 20198 40161 50012 70322 8756/ 22253 04210 20911 315// 41211 5//// 80202
BBXX DCAX2 17123 99153 11464 41797 11123 10280 20280 40140 54000 70200 81141 22233 21205 311// 41205 5//// 80280
BBXX BAREU11 17124 99149 70723 46/// ///// 40143 52019 22213
BBXX BAREU00 17124 99511 70310 46/// ///// 40221 57002 22224
BBXX BAREU51 17124 99425 10109 46/// ///// 40017 52020 22274
BBXX ELWP5 17121 99055 10018 41596 30000 10310 20227 40175 54000 70500 83217 22200 04270 20000 399// 4//// 5//// 80250
BBXX BAREU08 17124 99371 70318 46/// ///// 40318 52023 22224
BBXX BAREU04 17124 99548 70054 46/// ///// 40092 52016 22283
BBXX DILS 17123 99044 10026 41697 41303 10308 20272 40112 50000 71000 83540 22200 04290 20100 318// 40101 80282
AAXX 17124 78016 32564 62208 10200 20157 30199 40203 52006 86800 333 10212 20191 79999
AAXX 17124 78774 32670 80000 10238 20194 30011 40088 52006 83520 333 10312 20229 30/// 56230 59002 83835 87462
AAXX 17121 76305 32670 80000 10165 20075 30151 40160 5//// 8442/ 91134333 10225 20148 30136 5655/ 58019 70000 84650
AAXX 17121 76342 11430 83601 10088 20077 39596 40330 54000 60011 75055887// 91150 333 10134 20082 30074 561// 58058 70025 88710
AAXX 17121 76491 32456 73202 10124 20122 39891 40291 52009 875// 91145333 10205 20120 30/// 569// 58098 79999 87620
AAXX 17121 76525 32260 31207 10072 20058 37503 40193 52003 83600 91140333 10179 20069 30065 55089 22412 563// 58035 70000 83706
AAXX 17121 76539 32658 80601 10117 20114 38205 40221 52004 88400 91150333 10240 20101 30074 56700 58030 70000 88626
AAXX 17121 76548 32960 83604 10168 20139 30250 40260 53011 8802/ 91140333 10266 20166 30172 56050 58089 70000 88462
AAXX 17121 76556 32960 01602 10136 20109 39127 40151 52001 91130 33310284 20134 30112 58027 70000
AAXX 17121 76586 06/// /0701 10162 20160 30097 40256 53011 60121 7////8//// 91150 333 0//// 10301 20161 30/// 4//// 50219 54///55030 56/// 57/// 58088 60037 70136 8//// 8//// 8//// 9/
AAXX 17121 76634 31970 82801 10108 20105 37894 40226 52002 71042 8840091150 333 10211 20095 30082 563// 58040 70002 88620
AAXX 17121 76654 31956 00201 10209 20171 30147 40151 55002 70544 91150333 10284 20207 30175 58015 70000
AAXX 17121 76675 32960 22102 10020 20000 37408 40231 51003 80005 91140333 10225 20007 31019 56009 58027 70000
AAXX 17121 76685 32950 00000 10068 20048 37901 40200 54000 91150 33310246 20066 30020 58034 70000
AAXX 17121 76687 01210 82301 10148 20139 38733 40228 52005 69901 75044886// 91148 333 10236 20146 30131 563// 58057 69907 7999986706 82608
AAXX 17121 76692 01520 83303 10216 20202 30190 40210 51000 60151 7586585620 91145 333 10271 20214 31/// 5688/ 58054 60107 7015185630 82456 81355
AAXX 17121 76737 01470 80000 10154 20141 38823 40211 51003 69921 75022887// 91135 333 10229 20154 30143 562// 59055 69927 7000288713 91102 91534
AAXX 17121 76743 32950 03401 10225 20212 30179 40187 52005 91145 33310293 20225 30220 58042 70000
AAXX 17121 76840 32520 10207 10266 20183 30079 40134 52006 81100 91140333 10344 20228 30/// 55082 569// 58021 79999 81827 9121791502 90410
AAXX 17121 76843 32965 00000 10199 20162 39519 40160 52010 91140 33310290 20191 30171 58029 79999
AAXX 17121 76845 32256 40602 10105 20096 37976 40223 5//// 84600 91147333 10208 20095 30082 56200 58020 70003 84703
AAXX 17121 76412 32960 02801 10120 20087 30159 40205 52043 91150 33310226 20104 30/// 58038 70000
AAXX 17121 76640 11010 83605 10204 20201 30236 40248 52009 60031 750528572/ 91140 333 10276 20190 30188 5689/ 58143 70028 8570183440
AAXX 17121 76741 01240 50504 10241 20228 30160 40178 53006 60041 7214684220 91135 333 10285 20229 30226 561// 58062 60047 7005184806
AAXX 17124 91376 32474 40812 10279 20230 30085 40088 58003 82101 333 10297 562/9 59007 70069 555 91712
AAXX 17124 91376 32474 40812 10279 20230 30085 40088 58003 82101 333 10297 562/9 59007 70069 555 91712
AAXX 17124 81405 02562 11403 10278 20244 30114 40123 60024 81101 333 20219 60007 58003 81826 555 60005
AAXX 17124 78862 12480 40509 10254 20175 30131 40154 60001 84840 333 10284 20237 58014 81818 84635
AAXX 17124 000Z 1612/1712 03014KT 9999 SCT022 PROB30 TEMPO 1612/1712 SHRA BKN020
AAXX 17124 TAF TQPF 161000Z 1612/1712 03014KT 9999 SCT022 PROB30 TEMPO 1612/1712 SHRA BKN020
AAXX 17124 TAF TUPJ 161000Z 1612/1712 03014KT 9999 SCT022 PROB30 TEMPO 1612/1712 SHRA BKN020
AAXX 17124 TAF TUPJ 121600Z 1218/1318 VRB04KT 9999 SCT016 PROB30 TEMPO 1218/1318 SHRA FEW012CB BKN015 BECMG 1312/1314 10008KT
AAXX 17124 EMPO 0600/0624 SHRA BKN015=+TSRA SCT012CB
AAXX 17124 TAF TUPJ 041000Z 04012/0512 07008KT 9999 SCT016 BKN038 SCT270 TEMPO 0412/0512 SHRA BKN015 PROB40 TEMPO 0418/0512 5000 SHRA BKN014 BKN036 PROB30 0420/0512 4000 TSRA FEW012CB
AAXX 17124 918 4000 TSRA FEW012CB
AAXX 17124 N015 BKN036 PROB40 TEMPO 0704/0724 3000 +TSRA SCT011CB BKN012 BECMG 0712/0714 14008KT
AAXX 17124 21/2712 07017G28KT 5000 SHRA BKN015 BKN036 PROB TEMPO 2700/2712 4000 TSRA FEW013CB
AAXX 17124 PROB30 TEMPO 0800/0806 4000 TSRA FEW012CB PROB40 TEMPO 0800/0824 2000 +SHRA/TSRA SCT010CB BKN012 BKN250
AAXX 17124 81405 02562 11403 10278 20244 30114 40123 60024 81101 333 20219 60007 58003 81826 555 60005
AAXX 17124 78384 11460 60714 10250 20225 40168 60012 71682 84802 333 10291 20239 58008 70010 83810 90999
AAXX 17124
AAXX 17124 78383 12460 50707 10249 20201 40172 60002 83202 333 10286 20241 58006 70000 83816
AAXX 17124 78384 11460 60714 10250 20225 40168 60012 71682 84802 333 10291 20239 58008 70010 83810 90999
AAXX 17124 78383 12460 50707 10249 20201 40172 60002 83202 333 10286 20241 58006 70000 83816
AAXX 17124 91772 31498 30705 10271 20242 4//// 60001 70200 83200 333 10320 561// 83817
AAXX 17124 91776 NIL
AAXX 17124 91779 31498 20805 10260 20232 40140 58008 60001 70210 82101 333 10303 561/9 82816
AAXX 17124 91784 31499 29903 10261 20251 40135 58005 60001 70210 82100 333 10300 569// 82817
AAXX 17124 91792 31498 40504 10250 20244 40143 58013 60001 70121 82201 333 10310 561/9 82815
AAXX 17124 85406 12982 01803 10211 20134 40160 53011 60004 333 20174 30/// 55109 70000
AAXX 17124 85418 12965 02207 10214 20118 40163 55008 60004 333 20178 30/// 55112 70000
AAXX 17124 85432 12970 00815 10120 21005 37785 48478 52013 60004 333 20040 30/// 51450 55115 70000
AAXX 17124 85442 12570 11103 10168 20132 40169 53006 60004 81500 333 20153 30/// 50700 55116 56400 70000 81620
AAXX 17124 85469 42562 30000 10198 20186 40232 52007 83800 333 56600 83820
AAXX 17124 85488 12962 00000 10168 20111 40188 51006 60004 333 20112 30007 50430 55047 70000
AAXX 17124 91413 32469 70810 10280 20231 30085 40110 52017 82131 333 10312 56299 58010 555 91712
AAXX 17124 97180 01457 70805 10254 20245 30070 40088 53014 69901 72166 84271 333 10260 56000 69907 58005 84819 84460
AAXX 17124 68396 32680 10000 10272 20139 39483 48541 57011 81200 555 10272 91019
AAXX 17124 85586 11556 80000 10146 20116 40191 52008 60004 70528 885// 333 20104 30/// 50170 55000 56099 88615
AAXX 17124 85672 12970 01804 10166 20140 40188 52016 60004 333 20128 30/// 70000
AAXX 17124 85682 12460 41502 10155 20147 40181 52011 60004 84600 333 20105 30/// 51030 55048 56600 70000 84710
AAXX 17124 85743 11235 82804 10126 20117 40202 51010 60004 71022 886// 333 20124 30/// 50500 55065 56699 70000 88704
AAXX 17124 85766 12970 00000 10162 20142 40198 52008 60004 333 20083 30/// 55128 70000
AAXX 17124 85799 12360 70103 10160 20154 40197 51005 60004 87800 333 20128 30/// 50500 55129 56800 70000 82807 86626
AAXX 17124 85864 11680 61710 10172 20138 40122 57015 60004 702// 86200 333 20102 30/// 55102 56400 70000 86840
AAXX 17124 85874 12682 13118 10160 20081 39507 40115 58011 60004 81100 333 20108 30/// 55/// 56600 70000 81840
AAXX 17124 85934 11480 71810 10091 20067 40074 57016 60024 72162 84470 333 20079 32/// 55034 56000 70018 84616 87358
AAXX 17124 89056 12470 12629 10009 21034 49995 53006 60002 81500 333 02644 10015 20004 41998 55000 56600 81615
AAXX 17124 89057 11470 42318 10003 21001 40000 52040 60012 70262 84100 333 10014 20002 42080 56600 84810 91130
AAXX 17124 89058 32575 22525 10015 21036 39978 49999 52024 82500
AAXX 17124 89251 32465 82726 10014 21028 49991 52047 83500 333 20008
AAXX 17124 78925 12570 20705 10249 20202 40147 53019 69901 82800 333 10295 20219 58016 70026 81826
BBXX 46001 17121 99563 71480 46/// /2310 10052 40054 53019 91150 22200 00050 11409 20806 300// 41407 70045 333 91213 555 11106 22114 31051 42314 61149 228100 224100 221095 221097 227097 228104
BBXX 46002 17121 99426 71305 46/// ///// 10101 40250 57010 91150 22200 00120 11907 70034
BBXX 46005 17121 99461 71310 46/// ///11 10097 40207 58013 91150 22200 00100 11510 20604 3//// 41508 70048 333 91213 555 11112 22120
BBXX 46006 17121 99408 71375 46/// /1809 10136 40214 56010 91150 22200 00124 11608 20703 3//// 41607 70041 333 91211 555 11097 22106 31110 41912 61149 181090 181090 182093 180094 183092 185088
BBXX 46013 17121 99382 71233 46/// /1501 10105 40206 50000 91150 22200 00110 11604 20401 3//// 41604 70018 333 91201 555 11007 22007 31105 41404 61149 159007 171014 157017 133025 138025 131016
BBXX 46029 17121 99461 71245 46/// /0904 10077 20063 40252 56020 91150 22200 00081 12105 20401 330// 42105 70026 333 91205 555 11043 22045 31052 40906 61149 089041 089041 088045 091044 097045 090048
BBXX 46054 17121 99342 71204 46/// /3003 10134 40179 58011 91150 22200 00138 11003 20401 300// 41003 70016 333 91204 555 11032 22034 31051 43005 61149 302030 311030 309029 317027 313030 309035
BBXX WCX8812 17124 99393 71358 41498 82120 10140 20110 40260 51007 70222 885// 22225 00150 20104 330// 41205 5//// 6//// 80125 ICE /////
BBXX WDB9949 17124 99409 71280 41998 03416 10120 20100 40220 5//// 70200 80/// 22274 00090 20502 332// 41104 5//// 6//// 80110 ICE /////
BBXX WDE5381 17124 99336 71204 41998 03515 10139 20090 40170 54000 7//00 80000 22264 0//// 2//// 329// 40604 5//// 6//// 80111 ICE /////
AAXX 17124 91413 32469 70810 10280 20231 30085 40110 52017 82131 333 10312 56299 58010 555 91712
AAXX 17124 78925 12570 20705 10249 20202 40147 53019 69901 82800 333 10295 20219 58016 70026 81826
AAXX 17124 85577 12960 00000 10168 20121 39568 40174 51008 60004 333 20126 30011 50390 55092 70000
AAXX 17124 78925 12570 20705 10249 20202 40147 53019 69901 82800 333 10295 20219 58016 70026 81826
AAXX 17124 85586 11556 80000 10146 20116 40191 52008 60004 70528 885// 333 20104 30/// 50170 55000 56099 88615
AAXX 17124 85672 12970 01804 10166 20140 40188 52016 60004 333 20128 30/// 70000
AAXX 17124 85682 12460 41502 10155 20147 40181 52011 60004 84600 333 20105 30/// 51030 55048 56600 70000 84710
AAXX 17124 85743 11235 82804 10126 20117 40202 51010 60004 71022 886// 333 20124 30/// 50500 55065 56699 70000 88704
AAXX 17124 85766 12970 00000 10162 20142 40198 52008 60004 333 20083 30/// 55128 70000
AAXX 17124 85799 12360 70103 10160 20154 40197 51005 60004 87800 333 20128 30/// 50500 55129 56800 70000 82807 86626
AAXX 17124 85406 12982 01803 10211 20134 40160 53011 60004 333 20174 30/// 55109 70000
AAXX 17124 85418 12965 02207 10214 20118 40163 55008 60004 333 20178 30/// 55112 70000
AAXX 17124 85432 12970 00815 10120 21005 37785 48478 52013 60004 333 20040 30/// 51450 55115 70000
AAXX 17124 85442 12570 11103 10168 20132 40169 53006 60004 81500 333 20153 30/// 50700 55116 56400 70000 81620
AAXX 17124 85469 42562 30000 10198 20186 40232 52007 83800 333 56600 83820
AAXX 17124 85488 12962 00000 10168 20111 40188 51006 60004 333 20112 30007 50430 55047 70000
AAXX 17124 85864 11680 61710 10172 20138 40122 57015 60004 702// 86200 333 20102 30/// 55102 56400 70000 86840
AAXX 17124 85874 12682 13118 10160 20081 39507 40115 58011 60004 81100 333 20108 30/// 55/// 56600 70000 81840
AAXX 17124 85934 11480 71810 10091 20067 40074 57016 60024 72162 84470 333 20079 32/// 55034 56000 70018 84616 87358
AAXX 17124 89056 12470 12629 10009 21034 49995 53006 60002 81500 333 02644 10015 20004 41998 55000 56600 81615
AAXX 17124 89057 11470 42318 10003 21001 40000 52040 60012 70262 84100 333 10014 20002 42080 56600 84810 91130
AAXX 17124 89058 32575 22525 10015 21036 39978 49999 52024 82500
AAXX 17124 89251 32465 82726 10014 21028 49991 52047 83500 333 20008
AAXX 17124 85577 12960 00000 10168 20121 39568 40174 51008 60004 333 20126 30011 50390 55092 70000
BBXX BAREU62 17124 99441 10095 46/// ///// 40021 22273
BBXX BATFR19 17124 99065 30060 46/// /1822 10235 20194 40113 58025 22200 00255
BBXX BATFR41 17124 99425 10032 46/// /3035 10119 20024 40138 50004 22242
BBXX BAREU06 17124 99459 70733 46/// ///// 40221 52023 22232
BBXX FVNM 17124 99058 70901 46/// /2016 10249 20224 40112 53007 22222 00259
BBXX BATFR42 17124 99503 70031 46/// /3135 10077 20009 40119 53004 22264 00127
BBXX BATFR09 17124 99417 70098 44897 23517 10134 20019 40293 50002 70200 82100 22283 00162 20408
BBXX BATFR31 17124 99419 10087 46/// /2936 10120 40055 22262 00165
AAXX 17121 10004 NIL
AAXX 17121 10015 01580 33110 10073 20020 39960 49970 51020 69981 71681 83902 333 31/// 55310 20707 30274 69977 82830 81933 91120 91215 96488 99010
AAXX 17121 10020 07478 73312 10052 20030 39914 49946 51014 60031 72365 333 55305 20582 30368 60037 82/19 87/33 87/46 91118 91214
AAXX 17121 10035 12582 63006 10046 20019 39887 49945 51022 60001 85831 333 31/// 55307 20572 30340 40987 82833 84643 86362
AAXX 17121 10055 12482 13113 10048 20016 39911 49921 53022 60001 81201 333 31/// 55310 20630 30206 81816 91118 91215
AAXX 17121 10147 01475 52906 10054 20024 39935 49953 51024 69901 78022 85801 333 31/// 55306 20522 30269 40958 69907 82816 84632
AAXX 17121 10162 11480 23006 10039 20006 39849 49931 51025 69911 70161 82200 333 31/// 55303 20378 30260 82819
AAXX 17121 10184 01481 72909 10049 20015 39876 49884 51031 69941 70286 872// 333 31/// 55301 20300 30261 69907 87818 91116
AAXX 17121 10200 01565 62907 10052 20022 39998 49996 51021 69981 78082 86900 333 32/// 55305 20455 30330 69927 86920 91113
AAXX 17121 10224 01484 62805 10052 20030 39977 49983 51023 60031 72688 86902 333 33/// 55302 20407 30330 60037 82912 91117 91211 96283 96488
AAXX 17121 10270 NIL
AAXX 17121 10338 01382 72907 10031 20023 39907 49980 53017 60031 78382 8637/ 333 32/// 55300 20065 30065 60037 83808 85910 91113 96284 96480
AAXX 17121 10361 11485 72806 10043 20016 39858 49961 51025 69911 70381 878// 333 31/// 55304 20577 30394 85818 83648 91113
AAXX 17121 10393 11581 82806 10037 20004 39790 49916 52023 69901 70262 878// 333 31/// 55300 20196 30193 82820 87626 91115
AAXX 17121 10400 12580 32704 10064 20025 39995 40045 51018 60001 82831 333 31/// 55304 20508 30323 81825
AAXX 17121 10438 07477 42606 10028 20011 39727 40008 51017 60051 75787 333 55301 60057 81/12 83/50 91113
AAXX 17121 10469 01580 62907 10049 20006 39798 49962 51020 69901 72576 86200 333 31/// 55306 69907 86828 91115
AAXX 17121 10488 01474 72911 10034 21003 39669 49949 51018 69911 72586 878// 333 31/// 55300 20178 30176 41138 69907 83818 87637 91116 91211
AAXX 17121 10506 12381 72704 10022 20002 39475 40062 51019 69901 878// 333 42001 55301 20464 30427 86807
AAXX 17121 10548 01462 62906 10022 21006 39462 40004 51012 69921 78587 85830 333 31/// 41998 55303 20488 30401 69907 83815 83620 91113 96461
AAXX 17121 10637 11580 52708 10061 20010 39906 40043 51018 60001 71511 85242 333 31/// 55304 85828
AAXX 17121 10685 11582 52706 10010 21017 39314 49989 51018 69921 70371 84832 333 43003 55310 20975 30416 82822 83643 91113 96473 96471
AAXX 17121 10738 01482 32605 10032 21004 39591 40063 51024 69911 70187 83800 333 31/// 55302 69907 82818 96485 96483 96478 96471
AAXX 17121 10763 01475 72806 10032 20001 39643 40027 53026 69901 72287 878// 333 31/// 55302 20527 30431 69907 83816 85624 96485
AAXX 17121 10788 07581 72507 10025 20003 39581 40014 51020 69901 74076 333 55300 20234 30233 69907 81/26 85/44 87/50
AAXX 17121 10852 01482 72807 10028 20008 39474 40045 51028 69901 72687 872// 333 31/// 55301 20418 30355 69907 87814
AAXX 17121 10946 07484 82603 10011 21020 39229 40067 51028 69951 74176 333 55300 20432 30431 69917 82/16 87/29 88/56
AAXX 17124 78016 32564 62208 10200 20157 30199 40203 52006 86800 333 10212 20191 79999
BBXX BATEU01 17124 99465 70545 44796 82925 10024 21030 40101 51030 70022 8621/ 22224 00042 21006 327// 41006 5////
BBXX BATFR04 17124 99597 70110 46/// /2917 10057 21053 40107 53010 22200 00102
BBXX BATEU04 17124 99589 10004 46/// /3428 10052 21043 40002 53004 22223
BBXX BATEU08 17124 99634 70226 46/// /2717 10027 21032 40102 51016 22263
BBXX BATFR16 17124 99478 70048 46/// /3124 10107 20022 40187 50007 22235 00137
BBXX BATFR13 17124 99459 70132 44498 43215 10109 20035 40287 58002 70122 841// 22214 00137 20404 301// 41206 5////
BBXX BATFR60 17124 99539 10092 46/// /3015 10064 20020 49962 51015 22223 00037
BBXX BATFR03 17124 99498 70005 46/// /3024 10079 20015 40114 51004 22244
AAXX 17121 12772 11440 83203 10032 20023 39603 49884 53020 60071 76164 8472/ 333 84710 88520
AAXX 17121 12822 46/// /2906 10058 21007 39806 49948 53021
AAXX 17121 12843 11582 72907 10055 20001 39746 49914 52026 69931 70262 8687/ 333 83820 84640
AAXX 17121 12882 11458 82608 10054 20047 39744 49874 53018 60061 72162 8577/ 333 85710
AAXX 17121 12925 16/// /1702 10040 20014 39804 49975 51025 69981
AAXX 17121 12942 11360 82707 10022 20015 39736 49982 52037 60041 76176 8572/ 333 85706
AAXX 17121 12982 11583 82709 10043 20018 39840 49941 52045 60071 76062 8677/ 333 86720
BBXX BATFR08 17124 99448 30739 46/// /2518 10109 20084 40182 58004 22212 00117
BBXX BATFR46 17124 99412 10028 44/97 23119 10124 20045 40144 58004 701// 8//// 22253 00162 22004
BBXX BATFR02 17124 99506 70009 46/// /3131 10069 20014 40110 58011 22284 00109
BBXX BATEU06 17124 99546 70341 46/// /1615 10062 20019 40166 57038 22264 00072
BBXX BAREU12 17124 99539 10049 46/// ///// 49998 57004 22284
AAXX 17121 13586 12660 71302 10112 20088 39681 49963 50006 60001 84570 333 84640 87458
BBXX DBBI 17121 99539 10087 46/// /3207 10053 20048 49963 52021 22232 00042
BBXX DBKR 17121 99541 10121 46/// /3008 10045 20019 49909 52028 22200 00048
AAXX 17121 10007 NIL
AAXX 17121 10044 46/// /2911 10046 21002 39902 49933 51024 222// 00051 333 55309 91119 91217
AAXX 17121 10046 42480 32806 10044 20006 39900 49939 52023 82901 333 81918 83069
AAXX 17121 10091 11481 73014 10048 20021 39818 49868 51031 69931 70262 85232 222// 06059 333 31/// 55301 20327 30296 85816 87070 91122 91216
AAXX 17121 10113 11465 63211 10065 20023 39968 49987 51022 69921 70381 86900 333 32/// 55302 20350 30264 81918 83819 91122 91216 96488
AAXX 17121 10124 46/// ///// 10055 2//// 39931 49969 51026 222// 00052 333 553// 911// 912//
AAXX 17121 10131 01475 63108 10056 20025 39953 49968 51024 69941 72581 86900 333 31/// 55305 20463 30307 69937 83810 83925 91115 91211
AAXX 17121 10170 12480 73113 10047 20021 39894 49910 51026 60001 875// 333 31/// 55301 20261 30220 87618 91119 91215
AAXX 17121 10264 01482 72908 10035 20008 39821 49927 51027 69901 70382 872// 333 31/// 4/998 55300 20248 30247 69907 87816 91113
AAXX 17121 10291 01582 72707 10039 20011 39835 49902 53034 69901 72162 875// 333 31/// 55300 20261 30259 69907 87621 91116
AAXX 17121 10315 01475 52707 10053 20029 39953 40017 51021 69911 70181 84933 333 31/// 55305 20599 30404 69907 82818 81920 83656 91113
AAXX 17121 10379 01580 72908 10038 20009 39807 49928 51023 69901 70262 875// 333 31/// 55300 20082 30079 41153 69907 87622 91117 91211
AAXX 17121 10382 11482 72907 10042 20007 39878 49923 53020 69901 70362 878// 333 31/// 55301 20348 30326 85818 87625 91114
AAXX 17121 10384 06/// /2909 10044 20009 39861 49920 53022 69901 333 55302 20462 30378 69907 91115
AAXX 17121 10427 01/09 83010 11012 21012 39009 48320 51020 60031 74187 887// 333 48040 55300 20142 30142 60037 837// 87701 91117 91211 96488 96487 96485 96477
AAXX 17121 10430 01040 72404 10027 20021 39820 40013 51020 60031 72686 872// 333 31/// 55300 20106 30106 60017 81801 83806 85813 96284 96283 96487 96485
AAXX 17121 10439 41461 62803 10031 20013 39793 40014 51016 72681 86800 333 84810 85812 85622
AAXX 17121 10453 11/90 92916 11038 21039 38634 48276 53017 60051 77374 333 49110 55300 91131 91218 90311 91221 96049 96037
AAXX 17121 10496 01486 72706 10038 20010 39842 49926 51022 69901 70282 83801 333 31/// 55300 20259 30258 69907 82815 85073 91115
AAXX 17121 10499 01258 83205 10022 20001 39639 49928 51021 69911 77776 875// 333 32/// 55300 20195 30194 69917 83704 87610 91114
AAXX 17121 10505 01265 72707 10030 20021 39779 40063 51017 69901 72511 873// 333 32/// 41998 55301 20408 30354 69907 82806 83820 82920
AAXX 17121 10513 01570 52804 10055 20020 39928 40049 51013 69921 72711 85301 333 31/// 55301 20364 30328 69927 81823 83927 96015 96287 98680
AAXX 17121 10532 07480 72707 10042 20014 39781 40029 51017 69901 72365 333 55302 20431 30361 69907 87/18 87/34
AAXX 17121 10544 01/02 92907 11020 21020 38929 48315 51018 60011 78687 333 48013 55300 69947 91118 91212 96049 96287
AAXX 17121 10554 01481 72907 10025 20010 39602 49990 51017 69911 72571 86801 333 31/// 55300 20232 30232 69907 85810 96280 96215 96468
AAXX 17121 10567 11484 72910 10034 21007 39600 49975 51017 69901 70281 878// 333 31/// 55306 20737 30429 83818 86633 91117 91211
AAXX 17121 10578 11/01 92817 11046 21050 38557 48267 53022 69941 74974 333 49051 55300 20169 30149 96049
BBXX DBBC 17121 99542 10079 46/// /3108 10074 2//// 49969 52020 22220 00075
BBXX 41101 17124 99146 70562 46/// /0313 10261 20209 40130 52020 22200 00272 11004 70022
BBXX DBBA 17121 99540 10092 46/// /3008 10054 20025 49954 52016 22211 00042
BBXX DBEB 17121 99538 10081 41/// /3312 10057 20057 49969 52026 7//// 22200 00047
BBXX DBFH 17121 99535 10086 46/// /3206 10066 20041 49974 52026 22230 00051
BBXX 61001 17124 99434 10078 46/// /2923 10129 21008 40026 54000 22200 00151 10806 70032 555 1/029
BBXX DBCK 17121 99/// ///// 46/// ///// 10061 20057 49964 52024 22220 00060
BBXX DBND 17121 99/// ///// 46/// ///// 10060 20018 49965 52025 22220 00102
BBXX VEP717 17124 99467 70487 41498 72635 10048 2004/ 40089 52031 70341 87500 22200 06032 20404 321// 40705 80045
AAXX 17124 78897 14786 60000 10230 20190 40155 53019 60001 700// 333 10286 20192 58014 70000
AAXX 17124 96315 31460 73604 10282 20251 40067 71792 84968 333 10315 83816 81917 84364 85080
AAXX 17124 96323 NIL
AAXX 17124 78897 14786 60000 10230 20190 40155 53019 60001 700// 333 10286 20192 58014 70000
AAXX 17121 78221 11462 20504 10216 20190 30172 40199 52010 60004 70200 82200 333 82818
AAXX 17121 78224 31559 22601 10182 20166 30126 40202 53010 70544 82530 333 20181 82630
AAXX 17121 78229 12559 21501 10165 20152 30126 40201 52010 60004 82261 333 82820
AAXX 17121 78239 11559 60804 10235 20184 30187 40190 52010 60004 70520 86800 333 20228 82820 86640
AAXX 17121 12345 12559 40603 10188 20179 30150 40180 52005 60004 84800 333 84830
AAXX 17121 78243 12558 22800 10172 20167 30074 40198 52004 60014 82200 333 82820
AAXX 17121 78255 12459 20503 10193 20170 30044 40193 52010 60004 82800 333 20188 81818
AAXX 17121 78264 12559 20103 10198 20172 30101 40175 52010 60004 82200 333 20200 82820
AAXX 17121 78265 11559 21402 10193 20170 30082 40182 52010 60004 70200 82200 333 20189 82820
AAXX 17121 78256 NIL
AAXX 17121 78259 11559 31702 10191 20171 30100 40193 54000 60004 70544 83200 333 20190 83825
AAXX 17121 78268 11459 40808 10248 20240 30166 40185 54000 60004 70500 84200 333 84815
AAXX 17121 01003 NIL
AAXX 17121 01007 11989 20000 11022 21072 39974 49984 58002 60001 70200 82050 333 91105
AAXX 17121 01028 11470 7//// 11008 21015 39911 49931 52008 69911 70284 878//
AAXX 17121 01047 41588 82201 11047 21066 39598 49973 50007 70222 8452/
AAXX 17121 01049 16/// /1406 11024 21066 39952 49955 52008 60001 333 91109
AAXX 17121 01078 11385 72203 10000 21035 39941 49954 52009 6//// 70222 86440 333 91109
AAXX 17121 01102 46/// /1615 10021 21028 39889 49908 51016 333 91119
AAXX 17121 01160 41989 3//// 10040 21037 39899 49916 52010 70200 80002
AAXX 17121 01218 11789 51403 10027 21072 39902 49923 50009 60001 70121 81188 333 91112
AAXX 17121 01238 46/// /1302 11121 21133 38786 49908 51009 333 91105
AAXX 17121 01241 11586 71306 11005 21044 39903 49915 51016 60001 70321 86871 333 91110
AAXX 17121 01281 NIL
AAXX 17121 01338 16/// /0803 10001 21029 39873 49939 51011 60001 333 91107
AAXX 17121 01359 11889 32801 11156 21173 39016 49975 50002 60001 70120 82078 333 91102
AAXX 17121 01397 16/// /2902 11033 21044 39489 49928 50004 60001 333 91104
AAXX 17121 01400 NIL
AAXX 17121 01427 11565 73402 10025 20006 39913 49929 50003 69921 78082 85932 333 91106
AAXX 17121 01447 NIL
AAXX 17121 01448 46/// /3503 10000 21031 39916 49926 50003 333 91105
AAXX 17121 01001 NIL
AAXX 17121 01008 41484 61206 11021 21060 39946 49979 52002 70222 865// 333 91113
AAXX 17121 01010 41989 11906 11006 21048 39904 49920 52012 70200 81071 333 91111
AAXX 17121 01026 41988 12005 11014 21055 39791 49933 52013 70200 80008 333 4/023 91109
AAXX 17121 01055 46/// /1604 10002 21038 39919 49937 52008 333 91111
AAXX 17121 01062 11435 80305 11012 21017 39895 49908 57001 69911 77073 887// 333 91113
AAXX 17121 01098 41489 51908 10015 21009 39958 49976 50002 70222 82278 333 91114
AAXX 17121 01115 41484 41712 10044 21029 39881 49901 53016 70211 81270 333 91117
AAXX 17121 01152 11689 51004 10023 21044 39904 49919 52013 60001 70222 81572 333 91113
AAXX 17121 01205 NIL
AAXX 17121 01212 16/// /2206 10016 20013 39902 49918 52020 6//// 333 91112
AAXX 17121 01271 16/// /0901 11043 21068 39906 49927 51014 6//// 333 91105
AAXX 17121 01288 41570 81501 11113 21126 39187 49960 52014 70322 8652/ 333 91104
AAXX 17121 01300 NIL
AAXX 17121 01317 41580 50000 10012 21005 39914 49929 51015 70122 83860 333 91105
AAXX 17121 01367 41989 03104 11156 21176 39509 49977 50006 70200 333 91106
AAXX 17121 01384 41688 53504 11012 21028 39668 49916 50003 70122 83508 333 91106
AAXX 17121 01403 16/// ///// 10017 20002 39857 49926 53013 60021
AAXX 17121 01415 16/// /0101 10025 20015 39907 49917 58001 6//// 333 91106
AAXX 17121 01482 46/// /3507 10016 21013 39903 49911 52005 333 91112
AAXX 17121 01492 NIL
AAXX 17124 78858 11478 60308 10235 20192 30105 40161 69902 7806/ 86800 333 10276 20232 58017 84819 85645
AAXX 17121 10609 11581 72404 10045 20010 39743 40074 51019 69901 70362 878// 333 31/// 55304 20646 30550 81821 87640
AAXX 17121 10616 11382 62905 10014 20000 39459 40065 51020 69921 70372 86800 333 42002 55300 82808 86640 96473
AAXX 17121 10641 17682 62705 10057 20001 39893 40040 51019 69901 70050 333 55300 84/33 86/41
AAXX 17121 10655 11582 72807 10041 20005 39704 40033 51022 69901 70362 878// 333 31/// 55304 20658 30420 84820 85650
AAXX 17121 10675 17587 82706 10041 21008 39728 40020 51023 69901 70076 333 55301 20404 30359 86/24 88/31 88/44
AAXX 17121 10688 07576 72707 10022 21005 39480 40003 51023 60011 70075 333 55304 20738 30513 60017 82/21 86/40 87/50 91113
AAXX 17121 10708 11482 62804 10036 20005 39692 40080 51021 69901 70162 86800 333 33/// 55301 20426 30377 84814 84632
AAXX 17121 10729 07683 72706 10063 20009 39943 40065 51020 69911 72365 333 55307 20806 30342 69907 81/45 87/50
AAXX 17121 10731 11573 62606 10059 20011 39923 40066 51019 69921 70262 83201 333 31/// 55307 20785 30297 83827 84080
AAXX 17121 10742 07481 82706 10038 20011 39720 40053 51023 69911 70076 333 55305 20837 30593 69917 85/17 87/22 88/34
AAXX 17121 10776 01482 72907 10030 21003 39572 40017 51026 69901 78387 85802 333 31/// 55304 20512 30373 69907 84815 83078 91115 96285 96485 96471
AAXX 17121 10791 01/90 92914 11059 21063 38337 48294 51015 60021 77374 333 49080 55300 60017 96049 96038
AAXX 17121 10805 01481 62803 10051 20015 39893 40085 51022 69931 70186 85830 333 31/// 55300 20297 30296 69917 81815 83650
AAXX 17121 10815 01275 73005 11011 21012 39123 48361 51023 60011 72277 875// 333 48013 55300 20133 30133 69937 87606 91115 96473 96471
AAXX 17121 10836 01258 83007 11010 21010 39177 40058 51024 60021 78574 872// 333 44005 55300 20340 30340 60017 87806 91114 96471 96449
AAXX 17121 10870 01335 82706 10020 20007 39499 40036 51022 69921 78687 878// 333 42001 55301 69917 84808 87615 96486 96473
AAXX 17121 10895 01462 72609 10012 20000 39436 40009 51019 69931 78787 873// 333 42002 55300 20328 30320 69917 82910 84811 86620 91114
AAXX 17121 10908 01/00 93010 11056 21058 38361 48366 51022 69971 77174 333 49036 55300 20221 30221 69947 89/01 91118 91213 96049 96036 96473
AAXX 17121 10929 01460 82603 10026 20002 39544 40080 51026 69911 77172 888// 333 31/// 41998 55300 20147 30147 69917 81816 83619 88630
AAXX 17121 10948 01325 82702 11006 21006 39116 48363 51027 60081 77377 885// 333 47023 55300 20254 30254 60037 83707 85715 88625 96475
AAXX 17121 10961 11/01 93507 11155 21158 36893 47844 51023 60121 77374 333 49105 55300 20305 40971 91117 96049 96473 96449
AAXX 17121 10962 01159 82704 11021 21023 38897 48347 51026 60011 77187 875// 333 48004 55300 20166 30163 69917 85702 87609 91115 96485 96473 96436
AAXX 17121 10980 11/01 93010 11080 21083 37975 48336 51022 60031 77174 333 48032 55300 20145 30145 91117 96049
AAXX 17124 65338 31956 50406 10334 20161 39921 40107 70522 80002 333 0//00 59001 85076
AAXX 17121 10004 46/60 /3111 10073 20032 39990 49990 51017 222// 00086 333 55301 91124 91217
AAXX 17121 10506 11381 72704 10022 20002 39475 40062 51019 69901 70281 878// 333 42001 55301 20464 30427 86807
AAXX 17121 33815 42598 81606 10081 20066 39722 49924 57038 885// 555 11007
BBXX CGDS 17124 99447 70755 46/// /3304 11096 21130 4//// 5//// 7//// 8//// 22200 0//// 2////
BBXX CGDS 17124 99447 70755 46/// /3304 11096 21130 4//// 5//// 7//// 8//// 22200 0//// 2////
AAXX 17124 78954 11340 81111 10235 20229 30072 40138 60052 76186 8884/ 333 10302 20224 58011 70048 85808 83634 86658 90977
AAXX 17124 61901 12486 71311 10179 20124 39681 40188 60001 878// 91150 333 59002 81815 87628
AAXX 17124 61902 32482 61416 10269 20192 40144 868// 333 58000 81818 85635
AAXX 17124 88878 46/// /0107 10101 20094 40101 57001
AAXX 17124 88883 46/// /3513 10126 20126 40095 57018
AAXX 17124 88889 11365 73304 10123 20102 30041 40125 57010 69904 70262 876// 91150 333 20112 30010 85708 87712
AAXX 17124 88897 46/// /0705 10116 20113 40088 57020
AAXX 17121 02741 47260 80506 10021 20015 39847 49862 57021 76165 88/// 91139
AAXX 17121 02755 47467 71102 10006 21005 39882 49977 54001 70000 87/// 91139
AAXX 17121 02805 47599 81703 11007 21039 39842 49974 52009 70087 88/// 91139
AAXX 17121 02807 47499 82002 11002 21016 39810 49992 700// 88/// 91200
AAXX 17121 02836 47268 81601 11001 21003 39775 49997 52008 70084 88/// 91139
AAXX 17121 02845 47156 81202 11001 21001 39746 49994 52004 71032 88/// 91139
AAXX 17121 02849 47380 81101 11004 21005 39730 40004 52008 70087 88/// 91139
AAXX 17121 02866 47564 81001 10003 20003 39845 49994 52005 70000 88/// 91139
AAXX 17121 02897 47499 80903 11001 21020 39806 49988 700// 88/// 91200
AAXX 17121 02913 47482 70804 10007 21011 39901 49953 700// 87///
AAXX 17121 02917 47381 80903 10001 21009 39858 49981 700// 88/// 91200
AAXX 17121 02924 47380 50702 11001 21008 39758 49955 57004 70020 85/// 91139
AAXX 17121 02926 47480 80703 10012 21005 39904 49917 57012 700// 88/// 91200
AAXX 17121 02935 47264 71004 10001 21006 39787 49960 57006 70074 87/// 91139
AAXX 17121 02939 47299 81102 11004 21008 39797 49991 52005 70074 88/// 91139
AAXX 17121 02944 47375 80606 10001 21007 39781 49928 700// 88/// 91200
AAXX 17121 02963 41225 80205 10004 21001 49907 58014 77172 887//
AAXX 17121 02974 41257 80907 10016 20007 39841 49907 57019 76965 887//
AAXX 17121 02976 46/// /1109 10019 20016 39911 49927 57012 91139
AAXX 17121 02981 47350 80913 10036 20024 39837 49846 57026 75286 88/// 91139
AAXX 17121 02982 46/// /1122 10032 20023 39860 49868 57018 91139
AAXX 17121 02947 NIL
AAXX 17124 03005 11440 73313 10010 21012 39912 40014 51021 69961 78581 879// 91150 333 41998 55300 20125 85914 83820 90710 91129
AAXX 17124 03017 17765 /3514 10020 21002 30017 40050 51023 69941 724// 91150 333 55300 20185 82/50 90710 91129
AAXX 17124 03023 17767 /0405 10026 20008 30104 40109 51029 69941 723// 91150 333 82/56
AAXX 17124 03026 17960 /3408 10027 21002 30075 40094 52024 69961 724// 91150 333 55302 20220 8//99
AAXX 17124 03063 17981 /3404 10006 21021 39798 40080 51026 69901 721// 91150 333 4/003 55300 20123 81/60
AAXX 17124 03066 17581 /3009 10027 20002 30072 40078 53028 69961 723// 91150 333 55300 20139 84/24 85/44
AAXX 17124 03075 17869 /3114 10014 21009 30010 40055 51025 60011 721// 91150 333 83/57 90710 91126
AAXX 17124 03091 15982 /3117 10023 20000 39973 40053 51021 69901 91150 333 55301 20219 8//99
AAXX 17124 03100 17780 /3214 10046 20022 30091 40107 51028 69961 723// 91150 333 55302 20284 81/50 84/65
AAXX 17124 03111 16575 /3315 10058 20019 30083 40095 51033 60011 91150 333 84/27 85/36 90710 91125
AAXX 17124 03134 15982 /3110 10026 21002 30007 40080 51031 69981 91150 333 4/005 55308 20500 82/64
AAXX 17124 03136 15981 /3202 10042 20012 30051 40084 51032 69901 91150 333 55309 20497 8//99
AAXX 17124 03162 11480 43409 10014 21006 39780 40071 52017 69921 70185 83330 91150 333 42002 55301 20299 81912
AAXX 17124 03166 15784 /2506 10025 20005 30000 40071 51027 69901 91150 333 55300 20175 88/56
AAXX 17124 03171 12584 62805 10030 21010 30053 40065 52027 60001 81531 91150 333 55302 20271 81625 84360 85075
AAXX 17124 03204 11470 63018 10052 20017 30070 40089 53019 60011 78082 869// 91150 333 55300 20486 81713 83915 85822 90710 91132 91028
AAXX 17124 03240 15784 /3015 10028 20007 30021 40049 51017 69901 91150 333 55300 20259 88/56
AAXX 17124 03257 15675 /3009 10048 20013 30016 40056 51010 69901 91150 333 55304 20605 88/46
AAXX 17124 03292 166// /2909 10032 20009 30027 40046 51009 60001 91150 333 85/33
AAXX 17124 03302 15578 /3020 10058 20024 30088 40100 51013 69921 91150 333 55305 20487 81/24 90710 91130
AAXX 17124 03354 15474 /2706 10030 20013 39930 40075 51007 60001 91150 333 55300 20333 86/10 85/19
AAXX 17124 03377 11570 62406 10031 20019 39977 40063 51005 60011 70187 81532 91150 333 55302 20490 81620 86070
AAXX 17124 03414 17581 /2812 10037 20010 39998 40087 51008 69961 781// 91150 333 55302 20538 81/20 83/33
AAXX 17124 03462 15483 /2715 10036 20010 39982 40072 51008 69901 91150 333 55306 20574 81/12
AAXX 17124 03482 17564 /2611 10023 20012 30040 40066 51002 69941 722// 91150 333 82/21 86/59
AAXX 17124 03502 15569 /3124 10052 20010 39958 40122 51013 60001 91150 333 55301 20294 82/20 84/34 90710 91133
AAXX 17124 03535 15582 /2708 10047 20017 39963 40081 50004 69921 91150 333 55309 20810 82/21
AAXX 17124 03590 17683 /2815 10032 20016 39958 40069 58001 69941 721// 91150 333 55304 20676 81/39 87/44
AAXX 17124 03649 11482 12506 10045 20007 39994 40095 50003 60011 70161 81802 91150 333 55310 2//// 81818
AAXX 17124 03716 15580 /2918 10061 20018 30053 40114 51007 60001 91150 333 55310 20860 81/25 90710 91127
AAXX 17124 03740 16666 /2612 10047 20016 39927 40105 51005 60001 91150 333 55306 2//// 82/47
AAXX 17124 03746 15980 /2915 10053 20016 39951 40106 50003 60011 91150 333 8//99
AAXX 17124 03772 15977 /2710 10043 20021 30060 40091 50000 69941 91150 333 55307 20654 81/66
AAXX 17124 03796 46/// /2912 10052 20018 39941 40084 51004 91150
AAXX 17124 03803 NIL
AAXX 17124 03808 11575 63318 10076 21004 30053 40160 51011 69921 70381 868// 91150 333 55303 20543 86824 90710 91127
AAXX 17124 03809 11468 53216 10076 20032 30066 40160 51011 69901 72581 85900 91150 333 81710 81922 83824 90710 91127
AAXX 17124 03827 17581 /3217 10059 20009 30081 40144 51009 69921 781// 91150 333 82/27 90710 91129 91029
AAXX 17124 03840 15580 /3012 10048 20005 39815 40124 51004 69921 91150 333 81/26
AAXX 17124 03853 17680 /3016 10060 20012 30091 40116 50003 69921 723// 91150 333 55306 20625 83/30 90710 91125
AAXX 17124 03874 46/// /3018 10068 20020 30094 40105 58001 91150
AAXX 17124 03882 17580 /3008 10034 20015 30031 40095 50002 69921 723// 91150 333 55302 20477 85/21 85/35
AAXX 17124 03894 11582 63117 10076 20012 40138 50005 69921 70381 84203 333 82820 84828
AAXX 17124 03917 17482 /2806 10029 20013 30040 40118 53026 69981 723// 91150 333 55301 20235 82/16
BBXX 42039 17121 99288 70860 46/// /3405 10218 40227 53009 91150 22200 00228 10601 20401 300// 40601 70007 333 91206 555 11051 22054 31140 43406 61149 338049 340050 341048 337047 332050 332048 83406 91140
BBXX 41040 17121 99145 70530 46/// /0504 10266 20210 40135 53017 91150 22200 00279 10905 20401 3//// 40905 70025 333 91205 555 11036 22038 31147 40605 61149 052034 040033 038035 036033 037035 047037 80504 91148
AAXX 17124 78951 11576 30710 10270 20210 30127 40142 60042 7028/ 81202 333 10302 20229 58007 70051 81822
AAXX 17124 78388 111574 71211 10250 20181 30146 40155 60001 70522 81102 333 00209 10301 20230 58004 81824 87075
BBXX 44007 17121 99435 70701 46/// /3601 10038 21021 40164 53006 91150 22200 00084 11101 3//// 41101 70007 333 91202 555 11007 22007 31050 42802 61149 002007 354007 326010 303012 281013 289013
BBXX 46082 17121 99597 71434 46/// ///// 10048 20048 40075 52014 91150 22200 00064 11107 70034
BBXX 46072 17121 99517 71722 46/// /2711 10040 20022 49734 53006 91150 22200 00050 11312 20806 3//// 41310 70059 333 91214 555 11114 22121 31054 42316 61149 274105 263111 261121 253126 249113 247132 82414 91053
BBXX 46035 17121 99571 71778 46/// /3610 1//// 49833 58014 91150 22200 11109 20805 300// 41107 70044 333 91213 555 11103 22110 31111 43614 61149 355102 352103 358105 358113 017087 032074 83613 91109
BBXX 46077 17121 99579 71543 46/// /1908 10030 20017 49949 51015 91150 22200 00052 11403 20503 3//// 41402 70016 333 91209 555 11085 22089 31053 42012 61149 193081 194098 178075 178079 177089 189099 81911 91135
BBXX 46072 17121 99517 71722 46/// /2711 10040 20022 49734 53006 91150 22200 00050 11312 20806 3//// 41310 70059 333 91214 555 11114 22121 31054 42316 61149 274105 263111 261121 253126 249113 247132 82414 91053
BBXX 46026 17121 99378 71228 46/// /0705 10119 40205 57003 91150 22200 00117 11603 20401 329// 41603 70015 333 91206 555 11057 22061 31140 43107 61149 062054 300050 297042 296042 297050 299048
BBXX 46041 17121 99474 71247 46/// /1305 10079 40251 57025 91150 22200 00080 11906 20401 3//// 41906 70029 333 91206 555 11048 22050 31114 41206 61149 131045 130043 127040 125043 123044 124043
AAXX 17121 01015 NIL
AAXX 17121 01023 41989 10701 11118 21124 39851 49950 52018 70200 80001 333 91103
AAXX 17121 01033 46/// /0201 10020 21048 39892 49923 53013 333 91111
AAXX 17121 01059 41589 11612 11022 21051 39947 49957 53012 70100 81101 333 91116
AAXX 17121 01089 16/// /1503 11029 21034 39880 49987 51005 6//// 333 91110
AAXX 17121 01167 41988 11605 10030 21061 39912 49917 52012 70200 80008 333 91109
AAXX 17121 01180 NIL
AAXX 17121 01210 41X40 92103 10011 21003 39893 49919 52018 78382 333 91110
AAXX 17121 01228 46/// /2308 10034 20010 39899 49906 51014 333 91111
AAXX 17121 01240 16/// /1708 10030 21013 39885 49904 51015 6//// 333 91113
AAXX 17121 01304 46/// /0103 10029 20013 39900 49931 51021 333 91109
AAXX 17121 01311 46/// /0000 11001 21006 39868 49930 52015 333 91104
AAXX 17121 01340 16/// /2802 11041 21060 39058 49932 52007 69941 333 91103
AAXX 17121 01355 16/// ///// 11015 21058 39939 49944 51011 60001
AAXX 17121 01360 NIL
AAXX 17121 01392 11574 80402 11014 21029 39695 49921 53004 60001 70222 81147 333 91104
AAXX 17121 01406 46/// /1602 10016 20009 39908 49926 52013 333 91109
AAXX 17121 01411 16/// /3609 10029 20019 39889 49915 58003 6//// 333 91111
AAXX 17121 01425 NIL
AAXX 17121 01433 46/// /0000 11046 21084 38666 49922 52006 333 91100
AAXX 17121 01442 11989 13502 11020 21056 39672 49931 51005 69941 70111 81042 333 91107
AAXX 17121 01450 NIL
AAXX 17121 01452 11985 40601 11007 21028 39906 49927 50002 60001 70120 82062 333 91106
AAXX 17121 01473 16/// /2501 11048 21063 39724 49936 51007 6//// 333 91104
AAXX 17121 01494 11583 53503 10001 21016 39848 49914 52003 60001 70122 82546 333 91107
AAXX 17124 78700 NIL
AAXX 17124 78703 11562 60806 10233 20209 30161 40163 60012 705// 82130 333 10290 20213 31/// 56100 58014 70020 82822 86357
AAXX 17124 78704 01550 70000 10226 20218 30143 40148 60091 762/// 84970 333 10292 20211 31/// 56000 58004 70088 81920 83820 83457
AAXX 17124 78705 11562 70000 10203 20196 30151 40169 53005 705// 83963 333 10295 20195 30/// 56600 58017 83824 86070
AAXX 17124 78706 11565 70000 10217 20213 30172 40178 60092 710// 84170 333 10298 20210 32/// 56100 58022 70094 84824 86458
AAXX 17124 78707 NIL
AAXX 17124 78708 11560 71804 10212 20212 30144 40174 53007 60051 70584 82550 333 10293 20212 30/// 56000 58024 70050 82620 87358
AAXX 17124 78711 NIL
AAXX 17124 78714 32570 62502 10180 20171 83501 333 10282 20180 30/// 83625 84075
AAXX 17124 78717 31560 30000 10134 20134 38980 40174 5//// 710// 82560 333 10242 20130 30/// 56000 58020 82625 83360
AAXX 17124 78718 31660 23510 10188 705// 81431 333 10288 20170 30/// 56800 70000 81840
AAXX 17124 78719 31450 70610 10133 20120 38364 40145 715// 87500 333 10214 20118 30/// 56100 58011 70000 87616
AAXX 17124 78720 31358 60206 10173 20165 39050 40156 53003 70544 85530 333 10225 20173 30/// 56000 58007 70000 81708 84625
AAXX 17124 78724 32578 50510 10262 20214 30059 40116 5//// 82531 333 10340 20262 30/// 56100 59002 70000 82630 83075
BBXX 51004 17121 99175 71524 46/// /0609 10234 20201 91150 555 11098 22105
BBXX 51002 17121 99171 71578 46/// /0711 10245 40152 58010 91150 22200 00253 333 91212 555 11112 22119 31137 40713 61149 069104 066103 064097 064093 069089 074101
BBXX 51100 17121 99236 71539 46/// /0406 10221 40206 58011 91150 22200 00235 11507 20501 333// 41507 70035 333 91207 555 11062 22065 31115 40508 61149 035059 035058 031063 036063 041063 041058
BBXX C6XE9 17123 99401 10020 41397 73030 10160 2007/ 40160 54/// 7//22 867// 22223 00180 21006 33127 40708 50504 6//// 80110 ICE /////
AAXX 17121 89061 179// 02406 10002 21024 30020 40026 52020 69932 70075 333 10006 21002 91008 91110
AAXX 17124 89009 42461 70207 11305 36837 52014 87500 333 11304 21319 87610
AAXX 17124 78954 11340 81111 10235 20229 30072 40138 60052 76186 8884/ 333 10302 20224 58011 70048 85808 83634 86658 90977
AAXX 17124 78388 111574 71211 10250 20181 30146 40155 60001 70522 81102 333 00209 10301 20230 58004 81824 87075
AAXX 17124 78951 11576 30710 10270 20210 30127 40142 60042 7028/ 81202 333 10302 20229 58007 70051 81822
AAXX 17124 89009 42461 70207 11305 36837 52014 87500 333 11304 21319 87610
AAXX 17121 89061 179// 02406 10002 21024 30020 40026 52020 69932 70075 333 10006 21002 91008 91110
AAXX 17121 76122 32756 80000 10040 20019 38584 40241 5//// 88010 91150 333 10128 20030 30030 55093 56090 58/// 70000 88456
AAXX 17121 76305 32670 80000 10165 20075 30151 40160 5//// 8442/ 91134 333 10225 20148 30136 5655/ 58019 70000 84650
AAXX 17121 76342 11430 83601 10088 20077 39596 40330 54000 60011 75055 887// 91150 333 10134 20082 30074 561// 58058 70025 88710
AAXX 17121 76382 32960 03201 10110 20085 38960 40211 52004 91145 333 10253 20089 30078 58054 70000
AAXX 17121 76402 32550 70000 10134 20095 30111 40169 52001 87500 91145 333 10225 20130 30128 56500 59018 70000 87630
AAXX 17121 76458 32960 03202 10156 20140 30162 40166 53002 91151 333 10242 20131 30126 58026 70000
AAXX 17121 76491 32456 73202 10124 20122 39891 40291 52009 875// 91145 333 10205 20120 30/// 569// 58098 79999 87620
AAXX 17121 76525 32260 31207 10072 20058 37503 40193 52003 83600 91140 333 10179 20069 30065 55089 22412 563// 58035 70000 83706
AAXX 17121 76539 32658 80601 10117 20114 38205 40221 52004 88400 91150 333 10240 20101 30074 56700 58030 70000 88626
AAXX 17121 76543 12675 83603 10163 20139 30240 40273 53/// 60091 8252/ 91150 333 10286 20163 31/// 5633/ 58086 70088 82650 86458
AAXX 17121 76548 32960 83604 10168 20139 30250 40260 53011 8802/ 91140 333 10266 20166 30172 56050 58089 70000 88462
AAXX 17121 76556 32960 01602 10136 20109 39127 40151 52001 91130 333 10284 20134 30112 58027 70000
AAXX 17121 76577 32960 03602 10124 20106 38076 40185 52005 91140 333 10250 20118 30109 58033 70000
AAXX 17121 76586 06/// /0701 10162 20160 30097 40256 53011 60121 7//// 8//// 91150 333 0//// 10301 20161 30/// 4//// 50219 54/// 55030 56/// 57/// 58088 60037 70136 8//// 8//// 8//// 9/
AAXX 17121 76612 32958 00000 10090 20085 38507 40211 52010 91155 333 10268 20090 30080 58035 70000
AAXX 17121 76625 32560 30902 10128 20096 38176 40173 52004 82130 91140 333 10259 20124 30115 56220 58038 70000 82825
AAXX 17121 76632 31558 50204 10100 20090 37654 40171 5//// 70511 85400 91150 333 10200 20095 30/// 56100 58011 85633
AAXX 17121 76634 31430 82801 10108 20105 37894 40226 52002 71042 88400 91150 333 10211 20095 30082 563// 58040 70002 88620
AAXX 17121 76654 31956 00201 10209 20171 30147 40151 55002 70544 91150 333 10284 20207 30175 58015 70000
AAXX 17121 76656 32968 00000 10078 20053 38534 40211 52010 81250 333 10268 20065 30022 58031 70000
AAXX 17121 76665 32958 02601 10072 20042 38154 40202 52007 91150 333 10280 20062 30050 58032 70000
AAXX 17121 76675 32960 22102 10020 20000 37408 40231 51003 80005 91140 333 10225 20007 31019 56009 58027 70000
AAXX 17121 76683 32960 03601 10048 20052 37863 40243 55000 91145 333 10239 20084 30060 50331 55102 21873 58030 70000
AAXX 17121 76685 32950 00000 10068 20048 37901 40200 54000 91150 333 10246 20066 30020 58034 70000
AAXX 17121 76687 01210 82301 10148 20139 38733 40228 52005 69901 75044 886// 91148 333 10236 20146 30131 563// 58057 69907 79999 86706 82608
AAXX 17121 76692 01520 83303 10216 20202 30190 40210 51000 60151 75865 85620 91145 333 10271 20214 31/// 5688/ 58054 60107 70151 85630 82456 81355
AAXX 17121 76698 12560 60000 10212 20209 30183 40195 5//// 60011 86200 91155 333 10305 20212 30200 56/00 58025 70023 86820
AAXX 17121 76737 01470 80000 10154 20141 38823 40211 51003 69921 75022 887// 91135 333 10229 20154 30143 562// 59055 69927 70002 88713 91102 91534
AAXX 17121 76743 32950 03401 10225 20212 30179 40187 52005 91145 333 10293 20225 30220 58042 70000
AAXX 17121 76750 01560 43303 10218 20212 30181 40192 52012 60011 75050 82230 91150 333 10314 20210 30202 56110 58034 60017 70010 82820
AAXX 17121 76762 31602 10000 10160 20144 38782 40156 52009 70144 81400 91145 333 10318 20150 30134 56300 58/// 70000 81638
AAXX 17121 76773 32540 30401 10098 20073 38454 40162 52006 83400 91148 333 10296 20080 30072 50371 55094 56200 58026 70000 83620
AAXX 17121 76775 31560 20501 10133 20088 38554 40202 54000 70100 82440 91145 333 10310 20122 30/// 56880 58027 70000 82695 81398
AAXX 17121 76840 32520 10207 10266 20183 30079 40134 52006 81100 91140 333 10344 20228 30/// 55082 569// 58021 79999 81827 91217 91502 90410
AAXX 17121 76843 32965 00000 10199 20162 39519 40160 52010 91140 333 10290 20191 30171 58029 79999
AAXX 17121 76845 32256 40602 10105 20096 37976 40223 5//// 84600 91147 333 10208 20095 30082 56200 58020 70003 84703
AAXX 17121 76848 32450 40401 10128 20102 38405 40133 51005 84600 91150 333 10238 20128 30112 56100 58022 70045 84711 96722
AAXX 17121 76405 32840 61801 10172 20141 30145 40167 52005 86090 91150 333 10240 20146 30145 58016 70000 86356
AAXX 17121 76412 32960 02801 10120 20087 30159 40205 52043 91150 333 10226 20104 30/// 58038 70000
AAXX 17121 76640 11010 83605 10204 20201 30236 40248 52009 60031 75052 8572/ 91140 333 10276 20190 30188 5689/ 58143 70028 85701 83440
AAXX 17121 76647 32870 20202 10190 20184 30178 40208 52009 82030 91150 333 10304 20187 30170 560/0 58028 70000 82358
AAXX 17121 76741 01240 50504 10241 20228 30160 40178 53006 60041 72146 84220 91135 333 10285 20229 30226 561// 58062 60047 70051 84806
AAXX 17121 76855 32580 23301 10218 20185 30068 40118 5//// 81230 91150 333 10332 20208 30202 55085 56990 58014 70000 81820 92000
AAXX 17124 78905 11578 62705 10220 20190 30131 40154 60001 702// 85860 333 10273 20210 58013 79999 84824 83630
BBXX CG2350 17124 99433 70798 46/// /3211 11023 21078 40253 53019 7//// 8//// 22200 0//// 2////
BBXX VCRG 17124 99474 70619 46/// /2912 11040 21091 40149 53027 7//// 8//// 22200 0//// 2////
AAXX 17121 76122 32756 80000 10040 20019 38584 40241 5//// 88010 91150333 10128 20030 30030 55093 56090 58/// 70000 88456
AAXX 17121 76305 32670 80000 10165 20075 30151 40160 5//// 8442/ 91134333 10225 20148 30136 5655/ 58019 70000 84650
AAXX 17121 76342 11430 83601 10088 20077 39596 40330 54000 60011 75055887// 91150 333 10134 20082 30074 561// 58058 70025 88710
AAXX 17121 76382 32960 03201 10110 20085 38960 40211 52004 91145 33310253 20089 30078 58054 70000
AAXX 17121 76402 32550 70000 10134 20095 30111 40169 52001 87500 91145333 10225 20130 30128 56500 59018 70000 87630
AAXX 17121 76458 32960 03202 10156 20140 30162 40166 53002 91151 33310242 20131 30126 58026 70000
AAXX 17121 76491 32456 73202 10124 20122 39891 40291 52009 875// 91145333 10205 20120 30/// 569// 58098 79999 87620
AAXX 17121 76525 32260 31207 10072 20058 37503 40193 52003 83600 91140333 10179 20069 30065 55089 22412 563// 58035 70000 83706
AAXX 17121 76539 32658 80601 10117 20114 38205 40221 52004 88400 91150333 10240 20101 30074 56700 58030 70000 88626
AAXX 17121 76543 12675 83603 10163 20139 30240 40273 53/// 60091 8252/91150 333 10286 20163 31/// 5633/ 58086 70088 82650 86458
AAXX 17121 76548 32960 83604 10168 20139 30250 40260 53011 8802/ 91140333 10266 20166 30172 56050 58089 70000 88462
AAXX 17121 76556 32960 01602 10136 20109 39127 40151 52001 91130 33310284 20134 30112 58027 70000
AAXX 17121 76577 32960 03602 10124 20106 38076 40185 52005 91140 33310250 20118 30109 58033 70000
AAXX 17121 76586 06/// /0701 10162 20160 30097 40256 53011 60121 7////8//// 91150 333 0//// 10301 20161 30/// 4//// 50219 54///55030 56/// 57/// 58088 60037 70136 8//// 8//// 8//// 9/
AAXX 17121 76612 32958 00000 10090 20085 38507 40211 52010 91155 33310268 20090 30080 58035 70000
AAXX 17121 76625 32560 30902 10128 20096 38176 40173 52004 82130 91140333 10259 20124 30115 56220 58038 70000 82825
AAXX 17121 76632 31558 50204 10100 20090 37654 40171 5//// 70511 8540091150 333 10200 20095 30/// 56100 58011 85633
AAXX 17121 76634 31430 82801 10108 20105 37894 40226 52002 71042 8840091150 333 10211 20095 30082 563// 58040 70002 88620
AAXX 17121 76654 31956 00201 10209 20171 30147 40151 55002 70544 91150333 10284 20207 30175 58015 70000
AAXX 17121 76656 32968 00000 10078 20053 38534 40211 52010 81250 33310268 20065 30022 58031 70000
AAXX 17121 76665 32958 02601 10072 20042 38154 40202 52007 91150 33310280 20062 30050 58032 70000
AAXX 17121 76675 32960 22102 10020 20000 37408 40231 51003 80005 91140333 10225 20007 31019 56009 58027 70000
AAXX 17121 76683 32960 03601 10048 20052 37863 40243 55000 91145 33310239 20084 30060 50331 55102 21873 58030 70000
AAXX 17121 76685 32950 00000 10068 20048 37901 40200 54000 91150 33310246 20066 30020 58034 70000
AAXX 17121 76687 01210 82301 10148 20139 38733 40228 52005 69901 75044886// 91148 333 10236 20146 30131 563// 58057 69907 7999986706 82608
AAXX 17121 76692 01520 83303 10216 20202 30190 40210 51000 60151 7586585620 91145 333 10271 20214 31/// 5688/ 58054 60107 7015185630 82456 81355
AAXX 17121 76698 12560 60000 10212 20209 30183 40195 5//// 60011 8620091155 333 10305 20212 30200 56/00 58025 70023 86820
AAXX 17121 76737 01470 80000 10154 20141 38823 40211 51003 69921 75022887// 91135 333 10229 20154 30143 562// 59055 69927 7000288713 91102 91534
AAXX 17121 76743 32950 03401 10225 20212 30179 40187 52005 91145 33310293 20225 30220 58042 70000
AAXX 17121 76750 01560 43303 10218 20212 30181 40192 52012 60011 7505082230 91150 333 10314 20210 30202 56110 58034 60017 7001082820
AAXX 17121 76762 31602 10000 10160 20144 38782 40156 52009 70144 8140091145 333 10318 20150 30134 56300 58/// 70000 81638
AAXX 17121 76773 32540 30401 10098 20073 38454 40162 52006 83400 91148333 10296 20080 30072 50371 55094 56200 58026 70000 83620
AAXX 17121 76775 31560 20501 10133 20088 38554 40202 54000 70100 8244091145 333 10310 20122 30/// 56880 58027 70000 82695 81398
AAXX 17121 76840 32520 10207 10266 20183 30079 40134 52006 81100 91140333 10344 20228 30/// 55082 569// 58021 79999 81827 9121791502 90410
AAXX 17121 76843 32965 00000 10199 20162 39519 40160 52010 91140 33310290 20191 30171 58029 79999
AAXX 17121 76845 32256 40602 10105 20096 37976 40223 5//// 84600 91147333 10208 20095 30082 56200 58020 70003 84703
AAXX 17121 76848 32450 40401 10128 20102 38405 40133 51005 84600 91150333 10238 20128 30112 56100 58022 70045 84711 96722
AAXX 17121 76405 32840 61801 10172 20141 30145 40167 52005 86090 91150333 10240 20146 30145 58016 70000 86356
AAXX 17121 76412 32960 02801 10120 20087 30159 40205 52043 91150 33310226 20104 30/// 58038 70000
AAXX 17121 76640 11010 83605 10204 20201 30236 40248 52009 60031 750528572/ 91140 333 10276 20190 30188 5689/ 58143 70028 8570183440
AAXX 17121 76647 32870 20202 10190 20184 30178 40208 52009 82030 91150333 10304 20187 30170 560/0 58028 70000 82358
AAXX 17121 76741 01240 50504 10241 20228 30160 40178 53006 60041 7214684220 91135 333 10285 20229 30226 561// 58062 60047 7005184806
AAXX 17121 76855 32580 23301 10218 20185 30068 40118 5//// 81230 91150333 10332 20208 30202 55085 56990 58014 70000 81820 92000
BBXX VCRG 17124 99474 70619 46/// /2912 11040 21091 40149 53027 7//// 8//// 22200 0//// 2////
BBXX CG2350 17124 99433 70798 46/// /3211 11023 21078 40253 53019 7//// 8//// 22200 0//// 2////
AAXX 17124 81401 06/// /1303 10271 20234 30115 40121 60004 333 20222 60007 58005 555 60005
AAXX 17124 81408 06/// /1402 10272 20237 30112 40120 69924 333 20219 60007 58004 555 60005
AAXX 17124 78905 11578 62705 10220 20190 30131 40154 60001 702// 85860 333 10273 20210 58013 79999 84824 83630
AAXX 17124 78583 11472 63203 10219 20213 40183 69901 70182 82802 333 01805 10287 20/// 58029 81816 86076
AAXX 17124 81401 06/// /1303 10271 20234 30115 40121 60004 333 20222 60007 58005 555 60005
AAXX 17124 81408 06/// /1402 10272 20237 30112 40120 69924 333 20219 60007 58004 555 60005
BBXX VRYO3 17124 99538 10063 46/// /2623 10077 20086 49994 50003 7//// 8//// 22215 00093 2////
BBXX CGDT 17124 99468 70712 46/// /2403 11081 21133 40213 51018 7//// 8//// 22200 0//// 2////
BBXX VOPP 17124 99456 70735 46/// /3204 11083 21130 4//// 5//// 7//// 8//// 22200 0//// 2////
BBXX VCSZ 17124 99509 70546 46/// /2732 11033 21035 49985 53065 7//// 8//// 22273 0//// 2////
BBXX CG2958 17124 99507 71269 46/// /1225 10111 20074 40206 56049 7//// 8//// 22272 0//// 2////
BBXX CG2965 17124 99487 71235 46/// /0000 10063 20062 40274 58018 7//// 8//// 22200 0//// 2////
BBXX CG2960 17124 99423 70830 46/// /3004 11010 21054 4//// 5//// 7//// 8//// 22200 0//// 2////
BBXX VOKJ 17124 99480 70695 46/// /2918 11110 21163 40203 51024 7//// 8//// 22214 0//// 2////
BBXX 3FZK3 17124 99554 71562 46/// /1916 10046 20028 49956 58001 7//// 8//// 22223 0//// 2////
BBXX VAAP 17124 99446 70636 46/// /2803 11009 21049 40152 51022 7//// 8//// 22200 0//// 2////
BBXX C6SI6 17124 99369 11268 46/// /1305 11019 21067 40317 55004 7//// 8//// 22200 0//// 2////
BBXX VCWL 17124 99468 70712 46/// /3003 11083 21130 40214 53019 7//// 8//// 22200 0//// 2////
BBXX CGSB 17124 99490 70679 46/// /3215 11106 21163 40180 53001 7//// 8//// 22212 00021 2////
BBXX CGCC 17124 99455 70736 46/// /3509 11079 21140 4//// 5//// 7//// 8//// 22200 0//// 2////
BBXX VAAZ 17124 99548 70533 46/// /3135 11002 21005 49839 53014 7//// 8//// 22271 0//// 2////
BBXX CZ9742 17124 99506 70969 46/// /2505 11063 21074 40135 55005 7//// 8//// 22200 0//// 2////
BBXX VOKF 17124 99490 70669 46/// /2913 11093 21152 40170 52018 7//// 8//// 22200 0//// 2////
BBXX CGTF 17124 99476 70527 46/// /1510 10030 21004 40068 51041 7//// 8//// 22200 0//// 2////
BBXX VCLM 17124 99608 70644 46/// /2623 11101 21154 49888 58002 7//// 8//// 22233 01003 2////
BBXX CGBR 17124 99534 71293 46/// /0000 10027 20027 40116 56007 7//// 8//// 22200 0//// 2////
BBXX CGDG 17124 99447 70636 46/// /2805 11011 20003 40162 51019 7//// 8//// 22200 0//// 2////
BBXX CGJK 17124 99484 71234 46/// /0401 10072 20067 40269 56022 7//// 8//// 22200 0//// 2////
BBXX CGJV 17124 99447 70636 46/// /3305 11011 21048 40162 51019 7//// 8//// 22200 0//// 2////
BBXX CGDR 17124 99489 71258 46/// /1314 10078 20078 40258 57012 7//// 8//// 22231 00120 2////
BBXX CGBN 17124 99447 70636 46/// /3005 11004 21042 40148 51020 7//// 8//// 22200 0//// 2////
BBXX CGDX 17124 99468 70712 46/// /2501 11084 21132 40213 51018 7//// 8//// 22200 0//// 2////
BBXX VCBW 17124 99502 70607 46/// /3121 11122 21173 40072 51071 7//// 8//// 22200 0//// 2////
AAXX 17121 01025 16/// /2006 11004 21046 39924 49935 53015 6//// 333 91109
AAXX 17121 01052 16/// /2303 11010 21051 39835 49933 52008 60001 333 91109
AAXX 17121 01122 16/// /1603 11013 21038 39842 49932 51014 60001 333 91105
AAXX 17121 01132 16/// /1703 11020 21054 39555 49944 51018 60001 333 4/037 91107
AAXX 17121 01156 16/// /1306 10034 21036 39902 49912 52012 60001 333 91111
AAXX 17121 01203 46/// /0506 10031 20012 39876 49924 51021 333 91112
AAXX 17121 01233 16/// /2701 11106 21118 60021 333 91103
AAXX 17121 01265 NIL
AAXX 17121 01273 16/// /1602 11067 21082 39732 49933 51014 60001 333 91103
AAXX 17121 01307 46/// /1205 10025 20009 39899 49926 51015 333 91110
AAXX 17121 01321 16/// /1002 11010 21019 39676 49930 52012 69921 333 91104
AAXX 17121 01327 16/// /2601 11026 21042 60001 333 91102
AAXX 17121 01350 16/// /2804 11095 21097 38524 49902 51012 69951 222// 00045 333 91107
AAXX 17121 01361 16/// /0000 11115 21128 38907 49965 51010 69941 333 91101
AAXX 17121 01375 NIL
AAXX 17121 01378 16/// /0102 11039 21055 39640 49935 52010 60001 333 91104
AAXX 17121 01385 16/// /3103 11016 21035 39654 49926 50004 60001 333 91104
AAXX 17121 01412 16/// /3113 10043 20025 39887 49916 58007 60021 333 91119
AAXX 17121 01422 16/// /0402 10010 20000 60011 333 91105
AAXX 17121 01440 NIL
AAXX 17121 01441 NIL
AAXX 17121 01467 NIL
AAXX 17121 01469 NIL
AAXX 17121 01477 16/// /3001 11021 21032 60001 333 4/020 91104
AAXX 17121 01480 16/// /3303 11026 21047 69931 333 91106
AAXX 17121 01484 16/// /3203 11003 21023 39755 49911 50001 60001 333 91105
AAXX 17121 01490 16/// /0102 11032 21034 60001 333 91104
AAXX 17121 01495 16/// /0104 10012 21017 39899 49912 52006 60001 333 91109
AAXX 17121 01121 46/// /1507 10040 21039 39901 49913 51014 333 91113
AAXX 17121 01135 16/// /2501 11004 21043 39781 49933 52014 60001 333 91105
AAXX 17121 01143 16/// /1503 10020 21061 60001 333 91111
AAXX 17121 01150 16/// /0903 11004 21053 60001 333 91111
AAXX 17121 01192 16/// /0402 11013 21078 60001 333 4/006 91107
AAXX 17121 01225 46/// /1807 10029 20006 39901 49906 51015 333 91110
AAXX 17121 01230 16/// /0901 11122 21133 60001 333 4/023 91103
AAXX 17121 01232 16/// /1603 11033 21084 39859 49940 51010 60001 333 4/006 91108
AAXX 17121 01234 16/// /2006 11099 21115 60001 333 91108
AAXX 17121 01253 16/// /1703 11084 21112 60001 333 4/027 91107
AAXX 17121 01254 16/// /1601 11117 21130 69921 333 4/018 91102
AAXX 17121 01257 11480 12101 11048 21083 39764 49928 51013 60001 70100 81100 333 91103
AAXX 17121 01277 NIL
AAXX 17121 01291 16/// /3601 11107 21119 60001 333 4/017 91103
AAXX 17121 01332 16/// /0000 10000 21011 60001 333 91100
AAXX 17121 01366 46/// /0000 11104 21119 38305 49944 51010 333 91102
AAXX 17121 01370 16/// /0701 11119 21135 38836 40048 52008 60001 333 4/028 91103
AAXX 17121 01376 16/// /3103 11093 21128 60001 333 91107
AAXX 17121 01383 46/// /3302 11029 21038 39625 49941 51006 333 91103
AAXX 17121 01386 16/// ///// 11018 21033 60001
AAXX 17121 01416 16/// ///// 10019 20019 60021
AAXX 17121 01419 16/// /0000 11002 21005 60041 333 91102
AAXX 17121 01430 16/// ///// 11012 21025 60001
AAXX 17121 01434 16/// /0000 11124 21141 38956 49924 50005 60001 333 91101
AAXX 17121 01455 16/// /0401 11036 21048 39614 49927 50000 60001 333 91102
AAXX 17121 01468 16/// /3201 11004 21015 60001 333 91104
AAXX 17121 01470 16/// /0601 11052 21061 39812 49928 50003 60001 333 4/005 91104
AAXX 17121 01476 NIL
AAXX 17121 01481 16/// /3504 11002 21027 39885 49917 52004 60001 333 91107
AAXX 17121 01488 NIL
AAXX 17121 01037 16/// /1705 11013 21062 39940 49946 53011 60001 333 91115
AAXX 17121 01046 41989 12003 11034 21086 39935 49942 52009 70200 80001 333 91109
AAXX 17121 01058 16/// /1705 11071 21087 39500 49973 51010 60001 333 4/016 91112
AAXX 17121 01065 11689 72204 11047 21070 39822 49986 53020 60001 70222 8684/ 333 91109
AAXX 17121 01092 46/// /2215 10007 21036 333 91121
AAXX 17121 01107 16/// /1812 10048 2//// 39894 49898 51016 60001 333 91118
AAXX 17121 01114 16/// /0901 11016 21056 39904 49915 53015 60001 333 91104
AAXX 17121 01144 41789 31208 10037 21033 70100 81141 333 91113
AAXX 17121 01199 NIL
AAXX 17121 01245 11683 10902 11092 21138 39221 49945 52009 60001 70300 81500 333 91106
AAXX 17121 01259 16/// /1611 10022 21045 39883 49905 50017 60001 333 91114
AAXX 17121 01262 NIL
AAXX 17121 01278 NIL
AAXX 17121 01293 11986 11901 11085 21094 39726 49939 52013 6//// 70200 81030 333 91104
AAXX 17121 01329 11380 70201 10005 21020 39873 49935 52009 60001 70222 87800 333 91107
AAXX 17121 01337 16/// /1001 11012 21033 39874 49940 52009 60001 333 91101
AAXX 17121 01344 16/// ///// 11036 21056 69961 333 4/083
AAXX 17121 01364 16/// /0000 11100 21113 38808 49952 50006 60001 333 4/037 91103
AAXX 17121 01373 11989 10000 11147 21162 39760 49966 50005 69921 70200 80001 333 91102
AAXX 17121 01374 41885 83301 11046 21051 70222 8807/
AAXX 17121 01380 41X02 90000 11100 21113 74742 333 4/028 91100
AAXX 17121 01389 11887 81101 11043 21051 39626 49940 50003 60001 70220 85068 333 91105
AAXX 17121 01393 NIL
AAXX 17121 01424 16/// ///// 11016 21032 39930 49933 52001 69921
AAXX 17121 01431 16/// /0202 11077 21088 39264 49944 58001 60001 333 91103
AAXX 17121 01436 NIL
AAXX 17121 01465 11582 43404 11003 21024 39905 49924 50002 60001 70210 82141 333 91106
AAXX 17121 01471 11689 40000 11101 21123 60001 70222 84500 333 91100
AAXX 17121 01483 NIL
BBXX CG2958 17124 99507 71269 46/// /1225 10111 20074 40206 56049 7//// 8//// 22272 0//// 2////
BBXX VCLM 17124 99608 70644 46/// /2623 11101 21154 49888 58002 7//// 8//// 22233 01003 2////
BBXX VRYO3 17124 99538 10063 46/// /2623 10077 20086 49994 50003 7//// 8//// 22215 00093 2////
BBXX VOKJ 17124 99480 70695 46/// /2918 11110 21163 40203 51024 7//// 8//// 22214 0//// 2////
BBXX VAAP 17124 99446 70636 46/// /2803 11009 21049 40152 51022 7//// 8//// 22200 0//// 2////
BBXX CGDT 17124 99468 70712 46/// /2403 11081 21133 40213 51018 7//// 8//// 22200 0//// 2////
BBXX CGDG 17124 99447 70636 46/// /2805 11011 20003 40162 51019 7//// 8//// 22200 0//// 2////
BBXX CGJV 17124 99447 70636 46/// /3305 11011 21048 40162 51019 7//// 8//// 22200 0//// 2////
BBXX CZ9742 17124 99506 70969 46/// /2505 11063 21074 40135 55005 7//// 8//// 22200 0//// 2////
BBXX CG2960 17124 99423 70830 46/// /3004 11010 21054 4//// 5//// 7//// 8//// 22200 0//// 2////
BBXX CGDX 17124 99468 70712 46/// /2501 11084 21132 40213 51018 7//// 8//// 22200 0//// 2////
BBXX CGCC 17124 99455 70736 46/// /3509 11079 21140 4//// 5//// 7//// 8//// 22200 0//// 2////
BBXX VCWL 17124 99468 70712 46/// /3003 11083 21130 40214 53019 7//// 8//// 22200 0//// 2////
BBXX VCSZ 17124 99509 70546 46/// /2732 11033 21035 49985 53065 7//// 8//// 22273 0//// 2////
BBXX C6SI6 17124 99369 11268 46/// /1305 11019 21067 40317 55004 7//// 8//// 22200 0//// 2////
BBXX CGBR 17124 99534 71293 46/// /0000 10027 20027 40116 56007 7//// 8//// 22200 0//// 2////
BBXX CG2965 17124 99487 71235 46/// /0000 10063 20062 40274 58018 7//// 8//// 22200 0//// 2////
BBXX VAAZ 17124 99548 70533 46/// /3135 11002 21005 49839 53014 7//// 8//// 22271 0//// 2////
BBXX 3FZK3 17124 99554 71562 46/// /1916 10046 20028 49956 58001 7//// 8//// 22223 0//// 2////
BBXX CGTF 17124 99476 70527 46/// /1510 10030 21004 40068 51041 7//// 8//// 22200 0//// 2////
BBXX CGJK 17124 99484 71234 46/// /0401 10072 20067 40269 56022 7//// 8//// 22200 0//// 2////
BBXX VCBW 17124 99502 70607 46/// /3121 11122 21173 40072 51071 7//// 8//// 22200 0//// 2////
BBXX CGDR 17124 99489 71258 46/// /1314 10078 20078 40258 57012 7//// 8//// 22231 00120 2////
BBXX CGBN 17124 99447 70636 46/// /3005 11004 21042 40148 51020 7//// 8//// 22200 0//// 2////
BBXX VOKF 17124 99490 70669 46/// /2913 11093 21152 40170 52018 7//// 8//// 22200 0//// 2////
BBXX VOPP 17124 99456 70735 46/// /3204 11083 21130 4//// 5//// 7//// 8//// 22200 0//// 2////
BBXX CGSB 17124 99490 70679 46/// /3215 11106 21163 40180 53001 7//// 8//// 22212 00021 2////
AAXX 17124 48698 01460 70406 10269 20253 30065 40083 60081 70598 82832 333 10302 50140 55017 69907 81816 87080
AAXX 17124 48698 01460 70406 10269 20253 30065 40083 60081 70598 82832 333 10302 50140 55017 69907 81816 87080
BBXX 41010 17121 99289 70785 46/// /1803 10229 40208 52003 91150 22200 00240 11103 20401 300// 41103 70016 333 91204 555 11035 22037
BBXX 41009 17121 99285 70802 46/// /3006 10226 20178 40217 53007 91150 22200 00253 11003 20501 300// 41002 70013 333 91207 555 11062 22064
BBXX 42057 17121 99168 70815 46/// /0511 10277 20199 40145 51006 91150 22200 00280 10703 20703 70015 333 91213 555 11109 22116 31133 40313 61149 046110 044107 045101 043099 041100 044096 80512 91150
AAXX 17121 01281 16/// /0402 11075 21087 39765 49945 51012 60001 333 91105
AAXX 17121 11423 01483 72806 11007 21020 39116 42630 52025 69951 70371 872// 333 60005 87816 91113
AAXX 17121 11487 01558 73304 10004 21010 39360 49985 53021 69991 72682 86362 333 69975 81922 85622 91116
AAXX 17121 11518 01584 72909 10035 21023 39524 49960 52020 69901 70382 878// 333 60005 86831 87650 91114
AAXX 17121 11603 01460 72906 10015 21005 39456 49937 51014 69961 72687 87400 333 69935 84610 85618 91113
AAXX 17121 11659 01580 73009 10019 21002 39307 49943 52014 69901 70282 872// 333 60005 87824 91014 91116
AAXX 17121 11723 01580 82905 10042 21018 39647 49942 53016 69901 76882 888// 333 69905 85829 88640 91115
AAXX 17121 11782 02675 72506 10046 21018 39618 49919 53012 60001 878// 333 60005 85843 87650
AAXX 17121 01403 11575 7//// 10017 20002 39857 49926 53013 60021 70286 879//
AAXX 17121 01205 46/// /3308 10046 20011 39876 49921 53017 333 91114
AAXX 17121 01492 41689 50203 10006 21026 39794 49911 50000 70120 83578 333 91107
AAXX 17124 17600 12570 62810 10201 20123 30160 40169 58012 60001 81102 333 81825 86075 92437
AAXX 17124 17601 12682 22713 10190 20083 30133 40164 56013 60001 81802 91150 333 81835
AAXX 17124 17607 42580 72904 10187 20097 39972 40160 57012 84802 333 82825 83640 85075
AAXX 17124 17609 12570 72703 10199 20111 30159 40163 58012 60001 83202 333 83832 86075
BBXX CGBY 17124 99487 71235 46/// /0000 10055 20051 40273 58017 7//// 8//// 22200 0//// 2////
BBXX VXKF 17124 99475 70591 46/// /3032 11022 21070 40100 53027 7//// 8//// 22214 0//// 2////
BBXX BATFR12 17124 99477 70049 46/// /3122 10097 20039 40184 22261 00145
AAXX 17121 14648 11670 81601 10094 20012 39862 49980 51015 69901 70262 8357/ 333 83643 88459
AAXX 17121 14652 12082 72312 11065 21079 37726 48294 51022 69921 81110 333 81800 86460
AAXX 17121 14542 11475 72902 10052 20015 39813 40002 52014 60041 70226 85770 333 85713 88459 95900
BBXX BATFR48 17124 99167 51492 46/// /1212 10269 20204 40117 56018 22212 00295
BBXX BATFR05 17124 99063 10034 46/// /0904 10292 20244 40115 58014 22200 00260
AAXX 17124 07005 01582 62809 10063 20036 30007 40098 51003 69941 72711 86900 333 69947 81926 85833 90710 91120 93100 555 69945
AAXX 17124 07015 01470 22810 10058 20028 30030 40088 51010 69941 70386 82100 333 60007 82817 90710 91114 93100 555 60005
AAXX 17124 07020 01566 63120 10087 20027 30107 40134 51006 69961 70161 86200 333 69967 86830 90710 91129 555 69905
AAXX 17124 07027 01582 72709 10063 20033 30049 40131 51010 69941 70387 879// 333 60007 82826 83930 85643 90710 91114 93100 555 60005
AAXX 17124 07037 04475 62508 10059 20041 39929 40114 50006 60001 700// 333 60007 90710 91112 555 60005
AAXX 17124 07070 04470 /2909 10062 20025 39990 40101 51016 69901 700// 333 60007 90710 91114 555 60005
AAXX 17124 07110 01562 63111 10070 20017 30055 40172 50006 60021 72787 85930 333 60027 82923 84833 90710 91119 555 60015
AAXX 17124 07117 01465 63016 10088 20007 30084 40155 51008 69941 71682 86900 333 60007 91030 90710 91134 92457 555 60005
AAXX 17124 07130 04686 /3011 10060 20037 30106 40159 50010 69961 700// 333 69927 90710 91121 555 69925
AAXX 17124 07139 01480 72813 10056 20019 39960 40136 51008 60001 71511 86802 333 60007 85816 86073 90710 91120 93100 555 60005
AAXX 17124 07149 02475 22707 10070 20032 30007 40117 51010 60001 82100 333 60007 82816 90710 91114 93100 555 60005
AAXX 17124 07168 01465 72909 10044 20018 39975 40120 51023 69901 70186 875// 333 69907 87611 90710 91113 93100 555 60005
AAXX 17124 07181 04482 /2908 10029 20005 39684 40101 51022 60001 700// 333 60007 90710 91114 555 60005
AAXX 17124 07190 04585 /2810 10062 20013 39899 40083 51024 69901 700// 333 60007 90710 91116 555 60005
AAXX 17124 07207 02565 43317 10096 20033 60001 83350 222// 327// 333 60007 91028 90710 91128 92457 555 60005
AAXX 17124 07222 02480 23010 10079 20035 30133 40165 50009 60001 81801 333 60007 81816 90710 91118 555 60005
AAXX 17124 07240 04585 /2808 10068 20025 30006 40143 50007 60001 700// 333 60007 90710 91115 555 60005
AAXX 17124 07255 01480 72906 10063 20027 39939 40142 51017 69901 70152 87800 333 60007 84816 83620 85633 90710 91114 93100 555 60005
AAXX 17124 07280 04586 83009 10050 20004 39839 40116 51017 69921 700// 333 60007 90710 91114 555 60005
AAXX 17124 07299 01484 72706 10046 20014 39760 40091 51021 69901 70362 878// 333 60007 82816 86656 90710 91119 93100 555 60005
AAXX 17124 07314 01660 73223 10098 20033 30149 40177 50010 69901 70386 82250 333 60007 82833 85356 90710 91130 555 60005
AAXX 17124 07335 02580 62910 10077 20041 30012 40158 51006 60001 82232 333 60007 82820 83358 90710 91116 555 60005
AAXX 17124 07434 02584 63006 10044 20016 39673 40161 51011 60001 85201 333 60007 85820 83076 90710 91115 93100 555 60005
AAXX 17124 07460 02465 43209 10050 21021 39749 40145 51025 69921 84200 333 69927 81815 84830 90710 91120 555 69925
AAXX 17124 07471 01575 63217 10011 21027 39150 48745 51015 69901 72687 86200 333 42002 69907 86825 91028 90710 91128 93101 555 69905
AAXX 17124 07481 01457 82708 10037 20016 39836 40130 51014 69981 78086 882// 333 69927 84815 85823 87633 90710 91111 93100 555 69925
AAXX 17124 07510 01457 73210 10070 20046 30122 40189 50011 60051 78186 879// 333 60047 81810 83923 87650 90710 91123 93100 555 60015
AAXX 17124 07535 06/// /2908 10071 20035 39850 40166 50004 60001 333 60007 90710 91117 555 60005
AAXX 17124 07558 06/// /3023 10030 21006 39289 40139 51004 69961 333 69927 91033 90710 91136 555 60005
AAXX 17124 07577 02582 72901 10063 20016 30036 40127 50003 60001 87800 333 60007 84830 86640 90710 91103 93100 555 60005
AAXX 17124 07591 04/// /2105 10036 21039 39075 4//// 50002 60001 700// 333 60007 90710 91114 555 60005
AAXX 17124 07607 04669 82908 10085 20059 30124 40196 50000 60031 700// 333 60027 90710 91114 555 60005
AAXX 17124 07621 01570 72513 10062 20037 39761 40202 58002 60041 72586 878// 333 60027 83820 85845 87656 90710 91120 93100 555 60015
AAXX 17124 07627 01450 82711 10040 20017 39699 40199 50002 60071 78086 8527/ 333 60037 85810 84360 90710 91118 93100 555 60035
AAXX 17124 07630 01480 72816 10075 20044 39998 40181 50005 60021 72586 878// 333 60017 82816 83650 86657 90710 91125 93100 555 69905
AAXX 17124 07643 04686 63015 10116 20021 30121 40131 50008 60001 700// 333 60007 90710 91125 555 60005
AAXX 17124 07650 02586 33212 10102 21009 30082 40121 58004 60001 81102 333 60007 81820 83070 90710 91117 93100 555 60005
AAXX 17124 07661 02980 02824 10098 21028 39932 40093 58007 60001 333 60007 91035 90710 91138 555 60005
AAXX 17124 07690 02/84 10805 10148 21093 30004 40037 50000 60001 80002 333 60007 81076 90710 91126 93100 555 60005
AAXX 17124 07747 01680 53015 10106 20027 30098 40151 53004 69961 70386 85100 333 60007 85838 90710 91132 93100 555 60005
AAXX 17124 07761 02670 32924 10127 20022 30061 40072 50006 60001 83200 333 60007 83843 91036 90710 91138 93100 555 60005
AAXX 17124 07790 04986 /2718 10128 21019 30032 40046 53009 60001 700// 333 60007 91029 90710 91131 555 60005
AAXX 17121 11816 11680 73007 10056 21007 39787 49948 52021 69901 70262 8587/ 333 85836 86461
AAXX 17121 11826 12684 73009 10054 21017 39735 49932 52017 60001 84541 333 84640 87361 91014
AAXX 17121 11903 12680 82803 10045 20005 39530 49904 52016 60001 8552/ 333 82635 84656 88459
AAXX 17121 11934 11460 82606 10009 21012 39071 42537 53004 60011 77166 885// 333 83710 87633
AAXX 17121 11968 11357 80205 10016 20006 39602 49881 53005 60151 76866 8572/ 333 85708 88520
AAXX 17124 08594 31459 60717 10255 20196 40163 70622 82231 333 59001 82615 86059
AAXX 17124 08589 NIL
AAXX 17124 08583 31559 40518 10262 20167 40172 70621 82130 333 59002 82822 83360
AAXX 17121 14528 11665 80000 10027 20007 39705 40004 53007 60061 70262 8357/ 333 83640 88460
AAXX 17121 14537 11670 72902 10044 20017 39804 49991 51011 60041 70262 87500 333 87643
AAXX 17121 14544 11670 70901 10041 20013 39326 49988 51003 60011 70276 86501 333 86643
AAXX 17121 14557 11675 82703 10030 20008 39632 40000 52024 60031 72166 8557/ 333 85633 86360 88461
AAXX 17121 14640 12565 71601 10048 20020 39140 48317 51008 60001 84321 333 84926
BBXX CGBY 17124 99487 71235 46/// /0000 10055 20051 40273 58017 7//// 8//// 22200 0//// 2////
AAXX 17124 68399 36/// /0505 10318 20129 30058 40164 57018 333 10318 20147 91030 555 91017
AAXX 17124 68383 36/// /0000 10305 20086 39936 48626 57015 333 10311 20161 91000 555 91018
BBXX VXKF 17124 99475 70591 46/// /3032 11022 21070 40100 53027 7//// 8//// 22214 0//// 2////
AAXX 17124 60060 32956 03005 10183 20098 40254 58002
AAXX 17124 60127 32565 52708 10145 20087 39663 40260 58013 83202 333 83820 83073
AAXX 17124 60141 32560 53007 10147 20077 39609 40275 56011 85202 333 85830
AAXX 17124 60185 32970 30809 10180 20094 40297 50000 80002 333 83070
AAXX 17124 60190 32972 32604 10147 20073 40278 58006 80002 333 83071
AAXX 17124 60191 32965 22802 10161 20086 40291 50000 80002 333 82073
AAXX 17124 60195 32965 32820 10150 21034 38575 48590 57004 80002 333 83073 95500
AAXX 17124 60210 32970 00000 10174 21079 39045 48571 58008
AAXX 17124 60220 32960 00212 10168 20105 40280 51008
AAXX 17124 60265 32970 00000 10127 21085 38963 48583 58012
AAXX 17124 60105 NIL
AAXX 17124 60106 NIL
AAXX 17124 60107 NIL
AAXX 17124 60318 NIL
AAXX 17124 60101 11458 73011 10151 20081 40289 56004 60051 70166 872// 333 87816
AAXX 17124 60115 32665 72620 10171 20098 40223 56010 878// 333 85833 85640
AAXX 17124 60135 32558 72706 10170 20101 40284 56010 8553/ 333 85626 86356
AAXX 17124 60150 32958 62506 10164 20091 39625 40276 58009 85280 333 85620 83360
AAXX 17124 60155 32565 526// 10189 20124 40282 58008 81502 333 81626 85070
AAXX 17124 60156 15960 30304 10179 20112 40295 56006 60001 80002 333 83070
AAXX 17124 60230 15958 00605 10176 20049 40274 56007 60001
AAXX 17124 60096 NIL
AAXX 17124 60252 NIL
AAXX 17121 11812 36/// /3110 10015 21027 39245 42579 52030
AAXX 17121 11813 11585 62605 10042 21008 39602 49947 52025 69901 70262 85870 333 81825 84633 91010
AAXX 17121 11816 11680 73007 10056 21007 39787 49948 52021 69901 70262 8587/ 333 85836 86461
AAXX 17121 11819 36/// /2908 10049 21004 39726 49940 52021
AAXX 17121 11826 12684 73009 10054 21017 39735 49932 52017 60001 84541 333 84640 87361 91014
AAXX 17121 11841 12584 72705 10045 21017 39545 49915 52011 60001 875// 333 87631
AAXX 17121 11855 11581 73011 10059 20006 39770 49933 52021 69901 70266 875// 333 86633 87650
AAXX 17121 11856 36/// /3106 10043 21009 39609 49923 52023
AAXX 17121 11858 12582 63006 10070 20004 39787 49936 52022 60001 82146 333 82826 85268 91011
AAXX 17121 11867 11584 82905 10047 21026 39609 49921 53015 69911 70262 8782/ 333 81830 87650 88460
AAXX 17121 11880 11670 82906 10057 21001 39749 49918 52022 69901 70266 885// 333 88646
AAXX 17121 11900 16/// /3002 10048 21015 39585 49915 52019 69901
AAXX 17121 11903 12680 82803 10045 20005 39530 49904 52016 60001 8552/ 333 82635 84656 88459
AAXX 17121 11916 11/00 90217 11088 21103 37670 48184 55001 60011 77143 333 89/00 91023 91125 92983 93598 96049
AAXX 17121 11918 11450 83003 10003 21011 39097 42558 52015 69951 77172 885// 333 82711 88618
AAXX 17121 11927 11684 82804 10055 20003 39635 49892 52019 69901 70262 888// 333 81835 88650
AAXX 17121 11930 11/00 93215 11134 21134 37083 47726 55020 60051 77374 333 89/00 91020 93520
AAXX 17121 11933 11/40 89902 11024 21071 38381 48210 53001 69941 77174 8652/ 333 817// 86616 88457 93712 444 17146
AAXX 17121 11934 11460 82606 10009 21012 39071 42537 53004 60011 77166 885// 333 83710 87633
AAXX 17121 11938 11356 83104 10005 21047 38829 42527 53007 69921 77074 885// 333 83708 88630 91010
AAXX 17121 11952 16/// /0000 10003 21001 39064 42538 52004 60041
AAXX 17121 11958 36/// /3512 11035 21041 38456 48204 57002
AAXX 17121 11968 11357 80205 10016 20006 39602 49881 53005 60151 76866 8572/ 333 85708 88520
AAXX 17121 11976 11325 80000 10009 20003 39629 49892 55002 60151 76866 8467/ 333 84706 88558
AAXX 17121 11978 11350 83506 10006 20000 39744 49874 53004 60191 76866 885// 333 85707 88623
AAXX 17121 11993 11212 80000 10003 20003 39677 49893 53012 60231 77366 887// 333 86706 88611
AAXX 17124 60285 32458 30207 10177 20133 40254 58002 83500 333 83616
AAXX 17124 60340 NIL
AAXX 17124 64500 32460 72404 10284 20243 30086 40099 879// 333 0//00 59005 84611 81920 87640 94941 95831
BBXX DBLK 17121 99696 50061 41498 71104 11009 21029 49694 57024 71572 878// 22261 05019 ICE 48694
AAXX 17124 86011 32870 50000 10234 20182 39966 40127 52020 85090 333 20188 5//// 85358
AAXX 17124 86033 NIL
AAXX 17124 86065 32570 80000 10226 20187 39899 40137 53017 8457/ 333 20210 5//// 84627 88457
AAXX 17124 86068 NIL
AAXX 17124 86086 NIL
AAXX 17124 86097 32970 81904 10244 20136 39481 40119 52019 83017 333 20174 50684 83458 88270
AAXX 17124 86128 NIL
AAXX 17124 86134 32970 70000 10240 20178 30026 40113 52015 87010 333 20186 50804 87460
AAXX 17124 86170 NIL
AAXX 17124 86185 32970 60000 10242 20192 30026 40120 52010 80006 333 20168 5//// 86270
AAXX 17124 86192 32970 20504 10260 20178 39899 40115 52014 80002 333 20176 5////
AAXX 17124 86210 32970 62708 10218 20175 39759 40102 51017 80006 333 20168 50654 86270
AAXX 17124 86218 32970 51303 10247 20186 30018 40114 52020 80005 333 20192 50844 85270
AAXX 17124 86221 32970 40000 10232 20199 39983 40117 52010 80005 333 20182 50524 84270
AAXX 17124 86233 32970 70000 10224 20185 39928 40117 51017 80007 333 20172 5//// 87270
AAXX 17124 86234 32870 41802 10232 20180 39887 40070 51020 81034 333 20155 50054 81357 84070
AAXX 17124 86246 32570 20000 10240 20156 39826 40110 52018 82200 333 20168 5//// 82633
AAXX 17124 86251 NIL
AAXX 17124 86255 32870 11806 10240 20193 30060 40127 52014 81030 333 20182 50904 81360
AAXX 17124 86260 32670 32004 10212 20176 39954 40107 52021 83400 333 20182 50654 83640
AAXX 17124 86268 32970 63602 10220 20186 39961 40129 52019 80007 333 20164 5//// 86270
AAXX 17124 86285 NIL
AAXX 17124 86297 32870 62303 10234 20194 39988 40092 52024 81086 333 20186 50604 81358 85270
BBXX VOLG 17124 99/// ///// 46/// /3023 10013 21035 40140 51032 7//// 8//// 22200 0//// 2////
BBXX 44011 17121 99411 70666 46/// /2401 10084 20025 40166 52007 91150 22200 00096 10805 20401 3//// 40805 70026 333 91202 555 11009 22009 31126 41102 61149 239009 221005 260008 206005 294004 267004
BBXX 41046 17121 99238 70683 46/// /0707 10242 20162 40201 53017 91150 22200 00256 11405 20703 300// 41404 70026 333 91209 555 11075 22079 31112 40511 61149 075070 070062 062051 059077 058066 056066 80510 91112
BBXX 44008 17121 99405 70692 46/// /3204 10081 20028 40167 50008 91150 22200 00120 10803 20401 320// 40803 70017 333 91206 555 11045 22046 31136 43006 61149 317042 303041 301041 293034 291036 291030
BBXX 44039 17121 99411 70727 46/// /3005 10049 21011 40198 91145 22200 00099 10301 70004 333 91207
AAXX 17121 37682 31997 70000 11055 21062 38109 48515 57002 70242 87040
AAXX 17121 37717 32598 72304 11009 21059 38051 48479 54000 85531 555 1/102
AAXX 17121 37788 41595 62401 11016 21053 39223 40255 57011 71022 866// 333 86723
AAXX 17124 63980 42481 43107 10303 20250 40074 83903 333 59003 81914 83828 943// 911//
AAXX 17124 13600 NIL
AAXX 17124 13610 NIL
AAXX 17124 13611 NIL
AAXX 17124 13619 NIL
AAXX 17124 13622 NIL
AAXX 17124 13624 11660 82214 10170 20092 39951 49989 57009 69941 70262 885// 333 88633
AAXX 17124 13625 NIL
AAXX 17124 13629 NIL
AAXX 17124 13601 11550 82404 10134 20101 39874 49972 54003 60121 71096 888// 333 83623 85833
AAXX 17124 13602 NIL
AAXX 17124 13623 NIL
AAXX 17124 16045 NIL
AAXX 17124 16090 12880 62710 10076 21051 39918 40000 52024 60001 82031 333 55300 82358
AAXX 17124 16149 12575 23115 10106 21091 39987 40003 51018 60001 81130 333 81830
AAXX 17124 16261 NIL
AAXX 17124 16453 11597 83012 10160 20094 30020 40097 54000 69981 70362 8587/ 333 55300 83820 84623 85358 88459 555 0436/
AAXX 17124 16560 12570 63021 10150 21015 30095 40101 58001 60001 85860 333 55310 82820 83630
AAXX 17121 10200 01565 62907 10052 20022 39998 49996 51021 69981 72582 86900 333 32/// 55305 20455 30330 69927 86920 91113
BBXX BATFR56 17124 99194 30579 44998 70204 10260 20207 40097 56007 70222 86405 22200 00279
AAXX 17124 13622 11665 82206 10172 20084 39988 49995 57023 60021 70265 885// 333 88636
AAXX 17124 89642 42982 01507 11005 21152 39903 49956 52024 333 10029 21019
AAXX 17124 71805 02570 72922 10010 21029 30091 40100 51029 69901 875// 333 60007 86623 87633 91035 90710 91138 93100 555 60005
AAXX 17124 16021 NIL
AAXX 17124 16022 12784 43514 11080 21125 37653 48307 52018 60001 83061 333 55310 83356 92835
AAXX 17124 16033 12668 62707 11004 21045 38609 48327 53016 60001 82530 333 82640 84357 92822
AAXX 17124 16040 12565 73102 10004 21006 39062 42613 51010 60001 85532 333 85620 84356 92802
AAXX 17124 16052 11/01 93305 11172 21194 36450 47870 52022 69921 77174 333 55300 89/01 93199
AAXX 17124 16061 12984 03016 10058 21081 39197 42663 51026 60001 333 55310
AAXX 17124 16098 12980 62302 10072 20043 39937 49988 52020 60001 86030 333 86360
AAXX 17124 16138 12584 63505 10076 21004 39993 40004 52019 60001 83530 333 83630 83358
AAXX 17124 16148 12965 33116 10109 21029 39992 40004 53019 60001 82071 333 55310 82365
AAXX 17124 16168 11/00 92133 10054 21047 39288 42665 52028 69921 79542 333 89/00
AAXX 17124 16172 12570 12706 10104 21052 39718 40012 53017 60001 81100 333 81825
AAXX 17124 16179 12582 52214 10074 21060 39320 42636 51016 60001 82270 333 82827 84358
AAXX 17124 16224 11463 83114 10068 21016 39701 40019 50021 69981 72162 888// 333 55300 84815 87623
AAXX 17124 16232 12598 62826 10126 20033 39935 49988 51005 60001 85230 333 55300 82820 83623 555 0437/
AAXX 17124 16245 11460 73615 10084 20041 30013 40039 52019 60021 79591 87900 333 85816 81920 83640
AAXX 17124 16253 11570 42820 10120 20030 30009 40021 53013 60051 70191 84800 333 55304 81820 83635
AAXX 17124 16258 11462 62807 10042 20005 39000 42625 51002 69941 72181 84520 333 84610 83458
AAXX 17124 16263 11/00 92623 10014 20014 38756 48331 50002 60041 77397 333 89/00 92801 93104
AAXX 17124 16294 NIL
AAXX 17124 16337 12597 42729 10116 20046 39470 40031 58001 60001 84200 333 84820 555 0546/
AAXX 17124 16344 11/00 92934 10010 20010 38186 48374 56004 60071 76864 333 55300 89/00 95090 95190
AAXX 17124 16434 11260 82909 10078 20037 38901 48413 50001 69961 70364 85270 333 85805 84356 95010 95100
AAXX 17124 16450 11361 72907 10102 20064 38995 48470 50002 69921 70264 85220 333 85807 85456
AAXX 17124 16459 12564 72612 10186 20061 30032 40066 55007 60001 85870 333 83625 83830 85358 16546 12568 63119 10150 20050 30074 40102 50000 60001 85830 333 83825 83640
AAXX 17124 16564 12597 52735 10152 20024 39945 40084 57003 60001 84230 333 82820 83825 555 0500/
AAXX 17124 16008 11220 80205 11030 21070 38369 48338 53010 69901 77077 8870/ 333 88705 92820 93101
AAXX 17124 16084 12970 33010 10090 21105 39853 40018 53013 60001 80001 333 55308
AAXX 17124 16088 12982 32708 10059 20009 39895 40013 51018 60001 80001
AAXX 17124 16110 12598 80804 10072 20015 39979 49984 52015 60001 8552/ 333 55300 85630 84456 555 0000/
AAXX 17124 16134 12980 02315 11034 21090 37640 48323 52020 60001 333 55310 92845
AAXX 17124 16153 12999 01913 10137 21082 39760 40019 52011 60001 333 55310 555 0314/
AAXX 17124 16158 12980 33014 10128 21019 30008 40015 52018 60001 80008 333 55310
AAXX 17124 16206 11484 42913 10102 20005 30012 40020 52012 60011 70192 83960 333 81915
AAXX 17124 16219 41475 52942 11012 21012 37944 48333 53014 6///1 72274 85200 333 55300 85610 95009 95103
AAXX 17124 16252 12470 52420 10078 21043 39060 42636 53004 60001 84830 333 55310 81816 83620
AAXX 17124 16280 12497 43418 10126 20089 39800 40018 52012 60001 86100 333 55308 84810 555 0656/
AAXX 17124 16310 12597 63220 10138 20047 39802 40019 58006 60001 82570 333 55310 82620 83457 555 0426/
AAXX 17124 16320 NIL
AAXX 17124 16325 12598 22624 10174 20018 39970 49984 50009 60001 81530 333 81625 98070 555 0435/
AAXX 17124 16360 12597 52629 10168 20054 39871 40002 58013 60001 82530 333 55306 82625 85358 555 0535/
AAXX 17124 16400 11497 43110 10152 20072 39795 40079 53005 60021 70161 81130 333 55310 81817 84358 555 0547/
AAXX 17124 16420 11597 52805 10166 20111 30004 40068 58007 60171 70262 84504 333 55310 84620 90935 91016 96461 96563 555 0216/
AAXX 17124 16429 11568 72817 10150 20085 30088 40100 50001 69921 70262 86830 333 55300 83825 83630 85359
AAXX 17124 16470 11560 62714 10154 20120 39888 40121 58001 60021 70162 83570 333 55300 22/// 83620 86356 95010
AAXX 17124 16480 11497 63012 10174 20163 30003 40063 56008 69981 70262 84230 333 55300 84815 84358 555 0316/
AAXX 17124 16522 NIL
AAXX 17124 16539 NIL
AAXX 17124 16550 12598 33035 10144 20006 39864 40040 57016 60001 83200 333 55310 83830 555 0741/
BBXX 46089 17121 99459 71258 46/// /1002 10076 20075 40256 58018 91150 22200 00096 11906 329// 41906 70029 333 91203 555 11017 22018 31051 41503 61149 101016 146015 139013 122013 091012 137014
BBXX 46042 17121 99368 71224 46/// /1006 10110 40199 56007 91150 22200 00128 11503 20401 329// 41503 70017 333 91208 555 11066 22069 31102 41008 61149 095063 098059 103062 099065 097066 091066
BBXX 51101 17121 99243 71621 46/// /0709 10234 20191 40212 57005 91150 22200 00240 11507 20704 333// 41505 70033 333 91212 555 11099 22105 31101 41012 61149 069092 074088 071089 075094 081094 076094
BBXX 46061 17121 99602 71468 46/// /1409 10044 40026 50003 91150 22200 00057 10904 20703 300// 40903 70019 333 91210 555 11095 22100 31050 41511 61149 141089 144086 154072 159059 155064 152049
BBXX 46083 17121 99582 71380 46/// /2404 10037 20018 40111 53006 91150 22200 00065 11408 20401 300// 41408 70041 333 91206 555 11045 22047 31059 42609 61149 235042 238036 238037 238049 256058 262068 82708 91052
AAXX 17124 61968 16/// /2403 1//// 20083 4//// 69961 333 59006 90710 91108 555 60005
AAXX 17124 61970 16/// ///// 10325 20248 40089 60001 333 59003 555 60005
AAXX 17124 61972 16/// /1916 10307 20223 40102 60001 333 59006 90710 91126 555 60005
AAXX 17124 61980 11560 60816 10282 20205 40095 60001 71522 84802 333 59015 81826 83830 85078 90710 91122 92437 555 60005
AAXX 17124 67005 11456 72812 10274 20221 40088 60001 71622 879// 333 58001 81916 87818 90710 91121 555 60005
BBXX 42362 17121 99278 70907 46/// /0408 10211 20183 40244 52003 91200
BBXX 42363 17121 99282 70892 46/// /0209 10200 20161 40247 51010 91200 333 91209
BBXX 42364 17121 99291 70881 46/// /3508 10194 20172 40247 51010 91200
BBXX 44060 17121 99413 70721 46/// ///05 10044 40189 53006 91200 22200 00109 333 91206 555 11057 22057
BBXX 44172 17121 99445 70634 46/// ///// 1//// 91201 22200 00074 11003 21003 318// 41101 70016
BBXX 51000 17121 99235 71541 46/// /0306 10220 40201 58011 91150 22200 00233 11607 20502 332// 41607 70036 333 91207 555 11060 22063 31142 40307 61149 034058 034058 023056 029056 039057 043057
BBXX 46232 17121 99325 71174 46/// ///// 1//// 91138 22200 00150 11003 21002 328// 41101 70013
BBXX 46247 17121 99378 71228 46/// ///// 1//// 91151 22200 00114 11703 20802 330// 41702 70016
BBXX 46240 17121 99366 71219 46/// ///// 1//// 91142 22200 00122 11502 20901 335// 41501 70009
BBXX 46236 17121 99368 71219 46/// ///// 1//// 91150 22200 00121 11503 20902 328// 41502 70014
BBXX 46237 17121 99378 71226 46/// ///// 1//// 91140 22200 00111 11703 20902 326// 41702 70014
BBXX 46225 17121 99329 71174 46/// ///// 1//// 91144 22200 00145 11002 21002 328// 41201 70010
BBXX 46215 17121 99352 71209 46/// ///// 1//// 91138 22200 00130 11703 21002 327// 41702 70015
BBXX 46218 17121 99345 71208 46/// ///// 1//// 91202 22200 00137 11704 20902 331// 41703 70018
BBXX 41110 17121 99341 70777 46/// ///// 1//// 91151 22200 00140 11402 20401 311// 41401 70009
BBXX 42099 17121 99273 70842 46/// ///// 1//// 91157 22200 00235 10501 20501 70004
BBXX 41113 17121 99284 70805 46/// ///// 1//// 91151 22200 00217 11001 21001 308// 41101 70007
BBXX 41112 17121 99307 70813 46/// ///// 1//// 91151 22200 00153 11001 21001 311// 41101 70007
BBXX 46012 17121 99374 71229 46/// /3304 10112 40200 58007 91150 22200 00119 11504 329// 41504 70019 333 91205 555 11039 22040 31129 43005 61149 333038 315039 304038 301040 302037 309027
BBXX 46014 17121 99394 71240 46/// /1606 10103 40204 54000 91150 22200 00103 11504 20501 3//// 41504 70020 333 91208 555 11068 22073 31144 41608 61149 158063 156056 145052 148058 146050 131044
BBXX 46026 17121 99378 71228 46/// /0705 10119 40205 57003 91150 22200 00117 11603 20401 329// 41603 70015 333 91206 555 11057 22061 31140 43107 61149 062054 300050 297042 296042 297050 299048
BBXX 46028 17121 99357 71219 46/// /1001 10129 40193 57006 91150 22200 00137 11604 20401 330// 41604 70020 333 91202 555 11007 22007 31055 41303 61149 104008 104014 107016 109016 118018 131019
BBXX 46042 17121 99368 71224 46/// /1006 10110 40199 56007 91150 22200 00128 11503 20401 329// 41503 70017 333 91208 555 11066 22069 31102 41008 61149 095063 098059 103062 099065 097066 091066
BBXX 46050 17121 99442 71246 46/// /0604 10097 40244 56018 91150 22200 00101 11405 20301 328// 41405 70025 333 91205 555 11038 22039 31106 40806 61149 062036 067038 067042 070043 066044 066042
BBXX CG2958 17124 99507 71269 46/// /1225 10111 20074 40206 56049 7//// 8//// 22272 0//// 2////
BBXX CG2965 17124 99487 71235 46/// /0000 10063 20062 40274 58018 7//// 8//// 22200 0//// 2////
BBXX CGBR 17124 99534 71293 46/// /0000 10027 20027 40116 56007 7//// 8//// 22200 0//// 2////
BBXX CGBY 17124 99487 71235 46/// /0000 10055 20051 40273 58017 7//// 8//// 22200 0//// 2////
BBXX CGDR 17124 99489 71258 46/// /1314 10078 20078 40258 57012 7//// 8//// 22231 00120 2////
BBXX CGJK 17124 99484 71234 46/// /0401 10072 20067 40269 56022 7//// 8//// 22200 0//// 2////
BBXX 51202 17121 99214 71577 46/// ///// 1//// 91139 22200 00245 11104 20604 302// 41102 70022
BBXX 44099 17121 99369 70757 46/// ///// 1//// 91152 22200 00124 11202 21002 308// 41201 70010
BBXX 46224 17121 99332 71175 46/// ///// 1//// 91136 22200 00148 10901 20901 324// 41101 70007
BBXX 46214 17121 99379 71235 46/// ///// 1//// 91155 22200 00119 11704 20902 330// 41703 70020
AAXX 17124 48601 11560 70505 10272 20236 30073 40077 69941 70522 82541 333 10311 82625 84364 87077
AAXX 17124 48615 11559 70817 10271 20235 30092 40098 69921 72186 83547 333 10296 83620 83364 87272
AAXX 17124 48620 NIL
AAXX 17124 48647 11459 73501 10262 20253 30059 40084 60261 72998 83942 333 10331 81710 81917 84364 87078
AAXX 17124 48650 11460 73003 10259 20246 30064 40083 60061 71398 82948 333 10314 81917 84364 86277
AAXX 17124 48657 11056 73404 10245 20240 30072 40090 60051 76166 84542 333 10285 82700 83624 86275
AAXX 17124 48665 11564 70402 10257 20243 30079 40089 60051 70582 81542 333 10284 81628 84364 86077
AAXX 17124 96413 11565 73402 10269 20247 30059 40085 60031 70182 82541 333 10314 82620 83365 87080
AAXX 17124 96421 11465 70000 10251 20242 30042 40078 60001 71322 84931 333 10333 81915 83616 85365
AAXX 17124 96441 12468 73403 10274 20248 30047 40074 60001 83541 333 10308 83614 87080
AAXX 17124 96449 11465 70206 10276 20249 30055 40074 60001 71322 83971 333 10303 83614 81915 83365 85080
AAXX 17124 96465 12470 70406 10285 20250 30036 40069 60001 81838 333 10304 81814 84364 87278
AAXX 17124 96471 11468 71103 10267 20239 30066 40069 60001 70322 82838 333 10303 81814 83364 87277
AAXX 17124 96481 12462 70602 10263 20243 30051 40070 60001 82841 333 10310 82817 83364 86080
AAXX 17124 96491 12465 70000 10257 20245 30064 40076 60001 83848 333 10283 83815 83364 87277
AAXX 17121 06206 45480 82910 10071 21003 39971 40024 51013 8//// 333 81/14 83/38 88/50 91013 91115 91212
AAXX 17121 06207 47574 3//12 10063 20003 39960 40013 51013 70180 8//// 333 81/24 83/72 91013 91120 91214
AAXX 17121 06239 47581 4//12 10072 20008 3//// 4//// 5//// 72380 8//// 333 82/24 83/28 91013 91117 91214
AAXX 17121 06252 46/// /2909 10065 20012 39987 40033 51007 222// 00100 10604 333 91010 91114 91212
AAXX 17121 06260 15572 72905 10077 20031 30043 40045 51019 60001 8//// 333 82/24 83/28 85/40 91008 91109 91205
AAXX 17121 06270 17570 43003 10047 20026 30018 40018 51019 60031 72386 8//// 333 81/20 83/32 91005 91115 91210
AAXX 17121 06290 17575 72906 10063 20032 39983 40023 51017 69961 70385 8//// 333 85/20 85/26 87/48 91009 91111 91206
AAXX 17121 01001 16/// /3416 11046 21062 39970 49982 53017 6//// 333 91127
AAXX 17121 01447 16/// /0000 11080 21091 39252 49938 50001 60001 333 91100
AAXX 17121 06201 45672 62910 10072 20015 39969 40021 51005 8//// 333 83/37 86/69 91012 91116 91213
AAXX 17121 06203 47473 5//09 10064 20023 39999 40050 51011 70380 8//// 333 82/14 84/17 85/73 91011 91114 91210
AAXX 17121 06204 45481 72908 10067 20024 39983 40034 51011 8//// 333 82/17 83/19 85/22 91011 91115 91212
AAXX 17121 06205 47581 53208 10070 20010 39936 49995 53006 75180 8//// 333 82/22 83/30 85/50 91010 91116 91212
AAXX 17121 06208 47467 73208 10067 20020 39958 40007 51023 78185 8//// 333 81/12 83/25 85/28 91012 91119 91215
AAXX 17121 06211 45479 62709 10065 20018 39972 40028 51008 8//// 333 82/19 84/21 85/26 91010 91116 91214
AAXX 17121 06212 47583 62909 1//// 2//// 39971 40034 51015 70180 8//// 333 82/29 86/68 91011 91116 91214
AAXX 17121 06235 17973 83007 10069 20017 30031 40031 51014 69931 72300 8//// 333 88/68 91011 91115 91210
AAXX 17121 06240 17577 42810 10069 20022 30049 40044 51018 69901 70180 8//// 333 83/27 84/70 91013 91113 91210
AAXX 17121 06251 17567 73007 10070 20026 30016 40017 51014 69931 72385 8//// 333 81/27 83/50 87/73 91010 91116 91211
AAXX 17121 06258 46/// /2707 333 91008 91116 91211
AAXX 17121 06269 17677 62704 10062 20033 30041 40035 51018 69981 72300 8//// 333 83/34 86/69 91007 91112 91207
AAXX 17121 06280 17780 22905 10059 20021 30005 40009 51016 69961 70181 8//// 333 82/50 91008 91112 91207
AAXX 17121 06310 17581 12808 10068 20022 30057 40067 50011 69911 70385 8//// 333 81/23 91011 91112 91209
AAXX 17121 06344 15580 42806 10070 20022 30060 40053 51016 60001 8//// 333 83/28 84/75 91010 91111 91207
AAXX 17121 06370 15975 62706 10067 20030 30028 40054 51014 60001 8//// 333 85/74 86/81 91009 91109 91206
AAXX 17121 06380 15676 82703 10046 20025 39926 40067 51018 60001 8//// 333 82/35 83/45 88/56 91005 91107 91204
AAXX 17124 78947 11580 30609 10268 20214 30145 40148 69902 7018/ 82201 333 02209 10296 20252 58013 70028 82823 90929
AAXX 17121 06407 12470 62807 10060 20029 30075 40082 51013 60001 85801 333 83817 83634 91112 91209
AAXX 17121 06447 NIL
AAXX 17121 06431 NIL
AAXX 17121 06432 37/62 /2705 10049 20029 30010 40087 51014 70084 333 83/10 85/15 91108 91206
AAXX 17121 06449 11257 72604 10034 20024 39856 40086 51016 69931 70281 876// 333 83706 86708 91107 91204
AAXX 17121 06450 11470 32805 10068 20035 30052 40068 51014 69911 70281 82201 333 82817 91109 91206
AAXX 17121 06458 17964 /2604 10044 20037 39924 40079 51016 69981 70086 333 81/08 85/11 91107 91205
AAXX 17121 06465 37370 /2604 10055 20035 30003 40069 51018 70085 333 81/09 91111 91207
AAXX 17121 06478 11375 72905 10032 20014 39852 40074 51022 69901 70381 86802 333 81709 85642 91108 91206
AAXX 17121 06496 17257 /2704 10001 20001 39384 40067 51015 69941 70087 333 83/03 85/05 87/07 91110 91206
AAXX 17121 06400 32476 32706 10063 20027 30076 40087 51013 83831 333 82815 91111 91208
AAXX 17121 06428 17461 /2704 10061 20035 30032 40081 51014 69921 70086 333 81/11 83/26 91108 91205
AAXX 17121 06451 11472 22705 10056 20035 30007 40075 51015 69961 70281 82202 333 82814 91108 91206
AAXX 17121 06456 11150 72906 10025 20017 39719 40090 51020 69901 70287 876// 333 41001 81702 85705 85708 91108 91206
AAXX 17121 06476 17005 82804 11001 21005 39413 40087 51019 69931 73275 333 88/00 91110 91205
AAXX 17121 06479 32475 42505 10061 20036 39986 40066 51018 82801 333 81815 84075 91109 91205
AAXX 17121 06490 17132 82904 10006 21002 39498 40076 51017 69901 71073 333 88/02 91107 91204
AAXX 17121 06590 12475 62604 10029 20010 39623 40079 52022 60001 86500 333 84612 85616 91109 91205
AAXX 17124 91574 46/// ///// 29077 39909 49915 56070
AAXX 17124 91570 NIL
AAXX 17124 91598 NIL
AAXX 17124 91573 06/// /1106 10236 20217 30013 40110 50003 69984 333 20247 59002 69987
AAXX 17124 91577 06/// /1609 10244 20192 30087 40108 50002 60004 333 20244 59003 60007
AAXX 17124 91579 06/// /1110 10232 20222 30100 40108 51005 60344 333 20241 58006 60017
AAXX 17124 91582 04670 81505 10229 20222 30072 40107 50001 69901 700// 333 69907 90710 91110 555 69905
AAXX 17124 91583 06/// /2602 10230 20222 30094 40109 50002 60044 333 20230 58002 69927
AAXX 17124 91587 06/// ///// 10219 20209 30058 40103 58004 60284 333 20213 58000 69947
AAXX 17124 91590 04686 81003 10228 20181 30074 40117 50001 60001 700// 333 60007 90710 91111 555 60005
AAXX 17124 91592 06/// /1110 10235 20175 30037 40122 58001 60014 333 20237 59008 60007
AAXX 17124 91596 06/// /1608 10221 20172 30008 40118 58002 69924 333 20217 59006 60007
AAXX 17121 03951 17960 /2706 10072 20027 30168 40195 50014 69901 70181
AAXX 17121 03953 11581 73605 10076 20015 30165 40202 50017 69921 78081 873// 333 86920 92438 96487
AAXX 17121 03955 11583 13007 10043 20017 39983 40184 51017 69901 71511 81903 333 81923
AAXX 17121 03956 15981 /2909 10045 21000 30066 40144 52015 60001 80/// 333 81/70
AAXX 17121 03962 11470 22603 10060 20025 30153 40177 51022 69911 70381 81920 333 81918
AAXX 17121 03963 17973 /3208 10069 20022 30147 40176 52019 60011 7018/ 80/// 333 84/74
AAXX 17121 03966 15979 /3005 10046 20006 30071 40165 52019 60001
AAXX 17121 03967 12483 22608 10032 20013 30023 40139 51017 69901 82830 333 81714
AAXX 17121 03969 12482 12807 10036 20013 30024 40130 51015 69901 81301 333 81710 81918
AAXX 17121 03973 11470 63007 10032 20003 39903 40162 51021 69961 78781 869// 333 86918
AAXX 17121 03976 11583 33207 10068 20013 30157 40169 51019 69981 70181 83300 333 82920 81820 96489
AAXX 17121 03980 17464 /0205 10046 20023 30096 40121 52030 60011 7818/ 84/// 333 81/12 83/23 84/32
AAXX 17124 89532 42/65 70431 10033 21013 39864 49891 56010 86572 333 00339 10043 20027
OOXX AAUNI 17124 99798 50833 56093 07671 46/// /2223 11107 21165 38961 49856 52014 91200
AAXX 17124 91324 NIL
AAXX 17124 91329 NIL
AAXX 17124 91336 NIL
AAXX 17124 91339 11474 80805 10294 20249 30065 40061 60211 70282 8636/ 333 56299 58007 70210 86918 88362 555 91712
AAXX 17124 91320 32474 80510 10289 20261 30115 40120 82201 333 561/9 58010 82816 86074 555 91712
AAXX 17124 48601 11560 70505 10272 20236 30073 40077 69941 70522 82541 333 10311 82625 84364 87077
AAXX 17124 48615 11559 70817 10271 20235 30092 40098 69921 72186 83547 333 10296 83620 83364 87272
AAXX 17124 48620 11461 71302 10257 20251 30070 40079 60281 71398 84948 333 10315 81712 81917 83630 87276
AAXX 17124 48647 11459 73501 10262 20253 30059 40084 60261 72998 83942 333 10331 81710 81917 84364 87078
AAXX 17124 48657 11056 73404 10245 20240 30072 40090 60051 76166 84542 333 10285 82700 83624 86275
AAXX 17124 48665 11564 70402 10257 20243 30079 40089 60051 70582 81542 333 10284 81628 84364 86077
AAXX 17124 96413 11565 73402 10269 20247 30059 40085 60031 70182 82541 333 10314 82620 83365 87080
AAXX 17124 96421 11465 70000 10251 20242 30042 40078 60001 71322 84931 333 10333 81915 83616 85365
AAXX 17124 96441 12468 73403 10274 20248 30047 40074 60001 83541 333 10308 83614 87080
AAXX 17124 96449 11465 70206 10276 20249 30055 40074 60001 71322 83971 333 10303 83614 81915 83365 85080
AAXX 17124 96465 12470 70406 10285 20250 30036 40069 60001 81838 333 10304 81814 84364 87278
AAXX 17124 96471 11468 71103 10267 20239 30066 40069 60001 70322 82838 333 10303 81814 83364 87277
AAXX 17124 96481 12462 70602 10263 20243 30051 40070 60001 82841 333 10310 82817 83364 86080
AAXX 17124 96491 12465 70000 10257 20245 30064 40076 60001 83848 333 10283 83815 83364 87277
AAXX 17123 78970 11468 20000 10278 20219 30103 40128 60001 71000 81102 333 00209 10336 20220 58003 70136 81818
AAXX 17123 78962 12480 21007 10269 20226 30127 40135 60001 81802 333 01209 10304 20224 58003 70000 81816
AAXX 17124 87692 31458 81616 10172 20137 30106 40132 50003 71022 888// 333 10172 20164 56399 85615 83820 555 10130 60102 64090 65062 70924 74134 88872
AAXX 17121 01265 16/// /2101 11109 21128 39362 49963 51011 60001 333 91104
AAXX 17121 01375 16/// /0000 11090 21098 6//// 333 91101
AAXX 17121 01440 46/// /0000 11047 21054 38638 49920 55003 333 91104
AAXX 17121 01469 16/// /2703 11040 21066 39759 49933 51007 60001 333 91106
AAXX 17121 01277 16/// /0902 11023 21050 60001 333 91104
AAXX 17121 01476 16/// /3503 10005 21030 39912 49918 50001 6//// 333 91106
AAXX 17121 01015 46/// /1612 10008 21060 333 91114
AAXX 17121 01425 16/// /3401 11007 21011 39846 49926 58004 69951 333 91103
AAXX 17121 01450 16/// /1202 11078 21106 38773 49932 50003 60001 333 91103
AAXX 17123 78970 11468 20000 10278 20219 30103 40128 60001 71000 81102 333 00209 10336 20220 58003 70136 81818
AAXX 17123 78962 12480 21007 10269 20226 30127 40135 60001 81802 333 01209 10304 20224 58003 70000 81816
AAXX 17121 01199 11575 81605 11056 21064 39510 49982 53004 6//// 70221 885// 333 91111
AAXX 17121 01262 46/// /1511 10024 21029 333 91114
AAXX 17121 01278 41785 11305 11032 21057 39826 49929 51013 70200 81808
AAXX 17121 01393 16/// /2902 11053 21063 39129 49936 51005 6//// 333 91103
AAXX 17121 01436 41485 33003 10022 21004 70210 82362 222// 00083 333 91105
AAXX 17121 76040 32902 01001 10081 20032 30158 40172 52001 91157 333 10174 20078 30/// 58001 70000 98602
AAXX 17121 76122 32756 80000 10040 20019 38584 40241 5//// 88010 91150 333 10128 20030 30030 55093 56090 58/// 70000 88456
AAXX 17121 76220 32858 40000 10034 20021 38183 40225 5//// 84030 91150 333 10178 20034 30014 56050 58051 70000
AAXX 17121 76225 32920 00000 10032 20013 38693 40242 5//// 91145 333 10140 21012 30013 58053 70000
AAXX 17121 76226 02/// ///// 1//// 2//// 3//// 4//// 5//// 6//// 7//// 8//// 9//// 333 0//// 1//// 2//// 30/// 4//// 5//// 54/// 55/// 56/// 57/// 5//// 6//// 7//// 8//// 8//// 8//// 9/
AAXX 17121 76305 32670 80000 10165 20075 30151 40160 5//// 8442/ 91134 333 10225 20148 30136 5655/ 58019 70000 84650
AAXX 17121 76323 32810 83501 10030 21006 38321 40308 52002 8803/ 91145 333 10138 20020 31005 5605/ 58049 70000 88357
AAXX 17121 76342 11430 83601 10088 20077 39596 40330 54000 60011 75055 887// 91150 333 10134 20082 30074 561// 58058 70025 88710
AAXX 17121 76373 32910 00000 10035 20004 38245 40200 5//// 91150 333 10260 21015 31010 58024 70000
AAXX 17121 76382 32960 03201 10110 20085 38960 40211 52004 91145 333 10253 20089 30078 58054 70000
AAXX 17121 76393 01008 80101 10104 20097 39692 40288 52007 60011 75055 887// 91155 333 10146 20104 30100 569// 58073 69937 70006 88703
AAXX 17121 76402 32550 70000 10134 20095 30111 40169 52001 87500 91145 333 10225 20130 30128 56500 59018 70000 87630
AAXX 17121 76423 32960 20000 10054 20023 38185 40195 52006 80005 91155 333 10251 20050 30/// 56009 58034 70000 82070
AAXX 17121 76458 32960 03202 10156 20140 30162 40166 53002 91151 333 10242 20131 30126 58026 70000
AAXX 17121 76471 32980 00000 10082 20045 37720 40151 5//// 91150 333 10213 20055 30030 55097 58029 70000
AAXX 17121 76490 06/// /3603 10125 20104 39874 40276 52008 60001 7//// 8//// 91150 333 0//// 10201 20124 30/// 50189 54/// 55000 56/// 57/// 58084 60007 70000 8//// 8//// 8//// 8//// 9/
AAXX 17121 76491 32456 73202 10124 20122 39891 40291 52009 875// 91145 333 10205 20120 30/// 569// 58098 79999 87620
AAXX 17121 76525 32260 31207 10072 20058 37503 40193 52003 83600 91140 333 10179 20069 30065 55089 22412 563// 58035 70000 83706
AAXX 17121 76539 32658 80601 10117 20114 38205 40221 52004 88400 91150 333 10240 20101 30074 56700 58030 70000 88626
AAXX 17121 76543 12675 83603 10163 20139 30240 40273 53/// 60091 8252/ 91150 333 10286 20163 31/// 5633/ 58086 70088 82650 86458
AAXX 17121 76547 06/// /0103 10168 20138 30241 40253 52013 60001 7//// 8//// 91150 333 0//// 10271 20166 4//// 50209 55006 56/// 57/// 58089 60007 70002 8//// 8//// 8//// 8//// 9//// 9/
AAXX 17121 76548 32960 83604 10168 20139 30250 40260 53011 8802/ 91140 333 10266 20166 30172 56050 58089 70000 88462
AAXX 17121 76556 32960 01602 10136 20109 39127 40151 52001 91130 333 10284 20134 30112 58027 70000
AAXX 17121 76577 32960 03602 10124 20106 38076 40185 52005 91140 333 10250 20118 30109 58033 70000
AAXX 17121 76578 06/// /0102 10124 20075 38074 40197 53005 60001 7//// 8//// 91150 333 0//// 10270 20117 30/// 4//// 50289 54/// 55047 56/// 57/// 58033 60007 70000 8//// 8//// 8//// 9/
AAXX 17121 76581 32960 02002 10151 20134 39133 40203 5//// 88020 91150 333 10250 20117 30109 56030 58086 70000 88460
AAXX 17121 76586 06/// /0701 10162 20160 30097 40256 53011 60121 7//// 8//// 91150 333 0//// 10301 20161 30/// 4//// 50219 54/// 55030 56/// 57/// 58088 60037 70136 8//// 8//// 8//// 9/
AAXX 17121 76592 06/// /0406 10229 20008 30203 40203 53007 60001 7//// 8//// 91150 333 0//// 10287 20225 30/// 4//// 50659 54/// 55093 56/// 57/// 58032 60007 70000 8//// 8//// 8//// 9/
AAXX 17121 76612 32958 00000 10090 20085 38507 40211 52010 91155 333 10268 20090 30080 58035 70000
AAXX 17121 76625 32560 30902 10128 20096 38176 40173 52004 82130 91140 333 10259 20124 30115 56220 58038 70000 82825
AAXX 17121 76632 31558 50204 10100 20090 37654 40171 5//// 70511 85400 91150 333 10200 20095 30/// 56100 58011 85633
AAXX 17121 76634 31430 82801 10108 20105 37894 40226 52002 71042 88400 91150 333 10211 20095 30082 563// 58040 70002 88620
AAXX 17121 76641 06/// /1002 10192 20189 30228 40240 53018 60051 7//// 8//// 91150 333 0//// 10275 20192 30/// 4//// 50169 54/// 55000 56/// 57/// 58078 60057 70046 8//// 8//// 8//// 8/
AAXX 17121 76645 06/// /0301 10200 20193 30193 40206 53006 60001 7//// 8//// 91150 333 0//// 10318 20200 30/// 4//// 50379 54/// 55073 56/// 57/// 58032 60007 70000 8//// 8//// 8//// 9/
AAXX 17121 76648 06/// /0202 10185 20172 30165 40197 53009 60001 7//// 8//// 91150 333 0//// 10323 20185 30/// 4//// 50269 54/// 55000 56/// 57/// 58027 60007 70000 8//// 8//// 8//// 8/
AAXX 17121 76654 31956 00201 10209 20171 30147 40151 55002 70544 91150 333 10284 20207 30175 58015 70000
AAXX 17121 76656 32968 00000 10078 20053 38534 40211 52010 81250 333 10268 20065 30022 58031 70000
AAXX 17121 76659 06/// /0202 10169 20142 3//// 4//// 5//// 60001 7//// 8//// 91150 333 0//// 10339 20166 30/// 4//// 50369 54/// 55086 56/// 57/// 5//// 60007 70000 8//// 8//// 8//// 9/
AAXX 17121 76665 32958 02601 10072 20042 38154 40202 52007 91150 333 10280 20062 30050 58032 70000
AAXX 17121 76675 32960 22102 10020 20000 37408 40231 51003 80005 91140 333 10225 20007 31019 56009 58027 70000
AAXX 17121 76680 31958 00000 10090 20073 37791 40145 54000 70400 91150 333 10244 20090 30072 58037 70000
AAXX 17121 76683 32960 03601 10048 20052 37863 40243 55000 91145 333 10239 20084 30060 50331 55102 21873 58030 70000
AAXX 17121 76685 32950 00000 10068 20048 37901 40200 54000 91150 333 10246 20066 30020 58034 70000
AAXX 17121 76687 01210 82301 10148 20139 38733 40228 52005 69901 75044 886// 91148 333 10236 20146 30131 563// 58057 69907 79999 86706 82608
AAXX 17121 76692 01520 83303 10216 20202 30190 40210 51000 60151 75865 85620 91145 333 10271 20214 31/// 5688/ 58054 60107 70151 85630 82456 81355
AAXX 17121 76693 06/// /3303 10216 20201 30197 40216 53004 60171 7//// 8//// 91150 333 0//// 10271 20208 30/// 4//// 50199 55000 56/// 57/// 58057 60107 70194 8//// 8//// 8//// 8//// 9/
AAXX 17121 76695 32956 03301 10204 20194 30185 40191 5//// 84030 91150 333 10312 20203 30177 56/0/ 59039 70000 84360
AAXX 17121 76698 12560 60000 10212 20209 30183 40195 5//// 60011 86200 91155 333 10305 20212 30200 56/00 58025 70023 86820
AAXX 17121 76727 06/// /0000 10134 20050 38425 40177 53005 60001 7//// 8//// 91150 333 0//// 10290 20134 30/// 4//// 50239 54/// 55000 56/// 57/// 58030 60007 70000 8//// 8//// 8//// 9/
AAXX 17121 76737 01470 80000 10154 20141 38823 40211 51003 69921 75022 887// 91135 333 10229 20154 30143 562// 59055 69927 70002 88713 91102 91534
AAXX 17121 76738 06/// /0000 10150 20144 38826 40221 53003 69921 7//// 8//// 333 10234 20149 30/// 50189 55000 56/// 57/// 58046 69927 70002 8//// 8//// 8//// 8//// 9//// 9//// 9//// 44
AAXX 17121 76743 32950 03401 10225 20212 30179 40187 52005 91145 333 10293 20225 30220 58042 70000
AAXX 17121 76750 01560 43303 10218 20212 30181 40192 52012 60011 75050 82230 91150 333 10314 20210 30202 56110 58034 60017 70010 82820
AAXX 17121 76751 06/// /0101 10216 20212 30181 40192 53012 60001 7//// 8//// 91150 333 0//// 10312 20211 30/// 4//// 50219 54/// 55000 56/// 57/// 58034 60007 70000 8//// 8//// 8//// 9/
AAXX 17121 76762 31602 10000 10160 20144 38782 40156 52009 70144 81400 91145 333 10318 20150 30134 56300 58/// 70000 81638
AAXX 17121 76772 06/// /3101 10085 20066 38458 40237 53005 60001 7//// 8//// 91150 333 0//// 10307 20085 30/// 4//// 5///9 55000 56/// 57/// 58025 60007 70000 8//// 8//// 8//// 9//// 9/
AAXX 17121 76773 32540 30401 10098 20073 38454 40162 52006 83400 91148 333 10296 20080 30072 50371 55094 56200 58026 70000 83620
AAXX 17121 76775 31560 20501 10133 20088 38554 40202 54000 70100 82440 91145 333 10310 20122 30/// 56880 58027 70000 82695 81398
AAXX 17121 76806 06/// /3302 10228 20216 30137 40141 55000 60001 7//// 8//// 91150 333 10314 20224 30203 30/// 50219 55000 56/// 57/// 58022 60007 70000 8//// 8//// 8//// 8//// 9//// 9/
AAXX 17121 76840 32520 10207 10266 20183 30079 40134 52006 81100 91140 333 10344 20228 30/// 55082 569// 58021 79999 81827 91217 91502 90410
AAXX 17121 76843 32965 00000 10199 20162 39519 40160 52010 91140 333 10290 20191 30171 58029 79999
AAXX 17121 76845 32256 40602 10105 20096 37976 40223 5//// 84600 91147 333 10208 20095 30082 56200 58020 70003 84703
AAXX 17121 76848 32450 40401 10128 20102 38405 40133 51005 84600 91150 333 10238 20128 30112 56100 58022 70045 84711 96722
AAXX 17121 76902 06/// /0602 10225 20188 39996 40135 52005 60001 7//// 8//// 91150 333 0//// 10341 20225 30/// 4//// 50399 54/// 56/// 57/// 58007 60007 70000 8//// 8//// 8//// 8//// 9/
AAXX 17121 76405 32840 61801 10172 20141 30145 40167 52005 86090 91150 333 10240 20146 30145 58016 70000 86356
AAXX 17121 76412 32960 02801 10120 20087 30159 40205 52043 91150 333 10226 20104 30/// 58038 70000
AAXX 17121 76640 11010 83605 10204 20201 30236 40248 52009 60031 75052 8572/ 91140 333 10276 20190 30188 5689/ 58143 70028 85701 83440
AAXX 17121 76647 32870 20202 10190 20184 30178 40208 52009 82030 91150 333 10304 20187 30170 560/0 58028 70000 82358
AAXX 17121 76741 01240 50504 10241 20228 30160 40178 53006 60041 72146 84220 91135 333 10285 20229 30226 561// 58062 60047 70051 84806
AAXX 17121 76855 32580 23301 10218 20185 30068 40118 5//// 81230 91150 333 10332 20208 30202 55085 56990 58014 70000 81820 92000
AAXX 17124 91324 NIL
AAXX 17124 91329 NIL
AAXX 17124 91336 NIL
AAXX 17124 91339 11474 80805 10294 20249 30065 40061 60211 70282 8636/ 333 56299 58007 70210 86918 88362 555 91712
AAXX 17124 91320 32474 80510 10289 20261 30115 40120 82201 333 561/9 58010 82816 86074 555 91712
AAXX 17121 76040 32902 01001 10081 20032 30158 40172 52001 91157 333 10174 20078 30/// 58001 70000 98602
AAXX 17121 76122 32756 80000 10040 20019 38584 40241 5//// 88010 91150 333 10128 20030 30030 55093 56090 58/// 70000 88456
AAXX 17121 76220 32858 40000 10034 20021 38183 40225 5//// 84030 91150 333 10178 20034 30014 56050 58051 70000
AAXX 17121 76225 32920 00000 10032 20013 38693 40242 5//// 91145 333 10140 21012 30013 58053 70000
AAXX 17121 76226 02/// ///// 1//// 2//// 3//// 4//// 5//// 6//// 7//// 8//// 9//// 333 0//// 1//// 2//// 30/// 4//// 5//// 54/// 55/// 56/// 57/// 5//// 6//// 7//// 8//// 8//// 8//// 9/
AAXX 17121 76305 32670 80000 10165 20075 30151 40160 5//// 8442/ 91134 333 10225 20148 30136 5655/ 58019 70000 84650
AAXX 17121 76323 32810 83501 10030 21006 38321 40308 52002 8803/ 91145 333 10138 20020 31005 5605/ 58049 70000 88357
AAXX 17121 76342 11430 83601 10088 20077 39596 40330 54000 60011 75055 887// 91150 333 10134 20082 30074 561// 58058 70025 88710
AAXX 17121 76373 32910 00000 10035 20004 38245 40200 5//// 91150 333 10260 21015 31010 58024 70000
AAXX 17121 76382 32960 03201 10110 20085 38960 40211 52004 91145 333 10253 20089 30078 58054 70000
AAXX 17121 76393 01008 80101 10104 20097 39692 40288 52007 60011 75055 887// 91155 333 10146 20104 30100 569// 58073 69937 70006 88703
AAXX 17121 76402 32550 70000 10134 20095 30111 40169 52001 87500 91145 333 10225 20130 30128 56500 59018 70000 87630
AAXX 17121 76423 32960 20000 10054 20023 38185 40195 52006 80005 91155 333 10251 20050 30/// 56009 58034 70000 82070
AAXX 17121 76458 32960 03202 10156 20140 30162 40166 53002 91151 333 10242 20131 30126 58026 70000
AAXX 17121 76471 32980 00000 10082 20045 37720 40151 5//// 91150 333 10213 20055 30030 55097 58029 70000
AAXX 17121 76490 06/// /3603 10125 20104 39874 40276 52008 60001 7//// 8//// 91150 333 0//// 10201 20124 30/// 50189 54/// 55000 56/// 57/// 58084 60007 70000 8//// 8//// 8//// 8//// 9/
AAXX 17121 76491 32456 73202 10124 20122 39891 40291 52009 875// 91145 333 10205 20120 30/// 569// 58098 79999 87620
AAXX 17121 76525 32260 31207 10072 20058 37503 40193 52003 83600 91140 333 10179 20069 30065 55089 22412 563// 58035 70000 83706
AAXX 17121 76539 32658 80601 10117 20114 38205 40221 52004 88400 91150 333 10240 20101 30074 56700 58030 70000 88626
AAXX 17121 76543 12675 83603 10163 20139 30240 40273 53/// 60091 8252/ 91150 333 10286 20163 31/// 5633/ 58086 70088 82650 86458
AAXX 17121 76547 06/// /0103 10168 20138 30241 40253 52013 60001 7//// 8//// 91150 333 0//// 10271 20166 4//// 50209 55006 56/// 57/// 58089 60007 70002 8//// 8//// 8//// 8//// 9//// 9/
AAXX 17121 76548 32960 83604 10168 20139 30250 40260 53011 8802/ 91140 333 10266 20166 30172 56050 58089 70000 88462
AAXX 17121 76556 32960 01602 10136 20109 39127 40151 52001 91130 333 10284 20134 30112 58027 70000
AAXX 17121 76577 32960 03602 10124 20106 38076 40185 52005 91140 333 10250 20118 30109 58033 70000
AAXX 17121 76578 06/// /0102 10124 20075 38074 40197 53005 60001 7//// 8//// 91150 333 0//// 10270 20117 30/// 4//// 50289 54/// 55047 56/// 57/// 58033 60007 70000 8//// 8//// 8//// 9/
AAXX 17121 76581 32960 02002 10151 20134 39133 40203 5//// 88020 91150 333 10250 20117 30109 56030 58086 70000 88460
AAXX 17121 76586 06/// /0701 10162 20160 30097 40256 53011 60121 7//// 8//// 91150 333 0//// 10301 20161 30/// 4//// 50219 54/// 55030 56/// 57/// 58088 60037 70136 8//// 8//// 8//// 9/
AAXX 17121 76592 06/// /0406 10229 20008 30203 40203 53007 60001 7//// 8//// 91150 333 0//// 10287 20225 30/// 4//// 50659 54/// 55093 56/// 57/// 58032 60007 70000 8//// 8//// 8//// 9/
AAXX 17121 76612 32958 00000 10090 20085 38507 40211 52010 91155 333 10268 20090 30080 58035 70000
AAXX 17121 76625 32560 30902 10128 20096 38176 40173 52004 82130 91140 333 10259 20124 30115 56220 58038 70000 82825
AAXX 17121 76632 31558 50204 10100 20090 37654 40171 5//// 70511 85400 91150 333 10200 20095 30/// 56100 58011 85633
AAXX 17121 76634 31430 82801 10108 20105 37894 40226 52002 71042 88400 91150 333 10211 20095 30082 563// 58040 70002 88620
AAXX 17121 76641 06/// /1002 10192 20189 30228 40240 53018 60051 7//// 8//// 91150 333 0//// 10275 20192 30/// 4//// 50169 54/// 55000 56/// 57/// 58078 60057 70046 8//// 8//// 8//// 8/
AAXX 17121 76645 06/// /0301 10200 20193 30193 40206 53006 60001 7//// 8//// 91150 333 0//// 10318 20200 30/// 4//// 50379 54/// 55073 56/// 57/// 58032 60007 70000 8//// 8//// 8//// 9/
AAXX 17121 76648 06/// /0202 10185 20172 30165 40197 53009 60001 7//// 8//// 91150 333 0//// 10323 20185 30/// 4//// 50269 54/// 55000 56/// 57/// 58027 60007 70000 8//// 8//// 8//// 8/
AAXX 17121 76654 31956 00201 10209 20171 30147 40151 55002 70544 91150 333 10284 20207 30175 58015 70000
AAXX 17121 76656 32968 00000 10078 20053 38534 40211 52010 81250 333 10268 20065 30022 58031 70000
AAXX 17121 76659 06/// /0202 10169 20142 3//// 4//// 5//// 60001 7//// 8//// 91150 333 0//// 10339 20166 30/// 4//// 50369 54/// 55086 56/// 57/// 5//// 60007 70000 8//// 8//// 8//// 9/
AAXX 17121 76665 32958 02601 10072 20042 38154 40202 52007 91150 333 10280 20062 30050 58032 70000
AAXX 17121 76675 32960 22102 10020 20000 37408 40231 51003 80005 91140 333 10225 20007 31019 56009 58027 70000
AAXX 17121 76680 31958 00000 10090 20073 37791 40145 54000 70400 91150 333 10244 20090 30072 58037 70000
AAXX 17121 76683 32960 03601 10048 20052 37863 40243 55000 91145 333 10239 20084 30060 50331 55102 21873 58030 70000
AAXX 17121 76685 32950 00000 10068 20048 37901 40200 54000 91150 333 10246 20066 30020 58034 70000
AAXX 17121 76687 01210 82301 10148 20139 38733 40228 52005 69901 75044 886// 91148 333 10236 20146 30131 563// 58057 69907 79999 86706 82608
AAXX 17121 76692 01520 83303 10216 20202 30190 40210 51000 60151 75865 85620 91145 333 10271 20214 31/// 5688/ 58054 60107 70151 85630 82456 81355
AAXX 17121 76693 06/// /3303 10216 20201 30197 40216 53004 60171 7//// 8//// 91150 333 0//// 10271 20208 30/// 4//// 50199 55000 56/// 57/// 58057 60107 70194 8//// 8//// 8//// 8//// 9/
AAXX 17121 76695 32956 03301 10204 20194 30185 40191 5//// 84030 91150 333 10312 20203 30177 56/0/ 59039 70000 84360
AAXX 17121 76698 12560 60000 10212 20209 30183 40195 5//// 60011 86200 91155 333 10305 20212 30200 56/00 58025 70023 86820
AAXX 17121 76727 06/// /0000 10134 20050 38425 40177 53005 60001 7//// 8//// 91150 333 0//// 10290 20134 30/// 4//// 50239 54/// 55000 56/// 57/// 58030 60007 70000 8//// 8//// 8//// 9/
AAXX 17121 76737 01470 80000 10154 20141 38823 40211 51003 69921 75022 887// 91135 333 10229 20154 30143 562// 59055 69927 70002 88713 91102 91534
AAXX 17121 76738 06/// /0000 10150 20144 38826 40221 53003 69921 7//// 8//// 333 10234 20149 30/// 50189 55000 56/// 57/// 58046 69927 70002 8//// 8//// 8//// 8//// 9//// 9//// 9//// 44
AAXX 17121 76743 32950 03401 10225 20212 30179 40187 52005 91145 333 10293 20225 30220 58042 70000
AAXX 17121 76750 01560 43303 10218 20212 30181 40192 52012 60011 75050 82230 91150 333 10314 20210 30202 56110 58034 60017 70010 82820
AAXX 17121 76751 06/// /0101 10216 20212 30181 40192 53012 60001 7//// 8//// 91150 333 0//// 10312 20211 30/// 4//// 50219 54/// 55000 56/// 57/// 58034 60007 70000 8//// 8//// 8//// 9/
AAXX 17121 76762 31602 10000 10160 20144 38782 40156 52009 70144 81400 91145 333 10318 20150 30134 56300 58/// 70000 81638
AAXX 17121 76772 06/// /3101 10085 20066 38458 40237 53005 60001 7//// 8//// 91150 333 0//// 10307 20085 30/// 4//// 5///9 55000 56/// 57/// 58025 60007 70000 8//// 8//// 8//// 9//// 9/
AAXX 17121 76773 32540 30401 10098 20073 38454 40162 52006 83400 91148 333 10296 20080 30072 50371 55094 56200 58026 70000 83620
AAXX 17121 76775 31560 20501 10133 20088 38554 40202 54000 70100 82440 91145 333 10310 20122 30/// 56880 58027 70000 82695 81398
AAXX 17121 76806 06/// /3302 10228 20216 30137 40141 55000 60001 7//// 8//// 91150 333 10314 20224 30203 30/// 50219 55000 56/// 57/// 58022 60007 70000 8//// 8//// 8//// 8//// 9//// 9/
AAXX 17121 76840 32520 10207 10266 20183 30079 40134 52006 81100 91140 333 10344 20228 30/// 55082 569// 58021 79999 81827 91217 91502 90410
AAXX 17121 76843 32965 00000 10199 20162 39519 40160 52010 91140 333 10290 20191 30171 58029 79999
AAXX 17121 76845 32256 40602 10105 20096 37976 40223 5//// 84600 91147 333 10208 20095 30082 56200 58020 70003 84703
AAXX 17121 76848 32450 40401 10128 20102 38405 40133 51005 84600 91150 333 10238 20128 30112 56100 58022 70045 84711 96722
AAXX 17121 76902 06/// /0602 10225 20188 39996 40135 52005 60001 7//// 8//// 91150 333 0//// 10341 20225 30/// 4//// 50399 54/// 56/// 57/// 58007 60007 70000 8//// 8//// 8//// 8//// 9/
AAXX 17121 76405 32840 61801 10172 20141 30145 40167 52005 86090 91150 333 10240 20146 30145 58016 70000 86356
AAXX 17121 76412 32960 02801 10120 20087 30159 40205 52043 91150 333 10226 20104 30/// 58038 70000
AAXX 17121 76640 11010 83605 10204 20201 30236 40248 52009 60031 75052 8572/ 91140 333 10276 20190 30188 5689/ 58143 70028 85701 83440
AAXX 17121 76647 32870 20202 10190 20184 30178 40208 52009 82030 91150 333 10304 20187 30170 560/0 58028 70000 82358
AAXX 17121 76741 01240 50504 10241 20228 30160 40178 53006 60041 72146 84220 91135 333 10285 20229 30226 561// 58062 60047 70051 84806
AAXX 17121 76855 32580 23301 10218 20185 30068 40118 5//// 81230 91150 333 10332 20208 30202 55085 56990 58014 70000 81820 92000
AAXX 17124 16021 11686 43428 11064 21146 37788 48317 52030 60001 73611 84100 333 84840 92832
AAXX 17124 13600 11558 82210 10138 20066 39925 49976 52026 60041 78098 883// 333 81923 87630
AAXX 17121 11010 01281 72709 10031 20006 39627 40005 52023 69921 72372 333 69905 81706 85624 86640 91015 91115 91212
AAXX 17121 11012 17/// /2407 10018 21001 39542 40012 53022 69921 7408/ 333 55300 91114
AAXX 17121 11022 12683 72809 10044 21022 39563 49945 53015 60001 878// 333 55302 86834 91117
AAXX 17121 11035 11586 82806 10046 20002 39704 49954 52021 69901 78062 8487/ 333 82824 86461 91118
AAXX 17121 11036 32584 72909 10050 21016 39735 49956 52023 333 81830 83640 86463 91117 91213
AAXX 17121 11101 11567 82802 10021 20011 39556 40088 52029 69941 76176 887// 333 88723
AAXX 17121 11120 01315 89902 10004 20000 39335 40047 52018 60011 78587 333 69965 83707 85715 86625 91113 91209
AAXX 17121 11126 17/// /3210 11106 21108 37556 48336 50016 60041 7404/ 333 55300 91118
AAXX 17121 11130 17/// /2401 10007 20000 39455 40049 51024 60051 7404/ 333 55300
AAXX 17121 11146 11/00 90307 11158 21177 36727 47813 53016 60071 77377 333 55300 89/00 91121 92613
AAXX 17121 11150 01358 82805 10025 21016 39491 40032 53022 69921 78577 333 69905 81708 83623 86650 91114 91208
AAXX 17121 11155 11/01 93213 11069 21077 38173 48314 51020 60041 77174 333 55300 89/03 91130
AAXX 17121 11157 11350 82606 10006 21039 39237 40007 52022 69941 76186 878// 333 82708 87627 91113 91207
AAXX 17121 11172 NIL
AAXX 17121 11190 12665 82810 10054 21036 39724 49955 53026 60001 885// 333 55302 91122
AAXX 17121 11204 32680 72905 10038 21052 39212 49996 52014 875// 333 55305 88638
AAXX 17121 11212 31/82 72903 11104 21122 37630 48318 51017 73632 87501 333 817// 86618 91116 444 16080
AAXX 17121 11231 32482 82802 10025 20008 39422 49991 52017 333 81810 87464
AAXX 17121 11240 32684 70602 10050 20007 39536 49969 52021 333 81835 85657 87463
AAXX 17121 11244 16/// /3101 10055 21033 39647 49971 53022 60001 333 55300
AAXX 17121 11389 17670 82208 10032 20001 39656 49981 53020 69901 7//4/ 885// 333 55300 91116
AAXX 17121 33135 NIL
AAXX 17121 33317 NIL
AAXX 17121 33345 32498 81605 10064 20034 39771 49972 57010 886// 333 88715
AAXX 17121 33393 /1224 83204 10018 20013 39493 49879 57007 78588 889// 333 86706 555 60041
AAXX 17121 33506 NIL
AAXX 17121 33587 32597 81604 10069 20044 39710 49967 57022 885// 333 88627
AAXX 17121 33631 /1496 83506 10042 20022 39724 49865 57002 78086 889// 333 85914 555 60241
AAXX 17121 33663 /1598 61404 10074 20027 39821 49914 57033 70282 84360 555 69901
AAXX 17121 33658 /1697 81005 10040 20025 39583 49876 57028 78082 8537/ 333 85933 555 69931
AAXX 17121 33711 /1497 81608 10072 20054 39804 40010 57015 70252 886// 333 88711 555 69901
AAXX 17121 33791 31430 81506 10064 20060 39880 40029 57014 71042 886// 333 88710
AAXX 17121 33837 31559 81806 10083 20073 39928 49979 58025 71022 885// 333 88620
AAXX 17121 33924 NIL
AAXX 17121 33946 32997 81806 10108 20013 39834 40049 57018 8805/
AAXX 17121 34300 31450 81407 10032 20009 39903 40095 57006 71022 885// 333 86711
AAXX 17121 34504 /1397 81406 10041 20031 39886 40064 57009 76162 8772/ 333 87708 555 69901
AAXX 17121 34519 32360 81308 10029 20008 39829 40105 57007 886// 333 88708
AAXX 17121 34601 /1360 71505 10045 20032 39936 40072 57012 72582 87900 333 84609 555 69901
BBXX TFBKF 17124 99635 70202 46/// ///// 22200 10701 70007
BBXX TFBLK 17124 99657 70248 46/// ///// 22200 10704 70019
BBXX TFDRN 17124 99658 70212 46/// ///// 22200 10904 70019
BBXX TFGRS 17124 99663 70182 46/// ///// 22200 10805 70027
BBXX TFGRV 17124 99638 70225 46/// ///// 22200 10602 70010
BBXX TFGSK 17124 99641 70229 46/// ///// 22200 10604 70020
BBXX TFHFN 17124 99642 70152 46/// ///// 22200 10702 70009
BBXX TFKGR 17124 99657 70136 46/// ///// 22200 10907 70033
BBXX TFSRT 17124 99633 70203 46/// ///// 22200 10702 70011
BBXX TFSTD 17124 99664 70234 46/// ///// 22200 10805 70024
AAXX 17124 91324 NIL
AAXX 17124 91329 NIL
AAXX 17124 91336 NIL
AAXX 17124 91339 11474 80805 10294 20249 30065 40061 60211 70282 8636/ 333 56299 58007 70210 86918 88362 555 91712
AAXX 17124 91320 32474 80510 10289 20261 30115 40120 82201 333 561/9 58010 82816 86074 555 91712
AAXX 17121 76040 32902 01001 10081 20032 30158 40172 52001 91157 33310174 20078 30/// 58001 70000 98602
AAXX 17121 76122 32756 80000 10040 20019 38584 40241 5//// 88010 91150333 10128 20030 30030 55093 56090 58/// 70000 88456
AAXX 17121 76220 32858 40000 10034 20021 38183 40225 5//// 84030 91150333 10178 20034 30014 56050 58051 70000
AAXX 17121 76225 32920 00000 10032 20013 38693 40242 5//// 91145 33310140 21012 30013 58053 70000
AAXX 17121 76226 02/// ///// 1//// 2//// 3//// 4//// 5//// 6//// 7////8//// 9//// 333 0//// 1//// 2//// 30/// 4//// 5//// 54///55/// 56/// 57/// 5//// 6//// 7//// 8//// 8//// 8//// 9/
AAXX 17121 76305 32670 80000 10165 20075 30151 40160 5//// 8442/ 91134333 10225 20148 30136 5655/ 58019 70000 84650
AAXX 17121 76323 32810 83501 10030 21006 38321 40308 52002 8803/ 91145333 10138 20020 31005 5605/ 58049 70000 88357
AAXX 17121 76342 11430 83601 10088 20077 39596 40330 54000 60011 75055887// 91150 333 10134 20082 30074 561// 58058 70025 88710
AAXX 17121 76373 32910 00000 10035 20004 38245 40200 5//// 91150 33310260 21015 31010 58024 70000
AAXX 17121 76382 32960 03201 10110 20085 38960 40211 52004 91145 33310253 20089 30078 58054 70000
AAXX 17121 76393 01008 80101 10104 20097 39692 40288 52007 60011 75055887// 91155 333 10146 20104 30100 569// 58073 69937 7000688703
AAXX 17121 76402 32550 70000 10134 20095 30111 40169 52001 87500 91145333 10225 20130 30128 56500 59018 70000 87630
AAXX 17121 76423 32960 20000 10054 20023 38185 40195 52006 80005 91155333 10251 20050 30/// 56009 58034 70000 82070
AAXX 17121 76458 32960 03202 10156 20140 30162 40166 53002 91151 33310242 20131 30126 58026 70000
AAXX 17121 76471 32980 00000 10082 20045 37720 40151 5//// 91150 33310213 20055 30030 55097 58029 70000
AAXX 17121 76490 06/// /3603 10125 20104 39874 40276 52008 60001 7////8//// 91150 333 0//// 10201 20124 30/// 50189 54/// 5500056/// 57/// 58084 60007 70000 8//// 8//// 8//// 8//// 9/
AAXX 17121 76491 32456 73202 10124 20122 39891 40291 52009 875// 91145333 10205 20120 30/// 569// 58098 79999 87620
AAXX 17121 76525 32260 31207 10072 20058 37503 40193 52003 83600 91140333 10179 20069 30065 55089 22412 563// 58035 70000 83706
AAXX 17121 76539 32658 80601 10117 20114 38205 40221 52004 88400 91150333 10240 20101 30074 56700 58030 70000 88626
AAXX 17121 76543 12675 83603 10163 20139 30240 40273 53/// 60091 8252/91150 333 10286 20163 31/// 5633/ 58086 70088 82650 86458
AAXX 17121 76547 06/// /0103 10168 20138 30241 40253 52013 60001 7////8//// 91150 333 0//// 10271 20166 4//// 50209 55006 56///57/// 58089 60007 70002 8//// 8//// 8//// 8//// 9//// 9/
AAXX 17121 76548 32960 83604 10168 20139 30250 40260 53011 8802/ 91140333 10266 20166 30172 56050 58089 70000 88462
AAXX 17121 76556 32960 01602 10136 20109 39127 40151 52001 91130 33310284 20134 30112 58027 70000
AAXX 17121 76577 32960 03602 10124 20106 38076 40185 52005 91140 33310250 20118 30109 58033 70000
AAXX 17121 76578 06/// /0102 10124 20075 38074 40197 53005 60001 7////8//// 91150 333 0//// 10270 20117 30/// 4//// 50289 54///55047 56/// 57/// 58033 60007 70000 8//// 8//// 8//// 9/
AAXX 17121 76581 32960 02002 10151 20134 39133 40203 5//// 88020 91150333 10250 20117 30109 56030 58086 70000 88460
AAXX 17121 76586 06/// /0701 10162 20160 30097 40256 53011 60121 7////8//// 91150 333 0//// 10301 20161 30/// 4//// 50219 54///55030 56/// 57/// 58088 60037 70136 8//// 8//// 8//// 9/
AAXX 17121 76592 06/// /0406 10229 20008 30203 40203 53007 60001 7////8//// 91150 333 0//// 10287 20225 30/// 4//// 50659 54///55093 56/// 57/// 58032 60007 70000 8//// 8//// 8//// 9/
AAXX 17121 76612 32958 00000 10090 20085 38507 40211 52010 91155 33310268 20090 30080 58035 70000
AAXX 17121 76625 32560 30902 10128 20096 38176 40173 52004 82130 91140333 10259 20124 30115 56220 58038 70000 82825
AAXX 17121 76632 31558 50204 10100 20090 37654 40171 5//// 70511 8540091150 333 10200 20095 30/// 56100 58011 85633
AAXX 17121 76634 31430 82801 10108 20105 37894 40226 52002 71042 8840091150 333 10211 20095 30082 563// 58040 70002 88620
AAXX 17121 76641 06/// /1002 10192 20189 30228 40240 53018 60051 7////8//// 91150 333 0//// 10275 20192 30/// 4//// 50169 54///55000 56/// 57/// 58078 60057 70046 8//// 8//// 8//// 8/
AAXX 17121 76645 06/// /0301 10200 20193 30193 40206 53006 60001 7////8//// 91150 333 0//// 10318 20200 30/// 4//// 50379 54///55073 56/// 57/// 58032 60007 70000 8//// 8//// 8//// 9/
AAXX 17121 76648 06/// /0202 10185 20172 30165 40197 53009 60001 7////8//// 91150 333 0//// 10323 20185 30/// 4//// 50269 54///55000 56/// 57/// 58027 60007 70000 8//// 8//// 8//// 8/
AAXX 17121 76654 31956 00201 10209 20171 30147 40151 55002 70544 91150333 10284 20207 30175 58015 70000
AAXX 17121 76656 32968 00000 10078 20053 38534 40211 52010 81250 33310268 20065 30022 58031 70000
AAXX 17121 76659 06/// /0202 10169 20142 3//// 4//// 5//// 60001 7////8//// 91150 333 0//// 10339 20166 30/// 4//// 50369 54///55086 56/// 57/// 5//// 60007 70000 8//// 8//// 8//// 9/
AAXX 17121 76665 32958 02601 10072 20042 38154 40202 52007 91150 33310280 20062 30050 58032 70000
AAXX 17121 76675 32960 22102 10020 20000 37408 40231 51003 80005 91140333 10225 20007 31019 56009 58027 70000
AAXX 17121 76680 31958 00000 10090 20073 37791 40145 54000 70400 91150333 10244 20090 30072 58037 70000
AAXX 17121 76683 32960 03601 10048 20052 37863 40243 55000 91145 33310239 20084 30060 50331 55102 21873 58030 70000
AAXX 17121 76685 32950 00000 10068 20048 37901 40200 54000 91150 33310246 20066 30020 58034 70000
AAXX 17121 76687 01210 82301 10148 20139 38733 40228 52005 69901 75044886// 91148 333 10236 20146 30131 563// 58057 69907 7999986706 82608
AAXX 17121 76692 01520 83303 10216 20202 30190 40210 51000 60151 7586585620 91145 333 10271 20214 31/// 5688/ 58054 60107 7015185630 82456 81355
AAXX 17121 76693 06/// /3303 10216 20201 30197 40216 53004 60171 7////8//// 91150 333 0//// 10271 20208 30/// 4//// 50199 5500056/// 57/// 58057 60107 70194 8//// 8//// 8//// 8//// 9/
AAXX 17121 76695 32956 03301 10204 20194 30185 40191 5//// 84030 91150333 10312 20203 30177 56/0/ 59039 70000 84360
AAXX 17121 76698 12560 60000 10212 20209 30183 40195 5//// 60011 8620091155 333 10305 20212 30200 56/00 58025 70023 86820
AAXX 17121 76727 06/// /0000 10134 20050 38425 40177 53005 60001 7////8//// 91150 333 0//// 10290 20134 30/// 4//// 50239 54///55000 56/// 57/// 58030 60007 70000 8//// 8//// 8//// 9/
AAXX 17121 76737 01470 80000 10154 20141 38823 40211 51003 69921 75022887// 91135 333 10229 20154 30143 562// 59055 69927 7000288713 91102 91534
AAXX 17121 76738 06/// /0000 10150 20144 38826 40221 53003 69921 7////8//// 333 10234 20149 30/// 50189 55000 56/// 57/// 5804669927 70002 8//// 8//// 8//// 8//// 9//// 9//// 9//// 44
AAXX 17121 76743 32950 03401 10225 20212 30179 40187 52005 91145 33310293 20225 30220 58042 70000
AAXX 17121 76750 01560 43303 10218 20212 30181 40192 52012 60011 7505082230 91150 333 10314 20210 30202 56110 58034 60017 7001082820
AAXX 17121 76751 06/// /0101 10216 20212 30181 40192 53012 60001 7////8//// 91150 333 0//// 10312 20211 30/// 4//// 50219 54///55000 56/// 57/// 58034 60007 70000 8//// 8//// 8//// 9/
AAXX 17121 76762 31602 10000 10160 20144 38782 40156 52009 70144 8140091145 333 10318 20150 30134 56300 58/// 70000 81638
AAXX 17121 76772 06/// /3101 10085 20066 38458 40237 53005 60001 7////8//// 91150 333 0//// 10307 20085 30/// 4//// 5///9 5500056/// 57/// 58025 60007 70000 8//// 8//// 8//// 9//// 9/
AAXX 17121 76773 32540 30401 10098 20073 38454 40162 52006 83400 91148333 10296 20080 30072 50371 55094 56200 58026 70000 83620
AAXX 17121 76775 31560 20501 10133 20088 38554 40202 54000 70100 8244091145 333 10310 20122 30/// 56880 58027 70000 82695 81398
AAXX 17121 76806 06/// /3302 10228 20216 30137 40141 55000 60001 7////8//// 91150 333 10314 20224 30203 30/// 50219 55000 56///57/// 58022 60007 70000 8//// 8//// 8//// 8//// 9//// 9/
AAXX 17121 76840 32520 10207 10266 20183 30079 40134 52006 81100 91140333 10344 20228 30/// 55082 569// 58021 79999 81827 9121791502 90410
AAXX 17121 76843 32965 00000 10199 20162 39519 40160 52010 91140 33310290 20191 30171 58029 79999
AAXX 17121 76845 32256 40602 10105 20096 37976 40223 5//// 84600 91147333 10208 20095 30082 56200 58020 70003 84703
AAXX 17121 76848 32450 40401 10128 20102 38405 40133 51005 84600 91150333 10238 20128 30112 56100 58022 70045 84711 96722
AAXX 17121 76902 06/// /0602 10225 20188 39996 40135 52005 60001 7////8//// 91150 333 0//// 10341 20225 30/// 4//// 50399 54///56/// 57/// 58007 60007 70000 8//// 8//// 8//// 8//// 9/
AAXX 17121 76405 32840 61801 10172 20141 30145 40167 52005 86090 91150333 10240 20146 30145 58016 70000 86356
AAXX 17121 76412 32960 02801 10120 20087 30159 40205 52043 91150 33310226 20104 30/// 58038 70000
AAXX 17121 76640 11010 83605 10204 20201 30236 40248 52009 60031 750528572/ 91140 333 10276 20190 30188 5689/ 58143 70028 8570183440
AAXX 17121 76647 32870 20202 10190 20184 30178 40208 52009 82030 91150333 10304 20187 30170 560/0 58028 70000 82358
AAXX 17121 76741 01240 50504 10241 20228 30160 40178 53006 60041 7214684220 91135 333 10285 20229 30226 561// 58062 60047 7005184806
AAXX 17121 76855 32580 23301 10218 20185 30068 40118 5//// 81230 91150333 10332 20208 30202 55085 56990 58014 70000 81820 92000
BBXX UFTA 17121 99851 71230 41697 83104 11253 21282 40111 57011 8653/ 333 11253
AAXX 17123 91551 11397 81204 10260 20253 4//// 5//// 60101 76022 8592/ 333 10300 5639/ 5//// 60101 81708 83812 81924 88559
AAXX 17123 91553 NIL
AAXX 17123 91554 31598 70000 10250 20243 40102 51002 70222 8321/ 333 10305 5699/ 59008 83820 87461
AAXX 17123 91555 NIL
AAXX 17123 91557 11498 89902 10260 20251 40085 52005 60011 79592 84912 333 10/// 56999 59006 60011 83820 83925 86461 88278
AAXX 17123 91565 11598 80000 10240 20240 40097 51002 60061 71388 8492/ 333 10290 5699/ 59001 60061 84820 81925 88461
AAXX 17123 91568 11598 60000 10250 20235 40105 54000 60051 78068 8412/ 333 10285 5629/ 58005 60051 84825 86260
AAXX 17123 91551 11397 81204 10260 20253 4//// 5//// 60101 76022 8592/ 333 10300 5639/ 5//// 60101 81708 83812 81924 88559
AAXX 17123 91553 NIL
AAXX 17123 91554 31598 70000 10250 20243 40102 51002 70222 8321/ 333 10305 5699/ 59008 83820 87461
AAXX 17123 91555 NIL
AAXX 17123 91557 11498 89902 10260 20251 40085 52005 60011 79592 84912 333 10/// 56999 59006 60011 83820 83925 86461 88278
AAXX 17123 91565 11598 80000 10240 20240 40097 51002 60061 71388 8492/ 333 10290 5699/ 59001 60061 84820 81925 88461
AAXX 17123 91568 11598 60000 10250 20235 40105 54000 60051 78068 8412/ 333 10285 5629/ 58005 60051 84825 86260
AAXX 17124 48620 11461 71302 10257 20251 30070 40079 60281 71398 84948 333 10315 81712 81917 83630 87276
AAXX 17121 15015 01597 80703 10058 20034 39277 42528 58022 60021 76162 885// 333 60027 91007 91110
AAXX 17121 15020 02597 81404 10061 20029 39696 49890 56030 60001 8457/ 333 60007 91006 91107
AAXX 17121 15090 02597 80705 10074 20043 39822 49913 56033 60001 8657/ 333 55302 00291 20505 30440 60007 91009 91110
AAXX 17121 15108 02298 82534 11020 21020 37857 48273 57020 60001 8457/ 333 43006 60007 91040 92727 95000
AAXX 17121 15120 01597 71304 10079 20052 39388 49869 56017 69971 70282 84570 333 55300 00206 20485 30461 69917 91007 91107
AAXX 17121 15150 01596 71605 10037 20037 39698 49909 56031 60001 71022 84570 333 60007 91009 91110
AAXX 17121 15170 01596 83601 10028 20021 39135 42561 56025 60001 71022 8557/ 333 60007 91002 91103
AAXX 17121 15200 01597 82303 10046 20036 39786 49929 51061 60041 76162 8802/ 333 69927 91005 91105
AAXX 17121 15230 01597 71702 10097 20052 39624 49909 53023 60041 70262 85570 333 55301 00133 20417 30370 69997 91006 91108
AAXX 17121 15260 01598 81105 10084 20027 39376 49895 55006 69921 70262 8457/ 333 60007 91010 91111 95050
AAXX 17121 15280 01/90 92520 11049 21049 37255 47787 57015 60001 74943 333 49030 60007 91028 92723 92956 96039
AAXX 17121 15292 01597 83005 10047 20047 39658 49950 51062 60041 78082 883// 333 60037 91009 91113 95090
AAXX 17121 15310 02597 71704 10101 20069 39851 49935 56033 60001 84570 333 55303 00332 20536 30495 60007 91007 91108
AAXX 17121 15335 02997 71907 10126 20083 39937 49944 56029 60001 87070 333 60007 91011 91113
AAXX 17121 15346 01597 83502 10062 20056 39646 49931 56021 60041 76166 885// 333 60027 91004 91104 95090
AAXX 17121 15350 02597 82003 10065 20044 39819 49937 56029 60001 885// 333 60007 91003 91103
AAXX 17121 15360 02997 71912 10101 20079 39940 49954 56030 60001 87070 222// 06078 20603 333 60007 91014 91115 92447
AAXX 17121 15410 01597 82401 10066 20062 39851 49946 51017 60041 76166 8802/ 333 60027 91001 91102
AAXX 17121 15420 01597 80602 10062 20050 39820 49930 56027 69921 76162 8452/ 333 55300 0//// 20234 3//// 69927 91003 91104
AAXX 17121 15450 01596 80302 10052 20040 39702 49935 53006 60011 76166 8652/ 333 55300 00019 20160 30145 69967 91003 91106 96010
AAXX 17121 15460 02597 71903 10148 20049 39905 49928 56026 60001 83570 333 60007 91006 91108
AAXX 17121 15470 01597 70903 10088 20057 39788 49911 56031 69931 70282 83370 333 69937 91004 91105
AAXX 17121 15480 02597 62302 10135 20083 39935 49951 56024 60001 86500 222// 06090 2//// 333 60007 91009 91110 92437
AAXX 17124 03301 16581 /3017 10052 20023 30029 40103 51013 60001 91150 333 82/26 83/30 90710 91130
AAXX 17124 03305 17582 /2718 10040 21005 39835 40100 51012 60021 723// 91150 333 85/26 90710 91133 91032
AAXX 17124 03313 16580 /3016 10051 20021 39994 40089 52012 60021 91150 333 81/21 85/33 90710 91131 91031
AAXX 17124 03316 17477 /3125 10052 20030 30068 40079 51012 69981 723// 91150 333 82/19 84/42 90710 91134
AAXX 17124 03318 16/// /3019 10053 20031 60011 91150 333 90710 91131
AAXX 17124 03321 16582 /3112 10047 20025 30068 40080 51007 60041 91150 333 553// 20286 83/23
AAXX 17124 03330 17056 /2907 10005 20000 39710 40078 51006 60021 767// 91150 333 4/002 88/01
AAXX 17124 03344 15368 /2706 10020 20003 39740 40062 51008 69941 91150 333 86/08
AAXX 17124 03346 16/// /2815 10017 20009 69921 91150
AAXX 17124 03348 17477 /2806 10021 20016 39967 40076 52008 60051 781// 91150 333 55300 20217 84/11 85/32
AAXX 17124 03355 15682 /2909 10042 20012 30048 40059 52007 69921 91150 333 55303 20491 87/49
AAXX 17124 03373 16965 /2608 10030 20015 39989 40060 51007 69961 91150 333 8//99
AAXX 17124 03379 16977 /2514 10032 20017 39988 40066 52007 60011 91150 333 8//99
AAXX 17124 03382 15774 /2707 10023 20012 30042 40051 51008 60001 91150 333 55305 20430 84/50
AAXX 17124 03385 46665 /2708 10030 20021 30045 40055 51007 91150 333 87/46
AAXX 17124 03391 11575 72611 10031 20015 30053 40061 52005 60011 70281 83838 91150 333 81822 83635 87268
AAXX 17124 03392 16665 /2712 10022 20017 30056 40060 51007 69921 91150 333 81/38 87/50
AAXX 17124 03405 16481 /3226 10057 20024 30003 40120 52013 60001 91150 333 553// 20326 83/19 83/26 90710 91137
AAXX 17124 03409 16/// /2709 10047 20003 69921 91150 333 55302 2////
AAXX 17124 03410 16479 /2707 10027 20002 39651 40091 51009 60051 91150 333 553// 20794 81/12 91017
AAXX 17124 03469 17981 /2712 10029 20023 30060 40064 51005 69961 723// 91150 333 553// 20393 83/58
AAXX 17124 03488 17456 /2413 10023 20018 30030 40056 51004 69921 761// 91150 333 83/10 86/26
AAXX 17124 03503 17571 /3113 10056 20018 30032 40110 51012 60021 723// 91150 333 82/22 84/50 91024
AAXX 17124 03507 17474 /2702 10019 20014 39736 40114 52011 60041 741// 91150 333 82/10 86/14
AAXX 17124 03520 16480 /2908 10034 20009 39978 40101 52009 60021 91150 333 553// 20387 81/16
AAXX 17124 03522 15681 /2708 10043 20017 30010 40104 51008 60021 91150 333 4/002 81/31
AAXX 17124 03529 15982 /2708 10053 20013 30053 40097 51006 69941 91150 333 8//99
AAXX 17124 03544 15476 /2608 10030 20012 39952 40085 51006 69921 91150 333 553// 20673 81/17 86/32
AAXX 17124 03560 15982 /2711 10039 20021 39974 40079 50004 69921 91150 333 553// 20648 8//99
AAXX 17124 03604 16583 /3218 10063 20019 30077 40131 51010 60001 91150 333 85/24 90710 91129
AAXX 17124 03605 16569 /3119 10066 20026 30117 40125 51009 60001 91150 333 83/27 90710 91125
AAXX 17124 03609 16/// /2914 10064 20019 30072 40125 51006 60001 91150 333 90710 91127 91025
AAXX 17124 03628 15575 /2613 10063 20027 30034 40106 51005 60001 91150 333 55310 21004 82/23
AAXX 17124 03647 16971 /2815 10032 20016 39832 40090 50004 69961 91150 333 553// 20762 8//99
AAXX 17124 03658 16980 /2710 10046 20016 30023 40094 50000 69981 91150 333 8//99
AAXX 17124 03660 15979 /2908 10030 20018 39839 40090 50001 60011 91150 333 8//99
AAXX 17124 03672 13475 42709 10040 20017 30048 40089 58001 69981 81801 91150 333 81815 84070
AAXX 17124 03684 17781 /2710 10032 20014 39969 40077 50000 69941 723// 91150 333 81/50 83/59
AAXX 17124 03693 16673 /2811 10042 20023 30079 40082 51001 60001 91150 333 86/47
AAXX 17124 03707 15672 /3220 10072 20003 30125 40132 51009 69901 91150 333 82/33 90710 91129
AAXX 17124 03710 166// /3017 10054 20017 39697 40119 50004 69921 91150 333 553// 20875 81/36 90710 91127
AAXX 17124 03743 16981 /2709 10051 20013 39943 40106 50003 69981 91150 333 8//99
AAXX 17124 03749 16980 /2812 10050 20014 39992 40103 50001 60021 91150 333 8//99
AAXX 17124 03761 15980 /2712 10045 20015 39951 40097 58001 69981 91150 333 55310 20810 8//99
AAXX 17124 03768 16963 /2808 10050 20025 30015 40095 58001 69981 91150 333 8//99
AAXX 17124 03769 17980 /2608 10049 20027 30011 40093 50000 69921 723// 91150 333 55307 20702 84/65
AAXX 17124 03770 16/// ///// 10039 20026 69961 91150
AAXX 17124 03781 17582 /2610 10031 20023 39883 40092 50001 69941 723// 91150 333 553// 20461 81/23 83/28
AAXX 17124 03784 46/// /2508 10037 20016 30081 40084 50002 91150
AAXX 17124 03797 15980 /2814 10046 20015 30023 40084 50002 60001 91150 333 55310 20778 8//99
AAXX 17124 03839 16/// ///// 10061 20027 69961 91150 333 553// 20647
AAXX 17124 03857 15974 /3221 10071 20016 30053 40117 51004 69901 91150 333 8//99 90710 91130
AAXX 17124 03862 15978 /3012 10065 20024 30100 40112 51003 69921 91150 333 55310 20839 8//99
AAXX 17124 03866 16/// /3013 10067 20023 30082 40106 50001 69921 91150 333 90710 91125
AAXX 17124 03872 15477 /3011 10058 20030 30098 40103 50000 69921 91150 333 553// 20887 81/15
AAXX 17124 03876 16/// /2607 10055 20033 30095 40098 58003 69921 91150
AAXX 17124 03895 41582 43214 10072 20023 40136 51007 70181 83931 333 82922 90710 91125
AAXX 17124 91356 11464 80811 10283 20238 30076 40083 55003 60151 70286 8622/ 333 10306 56299 59011 70328 86824 555 91712
AAXX 17124 03002 17658 /3424 10018 21024 39986 40005 51018 69921 777// 91150 333 81/30 87/44 90710 91133
AAXX 17124 03008 16/// /3320 10026 21024 39951 40021 51021 69921 91150 333 90710 91142 91030
AAXX 17124 03010 46/// /3523 10053 21019 40067 53027 333 90710 91134
AAXX 17124 03014 46/// /3414 10006 21043 40027 51020 91150 333 8//// 90710 91131
AAXX 17124 03031 17278 /2807 11008 21013 39759 40093 51029 69901 771// 91150 333 553// 20117 81/04
AAXX 17124 03034 17682 /3509 10040 21009 30077 40090 51027 60031 723// 91150 333 81/42 83/50 91020
AAXX 17124 03037 17565 /0405 10033 20021 30075 40097 52028 60021 782// 91150 333 82/23 85/46
AAXX 17124 03039 46/// /0218 11028 21028 91150 333 90710 91132 91029
AAXX 17124 03041 46/// /3310 11053 21055 91150
AAXX 17124 03044 17674 /3009 10010 21008 39977 40078 51027 69901 785// 91150 333 553// 20218 81/40 85/50
AAXX 17124 03047 17883 /3007 10007 21011 39788 40097 51025 69901 723// 91150 333 553// 20101 81/57
AAXX 17124 03062 15784 /2912 10023 21006 30074 40079 52030 69901 91150 333 553// 20311 85/50
AAXX 17124 03065 46/// /3131 11056 21063 91150 333 90710 91137
AAXX 17124 03068 11481 53213 10026 21004 30062 40070 53026 60021 72387 84302 91150 333 81918 83650
AAXX 17124 03072 46/// ///// 11041 21046 91150 333 91000
AAXX 17124 03080 17582 /2609 10013 21001 39891 40065 51025 69901 723// 91150 333 83/20
AAXX 17124 03088 15983 /3113 10015 21004 39886 40052 53022 60001 91150 333 553// 20170 82/64 90710 91125
AAXX 17124 03094 17565 /3230 10036 20003 30043 40048 53027 69961 781// 91150 333 82/20 84/28 90710 91141 91041
AAXX 17124 03105 17567 /3113 10042 20024 30088 40105 51030 60011 723// 91150 333 85/27 83/63 90710 91125
AAXX 17124 03132 15581 /3314 10053 20024 30073 40087 52023 60031 91150 333 81/20 85/24
AAXX 17124 03144 15984 /2603 10035 21022 30032 40075 51027 69921 91150 333 553// 20216 82/62
AAXX 17124 03148 46/// /3519 11015 21036 91150 333 90710 91128
AAXX 17124 03153 15584 /3208 10032 20009 39934 40074 53023 69921 91150 333 553// 20576 82/20
AAXX 17124 03155 16281 /2904 10005 20005 39775 40078 51027 69921 91150 333 81/04 85/50
AAXX 17124 03158 15784 /3111 10026 20007 39920 40058 51022 69901 91150 333 553// 20384 81/50
AAXX 17124 03210 16576 /3117 10040 20019 39922 40074 53017 60001 91150 333 85/20 83/60 90710 91125
AAXX 17124 03212 17484 /2908 10036 20014 39971 40071 51015 69941 723// 91150 333 87/18
AAXX 17124 03214 15482 /3219 10054 20029 30051 40070 52013 60031 91150 333 84/16 83/50 90710 91125
AAXX 17124 03220 16485 ///// 10027 20021 30033 40068 52015 69961 91150 333 81/19 83/59
AAXX 17124 03224 17011 /2908 11001 21003 39715 40067 53017 69901 777// 91150 333 4/002 84/01 87/15
AAXX 17124 03225 16480 /3310 10021 21003 39759 40068 51016 69941 91150 333 553// 20480 86/16 85/22
AAXX 17124 03226 17256 /3405 10009 20005 39784 40065 52014 69961 781// 91150 333 87/03
AAXX 17124 03227 46/// /3025 11029 2//// 91150 333 90710 91131
AAXX 17124 03230 16767 /3206 10010 20003 39802 40063 52020 69921 91150 333 4/002 87/50
AAXX 17124 03238 15682 /2808 10010 21004 39878 40054 52016 69901 91150 333 4/002 84/44 84/60
AAXX 17124 03261 16783 /3208 10032 20005 30017 40058 51009 69921 91150 333 84/50
AAXX 17124 03265 17682 /3109 10039 20012 30027 40058 51009 69901 721// 91150 333 82/43 87/50
AAXX 17124 03266 16685 /3006 10034 20009 30040 40058 51010 60001 91150 333 81/44 87/50
AAXX 17124 03275 17471 /2812 10018 20002 39853 40048 52010 69961 723// 91150 333 87/13
AAXX 17124 03281 16/// /3013 10012 20007 69921 91150
AAXX 17124 03903 16878 /3105 10051 20027 30080 40138 52028 69961 91150 333 553// 20576 82/57
AAXX 17124 03904 15780 /3004 10030 20006 30070 40131 50025 69981 91150 333 82/50
AAXX 17124 03907 17682 /3311 10040 20011 30114 40122 51033 60021 781// 91150 333 55300 20193 81/32 85/50
AAXX 17124 03911 16468 /3108 10015 20008 39847 40126 52028 60031 91150 333 4/003 86/14 83/26
AAXX 17124 03915 16780 /3005 10027 20027 30034 40114 51029 60011 91150 333 81/56
AAXX 17124 03916 16485 /3510 10044 20018 39916 40108 51029 60021 91150 333 553// 20276 81/16 85/22 90710 91127
AAXX 17124 03923 17981 /3215 10025 20004 39918 40117 51023 60011 723// 91150 333 8//99
AAXX 17124 91348 11474 80405 10269 20254 30044 40097 58003 60131 72582 8527/ 333 10296 56199 59006 70297 555 91712
AAXX 17124 89061 179// 02406 10002 21024 30020 40026 52020 69932 70075 333 10006 21002 91008 91110
AAXX 17124 91930 36/// ///// 10232 20205 333 10321
AAXX 17124 91943 36/// /1005 10261 20209 30105 40107 56018 333 59021
AAXX 17124 68024 42660 31205 10316 20171 48517 57016 82201
AAXX 17124 68029 41560 61107 10280 20219 48506 57017 85283
AAXX 17124 68032 42660 61010 10303 20202 48513 57018 86280
AAXX 17124 68038 42560 60909 10297 20204 48518 57021 86202
AAXX 17124 68040 42560 40510 10291 20185 48524 57016 84871
AAXX 17124 68054 42460 80911 10226 20189 48548 58013 885//
AAXX 17124 68070 42560 70410 10255 20183 48538 57016 87500
AAXX 17124 68226 42660 50508 10334 20136 48520 57018 85200
AAXX 17124 68234 42560 40915 10321 20145 48528 57018 84101
AAXX 17124 68240 42660 40106 10296 20159 48536 57017 82102
AAXX 17124 68320 42660 30205 10343 20151 48532 57022 83100
AAXX 17124 68325 42960 41812 10290 20151 48532 57011 84880
AAXX 17124 68328 42660 40509 10354 20150 48520 57018 84202
AAXX 17124 70026 NIL
AAXX 17124 70133 NIL
AAXX 17124 70174 NIL
AAXX 17124 70200 NIL
AAXX 17124 70219 NIL
AAXX 17124 70231 NIL
AAXX 17124 70261 NIL
AAXX 17124 70267 NIL
AAXX 17124 70271 NIL
AAXX 17124 70273 NIL
AAXX 17124 70308 NIL
AAXX 17124 70316 NIL
AAXX 17124 70326 NIL
AAXX 17124 70340 NIL
AAXX 17124 70350 NIL
AAXX 17124 70361 NIL
AAXX 17124 70381 NIL
AAXX 17124 70398 NIL
AAXX 17124 70414 NIL
AAXX 17124 78526 NIL
AAXX 17124 78543 NIL
AAXX 17124 78255 12459 20503 10193 20170 30044 40193 52010 60004 82800 333 20188 81818
AAXX 17124 78317 NIL
AAXX 17124 78318 NIL
AAXX 17124 78325 NIL
AAXX 17124 78333 NIL
AAXX 17124 78338 NIL
AAXX 17124 78348 NIL
AAXX 17124 78349 NIL
AAXX 17124 78353 NIL
AAXX 17124 78360 NIL
AAXX 17124 78367 NIL
AAXX 17124 78369 NIL
BBXX PCDE 17123 99399 31199 41/98 50606 10163 20135 40088 54000 7//// 8/1// 22223 2//// 322// 40602 80146
BBXX A8SG2 17121 99313 51710 41/97 83307 10210 20194 40095 57015 76162 8687/ 22254 00220 20601 322// 41604 5//// 80200
BBXX PCSV 17123 99028 30725 41597 63212 10281 20247 40067 70222 83168 22252 04284 20603 332// 40704 80256 90456
BBXX PFBF 17123 99105 31385 41/98 11006 10282 20195 40080 52025 70100 8//// 22223 02296 2//// 3//// 4//// 5//// 80222
AAXX 17121 26554 41359 81605 10039 20032 39746 49906 53003 76162 8872/ 333 87707 91113 555 12004
AAXX 17121 26666 41459 81404 10050 20030 39738 49949 54000 72052 886// 333 88710 91011 91113 555 11005
AAXX 17121 26850 41356 81605 10040 20028 39638 49904 54000 76162 885// 333 88707 91110 555 11003
AAXX 17121 26863 41457 81510 10056 20040 39717 49948 51001 76162 8872/ 333 88712 91012 91114 555 12004
AAXX 17121 26941 41457 81704 10038 20031 39652 49884 54000 75165 886// 333 91111 555 11004
AAXX 17121 26951 41462 81304 10046 20029 39710 49904 58007 70262 886// 333 88713 91111 555 11004
AAXX 17121 33008 41960 82402 10040 20015 39700 49875 52011 76162 8802/ 333 91110 555 11004
AAXX 17121 33019 41459 81103 10049 20030 39717 49887 58007 71062 886// 333 86712 555 12004
AAXX 17121 33036 42470 71505 10062 20017 39706 49931 57014 8657/ 333 86619 91112 555 11006
AAXX 17121 33041 41456 81505 10060 20046 39818 49971 57005 71052 886// 333 88711 91011 91112 555 11005
AAXX 17124 48310 31558 40000 10215 20207 39684 40144 52010 71010 82505 333 10282 58004 70000
AAXX 17124 48325 NIL
AAXX 17124 48329 31957 00000 10240 20193 39789 40129 52009 71010 333 10295 58001 70000
AAXX 17124 48352 NIL
AAXX 17124 48357 NIL
AAXX 17124 48380 NIL
AAXX 17124 48383 31957 00502 10200 20139 39998 40161 52023 71010 333 59006 70000
AAXX 17124 48403 NIL
AAXX 17124 48405 NIL
AAXX 17124 48420 31956 63602 10257 20182 30113 40118 52013 70522 80006 333 10292 58006 70000
AAXX 17124 48421 31956 20000 10257 20200 30002 40116 52014 71000 80005 333 10325 59002 70000
AAXX 17124 48425 NIL
AAXX 17124 48426 31558 50603 10267 20166 30112 40125 53012 70522 81546 333 10301 58004 70000
AAXX 17124 48429 NIL
AAXX 17124 48430 31959 40000 10280 20157 30114 40121 52013 70511 81036 333 58003 70000
AAXX 17124 48450 NIL
AAXX 17124 48459 NIL
AAXX 17124 48465 31958 53406 10253 20185 30111 40116 52014 71011 80006 333 10291 58005 70000
AAXX 17124 48550 11558 60810 10270 20234 30094 40101 52016 69932 71022 82246 333 10294 58004 70003
AAXX 17124 48552 NIL
AAXX 17124 48566 NIL
AAXX 17124 48568 01460 30809 10274 20232 30083 40091 52015 60062 70161 81201 333 10295 59002 60027 70060
AAXX 17124 48310 31558 40000 10215 20207 39684 40144 52010 71010 82505 333 10282 58004 70000
AAXX 17124 48325 NIL
AAXX 17124 48329 31957 00000 10240 20193 39789 40129 52009 71010 333 10295 58001 70000
AAXX 17124 48352 NIL
AAXX 17124 48357 NIL
AAXX 17124 48380 NIL
AAXX 17124 48383 31957 00502 10200 20139 39998 40161 52023 71010 333 59006 70000
AAXX 17124 48403 NIL
AAXX 17124 48405 NIL
AAXX 17124 48420 31956 63602 10257 20182 30113 40118 52013 70522 80006 333 10292 58006 70000
AAXX 17124 48421 31956 20000 10257 20200 30002 40116 52014 71000 80005 333 10325 59002 70000
AAXX 17124 48425 NIL
AAXX 17124 48426 31558 50603 10267 20166 30112 40125 53012 70522 81546 333 10301 58004 70000
AAXX 17124 48429 NIL
AAXX 17124 48430 31959 40000 10280 20157 30114 40121 52013 70511 81036 333 58003 70000
AAXX 17124 48450 NIL
AAXX 17124 48459 NIL
AAXX 17124 48465 31958 53406 10253 20185 30111 40116 52014 71011 80006 333 10291 58005 70000
AAXX 17124 48550 11558 60810 10270 20234 30094 40101 52016 69932 71022 82246 333 10294 58004 70003
AAXX 17124 48552 NIL
AAXX 17124 48566 NIL
AAXX 17124 48568 01460 30809 10274 20232 30083 40091 52015 60062 70161 81201 333 10295 59002 60027 70060
BBXX UCJL 17121 99580 10050 41598 63214 10065 49901 50000 70222 84432 22272 00050 20705
BBXX SKUN 17123 99511 70310 43/98 61623 10089 40222 55001 22214 00075 2//// 4////
BBXX PDHW 17123 99493 70088 41497 63230 10095 20006 40200 52030 76066 84272 22263 00100 20806 330// 41008 80055
BBXX UCAC 17121 99610 10042 41497 83516 10050 49929 51024 72162 887// 22283 00100 20808 335// 40808
BBXX VRGJ6 17123 99319 10312 41598 52308 10215 20148 40178 56010 70222 84365 22224 04197 20501 330// 40702 5//// 80175
BBXX A8CH2 17124 99460 70111 41598 43115 10150 20099 40270 55005 70222 84445 22214 04130 20406 331// 41010 80121
BBXX PHIN 17124 99514 70158 41598 53220 10125 20068 40258 52006 72581 83261 22223 00120 20404 334// 40908 80095
BBXX A8OF6 17123 99452 70159 41598 83516 10136 20068 40312 51/// 70311 8689/ 22254 04140 20508 335// 40810 80100
BBXX ELXG9 17124 99492 70043 41597 62613 10120 20101 40160 54000 76022 86500 22213 20301 333// 40503 80110
BBXX UCAB 17121 99687 10385 41498 82008 10040 40023 54000 70222 8715/ 22273 00030 20502
BBXX DDSD2 17123 99370 70317 41397 41410 40300 52030 701// 84/1/ 22225 2//// 326// 42006 5////
BBXX UCAD 17121 99686 10111 41/97 91620 10060 49863 54000 702221 88/// 22252 00070 20606
AAXX 17123 91802 NIL
AAXX 17123 91809 NIL
AAXX 17123 91831 36/// /1303 ///// ///// 10251 20220 40154 58007
AAXX 17123 91841 36/// /1704 10235 20210 40130 57015 333 10297
AAXX 17123 91843 11598 31603 10255 20218 40142 58013 69991 70200 83200 333 10302 563// 83818
AAXX 17123 91848 36/// /1806 10230 20193 40128 57035 333 10298
BBXX 44022 17121 99409 70737 46/// ///07 10034 21023 40196 53006 91200 22200 00090 333 91209 555 11067 22072
BBXX 51205 17121 99210 71564 46/// ///// 1//// 91148 22200 00243 11406 20604 332// 41404 70030
BBXX 46238 17121 99334 71195 46/// ///// 1//// 91150 22200 00145 11702 20902 330// 41702 70012
BBXX 46239 17121 99363 71221 46/// ///// 1//// 91151 22200 00129 11504 20903 331// 41503 70020
BBXX 41041 17121 99142 70460 46/// /1207 10274 20226 40138 51023 91150 22200 00265 11004 20703 3//// 41003 70022 333 91209 555 11079 22084 31141 41209 61149 120074 119074 118071 113069 115061 114063 81208 91141
BBXX 41038 17121 99341 70777 46/// /0206 10124 40200 51015 91200 22200 00140 333 91207
AAXX 17124 91165 NIL
AAXX 17124 91182 NIL
AAXX 17124 91190 NIL
AAXX 17124 91212 NIL
AAXX 17124 91217 NIL
AAXX 17124 91285 NIL
AAXX 17124 91317 NIL
AAXX 17124 91334 32474 60510 10284 20239 30091 40094 51008 82171 333 10311 56299 58006 555 91712
AAXX 17124 91348 NIL
AAXX 17124 91356 NIL
AAXX 17124 91366 NIL
AAXX 17124 91369 NIL
AAXX 17124 91371 NIL
AAXX 17124 91376 32474 40812 10279 20230 30085 40088 58003 82101 333 10297 562/9 59007 70069 555 91712
AAXX 17124 91408 31474 60910 10272 20250 30058 40096 52017 70282 83271 333 10311 56999 58006 70008 555 91712
AAXX 17124 91413 32469 70810 10280 20231 30085 40110 52017 82131 333 10312 56299 58010 555 91712
AAXX 17124 91425 NIL
AAXX 17124 91434 NIL
AAXX 17124 91765 NIL
BBXX LAOW5 17124 99255 51541 41498 41613 10250 20191 40140 54000 76211 84183 22254 00260 20204 31312 40102 50102 6//// 80210 ICE /////
BBXX NWS0003 17124 99539 71665 43/// /1411 10037 20007 49710 5//// 7//// 8//// 222// 04069 2//// 3//// 4//// 5//// 6//// 8//// ICE /////
BBXX LAVW4 17124 99306 70342 41799 21420 00/// 10230 2019/ 40270 51005 70200 828/5 22253 00210 20201 312// 40302 5//// 6////
BBXX KAOU 17124 99026 10860 43/// /1503 10283 20238 40070 5//// 7//// 8//// 222// 04294 2//// 3//// 4//// 5//// 6//// 8//// ICE /////
BBXX NWS0020 17124 99363 70027 43/// /2823 10149 20078 40194 5//// 7//// 8//// 222// 04158 2//// 3//// 4//// 5//// 6//// 8//// ICE /////
BBXX WNGW 17124 99577 71524 41797 82104 10033 2//// 49975 52015 7//// 886// 22200 02044 20000 3//// 40000 50000 6//// 8//// ICE /////
BBXX NWS0029 17124 99275 70486 43/// /1107 10229 20180 40111 5//// 7//// 8//// 222// 04248 2//// 3//// 4//// 5//// 6//// 8//// ICE /////
BBXX PHSG 17124 99113 70886 41/98 /0220 10250 40100 7//// 8/7// 22274 00260 20306
BBXX C6FN2 17124 99255 70774 41697 43600 10210 20180 40200 5//// 7//// 84283 22233 00280 20301 3//// 40301 50301 6//// 8/190 ICE /////
BBXX C6XC2 17124 99024 31327 41897 83422 10280 20253 40070 53/// 78022 886// 2226/ 00300 2//// 3//// 4//// 5//// 6//// 80260 ICE /////
BBXX KAWM 17123 99504 71320 41297 82320 10085 20085 40085 57023 75352 886// 22272 0//// 2//// 327// 41006 5//// 6//// 80085 ICE /////
BBXX WKAB 17123 99383 70166 41397 72917 10170 20154 40333 52010 7//22 8764/ 22224 00169 20803 332// 40805 5//// 6//// 80160 ICE /////
AAXX 17124 91222 NIL
AAXX 17124 91245 NIL
AAXX 17124 91323 NIL
AAXX 17124 91339 NIL
AAXX 17124 91343 NIL
AAXX 17124 91353 NIL
AAXX 17124 91442 NIL
BBXX 46053 17121 99342 71198 46/// /2003 10137 40180 57006 91150 22200 00140 11102 328// 41102 70008 333 91204 555 11032 22034 31050 42105 61149 201031 202024 255033 241031 226038 244032
BBXX 51003 17121 99193 71606 46/// /0408 10246 40172 57009 91150 22200 00258 11306 20503 3//// 41305 70030 333 91209 555 11082 22086 31104 40410 61149 044077 049079 053080 049082 047083 054082
AAXX 17124 78906 11578 20811 10261 20175 30136 40141 702// 81801 333 10284 20240 58006 70002 81819
AAXX 17124 91356 11464 80811 10283 20238 30076 40083 55003 60151 70286 8622/ 333 10306 56299 59011 70328 86824 555 91712
BBXX C6VF5 17124 99122 10458 432// 20711 10250 2022/ 40140 5//// 7//// 82101 22264 00280 20303 3//// 4//// 5//// 6//// 80230 ICE /////
BBXX BATFR56 17124 99194 30579 44998 70204 10260 20207 40097 56007 70222 86405 22200 00279
BBXX BATFR05 17124 99063 10034 46/// /0904 10292 20244 40115 58014 22200 00260
BBXX BATFR19 17124 99065 30060 46/// /1822 10235 20194 40113 58025 22200 00255
BBXX TBWUK18 17124 99300 50181 41/98 31203 10230 20215 40223 51014 70100 831// 22222 00220 20402 317// 41002 5//// 80220
BBXX WAHV 17123 99247 10617 43499 19902 10230 2018/ 40145 56015 81100 22224 00257 20000 80197
BBXX A8FB9 17123 99276 70137 41598 60420 10195 20140 40290 58012 70322 85470 22214 20306 305// 40607 80161
BBXX DILS 17123 99044 10026 41697 41303 10308 20272 40112 50000 71000 83540 22200 04290 20100 318// 40101 80282
BBXX A8VL5 17124 99139 10514 41397 20417 10230 20183 40250 56010 70200 81140 22265 00250 20302 30000 80200
BBXX ELWP5 17121 99055 10018 41596 30000 10310 20227 40175 54000 70500 83217 22200 04270 20000 399// 4//// 5//// 80250
BBXX ONFE 17124 99294 11327 41898 33525 10130 2005/ 40250 52010 70111 83400 22214 00230 2//// 3//// 4//// 5//// 6//// 80090 ICE /////
BBXX C6SI6 17124 99369 11268 46/// /1305 11019 21067 40317 55004 7//// 8//// 22200 0//// 2////
BBXX DFWV2 17124 99300 11776 41/98 12120 10227 20216 40165 56015 70200 8//// 22263 04210 2//04 3//// 4//// 5//// 80219
BBXX LADR4 17124 99283 11545 41898 42420 00/// 10240 2023/ 40180 55005 70200 8//// 22273 00260 20604 3//// 4//// 5//// 6//// 80230
BBXX S6JU 17124 99389 11487 41/97 /3032 10050 20000 40165 54000 70200 8//// 22214 0//// 2//// 3//// 4//// 5//// 6//// 80030 ICE /////
BBXX DCAX2 17123 99153 11464 41797 11123 10280 20280 40140 54000 70200 81141 22233 21205 311// 41205 5//// 80280
BBXX 46070 17121 99551 11753 46/// /0309 11012 21073 49880 58003 91150 22200 00039 11108 20504 3//// 41107 70041 333 91211 555 11092 22096 31112 40213 61149 033087 038093 034096 032098 038066 043077 80211 91112
BBXX V7DI8 17123 99336 11248 41497 73518 10050 2000/ 40320 54000 70282 878// 22200 00170 20504 334// 40603 5//// 6//// 80030 ICE /////
BBXX C6SD9 17124 99392 50563 41597 60715 10155 20132 40126 54000 70311 84718 22212 04170 21006 308// 41205 5//// 80142
BBXX WCX7445 17124 99567 50644 43/// /0211 10067 2//// 40054 5//// 7//// 8//// 22283 00055 2//// 3//// 4//// 5//// 6//// ICE /////
BBXX WBP3210 17124 99531 50709 43/// /3112 10092 2//// 40081 5//// 7//// 8//// 22200 00122 2//// 3//// 4//// 5//// 6//// ICE /////
BBXX 44039 17121 99411 70727 46/// /3005 10049 21011 40198 91145 22200 00099 10301 70004 333 91207
BBXX 44008 17121 99405 70692 46/// /3204 10081 20028 40167 50008 91150 22200 00120 10803 20401 320// 40803 70017 333 91206 555 11045 22046 31136 43006 61149 317042 303041 301041 293034 291036 291030
BBXX 44011 17121 99411 70666 46/// /2401 10084 20025 40166 52007 91150 22200 00096 10805 20401 3//// 40805 70026 333 91202 555 11009 22009 31126 41102 61149 239009 221005 260008 206005 294004 267004
BBXX 41046 17121 99238 70683 46/// /0707 10242 20162 40201 53017 91150 22200 00256 11405 20703 300// 41404 70026 333 91209 555 11075 22079 31112 40511 61149 075070 070062 062051 059077 058066 056066 80510 91112
BBXX VXKF 17124 99475 70591 46/// /3032 11022 21070 40100 53027 7//// 8//// 22214 0//// 2////
BBXX CGBY 17124 99487 71235 46/// /0000 10055 20051 40273 58017 7//// 8//// 22200 0//// 2////
BBXX 41009 17121 99285 70802 46/// /3006 10226 20178 40217 53007 91150 22200 00253 11003 20501 300// 41002 70013 333 91207 555 11062 22064
BBXX 42057 17121 99168 70815 46/// /0511 10277 20199 40145 51006 91150 22200 00280 10703 20703 70015 333 91213 555 11109 22116 31133 40313 61149 046110 044107 045101 043099 041100 044096 80512 91150
BBXX 41010 17121 99289 70785 46/// /1803 10229 40208 52003 91150 22200 00240 11103 20401 300// 41103 70016 333 91204 555 11035 22037
BBXX A8LP6 17124 99386 70456 41197 70413 10170 20167 40135 57015 76066 877// 22264 04145 20804 316// 41007 80168
BBXX 9V8739 17124 99357 71538 41598 62205 10160 20144 40290 54000 70200 864// 22264 00200 2//// 332// 40505 5//// 6//// 80150 ICE /////
BBXX C6LU3 17123 99325 70742 41598 62818 10220 2019/ 40210 57015 70211 86100 22285 20504 80200
BBXX 9HXC9 17124 99257 70801 41498 73602 10230 20169 40200 52010 7//22 86562 22200 00260 2//// 3//// 4//// 5//// 6//// 80190 ICE /////
BBXX KAWM 17123 99504 71320 41297 82320 10085 20085 40085 57023 75352 886// 22272 0//// 2//// 327// 41006 5//// 6//// 80085 ICE /////
BBXX SHIP 17124 99276 71222 41398 54516 10160 20099 40176 57014 70221 85232 91155 22234 00170 1//// 2//// 3//// 4//// 5//// 6//// 80125
BBXX ZCDA9 17123 99241 71458 41198 40920 10230 20223 40205 53010 70200 84100 22224 00250 20202 308// 40405 5//// 80225
BBXX 9HRJ9 17124 99218 70850 41797 40720 10230 2//// 40190 51/// 70100 8388/ 22284 04260 20302 39999 4//// 5//// 6//// 8//// ICE /////
BBXX CGTF 17124 99476 70527 46/// /1510 10030 21004 40068 51041 7//// 8//// 22200 0//// 2////
BBXX CGBN 17124 99447 70636 46/// /3005 11004 21042 40148 51020 7//// 8//// 22200 0//// 2////
BBXX CGBR 17124 99534 71293 46/// /0000 10027 20027 40116 56007 7//// 8//// 22200 0//// 2////
BBXX CGDR 17124 99489 71258 46/// /1314 10078 20078 40258 57012 7//// 8//// 22231 00120 2////
BBXX VAAP 17124 99446 70636 46/// /2803 11009 21049 40152 51022 7//// 8//// 22200 0//// 2////
BBXX CGDG 17124 99447 70636 46/// /2805 11011 20003 40162 51019 7//// 8//// 22200 0//// 2////
BBXX VOKF 17124 99490 70669 46/// /2913 11093 21152 40170 52018 7//// 8//// 22200 0//// 2////
BBXX CZ9742 17124 99506 70969 46/// /2505 11063 21074 40135 55005 7//// 8//// 22200 0//// 2////
BBXX CGJV 17124 99447 70636 46/// /3305 11011 21048 40162 51019 7//// 8//// 22200 0//// 2////
BBXX 3FZK3 17124 99554 71562 46/// /1916 10046 20028 49956 58001 7//// 8//// 22223 0//// 2////
BBXX VCLM 17124 99608 70644 46/// /2623 11101 21154 49888 58002 7//// 8//// 22233 01003 2////
BBXX CGJK 17124 99484 71234 46/// /0401 10072 20067 40269 56022 7//// 8//// 22200 0//// 2////
BBXX CGDT 17124 99468 70712 46/// /2403 11081 21133 40213 51018 7//// 8//// 22200 0//// 2////
BBXX VAAZ 17124 99548 70533 46/// /3135 11002 21005 49839 53014 7//// 8//// 22271 0//// 2////
BBXX VCBW 17124 99502 70607 46/// /3121 11122 21173 40072 51071 7//// 8//// 22200 0//// 2////
BBXX CGSB 17124 99490 70679 46/// /3215 11106 21163 40180 53001 7//// 8//// 22212 00021 2////
BBXX CGCC 17124 99455 70736 46/// /3509 11079 21140 4//// 5//// 7//// 8//// 22200 0//// 2////
BBXX CGDX 17124 99468 70712 46/// /2501 11084 21132 40213 51018 7//// 8//// 22200 0//// 2////
BBXX VOKJ 17124 99480 70695 46/// /2918 11110 21163 40203 51024 7//// 8//// 22214 0//// 2////
BBXX CG2965 17124 99487 71235 46/// /0000 10063 20062 40274 58018 7//// 8//// 22200 0//// 2////
BBXX VCSZ 17124 99509 70546 46/// /2732 11033 21035 49985 53065 7//// 8//// 22273 0//// 2////
BBXX CG2958 17124 99507 71269 46/// /1225 10111 20074 40206 56049 7//// 8//// 22272 0//// 2////
BBXX VCWL 17124 99468 70712 46/// /3003 11083 21130 40214 53019 7//// 8//// 22200 0//// 2////
BBXX VOPP 17124 99456 70735 46/// /3204 11083 21130 4//// 5//// 7//// 8//// 22200 0//// 2////
BBXX VCRG 17124 99474 70619 46/// /2912 11040 21091 40149 53027 7//// 8//// 22200 0//// 2////
BBXX 44007 17121 99435 70701 46/// /3601 10038 21021 40164 53006 91150 22200 00084 11101 3//// 41101 70007 333 91202 555 11007 22007 31050 42802 61149 002007 354007 326010 303012 281013 289013
BBXX 46082 17121 99597 71434 46/// ///// 10048 20048 40075 52014 91150 22200 00064 11107 70034
BBXX 46077 17121 99579 71543 46/// /1908 10030 20017 49949 51015 91150 22200 00052 11403 20503 3//// 41402 70016 333 91209 555 11085 22089 31053 42012 61149 193081 194098 178075 178079 177089 189099 81911 91135
BBXX 46041 17121 99474 71247 46/// /1305 10079 40251 57025 91150 22200 00080 11906 20401 3//// 41906 70029 333 91206 555 11048 22050 31114 41206 61149 131045 130043 127040 125043 123044 124043
BBXX 46072 17121 99517 71722 46/// /2711 10040 20022 49734 53006 91150 22200 00050 11312 20806 3//// 41310 70059 333 91214 555 11114 22121 31054 42316 61149 274105 263111 261121 253126 249113 247132 82414 91053
BBXX 46035 17121 99571 71778 46/// /3610 1//// 49833 58014 91150 22200 11109 20805 300// 41107 70044 333 91213 555 11103 22110 31111 43614 61149 355102 352103 358105 358113 017087 032074 83613 91109
BBXX 46026 17121 99378 71228 46/// /0705 10119 40205 57003 91150 22200 00117 11603 20401 329// 41603 70015 333 91206 555 11057 22061 31140 43107 61149 062054 300050 297042 296042 297050 299048
BBXX 41040 17121 99145 70530 46/// /0504 10266 20210 40135 53017 91150 22200 00279 10905 20401 3//// 40905 70025 333 91205 555 11036 22038 31147 40605 61149 052034 040033 038035 036033 037035 047037 80504 91148
BBXX 42039 17121 99288 70860 46/// /3405 10218 40227 53009 91150 22200 00228 10601 20401 300// 40601 70007 333 91206 555 11051 22054 31140 43406 61149 338049 340050 341048 337047 332050 332048 83406 91140
BBXX 41101 17124 99146 70562 46/// /0313 10261 20209 40130 52020 22200 00272 11004 70022
BBXX BAREU06 17124 99459 70733 46/// ///// 40221 52023 22232
BBXX BATEU01 17124 99465 70545 44796 82925 10024 21030 40101 51030 70022 8621/ 22224 00042 21006 327// 41006 5////
BBXX WNGW 17124 99577 71524 41797 82104 10033 2//// 49975 52015 7//// 886// 22200 02044 20000 3//// 40000 50000 6//// 8//// ICE /////
BBXX 3FSB4 17124 99367 71417 41395 80123 10140 2012/ 40230 5//// 7//55 88720 22224 00170 20306 3//// 4//// 5//// 6//// 80130 ICE /////
BBXX DGHX 17123 99340 71678 41/98 41825 10190 20150 40205 56015 70222 8//// 22264 00180 2//// 80165
BBXX SHIP 17124 99332 71295 41597 80109 10140 20085 40237 57013 70222 884// 22233 00180 2//// 3//// 4//// 80110
BBXX 44065 17121 99404 70737 46/// /3108 10050 21007 40198 53008 91150 22200 00102 11102 20301 310// 41101 70009 333 91210 555 11086 22090 31147 43110 61149 311082 306077 308075 308072 317069 319068 83209 91148
BBXX 44040 17121 99410 70736 46/// /3007 10037 21018 40200 91145 22200 1//00 70002 333 91209 555 11077 22088
BBXX 44027 17121 99443 70673 46/// /3406 10002 21056 40167 51016 91150 22200 00086 11002 20301 3//// 41002 70010 333 91208 555 11061 22063 31051 43408 61149 344058 340057 335059 347052 339047 338061
BBXX 44009 17121 99385 70747 46/// /3310 10056 40218 53006 91150 22200 00119 10403 20402 300// 41301 70013 333 91212 555 11107 22112 31130 43313 61149 331100 324102 327104 323102 319101 321097
BBXX 41047 17121 99275 70715 46/// /3404 10229 40221 52005 91150 22200 00253 11407 20401 305// 41407 70033 333 91205 555 11035 22036 31126 43306 61149 340035 357038 328041 321032 324020 118014 83306 91126
BBXX 41004 17121 99325 70791 46/// /2606 10194 20154 40201 53010 91150 22200 00222 11102 20402 3//// 41101 70012 333 91208 555 11062 22064 31051 42611 61149 261059 258059 258065 261071 261078 259082
BBXX 41043 17121 99211 70650 46/// /0606 10233 20205 40178 52014 91150 22200 00266 11006 20503 300// 41005 70030 333 91208 555 11061 22063 31136 40712 61149 058058 076085 068063 088068 085082 073074 80810 91136
BBXX 41013 17121 99334 70777 46/// /0108 10144 20115 40192 51018 91150 22200 00203 11403 20602 309// 41402 70014 333 91210 555 11086 22090 31140 40110 61149 011082 010079 007075 004070 006066 356074
BBXX 42002 17121 99258 70937 46/// /0406 10234 20205 40234 53005 91150 22200 00241 10702 20501 309// 40702 70011 333 91207 555 11060 22064 31140 40408 61149 037061 043062 042060 036057 040055 045052
BBXX 42003 17121 99260 70856 46/// /3505 1//// 91150 22200 10601 20401 309// 40601 70007 333 91205 555 11049 22052 31104 43307 61149 350046 343048 343054 344057 341059 344055 83406 91105
BBXX 46105 17121 99590 71522 46/// ///// 1//// 91150 22200 10803 70014
BBXX 44020 17121 99414 70702 46/// /3105 10049 20007 40178 53015 91150 22200 00085 10301 20301 70004 333 91206 555 11055 22059 31114 42608 61149 297053 254058 255061 255066 255064 257064
BBXX 41008 17121 99314 70809 46/// /2406 10162 20153 40215 53007 91150 22200 00164 333 91207 555 11058 22062 31148 42507 61149 245055 247054 254054 258054 253057 251057
BBXX 44014 17121 99366 70748 46/// /3508 1//// 40198 53008 91150 22200 00148 333 91210 555 11081 22081 31139 43610 61149 352080 357074 000072 003070 001072 003076
BBXX 44025 17121 99402 70732 46/// /3207 10060 21014 40191 53009 91150 22200 00114 11302 20401 311// 41301 70010 333 91208 555 11072 22075 31101 43309 61149 326069 327071 332073 327071 326069 326071
BBXX 46001 17121 99563 71480 46/// /2310 10052 40054 53019 91150 22200 00050 11409 20806 300// 41407 70045 333 91213 555 11106 22114 31051 42314 61149 228100 224100 221095 221097 227097 228104
BBXX NWS0022 17124 99416 70714 43/// /2702 10036 21008 40178 5//// 7//// 8//// 222// 04124 2//// 3//// 4//// 5//// 6//// 8//// ICE /////
BBXX 42059 17121 99151 70675 46/// /0609 10268 20184 40148 53018 91150 22200 00281 10705 20705 70025 333 91211 555 11100 22106 31120 40511 61149 060093 063093 057094 059097 059092 061093 80610 91111
BBXX 42055 17121 99222 70940 46/// /3304 10225 20204 40217 53013 91150 22200 00251 10802 20301 306// 40802 70009 333 91205 555 11039 22041 31116 43607 61149 331040 341055 341058 345044 274012 318013 83507 91116
BBXX C6FN2 17124 99255 70774 41697 43600 10210 20180 40200 5//// 7//// 84283 22233 00280 20301 3//// 40301 50301 6//// 8/190 ICE /////
BBXX BAREU11 17124 99149 70723 46/// ///// 40143 52019 22213
BBXX C6CU6 17123 99328 70455 41497 72403 10210 20198 40161 50012 70322 8756/ 22253 04210 20911 315// 41211 5//// 80202
BBXX BAREU05 17124 99434 70385 46/// ///// 40178 52006 22263
BBXX 46069 17121 99337 71202 46/// /3604 10152 40177 56007 91150 22200 00136 11003 20401 331// 41003 70017 333 91205 555 11047 22055 31102 40507 61149 357040 349037 005040 024039 037039 031040
BBXX 46028 17121 99357 71219 46/// /1001 10129 40193 57006 91150 22200 00137 11604 20401 330// 41604 70020 333 91202 555 11007 22007 31055 41303 61149 104008 104014 107016 109016 118018 131019
BBXX 46025 17121 99337 71191 46/// /3202 10159 20080 40165 58009 91150 22200 00149 11001 20301 328// 41001 70007 333 91202 555 11022 22026 31102 41804 61149 317018 331016 328014 330008 139015 098010
BBXX 46054 17121 99342 71204 46/// /3003 10134 40179 58011 91150 22200 00138 11003 20401 300// 41003 70016 333 91204 555 11032 22034 31051 43005 61149 302030 311030 309029 317027 313030 309035
BBXX 46029 17121 99461 71245 46/// /0904 10077 20063 40252 56020 91150 22200 00081 12105 20401 330// 42105 70026 333 91205 555 11043 22045 31052 40906 61149 089041 089041 088045 091044 097045 090048
BBXX 46087 17121 99485 71247 46/// /1005 10082 20073 40260 57022 91150 22200 00077 333 91207 555 11056 22062 31051 41007 61149 103052 100050 097050 099051 101050 099054
BBXX 46088 17121 99483 71232 46/// /1003 10067 40263 91150 22200 00080 1//00 70002 333 91203 555 11027 22028 31108 41304 61149 103026 125020 135022 134029 131030 138029
BBXX 46014 17121 99394 71240 46/// /1606 10103 40204 54000 91150 22200 00103 11504 20501 3//// 41504 70020 333 91208 555 11068 22073 31144 41608 61149 158063 156056 145052 148058 146050 131044
BBXX 46050 17121 99442 71246 46/// /0604 10097 40244 56018 91150 22200 00101 11405 20301 328// 41405 70025 333 91205 555 11038 22039 31106 40806 61149 062036 067038 067042 070043 066044 066042
BBXX 46011 17121 99350 71210 46/// /3301 10128 40191 56007 91150 22200 00133 11604 20301 332// 41603 70018 333 91203 555 11012 22013 31113 40606 61149 334013 358028 037035 043042 040039 042040
BBXX 46047 17121 99324 71195 46/// /3303 10143 40171 57006 91150 22200 00143 11104 20401 331// 41104 70018 333 91204 555 11032 22034 31120 43304 61149 336031 349018 305018 312029 323027 354022
BBXX 46012 17121 99374 71229 46/// /3304 10112 40200 58007 91150 22200 00119 11504 329// 41504 70019 333 91205 555 11039 22040 31129 43005 61149 333038 315039 304038 301040 302037 309027
BBXX 46013 17121 99382 71233 46/// /1501 10105 40206 50000 91150 22200 00110 11604 20401 3//// 41604 70018 333 91201 555 11007 22007 31105 41404 61149 159007 171014 157017 133025 138025 131016
BBXX 46086 17121 99325 71180 46/// /3506 10151 40157 58008 91150 22200 00150 11003 20601 330// 41003 70016 333 91208 555 11068 22073 31147 43508 61149 349064 347060 348059 346059 341058 341053
BBXX 46027 17121 99419 71244 46/// /1004 10129 40202 56007 91150 22200 00091 11503 20401 330// 41503 70017 333 91205 555 11043 22051 31139 41206 61149 105037 117042 105025 115027 081035 057039
BBXX 44066 17121 99396 70726 46/// /3205 10082 20018 40186 54000 91150 22200 00134 11102 20401 3//// 41102 70010 333 91207 555 11054 22056 31133 43008 61149 315052 311053 318055 319056 319050 324053
BBXX 41036 17121 99342 70770 46/// ///// 10115 20086 40197 53011 91150 22200 00185 10502 70012
BBXX UFTA 17121 99851 71230 41697 83104 11253 21282 40111 57011 8653/ 333 11253
BBXX C6FM8 17124 99252 70773 41798 50918 10240 20180 40220 54/// 7//// 85/1/ 22273 0//// 21002 30909 41002 51002 6//// 80200 ICE /////
BBXX A8CN9 17120 99500 71659 41497 62405 10060 20039 49895 53/// 70211 83443 22224 21210 32222 41210 51208 80050
BBXX WSRL 17123 99284 71431 41598 31209 10200 2015/ 40222 55013 70210 8//// 22255 0//// 29902 330// 4//04 5//// 6//// 80170 ICE /////
BBXX WOTA 17124 99339 71184 41698 32811 10150 2010/ 40140 57020 7//00 831// 22200 0//// 20301 333// 40802 5//// 6//// 80122 ICE /////
BBXX SHIP 17123 99309 71504 41698 60318 10180 2013/ 40280 52010 70122 84/// 22223 00206 2//// 3//// 4//// 5//// 6//// 80150 ICE /////
BBXX SHIP 17124 99503 71537 41/98 81620 10063 20028 40075 58005 7//22 8//// 22224 00060 2//// 80224
BBXX 46224 17121 99332 71175 46/// ///// 1//// 91136 22200 00148 10901 20901 324// 41101 70007
BBXX 46214 17121 99379 71235 46/// ///// 1//// 91155 22200 00119 11704 20902 330// 41703 70020
BBXX 44099 17121 99369 70757 46/// ///// 1//// 91152 22200 00124 11202 21002 308// 41201 70010
BBXX 41110 17121 99341 70777 46/// ///// 1//// 91151 22200 00140 11402 20401 311// 41401 70009
BBXX 42099 17121 99273 70842 46/// ///// 1//// 91157 22200 00235 10501 20501 70004
BBXX 41112 17121 99307 70813 46/// ///// 1//// 91151 22200 00153 11001 21001 311// 41101 70007
BBXX 41113 17121 99284 70805 46/// ///// 1//// 91151 22200 00217 11001 21001 308// 41101 70007
BBXX 46215 17121 99352 71209 46/// ///// 1//// 91138 22200 00130 11703 21002 327// 41702 70015
BBXX 46240 17121 99366 71219 46/// ///// 1//// 91142 22200 00122 11502 20901 335// 41501 70009
BBXX 46236 17121 99368 71219 46/// ///// 1//// 91150 22200 00121 11503 20902 328// 41502 70014
BBXX 46237 17121 99378 71226 46/// ///// 1//// 91140 22200 00111 11703 20902 326// 41702 70014
BBXX 46225 17121 99329 71174 46/// ///// 1//// 91144 22200 00145 11002 21002 328// 41201 70010
BBXX 46247 17121 99378 71228 46/// ///// 1//// 91151 22200 00114 11703 20802 330// 41702 70016
BBXX 46232 17121 99325 71174 46/// ///// 1//// 91138 22200 00150 11003 21002 328// 41101 70013
BBXX 46218 17121 99345 71208 46/// ///// 1//// 91202 22200 00137 11704 20902 331// 41703 70018
BBXX 42364 17121 99291 70881 46/// /3508 10194 20172 40247 51010 91200
BBXX 44172 17121 99445 70634 46/// ///// 1//// 91201 22200 00074 11003 21003 318// 41101 70016
BBXX 44060 17121 99413 70721 46/// ///05 10044 40189 53006 91200 22200 00109 333 91206 555 11057 22057
BBXX 42363 17121 99282 70892 46/// /0209 10200 20161 40247 51010 91200 333 91209
BBXX 42362 17121 99278 70907 46/// /0408 10211 20183 40244 52003 91200
BBXX 46083 17121 99582 71380 46/// /2404 10037 20018 40111 53006 91150 22200 00065 11408 20401 300// 41408 70041 333 91206 555 11045 22047 31059 42609 61149 235042 238036 238037 238049 256058 262068 82708 91052
BBXX 46061 17121 99602 71468 46/// /1409 10044 40026 50003 91150 22200 00057 10904 20703 300// 40903 70019 333 91210 555 11095 22100 31050 41511 61149 141089 144086 154072 159059 155064 152049
BBXX 51101 17121 99243 71621 46/// /0709 10234 20191 40212 57005 91150 22200 00240 11507 20704 333// 41505 70033 333 91212 555 11099 22105 31101 41012 61149 069092 074088 071089 075094 081094 076094
BBXX 46042 17121 99368 71224 46/// /1006 10110 40199 56007 91150 22200 00128 11503 20401 329// 41503 70017 333 91208 555 11066 22069 31102 41008 61149 095063 098059 103062 099065 097066 091066
BBXX 46089 17121 99459 71258 46/// /1002 10076 20075 40256 58018 91150 22200 00096 11906 329// 41906 70029 333 91203 555 11017 22018 31051 41503 61149 101016 146015 139013 122013 091012 137014
BBXX CG2960 17124 99423 70830 46/// /3004 11010 21054 4//// 5//// 7//// 8//// 22200 0//// 2////
BBXX CG2350 17124 99433 70798 46/// /3211 11023 21078 40253 53019 7//// 8//// 22200 0//// 2////
BBXX CGDS 17124 99447 70755 46/// /3304 11096 21130 4//// 5//// 7//// 8//// 22200 0//// 2////
BBXX WDE3569 17124 99452 70858 43/// 83107 11061 2//// 40220 5//// 7//// 8//// 22253 00044 20000 3//// 4//// 5//// 6//// 8//// ICE /////
BBXX 44005 17121 99432 70691 46/// /3201 10048 21027 40163 53006 91150 22200 00087 11102 20401 3//// 41102 70010 333 91202 555 11013 22014 31109 43303 61149 325012 333013 324016 301016 321020 320017
BBXX 42040 17121 99292 70882 46/// /0108 10180 40243 53012 91150 22200 00229 10802 20402 316// 40801 70010 333 91209 555 11077 22080 31137 43509 61149 007077 004077 008074 007069 001068 008063
BBXX 42058 17121 99149 70749 46/// /0809 10273 20197 40135 51018 91150 22200 00278 10804 20603 308// 40803 70020 333 91210 555 11095 22101 31102 40811 61149 079089 081088 083091 079084 081092 081088 80810 91102
BBXX 42036 17121 99285 70845 46/// /3004 10214 20171 40224 53007 91150 22200 00218 10501 317// 40501 70004 333 91205 555 11041 22043 31149 43105 61149 304039 308035 306033 303031 303031 300031
BBXX 42056 17121 99198 70849 46/// /0810 10243 20213 40174 52007 91150 22200 00272 10803 20803 70016 333 91212 555 11101 22106 31135 40714 61149 079098 070104 074075 065071 056070 027046 80712 91136
BBXX 42035 17121 99292 70944 46/// /0110 10119 20117 40275 53006 91150 22200 00173 10502 20502 316// 40801 70012 333 91212 555 11105 22109 31117 40213 61149 009099 016096 023104 024107 023104 025101
BBXX 42060 17121 99163 70635 46/// /0407 10261 20145 40158 53018 91150 22200 00279 10604 20603 300// 41102 70018 333 91209 555 11075 22078 31132 40511 61149 045072 051086 044081 024072 034065 037079 80510 91132
BBXX 42065 17121 99149 70750 46/// /0810 10272 20193 91150 22200 10905 20804 3//// 40902 70023 333 91212 555 11106 22113 31057 40913 61149 082098 082095 081102 081098 080104 085108 80811 91100
BBXX 42012 17121 99301 70876 46/// /3507 10157 20138 40247 53017 91150 22200 00205 10701 20601 317// 40701 70007 333 91208 555 11073 22076 31138 43509 61149 352070 353075 351069 354069 356071 005068
BBXX 42001 17121 99259 70897 46/// /0601 10237 20189 40236 53007 91150 22200 00261 10702 20401 3//// 40702 70008 333 91202 555 11009 22009 31056 41004 61149 062008 062016 079018 076024 084026 099035
BBXX 41048 17121 99320 70696 46/// /2509 10215 20142 40200 53005 91150 22200 00230 11404 20602 3//// 41403 70020 333 91210 555 11086 22090 31137 42411 61149 250086 243088 242086 244081 246072 251079 82410 91137
BBXX 42020 17121 99270 70967 46/// /0309 10186 20161 40257 53009 91150 22200 00236 10704 20704 70019 333 91212 555 11095 22099 31102 40313 61149 032092 031092 032093 031091 028093 028095
BBXX 41044 17121 99217 70587 46/// /0209 10246 20153 40158 53020 91150 22200 00265 11107 20704 300// 41106 70037 333 91212 555 11097 22102 31146 40112 61149 017090 016086 021080 021079 017078 011081 80210 91147
BBXX 41049 17121 99275 70630 46/// /0307 10213 20130 40206 53014 91150 22200 00244 11005 20503 300// 41005 70027 333 91210 555 11077 22080 31120 40410 61149 031072 036073 031072 035076 037069 035075 80409 91120
BBXX 41001 17121 99347 70727 46/// ///// 10186 20143 40166 53016 91150 22200 00221 10604 70021
BBXX 41060 17121 99148 70510 46/// ///// 1//// 91150 22200 11104 70020
BBXX 41012 17121 99300 70805 46/// /2807 10213 40215 53006 91150 22200 00242 11002 20301 309// 41002 70012 333 91208 555 11071 22075 31138 42808 61149 281068 282065 280065 280064 275062 276057
BBXX WGJT 17124 99201 70683 41297 70619 10239 2020/ 40167 52020 78961 876// 22274 00256 20605 306// 40806 5//// 6//// 80211 ICE /////
BBXX A8NW9 17124 99318 70522 41298 70223 10209 20152 40210 52010 70322 877// 22213 04220 20806 307// 41205 80173
BBXX SHIP 17124 99343 71415 41698 72020 10170 2015/ 40140 54000 70122 87210 22223 00200 2//// 3//// 4//// 5//// 6//// 80160 ICE 0////
BBXX BATFR48 17124 99167 51492 46/// /1212 10269 20204 40117 56018 22212 00295
BBXX C6XC2 17124 99024 31327 41897 83422 10280 20253 40070 53/// 78022 886// 2226/ 00300 2//// 3//// 4//// 5//// 6//// 80260 ICE /////
BBXX BATFR08 17124 99448 30739 46/// /2518 10109 20084 40182 58004 22212 00117
BBXX A8ID9 17124 99116 51737 41498 30522 10270 20236 40110 54000 70366 82140 22214 04290 2//// 304// 40502 5//// 80245
BBXX LAOW5 17124 99255 51541 41498 41613 10250 20191 40140 54000 76211 84183 22254 00260 20204 31312 40102 50102 6//// 80210 ICE /////
BBXX 2AKI2 17123 99082 30818 41498 62911 10280 20252 40059 54000 78081 8626/ 22214 00300 20401 316// 40502 5//// 80260
BBXX ELWR5 17123 99170 71017 41697 23601 10257 20233 40132 54000 70011 80001 22234 04272 20201 80240
BBXX FVNM 17124 99058 70901 46/// /2016 10249 20224 40112 53007 22222 00259
BBXX PHSG 17124 99113 70886 41/98 /0220 10250 40100 7//// 8/7// 22274 00260 20306
BBXX WDC6698 17124 99075 71450 43/// /1313 11358 21730 40080 5//// 7//// 8//// 222// 04270 2//// 3//// 4//// 5//// 6//// 8//// ICE /////
BBXX DBLK 17121 99696 50061 41498 71104 11009 21029 49694 57024 71572 878// 22261 05019 ICE 48694
BBXX TFGRS 17124 99663 70182 46/// ///// 22200 10805 70027
BBXX TFSTD 17124 99664 70234 46/// ///// 22200 10805 70024
BBXX TFKGR 17124 99657 70136 46/// ///// 22200 10907 70033
BBXX TFDRN 17124 99658 70212 46/// ///// 22200 10904 70019
BBXX TFGSK 17124 99641 70229 46/// ///// 22200 10604 70020
BBXX TFBLK 17124 99657 70248 46/// ///// 22200 10704 70019
BBXX TFHFN 17124 99642 70152 46/// ///// 22200 10702 70009
BBXX TFBKF 17124 99635 70202 46/// ///// 22200 10701 70007
BBXX TFSRT 17124 99633 70203 46/// ///// 22200 10702 70011
BBXX TFGRV 17124 99638 70225 46/// ///// 22200 10602 70010
BBXX WKAB 17123 99383 70166 41397 72917 10170 20154 40333 52010 7//22 8764/ 22224 00169 20803 332// 40805 5//// 6//// 80160 ICE /////
BBXX VRYO3 17124 99538 10063 46/// /2623 10077 20086 49994 50003 7//// 8//// 22215 00093 2////
BBXX C6XE9 17123 99401 10020 41397 73030 10160 2007/ 40160 54/// 7//22 867// 22223 00180 21006 33127 40708 50504 6//// 80110 ICE /////
BBXX DBEB 17121 99538 10081 41/// /3312 10057 20057 49969 52026 7//// 22200 00047
BBXX DBFH 17121 99535 10086 46/// /3206 10066 20041 49974 52026 22230 00051
BBXX DBBA 17121 99540 10092 46/// /3008 10054 20025 49954 52016 22211 00042
BBXX DBBC 17121 99542 10079 46/// /3108 10074 2//// 49969 52020 22220 00075
BBXX DBKR 17121 99541 10121 46/// /3008 10045 20019 49909 52028 22200 00048
BBXX DBBI 17121 99539 10087 46/// /3207 10053 20048 49963 52021 22232 00042
BBXX LAVW4 17124 99306 70342 41799 21420 00/// 10230 2019/ 40270 51005 70200 828/5 22253 00210 20201 312// 40302 5//// 6////
BBXX WKPN 17124 99322 10303 41498 52714 10190 2012/ 40184 57010 70311 854// 22225 00225 20402 330// 40804 5//// 6//// 80150 ICE /////
AAXX 17124 78906 11578 20811 10261 20175 30136 40141 702// 81801 333 10284 20240 58006 70002 81819
AAXX 17124 64550 32470 8//// 10317 20226 30/// 40/// 86800 333 0//00 5//// 83816 85626 94939 95839
AAXX 17124 64551 32470 61812 10298 20238 30070 40099 86800 333 0//00 59007 83813 86640 94941 95831
AAXX 17124 64556 31465 6//// 10309 20217 39510 40085 70242 86200 333 0//00 59013 86815 94929 95839
AAXX 17124 68299 36/// /0806 10192 20071 38972 48565 57008 333 10197 20110 91009 555 91023
AAXX 17123 04013 41589 72002 11026 21056 40090 52012 77071 83220 555 3//13
AAXX 17123 04064 42888 43205 11048 21085 40091 52004 82542 555 3//09
AAXX 17124 04005 41489 60502 11025 21082 40084 52018 71522 86800 555 3/202
AAXX 17124 04018 41470 72613 11009 21042 40100 52012 78788 83963 555 3//16 81710 83922 85356
AAXX 17124 04030 41570 61204 11023 21036 40100 52011 72688 84932 555 3//07 82922 83628
AAXX 17124 04048 41482 23214 10003 21026 40101 52009 71181 82800 555 3/318
AAXX 17124 04063 42684 31304 11037 21082 40069 52007 82410 555 3//09
AAXX 17124 04077 NIL
AAXX 17124 04082 42988 73412 10010 21004 40023 57010 8725/ 555 3//23 87650 83656
AAXX 17124 04097 42689 20902 11010 21073 40061 52008 82800 555 3/410
AAXX 17124 78906 11578 20811 10261 20175 30136 40141 702// 81801 333 10284 20240 58006 70002 81819
AAXX 1712/ 89327 46/// ///// 11023 39667 4//// 5////
AAXX 1712/ 89879 46/// ///// 11019 39751 4//// 5////
AAXX 1712/ 89329 46/// ///// 11150 38790 4//// 5////
AAXX 1712/ 89799 46/// ///// 11255 4//// 5////
AAXX 1712/ 89769 46/// ///// 11094 39876 4//// 5////
AAXX 1712/ 89314 46/// ///// 11151 38229 4//// 5////
BBXX C6VR4 17123 99335 70195 41598 80513 10190 20103 40336 53001 70222 8676/ 22224 04199 20604 324// 41205 5//// 80143
BBXX VNVM 17124 99211 31499 41/98 /0920 10235 40145 52013 75200 8//// 22233 00270 2//02
BBXX PJFF 17124 99494 70050 41/97 /3224 10150 40150 52010 702// 8/4// 22253 04080 20903 331// 41004 80020
AAXX 17121 38353 41597 83501 11083 21092 39403 40362 54000 70272 885//
AAXX 17121 38613 42998 02101 11012 21067 39357 40287 57016 555 11000
AAXX 17121 38616 41596 70000 11022 21054 39233 40283 57012 71022 83501
AAXX 17121 38345 41/92 92601 11107 21107 38843 48518 53005 74540 555 14107
AAXX 17121 36911 42998 80000 11085 21104 39329 40353 53002 8802/ 555 1/108
AAXX 17121 36974 429// 02001 11153 21204 38021 48599 57006 555 15118
AAXX 17121 36982 429// 01603 11191 21275 36493 47146 53005
BBXX UCJB 17121 99605 10040 41497 83510 10048 49942 52020 72162 8762/ 22243 00119 20504
AAXX 17124 47101 32665 20001 11062 21127 30211 40313 50001 82500 333 11018 34105
AAXX 17124 47105 369// /2707 11018 21175 30235 40268 50001 333 10025 3/000
AAXX 17124 47108 32670 60202 11031 21123 30195 40306 55004 86500 333 11016 30103
AAXX 17124 47115 12572 22904 10006 21081 39972 40252 52005 69902 81500 333 10037 3/101 47011 92032
AAXX 17124 47133 12670 72902 11027 21089 30226 40315 55002 69902 87500 333 10012 34101
AAXX 17124 47138 32972 02304 11010 21195 30289 40292 52010 333 10036 30103 92023
AAXX 17124 47159 32972 03404 11005 21168 30210 40299 52009 333 10046 30102 92022
AAXX 17124 47165 12668 50902 11013 21051 30268 40317 52007 69902 85500 333 10028 34000 92021
AAXX 17124 47168 32970 03615 11002 21101 30215 40298 51005 333 10036 30102 92024
AAXX 17124 47184 12670 63407 10054 21031 30289 40315 53007 69902 86500 333 10060 31004 92033
AAXX 17124 91925 06/// /0302 10224 20190 30045 40106 56012 60001 333 10327 59011 60007 90710 91106 555 60005 10207
AAXX 17124 91929 04986 /1106 10252 20207 30109 40112 57017 60001 700// 333 60007 90710 91110 555 60005
AAXX 17124 91938 02570 11103 10240 20209 30113 40115 57016 60001 81200 333 60007 81823 90710 91106 555 60005 11006
AAXX 17124 91943 36/// /1005 10261 20209 30105 40107 56018 333 59021
AAXX 17124 91944 06/// /0904 10257 20193 30110 40113 56012 60001 333 60007 90710 91107 555 60005
AAXX 17124 91948 06/// /0000 10227 20189 30023 40126 55009 69961 333 10269 59003 60007 90710 91102 555 60005 13403
AAXX 17124 91954 06/// /1604 10211 20206 30125 40128 57013 60001 333 10284 59023 60007
AAXX 17124 91958 06/// /1804 10202 20178 30145 40147 56010 60001 333 10266 59017 60007 90710 91106 555 60005 10409
AAXX 17124 91945 NIL
AAXX 17124 47090 32970 02902 11006 21173 30239 40262 51004 333 10019 3/103 43002 92011
AAXX 17124 47095 32570 42004 11053 21162 30110 40309 54000 84500 333 11035 34103
AAXX 17124 47097 329// /0001 11043 21109 30210 40311 56004 333 11005 3/103
AAXX 17124 47098 329// /0201 11047 21145 30163 40305 57002 333 11008 3/103
AAXX 17124 47099 329// /0703 11046 21116 30268 40306 57003 333 11002 3/103
AAXX 17124 47100 32970 02509 11101 21185 39333 40308 53004 333 11063 3/106 49028
AAXX 17124 47102 12670 32915 10015 21080 30113 40296 53003 69902 83500 333 10018 34000
AAXX 17124 47104 32970 01405 11030 21170 30166 40268 51005 333 10025 3/101 43005
AAXX 17124 47106 329// /2509 11006 21182 30215 40266 50002 333 10035 3/103
AAXX 17124 47112 32670 61404 11016 21073 30216 40304 56005 85500 333 10002 30101 92012
AAXX 17124 47114 32970 02701 11062 21151 30115 40308 57006 333 11025 30105
AAXX 17124 47119 32668 61801 11023 21074 30264 40308 56005 86500 333 11002 34103
AAXX 17124 47121 329// /0001 11079 21162 30003 40316 52003 333 11011 3/108
AAXX 17124 47127 329// /0902 11071 21129 30165 40316 55003 333 11016 3/103
AAXX 17124 47129 12665 60502 11023 21051 30276 40313 55003 69902 86500 333 10014 34101
AAXX 17124 47130 32972 02306 11011 21212 30206 40270 50001 333 10044 34105 92022
AAXX 17124 47131 32970 01801 11028 21094 30237 40311 55004 333 11003 30102
AAXX 17124 47135 329// /2710 11034 21107 39999 40312 54000 333 11008 3/104
AAXX 17124 47136 32970 03203 11047 21154 30120 40301 56003 333 10006 30107
AAXX 17124 47137 329// /2504 11039 21120 30185 40310 55001 333 10004 3/104
AAXX 17124 47140 12670 61103 11013 21062 30282 40312 57003 69902 86500 333 10020 3/000 41/// 92012
AAXX 17124 47143 32970 02703 11015 21146 30234 40316 52004 333 10026 30105
AAXX 17124 47145 32668 20701 11047 21086 30277 40305 55002 81500 333 10001 34103
AAXX 17124 47146 32668 61401 11022 21079 30245 40314 50001 86500 333 10014 34000
AAXX 17124 47150 12670 60001 11009 21064 30289 40309 55001 69902 86500 333 10020 34000
AAXX 17124 47152 32970 03401 11010 21164 30248 40292 53006 333 10044 30103
AAXX 17124 47154 329// /0001 11038 21120 30247 40311 54000 333 10016 3/103
AAXX 17124 47155 32670 13404 11005 21159 30255 40303 53011 81500 333 10030 30103
AAXX 17124 47156 32670 60505 11007 21056 30228 40321 52007 85500 333 10029 31001
AAXX 17124 47157 32972 02302 11049 21102 30018 40303 52013 333 10021 30106
AAXX 17124 47162 32972 00504 10000 21084 30257 40299 52011 333 10056 30101 92022
AAXX 17124 47169 32675 73410 10039 21029 30218 40314 53006 87500 333 10042 31003 92054
AAXX 17124 47170 32670 33405 10001 21061 30271 40316 52010 83500 333 10041 30101 92022
AAXX 17124 47171 329// /1102 11023 21063 30260 40318 50004 333 10014 3/101
AAXX 17124 47172 129// /2701 11022 21045 30242 40312 50005 69902 333 10008 3/000
AAXX 17124 47173 329// /0000 11054 21078 30200 40318 50006 333 10020 3/102
AAXX 17124 47174 32670 32903 11028 21080 30101 40313 52009 83500 333 10025 34101
AAXX 17124 47175 32570 43607 11036 21044 39719 40319 52011 84500 333 10000 3/001 47003 92023
AAXX 17124 47185 12675 63417 10060 21021 30220 40313 53011 69902 86500 333 10069 31004 92035
AAXX 17124 47188 12670 50203 10040 21019 30286 40308 52012 69912 85500 333 10064 31002 92022
AAXX 17124 47189 32670 50503 10065 20008 30232 40293 52008 85500 333 10104 31006 92022
AAXX 17124 47192 32975 01102 11014 21112 30267 40306 52015 333 10062 30102
AAXX 17123 64810 NIL
AAXX 17123 64820 32460 72804 10299 20250 30097 40106 82572 333 59004 82613 84363 85070
AAXX 17124 91203 32469 51006 10297 20252 30120 40125 51014 82271 333 56299 58007 82818 85080 555 91712
AAXX 17124 81225 11365 41206 10264 20241 40125 60024 71040 81104 333 20/// 56309 58008 81808 84080
AAXX 17124 81200 12570 41507 10278 20238 40120 69904 81102 333 20/// 56209 58005 81820
AAXX 17124 81202 12470 41506 10270 20241 40124 69904 81962 333 20244 56329 58007 81812 81920 84070
AAXX 17124 81209 12470 70000 10252 20235 40/// 60024 87832 333 20/// 56299 5//// 86812
AAXX 17124 81251 NIL
AAXX 17124 48302 NIL
AAXX 17124 48304 NIL
AAXX 17124 48334 31558 20000 10237 20195 39768 40132 52010 71000 82500 333 10280 58007 70000
AAXX 17124 48360 NIL
AAXX 17124 48372 NIL
AAXX 17124 48373 NIL
AAXX 17124 48374 NIL
AAXX 17124 48386 NIL
AAXX 17124 48387 NIL
AAXX 17124 48408 32960 20104 10232 20159 39986 40137 53022 80001 333 10306 59008 70000
AAXX 17124 48415 NIL
AAXX 17124 48433 31957 20103 10240 20160 33297 43520 52024 71010 82005 333 10290 59006 70000
AAXX 17124 48437 33962 00203 10232 20168 39929 40141 52013 333 10280 59006 70000
AAXX 17124 48440 32960 00000 10246 20196 30074 40124 52021 333 10309 58009 70000
AAXX 17124 48451 32961 20000 10232 20194 30118 40129 52010 80005 333 10273 58007 70000
AAXX 17124 48454 NIL
AAXX 17124 48457 NIL
AAXX 17124 48463 31550 60213 10260 20187 30039 40133 53015 71022 81146 333 10292 58006 70000
AAXX 17124 48464 33957 30000 10239 20190 30102 40115 52008 83001 333 10276 58005 70000
AAXX 17124 48479 NIL
AAXX 17124 48520 31959 50404 10250 20212 30091 40106 52016 71011 85005 333 10292 58003 70000
AAXX 17124 48554 NIL
AAXX 17124 48563 32560 50603 10255 20231 30038 40074 52005 81246 333 10299 5//// 70076
AAXX 17124 48571 NIL
AAXX 17124 48307 31958 00000 10202 20165 39768 40155 71000 333 10275 58004 70000
AAXX 17124 48324 NIL
AAXX 17124 48333 32960 10000 10235 20187 39841 40145 52013 81040 333 10283 58006 70000
AAXX 17124 48350 NIL
AAXX 17124 48355 NIL
AAXX 17124 48358 NIL
AAXX 17124 48384 32960 00000 10228 20171 39956 40149 51015 333 10287 58000 70000
AAXX 17124 48401 31958 20000 10260 20182 30030 40138 52016 70500 81045 333 10306 58008 70000
AAXX 17124 48404 31958 20708 10227 20147 39968 40149 51024 70500 80005 333 10275 58000 70000
AAXX 17124 48409 NIL
AAXX 17124 48419 NIL
AAXX 17124 48427 31957 60000 10239 20186 30116 40124 52007 71022 86006 333 10284 58003 70000
AAXX 17124 48435 NIL
AAXX 17124 48453 NIL
AAXX 17124 48458 NIL
AAXX 17124 48474 NIL
AAXX 17124 48481 NIL
AAXX 17124 48555 NIL
AAXX 17124 48556 13560 60000 10256 20232 30078 40094 52017 60042 82246 333 10275 5//// 70043
AAXX 17124 48557 NIL
AAXX 17124 48560 NIL
AAXX 17124 48574 NIL
AAXX 17124 48581 NIL
AAXX 17124 48310 31558 40000 10215 20207 39684 40144 52010 71010 82505 333 10282 58004 70000
AAXX 17124 48325 NIL
AAXX 17124 48329 31957 00000 10240 20193 39789 40129 52009 71010 333 10295 58001 70000
AAXX 17124 48352 NIL
AAXX 17124 48357 NIL
AAXX 17124 48380 NIL
AAXX 17124 48383 31957 00502 10200 20139 39998 40161 52023 71010 333 59006 70000
AAXX 17124 48403 NIL
AAXX 17124 48405 NIL
AAXX 17124 48420 31956 63602 10257 20182 30113 40118 52013 70522 80006 333 10292 58006 70000
AAXX 17124 48421 31956 20000 10257 20200 30002 40116 52014 71000 80005 333 10325 59002 70000
AAXX 17124 48425 NIL
AAXX 17124 48426 31558 50603 10267 20166 30112 40125 53012 70522 81546 333 10301 58004 70000
AAXX 17124 48429 NIL
AAXX 17124 48430 31959 40000 10280 20157 30114 40121 52013 70511 81036 333 58003 70000
AAXX 17124 48450 NIL
AAXX 17124 48459 NIL
AAXX 17124 48465 31958 53406 10253 20185 30111 40116 52014 71011 80006 333 10291 58005 70000
AAXX 17124 48550 11558 60810 10270 20234 30094 40101 52016 69932 71022 82246 333 10294 58004 70003
AAXX 17124 48552 NIL
AAXX 17124 48566 NIL
AAXX 17124 48568 01460 30809 10274 20232 30083 40091 52015 60062 70161 81201 333 10295 59002 60027 70060
AAXX 17121 26645 41366 81604 10036 20021 39621 49874 57005 70262 886// 333 88707 91112 555 12003
AAXX 17121 26659 41457 81706 10050 20036 39709 49918 53008 75165 886// 333 88711 91011 91113 555 12004
AAXX 17121 26763 41458 81408 10050 20038 39734 49957 52003 71022 886// 333 88710 91114 555 12004
AAXX 17121 26825 41560 81905 10036 20026 39677 49856 52006 78082 883// 333 88920 555 11003
AAXX 17121 26832 41357 81803 10043 20033 39685 49873 52005 76162 8872/ 333 86707 555 11004
AAXX 17121 26887 41296 81507 10040 20035 39794 49997 58002 75152 886// 333 88705 91011 91113 555 12004
AAXX 17121 26961 41559 71503 10059 20036 39742 49930 57009 76162 875// 333 87621 91110 555 11///
AAXX 17121 33027 41597 81304 10055 20026 39755 49919 58012 70262 8657/ 555 11005
BBXX LAHV 17121 99589 10057 43/// /2102 10032 20013 49913 222// 04085 1////
BBXX LF4H 17124 99596 10022 46/// /3424 10049 21030 49959 52017 8//// 22200 06082 10809 70043 333 91137
BBXX LGWS 17121 99304 70097 43/// /1403 10155 20096 40247 5//// 222/0 04160 1//// 3//// 4//// 5////
AAXX 17124 78982 01480 70814 10257 20233 30130 40135 52018 69921 78022 85271 333 10303 20255 58010 69927 70028 85816 54459 85081
AAXX 17124 81225 11365 41206 10264 20241 40125 60024 71040 81104 333 20/// 56309 58008 81808 84080
AAXX 17124 81200 12570 41507 10278 20238 40120 69904 81102 333 20/// 56209 58005 81820
AAXX 17124 81202 12470 41506 10270 20241 40124 69904 81962 333 20244 56329 58007 81812 81920 84070
AAXX 17124 81209 12470 70000 10252 20235 40/// 60024 87832 333 20/// 56299 5//// 86812
AAXX 17124 81251 NIL
AAXX 17121 26038 21243 80905 10002 20001 39832 49873 58020 77376 8872/ 333 10013 20000 69987 88504 91008 91111 555 1/100 20000 3/100 50008 52100
AAXX 17121 26045 27363 71004 10008 20006 39899 49901 58024 75274 87/// 333 10015 20001 69937 87/09 91110 555 1/001 20001 3/000 50007
AAXX 17121 26058 27261 81103 10013 20010 39912 49919 58020 76177 88/// 333 10013 21001 69957 88/04 91109 555 1/001 21001 3/100 50007 52000
AAXX 17121 26115 27236 80904 10006 20002 39823 49831 55020 77476 88/// 333 10019 20006 60027 88/06 91010 91113 555 1/000 20006 3/000 50023
AAXX 17121 26135 27251 81104 10004 20003 39802 49876 58015 77177 88/// 333 10014 21002 60027 88/07 91109 555 1/000 21002 3/000 50004 52100
AAXX 17121 26141 21220 81206 10000 21004 39743 49891 58019 77372 887// 333 10004 21004 69987 88505 91008 91111 555 1/100 21004 3/100 51001 52100
AAXX 17121 26231 21281 81005 10007 20004 39835 49850 58025 77176 8872/ 333 10026 20002 60037 88505 91009 91110 555 1/000 20002 3/100 50012
AAXX 17121 26242 21359 81204 10005 21004 39798 49884 57013 77171 8872/ 333 10013 21002 60037 88507 555 1/000 21002 3/000 50005 52100
AAXX 17121 26247 27/83 /1405 10019 20012 39794 49872 57013 72377 333 10023 20001 60037 91009 91110 555 1/000 20001 3/100 50010
BBXX BATUK01 17124 99582 70064 46/// /3104 10030 21018 40095 51025 22200 00109
AAXX 17124 60107 32458 73010 10144 20104 40250 50003 878// 333 83816 86626 95380
AAXX 17121 26509 /1570 81405 10041 20004 39768 49777 58002 78022 885// 333 88625 91010 91112 555 1/003 69901
AAXX 17121 26518 /1670 71607 10032 20008 39600 49799 52001 70262 87800 333 91011 91112 555 1/002 4/997 60021
AAXX 17121 26524 /1598 81404 10045 20030 39686 49814 58007 70262 885// 333 88628 91008 91110 555 1/004 60012
AAXX 17121 26531 /1470 81405 10043 20038 39772 49846 54000 72065 886// 333 88714 91008 91109 555 1/004 60021
AAXX 17121 26629 /1597 81607 10051 20034 39741 49833 58002 70262 885// 333 88630 91010 91113 555 1/005 60021
AAXX 17121 26633 /1457 81504 10041 20031 39733 49861 51002 76165 8872/ 333 88711 91007 91111 555 1/003 69961
AAXX 17121 26730 /1461 81506 10040 20038 39674 49861 52003 76165 8802/ 333 91010 91110 555 1/004 60021
AAXX 17124 91203 32469 51006 10297 20252 30120 40125 51014 82271 333 56299 58007 82818 85080 555 91712
AAXX 17124 17042 12970 21405 10169 21034 30098 40137 55000 60001 82030 333 82360 92428
AAXX 17124 17074 11509 80205 10049 20029 39166 40107 57018 60001 74444 8352/ 333 83630 88460 91107
AAXX 17124 17086 12670 62507 10109 21017 39418 40128 55018 60001 84550 333 84635 86360
AAXX 17124 17088 12670 60906 10068 21085 38764 48465 55004 60001 84550 333 84640 86360
AAXX 17124 17140 12665 72108 10051 20029 38660 48449 57013 60001 87200 333 87840
AAXX 17124 17155 12670 72207 10092 20007 38979 40091 57024 60001 84550 333 84635 87359 91017 91120
AAXX 17124 17203 11610 80000 11007 21017 38885 48528 55012 60011 77177 8552/ 333 85633 88457 93101
AAXX 17124 17237 12670 71908 10144 20040 39618 40121 57022 60001 87220 333 83836 87459 91117
AAXX 17124 17250 12975 42406 10067 21016 38784 48476 57013 60001 84050 333 84360
AAXX 17124 17270 11670 70601 10076 20032 39538 40197 55004 69971 70262 84510 333 84640 87460
AAXX 17124 17295 12560 61207 10173 20091 30138 40145 57024 60001 83250 333 83830 86360
AAXX 17124 17320 12670 71204 10181 20097 30158 40163 57013 60001 82208 333 82835 87270 92428
AAXX 17124 17375 12670 53401 10170 20069 30153 40155 57014 60001 82230 333 82836 85360 91107 92428
AAXX 17124 17022 12565 61705 10170 21004 39883 40045 57025 60001 84550 333 84630 86359 91121 92437
AAXX 17124 17031 12670 61812 10156 20017 30099 40105 57020 60001 81101 333 81836 86070
AAXX 17124 17038 12965 32909 10128 20075 30084 40134 53003 60001 83030 333 83360 92427
AAXX 17124 17050 12670 61810 10164 20104 39922 49983 57024 60001 84270 333 84835 86360 91127
AAXX 17124 17060 12960 02020 10143 20068 39995 40034 57015 60001
AAXX 17124 17096 11556 43104 11075 21081 38225 48502 55010 60001 71042 84500 333 84630
AAXX 17124 17124 12660 61804 10110 20012 39184 40097 57027 60001 84250 333 84835 85360
AAXX 17124 17128 12670 62110 10083 21013 39027 40126 57023 60001 83250 333 83840 86360
AAXX 17124 17170 NIL
AAXX 17124 17195 12670 70000 10075 21007 38945 48469 57016 60001 81108 333 81840 87268
AAXX 17124 17199 11565 82202 10025 20014 39097 40221 56005 69981 70272 85620 333 82720 84635 87460
AAXX 17124 17219 11565 71916 10155 20113 39948 40093 56018 69921 78022 84250 333 84830 87360 91127
AAXX 17124 17240 12970 40703 10068 20015 39001 40164 57019 60001 84030 333 84360 91107
AAXX 17124 17244 12670 61716 10084 21026 38963 48461 57016 60001 83550 333 83640 86360
AAXX 17124 17280 11640 82904 10037 20024 39402 40215 55007 60021 76062 8552/ 333 85635 88459 96010
AAXX 17124 17350 12660 30907 10151 20066 30087 40165 57010 60001 82101 333 82835 83070
AAXX 17124 17024 12570 60807 10122 20084 39980 40056 57032 60001 83550 333 83632 86360 91112 92438
AAXX 17124 17056 12970 52017 10187 20120 30014 40018 57018 60001 85030 333 85360 91031 91131 92458
AAXX 17124 17067 12970 52606 10179 21002 30019 40041 57025 60001 80001 333 85070 91117 92418
AAXX 17124 17092 12660 41805 10075 21048 38848 48476 55007 60001 84400 333 84640
AAXX 17124 17112 12670 62039 10170 20090 30011 40013 57027 60001 84270 333 84835 86360 91144 92458
AAXX 17124 17115 12960 52017 10152 20089 39979 40029 57026 60001 80001 333 85070 91129
AAXX 17124 17116 12665 62014 10163 20014 39929 40049 57021 60001 84250 333 84835 86360 91127
AAXX 17124 17188 12660 71005 10089 20032 39063 40128 57016 60001 84450 333 84637 87360 91115
AAXX 17124 17202 11059 82204 10004 21006 39177 40233 55002 60011 70277 84620 333 84701 88530 93103
AAXX 17124 17248 12975 60305 10061 20007 38961 48469 57014 60001 83036 333 83360 86270
AAXX 17124 17292 12670 61303 10106 20082 39388 40152 57022 60001 83250 333 83835 86360 91107
AAXX 17124 17300 12560 60301 10135 20048 30086 40158 57009 60001 83250 333 83830 85359
AAXX 17124 17310 12670 51601 10190 20041 30163 40170 58006 60001 81270 333 81837 85360 91106 92438
AAXX 17124 17330 12970 51202 10165 20065 30151 40169 58010 60001 83031 333 83360 85070
AAXX 17124 08001 12375 5//// 10119 20046 30194 40276 50004 60001 84840 333 92468
AAXX 17124 08015 11440 83204 10062 20044 39855 40269 52006 60031 76188 8477/
AAXX 17124 08023 11460 72913 10093 20060 30167 40239 51007 60041 71582 8383/
AAXX 17124 08027 11465 73219 10092 20032 39903 40216 51007 60041 70282 85870
AAXX 17124 08045 02660 60000 10100 20056 39980 40294 50000 60001 82876 333 60007
AAXX 17124 08141 12575 32807 10074 20013 39381 40249 58001 60001 81140
AAXX 17124 08160 12780 43015 10102 20023 39909 40220 58001 60001 83571
AAXX 17124 08181 02580 23214 10132 21008 30149 40155 58005 60001 81802 333 60007
AAXX 17124 08221 02680 31602 10091 21003 39554 40244 58005 60001 81106 333 60007
AAXX 17124 08231 NIL
AAXX 17124 08261 12878 13211 10092 21001 39803 40292 51005 60001 81041
AAXX 17124 08284 02982 53007 10152 21025 30130 40205 58006 60001 81038 333 60007
AAXX 17124 08306 12580 43216 10145 20045 30152 40158 58019 60001 82808
AAXX 17124 08314 02575 63113 10138 20062 30046 40148 58007 60001 81201 333 60007
AAXX 17124 08430 12670 73310 10147 21006 30151 40226 51002 60001 81171
AAXX 17124 08482 12581 32920 10152 20131 30240 40248 58010 60001 81801
AAXX 17124 13629 11656 81408 10076 20076 38955 42622 57108 60181 76266 885// 333 88636
AAXX 17124 17500 12560 62919 10185 20114 30117 40177 56012 60001 82102 333 82825 86070
AAXX 17124 17501 12560 63208 10185 20115 30134 40153 50016 60001 82106 333 82830 86270 92437
AAXX 17124 17505 12560 63319 10174 20097 30062 40174 57013 60001 82106 333 82830 86270
AAXX 17124 17507 12560 63211 10182 20091 30066 40185 57012 60001 82102 333 82825 86070
AAXX 17124 17510 12560 72712 10183 20114 30136 40146 58009 60001 81101 333 81830 87070 92437
AAXX 17124 17515 12560 63314 10180 20072 30007 40180 57012 60001 82106 333 82830 86270
AAXX 17124 17521 12560 63010 10185 20086 30021 40159 56013 60001 83106 333 83830 86270
AAXX 17124 17530 12560 63313 10185 20098 30115 40170 57013 60001 82106 333 82830 86270
AAXX 17124 17535 12560 62809 10185 20091 30119 40155 57015 60001 82106 333 82830 86270
AAXX 17124 17540 NIL
AAXX 17124 17547 NIL
AAXX 17124 17550 12560 60206 10161 20110 30019 40164 57010 60001 82106 333 82830 86270 92437
AAXX 17124 17572 12560 7//// 10181 20103 30151 40176 58011 60001 81101 333 81830 87070 92437
AAXX 17124 13619 11660 70000 10086 20086 39238 42647 52010 60131 76066 87500 333 87633
AAXX 17124 13610 11658 71816 10118 20052 39554 49966 52014 60111 71066 87500 333 87640
AAXX 17124 78905 11578 62705 10220 20190 30131 40154 60001 702// 85860 333 10273 20210 58013 79999 84824 83630
AAXX 17124 17026 12870 61506 10138 20041 30036 40074 57034 60001 86050 333 86358 91115 92428
AAXX 17124 17034 12970 40203 10124 20079 30085 40130 57013 60001 84030 333 84360 92428
AAXX 17124 17070 12965 52104 10095 21005 39225 40090 57021 60001 85030 333 85360 91114
AAXX 17124 17084 12670 72106 10084 20002 39234 40147 56015 60001 83570 333 83635 87360 91115
AAXX 17124 17090 12665 61503 10039 21027 38701 48473 57008 60001 84550 333 84636 86360
AAXX 17124 17098 11535 70505 11070 21070 38183 48500 56008 60001 71042 85550 333 85630 87357
AAXX 17124 17150 12660 71915 10162 20085 39942 40065 57024 60001 83130 333 83835 86360 91125
AAXX 17124 17160 12670 62207 10072 20003 38987 48459 57011 60001 84550 333 84640 86360 91114
AAXX 17124 17184 12670 71707 10159 20085 39977 40088 57020 60001 85250 333 85836 87360 91112
AAXX 17124 17189 12960 61705 10106 21033 38962 48436 57020 60001 86030 333 86360
AAXX 17124 17210 11565 82602 10048 20036 39151 40196 53007 60031 76162 8452/ 333 84630 88459
AAXX 17124 17234 12670 70802 10153 20087 30054 40122 57020 60001 83270 333 83840 87360 91112
AAXX 17124 17260 11560 70306 10056 20031 39365 40207 55003 69921 70282 85250 333 85820 87358
AAXX 17124 17290 12670 71709 10173 20106 30100 40132 55014 60001 84270 333 84835 87360 91119 92438
AAXX 17124 17370 12665 51504 10147 20051 30165 40169 57004 60001 83201 333 83835 85070 92427
AAXX 17121 14240 12682 83601 10041 20011 39831 49986 52016 60001 885// 333 70285
AAXX 17121 14258 11660 82401 10020 20015 39807 49996 52024 60081 77172 8802/ 333 70270 88533
AAXX 17121 14445 11675 72501 10103 20040 39821 49973 52011 60011 7026/ 84870 222// 00155 333 70093 84896 83499 92311
AAXX 17124 65352 31940 70802 10328 20008 3//// 4//// 70522 80002 333 5//// 87076
AAXX 17124 65361 NIL
AAXX 17124 65376 31935 70402 10310 20130 39658 40115 70522 80002 333 58000 87073
AAXX 17124 65387 31535 72006 10326 20240 30081 40099 70522 82202 333 58001 82820 87073
AAXX 17124 93004 16/// /2320 10146 20141 40078 57001 60021 333 10186
AAXX 17124 93023 16/// /2802 10139 20127 40067 54000 60001 333 10228
AAXX 17124 93069 16/// /3016 10166 20147 40048 52002 60001 333 10209
AAXX 17124 93110 17698 /1316 10149 20142 40042 52006 60061 333 10230
AAXX 17124 93186 17698 /1210 10139 20108 40060 52002 60131 333 10224
AAXX 17124 93196 16/// /1730 10151 20112 40048 57011 69941 333 10197
AAXX 17124 93245 16698 /1107 10086 20064 40094 52010 60041 333 10152
AAXX 17124 93292 17497 /0102 10126 20122 40095 54000 60031 333 10170
AAXX 17124 93309 17798 /1523 10117 20074 40077 52009 60001 333 10169
AAXX 17124 93334 16/// /0701 10059 20044 39150 52005 69961 333 10129
AAXX 17124 93339 16/// /0705 10056 20040 39155 52004 69921 333 10124
AAXX 17124 93373 17597 /2508 10110 20085 40115 57003 60001 333 10147
AAXX 17124 93404 17698 /1412 10111 20077 40116 57001 60001 333 10158
AAXX 17124 93420 17598 /1807 10110 20066 40122 52003 60001 333 10149
AAXX 17124 93439 17598 /1621 10121 20074 40133 54000 60001 333 10137
AAXX 17124 93498 16/// /1917 10114 20079 40119 57002 60001 333 10118
AAXX 17124 93515 17495 /3514 10146 20139 40111 52010 60041 333 10220
AAXX 17124 93527 16/// /1210 10120 20077 40117 52006 60001 333 10180
AAXX 17124 93546 17/98 /2703 10118 20086 40117 52011 60001 333 10210
AAXX 17124 93597 16/// /1523 10116 20080 40128 57002 60001 333 10141
AAXX 17124 93615 17/98 /0503 10103 20083 40109 52013 60001 333 10225
AAXX 17124 93678 16698 /2009 10102 20079 40150 54000 60001 333 10129
AAXX 17124 93709 16/// /0000 10096 20088 40106 52011 60001 333 10223
AAXX 17124 93773 17598 /2203 10091 20070 40167 52006 60001 333 10156
AAXX 17124 93781 17598 /2403 10103 20078 40159 52004 60001 333 10150
AAXX 17124 93800 NIL
AAXX 17124 93805 NIL
AAXX 17124 93831 17699 /1306 10096 20047 40159 52019 60001 333 10171
AAXX 17124 93845 17698 /0103 10089 20062 40170 52004 60001 333 10143
AAXX 17124 93891 17698 /2303 10091 20055 40169 52007 60001 333 10143
AAXX 17124 93909 16/// /2014 10087 20072 40170 52003 60001
AAXX 17124 93929 16/// /2106 10063 20012 40173 52016 60001
AAXX 17124 93947 16/// /2615 10061 20008 40122 52008 69961
AAXX 17124 93987 16/// /2113 10097 20059 40047 52007 60001 333 10169
AAXX 17124 93994 NIL
AAXX 17121 15502 11568 73203 10068 20059 39906 49945 53017 60021 72162 86550 333 10068 20040 555 59402 61599 71269
AAXX 17121 15525 12580 61809 10162 20016 39667 49919 58016 60001 85550 333 10186 20090 91120 555 537//
AAXX 17121 15528 12670 82004 10170 20028 39716 49895 57019 60001 8657/ 333 10190 20106 555 539//
AAXX 17121 15535 11570 71607 10156 20035 39873 49917 57026 69901 70382 82966 333 10161 20091 555 54400 64199
AAXX 17121 15549 12570 62309 10150 20032 39536 49932 57021 60001 84640 333 10155 20057 555 545//
AAXX 17121 15552 12475 62008 10166 20080 39914 49961 57027 60001 86200 222// 2//01 333 10166 20084 555 557// 92025 92428
AAXX 17121 15614 12680 72007 10142 20019 39254 49925 57009 60001 87300 333 10156 20082 91115 555 543//
AAXX 17121 15615 11/00 92328 11046 21052 36943 47863 52025 60001 74944 333 11046 21060 91140 92992 555 596// 92712
AAXX 17121 15626 12670 60502 10094 20050 39763 49947 57036 60001 86500 333 10094 20014 555 574//
AAXX 17121 15627 11/00 92018 11027 21030 37456 47883 58021 69911 74942 333 11027 21044 44003 91124 93504 555 597// 92712
AAXX 17121 15640 12678 62504 10150 20050 39679 49979 57014 60001 85532 333 10152 20052 555 551//
AAXX 17121 15655 12570 62014 10163 20083 39933 49965 57021 60001 86200 222// 00094 20501 333 10166 20052 91120 555 559// 81292 92028 92428
AAXX 17121 15712 12675 70903 10144 20052 39726 49967 58022 60001 87900 333 10146 20075 555 554//
AAXX 17121 15730 12680 62016 10161 20084 39595 49968 57024 60001 84886 333 10165 20093 91124 555 560//
AAXX 17124 16622 12660 61716 10178 20071 39973 49982 57025 60001 84550 333 84635 86358 90730 91125 555 30000 10128 2//// 30116 4//// 5//// 40000 47509 44215 50000 50124
AAXX 17124 16641 11460 72313 10166 20123 30009 40014 56017 60021 76062 86870 333 83815 85625 87360 90730 91130 555 40000 47537 44210 50000 50142 60000 60015 60130 70000 77R// 7R///
AAXX 17124 16682 12460 72110 10176 20130 30051 40069 58018 60001 85770 333 84712 84625 87358 90730 91125 555 30000 10178 20154 30154 40148 50142 60190 40000 47570 44210 50000 50150
AAXX 17124 16716 12560 72006 10182 20109 30039 40056 57019 60001 81236 333 81830 83359 86070 555 40000 47562 44215 50000 50142
AAXX 17124 16734 17/// /2520 10179 20127 30024 40083 57024 69951 7414/ 333 90730 91129 555 60000 65555 60146
AAXX 17124 16743 NIL
AAXX 17124 16749 12460 70804 10174 20139 30115 40129 57025 60001 86850 333 81818 85625 85358 90730 91110 555 40000 47619 44220 50000 50154
AAXX 17124 16754 12560 63208 10188 20136 30063 40110 57023 60001 81251 333 81820 84358 86068 90730 91123 555 40000 47579 44200 50000 50158
AAXX 17123 61701 32960 20915 10295 20044 40128 80002 333 58019 82073
AAXX 17123 61705 32960 00000 10300 20085 4//// 80002 333 5////
AAXX 17123 61707 32960 00509 10305 20142 4//// 80000 333 5////
AAXX 17123 61711 32960 20903 10295 20143 4//// 80002 333 5//// 82073
AAXX 17123 61712 NIL
AAXX 17123 61717 NIL
AAXX 17123 61720 NIL
AAXX 17123 61721 32960 41010 10320 20015 4//// 80002 333 5//// 84073
AAXX 17123 61722 NIL
AAXX 17123 61731 32960 32710 10320 20034 4//// 80002 333 5//// 83073
AAXX 17123 61733 32960 30909 10320 20044 4//// 80002 333 5//// 83072
AAXX 17121 14008 12299 73207 11126 21145 37271 47804 52014 60001 87800 333 91119 444 16185 16085
AAXX 17121 14015 12463 60703 10040 20022 39630 49978 51014 60001 84572 333 83712 84630
AAXX 17121 14023 12397 80000 10040 20017 39690 49984 52014 60001 8117/ 333 81707 81840
AAXX 17121 14024 46/// ///// 1//// 2//// 3//// 4//// 5////
AAXX 17121 14026 12499 72203 10040 20002 39658 49977 52019 60001 84810 333 81817 84657
AAXX 17121 14031 12599 82603 10051 20001 39747 49974 52021 60001 8122/ 333 81820
AAXX 17121 14105 11799 61103 10086 20035 39987 49991 52019 69901 70152 81222 333 81856
AAXX 17121 14106 12999 70902 10077 20039 39917 49985 51012 60001 87070 333 95000
AAXX 17121 14112 12/97 81801 10023 29098 60001
AAXX 17121 14121 11298 83202 10025 20016 39716 49983 52014 69921 70272 8177/ 333 81703 93100
AAXX 17121 14122 12482 80000 10019 20014 39792 49990 51014 60001 8167/ 333 81710
AAXX 17124 16614 11560 83207 10098 20060 39233 49993 57021 60011 76162 8552/ 333 85625 88458 90730 91115 555 60000 60014 60030 70000 77R// 7R///
AAXX 17124 16627 12560 31922 10168 20109 30002 40006 57018 60001 82140 333 82825 83358 90730 91137 555 30000 10130 20122 30112 40110 50116 6//// 40000 47536 44250 50000 50136
AAXX 17124 16667 12465 72031 10178 20116 30063 40069 57027 60001 84850 333 82818 84625 86362 90730 91140 555 30000 20140 30132 40000 47574 44180 50000 50144
AAXX 17124 16675 NIL
AAXX 17124 16710 36/// /2316 10122 20081 39312 40066 57023 333 90730 91130
AAXX 17124 16723 11460 71917 10174 20120 30093 40109 57006 69901 76062 85870 333 83818 85625 87358 90730 91126 555 40000 47605 44240 50000 50144 60000 65555 60030 70000 77R// 7R///
AAXX 17124 16738 17/// /2613 10165 20107 39887 40081 57022 69901 7414/ 333 90730 91130 555 60000 65555 60106
AAXX 17124 16746 12560 52617 10186 20077 39930 40109 57020 60001 81132 333 81825 83358 85068 90730 91128 555 40000 47479 44205 50000 50130
AAXX 17121 14241 11482 82104 10017 20007 39854 49985 51014 60011 70276 885// 333 81713 86656
AAXX 17121 14284 11460 62706 10044 20033 39870 49978 52026 60061 72176 84770
AAXX 17121 14307 11782 60601 10082 20022 39920 49996 53016 69901 71416 83510 333 70048 83652 96160 94915
AAXX 17121 14317 NIL
AAXX 17121 14431 12670 72903 10102 20042 39886 49978 51014 60001 84870
AAXX 17121 14444 13880 70202 10098 20059 39950 49979 52010 60041 82536 333
AAXX 17121 14474 12680 43006 10128 20034 39784 49969 58002 60001 82250 333 91119 91528
AAXX 17121 06414 16/// /2805 10057 20031 30047 40080 50013 69921 333 91109 91206
AAXX 17121 06459 36/// /2705 10038 20038 39892 40086 50018 60001 333 91109 91205
AAXX 17121 06494 36/// /2904 11003 21007 39262 40070 50016 60001 333 4/023 91108 91205
AAXX 17124 16643 11458 82123 10166 20149 30033 40038 57017 60031 76362 8577/ 333 82712 85625 88358 90730 91132 555 40000 47556 44220 50000 50156 60000 60028 60300 70000 77R// 7R///
AAXX 17124 16648 12560 60000 10188 20089 39907 49994 57031 60001 81150 333 81830 86358 90730 91107 555 30000 10114 2//// 30096 40082 5//// 6//// 40000 47462 44220 50000 50136
AAXX 17124 16650 12560 52020 10164 20095 39999 40003 57028 60001 81156 333 81820 84358 85068 90730 91145 555 30000 10132 20128 30120 40122 50128 60142 40000 47531 44230 50000 50128
AAXX 17124 16684 12560 61922 10174 20071 39982 40009 57033 60001 82155 333 82825 85358 85068 90730 91141 555 40000 47517 44210 50000 50122
AAXX 17124 16732 12463 82123 10176 20122 30086 40098 57016 60001 8582/ 333 83818 84625 88459 90730 91132 555 40000 47590 44160 50000 50146
AAXX 17121 45007 12650 51403 10158 20086 30000 40240 52013 60002 81531 333 10181 58003 81645 83080
AAXX 17121 45007 12650 51403 10158 20086 30000 40240 52013 60002 81531 333 10181 58003 81645 83080
AAXX 17124 48380 32960 10000 10250 20212 30039 40133 51009 80005 333 10299 5//// 70000
AAXX 17124 48380 32960 10000 10250 20212 30039 40133 51009 80005 333 10299 5//// 70000
AAXX 17121 33088 /1597 71906 10056 20035 39702 49888 57018 70162 87500 555 69901
AAXX 17121 33177 /1562 82102 10037 20020 39656 49889 52003 78082 889// 555 69991
AAXX 17121 33261 /1396 81505 10042 20037 39845 40026 58008 75186 886// 333 88706 555 69911
AAXX 17121 33275 /1495 81408 10031 20023 39837 40060 57005 71086 8435/ 333 84913 555 69971
AAXX 17121 33301 32597 81406 10049 20022 39604 49879 58018 8255/
AAXX 17121 33325 32597 81504 10055 20015 39665 49927 57021 8235/
AAXX 17121 33377 /1215 81304 10045 20040 39833 40025 57009 75154 886// 333 88703 555 69941
AAXX 17121 33415 /1597 71406 10039 20021 39486 49875 57023 70282 85530 333 85626 555 69901
AAXX 17121 33429 /1697 81509 10050 20021 39474 49887 57034 70282 83531 333 83633 555 69911
AAXX 17121 33466 32463 81506 10070 20043 39798 49982 58015 8632/ 333 86917
AAXX 17121 33526 /1560 80803 10066 20030 39532 49861 57016 78082 883// 333 85920 555 69931
AAXX 17121 33562 NIL
AAXX 17121 33614 /1396 81406 10054 20045 39928 40032 58009 72052 886// 333 88707 555 69911
AAXX 17121 33761 31458 81806 10080 20065 39750 49967 57023 71042 886// 333 88710
AAXX 17121 33902 32997 81608 10080 20061 40035 58021 8807/
AAXX 17121 33983 32497 71604 10105 20085 30020 40079 58010 86530 333 86614
AAXX 17121 34415 32470 81806 10033 20009 30016 40113 57005 886//
AAXX 17121 34523 32498 81206 10025 21005 30064 40141 57010 8772/ 333 87717
AAXX 17121 34712 32568 81007 10036 20029 30016 40102 57011 885// 333 88627
AAXX 17121 33135 31396 81508 10063 20049 39802 49977 57009 71022 8762/ 333 87708
AAXX 17121 33317 32498 80908 10043 20024 39563 49893 57024 8557/
AAXX 17121 33506 /1496 81302 10036 20034 39863 40059 57008 76186 8772/ 555 60021
AAXX 17121 33924 32998 81810 10108 20068 30019 40031 57002 8807/
AAXX 17124 78397 111570 50000 10242 20225 30135 40151 60001 70511 81802 333 00009 10310 20224 58007 81824 84074
AAXX 17121 12120 11470 72807 10038 20029 39756 49763 53019 69901 72582 873// 333 91012 91113 93097
AAXX 17121 12250 11584 72505 10044 20011 39743 49830 52030 69901 70282 875// 333 91114 93097
AAXX 17121 12295 11684 82003 10046 20004 39673 49853 51012 69901 70162 8357/ 333 91109 93097
AAXX 17121 12330 11470 72710 10037 20011 39761 49868 51025 69931 70262 875// 333 87615 91018 91119 93093
AAXX 17121 12375 11570 72303 10045 20004 39732 49860 52011 69901 70382 872// 333 91111 93097
AAXX 17121 12424 12699 72809 10042 21004 39754 49905 52015 60001 8583/ 333 91014 91115 93000
AAXX 17121 01271 17/80 00901 11043 21068 39906 49927 51014 6//// 700// 333 91105
AAXX 17121 01415 17768 80101 10025 20015 39907 49917 58001 6//// 781// 333 91106
AAXX 17121 26106 41/97 81206 10043 20026 39781 49823 57019 70282 885// 333 91011 91113
AAXX 17121 26313 43/// /1606 10040 20024 39808 49815 57013 333 91012 91121
AAXX 17121 26346 41497 81405 10006 20005 39648 49890 57007 72272 886// 333 88713 91011 91113 93700
AAXX 17121 26406 41665 81305 10039 20015 39773 49779 57003 70282 885// 333 88643 91113
AAXX 17121 26416 43/// /1404 10038 20019 39668 49804 57002 333 91114
AAXX 17121 26424 41465 81707 10046 20029 39767 49819 57007 70282 885// 333 88619 91010 91114
AAXX 17121 26544 41459 81505 10034 20025 39731 49881 54000 78082 889// 333 85913 91111
AAXX 17124 06030 02580 43107 10041 20003 39901 49917 52010 6///1 84801 333 6///7 82822 83635
AAXX 17124 06060 02570 32705 10035 20016 39864 49929 52010 6///1 83930 333 6///7 81920 81623 83366
AAXX 17124 06070 05581 33113 10036 20004 39887 49917 52016 6///1 333 6///7 81/24 83/70
AAXX 17124 06120 32584 23011 10040 20010 39902 49928 52019 81901 333 81920 82072 91124
AAXX 17124 06180 02580 43217 10050 20012 39870 49876 52020 69941 83501 333 69947 83625 91127
AAXX 17124 06193 07457 83129 10044 20024 39817 49829 52032 69941 75265 333 55300 20115 69907 81/15 85/19 88/24 91142
AAXX 17121 12105 11462 82909 10035 20020 39780 49822 52042 60051 78086 889// 333 88994 91014 91118 93005
AAXX 17121 12195 12680 81905 10042 21002 39611 49833 51005 60001 885// 333 91111 93000
AAXX 17121 12235 11358 82508 10018 20012 39600 49807 52036 60031 76176 8672/ 333 86707 91115 93003
AAXX 17121 12270 11582 72306 10035 20012 39654 49833 52016 69901 78082 873// 333 91011 91115 93097
AAXX 17121 12280 11480 81906 10037 20011 39666 49820 51008 69901 72522 885// 333 91114 93097
AAXX 17121 12300 11475 83005 10034 20019 39796 49885 51034 69941 76062 8652/ 333 91114 93094
AAXX 17121 12400 11582 72806 10026 21003 39669 49903 51025 69921 72682 879// 333 91012 91115 93092
AAXX 17121 12435 11480 82709 10034 21003 39708 49878 51023 69901 70382 875// 333 91015 91117 93097
AAXX 17121 12495 12684 82604 10040 21002 39589 49876 52004 60001 8457/ 333 91113 93000
AAXX 17121 12530 12681 72908 10041 21015 39710 49907 53014 60001 875// 333 91014 91114 93000
AAXX 17121 12570 11581 82704 10034 20003 39571 49885 51005 69901 72522 885// 333 91111 93097
AAXX 17121 12580 11365 72905 10043 20010 39628 49883 55005 69941 76086 875// 333 91111 93094
AAXX 17121 12160 11356 82206 10033 20017 39733 49785 52019 69921 76182 887// 333 91012 91114 93092
AAXX 17121 12205 11580 62707 10046 20018 39871 49879 52035 60031 70362 86300 333 91013 91116 93003
AAXX 17121 12465 11583 82606 10035 20004 39647 49877 52017 69901 70286 875// 333 91114 93097
AAXX 17121 12566 11684 82607 10043 21015 39611 49901 53010 69901 70262 875// 333 93097
AAXX 17124 06011 07575 13114 10013 21052 39986 40056 52013 69941 78087 333 55305 20119 69907 81/30 91132
AAXX 17124 78397 111570 50000 10242 20225 30135 40151 60001 70511 81802 333 00009 10310 20224 58007 81824 84074
AAXX 17124 16320 12560 63211 10150 20106 39993 40005 51000 60001 85130 333 55302 85825 84357 555 0217/
AAXX 17121 37575 42998 50202 10057 21007 39600 40189 57006 85002 555 11007
AAXX 17121 37675 42595 80501 10045 20012 39513 40176 54000 8802/ 555 12006
AAXX 17121 37735 42996 43201 10068 21011 39758 40135 57013 84001 555 10009
AAXX 17121 37749 41596 81102 10074 20055 30093 40210 57017 71042 885// 555 11008
AAXX 17121 37756 41599 22708 10036 20004 39304 40212 57015 70141 82702 555 11005
AAXX 17121 37864 32997 81704 10083 20046 40176 57011 8807/
AAXX 17121 37985 42597 50701 10087 20046 30193 40179 57016 85500 555 10013
AAXX 17124 08141 12575 32807 10074 20013 39381 40249 58001 60001 81140 333 50001
AAXX 17124 08055 12482 52908 10050 20000 39177 48535 50002 60001 85700 333 5///0 95000
AAXX 17124 08075 12668 72207 10032 20014 39194 48525 50002 60001 85520 333 5///1
AAXX 17124 08084 02665 72911 10082 20026 39795 40233 58001 69901 8587/ 333 69907
AAXX 17124 08171 12788 12916 10116 20024 39947 40187 58008 60001 81107
AAXX 17124 08184 06/// /0000 10138 21007 39985 40139 58005 60001 333 60007
AAXX 17124 08202 02465 32708 10069 20023 39332 42867 58003 60001 83100 333 60007
AAXX 17124 08235 NIL
AAXX 17124 08238 12780 53104 10134 20012 30112 40172 58001 60001 81142
AAXX 17124 08280 12980 43115 10082 21013 39403 40234 58005 60001 83045
AAXX 17124 08330 12980 13112 10117 21001 30051 40284 57001 60001 80002
AAXX 17124 08348 12965 62602 10082 20033 39517 40264 58001 60001 86070
AAXX 17124 08360 02984 83010 10128 21009 30172 40209 58005 60001 85047 333 60007
AAXX 17124 08373 NIL
AAXX 17124 08410 02982 22306 10125 20043 30150 40262 58008 60001 80005 333 60007
AAXX 17124 08419 02580 52809 10118 20043 39568 40238 58014 60001 82881 333 60007
AAXX 17124 08451 02980 23412 10154 20065 30242 40275 58005 60001 80001 333 60007
AAXX 17124 08487 02580 41114 10184 20089 30172 40197 58006 60001 83858 333 60007
AAXX 17124 07643 02684 73015 10116 20021 30121 40131 50008 60001 85541 333 60007 85646 90710 91125 555 60005
AAXX 17091 33902 32997 81608 10080 20061 40035 58021 8807/
AAXX 17121 15501 11568 62907 10069 20062 39895 49938 53025 60021 70262 86500 333 10069 20042 555 59602 61499
AAXX 17121 15505 12670 82307 10156 20026 39564 49918 52014 60001 889// 333 10170 20138 91120 555 542//
AAXX 17121 15511 11570 83602 10062 20055 39907 49946 53018 69981 72162 885// 333 10062 20035 555 59501 64499
AAXX 17121 15514 12572 82312 10086 20041 39880 49915 57010 60001 889// 333 10122 20079 555 573//
AAXX 17121 15530 12670 61603 10175 20011 39707 49932 56021 60001 84550 333 10194 20105 555 533//
AAXX 17121 15533 11570 73602 10158 20055 39849 49879 57025 69901 70381 87900 333 10158 20094 555 550//
AAXX 17121 15550 12970 81809 10142 20064 39901 49920 57030 60001 8807/ 333 10144 20071 555 559//
AAXX 17121 15561 12975 61812 10118 20086 39948 49955 57025 60001 80005 222// 00098 2//03 333 10122 20096 555 581// 81339 92046 92448
AAXX 17121 15562 12474 71818 10110 20082 39899 49969 57027 60001 86505 222// 2//03 333 10110 20098 91120 555 583// 92048 92448
AAXX 17121 15601 12770 82003 10122 20046 39338 49932 53004 60001 883// 333 10154 20106 555 560//
AAXX 17121 15605 11672 72307 10092 20038 39123 49938 53002 69921 78022 87900 333 10133 20082 555 56900 67299 71250
AAXX 17121 15613 11/00 92024 11015 21017 37497 47837 57003 60001 74944 333 11015 21044 48025 91134 555 598//
AAXX 17121 15628 12670 63402 10075 20033 39707 49959 57028 60001 85230 333 10075 20020 555 575//
AAXX 17121 15642 12680 51818 10164 20063 39798 49958 57027 60001 82502 333 10176 20092 91118 555 551//
AAXX 17121 15661 12570 51806 10166 20065 39940 49974 57026 60001 85500 222// 00094 20502 333 10174 20078 555 551// 92034 92438
AAXX 17121 15726 11365 72206 10017 20006 38095 48357 54000 69901 76062 87500 333 10035 20003 555 59300 65399 71200
AAXX 17124 71900 46/// /27// 11135 21195 39993 40006 53037 6///1 333 11021 21135 7////
AAXX 17124 71903 NIL
AAXX 17124 71904 NIL
AAXX 17124 71914 16/// /1801 10056 20046 30045 40269 58024 60001 333 10063 20047 70000
AAXX 17124 71916 NIL
AAXX 17124 71918 460// ///// 11278 6///1 333 7////
AAXX 17124 71920 NIL
AAXX 17124 71921 NIL
AAXX 17124 71923 NIL
AAXX 17124 71927 16/// /2001 10050 20043 30211 40269 58017 60001 333 10070 20050 70000
AAXX 17124 71941 15966 02303 11219 21238 39826 40266 51006 60001 333 11013 21231 70000
AAXX 17124 71947 15966 02406 11242 21261 39880 40248 52006 60001 333 11050 21243 70000
AAXX 17124 71603 12574 43205 11012 21050 30112 40166 51011 60001 82570 333 10106 21021 70002
AAXX 17124 71607 16/// /0101 11057 21079 30141 40174 51021 60001 333 10091 21059 70000
AAXX 17124 71609 12674 13602 11073 21118 30035 40172 53016 60001 81500 333 10093 21073 70021
AAXX 17124 71610 15466 63006 11088 21109 39903 40206 53023 60001 333 10083 21088 70005
AAXX 17124 71621 11574 63609 11054 21096 30137 40246 53024 69901 7007/ 83501 333 10065 21055 79999 90999
AAXX 17124 71623 NIL
AAXX 17124 71624 11448 63615 11067 21097 30039 40256 51022 69901 78511 86500 333 10051 21068 45997 55032 70002 90921
AAXX 17124 71625 16964 03007 11127 21190 30099 40266 53014 60001 333 10045 21127 70000
AAXX 17124 71627 11574 23308 11080 21142 30185 40231 53023 69901 70181 81501 333 10091 21080 79999 90951
AAXX 17124 71628 13460 13210 11118 21159 30106 40252 52021 60001 81107 333 10075 21119 4-3001 70006
AAXX 17124 71630 NIL
AAXX 17124 71631 NIL
AAXX 17124 71633 12574 13506 11080 21119 39988 40268 53009 60001 81502 333 10025 21082 42997 55000 70012
AAXX 17124 71705 12674 72604 11061 21090 30073 40162 53013 60001 84571 333 10094 21074 70038
AAXX 17124 71706 12574 73208 11043 21094 30099 40160 53018 60001 86501 333 10095 21044 70054
AAXX 17124 71707 11674 73008 11004 21066 30057 40134 51022 69901 70188 87500 333 10096 21004 70004 90922
AAXX 17124 71709 13580 73215 11038 21091 30129 40142 51027 60002 87500 333 10082 21040 70076 555 10000 20000
AAXX 17124 71711 NIL
AAXX 17124 71714 16/// /2906 11108 21150 30133 40228 53018 60001 333 10063 21112 4/004 70000
AAXX 17124 71715 16/// /3305 11105 21157 30009 40196 52020 60001 333 10063 21106 70000
AAXX 17124 71718 11583 82709 11090 21146 30117 40184 52012 69901 78582 885// 333 10064 21092 45997 70010 90942
AAXX 17124 71719 16/// /3314 11066 21122 30151 40157 51019 60001 333 10060 21075 4/001 70003
AAXX 17124 71102 NIL
AAXX 17124 71105 NIL
AAXX 17124 71107 NIL
AAXX 17124 71110 NIL
AAXX 17124 71111 17758 83305 10060 20054 30121 40129 52014 60021 76144 333 10069 20058 70036
AAXX 17124 71112 16/// ///// 60001 333 70038
AAXX 17124 71113 16/// /1601 10043 20042 30247 40271 56023 60001 333 10064 20043 70006
AAXX 17124 71115 16/// /1003 11012 21017 39689 40283 57011 60001 333 10004 21013 70000
AAXX 17124 71116 NIL
AAXX 17124 71118 16/// /1806 11067 21090 39333 40172 58017 60001 333 10000 21070 70000
AAXX 17124 71121 16864 31704 11023 21086 39311 40141 58026 60001 333 10006 21043 70000
AAXX 17124 71127 16/// /2306 11004 21057 39220 40131 58025 60001 333 10024 21008 4/009 70000
AAXX 17124 71130 15966 12109 11105 21122 39708 40176 50009 60001 333 11035 21105 70000
AAXX 17124 71132 15466 83502 11128 21141 39816 40139 50005 60001 333 11115 21177 70000
AAXX 17124 71133 46/// /2707 11059 21103 39448 40166 58008 6///1 333 11021 21067 7////
AAXX 17124 71139 NIL
AAXX 17124 71141 NIL
AAXX 17124 71142 15966 02014 11047 21061 39223 40211 56007 60001 333 11025 21068 70000
AAXX 17124 71143 NIL
AAXX 17124 71144 NIL
AAXX 17124 71147 16/// /2813 11045 21075 60001 333 11050 21100 70000
AAXX 17124 71149 16/// /3012 11030 21089 60001 333 11029 21068 70000
AAXX 17124 71893 11580 71513 10077 20057 30222 40254 58018 69901 78022 87500 333 10079 20071 55008 70004 90910
AAXX 17124 71397 12574 30000 11032 21070 30132 40167 53013 60001 81571 333 10115 21036 70040
AAXX 17124 71400 16/64 /2712 11028 21061 60001 333 10064 21028 70121
AAXX 17124 71403 46/// /3109 11004 21040 30133 40153 53017 6///1 333 10096 21005 7////
AAXX 17124 71411 16/// /3504 11009 21032 30148 40161 50012 60001 333 10111 21011 70013
AAXX 17124 71412 16/// /3214 11018 21068 30130 40140 51018 60001 333 10093 21018 70029
AAXX 17124 71421 NIL
AAXX 17124 71430 16/// /0207 11035 21067 30138 40237 53023 60001 333 10067 21035 70004
AAXX 17124 71431 16/// /0205 11056 21100 30142 40240 53025 60001 333 10057 21056 70008
AAXX 17124 71432 16/// /3517 11013 21045 30150 40249 51018 60001 333 10055 21014 70000
AAXX 17124 71433 NIL
AAXX 17124 71435 NIL
AAXX 17124 71441 46/// /2812 11055 21078 39847 40163 56008 6///1 333 11065 21091 7////
AAXX 17124 71443 16/// /2109 11078 21108 39740 40160 51014 60001 333 11027 21078 4/005 70000
AAXX 17124 71444 16/// /2702 11099 21108 39390 40165 53008 60001 333 11057 21127 4/009 70000
AAXX 17124 71447 16/// /2806 11077 21097 39642 40201 53008 60001 333 11040 21084 70000
AAXX 17124 71467 16/// /0409 11313 21343 30010 40131 58006 60001 333 11223 21327 4/002 70000 555 10010
AAXX 17124 71472 NIL
AAXX 17124 71474 16964 01909 11014 21028 38970 40224 58012 60001 333 11011 21029 70010
AAXX 17124 71510 16/// /2606 11092 21117 39473 40197 58008 60001 333 11015 21104 70000
AAXX 17124 71538 11569 83506 11016 21065 30028 40264 50002 69901 78522 885// 333 10026 21017 41997 79999 90942
AAXX 17124 71600 16564 83209 10042 21011 30140 40146 53014 60001 333 10121 20041 70060
AAXX 17124 71601 NIL
AAXX 17124 71300 NIL
AAXX 17124 71301 NIL
AAXX 17124 71302 17/// /1813 10017 20013 39316 40135 58012 60071 7//4/ 333 10009 20003 4/032 70203 555 10030
AAXX 17124 71303 46/// ///// 11010 21041 6///1 333 10033 21010 7////
AAXX 17124 71305 15066 80904 11170 21186 39835 40135 58016 60001 333 11068 21173 70000
AAXX 17124 71306 17524 83117 11130 21156 30009 40042 51003 60001 771// 333 11116 21140 70000
AAXX 17124 71307 16/// /3304 11020 21054 30007 40263 51006 60001 333 10021 21020 4/001 70000
AAXX 17124 71308 16/// /2809 11016 21060 30064 40149 53014 60001 333 10105 21016 70032
AAXX 17124 71309 NIL
AAXX 17124 71310 16/// /2908 11032 21082 30110 40147 51017 60001 333 10102 21035 70033
AAXX 17124 71311 NIL
AAXX 17124 71312 NIL
AAXX 17124 71314 16/// /0107 11106 21124 39890 40253 51019 60001 333 10021 21108 4/002 70009 555 10040
AAXX 17124 71315 16/// /2917 11108 21159 30117 40172 53015 60001 333 10040 21109 4/013 70003
AAXX 17124 71316 16/// /1904 11045 21065 39454 40146 58020 60001 333 11005 21079 70000
AAXX 17124 71317 NIL
AAXX 17124 71318 16/// /2005 11097 21121 39213 40181 58020 60001 333 10017 21097 4/001 70000
AAXX 17124 71319 16/// /3201 11152 21171 39281 40171 53014 60001 333 10033 21152 70000
AAXX 17124 71320 16/// /3104 11291 21318 39912 49912 58025 60001 333 11249 21331 4/062 70000
AAXX 17124 71321 NIL
AAXX 17124 71322 NIL
AAXX 17124 71323 16/// /3104 11090 21124 39900 40188 53019 60001 333 10078 21090 70010
AAXX 17124 71331 16/// /2804 11081 21103 60001 333 11085 21131 4/018 55/// 20000 70024 555 10050
AAXX 17124 71332 NIL
AAXX 17124 71334 46/// /3208 11154 21173 39751 40091 53007 6///1 333 11173 21220 7////
AAXX 17124 71335 46962 02837 11184 56006 6///1 333 11075 21186 7////
AAXX 17124 71336 46/// ///23 10031 21008 30013 40035 51050 6///1 333 10073 20030 7////
AAXX 17124 71337 46/// /2911 11043 21068 39795 40031 51064 6///1 333 10045 21043 7////
AAXX 17124 71338 47556 81906 11150 21171 39780 49787 58037 6///1 745// 333 11153 21171 7////
AAXX 17124 71339 16964 02813 11130 21186 39982 49997 53056 60001 333 10027 21131 70015
AAXX 17124 71340 NIL
AAXX 17124 71341 NIL
AAXX 17124 71342 NIL
AAXX 17124 71343 NIL
AAXX 17124 71344 NIL
AAXX 17124 71345 NIL
AAXX 17124 71346 NIL
AAXX 17124 71347 NIL
AAXX 17124 71348 NIL
AAXX 17124 71349 NIL
AAXX 17124 71930 NIL
AAXX 17124 71931 16/// /2817 10008 21031 30012 40024 51070 60001 333 10079 20008 70000
AAXX 17124 71934 11362 81503 11151 21174 39856 40120 58022 69901 77177 885// 333 11131 21152 47020 79999 90973
AAXX 17124 71935 12874 71305 11175 21206 39869 40084 57028 60001 87010 333 11174 21207 44012 79999
AAXX 17124 71936 11374 80903 11181 21207 39835 40104 57022 69901 77171 886// 333 11152 21206 48020 79999 90947
AAXX 17124 71937 NIL
AAXX 17124 71938 11766 80306 11223 21266 30091 40122 58002 69901 77177 885// 333 11201 21238 46024 79999 90983 93101
AAXX 17124 71940 NIL
AAXX 17124 71943 11974 71607 10007 21033 39246 40080 57023 69901 87070 333 10012 21009 79999 90945
AAXX 17124 71944 160// ///// 10008 58016 60001 333 11038 21052 70000
AAXX 17124 71945 12974 70000 11139 21178 39605 40089 57004 60001 86070 333 11134 21171 47011 70000
AAXX 17124 71946 12974 00000 11223 21247 39848 40071 56016 60001 333 11163 21259 48034 79999
AAXX 17124 71948 46061 /0000 11266 30011 40129 57003 6///1 333 11224 21284 7////
AAXX 17124 71949 46/// /1403 11111 21125 39189 40074 51009 6///1 333 11092 21148 7////
AAXX 17124 71951 11/24 93605 11027 21031 39859 40129 55000 60031 77176 333 11024 21039 47045 70082 90983 93102
AAXX 17124 71957 47458 80000 11235 21301 30025 40117 51002 6///1 745// 333 11235 21262 7////
AAXX 17124 71964 12986 72012 11005 21136 39217 40071 52011 60001 87070 333 11006 21053 47020 70000
AAXX 17124 71966 16/// /0000 11286 21319 39625 40108 51014 60001 333 11160 21289 4/031 70000
AAXX 17124 71968 460// /2708 11259 30046 40113 50000 6///1 333 11235 21263 7////
AAXX 17124 71201 16/// ///// 10071 20051 60001 333 10067 20059 70066
AAXX 17124 71202 16/// ///// 11041 21074 60001 333 10043 21054 70007
AAXX 17124 71203 15566 81411 10011 21020 39766 40297 58009 60001 333 10010 20002 70000
AAXX 17124 71209 46/// /1311 10056 6///1 333 10076 20054 7////
AAXX 17124 71211 46/// /0604 10061 20057 30254 40266 58021 6///1 333 10057 20047 7////
AAXX 17124 71212 16/// /3303 11155 21189 39348 40181 53013 60001 333 10032 21155 4/014 70003
AAXX 17124 71213 46/// /2403 11193 21210 39956 40273 51002 6///1 333 10001 21193 7////
AAXX 17124 71214 NIL
AAXX 17124 71215 NIL
AAXX 17124 71216 16/// /1204 10005 21003 39668 40297 58008 60001 333 10013 21001 4/007 70022 555 10040
AAXX 17124 71217 NIL
AAXX 17124 71218 16/// /2002 11005 21013 39846 40282 58007 60001 333 10013 21007 4/002 70006
AAXX 17124 71219 46/// /1103 10044 20037 30107 40113 52016 6///1 333 10076 20038 7////
AAXX 17124 71220 46/// /3413 10041 20034 6///1 333 10064 20039 7////
AAXX 17124 71221 NIL
AAXX 17124 71222 16/// /0000 11154 21169 39163 40159 53004 60001 333 11116 21154 4/025 70000
AAXX 17124 71223 NIL
AAXX 17124 71224 NIL
AAXX 17124 71225 NIL
AAXX 17124 71226 NIL
AAXX 17124 71227 NIL
AAXX 17124 71228 NIL
AAXX 17124 71229 NIL
AAXX 17124 71230 16/// /1702 10007 21007 39200 40090 58018 60001 333 10019 21015 4/005 70000
AAXX 17124 71231 16/// /2305 11002 21030 60001 333 10044 21044 70000
AAXX 17124 71232 16/// /2307 10042 21050 38670 40167 58006 60001 333 10033 20004 70000
AAXX 17124 71233 16/// /1405 10009 21075 60001 333 10045 21030 70000
AAXX 17124 71234 16/// /2513 10056 21018 39002 40189 56011 60001 333 10049 20013 4/006 70000
AAXX 17124 71235 16/// /2404 10035 21045 60001 333 10054 20009 70000
AAXX 17124 71236 46/// /3008 10028 21025 6///1 333 10024 20008 7////
AAXX 17124 71237 46/// /1604 11125 21136 39349 40187 58018 6///1 333 11002 21143 7////
AAXX 17124 71238 16/// /2102 11022 21060 60001 333 10035 21035 4/001 70000
AAXX 17124 71239 16/// /2709 11072 21092 39704 40181 53004 60001 333 11057 21093 4/002 70000 555 10010
AAXX 17124 71240 16/// ///// 11088 21108 39330 40196 58015 60001 333 10004 21108 70000
AAXX 17124 71241 NIL
AAXX 17124 71242 16/// /1803 11096 21106 60001 333 11009 21101 4/007 70000
AAXX 17124 71243 NIL
AAXX 17124 71244 NIL
AAXX 17124 71245 NIL
AAXX 17124 71246 NIL
AAXX 17124 71247 15966 02207 11023 21043 39332 40198 58016 60001 333 10013 21062 70000
AAXX 17124 71248 16/// /0000 11083 21107 38849 40171 58019 60001 333 10004 21116 4/020 70000
AAXX 17124 71249 NIL
AAXX 17124 71114 160// /0000 10041 20040 30227 40276 56022 60021 333 10062 20036 70025
AAXX 17124 71120 12974 81702 11058 21087 39500 40167 57013 60001 8802/ 333 11010 21077 42004 79999
AAXX 17124 71122 46/// /2309 11023 21055 38599 40224 58023 6///1 333 21036 4/010 7////
AAXX 17124 71123 12974 81709 11013 21052 39273 40146 58025 60001 85027 333 10003 21044 44004 70000
AAXX 17124 71125 13974 42407 11094 21105 39577 40176 56010 60002 80002 333 48001 70002
AAXX 17124 71129 12974 21703 11086 21103 39349 40200 58012 60001 80001 333 11003 21096 70000
AAXX 17124 71131 16/// /2907 11073 21079 38936 40223 58011 60001 333 11055 21085 70000
AAXX 17124 71135 16/// /2904 11064 21093 39120 40235 51001 60001 333 11055 21098 4/005 70000
AAXX 17124 71137 16/// /0802 11177 21194 39262 40250 57006 60001 333 11067 21187 70000
AAXX 17124 71140 11974 02712 11077 21094 39666 40181 5/006 69901 70277 333 11046 21086 46997 79999 90962
AAXX 17124 71145 11474 81505 11133 21150 39799 40102 58016 69901 77177 88500 333 11132 21146 48035 70002 90973
AAXX 17124 71148 NIL
AAXX 17124 71185 17448 93012 11075 30044 40068 51057 60001 745// 333 10077 21075 70105
AAXX 17124 71188 11574 83006 11094 21159 30109 40152 52026 69901 70271 885// 333 10048 21094 43014 55007 70004 90931
AAXX 17124 71200 16/// /0803 10059 20053 60001 333 10075 20058 70000
AAXX 17124 71207 17/// /0302 10021 30202 40267 56021 69981 7//4/ 333 10025 20014 70102
AAXX 17124 71260 13/// ///// 11137 21156 30032 40279 56004 60001 333 10022 21139 46001 70002
AAXX 17124 71726 16/// /2904 11202 21223 39673 40241 52016 60001 333 10003 21202 4/010 70000
AAXX 17124 71727 11574 43010 11152 21193 30019 40224 52022 69901 70277 84500 333 10009 21155 48024 70020 90932
AAXX 17124 71728 12582 23104 11179 21220 30006 40237 52024 60001 82500 333 10038 21180 44997 79999
AAXX 17124 71730 11574 12704 11180 21191 39831 40278 53001 60001 81500 333 10003 21180 46997 79999
AAXX 17124 71731 11474 30000 11170 21189 39796 40269 52007 69901 72681 82570 333 10004 21171 43001 79999 90947
AAXX 17124 71735 NIL
AAXX 17124 71738 13474 80000 11222 21234 39898 40274 56013 60002 886// 333 11105 21236 43017 70000 555 19999 29999 33420 40080
AAXX 17124 71739 42874 12202 11237 21278 39880 40266 58003 6//// 81070 333 11086 21239 4//// 7////
AAXX 17124 71749 16564 62404 11212 21221 39978 40239 58032 60001 333 11117 21227 70000
AAXX 17124 71799 12366 80000 10054 20053 30247 40271 57017 60001 885// 333 10082 20036 55000 79999
AAXX 17124 71800 16/// /2723 10023 20006 30055 40088 53034 60001 333 10064 20019 70108
AAXX 17124 71801 12574 72718 10017 21003 39893 40065 53044 60001 87500 333 10073 20014 70108
AAXX 17124 71803 12480 72714 11004 21047 39865 40050 53061 60001 87500 333 10067 21005 41997 70064
AAXX 17124 71807 NIL
AAXX 17124 71808 NIL
AAXX 17124 71809 11459 82611 11039 21075 30047 40074 51053 69921 77176 885// 333 10078 21040 41997 70052 90983
AAXX 17124 71810 16/// /3006 11111 21168 30070 40138 53018 60001 333 10025 21113 70003
AAXX 17124 71811 NIL
AAXX 17124 71813 NIL
AAXX 17124 71814 16/// /3007 11132 21174 30080 40090 51045 60001 333 10032 21132 70047
AAXX 17124 71815 12474 82815 11035 21090 30072 40103 51041 60001 885// 333 10074 21036 41997 70098
AAXX 17124 71043 11580 50000 11278 21327 30020 40118 52003 69901 77677 82530 333 11229 21292 48021 79999 90983
AAXX 17124 71045 16/// /3501 11116 21127 39230 40105 54000 60001 333 21142 4/022 7////
AAXX 17124 71050 NIL
AAXX 17124 71051 NIL
AAXX 17124 71052 NIL
AAXX 17124 71066 NIL
AAXX 17124 71068 11866 81904 11032 21046 39404 40104 58026 69901 76662 8801/ 333 11013 21094 47005 79999
AAXX 17124 71069 17664 31404 11046 21053 39414 40127 58026 60001 743// 333 11001 21077 70000
AAXX 17124 71076 16/// /0501 11198 21219 39736 40142 57008 60001 333 11119 21202 4/028 55/// 20000 70000
AAXX 17124 71077 16/// /2103 11134 21147 39615 40167 57013 60001 333 11032 21144 4/010 55/// 20000 70000
AAXX 17124 71079 11474 72704 11132 21148 39813 40100 55000 69901 77177 87500 333 11138 21156 48006 79999 90983
AAXX 17124 71081 46048 83210 11291 21331 39908 49920 58025 6///1 333 11243 21330 7////
AAXX 17124 71082 NIL
AAXX 17124 71083 11974 03215 11294 21338 30045 40089 57009 69901 77677 333 11224 21299 48052 79999 90983
AAXX 17124 71090 47002 83132 11169 21197 39842 49877 58035 6///1 745// 333 11152 21292 7////
AAXX 17124 71091 460// /3213 11204 39637 49847 56035 6///1 333 7////
AAXX 17124 71092 46420 83409 11183 39148 49810 56027 6///1 333 11206 21240 7////
AAXX 17124 71093 460// /3425 11149 39302 49792 58033 6///1 333 11174 21187 7////
AAXX 17124 71094 46014 /0406 11134 38865 49738 57029 6///1 333 11095 21137 7////
AAXX 17124 71095 46950 80914 11132 21177 39862 49941 58015 6///1 333 11109 21151 7////
AAXX 17124 71101 160// /3404 30121 53014 60001 333 70000
AAXX 17124 71104 12774 51418 10006 21009 39064 40181 58020 60001 85500 333 10005 21016 43038 70130
AAXX 17124 71108 11328 80403 10048 20045 30200 40273 57022 60001 71022 885// 333 10067 20045 70024
AAXX 17124 71109 11574 81211 10084 20059 30162 40189 56022 69901 70266 885// 333 10074 20065 70374 90953
AAXX 17124 71401 16/// /1302 11009 21021 39620 40321 58007 60001 333 11004 21015 70006
AAXX 17124 71402 NIL
AAXX 17124 71404 NIL
AAXX 17124 71405 NIL
AAXX 17124 71406 NIL
AAXX 17124 71407 NIL
AAXX 17124 71408 NIL
AAXX 17124 71409 NIL
AAXX 17124 71410 17466 83010 11090 21109 39824 40110 53013 60001 771// 333 11093 21149 70008
AAXX 17124 71413 NIL
AAXX 17124 71414 NIL
AAXX 17124 71415 16/// /3314 11019 21068 30142 40145 51017 60001 333 10113 21019 70022
AAXX 17124 71417 NIL
AAXX 17124 71418 NIL
AAXX 17124 71419 46/// /2915 10006 21038 30132 40142 53017 6///1 333 10098 20006 7////
AAXX 17124 71423 NIL
AAXX 17124 71424 46/// /3208 6///1 333 7////
AAXX 17124 71425 NIL
AAXX 17124 71426 NIL
AAXX 17124 71427 16/// /2906 11114 21163 30172 40180 52017 60001 333 10019 21121 70011
AAXX 17124 71428 NIL
AAXX 17124 71429 NIL
AAXX 17124 71434 NIL
AAXX 17124 71436 15966 63509 11068 21109 30007 40248 51019 60001 333 10042 21068 70000
AAXX 17124 71437 46/// /3111 11021 21085 30153 40250 51018 6///1 333 10044 21022 7////
AAXX 17124 71438 NIL
AAXX 17124 71439 NIL
AAXX 17124 71440 NIL
AAXX 17124 71442 16/// /2707 11049 21072 39817 40139 53006 60001 333 11050 21136 70000
AAXX 17124 71445 NIL
AAXX 17124 71446 16/// /2211 11053 21077 39207 40204 58011 60001 333 11020 21085 70000
AAXX 17124 71448 16/// /2606 11043 21063 39796 40133 56020 60001 333 11099 21123 70000
AAXX 17124 71449 16/// /2208 11055 21072 39746 40158 58011 60001 333 11086 21123 70000
AAXX 17124 71744 NIL
AAXX 17124 71750 16/// /0505 11200 21221 39998 40246 57020 60001 333 11114 21226 4/006 70000
AAXX 17124 71751 NIL
AAXX 17124 71752 NIL
AAXX 17124 71753 16/// /2803 11037 21060 30120 40149 51018 60001 333 10124 21037 70043
AAXX 17124 71754 16/// /1502 11106 21120 39514 40193 58008 60001 333 10005 21133 55/// 20000 70000
AAXX 17124 71755 43/// /1903 11140 21165 39764 40122 56031 6///1 333 11162 21240 7////
AAXX 17124 71756 16/// /0702 10010 20008 39146 40251 56018 60001 333 10005 20000 4/051 70004 555 10010
AAXX 17124 71758 NIL
AAXX 17124 71760 NIL
AAXX 17124 71761 NIL
AAXX 17124 71762 NIL
AAXX 17124 71763 NIL
AAXX 17124 71765 16/// /1919 10076 20031 39947 40222 58004 60001 333 10098 20071 70000
AAXX 17124 71766 16/// /1602 10059 20050 30179 40251 57018 60001 333 10078 20058 70000
AAXX 17124 71767 16/// /0103 11088 21136 30005 40275 53006 60001 333 10021 21090 4/001 70005
AAXX 17124 71768 46/// /2603 11013 21036 39748 40310 58008 6///1 333 10005 21015 7////
AAXX 17124 71769 16/// /1118 10075 20064 30230 40246 58020 60001 333 10076 20071 70000
AAXX 17124 71770 16/// /3602 11006 21010 39526 40316 58009 60001 333 10010 21011 70000
AAXX 17124 71771 NIL
AAXX 17124 71772 16/// /1412 10074 20065 30249 40255 57018 60001 333 10079 20072 70000
AAXX 17124 71773 16/// /1301 11041 21114 39215 40073 51013 60001 333 10000 21053 4/022 70000
AAXX 17124 71774 46/// ///// 10043 6///1 333 10057 20040 7////
AAXX 17124 71775 46/// /2402 10049 20044 30269 40275 56023 6///1 333 10052 20048 7////
AAXX 17124 71776 46/// /2606 10015 21009 39660 40316 55007 6///1 333 10010 20002 7////
AAXX 17124 71777 17/// ///// 11001 21002 30007 40264 58020 69981 7//4/ 333 10004 21004 4/011 70016
AAXX 17124 71778 46/// /0214 6///1 333 7////
AAXX 17124 71779 16/// /1208 10023 20006 39501 40164 58016 60001 333 10022 20007 4/033 70225 555 10080
AAXX 17124 71780 16/// /0901 10059 20048 30239 40267 58022 60001 333 10072 20058 70000
AAXX 17124 71781 46/// /1226 10077 20057 30214 40239 58026 6///1 333 10079 20073 7////
AAXX 17124 71782 46/// /1710 10016 21003 38919 40260 58011 6///1 333 10011 20000 7////
AAXX 17124 71783 16/// /0902 10061 20055 30190 40264 56020 60001 333 10076 20055 70002
AAXX 17124 71784 16/// /0402 10059 20053 30056 40263 58019 60001 333 10071 20058 70046
AAXX 17124 71785 16/// /0601 10065 20054 30261 40277 58022 60001 333 10085 20061 70022
AAXX 17124 71786 46/// /2719 11059 21067 38410 40282 55005 6///1 333 11063 21068 7////
AAXX 17124 71787 16/// /3204 11099 21122 39654 40151 53013 60001 333 10074 21099 70064
AAXX 17124 71788 NIL
AAXX 17124 71789 NIL
AAXX 17124 71791 NIL
AAXX 17124 71792 NIL
AAXX 17124 71793 NIL
AAXX 17124 71794 NIL
AAXX 17124 71795 NIL
AAXX 17124 71796 NIL
AAXX 17124 71797 NIL
AAXX 17124 71500 NIL
AAXX 17124 71501 NIL
AAXX 17124 71502 NIL
AAXX 17124 71503 NIL
AAXX 17124 71504 NIL
AAXX 17124 71505 46/// /0204 11033 21091 39339 40066 53013 6///1 333 10021 21074 7////
AAXX 17124 71506 NIL
AAXX 17124 71507 16/// /2106 11070 21088 60001 333 11026 21126 70000
AAXX 17124 71508 16/// ///// 11050 21101 30120 40261 51023 60001 333 10063 21052 70000
AAXX 17124 71509 NIL
AAXX 17124 71511 16/// /2603 11120 21133 39551 40206 51010 60001 333 11035 21125 55/// 20000 70000
AAXX 17124 71512 16/// /3103 11173 21187 30130 40144 51020 60001 333 10027 21173 70012
AAXX 17124 71513 15966 02907 11138 21178 30109 40125 51035 60001 333 10033 21141 70020
AAXX 17124 71514 NIL
AAXX 17124 71515 16/// /2710 11089 21106 39486 40204 52009 60001 333 11038 21097 55/// 20000 70000
AAXX 17124 71516 16/// /2903 11120 21138 60001 333 11043 21120 70000
AAXX 17124 71517 NIL
AAXX 17124 71518 NIL
AAXX 17124 71519 NIL
AAXX 17124 71520 NIL
AAXX 17124 71521 NIL
AAXX 17124 71522 NIL
AAXX 17124 71523 NIL
AAXX 17124 71524 16/// /3307 11097 21140 30213 40240 53022 60001 333 10086 21097 70000
AAXX 17124 71525 NIL
AAXX 17124 71526 NIL
AAXX 17124 71527 17/16 /2014 11088 21099 39633 58039 60001 771// 333 11126 21158 70000
AAXX 17124 71528 NIL
AAXX 17124 71529 46/// /0000 11172 21195 39891 40125 58012 6///1 333 11134 21178 4/014 7//// 555 10010
AAXX 17124 71532 15466 83604 11114 21133 39905 40261 51016 60001 333 10022 21120 70000
AAXX 17124 71534 17556 83202 11096 21109 39981 40261 51015 69951 74544 333 10055 21097 70010
AAXX 17124 71535 NIL
AAXX 17124 71536 NIL
AAXX 17124 71537 NIL
AAXX 17124 71539 NIL
AAXX 17124 71540 NIL
AAXX 17124 71541 NIL
AAXX 17124 71542 16/// /0402 11137 21151 60001 333 11019 21155 70000
AAXX 17124 71543 NIL
AAXX 17124 71544 NIL
AAXX 17124 71545 16/// ///// 11043 21063 60001 333 10012 21063 70006
AAXX 17124 71546 NIL
AAXX 17124 71547 NIL
AAXX 17124 71548 NIL
AAXX 17124 71549 NIL
AAXX 17124 71864 NIL
AAXX 17124 71865 16/// /2608 11081 21109 39500 40194 51006 60001 333 11033 21084 70000
AAXX 17124 71866 46964 02205 11107 21128 39572 40202 58002 6///1 333 11028 21121 7////
AAXX 17124 71867 11474 82912 11056 21070 39794 40134 52010 69901 70277 885// 333 11052 21091 48025 70016 90941
AAXX 17124 71868 16/// /2307 11080 21104 39711 40160 50013 60001 333 11046 21081 70000
AAXX 17124 71869 12974 12704 11093 21114 39649 40186 52004 60001 80001 333 11030 21096 47005 79999
AAXX 17124 71871 15966 12207 11063 21082 39356 40176 58015 60001 333 10013 21080 70000
AAXX 17124 71877 12974 61802 11020 21060 38904 40183 57014 60001 80002 333 10062 21020 42001 70000
AAXX 17124 71878 12974 02006 11107 21117 39084 40183 58020 60001 333 11012 21127 48012 70000
AAXX 17124 71879 16864 61402 11019 21063 39331 40142 58027 60001 333 10009 21037 70000
AAXX 17124 71880 12482 61509 10006 21012 39158 40283 58012 60001 81670 333 11013 21023 47005 70000
AAXX 17124 71882 160// /1414 10012 20004 39747 40295 58009 60031 333 10014 20006 70045
AAXX 17124 71883 46/// /0000 11017 21020 39422 40256 58012 6///1 333 11016 21020 7////
AAXX 17124 71887 12986 80905 10016 21008 39827 40255 57010 60001 8807/ 333 10023 20009 47004 70000
AAXX 17124 71889 12574 81816 10007 21022 39883 40311 58006 60001 81571 333 10011 20006 45001 79999
AAXX 17124 71891 16964 01922 10077 20037 39949 40223 58004 60001 333 10099 20073 70005
AAXX 17124 71892 11469 81006 10062 20050 30266 40271 58020 69901 70262 885// 333 10072 20062 55000 70038 90961
AAXX 17124 71893 11580 71513 10077 20057 30222 40254 58018 69901 78022 87500 333 10079 20071 55008 79999 90910
AAXX 17124 71894 17/// /1014 10078 20078 30230 40239 58016 60111 7//4/ 333 10089 20078 70316
AAXX 17124 71896 17766 81815 10017 20004 39305 40138 58013 60061 70044 333 10009 20002 70194
AAXX 17124 71897 11X04 81430 10090 20079 3//// 4//// 57001 60541 76566 333 10080 20075 70538
AAXX 17124 71898 160// ///// 10045 51014 60101 333 10070 20042 70135
AAXX 17124 71899 11574 82805 10050 20050 3//// 4//// 53009 60011 70262 8257X 333 10079 20050 70114 90941
AAXX 17124 71902 12574 22923 11136 21204 39982 49991 52011 60022 82530 333 11042 21135 43021 70034 555 10040 20040
AAXX 17124 71905 NIL
AAXX 17124 71906 11674 12306 11204 21228 39964 40016 51003 69901 70311 81500 333 11079 21216 48015 70022 90931
AAXX 17124 71907 17314 93114 11162 21189 30013 40046 53003 69951 745// 333 11138 21166 70010
AAXX 17124 71909 16964 03307 11256 21294 39817 49861 55002 60001 333 11117 21256 70000
AAXX 17124 71910 46964 32806 11217 21263 39847 49910 56003 6///1 333 11155 21222 7////
AAXX 17124 71911 47511 82818 11276 39969 40027 57006 6///1 745// 333 11234 21292 7////
AAXX 17124 71912 11474 72005 11174 21204 39904 40094 56016 69901 77171 87500 333 11144 21202 47013 79999 90946
AAXX 17124 71915 11974 03312 11275 21322 39881 49965 58010 69901 77677 333 11240 21292 48044 55/// 79999 90983
AAXX 17124 71917 11974 00000 11399 21434 30088 40103 58009 69901 77677 333 11361 21410 43013 55/// 10172 20000 79999 90993
AAXX 17124 71922 12974 02507 11104 21114 39683 40159 57001 60001 333 11054 21104 70006
AAXX 17124 71924 NIL
AAXX 17124 71925 11574 33206 11272 21314 30069 40112 58011 69901 77677 83500 333 11279 21312 42017 79999 90983
AAXX 17124 71926 11574 33113 11267 21322 30082 40107 55007 69901 77677 83500 333 11225 21294 48043 79999 90973
AAXX 17124 71928 NIL
AAXX 17124 71700 15966 83108 11057 21123 30148 40174 53015 60001 333 10086 21060 70023
AAXX 17124 71701 12774 73105 11061 21123 30109 40172 53014 60001 81510 333 10089 21066 70020
AAXX 17124 71702 16/// /3203 11061 21091 30136 40151 53013 60001 333 10083 21065 70027 555 10010
AAXX 17124 71703 12574 83306 11111 21147 39875 40181 52012 60003 885// 333 10047 21117 42005 55/// 70012 555 10000 20000 33037 40191
AAXX 17124 71704 17666 83308 11021 21082 30036 40262 51003 69981 7004/ 333 10008 21022 70019
AAXX 17124 71710 NIL
AAXX 17124 71712 16/// /3106 11084 21128 30174 40237 53023 60001 333 10085 21084 70000
AAXX 17124 71713 16/// /0105 11082 21129 60001 333 10072 21082 70000
AAXX 17124 71716 NIL
AAXX 17124 71717 NIL
AAXX 17124 71720 16/// /1208 10072 20044 30104 40258 58021 60001 333 10071 20064 70000
AAXX 17124 71721 16/// /3205 11146 21172 39996 40252 53014 60001 333 10038 21147 70000
AAXX 17124 71723 NIL
AAXX 17124 71724 16/// /3309 11092 21138 30218 40226 52021 60001 333 10079 21093 70000
AAXX 17124 71732 16/// /2805 11150 21178 60001 333 10017 21150 70000
AAXX 17124 71733 16/// /2601 11185 21201 39824 40283 53001 60001 333 10004 21190 4/002 70000
AAXX 17124 71734 NIL
AAXX 17124 71736 NIL
AAXX 17124 71737 NIL
AAXX 17124 71741 16/// /0805 10009 21016 39823 40251 58011 60001 333 10015 21002 70000
AAXX 17124 71742 NIL
AAXX 17124 71743 NIL
AAXX 17124 71744 NIL
AAXX 17124 71745 NIL
AAXX 17124 71746 NIL
AAXX 17124 71747 NIL
AAXX 17124 71748 NIL
AAXX 17124 71051 NIL
AAXX 17124 71055 NIL
AAXX 17124 71057 NIL
AAXX 17124 71059 460// ///// 11266 30035 40130 58004 6///1 333 11208 21283 7////
AAXX 17124 71061 16/// /2601 11030 21041 39333 40121 58027 60001 333 10004 21055 70000
AAXX 17124 71062 46/// /2104 11008 21070 39043 40110 58026 6///1 333 10021 21011 4/014 7//// 555 10010
AAXX 17124 71064 460// /0103 11223 39886 40109 58010 6///1 333 11212 21251 7////
AAXX 17124 71065 NIL
AAXX 17124 71067 NIL
AAXX 17124 71070 NIL
AAXX 17124 71073 NIL
AAXX 17124 71074 NIL
AAXX 17124 71075 NIL
AAXX 17124 71078 17466 83011 11100 21111 39654 40107 51009 60001 771// 333 11116 21155 70000
AAXX 17124 71084 460// ///// 11296 30045 40095 55004 6///1 333 11278 21305 7////
AAXX 17124 71085 15966 02810 10040 21013 38843 40232 53023 60001 333 10039 20021 70000
AAXX 17124 71087 NIL
AAXX 17124 71088 460// /3218 11250 56026 6///1 333 11221 21266 7////
AAXX 17124 71089 NIL
AAXX 17124 71096 460// ///// 11152 39061 49784 58031 6///1 333 11165 21190 7////
AAXX 17124 71097 47948 02915 11182 39349 49820 58005 6///1 745// 333 11121 21182 7////
AAXX 17124 71098 43/// /1403 11127 21139 39736 40107 56026 6///1 333 11142 21164 7////
AAXX 17124 71099 43/// /2207 11240 21281 30108 40129 58025 6///1 333 11218 21252 7////
AAXX 17124 71604 17/// /3112 11064 21071 69961 7//4/ 333 10074 21064 4/010 70111
AAXX 17124 71605 16/// /3302 10076 20070 30114 40265 58018 60001 333 10067 20056 70101
AAXX 17124 71611 NIL
AAXX 17124 71612 16/// /0207 11079 21144 30138 40231 53025 60001 333 10090 21079 70000
AAXX 17124 71614 16/// /3106 11076 21121 30151 40218 53025 60001 333 10096 21077 70000
AAXX 17124 71616 16/// /3304 11097 21129 30103 40227 53020 60001 333 10093 21097 70000
AAXX 17124 71617 16/// /2910 11156 21187 30055 40234 51021 60001 333 10037 21156 70003
AAXX 17124 71618 17424 82903 11202 21222 30048 40087 56014 69981 77144 333 11222 21262 70008
AAXX 17124 71619 NIL
AAXX 17124 71622 NIL
AAXX 17124 71632 46/// /3210 11102 21115 39656 40105 51009 6///1 333 11117 21192 4/011 7////
AAXX 17124 71634 16/// /3202 11098 21139 30015 40172 52015 60001 333 10058 21098 4/008 70003
AAXX 17124 71638 16/// /3202 10067 20046 30153 40259 58017 60001 333 10083 20066 70025
AAXX 17124 71639 11574 73408 11071 21134 30008 40256 51019 69901 72222 81570 333 10058 21072 45997 79999 90942
AAXX 17124 71642 13974 02004 11246 21283 39694 40275 57008 60001 333 11090 21259 48023 79999
AAXX 17124 71550 NIL
AAXX 17124 71551 NIL
AAXX 17124 71552 NIL
AAXX 17124 71553 NIL
AAXX 17124 71554 16/// /2812 11088 21141 30184 40190 53014 60001 333 10048 21089 70015
AAXX 17124 71555 16/// /2816 10054 21037 38621 40183 58012 60001 333 10046 20010 70000
AAXX 17124 71556 16/// /2403 11128 21139 39589 40212 51008 60001 333 11039 21130 4/002 70000
AAXX 17124 71557 46/// /2105 10090 20018 6///1 333 10082 20033 7////
AAXX 17124 71558 46/// ///// 11103 21141 39977 40014 53069 6///1 333 10025 21103 7////
AAXX 17124 71559 46/// /2304 11106 21120 39500 40220 53003 6///1 333 11035 21106 55/// 20000 7////
AAXX 17124 71560 16/// /2208 11089 21101 39856 40172 56011 60001 333 11068 21101 70000
AAXX 17124 71563 NIL
AAXX 17124 71564 16/// /2710 11054 21081 39792 40169 53002 60001 333 11043 21086 70000
AAXX 17124 71565 NIL
AAXX 17124 71566 NIL
AAXX 17124 71567 NIL
AAXX 17124 71568 17/// /1213 10080 20058 30221 40233 58024 69941 7//4/ 333 10073 20062 70074
AAXX 17124 71569 16/// /2607 11104 21121 39482 40203 52002 60001 333 11028 21104 70000
AAXX 17124 71570 16/// /2509 11045 21067 39818 40136 55017 60001 333 11094 21113 70000
AAXX 17124 71571 NIL
AAXX 17124 71572 NIL
AAXX 17124 71573 16/// /3503 11043 21075 39958 40247 51014 60001 333 10015 21044 70009
AAXX 17124 71574 11574 53006 11094 21219 30095 40170 53017 69901 70388 81530 333 10059 21094 43020 79999 90922
AAXX 17124 71575 NIL
AAXX 17124 71576 16/// /0814 11132 21186 39858 49942 58015 60001 333 11107 21148 4/002 55/// 20000 70000
AAXX 17124 71577 NIL
AAXX 17124 71578 16/// /2604 11095 21141 60001 333 10056 21095 70000
AAXX 17124 71579 NIL
AAXX 17124 71580 12562 83119 11234 21269 39976 40013 58007 60001 885// 333 11214 21279 43030 70000
AAXX 17124 71581 NIL
AAXX 17124 71582 17448 81713 10094 20085 30099 40152 57009 60381 76244 333 10090 20086 71144
AAXX 17124 71583 NIL
AAXX 17124 71584 15966 02808 11144 21179 30090 40139 52024 60001 333 10023 21146 70005
AAXX 17124 71585 NIL
AAXX 17124 71586 16/// /2603 11103 21116 39682 40157 58001 60001 333 11055 21103 4/029 70003
AAXX 17124 71587 NIL
AAXX 17124 71588 16/// /2708 11060 21078 60001 333 10049 21060 70000
AAXX 17124 71589 16/// /2812 10000 21037 39917 40048 51058 60001 333 10065 20000 70083
AAXX 17124 71590 16/// /3506 11105 21148 39985 40182 51012 60001 333 10049 21120 4/009 70000
AAXX 17124 71592 NIL
AAXX 17124 71593 NIL
AAXX 17124 71596 NIL
AAXX 17124 71598 16/64 /3013 11077 21130 30155 40161 51020 60001 333 10061 21077 4/001 70004
AAXX 17124 71599 16/// /0301 11033 21044 39960 40165 50013 60001 333 10096 21034 70031
AAXX 17124 71450 NIL
AAXX 17124 71451 NIL
AAXX 17124 71452 46/// /2606 11085 21104 39489 40220 52005 6///1 333 11024 21088 7////
AAXX 17124 71453 16/// /2508 10007 21029 39277 40201 58014 60001 333 10016 21090 4/003 55/// 20000 70000
AAXX 17124 71454 NIL
AAXX 17124 71455 46/// /2410 11067 21086 39394 40209 56002 6///1 333 11016 21078 7////
AAXX 17124 71456 NIL
AAXX 17124 71457 16/// /1704 11087 21091 39273 40187 58018 60001 333 11008 21131 4/015 70000
AAXX 17124 71458 16/// /1707 11053 21072 39378 40162 58019 60001 333 10029 21065 4/006 70000
AAXX 17124 71459 16/// /1005 11128 21145 39372 40205 58013 60001 333 11037 21137 70000
AAXX 17124 71460 16/// /3604 11134 21163 30036 40288 53005 60001 333 10015 21135 70000
AAXX 17124 71461 NIL
AAXX 17124 71462 NIL
AAXX 17124 71463 46/// /3512 11023 21096 30024 40253 51019 6///1 333 10028 21024 7////
AAXX 17124 71464 NIL
AAXX 17124 71465 NIL
AAXX 17124 71466 NIL
AAXX 17124 71468 NIL
AAXX 17124 71470 NIL
AAXX 17124 71471 17866 81807 10032 21006 39294 40085 58024 60021 7004/ 333 10023 21055 70025
AAXX 17124 71473 16/// /0906 10052 20038 30239 40269 57020 60001 333 10065 20048 70002
AAXX 17124 71475 17/// /2902 10036 20033 30172 40267 58017 60011 7//4/ 333 10060 20025 70012
AAXX 17124 71476 NIL
AAXX 17124 71477 17/// /3106 10051 20047 60011 7//4/ 333 10063 20041 70108
AAXX 17124 71478 NIL
AAXX 17124 71479 NIL
AAXX 17124 71480 NIL
AAXX 17124 71481 NIL
AAXX 17124 71482 NIL
AAXX 17124 71483 NIL
AAXX 17124 71484 NIL
AAXX 17124 71485 17/// /1324 10081 20066 30158 40178 56012 69941 7//4/ 333 10072 20065 70232
AAXX 17124 71486 16/// /1407 10024 21025 38971 40174 58020 60001 333 10026 21010 4/017 70000
AAXX 17124 71487 16/// /2505 11076 21093 39331 40219 58004 60001 333 11024 21077 70000
AAXX 17124 71489 16/// /1602 11113 21128 39377 40201 58008 60001 333 11003 21113 70000
AAXX 17124 71490 NIL
AAXX 17124 71491 16/// /14// 11274 21304 60001 333 11049 21307 70009
AAXX 17124 71492 NIL
AAXX 17124 71493 16/// /2802 11061 21076 30118 40157 53014 60001 333 10105 21064 70031
AAXX 17124 71494 16/// /3006 11121 21141 39655 40190 51016 60001 333 10068 21121 70020
AAXX 17124 71495 NIL
AAXX 17124 71496 16/// /2306 11112 21128 39570 40198 58001 60001 333 11028 21122 55/// 20000 70000
AAXX 17124 71497 46/// /2209 11125 21145 39795 40065 58016 6///1 333 11049 21127 7////
AAXX 17124 71498 NIL
AAXX 17124 71499 17366 82706 11117 21130 39496 40138 51008 60001 771// 333 11068 21117 70000
AAXX 17124 71812 46964 33410 11280 21322 30095 40109 56005 6///1 333 21282 7////
AAXX 17124 71819 15966 02918 11103 21139 39980 40021 53067 60001 333 10026 21104 70000
AAXX 17124 71820 16/// /0111 11074 21115 30127 40244 53028 60001 333 10067 21074 70003
AAXX 17124 71823 16764 32413 11203 21234 39755 40152 51009 60001 333 11044 21204 70000
AAXX 17124 71824 NIL
AAXX 17124 71826 17/// /2612 11129 21163 39746 49788 56014 60041 7//4/ 333 11119 21130 4/016 70048 555 10040
AAXX 17124 71829 16/// /2707 11129 21179 30009 40176 53016 60001 333 10017 21131 70012
AAXX 17124 71833 46/// /3408 11062 21117 6///1 333 10018 21062 7////
AAXX 17124 71835 16/// /1910 11157 21172 39655 40154 58040 60001 333 11160 21182 4/013 70000
AAXX 17124 71837 NIL
AAXX 17124 71839 NIL
AAXX 17124 71840 NIL
AAXX 17124 71846 16/// /2005 11180 21195 39849 40179 56027 60001 333 11171 21254 4/004 70000
AAXX 17124 71847 NIL
AAXX 17124 71848 NIL
AAXX 17124 71849 NIL
AAXX 17124 71001 15966 31801 11189 21206 39083 40069 51008 60001 333 11017 21190 70000
AAXX 17124 71002 15966 02707 11189 21217 39528 40086 53017 60001 333 11044 21198 70010
AAXX 17124 71003 15766 62415 11184 21206 39755 40151 51009 60001 333 21185 70000
AAXX 17124 71005 16/// ///// 11086 21102 60001 333 10024 21087 70000
AAXX 17124 71006 NIL
AAXX 17124 71007 NIL
AAXX 17124 71008 NIL
AAXX 17124 71009 NIL
AAXX 17124 71010 NIL
AAXX 17124 71011 NIL
AAXX 17124 71012 NIL
AAXX 17124 71013 NIL
AAXX 17124 71014 NIL
AAXX 17124 71015 NIL
AAXX 17124 71016 NIL
AAXX 17124 71017 NIL
AAXX 17124 71018 NIL
AAXX 17124 71019 NIL
AAXX 17124 71020 NIL
AAXX 17124 71021 NIL
AAXX 17124 71022 17666 83304 10040 20036 30074 40118 52014 60091 76144 333 10069 20041 70124
AAXX 17124 71023 16964 02503 11100 21108 39378 40161 58015 60001 333 11026 21116 70005
AAXX 17124 71024 16/// /1102 11136 21143 60001 333 11086 21207 4/013 70000
AAXX 17124 71026 NIL
AAXX 17124 71027 16/// /3103 11012 21050 30120 40130 51026 60001 333 10120 21012 70029
AAXX 17124 71028 16/// /1720 10099 21007 39092 40115 58045 60001 333 10058 21004 70000
AAXX 17124 71029 16/// /0305 11308 21340 30065 40106 58003 60001 333 11246 21315 4/027 70007 555 10010
AAXX 17124 71030 16/64 /3202 11042 21067 30070 40161 51016 60001 333 10095 21043 4/001 70000 555 10010
AAXX 17124 71032 46/// /2902 11039 21049 39444 40296 56009 6///1 333 11006 21045 4/011 7////
AAXX 17124 71033 46/// /2705 11125 21137 39495 40139 51007 6///1 333 11072 21125 4/020 55/// 20000 7//// 555 10030
AAXX 17124 71035 NIL
AAXX 17124 71036 15966 02715 11055 21089 39779 40161 53011 60001 333 11026 21056 70000
AAXX 17124 71039 46/// /3002 11183 6///1 333 11056 21184 7////
AAXX 17124 71040 46/// /3109 11154 21188 30010 40217 51021 6///1 333 10052 21154 7////
AAXX 17124 71041 15566 83010 11020 21066 30000 40143 53017 60001 333 10101 21016 70041
AAXX 17124 71042 16/// /0000 10042 20038 30271 40275 58021 60001 333 10073 20040 70026
AAXX 17124 71044 16/// /0509 11204 21249 39758 40086 53002 60001 333 11194 21218 4/007 70000 555 10010
AAXX 17124 71046 460// /2604 11296 30109 40127 57004 6///1 333 11278 21318 7////
AAXX 17124 71047 16/// ///// 11054 21075 60001 333 10021 21059 70000
AAXX 17124 71048 NIL
AAXX 17124 71049 NIL
AAXX 17124 71060 NIL
AAXX 17124 71063 NIL
AAXX 17124 71950 17420 83203 11040 21043 39480 40117 58004 60021 7714/ 333 11042 21048 70037
AAXX 17124 71952 16/// /1104 10013 20008 39249 40098 58014 60001 333 10006 21010 4/043 70009
AAXX 17124 71954 46/// /2806 11058 21074 39751 40134 51011 6///1 333 11063 21107 7////
AAXX 17124 71956 NIL
AAXX 17124 71959 NIL
AAXX 17124 71960 460// /0607 11262 39992 40131 57004 6///1 333 11253 21289 7////
AAXX 17124 71962 16/// /2007 11081 21113 39746 40183 56034 60001 333 11088 21169 4/002 70000
AAXX 17124 71963 NIL
AAXX 17124 71967 16/// /3509 11092 21137 30127 40235 53024 60001 333 10088 21092 70000
AAXX 17124 71970 NIL
AAXX 17124 71971 16/// /1403 11187 21228 39984 40030 56013 60001 333 11162 21213 70000
AAXX 17124 71972 460// ///// 11147 39401 49862 57008 6///1 333 11069 21155 7////
AAXX 17124 71973 46/// /2610 11054 21064 39898 40086 51046 6///1 333 10065 21055 7////
AAXX 17124 71974 NIL
AAXX 17124 71975 460// /2524 11149 39057 49771 58015 6///1 333 11110 21149 7////
AAXX 17124 71976 NIL
AAXX 17124 71977 NIL
AAXX 17124 71978 NIL
AAXX 17124 71979 NIL
AAXX 17124 71980 NIL
AAXX 17124 71981 NIL
AAXX 17124 71982 NIL
AAXX 17124 71983 NIL
AAXX 17124 71984 16/// /2802 11329 21362 30125 40134 58003 60001 333 11191 21335 70000
AAXX 17124 71985 NIL
AAXX 17124 71986 NIL
AAXX 17124 71987 16/// /3119 11048 21077 30138 40148 51017 60001 333 10079 21050 70050
AAXX 17124 71988 16/// /3310 10012 21035 30149 40169 51011 60001 333 10105 20006 70007
AAXX 17124 71989 NIL
AAXX 17124 71990 NIL
AAXX 17124 71999 46/// ///// 10026 6///1 333 10088 20023 7////
AAXX 17124 71250 NIL
AAXX 17124 71251 16/// /2514 10039 21011 39258 40189 58016 60001 333 10017 21066 70000
AAXX 17124 71252 NIL
AAXX 17124 71253 46/// /0000 11209 21226 6///1 333 11077 21219 4/017 7////
AAXX 17124 71254 16/// /2103 11026 21062 60001 333 10018 21049 4/004 70000 555 10010
AAXX 17124 71255 16/// /1304 11129 21144 60001 333 11026 21142 4/016 70000
AAXX 17124 71256 46/// /36// 11025 21047 39188 40130 58023 6///1 333 11014 21045 7////
AAXX 17124 71257 NIL
AAXX 17124 71258 NIL
AAXX 17124 71259 NIL
AAXX 17124 71261 17/// /0610 11050 21087 39985 40252 51007 69961 7//4/ 333 10016 21050 70018
AAXX 17124 71263 11660 23311 11042 21091 39956 40253 51015 69901 70281 82501 333 10031 21046 79999 909/7
AAXX 17124 71264 16/// /3603 11014 21046 30128 40160 51016 60001 333 10104 21014 70012
AAXX 17124 71265 15566 83408 11049 21110 30163 40259 51024 60001 333 10058 21050 70000
AAXX 17124 71266 NIL
AAXX 17124 71267 15966 62629 10065 21005 39099 40195 58014 60001 333 10055 20032 70000
AAXX 17124 71268 NIL
AAXX 17124 71269 NIL
AAXX 17124 71270 NIL
AAXX 17124 71271 16/// ///// 10000 21048 60001 333 10016 21046 70000
AAXX 17124 71272 17462 83309 11152 21164 39725 40090 53006 60001 771// 333 11173 21220 70000
AAXX 17124 71273 16/// /1601 11082 21097 39495 40166 58013 60001 333 11002 21086 55/// 20000 70000
AAXX 17124 71274 NIL
AAXX 17124 71275 NIL
AAXX 17124 71276 NIL
AAXX 17124 71277 NIL
AAXX 17124 71278 NIL
AAXX 17124 71279 16/// /2905 11133 21178 30092 40160 53018 60001 333 10010 21164 70000
AAXX 17124 71281 NIL
AAXX 17124 71282 46/// /3607 11094 21110 39984 40262 51020 6///1 333 10028 21094 7////
AAXX 17124 71283 NIL
AAXX 17124 71284 17/// ///// 11024 21050 69951 7//4/ 333 10010 21055 70005
AAXX 17124 71285 NIL
AAXX 17124 71286 NIL
AAXX 17124 71287 NIL
AAXX 17124 71288 NIL
AAXX 17124 71289 NIL
AAXX 17124 71290 17456 81410 10010 20004 39278 40113 58017 69931 7714/ 333 11039 21050 70003
AAXX 17124 71291 16/// /1601 11223 21245 39932 40248 58025 60001 333 11121 21235 4/008 55/// 20000 70000
AAXX 17124 71292 15966 02908 11079 21102 39568 40189 53012 60001 333 11036 21085 70000
AAXX 17124 71294 16/// /0503 11128 21151 39832 40247 51014 60001 333 10027 70006
AAXX 17124 71295 NIL
AAXX 17124 71296 NIL
AAXX 17124 71297 16/// /3207 11027 21085 60001 333 10045 21031 70000
AAXX 17124 71298 16/// /3505 11017 21040 30023 40261 50001 60001 333 10028 21017 70000
AAXX 17124 71299 NIL
AAXX 17124 71665 16/// /2927 11136 21212 39977 49987 53011 60001 333 11049 21136 4/037 70025 555 10060
AAXX 17124 71666 16/// /3404 11059 21105 30114 40159 53014 60001 333 10090 21060 70040
AAXX 17124 71667 NIL
AAXX 17124 71668 16/// /3109 11059 21126 30126 40170 53014 60001 333 10086 21059 70030
AAXX 17124 71669 NIL
AAXX 17124 71670 16/// ///// 11069 21118 60001 333 10078 21069 70025
AAXX 17124 71671 16/// /2302 11033 21074 30096 40157 52017 60001 333 10110 21038 70025
AAXX 17124 71672 16/// /3505 11076 21130 39974 40245 51022 60001 333 10044 21076 70000
AAXX 17124 71673 NIL
AAXX 17124 71674 NIL
AAXX 17124 71675 17266 82007 11185 21198 39847 40138 58029 60031 7714/ 333 11192 21210 70061
AAXX 17124 71679 17/// /1911 10038 20019 39093 40102 58011 60011 7//4/ 333 10020 20005 4/002 70032
AAXX 17124 71680 NIL
AAXX 17124 71681 46/// /1802 11011 21019 6///1 333 10014 21020 7////
AAXX 17124 71682 NIL
AAXX 17124 71683 NIL
AAXX 17124 71684 15966 02303 11191 21212 39959 40277 51002 60001 333 11001 21192 70000
AAXX 17124 71685 17366 81514 10012 20008 39745 40294 58010 60011 7614/ 333 10013 20006 70019
AAXX 17124 71686 469// /0501 11133 21144 39163 40139 53004 6///1 333 11092 21133
AAXX 17124 71687 16/// /2501 10026 20019 39461 40252 57019 60001 333 10021 20006 4/032 70015
AAXX 17124 71688 16/// /0000 10002 20002 39201 40248 57018 60001 333 10009 21002 4/067 70000 555 10070
AAXX 17124 71689 15966 61104 11121 21130 39675 40140 58019 60001 333 11022 21138 70000
AAXX 17124 71690 NIL
AAXX 17124 71691 15666 83107 11113 21168 30158 40186 52015 60001 333 10021 21118 70046
AAXX 17124 71692 NIL
AAXX 17124 71694 16/// /0302 11106 21133 39897 40272 51012 60001 333 10021 21117 70000
AAXX 17124 71695 16/// /2810 11055 21076 39791 40131 53010 60001 333 11052 21089 4/024 70008
AAXX 17124 71696 16/// /0000 11202 21222 30043 40081 56014 60001 333 11224 21265 70000
AAXX 17124 71697 15966 33409 11067 21105 30077 40253 51020 60001 333 10058 21067 70000
AAXX 17124 71699 16/// /3305 11047 21083 30163 40171 51016 60001 333 10095 21052 70000
AAXX 17124 71851 16/// /2709 11047 21074 39815 40158 53002 60001 333 11046 21095 70000
AAXX 17124 71857 NIL
AAXX 17124 71860 12774 71105 10001 21070 38773 40178 58016 60002 85570 333 10045 21025 42011 70000 555 10000 20000
AAXX 17124 71876 15966 81502 11090 21100 39518 40198 58007 60001 333 10005 21122 70000
AAXX 17124 71885 NIL
AAXX 17124 71886 NIL
AAXX 17124 71888 NIL
AAXX 17124 71890 16/// /0606 11113 21176 30154 40182 52015 60001 333 10018 21119 4/010 70000
AAXX 17124 71895 NIL
AAXX 17124 71350 16/// /3107 11044 21089 30083 40149 51013 60001 333 10091 21044 70060
AAXX 17124 71351 NIL
AAXX 17124 71352 16/// /3411 11069 21127 39787 40253 51019 60001 333 10015 21069 70007
AAXX 17124 71353 NIL
AAXX 17124 71354 NIL
AAXX 17124 71355 16/// /2602 11344 21380 30005 40095 58005 60001 333 11305 21352 4/011 70000
AAXX 17124 71356 16/// /3009 11265 21294 30042 40112 55005 60001 333 11251 21299 4/007 70000
AAXX 17124 71357 NIL
AAXX 17124 71358 17/// /3130 11168 21185 39840 49875 58036 60031 7//4/ 333 11153 21290 4/050 70034 555 10100
AAXX 17124 71359 NIL
AAXX 17124 71360 NIL
AAXX 17124 71361 NIL
AAXX 17124 71362 NIL
AAXX 17124 71363 NIL
AAXX 17124 71364 NIL
AAXX 17124 71365 NIL
AAXX 17124 71368 15666 83410 11060 21097 39855 40255 53015 60001 333 10016 21060 70008
AAXX 17124 71369 15666 81305 11044 21060 39414 40128 58026 60001 333 11003 21073 70000
AAXX 17124 71370 46/// /3309 11115 21160 30079 40219 52021 6///1 333 10060 21115 7////
AAXX 17124 71371 15566 63310 11083 21120 30193 40228 53024 60001 333 10086 21083 70000
AAXX 17124 71372 NIL
AAXX 17124 71373 NIL
AAXX 17124 71374 NIL
AAXX 17124 71375 NIL
AAXX 17124 71376 NIL
AAXX 17124 71377 16/// /3208 11084 21127 30179 40229 52023 60001 333 10087 21085 70000
AAXX 17124 71378 16/// /3107 11138 21194 30015 40232 52018 60001 333 10048 21138 70000
AAXX 17124 71379 16/// /3105 11212 21244 30042 40221 51019 60001 333 10024 21212 70000
AAXX 17124 71380 NIL
AAXX 17124 71381 NIL
AAXX 17124 71382 NIL
AAXX 17124 71383 NIL
AAXX 17124 71384 16/// /0106 11088 21153 30192 40200 52017 60001 333 10061 21088 70000
AAXX 17124 71385 NIL
AAXX 17124 71386 NIL
AAXX 17124 71387 NIL
AAXX 17124 71388 46/// /2807 11155 21195 30025 40221 51023 6///1 333 10041 21158 7////
AAXX 17124 71389 46/// /3405 11109 21151 6///1 333 10063 21109 7////
AAXX 17124 71390 46/// /2710 11113 6///1 333 10017 21115 7////
AAXX 17124 71391 16/// ///// 11117 21153 60001 333 10044 21117 70000
AAXX 17124 71392 NIL
AAXX 17124 71393 NIL
AAXX 17124 71395 12574 63303 11033 21053 39979 40159 53020 60001 86500 333 10102 21035 70008
AAXX 17124 71398 15966 02408 11233 21256 30226 40238 50002 60001 333 11124 21240 70000
AAXX 17124 71399 NIL
AAXX 17124 71816 12574 62613 11157 21204 39996 40058 52031 60001 81571 333 10022 21164 47046 55000 70012
AAXX 17124 71817 NIL
AAXX 17124 71818 11669 82910 11123 21142 39979 49997 53040 69901 77172 885// 333 10020 21132 43022 55000 70026 90927
AAXX 17124 71822 NIL
AAXX 17124 71825 11674 72410 11211 21264 39422 40120 51010 69901 77682 87500 333 11054 21217 47076 70014 90917
AAXX 17124 71827 11569 62208 11179 21207 39911 40166 53002 69921 77177 86500 333 11113 21192 47017 70006 90983
AAXX 17124 71828 16964 02614 11203 21250 39411 40071 53011 60001 333 11070 21204 70010
AAXX 17124 71831 12974 41803 11234 21268 39963 40262 57005 60001 84030 333 11124 21237 47031 70000
AAXX 17124 71832 NIL
AAXX 17124 71834 12974 60000 11258 21305 39782 40240 58019 60001 82054 333 11150 21275 48013 70000
AAXX 17124 71841 NIL
AAXX 17124 71842 11324 81708 11121 21173 39676 40165 57043 69981 77171 887// 333 11145 21210 47006 70008 90942
AAXX 17124 71844 16264 81906 11184 21212 39848 40139 58029 60001 333 11190 21213 70000
AAXX 17124 71845 11224 81808 11158 21181 39666 40161 57039 69902 771// 885// 333 11167 21182 44015 79999 90999 555 19999 29999
AAXX 17124 71850 11248 82009 11079 21085 39637 40151 57026 69961 77172 887// 333 11078 21142 48005 70010 90931 93101
AAXX 17124 71852 16964 32711 11064 21082 39845 40146 55010 60001 333 11071 21107 70005
AAXX 17124 71854 11358 82107 11090 21106 39640 40128 56026 60032 771// 885// 333 11134 21174 48015 70028 90999 555 19999 29999
AAXX 17124 71858 NIL
AAXX 17124 71861 46/// /2808 11092 21110 39455 40197 53005 6///1 333 11046 21092 4/001 7////
AAXX 17124 71862 12974 12405 11110 21124 39502 40223 52003 60001 80001 333 11035 21111 42002 79999
AAXX 17124 71863 46964 33003 11124 21151 39497 40217 51002 6///1 333 11032 21130 7////
AAXX 17124 71150 46/// /3010 11092 21114 39478 40174 53008 6///1 333 11059 21096 7////
AAXX 17124 71151 NIL
AAXX 17124 71152 16/// /2918 11006 21049 30081 51036 60001 333 7////
AAXX 17124 71153 16/// /2714 10063 21013 60001 333 10053 20041 70000
AAXX 17124 71154 16/// /2329 10041 21017 60001 333 10039 20023 70000
AAXX 17124 71155 NIL
AAXX 17124 71156 NIL
AAXX 17124 71157 46/// ///// 11016 21043 6///1 333 10007 21035 7////
AAXX 17124 71158 NIL
AAXX 17124 71159 NIL
AAXX 17124 71160 NIL
AAXX 17124 71161 16/// /3406 11108 21148 30091 40244 53026 60001 333 10068 21108 70000
AAXX 17124 71162 NIL
AAXX 17124 71163 46/// /1204 11194 21211 39735 40087 56015 6///1 333 11161 21195 7////
AAXX 17124 71164 NIL
AAXX 17124 71165 NIL
AAXX 17124 71166 NIL
AAXX 17124 71167 15966 82904 11024 21051 39035 40137 58021 60001 333 10041 21039 70008
AAXX 17124 71168 NIL
AAXX 17124 71170 NIL
AAXX 17124 71171 16/// /0213 11021 21058 30143 40242 51017 60001 333 10049 21021 70000
AAXX 17124 71172 16/// ///// 11118 21139 30036 40261 51010 60001 333 10028 21118 4/013 70000
AAXX 17124 71175 16/// /2805 11007 21053 30106 40141 53020 60001 333 10095 21007 7////
AAXX 17124 71176 460// /2540 11183 39188 49873 55012 6///1 333 11075 21185 7////
AAXX 17124 71177 460// ///// 11221 6///1 333 11086 21221 7////
AAXX 17124 71178 16/// /2522 10024 21009 30009 40041 51065 60001 333 10070 20023 55/// 20000 70024
AAXX 17124 71179 460// ///// 11183 39100 49928 51028 6///1 333 11032 21186 7////
AAXX 17124 71180 16/// /2918 11023 21059 30086 40125 51035 60001 333 10084 21026 70046
AAXX 17124 71181 17564 62819 10009 21039 30033 40069 51046 60001 745// 333 10080 20007 70285
AAXX 17124 71183 16/// /3309 30187 53024 60001 333 70000
AAXX 17124 71184 46/// /3310 11082 21131 6///1 333 10091 21082 7////
AAXX 17124 71186 NIL
AAXX 17124 71187 15964 /0801 10042 20042 30226 40275 56023 60001 333 10061 20035
AAXX 17124 71189 NIL
AAXX 17124 71190 NIL
AAXX 17124 71191 16/// ///// 11065 21101 60001 333 10097 21065 70024 555 10010
AAXX 17124 71192 17966 11309 10026 20011 39505 40169 58016 60011 7004/ 333 10022 20007 70319
AAXX 17124 71193 16/// /2004 11256 21276 39880 40267 58003 60001 333 11088 21263 4/019 70000
AAXX 17124 71196 16/// /3109 11130 21161 30055 40261 53013 60001 333 10046 21131 4/001 70000 555 10010
AAXX 17124 71197 17464 83021 11025 21065 30066 40116 51032 60001 745// 333 10068 21025 70045
AAXX 17124 71198 46/// /3314 11091 21152 6///1 333 10086 21091 7////
AAXX 17124 71199 46/// /0000 11224 21247 39262 40128 58001 6///1 333 11158 21242 4/021 7////
AAXX 17124 71930 NIL
AAXX 17124 71931 16/// /2817 10008 21031 30012 40024 51070 60001 333 10079 20008 70000
AAXX 17124 71934 11362 81503 11151 21174 39856 40120 58022 69901 77177 885// 333 11131 21152 47020 79999 90973
AAXX 17124 71935 12874 71305 11175 21206 39869 40084 57028 60001 87010 333 11174 21207 44012 79999
AAXX 17124 71936 11374 80903 11181 21207 39835 40104 57022 69901 77171 886// 333 11152 21206 48020 79999 90947
AAXX 17124 71937 NIL
AAXX 17124 71938 11766 80306 11223 21266 30091 40122 58002 69901 77177 885// 333 11201 21238 46024 79999 90983 93101
AAXX 17124 71940 NIL
AAXX 17124 71943 11974 71607 10007 21033 39246 40080 57023 69901 87070 333 10012 21009 79999 90945
AAXX 17124 71944 160// ///// 10008 58016 60001 333 11038 21052 70000
AAXX 17124 71945 12974 70000 11139 21178 39605 40089 57004 60001 86070 333 11134 21171 47011 70000
AAXX 17124 71946 12974 00000 11223 21247 39848 40071 56016 60001 333 11163 21259 48034 79999
AAXX 17124 71948 46061 /0000 11266 30011 40129 57003 6///1 333 11224 21284 7////
AAXX 17124 71949 46/// /1403 11111 21125 39189 40074 51009 6///1 333 11092 21148 7////
AAXX 17124 71951 11/24 93605 11027 21031 39859 40129 55000 60031 77176 333 11024 21039 47045 70082 90983 93102
AAXX 17124 71957 47458 80000 11235 21301 30025 40117 51002 6///1 745// 333 11235 21262 7////
AAXX 17124 71964 12986 72012 11005 21136 39217 40071 52011 60001 87070 333 11006 21053 47020 70000
AAXX 17124 71966 16/// /0000 11286 21319 39625 40108 51014 60001 333 11160 21289 4/031 70000
AAXX 17124 71968 460// /2708 11259 30046 40113 50000 6///1 333 11235 21263 7////
AAXX 17124 71893 11580 71513 10077 20057 30222 40254 58018 69901 78022 87500 333 10079 20071 55008 79999 90910
AAXX 17124 71894 17/// /1014 10078 20078 30230 40239 58016 60111 7//4/ 333 10089 20078 70316
AAXX 17124 71896 17766 81815 10017 20004 39305 40138 58013 60061 70044 333 10009 20002 70194
AAXX 17124 71897 11X04 81430 10090 20079 3//// 4//// 57001 60541 76566 333 10080 20075 70538
AAXX 17124 71898 160// ///// 10045 51014 60101 333 10070 20042 70135
AAXX 17124 71899 11574 82805 10050 20050 3//// 4//// 53009 60011 70262 8257X 333 10079 20050 70114 90941
AAXX 17124 71902 12574 22923 11136 21204 39982 49991 52011 60022 82530 333 11042 21135 43021 70034 555 10040 20040
AAXX 17124 71905 NIL
AAXX 17124 71906 11674 12306 11204 21228 39964 40016 51003 69901 70311 81500 333 11079 21216 48015 70022 90931
AAXX 17124 71907 17314 93114 11162 21189 30013 40046 53003 69951 745// 333 11138 21166 70010
AAXX 17124 71909 16964 03307 11256 21294 39817 49861 55002 60001 333 11117 21256 70000
AAXX 17124 71910 46964 32806 11217 21263 39847 49910 56003 6///1 333 11155 21222 7////
AAXX 17124 71911 47511 82818 11276 39969 40027 57006 6///1 745// 333 11234 21292 7////
AAXX 17124 71912 11474 72005 11174 21204 39904 40094 56016 69901 77171 87500 333 11144 21202 47013 79999 90946
AAXX 17124 71915 11974 03312 11275 21322 39881 49965 58010 69901 77677 333 11240 21292 48044 55/// 79999 90983
AAXX 17124 71917 11974 00000 11399 21434 30088 40103 58009 69901 77677 333 11361 21410 43013 55/// 10172 20000 79999 90993
AAXX 17124 71922 12974 02507 11104 21114 39683 40159 57001 60001 333 11054 21104 70006
AAXX 17124 71924 NIL
AAXX 17124 71925 11574 33206 11272 21314 30069 40112 58011 69901 77677 83500 333 11279 21312 42017 79999 90983
AAXX 17124 71926 11574 33113 11267 21322 30082 40107 55007 69901 77677 83500 333 11225 21294 48043 79999 90973
AAXX 17124 71928 NIL
AAXX 17124 71893 11580 71513 10077 20057 30222 40254 58018 69901 78022 87500 333 10079 20071 55008 70004 90910
AAXX 17124 71114 160// /0000 10041 20040 30227 40276 56022 60021 333 10062 20036 70025
AAXX 17124 71120 12974 81702 11058 21087 39500 40167 57013 60001 8802/ 333 11010 21077 42004 79999
AAXX 17124 71122 46/// /2309 11023 21055 38599 40224 58023 6///1 333 21036 4/010 7////
AAXX 17124 71123 12974 81709 11013 21052 39273 40146 58025 60001 85027 333 10003 21044 44004 70000
AAXX 17124 71125 13974 42407 11094 21105 39577 40176 56010 60002 80002 333 48001 70002
AAXX 17124 71129 12974 21703 11086 21103 39349 40200 58012 60001 80001 333 11003 21096 70000
AAXX 17124 71131 16/// /2907 11073 21079 38936 40223 58011 60001 333 11055 21085 70000
AAXX 17124 71135 16/// /2904 11064 21093 39120 40235 51001 60001 333 11055 21098 4/005 70000
AAXX 17124 71137 16/// /0802 11177 21194 39262 40250 57006 60001 333 11067 21187 70000
AAXX 17124 71140 11974 02712 11077 21094 39666 40181 5/006 69901 70277 333 11046 21086 46997 79999 90962
AAXX 17124 71145 11474 81505 11133 21150 39799 40102 58016 69901 77177 88500 333 11132 21146 48035 70002 90973
AAXX 17124 71148 NIL
AAXX 17124 71185 17448 93012 11075 30044 40068 51057 60001 745// 333 10077 21075 70105
AAXX 17124 71188 11574 83006 11094 21159 30109 40152 52026 69901 70271 885// 333 10048 21094 43014 55007 70004 90931
AAXX 17124 71200 16/// /0803 10059 20053 60001 333 10075 20058 70000
AAXX 17124 71207 17/// /0302 10021 30202 40267 56021 69981 7//4/ 333 10025 20014 70102
AAXX 17124 71260 13/// ///// 11137 21156 30032 40279 56004 60001 333 10022 21139 46001 70002
AAXX 17124 71603 12574 43205 11012 21050 30112 40166 51011 60001 82570 333 10106 21021 70002
AAXX 17124 71607 16/// /0101 11057 21079 30141 40174 51021 60001 333 10091 21059 70000
AAXX 17124 71609 12674 13602 11073 21118 30035 40172 53016 60001 81500 333 10093 21073 70021
AAXX 17124 71610 15466 63006 11088 21109 39903 40206 53023 60001 333 10083 21088 70005
AAXX 17124 71621 11574 63609 11054 21096 30137 40246 53024 69901 7007/ 83501 333 10065 21055 79999 90999
AAXX 17124 71623 NIL
AAXX 17124 71624 11448 63615 11067 21097 30039 40256 51022 69901 78511 86500 333 10051 21068 45997 55032 70002 90921
AAXX 17124 71625 16964 03007 11127 21190 30099 40266 53014 60001 333 10045 21127 70000
AAXX 17124 71627 11574 23308 11080 21142 30185 40231 53023 69901 70181 81501 333 10091 21080 79999 90951
AAXX 17124 71628 13460 13210 11118 21159 30106 40252 52021 60001 81107 333 10075 21119 4-3001 70006
AAXX 17124 71630 NIL
AAXX 17124 71631 NIL
AAXX 17124 71633 12574 13506 11080 21119 39988 40268 53009 60001 81502 333 10025 21082 42997 55000 70012
AAXX 17124 71705 12674 72604 11061 21090 30073 40162 53013 60001 84571 333 10094 21074 70038
AAXX 17124 71706 12574 73208 11043 21094 30099 40160 53018 60001 86501 333 10095 21044 70054
AAXX 17124 71707 11674 73008 11004 21066 30057 40134 51022 69901 70188 87500 333 10096 21004 70004 90922
AAXX 17124 71709 13580 73215 11038 21091 30129 40142 51027 60002 87500 333 10082 21040 70076 555 10000 20000
AAXX 17124 71711 NIL
AAXX 17124 71714 16/// /2906 11108 21150 30133 40228 53018 60001 333 10063 21112 4/004 70000
AAXX 17124 71715 16/// /3305 11105 21157 30009 40196 52020 60001 333 10063 21106 70000
AAXX 17124 71718 11583 82709 11090 21146 30117 40184 52012 69901 78582 885// 333 10064 21092 45997 70010 90942
AAXX 17124 71719 16/// /3314 11066 21122 30151 40157 51019 60001 333 10060 21075 4/001 70003
AAXX 17124 71043 11580 50000 11278 21327 30020 40118 52003 69901 77677 82530 333 11229 21292 48021 79999 90983
AAXX 17124 71045 16/// /3501 11116 21127 39230 40105 54000 60001 333 21142 4/022 7////
AAXX 17124 71050 NIL
AAXX 17124 71051 NIL
AAXX 17124 71052 NIL
AAXX 17124 71066 NIL
AAXX 17124 71068 11866 81904 11032 21046 39404 40104 58026 69901 76662 8801/ 333 11013 21094 47005 79999
AAXX 17124 71069 17664 31404 11046 21053 39414 40127 58026 60001 743// 333 11001 21077 70000
AAXX 17124 71076 16/// /0501 11198 21219 39736 40142 57008 60001 333 11119 21202 4/028 55/// 20000 70000
AAXX 17124 71077 16/// /2103 11134 21147 39615 40167 57013 60001 333 11032 21144 4/010 55/// 20000 70000
AAXX 17124 71079 11474 72704 11132 21148 39813 40100 55000 69901 77177 87500 333 11138 21156 48006 79999 90983
AAXX 17124 71081 46048 83210 11291 21331 39908 49920 58025 6///1 333 11243 21330 7////
AAXX 17124 71082 NIL
AAXX 17124 71083 11974 03215 11294 21338 30045 40089 57009 69901 77677 333 11224 21299 48052 79999 90983
AAXX 17124 71090 47002 83132 11169 21197 39842 49877 58035 6///1 745// 333 11152 21292 7////
AAXX 17124 71091 460// /3213 11204 39637 49847 56035 6///1 333 7////
AAXX 17124 71092 46420 83409 11183 39148 49810 56027 6///1 333 11206 21240 7////
AAXX 17124 71093 460// /3425 11149 39302 49792 58033 6///1 333 11174 21187 7////
AAXX 17124 71094 46014 /0406 11134 38865 49738 57029 6///1 333 11095 21137 7////
AAXX 17124 71095 46950 80914 11132 21177 39862 49941 58015 6///1 333 11109 21151 7////
AAXX 17124 71101 160// /3404 30121 53014 60001 333 70000
AAXX 17124 71104 12774 51418 10006 21009 39064 40181 58020 60001 85500 333 10005 21016 43038 70130
AAXX 17124 71108 11328 80403 10048 20045 30200 40273 57022 60001 71022 885// 333 10067 20045 70024
AAXX 17124 71109 11574 81211 10084 20059 30162 40189 56022 69901 70266 885// 333 10074 20065 70374 90953
AAXX 17124 71726 16/// /2904 11202 21223 39673 40241 52016 60001 333 10003 21202 4/010 70000
AAXX 17124 71727 11574 43010 11152 21193 30019 40224 52022 69901 70277 84500 333 10009 21155 48024 70020 90932
AAXX 17124 71728 12582 23104 11179 21220 30006 40237 52024 60001 82500 333 10038 21180 44997 79999
AAXX 17124 71730 11574 12704 11180 21191 39831 40278 53001 60001 81500 333 10003 21180 46997 79999
AAXX 17124 71731 11474 30000 11170 21189 39796 40269 52007 69901 72681 82570 333 10004 21171 43001 79999 90947
AAXX 17124 71735 NIL
AAXX 17124 71738 13474 80000 11222 21234 39898 40274 56013 60002 886// 333 11105 21236 43017 70000 555 19999 29999 33420 40080
AAXX 17124 71739 42874 12202 11237 21278 39880 40266 58003 6//// 81070 333 11086 21239 4//// 7////
AAXX 17124 71749 16564 62404 11212 21221 39978 40239 58032 60001 333 11117 21227 70000
AAXX 17124 71799 12366 80000 10054 20053 30247 40271 57017 60001 885// 333 10082 20036 55000 79999
AAXX 17124 71800 16/// /2723 10023 20006 30055 40088 53034 60001 333 10064 20019 70108
AAXX 17124 71801 12574 72718 10017 21003 39893 40065 53044 60001 87500 333 10073 20014 70108
AAXX 17124 71803 12480 72714 11004 21047 39865 40050 53061 60001 87500 333 10067 21005 41997 70064
AAXX 17124 71807 NIL
AAXX 17124 71808 NIL
AAXX 17124 71809 11459 82611 11039 21075 30047 40074 51053 69921 77176 885// 333 10078 21040 41997 70052 90983
AAXX 17124 71810 16/// /3006 11111 21168 30070 40138 53018 60001 333 10025 21113 70003
AAXX 17124 71811 NIL
AAXX 17124 71813 NIL
AAXX 17124 71814 16/// /3007 11132 21174 30080 40090 51045 60001 333 10032 21132 70047
AAXX 17124 71815 12474 82815 11035 21090 30072 40103 51041 60001 885// 333 10074 21036 41997 70098
AAXX 17124 71864 NIL
AAXX 17124 71865 16/// /2608 11081 21109 39500 40194 51006 60001 333 11033 21084 70000
AAXX 17124 71866 46964 02205 11107 21128 39572 40202 58002 6///1 333 11028 21121 7////
AAXX 17124 71867 11474 82912 11056 21070 39794 40134 52010 69901 70277 885// 333 11052 21091 48025 70016 90941
AAXX 17124 71868 16/// /2307 11080 21104 39711 40160 50013 60001 333 11046 21081 70000
AAXX 17124 71869 12974 12704 11093 21114 39649 40186 52004 60001 80001 333 11030 21096 47005 79999
AAXX 17124 71871 15966 12207 11063 21082 39356 40176 58015 60001 333 10013 21080 70000
AAXX 17124 71877 12974 61802 11020 21060 38904 40183 57014 60001 80002 333 10062 21020 42001 70000
AAXX 17124 71878 12974 02006 11107 21117 39084 40183 58020 60001 333 11012 21127 48012 70000
AAXX 17124 71879 16864 61402 11019 21063 39331 40142 58027 60001 333 10009 21037 70000
AAXX 17124 71880 12482 61509 10006 21012 39158 40283 58012 60001 81670 333 11013 21023 47005 70000
AAXX 17124 71882 160// /1414 10012 20004 39747 40295 58009 60031 333 10014 20006 70045
AAXX 17124 71883 46/// /0000 11017 21020 39422 40256 58012 6///1 333 11016 21020 7////
AAXX 17124 71887 12986 80905 10016 21008 39827 40255 57010 60001 8807/ 333 10023 20009 47004 70000
AAXX 17124 71889 12574 81816 10007 21022 39883 40311 58006 60001 81571 333 10011 20006 45001 79999
AAXX 17124 71891 16964 01922 10077 20037 39949 40223 58004 60001 333 10099 20073 70005
AAXX 17124 71892 11469 81006 10062 20050 30266 40271 58020 69901 70262 885// 333 10072 20062 55000 70038 90961
AAXX 17124 71816 12574 62613 11157 21204 39996 40058 52031 60001 81571 333 10022 21164 47046 55000 70012
AAXX 17124 71817 NIL
AAXX 17124 71818 11669 82910 11123 21142 39979 49997 53040 69901 77172 885// 333 10020 21132 43022 55000 70026 90927
AAXX 17124 71822 NIL
AAXX 17124 71825 11674 72410 11211 21264 39422 40120 51010 69901 77682 87500 333 11054 21217 47076 70014 90917
AAXX 17124 71827 11569 62208 11179 21207 39911 40166 53002 69921 77177 86500 333 11113 21192 47017 70006 90983
AAXX 17124 71828 16964 02614 11203 21250 39411 40071 53011 60001 333 11070 21204 70010
AAXX 17124 71831 12974 41803 11234 21268 39963 40262 57005 60001 84030 333 11124 21237 47031 70000
AAXX 17124 71832 NIL
AAXX 17124 71834 12974 60000 11258 21305 39782 40240 58019 60001 82054 333 11150 21275 48013 70000
AAXX 17124 71841 NIL
AAXX 17124 71842 11324 81708 11121 21173 39676 40165 57043 69981 77171 887// 333 11145 21210 47006 70008 90942
AAXX 17124 71844 16264 81906 11184 21212 39848 40139 58029 60001 333 11190 21213 70000
AAXX 17124 71845 11224 81808 11158 21181 39666 40161 57039 69902 771// 885// 333 11167 21182 44015 79999 90999 555 19999 29999
AAXX 17124 71850 11248 82009 11079 21085 39637 40151 57026 69961 77172 887// 333 11078 21142 48005 70010 90931 93101
AAXX 17124 71852 16964 32711 11064 21082 39845 40146 55010 60001 333 11071 21107 70005
AAXX 17124 71854 11358 82107 11090 21106 39640 40128 56026 60032 771// 885// 333 11134 21174 48015 70028 90999 555 19999 29999
AAXX 17124 71858 NIL
AAXX 17124 71861 46/// /2808 11092 21110 39455 40197 53005 6///1 333 11046 21092 4/001 7////
AAXX 17124 71862 12974 12405 11110 21124 39502 40223 52003 60001 80001 333 11035 21111 42002 79999
AAXX 17124 71863 46964 33003 11124 21151 39497 40217 51002 6///1 333 11032 21130 7////
AAXX 17124 71397 12574 30000 11032 21070 30132 40167 53013 60001 81571 333 10115 21036 70040
AAXX 17124 71400 16/64 /2712 11028 21061 60001 333 10064 21028 70121
AAXX 17124 71403 46/// /3109 11004 21040 30133 40153 53017 6///1 333 10096 21005 7////
AAXX 17124 71411 16/// /3504 11009 21032 30148 40161 50012 60001 333 10111 21011 70013
AAXX 17124 71412 16/// /3214 11018 21068 30130 40140 51018 60001 333 10093 21018 70029
AAXX 17124 71421 NIL
AAXX 17124 71430 16/// /0207 11035 21067 30138 40237 53023 60001 333 10067 21035 70004
AAXX 17124 71431 16/// /0205 11056 21100 30142 40240 53025 60001 333 10057 21056 70008
AAXX 17124 71432 16/// /3517 11013 21045 30150 40249 51018 60001 333 10055 21014 70000
AAXX 17124 71433 NIL
AAXX 17124 71435 NIL
AAXX 17124 71441 46/// /2812 11055 21078 39847 40163 56008 6///1 333 11065 21091 7////
AAXX 17124 71443 16/// /2109 11078 21108 39740 40160 51014 60001 333 11027 21078 4/005 70000
AAXX 17124 71444 16/// /2702 11099 21108 39390 40165 53008 60001 333 11057 21127 4/009 70000
AAXX 17124 71447 16/// /2806 11077 21097 39642 40201 53008 60001 333 11040 21084 70000
AAXX 17124 71467 16/// /0409 11313 21343 30010 40131 58006 60001 333 11223 21327 4/002 70000 555 10010
AAXX 17124 71472 NIL
AAXX 17124 71474 16964 01909 11014 21028 38970 40224 58012 60001 333 11011 21029 70010
AAXX 17124 71510 16/// /2606 11092 21117 39473 40197 58008 60001 333 11015 21104 70000
AAXX 17124 71538 11569 83506 11016 21065 30028 40264 50002 69901 78522 885// 333 10026 21017 41997 79999 90942
AAXX 17124 71600 16564 83209 10042 21011 30140 40146 53014 60001 333 10121 20041 70060
AAXX 17124 71601 NIL
AAXX 17124 85223 11470 72304 10165 20105 37513 47141 52017 69924 70421 84532 333 20125 30/// 55082 56000 58013 70002 81610 84620 85358
AAXX 17124 85283 NIL
AAXX 17124 85293 32484 20000 10100 20042 36365 52005 82500 333 20014 30/// 56500 58004 82617
AAXX 17124 85312 32484 80000 10192 20177 38812 52022 8772/ 333 20178 30/// 55000 56009 58012 87715 88457
AAXX 17124 85345 11230 80000 10190 20190 39692 40150 52012 60284 76166 8752/ 333 20180 32/// 56009 58025 70282 82705 86627 88457
AAXX 17124 85364 11258 80000 10134 20128 38162 48201 53008 60234 72165 8852/ 333 20130 31/// 55048 56009 58004 70228 85605 87623 88457
AAXX 17124 85365 11484 70000 10199 20189 39418 40144 52012 60054 72162 81520 333 20172 31/// 56000 58023 70046 81615 87457
AAXX 17124 85394 12484 53604 10198 20189 39631 40176 52016 60514 85530 333 20175 31/// 56000 58031 70513 82615 85357
AAXX 17124 71864 NIL
AAXX 17124 71865 16/// /2608 11081 21109 39500 40194 51006 60001 333 11033 21084 70000
AAXX 17124 71866 46964 02205 11107 21128 39572 40202 58002 6///1 333 11028 21121 7////
AAXX 17124 71867 11474 82912 11056 21070 39794 40134 52010 69901 70277 885// 333 11052 21091 48025 70016 90941
AAXX 17124 71868 16/// /2307 11080 21104 39711 40160 50013 60001 333 11046 21081 70000
AAXX 17124 71869 12974 12704 11093 21114 39649 40186 52004 60001 80001 333 11030 21096 47005 79999
AAXX 17124 71871 15966 12207 11063 21082 39356 40176 58015 60001 333 10013 21080 70000
AAXX 17124 71877 12974 61802 11020 21060 38904 40183 57014 60001 80002 333 10062 21020 42001 70000
AAXX 17124 71878 12974 02006 11107 21117 39084 40183 58020 60001 333 11012 21127 48012 70000
AAXX 17124 71879 16864 61402 11019 21063 39331 40142 58027 60001 333 10009 21037 70000
AAXX 17124 71880 12482 61509 10006 21012 39158 40283 58012 60001 81670 333 11013 21023 47005 70000
AAXX 17124 71882 160// /1414 10012 20004 39747 40295 58009 60031 333 10014 20006 70045
AAXX 17124 71883 46/// /0000 11017 21020 39422 40256 58012 6///1 333 11016 21020 7////
AAXX 17124 71887 12986 80905 10016 21008 39827 40255 57010 60001 8807/ 333 10023 20009 47004 70000
AAXX 17124 71889 12574 81816 10007 21022 39883 40311 58006 60001 81571 333 10011 20006 45001 79999
AAXX 17124 71891 16964 01922 10077 20037 39949 40223 58004 60001 333 10099 20073 70005
AAXX 17124 71892 11469 81006 10062 20050 30266 40271 58020 69901 70262 885// 333 10072 20062 55000 70038 90961
AAXX 17124 71726 16/// /2904 11202 21223 39673 40241 52016 60001 333 10003 21202 4/010 70000
AAXX 17124 71727 11574 43010 11152 21193 30019 40224 52022 69901 70277 84500 333 10009 21155 48024 70020 90932
AAXX 17124 71728 12582 23104 11179 21220 30006 40237 52024 60001 82500 333 10038 21180 44997 79999
AAXX 17124 71730 11574 12704 11180 21191 39831 40278 53001 60001 81500 333 10003 21180 46997 79999
AAXX 17124 71731 11474 30000 11170 21189 39796 40269 52007 69901 72681 82570 333 10004 21171 43001 79999 90947
AAXX 17124 71735 NIL
AAXX 17124 71738 13474 80000 11222 21234 39898 40274 56013 60002 886// 333 11105 21236 43017 70000 555 19999 29999 33420 40080
AAXX 17124 71739 42874 12202 11237 21278 39880 40266 58003 6//// 81070 333 11086 21239 4//// 7////
AAXX 17124 71749 16564 62404 11212 21221 39978 40239 58032 60001 333 11117 21227 70000
AAXX 17124 71799 12366 80000 10054 20053 30247 40271 57017 60001 885// 333 10082 20036 55000 79999
AAXX 17124 71800 16/// /2723 10023 20006 30055 40088 53034 60001 333 10064 20019 70108
AAXX 17124 71801 12574 72718 10017 21003 39893 40065 53044 60001 87500 333 10073 20014 70108
AAXX 17124 71803 12480 72714 11004 21047 39865 40050 53061 60001 87500 333 10067 21005 41997 70064
AAXX 17124 71807 NIL
AAXX 17124 71808 NIL
AAXX 17124 71809 11459 82611 11039 21075 30047 40074 51053 69921 77176 885// 333 10078 21040 41997 70052 90983
AAXX 17124 71810 16/// /3006 11111 21168 30070 40138 53018 60001 333 10025 21113 70003
AAXX 17124 71811 NIL
AAXX 17124 71813 NIL
AAXX 17124 71814 16/// /3007 11132 21174 30080 40090 51045 60001 333 10032 21132 70047
AAXX 17124 71815 12474 82815 11035 21090 30072 40103 51041 60001 885// 333 10074 21036 41997 70098
AAXX 17124 71603 12574 43205 11012 21050 30112 40166 51011 60001 82570 333 10106 21021 70002
AAXX 17124 71607 16/// /0101 11057 21079 30141 40174 51021 60001 333 10091 21059 70000
AAXX 17124 71609 12674 13602 11073 21118 30035 40172 53016 60001 81500 333 10093 21073 70021
AAXX 17124 71610 15466 63006 11088 21109 39903 40206 53023 60001 333 10083 21088 70005
AAXX 17124 71621 11574 63609 11054 21096 30137 40246 53024 69901 7007/ 83501 333 10065 21055 79999 90999
AAXX 17124 71623 NIL
AAXX 17124 71624 11448 63615 11067 21097 30039 40256 51022 69901 78511 86500 333 10051 21068 45997 55032 70002 90921
AAXX 17124 71625 16964 03007 11127 21190 30099 40266 53014 60001 333 10045 21127 70000
AAXX 17124 71627 11574 23308 11080 21142 30185 40231 53023 69901 70181 81501 333 10091 21080 79999 90951
AAXX 17124 71628 13460 13210 11118 21159 30106 40252 52021 60001 81107 333 10075 21119 4-3001 70006
AAXX 17124 71630 NIL
AAXX 17124 71631 NIL
AAXX 17124 71633 12574 13506 11080 21119 39988 40268 53009 60001 81502 333 10025 21082 42997 55000 70012
AAXX 17124 71705 12674 72604 11061 21090 30073 40162 53013 60001 84571 333 10094 21074 70038
AAXX 17124 71706 12574 73208 11043 21094 30099 40160 53018 60001 86501 333 10095 21044 70054
AAXX 17124 71707 11674 73008 11004 21066 30057 40134 51022 69901 70188 87500 333 10096 21004 70004 90922
AAXX 17124 71709 13580 73215 11038 21091 30129 40142 51027 60002 87500 333 10082 21040 70076 555 10000 20000
AAXX 17124 71711 NIL
AAXX 17124 71714 16/// /2906 11108 21150 30133 40228 53018 60001 333 10063 21112 4/004 70000
AAXX 17124 71715 16/// /3305 11105 21157 30009 40196 52020 60001 333 10063 21106 70000
AAXX 17124 71718 11583 82709 11090 21146 30117 40184 52012 69901 78582 885// 333 10064 21092 45997 70010 90942
AAXX 17124 71719 16/// /3314 11066 21122 30151 40157 51019 60001 333 10060 21075 4/001 70003
AAXX 17124 71043 11580 50000 11278 21327 30020 40118 52003 69901 77677 82530 333 11229 21292 48021 79999 90983
AAXX 17124 71045 16/// /3501 11116 21127 39230 40105 54000 60001 333 21142 4/022 7////
AAXX 17124 71050 NIL
AAXX 17124 71051 NIL
AAXX 17124 71052 NIL
AAXX 17124 71066 NIL
AAXX 17124 71068 11866 81904 11032 21046 39404 40104 58026 69901 76662 8801/ 333 11013 21094 47005 79999
AAXX 17124 71069 17664 31404 11046 21053 39414 40127 58026 60001 743// 333 11001 21077 70000
AAXX 17124 71076 16/// /0501 11198 21219 39736 40142 57008 60001 333 11119 21202 4/028 55/// 20000 70000
AAXX 17124 71077 16/// /2103 11134 21147 39615 40167 57013 60001 333 11032 21144 4/010 55/// 20000 70000
AAXX 17124 71079 11474 72704 11132 21148 39813 40100 55000 69901 77177 87500 333 11138 21156 48006 79999 90983
AAXX 17124 71081 46048 83210 11291 21331 39908 49920 58025 6///1 333 11243 21330 7////
AAXX 17124 71082 NIL
AAXX 17124 71083 11974 03215 11294 21338 30045 40089 57009 69901 77677 333 11224 21299 48052 79999 90983
AAXX 17124 71090 47002 83132 11169 21197 39842 49877 58035 6///1 745// 333 11152 21292 7////
AAXX 17124 71091 460// /3213 11204 39637 49847 56035 6///1 333 7////
AAXX 17124 71092 46420 83409 11183 39148 49810 56027 6///1 333 11206 21240 7////
AAXX 17124 71093 460// /3425 11149 39302 49792 58033 6///1 333 11174 21187 7////
AAXX 17124 71094 46014 /0406 11134 38865 49738 57029 6///1 333 11095 21137 7////
AAXX 17124 71095 46950 80914 11132 21177 39862 49941 58015 6///1 333 11109 21151 7////
AAXX 17124 71101 160// /3404 30121 53014 60001 333 70000
AAXX 17124 71104 12774 51418 10006 21009 39064 40181 58020 60001 85500 333 10005 21016 43038 70130
AAXX 17124 71108 11328 80403 10048 20045 30200 40273 57022 60001 71022 885// 333 10067 20045 70024
AAXX 17124 71109 11574 81211 10084 20059 30162 40189 56022 69901 70266 885// 333 10074 20065 70374 90953
AAXX 17124 71114 160// /0000 10041 20040 30227 40276 56022 60021 333 10062 20036 70025
AAXX 17124 71120 12974 81702 11058 21087 39500 40167 57013 60001 8802/ 333 11010 21077 42004 79999
AAXX 17124 71122 46/// /2309 11023 21055 38599 40224 58023 6///1 333 21036 4/010 7////
AAXX 17124 71123 12974 81709 11013 21052 39273 40146 58025 60001 85027 333 10003 21044 44004 70000
AAXX 17124 71125 13974 42407 11094 21105 39577 40176 56010 60002 80002 333 48001 70002
AAXX 17124 71129 12974 21703 11086 21103 39349 40200 58012 60001 80001 333 11003 21096 70000
AAXX 17124 71131 16/// /2907 11073 21079 38936 40223 58011 60001 333 11055 21085 70000
AAXX 17124 71135 16/// /2904 11064 21093 39120 40235 51001 60001 333 11055 21098 4/005 70000
AAXX 17124 71137 16/// /0802 11177 21194 39262 40250 57006 60001 333 11067 21187 70000
AAXX 17124 71140 11974 02712 11077 21094 39666 40181 5/006 69901 70277 333 11046 21086 46997 79999 90962
AAXX 17124 71145 11474 81505 11133 21150 39799 40102 58016 69901 77177 88500 333 11132 21146 48035 70002 90973
AAXX 17124 71148 NIL
AAXX 17124 71185 17448 93012 11075 30044 40068 51057 60001 745// 333 10077 21075 70105
AAXX 17124 71188 11574 83006 11094 21159 30109 40152 52026 69901 70271 885// 333 10048 21094 43014 55007 70004 90931
AAXX 17124 71200 16/// /0803 10059 20053 60001 333 10075 20058 70000
AAXX 17124 71207 17/// /0302 10021 30202 40267 56021 69981 7//4/ 333 10025 20014 70102
AAXX 17124 71260 13/// ///// 11137 21156 30032 40279 56004 60001 333 10022 21139 46001 70002
AAXX 17124 71930 NIL
AAXX 17124 71931 16/// /2817 10008 21031 30012 40024 51070 60001 333 10079 20008 70000
AAXX 17124 71934 11362 81503 11151 21174 39856 40120 58022 69901 77177 885// 333 11131 21152 47020 79999 90973
AAXX 17124 71935 12874 71305 11175 21206 39869 40084 57028 60001 87010 333 11174 21207 44012 79999
AAXX 17124 71936 11374 80903 11181 21207 39835 40104 57022 69901 77171 886// 333 11152 21206 48020 79999 90947
AAXX 17124 71937 NIL
AAXX 17124 71938 11766 80306 11223 21266 30091 40122 58002 69901 77177 885// 333 11201 21238 46024 79999 90983 93101
AAXX 17124 71940 NIL
AAXX 17124 71943 11974 71607 10007 21033 39246 40080 57023 69901 87070 333 10012 21009 79999 90945
AAXX 17124 71944 160// ///// 10008 58016 60001 333 11038 21052 70000
AAXX 17124 71945 12974 70000 11139 21178 39605 40089 57004 60001 86070 333 11134 21171 47011 70000
AAXX 17124 71946 12974 00000 11223 21247 39848 40071 56016 60001 333 11163 21259 48034 79999
AAXX 17124 71948 46061 /0000 11266 30011 40129 57003 6///1 333 11224 21284 7////
AAXX 17124 71949 46/// /1403 11111 21125 39189 40074 51009 6///1 333 11092 21148 7////
AAXX 17124 71951 11/24 93605 11027 21031 39859 40129 55000 60031 77176 333 11024 21039 47045 70082 90983 93102
AAXX 17124 71957 47458 80000 11235 21301 30025 40117 51002 6///1 745// 333 11235 21262 7////
AAXX 17124 71964 12986 72012 11005 21136 39217 40071 52011 60001 87070 333 11006 21053 47020 70000
AAXX 17124 71966 16/// /0000 11286 21319 39625 40108 51014 60001 333 11160 21289 4/031 70000
AAXX 17124 71968 460// /2708 11259 30046 40113 50000 6///1 333 11235 21263 7////
AAXX 17124 60020 12570 70706 10193 20132 30243 40288 58003 60001 865// 333 92428
AAXX 17124 60030 02680 63616 10206 20107 30221 40277 50003 60001 86500 333 60007 92428
AAXX 17124 60040 02580 30413 10210 20121 30256 40280 50000 60001 83800 333 60007 92437
AAXX 17124 60338 12575 52720 10160 20103 30152 40218 57012 60001 82710 333 82723 92448
AAXX 17124 71893 11580 71513 10077 20057 30222 40254 58018 69901 78022 87500 333 10079 20071 55008 70004 90921
AAXX 17124 17024 12570 60807 10122 20084 39980 40056 57032 60001 83550 333 83632 86360 91112 92438
AAXX 17124 17056 12970 52017 10187 20120 30014 40018 57018 60001 85030 333 85360 91031 91131 92458
AAXX 17124 17067 12970 52606 10179 21002 30019 40041 57025 60001 80001 333 85070 91117 92418
AAXX 17124 17092 12660 41805 10075 21048 38848 48476 55007 60001 84400 333 84640
AAXX 17124 17112 12670 62039 10170 20090 30011 40013 57027 60001 84270 333 84835 86360 91144 92458
AAXX 17124 17115 12960 52017 10152 20089 39979 40029 57026 60001 80001 333 85070 91129
AAXX 17124 17116 12665 62014 10163 20014 39929 40049 57021 60001 84250 333 84835 86360 91127
AAXX 17124 17188 12660 71005 10089 20032 39063 40128 57016 60001 84450 333 84637 87360 91115
AAXX 17124 17202 11059 82204 10004 21006 39177 40233 55002 60011 70277 84620 333 84701 88530 93103
AAXX 17124 17248 12975 60305 10061 20007 38961 48469 57014 60001 83036 333 83360 86270
AAXX 17124 17292 12670 61303 10106 20082 39388 40152 57022 60001 83250 333 83835 86360 91107
AAXX 17124 17300 12560 60301 10135 20048 30086 40158 57009 60001 83250 333 83830 85359
AAXX 17124 17310 12670 51601 10190 20041 30163 40170 58006 60001 81270 333 81837 85360 91106 92438
AAXX 17124 17330 12970 51202 10165 20065 30151 40169 58010 60001 83031 333 83360 85070
AAXX 17124 17026 12870 61506 10138 20041 30036 40074 57034 60001 86050 333 86358 91115 92428
AAXX 17124 17034 12970 40203 10124 20079 30085 40130 57013 60001 84030 333 84360 92428
AAXX 17124 17070 12965 52104 10095 21005 39225 40090 57021 60001 85030 333 85360 91114
AAXX 17124 17084 12670 72106 10084 20002 39234 40147 56015 60001 83570 333 83635 87360 91115
AAXX 17124 17090 12665 61503 10039 21027 38701 48473 57008 60001 84550 333 84636 86360
AAXX 17124 17098 11535 70505 11070 21070 38183 48500 56008 60001 71042 85550 333 85630 87357
AAXX 17124 17150 12660 71915 10162 20085 39942 40065 57024 60001 83130 333 83835 86360 91125
AAXX 17124 17160 12670 62207 10072 20003 38987 48459 57011 60001 84550 333 84640 86360 91114
AAXX 17124 17184 12670 71707 10159 20085 39977 40088 57020 60001 85250 333 85836 87360 91112
AAXX 17124 17189 12960 61705 10106 21033 38962 48436 57020 60001 86030 333 86360
AAXX 17124 17210 11565 82602 10048 20036 39151 40196 53007 60031 76162 8452/ 333 84630 88459
AAXX 17124 17234 12670 70802 10153 20087 30054 40122 57020 60001 83270 333 83840 87360 91112
AAXX 17124 17260 11560 70306 10056 20031 39365 40207 55003 69921 70282 85250 333 85820 87358
AAXX 17124 17290 12670 71709 10173 20106 30100 40132 55014 60001 84270 333 84835 87360 91119 92438
AAXX 17124 17370 12665 51504 10147 20051 30165 40169 57004 60001 83201 333 83835 85070 92427
AAXX 17121 13160 11697 82607 10032 20025 39865 49974 52039 60071 76076 885// 333 91012 91114
AAXX 17121 13262 11698 52703 10059 20016 39841 49988 52025 60081 70286 85500
AAXX 17121 13272 11470 52910 10051 20018 39856 49975 52043 60031 70286 85800 333 84814 85650 91015
AAXX 17121 13285 11698 82904 10044 20030 38874 49976 52055 60041 70262 885//
AAXX 17121 13289 11/92 92908 10005 20003 38763 48281 52025 60041 74564 333 91020 91128
AAXX 17121 13376 12697 52905 10074 20015 39722 49980 52052 60021 85800
AAXX 17121 13388 11698 72704 10134 20019 39702 49940 53022 60011 70262 87800
AAXX 17121 13462 11560 61604 10145 20067 39934 49972 56005 60051 70262 84870 333 82833 84640 86458
AAXX 17121 13473 NIL
AAXX 17121 13489 11597 71803 10094 20069 39461 49966 53014 60021 72162 87600
AAXX 17124 17022 12565 61705 10170 21004 39883 40045 57025 60001 84550 333 84630 86359 91121 92437
AAXX 17124 17031 12670 61812 10156 20017 30099 40105 57020 60001 81101 333 81836 86070
AAXX 17124 17038 12965 32909 10128 20075 30084 40134 53003 60001 83030 333 83360 92427
AAXX 17124 17050 12670 61810 10164 20104 39922 49983 57024 60001 84270 333 84835 86360 91127
AAXX 17124 17060 12960 02020 10143 20068 39995 40034 57015 60001
AAXX 17124 17096 11556 43104 11075 21081 38225 48502 55010 60001 71042 84500 333 84630
AAXX 17124 17124 12660 61804 10110 20012 39184 40097 57027 60001 84250 333 84835 85360
AAXX 17124 17128 12670 62110 10083 21013 39027 40126 57023 60001 83250 333 83840 86360
AAXX 17124 17170 NIL
AAXX 17124 17195 12670 70000 10075 21007 38945 48469 57016 60001 81108 333 81840 87268
AAXX 17124 17199 11565 82202 10025 20014 39097 40221 56005 69981 70272 85620 333 82720 84635 87460
AAXX 17124 17219 11565 71916 10155 20113 39948 40093 56018 69921 78022 84250 333 84830 87360 91127
AAXX 17124 17240 12970 40703 10068 20015 39001 40164 57019 60001 84030 333 84360 91107
AAXX 17124 17244 12670 61716 10084 21026 38963 48461 57016 60001 83550 333 83640 86360
AAXX 17124 17280 11640 82904 10037 20024 39402 40215 55007 60021 76062 8552/ 333 85635 88459 96010
AAXX 17124 17350 12660 30907 10151 20066 30087 40165 57010 60001 82101 333 82835 83070
AAXX 17121 01180 11681 11903 10014 21073 39871 49928 51011 60001 70200 81100 333 91110
AAXX 17124 71893 11580 71513 10077 20057 30222 40254 58018 69901 78022 87500 333 10079 20071 55008 70004 90921
AAXX 17121 01311 47/72 30000 11001 21006 39868 49930 52015 700// 333 91104
AAXX 17121 01025 17/84 02006 11004 21046 39924 49935 53015 6//// 700// 333 91109
AAXX 17121 01488 16/// /2902 10000 21018 60001 333 91104
AAXX 17121 01441 16/// /0601 11149 21173 38932 49961 52001 60001 333 91102
AAXX 17124 60715 11558 72509 10147 20107 30126 40133 56008 60031 70265 8327/ 333 59081 50271 83826 86359 91013 91119
AAXX 17124 60723 11560 73102 10119 20111 39969 40158 50008 60041 76062 8428/ 333 50211 84820 84360
AAXX 17124 60725 11558 82412 10126 2//// 39975 40152 58008 60051 70286 888// 333 50411 84820 85630
AAXX 17124 60735 12565 73306 10159 20100 30061 40142 52010 60001 86802 333 50181 83823 84630
AAXX 17124 60745 12560 02207 10163 20067 39774 40139 56020 60001 82502 333 50271 82630 83070
AAXX 17124 60748 12560 52906 10178 20067 39723 40132 56013 60001 83802 333 50661 82823 83070
AAXX 17124 60750 12960 52910 10204 20036 30106 40131 56014 60001 80002 333 5///1 85070
AAXX 17124 60760 12560 42706 10158 20026 30047 40150 56021 60001 81202 333 50261 81830 84070 91009 91111
AAXX 17124 60765 12960 52512 10182 20085 30160 40163 58008 60001 80002 333 85070 92446 925//
AAXX 17124 60767 12960 52316 10160 20034 30001 40144 58023 60001 80002 333 50361 85070
AAXX 17124 60769 12460 52716 10183 20091 30127 40131 58022 60001 81202 333 50361 81816 85070
AAXX 17124 60710 11560 82104 10119 20106 30064 40143 56003 60071 72162 888// 333 50401 84820 85630
AAXX 17124 60714 11460 72710 10143 2//// 30138 40144 58005 69961 70262 878// 333 50381 84816 85630
AAXX 17124 60720 11560 62708 10162 20112 30090 40123 50004 60021 70282 86800 333 50271 84820 83630
AAXX 17124 60728 11562 62906 10145 20141 30049 40142 54000 60011 72582 86800 333 5//// 83823 84626
AAXX 17124 60729 11558 73009 10146 20124 39970 40155 51022 69961 72162 875// 333 50271 87626
AAXX 17124 60731 NIL
AAXX 17124 60732 11556 72708 10110 20094 39546 40152 50007 60011 70282 878// 333 50241 83820 85626
AAXX 17124 60734 12565 72910 10124 20111 39623 40141 57001 60001 8688/ 333 50381 84823 83630
AAXX 17124 60738 12560 63219 10080 20068 38911 48479 56001 60001 84282 333 50401 84823
AAXX 17124 60739 12658 63312 10153 20063 39332 40137 57007 60001 84232 333 50431 84837 94269
AAXX 17124 60740 12460 72908 10164 20084 30136 40138 50005 60001 8488/ 333 50251 81816 83626 85360
AAXX 17124 60742 NIL
AAXX 17124 60764 12962 42004 10148 20059 30100 40151 57025 60001 80002 333 50401 84070
AAXX 17124 60770 12975 42712 10208 20071 30007 40142 57023 60001 80002 333 50331 84070
AAXX 17124 60772 12965 22414 10193 20050 39894 40144 56022 60001 80002 333 5///1 82070
AAXX 17124 60775 12965 22612 10175 20030 39808 40158 56019 60001 80002 333 5///1 82070
AAXX 17124 60780 12960 22416 10177 20036 39876 40178 57022 60001 80002 333 5///1 82070
AAXX 17124 78906 11578 20811 10261 20175 30136 40141 702// 81801 333 10284 20240 58006 70002 81819
AAXX 17124 64507 32460 3//// 10308 20242 3//// 40//// 83200 333 0//00 5//// 83813 94919 95839
AAXX 17124 64600 32975 03606 10300 20101 39445 40086 333 59006
AAXX 17124 64601 31940 00423 10285 20043 38985 48501 70500 333 59004
AAXX 17124 64605 32980 03408 10307 20024 39349 40080 333 59005
AAXX 17124 64610 32970 01402 10313 20078 3//// 4//// 333 5////
AAXX 17124 64650 NIL
AAXX 17124 64654 32980 03604 10336 20078 39524 40084 333 59003
AAXX 17124 64655 32975 00404 10316 20103 39439 40075 333 59012
AAXX 17124 64656 32570 32604 10305 20193 39532 40078 82102 333 59004 82825 94904 95834
AAXX 17124 64659 NIL
AAXX 17124 64660 32565 22204 10320 20153 39551 40069 82200 333 59002 82826 94929 95839
AAXX 17124 64662 32580 50804 10320 20192 39579 40070 82102 333 59004 82820 85080 94919 95819
AAXX 17124 64665 32580 52804 10320 20209 3//// 4//// 85200 333 5//// 85830 94939 95879
AAXX 17124 65351 31940 70806 10310 20108 3//// 4//// 70522 80002 333 5//// 87076
AAXX 17124 65355 41950 70806 10304 20016 39602 40113 70522 80002 333 59008 87073
AAXX 17124 65357 31930 71004 10322 20013 39723 40111 70522 80002 333 59010 87076
AAXX 17124 65380 32458 70000 10320 20214 3//// 4//// 82502 333 5//// 82610 87076
AAXX 17121 13168 11697 72509 10038 20029 39864 49971 51039 60061 72166 87500 333 91113
AAXX 17121 13174 11698 82508 10029 20020 39853 49953 53044 60061 72162 885//
AAXX 17121 13269 11599 72902 10065 20021 39774 49986 52044 60031 70286 87800
AAXX 17121 13274 11597 72905 10048 20020 39818 49819 52048 60041 70162 87800 333 91011 91112
AAXX 17121 13278 12699 63205 10060 20028 39763 49984 52061 60021 86500 333 91112
AAXX 17121 13378 11499 62507 11014 21015 38072 48301 52017 60051 70274 86500 333 91015 91121
AAXX 17121 13397 11697 82206 10114 20053 39434 49953 53009 69931 76162 885// 333 91014 91116
AAXX 17121 13457 11670 52803 10159 20028 39964 49971 57008 60061 70196 85800 333 81836 84650
AAXX 17121 13481 NIL
AAXX 17121 13173 11698 82909 10032 20020 39862 49962 52044 60041 72162 888// 333 91115
AAXX 17121 13180 11698 82707 10042 20040 39861 49971 52056 60041 70262 885// 333 91113
AAXX 17121 13266 11698 72707 10045 20020 39881 49982 52034 60051 70262 87800
AAXX 17121 13369 11598 52907 10048 21025 38781 48281 52010 60071 70296 84840 333 91012 99114
AAXX 17121 13383 11698 42003 10138 20070 39747 49942 52023 60021 70162 84800
AAXX 17121 13384 11597 73404 10062 20025 39832 49982 52061 60041 70262 87500 333 91117
AAXX 17121 13389 32598 82404 10132 20030 39678 49948 52025 888//
AAXX 17121 13477 NIL
AAXX 17121 76040 32902 01001 10081 20032 30158 40172 52001 91157 333 10174 20078 30/// 58001 70000 98602
AAXX 17121 76113 32970 00301 10072 20058 39678 40146 5//// 91150 333 10180 20070 30062 50081 55058 58026 70000
AAXX 17121 76122 32756 80000 10040 20019 38584 40241 5//// 88010 91150 333 10128 20030 30030 55093 56090 58/// 70000 88456
AAXX 17121 76123 06/// /1205 10040 20009 3//// 4//// 5//// 60001 7//// 8//// 91150 333 0//// 10133 20024 4//// 50219 55086 56/// 57/// 5//// 60007 70000 8//// 8//// 8//// 8//// 9//// 9/
AAXX 17121 76220 32858 40000 10034 20021 38183 40225 5//// 84030 91150 333 10178 20034 30014 56050 58051 70000
AAXX 17121 76225 32920 00000 10032 20013 38693 40242 5//// 91145 333 10140 21012 30013 58053 70000
AAXX 17121 76226 02/// ///// 1//// 2//// 3//// 4//// 5//// 6//// 7//// 8//// 9//// 333 0//// 1//// 2//// 30/// 4//// 5//// 54/// 55/// 56/// 57/// 5//// 6//// 7//// 8//// 8//// 8//// 9/
AAXX 17121 76305 32670 80000 10165 20075 30151 40160 5//// 8442/ 91134 333 10225 20148 30136 5655/ 58019 70000 84650
AAXX 17121 76323 32810 83501 10030 21006 38321 40308 52002 8803/ 91145 333 10138 20020 31005 5605/ 58049 70000 88357
AAXX 17121 76342 11430 83601 10088 20077 39596 40330 54000 60011 75055 887// 91150 333 10134 20082 30074 561// 58058 70025 88710
AAXX 17121 76373 32910 00000 10035 20004 38245 40200 5//// 91150 333 10260 21015 31010 58024 70000
AAXX 17121 76382 32960 03201 10110 20085 38960 40211 52004 91145 333 10253 20089 30078 58054 70000
AAXX 17121 76393 01008 80101 10104 20097 39692 40288 52007 60011 75055 887// 91155 333 10146 20104 30100 569// 58073 69937 70006 88703
AAXX 17121 76402 32550 70000 10134 20095 30111 40169 52001 87500 91145 333 10225 20130 30128 56500 59018 70000 87630
AAXX 17121 76423 32960 20000 10054 20023 38185 40195 52006 80005 91155 333 10251 20050 30/// 56009 58034 70000 82070
AAXX 17121 76458 32960 03202 10156 20140 30162 40166 53002 91151 333 10242 20131 30126 58026 70000
AAXX 17121 76471 32980 00000 10082 20045 37720 40151 5//// 91150 333 10213 20055 30030 55097 58029 70000
AAXX 17121 76490 06/// /3603 10125 20104 39874 40276 52008 60001 7//// 8//// 91150 333 0//// 10201 20124 30/// 50189 54/// 55000 56/// 57/// 58084 60007 70000 8//// 8//// 8//// 8//// 9/
AAXX 17121 76491 32456 73202 10124 20122 39891 40291 52009 875// 91145 333 10205 20120 30/// 569// 58098 79999 87620
AAXX 17121 76525 32260 31207 10072 20058 37503 40193 52003 83600 91140 333 10179 20069 30065 55089 22412 563// 58035 70000 83706
AAXX 17121 76538 06/// /0703 10121 20114 38210 40218 53007 60001 7//// 8//// 91150 333 0//// 10245 20121 30/// 4//// 50279 54/// 55078 56/// 57/// 58043 60007 70000 8//// 8//// 8//// 9/
AAXX 17121 76539 32658 80601 10117 20114 38205 40221 52004 88400 91150 333 10240 20101 30074 56700 58030 70000 88626
AAXX 17121 76543 12675 83603 10163 20139 30240 40273 53/// 60091 8252/ 91150 333 10286 20163 31/// 5633/ 58086 70088 82650 86458
AAXX 17121 76547 06/// /0103 10168 20138 30241 40253 52013 60001 7//// 8//// 91150 333 0//// 10271 20166 4//// 50209 55006 56/// 57/// 58089 60007 70002 8//// 8//// 8//// 8//// 9//// 9/
AAXX 17121 76548 32960 83604 10168 20139 30250 40260 53011 8802/ 91140 333 10266 20166 30172 56050 58089 70000 88462
AAXX 17121 76556 32960 01602 10136 20109 39127 40151 52001 91130 333 10284 20134 30112 58027 70000
AAXX 17121 76577 32960 03602 10124 20106 38076 40185 52005 91140 333 10250 20118 30109 58033 70000
AAXX 17121 76578 06/// /0102 10124 20075 38074 40197 53005 60001 7//// 8//// 91150 333 0//// 10270 20117 30/// 4//// 50289 54/// 55047 56/// 57/// 58033 60007 70000 8//// 8//// 8//// 9/
AAXX 17121 76581 32960 02002 10151 20134 39133 40203 5//// 88020 91150 333 10250 20117 30109 56030 58086 70000 88460
AAXX 17121 76586 06/// /0701 10162 20160 30097 40256 53011 60121 7//// 8//// 91150 333 0//// 10301 20161 30/// 4//// 50219 54/// 55030 56/// 57/// 58088 60037 70136 8//// 8//// 8//// 9/
AAXX 17121 76592 06/// /0406 10229 20008 30203 40203 53007 60001 7//// 8//// 91150 333 0//// 10287 20225 30/// 4//// 50659 54/// 55093 56/// 57/// 58032 60007 70000 8//// 8//// 8//// 9/
AAXX 17121 76612 32958 00000 10090 20085 38507 40211 52010 91155 333 10268 20090 30080 58035 70000
AAXX 17121 76625 32560 30902 10128 20096 38176 40173 52004 82130 91140 333 10259 20124 30115 56220 58038 70000 82825
AAXX 17121 76632 31558 50204 10100 20090 37654 40171 5//// 70511 85400 91150 333 10200 20095 30/// 56100 58011 85633
AAXX 17121 76634 31430 82801 10108 20105 37894 40226 52002 71042 88400 91150 333 10211 20095 30082 563// 58040 70002 88620
AAXX 17121 76641 06/// /1002 10192 20189 30228 40240 53018 60051 7//// 8//// 91150 333 0//// 10275 20192 30/// 4//// 50169 54/// 55000 56/// 57/// 58078 60057 70046 8//// 8//// 8//// 8/
AAXX 17121 76644 32850 10801 10202 20193 30189 40201 53002 80005 91150 333 10318 20200 30172 56//9 58030 70000
AAXX 17121 76645 06/// /0301 10200 20193 30193 40206 53006 60001 7//// 8//// 91150 333 0//// 10318 20200 30/// 4//// 50379 54/// 55073 56/// 57/// 58032 60007 70000 8//// 8//// 8//// 9/
AAXX 17121 76648 06/// /0202 10185 20172 30165 40197 53009 60001 7//// 8//// 91150 333 0//// 10323 20185 30/// 4//// 50269 54/// 55000 56/// 57/// 58027 60007 70000 8//// 8//// 8//// 8/
AAXX 17121 76654 31956 00201 10209 20171 30147 40151 55002 70544 91150 333 10284 20207 30175 58015 70000
AAXX 17121 76656 32968 00000 10078 20053 38534 40211 52010 81250 333 10268 20065 30022 58031 70000
AAXX 17121 76659 06/// /0202 10169 20142 3//// 4//// 5//// 60001 7//// 8//// 91150 333 0//// 10339 20166 30/// 4//// 50369 54/// 55086 56/// 57/// 5//// 60007 70000 8//// 8//// 8//// 9/
AAXX 17121 76662 32960 03001 10090 20064 38494 40191 52007 91145 333 10294 20058 30046 58035 70000
AAXX 17121 76665 32958 02601 10072 20042 38154 40202 52007 91150 333 10280 20062 30050 58032 70000
AAXX 17121 76675 32960 22102 10020 20000 37408 40231 51003 80005 91140 333 10225 20007 31019 56009 58027 70000
AAXX 17121 76680 31958 00000 10090 20073 37791 40145 54000 70400 91150 333 10244 20090 30072 58037 70000
AAXX 17121 76683 32960 03601 10048 20052 37863 40243 55000 91145 333 10239 20084 30060 50331 55102 21873 58030 70000
AAXX 17121 76684 06/// /0203 10073 20037 37867 40268 53002 60001 7//// 8//// 91150 333 0//// 10261 20072 30/// 4//// 50379 54/// 55/// 56/// 57/// 58031 60007 70000 8//// 8//// 8//// 9/
AAXX 17121 76685 32950 00000 10068 20048 37901 40200 54000 91150 333 10246 20066 30020 58034 70000
AAXX 17121 76687 01210 82301 10148 20139 38733 40228 52005 69901 75044 886// 91148 333 10236 20146 30131 563// 58057 69907 79999 86706 82608
AAXX 17121 76692 01520 83303 10216 20202 30190 40210 51000 60151 75865 85620 91145 333 10271 20214 31/// 5688/ 58054 60107 70151 85630 82456 81355
AAXX 17121 76693 06/// /3303 10216 20201 30197 40216 53004 60171 7//// 8//// 91150 333 0//// 10271 20208 30/// 4//// 50199 55000 56/// 57/// 58057 60107 70194 8//// 8//// 8//// 8//// 9/
AAXX 17121 76695 32956 03301 10204 20194 30185 40191 5//// 84030 91150 333 10312 20203 30177 56/0/ 59039 70000 84360
AAXX 17121 76698 12560 60000 10212 20209 30183 40195 5//// 60011 86200 91155 333 10305 20212 30200 56/00 58025 70023 86820
AAXX 17121 76727 06/// /0000 10134 20050 38425 40177 53005 60001 7//// 8//// 91150 333 0//// 10290 20134 30/// 4//// 50239 54/// 55000 56/// 57/// 58030 60007 70000 8//// 8//// 8//// 9/
AAXX 17121 76737 01470 80000 10154 20141 38823 40211 51003 69921 75022 887// 91135 333 10229 20154 30143 562// 59055 69927 70002 88713 91102 91534
AAXX 17121 76738 06/// /0000 10150 20144 38826 40221 53003 69921 7//// 8//// 333 10234 20149 30/// 50189 55000 56/// 57/// 58046 69927 70002 8//// 8//// 8//// 8//// 9//// 9//// 9//// 44
AAXX 17121 76743 32950 03401 10225 20212 30179 40187 52005 91145 333 10293 20225 30220 58042 70000
AAXX 17121 76750 01560 43303 10218 20212 30181 40192 52012 60011 75050 82230 91150 333 10314 20210 30202 56110 58034 60017 70010 82820
AAXX 17121 76751 06/// /0101 10216 20212 30181 40192 53012 60001 7//// 8//// 91150 333 0//// 10312 20211 30/// 4//// 50219 54/// 55000 56/// 57/// 58034 60007 70000 8//// 8//// 8//// 9/
AAXX 17121 76762 31602 10000 10160 20144 38782 40156 52009 70144 81400 91145 333 10318 20150 30134 56300 58/// 70000 81638
AAXX 17121 76772 06/// /3101 10085 20066 38458 40237 53005 60001 7//// 8//// 91150 333 0//// 10307 20085 30/// 4//// 5///9 55000 56/// 57/// 58025 60007 70000 8//// 8//// 8//// 9//// 9/
AAXX 17121 76773 32540 30401 10098 20073 38454 40162 52006 83400 91148 333 10296 20080 30072 50371 55094 56200 58026 70000 83620
AAXX 17121 76775 31560 20501 10133 20088 38554 40202 54000 70100 82440 91145 333 10310 20122 30/// 56880 58027 70000 82695 81398
AAXX 17121 76776 06/// /0402 10131 20090 38538 40199 55000 60001 7//// 8//// 91150 333 0//// 10312 20120 30/// 4//// 50399 55085 56/// 57/// 58026 60007 70000 8//// 8//// 8//// 9//// 9/
AAXX 17121 76806 06/// /3302 10228 20216 30137 40141 55000 60001 7//// 8//// 91150 333 10314 20224 30203 30/// 50219 55000 56/// 57/// 58022 60007 70000 8//// 8//// 8//// 8//// 9//// 9/
AAXX 17121 76833 32960 03610 10272 20199 30137 40140 52007 91140 333 10324 20266 30260 59020 70000 92000
AAXX 17121 76840 32520 10207 10266 20183 30079 40134 52006 81100 91140 333 10344 20228 30/// 55082 569// 58021 79999 81827 91217 91502 90410
AAXX 17121 76843 32965 00000 10199 20162 39519 40160 52010 91140 333 10290 20191 30171 58029 79999
AAXX 17121 76845 32256 40602 10105 20096 37976 40223 5//// 84600 91147 333 10208 20095 30082 56200 58020 70003 84703
AAXX 17121 76848 32450 40401 10128 20102 38405 40133 51005 84600 91150 333 10238 20128 30112 56100 58022 70045 84711 96722
AAXX 17121 76902 06/// /0602 10225 20188 39996 40135 52005 60001 7//// 8//// 91150 333 0//// 10341 20225 30/// 4//// 50399 54/// 56/// 57/// 58007 60007 70000 8//// 8//// 8//// 8//// 9/
AAXX 17121 76405 32840 61801 10172 20141 30145 40167 52005 86090 91150 333 10240 20146 30145 58016 70000 86356
AAXX 17121 76412 32960 02801 10120 20087 30159 40205 52043 91150 333 10226 20104 30/// 58038 70000
AAXX 17121 76640 11010 83605 10204 20201 30236 40248 52009 60031 75052 8572/ 91140 333 10276 20190 30188 5689/ 58143 70028 85701 83440
AAXX 17121 76647 32870 20202 10190 20184 30178 40208 52009 82030 91150 333 10304 20187 30170 560/0 58028 70000 82358
AAXX 17121 76741 01240 50504 10241 20228 30160 40178 53006 60041 72146 84220 91135 333 10285 20229 30226 561// 58062 60047 70051 84806
AAXX 17121 76855 32580 23301 10218 20185 30068 40118 5//// 81230 91150 333 10332 20208 30202 55085 56990 58014 70000 81820 92000
AAXX 17121 76040 32902 01001 10081 20032 30158 40172 52001 91157 333 10174 20078 30/// 58001 70000 98602
AAXX 17121 76113 32970 00301 10072 20058 39678 40146 5//// 91150 333 10180 20070 30062 50081 55058 58026 70000
AAXX 17121 76122 32756 80000 10040 20019 38584 40241 5//// 88010 91150 333 10128 20030 30030 55093 56090 58/// 70000 88456
AAXX 17121 76123 06/// /1205 10040 20009 3//// 4//// 5//// 60001 7//// 8//// 91150 333 0//// 10133 20024 4//// 50219 55086 56/// 57/// 5//// 60007 70000 8//// 8//// 8//// 8//// 9//// 9/
AAXX 17121 76220 32858 40000 10034 20021 38183 40225 5//// 84030 91150 333 10178 20034 30014 56050 58051 70000
AAXX 17121 76225 32920 00000 10032 20013 38693 40242 5//// 91145 333 10140 21012 30013 58053 70000
AAXX 17121 76226 02/// ///// 1//// 2//// 3//// 4//// 5//// 6//// 7//// 8//// 9//// 333 0//// 1//// 2//// 30/// 4//// 5//// 54/// 55/// 56/// 57/// 5//// 6//// 7//// 8//// 8//// 8//// 9/
AAXX 17121 76305 32670 80000 10165 20075 30151 40160 5//// 8442/ 91134 333 10225 20148 30136 5655/ 58019 70000 84650
AAXX 17121 76323 32810 83501 10030 21006 38321 40308 52002 8803/ 91145 333 10138 20020 31005 5605/ 58049 70000 88357
AAXX 17121 76342 11430 83601 10088 20077 39596 40330 54000 60011 75055 887// 91150 333 10134 20082 30074 561// 58058 70025 88710
AAXX 17121 76373 32910 00000 10035 20004 38245 40200 5//// 91150 333 10260 21015 31010 58024 70000
AAXX 17121 76382 32960 03201 10110 20085 38960 40211 52004 91145 333 10253 20089 30078 58054 70000
AAXX 17121 76393 01008 80101 10104 20097 39692 40288 52007 60011 75055 887// 91155 333 10146 20104 30100 569// 58073 69937 70006 88703
AAXX 17121 76402 32550 70000 10134 20095 30111 40169 52001 87500 91145 333 10225 20130 30128 56500 59018 70000 87630
AAXX 17121 76423 32960 20000 10054 20023 38185 40195 52006 80005 91155 333 10251 20050 30/// 56009 58034 70000 82070
AAXX 17121 76458 32960 03202 10156 20140 30162 40166 53002 91151 333 10242 20131 30126 58026 70000
AAXX 17121 76471 32980 00000 10082 20045 37720 40151 5//// 91150 333 10213 20055 30030 55097 58029 70000
AAXX 17121 76490 06/// /3603 10125 20104 39874 40276 52008 60001 7//// 8//// 91150 333 0//// 10201 20124 30/// 50189 54/// 55000 56/// 57/// 58084 60007 70000 8//// 8//// 8//// 8//// 9/
AAXX 17121 76491 32456 73202 10124 20122 39891 40291 52009 875// 91145 333 10205 20120 30/// 569// 58098 79999 87620
AAXX 17121 76525 32260 31207 10072 20058 37503 40193 52003 83600 91140 333 10179 20069 30065 55089 22412 563// 58035 70000 83706
AAXX 17121 76538 06/// /0703 10121 20114 38210 40218 53007 60001 7//// 8//// 91150 333 0//// 10245 20121 30/// 4//// 50279 54/// 55078 56/// 57/// 58043 60007 70000 8//// 8//// 8//// 9/
AAXX 17121 76539 32658 80601 10117 20114 38205 40221 52004 88400 91150 333 10240 20101 30074 56700 58030 70000 88626
AAXX 17121 76543 12675 83603 10163 20139 30240 40273 53/// 60091 8252/ 91150 333 10286 20163 31/// 5633/ 58086 70088 82650 86458
AAXX 17121 76547 06/// /0103 10168 20138 30241 40253 52013 60001 7//// 8//// 91150 333 0//// 10271 20166 4//// 50209 55006 56/// 57/// 58089 60007 70002 8//// 8//// 8//// 8//// 9//// 9/
AAXX 17121 76548 32960 83604 10168 20139 30250 40260 53011 8802/ 91140 333 10266 20166 30172 56050 58089 70000 88462
AAXX 17121 76556 32960 01602 10136 20109 39127 40151 52001 91130 333 10284 20134 30112 58027 70000
AAXX 17121 76577 32960 03602 10124 20106 38076 40185 52005 91140 333 10250 20118 30109 58033 70000
AAXX 17121 76578 06/// /0102 10124 20075 38074 40197 53005 60001 7//// 8//// 91150 333 0//// 10270 20117 30/// 4//// 50289 54/// 55047 56/// 57/// 58033 60007 70000 8//// 8//// 8//// 9/
AAXX 17121 76581 32960 02002 10151 20134 39133 40203 5//// 88020 91150 333 10250 20117 30109 56030 58086 70000 88460
AAXX 17121 76586 06/// /0701 10162 20160 30097 40256 53011 60121 7//// 8//// 91150 333 0//// 10301 20161 30/// 4//// 50219 54/// 55030 56/// 57/// 58088 60037 70136 8//// 8//// 8//// 9/
AAXX 17121 76592 06/// /0406 10229 20008 30203 40203 53007 60001 7//// 8//// 91150 333 0//// 10287 20225 30/// 4//// 50659 54/// 55093 56/// 57/// 58032 60007 70000 8//// 8//// 8//// 9/
AAXX 17121 76612 32958 00000 10090 20085 38507 40211 52010 91155 333 10268 20090 30080 58035 70000
AAXX 17121 76625 32560 30902 10128 20096 38176 40173 52004 82130 91140 333 10259 20124 30115 56220 58038 70000 82825
AAXX 17121 76632 31558 50204 10100 20090 37654 40171 5//// 70511 85400 91150 333 10200 20095 30/// 56100 58011 85633
AAXX 17121 76634 31430 82801 10108 20105 37894 40226 52002 71042 88400 91150 333 10211 20095 30082 563// 58040 70002 88620
AAXX 17121 76641 06/// /1002 10192 20189 30228 40240 53018 60051 7//// 8//// 91150 333 0//// 10275 20192 30/// 4//// 50169 54/// 55000 56/// 57/// 58078 60057 70046 8//// 8//// 8//// 8/
AAXX 17121 76644 32850 10801 10202 20193 30189 40201 53002 80005 91150 333 10318 20200 30172 56//9 58030 70000
AAXX 17121 76645 06/// /0301 10200 20193 30193 40206 53006 60001 7//// 8//// 91150 333 0//// 10318 20200 30/// 4//// 50379 54/// 55073 56/// 57/// 58032 60007 70000 8//// 8//// 8//// 9/
AAXX 17121 76648 06/// /0202 10185 20172 30165 40197 53009 60001 7//// 8//// 91150 333 0//// 10323 20185 30/// 4//// 50269 54/// 55000 56/// 57/// 58027 60007 70000 8//// 8//// 8//// 8/
AAXX 17121 76654 31956 00201 10209 20171 30147 40151 55002 70544 91150 333 10284 20207 30175 58015 70000
AAXX 17121 76656 32968 00000 10078 20053 38534 40211 52010 81250 333 10268 20065 30022 58031 70000
AAXX 17121 76659 06/// /0202 10169 20142 3//// 4//// 5//// 60001 7//// 8//// 91150 333 0//// 10339 20166 30/// 4//// 50369 54/// 55086 56/// 57/// 5//// 60007 70000 8//// 8//// 8//// 9/
AAXX 17121 76662 32960 03001 10090 20064 38494 40191 52007 91145 333 10294 20058 30046 58035 70000
AAXX 17121 76665 32958 02601 10072 20042 38154 40202 52007 91150 333 10280 20062 30050 58032 70000
AAXX 17121 76675 32960 22102 10020 20000 37408 40231 51003 80005 91140 333 10225 20007 31019 56009 58027 70000
AAXX 17121 76680 31958 00000 10090 20073 37791 40145 54000 70400 91150 333 10244 20090 30072 58037 70000
AAXX 17121 76683 32960 03601 10048 20052 37863 40243 55000 91145 333 10239 20084 30060 50331 55102 21873 58030 70000
AAXX 17121 76684 06/// /0203 10073 20037 37867 40268 53002 60001 7//// 8//// 91150 333 0//// 10261 20072 30/// 4//// 50379 54/// 55/// 56/// 57/// 58031 60007 70000 8//// 8//// 8//// 9/
AAXX 17121 76685 32950 00000 10068 20048 37901 40200 54000 91150 333 10246 20066 30020 58034 70000
AAXX 17121 76687 01210 82301 10148 20139 38733 40228 52005 69901 75044 886// 91148 333 10236 20146 30131 563// 58057 69907 79999 86706 82608
AAXX 17121 76692 01520 83303 10216 20202 30190 40210 51000 60151 75865 85620 91145 333 10271 20214 31/// 5688/ 58054 60107 70151 85630 82456 81355
AAXX 17121 76693 06/// /3303 10216 20201 30197 40216 53004 60171 7//// 8//// 91150 333 0//// 10271 20208 30/// 4//// 50199 55000 56/// 57/// 58057 60107 70194 8//// 8//// 8//// 8//// 9/
AAXX 17121 76695 32956 03301 10204 20194 30185 40191 5//// 84030 91150 333 10312 20203 30177 56/0/ 59039 70000 84360
AAXX 17121 76698 12560 60000 10212 20209 30183 40195 5//// 60011 86200 91155 333 10305 20212 30200 56/00 58025 70023 86820
AAXX 17121 76727 06/// /0000 10134 20050 38425 40177 53005 60001 7//// 8//// 91150 333 0//// 10290 20134 30/// 4//// 50239 54/// 55000 56/// 57/// 58030 60007 70000 8//// 8//// 8//// 9/
AAXX 17121 76737 01470 80000 10154 20141 38823 40211 51003 69921 75022 887// 91135 333 10229 20154 30143 562// 59055 69927 70002 88713 91102 91534
AAXX 17121 76738 06/// /0000 10150 20144 38826 40221 53003 69921 7//// 8//// 333 10234 20149 30/// 50189 55000 56/// 57/// 58046 69927 70002 8//// 8//// 8//// 8//// 9//// 9//// 9//// 44
AAXX 17121 76743 32950 03401 10225 20212 30179 40187 52005 91145 333 10293 20225 30220 58042 70000
AAXX 17121 76750 01560 43303 10218 20212 30181 40192 52012 60011 75050 82230 91150 333 10314 20210 30202 56110 58034 60017 70010 82820
AAXX 17121 76751 06/// /0101 10216 20212 30181 40192 53012 60001 7//// 8//// 91150 333 0//// 10312 20211 30/// 4//// 50219 54/// 55000 56/// 57/// 58034 60007 70000 8//// 8//// 8//// 9/
AAXX 17121 76762 31602 10000 10160 20144 38782 40156 52009 70144 81400 91145 333 10318 20150 30134 56300 58/// 70000 81638
AAXX 17121 76772 06/// /3101 10085 20066 38458 40237 53005 60001 7//// 8//// 91150 333 0//// 10307 20085 30/// 4//// 5///9 55000 56/// 57/// 58025 60007 70000 8//// 8//// 8//// 9//// 9/
AAXX 17121 76773 32540 30401 10098 20073 38454 40162 52006 83400 91148 333 10296 20080 30072 50371 55094 56200 58026 70000 83620
AAXX 17121 76775 31560 20501 10133 20088 38554 40202 54000 70100 82440 91145 333 10310 20122 30/// 56880 58027 70000 82695 81398
AAXX 17121 76776 06/// /0402 10131 20090 38538 40199 55000 60001 7//// 8//// 91150 333 0//// 10312 20120 30/// 4//// 50399 55085 56/// 57/// 58026 60007 70000 8//// 8//// 8//// 9//// 9/
AAXX 17121 76806 06/// /3302 10228 20216 30137 40141 55000 60001 7//// 8//// 91150 333 10314 20224 30203 30/// 50219 55000 56/// 57/// 58022 60007 70000 8//// 8//// 8//// 8//// 9//// 9/
AAXX 17121 76833 32960 03610 10272 20199 30137 40140 52007 91140 333 10324 20266 30260 59020 70000 92000
AAXX 17121 76840 32520 10207 10266 20183 30079 40134 52006 81100 91140 333 10344 20228 30/// 55082 569// 58021 79999 81827 91217 91502 90410
AAXX 17121 76843 32965 00000 10199 20162 39519 40160 52010 91140 333 10290 20191 30171 58029 79999
AAXX 17121 76845 32256 40602 10105 20096 37976 40223 5//// 84600 91147 333 10208 20095 30082 56200 58020 70003 84703
AAXX 17121 76848 32450 40401 10128 20102 38405 40133 51005 84600 91150 333 10238 20128 30112 56100 58022 70045 84711 96722
AAXX 17121 76902 06/// /0602 10225 20188 39996 40135 52005 60001 7//// 8//// 91150 333 0//// 10341 20225 30/// 4//// 50399 54/// 56/// 57/// 58007 60007 70000 8//// 8//// 8//// 8//// 9/
AAXX 17121 76405 32840 61801 10172 20141 30145 40167 52005 86090 91150 333 10240 20146 30145 58016 70000 86356
AAXX 17121 76412 32960 02801 10120 20087 30159 40205 52043 91150 333 10226 20104 30/// 58038 70000
AAXX 17121 76640 11010 83605 10204 20201 30236 40248 52009 60031 75052 8572/ 91140 333 10276 20190 30188 5689/ 58143 70028 85701 83440
AAXX 17121 76647 32870 20202 10190 20184 30178 40208 52009 82030 91150 333 10304 20187 30170 560/0 58028 70000 82358
AAXX 17121 76741 01240 50504 10241 20228 30160 40178 53006 60041 72146 84220 91135 333 10285 20229 30226 561// 58062 60047 70051 84806
AAXX 17121 76855 32580 23301 10218 20185 30068 40118 5//// 81230 91150 333 10332 20208 30202 55085 56990 58014 70000 81820 92000
BBXX C6SI6 17124 99369 11268 46/// /1305 11019 21067 40317 55004 7//// 8//// 22200 0//// 2////
BBXX S6JU 17124 99389 11487 41/97 /3032 10050 20000 40165 54000 70200 8//// 22214 0//// 2//// 3//// 4//// 5//// 6//// 80030 ICE /////
BBXX SHIP 17121 99307 11235 41/98 80408 10090 20060 40308 51010 70121 88/// 22283 00147 2//// 3//// 4//// 80070
BBXX V7DI8 17123 99336 11248 41497 73518 10050 20000 40320 54000 70282 878// 22200 00170 20504 334// 40603 5//// 6//// 80030 ICE /////
BBXX VRBX7 17121 99307 11235 41/98 80408 10090 20060 40308 51010 70121 88/// 22283 00147 2//// 3//// 4//// 80070
BBXX VRCI9 17124 99369 11479 41/98 /2819 10100 20038 40125 52030 70262 8//// 22215 00158 2//// 3//// 4//// 80070
AAXX 17121 76040 32902 01001 10081 20032 30158 40172 52001 91157 33310174 20078 30/// 58001 70000 98602
AAXX 17121 76113 32970 00301 10072 20058 39678 40146 5//// 91150 33310180 20070 30062 50081 55058 58026 70000
AAXX 17121 76122 32756 80000 10040 20019 38584 40241 5//// 88010 91150333 10128 20030 30030 55093 56090 58/// 70000 88456
AAXX 17121 76123 06/// /1205 10040 20009 3//// 4//// 5//// 60001 7////8//// 91150 333 0//// 10133 20024 4//// 50219 55086 56///57/// 5//// 60007 70000 8//// 8//// 8//// 8//// 9//// 9/
AAXX 17121 76220 32858 40000 10034 20021 38183 40225 5//// 84030 91150333 10178 20034 30014 56050 58051 70000
AAXX 17121 76225 32920 00000 10032 20013 38693 40242 5//// 91145 33310140 21012 30013 58053 70000
AAXX 17121 76226 02/// ///// 1//// 2//// 3//// 4//// 5//// 6//// 7////8//// 9//// 333 0//// 1//// 2//// 30/// 4//// 5//// 54///55/// 56/// 57/// 5//// 6//// 7//// 8//// 8//// 8//// 9/
AAXX 17121 76305 32670 80000 10165 20075 30151 40160 5//// 8442/ 91134333 10225 20148 30136 5655/ 58019 70000 84650
AAXX 17121 76323 32810 83501 10030 21006 38321 40308 52002 8803/ 91145333 10138 20020 31005 5605/ 58049 70000 88357
AAXX 17121 76342 11430 83601 10088 20077 39596 40330 54000 60011 75055887// 91150 333 10134 20082 30074 561// 58058 70025 88710
AAXX 17121 76373 32910 00000 10035 20004 38245 40200 5//// 91150 33310260 21015 31010 58024 70000
AAXX 17121 76382 32960 03201 10110 20085 38960 40211 52004 91145 33310253 20089 30078 58054 70000
AAXX 17121 76393 01008 80101 10104 20097 39692 40288 52007 60011 75055887// 91155 333 10146 20104 30100 569// 58073 69937 7000688703
AAXX 17121 76402 32550 70000 10134 20095 30111 40169 52001 87500 91145333 10225 20130 30128 56500 59018 70000 87630
AAXX 17121 76423 32960 20000 10054 20023 38185 40195 52006 80005 91155333 10251 20050 30/// 56009 58034 70000 82070
AAXX 17121 76458 32960 03202 10156 20140 30162 40166 53002 91151 33310242 20131 30126 58026 70000
AAXX 17121 76471 32980 00000 10082 20045 37720 40151 5//// 91150 33310213 20055 30030 55097 58029 70000
AAXX 17121 76490 06/// /3603 10125 20104 39874 40276 52008 60001 7////8//// 91150 333 0//// 10201 20124 30/// 50189 54/// 5500056/// 57/// 58084 60007 70000 8//// 8//// 8//// 8//// 9/
AAXX 17121 76491 32456 73202 10124 20122 39891 40291 52009 875// 91145333 10205 20120 30/// 569// 58098 79999 87620
AAXX 17121 76525 32260 31207 10072 20058 37503 40193 52003 83600 91140333 10179 20069 30065 55089 22412 563// 58035 70000 83706
AAXX 17121 76538 06/// /0703 10121 20114 38210 40218 53007 60001 7////8//// 91150 333 0//// 10245 20121 30/// 4//// 50279 54///55078 56/// 57/// 58043 60007 70000 8//// 8//// 8//// 9/
AAXX 17121 76539 32658 80601 10117 20114 38205 40221 52004 88400 91150333 10240 20101 30074 56700 58030 70000 88626
AAXX 17121 76543 12675 83603 10163 20139 30240 40273 53/// 60091 8252/91150 333 10286 20163 31/// 5633/ 58086 70088 82650 86458
AAXX 17121 76547 06/// /0103 10168 20138 30241 40253 52013 60001 7////8//// 91150 333 0//// 10271 20166 4//// 50209 55006 56///57/// 58089 60007 70002 8//// 8//// 8//// 8//// 9//// 9/
AAXX 17121 76548 32960 83604 10168 20139 30250 40260 53011 8802/ 91140333 10266 20166 30172 56050 58089 70000 88462
AAXX 17121 76556 32960 01602 10136 20109 39127 40151 52001 91130 33310284 20134 30112 58027 70000
AAXX 17121 76577 32960 03602 10124 20106 38076 40185 52005 91140 33310250 20118 30109 58033 70000
AAXX 17121 76578 06/// /0102 10124 20075 38074 40197 53005 60001 7////8//// 91150 333 0//// 10270 20117 30/// 4//// 50289 54///55047 56/// 57/// 58033 60007 70000 8//// 8//// 8//// 9/
AAXX 17121 76581 32960 02002 10151 20134 39133 40203 5//// 88020 91150333 10250 20117 30109 56030 58086 70000 88460
AAXX 17121 76586 06/// /0701 10162 20160 30097 40256 53011 60121 7////8//// 91150 333 0//// 10301 20161 30/// 4//// 50219 54///55030 56/// 57/// 58088 60037 70136 8//// 8//// 8//// 9/
AAXX 17121 76592 06/// /0406 10229 20008 30203 40203 53007 60001 7////8//// 91150 333 0//// 10287 20225 30/// 4//// 50659 54///55093 56/// 57/// 58032 60007 70000 8//// 8//// 8//// 9/
AAXX 17121 76612 32958 00000 10090 20085 38507 40211 52010 91155 33310268 20090 30080 58035 70000
AAXX 17121 76625 32560 30902 10128 20096 38176 40173 52004 82130 91140333 10259 20124 30115 56220 58038 70000 82825
AAXX 17121 76632 31558 50204 10100 20090 37654 40171 5//// 70511 8540091150 333 10200 20095 30/// 56100 58011 85633
AAXX 17121 76634 31430 82801 10108 20105 37894 40226 52002 71042 8840091150 333 10211 20095 30082 563// 58040 70002 88620
AAXX 17121 76641 06/// /1002 10192 20189 30228 40240 53018 60051 7////8//// 91150 333 0//// 10275 20192 30/// 4//// 50169 54///55000 56/// 57/// 58078 60057 70046 8//// 8//// 8//// 8/
AAXX 17121 76644 32850 10801 10202 20193 30189 40201 53002 80005 91150333 10318 20200 30172 56//9 58030 70000
AAXX 17121 76645 06/// /0301 10200 20193 30193 40206 53006 60001 7////8//// 91150 333 0//// 10318 20200 30/// 4//// 50379 54///55073 56/// 57/// 58032 60007 70000 8//// 8//// 8//// 9/
AAXX 17121 76648 06/// /0202 10185 20172 30165 40197 53009 60001 7////8//// 91150 333 0//// 10323 20185 30/// 4//// 50269 54///55000 56/// 57/// 58027 60007 70000 8//// 8//// 8//// 8/
AAXX 17121 76654 31956 00201 10209 20171 30147 40151 55002 70544 91150333 10284 20207 30175 58015 70000
AAXX 17121 76656 32968 00000 10078 20053 38534 40211 52010 81250 33310268 20065 30022 58031 70000
AAXX 17121 76659 06/// /0202 10169 20142 3//// 4//// 5//// 60001 7////8//// 91150 333 0//// 10339 20166 30/// 4//// 50369 54///55086 56/// 57/// 5//// 60007 70000 8//// 8//// 8//// 9/
AAXX 17121 76662 32960 03001 10090 20064 38494 40191 52007 91145 33310294 20058 30046 58035 70000
AAXX 17121 76665 32958 02601 10072 20042 38154 40202 52007 91150 33310280 20062 30050 58032 70000
AAXX 17121 76675 32960 22102 10020 20000 37408 40231 51003 80005 91140333 10225 20007 31019 56009 58027 70000
AAXX 17121 76680 31958 00000 10090 20073 37791 40145 54000 70400 91150333 10244 20090 30072 58037 70000
AAXX 17121 76683 32960 03601 10048 20052 37863 40243 55000 91145 33310239 20084 30060 50331 55102 21873 58030 70000
AAXX 17121 76684 06/// /0203 10073 20037 37867 40268 53002 60001 7////8//// 91150 333 0//// 10261 20072 30/// 4//// 50379 54///55/// 56/// 57/// 58031 60007 70000 8//// 8//// 8//// 9/
AAXX 17121 76685 32950 00000 10068 20048 37901 40200 54000 91150 33310246 20066 30020 58034 70000
AAXX 17121 76687 01210 82301 10148 20139 38733 40228 52005 69901 75044886// 91148 333 10236 20146 30131 563// 58057 69907 7999986706 82608
AAXX 17121 76692 01520 83303 10216 20202 30190 40210 51000 60151 7586585620 91145 333 10271 20214 31/// 5688/ 58054 60107 7015185630 82456 81355
AAXX 17121 76693 06/// /3303 10216 20201 30197 40216 53004 60171 7////8//// 91150 333 0//// 10271 20208 30/// 4//// 50199 5500056/// 57/// 58057 60107 70194 8//// 8//// 8//// 8//// 9/
AAXX 17121 76695 32956 03301 10204 20194 30185 40191 5//// 84030 91150333 10312 20203 30177 56/0/ 59039 70000 84360
AAXX 17121 76698 12560 60000 10212 20209 30183 40195 5//// 60011 8620091155 333 10305 20212 30200 56/00 58025 70023 86820
AAXX 17121 76727 06/// /0000 10134 20050 38425 40177 53005 60001 7////8//// 91150 333 0//// 10290 20134 30/// 4//// 50239 54///55000 56/// 57/// 58030 60007 70000 8//// 8//// 8//// 9/
AAXX 17121 76737 01470 80000 10154 20141 38823 40211 51003 69921 75022887// 91135 333 10229 20154 30143 562// 59055 69927 7000288713 91102 91534
AAXX 17121 76738 06/// /0000 10150 20144 38826 40221 53003 69921 7////8//// 333 10234 20149 30/// 50189 55000 56/// 57/// 5804669927 70002 8//// 8//// 8//// 8//// 9//// 9//// 9//// 44
AAXX 17121 76743 32950 03401 10225 20212 30179 40187 52005 91145 33310293 20225 30220 58042 70000
AAXX 17121 76750 01560 43303 10218 20212 30181 40192 52012 60011 7505082230 91150 333 10314 20210 30202 56110 58034 60017 7001082820
AAXX 17121 76751 06/// /0101 10216 20212 30181 40192 53012 60001 7////8//// 91150 333 0//// 10312 20211 30/// 4//// 50219 54///55000 56/// 57/// 58034 60007 70000 8//// 8//// 8//// 9/
AAXX 17121 76762 31602 10000 10160 20144 38782 40156 52009 70144 8140091145 333 10318 20150 30134 56300 58/// 70000 81638
AAXX 17121 76772 06/// /3101 10085 20066 38458 40237 53005 60001 7////8//// 91150 333 0//// 10307 20085 30/// 4//// 5///9 5500056/// 57/// 58025 60007 70000 8//// 8//// 8//// 9//// 9/
AAXX 17121 76773 32540 30401 10098 20073 38454 40162 52006 83400 91148333 10296 20080 30072 50371 55094 56200 58026 70000 83620
AAXX 17121 76775 31560 20501 10133 20088 38554 40202 54000 70100 8244091145 333 10310 20122 30/// 56880 58027 70000 82695 81398
AAXX 17121 76776 06/// /0402 10131 20090 38538 40199 55000 60001 7////8//// 91150 333 0//// 10312 20120 30/// 4//// 50399 5508556/// 57/// 58026 60007 70000 8//// 8//// 8//// 9//// 9/
AAXX 17121 76806 06/// /3302 10228 20216 30137 40141 55000 60001 7////8//// 91150 333 10314 20224 30203 30/// 50219 55000 56///57/// 58022 60007 70000 8//// 8//// 8//// 8//// 9//// 9/
AAXX 17121 76833 32960 03610 10272 20199 30137 40140 52007 91140 33310324 20266 30260 59020 70000 92000
AAXX 17121 76840 32520 10207 10266 20183 30079 40134 52006 81100 91140333 10344 20228 30/// 55082 569// 58021 79999 81827 9121791502 90410
AAXX 17121 76843 32965 00000 10199 20162 39519 40160 52010 91140 33310290 20191 30171 58029 79999
AAXX 17121 76845 32256 40602 10105 20096 37976 40223 5//// 84600 91147333 10208 20095 30082 56200 58020 70003 84703
AAXX 17121 76848 32450 40401 10128 20102 38405 40133 51005 84600 91150333 10238 20128 30112 56100 58022 70045 84711 96722
AAXX 17121 76902 06/// /0602 10225 20188 39996 40135 52005 60001 7////8//// 91150 333 0//// 10341 20225 30/// 4//// 50399 54///56/// 57/// 58007 60007 70000 8//// 8//// 8//// 8//// 9/
AAXX 17121 76405 32840 61801 10172 20141 30145 40167 52005 86090 91150333 10240 20146 30145 58016 70000 86356
AAXX 17121 76412 32960 02801 10120 20087 30159 40205 52043 91150 33310226 20104 30/// 58038 70000
AAXX 17121 76640 11010 83605 10204 20201 30236 40248 52009 60031 750528572/ 91140 333 10276 20190 30188 5689/ 58143 70028 8570183440
AAXX 17121 76647 32870 20202 10190 20184 30178 40208 52009 82030 91150333 10304 20187 30170 560/0 58028 70000 82358
AAXX 17121 76741 01240 50504 10241 20228 30160 40178 53006 60041 7214684220 91135 333 10285 20229 30226 561// 58062 60047 7005184806
AAXX 17121 76855 32580 23301 10218 20185 30068 40118 5//// 81230 91150333 10332 20208 30202 55085 56990 58014 70000 81820 92000
AAXX 17124 71639 11574 73408 11071 21134 30008 40256 51019 69901 72211 81570 333 10058 21072 45997 79999 90942
AAXX 17121 02019 05/99 /2602 11106 21115 39328 49959 52012 60001 333 60005 90710 91104
AAXX 17121 02081 05/83 /0602 11060 21069 39569 49976 50002 60001 333 60005 90710 91103
AAXX 17121 02095 07258 /1801 11001 21004 39782 49985 53005 69901 77187 333 69905 86/04 87/38 87/57 90710 91104
AAXX 17121 02101 45584 /1404 11017 21047 39397 49955 52011 8//// 333 88/22
AAXX 17121 02119 07460 /0301 11056 21057 39583 49972 52006 69921 72487 333 69905 88/11 90710 91101
AAXX 17121 02124 07364 /1101 11020 21028 39437 49962 52008 69931 78587 333 69905 84/09 88/13 90710 91102
AAXX 17121 02126 07264 /1302 11006 21006 39622 49959 53012 69911 77187 333 69905 88/05 90710 91103
AAXX 17121 02151 07220 90000 11028 21028 39636 49973 53006 69921 77184 333 69915 89/06 91001 90710 91102 90710 91202
AAXX 17121 02186 17459 81202 10005 20004 39953 49978 53007 69961 71087 333 60005 82/12 86/34 88/57 91003 90710 91103 90710 91202
AAXX 17121 02197 07/33 /1101 10009 20009 39970 49989 53009 60001 71011 333 60005 90710 91103
AAXX 17121 02207 05/99 /2801 11132 21141 39230 49942 52010 60001 333 60005 90710 91104
AAXX 17121 02219 07/71 /1102 11038 21049 39278 49945 51012 60001 70010 333 60005 90710 91105
AAXX 17121 02226 47160 /0000 11033 21035 39487 49942 51010 720// 8//// 333 88/03
AAXX 17121 02243 07/57 /0701 10000 20000 39677 49945 52007 69911 71071 333 60005 90710 91103
AAXX 17121 02269 05469 /0807 10033 20017 60001 333 60005 82/12 87/49 90710 91110
AAXX 17121 02287 05361 /0903 10021 20009 39948 49957 50003 60001 333 60005 81/08 87/20 90710 91105
AAXX 17121 02297 05764 /1303 10016 20010 39923 49968 52004 60001 333 60005 88/56 90710 91105
AAXX 17121 02308 07480 /3000 11067 21074 39073 49937 52007 60001 70010 333 60005 87/13 88/18 90710 91102
AAXX 17121 02327 07/13 /2301 11022 21023 39496 49930 51004 60021 77187 333 60015 90710 91102
AAXX 17121 02355 07463 /0506 10027 20020 39906 49919 58002 69901 70061 333 60005 83/12 85/18 87/56 90710 91107
AAXX 17121 02366 47366 /0302 10013 20012 39928 49934 52002 761// 8//// 333 81/10 83/24 85/41 88/50
AAXX 17121 02407 07350 /3603 10000 21006 39540 49906 54000 69921 78587 333 69905 88/07 90710 91105
AAXX 17121 02418 45884 /3403 10013 21001 39759 49890 55000 8//// 333 83/57
AAXX 17121 02435 45482 /0103 10013 21011 39708 49894 57004 8//// 333 81/13 83/15 85/50
AAXX 17121 02440 07376 /0304 10011 20003 69901 70087 333 60005 82/09 85/12 88/50 90710 91107
AAXX 17121 02452 07341 /3605 10004 20002 69901 77171 333 69905 87/07 87/34 90710 91110
AAXX 17121 02456 07350 /0405 10020 20013 39827 49869 58015 69971 76265 333 69965 87/08 88/14 90710 91110
AAXX 17121 02469 07/56 /0304 10013 20008 60091 76176 333 60035 90710 91106
AAXX 17121 02498 07450 /0914 10032 20020 39811 49828 56015 60051 78186 333 69935 88/10 90710 91119
AAXX 17121 02518 464// /3412 10032 20014 333 88/14 90710 91115
AAXX 17121 02520 17484 83608 10025 20003 39820 49887 51004 69901 70085 333 60005 87/13 88/16 91010 90710 91110 90710 91207
AAXX 17121 02550 47363 /3207 10010 20010 39576 49848 50001 777// 8//// 333 81/08 88/10
AAXX 17121 02562 07361 83606 10012 20008 39717 49831 57006 60031 76786 333 69965 87/08 88/11 91011 90710 91112 90710 91206
AAXX 17121 02563 07244 /0009 10009 20006 39774 49796 57012 60111 77176 333 60025 87/04 88/07 90710 91114
AAXX 17121 02565 07458 /3305 10018 20009 39685 49802 54001 60021 76176 333 69925 84/10 86/13 88/19 90710 91110
AAXX 17121 02589 07460 /1007 10034 20026 39769 49791 57010 60061 76166 333 60015 88/10 90710 91117
AAXX 17121 02590 47260 /0804 10021 20017 39708 49768 56010 761// 8//// 333 86/06 87/14 88/19
AAXX 17121 02618 07/62 /3105 10025 20007 39702 49863 51011 60001 70010 333 60005 90710 91111
AAXX 17121 02664 01470 73306 10029 20009 39732 49802 51020 69931 76876 875// 333 69905 81610 87615 91010 90710 91112 90710 91207
AAXX 17121 02679 07375 /1303 10029 20023 39717 49760 51009 60091 76166 333 60015 88/09 90710 91105
AAXX 17124 81225 11365 41206 10264 20241 40125 60024 71040 81104 333 20/// 56309 58008 81808 84080
AAXX 17124 81200 12570 41507 10278 20238 40120 69904 81102 333 20/// 56209 58005 81820
AAXX 17124 81202 12470 41506 10270 20241 40124 69904 81962 333 20244 56329 58007 81812 81920 84070
AAXX 17124 81209 12470 70000 10252 20235 40/// 60024 87832 333 20/// 56299 5//// 86812
AAXX 17124 81251 NIL
AAXX 17121 02464 47121 /3603 10004 20002 39817 49835 58013 771// 8//// 333 85/02 88/04
AAXX 17121 02500 05483 /0106 10013 21008 39865 49908 52005 60001 333 60005 87/11 90710 91109
AAXX 17121 02513 NIL
AAXX 17121 02615 07577 /3214 10050 20017 39868 49872 52019 69901 70086 333 60005 82/24 90710 91118
AAXX 17121 02635 07/73 /3308 10047 20016 69901 70060 333 60005 90710 91116
AAXX 17121 01400 41498 63311 10069 20017 49983 52009 71682 8596/ 22200 06082 10707 70035 333 91114
AAXX 17121 01300 41497 73211 10030 21003 49954 52023 78182 849// 22200 02063 10809 70044 333 91118
AAXX 17121 01238 41X04 91302 11121 21133 38786 49908 51009 74240 333 91105
BBXX A8QJ7 17124 99016 50296 41/98 /1510 10280 20266 40124 51007 75011 8/5// 22213 06280 2//// 3//// 4//// 5//// 80270
AAXX 17121 06447 16/// /2703 10049 20040 39951 40076 50012 60021 333 91107 91204
AAXX 17121 33088 /1597 71906 10056 20035 39702 49888 57018 70162 87500 555 69901
AAXX 17121 33177 /1562 82102 10037 20020 39656 49889 52003 78082 889// 555 69991
AAXX 17121 33261 /1396 81505 10042 20037 39845 40026 58008 75186 886// 333 88706 555 69911
AAXX 17121 33275 /1495 81408 10031 20023 39837 40060 57005 71086 8435/ 333 84913 555 69971
AAXX 17121 33301 32597 81406 10049 20022 39604 49879 58018 8255/
AAXX 17121 33325 32597 81504 10055 20015 39665 49927 57021 8235/
AAXX 17121 33377 /1215 81304 10045 20040 39833 40025 57009 75154 886// 333 88703 555 69941
AAXX 17121 33415 /1597 71406 10039 20021 39486 49875 57023 70282 85530 333 85626 555 69901
AAXX 17121 33429 /1697 81509 10050 20021 39474 49887 57034 70282 83531 333 83633 555 69911
AAXX 17121 33466 32463 81506 10070 20043 39798 49982 58015 8632/ 333 86917
AAXX 17121 33526 /1560 80803 10066 20030 39532 49861 57016 78082 883// 333 85920 555 69931
AAXX 17121 33562 NIL
AAXX 17121 33614 /1396 81406 10054 20045 39928 40032 58009 72052 886// 333 88707 555 69911
AAXX 17121 33761 31458 81806 10080 20065 39750 49967 57023 71042 886// 333 88710
AAXX 17121 33902 32997 81608 10080 20061 40035 58021 8807/
AAXX 17121 33983 32497 71604 10105 20085 30020 40079 58010 86530 333 86614
AAXX 17121 34415 32470 81806 10033 20009 30016 40113 57005 886//
AAXX 17121 34523 32498 81206 10025 21005 30064 40141 57010 8772/ 333 87717
AAXX 17121 34712 32568 81007 10036 20029 30016 40102 57011 885// 333 88627
AAXX 17121 14024 12498 82605 11019 21034 38884 48294 52014 60001 8287/ 333 81810 81615 95000 95180 444 46046
AAXX 17121 06431 36/// /2805 10066 20036 30058 40070 50012 60001 333 91107 91205
AAXX 17124 60645 36/// /0000 10210 20018
AAXX 17124 60612 36/// /0000 10182 21039
BBXX 61002 17124 99421 10047 46/// ///33 10114 20052 40140 52004 22200 00143 10807 70035 555 1/043
AAXX 17124 60619 36/// /3309 10198 21037
AAXX 17124 60663 36/// /2205 10209 21102
BBXX 62087 17121 99547 10068 46/// /1504 10075 20019 4//// 5//// 22230 00082
AAXX 17124 60621 36/// /3410 10203 20009
AAXX 17124 68386 36/// /0503 10297 20124 39735 48681 57012 333 10297 20174 91008 555 91027
AAXX 17124 68298 36/// /1405 1//// 2//// 39527 4//// 57011 333 1//// 2//// 91016 555 91019
BBXX VOXS 17124 99467 70480 41997 22622 10062 2006/ 40094 51030 70100 80002 22200 04023 20504 314// 40804 80062
BBXX VCXF 17124 99464 70484 41597 52622 10051 2004/ 40099 52034 71022 84509 22200 02039 20504 324// 40704 80045
BBXX VOXS 17124 99467 70480 41997 22622 10062 2006/ 40094 51030 70100 80002 22200 04023 20504 314// 40804 80062
BBXX VCXF 17124 99464 70484 41597 52622 10051 2004/ 40099 52034 71022 84509 22200 02039 20504 324// 40704 80045
AAXX 17124 94102 46/// /3203 10295 20244 30058 40067
AAXX 17124 94103 NIL
AAXX 17124 94120 46/// /3606 10267 20259 30023 40063
AAXX 17124 94122 46/// /0403 10253 20235 30053 40061
AAXX 17124 94131 46/// /0908 10255 20238 39919 40069
AAXX 17124 94132 NIL
AAXX 17124 94147 NIL
AAXX 17124 94150 46/// /0304 10280 20244 30009 40068
AAXX 17124 94151 46/// /0707 10285 20245 30050 4////
AAXX 17124 94170 46/// /1103 10262 20251 30061 40083
AAXX 17124 94200 NIL
AAXX 17124 94203 46/// /2609 10289 20238 30053 40063
AAXX 17124 94206 46/// /1907 10313 21235 39915 40043
AAXX 17124 94207 46/// /2505 10277 30058 40066 53018
AAXX 17124 94211 NIL
AAXX 17124 94212 46/// /1401 10287 20193 39586 40048
AAXX 17124 94216 46/// /0106 10294 20223 30008 40058
AAXX 17124 94236 NIL
AAXX 17124 94238 46/// /0311 10231 20222 39666 40080
AAXX 17124 94248 NIL
AAXX 17124 94255 46/// /0805 10281 20211 39824 40080
AAXX 17124 94268 46/// /1304 10253 20246 30070 40082
AAXX 17124 94287 46/// /1709 10265 20212 30102 40111
AAXX 17124 94290 NIL
AAXX 17124 94294 46/// /1113 10262 20197 30127 40137
AAXX 17124 94296 35/// /1319 10270 30094 40104 52009
AAXX 17124 94298 46/// /1225 10264 30118 40124 53009
AAXX 17124 95641 NIL
AAXX 17124 94299 46/// /1325 10275 20225 30097 40107
AAXX 17124 94300 46/// /2017 10256 20217 30046 40056
AAXX 17124 94302 46/// /2217 10264 20214 30042 40048
AAXX 17124 94312 46/// /3110 10259 20222 30050 40059
AAXX 17124 94313 NIL
AAXX 17124 94317 46/// /0904 10339 20092 39461 40028
AAXX 17124 94319 46/// /3203 10341 20124 39709 40030
AAXX 17124 94324 NIL
AAXX 17124 94326 46/// /0411 10269 20185 39453 40052
AAXX 17124 94327 46/// /1307 10225 20199 39716 40080
AAXX 17124 94332 46/// /0000 10255 20238 39698 40075
AAXX 17124 94333 NIL
AAXX 17124 94341 46/// /0509 10306 20177 39855 40084
AAXX 17124 94346 46/// /0610 10267 20168 39891 40106
AAXX 17124 94363 46/// /0614 10233 20164 39932 40147
AAXX 17124 94366 NIL
AAXX 17124 94367 46/// /1113 10243 20208 30108 40150
AAXX 17124 94374 46/// /1107 10227 20172 30149 40165
AAXX 17124 94388 46/// /1019 10225 20185 30166 40171
AAXX 17124 94393 46/// /1119 10241 30124 40136 50003
AAXX 17124 94394 46/// /1121 10232 30146 40154 51003
AAXX 17124 94403 46/// /1816 10217 20181 30044 40085
AAXX 17124 94429 46/// /0104 10301 20138 39597 40048
AAXX 17124 94430 46/// /1704 10313 20066 39479 40046
AAXX 17124 94449 46/// /1304 10265 20094 39559 40076
AAXX 17124 94451 NIL
AAXX 17124 94461 46/// /2003 10258 20153 39401 40052
AAXX 17124 94462 46/// /2405 10269 20187 39511 40051
AAXX 17124 94477 NIL
AAXX 17124 94488 NIL
AAXX 17124 94893 46/// /0533 10162 20160 30051 40167
AAXX 17124 94907 46/// /1013 10172 20129 30160 40170
AAXX 17124 94910 46/// /0913 10218 20113 39900 40146
AAXX 17124 94926 46/// /1009 10133 20089 39533 40194
AAXX 17124 94935 46/// /0309 10159 20109 30178 40205
AAXX 17124 94954 46/// /0833 10156 20115 30063 40174
AAXX 17124 94956 46/// /3104 10145 20113 30155 40182
AAXX 17124 94975 46/// /0208 10151 20105 30182 40215
AAXX 17124 94983 46/// /0515 10156 20106 30203 40228
AAXX 17124 94995 46/// /2310 10186 20090 30184 40192
AAXX 17124 94996 46/// /1809 10177 20140 30002 40130
AAXX 17124 94997 NIL
AAXX 17124 94998 46/// /2416 10047 20007 30156 40167
AAXX 17124 95111 46/// /0705 10266 20227 30030 40066
AAXX 17124 95205 46/// /2810 10320 20227 30045 40052
AAXX 17124 95322 NIL
AAXX 17124 95448 46/// /1905 10288 20074 39506 40053
AAXX 17124 95458 46/// /2213 10282 20095 39797 40050
AAXX 17124 95480 46/// /0711 10270 20215 39988 40046
AAXX 17124 95481 46/// /0515 10273 20223 30007 40051
AAXX 17124 95482 46/// /3311 10334 20163 30004 40058
AAXX 17124 95485 46/// /0819 10208 20206 39887 40086
AAXX 17124 95492 46/// /0709 10222 20203 39958 40109
AAXX 17124 95527 46/// /0805 10210 20163 39903 40152
AAXX 17124 95634 46/// /1704 10256 20098 39681 40073
AAXX 17124 95637 46/// /1006 10240 20100 39751 40077
AAXX 17124 95646 46/// /1910 10197 20134 39911 40094
AAXX 17124 95666 NIL
AAXX 17124 95719 46/// /0813 10194 20096 39837 40163
AAXX 17124 95762 46/// /1408 10184 20095 39719 40169
AAXX 17124 95826 NIL
AAXX 17124 95839 46/// /0912 10209 20159 39924 40080
AAXX 17124 95864 NIL
AAXX 17124 95909 NIL
AAXX 17124 95954 NIL
AAXX 17124 95966 46/// /3408 10145 20093 30019 40219
AAXX 17124 96995 NIL
AAXX 17124 96996 457// 71212 10272 20218 30079 40083 53010
AAXX 17124 94500 NIL
AAXX 17124 94510 46/// /0205 10250 20178 39791 40131
AAXX 17124 94515 46/// /0306 10201 20153 39797 40141
AAXX 17124 94552 46/// /0708 10159 20121 39714 40175
AAXX 17124 94578 46/// /1407 10211 20130 30180 40191
AAXX 17124 94584 46/// /1121 10216 20140 30065 40174
AAXX 17124 94601 46/// /2108 10190 20130 30088 40105
AAXX 17124 94610 46/// /2112 10213 20151 30066 40089
AAXX 17124 94637 46/// /1706 10244 20056 39661 40076
AAXX 17124 94638 46/// /1207 10170 20125 30083 40114
AAXX 17124 94642 NIL
AAXX 17124 94643 NIL
AAXX 17124 94647 46/// /2508 10177 20157 39973 40092
AAXX 17124 94651 46/// /2512 10180 20162 30012 40088
AAXX 17124 94653 46/// /2817 10199 20162 30046 40064
AAXX 17124 94659 46/// /2118 10259 20152 39858 40048
AAXX 17124 94672 46/// /0520 10198 20184 30022 40032
AAXX 17124 94691 46/// /0327 10212 20197 39737 40055
AAXX 17124 94693 46/// /3305 10227 20197 30018 40078
AAXX 17124 94700 NIL
AAXX 17124 94703 46/// /0609 10220 20180 30017 40140
AAXX 17124 94710 46/// /0414 10247 20126 39884 40131
AAXX 17124 94729 46/// /0608 10133 20090 39334 40172
AAXX 17124 94750 46/// /1904 10109 20095 30086 40209
AAXX 17124 94767 46/// /0706 10180 20105 30206 40212
AAXX 17124 94776 46/// /0604 10149 20113 30201 40211
AAXX 17124 94791 NIL
AAXX 17124 94802 46/// /1503 10171 20139 30023 40104
AAXX 17124 94804 46/// /3108 10181 20161 39996 40033
AAXX 17124 94807 NIL
AAXX 17124 94821 46/// /0607 10186 20176 30010 40091
AAXX 17124 94842 46/// /0620 10177 20164 30034 40132
AAXX 17124 94847 NIL
AAXX 17124 94850 46/// /0820 10160 20131 30099 40145
AAXX 17124 94865 46/// /1203 10206 20160 30096 40120
AAXX 17124 94866 46/// /0405 10223 20137 39984 40123
AAXX 17124 94875 46/// /0710 10246 20129 39991 40124
AAXX 17124 91317 11474 81306 10278 20263 30104 40108 5//// 60011 70382 83902 333 563/9 70001 58025 83917 88080 555 91712
AAXX 17121 91929 04986 /1106 10252 20207 30109 40112 57017 60001 700// 333 60007 90710 91110 555 60005
AAXX 17121 91938 02570 11103 10240 20209 30113 40115 57016 60001 81200 333 60007 81823 90710 91106 555 60005 11006
AAXX 17121 91943 36/// /1005 10261 20209 30105 40107 56018 333 59021= 91944 06/// /0904 10257 20193 30110 40113 56012 60001 333 60007 90710 91107 555 60005
AAXX 17121 91948 06/// /0000 10227 20189 30023 40126 55009 69961 333 10269 59003 60007 90710 91102 555 60005 13403
AAXX 17121 91954 06/// /1604 10211 20206 30125 40128 57013 60001 333 10284 59023 60007
AAXX 17121 91958 06/// /1804 10202 20178 30145 40147 56010 60001 333 10266 59017 60007 90710 91106 555 60005 10409
AAXX 17121 91925 06/// /0302 10224 20190 30045 40106 56012 60001 333 10327 59011 60007 90710 91106 555 60005 10207
AAXX 17121 91945 36/// /0000 10225 20208 30113 40118 56018 333 10298
AAXX 17124 94102 46/// /3203 10295 20244 30058 40067
AAXX 17124 94103 NIL
AAXX 17124 94120 46/// /3606 10267 20259 30023 40063
AAXX 17124 94122 46/// /0403 10253 20235 30053 40061
AAXX 17124 94131 46/// /0908 10255 20238 39919 40069
AAXX 17124 94132 NIL
AAXX 17124 94147 NIL
AAXX 17124 94150 46/// /0304 10280 20244 30009 40068
AAXX 17124 94151 46/// /0707 10285 20245 30050 4////
AAXX 17124 94170 46/// /1103 10262 20251 30061 40083
AAXX 17124 94200 NIL
AAXX 17124 94203 46/// /2609 10289 20238 30053 40063
AAXX 17124 94206 46/// /1907 10313 21235 39915 40043
AAXX 17124 94207 46/// /2505 10277 30058 40066 53018
AAXX 17124 94211 NIL
AAXX 17124 94212 46/// /1401 10287 20193 39586 40048
AAXX 17124 94216 46/// /0106 10294 20223 30008 40058
AAXX 17124 94236 NIL
AAXX 17124 94238 46/// /0311 10231 20222 39666 40080
AAXX 17124 94248 NIL
AAXX 17124 94255 46/// /0805 10281 20211 39824 40080
AAXX 17124 94268 46/// /1304 10253 20246 30070 40082
AAXX 17124 94287 46/// /1709 10265 20212 30102 40111
AAXX 17124 94290 NIL
AAXX 17124 94294 46/// /1113 10262 20197 30127 40137
AAXX 17124 94296 35/// /1319 10270 30094 40104 52009
AAXX 17124 94298 46/// /1225 10264 30118 40124 53009
AAXX 17124 95641 NIL
AAXX 17124 89564 41981 31406 10049 21039 30021 40041 52003 70211 83048
AAXX 17124 89570 46/// /1012 11040 21110 39270 56010 333 10021
AAXX 17124 89571 41575 12509 10010 21050 39911 49940 56012 70200 81202
AAXX 17124 89573 NIL
AAXX 17124 89610 NIL
AAXX 17124 89611 41440 80854 11014 21073 39739 49791 56049 73832 8451/
AAXX 17124 89614 NIL
AAXX 17124 89615 46902 60948 11080 21101 38930 58041 333 11044
AAXX 17124 89807 NIL
AAXX 17124 89809 46/// /0945 11051 21085 39367 58030 333 11018
AAXX 17120 67489 41580 71601 10241 20194 38747 48503 72196 8293/ 333 58006 82928 87359 555 10244 29074
AAXX 17120 67693 32580 62504 10261 20212 39249 48505 86930 333 58025 81925 86825 555 10269 29074
BBXX VRRB 17124 99254 31537 41/// /1118 10235 20162 40180 52/// 7//// 8//// 22243 2//// 80190
BBXX SHIP 17124 99108 31189 41/97 71901 10290 20281 49997 72851 222// 0//// 20101 322// 40101 5////
BBXX PCAM 17123 99412 31732 41/97 80912 10138 20077 40124 52/// 7//22 8//// 22200 04195 2//// 80105
BBXX VRDU8 17123 99368 31234 41598 12010 10170 20115 40072 54000 70200 81115 22224 04160 20401 399// 40602 80140
BBXX ZCBU6 17114 99347 31736 41498 32623 10188 20158 40055 57016 70222 821// 22234 00190 20404 327// 40705 5//// 80170
BBXX ZCBU6 17124 99358 31749 41498 32620 10188 20158 40055 57016 70222 821// 22234 00190 20402 327// 40904 5//// 80170
BBXX SHIP 17124 99112 31223 41/97 62905 10284 20265 40039 70322 222// 0//// 20100 326// 40101 5////
BBXX VRDG4 17123 99337 31597 41295 81612 10160 20124 40187 53011 75855 8772/ 22273 20608 80140
BBXX VNSZ 17114 99403 31459 46/// /0638 10163 20126 30161 40187 57019 22275 04164 85141
BBXX 9HA2479 17114 99277 31597 46/// /1424 10205 20115 30141 40170 52014 22254 04241 85151
BBXX C6FS9 17114 99238 31512 46/// /1415 10233 20179 30144 40180 52021 22200 04269 85196
BBXX VROB 17114 99210 31541 46/// /1324 10248 20170 30114 40139 52017 22243 04264 85196
BBXX FHZI 17114 99532 31450 46/// /2913 10051 2//// 30183 40194 57004 22243 04041
BBXX VNAH 17114 99333 31157 46/// /2412 10216 20142 30066 40089 57001 22200 85169
BBXX VNSZ 17124 99400 31456 46/// /0740 10164 20126 30140 40166 57034 22275 04165 85141
BBXX VNSZ 17104 99407 31461 46/// /0529 10167 20123 30163 40189 57017 22275 04168 85141
BBXX C6FS9 17104 99238 31512 46/// /1324 10237 20177 30137 40173 52015 22200 04269 85197
BBXX 9HA2479 17104 99275 31600 46/// /1624 10207 20107 30138 40167 52015 22254 04241 85148
BBXX VROB 17104 99208 31540 46/// /1226 10252 20175 30111 40136 52021 22243 04264 85200
BBXX FHZI 17104 99530 31450 46/// /3114 10057 2//// 30181 40192 57009 22243 04052
BBXX VNAH 17104 99333 31157 46/// /2409 10220 20137 30067 40090 57003 22200 85168
BBXX V2OG2 17113 99147 31074 41498 61816 10272 20227 40087 54000 70211 86130 22233 20402 319// 40503 80240
BBXX ZM2619 17123 99449 31784 41/96 81713 10103 20076 40094 54000 70222 22222 29902 320// 40706 80090
BBXX VRZN7 17124 99254 51608 41579 41319 10213 2014/ 40160 52020 70300 81485 22253 04254 20502 3//// 4//// 5//// 85165
BBXX ZCBU6 17104 99346 31736 41498 32623 10188 20158 40055 57016 70222 821// 22234 00190 20404 327// 40705 5//// 80170
AAXX 17124 91503 11470 83605 10256 20241 40081 50006 69981 70522 8387/ 333 10286 56999 59002 81814 83626 88459
AAXX 17124 91517 NIL
AAXX 17124 94500 NIL
AAXX 17124 94510 46/// /0205 10250 20178 39791 40131
AAXX 17124 94515 46/// /0306 10201 20153 39797 40141
AAXX 17124 94552 46/// /0708 10159 20121 39714 40175
AAXX 17124 94578 46/// /1407 10211 20130 30180 40191
AAXX 17124 94584 46/// /1121 10216 20140 30065 40174
AAXX 17124 94601 46/// /2108 10190 20130 30088 40105
AAXX 17124 94610 46/// /2112 10213 20151 30066 40089
AAXX 17124 94637 46/// /1706 10244 20056 39661 40076
AAXX 17124 94638 46/// /1207 10170 20125 30083 40114
AAXX 17124 94642 NIL
AAXX 17124 94643 NIL
AAXX 17124 94647 46/// /2508 10177 20157 39973 40092
AAXX 17124 94651 46/// /2512 10180 20162 30012 40088
AAXX 17124 94653 46/// /2817 10199 20162 30046 40064
AAXX 17124 94659 46/// /2118 10259 20152 39858 40048
AAXX 17124 94672 46/// /0520 10198 20184 30022 40032
AAXX 17124 94691 46/// /0327 10212 20197 39737 40055
AAXX 17124 94693 46/// /3305 10227 20197 30018 40078
AAXX 17124 94700 NIL
AAXX 17124 94703 46/// /0609 10220 20180 30017 40140
AAXX 17124 94710 46/// /0414 10247 20126 39884 40131
AAXX 17124 94729 46/// /0608 10133 20090 39334 40172
AAXX 17124 94750 46/// /1904 10109 20095 30086 40209
AAXX 17124 94767 46/// /0706 10180 20105 30206 40212
AAXX 17124 94776 46/// /0604 10149 20113 30201 40211
AAXX 17124 94791 NIL
AAXX 17124 94802 46/// /1503 10171 20139 30023 40104
AAXX 17124 94804 46/// /3108 10181 20161 39996 40033
AAXX 17124 94807 NIL
AAXX 17124 94821 46/// /0607 10186 20176 30010 40091
AAXX 17124 94842 46/// /0620 10177 20164 30034 40132
AAXX 17124 94847 NIL
AAXX 17124 94850 46/// /0820 10160 20131 30099 40145
AAXX 17124 94865 46/// /1203 10206 20160 30096 40120
AAXX 17124 94866 46/// /0405 10223 20137 39984 40123
AAXX 17124 94875 46/// /0710 10246 20129 39991 40124
AAXX 17124 94299 46/// /1325 10275 20225 30097 40107
AAXX 17124 94300 46/// /2017 10256 20217 30046 40056
AAXX 17124 94302 46/// /2217 10264 20214 30042 40048
AAXX 17124 94312 46/// /3110 10259 20222 30050 40059
AAXX 17124 94313 NIL
AAXX 17124 94317 46/// /0904 10339 20092 39461 40028
AAXX 17124 94319 46/// /3203 10341 20124 39709 40030
AAXX 17124 94324 NIL
AAXX 17124 94326 46/// /0411 10269 20185 39453 40052
AAXX 17124 94327 46/// /1307 10225 20199 39716 40080
AAXX 17124 94332 46/// /0000 10255 20238 39698 40075
AAXX 17124 94333 NIL
AAXX 17124 94341 46/// /0509 10306 20177 39855 40084
AAXX 17124 94346 46/// /0610 10267 20168 39891 40106
AAXX 17124 94363 46/// /0614 10233 20164 39932 40147
AAXX 17124 94366 NIL
AAXX 17124 94367 46/// /1113 10243 20208 30108 40150
AAXX 17124 94374 46/// /1107 10227 20172 30149 40165
AAXX 17124 94388 46/// /1019 10225 20185 30166 40171
AAXX 17124 94393 46/// /1119 10241 30124 40136 50003
AAXX 17124 94394 46/// /1121 10232 30146 40154 51003
AAXX 17124 94403 46/// /1816 10217 20181 30044 40085
AAXX 17124 94429 46/// /0104 10301 20138 39597 40048
AAXX 17124 94430 46/// /1704 10313 20066 39479 40046
AAXX 17124 94449 46/// /1304 10265 20094 39559 40076
AAXX 17124 94451 NIL
AAXX 17124 94461 46/// /2003 10258 20153 39401 40052
AAXX 17124 94462 46/// /2405 10269 20187 39511 40051
AAXX 17124 94477 NIL
AAXX 17124 94488 NIL
AAXX 17124 94893 46/// /0533 10162 20160 30051 40167
AAXX 17124 94907 46/// /1013 10172 20129 30160 40170
AAXX 17124 94910 46/// /0913 10218 20113 39900 40146
AAXX 17124 94926 46/// /1009 10133 20089 39533 40194
AAXX 17124 94935 46/// /0309 10159 20109 30178 40205
AAXX 17124 94954 46/// /0833 10156 20115 30063 40174
AAXX 17124 94956 46/// /3104 10145 20113 30155 40182
AAXX 17124 94975 46/// /0208 10151 20105 30182 40215
AAXX 17124 94983 46/// /0515 10156 20106 30203 40228
AAXX 17124 94995 46/// /2310 10186 20090 30184 40192
AAXX 17124 94996 46/// /1809 10177 20140 30002 40130
AAXX 17124 94997 NIL
AAXX 17124 94998 46/// /2416 10047 20007 30156 40167
AAXX 17124 95111 46/// /0705 10266 20227 30030 40066
AAXX 17124 95205 46/// /2810 10320 20227 30045 40052
AAXX 17124 95322 NIL
AAXX 17124 95448 46/// /1905 10288 20074 39506 40053
AAXX 17124 95458 46/// /2213 10282 20095 39797 40050
AAXX 17124 95480 46/// /0711 10270 20215 39988 40046
AAXX 17124 95481 46/// /0515 10273 20223 30007 40051
AAXX 17124 95482 46/// /3311 10334 20163 30004 40058
AAXX 17124 95485 46/// /0819 10208 20206 39887 40086
AAXX 17124 95492 46/// /0709 10222 20203 39958 40109
AAXX 17124 95527 46/// /0805 10210 20163 39903 40152
AAXX 17124 95634 46/// /1704 10256 20098 39681 40073
AAXX 17124 95637 46/// /1006 10240 20100 39751 40077
AAXX 17124 95646 46/// /1910 10197 20134 39911 40094
AAXX 17124 95666 NIL
AAXX 17124 95719 46/// /0813 10194 20096 39837 40163
AAXX 17124 95762 46/// /1408 10184 20095 39719 40169
AAXX 17124 95826 NIL
AAXX 17124 95839 46/// /0912 10209 20159 39924 40080
AAXX 17124 95864 NIL
AAXX 17124 95909 NIL
AAXX 17124 95954 NIL
AAXX 17124 95966 46/// /3408 10145 20093 30019 40219
AAXX 17124 96995 NIL
AAXX 17124 96996 457// 71212 10272 20218 30079 40083 53010
AAXX 17120 67690 32580 71203 10190 20216 83968 333 81925 83830 87280 555 10293 29066
AAXX 17120 67699 32680 51403 10293 20211 85331 333 81930 85835 555 10295 29062
BBXX UCKZ 17121 99665 30441 41295 80615 10010 20006 49911 58001 71072 886// 22242 01013 2//// ICE 57894
AAXX 17124 89564 41981 31406 10049 21039 30021 40041 52003 70211 83048
AAXX 17124 89570 46/// /1012 11040 21110 39270 56010 333 10021
AAXX 17124 89571 41575 12509 10010 21050 39911 49940 56012 70200 81202
AAXX 17124 89573 NIL
AAXX 17124 89610 NIL
AAXX 17124 89611 41440 80854 11014 21073 39739 49791 56049 73832 8451/
AAXX 17124 89614 NIL
AAXX 17124 89615 46902 60948 11080 21101 38930 58041 333 11044
AAXX 17124 89807 NIL
AAXX 17124 89809 46/// /0945 11051 21085 39367 58030 333 11018
AAXX 17121 38141 42998 80906 11058 21125 30143 40310 57013 80002 555 1/108
AAXX 17121 38149 42598 80304 11020 21074 30214 40293 57013 885// 555 14102
AAXX 17121 38178 42998 20104 11054 21186 39999 40300 57012 80001 555 10105
AAXX 17121 38262 42698 80705 11020 21087 30208 40292 57017 885// 555 11101
AAXX 17121 38264 42998 70506 11023 21091 30184 40281 57015 87070 555 14002
AAXX 17121 38396 42997 70504 10000 21090 30138 40267 57010 82079 555 14101
AAXX 17121 38403 42997 60706 10029 21086 30141 40264 57021 80001 555 10005
AAXX 17121 38413 42998 32705 11052 21075 39990 40296 57020 82031 555 1/105
AAXX 17121 38457 42997 22601 10021 21059 39659 40258 57015 82040 555 1/101
AAXX 17121 38462 42999 20000 11022 21108 38790 48523 57011 80001 555 1/107
AAXX 17121 38565 32998 00302 11004 21042 39639 40237 58006 555 11008
AAXX 17121 38579 32597 53302 10000 21015 39838 40268 57011 83570 555 11100
AAXX 17121 38583 32997 53402 10009 21033 39941 40272 57008 82041 555 11000
AAXX 17121 38611 41996 70000 10014 21018 39698 40284 57012 71011 84044 555 10001
AAXX 17121 38618 42997 80000 10004 21039 39555 40263 57014 80008 555 11001
AAXX 17121 38683 42997 83605 10026 21023 39938 40220 57008 80001 555 11004
AAXX 17121 38696 32998 21403 10007 21039 39351 40225 57013 80001 555 11100
AAXX 17121 38812 NIL
AAXX 17121 38927 31956 52401 10037 20003 39824 40207 57011 71041 80001 555 10003
AAXX 17123 91502 11465 80000 10259 20246 40083 50007 69901 71322 83907 333 10296 56999 58001 81814 81915 83628 87280
AAXX 17123 91507 NIL
AAXX 17123 91520 01465 80000 10239 20239 40094 50009 60551 76266 8592/ 333 10265 56999 58002 60137 82709 81915 84624 88460
AAXX 17123 91541 NIL
BBXX VRRB 17124 99254 31537 41/// /1118 10235 20162 40180 52/// 7//// 8//// 22243 2//// 80190
BBXX SHIP 17124 99108 31189 41/97 71901 10290 20281 49997 72851 222// 0//// 20101 322// 40101 5////
BBXX PCAM 17123 99412 31732 41/97 80912 10138 20077 40124 52/// 7//22 8//// 22200 04195 2//// 80105
BBXX VRDU8 17123 99368 31234 41598 12010 10170 20115 40072 54000 70200 81115 22224 04160 20401 399// 40602 80140
BBXX ZCBU6 17114 99347 31736 41498 32623 10188 20158 40055 57016 70222 821// 22234 00190 20404 327// 40705 5//// 80170
BBXX ZCBU6 17124 99358 31749 41498 32620 10188 20158 40055 57016 70222 821// 22234 00190 20402 327// 40904 5//// 80170
BBXX SHIP 17124 99112 31223 41/97 62905 10284 20265 40039 70322 222// 0//// 20100 326// 40101 5////
BBXX VRDG4 17123 99337 31597 41295 81612 10160 20124 40187 53011 75855 8772/ 22273 20608 80140
BBXX VNSZ 17114 99403 31459 46/// /0638 10163 20126 30161 40187 57019 22275 04164 85141
BBXX 9HA2479 17114 99277 31597 46/// /1424 10205 20115 30141 40170 52014 22254 04241 85151
BBXX C6FS9 17114 99238 31512 46/// /1415 10233 20179 30144 40180 52021 22200 04269 85196
BBXX VROB 17114 99210 31541 46/// /1324 10248 20170 30114 40139 52017 22243 04264 85196
BBXX FHZI 17114 99532 31450 46/// /2913 10051 2//// 30183 40194 57004 22243 04041
BBXX VNAH 17114 99333 31157 46/// /2412 10216 20142 30066 40089 57001 22200 85169
BBXX VNSZ 17124 99400 31456 46/// /0740 10164 20126 30140 40166 57034 22275 04165 85141
BBXX VNSZ 17104 99407 31461 46/// /0529 10167 20123 30163 40189 57017 22275 04168 85141
BBXX C6FS9 17104 99238 31512 46/// /1324 10237 20177 30137 40173 52015 22200 04269 85197
BBXX 9HA2479 17104 99275 31600 46/// /1624 10207 20107 30138 40167 52015 22254 04241 85148
BBXX VROB 17104 99208 31540 46/// /1226 10252 20175 30111 40136 52021 22243 04264 85200
BBXX FHZI 17104 99530 31450 46/// /3114 10057 2//// 30181 40192 57009 22243 04052
BBXX VNAH 17104 99333 31157 46/// /2409 10220 20137 30067 40090 57003 22200 85168
BBXX V2OG2 17113 99147 31074 41498 61816 10272 20227 40087 54000 70211 86130 22233 20402 319// 40503 80240
BBXX ZM2619 17123 99449 31784 41/96 81713 10103 20076 40094 54000 70222 22222 29902 320// 40706 80090
BBXX VRZN7 17124 99254 51608 41579 41319 10213 2014/ 40160 52020 70300 81485 22253 04254 20502 3//// 4//// 5//// 85165
BBXX ZCBU6 17104 99346 31736 41498 32623 10188 20158 40055 57016 70222 821// 22234 00190 20404 327// 40705 5//// 80170
AAXX 17124 94310 46/// /2814 10263 20206 30047 40059 52015 333 10317
AAXX 17124 95283 46/// /1212 10277 20227 30091 40098
AAXX 17124 95288 46/// /1327 10278 30075 40090 50006
AAXX 17124 95872 46/// /0912
AAXX 17124 95961 35/// /3607 10166 30128 40170 52008
BBXX VRAE4 17123 99073 11206 41598 63207 10280 20252 40099 53012 70222 848// 22273 04290 202// 399// 410// 80260
AAXX 17124 91503 11470 83605 10256 20241 40081 50006 69981 70522 8387/ 333 10286 56999 59002 81814 83626 88459
AAXX 17124 91517 NIL
AAXX 17123 91502 11465 80000 10259 20246 40083 50007 69901 71322 83907 333 10296 56999 58001 81814 81915 83628 87280
AAXX 17123 91507 NIL
AAXX 17123 91520 01465 80000 10239 20239 40094 50009 60551 76266 8592/ 333 10265 56999 58002 60137 82709 81915 84624 88460
AAXX 17123 91541 NIL
BBXX ZCDS3 17111 99254 70762 41498 70810 10229 20190 40196 55002 70311 87500 22234 00260 20402 305// 40704 5//// 80204
AAXX 17121 37395 42999 60905 10126 20000 30001 40139 53002 86070 555 10011
AAXX 17121 37409 16/// /0906 10002 21042 38731 48459 57003 60001
AAXX 17121 37432 42697 50000 10050 21026 38930 48473 57007 85500 555 10003
AAXX 17121 37514 42699 80000 10010 21043 39033 40206 57006 88500
AAXX 17121 37545 42597 70202 10065 20004 39661 40166 57017 83515
AAXX 17121 37621 42698 70000 10061 21021 39528 40169 57004 80030 555 11006
AAXX 17121 37484 NIL
AAXX 17124 78922 46/// /0411 10275 20171 30103 40147 53020
AAXX 17124 91317 11474 81306 10278 20263 30104 40108 5//// 60011 70382 83902 333 563/9 70001 58025 83917 88080 555 91712
AAXX 17124 91317 11474 81306 10278 20263 30104 40108 5//// 60011 70382 83902 333 563/9 70001 58025 83917 88080 555 91712
AAXX 17124 78958 01459 70902 10257 20239 30124 30134 60081 78082 87841 333 10314 20222 58004 70079 85816 84635
AAXX 17124 78958 01459 79902 10257 20239 30124 30134 60081 78082 87841 333 10314 20222 58004 70079 85816 84635
BBXX PEND 17123 99231 31133 41398 12215 10244 20224 40048 53/// 70200 81100 22243 00280 2//// 3//// 4//// 5//// 80230
BBXX PHPP 17124 99039 10996 41698 73107 10270 20228 40071 53011 71386 8657/ 22232 00300 20201 80240
BBXX PHJV 17123 99105 31359 41598 23010 10288 20257 40071 53019 70100 82165 22263 06304 20101 315// 40101 80265
BBXX 3EDA4 17123 99123 31544 41398 41603 10280 20253 40079 51016 70311 83266 22244 00298 20201 316// 40303 80260
AAXX 17120 67695 32680 31205 10295 20217 82330 333 81935 83360 555 10300 29062
AAXX 17124 71701 12774 73105 11061 21123 30109 40172 53014 60001 81510 333 10089 21071 70020
AAXX 17124 78958 01459 70902 10257 20239 30124 30134 60081 78082 87841 333 10314 20222 58004 70079 85816 84635
AAXX 17124 78958 01459 79902 10257 20239 30124 30134 60081 78082 87841 333 10314 20222 58004 70079 85816 84635
AAXX 17121 38812 41295 80000 11007 21010 39735 40202 57009 71042 885// 333 84704 555 10002
BBXX 44139 17121 99442 70571 46/// /3106 10053 40149 52025 22200 00092 11007 70033 333 91208
AAXX 17124 06610 01564 72107 10022 20001 39518 40110 5//// 69921 71587 8557/ 333 553// 20198 60005 82824 84640
AAXX 17124 06670 01481 82608 10027 21004 39571 40087 5//// 69921 71582 888// 333 553// 20526 60005 83614 84819 87656
AAXX 17124 06700 01380 72211 10033 20000 39616 40115 5//// 69981 71582 878// 333 553// 20428 60005 81608 84830 87656
AAXX 17124 06680 31/01 93211 11125 21125 37346 47861 5//// 77174 333 553// 20324
AAXX 17124 06990 01650 82904 10026 21013 39521 40073 5//// 60011 72677 88600 333 553// 20180 60005 88745
AAXX 17124 06760 32782 61604 10064 21004 39600 40046 5//// 8251/ 333 553// 20810 82650 86459
AAXX 17124 06720 03/// ///// 10016 21009 39520 40104 5//// 69941 333 553// 20338 60005
AAXX 17121 10270 06460 72906 10039 20012 39871 49926 51024 69911 222// 06047 333 55302 69907 87/17 87/21 87/39 91114
AAXX 17121 50468 32970 03201 11215 21243 39988 40215 52003
AAXX 17121 50953 32970 02002 11122 21194 30074 40267 57001
AAXX 17121 51076 NIL
AAXX 17121 51243 NIL
AAXX 17121 51288 32980 01604 11149 21200 38386 52001 333 05200
AAXX 17121 51463 NIL
AAXX 17121 51573 NIL
AAXX 17121 51709 NIL
AAXX 17121 52533 NIL
AAXX 17121 52652 NIL
AAXX 17121 52866 32968 00000 11081 21143 37746 52015 333 00300
AAXX 17121 52983 NIL
AAXX 17121 53463 32975 00401 11104 21209 39073 40421 52010 333 05103
AAXX 17121 53513 32965 00000 11120 21190 39102 40435 52016 333 00152
AAXX 17121 53588 NIL
AAXX 17121 53772 NIL
AAXX 17121 53915 NIL
AAXX 17121 54218 32970 03401 11093 21271 39511 40372 52016
AAXX 17121 54337 32960 03601 11054 21215 30241 40330 52017
AAXX 17121 54342 NIL
AAXX 17121 54401 NIL
AAXX 17121 54471 32960 00000 11068 21155 30320 40326 52015
AAXX 17121 54497 32965 00402 11084 21127 30298 40316 52010
AAXX 17121 54511 NIL
AAXX 17121 54823 32963 01101 11020 21103 30124 40346 52013
AAXX 17121 56080 NIL
AAXX 17121 56096 NIL
AAXX 17121 57083 32960 61602 10025 21079 30190 40334 52017 80002
AAXX 17121 56187 11450 80202 10058 20028 39650 40319 52040 69901 72166 8272/ 333 00251
AAXX 17121 56778 NIL
AAXX 17121 57265 NIL
AAXX 17121 57461 31958 80901 10057 21042 30166 40335 52018 70500 8807/
AAXX 17121 57494 NIL
AAXX 17121 57516 11760 80701 10077 20009 39986 40305 52032 69901 70060 885// 333 00152
AAXX 17121 57687 31940 82902 10060 20005 30224 40311 52014 70500 8807/
AAXX 17121 57816 11440 80202 10008 21005 38849 40292 52029 69901 76060 885// 333 05152
AAXX 17121 58040 32960 02901 11028 21101 30326 40340 54000
AAXX 17121 58102 NIL
AAXX 17121 58150 32962 00000 11022 21087 30339 40343 52003
AAXX 17121 58221 32960 00401 10001 21079 30310 40340 52005
AAXX 17121 58238 NIL
AAXX 17121 58251 NIL
AAXX 17121 58362 NIL
AAXX 17121 58457 NIL
AAXX 17121 58606 NIL
AAXX 17121 58752 NIL
AAXX 17121 58847 NIL
AAXX 17121 59117 NIL
AAXX 17121 59134 NIL
AAXX 17121 59287 NIL
AAXX 17121 59316 NIL
AAXX 17121 59431 NIL
AAXX 17121 59644 31556 83602 10166 20078 30211 40228 52019 70500 888//
AAXX 17121 59758 NIL
BBXX 44139 17121 99442 70571 46/// /3106 10053 40149 52025 22200 00092 11007 70033 333 91208
AAXX 17124 89002 42899 60719 11004 21020 39642 49696 57037 86030 333 11003 21036
AAXX 17124 89578 46/// /1402 11349 36974 4//// 5////
AAXX 17124 85041 12260 70905 10242 20239 39814 40078 52023 60034 86770 333 20233 31/// 55042 56220 58004 70028 84704 85617 87357
AAXX 17124 85140 32560 80000 10250 20229 39900 40106 52010 8352/ 333 20225 30/// 55115 58010 83620 82458
AAXX 17124 85141 32584 70000 10260 20246 39868 40096 52015 86540 333 20240 30/// 55062 56770 58008 86620 87358
AAXX 17124 85151 NIL
AAXX 17124 85152 32570 80000 10255 20230 39862 40092 52015 82577 333 20245 30/// 55092 56100 59009 82625 84357 88270
AAXX 17124 85201 11115 71209 10068 20052 36294 52010 60064 74022 86632 333 20044 32001 55030 56200 58002 70063 82702 84615 87070
AAXX 17124 85230 NIL
AAXX 17124 85242 32984 00000 10067 21022 36557 52005 333 10002 30/// 58011
AAXX 17124 85032 11357 80208 10250 20235 39937 40100 52022 60034 71522 8652/ 333 20220 30/// 55063 56119 58015 70034 86606 88457
AAXX 17124 85043 11257 70000 10246 20238 39936 40097 52021 60044 71522 86730 333 20227 30/// 55045 56880 58010 70038 83704 84620 86358
AAXX 17124 85104 12365 70000 10248 20240 39925 40085 52012 60064 86530 333 20233 31/// 55075 56770 58006 70058 86608 87357
AAXX 17124 85109 12465 83606 10250 20236 39933 40093 52013 60034 8652/ 333 20228 31/// 56889 58005 70034 86615 88457 555 10100 29092
AAXX 17124 85114 11458 70000 10242 20232 39940 40103 51009 60014 71562 85530 333 20229 30/// 55070 56000 58008 70011 85615 87358
AAXX 17124 85116 32465 70305 10252 20235 39923 40102 52010 85530 333 20238 30/// 55088 56110 58007 85615 87358
AAXX 17124 85123 32565 70000 10262 20242 39925 40090 52016 82134 333 20236 30/// 55087 56117 58008 82820 84358 86070
AAXX 17124 85139 32465 80000 10268 20252 39868 40058 52011 84937 333 20253 30/// 55115 56776 58001 83615 81923 84358 88270
AAXX 17124 85153 31456 80000 10246 20232 39915 40100 52015 71522 8692/ 333 20236 30/// 56779 58013 85615 81923 88457
AAXX 17124 85154 32470 61704 10260 20244 39927 40103 52021 83536 333 20237 30023 55115 56376 58013 83610 83360 86270
BBXX 3FZK3 17124 99554 71562 46/// /1916 10046 20028 49956 58001 7//// 8//// 22223 0//// 2////
BBXX 46035 17121 99571 71778 46/// /3610 1//// 49833 58014 91150 22200 11109 20805 300// 41107 70044 333 91213 555 11103 22110 31111 43614 61149 355102 352103 358105 358113 017087 032074 83613 91109
BBXX 9V8739 17124 99357 71538 41598 62205 10160 20144 40290 54000 70200 864// 22264 00200 2//// 332// 40505 5//// 6//// 80150 ICE /////
BBXX A8CN9 17120 99500 71659 41497 62405 10060 20039 49895 53/// 70211 83443 22224 21210 32222 41210 51208 80050
BBXX DFGX2 17123 99538 71525 41/97 82026 10055 20022 40045 52015 70222 8//// 22224 04050 2//// 80040
BBXX DGHX 17123 99340 71678 41/98 41825 10190 20150 40205 56015 70222 8//// 22264 00180 2//// 80165
BBXX DGTX 17123 99330 71679 41598 42032 10200 20135 40215 56020 70211 841// 22264 00230 20404 80160
BBXX DIHC 17123 99366 71696 41497 82022 10170 20154 40130 57030 78022 887// 22254 00170 2//// 328// 40506 80160
BBXX NWS0003 17124 99539 71665 43/// /1411 10037 20007 49710 5//// 7//// 8//// 222// 04069 2//// 3//// 4//// 5//// 6//// 8//// ICE /////
BBXX SHIP 17123 99309 71504 41698 60318 10180 20130 40280 52010 70122 84/// 22223 00206 2//// 3//// 4//// 5//// 6//// 80150 ICE /////
BBXX SHIP 17124 99503 71537 41/98 81620 10063 20028 40075 58005 7//22 8//// 22224 00060 2//// 80224
BBXX WNGW 17124 99577 71524 41797 82104 10033 2//// 49975 52015 7//// 886// 22200 02044 20000 3//// 40000 50000 6//// 8//// ICE /////
BBXX C6SI3 17123 99403 11519 41/95 /2630 10030 20010 40130 54000 78377 8//// 22213 0//// 20704 3//// 40804 5//// 6//// 80020 ICE /////
BBXX DFWV2 17124 99300 11776 41/98 12120 10227 20216 40165 56015 70200 8//// 22263 04210 2//04 3//// 4//// 5//// 80219
BBXX DHBN 17121 99311 11570 41/97 93613 10180 20148 40140 54000 70322 8//// 22225 00220 2//// 3//// 4//// 5//// 80160
BBXX DQVG 17123 99330 11583 41597 43336 10160 20103 40058 53028 70122 811// 22264 20308 3//// 4//// 5//// 80130
BBXX ELWG7 17124 99483 11735 416// 63224 10030 21100 49930 54000 7//11 865// 22224 00090 20804 331// 40805 5//// 6//// 81010 ICE /////
BBXX WDB3161 17124 99520 11657 41497 53205 11010 21040 49920 52005 70222 857// 22253 00056 20801 305// 41007 5//// 6//// 81020 ICE /////
AAXX 17123 NIL
AAXX 17124 NIL
AAXX 17121 48855 02597 70503 10226 20188 30180 40188 52020 60014 878// 333 01021 10245 59002 69922 70012 8489 5 86697
AAXX 17121 48848 02597 83205 10161 20138 30194 40202 53013 69994 888// 333 01016 10165 59015 69912 70009 8389 5 88697
AAXX 17121 48803 32497 80000 10164 20132 30097 40211 53009 888// 333 00016 10181 59009 70000 83894 88696
AAXX 17121 48852 01497 80000 10175 20175 30179 40189 52017 60644 76166 8672/ 333 01018 10182 59011 60232 7064 1 86894 88499 96160
BBXX SERW 17123 99321 70095 43898 20510 10159 2//// 40295 50005 70000 80080 22252 06157 20201 333// 41003
BBXX SKUN 17123 99511 70310 43/98 61623 10089 40222 55001 22214 00075 2//// 4////
AAXX 17124 91753 04479 /1006 10269 20247 30080 40112 58007 69921 700// 333 69927 90710 91120 555 69925
AAXX 17124 91754 06/// /0704 10274 20236 30074 40115 58006 60001 333 10313 55093 2//// 59009 60007 555 60005
BBXX 3EIZ7 17124 99426 70302 41496 82621 10190 2016/ 40220 56000 75020 8872/ 22264 0//// 2//07 320// 4//07 5//// 6//// 80170 ICE /////
AAXX 17124 71956 16/// /1204 11124 21145 30036 40277 53005 60001 333 10016 21126 70000
AAXX 17124 71959 16/// ///// 11010 21050 60001 333 10128 21010 70033
AAXX 17124 71970 16/// /2406 11093 21107 39573 40172 58010 60001 333 11008 21103 70000
AAXX 17124 71977 46/// /0000 11273 21273 39350 40088 54000 6///1 333 11199 21277 4/025 7//// 555 10020
AAXX 17124 71978 46/// /1901 11332 21368 39775 40105 52004 6///1 333 11239 21332 4/002 7////
AAXX 17124 71989 16/// /0403 11406 21449 30148 40166 57001 60001 333 11286 21411 4/050 70000
AAXX 17124 71669 46/// /2705 10038 21029 38561 40181 55013 6///1 333 10024 21001 7////
AAXX 17124 71250 16/// /2713 10020 21012 39921 40056 53032 60001 333 10075 20017 70137
AAXX 17124 71270 17/// /0113 11062 21097 30030 40257 51014 69931 7//4/ 333 10041 21065 70027
AAXX 17124 71295 17/// /1903 11098 21113 39679 40139 56036 60011 7//4/ 333 11134 21188 4/013 55/// 20000 70012 555 10010
AAXX 17124 71299 16/// /1903 11240 21260 39965 40263 56005 60001 333 11125 21243 4/018 70000
AAXX 17124 71501 16/// /0602 11284 21318 30113 40115 50000 60001 333 11230 21284 4/054 70000
AAXX 17124 71522 46/// /3004 11206 21238 39690 40199 50009 6///1 333 10008 21206 70000
AAXX 17124 71110 16/// /2719 10008 21018 30024 40084 51039 60001 333 10077 20006 70212
AAXX 17124 71139 16/// /2103 11012 21040 38727 40200 58007 60001 333 11005 21032 70003
AAXX 17124 71141 16/// /3208 11302 21333 30040 40068 58008 60001 333 11271 21312 4/004 70000
AAXX 17124 71357 17/// /2006 11149 21164 39784 49791 58037 69931 7//4/ 333 11152 21171 4/048 70027 555 10030
AAXX 17124 71361 16/// /1404 11174 21195 39860 40073 57030 60001 333 11090 21206 70000
AAXX 17124 71362 16/// /1403 11150 21166 39853 40115 57018 60001 333 11099 21150 70000
AAXX 17124 71365 16/// /3403 11223 21243 39843 40064 56015 60001 333 11165 21260 4/018 70000
AAXX 17124 71373 16/// /3404 11074 21094 60001 333 10090 21075 70020
AAXX 17124 71376 16/// /2802 11123 21156 39935 40242 53016 60001 333 10052 21126 70000
AAXX 17124 71381 47/// /3213 11171 21205 6///1 7//4/ 333 21171 7////
AAXX 17124 71392 16/// /2802 11099 21141 60001 333 10070 21101 70000
AAXX 17124 71393 16/// ///// 11012 21059 38896 40174 56015 60001 333 10056 21015 4/008 70000
AAXX 17124 71450 16/// /2004 11087 21115 39474 40209 55003 60001 333 11006 21087 70000
AAXX 17124 71451 16/// /2806 11079 21102 39695 40129 52014 60001 333 11079 21144 4/017 70013 555 10020
AAXX 17124 71456 16/// /2508 11110 21132 39576 40189 50005 60001 333 11051 21110 70000
AAXX 17124 71465 46/// /3409 11014 21065 30034 40256 51004 6///1 333 10030 21014 7////
AAXX 17124 71470 16/// /1305 11221 21243 39460 40107 58014 60001 333 11205 21275 70000
AAXX 17124 71476 17/// /0208 30109 53006 60201 7//4/ 333 70288
AAXX 17124 71478 17/// /1937 10086 20085 30017 40153 58008 60061 7//4/ 333 10092 20086 70478
AAXX 17124 71479 16/// /1430 10086 20086 30072 40193 56018 60001 333 10095 20084 70000
AAXX 17124 71480 16/// /3302 11278 21306 39983 40111 52003 60001 333 11232 21315 4/018 70000
AAXX 17124 71482 46/// /0609 10055 30118 40156 58004 6///1 333 10049 20039 7////
AAXX 17124 71484 16/// /3614 10064 20055 30092 40110 53011 60001 333 10082 20062 70000
AAXX 17124 71492 46/// ///00 11328 21361 39378 40110 55001 6///1 333 11218 21338 4/014 7////
AAXX 17124 71311 16/// /3107 11051 21077 30138 40163 53015 60001 333 10101 21053 70045
AAXX 17124 71312 16/// /2408 11109 21128 39706 40174 50009 60001 333 11036 21110 70000
AAXX 17124 71317 16/// /2601 11062 21070 30108 40155 51017 60001 333 10106 21073 70027
AAXX 17124 71321 16/// /3308 11255 21280 39833 49877 56002 60001 333 11114 21255 4/006 70000
AAXX 17124 71075 16/// /3207 11144 21161 39506 40127 51014 60001 333 11107 21145 4/135 70000 555 10960
AAXX 17124 71087 46/// /1103 11190 21211 39858 40070 56031 6///1 333 11173 21264 7////
AAXX 17124 71940 11782 80000 11010 21012 39296 40105 57019 69921 70282 885// 333 10025 21038 44007 70002 90961
AAXX 17124 71402 46/// /2716 11007 21044 39919 40033 51067 6///1 333 10062 21007 7////
AAXX 17124 71407 16/// /2510 11246 21275 39978 49999 56008 60001 333 11181 21266 70000
AAXX 17124 71771 46/// /3410 10067 20060 30107 40128 53015 6///1 333 10083 20066 7////
AAXX 17124 71552 46/// /2413 11056 21069 6///1 333 11065 21111 7////
AAXX 17124 71553 16/// /2912 11080 21108 60001 333 11058 21085 70000
AAXX 17124 71577 46/// /2705 11060 21075 6///1 333 11075 21115 7////
AAXX 17124 71579 16/// /2604 11051 21078 39852 40142 55012 60001 333 11068 21096 70000
AAXX 17124 71581 16/// /0302 11134 21157 39749 40248 51013 60001 333 10020 70003
AAXX 17124 71585 46/// /1104 11129 21138 39667 40139 58019 6///1 333 21168 4/011 7////
AAXX 17124 71920 16/// /3405 10002 21021 30158 40164 53008 60001 333 10102 20000 70000
AAXX 17124 71837 16/// ///// 10038 60001 333 20015 70000
AAXX 17124 71839 16/// ///// 10044 60001 333 10053 20023 70000
AAXX 17124 71840 46/// /2817 11054 21079 6///1 333 11049 21082 7////
AAXX 17124 71849 16/// /2611 11064 21082 39845 40152 55009 60001 333 11072 21107 4/001 70000
AAXX 17124 71151 16/// /2110 11077 21083 39626 40144 56027 60001 333 11113 21146 4/002 55/// 20000 70000
AAXX 17124 71155 16/// ///// 11015 21040 60001 333 10009 21045 70000
AAXX 17124 71156 16/// /3001 11030 21048 39033 40136 57021 60001 333 10042 21049 4/016 70000
AAXX 17124 71158 16/// /2912 11049 21063 39829 40110 53007 60001 333 11090 21139 70017
AAXX 17124 71159 16/// /3013 11042 21082 30023 40095 51041 60001 333 10068 21042 70090
AAXX 17124 71160 16/// /1602 11172 21197 39909 40129 58001 60001 333 11147 21172 4/134 70000
AAXX 17124 71162 16/// /1411 11135 21154 39879 40093 58020 60001 333 11119 21168 70000
AAXX 17124 71164 46/// /1802 11247 21275 30046 40130 55000 6///1 333 11224 21247 7////
AAXX 17124 71165 46/// ///01 11182 21201 39806 40097 57010 6///1 333 11157 21183 7////
AAXX 17124 71166 46/// /2405 39435 58019 6///1 333 7////
AAXX 17124 71170 16/// /2804 11087 21106 60001 333 11041 21092 70000
AAXX 17124 71631 16/// /3608 11090 21140 39740 40255 51012 60001 333 10002 21092 70006
AAXX 17124 71723 16/// /3507 11095 21152 30217 40227 52022 60001 333 10080 21095 70000
AAXX 17124 71736 46/// ///// 10040 21016 6///1 333 10038 20021 4/004 7////
AAXX 17124 71742 46/// /2711 11004 21038 39866 40051 51061 6///1 333 10068 21004 7////
AAXX 17124 71744 16/// /3107 11079 21138 30127 40169 51014 60001 333 10076 21079 70018
AAXX 17124 71747 16/// /2203 11128 21145 39715 40215 56026 60001 333 11085 21228 4/006 7////
AAXX 17124 71472 17/// /0000 10069 20055 30076 40093 58023 60021 7//4/ 333 10078 20067 7////
AAXX 17124 71148 16/// /3010 11068 21088 39591 40185 53002 60001 333 11055 21099 4/001 70000
AAXX 17124 71807 16/// /2724 10031 21002 30070 40088 53037 60001 333 10085 20029 70216
AAXX 17124 71808 12574 33013 11124 21171 39992 40039 52060 60001 81109 333 10026 21124 44017 70202
AAXX 17124 71215 46/// /1202 11002 21027 39964 40317 56006 6///1 333 10009 21004 7////
AAXX 17124 71243 16/// /2728 10069 21014 39114 40189 58014 60001 333 10058 20037 70000
AAXX 17124 71246 16/// /1407 11047 21062 39442 40116 56025 60001 333 11012 21139 70000
AAXX 17124 71885 16/// ///// 10052 60001 333 10054 20015 70000
AAXX 17124 71886 16/// /2907 11080 21110 39567 40186 53012 60001 333 11037 21092 4/007 55/// 20000 70000
AAXX 17124 71015 16/// ///// 10036 60001 333 10033 20014 70000
AAXX 17124 71017 16/// /2809 11318 21351 30086 40101 58005 60001 333 11300 21333 70000
AAXX 17124 71019 46/// /3407 11114 21150 39870 40180 53011 6///1 333 10042 21117 7////
AAXX 17124 71020 46/// /1801 11214 21236 39777 40041 58017 6///1 333 10005 21224 4/011 7////
AAXX 17124 71021 46/// /0000 11224 21246 39706 40070 56013 6///1 333 11057 21228 4/005 7////
AAXX 17124 71822 11564 82605 11234 21282 39730 40231 53007 69901 77171 885// 333 11025 21263 47032 70004 90910
AAXX 17124 71832 16/// /1904 11166 21185 39899 40243 58010 60001 333 11140 21207 4/030 70000
AAXX 17124 71858 16/// /3111 11058 21080 39843 40129 53018 60001 333 11053 21101 70016
AAXX 17121 33562 /1497 81408 10050 20025 39571 49925 57030 78082 8595/ 333 85915 555 69901
BBXX SLKR 17123 99047 51120 43/98 61219 10229 40130 55000 22254 00241 2//// 4////
AAXX 17124 71822 11564 82605 11234 21282 39730 40231 53007 69901 77171 885// 333 11025 21263 47032 70004 90910
AAXX 17124 71832 16/// /1904 11166 21185 39899 40243 58010 60001 333 11140 21207 4/030 70000
AAXX 17124 71858 16/// /3111 11058 21080 39843 40129 53018 60001 333 11053 21101 70016
AAXX 17124 71807 16/// /2724 10031 21002 30070 40088 53037 60001 333 10085 20029 70216
AAXX 17124 71808 12574 33013 11124 21171 39992 40039 52060 60001 81109 333 10026 21124 44017 70202
AAXX 17124 71472 17/// /0000 10069 20055 30076 40093 58023 60021 7//4/ 333 10078 20067 7////
AAXX 17124 71631 16/// /3608 11090 21140 39740 40255 51012 60001 333 10002 21092 70006
AAXX 17124 71148 16/// /3010 11068 21088 39591 40185 53002 60001 333 11055 21099 4/001 70000
AAXX 17124 71940 11782 80000 11010 21012 39296 40105 57019 69921 70282 885// 333 10025 21038 44007 70002 90961
BBXX 44150 17121 99425 70640 46/// /3606 10060 40160 52012 22200 00112 11006 70030 333 91208
BBXX 44150 17121 99425 70640 46/// /3606 10060 40160 52012 22200 00112 11006 70030 333 91208
AAXX 17121 15015 01597 80703 10058 20034 39277 42528 58022 60021 76162 885// 333 60027 91007 91110
AAXX 17121 15020 02597 81404 10061 20029 39696 49890 56030 60001 8457/ 333 60007 91006 91107
AAXX 17121 15090 02597 80705 10074 20043 39822 49913 56033 60001 8657/ 333 55302 00291 20505 30440 60007 91009 91110
AAXX 17121 15108 02298 82534 11020 21020 37857 48273 57020 60001 8457/ 333 43006 60007 91040 92727 95000
AAXX 17121 15120 01597 71304 10079 20052 39388 49869 56017 69971 70282 84570 333 55300 00206 20485 30461 69917 91007 91107
AAXX 17121 15150 01596 71605 10037 20037 39698 49909 56031 60001 71022 84570 333 60007 91009 91110
AAXX 17121 15170 01596 83601 10028 20021 39135 42561 56025 60001 71022 8557/ 333 60007 91002 91103
AAXX 17121 15200 01597 82303 10046 20036 39786 49929 51061 60041 76162 8802/ 333 69927 91005 91105
AAXX 17121 15230 01597 71702 10097 20052 39624 49909 53023 60041 70262 85570 333 55301 00133 20417 30370 69997 91006 91108
AAXX 17121 15260 01598 81105 10084 20027 39376 49895 55006 69921 70262 8457/ 333 60007 91010 91111 95050
AAXX 17121 15280 01/90 92520 11049 21049 37255 47787 57015 60001 74943 333 49030 60007 91028 92723 92956 96039
AAXX 17121 15292 01597 83005 10047 20047 39658 49950 51062 60041 78082 883// 333 60037 91009 91113 95090
AAXX 17121 15310 02597 71704 10101 20069 39851 49935 56033 60001 84570 333 55303 00332 20536 30495 60007 91007 91108
AAXX 17121 15335 02997 71907 10126 20083 39937 49944 56029 60001 87070 333 60007 91011 91113
AAXX 17121 15346 01597 83502 10062 20056 39646 49931 56021 60041 76166 885// 333 60027 91004 91104 95090
AAXX 17121 15350 02597 82003 10065 20044 39819 49937 56029 60001 885// 333 60007 91003 91103
AAXX 17121 15360 02997 71912 10101 20079 39940 49954 56030 60001 87070 222// 06078 20603 333 60007 91014 91115 92447
AAXX 17121 15410 01597 82401 10066 20062 39851 49946 51017 60041 76166 8802/ 333 60027 91001 91102
AAXX 17121 15420 01597 80602 10062 20050 39820 49930 56027 69921 76162 8452/ 333 55300 0//// 20234 3//// 69927 91003 91104
AAXX 17121 15450 01596 80302 10052 20040 39702 49935 53006 60011 76166 8652/ 333 55300 00019 20160 30145 69967 91003 91106 96010
AAXX 17121 15460 02597 71903 10148 20049 39905 49928 56026 60001 83570 333 60007 91006 91108
AAXX 17121 15470 01597 70903 10088 20057 39788 49911 56031 69931 70282 83370 333 69937 91004 91105
AAXX 17121 15480 02597 62302 10135 20083 39935 49951 56024 60001 86500 222// 06090 2//// 333 60007 91009 91110 92437
AAXX 17124 40550 35/68 /0104 10220 21031 40174 56015 333 0/025 55308 00336 10000 21062 30329 41140 51543 61392 55407 40733 90069 90400 91007 91109 912// 91303
AAXX 17124 40551 36/// /2808 10210 21018 333 0//// 90401 91011 91113 912// 91307
AAXX 17124 40552 35/70 /3308 10201 21019 40174 55016 333 0/023 55307 90069 90401 91009 91113 912// 91305
AAXX 17124 40553 35/64 /3308 10212 21020 40171 56016 333 0/023 55308 90069 90401 91011 91113 912// 91305
AAXX 17124 40568 36/// /0104 10184 20069 333 0//// 90400 91007 91111 912// 91305
AAXX 17124 40569 NIL
AAXX 17124 40570 37/59 /2708 10168 2//// 4//// 5//// 71086 333 0/021 55307 90069 90401 91011 91111 912// 91303
AAXX 17124 40571 NIL
AAXX 17124 40572 NIL
AAXX 17124 40573 46/// /3307 10188 20006 333 0//// 90401 91009 91115 912// 91305
AAXX 17124 40580 46/// /3404 10215 20024 333 0/027 553// 00474 10000 21210 30234 41083 51598 61445 55407 40976 90401 91007 91111 912// 91303
AAXX 17124 40581 36/// /0202 10214 20016 333 0//// 90401 91009 91109 912// 91301
AAXX 17124 40582 31957 40107 10213 20006 40170 56017 70500 80004 333 00025 55300 00441 10000 21224 30391 41188 51584 61615 55407 40833 84070 90400 91011 91113 912// 91307
AAXX 17124 40583 NIL
AAXX 17124 40585 36/// /2910 10203 20021 222// 1//// 3//// 4//// 70/// 333 0//// 90400 91013 91123 912// 91309
AAXX 17124 40586 46/// /3203 10214 20019 333 0//// 90401 91007 91109 912// 91301
AAXX 17124 40587 36/// /3306 10215 20023 333 0/026 553// 00502 10000 21295 30345 41099 51551 61640 55407 40950 90401 91009 91111 912// 91305
AAXX 17124 40588 37/59 /3007 10203 20054 40169 56016 71010 333 0/022 55300 90069 90400 91009 91111 912// 91307
AAXX 17124 40589 NIL
AAXX 17124 40590 36/// /3508 10204 20011 333 0//// 90400 91011 91115 912// 91307
AAXX 17124 40591 NIL
AAXX 17124 40592 35/67 /0407 10205 20093 40169 55013 333 0/023 55310 00679 10000 21291 30235 41145 51526 61526 55407 41055 90069 90401 91011 91113 912// 91305
AAXX 17124 40593 46/// /0310 10172 20131 333 0//// 90400 91011 91115 912// 91309
AAXX 17124 40594 46/// /0210 10194 20129 333 0//// 90401 91013 91117 912// 91309
AAXX 17124 40596 36/// /3412 10184 20136 333 0//// 90401 91015 91115 912// 91311
AAXX 17124 40356 32960 02308 10150 20020 39198 48498 333 58000 555 04410 50185
AAXX 17124 40357 32960 02706 10184 20040 39545 40189 333 58017
AAXX 17124 40360 32960 01804 10168 20000 39590 40178 333 59003
AAXX 17124 40361 32960 02504 10172 21020 39416 40198 333 58016
AAXX 17124 40362 32960 23305 10182 21040 39662 40184 80001 333 58035 82070
AAXX 17124 40373 32960 03602 10151 20070 39754 40184 333 58048
AAXX 17124 40375 32660 21202 10180 21040 39290 40176 82400 333 59008 82640
AAXX 17124 40377 32960 00607 10175 20070 39697 40185 333 58040
AAXX 17124 40394 NIL
AAXX 17124 40400 32960 53012 10254 20130 30111 40139 80001 333 59016 85070
AAXX 17124 40401 32960 52406 10210 21040 39458 40159 82024 333 58000 82360 84070
AAXX 17124 40405 32960 00204 10190 20010 39430 40176 333 58026
AAXX 17124 40416 31957 03004 10220 20100 30119 40139 70500 333 59001
AAXX 17124 40417 32960 03108 10214 20040 30137 40152 333 59001
AAXX 17124 40420 32960 03409 10241 21030 39951 40159 333 58015
AAXX 17124 40430 32960 31108 10236 20000 39420 40137 81031 333 58008 81360
AAXX 17124 40435 NIL
AAXX 17124 40437 32960 23207 10227 21020 39461 40163 80001 333 58020 82070
AAXX 17124 40439 32960 42410 10282 20070 30103 40113 82031 333 59003 82360
AAXX 17124 41024 32660 23212 10280 20180 30084 40103 82200 333 59011 82835
AAXX 17124 41030 32660 32502 10314 20170 39823 40092 83400 333 59010 83640
AAXX 17124 41036 32560 53204 10222 20090 38548 48498 85800 333 58000 85830 555 04410 50101
AAXX 17124 41055 32560 42110 10233 20100 38349 48495 84200 333 59005 84820 555 04410 50106
AAXX 17124 41061 32960 01010 10253 20100 39426 40129 333 58004
AAXX 17124 41084 32560 20507 10272 21010 38838 48493 82200 333 59004 82830 555 04410 50097
AAXX 17124 41112 32560 41906 10197 20110 37942 48509 84100 333 58001 84820 555 04410 50148
AAXX 17124 41114 32560 32408 10232 20050 37970 48498 83400 333 58001 83622 555 04410 50114
AAXX 17124 41128 32960 00808 10280 21060 38798 48505 333 58008 555 04410 50114
AAXX 17124 41136 32960 00606 10275 20060 39313 40122 333 58009
AAXX 17124 41140 32560 22012 10299 20220 30103 40112 82200 333 59003 82830
AAXX 17124 41241 32560 20209 10249 20153 30112 40147 82800 333 59002 82830
AAXX 17124 41242 36/// /0506 10250 20154 30136 40161 333 0E018 59003
AAXX 17124 41244 NIL
AAXX 17124 41246 32560 30810 10251 20184 30141 40145 82530 333 59007 82630
AAXX 17124 41251 32967 02004 10163 20044 38035 48109 333 58007
AAXX 17124 41252 36/// /2506 10274 20031 39768 40057 333 0E016 59004
AAXX 17124 41253 36/// /0104 10263 20118 39770 40153 333 0E016 59005
AAXX 17124 41254 36/// /3304 10160 20036 38042 48047 333 0E003 59006
AAXX 17124 41255 32960 01804 10272 20061 39612 40122 333 58001
AAXX 17124 41256 32970 00508 10248 20143 30138 40148 333 59009
AAXX 17124 41257 NIL
AAXX 17124 41258 36/// /0706 10243 20143 30138 40142 333 0E/// 59009
AAXX 17124 41259 NIL
AAXX 17124 41262 NIL
AAXX 17124 41263 36/// /2402 10269 20027 39468 40158 333 0E013 59002
AAXX 17124 41264 36/70 /2903 10278 20048 39763 40123 333 0E017 59002
AAXX 17124 41265 36/// /1202 10277 20099 39601 40153 333 0E021 59003
AAXX 17124 41267 35/82 /0106 10244 20140 30137 40152 333 0E019 59001
AAXX 17124 41268 32960 00307 10250 20139 30136 40152 91215 333 58002
AAXX 17124 41270 36/70 /0408 10244 20150 30097 40108 333 0E017 58002
AAXX 17124 41275 NIL
AAXX 17124 41287 36/// /0108 10283 20109 30097 40164 333 0E016 59000
AAXX 17124 41288 32460 10908 10257 20179 30127 40148 81500 333 58002 81610
AAXX 17124 41290 NIL
AAXX 17124 41295 NIL
AAXX 17124 41304 NIL
AAXX 17124 41312 36/// /0903 10266 20169 30085 40124 333 0E/// 58000
AAXX 17124 41314 32960 00611 10255 20057 39640 40135 333 59003
AAXX 17124 41315 36/// /0214 10221 20061 39148 42786 333 0E/// 59003
AAXX 17124 41316 32560 11706 10264 20132 30099 40125 81500 333 59002 81625
AAXX 17121 48823 32697 83201 10170 20103 30209 40212 52014 885// 333 00017 10187 59012 70000 88696
AAXX 17121 48820 32798 81801 10178 20092 30206 40214 52016 885// 333 00017 10182 59012 70000 88697
BBXX C6OM8 17120 99086 50345 41698 31505 10283 20221 40152 52010 70311 82141 22253 06275 20504 314// 40705 5//// 80241
AAXX 17124 16522 12498 33021 10132 20068 39850 40092 58005 60001 83200 333 55310 83815 555 0600/
BBXX A8SF7 17121 99301 70792 41298 72909 10218 20179 40215 52005 70322 8677/ 22234 04240 21202 3//// 4//// 5//// 80192
AAXX 17124 17203 11610 80000 11007 21017 38885 48528 55012 60011 77122 8552/ 333 85633 88457 93101
AAXX 17124 16294 12598 42910 10140 20068 39833 40022 53012 60001 84200 333 84820 555 0435/
AAXX 17121 37279 42999 61301 10141 20023 39990 40130 58004 80006
AAXX 17121 37308 42999 40000 10050 21033 39517 40171 57011 83031
AAXX 17121 37531 42998 60000 10040 21012 39461 40191 58012 80052
AAXX 17121 37553 42999 80901 10069 21010 39513 40158 57006 80031 555 10017
AAXX 17121 37651 16/// ///00 10050 21006 3//// 4//// 5//// 60001
AAXX 17121 37492 NIL
AAXX 17124 41858 31305 82704 10144 20130 30107 40155 74444 8672/ 333 10150 56699 58009 70000 86708 88458
AAXX 17124 41863 31940 00000 10136 20120 30105 40150 70500 333 10142 58005 70000
AAXX 17124 41886 31940 00000 10172 20130 30120 40141 71044 333 10202 59005 70000
AAXX 17124 41895 31950 03601 10162 20140 30126 40149 70500 333 10186 58002 70000
AAXX 17124 41909 31445 83601 10139 20130 30125 40137 70542 8252/ 333 10167 56999 59002 70000 82615 88458
AAXX 17124 41915 31930 00000 10168 20150 30116 40142 71040 333 10240 59003 70000
AAXX 17124 41926 31940 00000 10146 20140 30138 40152 70500 333 10190 58003 70000
AAXX 17124 41929 31415 60000 10143 20130 30134 40144 71022 86500 333 10164 56900 58007 70000 86618
AAXX 17124 41933 31940 00000 10182 20150 30130 40139 70540 333 10206 58000 70000
AAXX 17124 41939 NIL
AAXX 17124 41941 31920 03602 10172 20150 30136 40142 71044 333 10196 58016 70000
AAXX 17124 41946 NIL
AAXX 17124 41947 31950 00000 10155 20140 30142 40144 70544 333 10225 58003 70000
AAXX 17124 41951 NIL
AAXX 17124 41953 31940 00000 10174 20150 30140 40145 70500 333 10192 58005 70000
AAXX 17124 41958 31930 00302 10158 20150 30138 40140 70500 333 10210 58001 70000
AAXX 17124 41960 31940 03301 10165 20140 30140 40142 70500 333 10222 58001 70000
AAXX 17124 41963 NIL
AAXX 17124 41964 31928 00000 10166 20130 30140 40142 71000 333 10227 59006 70000
AAXX 17124 41965 NIL
AAXX 17124 41966 NIL
AAXX 17124 41984 32940 00000 10165 20120 30132 40134 333 10230 58004 70000
AAXX 17124 41989 NIL
AAXX 17124 41998 31920 00000 10190 20150 30116 40122 70500 333 10262 58000 70000
BBXX SLCO 17124 99062 11461 43/97 71615 10257 40071 51024 22234 00281 2//// 4////
BBXX SLKQ 17121 99095 10709 43/97 50507 10291 40083 55004 22264 00296 2////4////
BBXX SBLI 17121 99300 71649 43/98 71306 10198 40251 58011 22264 00214 2//// 4//// 426621110
BBXX SBLW 17123 99220 70609 43/98 70420 10235 40185 53019 22254 00264 2//// 4////
BBXX 9V8797 17124 99238 10585 43/98 10610 10237 40165 57017 22234 00259 2//// 4////
AAXX 17124 48325 32960 20000 10223 20186 39877 40122 54000 80005 333 58000 70000
AAXX 17124 48304 32965 00000 10205 20184 39682 40149 52008 333 10267 58002 70000
AAXX 17124 48325 32960 20000 10223 20186 39877 40122 54000 80005 333 58000 70000
AAXX 17120 44214 32998 23203 11252 21291 38330 40535 53004 81048 333 11161
AAXX 17120 44231 319// 00000 11292 21349 38843 40609 53006 70410 333 11259
AAXX 17120 44259 32997 02807 11203 21245 39390 40374 50000 333 11169 91112
AAXX 17120 44277 NIL
AAXX 17120 44288 32899 81901 11154 21241 38228 40461 53005 8807/ 333 11111
AAXX 17120 44292 319// 00000 11263 21287 38813 40527 52002 70400 333 11223
AAXX 17120 44304 329// 02303 11288 21318 39096 40490 53005 333 11212
AAXX 17120 44354 329// 00000 11262 21294 39224 40479 52009 333 11184
AAXX 17120 44373 31999 22502 11181 21229 38611 40445 51002 70400 80004 333 11104
AAXX 17124 48001 NIL
AAXX 17124 48004 32530 10000 10181 20165 81100 333 10233 56900
AAXX 17124 48008 31530 20000 10195 20150 40141 70544 82400 333 10270 56600 59012
AAXX 17124 48010 32510 20000 10205 20185 40142 81430 333 10250 56990 58000
AAXX 17124 48018 32940 00000 10215 20173 40129 333 10282 59001
AAXX 17124 48019 32950 00000 10205 20150 40133 333 10260 59032
AAXX 17124 48020 32440 20000 10180 20129 40129 82400 333 10245 56500
AAXX 17124 48025 32456 20000 10208 20175 40137 81540 333 10250 56690 59005
AAXX 17124 48035 31910 00000 10176 20108 40115 71000 333 10260 59005
AAXX 17124 48037 32930 00000 10214 20174 40126 333 10279 59012
AAXX 17124 48042 32957 00000 10250 20186 40126 333 10285 59001
AAXX 17124 48045 32557 10000 10137 20107 81100 333 10208 56900
AAXX 17124 48048 32940 00401 10241 20174 40124 333 10282 59002
AAXX 17124 48053 32950 00000 10240 20174 40123 333 10285 59006
AAXX 17124 48057 32939 02201 10170 20074 333 10250
AAXX 17124 48060 32410 10000 10197 20150 40142 81100 333 10265 56500 58002
AAXX 17124 48062 31556 30000 10245 20190 40121 70522 82530 333 10280 56990 59009
AAXX 17124 48071 32956 03203 10240 20174 40130 333 10273 59006
AAXX 17124 48077 31956 00000 10260 20203 40112 70500 333 10310 59015
AAXX 17124 48078 32558 23201 10264 20185 40113 81201 333 10309 56909 58001
AAXX 17124 48080 32956 00000 10250 20186 40112 333 10340 59010
AAXX 17124 48094 32950 00000 10250 20230 40113 333 10312 59006
AAXX 17124 48097 32457 20401 10265 20213 40115 82830 333 10338 56900 59011
AAXX 17124 48108 31997 30000 10265 20185 40110 70511 80005 333 10341 56009 58005
AAXX 17124 48109 32496 40401 10280 20250 40105 82530 333 10320 56590 59010
AAXX 17124 48110 31596 30904 10290 20179 40097 70522 81406 333 10335 56909 59005
AAXX 17124 48112 31597 80407 10272 20211 40086 70322 83876 333 10299 56599 59010
AAXX 17124 48001 NIL
AAXX 17124 48004 32530 10000 10181 20165 81100 333 10233 56900
AAXX 17124 48008 31530 20000 10195 20150 40141 70544 82400 333 10270 56600 59012
AAXX 17124 48010 32510 20000 10205 20185 40142 81430 333 10250 56990 58000
AAXX 17124 48018 32940 00000 10215 20173 40129 333 10282 59001
AAXX 17124 48019 32950 00000 10205 20150 40133 333 10260 59032
AAXX 17124 48020 32440 20000 10180 20129 40129 82400 333 10245 56500
AAXX 17124 48025 32456 20000 10208 20175 40137 81540 333 10250 56690 59005
AAXX 17124 48035 31910 00000 10176 20108 40115 71000 333 10260 59005
AAXX 17124 48037 32930 00000 10214 20174 40126 333 10279 59012
AAXX 17124 48042 32957 00000 10250 20186 40126 333 10285 59001
AAXX 17124 48045 32557 10000 10137 20107 81100 333 10208 56900
AAXX 17124 48048 32940 00401 10241 20174 40124 333 10282 59002
AAXX 17124 48053 32950 00000 10240 20174 40123 333 10285 59006
AAXX 17124 48057 32939 02201 10170 20074 333 10250
AAXX 17124 48060 32410 10000 10197 20150 40142 81100 333 10265 56500 58002
AAXX 17124 48062 31556 30000 10245 20190 40121 70522 82530 333 10280 56990 59009
AAXX 17124 48071 32956 03203 10240 20174 40130 333 10273 59006
AAXX 17124 48077 31956 00000 10260 20203 40112 70500 333 10310 59015
AAXX 17124 48078 32558 23201 10264 20185 40113 81201 333 10309 56909 58001
AAXX 17124 48080 32956 00000 10250 20186 40112 333 10340 59010
AAXX 17124 48094 32950 00000 10250 20230 40113 333 10312 59006
AAXX 17124 48097 32457 20401 10265 20213 40115 82830 333 10338 56900 59011
AAXX 17124 48108 31997 30000 10265 20185 40110 70511 80005 333 10341 56009 58005
AAXX 17124 48109 32496 40401 10280 20250 40105 82530 333 10320 56590 59010
AAXX 17124 48110 31596 30904 10290 20179 40097 70522 81406 333 10335 56909 59005
AAXX 17124 48112 31597 80407 10272 20211 40086 70322 83876 333 10299 56599 59010
AAXX 17124 68398 36/// /3605 10266 20128 39406 48568 57010 333 10269 20155 91010 555 91018
BBXX 41053 17121 99185 70661 46/// /0506 10259 40159 53013 91200 22200 00273 11104 70022 333 91208
BBXX 41052 17121 99183 70648 46/// /0505 10259 40153 52017 91200 22200 00277 333 91207
BBXX 41052 17121 99183 70648 46/// /0606 10260 40151 91150 333 91208
BBXX 41052 17121 99183 70648 46/// /0504 10256 40149 91140 333 91205
BBXX 41053 17121 99185 70661 46/// /0606 10258 40156 91150 333 91208
BBXX 41053 17121 99185 70661 46/// /0606 10258 40155 91140 333 91208
AAXX 17121 40001 11560 73302 10085 20034 40192 58007 69961 70260 84550 333 84626 87360
AAXX 17121 40007 32460 60504 10087 20056 40191 55004 85302 333 85826 86070
AAXX 17121 40025 32560 52803 10184 20108 40164 56008 85800 333 82826 84630
AAXX 17121 40045 32570 62404 10134 20026 40191 57013 8355 333 83630 86360
AAXX 17121 40061 32970 52701 10137 20036 40175 57014 83052 333 83360 84070
AAXX 17121 40080 32570 52706 10184 20030 39458 40166 57014 82130 333 82826 84360
AAXX 17121 40087 NIL
AAXX 17121 40095 NIL
BBXX PCPR 17123 99387 70098 41398 43210 10162 20067 40300 52020 70311 84544 22283 04164 20100 331// 41006 80111
AAXX 17124 13623 11660 71808 10115 20073 30067 40073 54001 60081 70166 85530 333 85633
AAXX 17121 40706 11415 81002 11004 21034 38654 40241 57014 60001 74044 886// 333 88715
AAXX 17121 40718 11550 70000 10100 20092 30197 40168 57014 60001 71022 87500 222// 00104 20300 333 87625
AAXX 17121 40732 12560 51303 10110 20068 30188 40163 57012 60001 85400 333 85630
AAXX 17121 40745 11635 71702 10070 21024 39020 40192 56002 60001 70522 81136 333 81840 81267
AAXX 17121 40754 12660 42605 10118 21048 38812 40163 56010 60001 82131 333 82840
AAXX 17121 40766 12660 23404 10126 21023 38705 40188 57016 60001 82100 333 82840
AAXX 17121 40800 12960 00000 10132 21050 38444 40145 56016 60001 333
AAXX 17121 40811 11957 40000 10226 20102 30138 40165 56013 60001 70510 80001 333 84070
AAXX 17121 40841 12665 12904 10160 21063 38247 40157 56007 60001 81401 333 81645
AAXX 17121 40848 12662 21503 10158 21017 38519 40144 56015 60001 82400 333 82635
AAXX 17121 40856 12965 21005 10174 21179 38612 40146 56009 60001 80002 333 82070
AAXX 17121 40875 12960 12005 10239 20128 30136 40147 57014 60001 80002 333 81070
AAXX 17120 44203 329// 00000 11384 21413 38514 40669 53002 333 11350
AAXX 17120 44207 329// 22702 11305 21341 38386 40557 58003 82080 333 11216
AAXX 17120 44212 32999 21803 11330 21353 39283 40591 57002 80004 333 11256
AAXX 17120 44213 32999 00000 11338 21371 38910 40624 52006 333 11228
AAXX 17120 44215 32998 00000 11303 21327 38486 40553 52002 333 11232
AAXX 17120 44218 319// 00201 11232 21364 38696 40511 53007 77600 333 11180
AAXX 17120 44225 129// 00000 11356 21371 38353 40655 51007 69902 333 11269
AAXX 17120 44230 329// 20000 11311 21342 38920 40621 53005 80004 333 11241
AAXX 17120 44232 329// 00000 11355 21393 39264 40596 52004 333 11300
AAXX 17120 44237 32999 22702 11295 21326 38578 40562 53007 82044 333 11247
AAXX 17120 44239 329// 00000 11302 21339 38911 40535 53004 333 11253
AAXX 17120 44241 329// 01801 11304 21334 39416 40539 52003 333 11253
AAXX 17120 44256 32999 02709 11149 21183 39408 40321 56001 333 11100
AAXX 17120 44265 329// 00000 11209 21234 38922 40452 56005 333 11123
AAXX 17120 44272 129// 00000 11260 21291 38276 40502 53007 69902 333 11176
AAXX 17120 44275 119// 60000 11289 21307 37778 40556 53006 69902 77072 86010 333 11188 555 93100
AAXX 17120 44282 119// 81601 11170 21212 38364 40441 52004 69902 77172 8802/ 333 11099
AAXX 17120 44284 12899 20201 11266 21290 37897 40596 53003 69902 82040 333 11165
AAXX 17120 44285 32699 70000 11193 21222 38390 40474 52006 87500 333 11190
AAXX 17120 44287 32999 20204 11199 21234 38177 40507 53005 80004 333 11110
AAXX 17120 44294 329// 00205 11218 21251 38650 40504 52001 333 11168
AAXX 17120 44298 329// 03604 11246 21257 38807 40488 53003 333 11210
AAXX 17120 44302 329// 02906 11237 21280 39203 40439 56003 333 11212
AAXX 17120 44305 32999 02904 11244 21279 39145 40431 53005 333 11188
AAXX 17120 44313 NIL
AAXX 17120 44314 NIL
AAXX 17120 44317 32998 02302 11193 21226 39027 40428 55004 333 11140
AAXX 17120 44336 329// 30000 11216 21248 38789 40514 51008 83080 333 11156
AAXX 17120 44341 329// 30502 11228 21258 38694 40513 53005 82034 333 11143
AAXX 17120 44347 32999 00000 11177 21246 38806 40455 53006 333 11129
AAXX 17120 44352 32999 00000 11221 21254 39016 40451 53014 333 11154
AAXX 17120 44358 329// 02703 11218 21243 39201 40471 53013 333 11174
BBXX 42067 17121 99300 70886 46/// ///// 10112 20108 40252 91140 22200 00163 10802 70008
AAXX 17121 50136 32970 41601 11254 21283 39674 40273 52008 80002
AAXX 17121 50745 32966 52702 11118 21186 30048 40247 57007 80002
AAXX 17121 50774 32960 00000 11179 21216 39909 40240 52004
AAXX 17121 50788 32970 02204 11162 21193 30116 40208 52005
AAXX 17121 51133 NIL
AAXX 17121 51431 NIL
AAXX 17121 51747 NIL
AAXX 17121 52203 NIL
AAXX 17121 52418 NIL
AAXX 17121 52681 NIL
AAXX 17121 53564 NIL
AAXX 17121 53614 32965 70000 11065 21114 39021 40402 52014 80002 333 00251
AAXX 17121 53646 NIL
AAXX 17121 53798 NIL
AAXX 17121 53845 32961 60701 11022 21085 39183 40367 52018 80002 333 05102
AAXX 17121 53959 NIL
AAXX 17121 54094 32960 01801 11145 21211 39949 40276 52012
AAXX 17121 54102 32980 01803 11247 21276 39137 40485 52009
AAXX 17121 54161 NIL
AAXX 17121 54292 NIL
AAXX 17121 54374 32962 03602 11174 21209 39828 40343 52012
AAXX 17121 54423 NIL
AAXX 17121 54618 NIL
AAXX 17121 54843 NIL
AAXX 17121 54909 32964 61401 10004 21083 30272 40339 52016 80002
AAXX 17121 56029 32980 20000 11059 21203 36457 52018 80002 333 00553
AAXX 17121 57127 NIL
AAXX 17121 57131 32965 72201 10007 21057 39847 40366 52023 8703/
AAXX 17124 47401 11/65 82709 11052 21105 30095 40110 58005 69952 78582 882// 333 11050
AAXX 17124 47412 11/58 71702 11036 21084 30112 40146 58004 69902 78581 872// 333 11025
AAXX 17124 47420 15/70 /2806 11045 21131 30094 40129 50002 60002 333 11034
AAXX 17124 47426 17/70 /3211 11027 21098 30097 40146 58006 69902 77170 333 11026
AAXX 17124 47582 11/40 82917 10011 21043 30181 40209 53001 60022 78582 883// 333 10024
AAXX 17124 47590 12/82 21904 10013 21054 30151 40206 50001 60002 82800 333 10049
AAXX 17124 47600 17/70 /2104 10012 20004 30220 40229 58011 60012 72360 333 10053
AAXX 17124 47648 12/80 12507 10043 21060 30183 40218 50005 60002 81100 333 10091
AAXX 17124 47662 12/80 13304 10063 21104 30176 40221 50005 60002 81100 333 10104
AAXX 17124 47678 17/70 /2809 10083 20010 30034 40225 50005 69952 72360 333 10114
AAXX 17124 47740 17/84 /2808 10058 21030 30203 40238 58003 60032 70086 333 10072
AAXX 17124 47778 15/70 /3606 10061 21018 30166 40252 58001 60002 333 10092
AAXX 17124 47807 12/70 61802 10045 21005 30267 40286 55000 69902 86200 333 10075
AAXX 17124 47827 12/82 13606 10055 21001 30248 40288 50007 60002 81800 333 10115
AAXX 17124 47843 17/84 /3304 10070 21007 30253 40287 58001 69902 70080 333 10075
AAXX 17124 47893 12970 02703 10041 21027 30258 40264 50004 60002 333 10104
AAXX 17124 47909 11/65 73207 10132 20097 30258 40268 51007 60032 78082 872// 333 10159
AAXX 17124 47918 12/70 50210 10174 20110 30234 40252 51009 60002 85800 333 10214
AAXX 17124 47936 11/75 60309 10163 20088 30195 40255 51007 69902 70282 85830 333 10175
AAXX 17124 47945 11/65 30310 10175 20102 30221 40246 52009 69902 70282 83800 333 10198
AAXX 17124 47971 12/65 70106 10190 20123 30205 40215 50008 69902 872// 333 10206
AAXX 17124 47991 16/// /2103 10252 20198 30167 40177 50002 60002 333 10284
AAXX 17124 47407 11/60 81709 11073 21103 39957 40138 58011 60022 78582 882// 333 11053
AAXX 17124 47409 12/70 11804 11090 21145 30069 40126 58002 69902 81200 333 11051
AAXX 17124 47418 12/80 12715 11031 21113 30085 40136 50004 60002 81200 333 11019
AAXX 17124 47421 17/59 /2907 11023 21113 30103 40148 58012 69952 77170 333 11022
AAXX 17124 47430 11/60 61501 11043 21058 30103 40159 58011 69952 78582 86300 333 11024
AAXX 17124 47570 17/70 /2004 10000 21016 39962 40230 58001 60022 76776 333 10009
AAXX 17124 47575 11/08 82109 11017 21031 30178 40183 58001 60062 78682 883// 333 11013
AAXX 17124 47584 11/65 22102 11008 21048 39998 40194 55000 69902 70381 82200 333 10013
AAXX 17124 47604 11/65 61905 10010 21006 30217 40226 58005 69902 72682 86200 333 10051
AAXX 17124 47605 11/65 51908 10030 21006 30187 40229 56017 60022 70182 85200 333 10034
AAXX 17124 47610 12/70 22901 11025 21050 39719 40244 50001 69902 82200 333 10028
AAXX 17124 47624 12/80 13110 10021 21067 30080 40224 51005 60002 81200 333 10077
AAXX 17124 47629 12980 03101 10005 21039 30182 40222 51007 60002 333 10079
AAXX 17124 47636 12/65 73403 10043 21001 30176 40247 50004 60002 86530 333 10094
AAXX 17124 47651 12/80 22803 10038 21020 30224 40247 50000 69902 82500 333 10085
AAXX 17124 47655 15/70 /2814 10049 21027 30169 40227 51012 60002 333 10107
AAXX 17124 47675 17/70 /1506 10043 20013 30120 40214 50003 69902 70060 333 10109
AAXX 17124 47741 11/80 62309 10044 21012 30224 40252 58001 60062 72581 86200 333 10050
AAXX 17124 47746 11/70 11106 10013 20000 30233 40253 54000 69902 70281 81230 333 10045
AAXX 17124 47750 11165 41101 10012 20004 30220 40249 58001 69952 72511 84200 333 10061
AAXX 17124 47765 12/82 13607 10027 21026 30204 40272 50001 60002 81200 333 10097
AAXX 17124 47772 11/82 12907 10069 21028 30148 40251 50001 69902 70181 81100 333 10095
AAXX 17124 47800 15/82 /3403 10011 21026 30283 40288 53002 60002 333 10048
AAXX 17124 47815 12/70 11804 10036 21032 30267 40284 51005 60002 81100 333 10098
AAXX 17124 47817 12/80 71102 10044 21012 30242 40287 50001 69902 87200 333 10069
AAXX 17124 47830 12982 02704 10035 21024 30262 40281 51011 60002 333 10113
AAXX 17124 47887 12/70 50904 10040 21022 30229 40272 51003 69902 85100 333 10086
AAXX 17124 47891 12/80 22904 10058 21038 30243 40261 50001 60002 82800 333 10091
AAXX 17124 47895 12/75 12302 10045 21024 30251 40259 50000 60002 81500 333 10096
AAXX 17124 47927 11/70 40311 10177 20122 30200 40250 51008 69902 70262 83830 333 10187
AAXX 17121 33562 /1497 81408 10050 20025 39571 49925 57030 78082 8595/ 333 85915 555 69901
AAXX 17121 48921 31320 81404 10125 20110 38580 48079 52001 71044 886// 333 10163 59010
AAXX 17121 48924 31610 20901 10197 20176 39518 40147 52009 71044 82500 333 10245 59027
AAXX 17121 48925 31910 00201 10175 20159 39411 40151 52007 71044 333 10230 59017
AAXX 17121 48926 31420 10402 10212 20159 39676 40140 52003 71044 81100 333 10263 59007
AAXX 17121 48927 31210 80000 10110 20100 39190 48643 52007 75054 878// 333 10114 59019
AAXX 17121 48928 31210 81402 10102 20095 39101 48562 52005 75055 888// 333 10115 59018
AAXX 17121 48930 31940 00901 10205 20151 39819 40170 52012 71044 333 10266 59004
AAXX 17121 48935 31410 30403 10113 20097 38995 48482 52018 71044 82800 333 10158 59007
AAXX 17121 48938 31403 40901 10206 20170 39828 40166 52016 71044 84800 333 10254 58010
AAXX 17121 48940 31920 00901 10239 20163 39944 40141 52017 71044 333 10238 58005
AAXX 17121 48941 31420 10402 10217 20185 3//// 4//// 5//// 71044 81100 333 10278 5////
AAXX 17121 48944 31620 43204 10146 20104 39529 40130 52004 71044 84500 333 10192 58002
AAXX 17121 48945 31440 30901 10208 20143 39984 40166 52009 71044 82800 333 10270 59007
AAXX 17121 48946 31520 21801 10206 20187 39988 40159 52015 71044 82100 333 10269 59006
AAXX 17121 48947 NIL
AAXX 17121 48948 NIL
AAXX 17121 48952 NIL
AAXX 17121 48953 NIL
AAXX 17121 48955 32565 43604 10242 20160 30005 40123 52015 82800 333 10306 59008
AAXX 17121 48957 31530 20203 10258 20154 30006 40114 52023 71044 82101 333 10320 58013
AAXX 17121 48845 02498 82301 10164 20135 30204 40211 52012 69964 888// 333 01016 10169 59016 69922 70006 8289 4 88697
AAXX 17121 48840 32498 80000 10176 20092 30203 40209 52013 888// 333 00017 10195 59014 70000 83894 88696
AAXX 17124 04211 45/84 /0711 11080 21138 39766 49927 57038
AAXX 17124 04220 05984 50811 11033 21070 39819 49870 57040 6///1 333 55300 20004 6///7 85/73
AAXX 17124 04221 45984 71020 11017 21139 39839 49876 57041 333 81/60 87/62
AAXX 17124 04231 45984 70613 11015 21093 39793 49865 57046 333 81/62 85/64 87/67
AAXX 17124 04234 45750 70825 10010 21093 39818 49827 57039 333 87/56 91137 91037
AAXX 17124 04241 47656 80821 11004 21026 39780 49819 57045 75455 333 83/34 85/40 88/50 91131
AAXX 17124 04250 07784 71524 10032 21037 39694 49795 57052 69921 72184 333 55300 20000 69917 83/50 87/58 91139
AAXX 17124 04254 47703 71613 10034 21057 39704 49813 57048 77177 333 87/// 91130 91023
AAXX 17124 04260 47683 71324 10030 21050 39785 49827 57032 70055 333 87/41 91140
AAXX 17124 04270 45683 72403 10014 21063 39891 49929 57047 333 81/42 87/49
AAXX 17124 04272 07438 8//// 11001 21006 39847 49918 57043 60021 77477 333 69977 83/15 88/24
AAXX 17124 04312 46/// ///// 11219 21248 30046 40089 52003
AAXX 17124 04320 45/84 /3014 11186 21277 30048 40064 52009 333 55300
AAXX 17124 04339 45/84 ///// 11127 21231 30007 40101 52009 333 55300 20000
AAXX 17124 04360 06/// /2501 11085 21163 30037 40110 52020 6///1 333 55300 20000 6///7
AAXX 17124 04361 468// 80916 11062 21193 30058 40111 52018 333 88/57 91117 91217 91021
AAXX 17124 04390 07/07 90213 11035 21040 39904 49998 57033 60031 77277 333 60017 89/05 91024 91124
AAXX 17124 40100 11558 61905 10179 20141 30146 40177 56010 60011 70186 86200 912// 333 86823 92427
AAXX 17124 40101 11557 72003 10117 20084 39105 48510 55008 69941 76062 85240 912// 333 85826
AAXX 17124 40103 32560 32804 10192 20107 40172 57013 83200 333 83824
AAXX 17124 40102 NIL
AAXX 17121 48921 31320 81404 10125 20110 38580 48079 52001 71044 886// 333 10163 59010
AAXX 17121 48924 31610 20901 10197 20176 39518 40147 52009 71044 82500 333 10245 59027
AAXX 17121 48925 31910 00201 10175 20159 39411 40151 52007 71044 333 10230 59017
AAXX 17121 48926 31420 10402 10212 20159 39676 40140 52003 71044 81100 333 10263 59007
AAXX 17121 48927 31210 80000 10110 20100 39190 48643 52007 75054 878// 333 10114 59019
AAXX 17121 48928 31210 81402 10102 20095 39101 48562 52005 75055 888// 333 10115 59018
AAXX 17121 48930 31940 00901 10205 20151 39819 40170 52012 71044 333 10266 59004
AAXX 17121 48935 31410 30403 10113 20097 38995 48482 52018 71044 82800 333 10158 59007
AAXX 17121 48938 31403 40901 10206 20170 39828 40166 52016 71044 84800 333 10254 58010
AAXX 17121 48940 31920 00901 10239 20163 39944 40141 52017 71044 333 10238 58005
AAXX 17121 48941 31420 10402 10217 20185 3//// 4//// 5//// 71044 81100 333 10278 5////
AAXX 17121 48944 31620 43204 10146 20104 39529 40130 52004 71044 84500 333 10192 58002
AAXX 17121 48945 31440 30901 10208 20143 39984 40166 52009 71044 82800 333 10270 59007
AAXX 17121 48946 31520 21801 10206 20187 39988 40159 52015 71044 82100 333 10269 59006
AAXX 17121 48947 NIL
AAXX 17121 48948 NIL
AAXX 17121 48952 NIL
AAXX 17121 48953 NIL
AAXX 17121 48955 32565 43604 10242 20160 30005 40123 52015 82800 333 10306 59008
AAXX 17121 48957 31530 20203 10258 20154 30006 40114 52023 71044 82101 333 10320 58013
AAXX 17124 85283 11150 80305 10092 20089 37213 47140 52010 60044 70252 8752/ 333 20078 31008 55000 56109 58014 70037 81703 87608 88457
AAXX 17124 41529 12997 00000 10200 20061 39778 40155 60002 333 10225 59014
AAXX 17124 41598 11996 50000 10205 20068 39869 40139 60002 70511 86070 333 10230 59017
AAXX 17124 41620 32997 02709 10175 21325 38571 48476 333 10180 59028
AAXX 17124 41624 02997 00000 10190 20096 39946 40146 60002 333 10220 59020 60007
AAXX 17124 41640 01996 40000 10200 20074 39899 40146 60002 70511 82031 333 10221 56099 59018 60007 82362 82075
AAXX 17124 41660 12997 12710 10160 21025 38422 48511 60002 80001 333 10195 56009 59026 81072
AAXX 17124 41675 11996 30000 10215 20083 30012 40155 60002 70500 80001 333 10230 56009 59010 83070
AAXX 17124 41712 12997 52302 10210 21071 39190 48517 60002 80011 333 10235 56099 59037 84460 81070
AAXX 17124 41715 01996 03102 10220 20090 30084 40149 60002 70500 333 10245 58010 60007
AAXX 17124 41756 01596 31806 10250 20151 30075 40139 60002 70500 83400 333 10260 56900 58004 60007 83625
AAXX 17124 41764 32996 00000 10240 20020 30093 40142 60002 333 10255 59001 60007
AAXX 17124 41768 02996 03104 10255 20115 30131 40138 60002 333 10313 59008 60007
AAXX 17124 41780 02996 01802 10280 20048 30111 40138 60002 333 10300 59008 60007
AAXX 17121 40716 11658 10000 10080 21013 38901 40186 57021 60001 70520 81100 333 81835
AAXX 17121 40719 11450 69901 10116 20070 30177 40166 56018 60001 70521 84550 333 84611 83359
AAXX 17121 40721 12960 00000 10090 20014 39645 40197 56010 60001 333
AAXX 17121 40858 12960 03502 10210 20145 30147 40157 57015 60001 333
AAXX 17121 40872 12960 01802 10232 20156 30151 40156 56015 60001 222// 00230 20301 333
AAXX 17121 40877 12960 32406 10250 20016 39578 40119 57020 60001 80001 333 83070
AAXX 17121 40898 12962 21302 10242 20145 30132 40141 56021 60001 80005 222// 00246 10900 333 82269
AAXX 17124 41529 12997 00000 10200 20061 39778 40155 60002 333 10225 59014
AAXX 17124 41598 11996 50000 10205 20068 39869 40139 60002 70511 86070 333 10230 59017
AAXX 17124 41620 32997 02709 10175 21325 38571 48476 333 10180 59028
AAXX 17124 41624 02997 00000 10190 20096 39946 40146 60002 333 10220 59020 60007
AAXX 17124 41640 01996 40000 10200 20074 39899 40146 60002 70511 82031 333 10221 56099 59018 60007 82362 82075
AAXX 17124 41660 12997 12710 10160 21025 38422 48511 60002 80001 333 10195 56009 59026 81072
AAXX 17124 41675 11996 30000 10215 20083 30012 40155 60002 70500 80001 333 10230 56009 59010 83070
AAXX 17124 41712 12997 52302 10210 21071 39190 48517 60002 80011 333 10235 56099 59037 84460 81070
AAXX 17124 41715 01996 03102 10220 20090 30084 40149 60002 70500 333 10245 58010 60007
AAXX 17124 41756 01596 31806 10250 20151 30075 40139 60002 70500 83400 333 10260 56900 58004 60007 83625
AAXX 17124 41764 32996 00000 10240 20020 30093 40142 60002 333 10255 59001 60007
AAXX 17124 41768 02996 03104 10255 20115 30131 40138 60002 333 10313 59008 60007
AAXX 17124 41780 02996 01802 10280 20048 30111 40138 60002 333 10300 59008 60007
AAXX 17121 08501 32/// /2205 10198 20124 30256 40292 52015 333 91014 91114
AAXX 17121 08505 32970 72502 10175 20151 30276 40326 52011 80002 333 87070
AAXX 17121 08509 32560 62405 10180 20142 30256 40321 52012 81105 333 81816 86068 91110
AAXX 17121 08512 32580 62503 10181 20143 30247 40332 52008 82802 333 81820 86070 91105
AAXX 17121 08515 32589 72402 10186 20126 30220 40343 52008 878// 222// 00180 333 81820 87640 910// 911//
AAXX 17121 08533 32/// /0102 10155 20090 30270 40300 54000 333 91007 91109
AAXX 17121 08541 32/// /3403 10135 20065 30178 40298 57004 333 91005 91106
AAXX 17121 08545 31562 79901 10122 20045 30211 40296 54000 70322 85832 222// 00146 333 82825 83635 85356
AAXX 17121 08548 32/// /2801 10100 20060 30088 40297 57003
AAXX 17121 08554 32665 23404 10153 20041 30285 40295 57003 81501 333 81642 91007 91109
AAXX 17121 08558 32/// /3406 10120 20052 39991 40288 57002 333 91009 91109
AAXX 17121 08560 32/// /9902 10068 20024 39521 40293 52003 333 91105
AAXX 17121 08567 32/// /9901 10081 20022 39613 40287 54000
AAXX 17121 08570 32/// /3303 10110 20030 39820 40283 57003 333 91006 91106
AAXX 17121 08575 32/// /3306 10075 21006 39451 40272 52001 333 91010 91112
AAXX 17121 08579 32/// /9901 10137 20069 30169 40295 57005
AAXX 17124 61017 32960 51404 10234 21003 39756 40174 80002 333 0//00 59016 85080
AAXX 17124 61024 32960 31214 10258 21072 39588 40158 80002 333 0//00 59012 83080
AAXX 17124 61036 32962 70810 10286 20007 39900 40139 80008 333 0//00 59006 87280
AAXX 17124 61043 32960 70812 10267 21080 39694 40137 80008 333 0//00 59011 87280
AAXX 17124 61045 31909 70804 10245 21045 39641 40142 70644 80008 333 0//00 59015 87280
AAXX 17124 61049 32960 70804 10258 20018 39808 40128 80008 333 0//00 59011 87280
AAXX 17124 61052 31950 50808 10280 21052 39884 40141 70622 80002 333 0//00 59003 85080
AAXX 17124 61075 31958 61004 10275 21024 39828 40138 70622 80008 333 0//00 59005 86280
AAXX 17124 61080 31940 71006 10261 21019 39721 40144 70622 80008 333 0//00 59018 87280
AAXX 17124 61090 31928 70606 10252 21051 39628 40141 70622 80008 333 0//00 59015 87280
AAXX 17124 61091 31940 70806 10264 20075 39697 40155 70622 80008 333 0//00 59011 87280
AAXX 17124 61096 31957 70606 10260 21034 39759 40143 70542 80008 333 0//00 59007 87280
AAXX 17124 61099 31956 70604 10290 20032 39890 40118 70622 80008 333 0//00 59009 87280
AAXX 17121 40703 11650 62405 10028 21032 38925 40236 57013 60001 70511 83570 333 83640 85359
AAXX 17121 40712 11506 81302 11002 21024 38681 40241 57017 60001 71142 8262/ 333 82725 81930 83635 88458
AAXX 17121 40729 12562 32303 10078 21038 38328 40181 56009 60001 83201 333 82830
AAXX 17121 40736 12960 00000 10116 20070 30201 40175 55008 60001 333
AAXX 17121 40739 12665 12103 10082 21058 38678 40184 55010 60001 81100 333 81835
AAXX 17121 40743 12662 62502 10092 21062 39065 40194 56006 60001 83472 333 83635
AAXX 17121 40762 12665 12502 10086 21049 38540 40182 56011 60001 81500 333 81640
AAXX 17121 40768 12660 12404 10091 21065 38253 40188 55010 60001 81100 333 81840
AAXX 17121 40769 12660 10000 10100 21044 38292 40174 56011 60001 81100 333
AAXX 17121 40785 12960 00000 10144 21037 39078 40178 57017 60001 333
AAXX 17121 40809 12662 23005 10115 21082 38490 40160 55006 60001 81431 333 81635
AAXX 17121 40821 12965 00000 10146 21052 38790 40184 56015 60001 333
AAXX 17121 40831 12960 63503 10218 20007 30163 40171 57020 60001 86070 333 86460
AAXX 17124 41515 02697 21314 10098 21196 38558 48521 60002 82500 333 10120 56900 59013 60007 82650
AAXX 17124 41560 22997 01803 10040 21037 38252 48484 60002 333 10060 59002 60007
AAXX 17124 41571 11995 12304 10170 20024 39562 40146 60002 70500 80001 333 10225 56009 59020
AAXX 17124 41594 31996 42304 10210 20015 39937 40143 70522 81001 333 10235 56009 59017
AAXX 17124 41685 32997 22302 10175 21019 38909 48498 82030 333 10190 56090 59014 82362
AAXX 17124 41710 02997 31302 10200 21139 39348 40109 60002 80001 333 10205 56009 59033 60007 83070
AAXX 17124 41718 12996 00000 10225 20043 30044 40147 60002 333 10245 59011
AAXX 17124 41739 02997 02304 10215 21013 39044 48511 60002 333 10230 59006 60007
AAXX 17124 41744 32996 02704 10200 21025 38778 48507 333 10215 59002
AAXX 17124 41749 01996 00000 10230 20079 30117 40150 60002 70400 333 10250 58003 60007
AAXX 17124 41515 02697 21314 10098 21196 38558 48521 60002 82500 333 10120 56900 59013 60007 82650
AAXX 17124 41560 22997 01803 10040 21037 38252 48484 60002 333 10060 59002 60007
AAXX 17124 41571 11995 12304 10170 20024 39562 40146 60002 70500 80001 333 10225 56009 59020
AAXX 17124 41594 31996 42304 10210 20015 39937 40143 70522 81001 333 10235 56009 59017
AAXX 17124 41685 32997 22302 10175 21019 38909 48498 82030 333 10190 56090 59014 82362
AAXX 17124 41710 02997 31302 10200 21139 39348 40109 60002 80001 333 10205 56009 59033 60007 83070
AAXX 17124 41718 12996 00000 10225 20043 30044 40147 60002 333 10245 59011
AAXX 17124 41739 02997 02304 10215 21013 39044 48511 60002 333 10230 59006 60007
AAXX 17124 41744 32996 02704 10200 21025 38778 48507 333 10215 59002
AAXX 17124 41749 01996 00000 10230 20079 30117 40150 60002 70400 333 10250 58003 60007
BBXX 41037 17121 99340 70775 46/// /0407 10123 40192 51011 91200 22200 00170 333 91208
AAXX 17124 41506 02997 00000 10120 21009 48511 60002 333 10164 59015 60007
AAXX 17124 41508 22997 01802 10122 21123 48530 60002 333 10160 59015 60007
AAXX 17124 41523 12997 00000 10150 21010 48530 60002 333 10175 59010 60007
AAXX 17124 41535 12997 00000 10115 20014 48484 333 10165 59006
AAXX 17124 41536 02997 00000 10120 20014 48501 60002 333 10201 59013 60007
AAXX 17124 41573 12997 00000 10090 20001 48499 60002 333 10148 59008
AAXX 17124 41600 01695 60000 10185 20052 39852 40148 60002 70400 82530 333 10202 59006
AAXX 17124 41630 11996 22702 10205 20054 40160 60002 70510 80001 333 10235 56009 59014 82070
AAXX 17124 41678 12697 10000 10225 20084 40160 60002 81500 333 10230 56900 59016 81040
AAXX 17124 41696 02997 02302 10130 21159 38002 48505 60002 333 10160 59018 60007
AAXX 17124 41697 02997 00000 10228 20136 39992 40147 60002 333 10250 59006 60007
AAXX 17124 41700 11996 00000 10215 20095 30019 40146 60002 70500 333 10240 59008
AAXX 17124 41725 02996 01302 10235 20028 30071 40149 60002 333 10250 59002 60007
AAXX 17124 41746 02996 00000 10220 20113 30109 40163 60002 333 10235 59012 60007
AAXX 17124 41759 12696 20904 10255 20157 30150 40156 60002 82500 333 10265 56900 58002 82630
AAXX 17124 41785 02997 00000 10250 20084 30125 40138 60002 333 10255 58001 60007
AAXX 17121 30372 32999 23101 11276 21293 39333 40294 52007 81041 333 11159
AAXX 17121 30433 32699 62103 11077 21149 39704 40318 57002 82531 333 11058
AAXX 17121 30554 329// 02002 11131 21202 39152 40291 52001 333 11070
AAXX 17121 30635 328// 81801 11080 21107 39765 40358 57003 8807/ 333 11041
AAXX 17121 30673 32999 20000 11259 21260 39445 40291 52015 80008 333 11177
AAXX 17121 30692 32999 02302 11244 21262 39702 40242 53/// 333 11154
AAXX 17121 30758 32984 72802 11120 21182 39462 40319 53003 82031 333 11090
AAXX 17121 30802 32999 20000 11257 21275 38804 48554 53010 80001 333 11152
AAXX 17121 30823 32999 32701 11234 21266 39749 40456 57002 81031 333 11183
AAXX 17121 30879 32999 00000 11231 21250 39461 40289 52006 333 11194
AAXX 17121 30935 12999 20000 11244 21269 39439 40482 54000 69902 80002 333 11150
AAXX 17121 30949 32999 03202 11156 21198 39220 40387 53002 333 11102
AAXX 17121 30965 329// 02301 11198 21217 39438 40330 53003 333 11125
AAXX 17121 31168 32999 03204 11152 21245 30086 40098 52005 333 11151
AAXX 17121 31300 31982 00000 11240 21254 39885 40201 51004 74000 333 11148
AAXX 17121 31329 32999 00000 11350 21380 39487 40249 52007 333 11293
AAXX 17121 31369 31996 82805 11181 21200 30012 40103 52010 77173 8802/ 333 11171 91010 91111
AAXX 17121 31416 32999 80601 11283 21294 30057 40156 52007 80007 333 11223
AAXX 17121 31484 32999 02901 11234 21266 39788 40153 52006 333 11159
AAXX 17121 31512 329// 32701 11195 21236 30029 40209 51003 83010 333 11122
AAXX 17121 31538 /2998 02401 11218 21230 39730 40199 52006 69900 333 11191
AAXX 17121 31707 32998 80000 11165 21199 30110 40208 52005 80001 333 11116
AAXX 17121 31735 41997 72405 11178 21215 30070 40165 58002 70272 83031 333 11158
AAXX 17121 31770 32969 83204 11148 21229 30089 40121 52002 80001 333 11129
AAXX 17124 40394 32960 31702 10184 21060 39042 48511 80006 333 58018 83270 555 04410 50183
BBXX 44067 17121 99384 70770 46/// /0604 10044 40227 51015 91200
BBXX 44032 17121 99437 70694 46/30 /0304 10030 40159 52009 91204 22200 00087 11102 70009 333 91205 555 11048 22049
AAXX 17121 28676 429// 00000 11277 21306 30333 40478 52016 555 1/128
AAXX 17121 28766 419// 82901 11238 21249 30254 40468 52014 77171 8802/ 555 1/125
AAXX 17121 28867 42998 00000 11243 21275 30163 40468 52011 555 1/125
AAXX 17121 28879 419// 30501 11269 21293 30146 40474 52016 70371 83080 555 1/128
AAXX 17121 28952 41996 21101 11220 21245 30252 40465 52010 71011 82030 555 1/123
AAXX 17121 28966 429// 00000 11249 21286 30138 40458 53004 555 1/128
AAXX 17121 29802 419// 00303 11267 21291 30285 40448 52017 70230 555 1/129
AAXX 17121 29807 429// 00701 11266 21293 30323 40457 52017 555 1/130
AAXX 17121 34691 42998 21108 11055 21116 30293 40280 57006 82030 555 1/105
AAXX 17121 35067 429// 03101 11266 21306 30152 40466 53007 555 1/126
AAXX 17121 35078 42997 00402 11243 21270 30032 40458 52016 555 1/126
AAXX 17121 35085 429// 23503 11264 21287 39912 40450 52013 80001 555 1/128
AAXX 17121 35108 42997 01303 11113 21155 30321 40370 54000
AAXX 17121 35188 419// 03603 11248 21277 39952 40439 52011 70471 555 1/127
AAXX 17121 35217 42998 01004 11132 21159 30326 40368 52001 555 1/113
AAXX 17121 35229 42998 20000 11173 21205 30120 40419 53003 80001 555 1/121
AAXX 17121 35302 42998 01505 11121 21165 30328 40349 54000 555 1/114
AAXX 17121 35357 42997 03402 11236 21261 39936 40422 53001 555 1/125
AAXX 17121 35394 41998 63102 11236 21262 39663 40415 53007 72273 86010 555 1/127
AAXX 17121 35406 42997 01103 11105 21149 30342 40344 58001 555 1/111
AAXX 17121 35416 42997 00901 11123 21168 30251 40380 57003 555 1/113
AAXX 17121 35426 42999 00502 11149 21183 30090 40405 53001 555 1/118
AAXX 17121 35497 419// 80000 11204 21240 39531 40404 57001 77171 8801/ 555 1/121
AAXX 17121 35532 42998 01107 11154 21214 39870 40400 57001 555 1/116
AAXX 17121 35671 42998 00000 11227 21259 39946 40424 57002 555 1/125
AAXX 17121 35700 41998 61106 11084 21121 30333 40308 58003 70232 83075 555 1/110
AAXX 17121 35746 41996 30106 11145 21172 30317 40390 57007 71000 80001 555 1/113
AAXX 17121 35796 42997 20702 11238 21266 39923 40407 57010 80001 555 1/129
AAXX 17121 35849 42998 00502 11130 21165 30278 40371 57010 555 1/113
AAXX 17121 35925 NIL
AAXX 17121 35953 42999 00404 11110 21138 30229 40367 57007 555 1/114
AAXX 17121 35969 42999 00504 11106 21132 30197 40382 53004 555 1/111
AAXX 17121 36003 41998 20000 11268 21287 30256 40428 52019 70171 80001 555 1/130
AAXX 17121 36152 419// 80000 11195 21231 30202 40408 53011 77177 8802/ 555 1/119
AAXX 17121 36177 429// 50000 11196 21215 30139 40409 53004 80001 555 1/122
AAXX 17121 36208 429// 50601 11162 21190 39352 40402 53002 85030 555 1/120
AAXX 17121 36397 426// 61602 11136 21171 39788 40386 53002 85501 555 1/114
AAXX 17121 36428 429// 20000 11207 21226 39869 40416 53003 80001 333 95090 555 1/125
AAXX 17121 36535 429// 80000 11172 21206 39735 40418 54000 70272 885// 555 1/120
AAXX 17121 36639 429// 30000 11120 21151 39731 40370 57001 83080 333 1/113
AAXX 17121 36821 428// 60101 11117 21134 39849 40368 54000 83032
AAXX 17121 36859 425// 70000 11070 21086 39527 40339 57026 83505 555 1/115
AAXX 17121 36864 41496 81402 11072 21089 39409 40339 57005 71072 886//
AAXX 17121 36870 413// 80000 11060 21075 39275 40324 57004 71022 886// 555 1/106
AAXX 17121 38001 NIL
AAXX 17121 38062 42999 00405 11078 21123 30173 40344 57008 555 1/110
AAXX 17121 38069 42998 00101 11040 21094 30116 40313 57010
AAXX 17121 38196 42998 00503 11050 21181 39295 40309 56004
AAXX 17121 38198 42997 10000 11080 21116 30033 40306 57014 80001 555 1/113
AAXX 17121 38222 42697 40000 11125 21168 39772 40370 53003 84500 555 1/116
AAXX 17121 38232 NIL
AAXX 17121 38328 42999 01301 11023 21069 39527 40274 57010 555 1/111
AAXX 17121 38334 42998 00804 11088 21148 39293 40303 53008 555 1/112
AAXX 17121 38341 41996 80000 11114 21142 39521 40358 57006 77077 8802/ 555 1/108
AAXX 17121 38343 41696 80000 11090 21106 39462 40350 57004 71042 886//
AAXX 17121 38439 42997 63603 11010 21056 39930 40277 57006 82071 555 12100
AAXX 17124 NIL
AAXX 17124 NIL
AAXX 17124 83437 NIL
AAXX 17124 83550 31597 8//// 10260 20227 30101 40131 70222 8221/ 333 20225 58015
AAXX 17124 83552 NIL
AAXX 17124 83565 NIL
AAXX 17124 83579 NIL
AAXX 17124 83592 NIL
AAXX 17124 83623 NIL
AAXX 17124 83630 NIL
AAXX 17124 83676 NIL
AAXX 17124 83698 32998 83603 10268 20226 30108 40122 51012 8802/ 333 20240
AAXX 17124 83702 NIL
AAXX 17124 83704 NIL
AAXX 17124 83716 NIL
AAXX 17124 83726 NIL
AAXX 17124 83738 21698 60000 10240 20209 39600 40092 52001 70260 86400 333 20200 60064
AAXX 17124 NIL
AAXX 17124 87022 01960 62706 10210 20188 39615 40122 58001 60394 70262 86070 333 10222 20170 56090 60051 86360
AAXX 17124 87046 12565 60000 10204 20142 39132 48515 52009 60044 83570 333 10204 20155 56090 83620 85360
AAXX 17124 87047 12465 70902 10166 20146 38816 48530 51005 60234 82130 333 10166 20147 32/// 56860 82810 87360
AAXX 17124 87097 32970 02306 10241 20174 39806 40113 50012 333 10241 20170
AAXX 17124 87121 12965 02303 10234 20175 39622 40127 52008 60034 333 10234 20186
AAXX 17124 87129 32965 21403 10240 20162 39910 40138 52012 82034 333 10245 20174 81360 81070
AAXX 17124 87155 31960 21802 10230 20165 30062 40123 52020 70400 80005 333 10230 20145 56005 82270
AAXX 17124 87162 32970 32006 10260 20152 30049 40117 52016 80008 333 10260 20174 56007 83270
AAXX 17124 87166 32960 11604 10243 20166 30048 40120 52021 80005 333 10243 20172 56006 81270
AAXX 17124 87178 32670 52303 10235 20169 39961 40105 52015 81506 333 10240 20178 56606 81635 84270
AAXX 17124 87217 32770 41804 10226 20189 39641 40125 5//// 84160 333 10224 20174 56650 81856 83360
AAXX 17124 87222 NIL
AAXX 17124 87257 32965 02005 10244 20126 30029 40130 52015 333 10244 20176
AAXX 17124 87270 32965 12302 10234 20168 30058 40120 52013 80005 333 10234 20160 30013 56006 81270
AAXX 17124 87289 32462 62312 10212 20166 30021 40102 52012 86401 333 10232 20166 56406 86618
AAXX 17124 87311 32965 00903 10248 20105 39462 40124 52015 333 10264 20165
AAXX 17124 87320 12975 10000 10231 20157 39617 40135 53004 69914 81080 333 10259 20160 56010 81360
AAXX 17124 87328 31970 01402 10242 20124 39492 40127 50003 70500 333 10249 20153 30000 95000
AAXX 17124 NIL
AAXX 17124 NIL
AAXX 17124 83384 NIL
AAXX 17124 83386 NIL
AAXX 17124 83388 NIL
AAXX 17124 83393 NIL
AAXX 17124 83442 NIL
AAXX 17124 83479 NIL
AAXX 17124 83483 NIL
AAXX 17124 83531 NIL
AAXX 17124 83538 NIL
AAXX 17124 83574 NIL
AAXX 17124 83582 NIL
AAXX 17124 83595 NIL
AAXX 17124 83687 NIL
AAXX 17124 83692 NIL
AAXX 17124 83695 22696 80000 10246 20228 39989 40124 54000 885// 333 20234 60024
AAXX 17124 83718 21595 60000 10246 20211 39558 40117 51012 71044 86800 333 20198 60044
AAXX 17124 NIL
AAXX 17124 82143 NIL
AAXX 17124 82599 21570 41213 10289 20217 30072 40132 70161 84200 333 20231 59003 60024
AAXX 17124 82824 NIL
AAXX 17124 82899 32570 41308 10286 20194 30136 40148 84200 333 20263 59005
AAXX 17124 83117 NIL
AAXX 17124 83248 32470 30813 10289 20228 30130 40152 83200 333 20258 59009
AAXX 17124 83746 21960 00210 10303 20224 40096 51007 70500 333 20226 60034
AAXX 17124 82022 32970 40710 10272 20216 30021 40117 84060 333 20249 59009
AAXX 17124 82193 32570 30709 10290 20230 30103 40121 83100 333 20237 58009
AAXX 17124 82281 32570 40713 10294 20185 30054 40116 84100 333 20254 58003
AAXX 17124 82332 22470 61003 10264 20241 30021 40114 82231 333 20245 59016 60104
AAXX 17124 82398 32470 41117 10286 20212 30099 40128 84100 333 20255 59001
AAXX 17124 82400 32470 11112 10277 20224 30071 40136 81100 333 20252 58000
AAXX 17124 82579 32970 01601 10298 20226 30041 40117 333 20242 58004
AAXX 17124 82917 21257 70000 10274 20261 39881 40101 71022 86230 333 20257 59001 60304
AAXX 17124 82965 22470 70302 10240 20223 39797 40127 8357/ 333 20223 58013 60234
AAXX 17124 82993 32570 30912 10285 20193 30013 40149 83100 333 20205 59008
AAXX 17124 83208 21116 73104 10206 20206 39439 48550 7616/ 885// 333 20215 59024 60094
AAXX 17124 83349 21558 30406 10290 20241 30145 40151 71511 83200 333 20263 58008 60034
AAXX 17124 83362 32970 00110 10271 20210 39896 40109 333 20230 58018
AAXX 17124 83378 21470 73411 10214 20175 38970 48530 70252 85530 333 20192 58014 60034
AAXX 17124 83460 32570 30414 10272 20207 30091 40147 83200 333 20224 58012
AAXX 17124 83497 NIL
AAXX 17124 83566 21240 80604 10184 20177 39219 48530 76062 86770 333 20173 58019 60134
AAXX 17124 83599 NIL
AAXX 17124 83612 32970 01705 10267 20126 39488 48530 52022 333 20173
AAXX 17124 83649 31570 70208 10262 20224 30136 40141 51011 70162 84530 333 20237
AAXX 17124 83650 NIL
AAXX 17124 83780 32970 33306 10252 20137 39216 48520 50009 83030 333 20021
AAXX 17124 83827 32970 02103 10242 20172 39834 40109 51012 333 20152
AAXX 17124 83840 32970 22711 10232 20114 39093 48500 51010 80004 333 20146
AAXX 17124 83899 32970 03207 10279 20179 30068 40074 50004 333 20200
AAXX 17124 83925 NIL
AAXX 17124 83970 NIL
AAXX 17124 83971 22570 13012 10244 20179 30071 40075 52011 81500 333 20183 60044
AAXX 17124 70133 11840 81028 11089 21111 39926 49933 56008 69901 738// 91153 333 21117 4/124 70013 96010 555 91712
AAXX 17124 70174 32966 23603 11206 21233 39792 40047 51004 91153 333 21233 4/071 70020 555 91712
AAXX 17124 70200 11461 80712 11039 21056 39863 49869 58000 69931 771// 91153 333 21083 70013 91020 555 91712
AAXX 17124 70219 12366 81722 11017 21028 39807 49863 51029 69951 91153 333 21017 4/003 70005 91028 555 91712
AAXX 17124 70231 11656 80000 11117 21133 39831 49961 51014 69901 771// 91153 333 21189 4/099 96010 555 91712
AAXX 17124 70261 32966 21903 11222 21239 39821 40002 51004 91153 333 21228 555 91712
AAXX 17124 70267 35966 01310 11089 21133 39527 40016 51009 91153 333 21094 555 91712
AAXX 17124 70271 35966 03603 11144 21156 39447 40055 51006 91153 333 21156 555 91712
AAXX 17124 70273 32766 62706 11033 21056 39929 49989 52006 91153 333 21056 4/046 555 91712
AAXX 17124 70316 11458 81533 10039 20028 39749 49785 58049 60121 710// 91153 333 20000 70142 91044 555 91712
AAXX 17124 70326 12766 61308 10000 21011 39913 49925 50005 69951 91154 333 20000 4/008 70005 555 91712
AAXX 17124 70340 15566 83003 10022 20006 39891 49951 51011 60011 91153 333 20022 70010 555 91712
AAXX 17124 70350 32566 40000 10011 21006 39939 49980 51017 91153 333 20000 70048 555 91712
AAXX 17124 70361 11259 81103 10006 20000 30084 40096 51005 60051 761// 91153 333 20000 96010 555 91712
AAXX 17124 70381 31008 90000 11039 21039 30119 40130 50002 741// 91153 333 21039 70008 555 91712
AAXX 17124 70414 35866 80110 10000 21044 39839 49875 50000 91156 333 21006 555 91712
AAXX 17123 87007 01567 20000 10091 20035 36742 47147 52012 60034 70361 82800 333 10107 20055 56500 60021 81823
AAXX 17123 87148 32970 41805 10246 20153 30017 40124 52017 84070 333 10266 20154 56000 84360
AAXX 17124 NIL
AAXX 17124 NIL
AAXX 17124 78526 12566 40000 10239 20183 30146 40167 53013 69901 91156 333 10283 20222 555 91712
AAXX 17124 78543 12566 60604 10244 20189 30082 40163 51013 69931 91153 333 10278 20217 70003 555 91712
AAXX 17121 22028 42598 71904 11046 21055 39981 40020 52004 81542 333 91006 91113
AAXX 17121 22106 42598 80000 11051 21058 39927 40007 51004 8555/ 333 91001
AAXX 17121 22127 41496 81403 10000 21003 39816 40016 52004 71011 8697/ 333 84913 91005
AAXX 17121 22324 42584 80601 10005 20002 39969 40019 52004 889// 333 91002
AAXX 17121 22621 41398 81801 10001 21001 39865 40004 52010 70272 886// 333 88707 93701
AAXX 17121 22831 41498 81502 10024 20014 39976 40035 52017 70282 889//
AAXX 17121 22892 41396 80802 10003 21005 39941 49957 58012 77172 8802/ 333 88507
AAXX 17121 26275 41298 81405 10048 20026 39938 49968 58003 70262 8772/
AAXX 17121 26389 41459 81503 10030 20017 39737 49998 58006 71022 886//
AAXX 17121 26499 41397 81507 10033 20020 39817 40044 54000 76062 8872/ 333 87708 91113
AAXX 17121 26695 41296 81506 10032 20024 39743 40048 52004 71065 886// 333 88706
AAXX 17121 26882 41458 71506 10037 20030 39742 40014 58001 71052 87500 333 87612 91113
AAXX 17121 26997 41443 81605 10037 20030 39819 40036 58006 75152 886// 333 88710
AAXX 17121 27595 32998 81603 11119 21154 30179 40338 52002 80007
AAXX 17121 27612 41496 81704 10018 21001 39914 40107 52005 71022 887// 333 91114
AAXX 17121 27707 41446 71605 10014 20009 39771 40064 53003 72582 87900 333 85917
AAXX 17121 27719 42597 81507 10011 21009 39873 40124 53005 885// 333 91013 91114
AAXX 17121 27786 42997 71703 11119 21146 30155 40328 55000 80004
AAXX 17121 27857 42498 81406 11076 21090 30057 40228 58011 886// 333 88714
AAXX 17121 27906 42597 81110 10017 21005 39844 40086 58001 883// 333 91015 91115
AAXX 17121 27928 41496 81704 10000 21003 39932 40142 58006 71022 886//
AAXX 17121 27947 42497 71406 11048 21072 30040 40205 57009 875// 333 87610
AAXX 17121 27962 42997 61404 11118 21162 30047 40283 56002 80001
AAXX 17121 27983 41998 21204 11131 21158 30202 40341 57008 70271 80001
AAXX 17121 27995 41998 21103 11119 21163 40353 57004 77870 80001
AAXX 17121 28506 42997 21502 11071 21129 30246 40366 52005 80001
AAXX 17121 28704 42998 81504 11114 21149 30257 40361 58004 80001
AAXX 17121 28711 NIL
AAXX 17121 28807 41997 11002 11123 21175 30311 40366 57007 70271 81020
AAXX 17121 34009 42597 81506 10012 21008 39785 40091 57005 885//
AAXX 17121 34110 42598 81605 10006 21008 39833 40113 57007 886// 333 88722
AAXX 17121 34123 41459 81408 11005 21005 39970 40157 57001 72752 886// 333 88710
AAXX 17121 34152 42497 81204 11078 21087 30030 40237 57009 886// 333 88712
AAXX 17121 34163 41998 20806 11148 21161 40288 58004 70288 82030 333 93506
AAXX 17121 34171 41270 51206 11147 21171 30094 40303 55001 70272 84601 333 84706 93614
AAXX 17121 34186 42998 21305 11149 21169 30176 40326 58004 80001
AAXX 17121 34247 41258 81305 11023 21032 30073 40190 58014 71022 885// 333 85706
AAXX 17121 34336 42498 81205 11011 21017 30074 40180 58010 8572/
AAXX 17121 34391 42997 01104 11111 21155 30281 40314 57003
AAXX 17121 35011 42999 01002 11105 21149 30229 40394 53003
AAXX 17121 35121 42998 01004 11166 21195 30251 40412 53004
AAXX 17121 28676 429// 00000 11277 21306 30333 40478 52016 555 1/128
AAXX 17121 28766 419// 82901 11238 21249 30254 40468 52014 77171 8802/ 555 1/125
AAXX 17121 28867 42998 00000 11243 21275 30163 40468 52011 555 1/125
AAXX 17121 28879 419// 30501 11269 21293 30146 40474 52016 70371 83080 555 1/128
AAXX 17121 28952 41996 21101 11220 21245 30252 40465 52010 71011 82030 555 1/123
AAXX 17121 28966 429// 00000 11249 21286 30138 40458 53004 555 1/128
AAXX 17121 29802 419// 00303 11267 21291 30285 40448 52017 70230 555 1/129
AAXX 17121 29807 429// 00701 11266 21293 30323 40457 52017 555 1/130
AAXX 17121 34691 42998 21108 11055 21116 30293 40280 57006 82030 555 1/105
AAXX 17121 35067 429// 03101 11266 21306 30152 40466 53007 555 1/126
AAXX 17121 35078 42997 00402 11243 21270 30032 40458 52016 555 1/126
AAXX 17121 35085 429// 23503 11264 21287 39912 40450 52013 80001 555 1/128
AAXX 17121 35108 42997 01303 11113 21155 30321 40370 54000
AAXX 17121 35188 419// 03603 11248 21277 39952 40439 52011 70471 555 1/127
AAXX 17121 35217 42998 01004 11132 21159 30326 40368 52001 555 1/113
AAXX 17121 35229 42998 20000 11173 21205 30120 40419 53003 80001 555 1/121
AAXX 17121 35302 42998 01505 11121 21165 30328 40349 54000 555 1/114
AAXX 17121 35357 42997 03402 11236 21261 39936 40422 53001 555 1/125
AAXX 17121 35394 41998 63102 11236 21262 39663 40415 53007 72273 86010 555 1/127
AAXX 17121 35406 42997 01103 11105 21149 30342 40344 58001 555 1/111
AAXX 17121 35416 42997 00901 11123 21168 30251 40380 57003 555 1/113
AAXX 17121 35426 42999 00502 11149 21183 30090 40405 53001 555 1/118
AAXX 17121 35497 419// 80000 11204 21240 39531 40404 57001 77171 8801/ 555 1/121
AAXX 17121 35532 42998 01107 11154 21214 39870 40400 57001 555 1/116
AAXX 17121 35671 42998 00000 11227 21259 39946 40424 57002 555 1/125
AAXX 17121 35700 41998 61106 11084 21121 30333 40308 58003 70232 83075 555 1/110
AAXX 17121 35746 41996 30106 11145 21172 30317 40390 57007 71000 80001 555 1/113
AAXX 17121 35796 42997 20702 11238 21266 39923 40407 57010 80001 555 1/129
AAXX 17121 35849 42998 00502 11130 21165 30278 40371 57010 555 1/113
AAXX 17121 35925 NIL
AAXX 17121 35953 42999 00404 11110 21138 30229 40367 57007 555 1/114
AAXX 17121 35969 42999 00504 11106 21132 30197 40382 53004 555 1/111
AAXX 17121 36003 41998 20000 11268 21287 30256 40428 52019 70171 80001 555 1/130
AAXX 17121 36152 419// 80000 11195 21231 30202 40408 53011 77177 8802/ 555 1/119
AAXX 17121 36177 429// 50000 11196 21215 30139 40409 53004 80001 555 1/122
AAXX 17121 36208 429// 50601 11162 21190 39352 40402 53002 85030 555 1/120
AAXX 17121 36397 426// 61602 11136 21171 39788 40386 53002 85501 555 1/114
AAXX 17121 36428 429// 20000 11207 21226 39869 40416 53003 80001 333 95090 555 1/125
AAXX 17121 36535 429// 80000 11172 21206 39735 40418 54000 70272 885// 555 1/120
AAXX 17121 36639 429// 30000 11120 21151 39731 40370 57001 83080 333 1/113
AAXX 17121 36821 428// 60101 11117 21134 39849 40368 54000 83032
AAXX 17121 36859 425// 70000 11070 21086 39527 40339 57026 83505 555 1/115
AAXX 17121 36864 41496 81402 11072 21089 39409 40339 57005 71072 886//
AAXX 17121 36870 413// 80000 11060 21075 39275 40324 57004 71022 886// 555 1/106
AAXX 17121 38001 NIL
AAXX 17121 38062 42999 00405 11078 21123 30173 40344 57008 555 1/110
AAXX 17121 38069 42998 00101 11040 21094 30116 40313 57010
AAXX 17121 38196 42998 00503 11050 21181 39295 40309 56004
AAXX 17121 38198 42997 10000 11080 21116 30033 40306 57014 80001 555 1/113
AAXX 17121 38222 42697 40000 11125 21168 39772 40370 53003 84500 555 1/116
AAXX 17121 38232 NIL
AAXX 17121 38328 42999 01301 11023 21069 39527 40274 57010 555 1/111
AAXX 17121 38334 42998 00804 11088 21148 39293 40303 53008 555 1/112
AAXX 17121 38341 41996 80000 11114 21142 39521 40358 57006 77077 8802/ 555 1/108
AAXX 17121 38343 41696 80000 11090 21106 39462 40350 57004 71042 886//
AAXX 17121 38439 42997 63603 11010 21056 39930 40277 57006 82071 555 12100
AAXX 17121 38598 42697 80912 10030 21015 40275 57015 86531 333 91016
AAXX 17121 38599 41937 80706 10019 21031 39736 40263 57010 71011 82032
AAXX 17121 38725 NIL
AAXX 17121 38734 42699 61404 11027 21120 37455 47070 57015 82503
AAXX 17121 38744 42999 80000 11078 21123 38034 48560 57009 80007
AAXX 17121 38836 42999 30000 10063 21061 39242 40180 56008 80001
AAXX 17121 38838 41998 22302 10062 20017 39518 40190 57012 70241 80002
AAXX 17121 38844 42999 30903 10007 21070 48500 53001 82032
AAXX 17121 38846 42999 62102 10061 21014 38525 48500 57008 83033
AAXX 17121 38847 NIL
AAXX 17121 38932 NIL
AAXX 17121 38933 41996 70000 10016 21039 39698 40224 57020 71022 82032
AAXX 17121 38944 42997 51602 10035 20012 39584 40125 57023 83031
AAXX 17121 38954 NIL
AAXX 17121 20107 41597 50707 11015 21071 39885 49979 52002 73632 82530 333 91010 91111
AAXX 17121 22113 41230 82103 11040 21049 39948 40012 52005 71011 886// 333 88703 91005
AAXX 17121 22217 41397 81702 10005 20005 39986 40018 52008 72682 889// 333 86706 91004
AAXX 17121 22235 41378 81101 11004 21007 39829 40024 54000 70242 885// 333 86708 91002
AAXX 17121 22349 41498 81504 10009 21002 30009 40021 54000 72682 889// 333 91005
AAXX 17121 22408 41380 80901 10002 21001 39858 40007 52009 70272 886// 333 88708
AAXX 17121 22602 42476 80301 11005 21020 39768 49992 52002 885// 333 88614
AAXX 17121 22619 42382 82001 10002 21001 39840 40000 52012 886// 333 88708
AAXX 17121 22721 41399 81501 10005 20005 39909 40009 52015 70275 886// 333 88707 93700
AAXX 17121 22802 41459 81202 10010 20007 39965 49988 58001 71052 886//
AAXX 17121 22820 41480 80901 10006 20003 39876 40014 52013 70272 885//
AAXX 17121 26059 41497 81203 10015 20007 39904 49929 58018 76176 8872/ 333 86712
AAXX 17121 26063 41397 81203 10026 20018 39951 49959 58012 77176 885//
AAXX 17121 26094 41470 81303 10030 20020 39928 40003 54000 70265 885// 333 88616
AAXX 17121 26157 41447 81105 10015 20010 39859 49909 57020 78082 889// 333 86713
AAXX 17121 26167 41358 81404 10040 20033 39830 49941 58015 76165 886// 333 88709
AAXX 17121 26258 41497 81504 10040 20033 39860 49914 57010 76162 8872/
AAXX 17121 26298 41396 81504 10024 20014 39797 40026 52001 75152 886//
AAXX 17121 26359 41460 81403 10051 20042 39791 49922 56002 78082 889//
AAXX 17121 26702 41496 72004 10039 20005 39756 49782 52007 71082 87500 333 91011 91111
AAXX 17121 26781 41296 81507 10033 20028 39706 49995 58001 76162 8872/ 333 87704 91012 91114
AAXX 17121 27208 41396 81606 10029 20013 39879 40055 54000 76162 8872/ 333 91113
AAXX 17121 27402 41497 81506 10028 20015 39886 40065 53003 72162 886// 333 88710
AAXX 17121 22271 NIL
AAXX 17121 22520 41496 80801 10002 21004 39991 40000 52007 71072 8257/
AAXX 17121 22550 41497 81604 10018 21001 30033 40043 52017 70287 886// 333 88710
AAXX 17121 22583 41460 81602 10009 20004 30022 40103 53006 77177 8777/ 333 87710
AAXX 17121 22768 41497 81905 10016 20002 30053 40110 52019 72582 889// 333 86911
AAXX 17121 22845 41497 82005 10012 21002 39920 40076 52016 76176 8872/ 333 86713
AAXX 17121 22887 41499 81606 10006 21014 30102 40173 52012 70282 886// 333 88710 91111
AAXX 17121 23205 41294 81705 11023 21038 30091 40106 57017 78683 889// 333 87704 91108
AAXX 17121 23219 41396 81806 11038 21050 30081 40189 57011 77173 8802/
AAXX 17121 23418 41456 81505 11028 21041 30116 40190 57004 76676 8872/ 333 86712 934//
AAXX 17121 23606 42260 81806 11014 21031 30028 40203 52011 887// 333 86706
AAXX 17121 23711 41498 81806 11030 21040 30078 40256 52004 73632 887//
AAXX 17121 23804 42497 82005 11008 21024 30060 40211 52006 885// 333 88610
AAXX 17121 27037 41498 81605 10011 20000 39952 40114 52007 72272 885// 333 86712
AAXX 17121 27199 42998 81705 11058 21092 30084 40290 52011 83077 333 93401
AAXX 17121 27271 42598 71206 11016 21036 30065 40225 52004 87500
AAXX 17121 27459 42998 81604 11055 21101 30025 40229 51003 86031
AAXX 17121 27730 42498 81605 11014 21033 39963 40160 54000 885// 333 88614
BBXX 46111 17121 99481 71227 46/// /1605 10061 40262 58027 91200 22200 00057
BBXX 46112 17121 99481 71227 46/// /1404 10055 40265 58025 91200
BBXX C6FM8 17124 99252 70773 41798 50918 10240 20180 40220 54/// 7//// 85/1/ 22273 0//// 21002 30909 41002 51002 6//// 80200 ICE /////
BBXX PBIG 17124 99231 70828 41298 70905 10242 20184 40200 52007 70222 867// 22264 00285 2////
BBXX V7NV4 17124 99267 71296 41797 70317 10160 20108 40190 55015 7//21 86131 22273 00200 20204 30202 40204 50104 6//// 80130 ICE /////
BBXX C6FR6 17124 99169 10540 41/// /1204 10250 2//// 40160 54/// 7//// 8//// 222// 0//// 2//// 3//// 4//// 5//// 6//// 8//// ICE /////
BBXX C6XC6 17124 99253 70627 41598 50321 10230 2//// 40180 52020 70311 85/7/ 22263 04220 2//// 30202 41004 51004 6//// 8//// ICE /////
BBXX WKAU 17124 99420 70653 41498 83510 10070 2005/ 40156 52020 70222 8852/ 22254 00090 20301 331// 40603 5//// 6//// 80060 ICE /////
BBXX WCZ5238 17124 99119 71722 41498 61024 10250 20222 40128 57010 7//61 8624/ 22273 00260 20404 309// 40608 5//// 6//// 80230 ICE /////
AAXX 17121 08521 NIL
AAXX 17121 08524 32470 70104 10185 20107 30232 40330 52005 87800 333 82816 86630 91108
AAXX 17124 91245 32566 20609 10270 20230 30171 91155 555 91712
AAXX 17124 91165 12566 60313 10222 20189 30162 40196 56008 60021 91153 333 20206 70023 555 91712
AAXX 17124 91182 12566 40608 10228 20183 30178 40182 56013 69931 91153 333 20222 70003 555 91712
AAXX 17124 91190 35966 00509 10206 20161 30165 40183 56011 91154 333 20206 555 91712
AAXX 17124 91212 12566 40807 10261 20244 31390 40124 51010 69981 91154 333 20256 70015 555 91712
AAXX 17124 91285 32666 62303 10183 20139 30165 40177 58014 91153 333 20183 70038 555 91712
AAXX 17124 91317 11474 81306 10278 20263 30104 40108 5//// 60011 70382 83902 333 563/9 70001 58025 83917 88080 555 91712
AAXX 17124 91348 11474 80405 10269 20254 30044 40097 58003 60131 72582 8527/ 333 10296 56199 59006 70297 555 91712
AAXX 17124 91356 11464 80811 10283 20238 30076 40083 55003 60151 70286 8622/ 333 10306 56299 59011 70328 86824 555 91712
AAXX 17121 78310 NIL
AAXX 17121 78315 NIL
AAXX 17121 78318 NIL
AAXX 17121 78322 11558 70000 10190 20177 30183 40201 53011 60001 71022 83442 333 10289 20190 30/// 56999 58003 83820 83080
AAXX 17121 78324 11/10 70403 10228 20199 30180 40191 51014 60001 70522 82248 333 10256 20226 30/// 56999 58014 79999 818// 87270
AAXX 17121 78325 11560 50903 10210 20189 30138 40196 53008 60001 70511 83242 333 10272 20207 30/// 55071 56999 57813 58003 70001 83820 83080
AAXX 17121 78328 11/61 40801 10220 20191 30195 40/// 53005 60001 70500 82251 333 10258 20216 30/// 50510 56999 58005 828// 92407
AAXX 17121 78333 12/10 30301 10184 20173 30179 40186 51002 60001 81232 333 10266 20175 30/// 56990 58001 818// 83070
AAXX 17121 78344 NIL
AAXX 17121 78345 NIL
AAXX 17121 78348 01557 50000 10204 20194 30134 40187 53005 60011 70581 84842 333 10261 20198 31/// 50364 56299 57875 59002 69987 70010 82820 83630 555 10901
AAXX 17121 78349 11556 73301 10192 20185 30087 40198 53012 60001 71011 878// 333 10267 20185 31/// 50214 56199 58007 70013 81820 87626 555 10502
AAXX 17121 78351 11530 60000 10163 20153 30163 40165 53003 60001 71011 81502 333 10300 20152 30/// 56909 58019 81626 86076
AAXX 17121 78353 12570 50903 10243 20172 30164 40186 53014 60001 85800 333 10261 20230 31/// 50174 56900 58004 70035 82820 83626
AAXX 17121 78355 12570 60202 10198 20184 30043 40185 51011 60001 85801 333 10266 20190 30/// 55031 56909 58003 79999 84820
AAXX 17121 78358 11540 50804 10239 20198 30160 40175 53010 60001 70511 84801 333 10279 20221 31/// 50674 56909 58006 81823 84629
AAXX 17121 78360 NIL
AAXX 17121 78363 11557 10000 10163 20153 30048 40165 53010 60001 71000 81500 333 10291 20155 30/// 50460 56900 58004 81621
AAXX 17121 78365 11558 60712 10246 20192 30179 40184 51010 60001 71511 85802 333 10271 20237 30/// 56209 57884 58015 85820 92046 555 10703
AAXX 17121 78369 NIL
AAXX 1712/ 89507 46/89 ///// 11145 4//// 5////
AAXX 1712/ 89767 46/// ///// 11051 39928 4//// 5////
AAXX 17121 40001 11560 73302 10085 20034 40192 58007 69961 70260 84550 333 84626 87360
AAXX 17121 40007 32460 60504 10087 20056 40191 55004 85302 333 85826 86070
AAXX 17121 40025 32560 52803 10184 20108 40164 56008 85800 333 82826 84630
AAXX 17121 40045 32570 62404 10134 20026 40191 57013 83550 333 83630 86360
AAXX 17121 40061 32970 52701 10137 20036 40175 57014 83052 333 83360 84070
AAXX 17121 40080 32570 52706 10184 20030 39458 40166 57014 82130 333 82826 84360
AAXX 17121 40087 NIL
AAXX 17121 40095 NIL
AAXX 17124 13625 11658 83212 10132 20101 39818 40044 57006 60081 76066 885// 333 88633
AAXX 17124 89016 46/89 /1207 10007 29066 39318 4//// 5////
AAXX 17124 89003 46/89 /3211 11039 29069 38913 4//// 5////
AAXX 17124 89577 46/// /2511 11299 35834 4//// 5////
AAXX 17124 40270 31530 30000 10084 20067 39296 40204 52006 71011 83500 333 20060 30100 83630
AAXX 17121 40009 11565 50000 10110 20029 40157 57005 69951 70162 85050 333 85360
AAXX 17121 40016 11570 73502 10078 20052 40215 55010 60021 70262 84520 333 84630
AAXX 17121 40022 32565 62801 10176 20117 40162 56004 82201 222// 20000 333 82830 86070
AAXX 17121 40030 11560 50000 10132 20107 40170 53001 60012 71062 83550 333 83630 84360
AAXX 17121 40039 32570 40000 10112 20023 40192 53004 82550 333 82630 85360
AAXX 17121 40066 11570 70000 10170 20044 40191 57012
AAXX 17121 40072 32970 00000 10170 20044 40191 57012
AAXX 17121 40083 32970 02401 10124 21015 48479 56002
AAXX 17124 61974 11465 63603 10302 20251 40072 69911 78082 84343 333 0//11 59006 81815 84816 94329
AAXX 17124 61986 12580 10000 10316 20240 40079 60001 81202 333 59002 81820 94329
AAXX 17124 61988 12475 31308 10280 20224 40095 60001 83300 333 58010 81916 83817 91123
AAXX 17124 61989 11480 51213 10280 20221 40103 69901 70282 85302 333 0//13 58009 81916 85817
AAXX 17124 61990 11156 80307 10222 20207 40100 60061 78082 88870 333 0//21 59006 81703 86812 87650 91120 94321
AAXX 17124 61995 11250 80904 10205 20197 39620 60091 76162 8887/ 333 0//11 59002 82705 86814 86645 94329
AAXX 17124 60340 32565 73014 10161 20123 40238 58006 8257/ 333 82630 86360
BBXX SLKQ 17121 99095 10709 43/97 50507 10291 40083 55004 22264 00296 2////4////
BBXX SLCO 17124 99062 11461 43/97 71615 10257 40071 51024 22234 00281 2//// 4////
BBXX A8UD6 17121 99177 11489 41298 20609 10250 20235 40140 51010 70200 821// 22274 20604 307// 41005 5//// 80240
BBXX DGZR2 17123 99063 10792 41496 63525 10275 20241 40073 54000 70522 83118 22234 00280 20705 80250
BBXX VRAE4 17123 99073 11206 41598 63207 10280 20252 40099 53012 70222 848// 22273 04290 202// 399// 410// 80260
BBXX HZGH 17123 99062 10892 41497 50703 10281 20242 40077 53010 70211 83242 22264 02279 20302 30500 40300 5//// 80254
BBXX 9VVN 17124 99431 11463 41911 02816 10000 20000 40145 52005 22214 00040 2//// 3//// 4//// 5//// 6///0 80000 ICE 0/0//
BBXX A8OY9 17124 99054 10802 44379 72808 10280 20270 40090 51018 8457/ 22224 00300 20607 310// 40606 5//// 80250
BBXX DQVG 17123 99330 11583 41597 43336 10160 20103 40058 53028 70122 811// 22264 20308 3//// 4//// 5//// 80130
BBXX DHBN 17121 99311 11570 41/97 93613 10180 20148 40140 54000 70322 8//// 22225 00220 2//// 3//// 4//// 5//// 80160
BBXX PBOF 17123 99388 11180 41/97 33116 10050 21026 40380 56/// 70322 83793 22200 2//// 30000 80020 90456
BBXX DGWE2 17123 99051 11063 41397 80524 10265 20237 40090 53015 7//22 86710 22214 00270 20406 80245
BBXX 9V8797 17124 99238 10585 43/98 10610 10237 40165 57017 22234 00259 2//// 4////
BBXX C6OM8 17120 99086 50345 41698 31505 10283 20221 40152 52010 70311 82141 22253 06275 20504 314// 40705 5//// 80241
BBXX PDHO 17123 99122 10461 41597 20912 10268 20197 40111 56021 70300 81108 22225 00268 20402 80219
BBXX A8KH9 17124 99228 30145 41997 12409 10170 20119 40110 54000 70111 80005 22200 20301 32600 40802 5//// 80140
BBXX C6FR6 17124 99169 10540 41/// /1204 10250 2//// 40160 54/// 7//// 8//// 222// 0//// 2//// 3//// 4//// 5//// 6//// 8//// ICE /////
BBXX A8QJ7 17124 99016 50296 41/98 /1510 10280 20266 40124 51007 75011 8/5// 22213 06280 2//// 3//// 4//// 5//// 80270
BBXX WRYC 17124 99136 10504 41498 10613 10270 2023/ 40120 57015 70200 81100 22255 00254 20202 305// 40404 5//// 6//// 80240 ICE /////
BBXX DGGH 17121 99054 10027 41495 63601 10300 20224 40120 58010 71022 84017 22200 00292 2//// 315// 40301 5//// 80245
BBXX DEIR 17124 99291 30375 41498 62631 10225 20155 40180 58010 70200 84471 22223 04245 20603 314// 40804 80180
BBXX PHKL 17121 99138 10425 41997 11512 10280 20221 40104 56027 70200 80001 22274 00266 20402 3//// 4//// 5//// 80238
BBXX PHOB 17124 99106 10659 41/97 50511 10280 20253 40083 55013 70311 8//// 22224 00265 20503 307// 40302 5//// 80260
BBXX DDYY2 17124 99207 10385 41697 23619 10260 20183 40120 57010 70222 81108 22274 00287 20402 335// 40302 80208
BBXX PHQW 17123 99040 70074 41396 81510 10288 20245 40114 58005 73232 83706 22263 00285 20201 316// 40804 80256 90456
BBXX UBQE6 17121 99106 70169 41998 00000 10250 2//// 40100 53004 70200 80000 22274 00023
BBXX 41037 17121 99340 70775 46/// /0407 10123 40192 51011 91200 22200 00170 333 91208
BBXX 42067 17121 99300 70886 46/// ///// 10112 20108 40252 91140 22200 00163 10802 70008
BBXX 41053 17121 99185 70661 46/// /0606 10258 40156 91150 333 91208
BBXX 41052 17121 99183 70648 46/// /0505 10259 40153 52017 91200 22200 00277 333 91207
BBXX 41052 17121 99183 70648 46/// /0504 10256 40149 91140 333 91205
BBXX 41053 17121 99185 70661 46/// /0506 10259 40159 53013 91200 22200 00273 11104 70022 333 91208
BBXX 41052 17121 99183 70648 46/// /0606 10260 40151 91150 333 91208
BBXX 41053 17121 99185 70661 46/// /0606 10258 40155 91140 333 91208
BBXX WDF6832 17123 99399 70545 41798 53213 10180 2013/ 40100 51010 7//22 85745 22274 00180 20202 32929 40302 50302 6//// 80150 ICE /////
BBXX WKAU 17124 99420 70653 41498 83510 10070 2005/ 40156 52020 70222 8852/ 22254 00090 20301 331// 40603 5//// 6//// 80060 ICE /////
BBXX WPGK 17124 99290 70794 41498 31905 10239 2020/ 40190 54000 70200 83800 22235 00267 20603 3//// 4//// 5//// 6//// 80211 ICE /////
BBXX C6OT4 17124 99204 71638 41/98 /0920 40217 54011 70211 8//// 22223 20105 30135 40205 50206
BBXX C6XC6 17124 99253 70627 41598 50321 10230 2//// 40180 52020 70311 85/7/ 22263 04220 2//// 30202 41004 51004 6//// 8//// ICE /////
BBXX SBLW 17123 99220 70609 43/98 70420 10235 40185 53019 22254 00264 2//// 4////
BBXX SBLI 17121 99300 71649 43/98 71306 10198 40251 58011 22264 00214 2//// 4//// NNNN 426621110
BBXX A8SF7 17121 99301 70792 41298 72909 10218 20179 40215 52005 70322 8677/ 22234 04240 21202 3//// 4//// 5//// 80192
BBXX 44150 17121 99425 70640 46/// /3606 10060 40160 52012 22200 00112 11006 70030 333 91208
BBXX 44139 17121 99442 70571 46/// /3106 10053 40149 52025 22200 00092 11007 70033 333 91208
BBXX DGNB 17123 99336 70515 41497 63621 10195 20156 40160 52010 70300 85474 22264 00210 22104 336// 42104 80170
BBXX A8IP3 17123 99135 70795 41597 30629 10277 20213 40120 53010 70300 82166 22214 04280 20604 80232
BBXX A8JI2 17124 99273 70429 41597 81522 10251 20206 40155 51005 75855 8/77/ 22254 04282 20607 324// 41208 5//// 80220
BBXX WDE9193 17123 99198 70787 41498 40719 10250 2022/ 40154 52008 70310 81231 22262 00272 20504 30509 40604 50602 6//// 80225 ICE /////
BBXX 9HJB9 17124 99260 70801 41898 73608 10230 20185 40210 54000 70222 86874 22200 04251 2//// 3//// 4//// 5//// 6//// 80200 ICE /////
BBXX PDXQ 17123 99382 70489 41597 20108 10161 20129 40171 54000 70100 81141 22223 04195 20801 305// 40603 80142
BBXX VOXS 17124 99467 70480 41997 22622 10062 2006/ 40094 51030 70100 80002 22200 04023 20504 314// 40804 80062
BBXX VCXF 17124 99464 70484 41597 52622 10051 2004/ 40099 52034 71022 84509 22200 02039 20504 324// 40704 80045
BBXX V7NV4 17124 99267 71296 41797 70317 10160 20108 40190 55015 7//21 86131 22273 00200 20204 30202 40204 50104 6//// 80130 ICE /////
BBXX WKAW 17124 99300 70797 41498 53020 10225 2018/ 40196 54000 70122 8527/ 22216 00250 20502 306// 42204 5//// 6//// 80195 ICE /////
BBXX V2NA1 17124 99376 70522 41697 42510 10190 20104 40160 56010 702// 8417/ 22224 04200 20201 305// 40604 80140
BBXX KIYI 17124 99578 71468 43/// /2029 10060 2004/ 40043 57015 7//// 8//// 22274 0//// 2//// 3//// 4//// 5//// 6//// 80050 ICE /////
BBXX DANR 17123 99524 71508 41/98 11912 10070 40050 52030 70100 8//// 22224 00050 2////
BBXX A8IN7 17124 99219 70746 41297 30513 10240 20176 40180 54000 70211 82145 22244 06260 20304 80200
BBXX A8IP2 17123 99234 70653 41298 70522 10225 20146 40195 51020 70522 85672 22254 20504 303// 40805 5//// 80175
BBXX DILE 17123 99450 70563 41/98 /3015 10045 20005 40125 52020 7//22 8//// 22224 04060 2//// 80028
BBXX PBIG 17124 99231 70828 41298 70905 10242 20184 40200 52007 70222 867// 22264 00285 2////
BBXX 46053 17121 99342 71198 46/// /2003 10137 40180 57006 91150 22200 00140 11102 328// 41102 70008 333 91204 555 11032 22034 31050 42105 61149 201031 202024 255033 241031 226038 244032
BBXX NWS0029 17124 99275 70486 43/// /1107 10229 20180 40111 5//// 7//// 8//// 222// 04248 2//// 3//// 4//// 5//// 6//// 8//// ICE /////
BBXX NWS0003 17124 99539 71665 43/// /1411 10037 20007 49710 5//// 7//// 8//// 222// 04069 2//// 3//// 4//// 5//// 6//// 8//// ICE /////
BBXX 44022 17121 99409 70737 46/// ///07 10034 21023 40196 53006 91200 22200 00090 333 91209 555 11067 22072
BBXX 51205 17121 99210 71564 46/// ///// 1//// 91148 22200 00243 11406 20604 332// 41404 70030
BBXX 46239 17121 99363 71221 46/// ///// 1//// 91151 22200 00129 11504 20903 331// 41503 70020
BBXX 41038 17121 99341 70777 46/// /0206 10124 40200 51015 91200 22200 00140 333 91207
BBXX 46238 17121 99334 71195 46/// ///// 1//// 91150 22200 00145 11702 20902 330// 41702 70012
BBXX 41041 17121 99142 70460 46/// /1207 10274 20226 40138 51023 91150 22200 00265 11004 20703 3//// 41003 70022 333 91209 555 11079 22084 31141 41209 61149 120074 119074 118071 113069 115061 114063 81208 91141
BBXX PDNN 17123 99448 70527 41297 52720 10070 20026 40129 52025 70122 847// 22223 02076 20204 327// 40606 80050 90456
BBXX PHDL 17123 99210 70948 41598 70406 10233 20216 40215 52015 70322 8750/ 22254 00250 20200 399// 40702 80221 90456
BBXX DMRX 17124 99475 71382 41297 62616 10090 20060 40162 51012 70322 8676/ 22224 00090 20504 80075
BBXX VRFX8 17124 99408 70481 41498 32511 10180 20130 40140 54000 70100 8218/ 22264 0//// 20303 307// 40705 80150
BBXX DFGX2 17123 99538 71525 41/97 82026 10055 20022 40045 52015 70222 8//// 22224 04050 2//// 80040
BBXX DIHC 17123 99366 71696 41497 82022 10170 20154 40130 57030 78022 887// 22254 00170 2//// 328// 40506 80160
BBXX 2AKI3 17124 99243 70906 41/98 /2012 10230 20207 40217 54000 70100 8//// 22213 04250 2//// 3//// 4//// 5//// 80215
BBXX A8UU3 17124 99378 70456 41298 81709 10190 20182 40170 51010 76162 8/7// 22233 2//// 317// 40506 80185
BBXX A8JS7 17123 99220 71155 41398 80906 10190 20096 40166 54000 70322 8671/ 22264 04220 20201 310// 40403 5//// 80140
BBXX DEHY 17124 99315 71405 41/98 42009 10185 20136 40250 54000 70211 8//// 22264 00180 2//// 80155
BBXX DDAC2 17120 99072 70836 41598 62605 10261 20242 40100 53010 7//62 84470 22273 04274 20301 323// 40704 5//// 80247
BBXX 3FBC9 17124 99175 71292 41798 70418 10220 40124 56018 70322 86853 9//// 22233 00240 20304 306// 40606 5//// 6//// 80200
BBXX ZCDF4 17123 99178 71029 41698 30714 10260 20238 40138 58003 70200 8246/ 22275 00270 2//// 329// 40402 5//// 80245
BBXX ELTY2 17123 99000 70386 41698 31319 10275 20255 40110 52010 70211 8/485 22231 21004 313// 41204 5//// 80260
BBXX 3EPD8 17124 99411 50551 41298 81320 10150 20132 40138 7//22 84770 22213 04147 299// 80140
BBXX A8KX4 17124 99233 50708 41898 11309 10200 20158 40150 52010 70200 81/48 22243 00180 20101 324// 40702 80175
BBXX A8TC4 17124 99330 50511 41298 52719 10205 20181 40050 52010 70266 8/466 22214 04240 20605 31132 40904 50703 80190
BBXX 3EIZ7 17124 99426 70302 41496 82621 10190 2016/ 40220 56000 75020 8872/ 22264 0//// 2//07 320// 4//07 5//// 6//// 80170 ICE /////
BBXX SERW 17123 99321 70095 43898 20510 10159 2//// 40295 50005 70000 80080 22252 06157 20201 333// 41003
BBXX MGSG6 17123 99611 70007 41397 73231 10040 20009 49915 52040 72582 8572/ 22263 20607 3//// 4//// 5//// 80028
BBXX 62087 17121 99547 10068 46/// /1504 10075 20019 4//// 5//// 22230 00082
BBXX 62023 17123 99514 70079 46/97 /3021 10068 2//// 40188 5//// 22200 10706 70029 555 70049 80005 91131
BBXX LF4H 17124 99596 10022 46/// /3424 10049 21030 49959 52017 8//// 22200 06082 10809 70043 333 91137
BBXX LGWS 17121 99304 70097 43/// /1403 10155 20096 40247 5//// 222/0 04160 1//// 3//// 4//// 5////
BBXX LAHV 17121 99589 10057 43/// /2102 10032 20013 49913 222// 04085 1////
BBXX UCJB 17121 99605 10040 41497 83510 10048 49942 52020 72162 8762/ 22243 00119 20504
BBXX PJFF 17124 99494 70050 41/97 /3224 10150 40150 52010 702// 8/4// 22253 04080 20903 331// 41004 80020
BBXX C6VR4 17123 99335 70195 41598 80513 10190 20103 40336 53001 70222 8676/ 22224 04199 20604 324// 41205 5//// 80143
BBXX NWS0020 17124 99363 70027 43/// /2823 10149 20078 40194 5//// 7//// 8//// 222// 04158 2//// 3//// 4//// 5//// 6//// 8//// ICE /////
BBXX UCAD 17121 99686 10111 41/97 91620 10060 49863 54000 702221 88/// 22252 00070 20606
BBXX DDSD2 17123 99370 70317 41397 41410 40300 52030 701// 84/1/ 22225 2//// 326// 42006 5////
BBXX UCAB 17121 99687 10385 41498 82008 10040 40023 54000 70222 8715/ 22273 00030 20502
BBXX ELXG9 17124 99492 70043 41597 62613 10120 20101 40160 54000 76022 86500 22213 20301 333// 40503 80110
BBXX PHIN 17124 99514 70158 41598 53220 10125 20068 40258 52006 72581 83261 22223 00120 20404 334// 40908 80095
BBXX SKUN 17123 99511 70310 43/98 61623 10089 40222 55001 22214 00075 2//// 4////
BBXX PDHW 17123 99493 70088 41497 63230 10095 20006 40200 52030 76066 84272 22263 00100 20806 330// 41008 80055
BBXX A8OF6 17123 99452 70159 41598 83516 10136 20068 40312 51/// 70311 8689/ 22254 04140 20508 335// 40810 80100
BBXX A8CH2 17124 99460 70111 41598 43115 10150 20099 40270 55005 70222 84445 22214 04130 20406 331// 41010 80121
BBXX VRGJ6 17123 99319 10312 41598 52308 10215 20148 40178 56010 70222 84365 22224 04197 20501 330// 40702 5//// 80175
BBXX UCAC 17121 99610 10042 41497 83516 10050 49929 51024 72162 887// 22283 00100 20808 335// 40808
BBXX UCJL 17121 99580 10050 41598 63214 10065 49901 50000 70222 84432 22272 00050 20705
BBXX UCKZ 17121 99665 30441 41295 80615 10010 20006 49911 58001 71072 886// 22242 01013 2//// ICE 57894
BBXX PHJV 17123 99105 31359 41598 23010 10288 20257 40071 53019 70100 82165 22263 06304 20101 315// 40101 80265
BBXX PHPP 17124 99039 10996 41698 73107 10270 20228 40071 53011 71386 8657/ 22232 00300 20201 80240
BBXX 3EDA4 17123 99123 31544 41398 41603 10280 20253 40079 51016 70311 83266 22244 00298 20201 316// 40303 80260
BBXX PEND 17123 99231 31133 41398 12215 10244 20224 40048 53/// 70200 81100 22243 00280 2//// 3//// 4//// 5//// 80230
BBXX VRZN7 17124 99254 51608 41579 41319 10213 2014/ 40160 52020 70300 81485 22253 04254 20502 3//// 4//// 5//// 85165
BBXX ZM2619 17123 99449 31784 41/96 81713 10103 20076 40094 54000 70222 22222 29902 320// 40706 80090
BBXX VNSZ 17124 99400 31456 46/// /0740 10164 20126 30140 40166 57034 22275 04165 85141
BBXX SHIP 17124 99112 31223 41/97 62905 10284 20265 40039 70322 222// 0//// 20100 326// 40101 5////
BBXX VRDU8 17123 99368 31234 41598 12010 10170 20115 40072 54000 70200 81115 22224 04160 20401 399// 40602 80140
BBXX VRDG4 17123 99337 31597 41295 81612 10160 20124 40187 53011 75855 8772/ 22273 20608 80140
BBXX PCAM 17123 99412 31732 41/97 80912 10138 20077 40124 52/// 7//22 8//// 22200 04195 2//// 80105
BBXX VRRB 17124 99254 31537 41/// /1118 10235 20162 40180 52/// 7//// 8//// 22243 2//// 80190
BBXX ZCBU6 17124 99358 31749 41498 32620 10188 20158 40055 57016 70222 821// 22234 00190 20402 327// 40904 5//// 80170
BBXX SHIP 17124 99108 31189 41/97 71901 10290 20281 49997 72851 222// 0//// 20101 322// 40101 5////
BBXX MRWF2 17124 99278 31131 41699 32213 10220 20205 40090 54000 70300 83131 22274 00240 20902 31919 40903 50902 6//// 80210 ICE /////
BBXX VNVM 17124 99211 31499 41/98 /0920 10235 40145 52013 75200 8//// 22233 00270 2//02
BBXX KAOU 17124 99026 10860 43/// /1503 10283 20238 40070 5//// 7//// 8//// 222// 04294 2//// 3//// 4//// 5//// 6//// 8//// ICE /////
BBXX PCSV 17123 99028 30725 41597 63212 10281 20247 40067 70222 83168 22252 04284 20603 332// 40704 80256 90456
BBXX PFBF 17123 99105 31385 41/98 11006 10282 20195 40080 52025 70100 8//// 22223 02296 2//// 3//// 4//// 5//// 80222
BBXX A8SG2 17121 99313 51710 41/97 83307 10210 20194 40095 57015 76162 8687/ 22254 00220 20601 322// 41604 5//// 80200
BBXX PCDE 17123 99399 31199 41/98 50606 10163 20135 40088 54000 7//// 8/1// 22223 2//// 322// 40602 80146
AAXX 17121 28676 429// 00000 11277 21306 30333 40478 52016 555 1/128
AAXX 17121 28766 419// 82901 11238 21249 30254 40468 52014 77171 8802/ 555 1/125
AAXX 17121 28867 42998 00000 11243 21275 30163 40468 52011 555 1/125
AAXX 17121 28879 419// 30501 11269 21293 30146 40474 52016 70371 83080 555 1/128
AAXX 17121 28952 41996 21101 11220 21245 30252 40465 52010 71011 82030 555 1/123
AAXX 17121 28966 429// 00000 11249 21286 30138 40458 53004 555 1/128
AAXX 17121 29802 419// 00303 11267 21291 30285 40448 52017 70230 555 1/129
AAXX 17121 29807 429// 00701 11266 21293 30323 40457 52017 555 1/130
AAXX 17121 34691 42998 21108 11055 21116 30293 40280 57006 82030 555 1/105
AAXX 17121 35067 429// 03101 11266 21306 30152 40466 53007 555 1/126
AAXX 17121 35078 42997 00402 11243 21270 30032 40458 52016 555 1/126
AAXX 17121 35085 429// 23503 11264 21287 39912 40450 52013 80001 555 1/128
AAXX 17121 35108 42997 01303 11113 21155 30321 40370 54000
AAXX 17121 35188 419// 03603 11248 21277 39952 40439 52011 70471 555 1/127
AAXX 17121 35217 42998 01004 11132 21159 30326 40368 52001 555 1/113
AAXX 17121 35229 42998 20000 11173 21205 30120 40419 53003 80001 555 1/121
AAXX 17121 35302 42998 01505 11121 21165 30328 40349 54000 555 1/114
AAXX 17121 35357 42997 03402 11236 21261 39936 40422 53001 555 1/125
AAXX 17121 35394 41998 63102 11236 21262 39663 40415 53007 72273 86010 555 1/127
AAXX 17121 35406 42997 01103 11105 21149 30342 40344 58001 555 1/111
AAXX 17121 35416 42997 00901 11123 21168 30251 40380 57003 555 1/113
AAXX 17121 35426 42999 00502 11149 21183 30090 40405 53001 555 1/118
AAXX 17121 35497 419// 80000 11204 21240 39531 40404 57001 77171 8801/ 555 1/121
AAXX 17121 35532 42998 01107 11154 21214 39870 40400 57001 555 1/116
AAXX 17121 35671 42998 00000 11227 21259 39946 40424 57002 555 1/125
AAXX 17121 35700 41998 61106 11084 21121 30333 40308 58003 70232 83075 555 1/110
AAXX 17121 35746 41996 30106 11145 21172 30317 40390 57007 71000 80001 555 1/113
AAXX 17121 35796 42997 20702 11238 21266 39923 40407 57010 80001 555 1/129
AAXX 17121 35849 42998 00502 11130 21165 30278 40371 57010 555 1/113
AAXX 17121 35925 42998 61106 11093 21118 30212 40329 57013 80002 555 1/109
AAXX 17121 35953 42999 00404 11110 21138 30229 40367 57007 555 1/114
AAXX 17121 35969 42999 00504 11106 21132 30197 40382 53004 555 1/111
AAXX 17121 36003 41998 20000 11268 21287 30256 40428 52019 70171 80001 555 1/130
AAXX 17121 36152 419// 80000 11195 21231 30202 40408 53011 77177 8802/ 555 1/119
AAXX 17121 36177 429// 50000 11196 21215 30139 40409 53004 80001 555 1/122
AAXX 17121 36208 429// 50601 11162 21190 39352 40402 53002 85030 555 1/120
AAXX 17121 36397 426// 61602 11136 21171 39788 40386 53002 85501 555 1/114
AAXX 17121 36428 429// 20000 11207 21226 39869 40416 53003 80001 333 95090 555 1/125
AAXX 17121 36535 429// 80000 11172 21206 39735 40418 54000 70272 885// 555 1/120
AAXX 17121 36639 429// 30000 11120 21151 39731 40370 57001 83080 333 1/113
AAXX 17121 36821 428// 60101 11117 21134 39849 40368 54000 83032
AAXX 17121 36859 425// 70000 11070 21086 39527 40339 57026 83505 555 1/115
AAXX 17121 36864 41496 81402 11072 21089 39409 40339 57005 71072 886//
AAXX 17121 36870 413// 80000 11060 21075 39275 40324 57004 71022 886// 555 1/106
AAXX 17121 38001 42997 30505 10039 21057 30253 40223 57006 83030 555 10004
AAXX 17121 38062 42999 00405 11078 21123 30173 40344 57008 555 1/110
AAXX 17121 38069 42998 00101 11040 21094 30116 40313 57010
AAXX 17121 38196 42998 00503 11050 21181 39295 40309 56004
AAXX 17121 38198 42997 10000 11080 21116 30033 40306 57014 80001 555 1/113
AAXX 17121 38222 42697 40000 11125 21168 39772 40370 53003 84500 555 1/116
AAXX 17121 38232 42998 70806 11001 21055 30151 40251 57012 87070 555 1/000
AAXX 17121 38328 42999 01301 11023 21069 39527 40274 57010 555 1/111
AAXX 17121 38334 42998 00804 11088 21148 39293 40303 53008 555 1/112
AAXX 17121 38341 41996 80000 11114 21142 39521 40358 57006 77077 8802/ 555 1/108
AAXX 17121 38343 41696 80000 11090 21106 39462 40350 57004 71042 886//
AAXX 17121 38439 42997 63603 11010 21056 39930 40277 57006 82071 555 12100
AAXX 17121 28676 429// 00000 11277 21306 30333 40478 52016 555 1/128
AAXX 17121 28766 419// 82901 11238 21249 30254 40468 52014 77171 8802/ 555 1/125
AAXX 17121 28867 42998 00000 11243 21275 30163 40468 52011 555 1/125
AAXX 17121 28879 419// 30501 11269 21293 30146 40474 52016 70371 83080 555 1/128
AAXX 17121 28952 41996 21101 11220 21245 30252 40465 52010 71011 82030 555 1/123
AAXX 17121 28966 429// 00000 11249 21286 30138 40458 53004 555 1/128
AAXX 17121 29802 419// 00303 11267 21291 30285 40448 52017 70230 555 1/129
AAXX 17121 29807 429// 00701 11266 21293 30323 40457 52017 555 1/130
AAXX 17121 34691 42998 21108 11055 21116 30293 40280 57006 82030 555 1/105
AAXX 17121 35067 429// 03101 11266 21306 30152 40466 53007 555 1/126
AAXX 17121 35078 42997 00402 11243 21270 30032 40458 52016 555 1/126
AAXX 17121 35085 429// 23503 11264 21287 39912 40450 52013 80001 555 1/128
AAXX 17121 35108 42997 01303 11113 21155 30321 40370 54000
AAXX 17121 35188 419// 03603 11248 21277 39952 40439 52011 70471 555 1/127
AAXX 17121 35217 42998 01004 11132 21159 30326 40368 52001 555 1/113
AAXX 17121 35229 42998 20000 11173 21205 30120 40419 53003 80001 555 1/121
AAXX 17121 35302 42998 01505 11121 21165 30328 40349 54000 555 1/114
AAXX 17121 35357 42997 03402 11236 21261 39936 40422 53001 555 1/125
AAXX 17121 35394 41998 63102 11236 21262 39663 40415 53007 72273 86010 555 1/127
AAXX 17121 35406 42997 01103 11105 21149 30342 40344 58001 555 1/111
AAXX 17121 35416 42997 00901 11123 21168 30251 40380 57003 555 1/113
AAXX 17121 35426 42999 00502 11149 21183 30090 40405 53001 555 1/118
AAXX 17121 35497 419// 80000 11204 21240 39531 40404 57001 77171 8801/ 555 1/121
AAXX 17121 35532 42998 01107 11154 21214 39870 40400 57001 555 1/116
AAXX 17121 35671 42998 00000 11227 21259 39946 40424 57002 555 1/125
AAXX 17121 35700 41998 61106 11084 21121 30333 40308 58003 70232 83075 555 1/110
AAXX 17121 35746 41996 30106 11145 21172 30317 40390 57007 71000 80001 555 1/113
AAXX 17121 35796 42997 20702 11238 21266 39923 40407 57010 80001 555 1/129
AAXX 17121 35849 42998 00502 11130 21165 30278 40371 57010 555 1/113
AAXX 17121 35925 42998 61106 11093 21118 30212 40329 57013 80002 555 1/109
AAXX 17121 35953 42999 00404 11110 21138 30229 40367 57007 555 1/114
AAXX 17121 35969 42999 00504 11106 21132 30197 40382 53004 555 1/111
AAXX 17121 36003 41998 20000 11268 21287 30256 40428 52019 70171 80001 555 1/130
AAXX 17121 36152 419// 80000 11195 21231 30202 40408 53011 77177 8802/ 555 1/119
AAXX 17121 36177 429// 50000 11196 21215 30139 40409 53004 80001 555 1/122
AAXX 17121 36208 429// 50601 11162 21190 39352 40402 53002 85030 555 1/120
AAXX 17121 36397 426// 61602 11136 21171 39788 40386 53002 85501 555 1/114
AAXX 17121 36428 429// 20000 11207 21226 39869 40416 53003 80001 333 95090 555 1/125
AAXX 17121 36535 429// 80000 11172 21206 39735 40418 54000 70272 885// 555 1/120
AAXX 17121 36639 429// 30000 11120 21151 39731 40370 57001 83080 333 1/113
AAXX 17121 36821 428// 60101 11117 21134 39849 40368 54000 83032
AAXX 17121 36859 425// 70000 11070 21086 39527 40339 57026 83505 555 1/115
AAXX 17121 36864 41496 81402 11072 21089 39409 40339 57005 71072 886//
AAXX 17121 36870 413// 80000 11060 21075 39275 40324 57004 71022 886// 555 1/106
AAXX 17121 38001 42997 30505 10039 21057 30253 40223 57006 83030 555 10004
AAXX 17121 38062 42999 00405 11078 21123 30173 40344 57008 555 1/110
AAXX 17121 38069 42998 00101 11040 21094 30116 40313 57010
AAXX 17121 38196 42998 00503 11050 21181 39295 40309 56004
AAXX 17121 38198 42997 10000 11080 21116 30033 40306 57014 80001 555 1/113
AAXX 17121 38222 42697 40000 11125 21168 39772 40370 53003 84500 555 1/116
AAXX 17121 38232 42998 70806 11001 21055 30151 40251 57012 87070 555 1/000
AAXX 17121 38328 42999 01301 11023 21069 39527 40274 57010 555 1/111
AAXX 17121 38334 42998 00804 11088 21148 39293 40303 53008 555 1/112
AAXX 17121 38341 41996 80000 11114 21142 39521 40358 57006 77077 8802/ 555 1/108
AAXX 17121 38343 41696 80000 11090 21106 39462 40350 57004 71042 886//
AAXX 17121 38439 42997 63603 11010 21056 39930 40277 57006 82071 555 12100
AAXX 17121 40701 11530 71402 11046 21052 38595 40258 57007 60001 71022 85605 333 83720 83630 85268
AAXX 17121 40704 12662 32804 10030 21016 38593 40188 56010 60001 81172 333 81359
AAXX 17121 40708 12960 71802 10050 21004 38633 40165 57010 60001 83076 333 83359 86266
AAXX 17121 40710 11615 42402 11048 21090 38314 40274 56009 60001 70542 82510 333 82635 84458
AAXX 17121 40713 11920 40000 10062 21006 38660 40195 56015 60001 70521 80002 333 84068
AAXX 17121 40719 11450 69901 10116 20070 30177 40166 56018 60001 70521 84550 333 84611 83359
AAXX 17121 40731 12662 51201 10100 21011 38729 40186 51010 60001 84330 333 83835 81640
AAXX 17121 40738 11550 10605 10122 20063 30189 40191 56013 60001 70500 81100 333
AAXX 17121 40740 12960 72702 10026 21028 38717 40190 53004 60001 81036 333 81360 86270
AAXX 17121 40747 12660 21601 10068 20018 38636 40203 57020 60001 82800 333 81835
AAXX 17121 40757 12960 01801 10096 21009 38891 40183 56010 60001 333
AAXX 17121 40763 12665 22405 10088 21076 38912 40191 55003 60001 81401 333 81640
AAXX 17121 40782 12665 12805 10138 21054 38886 40190 55008 60001 81100 333 81845
AAXX 17121 40783 12970 02904 10086 21065 37977 40170 56013 60001 333
AAXX 17121 40789 12965 00000 10136 21023 39207 40188 56010 60001 333
AAXX 17121 40798 12962 22005 10100 21098 37956 40178 57009 60001 80001 333 82070
AAXX 17121 40818 12970 02805 10120 21092 37967 40137 56013 60001 333
AAXX 17121 40827 12970 22104 10170 21096 38822 40199 56006 60001 81030 333 82360
AAXX 17121 40836 12965 02105 10138 21058 38196 40163 55011 60001 333
AAXX 17121 40851 12660 40000 10164 21046 38267 40127 56008 60001 81501 333 81640
AAXX 17121 40853 12665 52704 10116 21107 37748 40152 57010 60001 85101 333 82840 83070
AAXX 17121 40854 12960 50603 10164 21093 38933 40136 55005 60001 80006 333 85270
AAXX 17121 40857 12960 13002 10220 20164 30147 40156 57016 60001 80001 222// 00208 20301 333 81070
AAXX 17121 40859 12962 21804 10176 21176 38711 40151 56015 60001 82030 333 82360
AAXX 17121 40878 12965 13102 10220 21174 38832 40172 56018 60001 80002 333 81070
AAXX 17121 40879 12970 21802 10245 21119 39472 40148 56019 60001 80002 333 82070
AAXX 17121 40883 11958 02405 10240 20134 30131 40154 56010 60001 70500 222// 00228 20301 333
AAXX 17121 40898 12962 21302 10242 20145 30132 40141 56021 60001 80005 222// 00246 10900 333 82269
BBXX OXVE2 17124 99395 31411 41/98 80926 10170 20153 40122 7//// 8//// 22224 04150 20103 3//// 4//// 5//// 80160
AAXX 17124 60360 11557 72412 10144 20134 40148 58005 60011 70366 8693/ 333 0//51 82820 81933 85640 95910
AAXX 17124 60390 11560 72105 10145 20134 40197 56005 60071 70162 8587/ 333 0//53 82820 83643 86459 95910
AAXX 17124 60402 11565 62404 10147 20106 40133 58011 60011 70166 84830 333 0//54 82820 83640 95900
AAXX 17124 60419 11558 73308 10087 20067 40172 50004 69981 76062 878// 333 0//11 83820 86626 95900
AAXX 17124 60475 12665 73614 10114 20077 39210 48479 53001 60001 8523/ 333 85833 85360 95900
AAXX 17124 60490 12570 72618 10189 20102 40212 58004 60001 85832 333 85820 84073 95900
AAXX 17124 60525 12660 63408 10180 20072 40159 58012 60001 86202 333 0//00 86840 95900
AAXX 17124 60531 11458 82607 10125 20104 40240 58003 69991 76062 882// 333 0//13 82710 87826 95970
AAXX 17124 60566 11958 23617 10180 20067 40198 58001 60001 70700 80002 333 0//00 82073
AAXX 17124 60571 12970 20000 10190 21068 39302 48558 58003 60001 80002 333 0//00 82073 95900
AAXX 17124 60580 12960 13410 10185 20038 40179 58018 60001 80001 333 0//00 81073
AAXX 17124 60590 12958 03213 10173 20025 40212 58014 60001 333 0//00
AAXX 17124 60611 12860 10000 10184 20038 40187 57017 60001 81030 333 0//00 81358
AAXX 17124 60620 12960 03308 10195 20040 40226 58012 60001 333 0//00
AAXX 17124 60630 12960 03010 10208 20041 40201 58019 60001
AAXX 17124 60656 12965 00000 10215 20033 40226 58010 60001 333 0//00
AAXX 17124 60670 12982 42706 10170 21031 39085 48524 58020 60001 84032 333 0//00 84360 95900
AAXX 17124 60680 12980 22506 10191 21081 38658 48536 56017 60001 80002 333 82073 95900
AAXX 17124 60351 11458 82208 10131 20118 40162 50000 60041 72162 8487/ 333 0//51 83816 84633 86358 95900
AAXX 17124 60355 12660 62910 10163 20052 40149 58001 69961 82800 333 0//14 82833 84840 95900
AAXX 17124 60445 11560 72816 10085 20028 39009 48490 58002 60001 70266 8623/ 333 0//13 86826 83360 95900
AAXX 17124 60468 11456 70214 10095 20073 39218 48490 58001 69911 76062 878// 333 0//11 81810 87823 95970
AAXX 17124 60507 11558 72820 10130 20121 40222 58003 60041 72162 8583/ 333 85830 83360 95900
AAXX 17124 60511 11460 82922 10094 20070 39071 48510 58011 60021 882// 333 0//11 83703 87823 95900
AAXX 17124 60535 12565 83428 10086 20070 38830 48498 58011 60001 888// 333 0//00 84720 83826 86630 95900
AAXX 17124 60536 11560 72817 10125 20099 39349 48537 58003 60011 72166 872// 333 0//11 87830 95900
AAXX 17124 60549 12658 60000 10106 20068 38964 48560 58001 60001 86200 333 83710 84833 95960
AAXX 17124 60550 12460 83510 10070 20053 38695 48534 58005 60001 886// 333 88713 95970
AAXX 17124 60555 12965 43315 10206 20062 40176 58011 60001 80002 333 0//00 84073
AAXX 17124 60559 12960 63116 10181 20045 40164 58009 60001 81034 333 0//00 81360 86073
AAXX 17124 60581 12960 23108 10170 20014 40185 58011 60001 80002 333 82073
AAXX 17124 60602 12970 03304 10175 20035 40225 58009 60001 333 0//00 95900
AAXX 17124 60607 12960 00000 10162 21009 40217 58006 60001 333 0//00
AAXX 17124 60640 12960 23010 10205 20077 40175 58023 60001 82030 333 0//00 82360
AAXX 17124 60690 NIL
AAXX 17124 60351 11458 82208 10131 20118 40162 50000 60041 72162 8487/ 333 0//51 83816 84633 86358 95900
AAXX 17124 60355 12660 62910 10163 20052 40149 58001 69961 82800 333 0//14 82833 84840 95900
AAXX 17124 60445 11560 72816 10085 20028 39009 48490 58002 60001 70266 8623/ 333 0//13 86826 83360 95900
AAXX 17124 60468 11456 70214 10095 20073 39218 48490 58001 69911 76062 878// 333 0//11 81810 87823 95970
AAXX 17124 60507 11558 72820 10130 20121 40222 58003 60041 72162 8583/ 333 85830 83360 95900
AAXX 17124 60511 11460 82922 10094 20070 39071 48510 58011 60021 882// 333 0//11 83703 87823 95900
AAXX 17124 60535 12565 83428 10086 20070 38830 48498 58011 60001 888// 333 0//00 84720 83826 86630 95900
AAXX 17124 60536 11560 72817 10125 20099 39349 48537 58003 60011 72166 872// 333 0//11 87830 95900
AAXX 17124 60549 12658 60000 10106 20068 38964 48560 58001 60001 86200 333 83710 84833 95960
AAXX 17124 60550 12460 83510 10070 20053 38695 48534 58005 60001 886// 333 88713 95970
AAXX 17124 60555 12965 43315 10206 20062 40176 58011 60001 80002 333 0//00 84073
AAXX 17124 60559 12960 63116 10181 20045 40164 58009 60001 81034 333 0//00 81360 86073
AAXX 17124 60581 12960 23108 10170 20014 40185 58011 60001 80002 333 82073
AAXX 17124 60602 12970 03304 10175 20035 40225 58009 60001 333 0//00 95900
AAXX 17124 60607 12960 00000 10162 21009 40217 58006 60001 333 0//00
AAXX 17124 60640 12960 23010 10205 20077 40175 58023 60001 82030 333 0//00 82360
AAXX 17124 60690 NIL
AAXX 17124 89667 46/// /0504 11092 39906 4//// 5////
AAXX 17124 91945 36/// /0000 10225 20208 30113 40118 56018 333 10298
AAXX 17124 89667 46/// /0404 11095 29081 39907 4//// 5////
AAXX 1712/ 89872 46/// ///// 11100 39859 4//// 5////
AAXX 1712/ 89869 46/// ///// 11120 39845 4//// 5////
AAXX 1712/ 89866 46/// ///// 11058 39789 4//// 5////
AAXX 1712/ 89329 46/// ///// 11148 38790 4//// 5////
AAXX 1712/ 89799 46/// ///// 11249 4//// 5////
AAXX 1712/ 89327 46/// ///// 11023 39692 4//// 5////
AAXX 1712/ 89332 46/// ///// 11104 39290 4//// 5////
AAXX 1712/ 89769 46/// ///// 11095 39876 4//// 5////
AAXX 1712/ 89828 46/// ///// 11296 36525 4//// 5////
AAXX 1712/ 89108 46/// ///// 11270 36934 4//// 5////
AAXX 1712/ 89879 46/// ///// 11018 39750 4//// 5////
AAXX 1712/ 89314 46/// ///// 11143 38230 4//// 5////
AAXX 1712/ 89872 46/// ///// 11104 39859 4//// 5////
AAXX 1712/ 89869 46/// ///// 11119 39844 4//// 5////
AAXX 1712/ 89866 46/// ///// 11058 39789 4//// 5////
AAXX 1712/ 89332 46/// ///// 11104 39289 4//// 5////
AAXX 1712/ 89108 46/// ///// 11269 36932 4//// 5////
BBXX 46207 17121 99509 71299 46/// /2012 10092 40131 57012 22200 00085 11810 70051 333 91214
AAXX 17120 44210 NIL
AAXX 17120 44216 32999 22902 11322 21346 39135 40588 53008 80004 333 11255
AAXX 17120 44217 32998 00000 11198 21239 37890 40473 58010 333 11127
AAXX 17120 44219 329// 00000 11270 21294 38709 40538 53006 333 11222
AAXX 17120 44221 329// 00000 11327 21351 38689 40609 53007 333 11242
AAXX 17120 44224 129// 00000 11333 21356 38107 40613 51005 69922 333 11224
AAXX 17120 44229 32999 02701 11267 21291 37969 40540 53009 333 11204
AAXX 17120 44242 329// 01401 11323 21354 39484 40548 52003 333 11256
AAXX 17120 44243 329// 01402 11318 21353 39583 40547 53005 333 11223
AAXX 17120 44254 329// 02704 11183 21230 39129 40400 51006 333 11169
AAXX 17120 44257 329// 02904 11153 21211 39063 40417 53007 333 11125
AAXX 17120 44263 32998 00000 11283 21320 38117 40594 52006 333 11227
AAXX 17120 44266 NIL
AAXX 17120 44286 329// 01802 11240 21282 38749 40518 52011 333 11172
AAXX 17120 44291 319// 00000 11322 21359 38852 40601 53004 70400 333 11233
AAXX 17120 44325 NIL
AAXX 17120 44329 32998 02303 11177 21210 37794 40426 58001 333 11106
AAXX 17120 44338 32999 00000 11171 21221 38550 40437 52001 333 11095
AAXX 17120 44348 329// 20000 11180 21239 38780 40432 51008 82040 333 11147
AAXX 17120 44374 32999 00000 11137 21217 38313 40431 53007 333 11064
AAXX 17120 44385 32999 00000 11160 21230 39005 40439 52009 333 11089
AAXX 17120 44386 329// 00000 11212 21244 39166 40468 52008 333 11150
AAXX 17124 41257 36/// /1004 10257 20111 39665 40154 333 0E013 59005
BBXX 46207 17121 99509 71299 46/// /2012 10092 40131 57012 22200 00085 11810 70051 333 91214
AAXX 17124 87344 32962 02005 10239 20118 39593 40127 52008 333 10240 20153
AAXX 17124 87349 32970 00000 10234 20123 39744 40129 51012 333 10245 20146 30013
AAXX 17124 87371 32962 01605 10220 20154 30110 40131 52016 333 10233 20176
AAXX 17124 87374 32965 01811 10223 20148 30033 40119 52015 333 10223 20152
AAXX 17124 87395 32365 82308 10194 20168 30061 40106 52013 886// 333 10222 20160 56399 88707
AAXX 17124 87418 32765 11402 10256 20098 39345 40114 52011 81800 333 10274 20170 56300 81850
AAXX 17124 87436 32670 20203 10248 20098 39338 40127 52008 82500 333 10250 20160 56500 82640
AAXX 17124 87448 32965 00000 10230 20129 39582 40132 52008 333 10231 20088
AAXX 17124 87453 32965 02304 10222 20123 39648 40126 52008 333 10223 20130
AAXX 17124 87467 32970 02304 10214 20154 39990 40122 50012 333 10220 20116
AAXX 17124 87497 NIL
AAXX 17124 87506 32970 00000 10190 20090 38606 48531 53011 333 10192 20090 95000
AAXX 17124 87509 32970 01803 10242 20113 39294 40118 52008 333 10252 20138 30012
AAXX 17124 87534 32960 00000 10219 20110 39973 40132 52013 333 10221 20134 30009
AAXX 17124 87548 32962 01408 10184 20139 30029 40124 52008 333 10222 20134
AAXX 17124 87576 12460 71810 10189 20145 30092 40116 51007 69904 84606 333 10189 20144 56405 84714 85270
AAXX 17124 87582 11459 71808 10180 20142 30106 40113 51009 60134 71011 87570 333 10187 20158 30000 56330 57615 87360
AAXX 17124 87585 NIL
AAXX 17123 87480 32965 01408 10206 20145 30096 40125 52015 333 10230 20144
AAXX 17123 87532 32965 00000 10212 20141 39962 40130 51007 333 10233 20120
AAXX 17121 34560 41220 80906 11058 21061 30060 40234 57012 71042 886// 333 88703
AAXX 17121 34720 42599 71006 10041 20019 30082 40122 58005 87500
AAXX 17121 34730 41397 81110 10026 20012 30044 40137 57006 70252 886// 333 88707
AAXX 17121 34740 41596 81206 10023 20016 30057 40154 56007 71052 885//
AAXX 17121 34824 42997 81203 10095 20037 30088 40093 57009 85031
AAXX 17121 34858 41/93 91303 10025 20021 30071 40180 57007 75054 333 96045
AAXX 17121 34866 41498 81107 10006 21012 30216 40207 54001 70323 8667/
AAXX 17121 34880 42997 00803 11001 21039 30264 40238 56003
AAXX 17121 37018 42698 61405 10117 20051 30046 40120 58005 85830
AAXX 17121 37054 42598 81202 10040 20014 39783 40169 53002 885//
AAXX 17121 37472 41596 81305 10064 20053 30189 40167 53003 71022 8651/
AAXX 17121 22282 419// 81802 11002 21020 30040 40048 57019 77572 8802/
AAXX 17121 22438 NIL
AAXX 17121 22471 41384 82006 10011 20000 30021 40045 53003 72272 8872/ 333 86709
AAXX 17121 22563 41347 82103 10014 20011 30022 40061 53014 76176 8872/ 333 86708
AAXX 17121 22641 41499 81602 10016 20008 30009 40025 52019 70272 886// 333 88711 91105
AAXX 17121 22695 41397 81804 10002 21001 39999 40153 52016 70262 887// 333 87707
AAXX 17121 22867 NIL
AAXX 17121 22939 41496 81707 10014 20003 39907 40068 52006 78087 883// 333 84713
AAXX 17121 22996 41598 81906 11017 21031 30053 40247 52016 70272 885//
AAXX 17121 23324 41336 82103 11034 21042 30117 40196 58011 77372 8872/ 333 86707
AAXX 17121 27008 41497 81404 10020 20015 39878 40047 52003 76062 8672/
AAXX 17121 27051 42497 81605 10006 21005 39976 40144 52013 8655/ 333 86617
AAXX 17121 27225 41464 81707 10019 21015 39969 40100 52003 70276 885// 333 88618 91013 91114
AAXX 17121 27252 42584 81606 11003 21033 39995 40184 52001 8371/ 333 91114
AAXX 17121 27333 42480 81808 10008 21025 39982 40140 52005 887// 333 88711 91116
AAXX 17121 27369 42998 81804 11046 21094 30095 40237 52002 8801/
AAXX 17121 27393 42998 81806 11078 21119 30143 40320 52008 83032
AAXX 17121 27479 42999 81506 11107 21146 30133 40275 52005 82076
AAXX 17121 27532 42497 81805 11011 21030 39941 40158 52004 885//
AAXX 17121 27648 42497 81505 11054 21076 30030 40205 58002 8802/ 333 88513 91114
AAXX 17121 27675 42997 71505 11101 21145 30105 40285 52002 73632 87051
AAXX 17121 27679 42599 61503 11116 21151 30056 40294 58001 82541
AAXX 17121 28214 41999 81805 11053 21086 30126 40348 52016 73632 8807/
AAXX 17121 22165 41498 61205 10001 21002 39991 40052 58002 72052 86500
AAXX 17121 22676 41460 81605 10016 20002 30034 40113 52017 72162 8872/
AAXX 17121 22837 42499 81404 10026 20008 39968 40037 51008 886// 333 88714
AAXX 17121 22954 41358 81705 10003 21003 39858 40108 51010 78587 889// 333 86707
AAXX 17121 23405 41468 81504 11004 21013 30031 40131 57003 70272 885// 333 88612
AAXX 17121 23412 41496 81305 11042 21047 30075 40175 57010 77172 8872/ 333 86710
AAXX 17121 23803 41599 81906 11012 21025 30070 40253 51003 73632 889// 333 88930
AAXX 17121 27066 42498 81705 10003 21017 30017 40196 52006 888// 333 88712
AAXX 17121 27083 42499 81804 11018 21032 30008 40236 52010 885// 333 93403
AAXX 17121 27113 41358 81706 10011 20003 39937 40084 51006 78582 883// 333 86707
AAXX 17121 27242 42570 82005 10008 21016 30020 40149 52008 889// 333 88716 91114
AAXX 17121 27329 42575 81707 10010 21013 39998 40124 52003 885// 333 91113
AAXX 17121 27355 42498 81606 11016 21050 30034 40203 52006 885//
AAXX 17121 27373 42599 81406 11065 21097 30029 40257 52002 8357/ 333 93403
AAXX 17121 27665 42999 81506 11104 21167 39975 40262 52005 80001 333 91112
AAXX 17121 27835 41350 81604 11034 21048 30015 40178 58002 71022 886// 333 88709 91112
AAXX 17121 28009 41698 61805 11035 21071 30087 40305 52013 73632 86500
AAXX 17121 28411 42997 51503 11083 21115 30168 40374 52008 81031
AAXX 17121 28418 42980 51602 11072 21115 30201 40377 52010 82033
AAXX 17121 38954 42699 82802 11007 21101 37960 48550 57013 8652/
BBXX 3ERR2 17124 99635 10053 41598 63115 10049 21012 49909 52018 71582 84941 22200 06097 10909 70045 333 91122
BBXX LF3F 17124 99643 10078 43/// /2611 10049 21001 49896 52013 22200 04090 10806 70030 333 91112
BBXX LF3N 17124 99653 10073 41497 62312 10050 20009 49878 52014 72582 85330 22200 00091 10805 70025
BBXX LF4B 17124 99606 10037 47/97 /3428 10029 49933 52016 767// 22200 00056 10809 70045 333 91136
BBXX LF4C 17124 99584 10019 41498 53223 10060 20008 49984 52017 71588 82903 22200 00079 10808 70038 333 91134
BBXX LF5T 17124 99660 10081 41598 52315 10058 20011 49869 52016 70221 85/// 22200 10704 70021 333 91121
BBXX BAREU56 17124 99430 10098 46/// ///// 40030 52016 22232
BBXX BAREU08 17124 99371 70318 46/// ///// 40318 52023 22224
BBXX BAREU04 17124 99548 70054 46/// ///// 40092 52016 22283
BBXX BAREU00 17124 99511 70310 46/// ///// 40221 57002 22224
BBXX BAREU51 17124 99425 10109 46/// ///// 40017 52020 22274
BBXX BAREU12 17124 99539 10049 46/// ///// 49998 57004 22284
BBXX BAREU62 17124 99441 10095 46/// ///// 40021 22273
BBXX BATFR13 17124 99459 70132 44498 43215 10109 20035 40287 58002 70122 841// 22214 00137 20404 301// 41206 5////
BBXX BATFR16 17124 99478 70048 46/// /3124 10107 20022 40187 50007 22235 00137
BBXX BATFR41 17124 99425 10032 46/// /3035 10119 20024 40138 50004 22242
BBXX BATFR03 17124 99498 70005 46/// /3024 10079 20015 40114 51004 22244
BBXX BATEU04 17124 99589 10004 46/// /3428 10052 21043 40002 53004 22223
BBXX BATFR04 17124 99597 70110 46/// /2917 10057 21053 40107 53010 22200 00102
BBXX BATFR60 17124 99539 10092 46/// /3015 10064 20020 49962 51015 22223 00037
BBXX BATFR09 17124 99417 70098 44897 23517 10134 20019 40293 50002 70200 82100 22283 00162 20408
BBXX BATFR31 17124 99419 10087 46/// /2936 10120 40055 22262 00165
BBXX BATEU08 17124 99634 70226 46/// /2717 10027 21032 40102 51016 22263
BBXX BATFR42 17124 99503 70031 46/// /3135 10077 20009 40119 53004 22264 00127
BBXX BATEU06 17124 99546 70341 46/// /1615 10062 20019 40166 57038 22264 00072
BBXX BATFR46 17124 99412 10028 44/97 23119 10124 20045 40144 58004 701// 8//// 22253 00162 22004
BBXX BATFR02 17124 99506 70009 46/// /3131 10069 20014 40110 58011 22284 00109
BBXX 61001 17124 99434 10078 46/// /2923 10129 21008 40026 54000 22200 00151 10806 70032 555 1/029
BBXX BATFR12 17124 99477 70049 46/// /3122 10097 20039 40184 22261 00145
BBXX BATUK01 17124 99582 70064 46/// /3104 10030 21018 40095 51025 22200 00109
BBXX 61002 17124 99421 10047 46/// ///33 10114 20052 40140 52004 22200 00143 10807 70035 555 1/043
BBXX PCPR 17123 99387 70098 41398 43210 10162 20067 40300 52020 70311 84544 22283 04164 20100 331// 41006 80111
BBXX DCPC2 17124 99208 50840 41498 71115 10195 20125 40200 54000 70181 8646/ 22273 00190 2//// 3//// 4//// 5////
BBXX A8ZP9 17123 99031 11006 41597 734// 10280 40090 53010 71322 8571/ 22274 00290 2//// 3//// 4//// 5////
AAXX 17124 60395 11660 80000 10124 20113 40183 56006 60081 70262 8427/ 333 0//13 84840 86460 95900
AAXX 17124 60421 11556 82006 10084 20076 39130 48480 53001 60011 76066 882// 333 0//12 88830 95900
AAXX 17124 60423 11658 83018 10090 20070 39177 48456 50003 60061 70262 888// 333 0//12 83833 87640 95900
AAXX 17124 60430 11250 82810 10108 20080 40201 58004 60071 76065 888// 333 0//96 82703 83813 85820 95980
AAXX 17124 60437 11215 82815 10073 20066 38972 48478 58008 60071 72162 887// 333 0//51 84705 85816 95980
AAXX 17124 60444 11560 73008 10124 20055 39083 48503 53003 69911 72162 872// 333 0//11 87830 95900
AAXX 17124 60452 11560 7//// 10187 20132 40204 50000 69911 70262 872// 222// 2//// 333 0//12 87820 91826
AAXX 17124 60457 11560 83408 10158 20104 40206 58001 60031 72166 888// 333 0//51 84820 86826 95900
AAXX 17124 60514 12460 73030 10119 20088 39278 48521 57016 60001 875// 333 0//00 83713 85626 95940
AAXX 17124 60518 11465 72718 10157 20134 40211 58005 69971 70262 8627/ 222// 29904 333 0//13 82710 85820 91857 95900
AAXX 17124 60520 11560 82624 10142 20105 40218 58003 69921 72162 888// 333 0//11 84826 86630 95900
AAXX 17124 60540 12565 82611 10097 20054 39064 48526 58002 60001 8723/ 333 87826 95900
AAXX 17124 60560 12670 40812 10138 20063 38998 48547 58003 60001 83202 333 83840 95900
BBXX A8YW2 17124 99243 30577 41597 71021 10270 20193 40110 57020 70322 83279 22214 00230 20201 316// 40801 80220
BBXX A8IE7 17124 99187 10641 41598 20209 10270 40120 54000 70200 8/1// 22274 04270 21101
BBXX ELWP5 17121 99055 10018 41596 30000 10310 20227 40175 54000 70500 83217 22200 04270 20000 399// 4//// 5//// 80250
BBXX DILS 17123 99044 10026 41697 41303 10308 20272 40112 50000 71000 83540 22200 04290 20100 318// 40101 80282
BBXX A8VL5 17124 99139 10514 41397 20417 10230 20183 40250 56010 70200 81140 22265 00250 20302 30000 80200
BBXX BATFR19 17124 99065 30060 46/// /1822 10235 20194 40113 58025 22200 00255
BBXX BATFR05 17124 99063 10034 46/// /0904 10292 20244 40115 58014 22200 00260
BBXX BATFR56 17124 99194 30579 44998 70204 10260 20207 40097 56007 70222 86405 22200 00279
BBXX A8QJ7 17124 99016 50296 41/98 /1510 10280 20266 40124 51007 75011 8/5// 22213 06280 2//// 3//// 4//// 5//// 80270
BBXX C6OM8 17120 99086 50345 41698 31505 10283 20221 40152 52010 70311 82141 22253 06275 20504 314// 40705 5//// 80241
BBXX BATFR08 17124 99448 30739 46/// /2518 10109 20084 40182 58004 22212 00117
BBXX BATFR48 17124 99167 51492 46/// /1212 10269 20204 40117 56018 22212 00295
BBXX C6CU6 17123 99328 70455 41497 72403 10210 20198 40161 50012 70322 8756/ 22253 04210 20911 315// 41211 5//// 80202
BBXX BAREU05 17124 99434 70385 46/// ///// 40178 52006 22263
BBXX BAREU11 17124 99149 70723 46/// ///// 40143 52019 22213
BBXX BAREU06 17124 99459 70733 46/// ///// 40221 52023 22232
BBXX FVNM 17124 99058 70901 46/// /2016 10249 20224 40112 53007 22222 00259
BBXX BATEU01 17124 99465 70545 44796 82925 10024 21030 40101 51030 70022 8621/ 22224 00042 21006 327// 41006 5////
BBXX 41101 17124 99146 70562 46/// /0313 10261 20209 40130 52020 22200 00272 11004 70022
BBXX A8SF7 17121 99301 70792 41298 72909 10218 20179 40215 52005 70322 8677/ 22234 04240 21202 3//// 4//// 5//// 80192
AAXX 17124 60353 11458 82608 10134 20127 40168 56005 60071 76062 889// 333 0//11 84816 81926 86630 91845 95930
AAXX 17124 60367 11565 7//// 10165 20139 40133 53005 60101 76062 878// 333 0//51 83820 87840
AAXX 17124 60369 11559 83502 10165 20063 40184 58008 60071 76066 8288/ 333 0//12 82826 85460 91836
AAXX 17124 60401 NIL
AAXX 17124 60403 11565 72610 10142 20080 40158 58004 60021 70162 8683/ 333 0//53 83830 85836 95950
AAXX 17124 60425 11560 82403 10137 20105 40199 58008 60021 70162 86832 333 0//52 82826 85833 95900
AAXX 17124 60461 11565 60000 10190 20107 40215 58006 60001 70352 84202 222// 20000 333 0//16 84816 84073 91837 95900
AAXX 17124 60467 NIL
AAXX 17124 60492 11560 82408 10155 20141 40201 58003 60031 72162 882// 333 0//32 88830 95900
AAXX 17124 60515 12560 83020 10154 20085 40163 57017 60001 83802 333 0//00 83830 85070 95900
AAXX 17124 60517 11560 82711 10158 20126 40239 50001 69931 70260 8423/ 333 0//12 84826 86360 95900
AAXX 17124 60522 12570 72515 10154 20071 40240 58008 60001 86502 333 0//00 86630 95900
AAXX 17124 60557 12470 72812 10112 20046 38897 48542 58010 60001 876// 333 87710 95960
AAXX 17124 60563 12560 33314 10150 20075 39309 48522 58005 60001 82202 333 0//00 82830
AAXX 17124 60603 12960 02510 10188 20029 40196 57021 60001 333 0//00
AAXX 17124 60638 12960 0//// 10191 20077 40192 58018 60002 333 0//00
AAXX 17124 60686 12960 20707 10250 21030 40177 58011 60001 80002 333 0//00 82073
AAXX 17121 14235 12460 8//// 11023 21024 38829 48293 52024 69911 885// 333 70172
AAXX 17121 14246 11481 82403 10031 20000 39773 49976 52020 69901 7026/ 8582/ 333 70329
AAXX 17121 14314 12681 50103 10097 21031 39926 49989 53017 60001 82872 333 70027 92312 92428
AAXX 17121 14323 11681 70301 10075 21010 39955 49989 52016 60041 70226 87500 333 70351 92311 92418
AAXX 17121 14324 11/60 80903 11061 21069 38211 48326 53011 60041 77177 886// 333 70574
AAXX 17121 14328 11560 73401 10039 20012 39592 49985 53011 60051 7027/ 87500 333 70574
AAXX 17121 14330 12670 83301 10022 21004 39319 49986 52007 69961 885// 333 70453
AAXX 17121 14438 12681 70301 10092 20029 39883 49972 51023 60001 82402 333 70127 92311
AAXX 17121 14443 11698 832// 10100 20090 39895 49985 52012 60012 76166 8876/ 333 70009 92334
AAXX 17121 14447 11482 73503 10090 20049 39952 49982 50016 60051 70262 87200 222// 00173 333 70068 92322
AAXX 17121 14472 12670 63004 10145 20024 39920 49982 51003 60001 86200 222// 00170 333 70097 92323
AAXX 17121 08501 32/// /2205 10198 20124 30256 40292 52015 333 91014 91114 555 50004 60005
AAXX 17121 08505 32970 72502 10175 20151 30276 40326 52011 80002 333 87070 555 50004 60007
AAXX 17121 08506 32/// /9903 10175 20149 30258 40330 52010 333 91007 91108 555 59914 60005
AAXX 17121 08509 32560 62405 10180 20142 30256 40321 52012 81105 333 81816 86068 91110 555 50024 60007
AAXX 17121 08511 32470 72603 10174 20171 30220 40329 52011 82802 333 82811 87070 91006 91106 555 50004 60005
AAXX 17121 08512 32580 62503 10181 20143 30247 40332 52008 82802 333 81820 86070 91105 555 50004 60005
AAXX 17121 08515 32589 72402 10186 20126 30220 40343 52008 878// 222// 00180 333 81820 87640 910// 911// 555 50004 60007 912//
AAXX 17121 08521 NIL
AAXX 17121 08522 32/// /2402 10200 20099 30257 40326 52004 555 50004 60005
AAXX 17121 08524 32470 70104 10185 20107 30232 40330 52005 87800 333 82816 86630 91108 555 50004 60005
AAXX 17121 08530 NIL
AAXX 17121 08531 32/// /0602 10141 20072 30258 40297 57003 333 91105 555 50014 60005
AAXX 17121 08532 NIL
AAXX 17121 08533 32/// /0102 10155 20090 30270 40300 54000 333 91007 91109 555 50004 60005
AAXX 17121 08534 NIL
AAXX 17121 08535 32/// /9901 10142 20069 30204 40298 57004 333 91106 555 50014 60005
AAXX 17121 08537 NIL
AAXX 17121 08540 32560 49901 10126 20064 30228 40298 50002 81831 333 81820 83358 555 50034 60007
AAXX 17121 08541 32/// /3403 10135 20065 30178 40298 57004 333 91005 91106 555 50014 60005
AAXX 17121 08544 11560 49901 10118 20072 30271 40292 50001 69911 70152 83830 333 82820 555 50044 60007
AAXX 17121 08545 31562 79901 10122 20045 30211 40296 54000 70322 85832 222// 00146 333 82825 83635 85356 555 50044 60005
AAXX 17121 08548 32/// /2801 10100 20060 30088 40297 57003 555 50034 60005
AAXX 17121 08551 32/// /9901 10104 20082 30236 40295 57003 555 50034 60005
AAXX 17121 08554 32665 23404 10153 20041 30285 40295 57003 81501 333 81642 91007 91109 555 50004 60005
AAXX 17121 08558 32/// /3406 10120 20052 39991 40288 57002 333 91009 91109 555 50024 60005
AAXX 17121 08560 32/// /9902 10068 20024 39521 40293 52003 333 91105 555 50024 60005
AAXX 17121 08561 31570 43307 10118 20064 30060 40295 50003 70240 81101 333 81820 83072 555 59944 60007 96640 90317
AAXX 17121 08562 32/// /3404 10118 20049 39990 40287 57004 333 91008 91110 555 59934 60005
AAXX 17121 08567 32/// /9901 10081 20022 39613 40287 54000 555 50024 60005
AAXX 17121 08568 32/// /3106 10003 21003 38689 48555 52010 333 91011 91114 555 50134 60005
AAXX 17121 08570 32/// /3303 10110 20030 39820 40283 57003 333 91006 91106 555 50014 60005
AAXX 17121 08571 32/// /3204 10081 20026 39570 40285 57002 333 91008 91110 555 50064 60005
AAXX 17121 08575 32/// /3306 10075 21006 39451 40272 52001 333 91010 91112 555 50084 60005
AAXX 17121 08579 32/// /9901 10137 20069 30169 40295 57005 555 59984 60005
AAXX 17120 08534 32965 39901 10132 20111 30284 40302 50003 80001 333 83070 555 59934 60007
AAXX 17121 60370 16/// /3102 10149 20116 60121
AAXX 17121 60371 NIL
AAXX 17121 60372 16/// /3302 10118 20118 60091
AAXX 17121 60373 NIL
AAXX 17121 60374 NIL
AAXX 17121 60376 NIL
AAXX 17121 60379 NIL
AAXX 17121 60380 NIL
AAXX 17121 60381 NIL
AAXX 17121 60393 NIL
AAXX 17121 60394 NIL
AAXX 17121 60593 NIL
AAXX 17121 60595 NIL
AAXX 17121 60605 NIL
AAXX 17121 60613 NIL
AAXX 17121 60623 NIL
AAXX 17124 60624 36/// /0000 10206 21004
AAXX 17124 60639 NIL
AAXX 17124 60645 36/// /0000 10210 20018
AAXX 17121 13492 ///// 8//// 10000 769//
AAXX 17121 13584 NIL
AAXX 17121 13585 41698 82505 10110 20049 39197 49964 57010 75152 885// 333 91011 91115 91323 90661
AAXX 17121 13597 42698 52901 10176 20072 39911 49981 56012 85500
AAXX 17121 13598 42698 82304 10111 20004 48330 57010 885//
AAXX 17121 13463 12570 61604 10149 20070 39910 49968 57004 60031 83830
AAXX 17121 13459 12670 72505 10098 20025 39227 49968 58003 60041 85870 333 85696 86498
AAXX 17121 13461 12565 72304 10160 20096 39973 49980 50004 60061 87800 333 85825 92334 92447 92515
AAXX 17121 13363 NIL
AAXX 17121 40700 12960 32802 10086 21007 30087 40177 57013 60001 80008 333 83267
AAXX 17121 40723 11958 60000 10042 21015 38905 40206 55003 60001 70522 84055 333 84359 83267
AAXX 17121 40726 12660 50302 10052 20015 38647 401OW 57015 60001 83202 333 83840 85070
AAXX 17121 40727 12660 42605 10080 21016 38475 40191 56016 60001 84400 333 84640
AAXX 17121 40734 12970 40903 10112 20060 30201 40176 56011 60001 81036 333 81360 84269
AAXX 17121 40737 12960 00303 10124 20065 30155 40173 56017 60001 333
AAXX 17121 40741 11540 83003 10022 20012 39877 40225 55001 60001 71022 8672/ 333 86720 88460
AAXX 17121 40780 12960 22605 10128 21037 38697 40194 57010 60001 82100 333 82840
AAXX 17121 40791 12960 00000 10145 21044 39349 40177 56011 60001 333
AAXX 17121 40792 12970 02804 10092 21074 38711 40181 56004 60001 333
AAXX 17121 40794 12960 10000 10222 20030 30077 40175 56019 60001 80001 333 81070
AAXX 17121 40812 12960 00000 10214 20012 39784 40158 57015 60001 91140 333
AAXX 17121 40829 12960 00000 10167 21113 39585 40167 57011 60001 333
AAXX 17121 40833 12960 10000 10218 20091 30144 40176 57014 60001 80001 333 81070
AAXX 17121 40835 12970 00000 10204 20000 39334 40161 57010 60001 333
AAXX 17121 40845 12560 13503 10202 20169 30158 40163 57013 60001 81400 91145 333 81630
AAXX 17121 40882 11556 12303 10242 20124 30120 40155 56012 60001 70510 81100 333 81830
AAXX 17121 40889 12960 02304 10248 20140 30151 40156 56015 60001 222// 00255 20400 333
AAXX 17121 40890 11958 00000 10240 20134 30140 40147 56010 60001 70500 222// 00240 20300 333
AAXX 17121 40893 12960 02303 10250 20168 30141 40147 57015 60001 222// 00230 20502 333
AAXX 17121 40897 159690 21903 10256 20052 30130 40144 56018 60001 80001 333 82067
AAXX 17121 40700 12960 32802 10086 21007 30087 40177 57013 60001 80008 333 83267
AAXX 17121 40723 11958 60000 10042 21015 38905 40206 55003 60001 70522 84055 333 84359 83267
AAXX 17121 40726 12660 50302 10052 20015 38647 401OW 57015 60001 83202 333 83840 85070
AAXX 17121 40727 12660 42605 10080 21016 38475 40191 56016 60001 84400 333 84640
AAXX 17121 40734 12970 40903 10112 20060 30201 40176 56011 60001 81036 333 81360 84269
AAXX 17121 40737 12960 00303 10124 20065 30155 40173 56017 60001 333
AAXX 17121 40741 11540 83003 10022 20012 39877 40225 55001 60001 71022 8672/ 333 86720 88460
AAXX 17121 40780 12960 22605 10128 21037 38697 40194 57010 60001 82100 333 82840
AAXX 17121 40791 12960 00000 10145 21044 39349 40177 56011 60001 333
AAXX 17121 40792 12970 02804 10092 21074 38711 40181 56004 60001 333
AAXX 17121 40794 12960 10000 10222 20030 30077 40175 56019 60001 80001 333 81070
AAXX 17121 40812 12960 00000 10214 20012 39784 40158 57015 60001 91140 333
AAXX 17121 40829 12960 00000 10167 21113 39585 40167 57011 60001 333
AAXX 17121 40833 12960 10000 10218 20091 30144 40176 57014 60001 80001 333 81070
AAXX 17121 40835 12970 00000 10204 20000 39334 40161 57010 60001 333
AAXX 17121 40845 12560 13503 10202 20169 30158 40163 57013 60001 81400 91145 333 81630
AAXX 17121 40882 11556 12303 10242 20124 30120 40155 56012 60001 70510 81100 333 81830
AAXX 17121 40889 12960 02304 10248 20140 30151 40156 56015 60001 222// 00255 20400 333
AAXX 17121 40890 11958 00000 10240 20134 30140 40147 56010 60001 70500 222// 00240 20300 333
AAXX 17121 40893 12960 02303 10250 20168 30141 40147 57015 60001 222// 00230 20502 333
AAXX 17121 40897 159690 21903 10256 20052 30130 40144 56018 60001 80001 333 82067
AAXX 17121 40700 12960 32802 10086 21007 30087 40177 57013 60001 80008 333 83267
AAXX 17121 40723 11958 60000 10042 21015 38905 40206 55003 60001 70522 84055 333 84359 83267
AAXX 17121 40726 12660 50302 10052 20015 38647 401OW 57015 60001 83202 333 83840 85070
AAXX 17121 40727 12660 42605 10080 21016 38475 40191 56016 60001 84400 333 84640
AAXX 17121 40734 12970 40903 10112 20060 30201 40176 56011 60001 81036 333 81360 84269
AAXX 17121 40737 12960 00303 10124 20065 30155 40173 56017 60001 333
AAXX 17121 40741 11540 83003 10022 20012 39877 40225 55001 60001 71022 8672/ 333 86720 88460
AAXX 17121 40780 12960 22605 10128 21037 38697 40194 57010 60001 82100 333 82840
AAXX 17121 40791 12960 00000 10145 21044 39349 40177 56011 60001 333
AAXX 17121 40792 12970 02804 10092 21074 38711 40181 56004 60001 333
AAXX 17121 40794 12960 10000 10222 20030 30077 40175 56019 60001 80001 333 81070
AAXX 17121 40812 12960 00000 10214 20012 39784 40158 57015 60001 91140 333
AAXX 17121 40829 12960 00000 10167 21113 39585 40167 57011 60001 333
AAXX 17121 40833 12960 10000 10218 20091 30144 40176 57014 60001 80001 333 81070
AAXX 17121 40835 12970 00000 10204 20000 39334 40161 57010 60001 333
AAXX 17121 40845 12560 13503 10202 20169 30158 40163 57013 60001 81400 91145 333 81630
AAXX 17121 40882 11556 12303 10242 20124 30120 40155 56012 60001 70510 81100 333 81830
AAXX 17121 40889 12960 02304 10248 20140 30151 40156 56015 60001 222// 00255 20400 333
AAXX 17121 40890 11958 00000 10240 20134 30140 40147 56010 60001 70500 222// 00240 20300 333
AAXX 17121 40893 12960 02303 10250 20168 30141 40147 57015 60001 222// 00230 20502 333
AAXX 17121 40897 159690 21903 10256 20052 30130 40144 56018 60001 80001 333 82067
AAXX 17121 23914 42499 81805 11047 21049 30057 40324 54000 8377/
AAXX 17121 23921 41697 70000 11055 21062 30195 40319 53003 70282 85530
AAXX 17121 23955 32984 32401 11254 21270 30399 40469 54000 80001 333 11252
AAXX 17121 23966 32999 00000 11264 21289 30314 40457 52005 333 11239
AAXX 17121 28138 42599 72402 11077 21087 39797 40385 52006 87500
AAXX 17121 28224 42898 81803 11074 21117 30153 40378 52008 82017
AAXX 17121 28255 42994 80000 11140 21153 30268 40408 52002 8807/
AAXX 17121 28440 42597 61701 11037 21075 30040 40403 52007 86300
AAXX 17121 28645 41997 81602 11070 21083 30115 40426 52008 70272 8807/
AAXX 17121 28661 41996 21701 11223 21248 30358 40462 52010 71000 80001
AAXX 17121 28722 41996 02301 11118 21138 30260 40401 52003 71011
AAXX 17121 28748 42960 61602 11104 21116 30182 40439 52010 86030
AAXX 17121 28838 42997 81601 11059 21078 39926 40426 52007 8807/
AAXX 17121 29231 32998 20000 11284 21308 30391 40502 52009 333 11243
AAXX 17121 29313 32998 00000 11297 21318 30363 40504 52008 333 11251
AAXX 17121 29612 32998 03602 11265 21284 30305 40477 52003 333 11244
AAXX 17121 29638 31996 03601 11208 21227 30267 40451 53005 71011 333 11163
AAXX 17121 29838 12997 00000 11225 21243 30180 40440 53004 69902 333 11178
AAXX 17121 29846 31916 80601 11191 21203 30018 40441 53005 71022 84031 333 11171
AAXX 17121 36061 32997 00000 11195 21207 39984 40431 53006 333 11162
AAXX 17124 89022 42984 11505 11049 21083 39740 49777 57012 81070 333 11049 21106 81358
AAXX 17124 89062 42686 13306 10013 21093 39945 49986 52029 81500 333 10020 21012 81630
AAXX 17121 28049 42997 71706 11073 21080 30189 40361 52004 87030
AAXX 17121 28144 42998 82102 11036 21059 30202 40365 52005 8807/
AAXX 17121 28319 42498 61702 11073 21107 30205 40379 52006 83550
AAXX 17121 28321 42599 61503 11084 21112 30161 40375 52008 82532
AAXX 17121 28334 42598 62201 11069 21102 30085 40405 52008 82545
AAXX 17121 28434 42598 70000 11105 21124 30133 40408 52005 81501
AAXX 17121 28552 41596 80902 11170 21192 30316 40440 53007 70511 885//
AAXX 17121 28666 42999 21101 11235 21260 30273 40470 52019 80001
AAXX 17121 28825 41996 00000 11108 21129 30220 40404 54000 71000
AAXX 17121 29111 32998 01901 11271 21292 30396 40496 52005 333 11234
AAXX 17121 29209 32998 00000 11299 21317 30363 40509 52012 333 11245
AAXX 17121 29551 NIL
AAXX 17121 29602 32998 00502 11296 21326 30316 40478 52004 333 11260
AAXX 17121 29636 32998 00000 11160 21179 30220 40458 53011 333 11155
AAXX 17121 29654 32999 50000 11155 21182 39777 40438 53004 81031 333 11099
AAXX 17121 29712 32098 00302 11249 21274 30290 40451 54000 333 11249
AAXX 17121 29724 31996 00102 11245 21264 30225 40453 53006 71000 333 11227
AAXX 17121 29726 12998 00000 11252 21271 30272 40461 53008 69902 333 11209
AAXX 17121 29814 12999 00304 11243 21268 30293 40459 52012 69902 333 11226
AAXX 17121 29827 32997 20201 11231 21249 30265 40437 53006 82030 333 11190
AAXX 17121 29923 32999 00401 11235 21260 30136 40443 53007 333 11199
AAXX 17121 29939 12997 50301 11222 21247 30121 40436 53002 69902 82031 333 11175
AAXX 17121 35026 42597 51401 11077 21099 39745 40416 53006 85500
AAXX 17121 36021 11598 80502 11226 21244 30226 40426 53009 60012 78582 83902 333 11217
AAXX 17121 36022 32998 80303 11239 21257 30136 40428 53006 80001 333 11230
AAXX 17121 36038 12999 00000 11162 21188 39933 40410 57001 69922 333 11125
AAXX 17121 36058 32699 30000 11130 21136 39860 40417 53008 83500 333 11091
AAXX 17121 36064 32599 80901 11100 21144 39779 40405 53006 81608 333 11066
AAXX 17121 36229 32999 20000 11202 21210 39175 40453 53002 82070 333 11155
AAXX 17121 36259 32699 80000 11210 21250 38286 48576 53004 82902 333 11210
AAXX 17121 23909 41397 82005 11031 21038 30044 40299 52004 73632 886//
AAXX 17121 28044 42597 71601 11037 21056 30177 40346 52006 86530
AAXX 17121 28116 42899 81303 11051 21080 30010 40342 52010 8807/
AAXX 17121 28240 42598 82001 11052 21074 30051 40388 52008 885//
AAXX 17121 28522 42997 81802 11069 21093 30133 40405 52008 8805/
AAXX 17121 28621 42998 71403 11070 21100 30143 40388 52005 87030
AAXX 17121 29023 32998 01801 11281 21305 30380 40491 52005 333 11256
AAXX 17121 29122 32999 00000 11300 21317 30417 40501 52008 333 11239
AAXX 17121 29328 32998 03501 11257 21281 30335 40493 52005 333 11210
AAXX 17121 29348 32997 00000 11252 21270 30324 40488 53003 333 11225
AAXX 17121 29405 32997 03602 11276 21300 30331 40499 52011 333 11248
AAXX 17121 29418 32998 00000 11244 21276 30312 40492 53010 333 11228
AAXX 17121 29430 32998 20301 11182 21201 30287 40480 53007 80001 333 11163
AAXX 17121 29524 32998 00402 11212 21230 30289 40471 52003 333 11192
AAXX 17121 29605 32998 00402 11276 21287 30319 40481 52010 333 11253
AAXX 17121 29631 32997 10404 11179 21198 30254 40457 53008 80001 333 11172
AAXX 17121 29645 32998 23203 11146 21181 30241 40443 53005 80001 333 11108
AAXX 17121 29706 32998 00404 11266 21290 30300 40467 52012 333 11251
AAXX 17121 29736 31996 20000 11236 21255 30174 40454 53008 70411 80001 333 11199
AAXX 17121 29937 32997 03501 11209 21234 30187 40431 53005 333 11190
AAXX 17121 36034 11996 80403 11218 21236 30122 40428 53005 69902 71072 80002 333 11218
AAXX 17121 36096 11996 70201 11263 21294 39675 40552 53002 69932 77172 83035 333 11250 95090
AAXX 17121 11157 11350 82606 10006 21039 39237 40007 52021 69941 76186 878// 333 82708 87627 91113 91207
AAXX 17121 53588 32980 22904 11108 21204 37823 52011 80002
AAXX 17121 53772 31920 42502 11043 21113 39391 40371 52020 70400 80002
AAXX 17121 54342 32960 00901 11136 21177 30255 40322 52011
AAXX 17123 64800 NIL
AAXX 17123 64820 NIL
AAXX 17123 64860 31940 70000 10301 20041 39842 40111 70522 80002 333 0//00 59007 87080
AAXX 17123 64861 NIL
AAXX 17123 64870 32560 51006 10287 20005 38904 48502 80002 333 0//00 59003 85080
AAXX 17123 64871 NIL
AAXX 17123 64892 NIL
AAXX 17123 64893 NIL
AAXX 17123 64894 NIL
AAXX 17124 64910 31535 72206 10313 20249 30096 40105 70599 86302 333 58000 86820 81923 87080 94945 95835
AAXX 17124 64911 NIL
AAXX 17124 64950 NIL
AAXX 17121 53564 32975 00000 11114 21186 39304 40418 52015 333 05102
AAXX 17121 53959 32960 80701 10010 21083 39886 40351 52018 8802/
AAXX 17121 54161 32962 02202 11135 21217 39986 40304 52003
AAXX 17121 54292 32970 02502 11107 21220 39936 40280 52015
AAXX 17121 51076 32980 70000 11158 21185 39443 40401 57004 80002 333 05200
AAXX 17121 52533 32970 71103 11060 21145 38601 40393 57001 80002 333 00103
AAXX 17121 53915 32762 70902 11021 21058 38750 40359 52023 875// 333 00002
AAXX 17121 54511 32965 03401 11034 21170 30289 40332 52016
AAXX 17121 56080 32970 03402 11090 21149 37177 52030 333 00354
AAXX 17123 87016 32560 33608 10225 20184 39722 40122 50008 83800 333 10269 20198 56800 81820 83625
AAXX 17123 87896 31965 01802 10164 20140 39980 40074 5//// 70400 333 10186 2////
AAXX 17124 87078 NIL
AAXX 17124 87244 32970 23205 10236 20148 39745 40132 5//// 82030 333 10239 20142 56050 82360
AAXX 17124 87393 11456 62310 10206 20167 30045 40107 52017 69904 70421 86800 333 10230 20159 56500 85616 83830
AAXX 17124 87416 32965 02305 10229 20128 39398 40124 52009 333 10257 20168 30016
AAXX 17124 87563 NIL
AAXX 17124 87640 31565 21405 10175 20135 30033 40143 52010 702// 81105 333 10211 20096 30008 56300 81833
AAXX 17124 87688 32462 70902 10166 20119 30014 40151 51007 87500 333 10166 20110 56200 87614
AAXX 17124 87774 32982 32705 10213 20027 39133 48501 5//// 80006 333 10213 20118 56006 83270
AAXX 17124 87852 32984 02315 10168 20073 39601 40094 57010 333 10203 20085
AAXX 17123 NIL
AAXX 17121 50844 32962 02904 11108 21209 40262 57005
AAXX 17121 50854 32965 00000 11150 21212 40262 57003
AAXX 17121 50968 32962 02503 11161 21195 40285 52005
AAXX 17121 51379 11770 71602 11152 21174 40411 57002 69901 70070 84502 333 05353
AAXX 17121 51467 32980 31604 11075 21133 38283 52015 80002 333 05252
AAXX 17121 51495 32980 30000 11056 21156 40361 52001 80002 333 05151
AAXX 17121 53480 32980 02201 11137 21200 40448 52015
AAXX 17121 53673 32961 40000 11072 21128 40393 52018 80002
AAXX 17121 53698 32962 01601 11007 21077 40345 52024
AAXX 17121 53898 32960 71601 11007 21055 40333 52017 80002
AAXX 17121 54308 32980 03206 11089 21206 40392 52019
AAXX 17121 54602 32960 53201 11060 21113 40339 52016 80002
AAXX 17121 54725 32965 22502 11023 21088 40343 52013 80002
AAXX 17121 54751 32965 02906 10011 21062 40320 54000
AAXX 17121 54916 32962 20000 11033 21063 40348 52012 80002
AAXX 17121 57014 11965 81403 10002 21025 40340 52027 69911 70070 8807/ 333 00201
AAXX 17121 57025 31958 73201 11010 21078 40362 52024 70500 8703/
AAXX 17121 57046 11460 80701 11050 21051 37990 52015 69901 77070 885// 333 00000
AAXX 17121 58208 32965 70903 10030 21064 40328 52011 8703/
AAXX 17121 52418 32980 20901 11069 21144 38950 40356 57005 80002 333 05253
AAXX 17121 52681 32980 71101 11066 21163 38731 40412 52014 86032 333 00203
AAXX 17121 51431 32772 73201 11045 21086 39499 40333 57006 85502 333 05601
AAXX 17121 52203 32980 33201 11061 21156 39417 40357 52001 80002 333 05101
AAXX 17121 53798 32960 70000 11017 21072 30235 40337 52013 80002
AAXX 17121 54423 32980 02702 11060 21204 39810 40366 52023
AAXX 17121 54618 32962 60000 11036 21088 30319 40338 52017 80002
AAXX 17121 56778 32565 12502 10099 20045 38123 52020 81100 333 05204
AAXX 17121 52652 32965 72702 11107 21164 38624 40419 52011 80002 333 00253
AAXX 17121 52983 31957 72201 11063 21102 38170 52021 70500 80002 333 00200
AAXX 17121 56096 32770 72501 10058 21018 39028 40298 52034 86502 333 00200
AAXX 17121 51133 32980 20000 11108 21145 39677 40376 57001 80002 333 05501
AAXX 17121 51747 32980 00000 11084 21144 38994 40385 52001 333 05253
AAXX 17121 53646 32970 23603 11063 21139 38956 40396 52017 80002 333 00004
AAXX 17121 54843 32966 02501 11036 21098 30309 40339 52006
AAXX 17121 57127 32960 82001 10049 20008 39694 40320 52028 8807/
AAXX 17121 34357 41498 80807 11054 21061 30050 40217 57008 70272 886//
AAXX 17121 34363 41396 80705 11121 21128 30116 40279 55004 71022 886// 333 93614
AAXX 17121 34545 41396 81307 11017 21019 30073 40188 57007 71022 886//
AAXX 17121 34579 41996 00803 11063 21067 30210 40255 57008 71011 333 93603
AAXX 17121 34838 42997 81504 10083 20033 30027 40122 56011 83049
AAXX 17121 34927 42997 30901 10094 20023 30075 40111 57006 80030
AAXX 17121 34949 42498 81308 10034 20011 39605 40152 55002 8655/ 333 88611
AAXX 17121 37001 42597 61910 10108 20088 30051 40091 55007 82532
AAXX 17121 37031 42997 51504 10073 20009 39936 40130 57002 85030
AAXX 17121 37061 41495 81204 10053 20050 30003 40169 55000 75154 886//
AAXX 17121 37085 42/// /1108 10056 20036 30211 40238 53002
AAXX 17121 37126 42999 63203 10011 21206 37894 48456 54000 83031
AAXX 17121 37171 42998 21402 10127 20062 30110 40128 58004 80001
AAXX 17121 37228 41/93 90301 11019 21025 39318 40171 53004 74542
AAXX 17121 37470 42598 73603 10080 20044 30181 40159 55004 87500
AAXX 17121 37663 42999 10906 10036 21011 38959 48440 53003 80001
AAXX 17121 57265 32963 80000 10039 21038 30215 40331 52017 8803/
AAXX 17121 57494 32968 72901 10047 20001 30287 40318 52013 8703/
AAXX 17121 58457 31957 03601 10020 21115 30285 40341 52006 70500
AAXX 17121 58752 32966 00402 10070 21002 30279 40327 52014
AAXX 17121 51243 11865 70000 11105 21115 39796 40393 52003 69901 70070 82502 333 05302
AAXX 17121 51463 11770 70901 11107 21124 39207 40388 52001 69921 77070 85502 333 05353
AAXX 17121 51573 32970 71601 11042 21117 30313 40360 54000 80002 333 05151
AAXX 17121 51709 11862 81402 11040 21068 38778 40325 57001 69901 77070 885// 333 05251
AAXX 17121 54401 32970 03603 11061 21191 39455 40384 52015
AAXX 17121 58102 32970 00901 10006 21084 30296 40347 52012
AAXX 17121 58362 32568 10702 10026 21027 30333 40342 52009 81100
AAXX 17121 59431 32660 83201 10146 20069 30089 40238 52016 885//
AAXX 17124 87593 02560 62011 10175 20148 30080 40107 53/// 69954 86500 333 10177 20150 56400 69952 86625
AAXX 17124 87623 31965 00502 10208 20134 39914 40136 50005 70600 333 10236 20127
AAXX 17124 87641 32365 41806 10172 20105 39962 40136 50001 82601 333 10181 20099 30009 56300 82709 83070
AAXX 17124 87645 32470 51611 10171 20121 39926 40132 50001 81550 333 10171 20116 56360 81613 85363
AAXX 17124 87648 12460 81810 10178 20147 30098 40109 57004 69904 8367/ 333 10178 20147 56459 83710 88360
AAXX 17124 87692 31458 81616 10172 20137 30106 40132 50003 71022 888// 333 10172 20164 56399 85615 83820
AAXX 17124 87715 32965 02706 10248 20120 39810 40114 52012 333 10303 20174
AAXX 17124 87750 32965 00910 10187 20113 30045 40143 50001 333 10187 20108
AAXX 17124 87765 31959 00000 10139 20062 39210 48521 57004 70400 333 10230 20068 96104 96120
AAXX 17124 87784 32980 03406 10222 20116 30106 40129 57003 333 10221 20200
AAXX 17124 87791 32980 03610 10200 20120 30138 40146 50000 333 10210 20136
AAXX 17124 87800 32680 20000 10179 20128 39776 40163 20138 82100 333 10254 20060 56600 82848
AAXX 17124 87803 31975 02713 10177 20052 39226 40115 57008 70400 333 10232 20097
AAXX 17124 87828 31970 02303 10224 20131 30062 40112 50007 70400 333 10226 20170
AAXX 17124 87860 32980 02718 10240 20069 30032 40086 58005 333 10284 20185
AAXX 17124 87904 31980 03603 10172 20063 39826 40064 5//// 702// 333 10178 20068
AAXX 17124 87909 12980 00000 10176 20118 39998 40072 57021 69904 333 10176 20097
AAXX 17124 87925 32980 20909 10172 20105 30041 40063 57021 80008 333 10180 20110 56000 82270
AAXX 17124 87938 32580 50902 10133 20028 30014 40084 58009 85500 333 10134 20102 56500 85630
AAXX 17121 58238 31958 00702 11002 21101 30293 40340 52006 70500
AAXX 17121 58251 31957 03601 11017 21063 30335 40340 52004 71000
AAXX 17121 58606 32962 70902 10061 21062 30247 40308 52009 8704/
AAXX 17121 58847 32975 00402 10088 21016 30196 40302 52014
AAXX 17121 59117 32968 02201 10113 20066 30142 40251 52018
AAXX 17121 59134 32967 00704 10111 21030 30103 40276 52021
AAXX 17121 59287 32961 23601 10107 20070 30160 40248 52018 80002
AAXX 17121 59316 32762 40704 10135 20071 30253 40258 52020 84500
AAXX 17121 59758 32468 70706 10177 20142 30138 40215 52014 878//
AAXX 17124 71551 16/// /2407 11056 21084 39531 40202 58003 60001 333 10003 21063 70000
AAXX 17124 71300 17/// /3207 11112 21150 30120 40247 53021 69931 7//4/ 333 10073 21113 70006
AAXX 17124 71309 16/// /2303 11239 21267 30224 40236 50002 60001 333 11125 21245 4/021 70000
AAXX 17124 71332 16/// /0307 11228 21252 30080 40110 58002 60001 333 11202 21228 4/011 70000
AAXX 17124 71340 16/// /0805 11026 21041 60001 333 11024 21101 70000
AAXX 17124 71341 16/// /2213 10051 21012 60001 333 10049 20029 70000
AAXX 17124 71342 16/// /2211 11058 21086 60001 333 11016 21081 70000
AAXX 17124 71344 16/// /2312 11006 21056 60001 333 10016 21041 70000
AAXX 17124 71347 16/// /1505 10005 20001 60001 333 11024 21104 70000
AAXX 17124 71348 16/// /1105 10003 21002 60001 333 10021 21067 70000
AAXX 17124 71349 46/// ///// 11076 21091 6///1 333 11007 21084 7////
AAXX 17124 71423 16/// /3114 11092 21125 30121 40131 51040 60001 333 10040 21093 70013
AAXX 17124 71434 16/// /2006 11254 21279 30079 40149 58021 60001 333 11215 4/009 70000
AAXX 17124 71269 16/// /2316 11019 21042 60001 333 11019 21047 70000
AAXX 17124 71285 46/// /1603 11056 21069 6///1 333 11003 21097 7////
AAXX 17124 71296 17/// /3402 11103 21116 39939 40254 51016 69961 7//4/ 333 10047 4/006 70029 555 10060
AAXX 17124 71421 16/// ///// 11212 21239 39381 40121 52017 60001 333 10000 21212 7////
AAXX 17124 71435 17/// /1804 11158 21170 39589 40215 56022 69931 7//4/ 333 11132 21262 4/016 70009
AAXX 17124 71107 16/// /3607 10072 20069 30009 40121 50005 60001 333 10084 20072 70000
AAXX 17124 71066 11074 00000 11152 21181 39666 40094 56024 60001 333 11013 21194 47017 70000
AAXX 17124 71667 16/// /2304 11210 21237 39973 40234 58033 60001 333 11116 21227 4/007 70003
AAXX 17124 71682 16/// /1301 11246 21266 39824 40064 57023 60001 333 11134 21263 70000
AAXX 17124 71737 16/// /3103 11163 21186 39680 40223 53015 60001 333 10029 21163 70000
AAXX 17124 71743 16/// /2509 11199 21222 39805 40027 53005 60001 333 11139 21201 4/001 70000
AAXX 17124 71746 16/// /3308 11020 21088 30030 40256 51003 60001 333 10010 21022 70000
AAXX 17124 71748 16/// /2810 11051 21071 39843 40139 55005 60001 333 11078 21127 70000
AAXX 17124 71622 17/// ///// 11045 21060 39908 40254 51012 60011 7//4/ 333 10013 21045 70017
AAXX 17124 71364 17/// /1202 11237 21262 39972 40111 51002 69951 7//4/ 333 11240 21264 4/021 70020
AAXX 17124 71374 46/// /3224 11111 21148 6///1 333 10033 21119 7////
AAXX 17124 71387 16/// /3403 11167 21200 39811 40209 51020 60001 333 10037 21167 70000
AAXX 17124 71018 16/// ///05 11241 21270 39952 40041 56007 60001 333 11194 21241 4/002 70000
AAXX 17124 71063 16/// /3210 11112 21149 30148 40250 53019 60001 333 10074 21112 70000
AAXX 17124 71924 11874 10419 11240 21285 39952 40043 56003 69901 77677 81030 333 11232 21247 48037 55/// 79999 90983
AAXX 17124 71228 16/// /1305 11080 21104 60001 333 10000 21080 70000
BBXX ELWO6 17123 99206 70180 41598 20416 10232 20170 40200 52015 70100 81441 22284 00211 20802 304// 41004 80191
BBXX A8ZS7 17124 99314 30326 41598 40812 10245 20152 40195 58010 70300 84100 22254 04220 20401 314// 40602 80185
BBXX DAJT 17124 99069 30797 41398 52715 10275 20234 40015 56015 70022 8/6// 22254 04280 2//03 80245
BBXX A8UA9 17124 99350 70070 43298 63112 10170 20154 40300 52040 86622 22253 00160 20506 80160
BBXX DFVY2 17124 99270 50475 41998 03109 10250 20225 40079 53011 70200 22244 00230 10804 70020 80232
AAXX 17124 71752 16/// /3208 11027 21078 30024 40246 51017 60001 333 10037 21027 4/005 70000
AAXX 17124 71903 46/// /2503 10053 20051 30072 40121 5/015 6///1 333 7////
AAXX 17124 71186 46/// /2916 11128 21176 6///1 333 10033 21128 7////
AAXX 17124 71190 46/// /3019 11088 21141 6///1 333 10053 21091 7////
AAXX 17124 71503 46/// /0202 11197 21217 39818 40098 58006 6///1 333 11184 21241 4/006 7////
AAXX 17124 71506 46/// /3603 11237 21257 39138 40052 53003 6///1 333 11215 21245 7////
AAXX 17124 71539 16/// /2709 11067 21101 39507 40219 58002 60001 333 11021 21071 55/// 20000 70000
AAXX 17124 71976 46/// /2615 11255 21283 39295 49939 51004 6///1 333 11215 21258 7////
AAXX 17124 71066 11074 00000 11152 21181 39666 40094 56024 60001 333 11013 21194 47017 70000
AAXX 17124 71924 11874 10419 11240 21285 39952 40043 56003 69901 77677 81030 333 11232 21247 48037 55/// 79999 90983
AAXX 17124 71421 16/// ///// 11212 21239 39381 40121 52017 60001 333 10000 21212 7////
AAXX 17124 71435 17/// /1804 11158 21170 39589 40215 56022 69931 7//4/ 333 11132 21262 4/016 70009
AAXX 1712/ 89828 46/// ///// 11293 36524 4//// 5////
AAXX 1712/ 89868 46/// ///// 11130 39866 4//// 5////
AAXX 17121 48826 31796 80502 10166 20122 30073 40212 53010 71022 885// 333 00018 10195 59017 70000 88697
AAXX 17121 48839 32497 80507 10180 20134 30144 40211 53013 888// 222// 00187 2//02 333 00/// 10180 59013 70000 83894 88696
AAXX 17121 48830 32797 83601 10142 20084 39909 40224 52013 885// 333 00015 10162 59012 70000 88697
AAXX 17121 48808 32498 82001 10148 20104 39932 40224 52014 888// 333 00016 10186 59014 70000 83894 88696
AAXX 17121 28216 42899 81803 11069 21107 30065 40362 57009 8802/
AAXX 17121 28428 42597 71902 11078 21104 30202 40399 52006 87500
AAXX 17121 28451 42997 81902 11097 21114 30249 40418 52008 8807/
AAXX 17121 28541 42584 50000 11051 21068 39899 40413 52008 85500
AAXX 17121 28655 42998 62002 11169 21186 30199 40443 52006 86030
AAXX 17121 28756 42997 01301 11265 21292 30301 40470 53009
AAXX 17121 29557 32998 20000 11212 21224 30183 40478 53007 80001 333 11176
AAXX 17121 29625 12997 00201 11225 21243 30262 40461 53007 69902 333 11189
AAXX 17121 29813 32999 00403 11228 21253 30236 40436 53008 333 11209
AAXX 17121 29822 31996 02901 11256 21281 30264 40449 53005 71000 333 11239
AAXX 17121 29915 12998 20402 11221 21240 30257 40433 53012 69932 80002 333 11215
AAXX 17121 36020 32998 20604 11218 21236 30211 40434 52003 80002 333 11214
BBXX 42362 17121 99278 70907 46/// /0307 10211 20189 40247 91215
BBXX 42363 17121 99282 70892 46/// /0309 10206 20161 40251 91215 333 91209
BBXX 42364 17121 99291 70881 46/// /3609 10194 20167 40251 91215
BBXX 46248 17121 99461 71247 46/// ///// 1//// 91204 22200 00095 12005 21003 329// 42005 70027
AAXX 17124 87497 01565 52012 10186 20152 30089 40116 52013 60024 70262 82506 333 10195 20148 56405 60022 82620 83270
AAXX 17124 87585 12460 71404 10184 20152 30081 40110 52012 60024 83676 333 10190 20148 30015 56444 83710 84270
BBXX 46237 17121 99378 71226 46/// ///// 1//// 91210 22200 00111 11503 20802 325// 41502 70014
AAXX 17121 40650 42960 12804 10194 20109 40193 57016 80001
AAXX 17121 40602 42960 80902 10128 20044 40218 57016 88050
AAXX 17121 40608 41958 81802 10152 20080 40186 57015 70522 8807X
AAXX 17121 40621 42960 01702 10178 20073 40202 58006
AAXX 17121 40642 42960 62204 10164 21023 40182 57014 80006
AAXX 17121 40629 42960 30902 10166 20053 40203 57018 80002
AAXX 17121 40637 42960 00000 10195 20134 40196 57004
AAXX 17121 40656 42960 02802 10186 20065 40178 57014
AAXX 17121 40670 42960 00000 10198 20063 40192 58011
AAXX 17121 40676 42960 30000 10204 21014 40189 55011
AAXX 17121 40689 42960 63306 10200 20010 40181 57014 80006
AAXX 17121 40680 41958 33202 10221 20074 40171 58012 70600 80001
BBXX A8ZP9 17123 99031 11006 41597 734// 10280 40090 53010 71322 8571/ 22274 00290 2//// 3//// 4//// 5////
AAXX 17124 60595 36/// /0000 11451
AAXX 17124 60381 16/// /1801 10147 20139 60111
AAXX 17124 60639 36/// /1805 10185 20021
AAXX 17124 60605 36/// /3004 10190 20016
BBXX DBBH 17121 99367 70115 41598 70206 10158 20119 40315 52006 70222 878// 22200 04179 20302 332// 41104
AAXX 17124 60467 12665 72818 10139 20098 40176 58008 60001 86830 333 0//00 86833 95900
AAXX 17121 15600 11/08 91888 10013 20013 38085 48290 53023 60001 74142 333 10016 21010 42003 91188 555 500//
BBXX 44100 17121 99363 70756 46/// ///// 1//// 91152 22200 00130 11403 20402 309// 41402 70015
BBXX 46229 17121 99438 71246 46/// ///// 1//// 91151 22200 00103 11305 21003 329// 41304 70023
AAXX 17121 10731 11573 62606 10059 20011 39923 40066 51019 69921 70262 83201 333 31/// 55307 20785 30297 83826 84080
AAXX 17121 23226 41360 81804 11025 21041 39981 40200 53001 72475 886// 333 85708 93402
AAXX 17121 23701 41482 81905 11009 21022 30057 40188 56094 73673 8802/ 333 88514
AAXX 17121 28909 42997 01305 11092 21142 30271 40378 57001
BBXX 46241 17121 99330 71173 46/// ///// 1//// 91141 22200 00142 11101 20801 327// 41101 70007
BBXX 46212 17121 99408 71243 46/// ///// 1//// 91212 22200 00098 11504 20602 330// 41504 70022
BBXX 46217 17121 99342 71194 46/// ///// 1//// 91212 22200 00145 11102 21001 328// 41101 70008
BBXX 46216 17121 99343 71198 46/// ///// 1//// 91157 22200 00147 11002 21002 327// 41701 70010
BBXX 46223 17121 99335 71178 46/// ///// 1//// 91200 22200 00151 11302 20801 322// 41301 70009
BBXX 46231 17121 99327 71174 46/// ///// 1//// 91154 22200 00144 11102 20902 327// 41101 70010
BBXX 46222 17121 99336 71183 46/// ///// 1//// 91156 22200 00153 11201 21001 325// 41201 70007
BBXX 46219 17121 99332 71199 46/// ///// 1//// 91158 22200 00136 11104 20903 331// 41102 70019
BBXX 46242 17121 99332 71174 46/// ///// 1//// 91158 22200 00147 11001 21001 324// 41201 70006
AAXX 17121 56146 32780 81605 11008 21104 36746 52038 889// 333 00500
AAXX 17121 56444 32980 02703 11018 21108 36813 52018 333 00101
AAXX 17121 56492 11756 80401 10076 20047 39886 40305 52040 69901 71060 885// 333 00200
AAXX 17121 56571 32670 10402 10101 20015 38389 52027 81100 333 05405
AAXX 17121 57799 32975 03402 10053 21016 30209 40302 52012
AAXX 17121 57866 32966 73604 10088 21013 30077 40291 52016 8704/
AAXX 17121 57957 32960 00402 10092 21010 30069 40273 52024
AAXX 17121 57993 32960 03201 10080 21010 30113 40286 52019
AAXX 17121 58027 32960 00000 11020 21087 30284 40339 52010
AAXX 17121 58141 31940 00401 11022 21081 30324 40344 52002 70500
AAXX 17121 58265 32961 03401 10009 21034 30339 40347 52006
AAXX 17121 58472 32478 23405 10041 21015 30237 40336 52005 82100
AAXX 17121 58477 32480 30202 10046 21032 30285 40332 52003 83100
AAXX 17121 58527 32960 00000 10049 21044 30225 40305 52008
AAXX 17121 58633 32968 00404 10031 21058 30215 40321 52005
AAXX 17121 58666 32562 63609 10066 20021 30215 40321 52005 86800
AAXX 17121 58725 32965 00000 10046 21006 30017 40292 52014
AAXX 17121 58921 32962 01802 10087 20021 30020 40277 52015
AAXX 17121 59082 32960 71601 10100 20021 30111 40262 52018 8704/
AAXX 17121 59211 32960 23601 10116 20067 30015 40228 52011 82030
AAXX 17121 59265 31856 70402 10138 20057 30103 40244 52017 70500 875//
AAXX 17121 59293 32963 00701 10119 20026 30166 40254 52020
AAXX 17121 59501 32960 00703 10139 20083 30225 40247 52020
AAXX 17121 59663 31957 00404 10144 20038 30125 40235 52014 70500
AAXX 17121 59838 32760 70705 10193 20139 30182 40192 52015 875//
AAXX 17121 59948 32370 70709 10167 20140 39712 40204 52015 86102
AAXX 17121 59981 32570 80406 10240 20191 30164 40171 52017 888//
BBXX 46211 17121 99469 71242 46/// ///// 1//// 91206 22200 00083 12005 21003 328// 42005 70026
AAXX 17121 38725 42699 70000 11009 21201 37753 48490 57012 83401
AAXX 17121 48892 32598 70209 10271 20242 30092 40097 52016 82108 333 10298 59004 70000 82895 87299
AAXX 17121 78458 21466 60000 10201 20195 40187 53012 70362 82220 333 10291 20193 31/// 56000 58004 60015 70018 82816 86457
AAXX 17121 78460 31460 40000 10186 20180 40179 53010 70544 82531 333 10279 20180 31/// 56100 58003 82612
AAXX 17121 78467 21466 50903 10210 20195 40170 5//// 702// 85200 333 10275 20185 31/// 56200 58012 60062 70059 85815
AAXX 17121 78479 21458 50208 10221 20190 40150 52010 76010 85800 333 10286 20200 56100 58009 69950 70005 85816
AAXX 17121 78482 32466 40000 10204 20175 40190 5//// 81256 333 10310 20175 30/// 56000 58009 81818
AAXX 17121 78485 32466 30103 10194 20181 40175 52010 82231 333 10295 20193 30/// 56000 58005 82816
AAXX 17121 78486 21466 33303 10200 20194 40158 52008 70161 83200 333 10300 20195 31/// 5//// 56000 58004 69987 70008 83814
AAXX 17121 78488 21466 50000 10238 20182 40170 5//// 701// 82870 333 10282 20170 31/// 56000 58006 60032 70050 82816 83457
AAXX 17121 48887 32998 70706 10267 20205 30100 40106 52017 80008 333 00026 10324 58001 70000 87299
AAXX 17121 48870 01498 60204 10245 20192 30151 40158 53020 60024 70262 868// 333 01023 10256 58007 69912 7002 0 83894 85696
AAXX 17121 48920 01598 70201 10270 20249 30086 40089 52014 60034 70382 879// 222// 00280 2//04 333 10281 5900 2 60032 70029 82895 82996 86697 555 20264
AAXX 17121 48877 01598 73606 10231 20206 30137 40142 52014 60014 72582 878// 333 01023 10257 59002 69982 7001 1 83895 86697 555 20231
AAXX 17124 78846 11574 70706 10228 20/// 30128 40167 69943 715/// 82842 333 10272 20222 58017 82820 83640 85362
AAXX 17121 22867 41397 81603 10011 20003 30003 40117 52014 77176 8872/ 333 88709 91109
AAXX 17121 22271 41495 81204 11001 21019 30032 40042 57015 77372 8872/
AAXX 17124 08231 12370 43307 10071 21026 39129 48529 58003 60001 81178
AAXX 17124 04203 46/// /0311 11111 21138 30010 40028 57014
AAXX 17124 04205 45/84 /3402 11183 21234 30018 40041 57019
AAXX 17124 04208 46/// /0308 11070 21151 39897 49943 57038
AAXX 17124 04213 46/// /1218 11056 21149 39803 49912 57036
AAXX 17124 04214 46/// /3006 11033 21110 39855 49888 57039
AAXX 17124 04224 45984 10813 11027 21090 39835 49867 57039 333 81/71
AAXX 17124 04228 NIL
AAXX 17124 04242 46/// /1120 10010 21033 39805 49821 57048
AAXX 17124 04253 46/// /1419 10016 21008 39798 49825 57038
AAXX 17124 04266 46/// /1044 10002 20002 39820 49858 57038 333 91059
AAXX 17124 04285 46/// /1135 10006 20005 39900 49919 57044
AAXX 17124 04301 46/// /2001 11274 21315 30097 40102 54000
AAXX 17124 04313 46/// /3540 11152 21173 30022 40034 52012 333 91052
AAXX 17124 04330 46/// /0201 11231 21285 30062 40080 52010
AAXX 17124 04351 46/// /3206 11145 21210 30102 40119 52015
AAXX 17124 04373 46/// /0312 11057 21104 39991 40086 52017
AAXX 17124 04382 46/// /3520 11054 21063 39993 40042 57019
AAXX 17124 04416 NIL
AAXX 17121 78458 21466 60000 10201 20195 40187 53012 70362 82220 333 10291 20193 31/// 56000 58004 60015 70018 82816 86457
AAXX 17121 78460 31460 40000 10186 20180 40179 53010 70544 82531 333 10279 20180 31/// 56100 58003 82612
AAXX 17121 78467 21466 50903 10210 20195 40170 5//// 702// 85200 333 10275 20185 31/// 56200 58012 60062 70059 85815
AAXX 17121 78479 21458 50208 10221 20190 40150 52010 76010 85800 333 10286 20200 56100 58009 69950 70005 85816
AAXX 17121 78482 32466 40000 10204 20175 40190 5//// 81256 333 10310 20175 30/// 56000 58009 81818
AAXX 17121 78485 32466 30103 10194 20181 40175 52010 82231 333 10295 20193 30/// 56000 58005 82816
AAXX 17121 78486 21466 33303 10200 20194 40158 52008 70161 83200 333 10300 20195 31/// 5//// 56000 58004 69987 70008 83814
AAXX 17121 78488 21466 50000 10238 20182 40170 5//// 701// 82870 333 10282 20170 31/// 56000 58006 60032 70050 82816 83457
AAXX 17124 89514 21/94 91129 10003 49671 57008 73833 89/// 333 10003 21017 6001/
AAXX 17121 29551 32997 00000 11240 21259 30281 40486 53006 333 11212
AAXX 17124 78846 11574 70706 10228 20/// 30128 40167 69943 715/// 82842 333 10272 20222 58017 82820 83640 85362
AAXX 17124 89514 21/94 91129 10003 49671 57008 73833 89/// 333 10003 21017 6001/
AAXX 17121 50353 32968 01801 11234 21266 39969 40212 52006
AAXX 17121 50557 32968 02501 11169 21234 39907 40233 54000
AAXX 17121 50756 32960 00000 11210 21234 39934 40261 52001
AAXX 17121 50949 32965 02001 11140 21222 30097 40283 57002
AAXX 17121 50963 32760 42001 11167 21207 30107 40257 52004 84500
AAXX 17121 50978 32975 02707 11152 21212 39869 40245 52008
AAXX 17121 51087 32980 00000 11189 21212 39360 40437 57004 333 05252
AAXX 17121 51156 11780 70000 11120 21147 38793 40405 52007 69911 77000 875// 333 05203
AAXX 17121 51644 32960 72702 11045 21079 39019 40342 52003 83032 333 05151
AAXX 17121 51656 32970 01801 11040 21098 39194 40354 52002 333 05151
AAXX 17121 51886 32980 00901 11077 21223 37114 52008 333 05103
AAXX 17121 52602 32980 32001 11119 21271 37275 52002 80002 333 00052
AAXX 17121 52713 32980 20901 11092 21203 36915 57001 80002 333 00102
AAXX 17121 52754 11980 60702 11110 21144 36800 52013 69901 70070 80002 333 00104
AAXX 17121 52818 32980 11101 11067 21244 37249 52005 80002 333 00001
AAXX 17121 52836 32980 01402 11119 21240 36915 52012 333 00253
AAXX 17121 52955 32980 01601 11141 21216 36993 52019 333 00253
AAXX 17121 53068 32980 02702 11220 21255 39198 40489 52007 333 00453
AAXX 17121 53276 32980 02503 11196 21235 38978 40458 52009
AAXX 17121 54135 32975 02704 11108 21227 30082 40323 52007
AAXX 17121 54236 32970 02903 11077 21215 30211 40325 52009
AAXX 17121 54539 32970 02702 11037 21147 30316 40331 52013
AAXX 17121 54662 32970 03602 11024 21148 30207 40327 52016
AAXX 17121 54753 32962 02002 11029 21107 30321 40328 52001
AAXX 17121 54857 32965 00000 11015 21125 30246 40344 52009
AAXX 17121 57067 32960 80201 10028 21063 39623 40334 52024 8807/
AAXX 17121 57178 32962 70000 10035 21057 30168 40335 52018 8703/
AAXX 17121 57245 32962 80000 10054 21020 39956 40320 52025 8807/ 333 00052
AAXX 17121 57297 32960 80701 10039 21058 30184 40332 52013 8807/
AAXX 17124 71707 11674 73008 11004 21066 30057 40134 51022 69901 70188 87500 333 10096 21004 41997 70004 90922
AAXX 17124 71707 11674 73008 11004 21066 30057 40134 51022 69901 70188 87500 333 10096 21004 41997 70004 90922
AAXX 17121 89062 42686 13306 10013 21093 39945 49986 52029 81500 333 10020 21012 81630
AAXX 17124 91945 36/// /0000 10225 20208 30113 40118 56018 333 10298
AAXX 17124 40656 42960 02802 10186 20065 40178 57014
AAXX 17124 40670 42960 00000 10198 20063 40192 58011
AAXX 17124 40676 42960 30000 10204 21014 40189 55011
AAXX 17124 40680 41958 33202 10221 20074 40171 58012 70600 80001
AAXX 17124 40689 42960 63306 10200 20010 40181 57014 80006
AAXX 17124 40642 42960 62204 10164 21023 40182 57014 80006
AAXX 17124 40602 42960 80902 10128 20044 40218 57016 88050
AAXX 17124 40608 41958 81802 10152 20080 40186 57015 70522 8807X
AAXX 17124 40621 42960 01702 10178 20073 40202 58006
AAXX 17124 40629 42960 30902 10166 20053 40203 57018 80002
AAXX 17124 40637 42960 00000 10195 20134 40196 57004
AAXX 17124 40650 42960 12804 10194 20109 40193 57016 80001
AAXX 17124 40582 31957 40107 10213 20006 40170 56017 70500 80004 333 00025 55300 00441 10000 21224 30391 41188 51584 61615 55407 40833 84070 90400 91011 91113 912// 91307
AAXX 17124 41150 NIL
AAXX 17124 41168 NIL
AAXX 17124 41170 32962 01804 10241 20055 30147 40160 333 59007
AAXX 17124 41176 NIL
AAXX 17124 41184 NIL
AAXX 17124 41194 NIL
AAXX 17124 41196 NIL
AAXX 17124 41198 NIL
AAXX 17124 41210 NIL
AAXX 17124 41216 NIL
AAXX 17124 41217 NIL
AAXX 17124 41218 NIL
AAXX 17124 41226 NIL
AAXX 17124 41244 NIL
AAXX 17124 41246 32560 30810 10251 20184 30141 40145 82530 333 59007 82630
AAXX 17124 41254 36/// /3304 10160 20036 38042 48047 333 0E003 59006
AAXX 17124 41256 32970 00508 10248 20143 30138 40148 333 59009
AAXX 17124 41258 36/// /0706 10243 20143 30138 40142 333 0E/// 59009
AAXX 17124 41268 32960 00307 10250 20139 30136 40152 91215 333 58002
AAXX 17124 41312 36/// /0903 10266 20169 30085 40124 333 0E/// 58000
AAXX 17124 41314 32960 00611 10255 20057 39640 40135 333 59003
AAXX 17124 41316 32560 11706 10264 20132 30099 40125 81500 333 59002 81625
AAXX 17124 41404 12560 10504 10229 21082 37855 48487 60002 81200 333 58002 81830
AAXX 17124 41407 12970 00610 10282 21119 38921 48492 60002 333 58009
AAXX 17124 41431 12960 01820 10296 20234 30090 40103 60002 333 58000
AAXX 17124 41466 12560 22308 10260 20116 38546 48448 60002 82200 333 59006 82820
AAXX 17124 41477 12960 01714 10280 20215 60002 333
AAXX 17124 41480 12460 51309 10271 20191 30120 40123 60002 82101 333 59006 82818 85070
AAXX 17121 29998 32999 01801 11344 21356 38748 48580 53009 333 11279
AAXX 17121 30385 11999 20000 11242 21254 39673 40252 52009 69992 70271 80001 333 11199
AAXX 17121 30469 NIL
AAXX 17121 30636 119// 82901 11139 21152 39710 40352 57003 60012 77177 8801/ 333 11085
AAXX 17121 30650 32984 82504 11155 21182 39147 40324 52002 83041 333 11135
AAXX 17121 30664 32999 02203 11103 21176 39237 40254 53011 333 11178
AAXX 17121 30781 NIL
AAXX 17121 30777 32998 60000 11181 21207 39583 40277 54000 83076 333 11118
AAXX 17121 30844 32999 32702 11202 21221 39377 40438 53007 82041 333 11146
AAXX 17121 30925 329// 01601 11228 21261 39408 40479 53013 333 11169
AAXX 17121 31371 32999 02901 11193 21242 39923 40204 52007 333 11137
AAXX 17121 31388 32984 00000 11313 21330 39919 40213 52004 333 11204
AAXX 17121 31478 NIL
AAXX 17121 31532 12999 00000 11346 21361 39846 40236 52005 69900 333 11283
AAXX 17121 31594 11996 83401 11221 21240 30021 40205 52007 69942 77171 80007 333 11144
AAXX 17121 31655 11996 81802 11174 21193 30112 40162 53006 69900 77172 8802/ 333 11167
AAXX 17121 31754 NIL
BBXX 62159 17124 99605 10017 41598 53230 10041 21001 49987 5/030 70122 855// 22200 10909 70047
BBXX 62029 17124 99487 70125 46/// /3418 10094 20052 40254 51014 22200 00131 10910 70048 333 90710 91128
BBXX 62303 17124 99516 70051 46/// /3222 10079 20036 40136 52012 22200 00113 10807 70035 333 90710 91133
BBXX 62442 17124 99490 70164 46/// /3213 1//// 2//// 40286 53013 22200 00127
BBXX 62301 17124 99524 70047 46/// /3122 10066 20020 40114 50009 22200 00095 10707 70033 333 90710 91129
BBXX 64046 17124 99605 70049 46/// /3416 10040 20005 40054 51018 22200 00078 10809 70045
BBXX 62081 17124 99510 70134 46/// ///// 10083 20023 40244 52019 22200 00120 10810 70048
BBXX 62105 17124 99554 70122 46/// /3119 10076 20011 40178 52022 22200 00106 10808 70042 333 90710 91126
BBXX 62001 17124 99452 70050 46/// /2917 10108 20064 40224 50008 22200 00143 11012 70060 333 90710 91125
BBXX 64045 17124 99591 70117 46/// /3017 10061 21017 40120 52012 22200 00101 10708 70040
BBXX AMOUK06 17124 99511 10015 46/// ///// 10063 20019 30064 40079 52009 91150
BBXX AMOUK14 17124 99534 70054 46/// ///// 10050 20011 30102 40136 52071 91150
BBXX AMOUK02 17124 99535 70034 46/// ///// 10061 20024 30030 4//// 5//// 91150
BBXX AMOUK21 17124 99566 70065 46/// ///// 10043 20011 30104 40111 52036 91150
BBXX AMOUK05 17124 99519 10041 46/// ///// 10067 20014 30014 40050 52019 91150
BBXX AMOUK08 17124 99501 70061 46/// ///// 10081 20035 30165 40167 52020 91150
BBXX AMOUK19 17124 99602 70012 46/// ///// 10019 2//// 30013 40016 52028 91150
BBXX 62111 17124 99580 70003 46/// /3528 10051 21005 40022 52022 22200 10606 70029
BBXX 63056 17124 99597 10016 47798 /3227 10041 21020 49960 51020 700// 22200 10808 70042
BBXX 63110 17124 99595 10015 47698 /3327 10066 21023 49970 51018 700// 22200 10708 70042
BBXX 63057 17124 99592 10015 47598 /3329 10048 21022 49975 51017 700// 22200 10808 70041
BBXX 62128 17124 99587 10014 47598 /3226 10043 21012 49998 52017 700// 22200 10708 70039
BBXX 62129 17124 99584 10003 46/// ///// 10051 21011 40000 51018 22200
BBXX 62113 17124 99584 10002 47598 /3421 10055 21005 40001 51017 700// 22200
BBXX PJAI 17124 99581 70014 47598 /3221 10059 21023 40035 52021 700// 22200
BBXX 62112 17124 99584 70002 47498 /3125 10034 21013 40017 52021 762// 22200
BBXX 63055 17124 99606 10016 47696 /3122 10038 21009 49962 51022 704// 22200 10809 70046
BBXX 63108 17124 99608 10017 47998 /3428 10063 21018 49955 52020 700// 22200 11310 70048
BBXX 63106 17124 99610 10017 46/// /3223 10035 49960 51025 22200
BBXX 63105 17124 99610 10017 47598 ///// 10041 21016 49959 51025 700// 22200
BBXX 63113 17124 99610 10017 46/// /3328 10035 21010 49963 52027 22200 10809 70046
BBXX 63112 17124 99611 10010 47598 /3325 10032 21028 49963 52020 700// 22200 10809 70047
BBXX 63107 17124 99611 10017 46/// /3226 10035 49958 52024 22200
BBXX 63101 17124 99612 10009 46/// /3427 10038 21009 49969 51019 22200
BBXX 63103 17124 99612 10011 46/// /3428 10033 21022 49970 52020 22200 10809 70043
BBXX 63104 17124 99612 10016 47598 /3321 10038 21010 49961 52025 700// 22200
BBXX 63117 17124 99613 10011 47498 /3323 10036 21021 49967 52020 762// 22200
BBXX 63115 17124 99616 10013 47598 /3125 10025 21017 49972 51018 700// 22200 10810 70050
BBXX MWYG6 17124 99603 70040 47998 /3318 10048 700// 22200
BBXX 64041 17124 99607 70026 47798 /3224 10030 21056 40024 52016 700// 22200 10910 70048
BBXX 62133 17124 99571 10009 46/// /3117 10055 21007 40010 50014 22200
BBXX 62119 17124 99570 10019 47597 /3324 10057 21005 40000 51015 700// 22200 10706 70031
BBXX 62152 17124 99570 10018 46/// /3324 10063 20002 40001 51014 22200 10605 70027
BBXX 62154 17124 99564 10022 46/// /3319 10061 20005 49997 52012 22200
BBXX 62120 17124 99564 10021 47798 /3317 10053 20002 40007 52016 700// 22200
BBXX 62132 17124 99564 10020 46/// /0000 10059 20004 40001 51012 22200
BBXX 62123 17124 99563 10022 47598 /3320 10062 20011 40001 52013 700// 22200
BBXX 62165 17124 99540 10009 47598 /3009 10058 20003 40048 50004 700// 22200 10604 70020
BBXX 62127 17124 99540 10007 47999 ///// 10049 20013 40044 51004 700// 22200 10504 70018
BBXX 62131 17124 99539 10012 46/// /30// 10061 20010 40040 50004 22200
BBXX 62149 17124 99537 10011 47498 /3012 10054 20011 40049 51008 700// 22200 10504 70018
BBXX 62148 17124 99536 10015 46/// /2916 10050 20011 40049 50006 22200
BBXX 62150 17124 99536 10007 47498 /2917 10044 20016 40059 51006 700// 22200
BBXX 62121 17124 99535 10027 46/// ///// 22200
BBXX 62144 17124 99534 10017 47498 /2814 10049 20011 40050 50003 700// 22200 10504 70018
BBXX 62145 17124 99531 10028 47498 /2716 10053 20008 40049 51004 700// 22200 10505 70023
BBXX 62142 17124 99530 10021 47498 /3018 10048 20017 40045 50004 700// 22200 10504 70019
BBXX ZQSD5 17124 99583 10007 46/// /3327 10050 21008 40006 52020 22200 10807 70034
BBXX 62114 17124 99583 10000 46/// /3222 10039 21022 40015 52017 22200
BBXX 62134 17124 99580 10014 47698 /3422 10055 21012 49995 52015 700// 22200 10706 70031
BBXX 62102 17124 99579 10018 46/// /3327 10062 21012 49987 52014 22200 10706 70031
BBXX 62117 17124 99579 10000 47597 /3324 10056 21004 40014 52020 700// 22200 10605 70026
BBXX 62143 17124 99577 10018 47598 /3424 10060 21005 49999 52015 700// 22200 10607 70034
BBXX 62118 17124 99577 10009 46997 /3320 10044 21001 40001 52019 22200 10706 70032
BBXX 62155 17124 99577 10007 47999 /3322 10051 20001 40007 52016 700// 22200 10606 70030
BBXX 62116 17124 99576 10011 47497 /3326 10062 21001 49999 52015 761// 22200 10706 70032
BBXX 62104 17124 99574 10013 47698 /3321 10073 21003 49997 52014 700// 22200
BBXX 62153 17124 99573 10020 47698 /3321 10062 21003 49995 52017 762// 22200 10606 70032
BBXX 62122 17124 99573 10016 47698 /3219 10061 20001 49995 52015 700// 22200 10706 70031
BBXX 62140 17124 99573 10013 46/// /34// 10063 21006 49998 51014 22200
BBXX 62146 17124 99572 10021 47/98 /3220 10060 21017 49994 52016 700// 22200 10706 70031
BBXX 62164 17124 99572 10008 47498 /3022 10070 20025 40013 51016 700// 22200 00097 10606 70028
BBXX PJGO 17124 99571 10022 47698 /3224 10068 20003 49995 52015 700// 22200
BBXX AMOUK13 17124 99518 10013 46/// ///// 10044 20022 30063 4//// 5//// 91150
BBXX AMOUK09 17124 99506 10010 46/// ///// 10071 20032 30078 40093 52009 91150
BBXX PENR 17123 99463 70139 41697 33516 10110 20030 40294 52001 70200 8214/ 22214 20503 335// 41208 80075
BBXX 62103 17124 99499 70029 46/// /3327 10079 20018 40124 52005 22200 00121 10907 70033 333 90710 91134
BBXX 62163 17124 99475 70084 46/// /3218 10099 20046 40230 51012 22200 00129 10910 70051 333 90710 91132
BBXX 62094 17124 99517 70067 46/// /3024 10076 20031 40156 51014 22200 00107 10707 70033 333 90710 91131
BBXX 62170 17124 99514 10020 46/97 /2823 10057 20033 40082 53006 22200 00112 10603 70013 333 90710 91129
BBXX 62304 17124 99511 10018 46/98 /2919 10057 20019 40087 52006 22200 00116 10602 70012 333 90710 91125
BBXX 62305 17124 99504 10000 46/98 /3022 10066 20030 40111 58001 22200 00120 10802 70012 333 90710 91132
BBXX A8IY4 17121 99472 70110 41/98 63210 10100 20056 40255 52030 70222 864// 22254 04188 2//// 332// 41608 80080
BBXX 62027 17124 99491 70022 46/// /3317 1//// 2//// 40134 51004 22200 00118 1//// 3//// 7//// 333 90710 91125
BBXX DHTK 17124 99321 70185 41/98 80521 10197 20128 40320 51020 70222 8677/ 22214 00200 2//05 80155
BBXX TBWUK03 17123 99483 70059 41598 53027 10091 20059 40198 52040 70222 84444 22243 20401 329// 40906 5//// 80075
BBXX 62107 17124 99501 70061 46/// /3226 10084 20016 40169 51015 22200 00114 10908 70038 333 90710 91136
BBXX 62095 17124 99531 70159 46/// /2915 10079 20027 40238 52014 22200 00113 10807 70037
BBXX 63110 17123 99595 10015 41597 73435 10069 49970 70222 8/8// 22200 10709 70045
AAXX 17124 41259 36/// /2504 10087 21027 37122 40293 333 0E/// 59000
AAXX 17124 41295 36/// /0108 10270 20109 39957 40133 333 0E018 59001
BBXX 46114 17121 99364 71222 46/// ///// 1//// 91204 22200 00122 11505 20803 331// 41504 70024
BBXX 41114 17121 99276 70802 46/// ///// 1//// 91216 22200 00248 11002 21002 306// 41101 70011
AAXX 17121 38847 ///// /0900 10034 20012 39400 40170
BBXX JGQH 17124 99312 11335 41/97 43314 10112 20000 40266 58003 70311 81230 22213 00225 1//04 20301 399// 4//02 70019
BBXX JPBN 17124 99349 11403 41/98 10116 10087 21067 40211 54000 70200 81200 22200 00178 10702 20301 399// 4//02 70010
BBXX JGQH 17124 99312 11335 41/97 43314 10112 20000 40266 58003 70311 81230 22213 00225 1//04 20301 399// 4//02 70019
BBXX JPBN 17124 99349 11403 41/98 10116 10087 21067 40211 54000 70200 81200 22200 00178 10702 20301 399// 4//02 70010
AAXX 17121 28383 42997 00901 11264 21282 30395 40491 52010
AAXX 17121 38388 42998 70504 10001 21050 30183 40256 57017 87070 555 18000
AAXX 17121 38392 42998 80605 10006 21084 30166 40272 57017 80002 555 10001
AAXX 17121 38507 42998 21405 10062 21016 30103 40206 57011 80001 555 10010
AAXX 17121 38511 42698 70804 11010 21032 30088 40234 57012 87500 555 11000
AAXX 17121 38545 42998 50604 10028 21053 30067 40245 57011 85070 555 10002
AAXX 17121 38647 42597 80908 10029 21004 30165 40208 57005 886// 555 10004
AAXX 17121 38656 42698 80703 10000 21048 30133 40246 57003 885// 555 10002
AAXX 17121 38687 42797 72701 10020 21011 39993 40234 57010 87500 555 11004
AAXX 17121 38750 42597 30902 10117 20064 30218 40190 57016 83500 555 10012
AAXX 17121 38763 41496 81006 10019 21006 30102 40210 57013 71042 886// 333 88713 555 10004
AAXX 17121 38774 41496 80902 10017 20001 30045 40246 57004 71022 886// 555 10003
AAXX 17121 38799 42597 83602 11016 21021 30001 40241 57007 886// 555 10002
AAXX 17121 38806 42997 61401 10030 21008 39968 40234 57003 80002 555 11005
AAXX 17121 38880 41495 80702 10019 21012 39971 40232 57002 71052 886// 333 88713 555 11004
AAXX 17121 38886 42597 80000 10029 20005 39997 40230 57004 885// 555 10004
AAXX 17121 38895 42996 80302 10015 21007 39929 40227 57013 8802/ 555 11004
AAXX 17121 38911 41596 82002 10006 21016 39927 40230 57011 71022 885// 555 11003
AAXX 17121 38915 42997 63202 10014 21008 39891 40224 57012 86070 555 11003
AAXX 17121 38974 42998 83202 10024 20008 39878 40221 53004 8807/ 555 11004
AAXX 17121 38987 42596 80601 10052 20011 39448 40197 57011 885// 555 11007
AAXX 17121 28791 42998 00203 11281 21304 30315 40481 52020
AAXX 17121 28588 42998 00902 11296 21319 30297 40481 52011
BBXX 52200 17121 99134 11448 46/// ///// 1//// 91215 22200 00287 11005 21005 309// 41102 70025
BBXX 51201 17121 99217 71581 46/// ///// 1//// 91212 22200 00244 11507 21003 332// 41506 70036
BBXX 46221 17121 99339 71186 46/// ///// 1//// 91145 22200 00154 11401 21001 321// 41401 70007
BBXX 41029 17121 99328 70796 46/// /2904 1//// 91200 555 11049 22057
BBXX 44098 17121 99428 70702 46/// ///// 1//// 91207 22200 00091 11102 20901 310// 41101 70009
BBXX 44097 17121 99410 70711 46/// ///// 1//// 91202 22200 00121 11302 20802 316// 41301 70011
AAXX 17121 28465 42998 01702 11243 21261 30370 40458 52007
AAXX 17121 28586 42997 00000 11281 21304 30319 40489 52008 80001
AAXX 17121 28696 42997 03602 11296 21319 30325 40487 52016
AAXX 17121 28688 42997 00601 11261 21285 30302 40484 52018
AAXX 17124 78764 32460 51110 10195 20154 39027 40155 55016 8122/ 333 10204 20191 30/// 56399 58007 81616 81463 83082
AAXX 17121 23929 41576 81904 11100 21113 30288 40360 54000 70282 889//
AAXX 17124 67767 NIL
AAXX 17124 67843 42680 61210 10269 20196 38947 48507 85233 333 58016 81940 85858
AAXX 17124 67969 NIL
AAXX 17121 22438 41569 81603 10005 21009 39980 40001 53008 70272 885//
AAXX 17121 60373 16/// /3001 10136 20135 60031
AAXX 17121 60623 36/// /0000 10194 21097
AAXX 17121 60393 16/// /1902 10149 20135 60111
AAXX 17124 78764 32460 51110 10195 20154 39027 40155 55016 8122/ 333 10204 20191 30/// 56399 58007 81616 81463 83082
AAXX 17124 67969 41575 70402 10234 20186 38/// 48/// 72052 875// 333 5//// 87620
BBXX JNCJ 17124 99336 11396 41497 62925 10100 21018 40210 51010 70322 868// 22233 00230 20202 332// 40203 80050
BBXX SHIP 17124 99120 11287 41398 10917 10280 20253 40092 53002 70111 811// 22244 00293 399// 4//// 5//// 80260
AAXX 17124 78764 32460 51110 10195 20154 39027 40155 55016 8122/ 333 10204 20191 30/// 56399 58007 81616 81463 83082
BBXX SHIP 17124 99033 31462 41098 62718 10290 20264 40075 54000 7022/ 82172 22273 00330 20100 332// 40402 80270
AAXX 17120 44313 32999 02303 11182 21232 39450 40356 57005 333 11155
AAXX 17120 44314 32998 03205 11174 21215 39215 40393 52005 333 11121
AAXX 17121 14216 11682 71901 10066 20025 39841 49992 52012 60061 70262 81222 333 70425 92312 92428
AAXX 17121 14219 11460 82701 10000 21005 38983 48305 53014 60041 70274 888// 333 70875
AAXX 17121 14232 11575 82702 10037 20014 39860 49996 51017 69911 70127 886// 333 70271
AAXX 17121 14234 11475 81202 10021 20016 39742 49989 52017 69901 70272 8462/ 333 70425
AAXX 17121 14236 11682 82802 10038 20013 39785 49983 52014 69901 70226 885// 333 70228
AAXX 17121 14244 11984 81702 10031 20017 39864 49993 51018 69981 70226 8802/ 333 70194
AAXX 17121 14248 12984 82302 10032 20018 39812 49986 52018 60001 8802/ 333 70241
AAXX 17121 14253 12660 82501 10019 20002 39808 49982 52024 60031 886// 333 70258
AAXX 17121 14256 11460 82405 10008 20003 39665 49985 52023 60001 7027/ 8562/ 333 70172
AAXX 17121 14280 11465 82705 10045 20034 39868 49977 52023 60061 7232/ 8482/ 333 70182
AAXX 17121 14308 12980 80000 10062 20016 39637 49986 51017 69931 8807/ 333 70307
AAXX 17121 14321 11680 60302 10093 21027 39963 49987 52016 60021 72192 86800 333 70138 92312 92428
AAXX 17121 14370 11560 82804 10037 20021 39877 49986 52022 60051 76176 8672/ 333 70138
AAXX 17121 14382 11570 72604 10035 20019 39860 49980 52025 60041 72162 86720 333 70103
AAXX 17121 14428 12470 63303 10108 20004 39970 49977 52013 60001 84870 222// 00148 333 70070 92312
AAXX 17121 14441 11583 73202 10118 20031 39952 49976 51012 69901 70262 87800 222// 00170 333 70000 92333
AAXX 17121 14452 12598 63411 10089 20059 39763 49985 51006 69951 85520 333 92333
AAXX 17121 14454 11770 80301 10095 20025 39920 49980 52019 69901 72996 885// 333 70115 92322
AAXX 17121 14462 11570 83303 10088 20031 39987 49993 52022 69921 76026 8272/ 333 70213
BBXX SHIP 17124 99033 31462 41098 62718 10290 20264 40075 54000 7022/ 82172 22273 00330 20100 332// 40402 80270
AAXX 17121 48806 32498 80000 10146 20089 39428 40220 52012 888// 333 00016 10168 59008 70000 82894 88696
AAXX 17121 21432 NIL
AAXX 17121 21824 11997 83601 11201 21212 30169 40178 52011 69922 77872 8802/ 333 11177
AAXX 17121 21908 32999 33201 11206 21225 30113 40197 52015 80002 333 11152
AAXX 17121 21921 11997 80000 11294 21324 30165 40214 52014 69942 77072 83037 333 11270
AAXX 17121 21931 11997 82302 11306 21336 30144 40179 52014 69902 77172 80007 333 11303
AAXX 17121 21946 31497 80301 11276 21299 30100 40186 52006 77172 8653/ 333 11240 86615
AAXX 17121 21982 41995 20114 11188 21221 30157 40186 57007 73830 82030 333 91117
AAXX 17121 25062 41996 80704 11313 21342 30190 40194 58002 70522 80005 333 91106
AAXX 17121 25123 32996 61501 11295 21319 30147 40183 52003 86030 333 11263
AAXX 17121 25138 32999 70000 11292 21315 30047 40181 52005 85031 333 11256 91101
AAXX 17121 25173 41596 23103 11256 21274 30182 40187 57004 71011 82500 333 91104
AAXX 17121 25248 32998 80000 11327 21357 39697 40196 57006 8803/ 333 11329 91101
AAXX 17121 25282 41970 63409 11220 21232 30113 40120 57012 73632 86030 333 91112
AAXX 17121 25325 NIL
AAXX 17121 25356 42999 30000 11313 21342 30034 40145 57004 80001 333 91004
AAXX 17121 25399 41458 83508 11154 21181 39963 49972 57010 78583 889// 333 91112
AAXX 17121 25428 32984 50000 11365 21394 39822 40198 52003 80001 333 1//// 91100
AAXX 17121 25551 42998 03401 11361 21378 30107 40142 57001 333 91101
AAXX 17121 25563 42984 02809 11269 21286 30006 40090 58014 333 91111
AAXX 17121 25594 41698 63610 11114 21149 39869 49920 57019 73632 83530 333 91114
AAXX 17121 25677 41/91 93315 11184 21184 30007 40013 57016 73932 333 91118 92992
AAXX 17121 31054 NIL
AAXX 17121 31123 32998 00000 11372 21401 39926 40298 52012 333 11329
AAXX 17124 87222 12670 32304 10235 20133 39606 40121 52016 60054 83500 333 20235 20155 56700 83645
AAXX 17124 87563 32965 71404 10173 20133 30062 40105 51005 87030 333 10192 20102 56080 87360
AAXX 17124 78948 11576 60414 10265 20210 30135 40143 60001 70322 81404 333 00206 10304 20243 58011 70019 81825 85080
AAXX 17121 21432 32998 00802 11285 21315 30202 40223 52010 333 11248
AAXX 17124 60664 36/// /0000 10183 21066
AAXX 17121 89064 11580 71703 10007 29072 40026 52020 69984 72456 875// 333 20005
AAXX 17124 61600 NIL
AAXX 17124 61612 32960 70804 10270 20004 30161 40169 85082 333 0//00 58009 85363 84073
AAXX 17124 61627 31946 61212 10300 21025 3//// 4//// 70722 84082 333 0//00 5//// 84363 83073
AAXX 17124 61630 32960 50806 10296 20058 30146 40165 85080 333 0//00 58010 85363
AAXX 17124 61641 32958 33607 10271 20148 30116 40149 82032 333 0//00 59008 82363
AAXX 17124 61666 32962 10806 10302 20193 30140 40148 81030 333 0//00 58000 81363
AAXX 17124 61679 32962 20816 10310 20114 30147 40155 82030 333 58005 82363
AAXX 17124 61687 32960 31012 10310 21048 30081 40138 80002 333 0//00 59001 83073
AAXX 17124 61695 32960 30404 10278 20219 30110 40136 83030 333 59002 83363
AAXX 17124 61697 32960 00612 10282 20076 30121 40136 333 0//00 58008
AAXX 17124 61698 32960 00804 10315 20166 30124 40135 333 0//00 59001
AAXX 17124 61699 33960 51208 10315 20070 39930 40119 80002 333 0//00 59007 59007 85073
AAXX 17124 60667 36/// /0000 10183 21027
BBXX 3FSB4 17124 99367 71417 41395 80123 10140 20120 40230 5//// 7//55 88720 22224 00170 20306 3//// 4//// 5//// 6//// 80130 ICE /////
BBXX 46207 17121 99509 71299 46/// /2012 10092 40131 57012 22200 00085 11810 70051 333 91214
BBXX DEHY 17124 99315 71405 41/98 42009 10185 20136 40250 54000 70211 8//// 22264 00180 2//// 80155
BBXX DMRX 17124 99475 71382 41297 62616 10090 20060 40162 51012 70322 8676/ 22224 00090 20504 80075
BBXX KAWM 17123 99504 71320 41297 82320 10085 20085 40085 57023 75352 886// 22272 0//// 2//// 327// 41006 5//// 6//// 80085 ICE /////
BBXX KIYI 17124 99578 71468 43/// /2029 10060 20040 40043 57015 7//// 8//// 22274 0//// 2//// 3//// 4//// 5//// 6//// 80050 ICE /////
BBXX SHIP 17124 99343 71415 41698 72020 10170 20150 40140 54000 70122 87210 22223 00200 2//// 3//// 4//// 5//// 6//// 80160 ICE 0////
BBXX SHIP 17124 99332 71295 41597 80109 10140 20085 40237 57013 70222 884// 22233 00180 2//// 3//// 4//// 80110
AAXX 17121 80400 NIL
AAXX 17121 80403 11470 60000 10262 20229 30117 40136 60104 70256 8423/ 333 20262 31/// 50204 55064 2//// 5699/ 58014 84813 10139
AAXX 17121 80405 NIL
AAXX 17121 80407 32470 5//// 10255 20225 30058 4//// 854// 333 20238 30/// 50494 55042 2//// 569// 5//// 85613 555 10134
AAXX 17121 80410 12460 80000 10220 20206 39462 40141 60084 8347/ 333 20210 30/// 5///4 55021 569// 58013 83616 85280 555 10176
AAXX 17121 80413 32470 60201 10213 20178 39638 40127 83507 333 20189 30/// 50164 55047 21497 56909 58002 83616 555 10155
AAXX 17121 80415 32470 30000 10238 20203 30081 40135 81520 333 20235 30/// 5///4 55050 2//// 56990 58018 82616 555 10135
AAXX 17121 80419 NIL
AAXX 17121 80421 12364 2//// 10241 20211 30081 40103 60024 82800 333 20232 30/// 50224 55087 2//// 56900 59014 82810 1010
AAXX 17121 80423 32470 3//// 10280 20195 30101 40118 83200 333 20225 30/// 50354 55094 2//// 56200 58004 83810 555 10117
AAXX 17121 80428 32470 80000 10240 20219 39914 40098 8653/ 333 20225 30/// 50304 55040 21253 5699/ 58007 86617 555 10110
AAXX 17121 80432 NIL
AAXX 17121 80435 12970 40204 10254 20217 30030 40105 60044 80002 333 20236 30/// 50014 55068 2//// 56009 58001 555 10109
AAXX 17121 80438 32570 60702 10167 20153 38525 48522 81505 333 20164 30/// 50094 55029 20827 56909 58002 81633 85280 555 10209
AAXX 17121 80444 32370 5//// 10260 2//// 30062 4//// 857// 333 20239 30/// 5///4 55097 2//// 562// 58004 85710 555 10110
AAXX 17121 80447 12456 80000 10223 20215 39679 40103 69914 887// 333 20214 30/// 50094 55036 20823 569// 58015 82717 86620 555 10151
AAXX 17121 80448 11468 80000 10243 20225 3//// 4//// 69934 70225 885// 333 20232 30/// 5///4 55093 21036 569// 5//// 88617
AAXX 17121 80450 32975 51102 10243 20226 30073 40128 80008 333 20241 30/// 5///4 55101 21579 56009 58007 555 10125
AAXX 17121 80453 NIL
AAXX 17121 80457 32470 5//// 10265 20221 30030 40115 82508 333 20243 30/// 50594 55064 2//// 56909 82613 555 10115
AAXX 17121 80462 NIL
AAXX 17124 60676 36/// /0803 10148 20000
AAXX 17124 60691 36/// /0804 10224 21092
AAXX 17124 60692 36/// /0603 10231 21061
AAXX 17124 60662 36/// /0000 10187 21176
AAXX 17124 60672 36/// /2708 10191 21138
AAXX 17124 60633 36/// /1804 10241 21114
AAXX 17124 78948 11576 60414 10265 20210 30135 40143 60001 70322 81404 333 00206 10304 20243 58011 70019 81825 85080
AAXX 17124 40250 32960 42705 10166 20041 39385 40185 57015 80002 333 84070
AAXX 17124 40260 32960 21912 10156 20050 39393 40181 57011 80001 333 82070
AAXX 17124 40265 31550 33004 10160 20050 39340 40209 57010 70500 83100 333 83830
AAXX 17124 60661 36/// /0000 10209 21078
AAXX 17124 60679 36/// /3306 10093 21179
AAXX 17124 60677 36/// /0000 10179 21084
AAXX 17124 60650 36/// /2302 10195 21050
AAXX 17124 61202 32965 10000 10264 21063 39603 40158 81042 333 59021 81365
AAXX 17124 61214 NIL
AAXX 17124 61223 32960 70806 10250 21048 39863 40163 80002 333 0//00 59016 87075
AAXX 17124 61226 32960 71210 10281 20048 39856 40123 80002 333 59012 87075
AAXX 17124 61230 32960 40814 10285 21080 39863 40132 80002 333 0//00 59002 84075
AAXX 17124 61233 32060 50808 10275 21097 3//// 4//// 80002 333 0//00 5//// 85075
AAXX 17124 61235 32960 70812 10290 21047 3//// 4//// 86042 333 0//00 5//// 86365
AAXX 17124 61240 32960 60810 10280 21022 39815 40140 80002 333 0//00 59020 86075
AAXX 17124 61250 32960 41404 10270 20071 3//// 4//// 80002 333 0//00 5//// 84075
AAXX 17124 61257 32960 31010 10300 21063 30088 40182 80002 333 0//00 59004 83075
AAXX 17124 61265 32965 60406 10283 21028 39832 40140 80002 333 59009 86075
AAXX 17124 61270 32960 20808 10300 21024 3//// 4//// 80002 333 0//00 5//// 82075
AAXX 17124 61272 32960 53606 10270 20062 39827 40154 80002 333 0//00 58003 85075
AAXX 17124 61277 32960 50404 10293 21051 39810 40123 82042 333 0//00 59002 82365 84075
AAXX 17124 61285 32960 41208 10320 21047 39985 40134 80002 333 59004 84075
AAXX 17124 61291 32960 10808 10282 20003 39728 40140 80002 333 0//00 58004 81075
AAXX 17124 61293 32960 60606 10280 20090 3//// 4//// 80002 333 0//00 5//// 86075
AAXX 17124 61296 32960 50806 10301 20088 3//// 4//// 81042 333 0//00 5//// 81365 85075
AAXX 17124 61297 32960 70406 10290 21016 3//// 4//// 80002 333 0//00 5//// 87075
AAXX 17124 60106 32558 61813 10129 20100 40291 58006 86200 333 86820
BBXX 46147 17121 99518 71312 46/// /3203 10080 40116 57003 22200 00080 11709 70047 333 91205
AAXX 17124 93800 16/// /1406 10118 20065 40107 52006 60001
AAXX 17124 93805 16/// /1514 10104 20065 40168 52006 60001
AAXX 17124 93994 16/// /2003 10200 20189 40095 57003 60041
BBXX 46147 17121 99518 71312 46/// /3203 10080 40116 57003 22200 00080 11709 70047 333 91205
AAXX 17121 28711 42998 21704 11068 21120 39984 40380 54000 80001
AAXX 17120 44210 32999 40000 11240 21246 38604 53003 82011 333 11182
AAXX 17121 25703 32699 70000 11327 21357 39913 40213 52012 82531 333 11264
AAXX 17121 25745 32698 21003 11265 21290 30061 40117 57006 82500 333 11166
AAXX 17121 25913 31699 30705 11085 21155 39896 40046 52009 70231 82530 333 11068 91112
AAXX 17121 25954 32998 03201 11109 21219 39935 40051 58010 333 11079
AAXX 17121 25956 32999 01005 11142 21213 30030 40036 58020 333 11115
AAXX 17121 31088 32599 83604 11158 21209 30051 40058 52006 8257/ 333 11152
AAXX 17121 31873 11997 22703 11165 21201 30081 40224 52008 69950 70173 80001 333 11136
AAXX 17121 31909 32998 03006 11132 21226 30088 40171 51003 333 11084
AAXX 17121 31960 32998 03408 11090 21219 39990 40236 52009 333 11075 91012 91114
AAXX 17121 31961 32998 00901 11187 21245 30194 40244 52016 333 11081
AAXX 17121 32053 11193 82604 11162 21175 30001 40052 52009 60040 78682 889// 333 11164 87703 91006 91109
AAXX 17121 32061 11561 83206 11131 21151 30057 40098 51007 69900 78583 889// 333 11124 91009 91110
AAXX 17121 32098 32598 80101 11187 21220 30060 40071 58003 82903 333 11104 91002 91103
AAXX 17121 32150 11596 73402 11134 21161 30068 40099 51002 69900 78582 86930 333 11098 91002 91103
AAXX 17121 32165 11596 73008 11045 21097 30051 40113 54000 69940 78583 87900 333 11035 91012 91112
AAXX 17121 32215 11996 02404 11048 21142 39914 49943 52022 60100 72683 333 11038 91008 91119
AAXX 17121 32252 NIL
AAXX 17121 32389 11293 81203 11021 21027 39919 49955 52017 69930 78682 889// 333 11015
AAXX 17121 32477 31/93 91101 11127 21127 39881 49914 52020 74542 333 11074
AAXX 17121 32583 32598 73604 11049 21081 39882 49912 52022 82501 333 11037
AAXX 17121 32618 11396 80910 11023 21038 39912 49934 52007 69930 78583 889// 333 11014 91013 91114
AAXX 17121 31961 32998 00901 11187 21245 30194 40244 52016 333 11081
AAXX 17121 31960 32998 03408 11090 21219 39990 40236 52009 333 11075 91012 91114
AAXX 17121 31873 11997 22703 11165 21201 30081 40224 52008 69950 70173 80001 333 11136
AAXX 17121 31909 32998 03006 11132 21226 30088 40171 51003 333 11084
AAXX 17124 71575 16/// /3006 11216 21244 39841 49907 56002 60001 333 11154 21221 4/017 70000 555 10020
AAXX 17124 71979 16/// ///// 10025 21026 38446 40086 56016 60001 333 10013 21072 4/035 70006
AAXX 17124 71189 46/// /2722 11109 21151 6///1 333 10034 21111 7////
AAXX 17124 71343 16/// /2513 10023 21019 60001 333 10032 20003 70000
AAXX 17124 71276 46/// ///08 11061 21081 6///1 333 10011 21065 7////
AAXX 17124 71217 16/// /2210 10025 21019 60001 333 10051 21076 70000
AAXX 17124 71224 16/// /2411 10025 21025 60001 333 10040 21007 7////
AAXX 17124 89002 42899 60719 11004 21020 39642 49696 57037 86030 333 11003 21036
AAXX 17121 50434 11975 70201 11227 21252 39328 40330 52007 69911 77070 80002
AAXX 17121 50527 32978 02703 11232 21251 39448 40331 52002
AAXX 17121 50603 32980 02703 11179 21211 39598 40339 52001
AAXX 17121 50632 32980 02906 11189 21230 39324 40297 52003
AAXX 17121 50727 32575 70000 11188 21218 39069 40376 54000 875//
AAXX 17121 50915 32980 02201 11202 21243 39301 40420 54000
AAXX 17121 51716 11965 50401 11027 21074 38969 40321 54000 69901 70070 82032 333 05200
AAXX 17121 51765 32980 03401 11077 21117 39294 40369 52005 333 05100
AAXX 17121 51777 32975 03601 11052 21120 39240 40354 54000 333 05251
AAXX 17121 51811 32962 70701 11020 21075 38838 40327 57002 8703/ 333 05300
AAXX 17121 51828 32962 72901 11017 21110 38681 40316 52001 80002 333 05200
AAXX 17121 52267 32980 72201 11071 21214 39214 40412 52006 80002 333 00102
AAXX 17121 52323 32980 01401 11131 21161 38278 52003 333 00051
AAXX 17121 52495 32980 02502 11126 21218 38774 40442 52010 333 00152
AAXX 17121 53149 32980 03401 11162 21214 38887 40446 52008 333 00352
AAXX 17121 53192 32980 02701 11283 21309 38997 40511 52008
AAXX 17121 53231 32980 01104 11147 21209 38566 52007 333 00152
AAXX 17121 53336 32980 01801 11131 21198 38812 40436 52008 333 00102
AAXX 17121 53391 32980 02902 11179 21211 38584 40437 52007 333 00101
AAXX 17121 53529 32980 20000 11089 21147 38713 40416 52018 80002 333 00103
AAXX 17121 53543 32980 12701 11081 21196 38617 40391 52013 80002
AAXX 17121 53723 32970 22701 11081 21102 38747 40408 52017 80002 333 00102
AAXX 17121 54012 32980 02704 11190 21239 39113 40424 52004
AAXX 17121 54026 32980 02902 11104 21223 39966 40318 52005
AAXX 17121 54027 32980 03602 11106 21238 39716 40351 52006
AAXX 17121 54208 32980 02903 11181 21224 38846 40462 52013
AAXX 17121 54776 32980 02502 11007 21096 30262 40322 52002
AAXX 17121 56004 32980 22502 11134 21339 35813 52014 80002 333 00353 91120 91529
AAXX 17121 56033 32980 23403 11152 21269 36014 52014 80002 333 00354
AAXX 17121 56046 32980 31802 11133 21213 36261 52018 80002 333 00351
BBXX 46183 17121 99536 71311 46/// /3406 10064 40121 52013 22200 00078 10803 70015 333 91207
AAXX 17121 56193 NIL
AAXX 17121 56196 11820 83401 10057 20045 40319 52033 69971 72166 885// 333 00100
AAXX 17121 56287 11456 80701 10062 20052 40320 52042 69931 76060 885// 333 00200
AAXX 17121 56684 32580 12001 10081 20003 37899 52025 81100 333 05205
AAXX 17121 56751 32780 11402 10118 20003 38022 52020 81400 333 00000
AAXX 17121 56786 32975 01804 10105 20046 38112 52022 333 05207
AAXX 17121 56977 32570 71401 10137 20119 40190 52011 874// 333 05101
AAXX 17121 57259 32965 00902 10038 21030 40330 52026
AAXX 17121 57279 32962 83601 10040 21033 40333 52018 8807/
AAXX 17121 57348 11860 62501 10073 20020 40307 52020 69901 70060 86500
AAXX 17121 57399 32962 00201 10057 21056 40320 52012
AAXX 17121 57554 32862 80000 10051 21018 40327 52023 885//
AAXX 17121 57793 32962 71102 10060 21021 40306 52010 8704/
AAXX 17121 58345 32961 00000 11009 21066 40340 52004
AAXX 17121 58506 32966 20902 10016 21341 40324 52010 82040
AAXX 17121 58813 32968 00203 10066 21025 40293 52014
AAXX 17121 58834 32973 02501 10080 21012 40290 52015
AAXX 17121 58926 32965 02001 10097 20045 40271 52023
AAXX 17121 58944 32565 80404 10112 20069 40285 52008 885//
AAXX 17121 59096 32962 02501 10112 21003 40265 52023
AAXX 17121 59102 32961 02001 10069 20028 40275 52018
AAXX 17121 59278 32761 23601 10147 20032 40246 52017 82500
AAXX 17121 59456 32968 00901 10169 20052 40227 52022
AAXX 17121 59493 31956 00901 10149 20086 40242 52017 70500
AAXX 17121 59658 32960 00703 10158 20101 40224 52015
AAXX 17121 59673 32962 00703 10149 20070 40234 52013
AAXX 17121 59845 31458 81401 10162 20147 40217 52014 71000 888//
BBXX 46183 17121 99536 71311 46/// /3406 10064 40121 52013 22200 00078 10803 70015 333 91207
AAXX 17124 40153 11550 72409 10127 20094 39108 48512 57012 60001 71022 84480
AAXX 17124 40179 12565 32508 10210 20125 30145 40182 57010 60001 83100
AAXX 17124 40180 12660 22404 10202 20111 30137 40185 57011 60001 82100
AAXX 17124 40190 16/// ///// 10214 20078 39848 40172 57019 60001
AAXX 17124 40199 13/// /0306 10226 20041 30142 40164 57030 60001
AAXX 17121 60379 16/// /2203 10145 20145 60111
AAXX 17121 60380 16/// /2702 10146 20146 60041
AAXX 17121 60394 16/// /2102 10145 20145 60121
AAXX 17121 60613 36/// /2306 10169 20024
AAXX 17121 60374 16/// /3303 10158 20111 60071
AAXX 17121 80402 NIL
AAXX 17121 80412 NIL
AAXX 17121 80416 NIL
AAXX 17121 80420 32470 30000 10247 20210 30115 40121 83500 333 20226 30/// 50554 55103 2//// 56900 58008 83613 555 10134
AAXX 17121 80425 12470 50501 10234 20229 30092 40123 60424 8242/ 333 20230 31/// 50054 55009 20605 5699/ 58010 82613 83460 555 10124
AAXX 17121 80426 11459 82001 10209 20208 39498 40149 60514 70255 889// 333 20209 31/// 5//// 55006 20632 569// 58008 81916 88616
AAXX 17121 80427 12570 73604 10249 20226 39862 40116 60014 83728 333 20238 30/// 5///4 55055 21909 56999 58007 83720 555 10131
AAXX 17121 80431 NIL
AAXX 17121 80434 NIL
AAXX 17121 80437 11570 80000 10238 20237 30022 40107 60244 70262 885// 333 20235 31/// 5//// 55008 2//// 569// 58015 88620
AAXX 17121 80440 11568 70000 10246 20226 39896 40106 69914 70226 8352/ 333 20236 30/// 50444 55052 21331 5699/ 58001 83620 84458 555 10110
AAXX 17121 80442 32970 6//// 10263 2//// 30015 4//// 80008 333 20250 30/// 55088 56009 58009 555 10126
AAXX 17121 80472 32465 80701 10229 20213 39646 40127 81207 333 20204 30/// 50544 55091 21923 56909 58003 82816 88275 555 10148
AAXX 17121 80475 32560 80000 10208 20208 39770 40141 885// 333 20205 31/// 55076 569// 58008 88620 555 10152
AAXX 17121 80476 32370 6//// 10258 20247 30102 40132 60234 70229 865// 333 20256 30/// 50440 55032 21097 569// 58000 86610
AAXX 17121 80478 NIL
AAXX 17121 80479 NIL
BBXX 46131 17121 99499 71250 46/// /1308 1//// 40251 57018 22200 00079 10501 70006 333 91210
BBXX 46131 17121 99499 71250 46/// /1308 1//// 40251 57018 22200 00079 10501 70006 333 91210
AAXX 17124 41244 36/// /2905 10253 20045 39802 48052 333 0E015 59005
AAXX 17124 88963 12960 00904 10080 21070 39894 49923 52056 69954 333 10080 20026 92407 95000
AAXX 17124 88968 31462 73235 10024 21009 39885 49900 50017 71022 87600 333 10090 20018 56700 87710 90062 90090 92446 92732 92840 94075 95065
AAXX 17124 89034 32970 00000 10002 20002 39508 49819 56001 333 10002 21068 92408 92851
AAXX 17124 89053 12360 32726 10020 20013 30006 40021 52024 60024 83700 333 10024 20000 56700 83708 90320 92426 94070 94477 95000 96410 97536 98560555 10019 6005/ 64213 65045
AAXX 17124 89055 32565 12023 10041 21061 39672 49911 52052 81500 333 10053 20000 56500 81630 95157
AAXX 17124 89066 12970 43220 11012 21025 39986 49995 51013 60204 84070 333 10008 21024 41005 56070 84360 92417 94030
AAXX 17121 10496 01486 72706 10038 20010 39842 49926 51022 69901 78082 83801 333 31/// 55300 20259 30258 69907 82815 85073 91115
BBXX 46204 17121 99514 71288 46/// /1313 10092 40138 57010 22200 00086 11809 70047 333 91217
BBXX 46204 17121 99514 71288 46/// /1313 10092 40138 57010 22200 00086 11809 70047 333 91217
AAXX 17124 48387 31558 30903 10166 20156 39180 40154 52013 71010 82544 333 10225 5//// 70000
BBXX ZDLP 17123 99607 50455 41297 82838 10017 21024 49925 51020 70222 886// 22292 04002 20502 31800 40803 5//// 80003 ICE 0/6/0
BBXX ZSAF 17124 99626 30004 41599 72708 11006 21047 49635 57008 70222 8457/ 22232 05015 2//// 3//// 4//// 5//// ICE 76040
BBXX JPAT 17124 99228 31002 41598 71513 10224 20147 40135 52009 70322 8749/ 22200 00235 10803 21020 314// 40603 5//// 6////
BBXX 9HA2479 17124 99279 31594 46/// /1525 10204 20119 30143 40172 52015 22254 04238 85153
BBXX C6FS9 17124 99238 31512 46/// /1513 10229 20181 30145 40181 52014 22200 04266 85197
BBXX VROB 17124 99213 31541 46/// /1225 10248 20174 30118 40143 52009 22243 04264 85198
BBXX FHZI 17124 99534 31450 46/// /2912 10047 2//// 30182 40193 57003 22243 04039
BBXX VNAH 17124 99333 31157 46/// /2009 10216 20127 30068 40091 52002 22200 85161
AAXX 17124 42398 31594 30000 10153 20143 40155 71000 81530 333 10201 58007
AAXX 17124 42724 31995 00000 10176 20148 40142 70500 333 10222 59001
AAXX 17124 42886 31996 00000 10232 20081 40137 70500 333 10282 58000
AAXX 17124 42895 31995 03602 10204 20126 40140 70500 333 10262 59003
AAXX 17124 42971 31994 00000 10232 20163 40135 71000 333 10277 59002
AAXX 17124 42309 NIL
AAXX 17124 42314 NIL
AAXX 17124 42410 NIL
AAXX 17124 42415 NIL
AAXX 17124 42492 NIL
AAXX 17124 42587 NIL
AAXX 17124 42591 NIL
AAXX 17124 42623 NIL
AAXX 17124 42701 NIL
AAXX 17124 42706 NIL
AAXX 17124 42798 NIL
AAXX 17124 42809 NIL
AAXX 17124 42977 NIL
AAXX 17124 43333 NIL
AAXX 17124 43368 NIL
AAXX 17124 91650 NIL
AAXX 17124 91652 NIL
AAXX 17124 91656 NIL
AAXX 17124 91659 11698 30000 10242 2023/ 40120 50000 69901 70280 81801 333 10303 569/9 81830 83079
AAXX 17124 91660 NIL
AAXX 17124 91669 36/// /1204 10263 20261 40123 57008 91215 333 10329
AAXX 17124 91670 36/// /0400 10268 20233 40118
AAXX 17124 91676 14/// /0703 10262 20238 30053 40113 55009 60001 333 10320
AAXX 17124 91680 11698 50000 10247 20232 40121 58006 60001 70311 82107 333 10327 569/9 82830 84080
AAXX 17124 91682 NIL
AAXX 17124 91683 11497 80000 10252 20249 40124 58004 60061 79509 889// 333 10313 569// 82918 86820 86645
AAXX 17124 91691 14/// /0801 10260 20249 30126 40129 50009 60001 333 10330
AAXX 17124 91693 NIL
AAXX 17124 91697 14/// /0502 10269 20238 30121 40126 55004 60001 333 10318
AAXX 17124 91699 14/// /0204 10269 20245 30101 40133 55005 60001 333 10352
AAXX 17124 92044 11470 63409 10284 20252 30084 40090 52014 69961 70222 83232
AAXX 17124 41244 36/// /2905 10253 20045 39802 48052 333 0E015 59005
AAXX 17121 21802 11999 83007 11204 21232 30168 40193 58004 69942 73673 8802/ 333 11161
AAXX 17121 24125 11998 40000 11223 21228 39921 40221 52013 69932 70272 80001 333 11184
AAXX 17121 24136 11998 80000 11302 21332 30090 40199 51005 69952 77172 80007 333 11215
AAXX 17121 24143 11998 50000 11331 21367 30158 40215 52012 69972 77173 80006 333 11311
AAXX 17121 24266 12998 02701 11428 21455 30044 40250 52008 69900 333 11369
AAXX 17121 24329 NIL
AAXX 17121 24343 11998 50000 11370 21391 30098 40234 52018 60012 72272 82032 333 11331
AAXX 17121 24382 31996 80000 11363 21390 39945 40230 52008 71000 86037 333 11382
AAXX 17121 24639 12998 52502 11259 21284 30050 40217 52014 69922 80001 333 11208
AAXX 17121 24641 11999 60201 11341 21371 30053 40214 52012 69932 70272 80008 333 11304
AAXX 17121 24652 32997 70806 11338 21368 30100 40239 54000 8705/ 333 11337
AAXX 17121 24656 32999 00000 11439 21476 30132 40253 52003 333 11412
AAXX 17121 24671 NIL
AAXX 17121 24688 11997 80000 11330 21360 39234 40252 52001 69900 77172 87037 333 11348
AAXX 17121 24724 11997 82903 11205 21230 39675 40241 52008 69922 77172 8802/ 333 11192
AAXX 17121 24738 12998 32101 11262 21274 30032 40225 52006 69922 80001 333 11181
AAXX 17121 24768 32997 30000 11444 21479 39969 40245 58001 80001 333 11442
AAXX 17121 24923 11598 52502 11175 21201 39923 40247 51001 69932 77171 85500 333 11139 85623
AAXX 17121 24944 11996 82703 11183 21202 39915 40225 52011 60012 77172 85037 333 11154
AAXX 17121 24951 12999 00000 11302 21325 30033 40219 51002 69902 333 11236
AAXX 17121 24661 31997 00000 11463 21492 39941 40258 53013 74000 333 11435
AAXX 17121 24959 11994 80601 11398 21427 30090 40240 52003 69902 77172 80005 333 11394
AAXX 17121 24962 11996 20601 11427 21455 30023 40242 52003 69902 71071 80001 333 11391
AAXX 17121 24966 11997 80000 11411 21431 39987 40237 52004 69900 77172 80007 333 11355
AAXX 17121 24967 32999 20000 11398 21433 30003 40256 52004 80001 333 11362
AAXX 17121 25206 11998 81801 11294 21317 30168 40198 52009 69900 77172 86037 333 11272
AAXX 17121 25400 32998 81801 11264 21288 30141 40201 52007 8803/ 333 11253
AAXX 17121 30054 11597 82503 11103 21139 30012 40261 52012 60012 78582 86907 333 11102
AAXX 17121 30089 11997 80000 11190 21202 39993 40232 52008 69982 77172 8802/ 333 11184
AAXX 17121 30393 11998 80000 11294 21311 39133 40289 52004 69932 77172 83037 333 11265 47///
AAXX 17121 30493 32999 01401 11209 21242 39125 40242 52002 333 11182
AAXX 17121 31004 11997 82001 11238 21256 39338 40240 54000 69922 77171 86037 333 11189
AAXX 17121 31137 NIL
AAXX 17124 92044 11470 63409 10284 20252 30084 40090 52014 69961 70222 83232
BBXX JPAT 17124 99228 31002 41598 71513 10224 20147 40135 52009 70322 8749/ 22200 00235 10803 21020 314// 40603 5//// 6////
BBXX 9HA2479 17124 99279 31594 46/// /1525 10204 20119 30143 40172 52015 22254 04238 85153
BBXX C6FS9 17124 99238 31512 46/// /1513 10229 20181 30145 40181 52014 22200 04266 85197
BBXX VROB 17124 99213 31541 46/// /1225 10248 20174 30118 40143 52009 22243 04264 85198
BBXX FHZI 17124 99534 31450 46/// /2912 10047 2//// 30182 40193 57003 22243 04039
BBXX VNAH 17124 99333 31157 46/// /2009 10216 20127 30068 40091 52002 22200 85161
AAXX 17124 83064 21897 80000 10237 20234 39845 40117 75162 8802/ 333 2//// 58012 60184
AAXX 17124 83235 21697 80000 10220 20212 39450 40119 70365 885// 333 20211 58006 60104
AAXX 17124 83332 21696 80000 10218 20203 39212 40115 70352 887// 333 20200 58019 69984
AAXX 17124 83423 22598 73602 10234 20198 39298 40111 83479 333 20199 58014 60094
AAXX 17124 83470 22698 62702 10236 20206 39247 40096 86200 333 20194 58014 60024
AAXX 17124 82098 32497 50000 10296 20233 30094 40111 83460 333 20241 58005
AAXX 17124 82106 21196 81806 10229 20225 3//// 4//// 70396 887// 333 20226 5//// 60474
AAXX 17124 82113 21496 80000 10248 20243 3//// 4//// 70342 8675/ 333 20248 5//// 60024
AAXX 17124 82212 21697 70000 10239 20233 30038 40120 70362 8471/ 333 20228 58031 60314
AAXX 17124 82246 22597 81602 10259 20242 39919 40117 8672/ 333 20228 59003 60054
AAXX 17124 82336 22698 51402 10260 20246 3//// 4//// 83403 333 20246 5//// 60064
AAXX 17124 82410 32596 83602 10251 20241 3//// 4//// 8552/ 333 20236 5////
AAXX 17124 82425 32996 81402 10258 20238 3//// 4//// 88050 333 20245 5////
AAXX 17124 82445 31696 60902 10276 20258 30080 40132 71044 83570 333 20250 58010
AAXX 17124 82460 32597 60503 10281 20242 30086 40115 86200 333 20240 58049
AAXX 17124 82533 22197 81802 10248 20232 3//// 4//// 887// 333 20233 5//// 60114
AAXX 17124 82562 32598 63604 10279 20235 30012 40120 85201 333 20245 59008
AAXX 17124 82571 32497 20504 10277 20228 39935 40108 82200 333 20234 59006
AAXX 17124 82704 22695 80000 10237 20228 39868 40062 885// 333 20235 58000 60064
AAXX 17124 82723 21197 83602 10245 20241 30044 40126 70266 887// 333 20230 58026 60204
AAXX 17124 82765 32398 80701 10256 20244 39912 40152 8572/ 333 20245 58008
AAXX 17124 82042 22197 60000 10249 20236 3//// 4//// 86600 333 20248 5//// 60044
AAXX 17124 82141 32598 50505 10292 20241 30103 40115 83230 333 20260 58008
AAXX 17124 82145 32598 40904 10298 20225 30082 40123 83240 333 20171 58006
AAXX 17124 82181 21497 50210 10259 20227 39999 40139 70326 83208 333 20240 58008 60044
AAXX 17124 82198 31495 50509 10296 20226 30058 40109 70512 85200 333 20246 58003
AAXX 17124 82240 21596 80000 10259 20240 3//// 4//// 70352 887// 333 20256 5//// 69944
AAXX 17124 82317 32893 60000 10254 20244 3//// 4//// 83030 333 20215 5////
AAXX 17124 82353 32496 83606 10256 20233 39993 40077 8672/ 333 20228 58002
AAXX 17124 82361 21497 53603 10269 20237 30090 40127 70262 84120 333 20240 58007 60034
AAXX 17124 82476 32595 00302 10286 20221 39992 40102 333 20237 59001
AAXX 17124 82610 32595 80000 10247 20241 3//// 4//// 887// 333 20230 5////
AAXX 17124 82807 21295 80000 10244 20241 3//// 4//// 76162 887// 333 20238 5//// 60044
AAXX 17124 82861 21596 81804 10239 20228 39925 40094 70296 885// 333 20231 58017 60374
AAXX 17124 82586 32598 53603 10275 20212 39882 40119 85400 333 20231 58007
AAXX 17124 82678 32596 63202 10293 20217 39983 40121 81131 333 20232 58006
AAXX 17124 82784 32798 20905 10271 20203 39671 40124 82020 333 20185 59002
AAXX 17124 82791 32599 20913 10284 20185 39849 40125 82100 333 2//// 58004
AAXX 17124 82983 32597 71408 10260 20206 39711 40120 86012 333 20238 58001
AAXX 17123 67765 41680 70507 10247 20185 38658 48502 71792 84233 333 81935 84839 84360
AAXX 17123 67775 41570 70602 10248 20171 38502 48506 71522 84273 333 81925 84830 86460
AAXX 17123 67779 42680 30904 10270 20173 39039 48499 82132 333 82844
AAXX 17123 67861 42680 50000 10272 20164 38718 48501 83243 333 81940 83845
AAXX 17123 67867 41480 70000 10199 20194 38591 48519 75865 8657/ 333 86615 87458
AAXX 17123 67881 42580 51904 10239 20161 38578 48507 84230 333 84832 83360
AAXX 17123 67965 41580 71911 10225 20176 38700 48526 75052 875// 333 87620
AAXX 17123 67975 41565 71610 10212 20191 38938 48529 76062 8757/ 333 87620
AAXX 17123 67991 42980 10703 10300 20146 39597 48526 80002 333 81080
AAXX 17124 67755 NIL
AAXX 17124 67771 41670 61203 10278 20172 38/// 48/// 71522 86233 333 5//// 81940 86845
AAXX 17124 67773 42680 30504 10275 20179 38/// 48/// 83230 333 5//// 83840
AAXX 17124 67774 NIL
AAXX 17124 67785 NIL
AAXX 17124 67789 NIL
AAXX 17124 67855 41680 71603 10270 20189 38/// 48/// 72095 8427/ 333 84840 87460
AAXX 17124 67857 NIL
AAXX 17124 67863 NIL
AAXX 17124 67871 NIL
AAXX 17124 67875 NIL
AAXX 17124 67891 NIL
AAXX 17124 67895 NIL
AAXX 17124 67897 NIL
AAXX 17124 67899 42680 51006 10240 20178 38/// 48/// 83233 333 5//// 81920 83830
AAXX 17124 67951 NIL
AAXX 17124 67963 NIL
AAXX 17124 67967 NIL
AAXX 17124 67971 41580 81308 10215 20189 38/// 48/// 70252 885// 333 5//// 88620
AAXX 17124 67976 NIL
AAXX 17124 67979 41970 81301 10208 20199 38/// 48/// 76062 8807/ 333 5//// 88458
AAXX 17124 67765 41680 70507 10247 20185 38658 48502 71792 84233 333 58009 81935 84839 84360
AAXX 17124 67775 41670 70602 10248 20171 38502 48506 71522 84273 333 58010 81925 84830 86460
AAXX 17124 67779 42680 30904 10270 20173 39039 48499 82132 333 58015 82844
AAXX 17124 67853 NIL
AAXX 17124 67861 42680 50000 10272 20164 38718 48501 83243 333 59002 81940 83845
AAXX 17124 67867 41480 70000 10199 20194 38591 48519 75865 8657/ 333 58008 86615 87458
AAXX 17124 67881 42680 51904 10239 20161 38578 48507 84230 333 58002 84832 83360
AAXX 17124 67965 41580 71911 10225 20176 38700 48526 75052 875// 333 58011 87620
AAXX 17124 67975 41565 71610 10212 20191 38938 48529 76062 8757/ 333 58001 87620
AAXX 17124 67977 NIL
AAXX 17124 67983 NIL
AAXX 17124 67991 42980 10703 10300 20146 39597 48526 80002 333 59002 81080
AAXX 17121 35925 42998 61106 11093 21118 30212 40329 57013 80002 555 1/109
AAXX 17121 38001 42997 30505 10039 21057 30253 40223 57006 83030 555 10004
AAXX 17121 38232 42998 70806 11001 21055 30151 40251 57012 87070 555 1/000
BBXX WFLH 17123 99243 71508 41/98 /0513 10217 20192 40210 57003 7//22 8//// 22214 00228 20402 330// 41505 5//// 6//// 80200 ICE /////
BBXX 3EMK6 17124 99266 70925 41397 40215 10230 20201 40260 54/// 7//11 84/// 22200 00228 20402 3//// 40402 50402 6//// 80210 ICE /////
BBXX C6FR4 17124 99097 70813 41396 82720 10230 2//// 40110 54000 75855 889// 22222 04280 20402 305// 40805 5//// 6//// 8//// ICE /////
BBXX VRHO2 17124 99357 11414 41898 53013 10080 20013 40200 54000 70111 841// 22254 00200 20503 33030 41202 51402 6//// 80050 ICE /////
BBXX WNBE 17124 99214 71585 41/// 50537 10240 2//// 40180 54/// 7//// 85/// 222// 0//// 2//// 3//// 4//// 5//// 6//// 8//// ICE /////
BBXX C6VG7 17124 99226 70848 415// 41216 10240 2//// 40190 5/000 7//11 84/6/ 22214 0//// 20402 3//// 40402 50402 6//// 8//// ICE /////
BBXX V7HC6 17124 99273 70907 41698 50115 10220 20205 40236 51007 70222 8524/ 22200 00230 20401 312// 40601 5//// 6//// 80210 ICE /////
BBXX WKAE 17123 99538 10065 41498 73230 10067 20028 49984 52039 72562 83268 22263 00090 20405 3//// 4//// 5//// 6//// 80049 ICE /////
BBXX 46088 17121 99483 71232 46/// /0802 10067 40261 91220 22200 00079 1//00 70002 333 91203 555 11021 22021 31146 41003 61219 084020 096020 102023 103026 125020 135022
BBXX 46088 17121 99483 71232 46/// /0802 10067 40261 91220 22200 00079 1//00 70002 333 91203 555 11021 22021 31146 41003 61219 084020 096020 102023 103026 125020 135022
BBXX 46087 17121 99485 71247 46/// /1106 10082 20081 40256 91220 22200 00078 333 91208 555 11066 22071 31211 41108 61219 106061 106054 102056 103052 100050 097050
AAXX 17121 30157 11996 82902 11098 21145 39984 40278 53003 69992 77172 8802/ 333 11089
BBXX 44039 17121 99411 70727 46/// /3005 10048 21011 40199 52005 91200 22200 00099 10301 70004 333 91207
BBXX 44060 17121 99413 70721 46/// ///05 10039 40190 91215 22200 00108 333 91206 555 11051 22051
BBXX 44033 17121 99441 70690 46/30 /0104 10023 40168 52013 91204 22200 00082 11101 70005 333 91206 555 11049 22051
BBXX 44034 17121 99441 70681 46/30 /0104 10008 40168 51014 91204 22200 00087 11102 70010 333 91206 555 11039 22040
BBXX 44024 17121 99423 70659 46/30 /0205 10057 40159 53006 91204 22200 00092 10805 70025 333 91207 555 11059 22061
BBXX 44022 17121 99409 70737 46/// ///06 10033 21023 40196 91215 22200 00089 333 91208 555 11067 22072
BBXX 44029 17121 99425 70706 46/30 /2807 10045 40164 53004 91204 22200 00091 10301 70006 333 91209 555 11088 22092
BBXX 44030 17121 99432 70704 46/// /2607 1//// 40162 53005 91204 22200 00090 11102 70009 333 91208 555 11081 22086
BBXX 44040 17121 99410 70736 46/// /3106 10034 21020 40204 91215 22200 1//00 70002 333 91208 555 11072 22082
AAXX 17124 89050 31498 12818 10016 21029 40015 51014 70211 81100
AAXX 17124 89512 21396 81232 10000 21002 39534 49679 57009 77172 8802/
AAXX 17124 89574 32998 10912 10007 21113 49947 57011 80001 333 10010
AAXX 17124 89592 32999 01206 11007 21053 49880 57022
AAXX 17124 89606 31998 02808 11302 21362 36299 47751 54000 70230
AAXX 17124 40250 32960 42705 10166 20041 39385 40185 57015 80002 333 84070
AAXX 17124 40265 31550 33004 10160 20050 39340 40209 57010 70500 83100 333 83830
AAXX 17124 40296 32960 00000 10208 20099 40186 57023
AAXX 17124 40310 32960 01404 10147 21010 38956 48500 57018
BBXX DDJR2 17124 99350 50290 41498 70913 10190 20142 40170 54000 70222 87710 22264 00180 29903 323// 41206 5//// 80160
BBXX ELWO6 17123 99206 70180 41598 20416 10232 20170 40200 52015 70100 81441 22284 00211 20802 304// 41004 80191
BBXX A8ZS7 17124 99314 30326 41598 40812 10245 20152 40195 58010 70300 84100 22254 04220 20401 314// 40602 80185
BBXX ONDY 17124 99177 30113 41697 31728 10180 2013/ 40120 58010 70211 834// 22244 00166 2//// 3//// 4//// 5//// 6//// 80150 ICE /////
BBXX DCHO 17124 99014 70293 41498 30412 10270 20243 40110 50010 703// 831// 22254 04270 20101 80250
BBXX PDHP 17123 99138 10509 41/97 /0514 10261 20260 40129 56/// 7//11 8/100 22265 00261 2//05 80260
BBXX WDB9986 17124 99404 11556 41698 42929 10050 2003/ 40094 5//// 70222 82288 22214 00110 20611 331// 40714 5//// 6//// 80040 ICE /////
BBXX SHIP 17124 99120 11287 41398 10917 10280 20253 40092 53002 70111 811// 22244 00293 399// 4//// 5//// 80260
BBXX JNCJ 17124 99336 11396 41497 62925 10100 21018 40210 51010 70322 868// 22233 00230 20202 332// 40203 80050
BBXX JPBN 17124 99349 11403 41/98 10116 10087 21067 40211 54000 70200 81200 22200 00178 10702 20301 399// 4//02 70010
BBXX JGQH 17124 99312 11335 41/97 43314 10112 20000 40266 58003 70311 81230 22213 00225 1//04 20301 399// 4//02 70019
BBXX VRHO2 17124 99357 11414 41898 53013 10080 20013 40200 54000 70111 841// 22254 00200 20503 33030 41202 51402 6//// 80050 ICE /////
BBXX WECH 17123 99193 11700 43498 20819 10240 2021/ 40192 57004 7//// 822// 22255 00270 2//// 3//// 4//// 5//// 6//// 80220 ICE /////
BBXX UCDN 17120 99530 11436 42698 93318 11100 49986 569986 71674 89900 22283 06030 336// 40602 63031 ICE41071
BBXX UCDM 17120 99445 11379 42/98 93009 11058 40159 56004 22213 06027 20503
BBXX UFLC 17120 99488 11404 42898 23106 11032 40139 54000 22253 06012 20201
BBXX MZDL7 17123 99044 71122 41198 11917 10230 20227 40114 58006 70200 811// 22233 00260 20505 3//// 4//// 5//// 80228
BBXX DFVY2 17124 99270 50475 41998 03109 10250 20225 40079 53011 70200 22244 00230 10804 70020 80232
BBXX DCPC2 17124 99208 50840 41498 71115 10195 20125 40200 54000 70181 8646/ 22273 00190 2//// 3//// 4//// 5////
BBXX DFCX2 17123 99020 70793 41698 72313 10263 20216 40118 50004 71522 83999 22254 06267 20502 327// 41302 80230
BBXX 46204 17121 99514 71288 46/// /1313 10092 40138 57010 22200 00086 11809 70047 333 91217
BBXX 46131 17121 99499 71250 46/// /1308 1//// 40251 57018 22200 00079 10501 70006 333 91210
BBXX 46183 17121 99536 71311 46/// /3406 10064 40121 52013 22200 00078 10803 70015 333 91207
BBXX 46147 17121 99518 71312 46/// /3203 10080 40116 57003 22200 00080 11709 70047 333 91205
BBXX 44098 17121 99428 70702 46/// ///// 1//// 91207 22200 00091 11102 20901 310// 41101 70009
BBXX 41029 17121 99328 70796 46/// /2904 1//// 91200 555 11049 22057
BBXX 44097 17121 99410 70711 46/// ///// 1//// 91202 22200 00121 11302 20802 316// 41301 70011
BBXX 46221 17121 99339 71186 46/// ///// 1//// 91145 22200 00154 11401 21001 321// 41401 70007
BBXX 46114 17121 99364 71222 46/// ///// 1//// 91204 22200 00122 11505 20803 331// 41504 70024
BBXX 41114 17121 99276 70802 46/// ///// 1//// 91216 22200 00248 11002 21002 306// 41101 70011
BBXX C6KJ5 17124 99291 70944 41497 60420 10130 2011/ 40265 52008 72100 86220 22273 00182 80120
BBXX 5BDK2 17124 99133 70804 41497 70524 10270 2024/ 40160 51010 70300 86188 22283 00280 20703 305// 40903 5//// 6//// 80250 ICE /////
BBXX WNBE 17124 99214 71585 41/// 50537 10240 2//// 40180 54/// 7//// 85/// 222// 0//// 2//// 3//// 4//// 5//// 6//// 8//// ICE /////
BBXX 46211 17121 99469 71242 46/// ///// 1//// 91206 22200 00083 12005 21003 328// 42005 70026
BBXX 46231 17121 99327 71174 46/// ///// 1//// 91154 22200 00144 11102 20902 327// 41101 70010
BBXX 46219 17121 99332 71199 46/// ///// 1//// 91158 22200 00136 11104 20903 331// 41102 70019
BBXX 46242 17121 99332 71174 46/// ///// 1//// 91158 22200 00147 11001 21001 324// 41201 70006
BBXX 46222 17121 99336 71183 46/// ///// 1//// 91156 22200 00153 11201 21001 325// 41201 70007
BBXX 46223 17121 99335 71178 46/// ///// 1//// 91200 22200 00151 11302 20801 322// 41301 70009
BBXX 46216 17121 99343 71198 46/// ///// 1//// 91157 22200 00147 11002 21002 327// 41701 70010
BBXX 46212 17121 99408 71243 46/// ///// 1//// 91212 22200 00098 11504 20602 330// 41504 70022
BBXX 46217 17121 99342 71194 46/// ///// 1//// 91212 22200 00145 11102 21001 328// 41101 70008
BBXX 46229 17121 99438 71246 46/// ///// 1//// 91151 22200 00103 11305 21003 329// 41304 70023
BBXX 44100 17121 99363 70756 46/// ///// 1//// 91152 22200 00130 11403 20402 309// 41402 70015
BBXX 46237 17121 99378 71226 46/// ///// 1//// 91210 22200 00111 11503 20802 325// 41502 70014
BBXX 46241 17121 99330 71173 46/// ///// 1//// 91141 22200 00142 11101 20801 327// 41101 70007
BBXX 46248 17121 99461 71247 46/// ///// 1//// 91204 22200 00095 12005 21003 329// 42005 70027
BBXX 42364 17121 99291 70881 46/// /3609 10194 20167 40251 91215
BBXX 42363 17121 99282 70892 46/// /0309 10206 20161 40251 91215 333 91209
BBXX 42362 17121 99278 70907 46/// /0307 10211 20189 40247 91215
BBXX PBFM 17123 99296 70436 41/97 81427 10218 20194 40171 54000 76182 887// 22254 20605 314// 40806 80202
BBXX C6FR4 17124 99097 70813 41396 82720 10230 2//// 40110 54000 75855 889// 22222 04280 20402 305// 40805 5//// 6//// 8//// ICE /////
BBXX WFLH 17123 99243 71508 41/98 /0513 10217 20192 40210 57003 7//22 8//// 22214 00228 20402 330// 41505 5//// 6//// 80200 ICE /////
BBXX 46207 17121 99509 71299 46/// /2012 10092 40131 57012 22200 00085 11810 70051 333 91214
BBXX C6KD7 17123 99260 70537 41298 70126 10225 20208 40118 53005 76011 8647/ 22223 02237 21005 301// 41407 5//// 80214
BBXX 46112 17121 99481 71227 46/// /1404 10055 40265 58025 91200
BBXX 46111 17121 99481 71227 46/// /1605 10061 40262 58027 91200 22200 00057
BBXX 44067 17121 99384 70770 46/// /0604 10044 40227 51015 91200
BBXX 44032 17121 99437 70694 46/30 /0304 10030 40159 52009 91204 22200 00087 11102 70009 333 91205 555 11048 22049
BBXX SHIP 17124 99033 31462 41098 62718 10290 20264 40075 54000 7022/ 82172 22273 00330 20100 332// 40402 80270
BBXX DAJT 17124 99069 30797 41398 52715 10275 20234 40015 56015 70022 8/6// 22254 04280 2//03 80245
BBXX A8ZP9 17123 99031 11006 41597 734// 10280 40090 53010 71322 8571/ 22274 00290 2//// 3//// 4//// 5////
BBXX OXVE2 17124 99395 31411 41/98 80926 10170 20153 40122 7//// 8//// 22224 04150 20103 3//// 4//// 5//// 80160
BBXX WCZ5238 17124 99119 71722 41498 61024 10250 20222 40128 57010 7//61 8624/ 22273 00260 20404 309// 40608 5//// 6//// 80230 ICE /////
BBXX WAHP 17124 99340 10236 41598 42518 10195 2016/ 40198 56025 7//11 84430 22275 00183 20302 328// 40402 5//// 6//// 80172 ICE /////
BBXX WKAE 17123 99538 10065 41498 73230 10067 20028 49984 52039 72562 83268 22263 00090 20405 3//// 4//// 5//// 6//// 80049 ICE /////
BBXX 62107 17124 99501 70061 46/// /3226 10084 20016 40169 51015 22200 00114 10908 70038 333 90710 91136
BBXX 62095 17124 99531 70159 46/// /2915 10079 20027 40238 52014 22200 00113 10807 70037
BBXX 63110 17123 99595 10015 41597 73435 10069 49970 70222 8/8// 22200 10709 70045
BBXX 62305 17124 99504 10000 46/98 /3022 10066 20030 40111 58001 22200 00120 10802 70012 333 90710 91132
BBXX TBWUK03 17123 99483 70059 41598 53027 10091 20059 40198 52040 70222 84444 22243 20401 329// 40906 5//// 80075
BBXX 62094 17124 99517 70067 46/// /3024 10076 20031 40156 51014 22200 00107 10707 70033 333 90710 91131
BBXX A8IY4 17121 99472 70110 41/98 63210 10100 20056 40255 52030 70222 864// 22254 04188 2//// 332// 41608 80080
BBXX 62027 17124 99491 70022 46/// /3317 1//// 2//// 40134 51004 22200 00118 1//// 3//// 7//// 333 90710 91125
BBXX DHTK 17124 99321 70185 41/98 80521 10197 20128 40320 51020 70222 8677/ 22214 00200 2//05 80155
BBXX 62304 17124 99511 10018 46/98 /2919 10057 20019 40087 52006 22200 00116 10602 70012 333 90710 91125
BBXX 62170 17124 99514 10020 46/97 /2823 10057 20033 40082 53006 22200 00112 10603 70013 333 90710 91129
BBXX 62163 17124 99475 70084 46/// /3218 10099 20046 40230 51012 22200 00129 10910 70051 333 90710 91132
BBXX PENR 17123 99463 70139 41697 33516 10110 20030 40294 52001 70200 8214/ 22214 20503 335// 41208 80075
BBXX 62146 17124 99572 10021 47/98 /3220 10060 21017 49994 52016 700// 22200 10706 70031
BBXX 62140 17124 99573 10013 46/// /34// 10063 21006 49998 51014 22200
BBXX 62164 17124 99572 10008 47498 /3022 10070 20025 40013 51016 700// 22200 00097 10606 70028
BBXX AMOUK09 17124 99506 10010 46/// ///// 10071 20032 30078 40093 52009 91150
BBXX 62103 17124 99499 70029 46/// /3327 10079 20018 40124 52005 22200 00121 10907 70033 333 90710 91134
BBXX AMOUK13 17124 99518 10013 46/// ///// 10044 20022 30063 4//// 5//// 91150
BBXX 62122 17124 99573 10016 47698 /3219 10061 20001 49995 52015 700// 22200 10706 70031
BBXX PJGO 17124 99571 10022 47698 /3224 10068 20003 49995 52015 700// 22200
BBXX 62153 17124 99573 10020 47698 /3321 10062 21003 49995 52017 762// 22200 10606 70032
BBXX 62116 17124 99576 10011 47497 /3326 10062 21001 49999 52015 761// 22200 10706 70032
BBXX 62104 17124 99574 10013 47698 /3321 10073 21003 49997 52014 700// 22200
BBXX 62143 17124 99577 10018 47598 /3424 10060 21005 49999 52015 700// 22200 10607 70034
BBXX 62155 17124 99577 10007 47999 /3322 10051 20001 40007 52016 700// 22200 10606 70030
BBXX 62142 17124 99530 10021 47498 /3018 10048 20017 40045 50004 700// 22200 10504 70019
BBXX 62117 17124 99579 10000 47597 /3324 10056 21004 40014 52020 700// 22200 10605 70026
BBXX 62118 17124 99577 10009 46997 /3320 10044 21001 40001 52019 22200 10706 70032
BBXX 62102 17124 99579 10018 46/// /3327 10062 21012 49987 52014 22200 10706 70031
BBXX 62134 17124 99580 10014 47698 /3422 10055 21012 49995 52015 700// 22200 10706 70031
BBXX ZQSD5 17124 99583 10007 46/// /3327 10050 21008 40006 52020 22200 10807 70034
BBXX 62114 17124 99583 10000 46/// /3222 10039 21022 40015 52017 22200
BBXX 62145 17124 99531 10028 47498 /2716 10053 20008 40049 51004 700// 22200 10505 70023
BBXX 62144 17124 99534 10017 47498 /2814 10049 20011 40050 50003 700// 22200 10504 70018
BBXX 62121 17124 99535 10027 46/// ///// 22200
BBXX 62150 17124 99536 10007 47498 /2917 10044 20016 40059 51006 700// 22200
BBXX 62149 17124 99537 10011 47498 /3012 10054 20011 40049 51008 700// 22200 10504 70018
BBXX 62127 17124 99540 10007 47999 ///// 10049 20013 40044 51004 700// 22200 10504 70018
BBXX 62131 17124 99539 10012 46/// /30// 10061 20010 40040 50004 22200
BBXX 62148 17124 99536 10015 46/// /2916 10050 20011 40049 50006 22200
BBXX 62165 17124 99540 10009 47598 /3009 10058 20003 40048 50004 700// 22200 10604 70020
BBXX 62120 17124 99564 10021 47798 /3317 10053 20002 40007 52016 700// 22200
BBXX 62154 17124 99564 10022 46/// /3319 10061 20005 49997 52012 22200
BBXX 62123 17124 99563 10022 47598 /3320 10062 20011 40001 52013 700// 22200
BBXX 62132 17124 99564 10020 46/// /0000 10059 20004 40001 51012 22200
BBXX 62152 17124 99570 10018 46/// /3324 10063 20002 40001 51014 22200 10605 70027
BBXX 62119 17124 99570 10019 47597 /3324 10057 21005 40000 51015 700// 22200 10706 70031
BBXX 62133 17124 99571 10009 46/// /3117 10055 21007 40010 50014 22200
BBXX 64041 17124 99607 70026 47798 /3224 10030 21056 40024 52016 700// 22200 10910 70048
BBXX 63115 17124 99616 10013 47598 /3125 10025 21017 49972 51018 700// 22200 10810 70050
BBXX MWYG6 17124 99603 70040 47998 /3318 10048 700// 22200
BBXX 63104 17124 99612 10016 47598 /3321 10038 21010 49961 52025 700// 22200
BBXX 63117 17124 99613 10011 47498 /3323 10036 21021 49967 52020 762// 22200
BBXX 63103 17124 99612 10011 46/// /3428 10033 21022 49970 52020 22200 10809 70043
BBXX 63107 17124 99611 10017 46/// /3226 10035 49958 52024 22200
BBXX 63101 17124 99612 10009 46/// /3427 10038 21009 49969 51019 22200
BBXX 63105 17124 99610 10017 47598 ///// 10041 21016 49959 51025 700// 22200
BBXX 63112 17124 99611 10010 47598 /3325 10032 21028 49963 52020 700// 22200 10809 70047
BBXX 63113 17124 99610 10017 46/// /3328 10035 21010 49963 52027 22200 10809 70046
BBXX 63055 17124 99606 10016 47696 /3122 10038 21009 49962 51022 704// 22200 10809 70046
BBXX 62112 17124 99584 70002 47498 /3125 10034 21013 40017 52021 762// 22200
BBXX 63106 17124 99610 10017 46/// /3223 10035 49960 51025 22200
BBXX 63108 17124 99608 10017 47998 /3428 10063 21018 49955 52020 700// 22200 11310 70048
BBXX 62113 17124 99584 10002 47598 /3421 10055 21005 40001 51017 700// 22200
BBXX PJAI 17124 99581 70014 47598 /3221 10059 21023 40035 52021 700// 22200
BBXX 62128 17124 99587 10014 47598 /3226 10043 21012 49998 52017 700// 22200 10708 70039
BBXX 62129 17124 99584 10003 46/// ///// 10051 21011 40000 51018 22200
BBXX 63057 17124 99592 10015 47598 /3329 10048 21022 49975 51017 700// 22200 10808 70041
BBXX 62111 17124 99580 70003 46/// /3528 10051 21005 40022 52022 22200 10606 70029
BBXX 63056 17124 99597 10016 47798 /3227 10041 21020 49960 51020 700// 22200 10808 70042
BBXX 63110 17124 99595 10015 47698 /3327 10066 21023 49970 51018 700// 22200 10708 70042
BBXX AMOUK14 17124 99534 70054 46/// ///// 10050 20011 30102 40136 52071 91150
BBXX AMOUK08 17124 99501 70061 46/// ///// 10081 20035 30165 40167 52020 91150
BBXX AMOUK21 17124 99566 70065 46/// ///// 10043 20011 30104 40111 52036 91150
BBXX AMOUK05 17124 99519 10041 46/// ///// 10067 20014 30014 40050 52019 91150
BBXX AMOUK19 17124 99602 70012 46/// ///// 10019 2//// 30013 40016 52028 91150
BBXX AMOUK06 17124 99511 10015 46/// ///// 10063 20019 30064 40079 52009 91150
BBXX AMOUK02 17124 99535 70034 46/// ///// 10061 20024 30030 4//// 5//// 91150
BBXX 64045 17124 99591 70117 46/// /3017 10061 21017 40120 52012 22200 00101 10708 70040
BBXX 62159 17124 99605 10017 41598 53230 10041 21001 49987 5/030 70122 855// 22200 10909 70047
BBXX 62301 17124 99524 70047 46/// /3122 10066 20020 40114 50009 22200 00095 10707 70033 333 90710 91129
BBXX IDDUK02 17124 99607 50456 46/// ///// 49920 222//
BBXX 62442 17124 99490 70164 46/// /3213 1//// 2//// 40286 53013 22200 00127
BBXX 62105 17124 99554 70122 46/// /3119 10076 20011 40178 52022 22200 00106 10808 70042 333 90710 91126
BBXX 62001 17124 99452 70050 46/// /2917 10108 20064 40224 50008 22200 00143 11012 70060 333 90710 91125
BBXX 62081 17124 99510 70134 46/// ///// 10083 20023 40244 52019 22200 00120 10810 70048
BBXX 62029 17124 99487 70125 46/// /3418 10094 20052 40254 51014 22200 00131 10910 70048 333 90710 91128
BBXX 62303 17124 99516 70051 46/// /3222 10079 20036 40136 52012 22200 00113 10807 70035 333 90710 91133
BBXX 64046 17124 99605 70049 46/// /3416 10040 20005 40054 51018 22200 00078 10809 70045
BBXX DBBH 17121 99367 70115 41598 70206 10158 20119 40315 52006 70222 878// 22200 04179 20302 332// 41104
BBXX A8UA9 17124 99350 70070 43298 63112 10170 20154 40300 52040 86622 22253 00160 20506 80160
BBXX BATFR41 17124 99425 10032 46/// /3035 10119 20024 40138 50004 22242
BBXX BAREU00 17124 99511 70310 46/// ///// 40221 57002 22224
BBXX BATFR13 17124 99459 70132 44498 43215 10109 20035 40287 58002 70122 841// 22214 00137 20404 301// 41206 5////
BBXX BATFR16 17124 99478 70048 46/// /3124 10107 20022 40187 50007 22235 00137
BBXX BAREU51 17124 99425 10109 46/// ///// 40017 52020 22274
BBXX BAREU12 17124 99539 10049 46/// ///// 49998 57004 22284
BBXX PCPR 17123 99387 70098 41398 43210 10162 20067 40300 52020 70311 84544 22283 04164 20100 331// 41006 80111
BBXX 61002 17124 99421 10047 46/// ///33 10114 20052 40140 52004 22200 00143 10807 70035 555 1/043
BBXX BATUK01 17124 99582 70064 46/// /3104 10030 21018 40095 51025 22200 00109
BBXX BATFR12 17124 99477 70049 46/// /3122 10097 20039 40184 22261 00145
BBXX 61001 17124 99434 10078 46/// /2923 10129 21008 40026 54000 22200 00151 10806 70032 555 1/029
BBXX BATFR02 17124 99506 70009 46/// /3131 10069 20014 40110 58011 22284 00109
BBXX BATFR46 17124 99412 10028 44/97 23119 10124 20045 40144 58004 701// 8//// 22253 00162 22004
BBXX BATEU06 17124 99546 70341 46/// /1615 10062 20019 40166 57038 22264 00072
BBXX BATFR42 17124 99503 70031 46/// /3135 10077 20009 40119 53004 22264 00127
BBXX BATEU08 17124 99634 70226 46/// /2717 10027 21032 40102 51016 22263
BBXX BAREU62 17124 99441 10095 46/// ///// 40021 22273
BBXX BATFR09 17124 99417 70098 44897 23517 10134 20019 40293 50002 70200 82100 22283 00162 20408
BBXX BATFR31 17124 99419 10087 46/// /2936 10120 40055 22262 00165
BBXX BATFR60 17124 99539 10092 46/// /3015 10064 20020 49962 51015 22223 00037
BBXX BATFR04 17124 99597 70110 46/// /2917 10057 21053 40107 53010 22200 00102
BBXX BATFR03 17124 99498 70005 46/// /3024 10079 20015 40114 51004 22244
BBXX BATEU04 17124 99589 10004 46/// /3428 10052 21043 40002 53004 22223
BBXX BAREU56 17124 99430 10098 46/// ///// 40030 52016 22232
BBXX BAREU08 17124 99371 70318 46/// ///// 40318 52023 22224
BBXX BAREU04 17124 99548 70054 46/// ///// 40092 52016 22283
BBXX LF3N 17124 99653 10073 41497 62312 10050 20009 49878 52014 72582 85330 22200 00091 10805 70025
BBXX LF5T 17124 99660 10081 41598 52315 10058 20011 49869 52016 70221 85/// 22200 10704 70021 333 91121
BBXX LF3F 17124 99643 10078 43/// /2611 10049 21001 49896 52013 22200 04090 10806 70030 333 91112
BBXX LF4C 17124 99584 10019 41498 53223 10060 20008 49984 52017 71588 82903 22200 00079 10808 70038 333 91134
BBXX 3ERR2 17124 99635 10053 41598 63115 10049 21012 49909 52018 71582 84941 22200 06097 10909 70045 333 91122
BBXX LF4B 17124 99606 10037 47/97 /3428 10029 49933 52016 767// 22200 00056 10809 70045 333 91136
BBXX A8QM9 17124 99361 70103 41698 70121 10170 20137 40300 53/// 70322 87492 22263 21006 301// 41006 80150
AAXX 17124 94996 454// 81910 10176 20143 39993 40129 58002 91230 333 10233
AAXX 17124 94996 454// 81910 10176 20143 39993 40129 58002 91230 333 10233
AAXX 17124 63729 11450 80000 10189 20181 38873 48/// 60141 79596 8392/ 333 0//23 55300 58006 83816 81918 88458
AAXX 17124 63733 01580 72106 10212 20191 38846 48485 60021 71722 879// 333 0//11 55300 58007 60027 87620 81922
AAXX 17124 63756 01580 60000 10220 20194 38845 48481 60201 70262 8193/ 333 0//11 55304 59002 60027 81822 81923 86360
AAXX 17124 63801 11580 52710 10270 20186 39192 48523 69901 70252 81931 333 0//16 55310 59005 81823 81924 84080
AAXX 17124 63832 32580 63106 10270 20194 38800 48483 85930 333 55310 58004 85822 81923
AAXX 17124 63862 32580 30000 10306 20154 38863 48488 83901 333 55310 59009 83828 81929
AAXX 17124 63866 32680 40409 10310 20192 39481 48/// 84200 333 55310 59014 84830
AAXX 17124 63870 11580 40610 10318 20226 30056 40074 69951 72102 84900 333 0//51 55310 59010 84822 81924
AAXX 17124 63881 32580 70906 10240 20134 38189 48/// 82903 333 55310 59009 82822 81923 86074
AAXX 17124 63887 32580 71018 10252 20140 38559 48476 86902 333 55304 59005 86824 81926
AAXX 17124 63894 32580 40312 10316 20265 30021 40081 84201 333 55310 59011 84824
AAXX 17124 63932 32580 71312 10243 20168 38290 48482 83902 333 55310 59005 83824 81925 86078
AAXX 17124 63962 32580 60000 10254 20192 38935 48500 82920 333 55300 59001 82822 81923 85358
AAXX 17124 63971 32580 70418 10312 20238 39947 40074 82202 333 55310 59012 82825 86079
AAXX 17124 63791 NIL
AAXX 17121 55299 32880 22903 11071 21294 35848 52012 82400 333 00451 91119 91527
AAXX 17121 55591 32680 52902 10064 21255 36485 52014 82402 333 00652
AAXX 17121 56739 32980 02001 10115 20038 38357 52015 333 00002
AAXX 17121 56951 32770 12701 10134 20065 38513 52019 81100 333 00000
AAXX 17121 56964 32570 11101 10149 20109 38725 40172 52012 81100 333 05100
AAXX 17121 57328 11970 71101 10068 20015 39887 40310 52032 69901 70060 8704/
AAXX 17121 57411 11450 80201 10075 20041 39927 40309 52031 69901 71060 8277/
AAXX 17121 57447 11462 81401 10038 20017 39760 40324 52022 69921 76060 8272/
AAXX 17121 57662 32966 80401 10058 21049 30276 40321 52017 8807/
AAXX 17121 57745 32960 80703 10060 21039 39967 40306 52019 8807/
AAXX 17121 57972 32963 73401 10092 21012 30055 40288 52016 8704/
AAXX 17121 58203 32965 00702 10011 21087 30288 40332 52007
AAXX 17121 58314 32965 80000 10007 21040 30216 40330 52009 8807/
AAXX 17121 58424 32961 60703 10034 21110 30300 40327 52010 86040
AAXX 17121 59023 32860 73201 10129 20036 39929 40246 52013 875//
AAXX 17121 59417 32564 80901 10159 20061 30071 40227 52014 888//
AAXX 17121 59985 32570 70407 10236 20199 30166 40171 52019 872//
AAXX 17121 59995 NIL
BBXX 46185 17121 99524 71298 46/// /2306 10082 40118 57001 22200 00076 10806 70031 333 91208
AAXX 17124 61017 32960 51404 10234 21003 39756 40174 80002 333 0//00 59016 85080
AAXX 17124 61024 32960 31214 10258 21072 39588 40158 80002 333 0//00 59012 83080
AAXX 17124 61036 32962 70810 10286 20007 39900 40139 80008 333 0//00 59006 87280
AAXX 17124 61043 32960 70812 10267 21080 39694 40137 80008 333 0//00 59011 87280
AAXX 17124 61045 31909 70804 10245 21045 39641 40142 70644 80008 333 0//00 59015 87280
AAXX 17124 61049 32960 70804 10258 20018 39808 40128 80008 333 0//00 59011 87280
AAXX 17124 61052 31950 50808 10280 21052 39884 40141 70622 80002 333 0//00 59003 85080
AAXX 17124 61075 31958 61004 10275 21024 39828 40138 70622 80008 333 0//00 59005 86280
AAXX 17124 61080 31940 71006 10261 21019 39721 40144 70622 80008 333 0//00 59018 87280
AAXX 17124 61090 31928 70606 10252 21051 39628 40141 70622 80008 333 0//00 59015 87280
AAXX 17124 61091 31940 70806 10264 20075 39697 40155 70622 80008 333 0//00 59011 87280
AAXX 17124 61096 31957 70606 10260 21034 39759 40143 70542 80008 333 0//00 59007 87280
AAXX 17124 61099 31956 70604 10290 20032 39890 40118 70622 80008 333 0//00 59009 87280
AAXX 17121 60376 16/// /2401 10149 20149 60091
AAXX 17121 60593 36/// /0000 10189
BBXX MINFR09 1712/ 99382 31493 46/// ///// 40194 52006
BBXX 46185 17121 99524 71298 46/// /2306 10082 40118 57001 22200 00076 10806 70031 333 91208
BBXX ZMFR 17124 99470 31671 43/// /18// 10100 20075 40176 52008 22282 00132
BBXX V2QD4 17123 99372 31567 41298 41616 10184 20154 40220 50003 70311 8/76/ 22223 00188 20304 317// 41004
BBXX 3EAT6 17123 99341 31514 41598 23503 10190 20118 40215 54000 70300 8/14/ 22241 00210 334// 40101
BBXX VRDX2 17123 99244 31549 41/97 /1417 10230 20185 40183 7//// 8/776 22274 00260 20405 399// 40305
BBXX ZMFR 17124 99470 31671 43/// /18// 10100 20075 40176 52008 22282 00132
BBXX V2QD4 17123 99372 31567 41298 41616 10184 20154 40220 50003 70311 8/76/ 22223 00188 20304 317// 41004
BBXX 3EAT6 17123 99341 31514 41598 23503 10190 20118 40215 54000 70300 8/14/ 22241 00210 334// 40101
BBXX VRDX2 17123 99244 31549 41/97 /1417 10230 20185 40183 7//// 8/776 22274 00260 20405 399// 40305
AAXX 17121 24790 11999 70000 11253 21270 39310 40182 52012 69930 70272 85031 333 11209
AAXX 17121 24988 32699 83002 11160 21194 39814 40075 52001 8555/ 333 11162
AAXX 17121 25378 41996 03211 11156 21226 30039 40073 57014 73830 333 91121
AAXX 17121 25503 32999 60000 11375 21399 30068 40213 52012 83031 333 11285
AAXX 17121 25705 11698 80000 11324 21348 39833 40202 52010 69930 77172 82537 333 11256
AAXX 17121 25927 31697 80316 11068 21115 30053 40060 52012 73832 883// 333 11057 91124
AAXX 17121 25932 NIL
AAXX 17121 31152 32997 61801 11296 21326 39770 40215 52002 82032 333 11285
AAXX 17121 31174 NIL
AAXX 17121 31489 32998 00000 11291 21316 30042 40172 52015 333 11217
AAXX 17121 31866 32999 82301 11123 21232 30131 40136 54000 8807/ 333 11109
AAXX 17121 31959 32998 23101 11136 21207 30133 40178 51002 80002 333 11068
AAXX 17121 31989 32999 03502 11083 21202 30152 40208 51009 333 11037
AAXX 17121 32027 31599 73210 11151 21193 30078 40087 52009 73632 84930 333 11151 91013 91115
AAXX 17121 32076 32998 83103 11103 21166 30010 40020 58001 86017 333 11107 91007 91108
AAXX 17121 32099 32998 03216 11112 21132 30042 40050 58001 333 11115 91018 91122
AAXX 17121 32121 11597 73208 11099 21146 30070 40093 53003 60010 78583 87900 333 11105 91012 91114
AAXX 17121 32213 81598 22712 11039 21084 39880 49944 52016 70231 81501 333 11030 91015 91119
AAXX 17121 32287 31999 30307 11037 21085 39938 49948 52023 73630 83030 333 11011
AAXX 17121 32408 11395 80609 11027 21047 39926 49964 52023 60020 78683 889// 333 11016 91012 91114 92982
AAXX 17121 32509 NIL
AAXX 17121 32594 11598 62410 11035 21100 39903 49939 52014 60010 73683 86500 333 11026 91013 91115
AAXX 17124 64700 32960 20208 10288 21052 39785 40124 80002 333 0//00 58003 82075
AAXX 17124 64701 NIL
AAXX 17124 64702 NIL
AAXX 17124 64705 32960 11804 10325 20028 3//// 4//// 80001 91155 333 0//00 5//// 81075
AAXX 17124 64706 32960 23604 10318 20038 39628 40107 80002 333 0//00 59004 82075
AAXX 17124 64708 32962 00000 10309 20012 3//// 4//// 91200 333 0//00 5////
AAXX 17124 64709 32960 30000 10290 20052 3//// 4//// 80002 91146 333 0//00 5//// 83075
AAXX 17124 64710 32960 50000 10300 20046 3//// 4//// 80002 91150 333 0//00 5//// 85075
AAXX 17124 64713 NIL
AAXX 17124 64722 NIL
AAXX 17124 64750 32965 63606 10330 20063 39682 40086 80002 91155 333 0//00 59002 86075
AAXX 17124 64751 32960 30408 10302 20012 3//// 4//// 83032 91150 333 0//00 5//// 83365
AAXX 17124 64753 32962 40408 10230 20040 3//// 4//// 80002 91150 333 0//00 5//// 84075
AAXX 17124 64754 32960 40404 10345 20052 3//// 4//// 80002 91150 333 0//00 5//// 84075
AAXX 17124 64756 32962 60000 10320 20000 39486 4//// 80002 91155 333 0//00 58005 86075
AAXX 17124 64757 32962 50000 10255 20012 3//// 4//// 80002 91150 333 0//00 5//// 85075
AAXX 17124 64758 NIL
AAXX 17124 64761 NIL
AAXX 17124 60252 11350 28003 10177 20088 40252 58009 60001 70241 82600 333 82705 95800
BBXX 51171 17121 99064 71623 46/// ///// 1//// 91146 22200 00280
BBXX 51170 17121 99168 71695 46/// ///// 1//// 91148 22200 00261
BBXX 51169 17121 99004 51600 46/// ///// 1//// 91154 22200 00258
BBXX 52243 17121 99193 11666 46/// ///// 1//// 91155 22200 00259
BBXX 51174 17121 99142 51697 46/// ///// 1//// 91155 22200 00285
BBXX 51178 17121 99142 51695 46/// ///// 1//// 91158 22200 00284
BBXX NIL
BBXX NIL
BBXX A8GU5 17124 99251 50467 41498 33613 10250 20207 40090 53/// 70111 821/1 22283 21202 80220
AAXX 17124 40255 32660 30000 10158 20094 39477 40193 57006 83100 333 83830
AAXX 17124 40260 32960 21912 10156 20050 39393 40181 57011 80001 333 82070
AAXX 17124 40270 31530 30000 10084 20067 39296 40204 52006 71011 83500 333 20060 30100 83630
AAXX 17124 40272 32960 30000 10170 20049 39360 40204 57010 80001 333 83070
AAXX 17124 40290 NIL
AAXX 17124 40340 32960 03610 10210 20063 40166 57003
AAXX 17124 06670 01481 82608 10027 21004 39571 40087 52025 69921 71582 888// 333 55300 20526 60005 83614 84819 87656 91120 91211
AAXX 17124 06700 01380 72211 10033 20000 39616 40115 52011 69981 71582 878// 333 55300 20428 60005 81608 84830 87656 91120 91214
AAXX 17124 06680 31/01 93211 11125 21125 37346 47861 52020 77174 333 55300 20324 91147 91213
AAXX 17124 06990 01650 82904 10026 21013 39521 40073 52024 60011 72677 88600 333 55300 20180 60005 88745 91112 91207
AAXX 17124 06760 32782 61604 10064 21004 39600 40046 51021 8251/ 333 55303 20810 82650 86459 91110 91205
AAXX 17124 06720 03/// ///// 10016 21009 39520 40104 52019 69941 333 55300 20338 60005
AAXX 17124 13611 11558 72214 10150 20116 39891 49979 54002 60101 79299 87900 333 81926 86630
BBXX NIL
AAXX 17124 06610 01564 72107 10022 20001 39518 40110 52023 69921 71587 8557/ 333 55300 20198 60005 82824 84640 91122 91214
BBXX NIL
BBXX NIL
AAXX 17124 40250 32960 42705 10166 20041 39385 40185 57015 80002 333 84070
AAXX 17124 40265 31550 33004 10160 20050 39340 40209 57010 70500 83100 333 83830
AAXX 17124 40296 32960 00000 10208 20099 40186 57023
AAXX 17124 40310 32960 01404 10147 21010 38956 48500 57018
AAXX 17123 64800 NIL
AAXX 17123 64820 NIL
AAXX 17123 64860 31940 70000 10301 20041 39842 40111 70522 80002 333 0//00 59007 87080
AAXX 17123 64861 NIL
AAXX 17123 64870 32560 51006 10287 20005 38904 48502 80002 333 0//00 59003 85080
AAXX 17123 64871 NIL
AAXX 17123 64892 NIL
AAXX 17123 64893 NIL
AAXX 17123 64894 NIL
AAXX 17123 64910 31535 72206 10313 20249 30096 40105 70599 86302 333 58000 86820 81923 87080 94945 95835
AAXX 17123 64911 NIL
AAXX 17123 64950 NIL
AAXX 17124 62309 32960 02306 10211 20084 40178 57017
AAXX 17124 62325 32560 52705 10203 20145 40185 57024 85800
AAXX 17124 62332 31558 12404 10204 20132 40189 57014 70500 81100
AAXX 17124 62387 32960 03610 10202 20104 40180 57024
AAXX 17124 62459 32960 03010 10212 20085 40164 57020
AAXX 17124 62452 32960 02005 10178 20053 40187 57025
AAXX 17124 62305 32960 32516 10193 20089 40178 57018
AAXX 17124 62306 32560 22411 10218 20080 40182 57018 82500
AAXX 17124 62318 32960 02608 10210 20143 40182 57009
AAXX 17124 62337 NIL
AAXX 17124 62366 32560 20405 10206 20084 40182 57018 82200
AAXX 17124 62393 32960 03612 10184 20062 40182 57022
AAXX 17124 62405 32960 20000 10220 20089 40158 57024 80002
AAXX 17124 62414 32960 02607 10223 20060 40155 57024 80002
AAXX 17124 62417 32960 02605 10202 20081 40189 57022
AAXX 17124 62440 32960 01306 10208 20089 40183 57020
AAXX 17124 62463 32960 23516 10218 20093 40167 57023 80002
AAXX 17124 62465 32960 43611 10218 20122 40155 57017 80004
AAXX 17124 62419 NIL
AAXX 17124 62357 32560 42305 10220 20107 40185 57016 84400
AAXX 17124 62423 32960 00303 10197 20084 40198 57031
AAXX 17124 62403 32960 23303 10210 20063 40167 57024 80002
AAXX 17124 62305 32960 32516 10193 20089 40178 57018
AAXX 17124 62306 32560 22411 10218 20080 40182 57018 82500
AAXX 17124 62318 32960 02608 10210 20143 40182 57009
AAXX 17124 62337 NIL
AAXX 17124 62366 32560 20405 10206 20084 40182 57018 82200
AAXX 17124 62393 32960 03612 10184 20062 40182 57022
AAXX 17124 62405 32960 20000 10220 20089 40158 57024 80002
AAXX 17124 62414 32960 02607 10223 20060 40155 57024 80002
AAXX 17124 62417 32960 02605 10202 20081 40189 57022
AAXX 17124 62440 32960 01306 10208 20089 40183 57020
AAXX 17124 62463 32960 23516 10218 20093 40167 57023 80002
AAXX 17124 62465 32960 43611 10218 20122 40155 57017 80004
AAXX 17124 62419 NIL
AAXX 17124
AAXX 17124 62476 32960 00311 10238 20132 40126 56022
AAXX 17124 62458 32960 03110 10202 20126 40160 57017
AAXX 17124 62420 32960 00000 10206 20089 40190 57024
AAXX 17124 62432 32960 03606 10208 20084 40187 57034
AAXX 17124 62435 32960 00111 10216 20058 40170 57020
AAXX 17124 62455 32960 02908 10199 20092 40162 57029
AAXX 17124 62476 32960 00311 10238 20132 40126 56022
AAXX 17124 62458 32960 03110 10202 20126 40160 57017
AAXX 17124 62420 32960 00000 10206 20089 40190 57024
AAXX 17124 62432 32960 03606 10208 20084 40187 57034
AAXX 17124 62435 32960 00111 10216 20058 40170 57020
AAXX 17124 62455 32960 02908 10199 20092 40162 57029
AAXX 17124 62357 32560 42305 10220 20107 40185 57016 84400
AAXX 17124 62423 32960 00303 10197 20084 40198 57031
AAXX 17124 62403 32960 23303 10210 20063 40167 57024 80002
AAXX 17124 62305 32960 32516 10193 20089 40178 57018
AAXX 17124 62306 32560 22411 10218 20080 40182 57018 82500
AAXX 17124 62318 32960 02608 10210 20143 40182 57009
AAXX 17124 62337 NIL
AAXX 17124 62366 32560 20405 10206 20084 40182 57018 82200
AAXX 17124 62393 32960 03612 10184 20062 40182 57022
AAXX 17124 62405 32960 20000 10220 20089 40158 57024 80002
AAXX 17124 62414 32960 02607 10223 20060 40155 57024 80002
AAXX 17124 62417 32960 02605 10202 20081 40189 57022
AAXX 17124 62440 32960 01306 10208 20089 40183 57020
AAXX 17124 62463 32960 23516 10218 20093 40167 57023 80002
AAXX 17124 62465 32960 43611 10218 20122 40155 57017 80004
AAXX 17124 62419 NIL
AAXX 17124
AAXX 17124 62309 32960 02306 10211 20084 40178 57017
AAXX 17124 62325 32560 52705 10203 20145 40185 57024 85800
AAXX 17124 62332 31558 12404 10204 20132 40189 57014 70500 81100
AAXX 17124 62387 32960 03610 10202 20104 40180 57024
AAXX 17124 62459 32960 03010 10212 20085 40164 57020
AAXX 17124 62452 32960 02005 10178 20053 40187 57025
AAXX 17121 01028 11470 70502 11008 21015 39911 49931 52008 69911 70284 878// 222// 00002
AAXX 17121 23074 11996 81607 11179 21205 30208 40235 57009 69972 77173 8802/ 333 11170 91112
AAXX 17121 23274 11596 71603 11196 21215 30243 40282 57010 60022 77172 8552/ 333 11194 85623
AAXX 17121 23383 11897 80000 11208 21226 39939 40322 58017 69952 77172 8802/ 333 11174
AAXX 17121 23472 11496 81804 11195 21221 30273 40326 57020 69992 78584 889// 333 11194
AAXX 17121 23678 114// 81101 11236 21262 30357 40422 58004 69932 78587 889// 333 11236
AAXX 17121 23884 329// 00000 11265 21290 30376 40459 52005 333 11234
AAXX 17121 23891 32996 01301 11242 21274 30052 52008 333 11174
AAXX 17121 24507 329// 33101 11168 21194 30045 40304 52007 82031 333 11123
AAXX 17121 24817 119// 82702 11132 21152 39887 40271 52012 69992 70182 82041 333 11115
AAXX 17121 24908 12998 80000 11174 21200 39993 40345 52009 69902 80001 333 11131
AAXX 17121 29263 11976 70000 11206 21225 30351 40463 52004 69932 72272 83031 333 11197
AAXX 17121 29282 32977 00000 11278 21303 30241 40433 53005 333 11254
AAXX 17121 29379 12998 50000 11282 21313 30230 40468 53005 69902 80001 333 11253
AAXX 17121 29570 11896 30000 11191 21203 30087 40468 53006 69902 77171 83020 333 11161
AAXX 17121 29698 319// 10000 11265 21284 39903 40481 53004 70400 80002 333 11225
AAXX 17121 30230 11598 82605 11120 21172 39990 40333 53012 69902 70282 8557/ 333 11084
AAXX 17121 30252 116// 82301 11092 21148 39942 40267 53005 69902 70282 83907 333 11090
AAXX 17121 30309 12999 02401 11214 21232 39863 40433 57002 69902 333 11194
AAXX 17121 30328 126// 30000 11228 21247 39965 40435 53004 69942 82501 333 11193
AAXX 17121 30521 329// 80000 11299 21317 39881 40477 56002 80001 333 11223
AAXX 17121 30710 31595 80301 11222 21242 39833 40478 52003 71011 85904 333 11212
AAXX 17121 23973 11997 81902 11259 21284 30398 40468 52007 69902 77172 80008 333 11259
AAXX 17121 23975 329// 32301 11271 21308 30342 40466 53003 80001 333 11253
AAXX 17121 23986 32999 30000 11231 21250 39762 40464 52002 80001 333 11199
AAXX 17121 23987 32999 20000 11284 21315 30389 40474 53008 80001 333 11272
AAXX 17121 24606 329// 02701 11244 21269 30001 40294 52008 333 11115
AAXX 17121 29253 119// 70000 11210 21235 30282 40473 53007 69902 70282 80001 333 11175
AAXX 17121 29471 11995 00000 11218 21230 30215 40468 53008 69932 71081 333 11145
AAXX 17121 29481 12999 80000 11255 21273 30200 40467 52004 69942 80007 333 11210
AAXX 17121 29553 31944 20000 11226 21244 30078 40484 53006 71011 80001 333 11184
AAXX 17121 29562 12984 30000 11220 21239 30010 40471 53001 69902 83030 333 11188
AAXX 17121 29581 129// 00000 11287 21312 30183 40477 53006 69902 333 11210
AAXX 17121 29594 11598 82601 11178 21197 30037 40456 52004 69922 78582 84901 333 11150
AAXX 17121 29653 32997 00000 11231 21257 39945 40483 53005 333 11187
AAXX 17121 29675 32998 00000 11234 21259 39828 40486 52005 333 11184
AAXX 17121 29676 11998 60000 11232 21250 39994 40464 53003 69902 70272 80005 333 11149
AAXX 17121 29752 114// 70601 11164 21170 38936 48557 53001 69902 78511 82939 333 11098
AAXX 17121 29759 119// 80000 11174 21186 39360 40469 53004 69902 77171 8807/ 333 11145
AAXX 17121 29766 32999 71001 11270 21282 30088 40490 53005 80001 333 11202
AAXX 17121 29789 32999 00000 11286 21298 39193 40529 52010 333 11179
AAXX 17121 29864 129// 33303 11196 21215 39756 40468 53002 69942 80002 333 11166
AAXX 17121 29866 119// 80000 11217 21235 30113 40468 53006 69942 77172 80007 333 11172
AAXX 17121 29869 119// 00000 11222 21235 30061 40475 53005 69922 71071 333 11171
AAXX 17121 29956 11823 80701 11188 21214 39860 40471 53006 69922 77172 8807/ 333 11157
AAXX 17121 30337 12598 71802 11130 21157 39901 40374 58007 69942 87900 333 11130
AAXX 17121 30405 129// 82701 11240 21259 39872 40459 55003 69902 80001 333 11240
AAXX 17121 30504 11997 80000 11278 21297 39757 40488 53002 69902 77171 80007 333 11220
AAXX 17121 30603 31995 00000 11292 21303 39842 40490 52001 71000 333 11243
AAXX 17121 30612 329// 02401 11303 21321 39890 40499 57002 333 11284
AAXX 17121 30622 329// 00000 11294 21318 39748 40479 54000 333 11227
AAXX 17121 30627 32999 02302 11232 21257 39437 40461 57003
AAXX 17121 30703 329// 00000 11280 21298 39732 40492 53001 333 11193
AAXX 17121 36307 11997 52601 11294 21318 39086 48579 53004 69932 70272 80002 333 11240
BBXX DANR 17123 99524 71508 41/98 11912 10070 40050 52030 70100 8//// 22224 00050 2////
BBXX SBLI 17121 99300 71649 43/98 71306 10198 40251 58011 22264 00214 2//// 4////
AAXX 17124 71464 46/// ///17 11017 30016 40234 51012 6///1 333 10027 21018 7////
AAXX 17124 71466 46/// ///// 11002 30018 40260 50001 6///1 333 21004 7////
AAXX 17124 71214 16/// /1508 11087 21112 60001 333 10019 21092 70000
AAXX 17124 71223 16/// /1403 11081 21106 60001 333 10023 21084 70000
AAXX 17124 71225 16/// /2012 10013 21026 60001 333 10032 21034 70000
AAXX 17124 71227 46/// /1603 11043 21070 6///1 333 10004 21057 7////
AAXX 17124 71010 16/// /0201 11057 21090 60001 333 10024 21060 70000
AAXX 17124 71351 16/// /1402 11011 21056 60001 333 10029 21038 70000
AAXX 17124 71353 16/// /2010 10014 21076 60001 333 10011 21026 70004
AAXX 17124 71375 46/// /3217 11116 6///1 333 10024 21118 7////
AAXX 17124 71385 46/// /3013 11091 6///1 333 10050 21095 7////
AAXX 17124 71683 46/// /1002 11229 39986 40101 50000 6///1 333 11235 21252 7////
AAXX 17124 71916 46/// /0000 11395 21433 30071 40130 57006 6///1 333 11249 21396 7////
AAXX 17124 71445 16/// /3117 11055 21073 39830 40112 53010 60001 333 11083 21115 4/034 70014 555 10030
AAXX 17124 71257 16/// /2006 11073 21097 60001 333 11019 21104 70011
AAXX 17124 71258 16/// /2211 11008 21058 60001 333 10012 21038 70000
AAXX 17124 71259 16/// /0703 11146 21164 60001 333 11052 21156 70000
AAXX 17124 71274 16/// /1403 11059 21075 60001 333 11008 21093 70000
AAXX 17124 71275 46/// /1304 11071 21080 6///1 333 11004 21100 7////
AAXX 17124 71278 16/// /1703 11080 21092 60001 333 21083 7////
AAXX 17124 71286 16/// /1607 11054 21068 60001 333 10015 21076 70000
AAXX 17124 71287 16/// /2303 11026 21054 60001 333 10006 21080 70000
AAXX 17124 71289 16/// /1910 11050 21082 60001 333 10033 21057 70000
AAXX 17124 71525 16/// /2211 11018 21037 60001 333 10015 21057 70000
AAXX 17124 71526 16/// /2009 11039 21062 60001 333 10002 21073 70000
AAXX 17124 71535 16/// /2412 10052 21007 60001 333 10043 20005 70000
AAXX 17124 71536 16/// /2519 10049 21010 60001 333 10045 20027 70000
AAXX 17124 71537 16/// /1806 11110 21118 60001 333 11022 21148 7////
AAXX 17124 71345 16/// /2212 10023 21023 60001 333 10046 21002 70000
AAXX 17124 67002 11580 63004 10300 20208 30065 40098 60661 70262 81812 333 0//11 59012 81823 83630 85073 92408
AAXX 17124 67009 NIL
AAXX 17124 67012 32582 72606 10284 20243 30068 40079 57022 82932 333 0//00 81920 82820 83360 85075 94955 95815
AAXX 17124 67025 NIL
AAXX 17124 67027 11575 72410 10273 20250 30050 40071 58020 69931 79596 8397/ 333 0//11 81920 82820 85460 94964 95834 555 82640
AAXX 17124 67045 NIL
AAXX 17124 67072 32581 40810 10300 20243 30077 40080 56021 82232 333 0//00 82820 92428 555 82360 82075
AAXX 17124 67073 32582 5//// 10318 20242 30051 40077 57016 84903 333 0//00 84820 81920 94961/2 95832 555 82073
AAXX 17124 67083 32575 51004 10270 20167 38692 48468 56018 85933 333 0//00 84820 82920 94972 95832
AAXX 17124 67095 32475 60610 10292 20230 30066 40072 55013 83932 333 0//00 82817 81917 85073 94965/6 95835/6
AAXX 17124 67113 NIL
AAXX 17124 67117 NIL
AAXX 17124 67137 32580 6//04 10292 20186 38844 48455 56014 84903 333 0//00 82820 82920 83073 94991/2/3 95811/2/3 555 10300 81623
AAXX 17124 67143 NIL
AAXX 17124 67152 NIL
AAXX 17124 67157 32580 3//// 10/// 20/// 30084 40091 57016 83900 333 0//00 81820 81920 83640 94994/8 95814/8
AAXX 17124 67161 NIL
AAXX 17124 67197 32480 60814 10283 20221 30055 40065 57019 85800 333 0//00 82817 84633
AAXX 17124 67017 NIL
AAXX 17124 67020 NIL
AAXX 17124 67023 32582 61008 10302 20248 30061 40067 57020 81202 333 0//00 81820 86073
AAXX 17124 67037 NIL
AAXX 17124 67067 NIL
AAXX 17124 67107 NIL
AAXX 17124 67131 32582 52416 10/// 20/// 30066 40071 56009 81202 333 0//00 81823 84073
AAXX 17121 10815 01275 73005 11011 21012 39123 48361 51023 60011 77877 875// 333 48013 55300 20133 30133 69937 87606 91115 96473 96471
AAXX 17124 89667 46/// /0403 11095 39907 4//// 5//// 91210
AAXX 1712/ 89866 46/// ///// 11054 39790 4//// 5//// 91210
AAXX 1712/ 89828 46/// ///// 11303 36525 4//// 5//// 91210
AAXX 1712/ 89879 46/// ///// 11018 39750 4//// 5//// 91210
AAXX 17121 51711 32980 11102 11136 21162 38031 52009 80002 333 05251
AAXX 17121 51730 32770 70000 11060 21099 40353 54000 82502 333 05251
AAXX 17121 52112 32970 32701 11101 21168 40395 52002 80002 333 05152
AAXX 17121 52737 32980 00000 11109 21263 37098 52007 333 00251
AAXX 17121 52787 32980 01406 11094 21130 37041 52010 333 00101
AAXX 17121 53352 32980 01402 11171 21225 40461 52013
AAXX 17121 53593 32970 02001 11111 21200 40411 52014
AAXX 17121 53705 32965 70000 11058 21100 40395 52020 80002 333 00351
AAXX 17121 53863 32961 70000 11048 21098 40378 52019 80002
AAXX 17121 53975 32965 60000 10000 21105 40345 52016 80002
AAXX 17121 54273 32970 02501 11164 21209 40330 52010
AAXX 17121 54324 32970 03401 11072 21222 40343 52020
AAXX 17121 54405 32970 01102 11058 21195 40365 52011
AAXX 17121 54436 32980 01801 11081 21169 40352 52020
AAXX 17121 54808 32963 71401 11006 21064 40341 52018 80002
AAXX 17121 54826 32980 23209 11051 21246 38523 52011 80002
AAXX 17121 54836 32968 02902 11022 21102 40353 52013
AAXX 17121 54863 32970 02702 11028 21123 40337 52007
AAXX 17121 56018 32680 70000 11074 21236 36179 52017 879// 333 00656
AAXX 17121 56021 32680 51601 11114 21275 36068 52007 85900 333 00351
AAXX 17121 57071 32960 72201 10006 21058 40337 52019 80002
AAXX 17124 42027 31695 00000 10062 20003 38441 48528 70500 333 10096 59004
AAXX 17124 42101 31995 00000 10160 20090 40156 70500 333 10206 59011
AAXX 17124 42111 31995 00000 10150 20107 39367 40146 70500 333 10208 59008
AAXX 17124 42131 32996 00000 10174 20089 40159 333 10225 59008
AAXX 17124 42165 32996 00000 10232 20021 40141 333 10264 59009
AAXX 17124 42182 31995 00000 10174 20089 40157 70400 333 10218 59006
AAXX 17124 42189 31/92 90502 10124 20109 40158 74344 89/// 333 10138 59010
AAXX 17124 42260 31996 09901 10154 20051 40162 70500 333 10216 59007
AAXX 17124 42328 32996 00000 10258 20023 40133 333 10279 59009
AAXX 17124 42339 31995 00000 10240 20043 40138 70500 333 10280 59003
AAXX 17124 42348 31995 00000 10200 20054 40152 70500 333 10238 59006
AAXX 17124 42361 31995 00000 10176 20118 40158 70500 333 10239 59006
AAXX 17124 42369 31994 09902 10142 20108 40164 71000 333 10192 58000
AAXX 17124 42379 31/91 90000 10116 20092 40161 74544 89/// 333 10122 58005
AAXX 17124 42452 32996 00501 10216 20023 40133 333 10248 58000
AAXX 17124 42475 31994 00000 10168 20129 40161 71000 333 10224 59003
AAXX 17124 42071 NIL
AAXX 17123 42071 31996 62585 10172 20057 40150 70522 82032 333 10221 59014 82360 84070
AAXX 17124 68513 36/// /1620 10243 20124 30004 40113 58013 333 10251 20109 91026 555 91011
AAXX 17124 68514 32/// /0502 10386 21009 39625 48560 57023 333 10390 20165 91006 555 91010
AAXX 17124 68523 36/// /2911 10362 21089 39091 48538 57013 333 10364 20128 91022 555 91015
AAXX 17124 68527 36/// /2710 10375 21056 39054 48528 58013 333 10379 20142 91021 555 91014
AAXX 17124 68572 36/// /0908 10224 20146 38419 48526 57006 333 10257 20135 91013 555 91022
AAXX 17124 68575 36/// /0904 10170 20153 39131 48551 58002 333 10191 20144 91009 555 91021
AAXX 17124 68581 36/// /1006 10217 20173 39405 48558 58007 333 10226 20151 91011 555 91019
AAXX 17124 68583 36/// /0807 10250 20165 30069 40177 57006 333 10254 20186 91015 555 91018
AAXX 17124 68589 36/// /0307 10225 20120 38276 48531 58005 333 10249 20128 91012 555 91023
AAXX 17124 68613 NIL
AAXX 17124 68647 36/// /0904 10293 20121 38914 48527 58013 333 10293 20153 91010 555 91017
AAXX 17124 68651 36/// /1209 10250 20163 38574 48538 58008 333 10250 20127 91014 555 91022
AAXX 17124 68715 NIL
AAXX 17124 68717 36/// /2505 10308 20082 39982 40119 57013 333 10312 20107 91009 555 91012
AAXX 17124 68723 36/// /1004 10332 20035 39364 48536 57018 333 10332 20155 91008 555 91012
AAXX 17124 68737 32975 11809 10335 20046 39223 48533 57014 81080 333 10338 20158 91014 555 91013
AAXX 17124 68744 36/// /0106 10328 20049 39084 48526 57016 333 10328 20137 91012 555 91014
AAXX 17124 68747 36/// /1208 10310 20161 39603 48560 58020 333 10313 20159 91016 555 91013
AAXX 17124 68754 36/// /0809 10264 20173 39144 48547 58008 333 10264 20142 91015 555 91018
AAXX 17124 68817 NIL
AAXX 17124 68821 36/// /2813 10331 20060 39869 40095 58016 333 10333 20122 91019 555 91011
AAXX 17124 68835 36/// /1505 10310 20168 30000 40109 58017 333 10313 20141 91012 555 91011
AAXX 17124 68843 36/// /0922 10260 20158 30039 40135 58008 333 10268 20167 91033 555 91013
AAXX 17124 68849 36/// /1012 10283 20132 39408 48550 58013 333 10283 20148 91020 555 91015
AAXX 17124 68912 36/// /2007 10206 20162 30141 40150 57002 333 10216 20145 91008 555 91015
AAXX 17124 68918 36/// /2306 10226 20150 30126 40144 58001 333 10227 20153 91011 555 91014
AAXX 17124 68921 36/// /1609 10230 20177 30129 40132 57010 333 10240 20182 91012 555 91013
AAXX 17124 68925 36/// /2508 10256 20133 39766 40118 58007 333 10264 20103 91016 555 91013
AAXX 17124 68926 32970 12406 10339 20096 39930 40099 57017 80004 333 10345 20124 91010 555 91011
AAXX 17124 68935 36/// /1403 10259 20176 30050 40112 58010 333 10276 20130 91006 555 91011
AAXX 17124 08184 02980 30000 10138 21007 39985 40139 58005 60001 81062 333 60007
AAXX 17124 68613 NIL
AAXX 17124 68715 NIL
AAXX 17124 68817 NIL
AAXX 17124 91490 11599 21310 10264 2023/ 40104 60001 70200 82100 563//
AAXX 17124 91610 11599 30809 10283 20234 40068 53008 60001 70200 82108 333 562/9 82818 81280
AAXX 17124 62305 32960 32516 10193 20089 40178 57018
AAXX 17124 62306 32560 22411 10218 20080 40182 57018 82500
AAXX 17124 62318 32960 02608 10210 20143 40182 57009
AAXX 17124 62337 NIL
AAXX 17124 62366 32560 20405 10206 20084 40182 57018 82200
AAXX 17124 62393 32960 03612 10184 20062 40182 57022
AAXX 17124 62405 32960 20000 10220 20089 40158 57024 80002
AAXX 17124 62414 32960 02607 10223 20060 40155 57024 80002
AAXX 17124 62417 32960 02605 10202 20081 40189 57022
AAXX 17124 62440 32960 01306 10208 20089 40183 57020
AAXX 17124 62463 32960 23516 10218 20093 40167 57023 80002
AAXX 17124 62465 32960 43611 10218 20122 40155 57017 80004
AAXX 17124 62419 NIL
AAXX 17124 62002 32960 32716 10150 20021 39453 48511 58003 80004 333 87070
AAXX 17124 62007 32960 52715 10188 20056 40147 57017 80005 333 85270
AAXX 17124 62012 31958 32720 10214 20071 30115 40145 57017 70700 80004 333 83070
AAXX 17124 62016 32965 12308 10207 20028 40166 58026 80002 333 81070
AAXX 17124 62124 32960 00408 10189 20049 39690 40188 57009
AAXX 17124 62161 32970 51904 10213 20101 40191 58013 85030 333 85360
AAXX 17124 62259 32970 00000 10183 20054 40229 58009
AAXX 17124 62271 32970 00613 10176 20009 40231 58026
AAXX 17121 50548 32975 62904 11132 21214 40252 52004 82032
AAXX 17121 50564 32970 02202 11194 21230 40224 54000
AAXX 17121 51334 11770 80201 11065 21084 40375 52002 69901 70070 885// 333 05300
AAXX 17121 51818 32965 30000 11027 21092 40336 52001 80002 333 05251
AAXX 17121 52378 32980 31801 11103 21208 40424 52009 80002 333 00201
AAXX 17121 53487 32960 03603 11113 21194 40414 52015
AAXX 17121 53502 32980 00201 11116 21199 40441 52012 333 00251
AAXX 17121 53923 32980 72501 11033 21064 40362 52021 83042
AAXX 17121 54049 32970 02203 11120 21234 40298 57003
AAXX 17121 54115 32980 02201 11142 21219 40383 52008
AAXX 17121 54157 32962 02001 11118 21221 40316 52006
AAXX 17121 54186 32970 02702 11161 21231 40304 52007
AAXX 17121 54311 32980 03404 11125 21230 40398 52019
AAXX 17121 54346 32965 01101 11101 21193 40333 52010
AAXX 17121 54377 32970 00203 11135 21183 40332 52012
AAXX 17121 54386 32970 00000 11168 21235 40338 52013
AAXX 17121 54493 32974 02501 11123 21163 40331 52014
AAXX 17121 54587 NIL
AAXX 17121 54715 32963 80000 11030 21077 40344 52019 80007
AAXX 17121 54929 32968 62201 11021 21082 40346 52007 80002
AAXX 17121 54945 32965 02901 11007 21114 40341 52005
AAXX 17121 56065 32680 42202 11116 21169 36634 52024 82902 333 00453
AAXX 17121 57193 32962 00901 10017 21076 40337 52013
AAXX 17121 57290 32962 70901 10023 21063 40333 52012 80002
AAXX 17124 67002 11580 63004 10300 20208 30065 40098 60661 70262 81812 333 0//11 59012 81823 83630 85073 92408
AAXX 17124 67009 NIL
AAXX 17124 67012 32582 72606 10284 20243 30068 40079 57022 82932 333 0//00 81920 82820 83360 85075 94955 95815
AAXX 17124 67025 NIL
AAXX 17124 67027 11575 72410 10273 20250 30050 40071 58020 69931 79596 8397/ 333 0//11 81920 82820 85460 94964 95834 555 82640
AAXX 17124 67045 NIL
AAXX 17124 67072 32581 40810 10300 20243 30077 40080 56021 82232 333 0//00 82820 92428 555 82360 82075
AAXX 17124 67073 32582 5//// 10318 20242 30051 40077 57016 84903 333 0//00 84820 81920 94961 95832 555 82073
AAXX 17124 67083 32575 51004 10270 20167 38692 48468 56018 85933 333 0//00 84820 82920 94972 95832
AAXX 17124 67095 32475 60610 10292 20230 30066 40072 55013 83932 333 0//00 82817 81917 85073 94965 95835
AAXX 17124 67113 NIL
AAXX 17124 67117 NIL
AAXX 17124 67137 32580 6//04 10292 20186 38844 48455 56014 84903 333 0//00 82820 82920 83073 94991 95811 555 10300 81623
AAXX 17124 67143 NIL
AAXX 17124 67152 NIL
AAXX 17124 67157 32580 3//// 10/// 20/// 30084 40091 57016 83900 333 0//00 81820 81920 83640 94994 95814
AAXX 17124 67161 NIL
AAXX 17124 67197 32480 60814 10283 20221 30055 40065 57019 85800 333 0//00 82817 84633
AAXX 17124 62002 32960 32716 10150 20021 39453 48511 58003 80004 333 87070
AAXX 17124 62007 32960 52715 10188 20056 40147 57017 80005 333 85270
AAXX 17124 62012 31958 32720 10214 20071 30115 40145 57017 70700 80004 333 83070
AAXX 17124 62016 32965 12308 10207 20028 40166 58026 80002 333 81070
AAXX 17124 62124 32960 00408 10189 20049 39690 40188 57009
AAXX 17124 62161 32970 51904 10213 20101 40191 58013 85030 333 85360
AAXX 17124 62259 32970 00000 10183 20054 40229 58009
AAXX 17124 62271 32970 00613 10176 20009 40231 58026
BBXX 46206 17121 99488 71260 46/// /1309 10083 40247 57015 22200 00093 11707 70034 333 91212
AAXX 17124 68174 31775 20205 10266 20083 38814 48545 58008 70500 81101 333 10269 20140 91011 555 91021
AAXX 17124 68191 36/// /1609 10298 20091 39665 48592 58012 333 10300 20165 91016 555 91017
AAXX 17124 68242 32680 30206 10294 20103 38737 48525 58007 83100 333 10294 20167 91012 555 91019
AAXX 17124 68262 36/// /0504 10275 20129 38726 48539 58011 333 10285 20180 91009 555 91021
AAXX 17124 68263 32580 53404 10256 20130 38511 48537 57010 85500 333 10257 20154 91008 555 91022
AAXX 17124 68267 NIL
AAXX 17124 68289 36/// /0607 10262 20080 39182 48566 57012 333 10265 20176 91013 555 91020
AAXX 17124 68350 36/// /2203 10310 20122 38686 48544 58010 333 10313 20153 91006 555 91021
AAXX 17124 68368 41680 49902 10243 20127 38349 48542 57011 70522 85200 333 20179 555 91024
AAXX 17124 68403 36/// /2017 10226 20148 30098 40130 58017 333 10227 20143 91025 555 91013
AAXX 17124 68424 32982 03004 10391 21068 39172 48538 57015 333 10403 20132 91011 555 91013
AAXX 17124 68438 32982 02609 10341 21061 38812 48522 58010 333 10341 20097 91015 555 91017
AAXX 17124 68442 32782 22403 10314 20010 38666 48525 58011 82100 333 10317 20092 91006 555 91019
AAXX 17124 68461 32680 41905 10262 20075 38341 48521 58008 84100 333 10268 20130 91009 555 91022
AAXX 17124 68512 32982 02512 10307 20005 39004 48522 58007 333 10330 20174 91017 555 91015
AAXX 17124 68538 32982 03015 10338 21003 38711 48507 58012 333 10340 20147 91023 555 91016
AAXX 17124 68587 36/// /0612 10243 20171 30163 40175 57004 333 10250 20205 91019 555 91017
AAXX 17124 68588 36/// /0611 10250 20163 30177 40193 57011 333 10263 20203 91020 555 91019
AAXX 17124 68591 36/// /0310 10240 20180 30006 40184 58005 333 10250 20200 91017 555 91019
AAXX 17124 68592 NIL
AAXX 17124 68618 32980 03012 10330 21113 39046 48540 58002 333 10335 20080 91018 555 91016
AAXX 17124 68633 36/// /3007 10319 21045 38507 48502 58010 333 10319 20130 91014 555 91018
AAXX 17124 68668 36/// /1113 10254 20161 39311 48553 58011 333 10256 20166 91020 555 91018
AAXX 17124 68714 36/// /2015 10249 20123 30101 40136 57008 333 10254 20130 91021 555 91013
AAXX 17124 68727 36/// /2207 10333 20026 39101 48518 57016 333 10333 20137 91013 555 91013
AAXX 17124 68752 36/// /0617 10282 20167 39468 48556 58011 333 10286 20162 91023 555 91015
AAXX 17124 68816 32982 21714 10256 20136 30086 40139 56006 80004 333 20138 91020 555 91013
AAXX 17124 68828 42270 21408 10253 20163 39890 40121 56020 81601 333 20185 555 91012
AAXX 17124 68842 32970 10720 10240 20150 30064 40132 58020 80001 333 20135 555 91013
AAXX 17124 68858 32970 00721 10253 20163 30000 40152 56011 333 20189 555 91016
AAXX 17124 68906 11598 62413 10084 20046 30020 40085 53006 60011 72588 85260 222// 00116 20401 319// 40803 333 10108 20065 91019 555 20016 91008
AAXX 17124 68994 32598 13217 10110 20067 30199 40228 53002 81101 222// 00075 333 10128 20033 91025 555 91022
AAXX 17124 89004 36/// /1217 11042 21054 38712 49695 57022 333 11042 21071 91024 555
AAXX 17121 47003 32980 03203 11049 21203 30242 40246 52013 333 11011
AAXX 17121 47005 32980 01403 11185 21226 38598 52001 333 11120
AAXX 17121 47022 32975 03203 11136 21243 38837 52012 333 11069
AAXX 17121 47028 32965 02901 11085 21127 30203 40303 53007 333 11011
AAXX 17121 47031 32970 03201 11126 21198 38947 52006 333 11090
AAXX 17121 47037 32970 00000 11102 21130 30176 40306 54000 333 11032
AAXX 17121 47039 32960 00000 11106 21142 30110 40314 52008 333 11020
AAXX 17121 47046 32969 02305 11008 21125 30215 40238 52012 333 10036
AAXX 17121 47050 32965 00000 11080 21121 30255 40291 52004 333 11017
AAXX 17121 47052 32965 00000 11100 21136 39949 40310 52007 333 11047
AAXX 17121 47060 32960 00000 11041 21095 30238 40298 57001 333 11021
AAXX 17121 47061 32980 03204 11002 21126 30214 40259 52003 333 10038
AAXX 17121 47065 32970 80000 11031 21081 30246 40314 58020 8802/ 333 11013
AAXX 17121 47067 32965 00000 11030 21093 30204 40329 53008 333 11010
AAXX 17121 47068 12560 20902 11043 21059 30261 40298 53002 60012 82500 333 11014
AAXX 17121 47070 32570 80000 11035 21091 30220 40312 54000 85502 333 11003
AAXX 17121 47075 32980 22302 11064 21140 39802 40250 52002 82050 333 11050
AAXX 17121 47008 12970 03206 11035 21203 30195 40251 52012 69902 333 10011
AAXX 17121 47014 32950 00000 11179 21212 39850 40287 54000 333 11099
AAXX 17121 47016 32970 00000 11161 21212 39390 40317 52023 333 11078
AAXX 17121 47020 32565 60000 11126 21153 39915 40321 53006 86500 333 11069
AAXX 17121 47025 32960 03204 11020 21131 30205 40235 53010 333 10051
AAXX 17121 47035 32970 00000 11070 21115 30336 40345 52012 333 11020
AAXX 17121 47041 32970 00000 11044 21153 30230 40258 52023 333 10039
AAXX 17121 47055 NIL
AAXX 17121 47058 32960 00000 11057 21102 30266 40316 57002 333 11023
AAXX 17121 47069 11565 80902 11026 21049 30202 40306 57004 69902 70272 885// 333 10005
AAXX 17121 47101 32665 20001 11062 21127 30211 40313 50001 82500 333 11018 34105
AAXX 17121 47105 369// /2707 11018 21175 30235 40268 50001 333 10025 3/000
AAXX 17121 47108 32670 60202 11031 21123 30195 40306 55004 86500 333 11016 30103
AAXX 17121 47115 12572 22904 10006 21081 39972 40252 52005 69902 81500 333 10037 3/101 47011 92032
AAXX 17121 47133 12670 72902 11027 21089 30226 40315 55002 69902 87500 333 10012 34101
AAXX 17121 47138 32972 02304 11010 21195 30289 40292 52010 333 10036 30103 92023
AAXX 17121 47159 32972 03404 11005 21168 30210 40299 52009 333 10046 30102 92022
AAXX 17121 47165 12668 50902 11013 21051 30268 40317 52007 69902 85500 333 10028 34000 92021
AAXX 17121 47168 32970 03615 11002 21101 30215 40298 51005 333 10036 30102 92024
AAXX 17121 47184 12670 63407 10054 21031 30289 40315 53007 69902 86500 333 10060 31004 92033
AAXX 17121 47090 32970 02902 11006 21173 30239 40262 51004 333 10019 3/103 43002 92011
AAXX 17121 47095 32570 42004 11053 21162 30110 40309 54000 84500 333 11035 34103
AAXX 17121 47097 329// /0001 11043 21109 30210 40311 56004 333 11005 3/103
AAXX 17121 47098 329// /0201 11047 21145 30163 40305 57002 333 11008 3/103
AAXX 17121 47099 329// /0703 11046 21116 30268 40306 57003 333 11002 3/103
AAXX 17121 47100 32970 02509 11101 21185 39333 40308 53004 333 11063 3/106 49028
AAXX 17121 47102 12670 32915 10015 21080 30113 40296 53003 69902 83500 333 10018 34000
AAXX 17121 47104 32970 01405 11030 21170 30166 40268 51005 333 10025 3/101 43005
AAXX 17121 47106 329// /2509 11006 21182 30215 40266 50002 333 10035 3/103
AAXX 17121 47112 32670 61404 11016 21073 30216 40304 56005 85500 333 10002 30101 92012
AAXX 17121 47114 32970 02701 11062 21151 30115 40308 57006 333 11025 30105
AAXX 17121 47119 32668 61801 11023 21074 30264 40308 56005 86500 333 11002 34103
AAXX 17121 47121 329// /0001 11079 21162 30003 40316 52003 333 11011 3/108
AAXX 17121 47127 329// /0902 11071 21129 30165 40316 55003 333 11016 3/103
AAXX 17121 47129 12665 60502 11023 21051 30276 40313 55003 69902 86500 333 10014 34101
AAXX 17121 47130 32972 02306 11011 21212 30206 40270 50001 333 10044 34105 92022
AAXX 17121 47131 32970 01801 11028 21094 30237 40311 55004 333 11003 30102
AAXX 17121 47135 329// /2710 11034 21107 39999 40312 54000 333 11008 3/104
AAXX 17121 47136 32970 03203 11047 21154 30120 40301 56003 333 10006 30107
AAXX 17121 47137 329// /2504 11039 21120 30185 40310 55001 333 10004 3/104
AAXX 17121 47140 12670 61103 11013 21062 30282 40312 57003 69902 86500 333 10020 3/000 41/// 92012
AAXX 17121 47143 32970 02703 11015 21146 30234 40316 52004 333 10026 30105
AAXX 17121 47145 32668 20701 11047 21086 30277 40305 55002 81500 333 10001 34103
AAXX 17121 47146 32668 61401 11022 21079 30245 40314 50001 86500 333 10014 34000
AAXX 17121 47150 12670 60001 11009 21064 30289 40309 55001 69902 86500 333 10020 34000
AAXX 17121 47152 32970 03401 11010 21164 30248 40292 53006 333 10044 30103
AAXX 17121 47154 329// /0001 11038 21120 30247 40311 54000 333 10016 3/103
AAXX 17121 47155 32670 13404 11005 21159 30255 40303 53011 81500 333 10030 30103
AAXX 17121 47156 32670 60505 11007 21056 30228 40321 52007 85500 333 10029 31001
AAXX 17121 47157 32972 02302 11049 21102 30018 40303 52013 333 10021 30106
AAXX 17121 47162 32972 00504 10000 21084 30257 40299 52011 333 10056 30101 92022
AAXX 17121 47169 32675 73410 10039 21029 30218 40314 53006 87500 333 10042 31003 92054
AAXX 17121 47170 32670 33405 10001 21061 30271 40316 52010 83500 333 10041 30101 92022
AAXX 17121 47171 329// /1102 11023 21063 30260 40318 50004 333 10014 3/101
AAXX 17121 47172 129// /2701 11022 21045 30242 40312 50005 69902 333 10008 3/000
AAXX 17121 47173 329// /0000 11054 21078 30200 40318 50006 333 10020 3/102
AAXX 17121 47174 32670 32903 11028 21080 30101 40313 52009 83500 333 10025 34101
AAXX 17121 47175 32570 43607 11036 21044 39719 40319 52011 84500 333 10000 3/001 47003 92023
AAXX 17121 47185 12675 63417 10060 21021 30220 40313 53011 69902 86500 333 10069 31004 92035
AAXX 17121 47188 12670 50203 10040 21019 30286 40308 52012 69912 85500 333 10064 31002 92022
AAXX 17121 47189 32670 50503 10065 20008 30232 40293 52008 85500 333 10104 31006 92022
AAXX 17121 47192 32975 01102 11014 21112 30267 40306 52015 333 10062 30102
BBXX 46206 17121 99488 71260 46/// /1309 10083 40247 57015 22200 00093 11707 70034 333 91212
AAXX 17124 68267 NIL
AAXX 17124 68592 NIL
AAXX 17124 86330 12598 62206 10194 20171 40088 52009 69904 85235 333 10206 20171 30013
AAXX 17124 86360 12397 72607 10200 20160 40103 53014 60024 86570 333 10220 20162 30015
AAXX 17124 86460 11496 82506 10182 20165 40080 51005 60054 76122 8687/ 333 1//// 20165 31015
AAXX 17124 86490 12497 71812 10189 20155 40098 53011 60074 86570 333 10194 20171 30016
AAXX 17124 86530 11396 82310 10182 20169 40079 57010 60134 76165 887// 333 10188 20164 31///
AAXX 17124 86545 11296 72008 10188 20175 40077 51004 60044 75052 84770 333 10190 20168 31016
AAXX 17124 86565 11496 72308 10197 20174 40039 51003 60044 75252 86460 333 10197 20174 31016
AAXX 17124 86580 11296 81714 10180 20177 40062 52003 60054 76066 887// 333 10195 20150 32///
AAXX 17121 50658 31930 00000 11190 21208 40244 57002 70400
AAXX 17121 50888 32980 02504 11144 21190 40217 52003
AAXX 17121 50983 32970 52201 11157 21198 40230 52007 80002
AAXX 17121 51053 11975 10702 11127 21148 40401 57001 69901 70070 80002 333 05200
AAXX 17121 51542 32980 10000 11197 21228 37555 54000 80002 333 05351
AAXX 17121 52436 32980 00702 11080 21134 38526 40381 57006 333 00002
AAXX 17121 52908 32980 62502 11136 21286 35749 52014 80002 333 00352 91121 91527
AAXX 17121 52996 32970 23603 11070 21095 37607 52020 80002 333 00200
AAXX 17121 53083 32980 00000 11269 21293 40500 52007 333 00203
AAXX 17121 53764 32968 01801 11045 21126 40383 52020
AAXX 17121 53787 32980 60703 11049 21107 40369 52020 80002
AAXX 17121 54096 32970 02909 11155 21208 40253 52012
AAXX 17121 54226 32980 03204 11085 21226 40344 52016
AAXX 17121 54259 32965 00000 11157 21203 40340 52014
AAXX 17121 54527 32960 03602 11031 21131 40339 52013
AAXX 17121 54534 32962 02502 11066 21144 40333 52013
BBXX 46205 17121 99542 71343 46/// /3405 10070 40127 57002 22200 00075 11709 70046 333 91206
BBXX 46132 17121 99497 71279 46/// /1612 10090 40198 57022 22200 00086 11710 70048 333 91215
AAXX 17124 71727 11574 43010 11152 21193 30019 40224 52022 69901 70277 84500 333 10049 21155 48024 70020 90932
AAXX 17124 61401 NIL
AAXX 17124 61404 33960 10816 10235 21041 39825 40222 80002 333 0//00 59018 81073
AAXX 17124 61415 32958 20607 10243 20066 30211 40216 82030 333 0//00 58010 82363
AAXX 17124 61421 NIL
AAXX 17124 61437 31956 30406 10270 20074 30070 40208 705// 80002 333 0//00 58018 83073
AAXX 17124 61442 32956 70714 10255 21083 30179 40182 8707/ 333 0//00 58007 87463
AAXX 17124 61450 31956 51010 10250 21005 39721 40177 706// 80002 333 0//00 59011 85073
AAXX 17124 61461 NIL
AAXX 17124 61489 31956 60414 10275 21036 30161 40168 707// 86070 333 0//00 58000 86363
AAXX 17124 61492 NIL
AAXX 17124 61497 34956 70814 10287 21022 39906 4//// 707// 80003 333 0//00 59013 87073
AAXX 17124 61498 31957 30406 10290 20120 30010 40141 705// 80001 333 0//00 59019 83073
AAXX 17124 61499 31950 50814 10273 21043 39910 40165 707// 80002 333 0//00 59009 85073
AAXX 17124 61510 NIL
BBXX 46205 17121 99542 71343 46/// /3405 10070 40127 57002 22200 00075 11709 70046 333 91206
BBXX 46132 17121 99497 71279 46/// /1612 10090 40198 57022 22200 00086 11710 70048 333 91215
AAXX 17124 71727 11574 43010 11152 21193 30019 40224 52022 69901 70277 84500 333 10049 21155 48024 70020 90932
AAXX 17124 42571 32996 00000 10204 20065 40146 333 10244 59003
AAXX 17124 42667 31996 00506 10226 20104 39550 40137 70500 333 10259 59004
AAXX 17124 42754 31996 00506 10236 20109 39494 40126 70500 333 10282 59006
AAXX 17124 42867 31996 01102 10248 20095 40129 70500 333 10290 59001
AAXX 17124 42933 32997 00000 10279 20116 40120 333 10325 59003
AAXX 17124 42559 NIL
AAXX 17124 42675 NIL
AAXX 17124 42779 NIL
AAXX 17124 42874 NIL
AAXX 17124 43041 NIL
AAXX 17121 40608 41958 81802 10152 20080 40186 57015 70522 8807/
AAXX 17124 82392 32499 30910 10294 20203 30010 40112 83100 333 20198 58000
AAXX 17124 82583 32599 40910 10291 20189 39783 40117 84101 333 20232 58004
AAXX 17124 82594 32697 50907 10280 20206 30116 40124 82233 333 20230 58004
AAXX 17124 82683 32595 30904 10286 20187 39678 40126 83100 333 20225 59001
AAXX 17124 82780 32598 30908 10304 20188 39891 40139 82104 333 20223 59002
AAXX 17124 82789 32599 21406 10216 20145 38940 40033 82009 333 20163 58001
AAXX 17124 82795 32597 41411 10250 20182 39530 40145 84200 333 20203 58001
AAXX 17124 82879 32598 20508 10296 20210 39852 40114 82100 333 20250 58003
AAXX 17124 82893 32798 40914 10248 20170 39232 40126 84200 333 20196 58007
AAXX 17124 68155 36/// /0704 10306 20137 39210 48560 58012 333 10307 20216 91011 555 91018
AAXX 17124 68171 NIL
AAXX 17124 68176 36/// /0907 10286 20110 39156 48557 58011 333 10296 20163 91014 555 91018
AAXX 17124 68181 NIL
AAXX 17124 68182 36/// /1304 10269 20120 39368 48571 57016 333 10274 20149 91010 555 91019
AAXX 17124 68185 36/// /1305 10251 20104 38499 48431 57011 333 10255 20129 91010 555 91010
AAXX 17124 68253 36/// /1403 10309 20152 39060 48550 58012 333 10314 20193 91007 555 91018
AAXX 17124 68255 36/// /0603 10284 20121 38876 48534 58012 333 10293 20203 91008 555 91018
AAXX 17124 68271 36/// /3205 10281 20145 38931 48546 57015 333 10288 20161 91010 555 91019
AAXX 17124 68273 36/// /0205 10256 20133 38480 48534 57012 333 10279 20139 91008 555 91022
AAXX 17124 68287 36/// /1505 10213 20117 38613 48550 57007 333 10215 20123 91010 555 91023
AAXX 17124 68291 36/// /1105 10303 20111 39562 48587 57011 333 10303 20160 91014 555 91017
AAXX 17124 68297 NIL
AAXX 17124 68329 36/// /3404 10377 20061 39077 48541 58012 333 10387 20150 91008 555 91015
AAXX 17124 68331 36/// /3205 10344 20024 38831 48531 52833 333 10349 20333 91011 555 91018
AAXX 17124 68335 36/// /0803 10338 20057 38929 48556 58013 333 10342 20127 91009 555 91020
AAXX 17124 68341 36/// /3605 10280 20126 38552 48538 58005 333 10282 20158 91011 555 91022
AAXX 17124 68342 NIL
AAXX 17124 68343 36/// ///// 10323 20061 38788 48524 58012 333 10324 20126 555 91018
AAXX 17124 68349 36/// /3506 10276 20122 38528 48522 58009 333 10279 20171 91010 555 91020
AAXX 17124 68353 36/// /2703 10280 20086 38536 48516 58008 333 10280 20152 91012 555 91020
AAXX 17124 68355 36/// /3105 10290 20094 38592 48529 57011 333 10294 20151 91012 555 91021
AAXX 17124 68370 NIL
AAXX 17124 68377 36/// /1605 10291 20114 38768 48516 57019 333 10292 20164 91009 555 91017
AAXX 17124 68380 36/// /2803 10264 20081 3//// 4//// 5//// 333 10270 20118 91009 555
AAXX 17124 68387 36/// /0607 10261 20147 38884 48552 57006 333 10263 20163 91021 555 91021
AAXX 17124 68411 36/// /1102 10387 21047 39886 40080 58021 333 10390 20208 91006 555 91009
AAXX 17124 68429 36/// /2402 10348 21076 38690 48521 58003 333 10355 20120 91007 555 91018
AAXX 17124 68449 36/// /3005 10284 20055 38404 48513 58013 333 10287 20126 91011 555 91020
AAXX 17124 68471 36/// /1107 10241 20140 38345 48520 58007 333 10245 20136 91014 555 91022
AAXX 17124 68474 32580 60904 10258 20138 38639 48534 57011 8/100 333 10262 20137 91010 555 91021
AAXX 17124 68479 36/// /1108 10289 20117 38960 48538 57015 333 10290 20154 91014 555 91018
AAXX 17124 68481 36/// /0304 10290 20118 39801 40159 57016 333 10293 20163 91009 555 91017
AAXX 17124 68487 36/// /1310 10243 20169 39018 48548 58012 333 10254 20139 91017 555 91020
AAXX 17124 68491 36/// /1209 10263 20183 30172 40181 57007 333 10268 20168 91012 555 91018
AAXX 17124 68497 36/// /1113 10260 20175 30135 40179 57010 333 10268 20176 91019 555 91018
AAXX 17124 68183 12678 31308 10274 20104 39466 48575 58016 69921 81102 333 10275 20162 91016 555 20002 91018
AAXX 17124 68188 36/// /1804 10264 20126 39227 48568 58012 333 10266 20169 91007 555 91020
AAXX 17124 68268 36/// /0406 10300 20152 38905 48558 57012 333 10307 20165 91012 555 91021
AAXX 17124 68272 36/// /3504 10304 20126 39090 48555 58016 333 10309 20181 91008 555 91018
AAXX 17124 68296 32/// /1805 10385 20232 39848 48634 57012 333 10388 20179 91012 555 91016
AAXX 17124 68322 32982 03406 10377 20051 39119 48528 57011 333 10402 20132 91011 555 91013
AAXX 17124 68338 32580 43405 10324 20069 38772 48517 57011 84200 333 10332 20115 91011 555 91017
AAXX 17124 68345 36/// /3006 10292 20111 38687 48536 58010 333 10300 20160 91014 555 91020
AAXX 17124 68362 32680 20603 10288 20082 38525 48528 57010 82200 333 10290 20136 91006 555 91021
AAXX 17124 68400 36/// /1406 10313 20129 30087 40158 57010 333 10319 20158 91013 555 91016
AAXX 17124 68408 36/// /1612 10195 20146 30114 40122 57017 333 10206 20099 91021 555 91012
AAXX 17124 68416 32984 00106 10352 21073 39024 48526 57013 333 10352 20178 91013 555 91015
AAXX 17124 68478 36/// /0204 10273 20158 38892 48543 57010 333 10277 20163 91008 555 91020
AAXX 17124 68488 36/// /0908 10242 20147 39302 48564 57007 333 10262 20151 91015 555 91019
AAXX 17124 68494 NIL
AAXX 17124 68524 32986 03212 10365 21063 39042 48527 57011 333 10374 20123 91019 555 91014
AAXX 17124 68546 36/// /0204 10309 20034 38661 48514 58012 333 10310 20114 91014 555 91018
AAXX 17124 68558 36/// /2909 10261 20036 38208 48513 57007 333 10264 20075 91014 555 91022
AAXX 17124 68570 36/// /3203 10290 20033 38518 48511 57009 333 10299 20143 91006 555 91019
AAXX 17124 68580 36/// /1208 10197 20164 38980 48545 57007 333 10211 20119 91013 555 91020
AAXX 17124 68614 32980 02410 10299 20107 30075 40114 57012 333 10319 20115 91018 555 91011
AAXX 17124 68624 32982 02811 10326 21116 38740 48524 57010 333 10335 20132 91019 555 91018
AAXX 17124 68674 36/// /0105 10268 20185 30144 48617 57010 333 10274 20196 91015 555 91017
AAXX 17124 68712 32970 02015 10200 20159 30072 40136 57010 333 10211 20138 91018 555 91013
AAXX 17124 68718 36/// /2507 10342 20052 39867 40099 57016 333 10347 20112 91012 555 91011
AAXX 17124 68722 32980 02105 10294 21026 38552 48512 57007 333 10301 20058 91014 555 91019
AAXX 17124 68814 36/// /2307 1//// 2//// 30143 4//// 58005 333 1//// 2//// 91010 555 91015
AAXX 17124 68832 32970 03003 10317 20040 39176 48530 57016 333 10327 20117 91009 555 91014
AAXX 17124 68916 32370 12306 10203 20160 39883 40148 57005 81100 333 10210 20153 91014 555 91015
AAXX 17124 68920 32970 21606 10220 20172 30124 40136 55000 80006 333 10236 20175 91008 555 91013
AAXX 17124 68928 NIL
AAXX 17124 89020 46/// /1305 11042 21075 39731 49766 57011 91200
BBXX 62141 17123 99493 50591 41497 83527 10113 40135 57007 72122 88/// 22200 20607 33535 40505 50607
BBXX AMOUK20 17124 99205 50357 46/// ///// 10269 20210 30175 4//// 52010 91150
BBXX SHIP 17121 99176 50714 41997 01002 10215 20134 40160 70040 80000 22274 20102 313// 41205 80165
BBXX GDTT 17124 99171 70736 41498 50920 10265 20213 40145 55001 7//81 83564 22233 00300 20403 306// 40506 80230
BBXX A8OU4 17124 99402 71537 41498 52231 10140 20102 40210 54000 7//22 85260 22224 00160 20406 327// 40908 5//// 80120
BBXX VREX7 17124 99279 70694 41298 71603 10220 20153 40225 54000 70322 8677/ 22264 20601 304// 40802 5//// 80180
BBXX TBWUK19 17124 99488 71288 41297 71931 10057 20043 40243 7//// 8/6// 22272 20605 326// 41408 5//// 80051
BBXX DGAF 17123 99503 70444 41296 72045 10070 20038 40020 57035 78082 8/778 22264 00090 20912 316// 41214 80055
BBXX ZCDF4 17123 99178 71029 41698 30714 10260 20238 40138 58003 70200 8246/ 22275 00270 2//// 329// 40402 5//// 80245
BBXX MDTE9 17123 99419 70422 41296 81008 10160 20148 40177 53010 71142 8561/ 22223 00150 20401 399// 4//03 5//// 80153
BBXX AMOUK11 17124 99802 11280 46/// ///// 10062 20023 30062 4//// 50000 91150
BBXX MLJA8 17123 99055 10855 41497 40409 10310 20254 40084 55007 70222 8446/ 22263 00300 20000 300// 40000 5//// 80270
BBXX MGSM3 17124 99286 31540 41198 31119 10220 20140 40155 52005 70000 83/// 22243 06210 20201 31717 40603 50602 80175
AAXX 17121 30499 32999 22801 11214 21226 39533 40237 52009 80001 333 11166
AAXX 17121 30683 329// 20000 11235 21260 39567 40271 52009 82040 333 11140
AAXX 17121 30695 32999 53602 11182 21232 39877 40234 51006 82034 333 11147
AAXX 17121 31253 32999 00000 11281 21312 39703 40206 52003 333 11253
AAXX 17121 31295 32999 02904 11175 21225 39728 40208 52013 333 11132
AAXX 17121 31348 32999 00000 11322 21333 39951 40169 52007 333 11229
AAXX 17121 31418 32984 00000 11282 21307 39886 40167 53006 333 11227
AAXX 17121 31439 32999 80000 11197 21238 30073 40120 52008 83045 333 11175
AAXX 17121 31442 32997 00000 11269 21293 39826 40215 52004 333 11152
AAXX 17121 31445 32984 02901 11241 21281 39927 40203 51001 333 11140
AAXX 17121 31474 NIL
AAXX 17121 31521 12984 32001 11233 21251 39894 40209 54000 69902 80001 333 11150
AAXX 17121 31527 12998 02301 11253 21272 39881 40211 51003 69902 333 11148
AAXX 17121 31534 NIL
AAXX 17121 31587 12999 00000 11240 21246 30056 40215 52001 69902 333 11137
AAXX 17121 31632 NIL
AAXX 17121 31702 11998 00301 11242 21267 39849 40215 51003 69930 70271 333 11162
AAXX 17121 31713 12999 13203 11180 21214 30071 40177 52003 69900 81030 333 11133
AAXX 17121 31725 12998 02702 11213 21232 30100 40171 58001 69920 333 11148
AAXX 17121 31801 NIL
BBXX ZCDD6 17123 99215 70180 41299 20830 10215 20117 40220 51005 70200 8/1// 22255 00200 20805 306// 40806 5//// 80160
BBXX A8RL4 17124 99128 70180 41998 20617 10270 20164 40145 50005 7//// 80006 22243 00270 20602 80200
BBXX AMOUK15 17124 99159 50057 46/// ///// 10212 20137 30159 40185 54000 91150
BBXX AMOUK01 17124 99474 30083 46/// ///// 10062 20034 39914 49919 57005 91150
BBXX ZIPR7 17123 99080 30076 41497 72426 10232 20214 40122 54000 7//// 8444/ 22244 04257 20303 323// 40504 5//// 80220
AAXX 17124 88900 46/// /1904 10043 20038 30064 40067 58029 333 10056 20026
AAXX 17121 31825 32984 83502 11151 21221 39935 40154 51005 85077 333 11115
AAXX 17121 31845 31996 82201 11204 21223 30023 40199 54000 77171 8807/ 333 11150
AAXX 17121 31878 11663 82602 11156 21198 30103 40235 51011 69900 70471 8257/ 333 11122
AAXX 17121 31915 32998 02904 11129 21201 39960 40239 51012 333 11088
AAXX 17121 31921 32998 02702 11128 21190 30136 40240 52015 333 11095
AAXX 17121 31969 32/// /2910 11076 21213 30192 40243 53004 333 91118
AAXX 17121 31981 32999 02302 11204 21245 39985 40241 52006 333 11091
AAXX 17121 31987 32999 03501 11133 21240 39961 40236 52007 333 11081
AAXX 17121 32069 11598 53107 11125 21187 30094 40099 52003 69900 73631 85900 333 11127 91009 91113
AAXX 17121 30455 119// 80000 11128 21155 38912 48456 51001 69902 77172 8801/ 333 11087
AAXX 17121 30731 114// 81902 11088 21112 39739 40373 57003 60012 77172 8372/ 333 11064
AAXX 17121 30739 316// 62304 11163 21197 39525 40400 57003 73632 85942 333 11139
AAXX 17121 30741 115// 82707 11131 21144 38766 48559 53002 69962 70272 885// 333 11127
AAXX 17121 30745 319// 52405 11158 21177 39143 40358 57002 70232 80002 333 11153
AAXX 17121 30764 32998 01702 11122 21174 39447 40274 52001 333 11066
AAXX 17121 30829 32984 00000 11253 21278 39715 40484 53002 333 11198
AAXX 17121 30838 32998 32801 11253 21266 39393 40485 54000 80002 333 11171
AAXX 17121 30846 31999 12206 11128 21190 39399 40353 58006 73630 80003 333 11095
AAXX 17121 30859 31999 02703 11114 21176 39438 40308 52004 70230 333 11089
AAXX 17121 30862 32984 02405 11128 21190 39507 40276 52001 333 11108
AAXX 17121 30957 329// 02503 11134 21186 39413 40355 52005 333 11085
AAXX 17121 30975 32998 02301 11332 21370 39616 40352 52011 333 11238
BBXX 46181 17121 99538 71288 46/// /0404 10018 40121 57005 22200 00059 10200 70001 333 91205
BBXX 44062 17121 99386 70764 46/// /0109 1//// 91220 22200 00088 333 91212
BBXX 44062 17121 99386 70764 46/// /0109 1//// 40208 91210 22200 00088 333 91211
BBXX 44062 17121 99386 70764 46/// /0210 10038 40207 51020 91200 22200 00088 10301 70007 333 91212
BBXX 44063 17121 99390 70764 46/// /0204 1//// 91220 333 91205
BBXX 44063 17121 99390 70764 46/// /0104 1//// 40243 91210 333 91205
BBXX 44063 17121 99390 70764 46/// /0104 10033 40244 51016 91200 22200 00084 1//00 70002 333 91206
BBXX 44041 17121 99372 70768 46/// /3603 1//// 91220 333 91204
BBXX 44041 17121 99372 70768 46/// /3603 1//// 40249 91210 333 91204
BBXX 44041 17121 99372 70768 46/// /3603 10031 40249 53017 91200 22200 00098 1//00 70001 333 91204
BBXX 44042 17121 99380 70763 46/// /3506 1//// 91220 333 91207
BBXX 44042 17121 99380 70763 46/// /3506 1//// 40227 91210 333 91208
BBXX 44042 17121 99380 70763 46/// /3606 10041 40226 51016 91200 22200 00093 10301 70004 333 91208
BBXX 44043 17121 99392 70764 46/// /3307 1//// 91220 333 91209
BBXX 44043 17121 99392 70764 46/// /3406 1//// 40225 91210 333 91208
BBXX 44043 17121 99392 70764 46/// /3406 10037 40223 51011 91200 22200 00073 10201 70004 333 91208
BBXX 42362 17121 99278 70907 46/// /0308 10211 20183 40251 91230
BBXX 42363 17121 99282 70892 46/// /0209 10200 20161 40251 91230 333 91209
BBXX 42364 17121 99291 70881 46/// /3510 10189 20167 40251 91230
BBXX 51179 17121 99143 51708 46/// ///// 1//// 91202 22200 00284
BBXX 52248 17121 99135 11448 46/// ///// 1//// 91206 22200 00282
BBXX 52245 17121 99181 11458 46/// ///// 1//// 91206 22200 00282
BBXX 52246 17121 99152 11457 46/// ///// 1//// 91207 22200 00282
BBXX 52244 17121 99200 11452 46/// ///// 1//// 91208 22200 00270
BBXX 51172 17121 99284 71783 46/// ///// 1//// 91212 22200 00231
BBXX 51173 17121 99260 71739 46/// ///// 1//// 91212 22200 00241
BBXX 51176 17121 99278 71758 46/// ///// 1//// 91213 22200 00232
AAXX 17124 83264 21797 82302 10225 20218 39690 40158 70066 8351/ 333 20212 58016 60244
AAXX 17124 83358 32798 7//// 10260 20227 39689 40086 84193 333 20210 58009
AAXX 17124 83599 31397 699// 10285 20221 40149 51015 7012/ 81152 222// 02238 20501 80240
AAXX 17124 83650 41698 40706 10270 20214 40195 52005 71522 83530 222// 02250 21003 80230 333 20230
AAXX 17124 83925 32998 22600 10260 20188 40064 57005 7010/ 8203/ 222// 20000 80210 333 20210
AAXX 17124 83970 41697 42607 10250 20186 30060 40064 52020 7030/ 84180 222// 02230 20402 80200 333 20190
AAXX 17124 83117 31697 31301 10260 20233 40112 51012 7010/ 84432 222// 02200 20101 80240 333 20210
AAXX 17124 83840 32970 12711 10232 20114 39093 48500 51010 80001 333 20146
AAXX 17124 82863 21696 82304 10222 20215 39911 40124 76162 8552/ 333 20221 58013 60234
AAXX 17124 83228 21799 80000 10246 20223 39842 40117 70262 8812/ 333 20223 58017 60054
AAXX 17124 83270 32798 80000 10228 20216 39660 40142 885// 333 20214 58019
AAXX 17124 83309 31695 80000 10257 20231 39795 40115 71000 886// 333 20233 58013
AAXX 17124 83319 22697 80000 10246 20232 39777 40150 8372/ 333 20226 58014 60074
AAXX 17124 83368 21698 80000 10250 20221 39746 40110 70362 85210 333 20226 58021 60104
AAXX 17124 83374 22598 70506 10243 20208 39546 40116 87800 333 20214 58015 60134
AAXX 17124 83405 31695 8//// 10270 20233 39941 40076 71044 885// 333 20227 58010
AAXX 17124 83526 22498 83603 10223 20190 39176 40111 885// 333 20192 58013 60104
AAXX 17124 83552 32698 2//// 10275 20166 39960 40133 80003 333 2//// 58005
AAXX 17124 83565 32897 30502 10266 20190 39636 40096 83030 333 20193 58016
AAXX 17124 83623 32996 6//// 1//// 2//// 39531 4//// 53026 85204 333 2////
AAXX 17124 83630 32597 52704 10230 20190 3//// 4//// 52024 83230 333 20175
AAXX 17124 83676 31597 13604 10248 20232 39462 40080 52016 71000 81100 333 20204
AAXX 17124 83702 32999 81406 10255 20152 39369 40117 53013 80006 333 20180
AAXX 17124 83704 32898 61802 10274 20144 39680 40081 51022 80001 333 2////
AAXX 17124 83716 32997 10502 10278 20148 39611 40095 52044 81080 333 20210
AAXX 17124 83726 32597 33602 10251 20161 39174 40131 53027 83030 333 20161
BBXX 44059 17121 99368 70763 46/// /0106 1//// 91220 333 91208
BBXX 44059 17121 99368 70763 46/// /0106 1//// 40213 91210 333 91208
BBXX 44059 17121 99368 70763 46/// /0106 10056 40212 53010 91200 22200 00107 333 91208
BBXX 44057 17121 99395 70761 46/// /2802 1//// 91220 333 91202
BBXX 44057 17121 99395 70761 46/// /2902 1//// 40225 91210 333 91202
BBXX 44057 17121 99395 70761 46/// /2902 10019 40224 51010 91200 22200 00048 333 91202
BBXX 44058 17121 99376 70763 46/// /3608 1//// 91220 333 91209
BBXX 44058 17121 99376 70763 46/// /3507 1//// 40221 91210 333 91209
BBXX 44058 17121 99376 70763 46/// /3608 10049 40221 53018 91200 22200 00095 10201 70004 333 91209
BBXX 46181 17121 99538 71288 46/// /0404 10018 40121 57005 22200 00059 10200 70001 333 91205
BBXX 46184 17121 99539 71389 46/// /2203 10062 40137 52005 22200 00065 11109 70045 333 91205
BBXX 46184 17121 99539 71389 46/// /2203 10062 40137 52005 22200 00065 11109 70045 333 91205
BBXX 9VVN 17124 99431 11463 41911 02816 10000 20000 40145 52005 22214 00040 2//// 3//// 4//// 5//// 6///0 80000 ICE 0/0//
BBXX JGQH 17124 99312 11335 41/97 43314 10112 20000 40266 58003 70311 81230 22213 00225 1//04 20301 399// 4//02 70019
BBXX JNCJ 17124 99336 11396 41497 62925 10100 21018 40210 51010 70322 868// 22233 00230 20202 332// 40203 80050
BBXX JPBN 17124 99349 11403 41/98 10116 10087 21067 40211 54000 70200 81200 22200 00178 10702 20301 399// 4//02 70010
BBXX UCDM 17120 99445 11379 42/98 93009 11058 40159 56004 22213 06027 20503
BBXX UCDN 17120 99530 11436 42698 93318 11100 49986 569986 71674 89900 22283 06030 336// 40602 63031 ICE41071
BBXX UFLC 17120 99488 11404 42898 23106 11032 40139 54000 22253 06012 20201
BBXX VRHO2 17124 99357 11414 41898 53013 10080 20013 40200 54000 70111 841// 22254 00200 20503 33030 41202 51402 6//// 80050 ICE /////
BBXX OZDM2 17124 99337 10246 41698 72519 10200 20116 40151 56012 70322 85264 22224 04200 20104 80150
AAXX 17124 68171 NIL
AAXX 17124 68181 NIL
AAXX 17124 68297 NIL
AAXX 17124 68342 NIL
AAXX 17124 68370 NIL
AAXX 17120 44277 329// 00000 11221 21241 37836 40539 53003 333 11134
AAXX 17124 91723 NIL
AAXX 17124 91759 11598 20000 10242 20225 40119 60001 82100 333 10317 82822
AAXX 17124 91762 11598 51108 10279 20246 40115 58010 60001 71502 858// 333 10309 82820 85640
AAXX 17124 60630 12983 03010 10208 20041 40201 58019 60001
AAXX 17124 42634 32996 00000 10270 20098 40123 333 10305 59004
AAXX 17124 42647 32996 00502 10295 20110 40129 333 10295 59002
AAXX 17124 42737 32996 03208 10290 20077 40122 333 10322 58000
AAXX 17124 42840 32997 00000 10294 20163 40125 333 10332 58002
AAXX 17124 42909 32997 02906 10284 20212 40116 222// 20000 333 10332 59013
AAXX 17124 42921 32996 01402 10278 20144 40142 333 10301 58000
AAXX 17124 43003 31995 03204 10288 20233 40109 70400 333 10343 58003
AAXX 17124 43063 32997 00000 10278 20118 39489 40102 333 10304 59003
AAXX 17124 43110 31997 03204 10304 20139 40104 70040 333 10341 58001
AAXX 17124 43117 32997 01402 10290 20109 40106 333 10315 59002
AAXX 17124 43192 31996 62702 10316 20164 40101 70522 80002 333 10340 58003
AAXX 17124 43014 NIL
AAXX 17121 24856 11997 80101 11409 21438 30063 40243 52003 69932 77177 80007 333 11402
AAXX 17121 30679 NIL
AAXX 17121 30686 NIL
AAXX 17121 30961 32999 02605 11122 21166 39478 40299 53003 333 11104
AAXX 17121 30971 32999 32905 11164 21206 39252 40290 53007 80001 333 11129
AAXX 17121 30978 31999 03204 11134 21195 39570 40283 53012 70230 333 11110
AAXX 17121 31513 32999 00000 11224 21236 39959 40202 52005 333 11147
AAXX 17121 31624 NIL
AAXX 17121 31832 11962 80000 11172 21191 30111 40203 52001 69900 70272 82031 333 11155
AAXX 17121 31913 NIL
AAXX 17121 32128 11598 73306 11084 21142 30059 40113 58002 60010 78583 87300 333 11090 91011 91112
BBXX 46004 17121 99509 71361 46/// /3002 10072 40143 52007 22200 00076 11610 70050 333 91204
BBXX MINUK05 1712/ 99596 70062 46/// ///// 10058 40078 52025
BBXX MINUK01 1712/ 99571 70021 46/// ///// 10033 40063 52023
AAXX 17124 89610 46/// /0441 11048 39644 4//// 5//// 333 90700 91149
AAXX 17121 32509 11598 60905 11013 21021 39879 49912 52022 60040 70282 86500 333 11004
BBXX 44039 17121 99411 70727 46/// /3006 10046 21011 40201 91153 22200 00099 10301 70004 333 91208
BBXX 46004 17121 99509 71361 46/// /3002 10072 40143 52007 22200 00076 11610 70050 333 91204
AAXX 17121 56671 32980 03402 10095 20026 38204 52017 333 05202
AAXX 17121 57378 32962 83401 10057 21042 40331 52017 8807/
AAXX 17121 57426 32861 53401 10045 21001 40306 52026 85500 333 00054
AAXX 17121 57476 32960 83601 10054 21027 40324 52014 8807/
AAXX 17121 57584 32960 80203 10059 21017 40317 52012 8807/
AAXX 17121 57598 32965 80000 10059 21040 40311 52006 8807/
AAXX 17121 57655 32960 80703 10063 21080 40313 52017 8807/
AAXX 17121 57713 NIL
AAXX 17121 57776 32970 70703 11023 21053 40326 52012 8704/
AAXX 17121 58321 32965 40902 10018 21094 40345 52007 80001
AAXX 17121 58437 32980 00902 11009 21359 38207 52004
AAXX 17121 58445 NIL
AAXX 17121 58556 32961 00203 10019 21082 40342 52014
AAXX 17121 58569 32967 03604 10036 21017 40333 52005
AAXX 17121 58646 32962 00402 10045 21079 40322 52012
AAXX 17121 58653 NIL
AAXX 17121 58660 NIL
AAXX 17121 58715 32970 02905 10062 21058 40300 52010
AAXX 17121 58730 32968 23601 10059 21013 40297 52013 82040
AAXX 17121 58731 32970 22701 10045 21035 40305 52013 82040
AAXX 17121 58754 32965 03402 10057 21021 40326 52021
AAXX 17121 58911 32965 00000 10072 20017 40279 52017
AAXX 17121 58931 32970 00905 10008 21056 38401 52008
AAXX 17121 59254 31957 03201 10139 20065 40240 52018 70500
AAXX 17121 59632 31756 73602 10166 20059 40229 52018 70500 875//
AAXX 17121 59855 11566 83401 10186 20153 40212 52017 69901 70060 888//
AAXX 17124 89667 46/// /0503 11096 29081 39908 4//// 5//// 91220
AAXX 17124 67002 11580 63004 10300 20208 30065 40098 60661 70262 81812 333 0//11 59012 81823 83630 85073 92408
AAXX 17124 67009 NIL
AAXX 17124 67012 32582 72606 10284 20243 30068 40079 57022 82932 333 0//00 81920 82820 83360 85075 94955 95815
AAXX 17124 67025 NIL
AAXX 17124 67027 11575 72410 10273 20250 30050 40071 58020 69931 79596 8397/ 333 0//11 81920 82820 85460 94964 95834 555 82640
AAXX 17124 67045 NIL
AAXX 17124 67072 32581 40810 10300 20243 30077 40080 56021 82232 333 0//00 82820 92428 555 82360 82075
AAXX 17124 67073 32582 5//// 10318 20242 30051 40077 57016 84903 333 0//00 84820 81920 94961 94992 95832 555 82073
AAXX 17124 67083 32575 51004 10270 20167 38692 48468 56018 85933 333 0//00 84820 82920 94972 95832
AAXX 17124 67095 32475 60610 10292 20230 30066 40072 55013 83932 333 0//00 82817 81917 85073 94965 95835
AAXX 17124 67113 NIL
AAXX 17124 67117 NIL
AAXX 17124 67137 32580 6//04 10292 20186 38844 48455 56014 84903 333 0//00 82820 82920 83073 94991 95811 555 10300 81623
AAXX 17124 67143 NIL
AAXX 17124 67152 NIL
AAXX 17124 67157 32580 3//// 10/// 20/// 30084 40091 57016 83900 333 0//00 81820 81920 83640 94994 95814
AAXX 17124 67161 NIL
AAXX 17124 67197 32480 60814 10283 20221 30055 40065 57019 85800 333 0//00 82817 84633
AAXX 17124 43086 32997 00000 10282 20101 39949 40125 333 10313 58001
AAXX 17124 43128 32996 01405 10270 20133 39520 40120 333 10301 59001
AAXX 17124 43150 31596 21103 10256 20191 30062 40137 70500 82500 222// 20000 333 10289 58001 82620
AAXX 17124 43185 31596 20902 10270 20203 30121 40124 70500 81530 333 10307 59002 81620
AAXX 17124 43189 32997 00000 10270 20200 30122 40131 333 10301 59004
AAXX 17124 43198 32996 30704 10258 20089 39280 40093 80001 333 10286 59003 83075
AAXX 17124 43201 32997 40903 10266 20066 39387 40095 80001 333 10290 58001 84075
AAXX 17124 43213 32997 20902 10280 20131 39800 40114 80001 333 10307 59001
AAXX 17124 43226 32997 50902 10310 20134 30065 40094 80008 333 10336 58001
AAXX 17124 43233 32897 60503 10260 20061 39299 40098 81036 333 10284 58002
AAXX 17124 43237 32597 50903 10268 20137 39726 40116 81501 333 10294 58001 81620 84075
AAXX 17124 43245 32597 30504 10274 20224 30096 40122 82501 333 10304 59002
AAXX 17124 43279 32997 50206 10266 20177 30104 40121 80002 333 10305 59001 85075
AAXX 17124 43284 32996 42905 10304 20156 39966 40079 80001 333 10330 59002 84075
AAXX 17124 43295 32497 30902 10242 20113 39094 48508 82501 333 10264 56209 59003 82616
AAXX 17124 43311 32597 53602 10300 20243 40080 82501 333 10324 59002 82625 83075
AAXX 17124 43314 32997 42702 10314 20227 40089 80002 333 10340 58001
AAXX 17124 43321 32496 10709 10270 20122 39662 40106 81500 333 10294 58002
AAXX 17124 43329 32997 30302 10266 20202 30099 40112 80001 333 10295 59003
AAXX 17124 43344 31496 30506 10272 20212 30007 40106 70511 81501 333 10301 58000 81618
AAXX 17124 43346 32597 70517 10268 20204 30106 40113 82502 333 10290 58012 82620 86075
AAXX 17124 43353 32996 02308 10302 20202 40086
AAXX 17124 43369 32597 73602 10292 20246 40086 83430 333 10316 58003 83620 85360
AAXX 17124 43371 32597 32703 10306 20217 30011 40083 82301 333 10338 57982 59001 82620 81925
AAXX 17124 67002 11580 63004 10300 20208 30065 40098 60661 70262 81812 333 0//11 59012 81823 83630 85073 92408
AAXX 17124 67009 NIL
AAXX 17124 67012 32582 72606 10284 20243 30068 40079 57022 82932 333 0//00 81920 82820 83360 85075 94955 95815
AAXX 17124 67025 NIL
AAXX 17124 67027 11575 72410 10273 20250 30050 40071 58020 69931 79596 8397/ 333 0//11 81920 82820 85460 94964 95834 555 82640
AAXX 17124 67045 NIL
AAXX 17124 67072 32581 40810 10300 20243 30077 40080 56021 82232 333 0//00 82820 92428 555 82360 82075
AAXX 17124 67073 32582 5//// 10318 20242 30051 40077 57016 84903 333 0//00 84820 81920 94961 94992 95832 555 82073
AAXX 17124 67083 32575 51004 10270 20167 38692 48468 56018 85933 333 0//00 84820 82920 94972 95832
AAXX 17124 67085 31565 7//// 10230 20148 38661 48470 56021 71722 86975 333 0//00 81923 85823 94971 94972 94973 94974 95811 95812 95813 95814 555 81633 81460 81275
AAXX 17124 67095 32475 60610 10292 20230 30066 40072 55013 83932 333 0//00 82817 81917 85073 94965 95835
AAXX 17124 67113 NIL
AAXX 17124 67117 NIL
AAXX 17124 67137 32580 6//04 10292 20186 38844 48455 56014 84903 333 0//00 82820 82920 83073 94991 95811 555 10300 81623
AAXX 17124 67143 NIL
AAXX 17124 67152 NIL
AAXX 17124 67157 32580 3//// 10/// 20/// 30084 40091 57016 83900 333 0//00 81820 81920 83640 94994 95814
AAXX 17124 67161 NIL
AAXX 17124 67197 32480 60814 10283 20221 30055 40065 57019 85800 333 0//00 82817 84633
AAXX 17120 44266 329// 30000 11190 21216 37788 40424 53005 80004 333 11128
AAXX 17120 44325 329// 00902 11219 21244 38936 40469 53003 333 11115
AAXX 17124 67002 11580 63004 10300 20208 30065 40098 60661 70262 81812 333 0//11 59012 81823 83630 85073 92408
AAXX 17124 67009 NIL
AAXX 17124 67012 32582 72606 10284 20243 30068 40079 57022 82932 333 0//00 81920 82820 83360 85075 94955 95815
AAXX 17124 67025 NIL
AAXX 17124 67027 11575 72410 10273 20250 30050 40071 58020 69931 79596 8397/ 333 0//11 81920 82820 85460 94964 95834 555 82640
AAXX 17124 67045 NIL
AAXX 17124 67072 32581 40810 10300 20243 30077 40080 56021 82232 333 0//00 82820 92428 555 82360 82075
AAXX 17124 67073 32582 5//// 10318 20242 30051 40077 57016 84903 333 0//00 84820 81920 94961 94992 95832 555 82073
AAXX 17124 67083 32575 51004 10270 20167 38692 48468 56018 85933 333 0//00 84820 82920 94972 95832
AAXX 17124 67095 32475 60610 10292 20230 30066 40072 55013 83932 333 0//00 82817 81917 85073 94965/6 95835/6
AAXX 17124 67113 NIL
AAXX 17124 67117 NIL
AAXX 17124 67137 32580 6//04 10292 20186 38844 48455 56014 84903 333 0//00 82820 82920 83073 94991/2/3 95811/2/3 555 10300 81623
AAXX 17124 67143 NIL
AAXX 17124 67152 NIL
AAXX 17124 67157 32580 3//// 10/// 20/// 30084 40091 57016 83900 333 0//00 81820 81920 83640 94994/8 95814/8
AAXX 17124 67161 NIL
AAXX 17124 67197 32480 60814 10283 20221 30055 40065 57019 85800 333 0//00 82817 84633
AAXX 17124 61600 32960 50808 10300 20018 30151 40156 80002 333 58005 85073
AAXX 17124 71888 16/// ///// 11062 21085 60001 333 10011 21068 70000
AAXX 17124 71895 16/// ///// 11035 21066 60001 333 10014 21067 70000
AAXX 17124 71116 16/// /2802 11023 21041 39112 40226 58012 60001 333 10005 21076 4/011 70000 555 10130
AAXX 17124 71461 16/// /2103 10018 20009 60001 333 10010 21074 70000
AAXX 17124 71468 16/// /2209 11106 21116 39882 40216 58025 60001 333 21117 70000
AAXX 17124 71483 16/// ///// 11024 21052 60001 333 10025 21053 70000
AAXX 17124 71283 16/// /1702 11023 21029 60001 333 11026 21078 70000
AAXX 17124 71673 16/// ///// 11063 21088 60001 333 10023 21077 70000
AAXX 17124 71690 16/// ///// 10005 20000 60001 333 11008 21061 70000
AAXX 17124 71168 16/// /0000 11086 21087 39654 40263 58009 60001 333 10007 21091 70000
AAXX 17124 71761 16/// ///// 11071 21084 60001 333 11001 21079 70000
AAXX 17124 71788 16/// /2411 10024 21011 60001 333 10035 21028 70000
AAXX 17124 71792 17/// ///// 11053 21083 69941 7//4/ 333 10009 21083 70004
AAXX 17124 71359 16/// /2003 11060 21077 60001 333 10013 21070 70000
AAXX 17124 71405 16/// ///// 11042 21067 60001 333 10025 21058 70000
AAXX 17124 71417 16/// /2921 11064 21072 39999 40033 53074 60001 333 10033 21065 70055
AAXX 17124 71426 46/// /3022 11100 6///1 333 10045 21102 7////
AAXX 17124 71928 16/// /1204 11101 21120 38978 40168 56025 60001 333 11025 21127 4/007 70000
AAXX 17124 71500 16/// /1904 10003 21052 60001 333 10007 21025 70000
AAXX 17124 71504 16/// ///// 10000 21059 60001 333 10029 21023 70000
AAXX 17124 71541 16/// /1808 10013 21003 60001 333 11031 21064 70000
AAXX 17124 71543 16/// /1301 11005 21007 60001 333 11002 21069 70000
AAXX 17124 71546 16/// /2005 10017 20003 60001 333 10013 21051 70000
AAXX 17124 71547 16/// /1710 10008 21008 60001 333 11005 21032 70000
AAXX 17124 71549 16/// ///// 11024 21057 60001 333 7////
AAXX 17124 71067 16/// ///// 11020 21071 60001 333 11010 21048 70000
AAXX 17124 71221 16/// /0302 11046 21053 60001 333 11003 21106 7////
AAXX 17124 71226 46/// /0903 11011 21025 6///1 333 7////
AAXX 17124 71229 46/// /1706 11035 21048 6///1 333 11005 21122 7////
AAXX 17124 71244 16/// /2305 10025 21026 38968 40202 58009 60001 333 10043 21009 4/007 70000
AAXX 17124 71011 16/// ///// 11096 21114 60001 333 10002 21103 70000
AAXX 17124 71049 16/// /3021 11245 39993 40017 58016 60001 333 11182 21265 70000
BBXX 46146 17121 99493 71237 46/// /1105 10068 40266 57018 22200 00065 10200 70002 333 91206
AAXX 17121 56144 32780 70401 11011 21102 36862 52021 87400 333 00552
AAXX 17121 56152 11980 23402 11103 21160 36315 52020 69961 70080 80002 333 00557
AAXX 17121 56167 32780 43206 10039 21091 37086 52048 84400 333 00402
AAXX 17121 56182 32780 70000 10015 21113 37208 52040 86502 333 00204
AAXX 17121 56357 32980 00401 11025 21177 36441 52020 333 00151
AAXX 17121 56586 32460 83603 10000 21019 38086 52034 885// 333 00151
AAXX 17121 56748 32980 00701 10112 20035 38363 52017 333 00051
AAXX 17121 56763 32980 01405 10182 20054 40138 52027 333 05101
AAXX 17121 56768 32980 02203 10106 20066 38189 52018 333 05101
AAXX 17121 56838 32970 00000 10159 20125 40167 52016 333 00051
AAXX 17121 56886 32665 22202 10101 20063 38310 52018 82400 333 05205
AAXX 17121 56946 32680 10000 10153 20097 40175 52017 81400 333 05100
AAXX 17121 56959 32770 23401 10182 20156 40154 52015 82400 333 05152
AAXX 17121 56969 32760 20901 10173 20151 40178 52017 82500 333 05100
AAXX 17121 57731 32666 81403 10049 21024 40307 52026 885// 333 00054
AAXX 17121 57766 32962 80402 10068 21024 40304 52015 8807/
AAXX 17121 57845 32962 63601 10074 21006 40285 52020 86040
AAXX 17121 57853 32960 70201 10067 21017 40301 52016 8704/
AAXX 17121 57916 32666 80000 10101 20051 40243 52016 885// 333 05401
AAXX 17121 57922 32661 82901 10067 20014 40268 52018 885// 333 05303
AAXX 17121 57932 32667 80203 10107 21001 40268 52023 885// 333 05303
AAXX 17121 58338 32961 00903 10010 21073 40331 52003
AAXX 17121 59007 32673 60000 10102 20050 40214 52017 86500
AAXX 17121 59046 31959 80202 10140 20032 40249 52016 70500 8807/
AAXX 17121 59058 31956 43202 10113 20028 40254 52021 70500 84040
AAXX 17121 59072 32961 63602 10114 21004 40260 52018 86040
AAXX 17121 59087 32760 71401 10126 20030 40251 52017 875//
AAXX 17121 59209 32563 72202 10120 20059 40229 52015 878//
AAXX 17124 71928 16/// /1204 11101 21120 38978 40168 56025 60001 333 11025 21127 4/007 70000
BBXX 46146 17121 99493 71237 46/// /1105 10068 40266 57018 22200 00065 10200 70002 333 91206
AAXX 17124 87078 32970 51802 10258 20158 39984 40131 52021 85070 333 10284 20195 56080 85360
BBXX 46232 17121 99325 71174 46/// ///// 1//// 91208 22200 00150 11003 21002 328// 41101 70013
BBXX 46249 17121 99338 71197 46/// ///// 1//// 91212 22200 00146 11102 20302 329// 41101 70011
BBXX 46246 17121 99500 71451 46/// ///// 1//// 91229 22200 00074 11309 21005 327// 41307 70045
BBXX 46246 17121 99500 71451 46/// ///// 1//// 91159 22200 00074 11309 21005 328// 41307 70044
AAXX 17121 80001 01468 80406 10266 20237 30122 40123 60104 75052 8227/ 333 20234 31/// 5///0 55040 5620/ 58007 69987 70099 82815 88457
AAXX 17121 80002 NIL
AAXX 17121 80009 NIL
AAXX 17121 80022 01457 81004 10250 20244 30106 40108 60174 70565 85771 333 20246 31/// 5///0 55010 56799 58007 60174 70165 85710 83357
AAXX 17121 80028 NIL
AAXX 17121 80063 01465 52703 10240 20223 69964 7052/ 85510 333 20230 30/// 5600/ 69963 85618
AAXX 17121 80084 01165 70000 10225 20220 60214 7052/ 8263/ 333 20221 31/// 55027 5619/ 69972 82702 86359
AAXX 17121 80091 01456 71802 10230 20227 60444 7502/ 87720 333 20227 31/// 50/// 55048 5690/ 60027 87715
AAXX 17121 80094 01230 80000 10190 20187 38819 60064 7402/ 8677/ 333 20186 31/// 50330 55051 5609/ 58010 69988 86705
AAXX 17121 80097 NIL
AAXX 17121 80099 11460 60000 10238 20232 39918 40062 60074 7052/ 85812 333 20229 31/// 50690 55097 56999 59003 85815
AAXX 17121 80110 01457 80000 10184 20168 38520 60184 7505/ 8657/ 333 20180 32/// 55006 5600/ 58010 60182 86615
AAXX 17121 80112 11357 70000 10138 20131 37908 69964 70522 84671 333 20132 30/// 55019 56999 58004 84707 84358
AAXX 17121 80144 NIL
AAXX 17121 80210 11350 70000 10179 20168 38673 60104 74152 81635 333 20175 32/// 50170 55000 56000 58003 81707 83612 83358
AAXX 17121 80214 01330 81701 10205 20205 39130 60014 7416/ 8757/ 333 20194 31/// 50220 55040 5659/ 58004 69947 87607
AAXX 17121 80222 11466 83402 10122 20109 37521 69944 71552 8785/ 333 20122 30/// 55071 5699/ 58003 82610 85825
AAXX 17121 80234 NIL
AAXX 17121 80241 NIL
AAXX 17121 80259 01458 80000 10194 20186 39073 60124 71152 8562/ 333 20189 31/// 50090 55004 56499 58003 60027 85710 88458
AAXX 17121 80315 01250 80000 10218 20213 39608 40115 60324 72096 8367/ 333 20218 32/// 50430 55055 5622/ 58008 60208 83705 88460
AAXX 17121 80342 01420 80000 10148 20148 38224 60054 7402/ 884// 333 20148 31/// 50430 55037 564// 58006 60022 88610
AAXX 17121 80370 01420 70000 10090 20087 60134 7414/ 82450
AAXX 17121 333 20083 31/// 50160 55020 5642/ 60052 82616 86357
AAXX 17121 80398 11220 80000 10240 20237 30023 40119 60014 71022 885// 333 20235 30/// 50270 55025 569// 58011 88606
AAXX 17124 67002 11580 63004 10300 20208 30065 40098 60661 70262 81812 333 0//11 59012 81823 83630 85073 92408
AAXX 17124 67009 NIL
AAXX 17124 67012 32582 72606 10284 20243 30068 40079 57022 82932 333 0//00 81920 82820 83360 85075 94955 95815
AAXX 17124 67025 NIL
AAXX 17124 67027 11575 72410 10273 20250 30050 40071 58020 69931 79596 8397/ 333 0//11 81920 82820 85460 94964 95834 555 82640
AAXX 17124 67045 NIL
AAXX 17124 67072 32581 40810 10300 20243 30077 40080 56021 82232 333 0//00 82820 92428 555 82360 82075
AAXX 17124 67073 32582 5//// 10318 20242 30051 40077 57016 84903 333 0//00 84820 81920 94961 94992 95832 555 82073
AAXX 17124 67083 32575 51004 10270 20167 38692 48468 56018 85933 333 0//00 84820 82920 94972 95832
AAXX 17124 67085 31565 7//// 10230 20148 38661 48470 56021 71722 86975 333 0//00 81923 85823 94971 94972 94973 94974 95811 95812 95813 95814 555 81633 81460 81275
AAXX 17124 67095 32475 60610 10292 20230 30066 40072 55013 83932 333 0//00 82817 81917 85073 94965/6 95835/6
AAXX 17124 67113 NIL
AAXX 17124 67117 NIL
AAXX 17124 67137 32580 6//04 10292 20186 38844 48455 56014 84903 333 0//00 82820 82920 83073 94991/2/3 95811/2/3 555 10300 81623
AAXX 17124 67143 NIL
AAXX 17124 67152 NIL
AAXX 17124 67157 32580 3//// 10/// 20/// 30084 40091 57016 83900 333 0//00 81820 81920 83640 94994/8 95814/8
AAXX 17124 67161 NIL
AAXX 17124 67197 32480 60814 10283 20221 30055 40065 57019 85800 333 0//00 82817 84633
BBXX 44258 17121 99445 70634 46/// /3403 10005 40158 52014 22200 00073 11003 70014 333 91205
BBXX 44258 17121 99445 70634 46/// /3403 10005 40158 52014 22200 00073 11003 70014 333 91205
BBXX 41010 17121 99289 70785 46/// /2004 10230 40210 91220 22200 00240 11003 20301 300// 41003 70016 333 91205 555 11043 22044
BBXX 41009 17121 99285 70802 46/// /3006 10226 20173 40219 91220 22200 00253 11103 20501 300// 41102 70013 333 91207 555 11063 22065
BBXX 42361 17121 99276 70925 46/// ///09 10206 20172 40244 53010 91230 555 11075 22080
BBXX 44100 17121 99363 70756 46/// ///// 1//// 91222 22200 00130 11403 21002 309// 41402 70014
BBXX 41115 17121 99184 70673 46/// ///// 1//// 91205 22200 11004 21003 301// 41103 70021
BBXX 41112 17121 99307 70813 46/// ///// 1//// 91221 22200 00153 11101 21001 311// 41101 70006
BBXX 42013 17121 99272 70829 46/// ///// 1//// 40221 91140 22200 00200
BBXX KS088 17124 99267 70801 43/// /1102 10216 40207 22200 06233
BBXX KS094 17124 99133 70596 43/// /0709 10265 40141 22200 06270
BBXX KS098 17124 99440 71243 43/// /0909 10095 40236 22200 06000
AAXX 17124 96009 32458 81303 10260 20245 30087 40122 52009 82971 333 10275 56000 57904 58037 81915 81616 84460 80965
AAXX 17124 96011 32560 70905 10270 20234 30050 40076 52011 83532 333 10286 56000 59011 83620
AAXX 17124 96035 32458 70000 10278 20239 30039 40077 52017 83978 333 10319 56000 57900 59001 81917 82617 80900
AAXX 17124 96073 01456 70000 10266 20241 30071 40083 52022 69901 72996 83972 333 10320 56000 57901 58010 69907 83913 80960
AAXX 17124 96091 32458 70104 10269 20243 30064 40087 53018 83878 333 10302 56000 57803 58004 81613 82817 86360 80860
AAXX 17124 96109 01459 80000 10247 20241 30037 40077 52013 60091 70296 83572 333 10300 56000 58016 60037 83617 85460
AAXX 17124 96145 32440 73510 10271 20237 30078 40081 53013 85820 333 10285 56800 57883 58007 82616 83817 85460 80857
AAXX 17124 96147 31457 70310 10266 20240 30083 40088 52011 70522 84531 333 10300 56100 59001 84615
AAXX 17124 96163 01457 80000 10254 20242 30086 40088 52016 69921 72162 85521 333 10310 56000 69927 58006 85618
AAXX 17124 96179 32460 70000 10270 20256 30041 40077 52011 83238 333 10320 56800 57882 58003 83817 87273 80850
AAXX 17124 96195 01458 70000 10253 20235 30056 40092 52023 69901 72162 84571 333 10299 56000 58020 69907 84612
AAXX 17124 96221 01457 72507 10263 20237 30071 40086 52025 69911 79596 85976 333 10311 56999 57993 58022 69917 81920 85815 80980
AAXX 17124 96237 01457 80000 10253 20242 30035 40077 51021 69961 70262 86572 333 10290 56000 58007 69927 86616 84460
AAXX 17124 96249 11458 72805 10253 20247 30016 40076 52020 60061 70262 84932 333 10291 56700 57971 57871 58001 81917 83820 80981
AAXX 17124 96253 01457 70204 10244 20230 30053 40074 52012 60101 71462 83972 333 10285 56000 57900 57800 69907 81915 81820 84460 80900 80800
AAXX 17124 96295 01458 80000 10254 20245 39977 40079 51017 60081 76096 8652/ 333 10306 56009 58007 60087 86610
AAXX 17124 96509 31458 50000 10280 20251 30057 40068 52021 71322 83941 333 10321 56000 57905 57804 59002 81916 83815 80980 80865
AAXX 17124 96581 01450 73603 10256 20247 30066 40073 52017 60061 76096 86970 333 10319 56000 57902 58000 60017 81911 85810 83361 80980 80860
AAXX 17124 96633 32560 60204 10264 20252 30057 40084 52010 83271 333 10288 56009 58005 83620
AAXX 17124 96645 01456 70000 10244 20234 30048 40080 52017 69901 70262 85572 333 10344 56000 58007 69907 85612
AAXX 17124 96655 01420 82206 10248 20245 30069 40104 52026 60241 79596 86973 333 10312 56000 57901 58001 60247 81912 85612 80980
AAXX 17124 96685 01450 72304 10264 20250 30059 40086 52019 69901 76062 84511 333 10302 56000 59004 69907 84617
AAXX 17124 96749 01558 72410 10272 20239 30067 40081 53020 60021 71362 83971 333 10308 56000 57983 58006 69937 81921 82622 86460 80980
AAXX 17124 96781 01450 83006 10230 20212 39268 48732 52004 60021 76166 8457/ 333 10290 56009 58005 60027 84618 86460
AAXX 17124 96805 31558 72807 10268 20235 30074 40083 51020 72992 85971 333 10326 56000 57902 57801 81920 84820 84460 80980 80860
AAXX 17124 96839 01450 81202 10258 20243 30074 40081 52017 60101 79596 8492/ 333 10318 56009 57901 60047 58011 82917 83818 80980
AAXX 17124 96935 01550 83103 10247 20239 30079 40085 52018 60361 76196 85972 333 10322 56000 57901 58015 60017 82920 84820 80980
AAXX 17124 96001 NIL
AAXX 17124 96015 01440 71003 10248 20245 30069 40076 52022 60051 71796 85979 333 10304 56400 57902 57802 58011 60057 81910 84813 80980 80860
AAXX 17124 96033 31450 70000 10282 20244 30082 40088 57012 70522 83971 333 10290 56000 57903 58000 81920 83617 80980
AAXX 17124 96075 31457 60000 10279 20246 30061 40066 52003 70521 83571 333 10314 56000 59007 83618
AAXX 17124 96087 01459 70312 10273 20241 30049 40082 51021 69901 70262 83231 333 10298 56100 57812 58005 69907 83815 83360 85080 80860
AAXX 17124 96171 01456 70000 10268 20241 30060 40084 52025 60011 76062 85522 333 10304 56000 58023 60017 85616
AAXX 17124 96207 11450 80000 10217 20208 39219 40141 52006 60031 71662 85971 333 10277 56000 57902 82912 83615 80940
AAXX 17124 96525 31458 70000 10274 20256 30060 40067 52019 71322 82976 333 10302 56000 57901 59003 81915 86460 80980
AAXX 17124 96529 NIL
AAXX 17124 96535 32460 60000 10270 20249 30062 40083 52018 81231 333 10316 56000 57803 59004 81815 85082 80865
AAXX 17124 96557 31457 70000 10278 20252 30024 40073 52024 71322 85321 333 10313 56600 57960 57860 58002 82912 83813 86460 80980 80857
AAXX 17124 96559 31450 63603 10290 20247 30042 40080 52020 71322 82931 333 10322 56000 57903 57803 58009 81915 81814 84362 80975 80860
AAXX 17124 96565 32356 62904 10280 20259 30029 40081 52017 85521 333 10326 56000 59009 85609
AAXX 17124 96595 NIL
AAXX 17124 96607 32458 60000 10267 20243 30070 40085 52018 83221 333 10294 56000 58007 83814
AAXX 17124 96615 NIL
AAXX 17124 96695 32458 60000 10265 20246 30074 40080 51023 84231 333 10311 56000 57802 59008 83618 80860
AAXX 17124 96737 32456 82303 10272 20239 30039 40070 53017 85221 333 10316 56600 57862 58010 85815 83460 80862
AAXX 17124 96739 32460 82412 10272 20224 30033 40082 52023 8552/ 333 10330 56009 58005 85618 88459
AAXX 17124 96741 01556 82603 10280 20246 30071 40075 52017 60041 70262 8357/ 333 10315 56009 58004 69907 83620 86460
AAXX 17124 96745 01456 70000 10274 20239 30079 40084 52022 60041 71562 84521 333 10316 56600 58009 60027 84619 87459
AAXX 17124 96751 01540 80000 10210 20201 39013 48920 57002 60011 72996 8792/ 333 10241 56609 57961 59005 60017 82920 85620 80980
AAXX 17124 96791 01456 80000 10270 20256 30020 40095 52025 60041 79596 8797/ 333 10331 56009 57901 58014 60047 82918 85618 809//
AAXX 17124 96797 01450 82602 10244 20237 30086 40092 52038 60371 79596 8597/ 333 10310 56009 57902 58014 60377 81918 85620 80980
AAXX 17124 96837 01450 83011 10262 20247 30098 40101 51030 60081 71796 8692/ 333 10314 56009 57900 58028 60047 82920 84823 88460
AAXX 17124 96925 11464 82802 10270 20251 30076 40081 52020 60181 72996 84272 333 10296 56600 57860 58010 84817 86460 80860
AAXX 17124 96933 01450 80000 10252 20243 30079 40083 52015 60571 76196 8592/ 333 10327 56609 57961 58015 60037 81912 84610 88458 80975
AAXX 17124 96937 NIL
AAXX 17124 96973 01458 82804 10247 20241 30076 40081 52017 60271 76396 85976 333 10320 56000 57901 58014 60257 82918 80976 83820 80850
AAXX 17124 96987 11458 70000 10252 20242 30020 40080 52020 60041 71592 84221 333 10314 56000 57802 58011 82818 84460 80860
AAXX 17124 97008 11560 22403 10257 20243 30057 40067 5//// 60011 70162 81102 333 10304 56000 58007 81820
AAXX 17124 97016 31459 60000 10280 20240 30074 40076 53009 70522 84932 333 10330 56000 57902 57801 58005 81918 83820 80980 80860
AAXX 17124 97126 01456 82802 10256 20244 30013 40074 51010 60091 70296 8392/ 333 10320 56009 57900 58002 60097 82915 88460 80980
AAXX 17124 97142 NIL
AAXX 17124 97182 11459 80705 10250 20238 30075 40079 52014 69941 70262 84821 333 10254 56700 57870 58002 82819 87460 808//
AAXX 17124 97240 31457 73304 10260 20243 39965 40080 52020 70522 83171 333 10286 56000 58011 83816
AAXX 17124 97284 11410 80000 10196 20193 38849 40088 57010 60101 74064 8622/ 333 10246 56009 57800 58009 86810 80837
AAXX 17124 97310 11440 70000 10256 20247 30055 40067 52012 60151 70296 83521 333 10310 56000 58002 83618 87459
AAXX 17124 97320 NIL
AAXX 17124 97378 11465 70000 10252 20240 39912 40075 53019 60021 70362 83271 333 10310 56000 58004 83818 85459
AAXX 17124 97380 32558 40000 10253 20248 30048 40068 52017 81171 333 10393 56000 59007 81820 82360
AAXX 17124 97406 31460 60000 10258 20246 30023 40059 52009 71322 84931 333 10320 56000 57901 57801 81917 83818 80980 80860
AAXX 17124 97570 32460 23603 10252 20237 30073 40080 52022 81101 333 10308 56000 58012 81815
AAXX 17124 97630 31450 60205 10258 20246 39921 40081 52021 71322 83942 333 10310 56000 57901 58004 81912 82813 85080 80978
AAXX 17124 97682 01410 83205 10260 20254 30077 40084 52013 60061 76295 8697/ 333 10345 56000 57901 58004 60067 82917 85814 88460 8096/
AAXX 17124 97698 NIL
AAXX 17124 97700 11457 82204 10246 20230 30047 40061 51016 84872 333 10302 56000 57803 59005 60027 82817 84458 80850
AAXX 17124 97722 31462 70000 10268 20254 30066 40081 52024 71392 85972 333 10330 56600 57961 57861 58004 81918 83819 80970 80857
AAXX 17124 97780 NIL
AAXX 17124 97790 32560 42504 10287 20247 30027 40048 52016 81105 333 10312 56000 57803 58003 81820 80858
AAXX 17124 97014 31560 30302 10255 20241 39995 40088 52029 70192 81531 333 10326 56000 58005 81624
AAXX 17124 97028 32559 60000 10264 20237 30054 40060 53006 82421 333 10320 56000 59002 82620 84460
AAXX 17124 97048 32460 40000 10270 20243 30035 40059 51017 83232 333 10336 56000 57801 83817 80860
AAXX 17124 97072 11458 63104 10266 20221 30980 40081 51018 69901 70262 82211 333 10326 56000 58001 82619
AAXX 17124 97086 32460 50000 10275 20247 30056 40080 51023 82271 333 10312 56000 57803 58015 82819 80860
AAXX 17124 97096 11458 70000 10268 20253 30058 40079 52014 69901 70162 82221 333 10324 56000 57803 59006 69907 82816 86460 80857
AAXX 17124 97120 11459 70000 10258 20243 30042 40075 52007 69901 71562 82271 333 10305 56000 57803 58006 82818 86360 80860
AAXX 17124 97146 NIL
AAXX 17124 97180 01457 70805 10254 20245 30070 40088 53014 69901 72166 84271 333 10260 56000 69907 58005 84819 84460
AAXX 17124 97192 32450 42204 10272 20249 30037 40094 52023 83021 333 10284 56000 58000 83460
AAXX 17124 97230 01460 82804 10275 20250 30067 40074 52016 60021 70262 8487/ 333 10284 56609 57862 58009 69957 83817 86459 80858
AAXX 17124 97260 NIL
AAXX 17124 97270 11450 70000 10254 20248 30066 40071 51009 69961 70562 85821 333 10330 56000 58009 82815 83617 85460
AAXX 17124 97300 01560 60000 10267 20248 30037 40078 52016 60011 71562 82271 333 10320 56000 57801 58007 60017 82820 80858
AAXX 17124 97340 11560 72105 10253 20250 30060 40075 51023 60371 70296 82232 333 10322 56000 58001 82620 85080
AAXX 17124 97372 11457 61004 10259 20250 39953 40073 52017 69901 70162 85971 333 10307 56000 58001 81915 84816 83459
AAXX 17124 97430 32462 72706 20280 20245 30052 40081 52024 84232 333 10314 56500 57852 58002 84818 80860
AAXX 17124 97460 32460 40000 10270 20238 30048 40062 52028 83832 333 10324 56000 57802 58001 82817 80858
AAXX 17124 97502 01450 80000 10260 20249 30076 40079 52020 69901 76162 84531 333 10328 56000 57600 58/// 69907 84614
AAXX 17124 97530 01458 60000 10268 20260 30072 40077 52017 69901 70262 83932 333 10316 56000 57903 57802 58008 69907 81913 82814 80980 80833
AAXX 17124 97560 12460 70000 10254 20248 30066 40081 52015 83847 333 10286 56000 57803 58007 69921 83818 84360 86279 80859
AAXX 17124 97580 NIL
AAXX 17124 97600 32460 60000 10276 20247 30063 40069 52016 83271 333 10322 56600 57862 59005 82817 84459 80858
AAXX 17124 97686 01450 70000 10182 20162 38342 40074 52018 69901 72162 85836 333 10284 56000 59008 69907 85815 87360
AAXX 17124 97690 32450 40000 10260 20239 39982 40084 52027 82831 333 10320 56000 57800 58008 81816
AAXX 17124 97724 31458 73204 10276 20241 30055 40071 52020 70522 84832 333 10330 56400 57842 58005 83817 80850
AAXX 17124 97748 31462 60802 10282 20259 30055 40057 56001 70522 81232 333 56000 57800 59005 81816 85075 80856
AAXX 17124 97760 31456 70000 10270 20238 30065 40074 52013 71322 83932 333 10348 56000 57901 59002 81915 82816 80960
AAXX 17124 97796 01340 80000 10242 20239 30048 40099 52030 60181 76196 8758/ 333 10340 56009 58011 60187 87609
AAXX 17124 97810 11458 13005 10271 20256 30050 40059 51014 60011 70262 81200 333 10317 56700 57876 58002 81819 80825
AAXX 17124 97876 31450 70805 10276 20250 30083 40113 51019 71322 85947 333 10336 56000 57901 58001 82911 83612 87277 80959
AAXX 17124 97900 31462 70000 10278 20261 30035 40063 52015 70392 82175 333 10326 56000 57804 58003 82820 86275 80830
AAXX 17124 97980 32460 51005 10286 20249 30065 40072 51025 82242 333 10322 56000 58000 82817 84080
AAXX 17124 67002 11580 63004 10300 20208 30065 40098 60661 70262 81812 333 0//11 59012 81823 83630 85073 92408
AAXX 17124 67009 NIL
AAXX 17124 67012 32582 72606 10284 20243 30068 40079 57022 82932 333 0//00 81920 82820 83360 85075 94955 95815
AAXX 17124 67025 NIL
AAXX 17124 67027 11575 72410 10273 20250 30050 40071 58020 69931 79596 8397/ 333 0//11 81920 82820 85460 94964 95834 555 82640
AAXX 17124 67045 NIL
AAXX 17124 67072 32581 40810 10300 20243 30077 40080 56021 82232 333 0//00 82820 92428 555 82360 82075
AAXX 17124 67073 32582 5//// 10318 20242 30051 40077 57016 84903 333 0//00 84820 81920 94961 94992 95832 555 82073
AAXX 17124 67083 32575 51004 10270 20167 38692 48468 56018 85933 333 0//00 84820 82920 94972 95832
AAXX 17124 67085 31565 7//// 10230 20148 38661 48470 56021 71722 86975 333 0//00 81923 85823 94971 94972 94973 94974 95811 95812 95813 95814 555 81633 81460 81275
AAXX 17124 67095 32475 60610 10292 20230 30066 40072 55013 83932 333 0//00 82817 81917 85073 94965 95835
AAXX 17124 67113 NIL
AAXX 17124 67117 NIL
AAXX 17124 67137 32580 6//04 10292 20186 38844 48455 56014 84903 333 0//00 82820 82920 83073 94991 95811 555 10300 81623
AAXX 17124 67143 NIL
AAXX 17124 67152 NIL
AAXX 17124 67157 32580 3//// 10/// 20/// 30084 40091 57016 83900 333 0//00 81820 81920 83640 94994 95814
AAXX 17124 67161 NIL
AAXX 17124 67197 32480 60814 10283 20221 30055 40065 57019 85800 333 0//00 82817 84633
BBXX 46036 17121 99484 71339 46/// /2108 10090 40133 57007 22200 00085 11611 70053 333 91210
BBXX 46036 17121 99484 71339 46/// /2108 10090 40133 57007 22200 00085 11611 70053 333 91210
AAXX 17124 88900 46/// /1904 10043 20038 30064 40067 58029 333 10056 20026
AAXX 17124 83096 32695 30905 10279 20234 30130 40137 83500 333 20249 58000
AAXX 17124 83186 32596 60907 10236 20187 39587 40116 84204 333 20201 58002
AAXX 17124 83236 32598 62303 10250 20225 39619 40106 84232 333 20216 58007
AAXX 17124 83242 32496 81403 10230 20196 39660 40153 887// 333 20224 58014
AAXX 17124 83288 22598 30000 10263 20223 39625 40112 83400 333 20218 58008 60024
AAXX 17124 83344 22498 80505 10213 20188 39177 40135 886// 333 20179 58010 60024
BBXX AMOUK08 17124 99501 70061 46/// ///// 10081 20035 30165 40167 52020 91150
BBXX 63110 17124 99595 10015 47698 /3327 10066 21023 49970 51018 700// 22200 10708 70042
BBXX 63106 17124 99610 10017 46/// /3223 10035 49960 51025 22200
BBXX 63105 17124 99610 10017 47598 ///// 10041 21016 49959 51025 700// 22200
BBXX 62169 17123 99614 10014 41497 63234 10038 20031 49964 51010 79082 86400 22200 20710 300// 4//// 5//// 80035
AAXX 17124 03008 11470 63320 10026 21024 40021 69921 72681 869// 91150 333 82915 84818 90710 91142 91030
AAXX 17124 63688 32580 61707 10235 20094 48/// 85930 333 59010 81924 85825 86359
AAXX 17124 63820 12580 21014 10316 20252 40070 60011 81201 333 59013 81825
AAXX 17124 63612 NIL
AAXX 17124 63661 NIL
AAXX 17124 63671 NIL
AAXX 17124 63695 NIL
AAXX 17124 63708 NIL
AAXX 17124 63714 NIL
AAXX 17124 63723 NIL
AAXX 17124 63740 NIL
AAXX 17124 63772 NIL
AAXX 17124 63793 NIL
AAXX 17123 63671 32580 40000 10316 20216 84300 333 81928 84829
AAXX 17123 63723 32582 50000 10336 20229 40069 85900 333 59009 81929 84830
AAXX 17123 63793 32580 40708 10327 20199 40025 84200 333 59015 84827
AAXX 17124 41184 32960 03309 10250 20156 40143 333 58004
AAXX 17124 41194 12960 03109 10236 20139 30151 40156 60001 333 58000
AAXX 17124 41196 32960 02908 10242 20145 30119 40158 333 58001
AAXX 17124 41198 32560 10906 10247 20167 40148 81500 333 59004 81625
AAXX 17124 41217 32960 03110 10225 20131 30123 40152 333 59003
AAXX 17124 41218 32960 03008 10249 20082 39845 40147 333 59003
BBXX 51205 17121 99210 71564 46/// ///// 1//// 91218 22200 00243 11506 20604 332// 41505 70032
BBXX 46238 17121 99334 71195 46/// ///// 1//// 91220 22200 00145 11702 20802 329// 41702 70012
AAXX 17124 78325 11560 50903 10210 20189 30138 40196 53008 60001 70511 83242 333 10272 20207 30/// 55071 56999 57813 58003 70001 83820 83080
AAXX 17124 78333 12/10 30301 10184 20173 30179 40186 51002 60001 81232 333 10266 20175 30/// 56990 58001 818// 83070
AAXX 17124 78348 01557 50000 10204 20194 30134 40187 53005 60011 70581 84842 333 10261 20198 31/// 50364 56299 57875 59002 69987 70010 82820 83630 555 10901
AAXX 17124 78349 11556 73301 10192 20185 30087 40198 53012 60001 71011 878// 333 10267 20185 31/// 50214 56199 58007 70013 81820 87626 555 10502
AAXX 17124 78353 12570 50903 10243 20172 30164 40186 53014 60001 85800 333 10261 20230 31/// 50174 56900 58004 70035 82820 83626
AAXX 17121 23426 41950 81902 11116 21136 30219 40244 57009 77172 8802/
AAXX 17121 23625 41998 81303 11072 21081 30215 40250 57008 70272 8802/
AAXX 17121 28076 42997 20000 11226 21238 30350 40431 52002 80001
AAXX 17121 28367 42984 21501 11199 21218 30301 40444 52007 80001
AAXX 17121 28382 42998 00000 11285 21308 30401 40483 52011
AAXX 17121 28481 42997 00000 11266 21283 30359 40472 52008
AAXX 17121 28491 42997 01402 11264 21288 30366 40492 52009
AAXX 17121 28573 41996 00000 11280 21304 30361 40481 52017 71000
AAXX 17121 28593 42997 00301 11275 21299 30381 40494 52017
AAXX 17121 28786 42997 00401 11287 21305 30304 40485 52020
AAXX 17121 28797 42997 00201 11293 21311 30294 40476 52017
AAXX 17121 28799 42997 00603 11264 21288 30298 40462 52015
AAXX 17121 20046 NIL
AAXX 17121 20069 NIL
AAXX 17121 20087 32998 21002 11268 21293 30241 40252 51006 80001 333 11233
AAXX 17121 20292 NIL
AAXX 17121 20353 NIL
AAXX 17121 20667 NIL
AAXX 17121 20674 11497 71906 11129 21142 30125 40187 52013 69962 78583 879// 333 11070 85612 91109
AAXX 17121 20744 41997 81909 10008 21006 30061 40079 52010 76162 8807/
AAXX 17121 20891 11597 82406 11191 21210 30182 40228 52003 69932 77173 8552/ 333 11176 85621 91109
AAXX 17121 23022 41497 81906 11026 21036 30099 40160 52003 70283 8655/
AAXX 17121 23032 41496 82206 11027 21037 30142 40173 51007 78583 889// 333 88913
AAXX 17121 23058 41397 82305 11106 21126 30199 40204 52001 70272 886// 333 88708
AAXX 17121 23242 41997 72305 11130 21150 30213 40230 53002 70232 87030 333 91114
AAXX 17121 23256 41398 82409 11113 21133 30213 40250 57005 77187 885// 333 85708 91013 91117
AAXX 17121 23330 41297 80000 11165 21184 30224 40246 57006 72272 8802/ 333 88506 93530
AAXX 17121 23445 41597 81806 11104 21124 30250 40277 57015 72272 885// 333 88620
AAXX 17121 23552 41496 82004 11122 21135 30284 40320 57012 77173 8802/ 333 88512
AAXX 17121 23631 41498 82005 11113 21126 30231 40274 57012 70272 8455/ 333 84616
AAXX 17121 23662 42998 80402 11170 21189 30333 40381 57008 8807/
AAXX 17121 23724 42699 82102 11043 21052 30210 40276 53003 885//
AAXX 17121 23734 41496 81202 11141 21154 30224 40321 57007 77172 8802/
AAXX 17121 23849 41256 50000 11235 21263 40427 57003 71022 85600 333 85703
AAXX 17121 23867 41997 62202 11249 21274 30376 40457 58002 77172 84011
AAXX 17121 23933 42697 81604 11199 21216 30327 40389 57008 85537
AAXX 17121 28064 42598 81803 11119 21132 30292 40390 54000 885//
AAXX 17121 28275 42997 01001 11265 21290 30392 40460 52010
AAXX 17121 28493 42997 00000 11280 21304 30387 40494 52009
AAXX 17121 28698 41997 00401 11287 21305 30307 40485 51015 77670
BBXX V7MO2 17124 99262 70914 41397 40305 10225 20186 40237 52010 7//// 8426/ 22200 00234 20301 308// 40502 5//// 6//// 80199 ICE /////
BBXX S6SR 17124 99284 50136 41997 12108 10260 20202 40210 54000 7//00 811// 22213 00220 2//// 3//// 4//// 5//// 6//// 80220 ICE /////
BBXX WC5932 17124 99417 70874 43/// /2106 00/// 11007 21061 40270 55007 7//// 8//// 22200 0//// 2//// 3//// 4//// 5//// 6//// 81027 ICE /////
BBXX WRAH 17123 99376 10078 41/// ///// 1//// 2//// 4//// 5//// 7//// 8//// 222// 0//// 2//// 3//// 4//// 5//// 6//// 8//// ICE /////
BBXX WDA2768 17124 99429 70876 41/95 93609 00/// 11028 21044 40254 55007 78577 8//// 22243 0//// 2//01 3//// 4//// 5//// 6//// 81035 ICE /////
BBXX 3ETA8 17124 99261 70886 41597 80509 10230 2017/ 40220 5//// 78088 8894/ 22274 00260 20302 3//// 4//// 5//// 6//// 80190 ICE /////
BBXX ELNY2 17124 99270 10518 41797 32805 10240 20180 40130 54/// 7//00 83097 22263 0//// 20400 3//// 4//// 5//// 6//// 80200 ICE /////
BBXX PDAN 17124 99165 31678 41/98 70306 10270 40110 50000 71388 8//// 22243 00280 20702 30000
BBXX WACW 17124 99530 71379 41297 81406 10065 2004/ 40160 52010 7//22 8564/ 22272 00070 20202 327// 40811 5//// 6//// 80055 ICE /////
BBXX 46240 17121 99366 71219 46/// ///// 1//// 91212 22200 00122 10902 20901 335// 41101 70008
BBXX 46236 17121 99368 71219 46/// ///// 1//// 91220 22200 00122 11503 20802 328// 41502 70013
BBXX 46229 17121 99438 71246 46/// ///// 1//// 91221 22200 00102 11404 21002 329// 41403 70021
BBXX 46225 17121 99329 71174 46/// ///// 1//// 91214 22200 00145 11002 21002 327// 41201 70010
BBXX 46213 17121 99403 71247 46/// ///// 1//// 91224 22200 00105 11404 20603 328// 41403 70020
BBXX 46215 17121 99352 71209 46/// ///// 1//// 91208 22200 00129 11703 21002 327// 41702 70016
BBXX 46224 17121 99332 71175 46/// ///// 1//// 91206 22200 00147 11301 21001 320// 41301 70007
BBXX 44060 17121 99413 70721 46/// ///05 10036 40191 91230 22200 00108 333 91206 555 11046 22051
BBXX 44099 17121 99369 70757 46/// ///// 1//// 91222 22200 00124 11402 21002 309// 41401 70010
BBXX 44022 17121 99409 70737 46/// ///06 10032 21025 40198 91230 22200 00090 333 91208 555 11067 22067
BBXX 44040 17121 99410 70736 46/// /3106 10034 21020 40204 91219 22200 1//00 70002 333 91208 555 11072 22082
BBXX 51202 17121 99214 71577 46/// ///// 1//// 91209 22200 00245 11404 20904 335// 41402 70022
BBXX ELNY2 17124 99270 10518 41797 32805 10240 20180 40130 54/// 7//00 83097 22263 0//// 20400 3//// 4//// 5//// 6//// 80200 ICE /////
BBXX ZIPR7 17123 99080 30076 41497 72426 10232 20214 40122 54000 7//// 8444/ 22244 04257 20303 323// 40504 5//// 80220
BBXX AMOUK01 17124 99474 30083 46/// ///// 10062 20034 39914 49919 57005 91150
BBXX A8RL4 17124 99128 70180 41998 20617 10270 20164 40145 50005 7//// 80006 22243 00270 20602 80200
BBXX AMOUK15 17124 99159 50057 46/// ///// 10212 20137 30159 40185 54000 91150
BBXX S6SR 17124 99284 50136 41997 12108 10260 20202 40210 54000 7//00 811// 22213 00220 2//// 3//// 4//// 5//// 6//// 80220 ICE /////
BBXX TBWUK42 17124 99267 30103 41898 61410 10198 20131 40162 58020 70011 85/6/ 22233 20302 40604 5//// 80156
BBXX SHIP 17121 99176 50714 41997 01002 10215 20134 40160 70040 80000 22274 20102 313// 41205 80165
BBXX 62141 17123 99493 50591 41497 83527 10113 40135 57007 72122 88/// 22200 20607 33535 40505 50607
BBXX AMOUK20 17124 99205 50357 46/// ///// 10269 20210 30175 4//// 52010 91150
BBXX A8GU5 17124 99251 50467 41498 33613 10250 20207 40090 53/// 70111 821/1 22283 21202 80220
BBXX UDWE 17121 99459 11455 41/95 93112 11038 40076 57008 77272 22233 00049 20302 30300 40605
BBXX 52245 17121 99181 11458 46/// ///// 1//// 91206 22200 00282
BBXX 52246 17121 99152 11457 46/// ///// 1//// 91207 22200 00282
BBXX 52244 17121 99200 11452 46/// ///// 1//// 91208 22200 00270
BBXX 52248 17121 99135 11448 46/// ///// 1//// 91206 22200 00282
BBXX AMOUK11 17124 99802 11280 46/// ///// 10062 20023 30062 4//// 50000 91150
BBXX MLJA8 17123 99055 10855 41497 40409 10310 20254 40084 55007 70222 8446/ 22263 00300 20000 300// 40000 5//// 80270
BBXX 52243 17121 99193 11666 46/// ///// 1//// 91155 22200 00259
BBXX 44041 17121 99372 70768 46/// /3603 10031 40249 53017 91200 22200 00098 1//00 70001 333 91204
BBXX 44062 17121 99386 70764 46/// /0109 1//// 40208 91210 22200 00088 333 91211
BBXX 44063 17121 99390 70764 46/// /0204 1//// 91220 333 91205
BBXX 44063 17121 99390 70764 46/// /0104 1//// 40243 91210 333 91205
BBXX 51172 17121 99284 71783 46/// ///// 1//// 91212 22200 00231
BBXX 51173 17121 99260 71739 46/// ///// 1//// 91212 22200 00241
BBXX 51176 17121 99278 71758 46/// ///// 1//// 91213 22200 00232
BBXX 46181 17121 99538 71288 46/// /0404 10018 40121 57005 22200 00059 10200 70001 333 91205
BBXX A8OU4 17124 99402 71537 41498 52231 10140 20102 40210 54000 7//22 85260 22224 00160 20406 327// 40908 5//// 80120
BBXX GDTT 17124 99171 70736 41498 50920 10265 20213 40145 55001 7//81 83564 22233 00300 20403 306// 40506 80230
BBXX MDTE9 17123 99419 70422 41296 81008 10160 20148 40177 53010 71142 8561/ 22223 00150 20401 399// 4//03 5//// 80153
BBXX TBWUK19 17124 99488 71288 41297 71931 10057 20043 40243 7//// 8/6// 22272 20605 326// 41408 5//// 80051
BBXX DGAF 17123 99503 70444 41296 72045 10070 20038 40020 57035 78082 8/778 22264 00090 20912 316// 41214 80055
BBXX VREX7 17124 99279 70694 41298 71603 10220 20153 40225 54000 70322 8677/ 22264 20601 304// 40802 5//// 80180
BBXX 46132 17121 99497 71279 46/// /1612 10090 40198 57022 22200 00086 11710 70048 333 91215
BBXX 46205 17121 99542 71343 46/// /3405 10070 40127 57002 22200 00075 11709 70046 333 91206
BBXX 46206 17121 99488 71260 46/// /1309 10083 40247 57015 22200 00093 11707 70034 333 91212
BBXX 3ETA8 17124 99261 70886 41597 80509 10230 2017/ 40220 5//// 78088 8894/ 22274 00260 20302 3//// 4//// 5//// 6//// 80190 ICE /////
BBXX WDE9586 17123 99347 71687 41398 82026 10190 2018/ 40165 50000 7//22 887// 22224 00200 2//// 3//// 4//// 5//// 6//// 80180 ICE /////
BBXX 46185 17121 99524 71298 46/// /2306 10082 40118 57001 22200 00076 10806 70031 333 91208
BBXX 44030 17121 99432 70704 46/// /2607 1//// 40162 53005 91204 22200 00090 11102 70009 333 91208 555 11081 22086
BBXX 44040 17121 99410 70736 46/// /3106 10034 21020 40204 91215 22200 1//00 70002 333 91208 555 11072 22082
BBXX 44033 17121 99441 70690 46/30 /0104 10023 40168 52013 91204 22200 00082 11101 70005 333 91206 555 11049 22051
BBXX 44024 17121 99423 70659 46/30 /0205 10057 40159 53006 91204 22200 00092 10805 70025 333 91207 555 11059 22061
BBXX 46088 17121 99483 71232 46/// /0802 10067 40261 91220 22200 00079 1//00 70002 333 91203 555 11021 22021 31146 41003 61219 084020 096020 102023 103026 125020 135022
BBXX 44034 17121 99441 70681 46/30 /0104 10008 40168 51014 91204 22200 00087 11102 70010 333 91206 555 11039 22040
BBXX 44029 17121 99425 70706 46/30 /2807 10045 40164 53004 91204 22200 00091 10301 70006 333 91209 555 11088 22092
BBXX 44039 17121 99411 70727 46/// /3005 10048 21011 40199 52005 91200 22200 00099 10301 70004 333 91207
BBXX 44060 17121 99413 70721 46/// ///05 10039 40190 91215 22200 00108 333 91206 555 11051 22051
BBXX 44022 17121 99409 70737 46/// ///06 10033 21023 40196 91215 22200 00089 333 91208 555 11067 22072
BBXX 46087 17121 99485 71247 46/// /1106 10082 20081 40256 91220 22200 00078 333 91208 555 11066 22071 31211 41108 61219 106061 106054 102056 103052 100050 097050
BBXX V7HC6 17124 99273 70907 41698 50115 10220 20205 40236 51007 70222 8524/ 22200 00230 20401 312// 40601 5//// 6//// 80210 ICE /////
BBXX 3EMK6 17124 99266 70925 41397 40215 10230 20201 40260 54/// 7//11 84/// 22200 00228 20402 3//// 40402 50402 6//// 80210 ICE /////
BBXX C6VG7 17124 99226 70848 415// 41216 10240 2//// 40190 5/000 7//11 84/6/ 22214 0//// 20402 3//// 40402 50402 6//// 8//// ICE /////
BBXX V7MO2 17124 99262 70914 41397 40305 10225 20186 40237 52010 7//// 8426/ 22200 00234 20301 308// 40502 5//// 6//// 80199 ICE /////
BBXX 46036 17121 99484 71339 46/// /2108 10090 40133 57007 22200 00085 11611 70053 333 91210
BBXX WACW 17124 99530 71379 41297 81406 10065 2004/ 40160 52010 7//22 8564/ 22272 00070 20202 327// 40811 5//// 6//// 80055 ICE /////
BBXX KS094 17124 99133 70596 43/// /0709 10265 40141 22200 06270
BBXX KS088 17124 99267 70801 43/// /1102 10216 40207 22200 06233
BBXX KS098 17124 99440 71243 43/// /0909 10095 40236 22200 06000
BBXX 41115 17121 99184 70673 46/// ///// 1//// 91205 22200 11004 21003 301// 41103 70021
BBXX 42013 17121 99272 70829 46/// ///// 1//// 40221 91140 22200 00200
BBXX 41112 17121 99307 70813 46/// ///// 1//// 91221 22200 00153 11101 21001 311// 41101 70006
BBXX 44100 17121 99363 70756 46/// ///// 1//// 91222 22200 00130 11403 21002 309// 41402 70014
BBXX 42361 17121 99276 70925 46/// ///09 10206 20172 40244 53010 91230 555 11075 22080
BBXX 41010 17121 99289 70785 46/// /2004 10230 40210 91220 22200 00240 11003 20301 300// 41003 70016 333 91205 555 11043 22044
BBXX 41009 17121 99285 70802 46/// /3006 10226 20173 40219 91220 22200 00253 11103 20501 300// 41102 70013 333 91207 555 11063 22065
BBXX 44258 17121 99445 70634 46/// /3403 10005 40158 52014 22200 00073 11003 70014 333 91205
BBXX 46246 17121 99500 71451 46/// ///// 1//// 91159 22200 00074 11309 21005 328// 41307 70044
BBXX 46246 17121 99500 71451 46/// ///// 1//// 91229 22200 00074 11309 21005 327// 41307 70045
BBXX 46249 17121 99338 71197 46/// ///// 1//// 91212 22200 00146 11102 20302 329// 41101 70011
BBXX 46232 17121 99325 71174 46/// ///// 1//// 91208 22200 00150 11003 21002 328// 41101 70013
BBXX 46146 17121 99493 71237 46/// /1105 10068 40266 57018 22200 00065 10200 70002 333 91206
BBXX 44039 17121 99411 70727 46/// /3006 10046 21011 40201 91153 22200 00099 10301 70004 333 91208
BBXX 46004 17121 99509 71361 46/// /3002 10072 40143 52007 22200 00076 11610 70050 333 91204
BBXX 46184 17121 99539 71389 46/// /2203 10062 40137 52005 22200 00065 11109 70045 333 91205
BBXX 44059 17121 99368 70763 46/// /0106 1//// 91220 333 91208
BBXX 44059 17121 99368 70763 46/// /0106 10056 40212 53010 91200 22200 00107 333 91208
BBXX 44058 17121 99376 70763 46/// /3608 10049 40221 53018 91200 22200 00095 10201 70004 333 91209
BBXX 44058 17121 99376 70763 46/// /3608 1//// 91220 333 91209
BBXX 44058 17121 99376 70763 46/// /3507 1//// 40221 91210 333 91209
BBXX 44057 17121 99395 70761 46/// /2802 1//// 91220 333 91202
BBXX 44057 17121 99395 70761 46/// /2902 1//// 40225 91210 333 91202
BBXX 44059 17121 99368 70763 46/// /0106 1//// 40213 91210 333 91208
BBXX 44057 17121 99395 70761 46/// /2902 10019 40224 51010 91200 22200 00048 333 91202
BBXX 42363 17121 99282 70892 46/// /0209 10200 20161 40251 91230 333 91209
BBXX 42362 17121 99278 70907 46/// /0308 10211 20183 40251 91230
BBXX 44043 17121 99392 70764 46/// /3406 1//// 40225 91210 333 91208
BBXX 42364 17121 99291 70881 46/// /3510 10189 20167 40251 91230
BBXX 44042 17121 99380 70763 46/// /3606 10041 40226 51016 91200 22200 00093 10301 70004 333 91208
BBXX 44042 17121 99380 70763 46/// /3506 1//// 91220 333 91207
BBXX 44043 17121 99392 70764 46/// /3406 10037 40223 51011 91200 22200 00073 10201 70004 333 91208
BBXX 44043 17121 99392 70764 46/// /3307 1//// 91220 333 91209
BBXX 44042 17121 99380 70763 46/// /3506 1//// 40227 91210 333 91208
BBXX 44062 17121 99386 70764 46/// /0210 10038 40207 51020 91200 22200 00088 10301 70007 333 91212
BBXX 44041 17121 99372 70768 46/// /3603 1//// 40249 91210 333 91204
BBXX 44041 17121 99372 70768 46/// /3603 1//// 91220 333 91204
BBXX 44063 17121 99390 70764 46/// /0104 10033 40244 51016 91200 22200 00084 1//00 70002 333 91206
BBXX 44062 17121 99386 70764 46/// /0109 1//// 91220 22200 00088 333 91212
BBXX WC5932 17124 99417 70874 43/// /2106 00/// 11007 21061 40270 55007 7//// 8//// 22200 0//// 2//// 3//// 4//// 5//// 6//// 81027 ICE /////
BBXX WDA2768 17124 99429 70876 41/95 93609 00/// 11028 21044 40254 55007 78577 8//// 22243 0//// 2//01 3//// 4//// 5//// 6//// 81035 ICE /////
BBXX 51171 17121 99064 71623 46/// ///// 1//// 91146 22200 00280
BBXX 51170 17121 99168 71695 46/// ///// 1//// 91148 22200 00261
BBXX PDAN 17124 99165 31678 41/98 70306 10270 40110 50000 71388 8//// 22243 00280 20702 30000
BBXX 51179 17121 99143 51708 46/// ///// 1//// 91202 22200 00284
BBXX MGSM3 17124 99286 31540 41198 31119 10220 20140 40155 52005 70000 83/// 22243 06210 20201 31717 40603 50602 80175
BBXX 51178 17121 99142 51695 46/// ///// 1//// 91158 22200 00284
BBXX 51169 17121 99004 51600 46/// ///// 1//// 91154 22200 00258
BBXX 51174 17121 99142 51697 46/// ///// 1//// 91155 22200 00285
BBXX VRDX2 17123 99244 31549 41/97 /1417 10230 20185 40183 7//// 8/776 22274 00260 20405 399// 40305
BBXX V2QD4 17123 99372 31567 41298 41616 10184 20154 40220 50003 70311 8/76/ 22223 00188 20304 317// 41004
BBXX 3EAT6 17123 99341 31514 41598 23503 10190 20118 40215 54000 70300 8/14/ 22241 00210 334// 40101
BBXX ZMFR 17124 99470 31671 43/// /18// 10100 20075 40176 52008 22282 00132
BBXX MINFR09 1712/ 99382 31493 46/// ///// 40194 52006
BBXX C6FS9 17124 99238 31512 46/// /1513 10229 20181 30145 40181 52014 22200 04266 85197
BBXX VNAH 17124 99333 31157 46/// /2009 10216 20127 30068 40091 52002 22200 85161
BBXX FHZI 17124 99534 31450 46/// /2912 10047 2//// 30182 40193 57003 22243 04039
BBXX 9HA2479 17124 99279 31594 46/// /1525 10204 20119 30143 40172 52015 22254 04238 85153
BBXX VROB 17124 99213 31541 46/// /1225 10248 20174 30118 40143 52009 22243 04264 85198
BBXX SHIP 17124 99228 31002 41598 71513 10224 20147 40135 52009 70322 8749/ 22200 00235 10803 21020 314// 40603 5//// 6////
BBXX ZDLP 17123 99607 50455 41297 82838 10017 21024 49925 51020 70222 886// 22292 04002 20502 31800 40803 5//// 80003 ICE 0/6/0
BBXX ZSAF 17124 99626 30004 41599 72708 11006 21047 49635 57008 70222 8457/ 22232 05015 2//// 3//// 4//// 5//// ICE 76040
BBXX MINUK05 1712/ 99596 70062 46/// ///// 10058 40078 52025
BBXX MINUK01 1712/ 99571 70021 46/// ///// 10033 40063 52023
BBXX SHIP 17124 99405 10271 41498 72130 10190 2008/ 40040 56020 70121 8775/ 22200 00120 21010 33535 41010 5//// 6//// 80130 ICE /////
BBXX OZDM2 17124 99337 10246 41698 72519 10200 20116 40151 56012 70322 85264 22224 04200 20104 80150
BBXX A8LL8 17124 99455 70167 41598 40603 10135 20099 40315 52/// 70322 84478 22214 21108 329// 41108 80115
BBXX WRAH 17123 99376 10078 41/// ///// 1//// 2//// 4//// 5//// 7//// 8//// 222// 0//// 2//// 3//// 4//// 5//// 6//// 8//// ICE /////
AAXX 17124 78866 01562 70613 10238 20196 30160 40165 52022 69901 72581 87800 333 10284 20237 58017 69907 82820 86635
AAXX 17124 78866 01562 70613 10238 20196 30160 40165 52022 69901 72581 87800 333 10284 20237 58017 69907 82820 86635
AAXX 17124 78866 01562 70613 10238 20196 30160 40165 52022 69901 72581 87800 333 10284 20237 58017 69907 82820 86635
BBXX PDAN 17124 99165 31678 41/98 70306 10270 40110 50000 71388 8//// 22243 00280 20702 30000
AAXX 17121 36974 ///// /1001 11157 21204 38010 48611
AAXX 17124 91723 NIL
AAXX 17124 91964 NIL
AAXX 17124 42309 31596 20000 10194 20164 40123 70500 81530 333 10257 59005
AAXX 17124 42314 31995 10000 10184 20150 40144 70500 81030 333 10253 58007 81360
AAXX 17124 42410 31595 31803 10188 20161 40141 70500 82530 333 10228 59002 82620
AAXX 17124 42415 31996 10000 10188 20147 40162 70500 81030 333 10252 58008 81360
AAXX 17124 42623 31495 10000 10170 20085 39252 40129 70522 81500 333 10224 58001 81618
AAXX 17124 42706 31995 00000 10190 20105 40143 70500 333 10246 58003
BBXX 44137 17121 99423 70620 46/// /3106 10077 40155 52006 22200 00098 11008 70041 333 91208
BBXX 44137 17121 99423 70620 46/// /3106 10077 40155 52006 22200 00098 11008 70041 333 91208
AAXX 17121 47055 32970 02301 11020 21126 30217 40293 53013 333 10000
AAXX 17121 31152 32997 61801 11296 21326 39770 40215 52002 82032 333 11285
AAXX 17121 31163 NIL
AAXX 17121 31285 32999 02501 11268 21307 30097 40183 52005 333 11234
AAXX 17121 31561 32999 02502 11266 21277 30134 40164 52002 333 11201
AAXX 17121 31683 32999 00000 11207 21247 30052 40132 52005 333 11126
AAXX 17121 32010 11295 83010 11113 21126 39992 40042 52014 60040 78583 889// 333 11117 87705 91015 91117
AAXX 17124 71963 16/// /3602 11298 21326 39714 40136 50000 60001 333 11217 21303 4/005 70000
AAXX 17124 71050 46/// /2701 11097 21107 39071 40165 58026 6///1 333 11008 21097 7////
AAXX 17124 71592 16/// /3606 11158 21208 39944 49957 58013 60001 333 11176 21194 4/010 70000
AAXX 17124 71490 16/// /2807 11258 21280 39813 40149 56005 60001 333 11256 21284 4/009 70000
AAXX 17124 71923 16/// ///12 11236 21256 39654 40115 50014 60001 333 11203 21241 4/002 70010 555 10010
AAXX 17124 71050 46/// /2701 11097 21107 39071 40165 58026 6///1 333 11008 21097 7////
BBXX 44138 17121 99443 70536 46/// /3009 10074 40130 52025 22200 00101 11006 70032 333 91212
BBXX 44138 17121 99443 70536 46/// /3009 10074 40130 52025 22200 00101 11006 70032 333 91212
AAXX 17121 63330 41570 61206 10212 20089 37782 40247 70522 85801 333 58001 83620 82822 82070
AAXX 17121 63331 42580 23103 10256 20121 38035 40209 82100 333 58002 82828
AAXX 17121 63332 42580 33602 10236 20126 38211 40072 83201 333 58001 83825 81070
AAXX 17121 63333 42580 50806 10242 20128 38149 40105 84160 333 59001 84826
AAXX 17121 63334 41575 61702 10216 20060 37627 40056 70522 86800 333 58002 83828 85629
AAXX 17121 63340 42580 53602 10230 20115 37930 40148 82205 333 59009 82825 84070
AAXX 17121 63402 41575 53504 10262 20155 38313 49930 70522 84930 333 59004 83831 81932 84360
AAXX 17121 63403 41560 50402 10236 20145 70522 83530 333 83624 84359
AAXX 17121 63450 NIL
AAXX 17121 63451 42580 3902 10260 20094 38119 40024 83200 333 58002 83829
AAXX 17121 63453 42580 13604 10310 2//// 39042 81100 333 58009 81826
AAXX 17121 63460 42580 22701 10280 20108 82200 333 82824
AAXX 17121 63471 41560 10901 10282 20126 38848 40088 70500 81100 333 58004 81827
AAXX 17121 63474 42580 50604 10218 20061 85800 333 83821 82622
AAXX 17121 63478 41565 30602 10348 20216 39755 40132 70510 82101 333 59011 82828
AAXX 17121 63500 41570 50902 10244 20176 70520 84961 333 82824 81926 83359
AAXX 17123 41150 42962 03205 10192 20058 40157 333 58000
BBXX 46004 17121 99509 71361 46/// /3002 10072 40143 52007 22200 00076 11610 70050 333 91204
BBXX 46036 17121 99484 71339 46/// /2108 10090 40133 57007 22200 00085 11611 70053 333 91210
BBXX 46181 17121 99538 71288 46/// /0404 10018 40121 57005 22200 00059 10200 70001 333 91205
BBXX 46183 17121 99536 71311 46/// /3406 10064 40121 52013 22200 00078 10803 70015 333 91207
BBXX 46185 17121 99524 71298 46/// /2306 10082 40118 57001 22200 00076 10806 70031 333 91208
BBXX 46204 17121 99514 71288 46/// /1313 10092 40138 57010 22200 00086 11809 70047 333 91217
BBXX 46205 17121 99542 71343 46/// /3405 10070 40127 57002 22200 00075 11709 70046 333 91206
BBXX 46206 17121 99488 71260 46/// /1309 10083 40247 57015 22200 00093 11707 70034 333 91212
BBXX KS098 17124 99440 71243 43/// /0909 10095 40236 22200 06000
BBXX TBWUK19 17124 99488 71288 41297 71931 10057 20043 40243 7//// 8/6// 22272 20605 326// 41408 5//// 80051
BBXX WACW 17124 99530 71379 41297 81406 10065 20040 40160 52010 7//22 8564/ 22272 00070 20202 327// 40811 5//// 6//// 80055 ICE /////
AAXX 17121 63330 41570 61206 10212 20089 37782 40247 70522 85801 333 58001 83620 82822 82070
AAXX 17121 63331 42580 23103 10256 20121 38035 40209 82100 333 58002 82828
AAXX 17121 63332 42580 33602 10236 20126 38211 40072 83201 333 58001 83825 81070
AAXX 17121 63333 42580 50806 10242 20128 38149 40105 84160 333 59001 84826
AAXX 17121 63334 41575 61702 10216 20060 37627 40056 70522 86800 333 58002 83828 85629
AAXX 17121 63340 42580 53602 10230 20115 37930 40148 82205 333 59009 82825 84070
AAXX 17121 63402 41575 53504 10262 20155 38313 49930 70522 84930 333 59004 83831 81932 84360
AAXX 17121 63403 41560 50402 10236 20145 70522 83530 333 83624 84359
AAXX 17121 63450 NIL
AAXX 17121 63451 42580 10260 20094 38119 40024 83200 333 58002 83829
AAXX 17121 63453 42580 13604 10310 2//// 39042 81100 333 58009 81826
AAXX 17121 63460 42580 22701 10280 20108 82200 333 82824
AAXX 17121 63471 41560 10901 10282 20126 38848 40088 70500 81100 333 58004 81827
AAXX 17121 63474 42580 50604 10218 20061 85800 333 83821 82622
AAXX 17121 63478 41565 30602 10348 20216 39755 40132 70510 82101 333 59011 82828
AAXX 17121 63500 41570 50902 10244 20176 70520 84961 333 82824 81926 83359
AAXX 17124 60105 11550 81207 10117 20109 40291 50002 60081 70262 885// 333 88620
AAXX 17124 42779 32996 00000 10204 20079 39444 40145 333 10252 59001
AAXX 17124 42874 32996 00000 10244 20126 40133 333 10283 59001
AAXX 17124 43041 32996 00000 10256 20131 39512 40123 333 10299 59004
AAXX 17121 98134 11440 80408 10190 20181 30003 40197 5//// 60021 76086 8552/ 333 10215 56199 58013 85618 88456
AAXX 17121 98223 31562 20204 10250 20205 40119 52015 70142 81108 333 10286 56999 59006 81820
AAXX 17121 98232 31565 80411 10246 20224 40162 53017 71522 8557/ 333 10265 56199 58006 85620 88358
AAXX 17121 98325 31458 71601 10274 20250 40098 53016 70342 83270 333 10312 56999 59006 83816 84358
AAXX 17121 98328 31460 81103 10182 20158 38521 40101 53019 74044 84207 333 10246 56999 58006 84813 88278
AAXX 17121 98330 31468 70403 10279 20240 30079 40111 52020 70344 84270 333 10318 56999 59004 84818 87358
AAXX 17121 98336 11465 80406 10226 20222 30144 40149 52014 60131 72162 8252/ 333 10288 56199 58011 82615 88456
AAXX 17121 98429 11558 81301 10247 20245 40112 52020 60061 76166 8282/ 333 10292 56999 59001 82822 88459
AAXX 17121 98430 11458 80000 10242 20235 40103 52012 60081 76366 8362/ 333 10285 56999 59004 83718 88457
AAXX 17121 98431 11456 80603 10252 20241 30053 40100 51013 60021 76186 8352/ 333 10290 56999 59009 83615 88457
AAXX 17121 98440 11420 80907 10250 20242 30110 40115 52017 60291 76066 8522/ 333 10267 56299 58005 85815 88457
AAXX 17121 98444 11460 70403 10254 20241 30080 40099 53015 60101 78086 84378 333 10270 56999 58001 81917 83818 85459 87270
AAXX 17121 98526 32570 80405 10286 20246 40080 53012 8327/ 333 10/// 56199 59014 83820 88358
AAXX 17121 98531 31568 80704 10281 20230 30077 40081 53018 70544 8227/ 333 10321 56199 58006 82820 88358
AAXX 17121 98536 11462 80404 10244 20228 39889 40088 52007 60041 78084 8427/ 333 10258 56199 59008 84818 88357
AAXX 17121 98543 11465 80903 10260 20247 30082 40093 53018 60011 71682 83507 333 10280 56299 59001 83618 88272
AAXX 17121 98550 32460 72501 10254 20243 40095 53022 82270 333 10270 56999 58009 82818 87357
AAXX 17121 98618 32470 73604 10275 20235 40066 53003 8427/ 333 10312 56999 59022 84819 87358
AAXX 17121 98630 11470 80205 10272 20251 40132 53005 69901 72582 8422/ 222// 2//03 333 10292 56199 59003 84818 88458
AAXX 17121 98637 NIL
AAXX 17121 98646 32560 40405 10274 20253 30075 40103 52015 81201 333 10300 56999 58000 81820 84080
AAXX 17121 98653 11460 80903 10265 20248 30034 40079 53024 60041 78084 82278 333 10286 56199 58024 82818 86358
AAXX 17121 98741 11462 80403 10269 20267 40071 52021 60091 76084 8492/ 333 10300 56499 58001 81916 83617 88457
AAXX 17121 98747 11460 42401 10257 20238 39866 40071 52018 69901 71398 83902 333 10320 56999 58023 81917 82818 83074
AAXX 17121 98753 31465 60000 10285 20260 40094 53033 71344 82938 333 10320 56999 58039 82915 84359 85279
AAXX 17121 98755 11575 30000 10277 20255 40084 53023 60021 70182 83201 333 10312 56999 58028 82820
AAXX 17121 98836 11460 60000 10278 20254 40081 52020 69901 70584 81208 333 10330 56999 58006 81818 86281
AAXX 17124 83766 32997 20000 10246 20155 39454 40086 5//// 80001 333 20174
AAXX 17124 83836 32597 22703 10212 20148 39127 40089 51017 81102 333 20115
AAXX 17124 83881 21497 33603 10212 20176 39808 40087 51012 71051 81204 333 20166 69904
AAXX 17124 83980 22597 82302 10175 20135 39796 40076 51013 885// 333 20163 60024
AAXX 17124 83997 21497 72312 10204 20166 30022 40065 51006 70251 87800 333 20172 69904
AAXX 17124 83437 21596 83202 10216 20206 39411 40131 75065 887// 333 20201 58013 60334
AAXX 17124 83579 22599 73606 10218 20195 39011 40117 87700 333 20196 58020 60044
AAXX 17124 83592 21596 83602 10218 20213 39460 40139 75065 8472/ 333 20197 58026 60304
AAXX 17124 89573 35980 01123 10008 21133 39923 49945 57010 333 80000 00220
AAXX 17124 89610 46/// /0441 11048 39644 4//// 5//// 333 90700 91149
AAXX 17124 89807 46/// /1429 11011 29062 39777 4//// 5//// 333 90700 91137
AAXX 17124 94290 46/// /1123 10277 30109 40118 53010 91224
AAXX 17124 94210 35/// /2510 10283 30057 40062 52022
AAXX 17124 94289 46/// /1121 10281 30100 40107 53014 91215
AAXX 17124 94379 46/// /1119 10251 30140 40149 53005 91226
AAXX 17124 94997 46/// ///// 10022 30093 40108 5////
AAXX 17124 91532 45/// /0607 10275 20229 30087 40095 52003 333 10312
AAXX 17124 89573 35980 01123 10008 21133 39923 49945 57010 333 80000 00220
AAXX 17124 89610 46/// /0441 11048 39644 4//// 5//// 333 90700 91149
AAXX 17124 89807 46/// /1429 11011 29062 39777 4//// 5//// 333 90700 91137
AAXX 17124 94290 46/// /1123 10277 30109 40118 53010 91224
AAXX 17124 94997 46/// ///// 10022 30093 40108 5////
AAXX 17121 40001 11560 73302 10085 20034 40192 58007 69961 70260 84550 333 84626 87360
AAXX 17121 40007 32460 60504 10087 20056 40191 55004 85302 333 85826 86070
AAXX 17121 40025 32560 52803 10184 20108 40164 56008 85800 333 82826 84630
AAXX 17121 40045 32570 62404 10134 20026 40191 57013 83550 333 83630 86360
AAXX 17121 40061 32970 52701 10137 20036 40175 57014 83052 333 83360 84070
AAXX 17121 40080 32570 52706 10184 20030 39458 40166 57014 82130 333 82826 84360
AAXX 17121 40087 NIL
AAXX 17121 40095 NIL
AAXX 17121 40009 11565 50000 10110 20029 40157 57005 69951 70162 85050 333 85360
AAXX 17121 40016 11570 73502 10078 20052 40215 55010 60021 70262 84520 333 84630
AAXX 17121 40022 32565 62801 10176 20117 40162 56004 82201 222// 20000 333 82830 86070
AAXX 17121 40030 11560 50000 10132 20107 40170 53001 60012 71062 83550 333 83630 84360
AAXX 17121 40039 32570 40000 10112 20023 40192 53004 82550 333 82630 85360
AAXX 17121 40066 11570 70000 10170 20044 40191 57012
AAXX 17121 40072 32970 00000 10170 20044 40191 57012
AAXX 17121 40083 32970 02401 10124 21015 48479 56002
BBXX A8XD5 17124 99420 11585 41296 52903 10010 21016 40060 50/// 70222 8/727 22223 2//// 329// 40808 80000
BBXX 7JJA 17124 99345 11403 41597 80815 00 10100 20060 40210 54 76022 878// 9//// 22213 0 20204 309 40308 5 6//// 80080 ICE /////
BBXX SHIP 17124 99229 71650 41/97 /0919 10229 20196 40196 57010 70381 8//// 22200 04247
AAXX 17121 55228 32780 42504 11023 21299 36009 57005 81102 333 00200
AAXX 17121 55578 32980 00000 10008 21286 36341 54000 333 00457
AAXX 17121 55664 32980 00000 10015 21293 35984 52003 333 00101
AAXX 17121 55773 32970 00403 11027 21144 35995 52012 333 00102
AAXX 17121 56116 32980 00000 11025 21123 36331 52021 333 00452
AAXX 17121 56137 32780 43601 10023 21148 36787 52018 82402 333 00552
AAXX 17121 56172 11780 30000 10002 21020 37374 52043 69901 72680 83400 333 00601
AAXX 17121 56247 32880 30000 10088 21129 37398 52025 82402 333 00300
AAXX 17121 56312 32680 51101 10034 21086 37083 52026 85400 333 00200
AAXX 17121 56462 32980 02903 10011 21069 37126 52036 333 00002
AAXX 17121 56651 32980 02703 10073 21079 37636 52018 333 00000
AAXX 17121 56691 11363 80204 11014 21020 37798 52029 69911 76664 887// 333 00000 93427
AAXX 17121 56985 32561 11402 10105 20070 38732 40202 52008 81100 333 05200
AAXX 17121 57633 11461 80201 10015 21030 39517 40330 52022 69951 77077 885// 333 05154
AAXX 17121 57902 32460 80402 10060 20046 38665 40249 52024 886// 333 05202
AAXX 17121 01473 41880 52501 11048 21063 39724 49936 51007 70222 85070 333 91104
AAXX 17121 55279 32980 00000 11064 21288 35698 52005 333 00501 91119 91532
AAXX 17121 55472 32980 00000 11063 21303 35728 54000 333 00553 91121 91527
AAXX 17121 55696 32680 42902 10044 21208 36312 52017 81102 333 00203 91119 91529
AAXX 17121 56079 32980 01802 11110 21133 36699 52029 333 00454
AAXX 17121 56106 32980 02205 11019 21307 36203 52014 333 00551 91125 91527
AAXX 17121 56257 32680 62502 11004 21140 36267 52023 86400 333 00201
AAXX 17121 56374 32580 70000 11032 21073 37450 52038 874// 333 00100
AAXX 17121 56385 11/00 90000 11087 21091 37029 52030 69941 77074 333 00100
AAXX 17121 56954 32968 01401 10160 20126 40171 52017 333 00000
AAXX 17121 56966 32765 51105 10173 20097 40169 52022 85400 333 00051
AAXX 17121 57237 11858 80000 10046 20023 40308 52024 69921 72166 885//
AAXX 17121 57306 11958 70000 10053 20046 40313 52030 69911 71060 8704/
AAXX 17121 57604 31740 80202 10066 20036 40302 52037 71000 885//
AAXX 17121 57707 11310 80000 10010 20009 38551 52030 69921 76066 887// 333 00000
AAXX 17121 57832 32670 80403 10038 21039 39535 40300 52019 885// 333 05252
AAXX 1712/ 48969 NIL
AAXX 1712/ 48962 NIL
AAXX 1712/ 48990 NIL
AAXX 1712/ 48986 NIL
AAXX 1712/ 48995 NIL
AAXX 1712/ 48967 NIL
AAXX 1712/ 48992 NIL
AAXX 1712/ 48965 NIL
AAXX 1712/ 48985 NIL
AAXX 1712/ 48970 NIL
AAXX 1712/ 48991 NIL
AAXX 1712/ 48964 NIL
AAXX 1712/ 48997 NIL
AAXX 1712/ 48968 NIL
AAXX 1712/ 48973 NIL
AAXX 1712/ 48966 NIL
AAXX 1712/ 48983 NIL
AAXX 1712/ 48972 NIL
AAXX 1712/ 48998 NIL
AAXX 1712/ 48993 NIL
AAXX 1712/ 48971 NIL
AAXX 1712/ 48963 NIL
AAXX 1712/ 48987 NIL
BBXX 41052 17121 99183 70648 46/// /0505 10258 40156 91230 333 91206
BBXX 41052 17121 99183 70648 46/// /0505 10257 40154 91220 333 91206
BBXX 41052 17121 99183 70648 46/// /0606 10259 40154 91210 333 91208
BBXX 41053 17121 99185 70661 46/// /0506 10256 40165 91230 333 91210
BBXX 41053 17121 99185 70661 46/// /0606 10259 40162 91220 333 91207
BBXX 41053 17121 99185 70661 46/// /0506 10260 40161 91210 333 91208
BBXX A8XD5 17124 99420 11585 41296 52903 10010 21016 40060 50/// 70222 8/727 22223 2//// 329// 40808 80000
BBXX WDB9986 17124 99404 11556 41698 42929 10050 20030 40094 5//// 70222 82288 22214 00110 20611 331// 40714 5//// 6//// 80040 ICE /////
BBXX 44056 17121 99362 70757 46/// ///// 1//// 91150 22200 00124 11303 20502 308// 41302 70014
BBXX A8HD5 17121 99177 10677 41697 30110 10275 20172 40130 54000 70111 83145 22235 04225 20401 301// 40601 5//// 80210
BBXX DDBR2 17124 99380 10174 41598 62922 10164 20043 40055 55000 70222 84548 22211 20403 322// 40603 5//// 80107
BBXX ZNQO3 17120 99358 10167 41297 72514 10198 20132 40095 57022 70200 85760 22264 04191 20706 325// 40804 5//// 80160
BBXX VRCZ7 17123 99033 70361 41798 42931 10142 20110 40203 52/// 70211 8//6/ 22264 20407 329// 40307 5//// 80125
BBXX TBWUK17 17123 99124 30940 41598 50916 10270 20267 40107 52010 70111 83460 22253 04280 20101 314// 40604 5//// 80268
BBXX A8AC5 17124 99338 10296 41598 32112 10190 20124 40160 54000 70211 81132 22233 04180 2//02 32700 40704 5//// 80150
BBXX DPTT 17123 99277 10337 41598 13218 10202 20107 40159 57022 70200 80008 22274 06229 20301 332// 40403 80146
BBXX VRGM8 17123 99147 10422 41598 31618 10295 20226 40121 56022 70200 83104 22274 00274 20402 322// 41003 5//// 80245
AAXX 17124 71981 16/// /2411 10047 21023 60001 333 10033 7////
AAXX 17124 71982 46/// /2404 11035 21067 6///1 333 10025 7////
AAXX 17124 71986 16/// /1707 11086 21095 60001 333 11070 21108 70000
AAXX 17124 71990 17/// /0503 11125 21139 38429 40049 58003 69971 7//4/ 333 11083 21172 4/083 55/// 00000 70023
AAXX 17124 71048 16/// /2205 11086 21102 60001 333 11003 21114 70000
AAXX 17124 71277 46/// /1611 11006 21021 6///1 333 11012 21043 7////
AAXX 17124 71354 16/// /2005 11035 21068 60001 333 10024 21052 70000
AAXX 17124 71406 16/// /2921 11089 21112 30030 40040 53067 60001 333 10041 21089 70109
AAXX 17124 71418 46/// /3026 11024 21061 30084 40117 51027 6///1 333 10105 21025 7////
AAXX 17124 43014 32996 07002 10280 20142 39471 40107 333 10298 59001
AAXX 1712/ 89872 46/// ///// 11118 39859 4//// 5//// 91210
AAXX 1712/ 89869 46/// ///// 11120 39845 4//// 5//// 91210
AAXX 1712/ 89327 46/// ///// 11020 39668 4//// 5//// 91210
AAXX 1712/ 89332 46/// ///// 11104 39291 4//// 5//// 91210
AAXX 1712/ 89769 46/// ///// 11098 39875 4//// 5//// 91210
AAXX 1712/ 89108 46/// ///// 11270 36935 4//// 5//// 91210
AAXX 1712/ 89879 46/// ///// 11019 39750 4//// 5//// 91220
AAXX 1712/ 89329 46/// ///// 11139 38791 4//// 5//// 91210
AAXX 1712/ 89799 46/// ///// 11246 4//// 5//// 91210
AAXX 1712/ 89314 46/// ///// 11135 38230 4//// 5//// 91210
AAXX 1712/ 89868 46/// ///// 11135 39866 4//// 5//// 91210
AAXX 17124 89657 46/// /2307 11060 20061 49852 52006
AAXX 17124 68296 32975 21805 10295 20151 39848 48594 57012 82100 333 10388 20179 91012 555 91016
AAXX 17124 83811 32597 53202 10202 20146 39215 40107 53017 82440 333 20134
AAXX 17124 83844 32597 227// 10284 20179 30068 40075 52010 81104 333 20207
AAXX 17124 83887 21597 23206 10186 20147 39063 40100 52018 70252 82200 333 20142 60014
AAXX 17124 83907 32497 32704 10221 20172 39828 40108 51013 81205 333 20167
AAXX 17124 83914 21596 43210 10198 20150 39338 40104 52012 70521 82261 333 20145 60064
AAXX 17124 83919 21496 63210 10168 20135 38934 40108 52014 71052 82230 333 20128 60074
AAXX 17124 83927 32597 61802 10214 20157 30018 40090 52007 86200 333 20144
AAXX 17124 83936 31996 83204 10230 20177 39975 40095 51012 70542 8807/ 333 20196
AAXX 17124 83948 22498 23206 10262 20181 30059 40065 51008 81101 333 20179 60144
AAXX 17124 83964 22597 62306 10219 20156 39583 40065 52014 83230 333 20152 69924
AAXX 17124 83995 22397 82702 10188 20171 30055 40058 53010 887// 333 20176 60044
AAXX 17124 83384 21596 80000 10228 20206 39550 40129 72162 8688/ 333 20214 58019 60124
AAXX 17124 83386 21398 82302 10232 20213 39593 40124 70265 8577/ 333 20199 58018 60404
AAXX 17124 83388 32497 60907 10254 20195 39445 40106 8421/ 333 20216 58010
AAXX 17124 83393 32599 70503 10248 20187 39422 40136 84421 333 20208 58012
AAXX 17124 83442 32597 80502 10260 20210 39778 40121 888// 333 20225 58012
AAXX 17124 83479 21798 83606 10232 20209 39335 40127 70252 8809/ 333 20204 58017 60034
AAXX 17124 83483 21596 80502 10222 20210 39566 40122 75065 887// 333 20212 58017 60054
AAXX 17124 83531 21597 63206 10212 20193 39084 40114 70162 86700 333 20185 58016 60364
AAXX 17124 83538 21393 82702 10181 20177 38717 40110 74042 886// 333 20168 58012 60104
AAXX 17124 83574 32794 40904 10266 20216 39569 40170 5//// 84100 333 20220
AAXX 17124 83582 22593 80902 10222 20207 39350 40114 53015 88700 333 20192 60534
AAXX 17124 83595 21596 80902 10246 20232 30054 40139 76165 885// 333 20230 58026 60064
AAXX 17124 83687 21698 73606 10214 20199 39102 40101 53006 70262 87700 333 20193 60084
AAXX 17124 83692 22698 83606 10208 20196 39088 40111 53005 882// 333 20190 60184
AAXX 17124 82979 32698 20909 10281 20188 39656 40098 82020 333 20246 59001
AAXX 17124 82986 32597 50909 10274 20184 39847 40129 85100 333 20222 58003
AAXX 17124 83179 32598 40508 10283 20191 39649 40090 84200 333 20212 59005
AAXX 17124 83192 32597 60906 10288 20164 39977 40141 86800 333 20212 58005
AAXX 17124 83339 32497 60905 10213 20191 39160 40120 85201 333 20196 58009
AAXX 17124 83498 32595 60505 10280 20229 30157 40162 83521 333 20245 58023
BBXX 41033 17121 99323 70804 46/// /2903 10147 40209 91200 555 11041 22047
BBXX 42085 17121 99179 70665 46/// /0405 10248 40167 91230 333 91207
BBXX 42085 17121 99179 70665 46/// /0306 10247 40165 91220 333 91207
BBXX 42085 17121 99179 70665 46/// /0306 10247 40163 91210 333 91207
BBXX 42360 17121 99267 70905 46/// /3605 10230 91200 22200 00245 10702 70008 333 91206
BBXX VRGM8 17123 99147 10422 41598 31618 10295 20226 40121 56022 70200 83104 22274 00274 20402 322// 41003 5//// 80245
BBXX DPTT 17123 99277 10337 41598 13218 10202 20107 40159 57022 70200 80008 22274 06229 20301 332// 40403 80146
BBXX A8HD5 17121 99177 10677 41697 30110 10275 20172 40130 54000 70111 83145 22235 04225 20401 301// 40601 5//// 80210
BBXX A8XD5 17124 99420 11585 41296 52903 10010 21016 40060 50/// 70222 8/727 22223 2//// 329// 40808 80000
BBXX 7JJA 17124 99345 11403 41597 80815 00 10100 20060 40210 54 76022 878// 9//// 22213 0 20204 309 40308 5 6//// 80080 ICE /////
BBXX VRCZ7 17123 99033 70361 41798 42931 10142 20110 40203 52/// 70211 8//6/ 22264 20407 329// 40307 5//// 80125
BBXX WQVY 17124 99326 70520 41799 50124 10190 2014/ 40155 52027 70122 83505 22264 0//// 20804 3//// 41306 5//// 6//// 80160 ICE /////
BBXX 44056 17121 99362 70757 46/// ///// 1//// 91150 22200 00124 11303 20502 308// 41302 70014
BBXX 41053 17121 99185 70661 46/// /0506 10260 40161 91210 333 91208
BBXX 41053 17121 99185 70661 46/// /0606 10259 40162 91220 333 91207
BBXX 41052 17121 99183 70648 46/// /0505 10257 40154 91220 333 91206
BBXX 41052 17121 99183 70648 46/// /0606 10259 40154 91210 333 91208
BBXX 41053 17121 99185 70661 46/// /0506 10256 40165 91230 333 91210
BBXX 41052 17121 99183 70648 46/// /0505 10258 40156 91230 333 91206
BBXX SHIP 17124 99229 71650 41/97 /0919 10229 20196 40196 57010 70381 8//// 22200 04247
BBXX 44138 17121 99443 70536 46/// /3009 10074 40130 52025 22200 00101 11006 70032 333 91212
BBXX 44137 17121 99423 70620 46/// /3106 10077 40155 52006 22200 00098 11008 70041 333 91208
BBXX 44022 17121 99409 70737 46/// ///06 10032 21025 40198 91230 22200 00090 333 91208 555 11067 22067
BBXX 44040 17121 99410 70736 46/// /3106 10034 21020 40204 91219 22200 1//00 70002 333 91208 555 11072 22082
BBXX 46224 17121 99332 71175 46/// ///// 1//// 91206 22200 00147 11301 21001 320// 41301 70007
BBXX 44099 17121 99369 70757 46/// ///// 1//// 91222 22200 00124 11402 21002 309// 41401 70010
BBXX 46236 17121 99368 71219 46/// ///// 1//// 91220 22200 00122 11503 20802 328// 41502 70013
BBXX 44060 17121 99413 70721 46/// ///05 10036 40191 91230 22200 00108 333 91206 555 11046 22051
BBXX 46229 17121 99438 71246 46/// ///// 1//// 91221 22200 00102 11404 21002 329// 41403 70021
BBXX 46225 17121 99329 71174 46/// ///// 1//// 91214 22200 00145 11002 21002 327// 41201 70010
BBXX 46213 17121 99403 71247 46/// ///// 1//// 91224 22200 00105 11404 20603 328// 41403 70020
BBXX 46215 17121 99352 71209 46/// ///// 1//// 91208 22200 00129 11703 21002 327// 41702 70016
BBXX 46240 17121 99366 71219 46/// ///// 1//// 91212 22200 00122 10902 20901 335// 41101 70008
BBXX 51205 17121 99210 71564 46/// ///// 1//// 91218 22200 00243 11506 20604 332// 41505 70032
BBXX 46238 17121 99334 71195 46/// ///// 1//// 91220 22200 00145 11702 20802 329// 41702 70012
BBXX TBWUK17 17123 99124 30940 41598 50916 10270 20267 40107 52010 70111 83460 22253 04280 20101 314// 40604 5//// 80268
BBXX DDBR2 17124 99380 10174 41598 62922 10164 20043 40055 55000 70222 84548 22211 20403 322// 40603 5//// 80107
BBXX A8AC5 17124 99338 10296 41598 32112 10190 20124 40160 54000 70211 81132 22233 04180 2//02 32700 40704 5//// 80150
BBXX ZNQO3 17120 99358 10167 41297 72514 10198 20132 40095 57022 70200 85760 22264 04191 20706 325// 40804 5//// 80160
BBXX A8JH8 17124 99361 70026 41597 42829 10190 20159 40210 57030 70200 83940 22224 20503 330// 40703
BBXX 62169 17123 99614 10014 41497 63234 10038 20031 49964 51010 79082 86400 22200 20710 300// 4//// 5//// 80035
BBXX BAREU62 17124 99441 10095 46/// ///// 40021 22273
BBXX 61001 17124 99434 10078 46/// /2923 10129 21008 40026 54000 22200 00151 10806 70032 555 1/029
BBXX BAREU56 17124 99430 10098 46/// ///// 40030 52016 22232
BBXX BATFR41 17124 99425 10032 46/// /3035 10119 20024 40138 50004 22242
BBXX BAREU51 17124 99425 10109 46/// ///// 40017 52020 22274
BBXX 61002 17124 99421 10047 46/// ///33 10114 20052 40140 52004 22200 00143 10807 70035 555 1/043
BBXX BATFR31 17124 99419 10087 46/// /2936 10120 40055 22262 00165
BBXX BATFR46 17124 99412 10028 44/97 23119 10124 20045 40144 58004 701// 8//// 22253 00162 22004
BBXX SHIP 17124 99405 10271 41498 72130 10190 2008/ 40040 56020 70121 8775/ 22200 00120 21010 33535 41010 5//// 6//// 80130 ICE /////
BBXX C6XE9 17123 99401 10020 41397 73030 10160 2007/ 40160 54/// 7//22 867// 22223 00180 21006 33127 40708 50504 6//// 80110 ICE /////
BBXX WRAH 17123 99376 10078 41/// ///// 1//// 2//// 4//// 5//// 7//// 8//// 222// 0//// 2//// 3//// 4//// 5//// 6//// 8//// ICE /////
BBXX WAHP 17124 99340 10236 41598 42518 10195 2016/ 40198 56025 7//11 84430 22275 00183 20302 328// 40402 5//// 6//// 80172 ICE /////
BBXX OZDM2 17124 99337 10246 41698 72519 10200 20116 40151 56012 70322 85264 22224 04200 20104 80150
BBXX BATFR04 17124 99597 70110 46/// /2917 10057 21053 40107 53010 22200 00102
BBXX MINUK05 1712/ 99596 70062 46/// ///// 10058 40078 52025
BBXX 64045 17124 99591 70117 46/// /3017 10061 21017 40120 52012 22200 00101 10708 70040
BBXX BATEU04 17124 99589 10004 46/// /3428 10052 21043 40002 53004 22223
BBXX 62112 17124 99584 70002 47498 /3125 10034 21013 40017 52021 762// 22200
BBXX 62113 17124 99584 10002 47598 /3421 10055 21005 40001 51017 700// 22200
BBXX 62129 17124 99584 10003 46/// ///// 10051 21011 40000 51018 22200
BBXX 62114 17124 99583 10000 46/// /3222 10039 21022 40015 52017 22200
BBXX BATUK01 17124 99582 70064 46/// /3104 10030 21018 40095 51025 22200 00109
BBXX PJAI 17124 99581 70014 47598 /3221 10059 21023 40035 52021 700// 22200
BBXX 62111 17124 99580 70003 46/// /3528 10051 21005 40022 52022 22200 10606 70029
BBXX 62117 17124 99579 10000 47597 /3324 10056 21004 40014 52020 700// 22200 10605 70026
BBXX MINUK01 1712/ 99571 70021 46/// ///// 10033 40063 52023
BBXX AMOUK21 17124 99566 70065 46/// ///// 10043 20011 30104 40111 52036 91150
BBXX 62105 17124 99554 70122 46/// /3119 10076 20011 40178 52022 22200 00106 10808 70042 333 90710 91126
BBXX BAREU04 17124 99548 70054 46/// ///// 40092 52016 22283
BBXX AMOUK02 17124 99535 70034 46/// ///// 10061 20024 30030 4//// 5//// 91150
BBXX AMOUK14 17124 99534 70054 46/// ///// 10050 20011 30102 40136 52071 91150
BBXX 62095 17124 99531 70159 46/// /2915 10079 20027 40238 52014 22200 00113 10807 70037
BBXX 62301 17124 99524 70047 46/// /3122 10066 20020 40114 50009 22200 00095 10707 70033 333 90710 91129
BBXX 62094 17124 99517 70067 46/// /3024 10076 20031 40156 51014 22200 00107 10707 70033 333 90710 91131
BBXX 62303 17124 99516 70051 46/// /3222 10079 20036 40136 52012 22200 00113 10807 70035 333 90710 91133
BBXX PHIN 17124 99514 70158 41598 53220 10125 20068 40258 52006 72581 83261 22223 00120 20404 334// 40908 80095
BBXX 62023 17123 99514 70079 46/97 /3021 10068 2//// 40188 5//// 22200 10706 70029 555 70049 80005 91131
BBXX 62081 17124 99510 70134 46/// ///// 10083 20023 40244 52019 22200 00120 10810 70048
BBXX BATFR02 17124 99506 70009 46/// /3131 10069 20014 40110 58011 22284 00109
BBXX 62305 17124 99504 10000 46/98 /3022 10066 20030 40111 58001 22200 00120 10802 70012 333 90710 91132
BBXX BATFR42 17124 99503 70031 46/// /3135 10077 20009 40119 53004 22264 00127
BBXX AMOUK08 17124 99501 70061 46/// ///// 10081 20035 30165 40167 52020 91150
BBXX 62103 17124 99499 70029 46/// /3327 10079 20018 40124 52005 22200 00121 10907 70033 333 90710 91134
BBXX BATFR03 17124 99498 70005 46/// /3024 10079 20015 40114 51004 22244
BBXX PJFF 17124 99494 70050 41/97 /3224 10150 40150 52010 702// 8/4// 22253 04080 20903 331// 41004 80020
BBXX PDHW 17123 99493 70088 41497 63230 10095 20006 40200 52030 76066 84272 22263 00100 20806 330// 41008 80055
BBXX ELXG9 17124 99492 70043 41597 62613 10120 20101 40160 54000 76022 86500 22213 20301 333// 40503 80110
BBXX 62027 17124 99491 70022 46/// /3317 1//// 2//// 40134 51004 22200 00118 1//// 3//// 7//// 333 90710 91125
BBXX 62442 17124 99490 70164 46/// /3213 1//// 2//// 40286 53013 22200 00127
BBXX 62029 17124 99487 70125 46/// /3418 10094 20052 40254 51014 22200 00131 10910 70048 333 90710 91128
BBXX TBWUK03 17123 99483 70059 41598 53027 10091 20059 40198 52040 70222 84444 22243 20401 329// 40906 5//// 80075
BBXX BATFR16 17124 99478 70048 46/// /3124 10107 20022 40187 50007 22235 00137
BBXX BATFR12 17124 99477 70049 46/// /3122 10097 20039 40184 22261 00145
BBXX 62163 17124 99475 70084 46/// /3218 10099 20046 40230 51012 22200 00129 10910 70051 333 90710 91132
BBXX A8IY4 17121 99472 70110 41/98 63210 10100 20056 40255 52030 70222 864// 22254 04188 2//// 332// 41608 80080
BBXX PENR 17123 99463 70139 41697 33516 10110 20030 40294 52001 70200 8214/ 22214 20503 335// 41208 80075
BBXX A8CH2 17124 99460 70111 41598 43115 10150 20099 40270 55005 70222 84445 22214 04130 20406 331// 41010 80121
BBXX BATFR13 17124 99459 70132 44498 43215 10109 20035 40287 58002 70122 841// 22214 00137 20404 301// 41206 5////
BBXX A8LL8 17124 99455 70167 41598 40603 10135 20099 40315 52/// 70322 84478 22214 21108 329// 41108 80115
BBXX A8OF6 17123 99452 70159 41598 83516 10136 20068 40312 51/// 70311 8689/ 22254 04140 20508 335// 40810 80100
BBXX 62001 17124 99452 70050 46/// /2917 10108 20064 40224 50008 22200 00143 11012 70060 333 90710 91125
BBXX BATFR09 17124 99417 70098 44897 23517 10134 20019 40293 50002 70200 82100 22283 00162 20408
BBXX PCPR 17123 99387 70098 41398 43210 10162 20067 40300 52020 70311 84544 22283 04164 20100 331// 41006 80111
BBXX WKAB 17123 99383 70166 41397 72917 10170 20154 40333 52010 7//22 8764/ 22224 00169 20803 332// 40805 5//// 6//// 80160 ICE /////
BBXX KABL 17124 99375 70182 41698 33112 10190 2014/ 40350 52010 7//00 837// 22224 00183 21002 332// 41003 5//// 6//// 80160 ICE /////
BBXX DBBH 17121 99367 70115 41598 70206 10158 20119 40315 52006 70222 878// 22200 04179 20302 332// 41104
BBXX NWS0020 17124 99363 70027 43/// /2823 10149 20078 40194 5//// 7//// 8//// 222// 04158 2//// 3//// 4//// 5//// 6//// 8//// ICE /////
BBXX A8QM9 17124 99361 70103 41698 70121 10170 20137 40300 53/// 70322 87492 22263 21006 301// 41006 80150
BBXX A8UA9 17124 99350 70070 43298 63112 10170 20154 40300 52040 86622 22253 00160 20506 80160
BBXX PCSV 17123 99028 30725 41597 63212 10281 20247 40067 70222 83168 22252 04284 20603 332// 40704 80256 90456
BBXX ICRA 17124 99046 30554 419// /2816 10300 2025/ 40080 54040 7//// 8/000 222// 00280 2//// 3//// 4//// 5//// 6//// 80260 ICE /////
BBXX BATFR19 17124 99065 30060 46/// /1822 10235 20194 40113 58025 22200 00255
BBXX DAJT 17124 99069 30797 41398 52715 10275 20234 40015 56015 70022 8/6// 22254 04280 2//03 80245
BBXX 2AKI2 17123 99082 30818 41498 62911 10280 20252 40059 54000 78081 8626/ 22214 00300 20401 316// 40502 5//// 80260
BBXX V2OG2 17113 99147 31074 41498 61816 10272 20227 40087 54000 70211 86130 22233 20402 319// 40503 80240
BBXX BATFR56 17124 99194 30579 44998 70204 10260 20207 40097 56007 70222 86405 22200 00279
BBXX A8KH9 17124 99228 30145 41997 12409 10170 20119 40110 54000 70111 80005 22200 20301 32600 40802 5//// 80140
BBXX A8YW2 17124 99243 30577 41597 71021 10270 20193 40110 57020 70322 83279 22214 00230 20201 316// 40801 80220
BBXX DEIR 17124 99291 30375 41498 62631 10225 20155 40180 58010 70200 84471 22223 04245 20603 314// 40804 80180
BBXX A8ZS7 17124 99314 30326 41598 40812 10245 20152 40195 58010 70300 84100 22254 04220 20401 314// 40602 80185
BBXX ONCE 17124 99336 30433 417// 31630 10200 2014/ 40160 57020 70100 83500 22224 00218 20303 312// 40906 5//// 6//// 80160 ICE /////
BBXX DBBT 17121 99425 30003 46/// /2412 10067 20020 40002 52009 22223 00108
BBXX BATFR08 17124 99448 30739 46/// /2518 10109 20084 40182 58004 22212 00117
BBXX DHSI 17124 99146 70173 41398 61211 10290 20099 40140 54000 70211 86645 22200 29901 80175
AAXX 17121 47008 12970 03206 11035 21203 30195 40251 52012 69902 333 10011
AAXX 17121 47014 32950 00000 11179 21212 39850 40287 54000 333 11099
AAXX 17121 47016 32970 00000 11161 21212 39390 40317 52023 333 11078
AAXX 17121 47020 32565 60000 11126 21153 39915 40321 53006 86500 333 11069
AAXX 17121 47025 32960 03204 11020 21131 30205 40235 53010 333 10051
AAXX 17121 47035 32970 00000 11070 21115 30336 40345 52012 333 11020
AAXX 17121 47041 32970 00000 11044 21153 30230 40258 52023 333 10039
AAXX 17121 47058 32960 00000 11057 21102 30266 40316 57002 333 11023
AAXX 17121 47069 11565 80902 11026 21049 30202 40306 57004 69902 70272 885// 333 10005
AAXX 17121 47003 32980 03203 11049 21203 30242 40246 52013 333 11011
AAXX 17121 47005 32980 01403 11185 21226 38598 52001 333 11120
AAXX 17121 47022 32975 03203 11136 21243 38837 52012 333 11069
AAXX 17121 47028 32965 02901 11085 21127 30203 40303 53007 333 11011
AAXX 17121 47031 32970 03201 11126 21198 38947 52006 333 11090
AAXX 17121 47037 32970 00000 11102 21130 30176 40306 54000 333 11032
AAXX 17121 47039 32960 00000 11106 21142 30110 40314 52008 333 11020
AAXX 17121 47046 32969 02305 11008 21125 30215 40238 52012 333 10036
AAXX 17121 47050 32965 00000 11080 21121 30255 40291 52004 333 11017
AAXX 17121 47052 32965 00000 11100 21136 39949 40310 52007 333 11047
AAXX 17121 47060 32960 00000 11041 21095 30238 40298 57001 333 11021
AAXX 17121 47061 32980 03204 11002 21126 30214 40259 52003 333 10038
AAXX 17121 47065 32970 80000 11031 21081 30246 40314 58020 8802/ 333 11013
AAXX 17121 47067 32965 00000 11030 21093 30204 40329 53008 333 11010
AAXX 17121 47068 12560 20902 11043 21059 30261 40298 53002 60012 82500 333 11014
AAXX 17121 47070 32570 80000 11035 21091 30220 40312 54000 85502 333 11003
AAXX 17121 47075 32980 22302 11064 21140 39802 40250 52002 82050 333 11050
AAXX 17124 89528 46/// /3426 4//// 5////
AAXX 17124 89628 46/// /3112 4//// 5////
AAXX 17124 47604 11/65 61905 10010 21006 30217 40226 58005 69902 72682 86200 333 10051
AAXX 17121 11204 32680 72905 10038 21052 39212 49996 52014 875// 333 55305 87638
BBXX DHSI 17124 99146 70173 41398 61211 10290 20099 40140 54000 70211 86645 22200 29901 80175
AAXX 17121 31801 11997 82001 11187 21199 39945 40188 52001 69950 77172 80007 333 11165
BBXX A8OU4 17124 99402 71537 41498 52231 10140 20102 40210 54000 7//22 85260 22224 00160 20406 327// 40908 5//// 80120
BBXX WDE9586 17123 99347 71687 41398 82026 10190 20180 40165 50000 7//22 887// 22224 00200 2//// 3//// 4//// 5//// 6//// 80180 ICE /////
BBXX 7JJA 17124 99345 11403 41597 80815 00 10100 20060 40210 54 76022 878// 9//// 22213 0 20204 309 40308 5 6//// 80080 ICE /////
BBXX UDWE 17121 99459 11455 41/95 93112 11038 40076 57008 77272 22233 00049 20302 30300 40605
BBXX S6JT 17124 99538 71528 41698 82220 10040 20014 40020 52020 71922 888// 22225 04040 2//// 80030
BBXX MFLM9 17123 99320 31156 41397 11920 10210 20160 40098 53018 70100 81943 22200 04200 20802 318// 40504 80180
BBXX 9VDD2 17124 99352 11301 41298 52620 10040 20/// 40270 5//// 7//55 84677 22254 00030 20208 39999 40306 50308 80005
BBXX VRAR7 17123 99238 11258 41/98 /0620 10200 20135 40210 54000 70110 8//// 22254 00242 2//// 80160
BBXX DQVN 17123 99015 11045 41/97 /0516 10275 20245 40070 54000 70322 8//// 22243 00292 2//// 80253
BBXX VRCI9 17124 99369 11479 41/98 /2819 10100 20038 40125 52030 70262 8//// 22215 00158 2//// 80070
BBXX DDYL2 17123 99073 11080 41/97 /0422 10265 20221 40090 52010 7//// 8//// 22254 00250 2////
BBXX VRBQ6 17124 99340 71413 41/97 22715 10200 20155 40234 54000 70200 82/// 22225 00182 2//// 80170
BBXX 9VDD3 17124 99438 71475 41296 62515 10090 20050 40230 52010 7//11 85299 22214 00070 20102 32121 40102 50102 80070
AAXX 17124 89646 46/// /0107 11252 29075 37588 4//// 5////
AAXX 17124 89648 46/// /2204 11283 29063 37151 4//// 5////
AAXX 17124 89659 46/// /1807 11213 29072 37648 4//// 5////
AAXX 17124 89661 46/// /2413 11076 29087 39236 4//// 5////
AAXX 17124 89662 42860 80401 11036 21108 39793 49898 52002 8802/ 222 ICE 98015 333 88458
AAXX 17124 89666 46/// /3304 11060 29088 39718 4//// 5////
BBXX MINUK04 1712/ 99555 10084 46/// ///// 10055 4//// 57012
BBXX MINUK03 1712/ 99525 10046 46/// ///// 10073 40038 52019
AAXX 17124 08495 12670 42817 10143 20057 30252 40260 58002 60001 81501 91150 333 81634 84075 91027 90710 91127
AAXX 17124 71073 16/// /1910 11003 21041 60001 333 10002 21043 70000
AAXX 17124 71793 16/// ///// 11100 21116 60001 333 10022 21122 70000
AAXX 17124 71495 16/// /2513 10045 21036 60001 333 10042 21003 70000
AAXX 17124 71848 16/// ///// 10023 21027 60001 333 10016 21019 70000
AAXX 17124 71565 17/// /2502 11119 21130 69961 7//4/ 333 11033 21127 4/001 70010
AAXX 17124 71566 16/// /2301 11020 21061 60001 333 21023 7////
AAXX 17124 71567 16/// /0000 11089 21098 60001 333 11004 21094 70000
AAXX 17124 71974 46/// /1403 11351 21384 30104 40149 58008 6///1 333 11282 21386 7////
AAXX 17124 71399 16/// ///// 11090 21106 60001 333 11006 21122 70000
AAXX 17124 71013 46/// ///// 11054 21079 6///1 333 10001 21099 7////
AAXX 17124 71060 16/// /2510 10049 21044 38607 40166 58019 60001 333 10042 20005 4/016 70000
AAXX 17121 47008 12970 03206 11035 21203 30195 40251 52012 69902 333 10011
AAXX 17121 47014 32950 00000 11179 21212 39850 40287 54000 333 11099
AAXX 17121 47016 32970 00000 11161 21212 39390 40317 52023 333 11078
AAXX 17121 47020 32565 60000 11126 21153 39915 40321 53006 86500 333 11069
AAXX 17121 47025 32960 03204 11020 21131 30205 40235 53010 333 10051
AAXX 17121 47035 32970 00000 11070 21115 30336 40345 52012 333 11020
AAXX 17121 47041 32970 00000 11044 21153 30230 40258 52023 333 10039
AAXX 17121 47055 32970 02301 11020 21126 30217 40293 53013 333 10000
AAXX 17121 47058 32960 00000 11057 21102 30266 40316 57002 333 11023
AAXX 17121 47069 11565 80902 11026 21049 30202 40306 57004 69902 70272 885// 333 10005
BBXX 46247 17121 99378 71228 46/// ///// 1//// 91221 22200 00113 11503 20802 328// 41502 70015
BBXX 46241 17121 99330 71173 46/// ///// 1//// 91211 22200 00141 11102 21001 327// 41101 70008
BBXX 51204 17121 99213 71581 46/// ///// 1//// 91222 22200 00248 11504 21002 331// 41503 70020
BBXX 41110 17121 99341 70777 46/// ///// 1//// 91221 22200 00141 11402 21001 310// 41401 70009
BBXX 41113 17121 99284 70805 46/// ///// 1//// 91221 22200 00217 11101 21001 310// 41101 70007
BBXX 51203 17121 99208 71570 46/// ///// 1//// 91213 22200 00250 11502 20901 330// 41501 70009
BBXX 46216 17121 99343 71198 46/// ///// 1//// 91227 22200 00147 11002 21001 326// 41301 70009
BBXX 46223 17121 99335 71178 46/// ///// 1//// 91230 22200 00151 11202 21001 326// 41201 70009
BBXX 46231 17121 99327 71174 46/// ///// 1//// 91224 22200 00144 11102 21002 328// 41101 70010
BBXX 46222 17121 99336 71183 46/// ///// 1//// 91226 22200 00153 11101 20701 326// 41101 70006
BBXX 44039 17121 99411 70727 46/// /3006 10046 21011 40201 91230 22200 00099 10301 70004 333 91208
AAXX 17121 89063 41597 51804 11010 21030 30018 40030 51023 71022 83505 333 10006 21015
AAXX 17124 97260 01457 70000 10244 20239 30063 40070 52010 60481 72196 86971 333 10310 56000 57901 58019 60487 81918 80980 84618
AAXX 17124 96937 01458 81803 10256 20243 30080 40085 51018 60631 76196 86821 333 10334 56000 59023 60037 84820 86460
AAXX 1712/ 89327 46/// ///// 11023 39669 4//// 5//// 91230
AAXX 1712/ 89828 46/// ///// 11309 36526 4//// 5//// 91230
AAXX 1712/ 89108 46/// ///// 11268 36936 4//// 5//// 91230
AAXX 1712/ 89879 46/// ///// 11016 39752 4//// 5//// 91230
AAXX 1712/ 89872 46/// ///// 11129 39859 4//// 5//// 91230
AAXX 1712/ 89869 46/// ///// 11119 39846 4//// 5//// 91230
AAXX 1712/ 89866 46/// ///// 11054 39790 4//// 5//// 91230
AAXX 1712/ 89329 46/// ///// 11124 38794 4//// 5//// 91230
AAXX 1712/ 89868 46/// ///// 11138 39868 4//// 5//// 91230
AAXX 1712/ 89769 46/// ///// 11100 39875 4//// 5//// 91230
AAXX 1712/ 89314 46/// ///// 11149 38232 4//// 5//// 91240
AAXX 17124 89667 46/// /0403 11092 29080 39909 4//// 5//// 91230
BBXX 63106 17124 99610 10017 46/// /3223 10035 49960 51025 22200
BBXX 63113 17124 99610 10017 46/// /3328 10035 21010 49963 52027 22200 10809 70046
BBXX 62107 17124 99501 70061 46/// /3226 10084 20016 40169 51015 22200 00114 10908 70038 333 90710 91136
BBXX 63110 17123 99595 10015 41597 73435 10069 49970 70222 8/8// 22200 10709 70045
AAXX 17123 63612 32680 20905 10349 20156 40060 82903 333 59008 81933
AAXX 17123 63772 32580 40908 10305 20244 84963 333 81924 84825
AAXX 17121 20353 46/// /1413 11046 21061 30123 40127 52002 333 91117
AAXX 17124 71102 16/// ///// 11079 21097 60001 333 10013 21094 7////
AAXX 17124 71105 16/// ///// 11066 21078 60001 333 11007 21095 70000
AAXX 17124 71383 47/// ///// 11219 21250 39551 40186 52014 6///1 7//4/ 333 10001 21220 7////
AAXX 17124 71789 16/// ///// 10049 21011 60001 333 10045 20024 70000
AAXX 17124 71791 16/// /1405 11068 21088 60001 333 10025 21069 70000
AAXX 17124 71794 16/// ///// 11070 21095 60001 333 10012 21079 70000
AAXX 17124 71795 16/// ///// 10023 21022 60001 333 10013 21039 70000
AAXX 17124 71796 16/// ///// 11067 21097 60001 333 10042 21078 70000
AAXX 17124 71797 16/// ///// 11058 21079 60001 333 10014 21070 70000
AAXX 17124 71051 16/// ///// 11099 21111 60001 333 21129 7////
AAXX 17124 71057 16/// ///// 10018 21036 60001 333 10011 21090 70000
AAXX 17124 71070 16/// ///// 10009 21024 60001 333 10020 21049 70000
AAXX 17124 71089 16/// ///// 11078 21095 60001 333 10019 21086 70000
AAXX 17124 71409 16/// ///// 11063 21075 60001 333 10039 21082 70000
AAXX 17124 71841 16/// /1903 11188 21210 39790 40211 58027 60001 333 11149 21268 4/013 70000
AAXX 17124 71433 46/// /2208 11047 21089 30012 40250 57010 6///1 333 11029 21079 7////
AAXX 17124 71006 16/// /2309 11030 21072 60001 333 10042 21050 70000
AAXX 17124 71007 16/// ///// 10034 21016 60001 333 10036 20002 70000
AAXX 17124 71008 16/// /2705 11049 21071 60001 333 11021 21100 70000
AAXX 17124 71009 16/// /1703 11045 21073 60001 333 10006 21131 70000
AAXX 17124 71012 16/// /1602 11076 21101 60001 333 10019 21076 70000
AAXX 17124 71035 16/// ///// 11105 21115 60001 333 10028 21128 70000
AAXX 17124 71502 16/// /0910 11225 21241 30074 40090 56004 60001 333 11222 21228 70000
AAXX 17124 71509 16/// /2628 10069 21005 60001 333 10058 20034 7////
AAXX 17124 71517 16/// /2619 10060 21011 60001 333 10055 20035 70000
AAXX 17124 71518 16/// /2412 10028 21007 60001 333 10016 21063 7////
AAXX 17124 71519 16/// /1806 11015 21027 60001 333 10031 21079 70000
AAXX 17124 71520 16/// /2003 11226 21250 39466 40166 51011 60001 333 11039 21265 70000
AAXX 17124 71521 16/// ///// 11203 21236 60001 333 11006 21215 70000
AAXX 17124 71523 16/// ///// 11246 21272 39821 40215 51012 60001 333 10006 21246 70000
AAXX 17124 71528 16/// /2624 10044 21004 60001 333 10035 21007 70000
AAXX 17124 71841 16/// /1903 11188 21210 39790 40211 58027 60001 333 11149 21268 4/013 70000
AAXX 17124 71433 46/// /2208 11047 21089 30012 40250 57010 6///1 333 11029 21079 7////
BBXX 46242 17121 99332 71174 46/// ///// 1//// 91228 22200 00147 10701 20701 321// 41301 70006
BBXX 46214 17121 99379 71235 46/// ///// 1//// 91225 22200 00118 11504 20903 330// 41503 70021
BBXX 46221 17121 99339 71186 46/// ///// 1//// 91215 22200 00154 11301 21001 319// 41301 70006
BBXX 46239 17121 99363 71221 46/// ///// 1//// 91221 22200 00129 11504 20903 331// 41503 70022
AAXX 17124 96995 46/// /1509 10234 20233 39784 40078
AAXX 17124 96995 46/// /1509 10234 20233 39784 40078
AAXX 17124 45011 17945 /0305 10133 20082 40238 52012 60002 71011 333 10186 58002
BBXX CFO383 17124 99439 70602 47998 /2906 10058 2101/ 40144 5//// 700// 8//// 22200 00082 10906 2//// 3//// 70029 80029 91013
BBXX CFO383 17124 99439 70602 47998 /2906 10058 2101/ 40144 5//// 700// 8//// 22200 00082 10906 2//// 3//// 70029 80029 91013
AAXX 17124 71574 11574 53006 11104 21168 30095 40170 53017 69901 70388 81530 333 10059 21104 43020 79999 90922
AAXX 17121 89063 41597 51804 11010 21030 30018 40030 51023 71022 83505 333 10006 21015
AAXX 17124 71854 11358 82107 11090 21106 39640 40128 56026 60032 771// 8651/ 333 11134 21174 48015 70028 90999 555 19999 29999
AAXX 17124 71854 11358 82107 11090 21106 39640 40128 56026 60032 771// 8651/ 333 11134 21174 48015 70028 90999 555 19999 29999
BBXX SHIP 17124 99130 11295 41/98 61117 10280 20253 40111 54000 70222 85/// 22273 00270 2//// 3//// 4//// 80260
BBXX SHIP 17123 99238 11258 41/98 /0620 10200 20135 40210 54000 70110 8//// 22254 00242 2//// 3//// 4//// 80160
BBXX VQGQ4 17124 99258 11437 41/98 /0117 10215 20157 40178 51001 70311 8//// 22283 00260 20402 80180
BBXX DDYL2 17123 99073 11080 41/97 /0422 10265 20221 40090 52010 7//// 8//// 22254 00250 2////
BBXX VRCI9 17124 99369 11479 41/98 /2819 10100 20038 40125 52030 70262 8//// 22215 00158 2//// 80070
BBXX 9VDD2 17124 99352 11301 41298 52620 10040 20/// 40270 5//// 7//55 84677 22254 00030 20208 39999 40306 50308 80005
BBXX SHIP 17123 99238 11258 41/98 /0620 10200 20135 40210 54000 70110 8//// 22254 00242 2//// 80160
BBXX DQVN 17123 99015 11045 41/97 /0516 10275 20245 40070 54000 70322 8//// 22243 00292 2//// 80253
BBXX MFLM9 17123 99320 31156 41397 11920 10210 20160 40098 53018 70100 81943 22200 04200 20802 318// 40504 80180
BBXX CFO383 17124 99439 70602 47998 /2906 10058 2101/ 40144 5//// 700// 8//// 22200 00082 10906 2//// 3//// 70029 80029 91013
BBXX 46239 17121 99363 71221 46/// ///// 1//// 91221 22200 00129 11504 20903 331// 41503 70022
BBXX 46242 17121 99332 71174 46/// ///// 1//// 91228 22200 00147 10701 20701 321// 41301 70006
BBXX 46221 17121 99339 71186 46/// ///// 1//// 91215 22200 00154 11301 21001 319// 41301 70006
BBXX 46214 17121 99379 71235 46/// ///// 1//// 91225 22200 00118 11504 20903 330// 41503 70021
BBXX 44039 17121 99411 70727 46/// /3006 10046 21011 40201 91230 22200 00099 10301 70004 333 91208
BBXX 46222 17121 99336 71183 46/// ///// 1//// 91226 22200 00153 11101 20701 326// 41101 70006
BBXX 46216 17121 99343 71198 46/// ///// 1//// 91227 22200 00147 11002 21001 326// 41301 70009
BBXX 46231 17121 99327 71174 46/// ///// 1//// 91224 22200 00144 11102 21002 328// 41101 70010
BBXX 46223 17121 99335 71178 46/// ///// 1//// 91230 22200 00151 11202 21001 326// 41201 70009
BBXX 41113 17121 99284 70805 46/// ///// 1//// 91221 22200 00217 11101 21001 310// 41101 70007
BBXX 41110 17121 99341 70777 46/// ///// 1//// 91221 22200 00141 11402 21001 310// 41401 70009
BBXX 46241 17121 99330 71173 46/// ///// 1//// 91211 22200 00141 11102 21001 327// 41101 70008
BBXX 46247 17121 99378 71228 46/// ///// 1//// 91221 22200 00113 11503 20802 328// 41502 70015
BBXX S6JT 17124 99538 71528 41698 82220 10040 20014 40020 52020 71922 888// 22225 04040 2//// 80030
BBXX 9VDD3 17124 99438 71475 41296 62515 10090 20050 40230 52010 7//11 85299 22214 00070 20102 32121 40102 50102 80070
BBXX SHIP 17124 99340 71413 41/97 22715 10200 20155 40234 54000 70200 82/// 22225 00182 2//// 80170
BBXX 41033 17121 99323 70804 46/// /2903 10147 40209 91200 555 11041 22047
BBXX 42085 17121 99179 70665 46/// /0306 10247 40163 91210 333 91207
BBXX 42085 17121 99179 70665 46/// /0405 10248 40167 91230 333 91207
BBXX 42085 17121 99179 70665 46/// /0306 10247 40165 91220 333 91207
BBXX 42360 17121 99267 70905 46/// /3605 10230 91200 22200 00245 10702 70008 333 91206
BBXX MINUK03 1712/ 99525 10046 46/// ///// 10073 40038 52019
BBXX MINUK04 1712/ 99555 10084 46/// ///// 10055 4//// 57012
BBXX DHSI 17124 99146 70173 41398 61211 10290 20099 40140 54000 70211 86645 22200 29901 80175
OOXX AABRI 17124 99839 51342 60134 05251 46/// /0505 11118 21201 39355 49997 52012 91230
AAXX 17124 42675 31996 03602 10200 20086 40148 70500 333 10242 59003
AAXX 17124 61766 32960 60608 10280 20205 30082 40124 80001 333 0//00 58007 86075
AAXX 17124 61769 31958 60404 10276 20100 3//// 4//// 70522 80001 333 0//00 5//// 86075
OOXX AAVIT 17124 99785 31778 57087 00501 46/// /0912 11079 21083 39864 49928 52008 91230
BBXX 46145 17121 99544 71324 46/// /2904 10066 40129 52010 22200 00070 11408 70040 333 91206
BBXX 46145 17121 99544 71324 46/// /2904 10066 40129 52010 22200 00070 11408 70040 333 91206
AAXX 17124 42559 32996 00000 10224 20115 40133 333 10248 59002
AAXX 17124 71014 16/// /1406 11067 21095 60001 333 10023 21075 70000
AAXX 17124 71904 16/// ///// 11077 21097 60001 333 10011 21114 70000
AAXX 17124 71674 16/// ///// 11055 21084 60001 333 10039 21056 70000
AAXX 17124 71857 16/// ///// 11103 21117 60001 333 10003 21116 70000
AAXX 17124 71346 16/// /2518 10051 21007 60001 333 10046 20008 70000
AAXX 17124 71360 16/// ///// 11087 21100 60001 333 10017 21093 70000
AAXX 17124 71380 16/// /2502 11019 21078 60001 333 10022 21076 70000
AAXX 17124 71481 16/// /1806 10003 21055 60001 333 10030 21028 70000
AAXX 17124 71498 16/// /2110 11031 21056 60001 333 11008 21068 70000
AAXX 17124 71413 16/// ///// 11097 21112 60001 333 10028 21097 70000
AAXX 17124 71414 16/// ///// 11059 21076 60001 333 10001 21093 70000
AAXX 17124 71440 16/// ///// 10011 21051 60001 333 10022 21065 70000
AAXX 17124 71540 16/// /1501 11117 21129 60001 333 11037 21129 70000
AAXX 17124 71544 16/// ///// 11013 21048 60001 333 10007 21040 70000
AAXX 17124 71548 16/// ///// 11039 21067 60001 333 10000 21056 7////
AAXX 17124 71055 46/// /0504 11228 21249 39754 40095 55000 6///1 333 11208 21244 7////
AAXX 17124 71065 16/// ///// 11085 21100 60001 333 10019 21107 70000
AAXX 1712/ 89327 46/// ///// 11023 39668 4//// 5//// 91220
AAXX 1712/ 89108 46/// ///// 11269 36935 4//// 5//// 91220
AAXX 1712/ 89872 46/// ///// 11125 39858 4//// 5//// 91220
AAXX 1712/ 89869 46/// ///// 11119 39845 4//// 5//// 91220
AAXX 1712/ 89866 46/// ///// 11054 39789 4//// 5//// 91220
AAXX 1712/ 89329 46/// ///// 11138 38793 4//// 5//// 91220
AAXX 1712/ 89799 46/// ///// 11249 4//// 5//// 91220
AAXX 1712/ 89332 46/// ///// 11103 39292 4//// 5//// 91220
AAXX 1712/ 89769 46/// ///// 11098 39874 4//// 5//// 91220
AAXX 1712/ 89314 46/// ///// 11149 38230 4//// 5//// 91220
AAXX 1712/ 89314 46/// ///// 11145 38231 4//// 5//// 91230
BBXX FLAO 1712/ 99764 70847 46/// ///// 11208 40037 57013
BBXX MQYA3 17123 99110 10853 41597 80317 10285 20244 40099 55010 70222 8/700 22273 20504 304// 40605 5//// 80255
AAXX 17124 89327 46/// /0000 11022 39637 49916 57001 91230
AAXX 17124 89329 46/// /0000 11118 38793 49879 52014 91230
AAXX 17124 89376 46/// /0704 11172 39867 49938 52014 91230
AAXX 17124 89734 46/// /3116 11168 36138 4//// 52007 91240
AAXX 17124 89744 46/// /2509 11122 36566 4//// 52004 91240
AAXX 17124 89769 46/// /0617 11100 39858 49912 52009 91230
AAXX 17124 89799 46/// /2105 11256 36736 4//// 52014 91230
AAXX 17124 89834 46/// /1816 11182 38178 4//// 52018 91240
AAXX 17124 89865 46/// ///// 1//// 3//// 4//// 5//// 91240
AAXX 17124 89866 46/// /2803 11055 39774 49909 52010 91240
AAXX 17124 89868 46/// /0803 11138 39853 49923 52011 91240
AAXX 17124 89869 46/// /1004 11120 39840 49921 52012 91240
AAXX 17124 89872 46/// /1704 11131 39854 49912 52006 91240
AAXX 17124 89879 46/// /0000 11018 39739 49776 52005 91240
AAXX 17124 88903 45/// /3220 10175 20075 39989 49989 58041 333 10177 20128
AAXX 17124 65501 42960 70202 10279 21053 39822 40138 80002 333 0//00 59013 87076
AAXX 17124 65502 32965 70804 10290 21109 39753 40132 80002 333 0//00 59012 87076
AAXX 17124 65503 31956 70608 10296 21013 39790 40134 70611 80002 333 0//00 58000 87076
AAXX 17124 65505 32965 70610 10305 21025 39791 40129 80002 333 0//00 59010 87076
AAXX 17124 65507 31945 71004 10301 21012 39769 40117 70622 80002 333 0//00 59017 87076
AAXX 17124 65510 32960 50206 10295 21040 39612 40123 80002 333 0//00 59005 85076
AAXX 17124 65516 32965 60404 10306 21053 39816 40122 80002 333 0//00 59009 86076
AAXX 17124 65518 32960 70808 10308 21031 39750 40111 80002 333 0//00 59009 87076
AAXX 17124 65522 32965 70406 10315 21029 39787 40114 80002 333 0//00 59011 87076
AAXX 17124 DUPE
AAXX 17124 65306 31950 51004 10315 20040 39793 40122 70522 80002 333 0//00 59007 85076
AAXX 17124 65319 31940 53404 10325 20066 39604 40114 70522 80002 333 0//00 59008 85076
AAXX 17124 65330 31908 50806 10320 20050 39672 40105 70544 80002 333 0//00 59003 85076
AAXX 17124 65335 31940 50802 10336 20142 39882 40104 70522 80002 333 0//00 59005 85076
AAXX 17124 65344 31425 51806 10307 20223 30099 40110 70622 81802 333 0//00 59001 81613 85076 94908 95838
AAXX 17124 DUPE DUPE
AAXX 17124 65338 31956 50406 10334 20161 39921 40107 70522 80002 333 0//00 59001 85076
AAXX 17124 DUPE
AAXX 17124 91844 46/// /9901 10252 40137 22200 00276
AAXX 17121 20292 31998 10206 11192 21225 30219 40240 52011 73630 81030 333 11172 91109
AAXX 17121 20046 41995 81311 11119 21132 30122 40155 53008 77173 8802/ 333 91124 92981
AAXX 17121 20069 32978 21105 11167 21192 30213 40227 58001 82030 333 11166
AAXX 17124 89807 46/// /1430 11012 29063 39777 4//// 5//// 91230 333 90700 91142
AAXX 17124 89807 46/// /1430 11012 29063 39777 4//// 5//// 91230 333 90700 91142
AAXX 1712/ 89828 46/// ///// 11306 36526 4//// 5//// 91220
AAXX 1712/ 89828 46/// ///// 11314 36527 4//// 5//// 91240
AAXX 1712/ 89799 46/// ///// 11253 4//// 5//// 91230
AAXX 1712/ 89799 46/// ///// 11256 4//// 5//// 91240
AAXX 1712/ 89108 46/// ///// 11263 36937 4//// 5//// 91240
AAXX 1712/ 89879 46/// ///// 11018 39751 4//// 5//// 91240
AAXX 1712/ 89872 46/// ///// 11131 39859 4//// 5//// 91240
AAXX 1712/ 89869 46/// ///// 11120 39847 4//// 5//// 91240
AAXX 1712/ 89866 46/// ///// 11055 39791 4//// 5//// 91240
AAXX 1712/ 89329 46/// ///// 11118 38795 4//// 5//// 91240
AAXX 1712/ 89868 46/// ///// 11138 39869 4//// 5//// 91240
AAXX 1712/ 89332 46/// ///// 11103 39292 4//// 5//// 91240
AAXX 1712/ 89769 46/// ///// 11100 39875 4//// 5//// 91240
AAXX 17124 89667 46/// /0403 11092 29082 39909 4//// 5//// 91240
BBXX 9VDD2 17124 99352 11301 41298 52620 10040 20/// 40270 5//// 7//55 84677 22254 00030 20208 39999 40306 50308 80005
BBXX S6JT 17124 99538 71528 41698 82220 10040 20014 40020 52020 71922 888// 22225 04040 2//// 80030
BBXX 46145 17121 99544 71324 46/// /2904 10066 40129 52010 22200 00070 11408 70040 333 91206
BBXX 9VDD3 17124 99438 71475 41296 62515 10090 20050 40230 52010 7//11 85299 22214 00070 20102 32121 40102 50102 80070
BBXX SHIP 17124 99340 71413 41/97 22715 10200 20155 40234 54000 70200 82/// 22225 00182 2//// 80170
BBXX VRBQ6 17124 99340 71413 41/97 22715 10200 20155 40234 54000 70200 82/// 22225 00182 2//// 80170
BBXX AMOUK08 17124 99501 70061 46/// ///// 10081 20035 30165 40167 52020 91150
BBXX 63110 17124 99595 10015 47698 /3327 10066 21023 49970 51018 700// 22200 10708 70042
BBXX 63106 17124 99610 10017 46/// /3223 10035 49960 51025 22200
BBXX 63105 17124 99610 10017 47598 ///// 10041 21016 49959 51025 700// 22200
BBXX AMOUK04 17124 99533 70062 46/// ///// 10072 20034 30096 4//// 57011 91150
BBXX ONFP 17124 99306 30487 41797 50519 10240 2020/ 40150 54000 70011 85444 22213 04218 20504 308// 4//// 5//// 6//// 80210 ICE /////
BBXX ONFP 17124 99306 30487 41797 50519 10240 2020/ 40150 54000 70011 85444 22213 04218 20504 308// 4//// 5//// 6//// 80210 ICE /////
BBXX MQYA3 17123 99110 10853 41597 80317 10285 20244 40099 55010 70222 8/700 22273 20504 304// 40605 5//// 80255
BBXX ZCBU3 17124 99341 31631 41297 81827 10145 20136 40154 56008 70382 887// 22224 00160 20406 318// 40405 5//// 80140
BBXX FLAO 1712/ 99764 70847 46/// ///// 11208 40037 57013
BBXX 46145 17121 99544 71324 46/// /2904 10066 40129 52010 22200 00070 11408 70040 333 91206
BBXX BSH02 17121 99542 10079 46/// ///// 22200 00081 20804 70018
BBXX BSH03 17121 99540 10081 46/// ///// 22200 00060 20804 70021
BBXX BSH05 17121 99550 10079 46/// ///// 22200 20704 70019
OOXX SEP63 17101 99594 10180 ///// 00401 26/// /2202 10007 29096 39800 91010 333 60000
OOXX SEP63 17101 99594 10180 ///// 00401 26/// /2303 10006 29096 39800 91020 333 60000
OOXX SEP63 17101 99594 10180 ///// 00401 26/// /2203 10006 29096 39800 91030 333 60000
OOXX SEP63 17101 99594 10180 ///// 00401 26/// /2303 10006 29096 39800 91040 333 60000
OOXX SEP63 17101 99594 10180 ///// 00401 26/// /2403 10006 29096 39800 91050 333 60000
OOXX SEP63 17111 99594 10180 ///// 00401 26/// /2204 10006 29096 39800 91100 333 60000
OOXX SEP63 17111 99594 10180 ///// 00401 26/// /2304 10007 29096 39790 91110 333 60000
OOXX SEP63 17111 99594 10180 ///// 00401 26/// /2204 10007 29096 39790 91120 333 60000
OOXX SEP63 17111 99594 10180 ///// 00401 26/// /2404 10007 29096 39790 91130 333 60000
OOXX SEP63 17111 99594 10180 ///// 00401 26/// /2304 10006 29096 39790 91140 333 60000
OOXX SEP63 17111 99594 10180 ///// 00401 26/// /2203 10006 29096 39790 91150 333 60000
OOXX SEP63 17121 99594 10180 ///// 00401 26/// /2203 10005 29097 39790 91200 333 60000
OOXX AUP09 17101 99124 31309 ///// 00321 26/// ///// 1//// 29/// 3//// 91014 333 6///0
OOXX AUP09 17101 99124 31309 ///// 00321 26/// ///// 1//// 29/// 3//// 91024 333 6///0
OOXX AUP09 17101 99124 31309 ///// 00321 26/// ///// 1//// 29/// 3//// 91034 333 6///0
OOXX AUP09 17101 99124 31309 ///// 00321 26/// ///// 1//// 29/// 3//// 91044 333 6///0
OOXX AUP09 17101 99124 31309 ///// 00321 26/// ///// 1//// 29/// 3//// 91054 333 6///0
OOXX AUP09 17111 99124 31309 ///// 00321 26/// ///// 1//// 29/// 3//// 91104 333 6///0
OOXX AUP09 17111 99124 31309 ///// 00321 26/// ///// 1//// 29/// 3//// 91114 333 6///0
OOXX AUP09 17111 99124 31309 ///// 00321 26/// ///// 1//// 29/// 3//// 91124 333 6///0
OOXX AUP09 17111 99124 31309 ///// 00321 26/// ///// 1//// 29/// 3//// 91134 333 6///0
OOXX AUP09 17111 99124 31309 ///// 00321 26/// ///// 1//// 29/// 3//// 91144 333 6///0
OOXX AUP09 17111 99124 31309 ///// 00321 26/// ///// 1//// 29/// 3//// 91154 333 6///0
OOXX AUP09 17121 99124 31309 ///// 00321 26/// ///// 1//// 29/// 3//// 91204 333 6///0
OOXX CAP17 17091 99476 70527 ///// 01331 26/// /0609 10022 29081 39893 90950 333 60000
OOXX CAP17 17101 99476 70527 ///// 01331 26/// /0608 10021 29081 39900 91000 333 60000
OOXX CAP17 17101 99476 70527 ///// 01331 26/// /0507 10020 29082 39904 91010 333 60000
OOXX CAP17 17101 99476 70527 ///// 01331 26/// /0507 10020 29083 39904 91020 333 60000
OOXX CAP17 17101 99476 70527 ///// 01331 26/// /0507 10018 29083 39903 91030 333 60000
OOXX CAP17 17101 99476 70527 ///// 01331 26/// /0408 10019 29083 39906 91040 333 60000
OOXX CAP17 17101 99476 70527 ///// 01331 26/// /0508 10019 29083 39907 91050 333 60000
OOXX CAP17 17111 99476 70527 ///// 01331 26/// /0508 10019 29085 39907 91100 333 60000
OOXX CAP17 17111 99476 70527 ///// 01331 26/// /0507 10020 29084 39910 91110 333 60000
OOXX CAP17 17111 99476 70527 ///// 01331 26/// /0608 10021 29083 39912 91120 333 60000
OOXX CAP17 17111 99476 70527 ///// 01331 26/// /0508 10020 29082 39915 91130 333 60000
OOXX CAP17 17111 99476 70527 ///// 01331 26/// /0507 10021 29082 39919 91140 333 60000
OOXX RUP60 17101 99531 11588 ///// 00651 26/// /3202 11074 29079 39815 91052 333 60000
OOXX RUP60 17111 99531 11588 ///// 00651 26/// /3202 11067 29077 39816 91102 333 60000
OOXX RUP60 17111 99531 11588 ///// 00651 26/// /3103 11063 29077 39818 91112 333 60000
OOXX RUP60 17111 99531 11588 ///// 00651 26/// /3203 11061 29076 39819 91122 333 60000
OOXX RUP60 17111 99531 11588 ///// 00651 26/// /3103 11057 29075 39820 91132 333 60000
OOXX RUP60 17111 99531 11588 ///// 00651 26/// /3203 11057 29075 39821 91142 333 60000
OOXX RUP60 17111 99531 11588 ///// 00651 26/// /3002 11061 29076 39820 91152 333 60000
OOXX RUP60 17121 99531 11588 ///// 00651 26/// /3303 11062 29075 39822 91202 333 60000
OOXX RUP60 17121 99531 11588 ///// 00651 26/// /3203 11063 29075 39822 91212 333 60000
OOXX RUP60 17121 99531 11588 ///// 00651 26/// /2805 11065 29075 39823 91222 333 60000
OOXX RUP60 17121 99531 11588 ///// 00651 26/// /2801 11066 29075 39825 91232 333 60000
OOXX RUP60 17121 99531 11588 ///// 00651 26/// /2901 11065 29076 39825 91242 333 60000
OOXX RUP54 17101 99586 10494 ///// 01271 26/// /0610 11051 29091 30125 91027 333 60120
OOXX RUP54 17101 99586 10494 ///// 01271 26/// /0410 11054 29091 30125 91037 333 60120
OOXX RUP54 17101 99586 10494 ///// 01271 26/// /0110 11055 29091 30126 91047 333 60120
OOXX RUP54 17101 99586 10494 ///// 01271 26/// /0910 11057 29091 30126 91057 333 60120
OOXX RUP54 17111 99586 10494 ///// 01271 26/// /2810 11058 29091 30127 91107 333 60120
OOXX RUP54 17111 99586 10494 ///// 01271 26/// /0310 11060 29091 30128 91117 333 60120
OOXX RUP54 17111 99586 10494 ///// 01271 26/// /2210 11062 29092 30128 91127 333 60120
OOXX RUP54 17111 99586 10494 ///// 01271 26/// /0810 11064 29092 30129 91137 333 60120
OOXX RUP54 17111 99586 10494 ///// 01271 26/// /3310 11065 29092 30129 91147 333 60120
OOXX RUP54 17111 99586 10494 ///// 01271 26/// /3310 11066 29092 30130 91157 333 60120
OOXX RUP54 17121 99586 10494 ///// 01271 26/// /0510 11067 29092 30130 91207 333 60120
OOXX RUP54 17121 99586 10494 ///// 01271 26/// /0610 11068 29092 30131 91217 333 60120
OOXX PTP53 17101 99377 70257 ///// 00121 26/// /2305 10177 29001 30266 91010 333 60000
OOXX PTP53 17101 99377 70257 ///// 00121 26/// /2306 10177 29001 30267 91020 333 60000
OOXX PTP53 17101 99377 70257 ///// 00121 26/// /2306 10178 29001 30268 91030 333 60000
OOXX PTP53 17101 99377 70257 ///// 00121 26/// /2406 10179 29001 30269 91040 333 60000
OOXX PTP53 17101 99377 70257 ///// 00121 26/// /2306 10180 29001 30270 91050 333 60000
OOXX PTP53 17111 99377 70257 ///// 00121 26/// /2406 10181 29001 30271 91100 333 60000
OOXX PTP53 17111 99377 70257 ///// 00121 26/// /2305 10182 29001 30271 91110 333 60000
OOXX PTP53 17111 99377 70257 ///// 00121 26/// /2405 10183 29001 30272 91120 333 60000
OOXX PTP53 17111 99377 70257 ///// 00121 26/// /2405 10183 29001 30273 91130 333 60000
OOXX PTP53 17111 99377 70257 ///// 00121 26/// /2405 10182 29001 30272 91140 333 60000
OOXX PTP53 17111 99377 70257 ///// 00121 26/// /2406 10183 29001 30272 91150 333 60000
OOXX PTP53 17121 99377 70257 ///// 00121 26/// /2405 10184 29001 30272 91200 333 60000
OOXX ISP34 17101 99641 70219 ///// 01301 26/// /2402 11014 29001 30021 91010 333 6///0
OOXX ISP34 17101 99641 70219 ///// 01301 26/// /2601 11013 29001 30023 91020 333 6///0
OOXX ISP34 17101 99641 70219 ///// 01301 26/// /3002 11008 29001 30023 91030 333 6///0
OOXX ISP34 17101 99641 70219 ///// 01301 26/// /2703 11008 29001 30022 91040 333 6///0
OOXX ISP34 17101 99641 70219 ///// 01301 26/// /2702 11011 29001 30021 91050 333 6///0
OOXX ISP34 17111 99641 70219 ///// 01301 26/// /2602 11014 29001 30022 91100 333 6///0
OOXX ISP34 17111 99641 70219 ///// 01301 26/// /2602 11014 29001 30023 91110 333 6///0
OOXX ISP34 17111 99641 70219 ///// 01301 26/// /1301 11014 29001 30025 91120 333 6///0
OOXX ISP34 17111 99641 70219 ///// 01301 26/// /1302 11012 29001 30024 91130 333 6///0
OOXX ISP34 17111 99641 70219 ///// 01301 26/// /1502 11014 29001 30024 91140 333 6///0
OOXX ISP34 17111 99641 70219 ///// 01301 26/// /1702 11018 29001 30025 91150 333 6///0
OOXX ISP34 17121 99641 70219 ///// 01301 26/// /2402 11018 29001 30026 91200 333 6///0
OOXX KIP39 17101 99020 51574 ///// 00181 26/// /1003 10259 29078 30109 91030 333 60000
OOXX KIP39 17101 99020 51574 ///// 00181 26/// /1004 10259 29079 30109 91040 333 60000
OOXX KIP39 17101 99020 51574 ///// 00181 26/// /1003 10258 29079 30107 91050 333 60000
OOXX KIP39 17111 99020 51574 ///// 00181 26/// /1104 10258 29080 30107 91100 333 60000
OOXX KIP39 17111 99020 51574 ///// 00181 26/// /1103 10258 29080 30107 91110 333 60000
OOXX KIP39 17111 99020 51574 ///// 00181 26/// /1104 10258 29079 30104 91120 333 60000
OOXX KIP39 17111 99020 51574 ///// 00181 26/// /1203 10257 29079 30103 91130 333 60000
OOXX KIP39 17111 99020 51574 ///// 00181 26/// /1203 10257 29080 30102 91140 333 60000
OOXX KIP39 17111 99020 51574 ///// 00181 26/// /1103 10257 29080 30102 91150 333 60000
OOXX KIP39 17121 99020 51574 ///// 00181 26/// /1103 10257 29080 30100 91200 333 60000
OOXX KIP39 17121 99020 51574 ///// 00181 26/// /1203 10256 29080 30099 91210 333 60000
OOXX KIP39 17121 99020 51574 ///// 00181 26/// /1103 10257 29081 30098 91220 333 60000
OOXX FRP31 17091 99052 70527 ///// 00091 26/// /1201 10232 29095 30181 90957 333 60000
OOXX FRP31 17101 99052 70527 ///// 00091 26/// /0901 10235 29095 30184 91007 333 60000
OOXX FRP31 17101 99052 70527 ///// 00091 26/// /1001 10240 29094 30188 91017 333 60000
OOXX FRP31 17101 99052 70527 ///// 00091 26/// /1101 10244 29093 30191 91027 333 60000
OOXX FRP31 17101 99052 70527 ///// 00091 26/// /0901 10250 29090 30191 91037 333 60000
OOXX FRP31 17101 99052 70527 ///// 00091 26/// /0902 10255 29087 30190 91047 333 60000
OOXX FRP31 17101 99052 70527 ///// 00091 26/// /1002 10259 29085 30189 91057 333 60000
OOXX FRP31 17111 99052 70527 ///// 00091 26/// /1003 10262 29083 30192 91107 333 60000
OOXX FRP31 17111 99052 70527 ///// 00091 26/// /0902 10267 29082 30189 91117 333 60000
OOXX FRP31 17111 99052 70527 ///// 00091 26/// /0902 10273 29078 30188 91127 333 60000
OOXX FRP31 17111 99052 70527 ///// 00091 26/// /0903 10277 29076 30190 91137 333 60000
OOXX FRP31 17111 99052 70527 ///// 00091 26/// /0802 10282 29075 30190 91147 333 60000
OOXX GBP68 17101 99371 50123 ///// 00641 26/// /3514 10101 29066 30081 91000 333 60000
OOXX GBP68 17101 99371 50123 ///// 00641 26/// /3513 10107 29067 30080 91010 333 60000
OOXX GBP68 17101 99371 50123 ///// 00641 26/// /3514 10106 29071 30079 91020 333 60000
OOXX GBP68 17101 99371 50123 ///// 00641 26/// /3514 10112 29070 30083 91030 333 60000
OOXX GBP68 17101 99371 50123 ///// 00641 26/// /3514 10110 29065 30082 91040 333 60000
OOXX GBP68 17101 99371 50123 ///// 00641 26/// /3514 10112 29067 30083 91050 333 60000
OOXX GBP68 17111 99371 50123 ///// 00641 26/// /3512 10112 29071 30087 91100 333 60000
OOXX GBP68 17111 99371 50123 ///// 00641 26/// /3513 10115 29067 30084 91110 333 60000
OOXX GBP68 17111 99371 50123 ///// 00641 26/// /3512 10117 29069 30086 91120 333 60000
OOXX GBP68 17111 99371 50123 ///// 00641 26/// /3512 10110 29071 30086 91130 333 60000
OOXX GBP68 17111 99371 50123 ///// 00641 26/// /3512 10107 29075 30084 91140 333 60000
OOXX GBP68 17111 99371 50123 ///// 00641 26/// /3513 10089 29077 30088 91150 333 60000
OOXX RUP59 17101 99539 10848 ///// 02121 26/// /0000 11229 29077 30115 91040 333 60000
OOXX RUP59 17101 99539 10848 ///// 02121 26/// /0000 11233 29076 30115 91050 333 60000
OOXX RUP59 17111 99539 10848 ///// 02121 26/// /0000 11235 29077 30117 91100 333 60000
OOXX RUP59 17111 99539 10848 ///// 02121 26/// /0000 11238 29077 30114 91110 333 60000
OOXX RUP59 17111 99539 10848 ///// 02121 26/// /0000 11238 29078 30113 91120 333 60000
OOXX RUP59 17111 99539 10848 ///// 02121 26/// /0000 11242 29076 30113 91130 333 60000
OOXX RUP59 17111 99539 10848 ///// 02121 26/// /0000 11243 29076 30114 91140 333 60000
OOXX RUP59 17111 99539 10848 ///// 02121 26/// /0000 11247 29075 30113 91150 333 60000
OOXX RUP59 17121 99539 10848 ///// 02121 26/// /0000 11250 29075 30115 91200 333 60000
OOXX RUP59 17121 99539 10848 ///// 02121 26/// /0000 11247 29076 30113 91210 333 60000
OOXX RUP59 17121 99539 10848 ///// 02121 26/// /0000 11248 29075 30115 91220 333 60000
OOXX RUP59 17121 99539 10848 ///// 02121 26/// /0000 11250 29075 30115 91230 333 60000
OOXX ARP01 17101 99345 50585 ///// 00311 26/// /2001 10071 29040 30084 91010 333 60000
OOXX ARP01 17101 99345 50585 ///// 00311 26/// /2302 10072 29040 30085 91020 333 60000
OOXX ARP01 17101 99345 50585 ///// 00311 26/// /2001 10074 29040 30085 91030 333 60000
OOXX ARP01 17101 99345 50585 ///// 00311 26/// /2002 10074 29040 30087 91040 333 60000
OOXX ARP01 17101 99345 50585 ///// 00311 26/// /2002 10073 29040 30087 91050 333 60000
OOXX ARP01 17111 99345 50585 ///// 00311 26/// /2301 10074 29040 30088 91100 333 60000
OOXX ARP01 17111 99345 50585 ///// 00311 26/// /2001 10074 29040 30088 91110 333 60000
OOXX ARP01 17111 99345 50585 ///// 00311 26/// /2301 10075 29040 30088 91120 333 60000
OOXX ARP01 17111 99345 50585 ///// 00311 26/// /2001 10077 29040 30088 91130 333 60000
OOXX ARP01 17111 99345 50585 ///// 00311 26/// /2002 10077 29039 30088 91140 333 60000
OOXX ARP01 17111 99345 50585 ///// 00311 26/// /1801 10080 29039 30089 91150 333 60000
OOXX ARP01 17121 99345 50585 ///// 00311 26/// /2301 10079 29039 30089 91200 333 60000
OOXX FJP26 17101 99178 31775 ///// 00311 26/// /1302 10257 29085 30097 91010 333 60000
OOXX FJP26 17101 99178 31775 ///// 00311 26/// /1302 10254 29086 30097 91020 333 60000
OOXX FJP26 17101 99178 31775 ///// 00311 26/// /1202 10252 29088 30097 91030 333 60000
OOXX FJP26 17101 99178 31775 ///// 00311 26/// /1202 10250 29088 30097 91040 333 60000
OOXX FJP26 17101 99178 31775 ///// 00311 26/// /1101 10249 29088 30096 91050 333 60000
OOXX FJP26 17111 99178 31775 ///// 00311 26/// /1302 10248 29088 30095 91100 333 60000
OOXX FJP26 17111 99178 31775 ///// 00311 26/// /1302 10247 29088 30092 91110 333 60000
OOXX FJP26 17111 99178 31775 ///// 00311 26/// /1402 10247 29087 30090 91120 333 60000
OOXX FJP26 17111 99178 31775 ///// 00311 26/// /1402 10246 29087 30090 91130 333 60000
OOXX FJP26 17111 99178 31775 ///// 00311 26/// /1402 10246 29087 30088 91140 333 60000
OOXX FJP26 17111 99178 31775 ///// 00311 26/// /1302 10245 29087 30087 91150 333 60000
OOXX FJP26 17121 99178 31775 ///// 00311 26/// /1302 10244 29087 30085 91200 333 60000
OOXX AUP07 17101 99/// ///// ///// ///// 26/// /2508 10044 29076 30163 91049 333 60000
OOXX AUP07 17101 99/// ///// ///// ///// 26/// /2508 10046 29078 30162 91059 333 60000
OOXX AUP07 17111 99/// ///// ///// ///// 26/// /2408 10045 29075 30163 91109 333 60000
OOXX AUP07 17111 99/// ///// ///// ///// 26/// /2509 10045 29072 30161 91119 333 60000
OOXX AUP07 17111 99/// ///// ///// ///// 26/// /2410 10045 29072 30161 91129 333 60000
OOXX AUP07 17111 99/// ///// ///// ///// 26/// /2409 10045 29074 30160 91139 333 60000
OOXX AUP07 17111 99/// ///// ///// ///// 26/// /2409 10045 29072 30159 91149 333 60000
OOXX AUP07 17111 99/// ///// ///// ///// 26/// /2409 10046 29074 30159 91159 333 60000
OOXX AUP07 17121 99/// ///// ///// ///// 26/// /2408 10047 29075 30159 91209 333 60000
OOXX AUP07 17121 99/// ///// ///// ///// 26/// /2508 10048 29076 30157 91219 333 60000
OOXX AUP07 17121 99/// ///// ///// ///// 26/// /2507 10049 29078 30157 91229 333 60000
OOXX AUP07 17121 99/// ///// ///// ///// 26/// /2507 10050 29079 30155 91239 333 60000
OOXX GBP67 17101 99159 50057 ///// 04381 26/// /0803 10179 29076 39695 91010 333 60000
OOXX GBP67 17101 99159 50057 ///// 04381 26/// /0903 10186 29076 39693 91020 333 60000
OOXX GBP67 17101 99159 50057 ///// 04381 26/// /0903 10179 29077 39694 91030 333 60000
OOXX GBP67 17101 99159 50057 ///// 04381 26/// /1003 10178 29076 39695 91040 333 60000
OOXX GBP67 17101 99159 50057 ///// 04381 26/// /0703 10177 29084 39693 91050 333 60000
OOXX GBP67 17111 99159 50057 ///// 04381 26/// /0503 10167 29091 39693 91100 333 60000
OOXX GBP67 17111 99159 50057 ///// 04381 26/// /0504 10164 29091 39693 91110 333 60000
OOXX GBP67 17111 99159 50057 ///// 04381 26/// /0703 10165 29088 39690 91120 333 60000
OOXX GBP67 17111 99159 50057 ///// 04381 26/// /0603 10167 29084 39690 91130 333 60000
OOXX GBP67 17111 99159 50057 ///// 04381 26/// /0503 10174 29082 39690 91140 333 60000
OOXX GBP67 17111 99159 50057 ///// 04381 26/// /0803 10179 29076 39687 91150 333 60000
OOXX GBP67 17121 99159 50057 ///// 04381 26/// /0803 10187 29072 39687 91200 333 60000
OOXX MRP43 17101 99181 70159 ///// 00101 26/// /0606 10236 29012 30188 91040 333 60000
OOXX MRP43 17101 99181 70159 ///// 00101 26/// /0506 10238 29012 30186 91050 333 60000
OOXX MRP43 17111 99181 70159 ///// 00101 26/// /0506 10241 29012 30185 91100 333 60000
OOXX MRP43 17111 99181 70159 ///// 00101 26/// /0506 10243 29012 30182 91110 333 60000
OOXX MRP43 17111 99181 70159 ///// 00101 26/// /0507 10244 29012 30181 91120 333 60000
OOXX MRP43 17111 99181 70159 ///// 00101 26/// /0507 10246 29012 30179 91130 333 60000
OOXX MRP43 17111 99181 70159 ///// 00101 26/// /0507 10248 29012 30175 91140 333 60000
OOXX MRP43 17111 99181 70159 ///// 00101 26/// /0606 10253 29012 30173 91150 333 60000
OOXX MRP43 17121 99181 70159 ///// 00101 26/// /0507 10257 29011 30171 91200 333 60000
OOXX MRP43 17121 99181 70159 ///// 00101 26/// /0507 10262 29011 30168 91210 333 60000
OOXX MRP43 17121 99181 70159 ///// 00101 26/// /0607 10265 29011 30168 91220 333 60000
OOXX MRP43 17121 99181 70159 ///// 00101 26/// /0606 10273 29010 30168 91230 333 60000
OOXX AUP06 17101 99192 31468 ///// 00071 26/// /1110 10269 29064 30117 91052 333 60000
OOXX AUP06 17111 99192 31468 ///// 00071 26/// /1109 10268 29063 30118 91102 333 60000
OOXX AUP06 17111 99192 31468 ///// 00071 26/// /1107 10269 29062 30119 91112 333 60000
OOXX AUP06 17111 99192 31468 ///// 00071 26/// /1108 10266 29065 30119 91122 333 60000
OOXX AUP06 17111 99192 31468 ///// 00071 26/// /1206 10264 29066 30119 91132 333 60000
OOXX AUP06 17111 99192 31468 ///// 00071 26/// /1106 10264 29065 30121 91142 333 60000
OOXX AUP06 17111 99192 31468 ///// 00071 26/// /1108 10264 29066 30122 91152 333 60000
OOXX AUP06 17121 99192 31468 ///// 00071 26/// /1107 10262 29067 30123 91202 333 60000
OOXX AUP06 17121 99192 31468 ///// 00071 26/// /1107 10261 29069 30124 91212 333 60000
OOXX AUP06 17121 99192 31468 ///// 00071 26/// /1207 10261 29068 30125 91222 333 60000
OOXX AUP06 17121 99192 31468 ///// 00071 26/// /1306 10260 29068 30125 91232 333 60000
OOXX AUP06 17121 99192 31468 ///// 00071 26/// /1205 10259 29069 30124 91242 333 60000
OOXX CAP14 17101 99487 71234 ///// 00431 26/// /0000 10050 29090 30210 91020 333 60000
OOXX CAP14 17101 99487 71234 ///// 00431 26/// /2701 10054 29089 30210 91030 333 60000
OOXX CAP14 17101 99487 71234 ///// 00431 26/// /3001 10057 29090 30209 91040 333 60000
OOXX CAP14 17101 99487 71234 ///// 00431 26/// /0000 10055 29089 30209 91050 333 60000
OOXX CAP14 17111 99487 71234 ///// 00431 26/// /0000 10055 29089 30206 91100 333 60000
OOXX CAP14 17111 99487 71234 ///// 00431 26/// /0000 10058 29089 30204 91110 333 60000
OOXX CAP14 17111 99487 71234 ///// 00431 26/// /0000 10059 29089 30204 91120 333 60000
OOXX CAP14 17111 99487 71234 ///// 00431 26/// /0000 10058 29089 30202 91130 333 60000
OOXX CAP14 17111 99487 71234 ///// 00431 26/// /0000 10060 29089 30200 91140 333 60000
OOXX CAP14 17111 99487 71234 ///// 00431 26/// /0000 10061 29089 30200 91150 333 60000
OOXX CAP14 17121 99487 71234 ///// 00431 26/// /0000 10059 29088 30199 91200 333 60000
OOXX CAP14 17121 99487 71234 ///// 00431 26/// /0000 10058 29088 30197 91210 333 60000
AAXX 17121 20667 41998 81504 11073 21082 30141 40148 52011 70272 8805/
AAXX 17124 91559 46/// /0000 10251 40093 22200 00292
AAXX 17124 71824 46/// /2502 11245 21268 6///1 333 11027 21258 7////
AAXX 17124 71429 16/// /2805 11088 21136 30125 40145 51021 60001 333 10046 21097 70010
AAXX 17124 71734 16/// /2303 11212 21241 39851 40265 51004 60001 333 11027 21213 70000
AAXX 17124 71619 16/// /2907 11098 21155 30099 40159 51021 60001 333 10036 21098 70010
AAXX 17124 71727 11574 43010 11152 21193 30019 40224 52022 69901 70277 84500 333 10047 21155 48024 70020 90932
AAXX 17124 71727 11574 43010 11152 21193 30019 40224 52022 69901 70277 84500 333 10047 21155 48024 70020 90932
AAXX 17121 01089 41584 51503 11029 21034 39880 49987 51005 70222 85500 333 91110
AAXX 17123 64406 32565 51802 10310 20223 39/// 40/// 85200 333 0//00 5//// 85823 94919 95839
AAXX 17124 91531 46/// /0704 1//// 40078 22200 00268
AAXX 17124 40435 32960 00604 10224 21050 39117 40150 333 58009
AAXX 1712/ 89332 46/// ///// 11103 39292 4//// 5//// 91230
AAXX 17124 62600 32970 03612 10245 20065 39950 40162 59015
AAXX 17124 62640 32970 00903 10280 20110 39740 40092 58005
AAXX 17124 62641 31962 00216 10264 20174 30080 40128 70700 333 59011
AAXX 17124 62650 32970 70903 10253 20027 39858 40127 80007 333 56009 59022 87275
AAXX 17124 62660 32970 73604 10270 20015 39833 40130 80007 333 56009 59007 87275
AAXX 17124 62680 31968 73404 10293 20135 39703 40090 70622 80007 333 56009 59015 87275
AAXX 17124 62721 32970 73209 10285 20035 39664 40098 80007 333 56009 59006 87275
AAXX 17124 62730 32970 02702 10340 20070 39565 40111 59005
AAXX 17124 62733 32970 00504 10320 20120 39585 40078 59002
AAXX 17124 62750 32970 73607 10300 20060 39652 40071 80007 333 56009 59011 87275
AAXX 17124 62751 32970 73306 10310 20070 39644 40093 80007 333 56009 59000 87275
AAXX 17124 62752 32970 70203 10350 20100 39408 40055 80007 333 56009 59005 87275
AAXX 17124 62760 32970 70506 10255 20000 39289 40092 80007 333 56009 59015 87275
AAXX 17124 62762 32970 73406 10310 20095 39604 40065 80007 333 56009 59005 87275
AAXX 17124 71016 16/// ///// 10054 60001 333 10045 20027 70003
AAXX 17124 71758 16/// /2909 11008 21052 30056 40133 51023 60001 333 10090 21008 70021
AAXX 17124 71550 16/// /2614 11059 21094 39780 40162 53012 60001 333 11028 21059 4/001 70000
BBXX 44039 17121 99411 70727 46/// /3006 10046 21011 40201 91230 22200 00099 10301 70004 333 91208
AAXX 17121 01424 11780 7//// 11016 21032 39930 49933 52001 69921 70222 87400
AAXX 17124 91642 46/// /0000 1//// 40088 22200 0////
BBXX 44056 17121 99362 70757 46/// ///// 1//// 91220 22200 00124 11403 20402 309// 41401 70013
AAXX 17124 62770 32970 70703 10275 21035 39172 40097 80007 333 56009 59012 87275
AAXX 17124 62771 32970 73307 10275 20025 39470 40105 80007 333 56009 58009 87275
AAXX 17124 62772 32970 70207 10298 20062 39670 40093 80007 333 56009 58009 87275
AAXX 17124 62781 32970 70602 10290 20040 39482 40102 80007 333 56009 58000 87275
AAXX 17124 62790 32970 70408 10270 20000 39397 40112 80007 333 5600/ 59006 87275
AAXX 17124 62795 32970 72002 10335 20085 39579 40064 80007 333 56009 59006 87275
AAXX 17124 62809 32970 70507 10298 20033 39591 40091 80007 333 5600/ 59006 87275
AAXX 17124 62770 32970 70703 10275 21035 39172 40097 80007 333 56009 59012 87275
AAXX 17124 62771 32970 73307 10275 20025 39470 40105 80007 333 56009 58009 87275
AAXX 17124 62772 32970 70207 10298 20062 39670 40093 80007 333 56009 58009 87275
AAXX 17124 62781 32970 70602 10290 20040 39482 40102 80007 333 56009 58000 87275
AAXX 17124 62790 32970 70408 10270 20000 39397 40112 80007 333 5600/ 59006 87275
AAXX 17124 62795 32970 72002 10335 20085 39579 40064 80007 333 56009 59006 87275
AAXX 17124 62809 32970 70507 10298 20033 39591 40091 80007 333 5600/ 59006 87275
BBXX 42085 17121 99179 70665 46/// /0404 10246 40161 91200 22200 00280 10602 70009 333 91206
BBXX 46109 17121 99481 71234 46/// /2002 10041 40262 91157 22200 00079
BBXX 46110 17121 99481 71230 46/// /1602 10053 40258 91158
AAXX 17121 59158 32660 23401 10154 20097 30120 40223 52015 82500
AAXX 17121 59562 32564 73601 10182 20121 30233 40245 51017 878//
AAXX 17121 59567 32460 80208 10179 20137 39844 40227 53017 885//
AAXX 17121 58968 31559 81004 10151 20113 30253 40261 53007 71022 885//
AAXX 17121 58974 32565 80511 10152 20077 30147 40274 52011 885//
AAXX 17121 59358 31950 70105 10162 20113 30198 40230 52015 70511 8702/
AAXX 17121 59559 32568 30308 10195 20135 30184 40213 51016 82102
AAXX 17121 59792 32460 80409 10208 20170 30205 40210 52016 8542/
AAXX 17121 59997 11458 80606 10260 20255 30089 40097 52020 60072 78088 8382/
BBXX 44055 17121 99391 70753 46/// ///// 1//// 91230 22200 00090 10301 70004
BBXX 42044 17121 99262 70971 46/// /3004 10152 20141 40260 91230 22200 00181 333 91210
BBXX 42044 17121 99262 70971 46/// /3004 10153 20143 40257 52009 91200 22200 00181 333 91210
AAXX 17121 23472 11496 81804 11195 21221 30273 40326 57020 69992 78587 889// 333 11194
BBXX 46094 17121 99446 71243 46/// /0203 10089 91150
BBXX 46094 17121 99446 71243 46/// /0303 10087 91140
BBXX 46094 17121 99446 71243 46/// /1001 10087 91230
BBXX 46094 17121 99446 71243 46/// /0802 10086 91220
BBXX 46094 17121 99446 71243 46/// /0502 10086 91210
BBXX 46094 17121 99446 71243 46/// /0302 10087 91200
BBXX 42046 17121 99279 70940 46/// /0408 1//// 40262 91230 22200 00226 333 91210
BBXX 42046 17121 99279 70940 46/// /0308 1//// 40261 53013 91200 22200 00226 333 91210
BBXX 42047 17121 99279 70936 46/// /0408 10168 20162 40260 91230 22200 00228 333 91209
BBXX 42047 17121 99279 70936 46/// /0408 10166 20160 40255 53010 91200 22200 00228 333 91209
AAXX 17124 89108 46/// /0108 11262 36933 4//// 52013 91240
AAXX 17124 89314 46/// /0806 11141 38228 4//// 52011 91240
AAXX 17124 89332 46/// /0405 11102 39292 49918 52010 91240
AAXX 17124 89667 46/// /0403 11092 39909 49919 52008 91240
AAXX 17124 89828 46/// /2704 11314 36497 4//// 52010 91240
AAXX 17124 89832 46/// /1518 11062 39616 49915 52014 91240
AAXX 17124 89873 46/// /0203 11121 39855 49935 52018 91230
BBXX PCHM 17124 99329 31619 41/97 /1827 10180 20136 40164 52003 70222 8//// 22264 00200 20206 321// 40306 80155
BBXX A8PX4 17124 99409 70098 41798 53615 10134 20039 40290 50010 70111 85101 22284 00160 29905 333// 41008 80087
BBXX MINFR00 1712/ 99390 70740 46/// ///// 10045 40205 52012
AAXX 17124 71026 46/// /2309 11027 21054 39324 40191 6///1 333 21060 4/003 7////
AAXX 17124 71514 16/// /2903 11115 21134 39499 40219 51004 60001 333 11030 21128 55/// 20000 70000
BBXX ZIPR7 17123 99080 30076 41497 72426 10232 20214 40122 54000 7//// 8444/ 22244 04257 20303 323// 40504 5//// 80220
BBXX TBWUK17 17123 99124 30940 41598 50916 10270 20267 40107 52010 70111 83460 22253 04280 20101 314// 40604 5//// 80268
BBXX ONDY 17124 99177 30113 41697 31728 10180 2013/ 40120 58010 70211 834// 22244 00166 2//// 3//// 4//// 5//// 6//// 80150
BBXX JPAT 17124 99228 31002 41598 71513 10224 20147 40135 52009 70322 8749/ 22200 00235 10803 21020 314// 40603 5//// 6////
BBXX TBWUK42 17124 99267 30103 41898 61410 10198 20131 40162 58020 70011 85/6/ 22233 20302 40604 5//// 80156
BBXX AMOUK01 17124 99474 30083 46/// ///// 10062 20034 39914 49919 57005 91150
AAXX 17121 10544 01/02 92907 11020 21020 38929 48315 51018 60011 78687 333 48013 55300 69947 91118 91212 96049 96288
BBXX ONFP 17124 99306 30487 41797 50519 10240 2020/ 40150 54000 70011 85444 22213 04218 20504 308// 4//// 5//// 6//// 80210
AAXX 17124 92036 46/// /3103 10291 40080 22200 00315
BBXX 42047 17121 99279 70936 46/// /0408 10166 20160 40255 53010 91200 22200 00228 333 91209
BBXX 42046 17121 99279 70940 46/// /0308 1//// 40261 53013 91200 22200 00226 333 91210
BBXX 42046 17121 99279 70940 46/// /0408 1//// 40262 91230 22200 00226 333 91210
BBXX 42047 17121 99279 70936 46/// /0408 10168 20162 40260 91230 22200 00228 333 91209
BBXX 46094 17121 99446 71243 46/// /1001 10087 91230
BBXX 46094 17121 99446 71243 46/// /0502 10086 91210
BBXX 46094 17121 99446 71243 46/// /0302 10087 91200
BBXX 46094 17121 99446 71243 46/// /0802 10086 91220
BBXX 46094 17121 99446 71243 46/// /0303 10087 91140
BBXX 46094 17121 99446 71243 46/// /0203 10089 91150
BBXX 44055 17121 99391 70753 46/// ///// 1//// 91230 22200 00090 10301 70004
BBXX 42044 17121 99262 70971 46/// /3004 10152 20141 40260 91230 22200 00181 333 91210
BBXX 42044 17121 99262 70971 46/// /3004 10153 20143 40257 52009 91200 22200 00181 333 91210
BBXX 46109 17121 99481 71234 46/// /2002 10041 40262 91157 22200 00079
BBXX 46110 17121 99481 71230 46/// /1602 10053 40258 91158
BBXX 42085 17121 99179 70665 46/// /0404 10246 40161 91200 22200 00280 10602 70009 333 91206
BBXX 44056 17121 99362 70757 46/// ///// 1//// 91220 22200 00124 11403 20402 309// 41401 70013
BBXX PCHM 17124 99329 31619 41/97 /1827 10180 20136 40164 52003 70222 8//// 22264 00200 20206 321// 40306 80155
BBXX 66022 17121 99541 10142 46/// /2914 10049 39850 22200 00042
BBXX AMOUK04 17124 99533 70062 46/// ///// 10072 20034 30096 4//// 57011 91150
BBXX 63106 17124 99610 10017 46/// /3223 10035 49960 51025 22200
BBXX 63113 17124 99610 10017 46/// /3328 10035 21010 49963 52027 22200 10809 70046
BBXX 62107 17124 99501 70061 46/// /3226 10084 20016 40169 51015 22200 00114 10908 70038 333 90710 91136
BBXX 63110 17123 99595 10015 41597 73435 10069 49970 70222 8/8// 22200 10709 70045
AAXX 17124 93713 46/// /0000 10124 40092 22200 00165
AAXX 17121 10430 01040 72404 10027 20021 39820 40013 51020 60031 72687 872// 333 31/// 55300 20106 30106 60017 81801 83806 85813 96284 96283 96487 96485 96477
AAXX 17123 63661 12580 63412 10225 20130 48500 69901 86200 333 59007 86823
AAXX 17123 63708 11570 73318 10190 20163 48463 60031 79592 8397/ 333 59003 81922 83623 86358
AAXX 17121 31801 11997 82001 11187 21199 39945 40188 52001 69950 77172 80007 333 11165
AAXX 17124 91689 46/// /0404 10265 40114 22200 00284
AAXX 17121 08521 32470 60305 10194 20103 30259 40330 50006 86800 333 83816 84630
AAXX 17121 08521 32470 60305 10194 20103 30259 40330 50006 86800 333 83816 84630 555 50004 60007
AAXX 17121 37514 42699 80000 10062 21050 39030 40181 57003 88500
BBXX AMOUK04 17124 99533 70062 46/// ///// 10072 20034 30096 4//// 57011 91150
BBXX A8PX4 17124 99409 70098 41798 53615 10134 20039 40290 50010 70111 85101 22284 00160 29905 333// 41008 80087
BBXX A8JH8 17124 99361 70026 41597 42829 10190 20159 40210 57030 70200 83940 22224 20503 330// 40703
BBXX DDBR2 17124 99380 10174 41598 62922 10164 20043 40055 55000 70222 84548 22211 20403 322// 40603 5//// 80107
BBXX ZNQO3 17120 99358 10167 41297 72514 10198 20132 40095 57022 70200 85760 22264 04191 20706 325// 40804 5//// 80160
BBXX A8AC5 17124 99338 10296 41598 32112 10190 20124 40160 54000 70211 81132 22233 04180 2//02 32700 40704 5//// 80150
BBXX A8PX4 17124 99409 70098 41798 53615 10134 20039 40290 50010 70111 85101 22284 00160 29905 333// 41008 80087
BBXX MINFR00 1712/ 99390 70740 46/// ///// 10045 40205 52012
BBXX VRVB5 17124 99340 70759 41398 80418 10171 20145 40173 51007 70201 87080 22214 00250 20303 3//// 4//// 80145 NNNN
BBXX 42013 17121 99272 70829 46/// ///// 1//// 40223 91220 22200 00200
BBXX 42013 17121 99272 70829 46/// ///// 1//// 40223 53011 91200 22200 00200
BBXX AMOUK08 17124 99501 70061 46/// ///// 10081 20035 30165 40167 52020 91150
BBXX 63110 17124 99595 10015 47698 /3327 10066 21023 49970 51018 700// 22200 10708 70042
BBXX 63106 17124 99610 10017 46/// /3223 10035 49960 51025 22200
BBXX 63105 17124 99610 10017 47598 ///// 10041 21016 49959 51025 700// 22200
BBXX C6TH9 17123 99165 51517 41397 22207 10240 2021/ 40140 54/// 7//11 82/6/ 22200 00260 2////
BBXX MINFR05 1712/ 99497 70057 46/// ///// 10080 40174 52024
BBXX 42013 17121 99272 70829 46/// ///// 1//// 40223 91220 22200 00200
BBXX 42013 17121 99272 70829 46/// ///// 1//// 40223 53011 91200 22200 00200
BBXX VRVB5 17124 99340 70759 41398 80418 10171 20145 40173 51007 70201 87080 22214 00250 20303 3//// 4//// 80145 NNNN
BBXX A8JX9 17123 99544 71610 41/97 /2033 10060 20027 49810 57100 70065 8//// 22263 29912 326// 4//10 5//// 80045
AAXX 17124 43533 12460 70708 10289 20240 30081 40084 60002 82242 333 10314 58000 82817 86362
AAXX 17124 43555 11458 70714 10287 20239 30082 40085 60002 70522 82236 333 10301 59002 82818 87275
AAXX 17124 43577 11462 73604 10278 20246 30080 40082 69912 70282 82278 333 10303 59009 82818 87276
AAXX 17124 43588 12465 73607 10275 20246 30075 40077 69902 8223/ 333 10306 59009 82818 87362
AAXX 17124 43599 12462 73408 10296 20252 30082 40084 60002 8495/ 333 10312 59009 83817 81918 86361
AAXX 17124 43400 NIL
AAXX 17124 43404 22470 7//// 10268 20251 30094 40104 8427/ 333 00020 10289 58004 60007 84818 86458
AAXX 17124 43410 NIL
AAXX 17124 43413 22470 50513 10272 20237 30092 40096 85101 333 00023 10291 58004 60007 82716 83818
AAXX 17124 43415 22470 80501 10260 20240 39992 40100 84170 333 00018 10306 58006 60007 84818 85460
AAXX 17124 43418 21470 70205 10260 20237 3//// 4//// 70161 83236 333 10296 5//// 60057 83818 84360
AAXX 17124 43421 22470 80201 10262 20233 39992 40094 84130 333 00020 10297 58007 60007 84818 86460
AAXX 17124 43422 22469 805// 10264 20229 39966 40096 84106 333 00021 10300 58007 60007 84818 88280
AAXX 17124 43424 22477 83605 10278 20237 30078 40081 8417/ 333 00021 10304 58005 60007 84816 85458
AAXX 17124 43436 21470 60507 10276 20235 30087 40091 70282 83232 333 01023 10294 58006 69927 83818 85360
AAXX 17124 43441 21470 805// 10270 20253 39955 40084 78022 8692/ 333 10310 58013 69987 83716 84818 81920 87460
AAXX 17124 43444 21470 80901 10254 20219 39563 40093 78082 85121 333 10290 58006 69907 85816 87460
AAXX 17124 43467 22466 33410 10294 20242 30070 40075 82101 333 00022 10326 58000 60007 82816
AAXX 17124 43473 21360 70504 10170 20145 38119 48482 78022 8412/ 333 00005 10199 58004 69907 84810 87460
AAXX 17124 43475 21465 73103 10248 20236 30084 40091 72582 8597/ 333 10302 58001 60017 82712 84818 82920 87460
AAXX 17124 43476 21450 80502 10190 20174 38765 48509 76222 8522/ 333 10231 58001 69967 85811 88459
AAXX 17124 43479 21430 80000 10212 20200 39252 78088 8677/ 333 10242 59004 60037 85715 87450
AAXX 17124 43486 21360 60503 10288 20239 39980 40074 72581 84970 333 00022 10/// 59001 69906 83808 81916 85356
AAXX 17124 43495 22468 7//// 10290 20253 30065 40081 82136 333 10302 59001 60007 82818 83358 86278
AAXX 17124 43497 22476 70505 10298 20262 30048 40065 8227/ 333 10338 59005 60007 82818 85360
AAXX 17124 43466 22470 30503 10288 20241 30064 40076 80002 333 00021 10316 58002 60007 83080
AAXX 17124 43533 12460 70708 10289 20240 30081 40084 60002 82242 333 10314 58000 82817 86362
AAXX 17124 43555 11458 70714 10287 20239 30082 40085 60002 70522 82236 333 10301 59002 82818 87275
AAXX 17124 43577 11462 73604 10278 20246 30080 40082 69912 70282 82278 333 10303 59009 82818 87276
AAXX 17124 43588 12465 73607 10275 20246 30075 40077 69902 8223/ 333 10306 59009 82818 87362
AAXX 17124 43599 12462 73408 10296 20252 30082 40084 60002 8495/ 333 10312 59009 83817 81918 86361
AAXX 17124 78615 32982 60000 10210 20204 30056 40195 53006 86050 333 10280 20190 30/// 56090 58034 86359
AAXX 17124 78627 32482 81606 10136 20118 38185 53005 885// 333 10246 20135 30/// 562// 58015 70026 88615
AAXX 17124 78637 11482 80000 10218 20209 30162 40178 53010 60051 70165 8352/ 333 10284 20198 32/// 5629/ 58026 70050 83616 86458
AAXX 17124 78641 32482 73618 10136 20126 38565 40170 53006 82505 333 10248 20134 30/// 56809 58017 82614 85070
AAXX 17124 78647 32982 10000 10200 20197 30129 40136 53007 80001 333 10316 20198 30/// 56009 58009 81070
AAXX 17124 78615 32982 60000 10210 20204 30056 40195 53006 86050 333 10280 20190 30/// 56090 58034 86359
AAXX 17124 78627 32482 81606 10136 20118 38185 53005 885// 333 10246 20135 30/// 562// 58015 70026 88615
AAXX 17124 78637 11482 80000 10218 20209 30162 40178 53010 60051 70165 8352/ 333 10284 20198 32/// 5629/ 58026 70050 83616 86458
AAXX 17124 78641 32482 73618 10136 20126 38565 40170 53006 82505 333 10248 20134 30/// 56809 58017 82614 85070
AAXX 17124 78647 32982 10000 10200 20197 30129 40136 53007 80001 333 10316 20198 30/// 56009 58009 81070
AAXX 17124 64507 32460 3//// 10308 20242 3//// 40/// 83200 333 0//00 5//// 83813 94919 95839
AAXX 17124 78615 32982 60000 10210 20204 30056 40195 53006 86050 333 10280 20190 30/// 56090 58034 86359
AAXX 17124 78627 32482 81606 10136 20118 38185 53005 885// 333 10246 20135 30/// 562// 58015 70026 88615
AAXX 17124 78637 11482 80000 10218 20209 30162 40178 53010 60051 70165 8352/ 333 10284 20198 32/// 5629/ 58026 70050 83616 86458
AAXX 17124 78641 32482 73618 10136 20126 38565 40170 53006 82505 333 10248 20134 30/// 56809 58017 82614 85070
AAXX 17124 78647 32982 10000 10200 20197 30129 40136 53007 80001 333 10316 20198 30/// 56009 58009 81070
AAXX 17124 62600 32970 03612 10245 20065 39950 40162 59015
AAXX 17124 62640 32970 00903 10280 20110 39740 40092 58005
AAXX 17124 62641 31962 00216 10264 20174 30080 40128 70700 59011
AAXX 17124 62650 32970 70903 10253 20027 39858 40127 80007 56009 59022 87275
AAXX 17124 62660 32970 73604 10270 20015 39833 40130 80007 56009 59007 87275
AAXX 17124 62680 31968 73404 10293 20135 39703 40090 70622 80007 56009 59015 87275
AAXX 17124 62721 32970 73209 10285 20035 39664 40098 80007 56009 59006 87275
AAXX 17124 62730 32970 02702 10340 20070 39565 40111 59005
AAXX 17124 62733 32970 00504 10320 20120 39585 40078 59002
AAXX 17124 62750 32970 73607 10300 20060 39652 40071 80007 56009 59011 87275
AAXX 17124 62751 32970 73306 10310 20070 39644 40093 80007 56009 59000 87275
AAXX 17124 62752 32970 70203 10350 20100 39408 40055 80007 56009 59005 87275
AAXX 17124 62760 32970 70506 10255 20000 39289 40092 80007 56009 59015 87275
AAXX 17124 62762 32970 73406 10310 20095 39604 40065 80007 56009 59005 87275
AAXX 17121 29282 32977 00000 11278 21303 30241 40433 53005 333 11254
AAXX 17121 98132 31462 80408 10210 20168 40235 53018 70544 8427/ 333 10232 56199 58007 84816 88357
AAXX 17121 98133 31460 80407 10/// 20/// 40178 5//// 71544 8457/ 333 10/// 56199 58015 84718 88360
AAXX 17121 98222 31575 10402 10253 20186 40116 53015 70544 81200 333 10308 56999 59010 81820
AAXX 17121 98233 31570 83601 10222 20202 40151 52020 70544 885// 333 10265 56999 58014 88620
AAXX 17121 98324 31462 71404 10290 20256 40094 53016 70544 82270 333 10322 56299 59011 82816 87358
AAXX 17121 98327 31660 80405 10283 20206 39948 40123 53022 70544 8347/ 333 10308 56999 58008 83636 88360
AAXX 17121 98334 11460 81803 10240 20226 39938 40142 52013 60031 72582 8327/ 8327/ 333 58014 83817 88357
AAXX 17121 98425 11458 80202 10255 20235 40106 52015 60041 76166 8487/ 333 10310 56999 59002 84618 88459
AAXX 17121 98426 11565 70705 10269 20212 40110 52020 69901 70584 82170 333 10322 56999 59005 82820 87358
AAXX 17121 98427 11460 80206 10240 20229 39920 40099 53009 60191 76166 8352/ 333 10270 56199 59005 83618 88456
AAXX 17121 98428 11458 80402 10253 20242 40103 52015 60061 76086 8357/ 333 10289 56999 59003 83618 88359
AAXX 17121 98432 11462 80403 10249 20237 40108 52016 60031 76064 8362/ 333 10285 56199 58004 83618 88456
AAXX 17121 98433 11/00 90909 10212 20203 39387 40110 53012 60151 76164 89/// 333 10230 56999 59003 89///
AAXX 17121 98434 11458 83602 10240 20238 30121 40129 52026 60581 76166 8552/ 333 10265 56199 58016 85616 88456
AAXX 17121 98435 11467 80406 10252 20234 40115 5//// 60151 72566 8427/ 333 10280 56999 58005 84817 88358
AAXX 17121 98442 NIL
AAXX 17121 98446 11462 80903 10254 20246 30057 40103 52003 60191 71562 84207 333 10278 56199 58003 84818 88270
AAXX 17121 98447 11460 80706 10230 20222 39845 40110 5//// 60201 76066 8482/ 333 56199 58000 84816 88456
AAXX 17121 98538 31464 80404 10270 20246 30080 40085 53018 71542 83267 333 10281 56229 58015 83811 84357 88272
AAXX 17121 98546 11570 80901 10258 20246 30093 40101 52015 69941 70282 83207 333 10282 56999 58003 83820 88275
AAXX 17121 98548 11465 20000 10262 20247 30080 40086 51006 60011 70161 82200 333 10264 56199 59003 82815
AAXX 17121 98553 11458 82702 10250 20245 30090 40094 53016 60031 60031 78084 8397/ 333 10272 56999 58000 83915 88358
AAXX 17121 98558 31466 70711 10265 20252 40093 52015 70242 82570 333 10270 56999 58013 82615 87357
AAXX 17121 98642 11462 70000 10260 20247 30066 40075 52019 60941 71522 85270 333 10292 56199 58000 85815 87358
AAXX 17121 98644 31465 60402 10277 20251 30071 40080 53023 70144 81268 333 10324 56199 58009 81817 86272
AAXX 17121 98648 31470 20901 10264 20240 39999 40081 52017 70544 82200 333 10290 56999 58008 82817
AAXX 17121 98746 11460 82502 10270 20230 40101 52026 60031 70584 8497/ 333 10333 56999 59008 84918 88358
AAXX 17121 98751 11465 60000 10230 20220 39413 40085 52013 60081 71398 83970 333 10300 56999 58028 83915 83356
AAXX 17121 98752 11462 21804 10274 20248 40084 52012 69901 70198 82200 333 10334 56999 58017 82818
AAXX 17121 98851 11460 83602 10258 20234 39931 40079 53036 69901 76062 8362/ 333 10332 56999 58012 83615 88457
AAXX 1712/ 89327 46/// ///// 11023 39668 4//// 5//// 91220
AAXX 1712/ 89108 46/// ///// 11269 36935 4//// 5//// 91220
AAXX 1712/ 89872 46/// ///// 11125 39858 4//// 5//// 91220
AAXX 1712/ 89869 46/// ///// 11119 39845 4//// 5//// 91220
AAXX 1712/ 89866 46/// ///// 11054 39789 4//// 5//// 91220
AAXX 1712/ 89329 46/// ///// 11138 38793 4//// 5//// 91220
AAXX 1712/ 89799 46/// ///// 11249 4//// 5//// 91220
AAXX 1712/ 89332 46/// ///// 11103 39292 4//// 5//// 91220
AAXX 1712/ 89769 46/// ///// 11098 39874 4//// 5//// 91220
AAXX 1712/ 89314 46/// ///// 11149 38230 4//// 5//// 91220
AAXX 1712/ 89314 46/// ///// 11145 38231 4//// 5//// 91230
AAXX 1712/ 89868 46/// ///// 11131 39866 4//// 5////
BBXX 42369 17121 99272 70903 46/// /0205 1//// 91140 22200 10502 70008
BBXX 42370 17121 99273 70905 46/// ///// 10220 91140 22200 10504 70018
BBXX 42376 17121 99291 70879 46/// /3407 10195 40237 91140 22200 10302 70009
BBXX 42392 17121 99272 70900 46/// ///// 1//// 91140 22200 10602 70009
BBXX 42887 17121 99282 70885 46/// /0105 1//// 91140 22200 10602 70010
AAXX 17124 96001 31456 80914 10264 20252 39946 40088 51011 70522 84572 333 10292 56200 59005 84619
BBXX 42887 17121 99282 70885 46/// /0105 1//// 91140 22200 10602 70010
BBXX 42369 17121 99272 70903 46/// /0205 1//// 91140 22200 10502 70008
BBXX 42392 17121 99272 70900 46/// ///// 1//// 91140 22200 10602 70009
BBXX 42376 17121 99291 70879 46/// /3407 10195 40237 91140 22200 10302 70009
BBXX 42370 17121 99273 70905 46/// ///// 10220 91140 22200 10504 70018
BBXX C6TH9 17123 99165 51517 41397 22207 10240 2021/ 40140 54/// 7//11 82/6/ 22200 00260 2////
BBXX MINFR05 1712/ 99497 70057 46/// ///// 10080 40174 52024
BBXX DGZS2 17123 99350 11290 41998 03222 10/// 20/// 40280 51/// 70200 80000 22200 00140 20401
BBXX A8PB2 17123 99059 10844 41698 60110 10270 20243 40030 52015 72582 83468 22264 04290 2//02 80250
BBXX AUYK 17124 99122 11101 44197 63604 10250 20236 4//// 54000 70200 84000 22212 00268 2//08
AAXX 17124 96615 01456 80000 10256 20244 30078 40092 52012 60061 70262 8332/ 333 10318 56009 57901 57803 58010 60067 81915 82812 88461 80958 80856
BBXX MINFR05 1712/ 99497 70057 46/// ///// 10080 40174 52024
AAXX 17124 62770 32970 70703 10275 21035 39172 40097 80007 56009 59012 87275
AAXX 17124 62771 32970 73307 10275 20025 39470 40105 80007 56009 58009 87275
AAXX 17124 62772 32970 70207 10298 20062 39670 40093 80007 56009 5L8009 87275
AAXX 17124 62781 32970 70602 10290 20040 39482 40102 80007 56009 58000 87275
AAXX 17124 62790 32970 70408 10270 20000 39397 40112 80007 5600 59006 87275
AAXX 17124 62795 32970 72002 10335 20085 39579 40064 80007 56009 59006 87275
AAXX 17124 62809 32970 70507 10298 20033 39591 40091 80007 5600 59006 87275
BBXX 63106 17124 99610 10017 46/// /3223 10035 49960 51025 22200
BBXX 63113 17124 99610 10017 46/// /3328 10035 21010 49963 52027 22200 10809 70046
BBXX 62107 17124 99501 70061 46/// /3226 10084 20016 40169 51015 22200 00114 10908 70038 333 90710 91136
BBXX 63110 17123 99595 10015 41597 73435 10069 49970 70222 8/8// 22200 10709 70045
AAXX 17124 42701 31995 03203 10178 20067 39406 40143 70500 333 10234 58000
AAXX 17124 42798 31995 00000 10120 20114 40135 70500 333 10249 58004
BBXX A8JX9 17123 99544 71610 41/97 /2033 10060 20027 49810 57100 70065 8//// 22263 29912 326// 4//10 5//// 80045
AAXX 17124 84782 31965 00505 10202 20130 39647 40153 702000 333 20161 58010
AAXX 17124 84401 31960 30000 10210 20164 30104 40149 70222 8303/ 333 20210 5600/ 58010 83360
AAXX 17124 84452 31660 81904 10198 20177 30122 40153 70222 8257/ 333 20185 5600/ 58022 82640 86360
AAXX 17124 84752 32960 00000 10148 20059 37542 70100 333 20090 58016
AAXX 17124 84691 31456 12104 10195 20176 30138 40145 71044 81600 333 20142 560// 58007 81715
AAXX 17124 84686 31865 80000 10094 20058 36880 70222 83037 333 20076 56099 59002 83360 88273
AAXX 17124 84735 31960 0//// 10070 20012 36447 702// 333 20006 58001
AAXX 17124 84673 21650 83102 10120 20111 37359 71044 82530 333 20100 56990 58014 60104 82640 87360
AAXX 17124 84658 31562 80000 10256 20243 39851 40077 702// 885// 333 20240 560// 58003 82616 84630 82656
AAXX 17124 84377 31258 82704 10242 20230 39989 40094 70222 86730 333 20228 5600/ 59002 60014 86706 86360
AAXX 17124 84501 31112 81506 10176 20161 30118 40145 71022 886// 333 20176 56000 58011 88703
AAXX 17124 84688 31965 00000 10051 20009 36671 700// 333 20021 58013
AAXX 17124 84425 31360 83603 10240 20220 39923 40141 702// 8263/ 333 5689/ 58007 82709 86360
AAXX 17124 84720 31960 30000 10220 20172 39526 40194 201// 80001 333 20170 56009 58006 83070
AAXX 17124 84515 31460 69901 10250 20236 39926 40103 70122 8353/ 333 20224 5699/ 59007 83615 83357
AAXX 17124 84455 31460 80000 10232 20210 39810 40162 70221 8353/ 333 20220 5600/ 58010 83620 86360
AAXX 17124 84628 34458 81806 10192 20179 30130 40146 70222 886// 333 20191 564// 58006 83710 88715
AAXX 17124 84472 21560 89902 10100 20092 37418 7015/ 887// 333 20102 56900 58011 60104 83730 88640
AAXX 17124 84370 21960 69902 10230 20195 30098 40132 702// 86030 333 20201 56000 58006 69964 86360
BBXX AUYK 17124 99122 11101 44197 63604 10250 20236 4//// 54000 70200 84000 22212 00268 2//08
BBXX A8PB2 17123 99059 10844 41698 60110 10270 20243 40030 52015 72582 83468 22264 04290 2//02 80250
BBXX DGZS2 17123 99350 11290 41998 03222 10/// 20/// 40280 51/// 70200 80000 22200 00140 20401
BBXX MVQP8 17124 99292 70946 41397 60121 10115 20095 40292 52021 70122 83111 22200 00120 20203 336// 40203 5//// 80105
AAXX 17124 89266 46/// /3206 11040 21057 39706 49844 52026 91210
AAXX 17124 89272 46/// /3525 11130 21155 38013 49650 52027 91210
AAXX 17124 89257 46/// /0504 11025 21051 39751 49820 52014 91210
AAXX 17124 71245 46/// /2224 11040 21064 6///1 333 11048 21068 7////
AAXX 17124 71249 16/// /1911 11022 21069 60001 333 10003 21101 7////
AAXX 17124 71245 46/// /2224 11040 21064 6///1 333 11048 21068 7////
AAXX 17124 71249 16/// /1911 11022 21069 60001 333 10003 21101 7////
AAXX 17124 63714 32580 70000 10212 20141 48483 879// 333 58005 81922 87823
AAXX 17124 89013 46/// /0717 11179 21210 37639 49651 52002 91200
AAXX 17124 89065 46/// /3613 11022 21091 39851 49929 52053 91200
AAXX 17124 89257 46/// /0505 11026 21059 39750 49819 52013 91200
AAXX 17124 89262 46/// /2326 11004 21055 39852 49895 52041 91200
AAXX 17124 89266 46/// /3205 11034 21060 39705 49843 52025 91200
AAXX 17124 89272 46/// /3524 11129 21153 38013 49650 52027 91200
AAXX 17124 91375 46/// /0608 10278 40087 22200 00283
BBXX DGZS2 17123 99350 11290 41998 03222 10/// 20/// 40280 51/// 70200 80000 22200 00140 20401
BBXX 42369 17121 99272 70903 46/// /0206 1//// 91200 22200 10502 70008
BBXX 42370 17121 99273 70905 46/// ///// 10220 91200 22200 10504 70018
AAXX 17124 67009 32580 62612 10300 20243 39961 40079 57016 86200 333 0//00 86820 555 10316
BBXX 42376 17121 99291 70879 46/// /3408 10191 40241 53019 91200 22200 10302 70009
BBXX 42392 17121 99272 70900 46/// ///// 1//// 91200 22200 10602 70008
BBXX 42887 17121 99282 70885 46/// /0105 1//// 91200 22200 10602 70009
AAXX 17124 91165 12566 60313 10222 20189 30162 40196 56008 60021 91153
AAXX 17124 91203 32469 51006 10297 20252 30120 40125 51014 82271
AAXX 17124 91212 12566 40807 10261 20244 31390 40124 51010 69981 91154
AAXX 17124 91245 32566 20609 10270 20230 30171 91155
AAXX 17124 91285 32666 62303 10183 20139 30165 40177 58014 91153
AAXX 17124 91317 11474 81306 10278 20263 30104 40108 5//// 60011 70382 83902
AAXX 17124 91334 32474 60510 10284 20239 30091 40094 51008 82171
AAXX 17124 91348 11474 80405 10269 20254 30044 40097 58003 60131 72582 8527/
AAXX 17124 91356 11464 80811 10283 20238 30076 40083 55003 60151 70286 8622/
AAXX 17124 91376 32474 40812 10279 20230 30085 40088 58003 82101
AAXX 17124 91408 31474 60910 10272 20250 30058 40096 52017 70282 83271
AAXX 17124 91413 32469 70810 10280 20231 30085 40110 52017 82131
AAXX 17124 91610 11599 30809 10283 20234 40068 53008 60001 70200 82108
AAXX 17124 91155 NIL
AAXX 17124 91217 NIL
AAXX 17124 91232 NIL
AAXX 17124 91250 NIL
AAXX 17124 91275 NIL
AAXX 17124 91324 NIL
AAXX 17124 91339 NIL
AAXX 17124 91353 NIL
AAXX 17124 91366 NIL
AAXX 17124 91367 NIL
AAXX 17124 91369 NIL
AAXX 17124 91371 NIL
AAXX 17124 91378 NIL
AAXX 17124 91425 NIL
AAXX 17124 91434 NIL
AAXX 17124 91601 NIL
AAXX 17124 89065 46/// /3613 11022 21091 39851 49929 52053 91200
BBXX AMOUK08 17124 99501 70061 46/// ///// 10081 20035 30165 40167 52020 91150
BBXX 63110 17124 99595 10015 47698 /3327 10066 21023 49970 51018 700// 22200 10708 70042
BBXX 63106 17124 99610 10017 46/// /3223 10035 49960 51025 22200
BBXX 63105 17124 99610 10017 47598 ///// 10041 21016 49959 51025 700// 22200
AAXX 17124 91165 12566 60313 10222 20189 30162 40196 56008 60021 91153
AAXX 17124 91212 12566 40807 10261 20244 31390 40124 51010 69981 91154
AAXX 17124 91285 32666 62303 10183 20139 30165 40177 58014 91153
AAXX 17124 91317 11474 81306 10278 20263 30104 40108 5//// 60011 70382 83902
AAXX 17124 91334 32474 60510 10284 20239 30091 40094 51008 82171
AAXX 17124 91348 11474 80405 10269 20254 30044 40097 58003 60131 72582 8527/
AAXX 17124 91356 11464 80811 10283 20238 30076 40083 55003 60151 70286 8622/
AAXX 17124 91376 32474 40812 10279 20230 30085 40088 58003 82101
AAXX 17124 91408 31474 60910 10272 20250 30058 40096 52017 70282 83271
AAXX 17124 91413 32469 70810 10280 20231 30085 40110 52017 82131
AAXX 17124 91245 32566 20609 10270 20230 30171 91155
BBXX 42376 17121 99291 70879 46/// /3408 10191 40241 53019 91200 22200 10302 70009
BBXX 42392 17121 99272 70900 46/// ///// 1//// 91200 22200 10602 70008
BBXX 42887 17121 99282 70885 46/// /0105 1//// 91200 22200 10602 70009
BBXX 42369 17121 99272 70903 46/// /0206 1//// 91200 22200 10502 70008
BBXX 42370 17121 99273 70905 46/// ///// 10220 91200 22200 10504 70018
AAXX 17124 71301 16/// ///// 11217 21232 39842 40264 50003 60001 333 11028 21217 4/005 70003
AAXX 17124 71934 11362 81503 11151 21174 39856 40120 58022 69901 77177 885// 333 11100 21206 47020 79999 90983
AAXX 17124 71425 16/// /3120 11082 21137 30114 40151 51017 60001 333 10057 21086 70020
AAXX 17124 71428 16/// /2915 11092 21145 30167 40173 53020 60001 333 10046 21094 70000
AAXX 17124 71386 16/// /3005 11108 21152 39956 40167 51010 60001 333 10046 21109 70030
AAXX 1712/ 68902 46/// ///// 40085 52006
AAXX 17124 71934 11362 81503 11151 21174 39856 40120 58022 69901 77177 885// 333 11100 21206 47020 79999 90983
AAXX 17124 71454 16/// /3002 11109 21127 39468 40173 51001 60001 333 11033 21112 55/// 20000 70000
BBXX C6VG8 17124 99351 70748 41/97 73328 10120 2//// 40170 52010 7//22 873// 22214 00250 20204 314// 40306 5//// 6//// 8//// ICE /////
BBXX 63106 17124 99610 10017 46/// /3223 10035 49960 51025 22200
BBXX 63113 17124 99610 10017 46/// /3328 10035 21010 49963 52027 22200 10809 70046
BBXX 62107 17124 99501 70061 46/// /3226 10084 20016 40169 51015 22200 00114 10908 70038 333 90710 91136
BBXX 63110 17123 99595 10015 41597 73435 10069 49970 70222 8/8// 22200 10709 70045
BBXX DDJG2 17124 99393 70268 41/98 62212 10185 20145 40320 53010 70311 83076 22264 04170 20502 327// 40804 80160
BBXX 42045 17121 99262 70965 46/// /0407 10186 40249 91230 22200 00219 333 91210
BBXX 42045 17121 99262 70965 46/// /0408 10186 40244 52009 91200 22200 00219 333 91210
BBXX DDJG2 17124 99393 70268 41/98 62212 10185 20145 40320 53010 70311 83076 22264 04170 20502 327// 40804 80160
BBXX SKEC 17121 99625 10200 46/// ///// 10021 49897 57013 22235 00053
BBXX 42369 17121 99272 70903 46/// /0206 1//// 91220 22200 10502 70008
BBXX 42370 17121 99273 70905 46/// ///// 10220 91220 22200 10504 70018
BBXX 42376 17121 99291 70879 46/// /3408 10191 40241 91220 22200 10302 70009
BBXX 42392 17121 99272 70900 46/// ///// 1//// 91220 22200 10602 70008
BBXX 42887 17121 99282 70885 46/// /0205 1//// 91220 22200 10602 70010
BBXX SKEC 17121 99625 10200 46/// ///// 10021 49897 57013 22235 00053
BBXX DDJG2 17124 99393 70268 41/98 62212 10185 20145 40320 53010 70311 83076 22264 04170 20502 327// 40804 80160
BBXX 42376 17121 99291 70879 46/// /3408 10191 40241 91220 22200 10302 70009
BBXX 42369 17121 99272 70903 46/// /0206 1//// 91220 22200 10502 70008
BBXX 42370 17121 99273 70905 46/// ///// 10220 91220 22200 10504 70018
BBXX 42887 17121 99282 70885 46/// /0205 1//// 91220 22200 10602 70010
BBXX 42392 17121 99272 70900 46/// ///// 1//// 91220 22200 10602 70008
BBXX 42045 17121 99262 70965 46/// /0408 10186 40244 52009 91200 22200 00219 333 91210
BBXX 42045 17121 99262 70965 46/// /0407 10186 40249 91230 22200 00219 333 91210
BBXX C6VG8 17124 99351 70748 41/97 73328 10120 2//// 40170 52010 7//22 873// 22214 00250 20204 314// 40306 5//// 6//// 8//// ICE /////
AAXX 17124 89272 46/// /3525 11132 21154 38018 49657 52028 91240
AAXX 17124 89266 46/// /2908 11017 21061 39709 49846 52023 91240
AAXX 17124 89257 46/// /9902 11021 21059 39754 49823 52015 91240
BBXX ZCDQ5 17123 99368 10192 43498 62640 10150 20130 40130 54000 70200 8634/ 22274 00132 20303 80140
AAXX 17121 31054 12999 00000 11391 21417 39942 40255 52007 69922 333 11342
AAXX 17121 24671 32999 03601 11455 21476 39681 40282 52002 333 11446
AAXX 17121 31137 32999 50000 11386 21407 39128 40317 52009 80005 333 11330
BBXX ZCDQ5 17123 99368 10192 43498 62640 10150 20130 40130 54000 70200 8634/ 22274 00132 20303 80140
BBXX AMOUK08 17124 99501 70061 46/// ///// 10081 20035 30165 40167 52020 91150
BBXX 63110 17124 99595 10015 47698 /3327 10066 21023 49970 51018 700// 22200 10708 70042
BBXX 63106 17124 99610 10017 46/// /3223 10035 49960 51025 22200
BBXX 63105 17124 99610 10017 47598 ///// 10041 21016 49959 51025 700// 22200
BBXX ZCDQ5 17123 99368 10192 43498 62640 10150 20130 40130 54000 70200 8634/ 22274 00132 20303 80140
BBXX ONFW 17124 99352 11198 41197 23109 10030 20006 40330 52/// 70200 82/7/ 22200 04120 20202 3//// 4//// 5//// 6//// 80020 ICE /////
BBXX ONFW 17124 99352 11198 41197 23109 10030 20006 40330 52/// 70200 82/7/ 22200 04120 20202 3//// 4//// 5//// 6//// 80020 ICE /////
AAXX 17121 30627 32999 02302 11232 21257 39437 40461 57003 333 11211
BBXX A8CI9 17124 99192 10395 41497 50410 10265 20217 40142 52008 70311 84771 22234 04291 20201 80231
BBXX 63106 17124 99610 10017 46/// /3223 10035 49960 51025 22200
BBXX 63113 17124 99610 10017 46/// /3328 10035 21010 49963 52027 22200 10809 70046
BBXX 62107 17124 99501 70061 46/// /3226 10084 20016 40169 51015 22200 00114 10908 70038 333 90710 91136
BBXX 63110 17123 99595 10015 41597 73435 10069 49970 70222 8/8// 22200 10709 70045
AAXX 17124 97406 31460 60000 10258 20246 30023 40059 52009 71322 84931 333 10320 56000 57901 57801 59002 81917 83818 80975 80860
AAXX 17124 42492 31994 02704 10134 20111 40163 71000 333 10144 58006
AAXX 17124 42587 31995 00000 10176 20073 40153 70500 333 10254 59003
AAXX 17124 42591 31994 03202 10158 20125 40160 71000 333 10189 58003
BBXX A8CI9 17124 99192 10395 41497 50410 10265 20217 40142 52008 70311 84771 22234 04291 20201 80231
BBXX AMOUK08 17124 99501 70061 46/// ///// 10081 20035 30165 40167 52020 91150
BBXX 63110 17124 99595 10015 47698 /3327 10066 21023 49970 51018 700// 22200 10708 70042
BBXX 63106 17124 99610 10017 46/// /3223 10035 49960 51025 22200
BBXX 63105 17124 99610 10017 47598 ///// 10041 21016 49959 51025 700// 22200
AAXX 17121 24329 11998 80000 11293 21317 39906 40238 52014 69922 70271 85017 333 11241
AAXX 17121 30781 32999 20000 11278 21297 39773 40298 52014 80001 333 11191
BBXX MINFR03 1712/ 99104 30631 46/// ///// 10308 40071 57008
BBXX MINFR03 1712/ 99104 30631 46/// ///// 10308 40071 57008
AAXX 17121 25932 32999 80608 11099 21164 30028 40067 52010 8805/ 333 11079 91115
BBXX MINFR03 1712/ 99104 30631 46/// ///// 10308 40071 57008
AAXX 17121 31534 12999 00000 11262 21281 39833 40210 52007 69920 333 11179
AAXX 17121 31474 32998 00000 11354 21390 39697 40245 52008 333 11250
AAXX 17121 31754 11997 80000 11200 21233 39647 40182 52002 69900 77172 80007 333 11170
AAXX 17121 45007 12650 51403 10158 20086 30231 40240 53014 60002 81531 333 10181 58003 81645 83080
AAXX 17121 45007 12650 51403 10158 20086 30231 40240 53014 60002 81531 333 10181 58003 81645 83080
AAXX 17121 31174 32999 00901 11241 21248 30112 40125 52008 333 11147
BBXX 63106 17124 99610 10017 46/// /3223 10035 49960 51025 22200
BBXX 63113 17124 99610 10017 46/// /3328 10035 21010 49963 52027 22200 10809 70046
BBXX 62107 17124 99501 70061 46/// /3226 10084 20016 40169 51015 22200 00114 10908 70038 333 90710 91136
BBXX 63110 17123 99595 10015 41597 73435 10069 49970 70222 8/8// 22200 10709 70045
AAXX 17120 44284 12899 20201 11266 21290 37897 40596 53003 69902 82040 333 11165 555 93100
BBXX A8CI9 17124 99192 10395 41497 50410 10265 20217 40142 52008 70311 84771 22234 04291 20201 80231
BBXX DUPE
BBXX AMOUK08 17124 99501 70061 46/// ///// 10081 20035 30165 40167 52020 91150
BBXX 63110 17124 99595 10015 47698 /3327 10066 21023 49970 51018 700// 22200 10708 70042
BBXX 63106 17124 99610 10017 46/// /3223 10035 49960 51025 22200
BBXX 63105 17124 99610 10017 47598 ///// 10041 21016 49959 51025 700// 22200
BBXX A8VL8 17124 99085 30817 41596 80208 10270 20197 40090 52/// 7//// 87940 22213 0//// 20302 323// 40302 5//// 6//// 80220 ICE /////
BBXX A8VL8 17124 99085 30817 41596 80208 10270 20197 40090 52/// 7//// 87940 22213 0//// 20302 323// 40302 5//// 6//// 80220 ICE /////
BBXX 63106 17124 99610 10017 46/// /3223 10035 49960 51025 22200
BBXX 63113 17124 99610 10017 46/// /3328 10035 21010 49963 52027 22200 10809 70046
BBXX 62107 17124 99501 70061 46/// /3226 10084 20016 40169 51015 22200 00114 10908 70038 333 90710 91136
BBXX 63110 17123 99595 10015 41597 73435 10069 49970 70222 8/8// 22200 10709 70045
BBXX A8VL8 17124 99085 30817 41596 80208 10270 20197 40090 52/// 7//// 87940 22213 0//// 20302 323// 40302 5//// 6//// 80220
AAXX 17124 71935 12874 71305 11175 21206 39869 40084 57028 60001 87010 333 11093 21207 44012 79999
AAXX 17124 71935 12874 71305 11175 21206 39869 40084 57028 60001 87010 333 11093 21207 44012 79999
BBXX AMOUK08 17124 99501 70061 46/// ///// 10081 20035 30165 40167 52020 91150
BBXX 63110 17124 99595 10015 47698 /3327 10066 21023 49970 51018 700// 22200 10708 70042
BBXX 63106 17124 99610 10017 46/// /3223 10035 49960 51025 22200
BBXX 63105 17124 99610 10017 47598 ///// 10041 21016 49959 51025 700// 22200
BBXX UBAU 17121 99157 70170 41698 40000 10270 40162 57005 70111 84701 22241 04234 20100
AAXX 17124 71710 16/// /3215 11040 21091 30128 40138 51026 60001 333 10078 21042 70060
AAXX 17124 71382 16/// /0205 11177 21201 39209 40193 53014 60001 333 10022 21177 70010
AAXX 17121 29570 118// 80000 11191 21203 30087 40468 53006 69902 77171 8802/ 333 11161
AAXX 17124 71382 16/// /0205 11177 21201 39209 40193 53014 60001 333 10022 21177 70010
AAXX 17124 71710 16/// /3215 11040 21091 30128 40138 51026 60001 333 10078 21042 70060
AAXX 17124 71363 16/// /3219 11307 21340 39988 40045 56009 60001 333 11265 21310 70000
AAXX 17124 71363 16/// /3219 11307 21340 39988 40045 56009 60001 333 11265 21310 70000
BBXX 63106 17124 99610 10017 46/// /3223 10035 49960 51025 22200
BBXX 63113 17124 99610 10017 46/// /3328 10035 21010 49963 52027 22200 10809 70046
BBXX 62107 17124 99501 70061 46/// /3226 10084 20016 40169 51015 22200 00114 10908 70038 333 90710 91136
BBXX 63110 17123 99595 10015 41597 73435 10069 49970 70222 8/8// 22200 10709 70045
BBXX 42043 17121 99290 70949 46/// /0308 1//// 40283 91230 22200 00161 333 91210
BBXX 42043 17121 99290 70949 46/// /0409 1//// 40280 91200 22200 00162 333 91211
AAXX 17124 71322 16/// /3509 11279 21305 30096 40109 56005 60001 333 11230 21280 4/008 70011
BBXX 42043 17121 99290 70949 46/// /0409 1//// 40280 91200 22200 00162 333 91211
BBXX 42043 17121 99290 70949 46/// /0308 1//// 40283 91230 22200 00161 333 91210
BBXX 52243 17121 99193 11666 46/// ///// 1//// 91200 22200 00258
BBXX 51178 17121 99142 51695 46/// ///// 1//// 91200 22200 00284
BBXX 51174 17121 99142 51697 46/// ///// 1//// 91200 22200 00285
BBXX 51171 17121 99064 71623 46/// ///// 1//// 91200 22200 00279
BBXX 51170 17121 99168 71695 46/// ///// 1//// 91200 22200 00261
BBXX 51169 17121 99004 51600 46/// ///// 1//// 91200 22200 00258
BBXX AMOUK08 17124 99501 70061 46/// ///// 10081 20035 30165 40167 52020 91150
BBXX 63110 17124 99595 10015 47698 /3327 10066 21023 49970 51018 700// 22200 10708 70042
BBXX 63106 17124 99610 10017 46/// /3223 10035 49960 51025 22200
BBXX 63105 17124 99610 10017 47598 ///// 10041 21016 49959 51025 700// 22200
BBXX 51171 17121 99064 71623 46/// ///// 1//// 91200 22200 00279
BBXX 51170 17121 99168 71695 46/// ///// 1//// 91200 22200 00261
BBXX 52243 17121 99193 11666 46/// ///// 1//// 91200 22200 00258
BBXX 51174 17121 99142 51697 46/// ///// 1//// 91200 22200 00285
BBXX 51178 17121 99142 51695 46/// ///// 1//// 91200 22200 00284
BBXX 51169 17121 99004 51600 46/// ///// 1//// 91200 22200 00258
BBXX V7DW6 17120 99243 70822 41598 20302 10250 20204 40220 50000 7//00 82188 22224 04240 21003 305// 41003 5//// 80220
BBXX V7DW6 17120 99243 70822 41598 20302 10250 20204 40220 50000 7//00 82188 22224 04240 21003 305// 41003 5//// 80220
BBXX V7DW6 17120 99243 70822 41598 20302 10250 20204 40220 50000 7//00 82188 22224 04240 21003 305// 41003 5//// 80220
BBXX 63106 17124 99610 10017 46/// /3223 10035 49960 51025 22200
BBXX 63113 17124 99610 10017 46/// /3328 10035 21010 49963 52027 22200 10809 70046
BBXX 62107 17124 99501 70061 46/// /3226 10084 20016 40169 51015 22200 00114 10908 70038 333 90710 91136
BBXX 63110 17123 99595 10015 41597 73435 10069 49970 70222 8/8// 22200 10709 70045
AAXX 17121 78090 15/// /0000 10245 30225 40228 69901 91200 222// 00182
AAXX 17124 42809 31995 00000 10184 20119 40145 70500 333 10231 58002
AAXX 17124 43333 21495 50705 10272 20237 40094 70511 83401 333 10314 56209 59007 6001/ 82616 83070
BBXX AMOUK08 17124 99501 70061 46/// ///// 10081 20035 30165 40167 52020 91150
BBXX 63110 17124 99595 10015 47698 /3327 10066 21023 49970 51018 700// 22200 10708 70042
BBXX 63106 17124 99610 10017 46/// /3223 10035 49960 51025 22200
BBXX 63105 17124 99610 10017 47598 ///// 10041 21016 49959 51025 700// 22200
BBXX 63106 17124 99610 10017 46/// /3223 10035 49960 51025 22200
BBXX 63113 17124 99610 10017 46/// /3328 10035 21010 49963 52027 22200 10809 70046
BBXX 62107 17124 99501 70061 46/// /3226 10084 20016 40169 51015 22200 00114 10908 70038 333 90710 91136
BBXX 63110 17123 99595 10015 41597 73435 10069 49970 70222 8/8// 22200 10709 70045
BBXX AMOUK08 17124 99501 70061 46/// ///// 10081 20035 30165 40167 52020 91150
BBXX 63110 17124 99595 10015 47698 /3327 10066 21023 49970 51018 700// 22200 10708 70042
BBXX 63106 17124 99610 10017 46/// /3223 10035 49960 51025 22200
BBXX 63105 17124 99610 10017 47598 ///// 10041 21016 49959 51025 700// 22200
AAXX 17121 11723 01580 82905 10042 21018 39647 49942 53016 69901 78382 888// 333 69905 85829 88640 91115
AAXX 17124 91723 NIL
AAXX 17124 91964 NIL
AAXX 17121 37409 32598 00903 11045 21078 38759 48549 52004 333 11027 95000
BBXX 63106 17124 99610 10017 46/// /3223 10035 49960 51025 22200
BBXX 63113 17124 99610 10017 46/// /3328 10035 21010 49963 52027 22200 10809 70046
BBXX 62107 17124 99501 70061 46/// /3226 10084 20016 40169 51015 22200 00114 10908 70038 333 90710 91136
BBXX 63110 17123 99595 10015 41597 73435 10069 49970 70222 8/8// 22200 10709 70045
AAXX 17124 48300 32562 11303 10245 20190 39806 40118 52007 81100 333 10288 59006
AAXX 17124 48327 32560 20000 10245 20185 39781 40137 52011 82500 333 10295 59002
AAXX 17124 48331 32560 20000 10241 20194 39909 40141 52015 82100 333 10301 58006
AAXX 17124 48353 32962 00000 10229 20161 39854 40147 52018 333 10282 58010
AAXX 17124 48356 32960 21207 10220 20147 39962 40162 53020 81031 333 10280 59007
AAXX 17124 48375 32960 00000 10250 20169 39892 40118 52016 333 10305 58013
AAXX 17124 48378 31556 20000 10258 20193 30086 40138 52017 71000 81505 333 10306 58014
AAXX 17124 48381 32960 40205 10239 20148 39926 40145 52016 80006 333 10278 59003
AAXX 17124 48407 32560 40307 10236 20160 39995 40138 52025 81141 333 10305 59009
AAXX 17124 48431 32962 50502 10247 20169 39926 40141 52020 80006 333 10273 58001
AAXX 17124 48456 NIL
AAXX 17124 48480 32560 10404 10270 20175 30108 40112 52022 81101 333 10310 58008
AAXX 17124 48500 31956 33308 10260 20198 30100 40107 52013 71011 80005 333 10291 58001
AAXX 17124 48551 31550 60205 10265 20236 30090 40098 52017 71022 82246 333 10285 59002 70034
AAXX 17124 48565 31558 60909 10280 20227 30063 40073 52006 71022 82246 333 10307 59011 79999
AAXX 17124 48569 11560 70708 10273 20218 30055 40095 52019 69962 70262 83246 333 10299 59008 70100
AAXX 17124 48583 01457 70907 10265 20228 30085 40091 52013 60052 71062 82876 333 10299 58001 69997 70143
AAXX 17124 48310 31558 30000 10215 20207 39685 40145 52010 71010 82505 333 10282 58006
AAXX 17124 48325 NIL
AAXX 17124 48329 31957 00000 10240 20193 39789 40129 52009 71000 333 10295 58002
AAXX 17124 48352 NIL
AAXX 17124 48357 32961 51003 10207 20132 39999 40172 52021 80006 333 10275 59004
AAXX 17124 48380 32960 10000 10250 20212 30039 40133 51009 80005 333 10299 58004
AAXX 17124 48383 31957 00502 10200 20139 39998 40162 52023 71010 333 10267 59007
AAXX 17124 48403 31958 60000 10242 20160 39932 40144 52013 70522 81046 333 10274 58008
AAXX 17124 48405 32960 30506 10227 20157 39980 40145 52020 80005 333 10273 59005
AAXX 17124 48420 31956 63602 10257 20183 30113 40118 52013 70522 80006 333 10292 58006
AAXX 17124 48421 31956 20000 10257 20200 30002 40116 52014 71000 80005 333 10325 59002
AAXX 17124 48425 31957 20302 10256 20190 30117 40127 52008 71000 80004 333 10286 58006
AAXX 17124 48426 31558 50603 10267 20167 30112 40125 53012 70522 81546 333 10301 58005
AAXX 17124 48429 32960 53508 10272 20156 30111 40118 52009 81045 333 10292 58006
AAXX 17124 48430 31959 30000 10280 20158 30114 40121 52013 70511 81035 333 10308 58003
AAXX 17124 48450 31958 20000 10255 20175 30089 40122 52008 70500 80005 333 10295 58004
AAXX 17124 48459 32961 20000 10270 20194 30113 40116 52015 80001 333 10306 58009
AAXX 17124 48465 31958 53406 10253 20185 30113 40117 52014 71011 80006 333 10291 58005
AAXX 17124 48550 31558 60810 10270 20235 30094 40101 52016 71022 82246 333 10294 58004 70003
AAXX 17124 48552 11460 70803 10268 20230 30091 40097 52014 60392 70262 83846 333 10284 58003 70401
AAXX 17124 48566 01560 60303 10273 20224 30085 40093 52016 69942 70262 82846 333 10313 59005 69947 70004
AAXX 17124 48568 01460 30809 10274 20233 30084 40091 52015 60062 70161 81201 333 10295 59003 60027 70060
AAXX 17124 48302 31558 31205 10142 20129 38492 40139 52006 71041 82805 333 10157 58004
AAXX 17124 48304 32965 00000 10205 20184 39683 40149 52008 333 10267 58004
AAXX 17124 48334 31558 20000 10237 20195 39770 40133 52010 71000 82500 333 10280 58010
AAXX 17124 48360 32961 60000 10205 20141 39883 40148 52005 80006 333 10280 59001
AAXX 17124 48372 32960 20000 10260 20212 30078 40136 52011 80005 333 10305 58004
AAXX 17124 48373 31956 20000 10247 20199 30066 40129 52010 71000 80001 333 10303 58007
AAXX 17124 48386 31950 00000 10252 20217 30083 40127 52012 71000 333 10309 58002
AAXX 17124 48387 NIL
AAXX 17124 48408 32960 20104 10232 20159 39986 40137 53022 80001 333 10306 59010
AAXX 17124 48415 31957 40505 10250 20187 30111 40122 52012 71011 80005 333 10292 58004
AAXX 17124 48433 31957 20103 10240 20170 39972 40139 52018 71010 80005 333 10290 59005
AAXX 17124 48437 32962 00203 10232 20169 39927 40139 52013 333 10280 59007
AAXX 17124 48440 32960 00000 10249 20195 30074 40124 52021 333 10309 58009
AAXX 17124 48451 32961 20000 10232 20194 30119 40130 52010 80005 333 10273 58008
AAXX 17124 48454 32960 50703 10273 20161 30116 40123 52016 82046 333 10300 58003
AAXX 17124 48457 31959 63614 10270 20184 30097 40114 52005 70522 82046 333 10272 58005
AAXX 17124 48463 31550 60213 10260 20188 30038 40132 53015 71022 81146 333 10292 58007
AAXX 17124 48464 31957 30000 10239 20190 30102 40115 52008 71011 80001 333 10276 58006
AAXX 17124 48479 32960 30000 10270 20210 30067 40119 52023 81045 333 10335 58007
AAXX 17124 48520 31959 50000 10250 20212 30092 40107 52016 71011 80005 333 10292 58003
AAXX 17124 48554 NIL
AAXX 17124 48563 32560 50603 10255 20231 30038 40074 52005 81246 333 10299 59014
AAXX 17124 48571 12460 80206 10269 20226 30077 40088 52007 60022 83888 333 10300 59003 70186
AAXX 17124 48307 31958 00000 10202 20166 39769 40155 51009 71000 333 10275 58008
AAXX 17124 48324 32560 30202 10223 20180 39913 40135 51008 82105 333 10298 58006
AAXX 17124 48333 32960 10000 10235 20188 39841 40145 52013 81040 333 10283 58008
AAXX 17124 48350 32962 02502 10201 20166 39846 40152 52018 333 10275 58008
AAXX 17124 48355 32962 00000 10215 20155 39941 40165 50027 333 10285 58000
AAXX 17124 48358 32960 20903 10195 20143 39993 40173 52021 80005 333 10264 59006
AAXX 17124 48384 32960 00000 10228 20171 39956 40149 51015 333 10287 58000
AAXX 17124 48401 31958 20000 10260 20183 30030 40138 52016 70500 81045 333 10306 58009
AAXX 17124 48404 31958 20708 10227 20148 39969 40149 51024 70500 80005 333 10275 59001
AAXX 17124 48409 NIL
AAXX 17124 48419 31558 60602 10265 20187 30111 40119 52007 70522 82846 333 10285 58005
AAXX 17124 48427 31957 60000 10239 20187 30117 40125 52007 71022 80006 333 10284 58004
AAXX 17124 48435 32960 20810 10221 20148 39692 40134 52012 80005 333 10256 58003
AAXX 17124 48453 32960 50403 10270 20173 30112 40115 52013 80006 333 10303 58003
AAXX 17124 48458 32960 03602 10254 20179 30054 40135 52019 333 10310 58003
AAXX 17124 48474 31958 70000 10253 20180 39991 40114 52013 70522 80006 333 10293 58001
AAXX 17124 48481 NIL
AAXX 17124 48555 NIL
AAXX 17124 48556 11560 60000 10256 20232 30078 40095 52017 60042 71022 82246 333 10275 58000 70064
AAXX 17124 48557 11560 60000 10250 20243 30060 40095 52008 60062 70162 84806 333 10280 59011 70057
AAXX 17124 48560 01450 80000 10255 20239 30090 40095 51011 60062 76022 82876 333 10281 59005 60056 70381
AAXX 17124 48574 12560 60000 10275 20245 30058 40087 51016 69942 82146 333 10302 59003 70010
AAXX 17124 48581 01450 80000 10246 20239 30053 40095 52014 60082 72162 82577 333 10303 59004 60075 70363
AAXX 17124 48555 01550 71305 10250 20229 30077 40119 51013 60022 76022 85876 333 10285 59007 60015 70102
AAXX 17124 48325 32960 20000 10223 20186 39877 40123 54000 80005 333 10323 58000
AAXX 17124 48352 31958 20000 10236 20162 39955 40158 52019 70510 80005 333 10287 58006
AAXX 17124 48387 31556 30903 10166 20156 39180 40154 52013 71011 82544 333 10225 58009
AAXX 17124 48554 32460 70612 10266 20240 30093 40097 52016 82446 333 10290 58001 70407
AAXX 17124 48481 32960 00000 10260 20198 30076 40103 52011 333 10311 59006
AAXX 17124 48481 32960 00000 10243 20191 30095 40123 52030 333 10311 58014
AAXX 17124 48409 32960 20304 10240 20167 39992 40142 52027 82041 333 10292 59003
AAXX 17124 48300 32562 11303 10245 20190 39806 40118 52007 81100 333 10288 59006
AAXX 17124 48327 32560 20000 10245 20185 39781 40137 52011 82500 333 10295 59002
AAXX 17124 48331 32560 20000 10241 20194 39909 40141 52015 82100 333 10301 5800001
AAXX 17124 48551 31550 60205 10265 20236 30090 40098 52017 71022 82246 333 10285 59002 70034
AAXX 17124 48565 31558 60909 10280 20227 30063 40073 52006 71022 82246 333 10307 59011 79999
AAXX 17124 48569 11560 70708 10273 20218 30055 40095 52019 69962 70262 83246 333 10299 59008 70100
AAXX 17124 48583 01457 70907 10265 20228 30085 40091 52013 60052 71062 82876 333 10299 58001 69997 70143
AAXX 17124 48310 31558 30000 10215 20207 39685 40145 52010 71010 82505 333 10282 58006
AAXX 17124 48325 NIL
AAXX 17124 48329 31957 00000 10240 20193 39789 40129 52009 71000 333 10295 58002
AAXX 17124 48352 NIL
AAXX 17124 48357 32961 51003 10207 20132 39999 40172 52021 80006 333 10275 59004
AAXX 17124 48380 32960 10000 10250 20212 30039 40133 51009 80005 333 10299 58004
AAXX 17124 48383 31957 00502 10200 20139 39998 40162 52023 71010 333 10267 59007
AAXX 17124 48403 31958 60000 10242 20160 39932 40144 52013 70522 81046 333 10274 58008
AAXX 17124 48405 32960 30506 10227 20157 39980 40145 52020 80005 333 10273 59005
AAXX 17124 48420 31956 63602 10257 20183 30113 40118 52013 70522 80006 333 10292 58006
AAXX 17124 48421 31956 20000 10257 20200 30002 40116 52014 71000 80005 333 10325 59002
AAXX 17124 48425 31957 20302 10256 20190 30117 40127 52008 71000 80004 333 10286 58006
AAXX 17124 48426 31558 50603 10267 20167 30112 40125 53012 70522 81546 333 10301 58005
AAXX 17124 48429 32960 53508 10272 20156 30111 40118 52009 81045 333 10292 58006
AAXX 17124 48430 31959 30000 10280 20158 30114 40121 52013 70511 81035 333 10308 58003
AAXX 17124 48450 31958 20000 10255 20175 30089 40122 52008 70500 80005 333 10295 58004
AAXX 17124 48459 32961 20000 10270 20194 30113 40116 52015 80001 333 10306 58009
AAXX 17124 48465 31958 53406 10253 20185 30113 40117 52014 71011 80006 333 10291 58005
AAXX 17124 48550 31558 60810 10270 20235 30094 40101 52016 71022 82246 333 10294 58004 70003
AAXX 17124 48552 11460 70803 10268 20230 30091 40097 52014 60392 70262 83846 333 10284 58003 70401
AAXX 17124 48566 01560 60303 10273 20224 30085 40093 52016 69942 70262 82846 333 10313 59005 69947 70004
AAXX 17124 48568 01460 30809 10274 20233 30084 40091 52015 60062 70161 81201 333 10295 59003 60027 70060
AAXX 17124 48302 31558 31205 10142 20129 38492 40139 52006 71041 82805 333 10157 58004
AAXX 17124 48304 32965 00000 10205 20184 39683 40149 52008 333 10267 58004
AAXX 17124 48334 31558 20000 10237 20195 39770 40133 52010 71000 82500 333 10280 58010
AAXX 17124 48360 32961 60000 10205 20141 39883 40148 52005 80006 333 10280 59001
AAXX 17124 48372 32960 20000 10260 20212 30078 40136 52011 80005 333 10305 58004
AAXX 17124 48373 31956 20000 10247 20199 30066 40129 52010 71000 80001 333 10303 58007
AAXX 17124 48386 31950 00000 10252 20217 30083 40127 52012 71000 333 10309 58002
AAXX 17124 48387 NIL
AAXX 17124 48408 32960 20104 10232 20159 39986 40137 53022 80001 333 10306 59010
AAXX 17124 48415 31957 40505 10250 20187 30111 40122 52012 71011 80005 333 10292 58004
AAXX 17124 48433 31957 20103 10240 20170 39972 40139 52018 71010 80005 333 10290 59005
AAXX 17124 48437 32962 00203 10232 20169 39927 40139 52013 333 10280 59007
AAXX 17124 48440 32960 00000 10249 20195 30074 40124 52021 333 10309 58009
AAXX 17124 48451 32961 20000 10232 20194 30119 40130 52010 80005 333 10273 58008
AAXX 17124 48454 32960 50703 10273 20161 30116 40123 52016 82046 333 10300 58003
AAXX 17124 48457 31959 63614 10270 20184 30097 40114 52005 70522 82046 333 10272 58005
AAXX 17124 48463 31550 60213 10260 20188 30038 40132 53015 71022 81146 333 10292 58007
AAXX 17124 48464 31957 30000 10239 20190 30102 40115 52008 71011 80001 333 10276 58006
AAXX 17124 48479 32960 30000 10270 20210 30067 40119 52023 81045 333 10335 58007
AAXX 17124 48520 31959 50000 10250 20212 30092 40107 52016 71011 80005 333 10292 58003
AAXX 17124 48554 NIL
AAXX 17124 48563 32560 50603 10255 20231 30038 40074 52005 81246 333 10299 59014
AAXX 17124 48571 12460 80206 10269 20226 30077 40088 52007 60022 83888 333 10300 59003 70186
AAXX 17124 48307 31958 00000 10202 20166 39769 40155 51009 71000 333 10275 58008
AAXX 17124 48324 32560 30202 10223 20180 39913 40135 51008 82105 333 10298 58006
AAXX 17124 48333 32960 10000 10235 20188 39841 40145 52013 81040 333 10283 58008
AAXX 17124 48350 32962 02502 10201 20166 39846 40152 52018 333 10275 58008
AAXX 17124 48355 32962 00000 10215 20155 39941 40165 50027 333 10285 58000
AAXX 17124 48358 32960 20903 10195 20143 39993 40173 52021 80005 333 10264 59006
AAXX 17124 48384 32960 00000 10228 20171 39956 40149 51015 333 10287 58000
AAXX 17124 48401 31958 20000 10260 20183 30030 40138 52016 70500 81045 333 10306 58009
AAXX 17124 48404 31958 20708 10227 20148 39969 40149 51024 70500 80005 333 10275 59001
AAXX 17124 48409 NIL
AAXX 17124 48419 31558 60602 10265 20187 30111 40119 52007 70522 82846 333 10285 58005
AAXX 17124 48427 31957 60000 10239 20187 30117 40125 52007 71022 80006 333 10284 58004
AAXX 17124 48435 32960 20810 10221 20148 39692 40134 52012 80005 333 10256 58003
AAXX 17124 48453 32960 50403 10270 20173 30112 40115 52013 80006 333 10303 58003
AAXX 17124 48458 32960 03602 10254 20179 30054 40135 52019 333 10310 58003
AAXX 17124 48474 31958 70000 10253 20180 39991 40114 52013 70522 80006 333 10293 58001
AAXX 17124 48481 NIL
AAXX 17124 48555 NIL
AAXX 17124 48556 11560 60000 10256 20232 30078 40095 52017 60042 71022 82246 333 10275 58000 70064
AAXX 17124 48557 11560 60000 10250 20243 30060 40095 52008 60062 70162 84806 333 10280 59011 70057
AAXX 17124 48560 01450 80000 10255 20239 30090 40095 51011 60062 76022 82876 333 10281 59005 60056 70381
AAXX 17124 48574 12560 60000 10275 20245 30058 40087 51016 69942 82146 333 10302 59003 70010
AAXX 17124 48581 01450 80000 10246 20239 30053 40095 52014 60082 72162 82577 333 10303 59004 60075 70363
AAXX 17124 48481 32960 00000 10243 20191 30095 40123 52030 333 10315 58014
AAXX 17121 45032 36/// /1001 10121 20092 30230 40247 52002
AAXX 17121 45035 36/// /0903 10140 20092 30201 40244 54000
AAXX 17121 45039 36/// /3501 10140 20098 30228 40243 52002
AAXX 17121 45044 36/// /0705 10148 20096 30145 40240 54000
AAXX 17121 45032 36/// /9901 10125 20093 30228 40245 52001
AAXX 17121 45035 36/// /0903 10142 20090 30201 40244 52002
AAXX 17121 45039 36/// /3301 10139 20099 30226 40242 54000
AAXX 17121 45044 36/// /0705 10148 20094 30145 40240 52001
AAXX 17121 45032 36/// /1101 10129 20091 30227 40244 52003
AAXX 17121 45035 36/// /0804 10142 20089 30199 40242 52004
AAXX 17121 45039 36/// /3501 10140 20097 30226 40242 52001
AAXX 17121 45044 36/// /0805 10149 20094 30144 40239 52003
AAXX 17121 45032 36/// /1001 10121 20092 30230 40247 52002
AAXX 17121 45035 36/// /0903 10140 20092 30201 40244 54000
AAXX 17121 45039 36/// /3501 10140 20098 30228 40243 52002
AAXX 17121 45044 36/// /0705 10148 20096 30145 40240 54000
AAXX 17121 45032 36/// /1101 10129 20091 30227 40244 52003
AAXX 17121 45035 36/// /0804 10142 20089 30199 40242 52004
AAXX 17121 45039 36/// /3501 10140 20097 30226 40242 52001
AAXX 17121 45044 36/// /0805 10149 20094 30144 40239 52003
AAXX 17121 45032 36/// /9901 10125 20093 30228 40245 52001
AAXX 17121 45035 36/// /0903 10142 20090 30201 40244 52002
AAXX 17121 45039 36/// /3301 10139 20099 30226 40242 54000
AAXX 17121 45044 36/// /0705 10148 20094 30145 40240 52001
AAXX 17121 45032 36/// /1501 10119 20092 30231 40247 52001
AAXX 17121 45035 36/// /0803 10139 20092 30204 40247 52003
AAXX 17121 45039 36/// /3501 10139 20099 30230 40245 52002
AAXX 17121 45044 36/// /0904 10149 20099 30147 40242 52002
AAXX 17121 45032 36/// /1501 10119 20092 30231 40247 52001
AAXX 17121 45035 36/// /0803 10139 20092 30204 40247 52003
AAXX 17121 45039 36/// /3501 10139 20099 30230 40245 52002
AAXX 17121 45044 36/// /0904 10149 20099 30147 40242 52002
BBXX AMOUK08 17124 99501 70061 46/// ///// 10081 20035 30165 40167 52020 91150
BBXX 63110 17124 99595 10015 47698 /3327 10066 21023 49970 51018 700// 22200 10708 70042
BBXX 63106 17124 99610 10017 46/// /3223 10035 49960 51025 22200
BBXX 63105 17124 99610 10017 47598 ///// 10041 21016 49959 51025 700// 22200
BBXX WDE8293 17124 99373 10126 41397 72833 10180 20112 40085 56002 7//// 87790 22264 00180 20804 325// 40806 5//// 6//// 80140 ICE /////
AAXX 17121 30469 329// 00000 11303 21315 39472 40319 53016 333 11179
AAXX 17124 97320 32560 30000 10280 20256 30052 40065 52022 82101 333 10338 56000 56000 58002 82820
AAXX 17121 30686 32999 21402 11213 21246 39858 40258 52006 80002 333 11145
BBXX WDE8293 17124 99373 10126 41397 72833 10180 20112 40085 56002 7//// 87790 22264 00180 20804 325// 40806 5//// 6//// 80140 ICE /////
BBXX 63106 17124 99610 10017 46/// /3223 10035 49960 51025 22200
BBXX 63113 17124 99610 10017 46/// /3328 10035 21010 49963 52027 22200 10809 70046
BBXX 62107 17124 99501 70061 46/// /3226 10084 20016 40169 51015 22200 00114 10908 70038 333 90710 91136
BBXX 63110 17123 99595 10015 41597 73435 10069 49970 70222 8/8// 22200 10709 70045
BBXX WDE8293 17124 99373 10126 41397 72833 10180 20112 40085 56002 7//// 87790 22264 00180 20804 325// 40806 5//// 6//// 80140
BBXX AMOUK08 17124 99501 70061 46/// ///// 10081 20035 30165 40167 52020 91150
BBXX 63110 17124 99595 10015 47698 /3327 10066 21023 49970 51018 700// 22200 10708 70042
BBXX 63106 17124 99610 10017 46/// /3223 10035 49960 51025 22200
BBXX 63105 17124 99610 10017 47598 ///// 10041 21016 49959 51025 700// 22200
AAXX 17123 91553 11598 79903 10260 20247 40102 58005 60021 72588 8397/ 333 10315 5619/ 59012 60021 83820 81925 87461
AAXX 17123 91553 11598 79903 10260 20247 40102 58005 60021 72588 8397/ 333 10315 5619/ 59012 60021 83820 81925 87461
AAXX 17124 82824 21258 80105 10267 20250 30007 40108 76162 885// 333 20250 59015 60174
AAXX 17121 10929 01460 82603 10026 20002 39544 40080 51026 69911 77171 888// 333 31/// 41998 55300 20147 30147 69917 81816 83619 88630
AAXX 17121 30664 32999 02203 11103 21176 39227 40243 53001 333 21078
AAXX 17124 62417 32960 02605 10202 20081 40189 57027
AAXX 17121 10162 11480 23006 10039 20006 39849 49931 51025 69911 70186 82200 333 31/// 55303 20378 30260 82819
AAXX 17124 71288 17/// /3305 11273 21300 30078 40104 58013 69961 7//4/ 333 11276 21309 4/001 70006
AAXX 17124 71288 17/// /3305 11273 21300 30078 40104 58013 69961 7//4/ 333 11276 21309 4/001 70006
AAXX 17121 10469 01580 62907 10049 20006 39798 49962 51020 69901 72587 86200 333 31/// 55306 69907 86828 91115
AAXX 17121 02947 47133 81404 11044 21047 40208 57015 71071 88/// 91151
AAXX 17121 10929 01460 82603 10026 20002 39544 40080 51026 69911 77171 888// 333 41998 55300 20147 30147 69917 81816 83619 88630
AAXX 17124 71372 16/// /3604 11065 21104 60001 333 21065 70000
AAXX 17121 10162 11480 23006 10039 20006 39849 49931 51025 69911 70161 82200 333 31/// 55303 20378 30260 82819
AAXX 17121 10980 11/01 93010 11080 21083 37975 48336 51022 60031 77174 333 48032 55300 20145 30145 96049
AAXX 17121 10162 11480 23006 10039 20006 39849 49931 51025 69911 70186 82200 333 31/// 55303 20378 30260 82819
