BBXX ZMFR 17054 99468 31670 43/// /17// 10111 20049 40160 57001 22271 00131
AAXX 17064 40255 32960 00000 10104 20084 39483 40205 54002 333 20080 30004
AAXX 17064 40340 32960 20106 10100 20056 40197 52004 80001 333 20100 30080 82070
BBXX 42362 17061 99278 70907 46/// /3601 10222 20194 40241 90545
BBXX 42363 17061 99282 70892 46/// /0802 10222 20178 40241 90545 333 91202
BBXX 42364 17061 99291 70881 46/// /0000 10211 20178 40237 90545
AAXX 17064 91334 32474 80412 10298 20232 30063 40066 56003 82171 333 56199 70003 555 91706
AAXX 17064 91334 32474 80412 10298 20232 30063 40066 56003 82171 333 56199 70003 555 91706
BBXX 46249 17061 99338 71197 46/// ///// 1//// 90542 22200 00146 11202 21002 327// 41201 70009
BBXX 46248 17061 99461 71247 46/// ///// 1//// 90534 22200 00095 11404 21002 329// 41404 70021
BBXX 46244 17061 99409 71244 46/// ///// 1//// 90535 22200 00098 11504 20803 329// 41503 70021
BBXX 41115 17061 99184 70673 46/// ///// 1//// 90535 22200 11004 21004 301// 41102 70021
BBXX 46217 17061 99342 71194 46/// ///// 1//// 90542 22200 00150 11002 21002 327// 41101 70012
BBXX 46218 17061 99345 71208 46/// ///// 1//// 90532 22200 00137 11104 20903 330// 41102 70020
BBXX 46211 17061 99469 71242 46/// ///// 1//// 90536 22200 00084 11504 20802 328// 41503 70018
BBXX 44172 17061 99445 70634 46/// ///// 1//// 90531 22200 00075 10903 20903 317// 41102 70017
BBXX 44098 17061 99428 70702 46/// ///// 1//// 90537 22200 00092 10402 20402 310// 41301 70012
BBXX BAREU56 17064 99436 10095 46/// ///// 49979 52034 22241
AAXX 17064 40272 31520 20000 10038 20031 39375 40233 52015 71042 82100 333 21024 30103 82830
AAXX 17064 08495 11458 72920 10149 20118 30235 40243 53001 60022 71662 875// 90550 333 20147 32014 70018 82713 87624 90710 91133 91028
AAXX 17064 40296 32960 00000 10102 20070 40198 54000 333 20087 30005
AAXX 17064 40270 31530 30000 10084 20067 39296 40204 52006 71011 83500 333 20060 30100 83630
BBXX 41114 17061 99276 70802 46/// ///// 1//// 90546 22200 00246 11002 21002 306// 41101 70012
BBXX 52200 17061 99134 11448 46/// ///// 1//// 90545 22200 00288 11005 21005 309// 41101 70025
BBXX 44060 17061 99413 70721 46/// ///05 10052 40185 90545 22200 00109 333 91207 555 11051 22051
BBXX 44022 17061 99409 70737 46/// ///04 10057 21022 40197 90545 22200 00091 333 91205 555 11041 22041
BBXX 46088 17061 99483 71232 46/// /1404 10080 40290 57007 90550 22200 00080 1//00 70001 333 91205 555 11043 22045 30540 41405 60549 138040 141034 143024 147028 147034 138039
BBXX TESTFR9 17064 99487 70040 46/// ///// 10086 29068 40161 52027 22252
AAXX 17064 61902 12482 61314 10233 20198 40131 69904 868// 333 20232 58002 83816 85635
AAXX 17064 78954 11468 70506 10252 20229 30047 40111 6///1 71581 878// 333 10302 20223 58009 85816 83636 90915
AAXX 17064 78954 11468 70506 10252 20229 30047 40111 6///1 71581 878// 333 10302 20223 58009 85816 83636 90915
BBXX VOXS 17064 99467 70480 41796 81730 10055 2005/ 40065 56034 76162 8351/ 22200 04024 20504 312// 40802 80053
BBXX VOXS 17064 99467 70480 41796 81730 10055 2005/ 40065 56034 76162 8351/ 22200 04024 20504 312// 40802 80053
AAXX 17064 68994 12598 10904 10101 20024 30179 40208 52016 69974 81100 222// 00075 309// 40603 333 20033 91009 555 10129 20007 91020
AAXX 17064 91408 32474 81307 10306 20253 30030 40068 57015 83271 333 56299 70028 555 91706
AAXX 17064 91408 32474 81307 10306 20253 30030 40068 57015 83271 333 56299 70028 555 91706
AAXX 17064 68382 36/// /0504 10175 20138 39418 48586 53005 333 20137 91007 555 10251 91023
AAXX 17064 86033 NIL
AAXX 17064 86086 32970 01802 10200 20167 39999 40090 52006
AAXX 17064 86097 32970 00000 10198 20134 39454 40102 55006
AAXX 17064 86134 NIL
AAXX 17064 86170 NIL
AAXX 17064 86192 NIL
AAXX 17064 86210 32970 00000 10198 20150 39726 40070 56006
AAXX 17064 86218 32970 02103 10204 20179 39986 40083 56004
AAXX 17064 86221 32970 00000 10206 20179 39967 40102 51001
AAXX 17064 86233 32970 00000 10210 20176 39908 40098 54000
AAXX 17064 86246 32970 42706 10194 20168 39795 40084 57011 84050 333 84357
AAXX 17064 86255 32970 01802 10200 20171 30018 40086 55004
AAXX 17064 86260 32970 00000 10196 20168 39926 40079 57008
AAXX 17064 86268 32970 00000 10182 20162 39925 40092 55008
AAXX 17064 86297 32970 00000 10220 20204 39958 40062 57011
AAXX 17064 16597 32562 62611 10149 20112 30025 40112 55001 81102 333 20141 30013 70000 81825 86075 91127 91525
BBXX BAREU08 17064 99363 70342 46/// ///// 40280 52006 22224
BBXX BAREU05 17064 99430 70363 46/// ///// 40174 57019 22263
AAXX 17064 61901 169// /1413 10158 20122 39674 40185 53004 60002 90550 333 20153 3/013 70004 8//99 555 7/090
BBXX 32012 17061 99197 50856 46/// ///// 1//// 90550 22200 11404 70019
BBXX 46002 17061 99426 71305 46/// ///// 10110 40275 58005 90550 22200 00120 11905 70026
BBXX 46084 17061 99566 71361 46/// /3303 10055 20002 40116 53004 90550 22200 00072 11508 20401 300// 41508 70042 333 91204 555 11028 22029 30450 43004 60549 328026 336021 319024 336020 341018 330021
BBXX 46006 17061 99408 71375 46/// /1709 10129 40228 56004 90550 22200 00125 11710 20604 3//// 41710 70051 333 91211 555 11097 22104 30457 41611 60549 171090 169091 169087 167085 167088 167086
BBXX 46075 17061 99539 71608 46/// /2011 10045 20014 49929 51003 90550 22200 00048 11411 20806 300// 41409 70053 333 91214 555 11113 22121 30504 42015 60549 196106 199100 200097 203100 203115 203105 82112 90505
BBXX 46005 17061 99461 71310 46/// ///10 10099 40232 58011 90550 22200 00101 11908 20804 3//// 41907 70041 333 91212 555 11107 22114
BBXX 46059 17061 99380 71300 46/// /0106 10131 40264 58010 90550 22200 00146 11505 20501 3//// 41504 70024 333 91207 555 11061 22064 30549 40107 60549 010058 015057 015055 013053 018051 019050
BBXX 46080 17061 99580 71500 46/// /1912 10053 20032 49970 53006 90550 22200 00055 11007 20705 3//// 41005 70035 333 91214 555 11124 22132 30503 42316 60549 185116 187114 195112 195114 196128 188122 81914 90503
AAXX 17063 78970 11470 10000 10238 20223 30082 40107 60001 70500 81800 333 02200 10336 20235 58006 81816
BBXX 41012 17061 99300 70805 46/// /2203 10224 40214 58012 90550 22200 00244 11102 307// 41102 70011 333 91204 555 11029 22030 30537 42204 60549 223028 217027 215026 214026 204023 207022
BBXX 41001 17061 99347 70727 46/// ///// 10210 20156 40173 56023 90550 22200 00220 11404 70018
BBXX 41049 17061 99275 70630 46/// /0308 10214 20129 40198 56011 90550 22200 00244 11006 20603 300// 41005 70030 333 91210 555 11080 22084 30539 40310 60549 029076 037074 044072 039062 040066 041066 80408 90534
BBXX 42020 17061 99270 70967 46/// /0209 10181 20153 40258 51012 90550 22200 00234 10604 20604 70020 333 91210 555 11089 22093 30523 40112 60549 017086 008089 007086 009088 010085 006090
BBXX 41060 17061 99148 70510 46/// ///// 1//// 90550 22200 11003 70016
BBXX 41044 17061 99217 70587 46/// /0210 10242 20175 40138 58010 90550 22200 00265 10907 20704 300// 40906 70034 333 91212 555 11107 22113 30518 40314 60549 019101 017104 018094 025112 028102 028103 80213 90519
BBXX 41048 17061 99320 70696 46/// /2307 10210 20154 40205 58017 90550 22200 00229 11304 20601 3//// 41304 70022 333 91208 555 11067 22070 30535 42408 60549 232068 233064 235062 234059 239056 236057 82308 90535
BBXX 42065 17061 99149 70750 46/// /0810 10270 20214 90550 22200 11005 20804 3//// 41003 70024 333 91211 555 11102 22108 30532 40912 60549 079095 080093 078093 081094 083094 085093 80810 90540
BBXX 42001 17061 99259 70897 46/// /0000 10247 20174 40233 50000 90550 22200 00262 10702 20401 3//// 40702 70009 333 91201 555 11002 22002 30451 40402 60549 071002 076006 087009 071009 048011 042013
BBXX 42012 17061 99301 70876 46/// /3204 10190 20183 40229 54000 90550 22200 00201 10802 319// 40802 70008 333 91205 555 11043 22044 30524 43106 60549 323040 318042 314047 326033 312027 288019
BBXX 42035 17061 99292 70944 46/// /0210 10130 20127 40265 51007 90550 22200 00174 10502 20502 315// 40901 70012 333 91211 555 11103 22107 30532 40213 60549 022099 025107 027105 027098 025101 022096
BBXX 42058 17061 99149 70749 46/// /0709 10270 20215 40132 58006 90550 22200 00278 10905 20604 307// 40903 70023 333 91210 555 11094 22099 30501 40711 60549 065089 065089 068090 063093 063093 067090 80610 90519
BBXX 42060 17061 99163 70635 46/// /0309 10263 20174 40140 56008 90550 22200 00280 10604 20604 300// 40901 70021 333 91211 555 11096 22101 30500 40311 60549 034090 035092 036091 035093 036092 034089 80410 90538
BBXX 42036 17061 99285 70845 46/// /0000 10211 20173 40222 58004 90550 22200 00218 10501 318// 40501 70005 333 91201 555 11003 22003 30549 41901 60549 221004 182001 187003 180001 304001 055001
BBXX 42056 17061 99198 70849 46/// /0707 10263 20198 40177 58012 90550 22200 00272 10703 20503 309// 40702 70017 333 91209 555 11077 22082 30511 40812 60549 072073 072074 073078 073096 063080 061073 80811 90511
BBXX 42059 17061 99151 70675 46/// /0610 10271 20202 40135 58007 90550 22200 00282 10605 20604 3//// 41002 70023 333 91212 555 11105 22112 30500 40613 60549 057100 056099 056096 062102 061108 064108 80612 90500
BBXX 42019 17061 99279 70954 46/// /0210 10172 20153 40252 52012 90550 333 91212 555 11106 22113 30502 42813 60549 010098 281097 281096 281098 281097 285099
BBXX 44005 17061 99432 70691 46/// /3205 10053 21023 40156 54000 90550 22200 00088 10603 20301 3//// 40602 70014 333 91206 555 11049 22050 30453 43207 60549 317050 318053 319046 317051 317051 317055
BBXX 42040 17061 99292 70882 46/// /2401 10213 40229 54000 90550 22200 00229 10702 20301 317// 40702 70009 333 91202 555 11014 22014 30510 42202 60549 236014 211012 215015 216013 216013 203012
BBXX 46001 17061 99563 71480 46/// /2011 10056 40030 51011 90550 22200 00050 11209 20704 300// 41208 70045 333 91214 555 11117 22126 30503 42114 60549 201110 205112 204113 204107 208111 203099
BBXX 44025 17061 99402 70732 46/// /3405 10070 21014 40191 56010 90550 22200 00116 11102 20301 310// 41102 70009 333 91207 555 11052 22054 30546 43407 60549 339051 350047 342045 334053 337048 334047
BBXX 41008 17061 99314 70809 46/// /2205 10174 20169 40213 58010 90550 22200 00170 11102 300// 41102 70008 333 91206 555 11051 22056 30533 42206 60549 217048 216048 217047 216046 213048 213049
BBXX 44014 17061 99366 70748 46/// /0305 1//// 40201 55012 90550 22200 00149 333 91206 555 11046 22046 30452 40110 60549 026045 019053 024059 016062 014071 015073
BBXX 41004 17061 99325 70791 46/// /2510 10213 20148 40199 57013 90550 22200 00217 333 91211 555 11109 22116 30548 42511 60549 247098 244095 247091 246094 245091 242087
BBXX 44009 17061 99385 70747 46/// /2804 10070 40215 58015 90550 22200 00116 11202 20301 300// 41202 70010 333 91206 555 11046 22047 30515 42807 60549 283043 288043 298045 285050 283045 277041
BBXX 44027 17061 99443 70673 46/// /3210 10020 21038 40147 51011 90550 22200 00087 10804 20403 3//// 40802 70019 333 91211 555 11102 22107 30509 43214 60549 317095 309097 310104 310108 314109 313101
BBXX 41013 17061 99334 70777 46/// /2409 10203 20165 40182 58012 90550 22200 00201 11303 20502 311// 41302 70014 333 91211 555 11101 22108 30533 42512 60549 243094 244092 244092 245088 243082 241083
BBXX 44065 17061 99404 70737 46/// /3003 10072 21015 40195 56011 90550 22200 00102 11202 311// 41202 70008 333 91204 555 11030 22031 30450 43005 60549 303028 318011 323014 030010 053013 035016 83004 90548
BBXX 44020 17061 99414 70702 46/// /3206 10056 21002 40170 58006 90550 22200 00089 10301 20301 70005 333 91207 555 11062 22066 30456 42509 60549 310058 248061 251063 260071 256070 259075
AAXX 17063 78970 11470 10000 10238 20223 30082 40107 60001 70500 81800 333 02200 10336 20235 58006 81816
BBXX 46105 17061 99590 71522 46/// ///// 1//// 90550 22200 10802 70012
BBXX 46070 17061 99551 11753 46/// /0509 11008 21054 49887 51005 90550 22200 00040 11109 20806 3//// 41107 70046 333 91211 555 11095 22099 30518 40414 60549 047092 050098 046106 042111 039100 038099 80412 90514
BBXX 42003 17061 99260 70856 46/// /0602 1//// 90550 22200 10602 20401 312// 40602 70008 333 91203 555 11019 22020 30451 40504 60549 049017 045019 041018 039019 036022 049028 80504 90451
BBXX 42002 17061 99258 70937 46/// /0404 10235 20206 40234 51004 90550 22200 00242 10702 20401 309// 40702 70009 333 91205 555 11042 22045 30538 40506 60549 040043 039045 038045 039045 036045 039041
BBXX 41047 17061 99275 70715 46/// /1003 10229 40223 58011 90550 22200 00252 11306 20301 305// 41305 70028 333 91205 555 11033 22034 30545 41105 60549 097031 070018 073025 074032 076031 050026 80804 90500
BBXX 41036 17061 99342 70770 46/// ///// 10178 20147 40176 57009 90550 22200 00188 10503 70013
BBXX 41043 17061 99211 70650 46/// /0508 10246 20195 40164 58016 90550 22200 00267 11006 20504 300// 41005 70031 333 91210 555 11087 22091 30502 40613 60549 052082 052086 055090 063084 057092 052091 80611 90502
BBXX 44066 17061 99396 70726 46/// /3503 10081 20005 40189 58013 90550 22200 00131 11203 20401 3//// 41202 70013 333 91204 555 11031 22032 30521 43306 60549 347030 326034 337040 342042 328041 337039
BBXX LAVW4 17064 99310 70328 41698 71221 00/// 10210 2018/ 40270 57010 70222 872// 22253 00220 20302 332// 40504 5//// 6////
BBXX C6WK7 17064 99413 10021 41897 42617 10090 2//// 40250 54/// 7//11 84132 222// 04170 20000 3//// 4//// 5//// 6//// 8//// ICE /////
BBXX NWS0022 17064 99416 70714 43/// /3105 10056 20002 40170 5//// 7//// 8//// 222// 04123 2//// 3//// 4//// 5//// 6//// 8//// ICE /////
BBXX VYNG 17064 99432 70823 41/97 73315 10000 21177 41002 54000 70101 87572 22222 00030 20302 3//// 4//// 5//// 6//// 8//// ICE /////
BBXX WDC6698 17064 99076 71450 43/// /0914 11310 21352 40110 5//// 7//// 8//// 222// 04270 2//// 3//// 4//// 5//// 6//// 8//// ICE /////
BBXX C6DM2 17064 99054 11003 41999 60312 10300 20231 40080 50020 7//11 8522/ 22200 0//// 2//// 3//// 4//// 5//// 6//// 80250 ICE /////
BBXX WDE4789 17064 99608 71485 41598 80914 10033 2//// 49993 57/// 70222 885// 22200 0//// 20101 3//// 4//00 5//// 6//// 8//// ICE /////
BBXX 46014 17061 99394 71240 46/// /0000 10099 40204 57013 90550 22200 00104 11604 20301 3//// 41604 70018 333 91200 555 30522 42402 60549 180001 194001 220005 170004 180001 059003
BBXX 46011 17061 99350 71210 46/// /1103 10129 40198 53012 90550 22200 00132 11104 20401 331// 41103 70018 333 91205 555 11035 22036 30516 41206 60549 111034 116034 129034 084030 037023 030031
BBXX 46047 17061 99324 71195 46/// /0102 10138 40188 51011 90550 22200 00138 11004 20301 330// 41004 70020 333 91203 555 11021 22022 30529 43303 60549 004020 353014 343021 331013 357011 010017
BBXX 46086 17061 99325 71180 46/// /1005 10158 40178 52003 90550 22200 00151 11104 20402 328// 41103 70018 333 91206 555 11050 22055 30453 41312 60549 100044 104050 119068 126081 133083 129095
BBXX 46027 17061 99419 71244 46/// /0803 10122 40228 58013 90550 22200 00093 11503 20401 328// 41503 70017 333 91204 555 11038 22046 30511 40206 60549 081031 049034 037039 033046 021050 030052
BBXX 46050 17061 99442 71246 46/// /0404 10092 40280 58010 90550 22200 00101 11504 20301 330// 41504 70019 333 91205 555 11044 22046 30451 40406 60549 042042 033047 029049 029051 029048 028050
BBXX 46069 17061 99337 71202 46/// /3308 10135 40189 52005 90550 22200 00137 11104 20602 330// 41103 70021 333 91209 555 11083 22088 30510 43310 60549 332077 331080 333088 330081 331082 325080
BBXX 46013 17061 99382 71233 46/// /2502 10109 40206 54000 90550 22200 00108 11604 20401 3//// 41604 70021 333 91203 555 11019 22021 30459 43004 60549 244017 303025 299027 295028 302033 302034
BBXX 46012 17061 99374 71229 46/// /3103 10118 40211 54000 90550 22200 00120 11604 20401 330// 41604 70020 333 91204 555 11027 22028 30533 43305 60549 310027 328041 311025 307024 313018 293021
BBXX 46088 17061 99483 71232 46/// /1404 10080 40290 90550 22200 00080 1//00 70001 333 91205 555 11043 22045 30540 41405 60549 138040 141034 143024 147028 147034 138039
BBXX 46087 17061 99485 71247 46/// /0903 10079 20078 40298 54000 90550 22200 00077 11405 20401 328// 41405 70023 333 91204 555 11033 22036 30453 41005 60549 094030 092031 097031 095031 100032 100037
BBXX 46029 17061 99461 71245 46/// /0603 10077 20067 40290 58009 90550 22200 00083 11404 328// 41404 70020 333 91204 555 11031 22032 30542 40704 60549 055030 055027 056027 058025 055025 053025
BBXX 46054 17061 99342 71204 46/// /3204 10135 40197 51013 90550 22200 00138 11104 20401 300// 41104 70019 333 91205 555 11043 22045 30452 43206 60549 317041 319042 322040 321042 322043 323046
BBXX 46028 17061 99357 71219 46/// /3002 10129 40198 52003 90550 22200 00134 11004 20301 332// 41004 70022 333 91203 555 11024 22025 30452 42806 60549 297023 306026 294028 281035 278038 275044
BBXX 46025 17061 99337 71191 46/// /0102 10153 20120 40181 51009 90550 22200 00144 11002 20401 326// 41001 70008 333 91202 555 11018 22022 30452 43002 60549 009014 328011 352009 300015 307016 307017
BBXX WAHV 17064 99250 10596 41998 10202 10220 2016/ 40185 51029 7//00 80002 22224 00251 20000 3//// 4//// 5//// 6//// 80180 ICE /////
BBXX ONCE 17064 99339 30410 41497 21628 10200 2015/ 40190 5//// 70200 821// 22224 00215 2//// 3//// 4//// 5//// 6//// 80165 ICE /////
BBXX C6OM7 17063 99024 50077 41398 61414 10244 20220 40119 56005 70211 84550 22273 00230 20603 31400 40802 50000 80228
BBXX 32012 17061 99197 50856 46/// ///// 1//// 90550 22200 11404 70019
BBXX V7DI8 17063 99336 11248 41497 73420 10070 2000/ 40325 56015 70282 873// 22200 00170 20604 334// 40704 5//// 6//// 80040 ICE /////
BBXX C6DM2 17064 99054 11003 41999 60312 10300 20231 40080 50020 7//11 8522/ 22200 0//// 2//// 3//// 4//// 5//// 6//// 80250 ICE /////
BBXX WDB3161 17064 99523 11674 41398 73012 10010 2//// 49908 5//// 70222 874// 22253 00048 20502 305// 41007 5//// 6//// ICE /////
BBXX 4XIS 17063 99333 11397 43598 73318 10130 2012/ 40210 54000 852// 22215 20403 330// 40706 80110
BBXX 46244 17061 99409 71244 46/// ///// 1//// 90535 22200 00098 11504 20803 329// 41503 70021
BBXX 46248 17061 99461 71247 46/// ///// 1//// 90534 22200 00095 11404 21002 329// 41404 70021
BBXX WCX8812 17064 99399 71384 41596 71933 10150 2013/ 40230 5//// 70222 8722/ 22225 00160 20410 330// 40910 5//// 6//// 80140 ICE /////
BBXX SHIP 17064 99300 71406 43797 41405 10190 2015/ 40280 54000 7//// 846// 22263 0//// 2//// 3//// 4//// 5//// 6//// 80165 ICE /////
BBXX WPGK 17064 99301 70810 41998 02302 10178 2016/ 40201 57010 70210 8//// 22232 00189 2//// 3//// 4//// 5//// 6//// 80167 ICE /////
BBXX DGHJ 17063 99275 71271 41598 40520 10185 20127 40220 54000 70211 8/1// 22263 00190 2//// 3//// 4//// 5//// 80150
BBXX VSJG7 17064 99546 71598 41297 72230 10040 2002/ 49930 51020 76011 86920 22253 00060 20602 32222 40502 50502 6//// 80030 ICE /////
BBXX 42364 17061 99291 70881 46/// /0000 10211 20178 40237 90545
BBXX 42363 17061 99282 70892 46/// /0802 10222 20178 40241 90545 333 91202
BBXX 42362 17061 99278 70907 46/// /3601 10222 20194 40241 90545
BBXX 46059 17061 99380 71300 46/// /0106 10131 40264 58010 90550 22200 00146 11505 20501 3//// 41504 70024 333 91207 555 11061 22064 30549 40107 60549 010058 015057 015055 013053 018051 019050
BBXX 46075 17061 99539 71608 46/// /2011 10045 20014 49929 51003 90550 22200 00048 11411 20806 300// 41409 70053 333 91214 555 11113 22121 30504 42015 60549 196106 199100 200097 203100 203115 203105 82112 90505
BBXX 46002 17061 99426 71305 46/// ///// 10110 40275 58005 90550 22200 00120 11905 70026
BBXX 46006 17061 99408 71375 46/// /1709 10129 40228 56004 90550 22200 00125 11710 20604 3//// 41710 70051 333 91211 555 11097 22104 30457 41611 60549 171090 169091 169087 167085 167088 167086
BBXX 46005 17061 99461 71310 46/// ///10 10099 40232 58011 90550 22200 00101 11908 20804 3//// 41907 70041 333 91212 555 11107 22114
BBXX 46084 17061 99566 71361 46/// /3303 10055 20002 40116 53004 90550 22200 00072 11508 20401 300// 41508 70042 333 91204 555 11028 22029 30450 43004 60549 328026 336021 319024 336020 341018 330021
BBXX 46080 17061 99580 71500 46/// /1912 10053 20032 49970 53006 90550 22200 00055 11007 20705 3//// 41005 70035 333 91214 555 11124 22132 30503 42316 60549 185116 187114 195112 195114 196128 188122 81914 90503
BBXX BAREU05 17064 99430 70363 46/// ///// 40174 57019 22263
BBXX VOXS 17064 99467 70480 41796 81730 10055 2005/ 40065 56034 76162 8351/ 22200 04024 20504 312// 40802 80053
BBXX 44022 17061 99409 70737 46/// ///04 10057 21022 40197 90545 22200 00091 333 91205 555 11041 22041
BBXX 44060 17061 99413 70721 46/// ///05 10052 40185 90545 22200 00109 333 91207 555 11051 22051
BBXX 46088 17061 99483 71232 46/// /1404 10080 40290 57007 90550 22200 00080 1//00 70001 333 91205 555 11043 22045 30540 41405 60549 138040 141034 143024 147028 147034 138039
BBXX 41114 17061 99276 70802 46/// ///// 1//// 90546 22200 00246 11002 21002 306// 41101 70012
BBXX HO7723 17064 99255 70775 41797 51013 10240 2018/ 40205 54000 70311 85/88 22273 00280 20302 30807 40403 50302 6//// 80200 ICE /////
BBXX SHIP 17064 99498 71562 41498 22127 10065 20021 40075 53015 70200 82100 22224 00060 2//// 327// 41212 802//
BBXX C6FV9 17064 99226 70863 41/97 /0617 10250 2022/ 40210 55020 7//// 8//// 22275 00270 2//// 3//// 4//// 5//// 6//// 80230 ICE /////
BBXX C6LU3 17063 99304 70743 41498 30911 10200 2015/ 40240 50010 70211 83101 22285 20302 80170
BBXX DGHX 17063 99340 71656 41/98 31815 10185 20145 40225 55010 7//11 8//// 22264 00180 2//// 331// 40308 80160
BBXX 9VVN 17064 99422 71445 81899 32810 10000 21031 40140 56030 70100 82109 22214 0//// 20503 32525 40803 51504 6//// 81010 ICE /////
BBXX C6OT4 17064 99208 71651 41498 30818 10250 20212 40179 53011 70300 83100 22223 04261 21006 333// 41406 5//// 80225
BBXX DGTX 17063 99330 71659 41/98 92224 10200 20118 40248 54000 70111 89/// 22264 00230 2//// 80151
BBXX 2AKI3 17064 99237 70920 41598 82417 10222 20205 40218 54000 72582 8447/ 22213 04255 29901 300// 4//// 5//// 80211
BBXX 44098 17061 99428 70702 46/// ///// 1//// 90537 22200 00092 10402 20402 310// 41301 70012
BBXX 44172 17061 99445 70634 46/// ///// 1//// 90531 22200 00075 10903 20903 317// 41102 70017
BBXX 46211 17061 99469 71242 46/// ///// 1//// 90536 22200 00084 11504 20802 328// 41503 70018
BBXX 46218 17061 99345 71208 46/// ///// 1//// 90532 22200 00137 11104 20903 330// 41102 70020
BBXX 46217 17061 99342 71194 46/// ///// 1//// 90542 22200 00150 11002 21002 327// 41101 70012
BBXX 41115 17061 99184 70673 46/// ///// 1//// 90535 22200 11004 21004 301// 41102 70021
BBXX 46249 17061 99338 71197 46/// ///// 1//// 90542 22200 00146 11202 21002 327// 41201 70009
BBXX WGAX 17064 99399 70260 41898 32316 10165 2016/ 40255 57020 7//00 80//5 22263 00160 2//// 3//// 4//// 5//// 6//// 80160 ICE /////
BBXX LAVW4 17064 99310 70328 41698 71221 00/// 10210 2018/ 40270 57010 70222 872// 22253 00220 20302 332// 40504 5//// 6////
AAXX 17061 76040 32902 03102 10106 20060 30155 40169 54000 90545 333 10174 20078 30/// 55068 59001 98602
AAXX 17061 76342 11430 80301 10088 20077 39596 40327 52012 60011 75055 887// 90550 333 10134 20088 31/// 55000 20000 561// 58068 88710
AAXX 17061 76491 11456 73203 10130 20128 39888 40286 52012 69901 70252 875// 90545 333 10205 20126 30/// 55000 568// 58106 87615
AAXX 17061 76548 32760 60206 10184 20152 30242 40252 51013 8607/ 90540 333 10266 20180 30/// 55007 5601/ 58086 86356
AAXX 17061 76556 32960 00901 10165 20148 39133 40137 52012 90534 333 10284 20135 30/// 55097 58028
AAXX 17061 76571 32710 20000 10124 20068 38200 40154 52023 82100 90550 333 10250 20050 30/// 55080 56300 58037 82856
AAXX 17061 76577 32960 03603 10134 20117 38073 40140 53014 90540 333 10250 20088 30/// 55057 58030
AAXX 17061 76612 32958 22701 10121 20084 38487 40132 52009 80001 90550 333 10268 20072 30/// 55091 21071 56006 58014 82072
AAXX 17061 76625 32550 31411 10138 20071 38159 40106 52010 83030 90530 333 10259 20110 30/// 55050 56020 58020 83360
AAXX 17061 76644 32350 40503 10226 20197 30194 40207 52009 81270 90550 333 10318 20205 30/// 55075 21060 5611/ 58036 81810 83320
AAXX 17061 76685 32950 00000 10106 20058 37901 40136 52011 90550 333 10246 20055 30/// 55103 58030
AAXX 17061 76762 31602 20901 10184 20166 38775 40118 52015 70300 82400 90540 333 10318 20124 30/// 55094 21289 56300 58/// 82638
AAXX 17061 76775 32960 00501 10137 20075 38561 40167 52014 90545 333 10310 20102 30/// 55073 58032
AAXX 17061 76843 11565 60000 10229 20193 39517 40154 52008 69001 72051 85530 90545 333 10290 20192 30/// 55056 5699/ 58022 85630
AAXX 17061 76845 11230 62201 10121 20109 37977 40175 50005 69931 70252 84720 90543 333 10208 20077 31/// 56290 58022 84705 82458
AAXX 17061 76243 32370 83106 10120 20080 30006 40307 52014 884// 90530 333 10130 20102 30/// 55000 568// 58084 88612
AAXX 17061 76405 32940 00000 10176 20145 30147 40169 52007 90550 333 10240 20112 30/// 55094 2//// 58010
AAXX 17061 76412 32960 02201 10150 20081 30128 40174 52009 90550 333 10252 20146 30/// 55061 58006
AAXX 17064 78962 12470 10000 10250 20210 30108 40116 60001 81102 333 00209 10304 20230 58012 81816
AAXX 17064 78862 12480 70310 10240 20149 30114 40137 60001 87800 333 10284 20238 58016 83818 85632
AAXX 17064 000Z 1612/1712 03014KT 9999 SCT022 PROB30 TEMPO 1612/1712 SHRA BKN020
AAXX 17064 TAF TQPF 161000Z 1612/1712 03014KT 9999 SCT022 PROB30 TEMPO 1612/1712 SHRA BKN020
AAXX 17064 TAF TUPJ 161000Z 1612/1712 03014KT 9999 SCT022 PROB30 TEMPO 1612/1712 SHRA BKN020
AAXX 17064 TAF TUPJ 121600Z 1218/1318 VRB04KT 9999 SCT016 PROB30 TEMPO 1218/1318 SHRA FEW012CB BKN015 BECMG 1312/1314 10008KT
AAXX 17064 EMPO 0600/0624 SHRA BKN015=+TSRA SCT012CB
AAXX 17064 TAF TUPJ 041000Z 04012/0512 07008KT 9999 SCT016 BKN038 SCT270 TEMPO 0412/0512 SHRA BKN015 PROB40 TEMPO 0418/0512 5000 SHRA BKN014 BKN036 PROB30 0420/0512 4000 TSRA FEW012CB
AAXX 17064 918 4000 TSRA FEW012CB
AAXX 17064 N015 BKN036 PROB40 TEMPO 0704/0724 3000 +TSRA SCT011CB BKN012 BECMG 0712/0714 14008KT
AAXX 17064 21/2712 07017G28KT 5000 SHRA BKN015 BKN036 PROB TEMPO 2700/2712 4000 TSRA FEW013CB
AAXX 17064 PROB30 TEMPO 0800/0806 4000 TSRA FEW012CB PROB40 TEMPO 0800/0824 2000 +SHRA/TSRA SCT010CB BKN012 BKN250
AAXX 17064 78583 11460 70000 10240 20232 40178 60011 70381 84802 333 01105 58028 82814 86074
AAXX 17064 68906 11598 72613 10078 20045 30001 40066 56001 60144 72588 8526/ 222// 00116 20401 319// 40602 333 20065 91021 555 10158 20145 91006
AAXX 17061 76040 32902 03102 10106 20060 30155 40169 54000 90545 33310174 20078 30/// 55068 59001 98602
AAXX 17061 76342 11430 80301 10088 20077 39596 40327 52012 60011 75055887// 90550 333 10134 20088 31/// 55000 20000 561// 5806888710
AAXX 17061 76491 11456 73203 10130 20128 39888 40286 52012 69901 70252875// 90545 333 10205 20126 30/// 55000 568// 58106 87615
AAXX 17061 76548 32760 60206 10184 20152 30242 40252 51013 8607/ 90540333 10266 20180 30/// 55007 5601/ 58086 86356
AAXX 17061 76556 32960 00901 10165 20148 39133 40137 52012 90534 33310284 20135 30/// 55097 58028
AAXX 17061 76571 32710 20000 10124 20068 38200 40154 52023 82100 90550333 10250 20050 30/// 55080 56300 58037 82856
AAXX 17061 76577 32960 03603 10134 20117 38073 40140 53014 90540 33310250 20088 30/// 55057 58030
AAXX 17061 76612 32958 22701 10121 20084 38487 40132 52009 80001 90550333 10268 20072 30/// 55091 21071 56006 58014 82072
AAXX 17061 76625 32550 31411 10138 20071 38159 40106 52010 83030 90530333 10259 20110 30/// 55050 56020 58020 83360
AAXX 17061 76644 32350 40503 10226 20197 30194 40207 52009 81270 90550333 10318 20205 30/// 55075 21060 5611/ 58036 81810 83320
AAXX 17061 76685 32950 00000 10106 20058 37901 40136 52011 90550 33310246 20055 30/// 55103 58030
AAXX 17061 76762 31602 20901 10184 20166 38775 40118 52015 70300 8240090540 333 10318 20124 30/// 55094 21289 56300 58/// 82638
AAXX 17061 76775 32960 00501 10137 20075 38561 40167 52014 90545 33310310 20102 30/// 55073 58032
AAXX 17061 76843 11565 60000 10229 20193 39517 40154 52008 69001 7205185530 90545 333 10290 20192 30/// 55056 5699/ 58022 85630
AAXX 17061 76845 11230 62201 10121 20109 37977 40175 50005 69931 7025284720 90543 333 10208 20077 31/// 56290 58022 84705 82458
AAXX 17061 76243 32370 83106 10120 20080 30006 40307 52014 884// 90530333 10130 20102 30/// 55000 568// 58084 88612
AAXX 17061 76405 32940 00000 10176 20145 30147 40169 52007 90550 33310240 20112 30/// 55094 2//// 58010
AAXX 17061 76412 32960 02201 10150 20081 30128 40174 52009 90550 33310252 20146 30/// 55061 58006
AAXX 17064 78862 12480 70310 10240 20149 30114 40137 60001 87800 333 10284 20238 58016 83818 85632
AAXX 17064 000Z 1612/1712 03014KT 9999 SCT022 PROB30 TEMPO 1612/1712 SHRA BKN020
AAXX 17064 TAF TQPF 161000Z 1612/1712 03014KT 9999 SCT022 PROB30 TEMPO 1612/1712 SHRA BKN020
AAXX 17064 TAF TUPJ 161000Z 1612/1712 03014KT 9999 SCT022 PROB30 TEMPO 1612/1712 SHRA BKN020
AAXX 17064 TAF TUPJ 121600Z 1218/1318 VRB04KT 9999 SCT016 PROB30 TEMPO 1218/1318 SHRA FEW012CB BKN015 BECMG 1312/1314 10008KT
AAXX 17064 EMPO 0600/0624 SHRA BKN015=+TSRA SCT012CB
AAXX 17064 TAF TUPJ 041000Z 04012/0512 07008KT 9999 SCT016 BKN038 SCT270 TEMPO 0412/0512 SHRA BKN015 PROB40 TEMPO 0418/0512 5000 SHRA BKN014 BKN036 PROB30 0420/0512 4000 TSRA FEW012CB
AAXX 17064 918 4000 TSRA FEW012CB
AAXX 17064 N015 BKN036 PROB40 TEMPO 0704/0724 3000 +TSRA SCT011CB BKN012 BECMG 0712/0714 14008KT
AAXX 17064 21/2712 07017G28KT 5000 SHRA BKN015 BKN036 PROB TEMPO 2700/2712 4000 TSRA FEW013CB
AAXX 17064 PROB30 TEMPO 0800/0806 4000 TSRA FEW012CB PROB40 TEMPO 0800/0824 2000 +SHRA/TSRA SCT010CB BKN012 BKN250
AAXX 17064 78962 12470 10000 10250 20210 30108 40116 60001 81102 333 00209 10304 20230 58012 81816
AAXX 17064 89009 41561 10804 11318 36808 51010 77670 333 81720
AAXX 17064 78705 NIL
AAXX 17064 78708 31560 40602 10224 20224 30144 40174 58003 70544 81530 333 10229 20222 30/// 56000 58027 81625 83358
AAXX 17064 78714 32560 80000 10200 20191 8422/ 333 10280 20174 30/// 56299 84825 88458
AAXX 17064 78717 31560 50000 10170 20164 38990 40173 53005 71044 85500 333 10242 20168 30/// 56800 58028 85625
AAXX 17064 78720 31558 60109 10190 20178 39055 40154 54002 71544 85530 333 10239 20190 30/// 56000 58013 81708 85625
AAXX 17064 78724 32578 60314 10270 20211 30067 40124 55004 82550 333 10340 20238 30/// 56110 58017 82630 86357
AAXX 17064 SAHO31 MHTG 170600 METAR MHCA 170600Z 00000KT 9999 SCT025TCU OVC080 20/19 TCU QUAD N E S W
AAXX 17064 MHSR 170600Z 00000KT 9999 BKN025 17/16 BR
AAXX 17064 MHCH 170600Z 03014KT 9999 FEW030 BKN070 27/21 HZ
BBXX DDOT 17064 99068 31491 41698 62825 10310 20271 40050 57030 70122 83965 22235 00320 20200 30000 80280
AAXX 17064 67665 12380 73301 10203 20203 48526 60104 876// 333 10301 20174 58000 87709
AAXX 17064 89009 41561 10804 11318 36808 51010 77670 333 81720
BBXX 46001 17061 99563 71480 46/// /2011 10056 40030 51011 90550 22200 00050 11209 20704 300// 41208 70045 333 91214 555 11117 22126 30503 42114 60549 201110 205112 204113 204107 208111 203099
BBXX 46002 17061 99426 71305 46/// ///// 10110 40275 58005 90550 22200 00120 11905 70026
BBXX 46005 17061 99461 71310 46/// ///10 10099 40232 58011 90550 22200 00101 11908 20804 3//// 41907 70041 333 91212 555 11107 22114
BBXX 46006 17061 99408 71375 46/// /1709 10129 40228 56004 90550 22200 00125 11710 20604 3//// 41710 70051 333 91211 555 11097 22104 30457 41611 60549 171090 169091 169087 167085 167088 167086
BBXX 46012 17061 99374 71229 46/// /3103 10118 40211 54000 90550 22200 00120 11604 20401 330// 41604 70020 333 91204 555 11027 22028 30533 43305 60549 310027 328041 311025 307024 313018 293021
BBXX 46013 17061 99382 71233 46/// /2502 10109 40206 54000 90550 22200 00108 11604 20401 3//// 41604 70021 333 91203 555 11019 22021 30459 43004 60549 244017 303025 299027 295028 302033 302034
BBXX 46014 17061 99394 71240 46/// /0000 10099 40204 57013 90550 22200 00104 11604 20301 3//// 41604 70018 333 91200 555 30522 42402 60549 180001 194001 220005 170004 180001 059003
BBXX 46028 17061 99357 71219 46/// /3002 10129 40198 52003 90550 22200 00134 11004 20301 332// 41004 70022 333 91203 555 11024 22025 30452 42806 60549 297023 306026 294028 281035 278038 275044
BBXX 46029 17061 99461 71245 46/// /0603 10077 20067 40290 58009 90550 22200 00083 11404 328// 41404 70020 333 91204 555 11031 22032 30542 40704 60549 055030 055027 056027 058025 055025 053025
BBXX 46054 17061 99342 71204 46/// /3204 10135 40197 51013 90550 22200 00138 11104 20401 300// 41104 70019 333 91205 555 11043 22045 30452 43206 60549 317041 319042 322040 321042 322043 323046
AAXX 17064 81405 04120 60000 10231 20228 30088 40097 60011 710// 333 3/022 55076 60017 58003 70061 555 60005
AAXX 17064 81405 04120 60000 10231 20228 30088 40097 60011 710// 333 3/022 55076 60017 58003 70061 555 60005
BBXX DBKV 17061 99173 70219 46/// /0609 10237 20160 40150 57001 22201 00243
BBXX DBFR 17061 99542 10080 46/// /3213 10059 20028 49919 52027 22261 00067
BBXX DBBU /7061 99547 10135 46/// +3319 10038 20024 49801 52033/ 2222/ 00054
BBXX DBBT 17061 99427 50014 46/// //711 10081 20029 49983 52006 22231 00108
BBXX BAREU11 17064 99137 70733 46/// ///// 40127 57002 22213
BBXX BAREU00 17064 99508 70338 46/// ///// 40221 57008 22224
BBXX BAREU04 17064 99536 70039 46/// ///// 40050 22262
BBXX BAREU60 17064 99436 10135 46/// ///// 49953 52043 22242
AAXX 17064 48001 NIL
AAXX 17064 48004 32562 10401 10187 20159 81100 333 56900
AAXX 17064 48008 32556 20000 10230 20124 40160 82200 333 56800 59003
AAXX 17064 48010 32558 11801 10195 20168 40171 81100 333 56900 58009
AAXX 17064 48018 32360 13601 10240 20174 40174 81100 333 56900 59002
AAXX 17064 48019 32960 00402 10232 20198 40164 333 59003
AAXX 17064 48020 32460 23601 10215 20143 84800 333 56500
AAXX 17064 48025 31458 40901 10227 20181 40171 70144 83840 333 56790 59008
AAXX 17064 48035 31558 42201 10215 20136 40150 70522 84840 333 56500 59007
AAXX 17064 48037 32564 23201 10254 20150 40151 82200 333 56600 59004
AAXX 17064 48042 32958 03201 10255 20155 40157 333 58002
AAXX 17064 48045 32560 20000 10173 20117 82100 333 56200
AAXX 17064 48048 32962 00401 10250 20167 40163 333 58000
AAXX 17064 48053 32956 03605 10260 20138 40148 333 59006
AAXX 17064 48057 32460 22202 10226 20074 82500 333 56500
AAXX 17064 48060 32440 20000 10228 20163 40152 82100 333 56500 59016
AAXX 17064 48062 32960 02703 10252 20170 40147 333 59008
AAXX 17064 48071 32960 03203 10250 20186 40155 333 58005
AAXX 17064 48077 32960 00000 10290 20159 40145 58003
AAXX 17064 48078 32558 23202 10278 20152 40140 81101 333 56909 58003
AAXX 17064 48080 32961 03201 10308 20189 40129 333 58004
AAXX 17064 48094 32968 03602 10295 20225 40138 333 58005
AAXX 17064 48097 32957 10403 10320 20184 40130 80001 333 56009 59005
AAXX 17064 48108 31597 30902 10325 20188 40122 70511 81105 333 56209 58004
AAXX 17064 48109 32597 20402 10310 20254 40125 80030 333 56090 59001
AAXX 17064 48110 31596 60906 10330 20206 40114 70522 81106 333 56209 58006
AAXX 17064 48112 NIL
AAXX 17064 48001 NIL
AAXX 17064 48004 32562 10401 10187 20159 81100 333 56900
AAXX 17064 48008 32556 20000 10230 20124 40160 82200 333 56800 59003
AAXX 17064 48010 32558 11801 10195 20168 40171 81100 333 56900 58009
AAXX 17064 48018 32360 13601 10240 20174 40174 81100 333 56900 59002
AAXX 17064 48019 32960 00402 10232 20198 40164 333 59003
AAXX 17064 48020 32460 23601 10215 20143 84800 333 56500
AAXX 17064 48025 31458 40901 10227 20181 40171 70144 83840 333 56790 59008
AAXX 17064 48035 31558 42201 10215 20136 40150 70522 84840 333 56500 59007
AAXX 17064 48037 32564 23201 10254 20150 40151 82200 333 56600 59004
AAXX 17064 48042 32958 03201 10255 20155 40157 333 58002
AAXX 17064 48045 32560 20000 10173 20117 82100 333 56200
AAXX 17064 48048 32962 00401 10250 20167 40163 333 58000
AAXX 17064 48053 32956 03605 10260 20138 40148 333 59006
AAXX 17064 48057 32460 22202 10226 20074 82500 333 56500
AAXX 17064 48060 32440 20000 10228 20163 40152 82100 333 56500 59016
AAXX 17064 48062 32960 02703 10252 20170 40147 333 59008
AAXX 17064 48071 32960 03203 10250 20186 40155 333 58005
AAXX 17064 48077 32960 00000 10290 20159 40145 58003
AAXX 17064 48078 32558 23202 10278 20152 40140 81101 333 56909 58003
AAXX 17064 48080 32961 03201 10308 20189 40129 333 58004
AAXX 17064 48094 32968 03602 10295 20225 40138 333 58005
AAXX 17064 48097 32957 10403 10320 20184 40130 80001 333 56009 59005
AAXX 17064 48108 31597 30902 10325 20188 40122 70511 81105 333 56209 58004
AAXX 17064 48109 32597 20402 10310 20254 40125 80030 333 56090 59001
AAXX 17064 48110 31596 60906 10330 20206 40114 70522 81106 333 56209 58006
AAXX 17064 48112 NIL
AAXX 17064 96315 33470 73206 10298 20243 40065 82848 333 82817 85080
AAXX 17064 96323 NIL
AAXX 17064 85577 11958 02203 10142 20113 39561 40173 58009 60001 70500
AAXX 17064 85682 12460 20000 10132 20123 40172 58014 60001 82600 333 56600 82710
AAXX 17064 85743 12360 89902 10130 20116 40192 58004 60001 885// 333 56699 88607
AAXX 17064 85799 11140 42205 10129 20129 40192 57005 60001 71011 84600 333 56500 84702
AAXX 17064 85406 12982 00603 10190 20124 40161 57015 60001
AAXX 17064 85418 12965 01902 10196 20130 40165 58015 60001
AAXX 17064 85442 12468 49901 10174 20147 40163 56009 60001 84500 333 56400 84610
AAXX 17064 85469 42560 40000 10217 20194 40234 52012 84200 333 56600 84820
AAXX 17064 41170 41956 02104 10181 20109 30186 40199 70400 333 20136 58007 555 00096
AAXX 17064 91376 11474 30712 10284 20236 30069 40073 53008 60041 70281 82101 333 562/9 70079 555 91706
AAXX 17064 85934 12580 51706 10105 20016 40103 58016 60001 83530 333 56550 83620 85360
AAXX 17064 91772 31498 30607 10291 20243 4//// 60001 70200 81102 333 561/9 81708 83080
AAXX 17064 91776 NIL
AAXX 17064 91779 NIL
AAXX 17064 91784 31498 70505 10280 20252 40131 53006 60001 70222 82108 333 561/9 82817 87278
AAXX 17064 91792 31498 70405 10280 20253 40137 53004 60001 70222 82108 333 568/9 82815 87278
AAXX 17064 91487 NIL
AAXX 17064 91490 NIL
AAXX 17064 91533 NIL
AAXX 17064 91601 NIL
AAXX 17064 91610 11498 60914 10285 20245 40063 52006 60001 71500 86530 333 5629/
AAXX 17064 86614
AAXX 17064 91623 NIL
AAXX 17064 91629 NIL
AAXX 17064 91701 NIL
AAXX 17064 85934 12580 51706 10105 20016 40103 58016 60001 83530 333 56550 83620 85360
AAXX 17064 85406 12982 00603 10190 20124 40161 57015 60001
AAXX 17064 85418 12965 01902 10196 20130 40165 58015 60001
AAXX 17064 85442 12468 49901 10174 20147 40163 56009 60001 84500 333 56400 84610
AAXX 17064 85469 42560 40000 10217 20194 40234 52012 84200 333 56600 84820
AAXX 17064 85577 11958 02203 10142 20113 39561 40173 58009 60001 70500
AAXX 17064 85682 12460 20000 10132 20123 40172 58014 60001 82600 333 56600 82710
AAXX 17064 85743 12360 89902 10130 20116 40192 58004 60001 885// 333 56699 88607
AAXX 17064 85799 11140 42205 10129 20129 40192 57005 60001 71011 84600 333 56500 84702
BBXX 44007 17061 99435 70701 46/// /3104 10042 21026 40156 58008 90550 22200 00086 11201 3//// 41201 70006 333 91204 555 11036 22037 30451 43006 60549 308034 297025 300025 284028 283034 286045
BBXX 42085 17061 99179 70665 46/// /0405 10245 40147 90540 333 91206
AAXX 17064 78925 14784 /0403 10247 20206 40125 58006 60001 700// 333 10295 20199 55053 21336 58011 70028
AAXX 17064 08583 31458 60615 10220 20171 40156 70621 868// 333 20208 59005 82619 86650
AAXX 17064 08594 32460 50609 10217 20173 40146 81530 333 20210 59006 81615 85360
AAXX 17064 08589 NIL
AAXX 17064 68352 36/// /1018 10217 20010 39120 48569 52002 333 20182 91085 555 10297 91022
AAXX 17061 13586 32865 30401 10107 20022 39682 49965 57018 83030 333 20036 31/// 83358
AAXX 17064 78925 14784 /0403 10247 20206 40125 58006 60001 700// 333 10295 20199 55053 21336 58011 70028
AAXX 17064 91376 11474 30712 10284 20236 30069 40073 53008 60041 70281 82101 333 562/9 70079 555 91706
AAXX 17061 33815 11596 71504 10027 20026 39775 49982 57015 69942 71054 84532 333 20022 555 80011
AAXX 17064 85874 32984 /3114 10126 20067 39525 40141 58010
AAXX 17064 91413 32469 80914 10307 20241 30059 40084 57015 82372 333 56299 70000 555 91706
AAXX 17064 81225 11958 10000 10238 20235 40100 60001 71000 80002 333 56009 58003 81080
AAXX 17064 81200 NIL
AAXX 17064 81202 NIL
AAXX 17064 81209 NIL
AAXX 17064 81251 NIL
AAXX 17061 12772 11458 81801 10056 20044 39587 49865 58012 60162 76162 8802/ 333 20044 4/000 55056 70224 88516
AAXX 17061 12822 NIL
AAXX 17061 12843 11465 83104 10047 20026 39713 49881 55008 60212 76186 8472/ 333 20047 4/000 55041 70222 84710 88523
AAXX 17061 12882 11265 81102 10071 20064 39736 49865 58014 60092 76166 8472/ 333 20055 4/000 55038 70090 84705 88523
AAXX 17061 12925 16/// /3003 10029 20019 39751 49922 53011 60322 333 20023 70322
AAXX 17061 12942 11480 83306 10026 20013 39662 49906 52024 60132 76162 8372/ 333 20016 4/000 55032 70131 83716
AAXX 17061 12982 11457 83308 10047 20034 39775 49875 52014 60142 76362 8552/ 333 20047 4/000 55060 70142 85610 88520
AAXX 17064 91413 32469 80914 10307 20241 30059 40084 57015 82372 333 56299 70000 555 91706
AAXX 17064 85874 32984 /3114 10126 20067 39525 40141 58010
AAXX 17064 81225 11958 10000 10238 20235 40100 60001 71000 80002 333 56009 58003 81080
AAXX 17064 81200 NIL
AAXX 17064 81202 NIL
AAXX 17064 81209 NIL
AAXX 17064 81251 NIL
AAXX 17064 78925 14784 /0403 10247 20206 40125 58006 60001 700// 333 10295 20199 55053 21336 58011 70028
AAXX 17061 10004 NIL
AAXX 17061 10015 01475 63112 10051 20019 39914 49924 51020 60022 78081 86900 222// 02068 333 10067 20040 32002 55000 55300 20000 30000 69987 70017 84813 82925 91121 91216 96287 96488
AAXX 17061 10020 07584 73410 10043 20022 39875 49907 53023 69902 72365 333 10054 20026 3/002 55000 55300 20000 30000 69907 70001 83/24 87/34 87/60 91119 91213
AAXX 17061 10035 12982 03106 10022 20007 39842 49901 53026 69902 333 10040 20017 31001 55000 55300 20000 30000 40850 70027
AAXX 17061 10055 11482 33114 10043 20022 39857 49867 53027 60022 70181 83500 333 10053 20031 31003 55000 55300 20000 30000 70087 83615 91119 91215
AAXX 17061 10147 12480 42905 10027 20010 39889 49907 53035 60022 84500 333 10042 20020 31001 55000 55300 20000 30000 40970 70136 82617 83638 91114
AAXX 17061 10162 01462 73006 10028 20010 39794 49876 52039 60062 70276 875// 333 10039 20002 31100 55000 55300 20000 30000 69907 70160 87615 91114
AAXX 17061 10184 01463 83009 10039 20021 39808 49816 53045 60112 76076 877// 333 10040 20010 32000 55000 55300 20000 30000 60037 70185 87713 91118 91212
AAXX 17061 10200 01367 73008 10053 20024 39950 49948 51026 60012 78182 879// 333 10056 20036 31001 55000 55300 20000 30000 69967 70075 82709 87920 91116
AAXX 17061 10224 01480 42907 10031 20004 39928 49934 53032 60012 72586 84830 333 10047 20022 32001 55000 55300 20000 30000 69907 70162 82815 83640
AAXX 17061 10270 06460 82807 10024 20015 39813 49868 52045 60072 222// 06046 333 10032 20004 3/000 55000 55300 60017 70227 87/12 88/18 91119
AAXX 17061 10338 01580 12806 10022 20013 39857 49930 53030 60012 70181 81100 333 10034 20003 32100 55000 55300 20000 30000 69917 70220 81825 91117
AAXX 17061 10361 01582 83004 10038 20011 39802 49905 53040 60022 72162 888// 333 10040 20010 31000 55000 55300 20000 30000 69907 70176 83820 85626 88636 91113
AAXX 17061 10393 01465 82708 10029 20014 39726 49851 51044 60032 72176 875// 333 10072 20007 32000 55000 55300 20000 30000 69917 70168 87617 91118 91212
AAXX 17061 10400 01681 12905 10029 20018 39944 49994 51031 69952 70186 81530 333 10046 20025 32001 55000 55300 20000 30000 69927 70109 81648
AAXX 17061 10438 07431 72705 10028 20006 39679 49959 53034 60022 75876 333 10034 20017 3/001 55000 55300 69907 70150 82/13 85/50 87/74 91113
AAXX 17061 10469 01382 82809 10033 20007 39745 49909 53034 69992 76872 8272/ 333 10055 20024 31002 55000 55300 69907 70120 82709 87517 91115 91211
AAXX 17061 10488 01465 82808 10028 20003 39616 49895 53032 69972 72762 875// 333 10092 20024 31002 55001 55300 20000 30000 41148 69907 70053 87618 91119 91213
AAXX 17061 10506 01165 83203 10005 20000 39423 40010 53035 60022 78588 888// 333 10009 21002 3/101 43002 55000 55300 20000 30000 69997 70134 87803 96486
AAXX 17061 10548 01470 82905 10014 21009 39416 49957 53037 69992 72276 888// 333 10026 20008 3/000 42002 55000 55300 20000 30000 69917 70177 84811 87633 91113
AAXX 17061 10637 01475 72303 10033 20015 39854 49992 53034 69902 72122 875// 333 10062 20029 31002 55000 55300 69907 70110 82711 86521
AAXX 17061 10685 01357 82805 10001 21006 39265 49939 53029 60022 77176 875// 333 10042 21002 3/101 43002 55000 55300 20000 30000 60017 70218 83708 86633 91114 96468 96458
AAXX 17061 10738 01465 72303 10012 21006 39533 40006 53028 69932 77172 875// 333 10047 20007 31000 55000 55300 69917 70164 81713 87638 91113
AAXX 17061 10763 01468 72807 10017 21001 39584 49967 51030 60032 72272 878// 333 10068 20008 31000 55000 55300 20000 30000 69907 70075 83810 83612 87630 91115
AAXX 17061 10788 07480 72607 10009 20002 39522 49955 50017 69932 77176 333 10083 20008 3/000 55000 55300 20000 30000 69917 70118 83/11 84/26 87/33 91117
AAXX 17061 10852 01362 82608 10003 21002 39417 49990 53026 69922 77172 888// 333 10062 21001 3/101 43001 55000 55300 20000 30000 69917 70098 82809 88623 91114
AAXX 17061 10946 07/29 /2304 11008 21013 39172 40011 51023 60022 77176 333 10053 21009 3/101 55000 55300 20000 30000 69947 70221 91117
BBXX BATFR15 17064 99223 70470 44898 21819 10232 20207 40100 58018 70122 82211 22263 00254 335// 41006 5////
BBXX BATFR05 17064 99063 10034 46/// /0104 10254 20235 40114 53006 22200 00260
BBXX BATFR27 17064 99488 70022 46/// /3318 10104 20024 40121 53029 22233 00117
BBXX BATFR42 17064 99507 70020 46/// /2912 10035 20022 40100 51027 22261 00120
BBXX BATEU06 17064 99550 70307 46/// /2518 10049 20017 40198 51001 22264 00074
BBXX BATFR60 17064 99538 10070 46/// /3127 10060 20019 49945 53006 22223 00064
BBXX BATFR31 17064 99419 10087 46/// ///// 10122 40064 51011 22200 00165
BBXX BATFR13 17064 99447 70153 44797 73007 10119 20037 40295 57010 70222 8577/ 22214 00145
BBXX BATFR54 17064 99455 70020 46/// /2922 10094 20057 40155 55009 22223 00145
BBXX BATFR46 17064 99425 10036 46/// /3125 10097 20054 40133 51035 22243 00164
BBXX BATEU01 17064 99468 70574 44597 62727 10034 21018 40039 53042 70222 84353 22224 00052 21004 318// 41004 5////
BBXX BATFR52 17064 99487 70040 46/// /3227 10084 20027 40136 51018 22200 00119
BBXX BATFR08 17064 99461 30730 46/// /2519 10072 20054 40188 51003 22213 00087
BBXX BATEU04 17064 99594 70021 46/// /3520 10042 21013 49989 53017 22233
BBXX BATFR55 17064 99201 30574 44597 71304 10229 20217 40117 72566 86172 22262 00259 203// 33030 406// 506//
BBXX BATFR41 17064 99432 10035 46/// /2832 10089 20037 40106 51017 22251
BBXX BATFR03 17064 99508 70011 46/// /3115 10034 20010 40090 51031 22272
BBXX BATEU08 17064 99628 70193 46/// /2709 10020 21043 40084 51018 22263
BBXX BATFR30 17064 99418 10084 46/// /2934 10125 20040 40048 22224 00169
BBXX BAREU06 17064 99465 70723 46/// ///// 40185 52008 22243
BBXX BATFR21 17064 99427 10087 46/// /2537 20295 40027 56010 22223
BBXX BATFR04 17064 99597 70110 44497 83017 10044 21006 40078 51024 72122 887// 22200 00102 300// 40306 5////
AAXX 17064 64550 32460 8//// 10239 20224 30/// 40/// 885// 333 02200 20219 50144 55/// 5//// 84613 88620
AAXX 17064 64551 31240 82206 10252 20238 30085 40114 71022 885// 333 0//00 20222 50034 55/// 59001 82703 83610 88626
BBXX BATFR32 17064 99430 10061 46/// /3038 10098 21025 40077 52075 7//// 8//// 22254 00160
BBXX BATFR19 17064 99065 30060 46/// /1721 10239 20205 40127 53001 22200 00254
AAXX 17064 78897 12580 30000 10202 20187 40134 58011 60001 83800 333 028// 10286 20201 58019 70002 81820 83643
AAXX 17064 78897 12580 30000 10202 20187 40134 58011 60001 83800 333 028// 10286 20201 58019 70002 81820 83643
AAXX 17064 78958 11450 70610 10244 20224 30107 40117 69901 78011 874// 333 10314 20226 58011 84816 87634
AAXX 17064 78958 11450 70610 10244 20224 30107 40117 69901 78011 874// 333 10314 20226 58011 84816 87634
AAXX 17064 91348 11469 80208 10278 20248 30024 40076 55002 60041 78082 8527/ 333 56199 70168 555 91706
AAXX 17064 87418 32965 31803 10196 20121 39338 40114 56001 83070 333 56060 83360 555 10158
AAXX 17061 78221 NIL
AAXX 17061 78224 31859 20703 10216 20181 30129 40204 58004 70544 82030 333 82356
AAXX 17061 78229 42559 21001 10214 20187 30131 40206 57010 82800 333 82820
AAXX 17061 78239 41559 20806 10233 20190 30186 40189 57010 70500 82800 333 81820
AAXX 17061 78244 NIL
AAXX 17061 78243 42559 23401 10173 20165 30079 40203 57007 82200 333 82830
AAXX 17061 78255 42559 10503 10197 20178 30043 40192 57010 81801 333 81820
AAXX 17061 78264 32960 00103 10210 20169 30097 40171 54000
AAXX 17061 78265 41060 00604 10193 20175 30078 40178 57010 70000
AAXX 17061 78256 NIL
AAXX 17061 78259 NIL
AAXX 17061 78268 NIL
AAXX 17064 87692 31558 71808 10166 20134 30101 40126 57019 71022 86570 555 56550 86620 555 10125
AAXX 17061 01001 NIL
AAXX 17061 01008 11482 71109 10002 21050 39935 49968 52002 69902 77072 875// 333 21004 79999 91114
AAXX 17061 01010 16/// /1605 10007 21036 39873 49889 52008 6//// 333 20002 91110
AAXX 17061 01026 NIL
AAXX 17061 01055 NIL
AAXX 17061 01062 NIL
AAXX 17061 01098 NIL
AAXX 17061 01115 16/// /1613 10039 21029 39849 49869 53010 6//// 333 20035 91117
AAXX 17061 01152 NIL
AAXX 17061 01205 NIL
AAXX 17061 01212 NIL
AAXX 17061 01271 NIL
AAXX 17061 01288 11570 70000 11081 21090 39162 49924 52011 60002 70222 85309 333 21092 47017 70000 91106
AAXX 17061 01300 NIL
AAXX 17061 01317 NIL
AAXX 17061 01367 NIL
AAXX 17061 01384 11587 73602 11026 21031 39655 49902 53010 60002 70322 875// 333 21031 91105
AAXX 17061 01403 11575 2//// 10039 20011 39841 49909 50005 60052 70281 82900 333 70046
AAXX 17061 01415 NIL
AAXX 17061 01482 46/// /0309 10028 21003 39884 49892 52009 333 20026 91113
AAXX 17061 01492 NIL
AAXX 17061 01003 NIL
AAXX 17061 01007 11889 41503 11008 21066 39968 49978 53007 60002 70300 84040 333 21013 44004 70000 91112
AAXX 17061 01028 NIL
AAXX 17061 01047 NIL
AAXX 17061 01049 NIL
AAXX 17061 01078 11375 71505 11017 21052 39918 49931 53012 6//// 70222 85240 333 21022 91111
AAXX 17061 01102 46/// /1616 10030 21017 39856 49875 53013 333 20022 91119
AAXX 17061 01160 NIL
AAXX 17061 01218 NIL
AAXX 17061 01238 46/// /1401 11120 21137 38766 49886 52008 333 21127 91103
AAXX 17061 01241 NIL
AAXX 17061 01281 NIL
AAXX 17061 01338 16/// /0703 11002 21026 39848 49915 53011 69942 333 21006 70006 91109
AAXX 17061 01359 NIL
AAXX 17061 01397 NIL
AAXX 17061 01400 NIL
AAXX 17061 01427 11584 70302 10007 21025 39900 49917 53013 60002 70221 84838 333 20007 70003 91106
AAXX 17061 01447 NIL
AAXX 17061 01448 46/// /3604 11002 21026 39899 49909 52013 333 21002 91107
AAXX 17061 10609 01480 82703 10023 20006 39689 40021 53035 60012 72176 885// 333 10033 20011 31001 55000 55300 20000 30000 69907 70108 84614 87622
AAXX 17061 10616 01035 82906 10000 21004 39403 40008 53033 60042 77172 876// 333 10016 21003 3/101 43003 55000 55300 69927 70153 83701 87702 91113 96010
AAXX 17061 10641 07574 82205 10035 20010 39842 49989 53034 69912 75165 333 10061 20029 3/002 55000 55300 69907 70118 87/23 88/28
AAXX 17061 10655 01575 8//05 10021 20007 39648 49977 51036 60022 76177 875// 333 10052 20012 31000 55000 55300 20000 30000 69907 70081 87620 91115
AAXX 17061 10675 07482 82706 10024 21000 39673 49965 53032 69992 76176 333 10062 20018 3/001 55000 55300 20000 30000 69907 70151 84/15 87/34 88/50 91114
AAXX 17061 10688 07368 72603 10006 21002 39431 49955 53031 60022 70076 333 10059 20002 3/000 55000 55300 20000 30000 69917 70282 85/09 87/12 87/20 91113
AAXX 17061 10708 01270 82804 10015 20007 39632 40021 53033 60022 70272 886// 333 10023 20004 33000 55000 55300 20000 30000 69927 70211 82705 87708 91113 96471 96468
AAXX 17061 10729 07485 82705 10039 20009 39888 40010 53034 69912 70065 333 10063 20035 3/002 55000 55300 20000 30000 69917 70049 83/19 87/41 88/50 91116
AAXX 17061 10731 01770 72405 10028 20011 39867 40011 53032 69912 72162 8253/ 333 10053 20027 32002 55000 55300 20000 30000 69917 70186 82650 87362 91116 91211
AAXX 17061 10742 07369 72704 10016 20008 39665 49998 53034 60082 72376 333 10053 20004 3/100 55000 55300 20000 30000 69917 70207 87/08 87/12 91113
AAXX 17061 10776 01481 82905 10010 20000 39521 49967 53029 69992 77176 875// 333 10070 20004 31000 4/998 55000 55300 20000 30000 69927 70197 87615 91117 91211
AAXX 17061 10791 01/90 9//// 11060 21064 38285 48245 51021 60142 77374 333 10001 21061 49078 55000 55300 60037 70324 96049
AAXX 17061 10805 01482 82302 10028 20014 39837 40029 53030 60022 76162 885// 333 10062 20014 31000 55000 55300 20000 30000 69937 70091 86610 88622
AAXX 17061 10815 01/06 92806 11015 21015 39067 48312 53030 60062 77377 333 10011 21021 3/102 48011 55000 55300 20000 30000 60057 70501 89/01 91122 91213
AAXX 17061 10836 01/01 92810 11017 21017 39120 49998 53027 60022 77174 333 10023 21021 3/102 44004 55000 55300 20000 30000 60027 70107 89/01 91121 91216 96049
AAXX 17061 10870 01215 82708 10001 20000 39444 49982 53019 69982 77372 8452/ 333 10077 20000 3/100 43003 55000 55300 69917 70074 84705 87512 91118 91212
AAXX 17061 10895 01470 82508 10000 21007 39391 49964 53024 60022 77876 875// 333 10092 21005 3/101 44003 55000 55300 20000 30000 69987 70124 83710 87622 91121 91213
AAXX 17061 10908 01/01 92812 11059 21061 38307 48315 53023 69972 77374 333 11035 21069 3/107 49036 55000 55300 20000 30000 69907 70323 89/01 91127 91218 90351 91221 96049
AAXX 17061 10929 01468 82505 10008 20000 39482 40018 52016 60022 77182 8787/ 222// 06066 333 10061 21001 3/101 43002 55000 55300 20000 30000 69917 70348 81815 87650 91113
AAXX 17061 10948 01315 80704 11018 21019 39066 48317 53019 60092 77377 877// 333 10047 21020 3/102 47010 55000 55300 20000 30000 60047 70210 87707 96475
AAXX 17061 10961 11/01 93413 11174 21174 36841 47788 53012 60112 77374 333 11099 21176 49100 55000 55300 20000 40936 70021 91122 91211 96049
AAXX 17061 10962 01/05 92408 11033 21033 38840 48295 53021 69992 77372 333 10021 21033 3/104 48002 55000 55300 20000 30000 69927 70068 91118 96036
AAXX 17061 10980 11/01 92816 11093 21093 37925 48290 53011 60052 77174 333 11030 21095 3/109 48030 55000 55300 20000 30000 70070 91129 91218 90320 91221 96049 96471 96449
AAXX 17061 13579 32665 81605 10082 20056 39192 40010 57008 885// 333 20081 31/// 88643
AAXX 17061 10007 NIL
AAXX 17061 10044 NIL
AAXX 17061 10046 12462 73107 10032 20008 39853 49892 52031 69982 875// 333 10047 20026 32001 55000 70077 87612 91113
AAXX 17061 10091 01465 83215 10038 20023 39753 49803 51041 60082 75865 875// 222// 06061 333 10042 20024 32002 55000 55300 20000 30000 69907 70122 85710 87620 91124 91216
AAXX 17061 10113 01480 63315 10050 20020 39926 49945 53025 69982 78181 86800 222// 06051 333 10069 20044 32003 55000 55300 20000 30000 69907 70029 85818 83645 91122 91216
AAXX 17061 10124 NIL
AAXX 17061 10131 01683 23211 10049 20006 39905 49920 53026 69932 70261 82500 222// 02042 333 10056 20036 31003 55000 55300 20000 30000 69937 70068 82648 91118 91211
AAXX 17061 10170 11468 83115 10047 20027 39835 49851 53039 60052 70362 8555/ 333 10050 20018 32002 55000 55300 20000 30000 70115 82614 83626 91120 91216
AAXX 17061 10264 01464 72908 10023 20008 39762 49868 53043 60082 72176 875// 333 10031 20001 3/000 44001 55000 55300 20000 30000 69967 70165 87610 91115
AAXX 17061 10291 01480 82710 10033 20016 39759 49826 51046 60052 72176 875// 333 10041 20001 32000 4/998 55000 55300 20000 30000 69927 70183 87614 91118 91212
AAXX 17061 10315 11680 12804 10026 20006 39906 49970 53031 60022 70186 81500 333 10044 20020 31000 55000 55300 20000 30000 70184 81645
AAXX 17061 10379 01566 82810 10028 20010 39748 49868 53043 60032 72176 885// 333 10050 20002 31100 55000 55300 20000 30000 41153 69907 70205 88620 91120 91213
AAXX 17061 10382 01162 82807 10028 20013 39816 49861 51042 60032 76176 875// 333 10068 20004 31000 55000 55300 20000 30000 69917 70216 82703 87612 91116
AAXX 17061 10384 06/// /2909 10033 20016 39799 49858 51042 60062 333 10078 20008 3/000 55000 55300 20000 30000 69917 70248 91117 91211
AAXX 17061 10427 01050 83211 11019 21019 38962 48278 53038 60082 77087 888// 333 11012 21020 3/102 48037 55000 55300 20000 30000 69967 70285 82801 86805 91119 91213 96485 96473 96471 96449
AAXX 17061 10430 01362 72605 10025 20015 39776 49969 53044 60032 77766 875// 333 10034 20006 31000 55000 55300 20000 30000 69917 70241 85708 87612
AAXX 17061 10439 11460 63303 10029 20007 39746 49966 52037 60022 72162 83501 333 10038 20022 31000 70151 81710 83625 85072
AAXX 17061 10453 11/90 93120 11041 21042 38584 48230 53028 60162 77174 333 11037 21055 3/105 49110 55000 55300 70412 91134 91221 96049 96038 96471 96449 96438
AAXX 17061 10496 01370 82807 10036 20010 39779 49863 52038 60022 78062 872// 333 10081 20020 31002 55000 55300 20000 30000 69917 70109 87809 91116
AAXX 17061 10499 01469 82606 10028 20003 39593 49880 53038 60012 76162 875// 333 10077 20023 32002 55000 55300 20000 30000 69937 70049 87618 91119 91212
AAXX 17061 10505 01158 42705 10015 20015 39735 40019 53035 60052 72387 83831 333 10017 20000 3/000 42001 55000 55300 20000 30000 60017 70126 82803 96487 96484
AAXX 17061 10513 01272 83003 10033 20027 39881 40003 53034 60032 72176 875// 333 10044 20017 31001 55000 55300 20000 30000 60017 70110 83706 87612 96468
AAXX 17061 10532 07464 72603 10026 20010 39730 49978 53037 69942 75765 333 10040 20021 3/001 55000 55300 20000 30000 69907 70119 87/10 87/26
AAXX 17061 10544 01/00 93006 11023 21023 38879 48271 53035 60052 78587 333 11014 21025 3/103 48012 55000 55300 69987 70153 91115 96049 96036 96147 96285 96478 96473 96471
AAXX 17061 10554 01575 62907 10017 20003 39553 49941 51037 69922 72376 86500 333 10026 20009 31100 55003 55300 20000 30000 69907 70024 83620 86637 91114 91211 96268 96468 96461
AAXX 17061 10567 01482 72907 10021 21005 39550 49924 51034 69912 72162 875// 333 10065 20021 31001 55000 55300 20000 30000 69917 70014 87614 91119 91212
AAXX 17061 10578 11/01 92724 11047 21051 38508 48222 53020 60072 77174 333 10005 21048 3/105 49051 55000 55300 20000 30000 70236 96049 96038
AAXX 17064 91348 11469 80208 10278 20248 30024 40076 55002 60041 78082 8527/ 333 56199 70168 555 91706
AAXX 17064 78862 12480 70310 10240 20149 30114 40137 60001 87800 333 10284 20238 58016 83818 85632
AAXX 17064 000Z 1612/1712 03014KT 9999 SCT022 PROB30 TEMPO 1612/1712 SHRA BKN020
AAXX 17064 TAF TQPF 161000Z 1612/1712 03014KT 9999 SCT022 PROB30 TEMPO 1612/1712 SHRA BKN020
AAXX 17064 TAF TUPJ 161000Z 1612/1712 03014KT 9999 SCT022 PROB30 TEMPO 1612/1712 SHRA BKN020
AAXX 17064 TAF TUPJ 121600Z 1218/1318 VRB04KT 9999 SCT016 PROB30 TEMPO 1218/1318 SHRA FEW012CB BKN015 BECMG 1312/1314 10008KT
AAXX 17064 EMPO 0600/0624 SHRA BKN015=+TSRA SCT012CB
AAXX 17064 TAF TUPJ 041000Z 04012/0512 07008KT 9999 SCT016 BKN038 SCT270 TEMPO 0412/0512 SHRA BKN015 PROB40 TEMPO 0418/0512 5000 SHRA BKN014 BKN036 PROB30 0420/0512 4000 TSRA FEW012CB
AAXX 17064 918 4000 TSRA FEW012CB
AAXX 17064 N015 BKN036 PROB40 TEMPO 0704/0724 3000 +TSRA SCT011CB BKN012 BECMG 0712/0714 14008KT
AAXX 17064 21/2712 07017G28KT 5000 SHRA BKN015 BKN036 PROB TEMPO 2700/2712 4000 TSRA FEW013CB
AAXX 17064 PROB30 TEMPO 0800/0806 4000 TSRA FEW012CB PROB40 TEMPO 0800/0824 2000 +SHRA/TSRA SCT010CB BKN012 BKN250
AAXX 17064 48601 11560 70804 10307 20251 30079 40083 6///1 70522 83841 333 82820 83364 87178
AAXX 17064 48615 11462 70717 10295 20249 30092 40098 69961 72582 82142 333 82818 87074
AAXX 17064 48620 11465 72005 10302 20239 30074 40083 60001 70522 85952 333 81917 83818 85364
AAXX 17064 48647 11460 73008 10311 20271 30058 40082 69941 78022 84952 333 81710 81917 83818 86364
AAXX 17064 48657 11456 80207 10284 20252 30071 40088 6///1 76166 84887 333 82710 84624 88276
AAXX 17064 48665 11462 70307 10281 20246 30081 40091 69921 71562 83348 333 81712 81917 83820 86276
AAXX 17064 96413 11565 72703 10287 20240 30045 40071 60081 72586 84542 333 84622 83365 86080
AAXX 17064 96421 12480 70804 10315 20239 30026 40061 60001 84231 333 84818 83365 85080
AAXX 17064 96441 12480 72702 10297 20249 30034 40061 6///1 82231 333 82814 83365 86080
AAXX 17064 96449 12480 73107 10297 20248 30040 40059 6///1 83231 333 83814 84365 85080
AAXX 17064 96465 12478 73003 10301 20252 30025 40058 6///1 81838 333 81810 84364 87278
AAXX 17064 96471 11475 73102 10298 20249 30057 40060 69901 70262 82848 333 81814 84364 87277
AAXX 17064 96481 11462 71503 10300 20262 30038 40057 6///1 70122 82841 333 82817 84364 86080
AAXX 17064 96491 11450 72704 10263 20251 30049 40061 60211 72162 84948 333 82814 81917 83645 87276
BBXX VCXF 17064 99464 70484 41896 81933 10055 2006/ 40065 57036 76162 8804/ 22200 02038 20504 31117 40802 50802 80055
AAXX 17061 11816 11570 82906 10049 21007 39744 49905 52012 60012 76062 885// 333 20046 31004 70057 82628 88636
AAXX 17061 11826 11784 82906 10049 20005 39696 49892 52007 60032 70262 8357/ 333 20048 32003 70084 83650 88358
AAXX 17061 11903 11665 89901 10018 20012 39507 49884 55003 60222 70262 885// 333 20010 32001 70267 88636
AAXX 17061 11934 11470 89901 10014 20002 39058 42525 58001 60022 76862 8257/ 333 21002 31101 70020 82710 88450
AAXX 17061 11968 11465 81802 10055 20045 39589 49863 57006 60162 76362 885// 333 20041 32004 70162 84715 88622
AAXX 17064 48698 01464 70509 10298 20260 30062 40080 60021 70586 85978 333 60027 81815 83816 81917
AAXX 17064 48698 01464 70509 10298 20260 30062 40080 60021 70586 85978 333 60027 81815 83816 81917
AAXX 17064 07005 02980 03009 10032 20019 39979 40070 51032 69922 333 10055 20028 32002 55004 60007 70081 90710 91113 555 60005
AAXX 17064 07015 01457 73607 10035 20028 39994 40052 53033 60062 780// 878// 333 10041 20022 32001 55000 60027 70127 84815 87630 90710 91111 93100 555 69925
AAXX 17064 07027 02580 52806 10026 20013 30020 40103 53029 60022 85200 333 10054 20026 32001 55016 69927 70092 81829 85836 90710 91113 93100 555 69925
AAXX 17064 07037 01450 82803 10016 20013 39897 40085 52034 60022 72586 875// 333 10047 20016 32101 55008 60017 70072 85610 88623 90710 91109 93100 555 69945
AAXX 17064 07070 04470 83108 10036 20021 39944 40056 53033 69902 700// 333 10038 20024 31002 55000 60007 70101 90710 91117 555 60005
AAXX 17064 07110 01565 73115 10073 20022 30031 40147 51019 60102 70187 879// 333 10087 20048 32004 55014 60047 70181 81920 87831 90710 91126 555 69905
AAXX 17064 07117 06/// /3213 10073 20032 30064 40135 53026 69922 333 10094 20061 60007 90710 91125 555 60005
AAXX 17064 07130 04585 82810 10052 20032 30071 40124 53030 60022 700// 333 10057 20030 32001 55020 60017 70034 90710 91124 555 69985
AAXX 17064 07139 02470 32704 10029 20006 39924 40102 53033 60022 83800 333 10046 20028 31001 55025 60007 70030 81815 83646 90710 91109 93100 555 60005
AAXX 17064 07149 01575 62908 10028 20019 39964 40075 51031 60012 70386 86800 333 10041 20019 32001 55014 60007 70089 84828 85642 90710 91113 93100 555 60005
AAXX 17064 07168 02470 72712 10034 20014 39924 40069 53028 69942 878// 333 10045 20031 32002 55001 60007 70097 85816 87650 90710 91119 93100 555 60005
AAXX 17064 07181 04384 82910 10015 20008 39627 40044 53033 60032 700// 333 10027 20005 3/000 55/// 60017 70300 90710 91120 555 60005
AAXX 17064 07190 04586 83013 10034 20001 39842 40026 53034 69902 700// 333 10055 20030 31003 55000 69907 70085 90710 91121 555 60005
AAXX 17064 07207 02560 43425 10077 20030 60032 8427/ 222// 327// 333 10103 20061 60007 91037 90710 91141 92467 555 60005
AAXX 17064 07222 01970 73110 10062 20034 30097 40129 53027 69902 703// 8707/ 333 10069 20028 31101 55027 60007 70039 82360 86363 90710 91119 555 60005
AAXX 17064 07240 01482 62809 10037 20021 39964 40102 53025 60002 702// 86500 333 10057 20026 31002 55013 60007 70078 84615 86625 90710 91119 93100 555 60005
AAXX 17064 07255 02470 82611 10037 20022 39889 40093 53014 69902 875// 333 10046 20028 32002 55007 60007 70169 87611 90710 91116 93100 555 60005
AAXX 17064 07280 04586 82711 10043 20003 39792 40068 52025 69902 700// 333 10060 20032 30001 55004 69907 70100 90710 91123 555 60005
AAXX 17064 07299 01480 82616 10026 20007 39702 40034 53017 60022 76086 878// 333 10057 20012 32000 55000 69947 70093 81810 83620 87656 91030 90710 91130 93100 555 69905
AAXX 17064 07314 06/// /3224 10107 20059 30111 40139 53018 60052 333 10117 20074 55/// 69927 70145 91037 90710 91139 555 69905
AAXX 17064 07335 02480 13011 10045 20027 39972 40120 53026 60012 81100 333 10065 20016 31000 55020 60007 70123 81819 90710 91119 555 60005
AAXX 17064 07434 02270 72707 10030 20023 39634 40122 53015 60022 876// 333 10046 20013 31000 55001 60007 70218 87705 90710 91115 93100 555 60005
AAXX 17064 07460 01465 52508 10034 21006 39708 40104 51009 60012 703// 84401 333 10055 20008 30000 55006 60007 70119 82613 83627 90710 91114 555 60005
AAXX 17064 07471 01678 62807 11004 21031 39119 48719 51004 60022 70272 86500 333 10016 21010 3/102 44003 55000 60007 70082 86640 90710 91117 93100 555 60005
AAXX 17064 07481 01470 70000 10031 20003 39802 40096 52012 60032 76161 878// 333 10076 20028 32001 55/// 69967 70078 82816 87626 90710 91105 93100 555 69925
AAXX 17064 07510 01570 72306 10063 20049 30086 40152 53009 60092 72598 879// 333 10106 20061 32005 55005 60047 70362 81923 83840 85650 90710 91110 93100 555 69945
AAXX 17064 07535 02568 82608 10047 20037 39816 40134 53006 60022 875// 333 10061 20034 32002 55000 60007 70119 87626 90710 91116 93100 555 60005
AAXX 17064 07558 02565 73018 10015 20003 39270 40123 51011 60032 8457/ 333 10042 20007 31000 55004 60007 70131 84620 86360 90710 91129 93100 555 60005
AAXX 17064 07577 02482 11301 11003 21016 30008 40101 51017 60002 81800 333 10112 21003 30103 55000 60007 70028 81816 90710 91104 93100 555 60005
AAXX 17064 07591 04/// /2703 11001 21045 39037 4//// 53034 69942 700// 333 10052 21007 3/102 55000 69927 70240 90710 91118 555 60005
AAXX 17064 07607 04658 83404 10073 20054 30100 40173 53012 60042 760// 333 10099 20064 3/005 55000 69947 70193 90710 91117 555 69925
AAXX 17064 07621 01565 72714 10052 20032 39744 40186 53006 60082 72186 878// 333 10076 20050 32004 55004 60037 70193 82830 84646 87658 90710 91130 93100 555 60025
AAXX 17064 07627 01550 82815 10063 20020 39671 40165 52009 60072 78088 872// 333 10079 20042 32004 55010 60017 70120 87826 90710 91134 93100 555 60015
AAXX 17064 07630 01465 72913 10060 20043 39976 40160 53016 60042 72586 878// 333 10086 20058 32005 55000 60027 70084 82617 85831 87643 90710 91125 93100 555 69985
AAXX 17064 07643 02784 12106 10073 21007 30100 40110 53017 69922 81500 333 10116 20073 30006 55001 60007 70004 81650 90710 91124 555 60005
AAXX 17064 07650 02686 13410 10060 20005 30063 40102 53030 60002 81102 333 10126 20060 30005 55000 60007 70004 81846 90710 91119 93100 555 60005
AAXX 17064 07661 02975 02924 10074 21026 39914 40076 53031 60002 333 10142 20069 55/// 60007 79999 90710 91144 555 60005
AAXX 17064 07690 04986 /3212 10103 21065 39999 40033 53025 60002 700// 333 10158 20090 3/008 55001 60007 79999 90710 91119 555 60005
AAXX 17064 07747 01665 43119 10076 20034 30082 40136 53012 60012 7250/ 82830 333 10121 20073 31005 55/// 69967 7//// 81840 83359 90710 91133 93100 555 69925
AAXX 17064 07761 02570 42828 10123 20022 30046 40057 51016 69962 84870 333 10166 20120 31011 55006 60007 70010 81828 84646 91040 90710 91143 93100 555 60005
AAXX 17064 07790 02681 12721 10125 21046 39981 49995 53009 69902 81500 333 10180 20121 30010 55/// 60007 79999 81646 91038 90710 91148 555 60005
BBXX CGDS 17064 99447 70755 46/// /3504 11032 21052 4//// 5//// 7//// 8//// 22200 0//// 2////
BBXX VCXF 17064 99464 70484 41896 81933 10055 2006/ 40065 57036 76162 8804/ 22200 02038 20504 31117 40802 50802 80055
AAXX 17064 91203 32474 61004 10313 20261 30100 40105 56015 82277 333 56299 70000 82818 86279 555 91706 91317 32474 80806 10294 20274 30070 40074 5//// 82262 333 56299 70015 82818 83366 86080 555 91706
AAXX 17064 61901 169// /1413 10158 20122 39674 40185 53004 60002 90550 333 20153 3/013 70004 8//99 555 7/090
AAXX 17064 61902 12482 61314 10233 20198 40131 69904 868// 333 20232 58002 83816 85635
AAXX 17064 88889 11370 63403 10115 20103 30055 40139 58011 69901 70152 866// 90550 333 79999 83707 84712
AAXX 17064 89664 11461 73105 11033 21074 39848 49889 52001 69901 77172 84870 333 56660 81615 85359 90937 93197
AAXX 17061 01037 NIL
AAXX 17061 01046 NIL
AAXX 17061 01058 16/// /1503 11037 21053 39476 49942 52000 60002 333 21071 4/015 70000 91110
AAXX 17061 01065 NIL
AAXX 17061 01092 NIL
AAXX 17061 01107 16/// /1613 10044 2//// 39862 49866 53014 60002 333 20042 70038 91117
AAXX 17061 01114 NIL
AAXX 17061 01144 46/// /1210 10032 21033 333 20024 91115
AAXX 17061 01199 NIL
AAXX 17061 01245 NIL
AAXX 17061 01259 16/// /1512 10027 21034 39851 49874 52009 60002 333 20020 70000 91114
AAXX 17061 01262 NIL
AAXX 17061 01278 31985 01205 11029 21052 39796 49899 52011 70200 333 21036 41998 70000
AAXX 17061 01293 16/// /0000 11062 21070 39697 49908 52015 60002 333 21075 70000 91104
AAXX 17061 01329 NIL
AAXX 17061 01337 NIL
AAXX 17061 01344 NIL
AAXX 17061 01364 NIL
AAXX 17061 01373 11989 10000 11132 21150 39743 49949 52016 60002 70120 80002 333 21132 43015 70002 91105
AAXX 17061 01374 11870 70000 11040 21040 60012 70172 8707/ 333 21040 43040 70022
AAXX 17061 01380 16/// /0000 11071 21082 6//// 333 21071 4/028 91100
AAXX 17061 01389 NIL
AAXX 17061 01393 NIL
AAXX 17061 01424 11560 8//// 11023 21035 39924 49927 52009 60002 70272 885// 333 21042 70000
AAXX 17061 01431 16/// /0000 11120 21130 39257 49948 52009 60002 333 21133 70009 91103
AAXX 17061 01436 NIL
AAXX 17061 01465 11980 23304 11004 21017 39890 49908 53013 60022 70210 80001 333 21004 91107
AAXX 17061 01471 11889 60000 11097 21114 60012 70172 85046 333 21101 70021 91100
AAXX 17061 01483 NIL
BBXX 42039 17061 99288 70860 46/// /0000 10218 40221 58004 90550 22200 00230 10601 20401 300// 40601 70007 333 91201 555 11002 22002 30452 43402 60549 162002 180000 180000 341005 345010 344011 83401 90452
BBXX 41040 17061 99145 70530 46/// /0205 10263 20219 40115 58012 90550 22200 00280 11003 20401 3//// 41003 70016 333 91206 555 11049 22051 30502 40106 60549 020047 012046 015050 010048 007048 011046 80105 90502
AAXX 17064 03005 11580 43414 10023 21013 39866 49966 53022 60012 72681 82230 90550 333 20019 31000 55005 55300 20000 70048 82822 83362 90710 91126
AAXX 17064 03017 15566 /2907 10026 20005 39967 49999 51019 69962 90550 333 20023 3/001 55031 55300 20000 70010 82/29 84/50 90710 91125
AAXX 17064 03023 17570 /0108 10024 20015 30045 40050 51024 60032 723// 90550 333 20007 3/101 70032 81/26 84/42
AAXX 17064 03026 17429 /3418 10020 20008 30025 40043 53025 60022 767// 90550 333 20002 3/103 55004 55300 20000 70024 83/10 83/24 90710 91126
AAXX 17064 03063 17319 /2501 11007 21013 39746 40028 53011 69902 771// 90550 333 21055 3/110 4/003 55011 55300 20000 79999 85/07 87/11
AAXX 17064 03066 17485 /2407 10009 20003 30017 40024 53016 60012 723// 90550 333 21002 3/102 55010 55300 20000 70012 82/16 87/50
AAXX 17064 03075 17675 /2907 10011 20000 39964 40009 53021 60022 723// 90550 333 20000 3/102 70024 86/44
AAXX 17064 03091 15982 /2910 10022 21012 39930 40010 53009 60002 90550 333 20011 3/102 55024 55300 20000 70002 87/60
AAXX 17064 03100 17484 /3520 10043 20021 30030 40046 53016 60012 723// 90550 333 20025 3/001 55044 55300 20000 70040 84/19 84/62 90710 91127
AAXX 17064 03111 16445 /3120 10035 20021 30034 40046 53008 60052 90550 333 21014 3/105 7//// 84/12 83/27 90710 91130 91030
AAXX 17064 03134 17484 /3008 10016 20005 39954 40028 52001 69902 781// 90550 333 21027 3/104 4/006 55019 55300 20000 70026 81/14 87/56
AAXX 17064 03136 15481 /3405 10025 20020 30004 40038 53004 60022 90550 333 21028 3/106 55003 55300 20000 70024 85/15 84/69
AAXX 17064 03162 17762 /0000 11032 21041 39747 40042 53001 69902 777// 90550 333 21050 3/110 4/002 55000 55300 20000 70022 87/50
AAXX 17064 03166 15481 /2705 10016 20007 39956 40027 53005 69902 90550 333 21018 3/105 55000 55300 20000 70002 82/10 87/56
AAXX 17064 03171 12983 62909 10011 20003 30005 40017 52005 60002 83072 90550 333 21023 34108 55000 55300 20000 70000 81358 83362 85070
AAXX 17064 03204 11580 42916 10050 20015 30037 40057 52005 69942 70181 83802 90550 333 20033 31101 55006 55300 20000 70042 83820
AAXX 17064 03240 15984 /2712 10020 21018 39991 40019 53004 69982 90550 333 20005 3/101 55000 55300 20000 70102 86/65
AAXX 17064 03257 15968 /1303 11002 21018 39996 40037 53004 69922 90550 333 21018 3/105 55000 55300 20000 70004 81/66 87/70
AAXX 17064 03292 169// /2706 10000 21014 30010 40029 53008 60022 90550 333 20000 3/101 70032 87/68
AAXX 17064 03302 15568 /2914 10056 20027 30062 40075 52010 60012 90550 333 20018 3/102 55000 55300 20000 70034 84/24 90710 91126 91026
AAXX 17064 03354 17002 /2303 10001 20000 39914 40060 53006 69922 734// 90550 333 21004 3/103 55001 55300 20000 70002 87/01
AAXX 17064 03377 12965 22208 11001 21013 39963 40050 52006 69982 82031 90550 333 21005 34103 55000 55300 20000 70012 82359 92600
AAXX 17064 03414 15674 /2604 10014 20002 39979 40069 53005 69902 90550 333 21011 3/104 55013 55300 20000 70038 83/38 86/59
AAXX 17064 03462 17940 /2611 11007 21010 39968 40060 53011 69902 710// 90550 333 21008 3/102 55000 55300 20000 70016 8//99
AAXX 17064 03482 17958 /2603 11020 21031 30028 40054 51016 69902 704// 90550 333 21021 3/106 70090 8//99
AAXX 17064 03502 15568 /3027 10055 20018 39933 40096 53013 60022 90550 333 20035 3/002 55010 55300 20000 70028 84/25 90710 91135
AAXX 17064 03535 17960 /1703 11016 21018 39949 40070 53007 69902 710// 90550 333 21017 3/106 55022 55300 20000 70002 8//99
AAXX 17064 03590 15963 /2607 11007 21013 39945 40058 51018 69962 90550 333 21007 3/103 55000 55300 20000 70058 8//99
AAXX 17064 03649 12475 12607 10001 21009 39979 40082 53011 60002 81130 90550 333 21007 34104 55032 55300 2//// 70014 81815
AAXX 17064 03716 15968 /3008 10031 20015 30034 40095 53013 69942 90550 333 20023 3/000 55041 55300 20000 70004 8//99
AAXX 17064 03740 16971 /2108 10007 21003 39912 40093 53016 60012 90550 333 21003 3/104 55032 55300 2//// 70032 8//99
AAXX 17064 03746 15976 /2705 10000 21009 39937 40095 53019 60012 90550 333 20000 3/103 70018 8//99
AAXX 17064 03772 17957 /2706 10003 21003 30044 40075 51014 69922 710// 90550 333 21016 3/104 55022 55300 20000 70036 8//99
AAXX 17064 03796 46/// /3116 10009 20005 39918 40064 52030 90550 333 20008
AAXX 17064 03803 NIL
AAXX 17064 03808 11570 43420 10064 20014 30028 40135 52017 60072 72581 84400 90550 333 20038 31003 55016 55300 20000 70102 84625 90710 91129
AAXX 17064 03809 11465 63217 10054 20025 30041 40135 51017 69902 78081 868// 90550 333 20029 31002 79999 83818 83620 90710 91131
AAXX 17064 03827 17563 /3012 10050 20030 30057 40120 53015 60022 782// 90550 333 20032 3/102 70024 83/22
AAXX 17064 03840 17476 /2807 10025 20019 39796 40106 52016 69942 723// 90550 333 20017 3/102 70014 81/16 86/49
AAXX 17064 03853 15460 /2701 11005 21010 30076 40101 52019 69902 90550 333 21008 3/104 55022 55300 20000 70008 81/18 84/23
AAXX 17064 03874 46/// /3010 10022 20006 30079 40091 51020 90550 333 20015
AAXX 17064 03882 17939 /2704 11002 21010 30014 40079 53026 69902 710// 90550 333 21002 3/104 55023 55300 20000 70018 8//99
AAXX 17064 03894 12583 53115 10069 20023 40118 52026 69962 85800 333 20054 31003 84825
AAXX 17064 03917 17681 /2510 10023 20007 39990 40069 52009 60022 723// 90550 333 21002 3/105 55014 55300 20000 70046 81/34 84/56
AAXX 17061 01025 16/// /0801 11050 21072 39893 49904 52009 6//// 333 21051 91106
AAXX 17061 01052 16/// /2402 11008 21059 39814 49911 53007 60002 333 21042 70000 91108
AAXX 17061 01122 NIL
AAXX 17061 01132 NIL
AAXX 17061 01156 NIL
AAXX 17061 01203 46/// /1909 10036 20005 39836 49884 52013 333 20018 91112
AAXX 17061 01233 16/// /2501 11120 21130 60002 333 21123 70000 91103
AAXX 17061 01265 NIL
AAXX 17061 01273 NIL
AAXX 17061 01307 46/// /1509 10034 20018 39866 49893 52010 333 20024 91111
AAXX 17061 01321 16/// /1601 11021 21041 39646 49900 53011 60002 333 21050 70000 91103
AAXX 17061 01327 16/// /0000 11037 21047 60052 333 21069 70046 91103
AAXX 17061 01350 16/// /2801 11108 21113 38505 49882 53004 69972 333 21251 70009 91106
AAXX 17061 01361 NIL
AAXX 17061 01375 NIL
AAXX 17061 01378 NIL
AAXX 17061 01385 16/// /3202 11030 21041 39640 49913 53010 60002 333 21034 70029 91104
AAXX 17061 01412 16/// /0603 10010 20003 39886 49916 50007 69952 333 21007 70012 91105
AAXX 17061 01422 NIL
AAXX 17061 01440 NIL
AAXX 17061 01441 NIL
AAXX 17061 01467 NIL
AAXX 17061 01469 NIL
AAXX 17061 01477 NIL
AAXX 17061 01480 16/// /3401 11015 21026 60002 333 21018 70024 91104
AAXX 17061 01484 16/// /3202 10003 21014 39744 49899 53008 60002 333 21001 70009 91104
AAXX 17061 01490 16/// /0101 11046 21050 60002 333 21046 70052 91105
AAXX 17061 01495 16/// /3604 10009 21011 39879 49892 52009 60002 333 20009 70000 91107
AAXX 17061 01015 NIL
AAXX 17061 01023 11989 13001 11121 21129 39817 49916 53010 60002 70200 80008 333 21128 47009 79999 91102
AAXX 17061 01033 NIL
AAXX 17061 01059 11589 11511 11009 21036 39923 49932 50000 60002 70200 81100 333 21028 70000 91115
AAXX 17061 01089 16/// /1501 11013 21031 39863 49970 53011 6//// 333 21013 91111
AAXX 17061 01167 31989 03003 11012 21048 39880 49884 52011 72900 333 21012 70001 91105
AAXX 17061 01180 NIL
AAXX 17061 01210 NIL
AAXX 17061 01228 NIL
AAXX 17061 01240 16/// /1610 10030 21023 39855 49874 53015 6//// 333 20028 91113
AAXX 17061 01304 46/// /1407 10029 20013 39860 49891 53013 333 20016 91110
AAXX 17061 01311 NIL
AAXX 17061 01340 NIL
AAXX 17061 01355 16/// ///// 11018 21060 39916 49921 53010 60002 333 21021
AAXX 17061 01360 NIL
AAXX 17061 01392 16/// /2901 11002 21012 39680 49905 52008 60002 333 21002 70013 91103
AAXX 17061 01406 NIL
AAXX 17061 01411 16/// /1103 10023 20013 39890 49915 51009 6//// 333 20017 91105
AAXX 17061 01425 NIL
AAXX 17061 01433 46/// /0000 11064 21076 38653 49918 52008 333 21108 91100
AAXX 17061 01442 NIL
AAXX 17061 01450 NIL
AAXX 17061 01452 11986 11501 11026 21036 39890 49911 53012 60002 70200 81030 333 21027 70006 91104
AAXX 17061 01473 16/// /0102 11029 21047 39703 49912 53011 6//// 333 21029 91104
AAXX 17061 01494 11484 73603 10005 21008 39832 49897 52009 60002 70222 875// 333 20003 70003 91107
BBXX 46082 17061 99597 71434 46/// ///// 10038 20038 40045 51015 90550 22200 00061 11107 70035
BBXX 46072 17061 99517 71722 46/// /1303 10030 20009 49710 56024 90550 22200 00050 11108 20401 3//// 41108 70041 333 91205 555 11034 22035 30506 41709 60549 132034 134043 142050 149061 162070 171064 81707 90505
BBXX 46035 17061 99571 71778 46/// /0112 1//// 49859 56010 90550 22200 11109 20704 300// 41108 70043 333 91214 555 11116 22124 30521 40215 60549 013116 006081 010111 017123 030111 027124 80214 90519
BBXX 46077 17061 99579 71543 46/// /1508 10029 20019 49907 53006 90550 22200 00051 11003 20402 3//// 41002 70015 333 91210 555 11087 22091 30500 41711 60549 153082 163084 165083 172078 176088 167093 81710 90500
AAXX 17064 91203 32474 61004 10313 20261 30100 40105 56015 82277 333 56299 70000 82818 86279 555 91706 91317 32474 80806 10294 20274 30070 40074 5//// 82262 333 56299 70015 82818 83366 86080 555 91706
BBXX 46026 17061 99378 71228 46/// /3003 10115 40208 54000 90550 22200 00122 11603 20401 328// 41603 70017 333 91205 555 11035 22037 30549 43106 60549 295036 278041 279044 285041 281042 280042
BBXX 46041 17061 99474 71247 46/// /1604 10078 40292 57005 90550 22200 00080 11404 20401 3//// 41404 70021 333 91205 555 11038 22040 30451 41505 60549 156036 160038 157039 159039 156041 156044
BBXX 44040 17061 99410 70736 46/// /3105 10059 21017 40203 90545 22200 1//00 70000 333 91206 555 11057 22072
BBXX 46072 17061 99517 71722 46/// /1303 10030 20009 49710 56024 90550 22200 00050 11108 20401 3//// 41108 70041 333 91205 555 11034 22035 30506 41709 60549 132034 134043 142050 149061 162070 171064 81707 90505
BBXX 51004 17061 99175 71524 46/// /0609 10232 20204 90550 555 11095 22102
BBXX 51002 17061 99171 71578 46/// /0609 10243 40160 53016 90550 22200 00254 333 91211 555 11096 22101 30516 40712 60549 057088 058089 061091 063096 061097 058093
BBXX 51100 17061 99236 71539 46/// /1007 10226 40202 51016 90550 22200 00235 11505 20502 332// 41505 70027 333 91209 555 11073 22077 30518 41211 60549 096069 101075 112088 105082 096069 100065
AAXX 17061 01121 46/// /1510 10036 21039 39868 49880 52013 333 20027 91114
AAXX 17061 01135 NIL
AAXX 17061 01143 16/// /1404 10014 21078 60002 333 21003 70000 91110
AAXX 17061 01150 NIL
AAXX 17061 01192 NIL
AAXX 17061 01225 46/// /1608 10026 21025 39872 49877 53014 333 20020 91110
AAXX 17061 01230 NIL
AAXX 17061 01232 NIL
AAXX 17061 01234 16/// /2105 11107 21121 60002 333 21111 70000 91109
AAXX 17061 01253 NIL
AAXX 17061 01254 NIL
AAXX 17061 01257 NIL
AAXX 17061 01277 NIL
AAXX 17061 01291 NIL
AAXX 17061 01332 16/// /0000 11010 21021 60022 333 21013 70015 91103
AAXX 17061 01366 46/// /0601 11114 21130 38284 49925 52007 333 21153 91103
AAXX 17061 01370 NIL
AAXX 17061 01376 16/// /2802 11064 21094 60022 333 21064 70026 91106
AAXX 17061 01383 46/// /2901 11048 21048 39604 49922 52011 333 21049 91102
AAXX 17061 01386 NIL
AAXX 17061 01416 16/// ///// 10004 20004 69992 333 21003 70010
AAXX 17061 01419 NIL
AAXX 17061 01430 16/// ///// 11020 21030 60002 333 21020 70086
AAXX 17061 01434 16/// /0000 11119 21134 38946 49913 52007 69992 333 21189 70036 91101
AAXX 17061 01455 NIL
AAXX 17061 01468 16/// /3201 11001 21012 60002 333 21005 70009 91105
AAXX 17061 01470 NIL
AAXX 17061 01476 NIL
AAXX 17061 01481 NIL
AAXX 17061 01488 NIL
AAXX 17064 78866 02583 70717 10245 20169 30143 40148 57008 60001 87800 333 58019 60007 87820
AAXX 17061 76040 32902 03102 10106 20060 30155 40169 54000 90545 333 10174 20078 30/// 55068 59001 98602
AAXX 17061 76342 11430 80301 10088 20077 39596 40327 52012 60011 75055 887// 90550 333 10134 20088 31/// 55000 20000 561// 58068 88710
AAXX 17061 76382 32660 40701 10150 20109 38950 40179 52022 84080 90547 333 10253 20093 30/// 55071 2//// 56040 58059 84354
AAXX 17061 76393 01108 80302 10104 20097 39693 40286 52008 69901 75055 887// 90550 333 10146 20104 31/// 55000 56999 58/// 69907 88703
AAXX 17061 76402 32550 60000 10136 20090 30108 40165 52002 86600 90548 333 10225 20056 30/// 55075 2//// 56700 58002
AAXX 17061 76491 11456 73203 10130 20128 39888 40286 52012 69901 70252 875// 90545 333 10205 20126 30/// 55000 568// 58106 87615
AAXX 17061 76525 32360 60908 10082 20062 37501 40146 52012 82636 90540 333 10179 20080 30/// 55089 22412 56355 58026 82708 83358 81080
AAXX 17061 76548 32760 60206 10184 20152 30242 40252 51013 8607/ 90540 333 10266 20180 30/// 55007 5601/ 58086 86356
AAXX 17061 76556 32960 00901 10165 20148 39133 40137 52012 90534 333 10284 20135 30/// 55097 58028
AAXX 17061 76571 32710 20000 10124 20068 38200 40154 52023 82100 90550 333 10250 20050 30/// 55080 56300 58037 82856
AAXX 17061 76577 32960 03603 10134 20117 38073 40140 53014 90540 333 10250 20088 30/// 55057 58030
AAXX 17061 76581 32960 61804 10180 20137 39124 40220 52013 83720 90550 333 10250 20154 30/// 55032 58056 83728 83460
AAXX 17061 76612 32958 22701 10121 20084 38487 40132 52009 80001 90550 333 10268 20072 30/// 55091 21071 56006 58014 82072
AAXX 17061 76625 32550 31411 10138 20071 38159 40106 52010 83030 90530 333 10259 20110 30/// 55050 56020 58020 83360
AAXX 17061 76634 01430 80000 10108 20105 37899 40205 52006 69921 71054 88400 90550 333 10211 20062 31/// 55086 21676 562// 58041 69927 88614
AAXX 17061 76644 32350 40503 10226 20197 30194 40207 52009 81270 90550 333 10318 20205 30/// 55075 21060 5611/ 58036 81810 83320
AAXX 17061 76654 31956 03602 10226 20182 30152 40156 57009 70544 90550 333 10284 20203 30/// 55086 20934 58013
AAXX 17061 76658 31920 20501 10194 20187 39650 40149 52012 70514 80004 90549 333 10322 20171 30/// 55093 56001 58/// 82070
AAXX 17061 76680 31962 03202 10112 20079 37790 40141 52002 70400 90550 333 10244 20092 30/// 55008 20707 58033
AAXX 17061 76685 32950 00000 10106 20058 37901 40136 52011 90550 333 10246 20055 30/// 55103 58030
AAXX 17061 76687 31230 42301 10154 20145 38733 40214 57004 74042 84600 90545 333 10236 20095 30/// 55042 563// 58043 83706 81608
AAXX 17061 76692 01520 80703 10233 20218 30190 40209 50006 69921 75062 8451/ 90545 333 10271 20216 31/// 55023 5611/ 58051 69927 84628 84456
AAXX 17061 76737 01470 80000 10166 20147 38827 40199 51003 69901 70252 887// 90535 333 10229 20166 30/// 55074 562// 58048 69907 88713 91102 91534
AAXX 17061 76750 32558 23203 10216 20207 30174 40184 57004 82100 90550 333 10314 20195 30/// 56100 58030 82820
AAXX 17061 76762 31602 20901 10184 20166 38775 40118 52015 70300 82400 90540 333 10318 20124 30/// 55094 21289 56300 58/// 82638
AAXX 17061 76775 32960 00501 10137 20075 38561 40167 52014 90545 333 10310 20102 30/// 55073 58032
AAXX 17061 76833 32958 03606 10274 20194 30133 40136 57003 90540 333 10324 20268 30/// 55099 59006 92000
AAXX 17061 76843 11565 60000 10229 20193 39517 40154 52008 69001 72051 85530 90545 333 10290 20192 30/// 55056 5699/ 58022 85630
AAXX 17061 76845 11230 62201 10121 20109 37977 40175 50005 69931 70252 84720 90543 333 10208 20077 31/// 56290 58022 84705 82458
AAXX 17061 76848 32350 50201 10145 20123 38407 40113 51001 82510 90555 333 10238 20117 31/// 55072 56190 58017 82709 834600
AAXX 17061 76243 32370 83106 10120 20080 30006 40307 52014 884// 90530 333 10130 20102 30/// 55000 568// 58084 88612
AAXX 17061 76405 32940 00000 10176 20145 30147 40169 52007 90550 333 10240 20112 30/// 55094 2//// 58010
AAXX 17061 76412 32960 02201 10150 20081 30128 40174 52009 90550 333 10252 20146 30/// 55061 58006
AAXX 17061 76640 31110 80404 10228 20222 30227 40238 52010 70222 8552/ 90540 333 10276 20212 30/// 55028 5619/ 58076 85602 83440
AAXX 17061 76647 32865 10302 10199 20191 30178 40208 52008 81030 90550 333 10304 20187 30/// 55050 560/0 58029 81358
AAXX 17061 76741 01340 63602 10244 20233 30161 40179 52014 69931 76044 862// 90535 333 10285 20230 31/// 55073 568// 58043 69937 86810
AAXX 17061 14648 11665 82003 10112 20083 39801 49918 55004 60312 70262 8352/ 333 20108 32009 55026 70325 83643 88458
AAXX 17061 14652 11100 82031 11005 21007 37664 48208 55006 60082 77374 8802/ 333 21016 3//// 49024 55018 70083 88501
AAXX 17061 14542 NIL
AAXX 17061 02741 17473 70705 10029 20016 39874 49889 57008 69922 70000 87/// 90539 333 10037 20017 3/100
AAXX 17061 02755 37464 81102 10007 20003 39872 49967 52005 70010 88/// 90539 333 10014 20002 3//// 4/003
AAXX 17061 02805 37482 81703 11023 21044 39825 49957 52006 70000 88/// 90539 333 11005 21027 3/104
AAXX 17061 02807 47499 71801 11004 21014 39786 49968 700// 87/// 90600 333 10004 21022 3////
AAXX 17061 02836 17166 81702 10002 20002 39754 49975 52006 69942 78187 88/// 90539 333 10003 21009 3/103 4/026
AAXX 17061 02845 47041 71603 10001 20001 39729 49976 52007 71083 87/// 90539 333 10003 20000 3/000 4/029
AAXX 17061 02849 47660 70000 11003 21005 39714 49987 52006 74187 87/// 90539 333 10005 21010 3////
AAXX 17061 02866 17371 71401 10007 20007 39835 49984 52008 69922 70000 87/// 90539 333 10013 20004 3/001 4/016
AAXX 17061 02897 47580 70701 11012 21018 39801 49984 700// 84/// 90600 333 10017 21012 3////
AAXX 17061 02913 47465 81002 10014 20002 39898 49950 700// 88/// 333 10022 20012 3////
AAXX 17061 02917 47475 80702 10000 21010 39850 49973 700// 88/// 90600 333 10020 20000 3////
AAXX 17061 02924 47364 80000 10002 21001 39755 49952 54001 72487 88/// 90539 333 10017 20002 3/100
AAXX 17061 02926 37462 71002 10017 20009 39917 49930 51004 700// 87/// 90600 333 10028 20014 3////
AAXX 17061 02935 37270 71003 11003 21011 39788 49961 54000 70087 87/// 90539 333 10018 21003 3/101 4/011
AAXX 17061 02939 17463 80102 11006 21006 39779 49972 54002 69952 77176 88/// 90539 333 10008 21007 3/101 4/010
AAXX 17061 02944 47381 71103 10006 21005 39799 49946 700// 87/// 90600 333 10016 20006 3////
AAXX 17061 02963 12270 80806 10007 21006 49927 55000 69964 70222 8162/ 333 1//// 2//// 3/000 41998
AAXX 17061 02974 12475 80605 10013 20002 39869 49935 57003 69902 70322 885// 333 10025 20013 32001
AAXX 17061 02976 46/// /0807 10025 20022 39928 49944 57003 90539 333 10030 20016 3////
AAXX 17061 02981 37366 80911 10035 20020 39877 49887 57008 70000 88/// 90539 333 10048 20033 3////
AAXX 17061 02982 46/// /1017 10030 20015 39893 49901 57009 90539 333 10039 20025 3////
AAXX 17061 02947 NIL
AAXX 17064 78866 02583 70717 10245 20169 30143 40148 57008 60001 87800 333 58019 60007 87820
AAXX 17064 89664 11461 73105 11033 21074 39848 49889 52001 69901 77172 84870 333 56660 81615 85359 90937 93197
AAXX 17061 02741 17473 70705 10029 20016 39874 49889 57008 69922 70000 87/// 90539 333 10037 20017 3/100
AAXX 17061 02755 37464 81102 10007 20003 39872 49967 52005 70010 88/// 90539 333 10014 20002 3//// 4/003
AAXX 17061 02805 37482 81703 11023 21044 39825 49957 52006 70000 88/// 90539 333 11005 21027 3/104
AAXX 17061 02807 47499 71801 11004 21014 39786 49968 700// 87/// 90600 333 10004 21022 3////
AAXX 17061 02836 17166 81702 10002 20002 39754 49975 52006 69942 78187 88/// 90539 333 10003 21009 3/103 4/026
AAXX 17061 02845 47041 71603 10001 20001 39729 49976 52007 71083 87/// 90539 333 10003 20000 3/000 4/029
AAXX 17061 02849 47660 70000 11003 21005 39714 49987 52006 74187 87/// 90539 333 10005 21010 3////
AAXX 17061 02866 17371 71401 10007 20007 39835 49984 52008 69922 70000 87/// 90539 333 10013 20004 3/001 4/016
AAXX 17061 02897 47580 70701 11012 21018 39801 49984 700// 84/// 90600 333 10017 21012 3////
AAXX 17061 02913 47465 81002 10014 20002 39898 49950 700// 88/// 333 10022 20012 3////
AAXX 17061 02917 47475 80702 10000 21010 39850 49973 700// 88/// 90600 333 10020 20000 3////
AAXX 17061 02924 47364 80000 10002 21001 39755 49952 54001 72487 88/// 90539 333 10017 20002 3/100
AAXX 17061 02926 37462 71002 10017 20009 39917 49930 51004 700// 87/// 90600 333 10028 20014 3////
AAXX 17061 02935 37270 71003 11003 21011 39788 49961 54000 70087 87/// 90539 333 10018 21003 3/101 4/011
AAXX 17061 02939 17463 80102 11006 21006 39779 49972 54002 69952 77176 88/// 90539 333 10008 21007 3/101 4/010
AAXX 17061 02944 47381 71103 10006 21005 39799 49946 700// 87/// 90600 333 10016 20006 3////
AAXX 17061 02963 12270 80806 10007 21006 49927 55000 69964 70222 8162/ 333 1//// 2//// 3/000 41998
AAXX 17061 02974 12475 80605 10013 20002 39869 49935 57003 69902 70322 885// 333 10025 20013 32001
AAXX 17061 02976 46/// /0807 10025 20022 39928 49944 57003 90539 333 10030 20016 3////
AAXX 17061 02981 37366 80911 10035 20020 39877 49887 57008 70000 88/// 90539 333 10048 20033 3////
AAXX 17061 02982 46/// /1017 10030 20015 39893 49901 57009 90539 333 10039 20025 3////
AAXX 17061 02947 NIL
AAXX 17061 11812 36/// /3014 10008 21022 39199 42539 57002 333 20008 3////
AAXX 17061 11813 11570 82505 10032 21014 39557 49902 52009 69932 72162 885// 333 20032 31002 70039 88620 91012
AAXX 17061 11816 11570 82906 10049 21007 39744 49905 52012 60012 76062 885// 333 20046 31004 70057 82628 88636
AAXX 17061 11819 16/// /2906 10047 20000 39685 49898 52008 60022 333 20045 3/003
AAXX 17061 11826 11784 82906 10049 20005 39696 49892 52007 60032 70262 8357/ 333 20048 32003 70084 83650 88358
AAXX 17061 11841 12584 82404 10042 20002 39518 49887 52015 60092 885// 333 20037 32003 70166 85628 88634
AAXX 17061 11855 11565 83006 10048 20009 39730 49893 52005 60062 76066 885// 333 20047 32004 70122 88633
AAXX 17061 11856 16/// /3105 10040 20009 39575 49888 52003 60062 333 20040 3/003
AAXX 17061 11858 11562 82906 10048 20013 39743 49892 51002 60082 72166 885// 333 20048 31003 70117 88626
AAXX 17061 11867 11684 80000 10044 20002 39581 49892 53012 60072 70266 885// 333 20033 32003 70104 88640
AAXX 17061 11880 11640 82803 10049 20023 39718 49886 52004 60052 76066 885// 333 20049 32004 70088 88633
AAXX 17061 11900 16/// /2903 10043 20008 39557 49886 52004 60122 333 20033 3//// 70150
AAXX 17061 11903 11665 89901 10018 20012 39507 49884 55003 60222 70262 885// 333 20010 32001 70267 88636
AAXX 17061 11916 11/00 90111 11077 21090 37671 48181 57014 60052 77343 333 21078 3//// 49034 70087 89/00 91120 93598 96049
AAXX 17061 11918 11581 82804 10012 21009 39073 42536 51070 60042 70266 8557/ 333 20007 31000 70035 85623 88459
AAXX 17061 11927 11784 82302 10044 20024 39615 49872 55003 60142 70262 885// 333 20039 31003 70184 88650
AAXX 17061 11930 11/00 99902 11088 21088 37102 47749 54000 60132 77374 333 21094 3//// 48050 70193 89/00 93520
AAXX 17061 11933 11/09 89901 11023 21023 38375 48204 56003 60042 77074 887// 333 21023 3/103 44035 70052 817// 87703 93712 444 17//1
AAXX 17061 11934 11470 89901 10014 20002 39058 42525 58001 60022 76862 8257/ 333 21002 31101 70020 82710 88450
AAXX 17061 11938 11/01 91801 11001 21004 38819 42518 57006 60102 77074 333 21006 3/101 44013 70114 89/01
AAXX 17061 11952 16/// /3403 10012 20000 39051 42526 57001 60032 333 20001 3/000 70030
AAXX 17061 11958 36/// /9901 11005 21008 38461 48208 54000 333 21030 3////
AAXX 17061 11968 11465 81802 10055 20045 39589 49863 57006 60162 76362 885// 333 20041 32004 70162 84715 88622
AAXX 17061 11976 11661 89901 10061 20054 39612 49869 53001 60042 76062 885// 333 20035 32003 70040 88633
AAXX 17061 11978 11560 81204 10063 20056 39742 49869 58001 60092 76162 885// 333 20040 32004 70093 88623
AAXX 17061 11993 11462 81703 10060 20050 39664 49875 57003 60102 76162 8372/ 333 20041 31003 70108 83713 88532
BBXX BATFR56 17064 99190 30587 44498 30812 10267 20202 40114 51004 70200 82193 22262 00280 20604 314// 40604 5////
AAXX 17061 76040 32902 03102 10106 20060 30155 40169 54000 90545 333 10174 20078 30/// 55068 59001 98602
AAXX 17061 76342 11430 80301 10088 20077 39596 40327 52012 60011 75055 887// 90550 333 10134 20088 31/// 55000 20000 561// 58068 88710
AAXX 17061 76382 32660 40701 10150 20109 38950 40179 52022 84080 90547 333 10253 20093 30/// 55071 2//// 56040 58059 84354
AAXX 17061 76393 01108 80302 10104 20097 39693 40286 52008 69901 75055 887// 90550 333 10146 20104 31/// 55000 56999 58/// 69907 88703
AAXX 17061 76402 32550 60000 10136 20090 30108 40165 52002 86600 90548 333 10225 20056 30/// 55075 2//// 56700 58002
AAXX 17061 76491 11456 73203 10130 20128 39888 40286 52012 69901 70252 875// 90545 333 10205 20126 30/// 55000 568// 58106 87615
AAXX 17061 76525 32360 60908 10082 20062 37501 40146 52012 82636 90540 333 10179 20080 30/// 55089 22412 56355 58026 82708 83358 81080
AAXX 17061 76548 32760 60206 10184 20152 30242 40252 51013 8607/ 90540 333 10266 20180 30/// 55007 5601/ 58086 86356
AAXX 17061 76556 32960 00901 10165 20148 39133 40137 52012 90534 333 10284 20135 30/// 55097 58028
AAXX 17061 76571 32710 20000 10124 20068 38200 40154 52023 82100 90550 333 10250 20050 30/// 55080 56300 58037 82856
AAXX 17061 76577 32960 03603 10134 20117 38073 40140 53014 90540 333 10250 20088 30/// 55057 58030
AAXX 17061 76581 32960 61804 10180 20137 39124 40220 52013 83720 90550 333 10250 20154 30/// 55032 58056 83728 83460
AAXX 17061 76612 32958 22701 10121 20084 38487 40132 52009 80001 90550 333 10268 20072 30/// 55091 21071 56006 58014 82072
AAXX 17061 76625 32550 31411 10138 20071 38159 40106 52010 83030 90530 333 10259 20110 30/// 55050 56020 58020 83360
AAXX 17061 76634 01430 80000 10108 20105 37899 40205 52006 69921 71054 88400 90550 333 10211 20062 31/// 55086 21676 562// 58041 69927 88614
AAXX 17061 76644 32350 40503 10226 20197 30194 40207 52009 81270 90550 333 10318 20205 30/// 55075 21060 5611/ 58036 81810 83320
AAXX 17061 76654 31956 03602 10226 20182 30152 40156 57009 70544 90550 333 10284 20203 30/// 55086 20934 58013
AAXX 17061 76658 31920 20501 10194 20187 39650 40149 52012 70514 80004 90549 333 10322 20171 30/// 55093 56001 58/// 82070
AAXX 17061 76680 31962 03202 10112 20079 37790 40141 52002 70400 90550 333 10244 20092 30/// 55008 20707 58033
AAXX 17061 76685 32950 00000 10106 20058 37901 40136 52011 90550 333 10246 20055 30/// 55103 58030
AAXX 17061 76687 31230 42301 10154 20145 38733 40214 57004 74042 84600 90545 333 10236 20095 30/// 55042 563// 58043 83706 81608
AAXX 17061 76692 01520 80703 10233 20218 30190 40209 50006 69921 75062 8451/ 90545 333 10271 20216 31/// 55023 5611/ 58051 69927 84628 84456
AAXX 17061 76737 01470 80000 10166 20147 38827 40199 51003 69901 70252 887// 90535 333 10229 20166 30/// 55074 562// 58048 69907 88713 91102 91534
AAXX 17061 76750 32558 23203 10216 20207 30174 40184 57004 82100 90550 333 10314 20195 30/// 56100 58030 82820
AAXX 17061 76762 31602 20901 10184 20166 38775 40118 52015 70300 82400 90540 333 10318 20124 30/// 55094 21289 56300 58/// 82638
AAXX 17061 76775 32960 00501 10137 20075 38561 40167 52014 90545 333 10310 20102 30/// 55073 58032
AAXX 17061 76833 32958 03606 10274 20194 30133 40136 57003 90540 333 10324 20268 30/// 55099 59006 92000
AAXX 17061 76843 11565 60000 10229 20193 39517 40154 52008 69001 72051 85530 90545 333 10290 20192 30/// 55056 5699/ 58022 85630
AAXX 17061 76845 11230 62201 10121 20109 37977 40175 50005 69931 70252 84720 90543 333 10208 20077 31/// 56290 58022 84705 82458
AAXX 17061 76848 32350 50201 10145 20123 38407 40113 51001 82510 90555 333 10238 20117 31/// 55072 56190 58017 82709 834600
AAXX 17061 76243 32370 83106 10120 20080 30006 40307 52014 884// 90530 333 10130 20102 30/// 55000 568// 58084 88612
AAXX 17061 76405 32940 00000 10176 20145 30147 40169 52007 90550 333 10240 20112 30/// 55094 2//// 58010
AAXX 17061 76412 32960 02201 10150 20081 30128 40174 52009 90550 333 10252 20146 30/// 55061 58006
AAXX 17061 76640 31110 80404 10228 20222 30227 40238 52010 70222 8552/ 90540 333 10276 20212 30/// 55028 5619/ 58076 85602 83440
AAXX 17061 76647 32865 10302 10199 20191 30178 40208 52008 81030 90550 333 10304 20187 30/// 55050 560/0 58029 81358
AAXX 17061 76741 01340 63602 10244 20233 30161 40179 52014 69931 76044 862// 90535 333 10285 20230 31/// 55073 568// 58043 69937 86810
BBXX BATFR09 17064 99404 70098 44498 43520 10132 20037 40282 51003 70222 84100 22282 00169 20304 332// 41116 5//// 60//0 ICE 0/0//
AAXX 17061 10578 11/01 92724 11047 21051 38508 48222 53020 60072 77174 333 10005 21048 3/105 49051 55000 55300 20000 30000 70310 96049 96038
BBXX VOPP 17064 99456 70735 46/// /3304 11039 21078 4//// 5//// 7//// 8//// 22200 0//// 2////
BBXX CG2350 17064 99433 70798 46/// /2808 10004 21037 40226 51001 7//// 8//// 22200 0//// 2////
BBXX VCSZ 17064 99496 70534 46/// /2235 10043 20044 49858 56059 7//// 8//// 22274 0//// 2////
BBXX CGJV 17064 99447 70636 46/// /2909 10013 21030 40127 53022 7//// 8//// 22200 0//// 2////
BBXX VCLM 17064 99612 70664 46/// /2520 11121 21161 49892 56013 7//// 8//// 22232 01006 2////
BBXX VOKF 17064 99490 70669 46/// /2916 11076 21135 40136 53013 7//// 8//// 22200 0//// 2////
BBXX CZ9742 17064 99506 70969 46/// /1820 11078 21094 40160 58061 7//// 8//// 22200 0//// 2////
AAXX 17061 14528 11420 80000 10012 20004 39674 49973 51010 60343 76966 8672/ 333 10124 20010 32000 55000 70354 86710 88540
AAXX 17061 14537 11440 82908 10026 20019 39751 49938 53031 60073 76362 8802/ 333 10159 20024 32001 55003 70073 88513
AAXX 17061 14544 11670 52504 10073 20044 39254 49903 52010 60043 70262 85500 333 10112 20071 32005 55002 70040 85646
AAXX 17061 14557 11670 72604 10094 20072 39530 49885 57010 60042 7636/ 85570 333 10137 20093 32008 55054 70038 85633 86360 87461
AAXX 17061 14640 11560 72904 10046 20027 39090 48272 53015 60253 76296 87300 333 10089 20046 31003 55006 70250 87923
AAXX 17061 76040 32902 03102 10106 20060 30155 40169 54000 90545 33310174 20078 30/// 55068 59001 98602
AAXX 17061 76342 11430 80301 10088 20077 39596 40327 52012 60011 75055887// 90550 333 10134 20088 31/// 55000 20000 561// 5806888710
AAXX 17061 76382 32660 40701 10150 20109 38950 40179 52022 84080 90547333 10253 20093 30/// 55071 2//// 56040 58059 84354
AAXX 17061 76393 01108 80302 10104 20097 39693 40286 52008 69901 75055887// 90550 333 10146 20104 31/// 55000 56999 58/// 6990788703
AAXX 17061 76402 32550 60000 10136 20090 30108 40165 52002 86600 90548333 10225 20056 30/// 55075 2//// 56700 58002
AAXX 17061 76491 11456 73203 10130 20128 39888 40286 52012 69901 70252875// 90545 333 10205 20126 30/// 55000 568// 58106 87615
AAXX 17061 76525 32360 60908 10082 20062 37501 40146 52012 82636 90540333 10179 20080 30/// 55089 22412 56355 58026 82708 8335881080
AAXX 17061 76548 32760 60206 10184 20152 30242 40252 51013 8607/ 90540333 10266 20180 30/// 55007 5601/ 58086 86356
AAXX 17061 76556 32960 00901 10165 20148 39133 40137 52012 90534 33310284 20135 30/// 55097 58028
AAXX 17061 76571 32710 20000 10124 20068 38200 40154 52023 82100 90550333 10250 20050 30/// 55080 56300 58037 82856
AAXX 17061 76577 32960 03603 10134 20117 38073 40140 53014 90540 33310250 20088 30/// 55057 58030
AAXX 17061 76581 32960 61804 10180 20137 39124 40220 52013 83720 90550333 10250 20154 30/// 55032 58056 83728 83460
AAXX 17061 76612 32958 22701 10121 20084 38487 40132 52009 80001 90550333 10268 20072 30/// 55091 21071 56006 58014 82072
AAXX 17061 76625 32550 31411 10138 20071 38159 40106 52010 83030 90530333 10259 20110 30/// 55050 56020 58020 83360
AAXX 17061 76634 01430 80000 10108 20105 37899 40205 52006 69921 7105488400 90550 333 10211 20062 31/// 55086 21676 562// 5804169927 88614
AAXX 17061 76644 32350 40503 10226 20197 30194 40207 52009 81270 90550333 10318 20205 30/// 55075 21060 5611/ 58036 81810 83320
AAXX 17061 76654 31956 03602 10226 20182 30152 40156 57009 70544 90550333 10284 20203 30/// 55086 20934 58013
AAXX 17061 76658 31920 20501 10194 20187 39650 40149 52012 70514 8000490549 333 10322 20171 30/// 55093 56001 58/// 82070
AAXX 17061 76680 31962 03202 10112 20079 37790 40141 52002 70400 90550333 10244 20092 30/// 55008 20707 58033
AAXX 17061 76685 32950 00000 10106 20058 37901 40136 52011 90550 33310246 20055 30/// 55103 58030
AAXX 17061 76687 31230 42301 10154 20145 38733 40214 57004 74042 8460090545 333 10236 20095 30/// 55042 563// 58043 83706 81608
AAXX 17061 76692 01520 80703 10233 20218 30190 40209 50006 69921 750628451/ 90545 333 10271 20216 31/// 55023 5611/ 58051 6992784628 84456
AAXX 17061 76737 01470 80000 10166 20147 38827 40199 51003 69901 70252887// 90535 333 10229 20166 30/// 55074 562// 58048 6990788713 91102 91534
AAXX 17061 76750 32558 23203 10216 20207 30174 40184 57004 82100 90550333 10314 20195 30/// 56100 58030 82820
AAXX 17061 76762 31602 20901 10184 20166 38775 40118 52015 70300 8240090540 333 10318 20124 30/// 55094 21289 56300 58/// 82638
AAXX 17061 76775 32960 00501 10137 20075 38561 40167 52014 90545 33310310 20102 30/// 55073 58032
AAXX 17061 76833 32958 03606 10274 20194 30133 40136 57003 90540 33310324 20268 30/// 55099 59006 92000
AAXX 17061 76843 11565 60000 10229 20193 39517 40154 52008 69001 7205185530 90545 333 10290 20192 30/// 55056 5699/ 58022 85630
AAXX 17061 76845 11230 62201 10121 20109 37977 40175 50005 69931 7025284720 90543 333 10208 20077 31/// 56290 58022 84705 82458
AAXX 17061 76848 32350 50201 10145 20123 38407 40113 51001 82510 90555333 10238 20117 31/// 55072 56190 58017 82709 834600
AAXX 17061 76243 32370 83106 10120 20080 30006 40307 52014 884// 90530333 10130 20102 30/// 55000 568// 58084 88612
AAXX 17061 76405 32940 00000 10176 20145 30147 40169 52007 90550 33310240 20112 30/// 55094 2//// 58010
AAXX 17061 76412 32960 02201 10150 20081 30128 40174 52009 90550 33310252 20146 30/// 55061 58006
AAXX 17061 76640 31110 80404 10228 20222 30227 40238 52010 70222 8552/90540 333 10276 20212 30/// 55028 5619/ 58076 85602 83440
AAXX 17061 76647 32865 10302 10199 20191 30178 40208 52008 81030 90550333 10304 20187 30/// 55050 560/0 58029 81358
AAXX 17061 76741 01340 63602 10244 20233 30161 40179 52014 69931 76044862// 90535 333 10285 20230 31/// 55073 568// 58043 6993786810
AAXX 17064 40250 32960 02104 10046 21007 39397 40209 57004 333 21020 300//
AAXX 17064 40260 32960 00000 10055 21001 39428 40225 52005 333 20025 30001
AAXX 17064 40265 31920 20000 10044 20035 39414 40230 53004 71000 80001 333 20014 30102 82070
AAXX 17064 40270 31530 30000 10084 20067 39296 40204 52006 71011 83500 333 20060 30100 83630
AAXX 17064 78866 02583 70717 10245 20169 30143 40148 57008 60001 87800 333 58019 60007 87820
AAXX 17064 89664 11461 73105 11033 21074 39848 49889 52001 69901 77172 84870 333 56660 81615 85359 90937 93197
BBXX 41010 17061 99289 70785 46/// /1504 10226 40214 58017 90550 22200 00241 11103 20401 300// 41103 70016 333 91205 555 11040 22041
BBXX 41009 17061 99285 70802 46/// /2601 10229 20179 40216 58014 90550 22200 00248 11103 20401 300// 41103 70015 333 91202 555 11007 22007
BBXX 42057 17061 99168 70815 46/// /0407 10274 20212 40155 58009 90550 22200 00279 10703 20602 3//// 40702 70014 333 91208 555 11067 22070 30452 40409 60549 043066 044070 044070 043070 040073 043076 80408 90452
BBXX 44039 17061 99411 70727 46/// /3005 10064 21008 40199 90545 22200 00100 1//00 70002 333 91207
AAXX 17061 11423 01257 82707 11014 21016 39062 42582 52031 60022 771// 877// 333 21015 3/102 44010 69905 70196 87703 91013 91118
AAXX 17061 11487 NIL
AAXX 17061 11518 01580 82505 10016 21003 39479 49916 52039 69912 70262 885// 333 20016 31001 60005 70048 81620 88650 91117
AAXX 17061 11603 01460 72804 10016 21013 39419 49898 53038 60012 768// 87500 333 20009 3/000 41998 69925 70170 83618 86641 91116
AAXX 17061 11659 01470 82906 10008 20005 39273 49909 52024 60012 722// 885// 333 20008 3/000 43997 69905 70066 84715 88637 91112
AAXX 17061 11723 02584 82906 10035 21013 39608 49903 53019 69952 8457/ 333 20035 31002 60005 70047 82624 84656 88363 91117
AAXX 17061 11782 NIL
BBXX VCWL 17064 99468 70712 46/// /3201 11060 21121 40182 55000 7//// 8//// 22200 0//// 2////
BBXX CGJK 17064 99484 71234 46/// /3502 10080 20071 40298 56003 7//// 8//// 22200 0//// 2////
BBXX 3FZK3 17064 99549 71583 46/// /2216 10035 20030 49938 51024 7//// 8//// 22223 0//// 2////
BBXX CGDG 17064 99447 70636 46/// /2809 10012 20018 40126 53023 7//// 8//// 22200 0//// 2////
BBXX CGBY 17064 99487 71235 46/// /2201 10078 20059 40299 55002 7//// 8//// 22200 0//// 2////
BBXX VOKJ 17064 99467 70713 46/// /2811 11067 21124 40182 50001 7//// 8//// 22213 0//// 2////
BBXX CGSB 17064 99483 70693 46/// /2913 11096 21156 40179 51006 7//// 8//// 22213 00028 2////
BBXX CGDX 17064 99468 70712 46/// /0104 11061 21124 40182 55001 7//// 8//// 22200 0//// 2////
BBXX CGBR 17064 99534 71293 46/// /0000 10027 20027 40130 58013 7//// 8//// 22200 0//// 2////
BBXX VXKF 17064 99462 70602 46/// /2813 10019 21035 40075 51039 7//// 8//// 22200 0//// 2////
BBXX VRYO3 17064 99524 10036 46/// /1922 10085 20093 40002 53011 7//// 8//// 22284 00097 2////
BBXX CGTF 17064 99476 70527 46/// /1419 10055 20021 49976 51013 7//// 8//// 22200 0//// 2////
BBXX CGDT 17064 99468 70712 46/// /3603 11065 21125 40182 55000 7//// 8//// 22200 0//// 2////
BBXX VCRG 17064 99474 70619 46/// /2918 11009 21050 40086 51038 7//// 8//// 22200 0//// 2////
BBXX VAAZ 17064 99548 70532 46/// /2212 10002 21001 49832 58042 7//// 8//// 22231 0//// 2////
BBXX VCBW 17064 99502 70607 46/// /3131 11079 21125 49982 53048 7//// 8//// 22200 0//// 2////
BBXX CG2965 17064 99487 71235 46/// /2401 10079 20060 40300 56002 7//// 8//// 22200 0//// 2////
BBXX CGDR 17064 99493 71263 46/// /1222 10082 20082 40272 52002 7//// 8//// 22241 00109 2////
BBXX CG2958 17064 99503 71254 46/// /1210 10074 20065 40283 53005 7//// 8//// 22272 0//// 2////
BBXX C6SI6 17064 99369 11261 46/// /0304 11004 21062 40326 56014 7//// 8//// 22283 0//// 2////
BBXX VAAP 17064 99446 70636 46/// /2907 10009 21035 40111 53020 7//// 8//// 22200 0//// 2////
AAXX 17064 85201 31140 79902 10064 20058 36286 55005 74092 82963 333 56277 58007 81702 81917 84357 87070 96029 96113
AAXX 17064 85244 32865 51608 10244 20200 39664 40092 54000 85031 333 56099 58019 85357 85070
AAXX 17064 85223 11470 80000 10141 20121 37499 47123 52007 69921 70461 8457/ 333 56009 58018 81612 84627 88457
AAXX 17064 43533 12460 70705 10304 20236 30109 40112 60001 81202 333 58004 81818 87077
AAXX 17064 43555 11457 70719 10300 20230 30102 40105 60001 70522 81105 333 59010 81818 87075
AAXX 17064 43577 12465 73604 10290 20250 30107 40109 60001 84338 333 59009 83818 81919 87276
AAXX 17064 43588 11465 63408 10290 20259 30103 40105 69901 72522 8493/ 333 59014 83818 81919 86362
AAXX 17064 43599 12465 53209 10300 20255 30101 40103 60001 83231 333 59023 83818
AAXX 17064 43533 12460 70705 10304 20236 30109 40112 60001 81202 333 58004 81818 87077
AAXX 17064 43555 11457 70719 10300 20230 30102 40105 60001 70522 81105 333 59010 81818 87075
AAXX 17064 43577 12465 73604 10290 20250 30107 40109 60001 84338 333 59009 83818 81919 87276
AAXX 17064 43588 11465 63408 10290 20259 30103 40105 69901 72522 8493/ 333 59014 83818 81919 86362
AAXX 17064 43599 12465 53209 10300 20255 30101 40103 60001 83231 333 59023 83818
AAXX 17061 01098 16/// /2207 11013 21032 39941 49959 53011 6//// 333 21015 91112
AAXX 17061 01152 11989 51106 10026 21043 39874 49890 53011 60002 70311 81072 333 20013 70000 91113
AAXX 17061 01271 16/// /0802 11070 21086 39877 49899 52011 6//// 333 21070 91105
AAXX 17061 01415 16/// /1403 11002 21009 39906 49917 50008 6//// 333 21013 91104
AAXX 17064 89642 42982 02904 10027 21099 39860 49913 53014 333 55208 23640
BBXX MINUK03 1706/ 99528 10038 46/// ///// 10078 40009 52013
AAXX 17064 60285 32456 83606 10155 20135 40253 5//// 885// 333 20144 88616
AAXX 17064 60340 NIL
AAXX 17064 60141 32560 52009 10063 20033 39614 40302 57013 84202 333 20060 31100 84830 94073
AAXX 17064 60190 32970 00604 10035 20009 40301 56006 333 20030 30001
AAXX 17064 60220 32960 00410 10123 20260 40260 51004 333 20120
AAXX 17064 60265 32970 22902 10014 21087 38965 48567 56008 80002 333 20012 82070
AAXX 17064 60060 NIL
AAXX 17064 60105 NIL
AAXX 17064 60106 NIL
AAXX 17064 60107 NIL
AAXX 17064 60127 NIL
AAXX 17064 60185 NIL
AAXX 17064 60191 NIL
AAXX 17064 60195 NIL
AAXX 17064 60210 NIL
AAXX 17064 60318 NIL
AAXX 17064 60101 11330 71915 10123 20109 40271 58009 60064 76166 872// 333 20122 83708 87816
AAXX 17064 60155 32960 316// 10102 20085 40287 58008 80002 333 20098 30005 83070
AAXX 17064 60230 15959 01103 10055 20035 40295 56004 60004 333 20047
AAXX 17064 60096 NIL
AAXX 17064 60115 NIL
AAXX 17064 60135 NIL
AAXX 17064 60150 NIL
AAXX 17064 60156 NIL
AAXX 17064 60252 NIL
AAXX 17064 64500 32360 81610 10255 20241 30099 40112 849// 333 02600 20235 50631 55057 58006 83608 81920 88633 94942 95832
AAXX 17064 81401 06/// /0000 10232 20225 30089 40095 60001 333 55/// 60007 58003 7//// 555 60005
AAXX 17064 81408 06/// /0000 10228 2//// 30088 40096 60001 333 55/// 60007 58006 7//// 555 60005
BBXX CGBN 17064 99447 70636 46/// /2611 10014 21031 40112 53022 7//// 8//// 22200 0//// 2////
AAXX 17064 68386 36/// /1406 10219 20169 39767 48678 52004 333 20174 91011 555 10293 91030
AAXX 17061 11487 01475 72807 10007 21013 39308 49929 52027 69992 783// 873// 333 20006 31000 69905 70070 81613 82923 83623 87640 91121
AAXX 17064 91503 01470 80000 10252 20247 40063 55009 60261 76166 8382/ 333 56990 60047 82710 83623 88459
AAXX 17064 91517 01330 82004 10246 20242 40069 57004 60181 76186 8592/ 333 56699 60177 81709 81815 84625 88460
AAXX 17064 91503 01470 80000 10252 20247 40063 55009 60261 76166 8382/ 333 56990 60047 82710 83623 88459
AAXX 17064 91517 01330 82004 10246 20242 40069 57004 60181 76186 8592/ 333 56699 60177 81709 81815 84625 88460
AAXX 17061 89061 179// 02806 10004 21013 39957 49964 52060 69931 73077 333 91007 91116
BBXX VOLG 17064 99/// ///// 46/// /2939 10042 21004 40072 52056 7//// 8//// 22200 0//// 2////
BBXX CGCC 17064 99455 70736 46/// /3005 11030 21077 4//// 5//// 7//// 8//// 22200 0//// 2////
AAXX 17064 48300 31562 21902 10250 20187 39825 40137 57034 70140 81101 333 59005
AAXX 17064 48327 32562 12202 10283 20177 39795 40147 57026 81200 333 58002
AAXX 17064 48331 NIL
AAXX 17064 48353 NIL
AAXX 17064 48356 32962 10402 10267 20137 39963 40160 57030 81031 333 58004
AAXX 17064 48375 32960 00000 10295 20177 39893 40115 57030 333 58009
AAXX 17064 48378 31558 20404 10298 20155 30094 40146 57029 70500 81105 333 58012
AAXX 17064 48381 32560 30308 10264 20137 39934 40151 57032 81505 333 58007
AAXX 17064 48407 32560 30612 10282 20159 39986 40127 57036 81141 333 59006
AAXX 17064 48431 32562 60708 10266 20158 39931 40144 57035 81536 333 59002
AAXX 17064 48456 NIL
AAXX 17064 48480 32562 20308 10294 20166 30109 40113 57024 82501 333 58004
AAXX 17064 48500 31956 33315 10281 20209 30112 40119 57018 71011 80005 333 58009
AAXX 17064 48551 01556 80505 10260 20243 30101 40109 57008 60021 72162 83877 333 59003 69946 70041
AAXX 17064 48565 01460 60807 10300 20233 30079 40089 57013 69901 72162 82246 333 59012 69906 70001
AAXX 17064 48569 01460 60713 10294 20254 30058 40097 57019 69941 70162 83846 333 59009 69947 70248
AAXX 17064 48583 32560 60808 10290 20232 30092 40098 57017 82206 333 58008 70275
AAXX 17064 78388 111570 71405 10245 20188 30146 40155 60001 70522 81101 333 00909 10301 20230 58014 81824 87075
AAXX 17061 89061 179// 02806 10004 21013 39957 49964 52060 69931 73077 333 91007 91116
AAXX 17064 48310 31558 60000 10250 20169 39703 40159 57022 70522 85845 333 58011
AAXX 17064 48325 31565 20000 10284 20184 39886 40126 57025 70340 81201 333 58003
AAXX 17064 48329 31558 50000 10268 20185 39802 40140 57025 70510 84805 333 59004
AAXX 17064 48352 31959 50906 10274 20144 39959 40160 57034 70522 80006 333 58009
AAXX 17064 48357 32962 20806 10266 20125 39990 40159 57030 80001 333 58003
AAXX 17064 48380 32560 50000 10286 20183 30050 40143 57031 84101 333 58008
AAXX 17064 48383 31559 20607 10256 20144 39993 40153 57026 70511 82100 333 59001
AAXX 17064 48403 31958 60509 10266 20154 39938 40148 57029 70522 81046 333 58010
AAXX 17064 48405 32960 20709 10264 20148 39983 40146 57028 80005 333 58003
AAXX 17064 48420 31550 80408 10275 20177 30124 40128 57021 70522 81256 333 58009
AAXX 17064 48421 31957 20000 10315 20174 30012 40124 57025 70500 80005 333 58006
AAXX 17064 48425 NIL
AAXX 17064 48426 31559 60403 10278 20158 30126 40139 58021 70522 81146 333 58012
AAXX 17064 48429 32560 60309 10280 20150 30128 40135 57018 81106 333 58015
AAXX 17064 48430 31559 40910 10297 20156 30128 40135 56017 70521 82235 333 58019
AAXX 17064 48450 31558 50806 10290 20151 30106 40139 57025 70511 82536 333 58014
AAXX 17064 48459 32960 70000 10285 20184 30119 40122 57025 87055 333 58009
AAXX 17064 48465 31958 60310 10276 20178 30126 40131 57022 70522 80006 333 58013
AAXX 17064 48550 11558 60911 10290 20224 30098 40105 57008 69931 71062 82245 333 58001 70014
AAXX 17064 48552 01430 80202 10247 20237 30099 40105 57018 60351 76396 84907 333 58001 60076 70444
AAXX 17064 48566 NIL
AAXX 17064 48568 01460 70708 10277 20250 30091 40098 57015 60041 72162 84836 333 58002 60047 70091
AAXX 17064 78388 111570 71405 10245 20188 30146 40155 60001 70522 81101 333 00909 10301 20230 58014 81824 87075
AAXX 17064 48302 31/01 90904 10140 20134 38503 40153 57013 74542 333 58012
AAXX 17064 48304 NIL
AAXX 17064 48334 31558 80000 10262 20180 39788 40149 57026 70522 85276 333 58011
AAXX 17064 48360 32960 61004 10252 20128 39902 40164 57030 80006 333 58009
AAXX 17064 48372 32560 40205 10286 20208 30091 40149 57028 82235 333 58009
AAXX 17064 48373 31558 30000 10290 20180 30079 40141 57030 70511 81531 333 58007
AAXX 17064 48386 31957 02706 10290 20177 30094 40138 57028 70500 333 58009
AAXX 17064 48387 31558 61105 10208 20152 39184 40144 57020 71022 83556 333 58012
AAXX 17064 48408 32560 60106 10295 20172 39981 40129 58029 81106 333 59001
AAXX 17064 48415 31957 70512 10269 20166 30127 40138 57017 70522 85055 333 58013
AAXX 17064 48433 31558 40108 10280 20158 39974 40139 57037 70521 82206 333 58002
AAXX 17064 48437 32962 33604 10270 20161 39936 40146 57028 80001 333 58002
AAXX 17064 48440 32960 10705 10299 20179 30075 40124 57029 80005 333 58009
AAXX 17064 48451 32962 70306 10257 20165 30137 40148 57021 87070 333 58016
AAXX 17064 48454 32562 60305 10285 20161 30123 40130 57024 82146 333 58006
AAXX 17064 48457 31958 60314 10250 20166 30117 40134 57021 70522 82046 333 58011
AAXX 17064 48463 31556 80516 10285 20155 30040 40133 58025 70522 85846 333 58007
AAXX 17064 48464 31557 83610 10274 20172 30120 40133 57015 70522 85536 333 58017
AAXX 17064 48479 32660 80205 10287 20177 30066 40118 57023 82577 333 58011
AAXX 17064 48520 31559 50412 10282 20220 30099 40114 56012 71011 84205 333 58007
AAXX 17064 48554 01457 80612 10287 20248 30096 40100 57017 60131 70362 85907 333 59006 60027 70594
AAXX 17064 48563 32460 60710 10286 20230 30054 40090 57021 82856 333 59011 70010
AAXX 17064 48571 01562 61025 10290 20225 30080 40091 57016 60011 70162 83136 333 59025 69987 70482
AAXX 17064 48307 32962 20104 10246 20172 39779 40160 57022 80005 333 58016
AAXX 17064 48324 32560 50602 10264 20162 39928 40148 56022 82535 333 58009
AAXX 17064 48333 32560 20000 10275 20166 39853 40153 57032 81140 333 58008
AAXX 17064 48350 32665 21202 10260 20153 39855 40155 57034 81101 333 58015
AAXX 17064 48355 32565 20000 10270 20155 39937 40156 57029 82100 333 58004
AAXX 17064 48358 32960 20910 10262 20141 39986 40163 57031 80001 333 58001
AAXX 17064 48384 32562 50803 10283 20156 39964 40153 57029 85800 333 58005
AAXX 17064 48401 31958 20000 10292 20197 30042 40149 57027 70500 81035 333 58009
AAXX 17064 48404 31958 20712 10266 20148 39968 40146 56029 70500 80005 333 58004
AAXX 17064 48409 NIL
AAXX 17064 48419 31558 63302 10270 20165 30134 40142 55015 70522 82545 333 58020
AAXX 17064 48427 31559 70000 10265 20169 30136 40143 57023 70522 82546 333 58015
AAXX 17064 48435 32560 80817 10237 20146 39701 40141 57023 82576 333 58010
AAXX 17064 48453 32960 60307 10291 20184 30128 40131 57023 83036 333 58014
AAXX 17064 48458 32961 70506 10285 20169 30059 40139 57028 80006 333 58009
AAXX 17064 48474 31958 70112 10290 20179 30002 40124 57023 70522 82036 333 58009
AAXX 17064 48481 32962 10502 10304 20171 30088 40115 57020 80001 333 58006
AAXX 17064 48555 01556 70501 10266 20234 30080 40122 55027 60011 72166 85876 333 59009 60016 70127
AAXX 17064 48556 01458 80000 10255 20240 30094 40110 57006 60041 76162 83877 333 58005 60047 70062
AAXX 17064 48557 01460 80406 10265 20240 30074 40109 57001 60041 70262 8587/ 333 59004 60037 70103
AAXX 17064 48560 11458 70000 10279 20241 30094 40099 56023 60021 71022 82876 333 59006 70647
AAXX 17064 48574 01562 60806 10295 20242 30061 40090 57016 69941 70262 83236 333 59009 69947 70054
AAXX 17064 48581 NIL
AAXX 17064 16021 NIL
AAXX 17064 16022 11480 23417 11100 21136 37613 48272 52023 69922 70240 82100 333 21100 48016 55000 2//// 82810 92863
AAXX 17064 16033 12562 72203 11030 21065 38559 48281 52017 60782 87500 333 21030 43007 55/// 2//// 87630 92822
AAXX 17064 16040 13565 70000 10004 21006 39027 42582 5//// 60172 82212 333 20004 43001 55/// 2//// 82820 86456 992802
AAXX 17064 16052 11/01 90330 11180 21202 36394 47806 53013 60002 77174 333 21190 49999 55000 22685 89/01 93199 96045
AAXX 17064 16061 12984 32921 10010 21026 39157 42629 52025 60002 83030 333 20006 30/// 55006 2//// 83362
AAXX 17064 16098 12975 43204 10078 21100 39883 49934 52052 60002 84030 333 20054 32/// 55/// 2//// 84363
AAXX 17064 16138 NIL
AAXX 17064 16148 11970 22914 10092 21047 39923 49935 53031 60072 70196 80001 333 20064 32/// 55010 2//// 55300
AAXX 17064 16168 12270 22039 10080 21065 39224 42608 53004 60002 82200 333 20076 30/// 82805
AAXX 17064 16172 12562 52412 10070 21030 39682 49979 52023 60062 85200 333 20068 32/// 55/// 2//// 85823
AAXX 17064 16179 11568 71921 10064 21035 39282 42602 52032 60072 70361 87200 333 20064 31/// 55/// 2//// 87830
AAXX 17064 16224 11465 43206 10098 20003 39662 49975 52003 60022 70361 84200 333 20098 32/// 55013 2//// 84813
AAXX 17064 16232 12598 22515 10150 21038 39902 49953 52032 60002 81530 333 20150 30/// 55020 20427 55300 81628 555 0////
AAXX 17064 16245 11465 33020 10136 20006 39970 49995 52011 60012 70261 83100 333 20136 32/// 55/// 2//// 83818
AAXX 17064 16253 12560 42718 10140 20066 39990 40002 52020 69942 82230 333 20140 30/// 55040 2//// 55300 82825 83357
AAXX 17064 16258 12770 32722 10078 21020 38984 42607 53014 60002 83040 333 20070 30/// 55/// 2//// 83350
AAXX 17064 16263 11/00 92642 10054 20038 38744 48323 53012 60032 74564 333 20054 32/// 55/// 2//// 89/00
AAXX 17064 16294 NIL
AAXX 17064 16337 12497 82321 10114 20088 39465 40026 55002 60042 884// 333 20094 32/// 55/// 2//// 88610 555 0436/
AAXX 17064 16344 NIL
AAXX 17064 16434 11/03 92618 10082 20079 38887 48401 55003 60032 760// 333 20058 32/// 55/// 2//// 89/01 95090 95190
AAXX 17064 16450 NIL
AAXX 17064 16459 NIL
AAXX 17064 16546 NIL
AAXX 17064 16564 12597 52728 10138 20030 39936 40077 55001 60002 83840 333 20108 30/// 55/// 2//// 82820 83630 85356 555 0////
AAXX 17064 16008 NIL
AAXX 17064 16084 12970 52609 10052 21087 39818 49985 52031 60002 82015 333 20020 30/// 55000 20023 82463
AAXX 17064 16088 12960 33008 10031 20000 39847 49966 52034 60022 83030 333 20018 31/// 55/// 2//// 83360
AAXX 17064 16110 11497 80716 10054 20010 39922 49926 53067 60172 70262 887// 333 20038 32/// 55000 20064 84715 84825 555 0////
AAXX 17064 16134 12980 02420 11030 21065 37602 48281 56003 60042 333 21030 41997 55000 2//// 92845
AAXX 17064 16153 12999 03210 10101 21132 39733 49995 53033 60002 333 20095 30/// 55006 2//// 555 0////
AAXX 17064 16158 11662 73009 10098 20017 39954 49962 52017 60012 70296 82250 333 20096 32/// 55000 2//// 82640 86357
AAXX 17064 16206 12570 62827 10110 20015 39975 49984 53015 69982 83830 333 20104 30/// 55/// 2//// 81820 83640
AAXX 17064 16219 NIL
AAXX 17064 16252 11568 31919 10066 20027 39052 42629 52020 60012 72161 83500 333 20066 32/// 55008 2//// 83621
AAXX 17064 16280 11597 63018 10138 20084 39774 49990 53012 60002 70162 86100 333 20138 31/// 55036 2//// 86820 555 0547/
AAXX 17064 16310 11597 82720 10134 20087 39788 40006 53003 60042 70262 8452/ 333 20110 32/// 55041 2//// 55300 84620 84456 555 0////
AAXX 17064 16320 NIL
AAXX 17064 16325 12897 52409 10158 20104 39946 49960 57018 60002 85020 333 20150 30/// 55/// 2//// 85458 98065 555 0213/
AAXX 17064 16360 12597 82027 10166 20105 39877 40008 56012 60002 8357/ 333 20150 30/// 55068 2//// 83630 88358 91042 555 0434/
AAXX 17064 16400 13497 83626 10122 20082 39780 40067 55001 60022 882// 333 20122 32/// 55061 2//// 55300 88814 555 0768/
AAXX 17064 16420 12597 69902 10160 20090 39991 40055 56010 60002 84870 333 20138 30/// 55060 2//// 81820 83630 85358 555 0100/
AAXX 17064 16429 11462 52913 10146 20125 30072 40084 53010 60012 72162 82170 333 20146 32/// 55061 2//// 55300 82816 83356
AAXX 17064 16470 12460 72620 10160 20138 39874 40106 55001 60002 85570 333 20156 30/// 55071 2//// 55300 22/// 85616 86350 95010
AAXX 17064 16480 12497 63008 10166 20143 30012 40072 55016 60002 83131 333 20152 30/// 55082 2//// 55300 83812 84358 555 0316/
AAXX 17064 16522 12498 63420 10130 20085 39841 40083 51002 60002 86200 333 20128 30/// 55008 2//// 55300 86818 555 0////
AAXX 17064 16539 NIL
AAXX 17064 16550 12598 33017 10130 20020 39868 40046 55001 60002 83100 333 20128 30/// 55018 2//// 83830 555 0////
BBXX 42363 17061 99282 70892 46/// /0802 10217 20178 40241 50000 90600 333 91203
BBXX 42364 17061 99291 70881 46/// /0000 10211 20178 40237 54000 90600
BBXX 44011 17061 99411 70666 46/// /3205 10086 20026 40162 50000 90550 22200 00097 11007 20401 3//// 41007 70034 333 91206 555 11048 22050 30505 41607 60549 317045 327050 330048 332053 336055 335052
BBXX 41046 17061 99238 70683 46/// /0608 10232 20179 40189 58009 90550 22200 00257 11006 20603 300// 41004 70028 333 91209 555 11082 22086 30523 40712 60549 058078 057091 064099 074077 077085 077080 80711 90523
AAXX 17064 16138 11980 32611 10062 21014 39943 49954 52032 69942 702// 80001 333 20048 32/// 55/// 2////
AAXX 17064 16546 11562 73114 10136 20069 30061 40089 53008 69942 70262 87800 333 20114 30/// 55/// 2//// 83820 84640
AAXX 17064 16450 11/00 92808 10098 20098 38990 48465 55000 60002 74544 333 20082 31/// 55/// 2//// 89/00
BBXX A8SF7 17061 99315 70803 41098 12608 10190 20175 40210 58005 7//22 81100 22234 04170 21003 3//// 4//// 5//// 80180
BBXX DCPY2 17063 99085 10708 41598 22003 10310 20261 40125 52015 70261 81162 22224 00280 20100 30000 80275
BBXX DBLK 17061 99692 50049 41396 80806 11016 21017 49730 52004 77172 875// 22252 05019 ICE 48195
BBXX DDLK 17063 99362 70725 41/97 70114 10165 20094 40169 57011 70222 87/// 22224 20603 334// 40804 80125
BBXX A8SF8 17064 99183 70679 41398 40518 10250 20207 40161 57009 70300 82245 22264 04270 29904 399// 4//// 80220
AAXX 17064 07690 02980 03212 10103 21065 39999 40033 53025 60002 333 10158 20090 30008 55001 60007 79999 90710 91119 93100 555 60005
AAXX 17064 13600 11550 81824 10130 20112 39925 49976 57050 60142 78286 883// 333 20122 32/// 82930 86633
AAXX 17064 13610 11656 81816 10100 20071 39552 49966 57030 60022 76022 885// 333 20100 31/// 88633
AAXX 17064 13611 11560 81830 10150 20134 39894 49982 57030 60002 72999 889// 333 20125 32/// 82923 86626
AAXX 17064 13619 11560 70906 10076 20070 39233 42642 57030 60022 76052 87500 333 20048 31/// 87630
AAXX 17064 13622 12665 71816 10156 20061 30002 40009 57035 60002 87500 333 20105 30/// 87636
AAXX 17064 13624 12960 82212 10156 20055 39990 40027 54002 60002 8802/ 333 20082 30/// 88460
AAXX 17064 13625 11660 81410 10140 20064 39840 40067 57032 60012 76065 885// 333 20075 31/// 88643 13629 12664 72212 10024 20024 39059 42721 57014 60002 87500 333 20016 31/// 87636
AAXX 17064 13601 11660 81408 10138 20074 39875 49972 57024 69982 76062 885// 333 20122 32/// 88636
AAXX 17064 13602 NIL
AAXX 17064 13623 11520 80000 10082 20078 30082 40088 55018 60002 76366 885// 333 20080 32/// 88626
AAXX 17064 71805 04563 82727 10031 21002 30021 40030 53040 60032 700// 333 10076 20031 30003 55000 69907 70114 91040 90710 91147 555 60005
BBXX C6CU6 17063 99332 70445 41297 82028 10215 20200 40120 56040 70122 8/7// 22263 04212 20912 317// 40512 5//// 80205
AAXX 17064 63980 11481 51503 10297 20252 40102 60064 70381 85902 333 20251 50260 55113 59012 81914 85816 94315 911//
AAXX 17064 16045 NIL
AAXX 17064 16090 12960 32712 10052 21031 39869 49952 52036 60022 81031 333 20044 32/// 55000 20036 81359
AAXX 17064 16149 11570 72611 10098 21057 39921 49936 52020 60012 70261 84201 333 20070 32/// 55/// 2//// 84830
AAXX 17064 16261 NIL
AAXX 17064 16453 11597 62916 10170 20131 30019 40096 56002 60002 702// 84550 333 20168 31/// 55084 2//// 55300 84623 86358 555 0316/
AAXX 17064 16560 11562 73118 10132 20046 30077 40084 55003 60012 70261 84570 333 20106 31009 55045 20755 84630 85356
AAXX 17061 06431 NIL
AAXX 17061 06432 NIL
AAXX 17061 06449 11565 62602 10016 20008 39811 40042 52036 60112 70282 868// 333 21001 32000 83825 85645 911// 912//
AAXX 17061 06450 11670 32905 10051 20000 30013 40029 53035 60122 70286 83500 333 20006 32000 83635 91112 91207
AAXX 17061 06458 NIL
AAXX 17061 06465 NIL
AAXX 17061 06478 11457 72803 10014 20004 39806 40028 52037 60052 72587 878// 333 21001 32000 82814 87640 91107 91205
AAXX 17061 06496 NIL
AAXX 17061 06407 11568 33209 10064 20029 30040 40046 52033 60042 70198 83200 333 20036 32003 83820 91115 91211
AAXX 17061 06447 NIL
AAXX 17061 06400 11470 33108 10064 20034 30042 40053 51034 60022 70198 82831 333 20038 31004 81815 91113 91209
AAXX 17061 06428 NIL
AAXX 17061 06451 12670 32603 10028 20012 39964 40032 51035 60042 81501 333 20000 32000 81642 83070 91109 91205
AAXX 17061 06456 11031 82904 10015 20014 39671 40042 53037 60072 76874 877// 333 20002 3/000 42002 82701 87704 91110 91207
AAXX 17061 06476 17002 83004 11007 21013 39364 40036 51037 60072 77174 333 21014 3/101 88/00 91111 91207
AAXX 17061 06479 12790 42403 10016 20012 39946 40027 53036 60042 84500 333 20005 32102 84650 91106 91205
AAXX 17061 06490 17/01 93103 11001 21006 39452 40029 53037 60092 77173 333 21009 3/001 91107 91204
AAXX 17061 06590 12375 73004 10011 20007 39565 40021 52028 69982 876// 333 20002 31000 87707 91112 91208
BBXX 46089 17061 99459 71258 46/// /1404 10083 20070 40288 58010 90550 22200 00097 11405 20401 329// 41404 70023 333 91205 555 11040 22041 30548 41405 60549 142038 139034 139029 141027 130026 129024
BBXX 46042 17061 99368 71224 46/// /3603 10123 40207 50000 90550 22200 00124 11605 20401 330// 41605 70023 333 91204 555 11031 22032 30451 43604 60549 355029 359031 005032 008029 010023 006030
BBXX 51101 17061 99243 71621 46/// /0709 10231 20196 40212 53018 90550 22200 00241 11408 20704 333// 41407 70042 333 91212 555 11096 22101 30450 40713 60549 067091 069091 066099 061097 066101 065102
BBXX 46061 17061 99602 71468 46/// /1009 10040 40010 51005 90550 22200 00055 10904 20702 300// 40903 70021 333 91211 555 11092 22097 30549 41011 60549 103087 104083 088084 088076 090079 088077
BBXX 46083 17061 99582 71380 46/// /2005 10050 20000 40105 51004 90550 22200 00066 11708 20402 300// 41708 70041 333 91207 555 11053 22057 30549 42007 60549 197050 196048 199049 200046 200046 199048 82006 90528
AAXX 17064 61968 16/// /0000 1//// 20083 4//// 60254 333 20246 55/// 59012 90710 91106 555 60005
AAXX 17064 61970 16/// ///// 10300 20262 40113 60084 333 20245 55/// 59008 555 60005
AAXX 17064 61980 12565 60915 10277 20190 40114 69984 82832 333 02119 20222 55054 59019 82826 86078 90710 91124 92437 555 60005
AAXX 17064 67005 12570 80000 10293 20230 40114 60004 83256 333 02300 20247 55032 59018 83822 83358 87279 90710 91103 555 60005
BBXX 51000 17061 99235 71541 46/// /1007 10227 40198 51020 90550 22200 00233 11506 20402 333// 41505 70029 333 91209 555 11074 22078 30458 41113 60549 097070 093073 098074 106083 112099 102095
BBXX 44060 17061 99413 70721 46/// ///04 10052 40186 56013 90600 22200 00109 333 91207 555 11041 22046
BBXX 44008 17061 99405 70692 46/// /3204 10082 20022 40176 56007 90550 22200 00115 10804 20401 323// 40804 70021 333 91205 555 11039 22040 30504 43206 60549 324037 321035 321036 323037 328044 329040
BBXX 44172 17061 99445 70634 46/// ///// 1//// 90601 22200 00075 10904 20903 317// 41102 70019
AAXX 17064 91643 11599 60607 10284 20237 40081 51009 60001 70222 82268 333 56199 82820 83361 86280
AAXX 17064 91636 11599 50906 10287 20247 40074 60001 71422 83208 333 562/9
AAXX 17064 --708812334-987884747-1324101997=:69458 html code found in mail The rest of this message has been deleted
BBXX 46232 17061 99325 71174 46/// ///// 1//// 90538 22200 00147 10803 20802 328// 41101 70013
BBXX 46240 17061 99366 71219 46/// ///// 1//// 90542 22200 00123 11002 21002 335// 41101 70009
BBXX 46236 17061 99368 71219 46/// ///// 1//// 90550 22200 00121 11003 21002 328// 41702 70014
BBXX 46225 17061 99329 71174 46/// ///// 1//// 90544 22200 00144 11102 20801 327// 41101 70009
BBXX 46213 17061 99403 71247 46/// ///// 1//// 90554 22200 00104 11505 20803 330// 41503 70024
BBXX 46215 17061 99352 71209 46/// ///// 1//// 90538 22200 00130 11103 21002 328// 41102 70015
AAXX 17064 91643 11599 60607 10284 20237 40081 51009 60001 70222 82268 333 56199 82820 83361 86280
AAXX 17064 91636 11599 50906 10287 20247 40074 60001 71422 83208 333 562/9
AAXX 17064 91643 11599 60607 10284 20237 40081 51009 60001 70222 82268 333 56199 82820 83361 86280
AAXX 17064 91636 11599 50906 10287 20247 40074 60001 71422 83208 333 562/9
BBXX 46218 17061 99345 71208 46/// ///// 1//// 90602 22200 00137 11204 21003 329// 41202 70019
BBXX 44100 17061 99363 70756 46/// ///// 1//// 90552 22200 00132 11303 20503 309// 41302 70016
BBXX 41110 17061 99341 70777 46/// ///// 1//// 90551 22200 00143 11302 21001 312// 41301 70008
BBXX 42099 17061 99273 70842 46/// ///// 1//// 90557 22200 00235 10501 20501 70005
AAXX 17064 78397 112570 43304 10253 20214 30134 40150 60001 81802 333 00009 10310 20222 58015 81824 84074
BBXX 44099 17061 99369 70757 46/// ///// 1//// 90552 22200 00124 11302 21002 308// 41301 70011
BBXX 51204 17061 99213 71581 46/// ///// 1//// 90552 22200 00248 11404 21002 331// 41404 70020
BBXX 51203 17061 99208 71570 46/// ///// 1//// 90543 22200 00249 11402 20901 329// 41401 70010
BBXX 51201 17061 99217 71581 46/// ///// 1//// 90542 22200 00245 11306 21002 332// 41305 70028
BBXX 51202 17061 99214 71577 46/// ///// 1//// 90539 22200 00246 10904 20904 336// 41402 70020
AAXX 17064 48601 11560 70804 10307 20251 30079 40083 6///1 70522 83841 333 82820 83364 87178
AAXX 17064 48615 11462 70717 10295 20249 30092 40098 69961 72582 82142 333 82818 87074
AAXX 17064 48620 11465 72005 10302 20239 30074 40083 60001 70522 85952 333 81917 83818 85364
AAXX 17064 48647 11460 73008 10311 20271 30058 40082 69941 78022 84952 333 81710 81917 83818 86364
AAXX 17064 48650 11462 70606 10311 20243 30063 40081 69921 70522 83942 333 81917 83818 85078
AAXX 17064 48657 11456 80207 10284 20252 30071 40088 6///1 76166 84887 333 82710 84624 88276
AAXX 17064 48665 11462 70307 10281 20246 30081 40091 69921 71562 83348 333 81712 81917 83820 86276
AAXX 17064 96413 11565 72703 10287 20240 30045 40071 60081 72586 84542 333 84622 83365 86080
AAXX 17064 96421 12480 70804 10315 20239 30026 40061 60001 84231 333 84818 83365 85080
AAXX 17064 96441 12480 72702 10297 20249 30034 40061 6///1 82231 333 82814 83365 86080
AAXX 17064 96449 12480 73107 10297 20248 30040 40059 6///1 83231 333 83814 84365 85080
AAXX 17064 96465 12478 73003 10301 20252 30025 40058 6///1 81838 333 81810 84364 87278
AAXX 17064 96471 11475 73102 10298 20249 30057 40060 69901 70262 82848 333 81814 84364 87277
AAXX 17064 96481 11462 71503 10300 20262 30038 40057 6///1 70122 82841 333 82817 84364 86080
AAXX 17064 96491 11450 72704 10263 20251 30049 40061 60211 72162 84948 333 82814 81917 83645 87276
AAXX 17061 06206 47482 23012 10071 20019 39939 49992 53018 70180 8//// 333 20065 81/19 91015 91118 91215
AAXX 17061 06207 47570 1//13 10062 20011 39926 49979 53019 70180 8//// 333 20048 81/24 91016 91120 91215
AAXX 17061 06239 47571 2//12 10071 20023 3//// 4//// 5//// 70185 8//// 333 20046 81/27 91013 91118 91215
AAXX 17061 06252 46/// /3311 10076 20018 39965 40010 53021 222// 00099 10705 333 20062 91013 91118 91214
AAXX 17061 06260 17574 33003 10042 20005 30001 40003 51026 69962 72286 8//// 333 20016 3/101 70059 81/26 83/46 91005 91107 91204
AAXX 17061 06270 17571 33007 10055 20022 39975 49975 53020 60012 72185 8//// 333 20032 3/003 70043 81/27 83/50 91012 91113 91209
AAXX 17061 06290 17675 32503 10013 20000 39941 49982 51033 69902 70385 8//// 333 20009 3/100 70159 81/39 83/56 91004 91107 91204
AAXX 17061 01010 41989 01605 10007 21036 39873 49889 52008 70200 333 20002 91110
AAXX 17061 01026 11888 11401 11036 21054 39761 49903 52009 60002 70200 81030 333 21039 43022 70000 91104
AAXX 17061 01055 46/// /1609 10009 21032 39895 49913 53007 333 20006 91112
AAXX 17061 01317 11582 51403 10009 21006 39888 49903 52006 60042 70182 83860 333 20004 43001 70045 91106
AAXX 17061 06201 47568 43012 10073 20031 39946 49998 52016 72385 8//// 333 20057 81/28 84/42 91015 91120 91216
AAXX 17061 06203 47571 5//09 10082 20009 39971 40022 51026 75180 8//// 333 20065 83/31 84/36 85/50 91013 91118 91214
AAXX 17061 06204 45580 33111 10074 20011 39955 40006 52022 8//// 333 20062 82/29 83/36 91013 91116 91213
AAXX 17061 06205 47773 13110 10070 20006 39909 49968 53014 70185 8//// 333 20044 81/56 91013 91117 91214
AAXX 17061 06208 47569 43115 10071 20022 39908 49957 51016 72385 8//// 333 20043 82/20 83/24 91018 91120 91216
AAXX 17061 06211 47473 42812 10070 20025 39948 40004 53016 70180 8//// 333 20060 81/19 83/25 91015 91117 91214
AAXX 17061 06212 47580 33113 1//// 2//// 39938 40001 51020 70180 8//// 333 2//// 83/26 83/34 91016 91118 91215
AAXX 17061 06235 17673 13208 10065 20013 39995 49995 51023 60012 70185 8//// 333 20046 3/003 70048 81/42 91012 91118 91211
AAXX 17061 06240 17567 63205 10050 20024 30013 40008 53029 69992 78185 8//// 333 20018 3/000 70038 83/28 85/34 86/38 91008 91113 91207
AAXX 17061 06251 17467 53110 10063 20027 39976 49977 52018 69952 72280 8//// 333 20046 3/004 70018 81/11 83/30 85/40 91015 91116 91211
AAXX 17061 06258 46/// /2908 333 91011 91114 91212
AAXX 17061 06269 17680 13006 10041 20019 30002 49996 53028 69932 70380 8//// 333 20034 3/002 70072 81/49 91009 91111 91207
AAXX 17061 06280 17576 63005 10040 20025 39966 49970 53026 69952 72300 8//// 333 20029 3/002 70076 81/22 83/30 85/50 91008 91110 91206
AAXX 17061 06310 17680 63204 10059 20013 30022 40032 51031 60052 70385 8//// 333 20042 3/003 70142 82/35 84/42 86/50 91006 91110 91206
AAXX 17061 06344 17980 03004 10033 20000 30020 40013 51027 60022 70280 333 20017 3/100 70097 91007 91112 91206
AAXX 17061 06370 17972 02403 10014 20003 39990 40016 53033 69922 70186 333 20014 3/001 70103 91004 91108 91205
AAXX 17061 06380 17959 02703 10021 20015 39884 40025 52037 60022 71081 333 20003 3/000 70072 91005 91106 91204
BBXX 46219 17061 99332 71199 46/// ///// 1//// 90558 22200 00138 11104 21004 331// 41102 70022
BBXX 46224 17061 99332 71175 46/// ///// 1//// 90536 22200 00151 11402 20801 319// 41401 70008
BBXX 46214 17061 99379 71235 46/// ///// 1//// 90555 22200 00120 11504 20903 329// 41503 70020
AAXX 17061 01238 41489 11401 11120 21137 38766 49886 52008 70200 81600 333 21127 44013 91103
AAXX 17064 78397 112570 43304 10253 20214 30134 40150 60001 81802 333 00009 10310 20222 58015 81824 84074
AAXX 17064 91574 46/// ///// 29073 30137 40143 50007
AAXX 17064 91570 NIL
AAXX 17064 91598 NIL
AAXX 17064 91573 06/// /1008 10257 20218 39996 40092 55002 60001 333 58005 60007
AAXX 17064 91577 06/// /1612 10268 20192 30067 40087 55003 60001 333 58000 60007
AAXX 17064 91579 06/// /1210 10249 20216 30082 40090 55000 69981 333 58009 60007
AAXX 17064 91582 04570 81307 10242 20211 30057 40091 55000 60282 700// 333 10259 20238 3/023 55/// 69907 70565 90710 91114 555 69905
AAXX 17064 91583 06/// /1002 10251 20233 30077 40092 55002 69941 333 58004 69947
AAXX 17064 91587 06/// ///// 10248 20207 30047 40092 55002 60141 333 58000 60007
AAXX 17064 91590 04685 81212 10247 20189 30057 40099 55003 60002 700// 333 10277 20219 55016 60007 70004 90710 91120 555 60005
AAXX 17064 91592 06/// /1112 10248 20185 30022 40107 55006 60001 333 59004 60007
AAXX 17064 91596 06/// /1410 10236 20178 39994 40103 55007 60001 333 59003 60007
AAXX 17061 03951 17861 /3009 10058 20018 30139 40166 50015 69932 78185 85/// 333 20055 3/004 85/57
AAXX 17061 03953 11570 40106 10051 20021 30134 40171 52012 60032 72781 84810 333 20044 31002 55011 83822 92437
AAXX 17061 03955 11480 23106 10023 20010 39951 40153 52016 69942 72581 81370 333 20021 31101 55042 81916 92600
AAXX 17061 03956 15981 /2705 10022 21006 30041 40120 52013 60002 80/// 333 20002 3/103 81/70
AAXX 17061 03962 11566 52603 10034 20010 30117 40141 53016 60012 78081 85300 333 20030 3/101 55018 82920 84640
AAXX 17061 03963 17969 /3213 10059 20001 30103 40132 52016 60012 7018/ 80/// 333 20037 3/001 87/74 90710 91119
AAXX 17061 03966 17681 /2604 10014 21007 30032 40127 52013 69952 7038/ 81/// 333 20012 3/101 81/43
AAXX 17061 03967 12470 42406 10013 20001 39987 40103 52013 69912 83530 333 21004 34104 55008 81718 83636 92600
AAXX 17061 03969 12480 22509 10009 20000 39990 40096 51012 69902 82300 333 20000 31102 55013 81918 92600
AAXX 17061 03973 11480 32706 10018 21001 39858 40118 52015 60022 72581 83300 333 20015 31101 55006 83918
AAXX 17061 03976 NIL
AAXX 17061 03980 17577 /3414 10043 20018 30042 40067 53019 60042 7818/ 86/// 333 20034 3/002 84/20 86/57 90710 91120
BBXX TFBKF 17064 99635 70202 46/// ///// 22200 10801 70007
BBXX TFBLK 17064 99657 70248 46/// ///// 22200 10705 70025
BBXX TFDRN 17064 99658 70212 46/// ///// 22200 10704 70022
BBXX TFGRS 17064 99663 70182 46/// ///// 22200 10706 70029
BBXX TFGRV 17064 99638 70225 46/// ///// 22200 10502 70009
BBXX TFGSK 17064 99641 70229 46/// ///// 22200 10402 70011
BBXX TFHFN 17064 99642 70152 46/// ///// 22200 10702 70008
BBXX TFKGR 17064 99657 70136 46/// ///// 22200 10808 70038
BBXX TFSRT 17064 99633 70203 46/// ///// 22200 10702 70009
AAXX 17061 10264 01464 72908 10023 20008 39762 49868 53043 60082 72176 875// 333 10031 20001 3/000 42001 55000 55300 20000 30000 69967 70165 87610 91115
AAXX 17064 89532 41/65 70335 10042 20002 39879 49906 56001 70272 83572 333 00551 55003 22020 92910
BBXX CG2960 17064 99423 70830 46/// /2904 11002 21056 4//// 5//// 7//// 8//// 22200 0//// 2////
AAXX 17004 91636 11599 31010 10315 20262 40078 60001 70222 83200 333 562// 70000
AAXX 17004 91636 11599 31010 10315 20262 40078 60001 70222 83200 333 562// 70000
BBXX CG2960 17064 99423 70830 46/// /2904 11002 21056 4//// 5//// 7//// 8//// 22200 0//// 2////
AAXX 17061 01046 11989 11506 11018 21069 39910 49918 53010 60002 70100 80002 333 21029 44004 70000 91110
AAXX 17061 01150 16/// /1105 10000 21045 60002 333 21016 70000 91111
AAXX 17061 01230 16/// /1401 11140 21153 60002 333 21208 4/023 70003 91104
AAXX 17061 01232 16/// /1703 11034 21088 39835 49915 52015 60002 333 21036 4/006 70000 91108
AAXX 17061 01254 16/// /1501 11108 21120 60002 333 21109 4/018 70000 91103
AAXX 17061 01291 16/// /0000 11112 21122 60002 333 21119 4/018 70000 91102
AAXX 17061 01386 16/// ///// 11038 21046 60002 333 21038 70014
AAXX 17061 01470 16/// /1001 11044 21050 39795 49911 52011 60002 333 21045 4/006 70031 91105
AAXX 17061 01311 46/// /1502 11007 21008 39843 49905 53005 333 21007 91105
AAXX 17061 01122 16/// /2102 11020 21045 39812 49902 52012 60002 333 21032 70000 91105
AAXX 17061 01132 16/// /1303 11006 21042 39522 49908 52013 60002 333 21019 4/037 70000 91109
AAXX 17061 01361 16/// /3101 11151 21165 38885 49956 53010 60002 333 21247 70000 91101
AAXX 17061 01477 16/// /3001 11047 21051 60002 333 21050 4/018 70040 91103
AAXX 17061 76040 32902 03102 10106 20060 30155 40169 54000 90545 333 10174 20078 30/// 55068 59001 98602
AAXX 17061 76342 11430 80301 10088 20077 39596 40327 52012 60011 75055 887// 90550 333 10134 20088 31/// 55000 20000 561// 58068 88710
AAXX 17061 76382 32660 40701 10150 20109 38950 40179 52022 84080 90547 333 10253 20093 30/// 55071 2//// 56040 58059 84354
AAXX 17061 76393 01108 80302 10104 20097 39693 40286 52008 69901 75055 887// 90550 333 10146 20104 31/// 55000 56999 58/// 69907 88703
AAXX 17061 76402 32550 60000 10136 20090 30108 40165 52002 86600 90548 333 10225 20056 30/// 55075 2//// 56700 58002
AAXX 17061 76458 32960 03402 10175 20148 30165 40170 52006 90548 333 10242 21022 30/// 55064 58023
AAXX 17061 76491 11456 73203 10130 20128 39888 40286 52012 69901 70252 875// 90545 333 10205 20126 30/// 55000 568// 58106 87615
AAXX 17061 76525 32360 60908 10082 20062 37501 40146 52012 82636 90540 333 10179 20080 30/// 55089 22412 56355 58026 82708 83358 81080
AAXX 17061 76548 32760 60206 10184 20152 30242 40252 51013 8607/ 90540 333 10266 20180 30/// 55007 5601/ 58086 86356
AAXX 17061 76556 32960 00901 10165 20148 39133 40137 52012 90534 333 10284 20135 30/// 55097 58028
AAXX 17061 76571 32710 20000 10124 20068 38200 40154 52023 82100 90550 333 10250 20050 30/// 55080 56300 58037 82856
AAXX 17061 76577 32960 03603 10134 20117 38073 40140 53014 90540 333 10250 20088 30/// 55057 58030
AAXX 17061 76581 32960 61804 10180 20137 39124 40220 52013 83720 90550 333 10250 20154 30/// 55032 58056 83728 83460
AAXX 17061 76612 32958 22701 10121 20084 38487 40132 52009 80001 90550 333 10268 20072 30/// 55091 21071 56006 58014 82072
AAXX 17061 76625 32550 31411 10138 20071 38159 40106 52010 83030 90530 333 10259 20110 30/// 55050 56020 58020 83360
AAXX 17061 76634 01430 80000 10108 20105 37899 40205 52006 69921 71054 88400 90550 333 10211 20062 31/// 55086 21676 562// 58041 69927 88614
AAXX 17061 76644 32350 40503 10226 20197 30194 40207 52009 81270 90550 333 10318 20205 30/// 55075 21060 5611/ 58036 81810 83320
AAXX 17061 76654 31956 03602 10226 20182 30152 40156 57009 70544 90550 333 10284 20203 30/// 55086 20934 58013
AAXX 17061 76658 31920 20501 10194 20187 39650 40149 52012 70514 80004 90549 333 10322 20171 30/// 55093 56001 58/// 82070
AAXX 17061 76662 32960 00402 10128 20109 38483 40129 52013 90545 333 10294 20058 30/// 55091 21001 58022
AAXX 17061 76680 31962 03202 10112 20079 37790 40141 52002 70400 90550 333 10244 20092 30/// 55008 20707 58033
AAXX 17061 76685 32950 00000 10106 20058 37901 40136 52011 90550 333 10246 20055 30/// 55103 58030
AAXX 17061 76687 31230 42301 10154 20145 38733 40214 57004 74042 84600 90545 333 10236 20095 30/// 55042 563// 58043 83706 81608
AAXX 17061 76692 01520 80703 10233 20218 30190 40209 50006 69921 75062 8451/ 90545 333 10271 20216 31/// 55023 5611/ 58051 69927 84628 84456
AAXX 17061 76737 01470 80000 10166 20147 38827 40199 51003 69901 70252 887// 90535 333 10229 20166 30/// 55074 562// 58048 69907 88713 91102 91534
AAXX 17061 76743 31930 20901 10245 20224 30178 40186 52008 70200 82050 90545 333 10293 20220 30/// 55023 56/0/ 58048 82356
AAXX 17061 76750 32558 23203 10216 20207 30174 40184 57004 82100 90550 333 10314 20195 30/// 56100 58030 82820
AAXX 17061 76762 31602 20901 10184 20166 38775 40118 52015 70300 82400 90540 333 10318 20124 30/// 55094 21289 56300 58/// 82638
AAXX 17061 76775 32960 00501 10137 20075 38561 40167 52014 90545 333 10310 20102 30/// 55073 58032
AAXX 17061 76833 32958 03606 10274 20194 30133 40136 57003 90540 333 10324 20268 30/// 55099 59006 92000
AAXX 17061 76843 11565 60000 10229 20193 39517 40154 52008 69001 72051 85530 90545 333 10290 20192 30/// 55056 5699/ 58022 85630
AAXX 17061 76845 11230 62201 10121 20109 37977 40175 50005 69931 70252 84720 90543 333 10208 20077 31/// 56290 58022 84705 82458
AAXX 17061 76848 32350 50201 10145 20123 38407 40113 51001 82510 90555 333 10238 20117 31/// 55072 56190 58017 82709 834600
AAXX 17061 76243 32370 83106 10120 20080 30006 40307 52014 884// 90530 333 10130 20102 30/// 55000 568// 58084 88612
AAXX 17061 76311 32920 00000 10128 20107 39885 40161 52015 90555 333 10262 20086 30/// 55073 58021
AAXX 17061 76405 32940 00000 10176 20145 30147 40169 52007 90550 333 10240 20112 30/// 55094 2//// 58010
AAXX 17061 76412 32960 02201 10150 20081 30128 40174 52009 90550 333 10252 20146 30/// 55061 58006
AAXX 17061 76640 31110 80404 10228 20222 30227 40238 52010 70222 8552/ 90540 333 10276 20212 30/// 55028 5619/ 58076 85602 83440
AAXX 17061 76647 32865 10302 10199 20191 30178 40208 52008 81030 90550 333 10304 20187 30/// 55050 560/0 58029 81358
AAXX 17061 76741 01340 63602 10244 20233 30161 40179 52014 69931 76044 862// 90535 333 10285 20230 31/// 55073 568// 58043 69937 86810
AAXX 17064 89577 46/// /2608 11331 35820 4//// 5////
AAXX 17064 89578 46/// /0900 11350 36956 4//// 5////
AAXX 17061 37682 31/94 90000 11069 21074 38120 48524 57010 74544 333 21123 7000/
AAXX 17061 37717 32598 72204 11018 21064 38054 48479 57004 83531 333 21061 7000/
AAXX 17061 37788 41495 62502 11034 21051 39240 40282 52004 71022 866// 333 21036 86717
OOXX AAUNI 17064 99798 50833 56093 07671 46/// /2106 11105 21126 38932 49823 52016 90600
AAXX 17064 64510 31/01 9//// 10215 20215 3//// 4//// 74544 333 0//00 20215 5///4 55/// 5//// 89///
AAXX 17061 45007 12650 63204 10175 20062 30222 40231 58032 60001 81531 333 58007 81645 84080
AAXX 17061 33135 11295 81507 10059 20054 39816 49992 57004 60022 71052 886// 333 20055 88705
AAXX 17061 33317 NIL
AAXX 17061 33345 NIL
AAXX 17061 33393 11997 61304 10042 20009 39503 49886 57002 60012 70262 86030 333 20027
AAXX 17061 33506 11496 81105 10028 20023 39874 40071 54000 69982 78082 889// 333 20021
AAXX 17061 33587 12597 81805 10052 20038 39737 49997 57010 69902 885// 333 20048 88632 555 32005
AAXX 17061 33631 11497 81304 10056 20049 39744 49885 57008 60182 76166 8802/ 333 20047 88519
AAXX 17061 33663 32997 70904 10046 20034 39861 49956 57021 8707/ 333 20034
AAXX 17061 33658 32997 60904 10035 20020 39625 49920 57023 86030 333 20010
AAXX 17061 33711 11396 81706 10063 20054 39820 40027 57002 60022 71085 886// 333 20062 88708
AAXX 17061 33791 11909 01608 10058 20058 39897 40046 50000 60022 74554 333 20054
AAXX 17061 33837 31556 61702 10068 20064 39970 40021 58010 71022 83430 333 20041
AAXX 17061 33924 32598 81903 10087 20050 30054 40066 52002 84201 333 20086
AAXX 17061 33946 32597 72004 10081 20061 39862 40080 51005 87500 333 20056 87632
AAXX 17061 34300 32497 81506 10035 20015 39919 40111 53009 885// 333 20015 86711
AAXX 17061 34504 11497 81406 10026 20016 39903 40083 52001 69902 70262 886// 333 20017 88711
AAXX 17061 34519 32260 81308 10021 20005 39842 40119 53006 886// 333 20021 88705
AAXX 17061 34601 11460 71607 10024 20021 39952 40089 52001 69942 72581 87300 333 20016 85611
AAXX 17061 45007 12650 63204 10175 20062 30222 40231 58032 60001 81531 333 58007 81645 84080
AAXX 17061 11010 01338 82505 10009 20007 39581 49961 52020 60022 77377 333 20008 31000 69925 83608 85612 87628 91121 91216
AAXX 17061 11012 11235 82507 10007 21005 39491 49961 52021 60022 77376 885// 333 10079 20006 3/000 44001 55300 93101
AAXX 17061 11022 11558 82608 10020 21004 39526 49910 53019 69952 70282 885// 333 10079 20020 3/001 55300 88625 91119
AAXX 17061 11035 11670 82810 10033 21003 39662 49912 52018 60012 76162 8257/ 333 10093 20033 82640 88360 91123 91212
AAXX 17061 11036 11683 82811 10032 21017 39695 49916 52019 60012 70180 333 20032 31003 82635 87360 91015 91121 91214
AAXX 17061 11101 11565 82402 10013 21003 39500 40031 52021 60032 70272 887// 333 10074 20007 41997 88725 93197
AAXX 17061 11120 01362 82407 10007 21026 39283 49990 52020 60022 78588 333 20004 32000 69905 81709 84823 87640 91117 91211
AAXX 17061 11126 17/// /3014 11117 21119 37516 48298 52013 60032 7408/ 333 11042 21120 55300 91134
AAXX 17061 11130 17/// /0000 11002 21006 39405 49997 53025 60042 7408/ 333 10085 21002 3/000 55300 91113
AAXX 17061 11146 NIL
AAXX 17061 11150 01456 82807 10012 21021 39443 49984 53019 60022 77172 333 20010 31001 69905 81712 85622 86632 91014 91115 91208
AAXX 17061 11155 11/05 92915 11072 21100 38122 48265 51010 6///2 77287 333 10039 21079 3/108 44025 55300 93199
AAXX 17061 11157 11458 82405 10002 21045 39197 49966 53024 60062 78588 878// 333 21013 3/101 43006 83614 86628 91122 91210 93197
AAXX 17061 11172 NIL
AAXX 17061 11190 12662 82812 10042 21042 39680 49911 53015 60012 885// 333 10100 20042 3/002 55300 91122
AAXX 17061 11204 12980 73302 10006 21057 39169 49958 52035 60082 8704/ 333 10028 20002 43001 87460 93103 555 10008 6994/
AAXX 17061 11212 11/80 73405 11112 21122 37591 48281 52026 60252 73674 875// 333 21121 44022 817// 87620 91116 92612 93113 444 16070
AAXX 17061 11231 11260 83102 10008 20006 39378 49948 52033 60132 70276 333 20005 320 81705 88460
AAXX 17061 11240 11784 89901 10021 20007 39492 49927 52032 60072 70382 333 20021 34001 81650 87657
AAXX 17061 11244 17/// /3602 10050 21040 39598 49921 53021 60142 7//4/ 333 10101 20038 55300 91115
AAXX 17061 11389 17550 82209 10016 21003 39613 49938 52025 60012 780// 885// 333 10078 20016 3/001 55300 91124
AAXX 17061 76040 32902 03102 10106 20060 30155 40169 54000 90545 333 10174 20078 30/// 55068 59001 98602
AAXX 17061 76342 11430 80301 10088 20077 39596 40327 52012 60011 75055 887// 90550 333 10134 20088 31/// 55000 20000 561// 58068 88710
AAXX 17061 76382 32660 40701 10150 20109 38950 40179 52022 84080 90547 333 10253 20093 30/// 55071 2//// 56040 58059 84354
AAXX 17061 76393 01108 80302 10104 20097 39693 40286 52008 69901 75055 887// 90550 333 10146 20104 31/// 55000 56999 58/// 69907 88703
AAXX 17061 76402 32550 60000 10136 20090 30108 40165 52002 86600 90548 333 10225 20056 30/// 55075 2//// 56700 58002
AAXX 17061 76458 32960 03402 10175 20148 30165 40170 52006 90548 333 10242 21022 30/// 55064 58023
AAXX 17061 76491 11456 73203 10130 20128 39888 40286 52012 69901 70252 875// 90545 333 10205 20126 30/// 55000 568// 58106 87615
AAXX 17061 76525 32360 60908 10082 20062 37501 40146 52012 82636 90540 333 10179 20080 30/// 55089 22412 56355 58026 82708 83358 81080
AAXX 17061 76548 32760 60206 10184 20152 30242 40252 51013 8607/ 90540 333 10266 20180 30/// 55007 5601/ 58086 86356
AAXX 17061 76556 32960 00901 10165 20148 39133 40137 52012 90534 333 10284 20135 30/// 55097 58028
AAXX 17061 76571 32710 20000 10124 20068 38200 40154 52023 82100 90550 333 10250 20050 30/// 55080 56300 58037 82856
AAXX 17061 76577 32960 03603 10134 20117 38073 40140 53014 90540 333 10250 20088 30/// 55057 58030
AAXX 17061 76581 32960 61804 10180 20137 39124 40220 52013 83720 90550 333 10250 20154 30/// 55032 58056 83728 83460
AAXX 17061 76612 32958 22701 10121 20084 38487 40132 52009 80001 90550 333 10268 20072 30/// 55091 21071 56006 58014 82072
AAXX 17061 76625 32550 31411 10138 20071 38159 40106 52010 83030 90530 333 10259 20110 30/// 55050 56020 58020 83360
AAXX 17061 76634 01430 80000 10108 20105 37899 40205 52006 69921 71054 88400 90550 333 10211 20062 31/// 55086 21676 562// 58041 69927 88614
AAXX 17061 76644 32350 40503 10226 20197 30194 40207 52009 81270 90550 333 10318 20205 30/// 55075 21060 5611/ 58036 81810 83320
AAXX 17061 76654 31956 03602 10226 20182 30152 40156 57009 70544 90550 333 10284 20203 30/// 55086 20934 58013
AAXX 17061 76658 31920 20501 10194 20187 39650 40149 52012 70514 80004 90549 333 10322 20171 30/// 55093 56001 58/// 82070
AAXX 17061 76662 32960 00402 10128 20109 38483 40129 52013 90545 333 10294 20058 30/// 55091 21001 58022
AAXX 17061 76680 31962 03202 10112 20079 37790 40141 52002 70400 90550 333 10244 20092 30/// 55008 20707 58033
AAXX 17061 76685 32950 00000 10106 20058 37901 40136 52011 90550 333 10246 20055 30/// 55103 58030
AAXX 17061 76687 31230 42301 10154 20145 38733 40214 57004 74042 84600 90545 333 10236 20095 30/// 55042 563// 58043 83706 81608
AAXX 17061 76692 01520 80703 10233 20218 30190 40209 50006 69921 75062 8451/ 90545 333 10271 20216 31/// 55023 5611/ 58051 69927 84628 84456
AAXX 17061 76737 01470 80000 10166 20147 38827 40199 51003 69901 70252 887// 90535 333 10229 20166 30/// 55074 562// 58048 69907 88713 91102 91534
AAXX 17061 76743 31930 20901 10245 20224 30178 40186 52008 70200 82050 90545 333 10293 20220 30/// 55023 56/0/ 58048 82356
AAXX 17061 76750 32558 23203 10216 20207 30174 40184 57004 82100 90550 333 10314 20195 30/// 56100 58030 82820
AAXX 17061 76762 31602 20901 10184 20166 38775 40118 52015 70300 82400 90540 333 10318 20124 30/// 55094 21289 56300 58/// 82638
AAXX 17061 76775 32960 00501 10137 20075 38561 40167 52014 90545 333 10310 20102 30/// 55073 58032
AAXX 17061 76833 32958 03606 10274 20194 30133 40136 57003 90540 333 10324 20268 30/// 55099 59006 92000
AAXX 17061 76843 11565 60000 10229 20193 39517 40154 52008 69001 72051 85530 90545 333 10290 20192 30/// 55056 5699/ 58022 85630
AAXX 17061 76845 11230 62201 10121 20109 37977 40175 50005 69931 70252 84720 90543 333 10208 20077 31/// 56290 58022 84705 82458
AAXX 17061 76848 32350 50201 10145 20123 38407 40113 51001 82510 90555 333 10238 20117 31/// 55072 56190 58017 82709 834600
AAXX 17061 76243 32370 83106 10120 20080 30006 40307 52014 884// 90530 333 10130 20102 30/// 55000 568// 58084 88612
AAXX 17061 76311 32920 00000 10128 20107 39885 40161 52015 90555 333 10262 20086 30/// 55073 58021
AAXX 17061 76405 32940 00000 10176 20145 30147 40169 52007 90550 333 10240 20112 30/// 55094 2//// 58010
AAXX 17061 76412 32960 02201 10150 20081 30128 40174 52009 90550 333 10252 20146 30/// 55061 58006
AAXX 17061 76640 31110 80404 10228 20222 30227 40238 52010 70222 8552/ 90540 333 10276 20212 30/// 55028 5619/ 58076 85602 83440
AAXX 17061 76647 32865 10302 10199 20191 30178 40208 52008 81030 90550 333 10304 20187 30/// 55050 560/0 58029 81358
AAXX 17061 76741 01340 63602 10244 20233 30161 40179 52014 69931 76044 862// 90535 333 10285 20230 31/// 55073 568// 58043 69937 86810
AAXX 17061 76040 32902 03102 10106 20060 30155 40169 54000 90545 33310174 20078 30/// 55068 59001 98602
AAXX 17061 76342 11430 80301 10088 20077 39596 40327 52012 60011 75055887// 90550 333 10134 20088 31/// 55000 20000 561// 5806888710
AAXX 17061 76382 32660 40701 10150 20109 38950 40179 52022 84080 90547333 10253 20093 30/// 55071 2//// 56040 58059 84354
AAXX 17061 76393 01108 80302 10104 20097 39693 40286 52008 69901 75055887// 90550 333 10146 20104 31/// 55000 56999 58/// 6990788703
AAXX 17061 76402 32550 60000 10136 20090 30108 40165 52002 86600 90548333 10225 20056 30/// 55075 2//// 56700 58002
AAXX 17061 76458 32960 03402 10175 20148 30165 40170 52006 90548 33310242 21022 30/// 55064 58023
AAXX 17061 76491 11456 73203 10130 20128 39888 40286 52012 69901 70252875// 90545 333 10205 20126 30/// 55000 568// 58106 87615
AAXX 17061 76525 32360 60908 10082 20062 37501 40146 52012 82636 90540333 10179 20080 30/// 55089 22412 56355 58026 82708 8335881080
AAXX 17061 76548 32760 60206 10184 20152 30242 40252 51013 8607/ 90540333 10266 20180 30/// 55007 5601/ 58086 86356
AAXX 17061 76556 32960 00901 10165 20148 39133 40137 52012 90534 33310284 20135 30/// 55097 58028
AAXX 17061 76571 32710 20000 10124 20068 38200 40154 52023 82100 90550333 10250 20050 30/// 55080 56300 58037 82856
AAXX 17061 76577 32960 03603 10134 20117 38073 40140 53014 90540 33310250 20088 30/// 55057 58030
AAXX 17061 76581 32960 61804 10180 20137 39124 40220 52013 83720 90550333 10250 20154 30/// 55032 58056 83728 83460
AAXX 17061 76612 32958 22701 10121 20084 38487 40132 52009 80001 90550333 10268 20072 30/// 55091 21071 56006 58014 82072
AAXX 17061 76625 32550 31411 10138 20071 38159 40106 52010 83030 90530333 10259 20110 30/// 55050 56020 58020 83360
AAXX 17061 76634 01430 80000 10108 20105 37899 40205 52006 69921 7105488400 90550 333 10211 20062 31/// 55086 21676 562// 5804169927 88614
AAXX 17061 76644 32350 40503 10226 20197 30194 40207 52009 81270 90550333 10318 20205 30/// 55075 21060 5611/ 58036 81810 83320
AAXX 17061 76654 31956 03602 10226 20182 30152 40156 57009 70544 90550333 10284 20203 30/// 55086 20934 58013
AAXX 17061 76658 31920 20501 10194 20187 39650 40149 52012 70514 8000490549 333 10322 20171 30/// 55093 56001 58/// 82070
AAXX 17061 76662 32960 00402 10128 20109 38483 40129 52013 90545 33310294 20058 30/// 55091 21001 58022
AAXX 17061 76680 31962 03202 10112 20079 37790 40141 52002 70400 90550333 10244 20092 30/// 55008 20707 58033
AAXX 17061 76685 32950 00000 10106 20058 37901 40136 52011 90550 33310246 20055 30/// 55103 58030
AAXX 17061 76687 31230 42301 10154 20145 38733 40214 57004 74042 8460090545 333 10236 20095 30/// 55042 563// 58043 83706 81608
AAXX 17061 76692 01520 80703 10233 20218 30190 40209 50006 69921 750628451/ 90545 333 10271 20216 31/// 55023 5611/ 58051 6992784628 84456
AAXX 17061 76737 01470 80000 10166 20147 38827 40199 51003 69901 70252887// 90535 333 10229 20166 30/// 55074 562// 58048 6990788713 91102 91534
AAXX 17061 76743 31930 20901 10245 20224 30178 40186 52008 70200 8205090545 333 10293 20220 30/// 55023 56/0/ 58048 82356
AAXX 17061 76750 32558 23203 10216 20207 30174 40184 57004 82100 90550333 10314 20195 30/// 56100 58030 82820
AAXX 17061 76762 31602 20901 10184 20166 38775 40118 52015 70300 8240090540 333 10318 20124 30/// 55094 21289 56300 58/// 82638
AAXX 17061 76775 32960 00501 10137 20075 38561 40167 52014 90545 33310310 20102 30/// 55073 58032
AAXX 17061 76833 32958 03606 10274 20194 30133 40136 57003 90540 33310324 20268 30/// 55099 59006 92000
AAXX 17061 76843 11565 60000 10229 20193 39517 40154 52008 69001 7205185530 90545 333 10290 20192 30/// 55056 5699/ 58022 85630
AAXX 17061 76845 11230 62201 10121 20109 37977 40175 50005 69931 7025284720 90543 333 10208 20077 31/// 56290 58022 84705 82458
AAXX 17061 76848 32350 50201 10145 20123 38407 40113 51001 82510 90555333 10238 20117 31/// 55072 56190 58017 82709 834600
AAXX 17061 76243 32370 83106 10120 20080 30006 40307 52014 884// 90530333 10130 20102 30/// 55000 568// 58084 88612
AAXX 17061 76311 32920 00000 10128 20107 39885 40161 52015 90555 33310262 20086 30/// 55073 58021
AAXX 17061 76405 32940 00000 10176 20145 30147 40169 52007 90550 33310240 20112 30/// 55094 2//// 58010
AAXX 17061 76412 32960 02201 10150 20081 30128 40174 52009 90550 33310252 20146 30/// 55061 58006
AAXX 17061 76640 31110 80404 10228 20222 30227 40238 52010 70222 8552/90540 333 10276 20212 30/// 55028 5619/ 58076 85602 83440
AAXX 17061 76647 32865 10302 10199 20191 30178 40208 52008 81030 90550333 10304 20187 30/// 55050 560/0 58029 81358
AAXX 17061 76741 01340 63602 10244 20233 30161 40179 52014 69931 76044862// 90535 333 10285 20230 31/// 55073 568// 58043 6993786810
AAXX 17064 17600 12565 52811 10186 20126 30162 40171 53012 60022 83802 333 10189 20177 31015 50391 55058 70022 83825 92437
AAXX 17064 17601 12580 22711 10174 20106 30132 40163 52009 69942 81802 90550 333 20159 30012 70004 81825
AAXX 17064 17607 11580 62302 10126 20093 39975 40167 52/// 69914 703// 82802 333 20118 70001 81825 85075
AAXX 17064 17609 12565 53003 10121 20097 30165 40169 53015 60032 81102 333 10170 20096 31006 50151 55082 70028 81825 85077
AAXX 17061 15015 01596 80402 10041 20021 39317 42563 56021 60022 7106/ 8652/ 333 10044 20026 31000 6///7 70017 91003 91106
AAXX 17061 15020 01597 81203 10030 20027 39739 49937 56025 60022 70262 8457/ 333 10036 20005 31101 69937 70053 91005 91107
AAXX 17061 15090 01596 81103 10039 20029 39869 49961 56025 60002 71011 8457/ 333 10053 20017 31100 55300 10035 20003 3//// 60007 70019 91006 91108
AAXX 17061 15108 02299 72328 11020 21020 37881 48299 57024 60002 82570 333 11020 21080 3//// 43006 60007 70003 91034 92727 92870 95000
AAXX 17061 15120 02597 81103 10055 20023 39417 49904 55025 60002 8357/ 333 10062 20030 31100 55300 10074 2//// 3//// 60007 70001 91007 91107
AAXX 17061 15150 01496 81603 10009 20009 39747 49961 58024 60002 71022 886// 333 10018 21007 31101 60007 70002 91006 91107
AAXX 17061 15170 01996 80300 11015 21015 39175 42597 57029 60002 71022 8807/ 333 10021 21021 31102 60007 70003 91001 91102 92600
AAXX 17061 15200 01597 81204 10077 20065 39721 49862 56026 60072 76162 8802/ 333 10094 20073 32005 60057 70074 91005 91106
AAXX 17061 15230 01596 82002 10046 20045 39629 49919 56028 60032 76162 8802/ 333 10046 20027 31002 55300 10039 20001 3//// 60027 70031 91003 91104 96010
AAXX 17061 15260 02598 71103 10085 20008 39387 49907 58034 60002 83570 333 10091 21010 31101 60007 70000 91006 91109
AAXX 17061 15280 01/90 92328 11060 21060 37282 47808 57028 60002 74943 333 11057 21118 3//// 49031 60007 70007 91034 92722 92825 92956 96039
AAXX 17061 15292 01597 81708 10070 20049 39615 49903 56033 60052 78082 883// 333 10082 20057 31005 60027 70056 91013 91113
AAXX 17061 15310 02997 81502 10048 20015 39904 49990 56023 60002 8807/ 333 10061 20020 31100 55300 10035 20003 3//// 60007 70000 91004 91104
AAXX 17061 15335 02997 71807 10070 20056 39995 40001 57018 60002 80008 333 10070 20015 31/// 60007 70000 91011 91111
AAXX 17061 15346 01597 83602 10043 20035 39678 49966 56029 69952 76162 885// 333 10043 20018 31101 69957 70005 91003 91103
AAXX 17061 15350 02597 71001 10009 20009 39862 49984 56026 60002 87500 333 10047 21003 31103 60007 70000 91001 91102
AAXX 17061 15360 02998 61910 10093 20074 39992 40006 58015 60002 80006 222// 06074 20502 333 10093 20059 3//// 60007 70000 91012 91114 92438
AAXX 17061 15410 01597 80502 10059 20043 39855 49950 56024 60012 76166 8802/ 333 10062 20030 31001 60017 70014 91003 91103
AAXX 17061 15420 02597 80501 10030 20015 39859 49971 56026 60002 8457/ 333 10050 20016 31100 55300 0//// 20000 3//// 60007 70000 91002 91103
AAXX 17061 15450 01597 80604 10036 20022 39717 49951 56023 69912 76162 8552/ 333 10056 20026 31002 55300 10080 20002 3//// 69917 70001 91007 91107
AAXX 17061 15460 02997 81805 10069 20041 39954 49978 56030 60002 8807/ 333 10069 20026 31001 60007 70000 91008 91109
AAXX 17061 15470 02597 70803 10034 20016 39827 49953 58035 60002 83370 333 10034 20011 31001 60007 70000 91005 91105
AAXX 17061 15480 02497 51302 10093 20090 39986 40003 56023 60002 84601 222// 06075 2//// 333 10093 20037 31001 60007 79999 91007 91110 92437
AAXX 17061 11782 01775 82307 10035 20003 39583 49884 50015 60012 70282 885// 333 20034 32003 60005 70027 88650 91119
BBXX UFTA 17061 99851 71230 11396 83103 11297 21330 40145 58003 69902 77172 887// 555 48045
AAXX 17064 91930 36/// ///// 10274 20214
AAXX 17064 91943 16/// /1205 10268 20218 30122 40124 51014 60014 333 20268 59019
AAXX 17064 89061 179// 02806 10004 21013 39957 49964 52060 69931 73077 333 91007 91116
AAXX 17064 97180 01456 70503 10246 20244 30071 40089 56017 60101 76166 83272 333 56000 60057 83818 86460
AAXX 17061 01001 11340 83416 11030 21051 39932 49944 52015 69902 73673 887// 333 21043 42999 79999 91125
AAXX 17064 68026 13560 81505 10225 20200 48514 52017 60014 8457/ 333 20206
AAXX 17064 68029 32560 61010 10230 20202 48522 52010 82873 333 20195
AAXX 17064 68032 32560 50917 10244 20199 48526 52011 85580 333 20206
AAXX 17064 68040 32560 40908 10235 20179 48536 52018 83570 333 20196
AAXX 17064 68054 12460 81015 10194 20181 48560 53016 60024 885// 333 20189
AAXX 17064 68226 32960 40611 10248 20181 48531 52014 80004 333 20217
AAXX 17064 68234 32560 40914 10230 20169 48542 52015 83501 333 20196
AAXX 17064 68240 32960 70310 10223 20163 48549 52014 86580 333 20156
AAXX 17064 68325 32560 61419 10226 20168 48543 52013 84580 333 20192
AAXX 17064 03301 16581 /2915 10050 20026 30002 40076 52010 60012 90550 333 20008 70052 82/22 90710 91125 91025
AAXX 17064 03305 15581 /2618 10040 20000 39811 40075 53008 60042 90550 333 20024 3/000 70192 87/20 83/33 90710 91131 91031
AAXX 17064 03313 16780 /2612 10048 20028 39972 40067 53008 60032 90550 333 20030 3/000 70096 85/50 84/68
AAXX 17064 03316 15966 /3121 10057 20032 30045 40056 53006 69982 90550 333 20018 3/103 70108 87/58 90710 91134
AAXX 17064 03318 16/// /3114 10041 20025 60012 90550 333 20028 70110 90710 91125
AAXX 17064 03321 16547 /2910 10032 20015 30057 40069 53013 60032 90550 333 20025 3/101 55/// 553// 20000 70182 85/23 83/50
AAXX 17064 03330 17030 /2405 10001 21003 39693 40061 52002 69902 767// 90550 333 21014 3/104 4/003 70006 87/01
AAXX 17064 03344 17359 /2504 10008 20000 39723 40046 53003 69922 767// 90550 333 21003 3/104 70004 83/06 84/57
AAXX 17064 03346 16/// /2713 10010 20006 69922 90550 333 21001 3/103 70002
AAXX 17064 03348 17350 /2004 10007 20006 39946 40056 50002 69902 762// 90550 333 21033 3/108 55000 55300 20000 70028 85/06 85/13
AAXX 17064 03355 15875 /2605 10013 21004 30029 40041 53003 69922 90550 333 20001 3/104 55000 55300 20000 70002 88/57
AAXX 17064 03373 16959 /2209 11007 21017 39973 40044 52005 69982 90550 333 21032 3/105 70010 81/72
AAXX 17064 03379 16957 /2512 11004 21013 39974 40053 52008 60002 90550 333 21009 3/102 70008 8//99
AAXX 17064 03382 15973 /2509 10008 21005 30023 40032 53002 69922 90550 333 21001 3/102 55000 55300 20000 70008 8//99
AAXX 17064 03385 46964 /2407 10001 21006 30029 40039 53009 90550 333 20001 81/70
AAXX 17064 03391 12965 22604 11017 21026 30040 40047 52009 69902 80002 90550 333 21022 34106 70002 82074 92600
AAXX 17064 03392 16963 /2506 11002 21008 30041 40045 52011 69942 90550 333 21004 3/102 70032 86/71
AAXX 17064 03405 16581 /3025 10057 20019 39973 40090 53009 69922 90550 333 20052 3/003 55/// 553// 20000 70008 83/22 84/32 90710 91135
AAXX 17064 03409 16/// /2509 10033 20013 60022 90550 333 21006 3/104 55000 55300 2//// 70058
AAXX 17064 03410 16477 /2707 10020 20009 39635 40075 53010 60022 90550 333 20007 3/102 55/// 553// 20000 70062 83/14
AAXX 17064 03469 17960 /2507 11002 21008 30048 40052 52013 69902 710// 90550 333 21003 3/103 55/// 553// 20000 70018 8//99
AAXX 17064 03488 15964 /2511 10011 20003 30016 40043 52019 60022 90550 333 20011 70118 8//99
AAXX 17064 03503 17574 /3111 10053 20022 30009 40086 53008 60062 723// 90550 333 21024 3/106 70086 81/23 85/30
AAXX 17064 03507 17475 /2902 10015 20015 39715 40093 53008 69982 741// 90550 333 21024 3/106 70046 83/13 84/21
AAXX 17064 03520 16879 /3006 10026 20010 39957 40080 53004 69962 90550 333 21023 3/106 55/// 553// 20000 70052 87/57 86/65
AAXX 17064 03522 17784 /2805 10025 20021 39991 40085 53007 69962 723// 90550 333 21004 3/105 4/002 70054 82/56 86/60
AAXX 17064 03529 15971 /1902 11007 21012 30039 40083 53008 60002 90550 333 21027 3/107 70032 81/58
AAXX 17064 03544 17957 /2203 11011 21013 39936 40070 53007 69902 710// 90550 333 21011 3/103 55/// 553// 20000 70002 8//99
AAXX 17064 03560 17950 /2509 11006 21010 39959 40066 51011 60002 710// 90550 333 21008 3/102 55/// 553// 20000 70032 8//99
AAXX 17064 03604 16584 /3217 10058 20015 30051 40105 53009 60002 90550 333 20050 3/003 70000 82/25 90710 91128 91028
AAXX 17064 03605 16980 /2916 10048 20025 30094 40102 53012 60042 90550 333 20005 70042 8//99
AAXX 17064 03609 16/// /2706 10043 20025 30053 40106 53011 69962 90550 333 20031 3/000 70008
AAXX 17064 03628 15773 /2507 10018 20011 30018 40091 53013 60032 90550 333 20003 3/102 55030 55300 20000 70030 84/50
AAXX 17064 03647 16966 /2605 11002 21009 39818 40079 53011 60002 90550 333 21005 3/104 55/// 553// 20000 70030 8//99
AAXX 17064 03658 16956 /1604 11033 21038 30009 40082 53010 60002 90550 333 21042 3/108 70026 8//99
AAXX 17064 03660 17961 /3005 10005 20003 39826 40080 52014 69982 710// 90550 333 21002 3/105 70050 8//99
AAXX 17064 03672 16957 /2202 11005 21014 30032 40074 51015 69922 90550 333 21014 3/104 70032 8//99
AAXX 17064 03684 15960 /2807 10002 21010 39951 40060 51013 60002 90550 333 20002 3/101 70030 8//99
AAXX 17064 03693 16963 /2907 10006 21002 30062 40065 53020 60002 90550 333 20006 3/101 70026 8//99
AAXX 17064 03707 15570 /3115 10069 20019 30100 40107 53015 69982 90550 333 20057 3/003 70018 81/28 84/50 90710 91125
AAXX 17064 03710 16/// /3115 10028 20022 39679 40104 53016 69982 90550 333 20009 3/101 55/// 553// 20000 70032
AAXX 17064 03743 16977 /2405 10001 21007 39928 40093 53018 60022 90550 333 20000 3/102 70020 8//99
AAXX 17064 03749 16976 /2504 10000 21006 39981 40094 53021 60012 90550 333 21009 3/104 70016 8//99
AAXX 17064 03761 15971 /2507 10004 21011 39939 40086 52017 69902 90550 333 21002 3/104 55027 55300 20000 70022 8//99
AAXX 17064 03768 16960 /2708 10008 21002 30001 40082 52016 69922 90550 333 21019 3/104 70030 8//99
AAXX 17064 03769 17957 /1803 11005 21016 39993 40077 51017 69982 704// 90550 333 21005 3/104 55013 55300 20000 70034 8//99
AAXX 17064 03770 16/// ///// 10007 20000 60002 90550 333 20005 3/103 70036
AAXX 17064 03781 17947 /2403 11005 21006 39865 40077 51015 69922 710// 90550 333 21010 3/104 55/// 553// 20000 70056 81/74
AAXX 17064 03784 46/// /2408 10008 21011 30064 40068 52017 90550 333 20008
AAXX 17064 03797 15463 /2912 10025 20011 30004 40065 52027 69982 90550 333 20022 3/000 55000 55300 20000 70062 83/10
AAXX 17064 03839 16/// ///// 10016 20014 69942 90550 333 20002 55/// 553// 20000 70020
AAXX 17064 03857 15972 /3217 10064 20035 30035 40099 51018 60002 90550 333 20047 3/004 70008 8//99 90710 91125
AAXX 17064 03862 15968 /2903 11005 21012 30084 40097 53018 69902 90550 333 21016 3/106 55048 55300 20000 70006 81/61
AAXX 17064 03866 16/// /3009 10036 20012 30066 40091 52020 60002 90550 333 20025 3/001 70018
AAXX 17064 03872 15980 /2805 10016 20009 30082 40087 53020 69902 90550 333 20009 3/102 55/// 553// 20000 70006 8//99
AAXX 17064 03876 16/// /3504 10004 21004 30079 40081 51022 60002 90550 333 20001 70016
AAXX 17064 03895 41582 63311 10068 20011 40111 52025 78081 868// 333 20059 84825
AAXX 17064 03896 16/// ///// 10069 69942 333 20061 55018
AAXX 17061 01160 41989 0//// 10032 21043 39870 49887 53013 70200 333 20031
BBXX KAOU 17064 99032 10871 43/// /0909 10284 20239 40081 5//// 7//// 8//// 222// 04293 2//// 3//// 4//// 5//// 6//// 8//// ICE /////
BBXX NWS0003 17064 99539 71665 43/// /1519 10047 20029 49770 5//// 7//// 8//// 222// 04068 2//// 3//// 4//// 5//// 6//// 8//// ICE /////
BBXX NWS0020 17064 99367 70016 43/// /2621 10164 20142 40183 5//// 7//// 8//// 222// 04171 2//// 3//// 4//// 5//// 6//// 8//// ICE /////
BBXX NWS0029 17064 99268 70474 43/// /1313 10223 20159 40091 5//// 7//// 8//// 222// 04241 2//// 3//// 4//// 5//// 6//// 8//// ICE /////
BBXX ONDE 17064 99345 11414 41897 43123 10110 21002 40170 53010 7//11 8443/ 22233 00220 20605 331// 4//// 5//// 6//// 80060 ICE /////
BBXX ZCDG7 17064 99323 71176 41398 61514 10150 20091 40188 52025 70322 8582/ 22283 00170 20202 300// 4//// 5////
BBXX C6XP7 17063 99262 70789 41298 30912 10230 20216 40200 54/// 75011 822// 22264 00220 20201 326// 4//// 5//// 6//// 80220 ICE /////
BBXX WXJ63 17063 99611 71464 41/96 70103 11001 21006 40021 52/// 710// 8//// 222// 0//// 2//// 3//// 4//// 5//// 6//// 8//// ICE /////
BBXX C6XC2 17064 99024 31327 41498 62007 10340 20260 40050 57030 70222 85231 22200 00300 2//// 3//// 4//// 5//// 6//// 80280 ICE /////
BBXX WKAB 17064 99388 70192 41/98 /2716 10160 20152 40314 54000 7//// 8//// 22225 00166 2//// 3//// 4//// 5//// 6//// 80155 ICE /////
BBXX WFLH 17063 99236 71523 43498 31013 10222 20180 40189 56008 7//// 835// 22213 00228 20901 3//// 41404 5//// 6//// 80194 ICE /////
AAXX 17064 03002 15679 /3424 10032 21025 39937 49956 51024 60022 90550 333 20022 3/001 70050 81/33 87/42 90710 91133
AAXX 17064 03008 16/// /3322 10043 21021 39905 49974 53020 69902 90550 333 20035 79999 90710 91137 91034
AAXX 17064 03010 46/// /3424 10059 20007 40009 52018 333 90710 91136
AAXX 17064 03014 46/// /3419 10006 21036 49985 52024 90550 333 8//// 90710 91134
AAXX 17064 03031 17469 /2806 10003 21001 39705 40036 53018 69902 724// 90550 333 21024 3/103 55/// 553// 20000 79999 82/19 86/23
AAXX 17064 03034 17581 /3410 10042 20001 30023 40037 53022 69922 781// 90550 333 20028 3/100 70004 85/20 83/56 91020
AAXX 17064 03037 17/73 /3208 10032 20024 30017 40039 53018 60042 782// 90550 333 21005 3/102 70044
AAXX 17064 03039 46/// /0117 11018 21048 90550 333 21024 90710 91127
AAXX 17064 03041 46/// /3206 11044 21046 90550 333 21067
AAXX 17064 03044 17784 /1705 10012 20000 39924 40024 53016 60022 724// 90550 333 21005 3/102 55/// 553// 20000 70026 81/50 87/59
AAXX 17064 03047 17132 /3502 11001 21005 39732 40039 53008 69902 785// 90550 333 21066 3/110 55/// 553// 20000 79999 87/02 84/17
AAXX 17064 03062 17581 /2610 10015 21001 30018 40022 53014 69942 781// 90550 333 21017 3/105 55/// 553// 20000 70006 81/25 86/50
AAXX 17064 03065 46/// /3118 11059 21065 90550 333 21059 90710 91126
AAXX 17064 03068 11468 82710 10014 20007 30012 40020 53016 69922 76872 8753/ 90550 333 21014 31105 70004 83712 85627
AAXX 17064 03072 46/// ///// 11040 21043 90550 333 21052 91000
AAXX 17064 03080 15684 /2903 11003 21024 39845 40019 53011 60002 90550 333 21043 3/108 70002 86/37 86/59
AAXX 17064 03088 15883 /3014 10013 21021 39843 40008 53006 60002 90550 333 21006 3/102 55/// 553// 20000 70002 88/57
AAXX 17064 03094 17459 /2620 10041 20022 39992 49997 52011 69942 751// 90550 333 20038 3/003 70006 86/11 83/50 90710 91127
AAXX 17064 03105 17984 /3406 10008 21001 30031 40049 53010 60072 723// 90550 333 21004 3/104 70130 83/66 90710 91129
AAXX 17064 03132 17458 /3013 10037 20022 30038 40051 53005 60032 782// 90550 333 21022 3/105 70168 83/15 83/47
AAXX 17064 03144 15784 /2203 10008 21011 39981 40024 53002 60002 90550 333 21034 3/108 55/// 553// 20000 79999 87/56
AAXX 17064 03148 46/// /2911 11013 21013 90550 333 21025
AAXX 17064 03153 15983 /2816 10021 20010 39898 40038 53003 69922 90550 333 21001 3/106 55/// 553// 20000 70022 87/61
AAXX 17064 03155 16278 /2407 10007 20007 39731 40033 53001 60002 90550 333 21027 3/107 70014 87/05
AAXX 17064 03158 17783 /2005 11012 21020 39883 40022 53002 69902 721// 90550 333 21021 3/103 55/// 553// 20000 70094 87/50
AAXX 17064 03210 16375 /2916 10035 20017 39893 40046 53007 60012 90550 333 20003 3/105 70112 82/09 87/59 90710 91125
AAXX 17064 03212 17484 /2901 10019 20015 39944 40044 52004 69902 781// 90550 333 21024 3/104 70028 87/14
AAXX 17064 03214 17467 /3021 10043 20021 30026 40045 53006 60012 781// 90550 333 20012 3/104 70114 83/16 85/25 90710 91128
AAXX 17064 03220 16761 ///// 11011 21013 30003 40039 53003 60002 90550 333 21021 3/107 70002 83/50
AAXX 17064 03224 17347 /2609 11012 21015 39685 40038 53004 69922 710// 90550 333 21032 3/107 4/002 70010 84/09 85/57
AAXX 17064 03225 16980 /3107 10015 21006 39731 40040 53001 60002 90550 333 21036 3/106 55/// 553// 20000 70008 84/68
AAXX 17064 03226 15378 /0101 10000 21012 39760 40041 53003 60002 90550 333 21034 3/106 70012 87/08
AAXX 17064 03227 46/// /2918 11025 2//// 90550 333 21054 90710 91125
AAXX 17064 03230 16881 /0000 11027 21035 39772 40035 53003 60002 90550 333 21038 3/109 4/002 70046 83/57
AAXX 17064 03238 15968 /2709 11001 21013 39849 40025 53001 69922 90550 333 21012 3/105 70034 87/64
AAXX 17064 03261 16967 /2005 11004 21013 39997 40038 53002 60002 90550 333 21024 3/107 70002 87/61
AAXX 17064 03265 17959 /1104 11034 21042 30008 40040 52003 69922 710// 90550 333 21043 3/107 70004 82/63 87/68
AAXX 17064 03266 16980 /2904 10013 21008 30020 40038 53002 60012 90550 333 21010 3/105 70010 87/58 84/72
AAXX 17064 03275 15975 /2608 11006 21031 39833 40030 53005 60012 90550 333 21012 3/103 70044 81/71
AAXX 17064 03281 16/// /1201 11017 21026 60022 90550 333 21021 70028
AAXX 17064 03903 16780 /3009 10030 20005 30030 40089 53015 60032 90550 333 21003 3/103 55/// 553// 20000 70060 81/50 84/65
AAXX 17064 03904 17463 /2805 10027 20005 30022 40083 53016 60052 704// 90550 333 20005 3/103 70074 82/19 86/36
AAXX 17064 03907 17582 /2806 10033 20015 30061 40069 51015 60092 781// 90550 333 20015 3/000 55005 55300 20000 70144 84/20 83/50
AAXX 17064 03911 16482 /2811 10011 20002 39792 40071 50009 60042 90550 333 21003 3/104 4/004 70074 82/12 85/58
AAXX 17064 03915 16580 /2605 10017 20017 39981 40060 52008 60052 90550 333 21002 3/105 70092 81/26 85/39
AAXX 17064 03916 16560 /3307 10026 20012 39867 40059 53009 60092 90550 333 20007 3/000 55/// 553// 20000 70132 86/22 83/60 91023
AAXX 17064 03923 17478 /3112 10017 21002 39877 40076 53014 69942 721// 90550 333 20007 3/101 70014 81/18 83/56
AAXX 17064 48310 31558 60000 10250 20170 39702 40158 57022 70520 85145 333 58008 70000
AAXX 17064 48325 NIL
AAXX 17064 48329 31558 50000 10268 20185 39802 40140 57025 70510 84805 333 593274 70000
AAXX 17064 48352 NIL
AAXX 17064 48357 NIL
AAXX 17064 48380 NIL
AAXX 17064 48383 31559 10607 10256 20143 39992 40152 57026 70511 81100 333 58000 70000
AAXX 17064 48403 NIL
AAXX 17064 48405 32960 20709 10264 20147 39983 40146 57028 80005 333 58003 70000
AAXX 17064 48420 NIL
AAXX 17064 48421 31957 20000 10315 20173 30013 40125 57025 70500 80005 333 58005 70000
AAXX 17064 48425 NIL
AAXX 17064 48426 31559 60403 10278 20156 30125 40138 58021 70522 81146 333 58012 70000
AAXX 17064 48429 NIL
AAXX 17064 48430 31959 30910 10297 20155 30127 40134 57017 70511 82235 333 58019 70000
AAXX 17064 48450 NIL
AAXX 17064 48459 NIL
AAXX 17064 48465 31958 60310 10276 20177 30125 40129 57022 70522 80006 333 58012 70000
AAXX 17064 48550 11558 50911 10290 20223 30098 40105 57008 69931 71022 82245 333 58001 70014
AAXX 17064 48552 NIL
AAXX 17064 48566 NIL
AAXX 17064 48568 NIL
BBXX PJFF 17064 99499 70047 41/97 63126 10102 20083 40120 52025 70022 8//// 22224 20503 80092
BBXX UCAB 17061 99678 10411 41/98 /1910 10050 40074 54000 70210 8//// 22213 00030 20402
BBXX DDSD2 17063 99362 70342 41/// 81519 10190 20167 40270 52007 70222 88/// 22224 00190 2//// 3//// 4//// 5//// 80175
BBXX UFJN 17061 99706 10393 41/98 82210 11020 49990 52055 70022 88/// 22200 0//// 20402
BBXX C6VR4 17063 99330 70213 41597 70718 10182 20140 40320 50006 70211 8436/ 22224 04222 20605 301// 41003 5//// 80158
BBXX PGRQ 17064 99325 10180 41/98 32319 10185 2//// 40165 5//// 7//00 83100 22272 00196 20903 399// 40903
BBXX UGGA 17061 99691 10410 41/98 92112 10030 40012 52020 70222 89/// 22261 20605
BBXX UCKA 17061 99564 10177 41/98 81114 10043 49764 57025 70222 877// 22253 00060 20807
BBXX PHIN 17064 99510 70179 41/// /3018 10072 20049 40247 56002 7//// 8//// 22223 2//// 80061
BBXX UCJB 17061 99615 10040 41/98 /3111 10060 49890 52015 70222 8//// 22242 00121 20503
BBXX SKUN 17063 99507 70339 43/97 31518 10060 40224 58008 22214 00070 2//// 4////
BBXX A8PX4 17064 99391 70098 41/98 63415 10140 20057 40280 54000 70122 8//// 22284 00163 2//// 80097
BBXX PDHW 17063 99496 70071 41598 32720 10090 20035 40154 52040 70111 834// 22262 00100 2//// 80064
BBXX 44022 17061 99409 70737 46/// ///04 10056 21021 40196 56011 90600 22200 00091 333 91205 555 11041 22041
BBXX 51003 17061 99193 71606 46/// /0509 10250 40172 53017 90550 22200 00258 11406 20703 3//// 41406 70031 333 91210 555 11093 22098 30545 40510 60549 049086 055078 049083 042080 040086 042085
BBXX PCCL 17063 99324 31657 41197 21815 10188 40125 54000 70322 811// 22223 04210 20502 320// 40804
BBXX PFBF 17063 99102 31372 41698 61303 10297 20193 40048 57020 70322 83306 22223 02304 20100 33100 40502 5//// 80225
BBXX PCDE 17063 99399 31181 41598 20402 10180 20131 40090 57020 7//// 81147 22223 20401 80150
BBXX 46238 17061 99334 71195 46/// ///// 1//// 90550 22200 00146 11103 21002 329// 41102 70015
BBXX 46239 17061 99363 71221 46/// ///// 1//// 90551 22200 00130 11705 21004 330// 41703 70026
AAXX 17064 48310 31558 60000 10250 20170 39702 40158 57022 70520 85145 333 58008 70000
AAXX 17064 48325 NIL
AAXX 17064 48329 31558 50000 10268 20185 39802 40140 57025 70510 84805 333 593274 70000
AAXX 17064 48352 NIL
AAXX 17064 48357 NIL
AAXX 17064 48380 NIL
AAXX 17064 48383 31559 10607 10256 20143 39992 40152 57026 70511 81100 333 58000 70000
AAXX 17064 48403 NIL
AAXX 17064 48405 32960 20709 10264 20147 39983 40146 57028 80005 333 58003 70000
AAXX 17064 48420 NIL
AAXX 17064 48421 31957 20000 10315 20173 30013 40125 57025 70500 80005 333 58005 70000
AAXX 17064 48425 NIL
AAXX 17064 48426 31559 60403 10278 20156 30125 40138 58021 70522 81146 333 58012 70000
AAXX 17064 48429 NIL
AAXX 17064 48430 31959 30910 10297 20155 30127 40134 57017 70511 82235 333 58019 70000
AAXX 17064 48450 NIL
AAXX 17064 48459 NIL
AAXX 17064 48465 31958 60310 10276 20177 30125 40129 57022 70522 80006 333 58012 70000
AAXX 17064 48550 11558 50911 10290 20223 30098 40105 57008 69931 71022 82245 333 58001 70014
AAXX 17064 48552 NIL
AAXX 17064 48566 NIL
AAXX 17064 48568 NIL
BBXX 46053 17061 99342 71198 46/// /3102 10137 40192 51007 90550 22200 00141 10902 20401 326// 40902 70011 333 91204 555 11019 22019 30534 43005 60549 311022 305044 295031 281033 281032 276034
AAXX 17061 26554 11362 81405 10024 20008 39752 49913 57017 69902 70252 886// 333 20004 88708 91110 555 90012
AAXX 17061 26666 11459 71804 10055 20038 39738 49949 57007 69932 71052 87500 333 20006 87618 91112 555 90012
AAXX 17061 26850 11356 81705 10026 20008 39640 49908 57009 69952 76165 885// 333 21004 88707 91010 555 90010
AAXX 17061 26863 11459 81607 10054 20042 39715 49946 57015 69962 71052 886// 333 20010 88713 91111
AAXX 17061 26941 11458 81705 10036 20023 39647 49880 57008 69952 76162 8872/ 333 20010 91011 91111 555 90010
AAXX 17061 26951 11465 81606 10032 20014 39713 49909 57011 69902 70262 886// 333 20005 88715 91010 91110 555 90011
AAXX 17061 33008 11665 61804 10050 20030 39682 49856 53003 60012 70262 86500 333 20033 86648 91110 555 90010
AAXX 17061 33019 11556 71003 10034 20024 39720 49891 57008 60022 72162 875// 333 20029 87628 555 90010
AAXX 17061 33036 32465 71705 10049 20019 39723 49950 57005 87500 333 20019 86712 91111 555 90011
AAXX 17061 33041 11350 81305 10062 20048 39826 49978 57005 60022 71052 886// 333 20056 88707 91010 91110 555 90012
BBXX 41041 17061 99142 70460 46/// /1307 10264 20217 40112 58016 90550 22200 00265 11004 20603 3//// 41003 70022 333 91209 555 11077 22082 30543 41309 60549 130073 124071 125066 120067 122070 116071 81308 90541
AAXX 17064 70026 NIL
AAXX 17064 70133 NIL
AAXX 17064 70174 NIL
AAXX 17064 70200 NIL
AAXX 17064 70219 NIL
AAXX 17064 70231 NIL
AAXX 17064 70261 NIL
AAXX 17064 70267 NIL
AAXX 17064 70271 NIL
AAXX 17064 70273 NIL
AAXX 17064 70308 NIL
AAXX 17064 70316 NIL
AAXX 17064 70326 NIL
AAXX 17064 70340 NIL
AAXX 17064 70350 NIL
AAXX 17064 70361 NIL
AAXX 17064 70381 NIL
AAXX 17064 70398 NIL
AAXX 17064 70414 NIL
AAXX 17064 78016 32564 72508 10199 20143 30199 40203 57015 87500 333 10212 20163 79999
AAXX 17064 64810 NIL
AAXX 17064 64820 32460 71808 10248 20239 30100 40109 83570 333 20248 59004 83613 86363
AAXX 17064 16622 12560 51208 10120 20051 30013 40023 57030 60002 82155 333 20094 30/// 50180 55069 70000 82830 84358 90730 91113 555 10000 30128 20000 89050 99097 30000 10098 2//// 30102 4//// 5//// 40000 47540 44220 50000 50088
AAXX 17064 16641 12460 81808 10160 20120 30036 40042 57010 60002 8682/ 333 20118 30/// 55054 70000 83815 85625 88458 90730 91125 555 10000 30160 20000 89052 99086 40000 47558 44210 50000 50138
AAXX 17064 16682 12460 72208 10164 20112 30069 40086 57017 60002 85650 333 20104 30/// 50220 55065 70000 81711 84625 85358 90730 91118 555 10000 30166 20000 89045 99089 30000 10135 20130 30132 40146 50143 60190 40000 47583 44210 50000 50136
AAXX 17064 16716 12560 71608 10166 20060 30066 40083 57016 60002 81136 333 20098 30/// 55045 70020 81830 84360 86070 555 10000 30172 20000 89035 99090 40000 47577 44175 50000 50114
AAXX 17064 16734 17/// /2516 10167 20115 30052 40112 57009 69902 7414/ 333 20146 90730 91127 555 10000 30169 20000 89048 99077 60000 65555 60454
AAXX 17064 16743 NIL
AAXX 17064 16749 12460 61504 10144 20110 30135 40150 51010 60002 84841 333 20114 30/// 55044 70045 82818 83620 90730 91110 555 10000 30146 20000 89057 99097 40000 47635 44230 50000 50126
AAXX 17064 16754 12565 42004 10124 20075 30086 40133 57007 60002 81201 333 20122 30/// 50200 55068 70000 81820 83068 90730 91106 555 10000 30150 20000 89051 99086 40000 47595 44190 50000 50100
BBXX DFWV2 17064 99300 11794 41/98 42118 10230 20205 40175 57005 7//11 8/8// 2226/ 04210 29902 3//// 4//// 5////
BBXX DCPY2 17063 99085 10708 41598 22003 10310 20261 40125 52015 70261 81162 22224 00280 20100 30000 80275
BBXX ONDE 17064 99345 11414 41897 43123 10110 21002 40170 53010 7//11 8443/ 22233 00220 20605 331// 4//// 5//// 6//// 80060 ICE /////
BBXX C6SI6 17064 99369 11261 46/// /0304 11004 21062 40326 56014 7//// 8//// 22283 0//// 2////
BBXX WDB9986 17064 99397 11531 43/// ///// 1//// 2//// 4//// 5//// 7//// 8//// 22211 0//// 2//// 3//// 4//// 5//// 6//// ICE /////
BBXX TBWUK36 17063 99238 11255 41398 80417 10196 20119 40227 57005 70222 887// 22254 00250 20406 333// 40303 5//// 80153
BBXX 46070 17061 99551 11753 46/// /0509 11008 21054 49887 51005 90550 22200 00040 11109 20806 3//// 41107 70046 333 91211 555 11095 22099 30518 40414 60549 047092 050098 046106 042111 039100 038099 80412 90514
BBXX ONFE 17064 99283 11314 41299 83624 10160 2007/ 40240 58010 70222 882// 22214 00240 20404 336// 40710 5//// 6//// 80110 ICE /////
BBXX SHIP 17064 99062 10964 41698 80919 10290 2024/ 40130 56010 70222 8824/ 22274 0//// 20904 309// 41003 5//// 6//// 80250 ICE /////
BBXX ONAI 17064 99266 50434 41797 63408 10235 2023/ 40065 57020 70310 86010 22254 00246 2//// 3//// 4//// 5//// 6//// 80230 ICE /////
BBXX WCX7445 17064 99578 50640 43/// /2415 10048 2//// 40056 5//// 7//// 8//// 22282 00046 2//// 3//// 4//// 5//// 6//// ICE /////
BBXX OVYB2 17061 99143 30620 41698 50502 10297 20237 40122 54000 70200 8434/ 22243 00300 20200 31700 41003 5//// 80255
BBXX TBWUK18 17064 99299 50191 41098 21202 10200 20200 40258 56010 70200 821// 2229/ 20501 317// 41402 5//// 80200
BBXX DPKZ 17063 99059 70109 41/97 /1110 10280 20213 40110 54000 7//// 8//// 22274 299// 80235
BBXX BATFR56 17064 99190 30587 44498 30812 10267 20202 40114 51004 70200 82193 22262 00280 20604 314// 40604 5////
BBXX BATFR19 17064 99065 30060 46/// /1721 10239 20205 40127 53001 22200 00254
BBXX BATFR55 17064 99201 30574 44597 71304 10229 20217 40117 72566 86172 22262 00259 203// 33030 406// 506//
BBXX BATFR05 17064 99063 10034 46/// /0104 10254 20235 40114 53006 22200 00260
BBXX DBKV 17061 99173 70219 46/// /0609 10237 20160 40150 57001 22201 00243
BBXX DBBT 17061 99427 50014 46/// //711 10081 20029 49983 52006 22231 00108
BBXX ONDY 17064 99158 30109 41799 72918 10170 2014/ 40140 54000 70311 872// 22244 00220 20406 30101 40304 50303 6//// 80150 ICE /////
BBXX UFTA 17061 99851 71230 11396 83103 11297 21330 40145 58003 69902 77172 887// 555 48045
BBXX WDF6832 17063 99397 70421 41498 41820 10170 2010/ 40120 57010 70200 848// 22264 0//// 20605 3//// 4//// 5//// 6//// 80130 ICE /////
BBXX SHIP 17064 99309 71519 41497 60315 10190 2014/ 40270 54000 70311 85999 22223 00220 2//// 3//// 4//// 5//// 6//// 80160 ICE /////
BBXX ICGU 17064 99158 70614 41897 10319 10260 20151 40130 54/// 70311 81//5 22233 04270 21001 31819 41401 51802 6//// 85190 ICE /////
BBXX WQVY 17064 99327 70496 41598 60119 10220 2017/ 40103 5//// 70322 862// 22264 0//// 20802 308// 41308 5//// 6//// 80190 ICE /////
BBXX WFLH 17063 99236 71523 43498 31013 10222 20180 40189 56008 7//// 835// 22213 00228 20901 3//// 41404 5//// 6//// 80194 ICE /////
BBXX 9HXC9 17064 99261 70794 41698 31215 10220 20173 40194 55003 7//00 83500 22254 04260 20502 3//// 40702 5//// 6//// 80189 ICE /////
BBXX 9HRJ9 17063 99203 70862 41798 40522 1//// 2//// 40180 54000 70200 84030 22214 04280 20303 3//// 4//// 5//// 6//// 80260 ICE 0////
BBXX SHIP 17064 99352 71751 41698 52117 10180 2016/ 40140 57020 70222 8435/ 22263 00180 20704 328// 41108 5//// 6//// 80170 ICE /////
BBXX 46214 17061 99379 71235 46/// ///// 1//// 90555 22200 00120 11504 20903 329// 41503 70020
BBXX 46224 17061 99332 71175 46/// ///// 1//// 90536 22200 00151 11402 20801 319// 41401 70008
BBXX 46219 17061 99332 71199 46/// ///// 1//// 90558 22200 00138 11104 21004 331// 41102 70022
BBXX 44099 17061 99369 70757 46/// ///// 1//// 90552 22200 00124 11302 21002 308// 41301 70011
BBXX 41110 17061 99341 70777 46/// ///// 1//// 90551 22200 00143 11302 21001 312// 41301 70008
BBXX 42099 17061 99273 70842 46/// ///// 1//// 90557 22200 00235 10501 20501 70005
BBXX 44100 17061 99363 70756 46/// ///// 1//// 90552 22200 00132 11303 20503 309// 41302 70016
BBXX 46218 17061 99345 71208 46/// ///// 1//// 90602 22200 00137 11204 21003 329// 41202 70019
BBXX 46215 17061 99352 71209 46/// ///// 1//// 90538 22200 00130 11103 21002 328// 41102 70015
BBXX 46213 17061 99403 71247 46/// ///// 1//// 90554 22200 00104 11505 20803 330// 41503 70024
BBXX 46225 17061 99329 71174 46/// ///// 1//// 90544 22200 00144 11102 20801 327// 41101 70009
BBXX 46232 17061 99325 71174 46/// ///// 1//// 90538 22200 00147 10803 20802 328// 41101 70013
BBXX 46236 17061 99368 71219 46/// ///// 1//// 90550 22200 00121 11003 21002 328// 41702 70014
BBXX 46240 17061 99366 71219 46/// ///// 1//// 90542 22200 00123 11002 21002 335// 41101 70009
BBXX 44172 17061 99445 70634 46/// ///// 1//// 90601 22200 00075 10904 20903 317// 41102 70019
BBXX 44008 17061 99405 70692 46/// /3204 10082 20022 40176 56007 90550 22200 00115 10804 20401 323// 40804 70021 333 91205 555 11039 22040 30504 43206 60549 324037 321035 321036 323037 328044 329040
BBXX 44060 17061 99413 70721 46/// ///04 10052 40186 56013 90600 22200 00109 333 91207 555 11041 22046
BBXX 46089 17061 99459 71258 46/// /1404 10083 20070 40288 58010 90550 22200 00097 11405 20401 329// 41404 70023 333 91205 555 11040 22041 30548 41405 60549 142038 139034 139029 141027 130026 129024
BBXX 46042 17061 99368 71224 46/// /3603 10123 40207 50000 90550 22200 00124 11605 20401 330// 41605 70023 333 91204 555 11031 22032 30451 43604 60549 355029 359031 005032 008029 010023 006030
BBXX 46083 17061 99582 71380 46/// /2005 10050 20000 40105 51004 90550 22200 00066 11708 20402 300// 41708 70041 333 91207 555 11053 22057 30549 42007 60549 197050 196048 199049 200046 200046 199048 82006 90528
BBXX VAAZ 17064 99548 70532 46/// /2212 10002 21001 49832 58042 7//// 8//// 22231 0//// 2////
BBXX CG2958 17064 99503 71254 46/// /1210 10074 20065 40283 53005 7//// 8//// 22272 0//// 2////
BBXX VOKJ 17064 99467 70713 46/// /2811 11067 21124 40182 50001 7//// 8//// 22213 0//// 2////
BBXX VCBW 17064 99502 70607 46/// /3131 11079 21125 49982 53048 7//// 8//// 22200 0//// 2////
BBXX CGTF 17064 99476 70527 46/// /1419 10055 20021 49976 51013 7//// 8//// 22200 0//// 2////
BBXX VCWL 17064 99468 70712 46/// /3201 11060 21121 40182 55000 7//// 8//// 22200 0//// 2////
BBXX CGDG 17064 99447 70636 46/// /2809 10012 20018 40126 53023 7//// 8//// 22200 0//// 2////
BBXX CGDT 17064 99468 70712 46/// /3603 11065 21125 40182 55000 7//// 8//// 22200 0//// 2////
BBXX 41009 17061 99285 70802 46/// /2601 10229 20179 40216 58014 90550 22200 00248 11103 20401 300// 41103 70015 333 91202 555 11007 22007
BBXX 42057 17061 99168 70815 46/// /0407 10274 20212 40155 58009 90550 22200 00279 10703 20602 3//// 40702 70014 333 91208 555 11067 22070 30452 40409 60549 043066 044070 044070 043070 040073 043076 80408 90452
BBXX 44039 17061 99411 70727 46/// /3005 10064 21008 40199 90545 22200 00100 1//00 70002 333 91207
BBXX 41010 17061 99289 70785 46/// /1504 10226 40214 58017 90550 22200 00241 11103 20401 300// 41103 70016 333 91205 555 11040 22041
BBXX VOKF 17064 99490 70669 46/// /2916 11076 21135 40136 53013 7//// 8//// 22200 0//// 2////
BBXX VCLM 17064 99612 70664 46/// /2520 11121 21161 49892 56013 7//// 8//// 22232 01006 2////
BBXX VOPP 17064 99456 70735 46/// /3304 11039 21078 4//// 5//// 7//// 8//// 22200 0//// 2////
BBXX VCSZ 17064 99496 70534 46/// /2235 10043 20044 49858 56059 7//// 8//// 22274 0//// 2////
BBXX CZ9742 17064 99506 70969 46/// /1820 11078 21094 40160 58061 7//// 8//// 22200 0//// 2////
BBXX CGJV 17064 99447 70636 46/// /2909 10013 21030 40127 53022 7//// 8//// 22200 0//// 2////
BBXX 46077 17061 99579 71543 46/// /1508 10029 20019 49907 53006 90550 22200 00051 11003 20402 3//// 41002 70015 333 91210 555 11087 22091 30500 41711 60549 153082 163084 165083 172078 176088 167093 81710 90500
BBXX 46082 17061 99597 71434 46/// ///// 10038 20038 40045 51015 90550 22200 00061 11107 70035
BBXX 46035 17061 99571 71778 46/// /0112 1//// 49859 56010 90550 22200 11109 20704 300// 41108 70043 333 91214 555 11116 22124 30521 40215 60549 013116 006081 010111 017123 030111 027124 80214 90519
BBXX 46026 17061 99378 71228 46/// /3003 10115 40208 54000 90550 22200 00122 11603 20401 328// 41603 70017 333 91205 555 11035 22037 30549 43106 60549 295036 278041 279044 285041 281042 280042
BBXX 46072 17061 99517 71722 46/// /1303 10030 20009 49710 56024 90550 22200 00050 11108 20401 3//// 41108 70041 333 91205 555 11034 22035 30506 41709 60549 132034 134043 142050 149061 162070 171064 81707 90505
BBXX 46041 17061 99474 71247 46/// /1604 10078 40292 57005 90550 22200 00080 11404 20401 3//// 41404 70021 333 91205 555 11038 22040 30451 41505 60549 156036 160038 157039 159039 156041 156044
BBXX 44040 17061 99410 70736 46/// /3105 10059 21017 40203 90545 22200 1//00 70000 333 91206 555 11057 22072
BBXX 41040 17061 99145 70530 46/// /0205 10263 20219 40115 58012 90550 22200 00280 11003 20401 3//// 41003 70016 333 91206 555 11049 22051 30502 40106 60549 020047 012046 015050 010048 007048 011046 80105 90502
BBXX 42039 17061 99288 70860 46/// /0000 10218 40221 58004 90550 22200 00230 10601 20401 300// 40601 70007 333 91201 555 11002 22002 30452 43402 60549 162002 180000 180000 341005 345010 344011 83401 90452
BBXX 46061 17061 99602 71468 46/// /1009 10040 40010 51005 90550 22200 00055 10904 20702 300// 40903 70021 333 91211 555 11092 22097 30549 41011 60549 103087 104083 088084 088076 090079 088077
BBXX 51101 17061 99243 71621 46/// /0709 10231 20196 40212 53018 90550 22200 00241 11408 20704 333// 41407 70042 333 91212 555 11096 22101 30450 40713 60549 067091 069091 066099 061097 066101 065102
BBXX C6CU6 17063 99332 70445 41297 82028 10215 20200 40120 56040 70122 8/7// 22263 04212 20912 317// 40512 5//// 80205
BBXX A8SF8 17064 99183 70679 41398 40518 10250 20207 40161 57009 70300 82245 22264 04270 29904 399// 4//// 80220
BBXX DDLK 17063 99362 70725 41/97 70114 10165 20094 40169 57011 70222 87/// 22224 20603 334// 40804 80125
BBXX A8SF7 17061 99315 70803 41098 12608 10190 20175 40210 58005 7//22 81100 22234 04170 21003 3//// 4//// 5//// 80180
BBXX 41046 17061 99238 70683 46/// /0608 10232 20179 40189 58009 90550 22200 00257 11006 20603 300// 41004 70028 333 91209 555 11082 22086 30523 40712 60549 058078 057091 064099 074077 077085 077080 80711 90523
BBXX 44011 17061 99411 70666 46/// /3205 10086 20026 40162 50000 90550 22200 00097 11007 20401 3//// 41007 70034 333 91206 555 11048 22050 30505 41607 60549 317045 327050 330048 332053 336055 335052
BBXX 42363 17061 99282 70892 46/// /0802 10217 20178 40241 50000 90600 333 91203
BBXX 42364 17061 99291 70881 46/// /0000 10211 20178 40237 54000 90600
BBXX CGCC 17064 99455 70736 46/// /3005 11030 21077 4//// 5//// 7//// 8//// 22200 0//// 2////
BBXX CGBN 17064 99447 70636 46/// /2611 10014 21031 40112 53022 7//// 8//// 22200 0//// 2////
BBXX LEQZ3 17063 99538 71502 413// 52030 10060 2004/ 40070 54000 7//11 85//2 22272 00110 80050
BBXX SHIP 17064 99284 71240 41/97 /0414 10160 20099 40204 52008 70321 8//// 90555 22224 00170 1//// 2//// 3//// 4//// 5//// 6//// 80125
BBXX A8CN8 17060 99527 71370 41/97 /2705 40130 56010 70222 8//// 22274 2//// 327// 4//06 5////
BBXX C6SI4 17064 99583 71576 43/// /0730 10040 2002/ 49940 53020 7//// 8//// 22253 00070 20606 3//// 40706 5//// 6//// 80030 ICE /////
BBXX WJBJ 17063 99188 70666 41498 80924 10240 2020/ 40150 57006 70322 8846/ 22274 00281 20404 309// 40605 5//// 6//// 80210 ICE /////
BBXX C6XP7 17063 99262 70789 41298 30912 10230 20216 40200 54/// 75011 822// 22264 00220 20201 326// 4//// 5//// 6//// 80220 ICE /////
BBXX SHIP 17064 99338 71308 41597 70218 10140 20095 40255 57009 70222 85/// 22233 00180 2//// 3//// 4//// 80115
BBXX ZCDG7 17064 99323 71176 41398 61514 10150 20091 40188 52025 70322 8582/ 22283 00170 20202 300// 4//// 5////
BBXX CGBY 17064 99487 71235 46/// /2201 10078 20059 40299 55002 7//// 8//// 22200 0//// 2////
BBXX CGBR 17064 99534 71293 46/// /0000 10027 20027 40130 58013 7//// 8//// 22200 0//// 2////
BBXX 3FZK3 17064 99549 71583 46/// /2216 10035 20030 49938 51024 7//// 8//// 22223 0//// 2////
BBXX CG2965 17064 99487 71235 46/// /2401 10079 20060 40300 56002 7//// 8//// 22200 0//// 2////
BBXX CGJK 17064 99484 71234 46/// /3502 10080 20071 40298 56003 7//// 8//// 22200 0//// 2////
BBXX CGDR 17064 99493 71263 46/// /1222 10082 20082 40272 52002 7//// 8//// 22241 00109 2////
BBXX VCRG 17064 99474 70619 46/// /2918 11009 21050 40086 51038 7//// 8//// 22200 0//// 2////
BBXX VXKF 17064 99462 70602 46/// /2813 10019 21035 40075 51039 7//// 8//// 22200 0//// 2////
BBXX CGSB 17064 99483 70693 46/// /2913 11096 21156 40179 51006 7//// 8//// 22213 00028 2////
BBXX VAAP 17064 99446 70636 46/// /2907 10009 21035 40111 53020 7//// 8//// 22200 0//// 2////
BBXX CGDX 17064 99468 70712 46/// /0104 11061 21124 40182 55001 7//// 8//// 22200 0//// 2////
BBXX VCXF 17064 99464 70484 41896 81933 10055 2006/ 40065 57036 76162 8804/ 22200 02038 20504 31117 40802 50802 80055
BBXX BAREU06 17064 99465 70723 46/// ///// 40185 52008 22243
BBXX BATEU01 17064 99468 70574 44597 62727 10034 21018 40039 53042 70222 84353 22224 00052 21004 318// 41004 5////
BBXX BATFR15 17064 99223 70470 44898 21819 10232 20207 40100 58018 70122 82211 22263 00254 335// 41006 5////
BBXX V2NA1 17064 99371 70541 41598 42313 10200 20096 40165 55005 70222 84568 22224 04200 21204 304// 41204 80140
BBXX A8LP6 17064 99383 70429 41/96 /2027 10200 20193 40160 57020 71022 8//// 22264 04146 29904 399// 4//07 80195
BBXX ZCDA9 17063 99235 71479 41198 40620 10230 20223 40215 53010 70200 84100 22224 00250 20202 308// 40405 5//// 80225
BBXX 4XFX 17064 99549 71584 41/98 42430 00/// 10040 2002/ 49945 52015 75050 84/// 22253 0//// 2//// 3//// 4//10 5//// 6//// 80030
BBXX WDD3826 17064 99440 70441 41398 32109 10140 2011/ 40154 54000 7//00 832// 22214 00130 20301 307// 40704 5//// 6//// 80120 ICE /////
BBXX WOTA 17064 99339 71184 43/// /0803 10161 2004/ 40160 54000 7//// 8//// 22211 0//// 2//// 3//// 4//// 5//// 6//// 80100 ICE /////
BBXX 42085 17061 99179 70665 46/// /0405 10245 40147 90540 333 91206
BBXX 44007 17061 99435 70701 46/// /3104 10042 21026 40156 58008 90550 22200 00086 11201 3//// 41201 70006 333 91204 555 11036 22037 30451 43006 60549 308034 297025 300025 284028 283034 286045
BBXX BAREU11 17064 99137 70733 46/// ///// 40127 57002 22213
BBXX 46028 17061 99357 71219 46/// /3002 10129 40198 52003 90550 22200 00134 11004 20301 332// 41004 70022 333 91203 555 11024 22025 30452 42806 60549 297023 306026 294028 281035 278038 275044
BBXX 46025 17061 99337 71191 46/// /0102 10153 20120 40181 51009 90550 22200 00144 11002 20401 326// 41001 70008 333 91202 555 11018 22022 30452 43002 60549 009014 328011 352009 300015 307016 307017
BBXX 46069 17061 99337 71202 46/// /3308 10135 40189 52005 90550 22200 00137 11104 20602 330// 41103 70021 333 91209 555 11083 22088 30510 43310 60549 332077 331080 333088 330081 331082 325080
BBXX 46054 17061 99342 71204 46/// /3204 10135 40197 51013 90550 22200 00138 11104 20401 300// 41104 70019 333 91205 555 11043 22045 30452 43206 60549 317041 319042 322040 321042 322043 323046
BBXX 46050 17061 99442 71246 46/// /0404 10092 40280 58010 90550 22200 00101 11504 20301 330// 41504 70019 333 91205 555 11044 22046 30451 40406 60549 042042 033047 029049 029051 029048 028050
BBXX 46029 17061 99461 71245 46/// /0603 10077 20067 40290 58009 90550 22200 00083 11404 328// 41404 70020 333 91204 555 11031 22032 30542 40704 60549 055030 055027 056027 058025 055025 053025
BBXX 46087 17061 99485 71247 46/// /0903 10079 20078 40298 54000 90550 22200 00077 11405 20401 328// 41405 70023 333 91204 555 11033 22036 30453 41005 60549 094030 092031 097031 095031 100032 100037
BBXX 46011 17061 99350 71210 46/// /1103 10129 40198 53012 90550 22200 00132 11104 20401 331// 41103 70018 333 91205 555 11035 22036 30516 41206 60549 111034 116034 129034 084030 037023 030031
BBXX 46012 17061 99374 71229 46/// /3103 10118 40211 54000 90550 22200 00120 11604 20401 330// 41604 70020 333 91204 555 11027 22028 30533 43305 60549 310027 328041 311025 307024 313018 293021
BBXX 46014 17061 99394 71240 46/// /0000 10099 40204 57013 90550 22200 00104 11604 20301 3//// 41604 70018 333 91200 555 30522 42402 60549 180001 194001 220005 170004 180001 059003
BBXX 46013 17061 99382 71233 46/// /2502 10109 40206 54000 90550 22200 00108 11604 20401 3//// 41604 70021 333 91203 555 11019 22021 30459 43004 60549 244017 303025 299027 295028 302033 302034
BBXX 46088 17061 99483 71232 46/// /1404 10080 40290 90550 22200 00080 1//00 70001 333 91205 555 11043 22045 30540 41405 60549 138040 141034 143024 147028 147034 138039
BBXX 46086 17061 99325 71180 46/// /1005 10158 40178 52003 90550 22200 00151 11104 20402 328// 41103 70018 333 91206 555 11050 22055 30453 41312 60549 100044 104050 119068 126081 133083 129095
BBXX 46027 17061 99419 71244 46/// /0803 10122 40228 58013 90550 22200 00093 11503 20401 328// 41503 70017 333 91204 555 11038 22046 30511 40206 60549 081031 049034 037039 033046 021050 030052
BBXX 46047 17061 99324 71195 46/// /0102 10138 40188 51011 90550 22200 00138 11004 20301 330// 41004 70020 333 91203 555 11021 22022 30529 43303 60549 004020 353014 343021 331013 357011 010017
BBXX WDE4789 17064 99608 71485 41598 80914 10033 2//// 49993 57/// 70222 885// 22200 0//// 20101 3//// 4//00 5//// 6//// 8//// ICE /////
BBXX NWS0022 17064 99416 70714 43/// /3105 10056 20002 40170 5//// 7//// 8//// 222// 04123 2//// 3//// 4//// 5//// 6//// 8//// ICE /////
BBXX 44020 17061 99414 70702 46/// /3206 10056 21002 40170 58006 90550 22200 00089 10301 20301 70005 333 91207 555 11062 22066 30456 42509 60549 310058 248061 251063 260071 256070 259075
BBXX 44027 17061 99443 70673 46/// /3210 10020 21038 40147 51011 90550 22200 00087 10804 20403 3//// 40802 70019 333 91211 555 11102 22107 30509 43214 60549 317095 309097 310104 310108 314109 313101
BBXX 41013 17061 99334 70777 46/// /2409 10203 20165 40182 58012 90550 22200 00201 11303 20502 311// 41302 70014 333 91211 555 11101 22108 30533 42512 60549 243094 244092 244092 245088 243082 241083
BBXX 41008 17061 99314 70809 46/// /2205 10174 20169 40213 58010 90550 22200 00170 11102 300// 41102 70008 333 91206 555 11051 22056 30533 42206 60549 217048 216048 217047 216046 213048 213049
BBXX 44014 17061 99366 70748 46/// /0305 1//// 40201 55012 90550 22200 00149 333 91206 555 11046 22046 30452 40110 60549 026045 019053 024059 016062 014071 015073
BBXX 44065 17061 99404 70737 46/// /3003 10072 21015 40195 56011 90550 22200 00102 11202 311// 41202 70008 333 91204 555 11030 22031 30450 43005 60549 303028 318011 323014 030010 053013 035016 83004 90548
BBXX 44009 17061 99385 70747 46/// /2804 10070 40215 58015 90550 22200 00116 11202 20301 300// 41202 70010 333 91206 555 11046 22047 30515 42807 60549 283043 288043 298045 285050 283045 277041
BBXX 41004 17061 99325 70791 46/// /2510 10213 20148 40199 57013 90550 22200 00217 333 91211 555 11109 22116 30548 42511 60549 247098 244095 247091 246094 245091 242087
BBXX 44025 17061 99402 70732 46/// /3405 10070 21014 40191 56010 90550 22200 00116 11102 20301 310// 41102 70009 333 91207 555 11052 22054 30546 43407 60549 339051 350047 342045 334053 337048 334047
BBXX 46001 17061 99563 71480 46/// /2011 10056 40030 51011 90550 22200 00050 11209 20704 300// 41208 70045 333 91214 555 11117 22126 30503 42114 60549 201110 205112 204113 204107 208111 203099
BBXX 46105 17061 99590 71522 46/// ///// 1//// 90550 22200 10802 70012
BBXX 44066 17061 99396 70726 46/// /3503 10081 20005 40189 58013 90550 22200 00131 11203 20401 3//// 41202 70013 333 91204 555 11031 22032 30521 43306 60549 347030 326034 337040 342042 328041 337039
BBXX 42002 17061 99258 70937 46/// /0404 10235 20206 40234 51004 90550 22200 00242 10702 20401 309// 40702 70009 333 91205 555 11042 22045 30538 40506 60549 040043 039045 038045 039045 036045 039041
BBXX 41047 17061 99275 70715 46/// /1003 10229 40223 58011 90550 22200 00252 11306 20301 305// 41305 70028 333 91205 555 11033 22034 30545 41105 60549 097031 070018 073025 074032 076031 050026 80804 90500
BBXX 8PSH 17064 99351 10214 46/// /2714 10176 20109 40143 53003 7//// 8//// 22223 0//// 2////
BBXX WKAB 17064 99388 70192 41/98 /2716 10160 20152 40314 54000 7//// 8//// 22225 00166 2//// 3//// 4//// 5//// 6//// 80155 ICE /////
BBXX TFBKF 17064 99635 70202 46/// ///// 22200 10801 70007
BBXX TFGRV 17064 99638 70225 46/// ///// 22200 10502 70009
BBXX TFSRT 17064 99633 70203 46/// ///// 22200 10702 70009
BBXX TFDRN 17064 99658 70212 46/// ///// 22200 10704 70022
BBXX TFGRS 17064 99663 70182 46/// ///// 22200 10706 70029
BBXX TFGSK 17064 99641 70229 46/// ///// 22200 10402 70011
BBXX TFKGR 17064 99657 70136 46/// ///// 22200 10808 70038
BBXX TFBLK 17064 99657 70248 46/// ///// 22200 10705 70025
BBXX TFHFN 17064 99642 70152 46/// ///// 22200 10702 70008
BBXX MINUK03 1706/ 99528 10038 46/// ///// 10078 40009 52013
BBXX ELQQ4 17063 99414 70274 43/// /3019 10160 2//// 40280 54000 7//// 8//// 22254 00160 2//// 3//// 4//// 5//// 6//// ICE /////
BBXX VRYO3 17064 99524 10036 46/// /1922 10085 20093 40002 53011 7//// 8//// 22284 00097 2////
BBXX WDC6736 17064 99372 70341 41598 51813 10180 2016/ 40275 57020 70222 84/// 22254 00210 20403 318// 40504 5//// 6//// 80170 ICE /////
BBXX DBFR 17061 99542 10080 46/// /3213 10059 20028 49919 52027 22261 00067
BBXX C6WK7 17064 99413 10021 41897 42617 10090 2//// 40250 54/// 7//11 84132 222// 04170 20000 3//// 4//// 5//// 6//// 8//// ICE /////
AAXX 17064 78526 NIL
AAXX 17064 78543 NIL
BBXX 41036 17061 99342 70770 46/// ///// 10178 20147 40176 57009 90550 22200 00188 10503 70013
BBXX 41043 17061 99211 70650 46/// /0508 10246 20195 40164 58016 90550 22200 00267 11006 20504 300// 41005 70031 333 91210 555 11087 22091 30502 40613 60549 052082 052086 055090 063084 057092 052091 80611 90502
BBXX 42003 17061 99260 70856 46/// /0602 1//// 90550 22200 10602 20401 312// 40602 70008 333 91203 555 11019 22020 30451 40504 60549 049017 045019 041018 039019 036022 049028 80504 90451
BBXX 42059 17061 99151 70675 46/// /0610 10271 20202 40135 58007 90550 22200 00282 10605 20604 3//// 41002 70023 333 91212 555 11105 22112 30500 40613 60549 057100 056099 056096 062102 061108 064108 80612 90500
BBXX 42036 17061 99285 70845 46/// /0000 10211 20173 40222 58004 90550 22200 00218 10501 318// 40501 70005 333 91201 555 11003 22003 30549 41901 60549 221004 182001 187003 180001 304001 055001
BBXX 42058 17061 99149 70749 46/// /0709 10270 20215 40132 58006 90550 22200 00278 10905 20604 307// 40903 70023 333 91210 555 11094 22099 30501 40711 60549 065089 065089 068090 063093 063093 067090 80610 90519
BBXX 42040 17061 99292 70882 46/// /2401 10213 40229 54000 90550 22200 00229 10702 20301 317// 40702 70009 333 91202 555 11014 22014 30510 42202 60549 236014 211012 215015 216013 216013 203012
BBXX 44005 17061 99432 70691 46/// /3205 10053 21023 40156 54000 90550 22200 00088 10603 20301 3//// 40602 70014 333 91206 555 11049 22050 30453 43207 60549 317050 318053 319046 317051 317051 317055
BBXX 42019 17061 99279 70954 46/// /0210 10172 20153 40252 52012 90550 333 91212 555 11106 22113 30502 42813 60549 010098 281097 281096 281098 281097 285099
BBXX 42056 17061 99198 70849 46/// /0707 10263 20198 40177 58012 90550 22200 00272 10703 20503 309// 40702 70017 333 91209 555 11077 22082 30511 40812 60549 072073 072074 073078 073096 063080 061073 80811 90511
BBXX 42035 17061 99292 70944 46/// /0210 10130 20127 40265 51007 90550 22200 00174 10502 20502 315// 40901 70012 333 91211 555 11103 22107 30532 40213 60549 022099 025107 027105 027098 025101 022096
BBXX 42060 17061 99163 70635 46/// /0309 10263 20174 40140 56008 90550 22200 00280 10604 20604 300// 40901 70021 333 91211 555 11096 22101 30500 40311 60549 034090 035092 036091 035093 036092 034089 80410 90538
BBXX 41049 17061 99275 70630 46/// /0308 10214 20129 40198 56011 90550 22200 00244 11006 20603 300// 41005 70030 333 91210 555 11080 22084 30539 40310 60549 029076 037074 044072 039062 040066 041066 80408 90534
BBXX 42065 17061 99149 70750 46/// /0810 10270 20214 90550 22200 11005 20804 3//// 41003 70024 333 91211 555 11102 22108 30532 40912 60549 079095 080093 078093 081094 083094 085093 80810 90540
BBXX 42020 17061 99270 70967 46/// /0209 10181 20153 40258 51012 90550 22200 00234 10604 20604 70020 333 91210 555 11089 22093 30523 40112 60549 017086 008089 007086 009088 010085 006090
BBXX 41001 17061 99347 70727 46/// ///// 10210 20156 40173 56023 90550 22200 00220 11404 70018
BBXX 41012 17061 99300 70805 46/// /2203 10224 40214 58012 90550 22200 00244 11102 307// 41102 70011 333 91204 555 11029 22030 30537 42204 60549 223028 217027 215026 214026 204023 207022
BBXX 42012 17061 99301 70876 46/// /3204 10190 20183 40229 54000 90550 22200 00201 10802 319// 40802 70008 333 91205 555 11043 22044 30524 43106 60549 323040 318042 314047 326033 312027 288019
BBXX 42001 17061 99259 70897 46/// /0000 10247 20174 40233 50000 90550 22200 00262 10702 20401 3//// 40702 70009 333 91201 555 11002 22002 30451 40402 60549 071002 076006 087009 071009 048011 042013
BBXX 41060 17061 99148 70510 46/// ///// 1//// 90550 22200 11003 70016
BBXX DBLK 17061 99692 50049 41396 80806 11016 21017 49730 52004 77172 875// 22252 05019 ICE 48195
BBXX 41044 17061 99217 70587 46/// /0210 10242 20175 40138 58010 90550 22200 00265 10907 20704 300// 40906 70034 333 91212 555 11107 22113 30518 40314 60549 019101 017104 018094 025112 028102 028103 80213 90519
BBXX 41048 17061 99320 70696 46/// /2307 10210 20154 40205 58017 90550 22200 00229 11304 20601 3//// 41304 70022 333 91208 555 11067 22070 30535 42408 60549 232068 233064 235062 234059 239056 236057 82308 90535
BBXX KRGB 17064 99429 71327 41/97 /1919 10111 2011/ 40245 54000 7//22 8//// 22214 00111 21204 329// 41605 5//// 6//// 80111 ICE /////
BBXX WSLH 17064 99268 71489 41498 51608 10210 2018/ 40220 54000 71511 852// 22255 00180 21201 332// 41506 5//// 6//// 80190 ICE /////
BBXX A8AJ4 17064 99537 71510 41/// /2524 10040 20017 40040 53010 76366 8//// 222// 0//// 2//// 3//// 4//// 5//// 6//// 80030 ICE /////
BBXX PGQI 17063 99230 70560 41597 43225 10225 20175 40115 56011 70122 83200 22263 2//04 80192
BBXX WSRL 17064 99294 71410 41498 21208 10190 2016/ 40243 51003 70200 824// 22255 00189 2//// 3//// 4//// 5//// 6//// 80170 ICE /////
AAXX 17064 04005 42489 60000 11035 21084 40055 52017 86800 555 3/210
AAXX 17064 04018 41456 71610 11024 21037 40075 51001 77072 85570 555 3//13 82711 85638 87359
AAXX 17064 04030 41115 81203 11034 21049 40076 51003 77272 885// 555 3//06 84702 88609
AAXX 17064 04048 NIL
AAXX 17064 04063 42782 11307 11050 21096 40060 52004 81500 555 3//10
AAXX 17064 04077 NIL
AAXX 17064 04082 NIL
AAXX 17064 04097 42689 22707 11010 21090 40045 52003 82200 555 3/413
BBXX C6XC2 17064 99024 31327 41498 62007 10340 20260 40050 57030 70222 85231 22200 00300 2//// 3//// 4//// 5//// 6//// 80280 ICE /////
BBXX BATFR08 17064 99461 30730 46/// /2519 10072 20054 40188 51003 22213 00087
BBXX A8ID9 17064 99127 51749 41698 50920 10285 20251 40105 52005 70311 83468 22214 00290 20503 30700 40806 5//// 80260
BBXX DDOT 17064 99068 31491 41698 62825 10310 20271 40050 57030 70122 83965 22235 00320 20200 30000 80280
BBXX CG2960 17064 99423 70830 46/// /2904 11002 21056 4//// 5//// 7//// 8//// 22200 0//// 2////
BBXX CG2350 17064 99433 70798 46/// /2808 10004 21037 40226 51001 7//// 8//// 22200 0//// 2////
BBXX CGDS 17064 99447 70755 46/// /3504 11032 21052 4//// 5//// 7//// 8//// 22200 0//// 2////
BBXX VYNG 17064 99432 70823 41/97 73315 10000 21177 41002 54000 70101 87572 22222 00030 20302 3//// 4//// 5//// 6//// 8//// ICE /////
BBXX ELWR5 17063 99178 71036 41/98 20211 10260 20237 40140 50/// 7//// 8/1// 22234 04255 20803 80243
BBXX DDAC2 17060 99066 70825 41/97 /2106 10240 20196 40100 58000 7//55 8/770 22273 04260 2//// 323// 4//04 5//// 80210
BBXX 9V7955 17064 99125 70931 43/95 /1006 10240 2024/ 40120 51010 7//// 8//// 22274 00270 20202 31010 40104 50104 6//// 80240 ICE /////
BBXX 3FBC9 17064 99180 71304 41797 60714 10210 40145 51010 70322 86534 9//// 22233 00230 20303 308// 40404 5//// 6//// 80180
BBXX WDC6698 17064 99076 71450 43/// /0914 11310 21352 40110 5//// 7//// 8//// 222// 04270 2//// 3//// 4//// 5//// 6//// 8//// ICE /////
BBXX MZDL7 17063 99057 71128 41/97 /1420 10241 20231 40135 53009 70282 8//// 22243 00280 2//// 3//// 4//// 5//// 80234
AAXX 17064 68399 16/// /2205 10239 20168 30109 40218 52008 69924 333 20147 91023 555 10313 20002 91022
AAXX 17064 68383 16/// /0000 10223 20152 39975 48622 52002 69924 333 20161 91000 555 10294 20002 91022
AAXX 17064 68398 16/// /3608 10203 20157 39427 48569 52005 69924 333 20155 91012 555 10259 20002 91020
AAXX 17064 68299 16/// /1804 10149 20067 38989 48574 52006 69924 333 20110 91008 555 10188 20002 91025
AAXX 17064 93004 16/// /2216 10159 20149 40063 54000 69921
AAXX 17064 93023 16/// /2610 10190 20135 40051 52004 60001
AAXX 17064 93069 16/// /2513 10179 20148 40033 52001 60001
AAXX 17064 93110 17498 /2306 10199 20162 40016 52001 60041
AAXX 17064 93186 17496 /1217 10164 20148 40036 52007 69981
AAXX 17064 93196 16/// /1616 10144 20142 40054 52004 60051
AAXX 17064 93245 16698 /1314 10101 20082 40066 52013 60031
AAXX 17064 93292 17496 /2006 10141 20135 40077 52011 60021
AAXX 17064 93309 17898 /1521 10138 20108 40047 52007 60001
AAXX 17064 93334 16/// /0805 10082 20068 39128 52005 60111
AAXX 17064 93339 16/// /0711 10083 20064 39133 52004 60091
AAXX 17064 93373 17598 /2309 10116 20098 40101 52013 60021
AAXX 17064 93404 17597 /1314 10119 20070 40100 52016 60001
AAXX 17064 93420 17698 /1909 10123 20048 40102 52015 60001
AAXX 17064 93439 17597 /1723 10121 20075 40117 52006 60001
AAXX 17064 93498 16/// /1917 10113 20075 40106 52013 60001
AAXX 17064 93515 17397 /3213 10164 20144 40080 52012 60001
AAXX 17064 93527 16/// /1010 10146 20081 40087 52013 60001
AAXX 17064 93546 17998 /3408 10177 20111 40076 52009 60001
AAXX 17064 93597 16/// /1430 10117 20085 40098 52002 60001
AAXX 17064 93615 17/97 /2407 10193 20115 40071 52005 60001
AAXX 17064 93678 16/98 /1918 10112 20079 40130 52009 60001
AAXX 17064 93709 16/// /2704 10185 20100 40078 52001 60001
AAXX 17064 93773 17598 /1508 10112 20072 40144 52007 60001
AAXX 17064 93781 17698 /1811 10135 20062 40137 52006 60001
AAXX 17064 93800 NIL
AAXX 17064 93805 NIL
AAXX 17064 93831 17/98 /1817 10141 20053 40111 52003 60001
AAXX 17064 93845 17698 /1610 10118 20054 40155 54000 60001
AAXX 17064 93891 17598 /1505 10109 20066 40147 57002 69921
AAXX 17064 93909 16/// /2012 10110 20059 40157 57003 60001
AAXX 17064 93929 16/// /2114 10112 20040 40141 52003 60001
AAXX 17064 93947 16/// /2517 10064 20035 40100 52013 69921
AAXX 17064 93987 16/// /2116 10111 20098 40014 52017 60001
AAXX 17064 93994 NIL
AAXX 17064 78255 42559 10503 10197 20178 30043 40192 57010 81801 333 81820
AAXX 17064 78317 NIL
AAXX 17064 78318 NIL
AAXX 17064 78325 NIL
AAXX 17064 78333 NIL
AAXX 17064 78338 NIL
AAXX 17064 78348 NIL
AAXX 17064 78349 NIL
AAXX 17064 78353 NIL
AAXX 17064 78360 NIL
AAXX 17064 78367 NIL
AAXX 17064 78369 NIL
BBXX PCSV 17060 99021 30732 41198 32610 10252 20248 40081 57009 70311 82111 22253 04282 20701 80249 90447
AAXX 17064 78016 32564 72508 10199 20143 30199 40203 57015 87500 333 10212 20163 79999
BBXX UANA 17061 99700 10418 41/97 82310 10038 40012 52002 70221 80200 22251 04033 20403
BBXX PHPP 17064 99046 10987 41197 72708 10265 20237 40082 58023 76466 87790 22232 00295 20802 80245
AAXX 17061 15502 11570 80000 10042 20032 39905 49944 56020 69932 76162 8802/ 333 10044 20014 55077 70003 555 31000 59300 65499 70600
AAXX 17061 15525 12581 62502 10090 20002 39693 49952 57030 60002 85530 333 10098 20030 70000 555 31101 554//
AAXX 17061 15528 12670 81402 10106 21004 39744 49928 57031 60002 8651/ 333 10120 20052 55042 70000 555 31101 546//
AAXX 17061 15535 12570 61604 10094 20000 39909 49955 57023 60002 84930 333 10095 20054 55041 70000 555 31/// 552//
AAXX 17061 15549 12570 71604 10058 20017 39583 49995 57017 60002 87600 333 10060 20038 70000 555 30000 575//
AAXX 17061 15552 11570 80000 10086 20064 39962 40010 57020 69902 70362 885// 222// 2//01 316// 4//01 333 10095 20035 55000 70015 555 31100 58600 64099 70600 92022 92428
AAXX 17061 15614 12680 71803 10124 21002 39288 49966 57012 60002 87300 333 10127 20025 55063 70000 555 31000 542//
AAXX 17061 15615 11/01 92324 11060 21068 36958 47880 58008 60002 74144 333 11053 21112 48999 55030 70002 81140 555 594// 92717
AAXX 17061 15626 12670 70000 10014 20009 39816 40006 57020 60002 85832 333 10052 21002 55051 70004 555 30103 596//
AAXX 17061 15627 11389 72310 11044 21053 37471 47896 56015 60002 70122 8657/ 333 11008 21067 44003 55048 70002 555 593//
AAXX 17061 15640 11966 20000 10052 20020 39703 40014 57018 60002 70140 82030 333 10052 20020 55028 70011 555 31001 580//
AAXX 17061 15655 12562 80000 10054 20045 39969 40002 57019 60002 885// 222// 00085 20000 333 10070 20047 70010 555 31/// 594// 92010 92417
AAXX 17061 15712 12680 70902 10075 20014 39765 40013 56019 60002 87900 333 10080 20046 55072 70000 555 31000 565//
AAXX 17061 15730 12670 71804 10096 20048 39631 40015 57017 60002 82556 333 10099 20036 55034 70005 555 31100 572//
AAXX 17064 91165 NIL
AAXX 17064 91182 NIL
AAXX 17064 91190 NIL
AAXX 17064 91212 NIL
AAXX 17064 91217 NIL
AAXX 17064 91285 NIL
AAXX 17064 91317 NIL
AAXX 17064 91334 32474 80412 10298 20232 30063 40066 56003 82171 333 56199 70003 555 91706
AAXX 17064 91348 11469 80208 10278 20248 30024 40076 55002 60041 78082 8527/ 333 56199 70168 555 91706
AAXX 17064 91356 NIL
AAXX 17064 91366 NIL
AAXX 17064 91369 NIL
AAXX 17064 91371 NIL
AAXX 17064 91376 11474 30712 10284 20236 30069 40073 53008 60041 70281 82101 333 562/9 70079 555 91706
AAXX 17064 91408 32474 81307 10306 20253 30030 40068 57015 83271 333 56299 70028 555 91706
AAXX 17064 91413 32469 80914 10307 20241 30059 40084 57015 82372 333 56299 70000 555 91706
AAXX 17064 91425 NIL
AAXX 17064 91434 NIL
AAXX 17064 91765 NIL
AAXX 17064 47090 32975 02707 10012 21205 30228 40251 55020 333 92013
AAXX 17064 47095 32972 02503 11042 21196 30119 40318 57018
AAXX 17064 47097 329// /3206 11012 21170 30218 40318 57018
AAXX 17064 47098 329// /3405 11020 21169 30171 40311 57023
AAXX 17064 47099 329// /0502 11010 21168 30277 40315 57026
AAXX 17064 47100 32970 02513 11066 21221 39319 40279 55013
AAXX 17064 47102 41670 52913 10013 21035 30115 40298 57026 72688 85500
AAXX 17064 47104 32975 00904 10021 21244 30154 40253 56013
AAXX 17064 47106 329// /1605 10032 21202 30204 40254 57013
AAXX 17064 47112 32970 23206 11004 21111 30226 40313 57021 80001 333 92012
AAXX 17064 47114 32970 02306 11031 21195 30126 40317 57016
AAXX 17064 47119 32670 23206 11002 21104 30271 40315 57020 81500
AAXX 17064 47121 329// /2506 11014 21189 39994 40299 57028
AAXX 17064 47127 329// /3207 11021 21173 30171 40319 57019
AAXX 17064 47129 32668 30206 10006 21065 30287 40324 57014 83500
AAXX 17064 47130 32975 02007 10039 21204 30195 40258 55011 333 92023
AAXX 17064 47131 32670 13203 11006 21131 30245 40318 57017 81500
AAXX 17064 47135 329// /2713 11012 21158 39994 40304 55018
AAXX 17064 47136 32975 02710 10005 21177 30110 40288 57024
AAXX 17064 47137 329// /2708 11003 21175 30179 40302 56017
AAXX 17064 47140 32670 52903 10001 21059 30288 40318 57015 85500 333 92011
AAXX 17064 47143 32978 02908 10023 21157 30221 40302 57019
AAXX 17064 47145 32670 12908 11004 21095 30285 40312 57018 81500
AAXX 17064 47146 32672 63204 10002 21092 30249 40317 57012 86500
AAXX 17064 47150 32670 43403 10018 21062 30294 40314 57016 84500
AAXX 17064 47152 32978 02906 10038 21154 30234 40277 55016
AAXX 17064 47154 329// /2707 10014 21165 30237 40299 57020
AAXX 17064 47155 32975 01407 10027 21116 30237 40284 57020
AAXX 17064 47156 32670 23205 10017 21056 30221 40313 57014 82500
AAXX 17064 47157 32975 03607 10018 21124 30001 40278 57017
AAXX 17064 47162 32975 02903 10046 21088 30243 40284 57019 333 92022
AAXX 17064 47169 32675 63416 10035 21033 30216 40312 57008 86500 333 92054
AAXX 17064 47170 32673 43410 10032 21047 30259 40304 57014 84500 333 92023
AAXX 17064 47171 329// /3604 10005 21068 30262 40319 57013
AAXX 17064 47172 329// /3206 10005 21055 30244 40313 57013
AAXX 17064 47173 329// /3608 10012 21094 30194 40309 57015
AAXX 17064 47174 32675 13211 10019 21088 30087 40295 57015 81500
AAXX 17064 47175 32570 63411 11010 21030 39712 40306 57012 85500 333 92024
AAXX 17064 47185 32675 63222 10063 21018 30211 40304 56013 86500 333 92046
AAXX 17064 47188 32675 63604 10056 20001 30275 40297 57014 85500 333 92022
AAXX 17064 47189 32675 21406 10091 20000 30224 40284 57015 82500 333 92033
AAXX 17064 47192 32978 03402 10051 21115 30246 40284 57021
AAXX 17061 14240 11556 82301 10012 20007 39789 49945 52040 60292 77177 8802/ 333 20005 3/100 43001 70285 93101
AAXX 17061 14258 NIL
AAXX 17061 14445 11681 22802 10106 20057 39786 49937 52041 60082 70196 82200 222// 00150 333 20101 32005 70083 82896 91117 91525 92312
AAXX 17064 91925 06/// /0302 10234 20201 30063 40124 51018 60001 333 55108 60007 90710 91104 555 60005 11108 59010
AAXX 17064 91929 04582 /0907 10275 20218 30126 40129 53015 60002 700// 333 10313 20274 55/// 60007 70000 90710 91111 555 60005
AAXX 17064 91938 02570 11705 10263 20204 30128 40130 53012 60072 81800 333 10296 20251 30/// 55070 60007 70065 81823 90710 91107 555 60005 12707 59023
AAXX 17064 91943 16/// /1205 10268 20218 30122 40124 51014 60014 333 20268 59019
AAXX 17064 91944 06/// /1205 10261 20190 30128 40131 51016 60002 333 10292 20259 55118 60007 70000 90710 91107 555 60005
AAXX 17064 91948 06/// /2901 10230 20194 30034 40136 51014 60001 333 55105 60007 90710 91103 555 60005 13207 59014
AAXX 17064 91954 06/// /1702 10230 20213 30136 40139 51009 60001 333 55/// 60007 555 59029
AAXX 17064 91958 06/// /0202 10226 20182 30156 40158 52010 60001 333 55041 60007 90710 91109 555 60005 10614 59028
AAXX 17064 91945 NIL
AAXX 17064 91222 NIL
AAXX 17064 91245 NIL
AAXX 17064 91323 NIL
AAXX 17064 91339 NIL
AAXX 17064 91343 NIL
AAXX 17064 91353 NIL
AAXX 17064 91442 NIL
AAXX 17064 47101 32975 02005 11020 21199 30212 40312 57026
AAXX 17064 47105 369// /2510 10021 21219 30222 40255 56012
AAXX 17064 47108 32970 12908 11023 21157 30206 40317 57020 80002
AAXX 17064 47115 32568 52505 10034 21055 39963 40239 57018 85500 333 92002
AAXX 17064 47133 32973 03404 10009 21143 30229 40317 57017
AAXX 17064 47138 32975 00000 10032 21210 30276 40279 55013 333 92031
AAXX 17064 47159 32975 02504 10042 21136 30196 40283 56014 333 92022
AAXX 17064 47165 32670 53611 10026 21031 30263 40311 57016 85500 333 92024
AAXX 17064 47168 32970 03414 10032 21101 30206 40287 56012 333 92024
AAXX 17064 47184 42670 73212 10058 21020 30283 40309 57010 87500 333 92034
AAXX 17064 48380 32560 50000 10286 20182 30050 40143 57031 84101 333 58008 70000
AAXX 17061 38353 41596 83501 11075 21088 39410 40366 58006 77172 885// 333 21100
AAXX 17061 38613 42999 02501 11010 21072 40335 57007 333 21023
AAXX 17061 38616 41596 52701 11018 21079 39270 40324 58007 71022 85500 333 21048
AAXX 17061 38345 31999 00000 11039 21088 38850 48535 57010 70141 333 21119
AAXX 17061 36911 42998 10000 11038 21048 39328 40333 81010 333 21131
AAXX 17061 36974 32998 01701 11110 21194 38035 48613 53015 333 21193
AAXX 17061 36982 42599 22103 11182 21261 36502 47155 54000 82500 333 21266
BBXX 46026 17061 99378 71228 46/// /3003 10115 40208 54000 90550 22200 00122 11603 20401 328// 41603 70017 333 91205 555 11035 22037 30549 43106 60549 295036 278041 279044 285041 281042 280042
BBXX 46042 17061 99368 71224 46/// /3603 10123 40207 50000 90550 22200 00124 11605 20401 330// 41605 70023 333 91204 555 11031 22032 30451 43604 60549 355029 359031 005032 008029 010023 006030
BBXX 46050 17061 99442 71246 46/// /0404 10092 40280 58010 90550 22200 00101 11504 20301 330// 41504 70019 333 91205 555 11044 22046 30451 40406 60549 042042 033047 029049 029051 029048 028050
BBXX 9VVN 17064 99422 71445 81899 32810 10000 21031 40140 56030 70100 82109 22214 0//// 20503 32525 40803 51504 6//// 81010 ICE /////
BBXX CG2958 17064 99503 71254 46/// /1210 10074 20065 40283 53005 7//// 8//// 22272 0//// 2////
BBXX CG2965 17064 99487 71235 46/// /2401 10079 20060 40300 56002 7//// 8//// 22200 0//// 2////
BBXX CGBR 17064 99534 71293 46/// /0000 10027 20027 40130 58013 7//// 8//// 22200 0//// 2////
BBXX CGBY 17064 99487 71235 46/// /2201 10078 20059 40299 55002 7//// 8//// 22200 0//// 2////
BBXX CGDR 17064 99493 71263 46/// /1222 10082 20082 40272 52002 7//// 8//// 22241 00109 2////
BBXX CGJK 17064 99484 71234 46/// /3502 10080 20071 40298 56003 7//// 8//// 22200 0//// 2////
BBXX DMRX 17064 99473 71409 41/92 /2412 10090 20080 40152 53002 74544 8//// 22224 00090 2//// 80085
BBXX SHIP 17064 99300 71406 43797 41405 10190 20150 40280 54000 7//// 846// 22263 0//// 2//// 3//// 4//// 5//// 6//// 80165 ICE /////
BBXX WCX8812 17064 99399 71384 41596 71933 10150 20130 40230 5//// 70222 8722/ 22225 00160 20410 330// 40910 5//// 6//// 80140 ICE /////
AAXX 17064 89514 31/94 91223 11003 49705 57045 73833 89/// 333 89///
AAXX 17064 48420 31550 80408 10275 20176 30124 40128 57020 70522 81256 333 58008 70000
AAXX 17064 89514 31/94 91223 11003 49705 57045 73833 89/// 333 89///
AAXX 17064 91324 32474 80909 10306 20257 30055 40057 82201 333 562/9 70000 82819 88075 555 91706
AAXX 17064 91329 32474 80912 10300 20261 30112 40115 83307 333 562/9 70000 83918 88275 555 91706
AAXX 17064 91336 32474 80817 10289 20239 30108 40111 83181 333 562/9 70053 83818 88075 555 91706
AAXX 17064 91339 11474 80808 10289 20243 30058 40064 60031 70282 8636/ 333 56299 70030 86918 88362 555 91706
AAXX 17064 91320 32474 80510 10311 20283 30085 40090 83209 333 561/9 70000 83815 85273 555 91706
AAXX 17061 15015 01596 80402 10041 20021 39317 42563 56021 60022 7106/ 8652/ 333 10044 20026 31000 6///7 70017 91003 91106
AAXX 17061 15020 01597 81203 10030 20027 39739 49937 56025 60022 70262 8457/ 333 10036 20005 31101 69937 70053 91005 91107
AAXX 17061 15090 01596 81103 10039 20029 39869 49961 56025 60002 71011 8457/ 333 10053 20017 31100 55300 10035 20003 3//// 60007 70019 91006 91108
AAXX 17061 15108 02299 72328 11020 21020 37881 48299 57024 60002 82570 333 11020 21080 3//// 43006 60007 70003 91034 92727 92870 95000
AAXX 17061 15120 02597 81103 10055 20023 39417 49904 55025 60002 8357/ 333 10062 20030 31100 55300 10074 2//// 3//// 60007 70001 91007 91107
AAXX 17061 15150 01496 81603 10009 20009 39747 49961 58024 60002 71022 886// 333 10018 21007 31101 60007 70002 91006 91107
AAXX 17061 15170 01996 80300 11015 21015 39175 42597 57029 60002 71022 8807/ 333 10021 21021 31102 60007 70003 91001 91102 92600
AAXX 17061 15200 01597 81204 10077 20065 39721 49862 56026 60072 76162 8802/ 333 10094 20073 32005 60057 70074 91005 91106
AAXX 17061 15230 01596 82002 10046 20045 39629 49919 56028 60032 76162 8802/ 333 10046 20027 31002 55300 10039 20001 3//// 60027 70031 91003 91104 96010
AAXX 17061 15260 02598 71103 10085 20008 39387 49907 58034 60002 83570 333 10091 21010 31101 60007 70000 91006 91109
AAXX 17061 15280 01/90 92328 11060 21060 37282 47808 57028 60002 74943 333 11057 21118 3//// 49031 60007 70007 91034 92722 92825 92956 96039
AAXX 17061 15292 01597 81708 10070 20049 39615 49903 56033 60052 78082 883// 333 10082 20057 31005 60027 70056 91013 91113
AAXX 17061 15310 02997 81502 10048 20015 39904 49990 56023 60002 8807/ 333 10061 20020 31100 55300 10035 20003 3//// 60007 70000 91004 91104
AAXX 17061 15335 02997 71807 10070 20056 39995 40001 57018 60002 80008 333 10070 20015 31/// 60007 70000 91011 91111
AAXX 17061 15346 01597 83602 10043 20035 39678 49966 56029 69952 76162 885// 333 10043 20018 31101 69957 70005 91003 91103
AAXX 17061 15350 02597 71001 10009 20009 39862 49984 56026 60002 87500 333 10047 21003 31103 60007 70000 91001 91102
AAXX 17061 15360 02998 61910 10093 20074 39992 40006 58015 60002 80006 222// 06074 20502 333 10093 20059 3//// 60007 70000 91012 91114 92438
AAXX 17061 15410 01597 80502 10059 20043 39855 49950 56024 60012 76166 8802/ 333 10062 20030 31001 60017 70014 91003 91103
AAXX 17061 15420 02597 80501 10030 20015 39859 49971 56026 60002 8457/ 333 10050 20016 31100 55300 0//// 20000 3//// 60007 70000 91002 91103
AAXX 17061 15450 01597 80604 10036 20022 39717 49951 56023 69912 76162 8552/ 333 10056 20026 31002 55300 10080 20002 3//// 69917 70001 91007 91107
AAXX 17061 15460 02997 81805 10069 20041 39954 49978 56030 60002 8807/ 333 10069 20026 31001 60007 70000 91008 91109
AAXX 17061 15470 02597 70803 10034 20016 39827 49953 58035 60002 83370 333 10034 20011 31001 60007 70000 91005 91105
AAXX 17061 15480 02497 51302 10093 20090 39986 40003 56023 60002 84601 222// 06075 2//// 333 10093 20037 31001 60007 79999 91007 91110 92437
AAXX 17061 26645 11397 81506 10026 20018 39616 49870 57021 69942 70276 886// 333 20006 88708 91112 91012 555 90010
AAXX 17061 26659 11460 71605 10028 20018 39715 49925 57011 69932 70265 87500 333 21002 87617 91010 91111 555 90010
AAXX 17061 26763 11458 81406 10054 20040 39727 49950 57010
AAXX 17061 26825 11360 81608 10033 20023 39653 49831 57012 60022 70262 886// 333 20032 88709 91011 91112
AAXX 17061 26832 11358 81304 10038 20023 39670 49859 57013 69932 76162 8872/ 333 20018 86709 91110 555 90010
AAXX 17061 26887 11396 81507 10037 20030 39796 49999 56002 60022 71062 886// 333 20037 88708 91011 91113 555 90012
AAXX 17061 26961 11465 71603 10045 20025 39753 49942 57005 69942 70262 875// 333 20018 87617 555 90011
AAXX 17061 33027 32597 81303 10035 20012 39765 49930 57012 85537 333 20028 555 90012
AAXX 17064 48310 31558 60000 10250 20170 39702 40158 57022 70520 85145 333 58008 70000
AAXX 17064 48325 NIL
AAXX 17064 48329 31558 50000 10268 20185 39802 40140 57025 70510 84805 333 593274 70000
AAXX 17064 48352 NIL
AAXX 17064 48357 NIL
AAXX 17064 48380 32560 50000 10286 20182 30050 40143 57031 84101 333 58008 70000
AAXX 17064 48383 31559 10607 10256 20143 39992 40152 57026 70511 81100 333 58000 70000
AAXX 17064 48403 NIL
AAXX 17064 48405 32960 20709 10264 20147 39983 40146 57028 80005 333 58003 70000
AAXX 17064 48420 31550 80408 10275 20176 30124 40128 57020 70522 81256 333 58008 70000
AAXX 17064 48421 31957 20000 10315 20173 30013 40125 57025 70500 80005 333 58005 70000
AAXX 17064 48425 NIL
AAXX 17064 48426 31559 60403 10278 20156 30125 40138 58021 70522 81146 333 58012 70000
AAXX 17064 48429 NIL
AAXX 17064 48430 31959 30910 10297 20155 30127 40134 57017 70511 82235 333 58019 70000
AAXX 17064 48450 NIL
AAXX 17064 48459 NIL
AAXX 17064 48465 31958 60310 10276 20177 30125 40129 57022 70522 80006 333 58012 70000
AAXX 17064 48550 11558 50911 10290 20223 30098 40105 57008 69931 71022 82245 333 58001 70014
AAXX 17064 48552 NIL
AAXX 17064 48566 NIL
AAXX 17064 48568 NIL
AAXX 17064 48302 NIL
AAXX 17064 48304 NIL
AAXX 17064 48334 31558 60000 10262 20180 39786 40147 57026 70520 82076 333 58009 70000
AAXX 17064 48360 NIL
AAXX 17064 48372 NIL
AAXX 17064 48373 NIL
AAXX 17064 48374 NIL
AAXX 17064 48386 NIL
AAXX 17064 48387 NIL
AAXX 17064 48408 32560 60106 10295 20171 39981 40129 58029 81106 333 58000 70000
AAXX 17064 48415 NIL
AAXX 17064 48433 31558 40108 10280 20139 33299 43519 57049 70521 82206 333 58002 70000
AAXX 17064 48437 32962 33604 10270 20161 39938 40148 57028 83001 333 58001 70000
AAXX 17064 48440 32960 10700 10299 20178 30075 40124 57029 81005 333 58008 70000
AAXX 17064 48451 32962 70306 10257 20163 30136 40148 57021 87070 333 58016 70000
AAXX 17064 48454 NIL
AAXX 17064 48457 NIL
AAXX 17064 48463 NIL
AAXX 17064 48464 NIL
AAXX 17064 48479 NIL
AAXX 17064 48520 31559 50412 10282 20219 30098 40113 56012 71021 84205 333 58006 70000
AAXX 17064 48554 01457 70612 10287 20248 30095 40099 57017 60131 70396 86906 333 59005 60027 70577
AAXX 17064 48563 32460 60710 10286 20230 30054 40089 57021 82256 333 5//// 70076
AAXX 17064 48571 NIL
BBXX LAHV 17061 99589 10057 43/// /3501 10018 20002 49917 222// 04082 1////
BBXX LF4H 17064 99596 10022 46/// /3326 10051 20021 49918 52008 8//// 22200 06083 10707 70034 333 91134
BBXX LGWS 17061 99305 70098 43/// /2703 10154 20121 40233 5//// 222/0 04158 1//// 3//// 4//// 5////
AAXX 17064 48307 NIL
AAXX 17064 48324 NIL
AAXX 17064 48333 32560 10000 10275 20166 39853 40153 57032 81140 333 58006 70000
AAXX 17064 48350 NIL
AAXX 17064 48355 NIL
AAXX 17064 48358 NIL
AAXX 17064 48384 32562 60803 10283 20156 39964 40153 57029 86800 333 58005 70000
AAXX 17064 48401 31958 20000 10292 20197 30042 40149 57027 70500 81045 333 58008 70000
AAXX 17064 48404 31958 20712 10266 20148 39967 40146 56029 70500 80005 333 58003 70000
AAXX 17064 48409 NIL
AAXX 17064 48419 NIL
AAXX 17064 48427 31559 70000 10265 20168 30134 40142 57023 70522 82546 333 58014 70000
AAXX 17064 48435 NIL
AAXX 17064 48453 NIL
AAXX 17064 48458 NIL
AAXX 17064 48474 NIL
AAXX 17064 48481 NIL
AAXX 17064 48555 NIL
AAXX 17064 48556 NIL
AAXX 17064 48557 NIL
AAXX 17064 48560 NIL
AAXX 17064 48574 NIL
AAXX 17064 48581 NIL
AAXX 17064 91324 32474 80909 10306 20257 30055 40057 82201 333 562/9 70000 82819 88075 555 91706
AAXX 17064 91329 32474 80912 10300 20261 30112 40115 83307 333 562/9 70000 83918 88275 555 91706
AAXX 17064 91336 32474 80817 10289 20239 30108 40111 83181 333 562/9 70053 83818 88075 555 91706
AAXX 17064 91339 11474 80808 10289 20243 30058 40064 60031 70282 8636/ 333 56299 70030 86918 88362 555 91706
AAXX 17064 91320 32474 80510 10311 20283 30085 40090 83209 333 561/9 70000 83815 85273 555 91706
AAXX 17064 60096 32960 00518 10145 20082 40224 5//// 333 20145
AAXX 17064 60150 32960 01608 10078 20052 39628 40300 57007 333 20070 30004
BBXX BATUK01 17064 99582 70064 46/// /0005 10019 21005 40045 53025 22200 00109
AAXX 17064 17024 12970 01809 10070 20024 30027 40105 50001 60002 333 20067 31005 55006 91134 92438
AAXX 17064 17056 12670 61911 10112 20111 30043 40047 57015 60002 83230 333 20060 32004 55000 20080 70094 83835 86360 91120 92438
AAXX 17064 17067 12670 51504 10070 20042 30055 40077 57015 69902 83230 333 20055 32005 55000 70024 83840 85360 91109 92418
AAXX 17064 17092 11957 52003 11047 21053 38864 48483 52018 60002 71011 85050 333 21088 30110 50044 55038 20620 85359
AAXX 17064 17112 12666 61725 10132 20093 30046 40048 57021 60002 84270 333 20090 31006 50094 55001 20008 70154 84835 86360 91131 92447
AAXX 17064 17115 12960 51714 10090 20054 30014 40065 57014 60002 85030 333 20034 32003 50074 55000 20130 70100 85360
AAXX 17064 17116 12660 50902 10069 20033 39969 40091 57005 60002 83250 333 20051 32004 55015 20025 70092 83835 85360 91110
AAXX 17064 17188 11657 63602 10013 20011 39080 40165 55002 60002 71041 83540 333 20011 34101 70103 83640 85360 91105
AAXX 17064 17202 11414 81106 11011 21013 39181 40240 50017 69922 77022 8652/ 333 21014 3/102 42002 70002 84715 86630 88458 931// 96010
AAXX 17064 17248 11975 00000 10002 21003 38968 48473 53008 60092 70171 333 21014 3/105 47002 55039 2//// 70087 93102
AAXX 17064 17292 11670 70901 10000 21001 39407 40185 52011 60002 72841 84270 333 21008 34101 50044 55001 20117 70270 84835 87360 91104
AAXX 17064 17300 12560 33605 10057 20019 30087 40159 52012 60002 81101 333 20043 31101 50271 55/// 2//// 70016 81830 83070
AAXX 17064 17310 NIL
AAXX 17064 17330 12970 00604 10164 20112 30154 40172 52021 60182 333 20090 32005 50151 55051 70183
AAXX 17064 17042 12970 41216 10146 21057 30087 40126 52013 60002 83031 333 20141 30014 55061 83360 84070 92428
AAXX 17064 17074 3//// /1001 10001 21000 39192 40145 52009 60002 333 20001 3/101 4//// 70000
AAXX 17064 17086 12670 73303 10073 20002 39435 40156 52023 60002 85550 333 20027 30001 55071 20879 85635 86360
AAXX 17064 17088 12670 62101 10002 21070 38780 48479 52004 60002 84550 333 21024 34104 55010 20155 84640 86360
AAXX 17064 17140 11658 82303 10007 20000 38669 48457 52018 60012 71072 8552/ 333 20003 3/000 45998 55031 2//// 70013 85638 88459 93100
AAXX 17064 17155 12670 71405 10028 21006 39005 40134 57004 69922 84550 333 20024 32001 55011 70066 84635 87359 91114
AAXX 17064 17203 12670 60000 11034 21054 38896 48538 53011 60002 84250 333 21041 3/107 47001 55058 2//// 84840 86360
AAXX 17064 17237 12670 72901 10036 20020 39643 40157 55000 69922 82170 333 20028 34000 55014 70096 82835 87358 91105
AAXX 17064 17250 12675 31501 10010 20005 38791 48482 52011 60102 83500 333 21001 3/101 47003 55040 70104 83640
AAXX 17064 17270 11660 80000 10046 20029 39541 40200 52012 60022 76211 8551/ 333 20029 32102 55058 70018 85635 88459
AAXX 17064 17295 12560 40406 10043 20034 30160 40167 53011 69902 82130 333 20033 32003 50184 55014 70100 82830 83358
AAXX 17064 17320 12970 43505 10092 20058 30138 40143 53002 60152 80001 333 20087 32006 50091 55043 70320 84070 92428
AAXX 17064 17375 12970 23501 10093 20059 30162 40164 53014 60002 80001 333 20082 32005 50101 55038 70140 82070 91105 92428
AAXX 17064 17026 3//// /0202 10101 20080 30080 40120 51007 60002 333 20101 3/006 4//// 70000
AAXX 17064 17034 12970 62002 10140 21012 30084 40130 52027 60002 86030 333 20100 30006 86360 92428
AAXX 17064 17070 12965 51201 10008 21004 39257 40133 52005 60012 85030 333 20007 34102 50084 55008 20377 70011 85360 91107
AAXX 17064 17084 11670 81803 10041 20018 39245 40166 52016 69902 70262 8452/ 333 21008 31102 55017 79999 84635 88460 91110
AAXX 17064 17090 11430 80000 10003 21009 38708 48478 52016 60052 71072 8572/ 333 21001 3/101 47009 55061 70052 83710 85630 88458 93109
AAXX 17064 17098 11/03 90000 11132 21132 38194 48517 52004 60002 74922 333 21154 3/116 42002 50024 55002 21089 89/02
AAXX 17064 17150 11660 70000 10052 20041 39976 40100 57007 60002 70342 83130 333 20009 32000 50021 55006 20209 70164 83835 85360
AAXX 17064 17160 11670 82302 10021 20019 39004 48471 52018 69982 70262 8552/ 333 20008 32000 55005 70010 85640 88460 91109
AAXX 17064 17184 11656 60000 10034 20023 30003 40116 53003 60002 71022 83205 333 20018 32001 55008 70097 83840 86070 91100
AAXX 17064 17189 12970 31407 10012 21022 38984 48448 56001 60002 83030 333 20008 31101 70047 83360
AAXX 17064 17210 12670 72401 10071 20023 39156 40194 51003 60002 84520 333 20054 30002 55034 84633 87459
AAXX 17064 17234 12970 50805 10047 20032 30081 40150 53005 60002 85030 333 20047 32005 50054 55018 70085 85360 91113
AAXX 17064 17260 11557 70103 10034 20023 39358 40196 53003 60052 78098 85250 333 21024 32102 50184 55078 21269 70050 85820 87358 96010
AAXX 17064 17290 12970 31405 10142 20108 30115 40147 52008 60002 83030 333 20106 31008 50104 55019 70053 83360 91113 92428
AAXX 17064 17370 11665 31303 10119 20071 30155 40159 52021 60182 70192 83200 333 20099 32009 50124 55058 2//// 70183 83835 92427
AAXX 17061 13160 11696 83405 10037 20032 39781 49888 52022 60102 76362 885// 333 20035 32003 55046 70098 91116
AAXX 17061 13262 11596 82310 10128 20073 39722 49865 53009 60032 76362 8802/ 333 20118 32011 55062 70027 91124
AAXX 17061 13272 11760 71607 10131 20049 39731 49845 57037 69952 72582 83330 333 20109 31009 55056 82833 85358
AAXX 17061 13285 11597 81206 10066 20053 39796 49897 57023 60042 76366 887// 333 20065 31006 55034 70040 91111
AAXX 17061 13289 11698 81407 10009 20007 38746 48266 56025 72162 8807/ 333 21016 31000 55032 70008 91113
AAXX 17061 13376 32698 61102 10136 20042 39635 49888 57030 87870 333 20035 31003 55060 70000
AAXX 17061 13388 32698 81304 10144 20028 39694 49931 57020 885// 333 20078 31003 55040 70000
AAXX 17061 13462 11456 82110 10148 20105 39898 49936 57042 60192 76366 8682/ 333 20120 32010 55/// 82710 84626 88457 91017
AAXX 17061 13473 NIL
AAXX 17061 13489 32698 62604 10100 20013 39446 49949 57026 86500 333 20056 32003 55062 70000
AAXX 17064 17022 12965 61406 10107 20003 39928 40092 58009 60022 83039 333 20081 32007 55014 70028 83360 86170 91116 92437
AAXX 17064 17031 12670 61301 10098 20073 30125 40131 52028 60002 83250 333 20054 30004 83836 86360
AAXX 17064 17038 12970 32116 10171 21073 30064 40114 52003 60002 83030 333 20091 30004 55074 20800 83360 92428
AAXX 17064 17050 12670 71606 10107 20091 39956 40018 57020 60002 85570 333 20073 32006 55009 70056 85635 87360 91112
AAXX 17064 17060 12660 21914 10113 20044 30029 40069 56009 60002 82100 333 20089 31006 50101 55009 20230 70074 82835
AAXX 17064 17096 11509 63601 11113 21113 38230 48508 50002 60002 74844 84550 333 21116 3/112 47007 50014 55052 20159 84630 86358
AAXX 17064 17124 12960 41006 10011 21001 39219 40150 53001 69922 84030 333 21011 32102 50064 55010 20364 70030 84360
AAXX 17064 17128 12470 61506 10030 20015 39051 40168 52013 69942 85250 333 20014 32000 50064 55025 20180 70010 81715 84830 86360
AAXX 17064 17170 NIL
AAXX 17064 17195 11660 60000 10022 20013 38957 48475 52016 60052 71072 83550 333 21015 32103 50064 55023 20929 70052 83635 86360
AAXX 17064 17199 11458 82501 11008 21015 39099 40231 52012 69972 77077 8572/ 333 21013 3/101 47001 55000 20427 70007 83715 85630 88458 93101
AAXX 17064 17219 12565 69905 10061 20052 39980 40128 56001 60002 84250 333 20032 31003 55019 20115 70076 84830 86360
AAXX 17064 17240 12670 53201 11026 21039 39012 40196 52005 60002 82101 333 21032 3/104 43001 55023 20498 70098 82835 85070 91104
AAXX 17064 17244 12670 50604 11014 21019 38980 48472 52015 60012 83501 333 21035 34/// 55/// 2//// 70032 83640 85070
AAXX 17064 17280 11656 60903 11001 21013 39404 40221 53011 60002 71022 83250 333 21028 30106 50151 55070 20310 83840 86360
AAXX 17064 17350 11660 33502 10090 20047 30083 40162 52020 60182 70181 83100 333 20076 32/// 70182 83835
AAXX 17061 26038 01382 80905 10011 21001 39872 49912 55005 60002 70222 886// 333 10011 21000 60007 88707 91110 555 11001 21000 31000 50014 52100
AAXX 17061 26045 NIL
AAXX 17061 26058 NIL
AAXX 17061 26115 NIL
AAXX 17061 26135 21276 81004 10009 20002 39836 49909 55008 70222 886// 333 10014 21002 60007 88705 91108 555 11001 21002 31000 50006 52100
AAXX 17061 26141 01152 81105 10001 21003 39774 49922 58006 60002 71022 886// 333 10004 21007 60007 88702 91008 91110 555 12000 21007 32100 50000 52101
AAXX 17061 26231 01368 80805 10023 20009 39875 49889 56010 69902 76162 8872/ 333 10026 20006 60007 88510 91111 555 12002 20006 32001 50016
AAXX 17061 26242 01281 81005 10009 21002 39821 49908 58013 60002 70222 886// 333 10013 20001 60007 88704 91008 91109 555 11001 20001 31000 50007 52000
AAXX 17061 26247 01276 81206 10013 20004 39818 49896 56014 60002 70222 886// 333 10023 20004 60007 88707 91011 91111 555 12001 20004 32000 50009
AAXX 17061 14241 11265 82603 10003 21001 39812 49943 53041 60292 76897 8272/ 333 20001 43003 70292 93103
AAXX 17061 14284 11460 83208 10036 20029 39795 49903 53047 60112 76362 887// 333 20035 32003 70113
AAXX 17061 14307 11780 60305 10052 20015 39868 49944 52054 60052 72166 84570 333 20051 32/// 70048 84652 91119 91528 96166
AAXX 17061 14317 NIL
AAXX 17061 14431 11570 43505 10084 20057 39849 49941 53030 60072 70162 84800 333 20084 31/// 70069 82725 84840 91118 91526
AAXX 17061 14444 11670 22806 10108 20053 39914 49943 52046 60122 71766 82300 333 20103 32000 70116 81940 82853 91119 91529
AAXX 17061 14474 11540 82210 10145 20113 39752 49935 55020 60092 79566 8792/ 333 20132 31/// 70089 81920 86620 91017 91524 91118 91519
AAXX 17061 06414 16/// /3203 10040 20018 30010 40043 52035 60152 333 20027 91113 91209
AAXX 17061 06459 16/// /2703 10015 20015 39847 40042 52038 60102 333 20002 3/000 91109 91206
AAXX 17061 06494 16/// /3204 11009 21013 39215 40021 52034 60152 333 21020 91107 91205
AAXX 17064 16643 12460 81913 10164 20108 30056 40062 57027 60002 8577/ 333 20114 30/// 70000 82712 85625 88358 90730 91122 555 10000 30164 20000 89049 99098 40000 47575 44230 50000 50134
AAXX 17064 16648 12560 50000 10052 20027 39947 40038 57026 60002 81156 333 20052 30/// 50080 55066 70000 81830 84358 90730 91109 555 10000 30088 20000 89033 99094 30000 10072 2//// 30080 40092 5//// 6//// 40000 47491 44210 50000 50042
AAXX 17064 16650 12560 61709 10144 20094 30038 40042 57013 60002 81251 333 20090 30/// 55039 70017 81820 84358 85068 90730 91120 555 10000 30144 20000 89055 99095 30000 10100 20100 30104 40104 50128 60144 40000 47559 44220 50000 50118
AAXX 17064 16684 12560 71814 10154 20064 30015 40042 57035 60002 81158 333 20120 30/// 55063 70000 81825 84358 87268 90730 91119 555 10000 30158 20000 89044 99079 40000 47542 44210 50000 50110
AAXX 17064 16732 11462 71815 10162 20130 30103 40115 57015 60002 702// 84808 333 20120 31/// 55049 70004 82818 83625 87268 90730 91123 555 10000 30162 20000 89052 99088 40000 47603 44160 50000 50144
AAXX 17064 16614 36/// /1807 10119 20004 39253 40009 57016 333 20021 90730 91123 555 10000 30124 20000 89038 99095
AAXX 17064 16627 NIL
AAXX 17064 16667 12570 61418 10150 20109 30100 40106 51001 60002 83806 333 20080 30/// 55020 70039 81820 83640 86066 90730 91128 555 10000 30150 20000 89057 99093 30000 20110 30120 40000 47604 44190 50000 50128
AAXX 17064 16675 NIL
AAXX 17064 16710 36/// /2320 10100 20064 39337 40098 57017 333 20067 90730 91127 555 10000 30103 20000 89025 99082
AAXX 17064 16723 12560 61512 10142 20120 30102 40118 56009 60002 86800 333 20136 30/// 55/// 70057 83820 85630 90730 91120 555 10000 30142 20000 89067 99089 40000 47610 44230 50000 50130
AAXX 17064 16738 17/// /2406 10155 20103 39915 40111 52004 69902 741// 333 20144 90730 91122 555 10000 30155 20000 89051 99085 60000 65555 60210
AAXX 17064 16746 12560 42513 10154 20079 39953 40133 57002 60002 82402 333 20130 30/// 55066 70000 82625 84068 90730 91119 555 10000 30154 20000 89052 99080 40000 47495 44200 50000 50116
AAXX 17061 14008 11/93 93211 11140 21145 37225 47755 52023 60062 74374 333 21141 49110 55000 70090 91118 92818 93112 95190
AAXX 17061 14024 46/// ///// 1//// 2//// 3//// 4//// 5////
AAXX 17061 14026 11298 81903 10011 20006 39614 49935 51027 60272 70176 885// 333 20003 3/100 41000 55000 70267 81704 88650 92821 93100 555 20023 30040
AAXX 17061 14031 12597 83205 10047 21012 39703 49929 52015 60222 8352/ 333 20031 32002 55000 70216 83620 555 20036 30044
AAXX 17061 14106 11998 73401 10049 20024 39862 49930 52041 60212 70162 87010 333 20038 32003 55000 70337 95000 555 20062 30072
AAXX 17061 14112 11/97 81801 10003 29098 60494 72276 333 10087 20000 3/000 4/002 70489 93102
AAXX 17061 14121 11298 82501 10005 21001 39675 49943 52036 60312 77176 885// 333 20003 3/000 43004 55000 70313 81703 88635 92821 93104 555 20032 30049
AAXX 17064 08001 12468 4//// 10112 20035 30177 40259 53004 60002 82801 333 20100 30008 50084 55006 70051 924/7
AAXX 17064 08015 11560 62606 10054 20036 39837 40251 52/// 60072 7028/ 83870 333 20050 32004 50264 55000 70224
AAXX 17064 08023 11558 83422 10103 20068 30140 40212 52007 60042 78086 8687/ 333 20085 50253 55000 70124
AAXX 17064 08027 11460 83225 10080 20058 39883 40197 52005 60102 78082 8587/ 333 20062 32002 50500 55000 70218
AAXX 17064 08045 02565 73602 10060 20051 39969 40287 53003 60002 84577 333 20055 32003 55009 60007 70233
AAXX 17064 08141 12560 72605 10022 21023 39369 40254 53001 60002 8255/ 333 20014 31100 55000 70008
AAXX 17064 08160 11758 42811 10070 21004 39892 40206 52005 69902 70500 81531 333 20055 55013 70057
AAXX 17064 08181 02680 23120 10087 21014 30131 40137 51011 60002 82800 333 20087 3/011 55000 60007 70000
AAXX 17064 08221 02980 20000 10011 21028 39539 40249 51007 69992 80001 333 20011 30101 55003 60007 70009
AAXX 17064 08231 12570 63403 10015 21026 39115 48505 52006 69902 8151/ 333 20015 31001 50154 55000 79999
AAXX 17064 08261 12980 23110 10056 20006 39784 40278 51002 60002 80008 333 20052 31004 55001 70002
AAXX 17064 08284 02970 42603 10091 21006 30125 40202 53012 60002 80001 333 20086 30015 50364 55003 60007 70000
AAXX 17064 08306 NIL
AAXX 17064 08314 02670 32915 10122 20049 30036 40139 53012 60002 8383/ 333 20117 3//// 55003 60007 70000
AAXX 17064 08430 12970 83109 10148 20006 30131 40206 52015 60002 83076 333 20132 30010 50121 55017 70000
AAXX 17064 08482 12765 23013 10156 20081 30208 40216 58004 60002 81870 333 20136 55076 70000
AAXX 17063 04013 41/20 92713 11004 21029 40060 54000 77471 555 3//13
AAXX 17063 04064 42784 43213 11046 21119 40073 52011 82542 555 3//18
AAXX 17064 17500 12560 60000 10122 20079 30117 40177 52012 69972 82101 333 20096 31007 50171 55077 20627 70007 82825 85070
AAXX 17064 17501 11560 13506 10153 20080 30143 40162 53010 69912 70282 81100 333 20156 30014 55/// 2//// 79991 81830 92437
AAXX 17064 17505 11560 13510 10161 20094 30059 40172 53012 60012 70281 81100 333 20129 31010 55067 21054 70012 81830
AAXX 17064 17507 12560 62607 10164 20098 30065 40184 53012 69992 82101 333 20153 31013 5///1 55/// 2//// 70009 82825 85070
AAXX 17064 17510 12560 10000 10154 20089 30135 40145 52015 60022 81100 333 20140 32009 50301 55048 20367 70024 81830 92417
AAXX 17064 17515 11560 10000 10122 20091 30006 40182 53013 60022 70281 81100 333 20090 31006 50021 55066 20999 70016 81830
AAXX 17064 17521 12560 30000 10120 20096 30024 40163 52017 60002 81101 333 20099 30008 50101 55074 20992 81830 83070
AAXX 17064 17530 12560 10000 10107 20090 30114 40172 52015 60002 81100 333 20093 30008 55063 20984 81830
AAXX 17064 17535 12560 12604 10115 20094 30114 40150 51003 60002 81100 333 20105 30007 55020 21043 81830
AAXX 17064 17540 42560 12005 10143 20102 30156 40182 5//// 60002 81100 333 20125 30007 50181 55/// 2//// 81830 92417
AAXX 17064 17547 12560 13014 10143 20120 39918 40160 5//// 60002 81100 333 20120 30009 5///1 55069 21240 81830 92417
AAXX 17064 17550 11560 10000 10148 20081 30013 40158 52013 60022 70281 81100 333 20134 31012 55066 21051 70018 88130 92427
AAXX 17064 17572 12560 1//// 10158 20094 30150 40174 5//// 60062 81100 333 20137 32009 70055 81830 92417
AAXX 1706/ 89869 46/// ///// 11095 39823 4//// 5////
AAXX 1706/ 89769 46/// ///// 11048 39875 4//// 5////
AAXX 1706/ 89872 46/// ///// 11019 39851 4//// 5////
AAXX 1706/ 89869 46/// ///// 11084 39822 4//// 5////
AAXX 1706/ 89866 46/// ///// 11040 39779 4//// 5////
AAXX 1706/ 89329 46/// ///// 11150 38761 4//// 5////
AAXX 1706/ 89799 46/// ///// 11281 4//// 5////
AAXX 1706/ 89868 46/// ///// 11048 39848 4//// 5////
AAXX 1706/ 89327 46/// ///// 11016 39664 4//// 5////
AAXX 1706/ 89332 46/// ///// 11108 39259 4//// 5////
AAXX 1706/ 89828 46/// ///// 11253 36504 4//// 5////
AAXX 1706/ 89108 46/// ///// 11240 36902 4//// 5////
AAXX 1706/ 89879 46/// ///// 11016 39749 4//// 5////
AAXX 17064 89667 46/// /0506 11046 29073 39889 4//// 5////
AAXX 17064 48331 32560 10000 10289 20177 39922 40150 57032 81100 333 58009
AAXX 16184 91636 11599 51012 10279 20251 40077 60001 71422 83208 333 562/9
AAXX 17064 48425 31956 50605 10276 20173 30135 40145 57024 70511 82046 333 58010
AAXX 16184 91636 11599 51012 10279 20251 40077 60001 71422 83208 333 562/9
AAXX 17061 26115 01245 80704 10009 20003 39856 49864 58018 60032 76176 8872/ 333 10039 20006 60037 88504 91010 91111 555 12000 20006 32000 50032
AAXX 17064 48409 31559 30408 10280 20177 39984 40131 57032 70510 82101 333 59002
AAXX 17064 48581 11558 60405 10290 20235 30055 40096 57023 60011 71022 82876 333 59002 70747
AAXX 17061 01049 16/// /1505 11024 21063 39934 49937 53007 69942 333 21028 70005 91112
AAXX 17061 01397 16/// /3102 11022 21031 39476 49913 53008 60002 333 21027 70027 91103
AAXX 17061 01367 16/// /3004 11143 21162 39493 49957 52013 6//// 333 21143 91106
AAXX 17061 01492 11688 40203 11007 21026 39783 49901 52010 60002 70300 83570 333 21009 70054 91106
AAXX 17061 37575 42999 03602 10004 21023 39608 40210 57008
AAXX 17061 37675 NIL
AAXX 17061 37735 NIL
AAXX 17061 37749 42/92 91401 10029 20057 30125 40244 53003 74542
AAXX 17061 37756 41/93 92606 10005 20005 39328 40249 57012 784542
AAXX 17061 37864 31597 71903 10063 20041 40202 52002 71022 87500 333 87620 555 30///
AAXX 17061 37985 41496 82301 10056 20029 30234 40219 53004 71022 85540
AAXX 17061 11146 11/00 90206 11171 21188 36688 47771 53020 60122 7404/7374 333 11084 21178 49155 55300 89/00 91128 92613 93120
AAXX 17064 68328 32960 10208 10250 20135 48531 53010 80002 333 20147
AAXX 17061 26509 11470 81105 10030 20025 39765 49773 53003 60072 72162 885// 333 20015 31/// 88611 91009 91115 555 53015 7007/
AAXX 17061 26518 11358 81408 10018 20015 49793 57003 60042 76186 8872/ 333 21005 41997 88507 91011 91115 555 53018 7004/
AAXX 17061 26524 11397 81205 10025 20020 39687 49817 56009 69962 76122 8872/ 333 20002 32/// 88709 91009 91114 555 53014 7996/
AAXX 17061 26531 11463 81206 10018 20010 49848 56015 69932 76165 8872/ 333 20010 31/// 88711 91010 91116 555 53016 7993/
AAXX 17061 26629 11497 81608 10039 20024 39730 49824 57004 69902 76162 8872/ 333 20016 31/// 88712 91011 91114 555 53016 7990/
AAXX 17061 26633 11470 81405 10029 20013 39726 49854 56015 69902 76165 8872/ 333 20019 31/// 88712 91010 91111 555 53011 7990/
AAXX 17061 26730 11470 81407 10031 20023 39658 49845 57020 69902 75165 8802/ 333 20015 31/// 88510 91011 91116 555 53016 7990/
AAXX 17061 11146 11/00 90206 11171 21188 36688 47771 53020 60122 7404/7374 333 11084 21178 49155 55300 89/00 91128 92613 93120
AAXX 17064 06030 01470 63203 10020 20013 39874 49890 52017 60062 78381 85871 333 10030 20013 32000 60017 70064 81617 84820
AAXX 17064 06060 01560 33204 10014 20005 39835 49900 52020 60012 70181 83500 333 10029 20013 31000 6///7 70012 83620
AAXX 17064 06070 05266 73108 10015 20004 39849 49879 52020 60022 333 10036 20015 3/000 6///7 70059 81/06 87/36
AAXX 17064 06120 36480 73115 10031 20021 39856 49882 52022 333 10041 20025 3/001 81/13 85/35 87/42
AAXX 17064 06180 01475 83314 10039 20015 39823 49829 52025 60022 72162 8557/ 333 10047 20036 32003 60017 70027 82615 85656 88363 91129 91225
AAXX 17064 06193 07445 83531 10038 20025 39751 49763 52026 60162 76186 333 10039 20027 55300 20000 60037 70170 83/11 85/17 88/20
AAXX 17064 60020 NIL
AAXX 17064 60030 02560 63618 10179 20117 30205 40261 58005 60004 86800 333 018// 20177 55083 60007 924/7
AAXX 17064 60040 02580 30211 10172 20115 30246 40271 56006 60004 83830 333 015// 20162 55094 60007 924//
AAXX 17064 60338 12675 62711 10182 20104 30151 40216 57020 60004 82714 333 20156 55071 82740 92448
AAXX 17064 06011 07557 73118 10009 21040 39958 40027 52021 60032 78580 333 10028 20000 55300 20000 69937 70069 81/25 85/42 87/57 91134
AAXX 17061 12120 11470 71903 10017 20010 39718 49725 53013 60052 78372 873// 333 10048 20016 31001 55032 70056 93001
AAXX 17061 12250 11484 72006 10031 20005 39688 49775 53017 60052 70282 875// 333 10070 20029 32002 55031 70057 91012 91113 93091
AAXX 17061 12295 11475 81805 10045 20041 39651 49831 53004 60042 70262 885// 333 10045 20022 31002 55017 70043 88614 91112 93002
AAXX 17061 12330 11465 82507 10028 20015 39706 49812 53044 60012 76182 885// 333 10079 20020 32002 55005 70066 88613 91118 93091
AAXX 17061 12375 11680 72002 10050 20006 39700 49828 53015 60032 70162 8357/ 333 10058 20043 32004 55051 70034 91110 93097
AAXX 17061 12424 11599 72707 10038 20003 39712 49862 52038 69912 72162 8553/ 333 10091 20036 31003 55003 70009 91013 91117 93097
AAXX 17064 71550 NIL
AAXX 17064 71551 NIL
AAXX 17064 71552 46/// /1924 11066 21089 6///1 333 11065 21160 7//// 555 31934 40063
AAXX 17064 71553 NIL
AAXX 17064 71554 NIL
AAXX 17064 71555 16/// /2509 10021 21049 38645 40219 58005 60001 333 10046 21053 70000 555 32721 40021
AAXX 17064 71556 16/// /2810 11059 21081 39577 40194 53005 60001 333 11039 21130 70000 555 32019 40231
AAXX 17064 71557 46/// /1004 10038 20005 6///1 333 10082 21075 7//// 555 32219 40001
AAXX 17064 71558 46/// ///// 10012 20007 39834 49869 53017 6///1 333 10025 21019 7////
AAXX 17064 71559 46/// /2408 11067 21078 39494 40211 57011 6///1 333 11035 21127 7//// 555 32522 40041
AAXX 17064 71560 16/// /1814 11069 21086 39899 40214 58038 60001 333 11068 21143 70000 555 31720 40061
AAXX 17064 71563 NIL
AAXX 17064 71564 NIL
AAXX 17064 71565 NIL
AAXX 17064 71566 NIL
AAXX 17064 71567 NIL
AAXX 17064 71568 17/// /1509 10073 20053 30244 40256 58004 60031 7//4/ 333 10073 20025 70074 555 31322 40041
AAXX 17064 71569 16/// /2610 11078 21099 39481 40197 53004 60001 333 11028 21143 70000 555 32020 40201
AAXX 17064 71570 16/// /1809 11094 21116 39868 40190 56048 60001 333 11094 21185 70000
AAXX 17064 71571 NIL
AAXX 17064 71572 NIL
AAXX 17064 71573 17/// /3106 11017 21035 39939 40226 51002 69991 7//4/ 333 10015 21017 70009 555 32723 40071
AAXX 17064 71574 11574 73012 11070 21112 30056 40130 51012 69901 78581 82530 333 10059 21072 43020 70024 90926 555 19999 29999 32930 40191
AAXX 17064 71575 16/// /3316 11188 21212 39841 49906 53002 60001 333 11154 21194 70000 555 33223 40061
AAXX 17064 71576 NIL
AAXX 17064 71577 NIL
AAXX 17064 71578 16/// /3102 11073 21133 60001 333 10056 21073 70043 555 32827 40181
AAXX 17064 71579 NIL
AAXX 17064 71580 12474 73116 11264 21292 39987 40024 56009 60001 87500 333 11214 21279 46033 70000 555 10000 20000 33120 40021
AAXX 17064 71581 NIL
AAXX 17064 71582 17448 81617 10089 20082 30111 40164 58011 60351 76244 333 10090 20025 70916
AAXX 17064 71583 NIL
AAXX 17064 71584 15966 12907 11119 21163 30037 40085 52038 60001 333 10023 21120 70050
AAXX 17064 71585 NIL
AAXX 17064 71586 16/// /2907 11080 21095 39665 40139 53015 60001 333 11055 21185 70003
AAXX 17064 71587 NIL
AAXX 17064 71588 16/// /2809 11009 21010 60001 333 10049 21010 70000
AAXX 17064 71589 17/// /2616 10023 20009 39798 49928 53040 60021 7//4/ 333 10065 21015 70083 555 32835 40063
AAXX 17064 71590 16/// /3304 11096 21141 39962 40156 51005 60001 333 10049 21097 70000 555 33328 40202
AAXX 17064 71592 NIL
AAXX 17064 71593 NIL
AAXX 17064 71596 NIL
AAXX 17064 71598 16/64 /3019 11055 21106 30112 40118 51026 60001 333 10061 21055 70037 555 32836 40223
AAXX 17064 71599 NIL
AAXX 17064 71150 46/// /2311 11080 21089 39474 40171 56015 6///1 333 11059 21198 7//// 555 32220 40041
AAXX 17064 71151 NIL
AAXX 17064 71152 46/// /2917 10019 21003 39996 40009 5/043 6///1 333 7////
AAXX 17064 71153 16/// /2811 10050 21018 60001 333 10053 21078 70000 555 32628 40042
AAXX 17064 71154 16/// /2323 10029 21022 60001 333 10039 21015 70000 555 32341 40173
AAXX 17064 71155 NIL
AAXX 17064 71156 NIL
AAXX 17064 71157 46/// ///// 11014 21044 6///1 333 10007 21090 7////
AAXX 17064 71158 NIL
AAXX 17064 71159 NIL
AAXX 17064 71160 NIL
AAXX 17064 71161 16/// /3208 11039 21059 30044 40194 53009 60001 333 10068 21039 70000 555 32528 40092
AAXX 17064 71162 NIL
AAXX 17064 71163 46/// /1405 11175 21189 39766 40118 56012 6///1 333 11161 21185 7////
AAXX 17064 71164 NIL
AAXX 17064 71165 NIL
AAXX 17064 71166 NIL
AAXX 17064 71167 15966 02903 11027 21056 39075 40183 58013 60001 333 10041 21108 70008
AAXX 17064 71168 16/// /3403 11059 21062 39665 40269 53002 60001 333 10007 21122 70000 555 31518 40181
AAXX 17064 71170 16/// /2516 11042 21063 60001 333 11041 21157 70000 555 32425 40061
AAXX 17064 71171 16/// /3110 10013 21032 30117 40215 50000 60001 333 10049 20011 70000 555 32936 40073
AAXX 17064 71172 NIL
AAXX 17064 71175 16/// /3011 10020 21025 30057 40091 52047 60001 333 10095 20020 7//// 555 31852 40103
AAXX 17064 71176 460// /2538 11178 39196 49876 58012 6///1 333 11075 21181 7////
AAXX 17064 71177 460// /3208 11198 38885 49888 53007 6///1 333 11086 21199 7//// 555 33347 40013
AAXX 17064 71178 17/// /2434 10043 20017 39883 49914 53010 60011 7//4/ 333 10070 21006 70024 555 32149 40053
AAXX 17064 71179 460// ///// 11166 39065 49886 51015 6///1 333 11032 21166 7////
AAXX 17064 71180 16/// /2925 10010 21020 30008 40047 53043 60001 333 10084 20009 70193 555 31455 40103
AAXX 17064 71181 17464 82626 10029 21003 39952 49988 5/047 60001 741// 333 10080 20004 70290
AAXX 17064 71183 16/// /2907 30147 53002 60001 333 70000 555 32631 40092
AAXX 17064 71184 46/// /3307 11033 21072 6///1 333 10091 21033 7//// 555 32633 40082
AAXX 17064 71186 NIL
AAXX 17064 71187 17108 81102 10042 20042 30253 58005 60001 761// 333 10061 20031
AAXX 17064 71189 NIL
AAXX 17064 71190 NIL
AAXX 17064 71191 16/// ///// 11023 21062 60001 333 10097 21023 70040
AAXX 17064 71192 17766 81408 10022 20013 39531 40197 58014 60091 70044 333 10022 21026 70326
AAXX 17064 71193 16/// /2603 11226 21245 39883 40268 50000 60001 333 11088 21227 70000 555 33128 40072
AAXX 17064 71196 16/// /3308 11096 21143 30028 40232 51013 60001 333 10046 21097 70000 555 10010
AAXX 17064 71197 17464 82932 10008 21030 39988 40037 53048 60001 745// 333 10068 20007 70170 555 32850 40023
AAXX 17064 71198 46/// /3511 11051 21111 6///1 333 10086 21053 7//// 555 33028 40162
AAXX 17064 71199 46/// /3102 11193 21214 39264 40133 58011 6///1 333 11158 21252 7////
AAXX 17064 71001 15966 31701 11118 21134 39062 40038 51016 60001 333 11017 21164 70000
AAXX 17064 71002 17666 82909 11155 21194 39503 40052 50004 60001 771// 333 11044 21175 70010
AAXX 17064 71003 17559 82314 11175 21201 39742 40136 57003 60001 704//
AAXX 17064 71005 16/// ///// 11073 21093 60001 333 10024 21133 70000
AAXX 17064 71006 NIL
AAXX 17064 71007 NIL
AAXX 17064 71008 NIL
AAXX 17064 71009 NIL
AAXX 17064 71010 NIL
AAXX 17064 71011 NIL
AAXX 17064 71012 NIL
AAXX 17064 71013 NIL
AAXX 17064 71014 NIL
AAXX 17064 71015 NIL
AAXX 17064 71016 NIL
AAXX 17064 71017 NIL
AAXX 17064 71018 NIL
AAXX 17064 71019 NIL
AAXX 17064 71020 NIL
AAXX 17064 71021 NIL
AAXX 17064 71022 17466 83404 10050 20047 30057 40101 55008 69931 7004/ 333 10069 20015 70039 555 31217 40211
AAXX 17064 71023 16964 02205 11079 21104 39390 40175 52010 60001 333 11026 21144 70005 555 32922 40201
AAXX 17064 71024 16/// /0402 11196 21211 60001 333 11086 21196 70000
AAXX 17064 71026 NIL
AAXX 17064 71027 17/// /0502 10015 21014 30057 40067 53041 69971 7//4/ 333 10120 20014 70176 555 32837 40003
AAXX 17064 71028 16/// /3004 10010 21011 39146 40186 58017 60001 333 10058 21017 70000 555 31525 40141
AAXX 17064 71029 16/// /0507 11294 21325 30067 40108 56008 60001 333 11246 21305 70007 555 10010 20007
AAXX 17064 71030 16/64 /3008 11010 21057 30050 40140 50010 60001 333 10095 21010 70000
AAXX 17064 71032 46/// /0000 11024 21037 39461 40314 51001 6///1 333 11006 21045 7////
AAXX 17064 71033 46/// /2907 11082 21096 39471 40111 51011 6///1 333 11072 21214 7//// 555 10020
AAXX 17064 71035 NIL
AAXX 17064 71036 15966 02618 11026 21063 39759 40140 56021 60001 333 11026 21160 70000
AAXX 17064 71039 46/// /3201 11094 6///1 333 11056 21167 7////
AAXX 17064 71040 46/// /3207 11110 21150 39973 40177 56003 6///1 333 10052 21110 7//// 555 32934 40173
AAXX 17064 71041 15566 82914 10010 21033 39958 40099 52040 60001 333 10101 20014 70096 555 32841 40003
AAXX 17064 71042 16/// /0701 10056 20051 30300 40304 58003 60001 333 10073 20032 70070
AAXX 17064 71044 16/// /0410 11205 21250 39757 40085 56008 60001 333 11194 21219 70000 555 10010 30124 40081
AAXX 17064 71046 460// /2505 11297 30115 40133 57008 6///1 333 11278 21335 7////
AAXX 17064 71047 16/// ///// 11025 21064 60001 333 10021 21131 70000
AAXX 17064 71048 NIL
AAXX 17064 71049 NIL
AAXX 17064 71060 NIL
AAXX 17064 71063 NIL
AAXX 17064 71114 160// /1102 10041 20039 30253 40302 58006 60001 333 10062 20033 70020
AAXX 17064 71120 12974 32608 11053 21092 39517 40187 51007 60001 80004 333 11010 21141 79999 555 19999 29999 32819 40200
AAXX 17064 71122 16/// /2311 11027 21062 38624 40250 58007 60001 333 7////
AAXX 17064 71123 12974 81707 11034 21061 39314 40195 58008 60001 88020 333 10003 21102 70000 555 10000 20000
AAXX 17064 71125 NIL
AAXX 17064 71129 12974 22102 11079 21106 39369 40221 50001 60001 80001 333 11003 21103 70000 555 10000 20000
AAXX 17064 71131 16/// /3006 11080 21085 38947 40239 56007 60001 333 11055 21105 70000
AAXX 17064 71135 16/// /2713 11068 21090 39117 40229 58005 60001 333 11055 21125 70000 555 10010 32417 40181
AAXX 17064 71137 NIL
AAXX 17064 71140 11474 82515 11046 21055 39671 40185 5/028 69901 77122 885// 333 11046 21156 46997 70002 90952 555 10002 20002 32427 40051
AAXX 17064 71145 11474 41507 11141 21163 39846 40151 56038 69901 77111 84500 333 11132 21239 48035 70002 90962 555 10002 20002
AAXX 17064 71148 NIL
AAXX 17064 71185 17556 33023 11008 39924 49947 53060 60081 74544 333 10077 21008 70110
AAXX 17064 71188 11574 62814 11081 21146 30064 40107 51029 69901 70371 86500 333 10048 21082 43014 70016 90952 555 19999 29999 33029 40211
AAXX 17064 71200 16/// /0402 10064 20056 60001 333 10075 20053 70010
AAXX 17064 71207 17/// /0000 10016 30229 40295 58004 69931 7//4/ 333 10025 20007 70104
AAXX 17064 71260 13/// ///// 11105 21135 30034 40280 52003 69901 333 10022 21111 46001 70004 555 10010 20004
AAXX 17064 71401 16/// /1702 11009 21027 39635 40337 58001 60001 333 11004 21017 70006
AAXX 17064 71402 NIL
AAXX 17064 71404 NIL
AAXX 17064 71405 NIL
AAXX 17064 71406 NIL
AAXX 17064 71407 NIL
AAXX 17064 71408 NIL
AAXX 17064 71409 NIL
AAXX 17064 71410 17466 81809 11093 21108 39817 40103 56035 69981 7714/ 333 11093 21224 70008
AAXX 17064 71413 NIL
AAXX 17064 71414 NIL
AAXX 17064 71415 16/// /3124 10022 21018 30097 40100 53028 60001 333 10113 20021 70030 555 33143 40003
AAXX 17064 71417 NIL
AAXX 17064 71418 NIL
AAXX 17064 71419 46/// /2814 10029 21011 30093 40103 52040 6///1 333 10098 20028 7//// 555 31640 40083
AAXX 17064 71423 NIL
AAXX 17064 71424 46/// /3005 6///1 333 7//// 555 32923 40201
AAXX 17064 71425 16/// /3117 11074 21131 30080 40117 51018 60001 333 10057 21075 70020 555 33339 40223
AAXX 17064 71426 NIL
AAXX 17064 71427 NIL
AAXX 17064 71428 16/// /3017 11069 21121 30129 40135 51011 60001 333 10046 21074 70010 555 32735 40213
AAXX 17064 71429 16/// /3010 11081 21141 30078 40097 51034 60001 333 10046 21081 70080 555 33027 40021
AAXX 17064 71434 NIL
AAXX 17064 71436 15566 13112 11033 21079 39979 40217 51010 60001 333 10042 21033 70003
AAXX 17064 71437 46/// /2807 10006 21047 30127 40223 51001 6///1 333 10044 20006 7//// 555 32427 40081
AAXX 17064 71438 NIL
AAXX 17064 71439 NIL
AAXX 17064 71440 NIL
AAXX 17064 71442 NIL
AAXX 17064 71445 NIL
AAXX 17064 71446 16/// /2509 11048 21075 39220 40217 55004 60001 333 11020 21140 70000 555 32620 40021
AAXX 17064 71448 NIL
AAXX 17064 71449 16/// /2005 11098 21113 39806 40223 58032 60001 333 11086 21172 70000
AAXX 17064 71851 NIL
AAXX 17064 71857 NIL
AAXX 17064 71860 NIL
AAXX 17064 71876 15966 62805 11061 21087 39529 40208 51004 60001 333 10005 21125 70000
AAXX 17064 71885 NIL
AAXX 17064 71886 NIL
AAXX 17064 71888 NIL
AAXX 17064 71890 16/// /0509 11108 21173 30125 40153 51014 60001 333 10018 21108 70007 555 30632 40192
AAXX 17064 71895 NIL
AAXX 17064 71930 NIL
AAXX 17064 71931 16/// /2626 10046 20022 39861 49873 53005 60001 333 10079 21012 70000 555 32242 40043
AAXX 17064 71934 11361 83003 11133 21149 39883 40148 50006 69901 77177 885// 333 11100 21197 47020 79999 90973 555 19999 29999
AAXX 17064 71935 NIL
AAXX 17064 71936 11474 50000 11197 21225 39868 40137 57008 69901 77177 85500 333 11152 21206 48020 79999 90983 555 19999 29999
AAXX 17064 71937 NIL
AAXX 17064 71938 11766 82403 11201 21239 30097 40128 56007 69901 77177 8853/ 333 11201 21315 45023 79999 90983 555 19999 29999
AAXX 17064 71940 11480 72207 10005 21003 39346 40156 57021 69901 78072 86570 333 10025 21101 44007 79999 90915 555 19999 29999 32430 40101
AAXX 17064 71943 12974 81710 10006 21036 39292 40132 57026 60001 8807/ 333 10012 21040 70000 555 10000 20000 32225 40091
AAXX 17064 71944 160// ///// 11038 58031 60001 333 11038 21075 70000
AAXX 17064 71945 12974 20000 11156 21201 39629 40116 58014 60001 82071 333 11109 21220 70000 555 10000 20000
AAXX 17064 71946 11974 00000 11255 21282 39892 40116 57016 69901 70070 333 11163 21258 48034 79999 90941 555 19999 29999
AAXX 17064 71948 46058 /2904 11268 30015 40133 56006 6///1 333 11224 21275 7////
AAXX 17064 71949 46/// /1203 11104 21117 39176 40062 58008 6///1 333 11092 21187 7////
AAXX 17064 71951 11132 80000 11027 21029 39864 40135 57025 60021 76677 887// 333 11024 21053 40043 70054 90983 555 10054 20044 30218 40120
AAXX 17064 71957 47440 81003 11242 21308 30030 40123 57007 6///1 745// 333 11235 21272 7////
AAXX 17064 71964 12986 21715 11022 21081 39192 40045 50001 60001 82070 333 11006 21057 70000 555 10000 20000 31725 40021
AAXX 17064 71966 16/// /0000 11275 21307 39600 40083 50002 60001 333 11160 21279 70000
AAXX 17064 71968 470// /3009 11249 30050 40117 58008 6///1 745// 333 11235 21261 7////
AAXX 17064 71700 15966 33006 11040 21099 30125 40151 53015 60001 333 10086 21040 70026
AAXX 17064 71701 12874 33010 11014 21105 30086 40149 52014 60001 83070 333 10089 21014 70026 555 10000 20000 32837 40182
AAXX 17064 71702 16/// /3213 11025 21071 30091 40106 51028 60001 333 10083 21027 70040 555 33131 40002
AAXX 17064 71703 NIL
AAXX 17064 71704 17566 83411 11011 21066 30029 40255 51002 69951 7004/ 333 10008 21011 70011
AAXX 17064 71710 16/// /3121 11016 21057 30068 40077 53036 60001 333 10078 21016 70130 555 33036 40013
AAXX 17064 71712 16/// /3305 11039 21067 30134 40196 52005 60001 333 10085 21039 70011 555 32430 40072
AAXX 17064 71713 16/// /0204 11075 21130 60001 333 10072 21076 70000 555 32228 40082
AAXX 17064 71716 NIL
AAXX 17064 71717 NIL
AAXX 17064 71720 16/// /1211 10070 20042 30128 40283 50000 60001 333 10071 20034 70025 555 31021 40191
AAXX 17064 71721 NIL
AAXX 17064 71723 NIL
AAXX 17064 71724 NIL
AAXX 17064 71732 16/// /3607 11115 21142 60001 333 10017 21116 70010 555 33526 40111
AAXX 17064 71733 16/// /3304 11153 21181 39812 40265 51005 60001 333 10004 21154 70000 555 10010 33519 40111
AAXX 17064 71734 NIL
AAXX 17064 71736 NIL
AAXX 17064 71737 NIL
AAXX 17064 71741 16/// /1412 10010 21016 39843 40273 58008 60001 333 10015 21029 70009 555 31319 40011
AAXX 17064 71742 NIL
AAXX 17064 71743 NIL
AAXX 17064 71744 NIL
AAXX 17064 71745 NIL
AAXX 17064 71746 NIL
AAXX 17064 71747 NIL
AAXX 17064 71748 NIL
AAXX 17064 71744 NIL
AAXX 17064 71750 16/// /0605 11219 21241 30029 40277 56011 60001 333 11114 21219 70000 555 30417 40081
AAXX 17064 71751 NIL
AAXX 17064 71752 NIL
AAXX 17064 71753 16/// /3206 10000 21041 30083 40112 53019 60001 333 10124 20000 70060 555 32431 40202
AAXX 17064 71754 16/// /2805 11060 21098 39525 40202 51004 60001 333 10005 21144 70000
AAXX 17064 71755 43/// /2310 11162 21190 39828 40188 56031 6///1 333 11162 21274 7////
AAXX 17064 71756 16/// /0000 10003 20000 39170 40279 58003 60001 333 10005 21019 70004 555 10010 20004
AAXX 17064 71758 NIL
AAXX 17064 71760 NIL
AAXX 17064 71761 NIL
AAXX 17064 71762 NIL
AAXX 17064 71763 NIL
AAXX 17064 71765 16/// /2113 10087 20018 39973 40248 56006 60001 333 10098 21016 70000 555 31836 40003
AAXX 17064 71766 16/// /1203 10070 20059 30201 40273 50000 60001 333 10078 20037 70000
AAXX 17064 71767 16/// /3308 11079 21141 39991 40260 51011 60001 333 10021 21079 70008 555 32630 40072
AAXX 17064 71768 46/// /1604 10002 21036 39760 40322 58001 6///1 333 10005 21042 7//// 555 31618 40021
AAXX 17064 71769 16/// /1121 10076 20063 30256 40272 50000 60001 333 10076 20055 70022 555 31128 40032
AAXX 17064 71770 16/// /1102 11002 21006 39538 40329 55001 60001 333 10010 21020 70000
AAXX 17064 71771 NIL
AAXX 17064 71772 16/// /1317 10077 20068 30270 40276 58003 60001 333 10079 20055 70022 555 31021 40141
AAXX 17064 71773 16/// /2005 11029 21071 39188 40043 58004 60001 333 10000 21053 70000
AAXX 17064 71774 46/// ///// 10047 6///1 333 10057 20030 7////
AAXX 17064 71775 46/// /3503 10051 20047 30300 40306 58003 6///1 333 10052 20034 7////
AAXX 17064 71776 46/// /2409 10005 21010 39669 40326 58002 6///1 333 10010 21002 7//// 555 32917 40191
AAXX 17064 71777 16/// ///// 11003 21004 30034 40291 58010 60001 333 10004 21013 70008
AAXX 17064 71778 46/// /0303 6///1 333 7////
AAXX 17064 71779 17/// /1407 10021 20009 39528 40193 57013 60051 7//4/ 333 10022 21026 70287 555 10160 20287
AAXX 17064 71780 16/// /3003 10070 20060 30273 40301 55002 60001 333 10072 20060 70000
AAXX 17064 71781 46/// /1126 10078 20057 30241 40266 58001 6///1 333 10079 20054 7//// 555 31133 40012
AAXX 17064 71782 46/// /1709 10011 21012 38931 40278 56005 6///1 333 10011 21058 7//// 555 31919 40041
AAXX 17064 71783 NIL
AAXX 17064 71784 16/// /0804 10068 20051 30087 40294 56003 60001 333 10071 20036 70090
AAXX 17064 71785 16/// /0103 10067 20055 30291 40307 58003 60001 333 10085 20050 70054
AAXX 17064 71786 46/// /2720 11063 21071 38421 40296 58006 6///1 333 11063 21089 7//// 555 32628 40052
AAXX 17064 71787 16/// /2915 11060 21077 39626 40117 51011 60001 333 10074 21060 70064 555 33032 40222
AAXX 17064 71788 NIL
AAXX 17064 71789 NIL
AAXX 17064 71791 NIL
AAXX 17064 71792 NIL
AAXX 17064 71793 NIL
AAXX 17064 71794 NIL
AAXX 17064 71795 NIL
AAXX 17064 71796 NIL
AAXX 17064 71797 NIL
AAXX 17064 71250 NIL
AAXX 17064 71251 16/// /2803 11050 21072 39286 40231 57004 60001 333 10017 21127 70000
AAXX 17064 71252 NIL
AAXX 17064 71253 46/// /0000 11196 21211 6///1 333 11077 21196 7////
AAXX 17064 71254 16/// /2303 11044 21066 60001 333 10018 21113 70000 555 10030
AAXX 17064 71255 16/// /2712 11076 21113 60001 333 11026 21164 70000 555 32724 40201
AAXX 17064 71256 46/// /13// 11023 21053 39228 40176 58015 6///1 333 11014 21099 7////
AAXX 17064 71257 NIL
AAXX 17064 71258 NIL
AAXX 17064 71259 NIL
AAXX 17064 71261 16/// /3213 11017 21076 39976 40242 51005 60001 333 10016 21019 70012 555 32833 40072
AAXX 17064 71263 11460 53108 11012 21037 39934 40228 50000 69901 78588 82800 333 10031 21013 4-9000 70006 909/7 555 10000 20000
AAXX 17064 71264 16/// /2807 10011 21033 30096 40128 51021 60001 333 10104 20011 70058 555 32034 40083
AAXX 17064 71265 15766 63209 11001 21057 30128 40223 50003 60001 333 10058 21001 70000
AAXX 17064 71266 NIL
AAXX 17064 71267 15966 62623 10054 21012 39124 40224 55005 60001 333 10055 21093 70000
AAXX 17064 71268 NIL
AAXX 17064 71269 NIL
AAXX 17064 71270 NIL
AAXX 17064 71271 16/// ///// 11046 21073 60001 333 10016 21106 70000
AAXX 17064 71272 17362 82105 11173 21186 39727 40096 56019 60001 771// 333 11173 21317 70000
AAXX 17064 71273 16/// /2606 11032 21085 39505 40173 52005 60001 333 11002 21163 70000 555 32319 40181
AAXX 17064 71274 NIL
AAXX 17064 71275 NIL
AAXX 17064 71276 NIL
AAXX 17064 71277 NIL
AAXX 17064 71278 NIL
AAXX 17064 71279 NIL
AAXX 17064 71281 NIL
AAXX 17064 71282 46/// /3410 11042 21059 39952 40227 51008 6///1 333 10028 21042 7//// 555 32835 40073
AAXX 17064 71283 NIL
AAXX 17064 71284 16/// ///// 11041 21062 60001 333 10010 21123 70000
AAXX 17064 71285 NIL
AAXX 17064 71286 NIL
AAXX 17064 71287 NIL
AAXX 17064 71288 NIL
AAXX 17064 71289 NIL
AAXX 17064 71290 17424 81604 11040 21044 39319 40162 58030 60001 771// 333 11039 21070 70000
AAXX 17064 71291 16/// /1701 11224 21246 39974 40289 56012 60001 333 11121 21224 70000
AAXX 17064 71292 15966 02712 11056 21077 39547 40169 55005 60001 333 11036 21144 70000
AAXX 17064 71294 17/// /3606 11061 21088 39798 40208 51011 69961 7//4/ 333 10027 70006 555 33021 40091
AAXX 17064 71295 16/// /1702 11140 21156 39753 40218 58035 60001 333 11134 21221 70000
AAXX 17064 71296 NIL
AAXX 17064 71297 16/// /3006 11003 21034 60001 333 10045 21003 70000 555 32727 40071
AAXX 17064 71298 16/// /2804 11009 21058 30018 40255 58003 60001 333 10028 21014 70000 555 32724 40071
AAXX 17064 71299 NIL
AAXX 17064 71893 12580 81418 10078 20057 30244 40276 50000 60001 885// 333 10079 20053 70012 555 10000 20000 31426 40151
AAXX 17064 71894 17/// /1016 10085 20085 30255 40264 52001 60041 7//4/ 333 10089 20065 70258 555 30728 40202
AAXX 17064 71896 17258 81916 10007 20000 39335 40171 58016 60071 76144 333 10009 21050 70149
AAXX 17064 71897 11132 81445 10052 20046 3//// 4//// 57026 60141 76362 887XX 333 10078 20052 70846 90983
AAXX 17064 71898 160// ///// 10051 56009 69951 333 10070 20015 70045
AAXX 17064 71899 11766 80906 10064 20064 3//// 4//// 50000 60081 76164 8802/ 333 10079 20040 70114 90973
AAXX 17064 71902 NIL
AAXX 17064 71905 NIL
AAXX 17064 71906 11974 02511 11179 21213 39960 40011 56005 69901 70177 333 11079 21184 48015 70036 90963 555 10036 20036
AAXX 17064 71907 17004 93015 11153 21174 30002 40035 56001 69951 745// 333 11138 21159 70005 555 32730 40182
AAXX 17064 71909 16964 03606 11225 21266 39826 49870 56013 60001 333 11117 21233 70000
AAXX 17064 71910 46958 03117 11190 21207 39848 49911 55000 6///1 333 11155 21195 7//// 555 30325 40061
AAXX 17064 71911 47816 82814 11287 39977 40036 56013 6///1 745// 333 11234 21292 7//// 555 33029 40072
AAXX 17064 71912 11466 81404 11158 21183 39937 40128 58026 69901 77122 885// 333 11144 21295 47012 79999 90942 555 19999 29999
AAXX 17064 71915 NIL
AAXX 17064 71917 11974 00000 11396 21437 30097 40112 57001 69901 776// 333 11361 21407 43013 79999 90999 555 19999 29999
AAXX 17064 71922 12974 02708 11080 21093 39666 40143 52015 60001 333 11054 21186 47030 70006 555 10008 20006
AAXX 17064 71924 NIL
AAXX 17064 71925 11569 13008 11292 21336 30077 40120 58006 69901 77677 81500 333 11279 21312 42017 79999 90983 555 19999 29999
AAXX 17064 71926 11974 03002 11287 21336 30091 40116 58003 69901 77673 333 11225 21294 48043 79999 90931 555 19999 29999 33227 40141
AAXX 17064 71928 16/// /1304 11112 21132 39019 40213 58009 60001 333 11025 21123 70000
AAXX 17061 12105 11362 82604 10026 20022 39686 49728 52019 60072 76172 8772/ 333 10042 20008 31001 55018 70089 87706 93001
AAXX 17061 12195 11260 81705 10038 20034 39588 49810 55003 60032 70266 886// 333 10041 20012 31001 70033 91113 93002
AAXX 17061 12235 11220 82106 10003 20000 39533 49740 53019 60072 77386 8672/ 333 10051 20003 3/000 43997 55028 70117 86705 91115 93092
AAXX 17061 12270 11584 72107 10035 21002 39619 49797 53013 60062 70282 875// 333 10059 20024 31002 55040 70055 91115 93091
AAXX 17061 12280 11584 71906 10041 20018 39643 49796 53010 60032 70162 875// 333 10048 20023 31002 55047 70032 91114 93095
AAXX 17061 12300 11356 83006 10025 20018 39719 49807 51043 60062 76176 8572/ 333 10064 20004 32000 70150 91114 93004
AAXX 17061 12400 11365 72607 10023 20011 39609 49841 52043 60042 72582 877// 333 10075 20011 31000 70107 91014 91117 93003
AAXX 17061 12435 11565 82309 10030 20002 39663 49832 53032 60012 78082 889// 333 10077 20030 31001 55028 70031 91118 93097
AAXX 17061 12495 11584 72304 10055 20032 39570 49855 52013 60022 70162 875// 333 10056 20037 31004 55039 70017 91110 93092
AAXX 17061 12530 12681 72504 10045 21005 39670 49866 52029 69902 875// 333 10087 20045 31004 55027 70006 91114 93000
AAXX 17061 12570 11784 82305 10042 20005 39547 49859 51025 60032 70182 8257/ 333 10058 20041 31003 55039 70027 91111 93097
AAXX 17061 12580 11560 82504 10045 20028 39618 49873 52016 69902 78022 873// 333 10072 20045 31002 55048 79999 91117 93097
AAXX 17064 71603 12574 53212 10022 21027 30094 40147 51007 60001 85500 333 10106 20022 70002 555 10000 20000 32727 40171
AAXX 17064 71607 16/// /2803 11022 21057 30116 40149 50005 60001 333 10091 21022 70000 555 32729 40172
AAXX 17064 71609 12974 03309 11032 21091 30007 40142 51013 60001 333 10093 21032 70021 555 10000 20000 33129 40202
AAXX 17064 71610 17666 83107 11042 21070 39870 40169 56002 60001 771// 333 10083 21043 70023
AAXX 17064 71621 16764 63110 11008 21064 30099 40206 51010 60001 333 10065 21008 70000 555 32630 40082
AAXX 17064 71623 NIL
AAXX 17064 71624 11674 63312 11012 21066 30008 40223 50003 69921 72622 86500 333 10051 21013 70002 90932 555 10002 20002 32831 40071
AAXX 17064 71625 16964 03507 11097 21172 30071 40237 51013 60001 333 10045 21099 70000 555 33421 40161
AAXX 17064 71627 11769 82808 11036 21096 30147 40192 53003 69901 78511 885// 333 10091 21038 79999 90910 555 19999 29999
AAXX 17064 71628 11560 23313 11065 21108 30065 40209 52008 69901 72222 82570 333 10075 21065 4-4001 70006 909/6 555 10099 20099 33319 40002
AAXX 17064 71630 NIL
AAXX 17064 71631 17/// /3208 11049 21073 39720 40230 50005 69961 7//4/ 333 10002 21049 70006 555 32925 40071
AAXX 17064 71633 NIL
AAXX 17064 71705 12574 22713 11026 21078 30037 40125 51024 60001 82500 333 10094 21028 70044 555 10000 20000 32829 40192
AAXX 17064 71706 12674 33104 11017 21064 30053 40113 51032 60001 82502 333 10095 21018 70094 555 10000 20000 31829 40071
AAXX 17064 71707 11574 82815 10019 21034 30006 40082 52041 69901 78582 885// 333 10096 20018 70218 90916 555 19999 29999 31836 40091
AAXX 17064 71709 NIL
AAXX 17064 71711 NIL
AAXX 17064 71714 16/// /3004 11078 21130 30103 40197 55003 60001 333 10063 21085 70024 555 33024 40191
AAXX 17064 71715 16/// /3309 11098 21150 39985 40171 53001 60001 333 10063 21100 70012 555 32925 40181
AAXX 17064 71718 11574 82717 11087 21136 30093 40159 53008 69901 78588 885// 333 10064 21088 41997 70014 90973 555 10006 20006
AAXX 17064 71719 NIL
AAXX 17064 71397 12974 02908 11006 21065 30107 40142 51020 60001 333 10115 21008 70040 555 10000 20000 32730 40191
AAXX 17064 71400 17/64 /2504 10018 20014 60061 7//4/ 333 10064 21010 70121 555 31728 40142
AAXX 17064 71403 46/// /2913 10026 21011 30096 40116 51018 6///1 333 10096 20023 7//// 555 31945 40093
AAXX 17064 71411 16/// /2606 10002 21015 30127 40139 51012 60001 333 10111 20002 70027 555 32835 40163
AAXX 17064 71412 16/// /3124 10003 21035 30081 40091 51035 60001 333 10093 20002 70056 555 33142 40013
AAXX 17064 71421 NIL
AAXX 17064 71430 17/// /3210 10008 21024 30100 40198 51006 69941 7//4/ 333 10067 20008 70004 555 32648 40093
AAXX 17064 71431 NIL
AAXX 17064 71432 16/// /3117 10018 21023 30122 40220 51002 60001 333 10055 20018 70000 555 32643 40073
AAXX 17064 71433 NIL
AAXX 17064 71435 NIL
AAXX 17064 71441 NIL
AAXX 17064 71443 16/// /2512 11054 21080 39715 40135 55006 60001 333 11027 21185 70000 555 32325 40031
AAXX 17064 71444 16/// /2508 11057 21064 39387 40160 56021 60001 333 11057 21233 70000 555 32418 40051
AAXX 17064 71447 16/// /2109 11068 21079 39640 40197 56023 60001 333 11040 21094 70000
AAXX 17064 71467 NIL
AAXX 17064 71472 NIL
AAXX 17064 71474 16161 81905 11023 21031 38986 40244 58008 60001 333 11011 21047 70015
AAXX 17064 71510 16/// /2403 11102 21126 39487 40213 51008 60001 333 11015 21117 70000 555 32418 40201
AAXX 17064 71538 12574 83006 11006 21071 30023 40258 58004 60001 885// 333 10026 21008 70000 555 10000 20000 32832 40071
AAXX 17064 71600 16564 82914 10052 20000 30110 40116 53028 60001 333 10121 20048 70095 555 31943 40143
AAXX 17064 71601 NIL
AAXX 17064 65338 31920 53202 10200 20176 39925 40113 71022 80002 333 01700 20196 50654 55087 59013 85076
AAXX 17064 71816 11774 22918 11138 21194 39951 40013 52035 69901 73688 81570 333 10022 21138 43046 70020 90943 555 10016 20020 33230 40021
AAXX 17064 71817 NIL
AAXX 17064 71818 11462 83120 11075 21091 39903 49921 53028 69981 77172 885// 333 10020 21075 43022 70028 90942 555 10028 20028 33233 40041
AAXX 17064 71822 11469 32804 11213 21229 39714 40211 53002 69901 70171 83500 333 11025 21214 47032 70020 90963 555 10020 20020
AAXX 17064 71825 11674 60000 11178 21216 39402 40091 51006 69921 78577 86500 333 11054 21182 47076 70028 90983 555 10058 20028 33325 40150
AAXX 17064 71827 11564 72407 11184 21214 39908 40162 53003 69921 77177 87500 333 11113 21185 47017 70004 90973 555 10004 20004
AAXX 17064 71828 16759 62711 11173 21216 39398 40052 56003 60001 333 11070 21191 70010 555 33230 40182
AAXX 17064 71831 12974 22305 11204 21243 39970 40268 57002 60001 80001 333 11124 21212 70004 555 10004 20004 33120 40070
AAXX 17064 71832 NIL
AAXX 17064 71834 12574 20000 11228 21266 39815 40270 57012 60001 82500 333 11150 21234 70000 555 10000 20000
AAXX 17064 71841 NIL
AAXX 17064 71842 12974 41505 11181 21214 39749 40245 58027 60001 333 11145 21211 70000 555 10000 20000
AAXX 17064 71844 16964 02005 11209 21245 39907 40200 58028 60001 333 11190 21239 70000 555 32718 40171
AAXX 17064 71845 NIL
AAXX 17064 71850 11474 81911 11116 21129 39703 40222 58037 69901 70271 8553/ 333 11113 21176 48004 70004 90921
AAXX 17064 71852 17864 81917 11071 21090 39877 40180 58051 69951 7//44 333 11071 21164 70005 555 30224 40061
AAXX 17064 71854 NIL
AAXX 17064 71858 17/// /2706 11054 21065 39815 40101 56021 60021 7//4/ 333 11053 21264 70016 555 32117 40041
AAXX 17064 71861 46/// /2610 11066 21091 39441 40181 58009 6///1 333 11046 21163 7//// 555 32226 40001
AAXX 17064 71862 NIL
AAXX 17064 71863 46964 02708 11100 21129 39495 40212 53002 6///1 333 11032 21135 7//// 555 32617 40031
AAXX 17064 71102 NIL
AAXX 17064 71105 NIL
AAXX 17064 71107 NIL
AAXX 17064 71110 NIL
AAXX 17064 71111 17424 82708 10059 20056 30093 40101 56001 69931 7104/ 333 10069 20024 70016
AAXX 17064 71112 17/// ///// 69941 7//4/ 333 70078
AAXX 17064 71113 17/// /0000 10049 20047 30275 40299 58007 69941 7//4/ 333 10064 20033 70010
AAXX 17064 71115 16/// /1002 11007 21013 39704 40299 58004 60001 333 10004 21025 70000
AAXX 17064 71116 NIL
AAXX 17064 71118 16/// /2308 11046 21080 39358 40197 58005 60001 333 10000 21131 70000
AAXX 17064 71121 16964 02206 11015 21087 39351 40185 58010 60001 333 10006 21092 70000
AAXX 17064 71127 16/// /2105 10001 21052 39261 40181 58010 60001 333 10024 21087 70000
AAXX 17064 71130 15966 02613 11039 21082 39683 40150 53010 60001 333 11035 21218 70000
AAXX 17064 71132 17566 62810 11118 21129 39793 40114 53017 60001 771// 333 11115 21308 70000
AAXX 17064 71133 46/// /2810 11053 21102 39454 40172 53008 6///1 333 11021 21189 7//// 555 32322 40201
AAXX 17064 71139 16/// /3006 11008 21055 38738 40216 55002 60001 333 11005 21106 70003
AAXX 17064 71141 NIL
AAXX 17064 71142 15866 62312 11044 21066 39232 40221 55004 60001 333 11025 21137 70000
AAXX 17064 71143 NIL
AAXX 17064 71144 NIL
AAXX 17064 71147 NIL
AAXX 17064 71149 16/// /2526 11029 21064 60001 333 11029 21185 70000 555 32639 40063
AAXX 17064 71864 NIL
AAXX 17064 71865 16/// /2611 11066 21093 39484 40177 53002 60001 333 11033 21118 70000 555 32229 40002
AAXX 17064 71866 46964 02509 11083 21110 39572 40201 52004 6///1 333 11028 21126 7//// 555 32117 40211
AAXX 17064 71867 11474 83013 11060 21072 39768 40111 53003 60021 77072 885// 333 11052 21216 48025 70016 90917 93103 555 10026 20016 31717 40170
AAXX 17064 71868 16/// /2710 11054 21086 39687 40136 53001 60001 333 11046 21210 70000 555 32017 40001
AAXX 17064 71869 12974 02909 11039 21090 39636 40170 52012 60001 333 11030 21217 79999 555 19999 29999
AAXX 17064 71871 15966 02710 11056 21080 39377 40199 50002 60001 333 10013 21132 70000
AAXX 17064 71877 12974 12912 10046 21050 38929 40205 57005 60001 80001 333 10062 21082 70000 555 10000 20000 32722 40021
AAXX 17064 71878 12974 00000 11108 21120 39121 40226 58007 60001 333 11012 21119 70000 555 10000 20000
AAXX 17064 71879 16964 02104 11013 21064 39371 40185 58011 60001 333 10009 21089 70000
AAXX 17064 71880 12782 80000 11014 21027 39175 40309 57003 60001 885// 333 11013 21094 70000 555 10000 20000
AAXX 17064 71882 160// /1409 10012 20001 39758 40308 58006 69951 333 10014 21013 70030 555 31519 40221
AAXX 17064 71883 46/// /0000 11018 21021 39442 40278 56010 6///1 333 11016 21041 7////
AAXX 17064 71887 12586 81412 10017 21008 39846 40276 56008 60001 82572 333 10023 20026 70008
AAXX 17064 71889 12574 81816 10008 21025 39895 40323 58002 60001 8158/ 333 10011 21006 70002 555 10002 20002 31823 40011
AAXX 17064 71891 16964 02214 10088 20024 39975 40251 57007 60001 333 10099 21014 70005 555 32137 40003
AAXX 17064 71892 11562 80707 10066 20056 30295 40300 57005 69921 76162 885// 333 10072 20047 70084 90921 555 10000 20000
AAXX 17064 71043 11580 30000 11277 21328 30021 40119 57007 69901 77671 82570 333 11229 21282 48021 79999 90983 555 19999 29999
AAXX 17064 71045 16/// /0603 11122 21139 39220 54000 60001 333 7////
AAXX 17064 71050 46/// /0101 11053 21059 39107 40200 56013 6///1 333 11008 21064 7////
AAXX 17064 71051 NIL
AAXX 17064 71052 NIL
AAXX 17064 71066 12974 80000 11183 21215 39715 40151 55002 60001 333 11013 21194 79999 555 19999 29999
AAXX 17064 71068 12974 80000 11068 21081 39456 40158 57018 60001 80002 333 11013 21147 70000 555 10000 20000 32919 40140
AAXX 17064 71069 16964 00000 11061 21067 39456 40174 56007 60001 333 11001 21148 70000
AAXX 17064 71076 16/// /2905 11133 21150 39730 40134 51024 60001 333 11119 21239 70000
AAXX 17064 71077 16/// /2503 11088 21104 39613 40163 50006 60001 333 11032 21174 70000
AAXX 17064 71079 11466 81303 11141 21161 39819 40108 57020 69901 77177 885// 333 11138 21283 48006 70006 90983 555 10012 20006
AAXX 17064 71081 46464 83506 11279 21317 39939 49951 56010 6///1 333 11243 21330 7////
AAXX 17064 71082 NIL
AAXX 17064 71083 11974 03115 11285 21328 30057 40101 56004 69901 77677 333 11224 21286 48052 79999 90973 555 19999 29999 33236 40122
AAXX 17064 71090 47416 83214 11187 21220 39920 49955 58031 6///1 745// 333 11152 21296 7//// 555 32022 40161
AAXX 17064 71091 460// /3511 11237 39698 49911 57026 6///1 333 7//// 555 30917 40081
AAXX 17064 71092 46661 30508 11206 39207 49875 56035 6///1 333 11206 21268 7//// 555 31225 40171
AAXX 17064 71093 460// /3620 11186 39373 49870 57038 6///1 333 11174 21214 7//// 555 30430 40062
AAXX 17064 71094 46008 /0304 11124 38925 49809 56029 6///1 333 11095 21207 7//// 555 31127 40221
AAXX 17064 71095 46564 81214 11137 21173 39883 49963 50004 6///1 333 11109 21201 7//// 555 30831 40102
AAXX 17064 71101 160// /2707 30092 56001 60001 333 70000
AAXX 17064 71104 NIL
AAXX 17064 71108 11256 80202 10053 20048 30228 40302 58006 69901 70252 885// 333 10067 20040 70038 90941 555 10000 20000
AAXX 17064 71109 11474 81511 10073 20056 30188 40215 51005 60141 76166 885// 333 10074 20040 70424 90983 555 10000 20000 31121 40120
AAXX 17064 71624 11674 63312 11012 21066 30008 40223 50003 69921 72622 86500 333 10051 21013 41997 70002 90931 555 10002 20002 32831 40071
AAXX 17064 71726 16/// /2905 11152 21173 39642 40203 58003 60001 333 10003 21152 70008 555 32924 40121
AAXX 17064 71727 11569 83111 11105 21149 39982 40184 55002 69901 77182 885// 333 10009 21110 48024 70038 90937 555 10020 20020 33134 40171
AAXX 17064 71728 11682 63115 11134 21175 39971 40199 52005 69901 72272 86500 333 10038 21134 44997 70008 90957 555 10008 20008
AAXX 17064 71730 11574 13508 11150 21170 39819 40262 50005 69901 70271 81500 333 10003 21150 46997 70002 90933 555 10004 20002
AAXX 17064 71731 11474 70107 11127 21151 39779 40247 51006 69901 78571 87500 333 10004 21138 43001 70010 90917 555 10010 20010 33625 40100
AAXX 17064 71735 NIL
AAXX 17064 71738 NIL
AAXX 17064 71739 42974 12704 11198 21229 39883 40267 54000 6//// 81070 333 11088 21199 4//// 7//// 555 1//// 2//// 33216 40140
AAXX 17064 71749 16964 02502 11220 21230 30031 40292 56012 60001 333 11117 21227 70000
AAXX 17064 71799 12483 80000 10077 20058 30274 40298 57001 60001 888// 333 10082 20042 70012 555 10000 20000
AAXX 17064 71800 17/// /2424 10045 20035 39991 40023 53024 60031 7//4/ 333 10064 21001 70108 555 31847 40023
AAXX 17064 71801 11574 12423 10034 20017 39805 49976 53011 60051 70265 81500 333 10073 21031 70108 90927 555 10002 29999 31842 40202
AAXX 17064 71803 11374 52522 10029 20008 39737 49920 53041 60031 72165 84570 333 10067 21019 41997 70072 90983 555 10010 20010 31843 40172
AAXX 17064 71807 NIL
AAXX 17064 71808 NIL
AAXX 17064 71809 11466 82515 10013 21003 39934 49961 53049 60021 76166 885// 333 10078 20009 41997 70058 90973 555 19999 29999 32023 40110
AAXX 17064 71810 16/// /3008 11108 21158 30030 40097 52039 60001 333 10025 21108 70003 555 33325 40221
AAXX 17064 71811 NIL
AAXX 17064 71813 NIL
AAXX 17064 71814 16/// /3220 11072 21111 39978 49988 53064 60001 333 10032 21072 70123 555 31931 40102
AAXX 17064 71815 11474 73020 10006 21031 39981 40011 52053 60041 70288 87500 333 10074 20005 41997 70098 90942 555 19999 29999 32937 40051
AAXX 17064 71300 NIL
AAXX 17064 71301 16/// ///// 11183 21200 39836 40254 50000 60001 333 11028 21183 70009
AAXX 17064 71302 17/// /1915 10008 20006 39346 40168 58015 60081 7//4/ 333 10009 21049 70156 555 10130 20156 31822 40061
AAXX 17064 71303 46/// ///// 11004 21063 6///1 333 10033 21005 7////
AAXX 17064 71305 15266 63203 11150 21160 39852 40150 53007 60001 333 11068 21173 70000
AAXX 17064 71306 17/08 /3117 11130 21147 39999 40032 53001 60001 772// 333 11116 21134 70000 555 32833 40112
AAXX 17064 71307 NIL
AAXX 17064 71308 16/// /3007 10018 21019 30022 40106 52029 60001 333 10105 20018 70082 555 31939 40093
AAXX 17064 71309 NIL
AAXX 17064 71310 16/// /3017 11012 21058 30066 40103 51035 60001 333 10102 21013 70055 555 32934 40003
AAXX 17064 71311 NIL
AAXX 17064 71312 16/// /2812 11045 21088 39680 40146 53010 60001 333 11036 21239 70000 555 32224 40221
AAXX 17064 71314 NIL
AAXX 17064 71315 16/// /2715 11077 21138 30083 40137 51016 60001 333 10040 21077 70021 555 32938 40233
AAXX 17064 71316 16/// /2609 11046 21074 39481 40174 58004 60001 333 11005 21150 70000 555 32718 40191
AAXX 17064 71317 NIL
AAXX 17064 71318 16/// /2609 11066 21101 39246 40209 58003 60001 333 10017 21132 70000 555 32717 40211
AAXX 17064 71319 16/// /0301 11147 21173 39264 40144 55000 60001 333 10033 21148 70000 555 32830 40152
AAXX 17064 71320 NIL
AAXX 17064 71321 NIL
AAXX 17064 71322 NIL
AAXX 17064 71323 NIL
AAXX 17064 71331 17/// /2803 11085 21107 69971 7//4/ 333 11085 21154 70024 555 10050 20024
AAXX 17064 71332 NIL
AAXX 17064 71334 46/// /2103 11173 21193 39753 40097 56017 6///1 333 11173 21323 7////
AAXX 17064 71335 46930 02734 11168 55002 6///1 333 11075 21168 7//// 555 30342 40063
AAXX 17064 71336 46/// ///35 10052 20028 39906 49928 53016 6///1 333 10073 21008 7////
AAXX 17064 71337 46/// /2815 10017 20012 39653 49885 53025 6///1 333 10045 21020 7//// 555 31733 40152
AAXX 17064 71338 47419 81804 11153 21173 39846 49853 56040 6///1 745// 333 11153 21242 7////
AAXX 17064 71339 17420 93114 11001 21009 39857 49871 53010 60001 741// 333 10027 21016 70020 555 31826 40171
AAXX 17064 71340 NIL
AAXX 17064 71341 NIL
AAXX 17064 71342 NIL
AAXX 17064 71343 NIL
AAXX 17064 71344 NIL
AAXX 17064 71345 NIL
AAXX 17064 71346 NIL
AAXX 17064 71347 NIL
AAXX 17064 71348 NIL
AAXX 17064 71349 NIL
AAXX 17064 71051 NIL
AAXX 17064 71055 NIL
AAXX 17064 71057 NIL
AAXX 17064 71059 460// ///// 11275 30038 40132 56005 6///1 333 11208 21275 7////
AAXX 17064 71061 16/// /2301 11028 21061 39376 40167 58010 60001 333 10004 21122 70000 555 10020
AAXX 17064 71062 46/// /2208 11004 21064 39088 40162 57010 6///1 333 10021 21063 7//// 555 10020
AAXX 17064 71064 460// /3104 11213 39900 40123 56006 6///1 333 11212 21262 7//// 555 33419 40141
AAXX 17064 71065 NIL
AAXX 17064 71067 NIL
AAXX 17064 71070 NIL
AAXX 17064 71073 NIL
AAXX 17064 71074 NIL
AAXX 17064 71075 16/// /3005 11108 21121 39476 40095 51008 60001 333 11107 21244 70000 555 10930 32018 40201
AAXX 17064 71078 17466 82405 11151 21165 39639 40095 56005 60001 771// 333 11116 21282 70000
AAXX 17064 71084 460// ///// 11303 30052 40102 56004 6///1 333 11278 21305 7////
AAXX 17064 71085 15966 82526 10037 21017 38839 40229 56009 60001 333 10039 21015 70000
AAXX 17064 71087 NIL
AAXX 17064 71088 460// /0111 11262 56017 6///1 333 11221 21266 7////
AAXX 17064 71089 NIL
AAXX 17064 71096 460// ///// 11165 39118 49848 56037 6///1 333 11165 21211 7////
AAXX 17064 71097 47941 02813 11134 39366 49835 58013 6///1 745// 333 11121 21136 7//// 555 30320 40061
AAXX 17064 71098 43/// /1706 11142 21160 39803 40178 58035 6///1 333 11142 21261 7////
AAXX 17064 71099 43/// /2509 11243 21285 30149 40170 56016 6///1 333 11218 21257 7//// 555 32622 40181
AAXX 17064 71812 46964 33407 11274 21315 30104 40118 5/013 6///1 333 7////
AAXX 17064 71819 17459 83014 10013 20012 39837 49877 53017 60001 761// 333 10026 21017 70003
AAXX 17064 71820 17/// /3610 11025 21040 30085 40201 53014 69931 7//4/ 333 10067 21025 70003 555 33031 40072
AAXX 17064 71823 16558 82313 11191 21220 39742 40137 58003 60001 333 11044 21191 70005 555 33326 40091
AAXX 17064 71824 46/// /2604 11222 21241 6///1 333 11027 21223 7//// 555 33123 40151
AAXX 17064 71826 17/// /0000 11121 21140 39776 49818 56033 60011 7//4/ 333 11119 21194 70010 555 10010 20010 30818 40021
AAXX 17064 71829 16/// /2613 11122 21179 39980 40145 51021 60001 333 10017 21122 70040 555 32740 40183
AAXX 17064 71833 46/// /3108 11028 21051 6///1 333 10018 21028 7//// 555 32927 40071
AAXX 17064 71835 16/// /2106 11169 21191 39724 40228 57023 60001 333 11160 21248 70000
AAXX 17064 71837 NIL
AAXX 17064 71839 NIL
AAXX 17064 71840 46/// /2323 11049 21064 6///1 333 11049 21144 7//// 555 32432 40062
AAXX 17064 71846 16/// /2203 11245 21264 39904 40238 56018 60001 333 11171 21250 70000
AAXX 17064 71847 NIL
AAXX 17064 71848 NIL
AAXX 17064 71849 16/// /1917 11072 21090 39876 40185 58051 60001 333 11072 21164 70000 555 31923 40061
AAXX 17064 71450 NIL
AAXX 17064 71451 NIL
AAXX 17064 71452 46/// /2806 11066 21093 39482 40210 55000 6///1 333 11024 21126 7//// 555 32117 40221
AAXX 17064 71453 NIL
AAXX 17064 71454 16/// /3109 11048 21092 39458 40161 53013 60001 333 11033 21186 70000 555 33020 40061
AAXX 17064 71455 NIL
AAXX 17064 71456 NIL
AAXX 17064 71457 16/// /2003 11116 21126 39303 40218 58003 60001 333 11008 21179 70000
AAXX 17064 71458 16/// /2407 11030 21061 39406 40183 58008 60001 333 10029 21154 70000 555 33120 40211
AAXX 17064 71459 16/// /2605 11115 21131 39398 40232 55000 60001 333 11037 21147 70000
AAXX 17064 71460 16/// /3505 11116 21159 30023 40274 51010 60001 333 10015 21116 70000 555 32831 40072
AAXX 17064 71461 NIL
AAXX 17064 71462 NIL
AAXX 17064 71463 46/// /3111 11004 21029 30002 40229 58001 6///1 333 10028 21005 7//// 555 32842 40073
AAXX 17064 71464 NIL
AAXX 17064 71465 NIL
AAXX 17064 71466 NIL
AAXX 17064 71468 NIL
AAXX 17064 71470 NIL
AAXX 17064 71471 15866 81407 10012 21009 39347 40143 58027 69951 333 10023 21058 70005
AAXX 17064 71473 16/// /2008 10064 20039 30264 40294 58003 60001 333 10065 20042 70018 555 31917 40191
AAXX 17064 71475 16/// /0000 10029 20026 30193 40288 50000 60001 333 10060 20022 70014
AAXX 17064 71476 NIL
AAXX 17064 71477 17/// /0210 10050 20047 60021 7//4/ 333 10063 20039 70120 555 31334 40073
AAXX 17064 71478 NIL
AAXX 17064 71479 NIL
AAXX 17064 71480 NIL
AAXX 17064 71481 NIL
AAXX 17064 71482 NIL
AAXX 17064 71483 NIL
AAXX 17064 71484 NIL
AAXX 17064 71485 17/// /1231 10071 20062 30175 40195 58002 60071 7//4/ 333 10072 20048 70240 555 31346 40143
AAXX 17064 71486 16/// /1703 11004 21034 39002 40211 58019 60001 333 10026 21044 70000
AAXX 17064 71487 NIL
AAXX 17064 71489 16/// /2304 11079 21105 39392 40214 52005 60001 333 11003 21106 70000 555 32517 40211
AAXX 17064 71490 NIL
AAXX 17064 71491 17/// /15// 11258 21286 69931 7//4/ 333 11049 21321 70009
AAXX 17064 71492 NIL
AAXX 17064 71493 16/// /2903 11026 21049 30085 40123 51023 60001 333 10105 21026 70042 555 32826 40231
AAXX 17064 71494 16/// /3003 11076 21094 39631 40160 55003 60001 333 10068 21077 70084 555 32726 40071
AAXX 17064 71495 NIL
AAXX 17064 71496 16/// /2508 11084 21099 39568 40194 51003 60001 333 11028 21132 70000 555 32218 40211
AAXX 17064 71497 46/// /2206 11110 21134 39828 40097 58014 6///1 333 11049 21160 7//// 555 32321 40071
AAXX 17064 71498 NIL
AAXX 17064 71499 17466 82809 11077 21095 39471 40110 51010 60001 771// 333 11068 21180 70000
AAXX 17064 71500 NIL
AAXX 17064 71501 NIL
AAXX 17064 71502 NIL
AAXX 17064 71503 NIL
AAXX 17064 71504 NIL
AAXX 17064 71505 46/// /0304 11016 21040 39305 40032 53003 6///1 333 10021 21136 7////
AAXX 17064 71506 NIL
AAXX 17064 71507 16/// /1908 11085 21114 60001 333 11026 21151 70000
AAXX 17064 71508 16/// ///// 10000 21046 30086 40226 50003 60001 333 10063 20000 70000
AAXX 17064 71509 NIL
AAXX 17064 71511 NIL
AAXX 17064 71512 16/// /2904 11128 21157 30088 40102 53041 60001 333 10027 21128 70024 555 33126 40011
AAXX 17064 71513 15966 33016 11105 21147 30027 40042 51046 60001 333 10033 21105 70083
AAXX 17064 71514 NIL
AAXX 17064 71515 16/// /2810 11061 21086 39478 40194 52005 60001 333 11038 21146 70000 555 33137 40063
AAXX 17064 71516 16/// /2609 11058 21089 60001 333 11043 21131 70000 555 32619 40061
AAXX 17064 71517 NIL
AAXX 17064 71518 NIL
AAXX 17064 71519 NIL
AAXX 17064 71520 NIL
AAXX 17064 71521 NIL
AAXX 17064 71522 NIL
AAXX 17064 71523 NIL
AAXX 17064 71524 16/// /3406 11045 21093 30173 40200 53005 60001 333 10086 21045 70000 555 32125 40081
AAXX 17064 71525 NIL
AAXX 17064 71526 NIL
AAXX 17064 71527 15966 62009 11142 21162 39709 40238 58029 60001 333 11126 21184 70000
AAXX 17064 71528 NIL
AAXX 17064 71529 46/// /2201 11168 21192 39904 40138 51013 6///1 333 11134 21217 7//// 555 10010
AAXX 17064 71532 15966 03210 11075 21093 39875 40227 51008 60001 333 10022 21075 70023
AAXX 17064 71534 17211 93406 11035 21042 39954 40230 52009 60001 745// 333 10055 21035 70005 555 32830 40072
AAXX 17064 71535 NIL
AAXX 17064 71536 NIL
AAXX 17064 71537 NIL
AAXX 17064 71539 NIL
AAXX 17064 71540 NIL
AAXX 17064 71541 NIL
AAXX 17064 71542 16/// /0504 11137 21152 60001 333 11019 21176 70000 555 32428 40182
AAXX 17064 71543 NIL
AAXX 17064 71544 NIL
AAXX 17064 71545 16/// ///// 11038 21066 60001 333 10012 21140 70012
AAXX 17064 71546 NIL
AAXX 17064 71547 NIL
AAXX 17064 71548 NIL
AAXX 17064 71549 NIL
AAXX 17064 71900 46/// /29// 11134 21164 39943 49956 53023 6///1 333 11021 21134 7////
AAXX 17064 71903 NIL
AAXX 17064 71904 NIL
AAXX 17064 71914 16/// /1801 10061 20047 30077 40301 54000 60001 333 10063 20043 70026
AAXX 17064 71916 NIL
AAXX 17064 71918 460// ///// 11292 6///1 333 7////
AAXX 17064 71920 NIL
AAXX 17064 71921 NIL
AAXX 17064 71923 NIL
AAXX 17064 71927 16/// /0000 10064 20056 30237 40296 57001 60001 333 10070 20036 70000
AAXX 17064 71941 15966 03107 11175 21195 39812 40249 51007 60001 333 11013 21175 70003
AAXX 17064 71947 15966 02507 11220 21236 39872 40237 58001 60001 333 11050 21221 70003
AAXX 17061 12160 11465 81807 10034 20001 39701 49752 53005 60042 76172 885// 333 10059 20029 32002 55043 70040 91012 91115 93093
AAXX 17061 12205 11358 82808 10030 20024 39791 49799 51050 60142 76177 8772/ 333 10044 20004 32100 70205 91116 93006
AAXX 17061 12465 11683 72309 10035 20000 39607 49836 52029 60052 72581 875// 333 10068 20035 31003 55033 20274 70052 91115 93097
AAXX 17061 12566 12984 82406 10045 21001 39581 49870 52019 69972 8807/ 333 10086 20045 31003 70009 91116 93000
AAXX 17064 71201 17/// ///// 10067 20052 69961 7//4/ 333 10067 20048 70108
AAXX 17064 71202 17/// ///// 11042 21077 69971 7//4/ 333 10043 21118 70023
AAXX 17064 71203 15566 81410 10010 21024 39778 40310 58004 60001 333 10010 21008 70000
AAXX 17064 71209 46/// /1012 10063 6///1 333 10076 20046 7////
AAXX 17064 71211 46/// /1501 10056 20053 30283 40295 57006 6///1 333 10057 20040 7////
AAXX 17064 71212 16/// /3505 11136 21169 39328 40151 55003 60001 333 10032 21137 70023 555 33227 40181
AAXX 17064 71213 46/// /3107 11163 21187 39946 40261 50003 6///1 333 10001 21163 7//// 555 33429 40082
AAXX 17064 71214 NIL
AAXX 17064 71215 46/// /1503 10002 21027 39978 40332 58002 6///1 333 10009 21010 7////
AAXX 17064 71216 17/// /0000 10000 21002 39684 40314 50002 60011 7//4/ 333 10013 21013 70022 555 10050 20022
AAXX 17064 71217 NIL
AAXX 17064 71218 16/// /1403 10008 21012 39858 40294 58007 60001 333 10013 21030 70006
AAXX 17064 71219 46/// /1312 10070 20048 30088 40094 56009 6///1 333 10076 20033 7//// 555 31126 40101
AAXX 17064 71220 46/// /0908 10054 20046 6///1 333 10064 20032 7////
AAXX 17064 71221 NIL
AAXX 17064 71222 16/// /0000 11124 21136 39156 40152 58011 60001 333 11116 21217 70000
AAXX 17064 71223 NIL
AAXX 17064 71224 NIL
AAXX 17064 71225 NIL
AAXX 17064 71226 NIL
AAXX 17064 71227 NIL
AAXX 17064 71228 NIL
AAXX 17064 71229 NIL
AAXX 17064 71230 16/// /0703 10003 21008 39250 40145 58023 60001 333 10019 21085 70000 555 32318 40101
AAXX 17064 71231 16/// /2803 10001 21035 60001 333 10044 21131 70000
AAXX 17064 71232 16/// /2308 10033 21063 38692 40193 56015 60001 333 10033 21022 70000 555 32827 40221
AAXX 17064 71233 16/// /1403 11014 21071 60001 333 10045 21091 70000
AAXX 17064 71234 16/// /2508 10040 21023 39024 40217 55004 60001 333 10049 21117 70000 555 32627 40021
AAXX 17064 71235 16/// /2814 10041 21050 60001 333 10054 21083 70000 555 32924 40061
AAXX 17064 71236 46/// /3116 10023 21031 6///1 333 10024 21021 7//// 555 33034 40223
AAXX 17064 71237 46/// /1602 11108 21121 39375 40217 58006 6///1 333 11002 21127 7////
AAXX 17064 71238 16/// /1201 11034 21054 60001 333 10035 21132 70000
AAXX 17064 71239 16/// /2410 11057 21074 39716 40190 56029 60001 333 11057 21141 70000
AAXX 17064 71240 16/// ///// 11089 21113 39354 40221 58003 60001 333 10004 21117 70000
AAXX 17064 71241 NIL
AAXX 17064 71242 16/// /1603 11078 21094 60001 333 11009 21108 70000 555 10010
AAXX 17064 71243 NIL
AAXX 17064 71244 16/// /2613 10037 21024 38984 40219 58005 60001 333 10043 21100 70000 555 32617 40011
AAXX 17064 71245 46/// /2358 11051 21081 6///1 333 11048 21103 7//// 555 32386 40063
AAXX 17064 71246 NIL
AAXX 17064 71247 15966 01907 11031 21048 39358 40230 50000 60001 333 10013 21104 70000
AAXX 17064 71248 16/// /0000 11096 21109 38885 40220 58008 60001 333 10004 21142 70000
AAXX 17064 71249 NIL
AAXX 17061 13168 11698 82903 10103 20073 39752 49855 58027 60012 76166 885// 333 20095 31007 55051 70012
AAXX 17061 13174 11697 81606 10085 20071 39746 49843 57031 60052 76362 885// 333 20082 32007 55063 70046 91012 91115
AAXX 17061 13269 32699 61403 10155 20036 39650 49852 57025 86500 333 20125 31009 55060 70000 91112
AAXX 17061 13274 11697 81605 10119 20058 39700 49854 57032 69942 70262 885// 333 20110 31009 55065 70004 91011 91111
AAXX 17061 13278 NIL
AAXX 17061 13378 NIL
AAXX 17061 13397 NIL
AAXX 17061 13457 11562 81806 10162 20112 39938 49945 56022 60142 70262 8582/ 333 20046 32004 55/// 81826 84630 88457
AAXX 17061 13481 NIL
AAXX 17064 08055 12660 32802 11002 21013 39164 48512 53005 60002 81502 333 21006 30103 55009 70008 95090
AAXX 17064 08075 11665 62004 11004 21011 39179 48504 52007 60002 702// 86500 333 21008 55000 70061
AAXX 17064 08084 02665 32711 10068 21002 39775 40214 53006 60002 83500 333 20066 3/005 55005 60007 70058
AAXX 17064 08171 12783 12713 10066 20017 39934 40178 52014 60002 81040 333 20065 30001 50250 55010 70001
AAXX 17064 08184 02980 20000 10039 20011 39967 40126 53015 60002 825// 333 20036 3/002 55009 60007 70000
AAXX 17064 08202 02560 72407 10006 21003 39320 42855 53005 69902 81535 333 21005 30102 55003 60007 70019
AAXX 17064 08235 NIL
AAXX 17064 08238 12782 33106 10106 21009 30096 40157 54000 69902 82141 333 20105 55024 79999
AAXX 17064 08280 12962 82907 10046 20011 39390 40230 52015 60002 80007 333 20046 50350 55001 70000
AAXX 17064 08330 12965 22507 10056 20028 30035 40273 52006 60002 80008 333 20056 31005 50224 55018 79999
AAXX 17064 08348 12965 03003 10062 20044 39499 40250 51008 69922 333 20062 50084 55000 70002
AAXX 17064 08360 02981 72809 10128 20032 30158 40195 53013 60002 84056 333 20128 30012 55002 60007 70000
AAXX 17064 08373 02565 73109 10138 20026 30149 40171 53005 60002 81507 333 20138 3/012 55014 60007 70000
AAXX 17064 08410 02980 23001 10083 20058 30139 40252 53007 69922 80005 333 20083 31007 55005 60007 70002
AAXX 17064 08419 01465 42903 10102 20068 39563 40236 53002 69982 70162 82830 333 20097 3/008 55043 60007 70008
AAXX 17064 08451 02675 33211 10118 20095 30228 40261 51005 69902 81501 333 20118 3/010 55016 60007 79999
AAXX 17064 08487 02680 62902 10125 20102 30156 40181 55004 60002 81871 333 20121 3/011 55037 60007 70000
AAXX 17064 71665 17/// /3037 11128 21188 39953 49963 51021 60011 7//4/ 333 11049 21131 70031 555 10080 20031 33153 40033
AAXX 17064 71666 16/// /2909 11031 21088 30078 40123 51026 60001 333 10090 21031 70040 555 33023 40221
AAXX 17064 71667 NIL
AAXX 17064 71668 16/// /3106 11042 21101 30103 40147 53014 60001 333 10086 21042 70030 555 32930 40182
AAXX 17064 71669 NIL
AAXX 17064 71670 16/// ///// 11047 21092 60001 333 10078 21047 70032
AAXX 17064 71671 NIL
AAXX 17064 71672 16/// /3007 11036 21088 39944 40212 51009 60001 333 10044 21036 70000 555 32726 40071
AAXX 17064 71673 NIL
AAXX 17064 71674 NIL
AAXX 17064 71675 15966 02005 11207 21229 39906 40200 58028 60001 333 11192 21238 70033
AAXX 17064 71679 NIL
AAXX 17064 71680 NIL
AAXX 17064 71681 46/// /1601 11014 21020 6///1 333 10014 21018 7////
AAXX 17064 71682 NIL
AAXX 17064 71683 NIL
AAXX 17064 71684 15966 03008 11165 21192 39949 40265 51003 60001 333 11001 21165 70000
AAXX 17064 71685 17366 81510 10011 20007 39756 40306 58006 69931 7614/ 333 10013 21013 70009
AAXX 17064 71686 469// /1402 11110 21125 39156 40133 58011 6///1 333 11092 21185
AAXX 17064 71687 17/// /1504 10021 20015 39487 40281 58004 69931 7//4/ 333 10021 20000 70018 555 10010 20018
AAXX 17064 71688 16/// /0000 10001 20001 39222 40272 58005 60001 333 10009 21016 70000 555 10070
AAXX 17064 71689 15966 02302 11108 21117 39694 40159 52001 60001 333 11022 21181 70000
AAXX 17064 71690 NIL
AAXX 17064 71691 15566 82909 11108 21164 30130 40158 51015 60001 333 10021 21108 70109
AAXX 17064 71692 NIL
AAXX 17064 71694 16/// /3405 11074 21101 39871 40243 53009 60001 333 10021 21074 70000 555 32724 40071
AAXX 17064 71695 17/// /2911 11059 21077 39765 40107 53004 69951 7//4/ 333 11052 21208 70008 555 10010 20008 31617 40001
AAXX 17064 71696 16/// /1303 11236 21261 30076 40114 58025 60001 333 11224 21265 70000 555 32824 40081
AAXX 17064 71697 17466 83411 11017 21042 30046 40220 51007 60001 771// 333 10058 21017 70000
AAXX 17064 71699 16/// /3406 11017 21058 30136 40143 51011 60001 333 10095 21017 70000
AAXX 17064 71350 16/// /3110 11016 21068 30040 40105 51033 60001 333 10091 21016 70099 555 31627 40071
AAXX 17064 71351 NIL
AAXX 17064 71352 17/// /3311 11034 21057 39763 40225 51004 69971 7//4/ 333 10015 21034 70007 555 32934 40073
AAXX 17064 71353 NIL
AAXX 17064 71354 NIL
AAXX 17064 71355 16/// /0000 11318 21351 30010 40099 56002 60001 333 11305 21348 70000
AAXX 17064 71356 NIL
AAXX 17064 71357 NIL
AAXX 17064 71358 17/// /3313 11186 21207 39919 49954 58030 69931 7//4/ 333 11153 21300 70003 555 32122 40171
AAXX 17064 71359 NIL
AAXX 17064 71360 NIL
AAXX 17064 71361 NIL
AAXX 17064 71362 NIL
AAXX 17064 71363 NIL
AAXX 17064 71364 NIL
AAXX 17064 71365 NIL
AAXX 17064 71368 17466 83211 11028 21043 39833 40230 51004 69931 7714/ 333 10016 21028 70008
AAXX 17064 71369 15966 81302 11052 21065 39456 40175 57007 60001 333 11003 21137 70000
AAXX 17064 71370 46/// /3307 11083 21133 30048 40187 53006 6///1 333 10060 21083 7//// 555 33024 40161
AAXX 17064 71371 17566 83208 11034 21072 30154 40189 53003 60001 771// 333 10086 21034 70005
AAXX 17064 71372 NIL
AAXX 17064 71373 NIL
AAXX 17064 71374 NIL
AAXX 17064 71375 NIL
AAXX 17064 71376 16/// /3002 11087 21122 39900 40203 52005 60001 333 10052 21087 70030 555 33217 40171
AAXX 17064 71377 16/// /2908 11037 21089 30142 40191 53005 60001 333 10087 21037 70007 555 32729 40112
AAXX 17064 71378 16/// /3006 11112 21166 39984 40199 53001 60001 333 10048 21112 70000 555 33229 40152
AAXX 17064 71379 16/// /3111 11146 21190 30010 40187 53003 60001 333 10024 21146 70000 555 33038 40143
AAXX 17064 71380 NIL
AAXX 17064 71381 NIL
AAXX 17064 71382 NIL
AAXX 17064 71383 NIL
AAXX 17064 71384 16/// /0210 11080 21153 30167 40175 53001 60001 333 10061 21081 70020 555 32623 40191
AAXX 17064 71385 NIL
AAXX 17064 71386 NIL
AAXX 17064 71387 NIL
AAXX 17064 71388 46/// /3010 11105 21146 39987 40180 56003 6///1 333 10041 21107 7//// 555 32937 40163
AAXX 17064 71389 46/// /3208 11078 21128 6///1 333 10063 21078 7//// 555 33127 40161
AAXX 17064 71390 NIL
AAXX 17064 71391 16/// ///// 11087 21118 60001 333 10044 21087 70000
AAXX 17064 71392 16/// /3004 11073 21123 60001 333 10070 21085 70016 555 32923 40161
AAXX 17064 71393 NIL
AAXX 17064 71395 12574 72910 11004 21040 39941 40120 51020 60001 87500 333 10102 21007 70045 555 19999 29999 32038 40072
AAXX 17064 71398 15966 02509 11221 21247 30220 40232 58002 60001 333 11124 21224 70000
AAXX 17064 71399 NIL
AAXX 17064 71950 17448 83102 11040 21043 39494 40133 57029 60011 7714/ 333 11042 21088 70022
AAXX 17064 71952 17/// /1205 10005 20000 39275 40131 57025 69961 7//4/ 333 10006 21096 70009
AAXX 17064 71954 NIL
AAXX 17064 71956 NIL
AAXX 17064 71959 NIL
AAXX 17064 71960 460// /0608 11274 30000 40139 58003 6///1 333 11253 21289 7////
AAXX 17064 71962 16/// /1904 11136 21158 39815 40255 58022 60001 333 11088 21169 70000 555 32920 40001
AAXX 17064 71963 NIL
AAXX 17064 71967 16/// /3308 11047 21090 30089 40196 53003 60001 333 10088 21048 70019 555 32629 40112
AAXX 17064 71970 NIL
AAXX 17064 71971 16/// /1405 11194 21222 30005 40051 55003 60001 333 11162 21231 70000
AAXX 17064 71972 460// ///// 11151 39419 49878 57012 6///1 333 11069 21151 7////
AAXX 17064 71973 46/// /2713 11005 21013 39799 49983 53055 6///1 333 10065 21005 7//// 555 32728 40052
AAXX 17064 71974 NIL
AAXX 17064 71975 460// /2209 11111 39086 49801 56027 6///1 333 11110 21183 7//// 555 30637 40193
AAXX 17064 71976 NIL
AAXX 17064 71977 NIL
AAXX 17064 71978 NIL
AAXX 17064 71979 NIL
AAXX 17064 71980 NIL
AAXX 17064 71981 NIL
AAXX 17064 71982 NIL
AAXX 17064 71983 NIL
AAXX 17064 71984 16/// /0000 11307 21337 30130 40139 55000 60001 333 11191 21332 70000
AAXX 17064 71985 NIL
AAXX 17064 71986 NIL
AAXX 17064 71987 17/// /3024 11031 21064 30094 40103 51034 69971 7//4/ 333 10079 21035 70057 555 33043 40213
AAXX 17064 71988 NIL
AAXX 17064 71989 NIL
AAXX 17064 71990 NIL
AAXX 17064 71999 46/// ///// 10083 6///1 333 10088 21010 7////
AAXX 17064 71604 17/// /3016 11029 21029 69981 7//4/ 333 10074 21029 70197 555 32941 40223
AAXX 17064 71605 17/// /3507 10067 20067 30141 40293 58006 60021 7//4/ 333 10067 20039 70169
AAXX 17064 71611 NIL
AAXX 17064 71612 16/// /3403 11036 21087 30099 40191 53003 60001 333 10090 21036 70000
AAXX 17064 71614 16/// /2806 11035 21057 30113 40180 53002 60001 333 10096 21035 70016 555 32729 40112
AAXX 17064 71616 16/// /3307 11063 21109 30070 40193 53003 60001 333 10093 21064 70050 555 33125 40181
AAXX 17064 71617 16/// /3212 11110 21146 30018 40193 55001 60001 333 10037 21110 70013 555 32938 40173
AAXX 17064 71618 17958 /1304 11234 21260 30080 40120 58025 60001 771// 333 11222 21262 70000
AAXX 17064 71619 16/// /3011 11078 21138 30058 40117 51018 60001 333 10036 21078 70072 555 32829 40212
AAXX 17064 71622 NIL
AAXX 17064 71632 46/// /2504 11152 21168 39641 40093 56005 6///1 333 11117 21305 7////
AAXX 17064 71634 16/// /3204 11069 21117 39979 40134 51020 60001 333 10058 21069 70023 555 33027 40231
AAXX 17064 71638 16/// /1309 10081 20046 30176 40282 58003 60001 333 10083 20028 70096
AAXX 17064 71639 11674 33212 11016 21082 39976 40021 51002 69901 70177 83500 333 10058 21016 79999 90922 555 19999 29999 32821 40070
AAXX 17064 71642 NIL
BBXX VEP717 17064 99467 70487 41496 82051 10059 2006/ 40052 57035 76162 885// 22200 06028 20606 80059
AAXX 17064 71114 160// /1102 10041 20039 30253 40302 58006 60001 333 10062 20033 70020
AAXX 17064 71120 12974 32608 11053 21092 39517 40187 51007 60001 80004 333 11010 21141 79999 555 19999 29999 32819 40200
AAXX 17064 71122 16/// /2311 11027 21062 38624 40250 58007 60001 333 7////
AAXX 17064 71123 12974 81707 11034 21061 39314 40195 58008 60001 88020 333 10003 21102 70000 555 10000 20000
AAXX 17064 71125 NIL
AAXX 17064 71129 12974 22102 11079 21106 39369 40221 50001 60001 80001 333 11003 21103 70000 555 10000 20000
AAXX 17064 71131 16/// /3006 11080 21085 38947 40239 56007 60001 333 11055 21105 70000
AAXX 17064 71135 16/// /2713 11068 21090 39117 40229 58005 60001 333 11055 21125 70000 555 10010 32417 40181
AAXX 17064 71137 NIL
AAXX 17064 71140 11474 82515 11046 21055 39671 40185 5/028 69901 77122 885// 333 11046 21156 46997 70002 90952 555 10002 20002 32427 40051
AAXX 17064 71145 11474 41507 11141 21163 39846 40151 56038 69901 77111 84500 333 11132 21239 48035 70002 90962 555 10002 20002
AAXX 17064 71148 NIL
AAXX 17064 71185 17556 33023 11008 39924 49947 53060 60081 74544 333 10077 21008 70110
AAXX 17064 71188 11574 62814 11081 21146 30064 40107 51029 69901 70371 86500 333 10048 21082 43014 70016 90952 555 19999 29999 33029 40211
AAXX 17064 71200 16/// /0402 10064 20056 60001 333 10075 20053 70010
AAXX 17064 71207 17/// /0000 10016 30229 40295 58004 69931 7//4/ 333 10025 20007 70104
AAXX 17064 71260 13/// ///// 11105 21135 30034 40280 52003 69901 333 10022 21111 46001 70004 555 10010 20004
AAXX 17064 71397 12974 02908 11006 21065 30107 40142 51020 60001 333 10115 21008 70040 555 10000 20000 32730 40191
AAXX 17064 71400 17/64 /2504 10018 20014 60061 7//4/ 333 10064 21010 70121 555 31728 40142
AAXX 17064 71403 46/// /2913 10026 21011 30096 40116 51018 6///1 333 10096 20023 7//// 555 31945 40093
AAXX 17064 71411 16/// /2606 10002 21015 30127 40139 51012 60001 333 10111 20002 70027 555 32835 40163
AAXX 17064 71412 16/// /3124 10003 21035 30081 40091 51035 60001 333 10093 20002 70056 555 33142 40013
AAXX 17064 71421 NIL
AAXX 17064 71430 17/// /3210 10008 21024 30100 40198 51006 69941 7//4/ 333 10067 20008 70004 555 32648 40093
AAXX 17064 71431 NIL
AAXX 17064 71432 16/// /3117 10018 21023 30122 40220 51002 60001 333 10055 20018 70000 555 32643 40073
AAXX 17064 71433 NIL
AAXX 17064 71435 NIL
AAXX 17064 71441 NIL
AAXX 17064 71443 16/// /2512 11054 21080 39715 40135 55006 60001 333 11027 21185 70000 555 32325 40031
AAXX 17064 71444 16/// /2508 11057 21064 39387 40160 56021 60001 333 11057 21233 70000 555 32418 40051
AAXX 17064 71447 16/// /2109 11068 21079 39640 40197 56023 60001 333 11040 21094 70000
AAXX 17064 71467 NIL
AAXX 17064 71472 NIL
AAXX 17064 71474 16161 81905 11023 21031 38986 40244 58008 60001 333 11011 21047 70015
AAXX 17064 71510 16/// /2403 11102 21126 39487 40213 51008 60001 333 11015 21117 70000 555 32418 40201
AAXX 17064 71538 12574 83006 11006 21071 30023 40258 58004 60001 885// 333 10026 21008 70000 555 10000 20000 32832 40071
AAXX 17064 71600 16564 82914 10052 20000 30110 40116 53028 60001 333 10121 20048 70095 555 31943 40143
AAXX 17064 71601 NIL
AAXX 17064 71603 12574 53212 10022 21027 30094 40147 51007 60001 85500 333 10106 20022 70002 555 10000 20000 32727 40171
AAXX 17064 71607 16/// /2803 11022 21057 30116 40149 50005 60001 333 10091 21022 70000 555 32729 40172
AAXX 17064 71609 12974 03309 11032 21091 30007 40142 51013 60001 333 10093 21032 70021 555 10000 20000 33129 40202
AAXX 17064 71610 17666 83107 11042 21070 39870 40169 56002 60001 771// 333 10083 21043 70023
AAXX 17064 71621 16764 63110 11008 21064 30099 40206 51010 60001 333 10065 21008 70000 555 32630 40082
AAXX 17064 71623 NIL
AAXX 17064 71624 11674 63312 11012 21066 30008 40223 50003 69921 72622 86500 333 10051 21013 70002 90932 555 10002 20002 32831 40071
AAXX 17064 71625 16964 03507 11097 21172 30071 40237 51013 60001 333 10045 21099 70000 555 33421 40161
AAXX 17064 71627 11769 82808 11036 21096 30147 40192 53003 69901 78511 885// 333 10091 21038 79999 90910 555 19999 29999
AAXX 17064 71628 11560 23313 11065 21108 30065 40209 52008 69901 72222 82570 333 10075 21065 4-4001 70006 909/6 555 10099 20099 33319 40002
AAXX 17064 71630 NIL
AAXX 17064 71631 17/// /3208 11049 21073 39720 40230 50005 69961 7//4/ 333 10002 21049 70006 555 32925 40071
AAXX 17064 71633 NIL
AAXX 17064 71705 12574 22713 11026 21078 30037 40125 51024 60001 82500 333 10094 21028 70044 555 10000 20000 32829 40192
AAXX 17064 71706 12674 33104 11017 21064 30053 40113 51032 60001 82502 333 10095 21018 70094 555 10000 20000 31829 40071
AAXX 17064 71707 11574 82815 10019 21034 30006 40082 52041 69901 78582 885// 333 10096 20018 70218 90916 555 19999 29999 31836 40091
AAXX 17064 71709 NIL
AAXX 17064 71711 NIL
AAXX 17064 71714 16/// /3004 11078 21130 30103 40197 55003 60001 333 10063 21085 70024 555 33024 40191
AAXX 17064 71715 16/// /3309 11098 21150 39985 40171 53001 60001 333 10063 21100 70012 555 32925 40181
AAXX 17064 71718 11574 82717 11087 21136 30093 40159 53008 69901 78588 885// 333 10064 21088 41997 70014 90973 555 10006 20006
AAXX 17064 71719 NIL
AAXX 17064 71930 NIL
AAXX 17064 71931 16/// /2626 10046 20022 39861 49873 53005 60001 333 10079 21012 70000 555 32242 40043
AAXX 17064 71934 11361 83003 11133 21149 39883 40148 50006 69901 77177 885// 333 11100 21197 47020 79999 90973 555 19999 29999
AAXX 17064 71935 NIL
AAXX 17064 71936 11474 50000 11197 21225 39868 40137 57008 69901 77177 85500 333 11152 21206 48020 79999 90983 555 19999 29999
AAXX 17064 71937 NIL
AAXX 17064 71938 11766 82403 11201 21239 30097 40128 56007 69901 77177 8853/ 333 11201 21315 45023 79999 90983 555 19999 29999
AAXX 17064 71940 11480 72207 10005 21003 39346 40156 57021 69901 78072 86570 333 10025 21101 44007 79999 90915 555 19999 29999 32430 40101
AAXX 17064 71943 12974 81710 10006 21036 39292 40132 57026 60001 8807/ 333 10012 21040 70000 555 10000 20000 32225 40091
AAXX 17064 71944 160// ///// 11038 58031 60001 333 11038 21075 70000
AAXX 17064 71945 12974 20000 11156 21201 39629 40116 58014 60001 82071 333 11109 21220 70000 555 10000 20000
AAXX 17064 71946 11974 00000 11255 21282 39892 40116 57016 69901 70070 333 11163 21258 48034 79999 90941 555 19999 29999
AAXX 17064 71948 46058 /2904 11268 30015 40133 56006 6///1 333 11224 21275 7////
AAXX 17064 71949 46/// /1203 11104 21117 39176 40062 58008 6///1 333 11092 21187 7////
AAXX 17064 71951 11132 80000 11027 21029 39864 40135 57025 60021 76677 887// 333 11024 21053 40043 70054 90983 555 10054 20044 30218 40120
AAXX 17064 71957 47440 81003 11242 21308 30030 40123 57007 6///1 745// 333 11235 21272 7////
AAXX 17064 71964 12986 21715 11022 21081 39192 40045 50001 60001 82070 333 11006 21057 70000 555 10000 20000 31725 40021
AAXX 17064 71966 16/// /0000 11275 21307 39600 40083 50002 60001 333 11160 21279 70000
AAXX 17064 71968 470// /3009 11249 30050 40117 58008 6///1 745// 333 11235 21261 7////
AAXX 17064 71893 12580 81418 10078 20057 30244 40276 50000 60001 885// 333 10079 20053 70012 555 10000 20000 31426 40151
AAXX 17064 71894 17/// /1016 10085 20085 30255 40264 52001 60041 7//4/ 333 10089 20065 70258 555 30728 40202
AAXX 17064 71896 17258 81916 10007 20000 39335 40171 58016 60071 76144 333 10009 21050 70149
AAXX 17064 71897 11132 81445 10052 20046 3//// 4//// 57026 60141 76362 887XX 333 10078 20052 70846 90983
AAXX 17064 71898 160// ///// 10051 56009 69951 333 10070 20015 70045
AAXX 17064 71899 11766 80906 10064 20064 3//// 4//// 50000 60081 76164 8802/ 333 10079 20040 70114 90973
AAXX 17064 71902 NIL
AAXX 17064 71905 NIL
AAXX 17064 71906 11974 02511 11179 21213 39960 40011 56005 69901 70177 333 11079 21184 48015 70036 90963 555 10036 20036
AAXX 17064 71907 17004 93015 11153 21174 30002 40035 56001 69951 745// 333 11138 21159 70005 555 32730 40182
AAXX 17064 71909 16964 03606 11225 21266 39826 49870 56013 60001 333 11117 21233 70000
AAXX 17064 71910 46958 03117 11190 21207 39848 49911 55000 6///1 333 11155 21195 7//// 555 30325 40061
AAXX 17064 71911 47816 82814 11287 39977 40036 56013 6///1 745// 333 11234 21292 7//// 555 33029 40072
AAXX 17064 71912 11466 81404 11158 21183 39937 40128 58026 69901 77122 885// 333 11144 21295 47012 79999 90942 555 19999 29999
AAXX 17064 71915 NIL
AAXX 17064 71917 11974 00000 11396 21437 30097 40112 57001 69901 776// 333 11361 21407 43013 79999 90999 555 19999 29999
AAXX 17064 71922 12974 02708 11080 21093 39666 40143 52015 60001 333 11054 21186 47030 70006 555 10008 20006
AAXX 17064 71924 NIL
AAXX 17064 71925 11569 13008 11292 21336 30077 40120 58006 69901 77677 81500 333 11279 21312 42017 79999 90983 555 19999 29999
AAXX 17064 71926 11974 03002 11287 21336 30091 40116 58003 69901 77673 333 11225 21294 48043 79999 90931 555 19999 29999 33227 40141
AAXX 17064 71928 16/// /1304 11112 21132 39019 40213 58009 60001 333 11025 21123 70000
AAXX 17064 71864 NIL
AAXX 17064 71865 16/// /2611 11066 21093 39484 40177 53002 60001 333 11033 21118 70000 555 32229 40002
AAXX 17064 71866 46964 02509 11083 21110 39572 40201 52004 6///1 333 11028 21126 7//// 555 32117 40211
AAXX 17064 71867 11474 83013 11060 21072 39768 40111 53003 60021 77072 885// 333 11052 21216 48025 70016 90917 93103 555 10026 20016 31717 40170
AAXX 17064 71868 16/// /2710 11054 21086 39687 40136 53001 60001 333 11046 21210 70000 555 32017 40001
AAXX 17064 71869 12974 02909 11039 21090 39636 40170 52012 60001 333 11030 21217 79999 555 19999 29999
AAXX 17064 71871 15966 02710 11056 21080 39377 40199 50002 60001 333 10013 21132 70000
AAXX 17064 71877 12974 12912 10046 21050 38929 40205 57005 60001 80001 333 10062 21082 70000 555 10000 20000 32722 40021
AAXX 17064 71878 12974 00000 11108 21120 39121 40226 58007 60001 333 11012 21119 70000 555 10000 20000
AAXX 17064 71879 16964 02104 11013 21064 39371 40185 58011 60001 333 10009 21089 70000
AAXX 17064 71880 12782 80000 11014 21027 39175 40309 57003 60001 885// 333 11013 21094 70000 555 10000 20000
AAXX 17064 71882 160// /1409 10012 20001 39758 40308 58006 69951 333 10014 21013 70030 555 31519 40221
AAXX 17064 71883 46/// /0000 11018 21021 39442 40278 56010 6///1 333 11016 21041 7////
AAXX 17064 71887 12586 81412 10017 21008 39846 40276 56008 60001 82572 333 10023 20026 70008
AAXX 17064 71889 12574 81816 10008 21025 39895 40323 58002 60001 8158/ 333 10011 21006 70002 555 10002 20002 31823 40011
AAXX 17064 71891 16964 02214 10088 20024 39975 40251 57007 60001 333 10099 21014 70005 555 32137 40003
AAXX 17064 71892 11562 80707 10066 20056 30295 40300 57005 69921 76162 885// 333 10072 20047 70084 90921 555 10000 20000
AAXX 17064 71816 11774 22918 11138 21194 39951 40013 52035 69901 73688 81570 333 10022 21138 43046 70020 90943 555 10016 20020 33230 40021
AAXX 17064 71817 NIL
AAXX 17064 71818 11462 83120 11075 21091 39903 49921 53028 69981 77172 885// 333 10020 21075 43022 70028 90942 555 10028 20028 33233 40041
AAXX 17064 71822 11469 32804 11213 21229 39714 40211 53002 69901 70171 83500 333 11025 21214 47032 70020 90963 555 10020 20020
AAXX 17064 71825 11674 60000 11178 21216 39402 40091 51006 69921 78577 86500 333 11054 21182 47076 70028 90983 555 10058 20028 33325 40150
AAXX 17064 71827 11564 72407 11184 21214 39908 40162 53003 69921 77177 87500 333 11113 21185 47017 70004 90973 555 10004 20004
AAXX 17064 71828 16759 62711 11173 21216 39398 40052 56003 60001 333 11070 21191 70010 555 33230 40182
AAXX 17064 71831 12974 22305 11204 21243 39970 40268 57002 60001 80001 333 11124 21212 70004 555 10004 20004 33120 40070
AAXX 17064 71832 NIL
AAXX 17064 71834 12574 20000 11228 21266 39815 40270 57012 60001 82500 333 11150 21234 70000 555 10000 20000
AAXX 17064 71841 NIL
AAXX 17064 71842 12974 41505 11181 21214 39749 40245 58027 60001 333 11145 21211 70000 555 10000 20000
AAXX 17064 71844 16964 02005 11209 21245 39907 40200 58028 60001 333 11190 21239 70000 555 32718 40171
AAXX 17064 71845 NIL
AAXX 17064 71850 11474 81911 11116 21129 39703 40222 58037 69901 70271 8553/ 333 11113 21176 48004 70004 90921
AAXX 17064 71852 17864 81917 11071 21090 39877 40180 58051 69951 7//44 333 11071 21164 70005 555 30224 40061
AAXX 17064 71854 NIL
AAXX 17064 71858 17/// /2706 11054 21065 39815 40101 56021 60021 7//4/ 333 11053 21264 70016 555 32117 40041
AAXX 17064 71861 46/// /2610 11066 21091 39441 40181 58009 6///1 333 11046 21163 7//// 555 32226 40001
AAXX 17064 71862 NIL
AAXX 17064 71863 46964 02708 11100 21129 39495 40212 53002 6///1 333 11032 21135 7//// 555 32617 40031
AAXX 17064 71726 16/// /2905 11152 21173 39642 40203 58003 60001 333 10003 21152 70008 555 32924 40121
AAXX 17064 71727 11569 83111 11105 21149 39982 40184 55002 69901 77182 885// 333 10009 21110 48024 70038 90937 555 10020 20020 33134 40171
AAXX 17064 71728 11682 63115 11134 21175 39971 40199 52005 69901 72272 86500 333 10038 21134 44997 70008 90957 555 10008 20008
AAXX 17064 71730 11574 13508 11150 21170 39819 40262 50005 69901 70271 81500 333 10003 21150 46997 70002 90933 555 10004 20002
AAXX 17064 71731 11474 70107 11127 21151 39779 40247 51006 69901 78571 87500 333 10004 21138 43001 70010 90917 555 10010 20010 33625 40100
AAXX 17064 71735 NIL
AAXX 17064 71738 NIL
AAXX 17064 71739 42974 12704 11198 21229 39883 40267 54000 6//// 81070 333 11088 21199 4//// 7//// 555 1//// 2//// 33216 40140
AAXX 17064 71749 16964 02502 11220 21230 30031 40292 56012 60001 333 11117 21227 70000
AAXX 17064 71799 12483 80000 10077 20058 30274 40298 57001 60001 888// 333 10082 20042 70012 555 10000 20000
AAXX 17064 71800 17/// /2424 10045 20035 39991 40023 53024 60031 7//4/ 333 10064 21001 70108 555 31847 40023
AAXX 17064 71801 11574 12423 10034 20017 39805 49976 53011 60051 70265 81500 333 10073 21031 70108 90927 555 10002 29999 31842 40202
AAXX 17064 71803 11374 52522 10029 20008 39737 49920 53041 60031 72165 84570 333 10067 21019 41997 70072 90983 555 10010 20010 31843 40172
AAXX 17064 71807 NIL
AAXX 17064 71808 NIL
AAXX 17064 71809 11466 82515 10013 21003 39934 49961 53049 60021 76166 885// 333 10078 20009 41997 70058 90973 555 19999 29999 32023 40110
AAXX 17064 71810 16/// /3008 11108 21158 30030 40097 52039 60001 333 10025 21108 70003 555 33325 40221
AAXX 17064 71811 NIL
AAXX 17064 71813 NIL
AAXX 17064 71814 16/// /3220 11072 21111 39978 49988 53064 60001 333 10032 21072 70123 555 31931 40102
AAXX 17064 71815 11474 73020 10006 21031 39981 40011 52053 60041 70288 87500 333 10074 20005 41997 70098 90942 555 19999 29999 32937 40051
AAXX 17064 71043 11580 30000 11277 21328 30021 40119 57007 69901 77671 82570 333 11229 21282 48021 79999 90983 555 19999 29999
AAXX 17064 71045 16/// /0603 11122 21139 39220 54000 60001 333 7////
AAXX 17064 71050 46/// /0101 11053 21059 39107 40200 56013 6///1 333 11008 21064 7////
AAXX 17064 71051 NIL
AAXX 17064 71052 NIL
AAXX 17064 71066 12974 80000 11183 21215 39715 40151 55002 60001 333 11013 21194 79999 555 19999 29999
AAXX 17064 71068 12974 80000 11068 21081 39456 40158 57018 60001 80002 333 11013 21147 70000 555 10000 20000 32919 40140
AAXX 17064 71069 16964 00000 11061 21067 39456 40174 56007 60001 333 11001 21148 70000
AAXX 17064 71076 16/// /2905 11133 21150 39730 40134 51024 60001 333 11119 21239 70000
AAXX 17064 71077 16/// /2503 11088 21104 39613 40163 50006 60001 333 11032 21174 70000
AAXX 17064 71079 11466 81303 11141 21161 39819 40108 57020 69901 77177 885// 333 11138 21283 48006 70006 90983 555 10012 20006
AAXX 17064 71081 46464 83506 11279 21317 39939 49951 56010 6///1 333 11243 21330 7////
AAXX 17064 71082 NIL
AAXX 17064 71083 11974 03115 11285 21328 30057 40101 56004 69901 77677 333 11224 21286 48052 79999 90973 555 19999 29999 33236 40122
AAXX 17064 71090 47416 83214 11187 21220 39920 49955 58031 6///1 745// 333 11152 21296 7//// 555 32022 40161
AAXX 17064 71091 460// /3511 11237 39698 49911 57026 6///1 333 7//// 555 30917 40081
AAXX 17064 71092 46661 30508 11206 39207 49875 56035 6///1 333 11206 21268 7//// 555 31225 40171
AAXX 17064 71093 460// /3620 11186 39373 49870 57038 6///1 333 11174 21214 7//// 555 30430 40062
AAXX 17064 71094 46008 /0304 11124 38925 49809 56029 6///1 333 11095 21207 7//// 555 31127 40221
AAXX 17064 71095 46564 81214 11137 21173 39883 49963 50004 6///1 333 11109 21201 7//// 555 30831 40102
AAXX 17064 71101 160// /2707 30092 56001 60001 333 70000
AAXX 17064 71104 NIL
AAXX 17064 71108 11256 80202 10053 20048 30228 40302 58006 69901 70252 885// 333 10067 20040 70038 90941 555 10000 20000
AAXX 17064 71109 11474 81511 10073 20056 30188 40215 51005 60141 76166 885// 333 10074 20040 70424 90983 555 10000 20000 31121 40120
AAXX 17064 71624 11674 63312 11012 21066 30008 40223 50003 69921 72622 86500 333 10051 21013 41997 70002 90931 555 10002 20002 32831 40071
AAXX 17064 71893 12580 81418 10078 20057 30244 40276 50000 60001 885// 333 10079 20053 70012 555 10000 20000 31426 40151
AAXX 17064 71894 17/// /1016 10085 20085 30255 40264 52001 60041 7//4/ 333 10089 20065 70258 555 30728 40202
AAXX 17064 71896 17258 81916 10007 20000 39335 40171 58016 60071 76144 333 10009 21050 70149
AAXX 17064 71897 11132 81445 10052 20046 3//// 4//// 57026 60141 76362 887XX 333 10078 20052 70846 90983
AAXX 17064 71898 160// ///// 10051 56009 69951 333 10070 20015 70045
AAXX 17064 71899 11766 80906 10064 20064 3//// 4//// 50000 60081 76164 8802/ 333 10079 20040 70114 90973
AAXX 17064 71902 NIL
AAXX 17064 71905 NIL
AAXX 17064 71906 11974 02511 11179 21213 39960 40011 56005 69901 70177 333 11079 21184 48015 70036 90963 555 10036 20036
AAXX 17064 71907 17004 93015 11153 21174 30002 40035 56001 69951 745// 333 11138 21159 70005 555 32730 40182
AAXX 17064 71909 16964 03606 11225 21266 39826 49870 56013 60001 333 11117 21233 70000
AAXX 17064 71910 46958 03117 11190 21207 39848 49911 55000 6///1 333 11155 21195 7//// 555 30325 40061
AAXX 17064 71911 47816 82814 11287 39977 40036 56013 6///1 745// 333 11234 21292 7//// 555 33029 40072
AAXX 17064 71912 11466 81404 11158 21183 39937 40128 58026 69901 77122 885// 333 11144 21295 47012 79999 90942 555 19999 29999
AAXX 17064 71915 NIL
AAXX 17064 71917 11974 00000 11396 21437 30097 40112 57001 69901 776// 333 11361 21407 43013 79999 90999 555 19999 29999
AAXX 17064 71922 12974 02708 11080 21093 39666 40143 52015 60001 333 11054 21186 47030 70006 555 10008 20006
AAXX 17064 71924 NIL
AAXX 17064 71925 11569 13008 11292 21336 30077 40120 58006 69901 77677 81500 333 11279 21312 42017 79999 90983 555 19999 29999
AAXX 17064 71926 11974 03002 11287 21336 30091 40116 58003 69901 77673 333 11225 21294 48043 79999 90931 555 19999 29999 33227 40141
AAXX 17064 71928 16/// /1304 11112 21132 39019 40213 58009 60001 333 11025 21123 70000
AAXX 17064 71043 11580 30000 11277 21328 30021 40119 57007 69901 77671 82570 333 11229 21282 48021 79999 90983 555 19999 29999
AAXX 17064 71045 16/// /0603 11122 21139 39220 54000 60001 333 7////
AAXX 17064 71050 46/// /0101 11053 21059 39107 40200 56013 6///1 333 11008 21064 7////
AAXX 17064 71051 NIL
AAXX 17064 71052 NIL
AAXX 17064 71066 12974 80000 11183 21215 39715 40151 55002 60001 333 11013 21194 79999 555 19999 29999
AAXX 17064 71068 12974 80000 11068 21081 39456 40158 57018 60001 80002 333 11013 21147 70000 555 10000 20000 32919 40140
AAXX 17064 71069 16964 00000 11061 21067 39456 40174 56007 60001 333 11001 21148 70000
AAXX 17064 71076 16/// /2905 11133 21150 39730 40134 51024 60001 333 11119 21239 70000
AAXX 17064 71077 16/// /2503 11088 21104 39613 40163 50006 60001 333 11032 21174 70000
AAXX 17064 71079 11466 81303 11141 21161 39819 40108 57020 69901 77177 885// 333 11138 21283 48006 70006 90983 555 10012 20006
AAXX 17064 71081 46464 83506 11279 21317 39939 49951 56010 6///1 333 11243 21330 7////
AAXX 17064 71082 NIL
AAXX 17064 71083 11974 03115 11285 21328 30057 40101 56004 69901 77677 333 11224 21286 48052 79999 90973 555 19999 29999 33236 40122
AAXX 17064 71090 47416 83214 11187 21220 39920 49955 58031 6///1 745// 333 11152 21296 7//// 555 32022 40161
AAXX 17064 71091 460// /3511 11237 39698 49911 57026 6///1 333 7//// 555 30917 40081
AAXX 17064 71092 46661 30508 11206 39207 49875 56035 6///1 333 11206 21268 7//// 555 31225 40171
AAXX 17064 71093 460// /3620 11186 39373 49870 57038 6///1 333 11174 21214 7//// 555 30430 40062
AAXX 17064 71094 46008 /0304 11124 38925 49809 56029 6///1 333 11095 21207 7//// 555 31127 40221
AAXX 17064 71095 46564 81214 11137 21173 39883 49963 50004 6///1 333 11109 21201 7//// 555 30831 40102
AAXX 17064 71101 160// /2707 30092 56001 60001 333 70000
AAXX 17064 71104 NIL
AAXX 17064 71108 11256 80202 10053 20048 30228 40302 58006 69901 70252 885// 333 10067 20040 70038 90941 555 10000 20000
AAXX 17064 71109 11474 81511 10073 20056 30188 40215 51005 60141 76166 885// 333 10074 20040 70424 90983 555 10000 20000 31121 40120
AAXX 17064 71864 NIL
AAXX 17064 71865 16/// /2611 11066 21093 39484 40177 53002 60001 333 11033 21118 70000 555 32229 40002
AAXX 17064 71866 46964 02509 11083 21110 39572 40201 52004 6///1 333 11028 21126 7//// 555 32117 40211
AAXX 17064 71867 11474 83013 11060 21072 39768 40111 53003 60021 77072 885// 333 11052 21216 48025 70016 90917 93103 555 10026 20016 31717 40170
AAXX 17064 71868 16/// /2710 11054 21086 39687 40136 53001 60001 333 11046 21210 70000 555 32017 40001
AAXX 17064 71869 12974 02909 11039 21090 39636 40170 52012 60001 333 11030 21217 79999 555 19999 29999
AAXX 17064 71871 15966 02710 11056 21080 39377 40199 50002 60001 333 10013 21132 70000
AAXX 17064 71877 12974 12912 10046 21050 38929 40205 57005 60001 80001 333 10062 21082 70000 555 10000 20000 32722 40021
AAXX 17064 71878 12974 00000 11108 21120 39121 40226 58007 60001 333 11012 21119 70000 555 10000 20000
AAXX 17064 71879 16964 02104 11013 21064 39371 40185 58011 60001 333 10009 21089 70000
AAXX 17064 71880 12782 80000 11014 21027 39175 40309 57003 60001 885// 333 11013 21094 70000 555 10000 20000
AAXX 17064 71882 160// /1409 10012 20001 39758 40308 58006 69951 333 10014 21013 70030 555 31519 40221
AAXX 17064 71883 46/// /0000 11018 21021 39442 40278 56010 6///1 333 11016 21041 7////
AAXX 17064 71887 12586 81412 10017 21008 39846 40276 56008 60001 82572 333 10023 20026 70008
AAXX 17064 71889 12574 81816 10008 21025 39895 40323 58002 60001 8158/ 333 10011 21006 70002 555 10002 20002 31823 40011
AAXX 17064 71891 16964 02214 10088 20024 39975 40251 57007 60001 333 10099 21014 70005 555 32137 40003
AAXX 17064 71892 11562 80707 10066 20056 30295 40300 57005 69921 76162 885// 333 10072 20047 70084 90921 555 10000 20000
AAXX 17064 71930 NIL
AAXX 17064 71931 16/// /2626 10046 20022 39861 49873 53005 60001 333 10079 21012 70000 555 32242 40043
AAXX 17064 71934 11361 83003 11133 21149 39883 40148 50006 69901 77177 885// 333 11100 21197 47020 79999 90973 555 19999 29999
AAXX 17064 71935 NIL
AAXX 17064 71936 11474 50000 11197 21225 39868 40137 57008 69901 77177 85500 333 11152 21206 48020 79999 90983 555 19999 29999
AAXX 17064 71937 NIL
AAXX 17064 71938 11766 82403 11201 21239 30097 40128 56007 69901 77177 8853/ 333 11201 21315 45023 79999 90983 555 19999 29999
AAXX 17064 71940 11480 72207 10005 21003 39346 40156 57021 69901 78072 86570 333 10025 21101 44007 79999 90915 555 19999 29999 32430 40101
AAXX 17064 71943 12974 81710 10006 21036 39292 40132 57026 60001 8807/ 333 10012 21040 70000 555 10000 20000 32225 40091
AAXX 17064 71944 160// ///// 11038 58031 60001 333 11038 21075 70000
AAXX 17064 71945 12974 20000 11156 21201 39629 40116 58014 60001 82071 333 11109 21220 70000 555 10000 20000
AAXX 17064 71946 11974 00000 11255 21282 39892 40116 57016 69901 70070 333 11163 21258 48034 79999 90941 555 19999 29999
AAXX 17064 71948 46058 /2904 11268 30015 40133 56006 6///1 333 11224 21275 7////
AAXX 17064 71949 46/// /1203 11104 21117 39176 40062 58008 6///1 333 11092 21187 7////
AAXX 17064 71951 11132 80000 11027 21029 39864 40135 57025 60021 76677 887// 333 11024 21053 40043 70054 90983 555 10054 20044 30218 40120
AAXX 17064 71957 47440 81003 11242 21308 30030 40123 57007 6///1 745// 333 11235 21272 7////
AAXX 17064 71964 12986 21715 11022 21081 39192 40045 50001 60001 82070 333 11006 21057 70000 555 10000 20000 31725 40021
AAXX 17064 71966 16/// /0000 11275 21307 39600 40083 50002 60001 333 11160 21279 70000
AAXX 17064 71968 470// /3009 11249 30050 40117 58008 6///1 745// 333 11235 21261 7////
AAXX 17064 71726 16/// /2905 11152 21173 39642 40203 58003 60001 333 10003 21152 70008 555 32924 40121
AAXX 17064 71727 11569 83111 11105 21149 39982 40184 55002 69901 77182 885// 333 10009 21110 48024 70038 90937 555 10020 20020 33134 40171
AAXX 17064 71728 11682 63115 11134 21175 39971 40199 52005 69901 72272 86500 333 10038 21134 44997 70008 90957 555 10008 20008
AAXX 17064 71730 11574 13508 11150 21170 39819 40262 50005 69901 70271 81500 333 10003 21150 46997 70002 90933 555 10004 20002
AAXX 17064 71731 11474 70107 11127 21151 39779 40247 51006 69901 78571 87500 333 10004 21138 43001 70010 90917 555 10010 20010 33625 40100
AAXX 17064 71735 NIL
AAXX 17064 71738 NIL
AAXX 17064 71739 42974 12704 11198 21229 39883 40267 54000 6//// 81070 333 11088 21199 4//// 7//// 555 1//// 2//// 33216 40140
AAXX 17064 71749 16964 02502 11220 21230 30031 40292 56012 60001 333 11117 21227 70000
AAXX 17064 71799 12483 80000 10077 20058 30274 40298 57001 60001 888// 333 10082 20042 70012 555 10000 20000
AAXX 17064 71800 17/// /2424 10045 20035 39991 40023 53024 60031 7//4/ 333 10064 21001 70108 555 31847 40023
AAXX 17064 71801 11574 12423 10034 20017 39805 49976 53011 60051 70265 81500 333 10073 21031 70108 90927 555 10002 29999 31842 40202
AAXX 17064 71803 11374 52522 10029 20008 39737 49920 53041 60031 72165 84570 333 10067 21019 41997 70072 90983 555 10010 20010 31843 40172
AAXX 17064 71807 NIL
AAXX 17064 71808 NIL
AAXX 17064 71809 11466 82515 10013 21003 39934 49961 53049 60021 76166 885// 333 10078 20009 41997 70058 90973 555 19999 29999 32023 40110
AAXX 17064 71810 16/// /3008 11108 21158 30030 40097 52039 60001 333 10025 21108 70003 555 33325 40221
AAXX 17064 71811 NIL
AAXX 17064 71813 NIL
AAXX 17064 71814 16/// /3220 11072 21111 39978 49988 53064 60001 333 10032 21072 70123 555 31931 40102
AAXX 17064 71815 11474 73020 10006 21031 39981 40011 52053 60041 70288 87500 333 10074 20005 41997 70098 90942 555 19999 29999 32937 40051
AAXX 17064 71603 12574 53212 10022 21027 30094 40147 51007 60001 85500 333 10106 20022 70002 555 10000 20000 32727 40171
AAXX 17064 71607 16/// /2803 11022 21057 30116 40149 50005 60001 333 10091 21022 70000 555 32729 40172
AAXX 17064 71609 12974 03309 11032 21091 30007 40142 51013 60001 333 10093 21032 70021 555 10000 20000 33129 40202
AAXX 17064 71610 17666 83107 11042 21070 39870 40169 56002 60001 771// 333 10083 21043 70023
AAXX 17064 71621 16764 63110 11008 21064 30099 40206 51010 60001 333 10065 21008 70000 555 32630 40082
AAXX 17064 71623 NIL
AAXX 17064 71624 11674 63312 11012 21066 30008 40223 50003 69921 72622 86500 333 10051 21013 70002 90932 555 10002 20002 32831 40071
AAXX 17064 71625 16964 03507 11097 21172 30071 40237 51013 60001 333 10045 21099 70000 555 33421 40161
AAXX 17064 71627 11769 82808 11036 21096 30147 40192 53003 69901 78511 885// 333 10091 21038 79999 90910 555 19999 29999
AAXX 17064 71628 11560 23313 11065 21108 30065 40209 52008 69901 72222 82570 333 10075 21065 4-4001 70006 909/6 555 10099 20099 33319 40002
AAXX 17064 71630 NIL
AAXX 17064 71631 17/// /3208 11049 21073 39720 40230 50005 69961 7//4/ 333 10002 21049 70006 555 32925 40071
AAXX 17064 71633 NIL
AAXX 17064 71705 12574 22713 11026 21078 30037 40125 51024 60001 82500 333 10094 21028 70044 555 10000 20000 32829 40192
AAXX 17064 71706 12674 33104 11017 21064 30053 40113 51032 60001 82502 333 10095 21018 70094 555 10000 20000 31829 40071
AAXX 17064 71707 11574 82815 10019 21034 30006 40082 52041 69901 78582 885// 333 10096 20018 70218 90916 555 19999 29999 31836 40091
AAXX 17064 71709 NIL
AAXX 17064 71711 NIL
AAXX 17064 71714 16/// /3004 11078 21130 30103 40197 55003 60001 333 10063 21085 70024 555 33024 40191
AAXX 17064 71715 16/// /3309 11098 21150 39985 40171 53001 60001 333 10063 21100 70012 555 32925 40181
AAXX 17064 71718 11574 82717 11087 21136 30093 40159 53008 69901 78588 885// 333 10064 21088 41997 70014 90973 555 10006 20006
AAXX 17064 71719 NIL
AAXX 17061 33088 11597 81905 10033 20021 39721 49909 57011 69932 76162 885// 333 20021
AAXX 17061 33177 11568 71103 10046 20034 39646 49878 55000 60012 70282 87900 333 20025
AAXX 17061 33261 11396 81506 10037 20027 39852 40034 57004 60022 71082 889// 333 20032 87709
AAXX 17061 33275 11397 81508 10034 20021 39846 40069 57003 60032 76186 8772/ 333 20018 87709
AAXX 17061 33301 11697 81505 10034 20016 39628 49905 57010 69962 70162 8355/ 333 20013
AAXX 17061 33325 32397 81505 10040 20014 39689 49953 57009 885// 333 20022 86708
AAXX 17061 33377 11214 81604 10041 20039 39845 40038 57001 60032 75165 886// 333 20040 88704
AAXX 17061 33415 11496 71607 10024 20008 39520 49914 57010 69942 71082 85330 333 20018 85916
AAXX 17061 33429 11597 71404 10024 20014 39516 49935 57012 69912 78082 84330 333 20018 84920
AAXX 17061 33466 11458 81704 10070 20054 39815 49999 57005 60022 71052 885// 333 20068 87713
AAXX 17061 33526 11570 81406 10049 20008 39561 49893 57011 69902 70282 885// 333 20021 88630
AAXX 17061 33562 31396 81507 10033 20018 39601 49958 57016 71022 8665/ 333 20020 86708
AAXX 17061 33614 11396 81305 10050 20045 39936 40040 57006 60022 75165 886// 333 20050 88707
AAXX 17061 33761 11323 81907 10040 20038 39788 40010 57004 69902 71042 886// 333 20040 88707
AAXX 17061 33902 11596 81603 10078 20062 39982 40048 54000 69932 71022 885// 333 20076
AAXX 17061 33983 31496 80903 10057 20048 30028 40088 53007 71011 886// 333 20042 88710
AAXX 17061 34415 32470 81606 10035 20009 30026 40123 53010 886// 333 20023
AAXX 17061 34523 32497 81106 10016 20005 30080 40157 53006 8772/ 333 20016 87712
AAXX 17061 34712 32460 81006 10028 20025 30038 40124 53011 886// 333 20021 88714
AAXX 17061 33317 32497 82712 10031 20013 39590 49922 57013 8555/ 333 20023
AAXX 17061 33345 11496 81604 10065 20049 39786 49987 57008 69932 71022 886// 333 20050 88711
AAXX 17064 60715 11558 72710 10141 20103 30114 40121 53008 69934 76261 84880 333 20138 83823 85359 91017 91125
AAXX 17064 60723 11560 72208 10136 20118 39947 40136 58002 69904 721// 8428/ 333 20095 70000 84820 84360
AAXX 17064 60725 12560 72610 10140 2//// 39965 40142 58003 60004 83282 333 20119 83823 83360
AAXX 17064 60735 12560 62304 10143 20029 30051 40133 53001 60004 81202 333 20129 81823 86070
AAXX 17064 60745 12560 31802 10060 20042 39789 40168 58002 60004 81502 333 20060 81630 83070
AAXX 17064 60748 NIL
AAXX 17064 60750 22960 32610 10118 20050 30117 40142 53002 60004 80002 333 20087 83070
AAXX 17064 60760 12960 0//07 10073 20034 30058 40165 58004 60004 333 20068
AAXX 17064 60765 13960 32510 10103 20060 30154 40160 53003 60004 80002 333 20098 92436 925//
AAXX 17064 60767 12958 42210 10086 20034 30020 40167 53005 60004 80002 333 20084 84070
AAXX 17064 60769 12458 22719 10144 20081 30143 40147 55001 60004 81202 333 20144 81816
AAXX 17061 02019 05/99 /3402 11084 21089 39299 49926 53008 60002 333 11055 21110 60005 70000 90710 91102
AAXX 17061 02081 07/68 /2003 11050 21058 39549 49955 53014 69932 70071 333 11024 21050 60005 70003 90710 91108
AAXX 17061 02095 07350 /1401 11020 21025 39763 49967 53012 69942 71087 333 10004 21022 60005 70006 81/06 84/13 84/29 87/// 90710 91102
AAXX 17061 02101 45484 /1703 11011 21043 39368 49924 52008 8//// 333 11009 21031 87/20 88/25
AAXX 17061 02119 07499 /0501 11058 21061 39564 49952 51012 69912 70087 333 11058 21084 60005 70001 88/14 90710 91102
AAXX 17061 02124 07377 /0801 11030 21038 39418 49942 52010 69912 72275 333 11027 21059 69915 70001 88/08 90710 91103
AAXX 17061 02126 07264 /1001 11022 21022 39600 49938 53009 60012 77174 333 11018 21044 69905 70011 88/05 90710 91101
AAXX 17061 02151 35284 81602 11039 21039 39618 49955 53007 60002 333 11038 21061 60005 70000 82/05 88/10 91002 90710 91102 90710 91202
AAXX 17061 02186 07359 81604 10007 20006 39935 49960 53009 69972 78087 333 10017 21008 69925 70008 84/09 86/12 88/28 91006 90710 91106 90710 91204
AAXX 17061 02197 07/57 /1302 10010 20010 39952 49970 52011 60012 71061 333 10023 20010 60005 70025 90710 91106
AAXX 17061 02207 05/99 /1601 11104 21124 39205 49911 53013 60002 333 11009 21104 60005 70000 90710 91103
AAXX 17061 02219 07/63 /1104 11027 21035 39251 49915 53012 69902 70070 333 11022 21040 60005 70000 90710 91108
AAXX 17061 02226 45984 /0501 11053 21059 39467 49923 52011 8//// 333 11002 21055
AAXX 17061 02243 07/58 /3500 11010 21010 39660 49927 52012 69952 72487 333 11006 21021 69905 70005 90710 91101
AAXX 17061 02269 07667 /1306 10038 20017 60062 70086 333 10044 20021 60005 70058 84/42 90710 91108
AAXX 17061 02287 05563 /1101 10002 21009 39939 49949 52009 69912 333 10030 20002 60005 70003 85/21 86/41 87/56 90710 91102
AAXX 17061 02297 07478 /1703 10018 20012 39910 49955 52011 60022 70086 333 10025 20012 60005 70015 87/16 90710 91107
AAXX 17061 02308 05381 /1102 11046 21057 39053 49911 52008 69902 333 11024 21048 60005 70000 88/09 90710 91103
AAXX 17061 02327 07/64 /2401 11023 21025 39485 49919 53008 69942 72487 333 11004 21024 69915 70004 90710 91102
AAXX 17061 02355 07470 /1104 10027 20021 39902 49914 53005 69972 78186 333 10030 20014 69915 70010 83/12 85/18 87/57 90710 91108
AAXX 17061 02366 47364 /3302 10006 20006 39918 49924 50008 781// 8//// 333 10008 21001 88/08
AAXX 17061 02407 07299 /0402 11001 21010 39533 49899 53006 69922 70087 333 10000 21004 60005 70004 88/06 90710 91105
AAXX 17061 02418 45483 /3603 10009 20001 39754 49884 53008 8//// 333 10012 20004 88/11
AAXX 17061 02435 47059 /0301 10004 21004 39708 49895 51003 785// 8//// 333 10008 20000 88/01
AAXX 17061 02440 07117 /0000 10005 20003 60022 72087 333 10007 21002 60005 70024 88/01 90710 91102
AAXX 17061 02452 07266 /0304 10002 20002 69972 70087 333 10007 20000 60005 70017 87/03 90710 91108
AAXX 17061 02456 07750 /0402 10014 20012 39843 49885 58005 69982 71061 333 10021 21009 60005 70014 83/50 88/56 90710 91104
AAXX 17061 02469 07/62 /0606 10024 20012 60022 76160 333 10028 21004 69925 70045 90710 91111
AAXX 17061 02498 07350 /0714 10035 20023 39840 49856 58016 69922 76160 333 10050 20033 69925 70019 88/09 90710 91117
AAXX 17061 02518 46/// /0107 10027 20017 333 10037 20021 90710 91109
AAXX 17061 02520 35483 80107 10033 20012 39805 49871 53008 60002 333 10034 20015 60005 70002 85/13 87/22 88/30 91010 90710 91110 90710 91207
AAXX 17061 02550 47369 /0107 10021 20019 39567 49838 50005 781// 8//// 333 10022 20012 81/08 83/13 85/15 88/19
AAXX 17061 02562 07363 80206 10017 20013 39728 49842 56002 69922 76151 333 10027 20014 69925 70004 88/07 91009 90710 91110 90710 91207
AAXX 17061 02563 07458 /0509 10034 20028 39794 49816 57010 60032 76260 333 10047 20030 60015 70049 88/12 90710 91115
AAXX 17061 02565 07321 /3605 10007 20003 39681 49799 57003 60102 77176 333 10035 20007 60025 70102 89/08 90710 91108
AAXX 17061 02589 07358 /0912 10031 20024 39795 49816 56023 60052 76160 333 10045 20031 60015 70053 87/09 90710 91122
AAXX 17061 02590 47235 /0706 10011 20009 39727 49788 56016 767// 8//// 333 10038 20010 86/06 88/12
AAXX 17061 02618 07/63 /3404 10020 20011 39675 49837 53013 60002 70010 333 10025 20016 60005 70002 90710 91108
AAXX 17061 02664 01360 83506 10015 20005 39694 49764 53006 60012 76877 876// 333 10037 20006 32/// 69905 70012 87709 91012 90710 91112 90710 91207
AAXX 17061 02679 07257 /0808 10031 20028 39710 49754 56010 60112 75165 333 10047 20021 69945 70106 88/06 90710 91113
AAXX 17061 26313 33/// /1213 10039 20023 49835 57016 333 20026 91018 91121
AAXX 17061 26346 11397 81104 11006 21007 49909 57012 69922 72642 886// 333 21006 47001 88708 91110
AAXX 17061 26406 11496 81006 10018 20009 49780 57005 60052 78082 889// 333 20011 86710 91117
AAXX 17061 26416 33/// /1207 10020 20009 49811 57012 333 21004 91012 91116
AAXX 17061 26424 32497 81309 10022 20011 49825 57012 8695/ 333 21002 91012 91115
AAXX 17061 26544 11396 81205 10008 20003 49880 57025 69992 78582 889// 333 20006 85707 91111
AAXX 17061 26106 NIL
AAXX 17061 26106 11/97 70905 10021 20006 49848 57015 60022 78082 87900 333 20011 91010 91116
AAXX 17064 71867 11474 83013 11060 21072 39768 40111 53003 60021 77072 885// 333 11052 21216 48025 70016 90917 93103 555 10026 20016 31717 40000
AAXX 17064 16614 12560 32109 10120 20004 39253 40009 57061 60002 83500 333 20022 30/// 55069 70000 90730 91118 555 10000 30119 20000 89038 99095
AAXX 17061 01037 16/// /1606 11016 21058 39918 49923 53013 60002 333 21032 70000 91112
AAXX 17061 01065 11689 80102 11021 21038 39791 49953 55001 60002 70222 888// 333 21029 70000 91108
AAXX 17061 01114 16/// /3601 11011 21055 39871 49881 52013 60002 333 21040 70000 91105
AAXX 17061 01245 11983 00501 11076 21130 39197 49915 52011 60002 70100 333 21076 49032 70000 91107
AAXX 17061 01344 16/// ///// 11059 21068 60032 333 21133 4/085 70025
AAXX 17061 01364 16/// /1002 11160 21177 38793 49964 50007 69922 333 21242 4/038 70019 91104
AAXX 17061 01156 16/// /1206 10035 21024 39870 49880 53010 60002 333 20031 70003 91109
AAXX 17061 01378 16/// /0101 11022 21031 39616 49908 53009 60032 333 21022 70073 91102
AAXX 17061 01422 16/// /1103 10001 21013 69922 333 21005 70004 91105
AAXX 17061 01033 46/// /1705 10025 21028 39863 49894 53007 333 20024 91111
AAXX 17061 01406 46/// /1405 10021 20015 39884 49902 52003 333 20013 91108
AAXX 17061 01442 11989 13403 11022 21056 39654 49913 52009 60002 70110 80002 333 21023 70002 91106
AAXX 17061 01135 16/// /1702 10005 21040 39749 49900 52012 60002 333 21003 70000 91109
AAXX 17061 01192 16/// /2201 11024 21082 60002 333 21025 4/006 70000 91107
AAXX 17061 01253 16/// /1602 11091 21108 60002 333 21105 4/027 70000 91105
AAXX 17061 01455 16/// /3401 11048 21059 39600 49914 52010 69962 333 21048 70016 91105
AAXX 17061 01481 16/// /3502 10004 21011 39868 49900 52010 60002 333 20001 70048 91107
AAXX 17064 71867 11474 83013 11060 21072 39768 40111 53003 60021 77072 885// 333 11052 21216 48025 70016 90917 93103 555 10026 20016 31717 40000
AAXX 17064 65352 31940 70406 10185 21010 3//// 4//// 70522 80002 333 20185 5//// 87076
AAXX 17064 65361 32956 70404 10188 20005 3//// 4//// 80002 333 20185 5//// 87076
AAXX 17064 65376 32957 70000 10217 20070 39653 40112 80002 333 20216 59003 87076
AAXX 17064 65387 31925 70202 10220 20205 30078 40096 71022 80002 333 20214 59007 87073
AAXX 17061 15501 11568 80000 10043 20038 39894 49938 56019 69952 76162 8802/ 333 10053 20038 70005 555 31/// 59701 66299
AAXX 17061 15505 11780 72309 10148 21003 39564 49919 57026 69912 70182 87300 333 10148 20088 70001 91125 555 31103 536// 60199 70600
AAXX 17061 15511 11570 82701 10038 20026 39913 49952 57029 69922 76162 8802/ 333 10079 20033 55064 70002 555 31/// 59200 68099
AAXX 17061 15514 12570 82305 10122 20009 39904 49938 57036 60002 885// 333 10123 20064 70000 555 31/// 546//
AAXX 17061 15530 12670 51403 10105 21009 39738 49970 56018 60002 82530 333 10109 20013 70000 555 31103 545//
AAXX 17061 15533 12570 60705 10094 20012 39890 49921 57026 60002 86900 333 10094 20051 70000 555 31/// 557//
AAXX 17061 15550 12970 81807 10071 20033 39944 49963 57026 60002 8802/ 333 10071 20048 70000 555 30/// 577//
AAXX 17061 15561 12470 61810 10106 20086 30008 40015 57030 60002 86500 222// 00098 2//02 333 10110 20052 70004 555 31005 587// 92035 92438
AAXX 17061 15562 12474 81812 10100 20071 39941 40012 57029 60002 885// 222// 2//02 333 10100 20080 55003 70014 555 31006 582// 92036 92438
AAXX 17061 15600 11284 81888 11008 21024 38091 48303 57014 60002 70222 885// 333 11008 21025 44003 55/// 91188 555 589//
AAXX 17061 15601 12782 71409 10106 20002 39352 49951 57027 60002 87300 333 10106 20016 55060 70000 555 30101 549//
AAXX 17061 15605 12772 61105 10084 20014 39141 49961 57022 60002 82570 333 10088 21003 70000 555 31102 562//
AAXX 17061 15628 12670 60000 10022 20006 39752 40011 57020 60002 86200 333 10037 20002 55061 70000 555 31103 589//
AAXX 17061 15642 12670 71805 10092 20075 39833 49998 57025 60002 82532 333 10094 20052 55014 70035 555 31001 589//
AAXX 17061 15661 12570 50000 10084 20058 39993 40028 58026 60002 85500 333 10085 20055 70060 555 31005 583// 92012 92418
AAXX 17061 15726 11472 71902 10003 21039 38116 48379 57012 60002 70122 84572 333 10009 21019 41999 55050 70018 555 574//
AAXX 17064 60710 11560 72717 10143 20127 30048 40127 53007 60034 76061 8688/ 333 20104 70026 84820 83630
AAXX 17064 60714 11558 73519 10131 2//// 30121 40127 53011 60054 78086 878// 333 20107 70050 85820 84630
AAXX 17064 60720 13558 62306 10158 20122 30073 40106 58001 60004 86800 333 20128 84820 83630
AAXX 17064 60728 13562 62810 10156 20125 30023 40115 53001 60004 84502 333 20129 84626 83070
AAXX 17064 60729 13550 22814 10143 20091 39946 40131 58008 60004 82500 333 20102 82626
AAXX 17064 60731 05660 52105 10142 20053 30117 40124 53002 60004 333 10173 20101 3//// 59135 5///4 60007 70000 83/46 85/50 91010 91119
AAXX 17064 60732 13558 72510 10116 20018 39537 40143 58002 60004 878// 333 20092 83820 85626
AAXX 17064 60734 13960 63206 10126 20046 39615 40134 51008 60004 84082 333 20095 84360 83070
AAXX 17064 60738 12560 50000 10084 20016 38908 48477 53002 60004 82202 333 20077 82823 84070
AAXX 17064 60739 13656 63210 10117 21014 39330 40146 52002 60004 81538 333 20065 81640 86270 92469
AAXX 17064 60740 12958 52208 10127 20034 30126 40128 53004 60004 80002 333 20123 85070
AAXX 17064 60742 NIL
AAXX 17064 60764 13960 31104 10035 20014 30118 40172 55003 60004 80002 333 20032 83070
AAXX 17064 60770 13975 32712 10125 20072 30018 40157 54000 60004 80002 333 20120 83070
AAXX 17064 60772 13962 22314 10160 20061 39899 40155 52001 60004 80002 333 20130 82070
AAXX 17064 60775 13965 22514 10097 20021 39814 40174 58006 60004 80002 333 20097 55086 82070
AAXX 17064 60780 13960 01804 10055 20025 39892 40208 57003 60004 333 20053
AAXX 17064 64600 31930 70000 10168 20154 39464 40117 71022 80002 333 01400 20150 55029 59002 87080
AAXX 17064 64601 31930 13616 10180 20013 39003 48512 70511 81031 333 01700 20180 59001 81365
AAXX 17064 64605 32958 40000 10158 20135 39367 40110 84030 333 01100 20139 58004 84365
AAXX 17064 64610 32970 00402 10140 20136 3//// 4//// 333 00900 20128 5////
AAXX 17064 64650 31930 53202 10186 20170 39705 40118 71011 80002 333 01500 20176 55005 58000 85080
AAXX 17064 64654 32970 03006 10162 20104 39549 40123 333 01300 20150 59002
AAXX 17064 64655 32960 00000 10158 20144 39472 40120 333 01200 20144 58001
AAXX 17064 64656 31940 50000 10193 20176 39566 40119 71011 85030 333 01500 20166 58003 85365
AAXX 17064 64659 NIL
AAXX 17064 64660 32958 01404 10184 20152 39578 40105 333 01300 20155 59004
AAXX 17064 64662 32965 30000 10192 20181 39603 40100 80002 333 01800 20182 59003 83080
AAXX 17064 64665 32970 30000 10226 20202 3//// 4//// 83030 333 01100 20205 55/// 5//// 83365
AAXX 17064 71951 11132 80000 11027 21029 39864 40135 57025 60021 76677 887// 333 11024 21053 40043 70064 90983 555 10054 20044 30218 40120
AAXX 17064 71951 11132 80000 11027 21029 39864 40135 57025 60021 76677 887// 333 11024 21053 40043 70064 90983 555 10054 20044 30218 40120
AAXX 17064 60020 11560 50403 10177 20122 30230 40275 56005 60004 702// 85500 333 20177 55085 924/7
AAXX 16124 91636 11599 50914 10274 20247 40083 60001 71422 83208 333 10314 562/9
AAXX 16124 91636 11599 50914 10274 20247 40083 60001 71422 83208 333 10314 562/9
AAXX 17061 02464 45478 /0504 10033 20013 39840 49858 56008 8//// 333 10033 20015 85/12 88/18
AAXX 17061 02500 07382 /3606 10018 20002 39846 49888 52008 69912 70086 333 10031 20017 60005 70002 81/09 88/19 90710 91109
AAXX 17061 02513 NIL
AAXX 17061 02615 07467 /3414 10042 20022 39820 49825 53029 60022 76186 333 10045 20033 69925 70029 87/16 87/35 90710 91117
AAXX 17061 02635 07/64 /3406 10032 20015 60032 76186 333 10040 20029 69925 70040 90710 91112
AAXX 17061 01047 11680 82203 11030 21042 39566 49938 53002 69912 70272 8802/ 333 21044 48023 70002
AAXX 17061 01241 16/// /1205 11004 21028 39873 49884 53015 6//// 333 21006 91110
AAXX 17061 01359 11889 80000 11137 21157 39003 49953 52006 60002 70320 8801/ 333 21193 48044 70032 91104
AAXX 17061 01400 41599 33212 10074 21013 49958 52012 70280 82360 22200 06082 10606 70031 333 91116
AAXX 17061 01212 16/// /2008 10037 20004 39866 49881 53016 6//// 333 20036 91112
AAXX 17061 01300 41497 73414 10043 20020 49897 52014 78082 849// 22200 02062 10807 70033 333 91116
AAXX 17061 80400 NIL
AAXX 17061 80403 11460 30000 10266 20239 30104 40123 60061 70266 83200 333 31/// 56900 58017 83813 555 10126
AAXX 17061 80405 NIL
AAXX 17061 80407 NIL
AAXX 17061 80410 NIL
AAXX 17061 80413 32460 30000 10213 20183 39624 40109 82530 333 30/// 56990 58002 82616 555 10142
AAXX 17061 80415 32460 30000 10244 20218 30067 40121 81528 333 30/// 56999 58012 81616 555 10123
AAXX 17061 80419 NIL
AAXX 17061 80421 NIL
AAXX 17061 80423 NIL
AAXX 17061 80428 32460 70502 10244 20216 39909 40091 8552/ 333 30/// 5699/ 58006 85617 555 10105
AAXX 17061 80432 NIL
AAXX 17061 80435 32960 33603 10248 20237 30014 40089 83040 333 31/// 56090 58005 555 10087
AAXX 17061 80438 32562 21101 10173 20172 38510 48507 81530 333 30/// 56990 59005 81633 555 10191
AAXX 17061 80444 32960 0//// 10250 2//// 30042 4//// 333 30/// 58007 555 10090
AAXX 17061 80447 32560 60000 10230 20225 39671 40091 865// 333 30/// 569// 58013 86620 555 10143
AAXX 17061 80448 32960 00000 10238 20221 3//// 4//// 333 30/// 5////
AAXX 17061 80450 32960 51102 10243 20229 30064 40119 80008 333 30/// 56009 58009 555 10116
AAXX 17061 80453 NIL
AAXX 17061 80457 NIL
AAXX 17061 80462 NIL
AAXX 17061 80402 NIL
AAXX 17061 80412 NIL
AAXX 17061 80416 NIL
AAXX 17061 80420 32460 20702 10253 20204 30102 40108 82500 333 30/// 56900 58010 82613 555 10121
AAXX 17061 80425 11460 80000 10248 20245 30083 40114 60051 70292 8247/ 333 31/// 5699/ 59002 82613 86460 555 10115
AAXX 17061 80426 11457 81601 10216 20215 39487 40131 60231 75065 889// 333 32/// 569// 58014 81916 88616 555 10162
AAXX 17061 80427 32960 03404 10244 20217 39860 40114 333 30/// 58010 555 10129
AAXX 17061 80431 NIL
AAXX 17061 80434 NIL
AAXX 17061 80437 32560 80000 10239 20238 30009 40094 885// 333 31/// 569// 58014 88620 555 10100
AAXX 17061 80440 32960 00701 10244 20213 39889 40097 333 30/// 58009 555 10109
AAXX 17061 80442 NIL
AAXX 17061 80472 32960 20501 10232 20210 39631 40104 80008 333 30/// 56009 58007 555 10133
AAXX 17061 80475 32560 80000 10220 20218 39754 40116 885// 333 31/// 569// 58008 88620 555 10136
AAXX 17061 80476 32360 3//// 10258 20247 30092 40122 82530 333 30/// 56990 58004 82610
AAXX 17061 80478 NIL
AAXX 17061 80479 NIL
BBXX A8QJ7 17064 99028 50301 41/98 11413 10260 20215 40108 58014 7//00 81/00 22213 2//// 3//// 4//// 5//// 80230
AAXX 17061 06447 16/// /2902 10008 20002 39908 40035 52034 60122 333 20002 3/100 91105 91204
AAXX 17063 61701 32960 20609 10168 20097 40125 80002 333 20166 50331 55055 59004 83070
AAXX 17063 61705 NIL
AAXX 17063 61707 NIL
AAXX 17063 61711 NIL
AAXX 17063 61712 32960 31807 10160 20052 4//// 83030 333 20140 50301 55006 5//// 83363
AAXX 17063 61717 NIL
AAXX 17063 61720 NIL
AAXX 17063 61721 NIL
AAXX 17063 61722 NIL
AAXX 17063 61731 NIL
AAXX 17063 61733 NIL
AAXX 17064 60060 32456 11804 10147 20111 40250 5//// 81500 333 20144 30008 81616 95300
AAXX 17061 33088 11597 81905 10033 20021 39721 49909 57011 69932 76162 885// 333 20021
AAXX 17061 33177 11568 71103 10046 20034 39646 49878 55000 60012 70282 87900 333 20025
AAXX 17061 33261 11396 81506 10037 20027 39852 40034 57004 60022 71082 889// 333 20032 87709
AAXX 17061 33275 11397 81508 10034 20021 39846 40069 57003 60032 76186 8772/ 333 20018 87709
AAXX 17061 33301 11697 81505 10034 20016 39628 49905 57010 69962 70162 8355/ 333 20013
AAXX 17061 33325 32397 81505 10040 20014 39689 49953 57009 885// 333 20022 86708
AAXX 17061 33377 11214 81604 10041 20039 39845 40038 57001 60032 75165 886// 333 20040 88704
AAXX 17061 33415 11496 71607 10024 20008 39520 49914 57010 69942 71082 85330 333 20018 85916
AAXX 17061 33429 11597 71404 10024 20014 39516 49935 57012 69912 78082 84330 333 20018 84920
AAXX 17061 33466 11458 81704 10070 20054 39815 49999 57005 60022 71052 885// 333 20068 87713
AAXX 17061 33526 11570 81406 10049 20008 39561 49893 57011 69902 70282 885// 333 20021 88630
AAXX 17061 33562 31396 81507 10033 20018 39601 49958 57016 71022 8665/ 333 20020 86708
AAXX 17061 33614 11396 81305 10050 20045 39936 40040 57006 60022 75165 886// 333 20050 88707
AAXX 17061 33761 11323 81907 10040 20038 39788 40010 57004 69902 71042 886// 333 20040 88707
AAXX 17061 33902 11596 81603 10078 20062 39982 40048 54000 69932 71022 885// 333 20076
AAXX 17061 33983 31496 80903 10057 20048 30028 40088 53007 71011 886// 333 20042 88710
AAXX 17061 34415 32470 81606 10035 20009 30026 40123 53010 886// 333 20023
AAXX 17061 34523 32497 81106 10016 20005 30080 40157 53006 8772/ 333 20016 87712
AAXX 17061 34712 32460 81006 10028 20025 30038 40124 53011 886// 333 20021 88714
AAXX 17064 48387 31558 61105 10208 20154 39184 40144 57020 71022 83556 333 58005 70000
AAXX 17064 68024 32560 50908 10230 20184 48530 52020 81584 333 20195
AAXX 17064 68070 32560 71105 10202 20185 48553 52017 87580 333 20195
AAXX 17064 40310 32960 20000 10047 21036 38973 48511 52006 80001 333 20002 30104 82070
AAXX 17061 14023 11798 82401 10021 20009 39645 49939 53030 60232 70262 885// 333 20011 31000 55000 70236 88656 555 20038 30046
AAXX 17061 14122 11465 82301 10005 20001 39751 49949 53029 60242 76176 885// 333 20001 44002 70244 82717 84627 88650 92885 93102
AAXX 17061 06431 16/// /3102 10046 20025 30019 40031 51031 60132 333 20025 3/101 91108 91205
AAXX 17061 06432 17/64 /2702 10017 20007 39966 40044 53033 60082 70087 333 20008 3/101 81/56 91111 91208
AAXX 17061 06458 17967 /2402 10025 20022 39881 40036 53038 60062 70086 333 20003 3/100 81/39 83/50 91106 91205
AAXX 17061 06465 17669 /2604 10031 20019 39960 40027 53037 60032 70086 333 20007 3/101 81/46 91107 91205
AAXX 17061 06496 37/13 /3105 11002 21007 39337 40018 53033 77187 333 21013 3/001 81/02 83/04 85/06 91109 91206
AAXX 17061 06428 17568 /9901 10035 20017 39992 40041 53033 60102 72186 333 20019 3/101 81/27 85/57 91109 91205
AAXX 17064 65351 32956 70408 10200 20024 3//// 4//// 80002 333 20190 5//// 87076
AAXX 17064 65355 31950 70814 10209 21042 39599 40114 70522 80002 333 20180 59006 87073
AAXX 17064 65357 31930 61404 10183 20044 39733 40125 70522 80002 333 20177 59002 86076
AAXX 17064 65380 32458 70000 10180 20174 3//// 4//// 84502 333 20176 5//// 84610 87076
AAXX 17061 48917 32598 60507 10300 20197 30097 40103 58013 82208 222// 00297 2//01 333 58000 82895 86299
AAXX 17061 48918 32470 70504 10272 20215 30091 40102 58024 879// 222// 00268 2//03 333 59001 82894 86995 91116 91502
AAXX 17061 48914 32598 70203 10301 20224 30093 40095 57027 82208 333 59002 82895 87299
AAXX 17061 48900 32497 30507 10307 20192 30081 40091 57029 83100 333 59003 83894
AAXX 17061 48919 01598 80512 10278 20230 30071 40093 58016 60013 70382 8222/ 22200 02275 2//05 333 59007 69921 82895 88499
AAXX 17061 48916 12598 70202 10284 20224 30045 40092 58019 60023 82208 333 59008 82895 87299
AAXX 17061 48845 01498 82501 10165 20136 30212 40219 57032 69963 70262 888// 333 59005 69921 85894 88697
AAXX 17061 48840 32498 80000 10181 20094 30210 40210 57031 888// 333 59007 83894 88696
AAXX 17061 78458 32466 30000 10228 20193 40182 57007 81230 333 10291 20184 31/// 56000 58010 81818
AAXX 17061 78460 31460 70000 10193 20184 40174 58010 70544 83570 333 10279 20172 31/// 56110 58005 83613 83458
AAXX 17061 78479 32466 40405 10230 20182 40144 56003 83230 333 10286 20233 30/// 56100 58012 83818
AAXX 17061 78485 32466 60305 10209 20179 40170 57001 84230 333 10295 20180 30/// 56100 58026 84816 83358
AAXX 17061 78486 32466 49902 10225 20191 40151 57010 82230 333 10300 20205 30/// 56000 58012 82818 83357
AAXX 17064 94299 46/// /1423 10284 20241 30075 40085
AAXX 17064 94300 46/// /2118 10301 20206 30032 40042
AAXX 17064 94302 46/// /2616 10362 20195 30027 40033
AAXX 17064 94312 46/// /3313 10310 20210 30040 40049
AAXX 17064 94313 NIL
AAXX 17064 94317 46/// /0508 10370 20103 39459 40026
AAXX 17064 94319 46/// /0507 10379 20157 39702 40023
AAXX 17064 94324 NIL
AAXX 17064 94326 46/// /3611 10277 20212 39430 40028
AAXX 17064 94327 46/// /0406 10289 20201 39693 40056
AAXX 17064 94332 46/// /2905 10286 20224 39679 40055
AAXX 17064 94333 NIL
AAXX 17064 94341 46/// /0404 10350 20158 39829 40058
AAXX 17064 94346 46/// /0515 10327 20167 39865 40079
AAXX 17064 94363 46/// /0912 10287 20172 39904 40118
AAXX 17064 94366 NIL
AAXX 17064 94367 46/// /1312 10276 20187 30089 40131
AAXX 17064 94374 46/// /0913 10267 20239 30123 40139
AAXX 17064 94388 46/// /1318 10255 20168 30147 40152
AAXX 17064 94393 46/// /1324 10254 30107 40119 55001
AAXX 17064 94394 46/// /1221 10244 30130 40138 56006
AAXX 17064 94403 46/// /2017 10272 20174 30037 40078
AAXX 17064 94429 46/// /2308 10328 20096 39605 40057
AAXX 17064 94430 46/// /2608 10346 20028 39481 40048
AAXX 17064 94449 46/// /2508 10288 20074 39559 40076
AAXX 17064 94451 NIL
AAXX 17064 94461 46/// /3110 10310 20154 39392 40043
AAXX 17064 94462 46/// /3013 10333 20175 39499 40038
AAXX 17064 94477 NIL
AAXX 17064 94488 NIL
AAXX 17061 91925 06/// /0302 10234 20201 30063 40124 51018 60001 333 55108 60007 90710 91104 555 60005 11108 59010
AAXX 17061 91929 04582 /0907 10275 20218 30126 40129 53015 60002 700// 333 10313 20274 55/// 60007 70000 90710 91111 555 60005
AAXX 17061 91938 02570 11705 10263 20204 30128 40130 53012 60072 81800 333 10296 20251 30/// 55070 60007 70065 81823 90710 91107 555 60005 12707 59023
AAXX 17061 91943 16/// /1205 10268 20218 30122 40124 51014 60014 333 20268 59019
AAXX 17061 91944 06/// /1205 10261 20190 30128 40131 51016 60002 333 10292 20259 55118 60007 70000 90710 91107 555 60005
AAXX 17061 91948 06/// /2901 10230 20194 30034 40136 51014 60001 333 55105 60007 90710 91103 555 60005 13207 59014
AAXX 17061 91954 06/// /1702 10230 20213 30136 40139 51009 60001 333 55/// 60007 555 59029
AAXX 17061 91958 06/// /0202 10226 20182 30156 40158 52010 60001 333 55041 60007 90710 91109 555 60005 10614 59028
AAXX 17061 91945 36/// /0000 10241 20204 30133 40138 51014 555 59023
AAXX 17064 89564 41981 50104 10032 21065 30019 40039 57006 70122 81048
AAXX 17064 89570 46/// /1017 11057 21122 39285 56005
AAXX 17064 89571 41975 13308 11003 21087 39931 49960 57004 70200 80001
AAXX 17064 89573 NIL
AAXX 17064 89610 NIL
AAXX 17064 89611 41480 82604 10024 21072 39834 49886 58022 70322 81607
AAXX 17064 89614 NIL
AAXX 17064 89615 46/36 /0928 11054 21091 38989 56023
AAXX 17064 89807 NIL
AAXX 17064 89809 46/// /1024 11023 21072 39429 58023
BBXX UCKZ 17061 99655 30432 41295 80520 11010 21018 49905 52009 71022 886// 22243 01010 2//// ICE 26892
AAXX 17064 94500 NIL
AAXX 17064 94510 46/// /0107 10278 20164 39765 40104
AAXX 17064 94515 46/// /0708 10278 20148 39782 40124
AAXX 17064 94552 46/// /1111 10240 20103 39688 40148
AAXX 17064 94578 46/// /1213 10235 20133 30164 40175
AAXX 17064 94584 46/// /1425 10232 20142 30050 40159
AAXX 17064 94601 46/// /2211 10233 20141 30089 40106
AAXX 17064 94610 46/// /2512 10288 20092 30058 40081
AAXX 17064 94637 46/// /2207 10275 20066 39659 40074
AAXX 17064 94638 46/// /1713 10204 20126 30074 40105
AAXX 17064 94642 NIL
AAXX 17064 94643 NIL
AAXX 17064 94647 46/// /2411 10226 20152 39939 40057
AAXX 17064 94651 46/// /2516 10224 20162 39977 40052
AAXX 17064 94653 46/// /2418 10227 20168 30020 40038
AAXX 17064 94659 46/// /3019 10362 20086 39814 40002
AAXX 17064 94672 46/// /0419 10251 20163 30027 40037
AAXX 17064 94691 46/// /0317 10236 20193 39759 40078
AAXX 17064 94693 46/// /0512 10304 20105 30013 40073
AAXX 17064 94700 NIL
AAXX 17064 94703 46/// /0513 10285 20140 39996 40119
AAXX 17064 94710 46/// /0714 10282 20117 39872 40119
AAXX 17064 94729 46/// /0205 10237 20093 39318 40154
AAXX 17064 94750 46/// /0811 10205 20100 30082 40205
AAXX 17064 94767 46/// /1112 10209 20090 30202 40208
AAXX 17064 94776 46/// /1413 10217 20117 30195 40205
AAXX 17064 94791 NIL
AAXX 17064 94802 46/// /1307 10224 20130 30017 40098
AAXX 17064 94804 46/// /0405 10196 20186 39976 40013
AAXX 17064 94807 NIL
AAXX 17064 94821 46/// /0310 10202 20186 30026 40107
AAXX 17064 94842 46/// /0720 10190 20151 30032 40130
AAXX 17064 94847 NIL
AAXX 17064 94850 46/// /0828 10175 20118 30103 40149
AAXX 17064 94865 46/// /1212 10264 20175 30096 40120
AAXX 17064 94866 46/// /0211 10301 20113 39982 40121
AAXX 17064 94875 46/// /0111 10326 20100 39989 40122
AAXX 17064 94893 46/// /0532 10166 20135 30057 40173
AAXX 17064 94907 46/// /1019 10199 20122 30166 40176
AAXX 17064 94910 46/// /0208 10286 20098 39895 40141
AAXX 17064 94926 46/// /0511 10241 20089 39506 40166
AAXX 17064 94935 46/// /0616 10185 20113 30170 40197
AAXX 17064 94954 46/// /0933 10178 20105 30064 40175
AAXX 17064 94956 46/// /1812 10227 20111 30151 40177
AAXX 17064 94975 46/// /0611 10218 20120 30171 40204
AAXX 17064 94983 46/// /0611 10200 20101 30196 40221
AAXX 17064 94995 46/// /2111 10200 20119 30169 40177
AAXX 17064 94996 46/// /2010 10209 20134 39993 40121
AAXX 17064 94997 NIL
AAXX 17064 94998 46/// /2418 10055 21003 30151 40162
AAXX 17064 95111 46/// /3005 10326 20252 39998 40034
AAXX 17064 95205 46/// /3013 10385 20186 30023 40030
AAXX 17064 95322 NIL
AAXX 17064 95448 46/// /3106 10307 20066 39506 40053
AAXX 17064 95458 46/// /2918 10358 20127 39759 40011
AAXX 17064 95480 46/// /3220 10380 20152 39961 40018
AAXX 17064 95481 46/// /3619 10365 20190 39987 40031
AAXX 17064 95482 46/// /2711 10383 20128 39981 40035
AAXX 17064 95485 46/// /0621 10223 20220 39879 40077
AAXX 17064 95492 46/// /1112 10230 20218 39947 40098
AAXX 17064 95527 46/// /0807 10267 20115 39891 40140
AAXX 17064 95634 46/// /3107 10278 20091 39684 40076
AAXX 17064 95637 46/// /0305 10267 20080 39757 40083
AAXX 17064 95646 46/// /2521 10256 20106 39878 40061
AAXX 17064 95666 NIL
AAXX 17064 95719 46/// /1010 10275 20111 39825 40151
AAXX 17064 95762 46/// /1906 10255 20071 39704 40153
AAXX 17064 95826 NIL
AAXX 17064 95839 46/// /1010 10195 20182 39950 40107
AAXX 17064 95864 NIL
AAXX 17064 95909 NIL
AAXX 17064 95954 NIL
AAXX 17064 95966 46/// /3412 10219 20119 39998 40198
AAXX 17064 96995 46/// /1207 10243 20240 39776 40070
AAXX 17064 96996 41562 71311 10290 20232 30084 40088 58011 71522 878//
AAXX 17064 94102 46/// /3208 10322 20243 30040 40049
AAXX 17064 94103 NIL
AAXX 17064 94120 46/// /3110 10331 20232 39993 40033
AAXX 17064 94122 46/// /1704 10318 20256 30028 40036
AAXX 17064 94131 46/// /1304 10342 20202 39880 40030
AAXX 17064 94132 NIL
AAXX 17064 94147 NIL
AAXX 17064 94150 46/// /0408 10324 20232 39983 40042
AAXX 17064 94151 46/// /1104 10301 20240 30032 4////
AAXX 17064 94170 46/// /0709 10325 20234 30022 40044
AAXX 17064 94200 NIL
AAXX 17064 94203 46/// /2513 10321 20221 30040 40050
AAXX 17064 94206 46/// /2905 10374 2//// 39904 40031
AAXX 17064 94207 46/// /2205 10279 30042 40050 58017
AAXX 17064 94211 NIL
AAXX 17064 94212 46/// /1202 10334 20173 39572 40033
AAXX 17064 94216 46/// /1705 10368 20204 39982 40032
AAXX 17064 94236 NIL
AAXX 17064 94238 46/// /1516 10263 20222 39621 40033
AAXX 17064 94248 NIL
AAXX 17064 94255 46/// /0310 10340 20189 39790 40046
AAXX 17064 94268 46/// /0000 10280 20250 30047 40059
AAXX 17064 94287 46/// /1415 10290 20210 30084 40093
AAXX 17064 94290 NIL
AAXX 17064 94294 46/// /0817 10294 20182 30096 40106
AAXX 17064 94296 35/// /1417 10273 30073 40083 57003
AAXX 17064 94298 46/// /1322 10267 30099 40105 56003
AAXX 17064 95641 NIL
AAXX 17064 41024 42660 20108 10245 20180 30119 40138 82200 333 20210 59006 82835
AAXX 17064 41030 42960 00000 10224 20160 39858 40131 333 20214 59007
AAXX 17064 41036 42960 01605 10164 20110 38577 48526 333 20110 59003 555 04410 50141
AAXX 17064 41055 42960 00000 10165 20100 38380 48528 333 20100 58001 555 04410 50157
AAXX 17064 41061 42960 01008 10170 20060 39468 40182 333 20080 58000
AAXX 17064 41084 42960 00000 10180 20010 38880 48532 333 20086 58001 555 04410 50152
AAXX 17064 41112 42960 00000 10166 20070 37963 48532 333 20074 58000 555 04410 50173
AAXX 17064 41114 42960 00000 10162 20060 37994 48528 333 20080 59002 555 04410 50164
AAXX 17064 41128 42960 00000 10180 21100 38838 48541 333 20090 58002 555 04410 50170
AAXX 17064 41136 42960 00000 10169 20050 39352 40173 333 20090 59004
AAXX 17064 41140 42960 01405 10277 20210 30136 40143 333 20214 59008
AAXX 17064 40356 42960 00000 10030 21050 39216 48498 333 20010 59002 555 04410 50201
AAXX 17064 40357 42760 22807 10044 20000 39564 40221 82500 333 20018 58020 82650
AAXX 17064 40360 42960 00602 10024 21020 39614 40215 333 21004 59003
AAXX 17064 40361 42960 52203 10050 21050 39434 40227 83018 333 20019 58012 83460
AAXX 17064 40362 42960 32504 10075 21050 39683 40212 80001 333 20024 58052 83070
AAXX 17064 40373 41900 03305 10047 20040 39779 40209 74500 89/// 333 20033 58044
AAXX 17064 40375 42960 00605 10050 21030 39316 40204 333 20020 59010
AAXX 17064 40377 42960 03412 10084 20010 39726 40216 333 20040 58048
AAXX 17064 40394 42960 02206 10070 21060 39066 48530 333 21010 58021 555 04410 50218
AAXX 17064 40400 42960 50308 10184 20020 30139 40167 80001 333 20140 59006 85070
AAXX 17064 40401 42960 33003 10130 21040 39488 40198 80003 333 20080 59005 83070
AAXX 17064 40405 42960 00000 10110 20020 39461 40212 333 20066 58036
AAXX 17064 40416 42960 03006 10130 20050 30146 40166 333 20090 59008
AAXX 17064 40417 41958 12711 10151 20000 30167 40182 70600 80001 333 20097 59017 81070
AAXX 17064 40420 41956 02912 10158 20000 39979 40190 70740 333 20105 59008
AAXX 17064 40430 42960 30108 10158 21040 39457 40180 82031 333 20130 58017 82360
AAXX 17064 40435 42960 30412 10122 21010 39151 40203 82030 333 20100 82360
AAXX 17064 40437 41957 23007 10136 20000 39498 40211 70600 82030 333 20103 58024 82360
AAXX 17064 40439 42660 50000 10166 20060 30131 40141 82531 333 20138 58001 82640
AAXX 17063 NIL
AAXX 17064 88963 11360 32730 10048 21039 39790 49819 52071 69901 70151 83700 333 56700 83708 92427 94070 95000
AAXX 17064 88968 31458 72720 10026 21013 39869 49884 53009 71011 87600 333 56700 87712 90013 90090 92436 92731 92840 95062
AAXX 17064 89034 32970 01808 11052 21106 39510 49824 51004 333 92407 92830
AAXX 17064 89053 31240 72725 10010 21008 39952 49966 52049 71022 87700 333 56600 87705 90068 90084 90517 92425 94070 94479 95080 97520 98540
AAXX 17064 89055 32965 32326 10012 21017 39570 49807 52067 83070 333 56050 83360 91034 92760 95157
AAXX 17064 89066 32570 83226 11019 21040 39906 49916 52080 886// 333 56799 88730 92427 92734 92851 94072 95020
AAXX 17064 94893 46/// /0532 10166 20135 30057 40173
AAXX 17064 94907 46/// /1019 10199 20122 30166 40176
AAXX 17064 94910 46/// /0208 10286 20098 39895 40141
AAXX 17064 94926 46/// /0511 10241 20089 39506 40166
AAXX 17064 94935 46/// /0616 10185 20113 30170 40197
AAXX 17064 94954 46/// /0933 10178 20105 30064 40175
AAXX 17064 94956 46/// /1812 10227 20111 30151 40177
AAXX 17064 94975 46/// /0611 10218 20120 30171 40204
AAXX 17064 94983 46/// /0611 10200 20101 30196 40221
AAXX 17064 94995 46/// /2111 10200 20119 30169 40177
AAXX 17064 94996 46/// /2010 10209 20134 39993 40121
AAXX 17064 94997 NIL
AAXX 17064 94998 46/// /2418 10055 21003 30151 40162
AAXX 17064 95111 46/// /3005 10326 20252 39998 40034
AAXX 17064 95205 46/// /3013 10385 20186 30023 40030
AAXX 17064 95322 NIL
AAXX 17064 95448 46/// /3106 10307 20066 39506 40053
AAXX 17064 95458 46/// /2918 10358 20127 39759 40011
AAXX 17064 95480 46/// /3220 10380 20152 39961 40018
AAXX 17064 95481 46/// /3619 10365 20190 39987 40031
AAXX 17064 95482 46/// /2711 10383 20128 39981 40035
AAXX 17064 95485 46/// /0621 10223 20220 39879 40077
AAXX 17064 95492 46/// /1112 10230 20218 39947 40098
AAXX 17064 95527 46/// /0807 10267 20115 39891 40140
AAXX 17064 95634 46/// /3107 10278 20091 39684 40076
AAXX 17064 95637 46/// /0305 10267 20080 39757 40083
AAXX 17064 95646 46/// /2521 10256 20106 39878 40061
AAXX 17064 95666 NIL
AAXX 17064 95719 46/// /1010 10275 20111 39825 40151
AAXX 17064 95762 46/// /1906 10255 20071 39704 40153
AAXX 17064 95826 NIL
AAXX 17064 95839 46/// /1010 10195 20182 39950 40107
AAXX 17064 95864 NIL
AAXX 17064 95909 NIL
AAXX 17064 95954 NIL
AAXX 17064 95966 46/// /3412 10219 20119 39998 40198
AAXX 17064 96995 46/// /1207 10243 20240 39776 40070
AAXX 17064 96996 41562 71311 10290 20232 30084 40088 58011 71522 878//
AAXX 17064 94102 46/// /3208 10322 20243 30040 40049
AAXX 17064 94103 NIL
AAXX 17064 94120 46/// /3110 10331 20232 39993 40033
AAXX 17064 94122 46/// /1704 10318 20256 30028 40036
AAXX 17064 94131 46/// /1304 10342 20202 39880 40030
AAXX 17064 94132 NIL
AAXX 17064 94147 NIL
AAXX 17064 94150 46/// /0408 10324 20232 39983 40042
AAXX 17064 94151 46/// /1104 10301 20240 30032 4////
AAXX 17064 94170 46/// /0709 10325 20234 30022 40044
AAXX 17064 94200 NIL
AAXX 17064 94203 46/// /2513 10321 20221 30040 40050
AAXX 17064 94206 46/// /2905 10374 2//// 39904 40031
AAXX 17064 94207 46/// /2205 10279 30042 40050 58017
AAXX 17064 94211 NIL
AAXX 17064 94212 46/// /1202 10334 20173 39572 40033
AAXX 17064 94216 46/// /1705 10368 20204 39982 40032
AAXX 17064 94236 NIL
AAXX 17064 94238 46/// /1516 10263 20222 39621 40033
AAXX 17064 94248 NIL
AAXX 17064 94255 46/// /0310 10340 20189 39790 40046
AAXX 17064 94268 46/// /0000 10280 20250 30047 40059
AAXX 17064 94287 46/// /1415 10290 20210 30084 40093
AAXX 17064 94290 NIL
AAXX 17064 94294 46/// /0817 10294 20182 30096 40106
AAXX 17064 94296 35/// /1417 10273 30073 40083 57003
AAXX 17064 94298 46/// /1322 10267 30099 40105 56003
AAXX 17064 95641 NIL
AAXX 17064 89564 41981 50104 10032 21065 30019 40039 57006 70122 81048
AAXX 17064 89570 46/// /1017 11057 21122 39285 56005
AAXX 17064 89571 41975 13308 11003 21087 39931 49960 57004 70200 80001
AAXX 17064 89573 NIL
AAXX 17064 89610 NIL
AAXX 17064 89611 41480 82604 10024 21072 39834 49886 58022 70322 81607
AAXX 17064 89614 NIL
AAXX 17064 89615 46/36 /0928 11054 21091 38989 56023
AAXX 17064 89807 NIL
AAXX 17064 89809 46/// /1024 11023 21072 39429 58023
AAXX 17064 94299 46/// /1423 10284 20241 30075 40085
AAXX 17064 94300 46/// /2118 10301 20206 30032 40042
AAXX 17064 94302 46/// /2616 10362 20195 30027 40033
AAXX 17064 94312 46/// /3313 10310 20210 30040 40049
AAXX 17064 94313 NIL
AAXX 17064 94317 46/// /0508 10370 20103 39459 40026
AAXX 17064 94319 46/// /0507 10379 20157 39702 40023
AAXX 17064 94324 NIL
AAXX 17064 94326 46/// /3611 10277 20212 39430 40028
AAXX 17064 94327 46/// /0406 10289 20201 39693 40056
AAXX 17064 94332 46/// /2905 10286 20224 39679 40055
AAXX 17064 94333 NIL
AAXX 17064 94341 46/// /0404 10350 20158 39829 40058
AAXX 17064 94346 46/// /0515 10327 20167 39865 40079
AAXX 17064 94363 46/// /0912 10287 20172 39904 40118
AAXX 17064 94366 NIL
AAXX 17064 94367 46/// /1312 10276 20187 30089 40131
AAXX 17064 94374 46/// /0913 10267 20239 30123 40139
AAXX 17064 94388 46/// /1318 10255 20168 30147 40152
AAXX 17064 94393 46/// /1324 10254 30107 40119 55001
AAXX 17064 94394 46/// /1221 10244 30130 40138 56006
AAXX 17064 94403 46/// /2017 10272 20174 30037 40078
AAXX 17064 94429 46/// /2308 10328 20096 39605 40057
AAXX 17064 94430 46/// /2608 10346 20028 39481 40048
AAXX 17064 94449 46/// /2508 10288 20074 39559 40076
AAXX 17064 94451 NIL
AAXX 17064 94461 46/// /3110 10310 20154 39392 40043
AAXX 17064 94462 46/// /3013 10333 20175 39499 40038
AAXX 17064 94477 NIL
AAXX 17064 94488 NIL
AAXX 17064 94500 NIL
AAXX 17064 94510 46/// /0107 10278 20164 39765 40104
AAXX 17064 94515 46/// /0708 10278 20148 39782 40124
AAXX 17064 94552 46/// /1111 10240 20103 39688 40148
AAXX 17064 94578 46/// /1213 10235 20133 30164 40175
AAXX 17064 94584 46/// /1425 10232 20142 30050 40159
AAXX 17064 94601 46/// /2211 10233 20141 30089 40106
AAXX 17064 94610 46/// /2512 10288 20092 30058 40081
AAXX 17064 94637 46/// /2207 10275 20066 39659 40074
AAXX 17064 94638 46/// /1713 10204 20126 30074 40105
AAXX 17064 94642 NIL
AAXX 17064 94643 NIL
AAXX 17064 94647 46/// /2411 10226 20152 39939 40057
AAXX 17064 94651 46/// /2516 10224 20162 39977 40052
AAXX 17064 94653 46/// /2418 10227 20168 30020 40038
AAXX 17064 94659 46/// /3019 10362 20086 39814 40002
AAXX 17064 94672 46/// /0419 10251 20163 30027 40037
AAXX 17064 94691 46/// /0317 10236 20193 39759 40078
AAXX 17064 94693 46/// /0512 10304 20105 30013 40073
AAXX 17064 94700 NIL
AAXX 17064 94703 46/// /0513 10285 20140 39996 40119
AAXX 17064 94710 46/// /0714 10282 20117 39872 40119
AAXX 17064 94729 46/// /0205 10237 20093 39318 40154
AAXX 17064 94750 46/// /0811 10205 20100 30082 40205
AAXX 17064 94767 46/// /1112 10209 20090 30202 40208
AAXX 17064 94776 46/// /1413 10217 20117 30195 40205
AAXX 17064 94791 NIL
AAXX 17064 94802 46/// /1307 10224 20130 30017 40098
AAXX 17064 94804 46/// /0405 10196 20186 39976 40013
AAXX 17064 94807 NIL
AAXX 17064 94821 46/// /0310 10202 20186 30026 40107
AAXX 17064 94842 46/// /0720 10190 20151 30032 40130
AAXX 17064 94847 NIL
AAXX 17064 94850 46/// /0828 10175 20118 30103 40149
AAXX 17064 94865 46/// /1212 10264 20175 30096 40120
AAXX 17064 94866 46/// /0211 10301 20113 39982 40121
AAXX 17064 94875 46/// /0111 10326 20100 39989 40122
BBXX A8KO3 17060 99235 31540 41598 71719 10270 20243 40130 54000 70311 86263 22244 00270 20605 80250
BBXX VRZN7 17064 99252 31623 416// 31819 10220 2012/ 40135 51015 7//00 8348/ 22253 04250 20406 320// 4//// 5//// 85160
BBXX VMAL 17063 99353 31230 41/98 72112 10170 20135 40124 52002 71522 8657/ 22263 20202 311// 40804 80150
BBXX V2OG2 17063 99137 31070 41698 61816 10293 20219 40090 52003 70211 86130 22233 20402 319// 40503 80240
BBXX VRRC 17064 99162 31517 41398 71424 10280 20239 40083 57020 70300 87772 22273 20406 80250
BBXX ZCBU6 17064 99345 31736 41498 32623 10188 20158 40055 57016 70222 821// 22234 00190 20404 327// 40705 5//// 80170
BBXX VNSZ 17044 99412 31464 46/// /0312 10195 20105 30196 40222 57014 22200 04187 85142
BBXX 9HA2479 17044 99263 31616 46/// /1622 10210 20117 30118 40147 57002 22254 04230 85154
BBXX C6FS9 17044 99238 31512 46/// /1021 10245 20170 30124 40160 57011 22200 04266 85195
BBXX VROB 17044 99194 31537 46/// /1225 10264 20176 30083 40108 57006 22243 04273 85204
BBXX VNAH 17044 99333 31157 46/// /2709 10206 20139 30082 40105 57003 22200 85164
BBXX VNSZ 17054 99412 31464 46/// /0410 10184 20103 30190 40216 57011 22200 04187 85137
BBXX FHZI 17044 99518 31453 46/// /3110 10073 20061 30203 40214 57010 22243 04065 85067
BBXX C6FS9 17054 99238 31512 46/// /1021 10246 20169 30118 40154 57017 22200 04268 85195
BBXX 3ECI3 17064 99411 31732 41598 70512 10165 20099 40075 54000 70222 8546/ 22200 00170 20301 305// 40702 80130
BBXX VROB 17054 99196 31538 46/// /1225 10261 20182 30084 40109 54000 22243 04271 85208
BBXX FHZI 17054 99520 31452 46/// /3111 10070 20058 30199 40210 57013 22243 04061 85064
BBXX VNAH 17054 99333 31157 46/// /2709 10203 20141 30077 40100 57009 22200 85164
BBXX 9HA2479 17054 99265 31613 46/// /1623 10212 20115 30116 40145 52001 22254 04230 85153
BBXX VNSZ 17064 99412 31464 46/// /0411 10188 20111 30187 40213 57019 22200 04185 85142
BBXX 9HA2479 17064 99267 31610 46/// /1621 10208 20120 30121 40150 52005 22254 04230 85155
BBXX C6FS9 17064 99238 31512 46/// /1022 10248 20179 30118 40154 57009 22200 04268 85202
BBXX YJZC5 17063 99165 31775 41496 50715 10304 20257 40111 56/// 70111 83186 22200 02309 2//// 305// 40101 80270
AAXX 17063 91502 31468 83603 10282 20243 40060 56010 71622 8397/ 333 56899 82815 81916 83629 87360
AAXX 17063 91507 31475 83204 10285 20234 40066 55001 71522 8397/ 333 56099 82816 81917
AAXX 17063 91520 01459 81802 10254 20249 40067 55005 60131 76166 8692/ 333 56999 60097 82810 81912 86625 88459
AAXX 17063 91541 NIL
AAXX 17064 94310 46/// /3110 10308 20148 30037 40048 57018
AAXX 17064 95283 46/// /1209 10272 20234 30075 40082
AAXX 17064 95287 41/98 71417 10290 20229 3//// 4//// 78088 83298
AAXX 17064 95288 46/// /1018 10249 30063 40078 56008
AAXX 17064 95290 41/98 71418 10280 20229 3//// 4//// 70288 8329/
AAXX 17064 95675 46/// /0624
AAXX 17064 95872 46/// /1022
AAXX 17064 95961 35/// /1511 10199 30146 40188 57022
AAXX 17064 91375 NIL
AAXX 17064 91519 NIL
AAXX 17064 91531 NIL
AAXX 17064 91532 45/// /0612 10288 20226 30057 40065 54000
AAXX 17064 91559 NIL
AAXX 17064 91611 NIL
AAXX 17064 91642 NIL
AAXX 17064 91679 NIL
AAXX 17064 91689 NIL
AAXX 17064 91756 NIL
AAXX 17064 91844 NIL
AAXX 17064 92036 NIL
AAXX 17064 93713 NIL
BBXX ZCAS2 17063 99087 11288 41598 60708 10297 20246 40046 57/// 70322 85334 22284 00295 20301 305// 40603 80261
BBXX A8KO3 17060 99235 31540 41598 71719 10270 20243 40130 54000 70311 86263 22244 00270 20605 80250
BBXX VRZN7 17064 99252 31623 416// 31819 10220 2012/ 40135 51015 7//00 8348/ 22253 04250 20406 320// 4//// 5//// 85160
BBXX VMAL 17063 99353 31230 41/98 72112 10170 20135 40124 52002 71522 8657/ 22263 20202 311// 40804 80150
BBXX V2OG2 17063 99137 31070 41698 61816 10293 20219 40090 52003 70211 86130 22233 20402 319// 40503 80240
BBXX VRRC 17064 99162 31517 41398 71424 10280 20239 40083 57020 70300 87772 22273 20406 80250
BBXX ZCBU6 17064 99345 31736 41498 32623 10188 20158 40055 57016 70222 821// 22234 00190 20404 327// 40705 5//// 80170
BBXX VNSZ 17044 99412 31464 46/// /0312 10195 20105 30196 40222 57014 22200 04187 85142
BBXX 9HA2479 17044 99263 31616 46/// /1622 10210 20117 30118 40147 57002 22254 04230 85154
BBXX C6FS9 17044 99238 31512 46/// /1021 10245 20170 30124 40160 57011 22200 04266 85195
BBXX VROB 17044 99194 31537 46/// /1225 10264 20176 30083 40108 57006 22243 04273 85204
BBXX VNAH 17044 99333 31157 46/// /2709 10206 20139 30082 40105 57003 22200 85164
BBXX VNSZ 17054 99412 31464 46/// /0410 10184 20103 30190 40216 57011 22200 04187 85137
BBXX FHZI 17044 99518 31453 46/// /3110 10073 20061 30203 40214 57010 22243 04065 85067
BBXX C6FS9 17054 99238 31512 46/// /1021 10246 20169 30118 40154 57017 22200 04268 85195
BBXX 3ECI3 17064 99411 31732 41598 70512 10165 20099 40075 54000 70222 8546/ 22200 00170 20301 305// 40702 80130
BBXX VROB 17054 99196 31538 46/// /1225 10261 20182 30084 40109 54000 22243 04271 85208
BBXX FHZI 17054 99520 31452 46/// /3111 10070 20058 30199 40210 57013 22243 04061 85064
BBXX VNAH 17054 99333 31157 46/// /2709 10203 20141 30077 40100 57009 22200 85164
BBXX 9HA2479 17054 99265 31613 46/// /1623 10212 20115 30116 40145 52001 22254 04230 85153
BBXX VNSZ 17064 99412 31464 46/// /0411 10188 20111 30187 40213 57019 22200 04185 85142
BBXX 9HA2479 17064 99267 31610 46/// /1621 10208 20120 30121 40150 52005 22254 04230 85155
BBXX C6FS9 17064 99238 31512 46/// /1022 10248 20179 30118 40154 57009 22200 04268 85202
BBXX YJZC5 17063 99165 31775 41496 50715 10304 20257 40111 56/// 70111 83186 22200 02309 2//// 305// 40101 80270
AAXX 17061 38141 32998 61003 11108 21152 30168 40338 53006 80002 333 21145
AAXX 17061 38149 42998 80402 11097 21143 30241 40323 57005 8807/ 333 21115
AAXX 17061 38178 42598 20000 11107 21217 30043 40352 53002 70242 82500 333 21113
AAXX 17061 38262 32998 80702 11096 21142 30237 40325 53002 80002 333 21112
AAXX 17061 38264 42998 70607 11098 21124 30219 40320 57001 82073 333 21118
AAXX 17061 38396 42997 70605 11056 21103 30169 40301 58004 82036 333 21085
AAXX 17061 38403 42997 40706 11057 21135 30182 40310 57028 80001 333 21088
AAXX 17061 38413 42998 00903 11077 21091 30014 40323 58010 333 21099
AAXX 17061 38457 32997 00101 10011 21053 39697 40301 57002 333 21048
AAXX 17061 38462 42999 00000 11019 21124 38819 48550 53001 333 21095
AAXX 17061 38565 32998 30000 11008 21047 39672 40277 58005 83040 333 21065
AAXX 17061 38579 32997 61402 11010 21026 39872 40307 57006 80001 333 21044
AAXX 17061 38583 32997 23201 10002 21038 39975 40307 57006 80001 333 21057
AAXX 17061 38611 41996 01402 10014 21034 39735 40323 57010 71000 333 21022
AAXX 17061 38618 32997 81601 10001 21054 39597 40309 57003 8805/ 333 21008
AAXX 17061 38683 41996 83605 10005 21025 39968 40253 57006 71022 80001 333 21041
AAXX 17061 38696 32998 51102 11003 21018 39385 40266 57004 82044 333 21038
AAXX 17061 38812 41/96 92102 11013 21015 39775 40245 57010 74541 333 21026
AAXX 17061 38927 31003 92901 11007 21026 39865 40255 51004 74244 89/// 333 21047 89/01
AAXX 17064 16627 12560 61917 10140 20102 30030 40034 57020 60002 82146 333 20054 31/// 50000 55050 70075 82825 86068 90730 91127 555 10000 30140 20000 89082 99097 30000 10096 20094 30100 40104 50110 6//// 40000 47554 44230 50000 50120
AAXX 17061 37395 32799 80911 10102 21017 30001 40140 53002 8352/ 333 20086
AAXX 17061 37409 31/91 90913 11042 21042 38752 48468 57008 74544 333 21047 95090
AAXX 17061 37432 16/// ///00 11049 21068 3//// 48/// 5//// 60002 333 21060
AAXX 17061 37545 31995 80000 11001 21007 39676 40206 57003 71022 88035 555 21023 7000/
AAXX 17061 37621 32698 72701 10002 21046 39548 40206 57008 80030 333 21025
AAXX 17061 37484 NIL
AAXX 17061 37514 NIL
AAXX 17064 41241 32560 31304 10240 20072 30149 40184 83801 333 00027 20173 59002 83826
AAXX 17064 41242 26/// /1804 10242 20135 3//// 4//// 333 0E018 20147 59006 70004
AAXX 17064 41244 NIL
AAXX 17064 41246 32560 33406 10238 20167 30181 40185 81530 333 20182 3/019 59005 81625 83360
AAXX 17064 41251 32965 09902 10172 21135 38060 48140 333 20099 58008
AAXX 17064 41252 32960 12602 10214 20069 39813 40186 81010 333 20140 58000 81362
AAXX 17064 41253 36/// /0202 10224 20149 39814 40198 333 0E016 20145 59004
AAXX 17064 41254 36/// /9902 10181 21132 38255 48260 333 0E003 20079 59025
AAXX 17064 41255 36/// /1202 10211 20104 39656 40210 333 0E018 20124 58000
AAXX 17064 41256 32460 10602 10247 20167 30179 40189 81500 333 20155 59003 81625
AAXX 17064 41257 36/// /3002 10216 20134 39710 40200 333 0E013 20144 59002
AAXX 17064 41258 36/// /0201 10250 20153 30178 40183 333 0E/// 20211 59002
AAXX 17064 41259 36/// /0000 10096 21176 37147 40326 333 0E/// 20059 58000
AAXX 17064 41262 NIL
AAXX 17064 41263 36/// /9902 10209 20070 39513 40206 333 0E013 20128 58001
AAXX 17064 41264 NIL
AAXX 17064 41265 36/// /0000 10224 20127 39648 40202 333 0E021 20130 58001
AAXX 17064 41267 35/81 /3402 10243 20139 30171 40187 333 0E019 20201 59002
AAXX 17064 41268 32960 02203 10241 20148 30170 40186 333 20170 3/019 59003
AAXX 17064 41270 36/70 /0404 10243 20145 30129 40140 333 0E017 20167 59004
AAXX 17064 41275 NIL
AAXX 17064 41287 NIL
AAXX 17064 41288 32460 11205 10258 20175 30164 40186 81600 333 20201 59004 81710
AAXX 17064 41290 NIL
AAXX 17064 41295 NIL
AAXX 17064 41304 NIL
AAXX 17064 41312 36/// /0603 10262 20148 30127 40166 333 0E/// 20196 59007
AAXX 17064 41314 32960 00808 10206 20131 39682 40187 333 20125 59008
AAXX 17064 41315 36/// /0312 10181 20114 39182 42820 333 0E/// 20139 59006
AAXX 17064 41316 32560 19902 10267 20120 30140 40167 81500 333 20189 59008 81625
AAXX 17064 40550 37/57 /3303 10124 20032 40203 51019 71011 333 55306 00312 10000 20938 30308 41010 51322 61246 55407 40630 90069 90401 91005 91105 91201 91301
AAXX 17064 40551 36/// /2405 10120 20023 333 90400 91005 91111 91209 91305
AAXX 17064 40552 37/59 /3204 10130 20030 40203 51018 71031 333 55310 90069 90401 91005 91111 91209 91307
AAXX 17064 40553 37/58 /3003 10113 20037 40201 51019 71011 333 55304 90069 90401 91003 91109 91207 91305
AAXX 17064 40568 36/// /0104 10158 20090 333 90401 91005 91111 91209 91307
AAXX 17064 40569 NIL
AAXX 17064 40570 37/01 /0506 10123 2//// 4//// 5//// 78161 333 55300 90002 90400 91007 91109 91207 91305
AAXX 17064 40571 NIL
AAXX 17064 40572 NIL
AAXX 17064 40573 46/// /3304 10117 20117 333 90401 91005 91109 91207 91303
AAXX 17064 40580 46/// /3103 10155 20079 333 553// 00314 10000 20805 30183 41071 51372 60988 55407 40622 90400 91005 91105 91201 91301
AAXX 17064 40581 36/// /3601 10159 20075 333 90401 91003 91109 91205 91303
AAXX 17064 40582 31540 43504 10148 20085 40202 51021 70611 84700 333 55300 00254 10000 20609 30180 41192 51359 60790 55407 40429 84720 90400 91005 91107 91205 91303
AAXX 17064 40583 NIL
AAXX 17064 40585 36/// /2911 10151 20085 222// 1//// 3//// 4//// 70/// 333 90400 91015 91115 91211 91307
AAXX 17064 40586 46/// /2703 10142 20057 333 90400 91005 91107 91203 91301
AAXX 17064 40587 36/// /2904 10148 20065 333 553// 00430 10000 20778 30258 41251 51335 61036 55407 40519 90400 91005 91111 91205 91303
AAXX 17064 40588 35/64 /3607 10147 20098 40199 53019 333 55303 90069 90401 91009 91115 91211 91309
AAXX 17064 40589 NIL
AAXX 17064 40590 36/// /3607 10134 20071 333 90401 91007 91111 91209 91305
AAXX 17064 40591 NIL
AAXX 17064 40592 37/33 /3507 10151 20128 40196 51019 71031 333 55300 00325 10000 20662 30177 41246 51400 60839 55407 40485 90069 90400 91011 91111 91207 91303
AAXX 17064 40593 46/// /3610 10162 20132 333 90400 91011 91113 91211 91309
AAXX 17064 40594 46/// /3505 10167 20160 333 90400 91009 91109 91205 91303
AAXX 17064 40596 36/// /0211 10183 20160 333 90401 91013 91115 91211 91309
AAXX 17061 78458 32466 30000 10228 20193 40182 57007 81230 333 10291 20184 31/// 56000 58010 81818
AAXX 17061 78460 31460 70000 10193 20184 40174 58010 70544 83570 333 10279 20172 31/// 56110 58005 83613 83458
AAXX 17061 78479 32466 40405 10230 20182 40144 56003 83230 333 10286 20233 30/// 56100 58012 83818
AAXX 17061 78485 32466 60305 10209 20179 40170 57001 84230 333 10295 20180 30/// 56100 58026 84816 83358
AAXX 17061 78486 32466 49902 10225 20191 40151 57010 82230 333 10300 20205 30/// 56000 58012 82818 83357
AAXX 17064 41859 NIL
AAXX 17064 41883 NIL
AAXX 17064 41891 NIL
AAXX 17064 41907 NIL
AAXX 17064 41923 31/20 93602 10154 20120 30151 40161 74344 89/// 333 56999 58000 70000
AAXX 17064 41936 31406 30000 10140 20120 40173 74744 83600 333 56900 59001 70000 83706
AAXX 17064 41943 31/07 93602 10260 20140 30160 40168 74344 89/// 333 58006 70000
AAXX 17064 41950 31420 30000 10175 20173 30158 40161 71040 85000 333 56800 58002 70000 83617
AAXX 17064 41978 31924 00000 10195 20150 30148 40154 71044 333 58001 70000
AAXX 17064 41992 31930 00302 10235 20140 30142 40145 70500 333 59002 70000
AAXX 17061 80001 32470 80302 10266 20237 30122 40123 8327/ 333 5620/ 58010 83814 86458
AAXX 17061 80002 NIL
AAXX 17061 80009 NIL
AAXX 17061 80022 31462 60501 10260 20246 30104 40106 70522 83630 333 5619/ 58013 83712 83357
AAXX 17061 80028 NIL
AAXX 17061 80035 NIL
AAXX 17061 80036 NIL
AAXX 17061 80063 NIL
AAXX 17061 80084 NIL
AAXX 17061 80091 NIL
AAXX 17061 80094 NIL
AAXX 17061 80097 NIL
AAXX 17061 80099 NIL
AAXX 17061 80110 NIL
AAXX 17061 80112 31357 70000 10144 20134 37904 70522 87500 333 560// 58011 87608
AAXX 17061 80139 NIL
AAXX 17061 80144 NIL
AAXX 17061 80149 NIL
AAXX 17061 80210 NIL
AAXX 17061 80211 NIL
AAXX 17061 80214 NIL
AAXX 17061 80222 41167 63102 10130 20121 37520 71522 333 563// 58004 81702 85617
AAXX 17061 80234 NIL
AAXX 17061 80241 NIL
AAXX 17061 80259 41559 80202 10196 20182 39066 71552 8457/ 333 5631/ 58013 84625 85458
AAXX 17061 80315 NIL
AAXX 17061 80342 NIL
AAXX 17061 80370 NIL
AAXX 17061 80398 32870 40000 10240 20233 30009 40098 82030 333
BBXX DCDO2 17063 99022 31431 41598 52906 10310 20242 40060 54000 70322 85145 22274 00300 20301 3//// 4//// 5//// 80260
BBXX DGOS 17063 99456 70148 41497 63115 10115 20056 40285 55000 70222 857// 22213 21202 80085
AAXX 17064 17096 11509 63601 11113 21113 38230 48508 50002 60002 74844 84550 333 21116 3/112 47007 50014 55000 20159 84630 86358
AAXX 17061 56187 11458 80403 10065 20028 39606 40270 57032 60011 76166 8372/ 333 05252 20052
AAXX 17061 56778 NIL
AAXX 17061 57265 NIL
AAXX 17061 57461 31958 81102 10063 21031 30153 40321 57041 70500 8807/ 333 20039
AAXX 17061 57494 NIL
AAXX 17061 57516 11560 80701 10079 20022 39959 40277 57029 69921 76060 885// 333 05253 20079
AAXX 17061 57687 31940 72902 10072 20002 30224 40311 57037 70500 8704/ 333 20037
AAXX 17061 57816 31640 80902 10035 21009 38830 40260 57035 71000 885// 333 05400 20009
AAXX 17061 58040 32966 62902 10022 21149 30325 40339 57037 80001 333 21090
AAXX 17061 58102 32970 21802 10041 21111 30292 40342 57044 80002 333 21041
AAXX 17061 58150 32965 42202 10030 21106 30346 40350 57032 80002 333 21059
AAXX 17061 58221 NIL
AAXX 17061 58238 NIL
AAXX 17061 58251 NIL
AAXX 17061 58362 NIL
AAXX 17061 58457 NIL
AAXX 17061 58606 NIL
AAXX 17061 58752 NIL
AAXX 17061 58847 NIL
AAXX 17061 59117 32967 01602 10169 20001 30132 40240 57042 333 20088
AAXX 17061 59134 NIL
AAXX 17061 59287 NIL
AAXX 17061 59316 NIL
AAXX 17061 59431 NIL
AAXX 17061 59644 NIL
AAXX 17061 59758 NIL
AAXX 17064 89667 46/// /0406 11040 39889 4//// 5////
AAXX 1706/ 89866 46/// ///// 11040 39779 4//// 5////
AAXX 1706/ 89799 46/// ///// 11281 4//// 5////
AAXX 1706/ 89332 46/// ///// 11108 39261 4//// 5////
AAXX 1706/ 89828 46/// ///// 11253 36504 4//// 5////
AAXX 1706/ 89314 46/// ///// 11124 38207 4//// 5////
AAXX 17061 50468 32970 23402 11128 21211 39974 40196 54000 80002 333 21177
AAXX 17061 50953 32970 02903 11099 21188 30065 40257 52003 333 21188
AAXX 17061 51076 NIL
AAXX 17061 51243 NIL
AAXX 17061 51288 32980 03602 11064 21175 38392 57007 333 05104 21175
AAXX 17061 51463 NIL
AAXX 17061 51573 NIL
AAXX 17061 51709 NIL
AAXX 17061 52533 NIL
AAXX 17061 52652 NIL
AAXX 17061 52866 32965 72001 11019 21153 37733 57017 80002 333 00100 21110
AAXX 17061 52983 NIL
AAXX 17061 53463 32970 02001 11060 21229 39063 40396 57020 333 05405 21171
AAXX 17061 53513 32970 41601 11062 21188 39092 40401 57013 80002 333 05102 21184
AAXX 17061 53588 NIL
AAXX 17061 53772 NIL
AAXX 17061 53915 NIL
AAXX 17061 54218 32980 00203 11029 21260 39486 40340 57009 333 21177
AAXX 17061 54337 32970 03403 10010 21253 30216 40304 57014 333 21130
AAXX 17061 54342 NIL
AAXX 17061 54401 NIL
AAXX 17061 54471 32965 03404 11001 21210 30297 40303 57012 333 21110
AAXX 17061 54497 32970 01102 11032 21162 30290 40307 57021 333 21159
AAXX 17061 54511 NIL
AAXX 17061 54823 32968 32002 10029 21114 30115 40336 57032 80001 333 21084
AAXX 17061 56080 NIL
AAXX 17061 56096 NIL
AAXX 17061 57083 NIL
AAXX 17004 91648 11599 30913 10307 20245 40082 60011 70218 83200 333 20256 562// 70159
AAXX 17063 91551 11598 89903 10289 20255 4//// 5//// 60131 70226 8497/ 333 5639/ 60131 83820 81925 88461
AAXX 17063 91553 11598 70203 10285 20254 40088 53002 60061 72528 83907 333 561/9 60061 83820 81925 87078
AAXX 17063 91554 31598 80307 10282 20258 40082 53002 70222 8421/ 333 5619/ 84820 88461
AAXX 17063 91555 31598 80000 10279 20262 40084 53005 70221 8227/ 333 5699/ 82825 88462
AAXX 17063 91557 11598 83605 10266 20243 40065 53005 69921 72522 84912 333 56899 69921 83820 81925 85461 88278
AAXX 17063 91565 11598 80000 10270 20263 40079 56001 60041 78028 8597/ 333 5699/ 60041 84820 81922 88460
AAXX 17063 91568 11598 80000 10260 20246 40096 54000 60101 72166 8682/ 333 5689/ 60101 84820 86640 88460
AAXX 17063 91551 11598 89903 10289 20255 4//// 5//// 60131 70226 8497/ 333 5639/ 60131 83820 81925 88461
AAXX 17063 91553 11598 70203 10285 20254 40088 53002 60061 72528 83907 333 561/9 60061 83820 81925 87078
AAXX 17063 91554 31598 80307 10282 20258 40082 53002 70222 8421/ 333 5619/ 84820 88461
AAXX 17063 91555 31598 80000 10279 20262 40084 53005 70221 8227/ 333 5699/ 82825 88462
AAXX 17063 91557 11598 83605 10266 20243 40065 53005 69921 72522 84912 333 56899 69921 83820 81925 85461 88278
AAXX 17063 91565 11598 80000 10270 20263 40079 56001 60041 78028 8597/ 333 5699/ 60041 84820 81922 88460
AAXX 17063 91568 11598 80000 10260 20246 40096 54000 60101 72166 8682/ 333 5689/ 60101 84820 86640 88460
AAXX 17004 91648 11599 30913 10307 20245 40082 60011 70218 83200 333 20256 562// 70159
AAXX 17064 43466 22470 60508 10306 20217 30085 40097 84172 333 59003 60007 70000 84818 83460
AAXX 17061 01098 11480 62207 11013 21032 39941 49959 53011 60002 70122 86200 333 21015 41999 79999 91112
AAXX 17061 01028 11040 8//// 11006 21012 39889 49909 53007 69902 71022 886// 333 21014 70001
AAXX 17061 01062 11435 80408 11019 21022 39899 49912 57008 69922 77173 887// 333 21019 48999 70009 91112
AAXX 17061 01205 46/// /2106 10042 20021 39837 49882 52014 333 20032 91110
AAXX 17064 06670 01240 82407 10010 21006 39512 40029 5//// 60022 78581 885// 333 20005 3/100 43001 55000 553// 20000 69965 70155 81703 85606 87614 90768 93101
AAXX 17064 06700 01575 72110 10027 21019 39582 40080 5//// 60012 78782 878// 333 20010 32000 55000 553// 20000 60005 70167 81620 85830 87645 90768 93100
AAXX 17064 06680 31/01 90002 11124 21124 37295 47809 5//// 77394 333 21136 47135 55000 553// 20000 70036 90768 93117
AAXX 17064 06990 01630 80203 10033 21043 39468 40015 5//// 69982 77277 887// 333 20023 32002 55000 553// 20000 60005 70082 88739
AAXX 17064 06760 01984 60402 10035 21031 39555 40004 5//// 69962 72051 8601/ 333 20014 31001 55000 553// 20000 60005 70083 86459 90768 93100
AAXX 17064 06720 01560 8//// 10009 20001 39474 40057 5//// 60052 77377 8802/ 333 20004 3/000 43015 55000 553// 20000 69955 70464 88524 90768 93101
AAXX 17064 06610 31445 82110 10009 20000 39468 40060 5//// 77172 8372/ 333 20009 32000 55000 553// 20000 70107 83710 88520 90768 93100
AAXX 17064 43400 NIL
AAXX 17064 43404 22470 7//// 10286 20218 30111 40121 84201 333 59004 60007 70000 84818 87280
AAXX 17064 43410 NIL
AAXX 17064 43413 22470 40512 10284 20256 30118 40121 83105 333 59002 60007 70000 83818 84280
AAXX 17064 43415 22470 40202 10288 20223 30010 40118 84100 333 59007 60007 70000 84818
AAXX 17064 43418 21470 40205 10291 20236 3//// 4//// 70251 84231 333 5//// 60007 70015 84818 83080
AAXX 17064 43421 22470 53602 10289 20227 30014 40116 85100 333 59005 60007 70000 85818
AAXX 17064 43422 22470 505// 10290 20232 39983 40113 85101 333 59003 60007 70002 85818
AAXX 17064 43424 22478 70203 10287 20221 30101 40104 85106 333 59001 60007 70000 85816 85080
AAXX 17064 43436 21470 60507 10290 20237 30104 40107 70362 83236 333 59011 60007 70006 83818 84360 85280
AAXX 17064 43441 22470 302// 10300 20214 39973 40102 83101 333 58001 60007 70000 83818
AAXX 17064 43444 22470 31401 10278 20205 39573 40113 82101 333 59006 60007 79999 82818
AAXX 17064 43467 22466 50207 10302 20221 30096 40101 82101 333 58001 60007 70000 82816 85080
AAXX 17064 43473 22470 50503 10180 20135 38129 48492 84106 333 59005 60007 79999 84812 84280
AAXX 17064 43475 22470 63640 10290 20244 30091 40100 83101 333 59013 60007 70000 83818 85080
AAXX 17064 43476 22470 53605 10200 20162 38780 48524 82101 333 59006 60007 70006 82811 84080
AAXX 17064 43479 21450 60501 10230 20200 39273 70244 86200 333 59008 60007 70001 86816
AAXX 17064 43486 21470 40000 10280 20227 30000 40094 70141 83201 333 59006 60007 70000 83810
AAXX 17064 43495 22468 5//// 10292 20252 30087 40103 82101 333 59009 60007 70000 82818 84078
AAXX 17064 43497 22976 50510 10328 20246 30066 40083 80006 333 59020 60007 70000 85280
AAXX 17064 43400 NIL
AAXX 17064 43404 22470 7//// 10286 20218 30111 40121 84201 333 59004 60007 70000 84818 87280
AAXX 17064 43410 NIL
AAXX 17064 43413 22470 40512 10284 20256 30118 40121 83105 333 59002 60007 70000 83818 84280
AAXX 17064 43415 22470 40202 10288 20223 30010 40118 84100 333 59007 60007 70000 84818
AAXX 17064 43418 21470 40205 10291 20236 3//// 4//// 70251 84231 333 5//// 60007 70015 84818 83080
AAXX 17064 43421 22470 53602 10289 20227 30014 40116 85100 333 59005 60007 70000 85818
AAXX 17064 43422 22470 505// 10290 20232 39983 40113 85101 333 59003 60007 70002 85818
AAXX 17064 43424 22478 70203 10287 20221 30101 40104 85106 333 59001 60007 70000 85816 85080
AAXX 17064 43436 21470 60507 10290 20237 30104 40107 70362 83236 333 59011 60007 70006 83818 84360 85280
AAXX 17064 43441 22470 302// 10300 20214 39973 40102 83101 333 58001 60007 70000 83818
AAXX 17064 43444 22470 31401 10278 20205 39573 40113 82101 333 59006 60007 79999 82818
AAXX 17064 43467 22466 50207 10302 20221 30096 40101 82101 333 58001 60007 70000 82816 85080
AAXX 17064 43473 22470 50503 10180 20135 38129 48492 84106 333 59005 60007 79999 84812 84280
AAXX 17064 43475 22470 63640 10290 20244 30091 40100 83101 333 59013 60007 70000 83818 85080
AAXX 17064 43476 22470 53605 10200 20162 38780 48524 82101 333 59006 60007 70006 82811 84080
AAXX 17064 43479 21450 60501 10230 20200 39273 70244 86200 333 59008 60007 70001 86816
AAXX 17064 43486 21470 40000 10280 20227 30000 40094 70141 83201 333 59006 60007 70000 83810
AAXX 17064 43495 22468 5//// 10292 20252 30087 40103 82101 333 59009 60007 70000 82818 84078
AAXX 17064 43497 22976 50510 10328 20246 30066 40083 80006 333 59020 60007 70000 85280
BBXX 44139 17061 99442 70571 46/// /2911 10070 40103 52024 22200 00082 11008 70039 333 91213
AAXX 17061 37432 32997 00000 11038 21060 38957 48486 57029 333 21043
BBXX DFWV2 17064 99300 11794 41/98 42118 10230 20205 40175 57005 7//11 8/8// 2226/ 04210 29902 3//// 4//// 5////
BBXX DHBN 17061 99310 11544 41/96 82704 10200 20153 40110 58005 70222 897// 22224 00230 20505 328// 40807 5//// 80170
BBXX WDB3161 17064 99523 11674 41398 73012 10010 2//// 49908 5//// 70222 874// 22253 00048 20502 305// 41007 5//// 6//// ICE /////
BBXX WDB9986 17064 99397 11531 43/// ///// 1//// 2//// 4//// 5//// 7//// 8//// 22211 0//// 2//// 3//// 4//// 5//// 6//// ICE /////
BBXX 3FZK3 17064 99549 71583 46/// /2216 10035 20030 49938 51024 7//// 8//// 22223 0//// 2////
BBXX 46035 17061 99571 71778 46/// /0112 1//// 49859 56010 90550 22200 11109 20704 300// 41108 70043 333 91214 555 11116 22124 30521 40215 60549 013116 006081 010111 017123 030111 027124 80214 90519
BBXX 4XFX 17064 99549 71584 41/98 42430 00/// 10040 20020 49945 52015 75050 84/// 22253 0//// 2//// 3//// 4//10 5//// 6//// 80030
BBXX A8AJ4 17064 99537 71510 41/// /2524 10040 20017 40040 53010 76366 8//// 222// 0//// 2//// 3//// 4//// 5//// 6//// 80030 ICE /////
BBXX C6SI4 17064 99583 71576 43/// /0730 10040 20020 49940 53020 7//// 8//// 22253 00070 20606 3//// 40706 5//// 6//// 80030 ICE /////
BBXX DGHX 17063 99340 71656 41/98 31815 10185 20145 40225 55010 7//11 8//// 22264 00180 2//// 331// 40308 80160
BBXX DGTX 17063 99330 71659 41/98 92224 10200 20118 40248 54000 70111 89/// 22264 00230 2//// 80151
BBXX LEQZ3 17063 99538 71502 413// 52030 10060 20040 40070 54000 7//11 85//2 22272 00110 80050
BBXX NWS0003 17064 99539 71665 43/// /1519 10047 20029 49770 5//// 7//// 8//// 222// 04068 2//// 3//// 4//// 5//// 6//// 8//// ICE /////
BBXX SHIP 17064 99309 71519 41497 60315 10190 20140 40270 54000 70311 85999 22223 00220 2//// 3//// 4//// 5//// 6//// 80160 ICE /////
BBXX SHIP 17064 99352 71751 41698 52117 10180 20160 40140 57020 70222 8435/ 22263 00180 20704 328// 41108 5//// 6//// 80170 ICE /////
BBXX SHIP 17064 99498 71562 41498 22127 10065 20021 40075 53015 70200 82100 22224 00060 2//// 327// 41212 802//
BBXX VSJG7 17064 99546 71598 41297 72230 10040 20020 49930 51020 76011 86920 22253 00060 20602 32222 40502 50502 6//// 80030 ICE /////
BBXX 4XIS 17063 99333 11397 43598 73318 10130 20120 40210 54000 852// 22215 20403 330// 40706 80110
BBXX C6SI6 17064 99369 11261 46/// /0304 11004 21062 40326 56014 7//// 8//// 22283 0//// 2////
BBXX MIBR 17063 99327 11339 41598 63512 10088 21014 40242 56021 70122 865// 22214 00223 20402 335// 40603 5//// 80049
BBXX ONDE 17064 99345 11414 41897 43123 10110 21002 40170 53010 7//11 8443/ 22233 00220 20605 331// 4//// 5//// 6//// 80060 ICE /////
BBXX V7DI8 17063 99336 11248 41497 73420 10070 20000 40325 56015 70282 873// 22200 00170 20604 334// 40704 5//// 6//// 80040 ICE /////
BBXX 44139 17061 99442 70571 46/// /2911 10070 40103 52024 22200 00082 11008 70039 333 91213
AAXX 17061 26045 01384 81103 10015 20005 39929 49932 56006 60002 70222 886// 333 10015 21002 60007 88709 555 11001 21002 31000 50011
AAXX 17061 26058 01138 81103 10000 21002 39940 49947 55002 60002 71022 886// 333 10012 21000 60007 88702 555 11000 21000 31100 50008 52000
AAXX 17064 41891 31945 01506 10228 20130 30113 40152 70541 333 58011 70000
AAXX 17064 41907 31/05 90502 10135 20130 30154 40169 74544 89/// 333 56999 59008 70000
AAXX 17064 48353 32662 10000 10264 20129 39858 40147 57039 81100 333 58006
AAXX 17064 48566 32560 60303 10306 20232 30083 40091 57026 82846 333 59014
AAXX 17064 71705 12574 22713 11026 21078 30037 40125 51024 60001 82500 333 10094 21028 70044 555 10000 20000 32829 40191
AAXX 17064 48304 32565 60000 10245 20169 39692 40153 57030 83546 333 58000
AAXX 17061 01025 16/// /0801 11050 21072 39893 49904 52009 60002 333 21051 91106
AAXX 17061 01092 46/// /2214 11019 21051 333 21025 91118
AAXX 17061 01199 11985 82106 11025 21040 39483 49948 51006 60002 70221 80002 333 21049 47032 70007 91109
AAXX 17061 01329 11475 80504 11007 21020 39856 49917 52009 60022 70282 888// 333 21011 43002 70019 91110
AAXX 17061 01337 16/// /0000 11025 21039 39854 49921 53010 60022 333 21031 70016 91103
AAXX 17061 01389 11985 01201 11074 21085 39610 49927 53011 69942 70220 333 21081 43020 70016 91103
AAXX 17061 01436 11485 33203 10010 21029 60002 70210 81362 333 20007 70066 91108
AAXX 17061 01370 16/// /3601 11140 21155 38820 40040 52009 69922 333 21140 4/028 70010 91104
AAXX 17061 01419 16/// /3401 11028 21033 69962 333 21038 91103
AAXX 17061 01473 11880 70102 11029 21047 39703 49912 53011 60002 70122 86040 333 21029 70024 91104
AAXX 17064 08306 12565 13217 10133 20025 30149 40155 52010 60002 81881 333 20129 55011 70000
AAXX 17061 01265 16/// /2502 11089 21102 39334 49929 52015 60002 333 21089 70000 91104
AAXX 17061 01273 16/// /1701 11068 21081 39703 49903 53014 60002 333 21074 70003 91104
AAXX 17061 01375 16/// /0000 11072 21078 6//// 333 21072 91100
AAXX 17061 01440 46/// /3103 11069 21076 38628 49919 52008 333 21126 91103
AAXX 17061 01469 16/// /3202 11015 21034 39740 49912 53011 60002 333 21018 70034 91105
AAXX 17061 01228 46/// /2208 10037 21016 39869 49876 53013 333 20032 91110
AAXX 17061 01340 16/// /1502 11067 21084 39043 49924 53006 69952 333 21130 70014 91104
AAXX 17061 01425 16/// /1501 11018 21024 39838 49919 52010 60002 333 21031 70000 91103
AAXX 17064 91753 04582 /1010 10283 20245 30070 40102 53007 69942 700// 333 10312 20269 3/026 55063 69927 70012 90710 91117 555 60005
AAXX 17064 91754 06/// /0806 10286 20235 30063 40104 53005 60001 333 60007 555 10313 20264 60004 60005
AAXX 17064 71705 12574 22713 11026 21078 30037 40125 51024 60001 82500 333 10094 21028 70044 555 10000 20000 32829 40191
BBXX 42085 17061 99179 70665 46/// /0404 10245 40144 90600 22200 00281 10502 70008 333 91205
BBXX 42085 17061 99179 70665 46/// /0405 10246 40146 90550 333 91206
BBXX 42067 17061 99300 70886 46/// ///// 10146 20142 40238 90540 22200 00163 10801 70007
AAXX 17064 71832 16/// /2404 11183 21212 39914 40259 58007 60001 333 11140 21216 70000 555 32818 40071
AAXX 17064 71669 16/// /2201 10009 21042 38586 40215 58006 60001 333 10024 21037 70000 555 32622 40221
AAXX 17064 71671 16/// /2708 11002 21043 30066 40126 51024 60001 333 10110 21002 70029 555 32931 40222
AAXX 17064 71110 16/// /2625 10029 20008 39952 40011 53045 60001 333 10077 20014 70212 555 31651 40223
AAXX 17064 71141 16/// /3208 11305 21335 30049 40077 57004 60001 333 11271 21307 70000
AAXX 17064 71147 16/// /2115 11052 21069 60001 333 11050 21155 70000 555 32221 40061
AAXX 17064 71087 46/// /1103 11246 21272 39915 40129 56009 6///1 333 11173 21264 7////
AAXX 17064 71250 17/// /2515 10039 20015 39842 49976 53014 60061 7//4/ 333 10075 21027 70137 555 32235 40053
AAXX 17064 71270 17/// /3513 11022 21039 30006 40230 52008 69931 7//4/ 333 10041 21031 70024 555 32925 40071
AAXX 17064 71279 16/// /3109 11120 21177 30056 40123 51022 60001 333 10010 21123 70064 555 33125 40021
AAXX 17064 71296 17/// /3205 11041 21046 39911 40222 51007 69951 7//4/ 333 10047 70023 555 10010 20023 32724 40071
AAXX 17064 71243 16/// /2618 10056 21019 39140 40221 55004 60001 333 10058 21079 70000 555 32730 40042
AAXX 17064 71246 16/// /1602 11120 21131 39490 40167 58008 60001 333 11012 21139 70000 555 32518 40201
AAXX 17064 71851 16/// /2310 11046 21067 39833 40176 56040 60001 333 11046 21150 70000
AAXX 17064 71885 16/// ///// 10042 60001 333 10054 21067 7////
AAXX 17064 71886 16/// /2711 11055 21085 39546 40166 55005 60001 333 11037 21148 70000 555 32325 40011
AAXX 17064 71622 17/// ///// 11025 21043 39893 40237 51004 69941 7//4/ 333 10013 21025 70004
AAXX 17064 71356 16/// /3210 11291 21320 30049 40119 56006 60001 333 11251 21299 70000 555 33234 40073
AAXX 17064 71357 17/// /1904 11153 21168 39850 49857 56040 69941 7//4/ 333 11152 21236 70024 555 10030 20024
AAXX 17064 71361 16/// /1604 11199 21221 39914 40129 56012 60001 333 11090 21206 70000 555 33120 40191
AAXX 17064 71364 17/// /0902 11245 21271 39977 40116 58007 69981 7//4/ 333 11240 21268 70015 555 10020 20015
AAXX 17064 71381 46/// /3213 11118 21147 6///1 333 21118 7////
AAXX 17064 71393 16/// ///// 10038 21048 38922 40198 56004 60001 333 10056 21086 70000
AAXX 17064 71300 17/// /3505 11053 21070 30078 40203 53010 69931 7//4/ 333 10073 21053 70013 555 32726 40101
AAXX 17064 71309 16/// /2404 11225 21255 30218 40230 57003 60001 333 11125 21228 70000 555 33218 40091
AAXX 17064 71311 16/// /3105 11020 21060 30104 40129 53030 60001 333 10101 21021 70057 555 32130 40092
AAXX 17064 71320 16/// /3503 11279 21305 39943 49943 56010 60001 333 11249 21331 70000
AAXX 17064 71321 16/// /3406 11225 21250 39842 49886 57013 60001 333 11114 21232 70000
AAXX 17064 71332 16/// /2503 11203 21225 30087 40117 56007 60001 333 11202 21314 70000
AAXX 17064 71501 16/// /0405 11232 21256 30119 40121 58008 60001 333 11230 21333 70006
AAXX 17064 71511 16/// /2811 11056 21082 39539 40189 51004 60001 333 11035 21150 70000
AAXX 17064 71522 46/// /2907 11151 21181 39669 40171 55001 6///1 333 10008 21151 70000
AAXX 17064 71435 16/// /1901 11261 21284 39638 40269 58015 60001 333 11132 21262 70006
AAXX 17064 71441 46/// /2011 11065 21085 39886 40204 56038 6///1 333 11065 21153 7//// 555 31917 40061
AAXX 17064 71472 17/// /0305 10072 20067 30089 40106 50003 60021 7//4/ 333 10078 20061 7////
AAXX 17064 71915 11974 53412 11254 21294 39899 49983 58002 69901 77677 85030 333 11240 21292 48044 79999 90983 555 19999 29999 33324 40121
AAXX 17064 71954 46/// /3207 11066 21084 39726 40111 53008 6///1 333 11063 21179 7////
AAXX 17064 71956 16/// /0106 11098 21141 30025 40265 51004 60001 333 10016 21098 70000 555 33025 40071
AAXX 17064 71959 17/// ///// 10022 21013 69971 7//4/ 333 10128 20018 70069
AAXX 17064 71970 16/// /2509 11060 21091 39580 40176 53011 60001 333 11008 21188 70000 555 32526 40191
AAXX 17064 71977 46/// /0000 11228 21228 39355 40086 56006 6///1 333 11199 21244 7//// 555 10010
AAXX 17064 71978 46/// /2201 11310 21342 39777 40105 58008 6///1 333 11239 21335 7////
AAXX 17064 71989 16/// /0502 11396 21438 30145 40162 52003 60001 333 11286 21397 70000
AAXX 17064 71752 16/// /2807 10001 21016 30001 40221 50000 60001 333 10037 20001 70000
AAXX 17064 71758 16/// /2715 10015 21023 30004 40080 53040 60001 333 10090 20013 70202 555 31837 40103
AAXX 17064 71771 46/// /3404 10069 20068 30079 40100 55000 6///1 333 10083 20053 7////
AAXX 17064 71783 16/// /1501 10062 20055 30219 40294 57004 60001 333 10076 20051 70016
AAXX 17064 71807 17/// /2428 10041 20021 39986 40004 53037 60011 7//4/ 333 10085 21002 70216 555 31944 40013
AAXX 17064 71808 11574 83014 11009 21021 39857 49903 53035 60031 72276 885// 333 10026 21016 44017 70270 90983 555 10084 20084 33022 40051
AAXX 17064 71920 16/// /3309 10033 21006 30139 40145 51006 60001 333 10102 20033 70026 555 32839 40163
AAXX 17064 71724 16/// /3310 11064 21123 30184 40192 53007 60001 333 10079 21064 70040 555 33027 40171
AAXX 17064 71734 16/// /2403 11187 21215 39841 40252 50002 60001 333 11027 21188 70012 555 33429 40092
AAXX 17064 71736 46/// ///// 10036 21021 6///1 333 10038 21016 7////
AAXX 17064 71742 46/// /2522 10030 20015 39738 49920 53042 6///1 333 10068 21021 7//// 555 32638 40053
AAXX 17064 71747 16/// /0000 11216 21236 39770 40271 56016 60001 333 11085 21228 7////
AAXX 17064 71155 16/// ///// 11035 21051 60001 333 10009 21102 70000
AAXX 17064 71156 16/// /2902 11027 21056 39073 40179 58013 60001 333 10042 21110 70000
AAXX 17064 71158 17/// /1709 11090 21104 39842 40125 56052 60021 7//4/ 333 11090 21261 70017 555 32117 40051
AAXX 17064 71159 17/// /3017 11002 21033 39934 40005 53054 60041 7//4/ 333 10068 21002 70096 555 32937 40043
AAXX 17064 71160 16/// /3005 11165 21193 39912 40132 53017 60001 333 11147 21241 70000 555 31418 40101
AAXX 17064 71162 16/// /0203 11167 21189 39913 40128 55005 60001 333 11119 21168 70000 555 31421 40071
AAXX 17064 71164 46/// /1601 11225 21250 30051 40135 56009 6///1 333 11224 21237 7////
AAXX 17064 71165 46/// ///03 11169 21187 39831 40122 55008 6///1 333 11157 21190 7////
AAXX 17064 71166 46/// /0903 39479 56012 6///1 333 7//// 555 32222 40121
AAXX 17064 71015 16/// ///// 10031 60001 333 10033 21062 70000
AAXX 17064 71017 16/// /2709 11329 21363 30091 40106 56002 60001 333 11300 21337 70000
AAXX 17064 71019 46/// /3108 11101 21136 39843 40150 50005 6///1 333 10042 21101 7//// 555 33137 40203
AAXX 17064 71020 46/// /1701 11180 21199 39817 40079 58014 6///1 333 10005 21224 7////
AAXX 17064 71021 46/// /0000 11182 21203 39742 40104 58013 6///1 333 11057 21204 7////
AAXX 17064 71450 16/// /2508 11059 21079 39479 40213 52006 60001 333 11006 21115 70000 555 32619 40021
AAXX 17064 71451 17/// /2903 11087 21108 39677 40111 53011 69971 7//4/ 333 11079 21163 70013 555 10010 20013
AAXX 17064 71453 16/// /1903 11087 21101 39300 40235 51002 60001 333 10016 21097 70000 555 32217 40171
AAXX 17064 71455 46/// /2610 11073 21095 39402 40217 53006 6///1 333 11016 21104 7//// 555 32419 40231
AAXX 17064 71456 16/// /2707 11067 21102 39560 40169 53013 60001 333 11051 21192 70000 555 32224 40201
AAXX 17064 71465 46/// /2705 11007 21055 30027 40248 58001 6///1 333 10030 21007 7//// 555 32926 40081
AAXX 17064 71470 16/// /0000 11261 21288 39483 40132 55002 60001 333 11205 21275 70000
AAXX 17064 71476 17/// /0426 30094 55007 60071 7//4/ 333 70096 555 30539 40103
AAXX 17064 71478 17/// /1939 10092 20090 30025 40161 58010 60111 7//4/ 333 10092 20071 70490 555 31652 40103
AAXX 17064 71480 16/// /3501 11300 21330 39985 40113 56007 60001 333 11232 21303 70000
AAXX 17064 71482 46/// /0607 10049 30146 40184 57006 6///1 333 10049 20008 7//// 555 30417 40211
AAXX 17064 71484 16/// /2110 10078 20074 30074 40092 53001 60001 333 10082 20032 70000 555 31636 40093
AAXX 17064 71487 16/// /2611 11049 21082 39327 40212 56006 60001 333 11024 21123 70000 555 32620 40041
AAXX 17064 71492 46/// ///00 11324 21358 39381 40113 56004 6///1 333 11218 21338 7//// 555 10010
AAXX 17064 71407 16/// /2514 11256 21286 39988 40009 58004 60001 333 11181 21266 70000 555 32724 40021
AAXX 17064 71427 16/// /2910 11099 21151 30140 40148 53017 60001 333 10019 21100 70080 555 32726 40221
AAXX 17064 71442 16/// /2113 11050 21076 39829 40150 56049 60001 333 11050 21184 70000 555 31823 40051
AAXX 17064 71553 16/// /2511 11077 21093 60001 333 11058 21164 70000 555 32020 40011
AAXX 17064 71554 16/// /3012 11084 21134 30161 40167 53009 60001 333 10048 21086 70015 555 33133 40222
AAXX 17064 71564 16/// /2414 11044 21066 39810 40188 58045 60001 333 11043 21136 70003 555 32426 40061
AAXX 17064 71577 46/// /2018 11075 21095 6///1 333 11075 21172 7//// 555 32024 40051
AAXX 17064 71579 16/// /2107 11068 21094 39889 40181 58046 60001 333 11068 21159 70003
AAXX 17064 71581 16/// /3603 11099 21124 39727 40222 53011 60001 333 10020 70011 555 33317 40111
AAXX 17064 71585 16/// /2302 11146 21155 39686 40158 51002 60001 333 7////
AAXX 17064 71599 16/// /3401 10003 21016 39938 40141 52011 60001 333 10096 21011 70044 555 10010 20044 32518 40081
AAXX 17064 71867 11474 83013 11060 21072 39768 40111 53003 60021 77072 885// 333 11052 21216 48025 70016 90917 93103 555 10026 20016 31717 40000
AAXX 17064 71837 16/// ///// 10035 60001 333 7////
AAXX 17064 71839 16/// ///// 10040 60001 333 10053 21081 7////
AAXX 17064 71137 16/// /0604 11166 21183 39269 40251 56006 60001 333 11067 21166 70000
AAXX 17064 71148 16/// /2420 11055 21066 39606 40200 56030 60001 333 11055 21138 70000 555 32425 40061
AAXX 17064 71935 11174 21407 11202 21236 39924 40140 56012 69901 70271 82600 333 11093 21206 44012 79999 90951 555 19999 29999
AAXX 17064 71633 11574 53109 11057 21134 39970 40248 53010 69901 72272 85500 333 10025 21059 42997 70014 90913 555 10012 20012 32728 40071
AAXX 17064 71719 16/// /3121 11053 21102 30102 40108 51027 60001 333 10060 21053 70040 555 33032 40222
AAXX 17064 71807 17/// /2428 10041 20021 39986 40004 53037 60011 7//4/ 333 10085 21002 70216 555 31944 40013
AAXX 17064 71808 11574 83014 11009 21021 39857 49903 53035 60031 72276 885// 333 10026 21016 44017 70270 90983 555 10084 20084 33022 40051
AAXX 17064 71137 16/// /0604 11166 21183 39269 40251 56006 60001 333 11067 21166 70000
AAXX 17064 71148 16/// /2420 11055 21066 39606 40200 56030 60001 333 11055 21138 70000 555 32425 40061
AAXX 17064 71915 11974 53412 11254 21294 39899 49983 58002 69901 77677 85030 333 11240 21292 48044 79999 90983 555 19999 29999 33324 40121
AAXX 17064 71832 16/// /2404 11183 21212 39914 40259 58007 60001 333 11140 21216 70000 555 32818 40071
AAXX 17064 71867 11474 83013 11060 21072 39768 40111 53003 60021 77072 885// 333 11052 21216 48025 70016 90917 93103 555 10026 20016 31717 40000
AAXX 17064 71435 16/// /1901 11261 21284 39638 40269 58015 60001 333 11132 21262 70006
AAXX 17064 71441 46/// /2011 11065 21085 39886 40204 56038 6///1 333 11065 21153 7//// 555 31917 40061
AAXX 17064 71472 17/// /0305 10072 20067 30089 40106 50003 60021 7//4/ 333 10078 20061 7////
AAXX 17064 71633 11574 53109 11057 21134 39970 40248 53010 69901 72272 85500 333 10025 21059 42997 70014 90913 555 10012 20012 32728 40071
AAXX 17064 71719 16/// /3121 11053 21102 30102 40108 51027 60001 333 10060 21053 70040 555 33032 40222
AAXX 17064 71935 11174 21407 11202 21236 39924 40140 56012 69901 70271 82600 333 11093 21206 44012 79999 90951 555 19999 29999
AAXX 17064 68320 32660 33611 10252 20193 48545 52018 81582 333 20201
BBXX SLKR 17063 99041 51104 43/97 41218 10225 40145 50011 22254 00233 2//// 4////
AAXX 17064 61974 11462 72103 10262 20244 40102 60284 78022 85942 333 0//21 20239 59008 81915 84816 94329
AAXX 17064 61986 12580 10906 10306 20235 40099 60004 81802 333 20258 59005 81820 94329
AAXX 17064 61988 11465 61308 10278 20228 40110 60044 71581 86302 333 0//13 20230 50332 58003 81915 85817 91121
AAXX 17064 61989 11468 61212 10282 20223 40117 69904 71581 86802 333 0//12 20231 58000 86817
AAXX 17064 61990 11130 80608 10240 20217 40114 60404 78082 88840 333 02111 20216 50592 59014 81703 86812 87650 94321
AAXX 17064 61995 11358 80905 10215 20201 39632 60054 76082 8887/ 333 01911 20193 50062 59015 81709 85815 85650 94322
BBXX 44150 17061 99425 70640 46/// /3309 10070 40145 52012 22200 00112 11008 70040 333 91211
AAXX 17064 78016 32564 72508 10199 20143 30199 40203 57015 87500 333 10212 20163 79999
AAXX 17064 89002 42399 81209 11016 21034 39700 49754 57012 888//
AAXX 17064 60135 32558 31708 10104 20073 40285 58012 83500 333 20077 30005 83620
AAXX 17064 60156 15960 01306 10051 20042 40307 58009 69904 333 20046
AAXX 17064 60252 32915 01404 10050 20032 40252 56002 333 20041
AAXX 17061 13180 11697 81410 10077 20075 39754 49862 57033 60032 76266 885// 333 20070 32007 55051 70033 91115
AAXX 17061 13383 32698 31608 10149 20035 39702 49996 57033 83500 333 20110 31010 55042 70000 91115
AAXX 17061 13389 32698 81502 10134 21019 39658 49928 57025 885// 333 20076 31007 55057 70000
AAXX 17061 13369 11597 82010 10054 20028 38729 48231 57025 69982 76162 887// 333 20054 3/005 55033 70008 91015 91117
AAXX 17061 13173 11697 81609 10104 20065 39748 49845 57035 60022 76162 8652/ 333 20088 31008 55060 70019 91115
AAXX 17061 13266 12698 82808 10145 20051 39751 49847 57030 69921 885// 333 20085 31008 55056 70002 91013 91113
AAXX 17061 13384 32698 71605 10134 20028 39753 49898 57032 87500 333 20084 31006 55051 70000
AAXX 17061 13378 31/91 92111 10006 20006 38042 48274 57022 74544 333 21007 3/000 42003 55042 70000 91021 91121
AAXX 17061 13397 32698 60907 10106 20015 39439 49960 57022 86500 333 20030 31002 55037 70000 91011 91113
AAXX 17061 13278 32698 61404 10136 20060 39667 49880 57034 86500 333 20106 31010 55060 70000
BBXX MINFR09 1706/ 99390 31476 46/// ///// 40190 57016
BBXX 44150 17061 99425 70640 46/// /3309 10070 40145 52012 22200 00112 11008 70040 333 91211
AAXX 17061 48852 01460 83203 10174 20173 30172 40182 57029 60573 76166 8672/ 333 59002 60161 86894 88499 9616 0
AAXX 17061 48855 01560 80203 10235 20193 30169 40177 58029 60013 70262 888// 333 58000 69921 83895 88697
AAXX 17061 48848 01565 83204 10163 20144 30195 40203 57026 69993 70262 888// 333 59008 69911 83895 88697
AAXX 17061 37279 32898 70901 10091 21019 39984 40127 53004 87070 555 20038
AAXX 17061 37308 32999 00000 11030 21047 39549 40225 58023 333 21048
AAXX 17061 37531 32999 20000 11024 21037 39489 40240 52007 80050 333 21040
AAXX 17061 37553 32999 13001 10022 21018 39537 40193 57004 80031 333 21030
AAXX 17061 37651 16/// ///00 11015 21021 3//// 4//// 5//// 60002 333 21046
AAXX 17061 37492 NIL
AAXX 17061 01218 16/// /1506 10025 21083 39878 49899 53015 60002 333 20015 70000 91114
AAXX 17061 01281 16/// /2801 11106 21119 39736 49917 51013 60002 333 21106 70000 91108
AAXX 17064 86330 32998 32203 10174 20157 40072 57004 80006
AAXX 17064 86360 NIL
AAXX 17064 86460 NIL
AAXX 17064 86490 NIL
AAXX 17064 86530 NIL
AAXX 17064 86545 32497 82406 10168 20161 40070 57/// 8477/
AAXX 17064 86565 11497 72205 10176 20169 40037 56013 69951 72055 87700
AAXX 17064 86580 11496 81613 10176 20169 40067 57011 60031 76262 88500
AAXX 17061 14023 11798 82401 10021 20009 39645 49939 53030 60232 70276 885// 333 20011 31000 55000 70236 88656 93100 555 20038 30046
AAXX 17061 14024 11398 82502 11028 21029 38840 48254 52030 60292 72874 8687/ 333 21028 3/102 49022 55000 70289 81808 84612 91110 92808 93122 95000 95180 444 56076
AAXX 17064 04211 45/84 /0712 11077 21156 39837 49998 57023 333 11070 21083
AAXX 17064 04220 05784 80709 11041 21077 39891 49943 57034 69912 333 11036 21083 55300 20004 6///7 70012 81/58 85/59 88/61
AAXX 17064 04221 45984 80924 11044 21167 39909 49946 57041 333 11044 21067 88/64
AAXX 17064 04231 12989 80811 11035 21097 39871 49944 57034 6///2 8807/ 333 11021 21048 88361
AAXX 17064 04234 47839 80724 11007 21095 39893 49903 57034 72488 333 11007 21038 88/56 91140 91036
AAXX 17064 04241 47557 80918 11018 21031 39864 49903 57038 75455 333 11017 21039 83/29 87/34 88/40
AAXX 17064 04250 07683 71423 10014 21049 39785 49887 57041 60022 70087 333 10014 21020 55300 20000 69917 70057 81/40 87/50 91142
AAXX 17064 04254 47638 71510 10013 21074 39794 49905 57041 77777 333 10016 21016 87/37 91134
AAXX 17064 04260 47784 71323 10013 21066 39858 49901 57050 72288 333 10017 21014 87/56 91137
AAXX 17064 04270 45883 72906 11025 21057 39966 40005 57048 333 11010 21079 83/57 87/59
AAXX 17064 04272 07/14 9//// 11020 21027 39924 49996 57039 60022 77187 333 11016 21031 60017 70023 89/10
AAXX 17064 04312 46/// ///// 11227 21258 30033 40076 52001
AAXX 17064 04320 45/83 /3115 11197 21292 30030 40046 52006 333 11171 21230 55300
AAXX 17064 04339 45/84 ///// 11152 21224 39981 40076 52012 333 11134 21169 55300 20000
AAXX 17064 04360 06/// /2403 11092 21186 30005 40077 52016 6///2 333 11074 21107 55300 20000 6///7 70000
AAXX 17064 04361 469// 41602 11088 21207 30028 40082 52015 333 11069 21127 84/69
AAXX 17064 04390 07219 80106 11043 21049 39958 40053 57022 60082 77174 333 11029 21044 60017 70195 81/06 85/13 88/20
BBXX SKUN 17063 99507 70339 43/97 31518 10060 40224 58008 22214 00070 2//// 4////
BBXX SBLI 17061 99300 71630 43/98 40908 10188 40266 53012 22264 00223 2//// 4//// 426621110
BBXX SKWI 17064 99438 70466 43/97 82124 10130 40133 58018 22263 00170 2//// 4////
AAXX 17064 65306 31950 50608 10189 20016 39798 40131 70522 80002 333 01100 20187 50914 55100 59005 85076
AAXX 17064 65319 31930 53604 10200 20005 39608 40121 70522 80002 333 01900 20180 50754 55100 59006 85076
AAXX 17064 65330 31915 50808 10191 21010 39676 40114 70522 80002 333 01700 20188 50934 55095 00436 58000 85076
AAXX 17064 65335 31940 50404 10191 20126 39886 40114 70522 80002 333 01300 20187 50574 55097 59008 85076
AAXX 17064 65344 31425 50204 10222 20207 30103 40114 71022 81502 333 02000 20215 50614 55082 58001 81612 85076
BBXX SLKQ 17061 99088 10726 43/97 10405 10291 40115 50003 22263 00294 2////4////
BBXX SLCO 17064 99076 11450 43/97 70721 10290 40070 56018 22234 00282 20404 40504
AAXX 17061 14015 11565 71901 10015 20010 39584 49943 51039 60212 72376 87500 333 20011 32100 55000 70288 83627 87640 93100 555 20041 30052
BBXX 9V8797 17064 99253 10574 43/98 10902 10233 40189 54000 22234 00253 2//// 4////
AAXX 17061 13492 ///// 8//// 10040 333 20010
AAXX 17061 13584 NIL
AAXX 17061 13585 42698 62310 10116 20015 39207 49972 55009 86500 333 20073 31006 90977 91115 91323
AAXX 17061 13597 42698 82501 10056 20045 39935 40008 5//// 885// 333 20041 30000
AAXX 17061 13598 42698 81803 10080 20015 48388 56008 885// 333 20052 31005
AAXX 17061 33791 11909 91608 10058 20058 39897 40046 50000 60022 74354 333 20054
AAXX 17061 56778 32575 42006 10154 20042 38120 57035 84100 333 05311 20047
AAXX 17061 58221 32964 21601 10048 21113 30313 40343 57041 80002 333 21045
AAXX 17061 58238 32961 01101 10045 21120 30301 40348 57033 333 21052
AAXX 17061 58251 32969 03603 10033 21090 30340 40345 57033 333 21054
AAXX 17061 58457 31959 03403 10054 21126 30286 40341 57034 70500 333 21019
AAXX 17061 58606 32961 70903 10080 21048 30253 40313 57037 87040 333 20019
AAXX 17061 58752 32964 00203 10106 21076 30263 40310 57033 333 20023
AAXX 17061 58847 32666 41603 10135 21037 30175 40279 57036 81140 333 20059
AAXX 17061 59134 32965 00702 10142 20039 30084 40255 57035 333 20084
AAXX 17061 59287 32962 50402 10166 20043 30150 40237 57041 83042 333 20100
AAXX 17061 59316 32965 01105 10158 20045 30234 40239 57035 333 20117
AAXX 17061 59431 32960 70902 10160 20031 30092 40240 57043 8704/ 333 20113
AAXX 17061 59644 31958 73603 10181 20075 30206 40223 57037 70500 8704/ 333 20128
AAXX 17061 59758 32468 80705 10176 20131 30137 40214 57028 888// 333 20170
AAXX 17061 53588 32980 02704 11075 21191 37809 57012 333 21159
AAXX 17061 53772 31957 32501 11006 21160 39380 40354 57029 70400 80002 333 21120
AAXX 17061 54342 32970 03402 11041 21199 30238 40304 57009 333 21191
AAXX 17061 54511 32965 22002 10016 21190 30277 40319 57026 80002 333 21102
AAXX 17061 56080 11575 70901 11030 21141 37146 57020 69911 70070 81102 333 00151 21099
AAXX 17061 57083 32963 71802 10056 21098 30183 40325 57035 80002 333 21049
AAXX 17061 50136 32970 72502 11143 21227 39651 40230 57007 82032 333 21294
AAXX 17061 50745 32967 12904 11083 21179 30056 40253 57008 80002 333 21186
AAXX 17061 50774 32960 02503 11132 21186 39883 40213 57003 333 21242
AAXX 17061 50788 11970 72507 11127 21177 30096 40188 52002 69901 70070 80002 333 21200
AAXX 17061 51133 11980 00901 11083 21123 39697 40394 57014 69911 70070 333 05200 21137
AAXX 17061 51431 32975 70901 11035 21087 39517 40352 57017 80002 333 05402 21066
AAXX 17061 51747 32970 00904 11040 21108 39005 40374 57012 333 00000 21212
AAXX 17061 52203 32980 12501 11024 21158 39435 40364 57025 80002 333 00001 21136
AAXX 17061 52418 32980 73602 11040 21126 38975 40375 57025 83042 333 00251 21120
AAXX 17061 52681 32980 73601 11048 21169 38719 40384 57015 82042 333 00201 21162
AAXX 17061 53564 32980 00000 11037 21209 39295 40387 57028 333 05404 21184
AAXX 17061 53614 32965 70402 11051 21125 39007 40380 57020 82032 333 00051 21122
AAXX 17061 53646 32975 73201 11029 21166 38943 40362 57016 80002 333 05303 21151
AAXX 17061 53798 32960 70901 10012 21086 30225 40326 57029 80002 333 21066
AAXX 17061 53845 32968 81601 10000 21108 39163 40339 57031 80007 333 05402 21091
AAXX 17061 53959 32960 73602 10027 21095 39870 40332 57032 8703/ 333 21058
AAXX 17061 54094 32668 22503 11095 21212 39919 40241 57005 82100 333 21210
AAXX 17061 54102 32980 02004 11169 21223 39120 40434 57009 333 21286
AAXX 17061 54161 32965 02703 11092 21222 39975 40290 54000 333 21172
AAXX 17061 54292 32980 32906 11073 21227 39909 40250 57014 83030 333 21184
AAXX 17061 54374 32970 00000 11108 21194 39811 40318 57029 333 21252
AAXX 17061 54423 32980 01401 11026 21214 39787 40336 57031 333 21179
AAXX 17061 54618 32963 62202 10020 21112 30307 40326 57031 80002 333 21074
AAXX 17061 54843 32980 22502 10017 21189 30310 40339 57032 80001 333 21101
AAXX 17061 54909 32970 42004 10037 21090 30265 40332 57041 80002 333 21060
AAXX 17061 56029 32980 82905 11015 21264 36445 57014 8802/ 333 00452 21063
AAXX 17061 57127 32961 70401 10066 21011 39673 40295 57030 8703/ 333 20041
AAXX 17061 57131 32965 73602 10019 21085 39825 40342 57034 8703/ 333 21030
AAXX 17060 44214 32997 20000 11193 21254 38331 40478 58010 80002
AAXX 17060 44231 31996 70000 11261 21318 38842 40584 58010 70421 80008
AAXX 17060 44259 32997 03007 11177 21223 39398 40378 58010 333 91112
AAXX 17060 44277 32999 20202 11153 21195 37834 40454 58005 80004
AAXX 17060 44288 32899 71102 11113 21228 38224 40416 58013 83048
AAXX 17060 44292 31895 51601 11238 21285 38810 40513 58012 70421 83081
AAXX 17060 44304 32999 00000 11222 21261 39098 40455 58011
AAXX 17060 44354 32999 03207 11184 21225 39219 40473 57007
AAXX 17060 44373 32999 50202 11133 21185 38606 40402 58013 83084
AAXX 17060 44203 32999 00000 11356 21383 38518 40661 58010
AAXX 17060 44207 32999 22302 11245 21285 38395 40514 56011 80004
AAXX 17060 44212 32999 20000 11256 21281 39288 40564 58012 80004
AAXX 17060 44213 32999 30000 11260 21307 38909 40564 57006 80001
AAXX 17060 44215 32998 20000 11251 21269 38484 40508 57012 80001
AAXX 17060 44218 31997 03503 11195 21236 38689 40475 58012 70400
AAXX 17060 44225 41997 70000 11273 21291 38344 40548 54000 71571 87010
AAXX 17060 44230 32998 20000 11249 21298 38918 40572 58012 80004
AAXX 17060 44232 32999 00000 11316 21353 39267 40577 57013
AAXX 17060 44237 32999 60000 11250 21281 38571 40507 58009 83046
AAXX 17060 44239 31998 03302 11253 21307 38909 40502 56010 70400
AAXX 17060 44241 32999 00000 11260 21291 39413 40510 58016
AAXX 17060 44256 31999 02707 11110 21154 39412 40305 56008 70230
AAXX 17060 44265 32999 20000 11145 21196 38935 40431 58024 80001
AAXX 17060 44272 41998 60000 11191 21249 38274 40421 58004 70272 82048
AAXX 17060 44275 41898 30000 11188 21215 37758 40432 58007 70271 81041
AAXX 17060 44282 32999 71401 11156 21226 38359 40441 57014 80028
AAXX 17060 44284 31897 70000 11200 21240 37898 40517 57011 77622 87010
AAXX 17060 44285 32899 70000 11201 21232 38389 40480 58015 86044
AAXX 17060 44287 32899 30604 11116 21189 40417 58012 81040
AAXX 17060 44294 32998 00000 11197 21246 38649 40456 57009
AAXX 17060 44298 32999 03607 11214 21233 38805 40446 58007
AAXX 17060 44302 32999 02505 11212 21265 39204 40420 57012
AAXX 17060 44305 32999 02706 11188 21238 39146 40402 58010
AAXX 17060 44313 32999 00000 11156 21207 39457 40360 58005
AAXX 17060 44314 32998 02905 11127 21179 39240 40396 54000
AAXX 17060 44317 32998 02703 11144 21195 39024 40390 58002
AAXX 17060 44336 32999 70000 11158 21220 38789 40471 57013 80008
AAXX 17060 44341 32999 10000 11145 21208 38689 40444 58008 80004
AAXX 17060 44347 32999 60000 11131 21213 38800 40409 58016 80007
AAXX 17060 44352 32999 00000 11160 21202 39004 40393 58004
AAXX 17060 44358 32998 00000 11176 21210 39184 40427 56006
BBXX 44255 17061 99473 70573 46/// /2715 10035 40005 5//// 22200 00043 10808 70042 333 91219
AAXX 17061 56778 32575 42006 10154 20042 38120 57035 84100 333 05311 20047
AAXX 17061 57265 32965 70901 10057 21047 30205 40321 57044 8703/ 333 21017
AAXX 17061 57494 32970 81603 10071 21037 30285 40316 57041 8807/ 333 21034
AAXX 17061 58362 32580 23602 10051 21045 30338 40347 57026 82100 333 21015
AAXX 17061 51076 32980 10701 11110 21139 39455 40413 57009 80002 333 05151 21190
AAXX 17061 51243 11865 70701 11077 21105 39802 40397 57010 69931 77077 81502 333 05200 21126
AAXX 17061 51463 11765 70402 11100 21117 39212 40389 57013 69941 77077 86502 333 05254 21107
AAXX 17061 51573 32970 62501 11047 21119 30332 40379 57008 80002 333 00153 21088
AAXX 17061 51709 11862 72702 11036 21067 38796 40340 57005 69911 77077 82532 333 00051 21055
AAXX 17061 52533 32970 83401 11039 21149 38604 40388 57016 80007 333 00200 21141
AAXX 17061 52652 32965 73202 11043 21142 38613 40387 57015 80002 333 00251 21162
AAXX 17061 52983 31956 63602 11012 21100 38147 57025 70500 80002 333 00000 21106
AAXX 17061 53915 11965 71402 10003 21059 38725 40321 57027 69901 70070 83042 333 05202 21053
AAXX 17061 54401 32980 02503 11020 21220 39438 40358 57030 333 21156
AAXX 17061 56096 11772 72901 10066 21008 38996 40259 57022 69901 70060 875// 333 05101 20034
AAXX 17061 26763 11458 81406 10054 20040 39727 49950 57010 60012 71062 886// 333 20010 88711 91111 555 90010
AAXX 17061 11603 01460 72804 10016 21013 39419 49898 53038 60012 768// 87500 333 20009 3/000 41998 69925 70173 83618 86641 91116
AAXX 17061 54401 32980 02503 11020 21220 39438 40358 57030 333 21156
BBXX 44255 17061 99473 70573 46/// /2715 10035 40005 5//// 22200 00043 10808 70042 333 91219
AAXX 17061 80001 32470 80302 10266 20237 30122 40123 8327/ 333 5620/ 58010 83814 86458
AAXX 17061 80002 NIL
AAXX 17061 80009 NIL
AAXX 17061 80022 31462 60501 10260 20246 30104 40106 70522 83630 333 5619/ 58013 83712 83357
AAXX 17061 80028 NIL
AAXX 17061 80035 NIL
AAXX 17061 80036 NIL
AAXX 17061 80063 NIL
AAXX 17061 80084 NIL
AAXX 17061 80091 NIL
AAXX 17061 80094 NIL
AAXX 17061 80097 NIL
AAXX 17061 80099 NIL
AAXX 17061 80110 NIL
AAXX 17061 80112 31357 70000 10144 20134 37904 70522 87500 333 560// 58011 87608
AAXX 17061 80139 NIL
AAXX 17061 80144 NIL
AAXX 17061 80149 NIL
AAXX 17061 80210 NIL
AAXX 17061 80211 NIL
AAXX 17061 80214 NIL
AAXX 17061 80222 41167 63102 10130 20121 37520 71522 333 563// 58004 81702 85617
AAXX 17061 80234 NIL
AAXX 17061 80241 NIL
AAXX 17061 80259 41559 80202 10196 20182 39066 71552 8457/ 333 5631/ 58013 84625 85458
AAXX 17061 80315 NIL
AAXX 17061 80342 NIL
AAXX 17061 80370 NIL
AAXX 17061 80398 32870 40000 10240 20233 30009 40098 82030 333
AAXX 17061 48803 32460 80000 10172 20109 30107 40223 57032 888// 333 59001 84894 88696
AAXX 17064 47401 11/58 72608 11063 21116 30100 40115 55000 69901 78582 873//
AAXX 17064 47412 11/60 43404 11034 21102 30114 40148 53005 69901 70181 84300
AAXX 17064 47420 15/70 /3012 11041 21135 30082 40117 53009 60001
AAXX 17064 47426 15/70 /3011 11031 21128 30094 40143 53012 60001
AAXX 17064 47582 11/20 83209 10005 21043 30179 40207 53007 60011 78782 883//
AAXX 17064 47590 12/75 62811 10038 21073 30139 40194 53009 60001 86300
AAXX 17064 47600 17/70 /2907 10042 21033 30228 40236 56008 69901 70076
AAXX 17064 47648 12/80 12913 10087 21059 30165 40200 53003 60001 81100
AAXX 17064 47662 12/82 13408 10092 21093 30154 40199 53006 60001 81100
AAXX 17064 47678 17/70 /2810 10096 21009 30013 40203 53004 69901 70060
AAXX 17064 47740 15/82 /2704 10057 21003 30205 40240 56012 60001
AAXX 17064 47778 15/70 /3011 10089 21043 30139 40224 55009 60001
AAXX 17064 47807 11/65 63005 10067 21010 30264 40283 55006 69901 70282 86200
AAXX 17064 47827 12/84 43414 10098 21004 30231 40270 55005 60001 84400
AAXX 17064 47843 17/83 /3309 10069 21005 30257 40291 56007 69901 72380
AAXX 17064 47893 12/82 12204 10096 21027 30233 40239 55014 60001 81100
AAXX 17064 47909 11/65 73402 10133 20096 30244 40254 55011 60011 78081 872//
AAXX 17064 47918 12/70 60315 10188 20104 30219 40237 56020 60001 86800
AAXX 17064 47936 11/75 80214 10165 20106 30181 40241 56015 69901 76062 888//
AAXX 17064 47945 11/65 80210 10180 20104 30202 40227 55009 69901 72582 8687/
AAXX 17064 47971 11/65 70108 10199 20122 30182 40192 53002 69901 70282 8527/
AAXX 17064 47991 16/// /2009 10265 20196 30148 40158 56004 60001
AAXX 17064 47407 11/65 62511 11056 21117 39959 40138 53006 60021 78582 83202
AAXX 17064 47409 11/80 22706 11057 21126 30064 40120 53010 69901 70281 82200
AAXX 17064 47418 12/82 52913 11027 21141 30074 40125 53010 60001 85200
AAXX 17064 47421 17/12 /3008 11038 21067 30114 40159 53001 69901 77170
AAXX 17064 47430 11/58 73008 11030 21079 30113 40169 53011 69951 78582 873//
AAXX 17064 47570 17/70 /2909 10009 21041 39955 40222 53007 60021 72470
AAXX 17064 47575 11/60 82409 11013 21046 30178 40183 52004 60041 72682 882//
AAXX 17064 47584 11/60 72611 11002 21070 39992 40187 53008 69901 78581 873//
AAXX 17064 47604 11/70 72908 10039 21023 30217 40226 53002 69901 72682 86201
AAXX 17064 47605 11/65 70906 10032 21001 30198 40240 56007 60021 78582 872//
AAXX 17064 47610 11/70 20810 10016 21036 39710 40227 55000 69901 70281 82200
AAXX 17064 47624 12/81 13408 10067 21077 30062 40203 53005 60001 81200
AAXX 17064 47629 12/80 20502 10072 21076 30159 40198 53003 60001 82200
AAXX 17064 47636 12/70 32910 10072 21028 30155 40225 56006 60001 83800
AAXX 17064 47651 11/82 63307 10073 21011 30207 40230 56005 69901 72511 86200
AAXX 17064 47655 15/70 /2715 10096 21047 30135 40192 56005 60001
AAXX 17064 47675 15/70 /0206 10096 21024 30100 40192 53002 60001
AAXX 17064 47741 11/65 72307 10033 20021 30222 40250 56014 60061 78082 872//
AAXX 17064 47746 11/70 61104 10034 20011 30231 40251 56009 69901 72582 86200
AAXX 17064 47750 11465 61103 10057 20020 30214 40242 56009 69951 70281 86200
AAXX 17064 47765 12/84 23008 10084 21051 30194 40261 55008 60001 82200
AAXX 17064 47772 12/80 52806 10082 21042 30134 40236 56009 60001 85230
AAXX 17064 47800 15/82 /3310 10042 21053 30280 40285 55010 60001
AAXX 17064 47815 12/80 23108 10090 21053 30248 40265 55012 60001 82400
AAXX 17064 47817 11/82 70107 10063 21016 30241 40286 55005 69901 70282 872//
AAXX 17064 47830 12/82 12611 10105 21043 30236 40255 56015 60001 81100
AAXX 17064 47887 11/80 62704 10078 21056 30218 40260 55011 69901 70282 86801
AAXX 17064 47891 12/80 72807 10080 21032 30233 40250 55009 60001 872//
AAXX 17064 47895 12/80 53010 10085 21037 30237 40245 55008 60001 84201
AAXX 17064 47927 12/70 70214 10179 20110 30191 40241 56020 60001 8783/
AAXX 17061 48887 32970 70706 10306 20214 30087 40093 58021 80008 333 59006 87299
AAXX 17061 48920 32598 70213 10276 20250 30077 40080 57020 879// 222// 00282 2//06 333 59010 81895 82996 86697
AAXX 17061 48870 01474 70206 10255 20195 30141 40148 58029 60023 70262 8511/ 333 58006 69911 85894 87499
AAXX 17061 48877 32570 73608 10255 20200 30130 40135 57027 878// 333 58005 84895 87697
AAXX 17061 48826 31756 70000 10190 20118 30080 40217 58031 71022 875// 333 59012 87697
AAXX 17061 48839 32697 70210 10178 20114 30147 40214 58033 875// 222// 00192 2//03 333 59005 87696
AAXX 17061 48892 32598 70208 10291 20244 30078 40083 57015 82108 333 59011 82895 87299
AAXX 17061 33791 11/09 91608 10058 20058 39897 40046 50000 60022 74354 333 20054
AAXX 17061 48830 32760 73603 10151 20059 39905 40218 57050 875// 333 59018 87697
AAXX 17061 48808 32470 82001 10176 20077 39935 40223 57047 888// 333 59016 83894 88696
AAXX 17060 44210 32999 20000 11197 21223 38605 58005 82080
AAXX 17060 44216 32598 20000 11255 21280 39149 40563 52010 82506
AAXX 17060 44217 32998 30000 11172 21222 37900 40453 51006 82043
AAXX 17060 44219 32998 00000 11242 21260 38711 40516 58010
AAXX 17060 44221 31996 70000 11250 21288 38688 40535 58005 71622 87010
AAXX 17060 44224 41998 40000 11235 21267 38104 40499 58005 70272 80008 555 81013 84015
AAXX 17060 44229 31998 72301 11225 21265 37961 40471 58007 71522 87010
AAXX 17060 44242 32998 02003 11281 21322 39487 40531 57012
AAXX 17060 44243 32999 00000 11237 21266 39584 40516 56010
AAXX 17060 44254 32998 02703 11174 21229 39126 40394 58009
AAXX 17060 44257 32998 02904 11130 21210 39061 40401 58016
AAXX 17060 44263 32998 00000 11250 21288 38120 40560 58015
AAXX 17060 44266 32999 10000 11153 21204 37793 40378 58004 80008
AAXX 17060 44286 32998 20000 11173 21246 38740 40454 57007 80001
AAXX 17060 44291 31995 00000 11255 21296 38849 40545 58013 70400
AAXX 17060 44325 32999 40502 11149 21183 38943 40424 58006 83034
AAXX 17060 44329 32898 43603 11120 21171 37798 40350 58001 82041
AAXX 17060 44338 32699 50000 11103 21166 38550 40382 57007 82538
AAXX 17060 44348 32997 00000 11150 21220 38771 40400 58005
AAXX 17060 44374 32999 20202 11084 21205 38307 40376 58008 80004
AAXX 17060 44385 32999 20000 11122 21205 39013 40404 58021 80001
AAXX 17060 44386 32999 20000 11167 21209 39156 40434 58007 80002
AAXX 17064 40375 42960 30605 10050 21030 39316 40204 83002 333 20020 59010 83070
AAXX 17061 40706 11408 80902 11028 21053 38676 40278 53003 60001 75042 886XX 333 3/109 42002 79999 88712
AAXX 17061 40718 11508 30000 10080 20076 30231 40202 58002 60001 74242 83600 222// 00090 20301 333 31005 50041 79999 83720
AAXX 17061 40732 12560 30000 10092 20066 30220 40196 56002 60001 82430 333 30101 50041 79999 81630
AAXX 17061 40745 11940 73202 10036 21032 39044 40224 50010 60001 70520 82036 333 30107 70000 82360 86269
AAXX 17061 40754 11630 11602 10064 21010 38840 40201 52011 60001 70500 81030 333 30102 5//// 70000 81360
AAXX 17061 40766 12960 40000 10040 20021 38727 40233 52009 60001 80001 333 30106 70000 84069
AAXX 17061 40800 12960 00000 10054 21041 38474 40208 51014 60001 333 30104 5///1 70000
AAXX 17061 40811 12960 00000 10156 20039 30162 40189 53012 60001 333 30004 50301 70000
AAXX 17061 40841 12665 50000 10066 21081 38272 40206 52017 60001 84362 333 30105 5//// 70000 81935 83640
AAXX 17061 40848 12660 50302 10088 21018 38548 40202 52011 60001 85400 333 30102 50311 70000 85635
AAXX 17061 40856 12965 01902 10159 21163 38647 40167 51015 60001 333 30107 5///1 70000
AAXX 17061 40875 12962 30702 10217 20026 30176 40188 52022 60001 80002 333 30005 50281 70000 83070
AAXX 17064 70133 11559 80820 11089 21111 39943 49948 58009 60011 771// 90553 333 11089 21183 91026 96010 555 91706
AAXX 17064 70174 12666 40000 11206 21228 39789 40042 53003 69901 90553 333 11150 21211 4/071 555 91706
AAXX 17064 70200 11464 80411 11056 21078 39869 49874 58002 69901 771// 90553 333 11050 21128 4/063 555 91706
AAXX 17064 70219 32666 81111 10011 21033 39756 49812 53007 90553 333 10011 21078 555 91706
AAXX 17064 70231 15966 80000 11161 21183 39814 49945 53002 69901 90553 333 11139 21189 555 91706
AAXX 17064 70261 32966 40000 11206 21228 39808 49989 53004 90553 333 11089 21217 555 91706
AAXX 17064 70267 32766 61214 11067 21133 39508 49995 53003 90553 333 11061 21094 555 91706
AAXX 17064 70271 32866 60000 11156 21167 39428 40035 51012 90553 333 11022 21156 4/008 555 91706
AAXX 17064 70273 32666 8//04 11028 21056 39916 49975 51007 90553 333 10033 21050 4/048 555 91706
AAXX 17064 70316 35766 81615 10022 21011 39837 49870 58015 90553 333 10044 20000 91026 555 91706
AAXX 17064 70326 11466 81710 10011 20006 39886 49898 53026 69901 751// 90554 333 10033 20011 4/008 555 91706
AAXX 17064 70340 12766 81013 10033 20006 39857 49917 53012 69901 90553 333 10044 20033 555 91706
AAXX 17064 70350 12566 81604 10033 20000 39898 49941 53015 69901 90553 333 10044 20017 555 91706
AAXX 17064 70361 17561 82404 10033 21006 30077 40087 51018 69981 761// 90553 333 10044 20011 555 91706
AAXX 17064 70381 32166 61305 11006 21011 30112 40121 51003 90553 333 10028 21011 555 91706
AAXX 17064 70414 35364 63209 10006 21006 39836 49871 50000 90556 333 10011 21071 555 91706
AAXX 17064 NIL
AAXX 17064 NIL
AAXX 17063 87007 11668 70502 10077 20045 36730 47129 54000 60011 70296 87500 333 56900 87635
AAXX 17063 87148 32970 30000 10186 20151 39986 40093 51004 80006 333 56006 83270
AAXX 17064 NIL
AAXX 17064 NIL
AAXX 17064 82143 NIL
AAXX 17064 82599 32570 21304 10243 20220 30041 40101 82100 333 59006
AAXX 17064 82824 21257 80303 10254 20241 39990 40090 71096 8473/ 333 59023 60041
AAXX 17064 82899 32570 21310 10265 20197 30112 40124 82200 333 59007
AAXX 17064 83117 NIL
AAXX 17064 83248 32470 30607 10265 20234 30109 40131 83200 333 59015
AAXX 17064 83746 21970 03203 10233 20218 40076 56011 70261 333 69911
AAXX 17064 NIL
AAXX 17064 82022 32970 00607 10257 20212 39994 40089 333 59010
AAXX 17064 82193 32970 00502 10249 20224 30075 40095 333 59007
AAXX 17064 82281 NIL
AAXX 17064 82332 32270 72002 10247 20237 39997 40091 82630 333 59015
AAXX 17064 82398 32470 51112 10257 20218 30074 40103 85400 333 59003
AAXX 17064 82400 NIL
AAXX 17064 82579 NIL
AAXX 17064 82917 21450 60102 10260 20255 39865 40084 71096 82530 333 59008 69951
AAXX 17064 82965 NIL
AAXX 17064 82993 32570 20302 10205 20199 39992 40128 82100 333 58009
AAXX 17064 83208 NIL
AAXX 17064 83349 21570 50506 10264 20236 30128 40134 70161 83201 333 59016 69921
AAXX 17064 83362 32970 00108 10240 20205 39864 40076 333 59015
AAXX 17064 83378 32470 53203 10195 20178 38946 48500 82630 333 58019
AAXX 17064 83460 32570 40204 10229 20214 30073 40130 82130 333 58013
AAXX 17064 83497 NIL
AAXX 17064 83566 32470 70405 10174 20165 39194 48510 85530 333 58019
AAXX 17064 83599 NIL
AAXX 17064 83612 32970 31304 10192 20128 39454 48500 57006 80001
AAXX 17064 83649 41460 70110 10246 20219 30114 40119 56011 72162 84510
AAXX 17064 83650 NIL
AAXX 17064 83780 32970 63303 10226 20128 39190 48490 58010 80006
AAXX 17064 83827 32970 02304 10174 20165 39802 40077 56009
AAXX 17064 83840 32970 00602 10160 20126 39074 48480 56007
AAXX 17064 83899 32470 20000 10206 20200 30057 40063 56010 82500
AAXX 17064 83925 NIL
AAXX 17064 83970 NIL
AAXX 17064 83971 32970 03002 10191 20174 30050 40054 5002
AAXX 17064 87022 11358 82305 10190 20184 39608 40108 51009 60271 76096 8572/ 333 56999 82707 85630 88545
AAXX 17064 87046 11965 23206 10169 20144 39120 48511 57023 60011 70296 82070 333 56000 82360 98365
AAXX 17064 87047 11165 71803 10154 20147 38811 48528 57019 60071 70362 84670 333 56460 82702 84630
AAXX 17064 87097 32960 21804 10194 20171 39774 40081 56008 82070 333 56060 82360
AAXX 17064 87121 NIL
AAXX 17064 87129 32965 01804 10192 20169 39894 40121 53008
AAXX 17064 87155 32965 02703 10158 20148 30034 40094 56003
AAXX 17064 87162 32970 02502 10186 20170 30018 40086 58001
AAXX 17064 87166 32960 00000 10190 20167 30018 40089 55004
AAXX 17064 87178 32970 02304 10201 20154 39932 40075 56007
AAXX 17064 87217 NIL
AAXX 17064 87222 32970 53604 10166 20148 39590 40100 58001 85070 333 56090 85359
AAXX 17064 87257 NIL
AAXX 17064 87270 32965 02304 10173 20131 30034 40097 55007
AAXX 17064 87289 NIL
AAXX 17064 87311 32965 42704 10250 20094 39450 40106 58005 84070 333 56000 84360
AAXX 17064 87320 NIL
AAXX 17064 87328 32680 30906 10177 20096 39496 40133 51011 83800 333 56000 81840 83650 95090
AAXX 17064 NIL
AAXX 17061 30372 42699 52002 11174 21208 39315 40235 52005 82531
AAXX 17061 30433 42699 61706 11061 21130 39707 40318 57008 83901
AAXX 17061 30554 42998 53004 11075 21172 39139 40252 54000 82041
AAXX 17061 30635 42599 80000 11101 21114 39771 40370 57010 82931
AAXX 17061 30673 42999 80000 11182 21201 39412 40228 57008 86015
AAXX 17061 30692 42999 62302 11162 21204 39684 40206 58/// 86050
AAXX 17061 30758 42999 62604 11101 21174 39463 40313 57015 83031
AAXX 17061 30802 41999 00000 11162 21204 38800 48564 58019 70400
AAXX 17061 30823 42999 22902 11197 21238 39757 40453 58009 80001
AAXX 17061 30879 42999 70000 11197 21230 39453 40269 57014 84082
AAXX 17061 30935 41999 82102 11158 21192 39445 40452 58007 70272 8807/
AAXX 17061 30949 42999 12702 11103 21166 39221 40363 58011 81030
AAXX 17061 30965 42999 23104 11133 21176 39436 40305 57012 80002
AAXX 17061 31168 42999 82302 11156 21249 30071 40083 53006 80001
AAXX 17061 31300 42999 00000 11154 21214 39873 40177 56002
AAXX 17061 31329 42999 00000 11306 21359 39469 40215 57006
AAXX 17061 31369 42998 82806 11178 21228 39991 40082 53001 85032 333 91011 91111
AAXX 17061 31416 42999 42102 11223 21249 30042 40138 57002 80001
AAXX 17061 31484 42999 02503 11163 21243 39771 40125 56002
AAXX 17061 31512 429// 03404 11126 21198 30017 40191 53002
AAXX 17061 31538 41999 10000 11191 21232 39716 40179 57001 70271 80001
AAXX 17061 31707 42599 80000 11117 21189 30090 40186 53003 82986
AAXX 17061 31735 42997 72408 11158 21218 30067 40161 57003 84031
AAXX 17061 31770 42999 83404 11129 21237 30080 40112 54000 81031
AAXX 17064 78526 32466 60713 10233 20183 30136 40156 58010 90556 333 10256 20228 91019 555 91706
AAXX 17064 78543 15766 80607 10250 20144 30068 40148 58010 69901 90553 333 10261 20233 91015 555 91706
AAXX 17064 NIL
AAXX 17064 NIL
AAXX 17064 91165 12566 20516 10228 20183 30165 40199 51018 69901 90553 555 91706
AAXX 17064 91182 32566 40611 10244 20172 30181 40186 51017 90553 333 10278 20211 91019 555 91706
AAXX 17064 91190 32766 60507 10217 20161 30175 40195 51021 90554 333 10272 20172 555 91706
AAXX 17064 91212 12466 40816 10294 20244 31360 40096 55011 69981 90554 333 10311 20261 91020 555 91706
AAXX 17064 91285 32966 02805 10206 20172 30175 40188 51017 90553 333 10250 20189 555 91706
AAXX 17061 28676 11997 52901 11240 21269 30315 40458 52018 69900 72272 85070 333 21288
AAXX 17061 28766 31996 02501 11276 21286 30237 40454 52005 71000 333 21309
AAXX 17061 28867 31996 20000 11251 21275 30151 40457 52007 71000 80002 333 21292
AAXX 17061 28879 11496 83203 11238 21263 30127 40450 52012 69920 77777 8661/ 333 21253
AAXX 17061 28952 11996 80901 11234 21252 30240 40455 52006 69900 71072 8801/ 333 21254
AAXX 17061 28966 32998 00000 11303 21332 30136 40463 52005 333 21343
AAXX 17061 29802 11997 40804 11243 21268 30258 40419 52016 69980 73633 80001 333 21263
AAXX 17061 29807 12997 00604 11245 21275 30281 40414 52021 69940 333 21290
AAXX 17061 34691 32998 50904 11118 21153 30308 40295 54000 85030 333 21091
AAXX 17061 35067 32998 00401 11304 21338 30148 40467 52005 333 21336
AAXX 17061 35078 32997 20000 11263 21294 30019 40448 52003 80002 333 21339
AAXX 17061 35085 11998 63403 11231 21255 39895 40424 52009 69990 70372 83034 333 21261
AAXX 17061 35108 NIL
AAXX 17061 35188 11495 82901 11232 21260 39939 40423 58002 69920 77172 8651/ 333 21280
AAXX 17061 35217 NIL
AAXX 17061 35229 32997 00000 11230 21248 30120 40425 52005 333 21261
AAXX 17061 35302 NIL
AAXX 17061 35357 32997 30000 11284 21315 39947 40441 52002 80001 333 21351
AAXX 17061 35394 31495 82203 11228 21253 39670 40421 58006 71073 886// 333 21245 88711
AAXX 17061 35406 NIL
AAXX 17061 35416 32997 00901 11186 21216 30259 40392 52006 333 21227
AAXX 17061 35426 32999 00000 11180 21202 30094 40413 52004 333 21231
AAXX 17061 35497 32998 40000 11204 21237 39546 40421 58004 80001 333 21304
AAXX 17061 35532 32998 01103 11151 21193 39868 40397 57003 333 21148
AAXX 17061 35671 12998 00000 11235 21267 39956 40436 54000 69930 333 21261
AAXX 17061 35700 32998 61308 11120 21155 30340 40315 53002 82066 333 21131
AAXX 17061 35746 11996 20104 11160 21179 30330 40403 52002 69920 71011 80001 333 21190
AAXX 17061 35796 11998 00404 11236 21264 39946 40431 58001 69920 70271 333 21266
AAXX 17061 35849 32998 00501 11135 21162 30300 40393 52003 333 21196
AAXX 17061 35925 32998 50905 11119 21132 40347 53001 80002 333 21150
AAXX 17061 35953 32999 00505 11146 21173 30250 40390 52004 333 21182
AAXX 17061 35969 32999 20904 11123 21143 30213 40399 52002 80002 333 21180
AAXX 17061 36003 11997 81501 11212 21233 30231 40398 52008 60020 77172 8802/ 333 21227
AAXX 17061 36152 11996 81402 11213 21253 30192 40399 58003 69980 77177 8802/ 333 21305
AAXX 17061 36177 31997 51102 11205 21229 30139 40410 58007 77622 80001 333 21296
AAXX 17061 36208 12999 50101 11132 21162 39361 40399 52003 60010 83031 333 21157
AAXX 17061 36397 11999 61402 11132 21167 39796 40393 58006 60010 70277 82042 333 21202
AAXX 17061 36428 32799 60000 11107 21166 39871 40397 58009 82551 333 21182 95000
AAXX 17061 36535 32999 70000 11151 21193 39742 40420 58003 86530 333 21183
AAXX 17061 36639 11999 20000 11128 21190 39748 40390 58013 60020 70171 82080 333 21223
AAXX 17061 36821 11899 30501 11097 21118 39866 40382 58008 69940 70181 82039 333 21124
AAXX 17061 36859 12599 70000 11036 21095 39551 40355 57012 69930 84545 333 21056
AAXX 17061 36864 31496 80703 11066 21090 39426 40356 57005 77772 886// 333 21084
AAXX 17061 36870 11396 80101 11072 21089 39291 40347 57010 69900 71072 886// 333 21078
AAXX 17061 38001 32997 20505 10005 21012 30270 40240 53003 82030 333 21003
AAXX 17061 38062 32999 00402 11108 21136 30200 40373 53002 333 21150
AAXX 17061 38069 32998 00000 11066 21094 30148 40349 53003 333 21155
AAXX 17061 38196 NIL
AAXX 17061 38198 NIL
AAXX 17061 38222 32698 40701 11144 21171 39783 40387 54000 84500 333 21184
AAXX 17061 38232 32998 71005 11025 21058 30175 40277 57002 87070 333 21045
AAXX 17061 38328 NIL
AAXX 17061 38334 NIL
AAXX 17061 38341 11996 80000 11121 21127 39543 40385 53002 69900 72272 86042 333 21118
AAXX 17061 38343 31/93 90701 11084 21090 39478 40366 52004 74942 333 21099
AAXX 17061 38439 NIL
AAXX 17064 NIL
AAXX 17064 NIL
AAXX 17061 01271 16/// /0802 11070 21086 39877 49899 52011 60002 333 21070 48001 70000 91105
AAXX 17061 26997 11443 81605 10031 20023 39825 40044 58003 60042 71052 886// 333 20025 88711
AAXX 17061 27595 32698 81503 11091 21119 30168 40325 52004 82502 333 21076
AAXX 17061 27612 31496 81704 10026 20010 39906 40099 52007 71022 887// 333 20018 91113
AAXX 17061 27707 11446 71805 10023 20018 39768 40060 58003 60032 72186 87900 333 20011 85917
AAXX 17061 27719 32597 81506 10020 20001 39869 40119 53002 885// 333 20005 91012 91114
AAXX 17061 27786 32997 51504 11157 21176 30157 40332 52005 80004 333 21121
AAXX 17061 27857 32498 81407 11042 21051 30064 40232 52005 886// 333 21032 88714
AAXX 17061 27906 32497 81307 10037 20011 39843 40083 57002 886// 333 20008
AAXX 17061 27928 31496 81705 10013 21004 39936 40145 53003 71022 885// 333 21004 41997
AAXX 17061 27947 11497 81408 11027 21046 30043 40207 54000 69900 72272 8872/ 333 21028 43007 88710 91116
AAXX 17061 27962 11497 61404 11114 21142 40286 52010 69900 70232 83501 333 21079
AAXX 17061 27983 11498 81103 11166 21185 30213 40354 52005 69900 77172 886// 333 21158 88712
AAXX 17061 27995 /1998 20903 11169 21195 40360 57002 69900 70270 80001 333 21176
AAXX 17061 28506 32997 71402 11055 21102 30232 40352 52009 87050 333 21090
AAXX 17061 28704 11998 81601 11144 21164 30260 40366 52008 69900 70272 80001 333 21115
AAXX 17061 28711 32998 31705 11091 21130 39977 40376 52005 83030 333 21108
AAXX 17061 28807 11996 61102 11170 21189 30321 40377 51001 69900 77111 86020 333 21173
AAXX 17061 34009 32597 81405 10029 20002 39796 40099 53003 885// 333 20002
AAXX 17061 34110 32598 81505 10016 21000 39841 40121 53001 8635/ 333 20002
AAXX 17061 34123 NIL
AAXX 17061 34152 31294 81204 11078 21084 30042 40249 58002 71022 886// 333 21060 88706
AAXX 17061 34163 31497 81004 11104 21110 40287 57003 71022 885// 333 88620 93508
AAXX 17061 34171 11320 81405 11106 21115 30091 40297 58005 69940 77372 8872/ 333 21096 88507 93622
AAXX 17061 34186 32998 71305 11161 21180 30179 40330 58003 80001 333 21138
AAXX 17061 34247 11558 81305 11023 21029 30087 40204 57002 69900 71022 885// 333 21024 88624
AAXX 17061 34336 11497 81204 11007 21016 30084 40190 57003 69900 70252 8672/ 333 21004
AAXX 17061 34391 12997 01104 11167 21193 30288 40322 53001 69960 333 21151
AAXX 17061 35011 32999 01401 11160 21179 40395 53002 333 21177
AAXX 17061 35121 32997 00803 11208 21231 30249 40413 52005 333 21223
AAXX 17064 40100 12560 61605 10172 20115 30154 40186 51009 60004 86200 906// 333 20153 30/// 50424 55027 20804 86826 92427
AAXX 17064 40101 12557 82206 10091 20059 39112 48511 53009 60004 882// 906// 333 20047 31/// 50184 55078 20888 88826
AAXX 17064 40103 31560 72610 10164 20075 40177 52015 87800 333 20127 32/// 50184 20852 85824 86640
AAXX 17064 40102 NIL
AAXX 17061 40706 11408 80902 11028 21053 38676 40278 53003 60001 75042 886XX 333 3/109 42002 79999 88712
AAXX 17061 40718 11508 30000 10080 20076 30231 40202 58002 60001 74242 83600 222// 00090 20301 333 31005 50041 79999 83720
AAXX 17061 40732 12560 30000 10092 20066 30220 40196 56002 60001 82430 333 30101 50041 79999 81630
AAXX 17061 40745 11940 73202 10036 21032 39044 40224 50010 60001 70520 82036 333 30107 70000 82360 86269
AAXX 17061 40754 11630 11602 10064 21010 38840 40201 52011 60001 70500 81030 333 30102 5//// 70000 81360
AAXX 17061 40766 12960 40000 10040 20021 38727 40233 52009 60001 80001 333 30106 70000 84069
AAXX 17061 40800 12960 00000 10054 21041 38474 40208 51014 60001 333 30104 5///1 70000
AAXX 17061 40811 12960 00000 10156 20039 30162 40189 53012 60001 333 30004 50301 70000
AAXX 17061 40841 12665 50000 10066 21081 38272 40206 52017 60001 84362 333 30105 5//// 70000 81935 83640
AAXX 17061 40848 12660 50302 10088 21018 38548 40202 52011 60001 85400 333 30102 50311 70000 85635
AAXX 17061 40856 12965 01902 10159 21163 38647 40167 51015 60001 333 30107 5///1 70000
AAXX 17061 40875 12962 30702 10217 20026 30176 40188 52022 60001 80002 333 30005 50281 70000 83070
AAXX 17061 22028 12581 22310 11011 21033 39955 49993 52009 69902 81531 333 21016 44006 91012 91114
AAXX 17061 22106 NIL
AAXX 17061 22127 32998 30000 11113 21126 39805 40014 52006 83030 333 21115 43024 91001
AAXX 17061 22324 32584 81302 10011 20006 39964 40014 58001 889// 333 20010 43008 91004
AAXX 17061 22621 NIL
AAXX 17061 22831 11496 81403 10014 20011 39937 49997 57006 60062 78582 889// 333 21005 43025 93702
AAXX 17061 22892 32397 80902 10006 21002 39947 49963 53002 886// 333 20001 88707
AAXX 17061 26275 11496 81402 10023 20018 39941 49971 58002 60032 76162 8802/ 333 20004
AAXX 17061 26389 11459 81602 10031 20018 39739 40000 52011 60042 71082 886// 333 20030
AAXX 17061 26499 11497 81506 10019 20011 39814 40044 52003 60072 76162 8872/ 333 20012 87710 91112
AAXX 17061 26695 11296 81506 10018 20013 39735 40041 58002 60052 76176 8672/ 333 20015 86706
AAXX 17061 26882 12462 71507 10028 20020 39743 40016 57004 60032 87500 333 20028 87612 91012 91113
AAXX 17061 20107 12597 71004 10004 21050 39875 49969 52003 69902 83530 333 21013 91007
AAXX 17061 22113 12584 21805 11009 21034 39929 49992 52013 69912 82500 333 21010 47009 91007 91112
AAXX 17061 22217 12362 81501 10010 20007 39969 40001 54000 69902 886// 333 20006 43020 88707 91001
AAXX 17061 22235 11/04 92002 10004 20004 39826 40020 58005 60012 74784 333 20002 43019 91004
AAXX 17061 22349 12598 81105 10014 20000 30020 40032 58015 69942 885// 333 20014 41997 91006
AAXX 17061 22408 32284 80000 10007 20004 39846 49994 57005 886// 333 20006 43005 88704
AAXX 17061 22602 11476 80802 11004 21016 39757 49981 57010 69932 70252 885// 333 21005 43009 88612
AAXX 17061 22619 11270 81004 10003 20000 39813 49972 57016 60042 72272 886// 333 20000 44008 88704
AAXX 17061 22721 11294 80000 10001 20001 39873 49973 56005 60062 77174 8802/ 333 21001 43029 88504 93723
AAXX 17061 22802 11580 70000 10004 20001 39947 49970 53001 60022 70282 86530 333 20004 42000
AAXX 17061 22820 11484 81701 10005 20002 39833 49971 53008 60042 70272 885// 333 20000 43006 88610
AAXX 17061 26059 11296 81202 11001 21004 39930 49955 57002 69942 72054 886// 333 21001 88705
AAXX 17061 26063 11497 81303 10014 21003 39960 49968 52013 60042 70272 885// 333 20006 88610
AAXX 17061 26094 11957 81201 10022 20017 39912 49987 52016 60072 76176 8802/ 333 20002 42002
AAXX 17061 26157 32397 80906 10000 21003 39885 49935 57012 885// 333 21003 86708
AAXX 17061 26167 11224 81103 11004 21004 39849 49961 58001 60012 75652 886// 333 21013 42000 88703 93602
AAXX 17061 26258 32598 81303 10003 21003 39884 49939 57008 8872/ 333 21002
AAXX 17061 26298 11496 81605 10025 20012 39785 40014 52006 60032 71022 886// 333 20015
AAXX 17061 26359 32483 71303 10012 20001 39805 49938 57012 87900 333 21007
AAXX 17061 26702 11596 71703 10043 20007 39745 49771 53009 60032 71086 87500 333 20020 91007 91108
AAXX 17061 26781 11296 81607 10032 20027 39704 49992 53002 60042 76162 8872/ 333 20032 87705 91012 91112
AAXX 17061 27208 11396 81805 10021 20010 39865 40040 52008 60032 71062 886// 333 20020 41997 91012 91113
AAXX 17061 27402 11497 81505 10021 20013 39877 40057 53005 60032 76162 8872/ 333 20020 88712
AAXX 17064 91245 32966 00712 10270 20220 30147 90559 555 91706
AAXX 17061 22271 NIL
AAXX 17061 22520 11495 80603 10004 21002 39983 49992 57013 69942 77372 8872/ 333 20004 88711
AAXX 17061 22550 11428 81403 10005 21009 30010 40020 57025 69960 77372 8802/ 333 20007 88514
AAXX 17061 22583 11350 81402 10000 21003 30018 40099 57016 77172 8872/ 333 20002 88707
AAXX 17061 22768 11497 81707 10028 20004 30013 40068 53001 60040 70276 885// 333 20007 88612 91114
AAXX 17061 22845 11497 81907 10014 20003 39879 40035 53011 60050 76176 8872/ 333 20002 86712
AAXX 17061 22887 12399 81607 10009 21005 30084 40155 52008 60030 886// 333 20003 88708 91111
AAXX 17061 23205 12398 82005 11001 21024 30116 40131 52001 69900 886// 333 21025 88709 91108
AAXX 17061 23219 31398 81806 11028 21041 30094 40202 58005 73633 886// 333 47038
AAXX 17061 23418 11530 81505 11043 21066 30128 40204 57008 69920 77372 8652/ 333 21058 86630
AAXX 17061 23606 11262 81605 11025 21031 30013 40188 57012 60020 70272 887// 333 21041 86705
AAXX 17061 23711 11498 80904 11042 21054 30065 40244 57006 69900 70272 887// 333 21070
AAXX 17061 23804 11498 81905 11018 21039 30048 40199 53005 60010 70262 885// 333 21005 88610
AAXX 17061 27037 11497 81606 10012 21002 39925 40087 52005 60030 77176 8672/ 333 20005 86714
AAXX 17061 27199 11398 81805 11038 21043 30065 40268 52006 69910 70273 886// 333 21044 93402
AAXX 17061 27271 12597 71306 11006 21018 30049 40207 53008 60030 87500 333 21005 91114
AAXX 17061 27459 32498 81604 11020 21035 30020 40220 52006 886// 333 21012 86710
AAXX 17061 27730 32498 81706 10009 21011 39959 40156 53004 885// 333 21003 43003 886//
AAXX 17061 28676 11997 52901 11240 21269 30315 40458 52018 69900 72272 85070 333 21288
AAXX 17061 28766 31996 02501 11276 21286 30237 40454 52005 71000 333 21309
AAXX 17061 28867 31996 20000 11251 21275 30151 40457 52007 71000 80002 333 21292
AAXX 17061 28879 11496 83203 11238 21263 30127 40450 52012 69920 77777 8661/ 333 21253
AAXX 17061 28952 11996 80901 11234 21252 30240 40455 52006 69900 71072 8801/ 333 21254
AAXX 17061 28966 32998 00000 11303 21332 30136 40463 52005 333 21343
AAXX 17061 29802 11997 40804 11243 21268 30258 40419 52016 69980 73633 80001 333 21263
AAXX 17061 29807 12997 00604 11245 21275 30281 40414 52021 69940 333 21290
AAXX 17061 34691 32998 50904 11118 21153 30308 40295 54000 85030 333 21091
AAXX 17061 35067 32998 00401 11304 21338 30148 40467 52005 333 21336
AAXX 17061 35078 32997 20000 11263 21294 30019 40448 52003 80002 333 21339
AAXX 17061 35085 11998 63403 11231 21255 39895 40424 52009 69990 70372 83034 333 21261
AAXX 17061 35108 NIL
AAXX 17061 35188 11495 82901 11232 21260 39939 40423 58002 69920 77172 8651/ 333 21280
AAXX 17061 35217 NIL
AAXX 17061 35229 32997 00000 11230 21248 30120 40425 52005 333 21261
AAXX 17061 35302 NIL
AAXX 17061 35357 32997 30000 11284 21315 39947 40441 52002 80001 333 21351
AAXX 17061 35394 31495 82203 11228 21253 39670 40421 58006 71073 886// 333 21245 88711
AAXX 17061 35406 NIL
AAXX 17061 35416 32997 00901 11186 21216 30259 40392 52006 333 21227
AAXX 17061 35426 32999 00000 11180 21202 30094 40413 52004 333 21231
AAXX 17061 35497 32998 40000 11204 21237 39546 40421 58004 80001 333 21304
AAXX 17061 35532 32998 01103 11151 21193 39868 40397 57003 333 21148
AAXX 17061 35671 12998 00000 11235 21267 39956 40436 54000 69930 333 21261
AAXX 17061 35700 32998 61308 11120 21155 30340 40315 53002 82066 333 21131
AAXX 17061 35746 11996 20104 11160 21179 30330 40403 52002 69920 71011 80001 333 21190
AAXX 17061 35796 11998 00404 11236 21264 39946 40431 58001 69920 70271 333 21266
AAXX 17061 35849 32998 00501 11135 21162 30300 40393 52003 333 21196
AAXX 17061 35925 32998 50905 11119 21132 40347 53001 80002 333 21150
AAXX 17061 35953 32999 00505 11146 21173 30250 40390 52004 333 21182
AAXX 17061 35969 32999 20904 11123 21143 30213 40399 52002 80002 333 21180
AAXX 17061 36003 11997 81501 11212 21233 30231 40398 52008 60020 77172 8802/ 333 21227
AAXX 17061 36152 11996 81402 11213 21253 30192 40399 58003 69980 77177 8802/ 333 21305
AAXX 17061 36177 31997 51102 11205 21229 30139 40410 58007 77622 80001 333 21296
AAXX 17061 36208 12999 50101 11132 21162 39361 40399 52003 60010 83031 333 21157
AAXX 17061 36397 11999 61402 11132 21167 39796 40393 58006 60010 70277 82042 333 21202
AAXX 17061 36428 32799 60000 11107 21166 39871 40397 58009 82551 333 21182 95000
AAXX 17061 36535 32999 70000 11151 21193 39742 40420 58003 86530 333 21183
AAXX 17061 36639 11999 20000 11128 21190 39748 40390 58013 60020 70171 82080 333 21223
AAXX 17061 36821 11899 30501 11097 21118 39866 40382 58008 69940 70181 82039 333 21124
AAXX 17061 36859 12599 70000 11036 21095 39551 40355 57012 69930 84545 333 21056
AAXX 17061 36864 31496 80703 11066 21090 39426 40356 57005 77772 886// 333 21084
AAXX 17061 36870 11396 80101 11072 21089 39291 40347 57010 69900 71072 886// 333 21078
AAXX 17061 38001 32997 20505 10005 21012 30270 40240 53003 82030 333 21003
AAXX 17061 38062 32999 00402 11108 21136 30200 40373 53002 333 21150
AAXX 17061 38069 32998 00000 11066 21094 30148 40349 53003 333 21155
AAXX 17061 38196 NIL
AAXX 17061 38198 NIL
AAXX 17061 38222 32698 40701 11144 21171 39783 40387 54000 84500 333 21184
AAXX 17061 38232 32998 71005 11025 21058 30175 40277 57002 87070 333 21045
AAXX 17061 38328 NIL
AAXX 17061 38334 NIL
AAXX 17061 38341 11996 80000 11121 21127 39543 40385 53002 69900 72272 86042 333 21118
AAXX 17061 38343 31/93 90701 11084 21090 39478 40366 52004 74942 333 21099
AAXX 17061 38439 NIL
BBXX 41037 17061 99340 70775 46/// /2608 10172 40175 58015 90600 22200 00176 333 91209
BBXX 46078 17061 99561 71526 46/// /2210 1//// 90550 555 11109 22117
BBXX 46078 17061 99561 71526 46/// /2210 1//// 90550 555 11109 22117
AAXX 1706/ 41858 NIL
AAXX 1706/ 41863 NIL
AAXX 1706/ 41886 NIL
AAXX 1706/ 41895 NIL
AAXX 1706/ 41909 NIL
AAXX 1706/ 41915 NIL
AAXX 1706/ 41926 NIL
AAXX 1706/ 41929 NIL
AAXX 1706/ 41933 NIL
AAXX 1706/ 41939 NIL
AAXX 1706/ 41941 NIL
AAXX 1706/ 41946 NIL
AAXX 1706/ 41947 NIL
AAXX 1706/ 41951 NIL
AAXX 1706/ 41953 NIL
AAXX 1706/ 41958 NIL
AAXX 1706/ 41960 NIL
AAXX 1706/ 41963 NIL
AAXX 1706/ 41964 NIL
AAXX 1706/ 41965 NIL
AAXX 1706/ 41966 NIL
AAXX 1706/ 41984 NIL
AAXX 1706/ 41989 NIL
AAXX 1706/ 41998 NIL
AAXX 17061 38598 42997 10910 10024 21025 40319 52006 80001
AAXX 17061 38599 NIL
AAXX 17061 38725 NIL
AAXX 17061 38734 42699 60901 11079 21146 47070 57011 82553
AAXX 17061 38744 42999 80000 11140 21157 38056 48590 52005 80007
AAXX 17061 38836 32899 60902 10085 21107 39287 40222 54000 82031 333 21039
AAXX 17061 38838 41/92 90000 11013 21018 39557 40252 57010 74542
AAXX 17061 38844 42999 60202 10018 21101 47520 52007 86030
AAXX 17061 38846 42999 62302 10038 21015 38545 48520 58020 84033
AAXX 17061 38847 41994 70000 11005 21011 40264 57006 74144 87030
AAXX 17061 38932 NIL
AAXX 17061 38933 31796 80000 10000 21024 39734 40266 53003 71022 885// 333 21004
AAXX 17061 38944 32697 80000 10012 21002 39634 40181 57011 885// 333 20004
AAXX 17061 38954 32899 81801 11019 21016 38001 48590 55018 82501 333 21051
BBXX PBIG 17064 99241 70812 41698 30806 10243 20132 40190 57010 70200 8/200 22254 00290 20203 30000 80178
BBXX VRHO2 17064 99370 11430 41897 73230 10060 21018 40170 52010 72582 85351 22254 00140 20301 33303 41005 50603 6/00/ 80028 ICE /////
BBXX PBAD 17061 99126 70714 41898 20716 10280 20221 40112 56009 70200 80008 22224 00285 20402 304// 40606 5//// 80240
BBXX V7NV4 17064 99263 71279 41798 80422 10160 20144 40205 52025 70321 87942 22273 00200 20204 30404 40204 50202 6//// 80150 ICE /////
BBXX C6XC6 17064 99253 70608 41597 50228 1//// 2//// 40160 54000 70311 852// 22264 04220 20907 33636 41007 51007 6//// 8//// ICE /////
BBXX 3ETA8 17064 99252 70863 41697 30515 10240 2016/ 40190 54000 70000 82/// 22275 04260 2//// 3//// 4//// 5//// 6//// 80190 ICE /////
BBXX WYL4318 17064 99599 71455 41395 81812 10033 2//// 40041 52015 76876 8762/ 22272 0//// 20101 323// 4//00 5//// 6//// 8//// ICE /////
BBXX WKAU 17064 99430 70631 41598 73020 10070 2003/ 40120 52200 7//22 87/// 22254 00100 2//// 3//// 4//// 5//// 6//// 80050 ICE /////
BBXX 3EPD8 17064 99422 50562 41/98 /1216 10149 20116 40163 7//00 8/7// 22213 04151 2//01 80131
AAXX 17061 01447 16/// /0000 11096 21109 39241 49930 52007 69992 333 21102 70018 91100
BBXX SLKQ 17061 99088 10726 43/97 10405 10291 40115 50003 22263 00294 2////4////
BBXX SLCO 17064 99076 11450 43/97 70721 10290 40070 56018 22234 00282 20404 40504
BBXX C6SI3 17063 99397 11504 41797 82637 10030 2110/ 40100 55010 70222 88298 22213 0//// 20305 327// 4//// 5//// 6//// 81010 ICE /////
BBXX ZCAS2 17063 99087 11288 41598 60708 10297 20246 40046 57/// 70322 85334 22284 00295 20301 305// 40603 80261
BBXX VRHO2 17064 99370 11430 41897 73230 10060 21018 40170 52010 72582 85351 22254 00140 20301 33303 41005 50603 6/00/ 80028 ICE /////
BBXX DQXQ 17064 99404 11387 41598 82830 10011 21026 40190 56025 70252 885// 22214 00120 20606 331// 40708 81003
BBXX A8QR9 17064 99062 10796 41697 31305 10290 20270 40110 55/// 70211 82445 22234 20504 80275
BBXX MIBR 17063 99327 11339 41598 63512 10088 21014 40242 56021 70122 865// 22214 00223 20402 335// 40603 5//// 80049
BBXX A8OY9 17064 99062 10787 44379 30330 10280 20220 40108 51010 81/42 22224 00300 20508 30535 40806 51303 80240
BBXX DHBN 17061 99310 11544 41/96 82704 10200 20153 40110 58005 70222 897// 22224 00230 20505 328// 40807 5//// 80170
BBXX DGZT2 17063 99062 10794 41697 50226 10285 20230 40105 54000 70100 84441 22264 04290 21006 301// 41006 80245
BBXX DGZR2 17063 99073 10776 41597 10331 10270 20213 40102 51007 70500 81100 22234 00290 20703 80230
BBXX 44067 17061 99384 70770 46/// /0503 10063 40218 57005 90600
BBXX 41029 17061 99328 70796 46/// /2406 1//// 90600 555 11086 22104
BBXX 46111 17061 99481 71227 46/// /0905 10081 40290 57007 90600 22200 00056
BBXX 46112 17061 99481 71227 46/// /1203 10076 40293 57005 90600
BBXX 46053 17061 99342 71198 46/// /3102 10137 40192 51007 90550 22200 00141 10902 20401 326// 40902 70011 333 91204 555 11019 22019 30534 43005 60549 311022 305044 295031 281033 281032 276034
BBXX 44022 17061 99409 70737 46/// ///04 10056 21021 40196 56011 90600 22200 00091 333 91205 555 11041 22041
BBXX 41041 17061 99142 70460 46/// /1307 10264 20217 40112 58016 90550 22200 00265 11004 20603 3//// 41003 70022 333 91209 555 11077 22082 30543 41309 60549 130073 124071 125066 120067 122070 116071 81308 90541
BBXX 46239 17061 99363 71221 46/// ///// 1//// 90551 22200 00130 11705 21004 330// 41703 70026
BBXX 46238 17061 99334 71195 46/// ///// 1//// 90550 22200 00146 11103 21002 329// 41102 70015
BBXX PBFM 17063 99304 70419 41/97 83530 10220 20183 40170 57030 75052 887// 22254 20603 336// 40805 80195
BBXX PHDL 17063 99225 70938 41/97 70710 10230 20216 40220 53/// 76211 86/// 22254 00260 20401 80220 90447
BBXX DMRX 17064 99473 71409 41/92 /2412 10090 20080 40152 53002 74544 8//// 22224 00090 2//// 80085
BBXX DGNB 17063 99342 70494 41297 73622 10200 20177 40120 56010 70222 8/773 22264 00217 2//// 80185
BBXX DDJS2 17063 99253 71157 41696 52605 10161 20119 40151 57013 70388 8//7/ 222// 00170 20401 33100 41004 5//// 80138
BBXX WXJ63 17063 99611 71464 41/96 70103 11001 21006 40021 52/// 710// 8//// 222// 0//// 2//// 3//// 4//// 5//// 6//// 8//// ICE /////
BBXX NWS0029 17064 99268 70474 43/// /1313 10223 20159 40091 5//// 7//// 8//// 222// 04241 2//// 3//// 4//// 5//// 6//// 8//// ICE /////
BBXX NWS0003 17064 99539 71665 43/// /1519 10047 20029 49770 5//// 7//// 8//// 222// 04068 2//// 3//// 4//// 5//// 6//// 8//// ICE /////
BBXX 44255 17061 99473 70573 46/// /2715 10035 40005 5//// 22200 00043 10808 70042 333 91219
BBXX SBLI 17061 99300 71630 43/98 40908 10188 40266 53012 22264 00223 2//// 4//// NNNN 426621110
BBXX SKWI 17064 99438 70466 43/97 82124 10130 40133 58018 22263 00170 2//// 4////
BBXX 3ETA8 17064 99252 70863 41697 30515 10240 2016/ 40190 54000 70000 82/// 22275 04260 2//// 3//// 4//// 5//// 6//// 80190 ICE /////
BBXX WKAU 17064 99430 70631 41598 73020 10070 2003/ 40120 52200 7//22 87/// 22254 00100 2//// 3//// 4//// 5//// 6//// 80050 ICE /////
BBXX WBDS 17063 99381 70431 41296 82025 10196 2018/ 40192 56006 70255 886// 22264 00191 20503 322// 40806 5//// 6//// 80185 ICE /////
BBXX 44150 17061 99425 70640 46/// /3309 10070 40145 52012 22200 00112 11008 70040 333 91211
BBXX 42067 17061 99300 70886 46/// ///// 10146 20142 40238 90540 22200 00163 10801 70007
BBXX 42085 17061 99179 70665 46/// /0405 10246 40146 90550 333 91206
BBXX 42085 17061 99179 70665 46/// /0404 10245 40144 90600 22200 00281 10502 70008 333 91205
BBXX 44139 17061 99442 70571 46/// /2911 10070 40103 52024 22200 00082 11008 70039 333 91213
BBXX C6KD7 17063 99255 70554 41298 80225 10235 20204 40108 57/// 70311 8677/ 22224 02254 20908 302// 41207 5//// 80215
BBXX 3FQS8 17064 99274 70748 41298 21509 00/// 10216 2020/ 40232 52004 70200 82/// 22244 0//// 2//// 3//// 4//// 5//// 6//// 80202 /////
BBXX V7NV4 17064 99263 71279 41798 80422 10160 20144 40205 52025 70321 87942 22273 00200 20204 30404 40204 50202 6//// 80150 ICE /////
BBXX C6XC6 17064 99253 70608 41597 50228 1//// 2//// 40160 54000 70311 852// 22264 04220 20907 33636 41007 51007 6//// 8//// ICE /////
BBXX PBIG 17064 99241 70812 41698 30806 10243 20132 40190 57010 70200 8/200 22254 00290 20203 30000 80178
BBXX C6FY8 17064 99544 71661 41697 71325 10040 2121/ 49870 56050 70322 8776/ 22263 00060 20103 320// 40306 5//// 6//// 81020 ICE /////
BBXX PBAD 17061 99126 70714 41898 20716 10280 20221 40112 56009 70200 80008 22224 00285 20402 304// 40606 5//// 80240
BBXX SHIP 17064 99344 71431 41497 81825 10180 2016/ 40140 54000 7//11 8879/ 22213 00200 2//// 3//// 4//// 5//// 6//// 80170 ICE /////
BBXX WDC3786 17064 99293 71349 41398 30317 10160 2013/ 40257 54000 7//11 8377/ 22264 0//// 20402 331// 40705 5//// 6//// 80140 ICE /////
BBXX KFMV 17063 99335 71385 41/// /1711 10167 2015/ 40270 52020 7//11 8//// 22225 00178 20501 330// 41002 5//// 6//// 80156 ICE /////
BBXX WDC6907 17064 99458 70406 41995 01709 10135 2014/ 40133 57007 71000 80/// 22213 00150 20501 311// 40904 5//// 6//// 80135 ICE /////
BBXX C6SE3 17064 99125 70720 41697 70726 10278 20269 40170 54/// 70311 87/9/ 22264 00304 20802 308// 41204 5//// 6//// 80271 ICE /////
BBXX C6SA3 17064 99137 70689 41/// /0633 10270 20243 40120 54/// 7//// 8//// 22283 00280 20510 3//// 40510 50510 6//// 80250 ICE /////
BBXX J8PR3 17063 99099 70599 41198 70513 10280 2025/ 40110 54000 70222 87288 22231 00280 20402 30505 40402 50402 6//// 80260 ICE /////
BBXX LAIP5 17063 99351 70563 41/97 80513 10175 20158 40142 56062 70322 8//// 22233 04200 20503 3//// 4//// 5//// 80165
BBXX 5BDK2 17064 99121 70802 41797 80224 10260 2025/ 40150 57020 70011 88373 22283 00276 20707 3//// 40905 5//// 6//// 80250 ICE /////
BBXX KGTZ 17064 99561 71417 41698 52314 10061 2002/ 40093 57013 72052 85/7/ 22274 00056 2//// 3//// 4//// 5//// 6//// 80044 ICE /////
BBXX DILE 17063 99448 70589 41/97 /3219 10055 20033 40100 53/// 702// 8//// 22224 04110 2//// 80045
BBXX PDNN 17063 99446 70543 41/98 /2830 10075 20044 40080 52010 70111 8//// 22223 02072 20508 80060 90447
BBXX UCKZ 17061 99655 30432 41295 80520 11010 21018 49905 52009 71022 886// 22243 01010 2//// ICE 26892
BBXX VRZN7 17064 99252 31623 416// 31819 10220 20120 40135 51015 7//00 8348/ 22253 04250 20406 320// 4//// 5//// 85160
BBXX MINFR09 1706/ 99390 31476 46/// ///// 40190 57016
BBXX DCDO2 17063 99022 31431 41598 52906 10310 20242 40060 54000 70322 85145 22274 00300 20301 3//// 4//// 5//// 80260
BBXX 9HA2479 17064 99267 31610 46/// /1621 10208 20120 30121 40150 52005 22254 04230 85155
BBXX VNSZ 17064 99412 31464 46/// /0411 10188 20111 30187 40213 57019 22200 04185 85142
BBXX C6FS9 17064 99238 31512 46/// /1022 10248 20179 30118 40154 57009 22200 04268 85202
BBXX YJZC5 17063 99165 31775 41496 50715 10304 20257 40111 56/// 70111 83186 22200 02309 2//// 305// 40101 80270
BBXX 3ECI3 17064 99411 31732 41598 70512 10165 20099 40075 54000 70222 8546/ 22200 00170 20301 305// 40702 80130
BBXX ZCBU6 17064 99345 31736 41498 32623 10188 20158 40055 57016 70222 821// 22234 00190 20404 327// 40705 5//// 80170
BBXX V2OG2 17063 99137 31070 41698 61816 10293 20219 40090 52003 70211 86130 22233 20402 319// 40503 80240
BBXX VRRC 17064 99162 31517 41398 71424 10280 20239 40083 57020 70300 87772 22273 20406 80250
BBXX VMAL 17063 99353 31230 41/98 72112 10170 20135 40124 52002 71522 8657/ 22263 20202 311// 40804 80150
BBXX VRZN7 17064 99252 31623 416// 31819 10220 2012/ 40135 51015 7//00 8348/ 22253 04250 20406 320// 4//// 5//// 85160
BBXX A8KO3 17060 99235 31540 41598 71719 10270 20243 40130 54000 70311 86263 22244 00270 20605 80250
BBXX PHPP 17064 99046 10987 41197 72708 10265 20237 40082 58023 76466 87790 22232 00295 20802 80245
BBXX PCSV 17060 99021 30732 41198 32610 10252 20248 40081 57009 70311 82111 22253 04282 20701 80249 90447
BBXX PCDE 17063 99399 31181 41598 20402 10180 20131 40090 57020 7//// 81147 22223 20401 80150
BBXX PFBF 17063 99102 31372 41698 61303 10297 20193 40048 57020 70322 83306 22223 02304 20100 33100 40502 5//// 80225
BBXX PCCL 17063 99324 31657 41197 21815 10188 40125 54000 70322 811// 22223 04210 20502 320// 40804
BBXX KAOU 17064 99032 10871 43/// /0909 10284 20239 40081 5//// 7//// 8//// 222// 04293 2//// 3//// 4//// 5//// 6//// 8//// ICE /////
BBXX 9V8797 17064 99253 10574 43/98 10902 10233 40189 54000 22234 00253 2//// 4////
BBXX V7SY6 17064 99144 10546 418// 10412 10250 20207 40270 54000 70100 81410 22223 0//// 20602 30705 40802 50501 6//// 80220 ICE /////
BBXX PHKL 17063 99124 10437 41698 30908 10294 20194 40153 51017 70200 81560 22264 00266 20402 330// 40403 5//// 80225
BBXX A8QJ7 17064 99028 50301 41/98 11413 10260 20215 40108 58014 7//00 81/00 22213 2//// 3//// 4//// 5//// 80230
BBXX WRYW 17064 99251 10577 43/// ///00 10210 2018/ 40180 50020 7//// 8//// 22275 00251 20101 39999 40101 50101 6//// 80190 ICE /////
BBXX ATSS 17063 99243 10657 41998 10405 10270 20224 40251 50202 70100 8011/ 22242 02272 44190 6410171221
BBXX PHQW 17063 99036 70063 41397 69904 10264 20234 40102 54000 7//91 867// 22263 00278 2//// 80242 90447
BBXX TBWUK40 17063 99191 10686 41997 00104 10275 20268 40158 51028 70200 80000 22273 20401 311// 40701 5//// 80270
BBXX DDDI2 17064 99341 30267 41998 00525 10225 20188 40175 56010 70200 80000 22254 04230 20505 324// 40908 5//// 80200
BBXX DGWD2 17063 99262 10350 41/98 33415 10220 20121 40162 54000 70311 81066 22234 00220 2//01 80160
BBXX PCIM 17064 99135 10505 41498 20218 10257 20210 40152 51014 70200 82210 22224 00256 20201 307// 40502 80224
BBXX DCHO 17064 99032 70285 41/98 /0309 10252 20203 40101 57010 70211 8//// 22254 04270 20606 302// 41003 80218
BBXX A8JK4 17064 99173 30660 41298 40000 10290 20220 40100 54000 70100 8116/ 22213 20000 316// 40803 5//// 80240 46379 1473171226
BBXX DGOS 17063 99456 70148 41497 63115 10115 20056 40285 55000 70222 857// 22213 21202 80085
BBXX 62023 17063 99514 70079 46/97 /2925 10061 2//// 40154 5//// 22200 10707 70036 333 91139 555 70057 81006
BBXX MGSG6 17063 99611 70002 41297 72735 10050 21003 49945 51030 70372 86798 22231 04150 20405 327// 40506 5//// 80030
BBXX LAHV 17061 99589 10057 43/// /3501 10018 20002 49917 222// 04082 1////
BBXX LF4H 17064 99596 10022 46/// /3326 10051 20021 49918 52008 8//// 22200 06083 10707 70034 333 91134
BBXX LGWS 17061 99305 70098 43/// /2703 10154 20121 40233 5//// 222/0 04158 1//// 3//// 4//// 5////
BBXX UANA 17061 99700 10418 41/97 82310 10038 40012 52002 70221 80200 22251 04033 20403
BBXX UCAB 17061 99678 10411 41/98 /1910 10050 40074 54000 70210 8//// 22213 00030 20402
BBXX PDHW 17063 99496 70071 41598 32720 10090 20035 40154 52040 70111 834// 22262 00100 2//// 80064
BBXX A8PX4 17064 99391 70098 41/98 63415 10140 20057 40280 54000 70122 8//// 22284 00163 2//// 80097
BBXX UCJB 17061 99615 10040 41/98 /3111 10060 49890 52015 70222 8//// 22242 00121 20503
BBXX PHIN 17064 99510 70179 41/// /3018 10072 20049 40247 56002 7//// 8//// 22223 2//// 80061
BBXX SKUN 17063 99507 70339 43/97 31518 10060 40224 58008 22214 00070 2//// 4////
BBXX UCKA 17061 99564 10177 41/98 81114 10043 49764 57025 70222 877// 22253 00060 20807
BBXX UGGA 17061 99691 10410 41/98 92112 10030 40012 52020 70222 89/// 22261 20605
BBXX PGRQ 17064 99325 10180 41/98 32319 10185 2//// 40165 5//// 7//00 83100 22272 00196 20903 399// 40903
BBXX C6VR4 17063 99330 70213 41597 70718 10182 20140 40320 50006 70211 8436/ 22224 04222 20605 301// 41003 5//// 80158
BBXX DDSD2 17063 99362 70342 41/// 81519 10190 20167 40270 52007 70222 88/// 22224 00190 2//// 3//// 4//// 5//// 80175
BBXX UFJN 17061 99706 10393 41/98 82210 11020 49990 52055 70022 88/// 22200 0//// 20402
BBXX PJFF 17064 99499 70047 41/97 63126 10102 20083 40120 52025 70022 8//// 22224 20503 80092
BBXX NWS0020 17064 99367 70016 43/// /2621 10164 20142 40183 5//// 7//// 8//// 222// 04171 2//// 3//// 4//// 5//// 6//// 8//// ICE /////
AAXX 17061 38598 42997 10910 10024 21025 40319 52006 80001
AAXX 17061 38599 NIL
AAXX 17061 38725 NIL
AAXX 17061 38734 42699 60901 11079 21146 47070 57011 82553
AAXX 17061 38744 42999 80000 11140 21157 38056 48590 52005 80007
AAXX 17061 38836 32899 60902 10085 21107 39287 40222 54000 82031 333 21039
AAXX 17061 38838 41/92 90000 11013 21018 39557 40252 57010 74542
AAXX 17061 38844 42999 60202 10018 21101 47520 52007 86030
AAXX 17061 38846 42999 62302 10038 21015 38545 48520 58020 84033
AAXX 17061 38847 41994 70000 11005 21011 40264 57006 74144 87030
AAXX 17061 38932 NIL
AAXX 17061 38933 31796 80000 10000 21024 39734 40266 53003 71022 885// 333 21004
AAXX 17061 38944 32697 80000 10012 21002 39634 40181 57011 885// 333 20004
AAXX 17061 38954 32899 81801 11019 21016 38001 48590 55018 82501 333 21051
AAXX 17061 03976 11570 83108 10060 20023 30114 40126 53016 69942 72581 85900 333 20047 31003 55003 83920 81820 83640 96487 90710 91119
BBXX MINUK05 1706/ 99598 70062 46/// ///// 10048 40026 52016
BBXX MINUK04 1706/ 99545 10059 46/// ///// 10075 4//// 52005
BBXX FLAO 1706/ 99764 70847 46/// ///// 11235 40057 57003
BBXX MINFR05 1706/ 99498 70009 46/// ///// 10073 40127 52033
AAXX 17061 28676 11997 52901 11240 21269 30315 40458 52018 69900 72272 85070 333 21288
AAXX 17061 28766 31996 02501 11276 21286 30237 40454 52005 71000 333 21309
AAXX 17061 28867 31996 20000 11251 21275 30151 40457 52007 71000 80002 333 21292
AAXX 17061 28879 11496 83203 11238 21263 30127 40450 52012 69920 77777 8661/ 333 21253
AAXX 17061 28952 11996 80901 11234 21252 30240 40455 52006 69900 71072 8801/ 333 21254
AAXX 17061 28966 32998 00000 11303 21332 30136 40463 52005 333 21343
AAXX 17061 29802 11997 40804 11243 21268 30258 40419 52016 69980 73633 80001 333 21263
AAXX 17061 29807 12997 00604 11245 21275 30281 40414 52021 69940 333 21290
AAXX 17061 34691 32998 50904 11118 21153 30308 40295 54000 85030 333 21091
AAXX 17061 35067 32998 00401 11304 21338 30148 40467 52005 333 21336
AAXX 17061 35078 32997 20000 11263 21294 30019 40448 52003 80002 333 21339
AAXX 17061 35085 11998 63403 11231 21255 39895 40424 52009 69990 70372 83034 333 21261
AAXX 17061 35108 11997 01102 11187 21210 30319 40370 58002 69930 70271 333 21200
AAXX 17061 35108 NIL
AAXX 17061 35188 11495 82901 11232 21260 39939 40423 58002 69920 77172 8651/ 333 21280
AAXX 17061 35217 12998 01105 11170 21189 30324 40367 57001 69900 333 21210
AAXX 17061 35229 32997 00000 11230 21248 30120 40425 52005 333 21261
AAXX 17061 35302 12998 01405 11161 21174 30330 40351 54000 69900 333 21191
AAXX 17061 35357 32997 30000 11284 21315 39947 40441 52002 80001 333 21351
AAXX 17061 35394 31495 82203 11228 21253 39670 40421 58006 71073 886// 333 21245 88711
AAXX 17061 35406 32997 21005 11169 21195 30341 40343 58002 80001 333 21182
AAXX 17061 35416 32997 00901 11186 21216 30259 40392 52006 333 21227
AAXX 17061 35426 32999 00000 11180 21202 30094 40413 52004 333 21231
AAXX 17061 35497 32998 40000 11204 21237 39546 40421 58004 80001 333 21304
AAXX 17061 35532 32998 01103 11151 21193 39868 40397 57003 333 21148
AAXX 17061 35671 12998 00000 11235 21267 39956 40436 54000 69930 333 21261
AAXX 17061 35700 32998 61308 11120 21155 30340 40315 53002 82066 333 21131
AAXX 17061 35746 11996 20104 11160 21179 30330 40403 52002 69920 71011 80001 333 21190
AAXX 17061 35796 11998 00404 11236 21264 39946 40431 58001 69920 70271 333 21266
AAXX 17061 35849 32998 00501 11135 21162 30300 40393 52003 333 21196
AAXX 17061 35925 32998 50905 11119 21132 40347 53001 80002 333 21150
AAXX 17061 35953 32999 00505 11146 21173 30250 40390 52004 333 21182
AAXX 17061 35969 32999 20904 11123 21143 30213 40399 52002 80002 333 21180
AAXX 17061 36003 11997 81501 11212 21233 30231 40398 52008 60020 77172 8802/ 333 21227
AAXX 17061 36152 11996 81402 11213 21253 30192 40399 58003 69980 77177 8802/ 333 21305
AAXX 17061 36177 31997 51102 11205 21229 30139 40410 58007 77622 80001 333 21296
AAXX 17061 36208 12999 50101 11132 21162 39361 40399 52003 60010 83031 333 21157
AAXX 17061 36397 11999 61402 11132 21167 39796 40393 58006 60010 70277 82042 333 21202
AAXX 17061 36428 32799 60000 11107 21166 39871 40397 58009 82551 333 21182 95000
AAXX 17061 36535 32999 70000 11151 21193 39742 40420 58003 86530 333 21183
AAXX 17061 36639 11999 20000 11128 21190 39748 40390 58013 60020 70171 82080 333 21223
AAXX 17061 36821 11899 30501 11097 21118 39866 40382 58008 69940 70181 82039 333 21124
AAXX 17061 36859 12599 70000 11036 21095 39551 40355 57012 69930 84545 333 21056
AAXX 17061 36864 31496 80703 11066 21090 39426 40356 57005 77772 886// 333 21084
AAXX 17061 36870 11396 80101 11072 21089 39291 40347 57010 69900 71072 886// 333 21078
AAXX 17061 38001 32997 20505 10005 21012 30270 40240 53003 82030 333 21003
AAXX 17061 38062 32999 00402 11108 21136 30200 40373 53002 333 21150
AAXX 17061 38069 32998 00000 11066 21094 30148 40349 53003 333 21155
AAXX 17061 38196 NIL
AAXX 17061 38198 NIL
AAXX 17061 38222 32698 40701 11144 21171 39783 40387 54000 84500 333 21184
AAXX 17061 38232 32998 71005 11025 21058 30175 40277 57002 87070 333 21045
AAXX 17061 38328 NIL
AAXX 17061 38334 NIL
AAXX 17061 38341 11996 80000 11121 21127 39543 40385 53002 69900 72272 86042 333 21118
AAXX 17061 38343 31/93 90701 11084 21090 39478 40366 52004 74942 333 21099
AAXX 17061 38439 NIL
AAXX 17064 60351 12560 82614 10174 20098 40141 55001 60004 8583/ 333 20114 82823 83633 85359 95990
AAXX 17064 60355 12660 63614 10150 20102 40136 55001 60004 86800 333 0//00 20150 82833 84840 95990
AAXX 17064 60445 12560 62409 10073 20018 39008 48489 56009 60004 83232 333 00100 20053 83826 83360 95990
AAXX 17064 60468 12560 42910 10086 20014 39227 48501 53007 60004 82230 333 05100 20053 82826 83360 95900
AAXX 17064 60507 12560 62412 10112 20078 40229 53003 60004 82132 333 00600 20104 82826 83360 95990
AAXX 17064 60511 12558 62918 10084 20070 39083 48522 57006 60004 84272 333 00400 20053 84826 95990
AAXX 17064 60535 11565 43630 10055 20044 38829 48497 56009 60004 700// 84700 333 00400 20045 84720 95900
AAXX 17064 60536 12560 83208 10102 20065 39353 48545 56007 60004 885// 333 05200 20060 88630 95990
AAXX 17064 60549 11658 53010 10067 20038 38971 48568 58006 60004 700// 85200 333 00000 20030 82710 83833 95990
AAXX 17064 60550 12460 83303 10025 21013 38700 48537 57011 60004 886// 333 05200 20014 88715 95990
AAXX 17064 60555 12970 30000 10049 20016 40181 55005 60004 82032 333 00100 20049 82360
AAXX 17064 60559 12960 32403 10062 20034 40172 55001 60004 80002 333 0//00 20058 83073
AAXX 17064 60581 12960 22408 10050 20026 40193 55009 60004 80002 333 00300 20045 82073
AAXX 17064 60602 11960 00000 10065 20030 40235 56007 60004 700// 333 0//00 20065 95990
AAXX 17064 60607 12960 03605 10045 21011 40222 55006 60004 333 0//00 20044
AAXX 17064 60640 12960 01404 10050 20038 40211 53002 60004 333 00200 20045
AAXX 17064 60690 NIL
AAXX 17064 60360 11660 82308 10133 20129 40138 53004 60034 8557/ 333 00613 20108 82833 85646 85460 95990
AAXX 17064 60390 12570 62506 10149 20091 40185 58003 60004 82830 333 01100 20140 81826 85359 95990
AAXX 17064 60402 12560 62606 10160 20092 40162 56005 60004 82232 333 01000 20155 82820 84359 95990
AAXX 17064 60419 12565 62812 10105 20035 40156 55002 60004 83532 333 00400 20085 83630 83360 95990
AAXX 17064 60475 12660 63010 10090 21007 39220 48491 58014 60004 83202 333 00100 20054 83840 84073 95990
AAXX 17064 60490 12465 72112 10141 20092 40215 56008 60004 872// 333 00900 20120 87816 95990
AAXX 17064 60525 12960 73418 10135 20036 40157 55007 60004 83032 333 00000 20085 83360 87073 95900
AAXX 17064 60531 12570 62217 10122 20071 40243 55004 60004 81232 333 00700 20085 81826 85073 95990
AAXX 17064 60566 12960 03310 10099 21012 40199 55008 60004 333 00500 20099
AAXX 17064 60571 12962 03407 10054 20021 39302 48553 58005 60004 333 0//00 20044 95990
AAXX 17064 60580 12960 01805 10065 20024 40185 55012 60004 333 00400 20055
AAXX 17064 60590 12960 00000 10060 20034 40220 55008 60004 333 0//00 20040
AAXX 17064 60611 12960 00503 10029 21007 40234 53001 60004 333 00100 20029
AAXX 17064 60620 12960 00000 10072 20007 40224 55003 60004 333 0//00 20066
AAXX 17064 60630 12960 03612 10094 20019 40207 58010 60004 333 00400 20090
AAXX 17064 60656 12960 03306 10063 21019 40234 58007 60004 333 00400 20060
AAXX 17064 60670 12980 60000 10038 21011 39100 48532 53008 60004 85052 333 00000 20025 85360 95900
AAXX 17064 60680 12970 50000 10078 21078 38663 48534 53005 60004 84032 333 00000 20054 84362 95990
AAXX 17061 28676 11997 52901 11240 21269 30315 40458 52018 69900 72272 85070 333 21288
AAXX 17061 28766 31996 02501 11276 21286 30237 40454 52005 71000 333 21309
AAXX 17061 28867 31996 20000 11251 21275 30151 40457 52007 71000 80002 333 21292
AAXX 17061 28879 11496 83203 11238 21263 30127 40450 52012 69920 77777 8661/ 333 21253
AAXX 17061 28952 11996 80901 11234 21252 30240 40455 52006 69900 71072 8801/ 333 21254
AAXX 17061 28966 32998 00000 11303 21332 30136 40463 52005 333 21343
AAXX 17061 29802 11997 40804 11243 21268 30258 40419 52016 69980 73633 80001 333 21263
AAXX 17061 29807 12997 00604 11245 21275 30281 40414 52021 69940 333 21290
AAXX 17061 34691 32998 50904 11118 21153 30308 40295 54000 85030 333 21091
AAXX 17061 35067 32998 00401 11304 21338 30148 40467 52005 333 21336
AAXX 17061 35078 32997 20000 11263 21294 30019 40448 52003 80002 333 21339
AAXX 17061 35085 11998 63403 11231 21255 39895 40424 52009 69990 70372 83034 333 21261
AAXX 17061 35108 11997 01102 11187 21210 30319 40370 58002 69930 70271 333 21200
AAXX 17061 35108 NIL
AAXX 17061 35188 11495 82901 11232 21260 39939 40423 58002 69920 77172 8651/ 333 21280
AAXX 17061 35217 12998 01105 11170 21189 30324 40367 57001 69900 333 21210
AAXX 17061 35229 32997 00000 11230 21248 30120 40425 52005 333 21261
AAXX 17061 35302 12998 01405 11161 21174 30330 40351 54000 69900 333 21191
AAXX 17061 35357 32997 30000 11284 21315 39947 40441 52002 80001 333 21351
AAXX 17061 35394 31495 82203 11228 21253 39670 40421 58006 71073 886// 333 21245 88711
AAXX 17061 35406 32997 21005 11169 21195 30341 40343 58002 80001 333 21182
AAXX 17061 35416 32997 00901 11186 21216 30259 40392 52006 333 21227
AAXX 17061 35426 32999 00000 11180 21202 30094 40413 52004 333 21231
AAXX 17061 35497 32998 40000 11204 21237 39546 40421 58004 80001 333 21304
AAXX 17061 35532 32998 01103 11151 21193 39868 40397 57003 333 21148
AAXX 17061 35671 12998 00000 11235 21267 39956 40436 54000 69930 333 21261
AAXX 17061 35700 32998 61308 11120 21155 30340 40315 53002 82066 333 21131
AAXX 17061 35746 11996 20104 11160 21179 30330 40403 52002 69920 71011 80001 333 21190
AAXX 17061 35796 11998 00404 11236 21264 39946 40431 58001 69920 70271 333 21266
AAXX 17061 35849 32998 00501 11135 21162 30300 40393 52003 333 21196
AAXX 17061 35925 32998 50905 11119 21132 40347 53001 80002 333 21150
AAXX 17061 35953 32999 00505 11146 21173 30250 40390 52004 333 21182
AAXX 17061 35969 32999 20904 11123 21143 30213 40399 52002 80002 333 21180
AAXX 17061 36003 11997 81501 11212 21233 30231 40398 52008 60020 77172 8802/ 333 21227
AAXX 17061 36152 11996 81402 11213 21253 30192 40399 58003 69980 77177 8802/ 333 21305
AAXX 17061 36177 31997 51102 11205 21229 30139 40410 58007 77622 80001 333 21296
AAXX 17061 36208 12999 50101 11132 21162 39361 40399 52003 60010 83031 333 21157
AAXX 17061 36397 11999 61402 11132 21167 39796 40393 58006 60010 70277 82042 333 21202
AAXX 17061 36428 32799 60000 11107 21166 39871 40397 58009 82551 333 21182 95000
AAXX 17061 36535 32999 70000 11151 21193 39742 40420 58003 86530 333 21183
AAXX 17061 36639 11999 20000 11128 21190 39748 40390 58013 60020 70171 82080 333 21223
AAXX 17061 36821 11899 30501 11097 21118 39866 40382 58008 69940 70181 82039 333 21124
AAXX 17061 36859 12599 70000 11036 21095 39551 40355 57012 69930 84545 333 21056
AAXX 17061 36864 31496 80703 11066 21090 39426 40356 57005 77772 886// 333 21084
AAXX 17061 36870 11396 80101 11072 21089 39291 40347 57010 69900 71072 886// 333 21078
AAXX 17061 38001 32997 20505 10005 21012 30270 40240 53003 82030 333 21003
AAXX 17061 38062 32999 00402 11108 21136 30200 40373 53002 333 21150
AAXX 17061 38069 32998 00000 11066 21094 30148 40349 53003 333 21155
AAXX 17061 38196 NIL
AAXX 17061 38198 NIL
AAXX 17061 38222 32698 40701 11144 21171 39783 40387 54000 84500 333 21184
AAXX 17061 38232 32998 71005 11025 21058 30175 40277 57002 87070 333 21045
AAXX 17061 38328 NIL
AAXX 17061 38334 NIL
AAXX 17061 38341 11996 80000 11121 21127 39543 40385 53002 69900 72272 86042 333 21118
AAXX 17061 38343 31/93 90701 11084 21090 39478 40366 52004 74942 333 21099
AAXX 17061 38439 NIL
AAXX 17064 60351 12560 82614 10174 20098 40141 55001 60004 8583/ 333 20114 82823 83633 85359 95990
AAXX 17064 60355 12660 63614 10150 20102 40136 55001 60004 86800 333 0//00 20150 82833 84840 95990
AAXX 17064 60445 12560 62409 10073 20018 39008 48489 56009 60004 83232 333 00100 20053 83826 83360 95990
AAXX 17064 60468 12560 42910 10086 20014 39227 48501 53007 60004 82230 333 05100 20053 82826 83360 95900
AAXX 17064 60507 12560 62412 10112 20078 40229 53003 60004 82132 333 00600 20104 82826 83360 95990
AAXX 17064 60511 12558 62918 10084 20070 39083 48522 57006 60004 84272 333 00400 20053 84826 95990
AAXX 17064 60535 11565 43630 10055 20044 38829 48497 56009 60004 700// 84700 333 00400 20045 84720 95900
AAXX 17064 60536 12560 83208 10102 20065 39353 48545 56007 60004 885// 333 05200 20060 88630 95990
AAXX 17064 60549 11658 53010 10067 20038 38971 48568 58006 60004 700// 85200 333 00000 20030 82710 83833 95990
AAXX 17064 60550 12460 83303 10025 21013 38700 48537 57011 60004 886// 333 05200 20014 88715 95990
AAXX 17064 60555 12970 30000 10049 20016 40181 55005 60004 82032 333 00100 20049 82360
AAXX 17064 60559 12960 32403 10062 20034 40172 55001 60004 80002 333 0//00 20058 83073
AAXX 17064 60581 12960 22408 10050 20026 40193 55009 60004 80002 333 00300 20045 82073
AAXX 17064 60602 11960 00000 10065 20030 40235 56007 60004 700// 333 0//00 20065 95990
AAXX 17064 60607 12960 03605 10045 21011 40222 55006 60004 333 0//00 20044
AAXX 17064 60640 12960 01404 10050 20038 40211 53002 60004 333 00200 20045
AAXX 17064 60690 NIL
AAXX 17064 60360 11660 82308 10133 20129 40138 53004 60034 8557/ 333 00613 20108 82833 85646 85460 95990
AAXX 17064 60390 12570 62506 10149 20091 40185 58003 60004 82830 333 01100 20140 81826 85359 95990
AAXX 17064 60402 12560 62606 10160 20092 40162 56005 60004 82232 333 01000 20155 82820 84359 95990
AAXX 17064 60419 12565 62812 10105 20035 40156 55002 60004 83532 333 00400 20085 83630 83360 95990
AAXX 17064 60475 12660 63010 10090 21007 39220 48491 58014 60004 83202 333 00100 20054 83840 84073 95990
AAXX 17064 60490 12465 72112 10141 20092 40215 56008 60004 872// 333 00900 20120 87816 95990
AAXX 17064 60525 12960 73418 10135 20036 40157 55007 60004 83032 333 00000 20085 83360 87073 95900
AAXX 17064 60531 12570 62217 10122 20071 40243 55004 60004 81232 333 00700 20085 81826 85073 95990
AAXX 17064 60566 12960 03310 10099 21012 40199 55008 60004 333 00500 20099
AAXX 17064 60571 12962 03407 10054 20021 39302 48553 58005 60004 333 0//00 20044 95990
AAXX 17064 60580 12960 01805 10065 20024 40185 55012 60004 333 00400 20055
AAXX 17064 60590 12960 00000 10060 20034 40220 55008 60004 333 0//00 20040
AAXX 17064 60611 12960 00503 10029 21007 40234 53001 60004 333 00100 20029
AAXX 17064 60620 12960 00000 10072 20007 40224 55003 60004 333 0//00 20066
AAXX 17064 60630 12960 03612 10094 20019 40207 58010 60004 333 00400 20090
AAXX 17064 60656 12960 03306 10063 21019 40234 58007 60004 333 00400 20060
AAXX 17064 60670 12980 60000 10038 21011 39100 48532 53008 60004 85052 333 00000 20025 85360 95900
AAXX 17064 60680 12970 50000 10078 21078 38663 48534 53005 60004 84032 333 00000 20054 84362 95990
BBXX 3EDA4 17063 99106 31543 41593 7//15 10310 20271 40046 5/100 7//22 86825 22283 00306 20000 80280
AAXX 17064 16021 11670 23519 11072 21169 37740 48271 53022 60052 70341 82100 333 21076 43028 55/// 2//// 82840 92832
AAXX 17061 08501 32/// /2109 10187 20133 30230 40266 57011 333 20186 30017 5//// 55053 20758 91017 91122
AAXX 17061 08505 NIL
AAXX 17061 08509 32460 12306 10170 20144 30234 40299 58006 81201 333 20169 50254 55003 81815 91010 91116
AAXX 17061 08512 NIL
AAXX 17061 08515 32589 72203 10172 20112 30201 40323 55008 878// 333 20159 30011 50294 55/// 81820 87639 910// 911//
AAXX 17061 08533 32/// /0000 10135 20103 30252 40281 54000 333 20134 30011 5//// 55100 20857
AAXX 17061 08541 12/// /3504 10112 20068 30164 40285 52003 60012 333 20102 30008 5//// 55030 20671 91107
AAXX 17061 08545 11660 81201 10063 20046 30200 40285 52004 69912 70262 8753/ 333 20060 31002 50214 55000 20154 84640 86648
AAXX 17061 08548 32/// /0000 10066 20054 30076 40287 52005 333 20063 30003 5//// 55000 20132
AAXX 17061 08554 32565 23403 10122 20080 30270 40280 52006 82500 333 20122 30012 5//// 55050 20775 82630 91107
AAXX 17061 08558 12/// /3004 10074 20044 39978 40280 52003 60022 333 20073 30005 5//// 55001 20471 91108
AAXX 17061 08560 32/// /2903 10033 20001 39510 40291 52008 333 20030 30000 5//// 55000 20125 91105
AAXX 17061 08567 32/// /0000 10026 20011 39605 40292 52007 333 20017 30000 5//// 55010 20303
AAXX 17061 08570 32/// /3002 10052 20002 39808 40280 52004 333 20041 30002 5//// 55019 20475
AAXX 17061 08575 32/// /2903 10037 20001 39434 40266 52003 333 20034 30002 5//// 55021 20417 91007 91108
AAXX 17061 08579 NIL
AAXX 17064 07117 01468 63213 10073 20032 30064 40135 53026 69922 78922 86800 333 10094 20061 60007 90710 91125 92437 555 60005
AAXX 17064 91945 36/// /0000 10241 20204 30133 40138 51014 555 59023
AAXX 17061 08512 32475 62503 10168 20163 30230 40316 57007 86800 333 20155 30011 5//// 55064 20949 81816 86640
BBXX DBJM 17061 99541 10082 46/// /3213 10060 20015 49920 52014 22241 00060
BBXX DBEB 17065 99538 10082 41/// /3214 10061 20061 49918 520/9 7//// 22221 00056
AAXX 17061 08579 12/// /2402 10110 20060 30158 40285 52002 69952 333 20108 30010 5//// 55016 20486
AAXX 17061 08521 32470 70204 10176 20103 30243 40314 57009 87800 333 20167 30/// 55073 85816 83630
AAXX 17061 08524 32470 70402 10169 20109 30217 40315 57010 87800 333 20159 3/015 40/// 5//// 55056 20923 84816 85630 91106
BBXX DBBC 17061 99542 10079 46/// /3209 10047 2//// 49925 52027 22200 00075
BBXX DBEA 17061 99540 14084 46/// /3513 10051 20012 49917 52028 22260 00054
BBXX DBBA 17061 99539 10087 46/// /3214 10053 20050 49912 52024 22250 00041
BBXX DBCK 17061 99/// ///// 46/// ///// 10060 20056 49916 52027 22220 040/9
BBXX BAREU12 17064 99525 10037 46/// ///// 40004 52010 22214
BBXX DBFH /7065 99535 10086 46/// /3206/10065 20423 49924 52025 22260 00055
BBXX DBKR 17061 99541 10121 46/// /3108 10042 20031 49847 52038 22200 00047
BBXX BAREU51 17064 99410 10125 46/// ///// 49992 57005 22285
BBXX 41101 17064 99146 70562 46/// /0314 10262 20214 40106 57012 22200 00274 10904 70018
BBXX 61001 17064 99434 10078 46/// /2835 10116 20055 40006 52012 22200 00151 10908 70042 555 1/047
BBXX 46207 17061 99509 71299 46/// /2012 10094 40145 57005 22200 00085 11709 70046 333 91214
AAXX 17061 01262 46/// /1612 10031 21020 333 20025 91114
AAXX 17061 01393 16/// /0000 11083 21092 39113 49928 51011 6//// 333 21108 91102
AAXX 17061 01015 46/// /1609 10010 21050 333 20009 91112
AAXX 17061 01180 11980 02301 11014 21063 39838 49895 53011 60002 70200 333 21020 70000 91104
AAXX 17061 01210 11485 71604 10029 21002 39858 49884 52015 69934 70281 8626/ 333 20026 70003 91109
AAXX 17061 01450 16/// /3001 11109 21123 38763 49934 52008 69922 333 21139 70006 91103
AAXX 17061 01392 11580 82901 11002 21012 39680 49905 52008 60002 77872 888// 333 21002 41002 70013 91103
AAXX 17064 71887 12586 81412 10017 21008 39846 40276 56008 60001 82572 333 10023 21026 70008 555 10010 20008 31319 40000
AAXX 17061 34560 31/08 91207 11056 21059 30073 40247 52003 74942 333 21057 41997 89/02
AAXX 17061 34720 32599 81206 10034 20015 30098 40138 53006 885// 333 20026
AAXX 17061 34730 31396 81108 10022 20011 30057 40150 52004 71052 886// 333 20021 88707
AAXX 17061 34740 11496 81106 10021 20013 30065 40163 54001 69900 75052 886// 333 20016
AAXX 17061 34824 31996 81204 10028 20007 30103 40108 52006 71022 82031 333 20018
AAXX 17061 34858 11495 81304 10003 21003 30080 40190 55004 69900 71022 886// 333 20012
AAXX 17061 34866 32998 81007 11016 21019 30225 40216 54001 8007/ 333 21019
AAXX 17061 34880 31496 70803 11029 21039 30275 40248 57002 71022 85330 333 21038 87916 93402
AAXX 17061 37018 32698 61404 10118 20038 30041 40115 53012 82831 333 20078
AAXX 17061 37054 32497 81103 10023 20007 39786 40175 52006 885// 333 20011
AAXX 17061 37472 31596 81303 10070 20053 30194 40172 52008 71052 885// 333 20059
AAXX 17063 87480 32962 01805 10167 20137 30081 40110 57008
AAXX 17063 87532 32970 00000 10162 20120 39950 40118 58005
AAXX 17064 87344 32960 02706 10168 20118 39586 40124 57012
AAXX 17064 87349 32970 00000 10160 20124 39736 40123 57012
AAXX 17064 87371 32962 01406 10195 20164 30094 40115 58004
AAXX 17064 87374 32965 01804 10165 20144 30020 40106 58004
AAXX 17064 87395 32965 00000 10172 20157 30041 40085 58004
AAXX 17064 87418 32965 31803 10196 20121 39338 40114 56001 83070 333 56060 83360
AAXX 17064 87436 32970 10906 10184 20096 39324 40112 57011 80002 333 56005 81070
AAXX 17064 87448 32970 00000 10118 20083 39574 40128 57012
AAXX 17064 87453 32965 01805 10176 20116 39640 40119 58011
AAXX 17064 87467 32970 00906 10158 20126 39986 40119 57005
AAXX 17064 87497 NIL
AAXX 17064 87506 NIL
AAXX 17064 87509 32970 03202 10170 20103 39285 40115 57011
AAXX 17064 87534 32960 00000 10159 20105 39958 40117 57011
AAXX 17064 87548 32962 01104 10141 20128 30017 40112 57012
AAXX 17064 87576 32560 22008 10152 20131 30082 40107 57012 82500 333 56300 82622
AAXX 17064 87582 32560 41811 10166 20142 30094 40101 57012 84500 333 56400 84620
AAXX 17064 87585 32460 21407 10163 20140 30072 40101 57008 82600 333 56400 82712
AAXX 17061 22165 NIL
AAXX 17061 22676 11456 81504 10015 20004 30007 40086 56007 60010 76187 8872/ 333 20004
AAXX 17061 22954 11350 81806 10008 21000 39826 40076 52010 60070 77172 887// 333 20002 86707
AAXX 17061 23405 11330 81404 11020 21029 30045 40145 57016 69950 77372 8872/ 333 21019 87707
AAXX 17061 23412 32599 81403 11049 21062 30095 40195 57004 885// 333 21055 88625
AAXX 17061 23803 NIL
AAXX 17061 27066 12398 81706 10002 21004 39999 40178 58009 60010 888// 333 20000 88707
AAXX 17061 27083 12499 81805 11014 21025 39987 40215 52002 69970 885// 333 21021 91112 93403
AAXX 17061 27113 11360 81708 10014 20000 39914 40060 53012 60070 78086 883// 333 20005 86709
AAXX 17061 27242 11468 81605 10010 21001 30003 40132 58001 60020 70282 889// 333 20009 88713 91114
AAXX 17061 27329 12579 81809 10015 21001 39989 40115 52009 69930 885// 333 20007 91114
AAXX 17061 27355 32497 81606 11005 21026 30022 40188 53016 885// 333 21003 91012
AAXX 17061 27373 32299 81606 11028 21038 30021 40244 53010 886// 333 21023 88705 91113 93403
AAXX 17061 27665 32598 81605 11056 21078 39970 40251 52001 8395/ 333 20038
AAXX 17061 27835 32497 71904 10008 21015 30011 40170 57003 875// 333 21005 87619 91113
AAXX 17061 28009 11458 81804 11030 21043 30067 40284 58003 69900 71072 886// 333 21040
AAXX 17061 28411 12697 81503 11074 21104 30154 40359 52008 69900 8557/ 333 21081
AAXX 17061 28418 32599 71702 11073 21112 30182 40358 54000 875// 333 11096 88625
AAXX 17061 34123 32463 81408 10014 20000 39970 40155 54000 886// 20002 88716
AAXX 17061 22282 NIL
AAXX 17061 22438 NIL
AAXX 17061 22471 31241 81505 10005 20002 30031 40055 58023 77172 8872/ 333 20011 86705
AAXX 17061 22563 11296 81702 10003 20000 30008 40047 57023 69950 77372 8872/ 333 20002 86706
AAXX 17061 22641 11397 81202 10005 21001 39982 49998 56013 60010 77172 8872/ 333 20006 86708 91106
AAXX 17061 22695 NIL
AAXX 17061 22867 11498 81505 10021 20005 39967 40080 54000 60030 70262 886// 333 20005 88713 91111
AAXX 17061 22939 11496 81707 10010 20002 39880 40042 52017 60050 78087 883// 333 20003 84713
AAXX 17061 22996 12498 81905 11017 21029 30031 40225 52002 69960 8552/ 333 21028 93402
AAXX 17061 23324 12478 82103 11015 21032 30125 40204 58009 69920 886// 333 21039 88713
AAXX 17061 27051 12497 81603 10012 20001 39953 40120 57002 69970 86530 333 20003 84913
AAXX 17061 27225 11458 82106 10014 21005 39954 40085 52004 60020 76162 8872/ 333 20008 88716 91013 91114
AAXX 17061 27252 11458 81604 10002 21004 39986 40175 53009 69960 71022 886// 333 20002 88713 91012
AAXX 17061 27333 12380 81810 10011 21003 39976 40135 52010 69960 887// 43002 333 20004 88710 91116 53016
AAXX 17061 27369 32698 81504 11014 21028 30088 40228 52009 885// 333 21015
AAXX 17061 27393 11397 82006 11056 21070 30127 40302 52004 69900 71022 886// 333 21053
AAXX 17061 27479 32399 81504 11048 21058 30126 40265 53007 886// 333 21046 88707
AAXX 17061 27532 11396 81805 10011 21003 39933 40148 53002 69900 71022 885// 333 21002 91012 91113
AAXX 17061 27648 32397 81604 11012 21032 30023 40194 52003 886// 333 21012 88709
AAXX 17061 27675 42497 51408 11076 21102 30098 40277 52001 85051 333 21076
AAXX 17061 27679 32999 71407 11110 21130 30052 40290 58005 87005 333 21078
AAXX 17061 28214 11599 81606 11043 21055 30103 40323 52002 69940 73632 885// 333 21055
AAXX 17061 01441 16/// /0401 11129 21144 38922 49942 52007 60002 333 21222 70006 91101
AAXX 17061 01293 11965 00000 11062 21070 39697 49908 52015 60002 70200 333 21075 70000 91104
AAXX 17061 01257 16/// /1902 11025 21062 39735 49897 52012 69922 333 21056 70002 91103
AAXX 17061 01277 16/// /0901 11047 21058 60002 333 21057 70000 91104
AAXX 17061 01476 16/// /3402 10000 21018 39897 49903 53010 6//// 333 20000 91107
AAXX 17061 01488 16/// /2801 11029 21033 60002 333 21043 4/013 91104
BBXX 46207 17061 99509 71299 46/// /2012 10094 40145 57005 22200 00085 11709 70046 333 91214
AAXX 17064 60395 NIL
AAXX 17064 60421 11560 70000 10080 20026 39127 48480 56010 60004 700// 872// 333 00200 20070 87830 95990
AAXX 17064 60423 11560 73016 10092 20070 39169 48452 56002 60004 700// 878// 333 20087 81830 86640 95990
AAXX 17064 60430 11215 82812 10094 20090 40204 57008 69924 750// 887// 333 009// 20093 83703 86813 95990
AAXX 17064 60437 11210 82416 10074 20070 38980 48487 57010 60004 710// 887// 333 00400 20060 84705 85816 95990
AAXX 17064 60444 12560 33008 10088 20043 39075 48494 56011 60004 83202 333 00400 20059 83830 95990
AAXX 17064 60452 12560 5//// 10175 20120 40201 55010 60004 87200 222// 2//// 333 0//00 20163 85820 91836
AAXX 17064 60457 12562 72712 10157 20121 40205 56010 60004 872// 333 00900 20126 87820 95990
AAXX 17064 60514 11560 72616 10096 20081 39311 48551 56006 60004 700// 875// 333 00400 20076 87626 95990
AAXX 17064 60518 11560 72716 10156 20086 40209 57018 60004 700// 8357/ 222// 29903 333 01000 20145 83620 85360 91857 95990
AAXX 17064 60520 11560 62409 10115 20059 40218 56006 60004 700// 83502 333 00400 20090 83630 85073 95990
AAXX 17064 60540 11460 60000 10021 21003 39067 48527 5//// 60004 700// 83580 333 05200 20017 83620 83360 95990
AAXX 17064 60560 11960 30710 10090 21072 38991 48541 58013 60004 700// 80002 333 00050 20071 83073 95990
AAXX 17064 91636 11599 30814 10281 20232 40084 60001 70211 83200 333 562//
BBXX 3ERR2 17064 99635 10053 41597 63216 10054 20010 49867 52017 78082 86900 22200 06100 10806 70029 333 91121
BBXX LF3F 17064 99643 10078 43/// /2107 10041 20018 49864 52017 22200 04089 10706 70029 333 91127
BBXX LF3N 17064 99653 10073 41597 72613 10056 20019 49841 52018 70282 87/// 22200 00091 10705 70026
BBXX LF4B 17064 99606 10037 47/98 /0105 10046 49901 52009 700// 22200 00046 10806 70029 333 91125
BBXX LF4C 17064 99584 10019 41598 43225 10068 20018 49947 52011 702// 89/// 22200 00079 10707 70034 333 91133
BBXX LF5T 17064 99660 10081 41598 72412 10061 20026 49830 52021 72582 87/// 22200 10704 70021 333 91125
AAXX 17064 71887 12586 81412 10017 21008 39846 40276 56008 60001 82572 333 10023 21026 70008 555 10010 20008 31319 40000
AAXX 17061 40701 11/08 90000 11080 21083 38609 40284 58003 60001 74944 333 30109 70000 89/16
AAXX 17061 40704 12965 62505 10002 21043 38614 40229 53004 60001 80001 333 3/109 43008 70000 86070
AAXX 17061 40708 12960 01802 10022 21032 38656 40208 52003 60001 333 3/109 46002 70000
AAXX 17061 40710 11609 80402 11104 21117 38334 40332 51008 60001 74620 8352X 333 3/117 48008 70000 83635 88457
AAXX 17061 40713 11411 70000 11012 21029 38684 40248 55004 60001 71022 86770 333 34105 70000 83715 83635 87360
AAXX 17061 40719 11220 59901 10070 20061 30215 40205 53004 60001 71042 84600 333 31002 50031 79999 84706
AAXX 17061 40731 11940 60000 10058 21014 38753 40220 53009 60001 70521 83035 333 30107 70000 83360 84270
AAXX 17061 40738 11520 50000 10070 20070 30221 40223 58002 60001 71022 82530 333 31000 50201 70000 82630 84359
AAXX 17061 40740 12660 70602 10000 21022 38726 40205 51011 60001 83510 333 3/105 47003 70000 83640 87460
AAXX 17061 40747 11520 71701 10000 21008 38666 40249 52015 60001 71021 87600 333 31103 70005 87720
AAXX 17061 40757 12962 02701 10066 21020 38911 40212 51008 60001 333 30103 70000
AAXX 17061 40763 12665 70000 10052 21081 38928 40213 52018 60001 83470 333 30101 70000 83635 87460
AAXX 17061 40782 12962 00000 10066 21027 38910 40226 52010 60001 333 30106 5//// 70000
AAXX 17061 40783 12968 01203 10020 21060 37999 40202 51007 60001 333 30108 5///1 70000
AAXX 17061 40789 12965 00000 10084 21054 39231 40218 52017 60001 333 30000 50221 70000
AAXX 17061 40798 12962 00000 10014 21045 37981 40229 52013 60001 333 30109 70000
AAXX 17061 40818 12970 10000 10062 21045 37995 40174 51011 60001 80001 333 30103 5///1 70000 81070
AAXX 17061 40827 12970 10000 10082 21088 38846 40239 50005 60001 81030 333 30105 70000
AAXX 17061 40836 12865 20000 10088 21009 38217 40198 52009 60001 82030 333 30103 5///1 70000 82358
AAXX 17061 40851 12660 20000 10108 21110 38286 40172 51015 60001 81501 333 30000 5//// 70000 81640
AAXX 17061 40853 12965 12703 10096 21138 37771 40183 52014 60001 81030 333 30106 5//// 70000 81360
AAXX 17061 40854 12960 02702 10196 21051 38948 40143 51007 60001 333 30002 50311 70000
AAXX 17061 40857 12960 30904 10202 20144 30172 40181 50009 60001 80001 222// 00202 20301 333 30014 50141 70000 83070
AAXX 17061 40859 12662 50000 10098 21046 38743 40201 52019 60001 82101 333 30104 50221 70000 82840 83070
AAXX 17061 40878 12965 10000 10126 21159 38872 40228 51009 60001 80002 333 30103 5//// 70000 81070
AAXX 17061 40879 12970 20000 10193 21131 39512 40194 51008 60001 80002 333 30004 50581 70000 82070
AAXX 17061 40883 11958 23503 10218 20096 30156 40179 51018 60001 70500 80001 222// 00202 20501 333 30010 50461 70000 82070
AAXX 17061 40898 12962 10102 10228 20046 30165 40174 51017 60001 81030 222// 00239 10900 333 30012 50351 70000 81359
BBXX 41052 17061 99183 70648 46/// /0306 10260 40134 58011 90600 22200 00278 333 91209
BBXX 41052 17061 99183 70648 46/// /0405 10261 40135 90550 333 91207
BBXX 41052 17061 99183 70648 46/// /0305 10260 40136 90540 333 91206
AAXX 17061 14258 11620 83002 10002 20000 39737 49926 53019 60192 77167 8802/ 333 20002 32000 43002 70191 93102
AAXX 17061 40703 11620 81502 11050 21060 38950 40276 52017 60001 71000 8352/ 333 34111 70000 83640 88459
AAXX 17061 40712 11507 80000 11020 21023 38703 40267 52006 60001 74642 8562/ 333 34111 70000 82725 83630 88458
AAXX 17061 40729 12662 30000 10018 21039 38348 40223 53008 60001 81401 333 30109 70000 81635 83069
AAXX 17061 40736 12960 00000 10080 20058 30233 40208 53003 60001 333 30002 50071 70000
AAXX 17061 40739 12665 70000 10024 21024 38685 40207 50005 60001 83506 333 30102 70000 83635 87269
AAXX 17061 40743 12662 70802 10036 21050 39080 40219 52010 60001 81506 333 30103 70000 81635 87270
AAXX 17061 40762 12665 72102 10046 21102 38557 40216 52017 60001 84406 333 30106 70000 84640 86268
AAXX 17061 40768 12660 10000 10024 21029 38277 40235 51004 60001 81400 333 31109 70000
AAXX 17061 40769 11958 00000 10018 21030 38317 40229 51009 60001 70500 333 30105 5//// 70000
AAXX 17061 40785 12960 00000 10070 21016 39107 40220 52010 60001 333 30102 5///1 70000
AAXX 17061 40809 12662 40000 10082 21154 38508 40190 53012 60001 81131 333 30102 70000 84360
AAXX 17061 40821 12665 10000 10070 21034 38826 40244 53012 60001 81100 333 30100 50301 70000
AAXX 17061 40831 11950 00000 10118 20037 30188 40196 52012 60001 70500 333 30003 50101 70000
AAXX 17061 10044 46/// /3214 10038 20005 39850 49882 53030 222// 00057 333 10051 20027 55000 55300 91119 91217
AAXX 17061 10124 46/// ///// 10064 2//// 39881 49918 53024 222// 00061 333 10068 20034 55/// 553// 911// 912//
BBXX 41053 17061 99185 70661 46/// /0507 10257 40146 58010 90600 22200 00272 11105 70024 333 91209
AAXX 17061 50844 32962 03204 11066 21202 40268 57005 333 21184
AAXX 17061 50854 32970 02502 11092 21190 40259 57005 333 21205
AAXX 17061 50968 32662 22503 11116 21184 40269 52003 82500 333 21209
AAXX 17061 51379 11758 82702 11115 21138 40400 57007 69901 77070 885// 333 05256 21186
AAXX 17061 51467 32980 73403 11052 21222 38291 57020 80002 333 05101 21114
AAXX 17061 51495 32980 11802 11030 21135 40372 57017 80002 333 00100 21089
AAXX 17061 53480 32980 00000 11046 21196 40387 57018 333 21210
AAXX 17061 53673 32961 01401 11043 21150 40371 57026 333 21152
AAXX 17061 53698 32965 51401 10025 21118 40324 57028 80002 333 21074
AAXX 17061 53898 32963 01803 10037 21068 40320 57032 333 21087
AAXX 17061 54308 32980 03611 11026 21204 40343 57028 333 21216
AAXX 17061 54602 32965 01601 10014 21135 40324 57027 333 21105
AAXX 17061 54725 32965 42503 10015 21116 40335 57033 80001 333 21081
AAXX 17061 54751 32965 02706 10006 21105 40323 57024 333 21033
AAXX 17061 54916 32962 41602 10027 21092 40338 57039 80002 333 21098
AAXX 17061 57014 11958 81601 10007 21019 40309 57019 69911 77070 8802/ 333 05153 21016
AAXX 17061 57025 31958 81802 10001 21107 40337 57022 70500 8801/ 333 21049
AAXX 17061 57046 32964 70000 11012 21086 37977 57017 86032 333 05200 21053
AAXX 17061 58208 32970 00904 10053 21075 40330 57036 333 21026
BBXX BATFR08 17064 99461 30730 46/// /2519 10072 20054 40188 51003 22213 00087
BBXX BAREU56 17064 99436 10095 46/// ///// 49979 52034 22241
BBXX TESTFR9 17064 99487 70040 46/// ///// 10086 29068 40161 52027 22252
BBXX BAREU08 17064 99363 70342 46/// ///// 40280 52006 22224
BBXX BAREU04 17064 99536 70039 46/// ///// 40050 22262
BBXX BAREU60 17064 99436 10135 46/// ///// 49953 52043 22242
BBXX BAREU00 17064 99508 70338 46/// ///// 40221 57008 22224
BBXX BATFR13 17064 99447 70153 44797 73007 10119 20037 40295 57010 70222 8577/ 22214 00145
BBXX BATFR54 17064 99455 70020 46/// /2922 10094 20057 40155 55009 22223 00145
BBXX BATFR21 17064 99427 10087 46/// /2537 20295 40027 56010 22223
BBXX BATFR31 17064 99419 10087 46/// ///// 10122 40064 51011 22200 00165
BBXX BATFR30 17064 99418 10084 46/// /2934 10125 20040 40048 22224 00169
BBXX BATFR27 17064 99488 70022 46/// /3318 10104 20024 40121 53029 22233 00117
BBXX BATFR42 17064 99507 70020 46/// /2912 10035 20022 40100 51027 22261 00120
BBXX BATFR52 17064 99487 70040 46/// /3227 10084 20027 40136 51018 22200 00119
BBXX BATFR46 17064 99425 10036 46/// /3125 10097 20054 40133 51035 22243 00164
BBXX BATFR60 17064 99538 10070 46/// /3127 10060 20019 49945 53006 22223 00064
BBXX BATEU04 17064 99594 70021 46/// /3520 10042 21013 49989 53017 22233
BBXX BATEU06 17064 99550 70307 46/// /2518 10049 20017 40198 51001 22264 00074
BBXX BATEU08 17064 99628 70193 46/// /2709 10020 21043 40084 51018 22263
BBXX BATFR03 17064 99508 70011 46/// /3115 10034 20010 40090 51031 22272
BBXX BATFR41 17064 99432 10035 46/// /2832 10089 20037 40106 51017 22251
BBXX BATFR04 17064 99597 70110 44497 83017 10044 21006 40078 51024 72122 887// 22200 00102 300// 40306 5////
BBXX BATFR32 17064 99430 10061 46/// /3038 10098 21025 40077 52075 7//// 8//// 22254 00160
BBXX BATFR09 17064 99404 70098 44498 43520 10132 20037 40282 51003 70222 84100 22282 00169 20304 332// 41116 5//// 60//0 ICE 0/0//
BBXX BATUK01 17064 99582 70064 46/// /0005 10019 21005 40045 53025 22200 00109
BBXX BAREU12 17064 99525 10037 46/// ///// 40004 52010 22214
BBXX BAREU51 17064 99410 10125 46/// ///// 49992 57005 22285
BBXX 61001 17064 99434 10078 46/// /2835 10116 20055 40006 52012 22200 00151 10908 70042 555 1/047
AAXX 17061 60370 36/// /2704 10150 20091 333 20143
AAXX 17061 60371 36/// /2103 10165 20108 333 20148
AAXX 17061 60372 36/// /2808 10133 20112 333 20116
AAXX 17061 60373 NIL
AAXX 17061 60374 NIL
AAXX 17061 60376 NIL
AAXX 17061 60379 NIL
AAXX 17061 60380 NIL
AAXX 17061 60381 NIL
AAXX 17061 60393 NIL
AAXX 17061 60394 NIL
AAXX 17061 60593 NIL
AAXX 17061 60595 NIL
AAXX 17061 60605 NIL
AAXX 17061 60613 NIL
AAXX 17061 60623 NIL
AAXX 17064 60624 36/// /0000 10108 21022 333 20107
AAXX 17064 60639 NIL
AAXX 17064 60645 36/// /0000 10092 21018 333 20091
AAXX 17064 60353 11565 82822 10178 20139 40145 56009 60004 700// 888// 333 84820 86633 91847 95990
AAXX 17064 60367 NIL
AAXX 17064 60369 12560 72204 10170 20070 40171 55006 60004 8328/ 333 0//00 20151 83826 84360 91837
AAXX 17064 60401 NIL
AAXX 17064 60403 11660 72212 10152 20083 40141 56007 60004 700// 878// 333 00500 20117 82833 86840 95990
AAXX 17064 60425 12565 72417 10137 20094 40202 57010 60004 82234 333 00600 20116 82830 86073 95990
AAXX 17064 60461 13460 62111 10165 20105 40212 53002 60004 750// 86600 222// 20000 333 20152 84710 83616 91837 95990
AAXX 17064 60467 11660 62622 10102 20065 40177 56013 60004 700// 84831 333 00300 20052 84833 95990
AAXX 17064 60492 11560 62528 10150 20113 40206 56008 60004 700// 83502 333 01100 20125 83633 85073 95990
AAXX 17064 60515 11960 73029 10122 20060 40178 58006 60004 700// 82032 333 00500 20085 82360 85070 95990
AAXX 17064 60517 11560 61807 10183 20101 40233 56008 60004 700// 82232 333 0//00 20161 82826 83073 95990
AAXX 17064 60522 11565 82112 10097 20045 40250 5//// 60004 700// 8423/ 333 00300 20073 84826 85360 95990
AAXX 17064 60557 11965 30000 10022 20012 38905 48546 58013 60004 700// 80002 333 00000 20022 83073 95990
AAXX 17064 60563 12960 33410 10059 20011 39304 48509 57001 60004 80002 333 05300 20025 83073
AAXX 17064 60603 12960 21804 10043 21008 40220 57013 60004 80001 333 0//00 20040 82073
AAXX 17064 60638 12960 0//// 10036 20013 40215 56006 60004 333 05100 20029
AAXX 17064 60686 NIL
AAXX 17061 11867 11684 80000 10044 20002 39581 49892 53012 60072 70262 885// 333 20033 32003 70104 88640
BBXX BAREU05 17064 99430 70363 46/// ///// 40174 57019 22263
BBXX BAREU11 17064 99137 70733 46/// ///// 40127 57002 22213
BBXX BATFR15 17064 99223 70470 44898 21819 10232 20207 40100 58018 70122 82211 22263 00254 335// 41006 5////
BBXX BATEU01 17064 99468 70574 44597 62727 10034 21018 40039 53042 70222 84353 22224 00052 21004 318// 41004 5////
BBXX BAREU06 17064 99465 70723 46/// ///// 40185 52008 22243
BBXX A8SF7 17061 99315 70803 41098 12608 10190 20175 40210 58005 7//22 81100 22234 04170 21003 3//// 4//// 5//// 80180
BBXX DDLK 17063 99362 70725 41/97 70114 10165 20094 40169 57011 70222 87/// 22224 20603 334// 40804 80125
BBXX A8SF8 17064 99183 70679 41398 40518 10250 20207 40161 57009 70300 82245 22264 04270 29904 399// 4//// 80220
BBXX C6CU6 17063 99332 70445 41297 82028 10215 20200 40120 56040 70122 8/7// 22263 04212 20912 317// 40512 5//// 80205
BBXX 41101 17064 99146 70562 46/// /0314 10262 20214 40106 57012 22200 00274 10904 70018
AAXX 17064 64500 32360 81610 10255 20241 30099 40112 849// 333 02600 20235 50631 55057 58006 83608 81920 88633 94942 95832
AAXX 17063 64501 32460 71808 10252 20242 3//// 4//// 8353/ 333 0//00 20250 50124 55003 5//// 83610 87360
AAXX 17063 64507 NIL
AAXX 17064 64510 31/01 9//// 10215 20215 3//// 4//// 74544 333 0//00 20215 5///4 55/// 5//// 89///
AAXX 17064 64550 32460 8//// 10239 20224 30/// 40/// 885// 333 02200 20219 50144 55/// 5//// 84613 88620
AAXX 17064 64551 31240 82206 10252 20238 30085 40114 71022 885// 333 0//00 20222 50034 55/// 59001 82703 83610 88626
AAXX 17064 64556 NIL
AAXX 17064 64570 31102 61404 10229 20229 39625 40134 74444 84640 333 02000 20221 50054 55/// 58002 84702 86360
BBXX BATFR55 17064 99201 30574 44597 71304 10229 20217 40117 72566 86172 22262 00259 203// 33030 406// 506//
BBXX BATFR05 17064 99063 10034 46/// /0104 10254 20235 40114 53006 22200 00260
BBXX BATFR19 17064 99065 30060 46/// /1721 10239 20205 40127 53001 22200 00254
BBXX BATFR56 17064 99190 30587 44498 30812 10267 20202 40114 51004 70200 82193 22262 00280 20604 314// 40604 5////
BBXX A8QJ7 17064 99028 50301 41/98 11413 10260 20215 40108 58014 7//00 81/00 22213 2//// 3//// 4//// 5//// 80230
AAXX 17064 64400 11357 81608 10244 20235 30097 40116 69904 70262 888// 333 02055 20236 50124 55002 59005 84807 88623
AAXX 17063 64401 32460 71804 10228 20216 39746 40120 85570 333 02000 50114 55000 59005 85616 87363
AAXX 17064 64450 32559 80402 10236 20230 39754 40107 885// 333 01900 20228 50154 55012 59007 88620
AAXX 17064 64453 NIL
AAXX 17064 64456 NIL
AAXX 17063 64458 31201 80000 10216 20215 39713 40101 74644 886// 333 01800 20196 50174 55/// 58000 88705
AAXX 17063 64459 31305 71804 10236 20229 39756 40119 74244 87/// 333 02000 20210 50074 55/// 58002 87606
AAXX 17063 64460 NIL
AAXX 17064 78948 11478 60412 10253 20224 30112 40120 69901 78022 84901 333 06209 10304 20231 58009 81918 84820 85080
AAXX 17061 13463 11550 82304 10144 20109 39873 49930 57047 60292 76366 8572/ 333 20118 32010 55044 91115
AAXX 17061 13459 11565 81610 10089 20088 39187 49925 55064 60432 76366 8582/ 333 20073 32007 55045 85696 88597 91130
AAXX 17061 13461 11558 81808 10169 20113 39953 49960 56031 60072 72166 888// 333 20151 32014 55047 85517 91120 92355 92456 92515
AAXX 17061 13363 11662 82502 10075 20055 39000 48242 57031 60222 72162 8352/ 333 20073 31005 55007
AAXX 17061 14235 11/01 9//// 11027 21031 38775 48245 52035 69992 77174 333 21031 44016 93116
AAXX 17061 14246 11465 82403 10010 20000 39730 49935 53027 60332 76176 887// 333 20000 3/000 43002 70333 93102
AAXX 17061 14314 12675 50305 10072 20027 39877 49941 52046 60032 85800 333 20070 32001 70027 92322 92428
AAXX 17061 14323 11658 80603 10054 20025 39917 49951 52060 60312 76166 8802/ 333 20054 32004 70316 92322 92426
AAXX 17061 14324 11/60 82902 11023 21026 38182 48295 52032 60512 72264 886// 333 21025 3/103 44012 70554
AAXX 17061 14328 NIL
AAXX 17061 14330 11560 83505 10024 20010 39278 49942 52050 60422 7616/ 8802/ 333 20024 32002 70456
AAXX 17061 14438 11568 63006 10106 20043 39846 49935 53027 60132 71798 86300 222// 00155 333 20092 31007 70125 9232/
AAXX 17061 14443 32698 332// 10141 20120 39853 49942 52025 83420 333 20112 92334 911//
AAXX 17061 14447 11582 22809 10136 20038 39913 49943 53/// 60022 70162 82200 222// 00173 333 20127 31013 70021 92323
AAXX 17061 14472 NIL
AAXX 17061 08501 32/// /2109 10187 20133 30230 40266 57011 333 20186 30017 5//// 55053 20758 91017 91122 555 60005
AAXX 17061 08505 NIL
AAXX 17061 08506 12/// /2305 10168 20156 30240 40313 57007 69912 333 20165 30017 5//// 55023 20545 91008 91109 555 60005
AAXX 17061 08509 32460 12306 10170 20144 30234 40299 58006 81201 333 20169 50254 55003 81815 91010 91116 555 60007
AAXX 17061 08511 32/// /2804 10161 20161 30203 40311 57006 333 20159 30015 5//// 55024 24738 91006 91106 555 60005
AAXX 17061 08512 32475 62503 10168 20163 30230 40316 57007 86800 333 20155 30011 5//// 55064 20949 81816 86640 555 60005
AAXX 17061 08515 32589 72203 10172 20112 30201 40323 55008 878// 333 20159 30011 50294 55/// 81820 87639 910// 911// 555 60007 912//
AAXX 17061 08521 32470 70204 10176 20103 30243 40314 57009 87800 333 20167 30/// 55073 85816 83630 555 60007
AAXX 17061 08522 32/// /9902 10145 20085 30243 40313 57007 333 20145 30011 5//// 55083 21184 555 60005
AAXX 17061 08524 32470 70402 10169 20109 30217 40315 57010 87800 333 20159 3/015 40/// 5//// 55056 20923 84816 85630 91106 555 60005
AAXX 17061 08530 NIL
AAXX 17061 08531 32/// /3506 10135 20046 30243 40282 54000 333 20134 30011 5//// 55009 20380 91109 555 60005
AAXX 17061 08532 NIL
AAXX 17061 08533 32/// /0000 10135 20103 30252 40281 54000 333 20134 30011 5//// 55100 20857 555 60005
AAXX 17061 08534 32562 39902 10102 20075 30266 40284 52003 83500 333 20102 50114 55016 83630 555 60007
AAXX 17061 08535 12/// /3301 10105 20068 30192 40287 52002 69952 333 20104 30007 5//// 55014 20520 555 60005
AAXX 17061 08537 NIL
AAXX 17061 08540 32660 41401 10060 20047 30212 40283 52002 84500 333 20060 50314 55002 84640 555 60007
AAXX 17061 08541 12/// /3504 10112 20068 30164 40285 52003 60012 333 20102 30008 5//// 55030 20671 91107 555 60005
AAXX 17061 08544 32360 71901 10054 20037 30262 40037 52008 878// 333 20050 50214 55000 82708 83818 85630 555 60007
AAXX 17061 08545 11660 81201 10063 20046 30200 40285 52004 69912 70262 8753/ 333 20060 31002 50214 55000 20154 84640 86648 555 60005
AAXX 17061 08548 32/// /0000 10066 20054 30076 40287 52005 333 20063 30003 5//// 55000 20132 555 60005
AAXX 17061 08551 12/// /1102 10052 20043 30228 40288 52005 69982 333 20049 30004 5//// 55012 20268 555 60005
AAXX 17061 08554 32565 23403 10122 20080 30270 40280 52006 82500 333 20122 30012 5//// 55050 20775 82630 91107 555 60005
AAXX 17061 08558 12/// /3004 10074 20044 39978 40280 52003 60022 333 20073 30005 5//// 55001 20471 91108 555 60005
AAXX 17061 08560 32/// /2903 10033 20001 39510 40291 52008 333 20030 30000 5//// 55000 20125 91105 555 60005
AAXX 17061 08561 11904 33004 10076 20076 30041 40279 53004 69942 74640 80004 333 20076 50264 55014 83070 555 60007 90214 96640 90303 90203 96646
AAXX 17061 08562 12/// /2903 10072 20067 39979 40281 52004 69932 333 20072 30006 5//// 55015 20498 555 69915
AAXX 17061 08567 32/// /0000 10026 20011 39605 40292 52007 333 20017 30000 5//// 55010 20303 555 60005
AAXX 17061 08568 32/// /3113 11015 21024 38667 48534 54000 333 21017 30102 5//// 55000 20355 91120 555 60005
AAXX 17061 08570 32/// /3002 10052 20002 39808 40280 52004 333 20041 30002 5//// 55019 20475 555 60005
AAXX 17061 08571 12/// /3506 10045 20004 39556 40279 54000 60012 333 20042 30004 5//// 55000 20084 91010 91110 555 60005
AAXX 17061 08575 32/// /2903 10037 20001 39434 40266 52003 333 20034 30002 5//// 55021 20417 91007 91108 555 60005
AAXX 17061 08579 12/// /2402 10110 20060 30158 40285 52002 69952 333 20108 30010 5//// 55016 20486 555 60005
AAXX 17061 28049 32998 71806 11092 21101 30182 40356 53006 87030 333 21149
AAXX 17061 28144 11599 81901 11057 21075 30190 40354 52005 69920 70272 8357/ 333 21116
AAXX 17061 28319 12498 61603 11081 21113 30190 40364 52005 69900 85550 333 21081
AAXX 17061 28321 12999 51504 11078 21105 30146 40360 52006 69900 84032 333 21083
AAXX 17061 28334 12499 82101 11069 21102 30070 40390 52005 69960 885// 333 21082
AAXX 17061 28434 12599 71202 11076 21101 30123 40395 51005 69900 82531 333 21083
AAXX 17061 28552 31596 20802 11239 21265 30309 40438 52005 70500 82500 333 21262
AAXX 17061 28666 32998 00000 11230 21251 30253 40449 52003 333 21228
AAXX 17061 28825 32997 20000 11138 21145 30216 40402 52007 82030 333 21143
AAXX 17061 29111 42999 02301 11263 21285 30386 40486 52008
AAXX 17061 29209 42998 00000 11297 21322 30340 40486 52013
AAXX 17061 29551 42997 80000 11234 21259 30275 40479 52003 80001
AAXX 17061 29602 42999 00403 11278 21310 30302 40462 52013
AAXX 17061 29636 42998 00000 11220 21239 30211 40454 52003
AAXX 17061 29654 42999 42402 11123 21166 39775 40430 58002 80001
AAXX 17061 29712 42098 00702 11258 21283 30280 40441 52007
AAXX 17061 29724 41995 00000 11250 21268 30221 40449 52001 71000
AAXX 17061 29726 41998 20000 11251 21276 30267 40456 52001 70271 82070
AAXX 17061 29814 41999 00604 11246 21279 30275 40440 52008 70283
AAXX 17061 29827 42997 00701 11233 21258 30265 40437 54000
AAXX 17061 29923 42998 20000 11260 21291 30136 40447 52002 80001
AAXX 17061 29939 41998 50701 11194 21220 30121 40432 58001 72272 80005
AAXX 17061 35026 31596 60501 11123 21140 39739 40422 52005 71011 86500 333 21192
AAXX 17061 36021 41598 71303 11223 21242 30218 40418 52003 78581 84905
AAXX 17061 36022 42997 80303 11270 21295 30134 40430 58002 80001
AAXX 17061 36038 41999 70000 11177 21196 39936 40418 58004 70381 80002
AAXX 17061 36058 42999 80000 11114 21127 39861 40413 58007 8801/
AAXX 17061 36064 42999 80502 11073 21137 39779 40400 58008 80008
AAXX 17061 36229 42999 71101 11183 21190 39179 40448 58004 84039
AAXX 17061 36259 42999 80000 11242 21274 38289 48578 58004 80002
AAXX 17061 23914 12499 81604 11065 21069 30053 40321 53013 60010 8277/ 333 21076
AAXX 17061 23921 11444 81601 11071 21080 30192 40316 51001 69940 78582 889// 333 21136 88915
AAXX 17061 23955 42998 21701 11264 21281 30395 40465 52004 80001
AAXX 17061 23966 42997 60000 11244 21269 30302 40444 58002 83031
AAXX 17061 28138 11996 80000 11086 21093 39774 40373 52002 69940 71072 8801/ 333 21096
AAXX 17061 28224 11598 81703 11071 21096 30137 40362 52007 69950 70272 8752/ 333 21079
AAXX 17061 28255 32999 81601 11218 21240 30263 40407 52004 8807/ 333 21245
AAXX 17061 28440 11599 72101 11058 21081 30026 40393 52004 69900 70282 87300 333 21086
AAXX 17061 28645 11965 81801 11094 21106 30104 40418 54000 77172 8802/ 333 21126
AAXX 17061 28661 31996 01902 11240 21265 30348 40452 52003 71000 333 21270
AAXX 17061 28722 31996 71601 11111 21127 30254 40394 52004 71022 87030 333 21140
AAXX 17061 28748 11959 81601 11111 21124 30171 40428 52004 69900 71072 8807/ 333 21125
AAXX 17061 28838 32997 71101 11061 21076 39918 40418 52007 87030 333 21072
AAXX 17061 29231 42998 00000 11249 21274 30379 40488 52003
AAXX 17061 29313 41998 00000 11297 21318 30352 40493 51006 70400
AAXX 17061 29612 42998 00502 11263 21281 30300 40472 52008
AAXX 17061 29638 41956 60000 11202 21228 30262 40445 53001 71011 80001
AAXX 17061 29838 41997 22701 11201 21220 30177 40434 54000 70271 80001
AAXX 17061 29846 41912 80000 11192 21204 30019 40442 51004 71011 85041
AAXX 17061 36061 42999 80000 11193 21212 39983 40430 58006 8805/
AAXX 17061 23909 11398 81904 11039 21047 30036 40292 52008 69900 70232 886// 333 21056
AAXX 17061 28044 32598 81501 11050 21066 30164 40334 52004 885// 333 21123
AAXX 17061 28116 11598 81704 11057 21072 30085 40327 52008 69900 70272 885// 333 21065
AAXX 17061 28240 32598 82302 11059 21076 30035 40373 52004 885// 333 21083
AAXX 17061 28522 32997 51803 11108 21124 30118 40393 52004 80003 333 21104
AAXX 17061 28621 32598 61404 11099 21120 30135 40383 51003 85502 333 21111
AAXX 17061 29023 42398 11801 11269 21293 30373 40484 52010 81600
AAXX 17061 29122 42999 20000 11269 21287 30408 40491 52007 80002
AAXX 17061 29328 41996 00000 11263 21287 30323 40481 54000 70400
AAXX 17061 29348 42997 30000 11229 21245 30322 40484 51002 80001
AAXX 17061 29405 42997 00701 11266 21290 30316 40483 52015
AAXX 17061 29418 42998 00000 11256 21281 30303 40484 52009
AAXX 17061 29430 42998 00000 11200 21219 30281 40475 51002
AAXX 17061 29524 42998 00601 11234 21252 30284 40467 52006
AAXX 17061 29605 42998 00302 11286 21304 30300 40463 52016
AAXX 17061 29631 42998 00302 11198 21217 30248 40453 53007
AAXX 17061 29645 42997 63101 11156 21169 30239 40441 52001 80001
AAXX 17061 29706 42998 00903 11255 21280 30278 40444 52009
AAXX 17061 29736 41996 60000 11253 21272 30168 40450 52005 70411 80001
AAXX 17061 29937 42997 00901 11196 21229 30189 40431 52005
AAXX 17061 36034 41996 80401 11238 21256 30119 40428 58003 71011 80001
AAXX 17061 36096 41998 70101 11259 21291 39682 40558 54000 77072 82035 333 95000
AAXX 17061 34357 11497 81006 11042 21047 30059 40225 57003 69900 77782 886// 333 21044
AAXX 17061 34363 11295 81004 11088 21092 30118 40280 57002 69980 71074 886// 333 21081 93614
AAXX 17061 34545 31396 81307 11017 21018 30084 40198 50001 71022 886// 333 21016
AAXX 17061 34579 31996 81103 11075 21080 30225 40270 54000 71022 8005/ 333 21076 93603
AAXX 17061 34838 32997 81404 10034 20009 30036 40133 53004 80009 333 20031
AAXX 17061 34927 32697 51002 10017 21012 30084 40121 53008 82539 333 20009
AAXX 17061 34949 32498 81407 10017 20003 39608 40159 52003 8655/ 333 20015 88610
AAXX 17061 37001 32997 71704 10107 20078 30054 40093 52011 80002 333 20095
AAXX 17061 37031 32997 81406 10033 20003 39938 40134 53004 83034 333 20028
AAXX 17061 37061 11/93 90904 10022 20020 30011 40179 52003 69910 74754 333 20030 96047
AAXX 17061 37085 31497 81009 10054 20044 30212 40239 5//// 76162 8872/ 333 20032 91012 91113
AAXX 17061 37107 32999 83401 10030 21005 39471 40153 52010 82015 333 20009
AAXX 17061 37126 32999 72106 10000 21221 37894 48461 53005 85031 333 21024 48004
AAXX 17061 37171 32998 80704 10083 20006 30105 40123 52010 80005 333 20067
AAXX 17061 37228 31/93 90000 11043 21050 39321 40182 52002 74542 333 21035
AAXX 17061 37470 12598 81301 10069 20045 30191 40169 52007 69950 885// 333 20055
AAXX 17061 37663 32999 03004 10061 21079 38977 48460 52005 333 21052
AAXX 17064 91643 11599 60607 10284 20237 40081 51009 60001 70222 82268 333 56199 82820 83361 86280
AAXX 17064 91636 11599 50906 10287 20247 40074 60001 71422 83208 333 562/9
AAXX 17064 87078 NIL
AAXX 17064 87244 NIL
AAXX 17064 87393 NIL
AAXX 17064 87416 32965 00000 10182 20121 39388 40114 58001
AAXX 17064 87563 NIL
AAXX 17064 87640 NIL
AAXX 17064 87688 NIL
AAXX 17064 87774 NIL
AAXX 17064 87852 NIL
AAXX 17064 87896 NIL
AAXX 17063 NIL
AAXX 17063 87016 32560 81806 10209 20172 39715 40115 54001 8557/ 333 85620
AAXX 17064 87593 NIL
AAXX 17064 87623 32980 00503 10160 20108 39905 40126 58001
AAXX 17064 87641 32365 81410 10128 20121 39956 40128 58013 886// 333 56399 88709
AAXX 17064 87645 32965 01606 10123 20110 39921 40126 58013
AAXX 17064 87648 32460 41808 10150 20141 30102 40113 57016 84600 333 56400 84710
AAXX 17064 87692 31558 71808 10166 20134 30101 40126 57019 71022 86570
AAXX 17064 87715 32765 30000 10252 20117 39806 40109 58008 83500 333 56600 83656
AAXX 17064 87750 NIL
AAXX 17064 87765 31959 09904 10123 20018 39210 48526 54000 70400 333 96104 96120
AAXX 17064 87784 NIL
AAXX 17064 87791 NIL
AAXX 17064 87800 NIL
AAXX 17064 87803 31970 00000 10136 20014 39237 40123 58008 70400
AAXX 17064 87828 31975 33612 10183 20114 30054 40104 57024 70400 82062 333 56000 82360
AAXX 17064 87860 32980 02716 10214 20052 30032 40085 58005
AAXX 17064 87904 NIL
AAXX 17064 87909 NIL
AAXX 17064 87925 32580 50000 10132 20084 30081 40103 56009 83506 333 56100 83625
AAXX 17064 87938 NIL
AAXX 17064 78948 11478 60412 10253 20224 30112 40120 69901 78022 84901 333 06209 10304 20231 58009 81918 84820 85080
AAXX 17064 89022 46/// /1305 11088 21109 39760 49798 57006
AAXX 17064 89062 46/// /2821 11009 21088 39864 49905 52066 333 55003
AAXX 17064 04203 46/// /0610 11107 21143 30033 40051 57003
AAXX 17064 04205 45/84 /0902 11186 21267 30044 40067 57005 333 11172 21234
AAXX 17064 04208 46/// /0924 11079 21169 39958 40005 57018
AAXX 17064 04213 46/// /1419 11070 21142 39868 49979 57033 333 11053 21071 91129
AAXX 17064 04214 46/// /3203 11052 21111 39929 49962 57032
AAXX 17064 04224 45884 80810 11033 21095 39907 49939 57034 333 11029 21087 88/58
AAXX 17064 04228 NIL
AAXX 17064 04242 46/// /1219 10000 21050 39890 49906 57039
AAXX 17064 04253 46/// /1420 10012 21031 39877 49904 57047
AAXX 17064 04266 46/// /1140 10000 21001 39899 49937 57040 333 91061
AAXX 17064 04285 46/// /1134 10001 20000 39980 49999 57035
AAXX 17064 04301 46/// ///// 11281 21323 30095 40100 52002
AAXX 17064 04313 46/// ///// 11172 21201 39997 40009 52006
AAXX 17064 04330 46/// /3505 11198 21272 30041 40059 52008
AAXX 17064 04351 46/// /2201 11131 21173 30059 40076 52026
AAXX 17064 04373 46/// /3112 11054 21159 39968 40063 52004
AAXX 17064 04382 46/// /3302 11066 21088 30028 40077 57013
AAXX 17064 04416 46/// ///// 11561 21575 36596 54000
AAXX 17061 40716 11957 30000 11008 21032 38937 40245 52005 60001 71010 80001 333 30106 70000 83069
AAXX 17061 40719 11220 59901 10070 20061 30215 40205 53004 60001 71042 84600 333 31002 50031 79999 84706
AAXX 17061 40721 12960 50000 10064 20010 39666 40224 54000 60001 80006 333 31000 50121 70000 85270
AAXX 17061 40858 12960 00000 10192 20132 30168 40178 52008 60001 80002 333 30013 50291 79999 83068
AAXX 17061 40872 11958 43302 10212 20140 30175 40180 53013 60001 70510 80001 222// 00220 20301 333 30010 50281 70000
AAXX 17061 40877 12960 00000 10140 21046 39604 40154 52006 60001 333 30003 50261 70000
AAXX 17061 40898 12962 10102 10228 20046 30165 40174 51017 60001 81030 222// 00239 10900 333 30012 50351 70000 81359
AAXX 17061 10004 46/60 /3413 10057 20022 39952 49952 53021 222// 00086 333 10079 20052 55000 55300 91120 91216
AAXX 17064 71107 16/// /2819 10078 20074 30001 40113 57002 60001 333 10084 20076 70000 555 32532 40002
AAXX 17064 71026 16/// /2003 11044 21062 39352 40223 55000 60001 333 7////
AAXX 17064 71063 16/// /3310 11063 21102 30108 40208 53010 60001 333 10074 21063 70000 555 32626 40101
AAXX 17064 71737 16/// /3204 11126 21153 39647 40183 50001 60001 333 10029 21126 70000 555 33023 40121
AAXX 17064 71743 16/// /2308 11198 21216 39797 40019 56002 60001 333 11139 21198 70000 555 32824 40181
AAXX 17064 71744 16/// /3007 11049 21113 30091 40132 51020 60001 333 10076 21049 70025 555 33025 40201
AAXX 17064 71746 16/// /3410 11010 21070 30023 40248 51002 60001 333 10010 21010 70000 555 33026 40071
AAXX 17064 71748 16/// /2018 11078 21095 39869 40167 56053 60001 333 11078 21177 70000 555 31923 40051
AAXX 17064 71317 16/// /3003 11011 21051 30073 40120 51025 60001 333 10106 21014 70037 555 32432 40172
AAXX 17064 71340 16/// /1005 11058 21074 60001 333 11024 21137 70000
AAXX 17064 71341 16/// /2418 10045 21019 60001 333 10049 21031 70000 555 32639 40023
AAXX 17064 71342 16/// /2410 11071 21102 60001 333 11016 21109 70017
AAXX 17064 71344 16/// /2308 11010 21072 60001 333 10016 21091 70000 555 32518 40181
AAXX 17064 71347 16/// /1705 11024 21041 60001 333 11024 21115 70000
AAXX 17064 71348 16/// /0503 11035 21049 60001 333 10021 21127 70000 555 32727 40121
AAXX 17064 71349 16/// ///// 11051 21081 60001 333 11007 21175 70000
AAXX 17064 71479 16/// /1633 10091 20091 30089 40210 50002 60001 333 10095 20066 70000 555 31147 40113
AAXX 17064 71550 16/// /2517 11028 21065 39761 40141 56022 60001 333 11028 21176 70000 555 32230 40032
AAXX 17064 71551 16/// /2706 11045 21079 39537 40209 52006 60001 333 10003 21113 70000 555 32920 40011
AAXX 17064 71576 16/// /1215 11135 21179 39878 49962 50004 60001 333 11107 21200 70000 555 31030 40132
AAXX 17064 71228 16/// /2204 11043 21080 60001 333 10000 21140 70005
AAXX 17064 71402 46/// /2525 10026 20017 39773 49885 53023 6///1 333 10062 21016 7//// 555 32637 40063
AAXX 17064 71423 16/// /3020 11063 21095 30042 40051 53046 60001 333 10040 21063 70066 555 31840 40073
AAXX 17064 71434 16/// /2408 11230 21261 30110 40180 58009 60001 333 11215 70000 555 32719 40191
AAXX 17064 71448 16/// /1705 11100 21117 39849 40190 57047 60001 333 11099 21181 70000
AAXX 17064 71362 16/// /2903 11132 21149 39876 40138 50006 60001 333 11099 21149 70000
AAXX 17064 71363 16/// /3217 11305 21338 39998 40055 57009 60001 333 11265 21308 70000 555 33128 40102
AAXX 17064 71365 16/// /1802 11257 21281 39888 40110 58014 60001 333 11165 21260 70000
AAXX 17064 71374 46/// /3127 11060 21090 6///1 333 10033 21061 7////
AAXX 17064 71387 16/// /3108 11125 21160 39779 40169 55003 60001 333 10037 21125 70000 555 33425 40171
AAXX 17064 61972 16/// /1709 10287 20229 40116 60004 333 20264 55/// 59003 90710 91117 555 60005
AAXX 17061 03976 11570 53108 10060 20023 30114 40126 53016 69942 72581 85900 333 20047 31003 55003 83920 81820 83640 96487 90710 91119
AAXX 17064 71186 46/// /3014 11091 21151 6///1 333 10033 21095 7//// 555 32944 40173
AAXX 17064 71190 46/// /3208 11072 21141 6///1 333 10053 21072 7//// 555 33041 40203
AAXX 17064 71269 16/// /2413 11036 21054 60001 333 11019 21125 70000 555 32519 40181
AAXX 17064 71285 46/// /1102 11084 21096 6///1 333 11003 21174 7////
AAXX 17064 71299 16/// /2504 11218 21236 39971 40267 58003 60001 333 11125 21236 70000 555 33322 40071
AAXX 17064 71421 16/// ///// 11186 21214 39353 40079 51025 60001 333 10000 21190 7////
AAXX 17064 71903 47/// /1207 10061 20058 30048 40097 58004 6///1 7//4/ 333 7////
AAXX 17064 71503 46/// /0000 11235 21261 39835 40116 56010 6///1 333 11184 21235 7////
AAXX 17064 71506 46/// /0901 11233 21252 39138 40053 56008 6///1 333 11215 21241 7////
AAXX 17064 71514 16/// /2708 11097 21120 39495 40211 55000 60001 333 11030 21133 70000 555 32617 40031
AAXX 17064 71539 16/// /2810 11055 21086 39508 40220 51010 60001 333 11021 21157 70000 555 32624 40031
AAXX 17064 71976 46/// /2415 11250 21277 39287 49930 53001 6///1 333 11215 21257 7//// 555 32223 40201
AAXX 17064 71667 17/// /2403 11223 21248 30026 40287 56012 69931 7//4/ 333 11116 21227 70003 555 33017 40071
AAXX 17064 71682 16/// /0402 11231 21248 39867 40106 58020 60001 333 11134 21263 70000
AAXX 17064 71104 11574 61507 10005 21005 39087 40209 57014 60021 70172 85570 333 10005 21042 47038 70164 90943 93101 555 10164 20164
AAXX 17064 71421 16/// ///// 11186 21214 39353 40079 51025 60001 333 10000 21190 7////
AAXX 17063 64800 NIL
AAXX 17063 64820 NIL
AAXX 17063 64860 31930 70000 10156 20089 39858 40131 70522 80002 333 00300 20153 50680 55100 59005 87080
AAXX 17063 64861 NIL
AAXX 17063 64870 31958 70000 10096 20059 38917 48507 70522 80002 333 01000 20096 50611 55113 59006 87080
AAXX 17063 64871 NIL
AAXX 17063 64892 NIL
AAXX 17063 64893 NIL
AAXX 17063 64894 NIL
AAXX 17064 64910 31420 60000 10255 20243 30102 40111 71799 86900 333 02100 20256 50451 55059 86616 81920 94994 95895
AAXX 17064 64911 NIL
AAXX 17064 64950 NIL
AAXX 17064 71186 46/// /3014 11091 21151 6///1 333 10033 21095 7//// 555 32944 40173
AAXX 17064 71190 46/// /3208 11072 21141 6///1 333 10053 21072 7//// 555 33041 40203
AAXX 17064 71503 46/// /0000 11235 21261 39835 40116 56010 6///1 333 11184 21235 7////
AAXX 17064 71506 46/// /0901 11233 21252 39138 40053 56008 6///1 333 11215 21241 7////
AAXX 17064 71514 16/// /2708 11097 21120 39495 40211 55000 60001 333 11030 21133 70000 555 32617 40031
AAXX 17064 71539 16/// /2810 11055 21086 39508 40220 51010 60001 333 11021 21157 70000 555 32624 40031
AAXX 17064 71667 17/// /2403 11223 21248 30026 40287 56012 69931 7//4/ 333 11116 21227 70003 555 33017 40071
AAXX 17064 71682 16/// /0402 11231 21248 39867 40106 58020 60001 333 11134 21263 70000
AAXX 17064 71976 46/// /2415 11250 21277 39287 49930 53001 6///1 333 11215 21257 7//// 555 32223 40201
AAXX 17064 71269 16/// /2413 11036 21054 60001 333 11019 21125 70000 555 32519 40181
AAXX 17064 71285 46/// /1102 11084 21096 6///1 333 11003 21174 7////
AAXX 17064 71299 16/// /2504 11218 21236 39971 40267 58003 60001 333 11125 21236 70000 555 33322 40071
AAXX 17064 71104 11574 61507 10005 21005 39087 40209 57014 60021 70172 85570 333 10005 21042 47038 70164 90943 93101 555 10164 20164
AAXX 17064 71903 47/// /1207 10061 20058 30048 40097 58004 6///1 7//4/ 333 7////
AAXX 17061 28216 32899 81602 11072 21097 30050 40346 52008 8802/ 333 21081
AAXX 17061 28428 32997 81802 11106 21122 30192 40390 52005 80001 333 21096
AAXX 17061 28451 12998 61802 11123 21138 30237 40408 52003 69900 86030 333 21167
AAXX 17061 28541 12582 72301 11063 21075 39887 40402 52005 69920 87500 333 21090
AAXX 17061 28655 11998 21802 11217 21239 30190 40439 52004 69900 70271 82010 333 21252
AAXX 17061 28756 32998 01501 11262 21291 30287 40456 52003 333 21303
AAXX 17061 29557 42998 50000 11213 21231 30180 40475 58003 83031
AAXX 17061 29625 41998 00402 11217 21242 30257 40456 52002 70281
AAXX 17061 29813 42999 00702 11228 21253 30228 40428 52006
AAXX 17061 29822 41997 02701 11271 21302 30263 40449 54000 71000
AAXX 17061 29915 41998 80903 11247 21271 30245 40422 52007 70272 8802/
AAXX 17061 36020 42998 30603 11238 21256 30206 40430 52003 80002
AAXX 17064 41244 36/// /3506 10191 20140 39845 48332 333 0E015 20126 59000
AAXX 17061 23226 11460 81907 11022 21040 39982 40201 58003 69930 70272 885// 333 21082 88611
AAXX 17061 23701 11482 82103 10003 21014 30041 40172 54000 60020 70272 8802/ 333 21004 88514
AAXX 17061 28909 32997 01502 11150 21170 30276 40385 53004 333 21158
AAXX 17064 60595 36/// /0000 11451 333 21451
AAXX 17064 60381 36/// /2603 10152 20090 333 20146
AAXX 17064 60639 36/// /0000 10034 21018 333 20034
AAXX 17061 37661 42998 02401 11001 21022 39434 40213 57007
AAXX 17061 37675 NIL
AAXX 17061 37729 42997 02704 11019 21028 38550 57006 333 21065
AAXX 17061 37735 NIL
AAXX 17061 37740 42999 20801 10001 21020 39378 40204 57006 82030
AAXX 17061 37749 42/92 91401 10029 20027 30125 40244 53003 74542
AAXX 17061 37832 32998 00000 10013 21013 40205 53007 333 21004
AAXX 17061 37851 42597 40000 10053 20029 30137 40210 53003 84500 555 20051
AAXX 17061 37864 31597 71903 10063 20041 40202 52002 71022 87500 333 87620 555 30///
AAXX 17061 37905 42997 02501 11004 21006 40215 57010
AAXX 17061 37923 42996 00000 10020 20007 40185 56005 71040 333 20026
AAXX 17061 37925 42998 82702 10036 20007 30242 40212 57007 8807/ 333 20039
AAXX 17061 37985 41496 82301 10056 20029 30234 40219 53004 71022 85540
AAXX 17061 37989 42999 62601 10048 20021 40220 57005 86030
AAXX 17061 15613 11/00 92020 11040 21049 37522 47858 57015 60002 74944 333 11040 21063 48025 55000 70000 91124 555 596//
BBXX DBBH 17061 99367 70115 41498 83608 10164 20136 40295 57005 70262 878// 22200 04179
BBXX 41053 17061 99185 70661 46/// /0607 10257 40146 90550 333 91209
BBXX 41053 17061 99185 70661 46/// /0508 10257 40147 90540 333 91210
AAXX 17064 48304 32565 60000 10245 20169 39692 40152 57030 83545 333 59002 70000
AAXX 17061 56146 32780 22901 10064 21143 36697 57030 81102 333 00102 21089
AAXX 17061 56444 32780 22703 10050 21107 36803 57021 82100 333 00003 21066
AAXX 17061 56492 11740 80201 10080 20060 39847 40264 57030 69941 76066 885// 333 05300 20073
AAXX 17061 56571 32670 10000 10157 20022 38383 57047 81100 333 05610 20035
AAXX 17061 57799 32980 03203 10097 21020 30207 40299 57039 333 20015
AAXX 17061 57866 32975 00203 10101 21029 30076 40289 57042 333 20042
AAXX 17061 57957 31958 73603 10139 21021 30062 40264 57049 70500 8703/ 333 20067
AAXX 17061 57993 32970 01801 10121 21021 30104 40275 57046 333 20033
AAXX 17061 58027 32965 50000 10037 21123 30279 40333 57042 80002 333 21070
AAXX 17061 58141 31959 60902 10034 21110 30321 40341 57040 70500 80002 333 21070
AAXX 17061 58265 32564 73404 10039 21036 30343 40351 57026 87500 333 21020
AAXX 17061 58472 32980 03608 10051 21014 30232 40331 57025 333 20017
AAXX 17061 58477 32470 33404 10060 21026 30281 40328 57025 83100 333 20013
AAXX 17061 58527 32962 03601 10099 21078 30233 40312 57038 333 21002
AAXX 17061 58633 32964 00705 10071 21102 30220 40325 57036 333 21015
AAXX 17061 58666 32562 13612 10069 20016 30205 40311 57027 81100 333 20024
AAXX 17061 58725 32965 10201 10131 21045 30014 40285 57038 81040 333 21011
AAXX 17061 58921 32962 03601 10137 20004 30013 40267 57042 333 20033
AAXX 17061 59082 32968 03603 10142 21040 30106 40256 57047 333 20063
AAXX 17061 59211 32961 73201 10159 20030 30024 40235 57052 8703/ 333 20092
AAXX 17061 59265 31856 70402 10162 20019 30100 40240 57047 70500 87540 333 20099
AAXX 17061 59293 32965 00402 10151 20002 30155 40242 57041 333 20087
AAXX 17061 59501 31958 00402 10183 20062 30208 40229 57034 70500 333 20127
AAXX 17061 59663 32961 00706 10168 20013 30120 40229 57033 333 20128
AAXX 17061 59838 32962 70407 10219 20135 30180 40190 57029 8704/ 333 20175
AAXX 17061 59948 32480 70710 10196 20142 39704 40193 57022 83102 333 20155 91118 91504
AAXX 17061 59981 32578 70707 10247 20189 30148 40155 57030 878// 333 20224
AAXX 17061 48921 31320 81401 10150 20113 38590 48089 57015 71044 886// 333 59011
AAXX 17061 48924 31556 71802 10222 20161 39534 40161 57025 71044 85260 333 59010
AAXX 17061 48925 31456 70202 10215 20127 39425 40154 57022 70544 83810 333 59009
AAXX 17061 48926 31558 60903 10246 20157 39698 40164 57025 70544 85201 333 58004
AAXX 17061 48927 31210 80702 10108 20097 39203 48654 57028 75054 878// 333 58000
AAXX 17061 48928 31420 80902 10112 20097 39113 48573 57028 71044 888// 333 59012
AAXX 17061 48930 31459 30403 10255 20152 39824 40171 57025 70544 82800 333 59012
AAXX 17061 48935 32466 20404 10155 20098 38997 48489 57029 81101 333 59005
AAXX 17061 48938 31557 50402 10242 20149 39843 40179 57021 70544 85800 333 58017
AAXX 17061 48940 31658 21802 10259 20154 39955 40154 57039 70544 82500 333 58008
AAXX 17061 48941 32467 22204 10263 20163 3//// 4//// 5//// 82100 333 5////
AAXX 17061 48944 31558 10601 10184 20111 39526 40122 57002 70544 81500 333 59004
AAXX 17061 48945 31656 20903 10258 20119 39992 40171 57031 70544 82501 333 58014
AAXX 17061 48946 31559 20604 10263 20193 39991 40157 57022 70544 82100 333 58002
AAXX 17061 48947 32460 60405 10264 20162 30024 40190 57008 82230 333 58008
AAXX 17061 48948 32465 40906 10250 20138 39953 40163 57020 84100 333 58002
AAXX 17061 48952 NIL
AAXX 17061 48953 NIL
AAXX 17061 48955 32570 23606 10303 20152 30005 40121 57022 81102 333 59003
AAXX 17061 48957 31568 40203 10320 20171 39990 40095 57023 70544 83802 333 58000
AAXX 17061 01003 11670 80509 10007 21035 39930 49942 52004 69901 77072 8552/ 333 41998 91120
AAXX 17064 65501 32960 70000 10150 21069 39825 40144 80002 333 00900 20139 50854 55103 59007 87076
AAXX 17064 65502 32960 70402 10157 21065 39749 40133 80002 333 01300 20157 51164 55095 59005 87076
AAXX 17064 65503 32960 50000 10157 20032 39783 40131 80002 333 01200 20154 50790 55102 51727 59004 87076
AAXX 17064 65505 32960 70404 10160 20034 39790 40130 80002 333 01100 20155 50924 55099 59001 87076
AAXX 17064 65507 32960 70402 10162 21023 39775 40127 80002 333 01100 20162 50814 55095 59004 87076
AAXX 17064 65510 32960 60206 10183 21020 39607 40121 80002 333 01500 20181 50950 55097 59005 86076
AAXX 17064 65516 32960 60000 10160 20000 39817 40125 80002 333 01300 20153 50714 55092 59003 86076
AAXX 17064 65518 32965 73604 10170 21027 39749 40114 80002 333 01000 20150 50834 55102 59007 87076
AAXX 17064 65522 32965 70000 10145 20052 39791 40122 80002 333 01200 20147 50854 55101 59004 87076
AAXX 17064 60191 32970 01002 10017 20009 40319 5//// 333 20012 30101
AAXX 17064 61401 NIL
AAXX 17064 61404 NIL
AAXX 17064 61415 NIL
AAXX 17064 61421 NIL
AAXX 17064 61437 NIL
AAXX 17064 61442 32957 50607 10177 21062 30157 40161 85080 333 01700 20177 50824 55045 58001 85363
AAXX 17064 61450 NIL
AAXX 17064 61461 NIL
AAXX 17064 61489 NIL
AAXX 17064 61492 NIL
AAXX 17064 61497 NIL
AAXX 17064 61498 31956 40404 10198 20066 30006 40138 705// 80001 333 0//00 20198 5//// 55/// 58000 84073
AAXX 17064 61499 32960 50406 10187 21070 39890 40146 85072 333 0//00 51104 55/// 59007 85363 85073
AAXX 17061 50353 32970 03601 11132 21226 39957 40193 54000 333 21198
AAXX 17061 50557 32970 02904 11125 21208 39904 40227 57001 333 21232
AAXX 17061 50756 32960 02503 11144 21205 39926 40247 54000 333 21215
AAXX 17061 50949 32965 02703 11080 21208 30093 40276 57003 333 21180
AAXX 17061 50963 32760 52507 11124 21173 30093 40242 54000 82502 333 21231
AAXX 17061 50978 32975 12505 11109 21210 39842 40215 57006 80002 333 21191
AAXX 17061 51087 32980 21801 11141 21180 39374 40438 57008 80002 333 05154 21240
AAXX 17061 51156 32980 21402 11098 21176 38793 40398 57007 80002 333 05251 21161
AAXX 17061 51644 11960 70000 11031 21074 39031 40348 57007 69911 72270 82032 333 05101 21080
AAXX 17061 51656 32770 71602 11028 21085 39206 40359 57010 85502 333 00052 21108
AAXX 17061 51886 32780 70901 11058 21241 37121 57014 81102 333 00004 21156
AAXX 17061 52602 32980 11403 11070 21262 37282 57011 80002 333 00152 21174
AAXX 17061 52713 11680 70701 11078 21121 36919 57010 69911 72270 83502 333 00251 21145
AAXX 17061 52754 11980 81602 11083 21137 36790 57012 69901 70070 8802/ 333 00152 21153
AAXX 17061 52818 32980 20902 11006 21248 37254 57013 80002 333 00107 21128
AAXX 17061 52836 32980 72002 11043 21223 36908 57014 80002 333 00352 21139
AAXX 17061 52955 32580 33402 11034 21193 36973 57015 81102 333 00200 21154
AAXX 17061 53068 32980 03203 11160 21222 39182 40449 57011 333 00151 21270
AAXX 17061 53276 32980 02904 11126 21192 38957 40414 57010 333 21183
AAXX 17061 54135 32980 02904 11066 21217 30070 40309 57006 333 21159
AAXX 17061 54236 32980 03203 11037 21229 30194 40307 57007 333 21172
AAXX 17061 54539 32970 02903 10017 21183 30299 40314 57028 333 21101
AAXX 17061 54662 32970 03205 10007 21123 30187 40307 57019 333 21068
AAXX 17061 54753 32970 02506 10006 21114 30326 40333 57026 333 21029
AAXX 17061 54857 32962 23602 11002 21145 30245 40343 57028 80001 333 21048
AAXX 17061 57067 32960 30901 10072 21055 39603 40305 57041 83030 333 21055
AAXX 17061 57178 32965 21401 10055 21103 30159 40324 57045 80001 333 21019
AAXX 17061 57245 32963 70701 10073 21035 39941 40302 57043 87030 333 05252 20017
AAXX 17061 57297 32962 01102 10062 21105 30180 40327 57038 333 21041
AAXX 17061 22271 32598 71807 10001 21020 30051 40061 54000 86530 333 20003
AAXX 17061 40700 11950 02504 10000 21030 30113 40205 51002 60001 71000 333 30105 70000
AAXX 17061 40723 11958 70000 10006 21052 38922 40236 51006 60001 70522 80006 333 31106 5///1 70000 87267
AAXX 17061 40726 11605 80000 11014 21016 38673 40243 52008 60001 74644 8352/ 333 3/102 41002 70004 83635 88458
AAXX 17061 40727 11/01 90000 11038 21043 38498 40266 52008 60001 74541 333 34107 70000 89/01
AAXX 17061 40734 12570 10000 10090 20064 30232 40206 51002 60001 81100 333 30101 50130 70000 81825
AAXX 17061 40737 12960 10000 10082 20055 30191 40209 58001 60001 81030 333 30000 50111 70000 81360
AAXX 17061 40741 11540 80000 10024 20011 39894 40242 54000 60001 71022 886// 333 30101 70000 88730
AAXX 17061 40780 12960 11202 10056 21054 38710 40213 52006 60001 80001 333 30101 5//// 70000 81070
AAXX 17061 40791 12660 13402 10082 21068 39371 40208 51012 60001 81170 333 30002 50261 70000
AAXX 17061 40792 12670 52402 10054 21058 38734 40215 52024 60001 82532 333 30000 70000 82635 84070
AAXX 17061 40794 12960 00000 10120 20055 30099 40199 52011 60001 333 30002 50071 70000
AAXX 17061 40812 12960 03002 10112 20013 39804 40184 52012 60001 333 30004 50231 70000
AAXX 17061 40829 12960 00000 10068 21124 39625 40213 53005 60001 333 30105 5//// 70000
AAXX 17061 40833 12960 00000 10150 20058 30164 40196 52012 60001 333 30007 50201 70000
AAXX 17061 40835 12965 40000 10158 20042 39358 40188 51010 60001 80002 333 30005 50321 70000 82070
AAXX 17061 40845 11558 21002 10196 20166 30179 40184 52015 60003 81202 333 30016 50181 70000 81825
AAXX 17061 40882 11956 20000 10230 20146 30142 40177 51010 60001 70500 80002 333 30013 50601 70000 82068
AAXX 17061 40889 12660 12202 10238 20147 30178 40183 51015 60003 81100 222// 00252 20500 333 30014 50301 70000 81835
AAXX 17061 40890 11558 20000 10246 20129 30168 40176 51019 60003 70500 81501 222// 000240 20000 333 30015 50560 70000 81630
AAXX 17061 40893 12960 20202 10236 20099 30173 40179 52021 60001 80002 222// 00220 20501 333 30017 50371 70000 82069
AAXX 17061 40897 15960 20703 10220 21005 30172 40187 51019 60001 80001 333 30008 70000 82067
AAXX 17061 40700 11950 02504 10000 21030 30113 40205 51002 60001 71000 333 30105 70000
AAXX 17061 40723 11958 70000 10006 21052 38922 40236 51006 60001 70522 80006 333 31106 5///1 70000 87267
AAXX 17061 40726 11605 80000 11014 21016 38673 40243 52008 60001 74644 8352/ 333 3/102 41002 70004 83635 88458
AAXX 17061 40727 11/01 90000 11038 21043 38498 40266 52008 60001 74541 333 34107 70000 89/01
AAXX 17061 40734 12570 10000 10090 20064 30232 40206 51002 60001 81100 333 30101 50130 70000 81825
AAXX 17061 40737 12960 10000 10082 20055 30191 40209 58001 60001 81030 333 30000 50111 70000 81360
AAXX 17061 40741 11540 80000 10024 20011 39894 40242 54000 60001 71022 886// 333 30101 70000 88730
AAXX 17061 40780 12960 11202 10056 21054 38710 40213 52006 60001 80001 333 30101 5//// 70000 81070
AAXX 17061 40791 12660 13402 10082 21068 39371 40208 51012 60001 81170 333 30002 50261 70000
AAXX 17061 40792 12670 52402 10054 21058 38734 40215 52024 60001 82532 333 30000 70000 82635 84070
AAXX 17061 40794 12960 00000 10120 20055 30099 40199 52011 60001 333 30002 50071 70000
AAXX 17061 40812 12960 03002 10112 20013 39804 40184 52012 60001 333 30004 50231 70000
AAXX 17061 40829 12960 00000 10068 21124 39625 40213 53005 60001 333 30105 5//// 70000
AAXX 17061 40833 12960 00000 10150 20058 30164 40196 52012 60001 333 30007 50201 70000
AAXX 17061 40835 12965 40000 10158 20042 39358 40188 51010 60001 80002 333 30005 50321 70000 82070
AAXX 17061 40845 11558 21002 10196 20166 30179 40184 52015 60003 81202 333 30016 50181 70000 81825
AAXX 17061 40882 11956 20000 10230 20146 30142 40177 51010 60001 70500 80002 333 30013 50601 70000 82068
AAXX 17061 40889 12660 12202 10238 20147 30178 40183 51015 60003 81100 222// 00252 20500 333 30014 50301 70000 81835
AAXX 17061 40890 11558 20000 10246 20129 30168 40176 51019 60003 70500 81501 222// 000240 20000 333 30015 50560 70000 81630
AAXX 17061 40893 12960 20202 10236 20099 30173 40179 52021 60001 80002 222// 00220 20501 333 30017 50371 70000 82069
AAXX 17061 40897 15960 20703 10220 21005 30172 40187 51019 60001 80001 333 30008 70000 82067
AAXX 17061 40700 11950 02504 10000 21030 30113 40205 51002 60001 71000 333 30105 70000
AAXX 17061 40723 11958 70000 10006 21052 38922 40236 51006 60001 70522 80006 333 31106 5///1 70000 87267
AAXX 17061 40726 11605 80000 11014 21016 38673 40243 52008 60001 74644 8352/ 333 3/102 41002 70004 83635 88458
AAXX 17061 40727 11/01 90000 11038 21043 38498 40266 52008 60001 74541 333 34107 70000 89/01
AAXX 17061 40734 12570 10000 10090 20064 30232 40206 51002 60001 81100 333 30101 50130 70000 81825
AAXX 17061 40737 12960 10000 10082 20055 30191 40209 58001 60001 81030 333 30000 50111 70000 81360
AAXX 17061 40741 11540 80000 10024 20011 39894 40242 54000 60001 71022 886// 333 30101 70000 88730
AAXX 17061 40780 12960 11202 10056 21054 38710 40213 52006 60001 80001 333 30101 5//// 70000 81070
AAXX 17061 40791 12660 13402 10082 21068 39371 40208 51012 60001 81170 333 30002 50261 70000
AAXX 17061 40792 12670 52402 10054 21058 38734 40215 52024 60001 82532 333 30000 70000 82635 84070
AAXX 17061 40794 12960 00000 10120 20055 30099 40199 52011 60001 333 30002 50071 70000
AAXX 17061 40812 12960 03002 10112 20013 39804 40184 52012 60001 333 30004 50231 70000
AAXX 17061 40829 12960 00000 10068 21124 39625 40213 53005 60001 333 30105 5//// 70000
AAXX 17061 40833 12960 00000 10150 20058 30164 40196 52012 60001 333 30007 50201 70000
AAXX 17061 40835 12965 40000 10158 20042 39358 40188 51010 60001 80002 333 30005 50321 70000 82070
AAXX 17061 40845 11558 21002 10196 20166 30179 40184 52015 60003 81202 333 30016 50181 70000 81825
AAXX 17061 40882 11956 20000 10230 20146 30142 40177 51010 60001 70500 80002 333 30013 50601 70000 82068
AAXX 17061 40889 12660 12202 10238 20147 30178 40183 51015 60003 81100 222// 00252 20500 333 30014 50301 70000 81835
AAXX 17061 40890 11558 20000 10246 20129 30168 40176 51019 60003 70500 81501 222// 000240 20000 333 30015 50560 70000 81630
AAXX 17061 40893 12960 20202 10236 20099 30173 40179 52021 60001 80002 222// 00220 20501 333 30017 50371 70000 82069
AAXX 17061 40897 15960 20703 10220 21005 30172 40187 51019 60001 80001 333 30008 70000 82067
AAXX 17064 17202 11414 81106 11011 21013 39181 40240 50017 69922 77022 8652/ 333 21014 3/102 44002 70002 84715 86630 88458 931// 96010
AAXX 17061 34123 32463 81408 10014 20000 39970 40155 54000 886// 333 20002 88716
AAXX 17061 89062 46/// /2821 11009 21088 39864 49905 52066 333 55003
AAXX 17061 91945 36/// /0000 10241 20204 30133 40138 51014 555 59023
AAXX 17064 40582 31540 43504 10148 20085 40202 51021 70611 84700 333 55300 00254 10000 20609 30180 41192 51359 60790 55407 40429 84720 90400 91005 91107 91205 91303
AAXX 17064 41150 NIL
AAXX 17064 41168 NIL
AAXX 17064 41170 41956 02104 10181 20109 30186 40199 70400 333 20136 58007 555 00096
AAXX 17064 41176 NIL
AAXX 17064 41184 NIL
AAXX 17064 41194 NIL
AAXX 17064 41196 NIL
AAXX 17064 41198 NIL
AAXX 17064 41210 NIL
AAXX 17064 41216 NIL
AAXX 17064 41217 NIL
AAXX 17064 41218 NIL
AAXX 17064 41226 NIL
AAXX 17064 41244 36/// /3506 10191 20140 39845 48332 333 0E015 20126 59000
AAXX 17064 41246 32560 33406 10238 20167 30181 40185 81530 333 20182 3/019 59005 81625 83360
AAXX 17064 41254 36/// /9902 10181 21132 38255 48260 333 0E003 20079 59025
AAXX 17064 41256 32460 10602 10247 20167 30179 40189 81500 333 20155 59003 81625
AAXX 17064 41258 36/// /0201 10250 20153 30178 40183 333 0E/// 20211 59002
AAXX 17064 41268 32960 02203 10241 20148 30170 40186 333 20170 3/019 59003
AAXX 17064 41312 36/// /0603 10262 20148 30127 40166 333 0E/// 20196 59007
AAXX 17064 41314 32960 00808 10206 20131 39682 40187 333 20125 59008
AAXX 17064 41316 32560 19902 10267 20120 30140 40167 81500 333 20189 59008 81625
AAXX 17064 41404 42960 00000 10155 21038 37887 48539 333 20040 30002 59001
AAXX 17064 41407 42970 00805 10206 21113 38952 48511 333 20102 30/// 59006
AAXX 17064 41431 41958 01806 10254 20211 30131 40144 70544 333 20208 30/// 59///
AAXX 17064 41466 42560 11204 10184 20111 38572 48475 81600 333 20110 30/// 59009 81715
AAXX 17064 41477 42960 01710 10254 20174 333 20230 30///
AAXX 17064 41480 42560 30811 10267 20190 30155 40158 83500 333 20236 30/// 59012 83620
BBXX DDZA2 17064 99491 70090 41/97 53240 10080 20049 40175 57025 76088 8//// 22214 04120 2//// 80065
BBXX 63110 17063 99595 10015 41/98 /3340 10074 49922 700// 8//// 22200 10607 70035
BBXX 64045 17064 99591 70117 46/// /3517 10039 20011 40092 52030 22200 00102 10809 70043 333 90710 91128
BBXX 62105 17064 99554 70122 46/// /3323 10070 20016 40136 52027 22200 00104 10810 70050 333 90710 91133
BBXX 62081 17064 99510 70134 46/// ///// 10090 20029 40212 52010 22200 00121 10910 70050
BBXX 62442 17064 99490 70164 46/// /3116 1//// 2//// 40266 52005 22200 00128 333 90710 91130
BBXX 62029 17064 99487 70125 46/// /3224 10091 20044 40234 52002 22200 00131 10911 70057 333 90710 91132
BBXX 62163 17064 99475 70084 46/// /3123 10093 20044 40214 51005 22200 00129 10912 70062 333 90710 91130
BBXX 62001 17064 99452 70050 46/// /3319 10115 20065 40204 53010 22200 00143 10913 70067 333 90710 91135
BBXX 64046 17064 99605 70049 46/// /3422 10041 21002 40012 52024 22200 00079 10708 70040
BBXX 62301 17064 99524 70047 46/// /3023 10071 20034 40094 53014 22200 00097 10605 70027 333 90710 91131
BBXX 62303 17064 99516 70051 46/// /3124 10080 20030 40110 52008 22200 00112 10706 70031 333 90710 91133
BBXX AMOUK08 17064 99501 70061 46/// ///// 10092 20032 30135 40136 52022 90550
BBXX AMOUK21 17064 99564 70055 46/// ///// 10040 20026 30040 40050 52008 90550
BBXX AMOUK27 17064 99582 70064 46/// ///// 11059 21195 30045 40046 52025 90550
BBXX AMOUK14 17064 99535 70031 46/// ///// 10064 20028 30011 40045 57011 90550
BBXX AMOUK05 17064 99523 10030 46/// ///// 10078 20018 39978 40015 52012 90550
BBXX AMOUK19 17064 99598 70012 46/// ///// 10048 2//// 39954 49958 52017 90550
BBXX AMOUK09 17064 99506 10009 46/// ///// 10058 20031 30057 40072 52040 90550
BBXX 62150 17064 99536 10007 47998 /2816 10047 20009 40046 52014 700// 22200 10604 70021
BBXX 62148 17064 99536 10015 46/// /3018 10059 20007 40035 52016 22200
BBXX 63056 17064 99597 10016 47597 /3133 10053 20012 49912 52012 700// 22200 10707 70037
BBXX 62111 17064 99580 70003 46/// /3523 10063 20010 49983 51010 22200 10606 70029
BBXX PJAI 17064 99581 70014 47596 /3216 10061 21006 49991 53015 762// 22200
BBXX 63110 17064 99595 10015 47598 /3329 10075 20016 49928 52014 700// 22200 10607 70034
BBXX 62112 17064 99584 70002 47598 /3324 10059 21001 49973 52015 700// 22200
BBXX 63055 17064 99606 10016 47994 /3127 10044 20031 49908 52018 704// 22200 10708 70038
BBXX 63108 17064 99608 10017 47296 /3430 10045 20007 49899 53013 762// 22200 10808 70038
BBXX 63106 17064 99610 10017 46/// /3428 10043 49903 53019 22200
BBXX 63105 17064 99610 10017 47498 ///// 10048 20005 49903 53020 751// 22200
BBXX 63113 17064 99610 10017 46/// /3530 10047 20000 49901 53013 22200 10707 70037
BBXX 63112 17064 99611 10010 47498 /3430 10041 21007 49911 52029 700// 22200 10809 70044
BBXX 63107 17064 99611 10017 46/// /3325 10040 49903 53022 22200
BBXX 63101 17064 99612 10009 46/// /3428 10039 20006 49919 52035 22200
BBXX 63103 17064 99612 10011 46/// /3334 10046 21004 49917 52032 22200 10709 70045
BBXX 63104 17064 99612 10016 47497 /3329 10057 20019 49906 52026 700// 22200
BBXX 63117 17064 99613 10011 47598 /3328 10051 21004 49914 52031 700// 22200
BBXX 63115 17064 99616 10013 47698 /3229 10047 21007 49924 52030 700// 22200 10809 70046
BBXX MWYG6 17064 99603 70040 47997 /3427 10049 700// 22200
BBXX 62121 17064 99535 10027 46/// ///// 22200
BBXX 64041 17064 99607 70026 47697 /3224 10032 20006 49982 52025 700// 22200 10910 70048
BBXX 62144 17064 99534 10017 47998 /2917 10058 20002 40035 52022 700// 22200 10504 70019
BBXX 62145 17064 99531 10028 47598 /3021 10072 21004 40031 52024 700// 22200 10604 70022
BBXX 62142 17064 99530 10021 47497 /3017 10064 20029 40029 53023 700// 22200 10504 70018
BBXX 62104 17064 99574 10013 47598 /3220 10065 20002 49969 52013 700// 22200
BBXX 62153 17064 99573 10020 47598 /3125 10069 20008 49962 52009 700// 22200 10607 70033
BBXX 62122 17064 99573 10016 47598 /3125 10068 21003 49963 52010 700// 22200 10706 70032
BBXX 62140 17064 99573 10013 46/// /33// 10059 21004 49967 52011 22200
BBXX 62146 17064 99572 10021 47/98 /3118 10069 21001 49968 52014 700// 22200 10606 70030
BBXX 62164 17064 99572 10008 47598 /3215 10072 21008 49980 52009 700// 22200 00097 10606 70030
BBXX PJGO 17064 99571 10022 47698 /3023 10072 21004 49963 52006 700// 22200
BBXX 62133 17064 99571 10009 46/// /3125 10080 21003 49978 52011 22200
BBXX 62119 17064 99570 10019 47598 /3123 10069 21001 49973 52012 700// 22200 10606 70028
BBXX 62152 17064 99570 10018 46/// /3120 10065 21002 49975 52013 22200 10606 70031
BBXX 62154 17064 99564 10022 46/// /3118 10067 20010 49971 52014 22200
BBXX 62120 17064 99564 10021 47598 /3025 10059 20015 49974 53007 700// 22200
BBXX 62132 17064 99564 10020 46/// /3214 10059 20008 49982 53017 22200
BBXX 62123 17064 99563 10022 47597 /3221 10056 20002 49976 52014 700// 22200
BBXX 62165 17064 99540 10009 47598 /2913 10060 20009 40034 52010 700// 22200 10604 70021
BBXX 62127 17064 99540 10007 47999 ///// 10056 20004 40030 52011 700// 22200 10604 70021
BBXX 62131 17064 99539 10012 46/// /31// 10062 20009 40026 52015 22200
BBXX 62149 17064 99537 10011 47998 /2915 10059 20010 40032 52016 751// 22200 10604 70020
BBXX 63057 17064 99592 10015 47598 /3232 10058 20011 49931 52014 700// 22200 10706 70032
BBXX 62128 17064 99587 10014 47598 /3328 10053 20009 49959 53017 700// 22200 10707 70035
BBXX 62129 17064 99584 10003 46/// ///// 10057 20012 49961 53013 22200
BBXX 62113 17064 99584 10002 47597 /3419 10060 20015 49963 52020 700// 22200
BBXX ZQSD5 17064 99583 10007 46/// /3223 10061 20010 49965 53009 22200 10807 70034
BBXX 62114 17064 99583 10000 46/// /3321 10056 20013 49976 52028 22200
BBXX 62134 17064 99580 10014 47598 /3323 10060 20011 49959 52012 700// 22200 10707 70033
BBXX 62102 17064 99579 10018 46/// /3124 10061 21005 49953 52009 22200 10706 70032
BBXX 62117 17064 99579 10000 47598 /3320 10064 20009 49975 53009 700// 22200 10605 70027
BBXX 62116 17064 99576 10011 47598 /3322 10068 20009 49965 52010 700// 22200 10706 70032
BBXX 62143 17064 99577 10018 47598 /3222 10062 20012 49968 52009 700// 22200 10606 70030
BBXX 62118 17064 99577 10009 47598 /3321 10064 20014 49963 51007 700// 22200 10706 70030
BBXX 62155 17064 99577 10007 47598 /3022 10058 20015 49975 52011 751// 22200 10706 70032
BBXX 9HA2950 17064 99496 70042 41498 63338 10084 20043 40108 50017 70262 862// 22253 00110 20405 328// 40607 5//// 80066
BBXX 62027 17064 99491 70022 46/// /3518 1//// 2//// 40116 52028 22200 00114 11306 327// 70029
BBXX 62103 17064 99499 70029 46/99 /3018 10086 20036 40112 52021 22200 00122 11106 70029
BBXX 2AAY7 17063 99584 70003 41297 83435 10066 20035 49977 52015 70252 887// 22200 20403 332// 40707 80053
BBXX 63118 17063 99591 10016 41697 63341 10061 20006 49911 53022 702// 8/4// 22200 10607 70036
BBXX 62170 17064 99514 10020 46/97 /3122 10058 20044 40050 53032 22200 00112 10704 70019 333 90710 91130
BBXX 62094 17064 99517 70067 46/// /2923 10076 20037 40130 52010 22200 00108 10807 70035
BBXX 62103 17064 99499 70029 46/99 /3118 10081 20027 40106 52024 22200 00123 11006 70032 333 90710 91129
BBXX 62304 17064 99511 10018 46/98 /3221 10049 20027 40061 51035 22200 00116 10604 70018 333 90710 91128
BBXX 62081 17064 99510 70134 46/// ///// 10090 2//// 40212 52010 22200 00121 10910 70050
BBXX 62105 17064 99554 70122 46/// /3323 10070 20016 40136 52027 22200 00103 10810 70050
BBXX 62305 17064 99504 10000 46/98 /3317 10057 20026 40093 52032 22200 00119 10703 70014 333 90710 91126
BBXX JGQH 17064 99308 11318 41/97 53412 10094 20003 40256 56021 70222 85100 22223 00215 1//03 20302 303// 40702 70014
BBXX JGQH 17064 99308 11318 41/97 53412 10094 20003 40256 56021 70222 85100 22223 00215 1//03 20302 303// 40702 70014
BBXX JPBN 17064 99349 11402 41/98 10106 10094 21060 40196 53010 70200 81100 22261 00182 10702 20301 302// 40802 70010
BBXX JPBN 17064 99349 11402 41/98 10106 10094 21060 40196 53010 70200 81100 22261 00182 10702 20301 302// 40802 70010
BBXX SHIP 17064 99052 11314 41498 51305 10288 20232 40060 57016 70211 82166 22213 00305 10603 20100 305// 40804
BBXX 42362 17061 99278 70907 46/// /3602 10222 20194 40241 51004 90600
BBXX 42362 17061 99278 70907 46/// /3502 10222 20194 40241 90615
BBXX 42363 17061 99282 70892 46/// /0902 10217 20178 40241 90630 333 91203
BBXX 42364 17061 99291 70881 46/// /0000 10211 20178 40237 90615
BBXX 44034 17061 99441 70681 46/30 /3408 10022 40152 55000 90604 22200 00087 333 91209 555 11094 22098
AAXX 17061 28465 32999 01802 11263 21280 30364 40452 52007 333 21293
AAXX 17061 38388 32998 60702 11054 21079 30217 40291 53006 86030 333 21070
AAXX 17061 38392 32998 70903 11032 21091 30199 40307 50000 87030 333 21074
AAXX 17061 38507 32998 31102 10033 21014 30124 40229 53004 80001 333 21004
AAXX 17061 38511 32698 70805 11032 21046 30116 40263 53006 87500 333 21033
AAXX 17061 38545 32998 20402 11030 21093 30100 40283 57005 82080 333 21068
AAXX 17061 38647 31495 80908 10005 21006 30182 40226 52004 71012 886// 333 21003
AAXX 17061 38656 32698 70703 11015 21045 30149 40263 57003 87500 333 21028
AAXX 17061 38687 31396 60000 11023 21032 30025 40271 57003 71022 86700 333 21044 86708
AAXX 17061 38750 32597 60902 10058 20044 30248 40219 53003 86500 333 20047
AAXX 17061 38763 31/93 90905 11002 21002 30131 40240 52002 74542 333 21010
AAXX 17061 38774 31/93 91402 10004 20004 30068 40269 52014 74544 333 21004
AAXX 17061 38799 31/93 90000 11024 21030 30027 40269 57005 74944 333 21040
AAXX 17061 38806 32697 80000 10000 21018 39993 40263 57006 885// 333 21024
AAXX 17061 38880 31394 80803 10007 21001 39988 40252 50003 75152 886// 333 20001 88708
AAXX 17061 38886 NIL
AAXX 17061 38895 31495 81003 10018 21004 39961 40260 58003 71022 887// 333 21006
AAXX 17061 38911 31596 83203 11002 21017 39955 40260 54000 71042 885// 333 21017
AAXX 17061 38915 32997 83202 10012 21011 39925 40259 58003 8807/ 333 21030
AAXX 17061 38974 32998 80701 10029 21004 39890 40231 58006 8807/ 333 21013
AAXX 17061 38987 32496 82401 11007 21013 39480 40248 57001 886// 333 21015
AAXX 17061 22165 32598 81310 10010 20002 39984 40045 52004 885// 333 20013 91113
AAXX 17061 22282 125// 82706 10004 21005 30069 40077 52001 69900 885// 333 20004
AAXX 17061 28383 32972 00000 11271 21288 30373 40470 52011 333 21285
AAXX 17061 10015 01475 63112 10051 20019 39914 49924 51020 60022 72781 86900 222// 02068 333 10067 20040 32002 55000 55300 20000 30000 69987 70017 84813 82925 91121 91216 96287 96488
AAXX 17061 29998 42999 01501 11282 21313 38750 48580 58018
AAXX 17061 30385 41998 80000 11200 21212 39659 40227 52001 77172 8802/
AAXX 17061 30469 42999 22701 11193 21226 39456 40263 56006 82042
AAXX 17061 30636 41997 80701 11218 21224 39726 40389 57012 77177 8802/
AAXX 17061 30650 42999 62306 11143 21170 39147 40318 57015 83041
AAXX 17061 30664 41999 52302 11083 21165 39226 40234 57005 70331 82041
AAXX 17061 30781 42599 70000 11202 21243 39753 40257 57020 83906
AAXX 17061 30777 42998 60000 11153 21187 39578 40264 57025 82072
AAXX 17061 30844 42599 52906 11146 21181 39373 40409 58009 85800 333 85631
AAXX 17061 30925 42999 01503 11177 21227 39410 40458 58009
AAXX 17061 31371 42999 03202 11138 21209 39912 40188 54000
AAXX 17061 31388 42999 00901 11216 21256 39904 40187 53002
AAXX 17061 31478 NIL
AAXX 17061 31532 41999 20000 11284 21315 39831 40210 57005 70271 82030
AAXX 17061 31594 41996 82902 11148 21175 30000 40180 53001 77172 82037
AAXX 17061 31655 42998 62002 11168 21218 30102 40152 57004 83052
AAXX 17061 31754 41998 81503 11186 21219 39638 40181 58006 78172 80007
AAXX 17061 28791 12999 00403 11276 21293 30285 40451 52017 69930 333 21278
AAXX 17061 28696 11980 00404 11302 21325 30298 40460 52018 69900 70270 333 21315
AAXX 17061 28586 11998 00901 11261 21285 30293 40462 52017 69900 70270 333 21291
AAXX 17061 23803 32599 81904 11022 21034 30061 40245 53005 889// 333 21046 88928
AAXX 17061 37514 32699 80000 11063 21081 39039 40232 58005 88500 333 21077
AAXX 17061 23929 32677 81903 11129 21149 30284 40356 57002 885// 333 21217
AAXX 17061 22695 11396 81705 10007 20004 39976 40129 57009 60020 76176 8772/ 333 20000 87707
AAXX 17061 28588 12982 00801 11265 21290 30276 40457 52023 69900 333 21285
AAXX 17061 28688 32998 00501 11253 21277 30273 40453 52018 333 21279
AAXX 17063 64453 32460 63602 10210 20205 39/// 40/// 82560 333 01900 20190 50124 55032 5//// 82810 86363
AAXX 17063 64456 31405 70000 10230 20230 39/// 40/// 74244 875// 333 0//00 20215 50124 55016 5//// 87613
AAXX 17061 60373 36/// /2805 10134 20107 333 20128
AAXX 17061 60393 36/// /2102 10155 20090 333 20149
AAXX 17064 04048 42689 12901 11024 21090 40087 52004 81500 555 3/310
BBXX 46247 17061 99378 71228 46/// ///// 1//// 90551 22200 00123 11703 20803 329// 41702 70017
AAXX 17064 41287 36/// /0104 10231 20139 30142 40210 333 0E016 20141 59003
BBXX 46248 17061 99461 71247 46/// ///// 1//// 90604 22200 00095 11404 20902 330// 41403 70020
BBXX 46244 17061 99409 71244 46/// ///// 1//// 90605 22200 00098 11704 20803 330// 41704 70022
BBXX ZMFR 17064 99468 31670 43/// /18// 10108 20058 40160 57001 22221 00131
BBXX VRDX2 17063 99256 31567 41597 51422 10250 20183 40141 7//// 85923 22274 00230 20806
AAXX 17064 93800 16/// /0306 10222 20049 40081 52001 60001
AAXX 17064 93805 16/// /1519 10112 20058 40153 52002 60001
AAXX 17064 93994 16/// /1802 10206 20198 40082 57002 60311
BBXX SHIP 17064 99137 11293 41298 60716 10280 20253 40086 56027 76026 86762 22244 00291 20201 30809 40504 50403 80260
BBXX DGZS2 17063 99350 11290 41697 33317 11005 21032 40275 57/// 70200 8///5 22200 00150 20402 81015
BBXX SHIP 17064 99106 11271 41798 50912 10290 20250 40079 56017 70222 85443 22243 00285 20304 309// 40304 80260
BBXX 7JJA 17064 99334 11395 41697 63226 00 10140 20063 40195 57005 70222 86500 9//// 22213 00220 2//06 332 4//06 5 6//// 80100 ICE /////
BBXX ZMFR 17064 99468 31670 43/// /18// 10108 20058 40160 57001 22221 00131
BBXX VRDX2 17063 99256 31567 41597 51422 10250 20183 40141 7//// 85923 22274 00230 20806
BBXX 46237 17061 99378 71226 46/// ///// 1//// 90610 22200 00111 11703 20902 325// 41702 70015
BBXX SHIP 17064 99230 71650 41/96 /0622 10233 20207 40199 52016 78182 8//// 22200 04247
BBXX SHIP 17064 99310 71779 41998 22028 10220 20206 40148 50/// 70301 8//// 90550 22264 00220 2//// 3//// 4//// 5//// 80210
BBXX 46241 17061 99330 71173 46/// ///// 1//// 90541 22200 00139 10902 20901 327// 41201 70008
BBXX 46237 17061 99378 71226 46/// ///// 1//// 90541 22200 00112 11703 21002 324// 41702 70015
BBXX 46229 17061 99438 71246 46/// ///// 1//// 90551 22200 00103 11504 20802 329// 41504 70021
BBXX 46212 17061 99408 71243 46/// ///// 1//// 90612 22200 00099 11505 20803 330// 41504 70023
BBXX 46223 17061 99335 71178 46/// ///// 1//// 90600 22200 00153 11301 20901 326// 41301 70007
AAXX 17061 14216 11440 83402 10030 20019 39803 49955 53075 60342 76196 8472/ 333 20030 32001 70385 923// 924/6
AAXX 17061 14219 11/08 83601 11008 21013 38941 48266 52/// 60672 77597 8802/ 333 21011 3/000 43029 70865 93129
AAXX 17061 14232 11550 82003 10009 20004 39823 49959 52045 60272 77176 8272/ 333 20003 3/000 43002 70271 93102
AAXX 17061 14234 11465 81602 10010 20008 39699 49946 52036 60432 7687/ 8272/ 333 20004 32001 41998 70446
AAXX 17061 14236 11550 82202 10013 20006 39741 49939 52/// 60002 76367 8802/ 333 20013 32101 41997 93197
AAXX 17061 14244 11758 82704 10006 20004 39815 49946 52045 60202 7697/ 8802/ 333 20003 32000 42001 70197 93160
AAXX 17061 14248 11960 83202 10024 20010 39762 49935 52/// 60242 72372 8802/ 333 20006 31000 70241
AAXX 17061 14253 11610 83401 10002 21003 39749 49923 53023 60232 77377 8802/ 333 20002 3/100 43002 70232 93102
AAXX 17061 14256 11410 83203 11002 21004 39606 49925 52028 60172 77376 8772/ 333 21004 43009 70172 93109
AAXX 17061 14280 11460 83303 10022 20015 39789 49897 52039 60122 77362 8572/ 333 20017 32001 70122
AAXX 17061 14308 11762 83201 10034 20021 39596 49948 51062 60242 76166 8802/ 333 20026 32002 70305
AAXX 17061 14321 12675 73001 10063 20048 39915 49939 52/// 60122 83801 222// 00137 333 20063 32005 70121 92312 92428
AAXX 17061 14370 11460 80603 10038 20020 39790 49898 55042 60092 72166 886// 333 20030 32003 70085
AAXX 17061 14382 11550 83210 10031 20026 39775 49893 55034 60072 76162 8572/ 333 20031 32003 70066
AAXX 17061 14428 11470 53008 10116 20057 39928 49935 52025 60072 70286 85800 222// 00149 333 20110 31008 70070 92323
AAXX 17061 14441 11582 42306 10140 20055 39919 49942 52036 69902 70162 82801 222// 00174 333 20123 31011 79999 92334
AAXX 17061 14452 NIL
AAXX 17061 14454 11670 43205 10122 20069 39878 49937 53018 60112 70198 84800 333 20116 31010 70114 92333
AAXX 17061 14462 11580 42809 10130 20086 39933 49939 52/// 60212 721// 84900 333 20130 32004 70212 91123
BBXX 41114 17061 99276 70802 46/// ///// 1//// 90616 22200 00246 11002 21002 307// 41101 70011
BBXX 46231 17061 99327 71174 46/// ///// 1//// 90554 22200 00142 11102 20902 327// 41101 70010
BBXX 46222 17061 99336 71183 46/// ///// 1//// 90556 22200 00154 11101 21001 326// 41101 70007
BBXX 46242 17061 99332 71174 46/// ///// 1//// 90558 22200 00148 11401 20901 322// 41401 70007
BBXX 46211 17061 99469 71242 46/// ///// 1//// 90606 22200 00084 11304 20802 328// 41303 70020
BBXX 46221 17061 99339 71186 46/// ///// 1//// 90545 22200 00150 11001 21001 321// 41401 70007
AAXX 17061 21432 42998 01204 11283 21313 30178 40199 52007
AAXX 17061 21824 41997 83401 11221 21232 30144 40153 52017 77872 82037
AAXX 17061 21908 41599 83203 11168 21187 30094 40178 52020 70232 885//
AAXX 17061 21921 41998 80000 11282 21313 30137 40187 52017 77072 8807/
AAXX 17061 21931 42998 62302 11330 21367 30118 40153 52012 80003
AAXX 17061 21946 42999 70201 11268 21293 30083 40168 51001 87030
AAXX 17061 21982 31996 20111 11187 21228 30166 40195 54000 73830 82040 333 11171 91115
AAXX 17061 25062 31996 81004 11302 21332 30187 40191 53002 70531 82035 333 11302 91107
AAXX 17061 25123 42996 71502 11296 21326 30141 40177 52005 87030
AAXX 17061 25138 42999 60000 11290 21313 30039 40173 52003 83031 333 91102
AAXX 17061 25173 31596 80000 11259 21277 30187 40192 54000 71011 885// 333 11257 91100
AAXX 17061 25248 42998 61201 11353 21383 39705 40208 57002 86030 333 91101
AAXX 17061 25282 31984 03408 11233 21245 30127 40134 57004 73630 333 11233 91108
AAXX 17061 25325 NIL
AAXX 17061 25356 32999 60000 11289 21320 30041 40152 57008 80001 333 11266 91004
AAXX 17061 25399 31468 83508 11168 21194 39981 49990 57007 73732 885// 333 1//// 91113
AAXX 17061 25428 42984 70000 11339 21368 39814 40185 53007 82031 333 91101
AAXX 17061 25551 32998 30000 11373 21388 30109 40144 57009 80001 333 11/// 91101
AAXX 17061 25563 32984 03407 11275 21293 30026 40110 57017 333 11190 91113
AAXX 17061 25594 31698 63507 11124 21186 39901 40953 57009 73631 83530 333 11123 91113
AAXX 17061 25677 31594 83110 11186 21192 30043 40049 57013 73832 8657/ 333 11186 86617 91116
AAXX 17061 31054 42999 40000 11342 21371 39930 40236 53003 80005
AAXX 17061 31123 42599 52602 11333 21361 39901 40266 54000 82501
AAXX 17061 14328 11410 80000 10004 20002 39565 49963 53049 60482 77397 8772/ 333 20004 3/000 43002 70578 93102
AAXX 17061 14472 11565 82408 10154 20116 39888 49942 57036 60102 717// 889// 222// 00169 333 20150 32/// 92334
AAXX 17064 61600 32960 73604 10190 20072 30137 40142 8707/ 333 20180 50874 55016 58001 87463
AAXX 17064 61612 32958 50000 10210 20015 30140 40148 83082 333 01900 20209 50561 55001 58001 83363 83073
AAXX 17064 61627 32957 60402 10185 20015 3//// 4//// 84082 333 00900 20178 50634 55011 5//// 84362 83073
AAXX 17064 61630 32960 50000 10196 20054 30118 40138 80002 333 01600 20190 50612 55000 85073
AAXX 17064 61641 32957 50408 10230 20134 30102 40135 83032 333 02000 20226 50504 55004 58001 83363
AAXX 17064 61666 32956 50404 10180 20127 30126 40134 85080 333 01500 20140 50414 55000 58004 85363
AAXX 17064 61679 32958 53608 10210 20062 30128 40136 85030 333 02000 20195 50784 55012 58002 85363
AAXX 17064 61687 32960 40604 10170 20023 30066 40124 82032 333 01400 20145 51081 55064 59007 82363 84073
AAXX 17064 61695 32958 53602 10199 20087 30099 40125 81081 333 01630 20193 50334 55049 59003 81363 84073
AAXX 17064 61697 32960 00406 10200 20100 30106 40121 333 01800 20195 50554 55048 58002
AAXX 17064 61698 32958 60000 10110 20079 30116 40127 80002 333 01100 20105 50594 55051 58006 86073
AAXX 17064 61699 32960 31404 10180 20070 39923 40113 80002 333 01300 20143 50664 55059 58006 83073
AAXX 17064 68379 16/// /1804 10223 20164 39890 48616 52006 69924 333 20159 91007 555 10308 20002 91022
BBXX 46207 17061 99509 71299 46/// /2012 10094 40145 57005 22200 00085 11709 70046 333 91214
BBXX A8CN8 17060 99527 71370 41/97 /2705 40130 56010 70222 8//// 22274 2//// 327// 4//06 5////
BBXX KFMV 17063 99335 71385 41/// /1711 10167 20150 40270 52020 7//11 8//// 22225 00178 20501 330// 41002 5//// 6//// 80156 ICE /////
BBXX KGTZ 17064 99561 71417 41698 52314 10061 20020 40093 57013 72052 85/7/ 22274 00056 2//// 3//// 4//// 5//// 6//// 80044 ICE /////
BBXX KRGB 17064 99429 71327 41/97 /1919 10111 20110 40245 54000 7//22 8//// 22214 00111 21204 329// 41605 5//// 6//// 80111 ICE /////
BBXX SHIP 17064 99338 71308 41597 70218 10140 20095 40255 57009 70222 85/// 22233 00180 2//// 3//// 4//// 80115
BBXX SHIP 17064 99344 71431 41497 81825 10180 20160 40140 54000 7//11 8879/ 22213 00200 2//// 3//// 4//// 5//// 6//// 80170 ICE /////
BBXX WYL4318 17064 99599 71455 41395 81812 10033 2//// 40041 52015 76876 8762/ 22272 0//// 20101 323// 4//00 5//// 6//// 8//// ICE /////
BBXX 46147 17061 99518 71312 46/// /2307 10085 40113 52002 22200 00082 11711 70053 333 91210
BBXX 46147 17061 99518 71312 46/// /2307 10085 40113 52002 22200 00082 11711 70053 333 91210
BBXX 41112 17061 99307 70813 46/// ///// 1//// 90552 22200 00161 11101 21001 311// 41101 70007
AAXX 17061 36974 3//// /2601 11110 21193 38040 48628
AAXX 17061 22621 11350 80601 10001 21001 39841 49980 57017 60042 77172 8772/ 333 20000 43010 87707 93701
AAXX 17064 71979 16/// ///// 11035 21037 38484 40147 58023 60001 333 10013 21096 70006
AAXX 17064 71151 16/// /1911 11115 21126 39692 40215 58037 60001 333 11113 21181 70000
AAXX 17064 71189 46/// /2813 11090 21156 6///1 333 10034 21093 7//// 555 32945 40173
AAXX 17064 71343 16/// /2412 10019 21023 60001 333 10032 21094 70000 555 32724 40001
AAXX 17064 71276 16/// ///04 11044 21076 60001 333 10011 21149 70000
AAXX 17064 71217 16/// /2308 11022 21046 60001 333 10051 21136 70000
AAXX 17064 71224 16/// /2616 10030 21017 60001 333 10040 21073 7////
AAXX 17064 71375 46/// /3121 11110 6///1 333 10024 21113 7//// 555 33239 40213
AAXX 17061 25703 42999 70000 11329 21351 39896 40196 52012 82031
AAXX 17061 25745 42698 30802 11223 21262 30073 40128 53003 83500
AAXX 17061 25913 41699 80807 11072 21130 39868 40016 52008 73632 8357/ 333 91114
AAXX 17061 25954 42998 80204 11100 21226 39944 40060 53005 80001
AAXX 17061 25956 42999 50507 11151 21211 30049 40055 53002 80001
AAXX 17061 31088 42599 83605 11158 21218 30034 40041 53006 8357/
AAXX 17061 31873 41396 82504 11138 21160 30063 40204 55005 77373 8277/
AAXX 17061 31909 42599 82904 11097 21215 30078 40159 56009 82539
AAXX 17061 31960 42998 51502 11076 21197 39974 40218 56019 85030
AAXX 17061 31961 42998 81902 11092 21196 30171 40219 56014 86031
AAXX 17061 32053 41293 82805 11165 21191 39986 40037 53006 78687 889// 333 87704 91009 91111
AAXX 17061 32061 41597 83105 11135 21170 30042 40083 53004 70283 85902 333 91009 91111
AAXX 17061 32098 42998 52803 11128 21211 30053 40063 55000 80003 333 91004 91107
AAXX 17061 32150 41598 73401 11102 21165 30061 40092 54000 70281 87300 333 91004 91109
AAXX 17061 32165 41597 63009 11060 21099 30031 40094 53009 78583 86900 333 91016 91119
AAXX 17061 32215 41545 62810 11062 21081 39881 49910 53013 78583 83902 333 91021 91125
AAXX 17061 32252 NIL
AAXX 17061 32389 42699 71203 11015 21045 39882 49918 53015 85530
AAXX 17061 32477 42999 71801 11102 21130 39840 49872 53011 87070
AAXX 17061 32583 42599 40103 11048 21105 39833 49863 53021 82531
AAXX 17061 32618 42598 51202 11021 21043 39896 49918 52007 85400
AAXX 17061 38725 42999 70000 11040 21207 48540 54000 80002
AAXX 17063 41150 42962 22404 10175 20090 40185 82030 333 20104 30010 59016 82364
AAXX 17064 40153 11/02 92513 10086 20085 39116 48510 52009 60002 74342 333 20082 70000
AAXX 17064 40179 12560 41505 10149 20109 30161 40198 52008 60002 82180 333 20116 50281 55085 70000
AAXX 17064 40180 12660 51301 10140 20103 30152 40201 53006 60002 85100 333 20113 70000
AAXX 17064 40190 16/// ///// 10101 20083 39868 40206 52006 60002 333 20073 70000
AAXX 17064 40199 13/// /0403 10117 20050 30178 40201 52012 60002 333 20095 55092 70000
AAXX 17064 61017 32960 50000 10038 21009 39764 40189 80002 333 05500 20035 50284 55099 59011 85080
AAXX 17064 61024 32960 30808 10103 21061 39590 40177 80002 333 06000 20100 51591 55/// 59006 83080
AAXX 17064 61036 32965 70804 10176 21023 39897 40137 80008 333 01500 20164 50951 50854 55102 59005 87280
AAXX 17064 61043 32960 70606 10120 21048 39700 40149 80008 333 0//00 20115 51321 5///4 55104 59003 87280
AAXX 17064 61045 31906 70402 10118 21007 39655 40163 70644 80008 333 00800 20114 5//// 50684 55086 59006 87280
AAXX 17064 61049 31920 70000 10104 20010 39823 40150 7062/ 80008 333 00800 20098 50831 50644 55095 59017 87280
AAXX 17064 61052 31930 50804 10167 21036 39886 40145 70622 80002 333 01400 20165 50971 55087 59002 85080
AAXX 17064 61075 32960 60000 10145 21025 39827 40140 80008 333 01200 20142 50941 50644 55093 59006 86280
AAXX 17064 61080 32960 70804 10100 21034 39728 40159 80008 333 00200 20095 51001 50904 55080 59003 87280
AAXX 17064 61090 31930 70406 10140 21025 39640 40159 70622 80008 333 01000 20135 50891 50824 55078 59007 87280
AAXX 17064 61091 NIL
AAXX 17064 61096 31908 70404 10126 21002 39765 40154 70642 80008 333 01100 20121 50951 50744 55093 59012 87280
AAXX 17064 61099 31940 70606 10190 20018 39896 40126 7062/ 80008 333 01500 20185 50921 55098 58002 87280
AAXX 17064 89002 42399 81209 11016 21034 39700 49754 57012 888//
AAXX 17061 50434 32980 63203 11198 21244 39320 40309 57011 82032 333 21358
AAXX 17061 50527 32980 02007 11224 21250 39452 40330 57014 333 21297
AAXX 17061 50603 32980 02504 11126 21184 39603 40336 57011 333 21240
AAXX 17061 50632 32980 02905 11153 21221 39322 40285 57008 333 21213
AAXX 17061 50727 11980 03402 11205 21249 39069 40390 57004 69901 70070 333 21302
AAXX 17061 50915 32980 02203 11161 21233 39301 40409 57004 333 21253
AAXX 17061 51716 32765 40402 11011 21064 38986 40341 57006 82102 333 00000 21088
AAXX 17061 51765 32980 30201 11030 21081 39306 40363 57011 80002 333 00000 21137
AAXX 17061 51777 32970 73602 11024 21102 39256 40357 57009 80002 333 00000 21128
AAXX 17061 51811 32962 70000 11027 21055 38858 40345 57004 85032 333 00000 21093
AAXX 17061 51828 32965 02902 11017 21089 38690 40317 54000 333 00000 21074
AAXX 17061 52267 32980 62501 11067 21222 39217 40406 57012 80002 333 00100 21175
AAXX 17061 52323 32980 72502 11072 21136 38283 57014 80002 333 00152 21193
AAXX 17061 52495 32980 42501 11043 21189 38768 40392 57012 80002 333 00101 21208
AAXX 17061 53149 32980 02904 11111 21197 38874 40404 57005 333 00151 21186
AAXX 17061 53192 32980 02902 11214 21244 38984 40470 57005 333 21286
AAXX 17061 53231 32980 22702 11055 21192 38558 57011 80002 333 00151 21170
AAXX 17061 53336 32980 03402 11059 21192 38803 40398 57014 333 05107 21190
AAXX 17061 53391 32980 02903 11112 21185 38567 40402 57007 333 05204 21198
AAXX 17061 53529 32980 71601 11021 21145 38695 40367 57016 80002 333 05205 21159
AAXX 17061 53543 32980 00402 11033 21176 38605 40363 57014 333 21126
AAXX 17061 53723 32970 62902 11021 21086 38725 40359 57019 80002 333 05101 21142
AAXX 17061 54012 32980 02705 11162 21229 39108 40403 57003 333 21225
AAXX 17061 54026 32980 03405 11068 21236 39959 40307 52001 333 21140
AAXX 17061 54027 32980 03205 11063 21236 39695 40326 57007 333 21174
AAXX 17061 54208 32980 02906 11116 21214 38828 40420 57009 333 21278
AAXX 17061 54776 32580 12908 10011 21056 30260 40320 57020 81400 333 21037
AAXX 17061 56004 32680 71102 11116 21286 35811 57009 879// 333 00551 21203
AAXX 17061 56033 11580 62707 11109 21191 36003 57007 69901 70070 82102 333 00351 21209
AAXX 17061 56046 32780 73405 11070 21186 36241 57008 82502 333 00301 21161
BBXX 46183 17061 99536 71311 46/// /2805 10074 40097 57001 22200 00079 10903 70013 333 91206
AAXX 17061 22438 31440 80907 10004 21007 39976 49997 57020 77172 887// 333 20006
AAXX 17061 56193 NIL
AAXX 17061 56196 11530 80901 10059 20041 40281 57030 60011 76066 885// 333 05200 20050
AAXX 17061 56287 11458 80000 10065 20048 40276 57033 69961 76066 885// 333 05253 20051
AAXX 17061 56684 32580 12505 10120 21005 37886 57035 81100 333 05409 20023
AAXX 17061 56751 32780 20704 10160 20002 38018 57029 82400 333 05101 20049
AAXX 17061 56786 32566 61806 10130 20044 38106 57039 86400 333 05510 20025
AAXX 17061 56977 32570 70000 10152 20118 40193 57027 874// 333 05151 20125
AAXX 17061 57259 32975 72901 10052 21036 40310 57049 87030 333 21024
AAXX 17061 57279 32965 50201 10067 21077 40324 57039 85030 333 21018
AAXX 17061 57348 32865 81802 10096 21017 40281 57037 885// 333 20084
AAXX 17061 57399 32962 02701 10095 21076 40320 57044 333 21021
AAXX 17061 57554 32864 80000 10069 21042 40309 57038 885// 333 20044
AAXX 17061 57793 32964 71102 10076 21036 40312 57034 8704/ 333 20020
AAXX 17061 58345 32963 00401 10044 21101 40350 57028 333 21050
AAXX 17061 58506 32966 73602 10039 21088 40316 57025 8704/ 333 21053
AAXX 17061 58813 32978 00204 10109 21025 40287 57040 333 20000
AAXX 17061 58834 32978 00703 10124 21066 40280 57041 333 20036
AAXX 17061 58926 32965 02901 10157 20018 40251 57047 333 20040
AAXX 17061 58944 32566 80205 10094 20034 40279 57031 885// 333 20087
AAXX 17061 59096 32965 00701 10165 21007 40243 57045 333 20067
AAXX 17061 59102 32965 00703 10140 20006 40252 57042 333 20025
AAXX 17061 59278 32961 50202 10161 21002 40242 57039 85040 333 20123
AAXX 17061 59456 32978 00401 10198 20031 40219 57041 333 20137
AAXX 17061 59493 31957 73604 10175 20048 40229 57034 70500 87040 333 20125
AAXX 17061 59658 32660 70705 10189 20077 40221 57030 875// 333 20139
AAXX 17061 59673 32964 00205 10168 20054 40230 57029 333 20138
AAXX 17061 59845 32560 80902 10178 20129 40216 57027 888// 333 20157
BBXX 46183 17061 99536 71311 46/// /2805 10074 40097 57001 22200 00079 10903 70013 333 91206
AAXX 17061 38599 31947 20610 10018 21029 39770 40299 57009 71000 80001 333 21000
AAXX 17061 38599 31947 20610 10018 21029 39770 40299 57009 71000 80001 333 21000
AAXX 17064 45011 47956 /0209 10182 20063 40232 57029 71010 333 58006
AAXX 17064 45011 47956 /0209 10182 20063 40232 57029 71010 333 58006
AAXX 17061 48806 32460 81802 10157 20092 39441 40227 57019 888// 333 58004 83894 88696
AAXX 17064 16294 12597 42618 10146 20074 39818 40007 54000 60002 84200 333 20136 30/// 55/// 2//// 84820 555 0435/
AAXX 17061 60379 16/// /2103 10150 20121 69924 333 20146
AAXX 17061 60394 36/// /2403 10149 20095 333 20143
AAXX 17061 60374 36/// /2712 10169 20135 333 20151
AAXX 17061 60613 36/// /0000 10037 21003 333 20037
BBXX 46131 17061 99499 71250 46/// /1209 1//// 40273 57004 22200 00080 10502 70008 333 91210
BBXX 46131 17061 99499 71250 46/// /1209 1//// 40273 57004 22200 00080 10502 70008 333 91210
AAXX 17064 67969 11470 81204 10193 20187 38/// 48/// 60054 75155 885// 333 20184 5//// 88615
BBXX 62087 17061 99547 10068 46/// /1508 10066 20030 4//// 5//// 22270 00084
AAXX 17064 41858 31301 82705 10134 20120 30131 40179 74644 8672/ 333 56699 58003 70000 86708 88458
AAXX 17064 41863 31920 02701 10131 20120 30130 40176 70540 333 59002 70000
AAXX 17064 41886 31440 80000 10175 20135 30148 40169 71044 8351/ 333 56999 59006 70000 83618 88460
AAXX 17064 41895 31450 73602 10150 20130 30151 40174 70544 83520 333 56890 59006 70000 83616 87458
AAXX 17064 41909 31435 83402 10142 20120 30150 40162 70542 8352/ 333 56999 59008 70000 83615 88458
AAXX 17064 41915 31340 81804 10198 20140 30138 40164 70544 886// 333 56999 59014 70000 85708 86615
AAXX 17064 41926 31920 03602 10158 20130 30162 40176 71044 333 59009 70000
AAXX 17064 41929 31920 01802 10140 20130 30161 40171 71044 58002 70000
AAXX 17064 41939 31420 80000 10165 20150 40176 71042 8352/ 333 56999 58002 70000 83616 88458
AAXX 17064 41941 31950 03602 10156 20130 30172 40178 70500 333 58020 70000
AAXX 17064 41946 31950 03602 10200 20130 30164 40169 70540 333 59003 70000
AAXX 17064 41947 31450 80000 10153 20130 30164 40166 70544 8552/ 333 56999 58001 70000 85618 88460
AAXX 17064 41953 31320 63106 10172 20140 30155 40160 71040 86630 333 56990 59002 70000 86706 85362
AAXX 17064 41958 31940 03604 10190 20130 30158 40160 70500 333 59003 70000
AAXX 17064 41960 31950 03302 10180 20130 30159 40161 70541 333 59005 70000
AAXX 17064 41964 31918 03602 10200 20150 30170 40172 71040 333 58000 70000
AAXX 17064 41966 31956 00000 10200 20150 30077 40159 72844 333 58004 70000
AAXX 17064 41984 31957 03603 10190 20120 30155 40157 70240 333 58004 70000
AAXX 17064 41989 31950 00000 10240 20150 30148 40151 70500 333 58002 70000
AAXX 17064 41998 32956 00201 10205 20130 30130 40136 333 59003 70000
AAXX 17064 60619 36/// /0105 10054 21011 333 20029
AAXX 17064 60663 36/// /0704 10097 21070 333 20097
AAXX 17064 60645 36/// /0000 10092 21018 333 20091
AAXX 17064 41295 36/// /3103 10223 20159 30001 40180 333 0E018 20144 59001
AAXX 17064 60621 36/// /0403 10061 21019 333 20057
BBXX 61002 17064 99421 10047 46/// ///32 10108 2//// 40124 52022 22200 00145 10910 70049 555 1/042
AAXX 17064 60612 36/// /0000 10057 21032 333 20057
AAXX 17064 78922 46/// /0518 10258 20192 30080 40125 58008
BBXX 61002 17064 99421 10047 46/// ///32 10108 2//// 40124 52022 22200 00145 10910 70049 555 1/042
AAXX 17064 16344 11/00 93040 10020 20020 38190 48377 55000 60102 76064 333 20018 32/// 55000 20677 89/00 95090 95190
AAXX 1706/ 89872 46/// ///// 11024 39851 4//// 5////
AAXX 1706/ 89869 46/// ///// 11089 39823 4//// 5//// 90610
AAXX 1706/ 89879 46/// ///// 11016 39750 4//// 5////
AAXX 17064 41859 31/05 90000 10130 20130 30138 40177 74344 89/// 333 56999 59001 70000 89///
AAXX 17064 41883 31/05 90000 10144 20130 30151 40172 74344 89/// 333 56999 59004 70000
BBXX 46204 17061 99514 71288 46/// /1412 10095 40155 57006 22200 00085 11708 70040 333 91215
BBXX 46204 17061 99514 71288 46/// /1412 10095 40155 57006 22200 00085 11708 70040 333 91215
AAXX 17064 62305 NIL
AAXX 17064 62306 32960 02303 10130 20090 40199 52003 333 20116
AAXX 17064 62318 31556 22002 10126 20116 40196 52006 71000 82100 333 20112
AAXX 17064 62337 NIL
AAXX 17064 62366 32960 01403 10120 20079 40209 52032 71000 333 20107
AAXX 17064 62393 31940 03205 10074 20058 40214 53011 71000 333 20064
AAXX 17064 62405 32960 31102 10110 20036 40189 52015 83030 333 20076
AAXX 17064 62414 32960 33604 10120 20034 40197 52014 80001 333 20104
AAXX 17064 62417 32960 00000 10086 20054 40210 52011 333 20058
AAXX 17064 62440 31940 01302 10101 20080 40205 52011 71000 333 20075
AAXX 17064 62463 32960 43109 10145 20069 40192 52016 80002 333 20122
AAXX 17064 62465 32960 03310 10183 20075 40177 52012 333 20160
AAXX 17064 62419 NIL
BBXX JPAT 17064 99228 31004 41598 71613 10230 20158 40135 57008 70122 87461 22232 00253 10803 20201 31511 40703 50601 85183
BBXX VROB 17064 99199 31538 46/// /1222 10261 20180 30085 40110 52001 22243 04272 85206
BBXX FHZI 17064 99522 31451 46/// /2913 10066 20060 30193 40204 57015 22243 04062 85063
BBXX VNAH 17064 99333 31157 46/// /2707 10216 20145 30074 40097 57012 22200 85171
AAXX 17063 67765 11475 70506 10206 20176 38680 48523 60084 70262 83138 333 20180 83813 87280
AAXX 17063 67775 12480 71109 10192 20180 38526 48530 60174 8757/ 333 20171 87610
AAXX 17063 67779 12480 71104 10215 20188 39070 48524 60184 82532 333 20199 82615 87630
AAXX 17063 67881 11380 70902 10188 20164 38603 48531 60394 71522 8177/ 333 20169 81707 87460
AAXX 17063 67965 11475 71712 10195 20165 38716 48540 60014 75065 8757/ 333 20175 87610
AAXX 17064 67755 NIL
AAXX 17064 67771 12680 71204 10229 20177 38/// 48/// 60084 85532 333 20192 5//// 85630 87080
AAXX 17064 67773 11480 50604 10225 20174 38/// 48/// 60024 70262 85501 333 20193 5//// 85615
AAXX 17064 67774 NIL
AAXX 17064 67785 NIL
AAXX 17064 67789 12480 70602 10186 20176 38/// 48/// 60304 86532 333 20170 5//// 86610
AAXX 17064 67855 NIL
AAXX 17064 67857 NIL
AAXX 17064 67863 NIL
AAXX 17064 67871 11265 81306 10183 20171 38565 48523 60144 70565 8767/ 333 20168 58008 87704 88460
AAXX 17064 67875 NIL
AAXX 17064 67891 12980 51601 10213 20173 38/// 48/// 60064 85031 333 20178 5//// 85360
AAXX 17064 67895 NIL
AAXX 17064 67897 NIL
AAXX 17064 67899 12480 71204 10182 20175 38/// 48/// 60164 875// 333 20170 5//// 87610
AAXX 17064 67951 12580 71508 10194 20171 38/// 48/// 60144 86531 333 20171 5//// 86625
AAXX 17064 67963 NIL
AAXX 17064 67967 NIL
AAXX 17064 67971 11365 81505 10197 20182 38/// 48/// 69994 75052 866// 333 20189 5//// 86708 88610
AAXX 17064 67976 NIL
AAXX 17064 67979 NIL
AAXX 17061 37061 11/93 90904 10022 20020 30011 40179 52003 69910 74754 333 20022 96047
AAXX 17061 21802 41999 73105 11173 21184 30150 40175 52014 73673 87030
AAXX 17061 24125 41998 83301 11190 21196 39895 40191 52015 77172 85027
AAXX 17061 24136 41999 82203 11262 21287 30054 40161 52016 70272 8807/
AAXX 17061 24143 41699 82307 11321 21357 30133 40188 53017 73673 82575
AAXX 17061 24266 41999 52402 11394 21422 30026 40229 52006 70272 80001
AAXX 17061 24329 42999 30000 11290 21313 39882 40213 52014 83010
AAXX 17061 24343 41497 81603 11335 21359 30068 40201 52007 77172 86507 333 84620
AAXX 17061 24382 42999 80000 11388 21417 39930 40218 52011 82036
AAXX 17061 24639 41999 62402 11229 21248 30026 40191 52017 70272 82018
AAXX 17061 24641 41998 50602 11337 21365 30029 40189 52008 77171 85011
AAXX 17061 24652 42998 71202 11351 21380 30100 40240 53007 8705/
AAXX 17061 24656 42999 10000 11412 21444 30123 40241 53001 81030
AAXX 17061 24671 42999 00000 11446 21469 39673 40271 53004
AAXX 17061 24688 41997 80000 11364 21394 39228 40261 53004 77172 87037
AAXX 17061 24724 42999 52603 11207 21232 39664 40229 52009 85030
AAXX 17061 24738 41999 82801 11188 21200 30012 40198 52015 70272 82035
AAXX 17061 24768 42998 50000 11442 21477 39965 40240 53005 80001
AAXX 17061 24923 41599 22303 11147 21174 39912 40233 52011 72271 82500
AAXX 17061 24944 41696 82603 11164 21177 39892 40197 52005 77172 83521
AAXX 17061 24951 41999 32702 11248 21273 30021 40202 51003 70271 80001
AAXX 17061 24661 41998 00000 11435 21468 39939 40252 53003 74000
AAXX 17061 24959 41995 83301 11407 21432 30082 40233 52005 77174 83035
AAXX 17061 24962 41999 80000 11396 21422 30013 40229 53004 77171 82038
AAXX 17061 24966 41998 80000 11370 21391 39973 40221 53005 77171 80007
AAXX 17061 24967 42999 50000 11362 21397 39990 40241 52004 80001
AAXX 17061 25206 42999 71801 11292 21315 30156 40186 52010 84031
AAXX 17061 25400 42998 81601 11274 21298 30126 40186 53010 8803/
AAXX 17061 30054 41596 82003 11105 21133 30001 40250 54000 78582 86947
AAXX 17061 30089 41999 80000 11187 21206 39980 40219 50000 72272 81027
AAXX 17061 30393 41999 80000 11268 21286 39123 40262 52005 72272 84031
AAXX 17061 30493 42699 80000 11191 21224 39115 40222 52002 82501
AAXX 17061 31004 41999 22002 11200 21219 39330 40218 52006 70271 80001
AAXX 17061 31137 42999 60000 11331 21367 39109 40267 57003 80005
BBXX ZDLP 17063 99607 50471 41/97 72842 10018 20015 49887 54000 70122 877// 22222 04002 20405 326// 40810 5//// 80017
BBXX ZSAF 17064 99621 50000 41599 72413 11035 21048 49641 52011 70177 875// 22242 05016 2//// 3//// 4//// 5//// ICE 76030
BBXX 46114 17061 99364 71222 46/// ///// 1//// 90604 22200 00125 11504 20903 330// 41502 70020
AAXX 17064 91650 NIL
AAXX 17064 91652 NIL
AAXX 17064 91656 NIL
AAXX 17064 91659 11599 80910 10249 2023/ 40121 53011 60051 78089 8487/ 333 5600/ 84828 83645 86462
AAXX 17064 91660 NIL
AAXX 17064 91669 36/// /1105 10288 20259 40117 52006 90615
AAXX 17064 91670 36/// /0300 10282 20231 40104
AAXX 17064 91676 14/// /0704 10279 20239 30046 40106 50008 60001
AAXX 17064 91680 11699 70308 10300 20226 40108 53005 60001 70222 82102 333 569/9 82830 86080
AAXX 17064 91682 NIL
AAXX 17064 91683 11599 70307 10290 20248 40111 53006 60001 70222 82802 333 561/9 82823 86080
AAXX 17064 91691 14/// /0801 10292 20249 30119 40122 53009 60001
AAXX 17064 91693 NIL
AAXX 17064 91697 14/// /0602 10274 20238 30112 40117 50005 60061
AAXX 17064 91699 14/// /0004 10284 20248 30096 40128 50004 60001
AAXX 17064 67765 11475 70506 10206 20176 38680 48523 60084 70262 83138 333 20180 58000 83813 87280
AAXX 17064 67775 12480 71109 10192 20180 38526 48530 60174 8757/ 333 20171 58002 87610
AAXX 17064 67779 12480 71104 10215 20188 39070 48524 60184 82532 333 20199 58008 82615 87630
AAXX 17064 67853 NIL
AAXX 17064 67861 NIL
AAXX 17064 67867 NIL
AAXX 17064 67881 11380 70902 10188 20164 38603 48531 60394 71522 8177/ 333 20169 58011 81707 87460
AAXX 17064 67965 11475 71712 10195 20165 38716 48540 60014 75065 8757/ 333 20175 58014 87610
AAXX 17064 67975 NIL
AAXX 17064 67977 NIL
AAXX 17064 67983 NIL
AAXX 17064 67991 NIL
BBXX 41036 17061 99342 70770 46/// ///// 10179 20146 40177 90620 22200 00189
BBXX 44039 17061 99411 70727 46/// /3005 10064 21008 40200 56013 90600 22200 00100 1//00 70002 333 91207
BBXX 44060 17061 99413 70721 46/// ///04 10052 40187 90615 22200 00109 333 91206 555 11046 22046
BBXX 44029 17061 99425 70706 46/30 /3105 10046 40162 58007 90604 22200 00090 10301 70005 333 91205 555 11052 22054
BBXX 44030 17061 99432 70704 46/// /2705 1//// 40157 58008 90604 22200 00091 10301 70003 333 91207 555 11060 22064
BBXX 44032 17061 99437 70694 46/30 /3308 10041 40147 58005 90604 22200 00089 10302 70008 333 91210 555 11094 22099
BBXX 44022 17061 99409 70737 46/// ///04 10054 21022 40197 90615 22200 00091 333 91206 555 11046 22046
BBXX 44040 17061 99410 70736 46/// /3105 10057 21014 40202 90615 22200 1//00 70001 333 91206 555 11057 22072
BBXX JPAT 17064 99228 31004 41598 71613 10230 20158 40135 57008 70122 87461 22232 00253 10803 20201 31511 40703 50601 85183
BBXX VROB 17064 99199 31538 46/// /1222 10261 20180 30085 40110 52001 22243 04272 85206
BBXX FHZI 17064 99522 31451 46/// /2913 10066 20060 30193 40204 57015 22243 04062 85063
BBXX VNAH 17064 99333 31157 46/// /2707 10216 20145 30074 40097 57012 22200 85171
AAXX 17064 87121 11965 53214 10216 20165 39596 40095 57012 69941 70282 85030 333 56030 85360
AAXX 17064 87750 32965 00910 10120 20101 30044 40142 57007
AAXX 17061 30157 41996 83502 11089 21144 39976 40269 53001 77173 8802/
AAXX 17061 35108 11997 01102 11187 21210 30319 40370 58002 69930 70271 333 21200
AAXX 17061 35217 12998 01105 11170 21189 30324 40367 57001 69900 333 21210
AAXX 17061 35302 12998 01405 11161 21174 30330 40351 54000 69900 333 21191
AAXX 17061 35406 32997 21005 11169 21195 30341 40343 58002 80001 333 21182
AAXX 17061 38196 32998 03602 11064 21166 39318 40340 51003 333 21107
AAXX 17061 38198 31997 00000 11138 21151 30070 40349 57001 70240 333 21190
AAXX 17061 38328 32999 01402 11008 21058 39558 40304 58005 333 21105
AAXX 17061 38334 32998 01002 11040 21123 39317 40311 57007 333 21100
AAXX 17061 38439 31595 83602 11054 21064 39963 40317 58006 71044 83501 333 21071
BBXX 51203 17061 99208 71570 46/// ///// 1//// 90613 22200 00249 11402 21001 329// 41401 70009
BBXX 52200 17061 99134 11448 46/// ///// 1//// 90615 22200 00288 10905 20904 309// 41101 70023
AAXX 17061 35108 11997 01102 11187 21210 30319 40370 58002 69930 70271 333 21200
AAXX 17061 35217 12998 01105 11170 21189 30324 40367 57001 69900 333 21210
AAXX 17061 35302 12998 01405 11161 21174 30330 40351 54000 69900 333 21191
AAXX 17061 35406 32997 21005 11169 21195 30341 40343 58002 80001 333 21182
AAXX 17061 38196 32998 03602 11064 21166 39318 40340 51003 333 21107
AAXX 17061 38198 31997 00000 11138 21151 30070 40349 57001 70240 333 21190
AAXX 17061 38328 32999 01402 11008 21058 39558 40304 58005 333 21105
AAXX 17061 38334 32998 01002 11040 21123 39317 40311 57007 333 21100
AAXX 17061 38439 31595 83602 11054 21064 39963 40317 58006 71044 83501 333 21071
BBXX WYP8657 17064 99475 70879 41/98 43601 11066 2//// 40261 54/// 70301 8//// 22263 0//// 20201 3//// 4//// 5//// 6//// 8//// ICE /////
BBXX C6VG7 17064 99216 70860 41698 50812 10252 2017/ 40190 52001 7//11 84/3/ 22214 00280 20503 309// 4//// 5//// 6//// 80196 ICE /////
BBXX WNBE 17064 99222 71592 41498 20520 10240 2//// 40200 52010 70200 821// 22233 0//// 2//// 3//// 4//// 5//// 6//// 8//// ICE /////
BBXX WZJC 17063 99202 70714 41598 10617 10239 2019/ 40162 58008 70211 8127/ 22273 00267 2//// 3//// 4//// 5//// 6//// 80206 ICE /////
BBXX V7MO2 17064 99262 70914 41797 50206 10230 20185 40233 52005 70011 85/// 22200 00240 20302 3//// 40602 5//// 6//// 80200 ICE /////
BBXX V7HC6 17064 99273 70907 41/// /0103 10220 20205 40228 57002 700// 8//// 222// 00229 2//// 3//// 4//// 5//// 6//// 80210 ICE /////
BBXX C6TQ6 17064 99226 70865 41797 50619 10250 20207 40200 56020 70311 8596/ 22284 00270 20308 32727 40306 50206 6//// 80220 ICE /////
BBXX 46088 17061 99483 71232 46/// /1304 10080 40291 90620 22200 00080 1//00 70001 333 91205 555 11041 22044 30618 41205 60619 125039 133038 139039 138040 141034 143024
BBXX 46088 17061 99483 71232 46/// /1304 10080 40291 90620 22200 00080 1//00 70001 333 91205 555 11041 22044 30618 41205 60619 125039 133038 139039 138040 141034 143024
BBXX 46087 17061 99485 71247 46/// /1103 10079 20078 40293 90620 22200 00077 333 91204 555 11034 22037 30610 41005 60619 110032 104031 095029 094030 092031 097031
BBXX PHOB 17064 99111 10642 41498 40620 10280 20246 40110 50000 70200 81145 22224 00260 20604 3//// 4//// 5//// 80255
BBXX C6VF5 17064 99127 10476 41497 40616 10270 2023/ 40160 5//// 7//10 84100 22264 00270 2//// 3//// 4//// 5//// 6//// 80240 ICE /////
BBXX SHIP 17064 99137 11293 41298 60716 10280 20253 40086 56027 76026 86762 22244 00291 20201 30809 40504 50403 80260
BBXX 7JJA 17064 99334 11395 41697 63226 00 10140 20063 40195 57005 70222 86500 9//// 22213 00220 2//06 332 4//06 5 6//// 80100 ICE /////
BBXX DGZS2 17063 99350 11290 41697 33317 11005 21032 40275 57/// 70200 8///5 22200 00150 20402 81015
BBXX SHIP 17064 99106 11271 41798 50912 10290 20250 40079 56017 70222 85443 22243 00285 20304 309// 40304 80260
BBXX SHIP 17064 99052 11314 41498 51305 10288 20232 40060 57016 70211 82166 22213 00305 10603 20100 305// 40804
BBXX JPBN 17064 99349 11402 41/98 10106 10094 21060 40196 53010 70200 81100 22261 00182 10702 20301 302// 40802 70010
BBXX JGQH 17064 99308 11318 41/97 53412 10094 20003 40256 56021 70222 85100 22223 00215 1//03 20302 303// 40702 70014
BBXX VREX8 17064 99276 11692 43/// /2813 10250 2022/ 4//// 5//// 7//// 8//// 22211 0//// 2//// 3//// 4//// 5//// 6//// 80230 ICE /////
BBXX A8UT8 17064 99290 11239 41098 73518 10110 20015 40340 57040 70322 87778 22243 20804 336// 40802 80070
BBXX 46204 17061 99514 71288 46/// /1412 10095 40155 57006 22200 00085 11708 70040 333 91215
BBXX 46131 17061 99499 71250 46/// /1209 1//// 40273 57004 22200 00080 10502 70008 333 91210
BBXX 46183 17061 99536 71311 46/// /2805 10074 40097 57001 22200 00079 10903 70013 333 91206
BBXX V7MO2 17064 99262 70914 41797 50206 10230 20185 40233 52005 70011 85/// 22200 00240 20302 3//// 40602 5//// 6//// 80200 ICE /////
BBXX OXKO2 17060 99194 70661 41498 70510 10230 20183 40158 55/// 70322 8727/ 22254 04250 20804 30203 41005 51206 80200
BBXX OYCY2 17064 99439 71338 43/96 /2026 10130 2011/ 40270 57030 7//// 8//// 22273 00140 2//// 3//// 4//// 5//// 6//// 80120 ICE /////
BBXX 46147 17061 99518 71312 46/// /2307 10085 40113 52002 22200 00082 11711 70053 333 91210
BBXX 41112 17061 99307 70813 46/// ///// 1//// 90552 22200 00161 11101 21001 311// 41101 70007
BBXX 46211 17061 99469 71242 46/// ///// 1//// 90606 22200 00084 11304 20802 328// 41303 70020
BBXX 46221 17061 99339 71186 46/// ///// 1//// 90545 22200 00150 11001 21001 321// 41401 70007
BBXX 46222 17061 99336 71183 46/// ///// 1//// 90556 22200 00154 11101 21001 326// 41101 70007
BBXX 46231 17061 99327 71174 46/// ///// 1//// 90554 22200 00142 11102 20902 327// 41101 70010
BBXX 46242 17061 99332 71174 46/// ///// 1//// 90558 22200 00148 11401 20901 322// 41401 70007
BBXX 46223 17061 99335 71178 46/// ///// 1//// 90600 22200 00153 11301 20901 326// 41301 70007
BBXX 46212 17061 99408 71243 46/// ///// 1//// 90612 22200 00099 11505 20803 330// 41504 70023
BBXX 41114 17061 99276 70802 46/// ///// 1//// 90616 22200 00246 11002 21002 307// 41101 70011
BBXX 46237 17061 99378 71226 46/// ///// 1//// 90541 22200 00112 11703 21002 324// 41702 70015
BBXX 46229 17061 99438 71246 46/// ///// 1//// 90551 22200 00103 11504 20802 329// 41504 70021
BBXX SHIP 17064 99230 71650 41/96 /0622 10233 20207 40199 52016 78182 8//// 22200 04247
BBXX SHIP 17064 99310 71779 41998 22028 10220 20206 40148 50/// 70301 8//// 90550 22264 00220 2//// 3//// 4//// 5//// 80210
BBXX 46241 17061 99330 71173 46/// ///// 1//// 90541 22200 00139 10902 20901 327// 41201 70008
BBXX 46237 17061 99378 71226 46/// ///// 1//// 90610 22200 00111 11703 20902 325// 41702 70015
BBXX 46244 17061 99409 71244 46/// ///// 1//// 90605 22200 00098 11704 20803 330// 41704 70022
BBXX 46248 17061 99461 71247 46/// ///// 1//// 90604 22200 00095 11404 20902 330// 41403 70020
BBXX 46247 17061 99378 71228 46/// ///// 1//// 90551 22200 00123 11703 20803 329// 41702 70017
BBXX 42363 17061 99282 70892 46/// /0902 10217 20178 40241 90630 333 91203
BBXX 42364 17061 99291 70881 46/// /0000 10211 20178 40237 90615
BBXX 42362 17061 99278 70907 46/// /3502 10222 20194 40241 90615
BBXX 42362 17061 99278 70907 46/// /3602 10222 20194 40241 51004 90600
BBXX 44034 17061 99441 70681 46/30 /3408 10022 40152 55000 90604 22200 00087 333 91209 555 11094 22098
BBXX WNBE 17064 99222 71592 41498 20520 10240 2//// 40200 52010 70200 821// 22233 0//// 2//// 3//// 4//// 5//// 6//// 8//// ICE /////
BBXX WZJC 17063 99202 70714 41598 10617 10239 2019/ 40162 58008 70211 8127/ 22273 00267 2//// 3//// 4//// 5//// 6//// 80206 ICE /////
BBXX 41053 17061 99185 70661 46/// /0607 10257 40146 90550 333 91209
BBXX 41053 17061 99185 70661 46/// /0508 10257 40147 90540 333 91210
BBXX 41053 17061 99185 70661 46/// /0507 10257 40146 58010 90600 22200 00272 11105 70024 333 91209
BBXX 41052 17061 99183 70648 46/// /0306 10260 40134 58011 90600 22200 00278 333 91209
BBXX 41052 17061 99183 70648 46/// /0405 10261 40135 90550 333 91207
BBXX 41052 17061 99183 70648 46/// /0305 10260 40136 90540 333 91206
BBXX A8EH2 17063 99255 71146 41198 42912 10160 20103 40162 52/// 8488/ 22274 00175 20501 80130
AAXX 17064 60593 36/// /0000 10040 333 20037
AAXX 17064 60376 16/// /2504 10163 20112 69924 333 20145
BBXX V7DI7 17064 99404 70612 41598 33219 10114 2006/ 40110 54000 70200 832// 22200 0//// 20303 330// 40604 5//// 6//// 80086 ICE /////
BBXX WCZ5535 17064 99361 70642 41/97 72614 10205 2018/ 40120 56010 7//22 872// 22223 0//// 2//// 3//// 4//// 5//// 6//// 80190 ICE /////
BBXX 46207 17061 99509 71299 46/// /2012 10094 40145 57005 22200 00085 11709 70046 333 91214
BBXX 41101 17064 99146 70562 46/// /0314 10262 20214 40106 57012 22200 00274 10904 70018
BBXX DDSB2 17063 99137 70733 41598 60523 10280 20209 40120 56002 70222 8426/ 22214 20305 399// 40304 80230
BBXX FLAO 1706/ 99764 70847 46/// ///// 11235 40057 57003
BBXX 41029 17061 99328 70796 46/// /2406 1//// 90600 555 11086 22104
BBXX 44067 17061 99384 70770 46/// /0503 10063 40218 57005 90600
BBXX 46111 17061 99481 71227 46/// /0905 10081 40290 57007 90600 22200 00056
BBXX 46112 17061 99481 71227 46/// /1203 10076 40293 57005 90600
BBXX WYL4318 17064 99599 71455 41395 81812 10033 2//// 40041 52015 76876 8762/ 22272 0//// 20101 323// 4//00 5//// 6//// 8//// ICE /////
BBXX 46078 17061 99561 71526 46/// /2210 1//// 90550 555 11109 22117
BBXX 41037 17061 99340 70775 46/// /2608 10172 40175 58015 90600 22200 00176 333 91209
BBXX ZMFR 17064 99468 31670 43/// /18// 10108 20058 40160 57001 22221 00131
BBXX VRDX2 17063 99256 31567 41597 51422 10250 20183 40141 7//// 85923 22274 00230 20806
BBXX 3EDA4 17063 99106 31543 41593 7//15 10310 20271 40046 5/100 7//22 86825 22283 00306 20000 80280
BBXX 61002 17064 99421 10047 46/// ///32 10108 2//// 40124 52022 22200 00145 10910 70049 555 1/042
BBXX 62087 17061 99547 10068 46/// /1508 10066 20030 4//// 5//// 22270 00084
BBXX 62105 17064 99554 70122 46/// /3323 10070 20016 40136 52027 22200 00103 10810 70050
BBXX 62081 17064 99510 70134 46/// ///// 10090 2//// 40212 52010 22200 00121 10910 70050
BBXX 62305 17064 99504 10000 46/98 /3317 10057 20026 40093 52032 22200 00119 10703 70014 333 90710 91126
BBXX 62304 17064 99511 10018 46/98 /3221 10049 20027 40061 51035 22200 00116 10604 70018 333 90710 91128
BBXX 62103 17064 99499 70029 46/99 /3118 10081 20027 40106 52024 22200 00123 11006 70032 333 90710 91129
BBXX 62165 17064 99540 10009 47598 /2913 10060 20009 40034 52010 700// 22200 10604 70021
BBXX 62129 17064 99584 10003 46/// ///// 10057 20012 49961 53013 22200
BBXX 63057 17064 99592 10015 47598 /3232 10058 20011 49931 52014 700// 22200 10706 70032
BBXX 62094 17064 99517 70067 46/// /2923 10076 20037 40130 52010 22200 00108 10807 70035
BBXX 62170 17064 99514 10020 46/97 /3122 10058 20044 40050 53032 22200 00112 10704 70019 333 90710 91130
BBXX 63118 17063 99591 10016 41697 63341 10061 20006 49911 53022 702// 8/4// 22200 10607 70036
BBXX 2AAY7 17063 99584 70003 41297 83435 10066 20035 49977 52015 70252 887// 22200 20403 332// 40707 80053
BBXX 62103 17064 99499 70029 46/99 /3018 10086 20036 40112 52021 22200 00122 11106 70029
BBXX 62027 17064 99491 70022 46/// /3518 1//// 2//// 40116 52028 22200 00114 11306 327// 70029
BBXX 9HA2950 17064 99496 70042 41498 63338 10084 20043 40108 50017 70262 862// 22253 00110 20405 328// 40607 5//// 80066
BBXX 62155 17064 99577 10007 47598 /3022 10058 20015 49975 52011 751// 22200 10706 70032
BBXX 62143 17064 99577 10018 47598 /3222 10062 20012 49968 52009 700// 22200 10606 70030
BBXX 62118 17064 99577 10009 47598 /3321 10064 20014 49963 51007 700// 22200 10706 70030
BBXX 62116 17064 99576 10011 47598 /3322 10068 20009 49965 52010 700// 22200 10706 70032
BBXX 62117 17064 99579 10000 47598 /3320 10064 20009 49975 53009 700// 22200 10605 70027
BBXX 62102 17064 99579 10018 46/// /3124 10061 21005 49953 52009 22200 10706 70032
BBXX 62134 17064 99580 10014 47598 /3323 10060 20011 49959 52012 700// 22200 10707 70033
BBXX 62114 17064 99583 10000 46/// /3321 10056 20013 49976 52028 22200
BBXX 62113 17064 99584 10002 47597 /3419 10060 20015 49963 52020 700// 22200
BBXX 62128 17064 99587 10014 47598 /3328 10053 20009 49959 53017 700// 22200 10707 70035
BBXX 62131 17064 99539 10012 46/// /31// 10062 20009 40026 52015 22200
BBXX ZQSD5 17064 99583 10007 46/// /3223 10061 20010 49965 53009 22200 10807 70034
BBXX 62127 17064 99540 10007 47999 ///// 10056 20004 40030 52011 700// 22200 10604 70021
BBXX 62132 17064 99564 10020 46/// /3214 10059 20008 49982 53017 22200
BBXX 62149 17064 99537 10011 47998 /2915 10059 20010 40032 52016 751// 22200 10604 70020
BBXX 62123 17064 99563 10022 47597 /3221 10056 20002 49976 52014 700// 22200
BBXX 62120 17064 99564 10021 47598 /3025 10059 20015 49974 53007 700// 22200
BBXX 62154 17064 99564 10022 46/// /3118 10067 20010 49971 52014 22200
BBXX 62152 17064 99570 10018 46/// /3120 10065 21002 49975 52013 22200 10606 70031
BBXX PJGO 17064 99571 10022 47698 /3023 10072 21004 49963 52006 700// 22200
BBXX 62146 17064 99572 10021 47/98 /3118 10069 21001 49968 52014 700// 22200 10606 70030
BBXX 62164 17064 99572 10008 47598 /3215 10072 21008 49980 52009 700// 22200 00097 10606 70030
BBXX 62119 17064 99570 10019 47598 /3123 10069 21001 49973 52012 700// 22200 10606 70028
BBXX 62140 17064 99573 10013 46/// /33// 10059 21004 49967 52011 22200
BBXX 62133 17064 99571 10009 46/// /3125 10080 21003 49978 52011 22200
BBXX 62104 17064 99574 10013 47598 /3220 10065 20002 49969 52013 700// 22200
BBXX 62153 17064 99573 10020 47598 /3125 10069 20008 49962 52009 700// 22200 10607 70033
BBXX 62122 17064 99573 10016 47598 /3125 10068 21003 49963 52010 700// 22200 10706 70032
BBXX 62142 17064 99530 10021 47497 /3017 10064 20029 40029 53023 700// 22200 10504 70018
BBXX 62145 17064 99531 10028 47598 /3021 10072 21004 40031 52024 700// 22200 10604 70022
BBXX 62144 17064 99534 10017 47998 /2917 10058 20002 40035 52022 700// 22200 10504 70019
BBXX 64041 17064 99607 70026 47697 /3224 10032 20006 49982 52025 700// 22200 10910 70048
BBXX 63107 17064 99611 10017 46/// /3325 10040 49903 53022 22200
BBXX MWYG6 17064 99603 70040 47997 /3427 10049 700// 22200
BBXX 63117 17064 99613 10011 47598 /3328 10051 21004 49914 52031 700// 22200
BBXX 63115 17064 99616 10013 47698 /3229 10047 21007 49924 52030 700// 22200 10809 70046
BBXX 62121 17064 99535 10027 46/// ///// 22200
BBXX 63103 17064 99612 10011 46/// /3334 10046 21004 49917 52032 22200 10709 70045
BBXX 63055 17064 99606 10016 47994 /3127 10044 20031 49908 52018 704// 22200 10708 70038
BBXX 63104 17064 99612 10016 47497 /3329 10057 20019 49906 52026 700// 22200
BBXX 62112 17064 99584 70002 47598 /3324 10059 21001 49973 52015 700// 22200
BBXX 63101 17064 99612 10009 46/// /3428 10039 20006 49919 52035 22200
BBXX 63112 17064 99611 10010 47498 /3430 10041 21007 49911 52029 700// 22200 10809 70044
BBXX 63106 17064 99610 10017 46/// /3428 10043 49903 53019 22200
BBXX 63113 17064 99610 10017 46/// /3530 10047 20000 49901 53013 22200 10707 70037
BBXX 63105 17064 99610 10017 47498 ///// 10048 20005 49903 53020 751// 22200
BBXX 63108 17064 99608 10017 47296 /3430 10045 20007 49899 53013 762// 22200 10808 70038
BBXX AMOUK05 17064 99523 10030 46/// ///// 10078 20018 39978 40015 52012 90550
BBXX PJAI 17064 99581 70014 47596 /3216 10061 21006 49991 53015 762// 22200
BBXX 63110 17064 99595 10015 47598 /3329 10075 20016 49928 52014 700// 22200 10607 70034
BBXX AMOUK14 17064 99535 70031 46/// ///// 10064 20028 30011 40045 57011 90550
BBXX 62111 17064 99580 70003 46/// /3523 10063 20010 49983 51010 22200 10606 70029
BBXX 63056 17064 99597 10016 47597 /3133 10053 20012 49912 52012 700// 22200 10707 70037
BBXX 62148 17064 99536 10015 46/// /3018 10059 20007 40035 52016 22200
BBXX 62150 17064 99536 10007 47998 /2816 10047 20009 40046 52014 700// 22200 10604 70021
BBXX AMOUK19 17064 99598 70012 46/// ///// 10048 2//// 39954 49958 52017 90550
BBXX AMOUK08 17064 99501 70061 46/// ///// 10092 20032 30135 40136 52022 90550
BBXX AMOUK27 17064 99582 70064 46/// ///// 11059 21195 30045 40046 52025 90550
BBXX AMOUK09 17064 99506 10009 46/// ///// 10058 20031 30057 40072 52040 90550
BBXX 62303 17064 99516 70051 46/// /3124 10080 20030 40110 52008 22200 00112 10706 70031 333 90710 91133
BBXX AMOUK21 17064 99564 70055 46/// ///// 10040 20026 30040 40050 52008 90550
BBXX 62163 17064 99475 70084 46/// /3123 10093 20044 40214 51005 22200 00129 10912 70062 333 90710 91130
BBXX 62029 17064 99487 70125 46/// /3224 10091 20044 40234 52002 22200 00131 10911 70057 333 90710 91132
BBXX 62301 17064 99524 70047 46/// /3023 10071 20034 40094 53014 22200 00097 10605 70027 333 90710 91131
BBXX 62442 17064 99490 70164 46/// /3116 1//// 2//// 40266 52005 22200 00128 333 90710 91130
BBXX 63110 17063 99595 10015 41/98 /3340 10074 49922 700// 8//// 22200 10607 70035
BBXX 64046 17064 99605 70049 46/// /3422 10041 21002 40012 52024 22200 00079 10708 70040
BBXX 64045 17064 99591 70117 46/// /3517 10039 20011 40092 52030 22200 00102 10809 70043 333 90710 91128
BBXX 62001 17064 99452 70050 46/// /3319 10115 20065 40204 53010 22200 00143 10913 70067 333 90710 91135
BBXX DDZA2 17064 99491 70090 41/97 53240 10080 20049 40175 57025 76088 8//// 22214 04120 2//// 80065
BBXX 62105 17064 99554 70122 46/// /3323 10070 20016 40136 52027 22200 00104 10810 70050 333 90710 91133
BBXX 62081 17064 99510 70134 46/// ///// 10090 20029 40212 52010 22200 00121 10910 70050
BBXX DBEB 1706/ 99538 10082 41/// /3214 10061 20061 49918 520/9 7//// 22221 00056
BBXX DBBH 17061 99367 70115 41498 83608 10164 20136 40295 57005 70262 878// 22200 04179
BBXX BATFR21 17064 99427 10087 46/// /2537 20295 40027 56010 22223
BBXX BAREU00 17064 99508 70338 46/// ///// 40221 57008 22224
BBXX BATFR54 17064 99455 70020 46/// /2922 10094 20057 40155 55009 22223 00145
BBXX 61001 17064 99434 10078 46/// /2835 10116 20055 40006 52012 22200 00151 10908 70042 555 1/047
BBXX BAREU51 17064 99410 10125 46/// ///// 49992 57005 22285
BBXX BAREU12 17064 99525 10037 46/// ///// 40004 52010 22214
BBXX BATFR13 17064 99447 70153 44797 73007 10119 20037 40295 57010 70222 8577/ 22214 00145
BBXX BATUK01 17064 99582 70064 46/// /0005 10019 21005 40045 53025 22200 00109
BBXX BATFR32 17064 99430 10061 46/// /3038 10098 21025 40077 52075 7//// 8//// 22254 00160
BBXX BATFR09 17064 99404 70098 44498 43520 10132 20037 40282 51003 70222 84100 22282 00169 20304 332// 41116 5//// 60//0 ICE 0/0//
BBXX BATFR41 17064 99432 10035 46/// /2832 10089 20037 40106 51017 22251
BBXX BATFR04 17064 99597 70110 44497 83017 10044 21006 40078 51024 72122 887// 22200 00102 300// 40306 5////
BBXX BATFR03 17064 99508 70011 46/// /3115 10034 20010 40090 51031 22272
BBXX BATEU06 17064 99550 70307 46/// /2518 10049 20017 40198 51001 22264 00074
BBXX BATEU08 17064 99628 70193 46/// /2709 10020 21043 40084 51018 22263
BBXX BATEU04 17064 99594 70021 46/// /3520 10042 21013 49989 53017 22233
BBXX BATFR46 17064 99425 10036 46/// /3125 10097 20054 40133 51035 22243 00164
BBXX BATFR60 17064 99538 10070 46/// /3127 10060 20019 49945 53006 22223 00064
BBXX BATFR42 17064 99507 70020 46/// /2912 10035 20022 40100 51027 22261 00120
BBXX BATFR52 17064 99487 70040 46/// /3227 10084 20027 40136 51018 22200 00119
BBXX BAREU08 17064 99363 70342 46/// ///// 40280 52006 22224
BBXX BAREU60 17064 99436 10135 46/// ///// 49953 52043 22242
BBXX BATFR27 17064 99488 70022 46/// /3318 10104 20024 40121 53029 22233 00117
BBXX BATFR30 17064 99418 10084 46/// /2934 10125 20040 40048 22224 00169
BBXX BATFR31 17064 99419 10087 46/// ///// 10122 40064 51011 22200 00165
BBXX BAREU04 17064 99536 70039 46/// ///// 40050 22262
BBXX BAREU56 17064 99436 10095 46/// ///// 49979 52034 22241
BBXX TESTFR9 17064 99487 70040 46/// ///// 10086 29068 40161 52027 22252
BBXX LF3N 17064 99653 10073 41597 72613 10056 20019 49841 52018 70282 87/// 22200 00091 10705 70026
BBXX LF5T 17064 99660 10081 41598 72412 10061 20026 49830 52021 72582 87/// 22200 10704 70021 333 91125
BBXX 3ERR2 17064 99635 10053 41597 63216 10054 20010 49867 52017 78082 86900 22200 06100 10806 70029 333 91121
BBXX LF3F 17064 99643 10078 43/// /2107 10041 20018 49864 52017 22200 04089 10706 70029 333 91127
BBXX LF4B 17064 99606 10037 47/98 /0105 10046 49901 52009 700// 22200 00046 10806 70029 333 91125
BBXX LF4C 17064 99584 10019 41598 43225 10068 20018 49947 52011 702// 89/// 22200 00079 10707 70034 333 91133
BBXX DBJM 17061 99541 10082 46/// /3213 10060 20015 49920 52014 22241 00060
BBXX DBBC 17061 99542 10079 46/// /3209 10047 2//// 49925 52027 22200 00075
BBXX DBBA 17061 99539 10087 46/// /3214 10053 20050 49912 52024 22250 00041
BBXX DBKR 17061 99541 10121 46/// /3108 10042 20031 49847 52038 22200 00047
BBXX MINUK05 1706/ 99598 70062 46/// ///// 10048 40026 52016
BBXX MINFR05 1706/ 99498 70009 46/// ///// 10073 40127 52033
BBXX MINUK04 1706/ 99545 10059 46/// ///// 10075 4//// 52005
AAXX 17064 61017 32960 50000 10038 21009 39764 40189 80002 333 05500 20035 50284 55099 59011 85080
AAXX 17064 61024 32960 30808 10103 21061 39590 40177 80002 333 06000 20100 51591 55/// 59006 83080 P 068
AAXX 17064 61036 32965 70804 10176 21023 39897 40137 80008 333 01500 20164 50951 50854 55102 59005 87280
AAXX 17064 61043 32960 70606 10120 21048 39700 40149 80008 333 0//00 20115 51321 5///4 55104 59003 87280
AAXX 17064 61045 31906 70402 10118 21007 39655 40163 70644 80008 333 00800 20114 5//// 50684 55086 59006 87280
AAXX 17064 61049 31920 70000 10104 20010 39823 40150 7062/ 80008 333 00800 20098 50831 50644 55095 59017 87280
AAXX 17064 61052 31930 50804 10167 21036 39886 40145 70622 80002 333 01400 20165 50971 55087 59002 85080
AAXX 17064 61075 32960 60000 10145 21025 39827 40140 80008 333 01200 20142 50941 50644 55093 59006 86280
AAXX 17064 61080 32960 70804 10100 21034 39728 40159 80008 333 00200 20095 51001 50904 55080 59003 87280
AAXX 17064 61090 31930 70406 10140 21025 39640 40159 70622 80008 333 01000 20135 50891 50824 55078 59007 87280
AAXX 17064 61091 NIL
AAXX 17064 61096 31908 70404 10126 21002 39765 40154 70642 80008 333 01100 20121 50951 50744 55093 59012 87280
AAXX 17064 61099 31940 70606 10190 20018 39896 40126 7062/ 80008 333 01500 20185 50921 55098 58002 87280
AAXX 17064 40250 32960 02104 10046 21007 39397 40209 57004 333 21020 300//
AAXX 17064 40265 31920 20000 10044 20035 39414 40230 53004 71000 80001 333 20014 30102 82070
AAXX 17064 40296 32960 00000 10102 20070 40198 54000 333 20087 30005
AAXX 17064 40310 32960 20000 10047 21036 38973 48511 52006 80001 333 20002 30104 82070
AAXX 17064 67765 11475 70506 10206 20176 38680 48523 60084 70262 83138 333 20180 58000 83813 87280
AAXX 17064 67775 12480 71109 10192 20180 38526 48530 60174 8757/ 333 20171 58002 87610
AAXX 17064 67779 12480 71104 10215 20188 39070 48524 60184 82532 333 20199 58008 82615 87630
AAXX 17064 67853 NIL
AAXX 17064 67861 NIL
AAXX 17064 67867 NIL
AAXX 17064 67881 11380 70902 10188 20164 38603 48531 60394 71522 8177/ 333 20169 58011 81707 87460
AAXX 17064 67965 11475 71712 10195 20165 38716 48540 60014 75065 8757/ 333 20175 58014 87610
AAXX 17064 67975 NIL
AAXX 17064 67977 NIL
AAXX 17064 67983 NIL
AAXX 17064 67991 NIL
AAXX 17064 48556 03458 80000 10255 20240 30094 40110 57007 60041 84277 333 5//// 60047 70041
AAXX 17061 35108 11997 01102 11187 21210 30319 40370 58002 69930 70271 333 21200
AAXX 17061 38196 32998 03602 11064 21166 39318 40340 51003 333 21107
AAXX 17061 38198 31997 00000 11138 21151 30070 40349 57001 70240 333 21190
AAXX 17061 38328 32999 01402 11008 21058 39558 40304 58005 333 21105
AAXX 17061 38334 32998 01002 11040 21123 39317 40311 57007 333 21100
AAXX 17061 38439 31595 83602 11054 21064 39963 40317 58006 71044 83501 333 21071
AAXX 17061 35108 11997 01102 11187 21210 30319 40370 58002 69930 70271 333 21200
AAXX 17061 38196 32998 03602 11064 21166 39318 40340 51003 333 21107
AAXX 17061 38198 31997 00000 11138 21151 30070 40349 57001 70240 333 21190
AAXX 17061 38328 32999 01402 11008 21058 39558 40304 58005 333 21105
AAXX 17061 38334 32998 01002 11040 21123 39317 40311 57007 333 21100
AAXX 17061 38439 31595 83602 11054 21064 39963 40317 58006 71044 83501 333 21071
AAXX 17064 68298 36/// /2105 1//// 2//// 39552 4//// 52004 333 2//// 91010 555 1//// 91022
AAXX 17061 55299 32780 22908 11026 21301 35846 57011 82400 333 00351 21183 91118 91527
AAXX 17061 55591 32980 02504 10108 21274 36493 57021 333 00201 21046
AAXX 17061 56739 32578 21805 10169 20029 38359 57028 82400 333 05101 20040
AAXX 17061 56951 32680 42504 10187 20055 38511 57033 84400 333 05100 20060
AAXX 17061 56964 32580 32202 10179 20112 38732 40171 57028 83200 333 05151 20128
AAXX 17061 57328 11880 82201 10086 21010 39860 40280 57028 69901 72160 885// 333 20069
AAXX 17061 57411 11440 80702 10083 20041 39899 40279 57029 69961 76066 8577/ 333 20070
AAXX 17061 57447 32968 82002 10072 21020 39737 40294 57038 8807/ 333 20050
AAXX 17061 57662 32965 80000 10066 21070 30270 40315 57036 8807/ 333 20047
AAXX 17061 57745 32960 80202 10072 21042 39960 40297 57037 8807/ 333 20052
AAXX 17061 57972 32964 00203 10104 21026 30057 40288 57040 333 20028
AAXX 17061 58203 32970 21404 10052 21114 30295 40339 57037 80002 333 21050
AAXX 17061 58314 32965 01102 10068 21096 30216 40328 57042 333 21067
AAXX 17061 58424 32962 00403 10060 21125 30305 40332 57040 333 21005
AAXX 17061 59023 32965 00701 10138 20021 39936 40252 57045 333 20070
AAXX 17061 59417 32564 71402 10167 20047 30076 40232 57046 878// 333 20128
AAXX 17061 59985 11580 50408 10243 20207 30154 40159 57028 69931 70080 85200 333 20217
AAXX 17061 59995 NIL
BBXX MGSH7 17063 99516 10022 41/98 62719 10060 20036 40044 52020 70211 84/0/ 22253 20201 321// 40603 5//// 80050
BBXX 46185 17061 99524 71298 46/// /2011 10088 40111 57012 22200 00076 10806 70031 333 91214
AAXX 17064 89050 41497 63130 10004 21023 49950 52038 70222 86500
AAXX 17064 89512 11395 81326 10003 20002 39568 49713 57042 60012 77373 8802/ 333 21012
AAXX 17064 89574 42998 21007 11004 21118 49967 57008 80001
AAXX 17064 89592 42999 00000 11010 21088 49913 57010
AAXX 17064 89606 41998 02512 11302 21362 36296 47754 52002 73630 333 21395
BBXX 46185 17061 99524 71298 46/// /2011 10088 40111 57012 22200 00076 10806 70031 333 91214
AAXX 17064 42309 31596 20502 10234 20180 40155 70500 81530 333 59002
AAXX 17064 42314 31596 10503 10232 20132 40160 70500 81500 333 59010 81620
AAXX 17064 42398 31994 09902 10181 20141 40175 71044 333 58004
AAXX 17064 42410 31495 52703 10178 20178 40174 71044 82530 333 58005 82618 84359
AAXX 17064 42415 32996 12303 10234 20151 40179 81030 333 59006 81360
AAXX 17064 42724 31494 73202 10176 20134 40166 71022 87600 333 59006 82710 86618
AAXX 17064 42886 31996 00201 10242 20070 40165 70500 333 59004
AAXX 17064 42895 31996 03604 10238 20069 40164 70500 333 59004
AAXX 17064 42971 31995 00205 10246 20145 40161 70500 333 59006
AAXX 17064 42492 NIL
AAXX 17064 42587 NIL
AAXX 17064 42591 NIL
AAXX 17064 42623 NIL
AAXX 17064 42701 NIL
AAXX 17064 42706 NIL
AAXX 17064 42798 NIL
AAXX 17064 42809 NIL
AAXX 17064 42977 NIL
AAXX 17064 43333 NIL
AAXX 17064 43368 NIL
AAXX 17061 78310 NIL
AAXX 17061 78315 12564 60501 10212 20193 30132 40197 58003 60001 83202 333 10278 20169 30/// 56909 58013 83820 86074
AAXX 17061 78318 12565 50903 10228 20201 30193 40197 58005 60001 85800 333 10283 20167 31/// 56900 58015 84820
AAXX 17061 78322 12556 70201 10216 20190 30185 40202 58007 60001 86402 333 10289 20174 30/// 56909 58014 86820
AAXX 17061 78324 11400 70503 10236 20204 30177 40188 58009 69901 70381 878// 333 10256 20223 30/// 56199 58014 79999 84817 86620 555 10602
AAXX 17061 78325 11530 31201 10224 20193 30143 40201 58005 69911 70181 82240 333 10272 20191 30/// 56990 58014 70001 82820
AAXX 17061 78328 12/62 40901 10234 20200 30199 40/// 58003 60001 82201 333 10258 20225 30/// 56902 58009 828// 84073 555 20009
AAXX 17061 78333 12410 60202 10217 20189 30188 40195 58004 60001 83240 333 10266 20185 30/// 56100 58017 83818 84361 555 10402
AAXX 17061 78344 12850 60403 10213 20190 30140 40189 58004 60001 86040 333 10280 20176 30/// 56090 58009 86358
AAXX 17061 78345 12965 00303 10208 20205 30184 40187 58007 60001 333 10265 20200 31/// 58009 70038
AAXX 17061 78348 11456 10702 10218 20199 30137 40189 58010 60001 70511 81800 333 10261 20213 30/// 56200 58007 70001 81819 555 10901
AAXX 17061 78349 12450 13401 10198 20191 30087 40197 58006 60001 81100 333 10267 20196 31/// 56900 58014 70013 81819
AAXX 17061 78351 12550 10000 10193 20175 30166 40168 58003 60001 81500 333 10300 20172 30/// 56900 58021 81626
AAXX 17061 78353 12560 20902 10235 20203 30160 40182 58011 60001 82800 333 10261 20220 32/// 56900 58008 70035 81820
AAXX 17061 78355 12560 30202 10202 20192 30043 40184 56010 60001 83200 333 10266 20190 30/// 56900 58011 79999 82820
AAXX 17061 78358 12530 30604 10235 20205 30162 40177 58010 60001 83800 333 10279 20201 31/// 56900 58011 70006 82823
AAXX 17061 78360 12560 60103 10232 20189 30158 40169 58009 60001 86800 333 10300 20180 30/// 56900 58012 81820 85630 92022
AAXX 17061 78363 12950 00000 10184 20169 30045 40160 56010 60001 333 10291 20135 30/// 56/// 58009
AAXX 17061 78365 12550 50714 10258 20192 30176 40181 56009 60001 85800 333 10271 20246 31/// 56200 57821 58012 84820 92047 555 10703
AAXX 17061 78369 01464 30608 10250 20198 30159 40168 56008 69951 70380 83200 333 10272 20244 30/// 56900 57860 58011 69957 70006 83818
AAXX 17064 06610 31445 82110 10009 20000 39468 40060 52016 77172 8372/ 333 20009 32000 55000 55300 20000 70107 83710 88520 90768 93100 91121 91212
AAXX 17064 06670 01240 82407 10010 21006 39512 40029 51016 60022 78581 885// 333 20005 3/100 43001 55000 55300 20000 69965 70155 81703 85606 87614 90768 93101 91125 91213
AAXX 17064 06700 01575 72110 10027 21019 39582 40080 53019 60012 78782 878// 333 20010 32000 55000 55300 20000 60005 70167 81620 85830 87645 90768 93100 91130 91212
AAXX 17064 06680 31/01 90002 11124 21124 37295 47809 52025 77394 333 21136 47135 55000 55300 20000 70036 90768 93117 91154 91225
AAXX 17064 06990 01630 80203 10033 21043 39468 40015 52022 69982 77277 887// 333 20023 32002 55000 55300 20000 60005 70082 88739 91127 91215
AAXX 17064 06760 01984 60402 10035 21031 39555 40004 52030 69962 72051 8601/ 333 20014 31001 55000 55300 20000 60005 70083 86459 90768 93100 91116 91209
AAXX 17064 06720 01560 8//// 10009 20001 39474 40057 52020 60052 77377 8802/ 333 20004 3/000 43015 55000 55300 20000 69955 70464 88524 90768 93101
AAXX 17061 24790 41998 81001 11225 21243 39292 40152 53011 77172 8807/
AAXX 17061 24988 42699 73003 11168 21218 39793 40055 53006 82530
AAXX 17061 25378 31996 03211 11148 21229 30065 40099 56002 73830 333 11134 91122
AAXX 17061 25503 42699 61901 11334 21356 30051 40194 53010 83531
AAXX 17061 25705 41698 80601 11286 21303 39814 40176 52010 77072 8252/
AAXX 17061 25927 41696 80419 11065 21111 30024 40031 52013 73932 8732/ 333 91125
AAXX 17061 25932 42999 80811 11082 21157 30011 40049 52014 8805/ 333 91117
AAXX 17061 31152 42998 81802 11294 21324 39757 40200 57009 86036
AAXX 17061 31174 42999 62603 11149 21183 30093 40105 53002 80001
AAXX 17061 31489 42998 01901 11223 21264 30024 40149 53002
AAXX 17061 31866 42999 80000 11110 21252 30124 40130 55005 86047
AAXX 17061 31959 42598 62704 11071 21178 30123 40167 57013 82532
AAXX 17061 31989 42999 02402 11042 21209 30132 40187 56023
AAXX 17061 32027 41599 62910 11153 21204 30056 40065 54000 73632 82932 333 91012 91114
AAXX 17061 32076 42999 81001 11110 21194 30006 40016 56004 8807/ 333 91001 91105
AAXX 17061 32099 42598 83113 11118 21153 30036 40044 56005 889// 333 91015 91119
AAXX 17061 32121 41493 83009 11114 21149 30068 40091 53005 78683 889// 333 91013 91114
AAXX 17061 32213 41598 62919 11038 21071 39851 49915 73732 82501 333 91023 91123
AAXX 17061 32287 41999 20308 11029 21071 39904 49914 52017 73631 82030
AAXX 17061 32408 41597 60405 11033 21047 39888 49926 52013 78582 86900
AAXX 17061 32509 41598 81003 11014 21025 39839 49872 53029 71683 8593/ 333 91115
AAXX 17061 32594 41497 72811 11027 21093 39871 49906 52018 73683 87300 333 91016 91120 92980
AAXX 17064 67002 12580 62803 10292 20237 30087 40120 60064 81502 333 20239 59017 81630 85073 92408
AAXX 17064 67009 32582 70000 10300 20243 39992 40110 51010 83232 333 02300 10325 20240 50304 55080 83820 84360 555 83073
AAXX 17064 67012 32582 52604 10270 20243 30101 40112 51011 878// 333 0//00 10324 20233 50244 55/// 85817 84633
AAXX 17064 67025 31565 81804 10314 20195 39998 40096 55002 7040/ 82801 333 0//00 10320 20222 50314 55/// 82820 555 81640 81070
AAXX 17064 67027 32582 61602 10292 20230 30083 40104 50009 82832 333 02200 10333 20257 50414 55085 81820 83360 555 82640 82073
AAXX 17064 67045 NIL
AAXX 17064 67072 31470 73004 10273 20231 30112 40115 51005 71522 878// 333 02200 10303 20246 50314 55/// 83817 87640 92428
AAXX 17064 67073 32582 4//// 10304 20244 30077 40103 54000 82232 333 0//00 10333 20245 50//4 55/// 82820 555 81360 82073
AAXX 17064 67083 12582 30000 10227 20185 38723 48495 51003 60114 82830 333 01419 20178 50184 55049 82820=10.6 67095 32482 40802 10299 20231 30098 40104 50000 83802 333 02200 10315 20225 30344 55/// 83817 555 81633 82073
AAXX 17064 67113 NIL
AAXX 17064 67117 NIL
AAXX 17064 67137 12480 7//02 10233 20188 38871 48478 50001 69934 83832 333 0//15 10293 20196 50214 55/// 83817 85360 555 81620 81073
AAXX 17064 67143 11580 4//// 10/// 20/// 30099 40106 52009 60394 70161 84800 333 0//24 10/// 20/// 50//4 55/// 82820 84633 92438
AAXX 17064 67152 32982 4//// 10249 20184 39178 48493 51004 81032 333 02200 10344 20202 50944 55/// 81360 84073
AAXX 17064 67157 11470 7//// 10/// 20/// 30104 40111 58010 69954 71762 879// 333 0//16 10/// 20/// 50//4 55/// 82817 81917 87633 94995 95835
AAXX 17064 67161 NIL
AAXX 17064 67197 32580 71206 10287 20227 30077 40087 51005 8485/ 333 01600 10314 20242 50594 55088 83820 85360 555 82633
AAXX 17064 40255 32960 00000 10104 20084 39483 40205 54002 333 20080 30004
AAXX 17064 40260 32960 00000 10055 21001 39428 40225 52005 333 20025 30001
AAXX 17064 40270 31530 30000 10084 20067 39296 40204 52006 71011 83500 333 20060 30100 83630
AAXX 17064 40272 31520 20000 10038 20031 39375 40233 52015 71042 82100 333 21024 30103 82830
AAXX 17064 40290 NIL
AAXX 17064 40340 32960 20106 10100 20056 40197 52004 80001 333 20100 30080 82070
BBXX NIL
AAXX 17064 40250 32960 02104 10046 21007 39397 40209 57004 333 21020 300//
AAXX 17064 40265 31920 20000 10044 20035 39414 40230 53004 71000 80001 333 20014 30102 82070
AAXX 17064 40296 32960 00000 10102 20070 40198 54000 333 20087 30005
AAXX 17064 40310 32960 20000 10047 21036 38973 48511 52006 80001 333 20002 30104 82070
BBXX NIL
BBXX MINFR00 1706/ 99405 70739 46/// ///// 10055 40199 57009
BBXX NIL
BBXX NIL
BBXX NIL
AAXX 17064 67017 NIL
AAXX 17064 67020 12582 60000 10273 20242 30074 40101 51001 60244 86800 333 022// 10358 20214 50494 55/// 83820 86640= RR 24,1 67023 31575 61008 10314 20237 30090 40096 55000 70422 81202 333 01900 10318 20210 50554 55/// 81820 86073
AAXX 17064 67037 12582 5//// 10/// 20/// 30056 40097 5/006 60314 83832 333 0//// 10///20/// 50//3 55/// 81820 83640 444 81360 81073= RR 30,8 67067 11565 7//// 10230 20194 39243 48/// 51006 60034 7102/ 8223/ 333 0//79 10309 20197 50494 55/// 82820 86360
AAXX 17064 67107 NIL
AAXX 17064 67131 32582 62606 10/// 20/// 30088 40093 51004 86800 333 0//00 10/// 20/// 50//4 55/// 84823 555 82640
OOXX AAPEG 17064 99779 31666 57186 00051 46/// /0406 11040 21087 39889 49895 52003 90600
OOXX AAVIT 17064 99785 31778 57087 00501 46/// /1209 11061 21109 39849 49912 52003 90550
AAXX 17061 23973 42999 61803 11262 21294 30389 40459 52003 80004
AAXX 17061 23975 42999 50000 11260 21291 30342 40465 52011 80001
AAXX 17061 23986 42999 40000 11216 21234 39759 40456 52011 80001
AAXX 17061 23987 42999 70000 11275 21307 30381 40465 51003 82031
AAXX 17061 24606 42699 82701 11118 21146 39979 40258 52008 82545
AAXX 17061 29253 41999 60000 11195 21221 30275 40465 52003 70272 80001
AAXX 17061 29471 41595 80000 11154 21167 30214 40460 54000 78582 83907
AAXX 17061 29481 41999 40000 11229 21248 30195 40460 52002 70271 80001
AAXX 17061 29553 41942 60000 11194 21206 30074 40475 52001 71011 80001
AAXX 17061 29562 41998 00000 11197 21216 30010 40468 52002 70271
AAXX 17061 29581 41996 80000 11221 21247 30182 40468 58002 71082 80007
AAXX 17061 29594 41599 42901 11157 21176 30033 40449 58002 70282 82901
AAXX 17061 29653 42997 70000 11211 21230 39945 40478 52003 80008
AAXX 17061 29675 42998 20000 11184 21217 39830 40475 58003 80001
AAXX 17061 29676 41996 80101 11185 21211 39994 40455 58004 77172 80005
AAXX 17061 29752 42999 21001 11108 21144 38937 48572 58002 87031
AAXX 17061 29759 42999 30000 11163 21176 39359 40462 58004 80001
AAXX 17061 29766 42999 71001 11221 21240 30088 40482 58003 80001
AAXX 17061 29789 42999 12001 11195 21214 39190 40475 58011 80001
AAXX 17061 29864 41998 43304 11195 21221 39759 40471 58002 70181 80001
AAXX 17061 29866 41994 80000 11187 21199 30114 40465 58005 77174 80007
AAXX 17061 29869 41997 80000 11184 21196 30062 40469 58006 77171 8802/ 333 95050
AAXX 17061 29956 41895 80702 11165 21184 39859 40463 58002 77172 8807/
AAXX 17061 30337 41598 81803 11131 21151 39907 40380 57011 70282 8492/
AAXX 17061 30405 41998 22601 11252 21284 39879 40469 57009 70281 80001
AAXX 17061 30504 42998 10000 11250 21268 39761 40484 58003 80002
AAXX 17061 30603 41995 00000 11267 21279 39845 40487 57005 71000
AAXX 17061 30612 42999 01401 11291 21330 39896 40502 58008
AAXX 17061 30622 42998 63401 11233 21273 39750 40461 58014 80003
AAXX 17061 30627 42999 02301 11214 21239 39444 40461 58008
AAXX 17061 30703 42999 00000 11201 21242 39727 40462 58007
AAXX 17061 36307 42999 60000 11244 21284 39084 48591 54000 80002
AAXX 17061 23074 41996 81605 11187 21213 30225 40252 57011 77172 8802/
AAXX 17061 23274 41395 81605 11217 21235 30262 40301 58018 77372 8672/ 333 86707
AAXX 17061 23383 41597 80000 11186 21212 39956 40335 52007 77172 8552/
AAXX 17061 23472 41597 71704 11226 21251 30312 40366 58004 77187 87506
AAXX 17061 23678 41997 80000 11249 21274 30358 40423 52006 77171 8807/
AAXX 17061 23884 42984 50000 11235 21254 30369 40452 52005 80001
AAXX 17061 23891 42998 71501 11217 21249 30035 52003 80001
AAXX 17061 24507 42698 63102 11143 21170 30029 40285 52008 83531
AAXX 17061 24817 41999 82602 11117 21137 39873 40255 53005 72682 82045
AAXX 17061 24908 41981 82502 11131 21166 39975 40322 54000 70272 80001
AAXX 17061 29263 41996 70000 11224 21249 30344 40456 58001 77172 82035
AAXX 17061 29282 42997 60000 11278 21303 30241 40433 54000 80001
AAXX 17061 29379 41998 62201 11253 21291 30227 40460 54000 70272 80001
AAXX 17061 29570 41896 40901 11167 21179 30086 40464 52002 77171 84020
AAXX 17061 29698 41996 01801 11237 21261 39904 40475 58009 70400
AAXX 17061 30230 41598 82304 11098 21151 39978 40318 57003 78582 8597/
AAXX 17061 30252 41697 80000 11092 21127 39937 40262 54000 78582 86907
AAXX 17061 30309 41999 52001 11201 21227 39870 40439 58008 70272 80001
AAXX 17061 30328 41598 81602 11200 21233 39970 40435 57013 70282 83931
AAXX 17061 30521 42997 20000 11236 21269 39894 40476 57010 80001
AAXX 17061 30710 41995 02901 11221 21244 39829 40473 58015 71011
AAXX 17064 60667 36/// /0000 10085 21001 333 20080
AAXX 17064 60395 12960 70000 10142 20096 40170 57003 60004 8707/ 333 01000 20125 87360 95900
AAXX 17064 60676 36/// /0311 10092 20000 333 20088
AAXX 17064 60691 36/// /0311 10095 21098 333 20095
AAXX 17064 60633 36/// /0406 10079 21155 333 20079
AAXX 17064 60692 36/// /0108 10125 21056 333 20122
AAXX 17064 60662 36/// /0000 10055 21068 333 20055
AAXX 17061 89064 36/// /1903 10006 29075 49974 52047
AAXX 17064 60664 36/// /0000 10037 21083 333 20036
AAXX 17064 63729 12480 70000 10212 20184 38875 48/// 60024 8393/ 333 0//12 20180 50511 55047 55300 59006 83617 81919 87359
AAXX 17064 63733 12580 70000 10217 20176 38871 48511 69984 81931 333 0//19 20180 50641 55103 55300 59005 81920 87359
AAXX 17064 63756 12580 71206 10222 20190 38879 48515 69904 8397/ 333 0//19 20195 50401 55110 55300 58000 83821 81922 87359
AAXX 17064 63791 32580 10000 10255 20178 39136 48522 81200 333 20184 50851 55110 55310 59004 81825
AAXX 17064 63801 11480 72705 10210 20182 39219 48538 69904 79196 8197/ 333 0//11 50501 55067 55300 59009 81819 81920 87359
AAXX 17064 63832 12480 70000 10195 20188 38840 48513 60204 8393/ 333 20176 50031 55102 55300 58004 83816 81917 87358
AAXX 17064 63862 32580 11010 10242 20186 38906 48518 81230 333 20204 50951 55105 55310 59006 81822
AAXX 17064 63866 32580 41807 10255 20203 39517 48/// 84500 333 20212 50601 55011 55310 59009 84622
AAXX 17064 63870 32580 50307 10298 20251 30096 40114 85200 333 20243 50051 55112 55300 59008 85820
AAXX 17064 63881 01480 71402 10184 20141 38211 48/// 60094 70196 81930 333 0//19 20134 50131 55053 55301 59006 69947 81818 81920 84076
AAXX 17064 63887 32480 70000 10221 20152 38595 48514 81101 333 20161 50601 55101 59006 81819 87075
AAXX 17064 63894 32580 50210 10290 20256 30075 40117 85200 333 20243 50651 55118 55305 58010 85822
AAXX 17064 63932 32580 60000 10184 20150 38324 48522 81102 333 20122 50551 55083 55300 59001 81823 86078
AAXX 17064 63971 32580 63610 10284 20250 399983 40111 869// 333 20240 55310 59009 86823 81924
AAXX 17064 63962 NIL
AAXX 17064 60677 36/// /0000 11003 21088 333 21003
AAXX 17064 60672 36/// /3206 10046 21148 333 20044
AAXX 17064 60661 36/// /1603 10015 21116 333 20014
AAXX 17064 67755 12475 70801 10254 20223 38/// 48/// 60044 81131 333 20210 5//// 81815 87358
AAXX 17064 67843 12380 71107 10220 20201 38962 48520 60214 8567/ 333 20193 58002 85706 87358
OOXX AAERC 17064 99815 31639 60713 00451 46/// /0104 11049 21127 39831 49887 52007 90600
AAXX 17061 51711 11980 22702 11118 21167 38039 57010 69901 70070 80002 333 05153 21139
AAXX 17061 51730 32972 13401 11027 21076 40357 57005 80002 333 00051 21132
AAXX 17061 52112 32970 30401 11069 21158 40400 57016 80002 333 00152 21147
AAXX 17061 52737 32780 52202 11060 21259 37098 57014 82502 333 00352 21134
AAXX 17061 52787 32780 71605 11057 21201 37027 57013 85502 333 00152 21123
AAXX 17061 53352 32980 03601 11063 21189 40396 57013 333 21198
AAXX 17061 53593 32965 00201 11053 21218 40379 57028 333 21191
AAXX 17061 53705 32965 73201 11038 21115 40361 57023 80002 333 00151 21096
AAXX 17061 53863 31957 70901 11016 21109 40356 57031 70400 80002 333 21115
AAXX 17061 53975 32966 71601 11002 21116 40335 57038 80002 333 21079
AAXX 17061 54273 32970 02703 11094 21205 40301 57014 333 21305
AAXX 17061 54324 32970 03203 11005 21265 40308 57015 333 21162
AAXX 17061 54405 32970 02706 11011 21212 40344 57027 333 21138
AAXX 17061 54436 32980 00903 10013 21218 40316 57029 333 21170
AAXX 17061 54808 32963 81803 10030 21078 40330 57037 80007 333 21071
AAXX 17061 54826 32970 72908 11051 21235 38513 57023 80002 333 21119
AAXX 17061 54836 32970 12703 10013 21136 40345 57026 80002 333 21108
AAXX 17061 54863 32970 22703 10010 21150 40332 57030 80002 333 21083
AAXX 17061 56018 32980 72904 11039 21283 36171 57015 80002 333 00302 21087
AAXX 17061 56021 32980 73204 11074 21304 36065 57017 80002 333 00400 21169
AAXX 17061 57071 32961 72202 10030 21075 40324 57034 80002 333 21049
AAXX 17064 71351 16/// /2202 11013 21053 60001 333 10029 21128 70000
AAXX 17064 71353 16/// /2004 11003 21083 60001 333 10011 21069 70004
AAXX 17064 71385 46/// /3018 11087 6///1 333 10050 21089 7//// 555 33042 40203
AAXX 17064 71445 17/// /1918 11083 21099 39829 40113 56044 60011 7//4/ 333 11083 21173 70014 555 10020 20014 31730 40042
AAXX 17064 71214 16/// /1605 11084 21104 60001 333 10019 21115 70000
AAXX 17064 71223 16/// /2208 11074 21109 60001 333 10023 21118 70000 555 32220 40161
AAXX 17064 71225 16/// /2108 11017 21038 60001 333 10032 21114 70000 555 32519 40001
AAXX 17064 71227 46/// /2306 11044 21070 6///1 333 10004 21131 7////
AAXX 17064 71916 46/// /2101 11386 21422 30074 40133 53005 6///1 333 11249 21387 7////
AAXX 17064 71862 12974 02408 11071 21085 39496 40216 58010 60001 333 11035 21131 79999 555 19999 29999 32418 40010
AAXX 17064 71345 16/// /2210 10015 21026 60001 333 10046 21097 70000
AAXX 17064 71464 46/// ///22 10001 39999 40216 58004 6///1 333 10027 20001 7////
AAXX 17064 71466 46/// ///// 11003 30017 40259 5/001 6///1 333 7////
AAXX 17064 71525 16/// /2308 11035 21050 60001 333 10015 21120 70000 555 32017 40141
AAXX 17064 71535 16/// /2208 10012 21021 60001 333 10043 21105 70000 555 32418 40031
AAXX 17064 71536 16/// /2515 10039 21014 60001 333 10045 21107 70000 555 32729 40182
AAXX 17064 71537 17/// /2007 11125 21136 69941 7//4/ 333 11022 21175 7////
AAXX 17064 71257 17/// /1605 11061 21094 60011 7//4/ 333 11019 21115 70016
AAXX 17064 71258 16/// /2309 11003 21070 60001 333 10012 21091 70000
AAXX 17064 71259 16/// /0503 11141 21158 60001 333 11052 21161 70000
AAXX 17064 71274 16/// /3201 11088 21103 60001 333 11008 21169 70000
AAXX 17064 71275 46/// /2402 11087 21097 6///1 333 11004 21136 7//// 555 32620 40211
AAXX 17064 71278 46/// /2603 11037 21067 6///1 333 7////
AAXX 17064 71286 16/// /2506 11037 21062 60001 333 10015 21147 70000
AAXX 17064 71287 16/// /1901 11072 21085 60001 333 10006 21141 70000
AAXX 17064 71289 16/// /1912 11055 21093 60001 333 10033 21098 70000
AAXX 17064 71679 17/// /0503 10010 20006 39113 40128 58016 69951 7//4/ 333 10020 21042 70018
AAXX 17064 71683 46/// /0000 11241 39991 40106 58006 6///1 333 11235 21252 7////
AAXX 17064 42027 31595 40000 10032 21042 38488 48574 70500 82501 333 58025
AAXX 17064 42071 31995 43206 10171 20043 40188 70541 80002 333 59003 84070
AAXX 17064 42101 31995 00000 10142 20068 40189 70500 333 59004
AAXX 17064 42111 31994 11802 10162 20093 39380 40155 71000 80001 333 58019 81075
AAXX 17064 42131 32996 02702 10188 20053 40191 333 59004
AAXX 17064 42165 32996 01401 10218 20009 40181 333 58000
AAXX 17064 42182 31994 02706 10186 20050 40189 70510 333 59007
AAXX 17064 42189 31/92 90901 10099 20098 40206 74744 89/// 333 58005
AAXX 17064 42328 32996 00502 10232 20007 40171 333 59005
AAXX 17064 42339 31995 00502 10224 20027 40163 70500 333 59010
AAXX 17064 42348 31995 01804 10198 21009 40189 80001 333 70500
AAXX 17064 42361 31995 00000 10196 20117 40193 70500 333 58002
AAXX 17064 42369 31993 09902 10112 20100 40190 71144 333 59005
AAXX 17064 42379 31/92 90000 10106 20081 40194 74344 89/// 333 58001
AAXX 17064 42452 31995 01402 10200 20054 40190 70400 333 58003
AAXX 17064 42475 31994 00000 10156 20107 40191 71000 333 59005
AAXX 17064 42260 NIL
AAXX 17064 71862 12974 02408 11071 21085 39496 40216 58010 60001 333 11035 21131 79999 555 19999 29999 32418 40010
AAXX 17064 71214 16/// /1605 11084 21104 60001 333 10019 21115 70000
AAXX 17064 71223 16/// /2208 11074 21109 60001 333 10023 21118 70000 555 32220 40161
AAXX 17064 71225 16/// /2108 11017 21038 60001 333 10032 21114 70000 555 32519 40001
AAXX 17064 71227 46/// /2306 11044 21070 6///1 333 10004 21131 7////
AAXX 17064 71345 16/// /2210 10015 21026 60001 333 10046 21097 70000
AAXX 17064 71445 17/// /1918 11083 21099 39829 40113 56044 60011 7//4/ 333 11083 21173 70014 555 10020 20014 31730 40042
AAXX 17064 71916 46/// /2101 11386 21422 30074 40133 53005 6///1 333 11249 21387 7////
AAXX 17064 71464 46/// ///22 10001 39999 40216 58004 6///1 333 10027 20001 7////
AAXX 17064 71466 46/// ///// 11003 30017 40259 5/001 6///1 333 7////
AAXX 17064 71679 17/// /0503 10010 20006 39113 40128 58016 69951 7//4/ 333 10020 21042 70018
AAXX 17064 71683 46/// /0000 11241 39991 40106 58006 6///1 333 11235 21252 7////
AAXX 17064 71351 16/// /2202 11013 21053 60001 333 10029 21128 70000
AAXX 17064 71353 16/// /2004 11003 21083 60001 333 10011 21069 70004
AAXX 17064 71385 46/// /3018 11087 6///1 333 10050 21089 7//// 555 33042 40203
AAXX 17064 71257 17/// /1605 11061 21094 60011 7//4/ 333 11019 21115 70016
AAXX 17064 71258 16/// /2309 11003 21070 60001 333 10012 21091 70000
AAXX 17064 71259 16/// /0503 11141 21158 60001 333 11052 21161 70000
AAXX 17064 71274 16/// /3201 11088 21103 60001 333 11008 21169 70000
AAXX 17064 71275 46/// /2402 11087 21097 6///1 333 11004 21136 7//// 555 32620 40211
AAXX 17064 71278 46/// /2603 11037 21067 6///1 333 7////
AAXX 17064 71286 16/// /2506 11037 21062 60001 333 10015 21147 70000
AAXX 17064 71287 16/// /1901 11072 21085 60001 333 10006 21141 70000
AAXX 17064 71289 16/// /1912 11055 21093 60001 333 10033 21098 70000
AAXX 17064 71525 16/// /2308 11035 21050 60001 333 10015 21120 70000 555 32017 40141
AAXX 17064 71535 16/// /2208 10012 21021 60001 333 10043 21105 70000 555 32418 40031
AAXX 17064 71536 16/// /2515 10039 21014 60001 333 10045 21107 70000 555 32729 40182
AAXX 17064 71537 17/// /2007 11125 21136 69941 7//4/ 333 11022 21175 7////
BBXX CFO383 17064 99439 70602 47598 /3017 10055 2000/ 40113 5//// 700// 8/ // 22200 0//// 1//// 2//// 3//// 70// 80034 333 91025
BBXX CFO383 17064 99439 70602 47598 /3017 10055 2000/ 40113 5//// 700// 8/ // 22200 0//// 1//// 2//// 3//// 70// 80034 333 91025
AAXX 17064 68513 36/// /1310 10175 20130 30033 40145 53005 333 20109 91013 555 10232 91014
AAXX 17064 68514 32/// /1905 10237 21061 39673 48549 52002 333 20165 91009 555 10367 91015
AAXX 17064 68523 36/// /1703 10213 21080 39119 48536 53006 333 20128 91005 555 10325 91018
AAXX 17064 68527 36/// /0503 10230 21009 39088 48534 52010 333 20142 91005 555 10347 91018
AAXX 17064 68572 36/// /0202 10173 20120 38437 48545 58000 333 20135 91004 555 10265 91024
AAXX 17064 68575 16/// /0902 10155 20138 39144 48560 53001 69924 333 20144 91005 555 10230 20002 91022
AAXX 17064 68581 36/// /1303 10196 20151 39424 48570 50000 333 20151 91005 555 10246 91021
AAXX 17064 68583 16/// /0403 10236 20172 30086 40195 53002 69924 333 20186 91006 555 10260 20002 91019
AAXX 17064 68589 36/// /0602 10172 20115 38297 48557 52004 333 20128 91004 555 10243 91026
AAXX 17064 68613 36/// /3403 10177 20126 30049 40165 53003 333 20101 91005 555 10218 91016
AAXX 17064 68647 36/// /3302 10174 20123 38955 48550 53002 333 20153 91005 555 10285 91022
AAXX 17064 68651 36/// /3402 10153 20122 38599 48560 52011 333 20127 91005 555 10237 91025
AAXX 17064 68715 36/// /2602 10198 20140 30028 40154 53000 333 20118 91004 555 10269 91015
AAXX 17064 68717 36/// /0103 10181 20126 30009 40153 51003 333 20107 91006 555 10293 91015
AAXX 17064 68723 36/// /0910 10224 20103 39412 48550 58001 333 20155 91017 555 10322 91017
AAXX 17064 68737 31975 02902 10200 20118 39268 48543 57005 70500 333 20158 91004 555 10311 91018
AAXX 17064 68744 32980 02502 10206 20124 39126 48543 50000 333 20137 91004 555 10307 91019
AAXX 17064 68747 36/// /1203 10197 20154 39650 48562 52008 333 20159 91004 555 10272 91018
AAXX 17064 68754 36/// /3607 10211 20138 39173 48564 53000 333 20142 91012 555 10256 91021
AAXX 17064 68817 NIL
AAXX 17064 68821 36/// /1702 10182 20111 39914 40153 51001 333 20122 91003 555 10294 91015
AAXX 17064 68835 36/// /3302 10195 20152 30050 40164 58006 333 20141 91004 555 10262 91016
AAXX 17064 68843 36/// /0715 10236 20152 30066 40163 58002 333 20167 91021 555 10236 91016
AAXX 17064 68849 36/// /0409 10196 20144 39431 48545 51002 333 20148 91012 555 10240 91018
AAXX 17064 68912 36/// /1610 10175 20149 30142 40151 50000 333 20145 91013 555 10208 91015
AAXX 17064 68918 36/// /2805 10192 20134 30132 40150 57002 333 20153 91007 555 10218 91015
AAXX 17064 68921 36/// /0307 10210 20170 30156 40159 58001 333 20182 91009 555 10239 91015
AAXX 17064 68925 36/// /0000 10165 20130 39788 40152 54000 333 20103 91002 555 10235 91015
AAXX 17064 68926 32970 20903 10201 20136 39975 40152 57005 80002 333 20124 91005 555 10288 91015
AAXX 17064 68935 36/// /0000 10194 20143 30090 40153 58005 333 20130 91002 555 10229 91015
AAXX 17064 62423 32960 00000 10074 20060 40219 52008 333 20058
AAXX 17064 62357 32560 32404 10118 20100 40203 52009 83500 333 20110
AAXX 17064 62403 32960 43602 10089 20025 40204 52020 80004 333 20082
AAXX 17064 62423 32960 00000 10074 20060 40219 52008 333 20058
AAXX 17064 62357 32560 32404 10118 20100 40203 52009 83500 333 20110
AAXX 17064 62403 32960 43602 10089 20025 40204 52020 80004 333 20082
AAXX 17061 38886 31496 80601 10004 21012 30015 40251 57004 71011 886// 333 21024
AAXX 17064 68817 NIL
AAXX 17061 40001 32570 50905 10061 20026 40206 53013 83550/ 333 20028 30/// 83626 85360
AAXX 17061 40007 11526 80702 10059 20050 40184 53006 60062 76220 8557/ 333 20016 31/// 85626 88360
AAXX 17061 40025 11560 52505 10164 20117 40161 53006 60112 76662 85800 333 20146 32/// 82826 84630
AAXX 17061 40045 31950 20000 10024 21032 40215 53004 71000 80002 333 21012 30/// 82070
AAXX 17061 40061 32970 02601 10018 21034 40194 53003 333 21018 30///
AAXX 17061 40080 31930 01702 10033 21002 39475 40201 520121 71000 333 21010 30///
AAXX 17061 40087 NIL
AAXX 17061 40095 NIL
AAXX 1706/ 89767 46/// ///// 11086 39924 4//// 5////
AAXX 17061 50548 32980 22905 11105 21227 40234 57013 80002 333 21269
AAXX 17061 50564 32570 12903 11124 21207 40204 57003 81100 333 21205
AAXX 17061 51334 11770 70901 11060 21086 40389 57009 69911 77077 82502 333 05251 21075
AAXX 17061 51818 32965 03204 11024 21077 40338 57004 333 00001 21115
AAXX 17061 52378 32980 22902 11061 21205 40409 57011 80002 333 00202 21157
AAXX 17061 53487 32970 00401 11040 21207 40378 57021 333 21194
AAXX 17061 53502 32980 60901 11076 21201 40411 57018 80002 333 00151 21190
AAXX 17061 53923 11980 72501 11006 21074 40320 57033 69901 70070 83042 333 21056
AAXX 17061 54049 32970 02904 11076 21226 40291 57001 333 21187
AAXX 17061 54115 32980 03603 11068 21207 40343 57009 333 21148
AAXX 17061 54157 32970 02502 11082 21220 40303 54000 333 21160
AAXX 17061 54186 32670 22506 11113 21225 40273 57006 82500 333 21223
AAXX 17061 54311 32980 02907 11073 21244 40351 57009 333 21220
AAXX 17061 54346 32970 02703 11035 21232 40307 57014 333 21175
AAXX 17061 54377 32970 00000 11074 21184 40317 57029 333 21211
AAXX 17061 54386 32970 02501 11105 21227 40304 57030 333 21282
AAXX 17061 54493 32974 00401 11046 21184 40313 57022 333 21202
AAXX 17061 54587 NIL
AAXX 17061 54715 32964 62202 10023 21093 40331 57034 80001 333 21093
AAXX 17061 54929 32980 72901 10027 21149 40340 57036 80002 333 21095
AAXX 17061 54945 32980 22701 10028 21163 40342 57031 80002 333 21078
AAXX 17061 56065 11680 73203 11061 21128 36607 57015 69911 70070 878// 333 00151 21136
AAXX 17061 57193 32962 61602 10048 21105 40332 57035 80002 333 21035
AAXX 17061 57290 32962 00901 10057 21082 40328 57041 333 21027
AAXX 17061 40650 11940 23002 10076 20053 40213 52011 60002 71011 81032
AAXX 17061 40604 12960 10000 10098 20030 40203 52011 60002 80030
AAXX 17061 40608 11550 70000 10086 20045 40218 52014 60002 70502 87800
AAXX 17061 40621 12960 00000 10085 20040 40236 52005 60002
AAXX 17061 40629 12960 00000 10045 20005 40236 52012 60002
AAXX 17061 40634 12960 00000 10040 21016 40214 53005 60002
AAXX 17061 40645 12960 23301 10070 20035 40218 52009 60002 80002
AAXX 17061 40656 11950 30000 10076 20033 40196 52013 60002 701011 83030
AAXX 17061 40665 12960 00000 10100 20030 40215 52014 60002
AAXX 17061 40670 12960 30000 10097 20057 40201 50011 60002 80002
AAXX 17061 40672 11958 00000 10084 20045 40216 51008 60002 70500
AAXX 17061 40676 12960 00000 10100 20000 40211 52010 60002
AAXX 17061 40680 12960 23001 10090 21015 40192 52014 60002 80001
AAXX 17061 40689 12960 02702 10108 20025 40208 52019 60002
AAXX 17061 40691 12960 00000 10142 20066 40218 52016 60002
AAXX 17061 01212 16/// /2008 10037 20004 39866 49881 53016 60004 333 20036 70000 91112
AAXX 17061 47008 12570 40000 11002 21056 30177 40232 57013 69901 82550
AAXX 17061 47014 42950 00000 11125 21208 39860 40289 58027
AAXX 17061 47016 42970 00000 11103 21176 39376 40293 57038
AAXX 17061 47020 42965 00000 11086 21157 39919 40319 58030
AAXX 17061 47025 42968 02301 10035 21043 30195 40224 57020
AAXX 17061 47035 42970 00000 11029 21083 30329 40338 57022
AAXX 17061 47041 42970 02003 10024 21191 30203 40231 57027
AAXX 17061 47055 42970 02704 11008 21109 30227 40274 57015
AAXX 17061 47058 42960 00000 11037 21166 30271 40320 57022
AAXX 17061 47069 42965 02303 11002 21060 30208 40311 57024
AAXX 17061 47003 42980 00504 11011 21218 30221 40225 57020
AAXX 17061 47005 41980 01402 11127 21199 38587 57007 70030
AAXX 17061 47022 42975 03603 11079 21213 38821 57015
AAXX 17061 47028 42969 00000 11028 21130 30198 40296 57027
AAXX 17061 47031 42970 03203 11090 21170 38939 57007
AAXX 17061 47037 42970 00000 11035 21177 30188 40317 58018
AAXX 17061 47039 42960 00000 11054 21160 30109 40309 57030
AAXX 17061 47046 42969 02305 10023 21097 30202 40225 57020
AAXX 17061 47050 42965 00000 11021 21152 30271 40312 57021
AAXX 17061 47052 42965 02905 11051 21168 39950 40304 57023
AAXX 17061 47060 42560 60702 11023 21087 30253 40316 57020 86020
AAXX 17061 47061 42980 03202 10014 21125 30211 40256 57017
AAXX 17061 47065 42970 10000 11024 21122 30266 40336 57006
AAXX 17061 47067 42965 03204 11020 21137 30211 40336 58025
AAXX 17061 47068 11560 80501 11016 21046 30268 40304 57022 69901 77271 86502
AAXX 17061 47070 42970 00000 11011 21131 30227 40318 57022
AAXX 17061 47075 42980 02506 11052 21177 39810 40257 57007
AAXX 17061 47101 32975 02005 11020 21199 30212 40312 57026
AAXX 17061 47105 369// /2510 10021 21219 30222 40255 56012
AAXX 17061 47108 32970 12908 11023 21157 30206 40317 57020 80002
AAXX 17061 47115 32568 52505 10034 21055 39963 40239 57018 85500 333 92002
AAXX 17061 47133 32973 03404 10009 21143 30229 40317 57017
AAXX 17061 47138 32975 00000 10032 21210 30276 40279 55013 333 92031
AAXX 17061 47159 32975 02504 10042 21136 30196 40283 56014 333 92022
AAXX 17061 47165 32670 53611 10026 21031 30263 40311 57016 85500 333 92024
AAXX 17061 47168 32970 03414 10032 21101 30206 40287 56012 333 92024
AAXX 17061 47184 42670 73212 10058 21020 30283 40309 57010 87500 333 92034
AAXX 17061 47090 32975 02707 10012 21205 30228 40251 55020 333 92013
AAXX 17061 47095 32972 02503 11042 21196 30119 40318 57018
AAXX 17061 47097 329// /3206 11012 21170 30218 40318 57018
AAXX 17061 47098 329// /3405 11020 21169 30171 40311 57023
AAXX 17061 47099 329// /0502 11010 21168 30277 40315 57026
AAXX 17061 47100 32970 02513 11066 21221 39319 40279 55013
AAXX 17061 47102 41670 52913 10013 21035 30115 40298 57026 72688 85500
AAXX 17061 47104 32975 00904 10021 21244 30154 40253 56013
AAXX 17061 47106 329// /1605 10032 21202 30204 40254 57013
AAXX 17061 47112 32970 23206 11004 21111 30226 40313 57021 80001 333 92012
AAXX 17061 47114 32970 02306 11031 21195 30126 40317 57016
AAXX 17061 47119 32670 23206 11002 21104 30271 40315 57020 81500
AAXX 17061 47121 329// /2506 11014 21189 39994 40299 57028
AAXX 17061 47127 329// /3207 11021 21173 30171 40319 57019
AAXX 17061 47129 32668 30206 10006 21065 30287 40324 57014 83500
AAXX 17061 47130 32975 02007 10039 21204 30195 40258 55011 333 92023
AAXX 17061 47131 32670 13203 11006 21131 30245 40318 57017 81500
AAXX 17061 47135 329// /2713 11012 21158 39994 40304 55018
AAXX 17061 47136 32975 02710 10005 21177 30110 40288 57024
AAXX 17061 47137 329// /2708 11003 21175 30179 40302 56017
AAXX 17061 47140 32670 52903 10001 21059 30288 40318 57015 85500 333 92011
AAXX 17061 47143 32978 02908 10023 21157 30221 40302 57019
AAXX 17061 47145 32670 12908 11004 21095 30285 40312 57018 81500
AAXX 17061 47146 32672 63204 10002 21092 30249 40317 57012 86500
AAXX 17061 47150 32670 43403 10018 21062 30294 40314 57016 84500
AAXX 17061 47152 32978 02906 10038 21154 30234 40277 55016
AAXX 17061 47154 329// /2707 10014 21165 30237 40299 57020
AAXX 17061 47155 32975 01407 10027 21116 30237 40284 57020
AAXX 17061 47156 32670 23205 10017 21056 30221 40313 57014 82500
AAXX 17061 47157 32975 03607 10018 21124 30001 40278 57017
AAXX 17061 47162 32975 02903 10046 21088 30243 40284 57019 333 92022
AAXX 17061 47169 32675 63416 10035 21033 30216 40312 57008 86500 333 92054
AAXX 17061 47170 32673 43410 10032 21047 30259 40304 57014 84500 333 92023
AAXX 17061 47171 329// /3604 10005 21068 30262 40319 57013
AAXX 17061 47172 329// /3206 10005 21055 30244 40313 57013
AAXX 17061 47173 329// /3608 10012 21094 30194 40309 57015
AAXX 17061 47174 32675 13211 10019 21088 30087 40295 57015 81500
AAXX 17061 47175 32570 63411 11010 21030 39712 40306 57012 85500 333 92024
AAXX 17061 47185 32675 63222 10063 21018 30211 40304 56013 86500 333 92046
AAXX 17061 47188 32675 63604 10056 20001 30275 40297 57014 85500 333 92022
AAXX 17061 47189 32675 21406 10091 20000 30224 40284 57015 82500 333 92033
AAXX 17061 47192 32978 03402 10051 21115 30246 40284 57021
AAXX 17064 68174 31470 30000 10166 20126 38834 48554 52011 70500 82501 333 20140 91003 555 10251 91023
AAXX 17064 68191 36/// /1713 10212 20129 39696 48587 53008 333 20165 91018 555 10268 91020
AAXX 17064 68242 32580 30314 10210 20138 38752 48533 53008 83500 333 20167 91018 555 10310 91020
AAXX 17064 68262 36/// /0604 10219 20146 38746 48555 53008 333 20180 91008 555 10316 91023
AAXX 17064 68263 32580 30305 10194 20149 38525 48551 53007 83500 333 20154 91008 555 10285 91024
AAXX 17064 68267 NIL
AAXX 17064 68289 16/// /1503 10217 20137 39203 48576 52007 69924 333 20176 91014 555 10256 20002 91022
AAXX 17064 68350 36/// /0305 10225 20161 38705 48557 52018 333 20153 91009 555 10339 91023
AAXX 17064 68368 41960 60804 10173 20154 38363 48562 52013 70522 866// 333 20142 555 10277 91026
AAXX 17064 68403 36/// /1903 10160 20118 30138 40171 53001 333 20143 91005 555 10223 91017
AAXX 17064 68424 32982 00802 10268 21084 39199 48537 53002 333 20132 91004 555 10369 91016
AAXX 17064 68438 32982 00410 10239 20055 38836 48535 52008 333 20097 91015 555 10323 91020
AAXX 17064 68442 32982 00212 10208 20133 38691 48544 52006 333 20092 91016 555 10243 91022
AAXX 17064 68461 32480 60305 10167 20123 38366 48552 53003 86500 333 20130 91007 555 10268 91025
AAXX 17064 68512 32982 01505 10226 21080 39029 48533 53006 333 20174 91007 555 10284 91018
AAXX 17064 68538 32982 01210 10218 20113 38738 48525 52008 333 20147 91013 555 10311 91019
AAXX 17064 68587 36/// /0507 10241 20181 30177 40189 52002 333 20205 91014 555 10250 91019
AAXX 17064 68588 16/// /0408 10245 20155 30193 40209 53001 69924 333 20203 91012 555 10284 20002 91020
AAXX 17064 68591 36/// /0407 10233 20187 30021 40200 52005 333 20200 91014 555 10254 91020
AAXX 17064 68592 NIL
AAXX 17064 68618 32980 00908 10238 20039 39063 48539 52003 333 20080 91011 555 10303 91018
AAXX 17064 68633 36/// /1106 10217 20094 38534 48529 52006 333 20130 91011 555 10296 91021
AAXX 17064 68668 32570 71006 10187 20140 39334 48557 52003 875// 333 20166 91008 555 10252 91020
AAXX 17064 68714 36/// /1909 10194 20143 30116 40152 52005 333 20130 91012 555 10236 91015
AAXX 17064 68727 36/// /0903 10178 20121 39142 48525 57000 333 20137 91005 555 10304 91018
AAXX 17064 68752 36/// /0610 10221 20160 39497 48563 52009 333 20162 91014 555 10252 91018
AAXX 17064 68816 32980 03002 10183 20146 30101 40155 51010 333 20138 91004 555 10246 91015
AAXX 17064 68828 32970 11104 10185 20156 39923 40154 55004 80001 333 20117 555 10216 91015
AAXX 17064 68842 32580 10606 10206 20157 30097 40166 58006 81500 333 20135 555 10235 91016
AAXX 17064 68858 32580 10514 10229 20156 30027 40181 50007 81500 333 20189 555 10249 91018
AAXX 17064 68906 11598 72613 10078 20045 30001 40066 56001 60144 72588 8526/ 222// 00116 20401 319// 40602 333 20065 91021 555 10158 20145 91006
AAXX 17064 68994 12598 10904 10101 20024 30179 40208 52016 69974 81100 222// 00075 309// 40603 333 20033 91009 555 10129 20007 91020
AAXX 17064 89004 31000 80919 11067 21066 38767 49766 57007 77577 886// 333 21071 91023 555 11061
AAXX 17064 64700 31930 20408 10140 21001 39790 40135 80001 333 0//00 20132 50811 55102 59016 82075
AAXX 17064 64701 NIL
AAXX 17064 64702 NIL
AAXX 17064 64705 31958 23606 10134 20040 3//// 4//// 705// 80002 90555 333 0//00 2//// 50664 55/// ///// 5//// 82075
AAXX 17064 64706 33960 30000 10158 20068 39646 40122 80002 333 01200 20140 51174 55101 59005 83075
AAXX 17064 64708 NIL
AAXX 17064 64709 NIL
AAXX 17064 64710 NIL
AAXX 17064 64713 NIL
AAXX 17064 64722 33962 10000 10170 20074 3//// 4//// 80002 90600 333 0//00 20120 50454 ///// 55/// 5//// 81075
AAXX 17064 64750 32960 63206 10175 20055 39698 40111 80002 90603 333 01200 20153 50631 55090 59001 86075
AAXX 17064 64751 33960 30404 10137 21005 3//// 4//// 83032 90555 333 0//00 20128 50614 ///// 55/// 5//// 83365 64753 33960 30410 10135 20038 3//// 4//// 80002 90555 333 0//00 20125 50894 ///// 55/// 5//// 83075
AAXX 17064 64754 33960 60000 10195 20060 3//// 4//// 80002 90605 333 0//0020125 50474 ///// 55/// 5//// 86075
AAXX 17064 64756 33962 60000 10190 21030 39507 4//// 80002 90550 333 0//00 20150 5//// ///// 55/// 59014 86075
AAXX 17064 64757 NIL
AAXX 17064 64758 NIL
AAXX 17064 64761 NIL
AAXX 17061 40001 32570 50905 10061 20026 40206 53013 83550 333 20028 30 83626 85360
AAXX 17061 40007 11526 80702 10059 20050 40184 53006 60062 76220 8557 333 20016 31 85626 88360
AAXX 17061 40025 11560 52505 10164 20117 40161 53006 60112 76662 85800 333 20146 32 82826 84630
AAXX 17061 40045 31950 20000 10024 21032 40215 53004 71000 80002 333 21012 30 82070
AAXX 17061 40061 32970 02601 10018 21034 40194 53003 333 21018 30
AAXX 17061 40080 31930 01702 10033 21002 39475 40201 520121 71000 333 21010 30
AAXX 17061 40087 NIL
AAXX 17061 40095 NIL
BBXX C6FY8 17064 99544 71661 41697 71325 10040 21210 49870 56050 70322 8776/ 22263 00060 20103 320// 40306 5//// 6//// 81020 ICE /////
BBXX SBLI 17061 99300 71630 43/98 40908 10188 40266 53012 22264 00223 2//// 4////
BBXX SHIP 17064 99310 71779 41998 22028 10220 20206 40148 50/// 70301 8//// 90550 22264 00220 2//// 3//// 4//// 5//// 80210
AAXX 17064 68267 NIL
AAXX 17064 68592 NIL
AAXX 17061 50658 32975 02502 11144 21194 40238 57002 333 21194
AAXX 17061 50888 32980 32704 11117 21189 40197 52001 83030 333 21177
AAXX 17061 50983 11970 82504 11129 21194 40208 57004 69941 72270 83037 333 21200
AAXX 17061 51053 11961 70702 11102 21128 40409 57005 69901 77070 85032 333 05101 21138
AAXX 17061 51542 11680 31101 11147 21186 37570 57009 69931 70070 81502 333 05151 21241
AAXX 17061 52436 32980 62904 11028 21131 38545 40377 57011 80002 333 00300 21159
AAXX 17061 52908 32580 62706 11112 21292 35745 57009 82102 333 00401 21222
AAXX 17061 52996 11456 83401 11061 21062 37583 57015 69901 71070 885// 333 00052 21079
AAXX 17061 53083 32980 02201 11178 21226 40443 57002 333 00005 21324
AAXX 17061 53764 32965 21802 11005 21148 40357 57023 80002 333 21113
AAXX 17061 53787 32980 72501 10004 21148 40345 57028 80002 333 21145
AAXX 17061 54096 32970 22910 11125 21212 40222 57007 80002 333 21203
AAXX 17061 54226 32980 03203 11050 21229 40321 57002 333 21170
AAXX 17061 54259 32980 02503 11067 21200 40307 57014 333 21250
AAXX 17061 54527 32965 02703 10011 21141 40331 57029 333 21087
AAXX 17061 54534 32970 02704 10016 21184 40316 57032 333 21143
AAXX 17064 42559 32996 00502 10222 20085 40172 333 58004
AAXX 17064 42571 32996 00000 10204 20018 40181 333 58001
AAXX 17064 42667 31996 01403 10226 20104 39582 40171 70500 333 58000
AAXX 17064 42675 31996 00000 10214 20053 40177 70500 333 59003
AAXX 17064 42754 31996 01805 10238 20069 39526 40160 70500 333 59002
AAXX 17064 42779 32996 03201 10218 20036 39470 40170 333 59004
AAXX 17064 42867 31996 01104 10250 20086 40167 70500 333 59003
AAXX 17064 42874 32996 00000 10246 20092 40165 333 59002
AAXX 17064 42933 32997 01402 10274 20089 40161 333 59002
AAXX 17064 43041 31996 02701 10252 20090 39545 40157 70540 333 59001
BBXX 46206 17061 99488 71260 46/// /1708 10092 40274 52001 22200 00091 11306 70029 333 91210
AAXX 17061 40656 11950 30000 10076 20033 40196 52013 60002 701011 83030
AAXX 17061 40670 12960 30000 10097 20057 40201 50011 60002 80002
AAXX 17061 40672 11958 00000 10084 20045 40216 51008 60002 70500
AAXX 17061 40676 12960 00000 10100 20000 40211 52010 60002
AAXX 17061 40680 12960 23001 10090 21015 40192 52014 60002 80001
AAXX 17061 40689 12960 02702 10108 20025 40208 52019 60002
AAXX 17061 40691 12960 00000 10142 20066 40218 52016 60002
AAXX 17061 40604 12960 10000 10098 20030 40203 52011 60002 80030
AAXX 17061 40634 12960 00000 10040 21016 40214 53005 60002
AAXX 17061 40645 12960 23301 10070 20035 40218 52009 60002 80002
AAXX 17064 88878 46/// /3211 10098 20091 40117 57009
AAXX 17064 88883 46/// /3208 10114 20114 40113 57012
AAXX 17064 88897 46/// /1101 10101 20098 40112 57006
AAXX 17064 88900 46/// /0505 10028 20026 30116 40119 58021 333 55021
BBXX ZCDM6 17063 99250 70800 41498 61112 10230 20201 40199 53012 70322 84863 22214 00270 20301 300// 4//// 5//// 80210
BBXX DGAF 17063 99513 70422 41598 52135 10092 20069 40110 57030 70222 855// 22254 00120 2//// 80080
BBXX ZCDG4 17064 99179 70808 41698 50723 10264 20195 40153 50010 70122 82568 22284 00290 20302 305// 40704 5////
BBXX VQKZ6 17063 99103 70787 41698 50710 10262 20245 40113 54000 71352 8344/ 22253 02240 20402 307// 40504 5//// 80250
BBXX VQHO7 17064 99109 70601 41498 20421 10260 20231 40101 54000 70100 82200 22274 00287 29902 3//// 4//// 5//// 80240
BBXX GDTT 17064 99181 70745 41197 20709 10260 20215 40159 58/// 7//11 82145 22233 00290 20404 80230
AAXX 17064 89020 46/// /1304 11104 21121 39753 49789 57003 90550
AAXX 17064 89108 46/// /0205 11240 36897 4//// 52011 90550
AAXX 17064 89314 46/// /0705 11124 38198 4//// 52011 90550
AAXX 17064 89327 46/// /0000 11016 39619 49897 52022 90550
AAXX 17064 89329 46/// /0103 11150 38759 49854 52015 90550
AAXX 17064 89376 46/// /0000 11068 39839 49907 52007 90550
AAXX 17064 89734 46/// /0000 1//// 3//// 4//// 5//// 90600
AAXX 17064 89744 46/// /2411 11136 36555 4//// 52008 90600
AAXX 17064 89769 46/// /0206 11048 39840 49893 52004 90550
AAXX 17064 89799 46/// /2306 11281 36703 4//// 52009 90550
AAXX 17064 89832 46/// /1210 10012 39575 49865 5//// 90600
AAXX 17064 89834 46/// /1815 11124 38137 4//// 5//// 90600
AAXX 17064 89865 46/// ///// 1//// 3//// 4//// 5//// 90600
AAXX 17064 89866 46/// /3510 11045 39751 49885 52003 90600
AAXX 17064 89868 46/// ///02 11048 39830 49898 52005 90550
AAXX 17064 89869 46/// /0605 11089 39814 49894 52005 90600
AAXX 17064 89872 46/// ///02 11024 39838 49894 52001 90600
AAXX 17064 89873 46/// /0005 11080 39815 49893 52009 90550
AAXX 17064 89879 46/// ///01 11016 39731 49768 52002 90600
BBXX A8CJ2 17064 99251 50746 41598 71804 10195 20156 40180 53015 70222 87600 22284 04183 20301 323// 41004 5//// 80170
BBXX AMOUK20 17064 99198 50350 46/// ///// 10251 20212 30156 4//// 57004 90550
BBXX 46206 17061 99488 71260 46/// /1708 10092 40274 52001 22200 00091 11306 70029 333 91210
AAXX 17064 68155 36/// /0705 10234 20150 39236 48568 52013 333 20216 91012 555 10327 91021
AAXX 17064 68171 NIL
AAXX 17064 68176 36/// /0905 10196 20122 39186 48566 53011 333 20163 91012 555 10268 91022
AAXX 17064 68181 NIL
AAXX 17064 68182 16/// /1004 10192 20138 39396 48575 52011 60014 333 20149 91007 555 10218 20016 91022
AAXX 17064 68185 16/// /1404 10200 20116 38470 48402 55000 69924 333 20129 91007 555 10258 20002 91006
AAXX 17064 68253 36/// /0802 10234 20158 39085 48560 53007 333 20193 91004 555 10348 91021
AAXX 17064 68255 36/// /1003 10209 20148 38897 48545 53008 333 20203 91005 555 10326 91021
AAXX 17064 68271 36/// /3203 10200 20144 38956 48558 52010 333 20161 91005 555 10298 91022
AAXX 17064 68273 36/// /1007 10198 20133 38500 48554 53005 333 20139 91012 555 10305 91025
AAXX 17064 68287 36/// /1906 10160 20122 38624 48558 52007 333 20123 91010 555 10203 91024
AAXX 17064 68291 NIL
AAXX 17064 68297 NIL
AAXX 17064 68329 36/// /0607 10260 20015 39101 48542 52008 333 20150 91013 555 10367 91018
AAXX 17064 68331 NIL
AAXX 17064 68335 36/// /3404 10237 20134 38959 48571 53008 333 20127 91007 555 10341 91023
AAXX 17064 68341 36/// /3508 10209 20159 38566 48551 53010 333 20158 91016 555 10311 91024
AAXX 17064 68342 NIL
AAXX 17064 68343 36/// ///// 10229 20170 38813 48539 52010 333 20126 555 10311 91020
AAXX 17064 68349 36/// /3510 10205 20159 38542 48536 52011 333 20171 91014 555 10313 91022
AAXX 17064 68353 36/// /0508 10199 20149 38560 48539 53010 333 20152 91012 555 10294 91022
AAXX 17064 68355 36/// /0711 10196 20144 38617 48551 52012 333 20151 91014 555 10296 91023
AAXX 17064 68370 NIL
AAXX 17064 68377 36/// /0602 10196 20153 38814 48553 53006 333 20164 91003 555 10302 91022
AAXX 17064 68380 36/// /2705 10182 20116 3//// 4//// 5//// 333 20118 91010 555 10267
AAXX 17064 68387 36/// /1207 10207 20161 38910 48570 52008 333 20163 91029 555 10273 91024
AAXX 17064 68411 36/// /0000 10249 20043 39942 40146 52010 333 20208 91001 555 10383 91015
AAXX 17064 68429 36/// /0000 10255 21068 38703 48528 56001 333 20120 91002 555 10319 91020
AAXX 17064 68449 36/// /0605 10199 20122 38429 48542 52011 333 20126 91008 555 10277 91023
AAXX 17064 68471 NIL
AAXX 17064 68474 16/// /1203 10177 20134 38671 48561 52003 69944 333 20137 91006 555 10266 20004 91025
AAXX 17064 68479 36/// /2002 10213 20150 38997 48562 52004 333 20154 91005 555 10294 91022
AAXX 17064 68481 36/// /0903 10223 20164 39839 40207 52006 333 20163 91007 555 10292 91021
AAXX 17064 68487 36/// /1204 10207 20142 39040 48563 51003 333 20139 91005 555 10246 91022
AAXX 17064 68491 36/// /1605 10250 20180 30187 40196 52007 333 20168 91008 555 10277 91019
AAXX 17064 68497 16/// /1102 10243 20174 30159 40203 52005 69924 333 20176 91005 555 10270 20002 91020
AAXX 17064 68183 12575 60905 10195 20146 39498 48579 52013 60024 84572 333 20162 91007 555 10217 20020 91021
AAXX 17064 68188 36/// /1902 10205 20130 39250 48575 52007 333 20169 91004 555 10247 91022
AAXX 17064 68268 36/// /0407 10235 20159 38927 48571 52005 333 20165 91011 555 10331 91023
AAXX 17064 68272 NIL
AAXX 17064 68296 32975 01706 10301 20229 39880 48627 52003 333 20179 91014 555 10490 91019
AAXX 17064 68322 32908 01204 10270 21024 39143 48529 52006 333 20132 91007 555 10382 91016
AAXX 17064 68338 32678 63608 10219 20156 38800 48534 52005 86960 333 20115 91012 555 10326 91020
AAXX 17064 68345 36/// /0311 10207 20153 38709 48552 52013 333 20160 91014 555 10304 91023
AAXX 17064 68362 32480 60408 10188 20128 38552 48555 52005 82550 333 20136 91012 555 10301 91024
AAXX 17064 68400 36/// /1504 10251 20158 30118 40191 52005 333 20158 91010 555 10308 91019
AAXX 17064 68408 32580 20000 10126 20106 30151 40159 52003 82100 333 20099 91002 555 10200 91015
AAXX 17064 68416 32984 00704 10260 21064 39046 48532 52006 333 20178 91009 555 10318 91017
AAXX 17064 68478 32480 70102 10189 20142 38922 48560 52001 875// 333 20163 91005 555 10281 91023
AAXX 17064 68488 36/// /0704 10199 20127 39327 48576 52005 333 20151 91007 555 10252 91022
AAXX 17064 68494 NIL
AAXX 17064 68524 32986 00903 10257 20006 39070 48535 51001 333 20123 91006 555 10335 91017
AAXX 17064 68546 36/// /1802 10216 20114 38694 48542 52010 333 20114 91004 555 10294 91022
AAXX 17064 68558 36/// /2402 10187 20081 38225 48538 52002 333 20075 91003 555 10244 91024
AAXX 17064 68570 36/// /0000 10207 20122 38547 48540 58002 333 20143 91004 555 10290 91022
AAXX 17064 68580 16/// /0202 10157 20135 38996 48554 58001 69964 333 20119 91003 555 10247 20006 91022
AAXX 17064 68614 32980 00000 10193 20126 30114 40155 52006 333 20115 91003 555 10294 91015
AAXX 17064 68624 32982 00404 10228 20040 38763 48539 55000 333 20132 91010 555 10306 91021
AAXX 17064 68674 36/// /3603 10246 20186 30156 48617 51008 333 20196 91011 555 10286 91018
AAXX 17064 68712 32470 12009 10167 20149 30085 40150 52003 81200 333 20138 91011 555 10201 91015
AAXX 17064 68718 36/// /2802 10216 20114 39913 40156 58002 333 20112 91004 555 10329 91016
AAXX 17064 68722 32980 02303 10204 20072 38571 48529 55000 333 20058 91010 555 10267 91021
AAXX 17064 68814 36/// /2006 1//// 2//// 30150 4//// 52005 333 2//// 91007 555 1//// 91015
AAXX 17064 68832 36/// /0505 10189 20100 39216 48539 57003 333 20117 91010 555 10306 91018
AAXX 17064 68916 32370 10707 10175 20146 39888 40156 50000 81100 333 20153 91012 555 10202 91015
AAXX 17064 68920 32470 10407 10209 20153 30147 40159 58001 81800 333 20175 91013 555 10226 91016
AAXX 17064 68928 NIL
BBXX MGSM3 17064 99276 31540 41598 61223 10248 20170 40135 52003 70201 84300 22243 06250 20502 31717 40903 50903 80200
BBXX ZCBV4 17064 99162 30726 41598 21811 10300 20288 40119 54000 70100 81462 22253 00297 20401 314// 41003 5//// 80291
BBXX AMOUK01 17064 99464 30090 46/// ///// 10038 20020 39916 49921 54001 90550
BBXX AMOUK15 17064 99159 50057 46/// ///// 10202 20133 30153 40178 57007 90550
BBXX AMOUK20 17064 99198 50350 46/// ///// 10251 20212 30156 4//// 57004 90550
BBXX ZDLS1 17063 99463 30089 41296 81911 10033 20031 40006 56006 75822 887// 22253 04057 20301 325// 40807 80032
BBXX ZCDD6 17063 99234 70168 41298 20430 10190 20182 40278 57005 70100 8/1// 22255 00220 20805 304// 40806 5//// 80185
BBXX C6W2032 17063 99011 10048 41798 71519 10270 2024/ 40100 54/// 70122 87223 22282 00270 20201 319// 40201 50201 6//// 80250 ICE /////
AAXX 17064 41194 11956 32204 10214 20147 30188 40193 60001 70500 80001 333 20161 59001 83075
AAXX 17064 41196 41950 09903 10216 20148 30154 40194 70500 333 20129 30011 59003
AAXX 17064 41198 42560 53110 10239 20141 40184 81501 333 20190 59005 81625 84070
AAXX 17064 41217 41957 32102 10198 20143 30160 40189 70500 80001 333 20143 30012 59001 83075
AAXX 17064 41218 42960 23608 10193 20146 39885 40194 80001 333 20122 30012 59001 82075
AAXX 17061 30499 42999 82502 11173 21207 39519 40210 58001 85031
AAXX 17061 30683 42999 80000 11150 21210 39545 40223 54000 86044
AAXX 17061 30695 42999 72702 11148 21218 39858 40210 56005 83044
AAXX 17061 31253 42999 00000 11269 21307 39699 40200 54000
AAXX 17061 31295 42999 23204 11136 21207 39712 40187 58001 80001
AAXX 17061 31348 42999 30000 11229 21254 39938 40148 54000 80001
AAXX 17061 31418 42999 20000 11229 21262 39871 40145 53001 80001
AAXX 17061 31439 42599 81802 11188 21229 30053 40100 53004 83531
AAXX 17061 31442 42999 03302 11155 21236 39814 40184 52006
AAXX 17061 31445 42999 02903 11144 21226 39915 40179 51002
AAXX 17061 31474 42999 01701 11252 21317 39672 40196 54000
AAXX 17061 31521 31999 33001 11161 21195 39879 40185 52004 70271 83040
AAXX 17061 31527 41998 33204 11154 21188 39865 40182 53006 70171 83030
AAXX 17061 31534 42999 20000 11184 21235 39816 40180 57005 80001
AAXX 17061 31587 41999 13103 11138 21199 30042 40192 52008 70171 80001
AAXX 17061 31632 NIL
AAXX 17061 31702 41997 82601 11163 21205 39830 40184 53001 77172 83017
AAXX 17061 31713 41999 82704 11136 21179 30058 40162 57005 70272 82049
AAXX 17061 31725 41998 82302 11150 21184 30090 40160 57005 70181 82042
AAXX 17061 31801 41997 80000 11167 21193 39937 40178 57011 77172 80007
AAXX 17061 31825 42999 63602 11131 21239 39927 40144 55002 82049
AAXX 17061 31845 42998 82402 11150 21184 30020 40192 57008 8807/
AAXX 17061 31878 42998 82503 11124 21208 30083 40213 56009 8801/
AAXX 17061 31915 42999 32905 11092 21214 39936 40211 56009 82042
AAXX 17061 31921 42698 51803 11102 21212 30110 40212 55007 82931
AAXX 17061 31969 42998 02907 11046 21176 30176 40227 56018 333 91012 91113
AAXX 17061 31981 42999 83102 11101 21245 39974 40219 56014 82033
AAXX 17061 31987 42999 13402 11086 21250 39947 40216 55015 80001
AAXX 17061 32069 41598 63208 11130 21182 30084 40089 57004 73683 86900 333 91010 91114
AAXX 17061 30455 41698 82802 11099 21162 38908 48460 58005 71522 889//
AAXX 17061 30731 41595 81803 11098 21115 39747 40384 58009 77372 8552/
AAXX 17061 30739 42699 60702 11174 21200 39536 40417 58007 82572
AAXX 17061 30741 41996 82503 11143 21156 38773 48549 58006 77171 8807/
AAXX 17061 30745 41998 82406 11167 21167 39149 40371 70243 83015
AAXX 17061 30764 42999 12804 11069 21175 39444 40254 57008 80001
AAXX 17061 30829 42999 03202 11206 21239 39722 40477 58012
AAXX 17061 30838 42598 32304 11179 21213 39396 40456 58006 83900
AAXX 17061 30846 42699 22306 11104 21167 39405 40350 58007 81903
AAXX 17061 30859 41999 22907 11093 21175 39429 40291 56015 73630 80001
AAXX 17061 30862 42999 72409 11117 21179 39499 40263 57014 80009
AAXX 17061 30957 42999 03307 11091 21172 39409 40335 57011
AAXX 17061 30975 42899 60701 11241 21281 40311 57014 83041
BBXX 41010 17061 99289 70785 46/// /1604 10226 40212 90620 22200 00241 11003 20401 300// 41003 70016 333 91204 555 11036 22037
BBXX 41009 17061 99285 70802 46/// /0000 10231 20179 40214 90620 22200 00249 11003 20401 300// 41003 70014 333 91202 555 11003 22003
BBXX 46181 17061 99538 71288 46/// /0504 10016 40133 57017 22200 00067 10200 70001 333 91204
BBXX 46205 17061 99542 71343 46/// /1401 10075 40118 52008 22200 00078 11609 70046 333 91202
BBXX 46132 17061 99497 71279 46/// /1611 10097 40223 57003 22200 00086 11807 70037 333 91212
AAXX 17064 41264 36/70 /3102 10211 20120 39810 40179 333 0E017 20133 59001
BBXX 46181 17061 99538 71288 46/// /0504 10016 40133 57017 22200 00067 10200 70001 333 91204
BBXX 46132 17061 99497 71279 46/// /1611 10097 40223 57003 22200 00086 11807 70037 333 91212
AAXX 17064 89610 46/// /0433 11050 39706 4//// 5//// 333 90700 91140
BBXX 46205 17061 99542 71343 46/// /1401 10075 40118 52008 22200 00078 11609 70046 333 91202
AAXX 17061 40001 32570 50905 10061 20026 40206 53013 83550 333 20028 30 83626 85360
AAXX 17061 40007 11526 80702 10059 20050 40184 53006 60062 76220 8557 333 20016 31 85626 88360
AAXX 17061 40025 11560 52505 10164 20117 40161 53006 60112 76662 85800 333 20146 32 82826 84630
AAXX 17061 40045 31950 20000 10024 21032 40215 53004 71000 80002 333 21012 30 82070
AAXX 17061 40061 32970 02601 10018 21034 40194 53003 333 21018 30
AAXX 17061 40080 31930 01702 10033 21002 39475 40201 520121 71000 333 21010 30
AAXX 17061 40087 NIL
AAXX 17061 40095 NIL
AAXX 17061 06479 12760 42403 10016 20012 39946 40027 53036 60042 84500 333 20005 32102 84650 91106 91205
AAXX 17064 94996 41573 32010 10206 20131 39989 40125 53005 71511 83400 90630
AAXX 17064 94996 41573 32010 10206 20131 39989 40125 53005 71511 83400 90630
AAXX 17064 67017 NIL
AAXX 17064 67020 12582 60000 10273 20242 30074 40101 51001 60244 86800 333 022// 10358 20214 50494 55/// 83820 86640
AAXX 17064 67023 31575 61008 10314 20237 30090 40096 55000 70422 81202 333 01900 10318 20210 50554 55/// 81820 86073
AAXX 17064 67037 12582 5//// 10/// 20/// 30056 40097 5/006 60314 83832 333 0//// 10/// 20/// 50//3 55/// 81820 83640 444 81360 81073
AAXX 17064 67067 11565 7//// 10230 20194 39243 48/// 51006 60034 7102/ 8223/ 333 0//79 10309 20197 50494 55/// 82820 86360
AAXX 17064 67107 NIL
AAXX 17064 67131 32582 62606 10/// 20/// 30088 40093 51004 86800 333 0//00 10/// 20/// 50//4 55/// 84823 555 82640
AAXX 17064 67002 12580 62803 10292 20237 30087 40120 60064 81502 333 20239 59017 81630 85073 92408
AAXX 17064 67009 32582 70000 10300 20243 39992 40110 51010 83232 333 02300 10325 20240 50304 55080 83820 84360 555 83073
AAXX 17064 67012 32582 52604 10270 20243 30101 40112 51011 878// 333 0//00 10324 20233 50244 55/// 85817 84633
AAXX 17064 67025 31565 81804 10314 20195 39998 40096 55002 7040/ 82801 333 0//00 10320 20222 50314 55/// 82820 555 81640 81070
AAXX 17064 67027 32582 61602 10292 20230 30083 40104 50009 82832 333 02200 10333 20257 50414 55085 81820 83360 555 82640 82073
AAXX 17064 67045 NIL
AAXX 17064 67072 31470 73004 10273 20231 30112 40115 51005 71522 878// 333 02200 10303 20246 50314 55/// 83817 87640 92428
AAXX 17064 67073 32582 4//// 10304 20244 30077 40103 54000 82232 333 0//00 10333 20245 50//4 55/// 82820 555 81360 82073
AAXX 17064 67083 12582 30000 10227 20185 38723 48495 51003 60114 82830 333 01419 20178 50184 55049 82820
AAXX 17064 67095 32482 40802 10299 20231 30098 40104 50000 83802 333 02200 10315 20225 30344 55/// 83817 555 81633 82073
AAXX 17064 67113 NIL
AAXX 17064 67117 NIL
AAXX 17064 67137 12480 7//02 10233 20188 38871 48478 50001 69934 83832 333 0//15 10293 20196 50214 55/// 83817 85360 555 81620 81073
AAXX 17064 67143 11580 4//// 10/// 20/// 30099 40106 52009 60394 70161 84800 333 0//24 10/// 20/// 50//4 55/// 82820 84633 92438
AAXX 17064 67152 32982 4//// 10249 20184 39178 48493 51004 81032 333 02200 10344 20202 50944 55/// 81360 84073
AAXX 17064 67157 11470 7//// 10/// 20/// 30104 40111 58010 69954 71762 879// 333 0//16 10/// 20/// 50//4 55/// 82817 81917 87633 94995 95835
AAXX 17064 67161 NIL
AAXX 17064 67197 32580 71206 10287 20227 30077 40087 51005 8485/ 333 01600 10314 20242 50594 55088 83820 85360 555 82633
BBXX UCAD 17061 99692 10128 41/97 91616 10050 49863 54000 70221 88/// 22253 00080 20204
BBXX A8DH2 17063 99350 70094 41498 72614 10190 20147 40288 53015 70222 86773 22223 04193 20102 30508 40202 50202 80165
AAXX 17064 68171 NIL
AAXX 17064 68181 NIL
AAXX 17064 68291 NIL
AAXX 17064 68297 NIL
AAXX 17064 68331 NIL
AAXX 17064 68342 NIL
AAXX 17064 68370 NIL
AAXX 17064 68471 NIL
AAXX 17061 14452 11598 22918 10127 20063 39717 49935 51/// 69912 82100 333 20118 92335
BBXX 46184 17061 99539 71389 46/// /1801 10060 40131 52008 22200 00065 11711 70055 333 91203
AAXX 17064 42634 32996 00702 10248 20095 40160 333 59003
AAXX 17064 42647 32996 00703 10248 20085 40170 333 58000
AAXX 17064 42737 32996 00703 10280 20093 40159 333 59003
AAXX 17064 42840 31995 00503 10284 20132 40156 70400 333 59005
AAXX 17064 42909 32997 00503 10296 20127 40154 222// 20000 333 59006
AAXX 17064 42921 32996 01402 10250 20155 40187 333 59001
AAXX 17064 43003 31995 01404 10320 20139 40145 70400 333 58003
AAXX 17064 43014 31996 01103 10260 20128 39506 40147 70040 333 59002
AAXX 17064 43063 32997 01401 10248 20137 39527 40149 333 58003
AAXX 17064 43110 31997 11105 10306 20137 40141 70544 80001 333 58012 81080
AAXX 17064 43117 32997 01402 10280 20154 40148 333 58003
AAXX 17064 43192 31996 20707 10304 20172 40138 70500 80002 333 58010
AAXX 17064 62476 32960 02704 10174 20101 40157 53012 333 20132
AAXX 17064 62420 32960 00000 10096 20069 40218 52012 333 20078
AAXX 17064 62432 32960 23502 10112 20048 40209 52009 80002 333 20082
AAXX 17064 62435 32960 50403 10154 20073 40196 52009 80008 333 20118
AAXX 17064 62455 32960 02003 10131 20076 40198 52013 333 20116
AAXX 17064 62458 32960 41204 10126 21003 40175 52008 80004 333 20088
AAXX 17064 62309 32960 02407 10104 20070 40194 52006 333 20092
AAXX 17064 62325 31556 40000 10130 20120 40205 52008 71000 84800 333 20128
AAXX 17064 62332 31530 21906 10134 20120 40203 52011 71000 82100 333 20129
AAXX 17064 62387 31920 03203 10076 20076 40207 52011 71000 333 20070
AAXX 17064 62459 32960 03508 10128 20048 40185 52015 333 20100
AAXX 17064 62452 32960 02305 10046 20009 40235 52010 333 20010
AAXX 17064 67979 11970 81202 10203 20199 38/// 48/// 60584 76262 8807/ 333 20199 5//// 88458
AAXX 17064 62309 32960 02407 10104 20070 40194 52006 333 20092
AAXX 17064 62325 31556 40000 10130 20120 40205 52008 71000 84800 333 20128
AAXX 17064 62332 31530 21906 10134 20120 40203 52011 71000 82100 333 20129
AAXX 17064 62387 31920 03203 10076 20076 40207 52011 71000 333 20070
AAXX 17064 62459 32960 03508 10128 20048 40185 52015 333 20100
AAXX 17064 62452 32960 02305 10046 20009 40235 52010 333 20010
BBXX 46184 17061 99539 71389 46/// /1801 10060 40131 52008 22200 00065 11711 70055 333 91203
AAXX 17064 91723 NIL
AAXX 17064 91759 11598 39902 10285 20231 40111 53008 60001 70510 82202 333 82823 83078
AAXX 17064 91762 11598 41208 10289 20243 40109 53009 60001 70500 82108 333 82823 83277
AAXX 17061 24856 41997 80102 11402 21427 30055 40234 52010 70272 86031
AAXX 17061 30679 NIL
AAXX 17061 30686 42999 83902 11149 21219 39837 40228 57006 82042
AAXX 17061 30961 42999 03302 11106 21169 39479 40294 57014
AAXX 17061 30971 42999 32504 11134 21205 39245 40270 58014 80002
AAXX 17061 30978 42999 22114 11127 21210 39561 40271 57022 80002
AAXX 17061 31513 42999 23401 11147 21181 39947 40183 52005 80001
AAXX 17061 31624 NIL
AAXX 17061 31832 42998 81202 11161 21195 30102 40193 57005 82032
AAXX 17061 31913 43/// /3103 11105 21219 30084 40207 56006
AAXX 17061 32128 41496 73406 11099 21116 30059 40113 53003 78583 87300 333 91011 91114
AAXX 17061 01028 11040 80403 11006 21012 39889 49909 53007 69902 71022 886// 333 21014
AAXX 17064 60650 36/// /0000 10051 21072 333 20050
AAXX 17064 60679 36/// /3510 10036 21187 333 20035
BBXX 7JJA 17064 99334 11395 41697 63226 00 10140 20063 40195 57005 70222 86500 9//// 22213 00220 2//06 332 4//06 5 6//// 80100 ICE /////
BBXX DQXQ 17064 99404 11387 41598 82830 10011 21026 40190 56025 70252 885// 22214 00120 20606 331// 40708 81003
BBXX JGQH 17064 99308 11318 41/97 53412 10094 20003 40256 56021 70222 85100 22223 00215 1//03 20302 303// 40702 70014
BBXX JPBN 17064 99349 11402 41/98 10106 10094 21060 40196 53010 70200 81100 22261 00182 10702 20301 302// 40802 70010
BBXX UDWE 17061 99459 11436 41498 73110 11073 40083 57009 70272 87200 22223 00023 20302 30300 40604
BBXX VRHO2 17064 99370 11430 41897 73230 10060 21018 40170 52010 72582 85351 22254 00140 20301 333 03 41005 50603 6/00/ 80028 ICE /////
BBXX C6SI3 17063 99397 11504 41797 82637 10030 21100 40100 55010 70222 88298 22213 0//// 20305 327// 4//// 5//// 6//// 81010 ICE /////
BBXX 46004 17061 99509 71361 46/// /3304 10073 40132 52008 22200 00075 11611 70055 333 91207
AAXX 17061 56671 31780 21803 10153 20021 38205 57038 70040 82100 333 05306 21002
AAXX 17061 57378 32962 62902 10066 21081 40320 57043 86030 333 21002
AAXX 17061 57426 32764 80402 10074 21013 40282 57028 885// 333 05253 20059
AAXX 17061 57476 32962 73601 10062 21048 40317 57040 8703/ 333 20031
AAXX 17061 57584 32960 80202 10068 21009 40317 57036 8807/ 333 20029
AAXX 17061 57598 32962 70201 10072 21062 40318 57036 8703/ 333 21004
AAXX 17061 57655 32965 80202 10068 21069 40306 57040 8807/ 333 20055
AAXX 17061 57713 NIL
AAXX 17061 57776 32970 70701 10010 21024 40313 57029 8703/ 333 21049
AAXX 17061 58321 32965 00401 10057 21110 40346 57040 333 21044
AAXX 17061 58437 32980 03402 10004 21331 38206 57022 333 21069
AAXX 17061 58445 NIL
AAXX 17061 58556 32965 00202 10058 21109 40334 57035 333 21033
AAXX 17061 58569 32965 00203 10070 21041 40325 57023 333 20001
AAXX 17061 58646 32965 00000 10091 21104 40319 57040 333 21017
AAXX 17061 58653 NIL
AAXX 17061 58660 NIL
AAXX 17061 58715 32975 23204 10093 21078 40303 57036 82040 333 20007
AAXX 17061 58730 32980 02001 10126 21050 40287 57040 333 20001
AAXX 17061 58731 32972 03601 10109 21043 40295 57041 333 21019
AAXX 17061 58754 32965 00403 10114 21101 40298 57035 333 20016
AAXX 17061 58911 32962 02703 10138 20027 40261 57040 333 20008
AAXX 17061 58931 32980 00703 10060 21016 38396 57019 333 21037
AAXX 17061 59254 31956 20401 10174 20022 40238 57047 70500 82030 333 20117
AAXX 17061 59632 31959 70203 10178 20044 40229 57043 70500 87040 333 20128
AAXX 17061 59855 32572 80202 10191 20142 40207 57032 888// 333 20173
AAXX 17064 43086 32997 00000 10276 20112 39980 40156 333 58000
AAXX 17064 43128 32997 01404 10266 20159 39552 40155 333 59001
AAXX 17064 43150 31596 10503 10282 20186 30086 40160 70500 81500 333 59001 81620
AAXX 17064 43185 31596 50903 10290 20188 30149 40152 70510 83530 333 58001 83620 85360
AAXX 17064 43189 32997 00703 10284 20205 30150 40159 333 59002
AAXX 17064 43198 32996 21110 10254 20120 39316 40133 80001 333 58002 82075
AAXX 17064 43201 32997 10908 10260 20120 39422 40136 80001 333 58002 81075
AAXX 17064 43213 32597 10904 10280 20148 39839 40155 81400 333 58001
AAXX 17064 43226 32497 41404 10306 20162 30109 40138 81502 333 58008
AAXX 17064 43233 32897 40904 10246 20091 39336 40141 81031 333 58001
AAXX 17064 43237 32597 50903 10260 20126 39760 40153 82501 333 58002 82620 83075
AAXX 17064 43245 32597 33602 10290 20209 30128 40155 82801 333 58002
AAXX 17064 43279 32597 50204 10286 20176 30134 40151 85500 333 58002 85620
AAXX 17064 43284 32996 20911 10300 20123 30006 40120 80001 333 58006 82075
AAXX 17064 43295 32497 50503 10232 20116 39128 48539 82501 333 58003 82615 83070
AAXX 17064 43311 32597 53602 10314 20243 40120 82501 333 58003 82625 83075
AAXX 17064 43314 32997 22702 10314 20203 40120 80002 333 59003
AAXX 17064 43321 31496 40208 10272 20146 39692 40136 70542 82431 333 59013
AAXX 17064 43329 32597 30203 10290 20202 30122 40136 82401 333 59002
AAXX 17064 43344 31496 30512 10282 20207 30037 40136 70511 81501 333 59005 81616 83075
AAXX 17064 43346 32597 30208 10280 20204 30120 40127 81501 333 59002 81620 83075
AAXX 17064 43353 32496 50305 10302 20165 40115 82501 333 56609 59003 81616 85072
AAXX 17064 43369 32597 50904 10308 20251 40115 82530 333 59002 82620 83360
AAXX 17064 43371 32597 20000 10318 20182 30037 40108 81430 333 59004 81620
BBXX 46004 17061 99509 71361 46/// /3304 10073 40132 52008 22200 00075 11611 70055 333 91207
AAXX 17064 61202 NIL
AAXX 17064 61214 NIL
AAXX 17064 61223 32960 70204 10131 21062 39854 40167 80006 333 00900 20130 50704 55094 59009 87275
AAXX 17064 61226 32960 50406 10140 21008 39855 40156 80002 333 01100 20140 50844 55081 59010 85075
AAXX 17064 61230 32960 60806 10176 21080 39849 40119 83042 333 01500 20168 51074 55074 59007 83365 85075
AAXX 17064 61233 32960 70404 10156 21039 3//// 4//// 80002 333 00300 20156 50754 55/// 5//// 87075
AAXX 17064 61235 32960 71210 10222 21002 3//// 4//// 80002 333 0//00 20210 51804 55077 5//// 87075
AAXX 17064 61240 32960 70000 10180 21040 39817 40145 80002 333 01600 20170 50914 55102 59005 85075
AAXX 17064 61250 32960 40000 10150 20009 3//// 4//// 80002 333 01200 20145 50874 55101 5//// 84075
AAXX 17064 61257 32960 51402 10138 21007 30072 40167 80002 333 01200 20136 50404 55075 59003 85075
AAXX 17064 61265 32970 50808 10135 21009 39827 40138 80002 333 00800 20130 51070 55099 59004 85075
AAXX 17064 61270 32960 20000 10160 21001 3//// 4//// 80002 333 01400 20160 50794 55093 5//// 82075
AAXX 17064 61272 32960 60806 10174 20047 39811 40139 80002 333 01400 20168 5//// 55090 59007 86075
AAXX 17064 61277 32960 30000 10155 20065 39811 40133 80002 333 01200 20150 50641 55099 59008 83075
AAXX 17064 61285 32960 50804 10168 20020 39975 40126 80002 333 01300 20168 50894 55069 59004 85075
AAXX 17064 61291 32960 70610 10196 21030 39709 40120 80002 333 01000 20160 50841 55084 59003 87075
AAXX 17064 61293 32960 73602 10150 20071 3//// 4//// 80002 333 01000 20148 50700 55082 5//// 87075
AAXX 17064 61296 32960 60000 10160 20059 3//// 4//// 81072 333 00800 20155 50590 55090 5//// 81365 86075
AAXX 17064 61297 32960 73402 10159 20050 3//// 4//// 80002 333 01000 20155 50771 55102 5//// 87075
AAXX 17064 71988 16/// /3119 10024 21021 30133 40153 51013 60001 333 10105 20024 70007 555 32741 40173
AAXX 17064 71283 16/// /0000 11049 21063 60001 333 11026 21129 70000 555 32917 40141
AAXX 17064 71067 16/// ///// 11038 21079 60001 333 11010 21119 70000
AAXX 17064 71359 16/// /2606 11049 21075 60001 333 10013 21124 70000 555 32717 40211
AAXX 17064 71888 16/// ///// 11044 21074 60001 333 10011 21148 70000
AAXX 17064 71895 16/// ///// 11051 21077 60001 333 10014 21113 70000
AAXX 17064 71500 16/// /2005 10007 21051 60001 333 10007 21082 70000
AAXX 17064 71504 16/// ///// 11008 21051 60001 333 10029 21103 70000
AAXX 17064 71526 16/// /2208 11028 21074 60001 333 10002 21108 70000
AAXX 17064 71541 16/// /1903 11031 21049 60001 333 11031 21103 70000
AAXX 17064 71543 16/// /3602 11022 21028 60001 333 11002 21150 7////
AAXX 17064 71546 16/// /2110 10007 21021 60001 333 10013 21067 70000 555 32831 40142
AAXX 17064 71547 16/// /2106 11009 21030 60001 333 11005 21097 70000 555 32431 40112
AAXX 17064 71549 46/// ///// 11039 21068 6///1 333 7////
AAXX 17064 71461 16/// /2007 10010 21020 60001 333 10010 21099 70000 555 32817 40141
AAXX 17064 71468 16/// /2812 11098 21120 39924 40260 56018 60001 333 21125 70000 555 33323 40081
AAXX 17064 71483 16/// ///// 11027 21064 60001 333 10025 21123 70000
AAXX 17064 71116 16/// /3107 11045 21063 39128 40254 57004 60001 333 10005 21119 70000 555 10050
AAXX 17064 71221 16/// /0202 11080 21090 60001 333 11003 21189 7////
AAXX 17064 71226 16/// /1001 11034 21050 60001 333 7////
AAXX 17064 71229 46/// /1504 11100 21116 6///1 333 11005 21138 7////
AAXX 17064 71673 16/// ///// 11067 21092 60001 333 10023 21121 70000
AAXX 17064 71690 16/// ///// 11027 21043 60001 333 11008 21131 70000
AAXX 17064 71010 16/// /2102 11027 21081 60001 333 10024 21115 70000 555 32621 40181
AAXX 17064 71011 16/// ///// 11046 21084 60001 333 10002 21113 70000
AAXX 17064 71788 16/// /2005 11022 21038 60001 333 10035 21117 70000
AAXX 17064 71792 16/// ///// 11066 21097 60001 333 10009 21110 70000
AAXX 17064 71405 16/// ///// 11043 21069 60001 333 10025 21131 70000
AAXX 17064 71417 17/// /2925 10017 20017 39836 49870 53010 69971 7//4/ 333 10033 21012 70079 555 31234 40123
AAXX 17064 71426 46/// /3415 11085 6///1 333 10045 21085 7//// 555 33043 40183
AAXX 17064 71467 16/// /0410 11297 21325 30012 40133 58007 60001 333 11223 21323 70000
AAXX 17064 48601 11560 70804 10307 20251 30079 40083 6///1 70522 83841 333 82820 83364 87078
AAXX 17064 71988 16/// /3119 10024 21021 30133 40153 51013 60001 333 10105 20024 70007 555 32741 40173
AAXX 17064 71467 16/// /0410 11297 21325 30012 40133 58007 60001 333 11223 21323 70000
AAXX 17064 71116 16/// /3107 11045 21063 39128 40254 57004 60001 333 10005 21119 70000 555 10050
AAXX 17064 71500 16/// /2005 10007 21051 60001 333 10007 21082 70000
AAXX 17064 71504 16/// ///// 11008 21051 60001 333 10029 21103 70000
AAXX 17064 71526 16/// /2208 11028 21074 60001 333 10002 21108 70000
AAXX 17064 71541 16/// /1903 11031 21049 60001 333 11031 21103 70000
AAXX 17064 71543 16/// /3602 11022 21028 60001 333 11002 21150 7////
AAXX 17064 71546 16/// /2110 10007 21021 60001 333 10013 21067 70000 555 32831 40142
AAXX 17064 71547 16/// /2106 11009 21030 60001 333 11005 21097 70000 555 32431 40112
AAXX 17064 71549 46/// ///// 11039 21068 6///1 333 7////
AAXX 17064 71359 16/// /2606 11049 21075 60001 333 10013 21124 70000 555 32717 40211
AAXX 17064 71067 16/// ///// 11038 21079 60001 333 11010 21119 70000
AAXX 17064 71788 16/// /2005 11022 21038 60001 333 10035 21117 70000
AAXX 17064 71792 16/// ///// 11066 21097 60001 333 10009 21110 70000
AAXX 17064 71888 16/// ///// 11044 21074 60001 333 10011 21148 70000
AAXX 17064 71895 16/// ///// 11051 21077 60001 333 10014 21113 70000
AAXX 17064 71010 16/// /2102 11027 21081 60001 333 10024 21115 70000 555 32621 40181
AAXX 17064 71011 16/// ///// 11046 21084 60001 333 10002 21113 70000
AAXX 17064 71221 16/// /0202 11080 21090 60001 333 11003 21189 7////
AAXX 17064 71226 16/// /1001 11034 21050 60001 333 7////
AAXX 17064 71229 46/// /1504 11100 21116 6///1 333 11005 21138 7////
AAXX 17064 71461 16/// /2007 10010 21020 60001 333 10010 21099 70000 555 32817 40141
AAXX 17064 71468 16/// /2812 11098 21120 39924 40260 56018 60001 333 21125 70000 555 33323 40081
AAXX 17064 71483 16/// ///// 11027 21064 60001 333 10025 21123 70000
AAXX 17064 71673 16/// ///// 11067 21092 60001 333 10023 21121 70000
AAXX 17064 71690 16/// ///// 11027 21043 60001 333 11008 21131 70000
AAXX 17064 71405 16/// ///// 11043 21069 60001 333 10025 21131 70000
AAXX 17064 71417 17/// /2925 10017 20017 39836 49870 53010 69971 7//4/ 333 10033 21012 70079 555 31234 40123
AAXX 17064 71426 46/// /3415 11085 6///1 333 10045 21085 7//// 555 33043 40183
AAXX 17064 71283 16/// /0000 11049 21063 60001 333 11026 21129 70000 555 32917 40141
AAXX 17061 56144 32780 72005 10042 21136 36839 57020 874// 333 00251 21042
AAXX 17061 56152 11560 82902 11059 21070 36281 57017 69971 78500 889// 333 00154 21114
AAXX 17061 56167 32780 43401 10085 21138 37046 57048 84400 333 00000 21084
AAXX 17061 56182 32980 70000 10026 21121 37175 57040 80002 333 05202 21087
AAXX 17061 56357 32680 10402 10045 21165 36428 57027 81100 333 00001 21122
AAXX 17061 56586 11458 80202 10028 20004 38055 57030 69901 71070 885// 333 05403 21006 93427
AAXX 17061 56748 32580 22205 10162 20029 38363 57029 82400 333 00000 20048
AAXX 17061 56763 32680 21406 10219 20053 40128 57047 82100 333 05204 20081
AAXX 17061 56768 32680 62504 10138 20067 38190 57033 86100 333 05202 20058
AAXX 17061 56838 31667 12002 10171 20109 40175 57034 70040 81100 333 05100 20074
AAXX 17061 56886 32665 62006 10138 20080 38310 57039 86140 333 05409 20037
AAXX 17061 56946 31580 23201 10208 20109 40165 57039 70040 82400 333 05100 20071
AAXX 17061 56959 32775 31801 10236 20140 40158 57038 83100 333 05101 20160
AAXX 17061 56969 32580 70000 10223 20136 40175 57035 878// 333 05103 20138
AAXX 17061 57731 32765 81401 10065 21061 40285 57038 885// 333 05353 20061
AAXX 17061 57766 32960 70202 10084 21014 40299 57041 8704/ 333 20045
AAXX 17061 57845 32962 73602 10094 21025 40277 57042 8704/ 333 20014
AAXX 17061 57853 32960 70202 10075 21022 40297 57038 8704/ 333 20042
AAXX 17061 57916 32670 73601 10140 20043 40245 57044 87500 333 05402 20081
AAXX 17061 57922 32663 82002 10071 20003 40263 57035 885// 333 05302 20031
AAXX 17061 57932 32968 60703 10129 21007 40262 57048 86030 333 05403 20066
AAXX 17061 58338 32963 01101 10053 21127 40341 57034 333 21031
AAXX 17061 59007 32670 60000 10113 20045 40221 57034 86500 333 20061
AAXX 17061 59046 31958 70201 10147 20016 40250 57050 70500 8703/ 333 20087
AAXX 17061 59058 31956 03202 10154 20019 40246 57050 70500 333 20080
AAXX 17061 59072 31958 00702 10137 21023 40257 57050 70500 333 20064
AAXX 17061 59087 32864 30904 10158 21008 40242 57044 83500 333 20089
AAXX 17061 59209 32565 82002 10133 20057 40230 57041 888// 333 20076
BBXX 46146 17061 99493 71237 46/// /1106 10072 40292 57001 22200 00065 10301 70004 333 91209
BBXX 46146 17061 99493 71237 46/// /1106 10072 40292 57001 22200 00065 10301 70004 333 91209
AAXX 17061 01271 17/84 00802 11070 21086 39877 49899 52011 60002 700// 333 21070 48001 70000 91105
AAXX 17061 01415 17673 21403 11002 21009 39906 49917 50008 6//// 725// 333 21013 91104
AAXX 17064 48601 11560 70804 10307 20251 30079 40083 6///1 70522 83841 333 82820 83364 87078
AAXX 17061 22106 32998 20302 11042 21044 39912 49991 51006 82030 333 47013 91003
BBXX 44059 17061 99368 70763 46/// /0303 1//// 90620 333 91204
BBXX 44059 17061 99368 70763 46/// /0202 1//// 40202 90610 333 91204
BBXX 44059 17061 99368 70763 46/// /0203 10058 40205 56014 90600 22200 00109 333 91204
BBXX 44057 17061 99395 70761 46/// /3304 1//// 90620 333 91206
BBXX 44057 17061 99395 70761 46/// /3305 1//// 40217 90610 333 91208
BBXX 44057 17061 99395 70761 46/// /3206 10043 40216 57002 90600 22200 00051 333 91207
BBXX 44058 17061 99376 70763 46/// /3403 1//// 90620 333 91205
BBXX 44058 17061 99376 70763 46/// /3103 1//// 40208 90610 333 91205
BBXX 44058 17061 99376 70763 46/// /3303 10058 40214 56010 90600 22200 00095 1//00 70002 333 91204
BBXX 44033 17061 99441 70690 46/30 /3103 10031 40152 56007 90604 22200 00082 11101 70006 333 91205 555 11037 22038
BBXX 46092 17061 99368 71220 46/// /0603 10113 40203 54000 90557 22200 00126 555 11026 22026
BBXX 46232 17061 99325 71174 46/// ///// 1//// 90608 22200 00148 10902 20902 328// 41101 70012
BBXX 46249 17061 99338 71197 46/// ///// 1//// 90612 22200 00146 11102 21002 328// 41101 70010
BBXX 44258 17061 99445 70634 46/// /2907 10029 40127 52021 22200 00074 10904 70019 333 91209
BBXX 46246 17061 99500 71451 46/// ///// 1//// 90559 22200 00074 11409 21005 329// 41408 70046
BBXX 44258 17061 99445 70634 46/// /2907 10029 40127 52021 22200 00074 10904 70019 333 91209
BBXX 46246 17061 99500 71451 46/// ///// 1//// 90629 22200 00074 11509 20905 329// 41508 70046
BBXX 44039 17061 99411 70727 46/// /3005 10064 21007 40198 90553 22200 00100 1//00 70002 333 91206
BBXX KS088 17064 99267 70801 43/// /1102 10234 40206 22200 06228
BBXX KS098 17064 99443 71244 43/// /0807 10099 40272 22272 06000
BBXX KS094 17064 99133 70596 43/// /0708 10260 40120 22200 06272
AAXX 17064 96009 01458 81405 10260 20236 30052 40087 57020 60041 70262 8592/ 333 56009 57902 60017 82915 83616 80965
AAXX 17064 96011 01460 81504 10264 20247 30063 40089 57020 60021 72162 84932 333 56000 57903 60027 81919 83620 80960
AAXX 17064 96035 01458 80000 10292 20249 30050 40088 57022 60021 72162 86276 333 56000 57802 60027 84817 80856
AAXX 17064 96073 31460 72006 10316 20226 30062 40074 51046 83972 333 56000 57901 83913 80959
AAXX 17064 96091 11460 80108 10295 20247 30064 40087 58023 69931 70262 85878 333 56000 57801 81613 84817 87280 80860
AAXX 17064 96109 01303 82717 10250 20247 30039 40078 57018 60251 76262 85521 333 56000 60257 85607 87460
AAXX 17064 96145 11456 63406 10280 20236 30082 40085 58014 60011 70262 86831 333 56800 57882 82616 84817 80857
AAXX 17064 96147 NIL
AAXX 17064 96163 32560 52209 10308 20243 30085 40087 57019 81131 333 56000 57802 81820 80825
AAXX 17064 96179 31459 70000 10292 20249 30055 40092 57008 71422 85238 333 56700 57872 85817 80850
AAXX 17064 96195 32461 73008 10298 20231 30049 40085 57027 84271 333 56000 57801 84814 80857
AAXX 17064 96221 32460 83005 10297 20242 30069 40084 52016 85176 333 56999 85815
AAXX 17064 96237 01456 80000 10248 20242 30042 40084 57020 60421 76196 84218 333 56000 57802 60427 84815 85460 85280 80858
AAXX 17064 96249 01450 80000 10250 20241 30022 40083 57015 60101 76162 85972 333 56700 57971 57871 60037 81917 84820 80981
AAXX 17064 96253 01450 82607 10262 20247 30056 40076 57012 60021 76062 84972 333 56000 57900 57600 60027 81915 83620 86460
AAXX 17064 96295 32460 83605 10296 20231 39982 40084 56016 8422/ 333 56009 57800 84815 80800
AAXX 17064 96509 32460 51603 10313 20246 30047 40058 57027 84131 333 56000 84815
AAXX 17064 96581 32460 70505 10310 20251 30060 40067 57027 85271 333 56800 57882 85812 83361 80862
AAXX 17064 96633 32560 82503 10280 20242 30060 40068 57015 83271 333 56009 83620 87460
AAXX 17064 96645 32459 73105 10331 20277 30029 40062 57026 85232 333 56000 57801 85812 80858
AAXX 17064 96655 31458 73405 10299 20244 30057 40092 57018 85532 333 56200 85612
AAXX 17064 96685 32460 73204 10300 20246 30048 40074 57023 84511 333 56000 84605 86462
AAXX 17064 96749 31557 72510 10292 20229 30061 40075 56023 71522 85971 333 56000 57962 57842 81921 84822 85460 80980 80860
AAXX 17064 96781 NIL
AAXX 17064 96805 32563 32707 10320 20247 30065 40074 56019 83271 333 56600 57861 83820 80860
AAXX 17064 96839 32557 73313 10316 20254 30056 40063 57023 84232 333 56000 57801 84821 80860
AAXX 17064 96935 01504 80115 10244 20240 30066 40072 57007 60301 79596 889// 333 56099 57900 57800 60307 84920 88820 80980 80860
AAXX 17064 97014 31560 53305 10302 20242 39969 40062 57019 71792 84931 333 56300 57932 57833 81920 80980 83822 80860
AAXX 17064 97028 01561 70000 10290 20250 30054 40060 58009 69951 72162 84221 333 56000 57802 69957 84818 86460 80860
AAXX 17064 97048 NIL
AAXX 17064 97072 31458 73516 10294 20236 39977 40077 57020 71622 82271 333 56000 57801 82819 85460 80860
AAXX 17064 97086 32560 51003 10302 20252 30043 40067 56024 83210 333 56000 57803 82820 80858
AAXX 17064 97096 32460 40210 10324 20250 30051 40072 57020 83231 333 56000 57802 83816 80860
AAXX 17064 97120 NIL
AAXX 17064 97146 NIL
AAXX 17064 97180 01456 70503 10246 20244 30071 40089 56017 60101 76166 83272 333 56000 60057 83818 86460
AAXX 17064 97192 01460 80202 10264 20253 30027 40084 57027 60231 70296 8352/ 333 56009 60027 83615 88460
AAXX 17064 97230 01460 82509 10260 20228 30059 40066 57012 60051 76196 8627/ 333 56609 57862 69987 86814 80858
AAXX 17064 97260 01458 73207 10300 20247 30043 40050 58018 60021 72162 86971 333 56000 57902 60027 81917 80980 85617
AAXX 17064 97270 01420 80000 10244 20244 30066 40070 57003 60281 79596 9692/ 333 56009 57900 60287 82915 84816 86460 809//
AAXX 17064 97300 31560 73504 10294 20245 30026 40066 57013 71521 85231 333 56600 57862 85820 80858
AAXX 17064 97340 31568 83408 10300 20264 30046 40061 55004 71792 84902 333 56000 57900 82920 84620 86080 80980
AAXX 17064 97372 31460 63004 10294 20264 39930 40051 57020 70092 86931 333 56000 81915 85815
AAXX 17064 97430 01460 53012 10304 20247 30027 40056 57028 69901 72161 83232 333 56500 57851 69907 83818 80860
AAXX 17064 97460 32461 42703 10322 20264 30021 40035 57028 83832 333 56400 57842 82818 80858
AAXX 17064 97502 32460 50000 10316 20239 30042 40046 57019 84831 333 56000 57802 81810 83614 80850
AAXX 17064 97530 32458 73505 10310 20254 30047 40052 57014 84226 333 56000 57801 84814 83460 85280 80857
AAXX 17064 97560 01458 80000 10246 20243 30047 40062 57014 60541 76166 85877 333 56000 57802 60527 81818 84620 86361 88279 80860
AAXX 17064 97580 32462 23105 10316 20254 30063 40070 56032 82201 333 56000 57802 82814 80850
AAXX 17064 97600 32460 70000 10316 20251 30046 40052 58022 84871 333 56600 57861 83818 85459 80859
AAXX 17064 97686 31460 71405 10256 20133 38316 40048 57004 71622 85846 333 56000 57802 84813 86361 80859
AAXX 17064 97690 01462 61804 10302 20250 39944 40046 57019 60111 71796 83942 333 56000 57901 60117 82915 86080 80970
AAXX 17064 97724 32460 52805 10325 20229 30026 40042 56030 83836 333 56400 57842 82816 80850
AAXX 17064 97748 31462 53409 10304 20240 30056 40058 57002 70592 333 56800 57982 81914 82815 84075 80940 80850
AAXX 17064 97760 32462 63005 10332 20249 30039 40048 57022 83202 333 56000 57801 83816 80860
AAXX 17064 97796 31458 52108 10337 20245 30003 40054 57024 70522 83132 333 56000 83814
AAXX 17064 97810 NIL
AAXX 17064 97876 NIL
AAXX 17064 97900 NIL
AAXX 17064 97980 32460 52106 10314 20236 30034 40041 56017 81141 333 56000 81817 84080
AAXX 17064 96001 11457 81118 10276 20259 39953 40101 57015 60201 70522 84572 333 56200 84619
AAXX 17064 96015 32563 41905 10302 20272 30070 40077 56019 82272 333 56000 57801 82820 80860
AAXX 17064 96033 11456 60104 10288 20245 30100 40106 52005 69921 70596 82971 333 56000 57903 81920 82617 80980
AAXX 17064 96075 32462 70706 10312 20241 30087 40093 57008 82221 333 56000 57802 82816 85462 80856
AAXX 17064 96087 01460 70512 10288 20248 30049 40083 56022 60041 70262 83577 333 56100 60047 83615 87080
AAXX 17064 96171 32459 70000 10302 20241 30055 40080 57022 85222 333 56000 57801 85815 80856
AAXX 17064 96207 NIL
AAXX 17064 96505 32460 61806 10294 20233 39036 4//// 57020 86231 333 56000 57802 86817 80860
AAXX 17064 96525 32460 72306 10286 20250 30057 40064 57026 82275 333 56600 82815 85460
AAXX 17064 96529 11460 70000 10286 20249 30057 40081 57030 60051 70162 84121 333 56000 84818
AAXX 17064 96535 01460 70000 10307 20266 30061 40082 57024 60011 72162 84231 333 56000 57801 60017 84815 80867
AAXX 17064 96557 32460 70603 10305 20237 30021 40071 57020 85321 333 56600 57961 57861 81912 84813 87460 80980 80857
AAXX 17064 96559 32459 52703 10316 20245 30029 40067 57028 85230 333 56600 57862 85812 80857
AAXX 17064 96565 32460 60000 10312 20258 30026 40078 57025 83221 333 56000 57802 83810 80850
AAXX 17064 96595 31459 80000 10298 20252 30028 40079 57022 70522 8652/ 333 56609 86610
AAXX 17064 96607 32458 83303 10276 20232 30067 40082 57019 8592/ 333 56009 57940 81915 84613 88459 809//
AAXX 17064 96615 NIL
AAXX 17064 96695 32458 72408 10312 20245 30063 40068 58018 84221 333 56000 57802 84818 83460 80860
AAXX 17064 96737 32458 82606 10306 20243 30041 40072 58016 85221 333 56600 57862 85815 80862
AAXX 17064 96739 32460 82415 10298 20243 30033 40082 57018 8522/ 333 56009 57801 85818 80858
AAXX 17064 96741 32560 83310 10296 20242 30066 40070 56023 8357/ 333 56009 83621 86460
AAXX 17064 96745 32559 72506 10312 20237 30069 40073 57020 84221 333 56000 57801 84820 87460 80825
AAXX 17064 96751 31560 73003 10236 20203 39019 48920 57015 71400 87201 333 56600 57861 82820 86620 81080 80880
AAXX 17064 96791 NIL
AAXX 17064 96797 32560 73206 10302 20259 30060 40066 57023 82231 333 56000 57802 82820 85080 80860
AAXX 17064 96837 31458 73011 10312 20249 30067 40070 57024 71622 85971 333 56000 57900 81920 84823
AAXX 17064 96925 01461 82803 10262 20250 30067 40071 57017 60291 79196 84272 333 56600 57860 60187 84817 86460 80860
AAXX 17064 96933 01458 83208 10318 20240 30061 40065 57019 79592 69901 8592/ 333 56609 57961 81915 83616 88459 80970
AAXX 17064 96937 01559 83412 10320 20244 30054 40059 57021 69901 76022 8492/ 333 56009 57900 69907 82920 82820 88460 80960
AAXX 17064 96973 31462 83215 10316 20263 30059 40064 57022 70292 85971 333 56000 57902 82918 80976 83820 80850
AAXX 17064 96987 31457 71105 10290 20253 30010 40070 57006 71621 85921 333 56000 57902 81917 84617 80980
BBXX 44140 17061 99429 70515 46/// /1909 10156 40093 5//// 22200 00093 11005 70023 333 91211
AAXX 17064 97008 NIL
AAXX 17064 97016 32463 50505 10329 20245 30062 40064 57013 83931 333 56000 57901 57801 81918 82820 80984 80860
AAXX 17064 97126 32459 71305 10312 20258 30006 40066 57024 83221 333 56000 57802 83817 87460 80860
AAXX 17064 97142 NIL
AAXX 17064 97182 01458 80706 10244 20235 30075 40079 57021 60241 76166 8382/ 333 56009 57800 60067 82818 88460 808//
AAXX 17064 97240 11458 72810 10284 20244 39952 40067 57014 69901 70562 84171 333 56000 57801 84816 80860
AAXX 17064 97284 01410 80000 10216 20207 38839 40078 57012 60041 76166 87271 333 56000 57801 60047 87812 80837
AAXX 17064 97310 NIL
AAXX 17064 97320 11462 70805 10301 20254 30036 40049 57017 69901 71496 84921 333 56000 57901 57801 81917 83819 80960 80856
AAXX 17064 97378 32570 70000 10284 20249 39892 40055 56016 83171 333 56000 83820 85459
AAXX 17064 97380 01460 70000 10266 20255 30037 40057 57024 60251 72196 82172 333 56000 60067 82819 86459
AAXX 17064 97406 NIL
AAXX 17064 97570 NIL
AAXX 17064 97630 01467 61605 10294 20248 39891 40051 56022 60031 70282 84943 333 56000 57901 60037 82912 82813 86078 80976
AAXX 17064 97682 32465 53110 10316 20267 30051 40058 57010 84968 333 56000 57903 83917 80960
AAXX 17064 97698 NIL
AAXX 17064 97700 32462 50205 10308 20251 30033 40047 58011 82232 333 56000 57804 82818 80856
AAXX 17064 97722 31461 61606 10322 20238 30045 40050 57015 71522 86972 333 56600 57961 57861 81917 83818 80971 80856
AAXX 17064 97780 NIL
AAXX 17064 97790 32561 82705 10298 20250 30010 40031 57013 82821 333 56000 57802 81820 87458 80858
BBXX 42361 17061 99276 70925 46/// ///09 10222 20189 40230 50000 90630 555 11071 22076
BBXX 44062 17061 99386 70764 46/// /3405 1//// 90620 22200 00087 333 91207
BBXX 44062 17061 99386 70764 46/// /3305 1//// 40197 90610 22200 00087 333 91207
BBXX 44062 17061 99386 70764 46/// /3306 10055 40199 57004 90600 22200 00087 10201 70003 333 91207
BBXX 44063 17061 99390 70764 46/// /3404 1//// 90620 333 91205
BBXX 44063 17061 99390 70764 46/// /3404 1//// 40229 90610 333 91205
BBXX 44063 17061 99390 70764 46/// /3405 10054 40232 50000 90600 22200 00085 1//00 70001 333 91206
BBXX 44041 17061 99372 70768 46/// /0101 1//// 90620 333 91202
BBXX 44041 17061 99372 70768 46/// /0102 1//// 40237 90610 333 91203
BBXX 44041 17061 99372 70768 46/// /0102 10040 40238 58009 90600 22200 00097 1//00 70000 333 91203
BBXX 44042 17061 99380 70763 46/// /2804 1//// 90620 333 91205
BBXX 44042 17061 99380 70763 46/// /2804 1//// 40217 90610 333 91205
BBXX 44042 17061 99380 70763 46/// /2804 10058 40218 56009 90600 22200 00095 1//00 70001 333 91205
BBXX 44043 17061 99392 70764 46/// /3506 1//// 90620 333 91208
BBXX 44043 17061 99392 70764 46/// /3406 1//// 40215 90610 333 91207
BBXX 44043 17061 99392 70764 46/// /3406 10057 40215 55000 90600 22200 00076 10201 70004 333 91207
BBXX 44100 17061 99363 70756 46/// ///// 1//// 90622 22200 00132 11403 20503 308// 41402 70016
BBXX 41110 17061 99341 70777 46/// ///// 1//// 90621 22200 00142 11102 20401 311// 41101 70008
BBXX 42099 17061 99273 70842 46/// ///// 1//// 90627 22200 00235 10501 20501 70005
BBXX 41113 17061 99284 70805 46/// ///// 1//// 90621 22200 00218 11102 21001 309// 41101 70008
BBXX 42013 17061 99272 70829 46/// ///// 1//// 40216 90540 22200 00202
AAXX 17064 67863 12480 81302 10211 20193 38/// 48/// 60244 885// 333 20195 5//// 88610
AAXX 17064 67867 11380 71805 10184 20184 38601 48528 60154 75155 8763/ 333 20172 58008 87708
AAXX 17064 67861 12580 61702 10201 20164 38740 48520 69934 82570 333 20185 58005 82620 84459
AAXX 17063 67867 11380 71805 10184 20184 38601 48528 60154 75155 8763/ 333 20172 87708
AAXX 17063 67861 12580 61702 10201 20164 38740 48520 69934 82570 333 20185 82620 84459
AAXX 1706/ 89314 46/// ///// 11124 38207 4//// 5////
BBXX 44140 17061 99429 70515 46/// /1909 10156 40093 5//// 22200 00093 11005 70023 333 91211
BBXX 46036 17061 99484 71339 46/// /2011 10098 40142 57003 22200 00086 11511 70053 333 91214
BBXX 46036 17061 99484 71339 46/// /2011 10098 40142 57003 22200 00086 11511 70053 333 91214
AAXX 17064 67867 11380 71805 10184 20184 38601 48528 60154 75155 8763/ 333 20172 58008 87708
AAXX 17064 67861 12580 61702 10201 20164 38740 48520 69934 82570 333 20185 58005 82620 84459
AAXX 17061 40665 12960 00000 10100 20030 40215 52014 60002
AAXX 17061 40608 11550 70000 10086 20045 40218 52014 60002 70502 87800
AAXX 17061 40621 12960 00000 10085 20040 40236 52005 60002
AAXX 17061 40629 12960 00000 10045 20005 40236 52012 60002
AAXX 17061 40650 11940 23002 10076 20053 40213 52011 60002 71011 81032
AAXX 17064 88900 46/// /0505 10028 20026 30116 40119 58021 333 55021
BBXX 63110 17063 99595 10015 41/98 /3340 10074 49922 700// 8//// 22200 10607 70035
BBXX 62081 17064 99510 70134 46/// ///// 10090 20029 40212 52010 22200 00121 10910 70050
BBXX 62105 17064 99554 70122 46/// /3323 10070 20016 40136 52027 22200 00104 10810 70050 333 90710 91133
BBXX 63106 17064 99610 10017 46/// /3428 10043 49903 53019 22200
BBXX 63105 17064 99610 10017 47498 ///// 10048 20005 49903 53020 751// 22200
BBXX 62103 17064 99499 70029 46/99 /3018 10086 20036 40112 52021 22200 00122 11106 70029
BBXX 62305 17064 99504 10000 46/98 /3317 10057 20026 40089 52032 22200 00119 10703 70014 333 90710 91126
BBXX 62107 17064 99501 70061 46/// /3333 10088 20003 40143 50009 22200 00114 11009 70045 333 90710 91142
BBXX 62094 17064 99851 70067 46/// /2923 10076 20037 40130 52010 22200 00108 10807 70035 333 90710 91130
BBXX 62095 17064 99530 70159 46/// /3016 10079 20031 40208 51010 22200 00113 10810 70049 333 90710 91131
BBXX A8IY4 17061 99480 70093 41396 73115 10110 20101 40210 52015 70311 877// 22252 04120 21406 80105
BBXX WC5932 17064 99417 70874 43/// /2806 00/// 10016 21050 40284 58002 7//// 8//// 22200 0//// 2//// 3//// 4//// 5//// 6//// 81007 ICE /////
BBXX KAOU 17064 99031 10870 41798 50705 10310 2028/ 40075 57010 7//22 854// 22253 00289 20201 302// 40201 5//// 6//// 80290 ICE /////
BBXX V7HC8 17063 99065 70120 41/// 63206 10270 2027/ 4//// 5//// 7//// 8//// 22200 00291 2//// 3//// 4//// 5//// 6//// 80270 ICE /////
BBXX KNJK 17063 99256 70851 41798 10217 20192 40200 54000 70200 81/39 22273 00244 20201 302// 40402 5//// 6//// 80200 ICE /////
BBXX WKDY 17064 99360 70081 41298 83513 10170 20154 40280 57020 72582 886// 22224 00183 20302 335// 40802 5//// 6//// 80160 ICE /////
BBXX WRAH 17063 99377 10096 41897 73213 1//// 2//// 40077 53006 72582 87/9/ 22263 00181 20508 33128 40709 50507 6//// 8//// ICE /////
BBXX WCZ5238 17063 99112 71728 41697 60521 10240 20211 40120 54/// 78088 86/6/ 22273 00260 20905 305// 41207 5//// 6//// 80220 ICE /////
BBXX WCF3012 17064 99452 70832 41/98 83630 11050 40240 77172 22283 00070 20504
AAXX 17061 23426 12986 81903 11155 21174 30237 40263 57006 60010 8802/ 333 21233
AAXX 17061 23625 12999 01403 11092 21103 30230 40266 57008 60020 8807/ 333 21195
AAXX 17061 28076 32997 60000 11259 21271 30343 40424 54000 82048 333 21285
AAXX 17061 28367 32996 20000 11239 21257 30293 40437 52004 80001 333 21270
AAXX 17061 28382 32984 50000 11280 21304 30386 40468 52018 80005 333 21308
AAXX 17061 28481 11997 00000 11273 21291 30340 40453 52015 69900 70171 333 21279
AAXX 17061 28491 32967 01301 11257 21281 30345 40471 52013 333 21304
AAXX 17061 28573 11998 00000 11254 21272 30338 40456 52015 69920 70271 333 21267
AAXX 17061 28593 12998 00501 11273 21298 30354 40466 52012 69900 333 21285
AAXX 17061 28786 12998 00501 11261 21285 30270 40449 52022 69970 333 21249
AAXX 17061 28797 11997 00402 11294 21311 30263 40444 52020 69950 70271 333 21292
AAXX 17061 28799 11998 00604 11283 21306 30270 40435 52016 69920 70271 333 21296
AAXX 17061 20046 11995 81312 11124 21137 30130 40163 57012 69900 77173 8802/ 333 21254 91116 92982
AAXX 17061 20069 42977 00704 11208 21235 30212 40226 57002
AAXX 17061 20087 42998 00604 11241 21266 30221 40232 52005
AAXX 17061 20292 41998 10307 11189 21222 30197 40218 53016 73630 80001 333 91112
AAXX 17061 20353 NIL
AAXX 17061 20667 11596 81604 11063 21071 30122 40129 53003 69900 77172 8802/ 333 21072
AAXX 17061 20674 41296 71707 11084 21094 30102 40163 53002 78683 879// 333 86704 91111
AAXX 17061 20744 11596 82009 10008 21003 30035 40053 52011 69940 71022 8255/ 333 21024
AAXX 17061 20891 41497 72407 11176 21188 30173 40218 52006 78587 8693/ 333 86913 91109
AAXX 17061 23022 11496 82209 11020 21029 30085 40146 52011 69900 78583 889// 333 21055 91113
AAXX 17061 23032 11497 72411 11024 21036 30122 40152 52015 69970 73683 87500 333 21081 87618 91115
AAXX 17061 23058 32297 82206 11143 21163 30193 40198 57007 886// 333 21220 88706
AAXX 17061 23242 11496 72410 11153 21180 30213 40230 52002 69900 73832 83530 333 21219 91114
AAXX 17061 23256 11295 82310 11121 21141 30207 40244 57007 69960 78587 883// 333 21219 91013 91114 92990
AAXX 17061 23330 11297 82202 11181 21200 30334 40256 57010 69970 77172 8677/ 333 21214 86706 93533
AAXX 17061 23445 11496 81706 11131 21151 30269 40296 57004 69980 77173 885// 333 21205 88615
AAXX 17061 23552 11597 62004 11152 21165 30304 40341 57011 77173 86500 333 21234 86631
AAXX 17061 23631 11698 82005 11143 21163 30252 40296 57007 60010 70272 8557/ 333 21212 85640
AAXX 17061 23662 11999 52001 11213 21238 30353 40402 57007 69900 70272 80002 333 21250
AAXX 17061 23724 11999 81802 11082 21092 30213 40280 57004 60020 70272 8802/ 333 21147
AAXX 17061 23734 11496 81001 11187 21206 30233 40333 58016 69940 77172 8802/ 333 21255
AAXX 17061 23849 41156 40000 11252 21283 40432 57002 71011 84600 333 84702
AAXX 17061 23867 32999 52501 11255 21280 30375 40456 52002 80005 333 21315
AAXX 17061 23933 11997 81602 11252 21273 30342 40405 57001 69930 70272 80007 333 21284
AAXX 17061 28064 11999 31802 11173 21192 30295 40395 54000 69900 72271 82041 333 21234
AAXX 17061 28275 31998 20000 11282 21306 30381 40450 52006 70270 80001 333 21310
AAXX 17061 28493 12998 01202 11261 21285 30361 40466 52010 69900 333 21283
AAXX 17061 28698 11998 00602 11285 21308 30282 40460 52016 69900 77670 333 21294
AAXX 17064 78318 12565 50903 10228 20201 30193 40197 58005 60001 85800 333 10283 20167 31/// 56900 58015 84820
AAXX 17064 78325 11530 31201 10224 20193 30143 40201 58005 69911 70181 82240 333 10272 20191 30/// 56990 58014 70001 82820
AAXX 17064 78333 12410 60202 10217 20189 30188 40195 58004 60001 83240 333 10266 20185 30/// 56100 58017 83818 84361 555 10402
AAXX 17064 78348 11456 10702 10218 20199 30137 40189 58010 60001 70511 81800 333 10261 20213 30/// 56200 58007 70001 81819 555 10901
AAXX 17064 78349 12450 13401 10198 20191 30087 40197 58006 60001 81100 333 10267 20196 31/// 56900 58014 70013 81819
AAXX 17064 78353 12560 20902 10235 20203 30160 40182 58011 60001 82800 333 10261 20220 32/// 56900 58008 70035 81820
AAXX 17064 78360 12560 60103 10232 20189 30158 40169 58009 60001 86800 333 10300 20180 30/// 56900 58012 81820 85630 92022
AAXX 17064 78369 01464 30608 10250 20198 30159 40168 56008 69951 70380 83200 333 10272 20244 30/// 56900 57860 58011 69957 70006 83818
BBXX 51205 17061 99210 71564 46/// ///// 1//// 90618 22200 00244 11305 20903 333// 41304 70026
BBXX 42362 17061 99278 70907 46/// /0000 10222 20194 40237 90630
BBXX 42364 17061 99291 70881 46/// /0000 10211 20178 40237 90630
AAXX 17064 63688 32480 61002 10145 20138 48/// 82930 333 20083 59003 81919 86358
AAXX 17064 63708 12580 21206 10228 20168 48500 69934 81950 333 20170 59014 81924
AAXX 17064 63740 12570 50605 10201 20156 48519 69904 85200 333 20160 59005 85820
AAXX 17064 63820 32580 43608 10290 20238 40121 83230 333 20253 59007 83823
AAXX 17064 63612 NIL
AAXX 17064 63661 NIL
AAXX 17064 63671 NIL
AAXX 17064 63695 NIL
AAXX 17064 63714 NIL
AAXX 17064 63723 NIL
AAXX 17064 63772 NIL
AAXX 17064 63793 NIL
AAXX 17063 63723 32582 71103 10268 20235 40111 872// 333 20242 59006 87823
AAXX 17063 63793 32480 60608 10260 20225 40103 86100 333 20226 58000 86818
BBXX 44098 17061 99428 70702 46/// ///// 1//// 90607 22200 00091 10502 20502 311// 41301 70011
BBXX 44099 17061 99369 70757 46/// ///// 1//// 90622 22200 00124 11402 21002 309// 41402 70011
BBXX 44039 17061 99411 70727 46/// /3005 10064 21008 40200 90600 22200 00100 1//00 70002 333 91207
BBXX 44060 17061 99413 70721 46/// ///05 10051 40187 90630 22200 00108 333 91206 555 11046 22051
BBXX 44022 17061 99409 70737 46/// ///05 10052 21022 40196 90630 22200 00091 333 91206 555 11051 22051
BBXX 44040 17061 99410 70736 46/// /3105 10057 21014 40202 90619 22200 1//00 70001 333 91206 555 11057 22072
BBXX 46243 17061 99462 71241 46/// ///// 1//// 90629 22200 00081 11403 20902 326// 41403 70017
BBXX 46229 17061 99438 71246 46/// ///// 1//// 90621 22200 00103 11404 21002 328// 41404 70022
BBXX 46217 17061 99342 71194 46/// ///// 1//// 90612 22200 00150 11002 21002 327// 41101 70011
BBXX 46225 17061 99329 71174 46/// ///// 1//// 90614 22200 00144 11102 20902 328// 41101 70010
BBXX 46213 17061 99403 71247 46/// ///// 1//// 90624 22200 00104 11504 20803 329// 41503 70022
BBXX 46215 17061 99352 71209 46/// ///// 1//// 90608 22200 00130 10903 20903 329// 41102 70015
BBXX 46219 17061 99332 71199 46/// ///// 1//// 90628 22200 00138 11105 21004 330// 41103 70023
BBXX 46224 17061 99332 71175 46/// ///// 1//// 90606 22200 00151 11301 20801 322// 41301 70007
BBXX 51204 17061 99213 71581 46/// ///// 1//// 90622 22200 00248 11504 21002 331// 41504 70021
BBXX 51201 17061 99217 71581 46/// ///// 1//// 90612 22200 00245 11406 20902 332// 41405 70028
BBXX 51202 17061 99214 71577 46/// ///// 1//// 90609 22200 00246 11204 20903 301// 41202 70019
AAXX 17061 98134 11450 80407 10199 20177 39990 40184 5//// 69981 71584 8427/ 333 56199 84819 88357
AAXX 17061 98223 31565 70206 10283 20196 40103 57031 70544 81108 333 56999 81820 87278 91012
AAXX 17061 98232 11570 80211 10254 20234 40159 57012 60011 71542 8357/ 222// 20101 333 56199 83620 88358
AAXX 17061 98325 31462 43404 10310 20266 40082 57036 70544 81230 333 56999 81816 83358
AAXX 17061 98328 31462 71404 10242 20198 38503 40063 58028 74044 84231 333 56299 84813 83358
AAXX 17061 98330 31470 50406 10310 20260 30059 40091 57025 70544 83270 333 56999 83818 85358
AAXX 17061 98336 11468 80410 10247 20238 30120 40125 57022 60101 71562 8352/ 333 56199 83615 88456
AAXX 17061 98429 11560 80203 10278 20228 40092 57023 69991 76066 8387/ 333 56999 83823 88459
AAXX 17061 98430 11458 70202 10282 20234 40090 57019 69901 72584 83370 333 56199 81918 84358
AAXX 17061 98431 11468 80902 10272 20248 30037 40084 57023 60101 72186 8387/ 333 56999 83616 88459
AAXX 17061 98440 11450 81105 10261 20249 30091 40096 58030 60261 76086 8522/ 333 56299 85815 88457
AAXX 17061 98444 11450 80401 10256 20250 30065 40084 58025 60241 78082 8437/ 333 56299 82917 83818 88459
AAXX 17061 98526 32575 83202 10304 20260 40070 57023 8217/ 333 56199 82820 88358 98315
AAXX 17061 98531 11570 70604 10315 20248 30062 40066 58014 69901 72584 82258 333 56199 82820 84358
AAXX 17061 98536 11470 80304 10256 20230 39878 40083 57013 69901 71584 8427/ 222// 20101 333 56199 84818 88357
AAXX 17061 98543 11475 81102 10271 20257 30068 40079 58034 60011 70282 83407 333 56299 83618 88272
AAXX 17061 98550 11460 83401 10260 20249 40073 57024 60101 72586 8397/ 333 56999 81915 88357
AAXX 17061 98618 31470 80408 10308 20247 40059 58014 71522 8627/ 333 56299 86819 88457
AAXX 17061 98630 11465 80205 10282 20261 40127 58008 69941 78182 8422/ 222// 2//03 333 56199 84818 88458
AAXX 17061 98637 NIL
AAXX 17061 98646 32560 70304 10289 20264 30058 40086 57018 83238 333 56199 83820 83360 86275
AAXX 17061 98653 11465 70402 10280 20246 30010 40055 57019 69921 71584 82270 333 56199 82818 87358
AAXX 17061 98741 31468 70902 10297 20273 40050 57004 70544 82978 333 56199 82917 83358 87275
AAXX 17061 98747 31460 33201 10316 20260 39848 40051 57024 70544 82230 333 56999 82818
AAXX 17061 98753 31468 61603 10312 20271 40057 70544 84931 333 56999 84915 83359
AAXX 17061 98755 32575 60903 10300 20261 40061 58019 82908 333 56999 82920 86279
AAXX 17061 98836 32462 71802 10306 20254 40059 57021 83970 333 56599 83918 87362
BBXX 46036 17061 99484 71339 46/// /2011 10098 40142 57003 22200 00086 11511 70053 333 91214
BBXX 41113 17061 99284 70805 46/// ///// 1//// 90621 22200 00218 11102 21001 309// 41101 70008
BBXX 44043 17061 99392 70764 46/// /3506 1//// 90620 333 91208
BBXX 44043 17061 99392 70764 46/// /3406 10057 40215 55000 90600 22200 00076 10201 70004 333 91207
BBXX 44100 17061 99363 70756 46/// ///// 1//// 90622 22200 00132 11403 20503 308// 41402 70016
BBXX 41110 17061 99341 70777 46/// ///// 1//// 90621 22200 00142 11102 20401 311// 41101 70008
BBXX 42099 17061 99273 70842 46/// ///// 1//// 90627 22200 00235 10501 20501 70005
BBXX 44042 17061 99380 70763 46/// /2804 1//// 90620 333 91205
BBXX 44043 17061 99392 70764 46/// /3406 1//// 40215 90610 333 91207
BBXX 44042 17061 99380 70763 46/// /2804 10058 40218 56009 90600 22200 00095 1//00 70001 333 91205
BBXX 44042 17061 99380 70763 46/// /2804 1//// 40217 90610 333 91205
BBXX 44063 17061 99390 70764 46/// /3404 1//// 90620 333 91205
BBXX 44062 17061 99386 70764 46/// /3306 10055 40199 57004 90600 22200 00087 10201 70003 333 91207
BBXX 44041 17061 99372 70768 46/// /0101 1//// 90620 333 91202
BBXX 42361 17061 99276 70925 46/// ///09 10222 20189 40230 50000 90630 555 11071 22076
BBXX 44063 17061 99390 70764 46/// /3405 10054 40232 50000 90600 22200 00085 1//00 70001 333 91206
BBXX 44062 17061 99386 70764 46/// /3305 1//// 40197 90610 22200 00087 333 91207
BBXX 44062 17061 99386 70764 46/// /3405 1//// 90620 22200 00087 333 91207
BBXX 44063 17061 99390 70764 46/// /3404 1//// 40229 90610 333 91205
BBXX 44041 17061 99372 70768 46/// /0102 10040 40238 58009 90600 22200 00097 1//00 70000 333 91203
BBXX 44041 17061 99372 70768 46/// /0102 1//// 40237 90610 333 91203
BBXX 42013 17061 99272 70829 46/// ///// 1//// 40216 90540 22200 00202
BBXX 44140 17061 99429 70515 46/// /1909 10156 40093 5//// 22200 00093 11005 70023 333 91211
BBXX KS094 17064 99133 70596 43/// /0708 10260 40120 22200 06272
BBXX KS098 17064 99443 71244 43/// /0807 10099 40272 22272 06000
BBXX KS088 17064 99267 70801 43/// /1102 10234 40206 22200 06228
BBXX 44039 17061 99411 70727 46/// /3005 10064 21007 40198 90553 22200 00100 1//00 70002 333 91206
BBXX 46246 17061 99500 71451 46/// ///// 1//// 90629 22200 00074 11509 20905 329// 41508 70046
BBXX 46246 17061 99500 71451 46/// ///// 1//// 90559 22200 00074 11409 21005 329// 41408 70046
BBXX 44258 17061 99445 70634 46/// /2907 10029 40127 52021 22200 00074 10904 70019 333 91209
BBXX 46249 17061 99338 71197 46/// ///// 1//// 90612 22200 00146 11102 21002 328// 41101 70010
BBXX 46232 17061 99325 71174 46/// ///// 1//// 90608 22200 00148 10902 20902 328// 41101 70012
BBXX 46092 17061 99368 71220 46/// /0603 10113 40203 54000 90557 22200 00126 555 11026 22026
BBXX 44058 17061 99376 70763 46/// /3403 1//// 90620 333 91205
BBXX 44059 17061 99368 70763 46/// /0303 1//// 90620 333 91204
BBXX 44033 17061 99441 70690 46/30 /3103 10031 40152 56007 90604 22200 00082 11101 70006 333 91205 555 11037 22038
BBXX 44057 17061 99395 70761 46/// /3206 10043 40216 57002 90600 22200 00051 333 91207
BBXX 44057 17061 99395 70761 46/// /3305 1//// 40217 90610 333 91208
BBXX 44058 17061 99376 70763 46/// /3303 10058 40214 56010 90600 22200 00095 1//00 70002 333 91204
BBXX 44059 17061 99368 70763 46/// /0203 10058 40205 56014 90600 22200 00109 333 91204
BBXX 44059 17061 99368 70763 46/// /0202 1//// 40202 90610 333 91204
BBXX 44057 17061 99395 70761 46/// /3304 1//// 90620 333 91206
BBXX 44058 17061 99376 70763 46/// /3103 1//// 40208 90610 333 91205
BBXX 46146 17061 99493 71237 46/// /1106 10072 40292 57001 22200 00065 10301 70004 333 91209
BBXX 46004 17061 99509 71361 46/// /3304 10073 40132 52008 22200 00075 11611 70055 333 91207
BBXX WCX8882 17064 99309 11305 41498 53325 10110 2005/ 40298 55002 70211 852// 22273 00200 20202 3//// 4//// 5//// 6//// 80080 ICE /////
BBXX PBOF 17063 99388 11180 41995 02713 10010 20010 40340 58025 71000 80000 22200 04060 20301 30000 80010 90447
BBXX UGWJ 17061 99061 10989 42498 70508 10315 40116 54000 86271 22262 00283 20302
BBXX UDWE 17061 99459 11436 41498 73110 11073 40083 57009 70272 87200 22223 00023 20302 30300 40604
BBXX AMOUK01 17064 99464 30090 46/// ///// 10038 20020 39916 49921 54001 90550
BBXX C6W2032 17063 99011 10048 41798 71519 10270 2024/ 40100 54/// 70122 87223 22282 00270 20201 319// 40201 50201 6//// 80250 ICE /////
BBXX AMOUK15 17064 99159 50057 46/// ///// 10202 20133 30153 40178 57007 90550
BBXX ZDLS1 17063 99463 30089 41296 81911 10033 20031 40006 56006 75822 887// 22253 04057 20301 325// 40807 80032
BBXX V7HC8 17063 99065 70120 41/// 63206 10270 2027/ 4//// 5//// 7//// 8//// 22200 00291 2//// 3//// 4//// 5//// 6//// 80270 ICE /////
BBXX ZCDD6 17063 99234 70168 41298 20430 10190 20182 40278 57005 70100 8/1// 22255 00220 20805 304// 40806 5//// 80185
BBXX AMOUK20 17064 99198 50350 46/// ///// 10251 20212 30156 4//// 57004 90550
BBXX A8CJ2 17064 99251 50746 41598 71804 10195 20156 40180 53015 70222 87600 22284 04183 20301 323// 41004 5//// 80170
BBXX DFCX2 17063 99032 70781 41697 72611 10265 20223 40120 58010 70022 8702/ 22254 06267 20302
BBXX WKAW 17064 99275 70798 41497 70207 10230 2019/ 40202 58002 71422 8795/ 22286 00260 20402 302// 4//// 5//// 6//// 80200 ICE /////
BBXX A8CI8 17064 99500 70667 41597 73320 11050 40120 55010 70322 8547/ 22200 04040 20201
BBXX DDZK2 17064 99402 71387 41297 11931 10145 20137 40213 51010 76066 81145 22225 04140 20708 31999 40607 5//// 80140
BBXX 46184 17061 99539 71389 46/// /1801 10060 40131 52008 22200 00065 11711 70055 333 91203
BBXX 46132 17061 99497 71279 46/// /1611 10097 40223 57003 22200 00086 11807 70037 333 91212
BBXX 46181 17061 99538 71288 46/// /0504 10016 40133 57017 22200 00067 10200 70001 333 91204
BBXX 46205 17061 99542 71343 46/// /1401 10075 40118 52008 22200 00078 11609 70046 333 91202
BBXX 41009 17061 99285 70802 46/// /0000 10231 20179 40214 90620 22200 00249 11003 20401 300// 41003 70014 333 91202 555 11003 22003
BBXX 41010 17061 99289 70785 46/// /1604 10226 40212 90620 22200 00241 11003 20401 300// 41003 70016 333 91204 555 11036 22037
BBXX GDTT 17064 99181 70745 41197 20709 10260 20215 40159 58/// 7//11 82145 22233 00290 20404 80230
BBXX VQHO7 17064 99109 70601 41498 20421 10260 20231 40101 54000 70100 82200 22274 00287 29902 3//// 4//// 5//// 80240
BBXX ZCDM6 17063 99250 70800 41498 61112 10230 20201 40199 53012 70322 84863 22214 00270 20301 300// 4//// 5//// 80210
BBXX VQKZ6 17063 99103 70787 41698 50710 10262 20245 40113 54000 71352 8344/ 22253 02240 20402 307// 40504 5//// 80250
BBXX ZCDG4 17064 99179 70808 41698 50723 10264 20195 40153 50010 70122 82568 22284 00290 20302 305// 40704 5////
BBXX DGAF 17063 99513 70422 41598 52135 10092 20069 40110 57030 70222 855// 22254 00120 2//// 80080
BBXX 46206 17061 99488 71260 46/// /1708 10092 40274 52001 22200 00091 11306 70029 333 91210
BBXX KNJK 17063 99256 70851 41798 3019 10217 20192 40200 54000 70200 81/39 22273 00244 20201 302// 40402 5//// 6//// 80200 ICE /////
BBXX CFO383 17064 99439 70602 47598 /3017 10055 2000/ 40113 5//// 700// 8/ // 22200 0//// 1//// 2//// 3//// 70// 80034 333 91025
BBXX MINFR00 1706/ 99405 70739 46/// ///// 10055 40199 57009
BBXX 46185 17061 99524 71298 46/// /2011 10088 40111 57012 22200 00076 10806 70031 333 91214
BBXX 46087 17061 99485 71247 46/// /1103 10079 20078 40293 90620 22200 00077 333 91204 555 11034 22037 30610 41005 60619 110032 104031 095029 094030 092031 097031
BBXX 46088 17061 99483 71232 46/// /1304 10080 40291 90620 22200 00080 1//00 70001 333 91205 555 11041 22044 30618 41205 60619 125039 133038 139039 138040 141034 143024
BBXX V7HC6 17064 99273 70907 41/// /0103 10220 20205 40228 57002 700// 8//// 222// 00229 2//// 3//// 4//// 5//// 6//// 80210 ICE /////
BBXX C6TQ6 17064 99226 70865 41797 50619 10250 20207 40200 56020 70311 8596/ 22284 00270 20308 32727 40306 50206 6//// 80220 ICE /////
BBXX C6VG7 17064 99216 70860 41698 50812 10252 2017/ 40190 52001 7//11 84/3/ 22214 00280 20503 309// 4//// 5//// 6//// 80196 ICE /////
BBXX 41036 17061 99342 70770 46/// ///// 10179 20146 40177 90620 22200 00189
BBXX 46114 17061 99364 71222 46/// ///// 1//// 90604 22200 00125 11504 20903 330// 41502 70020
BBXX 44022 17061 99409 70737 46/// ///04 10054 21022 40197 90615 22200 00091 333 91206 555 11046 22046
BBXX 44039 17061 99411 70727 46/// /3005 10064 21008 40200 56013 90600 22200 00100 1//00 70002 333 91207
BBXX 44040 17061 99410 70736 46/// /3105 10057 21014 40202 90615 22200 1//00 70001 333 91206 555 11057 22072
BBXX 44030 17061 99432 70704 46/// /2705 1//// 40157 58008 90604 22200 00091 10301 70003 333 91207 555 11060 22064
BBXX 44032 17061 99437 70694 46/30 /3308 10041 40147 58005 90604 22200 00089 10302 70008 333 91210 555 11094 22099
BBXX 44029 17061 99425 70706 46/30 /3105 10046 40162 58007 90604 22200 00090 10301 70005 333 91205 555 11052 22054
BBXX 44060 17061 99413 70721 46/// ///04 10052 40187 90615 22200 00109 333 91206 555 11046 22046
BBXX WDA2768 17064 99440 70875 43/// /3609 00/// 11018 21067 40270 55006 7//// 8//// 22243 0//// 2//// 3//// 4//// 5//// 6//// 81035 ICE /////
BBXX WCF3012 17064 99452 70832 41/98 83630 11050 40240 77172 22283 00070 20504
BBXX WC5932 17064 99417 70874 43/// /2806 00/// 10016 21050 40284 58002 7//// 8//// 22200 0//// 2//// 3//// 4//// 5//// 6//// 81007 ICE /////
BBXX WYP8657 17064 99475 70879 41/98 43601 11066 2//// 40261 54/// 70301 8//// 22263 0//// 20201 3//// 4//// 5//// 6//// 8//// ICE /////
BBXX MGSM3 17064 99276 31540 41598 61223 10248 20170 40135 52003 70201 84300 22243 06250 20502 31717 40903 50903 80200
BBXX ZCBV4 17064 99162 30726 41598 21811 10300 20288 40119 54000 70100 81462 22253 00297 20401 314// 41003 5//// 80291
BBXX KAOU 17064 99031 10870 41798 50705 10310 2028/ 40075 57010 7//22 854// 22253 00289 20201 302// 40201 5//// 6//// 80290 ICE /////
BBXX FHZI 17064 99522 31451 46/// /2913 10066 20060 30193 40204 57015 22243 04062 85063
BBXX VNAH 17064 99333 31157 46/// /2707 10216 20145 30074 40097 57012 22200 85171
BBXX VROB 17064 99199 31538 46/// /1222 10261 20180 30085 40110 52001 22243 04272 85206
BBXX SHIP 17064 99228 31004 41598 71613 10230 20158 40135 57008 70122 87461 22232 00253 10803 20201 31511 40703 50601 85183
BBXX ZCBU3 17064 99340 31602 415// 31830 10190 20126 40167 50/// 7//// 8356/ 22224 00196 20202 318// 40406 5//// 80154
BBXX ZCDF4 17063 99169 71011 41/98 30703 10268 20239 40148 51014 70211 83/// 22265 00280 2//// 328// 40302 5//// 80248
BBXX WCZ5238 17063 99112 71728 41697 60521 10240 20211 40120 54/// 78088 86/6/ 22273 00260 20905 305// 41207 5//// 6//// 80220 ICE /////
BBXX A8DH2 17063 99350 70094 41498 72614 10190 20147 40288 53015 70222 86773 22223 04193 20102 30508 40202 50202 80165
BBXX UCAD 17061 99692 10128 41/97 91616 10050 49863 54000 70221 88/// 22253 00080 20204
BBXX WRAH 17063 99377 10096 41897 73213 1//// 2//// 40077 53006 72582 87/9/ 22263 00181 20508 33128 40709 50507 6//// 8//// ICE /////
BBXX WKDY 17064 99360 70081 41298 83513 10170 20154 40280 57020 72582 886// 22224 00183 20302 335// 40802 5//// 6//// 80160 ICE /////
BBXX MGSH7 17063 99516 10022 41/98 62719 10060 20036 40044 52020 70211 84/0/ 22253 20201 321// 40603 5//// 80050
BBXX KABL 17064 99377 70201 41598 83008 10180 2015/ 40340 54000 70322 885// 22224 00180 20101 330// 40502 5//// 6//// 80160 ICE /////
BBXX IDDUK02 17064 99608 50470 46/// ///// 49895 222//
BBXX ZDLP 17063 99607 50471 41/97 72842 10018 20015 49887 54000 70122 877// 22222 04002 20405 326// 40810 5//// 80017
BBXX ZSAF 17064 99621 50000 41599 72413 11035 21048 49641 52011 70177 875// 22242 05016 2//// 3//// 4//// 5//// ICE 76030
OOXX AAEMI 17064 99785 31731 57083 00521 46/// /1404 11067 21156 39879 49945 52003 90600
AAXX 17064 42492 31595 52702 10150 20109 40188 70511 83530 333 58002 83620 83360
AAXX 17064 42587 31995 00000 10200 20086 40181 70500 333 59002
AAXX 17064 42591 31993 02904 10148 20111 40193 74244 333 58004
AAXX 17064 42623 31495 41401 10184 20093 39288 40162 70540 84500 333 58005 84618
AAXX 17064 42701 31995 03203 10198 20027 39429 40163 70500 333 58000
AAXX 17064 42798 31995 00000 10220 20063 40164 70500 333 59005
AAXX 17064 42809 31995 03202 10210 20099 40169 70500 333 59004
AAXX 17064 91723 NIL
AAXX 17064 91964 NIL
AAXX 17061 01025 17/84 00801 11050 21072 39893 49904 52009 60002 700// 333 21051 91106
AAXX 17061 01311 47/84 31502 11007 21008 39843 49905 53005 700// 333 21007 91105
OOXX AALAU 17064 99775 31708 57070 00371 46/// /1503 11042 21126 39851 49897 52003 90600
OOXX AABRI 17064 99839 51342 60134 05251 46/// /0403 11084 21175 39319 49950 52015 90550
BBXX 44137 17061 99423 70620 46/// /3109 10081 40137 52011 22200 00098 11008 70038 333 91211
BBXX 44137 17061 99423 70620 46/// /3109 10081 40137 52011 22200 00098 11008 70038 333 91211
AAXX 17061 31152 42998 81802 11294 21324 39757 40200 57009 86036
AAXX 17061 31163 NIL
AAXX 17061 31285 42999 22001 11240 21296 30080 40166 57007 81049
AAXX 17061 31561 42999 02003 11201 21234 30128 40158 55003
AAXX 17061 31683 42999 52301 11134 21228 30036 40114 56005 80004
AAXX 17061 32010 41294 83013 11126 21139 39964 40014 53010 78683 889// 333 91018 91121
AAXX 17064 71761 16/// ///// 11060 21083 60001 333 11001 21143 70000
AAXX 17064 71592 16/// /1401 11180 21210 39962 49975 57005 60001 333 11176 21237 70000
AAXX 17064 71923 17/// ///04 11203 21220 39625 40085 58009 60011 7//4/ 333 11203 21269 70010 555 10010 20010
AAXX 17064 71490 16/// /3005 11268 21291 39812 40149 55003 60001 333 11256 21292 70000 555 33019 40071
AAXX 17064 71963 16/// /0108 11262 21286 39700 40120 53005 60001 333 11217 21294 70000 555 30918 40211
AAXX 17064 71049 16/// /3118 11258 30017 40041 56010 60001 333 11182 21265 70000 555 33130 40222
AAXX 17064 71592 16/// /1401 11180 21210 39962 49975 57005 60001 333 11176 21237 70000
AAXX 17064 41933 31920 03603 10160 20130 30155 40164 71044 333 58008 70000
AAXX 17064 71923 17/// ///04 11203 21220 39625 40085 58009 60011 7//4/ 333 11203 21269 70010 555 10010 20010
AAXX 17064 71049 16/// /3118 11258 30017 40041 56010 60001 333 11182 21265 70000 555 33130 40222
AAXX 17064 71761 16/// ///// 11060 21083 60001 333 11001 21143 70000
AAXX 17064 71490 16/// /3005 11268 21291 39812 40149 55003 60001 333 11256 21292 70000 555 33019 40071
AAXX 17064 71963 16/// /0108 11262 21286 39700 40120 53005 60001 333 11217 21294 70000 555 30918 40211
OOXX AAERI 17064 99849 51288 60048 09901 46/// /0413 11146 21160 38785 49934 52018 90600
BBXX 44138 17061 99443 70536 46/// /2708 10091 40083 52016 22200 00094 11007 70036 333 91210
BBXX 44138 17061 99443 70536 46/// /2708 10091 40083 52016 22200 00094 11007 70036 333 91210
AAXX 17061 30745 17061 41998 82406 11167 21186 39149 40371 58011 70243 83015
BBXX 46004 17061 99509 71361 46/// /3304 10073 40132 52008 22200 00075 11611 70055 333 91207
BBXX 46036 17061 99484 71339 46/// /2011 10098 40142 57003 22200 00086 11511 70053 333 91214
BBXX 46181 17061 99538 71288 46/// /0504 10016 40133 57017 22200 00067 10200 70001 333 91204
BBXX 46183 17061 99536 71311 46/// /2805 10074 40097 57001 22200 00079 10903 70013 333 91206
BBXX 46185 17061 99524 71298 46/// /2011 10088 40111 57012 22200 00076 10806 70031 333 91214
BBXX 46204 17061 99514 71288 46/// /1412 10095 40155 57006 22200 00085 11708 70040 333 91215
BBXX 46205 17061 99542 71343 46/// /1401 10075 40118 52008 22200 00078 11609 70046 333 91202
BBXX 46206 17061 99488 71260 46/// /1708 10092 40274 52001 22200 00091 11306 70029 333 91210
BBXX DDZK2 17064 99402 71387 41297 11931 10145 20137 40213 51010 76066 81145 22225 04140 20708 31999 40607 5//// 80140
BBXX KS098 17064 99443 71244 43/// /0807 10099 40272 22272 06000
BBXX OYCY2 17064 99439 71338 43/96 /2026 10130 20110 40270 57030 7//// 8//// 22273 00140 2//// 3//// 4//// 5//// 6//// 80120 ICE /////
AAXX 17064 89667 46/// /0105 11022 29059 39891 4//// 5//// 90630
AAXX 17064 89667 46/// /0205 11025 39891 4//// 5//// 90620
AAXX 17064 89667 46/// /0306 11039 39890 4//// 5//// 90610
AAXX 1706/ 89872 46/// ///// 10006 39852 4//// 5//// 90620
AAXX 1706/ 89869 46/// ///// 11089 39824 4//// 5//// 90630
AAXX 1706/ 89866 46/// ///// 11045 39780 4//// 5//// 90630
AAXX 1706/ 89329 46/// ///// 11139 38763 4//// 5//// 90620
AAXX 1706/ 89329 46/// ///// 11143 38764 4//// 5//// 90630
AAXX 1706/ 89799 46/// ///// 11279 4//// 5//// 90620
AAXX 1706/ 89799 46/// ///// 11275 4//// 5//// 90630
AAXX 1706/ 89327 46/// ///// 11029 39656 4//// 5//// 90620
AAXX 1706/ 89332 46/// ///// 11111 39263 4//// 5//// 90620
AAXX 1706/ 89332 46/// ///// 11108 39264 4//// 5//// 90630
AAXX 1706/ 89769 46/// ///// 11044 39875 4//// 5//// 90630
AAXX 1706/ 89828 46/// ///// 11253 36507 4//// 5//// 90630
AAXX 1706/ 89108 46/// ///// 11240 36904 4//// 5//// 90620
AAXX 1706/ 89314 46/// ///// 11136 38209 4//// 5//// 90630
AAXX 17063 67975 11340 81409 10198 20192 38950 48538 60164 75865 8757/ 333 20183 81708 87612
AAXX 17061 01115 11884 11613 10039 21029 39849 49869 53010 60002 70200 81070 333 20035 70024 91117
BBXX AMOUK20 17064 99198 50350 46/// ///// 10251 20212 30156 4//// 57004 90550
BBXX A8CJ2 17064 99251 50746 41598 71804 10195 20156 40180 53015 70222 87600 22284 04183 20301 323// 41004 5//// 80170
BBXX DFCX2 17063 99032 70781 41697 72611 10265 20223 40120 58010 70022 8702/ 22254 06267 20302
AAXX 17064 67975 11440 81409 10198 20192 38950 48538 60164 75865 8757/ 333 20183 58019 81708 87612
AAXX 17061 10961 11/01 93413 11174 21174 36841 47788 53012 60112 77374 333 11099 21176 49100 55000 55300 20000 40936 70129 91122 91211 96049
AAXX 17064 67975 11440 81409 10198 20192 38950 48538 60164 75865 8757/ 333 20183 58019 81708 87612
AAXX 17064 89573 35980 01108 10001 21139 39944 49966 57009
AAXX 17064 89610 46/// /0433 11050 39706 4//// 5//// 333 90700 91140
AAXX 17064 89614 46/// /0927 11046 29074 39035 4//// 5//// 333 90700 91136
AAXX 17064 94290 46/// /1323 10275 30087 40096 56004 90624
AAXX 17064 63962 11480 70000 10200 20191 38966 48515 60044 76162 8592/ 333 20190 50561 55087 55300 58005 85617 81919 86457
AAXX 17064 94290 46/// /1323 10275 30087 40096 56004 90624
AAXX 17064 89573 35980 01108 10001 21139 39944 49966 57009
AAXX 17064 89610 46/// /0433 11050 39706 4//// 5//// 333 90700 91140
AAXX 17064 89614 46/// /0927 11046 29074 39035 4//// 5//// 333 90700 91136
BBXX 44039 17061 99411 70727 46/// /3005 10064 21007 40198 90553 22200 00100 1//00 70002 333 91206
AAXX 17064 94210 35/// /2707 10329 30042 40047 57019
AAXX 17064 94289 46/// /1321 10281 30075 40082 56006 90615
AAXX 17064 94379 46/// /1323 10254 30126 40135 55000 90626
AAXX 17064 89003 46/89 /3118 11053 29068 38963 4//// 5////
BBXX 3EIU9 17064 99061 11116 41196 80604 10250 20240 40105 57008 72109 886// 90540 22222 00256 1//// 2//// 305// 40307 5//// 6//// 80240 /////
BBXX SHIP 17064 99205 11143 41696 60529 10195 20164 41019 56002 70202 86675 90600 22283 00240 1//// 2//08 30302 4//07 5//04 6//// 80175 //////
AAXX 17061 55228 32980 42902 11015 21303 36036 57006 80002 333 00402 21178
AAXX 17061 55578 32980 02506 10089 21288 36366 57016 333 00301 21028
AAXX 17061 55664 32980 10000 10046 21284 36009 57015 80001 333 00300 21149
AAXX 17061 55773 32970 02205 10080 21275 35996 57012 333 00006 21148
AAXX 17061 56116 32680 72701 11022 21112 36321 57017 879// 333 00254 21049
AAXX 17061 56137 32680 70702 10067 21174 36766 57030 879// 333 00251 21034
AAXX 17061 56172 32680 62703 10069 21083 37312 57054 81102 333 00000 21067
AAXX 17061 56247 32880 12503 10121 21130 37402 57049 81102 333 00100 21012
AAXX 17061 56312 32680 42002 10063 21080 37083 57028 84200 333 00100 21012
AAXX 17061 56462 32680 11602 10093 21113 37101 57046 81100 333 05206 21028
AAXX 17061 56651 32680 12903 10117 21062 37638 57032 81100 333 05101 21022
AAXX 17061 56691 11467 21602 10056 20031 37767 57037 69911 70064 82600 333 05406 21013 93429
AAXX 17061 56985 32562 21804 10142 20070 38735 40194 57036 82162 333 05203 20084
AAXX 17061 57633 11763 80701 10021 21038 39499 40308 57034 69901 77070 885// 333 05256 20021
AAXX 17061 57902 11458 80701 10065 20050 38659 40238 57036 69901 71060 885// 333 05401 20026
AAXX 17061 55279 32980 02908 11031 21328 35702 52001 333 00300 21192
AAXX 17061 55472 32980 02714 11007 21297 35738 57002 333 00301 21113 91121 91527
AAXX 17061 55696 32680 11401 10037 21140 36322 57039 81100 333 00101 21117
AAXX 17061 56079 11780 73602 11050 21093 36663 57014 69911 70070 875// 333 00051 21130
AAXX 17061 56106 32780 23207 10006 21276 36193 57020 82100 333 00300 21107
AAXX 17061 56257 32680 21104 10021 21159 36251 57025 82100 333 00001 21085
AAXX 17061 56374 32580 40907 11009 21083 37413 57034 82102 333 05200 21060
AAXX 17061 56385 11/00 90000 11065 21068 36999 57024 69981 77074 333 05201 21090 93436
AAXX 17061 56954 32580 32002 10221 20126 40162 57036 83200 333 05101 20115
AAXX 17061 56966 32770 71105 10203 20098 40171 57041 87400 333 05154 20159
AAXX 17061 57237 11960 83601 10067 20010 40280 57032 69901 76060 8807/ 333 20047
AAXX 17061 57306 11962 80000 10073 20041 40282 57029 69931 76066 8802/ 333 20064
AAXX 17061 57604 11756 81102 10078 20033 40263 57029 69901 72160 885// 333 20069
AAXX 17061 57707 11340 80901 10009 20009 38525 57026 69931 76066 887// 333 05352 20001
AAXX 17061 57832 32772 80202 10043 21042 39526 40287 57037 885// 333 05353 20031
AAXX 17063 67991 32980 21406 10228 20145 39636 48544 82030 333 20205 82360
AAXX 17064 67991 32980 21406 10228 20145 39636 48544 82030 333 20205 58040 82360
AAXX 1706/ 48969 NIL
AAXX 1706/ 48962 NIL
AAXX 1706/ 48990 NIL
AAXX 1706/ 48986 NIL
AAXX 1706/ 48995 NIL
AAXX 1706/ 48967 NIL
AAXX 1706/ 48992 NIL
AAXX 1706/ 48965 NIL
AAXX 1706/ 48985 NIL
AAXX 1706/ 48970 NIL
AAXX 1706/ 48991 NIL
AAXX 1706/ 48964 NIL
AAXX 1706/ 48997 NIL
AAXX 1706/ 48968 NIL
AAXX 1706/ 48973 NIL
AAXX 1706/ 48966 NIL
AAXX 1706/ 48983 NIL
AAXX 1706/ 48972 NIL
AAXX 1706/ 48998 NIL
AAXX 1706/ 48993 NIL
AAXX 1706/ 48971 NIL
AAXX 1706/ 48963 NIL
AAXX 1706/ 48987 NIL
AAXX 17061 22583 31350 81402 10000 21003 30018 40099 57016 77172 8872/ 333 20002 88707
AAXX 17064 68817 36/// /0303 10192 20151 30145 40158 52002 333 20161 91005 555 10260 91015
AAXX 17061 20353 46/// /1214 11055 21075 30120 40124 57002 333 91117
AAXX 17064 71406 17/// /3226 10003 21015 39894 49904 53038 60021 7//4/ 333 10041 21007 70109 555 33233 40062
AAXX 17064 71418 46/// /3032 10004 21024 30020 40052 53054 6///1 333 10105 20001 7//// 555 32958 40023
AAXX 17064 71981 46/// /2508 10025 21038 6///1 333 10033 21101 7////
AAXX 17064 71982 16/// /2303 11028 21066 60001 333 10025 21131 7////
AAXX 17064 71986 16/// /1707 11102 21112 60001 333 11070 21147 70000
AAXX 17064 71990 17/// /0502 11134 21148 38441 40056 56016 69961 7//4/ 333 11083 21172 70024 555 32127 40071
AAXX 17064 71354 16/// /2408 11030 21063 60001 333 10024 21130 70005 555 33020 40191
AAXX 17064 71048 16/// /2607 11066 21098 60001 333 11003 21127 70000 555 32620 40201
AAXX 17064 71277 46/// /1609 11031 21056 6///1 333 11012 21089 7//// 555 31617 40081
BBXX 42085 17061 99179 70665 46/// /0504 10247 40144 90630 333 91206
BBXX 42085 17061 99179 70665 46/// /0404 10246 40144 90620 333 91205
BBXX 42085 17061 99179 70665 46/// /0404 10248 40144 90610 333 91205
BBXX 41052 17061 99183 70648 46/// /0407 10260 40133 90630 333 91209
BBXX 41052 17061 99183 70648 46/// /0407 10258 40133 90620 333 91211
BBXX 41052 17061 99183 70648 46/// /0407 10259 40134 90610 333 91210
BBXX 41053 17061 99185 70661 46/// /0406 10246 40144 90630 333 91209
BBXX 41053 17061 99185 70661 46/// /0410 10246 40146 90620 333 91212
BBXX 41053 17061 99185 70661 46/// /0509 10253 40146 90610 333 91212
AAXX 17064 71277 46/// /1609 11031 21056 6///1 333 11012 21089 7//// 555 31617 40081
AAXX 17064 71406 17/// /3226 10003 21015 39894 49904 53038 60021 7//4/ 333 10041 21007 70109 555 33233 40062
AAXX 17064 71418 46/// /3032 10004 21024 30020 40052 53054 6///1 333 10105 20001 7//// 555 32958 40023
AAXX 17064 71354 16/// /2408 11030 21063 60001 333 10024 21130 70005 555 33020 40191
AAXX 17064 71981 46/// /2508 10025 21038 6///1 333 10033 21101 7////
AAXX 17064 71982 16/// /2303 11028 21066 60001 333 10025 21131 7////
AAXX 17064 71986 16/// /1707 11102 21112 60001 333 11070 21147 70000
AAXX 17064 71990 17/// /0502 11134 21148 38441 40056 56016 69961 7//4/ 333 11083 21172 70024 555 32127 40071
AAXX 17064 71048 16/// /2607 11066 21098 60001 333 11003 21127 70000 555 32620 40201
BBXX 44056 17061 99362 70757 46/// ///// 1//// 90550 22200 00126 11303 20503 308// 41302 70016
AAXX 17064 89657 46/// /2605 11025 20034 49830 52006
BBXX 42360 17061 99267 70905 46/// /0504 10230 90600 22200 00245 10702 70010 333 91205
AAXX 17064 89528 46/// /3246 11183 36812 4//// 5////
AAXX 17064 89628 46/// /3125 4//// 5////
BBXX ZCDF4 17063 99169 71011 41/98 30703 10268 20239 40148 51014 70211 83/// 22265 00280 2//// 328// 40302 5//// 80248
BBXX ZCBF3 17063 99430 70364 41996 82125 10165 20165 40177 56020 76162 88010 22264 2//// 323// 4//08 5//// 80165
BBXX A8OU4 17064 99404 71560 41/98 /2238 10095 20038 40210 54000 71311 8//// 22224 00140 21008 325// 40808 5//// 80070
AAXX 17064 89332 46/// /3506 11108 39260 49886 52013 90550
AAXX 17064 89667 46/// /0406 11040 39889 49899 52003 90600
AAXX 17064 89828 46/// /2208 11252 36474 4//// 52008 90550
AAXX 17064 82281 32970 00505 10261 20198 30029 40091 333 59005
BBXX WDA2768 17064 99440 70875 43/// /3609 00/// 11018 21067 40270 55006 7//// 8//// 22243 0//// 2//// 3//// 4//// 5//// 6//// 81035 ICE /////
BBXX WDE2719 17064 99607 71514 41598 80205 11006 2//// 49950 5//// 70222 8762/ 22200 05011 20101 324// 4//02 5//// 6//// 8//// ICE /////
BBXX 3EIU9 17064 99061 11116 41196 80604 10250 20240 40105 57008 72109 886// 90540 22222 00256 1//// 2//// 305// 40307 5//// 6//// 80240 /////
BBXX SHIP 17064 99205 11143 41696 60529 10195 20164 41019 56002 70202 86675 90600 22283 00240 1//// 2//08 30302 4//07 5//04 6//// 80175 //////
BBXX TBWUK07 17063 99292 30420 41598 61622 10253 20244 40160 57010 70011 814/8 22223 00212 20603 316// 41005 80247
BBXX 42360 17061 99267 70905 46/// /0504 10230 90600 22200 00245 10702 70010 333 91205
BBXX 44056 17061 99362 70757 46/// ///// 1//// 90550 22200 00126 11303 20503 308// 41302 70016
BBXX 41053 17061 99185 70661 46/// /0509 10253 40146 90610 333 91212
BBXX 41053 17061 99185 70661 46/// /0406 10246 40144 90630 333 91209
BBXX 41053 17061 99185 70661 46/// /0410 10246 40146 90620 333 91212
BBXX 41052 17061 99183 70648 46/// /0407 10258 40133 90620 333 91211
BBXX 41052 17061 99183 70648 46/// /0407 10259 40134 90610 333 91210
BBXX 41052 17061 99183 70648 46/// /0407 10260 40133 90630 333 91209
BBXX 42085 17061 99179 70665 46/// /0404 10246 40144 90620 333 91205
BBXX 42085 17061 99179 70665 46/// /0404 10248 40144 90610 333 91205
BBXX 42085 17061 99179 70665 46/// /0504 10247 40144 90630 333 91206
BBXX 44138 17061 99443 70536 46/// /2708 10091 40083 52016 22200 00094 11007 70036 333 91210
BBXX 44137 17061 99423 70620 46/// /3109 10081 40137 52011 22200 00098 11008 70038 333 91211
BBXX 44022 17061 99409 70737 46/// ///05 10052 21022 40196 90630 22200 00091 333 91206 555 11051 22051
BBXX 44040 17061 99410 70736 46/// /3105 10057 21014 40202 90619 22200 1//00 70001 333 91206 555 11057 22072
BBXX 46213 17061 99403 71247 46/// ///// 1//// 90624 22200 00104 11504 20803 329// 41503 70022
BBXX 46215 17061 99352 71209 46/// ///// 1//// 90608 22200 00130 10903 20903 329// 41102 70015
BBXX 46224 17061 99332 71175 46/// ///// 1//// 90606 22200 00151 11301 20801 322// 41301 70007
BBXX 46219 17061 99332 71199 46/// ///// 1//// 90628 22200 00138 11105 21004 330// 41103 70023
BBXX 44060 17061 99413 70721 46/// ///05 10051 40187 90630 22200 00108 333 91206 555 11046 22051
BBXX 44098 17061 99428 70702 46/// ///// 1//// 90607 22200 00091 10502 20502 311// 41301 70011
BBXX 44039 17061 99411 70727 46/// /3005 10064 21008 40200 90600 22200 00100 1//00 70002 333 91207
BBXX 44099 17061 99369 70757 46/// ///// 1//// 90622 22200 00124 11402 21002 309// 41402 70011
BBXX 46217 17061 99342 71194 46/// ///// 1//// 90612 22200 00150 11002 21002 327// 41101 70011
BBXX 46243 17061 99462 71241 46/// ///// 1//// 90629 22200 00081 11403 20902 326// 41403 70017
BBXX 46225 17061 99329 71174 46/// ///// 1//// 90614 22200 00144 11102 20902 328// 41101 70010
BBXX 46229 17061 99438 71246 46/// ///// 1//// 90621 22200 00103 11404 21002 328// 41404 70022
BBXX 42362 17061 99278 70907 46/// /0000 10222 20194 40237 90630
BBXX 42364 17061 99291 70881 46/// /0000 10211 20178 40237 90630
BBXX 51205 17061 99210 71564 46/// ///// 1//// 90618 22200 00244 11305 20903 333// 41304 70026
BBXX KNJK 17063 99256 70851 41798 10217 20192 40200 54000 70200 81/39 22273 00244 20201 302// 40402 5//// 6//// 80200 ICE /////
BBXX A8IY4 17061 99480 70093 41396 73115 10110 20101 40210 52015 70311 877// 22252 04120 21406 80105
BBXX 62107 17064 99501 70061 46/// /3333 10088 20003 40143 50009 22200 00114 11009 70045 333 90710 91142
BBXX 62094 17064 99851 70067 46/// /2923 10076 20037 40130 52010 22200 00108 10807 70035 333 90710 91130
BBXX 62095 17064 99530 70159 46/// /3016 10079 20031 40208 51010 22200 00113 10810 70049 333 90710 91131
BBXX 62305 17064 99504 10000 46/98 /3317 10057 20026 40089 52032 22200 00119 10703 70014 333 90710 91126
BBXX 41033 17061 99323 70804 46/// /2405 10151 40201 58012 90600 555 11068 22081
AAXX 17061 47003 42980 00504 11011 21218 30221 40225 57020
AAXX 17061 47005 41980 01402 11127 21199 38587 57007 70030
AAXX 17061 47022 42975 03603 11079 21213 38821 57015
AAXX 17061 47028 42969 00000 11028 21130 30198 40296 57027
AAXX 17061 47031 42970 03203 11090 21170 38939 57007
AAXX 17061 47037 42970 00000 11035 21177 30188 40317 58018
AAXX 17061 47039 42960 00000 11054 21160 30109 40309 57030
AAXX 17061 47046 42969 02305 10023 21097 30202 40225 57020
AAXX 17061 47050 42965 00000 11021 21152 30271 40312 57021
AAXX 17061 47052 42965 02905 11051 21168 39950 40304 57023
AAXX 17061 47060 42560 60702 11023 21087 30253 40316 57020 86020
AAXX 17061 47061 42980 03202 10014 21125 30211 40256 57017
AAXX 17061 47065 42970 10000 11024 21122 30266 40336 57006
AAXX 17061 47067 42965 03204 11020 21137 30211 40336 58025
AAXX 17061 47068 11560 80501 11016 21046 30268 40304 57022 69901 77271 86502
AAXX 17061 47070 42970 00000 11011 21131 30227 40318 57022
AAXX 17061 47075 42980 02506 11052 21177 39810 40257 57007
BBXX A8PB2 17063 99060 10862 41398 40806 10295 20218 40035 57010 70211 84770 22264 04290 20101 80240
BBXX VQOG5 17064 99021 11048 41498 50325 10279 20237 40080 57011 70282 82268 22243 00272 20606 80250
BBXX DDYL2 17063 99090 11091 41497 70330 10268 20222 40092 57020 70511 83215 22254 00260 20610 80235
BBXX VQIB9 17063 99055 11072 41/97 50525 10270 20226 40126 54000 70222 8/720 22254 00/// 2//// 305// 40703 80240
BBXX ELZU8 17063 99015 11044 41598 70416 10290 20242 40080 50005 70222 85265 222// 00/// 20202 303// 40404 80255
BBXX VRAR7 17063 99244 11276 41598 60416 10190 20124 40220 54000 70222 862// 22254 00232 20402 335// 41004 80150
BBXX S6JT 17064 99540 71565 41/98 /2423 10045 20020 4//// 52040 70211 8//// 22225 04040 80035
BBXX VRBQ6 17064 99340 71438 41/96 /2720 10200 20200 40234 51015 70166 8//// 22225 00182 80200
BBXX 9VDD2 17064 99365 71320 41597 72711 10040 20020 40250 54000 7//22 87443 22254 04060 21008 30101 41008 51008 85030
BBXX DDZF2 17064 99044 10990 41397 72910 10285 20251 40100 58010 78062 83774 22234 00290 20602 80260
AAXX 17061 47008 12570 40000 11002 21056 30177 40232 57013 69901 82550
AAXX 17061 47014 42950 00000 11125 21208 39860 40289 58027
AAXX 17061 47016 42970 00000 11103 21176 39376 40293 57038
AAXX 17061 47020 42965 00000 11086 21157 39919 40319 58030
AAXX 17061 47025 42968 02301 10035 21043 30195 40224 57020
AAXX 17061 47035 42970 00000 11029 21083 30329 40338 57022
AAXX 17061 47041 42970 02003 10024 21191 30203 40231 57027
AAXX 17061 47055 42970 02704 11008 21109 30227 40274 57015
AAXX 17061 47058 42960 00000 11037 21166 30271 40320 57022
AAXX 17061 47069 42965 02303 11002 21060 30208 40311 57024
BBXX A8PB2 17063 99060 10862 41398 40806 10295 20218 40035 57010 70211 84770 22264 04290 20101 80240
BBXX VQOG5 17064 99021 11048 41498 50325 10279 20237 40080 57011 70282 82268 22243 00272 20606 80250
BBXX DDYL2 17063 99090 11091 41497 70330 10268 20222 40092 57020 70511 83215 22254 00260 20610 80235
BBXX VQIB9 17063 99055 11072 41/97 50525 10270 20226 40126 54000 70222 8/720 22254 00/// 2//// 305// 40703 80240
BBXX ELZU8 17063 99015 11044 41598 70416 10290 20242 40080 50005 70222 85265 222// 00/// 20202 303// 40404 80255
BBXX VRAR7 17063 99244 11276 41598 60416 10190 20124 40220 54000 70222 862// 22254 00232 20402 335// 41004 80150
BBXX S6JT 17064 99540 71565 41/98 /2423 10045 20020 4//// 52040 70211 8//// 22225 04040 80035
BBXX VRBQ6 17064 99340 71438 41/96 /2720 10200 20200 40234 51015 70166 8//// 22225 00182 80200
BBXX 9VDD2 17064 99365 71320 41597 72711 10040 20020 40250 54000 7//22 87443 22254 04060 21008 30101 41008 51008 85030
BBXX DDZF2 17064 99044 10990 41397 72910 10285 20251 40100 58010 78062 83774 22234 00290 20602 80260
AAXX 17064 47575 11/60 82409 11013 21046 30178 40183 52004 60041 72682 882//
BBXX UAWH 16180 99705 10163 42698 72308 10040 2//// 49830 51013 70202 8//// 22281 00077 20504
AAXX 17064 89646 46/// /0215 11198 29080 37556 4//// 5////
AAXX 17064 89648 46/// /2110 11262 29064 37137 4//// 5////
AAXX 17064 89659 46/// /2110 11202 29072 37635 4//// 5////
AAXX 17064 89661 46/// /2315 11075 29083 39228 4//// 5////
AAXX 17064 89662 41557 81306 11025 21074 39787 49892 52002 71072 8452/ 222 ICE 98015 333 84625 88456 11023
AAXX 17064 89666 46/// /3513 11044 29085 39699 4//// 5////
AAXX 17064 71012 16/// /2307 11059 21088 60001 333 10019 21113 70000 555 32917 40221
AAXX 17064 71013 16/// ///// 11089 21106 60001 333 10001 21110 7////
AAXX 17064 71060 16/// /2903 10014 21060 38644 40216 58014 60001 333 10042 21090 70000 555 32517 40211
AAXX 17064 71974 46/// /2001 11371 21407 30107 40152 53002 6///1 333 11282 21386 7////
AAXX 17064 71399 16/// ///// 11115 21133 60001 333 11006 21149 70000
AAXX 17064 71848 16/// ///// 10008 21040 60001 333 10016 21100 70000
AAXX 17064 71073 16/// /1806 11036 21077 60001 333 10002 21106 70000
AAXX 17064 71565 16/// /1503 11119 21131 60001 333 11033 21125 70004
AAXX 17064 71566 46/// /2403 11013 21060 6///1 333 7////
AAXX 17064 71567 16/// /2607 11054 21081 60001 333 11004 21133 70000 555 32818 40211
AAXX 17064 71495 16/// /2611 10013 21061 60001 333 10042 21067 70000 555 32622 40191
AAXX 17064 71322 17/// /3507 11273 21297 30105 40118 56013 60011 7//4/ 333 11230 21279 70011 555 33235 40073
AAXX 17064 71793 16/// ///// 11115 21131 60001 333 10022 21143 70000
AAXX 17064 42706 31995 03203 10216 20068 40166 70500 333 59010
AAXX 17064 71012 16/// /2307 11059 21088 60001 333 10019 21113 70000 555 32917 40221
AAXX 17064 71013 16/// ///// 11089 21106 60001 333 10001 21110 7////
AAXX 17064 71060 16/// /2903 10014 21060 38644 40216 58014 60001 333 10042 21090 70000 555 32517 40211
AAXX 17064 71495 16/// /2611 10013 21061 60001 333 10042 21067 70000 555 32622 40191
AAXX 17064 71399 16/// ///// 11115 21133 60001 333 11006 21149 70000
AAXX 17064 71565 16/// /1503 11119 21131 60001 333 11033 21125 70004
AAXX 17064 71566 46/// /2403 11013 21060 6///1 333 7////
AAXX 17064 71567 16/// /2607 11054 21081 60001 333 11004 21133 70000 555 32818 40211
AAXX 17064 71073 16/// /1806 11036 21077 60001 333 10002 21106 70000
AAXX 17064 71793 16/// ///// 11115 21131 60001 333 10022 21143 70000
AAXX 17064 71974 46/// /2001 11371 21407 30107 40152 53002 6///1 333 11282 21386 7////
AAXX 17064 71848 16/// ///// 10008 21040 60001 333 10016 21100 70000
AAXX 17064 71322 17/// /3507 11273 21297 30105 40118 56013 60011 7//4/ 333 11230 21279 70011 555 33235 40073
AAXX 17061 01257 11983 01902 11025 21062 39735 49897 52012 69922 70100 333 21056 70002 91103
AAXX 17061 10791 01/90 92918 11060 21064 38285 48245 51021 60142 77374 333 10001 21061 49078 55000 55300 60037 70324 96049
AAXX 17064 60748 13960 41806 10098 20060 39730 40151 58006 60004 80002 333 20097 84070
AAXX 17061 02981 12366 80911 10035 20020 39877 49887 57008 69992 700// 88/// 333 10048 20033 3////
AAXX 17061 02849 11660 70000 11003 21005 39714 49987 52006 60024 773// 87/// 333 10005 21010 3//// 4/018
AAXX 17061 89063 41496 72406 11004 21016 39947 49958 52067 71072 876//
AAXX 17061 02924 31364 80000 10002 21001 39755 49952 54001 722// 88/// 333 10017 20002 3/100 4/009
AAXX 17064 97876 32460 52903 10324 20244 30055 40088 57018 84941 333 56000 57901 83910 81611 80958
AAXX 17064 65557 31908 0//// 10230 20221 39884 40123 74244 333 20212 58011
AAXX 17064 65560 31930 6//// 10200 20184 39801 40109 71011 80002 333 20175 59001 86076
AAXX 17064 65562 31420 6//// 10212 20195 3//// 4//// 71011 86500 333 20181 5//// 86613
AAXX 17064 65563 31930 00000 10149 20142 39876 40119 71000 333 20144 58002
AAXX 17064 65578 31420 11804 10245 20235 30100 40109 71000 81200 333 20244 58002 81812 94900
AAXX 17064 65585 32456 4//// 10240 20227 3//// 4//// 84500 333 20235 5//// 84613
AAXX 17064 65592 32458 4//// 10230 20230 30082 40105 84500 333 20225 58002 84613
AAXX 17064 65594 31903 70000 10235 20234 30079 40113 74644 8703/ 333 20231 58003 87360
AAXX 17064 65599 31302 5//// 10235 20232 30027 40101 74644 85500 333 20235 58000 82705 85613
BBXX 46241 17061 99330 71173 46/// ///// 1//// 90611 22200 00139 10802 20801 327// 41301 70008
BBXX 46236 17061 99368 71219 46/// ///// 1//// 90620 22200 00121 10903 20902 328// 41702 70014
BBXX 46216 17061 99343 71198 46/// ///// 1//// 90627 22200 00149 11002 21002 327// 41101 70011
BBXX 46216 17061 99343 71198 46/// ///// 1//// 90557 22200 00148 11202 20902 326// 41201 70011
BBXX 46223 17061 99335 71178 46/// ///// 1//// 90630 22200 00153 11301 21001 327// 41301 70007
BBXX 46231 17061 99327 71174 46/// ///// 1//// 90624 22200 00143 11202 20802 328// 41201 70010
BBXX 46222 17061 99336 71183 46/// ///// 1//// 90626 22200 00154 11101 21001 327// 41101 70007
BBXX 46242 17061 99332 71174 46/// ///// 1//// 90628 22200 00148 10901 20901 322// 41301 70006
BBXX 46221 17061 99339 71186 46/// ///// 1//// 90615 22200 00151 10901 20901 320// 41401 70007
AAXX 17061 48820 32598 80502 10174 20076 30215 40223 57039 888// 333 59006 83895 88697
AAXX 17061 48823 32998 03403 10182 20084 30214 40217 57037 333 59014
BBXX AMOUK08 17064 99501 70061 46/// ///// 10092 20032 30135 40136 52022 90550
BBXX 63110 17064 99595 10015 47598 /3329 10075 20016 49928 52014 700// 22200 10607 70034
BBXX 63106 17064 99610 10017 46/// /3428 10043 49903 53019 22200
BBXX 63113 17064 99610 10017 46/// /3530 10047 20000 49901 53013 22200 10707 70037
BBXX 62305 17064 99504 10000 46/98 /3317 10057 20026 40093 52032 22200 00119 10703 70014 333 90710 91126
BBXX 62103 17064 99499 70029 46/99 /3118 10081 20027 40106 52024 22200 00123 11006 70032 333 90710 91129
BBXX 62081 17064 99510 70134 46/// ///// 10090 2//// 40212 52010 22200 00121 10910 70050
BBXX 62105 17064 99554 70122 46/// /3323 10070 20016 40136 52027 22200 00103 10810 70050
BBXX 44024 17061 99423 70659 46/30 /3106 10072 40151 53006 90604 22200 00086 11106 70032 333 91207 555 11069 22072
AAXX 17063 63612 32980 00706 10288 20202 40123 333 20222 59004
AAXX 17063 63661 32480 20503 10205 20142 48536 81140 333 20112 59003 81819
AAXX 17063 63772 32580 60902 10294 20253 865// 333 20240 86622
AAXX 17064 17074 11/06 91801 10001 21001 39192 40146 52009 60002 74322 333 20001 34101 55000 20176 91104
AAXX 17064 17026 12670 63502 10101 20080 30082 40121 52010 60002 83270 333 20101 30006 55031 20833 83833 86358 91115 92428
BBXX TBWUK35 17064 99386 70103 41/98 63516 10147 20095 40277 54000 70222 865// 22274 00180 2//// 80120
BBXX PCSV 17060 99021 30732 41198 32610 10252 20248 40081 57009 70311 82111 22253 04282 20701 80249 90447
BBXX BATFR19 17064 99065 30060 46/// /1721 10239 20205 40127 53001 22200 00254
BBXX V2OG2 17063 99137 31070 41698 61816 10293 20219 40090 52003 70211 86130 22233 20402 319// 40503 80240
BBXX OVYB2 17061 99143 30620 41698 50502 10297 20237 40122 54000 70200 8434/ 22243 00300 20200 31700 41003 5//// 80255
BBXX ONDY 17064 99158 30109 41799 72918 10170 2014/ 40140 54000 70311 872// 22244 00220 20406 30101 40304 50303 6//// 80150 ICE /////
BBXX A8JK4 17064 99173 30660 41298 40000 10290 20220 40100 54000 70100 8116/ 22213 20000 316// 40803 5//// 80240 46379 1473171226
BBXX BATFR56 17064 99190 30587 44498 30812 10267 20202 40114 51004 70200 82193 22262 00280 20604 314// 40604 5////
BBXX BATFR55 17064 99201 30574 44597 71304 10229 20217 40117 72566 86172 22262 00259 203// 33030 406// 506//
BBXX ONCE 17064 99339 30410 41497 21628 10200 2015/ 40190 5//// 70200 821// 22224 00215 2//// 3//// 4//// 5//// 6//// 80165 ICE /////
BBXX DDDI2 17064 99341 30267 41998 00525 10225 20188 40175 56010 70200 80000 22254 04230 20505 324// 40908 5//// 80200
BBXX BATFR08 17064 99461 30730 46/// /2519 10072 20054 40188 51003 22213 00087
BBXX 41112 17061 99307 70813 46/// ///// 1//// 90621 22200 00161 11101 21001 310// 41101 70007
BBXX DGWE2 17063 99038 11054 41398 70724 10280 20239 40080 58018 70122 8776/ 22214 00280 21205 306// 40904 80250
BBXX V2OT9 17063 99362 70033 41997 62642 10170 20137 40180 53020 70211 84040 22262 20410 30000 4//// 5//// 80150
BBXX 2ALE5 17063 99411 70098 41698 43420 10140 20080 40273 55002 70211 8///6 22284 20508 80110
BBXX UBQE6 17061 99091 70161 41998 00000 10240 2//// 40090 53003 70200 80000 22273 00023 29999 39999 49999 59999
BBXX PEBT 17063 99379 70094 41497 53518 10150 20135 40280 53010 7//11 858// 22283 02143 20302 331// 41006 5//// 80141
BBXX 46238 17061 99334 71195 46/// ///// 1//// 90620 22200 00146 11103 21002 329// 41102 70015
AAXX 17061 11130 36/// ///// 1//// 2//// 333 49005 93105
AAXX 17064 43333 21495 80706 10260 20228 40109 70532 8542/ 333 56299 59006 6001/ 82616 84818 87458
BBXX BAREU56 17064 99436 10095 46/// ///// 49979 52034 22241
BBXX BAREU60 17064 99436 10135 46/// ///// 49953 52043 22242
BBXX 61001 17064 99434 10078 46/// /2835 10116 20055 40006 52012 22200 00151 10908 70042 555 1/047
BBXX BATFR41 17064 99432 10035 46/// /2832 10089 20037 40106 51017 22251
BBXX BATFR32 17064 99430 10061 46/// /3038 10098 21025 40077 52075 7//// 8//// 22254 00160
BBXX BATFR21 17064 99427 10087 46/// /2537 20295 40027 56010 22223
BBXX BATFR46 17064 99425 10036 46/// /3125 10097 20054 40133 51035 22243 00164
BBXX 61002 17064 99421 10047 46/// ///32 10108 2//// 40124 52022 22200 00145 10910 70049 555 1/042
BBXX BATFR31 17064 99419 10087 46/// ///// 10122 40064 51011 22200 00165
BBXX BATFR30 17064 99418 10084 46/// /2934 10125 20040 40048 22224 00169
BBXX C6WK7 17064 99413 10021 41897 42617 10090 2//// 40250 54/// 7//11 84132 222// 04170 20000 3//// 4//// 5//// 6//// 8//// ICE /////
BBXX BAREU51 17064 99410 10125 46/// ///// 49992 57005 22285
BBXX WRAH 17063 99377 10096 41897 73213 1//// 2//// 40077 53006 72582 87/9/ 22263 00181 20508 33128 40709 50507 6//// 8//// ICE /////
BBXX 8PSH 17064 99351 10214 46/// /2714 10176 20109 40143 53003 7//// 8//// 22223 0//// 2////
BBXX PGRQ 17064 99325 10180 41/98 32319 10185 2//// 40165 5//// 7//00 83100 22272 00196 20903 399// 40903
BBXX MINUK05 1706/ 99598 70062 46/// ///// 10048 40026 52016
BBXX AMOUK19 17064 99598 70012 46/// ///// 10048 2//// 39954 49958 52017 90550
BBXX BATFR04 17064 99597 70110 44497 83017 10044 21006 40078 51024 72122 887// 22200 00102 300// 40306 5////
BBXX BATEU04 17064 99594 70021 46/// /3520 10042 21013 49989 53017 22233
BBXX 64045 17064 99591 70117 46/// /3517 10039 20011 40092 52030 22200 00102 10809 70043 333 90710 91128
BBXX 2AAY7 17063 99584 70003 41297 83435 10066 20035 49977 52015 70252 887// 22200 20403 332// 40707 80053
BBXX 62112 17064 99584 70002 47598 /3324 10059 21001 49973 52015 700// 22200
BBXX 62113 17064 99584 10002 47597 /3419 10060 20015 49963 52020 700// 22200
BBXX 62129 17064 99584 10003 46/// ///// 10057 20012 49961 53013 22200
BBXX 62114 17064 99583 10000 46/// /3321 10056 20013 49976 52028 22200
BBXX BATUK01 17064 99582 70064 46/// /0005 10019 21005 40045 53025 22200 00109
BBXX PJAI 17064 99581 70014 47596 /3216 10061 21006 49991 53015 762// 22200
BBXX 62111 17064 99580 70003 46/// /3523 10063 20010 49983 51010 22200 10606 70029
BBXX 62117 17064 99579 10000 47598 /3320 10064 20009 49975 53009 700// 22200 10605 70027
BBXX AMOUK21 17064 99564 70055 46/// ///// 10040 20026 30040 40050 52008 90550
BBXX 62105 17064 99554 70122 46/// /3323 10070 20016 40136 52027 22200 00104 10810 70050 333 90710 91133
BBXX BAREU04 17064 99536 70039 46/// ///// 40050 22262
BBXX AMOUK14 17064 99535 70031 46/// ///// 10064 20028 30011 40045 57011 90550
BBXX 62095 17064 99530 70159 46/// /3016 10079 20031 40208 51010 22200 00113 10810 70049 333 90710 91131
BBXX 62301 17064 99524 70047 46/// /3023 10071 20034 40094 53014 22200 00097 10605 70027 333 90710 91131
BBXX 62094 17064 99517 70067 46/// /2923 10076 20037 40130 52010 22200 00108 10807 70035
BBXX 62303 17064 99516 70051 46/// /3124 10080 20030 40110 52008 22200 00112 10706 70031 333 90710 91133
BBXX 62023 17063 99514 70079 46/97 /2925 10061 2//// 40154 5//// 22200 10707 70036 333 91139 555 70057 81006
BBXX PHIN 17064 99510 70179 41/// /3018 10072 20049 40247 56002 7//// 8//// 22223 2//// 80061
BBXX 62081 17064 99510 70134 46/// ///// 10090 20029 40212 52010 22200 00121 10910 70050
BBXX BATFR03 17064 99508 70011 46/// /3115 10034 20010 40090 51031 22272
BBXX BATFR42 17064 99507 70020 46/// /2912 10035 20022 40100 51027 22261 00120
BBXX 62305 17064 99504 10000 46/98 /3317 10057 20026 40093 52032 22200 00119 10703 70014 333 90710 91126
BBXX AMOUK08 17064 99501 70061 46/// ///// 10092 20032 30135 40136 52022 90550
BBXX PJFF 17064 99499 70047 41/97 63126 10102 20083 40120 52025 70022 8//// 22224 20503 80092
BBXX 62103 17064 99499 70029 46/99 /3018 10086 20036 40112 52021 22200 00122 11106 70029
BBXX MINFR05 1706/ 99498 70009 46/// ///// 10073 40127 52033
BBXX PDHW 17063 99496 70071 41598 32720 10090 20035 40154 52040 70111 834// 22262 00100 2//// 80064
BBXX 9HA2950 17064 99496 70042 41498 63338 10084 20043 40108 50017 70262 862// 22253 00110 20405 328// 40607 5//// 80066
BBXX DDZA2 17064 99491 70090 41/97 53240 10080 20049 40175 57025 76088 8//// 22214 04120 2//// 80065
BBXX 62027 17064 99491 70022 46/// /3518 1//// 2//// 40116 52028 22200 00114 11306 327// 70029
BBXX 62442 17064 99490 70164 46/// /3116 1//// 2//// 40266 52005 22200 00128 333 90710 91130
BBXX BATFR27 17064 99488 70022 46/// /3318 10104 20024 40121 53029 22233 00117
BBXX 62029 17064 99487 70125 46/// /3224 10091 20044 40234 52002 22200 00131 10911 70057 333 90710 91132
BBXX TESTFR9 17064 99487 70040 46/// ///// 10086 29068 40161 52027 22252
BBXX A8IY4 17061 99480 70093 41396 73115 10110 20101 40210 52015 70311 877// 22252 04120 21406 80105
BBXX 62163 17064 99475 70084 46/// /3123 10093 20044 40214 51005 22200 00129 10912 70062 333 90710 91130
BBXX DGOS 17063 99456 70148 41497 63115 10115 20056 40285 55000 70222 857// 22213 21202 80085
BBXX BATFR54 17064 99455 70020 46/// /2922 10094 20057 40155 55009 22223 00145
BBXX 62001 17064 99452 70050 46/// /3319 10115 20065 40204 53010 22200 00143 10913 70067 333 90710 91135
BBXX BATFR13 17064 99447 70153 44797 73007 10119 20037 40295 57010 70222 8577/ 22214 00145
BBXX ELQQ4 17063 99414 70274 43/// /3019 10160 2//// 40280 54000 7//// 8//// 22254 00160 2//// 3//// 4//// 5//// 6//// ICE /////
BBXX BATFR09 17064 99404 70098 44498 43520 10132 20037 40282 51003 70222 84100 22282 00169 20304 332// 41116 5//// 60//0 ICE 0/0//
BBXX WGAX 17064 99399 70260 41898 32316 10165 2016/ 40255 57020 7//00 80//5 22263 00160 2//// 3//// 4//// 5//// 6//// 80160 ICE /////
BBXX A8PX4 17064 99391 70098 41/98 63415 10140 20057 40280 54000 70122 8//// 22284 00163 2//// 80097
BBXX WKAB 17064 99388 70192 41/98 /2716 10160 20152 40314 54000 7//// 8//// 22225 00166 2//// 3//// 4//// 5//// 6//// 80155 ICE /////
BBXX KABL 17064 99377 70201 41598 83008 10180 2015/ 40340 54000 70322 885// 22224 00180 20101 330// 40502 5//// 6//// 80160 ICE /////
BBXX DBBH 17061 99367 70115 41498 83608 10164 20136 40295 57005 70262 878// 22200 04179
BBXX NWS0020 17064 99367 70016 43/// /2621 10164 20142 40183 5//// 7//// 8//// 222// 04171 2//// 3//// 4//// 5//// 6//// 8//// ICE /////
BBXX WKDY 17064 99360 70081 41298 83513 10170 20154 40280 57020 72582 886// 22224 00183 20302 335// 40802 5//// 6//// 80160 ICE /////
BBXX A8DH2 17063 99350 70094 41498 72614 10190 20147 40288 53015 70222 86773 22223 04193 20102 30508 40202 50202 80165
BBXX WCX8882 17064 99309 11305 41498 53325 10110 20050 40298 55002 70211 852// 22273 00200 20202 3//// 4//// 5//// 6//// 80080 ICE /////
BBXX DGWE2 17063 99038 11054 41398 70724 10280 20239 40080 58018 70122 8776/ 22214 00280 21205 306// 40904 80250
BBXX UBQE6 17061 99091 70161 41998 00000 10240 2//// 40090 53003 70200 80000 22273 00023 29999 39999 49999 59999
BBXX 2ALE5 17063 99411 70098 41698 43420 10140 20080 40273 55002 70211 8///6 22284 20508 80110
BBXX TBWUK35 17064 99386 70103 41/98 63516 10147 20095 40277 54000 70222 865// 22274 00180 2//// 80120
BBXX V2OT9 17063 99362 70033 41997 62642 10170 20137 40180 53020 70211 84040 22262 20410 30000 4//// 5//// 80150
AAXX 17063 63671 32580 80000 10244 20232 887// 333 20224 88623
AAXX 17063 63695 32480 41402 10202 20162 84500 333 20118 84617
AAXX 17064 71102 16/// ///// 11066 21091 60001 333 10013 21132 7////
AAXX 17064 71105 16/// ///// 11079 21094 60001 333 11007 21148 70000
AAXX 17064 71502 16/// /1008 11222 21238 30085 40101 56006 60001 333 11222 21252 70000
AAXX 17064 71509 16/// /2519 10058 21009 60001 333 10058 21088 7////
AAXX 17064 71517 16/// /2724 10055 21015 60001 333 10055 21101 70000 555 32738 40003
AAXX 17064 71518 16/// /2904 11009 21039 60001 333 10016 21137 7////
AAXX 17064 71519 16/// /1503 11063 21069 60001 333 10031 21132 70000
AAXX 17064 71520 16/// /2814 11189 21212 39447 40140 55000 60001 333 11039 21189 70000
AAXX 17064 71521 16/// ///// 11164 21200 60001 333 11006 21166 70000
AAXX 17064 71523 16/// ///// 11166 21191 39796 40184 55001 60001 333 10006 21167 70000
AAXX 17064 71528 16/// /2618 10033 21011 60001 333 10035 21108 70000 555 32624 40051
AAXX 17064 71433 46/// /0406 11078 21111 30029 40268 58005 6///1 333 11029 21084 7//// 555 33532 40072
AAXX 17064 71383 16/// ///// 11166 21212 39523 40150 56003 60001 333 10001 21166 70000
AAXX 17064 71006 16/// /2506 11041 21079 60001 333 10042 21120 70000 555 32323 40151
AAXX 17064 71007 16/// ///// 10018 21025 60001 333 10036 21122 70000
AAXX 17064 71008 16/// /2802 11095 21111 60001 333 11021 21142 70000 555 32621 40181
AAXX 17064 71009 16/// /0000 11082 21097 60001 333 10006 21119 70000
AAXX 17064 71035 16/// ///// 11108 21119 60001 333 10028 21162 70000
AAXX 17064 71051 46/// ///// 11116 21126 6///1 333 7////
AAXX 17064 71057 16/// ///// 11019 21059 60001 333 10011 21132 70000
AAXX 17064 71070 16/// ///// 11001 21029 60001 333 10020 21115 70000
AAXX 17064 71089 16/// ///// 11075 21091 60001 333 10019 21125 70000
AAXX 17064 71841 16/// /1401 11254 21279 39838 40261 58018 60001 333 11149 21254 70000
AAXX 17064 71409 16/// ///// 11075 21086 60001 333 10039 21138 70004
AAXX 17064 71789 16/// ///// 10042 21016 60001 333 10045 21097 70000
AAXX 17064 71791 16/// /2507 11038 21074 60001 333 10025 21124 70000 555 32624 40191
AAXX 17064 71794 16/// ///// 11058 21087 60001 333 10012 21130 70000
AAXX 17064 71795 16/// ///// 11035 21056 60001 333 10013 21118 70000
AAXX 17064 71796 16/// ///// 11048 21083 60001 333 10042 21129 70000
AAXX 17064 71797 16/// ///// 11059 21080 60001 333 10014 21127 70000
AAXX 17064 71006 16/// /2506 11041 21079 60001 333 10042 21120 70000 555 32323 40151
AAXX 17064 71007 16/// ///// 10018 21025 60001 333 10036 21122 70000
AAXX 17064 71008 16/// /2802 11095 21111 60001 333 11021 21142 70000 555 32621 40181
AAXX 17064 71009 16/// /0000 11082 21097 60001 333 10006 21119 70000
AAXX 17064 71035 16/// ///// 11108 21119 60001 333 10028 21162 70000
AAXX 17064 71051 46/// ///// 11116 21126 6///1 333 7////
AAXX 17064 71057 16/// ///// 11019 21059 60001 333 10011 21132 70000
AAXX 17064 71070 16/// ///// 11001 21029 60001 333 10020 21115 70000
AAXX 17064 71089 16/// ///// 11075 21091 60001 333 10019 21125 70000
AAXX 17064 71383 16/// ///// 11166 21212 39523 40150 56003 60001 333 10001 21166 70000
AAXX 17064 71502 16/// /1008 11222 21238 30085 40101 56006 60001 333 11222 21252 70000
AAXX 17064 71509 16/// /2519 10058 21009 60001 333 10058 21088 7////
AAXX 17064 71517 16/// /2724 10055 21015 60001 333 10055 21101 70000 555 32738 40003
AAXX 17064 71518 16/// /2904 11009 21039 60001 333 10016 21137 7////
AAXX 17064 71519 16/// /1503 11063 21069 60001 333 10031 21132 70000
AAXX 17064 71520 16/// /2814 11189 21212 39447 40140 55000 60001 333 11039 21189 70000
AAXX 17064 71521 16/// ///// 11164 21200 60001 333 11006 21166 70000
AAXX 17064 71523 16/// ///// 11166 21191 39796 40184 55001 60001 333 10006 21167 70000
AAXX 17064 71528 16/// /2618 10033 21011 60001 333 10035 21108 70000 555 32624 40051
AAXX 17064 71789 16/// ///// 10042 21016 60001 333 10045 21097 70000
AAXX 17064 71791 16/// /2507 11038 21074 60001 333 10025 21124 70000 555 32624 40191
AAXX 17064 71794 16/// ///// 11058 21087 60001 333 10012 21130 70000
AAXX 17064 71795 16/// ///// 11035 21056 60001 333 10013 21118 70000
AAXX 17064 71796 16/// ///// 11048 21083 60001 333 10042 21129 70000
AAXX 17064 71797 16/// ///// 11059 21080 60001 333 10014 21127 70000
AAXX 17064 71102 16/// ///// 11066 21091 60001 333 10013 21132 7////
AAXX 17064 71105 16/// ///// 11079 21094 60001 333 11007 21148 70000
AAXX 17064 71841 16/// /1401 11254 21279 39838 40261 58018 60001 333 11149 21254 70000
AAXX 17064 71433 46/// /0406 11078 21111 30029 40268 58005 6///1 333 11029 21084 7//// 555 33532 40072
AAXX 17064 71409 16/// ///// 11075 21086 60001 333 10039 21138 70004
AAXX 17064 62002 32960 02716 10093 20022 39456 48510 57011 333 20086 50504 55096
AAXX 17064 62010 32960 02306 10068 20029 40171 55000 333 20067 55072
AAXX 17064 62012 32960 02103 10099 20060 30131 40161 57013 333 20090 50184
AAXX 17064 62016 32960 02206 10105 20053 40190 56007 333 20104 56314 55064
AAXX 17064 62124 32960 00000 10052 20014 39699 40213 53004 333 20048 50354 55107
AAXX 17064 62161 32970 00000 10072 20052 40197 54000 333 20070 50204 55088
AAXX 17064 62053 12560 51615 10127 20094 40184 56004 69904 85500 333 0XX19 20117 50174 55031 85620
AAXX 17061 10162 01462 73006 10028 20010 39794 49876 52039 60062 70276 875// 333 10039 20002 32100 55000 55300 20000 30000 69907 70160 87615 91114
AAXX 17064 42260 31995 09902 10192 20049 40193 70540 333 59003
AAXX 17064 60367 11560 7//// 10118 20106 40133 58006 60014 760// 878// 333 0//// 20111 82820 87840
AAXX 17064 62337 NIL
AAXX 17064 62366 31960 01403 10120 20079 40209 52012 71000 333 20107
AAXX 17061 10870 01215 82708 10001 20000 39444 49982 53019 69982 77372 8472/ 333 10077 20000 3/100 43003 55000 55300 69917 70074 84705 87512 91118 91212
AAXX 17064 62002 32960 02716 10093 20022 39456 48510 57011 333 20086 50504 55096
AAXX 17064 62010 32960 02306 10068 20029 40171 55000 333 20067 55072
AAXX 17064 62012 32960 02103 10099 20060 30131 40161 57013 333 20090 50184
AAXX 17064 62016 32960 02206 10105 20053 40190 56007 333 20104 56314 55064
AAXX 17064 62124 32960 00000 10052 20014 39699 40213 53004 333 20048 50354 55107
AAXX 17064 62161 32970 00000 10072 20052 40197 54000 333 20070 50204 55088
AAXX 17064 62053 12560 51615 10127 20094 40184 56004 69904 85500 333 0//19 20117 50174 55031 85620
AAXX 17061 89063 41496 72406 11004 21016 39947 49958 52067 71072 876//
BBXX S6SR 17064 99294 50144 41599 62311 10190 20175 40190 56020 7//22 861// 22213 00190 2//02 32222 41104 51104 6//// 80180 ICE /////
BBXX VRGO8 17064 99230 11171 41/97 90441 10150 20133 40238 56010 74444 8//// 22214 00190 20505 304// 40605 80140
BBXX SHIP 17061 99293 11231 41498 80011 10060 20020 40286 57010 70222 8896/ 22213 00159 20305 303// 40306 80042
BBXX VRIB2 17064 99156 10704 41998 00414 10290 20204 40137 50020 70200 8//// 22234 0//// 20201 309// 42002 80230
BBXX VQGQ4 17064 99244 11444 41297 80417 10250 20204 40160 54000 70322 8/7// 22283 00270 20000 306// 40403 80220
BBXX A8PB2 17063 99060 10862 41398 40806 10295 20218 40035 57010 70211 84770 22264 04290 20101 80240
BBXX VQIB9 17063 99055 11072 41/97 50525 10270 20226 40126 54000 70222 8/720 22254 00/// 2//// 305// 40703 80240
BBXX SHIP 17063 99244 11276 41598 60416 10190 20124 40220 54000 70222 862// 22254 00232 20402 335// 41004 80150
BBXX DDYL2 17063 99090 11091 41497 70330 10268 20222 40092 57020 70511 83215 22254 00260 20610 80235
BBXX UBQE6 17061 99091 70161 41998 00000 10240 2//// 40090 53003 70200 80000 22273 00023 29999 39999 49999 59999
BBXX 46238 17061 99334 71195 46/// ///// 1//// 90620 22200 00146 11103 21002 329// 41102 70015
BBXX 41112 17061 99307 70813 46/// ///// 1//// 90621 22200 00161 11101 21001 310// 41101 70007
BBXX 44024 17061 99423 70659 46/30 /3106 10072 40151 53006 90604 22200 00086 11106 70032 333 91207 555 11069 22072
BBXX 46221 17061 99339 71186 46/// ///// 1//// 90615 22200 00151 10901 20901 320// 41401 70007
BBXX 46242 17061 99332 71174 46/// ///// 1//// 90628 22200 00148 10901 20901 322// 41301 70006
BBXX 46223 17061 99335 71178 46/// ///// 1//// 90630 22200 00153 11301 21001 327// 41301 70007
BBXX 46222 17061 99336 71183 46/// ///// 1//// 90626 22200 00154 11101 21001 327// 41101 70007
BBXX 46231 17061 99327 71174 46/// ///// 1//// 90624 22200 00143 11202 20802 328// 41201 70010
BBXX 46216 17061 99343 71198 46/// ///// 1//// 90627 22200 00149 11002 21002 327// 41101 70011
BBXX 46216 17061 99343 71198 46/// ///// 1//// 90557 22200 00148 11202 20902 326// 41201 70011
BBXX 46236 17061 99368 71219 46/// ///// 1//// 90620 22200 00121 10903 20902 328// 41702 70014
BBXX 46241 17061 99330 71173 46/// ///// 1//// 90611 22200 00139 10802 20801 327// 41301 70008
BBXX 9VDD2 17064 99365 71320 41597 72711 10040 20020 40250 54000 7//22 87443 22254 04060 21008 30101 41008 51008 85030
BBXX S6JT 17064 99540 71565 41/98 /2423 10045 20020 4//// 52040 70211 8//// 22225 04040 80035
BBXX SHIP 17064 99340 71438 41/96 /2720 10200 20200 40234 51015 70166 8//// 22225 00182 80200
BBXX 41033 17061 99323 70804 46/// /2405 10151 40201 58012 90600 555 11068 22081
BBXX WDE2719 17064 99607 71514 41598 80205 11006 2//// 49950 5//// 70222 8762/ 22200 05011 20101 324// 4//02 5//// 6//// 8//// ICE /////
BBXX A8OU4 17064 99404 71560 41/98 /2238 10095 20038 40210 54000 71311 8//// 22224 00140 21008 325// 40808 5//// 80070
BBXX ZCBF3 17063 99430 70364 41996 82125 10165 20165 40177 56020 76162 88010 22264 2//// 323// 4//08 5//// 80165
BBXX 2ALE5 17063 99411 70098 41698 43420 10140 20080 40273 55002 70211 8///6 22284 20508 80110
BBXX TBWUK35 17064 99386 70103 41/98 63516 10147 20095 40277 54000 70222 865// 22274 00180 2//// 80120
BBXX V2OT9 17063 99362 70033 41997 62642 10170 20137 40180 53020 70211 84040 22262 20410 30000 4//// 5//// 80150
BBXX PEBT 17063 99379 70094 41497 53518 10150 20135 40280 53010 7//11 858// 22283 02143 20302 331// 41006 5//// 80141
BBXX DGWE2 17063 99038 11054 41398 70724 10280 20239 40080 58018 70122 8776/ 22214 00280 21205 306// 40904 80250
BBXX DDZF2 17064 99044 10990 41397 72910 10285 20251 40100 58010 78062 83774 22234 00290 20602 80260
BBXX VQOG5 17064 99021 11048 41498 50325 10279 20237 40080 57011 70282 82268 22243 00272 20606 80250
BBXX ELZU8 17063 99015 11044 41598 70416 10290 20242 40080 50005 70222 85265 222// 00/// 20202 303// 40404 80255
AAXX 17064 06610 31445 82110 10009 20000 39468 40060 52016 77172 8372/ 333 20009 32000 55000 55300 20000 83710 88520 90768 93100 91121 91212
AAXX 17064 06670 01240 82407 10010 21006 39512 40029 51016 60022 78581 885// 333 20005 3/100 43001 55000 55300 20000 69965 81703 85606 87614 90768 93101 91125 91213
AAXX 17064 06700 01575 72110 10027 21019 39582 40080 53019 60012 78782 878// 333 20010 32000 55000 55300 20000 60005 81620 85830 87645 90768 93100 91130 91212
AAXX 17064 06680 31/01 90002 11124 21124 37295 47809 52025 77394 333 21136 47135 55000 55300 20000 90768 93117 91154 91225
AAXX 17064 06990 01630 80203 10033 21043 39468 40015 52022 69982 77277 887// 333 20023 32002 55000 55300 20000 60005 88739 91127 91215
AAXX 17064 06760 01984 60402 10035 21031 39555 40004 52030 69962 72051 8601/ 333 20014 31001 55000 55300 20000 60005 86459 90768 93100 91116 91209
AAXX 17064 06720 01560 8//// 10009 20001 39474 40057 52020 60052 77377 8802/ 333 20004 3/000 43015 55000 55300 20000 69955 88524 90768 93101
BBXX ZCBV4 17064 99162 30726 41598 21811 10300 20288 40119 54000 70100 81462 22253 00297 20401 314// 41003 5//// 80291
BBXX JPAT 17064 99228 31004 41598 71613 10230 20158 40135 57008 70122 87461 22232 00253 10803 20201 31511 40703 50601 85183
BBXX TBWUK07 17063 99292 30420 41598 61622 10253 20244 40160 57010 70011 814/8 22223 00212 20603 316// 41005 80247
BBXX ZDLS1 17063 99463 30089 41296 81911 10033 20031 40006 56006 75822 887// 22253 04057 20301 325// 40807 80032
BBXX AMOUK01 17064 99464 30090 46/// ///// 10038 20020 39916 49921 54001 90550
AAXX 17064 97406 32460 51504 10302 20247 30028 40054 57014 83231 333 56600 57861 83818 80860
AAXX 17064 71249 46/// /2509 11071 21089 6///1 333 10003 21113 7//// 555 32720 40181
AAXX 17064 71014 16/// /1207 11060 21095 60001 333 10023 21085 7////
AAXX 17064 71674 16/// ///// 11048 21085 60001 333 10039 21121 70000
AAXX 17064 71481 16/// /2006 11006 21058 60001 333 10030 21084 70000
AAXX 17064 71498 16/// /2106 11043 21069 60001 333 11008 21118 70000
AAXX 17064 71413 16/// ///// 11065 21098 60001 333 10028 21130 70000
AAXX 17064 71414 16/// ///// 11057 21081 60001 333 10001 21166 70000
AAXX 17064 71440 16/// ///// 11022 21066 60001 333 10022 21104 70000
AAXX 17064 71857 16/// ///// 11070 21096 60001 333 10003 21148 70000
AAXX 17064 71055 46/// /1902 11224 21245 39757 40098 58008 6///1 333 11208 21235 7////
AAXX 17064 71065 16/// ///// 11092 21110 60001 333 10019 21173 70000
AAXX 17064 71904 16/// ///// 11082 21094 60001 333 10011 21114 70000
AAXX 17064 71540 16/// /1802 11092 21111 60001 333 11037 21127 70000
AAXX 17064 71544 16/// ///// 11021 21054 60001 333 10007 21104 70000
AAXX 17064 71548 16/// ///// 11050 21078 60001 333 10000 21143 7////
AAXX 17064 71346 16/// /2511 10029 21016 60001 333 10046 21106 70000 555 32718 40181
AAXX 17064 71360 16/// ///// 11067 21094 60001 333 10017 21134 70000
AAXX 17064 71380 16/// /1505 11061 21090 60001 333 10022 21088 70000 555 32419 40171
AAXX 17064 71249 46/// /2509 11071 21089 6///1 333 10003 21113 7//// 555 32720 40181
AAXX 17064 71014 16/// /1207 11060 21095 60001 333 10023 21085 7////
AAXX 17064 71674 16/// ///// 11048 21085 60001 333 10039 21121 70000
AAXX 17064 71413 16/// ///// 11065 21098 60001 333 10028 21130 70000
AAXX 17064 71414 16/// ///// 11057 21081 60001 333 10001 21166 70000
AAXX 17064 71440 16/// ///// 11022 21066 60001 333 10022 21104 70000
AAXX 17064 71857 16/// ///// 11070 21096 60001 333 10003 21148 70000
AAXX 17064 71360 16/// ///// 11067 21094 60001 333 10017 21134 70000
AAXX 17064 71380 16/// /1505 11061 21090 60001 333 10022 21088 70000 555 32419 40171
AAXX 17064 71481 16/// /2006 11006 21058 60001 333 10030 21084 70000
AAXX 17064 71498 16/// /2106 11043 21069 60001 333 11008 21118 70000
AAXX 17064 71346 16/// /2511 10029 21016 60001 333 10046 21106 70000 555 32718 40181
AAXX 17064 71540 16/// /1802 11092 21111 60001 333 11037 21127 70000
AAXX 17064 71544 16/// ///// 11021 21054 60001 333 10007 21104 70000
AAXX 17064 71548 16/// ///// 11050 21078 60001 333 10000 21143 7////
AAXX 17064 71904 16/// ///// 11082 21094 60001 333 10011 21114 70000
AAXX 17064 71055 46/// /1902 11224 21245 39757 40098 58008 6///1 333 11208 21235 7////
AAXX 17064 71065 16/// ///// 11092 21110 60001 333 10019 21173 70000
AAXX 1706/ 89872 46/// ///// 11010 39853 4//// 5//// 90640
AAXX 1706/ 89879 46/// ///// 11011 39746 4//// 5//// 90640
AAXX 17064 89667 46/// /0304 11030 39892 4//// 5//// 90640
AAXX 1706/ 89769 46/// ///// 11046 39875 4//// 5////
AAXX 17061 10430 01362 72605 10025 20015 39776 49969 53044 60032 77765 875// 333 10034 20006 31000 55000 55300 20000 30000 69917 70241 85708 87612
AAXX 17064 89013 46/// /0714 11216 21247 37626 49664 52009 90550
AAXX 17064 89257 46/// /1406 11048 21055 39714 49783 52011 90550
AAXX 17064 89266 46/// /1914 11053 21059 39639 49777 52035 90550
AAXX 17064 89272 46/// /3505 11114 21130 37958 49574 52021 90550
AAXX 17064 97900 11466 72908 10316 20260 30012 40040 56021 60111 70262 333 56000 57801 85615 80857
AAXX 17061 14105 11599 71402 10055 20043 39939 49943 53050 60742 751// 87700 333 20049 31004 55000 70113 91730 87740 555 20074 30085
BBXX A8OU4 17064 99404 71560 41/98 /2238 10095 20038 40210 54000 71311 8//// 22224 00140 21008 325// 40808 5//// 80070
BBXX S6JT 17064 99540 71565 41/98 /2423 10045 20020 4//// 52040 70211 8//// 22225 04040 80035
BBXX 9VDD2 17064 99365 71320 41597 72711 10040 20020 40250 54000 7//22 87443 22254 04060 21008 30101 41008 51008 85030
BBXX SHIP 17064 99340 71438 41/96 /2720 10200 20200 40234 51015 70166 8//// 22225 00182 80200
BBXX VRBQ6 17064 99340 71438 41/96 /2720 10200 20200 40234 51015 70166 8//// 22225 00182 80200
AAXX 17061 58968 32560 80804 10157 20108 30243 40251 57029 885//
AAXX 17061 58974 32565 80309 10146 20088 30138 40265 57024 885//
AAXX 17061 59358 31957 23604 10210 20127 30177 40209 57033 70500 80001
AAXX 17061 59559 32568 20407 10218 20140 30169 40197 57024 81102
AAXX 17061 59792 23560 80410 10206 20166 30189 40194 57031 8442/
AAXX 17061 59997 11458 60506 10280 20256 30076 40084 57022 60031 78022 83420
AAXX 17061 59158 32565 23603 10196 20105 30102 40203 57031 81531
AAXX 17061 59562 32665 70504 10212 20129 30207 40219 57026 875//
AAXX 17061 59567 32460 70108 10179 20150 39822 40204 57025 875//
AAXX 17064 91844 46/// /0000 10261 40140 22200 00277
AAXX 17064 60127 32560 82708 10108 20059 39674 40280 5/004 876// 333 20096 30082 87716
AAXX 17064 60210 32970 00000 10034 21028 39047 48547 58016 333 20015 31106
AAXX 17064 60340 32965 22216 10135 20059 40234 58012 80002 333 20117 82070
AAXX 17061 01415 17673 21403 11002 21009 39906 49917 50008 6//// 725// 333 21013 70010 91104
BBXX 63110 17063 99595 10015 41/98 /3340 10074 49922 700// 8//// 22200 10607 70035
BBXX 62081 17064 99510 70134 46/// ///// 10090 20029 40212 52010 22200 00121 10910 70050
BBXX 62105 17064 99554 70122 46/// /3323 10070 20016 40136 52027 22200 00104 10810 70050 333 90710 91133
BBXX 63106 17064 99610 10017 46/// /3428 10043 49903 53019 22200
BBXX 63105 17064 99610 10017 47498 ///// 10048 20005 49903 53020 751// 22200
BBXX 62103 17064 99499 70029 46/99 /3018 10086 20036 40112 52021 22200 00122 11106 70029
BBXX 62305 17064 99504 10000 46/98 /3317 10057 20026 40089 52032 22200 00119 10703 70014 333 90710 91126
BBXX 62107 17064 99501 70061 46/// /3333 10088 20003 40143 50009 22200 00114 11009 70045 333 90710 91142
BBXX AMOUK04 17064 99533 70062 46/// ///// 10031 2//// 30100 4//// 52049 90550
BBXX UASP 17061 99692 10352 41497 21903 11015 40013 52025 70111 8//// 222// 2////
BBXX A8VL8 17064 99095 30809 41298 40409 10270 20243 40090 54000 7//22 841// 22213 00280 20204 323// 40204 5//// 6//// 80250 ICE /////
BBXX 3FFL8 17064 99180 70636 41898 /0327 10250 2014/ 40120 54000 7//00 8//// 22282 04290 20504 30503 40604 50603 6//// 80180 ICE /////
BBXX ONFP 17064 99311 30476 43595 80719 10230 2022/ 40140 51010 7//11 88135 22213 04200 20304 30707 40304 50304 6//// 80220 ICE /////
BBXX ONFP 17064 99311 30476 43595 80719 10230 2022/ 40140 51010 7//11 88135 22213 04200 20304 30707 40304 50304 6//// 80220 ICE /////
BBXX S6SR 17064 99294 50144 41599 62311 10190 20175 40190 56020 7//22 861// 22213 00190 2//02 32222 41104 51104 6//// 80180 ICE /////
BBXX BSH05 17061 99550 10079 46/// ///// 22200 20704 70019
BBXX BSH03 17061 99540 10081 46/// ///// 22200 00066 20805 70025
BBXX A8VL8 17064 99095 30809 41298 40409 10270 20243 40090 54000 7//22 841// 22213 00280 20204 323// 40204 5//// 6//// 80250 ICE /////
BBXX 3FFL8 17064 99180 70636 41898 /0327 10250 2014/ 40120 54000 7//00 8//// 22282 04290 20504 30503 40604 50603 6//// 80180 ICE /////
OOXX GBP68 17041 99371 50123 ///// 00641 26/// /3514 10132 29068 30067 90400 333 60000
OOXX GBP68 17041 99371 50123 ///// 00641 26/// /3514 10134 29063 30068 90410 333 60000
OOXX GBP68 17041 99371 50123 ///// 00641 26/// /3515 10133 29066 30068 90420 333 60000
OOXX GBP68 17041 99371 50123 ///// 00641 26/// /3514 10130 29067 30070 90430 333 60000
OOXX GBP68 17041 99371 50123 ///// 00641 26/// /3514 10131 29067 30070 90440 333 60000
OOXX GBP68 17041 99371 50123 ///// 00641 26/// /3513 10131 29062 30067 90450 333 60000
OOXX GBP68 17051 99371 50123 ///// 00641 26/// /3516 10132 29064 30069 90500 333 60000
OOXX GBP68 17051 99371 50123 ///// 00641 26/// /3515 10133 29065 30066 90510 333 60000
OOXX GBP68 17051 99371 50123 ///// 00641 26/// /3514 10131 29062 30071 90520 333 60000
OOXX GBP68 17051 99371 50123 ///// 00641 26/// /3513 10124 29070 30074 90530 333 60000
OOXX GBP68 17051 99371 50123 ///// 00641 26/// /3514 10124 29071 30072 90540 333 60000
OOXX GBP68 17051 99371 50123 ///// 00641 26/// /3514 10125 29065 30075 90550 333 60000
OOXX NOP49 17041 99782 10154 ///// 04691 26/// /0910 11033 29087 39395 90410 333 6///0
OOXX NOP49 17041 99782 10154 ///// 04691 26/// /0910 11031 29086 39394 90420 333 6///0
OOXX NOP49 17041 99782 10154 ///// 04691 26/// /1011 11032 29086 39397 90430 333 6///0
OOXX NOP49 17041 99782 10154 ///// 04691 26/// /0911 11031 29085 39394 90440 333 6///0
OOXX NOP49 17041 99782 10154 ///// 04691 26/// /0911 11031 29085 39394 90450 333 6///0
OOXX NOP49 17051 99782 10154 ///// 04691 26/// /0913 11032 29086 39397 90500 333 6///0
OOXX NOP49 17051 99782 10154 ///// 04691 26/// /0913 11032 29086 39395 90510 333 6///0
OOXX NOP49 17051 99782 10154 ///// 04691 26/// /0913 11033 29086 39397 90520 333 6///0
OOXX NOP49 17051 99782 10154 ///// 04691 26/// /0911 11034 29086 39397 90530 333 6///0
OOXX NOP49 17051 99782 10154 ///// 04691 26/// /0911 11033 29083 39398 90540 333 6///0
OOXX NOP49 17051 99782 10154 ///// 04691 26/// /0912 11032 29082 39399 90550 333 6///0
OOXX NOP49 17061 99782 10154 ///// 04691 26/// /1013 11034 29084 39399 90600 333 6///0
OOXX AUP06 17041 99192 31468 ///// 00071 26/// /0909 10290 29057 30101 90452 333 60000
OOXX AUP06 17051 99192 31468 ///// 00071 26/// /0909 10290 29058 30099 90502 333 60000
OOXX AUP06 17051 99192 31468 ///// 00071 26/// /0810 10294 29058 30097 90512 333 60000
OOXX AUP06 17051 99192 31468 ///// 00071 26/// /0809 10292 29057 30095 90522 333 60000
OOXX AUP06 17051 99192 31468 ///// 00071 26/// /0909 10292 29058 30094 90532 333 60000
OOXX AUP06 17051 99192 31468 ///// 00071 26/// /0909 10291 29055 30093 90542 333 60000
OOXX AUP06 17051 99192 31468 ///// 00071 26/// /0908 10293 29055 30093 90552 333 60000
OOXX AUP06 17061 99192 31468 ///// 00071 26/// /0809 10294 29050 30092 90602 333 60000
OOXX AUP06 17061 99192 31468 ///// 00071 26/// /0910 10291 29051 30092 90612 333 60000
OOXX AUP06 17061 99192 31468 ///// 00071 26/// /0810 10290 29054 30092 90622 333 60000
OOXX AUP06 17061 99192 31468 ///// 00071 26/// /0910 10292 29054 30092 90632 333 60000
OOXX AUP06 17061 99192 31468 ///// 00071 26/// /0910 10288 29054 30092 90642 333 60000
OOXX CAP17 17031 99476 70527 ///// 01331 26/// /0809 10061 29087 39823 90350 333 60000
OOXX CAP17 17041 99476 70527 ///// 01331 26/// /0909 10060 29086 39822 90400 333 60000
OOXX CAP17 17041 99476 70527 ///// 01331 26/// /0911 10059 29086 39817 90410 333 60000
OOXX CAP17 17041 99476 70527 ///// 01331 26/// /0812 10058 29086 39824 90420 333 60000
OOXX CAP17 17041 99476 70527 ///// 01331 26/// /0810 10056 29087 39827 90430 333 60000
OOXX CAP17 17041 99476 70527 ///// 01331 26/// /0811 10057 29086 39826 90440 333 60000
OOXX CAP17 17041 99476 70527 ///// 01331 26/// /0811 10056 29086 39824 90450 333 60000
OOXX CAP17 17051 99476 70527 ///// 01331 26/// /0811 10054 29085 39829 90500 333 60000
OOXX CAP17 17051 99476 70527 ///// 01331 26/// /0811 10053 29083 39830 90510 333 60000
OOXX CAP17 17051 99476 70527 ///// 01331 26/// /0710 10050 29082 39829 90520 333 60000
OOXX CAP17 17051 99476 70527 ///// 01331 26/// /0710 10048 29081 39831 90530 333 60000
OOXX CAP17 17051 99476 70527 ///// 01331 26/// /0710 10045 29082 39834 90540 333 60000
OOXX RUP54 17041 99586 10494 ///// 01271 26/// /2010 11043 29091 30106 90427 333 60120
OOXX RUP54 17041 99586 10494 ///// 01271 26/// /0610 11044 29091 30108 90437 333 60120
OOXX RUP54 17041 99586 10494 ///// 01271 26/// /0311 11045 29091 30109 90447 333 60120
OOXX RUP54 17041 99586 10494 ///// 01271 26/// /0410 11045 29091 30109 90457 333 60120
OOXX RUP54 17051 99586 10494 ///// 01271 26/// /3410 11046 29091 30109 90507 333 60120
OOXX RUP54 17051 99586 10494 ///// 01271 26/// /2010 11047 29091 30110 90517 333 60120
OOXX RUP54 17051 99586 10494 ///// 01271 26/// /0610 11047 29091 30110 90527 333 60120
OOXX RUP54 17051 99586 10494 ///// 01271 26/// /0510 11047 29091 30109 90537 333 60120
OOXX RUP54 17051 99586 10494 ///// 01271 26/// /3310 11046 29091 30109 90547 333 60120
OOXX RUP54 17051 99586 10494 ///// 01271 26/// /0310 11046 29091 30109 90557 333 60120
OOXX RUP54 17061 99586 10494 ///// 01271 26/// /1110 11045 29091 30110 90617 333 60120
OOXX ARP01 17041 99345 50585 ///// 00311 26/// /2301 10076 29040 30083 90410 333 60000
OOXX ARP01 17041 99345 50585 ///// 00311 26/// /1801 10076 29040 30083 90420 333 60000
OOXX ARP01 17041 99345 50585 ///// 00311 26/// /2301 10076 29040 30081 90430 333 60000
OOXX ARP01 17041 99345 50585 ///// 00311 26/// /2001 10075 29040 30080 90440 333 60000
OOXX ARP01 17041 99345 50585 ///// 00311 26/// /2302 10075 29040 30079 90450 333 60000
OOXX ARP01 17051 99345 50585 ///// 00311 26/// /2301 10074 29040 30079 90500 333 60000
OOXX ARP01 17051 99345 50585 ///// 00311 26/// /2301 10074 29040 30079 90510 333 60000
OOXX ARP01 17051 99345 50585 ///// 00311 26/// /2301 10073 29040 30078 90520 333 60000
OOXX ARP01 17051 99345 50585 ///// 00311 26/// /2301 10072 29040 30077 90530 333 60000
OOXX ARP01 17051 99345 50585 ///// 00311 26/// /2301 10071 29040 30077 90540 333 60000
OOXX ARP01 17051 99345 50585 ///// 00311 26/// /2001 10071 29041 30078 90550 333 60000
OOXX ARP01 17061 99345 50585 ///// 00311 26/// /2001 10071 29041 30077 90600 333 60000
AAXX 17064 60107 32460 81804 10131 20063 40232 56013 888// 333 20108 30008 82816 87626 95300
OOXX AUP09 17041 99124 31309 ///// 00321 26/// ///// 1//// 29/// 3//// 90414 333 6///0
OOXX AUP09 17041 99124 31309 ///// 00321 26/// ///// 1//// 29/// 3//// 90424 333 6///0
OOXX AUP09 17041 99124 31309 ///// 00321 26/// ///// 1//// 29/// 3//// 90434 333 6///0
OOXX AUP09 17041 99124 31309 ///// 00321 26/// ///// 1//// 29/// 3//// 90444 333 6///0
OOXX AUP09 17041 99124 31309 ///// 00321 26/// ///// 1//// 29/// 3//// 90454 333 6///0
OOXX AUP09 17051 99124 31309 ///// 00321 26/// ///// 1//// 29/// 3//// 90504 333 6///0
OOXX AUP09 17051 99124 31309 ///// 00321 26/// ///// 1//// 29/// 3//// 90514 333 6///0
OOXX AUP09 17051 99124 31309 ///// 00321 26/// ///// 1//// 29/// 3//// 90524 333 6///0
OOXX AUP09 17051 99124 31309 ///// 00321 26/// ///// 1//// 29/// 3//// 90534 333 6///0
OOXX AUP09 17051 99124 31309 ///// 00321 26/// ///// 1//// 29/// 3//// 90544 333 6///0
OOXX AUP09 17051 99124 31309 ///// 00321 26/// ///// 1//// 29/// 3//// 90554 333 6///0
OOXX AUP09 17061 99124 31309 ///// 00321 26/// ///// 1//// 29/// 3//// 90604 333 6///0
OOXX CAP14 17041 99487 71234 ///// 00431 26/// /1302 10073 29085 30226 90420 333 60000
OOXX CAP14 17041 99487 71234 ///// 00431 26/// /1201 10074 29085 30227 90430 333 60000
OOXX CAP14 17041 99487 71234 ///// 00431 26/// /1301 10076 29082 30228 90440 333 60000
OOXX CAP14 17041 99487 71234 ///// 00431 26/// /1401 10075 29082 30228 90450 333 60000
OOXX CAP14 17051 99487 71234 ///// 00431 26/// /1301 10076 29081 30227 90500 333 60000
OOXX CAP14 17051 99487 71234 ///// 00431 26/// /1301 10076 29081 30225 90510 333 60000
OOXX CAP14 17051 99487 71234 ///// 00431 26/// /1002 10075 29082 30224 90520 333 60000
OOXX CAP14 17051 99487 71234 ///// 00431 26/// /1102 10075 29082 30227 90530 333 60000
OOXX CAP14 17051 99487 71234 ///// 00431 26/// /0000 10075 29082 30227 90540 333 60000
OOXX CAP14 17051 99487 71234 ///// 00431 26/// /1001 10076 29081 30227 90550 333 60000
OOXX CAP14 17061 99487 71234 ///// 00431 26/// /1801 10078 29082 30227 90600 333 60000
OOXX CAP14 17061 99487 71234 ///// 00431 26/// /1301 10076 29082 30226 90610 333 60000
OOXX FRP31 17031 99052 70527 ///// 00091 26/// /1101 10253 29086 30165 90357 333 60000
OOXX FRP31 17041 99052 70527 ///// 00091 26/// /1202 10249 29088 30165 90407 333 60000
OOXX FRP31 17041 99052 70527 ///// 00091 26/// /1501 10245 29090 30163 90417 333 60000
OOXX FRP31 17041 99052 70527 ///// 00091 26/// /1302 10243 29091 30162 90427 333 60000
OOXX FRP31 17041 99052 70527 ///// 00091 26/// /1201 10243 29092 30161 90437 333 60000
OOXX FRP31 17041 99052 70527 ///// 00091 26/// /1202 10242 29092 30160 90447 333 60000
OOXX FRP31 17041 99052 70527 ///// 00091 26/// /1202 10242 29093 30159 90457 333 60000
OOXX FRP31 17051 99052 70527 ///// 00091 26/// /1201 10242 29092 30159 90507 333 60000
OOXX FRP31 17051 99052 70527 ///// 00091 26/// /1101 10242 29092 30158 90517 333 60000
OOXX FRP31 17051 99052 70527 ///// 00091 26/// /1101 10242 29092 30158 90527 333 60000
OOXX FRP31 17051 99052 70527 ///// 00091 26/// /1101 10242 29092 30157 90537 333 60000
OOXX FRP31 17051 99052 70527 ///// 00091 26/// /1201 10241 29092 30156 90547 333 60000
OOXX FRP28 17041 99163 70615 ///// 00091 26/// /0000 10218 29088 30174 90407 333 60000
OOXX FRP28 17041 99163 70615 ///// 00091 26/// /0000 10217 29089 30174 90417 333 60000
OOXX FRP28 17041 99163 70615 ///// 00091 26/// /0000 10216 29089 30172 90427 333 60000
OOXX FRP28 17041 99163 70615 ///// 00091 26/// /0000 10215 29089 30172 90437 333 60000
OOXX FRP28 17041 99163 70615 ///// 00091 26/// /0000 10215 29089 30171 90447 333 60000
OOXX FRP28 17041 99163 70615 ///// 00091 26/// /0000 10215 29089 30171 90457 333 60000
OOXX FRP28 17051 99163 70615 ///// 00091 26/// /0000 10213 29089 30168 90507 333 60000
OOXX FRP28 17051 99163 70615 ///// 00091 26/// /0000 10213 29089 30169 90517 333 60000
OOXX FRP28 17051 99163 70615 ///// 00091 26/// /0000 10212 29090 30168 90527 333 60000
OOXX FRP28 17051 99163 70615 ///// 00091 26/// /0000 10210 29090 30165 90537 333 60000
OOXX FRP28 17051 99163 70615 ///// 00091 26/// /0000 10209 29090 30163 90547 333 60000
OOXX FRP28 17051 99163 70615 ///// 00091 26/// /0000 10211 29090 30164 90557 333 60000
OOXX RUP59 17041 99539 10848 ///// 02121 26/// /0000 11238 29066 30116 90440 333 60000
OOXX RUP59 17041 99539 10848 ///// 02121 26/// /0000 11226 29066 30116 90450 333 60000
OOXX RUP59 17051 99539 10848 ///// 02121 26/// /0000 11229 29065 30114 90500 333 60000
OOXX RUP59 17051 99539 10848 ///// 02121 26/// /0000 11227 29066 30115 90510 333 60000
OOXX RUP59 17051 99539 10848 ///// 02121 26/// /0201 11222 29068 30114 90520 333 60000
OOXX RUP59 17051 99539 10848 ///// 02121 26/// /0000 11206 29066 30115 90530 333 60000
OOXX RUP59 17051 99539 10848 ///// 02121 26/// /0000 11199 29062 30114 90540 333 60000
OOXX RUP59 17051 99539 10848 ///// 02121 26/// /0000 11188 29063 30113 90550 333 60000
OOXX RUP59 17061 99539 10848 ///// 02121 26/// /0000 11181 29063 30112 90600 333 60000
OOXX RUP59 17061 99539 10848 ///// 02121 26/// /0000 11179 29064 30111 90610 333 60000
OOXX RUP59 17061 99539 10848 ///// 02121 26/// /0000 11168 29060 30111 90620 333 60000
OOXX RUP59 17061 99539 10848 ///// 02121 26/// /0501 11166 29058 30110 90630 333 60000
OOXX FRP29 17031 99210 30556 ///// 00751 26/// /2110 10267 29070 39842 90356 333 60000
OOXX FRP29 17041 99210 30556 ///// 00751 26/// /2110 10268 29069 39845 90406 333 60000
OOXX FRP29 17041 99210 30556 ///// 00751 26/// /2009 10270 29069 39846 90416 333 60000
OOXX FRP29 17041 99210 30556 ///// 00751 26/// /2009 10272 29070 39843 90426 333 60000
OOXX FRP29 17041 99210 30556 ///// 00751 26/// /2110 10271 29071 39844 90436 333 60000
OOXX FRP29 17041 99210 30556 ///// 00751 26/// /2109 10268 29072 39842 90446 333 60000
OOXX FRP29 17041 99210 30556 ///// 00751 26/// /2109 10271 29072 39847 90456 333 60000
OOXX FRP29 17051 99210 30556 ///// 00751 26/// /1909 10276 29070 39844 90506 333 60000
OOXX FRP29 17051 99210 30556 ///// 00751 26/// /1908 10273 29070 39843 90516 333 60000
OOXX FRP29 17051 99210 30556 ///// 00751 26/// /1909 10274 29068 39842 90526 333 60000
OOXX FRP29 17051 99210 30556 ///// 00751 26/// /1808 10275 29068 39841 90536 333 60000
OOXX FRP29 17051 99210 30556 ///// 00751 26/// /1809 10276 29068 39843 90546 333 60000
OOXX GBP67 17041 99159 50057 ///// 04381 26/// /0902 10158 29084 39674 90410 333 60000
OOXX GBP67 17041 99159 50057 ///// 04381 26/// /0902 10158 29083 39672 90420 333 60000
OOXX GBP67 17041 99159 50057 ///// 04381 26/// /0903 10157 29083 39673 90430 333 60000
OOXX GBP67 17041 99159 50057 ///// 04381 26/// /0903 10156 29082 39673 90440 333 60000
OOXX GBP67 17041 99159 50057 ///// 04381 26/// /0903 10158 29083 39672 90450 333 60000
OOXX GBP67 17051 99159 50057 ///// 04381 26/// /0903 10159 29083 39674 90500 333 60000
OOXX GBP67 17051 99159 50057 ///// 04381 26/// /1003 10160 29081 39676 90510 333 60000
OOXX GBP67 17051 99159 50057 ///// 04381 26/// /0903 10161 29080 39676 90520 333 60000
OOXX GBP67 17051 99159 50057 ///// 04381 26/// /0903 10161 29079 39677 90530 333 60000
OOXX GBP67 17051 99159 50057 ///// 04381 26/// /0903 10161 29083 39678 90540 333 60000
OOXX GBP67 17051 99159 50057 ///// 04381 26/// /0904 10159 29084 39679 90550 333 60000
OOXX GBP67 17061 99159 50057 ///// 04381 26/// /1003 10160 29082 39682 90600 333 60000
OOXX KIP39 17041 99020 51574 ///// 00181 26/// /1104 10259 29078 30098 90430 333 60000
OOXX KIP39 17041 99020 51574 ///// 00181 26/// /1104 10259 29079 30100 90440 333 60000
OOXX KIP39 17041 99020 51574 ///// 00181 26/// /1104 10258 29079 30102 90450 333 60000
OOXX KIP39 17051 99020 51574 ///// 00181 26/// /1104 10259 29079 30104 90500 333 60000
OOXX KIP39 17051 99020 51574 ///// 00181 26/// /1104 10258 29079 30105 90510 333 60000
OOXX KIP39 17051 99020 51574 ///// 00181 26/// /1104 10258 29080 30105 90520 333 60000
OOXX KIP39 17051 99020 51574 ///// 00181 26/// /1203 10256 29080 30106 90530 333 60000
OOXX KIP39 17051 99020 51574 ///// 00181 26/// /1303 10254 29079 30106 90540 333 60000
OOXX KIP39 17051 99020 51574 ///// 00181 26/// /1302 10253 29079 30107 90550 333 60000
OOXX KIP39 17061 99020 51574 ///// 00181 26/// /1203 10255 29080 30109 90600 333 60000
OOXX KIP39 17061 99020 51574 ///// 00181 26/// /1104 10256 29080 30111 90610 333 60000
OOXX KIP39 17061 99020 51574 ///// 00181 26/// /1104 10258 29080 30111 90620 333 60000
OOXX AUP07 17041 99/// ///// ///// ///// 26/// /2410 10062 29065 30150 90449 333 60000
OOXX AUP07 17041 99/// ///// ///// ///// 26/// /2310 10059 29064 30151 90459 333 60000
OOXX AUP07 17051 99/// ///// ///// ///// 26/// /2310 10058 29065 30151 90509 333 60000
OOXX AUP07 17051 99/// ///// ///// ///// 26/// /2410 10060 29064 30151 90519 333 60000
OOXX AUP07 17051 99/// ///// ///// ///// 26/// /2410 10058 29065 30152 90529 333 60000
OOXX AUP07 17051 99/// ///// ///// ///// 26/// /2409 10059 29067 30152 90539 333 60000
OOXX AUP07 17051 99/// ///// ///// ///// 26/// /2410 10061 29065 30152 90549 333 60000
OOXX AUP07 17051 99/// ///// ///// ///// 26/// /2409 10058 29063 30153 90559 333 60000
OOXX AUP07 17061 99/// ///// ///// ///// 26/// /2409 10055 29065 30154 90609 333 60000
OOXX AUP07 17061 99/// ///// ///// ///// 26/// /2410 10060 29063 30153 90619 333 60000
OOXX AUP07 17061 99/// ///// ///// ///// 26/// /2410 10061 29064 30154 90629 333 60000
OOXX AUP07 17061 99/// ///// ///// ///// 26/// /2410 10054 29063 30156 90639 333 60000
OOXX RUP60 17041 99531 11588 ///// 00651 26/// /3002 11041 29063 39763 90452 333 60000
OOXX RUP60 17051 99531 11588 ///// 00651 26/// /3203 11043 29063 39764 90502 333 60000
OOXX RUP60 17051 99531 11588 ///// 00651 26/// /3203 11046 29064 39766 90512 333 60000
OOXX RUP60 17051 99531 11588 ///// 00651 26/// /3203 11048 29065 39768 90522 333 60000
OOXX RUP60 17051 99531 11588 ///// 00651 26/// /2902 11052 29067 39769 90532 333 60000
OOXX RUP60 17051 99531 11588 ///// 00651 26/// /3202 11054 29068 39770 90542 333 60000
OOXX RUP60 17051 99531 11588 ///// 00651 26/// /3202 11054 29067 39772 90552 333 60000
OOXX RUP60 17061 99531 11588 ///// 00651 26/// /3605 11056 29067 39773 90602 333 60000
OOXX RUP60 17061 99531 11588 ///// 00651 26/// /3203 11059 29067 39775 90612 333 60000
OOXX RUP60 17061 99531 11588 ///// 00651 26/// /2705 11062 29068 39777 90622 333 60000
OOXX RUP60 17061 99531 11588 ///// 00651 26/// /2705 11070 29070 39779 90632 333 60000
OOXX RUP60 17061 99531 11588 ///// 00651 26/// /2305 11073 29072 39781 90642 333 60000
OOXX NZP46 17041 99438 51765 ///// 00221 26/// /2210 10130 29094 39989 90430 333 60000
OOXX NZP46 17041 99438 51765 ///// 00221 26/// /2210 10126 29096 39989 90440 333 60000
OOXX NZP46 17041 99438 51765 ///// 00221 26/// /2112 10126 29095 39989 90450 333 60000
OOXX NZP46 17051 99438 51765 ///// 00221 26/// /2112 10124 29095 39990 90500 333 60000
OOXX NZP46 17051 99438 51765 ///// 00221 26/// /2111 10126 29092 39991 90510 333 60000
OOXX NZP46 17051 99438 51765 ///// 00221 26/// /2111 10125 29093 39994 90520 333 60000
OOXX NZP46 17051 99438 51765 ///// 00221 26/// /2111 10121 29095 39996 90530 333 60000
OOXX NZP46 17051 99438 51765 ///// 00221 26/// /2111 10122 29094 39998 90540 333 60000
OOXX NZP46 17051 99438 51765 ///// 00221 26/// /2111 10119 29095 39999 90550 333 60000
OOXX NZP46 17061 99438 51765 ///// 00221 26/// /2110 10120 29095 30002 90600 333 60000
OOXX NZP46 17061 99438 51765 ///// 00221 26/// /2110 10120 29095 30003 90610 333 60000
OOXX NZP46 17061 99438 51765 ///// 00221 26/// /2110 10117 29096 30005 90620 333 60000
OOXX FJP26 17041 99178 31775 ///// 00311 26/// /3604 10306 29059 30071 90410 333 60000
OOXX FJP26 17041 99178 31775 ///// 00311 26/// /3603 10304 29061 30070 90420 333 60000
OOXX FJP26 17041 99178 31775 ///// 00311 26/// /3503 10303 29062 30070 90430 333 60000
OOXX FJP26 17041 99178 31775 ///// 00311 26/// /3603 10301 29062 30070 90440 333 60000
OOXX FJP26 17041 99178 31775 ///// 00311 26/// /3604 10302 29062 30070 90450 333 60000
OOXX FJP26 17051 99178 31775 ///// 00311 26/// /3604 10301 29062 30071 90500 333 60000
OOXX FJP26 17051 99178 31775 ///// 00311 26/// /0103 10303 29062 30071 90510 333 60000
OOXX FJP26 17051 99178 31775 ///// 00311 26/// /0103 10305 29062 30071 90520 333 60000
OOXX FJP26 17051 99178 31775 ///// 00311 26/// /3603 10305 29062 30074 90530 333 60000
OOXX FJP26 17051 99178 31775 ///// 00311 26/// /3602 10303 29063 30074 90540 333 60000
OOXX FJP26 17051 99178 31775 ///// 00311 26/// /0103 10300 29063 30075 90550 333 60000
OOXX FJP26 17061 99178 31775 ///// 00311 26/// /0103 10296 29064 30077 90600 333 60000
OOXX MRP43 17041 99181 70159 ///// 00101 26/// /0101 10156 29021 30147 90440 333 60000
OOXX MRP43 17041 99181 70159 ///// 00101 26/// /0102 10157 29021 30149 90450 333 60000
OOXX MRP43 17051 99181 70159 ///// 00101 26/// /3502 10155 29021 30150 90500 333 60000
OOXX MRP43 17051 99181 70159 ///// 00101 26/// /0201 10155 29022 30148 90510 333 60000
OOXX MRP43 17051 99181 70159 ///// 00101 26/// /0102 10156 29022 30150 90520 333 60000
OOXX MRP43 17051 99181 70159 ///// 00101 26/// /0102 10157 29022 30150 90530 333 60000
OOXX MRP43 17051 99181 70159 ///// 00101 26/// /0303 10167 29021 30150 90540 333 60000
OOXX MRP43 17051 99181 70159 ///// 00101 26/// /0303 10172 29020 30150 90550 333 60000
OOXX MRP43 17061 99181 70159 ///// 00101 26/// /0303 10173 29020 30152 90600 333 60000
OOXX MRP43 17061 99181 70159 ///// 00101 26/// /0302 10174 29020 30152 90610 333 60000
OOXX MRP43 17061 99181 70159 ///// 00101 26/// /0403 10176 29020 30153 90620 333 60000
OOXX MRP43 17061 99181 70159 ///// 00101 26/// /0402 10175 29020 30158 90630 333 60000
AAXX 17064 91559 46/// /3606 10271 40072 22200 00294
AAXX 17064 71172 16/// ///// 11093 21122 30014 40237 51013 60001 333 10028 21093 70003
AAXX 17064 71307 16/// /3009 11010 21041 39998 40254 58002 60001 333 10021 21011 70000 555 32825 40071
AAXX 17064 71323 16/// /3205 11069 21114 39875 40160 55001 60001 333 10078 21070 70030 555 33022 40161
AAXX 17064 71373 16/// /3205 11036 21058 60001 333 10090 21036 70020 555 32838 40133
AAXX 17064 71386 16/// /3009 11096 21147 39930 40139 51016 60001 333 10046 21098 70040 555 33033 40212
AAXX 17064 71390 46/// /3110 11100 6///1 333 10017 21100 7//// 555 33131 40002
AAXX 17064 71431 16/// /3408 11010 21053 30106 40203 53006 60001 333 10057 21010 70008 555 32731 40072
AAXX 17064 71723 16/// /0105 11062 21123 30181 40191 53006 60001 333 10080 21062 70012 555 33123 40171
AAXX 17064 71307 16/// /3009 11010 21041 39998 40254 58002 60001 333 10021 21011 70000 555 32825 40071
AAXX 17064 71323 16/// /3205 11069 21114 39875 40160 55001 60001 333 10078 21070 70030 555 33022 40161
AAXX 17064 71373 16/// /3205 11036 21058 60001 333 10090 21036 70020 555 32838 40133
AAXX 17064 71386 16/// /3009 11096 21147 39930 40139 51016 60001 333 10046 21098 70040 555 33033 40212
AAXX 17064 71390 46/// /3110 11100 6///1 333 10017 21100 7//// 555 33131 40002
AAXX 17064 71172 16/// ///// 11093 21122 30014 40237 51013 60001 333 10028 21093 70003
AAXX 17064 71723 16/// /0105 11062 21123 30181 40191 53006 60001 333 10080 21062 70012 555 33123 40171
AAXX 17064 71431 16/// /3408 11010 21053 30106 40203 53006 60001 333 10057 21010 70008 555 32731 40072
AAXX 17064 91531 46/// /0510 1//// 40052 22200 00258
AAXX 17064 60686 12960 00708 10092 21080 40185 52005 60004 333 00600 20090
BBXX 41038 17061 99341 70777 46/// /3003 10160 40179 56008 90600 22200 00142 333 91204
AAXX 17064 94997 46/// ///// 10032 30110 40125 5////
AAXX 17061 14236 11550 82202 10013 20006 39741 49939 52/// 60232 76367 8802/ 333 20013 32101 41997 70228 93197
AAXX 17064 89614 46/// /0929 11047 29078 39024 4//// 5//// 90630 333 90700 91137
AAXX 17064 71016 17/// ///// 10043 69931 7//4/ 333 10045 21033 70003
AAXX 17064 94997 46/// ///// 10032 30110 40125 5////
AAXX 17064 89614 46/// /0929 11047 29078 39024 4//// 5//// 90630 333 90700 91137
AAXX 17064 71016 17/// ///// 10043 69931 7//4/ 333 10045 21033 70003
AAXX 17064 91642 46/// /0000 1//// 40073 22200 0////
AAXX 1706/ 89327 46/// ///// 11033 39658 4//// 5//// 90640
BBXX 42043 17061 99290 70949 46/// /0510 1//// 40263 90630 22200 00160 333 91212
BBXX 42043 17061 99290 70949 46/// /0409 1//// 40266 90600 22200 00160 333 91211
AAXX 17064 16219 41/00 92044 11026 21026 37926 48317 50/// 6///2 747// 333 21026 41002 55000 2//// 89/00 9509/ 9519/ 92873
BBXX 42044 17061 99262 70971 46/// /3204 10159 20140 40252 90630 22200 00183 333 91210
BBXX 42044 17061 99262 70971 46/// /3103 10159 20136 40251 54000 90600 22200 00183 333 91210
BBXX 42045 17061 99262 70965 46/// /0106 10178 40235 90630 22200 00216 333 91211
BBXX 42045 17061 99262 70965 46/// /3407 10180 40240 90600 22200 00216 333 91209
BBXX 46094 17061 99446 71243 46/// /0505 10088 90630
BBXX 46094 17061 99446 71243 46/// /0405 10086 90620
BBXX 46094 17061 99446 71243 46/// /0304 10085 90610
BBXX 46094 17061 99446 71243 46/// /0404 10087 90600
BBXX 46094 17061 99446 71243 46/// /0503 10085 90550
BBXX 46094 17061 99446 71243 46/// /0604 10086 90540
BBXX 46109 17061 99481 71234 46/// /2001 10055 40294 90557 22200 00079
BBXX 46110 17061 99481 71230 46/// /2201 10062 40290 90558
BBXX 42047 17061 99279 70936 46/// /0308 10175 20173 40248 52010 90600 22200 00229 333 91209
BBXX 44055 17061 99391 70753 46/// ///// 1//// 90630 22200 00090 10301 70004
BBXX 41038 17061 99341 70777 46/// /3003 10160 40179 90600 22200 00142 333 91204
BBXX 44056 17061 99362 70757 46/// ///// 1//// 90620 22200 00126 11303 20503 308// 41301 70015
AAXX 17064 71018 16/// ///09 11208 21238 39959 40048 56002 60001 333 11194 21302 70000
AAXX 17064 68183 12575 60905 10195 20146 39498 48579 52013 84572 333 20162 91007 555 10217 91021
AAXX 17064 71018 16/// ///09 11208 21238 39959 40048 56002 60001 333 11194 21302 70000
BBXX 3FMV6 17063 99035 10065 41497 72310 10260 20231 40090 54000 71022 85750 22253 06287 20601 80240
AAXX 17064 92036 46/// /3102 10298 40047 22200 00316
BBXX 46094 17061 99446 71243 46/// /0404 10087 90600
BBXX 46094 17061 99446 71243 46/// /0304 10085 90610
BBXX 46094 17061 99446 71243 46/// /0604 10086 90540
BBXX 46094 17061 99446 71243 46/// /0503 10085 90550
BBXX 46094 17061 99446 71243 46/// /0405 10086 90620
BBXX 46094 17061 99446 71243 46/// /0505 10088 90630
BBXX 42044 17061 99262 70971 46/// /3103 10159 20136 40251 54000 90600 22200 00183 333 91210
BBXX 42045 17061 99262 70965 46/// /3407 10180 40240 90600 22200 00216 333 91209
BBXX 42045 17061 99262 70965 46/// /0106 10178 40235 90630 22200 00216 333 91211
BBXX 42044 17061 99262 70971 46/// /3204 10159 20140 40252 90630 22200 00183 333 91210
BBXX 42043 17061 99290 70949 46/// /0409 1//// 40266 90600 22200 00160 333 91211
BBXX 42043 17061 99290 70949 46/// /0510 1//// 40263 90630 22200 00160 333 91212
BBXX 41038 17061 99341 70777 46/// /3003 10160 40179 56008 90600 22200 00142 333 91204
BBXX 66022 17061 99541 10142 46/// /3115 10043 39770 22200 00041
BBXX AMOUK04 17064 99533 70062 46/// ///// 10031 2//// 30100 4//// 52049 90550
BBXX UASP 17061 99692 10352 41497 21903 11015 40013 52025 70111 8//// 222// 2////
BBXX AMOUK08 17064 99501 70061 46/// ///// 10092 20032 30135 40136 52022 90550
BBXX 63110 17064 99595 10015 47598 /3329 10075 20016 49928 52014 700// 22200 10607 70034
BBXX 63106 17064 99610 10017 46/// /3428 10043 49903 53019 22200
BBXX 63113 17064 99610 10017 46/// /3530 10047 20000 49901 53013 22200 10707 70037
BBXX 62305 17064 99504 10000 46/98 /3317 10057 20026 40093 52032 22200 00119 10703 70014 333 90710 91126
BBXX 62103 17064 99499 70029 46/99 /3118 10081 20027 40106 52024 22200 00123 11006 70032 333 90710 91129
BBXX 62081 17064 99510 70134 46/// ///// 10090 2//// 40212 52010 22200 00121 10910 70050
BBXX 62105 17064 99554 70122 46/// /3323 10070 20016 40136 52027 22200 00103 10810 70050
BBXX 63119 17064 99583 10009 41598 73327 10057 21004 49963 52022 70222 875// 22200 20303 332// 40606 5////
AAXX 17064 16320 12560 62027 10156 20112 39968 49980 57023 60002 83531 333 20142 30010 55057 20689 55300 83625 555 0545/
AAXX 17064 89016 46/89 /1112 11051 29067 39363 4//// 5////
AAXX 17064 89507 46/89 /1310 11229 29071 36811 4//// 5////
AAXX 17064 93713 46/// /0000 10190 40059 22200 00162
AAXX 17064 60360 11660 82308 10133 20129 40138 53004 60034 66062 8557/ 333 00613 20102 82833 85646 85460 95990
BBXX PCHM 17064 99330 31640 41598 52033 10180 20127 40128 52003 70322 84464 22264 00210 20206 321// 40306 80150
BBXX V7QX2 17064 99140 10724 41796 50708 10290 2029/ 40100 54/// 7//// 8/67/ 22272 00300 20301 327// 4//// 5//// 6//// 80290 ICE /////
BBXX 63119 17064 99583 10009 41598 73327 10057 21004 49963 52022 70222 875// 22200 20303 332// 40606 5////
BBXX 44056 17061 99362 70757 46/// ///// 1//// 90620 22200 00126 11303 20503 308// 41301 70015
BBXX 41038 17061 99341 70777 46/// /3003 10160 40179 90600 22200 00142 333 91204
BBXX 42047 17061 99279 70936 46/// /0308 10175 20173 40248 52010 90600 22200 00229 333 91209
BBXX 44055 17061 99391 70753 46/// ///// 1//// 90630 22200 00090 10301 70004
BBXX 46109 17061 99481 71234 46/// /2001 10055 40294 90557 22200 00079
BBXX 46110 17061 99481 71230 46/// /2201 10062 40290 90558
AAXX 17064 16320 12560 62027 10156 20112 39968 49980 57023 60002 83531 333 20142 30010 55057 20689 55300 83625 555 0545/
AAXX 17064 78982 02480 50407 10258 20217 30118 40123 57010 60001 82201 333 58017 60007 82818 85081
AAXX 17064 41515 02997 00000 10073 21090 38604 48564 60001 333 58006 60007
AAXX 17064 41560 22997 01803 10030 21051 38250 48483 60001 333 59005 60007
AAXX 17064 41571 11995 42304 10130 20035 39605 40194 60001 70500 81031 333 56099 58006
AAXX 17064 41594 31995 53104 10170 20043 39977 40195 70511 80001 333 56009 58000
AAXX 17064 41685 32997 00000 10140 21071 38946 48527 333 59004
AAXX 17064 41710 02997 00902 10140 21130 39391 40172 60001 333 59050 60007
AAXX 17064 41718 11995 20000 10170 20043 30086 40192 60001 70500 80001 333 56009 59001 82070
AAXX 17064 41739 02997 00904 10150 21028 39076 48539 60001 333 59024 60007
AAXX 17064 41744 32996 00000 10150 21010 38804 48528 333 58005
AAXX 17064 41749 01995 03104 10190 20118 30163 40196 60001 70400 333 58006 60007
AAXX 17064 41529 12997 10000 10122 20029 39825 40213 60001 80001 333 56009 58001 81080
AAXX 17064 41598 11996 50000 10165 20036 39914 40188 60001 70411 83031 333 58000
AAXX 17064 41620 32997 01805 10100 21267 38613 48515 333 59034
AAXX 17064 41624 02997 03102 10120 20029 39989 40196 60001 333 59004 60007
AAXX 17064 41640 01996 03104 10170 20028 39940 40193 60001 70500 333 59004 60007
AAXX 17064 41660 11996 13104 10090 21032 38449 48539 60001 70500 80001 333 56009 59032 81072
AAXX 17064 41675 11995 20000 10180 20058 30053 40197 60001 70500 80001 333 56009 58000 82070
AAXX 17064 41712 12997 00502 10110 21066 39228 48529 60001 333 59037
AAXX 17064 41715 01996 03102 10175 20077 30132 40199 60001 70400 333 58001 60007
AAXX 17064 41756 01996 00904 10240 20117 30108 40172 60001 70500 333 59002 60007
AAXX 17064 41764 31996 03102 10215 20041 60001 70400 333 58004 60007
AAXX 17064 41768 02996 00000 10235 20059 30170 40177 60001 333 59010 60007
AAXX 17064 41780 02996 00504 10245 20030 40183 60001 333 58000 60007
AAXX 17064 41506 02997 00000 10040 21011 48572 60001 333 58007 60007
AAXX 17064 41508 22997 01802 10069 21076 48567 60001 333 58007 60007
AAXX 17064 41523 12997 00000 10110 21044 48557 60001 333 58005 60007
AAXX 17064 41535 12697 00000 10120 20007 48502 60001 82500 333 56900 58000 82635
AAXX 17064 41536 02997 00000 10105 21016 48535 60001 333 58005 60007
AAXX 17064 41573 12997 21302 10110 20001 48510 60001 82040 333 59001
AAXX 17064 41600 01995 00000 10155 20075 39885 40184 60001 70400 333 59003 60007
AAXX 17064 41630 11995 33102 10180 20058 40200 60001 70510 80001 333 56009 59004 83070
AAXX 17064 41678 02997 00000 10160 20069 40210 60001 333 58007
AAXX 17064 41696 32997 02302 10130 21159 38033 48537 60001 333 59012 60007
AAXX 17064 41697 02997 00000 10183 20090 40197 60001 333 58002 60007
AAXX 17064 41700 11996 20000 10170 20057 40187 60001 70500 80001 333 56009 58000 82070
AAXX 17064 41725 01996 00502 10175 20051 40188 60001 70500 333 58002 60007
AAXX 17064 41746 01995 00000 10165 20099 40194 70500 60001 333 58001 60007
AAXX 17064 41759 12996 00000 10235 20162 30177 40183 60001 333 58002
AAXX 17064 41785 02997 00502 10190 20072 40177 60001 333 59002 60007
AAXX 17064 41529 12997 10000 10122 20029 39825 40213 60001 80001 333 56009 58001 81080
AAXX 17064 41598 11996 50000 10165 20036 39914 40188 60001 70411 83031 333 58000
AAXX 17064 41620 32997 01805 10100 21267 38613 48515 333 59034
AAXX 17064 41624 02997 03102 10120 20029 39989 40196 60001 333 59004 60007
AAXX 17064 41640 01996 03104 10170 20028 39940 40193 60001 70500 333 59004 60007
AAXX 17064 41660 11996 13104 10090 21032 38449 48539 60001 70500 80001 333 56009 59032 81072
AAXX 17064 41675 11995 20000 10180 20058 30053 40197 60001 70500 80001 333 56009 58000 82070
AAXX 17064 41712 12997 00502 10110 21066 39228 48529 60001 333 59037
AAXX 17064 41715 01996 03102 10175 20077 30132 40199 60001 70400 333 58001 60007
AAXX 17064 41756 01996 00904 10240 20117 30108 40172 60001 70500 333 59002 60007
AAXX 17064 41764 31996 03102 10215 20041 60001 70400 333 58004 60007
AAXX 17064 41768 02996 00000 10235 20059 30170 40177 60001 333 59010 60007
AAXX 17064 41780 02996 00504 10245 20030 40183 60001 333 58000 60007
AAXX 17064 41515 02997 00000 10073 21090 38604 48564 60001 333 58006 60007
AAXX 17064 41560 22997 01803 10030 21051 38250 48483 60001 333 59005 60007
AAXX 17064 41571 11995 42304 10130 20035 39605 40194 60001 70500 81031 333 56099 58006
AAXX 17064 41594 31995 53104 10170 20043 39977 40195 70511 80001 333 56009 58000
AAXX 17064 41685 32997 00000 10140 21071 38946 48527 333 59004
AAXX 17064 41710 02997 00902 10140 21130 39391 40172 60001 333 59050 60007
AAXX 17064 41718 11995 20000 10170 20043 30086 40192 60001 70500 80001 333 56009 59001 82070
AAXX 17064 41739 02997 00904 10150 21028 39076 48539 60001 333 59024 60007
AAXX 17064 41744 32996 00000 10150 21010 38804 48528 333 58005
AAXX 17064 41749 01995 03104 10190 20118 30163 40196 60001 70400 333 58006 60007
BBXX AMOUK04 17064 99533 70062 46/// ///// 10031 2//// 30100 4//// 52049 90550
BBXX 2ALE5 17063 99411 70098 41698 43420 10140 20080 40273 55002 70211 8///6 22284 20508 80110
BBXX TBWUK35 17064 99386 70103 41/98 63516 10147 20095 40277 54000 70222 865// 22274 00180 2//// 80120
BBXX PEBT 17063 99379 70094 41497 53518 10150 20135 40280 53010 7//11 858// 22283 02143 20302 331// 41006 5//// 80141
BBXX V2OT9 17063 99362 70033 41997 62642 10170 20137 40180 53020 70211 84040 22262 20410 30000 4//// 5//// 80150
AAXX 17064 04418 NIL
AAXX 17064 04425 NIL
AAXX 17064 04432 NIL
AAXX 17064 04436 NIL
AAXX 17064 04464 46/// /1516 11184 21199 333 553// 20004
AAXX 17064 04485 46/// /2917 11260 21272 37293 333 553// 20000
AAXX 17064 04488 46/// /3203 11303 21323 37355 333 553// 20000
AAXX 17064 63714 11358 70000 10137 20136 48517 60044 74342 877// 333 20110 59002 87708
BBXX 63110 17063 99595 10015 41/98 /3340 10074 49922 700// 8//// 22200 10607 70035
BBXX 62081 17064 99510 70134 46/// ///// 10090 20029 40212 52010 22200 00121 10910 70050
BBXX 62105 17064 99554 70122 46/// /3323 10070 20016 40136 52027 22200 00104 10810 70050 333 90710 91133
BBXX 63106 17064 99610 10017 46/// /3428 10043 49903 53019 22200
BBXX 63105 17064 99610 10017 47498 ///// 10048 20005 49903 53020 751// 22200
BBXX 62103 17064 99499 70029 46/99 /3018 10086 20036 40112 52021 22200 00122 11106 70029
BBXX 62305 17064 99504 10000 46/98 /3317 10057 20026 40089 52032 22200 00119 10703 70014 333 90710 91126
BBXX 62107 17064 99501 70061 46/// /3333 10088 20003 40143 50009 22200 00114 11009 70045 333 90710 91142
AAXX 17064 13600 11550 81824 10130 20112 39925 49976 57050 60142 78286 883// 333 20122 32/// 82930 86633
AAXX 17064 13610 11656 81816 10100 20071 39552 49966 57030 60022 76022 885// 333 20100 31/// 88633
AAXX 17064 13611 11560 81830 10150 20134 39894 49982 57030 60002 72999 889// 333 20125 32/// 82923 86626
AAXX 17064 13619 11560 70906 10076 20070 39233 42642 57030 60022 76052 87500 333 20048 31/// 87630
AAXX 17064 13622 12665 71816 10156 20061 30002 40009 57035 60002 87500 333 20105 30/// 87636
AAXX 17064 13624 12960 82212 10156 20055 39990 40027 54002 60002 8802/ 333 20082 30/// 88460
AAXX 17064 13625 11660 81410 10140 20064 39840 40067 57032 60012 76065 885// 333 20075 31/// 88643 13629 12664 72212 10024 20024 39059 42721 57014 60002 87500 333 20016 31/// 87636
AAXX 17064 13601 11660 81408 10138 20074 39875 49972 57024 69982 76062 885// 333 20122 32/// 88636
AAXX 17064 13602 NIL
AAXX 17064 13623 11520 80000 10082 20078 30082 40088 55018 60002 76366 885// 333 20080 32/// 88626
BBXX 42013 17061 99272 70829 46/// ///// 1//// 40213 90620 22200 00201
BBXX 42013 17061 99272 70829 46/// ///// 1//// 40214 58010 90600 22200 00202
BBXX V7QX2 17064 99140 10724 41796 50708 10290 2029/ 40100 54/// 7//// 8/67/ 22272 00300 20301 327// 4//// 5//// 6//// 80290 ICE /////
BBXX PCHM 17064 99330 31640 41598 52033 10180 20127 40128 52003 70322 84464 22264 00210 20206 321// 40306 80150
AAXX 17064 71408 46/// /2531 10032 20006 39911 49989 51058 6///1 333 7////
AAXX 17064 71408 46/// /2531 10032 20006 39911 49989 51058 6///1 333 7////
AAXX 17061 02935 12270 71003 11003 21011 39788 49961 54000 69942 700// 87/// 333 10018 21003 3/101 4/011
BBXX SKEC 17061 99638 10214 46/// ///// 10019 49913 52008 22235 00046
AAXX 17061 98132 31465 60706 10220 20184 40225 57036 70544 83230 333 56199 83817 85357
AAXX 17061 98133 31460 70409 10/// 20/// 40156 5//// 71644 85870 222// 20703 333 56199 85818 87360
AAXX 17061 98222 31575 33605 10300 20236 40103 57025 70544 81206 333 56999 81820 83078
AAXX 17061 98233 31570 73605 10258 20231 40129 57024 70544 82570 333 56199 82620 87358
AAXX 17061 98324 31465 63204 10312 20266 40078 57030 70544 82271 333 56999 82816 84358
AAXX 17061 98327 31668 70306 10283 20198 39948 40123 58003 70544 83270 333 56999 83836 87360
AAXX 17061 98334 NIL
AAXX 17061 98425 11562 80702 10280 20226 40089 57022 69901 72584 84870 333 56999 84620 88359
AAXX 17061 98426 31568 60706 10298 20210 40088 57026 70544 84170 333 56199 84820 86358
AAXX 17061 98427 11465 80207 10258 20245 39900 40078 57020 76066 8352/ 333 56199 83618 88457
AAXX 17061 98428 31462 70405 10284 20252 40093 57020 71544 83570 333 56199 83618 87359
AAXX 17061 98432 11462 80403 10268 20247 40090 57021 69991 76064 8387/ 333 56199 83618 88356
AAXX 17061 98433 11/00 90706 10221 20205 39373 40095 57017 60011 74364 89/// 333 56999 89///
AAXX 17061 98434 11459 83603 10250 20248 30100 40108 58020 60111 71666 8487/ 333 56199 84816 88357
AAXX 17061 98435 11468 80405 10258 20236 40097 5//// 60151 71566 8427/ 333 56199 84817 88358
AAXX 17061 98442 NIL
AAXX 17061 98446 11465 80904 10254 20241 30050 40096 57011 60271 76166 84207 333 56199 84818 88270
AAXX 17061 98447 11460 80906 10240 20232 39827 40092 5//// 60231 76166 886// 333 56299 88712
AAXX 17061 98538 11464 80406 10280 20251 30062 40067 58025 60011 72164 83267 333 56229 83811 84357 88272
AAXX 17061 98546 11460 80901 10251 20246 30072 40080 58029 60361 71582 84907 333 56299 84915 88275
AAXX 17061 98548 11470 20244 30075 40081 58015 60261 76162 8452/ 333 56199 84616 88272 98312
AAXX 17061 98553 11460 80203 10253 20246 30075 40079 57019 60361 72586 8497/ 333 56999 84915 88358
AAXX 17061 98558 11468 80608 10256 20247 40078 58023 60064 71564 8357/ 222// 20503 333 56999 82615 88357
AAXX 17061 98642 11450 80407 10285 20259 30055 40064 55004 61461 71566 8557/ 333 56399 85618 88358
AAXX 17061 98644 31465 80705 10315 20264 30048 40057 58023 70544 82267 333 56299 82817 86358 88272
AAXX 17061 98648 31475 60405 10292 20264 39989 40071 57012 70544 82232 333 56199 82817 85072
AAXX 17061 98746 31465 72704 10326 20256 40075 58024 70544 84206 333 56699 83818 86075
AAXX 17061 98751 11475 70000 10275 20242 39394 40062 57017 60051 72584 84970 333 56399 84915 84356
AAXX 17061 98752 31460 70505 10298 20258 40063 57014 71544 83978 333 56999 83916 84358 87272
AAXX 17061 98851 31470 61803 10322 20260 39905 40052 57025 71522 82970 333 56999 82918 86358
AAXX17064 64390 12570 33604 10228 20204 39240 48504 60034 82230 333 20196 59007 82825 83360 1014
BBXX 42369 17061 99272 70903 46/// /0502 1//// 90540 22200 10602 70010
BBXX 42370 17061 99273 70905 46/// ///// 10220 90540 22200 10504 70018
BBXX 42376 17061 99291 70879 46/// /2301 10216 40216 90540 22200 10402 70011
BBXX 42392 17061 99272 70900 46/// ///// 1//// 90540 22200 10602 70010
BBXX 42887 17061 99282 70885 46/// /0801 1//// 90540 22200 10702 70010
AAXX 17061 80400 NIL
AAXX 17061 80403 11460 30000 10266 20239 30104 40123 60061 70266 83200 333 31/// 56900 58017 83813 555 10126
AAXX 17061 80405 NIL
AAXX 17061 80407 NIL
AAXX 17061 80410 NIL
AAXX 17061 80413 32460 30000 10213 20183 39624 40109 82530 333 30/// 56990 58002 82616 555 10142
AAXX 17061 80415 32460 30000 10244 20218 30067 40121 81528 333 30/// 56999 58012 81616 555 10123
AAXX 17061 80419 NIL
AAXX 17061 80421 NIL
AAXX 17061 80423 NIL
AAXX 17061 80428 32460 70502 10244 20216 39909 40091 8552/ 333 30/// 5699/ 58006 85617 555 10105
AAXX 17061 80432 NIL
AAXX 17061 80435 32960 33603 10248 20237 30014 40089 83040 333 31/// 56090 58005 555 10087
AAXX 17061 80438 32562 21101 10173 20172 38510 48507 81530 333 30/// 56990 59005 81633 555 10191
AAXX 17061 80444 32960 0//// 10250 2//// 30042 4//// 333 30/// 58007 555 10090
AAXX 17061 80447 32560 60000 10230 20225 39671 40091 865// 333 30/// 569// 58013 86620 555 10143
AAXX 17061 80448 32960 00000 10238 20221 3//// 4//// 333 30/// 5////
AAXX 17061 80450 32960 51102 10243 20229 30064 40119 80008 333 30/// 56009 58009 555 10116
AAXX 17061 80453 NIL
AAXX 17061 80457 NIL
AAXX 17061 80462 NIL
AAXX 17061 0000064701SAVN20 SVMR 170600 METAR SVCR 170600Z 00000KT 9999 SCT013 27/24 Q1012
AAXX 17061 METAR SVMC 170600Z NIL
AAXX 17061 METAR SVBM 170600Z NIL
AAXX 17061 METAR SVBS 170600Z 00000KT 9999 FEW016 21/18 Q1014
AAXX 17061 METAR SVMI 170600Z 00000KT 9999 FEW016 24/22 Q1012 NOSIG
AAXX 17061 METAR SVFM 170600Z NIL
AAXX 17061 METAR SVBC 170600Z /////KT 9999 SCT010 25/22 Q1010
AAXX 17061 METAR SVCU 170600Z 07003KT 9999 FEW013 25/20 Q1012
AAXX 17061 METAR SVMG 170600Z NIL
AAXX 17061 METAR SVAC 170600Z 34007KT CAVOK 24/22 Q1012 NOSIG
AAXX 17061 METAR SVMT 170600Z 36005KT CAVOK 25/24 Q1008
AAXX 17061 METAR SVBI 170600Z 07002KT CAVOK 24/21 Q1010
AAXX 17061 METAR SVCB 170600Z /////KT CAVOK 25/// Q1009
AAXX 17061 METAR SVVA 170600Z NIL
AAXX 17061 METAR SVSO 170600Z 00000KT 9999 OVC020 22/22 Q1013
BBXX SKEC 17061 99638 10214 46/// ///// 10019 49913 52008 22235 00046
BBXX 42369 17061 99272 70903 46/// /0502 1//// 90540 22200 10602 70010
BBXX 42887 17061 99282 70885 46/// /0801 1//// 90540 22200 10702 70010
BBXX 42392 17061 99272 70900 46/// ///// 1//// 90540 22200 10602 70010
BBXX 42376 17061 99291 70879 46/// /2301 10216 40216 90540 22200 10402 70011
BBXX 42370 17061 99273 70905 46/// ///// 10220 90540 22200 10504 70018
BBXX 42013 17061 99272 70829 46/// ///// 1//// 40214 58010 90600 22200 00202
BBXX 42013 17061 99272 70829 46/// ///// 1//// 40213 90620 22200 00201
BBXX DHDH 17064 99061 10919 41797 70926 10285 20222 40088 58013 76062 86478 222// 00270 20505 80240
BBXX 3FUL2 17063 99081 11090 41397 70320 10270 20241 40120 50010 70382 85778 22213 04290 20403 302// 40505 80250
BBXX A8CI9 17064 99192 10395 41497 50410 10265 20217 40142 52008 70311 84771 22234 04291 20201 80231
BBXX A8SZ5 17064 99039 31181 41497 82509 10270 20243 40060 57020 76366 8/2// 22253 00/// 2//01 80250
BBXX C6TL7 17061 99117 30704 41598 61405 10270 20226 40100 54000 76262 8532/ 22255 00/// 20000 80240
BBXX DQVN 17063 99029 11049 41497 60418 10275 20241 40090 50010 7//66 8629/ 22243 00283 20504 305// 40606 80250
BBXX A8CQ5 17063 99057 10973 41598 70916 10300 20/// 40080 56020 70311 8607/ 22224 04290
BBXX 9MEZ2 17064 99098 11175 41797 60324 10290 20/// 40042 53010 70302 8777/ 22214 00290 2//// 303// 40503 80210
BBXX DHDH 17064 99061 10919 41797 70926 10285 20222 40088 58013 76062 86478 222// 00270 20505 80240
BBXX 3FUL2 17063 99081 11090 41397 70320 10270 20241 40120 50010 70382 85778 22213 04290 20403 302// 40505 80250
BBXX A8CI9 17064 99192 10395 41497 50410 10265 20217 40142 52008 70311 84771 22234 04291 20201 80231
BBXX A8SZ5 17064 99039 31181 41497 82509 10270 20243 40060 57020 76366 8/2// 22253 00/// 2//01 80250
BBXX C6TL7 17061 99117 30704 41598 61405 10270 20226 40100 54000 76262 8532/ 22255 00/// 20000 80240
BBXX DQVN 17063 99029 11049 41497 60418 10275 20241 40090 50010 7//66 8629/ 22243 00283 20504 305// 40606 80250
BBXX A8CQ5 17063 99057 10973 41598 70916 10300 20/// 40080 56020 70311 8607/ 22224 04290
BBXX 9MEZ2 17064 99098 11175 41797 60324 10290 20/// 40042 53010 70302 8777/ 22214 00290 2//// 303// 40503 80210
BBXX AMOUK08 17064 99501 70061 46/// ///// 10092 20032 30135 40136 52022 90550
BBXX 63110 17064 99595 10015 47598 /3329 10075 20016 49928 52014 700// 22200 10607 70034
BBXX 63106 17064 99610 10017 46/// /3428 10043 49903 53019 22200
BBXX 63113 17064 99610 10017 46/// /3530 10047 20000 49901 53013 22200 10707 70037
BBXX 62305 17064 99504 10000 46/98 /3317 10057 20026 40093 52032 22200 00119 10703 70014 333 90710 91126
BBXX 62103 17064 99499 70029 46/99 /3118 10081 20027 40106 52024 22200 00123 11006 70032 333 90710 91129
BBXX 62081 17064 99510 70134 46/// ///// 10090 2//// 40212 52010 22200 00121 10910 70050
BBXX 62105 17064 99554 70122 46/// /3323 10070 20016 40136 52027 22200 00103 10810 70050
BBXX ZCDQ5 17063 99359 10212 43498 62630 10150 20130 40130 51002 70200 8634/ 22274 00132 20303 80140
AAXX 17064 60105 32550 81606 10115 20095 40289 5//// 885// 333 20105 30004 88620
BBXX ZCDQ4 17064 99373 10171 41797 32118 10175 20130 40050 54000 70301 88363 22234 00176 20403 30402 40 302 80150
BBXX A8VL8 17064 99095 30809 41298 40409 10270 20243 40090 54000 7//22 841// 22213 00280 20204 323// 40204 5//// 6//// 80250 ICE /////
BBXX ONFP 17064 99311 30476 43595 80719 10230 2022/ 40140 51010 7//11 88135 22213 04200 20304 30707 40304 50304 6//// 80220 ICE /////
AAXX 17064 17237 12670 72901 10036 20020 39643 40157 55000 69922 87170 333 20028 34000 55014 70096 82835 87358 91105
BBXX ZCDQ4 17064 99373 10171 41797 32118 10175 20130 40050 54000 70301 88363 22234 00176 20403 30402 40302 80150
BBXX ZCDQ5 17063 99359 10212 43498 62630 10150 20130 40130 51002 70200 8634/ 22274 00132 20303 80140
AAXX 17064 48463 31556 80516 10285 20154 30041 40135 70522 85846 333 58006 70000
AAXX 17064 48568 01460 70708 10277 20249 30091 40098 57015 60041 72162 85836 333 58002 60047 70091
AAXX 17064 48568 01460 70708 10277 20249 30091 40098 57015 60041 72162 85836 333 58002 60047 70091
AAXX 17064 48568 01460 70708 10277 20249 30091 40098 57015 60041 72162 85836 333 58002 60047 70091
BBXX ZCDQ4 17064 99373 10171 41797 32118 10175 20130 40050 54000 70301 88363 22234 00176 20403 30402 40302 80150
BBXX C6FY5 17064 99124 70592 41598 30721 10250 2021/ 40120 54/// 7//00 831// 22273 04290 2//// 305// 40604 5//// 6//// 80220 ICE /////
BBXX A8CI9 17064 99192 10395 41497 50410 10265 20217 40142 52008 70311 84771 22234 04291 20201 80231
BBXX ZCDQ4 17064 99373 10171 41797 32118 10175 20130 40050 54000 70301 88363 22234 00176 20403 30402 40302 80150
BBXX ZCDQ4 17064 99373 10171 41797 32118 10175 20130 40050 54000 70301 88363 22234 00176 20403 30402 40 302 80150
BBXX ZCDQ5 17063 99359 10212 43498 62630 10150 20130 40130 51002 70200 8634/ 22274 00132 20303 80140
BBXX SHIP 17064 99098 11175 41797 60324 10290 20/// 40042 53010 70302 8777/ 22214 00290 2//// 303// 40503 80210
BBXX A8CQ5 17063 99057 10973 41598 70916 10300 20/// 40080 56020 70311 8607/ 22224 04290
BBXX DHDH 17064 99061 10919 41797 70926 10285 20222 40088 58013 76062 86478 222// 00270 20505 80240
BBXX 3FUL2 17063 99081 11090 41397 70320 10270 20241 40120 50010 70382 85778 22213 04290 20403 302// 40505 80250
BBXX C6FY5 17064 99124 70592 41598 30721 10250 2021/ 40120 54/// 7//00 831// 22273 04290 2//// 305// 40604 5//// 6//// 80220 ICE /////
BBXX DQVN 17063 99029 11049 41497 60418 10275 20241 40090 50010 7//66 8629/ 22243 00283 20504 305// 40606 80250
BBXX C6TL7 17061 99117 30704 41598 61405 10270 20226 40100 54000 76262 8532/ 22255 00/// 20000 80240
BBXX A8SZ5 17064 99039 31181 41497 82509 10270 20243 40060 57020 76366 8/2// 22253 00/// 2//01 80250
BBXX MINUK01 1706/ 99572 70019 46/// ///// 10033 40001 52014
AAXX 17061 98334 31475 83606 10255 20248 39914 40115 57020 71522 8427/ 333 56999 84817 88357
BBXX C6TL7 17061 99117 30704 41598 61405 10270 20226 40100 54000 76262 8532/ 22255 00/// 20000 80240
AAXX 17064 89262 46/// /2324 11001 21035 39749 49792 52041 90550
AAXX 17064 91375 46/// /0509 10245 40072 22200 00285
AAXX 17064 60185 32960 /1004 10068 20057 40303 5//// 8//// 333 20065 30003 8////
AAXX 17064 60195 32960 12410 10095 21161 38580 48593 5//// 80002 333 20055 30101 81073 95500
AAXX 17064 71639 11674 33212 11016 21082 39976 40221 51002 69901 70177 83500 333 10058 21016 79999 90922 555 19999 29999 32821 40070
AAXX 17064 91165 12566 20516 10228 20183 30165 40199 51018 69901 90553
AAXX 17064 91203 32474 61004 10313 20261 30100 40105 56015 82277
AAXX 17064 91212 12466 40816 10294 20244 31360 40096 55011 69981 90554
AAXX 17064 91245 32966 00712 10270 20220 30147 90559
AAXX 17064 91285 32966 02805 10206 20172 30175 40188 51017 90553
AAXX 17064 91324 32474 80909 10306 20257 30055 40057 82201
AAXX 17064 91334 32474 80412 10298 20232 30063 40066 56003 82171
AAXX 17064 91348 11469 80208 10278 20248 30024 40076 55002 60041 78082 8527/
AAXX 17064 91376 11474 30712 10284 20236 30069 40073 53008 60041 70281 82101
AAXX 17064 91408 32474 81307 10306 20253 30030 40068 57015 83271
AAXX 17064 91413 32469 80914 10307 20241 30059 40084 57015 82372
AAXX 17064 91610 11498 60914 10285 20245 40063 52006 60001 71500 86530
AAXX 17064 91155 NIL
AAXX 17064 91217 NIL
AAXX 17064 91232 NIL
AAXX 17064 91250 NIL
AAXX 17064 91275 NIL
AAXX 17064 91317 NIL
AAXX 17064 91339 NIL
AAXX 17064 91353 NIL
AAXX 17064 91356 NIL
AAXX 17064 91366 NIL
AAXX 17064 91367 NIL
AAXX 17064 91369 NIL
AAXX 17064 91371 NIL
AAXX 17064 91378 NIL
AAXX 17064 91425 NIL
AAXX 17064 91434 NIL
AAXX 17064 91601 NIL
BBXX 42369 17061 99272 70903 46/// /0403 1//// 90600 22200 10602 70010
BBXX 42370 17061 99273 70905 46/// ///// 10220 90600 22200 10504 70018
BBXX 42376 17061 99291 70879 46/// /2401 10216 40216 57004 90600 22200 10402 70011
BBXX 42392 17061 99272 70900 46/// ///// 1//// 90600 22200 10502 70010
BBXX 42887 17061 99282 70885 46/// /0501 1//// 90600 22200 10702 70010
AAXX 17064 03008 11475 63322 10043 21021 39905 40011 53019 69902 78781 869// 90550 333 20035 31/// 79999 82915 84818 90710 91137 91034
BBXX 63110 17063 99595 10015 41/98 /3340 10074 49922 700// 8//// 22200 10607 70035
BBXX 62081 17064 99510 70134 46/// ///// 10090 20029 40212 52010 22200 00121 10910 70050
BBXX 62105 17064 99554 70122 46/// /3323 10070 20016 40136 52027 22200 00104 10810 70050 333 90710 91133
BBXX 63106 17064 99610 10017 46/// /3428 10043 49903 53019 22200
BBXX 63105 17064 99610 10017 47498 ///// 10048 20005 49903 53020 751// 22200
BBXX 62103 17064 99499 70029 46/99 /3018 10086 20036 40112 52021 22200 00122 11106 70029
BBXX 62305 17064 99504 10000 46/98 /3317 10057 20026 40089 52032 22200 00119 10703 70014 333 90710 91126
BBXX 62107 17064 99501 70061 46/// /3333 10088 20003 40143 50009 22200 00114 11009 70045 333 90710 91142
AAXX 17064 91165 12566 20516 10228 20183 30165 40199 51018 69901 90553
AAXX 17064 91212 12466 40816 10294 20244 31360 40096 55011 69981 90554
AAXX 17064 91285 32966 02805 10206 20172 30175 40188 51017 90553
AAXX 17064 91334 32474 80412 10298 20232 30063 40066 56003 82171
AAXX 17064 91348 11469 80208 10278 20248 30024 40076 55002 60041 78082 8527/
AAXX 17064 91376 11474 30712 10284 20236 30069 40073 53008 60041 70281 82101
AAXX 17064 91408 32474 81307 10306 20253 30030 40068 57015 83271
AAXX 17064 91413 32469 80914 10307 20241 30059 40084 57015 82372
AAXX 17064 91245 32966 00712 10270 20220 30147 90559
BBXX 42887 17061 99282 70885 46/// /0501 1//// 90600 22200 10702 70010
BBXX 42392 17061 99272 70900 46/// ///// 1//// 90600 22200 10502 70010
BBXX 42369 17061 99272 70903 46/// /0403 1//// 90600 22200 10602 70010
BBXX 42370 17061 99273 70905 46/// ///// 10220 90600 22200 10504 70018
BBXX 42376 17061 99291 70879 46/// /2401 10216 40216 57004 90600 22200 10402 70011
BBXX MINUK01 1706/ 99572 70019 46/// ///// 10033 40001 52014
BBXX MINUK01 1706/ 99572 70019 46/// ///// 10033 40001 52014
AAXX 17064 16172 11562 52412 10070 21030 39682 49979 52023 60062 70262 85200 333 20068 32/// 55/// 2//// 85823
AAXX 17064 16084 12970 52609 10052 21087 39818 49985 52031 60002 82015 333 20018 30/// 55000 20023 82463
AAXX 1706/ 68902 46/// ///// 40071 52006
AAXX 17064 61052 31930 50804 10167 21036 39886 40145 70622 80002 333 01400 20165 50971 55104 59002 85080
AAXX 17064 61052 31930 50804 10167 21036 39886 40145 70622 80002 333 01400 20165 50971 55104 59002 85080
BBXX 42047 17061 99279 70936 46/// /0308 10171 20169 40247 90630 22200 00229 333 91209
BBXX 42047 17061 99279 70936 46/// /0308 10171 20169 40247 90630 22200 00229 333 91209
BBXX AMOUK08 17064 99501 70061 46/// ///// 10092 20032 30135 40136 52022 90550
BBXX 63110 17064 99595 10015 47598 /3329 10075 20016 49928 52014 700// 22200 10607 70034
BBXX 63106 17064 99610 10017 46/// /3428 10043 49903 53019 22200
BBXX 63113 17064 99610 10017 46/// /3530 10047 20000 49901 53013 22200 10707 70037
BBXX 62305 17064 99504 10000 46/98 /3317 10057 20026 40093 52032 22200 00119 10703 70014 333 90710 91126
BBXX 62103 17064 99499 70029 46/99 /3118 10081 20027 40106 52024 22200 00123 11006 70032 333 90710 91129
BBXX 62081 17064 99510 70134 46/// ///// 10090 2//// 40212 52010 22200 00121 10910 70050
BBXX 62105 17064 99554 70122 46/// /3323 10070 20016 40136 52027 22200 00103 10810 70050
BBXX 42369 17061 99272 70903 46/// /0403 1//// 90620 22200 10602 70010
BBXX 42370 17061 99273 70905 46/// ///// 10220 90620 22200 10504 70018
BBXX 42369 17061 99272 70903 46/// /0403 1//// 90620 22200 10602 70010
BBXX 42370 17061 99273 70905 46/// ///// 10220 90620 22200 10504 70018
BBXX 52243 17061 99193 11666 46/// ///// 1//// 90600 22200 00260
BBXX 51179 17061 99143 51708 46/// ///// 1//// 90600 22200 00285
BBXX 51178 17061 99142 51695 46/// ///// 1//// 90600 22200 00285
BBXX 52246 17061 99152 11457 46/// ///// 1//// 90600 22200 00284
BBXX 51176 17061 99278 71758 46/// ///// 1//// 90600 22200 00233
BBXX 52245 17061 99181 11458 46/// ///// 1//// 90600 22200 00285
BBXX 51174 17061 99142 51697 46/// ///// 1//// 90600 22200 00286
BBXX 52244 17061 99200 11452 46/// ///// 1//// 90600 22200 00270
BBXX 51173 17061 99260 71739 46/// ///// 1//// 90600 22200 00239
BBXX 51172 17061 99284 71783 46/// ///// 1//// 90600 22200 00233
BBXX 51171 17061 99064 71623 46/// ///// 1//// 90600 22200 00283
BBXX 51170 17061 99168 71695 46/// ///// 1//// 90600 22200 00263
BBXX 51169 17061 99004 51600 46/// ///// 1//// 90600 22200 00259
BBXX 52248 17061 99135 11448 46/// ///// 1//// 90600 22200 00292
BBXX 42376 17061 99291 70879 46/// /2401 10216 40216 90620 22200 10402 70011
BBXX 42392 17061 99272 70900 46/// ///// 1//// 90620 22200 10502 70010
BBXX 42887 17061 99282 70885 46/// /0501 1//// 90620 22200 10702 70010
AAXX 17064 17310 12970 40603 10104 20045 30153 40160 52013 60092 80009 333 20096 32006 55008 70153 84170 91105 92438
BBXX 63110 17063 99595 10015 41/98 /3340 10074 49922 700// 8//// 22200 10607 70035
BBXX 62081 17064 99510 70134 46/// ///// 10090 20029 40212 52010 22200 00121 10910 70050
BBXX 62105 17064 99554 70122 46/// /3323 10070 20016 40136 52027 22200 00104 10810 70050 333 90710 91133
BBXX 63106 17064 99610 10017 46/// /3428 10043 49903 53019 22200
BBXX 63105 17064 99610 10017 47498 ///// 10048 20005 49903 53020 751// 22200
BBXX 62103 17064 99499 70029 46/99 /3018 10086 20036 40112 52021 22200 00122 11106 70029
BBXX 62305 17064 99504 10000 46/98 /3317 10057 20026 40089 52032 22200 00119 10703 70014 333 90710 91126
BBXX 62107 17064 99501 70061 46/// /3333 10088 20003 40143 50009 22200 00114 11009 70045 333 90710 91142
BBXX PDHP 17063 99144 10529 41/98 /0513 10250 40157 55014 70200 8/141 22254 00250 20404
BBXX 52244 17061 99200 11452 46/// ///// 1//// 90600 22200 00270
BBXX 52245 17061 99181 11458 46/// ///// 1//// 90600 22200 00285
BBXX 52246 17061 99152 11457 46/// ///// 1//// 90600 22200 00284
BBXX 52248 17061 99135 11448 46/// ///// 1//// 90600 22200 00292
BBXX 52243 17061 99193 11666 46/// ///// 1//// 90600 22200 00260
BBXX 42887 17061 99282 70885 46/// /0501 1//// 90620 22200 10702 70010
BBXX 42392 17061 99272 70900 46/// ///// 1//// 90620 22200 10502 70010
BBXX 42376 17061 99291 70879 46/// /2401 10216 40216 90620 22200 10402 70011
BBXX 51172 17061 99284 71783 46/// ///// 1//// 90600 22200 00233
BBXX 51173 17061 99260 71739 46/// ///// 1//// 90600 22200 00239
BBXX 51176 17061 99278 71758 46/// ///// 1//// 90600 22200 00233
BBXX ZCDF4 17063 99169 71009 41/98 32806 10268 20239 40148 51014 70211 83/// 22264 00280 2//// 328// 40302 5//// 80248
BBXX 51170 17061 99168 71695 46/// ///// 1//// 90600 22200 00263
BBXX 51171 17061 99064 71623 46/// ///// 1//// 90600 22200 00283
BBXX 51179 17061 99143 51708 46/// ///// 1//// 90600 22200 00285
BBXX 51174 17061 99142 51697 46/// ///// 1//// 90600 22200 00286
BBXX 51178 17061 99142 51695 46/// ///// 1//// 90600 22200 00285
BBXX 51169 17061 99004 51600 46/// ///// 1//// 90600 22200 00259
AAXX 17061 01380 11X01 90000 11071 21082 60002 74944 333 21071 49028 70001 91100
BBXX C6VG8 17064 99335 70758 41/98 62541 10230 2//// 40170 56010 7//11 8//// 22284 00260 20204 323// 40306 5//// 6//// 8//// ICE /////
BBXX AMOUK08 17064 99501 70061 46/// ///// 10092 20032 30135 40136 52022 90550
BBXX 63110 17064 99595 10015 47598 /3329 10075 20016 49928 52014 700// 22200 10607 70034
BBXX 63106 17064 99610 10017 46/// /3428 10043 49903 53019 22200
BBXX 63113 17064 99610 10017 46/// /3530 10047 20000 49901 53013 22200 10707 70037
BBXX 62305 17064 99504 10000 46/98 /3317 10057 20026 40093 52032 22200 00119 10703 70014 333 90710 91126
BBXX 62103 17064 99499 70029 46/99 /3118 10081 20027 40106 52024 22200 00123 11006 70032 333 90710 91129
BBXX 62081 17064 99510 70134 46/// ///// 10090 2//// 40212 52010 22200 00121 10910 70050
BBXX 62105 17064 99554 70122 46/// /3323 10070 20016 40136 52027 22200 00103 10810 70050
BBXX C6VG8 17064 99335 70758 41/98 62541 10230 2//// 40170 56010 7//11 8//// 22284 00260 20204 323// 40306 5//// 6//// 8//// ICE /////
AAXX 17064 96685 32460 60000 10285 20254 30041 40067 55007 83511 333 56000 83618
AAXX 17064 48464 33957 63610 10274 20171 30120 40132 57015 85536 333 58016 70000
BBXX MINFR03 1706/ 99115 30627 46/// ///// 10295 40095 52006
BBXX 63110 17063 99595 10015 41/98 /3340 10074 49922 700// 8//// 22200 10607 70035
BBXX 62081 17064 99510 70134 46/// ///// 10090 20029 40212 52010 22200 00121 10910 70050
BBXX 62105 17064 99554 70122 46/// /3323 10070 20016 40136 52027 22200 00104 10810 70050 333 90710 91133
BBXX 63106 17064 99610 10017 46/// /3428 10043 49903 53019 22200
BBXX 63105 17064 99610 10017 47498 ///// 10048 20005 49903 53020 751// 22200
BBXX 62103 17064 99499 70029 46/99 /3018 10086 20036 40112 52021 22200 00122 11106 70029
BBXX 62305 17064 99504 10000 46/98 /3317 10057 20026 40089 52032 22200 00119 10703 70014 333 90710 91126
BBXX 62107 17064 99501 70061 46/// /3333 10088 20003 40143 50009 22200 00114 11009 70045 333 90710 91142
AAXX 17061 24790 11984 70702 11230 21249 39284 40145 52002 69920 70272 85021 333 21228 48023 55000
BBXX MINFR03 1706/ 99115 30627 46/// ///// 10295 40095 52006
AAXX 17061 22106 32998 20302 11042 21044 39912 49991 51006 82030 333 21042 47013 91003
BBXX MINFR03 1706/ 99115 30627 46/// ///// 10295 40095 52006
AAXX 17061 01367 11989 13004 11143 21162 39493 49957 52013 60002 70100 80002 333 21143 47025 70005 91106
AAXX 17064 97146 31457 72708 10300 20239 39993 40053 57024 71799 84971 333 56000 57901 57801 81912 82814 84460 80980 80860
AAXX 17064 61404 32960 00810 10144 21035 39813 40210 333 0//00 20144 5//// 55/// 59006
AAXX 17064 61437 31956 40808 10185 20022 30045 40183 705// 80002 333 0//00 20182 5//// 55/// 59005 84073
AAXX 17064 61450 31956 40806 10170 20018 39716 40175 706// 80002 333 0//00 20180 5//// 55/// 59009 84073
AAXX 17064 61461 32960 40804 10205 21078 30074 40160 80002 333 0//00 20200 5//// 55/// 59004 84073
AAXX 17064 61489 31956 60000 10206 20002 30152 40159 70522 86070 333 0//00 20200 50954 55/// 58004 86363
AAXX 17064 61492 32960 60808 10205 21023 30125 40144 86070 333 0//00 20205 5//// 58000 86363
AAXX 17064 61497 35958 60806 10174 21030 39898 4//// 83032 333 0//00 20168 5//// 55/// 59006 83363 86073
BBXX 42046 17061 99279 70940 46/// /0309 1//// 40248 90630 22200 00227 333 91211
BBXX 42046 17061 99279 70940 46/// /0309 1//// 40248 90600 22200 00227 333 91211
BBXX 42046 17061 99279 70940 46/// /0309 1//// 40248 90630 22200 00227 333 91211
BBXX 42046 17061 99279 70940 46/// /0309 1//// 40248 90600 22200 00227 333 91211
AAXX 17064 16008 11456 80203 11040 21071 38309 48282 53010 60022 71022 886// 333 21044 43011 55/// 2//// 88715 92820
BBXX AMOUK08 17064 99501 70061 46/// ///// 10092 20032 30135 40136 52022 90550
BBXX 63110 17064 99595 10015 47598 /3329 10075 20016 49928 52014 700// 22200 10607 70034
BBXX 63106 17064 99610 10017 46/// /3428 10043 49903 53019 22200
BBXX 63113 17064 99610 10017 46/// /3530 10047 20000 49901 53013 22200 10707 70037
BBXX 62305 17064 99504 10000 46/98 /3317 10057 20026 40093 52032 22200 00119 10703 70014 333 90710 91126
BBXX 62103 17064 99499 70029 46/99 /3118 10081 20027 40106 52024 22200 00123 11006 70032 333 90710 91129
BBXX 62081 17064 99510 70134 46/// ///// 10090 2//// 40212 52010 22200 00121 10910 70050
BBXX 62105 17064 99554 70122 46/// /3323 10070 20016 40136 52027 22200 00103 10810 70050
BBXX DBPG 17064 99536 10080 41/// /2927 10060 20015 49920 52030 780// 8/8// 22200 02050 80040
BBXX A8RV8 17064 99248 11198 41296 80334 10120 20093 40250 56/// 71122
BBXX A8ZS7 17064 99307 30342 41698 31412 10230 20152 40190 54000 70300 83100 22254 04200 29901 80180
BBXX A8YJ9 17064 99067 70291 41697 60508 10245 20224 40110 54000 70562 866// 22243 04250 20601 30000 80230
BBXX A8UA9 17064 99358 70059 41/97 82517 10165 20165 40265 55024 76162 888// 22253 20404 327// 40506 80165
BBXX DAJT 17064 99059 30810 41698 63422 10270 20221 40045 53010 70322 84474 22254 04280 2//03 80235
BBXX DFVY2 17064 99255 50469 41598 70308 10240 20211 40059 57003 70322 875// 22244 00230 80220
BBXX A8SG4 17064 99142 51270 41597 60718 10230 20208 40140 52015 76461 85828 22214 04260 80215
BBXX A8CB7 17063 99052 30802 41597 62625 10290 20263 40070 54000 70322 86333 22254 06290 21006 32726 40908 51007 80270
BBXX A8CB7 17063 99052 30802 41597 62625 10290 20263 40070 54000 70322 86333 22254 06290 21006 32726 40908 51007 80270
BBXX DAJT 17064 99059 30810 41698 63422 10270 20221 40045 53010 70322 84474 22254 04280 2//03 80235
BBXX A8ZS7 17064 99307 30342 41698 31412 10230 20152 40190 54000 70300 83100 22254 04200 29901 80180
BBXX A8UA9 17064 99358 70059 41/97 82517 10165 20165 40265 55024 76162 888// 22253 20404 327// 40506 80165
BBXX DFVY2 17064 99255 50469 41598 70308 10240 20211 40059 57003 70322 875// 22244 00230 80220
BBXX A8ZS7 17064 99307 30342 41698 31412 10230 20152 40190 54000 70300 83100 22254 04200 29901 80180
BBXX A8YJ9 17064 99067 70291 41697 60508 10245 20224 40110 54000 70562 866// 22243 04250 20601 30000 80230
BBXX A8RV8 17064 99248 11198 41296 80334 10120 20093 40250 56/// 71122
BBXX A8CB7 17063 99052 30802 41597 62625 10290 20263 40070 54000 70322 86333 22254 06290 21006 32726 40908 51007 80270
BBXX A8SG4 17064 99142 51270 41597 60718 10230 20208 40140 52015 76461 85828 22214 04260 80215
BBXX DAJT 17064 99059 30810 41698 63422 10270 20221 40045 53010 70322 84474 22254 04280 2//03 80235
BBXX A8UA9 17064 99358 70059 41/97 82517 10165 20165 40265 55024 76162 888// 22253 20404 327// 40506 80165
BBXX DBPG 17064 99536 10080 41/// /2927 10060 20015 49920 52030 780// 8/8// 22200 02050 80040
AAXX 17064 97142 32560 42605 10312 20247 30038 40053 56013 82231 333 56000 57802 82820 80859
BBXX ZCDF4 17063 99169 71009 41/98 32806 10268 20239 40148 51014 70211 83/// 22264 00280 2//// 328// 40302 5//// 80248
BBXX 63110 17063 99595 10015 41/98 /3340 10074 49922 700// 8//// 22200 10607 70035
BBXX 62081 17064 99510 70134 46/// ///// 10090 20029 40212 52010 22200 00121 10910 70050
BBXX 62105 17064 99554 70122 46/// /3323 10070 20016 40136 52027 22200 00104 10810 70050 333 90710 91133
BBXX 63106 17064 99610 10017 46/// /3428 10043 49903 53019 22200
BBXX 63105 17064 99610 10017 47498 ///// 10048 20005 49903 53020 751// 22200
BBXX 62103 17064 99499 70029 46/99 /3018 10086 20036 40112 52021 22200 00122 11106 70029
BBXX 62305 17064 99504 10000 46/98 /3317 10057 20026 40089 52032 22200 00119 10703 70014 333 90710 91126
BBXX 62107 17064 99501 70061 46/// /3333 10088 20003 40143 50009 22200 00114 11009 70045 333 90710 91142
AAXX 17064 62305 32960 02308 10120 20091 40203 52001 333 20106
AAXX 17061 01218 11787 71506 10025 21083 39878 49899 53015 60002 70320 82280 333 20015 41002 70000 91114
BBXX AMOUK08 17064 99501 70061 46/// ///// 10092 20032 30135 40136 52022 90550
BBXX 63110 17064 99595 10015 47598 /3329 10075 20016 49928 52014 700// 22200 10607 70034
BBXX 63106 17064 99610 10017 46/// /3428 10043 49903 53019 22200
BBXX 63113 17064 99610 10017 46/// /3530 10047 20000 49901 53013 22200 10707 70037
BBXX 62305 17064 99504 10000 46/98 /3317 10057 20026 40093 52032 22200 00119 10703 70014 333 90710 91126
BBXX 62103 17064 99499 70029 46/99 /3118 10081 20027 40106 52024 22200 00123 11006 70032 333 90710 91129
BBXX 62081 17064 99510 70134 46/// ///// 10090 2//// 40212 52010 22200 00121 10910 70050
BBXX 62105 17064 99554 70122 46/// /3323 10070 20016 40136 52027 22200 00103 10810 70050
AAXX 1706/ 89828 46/// ///// 11251 36507 4//// 5//// 90640
AAXX 1706/ 89879 46/// ///// 11011 39749 4//// 5//// 90630
AAXX 1706/ 89872 46/// ///// 10008 39853 4//// 5//// 90630
AAXX 1706/ 89869 46/// ///// 11081 39824 4//// 5//// 90640
AAXX 1706/ 89769 46/// ///// 11049 39877 4//// 5//// 90640
AAXX 1706/ 89314 46/// ///// 11138 38210 4//// 5//// 90640
AAXX 1706/ 89866 46/// ///// 11045 39780 4//// 5//// 90640
AAXX 1706/ 89868 46/// ///// 11059 39850 4//// 5//// 90630
AAXX 1706/ 89332 46/// ///// 11108 39265 4//// 5//// 90640
AAXX 1706/ 89327 46/// ///// 11030 39657 4//// 5//// 90630
AAXX 1706/ 89108 46/// ///// 11241 36905 4//// 5//// 90630
AAXX 1706/ 89108 46/// ///// 11241 36905 4//// 5//// 90640
AAXX 1706/ 89329 46/// ///// 11133 38765 4//// 5//// 90640
AAXX 1706/ 89799 46/// ///// 11275 4//// 5//// 90640
AAXX 1706/ 89868 46/// ///// 11063 39850 4//// 5//// 90640
AAXX 17064 71854 43/// ///// 333 11134 21252 48011 79999 555 19999 29999
AAXX 17064 71854 43/// ///// 333 11134 21252 48011 79999 555 19999 29999
BBXX 63110 17063 99595 10015 41/98 /3340 10074 49922 700// 8//// 22200 10607 70035
BBXX 62081 17064 99510 70134 46/// ///// 10090 20029 40212 52010 22200 00121 10910 70050
BBXX 62105 17064 99554 70122 46/// /3323 10070 20016 40136 52027 22200 00104 10810 70050 333 90710 91133
BBXX 63106 17064 99610 10017 46/// /3428 10043 49903 53019 22200
BBXX 63105 17064 99610 10017 47498 ///// 10048 20005 49903 53020 751// 22200
BBXX 62103 17064 99499 70029 46/99 /3018 10086 20036 40112 52021 22200 00122 11106 70029
BBXX 62305 17064 99504 10000 46/98 /3317 10057 20026 40089 52032 22200 00119 10703 70014 333 90710 91126
BBXX 62107 17064 99501 70061 46/// /3333 10088 20003 40143 50009 22200 00114 11009 70045 333 90710 91142
BBXX UBAU 17061 99159 70169 41698 70505 10240 40172 52003 70121 8773/ 22212 04238 20100
AAXX 17064 71721 16/// /3205 11111 21148 39967 40221 52011 60001 333 10038 21111 70000 555 33121 40131
BBXX AMOUK08 17064 99501 70061 46/// ///// 10092 20032 30135 40136 52022 90550
BBXX 63110 17064 99595 10015 47598 /3329 10075 20016 49928 52014 700// 22200 10607 70034
BBXX 63106 17064 99610 10017 46/// /3428 10043 49903 53019 22200
BBXX 63113 17064 99610 10017 46/// /3530 10047 20000 49901 53013 22200 10707 70037
BBXX 62305 17064 99504 10000 46/98 /3317 10057 20026 40093 52032 22200 00119 10703 70014 333 90710 91126
BBXX 62103 17064 99499 70029 46/99 /3118 10081 20027 40106 52024 22200 00123 11006 70032 333 90710 91129
BBXX 62081 17064 99510 70134 46/// ///// 10090 2//// 40212 52010 22200 00121 10910 70050
BBXX 62105 17064 99554 70122 46/// /3323 10070 20016 40136 52027 22200 00103 10810 70050
AAXX 17064 82143 31596 40206 10260 20233 40092 7020/ 81220 222// 80240 333 58006
BBXX 52249 17061 99052 31503 46/// ///// 1//// 90600 22200 00311
BBXX ONAN 17064 99095 71687 41/97 80319 10270 2026/ 40120 54/// 78066 887// 22273 04260 20806 303// 405// 5//// 6//// 80260 ICE /////
BBXX 63110 17063 99595 10015 41/98 /3340 10074 49922 700// 8//// 22200 10607 70035
BBXX 62081 17064 99510 70134 46/// ///// 10090 20029 40212 52010 22200 00121 10910 70050
BBXX 62105 17064 99554 70122 46/// /3323 10070 20016 40136 52027 22200 00104 10810 70050 333 90710 91133
BBXX 63106 17064 99610 10017 46/// /3428 10043 49903 53019 22200
BBXX 63105 17064 99610 10017 47498 ///// 10048 20005 49903 53020 751// 22200
BBXX 62103 17064 99499 70029 46/99 /3018 10086 20036 40112 52021 22200 00122 11106 70029
BBXX 62305 17064 99504 10000 46/98 /3317 10057 20026 40089 52032 22200 00119 10703 70014 333 90710 91126
BBXX 62107 17064 99501 70061 46/// /3333 10088 20003 40143 50009 22200 00114 11009 70045 333 90710 91142
BBXX 52249 17061 99052 31503 46/// ///// 1//// 90600 22200 00311
BBXX ONAN 17064 99095 71687 41/97 80319 10270 2026/ 40120 54/// 78066 887// 22273 04260 20806 303// 405// 5//// 6//// 80260 ICE /////
AAXX 17064 68014 36/// /2802 10241 20094 38608 48526 52002 333 20152 91005 555 10335 91020
AAXX 17064 68110 32789 11503 10249 21000 38290 48506 53001 81082 333 20157 91005 555 10334 91020
AAXX 17064 68300 36/// /1704 10137 20089 39981 40132 53001 333 20095 91005 555 10222 91013
AAXX 17064 68004 36/// /0000 10234 20013 38547 48502 53004 333 20145 91003 555 10344 91018
AAXX 17064 68102 36/// /2102 10192 21006 38750 48499 52006 333 20129 91005 555 10350 91016
AAXX 17064 68110 32789 11504 10244 21028 38293 48509 52005 81082 333 20157 91008 555 10334 91021
AAXX 17064 68300 36/// /1805 10138 20090 39980 40131 53001 333 20095 91007 555 10222 91013
AAXX 17064 68006 36/// /2106 10226 20048 38924 48504 52007 333 20190 91010 555 10359 91015
AAXX 17064 68006 32989 31803 10218 20016 38927 48506 53010 80005 333 20190 555 10359 91016
AAXX 17064 68018 36/// /1803 10236 20176 38914 48521 52008 333 20204 91005 555 10352 91017
AAXX 17064 68312 32/// ///// 1//// 2//// 3//// 4//// 5//// 333 2//// 555 1////
AAXX 17064 68004 36/// /1603 10234 20007 38547 48502 53003 333 20145 91010 555 10344 91018
AAXX 17064 68098 32580 80408 10131 20106 30048 40157 52006 88500 333 20118 91011 555 10234 91015
AAXX 17064 68102 36/// /0000 10190 21002 38750 48498 53006 333 20129 91004 555 10350 91016
AAXX 17064 68112 36/// /0000 10239 20045 38346 48527 53003 333 20118 91003 555 10336 91022
AAXX 17064 68116 36/// /0000 10247 20036 38580 48529 53003 333 20178 91002 555 10354 91021
AAXX 17064 68212 36/// /2204 10258 21008 38915 48537 53005 333 20183 91007 555 10380 91019
AAXX 17064 68312 36/// /2903 10241 20041 38962 48530 52005 333 20186 91006 555 10369 91018
AAXX 17064 68116 36/// /2802 10246 20023 38580 48529 52007 333 20178 91004 555 10354 91021
AAXX 17064 68212 36/// /2204 10258 21008 38914 48536 52003 333 20183 91008 555 10380 91019
AAXX 17064 68312 36/// /3003 10242 20037 38962 48530 52002 333 20186 91005 555 10369 91018
BBXX PHEO 17064 99491 50571 41/97 /3516 10120 40150 54000 705// 8//// 22284 00160 2//// 3//// 4//// 5////
BBXX PHEO 17064 99491 50571 41/97 /3516 10120 40150 54000 705// 8//// 22284 00160 2//// 3//// 4//// 5////
BBXX AMOUK08 17064 99501 70061 46/// ///// 10092 20032 30135 40136 52022 90550
BBXX 63110 17064 99595 10015 47598 /3329 10075 20016 49928 52014 700// 22200 10607 70034
BBXX 63106 17064 99610 10017 46/// /3428 10043 49903 53019 22200
BBXX 63113 17064 99610 10017 46/// /3530 10047 20000 49901 53013 22200 10707 70037
BBXX 62305 17064 99504 10000 46/98 /3317 10057 20026 40093 52032 22200 00119 10703 70014 333 90710 91126
BBXX 62103 17064 99499 70029 46/99 /3118 10081 20027 40106 52024 22200 00123 11006 70032 333 90710 91129
BBXX 62081 17064 99510 70134 46/// ///// 10090 2//// 40212 52010 22200 00121 10910 70050
BBXX 62105 17064 99554 70122 46/// /3323 10070 20016 40136 52027 22200 00103 10810 70050
AAXX 17061 10637 01475 72303 10033 20015 39854 49992 53034 69902 72162 875// 333 10062 20029 31002 55000 55300 69907 70110 82711 86521
AAXX 17061 78090 15/// /0000 10208 30210 40214 69901 90600 222// 00118
AAXX 17064 78073 11665 50000 10208 20192 20204 69901 70381 85500 333 58002 85635 90960
BBXX VRBK6 17064 99252 11238 41597 63320 10190 2010/ 40250 54000 70211 861// 22254 00240 20602 333// 40604 5//// 6//// 80140 ICE /////
AAXX 17064 71642 13/// ///// 11250 60001 333 11090 21250 70020 555 10020 20020
AAXX 17064 71642 13/// ///// 11250 60001 333 11090 21250 70020 555 10020 20020
AAXX 17064 78988 02484 60515 10264 20240 30113 40123 57010 60001 85201 333 N58014 60007 85818 85081
AAXX 17064 78990 01/// /0100 10245 20236 30121 57011 60001 70000 333 58012 60007
AAXX 17064 78873 01/// /0610 10239 20138 30098 57009 60001 70000 333 58017 60007
AAXX 17064 78988 02484 60515 10264 20240 30113 40123 57010 60001 85201 333 N58014 60007 85818 85081
AAXX 17064 78990 01/// /0100 10245 20236 30121 57011 60001 70000 333 58012 60007
AAXX 17064 78873 01/// /0610 10239 20138 30098 57009 60001 70000 333 58017 60007
AAXX 17064 78988 02484 60515 10264 20240 30113 40123 57010 60001 85201 333 N58014 60007 85818 85081
AAXX 17064 78990 01/// /0100 10245 20236 30121 57011 60001 70000 333 58012 60007
AAXX 17064 78873 01/// /0610 10239 20138 30098 57009 60001 70000 333 58017 60007
BBXX 63110 17063 99595 10015 41/98 /3340 10074 49922 700// 8//// 22200 10607 70035
BBXX 62081 17064 99510 70134 46/// ///// 10090 20029 40212 52010 22200 00121 10910 70050
BBXX 62105 17064 99554 70122 46/// /3323 10070 20016 40136 52027 22200 00104 10810 70050 333 90710 91133
BBXX 63106 17064 99610 10017 46/// /3428 10043 49903 53019 22200
BBXX 63105 17064 99610 10017 47498 ///// 10048 20005 49903 53020 751// 22200
BBXX 62103 17064 99499 70029 46/99 /3018 10086 20036 40112 52021 22200 00122 11106 70029
BBXX 62305 17064 99504 10000 46/98 /3317 10057 20026 40089 52032 22200 00119 10703 70014 333 90710 91126
BBXX 62107 17064 99501 70061 46/// /3333 10088 20003 40143 50009 22200 00114 11009 70045 333 90710 91142
BBXX C6YT4 17061 99110 70676 41598 72617 10265 20236 40120 51005 78082 87894 22233 04320 20603 305// 40302 5//// 80245
BBXX VRBK6 17064 99252 11238 41597 63320 10190 2010/ 40250 54000 70211 861// 22254 00240 20602 333// 40604 5//// 6//// 80140 ICE /////
AAXX 17064 71382 16/// /0303 11150 21171 39189 40156 56003 60001 333 10022 21152 70040
BBXX C6YA5 17064 99425 50564 41997 41015 10150 2//// 40150 56020 7//// 8///1 22284 00160 20601 306// 40805 5//// 6//// 8//// ICE /////
BBXX AMOUK08 17064 99501 70061 46/// ///// 10092 20032 30135 40136 52022 90550
BBXX 63110 17064 99595 10015 47598 /3329 10075 20016 49928 52014 700// 22200 10607 70034
BBXX 63106 17064 99610 10017 46/// /3428 10043 49903 53019 22200
BBXX 63113 17064 99610 10017 46/// /3530 10047 20000 49901 53013 22200 10707 70037
BBXX 62305 17064 99504 10000 46/98 /3317 10057 20026 40093 52032 22200 00119 10703 70014 333 90710 91126
BBXX 62103 17064 99499 70029 46/99 /3118 10081 20027 40106 52024 22200 00123 11006 70032 333 90710 91129
BBXX 62081 17064 99510 70134 46/// ///// 10090 2//// 40212 52010 22200 00121 10910 70050
BBXX 62105 17064 99554 70122 46/// /3323 10070 20016 40136 52027 22200 00103 10810 70050
BBXX C6YA5 17064 99425 50564 41997 41015 10150 2//// 40150 56020 7//// 8///1 22284 00160 20601 306// 40805 5//// 6//// 8//// ICE /////
AAXX 17063 64910 31420 60000 10255 20243 30102 40111 71799 86900 333 02100 20256 50451 55059 86616 81920 94994 95895
AAXX 17061 40009 11565 70000 10040 20025 40173 51020 60021 76166 85550 333 20009 31 85630 87360
AAXX 17061 40016 32970 5 10034 20014 40219 53004 85050 333 20004 30 85360
AAXX 17061 40022 11565 42707 10174 20111 40161 52012 60272 70266 84200 222 20502 333 20120 32 84830
AAXX 17061 40030 11560 70000 10084 20071 40166 52014 60061 076060 84570 333 20049 32 84630 87360
AAXX 17061 40039 32570 70000 10032 20017 40186 53014 84520 333 20010 31 84630 87360
AAXX 17061 40066 11570 52505 10130 20111 40162 52010 69942 72162 85400 333 20106 31 85626
AAXX 17061 40072 32970 00000 10050 21018 40224 52010 333 20030 30
AAXX 17061 40083 32970 01001 10062 20001 48479 52009 333 20014 30
AAXX 17064 62002 32960 02716 10093 20022 39456 48510 57011 333 20086 50504 55096
AAXX 17064 62010 32960 02306 10068 20029 40171 55000 333 20067 55072
AAXX 17064 62012 32960 02103 10099 20060 30131 40161 57013 333 20090 50184
AAXX 17064 62016 32960 02206 10105 20053 40190 56007 333 20104 56314 55064
AAXX 17064 62124 32960 00000 10052 20014 39699 40213 53004 333 20048 50354 55107
AAXX 17064 62161 32970 00000 10072 20052 40197 54000 333 20070 50204 55088
AAXX 17064 62053 12560 51615 10127 20094 40184 56004 69904 85500 333 0XX19 20117 50174 55031 85620
BBXX 63110 17063 99595 10015 41/98 /3340 10074 49922 700// 8//// 22200 10607 70035
BBXX 62081 17064 99510 70134 46/// ///// 10090 20029 40212 52010 22200 00121 10910 70050
BBXX 62105 17064 99554 70122 46/// /3323 10070 20016 40136 52027 22200 00104 10810 70050 333 90710 91133
BBXX 63106 17064 99610 10017 46/// /3428 10043 49903 53019 22200
BBXX 63105 17064 99610 10017 47498 ///// 10048 20005 49903 53020 751// 22200
BBXX 62103 17064 99499 70029 46/99 /3018 10086 20036 40112 52021 22200 00122 11106 70029
BBXX 62305 17064 99504 10000 46/98 /3317 10057 20026 40089 52032 22200 00119 10703 70014 333 90710 91126
BBXX 62107 17064 99501 70061 46/// /3333 10088 20003 40143 50009 22200 00114 11009 70045 333 90710 91142
AAXX 17064 91723 NIL
AAXX 17064 91964 NIL
BBXX AMOUK08 17064 99501 70061 46/// ///// 10092 20032 30135 40136 52022 90550
BBXX 63110 17064 99595 10015 47598 /3329 10075 20016 49928 52014 700// 22200 10607 70034
BBXX 63106 17064 99610 10017 46/// /3428 10043 49903 53019 22200
BBXX 63113 17064 99610 10017 46/// /3530 10047 20000 49901 53013 22200 10707 70037
BBXX 62305 17064 99504 10000 46/98 /3317 10057 20026 40093 52032 22200 00119 10703 70014 333 90710 91126
BBXX 62103 17064 99499 70029 46/99 /3118 10081 20027 40106 52024 22200 00123 11006 70032 333 90710 91129
BBXX 62081 17064 99510 70134 46/// ///// 10090 2//// 40212 52010 22200 00121 10910 70050
BBXX 62105 17064 99554 70122 46/// /3323 10070 20016 40136 52027 22200 00103 10810 70050
AAXX 17064 97048 01460 60000 10314 20242 30018 40042 57024 69901 72122 84972 333 56400 57801 81917 83817 80980 80860
AAXX 17123 68452 NIL
AAXX 17123 68454 32689 22708 10275 20074 38419 48/// 57003 82200
AAXX 17123 68456 NIL
AAXX 17123 68452 NIL
AAXX 17123 68454 32689 22708 10275 20074 38419 48/// 57003 82200
AAXX 17123 68456 NIL
BBXX 63110 17063 99595 10015 41/98 /3340 10074 49922 700// 8//// 22200 10607 70035
BBXX 62081 17064 99510 70134 46/// ///// 10090 20029 40212 52010 22200 00121 10910 70050
BBXX 62105 17064 99554 70122 46/// /3323 10070 20016 40136 52027 22200 00104 10810 70050 333 90710 91133
BBXX 63106 17064 99610 10017 46/// /3428 10043 49903 53019 22200
BBXX 63105 17064 99610 10017 47498 ///// 10048 20005 49903 53020 751// 22200
BBXX 62103 17064 99499 70029 46/99 /3018 10086 20036 40112 52021 22200 00122 11106 70029
BBXX 62305 17064 99504 10000 46/98 /3317 10057 20026 40089 52032 22200 00119 10703 70014 333 90710 91126
BBXX 62107 17064 99501 70061 46/// /3333 10088 20003 40143 50009 22200 00114 11009 70045 333 90710 91142
AAXX 17064 71845 43/// ///// 333 11167 21249 44015 79999 90999 555 19999 29999
AAXX 17064 71314 16/// /3508 11056 21077 39862 40221 51008 60001 333 10021 21056 70009 555 32934 40073
AAXX 17064 71845 43/// ///// 333 11167 21249 44015 79999 90999 555 19999 29999
AAXX 17064 48325 31665 20000 10284 20184 39886 40126 57025 70340 81201 333 58002 70000
AAXX 17064 48325 31665 20000 10284 20184 39886 40126 57025 70340 81201 333 58002 70000
BBXX 70100 80004 22223 20405 3//// 4//// 5//// 80210
AAXX 17064 64500 32360 81610 10255 20241 30099 40112 849// 333 02600 20235 50631 55057 58006 83608 81920 88633 94942 95832
AAXX 17064 64501 32460 71808 10252 20242 3//// 4//// 8353/ 333 0//00 20250 50124 55003 5//// 83610 87360
AAXX 17064 64507 NIL
AAXX 17064 64510 31/01 9//// 10215 20215 3//// 4//// 74544 333 0//00 20215 5///4 55/// 5//// 89///
AAXX 17064 64550 32460 8//// 10239 20224 30/// 40/// 885// 333 02200 20219 50144 55/// 5//// 84613 88620
AAXX 17064 64551 31240 82206 10252 20238 30085 40114 71022 885// 333 0//00 20222 50034 55/// 59001 82703 83610 88626
AAXX 17064 64556 NIL
AAXX 17064 64570 31102 61404 10229 20229 39625 40134 74444 84640 333 02000 20221 50054 55/// 58002 84702 86360
AAXX 17063 64800 NIL
AAXX 17063 64820 NIL
AAXX 17063 64860 31930 70000 10156 20089 39858 40131 70522 80002 333 00300 20153 50680 55100 59005 87080
AAXX 17063 64861 NIL
AAXX 17063 64870 31958 70000 10096 20059 38917 48507 70522 80002 333 01000 20096 50611 55113 59006 87080
AAXX 17063 64871 NIL
AAXX 17063 64892 NIL
AAXX 17063 64893 NIL
AAXX 17063 64894 NIL
AAXX 17063 64910 31420 60000 10255 20243 30102 40111 71799 86900 333 02100 20256 50451 55059 86616 81920 94994 95895
AAXX 17063 64911 NIL
AAXX 17063 64950 NIL
AAXX 17064 61017 32960 50000 10038 21009 39764 40189 80002 333 05500 20035 50284 55099 59011 85080
AAXX 17064 61024 32960 30808 10103 21061 39590 40177 80002 333 06000 20100 51591 55/// 59006 83080
AAXX 17064 61036 32965 70804 10176 21023 39897 40137 80008 333 01500 20164 50951 50854 55102 59005 87280
AAXX 17064 61043 32960 70606 10120 21048 39700 40149 80008 333 0//00 20115 51321 5///4 55104 59003 87280
AAXX 17064 61045 31906 70402 10118 21007 39655 40163 70644 80008 333 00800 20114 5//// 50684 55086 59006 87280
AAXX 17064 61049 31920 70000 10104 20010 39823 40150 7062/ 80008 333 00800 20098 50831 50644 55095 59017 87280
AAXX 17064 61052 31930 50804 10167 21036 39886 40145 70622 80002 333 01400 20165 50971 55087 59002 85080
AAXX 17064 61075 32960 60000 10145 21025 39827 40140 80008 333 01200 20142 50941 50644 55093 59006 86280
AAXX 17064 61080 32960 70804 10100 21034 39728 40159 80008 333 00200 20095 51001 50904 55080 59003 87280
AAXX 17064 61090 31930 70406 10140 21025 39640 40159 70622 80008 333 01000 20135 50891 50824 55078 59007 87280
AAXX 17064 61091 NIL
AAXX 17064 61096 31908 70404 10126 21002 39765 40154 70642 80008 333 01100 20121 50951 50744 55093 59012 87280
AAXX 17064 61099 31940 70606 10190 20018 39896 40126 7062/ 80008 333 01500 20185 50921 55098 58002 87280
AAXX 17064 63729 12480 70000 10212 20184 38875 48/// 60024 8393/ 333 0//12 20180 50511 55047 55300 59006 83617 81919 87359
AAXX 17064 63733 12580 70000 10217 20176 38871 48511 69984 81931 333 0//19 20180 50641 55103 55300 59005 81920 87359
AAXX 17064 63756 12580 71206 10222 20190 38879 48515 69904 8397/ 333 0//19 20195 50401 55110 55300 58000 83821 81922 87359
AAXX 17064 63791 32580 10000 10255 20178 39136 48522 81200 333 20184 50851 55110 55310 59004 81825
AAXX 17064 63801 11480 72705 10210 20182 39219 48538 69904 79196 8197/ 333 0//11 50501 55067 55300 59009 81819 81920 87359
AAXX 17064 63832 12480 70000 10195 20188 38840 48513 60204 8393/ 333 20176 50031 55102 55300 58004 83816 81917 87358
AAXX 17064 63862 32580 11010 10242 20186 38906 48518 81230 333 20204 50951 55105 55310 59006 81822
AAXX 17064 63866 32580 41807 10255 20203 39517 48/// 84500 333 20212 50601 55011 55310 59009 84622
AAXX 17064 63870 32580 50307 10298 20251 30096 40114 85200 333 20243 50051 55112 55300 59008 85820
AAXX 17064 63881 01480 71402 10184 20141 38211 48/// 60094 70196 81930 333 0//19 20134 50131 55053 55301 59006 69947 81818 81920 84076
AAXX 17064 63887 32480 70000 10221 20152 38595 48514 81101 333 20161 50601 55101 59006 81819 87075
AAXX 17064 63894 32580 50210 10290 20256 30075 40117 85200 333 20243 50651 55118 55305 58010 85822
AAXX 17064 63932 32580 60000 10184 20150 38324 48522 81102 333 20122 50551 55083 55300 59001 81823 86078
AAXX 17064 63971 32580 63610 10284 20250 39998 40111 869// 333 20240 55310 59009 86823 81924
AAXX 17064 63962 NIL
AAXX 17064 61017 32960 50000 10038 21009 39764 40189 80002 333 05500 20035 50284 55099 59011 85080
AAXX 17064 61024 32960 30808 10103 21061 39590 40177 80002 333 06000 20100 51591 55/// 59006 83080
AAXX 17064 61036 32965 70804 10176 21023 39897 40137 80008 333 01500 20164 50951 50854 55102 59005 87280
AAXX 17064 61043 32960 70606 10120 21048 39700 40149 80008 333 0//00 20115 51321 5///4 55104 59003 87280
AAXX 17064 61045 31906 70402 10118 21007 39655 40163 70644 80008 333 00800 20114 5//// 50684 55086 59006 87280
AAXX 17064 61049 31920 70000 10104 20010 39823 40150 7062/ 80008 333 00800 20098 50831 50644 55095 59017 87280
AAXX 17064 61052 31930 50804 10167 21036 39886 40145 70622 80002 333 01400 20165 50971 55087 59002 85080
AAXX 17064 61075 32960 60000 10145 21025 39827 40140 80008 333 01200 20142 50941 50644 55093 59006 86280
AAXX 17064 61080 32960 70804 10100 21034 39728 40159 80008 333 00200 20095 51001 50904 55080 59003 87280
AAXX 17064 61090 31930 70406 10140 21025 39640 40159 70622 80008 333 01000 20135 50891 50824 55078 59007 87280
AAXX 17064 61091 NIL
AAXX 17064 61096 31908 70404 10126 21002 39765 40154 70642 80008 333 01100 20121 50951 50744 55093 59012 87280
AAXX 17064 61099 31940 70606 10190 20018 39896 40126 7062/ 80008 333 01500 20185 50921 55098 58002 87280
AAXX 17064 67017 NIL
AAXX 17064 67020 12582 60000 10273 20242 30074 40101 51001 60244 86800 333 022// 10358 20214 50494 55/// 83820 86640
AAXX 17064 67023 31575 61008 10314 20237 30090 40096 55000 70422 81202 333 01900 10318 20210 50554 55/// 81820 86073
AAXX 17064 67037 12582 5//// 10/// 20/// 30056 40097 5/006 60314 83832 333 0//// 10/// 20/// 50//3 55/// 81820 83640 444 81360 81073
AAXX 17064 67067 11565 7//// 10230 20194 39243 48/// 51006 60034 7102/ 8223/ 333 0//79 10309 20197 50494 55/// 82820 86360
AAXX 17064 67107 NIL
AAXX 17064 67131 32582 62606 10/// 20/// 30088 40093 51004 86800 333 0//00 10/// 20/// 50//4 55/// 84823 555 82640
AAXX 17064 67002 12580 62803 10292 20237 30087 40120 60064 81502 333 20239 59017 81630 85073 92408
AAXX 17064 67009 32582 70000 10300 20243 39992 40110 51010 83232 333 02300 10325 20240 50304 55080 83820 84360 555 83073
AAXX 17064 67012 32582 52604 10270 20243 30101 40112 51011 878// 333 0//00 10324 20233 50244 55/// 85817 84633
AAXX 17064 67025 31565 81804 10314 20195 39998 40096 55002 7040/ 82801 333 0//00 10320 20222 50314 55/// 82820 555 81640 81070
AAXX 17064 67027 32582 61602 10292 20230 30083 40104 50009 82832 333 02200 10333 20257 50414 55085 81820 83360 555 82640 82073
AAXX 17064 67045 NIL
AAXX 17064 67072 31470 73004 10273 20231 30112 40115 51005 71522 878// 333 02200 10303 20246 50314 55/// 83817 87640 92428
AAXX 17064 67073 32582 4//// 10304 20244 30077 40103 54000 82232 333 0//00 10333 20245 50//4 55/// 82820 555 81360 82073
AAXX 17064 67083 12582 30000 10227 20185 38723 48495 51003 60114 82830 333 01419 20178 50184 55049 82820
AAXX 17064 67095 32482 40802 10299 20231 30098 40104 50000 83802 333 02200 10315 20225 30344 55/// 83817 555 81633 82073
AAXX 17064 67113 NIL
AAXX 17064 67117 NIL
AAXX 17064 67137 12480 7//02 10233 20188 38871 48478 50001 69934 83832 333 0//15 10293 20196 50214 55/// 83817 85360 555 81620 81073
AAXX 17064 67143 11580 4//// 10/// 20/// 30099 40106 52009 60394 70161 84800 333 0//24 10/// 20/// 50//4 55/// 82820 84633 92438
AAXX 17064 67152 32982 4//// 10249 20184 39178 48493 51004 81032 333 02200 10344 20202 50944 55/// 81360 84073
AAXX 17064 67157 11470 7//// 10/// 20/// 30104 40111 58010 69954 71762 879// 333 0//16 10/// 20/// 50//4 55/// 82817 81917 87633 94995 95835
AAXX 17064 67161 NIL
AAXX 17064 67197 32580 71206 10287 20227 30077 40087 51005 8485/ 333 01600 10314 20242 50594 55088 83820 85360 555 82633
AAXX 17064 64700 31930 20408 10140 21001 39790 40135 80001 333 0//00 20132 50811 55102 59016 82075
AAXX 17064 64701 NIL
AAXX 17064 64702 NIL
AAXX 17064 64705 31958 23606 10134 20040 3//// 4//// 705// 80002 90555 333 0//00 2//// 50664 55/// ///// 5//// 82075
AAXX 17064 64706 33960 30000 10158 20068 39646 40122 80002 333 01200 20140 51174 55101 59005 83075
AAXX 17064 64708 NIL
AAXX 17064 64709 NIL
AAXX 17064 64710 NIL
AAXX 17064 64713 NIL
AAXX 17064 64722 33962 10000 10170 20074 3//// 4//// 80002 90600 333 0//00 20120 50454 55/// 5//// 81075
AAXX 17064 64750 32960 63206 10175 20055 39698 40111 80002 90603 333 01200 20153 50631 55090 59001 86075
AAXX 17064 64751 33960 30404 10137 21005 3//// 4//// 83032 90555 333 0//00 20128 50614 55/// 5//// 83365
AAXX 17064 64753 33960 30410 10135 20038 3//// 4//// 80002 90555 333 0//00 20125 50894 55/// 5//// 83075
AAXX 17064 64754 33960 60000 10195 20060 3//// 4//// 80002 90605 333 0//00 20125 50474 55/// 5//// 86075
AAXX 17064 64756 33962 60000 10190 21030 39507 4//// 80002 90550 333 0//00 20150 5//// 55/// 59014 86075
AAXX 17064 64757 NIL
AAXX 17064 64758 NIL
AAXX 17064 64761 NIL
AAXX 17064 60106 32560 51811 10110 20090 40292 57007 85200 333 20085 85820
BBXX AMOUK08 17064 99501 70061 46/// ///// 10092 20032 30135 40136 52022 90550
BBXX 63110 17064 99595 10015 47598 /3329 10075 20016 49928 52014 700// 22200 10607 70034
BBXX 63106 17064 99610 10017 46/// /3428 10043 49903 53019 22200
BBXX 63113 17064 99610 10017 46/// /3530 10047 20000 49901 53013 22200 10707 70037
BBXX 62305 17064 99504 10000 46/98 /3317 10057 20026 40093 52032 22200 00119 10703 70014 333 90710 91126
BBXX 62103 17064 99499 70029 46/99 /3118 10081 20027 40106 52024 22200 00123 11006 70032 333 90710 91129
BBXX 62081 17064 99510 70134 46/// ///// 10090 2//// 40212 52010 22200 00121 10910 70050
BBXX 62105 17064 99554 70122 46/// /3323 10070 20016 40136 52027 22200 00103 10810 70050
AAXX 17061 10496 01370 82807 10036 20010 39779 49863 52038 60022 78065 872// 333 10081 20020 31002 55000 55300 20000 30000 69917 70109 87809 91116
BBXX 63110 17063 99595 10015 41/98 /3340 10074 49922 700// 8//// 22200 10607 70035
BBXX 62081 17064 99510 70134 46/// ///// 10090 20029 40212 52010 22200 00121 10910 70050
BBXX 62105 17064 99554 70122 46/// /3323 10070 20016 40136 52027 22200 00104 10810 70050 333 90710 91133
BBXX 63106 17064 99610 10017 46/// /3428 10043 49903 53019 22200
BBXX 63105 17064 99610 10017 47498 ///// 10048 20005 49903 53020 751// 22200
BBXX 62103 17064 99499 70029 46/99 /3018 10086 20036 40112 52021 22200 00122 11106 70029
BBXX 62305 17064 99504 10000 46/98 /3317 10057 20026 40089 52032 22200 00119 10703 70014 333 90710 91126
BBXX 62107 17064 99501 70061 46/// /3333 10088 20003 40143 50009 22200 00114 11009 70045 333 90710 91142
AAXX 17064 91487 NIL
AAXX 17064 91490 NIL
AAXX 17064 91533 NIL
AAXX 17064 91601 NIL
AAXX 17064 91610 11498 60914 10285 20245 40063 52006 60001 71500 86530 333 5629/
AAXX 17064 86614
AAXX 17064 91623 NIL
AAXX 17064 91629 NIL
AAXX 17064 91701 NIL
AAXX 17064 91487 NIL
AAXX 17064 91490 NIL
AAXX 17064 91533 NIL
AAXX 17064 91601 NIL
AAXX 17064 91610 11498 60914 10285 20245 40063 52006 60001 71500 86530 333 5629/
AAXX 17064 86614
AAXX 17064 91623 NIL
AAXX 17064 91629 NIL
AAXX 17064 91701 NIL
BBXX C6FR3 17063 99219 70862 41898 30615 1//// 2//// 40210 5//// 70100 83//1 22214 00270 20202 3//// 40204 50202 6//// 8//// ICE /////
BBXX C6FR3 17063 99219 70862 41898 30615 1//// 2//// 40210 5//// 70100 83//1 22214 00270 20202 3//// 40204 50202 6//// 8//// ICE /////
AAXX 17061 45032 36/// /3502 10185 20051 30212 40229 57002
AAXX 17061 45035 36/// /3502 10171 20066 30186 40228 57002
AAXX 17061 45039 36/// /0103 10175 20067 30213 40227 54000
AAXX 17061 45044 36/// /1209 10177 20084 30131 40226 57001
AAXX 17061 45032 36/// /3402 10183 20051 30214 40231 57002
AAXX 17061 45035 36/// /0002 10174 20059 30188 40230 57001
AAXX 17061 45039 36/// /0203 10174 20070 30213 40227 57001
AAXX 17061 45044 36/// /1207 10180 20085 30132 40227 57002
AAXX 17061 45032 36/// /3402 10183 20051 30214 40231 57002
AAXX 17061 45035 36/// /0002 10174 20059 30188 40230 57001
AAXX 17061 45039 36/// /0203 10174 20070 30213 40227 57001
AAXX 17061 45044 36/// /1207 10180 20085 30132 40227 57002
AAXX 17061 45032 36/// /3502 10185 20051 30212 40229 57002
AAXX 17061 45035 36/// /3502 10171 20066 30186 40228 57002
AAXX 17061 45039 36/// /0103 10175 20067 30213 40227 54000
AAXX 17061 45044 36/// /1209 10177 20084 30131 40226 57001
AAXX 17061 45032 36/// /9901 10183 20056 30209 40226 57002
AAXX 17061 45035 36/// /0002 10178 20063 30183 40225 54000
AAXX 17061 45039 36/// /0802 10177 20083 30208 40222 57002
AAXX 17061 45044 36/// /1209 10172 20091 30129 40223 54000
AAXX 17061 45032 36/// /3402 10182 20043 30211 40228 57001
AAXX 17061 45035 36/// /0102 10175 20059 30183 40225 57003
AAXX 17061 45039 36/// /0003 10177 20068 30210 40225 57003
AAXX 17061 45044 36/// /1209 10174 20090 30129 40223 57002
AAXX 17061 45032 36/// /9901 10183 20056 30209 40226 57002
AAXX 17061 45035 36/// /0002 10178 20063 30183 40225 54000
AAXX 17061 45039 36/// /0802 10177 20083 30208 40222 57002
AAXX 17061 45044 36/// /1209 10172 20091 30129 40223 54000
AAXX 17061 45032 36/// /3402 10182 20043 30211 40228 57001
AAXX 17061 45035 36/// /0102 10175 20059 30183 40225 57003
AAXX 17061 45039 36/// /0003 10177 20068 30210 40225 57003
AAXX 17061 45044 36/// /1209 10174 20090 30129 40223 57002
AAXX 17061 25677 31494 83110 11186 21192 30043 40049 57013 73832 8657/ 333 11186 86617 91116
BBXX PBHZ 17063 99245 70835 41598 41110 10252 20249 40214 50/// 71411 834// 22233 06281 20301 80250
BBXX PBHZ 17063 99245 70835 41598 41110 10252 20249 40214 50/// 71411 834// 22233 06281 20301 80250
AAXX 17061 30975 42899 60701 11241 21281 39604 40311 57014 83041
BBXX C6SI4 17064 99541 71614 41496 81732 10050 2003/ 49810 56040 76022 889// 22262 00050 20010 322// 4//// 5//// 6//// 80040 ICE /////
AAXX 17064 48615 11462 70717 10295 20249 30092 40098 69961 72582 82242 333 82818 87074
AAXX 17064 71268 43/// ///// 333 11052 21150 79999 555 19999 29999
BBXX A8PQ6 17064 99261 10559 41697 30520 10210 2015/ 40190 54/// 70200 83223 22200 00260 20502 30404 40502 50502 6//// 80170 ICE /////
AAXX 17061 10488 01465 82808 10028 20003 39616 49895 53032 69972 72786 875// 333 10092 20024 31002 55001 55300 20000 30000 41148 69907 70053 87618 91119 91213 96487
AAXX 17061 10162 01462 73006 10028 20010 39794 49876 52039 60062 70265 875// 333 10039 20002 32100 55000 55300 20000 30000 69907 70160 87615 91114
AAXX 17061 10200 01367 73008 10053 20024 39950 49948 51026 60012 78186 879// 333 10056 20036 31001 55000 55300 20000 30000 69967 70075 82709 87920 91116
AAXX 17061 10548 01470 82905 10014 21009 39416 49957 53037 69992 72276 888// 333 10026 20008 3/000 42002 55000 55300 20000 30000 69917 70200 84811 87633 91113
AAXX 17061 10113 01480 63315 10050 20020 39926 49945 53025 69982 78187 86800 222// 06051 333 10069 20044 32003 55000 55300 20000 30000 69907 70029 85818 83645 91122 91216
AAXX 17064 71288 16/// /3008 11290 21319 30087 40113 56006 60001 333 11276 21309 70000
AAXX 17064 71288 16/// /3008 11290 21319 30087 40113 56006 60001 333 11276 21309 70000
AAXX 17061 10763 01468 72807 10017 21001 39584 49967 51030 60032 72272 878// 333 10068 20008 31000 55000 55300 20000 30000 69907 70075 83810 84612 87630 91115
AAXX 17061 10113 01480 63315 10050 20020 39926 49945 53025 69982 78181 86800 222// 06051 333 10069 20044 32003 55000 55300 20000 30000 69907 70029 85818 83645 91122 91216
AAXX 17061 10532 07464 72603 10026 20010 39730 49978 53037 69932 75765 333 10040 20021 3/001 55000 55300 20000 30000 69907 70118 87/10 87/26
AAXX 17061 10200 01367 73008 10053 20024 39950 49948 51026 60012 78182 879// 333 10056 20036 31001 55000 55300 20000 30000 69967 70075 82709 87920 91116
AAXX 17064 71372 16/// /3303 11031 21056 60001 333 7////
AAXX 17061 10544 01/00 93006 11023 21023 38879 48271 53035 60052 78587 333 11014 21025 3/103 48012 55000 55300 69987 70153 91115 96049 96036 96147 96285 96478 96473 96471
AAXX 17061 10655 01575 82705 10021 20007 39648 49977 51036 60022 76177 875// 333 10052 20012 31000 55000 55300 20000 30000 69907 70081 87620 91115
AAXX 17061 10791 01/90 92918 11060 21064 38285 48245 51021 60142 77374 333 10001 21061 49078 55000 55300 60037 70323 96049
AAXX 17061 10162 01462 73006 10028 20010 39794 49876 52039 60062 70276 875// 333 10039 20002 32100 55000 55300 20000 30000 69907 70160 87615 91114
AAXX 17061 10961 11/01 93306 11174 21174 36841 47788 53012 60112 77374 333 11099 21176 49100 55000 55300 20000 40936 70129 96049
AAXX 17061 10980 11/01 92816 11093 21093 37925 48290 53011 60052 77174 333 11030 21095 3/109 48030 55000 55300 20000 30000 70070 96049 96471 96449
