BBXX VRHB4 03064 99113 11128 41597 70227 10280 2025/ 40090 52010 70322 8762/ 22213 04300 20708 336// 40908 5//// 6//// 80260 ICE /////
BBXX VRCP9 03064 99383 70341 41497 21119 10180 20130 40360 54000 70100 81189 22223 00186 2//// 3//// 4//// 5//// 6//// 80150 ICE /////
BBXX 46218 03061 99345 71208 46/// ///// 1//// 90532 22200 00136 11005 21003 331// 41103 70024
BBXX ZMFR 03054 99516 31737 43/// /04// 10087 20080 40119 57024 22243 00083
BBXX ZMENA 03054 99436 31727 46/// ///// 10196 20096 40092 222//
BBXX 9HRJ9 03064 99383 70132 41797 43520 10140 2//// 40310 53/// 70100 838/9 22264 04170 20104 39999 40105 50105 6//// 8//// ICE /////
AAXX 03064 40340 32960 00110 10100 21018 40212 52015 333 20090 30008
AAXX 03064 40260 32960 03104 10030 21093 39436 40238 52006 333 200// 300//
AAXX 03064 40265 32960 01604 10036 21038 39441 40262 52016 333 21020 30106
AAXX 03064 40272 31958 00000 10044 21078 39390 40246 52010 70500 333 21010 30103
AAXX 03064 40255 32960 00000 10070 21022 39509 40239 52008 333 20030 30000
BBXX 42363 03061 99282 70892 46/// /1114 10206 20100 40275 90545 333 91214
BBXX 42364 03061 99291 70881 46/// /1208 10194 20089 40281 90545
BBXX WDD2876 03064 99474 70875 41/98 12032 10011 2//// 40190 53/// 70200 8//// 22243 00067 2//04 3//// 4//// 5//// 6//// 8//// ICE /////
BBXX V7MO2 03064 99262 70914 41/97 /1109 10228 20153 40238 57004 7//// 8//// 22200 00241 20301 309// 40502 5//// 6//// 80180 ICE /////
AAXX 03064 40270 31930 00000 10060 21032 39322 40239 52009 70400 333 20034 30103
AAXX 03064 08495 12580 13008 10111 20076 30204 40212 55001 60002 81500 90550 333 20105 30007 79999 81625
BBXX 46249 03061 99338 71197 46/// ///// 1//// 90547 22200 00149 11402 21002 321// 41401 70009
BBXX 46248 03061 99461 71247 46/// ///// 1//// 90534 22200 00098 11207 20805 329// 41204 70034
BBXX 46244 03061 99409 71244 46/// ///// 1//// 90535 22200 00108 10910 20908 333// 41105 70049
BBXX 41115 03061 99184 70673 46/// ///// 1//// 90535 22200 10901 20901 70006
BBXX 46240 03061 99366 71219 46/// ///// 1//// 90542 22200 00125 11003 21002 335// 41202 70014
BBXX 46237 03061 99378 71226 46/// ///// 1//// 90540 22200 00118 11404 21003 326// 41403 70021
BBXX 46212 03061 99408 71243 46/// ///// 1//// 90542 22200 00104 11009 21007 332// 41206 70047
BBXX 46217 03061 99342 71194 46/// ///// 1//// 90542 22200 00151 10502 20502 318// 41401 70010
BBXX 44098 03061 99428 70702 46/// ///// 1//// 90537 22200 00099 11103 21002 312// 41101 70014
BBXX 44097 03061 99410 70711 46/// ///// 1//// 90532 22200 00132 10403 20403 316// 41101 70017
BBXX 46211 03061 99469 71242 46/// ///// 1//// 90536 22200 00094 10905 20904 328// 41403 70025
AAXX 03064 91376 11474 80808 10276 20244 30058 40061 53012 60011 70282 85878 333 56229 70104 555 90306
AAXX 03064 91376 11474 80808 10276 20244 30058 40061 53012 60011 70282 85878 333 56229 70104 555 90306
AAXX 03064 91334 31474 80410 10289 20245 30051 40054 55005 71622 82371 333 56199 70028 555 90306
AAXX 03064 91334 31474 80410 10289 20245 30051 40054 55005 71622 82371 333 56199 70028 555 90306
AAXX 03064 91413 32469 71208 10309 20251 30037 40062 57010 82171 333 56399 70008 555 90306
AAXX 03064 91413 32469 71208 10309 20251 30037 40062 57010 82171 333 56399 70008 555 90306
AAXX 03064 08583 NIL
AAXX 03064 08589 32462 20212 10233 20186 40132 82500 333 20230 58000 82614
AAXX 03064 08594 31458 50411 10224 20200 40140 70622 81502 333 20213 59003 81615 85070
AAXX 03064 68994 12598 32304 10073 21003 30026 40055 52015 60014 81530 222// 00057 333 20031 91010 555 10087 20010 91005
BBXX 41114 03061 99276 70802 46/// ///// 1//// 90546 22200 00226 11104 20703 307// 41101 70018
BBXX 46114 03061 99364 71222 46/// ///// 1//// 90534 22200 00125 11007 21005 329// 41705 70036
BBXX 46060 03061 99606 71468 46/// /2602 10044 40238 52025 90550 22200 00065 11101 318// 41101 70007 333 91202 555 11019 22020 30511 42404 60549 262019 252019 252023 241034 241033 230033 82404 90512
BBXX 51203 03061 99208 71570 46/// ///// 1//// 90543 22200 00253 11502 20901 320// 41501 70009
BBXX 52200 03061 99134 11448 46/// ///// 1//// 90545 22200 00288 10904 20904 309// 41101 70021
BBXX 51201 03061 99217 71581 46/// ///// 1//// 90542 22200 00249 11305 21004 333// 41303 70024
BBXX 46088 03061 99483 71232 46/// /1203 10065 40331 54000 90550 22200 00085 1//00 70002 333 91203 555 11026 22026 30545 41303 60549 122025 120019 125016 101014 142010 158004
BBXX 44039 03061 99411 70727 46/// /3509 10067 20008 40337 90545 22200 00115 10301 70007 333 91212
BBXX 44060 03061 99413 70721 46/// ///08 10054 40323 90545 22200 00119 333 91210 555 11088 22093
BBXX 44022 03061 99409 70737 46/// ///04 10059 21011 40338 90545 22200 00106 333 91205 555 11036 22041
AAXX 03064 08583 31559 60619 10223 20185 40146 70622 81531 333 20217 58001 81622 86070
BBXX TESTFR9 03064 99489 70038 46/// /2633 10133 29094 40132 52035 22253
AAXX 03064 16597 32462 11603 10110 20110 30157 40245 53003 81100 333 20105 30007 70000 81817
AAXX 03064 91772 31398 50000 10278 20239 4//// 60001 70222 82102 333 569/9 82708 85080
AAXX 03064 91776 31498 40000 1//// 2//// 4//// 60001 70110 84200 333 569// 84818
AAXX 03064 91779 11398 60000 10253 20237 40098 53010 60051 70228 83701 333 563/9 81708 83816 86078
AAXX 03064 91784 31599 21105 10260 20234 40094 53006 60001 70200 82200 333 563// 82820
AAXX 03064 91792 31498 41205 10261 20235 40111 53007 60001 70200 83220 333 5639/ 83816 81462
AAXX 03064 91772 31398 50000 10278 20239 4//// 60001 70222 82102 333 569/9 82708 85080
AAXX 03064 91776 31498 40000 1//// 2//// 4//// 60001 70110 84200 333 569// 84818
AAXX 03064 91779 11398 60000 10253 20237 40098 53010 60051 70228 83701 333 563/9 81708 83816 86078
AAXX 03064 91784 31599 21105 10260 20234 40094 53006 60001 70200 82200 333 563// 82820
AAXX 03064 91792 31498 41205 10261 20235 40111 53007 60001 70200 83220 333 5639/ 83816 81462
AAXX 03064 89664 32561 61714 11021 21089 39682 49723 53010 82670 333 56440 82730 83357
AAXX 03064 81225 12970 10000 10238 20232 40094 60001 80002 333 56009 59009 81080
AAXX 03064 81200 NIL
AAXX 03064 81202 NIL
AAXX 03064 81209 NIL
AAXX 03064 81251 NIL
AAXX 03064 89664 32561 61714 11021 21089 39682 49723 53010 82670 333 56440 82730 83357
AAXX 03064 81225 12970 10000 10238 20232 40094 60001 80002 333 56009 59009 81080
AAXX 03064 81200 NIL
AAXX 03064 81202 NIL
AAXX 03064 81209 NIL
AAXX 03064 81251 NIL
AAXX 03064 89577 46/// /0605 11309 35740 4//// 5////
AAXX 03064 89578 46/// /0603 11363 36806 4//// 5////
AAXX 03064 89664 32561 61714 11021 21089 39682 49723 53010 82670 333 56440 82730 83357
AAXX 03064 61901 169// /1316 10157 20124 39674 40185 53006 69922 90550 333 20152 3/014 70002 8//99 555 7/090
AAXX 03064 78583 32970 03304 10195 20178 40187 60001 80000 333 00000 59005 80000
AAXX 03064 91203 32474 60910 10317 20279 30076 40081 56012 81271 333 56299 70000 81818 555 90306 91317 32474 50406 10306 20291 30074 40078 5//// 82101 333 561/9 70010 82815 555 90306
AAXX 03064 78705 31560 61502 10182 20176 30168 40186 58011 70544 82130 333 10247 20202 30/// 56100 59002 82828 85358
AAXX 03064 78708 11560 62104 10197 20197 30160 40190 58007 69951 70554 83530 333 10253 20196 31/// 56000 59004 83620 86358
AAXX 03064 78714 NIL
AAXX 03064 78717 11356 70000 10144 20144 38990 40186 55005 60021 71055 87500 333 10196 20126 32/// 56800 59004 83706 87622
AAXX 03064 78720 31362 23608 10145 20135 39068 40189 56002 71044 82500 333 10242 20126 30/// 56800 58000 81708
AAXX 03064 78724 32978 00320 10261 20178 30079 40136 51001 333 10328 20234 30/// 58007
BBXX DEGL 03064 99021 10038 41297 82514 10250 20236 40100 51010 76362 85770 22244 04290 20503 320// 40904 5//// 80240
AAXX 03064 89009 41361 70405 11318 36780 53004 70277 86610 333 86707
AAXX 03064 91203 32474 60910 10317 20279 30076 40081 56012 81271 333 56299 70000 81818 555 90306 91317 32474 50406 10306 20291 30074 40078 5//// 82101 333 561/9 70010 82815 555 90306
AAXX 03064 68906 32498 73510 10157 20121 30153 40218 58002 8517/ 222// 00125 333 20151 91025 555 10208 91021
AAXX 03064 78583 32970 03304 10195 20178 40187 60001 80000 333 00000 59005 80000
BBXX WRTF 03064 99272 11379 41398 82411 10252 2023/ 40059 56010 71582 8824/ 22213 00250 20401 30514 41406 51104 6//// 80236 ICE /////
BBXX VCPX 03064 99449 70828 41/98 10000 10003 2//// 40312 57002 70200 8//// 22273 00069 20402 3//// 4//// 5//// 6//// 8//// ICE /////
BBXX WDF7019 03064 99447 70831 43/98 /2128 10004 2//// 40288 57/// 7//// 8//// 22242 0//// 2//// 3//// 4//// 5//// 6//// 8//// ICE /////
BBXX C6SA3 03064 99135 70689 41/// /0823 10280 20239 40110 54/// 7//// 8//// 22283 00280 2//// 3//// 4//// 5//// 6//// 80250 ICE /////
BBXX C6DM2 03064 99054 11003 41797 70405 10330 20249 40070 53010 70211 8718/ 22200 0//// 2//// 3//// 4//// 5//// 6//// 80270 ICE /////
BBXX C6FV9 03064 99232 70870 43/// /3630 10230 2020/ 40230 54000 7//// 8//// 22274 00250 2//// 3//// 4//// 5//// 6//// 80210 ICE /////
BBXX WDC6698 03064 99095 71441 43/// /0719 10283 20272 40110 5//// 7//// 8//// 222// 04258 2//// 3//// 4//// 5//// 6//// 8//// ICE /////
BBXX NWS0022 03064 99416 70714 43/// /3409 10058 20006 40315 5//// 7//// 8//// 222// 04136 2//// 3//// 4//// 5//// 6//// 8//// ICE /////
AAXX 03063 68452 NIL
AAXX 03063 68454 32589 10000 10170 20105 38389 48/// 52004 81400 333 20120 555 10260
AAXX 03063 68456 NIL
BBXX A8OZ4 03064 99264 10349 43997 03229 10230 20130 40180 51040 7//// 80/// 22274 00229 20304 3//// 4/ /// 5//// 80170
BBXX 3FQS8 03064 99115 70912 41/98 30912 00/// 10265 2025/ 40130 51005 70022 83/// 22234 0//// 2//// 3//// 4//// 5//// 6//// 80250 /////
BBXX C6DM2 03064 99054 11003 41797 70405 10330 20249 40070 53010 70211 8718/ 22200 0//// 2//// 3//// 4//// 5//// 6//// 80270 ICE /////
BBXX WDB9949 03064 99338 11531 41497 81130 10190 2016/ 40180 50010 71622 8847/ 22234 00210 20308 306// 41108 5//// 6//// 80170 ICE /////
BBXX 4XIS 03063 99333 11474 43194 81323 10220 2021/ 40130 57060 81/// 22265 20404 312// 40807 80210
BBXX WRTF 03064 99272 11379 41398 82411 10252 2023/ 40059 56010 71582 8824/ 22213 00250 20401 30514 41406 51104 6//// 80236 ICE /////
BBXX ONDY 03064 99348 30191 41797 51826 10175 2013/ 40210 52010 70111 854// 22274 00188 2//// 3//// 4//// 5//// 6//// 80145 ICE /////
BBXX WDC6923 03064 99132 10429 41498 31619 10270 20228 40135 52015 70211 83480 22233 00200 20202 316// 40202 5//// 6//// 80240 ICE /////
BBXX WDD2876 03064 99474 70875 41/98 12032 10011 2//// 40190 53/// 70200 8//// 22243 00067 2//04 3//// 4//// 5//// 6//// 8//// ICE /////
BBXX DGHJ 03063 99238 50809 41/98 61416 10180 20145 40190 58008 70311 86/// 22273 00180 2//// 3//// 4//// 5//// 80158
BBXX ELZA8 03063 99047 50350 41598 40712 10260 20218 40100 54000 70311 84100 22234 04280 29903 80230
BBXX 44060 03061 99413 70721 46/// ///08 10054 40323 90545 22200 00119 333 91210 555 11088 22093
BBXX 44039 03061 99411 70727 46/// /3509 10067 20008 40337 90545 22200 00115 10301 70007 333 91212
BBXX 44022 03061 99409 70737 46/// ///04 10059 21011 40338 90545 22200 00106 333 91205 555 11036 22041
BBXX 46088 03061 99483 71232 46/// /1203 10065 40331 54000 90550 22200 00085 1//00 70002 333 91203 555 11026 22026 30545 41303 60549 122025 120019 125016 101014 142010 158004
BBXX C6T2064 03063 99231 70459 41498 30822 10240 2021/ 40165 56005 70221 82140 22214 20605 80220
BBXX LAZV5 03064 99261 70749 41598 50325 10215 2020/ 40220 56015 70221 85189 22253 0//// 2//// 3//// 4//// 5//// 6//// 80205
BBXX C6FV9 03064 99232 70870 43/// /3630 10230 2020/ 40230 54000 7//// 8//// 22274 00250 2//// 3//// 4//// 5//// 6//// 80210 ICE /////
BBXX HO7723 03064 99260 70781 41797 40524 10220 2017/ 40225 54000 70200 84/85 22273 00290 20306 30302 40407 50306 6//// 80190 ICE /////
BBXX OUIY2 03064 99395 71275 41598 40137 10130 2011/ 40370 52030 70300 84495 22274 00110 20610 33233 40610 50508 6//// 80120 ICE /////
BBXX J8PD 03063 99216 70848 434// 80530 10240 2018/ 40190 50050 7//// 88978 22233 00280 20402 317// 40402 5//// 6//// 80200 ICE /////
BBXX C6SA3 03064 99135 70689 41/// /0823 10280 20239 40110 54/// 7//// 8//// 22283 00280 2//// 3//// 4//// 5//// 6//// 80250 ICE /////
BBXX 46114 03061 99364 71222 46/// ///// 1//// 90534 22200 00125 11007 21005 329// 41705 70036
BBXX 46060 03061 99606 71468 46/// /2602 10044 40238 52025 90550 22200 00065 11101 318// 41101 70007 333 91202 555 11019 22020 30511 42404 60549 262019 252019 252023 241034 241033 230033 82404 90512
BBXX 41114 03061 99276 70802 46/// ///// 1//// 90546 22200 00226 11104 20703 307// 41101 70018
BBXX LAWO2 03063 99301 71505 41698 71724 10210 2020/ 40250 5//// 7//11 8616/ 22223 00230 2//// 3//// 4//// 5//// 6//// 80200 ICE /////
BBXX WDC6736 03064 99418 70420 43/98 /2113 10170 2012/ 40280 5//// 7//// 8//// 22214 00210 2//// 3//// 4//// 5//// 6//// 80140 ICE /////
BBXX LADR4 03064 99199 71324 41899 70517 00/// 10200 2020/ 40200 56010 70322 88163 22273 00250 20403 3//// 4//// 5//// 6//// 80220
BBXX DADD 03063 99320 70777 41498 10318 10195 20110 40290 54000 70200 81100 22264 20502 3//// 4//// 5//// 80145
BBXX 44097 03061 99410 70711 46/// ///// 1//// 90532 22200 00132 10403 20403 316// 41101 70017
BBXX 44098 03061 99428 70702 46/// ///// 1//// 90537 22200 00099 11103 21002 312// 41101 70014
BBXX 46211 03061 99469 71242 46/// ///// 1//// 90536 22200 00094 10905 20904 328// 41403 70025
BBXX 46217 03061 99342 71194 46/// ///// 1//// 90542 22200 00151 10502 20502 318// 41401 70010
BBXX 46212 03061 99408 71243 46/// ///// 1//// 90542 22200 00104 11009 21007 332// 41206 70047
BBXX 46240 03061 99366 71219 46/// ///// 1//// 90542 22200 00125 11003 21002 335// 41202 70014
BBXX 46237 03061 99378 71226 46/// ///// 1//// 90540 22200 00118 11404 21003 326// 41403 70021
BBXX 41115 03061 99184 70673 46/// ///// 1//// 90535 22200 10901 20901 70006
BBXX 46244 03061 99409 71244 46/// ///// 1//// 90535 22200 00108 10910 20908 333// 41105 70049
BBXX 46248 03061 99461 71247 46/// ///// 1//// 90534 22200 00098 11207 20805 329// 41204 70034
BBXX 46249 03061 99338 71197 46/// ///// 1//// 90547 22200 00149 11402 21002 321// 41401 70009
BBXX ONCE 03064 99081 70547 41798 11115 10270 2024/ 40110 54000 70204 81300 22254 00289 2//// 3//// 4//// 5//// 6//// 80250 ICE /////
BBXX WCOB 03064 99273 70455 41497 50820 10220 2017/ 40220 56005 7//11 858// 22263 0//// 20202 306// 40604 5//// 6//// 80190 ICE /////
BBXX C6T2063 03063 99221 70436 41598 70520 10223 2019/ 40178 56010 760// 864// 22254 2//05 80202
BBXX 42364 03061 99291 70881 46/// /1208 10194 20089 40281 90545
BBXX 42363 03061 99282 70892 46/// /1114 10206 20100 40275 90545 333 91214
AAXX 03064 89009 41361 70405 11318 36780 53004 70277 86610 333 86707
AAXX 03064 68382 16/// /1202 10168 20141 39384 48552 52016 69924 333 20151 91004 555 10242 20002 91020
BBXX OVZV2 03060 99335 10273 41598 10304 10165 20109 40247 53012 70300 81100 22274 00188 20201 335// 40402 5//// 80135
BBXX WAHV 03064 99396 70222 41998 83606 10135 2009/ 40360 57005 7//22 88/2/ 22234 00166 2//// 3//// 4//// 5//// 6//// 80110 ICE /////
BBXX WKPF 03063 99329 10267 43/98 43212 10170 2012/ 40250 51014 7//// 8/1// 22275 00212 20101 3//// 4//// 5//// 6//// 80140 ICE /////
BBXX HZZB 03063 99380 70257 41797 80812 10165 2014/ 40345 57010 70322 8881/ 22233 0//// 20403 308// 40504 5//// 6//// 80150 ICE /////
AAXX 03063 68452 NIL
AAXX 03063 68454 32589 10000 10170 20105 38389 48/// 52004 81400 333 20120 555 10260
AAXX 03063 68456 NIL
BBXX 42059 03061 99151 70675 46/// /0609 10277 20226 40125 58013 90550 22200 00285 10503 20503 3//// 40901 70014 333 91210 555 11092 22097 30548 40710 60549 059086 056080 058082 059086 060079 059083 80609 90540
BBXX 42003 03061 99260 70856 46/// /0810 1//// 90550 22200 10703 20703 70017 333 91212 555 11106 22113 30459 41013 60549 080098 082097 083099 082103 086101 090100 80911 90459
BBXX 42055 03061 99222 70940 46/// /0908 10240 20154 40203 90550 22200 00262 10603 20603 70013 333 91209 555 11079 22083 30500 40810 60549 088073 087074 082077 083079 079081 088077 80809 90453
BBXX 41047 03061 99275 70715 46/// /0411 10226 40211 57008 90550 22200 00254 10807 20807 70033 333 91213 555 11113 22119 30457 40414 60549 039113 040112 042111 041114 039115 038115 80412 90457
BBXX 41043 03061 99211 70650 46/// /0403 10254 20196 40157 58010 90550 22200 00270 10903 20401 300// 40903 70015 333 91204 555 11031 22032 30533 40304 60549 038030 037033 045030 049028 040028 039027 80304 90533
BBXX 41036 03061 99342 70770 46/// ///// 10148 20037 40308 50000 90550 22200 00171 11102 70009
BBXX 44066 03061 99396 70726 46/// /3510 10095 20034 40312 51015 90550 22200 00130 10604 20604 3//// 41102 70021 333 91213 555 11110 22116 30455 43314 60549 349105 344113 344109 346112 347110 340107
BBXX 41012 03061 99300 70805 46/// /0508 10209 40277 58008 90550 22200 00235 333 91210 555 11088 22092 30548 40410 60549 049083 050073 055073 046075 044077 047073
BBXX 41001 03061 99347 70727 46/// ///// 10170 20083 40287 57003 90550 22200 00230 11104 70018
BBXX 41049 03061 99275 70630 46/// /1705 10242 20203 40160 58011 90550 22200 00253 10904 20501 300// 40904 70021 333 91206 555 11055 22057 30451 41707 60549 173051 176052 171052 170053 173053 170056 81706 90452
BBXX 42020 03061 99270 70967 46/// /1312 10239 20180 40186 57016 90550 22200 00252 10605 20605 70023 333 91214 555 11125 22132 30529 41315 60549 129119 135113 132124 132124 133120 128120
BBXX 41044 03061 99217 70587 46/// /1209 10257 20225 40150 58011 90550 22200 00271 10804 20602 300// 40803 70019 333 91210 555 11095 22100 30545 41210 60549 122087 122053 123046 119047 109050 108064 81210 90546
BBXX 41048 03061 99320 70696 46/// /0511 10214 20153 40232 58005 90550 22200 00233 11004 20804 3//// 41002 70021 333 91214 555 11114 22120 30513 40415 60549 050116 046113 042118 041125 047109 046110 80414 90514
BBXX 42065 03061 99149 70750 46/// /0708 10274 20223 90550 22200 10603 20603 3//// 40901 70015 333 91210 555 11087 22092 30457 40610 60549 069079 067080 062082 059085 061086 063085 80709 90451
BBXX 42012 03061 99301 70876 46/// /0906 10190 20115 40280 57006 90550 22200 00197 10602 20501 314// 40601 70008 333 91208 555 11063 22067 30452 40908 60549 092060 091062 087065 095065 092065 095069
BBXX 42001 03061 99259 70897 46/// /0909 10236 20153 40237 58005 90550 22200 00239 10604 20604 70019 333 91211 555 11100 22107 30451 41012 60549 090095 091098 090099 091097 097095 095099
BBXX 42035 03061 99292 70944 46/// /1109 10187 20174 40225 58010 90550 22200 00178 10503 20503 70016 333 91211 555 11092 22100 30456 41011 60549 106086 106090 106092 104091 103087 104093
BBXX 42060 03061 99163 70635 46/// /0406 10275 20233 40129 58013 90550 22200 00284 10502 20502 300// 40901 70011 333 91207 555 11066 22069 30516 40508 60549 044062 045062 040069 042069 044063 048064 80507 90516
BBXX 42058 03061 99149 70749 46/// /0708 10278 20219 40120 58010 90550 22200 00281 10603 20603 70015 333 91210 555 11090 22095 30510 40711 60549 073084 073082 070085 069092 066093 064088 80710 90511
BBXX 42056 03061 99198 70849 46/// /0509 10257 20159 40186 90550 22200 00278 10704 20704 70021 333 91211 555 11091 22096 30455 40613 60549 055085 054092 057091 063096 059098 063104 80611 90451
BBXX 42036 03061 99285 70845 46/// /0709 10192 20139 40273 57006 90550 22200 00221 10502 20502 70011 333 91210 555 11092 22096 30505 40711 60549 073087 071086 070087 070085 071088 071090
BBXX 42057 03061 99170 70815 46/// /0410 10270 40149 58011 90550 22200 00282 10804 20804 70021 333 91212 555 11107 22113 30513 40412 60549 040102 043102 041097 040100 044100 044098 80411 90530
BBXX 42019 03061 99279 70954 46/// /1510 10232 20166 40203 58013 90550 22200 10604 20604 70020 333 91213 555 11106 22113 30459 42813 60549 158100 281101 281099 281104 281102 279107
BBXX 44005 03061 99432 70691 46/// /3411 10063 20008 40291 53019 90550 22200 00094 11103 20402 3//// 41102 70014 333 91212 555 11111 22117 30528 43412 60549 340103 341102 341098 340095 343099 344097
BBXX 42040 03061 99292 70882 46/// /1109 10196 40274 57005 90550 22200 00226 10503 20503 70015 333 91211 555 11090 22094 30501 41212 60549 112089 111091 111084 118094 112098 110096
BBXX 42002 03061 99258 70937 46/// /1310 10236 20141 40221 58010 90550 22200 00248 10602 20602 70012 333 91212 555 11100 22107 30540 41312 60549 129101 121102 116091 124089 120095 120088
BBXX 32012 03061 99197 50856 46/// ///// 1//// 90550 22200 11104 70021
BBXX 46002 03061 99426 71305 46/// ///// 10110 40365 58009 90550 22200 00126 10806 70032
BBXX 46006 03061 99408 71375 46/// /0908 10116 40389 51004 90550 22200 00129 11304 20703 3//// 41303 70020 333 91209 555 11084 22088 30522 41010 60549 090078 087073 089077 084074 085077 084073
BBXX 46084 03061 99566 71361 46/// /2512 10070 20040 40289 54000 90550 22200 00074 11107 20705 300// 41106 70037 333 91214 555 11124 22132 30451 42614 60549 255116 254108 252110 252109 254112 254112
BBXX 46078 03061 99561 71526 46/// /1807 10040 20028 40219 54000 90550 333 91208 555 11073 22077 30529 41910 60549 182069 188066 188074 188075 187072 189071 81908 90519
BBXX 46075 03061 99539 71608 46/// /1613 10054 20052 40082 58025 90550 22200 00053 11108 20705 300// 41106 70041 333 91216 555 11137 22147 30547 41616 60549 158129 157122 157123 159120 161122 162128 81614 90548
BBXX 46005 03061 99461 71310 46/// ///07 10094 40392 55000 90550 22200 00103 11405 20602 3//// 41405 70025 333 91208 555 11072 22076
BBXX 46059 03061 99380 71300 46/// /0213 10129 40310 52003 90550 22200 00152 11008 20606 3//// 41006 70042 333 91216 555 11139 22147 30520 40217 60549 018131 017129 019132 019134 019129 023131
BBXX 46080 03061 99580 71500 46/// /2207 10054 20054 40233 51016 90550 22200 00055 11006 20603 3//// 41005 70030 333 91209 555 11076 22080 30525 42210 60549 218070 217067 216077 218072 218065 219067 82208 90525
BBXX 45005 03061 99417 70824 46/// /1605 10038 30120 40336 57004 90550 22200 00068 1//00 70002 333 91206 555 11053 22055 30529 41606 60549 160052 160050 160052 160049 159050 162048
BBXX 45007 03061 99427 70870 46/// /1712 10047 20035 30053 40273 56024 90550 22200 00076 10604 20604 70019 333 91213 555 11122 22129 30457 41715 60549 170114 170116 174118 173118 170116 171118
BBXX 45003 03061 99454 70828 46/// /2110 10026 30085 40308 58008 90550 22200 00073 10502 20502 70012 333 91212 555 11104 22109 30531 42313 60549 215098 218095 220095 215096 217095 216094
BBXX 46053 03061 99342 71198 46/// /2506 10141 40136 54000 90550 22200 00146 333 91207 555 11058 22061 30510 42709 60549 254055 265063 272068 275067 280071 266062
BBXX 46014 03061 99394 71240 46/// /3412 10110 40194 51003 90550 22200 00106 11009 21007 3//// 41605 70044 333 91215 555 11131 22141 30455 43415 60549 342122 341121 342122 341125 342125 341123
BBXX 46011 03061 99350 71210 46/// /2801 10117 40155 52006 90550 22200 00126 11605 20401 331// 41605 70024 333 91202 555 11013 22014 30547 42902 60549 277013 277009 273004 180001 180001 180001
BBXX 46047 03061 99324 71195 46/// /2705 10149 40158 50000 90550 22200 00149 11004 20401 330// 41004 70019 333 91206 555 11050 22053 30533 42707 60549 271048 271052 270051 262050 257048 264047
BBXX 46027 03061 99419 71244 46/// /3514 10098 40254 52004 90550 22200 00100 11407 20805 329// 41405 70033 333 91216 555 11145 22155 30532 43518 60549 346137 347135 350133 348138 348135 345138
BBXX 46086 03061 99325 71180 46/// /2405 10157 40154 54000 90550 22200 00162 11003 20301 327// 41003 70013 333 91206 555 11051 22053 30518 42506 60549 244047 246053 249051 251055 252051 256046
BBXX 46088 03061 99483 71232 46/// /1203 10065 40331 90550 22200 00085 1//00 70002 333 91203 555 11026 22026 30545 41303 60549 122025 120019 125016 101014 142010 158004
BBXX 46050 03061 99442 71246 46/// /3609 10091 40317 50000 90550 22200 00106 11407 20804 329// 41406 70037 333 91210 555 11091 22096 30508 43611 60549 004086 007082 006088 004090 004093 009092
BBXX 46069 03061 99337 71202 46/// /2907 10134 40147 57003 90550 22200 00139 11104 20601 331// 41103 70018 333 91209 555 11078 22082 30514 42809 60549 287073 282066 281065 280070 280064 279059
BBXX 46013 03061 99382 71233 46/// /3310 10114 40169 53012 90550 22200 00109 11607 20704 3//// 41606 70037 333 91213 555 11112 22120 30458 43314 60549 325102 325102 324101 323107 321109 320116
BBXX 46012 03061 99374 71229 46/// /3310 10119 40160 51005 90550 22200 00118 11107 20905 333// 41105 70036 333 91213 555 11110 22118 30539 43313 60549 325104 325102 330099 326091 327090 327093
BBXX 46087 03061 99485 71247 46/// /0904 10072 20047 40334 52006 90550 22200 00088 11405 20301 328// 41405 70026 333 91206 555 11044 22045 30452 40907 60549 087042 089043 083042 086049 084047 083053
BBXX 46029 03061 99461 71245 46/// /0504 10082 20038 40325 54000 90550 22200 00089 10907 20401 330// 40907 70037 333 91205 555 11037 22038 30540 40705 60549 051036 053040 042035 037034 014035 012037
BBXX 46054 03061 99342 71204 46/// /2904 10132 40148 55000 90550 22200 00145 11105 20401 300// 41105 70023 333 91205 555 11041 22042 30522 43005 60549 294039 296038 298039 296039 293042 299036
BBXX 46028 03061 99357 71219 46/// /3204 10123 40148 54000 90550 22200 00126 11106 20301 331// 41106 70030 333 91206 555 11045 22047 30451 43107 60549 321044 317040 311044 310046 309048 310056
BBXX 46025 03061 99337 71191 46/// /2606 10150 40142 57005 90550 22200 00155 11402 20401 322// 41401 70008 333 91207 555 11068 22072 30456 42609 60549 264064 265065 258062 260068 258069 257075
BBXX 46105 03061 99590 71522 46/// ///// 1//// 90550 22200 10902 70008
BBXX 46070 03061 99551 11753 46/// /3513 10005 21037 40030 54000 90550 22200 00049 11108 20806 3//// 41105 70039 333 91215 555 11136 22144 30520 43518 60549 348130 000125 349131 351147 000133 008143 83516 90517
BBXX 46078 03061 99561 71526 46/// /1807 10040 20028 40219 54000 90550 333 91208 555 11073 22077 30529 41910 60549 182069 188066 188074 188075 187072 189071 81908 90519
BBXX 44025 03061 99402 70732 46/// /3409 10078 20013 40322 51018 90550 22200 00118 10503 20502 312// 41101 70013 333 91212 555 11098 22103 30540 43313 60549 342094 338093 337096 340093 340091 344088
BBXX 41008 03061 99314 70809 46/// /0407 10160 20100 40304 58004 90550 22200 00177 11102 20501 300// 41102 70010 333 91208 555 11070 22073 30516 40309 60549 039066 040068 035069 028071 029070 029068
BBXX 44014 03061 99366 70748 46/// /0110 10141 20032 40310 54000 90550 22200 00161 11103 20302 312// 41103 70015 333 91212 555 11097 22097 30546 43612 60549 012096 012093 008095 006091 006092 005087
BBXX 41004 03061 99325 70791 46/// /0106 10168 20028 40309 58003 90550 22200 00210 11102 20301 3//// 41102 70011 333 91207 555 11058 22060 30456 40107 60549 014055 021054 017053 012053 008055 000057
BBXX 44009 03061 99385 70747 46/// /3611 10093 40340 52014 90550 22200 00131 10603 20603 300// 41102 70017 333 91213 555 11112 22118 30452 43613 60549 004106 007105 003104 006104 002104 004105
BBXX 44027 03061 99443 70673 46/// /0104 10038 20012 40296 52015 90550 22200 00092 11102 3//// 41102 70009 333 91205 555 11039 22040 30458 43505 60549 014038 017040 014038 016037 022034 351038
BBXX 44065 03061 99404 70737 46/// /3609 10074 20007 40329 51015 90550 22200 00117 11102 20402 312// 41101 70011 333 91211 555 11093 22097 30453 43512 60549 358089 347094 346091 346094 339096 348098 83411 90506
BBXX 41013 03061 99334 70777 46/// /0106 10150 20045 40307 50000 90550 22200 00202 11102 20401 311// 41102 70011 333 91207 555 11058 22060 30541 43607 60549 006056 006052 007050 014049 009047 006045
BBXX 44040 03061 99410 70736 46/// /3504 10064 21006 40345 90545 22200 1//00 70001 333 91205 555 11046 22051
BBXX 44020 03061 99414 70702 46/// /3210 10074 20010 40297 51019 90550 22200 00098 10301 20301 70007 333 91213 555 11108 22114 30542 43213 60549 311103 255100 256100 256097 256099 262097
BBXX 44018 03061 99422 70698 46/// /3411 10069 20028 40296 53012 90550 22200 00097 10604 20603 313// 41102 70019 333 91212 555 11112 22117 30511 43214 60549 340106 344105 338109 332111 330112 326108
AAXX 03064 78862 12480 50606 10259 20227 30105 40128 60001 84802 333 10290 20252 59006 83819 84078
AAXX 03064 8005 82817 85636
AAXX 03064 ROB30 TEMPO 0204/0218 SHRA
AAXX 03064 TAF TQPF 011600Z 0118/0218 02006KT 9999 SCT023 PROB30 TEMPO 0204/0218 SHRA
AAXX 03064 TAF TUPJ 011600Z 0118/0218 02006KT 9999 SCT023 PROB30 TEMPO 0204/0218 SHRA
AAXX 03064 T020 PROB30 TEMPO 0100/0124 SHRA BKN015 BECMG 0110/0112 01006KT
AAXX 03064 TAF TUPJ 302200Z 0100/0124 VRBO2/00000KT 9999 SCT020 PROB30 TEMPO 0100/0124 SHRA BKN015 BECMG 0110/0112 01006KT
AAXX 03064 016 BKN032 BKN070 BKN260 TEMPO 2818/2918 15016G28KT 4000 +SHRA FEW013CB BKN014 PROB40 TEMPO 2823/2918 2000 +TSRA SCT010CB BKN250
AAXX 03064 TAF TUPJ 281600Z 2818/2918 11010KT 9999 SCT020 BKN270 TEMPO 2818/2918 SHRA BKN015 BKN036 PROB30 TEMPO 2818/2918 4000 TSRA FEW012CB
AAXX 03064 N015 BKN036 PROB40 TEMPO 0704/0724 3000 +TSRA SCT011CB BKN012 BECMG 0712/0714 14008KT
AAXX 03064 21/2712 07017G28KT 5000 SHRA BKN015 BKN036 PROB TEMPO 2700/2712 4000 TSRA FEW013CB
AAXX 03064 PROB30 TEMPO 0800/0806 4000 TSRA FEW012CB PROB40 TEMPO 0800/0824 2000 +SHRA/TSRA SCT010CB BKN012 BKN250
AAXX 03064 68396 12470 79903 10188 20166 39476 48525 53020 60014 875// 333 20185 555 10275 20010 91017
AAXX 03064 78862 12480 50606 10259 20227 30105 40128 60001 84802 333 10290 20252 59006 83819 84078
AAXX 03064 8005 82817 85636
AAXX 03064 ROB30 TEMPO 0204/0218 SHRA
AAXX 03064 TAF TQPF 011600Z 0118/0218 02006KT 9999 SCT023 PROB30 TEMPO 0204/0218 SHRA
AAXX 03064 TAF TUPJ 011600Z 0118/0218 02006KT 9999 SCT023 PROB30 TEMPO 0204/0218 SHRA
AAXX 03064 T020 PROB30 TEMPO 0100/0124 SHRA BKN015 BECMG 0110/0112 01006KT
AAXX 03064 TAF TUPJ 302200Z 0100/0124 VRBO2/00000KT 9999 SCT020 PROB30 TEMPO 0100/0124 SHRA BKN015 BECMG 0110/0112 01006KT
AAXX 03064 016 BKN032 BKN070 BKN260 TEMPO 2818/2918 15016G28KT 4000 +SHRA FEW013CB BKN014 PROB40 TEMPO 2823/2918 2000 +TSRA SCT010CB BKN250
AAXX 03064 TAF TUPJ 281600Z 2818/2918 11010KT 9999 SCT020 BKN270 TEMPO 2818/2918 SHRA BKN015 BKN036 PROB30 TEMPO 2818/2918 4000 TSRA FEW012CB
AAXX 03064 N015 BKN036 PROB40 TEMPO 0704/0724 3000 +TSRA SCT011CB BKN012 BECMG 0712/0714 14008KT
AAXX 03064 21/2712 07017G28KT 5000 SHRA BKN015 BKN036 PROB TEMPO 2700/2712 4000 TSRA FEW013CB
AAXX 03064 PROB30 TEMPO 0800/0806 4000 TSRA FEW012CB PROB40 TEMPO 0800/0824 2000 +SHRA/TSRA SCT010CB BKN012 BKN250
AAXX 03064 78862 12480 50606 10259 20227 30105 40128 60001 84802 333 10290 20252 59006 83819 84078
AAXX 03064 8005 82817 85636
AAXX 03064 ROB30 TEMPO 0204/0218 SHRA
AAXX 03064 TAF TQPF 011600Z 0118/0218 02006KT 9999 SCT023 PROB30 TEMPO 0204/0218 SHRA
AAXX 03064 TAF TUPJ 011600Z 0118/0218 02006KT 9999 SCT023 PROB30 TEMPO 0204/0218 SHRA
AAXX 03064 T020 PROB30 TEMPO 0100/0124 SHRA BKN015 BECMG 0110/0112 01006KT
AAXX 03064 TAF TUPJ 302200Z 0100/0124 VRBO2/00000KT 9999 SCT020 PROB30 TEMPO 0100/0124 SHRA BKN015 BECMG 0110/0112 01006KT
AAXX 03064 016 BKN032 BKN070 BKN260 TEMPO 2818/2918 15016G28KT 4000 +SHRA FEW013CB BKN014 PROB40 TEMPO 2823/2918 2000 +TSRA SCT010CB BKN250
AAXX 03064 TAF TUPJ 281600Z 2818/2918 11010KT 9999 SCT020 BKN270 TEMPO 2818/2918 SHRA BKN015 BKN036 PROB30 TEMPO 2818/2918 4000 TSRA FEW012CB
AAXX 03064 N015 BKN036 PROB40 TEMPO 0704/0724 3000 +TSRA SCT011CB BKN012 BECMG 0712/0714 14008KT
AAXX 03064 21/2712 07017G28KT 5000 SHRA BKN015 BKN036 PROB TEMPO 2700/2712 4000 TSRA FEW013CB
AAXX 03064 PROB30 TEMPO 0800/0806 4000 TSRA FEW012CB PROB40 TEMPO 0800/0824 2000 +SHRA/TSRA SCT010CB BKN012 BKN250
AAXX 03064 81405 04970 /0000 10224 20221 30087 40096 60001 700// 333 3/021 55091 60007 59004 70000 555 60005
AAXX 03064 81405 04970 /0000 10224 20221 30087 40096 60001 700// 333 3/021 55091 60007 59004 70000 555 60005
BBXX 46002 03061 99426 71305 46/// ///// 10110 40365 58009 90550 22200 00126 10806 70032
BBXX 46005 03061 99461 71310 46/// ///07 10094 40392 55000 90550 22200 00103 11405 20602 3//// 41405 70025 333 91208 555 11072 22076
BBXX 46006 03061 99408 71375 46/// /0908 10116 40389 51004 90550 22200 00129 11304 20703 3//// 41303 70020 333 91209 555 11084 22088 30522 41010 60549 090078 087073 089077 084074 085077 084073
BBXX 46012 03061 99374 71229 46/// /3310 10119 40160 51005 90550 22200 00118 11107 20905 333// 41105 70036 333 91213 555 11110 22118 30539 43313 60549 325104 325102 330099 326091 327090 327093
BBXX 46013 03061 99382 71233 46/// /3310 10114 40169 53012 90550 22200 00109 11607 20704 3//// 41606 70037 333 91213 555 11112 22120 30458 43314 60549 325102 325102 324101 323107 321109 320116
BBXX 46014 03061 99394 71240 46/// /3412 10110 40194 51003 90550 22200 00106 11009 21007 3//// 41605 70044 333 91215 555 11131 22141 30455 43415 60549 342122 341121 342122 341125 342125 341123
BBXX 46028 03061 99357 71219 46/// /3204 10123 40148 54000 90550 22200 00126 11106 20301 331// 41106 70030 333 91206 555 11045 22047 30451 43107 60549 321044 317040 311044 310046 309048 310056
BBXX 46050 03061 99442 71246 46/// /3609 10091 40317 50000 90550 22200 00106 11407 20804 329// 41406 70037 333 91210 555 11091 22096 30508 43611 60549 004086 007082 006088 004090 004093 009092
BBXX 46054 03061 99342 71204 46/// /2904 10132 40148 55000 90550 22200 00145 11105 20401 300// 41105 70023 333 91205 555 11041 22042 30522 43005 60549 294039 296038 298039 296039 293042 299036
BBXX OUIY2 03064 99395 71275 41598 40137 10130 20110 40370 52030 70300 84495 22274 00110 20610 33233 40610 50508 6//// 80120 ICE /////
AAXX 03064 78954 11474 60908 10259 20234 30043 40107 60031 71582 85848 333 10275 20242 58000 82816 83638 85280 90940
AAXX 03064 78954 11474 60908 10259 20234 30043 40107 60031 71582 85848 333 10275 20242 58000 82816 83638 85280 90940
AAXX 03064 78954 11474 60908 10259 20234 30043 40107 60031 71582 85848 333 10275 20242 58000 82816 83638 85280 90940
AAXX 03064 86033 NIL
AAXX 03064 86086 32970 01802 10196 20150 39991 40082 56003
AAXX 03064 86097 32970 01705 10180 20145 39465 40117 54000
AAXX 03064 86134 32970 01604 10182 20145 30001 40090 56007
AAXX 03064 86170 NIL
AAXX 03064 86192 32970 00000 10184 20119 39907 40130 52007
AAXX 03064 86210 32970 00000 10162 20116 39739 40087 58011
AAXX 03064 86218 32970 00000 10168 20134 30007 40105 53002
AAXX 03064 86221 32970 00000 10170 20133 39988 40125 52008
AAXX 03064 86233 32970 01802 10174 20115 39923 40115 56003
AAXX 03064 86246 32970 01803 10174 20147 39815 40106 58001
AAXX 03064 86255 32970 01402 10170 20158 30058 40126 54000
AAXX 03064 86260 32970 01206 10178 20128 39949 40104 52006
AAXX 03064 86268 32970 00902 10148 20142 39948 40117 56013
AAXX 03064 86297 NIL
AAXX 03064 85406 12982 00306 10179 20128 40146 57018 60001
AAXX 03064 85418 12962 00000 10177 20127 40153 50015 60001
AAXX 03064 85442 12475 41906 10161 20141 40149 58008 60001 84500 333 56400 84615
AAXX 03064 85467 33957 /1004 10141 20096 40165 57019
AAXX 03064 85469 42565 60000 10166 20137 40257 52006 86800 333 56200 85820 83630
AAXX 03064 85488 12560 70000 10140 20110 40161 58015 60001 875// 333 56600 87620
AAXX 03064 85574 12960 01608 10113 20074 39610 40172 56008 60001
AAXX 03064 85585 139// 91309 10169 20119 30120 40156 58011 69921
AAXX 03064 85682 12460 50406 10128 20114 40162 57017 60001 85200 333 56500 85818
AAXX 03064 85743 12960 09903 10129 20099 40145 58019 60001
AAXX 03064 85799 11760 80212 10136 20119 40120 57026 69901 70282 8523/ 333 56779 85850 86357
BBXX A8OZ4 03064 99264 10349 43997 03229 10230 20130 40180 51040 7//// 80/// 22274 00229 20304 3//// 4//// 5//// 80170
BBXX BAREU04 03064 99374 70761 46/// ///// 40336 52006 22244
AAXX 03061 13579 31430 33501 11039 21051 39426 40306 53005 71040 83600 333 21039 33/// 83710
BBXX BAREU12 03064 99524 10035 46/// ///// 49975 57064 22284
BBXX BAREU60 03064 99436 10135 46/// ///// 40199 57006 22252
AAXX 03064 40250 32960 00000 10024 21077 39343 40249 52007 333 21001 300//
AAXX 03064 40296 32960 00000 10130 20022 40222 52020 333 20080 30004
BBXX DBKV 03061 99281 70154 46/// /0305 10195 20123 40251 57007 22220 00210
BBXX DBBT 03061 99374 30557 46/// /1709 10157 20096 40265 52017/ 22252 00201
AAXX 03064 91503 11470 63206 10283 20245 40055 55003 69981 71522 83978 333 56999 82818 81919 84360
AAXX 03064 91517 01470 81808 10255 20234 40059 57005 60011 72582 8497/ 333 56699 60017 82818 81919 88460
AAXX 03064 91503 11470 63206 10283 20245 40055 55003 69981 71522 83978 333 56999 82818 81919 84360
AAXX 03064 91517 01470 81808 10255 20234 40059 57005 60011 72582 8497/ 333 56699 60017 82818 81919 88460
AAXX 03064 41170 41959 03111 10183 20116 30184 40197 70500 333 20149 59020 555 00130
AAXX 03061 12772 31305 81401 11017 21024 39919 40215 53001 75642 886// 333 21034 4/000 55000 88706
AAXX 03061 12822 36/// /0000 11003 21004 30056 40204 53002 333 21010
AAXX 03061 12843 31/02 91101 11014 21017 30031 40208 57001 74742 333 21021 4/000 55000 89/01
AAXX 03061 12882 31212 81901 11002 21008 30077 40214 54000 71022 886// 333 21010 4/000 55000 88706
AAXX 03061 12925 36/// /0901 10010 20009 30020 40197 55000 333 20008
AAXX 03061 12942 31912 00902 11023 21024 39953 40209 54000 71000 333 21023 4/000 55000
AAXX 03061 12982 31/01 91002 10012 20006 30105 40209 56002 74544 333 21003 4/000 55000 89/01
AAXX 03064 97180 11450 71507 10256 20251 30051 40069 58006 60051 79562 83972 333 56000 81917
AAXX 03064 85874 32982 /3112 10085 20019 39482 40104 58009
AAXX 03064 85934 12580 71404 10102 20064 40054 57009 60001 83131 333 56333 83823 86070
AAXX 03064 89056 12560 52521 10001 21023 49983 52022 60001 83501 333 56606 83620 83070
AAXX 03064 89057 12470 32117 10001 21030 49991 52039 60001 83100 333 56600 83815
AAXX 03064 89058 32570 22710 11003 21025 49990 52039 82500
AAXX 03064 89059 12760 22113 11002 21031 49959 52035 60001 82100 333 75000 82856
AAXX 03064 89251 32365 82521 10002 21022 49977 52005 8651/
AAXX 03064 85574 12960 01608 10113 20074 39610 40172 56008 60001
AAXX 03064 85585 139// 91309 10169 20119 30120 40156 58011 69921
AAXX 03064 85682 12460 50406 10128 20114 40162 57017 60001 85200 333 56500 85818
AAXX 03064 85743 12960 09903 10129 20099 40145 58019 60001
AAXX 03064 85799 11760 80212 10136 20119 40120 57026 69901 70282 8523/ 333 56779 85850 86357
AAXX 03064 85406 12982 00306 10179 20128 40146 57018 60001
AAXX 03064 85418 12962 00000 10177 20127 40153 50015 60001
AAXX 03064 85442 12475 41906 10161 20141 40149 58008 60001 84500 333 56400 84615
AAXX 03064 85467 33957 /1004 10141 20096 40165 57019
AAXX 03064 85469 42565 60000 10166 20137 40257 52006 86800 333 56200 85820 83630
AAXX 03064 85488 12560 70000 10140 20110 40161 58015 60001 875// 333 56600 87620
BBXX VRDA4 03064 99241 50464 41291 31409 10220 2019/ 40150 54000 7//// 81/// 22200 0//// 20303 31313 40202 50000 6//// 80200 ICE /////
AAXX 03061 33815 31996 52203 11007 21010 39981 40195 57001 71011 80041 333 21011 555 80016
AAXX 03064 78925 14785 80404 10248 20238 40118 58014 69941 700// 333 10298 20240 55007 20988 59002 70134
AAXX 03061 01001 NIL
AAXX 03061 01008 11482 71105 11091 21122 39662 49695 52010 69902 70272 8557/ 333 21111 70001 91106
AAXX 03061 01010 11585 61605 10016 21051 39768 49784 58022 69912 70122 85870 333 20006 70092 91111
AAXX 03061 01026 NIL
AAXX 03061 01055 46/// /2711 10028 21024 39742 49759 50009 333 20009 91114
AAXX 03061 01062 NIL
AAXX 03061 01098 11475 83309 10028 21012 39721 49739 53024 60012 70286 887// 333 20014 70012 91119
AAXX 03061 01115 11480 71513 10044 21024 39730 49750 58042 69942 78082 8282/ 333 20020 70016 91124
AAXX 03061 01152 11989 21307 10032 21057 39761 49777 58035 69902 70300 80002 333 20019 70022 91111
AAXX 03061 01205 NIL
AAXX 03061 01212 NIL
AAXX 03061 01271 16/// /1205 10022 21066 39744 49764 58057 60002 333 21012 70025 91112
AAXX 03061 01288 16/// /1611 11023 21057 39071 49808 56052 6//// 333 21110 91122
AAXX 03061 01300 NIL
AAXX 03061 01317 11470 81405 10058 20032 39704 49718 56047 60182 7809/ 889// 333 20028 70188 91120
AAXX 03061 01367 NIL
AAXX 03061 01384 11158 81604 10005 20001 39613 49859 58061 69962 76872 887// 333 21053 91107
AAXX 03061 01403 11570 82420 10083 20040 39674 49740 56034 60082 70282 879// 333 20049 70079 91130
AAXX 03061 01415 16/// /2206 10073 20048 39760 49770 56047 6//// 333 20020 91122
AAXX 03061 01482 46/// /1918 1//// 2//// 39849 49856 58062 333 91122
AAXX 03061 01492 NIL
AAXX 03061 01003 NIL
AAXX 03061 01007 16/// /1404 11093 21139 39695 49705 52006 60002 333 21116 70000 91108
AAXX 03061 01028 NIL
AAXX 03061 01047 11588 30000 11078 21112 39437 49807 51015 69912 70272 83500 333 21078 47008 70016
AAXX 03061 01049 NIL
AAXX 03061 01078 11375 83304 10026 21021 39741 49754 53017 60002 70362 87720 333 20012 70000 91118
AAXX 03061 01102 46/// /1622 10041 21039 39725 49744 58044 333 20024 91126
AAXX 03061 01160 NIL
AAXX 03061 01218 NIL
AAXX 03061 01238 46/// /1519 11053 21064 38636 49739 58061 333 21071 91125
AAXX 03061 01241 41986 51415 10030 21049 39699 49710 58070 70321 84072 333 20015 91120
AAXX 03061 01281 NIL
AAXX 03061 01338 16/// /1004 10032 20014 39671 49735 56060 60042 333 20019 70039 91112
AAXX 03061 01359 NIL
AAXX 03061 01397 NIL
AAXX 03061 01400 NIL
AAXX 03061 01427 11435 82118 10089 20074 39786 49802 56068 60022 76162 8772/ 333 20057 70027 91125
AAXX 03061 01447 NIL
AAXX 03061 01448 46/// /2218 10086 20069 39818 49828 58079 333 20009 91125
AAXX 03064 78925 14785 80404 10248 20238 40118 58014 69941 700// 333 10298 20240 55007 20988 59002 70134
AAXX 03064 85874 32982 /3112 10085 20019 39482 40104 58009
AAXX 03064 85934 12580 71404 10102 20064 40054 57009 60001 83131 333 56333 83823 86070
AAXX 03064 89056 12560 52521 10001 21023 49983 52022 60001 83501 333 56606 83620 83070
AAXX 03064 89057 12470 32117 10001 21030 49991 52039 60001 83100 333 56600 83815
AAXX 03064 89058 32570 22710 11003 21025 49990 52039 82500
AAXX 03064 89059 12760 22113 11002 21031 49959 52035 60001 82100 333 75000 82856
AAXX 03064 89251 32365 82521 10002 21022 49977 52005 8651/
AAXX 03064 78583 32970 03304 10195 20178 40187 60001 80000 333 00000 59005 80000
AAXX 03064 85874 32982 /3112 10085 20019 39482 40104 58009
AAXX 03064 85934 12580 71404 10102 20064 40054 57009 60001 83131 333 56333 83823 86070
AAXX 03064 89056 12560 52521 10001 21023 49983 52022 60001 83501 333 56606 83620 83070
AAXX 03064 89057 12470 32117 10001 21030 49991 52039 60001 83100 333 56600 83815
AAXX 03064 89058 32570 22710 11003 21025 49990 52039 82500
AAXX 03064 89059 12760 22113 11002 21031 49959 52035 60001 82100 333 75000 82856
AAXX 03064 89251 32365 82521 10002 21022 49977 52005 8651/
AAXX 03061 10004 NIL
AAXX 03061 10015 01456 82018 10073 20050 39959 49969 58059 60022 76111 8552/ 222// 02086 333 10089 20057 31004 55006 55300 20000 30000 69907 70037 85615 88458 91123 90218 91218 91219 96010
AAXX 03061 10020 07460 82017 10067 20050 39911 49943 56062 60012 76165 333 10076 20053 3/003 55023 55300 20000 30000 69907 70027 87/15 88/19 91123 90203 91218 91218
AAXX 03061 10035 01458 71908 10038 20025 39935 49994 58050 69982 72122 875// 333 10049 20027 31002 55011 55300 20000 30000 41123 69907 70022 83712 87646 91114
AAXX 03061 10055 12465 71909 10040 20024 30007 40017 58042 60002 8157/ 333 10059 20035 31003 55000 55300 20000 30000 70014 81613 87461 91114
AAXX 03061 10147 12470 42008 10056 20030 30014 40032 58044 60002 82530 333 10058 20037 31002 55000 55300 20000 30000 41121 70006 82619 84360 91114
AAXX 03061 10162 11957 72005 10032 20018 39969 40052 58038 60002 71011 8703/ 333 10050 20025 31001 55000 55300 20000 30000 70009 87360
AAXX 03061 10184 11957 01905 10035 20018 30059 40067 58030 69902 71011 333 10060 20035 31002 55000 55300 20000 30000 70009
AAXX 03061 10200 01480 81909 10062 20042 39995 49993 58053 69912 72162 877// 333 10062 20038 31003 55018 55300 20000 30000 69917 70016 87712 91116
AAXX 03061 10224 12681 72008 10056 20032 30030 40036 58045 60002 875// 333 10056 20030 31001 55014 55300 20000 30000 70001 82644 87657
AAXX 03061 10270 16659 81805 10027 20017 30043 40099 58028 60002 222// 06058 333 10056 20017 3/101 55000 55300 70009 83/44 83/59 88/63
AAXX 03061 10338 12570 72008 10050 20016 39996 40069 58035 60002 8153/ 333 10054 20042 31003 55000 55300 20000 30000 70012 81625 83358 87360
AAXX 03061 10361 12966 81905 10033 20002 39998 40103 58026 60002 8807/ 333 10053 20016 31102 55001 55300 20000 30000 70006 88461
AAXX 03061 10393 11958 02004 10013 20008 39996 40125 58015 69902 70261 333 10053 20012 31100 55005 55300 20000 30000 70013
AAXX 03061 10400 12782 81909 10075 20030 30026 40075 58037 60002 8357/ 333 10076 20042 31002 55012 55300 20000 30000 70023 83656 87458 91113
AAXX 03061 10438 17457 81705 10022 20009 39830 40115 57028 60002 71000 333 10031 20005 3/102 55000 55300 70024 87/18 88/61
AAXX 03061 10469 12975 11906 10017 20000 39962 40130 56019 60002 81050 333 10051 20012 31100 55003 55300 70008 81363
AAXX 03061 10488 12975 21705 10014 20001 39861 40149 56014 69922 82071 333 10049 20013 31101 55001 55300 20000 30000 40869 70018 82363
AAXX 03061 10506 12770 72308 10032 20013 39528 40115 58027 60002 8557/ 333 10032 20006 31101 55000 55300 20000 30000 70010 85656 87360 91113
AAXX 03061 10548 11215 81905 10008 20008 39596 40149 56017 60002 71041 886// 333 10039 21028 31104 55002 55300 20000 30000 70007 88704
AAXX 03061 10637 11460 42003 10016 20009 30013 40154 56017 60002 70141 83631 333 10065 21013 34106 55003 55300 70003 83713 96446
AAXX 03061 10685 12360 72204 10024 20012 39468 40151 56013 69932 875// 333 10038 20012 31102 55044 55300 20000 30000 70019 87608
AAXX 03061 10738 11481 12801 10026 20018 39702 40181 56008 60022 74011 81531 333 10079 20017 31104 55005 55300 70027 81618
AAXX 03061 10763 12561 62102 10038 20025 39779 40167 56012 69962 83530 333 10069 20035 31001 55012 55300 20000 30000 70008 83620 85365
AAXX 03061 10788 07524 80903 10021 20021 39743 40184 57004 60032 72365 333 10026 20018 3/001 55000 55300 20000 30000 69957 70029 88/29
AAXX 03061 10852 01480 82203 10057 20051 39606 40178 56007 60042 70262 885// 333 10098 20050 31004 55014 55300 20000 30000 69907 70035 88614
AAXX 03061 10946 07461 72404 10046 20031 39349 40186 58003 60022 76265 333 10092 20045 3/004 55067 55300 20000 30000 69957 70018 87/16 87/33 87/57
AAXX 03064 78862 12480 50606 10259 20227 30105 40128 60001 84802 333 10290 20252 59006 83819 84078
AAXX 03064 8005 82817 85636
AAXX 03064 ROB30 TEMPO 0204/0218 SHRA
AAXX 03064 TAF TQPF 011600Z 0118/0218 02006KT 9999 SCT023 PROB30 TEMPO 0204/0218 SHRA
AAXX 03064 TAF TUPJ 011600Z 0118/0218 02006KT 9999 SCT023 PROB30 TEMPO 0204/0218 SHRA
AAXX 03064 T020 PROB30 TEMPO 0100/0124 SHRA BKN015 BECMG 0110/0112 01006KT
AAXX 03064 TAF TUPJ 302200Z 0100/0124 VRBO2/00000KT 9999 SCT020 PROB30 TEMPO 0100/0124 SHRA BKN015 BECMG 0110/0112 01006KT
AAXX 03064 016 BKN032 BKN070 BKN260 TEMPO 2818/2918 15016G28KT 4000 +SHRA FEW013CB BKN014 PROB40 TEMPO 2823/2918 2000 +TSRA SCT010CB BKN250
AAXX 03064 TAF TUPJ 281600Z 2818/2918 11010KT 9999 SCT020 BKN270 TEMPO 2818/2918 SHRA BKN015 BKN036 PROB30 TEMPO 2818/2918 4000 TSRA FEW012CB
AAXX 03064 N015 BKN036 PROB40 TEMPO 0704/0724 3000 +TSRA SCT011CB BKN012 BECMG 0712/0714 14008KT
AAXX 03064 21/2712 07017G28KT 5000 SHRA BKN015 BKN036 PROB TEMPO 2700/2712 4000 TSRA FEW013CB
AAXX 03064 PROB30 TEMPO 0800/0806 4000 TSRA FEW012CB PROB40 TEMPO 0800/0824 2000 +SHRA/TSRA SCT010CB BKN012 BKN250
AAXX 03064 96315 31465 72114 10301 20235 40052 71522 83978 333 83816 81917 86364
AAXX 03064 96323 NIL
AAXX 03064 96315 31465 72114 10301 20235 40052 71522 83978 333 83816 81917 86364
AAXX 03064 96323 NIL
AAXX 03064 48698 01468 70806 10295 20246 30063 40081 60001 70522 84232 333 60007 81818 83820 85080
AAXX 03064 48698 01468 70806 10295 20246 30063 40081 60001 70522 84232 333 60007 81818 83820 85080
AAXX 03064 78897 12565 71203 10240 20231 40122 58015 60001 83832 333 023// 10295 20231 59005 70080 83820 85366 85076
AAXX 03064 78897 12565 71203 10240 20231 40122 58015 60001 83832 333 023// 10295 20231 59005 70080 83820 85366 85076
AAXX 03064 68352 16/// /0910 10192 21011 39089 48535 52012 69924 333 20188 91014 555 10320 20002 91019
BBXX BATFR03 03064 99508 70011 46/// /2631 10124 20104 40022 56054 22272
BBXX BATFR54 03064 99456 70016 46/// /2320 10135 20095 40214 56018 22223 00155
BBXX FVNM 03064 99142 71167 46/// /0509 10267 20220 40145 51006 22200 00267
BBXX BATFR15 03064 99461 70170 46/// /2725 10132 20097 40261 56021 22214 00139
BBXX BATFR01 03064 99359 70058 46/// /3312 10119 20062 40219 56001 22200 00184
BBXX BATFR24 03064 99427 10095 46/// ///// 10144 20084 40190 53009 22251 00174
BBXX BATEU05 03064 99586 70141 46/// /2922 10044 20014 49904 55008 22223
BBXX BATFR27 03064 99494 70022 46/// /2632 10134 20100 40088 50003 22214 00134
BBXX PHCQ 03063 99467 70116 41/98 /2616 10125 20107 40203 54000 70200 8//// 22253 04138 20407 327// 40506 5//// 80115
AAXX 03061 10007 NIL
AAXX 03061 10044 NIL
AAXX 03061 10046 12462 81906 10047 20023 39970 40009 57048 69912 875// 333 10052 20037 31002 55001 70015 85613 87656
AAXX 03061 10091 12359 22112 10036 20026 39994 40045 58028 60002 81604 222// 06077 333 10058 20032 31002 55000 55300 20000 30000 70031 81708 91116 91213
AAXX 03061 10113 01467 81912 10060 20044 39959 49978 58056 69902 72162 875// 222// 06065 333 10066 20047 31003 55022 55300 20000 30000 69907 70007 87617 91118 91212
AAXX 03061 10124 NIL
AAXX 03061 10131 12670 81909 10059 20031 39985 40000 58054 69902 875// 222// 02067 333 10059 20039 31003 55013 55300 20000 30000 70017 87638 91116
AAXX 03061 10170 12558 61805 10037 20021 30029 40045 58038 60002 86500 333 10056 20034 31002 55000 55300 20000 30000 70019 86620 91113
AAXX 03061 10264 12960 81805 10026 20008 39962 40070 58031 60002 8807/ 333 10057 20022 31001 55000 55300 20000 30000 70008 88361
AAXX 03061 10291 12968 01906 10023 20008 30036 40105 58021 60002 333 10057 20019 31000 55000 55300 20000 30000 70006
AAXX 03061 10315 12781 61906 10062 20030 39992 40056 58042 60002 83501 333 10062 20036 31002 55015 55300 20000 30000 70025 83656 86073
AAXX 03061 10379 12965 11906 10011 20003 39987 40111 58020 60002 81030 333 10056 20010 34101 55000 55300 20000 30000 40860 70008 81361
AAXX 03061 10382 12968 11905 10023 20006 30064 40110 58021 60002 81030 333 10060 20021 31000 55000 55300 70012 81360
AAXX 03061 10384 16/// /1804 10020 20007 30051 40112 58020 60002 333 10065 20019 3/100 55000 55300 20000 30000 70011
AAXX 03061 10427 11159 72212 11002 21002 39084 48387 58027 69902 70274 876// 333 10004 21012 31102 55000 55300 20000 30000 70030 85703 86707 91118 91212 96477 96441
AAXX 03061 10430 12982 52005 10047 20014 39893 40086 57033 60002 85031 333 10056 20031 31101 55000 55300 20000 30000 70048 85361
AAXX 03061 10439 12565 42004 10022 20005 39897 40121 57025 60002 83530 333 10030 20008 31102 70007 83620 83361
AAXX 03061 10453 11/90 92224 11031 21032 38732 48365 58036 69932 74944 333 11020 21036 3/103 46001 55000 55300 70080 91129 90236 91218 91224 96449
AAXX 03061 10496 12965 42002 10020 20008 30051 40138 56012 69902 82031 333 10059 20020 31101 55004 55300 20000 30000 70011 82365 83073
AAXX 03061 10499 12956 82105 10024 20010 39853 40149 56012 69922 80007 333 10057 20018 31000 55014 55300 20000 30000 70008 88271
AAXX 03061 10505 12684 72213 10059 20018 39802 40083 56036 60002 8657/ 333 10061 20034 31002 55012 55300 20000 30000 70040 86646 91120 91214
AAXX 03061 10513 12975 71705 10054 20022 39982 40104 58032 60002 8707/ 333 10057 20018 31100 55002 55300 20000 30000 70025 82359 86362
AAXX 03061 10532 17457 81602 10005 20005 39877 40131 58024 60002 71030 333 10042 21022 3/105 55000 55300 20000 30000 70002 88/18 88/34
AAXX 03061 10544 11/01 92112 11010 21010 39041 48415 56018 60002 74944 333 10005 21012 31101 55000 55300 70020 91117 91212 96041
AAXX 03061 10554 12981 42207 10024 21001 39734 40128 57022 60002 82058 333 10039 20002 34103 55009 55300 20000 30000 70014 82363 84280
AAXX 03061 10567 12975 21906 10009 20001 39760 40144 57016 60002 80001 333 10051 21003 34102 55036 55300 20000 30000 70005 82076
AAXX 03061 10578 11/01 9//// 11022 21024 38733 48429 56011 6///2 74944 333 11002 21028 3/104 43/// 55047 55300 20000 30000 7////
BBXX BATFR09 03064 99384 70098 46/// /0134 10147 20074 40278 53011 22283 00174
BBXX BATFR14 03064 99499 70016 46/// /2733 10137 20114 40055 56047 22264 00139
BBXX BATFR20 03064 99427 10088 46/// /2116 10175 20102 40183 51009 22224
BBXX BATEU08 03064 99681 70541 46/// /0106 11037 21088 49983 53004 22283
BBXX BATFR11 03064 99360 70003 46/// /2714 10127 20097 40196 22221 00184
BBXX BAREU00 03064 99466 70462 46/// ///// 40230 52018 22263
BBXX BATFR59 03064 99195 31595 46/// /1703 10279 20232 40074 55006 22231 00279
BBXX BATEU04 03064 99634 70110 46/// /3122 10027 21016 4//// 22262
BBXX BATFR52 03064 99489 70038 46/// /2525 10137 20112 40116 53018 22252 00134
BBXX BATFR30 03064 99413 10093 46/// /1507 10149 20109 40201 22214 00170
AAXX 03061 10609 12359 72108 10042 20028 39809 40143 58020 60002 876// 333 10042 20007 31101 55000 55300 20000 30000 70015 87709
AAXX 03061 10616 02365 72306 10031 20016 39530 40136 58022 69902 878// 333 10032 20008 31102 55000 55300 69907 70010 81808 87613
AAXX 03061 10641 17250 52004 10024 20016 39999 40149 56018 60002 71030 333 10057 21013 3/105 55004 55300 70001 81/05 85/20
AAXX 03061 10655 11261 12407 10033 20028 39824 40158 57015 60002 72841 81130 333 10062 20018 31101 55019 55300 20000 30000 70007 81804
AAXX 03061 10675 17433 41703 10030 20023 39866 40163 56014 69912 71000 333 10070 20024 3/000 55015 55300 20000 30000 70008 81/14 84/28
AAXX 03061 10688 17456 71603 10037 20031 39639 40168 58010 60022 71050 333 10060 20034 3/002 55023 55300 20000 30000 70018 86/13 87/41
AAXX 03061 10708 11138 82007 10033 20032 39774 40166 56016 60002 71042 876// 333 10053 20014 31102 55000 55300 20000 30000 79999 83702 87704
AAXX 03061 10729 17958 01605 10028 20025 30051 40176 56011 60002 70030 333 10065 20011 3/102 55015 55300 20000 30000 70015
AAXX 03061 10731 12968 42305 10044 20030 30024 40170 57014 69912 84030 333 10072 20035 31002 55011 55300 20000 30000 70038 81362 83365
AAXX 03061 10742 15459 72402 10041 20026 39837 40173 56009 69912 333 10063 20040 3/002 55008 55300 20000 30000 70016 82/14 83/21 87/64
AAXX 03061 10776 01215 81403 10025 20025 39726 40178 58005 60042 71065 886// 333 10035 20024 31003 55000 55300 20000 30000 69917 70047 88704
AAXX 03061 10791 01/90 92309 11012 21012 38509 48454 58003 60062 77174 333 10019 21016 44003 55048 55300 60027 70063 91115 91211 96049
AAXX 03061 10805 12681 51905 10053 20034 39994 40188 57006 60032 83530 333 10084 20051 31003 55000 55300 20000 30000 70049 83643 84363
AAXX 03061 10815 01270 72605 10015 20009 39229 48459 56006 60022 70262 875// 333 10046 20015 31001 55002 55300 20000 30000 69907 70063 87606
AAXX 03061 10836 11/30 82706 10032 20032 39297 40175 56006 60062 71064 878// 333 10057 20029 31002 55006 55300 20000 30000 70067 827// 86815
AAXX 03061 10870 01468 82003 10055 20055 39644 40182 55004 60032 72166 885// 333 10106 20049 31004 55065 55300 69927 70032 88618 96258
AAXX 03061 10895 01/05 91902 10001 20001 39610 40196 55003 60022 76164 333 10001 21011 31101 55021 55300 20000 30000 69967 70023 96047
AAXX 03061 10908 01/03 72413 11029 21029 38469 48467 56004 60082 74174 871// 333 11001 21031 3/103 43005 55001 55300 20000 30000 69907 70119 878// 91120 91214 96471 96449 98860
AAXX 03061 10929 01674 82603 10057 20041 39658 40194 55001 60052 70262 875// 222// 06033 333 10095 20057 31004 55046 55300 20000 30000 69927 70049 87646
AAXX 03061 10948 01168 81402 10035 20035 39237 48477 55000 60012 76162 875// 333 10076 20030 31002 55055 55300 20000 30000 69927 70010 81703 87636
AAXX 03061 10961 11/00 92310 11055 21058 37050 47016 56005 60032 77874 333 11045 21063 48022 55073 55300 20000 41106 70026 91122 91212 96049 96471
AAXX 03061 10962 01575 82406 10025 20025 39025 48468 57006 60032 76164 885// 333 10070 20024 31002 55069 55300 20000 30000 69937 70025 88620
AAXX 03061 10980 11/01 92206 11007 21011 38127 48475 55001 69962 77374 333 10023 21013 3/101 43001 55060 55300 20000 30000 70006 96045
BBXX BATFR12 03064 99480 70073 46/// /2719 10132 20124 40155 55004 22200 00149
BBXX BATFR04 03064 99584 70062 46/// /2841 10057 20014 4//// 22200 00109
BBXX BATEU07 03064 99298 31128 46/// /0914 10244 20030 40085 55001 22233
BBXX BATFR60 03064 99460 70024 46/// /2426 10132 20109 40177 55/// 22232 00147
BBXX BATFR10 03064 99314 10303 44598 20213 40239 70222 8224/ 22271 00192 20202
BBXX BATFR58 03064 99433 10078 44498 7//// 40178 56004 72992 877// 22281 00184 202// 31923 403// 50402 60/// ICE 0////
AAXX 03061 01015 NIL
AAXX 03061 01023 NIL
AAXX 03061 01033 46/// /2408 10026 21052 39757 49787 51006 333 20006 91117
AAXX 03061 01059 NIL
AAXX 03061 01089 16/// /2706 10003 21019 39658 49762 52028 6//// 333 20002 91111
AAXX 03061 01167 NIL
AAXX 03061 01180 NIL
AAXX 03061 01210 16/// /1609 10061 21002 39641 49667 56054 6//// 333 20046 91119
AAXX 03061 01228 NIL
AAXX 03061 01240 16/// /1418 10044 21036 39695 49714 58061 6//// 333 20038 91123
AAXX 03061 01304 46/// /1516 10059 20042 39628 49658 58043 333 20033 91130
AAXX 03061 01311 46/// /2210 10074 20036 39656 49715 56046 333 20020 91127
AAXX 03061 01340 NIL
AAXX 03061 01355 16/// ///// 10050 20003 39745 49750 55061 69952 333 20002 70005
AAXX 03061 01360 NIL
AAXX 03061 01392 16/// /1703 10000 21009 39652 49876 58055 69942 333 21063 70005 91107
AAXX 03061 01406 NIL
AAXX 03061 01411 16/// /2011 10075 20046 39735 49759 56035 6//// 333 20034 91127
AAXX 03061 01425 NIL
AAXX 03061 01433 46/// /1809 11005 21014 38543 49762 56059 333 21067 91118
AAXX 03061 01442 NIL
AAXX 03061 01450 NIL
AAXX 03061 01452 16/// /2114 10076 20062 39805 49825 58077 60092 333 21037 70085 91120
AAXX 03061 01473 16/// /1202 10022 20010 39628 49833 58068 6//// 333 21062 91107
AAXX 03061 01494 16/// /1811 10055 20034 39798 49862 58059 60032 333 21022 70025 91116
AAXX 03061 01121 46/// /1411 10040 21035 39750 49762 58041 333 20016 91119
AAXX 03061 01135 NIL
AAXX 03061 01143 16/// /1503 10011 21064 69992 333 21018 70067 91107
AAXX 03061 01150 16/// /1204 11022 21059 60042 333 21039 70118 91111
AAXX 03061 01192 NIL
AAXX 03061 01225 46/// /1111 10069 21017 39683 49687 58068 333 20030 91114
AAXX 03061 01230 16/// /1005 10003 21063 60002 333 21037 4/023 70007 91118
AAXX 03061 01232 16/// /1807 10058 21046 39637 49713 56067 60002 333 21001 4/003 70033 91128
AAXX 03061 01234 16/// /2202 10020 21045 60002 333 21015 70027 91111
AAXX 03061 01253 16/// /1705 10000 21045 60002 333 21068 4/024 70041 91113
AAXX 03061 01254 16/// /0202 10012 21042 69932 333 21043 4/003 70014 91109
AAXX 03061 01257 NIL
AAXX 03061 01277 NIL
AAXX 03061 01291 16/// /2901 11025 21040 60002 333 21025 70061 91109
AAXX 03061 01332 16/// /3402 10013 21005 6//// 333 21006 91108
AAXX 03061 01366 46/// /1514 11064 21076 38168 49754 56069 333 21095 91120
AAXX 03061 01370 NIL
AAXX 03061 01376 16/// /0903 10006 21008 69982 333 21041 70008 91107
AAXX 03061 01383 46/// /1309 11026 21037 39537 49849 58057 333 21066 91113
AAXX 03061 01386 16/// ///// 10004 21014 60002 333 21050 70000
AAXX 03061 01416 16/// ///// 10045 20045 60152 333 20029 70154
AAXX 03061 01419 NIL
AAXX 03061 01430 16/// ///// 10081 20065 60032 333 21004 70025
AAXX 03061 01434 16/// /1704 10001 21010 38827 49766 56075 60022 333 21081 70030 91109
AAXX 03061 01455 NIL
AAXX 03061 01468 16/// /1304 10001 21012 60002 333 21057 70000 91107
AAXX 03061 01470 16/// /1604 10039 20029 39714 49826 56078 69982 333 21045 70009 91111
AAXX 03061 01476 NIL
AAXX 03061 01481 NIL
AAXX 03061 01488 NIL
AAXX 03061 01025 16/// /1807 10008 21031 39789 49800 58001 60022 333 21004 70123 91113
AAXX 03061 01052 16/// /2308 10002 21019 39677 49773 53013 60062 333 21010 70118 91112
AAXX 03061 01122 NIL
AAXX 03061 01132 16/// /1404 11015 21075 39422 49805 58036 69972 333 21026 4/019 70095 91111
AAXX 03061 01156 NIL
AAXX 03061 01203 46/// /1209 10039 20008 39615 49662 58038 333 20007 91133
AAXX 03061 01233 16/// /1512 11035 21050 69922 333 21081 70002 91120
AAXX 03061 01265 NIL
AAXX 03061 01273 NIL
AAXX 03061 01307 46/// /2117 10078 20044 39659 49685 58031 333 20034 91131
AAXX 03061 01321 16/// /1604 10042 21004 39459 49701 56058 60022 333 21016 70040 91116
AAXX 03061 01327 16/// /0903 10002 21008 60152 333 21017 91115
AAXX 03061 01350 16/// /1511 11031 21032 38401 49748 56061 60002 333 21083 70000 91120
AAXX 03061 01361 16/// /1007 11024 21042 38739 49741 56057 60002 333 21045 70000 91113
AAXX 03061 01375 NIL
AAXX 03061 01378 NIL
AAXX 03061 01385 16/// /1102 11003 21014 39586 49855 58058 60002 333 21048 70000 91106
AAXX 03061 01412 16/// /2312 10081 20056 39746 49775 56047 60122 333 20045 70120 91127
AAXX 03061 01422 NIL
AAXX 03061 01440 NIL
AAXX 03061 01441 NIL
AAXX 03061 01467 NIL
AAXX 03061 01469 NIL
AAXX 03061 01477 16/// /1502 10023 20017 69982 333 21068 70009 91107
AAXX 03061 01480 16/// /0102 10034 20013 69962 333 21051 70006 91108
AAXX 03061 01484 16/// /1407 10018 20000 39715 49869 58060 60012 333 21060 70014 91111
AAXX 03061 01490 16/// /1804 11003 21004 60012 333 21046 70013 91109
AAXX 03061 01495 16/// /1917 10072 20040 39847 49859 58062 60002 333 20035 70000 91122
AAXX 03061 01037 NIL
AAXX 03061 01046 11689 42902 10013 21079 39793 49800 53008 60062 70262 84400 333 21001 44003 70123 91110
AAXX 03061 01058 16/// /3302 11076 21091 39342 49808 50018 60012 333 21076 4/013 70014 91112
AAXX 03061 01065 NIL
AAXX 03061 01092 NIL
AAXX 03061 01107 16/// /1814 10049 2//// 39741 49745 57036 60022 333 20019 70045 91122
AAXX 03061 01114 NIL
AAXX 03061 01144 46/// /1210 10035 21037 333 20024 91114
AAXX 03061 01199 NIL
AAXX 03061 01245 NIL
AAXX 03061 01259 16/// /1212 10033 21063 39708 49730 56046 60002 333 20026 70012 91122
AAXX 03061 01262 NIL
AAXX 03061 01278 31785 31003 10007 21055 39676 49776 58051 70211 81402 333 21006 47006 70080
AAXX 03061 01293 16/// /1506 10003 21049 39577 49781 58052 60002 333 21042 70074 91113
AAXX 03061 01329 NIL
AAXX 03061 01337 NIL
AAXX 03061 01344 16/// ///// 11004 21011 6//// 333 21051 4/021
AAXX 03061 01364 NIL
AAXX 03061 01373 11312 80903 10016 21011 39602 49801 56083 60002 71020 886// 333 21057 70000 91106
AAXX 03061 01374 NIL
AAXX 03061 01380 16/// /1606 11054 21065 6//// 333 21129 4/006 91113
AAXX 03061 01389 11785 82603 11030 21049 39572 49863 58056 69902 77872 8172/ 333 21080 79999
AAXX 03061 01393 NIL
AAXX 03061 01424 16/// ///// 10010 20001 39771 49775 56056 60192 333 20001 70204
AAXX 03061 01431 16/// /2203 10013 20001 39141 49789 56064 60132 333 21067 70127 91112
AAXX 03061 01436 NIL
AAXX 03061 01465 11356 82021 10079 20064 39814 49832 58077 60032 76366 8472/ 333 20005 70031 91126
AAXX 03061 01471 NIL
AAXX 03061 01483 NIL
AAXX 03064 07005 01370 82017 10078 20067 39982 40072 56034 60022 76166 8477/ 333 10078 20053 31005 55039 60027 70034 84706 88459 91027 90710 91129 555 69945
AAXX 03064 07015 01480 82122 10070 20053 30008 40065 56033 69962 761// 885// 333 10072 20051 31004 55053 69947 70006 86614 87621 90710 91136 93100 555 69945
AAXX 03064 07020 01558 82623 10132 20116 30056 40082 56015 60102 76066 885// 333 10133 20101 55/// 60037 70100 88630 91038 90710 91138 555 69925
AAXX 03064 07027 01480 82118 10104 20090 30015 40096 56027 69922 76066 878// 333 10104 20063 31005 55044 69927 70004 83816 85650 90710 91130 93100 555 69925
AAXX 03064 07037 01365 72018 10072 20068 39919 40103 57030 60012 76166 877// 333 10072 20039 32101 55034 60017 70026 87708 91030 90710 91130 93100 555 69985
AAXX 03064 07070 04670 82318 10072 20036 30020 40131 56025 69902 700// 333 10072 20020 3/101 55023 69907 70002 91030 90710 91130 555 69905
AAXX 03064 07110 01470 82714 10120 20111 30018 40132 56011 60052 76062 888// 333 10120 20090 32008 55063 60027 70046 86810 87626 90710 91129 555 69945
AAXX 03064 07117 01458 82520 10119 20114 30037 40107 56015 60072 76166 887// 333 10120 20081 60047 91034 90710 91140 92436 555 69985
AAXX 03064 07130 04460 82209 10110 20102 30088 40140 56021 60052 761// 333 10110 20074 32006 55059 60037 70052 90710 91116 555 60015
AAXX 03064 07139 01365 82213 10086 20071 39961 40135 56024 60022 75866 885// 333 10086 20064 31006 55049 60017 70022 86708 87615 90710 91126 93100 555 69925
AAXX 03064 07149 01462 82113 10069 20054 30030 40140 57025 69942 76162 875// 333 10074 20049 31001 55035 69947 70006 85616 87633 90710 91127 93100 555 69925
AAXX 03064 07168 02965 82112 10061 20039 30027 40172 56015 60002 8707/ 333 10061 20011 31101 55001 60007 70006 87360 90710 91119 93100 555 60005
AAXX 03064 07181 04966 82216 10048 20038 39755 40172 57015 60002 700// 333 10048 20015 3/100 55/// 60007 79999 90710 91123 555 60005
AAXX 03064 07190 04672 81809 10044 20027 39995 40182 56009 69902 700// 333 10083 20008 31102 55007 60007 70016 90710 91114 555 60005
AAXX 03064 07207 01558 82726 10134 20107 69962 76362 84250 222// 327// 333 10135 20113 69947 91038 90710 91144 92446 555 69925
AAXX 03064 07222 01460 82310 10112 20104 30138 40170 56018 60012 761/6 875// 333 10112 20060 32002 55072 60017 70012 82613 85626 88656 90710 91118 555 69925
AAXX 03064 07240 01680 82012 10080 20060 30037 40174 56022 69962 761// 875// 333 10080 20070 31006 55043 69967 70006 87633 90710 91123 93100 555 69925
AAXX 03064 07255 01665 82308 10069 20049 39999 40202 56008 69902 76166 8357/ 333 10072 20046 32003 55021 69907 70008 83640 87359 90710 91117 93100 555 69905
AAXX 03064 07280 04949 61907 10048 20042 39928 40207 55002 60002 710// 333 10085 20037 3/000 55000 60007 70002 90710 91112 555 60005
AAXX 03064 07299 02660 71605 10030 20024 39868 40205 56002 60032 8555/ 333 10083 20024 32100 55001 60007 70060 81636 85646 87369 90710 91107 93100 555 60005
AAXX 03064 07314 01670 82421 10138 20090 30177 40205 55015 60002 76062 88500 333 10139 20107 30/// 55/// 60007 70000 88633 90710 91131 92448 555 60005
AAXX 03064 07335 02682 82011 10079 20055 30054 40201 56018 69902 885// 333 10079 20051 30004 55061 69907 79999 84640 87650 90710 91119 555 60005
AAXX 03064 07434 02575 82107 10050 20040 39741 40231 55003 60002 8557/ 333 10060 20043 32003 55002 60007 70053 85632 85359 90710 91111 93100 555 60005
AAXX 03064 07460 01680 81903 10058 20031 39828 40225 55004 60002 703// 8157/ 333 10087 20043 30002 55001 60007 79999 81633 83358 87360 90710 91106 93100 555 60005
AAXX 03064 07471 02482 72504 10035 20004 39243 48827 52002 69902 81101 333 10070 20032 31002 55001 60007 70050 81815 87071 90710 91108 93100 555 60005
AAXX 03064 07510 04785 82007 10077 20058 30170 40237 56008 60002 700// 333 10089 20041 31003 55041 60007 70042 90710 91113 555 60005
AAXX 03064 07535 06/// /1503 10039 20039 39926 40248 56002 69922 333 10084 20029 3/002 55026 69927 70008 90710 91106 555 60005
AAXX 03064 07558 02470 73104 10044 20024 39386 40240 51002 60002 83632 333 10074 20043 30004 55038 60007 70000 83710 87075 90710 91113 93100 555 60005
AAXX 03064 07577 02565 70206 10098 20065 30124 40214 53004 60002 81531 333 10126 20094 31009 55011 60007 70073 81626 84360 87075 90710 91113 93100 555 60005
AAXX 03064 07591 04/// /2102 10061 20058 39175 4//// 55002 60042 700// 333 10082 20059 3/004 55001 60007 70048 90710 91104 555 60005
AAXX 03064 07607 04960 81201 10020 20017 30181 40256 58002 60002 700// 333 10098 20003 3/102 55024 60007 70043 90710 91103 555 60005
AAXX 03064 07621 01970 72007 10054 20045 39817 40261 53002 69942 702// 80002 333 10078 20049 31003 55000 60007 70056 87068 90710 91109 93100 555 60005
AAXX 03064 07627 02970 70000 10039 20029 39760 40263 50002 6///2 8701/ 333 10069 20039 31000 55000 60007 7//// 87466 90710 91106 93100 555 60005
AAXX 03064 07630 02258 72302 10069 20060 30072 40257 53005 60002 85502 333 10100 20069 30006 55003 60007 70000 85705 87066 90710 91107 93100 555 60005
AAXX 03064 07643 02975 72802 10080 20044 30207 40217 53004 60002 80002 333 10127 20063 3/005 55036 60007 70000 87071 90710 91104 555 60005
AAXX 03064 07650 01470 53107 10092 20070 30161 40200 52008 60022 70141 81632 333 10143 20084 31006 55018 60007 70059 81710 85071 90710 91112 93100 555 60005
AAXX 03064 07661 02563 82613 10120 20114 30022 40183 51001 60042 887// 333 10153 20120 55/// 60007 70044 88723 90710 91117 555 60005
AAXX 03064 07690 01581 73207 10119 20098 30149 40183 55000 60182 70362 84802 333 10132 20118 32011 55007 60007 70240 81826 84656 86073 90710 91111 93100 555 60005
AAXX 03064 07747 02982 73013 10112 20051 30175 40229 51006 60002 85022 333 10121 20104 30008 55059 60007 70000 85467 87075 90710 91121 555 60005
AAXX 03064 07761 02570 50507 10111 20070 30186 40197 55000 60002 85530 333 10130 20092 30008 55082 60007 70000 83630 83656 90710 91110 93100 555 60005
AAXX 03064 07790 02565 52004 10089 20051 30174 40189 55000 60002 81501 333 10115 20087 30005 55084 60007 70002 81626 85075 90710 91108 93100 555 60005
AAXX 03061 78221 NIL
AAXX 03061 78224 32659 29901 10150 20128 30144 40221 58009 82500 333 82643
AAXX 03061 78229 42559 10704 10186 20131 30144 40219 57010 81400 333 81625
AAXX 03061 78239 11559 20509 10231 20155 30201 40204 57010 60004 70500 82200 333 82820
AAXX 03061 78244 NIL
AAXX 03061 78243 42659 20503 10173 20133 30090 40214 57013 82010 333 83435
AAXX 03061 78255 42959 00405 10189 20137 30054 40203 57010
AAXX 03061 78264 31559 20107 10219 20175 30093 40168 57010 70500 82200 333 82820
AAXX 03061 78265 31558 60303 10213 20189 30082 40182 57010 71144 86020 333 86458
AAXX 03061 78256 NIL
AAXX 03061 78259 NIL
AAXX 03061 78268 NIL
AAXX 03064 03005 11475 72726 10063 20027 39536 49632 55005 60092 72781 8797/ 90550 333 20037 32002 4//// 55000 55300 20000 70164 81914 85627 90710 91140
AAXX 03064 03017 17423 /2737 10061 20045 39648 49679 55026 60102 781// 90550 333 20044 3/003 4//// 55003 55300 20000 70158 82/15 84/20 90710 91164 91064
AAXX 03064 03023 17661 /2934 10072 20012 39870 49875 53025 69982 723// 90550 333 20052 3/004 70044 81/41 90710 91159 91044
AAXX 03064 03026 17560 /2936 10047 20022 39803 49821 53044 60082 782// 90550 333 20044 3/003 4/000 55000 55300 20000 70128 81/25 85/64 90710 91152 91050
AAXX 03064 03063 17350 /2312 10026 20004 39570 49844 53011 60052 782// 90550 333 20026 3/001 4/000 55003 55300 20000 70080 81/08 84/17 90710 91131 91031
AAXX 03064 03066 17420 /2629 10049 20030 39802 49808 55000 60032 782// 90550 333 20043 3/002 55012 55300 20000 70036 85/19 83/35 90710 91145 91043
AAXX 03064 03075 17559 /2637 10056 20041 39688 49731 55005 60052 761// 90550 333 20044 3/003 4//// 70048 86/21 83/32 90710 91150 91050
AAXX 03064 03091 15779 /2626 10063 21016 39737 49815 55003 69902 90550 333 20051 3/003 4/000 55013 55300 20000 79999 81/50 90710 91144 91044
AAXX 03064 03100 15660 /3027 10073 20026 39888 49904 53011 60042 90550 333 20044 3/004 55000 55300 20000 70072 82/36 90710 91150 91037
AAXX 03064 03111 16662 /3028 10076 20042 39918 49930 53010 60032 90550 333 20056 3/005 70036 81/34 86/50 90710 91151 91041
AAXX 03064 03134 17679 /3016 10055 20015 39833 49904 53010 60052 723// 90550 333 20051 3/003 4/000 55015 55300 20000 70058 81/35 84/45 90710 91136
AAXX 03064 03136 17672 /2914 10066 20036 39889 49922 53009 60052 723// 90550 333 20059 3/005 4/000 55000 55300 20000 70054 81/39 86/47 90710 91139
AAXX 03064 03162 17666 /2711 10052 20015 39640 49923 53007 60092 723// 90550 333 20046 3/002 4/000 55000 55300 20000 70106 81/30 83/50
AAXX 03064 03166 17662 /2414 10047 20027 39820 49889 53004 60012 781// 90550 333 20043 3/003 4/000 55019 55300 20000 70014 81/43 84/50 90710 91130
AAXX 03064 03171 12984 02616 10040 20008 39852 49864 53004 69902 90550 333 20039 31001 4//// 55011 55300 20000 70004 90710 91133
AAXX 03064 03204 12582 52821 10087 20027 39955 49974 52013 60032 85800 90550 333 20087 31007 4//// 55001 55300 20000 70026 81820 85656 90710 91135 91033
AAXX 03064 03240 15978 /2524 10065 20027 39863 49891 53006 69902 90550 333 20053 3/003 4//// 55015 55300 20000 79999 8//99 90710 91138 91035
AAXX 03064 03257 15968 /2719 10079 20015 39893 49933 53008 69902 90550 333 20052 3/003 4/000 55009 55300 20000 70002 8//99 90710 91129
AAXX 03064 03292 169// /2610 10075 20041 39909 49927 53001 69922 90550 333 20051 3/004 4//// 70002 8//99 90710 91125
AAXX 03064 03302 17660 /2819 10094 20041 39991 40004 53016 60042 723// 90550 333 20088 3/007 55000 55300 20000 70044 81/40 86/45 90710 91129 91029
AAXX 03064 03354 15676 /2714 10095 20043 39834 49974 53006 69942 90550 333 20050 3/003 4/000 55022 55300 20000 70004 83/41 90710 91129 91025
AAXX 03064 03377 11582 62713 10098 20056 39880 49962 55003 69922 78065 868// 90550 333 20050 31004 4//// 55028 55300 20000 70002 81820 83624 85650 90710 91127 91023
AAXX 03064 03414 17664 /2717 10095 20048 39904 49990 53013 69922 781// 90550 333 20063 3/005 4//// 55001 55300 20000 70004 85/39 85/47 90710 91126
AAXX 03064 03462 17457 /2913 10095 20077 39891 49979 55004 69982 782// 90550 333 20049 3/004 4/000 55033 55300 20000 70008 81/16 83/25 90710 91126
AAXX 03064 03482 17578 /2319 10099 20091 39947 49972 56018 60022 781// 90550 333 20039 3/002 4/000 70018 83/29 85/43 90710 91126
AAXX 03064 03502 17563 /2916 10101 20070 39868 40027 52008 60062 723// 90550 333 20077 3/007 55002 55300 20000 70092 85/22 84/50 90710 91131
AAXX 03064 03535 15581 /2512 10100 20057 39872 49987 53006 69942 90550 333 20059 3/005 4/000 55036 55300 20000 70004 83/28 83/50 91022
AAXX 03064 03590 17258 /2415 10097 20091 39883 49991 56015 60032 782// 90550 333 20039 3/002 4/000 55050 55300 20000 70034 87/05 90710 91128
AAXX 03064 03649 11482 72507 10108 20085 39908 40006 55003 60012 70365 875// 90550 333 20063 31006 4//// 55025 55300 2//// 70016 81712 87650
AAXX 03064 03716 17673 /2820 10119 20090 39964 40023 55000 60052 723// 90550 333 20081 3/007 4/001 55006 55300 20000 70086 83/44 87/60 90710 91132 91031
AAXX 03064 03740 16464 /2715 10106 20094 39840 40014 56007 60012 90550 333 20061 3/004 55021 55300 2//// 70018 86/10 84/17 90710 91126
AAXX 03064 03746 17482 /2614 10108 20090 39871 40022 56012 69902 723// 90550 333 20062 3/005 70002 86/15
AAXX 03064 03772 17459 /2414 10107 20099 39981 40012 55016 69982 782// 90550 333 20059 3/003 4/000 55041 55300 20000 70008 82/11 83/20 85/50
AAXX 03064 03796 46/// /2526 10108 20105 39879 40019 56024 90550 333 20048 90710 91140
AAXX 03064 03803 17123 /2722 10119 20119 30058 40095 55003 60042 752// 90550 333 20100 3/009 70052 87/02 90710 91135
AAXX 03064 03808 11262 82820 10116 20107 39975 40080 56007 60072 76162 886// 90550 333 20084 31008 4//// 55033 55300 20000 70092 84705 87708 88650 90710 91134 96463
AAXX 03064 03809 11357 82818 10115 20107 39990 40082 56008 60082 75865 885// 90550 333 20092 3/009 4//// 70104 81706 83709 88620 90710 91133
AAXX 03064 03827 17963 /2821 10118 20101 30001 40062 56012 60072 723// 90550 333 20086 3/008 70076 84/58 87/61 90710 91131
AAXX 03064 03840 17374 /2712 10100 20093 39742 40042 55008 60032 723// 90550 333 20056 3/005 4/000 70036 86/08 85/16
AAXX 03064 03853 17439 /2714 10112 20101 30014 40038 55003 60012 782// 90550 333 20078 3/006 4/000 55021 55300 20000 70014 81/11 84/17
AAXX 03064 03874 46/// /2725 10121 20101 30014 40025 55019 90550 333 20089 90710 91139
AAXX 03064 03882 17357 /2412 10115 20107 39966 40028 56024 60102 762// 90550 333 20041 3/100 4/000 55022 55300 20000 70100 86/09 83/19 90710 91126 91025
AAXX 03064 03894 11362 82523 10120 20110 40090 55015 60092 76162 885// 333 20087 31006 83708 87615 90710 91140
AAXX 03064 03917 15674 /2613 10065 20027 39893 49969 53007 60022 90550 333 20064 3/004 4/000 55000 55300 20000 70022 81/34 90710 91129
AAXX 03064 61901 169// /1316 10157 20124 39674 40185 53006 69922 90550 333 20152 3/014 70002 8//99 555 7/090
AAXX 03064 88889 12689 13009 10063 20029 30034 40119 55008 60001 81500 90550 333 4/000 70000 81645
AAXX 03061 11816 11350 80801 11006 21012 30036 40205 51005 60002 71052 886// 333 21007 35101 79999 84707 88712 93404
AAXX 03061 11826 11220 89901 11004 21014 39995 40202 50005 60002 71022 886// 333 21007 30101 50002 70000 88704
AAXX 03061 11903 11235 89902 10009 20008 39810 40200 53003 60002 71022 886// 333 20008 30001 70000 82704 88705
AAXX 03061 11934 11/02 91201 11023 21026 39353 42784 56001 60002 74922 333 21039 34107 79999 89/01 93501
AAXX 03061 11968 11108 81901 11012 21020 39918 40209 55000 69902 74654 886// 333 21026 3/102 43002 79999 88703 93401
AAXX 03064 97180 01450 71507 10256 20251 30051 40069 58006 60051 79562 83972 333 56000 57901 60057 83819 83359 81917 80980
BBXX CGDS 03064 99447 70755 46/// /3204 11025 21070 4//// 5//// 7//// 8//// 22200 0//// 2////
BBXX 42039 03061 99288 70860 46/// /0808 10203 40269 58010 90550 22200 00235 10602 20602 70012 333 91211 555 11089 22093 30522 40811 60549 076085 077083 082086 080084 077086 075083 80810 90502
BBXX 41040 03061 99145 70530 46/// /0708 10265 20234 40114 56019 90550 22200 00275 10905 20503 3//// 40903 70023 333 91211 555 11085 22090 30542 40711 60549 070081 074083 075082 072083 068067 069066 80710 90542
BBXX 46001 03061 99563 71480 46/// /2108 10036 40265 53006 90550 22200 00050 11309 20704 300// 41308 70043 333 91210 555 11081 22085 30543 42110 60549 208076 208070 212073 213073 212079 212075
BBXX 46082 03061 99597 71434 46/// ///// 10058 20058 40232 51023 90550 22200 00065 11109 70044
BBXX 46072 03061 99517 71722 46/// /2022 10048 20019 49808 58009 90550 22200 00056 11114 20709 3//// 41111 70070 333 91228 555 11236 22253 30549 42028 60549 196221 197209 198200 199213 201204 201202 82024 90546
BBXX 46085 03061 99559 71425 46/// /2108 1//// 90550 555 11082 22088
BBXX 46077 03061 99579 71543 46/// /0506 10036 20034 40194 52003 90550 22200 00051 11102 20501 3//// 41102 70012 333 91207 555 11061 22064 30537 40507 60549 044057 044058 040052 042049 038048 038055 80406 90540
BBXX 46035 03061 99571 71778 46/// /0306 1//// 49956 56031 90550 22200 11105 20401 300// 41105 70027 333 91207 555 11056 22059 30537 40307 60549 029056 025054 024051 027049 025043 020036 80206 90538
AAXX 03064 87765 32560 70000 10089 20044 39170 48471 57017 87500 333 56600 87625 96120 555 10140
AAXX 03064 91348 11474 80803 10289 20242 30019 40071 53003 60021 70282 83101 333 561/9 70180 555 90306
BBXX 45008 03061 99443 70824 46/// /2110 10028 30101 40322 57009 90550 22200 00077 10402 20402 70009 333 91212 555 11108 22113 60549 207102 201098 207097 207091 206090 205086
BBXX 45002 03061 99453 70864 46/// /2213 10056 20007 30034 40254 58021 90550 22200 10605 20605 70025 333 91216 555 11138 22148 30530 42216 60549 215131 215126 217125 213124 215122 216121
BBXX 44007 03061 99435 70701 46/// /3408 10054 40305 53021 90550 22200 00090 11102 20301 3//// 41102 70011 333 91210 555 11084 22088 30452 43311 60549 335080 331073 327073 337087 339090 336091
BBXX 44013 03061 99423 70707 46/// /3411 10064 20004 40305 51019 90550 22200 00100 10402 20402 300// 41001 70012 333 91213 555 11111 22117 30515 43413 60549 336105 335105 334105 336108 335103 334102
BBXX 46072 03061 99517 71722 46/// /2022 10048 20019 49808 58009 90550 22200 00056 11114 20709 3//// 41111 70070 333 91228 555 11236 22253 30549 42028 60549 196221 197209 198200 199213 201204 201202 82024 90546
BBXX 46026 03061 99378 71228 46/// /3207 10120 40162 51008 90550 22200 00114 11006 20603 331// 41005 70029 333 91208 555 11072 22079 30519 43011 60549 312068 286081 283085 287086 286083 283079
BBXX 46015 03061 99427 71248 46/// ///// 10095 30295 40295 51004 90550 22200 00103 11507 70035
BBXX 46041 03061 99474 71247 46/// /1405 10077 40326 54000 90550 22200 00100 11406 20501 3//// 41406 70031 333 91207 555 11055 22058 30506 41308 60549 139053 135054 136054 137054 135054 130057
AAXX 03061 14648 12970 70000 10083 20065 30121 40242 58001 60002 87070 333 20079 30007 55032 70000 87459
AAXX 03061 14652 11000 92015 11008 21015 37965 48530 56008 60002 74544 333 21008 35/// 55049 70000 89/00
AAXX 03061 14542 12670 42901 10033 20020 30021 40215 58009 60002 82540 333 20030 31101 55060 70000 82640 82360 95900
AAXX 03064 91348 11474 80803 10289 20242 30019 40071 53003 60021 70282 83101 333 561/9 70180 555 90306
AAXX 03061 45032 36/// /3102 10203 21003 30139 40156 54000
AAXX 03061 45035 36/// /3103 10172 20008 30113 40155 54000
AAXX 03061 45039 36/// /0103 10193 21001 30138 40152 57001
AAXX 03061 45044 36/// /1502 10201 20038 30064 40156 52001
AAXX 03061 45032 36/// /3102 10203 21003 30139 40156 54000
AAXX 03061 45035 36/// /3103 10172 20008 30113 40155 54000
AAXX 03061 45039 36/// /0103 10193 21001 30138 40152 57001
AAXX 03061 45044 36/// /1502 10201 20038 30064 40156 52001
BBXX 51004 03061 99175 71524 46/// /0709 10243 20204 40159 51024 90550 22200 00249 11505 20703 328// 41504 70024 333 91210 555 11097 22103 30515 40711 60549 075090 074090 076093 075091 073086 073085
BBXX 51002 03061 99171 71578 46/// /0708 10250 40156 53021 90550 22200 00249 333 91209 555 11081 22087 30512 40710 60549 067076 066077 067078 064077 066083 066078
BBXX 51100 03061 99236 71539 46/// /0907 10234 40207 53019 90550 22200 00237 11407 20703 332// 41406 70035 333 91209 555 11076 22080 30510 40910 60549 088071 091076 091075 088080 085080 088079
AAXX 03061 76040 32902 /1601 10098 20042 30126 40140 52002 90545 333 10182 20070 30/// 55047 59001 98602
AAXX 03061 76055 32970 01904 10115 20059 30114 40133 55002 90540 333 10176 20056 30/// 58011
AAXX 03061 76225 32520 32504 10142 20022 38573 40044 53006 83100 90540 333 10210 20076 30/// 55023 56500 59040 83827
AAXX 03061 76305 32970 00000 10150 20104 30146 40154 52007 90540 333 10262 20188 30/// 58///
AAXX 03061 76323 32910 01502 10132 20017 38230 40105 55006 90555 333 10232 20086 30/// 55048 59039
AAXX 03061 76373 32910 11101 10096 20003 38188 40129 57015 80001 90550 333 10218 21010 30/// 55049 21159 56009 59033 81067
AAXX 03061 76390 31850 11905 10156 20018 38222 40122 57011 70544 81060 90530 333 10205 20055 30/// 55080 21312 56040 59014 81356
AAXX 03061 76393 32520 21202 10192 20131 39574 40139 57015 82400 90550 333 10269 20130 30/// 55075 56700 59022
AAXX 03061 76402 32950 00000 10124 20107 30101 40158 52002 90545 333 10232 20138 30/// 55012 2//// 58015
AAXX 03061 76423 11960 02801 10113 20029 38153 40106 57005 69901 70150 90545 333 10252 20020 30/// 55095 21160 59014
AAXX 03061 76458 12860 51202 10220 20208 30149 40153 52005 69901 85050 90543 333 10282 20136 30/// 55040 56050 58006 85358
AAXX 03061 76539 32958 03601 10063 20048 38185 40177 52009 90550 333 10270 20010 30/// 55082 58015
AAXX 03061 76548 32960 01302 10200 20179 30198 40208 57005 90540 333 10280 20168 30/// 55066 59003
AAXX 03061 76556 32960 00000 10160 20124 39137 40141 52005 90530 333 10279 20104 30/// 55099 58006
AAXX 03061 76571 32910 00000 10108 20032 38174 40117 54012 90545 333 10264 20035 30/// 55087 59002
AAXX 03061 76577 32960 00000 10130 20108 38056 40114 52009 90540 333 10266 20071 30/// 55073 59003
AAXX 03061 76612 32958 01701 10153 20058 38487 40122 51006 90550 333 10280 20055 30/// 55098 21236 58002
AAXX 03061 76625 32960 00903 10151 20026 38156 40090 52011 90530 333 10280 20080 30/// 55080 58007
AAXX 03061 76632 31950 00705 10110 20000 37647 40090 5//// 70500 90540 333 10200 20082 30/// 55092 59003
AAXX 03061 76644 32350 10901 10192 20168 30203 40215 52001 81200 90550 333 10294 20170 30/// 55089 21124 561// 58005 81810
AAXX 03061 76654 31956 03602 10228 20205 30163 40167 52009 70544 90550 333 10294 20210 30/// 55090 21070 58009
AAXX 03061 76665 32958 01801 10121 20084 38135 40116 52001 90550 333 10290 20050 30/// 55080 21283 58001
AAXX 03061 76680 31956 02302 10122 21017 37767 40120 54000 70400 90550 333 10243 30065 30/// 55009 20774 59001
AAXX 03061 76685 32950 00601 10108 21019 37896 40125 52014 90550 333 10250 20032 30/// 55104 58011
AAXX 03061 76726 32968 03601 10170 21006 38406 40098 52004 90535 333 10282 20110 30/// 55/// 58001
AAXX 03061 76762 31602 20000 10167 20151 38774 40127 52001 70300 82400 90535 333 10302 20098 30/// 55096 21760 56400 58000 82638
AAXX 03061 76775 32960 00501 10107 20030 38544 40159 52004 90545 333 10296 20042 30/// 55084 59001
AAXX 03061 76805 32960 03301 10233 20229 30145 40149 50004 90545 333 10315 20215 30/// 55096 21049 58001
AAXX 03061 76845 32930 00401 10060 20052 37965 40175 58004 90545 333 10220 20004 30/// 55074 59003
AAXX 03064 65338 31456 73204 10228 20222 39918 40105 72844 875// 333 02000 20226 50604 55090 59003 87611
AAXX 03061 14528 12670 61805 10136 20044 39900 40193 57010 60003 86500 333 10147 20111 31010 55033 70000 86640
AAXX 03061 14537 12670 52701 10034 20027 30012 40204 54000 60003 85800 333 10170 20013 31000 55064 70000 81840 85650
AAXX 03061 14544 12668 43201 10001 21015 39566 40256 56004 60003 84500 333 10143 20000 31101 55040 70000 84646
AAXX 03061 14557 12970 70202 10039 20025 39856 40231 53004 60002 87070 333 10139 20018 31000 55053 70000 86360 87460
AAXX 03061 14640 11258 81601 10075 20073 39381 48536 56004 69933 76066 887// 333 10095 20065 31003 55017 70003 88703
AAXX 03061 11423 01/01 92506 10018 20016 39272 42767 58009 60022 747// 333 20015 31000 60005 70018 89/01
AAXX 03061 11487 01375 82502 10038 20027 39541 40170 57003 60022 720// 885// 333 20009 31000 69905 70021 82709 84625 88656
AAXX 03061 11518 01356 71903 10039 20035 39718 40162 55004 60032 71062 875// 333 20026 31001 60005 70025 82709 87636
AAXX 03061 11603 01250 81403 10017 20000 39672 40164 55007 69962 710// 886// 333 20013 31001 60005 70007 88706
AAXX 03061 11659 01442 81202 11006 21009 39530 40187 55001 60002 710// 886// 333 21020 34102 60005 70000 88711 93503
AAXX 03061 11723 01107 82102 11009 21019 39893 40201 53001 69902 74864 886// 333 21009 35101 60005 79999 88702 93601
AAXX 03061 11782 01256 82306 11003 21013 39875 40190 53001 69912 72162 885// 333 21003 31101 69905 70001 84706 88643 91111
AAXX 03061 78221 NIL
AAXX 03061 78224 32659 29901 10150 20128 30144 40221 58009 82500 333 82643
AAXX 03061 78229 42559 10704 10186 20131 30144 40219 57010 81400 333 81625
AAXX 03061 78239 11559 20509 10231 20155 30201 40204 57010 60004 70500 82200 333 82820
AAXX 03061 78244 NIL
AAXX 03061 78243 42659 20503 10173 20133 30090 40214 57013 82010 333 83435
AAXX 03061 78255 42959 00405 10189 20137 30054 40203 57010
AAXX 03061 78264 31559 20107 10219 20175 30093 40168 57010 70500 82200 333 82820
AAXX 03061 78265 31558 60303 10213 20189 30082 40182 57010 71144 86020 333 86458
AAXX 03061 78256 NIL
AAXX 03061 78259 NIL
AAXX 03061 78268 NIL
BBXX CG2350 03064 99433 70798 46/// /2702 10003 21016 40346 58003 7//// 8//// 22200 0//// 2////
BBXX CG2960 03064 99453 70814 46/// /2011 10012 21018 40320 58005 7//// 8//// 22222 00074 2////
AAXX 03064 81401 06/// /0000 10229 20221 30085 40091 60001 333 55/// 60007 59006 7//// 555 60005
AAXX 03064 81408 06/// /3301 10214 2//// 30085 40093 60001 333 55/// 60007 59005 7//// 555 60005
AAXX 03061 76040 32902 /1601 10098 20042 30126 40140 52002 90545 33310182 20070 30/// 55047 59001 98602
AAXX 03061 76055 32970 01904 10115 20059 30114 40133 55002 90540 33310176 20056 30/// 58011
AAXX 03061 76225 32520 32504 10142 20022 38573 40044 53006 83100 90540333 10210 20076 30/// 55023 56500 59040 83827
AAXX 03061 76305 32970 00000 10150 20104 30146 40154 52007 90540 33310262 20188 30/// 58///
AAXX 03061 76323 32910 01502 10132 20017 38230 40105 55006 90555 33310232 20086 30/// 55048 59039
AAXX 03061 76373 32910 11101 10096 20003 38188 40129 57015 80001 90550333 10218 21010 30/// 55049 21159 56009 59033 81067
AAXX 03061 76390 31850 11905 10156 20018 38222 40122 57011 70544 8106090530 333 10205 20055 30/// 55080 21312 56040 59014 81356
AAXX 03061 76393 32520 21202 10192 20131 39574 40139 57015 82400 90550333 10269 20130 30/// 55075 56700 59022
AAXX 03061 76402 32950 00000 10124 20107 30101 40158 52002 90545 33310232 20138 30/// 55012 2//// 58015
AAXX 03061 76423 11960 02801 10113 20029 38153 40106 57005 69901 7015090545 333 10252 20020 30/// 55095 21160 59014
AAXX 03061 76458 12860 51202 10220 20208 30149 40153 52005 69901 8505090543 333 10282 20136 30/// 55040 56050 58006 85358
AAXX 03061 76539 32958 03601 10063 20048 38185 40177 52009 90550 33310270 20010 30/// 55082 58015
AAXX 03061 76548 32960 01302 10200 20179 30198 40208 57005 90540 33310280 20168 30/// 55066 59003
AAXX 03061 76556 32960 00000 10160 20124 39137 40141 52005 90530 33310279 20104 30/// 55099 58006
AAXX 03061 76571 32910 00000 10108 20032 38174 40117 54012 90545 33310264 20035 30/// 55087 59002
AAXX 03061 76577 32960 00000 10130 20108 38056 40114 52009 90540 33310266 20071 30/// 55073 59003
AAXX 03061 76612 32958 01701 10153 20058 38487 40122 51006 90550 33310280 20055 30/// 55098 21236 58002
AAXX 03061 76625 32960 00903 10151 20026 38156 40090 52011 90530 33310280 20080 30/// 55080 58007
AAXX 03061 76632 31950 00705 10110 20000 37647 40090 5//// 70500 90540333 10200 20082 30/// 55092 59003
AAXX 03061 76644 32350 10901 10192 20168 30203 40215 52001 81200 90550333 10294 20170 30/// 55089 21124 561// 58005 81810
AAXX 03061 76654 31956 03602 10228 20205 30163 40167 52009 70544 90550333 10294 20210 30/// 55090 21070 58009
AAXX 03061 76665 32958 01801 10121 20084 38135 40116 52001 90550 33310290 20050 30/// 55080 21283 58001
AAXX 03061 76680 31956 02302 10122 21017 37767 40120 54000 70400 90550333 10243 30065 30/// 55009 20774 59001
AAXX 03061 76685 32950 00601 10108 21019 37896 40125 52014 90550 33310250 20032 30/// 55104 58011
AAXX 03061 76726 32968 03601 10170 21006 38406 40098 52004 90535 33310282 20110 30/// 55/// 58001
AAXX 03061 76762 31602 20000 10167 20151 38774 40127 52001 70300 8240090535 333 10302 20098 30/// 55096 21760 56400 58000 82638
AAXX 03061 76775 32960 00501 10107 20030 38544 40159 52004 90545 33310296 20042 30/// 55084 59001
AAXX 03061 76805 32960 03301 10233 20229 30145 40149 50004 90545 33310315 20215 30/// 55096 21049 58001
AAXX 03061 76845 32930 00401 10060 20052 37965 40175 58004 90545 33310220 20004 30/// 55074 59003
AAXX 03061 76040 32902 /1601 10098 20042 30126 40140 52002 90545 333 10182 20070 30/// 55047 59001 98602
AAXX 03061 76055 32970 01904 10115 20059 30114 40133 55002 90540 333 10176 20056 30/// 58011
AAXX 03061 76225 32520 32504 10142 20022 38573 40044 53006 83100 90540 333 10210 20076 30/// 55023 56500 59040 83827
AAXX 03061 76305 32970 00000 10150 20104 30146 40154 52007 90540 333 10262 20188 30/// 58///
AAXX 03061 76323 32910 01502 10132 20017 38230 40105 55006 90555 333 10232 20086 30/// 55048 59039
AAXX 03061 76373 32910 11101 10096 20003 38188 40129 57015 80001 90550 333 10218 21010 30/// 55049 21159 56009 59033 81067
AAXX 03061 76390 31850 11905 10156 20018 38222 40122 57011 70544 81060 90530 333 10205 20055 30/// 55080 21312 56040 59014 81356
AAXX 03061 76393 32520 21202 10192 20131 39574 40139 57015 82400 90550 333 10269 20130 30/// 55075 56700 59022
AAXX 03061 76402 32950 00000 10124 20107 30101 40158 52002 90545 333 10232 20138 30/// 55012 2//// 58015
AAXX 03061 76423 11960 02801 10113 20029 38153 40106 57005 69901 70150 90545 333 10252 20020 30/// 55095 21160 59014
AAXX 03061 76458 12860 51202 10220 20208 30149 40153 52005 69901 85050 90543 333 10282 20136 30/// 55040 56050 58006 85358
AAXX 03061 76539 32958 03601 10063 20048 38185 40177 52009 90550 333 10270 20010 30/// 55082 58015
AAXX 03061 76548 32960 01302 10200 20179 30198 40208 57005 90540 333 10280 20168 30/// 55066 59003
AAXX 03061 76556 32960 00000 10160 20124 39137 40141 52005 90530 333 10279 20104 30/// 55099 58006
AAXX 03061 76571 32910 00000 10108 20032 38174 40117 54012 90545 333 10264 20035 30/// 55087 59002
AAXX 03061 76577 32960 00000 10130 20108 38056 40114 52009 90540 333 10266 20071 30/// 55073 59003
AAXX 03061 76612 32958 01701 10153 20058 38487 40122 51006 90550 333 10280 20055 30/// 55098 21236 58002
AAXX 03061 76625 32960 00903 10151 20026 38156 40090 52011 90530 333 10280 20080 30/// 55080 58007
AAXX 03061 76632 31950 00705 10110 20000 37647 40090 5//// 70500 90540 333 10200 20082 30/// 55092 59003
AAXX 03061 76644 32350 10901 10192 20168 30203 40215 52001 81200 90550 333 10294 20170 30/// 55089 21124 561// 58005 81810
AAXX 03061 76654 31956 03602 10228 20205 30163 40167 52009 70544 90550 333 10294 20210 30/// 55090 21070 58009
AAXX 03061 76665 32958 01801 10121 20084 38135 40116 52001 90550 333 10290 20050 30/// 55080 21283 58001
AAXX 03061 76680 31956 02302 10122 21017 37767 40120 54000 70400 90550 333 10243 30065 30/// 55009 20774 59001
AAXX 03061 76685 32950 00601 10108 21019 37896 40125 52014 90550 333 10250 20032 30/// 55104 58011
AAXX 03061 76726 32968 03601 10170 21006 38406 40098 52004 90535 333 10282 20110 30/// 55/// 58001
AAXX 03061 76762 31602 20000 10167 20151 38774 40127 52001 70300 82400 90535 333 10302 20098 30/// 55096 21760 56400 58000 82638
AAXX 03061 76775 32960 00501 10107 20030 38544 40159 52004 90545 333 10296 20042 30/// 55084 59001
AAXX 03061 76805 32960 03301 10233 20229 30145 40149 50004 90545 333 10315 20215 30/// 55096 21049 58001
AAXX 03061 76845 32930 00401 10060 20052 37965 40175 58004 90545 333 10220 20004 30/// 55074 59003
AAXX 03064 81401 06/// /0000 10229 20221 30085 40091 60001 333 55/// 60007 59006 7//// 555 60005
AAXX 03064 81408 06/// /3301 10214 2//// 30085 40093 60001 333 55/// 60007 59005 7//// 555 60005
AAXX 03061 02807 47999 62805 11008 21030 39615 49794 700// 86/// 90600 333 10012 21008 3////
AAXX 03061 02917 47499 72504 11001 21020 39772 49894 700// 87/// 90600 333 10022 21003 3////
AAXX 03061 02741 37999 02303 11002 21028 39952 49968 54002 70000 90539 333 10005 21016 3/107
AAXX 03061 02755 37599 72402 11011 21024 39784 49879 52016 70000 87/// 90539 333 10006 21020 3////
AAXX 03061 02805 17999 02805 11025 21050 39650 49780 52023 60032 70000 90539 333 10011 21025 3/106
AAXX 03061 02836 17899 72903 11004 21017 39594 49813 52028 69992 70087 87/// 90539 333 10011 21004 3/102 4/004
AAXX 03061 02845 47999 72703 11009 21009 39586 49831 52031 72176 83/// 90539 333 10015 21009 3/102 4/998
AAXX 03061 02849 47459 83005 10000 21002 39532 49800 52027 77187 88/// 90539 333 10014 20000 3////
AAXX 03061 02866 47272 72806 10002 20002 39688 49835 52026 77176 83/// 90539 333 10011 21002 3/101 4/003
AAXX 03061 02924 47483 12301 11019 21020 39719 49917 52018 70000 81/// 90539 333 10009 21022 3/106
AAXX 03061 02926 37981 02102 10004 21013 39929 49942 51011 700// 90600 333 10031 20002 3/105
AAXX 03061 02935 37499 72602 10001 21015 39740 49913 52018 70000 87/// 90539 333 10011 21011 3/104
AAXX 03061 02939 17383 82405 10001 21005 39692 49883 52012 60022 72287 88/// 90539 333 10023 20000 3/101 4/003
AAXX 03061 02947 47584 82605 10014 21015 49923 52015 70020 88/// 90551 333 10037 20002
AAXX 03061 02963 32582 12104 11003 21019 49954 51012 70200 81500 333 1//// 2//// 30103
AAXX 03061 02974 12599 42404 11004 21013 39899 49965 52019 69982 70211 84500 333 10028 21006 34102
AAXX 03061 02976 46/// /2807 10027 20002 39939 49955 52023 90539 333 10040 20020 3////
AAXX 03061 02981 37983 02510 10042 21011 39969 49978 52010 70000 90539 333 10048 20030 3////
AAXX 03061 02982 46/// /2813 10040 21008 39969 49977 52017 90539 333 10056 20034 3////
AAXX 03061 02807 NIL
AAXX 03061 02897 NIL
AAXX 03061 02913 NIL
AAXX 03061 02917 NIL
AAXX 03061 02944 NIL
AAXX 03061 02944 47599 72305 10006 21012 39795 49942 700// 87/// 90600 333 10016 21001 3////
AAXX 03061 02947 47/99 82605 10014 21015 49923 52015 70020 88/// 90551 333 10037 20002 3////
AAXX 03061 02913 47999 02303 11014 21024 39849 49901 700// 333 10004 21021 3////
AAXX 03061 02897 47699 72505 11004 21020 39684 49864 700// 87/// 90600 333 10013 21012 3////
AAXX 03061 01238 41X00 91519 11053 21064 38636 49739 58061 73983 333 21071 44/// 91125
AAXX 03061 01001 11570 53609 11073 21119 39837 49849 55006 60002 70222 82160 333 21074 48999 70001 91114
BBXX CG2960 03064 99453 70814 46/// /2011 10012 21018 40320 58005 7//// 8//// 22222 00074 2////
BBXX CG2350 03064 99433 70798 46/// /2702 10003 21016 40346 58003 7//// 8//// 22200 0//// 2////
BBXX CG2958 03064 99487 71235 46/// /3006 10040 20026 40347 53002 7//// 8//// 22200 0//// 2////
BBXX VCLM 03064 99563 70596 46/// /2828 11067 21095 40183 55005 7//// 8//// 22273 00009 2////
BBXX CGJV 03064 99459 70594 46/// /0116 10029 21009 40276 50004 7//// 8//// 22262 00072 2////
BBXX VCSZ 03064 99474 70526 46/// /0311 10013 20003 40272 51006 7//// 8//// 22241 0//// 2////
BBXX CGDX 03064 99468 70712 46/// /1301 11005 21032 40340 53023 7//// 8//// 22200 0//// 2////
BBXX CGUM 03064 99447 70636 46/// /3403 10010 20007 40287 56001 7//// 8//// 22200 0//// 2////
BBXX CGJK 03064 99484 71234 46/// /0204 10028 20019 40336 54000 7//// 8//// 22200 0//// 2////
BBXX CGBN 03064 99447 70636 46/// /3204 10015 20008 40272 56001 7//// 8//// 22200 0//// 2////
BBXX CGBR 03064 99536 71305 46/// /0710 10074 20073 40357 58002 7//// 8//// 22200 0//// 2////
BBXX CGDR 03064 99522 71282 46/// /1204 10045 20044 40368 56006 7//// 8//// 22200 0//// 2////
BBXX CGHL 03064 99476 70527 46/// /3602 10014 21027 40279 51008 7//// 8//// 22200 0//// 2////
BBXX VCBW 03064 99485 70685 46/// /3611 11035 21067 40337 52022 7//// 8//// 22200 0//// 2////
BBXX VCRG 03064 99474 70619 46/// /2805 10007 21034 40305 51011 7//// 8//// 22200 0//// 2////
BBXX CGTF 03064 99476 70527 46/// /3202 10013 21027 40279 51008 7//// 8//// 22200 0//// 2////
BBXX VRYO3 03064 99515 70465 46/// /1022 10022 20031 40234 53020 7//// 8//// 22264 00082 2////
BBXX VAAZ 03064 99512 70498 46/// /2814 11008 21046 40254 53001 7//// 8//// 22281 0//// 2////
BBXX VAAP 03064 99465 70599 46/// /3312 10022 21018 40276 51005 7//// 8//// 22283 0//// 2////
BBXX CG2965 03064 99487 71235 46/// /3006 10041 20022 40340 51003 7//// 8//// 22200 0//// 2////
BBXX CGSB 03064 99468 70712 46/// /1402 11003 21035 40340 53023 7//// 8//// 22200 0//// 2////
BBXX VOKJ 03064 99467 70714 46/// /2907 11019 21048 40340 53014 7//// 8//// 22213 0//// 2////
BBXX VOPP 03064 99456 70735 46/// /2805 11028 21072 4//// 5//// 7//// 8//// 22200 0//// 2////
BBXX CGDG 03064 99426 70497 46/// /1004 10086 20111 40199 56022 7//// 8//// 22271 00074 2////
BBXX CGBY 03064 99487 71235 46/// /3005 10034 20015 40338 53002 7//// 8//// 22200 0//// 2////
BBXX VCWL 03064 99468 70712 46/// /1401 11008 21037 40340 53023 7//// 8//// 22200 0//// 2////
BBXX 3FZK3 03064 99355 11294 46/// /2918 10103 20053 40115 55000 7//// 8//// 22200 0//// 2////
AAXX 03064 78958 11460 80000 10246 20245 30099 40109 60021 76082 888/// 333 10298 20239 59002 83818 87635
AAXX 03064 78016 11564 80108 10216 20171 30200 40204 57011 69901 71682 8387/ 333 10229 20205 79999 90930
AAXX 03063 91802 NIL
AAXX 03063 91809 NIL
AAXX 03063 91831 36/// /3403 10236 20227 40124 57005
AAXX 03063 91841 16/// /0603 10225 20199 3//// 5//// 69961
AAXX 03063 91843 11498 70805 10250 20237 40110 53013 60051 70382 82231 333 56299 82810 84362 86079
AAXX 03063 91848 36/// /0805 10238 20223 40097 57022
AAXX 03064 78970 11458 70807 10242 20237 30087 40112 6///1 78082 8587/ 333 02299 10317 20236 58006 83814 83638 85458 90966
AAXX 03064 78962 11463 80607 10238 20213 30105 40113 60041 71686 85878 333 02299 10307 20228 58000 83815 83638 85458 90926
AAXX 03061 89061 379// 03101 11004 21009 39994 40001 52020 70074 333 91002 91104
BBXX VRYO3 03064 99515 70465 46/// /1022 10022 20031 40234 53020 7//// 8//// 22264 00082 2////
BBXX CGBN 03064 99447 70636 46/// /3204 10015 20008 40272 56001 7//// 8//// 22200 0//// 2////
AAXX 03064 78016 11564 80108 10216 20171 30200 40204 57011 69901 71682 8387/ 333 10229 20205 79999 90930
BBXX 3FZK3 03064 99355 11294 46/// /2918 10103 20053 40115 55000 7//// 8//// 22200 0//// 2////
BBXX VCLM 03064 99563 70596 46/// /2828 11067 21095 40183 55005 7//// 8//// 22273 00009 2////
BBXX CGDX 03064 99468 70712 46/// /1301 11005 21032 40340 53023 7//// 8//// 22200 0//// 2////
BBXX VAAP 03064 99465 70599 46/// /3312 10022 21018 40276 51005 7//// 8//// 22283 0//// 2////
BBXX CGDG 03064 99426 70497 46/// /1004 10086 20111 40199 56022 7//// 8//// 22271 00074 2////
BBXX CGBR 03064 99536 71305 46/// /0710 10074 20073 40357 58002 7//// 8//// 22200 0//// 2////
BBXX VCWL 03064 99468 70712 46/// /1401 11008 21037 40340 53023 7//// 8//// 22200 0//// 2////
BBXX VOPP 03064 99456 70735 46/// /2805 11028 21072 4//// 5//// 7//// 8//// 22200 0//// 2////
BBXX CGHL 03064 99476 70527 46/// /3602 10014 21027 40279 51008 7//// 8//// 22200 0//// 2////
BBXX CGBY 03064 99487 71235 46/// /3005 10034 20015 40338 53002 7//// 8//// 22200 0//// 2////
BBXX CG2958 03064 99487 71235 46/// /3006 10040 20026 40347 53002 7//// 8//// 22200 0//// 2////
BBXX CGTF 03064 99476 70527 46/// /3202 10013 21027 40279 51008 7//// 8//// 22200 0//// 2////
BBXX VCBW 03064 99485 70685 46/// /3611 11035 21067 40337 52022 7//// 8//// 22200 0//// 2////
BBXX VOKJ 03064 99467 70714 46/// /2907 11019 21048 40340 53014 7//// 8//// 22213 0//// 2////
BBXX CGSB 03064 99468 70712 46/// /1402 11003 21035 40340 53023 7//// 8//// 22200 0//// 2////
BBXX CG2965 03064 99487 71235 46/// /3006 10041 20022 40340 51003 7//// 8//// 22200 0//// 2////
BBXX VCRG 03064 99474 70619 46/// /2805 10007 21034 40305 51011 7//// 8//// 22200 0//// 2////
BBXX CGJK 03064 99484 71234 46/// /0204 10028 20019 40336 54000 7//// 8//// 22200 0//// 2////
BBXX CGJV 03064 99459 70594 46/// /0116 10029 21009 40276 50004 7//// 8//// 22262 00072 2////
BBXX VAAZ 03064 99512 70498 46/// /2814 11008 21046 40254 53001 7//// 8//// 22281 0//// 2////
BBXX CGUM 03064 99447 70636 46/// /3403 10010 20007 40287 56001 7//// 8//// 22200 0//// 2////
BBXX CGDT 03064 99490 70669 46/// /3604 11026 21071 40330 53016 7//// 8//// 22200 0//// 2////
BBXX VXKF 03064 99467 70598 46/// /3612 10017 21031 40277 55001 7//// 8//// 22212 0//// 2////
AAXX 03064 78958 11460 80000 10246 20245 30099 40109 60021 76082 888/// 333 10298 20239 59002 83818 87635
BBXX CGDR 03064 99522 71282 46/// /1204 10045 20044 40368 56006 7//// 8//// 22200 0//// 2////
BBXX VCSZ 03064 99474 70526 46/// /0311 10013 20003 40272 51006 7//// 8//// 22241 0//// 2////
BBXX C6SI6 03064 99568 71524 46/// /1621 10042 20035 40227 51002 7//// 8//// 22253 0//// 2////
AAXX 03064 60101 12458 33506 10084 20050 40227 55000 60054 83200 333 20070 83816
AAXX 03064 60135 12450 51303 10069 20055 40233 56001 60054 85500 333 20069 30203 83710 84615
AAXX 03064 60150 32960 62207 10221 20047 39547 40182 58005 84082 333 84360 84070
AAXX 03064 60155 12458 334// 10143 20083 40228 56001 60014 83800 333 20143 83816
AAXX 03064 60156 15460 53503 10094 20080 40250 58001 69934 85200 333 20083 85816
AAXX 03064 60230 11457 80406 10108 20099 40242 58001 69924 76162 888// 333 20092 83813 86826
AAXX 03064 60096 NIL
AAXX 03064 60115 NIL
AAXX 03064 60252 NIL
AAXX 03064 60060 32456 50410 10170 20128 40216 5//// 85500 333 20160 30010 85616 95300
AAXX 03064 60105 11962 03206 10100 20061 40231 5//// 60054 7006/ 333 20095 31005
AAXX 03064 60127 1/560 42706 10088 20055 39611 40217 5/007 60054 84200 333 20085 32007 84823
AAXX 03064 60141 12558 52611 10079 20059 39552 40231 55000 60144 83230 333 20077 83826 83360
AAXX 03064 60190 11565 82005 10096 20083 40238 56005 60044 7258/ 882// 333 20096 32007 88826
AAXX 03064 60191 11565 82404 10095 20084 40246 5//// 60054 7258/ 882// 333 20090 32001 88826
AAXX 03064 60210 32570 10000 10039 20023 38975 48485 57025 81100 333 20038 81823 31102
AAXX 03064 60265 32970 03111 10107 21004 38875 48499 56011 333 20105
AAXX 03064 60106 NIL
AAXX 03064 60107 NIL
AAXX 03064 60185 NIL
AAXX 03064 60195 NIL
AAXX 03064 60220 NIL
AAXX 03064 60318 NIL
AAXX 03064 78970 11458 70807 10242 20237 30087 40112 6///1 78082 8587/ 333 02299 10317 20236 58006 83814 83638 85458 90966
AAXX 03064 78962 11463 80607 10238 20213 30105 40113 60041 71686 85878 333 02299 10307 20228 58000 83815 83638 85458 90926
AAXX 03061 11812 36/// /1102 11036 21037 39478 42777 54000 333 21038 3////
AAXX 03061 11813 11008 80000 11016 21016 39846 40208 51003 69912 74254 886// 333 21019 35102 70013 88701 93608
AAXX 03061 11816 11350 80801 11006 21012 30036 40205 51005 60002 71052 886// 333 21007 35101 79999 84707 88712 93404
AAXX 03061 11819 36/// /0000 11009 21012 39980 40204 57001 333 21012 3/101
AAXX 03061 11826 11220 89901 11004 21014 39995 40202 50005 60002 71022 886// 333 21007 30101 50002 70000 88704
AAXX 03061 11841 11250 82402 10004 21009 39809 40195 53001 60002 71022 886// 333 20004 30000 70000 88706
AAXX 03061 11855 11250 81001 11002 21012 30037 40208 52005 60002 71022 886// 333 21011 30101 79999 88706
AAXX 03061 11856 36/// /1103 11015 21021 39875 40205 57001 333 21020 3/102
AAXX 03061 11858 11420 89901 11005 21012 30048 40205 55002 60002 71022 886// 333 21010 31101 79999 88710 93401
AAXX 03061 11867 11118 82202 11001 21017 39877 40203 52007 60002 71022 886// 333 21002 30100 70000 88703
AAXX 03061 11880 11520 89901 11005 21010 30029 40206 54000 69902 71022 885// 333 21017 31102 79999 88620
AAXX 03061 11900 16/// /2401 10005 21009 39861 40205 52002 60002 333 20005 3//// 79999
AAXX 03061 11903 11235 89902 10009 20008 39810 40200 53003 60002 71022 886// 333 20008 30001 70000 82704 88705
AAXX 03061 11916 12686 62210 11012 21031 37942 48449 57006 60002 86071 333 21014 3//// 41998 70000 86440 444 77084
AAXX 03061 11918 11457 79902 11009 21012 39348 42778 58002 60002 71022 82570 333 21011 30102 70000 82610 86361
AAXX 03061 11927 11012 80601 11012 21015 39939 40210 53002 60002 71022 886// 333 21020 34102 70000 84701 88705
AAXX 03061 11930 12/88 62905 11040 21045 37352 47032 58002 60002 85581 333 21048 3//// 44010 70000 856// 444 56//9 87091
AAXX 03061 11933 12586 69901 10042 20007 38651 48469 53002 60002 85842 333 21004 34104 70000 81626 84636 9514/ 444 67092
AAXX 03061 11934 11/02 91201 11023 21026 39353 42784 56001 60002 74922 333 21039 34107 79999 89/01 93501
AAXX 03061 11938 12680 59901 11024 21028 39103 42777 58006 60002 85500 333 21039 34104 70000 85640 9513/
AAXX 03061 11952 16/// /9902 11021 21025 39345 42785 54000 60002 333 21034 3/104 70000
AAXX 03061 11958 36/// /2210 10031 20007 38738 48472 57001 333 21028 3////
AAXX 03061 11968 11108 81901 11012 21020 39918 40209 55000 69902 74654 886// 333 21026 3/102 43002 79999 88703 93401
AAXX 03061 11976 11215 80000 10002 21009 39934 40206 56003 60002 71022 886// 333 21011 30101 70000 88705
AAXX 03061 11978 11215 82601 10000 21010 30073 40208 52004 60002 71022 886// 333 21017 30102 70000 88706
AAXX 03061 11993 11517 73101 11009 21013 39987 40211 53001 60002 71022 87500 333 21009 30103 70000 87628
BBXX BATEU06 03064 99486 70686 46/// /0014 11043 21081 40332 52026 22214 00024
AAXX 03064 91348 11474 80803 10289 20242 30019 40071 53003 60021 70282 83101 333 561/9 70180 555 90306 /
AAXX 03061 89061 379// 03101 11004 21009 39994 40001 52020 70074 333 91002 91104
AAXX 03064 64500 32460 71608 10264 20240 30088 40101 875// 333 02450 20245 50201 55055 59001 84610 87633
AAXX 03064 63980 12482 63011 10299 20233 40108 69904 84802 333 20247 59015 50660 55109 84819 84075 94330 91121
AAXX 03064 60285 32456 20210 10156 20143 40217 5//// 82500 333 20134 82616
AAXX 03064 60340 NIL
BBXX C6SI6 03064 99568 71524 46/// /1621 10042 20035 40227 51002 7//// 8//// 22253 0//// 2////
BBXX VXKF 03064 99467 70598 46/// /3612 10017 21031 40277 55001 7//// 8//// 22212 0//// 2////
BBXX CGDT 03064 99490 70669 46/// /3604 11026 21071 40330 53016 7//// 8//// 22200 0//// 2////
BBXX VOLG 03064 99/// ///// 46/// /0820 10042 20003 40278 57002 7//// 8//// 22200 0//// 2////
BBXX VOLG 03064 99/// ///// 46/// /0820 10042 20003 40278 57002 7//// 8//// 22200 0//// 2////
AAXX 03061 45007 12962 03403 10185 20014 30150 40159 56029 60001 333 59002
AAXX 03061 45007 12962 03403 10185 20014 30150 40159 56029 60001 333 59002
AAXX 03061 78458 21466 40000 10220 20213 40170 57011 70362 83230 333 10289 20204 31/// 56000 58016 60177 83816
AAXX 03061 78460 31460 79902 10234 20204 40162 58009 70544 83570 333 10306 20170 30/// 56770 58013 83616 86358
AAXX 03061 78479 32466 20403 10230 20204 40141 58007 82200 333 10294 20218 30/// 561000 58015 82818
AAXX 03061 78485 32466 20000 10201 20182 40153 57009 82200 333 10308 20198 30/// 56000 58010 82816
AAXX 03061 78486 32466 13502 10235 20213 40136 54000 81200 333 10308 20222 30/// 56000 81818
AAXX 03064 91324 11474 81308 10300 20258 30048 40050 60021 70262 83231 333 56399 70020 83818 84463 555 90306
AAXX 03064 91329 32474 80911 10300 20261 30091 40094 8411/ 333 56299 70000 84818 88462 555 90306
AAXX 03064 91336 11474 81207 10289 20250 30084 40087 60021 70282 82201 333 562/9 70335 82818 88075 555 90306
AAXX 03064 91339 11474 80808 10283 20246 30044 40050 69981 70282 8522/ 333 56299 70008 85818 88462 555 90306
AAXX 03064 91320 32474 80714 10317 20278 30071 40076 83207 333 562/9 70000 83816 85274 555 90306
AAXX 03061 78458 21466 40000 10220 20213 40170 57011 70362 83230 333 10289 20204 31/// 56000 58016 60177 83816
AAXX 03061 78460 31460 79902 10234 20204 40162 58009 70544 83570 333 10306 20170 30/// 56770 58013 83616 86358
AAXX 03061 78479 32466 20403 10230 20204 40141 58007 82200 333 10294 20218 30/// 561000 58015 82818
AAXX 03061 78485 32466 20000 10201 20182 40153 57009 82200 333 10308 20198 30/// 56000 58010 82816
AAXX 03061 78486 32466 13502 10235 20213 40136 54000 81200 333 10308 20222 30/// 56000 81818
AAXX 03064 91324 11474 81308 10300 20258 30048 40050 60021 70262 83231 333 56399 70020 83818 84463 555 90306
AAXX 03064 91329 32474 80911 10300 20261 30091 40094 8411/ 333 56299 70000 84818 88462 555 90306
AAXX 03064 91336 11474 81207 10289 20250 30084 40087 60021 70282 82201 333 562/9 70335 82818 88075 555 90306
AAXX 03064 91339 11474 80808 10283 20246 30044 40050 69981 70282 8522/ 333 56299 70008 85818 88462 555 90306
AAXX 03064 91320 32474 80714 10317 20278 30071 40076 83207 333 562/9 70000 83816 85274 555 90306
AAXX 03061 01160 41989 01305 10036 21039 39755 49772 58034 70200 333 20016 91111
AAXX 03061 01397 16/// /1103 11035 21040 39437 49874 58053 60002 333 21100 70002 91105
AAXX 03061 01026 11587 61905 10001 21031 39660 49798 57003 60012 70282 85860 333 21012 47002 70111 91109
AAXX 03061 01288 11565 81611 11023 21057 39071 49808 56052 60002 78532 883// 333 21110 42998 70002 91122
AAXX 03064 71805 04460 81403 10033 20024 30258 40267 53004 60002 700// 333 10045 20025 30101 55000 60007 70000 90710 91106 555 60005
AAXX 03061 06431 NIL
AAXX 03061 06432 17/59 /2111 10064 20050 30001 40078 56035 60022 76154 333 20052 3/003 81/13 83/17 85/20 91117 91212
AAXX 03061 06449 11460 72110 10054 20037 39863 40092 56032 69922 76022 87400 333 20045 32003 84613 85637 91116 91211
AAXX 03061 06450 11458 82108 10069 20048 30039 40055 56041 60022 72162 885// 333 20056 32004 85614 88620 91117 91210
AAXX 03061 06458 37463 /2111 10063 20046 39925 40079 56035 75254 333 20049 3/003 83/19 85/23 87/46 91115 91211
AAXX 03061 06465 17663 /2008 10065 20036 30004 40070 56037 69922 76165 333 20049 3/002 83/43 87/50 91112 91208
AAXX 03061 06478 12681 72009 10053 20020 39870 40091 57032 60002 875// 333 20036 30003 86644 91114 91210
AAXX 03061 06496 35370 /2106 10025 20011 39428 40108 56027 333 20003 3/100 81/08 83/13 85/16 91113 91208
AAXX 03061 06400 11461 72111 10080 20069 30029 40040 56036 69922 76022 875// 333 20045 31005 83710 87614 91116 91212
AAXX 03061 06428 17458 /2110 10068 20054 30009 40058 56037 60022 76154 333 20054 3/002 81/12 83/16 87/20 91116 91210
AAXX 03061 06451 11460 82110 10063 20043 30001 40068 56037 69982 76162 875// 333 20042 32004 83613 85617 91116 91211
AAXX 03061 06456 11358 82110 10043 20031 39735 40105 56030 69902 76062 875// 333 20032 31001 81709 83711 85616 91116 91210
AAXX 03061 06476 15263 82206 10020 20009 39453 40124 56024 60002 333 21001 3/101 81/05 84/07 85/09 91115 91206
AAXX 03061 06479 11661 82108 10061 20036 39992 40072 56037 69922 76022 8753/ 333 20040 32001 84646 86656 91113 91208
AAXX 03061 06490 15780 42007 10031 20011 39534 40109 56030 60002 333 20015 3/001 84/50 91112 91208
AAXX 03061 06590 12259 72105 10031 20027 39688 40146 57019 60002 876// 333 20007 31101 84705 86707 91110 91206
AAXX 03064 16022 11/00 92022 10002 20002 37842 48479 56003 60002 74544 333 20001 30/// 55024 2//// 89/00
AAXX 03061 06407 11462 72110 10072 20056 30031 40037 56039 69922 76162 875// 333 20036 32003 87612 91117 91213
AAXX 03061 06447 NIL
AAXX 03064 16021 11/01 91411 10008 21007 37971 48488 57008 69962 77076 333 20004 47001 55/// 2//// 89/01 992802 993101
AAXX 03064 16022 NIL
AAXX 03064 16033 12560 80000 10030 20006 38782 48489 56002 60002 885// 333 20012 31/// 55/// 2//// 88630
AAXX 03064 16040 11565 80701 10070 20061 39256 42784 5//// 60002 751// 882// 333 20068 32/// 55/// 2//// 88826
AAXX 03064 16052 11/08 92307 11084 21084 36603 47033 56005 60002 74542 333 21084 49999 55064 23592 89/03
AAXX 03064 16061 11957 50000 10052 20043 39344 42792 57009 60002 71022 85000 333 20052 30/// 55000 2//// 85362
AAXX 03064 16098 NIL
AAXX 03064 16138 11/02 90000 10058 20046 30184 40195 56002 60002 745// 333 20042 31/// 55/// 2//// 89/01
AAXX 03064 16148 11/03 92301 10009 21012 30182 40194 56007 60002 74544 333 20006 30/// 55050 2//// 89/01
AAXX 03064 16168 NIL
AAXX 03064 16172 11530 70000 10082 20058 39917 40220 56006 60012 71064 87800 333 20048 31/// 55/// 2//// 83823 86626
AAXX 03064 16179 11580 61606 10114 20071 39519 42812 56004 69942 70262 85270 333 20112 32/// 85825
AAXX 03064 16224 11250 61210 10120 20097 39890 40208 56010 60022 71022 86200 333 20110 32/// 55000 2//// 82706 86815
AAXX 03064 16232 12598 22306 10142 20075 30151 40204 56002 60002 81130 333 20130 30/// 55054 20607 55300 81825 555 0214/
AAXX 03064 16245 11458 60905 10140 20119 30182 40208 56005 69962 71061 86200 333 20134 32/// 55/// 2//// 86816
AAXX 03064 16253 11406 61704 10100 20074 30214 40227 56004 60022 74664 83630 333 20084 32/// 55000 20228 83710 85356
AAXX 03064 16258 12965 22510 10084 20052 39230 42830 54000 60002 82030 333 20080 30/// 55/// 2//// 82360
AAXX 03064 16263 11462 42611 10066 20044 38972 48533 56004 60002 70241 84200 333 20062 32/// 55/// 2//// 84610 444 87001
AAXX 03064 16294 11497 83600 10128 20081 30040 40234 56003 69982 76161 882// 333 20128 32/// 55/// 2//// 84816 84820 555 0////
AAXX 03064 16337 12598 30000 10120 20106 39655 40227 57006 60002 83100 333 20118 30/// 55/// 2//// 83820 555 0216/
AAXX 03064 16344 12960 00000 10030 20030 38361 48543 56011 60002 333 20030 30/// 55080 21457 95000 95100
AAXX 03064 16434 11/01 91803 10076 20076 39030 48529 56004 60012 747// 333 20076 32/// 55/// 2//// 89/00 95090 95190
AAXX 03064 16450 11/00 92405 10090 20090 39124 48584 57006 60002 74544 333 20088 31/// 55/// 2//// 89/00
AAXX 03064 16459 11550 12604 10074 20068 30210 40247 53005 60002 71000 81500 333 20070 30/// 55/// 2//// 81625
AAXX 03064 16546 11230 43303 10076 20061 30176 40205 53003 60002 71000 84600 333 20076 30/// 55/// 2//// 81705 83708
AAXX 03064 16564 12497 10405 10160 20124 30061 40202 53001 60002 81100 333 20156 31/// 55/// 2//// 81812 555 0////
AAXX 03064 16008 12560 82105 10026 20026 38520 48480 56004 60002 885// 333 20026 30/// 55/// 2//// 88630
AAXX 03064 16084 11005 80000 10058 20043 30023 40193 56007 60032 74464 886// 333 20058 32/// 55000 20086 86701 83703
AAXX 03064 16088 11308 81201 10065 20059 30080 40200 58010 60022 76064 882// 333 20064 32/// 55/// 2//// 83809 85830
AAXX 03064 16110 11596 80803 10124 20105 30184 40189 57008 60002 71022 886// 333 20110 30/// 55000 20052 88720 555 0////
AAXX 03064 16134 11/00 92219 10012 20002 37812 48490 58007 60002 74544 333 20012 30/// 55/// 2//// 89/00 95090 95190
AAXX 03064 16153 11597 32006 10117 20074 39910 40175 58009 60102 70361 83200 333 20110 32/// 55000 2//// 83820 555 0////
AAXX 03064 16158 11558 60000 10084 20075 30185 40193 56006 69962 71022 83130 333 20080 31/// 55075 2//// 83830 83358
AAXX 03064 16206 NIL
AAXX 03064 16219 NIL
AAXX 03064 16252 12668 30000 10090 20076 39290 42843 58003 60002 82041 333 20086 31/// 55038 2//// 82340 95067
AAXX 03064 16280 12497 31606 10146 20130 39994 40215 55002 60002 83900 333 20146 32/// 55010 2//// 81815 81918 555 0213/
AAXX 03064 16310 12597 51307 10128 20117 30000 40223 56004 60002 82230 333 20122 30/// 55032 2//// 55300 82625 83357 555 0100/
AAXX 03064 16320 11956 01611 10100 20100 30222 40234 55002 60002 71000 333 20096 31005 55083 20829 55300 555 0213/
AAXX 03064 16325 11996 02607 10092 20063 30210 40224 56004 60002 71000 333 20078 31/// 55/// 2//// 98056 555 0100/
AAXX 03064 16360 12597 11402 10140 20104 30095 40230 56005 60002 81600 333 20122 30/// 55087 2//// 81720 555 0100/
AAXX 03064 16400 11497 82413 10132 20104 39950 40241 53010 60002 760// 86270 333 20132 32/// 55070 2//// 55300 86815 84358 555 0215/
AAXX 03064 16420 12397 22502 10132 20115 30167 40233 55001 60002 81201 333 20132 30/// 55083 2//// 81808 555 0100/
AAXX 03064 16429 11462 61107 10130 20122 30211 40223 53001 60062 79596 86930 333 20128 32/// 55072 2//// 55300 83916 83818
AAXX 03064 16470 NIL
AAXX 03064 16480 12497 33002 10132 20113 30167 40229 56006 60002 81100 333 20130 30/// 55062 2//// 55300 83815 555 0////
AAXX 03064 16522 12498 32007 10160 20137 39957 40198 53001 60002 83200 333 20160 30/// 55082 2//// 55300 83815 555 0////
AAXX 03064 16539 NIL
AAXX 03064 16550 12998 02708 10130 20075 30012 40192 56008 60002 333 20128 30/// 55088 2//// 555 0200/
AAXX 03064 16045 NIL
AAXX 03064 16090 11406 80000 10076 20073 30111 40194 56010 60072 76066 885// 333 20074 32/// 55003 2//// 84715 85630
AAXX 03064 16149 11820 41601 10050 20035 30182 40198 56005 60002 72840 84030 333 20018 30/// 55/// 2//// 84358
AAXX 03064 16261 NIL
AAXX 03064 16453 11997 00906 10150 20125 30163 40241 56002 60002 702// 333 20146 30/// 55086 2//// 55300 555 0100/
AAXX 03064 16560 11120 33103 10082 20054 30195 40201 51002 60002 71040 83600 333 20076 31007 55074 20995 82702
BBXX 46042 03061 99368 71224 46/// /3410 10124 30150 40150 51003 90550 22200 00128 11607 20703 331// 41606 70035 333 91212 555 11105 22111 30518 43413 60549 338098 342096 344102 344104 344100 344105
BBXX 46089 03061 99459 71258 46/// /3509 10094 20059 40336 54000 90550 22200 00101 10908 20604 332// 40907 70039 333 91211 555 11095 22100 30528 43611 60549 350089 349086 354089 353088 356083 359081
BBXX 41010 03061 99289 70785 46/// /0509 10215 40261 56010 90550 22200 00243 11105 20604 300// 41103 70024 333 91212 555 11099 22103
BBXX 41009 03061 99285 70802 46/// /0608 10224 20135 40266 58007 90550 22200 00257 10604 20604 300// 41102 70020 333 91211 555 11089 22093
BBXX 44011 03061 99411 70666 46/// /0302 10080 20027 40273 58003 90550 22200 00100 11104 20401 3//// 41104 70018 333 91203 555 11024 22024 30540 42204 60549 036024 057025 044023 044016 028016 358016
BBXX 41046 03061 99238 70683 46/// /0208 10245 20196 40160 58013 90550 22200 00264 10905 20503 300// 40903 70023 333 91210 555 11089 22094 30501 40111 60549 017085 012085 013086 016089 009092 013086 80110 90501
BBXX 51000 03061 99235 71541 46/// /0908 10235 40201 53019 90550 22200 00236 10906 20603 307// 40906 70032 333 91209 555 11080 22085 30508 40911 60549 088075 084082 083079 081083 087083 087080
BBXX 51101 03061 99243 71621 46/// /0908 10224 20160 40192 53015 90550 22200 00244 11206 20602 302// 41206 70030 333 91209 555 11080 22084 30510 40810 60549 093076 105071 094073 085071 086074 083072
BBXX 46061 03061 99602 71468 46/// /0503 10039 40234 51025 90550 22200 00048 11104 20301 300// 41104 70022 333 91204 555 11033 22034 30456 40306 60549 050033 041029 031027 034025 035031 031038
AAXX 03064 61970 16/// ///// 10303 20254 40109 60004 333 20261 55/// 59021 555 60005
AAXX 03064 61972 16/// /3302 10274 20228 40112 60004 333 20219 55/// 59005 90710 91105 555 60005
AAXX 03064 61980 12565 20817 10276 20204 40123 60054 82800 333 01917 20204 55009 59016 82826 90710 91121 92437 555 60005
AAXX 03064 67005 12575 53607 10293 20228 40112 60024 83832 333 02319 20245 55062 59018 83822 83080 90710 91114 555 60005
AAXX 03064 61902 11360 81310 10213 20202 40146 60034 78082 888// 333 20209 59002 82708 84812 88624
AAXX 03064 91487 NIL
AAXX 03064 91490 11599 21216 10263 2023/ 40092 60001 70200 82100 333 563//
AAXX 03064 91533 NIL
AAXX 03064 91601 NIL
AAXX 03064 91610 11499 40916 10290 20238 40059 53016 70300 82208 333 562/9
AAXX 03064 91623 NIL
AAXX 03064 91629 NIL
AAXX 03064 91701 11499 31014 10271 2024/ 4//// 60001 70222 84200 333 562//
BBXX 44008 03061 99405 70692 46/// /3412 10098 20024 90550 555 11127 22135
BBXX 44172 03061 99445 70634 46/// ///// 1//// 90601 22200 00082 11204 21002 316// 41203 70021
BBXX 44097 03061 99410 70711 46/// ///// 1//// 90602 22200 00132 10504 20503 316// 41101 70018
BBXX 46247 03061 99378 71228 46/// ///// 1//// 90551 22200 00115 11706 21004 328// 41704 70031
BBXX 46243 03061 99462 71241 46/// ///// 1//// 90559 22200 00092 11306 20904 326// 41303 70028
BBXX 46236 03061 99368 71219 46/// ///// 1//// 90550 22200 00125 11104 20903 329// 41103 70021
BBXX 46229 03061 99438 71246 46/// ///// 1//// 90551 22200 00107 11507 21005 328// 41504 70033
BBXX 46225 03061 99329 71174 46/// ///// 1//// 90544 22200 00162 10802 20802 328// 41201 70010
BBXX 46213 03061 99403 71247 46/// ///// 1//// 90554 22200 00110 11111 21008 334// 41106 70053
BBXX 46215 03061 99352 71209 46/// ///// 1//// 90538 22200 00128 11103 21002 329// 41102 70016
BBXX 46218 03061 99345 71208 46/// ///// 1//// 90602 22200 00136 11704 21003 330// 41703 70021
BBXX 46219 03061 99332 71199 46/// ///// 1//// 90558 22200 00135 11103 21002 331// 41102 70017
BBXX 46224 03061 99332 71175 46/// ///// 1//// 90536 22200 00160 11402 21002 319// 41401 70010
BBXX 46238 03061 99334 71195 46/// ///// 1//// 90550 22200 00138 11803 21002 329// 41802 70014
BBXX 46239 03061 99363 71221 46/// ///// 1//// 90551 22200 00121 11008 21005 329// 41505 70039
BBXX 44099 03061 99369 70757 46/// ///// 1//// 90552 22200 00133 10902 20902 309// 41301 70010
AAXX 03064 78397 111457 70111 10250 20217 30128 40144 60001 78011 87830 333 01990 10315 20223 58005 82818 87632
AAXX 03064 78388 111568 71602 10241 20213 30145 40154 60061 76081 87800 333 01200 10290 20210 58005 81822 86630 90921
AAXX 03064 48601 11559 62209 10311 20243 30072 40076 60001 70522 81241 333 81820 85080
AAXX 03064 48615 11462 70806 10296 20244 30073 40079 60001 70522 83242 333 83818 87074
AAXX 03064 48620 NIL
AAXX 03064 48647 11462 72706 10334 20246 30051 40075 60001 70522 84942 333 81917 83818 87078
AAXX 03064 48650 11462 71907 10305 20247 30060 40078 69921 70522 83942 333 81917 83818 86078
AAXX 03064 48657 11465 73503 10287 20250 30066 40083 60001 70522 83148 333 83818 83366 86276
AAXX 03064 48665 11568 62306 10312 20239 30074 40084 60001 70522 82132 333 82821 86078
AAXX 03064 96413 12470 73207 10267 20218 30063 40089 60041 82131 333 82814 86365
AAXX 03064 96421 11264 83105 10244 20235 30044 40080 60041 76162 8652/ 333 83705 84616 88465
AAXX 03064 96441 11430 82806 10248 20235 30048 40075 60051 76386 8452/ 333 84614 88464
AAXX 03064 96449 11458 82512 10269 20243 30042 40061 69961 76162 8452/ 333 84614 88464
AAXX 03064 96465 12460 72207 10294 20240 30020 40053 6///1 84878 333 83812 85364 87278
AAXX 03064 96471 11472 72504 10311 20261 30045 40048 60001 71522 83948 333 81814 81917 83640 87277
AAXX 03064 96481 12462 71906 10299 20247 30038 40057 69921 8387/ 333 82817 86364
AAXX 03064 96491 11467 72305 10312 20243 30039 40050 60001 70522 82842 333 82815 87078
AAXX 03064 91574 46/// ///// 29079 30426 40432 58011
AAXX 03064 91570 NIL
AAXX 03064 91598 NIL
AAXX 03061 06201 47462 72413 10105 20086 39856 49906 56027 78185 8//// 333 20077 82/10 83/14 86/19 91016 91124 91219
AAXX 03061 06203 47331 82417 10109 20107 39926 49977 55025 76185 8//// 333 20091 81/07 85/11 86/14 91020 91123 91219
AAXX 03061 06204 47364 72517 10111 20092 39903 49953 56031 72385 8//// 333 20089 82/09 86/11 87/14 91020 91123 91219
AAXX 03061 06205 47361 82416 10104 20075 39816 49873 56028 72385 8//// 333 20079 81/09 83/11 85/29 91019 91124 91220
AAXX 03061 06208 47456 82120 10073 20050 39905 49954 56061 75280 8//// 333 20057 85/10 88/13 91025 91126 91220
AAXX 03061 06211 47360 82417 10107 20088 39876 49931 56028 78181 8//// 333 20081 82/09 84/10 86/13 91020 91122 91218
AAXX 03061 06212 47157 82316 1//// 2//// 39899 49962 56041 76185 8//// 333 2//// 81/03 83/04 85/08 91019 91123 91218
AAXX 03061 06235 17356 82116 10082 20068 39968 49968 56051 60052 76285 8//// 333 20072 3/007 70053 81/09 85/11 88/14 91022 91122 91216
AAXX 03061 06240 17462 82013 10069 20059 30008 40003 56045 60012 76185 8//// 333 20039 3/003 70027 85/12 88/15 91018 91118 91213
AAXX 03061 06251 17348 82015 10073 20066 39960 49961 56052 60032 76285 8//// 333 20062 3/006 70040 81/08 84/09 88/11 91019 91122 91217
AAXX 03061 06258 46/// /2117 333 91022 91122 91218
AAXX 03061 06269 17461 82011 10063 20056 30014 40008 56045 60022 76285 8//// 333 20041 3/003 70022 82/10 86/13 88/15 91015 91116 91211
AAXX 03061 06280 17457 82011 10066 20050 39987 49991 56054 69912 78185 8//// 333 20037 3/003 70005 85/14 88/17 91015 91115 91211
AAXX 03061 06310 17461 82116 10079 20064 30015 40025 56041 69942 75186 8//// 333 20065 3/006 70005 84/13 87/16 88/18 91019 91121 91216
AAXX 03061 06344 17359 82012 10070 20057 30020 40013 56043 60022 76280 8//// 333 20058 3/005 70031 82/09 88/11 91018 91118 91212
AAXX 03061 06370 17562 82008 10062 20044 30026 40052 56038 69982 78185 8//// 333 20039 3/003 70009 82/21 83/27 85/31 91012 91113 91209
AAXX 03061 06380 15681 82111 10061 20025 39940 40080 56036 69902 8//// 333 20036 3/003 70021 86/39 87/49 88/50 91015 91116 91212
AAXX 03061 06206 47364 52313 10107 20084 39878 49930 56041 72380 8//// 333 20085 81/08 83/10 85/15 91016 91122 91219
AAXX 03061 06207 47223 8//14 10086 20077 39878 49931 56057 76280 8//// 333 20077 83/05 85/07 86/09 91024 91124 91220
AAXX 03061 06239 47363 82417 10104 20083 3//// 4//// 5//// 76185 8//// 333 20066 81/07 85/10 86/15 91020 91123 91219
AAXX 03061 06252 46/// /2515 10110 20092 39902 49947 56025 222// 00116 10707 333 20085 91018 91121 91218
AAXX 03061 06260 17363 82108 10065 20051 30016 40018 56047 60032 76285 8//// 333 20047 3/004 7//// 81/09 86/11 88/14 91012 91113 91208
AAXX 03061 06270 17462 82012 10066 20052 39972 49972 56055 69912 75885 8//// 333 20045 3/003 70020 85/10 88/13 91017 91121 91212
AAXX 03061 06290 17571 82008 10064 20035 39995 40035 58044 69902 78185 8//// 333 20036 3/003 79999 81/25 85/43 88/50 91011 91112 91208
AAXX 03064 78397 111457 70111 10250 20217 30128 40144 60001 78011 87830 333 01990 10315 20223 58005 82818 87632
AAXX 03064 91573 06/// /0510 10258 20229 39990 40086 53001 60001 333 58002 60007
AAXX 03064 91577 06/// /2303 10272 20215 30064 40084 53004 69921 333 59003 69927
AAXX 03064 91579 06/// /0308 10275 20241 30084 40092 53002 60001 333 58001 60007
AAXX 03064 91582 04470 60510 10272 20230 30062 40096 53004 60002 700// 333 10298 20252 3/024 55/// 60007 70033 90710 91116 555 60005
AAXX 03064 91583 06/// /1104 10276 20223 30078 40093 53001 60001 333 59004 60007
AAXX 03064 91587 06/// ///12 10268 20222 30054 40098 53004 60001 333 59001 60007
AAXX 03064 91590 04786 81808 10320 20179 30043 40084 53002 60002 700// 333 10352 20241 55098 60007 70000 90710 91114 555 60005
AAXX 03064 91592 06/// /0807 10312 20205 30000 40083 53001 60001 333 59002 60007
AAXX 03064 91596 06/// /0714 10259 20218 39994 40102 55000 60001 333 59004 60007
AAXX 03064 78388 111568 71602 10241 20213 30145 40154 60061 76081 87800 333 01200 10290 20210 58005 81822 86630 90921
BBXX 44100 03061 99363 70756 46/// ///// 1//// 90552 22200 00143 11102 21002 309// 41101 70011
BBXX 41110 03061 99341 70777 46/// ///// 1//// 90551 22200 00160 11102 21001 311// 41101 70008
BBXX 42099 03061 99273 70842 46/// ///// 1//// 90557 22200 00245 10603 20603 70017
BBXX 41113 03061 99284 70805 46/// ///// 1//// 90551 22200 00212 10402 20402 309// 41101 70012
BBXX 41112 03061 99307 70813 46/// ///// 1//// 90551 22200 00174 11202 20702 310// 41201 70011
AAXX 03064 68392 36/// /1205 10150 20138 39928 4//// 57091 333 20148 91007 555 10237
AAXX 03064 68386 16/// /1604 10209 20171 39734 48644 52013 60034 333 20202 91008 555 10307 20030 91027
AAXX 03064 13600 12965 00000 10054 20031 30197 40251 54002 60002 333 20030 31///
AAXX 03064 13610 11/00 90000 11004 21031 39830 40273 52012 60002 74522 333 21010 30///
AAXX 03064 13611 11958 31408 10106 20090 30136 40228 54000 60002 71000 83030 333 20078 30/// 83360
AAXX 03064 13619 12970 00000 10012 20012 39483 42856 54000 60002 333 21022 34///
AAXX 03064 13622 12965 00000 10090 20059 30229 40236 54000 60002 333 20070 30///
AAXX 03064 13624 12970 01408 10060 20027 30207 40247 54001 60002 333 20040 30///
AAXX 03064 13625 11/03 90000 11015 21040 30020 40263 54001 60002 74500 333 21018 34///
AAXX 03064 13629 12960 00000 10020 20020 39176 42825 54000 60002 333 20002 30///
AAXX 03064 13601 12965 00000 10072 20065 30120 40223 54003 60002 333 20070 30///
AAXX 03064 13602 NIL
AAXX 03064 13623 12960 10000 10035 20035 30237 40243 54000 60002 81030 333 20035 30/// 81360
AAXX 03061 33135 NIL
AAXX 03061 33317 31996 22403 11005 21014 39834 40180 53014 71000 82030 333 21005
AAXX 03061 33345 32997 52103 10006 21020 39967 40177 53001 82049 333 20005
AAXX 03061 33393 32997 62704 10031 20010 39791 40188 52010 80001 333 21003
AAXX 03061 33506 31696 72503 11008 21017 30029 40232 57003 71022 86570 333 21009
AAXX 03061 33587 31394 81802 10018 20013 39931 40199 54000 71011 886// 333 21012 88708 555 30104
AAXX 03061 33631 11596 80000 10010 20002 30064 40211 52003 69902 71022 885// 333 21006 88631
AAXX 03061 33663 32997 40000 11026 21036 30096 40196 53003 84030 333 21028
AAXX 03061 33658 31912 30000 11035 21046 39891 40203 52013 71000 83030 333 21037
AAXX 03061 33711 31596 81605 11010 21017 30005 40222 57005 71011 885// 333 21036 88625
AAXX 03061 33791 NIL
AAXX 03061 33837 32464 72004 10074 20056 30160 40212 58007 86630 333 20032
AAXX 03061 33924 NIL
AAXX 03061 33946 32597 81203 11001 21019 30036 40265 53002 86501 333 21030 86632
AAXX 03061 34300 31550 71703 11001 21015 30049 40246 54000 71022 87500 333 21008 46997 87632
AAXX 03061 34504 31650 52006 11010 21022 30064 40249 54000 71022 83530 333 21016
AAXX 03061 34519 32560 71503 11017 21041 39987 40273 52005 87500 333 21023 43001 87622
AAXX 03061 34601 32460 71902 11010 21013 30123 40265 52004 87500 333 21016 87616
BBXX 51204 03061 99213 71581 46/// ///// 1//// 90552 22200 00251 11303 20902 331// 41302 70016
BBXX 51202 03061 99214 71577 46/// ///// 1//// 90539 22200 00246 11105 21004 335// 41103 70023
BBXX DBBH 03061 99547 10127 41597 22013 10048 20025 40042 57027 70221 82501 22252 04072
AAXX 03061 03951 17457 /2809 10104 20090 30042 40068 53009 60032 72285 82/// 333 20100 3/009 82/18 87/59
AAXX 03061 03953 11562 83106 10102 20066 30040 40076 53004 60022 70265 885// 333 20102 31008 55000 82628 88640 92437
AAXX 03061 03955 11575 62708 10083 20058 39859 40055 53008 60012 70281 85232 333 20081 31006 55001 85822 83359 85069
AAXX 03061 03956 17659 /2708 10086 20050 39952 40028 53004 60012 71081 81/// 333 20086 3/007 81/49 87/71
AAXX 03061 03962 11470 32706 10086 20066 30020 40044 53005 60042 72065 83500 333 20085 3/007 55000 81716 83650
AAXX 03061 03963 17661 /2913 10095 20036 30005 40033 53009 69922 700// 86/// 333 20091 3/007 82/31 86/50 90710 91118
AAXX 03061 03966 17762 /2806 10073 20034 39939 40031 53007 60032 70181 81/// 333 20071 3/005 81/50
AAXX 03061 03967 11670 62408 10066 20042 39900 40013 52009 69972 70352 865// 333 20065 31004 55000 86640
AAXX 03061 03969 11418 32609 10064 20039 39905 40008 53011 60042 70161 81602 333 20062 31005 55000 81716 83075
AAXX 03061 03973 11475 42808 10055 20028 39762 40016 50004 60042 72581 84500 333 20052 31003 55000 81717 84630
AAXX 03061 03976 11580 12707 10080 20056 30003 40015 53002 69942 72581 81200 333 20077 31006 55000 81820
AAXX 03061 03980 17561 /2914 10079 20033 39928 49953 53011 60032 72385 87/// 333 20063 3/005 87/26 90710 91123
AAXX 03061 01122 16/// /2005 10001 21040 39702 49790 58036 60002 333 21011 70123 91111
AAXX 03061 01378 16/// /1803 11004 21017 39539 49827 58067 69952 333 21048 70005 91107
AAXX 03061 01422 16/// /1806 10058 20028 60082 333 20019 70093 91119
AAXX 03061 01023 16/// /0401 11021 21040 39717 49811 58004 6//// 333 21021 91108
AAXX 03061 01059 16/// /1704 10015 21035 39777 49786 52021 6//// 333 20006 91113
AAXX 03061 01167 11570 71506 10021 21055 39772 49777 58031 69982 70287 8457/ 333 21012 70152 91109
AAXX 03061 01406 46/// /2217 10085 20053 39704 49722 56037 333 20031 91129
AAXX 03061 01442 11360 81411 10050 20038 39548 49797 58080 60072 76176 887// 333 21019 70070 91115
AAXX 03061 01364 16/// /1108 11032 21051 38677 49775 50063 60002 333 21128 4/025 70006 91117
AAXX 03061 01374 11562 80901 11026 21028 69922 77171 8272/ 333 21080 43997 70002
AAXX 03061 01471 11438 81302 10008 21003 60002 76972 8772/ 333 21063 70000 91105
AAXX 03061 01424 11460 8//// 10010 20001 39771 49775 56056 60192 76162 887// 333 20001 70204
AAXX 03061 01481 16/// /1907 10063 20040 39816 49847 57069 60022 333 21038 70021 91116
AAXX 03061 01210 11687 31609 10061 21002 39641 49667 56054 60034 70220 82260 333 20046 70034 91119
AAXX 03061 01452 11440 72114 10076 20062 39805 49825 58077 60092 76366 877// 333 21037 70085 91120
AAXX 03061 01473 11560 81202 10022 20010 39628 49833 58068 69912 76162 8472/ 333 21062 70001 91107
AAXX 03063 91502 01468 60502 10294 20250 40048 55006 60041 71582 83936 333 56199 60047 82816 81917 85280
AAXX 03063 91507 01470 80000 10245 20238 40064 53006 60121 78082 86976 333 56909 60127 83815 82916 83628 85360
AAXX 03063 91520 01475 70000 10264 20245 40058 55004 69951 71582 85976 333 56999 69957 82817 82919 85360
AAXX 03063 91541 01475 80000 10265 20243 40082 5//// 60441 72582 8497/ 333 56009 60441 83815 81916 87360
AAXX 03063 91502 01468 60502 10294 20250 40048 55006 60041 71582 83936 333 56199 60047 82816 81917 85280
AAXX 03063 91507 01470 80000 10245 20238 40064 53006 60121 78082 86976 333 56909 60127 83815 82916 83628 85360
AAXX 03063 91520 01475 70000 10264 20245 40058 55004 69951 71582 85976 333 56999 69957 82817 82919 85360
AAXX 03063 91541 01475 80000 10265 20243 40082 5//// 60441 72582 8497/ 333 56009 60441 83815 81916 87360
AAXX 03064 89532 41/65 70209 11069 21114 39827 49855 53008 77122 875// 333 55239 23820
AAXX 03061 15015 02598 71101 10021 20017 39598 42801 53004 60002 87500 333 10031 21003 30105 60007 70000 91001 91102
AAXX 03061 15020 02997 02901 11030 21035 39987 40194 53010 60002 333 10024 21030 30106 60007 70000 91002 91102 99705
AAXX 03061 15090 01492 80603 11017 21017 30100 40196 53004 60002 74611 886// 333 10000 21017 34103 55300 0//// 20000 3//// 60007 70000 91005 91105 92611
AAXX 03061 15108 01/91 92720 11010 21010 38082 48498 52005 60002 74511 333 11007 21030 3//// 41998 60007 70000 91028
AAXX 03061 15120 01995 02602 11040 21040 39713 40234 53007 69902 71071 333 11022 21050 34109 55300 10093 2//// 3//// 60007 79999 91003 91103 92707 92717 93401
AAXX 03061 15150 01996 01901 11038 21040 39979 40202 54001 60002 71000 333 10010 21038 34106 60007 70000 91002 91103 92600
AAXX 03061 15170 01595 81801 11058 21063 39423 42807 52003 60002 71011 8557/ 333 11058 21127 30112 60007 70000 91002 91102 92611
AAXX 03061 15200 02597 80700 10046 20023 30064 40212 54001 60002 885// 333 10078 20018 30002 60007 70000 91001 91101
AAXX 03061 15230 01596 82600 11001 21018 39927 40231 52003 60002 71022 885// 333 11001 21051 34108 55300 00006 20001 30000 60007 70000 91001 91102 92600
AAXX 03061 15260 02597 60801 11007 21027 39677 40231 52006 60002 86500 333 10009 21063 34106 60007 70000 91002 91103
AAXX 03061 15280 02599 32712 11042 21080 37495 47036 57007 60002 82044 333 11011 21046 3//// 41998 60007 70000 91018 444 46185
AAXX 03061 15292 02597 81602 10082 20026 39922 40218 54001 60002 8637/ 333 10088 20035 30101 60007 70000 91002 91102 95090
AAXX 03061 15310 01996 32004 11008 21016 30124 40214 55000 60002 71000 80001 333 10036 21009 30105 55300 10174 20002 3//// 60007 70000 91006 91108 92600
AAXX 03061 15335 02997 11300 10011 21008 30202 40208 57009 60002 81040 333 10052 21020 34104 60007 70000 91002 91105 92611
AAXX 03061 15346 01996 33601 11022 21034 39926 40229 55001 60002 71000 83070 333 10012 21041 30106 60007 70000 91002 91104 92600
AAXX 03061 15350 02997 02404 11036 21047 30091 40217 53003 60002 333 10000 21043 30107 60007 70000 91004 91105 92600
AAXX 03061 15360 01496 72106 10059 20055 30199 40213 57002 60002 71011 87600 222// 0//// 2//// 333 10081 20059 3//// 60007 70000 91007 91108
AAXX 03061 15410 02997 70000 10010 21014 30128 40227 55000 60002 87070 333 10022 21015 34104 60007 70000 91001 91101
AAXX 03061 15420 02997 02503 11004 21030 30104 40221 53003 60002 333 10018 21021 34106 55300 0//// 20001 3//// 60007 70000 91005 91106 92600
AAXX 03061 15450 01596 70000 11006 21020 39980 40225 55000 60002 71011 83570 333 10020 21032 30104 55300 00020 20002 30001 60007 70000 91001 91101
AAXX 03061 15460 01996 31802 11012 21021 30197 40222 54000 60002 7100/ 80001 333 10024 21036 30107 60007 70000 91003 91103 92611
AAXX 03061 15470 01995 22802 11043 21047 30094 40228 53002 60002 7100/ 82040 333 10010 21047 30106 60007 70000 91002 91102 92611
AAXX 03061 15480 01996 22401 10017 20011 30209 40227 54001 60002 71000 80001 222// 06063 2//// 333 10066 20016 30103 60007 70000 91001 91102 92416 92600
OOXX AAUNI 03064 99798 50833 56093 07671 46/// /1003 11184 21203 38985 49909 54000 90600
AAXX 03064 78958 11460 80000 10246 20245 30099 40109 60021 76082 888/// 333 10298 20239 59002 83818 87635
AAXX 03061 11010 01156 89901 10011 20008 39813 40202 53001 69902 76162 333 21005 32100 69905 81703 83712 88628
AAXX 03061 11012 11535 82302 10008 20007 39720 40201 52004 69902 71022 8462/ 333 10008 21008 3/000 55300
AAXX 03061 11022 11/02 92101 11012 21022 39800 40200 50001 60002 74944 333 11011 21016 3/101 55300 89/01
AAXX 03061 11035 31232 82402 11003 21010 39939 40200 53002 71022 886// 333 10000 21008 84704 87706
AAXX 03061 11036 31015 82502 11008 21008 39973 40204 52002 71022 333 21009 31100 85701 87702
AAXX 03061 11101 11560 80902 10062 20061 39671 40201 55002 60082 76062 8457/ 333 10099 20061 84625
AAXX 03061 11120 32665 89901 10013 20000 39479 40200 54000 333 21002 34103 83640 86656
AAXX 03061 11126 17/// /1711 11018 21018 37712 48470 55004 69902 7//4/ 333 11008 21021 55300 91125
AAXX 03061 11130 17/// /2101 10020 20016 39598 40197 50002 69952 7408/ 333 10028 21003 3/102 55300
AAXX 03061 11146 11/00 92512 11060 21068 36919 47023 55000 69942 77074 333 11058 21065 49066 55300 89/00 91126 92612 93101
AAXX 03061 11150 01259 89901 10034 20026 39649 40197 52003 69962 75866 333 21001 32102 69945 83705 87615
AAXX 03061 11155 11/05 92204 10007 20002 38349 48477 57003 69902 77074 333 10048 20004 3/101 55300 89/08
AAXX 03061 11157 32775 79901 11032 21040 39423 40221 53005 875// 333 21070 34109 81650 87656
AAXX 03061 11172 NIL
AAXX 03061 11190 11556 83401 11002 21012 39960 40201 57002 69902 71022 886// 333 11001 21008 3/101 55300
AAXX 03061 11204 32570 72902 10003 21004 39396 40205 57003 875// 333 10006 21035 87630 555 10071 6000/
AAXX 03061 11212 11/00 92511 11002 21002 37823 48488 56004 69912 74954 333 21008 41998 91120 92610
AAXX 03061 11231 31040 49901 11030 21031 39614 40207 57003 71022 333 21032 34105 81701 84365
AAXX 03061 11240 31135 89901 11004 21004 39744 40195 52002 71042 333 21009 34100 83702 87650
AAXX 03061 11244 16/// /0000 10000 21011 39858 40196 53002 60002 333 10001 21005 55300
AAXX 03061 11389 12550 82002 11001 21009 39866 40202 52002 60002 885// 333 10001 21010 3/101 55300
AAXX 03064 78948 41360 70609 10253 20244 30107 40115 60061 76186 81872 333 06226 10290 20243 59015 70114 81708 86458 87278
AAXX 03061 01028 11670 22406 11027 21051 39698 49718 55001 69922 70282 825// 333 21028 70007 91114
AAXX 03061 01049 16/// /2703 10009 21043 39789 49792 52016 6//// 333 20000 70022 91110
AAXX 03061 01367 11580 71204 11011 21038 39367 49802 58079 60002 70322 878// 333 21034 70000 91110
AAXX 03061 01492 11585 81605 10032 20022 39734 49850 58065 69942 70322 8557/ 333 21041 70004 91109
AAXX 03061 37682 32997 33002 11096 21117 38135 48543 53004 83040 333 21138 7000/
AAXX 03061 37717 32599 12104 11056 21112 38088 48524 52008 81500 333 21083 7000/
AAXX 03061 37788 41995 40000 11036 21061 39268 40314 52014 71011 84030 333 21103
AAXX 03064 78948 41360 70609 10253 20244 30107 40115 60061 76186 81872 333 06226 10290 20243 59015 70114 81708 86458 87278
AAXX 03061 01238 41/00 91519 11053 21064 38636 49739 58061 73983 333 21071 44/// 91125
AAXX 03064 89514 32497 11407 11076 49834 54000 81580 333 81620
AAXX 03064 89514 32497 11407 11076 49834 54000 81580 333 81620
AAXX 03064 17600 12570 10307 10121 20028 30239 40249 53016 60002 81100 333 10126 20094 30007 50471 55089 70000 81820 92428
AAXX 03064 17601 12682 13402 10100 20037 30213 40245 53016 60002 81500 90550 333 20084 30101 4//// 70000 81630
AAXX 03064 17607 11570 12701 10083 20057 30056 40252 52/// 60004 702// 81800 333 20049 70000 81825
AAXX 03064 17609 12680 13106 10116 20059 30244 40248 52014 60002 81800 333 10120 20083 30006 50321 55090 70000 81837
AAXX 03061 10338 12570 72008 10050 20016 39996 40069 58035 60002 8157/ 333 10054 20042 31003 55000 55300 20000 30000 70012 81625 83358 87360
AAXX 03061 48820 32598 40000 10218 20114 30144 40152 57032 84200 333 59023 84895
BBXX UFTA 03061 99849 71301 32597 52103 11314 21346 40131 54000 82530 555 47037
AAXX 03061 48823 32498 70702 10207 20126 30151 40154 57026 872// 333 59020 82894 86895
AAXX 03064 91930 36/// ///// 10265 20217
AAXX 03064 91943 16/// /0809 10264 20216 30133 40135 51018 60014 333 20261 58008
AAXX 03061 89061 379// 03101 11004 21009 39994 40001 52020 70074 333 91002 91104
AAXX 03064 68024 12960 70505 10240 20180 48518 52017 69914 87080 333 20198
AAXX 03064 68029 12960 51503 10235 20188 48516 52010 60224 84073 333 20195
AAXX 03064 68038 32660 70000 10258 20202 48520 52019 81983 333 20215
AAXX 03064 68040 32960 73605 10243 20192 48521 52020 87070 333 20230
AAXX 03064 68070 11560 81605 10205 20196 48528 52036 60034 79596 8698/ 333 20203
AAXX 03064 68234 32960 13206 10252 20181 48515 52011 80001 333 20175
AAXX 03064 68320 32960 10903 10275 20101 48524 52016 80001 333 20164
AAXX 03064 03008 16/// /2626 10067 20026 39589 49656 56010 60072 90550 333 20051 70070 90710 91139
AAXX 03064 03010 46/// /2947 10065 20054 49717 53025 333 90710 91162
AAXX 03064 03014 46/// /2933 10088 20059 49641 53003 90550 333 8//// 90710 91147
AAXX 03064 03031 17463 /2833 10034 20010 39505 49825 53025 60202 761// 90550 333 20022 3/001 55/// 553// 20000 70266 83/15 83/23 86/29 90710 91153 91046
AAXX 03064 03034 17561 /2828 10078 20023 39820 49833 53027 60072 723// 90550 333 20050 3/004 70126 82/29 86/50 90710 91147 91043
AAXX 03064 03037 17560 /3031 10063 20035 39846 49868 53019 60072 782// 90550 333 20055 3/004 4/000 70198 81/28 85/34 90710 91142 91041
AAXX 03064 03039 46/// /2951 11001 21001 90550 333 21018 90710 91173 91067
AAXX 03064 03041 46/// /2633 11034 21034 90550 333 21037 90710 91157 91052
AAXX 03064 03044 17561 /3039 10059 20027 39679 49775 53019 60102 762// 90550 333 20044 3/003 55/// 553// 20000 70154 84/23 85/50 90710 91161 91052
AAXX 03064 03047 17673 /2512 10040 21005 39575 49873 53004 60082 761// 90550 333 20033 3/002 55/// 553// 20000 70120 81/35 86/44 90710 91151 91025
AAXX 03064 03062 17557 /2632 10053 20022 39798 49803 53010 60062 782// 90550 333 20041 3/003 55/// 553// 20000 70064 81/20 85/23 85/31 90710 91149 91042
AAXX 03064 03065 46/// /2771 11042 21047 90550 333 21044 90710 91190 91090
AAXX 03064 03068 11435 72731 10051 20027 39796 49804 50000 60042 78182 878// 90550 333 20036 31001 4//// 70042 86818 87630 90710 91145 91045
AAXX 03064 03080 15781 /2420 10048 20000 39656 49824 56004 69942 90550 333 20041 3/002 70004 82/50 90710 91135
AAXX 03064 03088 15970 /2525 10039 20006 39675 49836 53006 60002 90550 333 20034 3/002 55/// 553// 20000 70000 8//99 90710 91137 91036
AAXX 03064 03094 17532 /2435 10051 20025 39776 49780 55013 69942 782// 90550 333 20046 3/004 4/000 70004 84/21 84/44 90710 91148 91047
AAXX 03064 03105 17959 /2828 10076 20030 39916 49933 53008 60022 704// 90550 333 20058 3/005 70028 81/58 90710 91147
AAXX 03064 03132 15568 /2820 10075 20036 39935 49948 53006 60032 90550 333 20071 3/005 70032 81/26 90710 91136 91032
AAXX 03064 03144 17773 /2310 10045 20010 39838 49880 53012 60032 781// 90550 333 20039 3/002 55/// 553// 20000 70040 82/50
AAXX 03064 03148 46/// /2732 10014 20000 90550 333 20001 90710 91149 91049
AAXX 03064 03153 17567 /2721 10067 20030 39805 49941 53012 60022 723// 90550 333 20065 3/005 55/// 553// 20000 70022 81/25 86/37 90710 91135
AAXX 03064 03155 16774 /2627 10048 20023 39615 49909 53002 60022 90550 333 20033 3/002 70028 87/56 90710 91150
AAXX 03064 03158 17682 /2518 10055 20024 39755 49890 53004 69922 781// 90550 333 20054 3/003 55/// 553// 20000 70004 81/30 83/50 90710 91131
AAXX 03064 03210 16564 /2729 10078 20033 39803 49952 53004 60012 90550 333 20073 3/006 70024 81/26 83/33 85/50 90710 91139 91039
AAXX 03064 03212 17567 /2710 10076 20032 39854 49951 53006 60062 723// 90550 333 20071 3/006 70088 81/24 83/29 85/56 90710 91126
AAXX 03064 03214 15667 /2726 10090 20034 39945 49963 52008 60032 90550 333 20085 3/007 70040 82/33 86/38 90710 91138 91038
AAXX 03064 03220 16574 ///// 10070 20046 39900 49933 53004 60012 90550 333 20066 3/005 70014 81/27 85/32 85/57
AAXX 03064 03224 17462 /2618 10040 20033 39585 49927 53007 60012 751// 90550 333 20040 3/003 4/000 70010 81/10 86/17 90710 91128
AAXX 03064 03225 16672 /2713 10063 20017 39650 49951 53016 60112 90550 333 20056 3/004 55/// 553// 20000 70154 84/31 87/45 90710 91128 91024
AAXX 03064 03226 17676 /2817 10061 20025 39671 49943 53008 60022 723// 90550 333 20050 3/004 70024 81/34 86/50 90710 91129 91027
AAXX 03064 03227 46/// /2743 10005 2//// 90550 333 20005 90710 91158 91057
AAXX 03064 03238 17460 /2721 10057 20025 39741 49912 52008 69902 781// 90550 333 20053 3/004 4/000 70002 81/17 90710 91132 91032
AAXX 03064 03261 16964 /2720 10079 20023 39898 49938 53007 69922 90550 333 20050 3/003 70004 8//99 90710 91134 91032
AAXX 03064 03265 15968 /2816 10084 20032 39907 49937 53004 69922 90550 333 20050 3/004 70002 8//99 90710 91128
AAXX 03064 03266 16973 /2712 10078 20027 39925 49942 53005 60002 90550 333 20055 3/004 4/000 70002 8//99 90710 91127 91022
AAXX 03064 03275 15972 /2523 10061 20015 39722 49912 50001 69902 90550 333 20041 3/003 4//// 70002 8//99 90710 91139 91035
AAXX 03064 03281 16/// /2617 10056 20028 60012 90550 333 20029 70014 90710 91128 91027
AAXX 03064 03903 16660 /2713 10071 20045 39929 49986 53008 60032 90550 333 20067 3/004 55/// 553// 20000 70036 84/45 90710 91127
AAXX 03064 03904 17457 /2708 10059 20035 39919 49979 53010 60022 782// 90550 333 20057 3/004 4/000 70032 81/18 83/28
AAXX 03064 03907 17764 /2826 10071 20030 39951 49958 52009 69942 723// 90550 333 20059 3/004 55000 55300 20000 70004 83/56 90710 91147
AAXX 03064 03911 16474 /2711 10050 20033 39703 49975 53008 60012 90550 333 20045 3/003 4/000 70020 81/17 86/50
AAXX 03064 03915 16673 /2707 10059 20035 39885 49963 53006 60012 90550 333 20057 3/003 70010 83/30 83/57 90710 91126
AAXX 03064 03916 16680 /3010 10053 20030 39760 49948 53004 60042 90550 333 20049 3/004 55/// 553// 20000 70038 82/34 84/57 90710 91128 91020
AAXX 03064 03923 17674 /2915 10059 20024 39781 49975 52006 69962 723// 90550 333 20055 3/003 70018 81/31 83/50 90710 91126 91026
AAXX 03064 03301 16671 /2714 10085 20051 39934 40007 53016 60102 90550 333 20077 70100 81/30 87/45
AAXX 03064 03305 17569 /2525 10072 20039 39744 40004 53013 60392 781// 90550 333 20067 3/005 70416 84/26 84/30 90710 91150
AAXX 03064 03313 16773 /2714 10075 20049 39903 49996 52011 60032 90550 333 20074 3/005 70030 81/50 90710 91125 91024
AAXX 03064 03316 17560 /2724 10090 20061 39974 49985 51015 60012 757// 90550 333 20083 3/008 70020 82/26 83/34 86/56 90710 91134
AAXX 03064 03318 16/// /2718 10086 20061 60042 90550 333 20081 70060 90710 91132
AAXX 03064 03321 16680 /2812 10084 20046 39977 49989 53010 60012 90550 333 20064 3/006 55/// 553// 20000 70014 81/33 87/45
AAXX 03064 03330 15463 /3018 10070 20055 39625 49981 51013 60012 90550 333 20043 3/004 4/000 70016 83/18 90710 91133 91029
AAXX 03064 03344 15961 /2713 10061 20060 39636 49950 52006 60042 90550 333 20043 3/004 4/000 70046 8//99 90710 91125 91025
AAXX 03064 03346 16/// /2827 10066 20043 69962 90550 333 20047 3/004 70006 90710 91143 91039
AAXX 03064 03348 15674 /2915 10084 20043 39873 49979 53009 60022 90550 333 20061 3/005 4/000 55021 55300 20000 70022 82/36 87/50 90710 91126
AAXX 03064 03355 15976 /2914 10088 20031 39938 49949 53005 69962 90550 333 20048 3/004 4/000 55008 55300 20000 70006 8//99 90710 91127
AAXX 03064 03373 16665 /2823 10093 20050 39888 49956 55001 69942 90550 333 20050 3/004 4/000 70006 87/49 90710 91130
AAXX 03064 03379 16579 /2813 10094 20056 39892 49967 55003 69922 90550 333 20048 3/004 4/000 70002 81/28 83/50 90710 91126
AAXX 03064 03382 15768 /2611 10082 20047 39931 49940 50004 69922 90550 333 20049 3/003 4/000 55032 55300 20000 70002 83/50 90710 91125
AAXX 03064 03385 46570 /2612 10095 20079 39941 49951 55004 90550 333 20050 84/23 90710 91131
AAXX 03064 03391 12681 82715 10103 20059 39956 49963 55004 69902 885// 90550 333 20048 31004 4//// 79999 85630 88656 90710 91125
AAXX 03064 03392 16677 /2516 10100 20082 39958 49962 55012 69942 90550 333 20047 3/004 70004 87/49 90710 91129
AAXX 03064 03405 16673 /2925 10094 20041 39904 40018 51015 60042 90550 333 20091 3/009 55/// 553// 20000 70062 81/30 87/39 90710 91133
AAXX 03064 03409 16/// /2712 10080 20043 60062 90550 333 20070 3/006 55000 55300 2//// 70064 90710 91126 91025
AAXX 03064 03410 16569 /2721 10068 20045 39569 49998 53008 60162 90550 333 20046 3/004 55/// 553// 20000 70184 86/21 85/64 90710 91138
AAXX 03064 03469 17583 /2716 10102 20078 39966 49970 55011 69922 723// 90550 333 20052 3/004 55/// 553// 20000 70002 81/25 84/42 90710 91127
AAXX 03064 03488 17457 /2323 10104 20093 39934 49959 55015 69942 704// 90550 333 20048 70004 82/13 85/36 90710 91135 91034
AAXX 03064 03503 17762 /2815 10102 20057 39945 40020 53004 60142 723// 90550 333 20066 3/006 70156 86/50 87/62
AAXX 03064 03507 17373 /2804 10071 20063 39654 40022 53008 60132 781// 90550 333 20053 3/005 4/000 70146 82/09 86/18 91017
AAXX 03064 03520 16671 /2712 10101 20050 39888 40006 53006 60022 90550 333 20062 3/005 55/// 553// 20000 70020 85/48 87/72 90710 91126
AAXX 03064 03522 17569 /2613 10106 20058 39920 40011 53006 69942 723// 90550 333 20065 3/005 4/000 70004 81/28 85/36
AAXX 03064 03529 15678 /2815 10109 20065 39964 40006 53009 69962 90550 333 20067 3/005 70008 87/38 90710 91127 91027
AAXX 03064 03544 15583 /2615 10100 20075 39861 49989 55000 60012 90550 333 20054 3/005 55/// 553// 20000 70012 81/22 86/41
AAXX 03064 03560 17482 /2512 10099 20092 39890 49992 55004 60022 723// 90550 333 20052 3/004 55/// 553// 20000 70020 81/12 86/50
AAXX 03064 03604 16972 /2915 10107 20072 39986 40039 53010 60072 90550 333 20095 3/009 70134 87/59 90710 91126
AAXX 03064 03605 16566 /3018 10105 20075 30031 40039 53006 60102 90550 333 20094 70142 83/23 86/50 90710 91126
AAXX 03064 03609 16/// /2615 10112 20086 39984 40035 53001 60082 90550 333 20092 3/008 70108 90710 91130
AAXX 03064 03628 17473 /2713 10109 20094 39946 40017 55003 60012 723// 90550 333 20068 3/006 4/000 55015 55300 20000 70012 82/14 86/61 90710 91129
AAXX 03064 03647 16566 /2816 10096 20076 39749 49999 55001 60022 90550 333 20047 3/004 55/// 553// 20000 70022 84/27 85/72 90710 91128
AAXX 03064 03658 16780 /2413 10113 20087 39939 40008 55010 69922 90550 333 20054 3/004 4/000 70006 81/56 86/64 85/73
AAXX 03064 03660 17380 /2708 10099 20091 39762 40005 55010 60012 723// 90550 333 20045 3/003 4/000 70014 87/07 83/20 91019
AAXX 03064 03672 16482 /2515 10107 20093 39971 40010 55014 60012 90550 333 20056 3/004 70012 82/10 86/39
AAXX 03064 03684 17273 /2414 10099 20094 39893 49997 56013 60032 722// 90550 333 20045 3/003 4/001 70028 87/05 84/13 90710 91125
AAXX 03064 03693 16580 /2315 10116 20099 30003 40005 56021 60012 90550 333 20067 3/005 70014 82/24 83/28 86/50 90710 91125 91025
AAXX 03064 03707 17761 /2722 10122 20107 30039 40046 56005 60102 781// 90550 333 20088 3/008 70138 87/50 90710 91133 91033
AAXX 03064 03710 16262 /2822 10091 20091 39622 40035 55002 60122 90550 333 20049 3/005 55/// 553// 20004 70138 84/05 86/14 90710 91137
AAXX 03064 03743 16481 /2613 10109 20087 39860 40018 56013 69922 90550 333 20067 3/006 4/000 70002 86/17 84/28
AAXX 03064 03749 16483 /2513 10110 20089 39912 40020 55012 69962 90550 333 20064 3/005 4/000 70006 81/19 83/25 85/73 90710 91126
AAXX 03064 03761 17460 /2423 10108 20094 39875 40016 56015 69982 723// 90550 333 20055 3/004 4/000 55030 55300 20000 70008 85/12 84/18 85/23 90710 91131
AAXX 03064 03768 16456 /2712 10111 20099 39939 40017 55015 69922 90550 333 20057 3/003 70004 87/11 83/19
AAXX 03064 03769 17462 /2310 10109 20105 39939 40019 56020 60042 751// 90550 333 20041 3/001 4/000 55038 55300 20000 70040 85/19 86/22
AAXX 03064 03770 16/// ///// 10113 20103 69922 90550 333 20060 3/003 70010
AAXX 03064 03781 17256 /2311 10101 20099 39813 40016 56020 60032 751// 90550 333 20040 3/002 55/// 553// 20000 70026 85/04 87/11 91021
AAXX 03064 03784 46/// /2315 10114 20097 30002 40006 56020 90550 333 20056 90710 91127
AAXX 03064 03797 17468 /2320 10111 20098 39956 40014 56028 60022 781// 90550 333 20040 3/002 4//// 55051 55300 20000 70020 82/13 87/47 90710 91130
AAXX 03064 03839 16/// ///// 10122 20100 60012 90550 333 20077 55/// 553// 20000 70014
AAXX 03064 03857 15464 /2830 10125 20114 39979 40042 56014 60032 90550 333 20089 3/008 70034 85/19 85/59 90710 91138
AAXX 03064 03866 16/// /2631 10128 20105 30010 40034 55019 60012 90550 333 20092 3/008 70010 90710 91146 91041
AAXX 03064 03872 17470 /2623 10124 20108 30024 40029 56022 60032 723// 90550 333 20084 3/007 55/// 553// 20000 70032 84/14 86/21 90710 91132
AAXX 03064 03876 16/// /2518 10123 20111 30028 40030 56026 60072 90550 333 20063 70068 90710 91129
AAXX 03064 03895 41359 82620 10118 20108 40100 56018 76362 885// 333 20090 84707 87640 90710 91138
AAXX 03064 03896 16/// ///// 10117 60122 333 20098 55037
AAXX 03064 85201 32970 09902 10042 21039 36294 57014 333 59008
AAXX 03064 85223 31559 30103 10140 20074 37486 47113 55009 70400 81501 333 56000 59025 81627 83070
AAXX 03064 85244 NIL
BBXX PDYI 03063 99370 10007 41/97 /2507 10150 20093 40200 52016 700// 8//// 22223 20405 32500 41003 5//// 80118
BBXX UCKG 03061 99705 10328 41/98 91812 10030 49724 57040 70222 22273 00030 20505
BBXX PGRQ 03064 99352 10215 41597 52801 10174 2//// 40250 52006 70211 81549 22281 00195 20000 30000
BBXX UGGA 03061 99686 10394 41698 82115 10040 49773 57020 70222 888// 22221 20807
BBXX PCUI 03063 99627 10187 41797 42915 10034 21025 49911 51011 7//55 83185 22253 00115 20503 80011
BBXX UCKA 03061 99575 10040 41/98 42423 10055 49806 57036 70262 22212 00110 21312
BBXX UCJB 03061 99713 10273 41/98 /3104 10030 49757 54000 70022 22213 00100 20503
BBXX VRFX8 03064 99490 70123 41/98 82931 10140 20100 40150 54000 70222 88/// 22224 0//// 2//// 3//// 4//// 80120
BBXX MGSH7 03063 99559 10207 41/97 42522 10060 20023 40061 54000 70200 84/// 22200 20404 324// 40506 5//// 80045
BBXX C6KD6 03064 99360 70321 41998 01118 10185 20160 40325 57014 70000 80000 22254 02191 2//// 302// 41206 80170
BBXX MGRX2 03063 99574 10081 41/97 /1748 10050 20025 49853 57025 72562 8//// 22253 21010 317// 40809 5//// 80040
BBXX MCCW7 03064 99068 31145 41498 32814 10311 20238 40063 58006 70200 83120 22273 00293 29901 331// 40501 5//// 80260
BBXX A8EH7 03064 99046 31274 41598 33206 10305 20233 40080 56020 7//00 82169 22263 00320 20501 33499 40601 5//// 80255
BBXX A8UU2 03064 99136 31168 41598 32014 10305 20256 40042 56010 7//00 8/263 22243 04310 20504 30000 80270
BBXX A8IH2 03063 99343 31699 41297 80420 10210 20172 40140 53010 75052 887// 22224 20302 305// 40504 5//// 80185
BBXX A8QR9 03061 99038 11057 41697 618// 10275 20241 40100 50/// 70211 8/478 22253 203// 80250
AAXX 03061 26554 11968 22503 10022 20006 39914 40078 52023 60042 70285 81031 333 20022 555 90011
AAXX 03061 26666 11560 72503 10039 20019 39869 40083 52033 60072 70262 875// 333 20021 87624 91112 555 90013
AAXX 03061 26850 11565 72901 10041 20007 39840 40112 52028 69982 70282 87530 333 20025 87620 555 90010
AAXX 03061 26863 11356 82303 10045 20035 39868 40103 53026 60022 72582 883// 333 20014 85708
AAXX 03061 26941 32660 72602 10046 20018 39898 40136 52026 87500 333 20045 555 90010
AAXX 03061 26951 11458 73005 10048 20031 39929 40128 52024 69932 71062 87500 333 20035 87616 555 90013
AAXX 03061 33008 31556 72702 10047 20008 39976 40155 52022 71022 87500 333 20046 87630 555 90010
AAXX 03061 33019 32660 72102 10054 20008 39970 40144 52021 875// 333 20055 87637 555 90010
AAXX 03061 33036 12570 72002 10037 21006 39905 40137 52010 69902 875// 333 20025 87628 555 90011
AAXX 03061 33041 12660 72003 10023 21002 39981 40139 53008 69972 8657/ 333 20023 86640 555 90013
AAXX 03064 48300 32562 21502 10260 20193 39780 40089 56033 82500 333 59022
AAXX 03064 48327 01560 53603 10275 20190 39757 40109 57025 69901 70161 83836 333 59009 69907 70006
AAXX 03064 48331 31562 30000 10276 20180 39873 40101 57027 70340 83800 333 59018
AAXX 03064 48353 31659 21307 10265 20128 39820 40108 57029 70500 82200 333 59013
AAXX 03064 48356 32962 30502 10248 20113 39924 40122 57024 83030 333 59008
AAXX 03064 48375 32562 10000 10296 20177 39850 40071 57033 81100 333 59017
AAXX 03064 48378 32560 22404 10295 20187 30053 40105 57020 81205 333 59013
AAXX 03064 48381 32960 40604 10260 20114 39898 40114 57022 80006 333 59006
AAXX 03064 48407 32960 70404 10280 20148 39961 40102 57022 80006 333 59005
AAXX 03064 48431 32960 60806 10263 20144 39900 40113 57023 82046 333 58003
AAXX 03064 48456 NIL
AAXX 03064 48480 32560 30210 10305 20188 30079 40083 57026 81245 333 59003
AAXX 03064 48500 31556 73508 10314 20218 30078 40085 57023 70521 85876 333 59017
AAXX 03064 48551 31558 50206 10302 20234 30073 40081 57020 71022 82276 333 59022
AAXX 03064 48565 32560 60905 10316 20232 30064 40074 57018 81247 333 59018
AAXX 03064 48569 32560 63405 10310 20244 30039 40079 57026 83246 333 59015
AAXX 03064 48583 32560 60807 10301 20226 30072 40078 57022 82206 333 59012
AAXX 03064 48310 32560 60000 10275 20181 39643 40092 82246 333 59032
AAXX 03064 48325 32558 20000 10292 20187 39844 40083 57035 82222 333 59019
AAXX 03064 48329 32560 50404 10275 20195 39769 40104 57021 82836 333 59006
AAXX 03064 48352 32962 00803 10260 20143 39914 40115 57027 333 59012
AAXX 03064 48357 32962 21204 10267 20115 39952 40120 57021 80001 333 59009
AAXX 03064 48380 32960 21103 10290 20173 30010 40103 57022 81041 333 59010
AAXX 03064 48383 31959 41006 10260 20136 39949 40109 70511 80006 333 59014
AAXX 03064 48403 31957 30708 10260 20143 39901 40111 57025 70511 80005 333 59009
AAXX 03064 48405 32960 60208 10260 20138 39946 40109 57024 80006 333 59011
AAXX 03064 48420 31958 80608 10287 20167 30087 40092 57023 70522 84036 333 59006
AAXX 03064 48421 31557 21503 10315 20189 39972 40084 57031 70500 82200 333 59016
AAXX 03064 48425 31958 40406 10289 20172 30093 40103 57022 70511 80006 333 59006
AAXX 03064 48426 32960 30802 10301 20166 30083 40096 58024 80001 333 59007
AAXX 03064 48429 32560 50711 10297 20139 30090 40097 57019 81136 333 59005
AAXX 03064 48430 31959 20910 10300 20139 30088 40095 70500 80002 333 59008
AAXX 03064 48450 31557 10305 10298 20151 30061 40094 57024 70500 81500 333 59008
AAXX 03064 48459 32962 60604 10309 20178 30089 40092 57005 85036 333 59004
AAXX 03064 48465 32561 40611 10294 20189 30086 40091 57026 82806 333 59012
AAXX 03064 48550 31558 60806 10309 20239 30072 40079 57020 71022 82246 333 59014
AAXX 03064 48552 32460 61204 10298 20223 30073 40079 57023 84346 333 59016
AAXX 03064 48566 32560 50000 10305 20232 30071 40079 57019 82845 333 59008
AAXX 03064 48568 32461 20408 10295 20245 30071 40078 57024 82801 333 59011
BBXX KAOU 03064 99009 10805 43/// /2308 10276 20242 40078 5//// 7//// 8//// 222// 04290 2//// 3//// 4//// 5//// 6//// 8//// ICE /////
BBXX NWS0003 03064 99619 71705 43/// /0726 11084 21100 40112 5//// 7//// 8//// 222// 05010 2//// 3//// 4//// 5//// 6//// 8//// ICE /////
BBXX NWS0029 03064 99233 70382 43/// /0807 10232 20166 40169 5//// 7//// 8//// 222// 04260 2//// 3//// 4//// 5//// 6//// 8//// ICE /////
BBXX NWS0020 03064 99353 10217 43/// /3003 10169 20099 40245 5//// 7//// 8//// 222// 04193 2//// 3//// 4//// 5//// 6//// 8//// ICE /////
BBXX PHET 03061 99258 70774 41/98 /0316 10218 20147 40220 57010 70222 8//// 22224 00250 2//// 3//// 4//// 5////
BBXX PDGS 03064 99104 50783 41/98 /1619 10170 40130 57020 70200 8//// 22244 00175 2////
BBXX C6XP7 03063 99262 70789 41398 40723 10240 20211 40230 54/// 7//11 824// 22265 00210 20203 305// 4//// 5//// 6//// 80220 ICE
BBXX NWS0009 03064 99120 71733 43/// /1115 10269 20243 40091 5//// 7//// 8//// 222// 04273 2//// 3//// 4//// 5//// 6//// 8//// ICE /////
BBXX PBWQ 03064 99232 70743 41/98 10433 10243 20158 40187 51005 70211 8//// 22274 00273 20303
BBXX ZCDA9 03063 99233 71484 41298 60925 10210 20194 40195 51005 70322 867// 22224 00240 20203 309// 40304 5//// 80200
BBXX C6FV8 03064 99187 70658 43498 20513 10261 2//// 40080 57020 7//00 824// 22262 00286 20302 3//// 4//// 5//// 6//// 8//// ICE /////
BBXX PBIG 03064 99157 70726 41397 70814 10262 20201 40141 52010 70222 867// 22275 2////
BBXX VRWG3 03064 99448 70488 41/// 80412 10050 21025 40240 54000 747// 88/// 22222 0//// 21206 318// 4//// 5//// 6//// 80020 ICE /////
BBXX C6XC2 03064 99296 11253 41498 73329 10130 20051 40180 54000 70222 8624/ 22283 00210 20806 333// 41007 5//// 6//// 80090 ICE /////
BBXX WXJ63 03063 99611 71464 41/94 83304 10006 20002 40240 52/// 710// 8//// 222// 0//// 2//// 3//// 4//// 5//// 6//// 8//// ICE /////
BBXX ZCDF4 03063 99121 70729 41498 20623 10281 20253 40115 58007 70211 82100 22215 00290 20404 308// 40404 5//// 80261
AAXX 03061 26554 11968 22503 10022 20006 39914 40078 52023 60042 70285 81031 333 20022 555 90011
AAXX 03061 26666 11560 72503 10039 20019 39869 40083 52033 60072 70262 875// 333 20021 87624 91112 555 90013
AAXX 03061 26850 11565 72901 10041 20007 39840 40112 52028 69982 70282 87530 333 20025 87620 555 90010
AAXX 03061 26863 11356 82303 10045 20035 39868 40103 53026 60022 72582 883// 333 20014 85708
AAXX 03061 26941 32660 72602 10046 20018 39898 40136 52026 87500 333 20045 555 90010
AAXX 03061 26951 11458 73005 10048 20031 39929 40128 52024 69932 71062 87500 333 20035 87616 555 90013
AAXX 03061 33008 31556 72702 10047 20008 39976 40155 52022 71022 87500 333 20046 87630 555 90010
AAXX 03061 33019 32660 72102 10054 20008 39970 40144 52021 875// 333 20055 87637 555 90010
AAXX 03061 33036 12570 72002 10037 21006 39905 40137 52010 69902 875// 333 20025 87628 555 90011
AAXX 03061 33041 12660 72003 10023 21002 39981 40139 53008 69972 8657/ 333 20023 86640 555 90013
BBXX 46214 03061 99379 71235 46/// ///// 1//// 90600 22200 00119 11009 21007 332// 41205 70045
BBXX 51003 03061 99193 71606 46/// /0606 10250 40164 53017 90550 22200 00258 11404 20501 3//// 41404 70022 333 91207 555 11059 22062 30503 40407 60549 057056 049059 053058 051056 046058 045055
BBXX 42363 03061 99282 70892 46/// /1113 10206 20111 40271 58004 90600 333 91213
BBXX 42364 03061 99291 70881 46/// /1209 10194 20106 40278 58007 90600
BBXX 41041 03061 99142 70460 46/// /0907 10267 20226 40115 56020 90550 22200 00266 10804 20602 3//// 40803 70019 333 91209 555 11075 22080 30525 40909 60549 090070 090073 090075 091072 089072 091070 80908 90515
BBXX 46083 03061 99582 71380 46/// /2808 10059 20057 40260 51004 90550 22200 00067 11109 20604 300// 41108 70045 333 91210 555 11085 22090 30519 42911 60549 283080 283088 284083 280086 278085 277079 82909 90533
BBXX 44060 03061 99413 70721 46/// ///08 10053 40326 51020 90600 22200 00118 333 91209 555 11082 22088
BBXX 44022 03061 99409 70737 46/// ///04 10059 21008 40339 51018 90600 22200 00106 333 91205 555 11036 22041
AAXX 03064 70026 NIL
AAXX 03064 70133 NIL
AAXX 03064 70174 NIL
AAXX 03064 70200 NIL
AAXX 03064 70219 NIL
AAXX 03064 70231 NIL
AAXX 03064 70261 NIL
AAXX 03064 70267 NIL
AAXX 03064 70271 NIL
AAXX 03064 70273 NIL
AAXX 03064 70308 NIL
AAXX 03064 70316 NIL
AAXX 03064 70326 NIL
AAXX 03064 70340 NIL
AAXX 03064 70350 NIL
AAXX 03064 70361 NIL
AAXX 03064 70381 NIL
AAXX 03064 70398 NIL
AAXX 03064 70414 NIL
AAXX 03064 48302 31558 20000 10165 20148 38463 40090 57011 71000 82805 333 59019
AAXX 03064 48304 32560 80000 10235 20186 39644 40104 57026 8353/ 333 59025
AAXX 03064 48334 31558 40000 10275 20171 39736 40094 57025 70511 82205 333 59025
AAXX 03064 48360 32962 20806 10254 20126 39846 40106 57022 80005 333 59016
AAXX 03064 48372 31558 60000 10286 20214 30041 40098 57013 71022 83206 333 59010
AAXX 03064 48373 31556 60000 10280 20187 30036 40098 57022 70522 84836 333 59008 70003
AAXX 03064 48386 31557 22402 10280 20179 30057 40100 57020 70500 81105 333 59006
AAXX 03064 48387 NIL
AAXX 03064 48408 32962 73104 10290 20165 39952 40100 80004 333 59010
AAXX 03064 48415 32960 50504 10300 20168 30082 40093 57022 80005 333 59016
AAXX 03064 48433 31959 40403 10276 20151 39948 40112 57021 70511 80006 333 59002
AAXX 03064 48437 32962 80104 10257 20151 39903 40113 57019 80006 333 59004
AAXX 03064 48440 32960 00510 10287 20171 30047 40096 57025 333 58000
AAXX 03064 48451 32960 10906 10291 20194 30090 40101 57023 80001 333 59008
AAXX 03064 48454 31958 60608 10300 20164 30087 40094 57021 70522 84036 333 59004
AAXX 03064 48457 31558 60615 10266 20166 30080 40096 58020 70522 81156 333 59010
AAXX 03064 48463 31558 70707 10306 20160 30003 40095 56026 70522 81246 333 59013
AAXX 03064 48464 NIL
AAXX 03064 48479 32662 70402 10308 20179 30036 40087 57019 82576 333 59007
AAXX 03064 48520 31559 60706 10310 20225 30064 40079 55022 70522 82546 333 59017
AAXX 03064 48554 32462 50000 10303 20241 30075 40079 57022 82405 333 59008
AAXX 03064 48563 32560 51104 10322 20212 30038 40073 82245 333 59019
AAXX 03064 48571 32562 50507 10307 20230 30059 40070 57025 82112 333 59017
BBXX WGEB 03064 99309 11418 41697 82319 10233 2020/ 40110 58010 7//22 8899/ 22225 00233 21005 306// 41008 5//// 6//// 80211 ICE /////
BBXX C6XC2 03064 99296 11253 41498 73329 10130 20051 40180 54000 70222 8624/ 22283 00210 20806 333// 41007 5//// 6//// 80090 ICE /////
BBXX WKWB 03064 99235 11122 41498 52910 10189 2015/ 40160 54000 70311 85200 22242 00211 20100 330// 40502 80168
BBXX 3FZK3 03064 99355 11294 46/// /2918 10103 20053 40115 55000 7//// 8//// 22200 0//// 2////
BBXX V7DI8 03063 99335 11249 41396 73240 10110 2007/ 40200 54000 78182 879// 22272 00180 20607 332// 40806 5//// 6//// 80090 ICE /////
BBXX 46070 03061 99551 11753 46/// /3513 10005 21037 40030 54000 90550 22200 00049 11108 20806 3//// 41105 70039 333 91215 555 11136 22144 30520 43518 60549 348130 000125 349131 351147 000133 008143 83516 90517
BBXX VRDA4 03064 99241 50464 41291 31409 10220 2019/ 40150 54000 7//// 81/// 22200 0//// 20303 31313 40202 50000 6//// 80200 ICE /////
BBXX PDGS 03064 99104 50783 41/98 /1619 10170 40130 57020 70200 8//// 22244 00175 2////
BBXX 32012 03061 99197 50856 46/// ///// 1//// 90550 22200 11104 70021
BBXX DGPT2 03064 99242 50464 41498 13419 10205 20167 40130 54000 70300 811// 22253 00230 2//// 80180
BBXX A8DE3 03064 99361 50538 41/98 60510 10171 20140 40234 51009 70211 8//// 22253 00190 2//// 80152
BBXX ONAI 03064 99062 50343 41998 01015 10240 2018/ 40100 54000 70000 80000 22284 00281 2//// 3//// 4//// 5//// 6//// 80200 ICE /////
BBXX OVYB2 03061 99248 10600 41998 03202 10264 20193 40173 52025 702// 80000 22264 00290 20300 30000 4//// 5//// 80218
BBXX DBBT 03061 99374 30557 46/// /1709 10157 20096 40265 52017/ 22252 00201
BBXX DBKV 03061 99281 70154 46/// /0305 10195 20123 40251 57007 22220 00210
BBXX A8OZ4 03064 99264 10349 43997 03229 10230 20130 40180 51040 7//// 80/// 22274 00229 20304 3//// 4//// 5//// 80170
BBXX A8OZ4 03064 99264 10349 43997 03229 10230 20130 40180 51040 7//// 80/// 22274 00229 20304 3//// 4/ /// 5//// 80170
BBXX DEGL 03064 99021 10038 41297 82514 10250 20236 40100 51010 76362 85770 22244 04290 20503 320// 40904 5//// 80240
BBXX UFTA 03061 99849 71301 32597 52103 11314 21346 40131 54000 82530 555 47037
BBXX J8PE4 03063 99233 70728 415// 52119 10250 2018/ 40190 5//// 70311 85188 22234 00280 20805 321// 40503 5//// 6//// 80200 ICE /////
BBXX A8RV9 03064 99240 71121 41597 33112 10184 20113 40151 51/// 70222 82545 22234 20804 329// 40804 5//// 80142
BBXX A8PX5 03064 99396 71275 41796 23445 10141 20141 40281 50/// 701// 82141 22273 04131 20407 3//// 4//// 5//// 80141
BBXX A8OF6 03063 99349 70499 41/97 61422 10205 20150 40245 54000 70022 84/// 22214 04200 20604 80170
BBXX WDC3786 03064 99277 71352 41398 70422 10176 2015/ 40250 52009 7//22 874// 22264 0//// 20402 302// 40905 5//// 6//// 80161 ICE /////
BBXX ZCDF4 03063 99121 70729 41498 20623 10281 20253 40115 58007 70211 82100 22215 00290 20404 308// 40404 5//// 80261
BBXX WADN 03064 99214 70854 41398 30626 10230 2017/ 40196 58006 70211 83230 22273 0//// 2//// 3//// 4//// 5//// 6//// 80190 ///// /////
BBXX C6FT7 03063 99230 70717 41498 43620 10246 2016/ 40170 5//// 7//11 844// 22274 00200 2//// 3//// 4//// 5//// 6//// 80192 ICE /////
BBXX WPGK 03064 99298 70806 41498 40419 10189 2014/ 40258 57014 70211 842// 22234 00189 20403 3//// 4//// 5//// 6//// 80156 ICE /////
BBXX KABL 03064 99244 70816 41598 80219 10230 2017/ 40230 54000 7//22 881// 22265 00260 20802 302// 40802 5//// 6//// 80190 ICE /////
BBXX 41112 03061 99307 70813 46/// ///// 1//// 90551 22200 00174 11202 20702 310// 41201 70011
BBXX 41113 03061 99284 70805 46/// ///// 1//// 90551 22200 00212 10402 20402 309// 41101 70012
BBXX 41110 03061 99341 70777 46/// ///// 1//// 90551 22200 00160 11102 21001 311// 41101 70008
BBXX 42099 03061 99273 70842 46/// ///// 1//// 90557 22200 00245 10603 20603 70017
BBXX 44100 03061 99363 70756 46/// ///// 1//// 90552 22200 00143 11102 21002 309// 41101 70011
BBXX 44099 03061 99369 70757 46/// ///// 1//// 90552 22200 00133 10902 20902 309// 41301 70010
BBXX 46239 03061 99363 71221 46/// ///// 1//// 90551 22200 00121 11008 21005 329// 41505 70039
BBXX 46238 03061 99334 71195 46/// ///// 1//// 90550 22200 00138 11803 21002 329// 41802 70014
BBXX 46224 03061 99332 71175 46/// ///// 1//// 90536 22200 00160 11402 21002 319// 41401 70010
BBXX 46219 03061 99332 71199 46/// ///// 1//// 90558 22200 00135 11103 21002 331// 41102 70017
BBXX 46236 03061 99368 71219 46/// ///// 1//// 90550 22200 00125 11104 20903 329// 41103 70021
BBXX 46229 03061 99438 71246 46/// ///// 1//// 90551 22200 00107 11507 21005 328// 41504 70033
BBXX 46213 03061 99403 71247 46/// ///// 1//// 90554 22200 00110 11111 21008 334// 41106 70053
BBXX 46247 03061 99378 71228 46/// ///// 1//// 90551 22200 00115 11706 21004 328// 41704 70031
BBXX 46243 03061 99462 71241 46/// ///// 1//// 90559 22200 00092 11306 20904 326// 41303 70028
BBXX 46215 03061 99352 71209 46/// ///// 1//// 90538 22200 00128 11103 21002 329// 41102 70016
BBXX 46218 03061 99345 71208 46/// ///// 1//// 90602 22200 00136 11704 21003 330// 41703 70021
BBXX 46225 03061 99329 71174 46/// ///// 1//// 90544 22200 00162 10802 20802 328// 41201 70010
BBXX 44008 03061 99405 70692 46/// /3412 10098 20024 90550 555 11127 22135
BBXX 44172 03061 99445 70634 46/// ///// 1//// 90601 22200 00082 11204 21002 316// 41203 70021
BBXX 44097 03061 99410 70711 46/// ///// 1//// 90602 22200 00132 10504 20503 316// 41101 70018
BBXX 46061 03061 99602 71468 46/// /0503 10039 40234 51025 90550 22200 00048 11104 20301 300// 41104 70022 333 91204 555 11033 22034 30456 40306 60549 050033 041029 031027 034025 035031 031038
BBXX 51101 03061 99243 71621 46/// /0908 10224 20160 40192 53015 90550 22200 00244 11206 20602 302// 41206 70030 333 91209 555 11080 22084 30510 40810 60549 093076 105071 094073 085071 086074 083072
BBXX 41010 03061 99289 70785 46/// /0509 10215 40261 56010 90550 22200 00243 11105 20604 300// 41103 70024 333 91212 555 11099 22103
BBXX 44011 03061 99411 70666 46/// /0302 10080 20027 40273 58003 90550 22200 00100 11104 20401 3//// 41104 70018 333 91203 555 11024 22024 30540 42204 60549 036024 057025 044023 044016 028016 358016
BBXX 41046 03061 99238 70683 46/// /0208 10245 20196 40160 58013 90550 22200 00264 10905 20503 300// 40903 70023 333 91210 555 11089 22094 30501 40111 60549 017085 012085 013086 016089 009092 013086 80110 90501
BBXX 41009 03061 99285 70802 46/// /0608 10224 20135 40266 58007 90550 22200 00257 10604 20604 300// 41102 70020 333 91211 555 11089 22093
BBXX 46089 03061 99459 71258 46/// /3509 10094 20059 40336 54000 90550 22200 00101 10908 20604 332// 40907 70039 333 91211 555 11095 22100 30528 43611 60549 350089 349086 354089 353088 356083 359081
BBXX 46042 03061 99368 71224 46/// /3410 10124 30150 40150 51003 90550 22200 00128 11607 20703 331// 41606 70035 333 91212 555 11105 22111 30518 43413 60549 338098 342096 344102 344104 344100 344105
BBXX BATEU06 03064 99486 70686 46/// /0014 11043 21081 40332 52026 22214 00024
BBXX CGDT 03064 99490 70669 46/// /3604 11026 21071 40330 53016 7//// 8//// 22200 0//// 2////
BBXX VXKF 03064 99467 70598 46/// /3612 10017 21031 40277 55001 7//// 8//// 22212 0//// 2////
BBXX C6SI6 03064 99568 71524 46/// /1621 10042 20035 40227 51002 7//// 8//// 22253 0//// 2////
BBXX ZCDA9 03063 99233 71484 41298 60925 10210 20194 40195 51005 70322 867// 22224 00240 20203 309// 40304 5//// 80200
BBXX SHIP 03064 99311 71799 41596 73324 10220 20191 40113 51009 75022 8//// 90600 22264 00220 2//// 3//// 4//// 80200
BBXX SHIP 03064 99219 71641 41397 50819 10238 20209 40176 51009 70211 84140 22263 06260 20303 30307 40706 51005 80218
BBXX VRWG3 03064 99448 70488 41/// 80412 10050 21025 40240 54000 747// 88/// 22222 0//// 21206 318// 4//// 5//// 6//// 80020 ICE /////
BBXX C6FV8 03064 99187 70658 43498 20513 10261 2//// 40080 57020 7//00 824// 22262 00286 20302 3//// 4//// 5//// 6//// 8//// ICE /////
BBXX DDAC2 03060 99290 71250 41/98 23508 10150 20133 40190 54000 7//00 81080 22234 04180 2//// 330// 40405 5//// 80140
BBXX PBIG 03064 99157 70726 41397 70814 10262 20201 40141 52010 70222 867// 22275 2////
BBXX PBWQ 03064 99232 70743 41/98 10433 10243 20158 40187 51005 70211 8//// 22274 00273 20303
BBXX 9VVP 03064 99322 71402 41597 20110 10190 20159 40295 51015 70100 8269/ 22234 00210 20702 30809 40504 5//// 6//// 80170 ICE /////
BBXX C6XP7 03063 99262 70789 41398 40723 10240 20211 40230 54/// 7//11 824// 22265 00210 20203 305// 4//// 5//// 6//// 80220 ICE ////
BBXX VOKJ 03064 99467 70714 46/// /2907 11019 21048 40340 53014 7//// 8//// 22213 0//// 2////
BBXX CGBN 03064 99447 70636 46/// /3204 10015 20008 40272 56001 7//// 8//// 22200 0//// 2////
BBXX VRYO3 03064 99515 70465 46/// /1022 10022 20031 40234 53020 7//// 8//// 22264 00082 2////
BBXX CGBR 03064 99536 71305 46/// /0710 10074 20073 40357 58002 7//// 8//// 22200 0//// 2////
BBXX CGJK 03064 99484 71234 46/// /0204 10028 20019 40336 54000 7//// 8//// 22200 0//// 2////
BBXX VAAP 03064 99465 70599 46/// /3312 10022 21018 40276 51005 7//// 8//// 22283 0//// 2////
BBXX VCWL 03064 99468 70712 46/// /1401 11008 21037 40340 53023 7//// 8//// 22200 0//// 2////
BBXX VCSZ 03064 99474 70526 46/// /0311 10013 20003 40272 51006 7//// 8//// 22241 0//// 2////
BBXX 46047 03061 99324 71195 46/// /2705 10149 40158 50000 90550 22200 00149 11004 20401 330// 41004 70019 333 91206 555 11050 22053 30533 42707 60549 271048 271052 270051 262050 257048 264047
BBXX 46069 03061 99337 71202 46/// /2907 10134 40147 57003 90550 22200 00139 11104 20601 331// 41103 70018 333 91209 555 11078 22082 30514 42809 60549 287073 282066 281065 280070 280064 279059
BBXX 46053 03061 99342 71198 46/// /2506 10141 40136 54000 90550 22200 00146 333 91207 555 11058 22061 30510 42709 60549 254055 265063 272068 275067 280071 266062
BBXX 46050 03061 99442 71246 46/// /3609 10091 40317 50000 90550 22200 00106 11407 20804 329// 41406 70037 333 91210 555 11091 22096 30508 43611 60549 004086 007082 006088 004090 004093 009092
BBXX 46027 03061 99419 71244 46/// /3514 10098 40254 52004 90550 22200 00100 11407 20805 329// 41405 70033 333 91216 555 11145 22155 30532 43518 60549 346137 347135 350133 348138 348135 345138
BBXX 41013 03061 99334 70777 46/// /0106 10150 20045 40307 50000 90550 22200 00202 11102 20401 311// 41102 70011 333 91207 555 11058 22060 30541 43607 60549 006056 006052 007050 014049 009047 006045
BBXX 44014 03061 99366 70748 46/// /0110 10141 20032 40310 54000 90550 22200 00161 11103 20302 312// 41103 70015 333 91212 555 11097 22097 30546 43612 60549 012096 012093 008095 006091 006092 005087
BBXX 44065 03061 99404 70737 46/// /3609 10074 20007 40329 51015 90550 22200 00117 11102 20402 312// 41101 70011 333 91211 555 11093 22097 30453 43512 60549 358089 347094 346091 346094 339096 348098 83411 90506
BBXX 41004 03061 99325 70791 46/// /0106 10168 20028 40309 58003 90550 22200 00210 11102 20301 3//// 41102 70011 333 91207 555 11058 22060 30456 40107 60549 014055 021054 017053 012053 008055 000057
BBXX 44040 03061 99410 70736 46/// /3504 10064 21006 40345 90545 22200 1//00 70001 333 91205 555 11046 22051
BBXX 44020 03061 99414 70702 46/// /3210 10074 20010 40297 51019 90550 22200 00098 10301 20301 70007 333 91213 555 11108 22114 30542 43213 60549 311103 255100 256100 256097 256099 262097
BBXX 41008 03061 99314 70809 46/// /0407 10160 20100 40304 58004 90550 22200 00177 11102 20501 300// 41102 70010 333 91208 555 11070 22073 30516 40309 60549 039066 040068 035069 028071 029070 029068
BBXX 44009 03061 99385 70747 46/// /3611 10093 40340 52014 90550 22200 00131 10603 20603 300// 41102 70017 333 91213 555 11112 22118 30452 43613 60549 004106 007105 003104 006104 002104 004105
BBXX 44025 03061 99402 70732 46/// /3409 10078 20013 40322 51018 90550 22200 00118 10503 20502 312// 41101 70013 333 91212 555 11098 22103 30540 43313 60549 342094 338093 337096 340093 340091 344088
BBXX 46105 03061 99590 71522 46/// ///// 1//// 90550 22200 10902 70008
BBXX 41049 03061 99275 70630 46/// /1705 10242 20203 40160 58011 90550 22200 00253 10904 20501 300// 40904 70021 333 91206 555 11055 22057 30451 41707 60549 173051 176052 171052 170053 173053 170056 81706 90452
BBXX 42020 03061 99270 70967 46/// /1312 10239 20180 40186 57016 90550 22200 00252 10605 20605 70023 333 91214 555 11125 22132 30529 41315 60549 129119 135113 132124 132124 133120 128120
BBXX 42035 03061 99292 70944 46/// /1109 10187 20174 40225 58010 90550 22200 00178 10503 20503 70016 333 91211 555 11092 22100 30456 41011 60549 106086 106090 106092 104091 103087 104093
BBXX 42001 03061 99259 70897 46/// /0909 10236 20153 40237 58005 90550 22200 00239 10604 20604 70019 333 91211 555 11100 22107 30451 41012 60549 090095 091098 090099 091097 097095 095099
BBXX 42039 03061 99288 70860 46/// /0808 10203 40269 58010 90550 22200 00235 10602 20602 70012 333 91211 555 11089 22093 30522 40811 60549 076085 077083 082086 080084 077086 075083 80810 90502
BBXX BATEU08 03064 99681 70541 46/// /0106 11037 21088 49983 53004 22283
BBXX BAREU00 03064 99466 70462 46/// ///// 40230 52018 22263
BBXX A8EY7 03064 99490 71469 41/97 82017 10090 20071 40350 58020 758// 8//// 22273 2//04 3//// 4//// 5//// 80080
BBXX C6JS 03063 99310 70744 41498 80522 10200 2014/ 40250 51020 70200 89/// 22284 20805 3//// 4//// 5//// 80160
BBXX PHET 03061 99258 70774 41/98 /0316 10218 20147 40220 57010 70222 8//// 22224 00250 2//// 3//// 4//// 5////
BBXX C6YA7 03064 99292 71365 41898 60521 10180 2016/ 40250 51010 70311 862// 22263 00180 2//// 3//// 4//// 5//// 6//// 80170 ICE /////
BBXX V7DI7 03064 99415 70566 41397 83623 10120 2010/ 40185 54000 70222 8//// 22213 00074 20306 335// 40608 5//// 6//// 80110 ICE /////
BBXX A8JE6 03064 99365 71392 41/97 50913 10145 20137 40318 55187 70000 8/61/ 22224 29901 310// 40603 5//// 80140
BBXX BAREU04 03064 99374 70761 46/// ///// 40336 52006 22244
BBXX 44027 03061 99443 70673 46/// /0104 10038 20012 40296 52015 90550 22200 00092 11102 3//// 41102 70009 333 91205 555 11039 22040 30458 43505 60549 014038 017040 014038 016037 022034 351038
BBXX 46014 03061 99394 71240 46/// /3412 10110 40194 51003 90550 22200 00106 11009 21007 3//// 41605 70044 333 91215 555 11131 22141 30455 43415 60549 342122 341121 342122 341125 342125 341123
BBXX 46011 03061 99350 71210 46/// /2801 10117 40155 52006 90550 22200 00126 11605 20401 331// 41605 70024 333 91202 555 11013 22014 30547 42902 60549 277013 277009 273004 180001 180001 180001
BBXX 44018 03061 99422 70698 46/// /3411 10069 20028 40296 53012 90550 22200 00097 10604 20603 313// 41102 70019 333 91212 555 11112 22117 30511 43214 60549 340106 344105 338109 332111 330112 326108
BBXX 46088 03061 99483 71232 46/// /1203 10065 40331 90550 22200 00085 1//00 70002 333 91203 555 11026 22026 30545 41303 60549 122025 120019 125016 101014 142010 158004
BBXX 46054 03061 99342 71204 46/// /2904 10132 40148 55000 90550 22200 00145 11105 20401 300// 41105 70023 333 91205 555 11041 22042 30522 43005 60549 294039 296038 298039 296039 293042 299036
BBXX 46025 03061 99337 71191 46/// /2606 10150 40142 57005 90550 22200 00155 11402 20401 322// 41401 70008 333 91207 555 11068 22072 30456 42609 60549 264064 265065 258062 260068 258069 257075
BBXX 46028 03061 99357 71219 46/// /3204 10123 40148 54000 90550 22200 00126 11106 20301 331// 41106 70030 333 91206 555 11045 22047 30451 43107 60549 321044 317040 311044 310046 309048 310056
BBXX 46029 03061 99461 71245 46/// /0504 10082 20038 40325 54000 90550 22200 00089 10907 20401 330// 40907 70037 333 91205 555 11037 22038 30540 40705 60549 051036 053040 042035 037034 014035 012037
BBXX 46012 03061 99374 71229 46/// /3310 10119 40160 51005 90550 22200 00118 11107 20905 333// 41105 70036 333 91213 555 11110 22118 30539 43313 60549 325104 325102 330099 326091 327090 327093
BBXX 46087 03061 99485 71247 46/// /0904 10072 20047 40334 52006 90550 22200 00088 11405 20301 328// 41405 70026 333 91206 555 11044 22045 30452 40907 60549 087042 089043 083042 086049 084047 083053
BBXX 46013 03061 99382 71233 46/// /3310 10114 40169 53012 90550 22200 00109 11607 20704 3//// 41606 70037 333 91213 555 11112 22120 30458 43314 60549 325102 325102 324101 323107 321109 320116
BBXX 46086 03061 99325 71180 46/// /2405 10157 40154 54000 90550 22200 00162 11003 20301 327// 41003 70013 333 91206 555 11051 22053 30518 42506 60549 244047 246053 249051 251055 252051 256046
BBXX BATEU07 03064 99298 31128 46/// /0914 10244 20030 40085 55001 22233
BBXX BATFR59 03064 99195 31595 46/// /1703 10279 20232 40074 55006 22231 00279
BBXX A8EH2 03064 99077 70833 41/98 62306 10255 20238 40123 58/// 70322 8/8// 22234 00255 20201 80243
BBXX FVNM 03064 99142 71167 46/// /0509 10267 20220 40145 51006 22200 00267
BBXX WDC6698 03064 99095 71441 43/// /0719 10283 20272 40110 5//// 7//// 8//// 222// 04258 2//// 3//// 4//// 5//// 6//// 8//// ICE /////
BBXX CG2350 03064 99433 70798 46/// /2702 10003 21016 40346 58003 7//// 8//// 22200 0//// 2////
BBXX CG2960 03064 99453 70814 46/// /2011 10012 21018 40320 58005 7//// 8//// 22222 00074 2////
BBXX 45008 03061 99443 70824 46/// /2110 10028 30101 40322 57009 90550 22200 00077 10402 20402 70009 333 91212 555 11108 22113 60549 207102 201098 207097 207091 206090 205086
BBXX 45002 03061 99453 70864 46/// /2213 10056 20007 30034 40254 58021 90550 22200 10605 20605 70025 333 91216 555 11138 22148 30530 42216 60549 215131 215126 217125 213124 215122 216121
BBXX CGDS 03064 99447 70755 46/// /3204 11025 21070 4//// 5//// 7//// 8//// 22200 0//// 2////
BBXX 45003 03061 99454 70828 46/// /2110 10026 30085 40308 58008 90550 22200 00073 10502 20502 70012 333 91212 555 11104 22109 30531 42313 60549 215098 218095 220095 215096 217095 216094
BBXX 45007 03061 99427 70870 46/// /1712 10047 20035 30053 40273 56024 90550 22200 00076 10604 20604 70019 333 91213 555 11122 22129 30457 41715 60549 170114 170116 174118 173118 170116 171118
BBXX 45005 03061 99417 70824 46/// /1605 10038 30120 40336 57004 90550 22200 00068 1//00 70002 333 91206 555 11053 22055 30529 41606 60549 160052 160050 160052 160049 159050 162048
BBXX WDF7019 03064 99447 70831 43/98 /2128 10004 2//// 40288 57/// 7//// 8//// 22242 0//// 2//// 3//// 4//// 5//// 6//// 8//// ICE /////
BBXX VCPX 03064 99449 70828 41/98 10000 10003 2//// 40312 57002 70200 8//// 22273 00069 20402 3//// 4//// 5//// 6//// 8//// ICE /////
BBXX C6FR6 03064 99353 10258 41/// 12408 10150 2//// 40260 5/010 7//// 8//// 22253 0//// 2//// 3//// 4//// 5//// 6//// 8//// ICE /////
BBXX DBBH 03061 99547 10127 41597 22013 10048 20025 40042 57027 70221 82501 22252 04072
BBXX TFNA 03061 99675 70221 41/97 80514 11038 49871 77172 22232 00049
BBXX TFEA 03061 99674 70210 42/98 80414 11036 49875 22242 00061
BBXX DK7210 03061 99540 10066 46/// /2019 10080 20080 39930
AAXX 03064 78016 11564 80108 10216 20171 30200 40204 57011 69901 71682 8387/ 333 10229 20205 79999 90930
BBXX TFBKF 03064 99635 70202 46/// ///// 22200 11005 70023
BBXX TFBLK 03064 99657 70248 46/// ///// 22200 10806 70030
BBXX TFDRN 03064 99658 70212 46/// ///// 22200 10805 70027
BBXX TFGRS 03064 99663 70182 46/// ///// 22200 10705 70025
BBXX TFGRV 03064 99638 70225 46/// ///// 22200 11006 70030
BBXX TFGSK 03064 99641 70229 46/// ///// 22200 11008 70039
BBXX TFHFN 03064 99642 70152 46/// ///// 22200 11006 70029
BBXX TFKGR 03064 99657 70136 46/// ///// 22200 10911 70057
BBXX TFSRT 03064 99633 70203 46/// ///// 22200 11009 70047
BBXX TFSTD 03064 99664 70234 46/// ///// 22200 10706 70030
BBXX 42065 03061 99149 70750 46/// /0708 10274 20223 90550 22200 10603 20603 3//// 40901 70015 333 91210 555 11087 22092 30457 40610 60549 069079 067080 062082 059085 061086 063085 80709 90451
BBXX 42012 03061 99301 70876 46/// /0906 10190 20115 40280 57006 90550 22200 00197 10602 20501 314// 40601 70008 333 91208 555 11063 22067 30452 40908 60549 092060 091062 087065 095065 092065 095069
BBXX 41048 03061 99320 70696 46/// /0511 10214 20153 40232 58005 90550 22200 00233 11004 20804 3//// 41002 70021 333 91214 555 11114 22120 30513 40415 60549 050116 046113 042118 041125 047109 046110 80414 90514
BBXX 41044 03061 99217 70587 46/// /1209 10257 20225 40150 58011 90550 22200 00271 10804 20602 300// 40803 70019 333 91210 555 11095 22100 30545 41210 60549 122087 122053 123046 119047 109050 108064 81210 90546
BBXX 41001 03061 99347 70727 46/// ///// 10170 20083 40287 57003 90550 22200 00230 11104 70018
BBXX 46080 03061 99580 71500 46/// /2207 10054 20054 40233 51016 90550 22200 00055 11006 20603 3//// 41005 70030 333 91209 555 11076 22080 30525 42210 60549 218070 217067 216077 218072 218065 219067 82208 90525
BBXX 46059 03061 99380 71300 46/// /0213 10129 40310 52003 90550 22200 00152 11008 20606 3//// 41006 70042 333 91216 555 11139 22147 30520 40217 60549 018131 017129 019132 019134 019129 023131
BBXX 46005 03061 99461 71310 46/// ///07 10094 40392 55000 90550 22200 00103 11405 20602 3//// 41405 70025 333 91208 555 11072 22076
BBXX 46075 03061 99539 71608 46/// /1613 10054 20052 40082 58025 90550 22200 00053 11108 20705 300// 41106 70041 333 91216 555 11137 22147 30547 41616 60549 158129 157122 157123 159120 161122 162128 81614 90548
BBXX 44066 03061 99396 70726 46/// /3510 10095 20034 40312 51015 90550 22200 00130 10604 20604 3//// 41102 70021 333 91213 555 11110 22116 30455 43314 60549 349105 344113 344109 346112 347110 340107
BBXX 46078 03061 99561 71526 46/// /1807 10040 20028 40219 54000 90550 333 91208 555 11073 22077 30529 41910 60549 182069 188066 188074 188075 187072 189071 81908 90519
BBXX 46084 03061 99566 71361 46/// /2512 10070 20040 40289 54000 90550 22200 00074 11107 20705 300// 41106 70037 333 91214 555 11124 22132 30451 42614 60549 255116 254108 252110 252109 254112 254112
BBXX 46006 03061 99408 71375 46/// /0908 10116 40389 51004 90550 22200 00129 11304 20703 3//// 41303 70020 333 91209 555 11084 22088 30522 41010 60549 090078 087073 089077 084074 085077 084073
BBXX 41047 03061 99275 70715 46/// /0411 10226 40211 57008 90550 22200 00254 10807 20807 70033 333 91213 555 11113 22119 30457 40414 60549 039113 040112 042111 041114 039115 038115 80412 90457
BBXX 46002 03061 99426 71305 46/// ///// 10110 40365 58009 90550 22200 00126 10806 70032
BBXX 42002 03061 99258 70937 46/// /1310 10236 20141 40221 58010 90550 22200 00248 10602 20602 70012 333 91212 555 11100 22107 30540 41312 60549 129101 121102 116091 124089 120095 120088
BBXX 42040 03061 99292 70882 46/// /1109 10196 40274 57005 90550 22200 00226 10503 20503 70015 333 91211 555 11090 22094 30501 41212 60549 112089 111091 111084 118094 112098 110096
BBXX 44005 03061 99432 70691 46/// /3411 10063 20008 40291 53019 90550 22200 00094 11103 20402 3//// 41102 70014 333 91212 555 11111 22117 30528 43412 60549 340103 341102 341098 340095 343099 344097
BBXX 42055 03061 99222 70940 46/// /0908 10240 20154 40203 90550 22200 00262 10603 20603 70013 333 91209 555 11079 22083 30500 40810 60549 088073 087074 082077 083079 079081 088077 80809 90453
BBXX 42019 03061 99279 70954 46/// /1510 10232 20166 40203 58013 90550 22200 10604 20604 70020 333 91213 555 11106 22113 30459 42813 60549 158100 281101 281099 281104 281102 279107
BBXX 41043 03061 99211 70650 46/// /0403 10254 20196 40157 58010 90550 22200 00270 10903 20401 300// 40903 70015 333 91204 555 11031 22032 30533 40304 60549 038030 037033 045030 049028 040028 039027 80304 90533
BBXX 42057 03061 99170 70815 46/// /0410 10270 40149 58011 90550 22200 00282 10804 20804 70021 333 91212 555 11107 22113 30513 40412 60549 040102 043102 041097 040100 044100 044098 80411 90530
BBXX 41036 03061 99342 70770 46/// ///// 10148 20037 40308 50000 90550 22200 00171 11102 70009
BBXX 42036 03061 99285 70845 46/// /0709 10192 20139 40273 57006 90550 22200 00221 10502 20502 70011 333 91210 555 11092 22096 30505 40711 60549 073087 071086 070087 070085 071088 071090
BBXX 42056 03061 99198 70849 46/// /0509 10257 20159 40186 90550 22200 00278 10704 20704 70021 333 91211 555 11091 22096 30455 40613 60549 055085 054092 057091 063096 059098 063104 80611 90451
BBXX 42058 03061 99149 70749 46/// /0708 10278 20219 40120 58010 90550 22200 00281 10603 20603 70015 333 91210 555 11090 22095 30510 40711 60549 073084 073082 070085 069092 066093 064088 80710 90511
BBXX 42060 03061 99163 70635 46/// /0406 10275 20233 40129 58013 90550 22200 00284 10502 20502 300// 40901 70011 333 91207 555 11066 22069 30516 40508 60549 044062 045062 040069 042069 044063 048064 80507 90516
BBXX 41012 03061 99300 70805 46/// /0508 10209 40277 58008 90550 22200 00235 333 91210 555 11088 22092 30548 40410 60549 049083 050073 055073 046075 044077 047073
BBXX 42059 03061 99151 70675 46/// /0609 10277 20226 40125 58013 90550 22200 00285 10503 20503 3//// 40901 70014 333 91210 555 11092 22097 30548 40710 60549 059086 056080 058082 059086 060079 059083 80609 90540
BBXX 42003 03061 99260 70856 46/// /0810 1//// 90550 22200 10703 20703 70017 333 91212 555 11106 22113 30459 41013 60549 080098 082097 083099 082103 086101 090100 80911 90459
BBXX NWS0022 03064 99416 70714 43/// /3409 10058 20006 40315 5//// 7//// 8//// 222// 04136 2//// 3//// 4//// 5//// 6//// 8//// ICE /////
BBXX WCX8883 03064 99535 71778 41/94 83647 10005 2001/ 49860 55026 77177 88/// 22254 00040 20304 301// 40607 5//// 6//// 80005 ICE /////
BBXX WSRL 03064 99293 71411 41498 50815 10198 2015/ 40270 53002 7//22 851// 22255 00194 2//// 3//// 4//// 5//// 6//// 80170 ICE /////
BBXX A8NW9 03064 99239 70466 41598 10620 10253 20178 40255 50000 70200 81100 22264 04250 20703 307// 41004 80203
BBXX C6KJ5 03064 99244 70923 41497 51115 10220 2016/ 40230 53005 70222 85210 22273 00261 60180
AAXX 03063 04013 42589 81402 11056 21091 49851 52011 82220 555 3//09
AAXX 03063 04064 NIL
BBXX CGTF 03064 99476 70527 46/// /3202 10013 21027 40279 51008 7//// 8//// 22200 0//// 2////
BBXX VOPP 03064 99456 70735 46/// /2805 11028 21072 4//// 5//// 7//// 8//// 22200 0//// 2////
BBXX CGUM 03064 99447 70636 46/// /3403 10010 20007 40287 56001 7//// 8//// 22200 0//// 2////
BBXX CGDR 03064 99522 71282 46/// /1204 10045 20044 40368 56006 7//// 8//// 22200 0//// 2////
BBXX CGHL 03064 99476 70527 46/// /3602 10014 21027 40279 51008 7//// 8//// 22200 0//// 2////
BBXX VCBW 03064 99485 70685 46/// /3611 11035 21067 40337 52022 7//// 8//// 22200 0//// 2////
BBXX VCRG 03064 99474 70619 46/// /2805 10007 21034 40305 51011 7//// 8//// 22200 0//// 2////
BBXX CGDG 03064 99426 70497 46/// /1004 10086 20111 40199 56022 7//// 8//// 22271 00074 2////
BBXX CG2965 03064 99487 71235 46/// /3006 10041 20022 40340 51003 7//// 8//// 22200 0//// 2////
BBXX VAAZ 03064 99512 70498 46/// /2814 11008 21046 40254 53001 7//// 8//// 22281 0//// 2////
BBXX CG2958 03064 99487 71235 46/// /3006 10040 20026 40347 53002 7//// 8//// 22200 0//// 2////
BBXX CGBY 03064 99487 71235 46/// /3005 10034 20015 40338 53002 7//// 8//// 22200 0//// 2////
BBXX CGDX 03064 99468 70712 46/// /1301 11005 21032 40340 53023 7//// 8//// 22200 0//// 2////
BBXX CGSB 03064 99468 70712 46/// /1402 11003 21035 40340 53023 7//// 8//// 22200 0//// 2////
BBXX CGJV 03064 99459 70594 46/// /0116 10029 21009 40276 50004 7//// 8//// 22262 00072 2////
BBXX VCLM 03064 99563 70596 46/// /2828 11067 21095 40183 55005 7//// 8//// 22273 00009 2////
BBXX 44007 03061 99435 70701 46/// /3408 10054 40305 53021 90550 22200 00090 11102 20301 3//// 41102 70011 333 91210 555 11084 22088 30452 43311 60549 335080 331073 327073 337087 339090 336091
BBXX 44013 03061 99423 70707 46/// /3411 10064 20004 40305 51019 90550 22200 00100 10402 20402 300// 41001 70012 333 91213 555 11111 22117 30515 43413 60549 336105 335105 334105 336108 335103 334102
BBXX 46026 03061 99378 71228 46/// /3207 10120 40162 51008 90550 22200 00114 11006 20603 331// 41005 70029 333 91208 555 11072 22079 30519 43011 60549 312068 286081 283085 287086 286083 283079
BBXX 46041 03061 99474 71247 46/// /1405 10077 40326 54000 90550 22200 00100 11406 20501 3//// 41406 70031 333 91207 555 11055 22058 30506 41308 60549 139053 135054 136054 137054 135054 130057
BBXX 46015 03061 99427 71248 46/// ///// 10095 30295 40295 51004 90550 22200 00103 11507 70035
BBXX 46072 03061 99517 71722 46/// /2022 10048 20019 49808 58009 90550 22200 00056 11114 20709 3//// 41111 70070 333 91228 555 11236 22253 30549 42028 60549 196221 197209 198200 199213 201204 201202 82024 90546
BBXX 46085 03061 99559 71425 46/// /2108 1//// 90550 555 11082 22088
BBXX 46082 03061 99597 71434 46/// ///// 10058 20058 40232 51023 90550 22200 00065 11109 70044
BBXX 46077 03061 99579 71543 46/// /0506 10036 20034 40194 52003 90550 22200 00051 11102 20501 3//// 41102 70012 333 91207 555 11061 22064 30537 40507 60549 044057 044058 040052 042049 038048 038055 80406 90540
BBXX 46001 03061 99563 71480 46/// /2108 10036 40265 53006 90550 22200 00050 11309 20704 300// 41308 70043 333 91210 555 11081 22085 30543 42110 60549 208076 208070 212073 213073 212079 212075
BBXX 46035 03061 99571 71778 46/// /0306 1//// 49956 56031 90550 22200 11105 20401 300// 41105 70027 333 91207 555 11056 22059 30537 40307 60549 029056 025054 024051 027049 025043 020036 80206 90538
BBXX 41040 03061 99145 70530 46/// /0708 10265 20234 40114 56019 90550 22200 00275 10905 20503 3//// 40903 70023 333 91211 555 11085 22090 30542 40711 60549 070081 074083 075082 072083 068067 069066 80710 90542
AAXX 03064 04005 42489 60506 11008 21074 49858 52010 86800 555 3/308
AAXX 03064 04018 42582 50307 11048 21085 49831 52010 70281 81212 555 3//07 81925 85465
AAXX 03064 04030 42986 71003 11058 21098 49834 52010 80008 555 3//08 87065
AAXX 03064 04048 42689 13615 11032 21064 49819 52003 81540 555 3/622
AAXX 03064 04063 41670 81903 11046 21066 49844 52005 77072 8592/ 555 3//04
AAXX 03064 04077 NIL
AAXX 03064 04082 NIL
AAXX 03064 04097 41/08 93631 11010 21026 49793 52020 77373 555 3/433
AAXX 03061 06414 16/// /2110 10074 20047 30014 40046 56038 69952 333 20049 91116 91211
AAXX 03061 06459 16/// /2110 10059 20052 39898 40091 56031 69912 333 20041 3/100 91116 91210
AAXX 03061 06494 36/// /2209 10014 20011 39301 40108 55030 60002 333 20000 91114 91209
AAXX 03064 78526 NIL
AAXX 03064 78543 NIL
AAXX 03064 48307 32562 30000 10283 20177 39724 40098 57027 81555 333 59026
AAXX 03064 48324 32560 50602 10281 20205 39880 40097 56027 82535 333 59020
AAXX 03064 48333 32562 10000 10270 20184 39803 40102 57026 81100 333 59022
AAXX 03064 48350 NIL
AAXX 03064 48355 31958 20000 10250 20129 39901 40120 70500 80001 333 59006
AAXX 03064 48358 32960 50904 10255 20118 39948 40123 80005 333 59009
AAXX 03064 48384 32960 60601 10265 20149 39927 40117 57022 80006 333 59011
AAXX 03064 48401 32962 21106 10285 20184 30001 40107 80005 333 59013
AAXX 03064 48404 32962 60603 10257 20134 39931 40109 58022 80007 333 59009
AAXX 03064 48409 NIL
AAXX 03064 48419 31959 40405 10310 20222 30086 40094 56023 70511 80005 333 59009
AAXX 03064 48427 NIL
AAXX 03064 48435 32965 31126 10256 20146 39669 40105 57017 80005 333 59001
AAXX 03064 48453 32960 60505 10296 20175 30088 40091 57023 85036 333 59007
AAXX 03064 48458 32962 70506 10298 20170 30030 40109 57023 80001 333 59005
AAXX 03064 48474 32565 50406 10307 20187 39964 40086 57026 83205 333 59009
AAXX 03064 48481 32560 63403 10319 20209 30065 40092 57014 83801 333 58000
AAXX 03064 48555 31558 50502 10310 20196 30065 40106 55052 70511 83246 333 59010
AAXX 03064 48556 32562 50000 10325 20239 30066 40082 57015 82146 333 59013
AAXX 03064 48557 32562 50000 10320 20233 30044 40078 57020 82806 333 59021
AAXX 03064 48560 31558 50000 10313 20246 30076 40080 56026 71011 82245 333 59013
AAXX 03064 48574 32563 60000 10317 20244 30043 40072 57023 83136 333 59025
AAXX 03064 48581 32460 80000 10315 20236 30040 40081 57025 85246 333 59013
AAXX 03064 78255 42959 00405 10189 20137 30054 40203 57010
AAXX 03064 78317 NIL
AAXX 03064 78318 NIL
AAXX 03064 78325 NIL
AAXX 03064 78333 NIL
AAXX 03064 78338 NIL
AAXX 03064 78348 NIL
AAXX 03064 78349 NIL
AAXX 03064 78353 NIL
AAXX 03064 78360 NIL
AAXX 03064 78367 NIL
AAXX 03064 78369 NIL
AAXX 03064 68226 32960 30000 10250 20199 48514 52012 83080 333 20185
AAXX 03064 68328 32960 11205 10264 20085 48527 52019 80001 333 20157
BBXX TBWUK14 03063 99093 31157 41498 41813 10340 20302 40080 54000 7//11 842// 22283 06290 20302 399// 40302 80310
AAXX 03064 43466 22470 32303 10305 20217 30071 40083 81101 333 59019 60007 70008 81818 83080
BBXX PCQL 03063 99351 31160 41/98 /0922 10218 20162 40145 56035 70200 8//08 22263 04192 20305 80182
BBXX PBCK 03063 99078 31228 41697 23607 10302 20230 40054 57026 702// 81902 22223 00320 20201 30000 80250 59999
AAXX 03064 91925 06/// /3402 10236 20187 30076 40137 52019 60001 333 55053 60007 90710 91108 555 60005 13008 58014
AAXX 03064 91929 04/75 /0612 10273 20233 30126 40129 51019 60002 700// 333 10301 20272 55/// 60007 70000 90710 91115 555 60005
AAXX 03064 91938 02570 60903 10275 20190 30138 40140 53021 69962 86800 333 10304 20258 30/// 55093 60007 70006 81820 86658 90710 91115 555 60005 10517 58013
AAXX 03064 91943 16/// /0809 10264 20216 30133 40135 51018 60014 333 20261 58008
AAXX 03064 91944 06/// /0523 10240 20205 30158 40161 52024 60012 333 10284 20238 55111 60017 70012 90710 91131 555 60015
AAXX 03064 91948 06/// /0204 10229 20199 30089 40192 51015 60001 333 55092 60007 90710 91109 555 60005 10209 58002
AAXX 03064 91954 06/// /1704 1//// 2//// 30153 4//// 50017 60011 333 55/// 60017 555 58004
AAXX 03064 91958 06/// /1506 10195 20180 30172 40174 53009 60121 333 55005 60077 90710 91111 555 60025 11916 58007
AAXX 03064 91945 NIL
AAXX 03064 91165 NIL
AAXX 03064 91182 NIL
AAXX 03064 91190 NIL
AAXX 03064 91212 NIL
AAXX 03064 91217 NIL
AAXX 03064 91285 NIL
AAXX 03064 91317 NIL
AAXX 03064 91334 31474 80410 10289 20245 30051 40054 55005 71622 82371 333 56199 70028 555 90306
AAXX 03064 91348 11474 80803 10289 20242 30019 40071 53003 60021 70282 83101 333 561/9 70180 555 90306 /
AAXX 03064 91348 11474 80803 10289 20242 30019 40071 53003 60021 70282 83101 333 561/9 70180 555 90306
AAXX 03064 91348 11474 80803 10289 20242 30019 40071 53003 60021 70282 83101 333 561/9 70180 555 90306
AAXX 03064 91356 NIL
AAXX 03064 91366 NIL
AAXX 03064 91369 NIL
AAXX 03064 91371 NIL
AAXX 03064 91376 11474 80808 10276 20244 30058 40061 53012 60011 70282 85878 333 56229 70104 555 90306
AAXX 03064 91408 NIL
AAXX 03064 91413 32469 71208 10309 20251 30037 40062 57010 82171 333 56399 70008 555 90306
AAXX 03064 91425 NIL
AAXX 03064 91434 NIL
AAXX 03064 91765 NIL
AAXX 03061 76040 32902 /1601 10098 20042 30126 40140 52002 90545 333 10182 20070 30/// 55047 59001 98602
AAXX 03061 76055 32970 01904 10115 20059 30114 40133 55002 90540 333 10176 20056 30/// 58011
AAXX 03061 76225 32520 32504 10142 20022 38573 40044 53006 83100 90540 333 10210 20076 30/// 55023 56500 59040 83827
AAXX 03061 76305 32970 00000 10150 20104 30146 40154 52007 90540 333 10262 20188 30/// 58///
AAXX 03061 76323 32910 01502 10132 20017 38230 40105 55006 90555 333 10232 20086 30/// 55048 59039
AAXX 03061 76373 32910 11101 10096 20003 38188 40129 57015 80001 90550 333 10218 21010 30/// 55049 21159 56009 59033 81067
AAXX 03061 76382 32960 21802 10204 20094 38869 40077 57002 80002 90256 333 10280 20125 30/// 55036 2//// 56005 59030 82076
AAXX 03061 76390 31850 11905 10156 20018 38222 40122 57011 70544 81060 90530 333 10205 20055 30/// 55080 21312 56040 59014 81356
AAXX 03061 76393 32520 21202 10192 20131 39574 40139 57015 82400 90550 333 10269 20130 30/// 55075 56700 59022
AAXX 03061 76402 32950 00000 10124 20107 30101 40158 52002 90545 333 10232 20138 30/// 55012 2//// 58015
AAXX 03061 76423 11960 02801 10113 20029 38153 40106 57005 69901 70150 90545 333 10252 20020 30/// 55095 21160 59014
AAXX 03061 76458 12860 51202 10220 20208 30149 40153 52005 69901 85050 90543 333 10282 20136 30/// 55040 56050 58006 85358
AAXX 03061 76491 32956 01603 10208 20170 39800 40182 57011 90545 333 10298 20122 30/// 55095 58///
AAXX 03061 76525 32960 02006 10114 20011 37482 40104 52001 90540 333 10185 20106 30/// 55092 22653 59001
AAXX 03061 76539 32958 03601 10063 20048 38185 40177 52009 90550 333 10270 20010 30/// 55082 58015
AAXX 03061 76548 32960 01302 10200 20179 30198 40208 57005 90540 333 10280 20168 30/// 55066 59003
AAXX 03061 76556 32960 00000 10160 20124 39137 40141 52005 90530 333 10279 20104 30/// 55099 58006
AAXX 03061 76571 32910 00000 10108 20032 38174 40117 54012 90545 333 10264 20035 30/// 55087 59002
AAXX 03061 76577 32960 00000 10130 20108 38056 40114 52009 90540 333 10266 20071 30/// 55073 59003
AAXX 03061 76581 32960 00000 10120 20105 39097 40203 52003 90550 333 10240 20063 30/// 55083 58001
AAXX 03061 76612 32958 01701 10153 20058 38487 40122 51006 90550 333 10280 20055 30/// 55098 21236 58002
AAXX 03061 76625 32960 00903 10151 20026 38156 40090 52011 90530 333 10280 20080 30/// 55080 58007
AAXX 03061 76632 31950 00705 10110 20000 37647 40090 5//// 70500 90540 333 10200 20082 30/// 55092 59003
AAXX 03061 76634 31970 00000 10078 20075 37869 40162 57002 71042 90550 333 10241 20062 30/// 55099 21859 59001
AAXX 03061 76644 32350 10901 10192 20168 30203 40215 52001 81200 90550 333 10294 20170 30/// 55089 21124 561// 58005 81810
AAXX 03061 76654 31956 03602 10228 20205 30163 40167 52009 70544 90550 333 10294 20210 30/// 55090 21070 58009
AAXX 03061 76665 32958 01801 10121 20084 38135 40116 52001 90550 333 10290 20050 30/// 55080 21283 58001
AAXX 03061 76675 32960 02001 10050 20034 37398 40119 52016 90545 333 10231 21015 30/// 55098 2//// 58003
AAXX 03061 76680 31956 02302 10122 21017 37767 40120 54000 70400 90550 333 10243 30065 30/// 55009 20774 59001
AAXX 03061 76683 32959 00000 10068 20010 37842 40149 57001 90550 333 10255 20022 30/// 50401 55100 21849 59008
AAXX 03061 76685 32950 00601 10108 21019 37896 40125 52014 90550 333 10250 20032 30/// 55104 58011
AAXX 03061 76687 31230 82001 10130 20119 38714 40205 57006 74042 886// 90543 333 10204 20050 30/// 55072 563// 58006 83708 85610
AAXX 03061 76692 31520 22301 10219 20177 30186 40205 50001 71040 825// 90545 333 10285 20135 30/// 55071 563// 58004 82628
AAXX 03061 76695 32956 00503 10192 20147 30188 40194 58005 90545 333 10275 20152 30/// 55088 58001 91005 91505
AAXX 03061 76726 32968 03601 10170 21006 38406 40098 52004 90535 333 10282 20110 30/// 55/// 58001
AAXX 03061 76737 31980 60000 10134 20096 38810 40196 58006 70122 8605/ 90532 333 10201 20050 30/// 55083 5609/ 58002 86358
AAXX 03061 76750 32558 13303 10176 20160 30184 40194 57010 81100 90550 333 10320 20155 30/// 55080 56100 59002 81820
AAXX 03061 76762 31602 20000 10167 20151 38774 40127 52001 70300 82400 90535 333 10302 20098 30/// 55096 21760 56400 58000 82638
AAXX 03061 76775 32960 00501 10107 20030 38544 40159 52004 90545 333 10296 20042 30/// 55084 59001
AAXX 03061 76805 32960 03301 10233 20229 30145 40149 50004 90545 333 10315 20215 30/// 55096 21049 58001
AAXX 03061 76833 32958 03609 10236 20168 30148 40151 57001 90540 333 10292 20228 30/// 55088 58006 92000
AAXX 03061 76843 32465 30000 10174 20149 39527 40173 50001 82109 90545 333 0//// 10246 20140 30/// 55074 59003 82810
AAXX 03061 76845 32930 00401 10060 20052 37965 40175 58004 90545 333 10220 20004 30/// 55074 59003
AAXX 03061 76848 32450 70502 10123 20092 38403 40126 50002 87400 90550 333 10216 20078 30/// 55084 56100 58003 87613
AAXX 03061 76160 32958 00501 10118 20073 39906 40156 5//// 90550 333 10185 20135 30/// 58025
AAXX 03061 76311 11520 81402 10176 20159 39867 40140 52012 60031 70262 887// 90555 333 10274 20140 32/// 55015 59001 60027 88820
AAXX 03061 76405 32940 01801 10200 20170 30127 40148 50002 90550 333 10276 20170 30/// 55054 2//// 58004
AAXX 03061 76640 31010 30000 10182 20179 30206 40218 52001 70300 832// 90540 333 10266 20138 30/// 55073 567// 58024 83801
AAXX 03061 76741 31340 30504 10224 20190 30166 40184 52002 70544 83200 90530 333 10266 20157 30/// 55061 561// 58/// 83810
BBXX PHAC 03063 99384 70114 41/98 43515 10157 20105 40285 50007 7//11 84/// 22282 2//02 334// 40607 80127 59999
AAXX 03064 91222 NIL
AAXX 03064 91245 NIL
AAXX 03064 91323 NIL
AAXX 03064 91339 NIL
AAXX 03064 91343 NIL
AAXX 03064 91353 NIL
AAXX 03064 91442 NIL
AAXX 03061 33088 32597 82903 10046 20021 39966 40158 52018 885// 333 20036
AAXX 03061 33177 NIL
AAXX 03061 33261 32997 71904 10011 21012 39987 40173 57008 87030 333 21005
AAXX 03061 33275 32497 81807 10002 21012 39979 40208 57002 8265/ 333 21004
AAXX 03061 33301 32597 72606 10027 20003 39888 40174 53019 86530 333 20020 86628
AAXX 03061 33325 32997 02002 10002 21025 39899 40173 53007 80001 333 20002
AAXX 03061 33377 31456 81604 11005 21017 30006 40205 56002 71011 8667/ 333 21016
AAXX 03061 33415 31996 09901 11042 21051 39783 40195 52012 71000 333 21043
AAXX 03061 33429 31995 32204 11027 21034 39757 40195 52009 71011 83030 333 21030
AAXX 03061 33466 NIL
AAXX 03061 33526 31927 30000 11052 21062 39841 40197 52010 71011 83030 333 21057
AAXX 03061 33562 31940 42203 11015 21020 39818 40190 52006 71011 84030 333 21016
AAXX 03061 33614 31496 81502 11003 21018 30116 40224 57003 71011 885// 333 21021 88715
AAXX 03061 33761 31330 89905 10027 20017 39979 40206 54000 71022 886// 333 21005 88707
AAXX 03061 33902 31595 71501 10002 21006 30168 40236 57002 71022 87500 333 21045
AAXX 03061 33983 31/92 90000 11033 21033 30210 40273 52004 74541 333 21036
AAXX 03061 34415 31336 81802 11010 21014 30160 40260 53001 71022 886// 333 21013
AAXX 03061 34523 32597 81301 11019 21043 30201 40280 53009 885// 333 21025 47001 88625
AAXX 03061 34712 32462 81403 10002 21007 30189 40278 52009 886// 333 20001 88716
AAXX 03061 76040 32902 /1601 10098 20042 30126 40140 52002 90545 33310182 20070 30/// 55047 59001 98602
AAXX 03061 76055 32970 01904 10115 20059 30114 40133 55002 90540 33310176 20056 30/// 58011
AAXX 03061 76225 32520 32504 10142 20022 38573 40044 53006 83100 90540333 10210 20076 30/// 55023 56500 59040 83827
AAXX 03061 76305 32970 00000 10150 20104 30146 40154 52007 90540 33310262 20188 30/// 58///
AAXX 03061 76323 32910 01502 10132 20017 38230 40105 55006 90555 33310232 20086 30/// 55048 59039
AAXX 03061 76373 32910 11101 10096 20003 38188 40129 57015 80001 90550333 10218 21010 30/// 55049 21159 56009 59033 81067
AAXX 03061 76382 32960 21802 10204 20094 38869 40077 57002 80002 90256333 10280 20125 30/// 55036 2//// 56005 59030 82076
AAXX 03061 76390 31850 11905 10156 20018 38222 40122 57011 70544 8106090530 333 10205 20055 30/// 55080 21312 56040 59014 81356
AAXX 03061 76393 32520 21202 10192 20131 39574 40139 57015 82400 90550333 10269 20130 30/// 55075 56700 59022
AAXX 03061 76402 32950 00000 10124 20107 30101 40158 52002 90545 33310232 20138 30/// 55012 2//// 58015
AAXX 03061 76423 11960 02801 10113 20029 38153 40106 57005 69901 7015090545 333 10252 20020 30/// 55095 21160 59014
AAXX 03061 76458 12860 51202 10220 20208 30149 40153 52005 69901 8505090543 333 10282 20136 30/// 55040 56050 58006 85358
AAXX 03061 76491 32956 01603 10208 20170 39800 40182 57011 90545 33310298 20122 30/// 55095 58///
AAXX 03061 76525 32960 02006 10114 20011 37482 40104 52001 90540 33310185 20106 30/// 55092 22653 59001
AAXX 03061 76539 32958 03601 10063 20048 38185 40177 52009 90550 33310270 20010 30/// 55082 58015
AAXX 03061 76548 32960 01302 10200 20179 30198 40208 57005 90540 33310280 20168 30/// 55066 59003
AAXX 03061 76556 32960 00000 10160 20124 39137 40141 52005 90530 33310279 20104 30/// 55099 58006
AAXX 03061 76571 32910 00000 10108 20032 38174 40117 54012 90545 33310264 20035 30/// 55087 59002
AAXX 03061 76577 32960 00000 10130 20108 38056 40114 52009 90540 33310266 20071 30/// 55073 59003
AAXX 03061 76581 32960 00000 10120 20105 39097 40203 52003 90550 33310240 20063 30/// 55083 58001
AAXX 03061 76612 32958 01701 10153 20058 38487 40122 51006 90550 33310280 20055 30/// 55098 21236 58002
AAXX 03061 76625 32960 00903 10151 20026 38156 40090 52011 90530 33310280 20080 30/// 55080 58007
AAXX 03061 76632 31950 00705 10110 20000 37647 40090 5//// 70500 90540333 10200 20082 30/// 55092 59003
AAXX 03061 76634 31970 00000 10078 20075 37869 40162 57002 71042 90550333 10241 20062 30/// 55099 21859 59001
AAXX 03061 76644 32350 10901 10192 20168 30203 40215 52001 81200 90550333 10294 20170 30/// 55089 21124 561// 58005 81810
AAXX 03061 76654 31956 03602 10228 20205 30163 40167 52009 70544 90550333 10294 20210 30/// 55090 21070 58009
AAXX 03061 76665 32958 01801 10121 20084 38135 40116 52001 90550 33310290 20050 30/// 55080 21283 58001
AAXX 03061 76675 32960 02001 10050 20034 37398 40119 52016 90545 33310231 21015 30/// 55098 2//// 58003
AAXX 03061 76680 31956 02302 10122 21017 37767 40120 54000 70400 90550333 10243 30065 30/// 55009 20774 59001
AAXX 03061 76683 32959 00000 10068 20010 37842 40149 57001 90550 33310255 20022 30/// 50401 55100 21849 59008
AAXX 03061 76685 32950 00601 10108 21019 37896 40125 52014 90550 33310250 20032 30/// 55104 58011
AAXX 03061 76687 31230 82001 10130 20119 38714 40205 57006 74042 886//90543 333 10204 20050 30/// 55072 563// 58006 83708 85610
AAXX 03061 76692 31520 22301 10219 20177 30186 40205 50001 71040 825//90545 333 10285 20135 30/// 55071 563// 58004 82628
AAXX 03061 76695 32956 00503 10192 20147 30188 40194 58005 90545 33310275 20152 30/// 55088 58001 91005 91505
AAXX 03061 76726 32968 03601 10170 21006 38406 40098 52004 90535 33310282 20110 30/// 55/// 58001
AAXX 03061 76737 31980 60000 10134 20096 38810 40196 58006 70122 8605/90532 333 10201 20050 30/// 55083 5609/ 58002 86358
AAXX 03061 76750 32558 13303 10176 20160 30184 40194 57010 81100 90550333 10320 20155 30/// 55080 56100 59002 81820
AAXX 03061 76762 31602 20000 10167 20151 38774 40127 52001 70300 8240090535 333 10302 20098 30/// 55096 21760 56400 58000 82638
AAXX 03061 76775 32960 00501 10107 20030 38544 40159 52004 90545 33310296 20042 30/// 55084 59001
AAXX 03061 76805 32960 03301 10233 20229 30145 40149 50004 90545 33310315 20215 30/// 55096 21049 58001
AAXX 03061 76833 32958 03609 10236 20168 30148 40151 57001 90540 33310292 20228 30/// 55088 58006 92000
AAXX 03061 76843 32465 30000 10174 20149 39527 40173 50001 82109 90545333 0//// 10246 20140 30/// 55074 59003 82810
AAXX 03061 76845 32930 00401 10060 20052 37965 40175 58004 90545 33310220 20004 30/// 55074 59003
AAXX 03061 76848 32450 70502 10123 20092 38403 40126 50002 87400 90550333 10216 20078 30/// 55084 56100 58003 87613
AAXX 03061 76160 32958 00501 10118 20073 39906 40156 5//// 90550 33310185 20135 30/// 58025
AAXX 03061 76311 11520 81402 10176 20159 39867 40140 52012 60031 70262887// 90555 333 10274 20140 32/// 55015 59001 60027 88820
AAXX 03061 76405 32940 01801 10200 20170 30127 40148 50002 90550 33310276 20170 30/// 55054 2//// 58004
AAXX 03061 76640 31010 30000 10182 20179 30206 40218 52001 70300 832//90540 333 10266 20138 30/// 55073 567// 58024 83801
AAXX 03061 76741 31340 30504 10224 20190 30166 40184 52002 70544 8320090530 333 10266 20157 30/// 55061 561// 58/// 83810
AAXX 03061 76040 32902 /1601 10098 20042 30126 40140 52002 90545 333 10182 20070 30/// 55047 59001 98602
AAXX 03061 76055 32970 01904 10115 20059 30114 40133 55002 90540 333 10176 20056 30/// 58011
AAXX 03061 76225 32520 32504 10142 20022 38573 40044 53006 83100 90540 333 10210 20076 30/// 55023 56500 59040 83827
AAXX 03061 76305 32970 00000 10150 20104 30146 40154 52007 90540 333 10262 20188 30/// 58///
AAXX 03061 76323 32910 01502 10132 20017 38230 40105 55006 90555 333 10232 20086 30/// 55048 59039
AAXX 03061 76373 32910 11101 10096 20003 38188 40129 57015 80001 90550 333 10218 21010 30/// 55049 21159 56009 59033 81067
AAXX 03061 76382 32960 21802 10204 20094 38869 40077 57002 80002 90256 333 10280 20125 30/// 55036 2//// 56005 59030 82076
AAXX 03061 76390 31850 11905 10156 20018 38222 40122 57011 70544 81060 90530 333 10205 20055 30/// 55080 21312 56040 59014 81356
AAXX 03061 76393 32520 21202 10192 20131 39574 40139 57015 82400 90550 333 10269 20130 30/// 55075 56700 59022
AAXX 03061 76402 32950 00000 10124 20107 30101 40158 52002 90545 333 10232 20138 30/// 55012 2//// 58015
AAXX 03061 76423 11960 02801 10113 20029 38153 40106 57005 69901 70150 90545 333 10252 20020 30/// 55095 21160 59014
AAXX 03061 76458 12860 51202 10220 20208 30149 40153 52005 69901 85050 90543 333 10282 20136 30/// 55040 56050 58006 85358
AAXX 03061 76491 32956 01603 10208 20170 39800 40182 57011 90545 333 10298 20122 30/// 55095 58///
AAXX 03061 76525 32960 02006 10114 20011 37482 40104 52001 90540 333 10185 20106 30/// 55092 22653 59001
AAXX 03061 76539 32958 03601 10063 20048 38185 40177 52009 90550 333 10270 20010 30/// 55082 58015
AAXX 03061 76548 32960 01302 10200 20179 30198 40208 57005 90540 333 10280 20168 30/// 55066 59003
AAXX 03061 76556 32960 00000 10160 20124 39137 40141 52005 90530 333 10279 20104 30/// 55099 58006
AAXX 03061 76571 32910 00000 10108 20032 38174 40117 54012 90545 333 10264 20035 30/// 55087 59002
AAXX 03061 76577 32960 00000 10130 20108 38056 40114 52009 90540 333 10266 20071 30/// 55073 59003
AAXX 03061 76581 32960 00000 10120 20105 39097 40203 52003 90550 333 10240 20063 30/// 55083 58001
AAXX 03061 76612 32958 01701 10153 20058 38487 40122 51006 90550 333 10280 20055 30/// 55098 21236 58002
AAXX 03061 76625 32960 00903 10151 20026 38156 40090 52011 90530 333 10280 20080 30/// 55080 58007
AAXX 03061 76632 31950 00705 10110 20000 37647 40090 5//// 70500 90540 333 10200 20082 30/// 55092 59003
AAXX 03061 76634 31970 00000 10078 20075 37869 40162 57002 71042 90550 333 10241 20062 30/// 55099 21859 59001
AAXX 03061 76644 32350 10901 10192 20168 30203 40215 52001 81200 90550 333 10294 20170 30/// 55089 21124 561// 58005 81810
AAXX 03061 76654 31956 03602 10228 20205 30163 40167 52009 70544 90550 333 10294 20210 30/// 55090 21070 58009
AAXX 03061 76665 32958 01801 10121 20084 38135 40116 52001 90550 333 10290 20050 30/// 55080 21283 58001
AAXX 03061 76675 32960 02001 10050 20034 37398 40119 52016 90545 333 10231 21015 30/// 55098 2//// 58003
AAXX 03061 76680 31956 02302 10122 21017 37767 40120 54000 70400 90550 333 10243 30065 30/// 55009 20774 59001
AAXX 03061 76683 32959 00000 10068 20010 37842 40149 57001 90550 333 10255 20022 30/// 50401 55100 21849 59008
AAXX 03061 76685 32950 00601 10108 21019 37896 40125 52014 90550 333 10250 20032 30/// 55104 58011
AAXX 03061 76687 31230 82001 10130 20119 38714 40205 57006 74042 886// 90543 333 10204 20050 30/// 55072 563// 58006 83708 85610
AAXX 03061 76692 31520 22301 10219 20177 30186 40205 50001 71040 825// 90545 333 10285 20135 30/// 55071 563// 58004 82628
AAXX 03061 76695 32956 00503 10192 20147 30188 40194 58005 90545 333 10275 20152 30/// 55088 58001 91005 91505
AAXX 03061 76726 32968 03601 10170 21006 38406 40098 52004 90535 333 10282 20110 30/// 55/// 58001
AAXX 03061 76737 31980 60000 10134 20096 38810 40196 58006 70122 8605/ 90532 333 10201 20050 30/// 55083 5609/ 58002 86358
AAXX 03061 76750 32558 13303 10176 20160 30184 40194 57010 81100 90550 333 10320 20155 30/// 55080 56100 59002 81820
AAXX 03061 76762 31602 20000 10167 20151 38774 40127 52001 70300 82400 90535 333 10302 20098 30/// 55096 21760 56400 58000 82638
AAXX 03061 76775 32960 00501 10107 20030 38544 40159 52004 90545 333 10296 20042 30/// 55084 59001
AAXX 03061 76805 32960 03301 10233 20229 30145 40149 50004 90545 333 10315 20215 30/// 55096 21049 58001
AAXX 03061 76833 32958 03609 10236 20168 30148 40151 57001 90540 333 10292 20228 30/// 55088 58006 92000
AAXX 03061 76843 32465 30000 10174 20149 39527 40173 50001 82109 90545 333 0//// 10246 20140 30/// 55074 59003 82810
AAXX 03061 76845 32930 00401 10060 20052 37965 40175 58004 90545 333 10220 20004 30/// 55074 59003
AAXX 03061 76848 32450 70502 10123 20092 38403 40126 50002 87400 90550 333 10216 20078 30/// 55084 56100 58003 87613
AAXX 03061 76160 32958 00501 10118 20073 39906 40156 5//// 90550 333 10185 20135 30/// 58025
AAXX 03061 76311 11520 81402 10176 20159 39867 40140 52012 60031 70262 887// 90555 333 10274 20140 32/// 55015 59001 60027 88820
AAXX 03061 76405 32940 01801 10200 20170 30127 40148 50002 90550 333 10276 20170 30/// 55054 2//// 58004
AAXX 03061 76640 31010 30000 10182 20179 30206 40218 52001 70300 832// 90540 333 10266 20138 30/// 55073 567// 58024 83801
AAXX 03061 76741 31340 30504 10224 20190 30166 40184 52002 70544 83200 90530 333 10266 20157 30/// 55061 561// 58/// 83810
AAXX 03064 07481 02760 73001 10070 20056 39930 40223 53002 60002 8153/ 333 10088 20070 32005 55/// 60007 7//// 81650 87364 90710 91103 93100 555 60005
AAXX 03064 93004 16/// /0722 10176 20176 40166 57005 60001
AAXX 03064 93023 16/// /0000 10184 20174 40193 57004 69981
AAXX 03064 93069 16/// /0614 10184 20164 40194 57008 60001
AAXX 03064 93110 16597 /0316 10207 20158 40189 57007 60001
AAXX 03064 93186 17497 /0607 10186 20168 40208 57012 60001
AAXX 03064 93196 16/// /0404 10174 20160 40225 57008 60001
AAXX 03064 93245 16/98 /0109 10181 20113 40195 57008 60001
AAXX 03064 93292 17698 /0102 10185 20156 40209 57010 60001
AAXX 03064 93309 17898 /0510 10202 20156 40180 57012 60001
AAXX 03064 93334 16/// /0405 10148 20098 39243 57011 60001
AAXX 03064 93339 16/// /0217 10148 20090 39245 57012 60001
AAXX 03064 93373 17797 /3505 10195 20157 40182 57015 60001
AAXX 03064 93404 17798 /0403 10196 20167 40176 57002 6///1
AAXX 03064 93420 17798 /2704 10190 20129 40176 57010 60001
AAXX 03064 93439 17/98 /3614 10188 20119 40168 57011 60001
AAXX 03064 93498 16/// /0217 10154 20140 40176 57010 60001
AAXX 03064 93515 17597 /0217 10165 20151 40151 57016 60001
AAXX 03064 93527 16/// /3506 10176 20153 40168 57020 60001
AAXX 03064 93546 17898 /0514 10180 20149 40165 57022 60001
AAXX 03064 93597 16/// /3316 10169 20131 40143 57017 60001
AAXX 03064 93615 17397 /0211 10162 20147 40141 57019 60001
AAXX 03064 93678 16/98 /0103 10234 20065 40097 57019 60001
AAXX 03064 93709 16/// /0617 10152 20143 40110 57023 60061
AAXX 03064 93773 17798 /0113 10198 20095 40058 57027 60001
AAXX 03064 93781 17998 /0708 10224 20112 40089 57016 60001
AAXX 03064 93800 NIL
AAXX 03064 93805 NIL
AAXX 03064 93831 17896 /0517 10194 20065 40020 57031 60001
AAXX 03064 93845 17998 /0510 10199 20093 40006 57032 60001
AAXX 03064 93891 17998 /0709 10192 20116 40034 57029 60001
AAXX 03064 93909 16/// /0619 10181 20084 49988 57046 60011
AAXX 03064 93929 16/// /0712 10086 20084 40034 57045 60101
AAXX 03064 93947 16/// /1306 10082 20065 40071 57028 69941
AAXX 03064 93987 16/// /3613 10137 20097 40276 57008 60001
AAXX 03064 93994 NIL
BBXX 46001 03061 99563 71480 46/// /2108 10036 40265 53006 90550 22200 00050 11309 20704 300// 41308 70043 333 91210 555 11081 22085 30543 42110 60549 208076 208070 212073 213073 212079 212075
BBXX 46026 03061 99378 71228 46/// /3207 10120 40162 51008 90550 22200 00114 11006 20603 331// 41005 70029 333 91208 555 11072 22079 30519 43011 60549 312068 286081 283085 287086 286083 283079
BBXX 46029 03061 99461 71245 46/// /0504 10082 20038 40325 54000 90550 22200 00089 10907 20401 330// 40907 70037 333 91205 555 11037 22038 30540 40705 60549 051036 053040 042035 037034 014035 012037
BBXX 46042 03061 99368 71224 46/// /3410 10124 30150 40150 51003 90550 22200 00128 11607 20703 331// 41606 70035 333 91212 555 11105 22111 30518 43413 60549 338098 342096 344102 344104 344100 344105
BBXX A8PX5 03064 99396 71275 41796 23445 10141 20141 40281 50/// 701// 82141 22273 04131 20407 3//// 4//// 5//// 80141
BBXX CG2958 03064 99487 71235 46/// /3006 10040 20026 40347 53002 7//// 8//// 22200 0//// 2////
BBXX CG2965 03064 99487 71235 46/// /3006 10041 20022 40340 51003 7//// 8//// 22200 0//// 2////
BBXX CGBR 03064 99536 71305 46/// /0710 10074 20073 40357 58002 7//// 8//// 22200 0//// 2////
BBXX CGBY 03064 99487 71235 46/// /3005 10034 20015 40338 53002 7//// 8//// 22200 0//// 2////
BBXX CGDR 03064 99522 71282 46/// /1204 10045 20044 40368 56006 7//// 8//// 22200 0//// 2////
BBXX CGJK 03064 99484 71234 46/// /0204 10028 20019 40336 54000 7//// 8//// 22200 0//// 2////
BBXX DGDD 03061 99308 71292 41/98 10112 10165 20141 40225 52015 70200 81/// 22264 00180 2//// 3//// 4//// 5//// 80150
AAXX 03064 16622 11315 51204 10038 20033 30249 40259 53006 60002 71022 85600 333 20038 30/// 50040 55048 70000 90730 91105 555 10000 30092 20000 89075 99097 30000 10062 2//// 30084 4//// 5//// 40000 47718 44225 50000 50036 70000 77Y// 7/Y//
AAXX 03064 16641 11457 30000 10068 20068 30238 40243 53004 60002 71000 83630 333 20068 30/// 55047 70000 90730 91104 555 10000 30106 20000 89066 99100 40000 47708 44200 50000 50068 70000 77Y// 7/Y//
AAXX 03064 16682 12560 30000 10074 20061 30211 40230 52002 60002 81130 333 20074 30/// 50020 55079 70000 81820 83358 90730 91106 555 10000 30100 20000 89065 99095 30000 10090 20105 30106 40120 50138 60200 40000 47689 44200 50000 50068
AAXX 03064 16716 12960 00000 10074 20056 30225 40243 53007 60002 333 20056 30/// 55059 70000 555 10000 30092 20000 89055 99088 40000 47698 44195 50000 50066 70000 77/I/ 7/I//
AAXX 03064 16734 36/// /0306 10104 20084 30183 40245 52006 333 20094 90730 91108 555 10000 30134 20000 89049 99094
AAXX 03064 16743 NIL
AAXX 03064 16749 12960 09903 10122 20073 30222 40236 52015 60002 333 20110 30/// 55082 70000 90730 91105 555 10000 30142 20000 89056 99083 40000 47700 44220 50000 50098
AAXX 03064 16754 12465 12006 10078 20008 30198 40246 52008 60002 81100 333 20070 30/// 50030 55073 70000 90730 91108 555 10000 30102 20000 89068 99092 40000 47679 44195 50000 50050
AAXX 03061 38353 11596 70000 11004 21007 39395 40322 52002 60220 77177 86530 333 21009
AAXX 03061 38613 42998 83601 10036 20007 40292 54000 60060 8802/ 333 20002
AAXX 03061 38616 12597 70901 10030 20003 39253 40283 58014 60120 87500 333 21005
AAXX 03061 38345 11496 80000 11019 21037 38852 48537 52003 60050 77172 8872/ 333 21034
AAXX 03061 36911 11698 70000 11006 21021 39324 40315 52002 60120 72272 8707/ 333 21005
AAXX 03061 36974 12798 60901 11020 21062 38017 48576 58001 69980 83502 333 21076
AAXX 03061 36982 42699 32104 11117 21161 36513 47126 52001 82101 333 21155
AAXX 03064 48464 31558 40603 10294 20196 30075 40088 57018 70511 84200 333 59006
AAXX 03061 14240 11620 70000 10032 20030 30030 40188 56002 60002 71044 87500 333 20008 31102
AAXX 03061 14258 12970 31901 10104 20063 30000 40187 54000 60002 83030 333 20104 30006 83360
AAXX 03061 14445 12570 81506 10145 20104 30063 40216 58004 60002 8587/ 222// 00150 333 20135 30010 85895 83499 92312
AAXX 03061 15502 11512 60201 11008 21021 30195 40236 58003 60002 71022 83550 333 10002 21050 55054 70000 555 30108 591// 92600
AAXX 03061 15525 12981 11804 10023 21010 39954 40227 56002 60002 80001 333 10028 20001 70000 555 30105 579// 92600
AAXX 03061 15528 12562 30000 10008 21021 30015 40211 55000 60002 83500 333 10014 21020 55053 70000 555 34107 581// 92602
AAXX 03061 15535 11934 00000 11020 21026 30171 40220 52007 60002 71000 333 10006 21026 55070 70000 555 34/// 595// 92602
AAXX 03061 15549 12970 01802 10038 20001 39806 40231 54000 60002 333 10042 20010 70000 555 30104 577//
AAXX 03061 15552 11930 23202 10010 20002 30179 40230 53007 60002 74040 80001 222// 2//00 333 10060 20010 55066 70000 555 30103 594// 92012 92415 92602
AAXX 03061 15614 12960 00000 11036 21054 39541 40281 53008 60002 333 10050 21043 55062 70000 555 34109 586// 92602
AAXX 03061 15615 11989 02510 11018 21112 37162 47104 57002 60002 70200 333 11018 21030 41999 55079 70000 444 27121 555 549//
AAXX 03061 15626 12960 00000 11052 21059 30053 40253 53004 60002 333 10002 21054 55063 70000 555 34109 595//
AAXX 03061 15627 11/02 93212 11019 21021 37675 47115 58004 60002 74140 333 11010 21019 41/// 55064 70000 555 598//
AAXX 03061 15640 12968 00000 10011 21012 39922 40246 54000 60002 333 10036 20007 55078 70000 555 34102 585// 92601
AAXX 03061 15655 12930 02302 10010 21001 30202 40236 57002 60002 222// 00079 20000 333 10056 20000 70000 555 34/// 592// 92012 92415
AAXX 03061 15712 12965 00000 11019 21032 30004 40267 53004 60002 333 10053 21021 55081 70000 555 30109 591// 92601
AAXX 03061 15730 11901 00000 11037 21042 39851 40264 53006 60002 74844 333 10044 21040 55051 70000 555 31108 596// 92602
BBXX LDGJ 03061 99778 10098 43/// /0306 11055 21082 49692 5//// 222/1 04058 1//// 3//// 4//// 5////
BBXX LF4H 03064 99596 10022 46/97 12336 10076 20029 49673 57038 8//// 22200 06093 10811 70053 333 91149
BBXX LGWS 03061 99270 70134 43/// /0407 10163 20135 40221 5//// 222/0 04173 1//// 3//// 4//// 5////
BBXX LMEL 03061 99603 10053 43/// /1406 10059 20053 49715 5//// 222/2 04102 1//// 3//// 4//// 5////
AAXX 03064 47090 31559 83404 10060 20033 30147 40169 53001 72162 8572/ 333 92042
AAXX 03064 47095 32570 73603 10061 20012 39982 40170 51002 87500
AAXX 03064 47097 329// /3603 10079 20021 30075 40170 52005
AAXX 03064 47098 429// /3202 10060 20022 30036 40170 52004
AAXX 03064 47099 329// /3604 10088 20025 30136 40172 54000
AAXX 03064 47100 41258 81605 10012 21010 39242 40164 53004 77077 8672/
AAXX 03064 47102 41668 70708 10046 20034 30013 40192 53003 76062 87500
AAXX 03064 47104 41570 82706 10052 20028 30068 40166 52005 72162 8552/
AAXX 03064 47106 429// /3205 10046 20029 30111 40160 52010
AAXX 03064 47112 32672 33210 10090 20011 30088 40171 53003 83500 333 92013
AAXX 03064 47114 32668 72702 10055 20023 39987 40170 52008 87500
AAXX 03064 47119 32670 53406 10083 20012 30130 40172 52004 85500
AAXX 03064 47121 429// /3602 10042 20030 39874 40169 53002
AAXX 03064 47127 329// /3203 10060 20031 30032 40174 52009
AAXX 03064 47129 32672 23409 10098 20019 30146 40181 53006 82500
AAXX 03064 47130 41563 82910 10048 20043 30092 40154 52021 76166 8672/ 333 92043
AAXX 03064 47131 32670 52904 10085 20009 30102 40172 52009 85500
AAXX 03064 47135 329// /2910 10070 20008 39867 40163 52013
AAXX 03064 47136 32670 73203 10076 20050 39984 40154 53009 87500
AAXX 03064 47137 329// /3208 10076 20012 30046 40163 53016
AAXX 03064 47140 32672 53210 10101 20004 30148 40176 52009 85500 333 92013
AAXX 03064 47143 32575 62905 10092 20040 30081 40159 53010 86500
AAXX 03064 47145 32668 22906 10098 20033 30139 40165 52006 82500
AAXX 03064 47146 32670 33408 10096 20007 30109 40174 52012 83500
AAXX 03064 47150 32670 33406 10102 21006 30157 40176 52007 83500
AAXX 03064 47152 32570 63212 10098 20045 30094 40136 53015 86500
AAXX 03064 47154 329// /2908 10088 20014 30100 40160 53012
AAXX 03064 47155 32675 21607 10107 20034 30094 40139 53008 82500
AAXX 03064 47156 32677 30211 10108 20021 30084 40172 52014 83500
AAXX 03064 47157 32970 03208 10096 21008 39876 40141 53013
AAXX 03064 47162 32575 20511 10123 20027 30095 40134 53006 82500 333 92024
AAXX 03064 47169 32670 73618 10097 20046 30083 40176 52011 87500 333 92065
AAXX 03064 47170 32675 23410 10111 20031 30116 40159 52009 82500 333 92023
AAXX 03064 47171 329// /3605 10101 20026 30122 40176 52012
AAXX 03064 47172 329// /3209 10103 20008 30104 40170 52012
AAXX 03064 47173 329// /3410 10099 20002 30056 40166 53014
AAXX 03064 47174 32670 33207 10113 20012 39951 40148 53006 83500
AAXX 03064 47175 32570 23412 10070 20020 39593 40160 52008 82500 333 92024
AAXX 03064 47185 41570 63228 10117 20068 30066 40155 53008 72161 86800 333 92047
AAXX 03064 47188 41670 53407 10125 20067 30123 40144 53003 72162 85500 333 92033
AAXX 03064 47189 41670 50206 10134 20067 30089 40147 54000 76062 85500 333 92033
AAXX 03064 47192 32675 23410 10120 21026 30109 40145 53011 82500
AAXX 03061 14241 11830 60000 11003 21008 30054 40189 58002 60002 71021 86030 333 21009 31///
AAXX 03061 14284 11930 51103 10015 20008 30092 40204 53002 60002 71011 85050 333 20004 30101
AAXX 03061 14307 NIL
AAXX 03061 14317 NIL
AAXX 03061 14431 12665 71304 10117 20095 30116 40209 56007 60002 82530 333 20110 30/// 82640 86360
AAXX 03061 14444 33565 70503 10140 20106 30194 40223 57004 86830 333 20116 30///
AAXX 03061 14474 12565 70904 10107 20076 30051 40242 53003 60002 82570 333 20080 30///
AAXX 03064 08001 NIL
AAXX 03064 08015 11762 61904 10057 20035 39867 40282 58002 69912 70262 86050 333 20055 31004 50074 55009 70072
AAXX 03064 08023 11562 72308 10101 20053 30193 40265 56002 60032 70282 81878 333 20090 50243 55001 70147
AAXX 03064 08027 11465 82308 10086 20064 39941 40256 58001 60052 70262 8257/ 333 20076 31006 50060 55002 70099
AAXX 03064 08045 02470 52304 10068 20056 39978 40296 53001 60002 85850 333 20060 3/003 55071 60007 70002
AAXX 03064 08141 12460 61402 10004 21002 39401 40294 52005 60002 81756 333 20004 31102 55067 70000
AAXX 03064 08160 12870 22809 10066 20052 39939 40254 53020 60002 81010 333 20066 55000 70042
AAXX 03064 08181 01565 53409 10099 20051 30213 40219 52012 69942 70152 82871 333 20099 3/012 55016 69947 70004
AAXX 03064 08221 02980 03404 10019 21004 39566 40276 52012 60002 333 20017 30001 55038 60007 70009
AAXX 03064 08231 NIL
AAXX 03064 08261 12970 02802 10046 20011 39785 40281 51005 60002 333 20040 31002 55083 70000
AAXX 03064 08284 NIL
AAXX 03064 08306 12462 20201 10116 20108 30201 40207 52015 69902 82870 333 20102 55053 79999
AAXX 03064 08314 02459 60107 10141 20127 30102 40205 53016 60022 86800 333 20117 3//// 55043 69907 70016
AAXX 03064 08430 NIL
AAXX 03064 08482 12570 12917 10106 20014 30200 40209 53004 69902 81100 333 20098 55027 70005
AAXX 03064 16643 12460 40208 10100 20079 30247 40253 51001 60002 84650 333 20090 30/// 70000 84715 84360 90730 91112 555 10000 30120 20000 89060 99092 40000 47720 44240 50000 50090
AAXX 03064 16648 11416 60000 10030 20009 30162 40255 51008 60002 71041 86600 333 20010 30/// 50110 55070 70000 81710 86635 90730 91104 555 10000 30070 20000 89041 99096 30000 10056 2//// 30072 40074 5//// 6//// 40000 47652 44210 50000 50022 70000 77Y// 7FY//
AAXX 03064 16650 11902 00000 11010 21011 30238 40242 52008 60002 74444 333 21010 30/// 55073 70000 90730 91102 555 10000 30060 20000 89052 99097 30000 10030 20042 30060 40058 50116 60140 40000 47708 44210 50000 51010 70000 77F// 7F///
AAXX 03064 16684 12460 71301 10100 20079 30213 40240 51011 60002 87600 333 20066 30/// 55071 70000 82712 86625 90730 91103 555 10000 30100 20000 89055 99091 40000 47690 44210 50000 50090
AAXX 03064 16732 11962 01104 10092 20071 30236 40249 53006 60002 702// 333 20078 30/// 55064 70000 90730 91106 555 10000 30132 20000 89054 99086 40000 47701 44140 50000 50082
AAXX 03064 47101 41670 61102 10067 20023 30076 40171 50002 72162 86500
AAXX 03064 47105 469// /2703 10047 20036 30134 40166 52005
AAXX 03064 47108 32670 53603 10082 20006 30065 40170 53002 85500
AAXX 03064 47115 41460 80724 10064 20035 39839 40109 53008 72166 8672/ 333 92056
AAXX 03064 47133 32668 33404 10092 20018 30089 40173 52008 83500
AAXX 03064 47138 32570 83604 10097 20052 30141 40144 53017 8552/ 333 92012
AAXX 03064 47159 32675 53611 10112 20029 30049 40133 52017 85500 333 92024
AAXX 03064 47165 32670 50216 10102 20036 30125 40171 52013 85500 333 92035
AAXX 03064 47168 32675 33415 10118 21007 30062 40140 53007 83500 333 92024
AAXX 03064 47184 32570 63413 10119 20059 30136 40161 53007 85800 333 92054
AAXX 03064 48601 11559 62209 10311 20243 30072 40076 60001 70522 81241 333 81820 85080
AAXX 03064 48615 11462 70806 10296 20244 30073 40079 60001 70522 83242 333 83818 87074
AAXX 03064 48620 11565 71803 10306 20244 30066 40075 6///1 70522 82142 333 82825 83365 87078
AAXX 03064 48647 11462 72706 10334 20246 30051 40075 60001 70522 84942 333 81917 83818 87078
AAXX 03064 48657 11465 73503 10287 20250 30066 40083 60001 70522 83148 333 83818 83366 86276
AAXX 03064 48665 11568 62306 10312 20239 30074 40084 60001 70522 82132 333 82821 86078
AAXX 03064 96413 12470 73207 10267 20218 30063 40089 60041 82131 333 82814 86365
AAXX 03064 96421 11264 83105 10244 20235 30044 40080 60041 76162 8652/ 333 83705 84616 88465
AAXX 03064 96441 11430 82806 10248 20235 30048 40075 60051 76386 8452/ 333 84614 88464
AAXX 03064 96449 11458 82512 10269 20243 30042 40061 69961 76162 8452/ 333 84614 88464
AAXX 03064 96465 12460 72207 10294 20240 30020 40053 6///1 84878 333 83812 85364 87278
AAXX 03064 96471 11472 72504 10311 20261 30045 40048 60001 71522 83948 333 81814 81917 83640 87277
AAXX 03064 96481 12462 71906 10299 20247 30038 40057 69921 8387/ 333 82817 86364
AAXX 03064 96491 11467 72305 10312 20243 30039 40050 60001 70522 82842 333 82815 87078
AAXX 03064 16614 12960 00000 11020 21038 39474 40289 53007 60002 333 21033 30/// 55068 70000 90730 91104 555 10000 30046 20000 89035 99087
AAXX 03064 16627 11957 00000 11030 21046 30250 40254 53004 60002 71000 333 21030 34/// 50000 55067 70000 90730 91106 555 10000 30040 20000 89058 99092 30000 10032 20032 30054 40068 50090 6//// 40000 47713 44175 50000 51034 70000 77YC/ 7/YC/
AAXX 03064 16667 12960 02404 10064 20041 30236 40242 53006 60002 333 20060 30/// 55084 70000 90730 91106 555 10000 30078 20000 89054 99088 30000 20070 30088 40000 47707 44200 50000 50054 70000 77/I/ 7/I//
AAXX 03064 16675 17/// /2605 10041 20024 30242 40256 52008 69902 741// 333 20009 90730 91109 555 10000 30059 20000 89040 99095 60000 65555 6////
AAXX 03064 16710 12960 00000 11050 21062 39489 40309 53013 60002 333 21050 34/// 59980 55072 70000 90730 91102 555 10000 30052 20000 89030 99095 30000 10008 20024 30032 40060 50092 60122 40000 47145 44195 50000 51052
AAXX 03064 16723 11930 00000 10090 20055 30234 40250 52011 60002 71000 333 20084 30/// 55/// 70000 90730 91105 555 10000 30114 20000 89033 99067 40000 47712 44250 50000 50074 70000 77/// 7/Y//
AAXX 03064 16738 17/// /0000 10109 20089 30049 40251 52009 69912 7414/ 333 20097 90730 91103 555 10000 30115 20000 89051 99087 60000 60001 60647
AAXX 03064 16746 12960 00000 10082 20046 30060 40247 52005 60002 333 20060 30/// 55069 70000 90730 91104 555 10000 30096 20000 89047 99094 40000 47574 44180 50000 50066
AAXX 03064 91408 11474 80804 10283 20261 30010 40048 57022 60021 70281 82278 333 56999 70023 555 90306
AAXX 03064 67297 32470 4//// 10300 20260 40103 84800 333 20256 50930 55104 59015 94386 555 10000
AAXX 03064 48409 32960 50204 10266 20162 39958 40106 82552 333 58000
AAXX 03064 67297 32470 4//// 10300 20260 40103 84800 333 20256 50930 55104 59015 94386 555 10000
AAXX 03064 13611 11958 31408 10106 20090 30136 40228 54000 60002 71000 83030 333 20078 30/// 83360
AAXX 03064 13622 12965 00000 10090 20059 30229 40236 54000 60002 333 20070 30///
AAXX 03064 60096 32960 00412 10172 20058 40199 5//// 333 20169
AAXX 03064 13601 12965 00000 10072 20065 30120 40223 54003 60002 333 20070 30///
AAXX 03064 91408 11474 80804 10283 20261 30010 40048 57022 60021 70281 82278 333 56999 70023 555 90306
AAXX 03064 64810 32460 52204 10237 20220 30067 40093 84960 333 20235 59007 84814 81920 84364 94946 95836
AAXX 03063 64820 32460 60000 10255 20243 30097 40106 85570 333 20250 59003 85613 86363
BBXX BATUK01 03064 99588 70028 46/// /2852 10069 20030 49673 56018 22241 00107
AAXX 03064 13625 11/03 90000 11015 21040 30020 40263 54001 60002 74500 333 21018 34///
AAXX 03064 13610 11/00 90000 11004 21031 39830 40273 52012 60002 74522 333 21010 30///
AAXX 03064 13619 12970 00000 10012 20012 39483 42856 54000 60002 333 21022 34///
AAXX 03064 13600 12965 00000 10054 20031 30197 40251 54002 60002 333 20030 31///
AAXX 03064 13629 12960 00000 10020 20020 39176 42825 54000 60002 333 20002 30///
AAXX 03064 13624 12970 01408 10060 20027 30207 40247 54001 60002 333 20040 30///
AAXX 03061 26645 11296 82301 10032 20027 39835 40095 52029 60052 76162 8872/ 333 20031 555 90010
AAXX 03061 26659 11565 72702 10032 20024 39881 40096 52032 60062 70265 86530 333 20024 86622 555 90010
AAXX 03061 26763 11458 82003 10048 20038 39863 40088 53027 60032 71062 886// 333 20017 88712 555 90010
AAXX 03061 26825 32561 72604 10049 20022 39943 40125 52025 875// 333 20047 87623
AAXX 03061 26832 11560 72603 10044 20022 39928 40120 52020 60022 70282 87500 333 20043 87630 555 90010
AAXX 03061 26887 11496 82204 10022 20009 39910 40117 53004 60032 76162 8872/ 333 20015 88711 91110 555 90011
AAXX 03061 26961 11560 62503 10050 20020 39925 40117 52019 69902 70282 85530 333 20033 85625 555 90011
AAXX 03061 33027 12597 72402 10049 20011 39971 40138 53015 69932 875// 333 20036 555 90012
AAXX 03064 13623 12960 10000 10035 20035 30237 40243 54000 60002 81030 333 20035 30/// 81360
AAXX 03061 14015 11562 82502 10115 20091 39825 40179 55003 69922 76062 8657/ 333 20100 31008 55003 70002 86630 555 20067 30063
AAXX 03061 14023 12697 73103 10125 20080 39883 40173 55000 69902 87570 333 20115 31009 55006 79999 87633 555 20072 30066
AAXX 03061 14024 12498 82308 10076 20055 39086 48491 54000 60002 8487/ 333 20068 30005 55008 70000 81812 83615 91114 95000
AAXX 03061 14026 11496 73403 10008 20007 39858 40187 55003 60002 71022 87500 333 21002 31100 55043 70000 82710 87630 555 20024 30034
AAXX 03061 14031 11/91 90602 10010 20010 39959 40194 51001 60002 745// 333 20010 30001 55000 70000 555 20024 30027
AAXX 03061 14105 11796 71602 10114 20108 30185 40190 56007 69912 72162 84570 333 20092 31009 55000 70006 84650 555 20092 30093
AAXX 03061 14106 11595 80000 10085 20079 30115 40184 56009 69962 75152 886// 333 20074 31007 55000 70011 88723 95090 555 20065 30064
AAXX 03061 14112 11/95 82303 10096 29098 60024 763// 333 10107 20093 3/108 70022
AAXX 03061 14121 12698 70000 10030 20026 39909 40181 55003 60002 86570 333 20016 31101 55019 70000 86647 555 20035 30039
AAXX 03061 14122 11225 72001 10017 20017 39989 40191 55001 60002 71022 87530 333 21005 31/// 70000 81703 87656
AAXX 03061 01062 11589 32401 11050 21073 39675 49688 52007 69912 70121 83500 333 21051 44999 70001 91105
AAXX 03061 01205 46/// ///// 10060 20019 39610 49654 56038 333 20025
AAXX 03061 01007 11888 81404 11093 21139 39695 49705 52006 60002 70220 8801/ 333 21116 48004 70000 91108
AAXX 03061 01359 11356 80503 11016 21041 38881 49776 58079 60002 77172 8802/ 333 21079 48020 70000 91107
AAXX 03064 17042 NIL
AAXX 03064 17074 12970 02203 11082 21107 39325 40314 52009 60002 333 21087 30110 55024 20494 91106
AAXX 03064 17086 12970 00903 11045 21070 39556 40310 52013 60002 333 21061 34108 55073 20917
AAXX 03064 17088 12670 83102 11026 21063 38866 48554 52014 60002 8452/ 333 21039 3/105 45998 55003 20297 84640 88460
AAXX 03064 17140 12965 00000 11047 21081 38768 48542 52010 60002 333 21079 34110 50771 2////
AAXX 03064 17155 11940 00000 11075 21105 39135 40312 52009 60002 71000 333 21081 34110 55058 91102
AAXX 03064 17203 12970 00000 11040 21106 38948 48583 52010 60002 333 21080 34109 55045 2////
AAXX 03064 17237 12970 01701 10023 21065 39750 40268 52011 60002 333 20012 34104 55066 91103
AAXX 03064 17250 12975 00406 11074 21130 38877 48551 52010 60002 333 21080 30109 55079
AAXX 03064 17270 12970 03001 10049 21025 39605 40270 52012 60002 333 20015 30104 55062
AAXX 03064 17295 11956 20707 10042 20012 30246 40254 52016 60002 71000 80001 333 20023 30001 50394 55073 82070
AAXX 03064 17320 NIL
AAXX 03064 17375 12970 03604 10114 21020 30248 40250 52012 60002 333 20079 30004 50271 55075 91107 92408
AAXX 03064 17500 12560 10000 10065 20036 30201 40262 52013 60002 81100 333 20038 30001 50301 55092 20760 81825
AAXX 03064 17501 12560 11805 10122 20055 30227 40246 52014 60002 81100 333 20114 30010 55081 21243 81830 92427
AAXX 03064 17505 12560 11005 10109 20046 30142 40257 52013 60002 81100 333 20083 30005 55081 21239 81830
AAXX 03064 17507 12560 12209 10120 20039 30146 40268 52013 60002 81100 333 20112 30009 5///1 55/// 2//// 81825
AAXX 03064 17510 12560 20000 10135 20064 30210 40220 53010 60002 82100 333 20120 30008 50171 55074 20663 82830 92417
AAXX 03064 17515 12560 10000 10059 20029 30090 40272 52013 60002 81100 333 20036 30001 50151 55079 21215 81830
AAXX 03064 17521 12560 12705 10093 20053 30106 40249 52014 60002 81100 333 20043 30003 50151 55084 21192 81830
AAXX 03064 17530 12560 13003 10050 20033 30199 40258 52013 60002 81100 333 20028 30002 55080 21169 81830
AAXX 03064 17535 12560 10104 10089 20054 30196 40233 52013 60002 81100 333 20069 30005 55030 21163 81830
AAXX 03064 17540 12560 20806 10070 20047 30238 40263 5//// 60001 82100 333 20064 30003 50101 55/// 2//// 82830 92427
AAXX 03064 17547 NIL
AAXX 03064 17550 12560 10805 10132 20050 30097 40244 52013 60002 81100 333 20110 30007 55075 21184 81830 92437
AAXX 03064 17572 12560 2//// 10131 20067 30232 40257 52013 60002 82100 333 20132 30008 82830 92417
AAXX 03064 17024 12970 01815 10008 21034 30175 40256 50001 60002 333 20004 31000 55020 70034 91122 92428
AAXX 03064 17056 11920 03004 10042 20041 30246 40251 53006 60002 71000 333 20029 31001 55044 20595 91106 92414
AAXX 03064 17067 11920 01402 10014 21015 30231 40254 52006 60002 71000 333 20003 30101 55000 91105 92405
AAXX 03064 17092 12960 00000 11079 21082 38945 48552 52013 60002 333 21116 30113 50124 55031 20595
AAXX 03064 17112 12962 00702 10031 20000 30252 40255 52011 60002 333 20025 30000 5///4 55049 20084 91106 92407
AAXX 03064 17115 11905 00000 11039 21042 30203 40257 53007 60002 74800 333 21045 34105 50034 55035 20603
AAXX 03064 17116 11956 00000 11030 21042 30139 40267 53006 60002 71000 333 21035 34105 55046 20038 91102
AAXX 03064 17188 11950 02803 11001 21080 39184 40282 52009 60002 70500 333 21015 34105 91105
AAXX 03064 17202 12970 02404 11043 21064 39239 40319 52012 60002 333 21092 34111
AAXX 03064 17248 12970 00902 11055 21102 39059 48545 52011 60002 333 21098 34113 55086 2////
AAXX 03064 17292 12970 00801 11018 21046 39491 40274 52014 60002 333 21021 34103 50094 55029 20662 91102
AAXX 03064 17300 12960 03305 10047 21037 30179 40252 52014 60002 333 20024 30105 50331 55/// 2////
AAXX 03064 17310 12670 20702 10133 20065 30241 40248 52010 60002 82100 333 20125 30009 55067 82834 91105 92418
AAXX 03064 17330 12970 02902 10108 21078 30241 40259 52014 60002 333 20090 30003 50161 55076
AAXX 03064 17022 12960 01203 10053 21027 30088 40258 52005 60002 333 20032 30003 55003 91106 92427
AAXX 03064 17031 12970 01204 10000 21003 30263 40270 52007 60002 333 21015 30103
AAXX 03064 17038 12665 51804 10072 20002 30230 40282 52005 69962 83150 333 20066 32003 55000 20339 70006 83835 85360 92427
AAXX 03064 17050 11656 43601 11020 21022 30190 40255 52009 60002 71000 83530 333 21026 34103 55059 83635 84360 91104
AAXX 03064 17060 11933 02901 10062 20062 30211 40252 53005 60002 71000 333 20021 31101 50101 55060 20766
AAXX 03064 17096 11903 00000 11141 21141 38283 48561 52012 60002 74444 333 21176 3/118 45002 50034 55048 20230 70002
AAXX 03064 17124 11935 00000 11095 21102 39348 40320 52008 60002 71000 333 21108 34111 50084 55071 20967
AAXX 03064 17128 11940 00402 11103 21111 39169 40340 52010 60002 71000 333 21123 34114 50114 55046 20322
AAXX 03064 17170 NIL
AAXX 03064 17195 11957 00000 11086 21100 39055 48545 52010 60002 71000 333 21132 34115 50084 55022 20967
AAXX 03064 17199 12970 00000 10016 21082 39163 40294 52012 60002 333 21030 34107 55078 20716
AAXX 03064 17219 11940 09901 11011 21035 30107 40259 53010 60002 71000 333 21024 34105 55074 20347
AAXX 03064 17240 12970 02601 11054 21116 39107 40312 52011 60002 333 21075 34109 55075 21013 91102
AAXX 03064 17244 12965 00502 11054 21093 39074 48547 52011 60002 333 21091 34/// 55/// 2////
AAXX 03064 17280 12970 01901 10000 21077 39459 40283 52012 60002 333 21052 30109 50331 55069 20343
AAXX 03064 17350 12970 03002 10051 21041 30173 40254 53015 60002 333 20013 30///
AAXX 03064 17026 12970 01603 10061 20030 30225 40265 52005 60002 333 20055 31002 55000 20553 70058 91107 92428
AAXX 03064 17034 12970 00000 10057 20003 30232 40279 52004 60002 333 20053 32003 70003 92428
AAXX 03064 17070 11958 01701 11067 21089 39394 40312 52011 80002 71000 333 21070 34110 50064 55036 20624 91103
AAXX 03064 17084 11930 00000 11081 21106 39366 40329 52012 60002 71000 333 21102 34112 55059 91102
AAXX 03064 17090 12965 00000 11080 21124 38800 48556 52011 60002 333 21104 34111 55062
AAXX 03064 17098 12660 21303 11109 21124 38232 48549 52010 60002 82500 333 21150 3/116 41001 50054 55002 20800 82640
AAXX 03064 17150 11902 00000 11059 21056 30146 40278 52010 60002 74844 333 21076 34109 50011 55018 20398
AAXX 03064 17160 12970 03101 11071 21107 39100 48543 52010 60002 333 21094 34110 55083 91109
AAXX 03064 17184 12970 00000 11034 21055 30153 40270 52012 60002 333 21035 34105 55076 91102
AAXX 03064 17189 11935 00000 11102 21121 39099 48531 52008 60002 71000 333 21129 34114
AAXX 03064 17210 12970 00000 10017 21059 39208 40275 51008 60002 333 21009 34105 55046
AAXX 03064 17234 12970 00802 10025 21058 30187 40257 52012 60002 333 20020 30001 50134 55089 91109
AAXX 03064 17260 11957 00000 11006 21050 39432 40289 52012 60002 71000 333 21057 34107 50214 55081 21315
AAXX 03064 17290 12970 00401 10108 20026 30216 40248 52014 60002 333 20094 30005 50374 55065 91106 92408
AAXX 03064 17370 12965 01303 10109 21046 30250 40254 52013 60002 333 20098 30004 50404 55074 2//// 92427
AAXX 03061 13160 31994 51401 10003 20000 30095 40208 58002 71011 85030 333 21005 31103 55000 70001
AAXX 03061 13262 32998 72502 10071 20027 30063 40213 53001 87070 333 20034 31001 55066 70000
AAXX 03061 13272 11920 60501 10035 20017 30090 40213 53001 71111 86030 333 20006 31101 55029 86359
AAXX 03061 13285 32697 70902 10050 20012 30120 40225 54000 87500 333 20033 30003 55055 70000
AAXX 03061 13289 32998 32905 10072 20017 39019 48524 55000 83030 333 20053 31002 55060 70000
AAXX 03061 13376 31/92 90000 11031 21036 39975 40251 53003 74544 333 21035 30106 55016 70000
AAXX 03061 13388 31996 00000 11020 21028 30000 40260 53002 71000 333 21026 30106 55020 70000
AAXX 03061 13462 NIL
AAXX 03061 13473 NIL
AAXX 03061 13489 31994 01501 11040 21045 39740 40289 53004 71000 333 21043 30108 55056 70000
AAXX 03061 12160 12470 71703 10032 20025 30060 40113 58001 69922 875// 333 10060 20021 31001 70021 93000
AAXX 03061 12205 12962 02005 10036 20020 30091 40099 57018 60002 333 10057 20036 31002 70010 93000
AAXX 03061 12465 12660 72203 10040 20028 39921 40157 56003 60002 875// 333 10065 20039 30004 55007 20190 79999 93000
AAXX 03061 12566 11556 82102 10009 21003 39882 40184 51004 69902 76022 875// 333 10027 21010 31101 79999 93097
AAXX 03061 13462 32660 20301 10030 20018 30216 40257 53003 82500 333 20027 31000 53/// 82640
AAXX 03061 12120 11470 72206 10048 20035 30079 40086 58009 60022 70181 875// 333 10061 20038 31003 70044 93001
AAXX 03061 12250 12664 72103 10048 20025 30042 40131 57003 60002 875// 333 10089 20032 31002 70005 91108 93000
AAXX 03061 12295 11584 82502 10044 20009 39951 40136 52014 69912 70262 885// 333 10078 20044 31003 70001 93097
AAXX 03061 12330 12662 72203 10039 20023 30029 40139 56007 69902 875// 333 10066 20039 31003 55004 70002 93000
AAXX 03061 12375 12680 72001 10051 20019 30021 40153 51006 69902 875// 333 10088 20046 30003 79999 93000
AAXX 03061 12424 12982 61903 10012 20006 30003 40159 57008 69902 83034 333 10071 21012 31104 55005 79999 93000
AAXX 03061 12105 12462 71904 10039 20021 30050 40093 58014 60002 875// 333 10053 20038 31003 70024 91009 91110 93000
AAXX 03061 12195 11584 62605 10036 20018 39891 40120 51014 69982 70182 865// 333 10062 20035 31003 70027 93097
AAXX 03061 12235 12460 82105 10035 20026 39898 40110 57010 69902 885// 333 10048 20033 31003 70010 88613 93000
AAXX 03061 12270 12468 82304 10036 20023 39956 40140 52006 69912 885// 333 10077 20034 31003 70006 93000
AAXX 03061 12280 12477 62103 10031 20021 39966 40125 51008 69972 85550 333 10070 20031 31001 70021 91110 93000
AAXX 03061 12300 12670 32402 10030 20021 30033 40124 56009 60002 83500 333 10057 20030 31001 55007 70012 93000
AAXX 03061 12400 11940 12102 10016 20013 39902 40142 56011 69932 71011 80001 333 10061 20016 31000 70015 93000
AAXX 03061 12435 12661 71903 10044 20018 39980 40154 57006 69902 875// 333 10075 20038 30003 55006 79999 93000
AAXX 03061 12495 11557 82302 10032 20014 39875 40172 52013 60002 71022 885// 333 10043 20022 30002 55014 93000
AAXX 03061 12530 11558 71602 10023 20005 39966 40169 58005 69902 71062 875// 333 10046 20022 31002 79999 93097
AAXX 03061 12570 11340 82202 10027 20017 39851 40175 51005 69902 76182 885// 333 10038 20006 31101 55023 79999 86707 88621 93097
AAXX 03061 12580 12560 72204 10036 20010 39921 40185 52008 60002 875// 333 10049 20014 30100 55043 93000
AAXX 03064 68240 32960 10403 10260 20167 48517 52018 80002 333 20184
AAXX 03061 33135 32697 61804 10007 21016 39978 40160 53007 82581 333 20007
AAXX 03061 33791 32697 81804 11002 21011 30079 40235 55004 885// 333 21030 88640
AAXX 03061 33924 32698 71602 10033 20001 30236 40248 54000 87500 333 20002 87640
AAXX 03061 26141 01583 22406 10002 21008 39843 49992 51022 69972 70281 81530 333 10028 20000 60007 81627 91008 91109 555 11100 20000 31101 50018 52101
AAXX 03061 26231 01584 12304 10020 21003 39997 40012 52018 69962 70200 81200 333 10032 20016 60007 81833 555 14100 20016 34101
AAXX 03061 26242 01583 22102 10007 21008 39928 40015 52024 60042 70200 81530 333 10060 20007 60007 81629 555 12100 20007 32100 50031 52100
AAXX 03061 26038 NIL
AAXX 03061 26045 NIL
AAXX 03061 26058 NIL
AAXX 03061 26115 NIL
AAXX 03061 26135 NIL
AAXX 03061 26247 NIL
AAXX 03064 08055 12965 43604 10000 21011 39198 48541 53005 60002 80006 333 21006 31103 55080 70000 95090
AAXX 03064 08075 12565 80802 10031 20021 39216 48544 52006 60002 83877 333 20011 55012 70007
AAXX 03064 08084 02560 72502 10063 20041 39830 40273 51005 60002 84521 333 20055 3/004 55001 60007 70056
AAXX 03064 08171 NIL
AAXX 03064 08184 02760 12602 10078 20051 30057 40215 51014 60002 8105/ 333 20076 30006 55035 60007 70000
AAXX 03064 08202 02965 20000 11021 21027 39341 42872 53005 60002 80005 333 21024 31105 55050 60007 70000
AAXX 03064 08235 NIL
AAXX 03064 08238 11580 73505 10094 20077 30164 40225 52007 60022 70262 8572/ 333 20090 55025 70022
AAXX 03064 08280 12570 33204 10048 20035 39396 40236 52008 69952 81131 333 20048 50164 55008 70017
AAXX 03064 08330 12980 10101 10048 20025 30028 40266 52010 60002 80001 333 20046 31003 50364 55079 70000
AAXX 03064 08348 12965 03606 10056 20024 39504 40258 53007 60002 333 20053 50104 55039 70032
AAXX 03064 08360 01665 80213 10135 20073 30152 40189 53015 60032 76062 8357/ 333 20107 31012 5///4 55025 69907 70106
AAXX 03064 08373 01560 22202 10136 20123 30177 40199 53020 60032 70051 82800 333 20131 3/012 55039 69907 70035
AAXX 03064 08410 NIL
AAXX 03064 08419 01580 62803 10054 20034 39544 40228 53004 69902 70252 86600 333 20042 31003 55012 69907 70013
AAXX 03064 08451 02975 03205 10059 20052 30198 40232 53002 60002 333 20046 3/003 55/// 60007 70036
AAXX 03064 08487 02470 73411 10101 20055 30172 40198 51023 60012 84870 333 20095 3/009 55026 60017 70031
AAXX 03064 06030 01460 71819 10058 20040 39884 49899 57067 69902 70266 8753/ 333 10058 20019 69907 70017 81614 85620
AAXX 03064 06060 01357 71916 10062 20052 39847 49911 57063 60042 78082 879// 333 10064 20016 31000 69947 70060 87708 82913 91130
AAXX 03064 06070 05466 72013 10059 20029 39918 49948 57053 69912 333 10065 20021 69917 70016 83/12 87/16 91033 91133
AAXX 03064 06120 36462 71819 10044 20033 39947 49973 57048 333 10054 20026 3/001 81/12 83/15 85/50 87/57 91032 91134
AAXX 03064 06180 02475 72021 10052 20033 30002 40008 57034 6///2 8553/ 333 10056 20036 6///7 70032 83612 87360 91127
AAXX 03064 06193 07462 72115 10053 20036 30035 40047 57019 69912 70010 333 10065 20053 55300 20000 6///7 70068 81/10 85/13 87/17 91025 91134
AAXX 03064 48620 11565 71803 10306 20244 30066 40075 6///1 70522 82142 333 82825 83365 87078
AAXX 03064 71102 NIL
AAXX 03064 71105 NIL
AAXX 03064 71107 NIL
AAXX 03064 71110 NIL
AAXX 03064 71111 16966 02410 10060 20021 30350 40358 50004 60001 333 10077 20025 70000 555 32427 40221
AAXX 03064 71112 16/// ///// 60001 333 70000
AAXX 03064 71113 16/// /3203 10021 20014 30311 40335 51003 60001 333 10077 21003 70000
AAXX 03064 71115 16/// /1004 11007 21049 39711 40304 50000 60001 333 10065 21046 70000
AAXX 03064 71116 16/// /3109 11080 21107 39134 40256 53014 60001 333 10048 21080 70000 555 33143 40193
AAXX 03064 71118 16/// /2805 11103 21133 39376 40221 51007 60001 333 10074 21105 70000 555 33341 40213
AAXX 03064 71121 16964 02108 11060 21116 39371 40209 58009 60001 333 10056 21091 70000 555 33345 40183
AAXX 03064 71127 16/// /2407 11051 21090 39282 40209 56008 60001 333 10052 21052 70000 555 33044 40153
AAXX 03064 71130 17566 83014 11073 21109 39687 40149 51038 60001 771// 333 10030 21074 70000
AAXX 03064 71132 15966 82403 11218 21238 39850 40176 55003 60001 333 11093 21245 70008
AAXX 03064 71133 46/// /3006 11115 21148 39463 40183 51024 6///1 333 10035 21115 7//// 555 33336 40213
AAXX 03064 71134 NIL
AAXX 03064 71139 NIL
AAXX 03064 71141 NIL
AAXX 03064 71142 17566 83017 11076 21092 39220 40208 53028 60001 771// 333 10015 21080 70013
AAXX 03064 71143 NIL
AAXX 03064 71144 NIL
AAXX 03064 71147 16/// /2610 11004 21037 60001 333 10032 21035 70000 555 32331 40202
AAXX 03064 71149 NIL
AAXX 03064 71350 16/// /2903 11004 21036 30227 40294 53009 60001 333 10039 21011 70000
AAXX 03064 71351 NIL
AAXX 03064 71352 16/// /1302 11043 21046 39871 40339 58003 60001 333 10022 21043 70006 555 33218 40171
AAXX 03064 71353 NIL
AAXX 03064 71354 NIL
AAXX 03064 71355 16/// /1202 11289 21319 30018 40107 51012 60001 333 11208 21310 70000
AAXX 03064 71356 NIL
AAXX 03064 71357 NIL
AAXX 03064 71358 16/// /2703 11232 21255 30003 40038 53014 60001 333 11162 21236 70000 555 33325 40081
AAXX 03064 71359 NIL
AAXX 03064 71360 NIL
AAXX 03064 71361 NIL
AAXX 03064 71362 NIL
AAXX 03064 71363 NIL
AAXX 03064 71364 NIL
AAXX 03064 71365 NIL
AAXX 03064 71368 17959 00901 11050 21053 39943 40344 58002 60001 710// 333 10038 21055 70008
AAXX 03064 71369 15966 61105 11052 21073 39465 40181 58021 60001 333 10025 21064 70000
AAXX 03064 71370 NIL
AAXX 03064 71371 15566 83404 11021 21058 30319 40354 51013 60001 333 10033 21021 70000
AAXX 03064 71372 16/// /2904 11018 21050 60001 333 10031 21018 70010
AAXX 03064 71373 NIL
AAXX 03064 71374 NIL
AAXX 03064 71375 NIL
AAXX 03064 71376 NIL
AAXX 03064 71377 16/// /3003 11027 21069 30307 40357 51013 60001 333 10037 21028 70006
AAXX 03064 71378 16/// /2902 11065 21109 30136 40352 51014 60001 333 11011 21065 70020 555 10030 20020
AAXX 03064 71379 NIL
AAXX 03064 71380 NIL
AAXX 03064 71381 NIL
AAXX 03064 71382 NIL
AAXX 03064 71383 NIL
AAXX 03064 71384 NIL
AAXX 03064 71385 NIL
AAXX 03064 71386 NIL
AAXX 03064 71387 NIL
AAXX 03064 71388 NIL
AAXX 03064 71389 NIL
AAXX 03064 71390 46/// /2606 11089 6///1 333 11047 21091 7////
AAXX 03064 71391 NIL
AAXX 03064 71392 16/// /1005 11015 21042 60001 333 11011 21031 70044
AAXX 03064 71393 NIL
AAXX 03064 71395 12974 30204 11003 21012 30105 40287 55002 60001 80001 333 10037 21018 70000
AAXX 03064 71398 15966 81917 11045 21089 30170 40182 58023 60001 333 11044 21198 70000
AAXX 03064 71399 NIL
AAXX 03064 71001 NIL
AAXX 03064 71002 NIL
AAXX 03064 71003 NIL
AAXX 03064 71005 NIL
AAXX 03064 71006 NIL
AAXX 03064 71007 NIL
AAXX 03064 71008 NIL
AAXX 03064 71009 NIL
AAXX 03064 71010 NIL
AAXX 03064 71011 NIL
AAXX 03064 71012 NIL
AAXX 03064 71013 NIL
AAXX 03064 71014 NIL
AAXX 03064 71015 NIL
AAXX 03064 71016 NIL
AAXX 03064 71017 NIL
AAXX 03064 71018 NIL
AAXX 03064 71019 NIL
AAXX 03064 71020 NIL
AAXX 03064 71021 NIL
AAXX 03064 71022 17466 81104 10040 20033 30308 40353 51001 60041 70044 333 10064 20019 70074 555 33020 40071
AAXX 03064 71023 16964 02804 11137 21150 39409 40200 58003 60001 333 10037 21138 70000 555 33338 40173
AAXX 03064 71024 16/// /0402 11117 21125 60001 333 10016 21154 70007 555 33031 40092
AAXX 03064 71026 NIL
AAXX 03064 71027 16/// /2302 11004 21022 30279 40289 53006 60001 333 10044 21021 70000
AAXX 03064 71028 16/// /1101 11025 21044 39274 40340 57007 60001 333 10018 21096 70000 555 31517 40071
AAXX 03064 71029 16/// /0408 11285 21318 30115 40156 53009 60001 333 11242 21307 70000
AAXX 03064 71030 16/64 /3204 10004 21011 30203 40294 53014 60001 333 10044 21029 70000
AAXX 03064 71032 46/// /0000 11036 21062 39471 40327 53002 6///1 333 10046 21097 7////
AAXX 03064 71033 46/// /3004 11154 21169 39514 40163 51005 6///1 333 11029 21175 7//// 555 10020 33424 40201
AAXX 03064 71035 NIL
AAXX 03064 71036 17466 83315 11001 21036 39696 40070 53028 60001 761// 333 10031 21011 70000
AAXX 03064 71039 46/// /3212 11015 6///1 333 11015 21154 7////
AAXX 03064 71040 46/// /2205 11111 21135 30140 40347 53015 6///1 333 11030 21111 7//// 555 32917 40001
AAXX 03064 71041 15866 30203 11020 21039 30143 40288 52005 60001 333 10040 21027 70000 555 33419 40141
AAXX 03064 71042 16/// /0000 11017 21020 30327 40331 51005 60001 333 10079 21020 70000
AAXX 03064 71044 16/// /2704 11126 21140 39834 40160 52035 60001 333 11126 21217 70000
AAXX 03064 71046 460// /2616 11203 30185 40203 51036 6///1 333 11195 21270 7//// 555 32723 40031
AAXX 03064 71047 16/// ///// 11097 21117 60001 333 10060 21097 70000
AAXX 03064 71048 NIL
AAXX 03064 71049 NIL
AAXX 03064 71060 NIL
AAXX 03064 71063 NIL
AAXX 03064 71744 NIL
AAXX 03064 71750 NIL
AAXX 03064 71751 NIL
AAXX 03064 71752 NIL
AAXX 03064 71753 16/// /0101 11023 21027 30255 40285 53004 60001 333 10065 21025 70000
AAXX 03064 71754 16/// /3206 11104 21134 39529 40206 51020 60001 333 10049 21104 70000 555 33241 40223
AAXX 03064 71755 43/// /2414 11015 21047 39644 49986 57002 6///1 333 11013 21157 7//// 555 32222 40001
AAXX 03064 71756 16/// /1401 11049 21057 39201 40326 51005 60001 333 10007 21062 70000
AAXX 03064 71758 NIL
AAXX 03064 71760 NIL
AAXX 03064 71761 NIL
AAXX 03064 71762 NIL
AAXX 03064 71763 NIL
AAXX 03064 71765 16/// /3602 30049 53001 60001 333 70000 555 31717 40091
AAXX 03064 71766 16/// /2201 10004 21003 30263 40336 53007 60001 333 10072 21004 70000
AAXX 03064 71767 16/// /2008 10007 21041 30053 40321 58010 60001 333 10008 21033 70000
AAXX 03064 71768 46/// /2904 10010 21082 39754 40311 55001 6///1 333 10072 21029 7//// 555 33120 40181
AAXX 03064 71769 16/// /2309 10051 20024 30310 40326 53008 60001 333 10066 20045 70000 555 32935 40153
AAXX 03064 71770 16/// /0704 11023 21078 39506 40293 53003 60001 333 10051 21038 70000 555 33419 40231
AAXX 03064 71771 NIL
AAXX 03064 71772 16/// /1305 10061 20033 30320 40326 52007 60001 333 10070 20047 70000 555 33231 40162
AAXX 03064 71773 16/// /3405 10032 21029 39307 40163 53024 60001 333 10044 21078 70000
AAXX 03064 71774 46/// ///// 10016 6///1 333 10042 20009 7////
AAXX 03064 71775 17/// /2401 10021 20008 30332 40338 50001 69941 7//4/ 333 10075 21003 70061
AAXX 03064 71776 46/// /2104 11019 21055 39644 40300 50006 6///1 333 10061 21019 7////
AAXX 03064 71777 16/// ///// 11047 21051 30087 40349 51003 60001 333 11035 21067 70000
AAXX 03064 71778 46/// /1002 6///1 333 7//// 555 32629 40072
AAXX 03064 71779 16/// /1305 10001 21006 39621 40299 58007 60001 333 10016 21114 7////
AAXX 03064 71780 16/// /0504 10049 20015 30309 40337 58002 60001 333 10085 20045 70000
AAXX 03064 71781 46/// /2807 10060 20031 30304 40329 53008 6///1 333 10073 20049 7//// 555 33335 40153
AAXX 03064 71782 46/// /1104 11086 21120 38919 40278 50006 6///1 333 10026 21086 7//// 555 31524 40081
AAXX 03064 71783 16/// /2901 10000 21004 30257 40332 53003 60001 333 10073 21006 70002
AAXX 03064 71784 16/// /0301 10016 20001 30121 40330 51007 60001 333 10073 20005 70000
AAXX 03064 71785 16/// /0303 10033 20012 30325 40341 51002 60001 333 10084 20021 70000
AAXX 03064 71786 46/// /2411 11109 21120 38404 40286 55004 6///1 333 11018 21110 7//// 555 32822 40071
AAXX 03064 71787 17/// /3306 11025 21057 39795 40293 53011 69941 7//4/ 333 10025 21072 70016
AAXX 03064 71788 NIL
AAXX 03064 71789 NIL
AAXX 03064 71791 NIL
AAXX 03064 71792 NIL
AAXX 03064 71793 NIL
AAXX 03064 71794 NIL
AAXX 03064 71795 NIL
AAXX 03064 71796 NIL
AAXX 03064 71797 NIL
AAXX 03064 71893 12980 10000 10001 21017 30305 40337 51006 60001 81070 333 10076 21002 70000 555 10000 20000 33420 40130
AAXX 03064 71894 16/// /0107 10042 20031 30324 40333 53004 60001 333 10085 20023 70002 555 32934 40233
AAXX 03064 71896 15766 61909 11008 21027 39430 40278 58010 60001 333 10007 21030 70000
AAXX 03064 71897 12274 72310 10050 20028 3//// 4//// 54000 60001 87850 333 10062 20044 70002
AAXX 03064 71898 160// ///// 10044 51001 60061 333 10067 20021 70070
AAXX 03064 71899 11974 02820 10066 20053 3//// 4//// 54000 69941 70161 333 10074 20054 70008 90960 555 32728 40032
AAXX 03064 71902 NIL
AAXX 03064 71905 NIL
AAXX 03064 71906 11774 82312 11107 21150 30165 40217 53021 69901 70377 8657/ 333 11081 21116 48007 79999 90940 555 19999 29999
AAXX 03064 71907 17464 91815 11043 21088 30075 40108 58022 60001 745// 333 11043 21071 70000
AAXX 03064 71909 16564 63104 11132 21174 30054 40098 51017 60001 333 11121 21167 70000
AAXX 03064 71910 47319 92617 11082 21095 39993 40056 55000 6///1 745// 333 11071 21131 7//// 555 32229 40052
AAXX 03064 71911 46964 02205 11297 30034 40093 51008 6///1 333 11227 21302 7////
AAXX 03064 71912 11448 83314 11114 21131 39804 49988 52023 60021 77177 885// 333 11059 21188 48019 70066 90983 93103 555 10082 20066
AAXX 03064 71915 11469 82709 11178 21195 39982 40064 51005 69901 77177 885// 333 11127 21194 48050 70012 90983 555 10012 20012 32821 40041
AAXX 03064 71917 11974 00000 11354 21399 30077 40092 52010 69901 7767/ 333 11301 21355 47013 79999 90999 555 19999 29999
AAXX 03064 71922 11974 02911 11134 21158 39698 40173 52027 69901 70277 333 10026 21134 47024 70010 90933 555 10010 20010
AAXX 03064 71924 11974 00318 11263 21305 39978 40071 53009 60001 73611 333 11260 21324 48037 79999 555 19999 29999 33418 40201
AAXX 03064 71925 11474 13211 11304 21350 30094 40137 50005 69901 77677 81500 333 11265 21311 48017 79999 90983 555 19999 29999
AAXX 03064 71926 12574 40000 11288 21332 30096 40122 54000 60001 81501 333 11238 21290 70000 555 10000 20000
AAXX 03064 71928 16/// /2001 11117 21134 39041 40233 56011 60001 333 10033 21124 70000 555 33140 40183
AAXX 03064 71150 46/// /2917 11016 21034 39396 40076 53015 6///1 333 10013 21057 7//// 555 33024 40061
AAXX 03064 71151 NIL
AAXX 03064 71152 16/// /0206 10000 21034 30265 40278 53009 60001 333 10065 21002 70000 555 30222 40101
AAXX 03064 71153 NIL
AAXX 03064 71154 16/// /2009 11055 21125 60001 333 10029 21068 70000 555 32543 40083
AAXX 03064 71155 NIL
AAXX 03064 71156 NIL
AAXX 03064 71157 46/// ///// 11059 21077 6///1 333 10053 21066 7////
AAXX 03064 71158 NIL
AAXX 03064 71159 16/// /3302 11013 21034 30210 40284 53008 60001 333 10023 21023 70000 555 33320 40071
AAXX 03064 71160 NIL
AAXX 03064 71161 16/// /0802 11039 21073 30199 40352 50003 60001 333 10030 21039 70017 555 33417 40201
AAXX 03064 71162 NIL
AAXX 03064 71163 46/// /0604 11183 21200 39799 40152 53001 6///1 333 11145 21211 7////
AAXX 03064 71164 NIL
AAXX 03064 71165 NIL
AAXX 03064 71166 NIL
AAXX 03064 71167 15966 /3002 11069 21083 39100 40216 56013 60001 333 10014 21106 70000
AAXX 03064 71168 NIL
AAXX 03064 71170 16/// /2711 11004 21033 60001 333 10026 21037 70000 555 32524 40191
AAXX 03064 71171 16/// /1703 11019 21034 30240 40340 50000 60001 333 10050 21024 70013
AAXX 03064 71172 16/// ///// 11041 21056 30099 40323 58008 60001 333 10004 21064 70006
AAXX 03064 71175 NIL
AAXX 03064 71176 460// /2538 11096 39412 40101 53029 6///1 333 11083 21101 7////
AAXX 03064 71177 460// /3211 11140 39141 40169 53017 6///1 333 11114 21158 7//// 555 32150 40073
AAXX 03064 71178 16/// /2609 10019 21031 30235 40267 53004 60001 333 10031 20008 70000 555 30127 40081
AAXX 03064 71179 460// /2307 11157 39367 40224 51011 6///1 333 11141 21171 7//// 555 31930 40232
AAXX 03064 71180 46/// /0307 11008 21041 30254 40294 53003 6///1 333 10026 21021 7//// 555 33324 40101
AAXX 03064 71181 NIL
AAXX 03064 71183 16/// /3107 30313 51011 60001 333 70000 555 32618 40161
AAXX 03064 71184 46/// /3305 11018 21059 6///1 333 10027 21018 7//// 555 32417 40171
AAXX 03064 71186 NIL
AAXX 03064 71187 15566 80704 10011 20004 30293 40342 51005 60001 333 10048 21009 70000
AAXX 03064 71189 NIL
AAXX 03064 71190 NIL
AAXX 03064 71191 16/// ///// 11003 21037 60001 333 10032 21033 70000
AAXX 03064 71192 15366 81405 10000 21006 39624 40305 58007 69931 333 10017 21110 70003
AAXX 03064 71193 16/// /1711 11081 21099 39886 40261 58016 60001 333 11078 21231 70004 555 31717 40051
AAXX 03064 71196 16/// /1801 11102 21107 30145 40352 58001 60001 333 10004 21109 70003 555 10010 20003
AAXX 03064 71197 16964 03502 11010 21050 30241 40291 53002 60001 333 10033 21026 70000 555 33422 40071
AAXX 03064 71198 46/// /3110 11021 21061 6///1 333 10017 21024 7//// 555 33519 40001
AAXX 03064 71199 46/// /0000 11019 21033 39320 40162 55005 6///1 333 11001 21117 7//// 555 32728 40072
AAXX 03064 71914 46/// /2301 10020 20010 30109 6///1 333 20009 7////
AAXX 03064 71950 15766 12405 11040 21044 39642 40289 57005 60001 333 10015 21070 70000
AAXX 03064 71952 16/// /3501 11121 21131 39415 40299 58004 60001 333 11029 21170 70000
AAXX 03064 71954 NIL
AAXX 03064 71956 NIL
AAXX 03064 71959 16/// ///// 10002 21016 60001 333 10049 21010 70000
AAXX 03064 71960 460// /2817 11192 30014 40150 51024 6///1 333 11163 21236 7//// 555 30320 40061
AAXX 03064 71962 16/// /2010 11023 21101 39680 40105 56008 60001 333 11002 21101 70000 555 31725 40191
AAXX 03064 71963 NIL
AAXX 03064 71967 16/// /0304 11026 21053 30254 40363 51019 60001 333 10036 21026 70027
AAXX 03064 71970 NIL
AAXX 03064 71971 NIL
AAXX 03064 71972 460// ///// 11116 39620 40087 52014 6///1 333 11072 21119 7////
AAXX 03064 71973 46/// /1602 11014 21045 30095 40287 53012 6///1 333 10009 21030 7////
AAXX 03064 71974 NIL
AAXX 03064 71975 460// /2730 11151 39297 40029 51016 6///1 333 11112 21152 7//// 555 30339 40063
AAXX 03064 71976 NIL
AAXX 03064 71977 NIL
AAXX 03064 71978 NIL
AAXX 03064 71979 NIL
AAXX 03064 71980 NIL
AAXX 03064 71981 NIL
AAXX 03064 71982 NIL
AAXX 03064 71983 NIL
AAXX 03064 71984 16/// /2801 11229 21251 30127 40136 53007 60001 333 11220 21281 70000
AAXX 03064 71985 NIL
AAXX 03064 71986 NIL
AAXX 03064 71987 16/// /3609 10001 21019 30289 40299 53016 60001 333 10014 21017 70000
AAXX 03064 71988 46/// /3611 10048 20004 30279 40299 53008 6///1 333 10054 20019 7////
AAXX 03064 71989 NIL
AAXX 03064 71990 NIL
AAXX 03064 71999 46/// ///// 10000 6///1 333 10036 21045 7////
AAXX 03064 71930 NIL
AAXX 03064 71931 NIL
AAXX 03064 71934 11574 81502 11131 21151 39886 40151 58021 69901 70271 8557/ 333 11057 21136 47022 70030 90943 555 10030 20030 33422 40150
AAXX 03064 71935 12774 62203 11118 21136 39923 40137 56014 60001 86500 333 11073 21170 70012 555 10014 20012 33225 40091
AAXX 03064 71936 11558 80305 11171 21203 39884 40154 55004 69941 77177 8252/ 333 11121 21219 48027 70004 90973 93101 555 10006 20004 33525 40101
AAXX 03064 71937 NIL
AAXX 03064 71938 11974 02305 11311 21342 30139 40170 53001 69901 77677 333 11240 21321 43017 79999 90983 555 19999 29999
AAXX 03064 71940 12782 72115 11020 21064 39375 40189 58015 60001 83501 333 10019 21020 70000 555 10000 20000 33130 40141
AAXX 03064 71943 12974 32313 11016 21082 39327 40171 57018 60001 83070 333 10018 21036 70000 555 10000 20000 32725 40081
AAXX 03064 71944 160// ///// 11019 58011 60001 333 10010 21116 70000
AAXX 03064 71945 12874 82003 11040 21081 39674 40151 56009 60001 8807/ 333 11031 21097 70024 555 10042 20024 33230 40070
AAXX 03064 71946 12974 20000 11211 21234 39930 40153 53002 60001 80001 333 11110 21233 48039 79999 555 19999 29999
AAXX 03064 71948 47964 01017 11240 30023 40141 53004 6///1 745// 333 11222 21267 7//// 555 31023 40031
AAXX 03064 71949 46/// /0702 11084 21094 39290 40177 53014 6///1 333 11038 21118 7////
AAXX 03064 71951 11374 72010 10019 20010 30065 40338 58005 69901 70282 86870 333 10031 20006 44045 79999 90960 555 10000 20000 32125 40081
AAXX 03064 71957 47662 83203 11193 21234 30086 40177 51037 6///1 745// 333 11148 21258 7////
AAXX 03064 71958 43/// /2303 11001 21006 39258 40206 56001 6///1 333 7////
AAXX 03064 71964 12782 63303 10020 21041 39310 40166 53025 60001 83570 333 10053 21100 70000 555 10000 20000
AAXX 03064 71966 16/// /0503 11152 21166 39756 40233 51044 60001 333 11084 21177 70015 555 10020 20015
AAXX 03064 71968 47040 /2913 11202 30122 40189 52037 6///1 745// 333 11167 21256 7//// 555 31022 40071
AAXX 03064 71300 NIL
AAXX 03064 71301 NIL
AAXX 03064 71302 16/// /1908 11007 21023 39440 40273 57010 60001 333 10009 21022 70000 555 32823 40101
AAXX 03064 71303 46/// ///// 10030 21008 6///1 333 10041 20002 7////
AAXX 03064 71305 15966 80401 11147 21164 39871 40178 58024 60001 333 10002 21169 70018
AAXX 03064 71306 17566 81815 11040 21073 30075 40107 58022 60001 771// 333 11036 21060 70000 555 32735 40173
AAXX 03064 71307 NIL
AAXX 03064 71308 16/// /1603 11008 21027 30205 40291 53003 60001 333 10033 21021 70000 555 33321 40071
AAXX 03064 71309 NIL
AAXX 03064 71310 16/// /2402 11009 21028 30257 40295 53007 60001 333 10028 21017 70000 555 33417 40091
AAXX 03064 71311 NIL
AAXX 03064 71312 16/// /3314 11076 21112 39684 40145 51036 60001 333 10029 21076 70000 555 33432 40022
AAXX 03064 71314 16/// /0000 11076 21087 39977 40342 57005 60001 333 10013 21080 70024
AAXX 03064 71315 NIL
AAXX 03064 71316 16/// /2102 11113 21135 39498 40200 58011 60001 333 10046 21124 70000 555 33532 40192
AAXX 03064 71317 NIL
AAXX 03064 71318 16/// /2708 11118 21139 39262 40231 53007 60001 333 10046 21140 70000 555 33344 40213
AAXX 03064 71319 16/// /0202 11094 21101 39431 40322 52020 60001 333 11041 21101 70035
AAXX 03064 71320 16/// /2407 11286 21312 30060 40061 53013 60001 333 11142 21287 70000 555 33018 40101
AAXX 03064 71321 16/// /3203 11134 21163 30070 40114 51017 60001 333 11120 21166 70000
AAXX 03064 71322 NIL
AAXX 03064 71323 16/// /2803 11026 21045 30039 40328 51024 60001 333 10004 21046 70030
AAXX 03064 71331 16/// /3105 11141 21173 60001 333 10011 21142 70026 555 10030 20026 33422 40221
AAXX 03064 71332 NIL
AAXX 03064 71334 46/// /3410 11213 21244 39772 40112 53022 6///1 333 11125 21214 7//// 555 30519 40221
AAXX 03064 71335 46964 02725 11104 53020 6///1 333 11095 21117 7//// 555 32650 40113
AAXX 03064 71336 46/// ///03 10015 21015 30231 40254 53007 6///1 333 10037 20014 7////
AAXX 03064 71337 46/// /2602 11050 21064 30024 40267 53007 6///1 333 10006 21052 7////
AAXX 03064 71338 46964 01203 11180 21198 30036 40043 53016 6///1 333 11127 21196 7//// 555 33621 40121
AAXX 03064 71339 16964 02806 11107 21141 30250 40265 53010 60001 333 11036 21110 70000
AAXX 03064 71340 NIL
AAXX 03064 71341 NIL
AAXX 03064 71342 NIL
AAXX 03064 71343 NIL
AAXX 03064 71344 NIL
AAXX 03064 71345 NIL
AAXX 03064 71346 NIL
AAXX 03064 71347 NIL
AAXX 03064 71348 NIL
AAXX 03064 71349 NIL
AAXX 03064 71114 16564 80704 10013 21001 30293 40342 51005 60001 333 10050 21011 70005 555 32719 40111
AAXX 03064 71120 12574 21804 11114 21145 39536 40210 55002 60001 82570 333 10052 21115 70004 555 10004 20004 33438 40181
AAXX 03064 71122 16/// /2206 11091 21139 38617 40255 58003 60001 333 10000 21094 70000 555 32418 40191
AAXX 03064 71123 12974 72404 11086 21111 39333 40216 58010 60001 83072 333 10055 21124 79999 555 19999 29999 32846 40073
AAXX 03064 71125 NIL
AAXX 03064 71129 11574 22903 11112 21137 39370 40220 51018 69901 70171 81501 333 10030 21112 42001 79999 90951 555 10006 29999 33231 40221
AAXX 03064 71131 16/// /3220 11083 21097 38936 40218 53030 60001 333 11001 21085 70007 555 33139 40233
AAXX 03064 71135 16/// /3318 11082 21114 39083 40186 51027 60001 333 11002 21082 70012 555 33032 40232
AAXX 03064 71137 16/// /3421 11060 21088 39247 40208 53025 60001 333 10017 21064 70020 555 32937 40123
AAXX 03064 71140 12874 72513 11005 21022 39583 40084 53013 60001 87070 333 10026 21044 70000 555 10000 20000
AAXX 03064 71145 11362 82308 11009 21009 39681 49971 51005 60011 77177 885// 333 11009 21118 48026 70044 90973 93101 555 10044 20044
AAXX 03064 71148 NIL
AAXX 03064 71182 16964 02605 11187 21230 39737 40305 51020 60001 333 11118 21187 70000 555 32617 40121
AAXX 03064 71185 16964 03006 11029 30253 40277 51013 60001 333 11003 21061 70000
AAXX 03064 71188 11574 62506 11048 21067 30278 40322 52022 69901 70371 86500 333 11005 21077 79999 90931 555 19999 29999
AAXX 03064 71200 16/// /3501 10038 20015 60001 333 10074 20028 70000 555 33517 40191
AAXX 03064 71207 16/// /0401 11018 30274 40340 51010 60001 333 10052 21023 70000
AAXX 03064 71260 13/// ///// 11014 21047 30038 40280 58011 60001 333 10000 21071 79999 555 10002 29999
AAXX 03064 71401 16/// /3401 11037 21074 39601 40301 51006 60001 333 10052 21043 70000 555 33525 40191
AAXX 03064 71402 NIL
AAXX 03064 71404 NIL
AAXX 03064 71405 NIL
AAXX 03064 71406 NIL
AAXX 03064 71407 NIL
AAXX 03064 71408 NIL
AAXX 03064 71409 NIL
AAXX 03064 71410 17466 83215 11103 21134 39762 40042 51058 60001 771// 333 10014 21103 70003
AAXX 03064 71413 NIL
AAXX 03064 71414 NIL
AAXX 03064 71415 NIL
AAXX 03064 71417 NIL
AAXX 03064 71418 NIL
AAXX 03064 71419 46/// /0109 10028 20002 30274 40284 51001 6///1 333 10049 20024 7//// 555 33325 40071
AAXX 03064 71423 NIL
AAXX 03064 71424 46/// /0611 6///1 333 7//// 555 30624 40041
AAXX 03064 71425 16/// /3411 11031 21081 30288 40325 51021 60001 333 11010 21031 70000 555 32823 40101
AAXX 03064 71426 NIL
AAXX 03064 71427 NIL
AAXX 03064 71428 NIL
AAXX 03064 71429 16/// /3609 11025 21063 30286 40306 53020 60001 333 11002 21054 70000
AAXX 03064 71434 NIL
AAXX 03064 71436 15966 00000 11054 21055 30111 40353 58005 60001 333 10027 21066 70005
AAXX 03064 71437 46/// /2901 10007 21025 30247 40344 56002 6///1 333 10048 20007 7//// 555 33217 40211
AAXX 03064 71438 NIL
AAXX 03064 71439 NIL
AAXX 03064 71440 NIL
AAXX 03064 71442 NIL
AAXX 03064 71445 NIL
AAXX 03064 71446 16/// /3217 11076 21103 39207 40204 51031 60001 333 10014 21079 70003 555 33237 40003
AAXX 03064 71448 16/// /2606 11003 21035 39726 40055 53010 60001 333 10014 21072 70000 555 31821 40201
AAXX 03064 71449 NIL
AAXX 03064 71665 16/// /2611 11123 21171 30217 40227 52013 60001 333 11082 21125 70000 555 32635 40123
AAXX 03064 71666 16/// /3504 11013 21020 30258 40304 53016 60001 333 10018 21046 70000
AAXX 03064 71667 NIL
AAXX 03064 71668 16/// /3203 11002 21016 30261 40305 53015 60001 333 10016 21051 70000
AAXX 03064 71669 NIL
AAXX 03064 71670 16/// ///// 11017 21023 60001 333 10014 21060 70000
AAXX 03064 71671 NIL
AAXX 03064 71672 16/// /0000 11075 21087 30076 40349 58003 60001 333 10032 21078 70000
AAXX 03064 71673 NIL
AAXX 03064 71674 NIL
AAXX 03064 71675 17666 82211 11017 21056 39709 49987 58012 60031 70044 333 11017 21165 70184
AAXX 03064 71679 16/// /3210 10031 21007 39250 40277 58002 60001 333 10037 21013 70000 555 33137 40093
AAXX 03064 71680 NIL
AAXX 03064 71681 46/// /1201 10013 21034 6///1 333 10066 21062 7////
AAXX 03064 71682 NIL
AAXX 03064 71683 NIL
AAXX 03064 71684 15966 01506 11112 21128 39996 40310 58015 60001 333 11064 21148 70000
AAXX 03064 71685 15866 83503 11023 21027 39758 40310 52004 60001 333 10030 21034 70008
AAXX 03064 71686 NIL
AAXX 03064 71687 16/// /0000 11056 21063 39527 40334 52006 60001 333 10021 21056 70000
AAXX 03064 71688 16/// /0702 11059 21062 39254 40320 51004 60001 333 10013 21080 70000
AAXX 03064 71689 15966 31202 11147 21160 39721 40190 58015 60001 333 10022 21147 70000
AAXX 03064 71690 NIL
AAXX 03064 71691 15566 33005 11093 21120 30318 40346 53024 60001 333 11047 21103 70000
AAXX 03064 71692 NIL
AAXX 03064 71694 16/// /0901 11096 21106 39978 40356 58005 60001 333 10009 21101 70018 555 10010 20018
AAXX 03064 71695 16/// /3217 11103 21134 39762 40098 51041 60001 333 10028 21103 70000 555 33129 40012
AAXX 03064 71696 17/// /0129 11077 21088 39963 40000 53016 69951 7//4/ 333 11048 21251 70029 555 30138 40063
AAXX 03064 71697 15566 60601 11052 21053 30176 40353 56002 60001 333 10030 21057 70005
AAXX 03064 71699 16/// /0401 11004 21034 30295 40303 53016 60001 333 10041 21048 70000
AAXX 03064 71812 NIL
AAXX 03064 71819 15566 62803 11070 21101 30228 40271 53009 60001 333 11024 21082 70000
AAXX 03064 71820 16/// /0505 11042 21058 30234 40352 50005 60001 333 10049 21044 70031
AAXX 03064 71823 16964 01808 11147 21176 39874 40272 58013 60001 333 11127 21152 70000 555 32219 40201
AAXX 03064 71824 NIL
AAXX 03064 71826 16/// /2107 11123 21151 30005 40048 53024 60001 333 11101 21125 70003 555 10010 20003
AAXX 03064 71829 16/// /2807 11098 21125 30169 40337 53022 60001 333 7////
AAXX 03064 71833 NIL
AAXX 03064 71835 16/// /2216 11029 21090 39567 40046 56008 60001 333 11023 21177 70000 555 32126 40021
AAXX 03064 71837 NIL
AAXX 03064 71839 NIL
AAXX 03064 71840 46/// /2616 11004 21037 6///1 333 10030 21039 7//// 555 32336 40173
AAXX 03064 71846 NIL
AAXX 03064 71847 NIL
AAXX 03064 71848 NIL
AAXX 03064 71849 NIL
AAXX 03064 71397 12974 70000 11011 21018 30261 40296 53005 60001 87030 333 10060 21022 70000 555 10000 20000
AAXX 03064 71400 16/64 /2901 11051 21054 60001 333 10024 21051 70000
AAXX 03064 71403 46/// /0309 10026 20001 30263 40283 55000 6///1 333 10061 20014 7//// 555 33420 40071
AAXX 03064 71411 16/// /3505 10015 20000 30275 40288 53006 60001 333 10062 21011 70000
AAXX 03064 71412 16/// /2704 10016 21014 30280 40290 53008 60001 333 10031 20000 70000 555 33421 40111
AAXX 03064 71421 NIL
AAXX 03064 71430 16/// /0105 11031 21045 30254 40354 50004 60001 333 10059 21045 70019 555 32530 40142
AAXX 03064 71431 16/// /0205 11041 21055 30246 40345 58001 60001 333 10051 21044 70003 555 32519 40081
AAXX 03064 71432 NIL
AAXX 03064 71433 NIL
AAXX 03064 71435 NIL
AAXX 03064 71441 46/// /2307 11014 21048 39776 40085 53017 6///1 333 10030 21043 7//// 555 31827 40171
AAXX 03064 71443 16/// /3311 11046 21092 39682 40095 53054 60001 333 10028 21046 70003 555 10010 20003 32923 40031
AAXX 03064 71444 46/// /2506 11013 21028 39309 40065 53012 6///1 333 11006 21062 7////
AAXX 03064 71447 16/// /2614 10007 21023 39559 40102 53012 60001 333 10048 21059 70000 555 32823 40221
AAXX 03064 71467 16/// /1206 11246 21269 30031 40151 53004 60001 333 11241 21340 70000
AAXX 03064 71472 NIL
AAXX 03064 71474 17464 82302 11015 21070 39043 40303 56004 60001 745// 333 10015 21028 70000 555 33224 40121
AAXX 03064 71510 16/// /3211 11073 21111 39474 40192 50024 60001 333 10041 21073 70012 555 33239 40213
AAXX 03064 71538 12574 21805 10004 21023 30096 40332 58008 60001 82500 333 10047 20000 70004 555 10004 20004
AAXX 03064 71600 16564 80109 10046 21012 30267 40273 55001 60001 333 10070 20022 70000 555 33422 40091
AAXX 03064 71601 NIL
AAXX 03064 71250 16/// /3603 10001 21033 30128 40267 53010 60001 333 10047 21001 70005 555 30019 40141
AAXX 03064 71251 16/// /2808 11100 21132 39311 40260 53004 60001 333 10038 21110 70000 555 32737 40073
AAXX 03064 71252 NIL
AAXX 03064 71253 46/// /2201 11123 21129 6///1 333 11001 21153 7//// 555 33524 40101
AAXX 03064 71254 17/// /2005 11081 21095 69961 7//4/ 333 10045 21106 70012 555 10030 20012 33042 40173
AAXX 03064 71255 17/// /2206 11123 21147 69931 7//4/ 333 10022 21128 70003 555 33535 40133
AAXX 03064 71256 46/// /0000 11040 21083 39249 40198 58017 6///1 333 10031 21044 7//// 555 33047 40153
AAXX 03064 71257 NIL
AAXX 03064 71258 NIL
AAXX 03064 71259 NIL
AAXX 03064 71261 16/// /1505 11024 21045 30061 40329 58006 60001 333 10041 21026 70031 555 33418 40151
AAXX 03064 71263 12974 10000 11033 21045 30050 40348 58002 60001 80001 333 10043 21040 70014 555 10014 20014 33217 40190
AAXX 03064 71264 16/// /0201 10008 21002 30255 40287 53001 60001 333 10054 21008 70000
AAXX 03064 71265 15566 60608 10001 21018 30252 40349 58003 60001 333 10050 21013 70013
AAXX 03064 71266 NIL
AAXX 03064 71267 15866 82507 11039 21076 39144 40260 51005 60001 333 10048 21053 70000
AAXX 03064 71268 NIL
AAXX 03064 71269 NIL
AAXX 03064 71270 NIL
AAXX 03064 71271 16/// ///// 11053 21094 60001 333 10043 21084 70005
AAXX 03064 71272 17766 83412 11212 21237 39746 40111 53022 60001 771// 333 11124 21212 70000
AAXX 03064 71273 16/// /2905 11104 21132 39526 40201 51008 60001 333 10056 21106 70000 555 33231 40202
AAXX 03064 71274 NIL
AAXX 03064 71275 NIL
AAXX 03064 71276 NIL
AAXX 03064 71277 NIL
AAXX 03064 71278 NIL
AAXX 03064 71279 16/// /3303 11189 21209 30264 40333 51021 60001 333 11060 21189 7////
AAXX 03064 71281 NIL
AAXX 03064 71282 46/// /1305 11035 21035 30070 40349 56006 6///1 333 10039 21041 7//// 555 32618 40071
AAXX 03064 71283 NIL
AAXX 03064 71284 17/// ///// 11085 21102 69951 7//4/ 333 10040 21102 70005
AAXX 03064 71285 NIL
AAXX 03064 71286 NIL
AAXX 03064 71287 NIL
AAXX 03064 71288 NIL
AAXX 03064 71289 NIL
AAXX 03064 71290 15666 81408 11020 21047 39401 40253 58011 60001 333 10009 21118 70000 555 32725 40071
AAXX 03064 71291 16/// /1710 11003 21059 39859 40150 58007 60001 333 11003 21193 70000 555 31726 40001
AAXX 03064 71292 15566 83017 11064 21078 39505 40116 53044 60001 333 10025 21064 70033
AAXX 03064 71294 16/// /3201 11125 21128 39931 40350 50001 60001 333 10002 70009 555 10020 20009
AAXX 03064 71295 NIL
AAXX 03064 71296 NIL
AAXX 03064 71297 16/// /0000 11044 21044 60001 333 10054 21046 70009
AAXX 03064 71298 NIL
AAXX 03064 71299 NIL
AAXX 03064 71201 16/// ///// 10028 21006 60001 333 10078 20023 70000
AAXX 03064 71202 16/// ///// 11114 21130 60001 333 10059 21123 70000
AAXX 03064 71203 15766 81702 11007 21047 39778 40310 53001 60001 333 10067 21052 70000
AAXX 03064 71209 46/// /0706 10045 6///1 333 10064 20036 7//// 555 33127 40101
AAXX 03064 71211 17/// /0311 10029 20005 30324 40336 51008 60061 7//4/ 333 10049 20027 70066 555 30521 40151
AAXX 03064 71212 16/// /0501 11092 21110 39494 40324 51019 60001 333 11032 21093 70034 555 10030 20034
AAXX 03064 71213 46/// /1505 11113 21125 39993 40306 58015 6///1 333 11057 21146 7////
AAXX 03064 71214 NIL
AAXX 03064 71215 46/// /0601 11008 21048 39953 40306 58001 6///1 333 10083 21057 7//// 555 30125 40221
AAXX 03064 71216 16/// /1307 11011 21054 39665 40293 58001 60001 333 10067 21018 70000
AAXX 03064 71217 NIL
AAXX 03064 71218 16/// /0000 10004 21042 39870 40305 50002 60001 333 10070 21046 70000 555 33330 40132
AAXX 03064 71219 46/// /1309 10049 20030 30343 40349 50000 6///1 333 10074 20040 7//// 555 33127 40071
AAXX 03064 71220 46/// /1516 10046 20034 6///1 333 10068 20036 7////
AAXX 03064 71221 NIL
AAXX 03064 71222 16/// /2303 11001 21006 39247 40223 56001 60001 333 10000 21090 70052 555 10120 20052
AAXX 03064 71223 NIL
AAXX 03064 71224 NIL
AAXX 03064 71225 NIL
AAXX 03064 71226 NIL
AAXX 03064 71227 NIL
AAXX 03064 71228 NIL
AAXX 03064 71229 NIL
AAXX 03064 71230 16/// /2610 11018 21072 39282 40182 58014 60001 333 10020 21033 70000 555 32735 40073
AAXX 03064 71231 16/// /2104 11113 21132 60001 333 10042 21122 70007 555 33042 40083
AAXX 03064 71232 16/// /2508 11043 21144 38699 40216 58007 60001 333 10022 21045 70000 555 32528 40102
AAXX 03064 71233 16/// /1702 11073 21110 60001 333 10033 21073 70000 555 33131 40192
AAXX 03064 71234 16/// /1803 11109 21141 39041 40257 58001 60001 333 10041 21111 70000 555 33221 40211
AAXX 03064 71235 16/// /2106 11082 21109 60001 333 10043 21085 70000 555 33543 40203
AAXX 03064 71236 46/// /2801 11123 21141 6///1 333 10017 21123 7//// 555 33134 40073
AAXX 03064 71237 46/// /0000 11132 21143 39401 40237 51005 6///1 333 10061 21132 7//// 555 33532 40102
AAXX 03064 71238 16/// /2701 11096 21113 60001 333 10050 21101 70000 555 32933 40182
AAXX 03064 71239 16/// /2609 11010 21037 39625 40082 53012 60001 333 10037 21047 70000 555 10010 32125 40161
AAXX 03064 71240 16/// /0000 11111 21140 39366 40233 51012 60001 333 10034 21111 70000 555 33043 40203
AAXX 03064 71241 NIL
AAXX 03064 71242 16/// /2606 11111 21132 60001 333 10050 21111 70000 555 33142 40083
AAXX 03064 71243 NIL
AAXX 03064 71244 NIL
AAXX 03064 71245 NIL
AAXX 03064 71246 NIL
AAXX 03064 71247 15966 02907 11083 21108 39379 40253 51013 60001 333 10047 21100 70000
AAXX 03064 71248 16/// /0000 11138 21156 38904 40239 58007 60001 333 10043 21141 70008 555 32948 40193
AAXX 03064 71249 NIL
AAXX 03064 71604 16/// /3303 11023 21031 60001 333 11010 21034 70000 555 33120 40101
AAXX 03064 71605 16/// /2402 10028 20007 30179 40332 51008 60001 333 10076 20008 70000
AAXX 03064 71611 16/// /3406 11015 21043 60001 333 10020 21046 70000
AAXX 03064 71612 NIL
AAXX 03064 71614 NIL
AAXX 03064 71616 16/// /2702 11040 21058 30232 40356 51021 60001 333 10021 21040 70040
AAXX 03064 71617 16/// /2505 11105 21127 30187 40364 53021 60001 333 7////
AAXX 03064 71618 17/12 /0133 11076 21087 39970 40008 53019 69981 771// 333 11048 21249 70026
AAXX 03064 71619 NIL
AAXX 03064 71622 NIL
AAXX 03064 71632 46/// /3310 11178 21203 39669 40121 51031 6///1 333 11091 21178 7//// 555 10040 30022 40231
AAXX 03064 71634 17/// /3304 11033 21040 30165 40323 53021 69941 7//4/ 333 11002 21085 70004 555 10010 20004
AAXX 03064 71638 16/// /3303 10000 21011 30223 40331 53007 60001 333 10068 21010 70000
AAXX 03064 71639 12574 21002 11036 21056 30099 40349 58004 60001 82500 333 10027 21037 70016 555 10016 20016
AAXX 03064 71642 NIL
AAXX 03064 71603 12974 43205 10003 21017 30240 40294 53010 60001 84010 333 10055 21014 70000 555 10000 20000
AAXX 03064 71607 16/// /3102 11010 21016 30273 40306 53017 60001 333 10042 21069 70000
AAXX 03064 71609 12674 73606 11004 21051 30166 40303 53013 60001 87500 333 10029 21058 70000 555 10000 20000
AAXX 03064 71610 15466 83105 11026 21040 30042 40346 51027 60001 333 10010 21061 70003
AAXX 03064 71621 16964 00000 11048 21056 30250 40360 51006 60001 333 10048 21052 70000
AAXX 03064 71623 NIL
AAXX 03064 71624 12574 21302 11011 21031 30129 40347 58002 60001 82500 333 10050 21014 70014 555 10006 20006
AAXX 03064 71625 16564 31802 11081 21123 30185 40352 55003 60001 333 10003 21097 70005
AAXX 03064 71627 12574 73106 11030 21085 30312 40358 50012 60001 87500 333 10040 21030 70010 555 10000 20000
AAXX 03064 71628 12574 72802 11045 21080 30218 40364 51010 60001 87500 333 10006 21047 70038 555 10036 20036
AAXX 03064 71630 NIL
AAXX 03064 71631 16/// /1703 11050 21064 39821 40336 58001 60001 333 10003 21061 70029
AAXX 03064 71633 12974 01708 11027 21059 30049 40329 58005 60001 333 10010 21037 70006 555 10006 20006
AAXX 03064 71705 11574 73605 11013 21033 30215 40305 53016 69901 78522 87500 333 10025 21055 79999 90910 555 19999 29999
AAXX 03064 71706 12874 73203 11013 21030 30239 40301 53009 60001 83071 333 10039 21016 70000 555 10000 20000
AAXX 03064 71707 12974 53005 11021 21041 30209 40287 54000 60001 85050 333 10037 21032 70000 555 10000 20000 33418 40070
AAXX 03064 71709 NIL
AAXX 03064 71711 NIL
AAXX 03064 71714 16/// /3603 11026 21053 30263 40358 51026 60001 333 7////
AAXX 03064 71715 16/// /3406 11037 21049 30151 40338 53021 60001 333 11022 21061 70031 555 10030 20031
AAXX 03064 71718 11466 83411 11047 21078 30276 40344 53026 69961 77177 885// 333 11022 21069 47001 70014 90983 555 10014 20014
AAXX 03064 71719 NIL
AAXX 03064 71700 17466 81901 11012 21016 30283 40309 53015 69931 7004/ 333 10015 21075 70003
AAXX 03064 71701 11274 80000 11008 21016 30244 40308 53014 69941 70272 885// 333 10013 21071 45997 70004 90921 555 10004 20004
AAXX 03064 71702 16/// /3504 10003 21029 30278 40293 53011 60001 333 10032 21011 70000
AAXX 03064 71703 NIL
AAXX 03064 71704 15566 81707 11005 21022 30110 40338 55005 60001 333 10023 21034 70010
AAXX 03064 71710 16/// /3107 10008 21042 30283 40293 53009 60001 333 10018 21005 70000 555 33318 40111
AAXX 03064 71712 16/// /2704 11022 21068 30298 40361 51010 60001 333 10047 21022 70012
AAXX 03064 71713 16/// /0203 11021 21036 60001 333 11005 21023 70026
AAXX 03064 71716 NIL
AAXX 03064 71717 NIL
AAXX 03064 71720 16/// /1001 11007 21009 30184 40341 51008 60001 333 10066 21018 70000
AAXX 03064 71721 NIL
AAXX 03064 71723 NIL
AAXX 03064 71724 NIL
AAXX 03064 71732 16/// /1804 11099 21109 60001 333 11019 21102 70000
AAXX 03064 71733 16/// /1610 11091 21101 39869 40317 58010 60001 333 11039 21126 70000
AAXX 03064 71734 NIL
AAXX 03064 71736 NIL
AAXX 03064 71737 NIL
AAXX 03064 71741 16/// /2806 10020 21044 39884 40312 53001 60001 333 10070 21064 70000 555 33024 40201
AAXX 03064 71742 46/// /2904 11013 21035 30090 40280 53008 6///1 333 10021 21015 7////
AAXX 03064 71743 NIL
AAXX 03064 71744 NIL
AAXX 03064 71745 NIL
AAXX 03064 71746 NIL
AAXX 03064 71747 NIL
AAXX 03064 71748 NIL
AAXX 03064 71900 46/// /22// 11111 21162 30237 40250 53016 6///1 333 11069 21113 7////
AAXX 03064 71903 NIL
AAXX 03064 71904 NIL
AAXX 03064 71914 16/// /2301 10020 20010 30109 40335 54000 60001 333 10045 20009 70000
AAXX 03064 71916 NIL
AAXX 03064 71918 460// ///// 11305 6///1 333 7////
AAXX 03064 71920 NIL
AAXX 03064 71921 NIL
AAXX 03064 71923 NIL
AAXX 03064 71927 16/// /3501 11013 21020 30280 40339 51003 60001 333 10080 21019 70000
AAXX 03064 71941 15966 01907 11119 21133 39895 40331 58003 60001 333 11063 21168 70000
AAXX 03064 71947 15966 61811 11107 21155 39929 40290 58014 60001 333 11095 21228 70000
AAXX 03064 71726 16/// /0000 11204 21222 39783 40354 51011 60001 333 11057 21204 70036 555 10020 20036
AAXX 03064 71727 11674 22403 11110 21136 30152 40358 52020 69901 70277 82500 333 11027 21112 46001 70014 90942 555 10014 20014
AAXX 03064 71728 12582 12507 11148 21169 30130 40363 52018 60001 81501 333 11053 21153 70016 555 10016 20016
AAXX 03064 71730 12574 61612 11094 21101 39877 40320 58010 60001 86500 333 11038 21110 70000 555 10000 20000
AAXX 03064 71731 12974 11807 11093 21106 39864 40334 56007 60001 81070 333 11035 21120 47009 70004 555 10004 20004
AAXX 03064 71735 NIL
AAXX 03064 71738 NIL
AAXX 03064 71739 42974 31911 11077 21102 39886 40261 57017 6//// 80008 333 11071 21215 4//// 7//// 555 1//// 2////
AAXX 03064 71749 16964 62207 10003 21073 39915 40164 58008 60001 333 10007 21230 70000 555 32320 40031
AAXX 03064 71799 12680 12404 10000 21011 30315 40340 52004 60001 81501 333 10073 21010 70000 555 10000 20000
AAXX 03064 71800 16/08 /3608 10010 21001 30227 40260 51005 60001 333 10067 20001 70008 555 30228 40132
AAXX 03064 71801 12574 73603 11004 21030 30101 40278 51010 60001 87500 333 10039 21008 70012 555 10000 20000 30123 40140
AAXX 03064 71803 12474 72905 11015 21043 30088 40278 53008 60001 87500 333 10021 21015 70002 555 10002 20002
AAXX 03064 71807 NIL
AAXX 03064 71808 12974 03306 11095 21128 30226 40274 53011 60001 333 11038 21101 70000 555 10000 20000
AAXX 03064 71809 12574 80000 11012 21041 30257 40285 53008 60001 885// 333 10016 21036 79999 555 19999 29999
AAXX 03064 71810 NIL
AAXX 03064 71811 NIL
AAXX 03064 71813 NIL
AAXX 03064 71814 16/// /3605 11083 21091 30276 40286 51013 60001 333 11025 21112 70000
AAXX 03064 71815 12674 30000 11002 21035 30256 40287 52003 60001 83500 333 10027 21014 70000 555 10000 20000
AAXX 03064 71043 12783 70000 11167 21204 30048 40144 53005 60001 87500 333 11157 21196 79999 555 19999 29999
AAXX 03064 71045 16/// /2611 10028 21021 39300 40162 54000 60001 333 10032 21080 70000 555 10020
AAXX 03064 71050 46/// /2804 11003 21059 39210 40308 58005 6///1 333 10000 21103 7//// 555 32819 40081
AAXX 03064 71051 NIL
AAXX 03064 71052 NIL
AAXX 03064 71066 11674 80000 11105 21136 39720 40150 56019 69901 70272 8353/ 333 11009 21153 43017 70003 90940 555 10008 20003 33234 40081
AAXX 03064 71068 12974 72610 11031 21079 39467 40169 57025 60001 87070 333 10022 21104 79999 555 19999 29999 33040 40131
AAXX 03064 71069 16964 01104 11054 21069 39465 40181 58021 60001 333 10024 21069 70000 555 33044 40073
AAXX 03064 71076 16/// /0503 11181 21201 39766 40173 58008 60001 333 11097 21195 70006 555 10020 20006 30021 40171
AAXX 03064 71077 16/// /2601 11143 21159 39644 40200 58005 60001 333 10026 21145 70000 555 33136 40173
AAXX 03064 71079 11566 33214 11136 21158 39768 40050 52039 69951 77177 83500 333 11018 21136 48011 70047 90983 93101 555 10030 20047
AAXX 03064 71081 46964 02506 11284 21322 30058 40070 53013 6///1 333 11143 21287 7//// 555 33118 40101
AAXX 03064 71082 NIL
AAXX 03064 71083 11966 33515 11280 21321 30045 40089 58008 69901 77611 80001 333 11213 21280 48038 79999 90942 555 19999 29999 33520 40060
AAXX 03064 71090 46564 32803 11230 21266 30004 40039 53013 6///1 333 11163 21236 7//// 555 33227 40071
AAXX 03064 71091 460// /3104 11192 39846 40058 53019 6///1 333 7////
AAXX 03064 71092 46950 03004 11227 39371 40049 51020 6///1 333 11173 21228 7////
AAXX 03064 71093 460// /1304 11178 39529 40032 53011 6///1 333 11175 21191 7//// 555 30227 40071
AAXX 03064 71094 46061 /3605 11176 39086 49992 53015 6///1 333 11166 21184 7////
AAXX 03064 71095 46664 31607 11246 21287 39953 40035 53011 6///1 333 11215 21252 7////
AAXX 03064 71101 160// /2510 30351 51005 60001 333 70000 555 32526 40201
AAXX 03064 71104 NIL
AAXX 03064 71108 12574 80000 10028 20011 30262 40336 53001 60001 885// 333 10077 20014 79999 555 10000 20000
AAXX 03064 71109 12674 82408 10059 20026 30334 40361 56004 60001 885// 333 10076 20035 70014 555 10000 20000
AAXX 03064 71550 NIL
AAXX 03064 71551 NIL
AAXX 03064 71552 NIL
AAXX 03064 71553 NIL
AAXX 03064 71554 16/// /3609 11039 21072 30339 40345 53027 60001 333 11018 21060 70011
AAXX 03064 71555 NIL
AAXX 03064 71556 NIL
AAXX 03064 71557 46/// /0802 11018 21045 6///1 333 10064 21069 7////
AAXX 03064 71558 NIL
AAXX 03064 71559 16/// /3120 11039 21056 39435 40139 53029 60001 333 10043 21039 7//// 555 33032 40192
AAXX 03064 71560 16/// /2409 11023 21044 39783 40083 53016 60001 333 10016 21056 70000 555 31933 40182
AAXX 03064 71563 NIL
AAXX 03064 71564 16/// /2810 10000 21041 39717 40082 52013 60001 333 10039 21035 70000 555 32531 40192
AAXX 03064 71565 NIL
AAXX 03064 71566 NIL
AAXX 03064 71567 NIL
AAXX 03064 71568 16/// /3228 10074 20030 30319 40332 50003 60001 333 10076 20049 70002 555 33041 40233
AAXX 03064 71569 16/// /3218 11074 21103 39440 40149 51040 60001 333 10010 21074 70000 555 33136 40033
AAXX 03064 71570 16/// /2507 11001 21037 39744 40055 53008 60001 333 10018 21058 70000 555 32129 40222
AAXX 03064 71571 NIL
AAXX 03064 71572 NIL
AAXX 03064 71573 16/// /0000 11054 21062 30047 40338 58001 60001 333 10035 21056 70008 555 33317 40191
AAXX 03064 71574 11674 23004 11044 21056 30245 40320 52022 60011 70177 82500 333 10004 21072 47001 70010 90923 93101 555 10010 20010
AAXX 03064 71575 17/// /2816 11080 21093 39984 40049 55001 69931 7//4/ 333 11070 21128 70003 555 10030 20003 32626 40051
AAXX 03064 71576 16/// /1607 11245 21271 39949 40036 53011 60001 333 11214 21251 70000
AAXX 03064 71577 NIL
AAXX 03064 71578 16/// /1104 11012 21045 60001 333 11006 21029 70046
AAXX 03064 71579 NIL
AAXX 03064 71580 11874 72709 11262 21302 30043 40081 53004 69901 77177 87030 333 11226 21312 48034 70002 90973 555 10002 20002
AAXX 03064 71581 NIL
AAXX 03064 71582 15664 81702 10035 20035 30311 40365 56007 60001 333 10052 21007 70000
AAXX 03064 71583 NIL
AAXX 03064 71584 15966 03603 11115 21133 30269 40318 53023 60001 333 11029 21115 70000
AAXX 03064 71585 16/// /1102 11156 21169 39714 40190 58014 60001 333 10023 21157 7//// 555 33136 40143
AAXX 03064 71586 16/// /3007 11133 21160 39695 40169 51026 60001 333 10024 21134 70000 555 33331 40202
AAXX 03064 71587 NIL
AAXX 03064 71588 16/// /3303 11018 21055 60001 333 11003 21050 70000
AAXX 03064 71589 16/// /2803 11004 21024 30135 40270 53006 60001 333 10021 21007 70000
AAXX 03064 71590 16/// /3203 11031 21051 30121 40318 51021 60001 333 11019 21100 70016
AAXX 03064 71592 NIL
AAXX 03064 71593 NIL
AAXX 03064 71596 NIL
AAXX 03064 71598 16/64 /2903 11018 21032 30309 40315 53018 60001 333 10004 21036 70000
AAXX 03064 71599 16/// /3601 11013 21016 30089 40295 53005 60001 333 10057 21020 70000
AAXX 03064 71864 NIL
AAXX 03064 71865 16/// /3212 11082 21112 39459 40147 51034 60001 333 10017 21082 70000 555 32227 40071
AAXX 03064 71866 46964 03410 11083 21131 39568 40191 51033 6///1 333 10041 21083 7//// 555 33135 40233
AAXX 03064 71867 11464 83320 11105 21127 39765 40102 51041 69911 77177 885// 333 10027 21105 48014 70002 90973 555 10006 20002 33329 40011
AAXX 03064 71868 16/// /3112 11075 21113 39672 40115 51042 60001 333 10037 21075 70006 555 33128 40042
AAXX 03064 71869 11574 13110 11093 21135 39642 40174 52035 69901 72211 81500 333 10033 21094 43004 79999 90973 555 19999 29999
AAXX 03064 71871 15966 02809 11129 21152 39391 40220 53010 60001 333 10050 21129 70000
AAXX 03064 71877 12974 02105 11073 21106 38949 40247 58003 60001 333 10058 21090 70000 555 10000 20000 33336 40222
AAXX 03064 71878 12974 22406 11093 21114 39142 40240 58002 60001 80001 333 10051 21094 79999 555 19999 29999 33045 40172
AAXX 03064 71879 16964 02306 11057 21095 39392 40210 58010 60001 333 10057 21067 70005 555 33341 40183
AAXX 03064 71880 12982 22304 11048 21100 39150 40279 58001 60001 80001 333 10024 21057 70000 555 10000 20000 31920 40080
AAXX 03064 71882 16764 83402 11027 21039 39759 40310 52004 60001 333 10034 21038 70015
AAXX 03064 71883 46/// /0000 11063 21068 39472 40319 58001 6///1 333 11004 21130 7////
AAXX 03064 71887 11786 82906 10017 21054 39887 40316 55000 69901 77111 8657/ 333 10069 21065 79999 90931 555 19999 29999 33027 40120
AAXX 03064 71889 12874 80000 10003 21059 39886 40311 56004 60001 8807/ 333 10074 21041 70000 555 10000 20000 33620 40211
AAXX 03064 71891 16864 60102 11008 21027 30051 40334 53001 60001 333 10055 21033 70000 555 31817 40091
AAXX 03064 71892 12580 30203 10011 20000 30333 40338 51006 60001 82672 333 10066 20005 70000 555 10000 20000 33020 40090
AAXX 03064 71816 11574 82914 11119 21178 30232 40296 53018 69901 78588 885// 333 11082 21119 43014 79999 90973 555 19999 29999 32922 40060
AAXX 03064 71817 NIL
AAXX 03064 71818 11974 02913 11099 21123 30244 40263 52017 69901 70171 333 11043 21101 41997 79999 90941 555 19999 29999 32920 40040
AAXX 03064 71822 12974 01804 11209 21248 39840 40343 51008 60001 333 11110 21230 79999 555 19999 29999
AAXX 03064 71825 12974 01904 11221 21260 39614 40326 53020 60001 333 11116 21225 70002 555 10002 20002
AAXX 03064 71827 11766 81716 11104 21123 39937 40188 55034 69941 77171 885// 333 11083 21161 47016 70008 90937 555 10008 20008
AAXX 03064 71828 16764 63204 11172 21209 39618 40288 52030 60001 333 11121 21173 70000 555 32822 40031
AAXX 03064 71831 12674 61813 11045 21077 39933 40221 58015 60001 86500 333 11045 21201 70000 555 10000 20000 31819 40061
AAXX 03064 71832 NIL
AAXX 03064 71834 12974 32118 11017 21064 39714 40147 57010 60001 83050 333 11016 21213 79999 555 19999 29999 32128 40221
AAXX 03064 71841 NIL
AAXX 03064 71842 12774 81918 11024 21094 39610 40082 57005 60001 885// 333 11017 21093 79999 555 19999 29999 32029 40031
AAXX 03064 71844 16664 82110 11017 21051 39711 49988 57011 60001 333 11016 21166 70025 555 31926 40011
AAXX 03064 71845 NIL
AAXX 03064 71850 12574 82115 10003 21060 39570 40069 53004 60001 885// 333 10005 21072 44004 79999 555 19999 29999 32130 40201
AAXX 03064 71852 16964 02510 11007 21035 39773 40067 53012 60001 333 10017 21047 70000 555 31931 40162
AAXX 03064 71854 NIL
AAXX 03064 71858 16/// /3314 11099 21136 39790 40072 51058 60001 333 10022 21099 70003 555 33230 40032
AAXX 03064 71861 16/// /3218 11053 21078 39387 40115 53039 60001 333 10019 21053 70000 555 33228 40052
AAXX 03064 71862 NIL
AAXX 03064 71863 46564 83421 11085 21123 39455 40163 51041 6///1 333 10016 21085 7//// 555 33335 40043
AAXX 03064 71851 NIL
AAXX 03064 71857 NIL
AAXX 03064 71860 NIL
AAXX 03064 71876 15966 03207 11094 21112 39533 40211 51021 60001 333 10049 21094 70000
AAXX 03064 71885 NIL
AAXX 03064 71888 NIL
AAXX 03064 71895 NIL
AAXX 03064 71500 NIL
AAXX 03064 71501 NIL
AAXX 03064 71502 NIL
AAXX 03064 71503 NIL
AAXX 03064 71504 NIL
AAXX 03064 71505 NIL
AAXX 03064 71506 NIL
AAXX 03064 71507 16/// /2205 11047 21079 60001 333 10026 21112 70000 555 33138 40103
AAXX 03064 71508 16/// ///// 10006 21013 30210 40352 58003 60001 333 10050 20004 70017
AAXX 03064 71509 NIL
AAXX 03064 71511 NIL
AAXX 03064 71512 16/// /3301 11144 21153 30310 40325 52025 60001 333 11020 21144 70000
AAXX 03064 71513 15966 03508 11086 21122 30286 40302 53021 60001 333 11035 21098 70000
AAXX 03064 71514 NIL
AAXX 03064 71515 NIL
AAXX 03064 71516 16/// /3121 11065 21093 60001 333 10012 21065 70006 555 33232 40032
AAXX 03064 71517 NIL
AAXX 03064 71518 NIL
AAXX 03064 71519 NIL
AAXX 03064 71520 NIL
AAXX 03064 71521 NIL
AAXX 03064 71522 NIL
AAXX 03064 71523 NIL
AAXX 03064 71524 16/// /3404 11032 21071 30336 40363 51012 60001 333 10013 21032 70030
AAXX 03064 71525 NIL
AAXX 03064 71526 NIL
AAXX 03064 71527 15666 82115 11024 21097 39573 40081 58002 60001 333 11014 21087 70000
AAXX 03064 71528 NIL
AAXX 03064 71529 46/// /0902 11157 21177 39918 40153 55003 6///1 333 11116 21168 7//// 555 10010 30724 40071
AAXX 03064 71532 15961 01404 11092 21094 39987 40345 57005 60001 333 10004 21104
AAXX 03064 71534 16904 01702 11086 21094 30062 40344 58006 60001 333 10019 21097 70040
AAXX 03064 71535 NIL
AAXX 03064 71536 NIL
AAXX 03064 71537 NIL
AAXX 03064 71539 NIL
AAXX 03064 71540 NIL
AAXX 03064 71541 NIL
AAXX 03064 71542 16/// /0204 11105 21124 60001 333 10030 21151 70000 555 33446 40093
AAXX 03064 71543 NIL
AAXX 03064 71544 NIL
AAXX 03064 71545 16/// ///// 11091 21110 60001 333 10046 21105 70000
AAXX 03064 71546 NIL
AAXX 03064 71547 NIL
AAXX 03064 71548 NIL
AAXX 03064 71549 NIL
AAXX 03064 71051 NIL
AAXX 03064 71055 NIL
AAXX 03064 71057 NIL
AAXX 03064 71059 460// ///// 11260 30061 40156 55001 6///1 333 11230 21284 7////
AAXX 03064 71061 16/// /2205 11051 21089 39396 40190 58014 60001 333 10041 21068 70000 555 33239 40173
AAXX 03064 71062 46/// /2107 11045 21077 39108 40191 56013 6///1 333 10007 21061 7//// 555 32940 40073
AAXX 03064 71064 460// /3312 11305 39926 40154 55000 6///1 333 11265 21321 7//// 555 33425 40151
AAXX 03064 71065 NIL
AAXX 03064 71067 NIL
AAXX 03064 71070 NIL
AAXX 03064 71073 NIL
AAXX 03064 71074 NIL
AAXX 03064 71075 16/// /3105 11188 21209 39522 40148 51010 60001 333 11096 21188 70000 555 10050 33322 40231
AAXX 03064 71078 17766 63309 11176 21200 39667 40122 51031 60001 771// 333 11092 21176 70023
AAXX 03064 71084 460// ///// 11285 30064 40114 52005 6///1 333 11244 21285 7////
AAXX 03064 71085 15966 02807 11066 21123 38848 40258 58001 60001 333 10025 21092 70000
AAXX 03064 71087 NIL
AAXX 03064 71088 460// /2810 11211 53014 6///1 333 11146 21211 7//// 555 33123 40161
AAXX 03064 71089 NIL
AAXX 03064 71096 460// ///// 11188 39294 40038 53017 6///1 333 11180 21190 7////
AAXX 03064 71097 46964 03404 11145 39591 40071 53024 6///1 333 11104 21145 7//// 555 33220 40191
AAXX 03064 71098 43/// /2408 11007 21044 39635 49991 50002 6///1 333 11007 21107 7//// 555 32222 40221
AAXX 03064 71099 43/// /2008 11032 21040 39936 49956 56029 6///1 333 11032 21252 7////
AAXX 03064 71450 NIL
AAXX 03064 71451 NIL
AAXX 03064 71452 46/// /3222 11054 21091 39431 40148 53034 6///1 333 10030 21054 7//// 555 33232 40062
AAXX 03064 71453 16/// /2606 11080 21113 39312 40247 51026 60001 333 10042 21080 70004 555 33433 40122
AAXX 03064 71454 NIL
AAXX 03064 71455 46/// /3421 11067 21101 39387 40197 52032 6///1 333 10030 21070 7//// 555 33139 40223
AAXX 03064 71456 16/// /3314 11080 21111 39550 40155 51035 60001 333 10021 21082 70000 555 33230 40232
AAXX 03064 71457 16/// /2701 11133 21145 39327 40240 50006 60001 333 10055 21133 70000 555 33140 40223
AAXX 03064 71458 16/// /2303 11107 21125 39427 40217 58004 60001 333 10057 21122 70000 555 33443 40213
AAXX 03064 71459 16/// /3011 11090 21132 39398 40223 51018 60001 333 10030 21090 70000 555 33240 40233
AAXX 03064 71460 16/// /2220 10018 21027 30071 40319 58011 60001 333 10020 21057 70000 555 32125 40061
AAXX 03064 71461 NIL
AAXX 03064 71462 NIL
AAXX 03064 71463 NIL
AAXX 03064 71464 NIL
AAXX 03064 71465 NIL
AAXX 03064 71466 NIL
AAXX 03064 71468 NIL
AAXX 03064 71470 NIL
AAXX 03064 71471 15966 02907 11003 21063 39382 40180 58014 60001 333 10027 21026 70000
AAXX 03064 71473 16/// /2602 10032 21001 30303 40334 53004 60001 333 10043 20018 70000
AAXX 03064 71475 16/// /3302 10003 20002 30255 40351 51006 60001 333 10019 21008 70002
AAXX 03064 71476 NIL
AAXX 03064 71477 16/// /2312 10044 20027 60001 333 10064 20025 70000 555 32932 40072
AAXX 03064 71478 NIL
AAXX 03064 71479 NIL
AAXX 03064 71480 NIL
AAXX 03064 71481 NIL
AAXX 03064 71482 NIL
AAXX 03064 71483 NIL
AAXX 03064 71484 NIL
AAXX 03064 71485 16/// /3310 10068 20031 30335 40356 56012 60001 333 10071 20051 70004 555 33327 40141
AAXX 03064 71486 16/// /1404 11043 21079 39032 40255 56005 60001 333 10010 21044 70000 555 32325 40081
AAXX 03064 71487 16/// /3120 11072 21093 39299 40179 52026 60001 333 10006 21074 70011 555 33134 40013
AAXX 03064 71489 NIL
AAXX 03064 71490 NIL
AAXX 03064 71491 16/// /21// 11181 21200 60001 333 11060 21320 70000
AAXX 03064 71492 NIL
AAXX 03064 71493 16/// /3101 11007 21015 30250 40289 53009 60001 333 10048 21022 70000
AAXX 03064 71494 16/// /3602 11051 21058 39797 40333 51023 60001 333 11005 21070 70031 555 10040 20031
AAXX 03064 71495 NIL
AAXX 03064 71496 16/// /3409 11084 21123 39565 40186 52034 60001 333 10042 21084 70000 555 33334 40233
AAXX 03064 71497 46/// /0301 11071 21083 39864 40134 56005 6///1 333 11033 21140 7//// 555 30522 40071
AAXX 03064 71498 NIL
AAXX 03064 71499 15466 83005 11142 21159 39515 40160 51005 60001 333 11027 21163 70000
AAXX 03064 06011 07578 73024 10037 21006 39626 49692 52061 60042 70086 333 10056 20027 55300 20000 60017 70139 81/30 85/36 87/47 91037 91153 91236
AAXX 03064 43533 12465 31404 10311 20253 30089 40092 60001 81232 333 59020 81818
AAXX 03064 43555 12470 52503 10304 20256 30088 40091 60001 82901 333 59017 82818 81919 83078
AAXX 03064 43577 12468 62705 10314 20255 30092 40094 60001 82202 333 59016 82818 86077
AAXX 03064 43588 12465 52907 10307 20255 30091 40093 60001 82232 333 59012 82818 84077
AAXX 03064 43599 11460 72706 10270 20253 30096 40098 60021 70282 83272 333 59008 83817 87361
AAXX 03064 43533 12465 31404 10311 20253 30089 40092 60001 81232 333 59020 81818
AAXX 03064 43555 12470 52503 10304 20256 30088 40091 60001 82901 333 59017 82818 81919 83078
AAXX 03064 43577 12468 62705 10314 20255 30092 40094 60001 82202 333 59016 82818 86077
AAXX 03064 43588 12465 52907 10307 20255 30091 40093 60001 82232 333 59012 82818 84077
AAXX 03064 43599 11460 72706 10270 20253 30096 40098 60021 70282 83272 333 59008 83817 87361
AAXX 03064 68399 36/// /2005 10227 20170 30095 40205 52013 333 20213 91034 555 10312 91020
AAXX 03064 68383 36/// /0000 10212 20158 39938 48583 52010 333 20198 91000 555 10288 91018
AAXX 03064 68379 36/// /1805 10238 20174 39851 48587 52012 333 20218 91010 555 10298 91018
AAXX 03064 68398 36/// /3608 10197 20167 39394 48536 52011 333 20183 91012 555 10256 91017
AAXX 03064 68299 16/// /1505 10115 20104 38958 48539 52007 60054 333 20111 91009 555 10229 20058 91021
AAXX 03061 15501 11512 80000 10014 20003 30172 40218 56005 60002 71022 885// 333 10014 21020 70000 555 30/// 592//
AAXX 03061 15505 12975 11105 10069 20012 39843 40219 53002 60002 81040 333 10069 20043 70000 555 30108 567//
AAXX 03061 15511 11930 52302 11004 21014 30195 40236 57001 60002 71011 85050 333 10008 21023 55045 70000 555 34/// 592// 92601
AAXX 03061 15514 11511 70000 11012 21020 30183 40220 52006 60002 71011 87500 333 10016 21020 70000 555 34/// 594// 92601
AAXX 03061 15530 12965 00000 11028 21038 30012 40262 53020 60002 333 10028 21032 70000 555 34106 593// 92601
AAXX 03061 15533 11/01 90000 11016 21021 30162 40195 54000 60002 74544 333 10001 21030 70000 555 34/// 596// 92602
AAXX 03061 15550 11915 20000 11006 21018 30197 40217 53002 60002 71000 80008 333 10027 21006 70000 555 34/// 592// 92601
AAXX 03061 15561 12965 32504 10028 20007 30213 40221 54000 60002 80001 222// 00090 2//00 333 10090 20015 70000 555 30101 586// 92013 92417
AAXX 03061 15562 11930 02704 10070 20052 30156 40229 53005 60002 71000 222// 2//01 333 10092 20068 55042 70000 555 30001 588// 92023 92425
AAXX 03061 15600 11989 00000 10016 20002 38339 48539 54000 60002 70200 333 10021 20001 55086 91128 555 30/// 591//
AAXX 03061 15601 11950 00000 11054 21060 39625 40280 53006 60002 71000 333 10010 21072 55047 70000 555 34110 595//
AAXX 03061 15605 11959 00000 11062 21062 39392 40283 53001 60002 71000 333 11010 21066 70000 555 34109 500// 92601
AAXX 03061 15613 11989 02704 11003 21034 37756 47111 52005 60002 70200 333 10002 21008 41/// 55084 70000 555 580//
AAXX 03061 15628 11958 00000 11054 21076 39987 40260 53008 60002 71000 333 11005 21056 55061 70000 555 30109 585// 92600
AAXX 03061 15642 11915 00000 11034 21039 30063 40240 54000 60002 71000 333 10048 21044 55056 70000 555 34109 597// 92601
AAXX 03061 15661 12970 02303 10020 21008 30196 40233 54000 60002 222// 20000 333 10072 20010 70000 555 30101 582// 92600 92012 92418
AAXX 03061 15726 11981 03603 10030 21075 38298 48558 53003 60002 70200 333 10050 20026 55072 70000 555 30/// 545//
AAXX 03061 13173 32697 61402 10044 20033 30106 40208 57003 86500 333 20041 30004 55000 70000
AAXX 03061 13180 32697 81603 10084 20045 30102 40213 53003 885// 333 20070 30007 55024 70000
AAXX 03061 13266 32697 61201 10037 20023 30106 40209 55000 86500 333 20017 30100 55000 70000
AAXX 03061 13369 32698 50000 11061 21066 39036 48492 54000 85500 333 21061 34108 55079 70000
AAXX 03061 13383 31995 01501 11035 21040 30036 40250 53004 71000 333 21036 34105 55000 70000
AAXX 03061 13384 32897 31101 10033 20001 30083 40238 55000 83030 333 21016 31104 55051 70000
AAXX 03061 13389 31996 00000 11058 21066 39967 40266 54000 71000 333 21058 30108 55041 70000
AAXX 03061 13477 NIL
AAXX 03061 13168 32697 70701 10038 20031 30099 40208 52002 87500 333 20024 30102 55008 70000
AAXX 03061 13174 31695 81602 10036 20018 30106 40209 54000 71022 885// 333 20007 30102 55000 70000
AAXX 03061 13269 31594 60000 10020 20013 30002 40223 53003 71022 86500 333 20013 31102 55051 70000
AAXX 03061 13274 32697 61502 10076 20040 30051 40213 53003 81530 333 20073 31002 55048 70000
AAXX 03061 13278 32697 62002 10061 20014 30005 40233 53007 85530 333 20037 31003 55061 70000
AAXX 03061 13378 32999 01101 11023 21025 38314 48535 53003 333 21026 30106 55077 70000
AAXX 03061 13397 32998 01302 11038 21044 39710 40265 58001 333 21039 30105 55048 70000
AAXX 03061 13457 32665 50000 10066 20062 30239 40246 53003 82530 333 20045 30004 55/// 82640 85360
AAXX 03061 13481 NIL
AAXX 03061 01228 46/// /1411 10051 21022 39693 49700 56061 333 20034 91116
AAXX 03061 01340 16/// /1307 11002 21012 38916 49764 56059 60012 333 21077 70017 91122
AAXX 03061 01425 16/// /1805 10053 20035 39714 49792 56066 60252 333 21035 70248 91119
AAXX 03061 10578 11/01 9//// 11022 21024 38733 48429 56011 6///2 74944 333 11002 21028 3/104 43001 55047 55300 20000 30000 7////
AAXX 03064 71930 NIL
AAXX 03064 71931 NIL
AAXX 03064 71934 11574 81502 11131 21151 39886 40151 58021 69901 70271 8557/ 333 11057 21136 47022 70030 90943 555 10030 20030 33422 40150
AAXX 03064 71935 12774 62203 11118 21136 39923 40137 56014 60001 86500 333 11073 21170 70012 555 10014 20012 33225 40091
AAXX 03064 71936 11558 80305 11171 21203 39884 40154 55004 69941 77177 8252/ 333 11121 21219 48027 70004 90973 93101 555 10006 20004 33525 40101
AAXX 03064 71937 NIL
AAXX 03064 71938 11974 02305 11311 21342 30139 40170 53001 69901 77677 333 11240 21321 43017 79999 90983 555 19999 29999
AAXX 03064 71940 12782 72115 11020 21064 39375 40189 58015 60001 83501 333 10019 21020 70000 555 10000 20000 33130 40141
AAXX 03064 71943 12974 32313 11016 21082 39327 40171 57018 60001 83070 333 10018 21036 70000 555 10000 20000 32725 40081
AAXX 03064 71944 160// ///// 11019 58011 60001 333 10010 21116 70000
AAXX 03064 71945 12874 82003 11040 21081 39674 40151 56009 60001 8807/ 333 11031 21097 70024 555 10042 20024 33230 40070
AAXX 03064 71946 12974 20000 11211 21234 39930 40153 53002 60001 80001 333 11110 21233 48039 79999 555 19999 29999
AAXX 03064 71948 47964 01017 11240 30023 40141 53004 6///1 745// 333 11222 21267 7//// 555 31023 40031
AAXX 03064 71949 46/// /0702 11084 21094 39290 40177 53014 6///1 333 11038 21118 7////
AAXX 03064 71951 11374 72010 10019 20010 30065 40338 58005 69901 70282 86870 333 10031 20006 44045 79999 90960 555 10000 20000 32125 40081
AAXX 03064 71957 47662 83203 11193 21234 30086 40177 51037 6///1 745// 333 11148 21258 7////
AAXX 03064 71958 43/// /2303 11001 21006 39258 40206 56001 6///1 333 7////
AAXX 03064 71964 12782 63303 10020 21041 39310 40166 53025 60001 83570 333 10053 21100 70000 555 10000 20000
AAXX 03064 71966 16/// /0503 11152 21166 39756 40233 51044 60001 333 11084 21177 70015 555 10020 20015
AAXX 03064 71968 47040 /2913 11202 30122 40189 52037 6///1 745// 333 11167 21256 7//// 555 31022 40071
AAXX 03064 71893 12980 10000 10001 21017 30305 40337 51006 60001 81070 333 10076 21002 70000 555 10000 20000 33420 40130
AAXX 03064 71894 16/// /0107 10042 20031 30324 40333 53004 60001 333 10085 20023 70002 555 32934 40233
AAXX 03064 71896 15766 61909 11008 21027 39430 40278 58010 60001 333 10007 21030 70000
AAXX 03064 71897 12274 72310 10050 20028 3//// 4//// 54000 60001 87850 333 10062 20044 70002
AAXX 03064 71898 160// ///// 10044 51001 60061 333 10067 20021 70070
AAXX 03064 71899 11974 02820 10066 20053 3//// 4//// 54000 69941 70161 333 10074 20054 70008 90960 555 32728 40032
AAXX 03064 71902 NIL
AAXX 03064 71905 NIL
AAXX 03064 71906 11774 82312 11107 21150 30165 40217 53021 69901 70377 8657/ 333 11081 21116 48007 79999 90940 555 19999 29999
AAXX 03064 71907 17464 91815 11043 21088 30075 40108 58022 60001 745// 333 11043 21071 70000
AAXX 03064 71909 16564 63104 11132 21174 30054 40098 51017 60001 333 11121 21167 70000
AAXX 03064 71910 47319 92617 11082 21095 39993 40056 55000 6///1 745// 333 11071 21131 7//// 555 32229 40052
AAXX 03064 71911 46964 02205 11297 30034 40093 51008 6///1 333 11227 21302 7////
AAXX 03064 71912 11448 83314 11114 21131 39804 49988 52023 60021 77177 885// 333 11059 21188 48019 70066 90983 93103 555 10082 20066
AAXX 03064 71915 11469 82709 11178 21195 39982 40064 51005 69901 77177 885// 333 11127 21194 48050 70012 90983 555 10012 20012 32821 40041
AAXX 03064 71917 11974 00000 11354 21399 30077 40092 52010 69901 7767/ 333 11301 21355 47013 79999 90999 555 19999 29999
AAXX 03064 71922 11974 02911 11134 21158 39698 40173 52027 69901 70277 333 10026 21134 47024 70010 90933 555 10010 20010
AAXX 03064 71924 11974 00318 11263 21305 39978 40071 53009 60001 73611 333 11260 21324 48037 79999 555 19999 29999 33418 40201
AAXX 03064 71925 11474 13211 11304 21350 30094 40137 50005 69901 77677 81500 333 11265 21311 48017 79999 90983 555 19999 29999
AAXX 03064 71926 12574 40000 11288 21332 30096 40122 54000 60001 81501 333 11238 21290 70000 555 10000 20000
AAXX 03064 71928 16/// /2001 11117 21134 39041 40233 56011 60001 333 10033 21124 70000 555 33140 40183
AAXX 03064 71114 16564 80704 10013 21001 30293 40342 51005 60001 333 10050 21011 70005 555 32719 40111
AAXX 03064 71120 12574 21804 11114 21145 39536 40210 55002 60001 82570 333 10052 21115 70004 555 10004 20004 33438 40181
AAXX 03064 71122 16/// /2206 11091 21139 38617 40255 58003 60001 333 10000 21094 70000 555 32418 40191
AAXX 03064 71123 12974 72404 11086 21111 39333 40216 58010 60001 83072 333 10055 21124 79999 555 19999 29999 32846 40073
AAXX 03064 71125 NIL
AAXX 03064 71129 11574 22903 11112 21137 39370 40220 51018 69901 70171 81501 333 10030 21112 42001 79999 90951 555 10006 29999 33231 40221
AAXX 03064 71131 16/// /3220 11083 21097 38936 40218 53030 60001 333 11001 21085 70007 555 33139 40233
AAXX 03064 71135 16/// /3318 11082 21114 39083 40186 51027 60001 333 11002 21082 70012 555 33032 40232
AAXX 03064 71137 16/// /3421 11060 21088 39247 40208 53025 60001 333 10017 21064 70020 555 32937 40123
AAXX 03064 71140 12874 72513 11005 21022 39583 40084 53013 60001 87070 333 10026 21044 70000 555 10000 20000
AAXX 03064 71145 11362 82308 11009 21009 39681 49971 51005 60011 77177 885// 333 11009 21118 48026 70044 90973 93101 555 10044 20044
AAXX 03064 71148 NIL
AAXX 03064 71182 16964 02605 11187 21230 39737 40305 51020 60001 333 11118 21187 70000 555 32617 40121
AAXX 03064 71185 16964 03006 11029 30253 40277 51013 60001 333 11003 21061 70000
AAXX 03064 71188 11574 62506 11048 21067 30278 40322 52022 69901 70371 86500 333 11005 21077 79999 90931 555 19999 29999
AAXX 03064 71200 16/// /3501 10038 20015 60001 333 10074 20028 70000 555 33517 40191
AAXX 03064 71207 16/// /0401 11018 30274 40340 51010 60001 333 10052 21023 70000
AAXX 03064 71260 13/// ///// 11014 21047 30038 40280 58011 60001 333 10000 21071 79999 555 10002 29999
AAXX 03061 01156 16/// /1310 10035 21020 39750 49759 58041 69952 333 20012 70081 91113
AAXX 03061 01265 16/// /2704 11022 21054 39239 49813 58048 60002 333 21089 70000 91116
AAXX 03061 01273 16/// /1409 10016 21060 39572 49763 58061 60002 333 21037 70022 91122
AAXX 03061 01375 16/// /1610 11065 21070 6//// 333 21097 91117
AAXX 03061 01467 46/// /1915 10076 20059 39826 49831 58073 333 20006 91123
AAXX 03061 01469 16/// /1506 10034 21001 39660 49828 58072 60002 333 21049 70000 91113
AAXX 03061 33088 32597 82903 10046 20021 39966 40158 52018 885// 333 20036
AAXX 03061 33177 NIL
AAXX 03061 33261 32997 71904 10011 21012 39987 40173 57008 87030 333 21005
AAXX 03061 33275 32497 81807 10002 21012 39979 40208 57002 8265/ 333 21004
AAXX 03061 33301 32597 72606 10027 20003 39888 40174 53019 86530 333 20020 86628
AAXX 03061 33325 32997 02002 10002 21025 39899 40173 53007 80001 333 20002
AAXX 03061 33377 31456 81604 11005 21017 30006 40205 56002 71011 8667/ 333 21016
AAXX 03061 33415 31996 09901 11042 21051 39783 40195 52012 71000 333 21043
AAXX 03061 33429 31995 32204 11027 21034 39757 40195 52009 71011 83030 333 21030
AAXX 03061 33466 NIL
AAXX 03061 33526 31927 30000 11052 21062 39841 40197 52010 71011 83030 333 21057
AAXX 03061 33562 31940 42203 11015 21020 39818 40190 52006 71011 84030 333 21016
AAXX 03061 33614 31496 81502 11003 21018 30116 40224 57003 71011 885// 333 21021 88715
AAXX 03061 33761 31330 89905 10027 20017 39979 40206 54000 71022 886// 333 21005 88707
AAXX 03061 33902 31595 71501 10002 21006 30168 40236 57002 71022 87500 333 21045
AAXX 03061 33983 31/92 90000 11033 21033 30210 40273 52004 74541 333 21036
AAXX 03061 34415 31336 81802 11010 21014 30160 40260 53001 71022 886// 333 21013
AAXX 03061 34523 32597 81301 11019 21043 30201 40280 53009 885// 333 21025 47001 88625
AAXX 03061 34712 32462 81403 10002 21007 30189 40278 52009 886// 333 20001 88716
AAXX 03061 01037 16/// /2502 10017 21059 39801 49807 51005 69962 333 20015 70014 91111
AAXX 03061 01065 11689 52104 11028 21050 39636 49796 51022 69972 70281 85800 333 21030 70009 91108
AAXX 03061 01092 46/// /3410 10029 21020 333 20007 91118
AAXX 03061 01114 16/// /1806 10049 21053 39755 49765 56043 60002 333 20005 70035 91111
AAXX 03061 01245 11670 62207 11002 21062 39076 49765 56049 60002 70322 86500 333 21039 47015 70004 91115
AAXX 03061 01329 11350 80304 10040 20024 39677 49736 56055 60082 78082 888// 333 20009 70086 91119
AAXX 03061 01337 16/// /0403 10023 20007 39675 49739 56055 60112 333 20008 70110 91108
AAXX 03061 01436 11345 82119 10088 20074 60012 76162 8672/ 333 20056 70013 91127
AAXX 03061 01144 41886 31210 10035 21037 70222 83030 333 20024 91114
AAXX 03061 01293 11665 71506 10003 21049 39577 49781 58052 60002 70222 83570 333 21042 70074 91113
AAXX 03061 01135 16/// /1803 10006 21051 39641 49790 58036 60002 333 21018 70116 91108
AAXX 03061 01192 16/// /1504 11002 21073 60012 333 21019 4/003 70127 91110
AAXX 03061 01370 16/// /1403 11051 21065 38723 49888 58060 60002 333 21103 4/010 70000 91110
AAXX 03061 01419 16/// /2601 10019 20015 60172 333 20010 70178 91117
AAXX 03061 01455 16/// /1204 10030 20015 39512 49816 58077 60042 333 21040 70043 91109
AAXX 03064 71102 NIL
AAXX 03064 71105 NIL
AAXX 03064 71107 NIL
AAXX 03064 71110 NIL
AAXX 03064 71111 16966 02410 10060 20021 30350 40358 50004 60001 333 10077 20025 70000 555 32427 40221
AAXX 03064 71112 16/// ///// 60001 333 70000
AAXX 03064 71113 16/// /3203 10021 20014 30311 40335 51003 60001 333 10077 21003 70000
AAXX 03064 71115 16/// /1004 11007 21049 39711 40304 50000 60001 333 10065 21046 70000
AAXX 03064 71116 16/// /3109 11080 21107 39134 40256 53014 60001 333 10048 21080 70000 555 33143 40193
AAXX 03064 71118 16/// /2805 11103 21133 39376 40221 51007 60001 333 10074 21105 70000 555 33341 40213
AAXX 03064 71121 16964 02108 11060 21116 39371 40209 58009 60001 333 10056 21091 70000 555 33345 40183
AAXX 03064 71127 16/// /2407 11051 21090 39282 40209 56008 60001 333 10052 21052 70000 555 33044 40153
AAXX 03064 71130 17566 83014 11073 21109 39687 40149 51038 60001 771// 333 10030 21074 70000
AAXX 03064 71132 15966 82403 11218 21238 39850 40176 55003 60001 333 11093 21245 70008
AAXX 03064 71133 46/// /3006 11115 21148 39463 40183 51024 6///1 333 10035 21115 7//// 555 33336 40213
AAXX 03064 71134 NIL
AAXX 03064 71139 NIL
AAXX 03064 71141 NIL
AAXX 03064 71142 17566 83017 11076 21092 39220 40208 53028 60001 771// 333 10015 21080 70013
AAXX 03064 71143 NIL
AAXX 03064 71144 NIL
AAXX 03064 71147 16/// /2610 11004 21037 60001 333 10032 21035 70000 555 32331 40202
AAXX 03064 71149 NIL
AAXX 03064 71816 11574 82914 11119 21178 30232 40296 53018 69901 78588 885// 333 11082 21119 43014 79999 90973 555 19999 29999 32922 40060
AAXX 03064 71817 NIL
AAXX 03064 71818 11974 02913 11099 21123 30244 40263 52017 69901 70171 333 11043 21101 41997 79999 90941 555 19999 29999 32920 40040
AAXX 03064 71822 12974 01804 11209 21248 39840 40343 51008 60001 333 11110 21230 79999 555 19999 29999
AAXX 03064 71825 12974 01904 11221 21260 39614 40326 53020 60001 333 11116 21225 70002 555 10002 20002
AAXX 03064 71827 11766 81716 11104 21123 39937 40188 55034 69941 77171 885// 333 11083 21161 47016 70008 90937 555 10008 20008
AAXX 03064 71828 16764 63204 11172 21209 39618 40288 52030 60001 333 11121 21173 70000 555 32822 40031
AAXX 03064 71831 12674 61813 11045 21077 39933 40221 58015 60001 86500 333 11045 21201 70000 555 10000 20000 31819 40061
AAXX 03064 71832 NIL
AAXX 03064 71834 12974 32118 11017 21064 39714 40147 57010 60001 83050 333 11016 21213 79999 555 19999 29999 32128 40221
AAXX 03064 71841 NIL
AAXX 03064 71842 12774 81918 11024 21094 39610 40082 57005 60001 885// 333 11017 21093 79999 555 19999 29999 32029 40031
AAXX 03064 71844 16664 82110 11017 21051 39711 49988 57011 60001 333 11016 21166 70025 555 31926 40011
AAXX 03064 71845 NIL
AAXX 03064 71850 12574 82115 10003 21060 39570 40069 53004 60001 885// 333 10005 21072 44004 79999 555 19999 29999 32130 40201
AAXX 03064 71852 16964 02510 11007 21035 39773 40067 53012 60001 333 10017 21047 70000 555 31931 40162
AAXX 03064 71854 NIL
AAXX 03064 71858 16/// /3314 11099 21136 39790 40072 51058 60001 333 10022 21099 70003 555 33230 40032
AAXX 03064 71861 16/// /3218 11053 21078 39387 40115 53039 60001 333 10019 21053 70000 555 33228 40052
AAXX 03064 71862 NIL
AAXX 03064 71863 46564 83421 11085 21123 39455 40163 51041 6///1 333 10016 21085 7//// 555 33335 40043
AAXX 03064 71603 12974 43205 10003 21017 30240 40294 53010 60001 84010 333 10055 21014 70000 555 10000 20000
AAXX 03064 71607 16/// /3102 11010 21016 30273 40306 53017 60001 333 10042 21069 70000
AAXX 03064 71609 12674 73606 11004 21051 30166 40303 53013 60001 87500 333 10029 21058 70000 555 10000 20000
AAXX 03064 71610 15466 83105 11026 21040 30042 40346 51027 60001 333 10010 21061 70003
AAXX 03064 71621 16964 00000 11048 21056 30250 40360 51006 60001 333 10048 21052 70000
AAXX 03064 71623 NIL
AAXX 03064 71624 12574 21302 11011 21031 30129 40347 58002 60001 82500 333 10050 21014 70014 555 10006 20006
AAXX 03064 71625 16564 31802 11081 21123 30185 40352 55003 60001 333 10003 21097 70005
AAXX 03064 71627 12574 73106 11030 21085 30312 40358 50012 60001 87500 333 10040 21030 70010 555 10000 20000
AAXX 03064 71628 12574 72802 11045 21080 30218 40364 51010 60001 87500 333 10006 21047 70038 555 10036 20036
AAXX 03064 71630 NIL
AAXX 03064 71631 16/// /1703 11050 21064 39821 40336 58001 60001 333 10003 21061 70029
AAXX 03064 71633 12974 01708 11027 21059 30049 40329 58005 60001 333 10010 21037 70006 555 10006 20006
AAXX 03064 71705 11574 73605 11013 21033 30215 40305 53016 69901 78522 87500 333 10025 21055 79999 90910 555 19999 29999
AAXX 03064 71706 12874 73203 11013 21030 30239 40301 53009 60001 83071 333 10039 21016 70000 555 10000 20000
AAXX 03064 71707 12974 53005 11021 21041 30209 40287 54000 60001 85050 333 10037 21032 70000 555 10000 20000 33418 40070
AAXX 03064 71709 NIL
AAXX 03064 71711 NIL
AAXX 03064 71714 16/// /3603 11026 21053 30263 40358 51026 60001 333 7////
AAXX 03064 71715 16/// /3406 11037 21049 30151 40338 53021 60001 333 11022 21061 70031 555 10030 20031
AAXX 03064 71718 11466 83411 11047 21078 30276 40344 53026 69961 77177 885// 333 11022 21069 47001 70014 90983 555 10014 20014
AAXX 03064 71719 NIL
AAXX 03064 71043 12783 70000 11167 21204 30048 40144 53005 60001 87500 333 11157 21196 79999 555 19999 29999
AAXX 03064 71045 16/// /2611 10028 21021 39300 40162 54000 60001 333 10032 21080 70000 555 10020
AAXX 03064 71050 46/// /2804 11003 21059 39210 40308 58005 6///1 333 10000 21103 7//// 555 32819 40081
AAXX 03064 71051 NIL
AAXX 03064 71052 NIL
AAXX 03064 71066 11674 80000 11105 21136 39720 40150 56019 69901 70272 8353/ 333 11009 21153 43017 70003 90940 555 10008 20003 33234 40081
AAXX 03064 71068 12974 72610 11031 21079 39467 40169 57025 60001 87070 333 10022 21104 79999 555 19999 29999 33040 40131
AAXX 03064 71069 16964 01104 11054 21069 39465 40181 58021 60001 333 10024 21069 70000 555 33044 40073
AAXX 03064 71076 16/// /0503 11181 21201 39766 40173 58008 60001 333 11097 21195 70006 555 10020 20006 30021 40171
AAXX 03064 71077 16/// /2601 11143 21159 39644 40200 58005 60001 333 10026 21145 70000 555 33136 40173
AAXX 03064 71079 11566 33214 11136 21158 39768 40050 52039 69951 77177 83500 333 11018 21136 48011 70047 90983 93101 555 10030 20047
AAXX 03064 71081 46964 02506 11284 21322 30058 40070 53013 6///1 333 11143 21287 7//// 555 33118 40101
AAXX 03064 71082 NIL
AAXX 03064 71083 11966 33515 11280 21321 30045 40089 58008 69901 77611 80001 333 11213 21280 48038 79999 90942 555 19999 29999 33520 40060
AAXX 03064 71090 46564 32803 11230 21266 30004 40039 53013 6///1 333 11163 21236 7//// 555 33227 40071
AAXX 03064 71091 460// /3104 11192 39846 40058 53019 6///1 333 7////
AAXX 03064 71092 46950 03004 11227 39371 40049 51020 6///1 333 11173 21228 7////
AAXX 03064 71093 460// /1304 11178 39529 40032 53011 6///1 333 11175 21191 7//// 555 30227 40071
AAXX 03064 71094 46061 /3605 11176 39086 49992 53015 6///1 333 11166 21184 7////
AAXX 03064 71095 46664 31607 11246 21287 39953 40035 53011 6///1 333 11215 21252 7////
AAXX 03064 71101 160// /2510 30351 51005 60001 333 70000 555 32526 40201
AAXX 03064 71104 NIL
AAXX 03064 71108 12574 80000 10028 20011 30262 40336 53001 60001 885// 333 10077 20014 79999 555 10000 20000
AAXX 03064 71109 12674 82408 10059 20026 30334 40361 56004 60001 885// 333 10076 20035 70014 555 10000 20000
AAXX 03064 71864 NIL
AAXX 03064 71865 16/// /3212 11082 21112 39459 40147 51034 60001 333 10017 21082 70000 555 32227 40071
AAXX 03064 71866 46964 03410 11083 21131 39568 40191 51033 6///1 333 10041 21083 7//// 555 33135 40233
AAXX 03064 71867 11464 83320 11105 21127 39765 40102 51041 69911 77177 885// 333 10027 21105 48014 70002 90973 555 10006 20002 33329 40011
AAXX 03064 71868 16/// /3112 11075 21113 39672 40115 51042 60001 333 10037 21075 70006 555 33128 40042
AAXX 03064 71869 11574 13110 11093 21135 39642 40174 52035 69901 72211 81500 333 10033 21094 43004 79999 90973 555 19999 29999
AAXX 03064 71871 15966 02809 11129 21152 39391 40220 53010 60001 333 10050 21129 70000
AAXX 03064 71877 12974 02105 11073 21106 38949 40247 58003 60001 333 10058 21090 70000 555 10000 20000 33336 40222
AAXX 03064 71878 12974 22406 11093 21114 39142 40240 58002 60001 80001 333 10051 21094 79999 555 19999 29999 33045 40172
AAXX 03064 71879 16964 02306 11057 21095 39392 40210 58010 60001 333 10057 21067 70005 555 33341 40183
AAXX 03064 71880 12982 22304 11048 21100 39150 40279 58001 60001 80001 333 10024 21057 70000 555 10000 20000 31920 40080
AAXX 03064 71882 16764 83402 11027 21039 39759 40310 52004 60001 333 10034 21038 70015
AAXX 03064 71883 46/// /0000 11063 21068 39472 40319 58001 6///1 333 11004 21130 7////
AAXX 03064 71887 11786 82906 10017 21054 39887 40316 55000 69901 77111 8657/ 333 10069 21065 79999 90931 555 19999 29999 33027 40120
AAXX 03064 71889 12874 80000 10003 21059 39886 40311 56004 60001 8807/ 333 10074 21041 70000 555 10000 20000 33620 40211
AAXX 03064 71891 16864 60102 11008 21027 30051 40334 53001 60001 333 10055 21033 70000 555 31817 40091
AAXX 03064 71892 12580 30203 10011 20000 30333 40338 51006 60001 82672 333 10066 20005 70000 555 10000 20000 33020 40090
AAXX 03064 71550 NIL
AAXX 03064 71551 NIL
AAXX 03064 71552 NIL
AAXX 03064 71553 NIL
AAXX 03064 71554 16/// /3609 11039 21072 30339 40345 53027 60001 333 11018 21060 70011
AAXX 03064 71555 NIL
AAXX 03064 71556 NIL
AAXX 03064 71557 46/// /0802 11018 21045 6///1 333 10064 21069 7////
AAXX 03064 71558 NIL
AAXX 03064 71559 16/// /3120 11039 21056 39435 40139 53029 60001 333 10043 21039 7//// 555 33032 40192
AAXX 03064 71560 16/// /2409 11023 21044 39783 40083 53016 60001 333 10016 21056 70000 555 31933 40182
AAXX 03064 71563 NIL
AAXX 03064 71564 16/// /2810 10000 21041 39717 40082 52013 60001 333 10039 21035 70000 555 32531 40192
AAXX 03064 71565 NIL
AAXX 03064 71566 NIL
AAXX 03064 71567 NIL
AAXX 03064 71568 16/// /3228 10074 20030 30319 40332 50003 60001 333 10076 20049 70002 555 33041 40233
AAXX 03064 71569 16/// /3218 11074 21103 39440 40149 51040 60001 333 10010 21074 70000 555 33136 40033
AAXX 03064 71570 16/// /2507 11001 21037 39744 40055 53008 60001 333 10018 21058 70000 555 32129 40222
AAXX 03064 71571 NIL
AAXX 03064 71572 NIL
AAXX 03064 71573 16/// /0000 11054 21062 30047 40338 58001 60001 333 10035 21056 70008 555 33317 40191
AAXX 03064 71574 11674 23004 11044 21056 30245 40320 52022 60011 70177 82500 333 10004 21072 47001 70010 90923 93101 555 10010 20010
AAXX 03064 71575 17/// /2816 11080 21093 39984 40049 55001 69931 7//4/ 333 11070 21128 70003 555 10030 20003 32626 40051
AAXX 03064 71576 16/// /1607 11245 21271 39949 40036 53011 60001 333 11214 21251 70000
AAXX 03064 71577 NIL
AAXX 03064 71578 16/// /1104 11012 21045 60001 333 11006 21029 70046
AAXX 03064 71579 NIL
AAXX 03064 71580 11874 72709 11262 21302 30043 40081 53004 69901 77177 87030 333 11226 21312 48034 70002 90973 555 10002 20002
AAXX 03064 71581 NIL
AAXX 03064 71582 15664 81702 10035 20035 30311 40365 56007 60001 333 10052 21007 70000
AAXX 03064 71583 NIL
AAXX 03064 71584 15966 03603 11115 21133 30269 40318 53023 60001 333 11029 21115 70000
AAXX 03064 71585 16/// /1102 11156 21169 39714 40190 58014 60001 333 10023 21157 7//// 555 33136 40143
AAXX 03064 71586 16/// /3007 11133 21160 39695 40169 51026 60001 333 10024 21134 70000 555 33331 40202
AAXX 03064 71587 NIL
AAXX 03064 71588 16/// /3303 11018 21055 60001 333 11003 21050 70000
AAXX 03064 71589 16/// /2803 11004 21024 30135 40270 53006 60001 333 10021 21007 70000
AAXX 03064 71590 16/// /3203 11031 21051 30121 40318 51021 60001 333 11019 21100 70016
AAXX 03064 71592 NIL
AAXX 03064 71593 NIL
AAXX 03064 71596 NIL
AAXX 03064 71598 16/64 /2903 11018 21032 30309 40315 53018 60001 333 10004 21036 70000
AAXX 03064 71599 16/// /3601 11013 21016 30089 40295 53005 60001 333 10057 21020 70000
AAXX 03064 71397 12974 70000 11011 21018 30261 40296 53005 60001 87030 333 10060 21022 70000 555 10000 20000
AAXX 03064 71400 16/64 /2901 11051 21054 60001 333 10024 21051 70000
AAXX 03064 71403 46/// /0309 10026 20001 30263 40283 55000 6///1 333 10061 20014 7//// 555 33420 40071
AAXX 03064 71411 16/// /3505 10015 20000 30275 40288 53006 60001 333 10062 21011 70000
AAXX 03064 71412 16/// /2704 10016 21014 30280 40290 53008 60001 333 10031 20000 70000 555 33421 40111
AAXX 03064 71421 NIL
AAXX 03064 71430 16/// /0105 11031 21045 30254 40354 50004 60001 333 10059 21045 70019 555 32530 40142
AAXX 03064 71431 16/// /0205 11041 21055 30246 40345 58001 60001 333 10051 21044 70003 555 32519 40081
AAXX 03064 71432 NIL
AAXX 03064 71433 NIL
AAXX 03064 71435 NIL
AAXX 03064 71441 46/// /2307 11014 21048 39776 40085 53017 6///1 333 10030 21043 7//// 555 31827 40171
AAXX 03064 71443 16/// /3311 11046 21092 39682 40095 53054 60001 333 10028 21046 70003 555 10010 20003 32923 40031
AAXX 03064 71444 46/// /2506 11013 21028 39309 40065 53012 6///1 333 11006 21062 7////
AAXX 03064 71447 16/// /2614 10007 21023 39559 40102 53012 60001 333 10048 21059 70000 555 32823 40221
AAXX 03064 71467 16/// /1206 11246 21269 30031 40151 53004 60001 333 11241 21340 70000
AAXX 03064 71472 NIL
AAXX 03064 71474 17464 82302 11015 21070 39043 40303 56004 60001 745// 333 10015 21028 70000 555 33224 40121
AAXX 03064 71510 16/// /3211 11073 21111 39474 40192 50024 60001 333 10041 21073 70012 555 33239 40213
AAXX 03064 71538 12574 21805 10004 21023 30096 40332 58008 60001 82500 333 10047 20000 70004 555 10004 20004
AAXX 03064 71600 16564 80109 10046 21012 30267 40273 55001 60001 333 10070 20022 70000 555 33422 40091
AAXX 03064 71601 NIL
AAXX 03064 71726 16/// /0000 11204 21222 39783 40354 51011 60001 333 11057 21204 70036 555 10020 20036
AAXX 03064 71727 11674 22403 11110 21136 30152 40358 52020 69901 70277 82500 333 11027 21112 46001 70014 90942 555 10014 20014
AAXX 03064 71728 12582 12507 11148 21169 30130 40363 52018 60001 81501 333 11053 21153 70016 555 10016 20016
AAXX 03064 71730 12574 61612 11094 21101 39877 40320 58010 60001 86500 333 11038 21110 70000 555 10000 20000
AAXX 03064 71731 12974 11807 11093 21106 39864 40334 56007 60001 81070 333 11035 21120 47009 70004 555 10004 20004
AAXX 03064 71735 NIL
AAXX 03064 71738 NIL
AAXX 03064 71739 42974 31911 11077 21102 39886 40261 57017 6//// 80008 333 11071 21215 4//// 7//// 555 1//// 2////
AAXX 03064 71749 16964 62207 10003 21073 39915 40164 58008 60001 333 10007 21230 70000 555 32320 40031
AAXX 03064 71799 12680 12404 10000 21011 30315 40340 52004 60001 81501 333 10073 21010 70000 555 10000 20000
AAXX 03064 71800 16/08 /3608 10010 21001 30227 40260 51005 60001 333 10067 20001 70008 555 30228 40132
AAXX 03064 71801 12574 73603 11004 21030 30101 40278 51010 60001 87500 333 10039 21008 70012 555 10000 20000 30123 40140
AAXX 03064 71803 12474 72905 11015 21043 30088 40278 53008 60001 87500 333 10021 21015 70002 555 10002 20002
AAXX 03064 71807 NIL
AAXX 03064 71808 12974 03306 11095 21128 30226 40274 53011 60001 333 11038 21101 70000 555 10000 20000
AAXX 03064 71809 12574 80000 11012 21041 30257 40285 53008 60001 885// 333 10016 21036 79999 555 19999 29999
AAXX 03064 71810 NIL
AAXX 03064 71811 NIL
AAXX 03064 71813 NIL
AAXX 03064 71814 16/// /3605 11083 21091 30276 40286 51013 60001 333 11025 21112 70000
AAXX 03064 71815 12674 30000 11002 21035 30256 40287 52003 60001 83500 333 10027 21014 70000 555 10000 20000
AAXX 03064 71816 11574 82914 11119 21178 30232 40296 53018 69901 78588 885// 333 11082 21119 43014 79999 90973 555 19999 29999 32922 40060
AAXX 03064 71817 NIL
AAXX 03064 71818 11974 02913 11099 21123 30244 40263 52017 69901 70171 333 11043 21101 41997 79999 90941 555 19999 29999 32920 40040
AAXX 03064 71822 12974 01804 11209 21248 39840 40343 51008 60001 333 11110 21230 79999 555 19999 29999
AAXX 03064 71825 12974 01904 11221 21260 39614 40326 53020 60001 333 11116 21225 70002 555 10002 20002
AAXX 03064 71827 11766 81716 11104 21123 39937 40188 55034 69941 77171 885// 333 11083 21161 47016 70008 90937 555 10008 20008
AAXX 03064 71828 16764 63204 11172 21209 39618 40288 52030 60001 333 11121 21173 70000 555 32822 40031
AAXX 03064 71831 12674 61813 11045 21077 39933 40221 58015 60001 86500 333 11045 21201 70000 555 10000 20000 31819 40061
AAXX 03064 71832 NIL
AAXX 03064 71834 12974 32118 11017 21064 39714 40147 57010 60001 83050 333 11016 21213 79999 555 19999 29999 32128 40221
AAXX 03064 71841 NIL
AAXX 03064 71842 12774 81918 11024 21094 39610 40082 57005 60001 885// 333 11017 21093 79999 555 19999 29999 32029 40031
AAXX 03064 71844 16664 82110 11017 21051 39711 49988 57011 60001 333 11016 21166 70025 555 31926 40011
AAXX 03064 71845 NIL
AAXX 03064 71850 12574 82115 10003 21060 39570 40069 53004 60001 885// 333 10005 21072 44004 79999 555 19999 29999 32130 40201
AAXX 03064 71852 16964 02510 11007 21035 39773 40067 53012 60001 333 10017 21047 70000 555 31931 40162
AAXX 03064 71854 NIL
AAXX 03064 71858 16/// /3314 11099 21136 39790 40072 51058 60001 333 10022 21099 70003 555 33230 40032
AAXX 03064 71861 16/// /3218 11053 21078 39387 40115 53039 60001 333 10019 21053 70000 555 33228 40052
AAXX 03064 71862 NIL
AAXX 03064 71863 46564 83421 11085 21123 39455 40163 51041 6///1 333 10016 21085 7//// 555 33335 40043
AAXX 03064 71744 NIL
AAXX 03064 71750 NIL
AAXX 03064 71751 NIL
AAXX 03064 71752 NIL
AAXX 03064 71753 16/// /0101 11023 21027 30255 40285 53004 60001 333 10065 21025 70000
AAXX 03064 71754 16/// /3206 11104 21134 39529 40206 51020 60001 333 10049 21104 70000 555 33241 40223
AAXX 03064 71755 43/// /2414 11015 21047 39644 49986 57002 6///1 333 11013 21157 7//// 555 32222 40001
AAXX 03064 71756 16/// /1401 11049 21057 39201 40326 51005 60001 333 10007 21062 70000
AAXX 03064 71758 NIL
AAXX 03064 71760 NIL
AAXX 03064 71761 NIL
AAXX 03064 71762 NIL
AAXX 03064 71763 NIL
AAXX 03064 71765 16/// /3602 30049 53001 60001 333 70000 555 31717 40091
AAXX 03064 71766 16/// /2201 10004 21003 30263 40336 53007 60001 333 10072 21004 70000
AAXX 03064 71767 16/// /2008 10007 21041 30053 40321 58010 60001 333 10008 21033 70000
AAXX 03064 71768 46/// /2904 10010 21082 39754 40311 55001 6///1 333 10072 21029 7//// 555 33120 40181
AAXX 03064 71769 16/// /2309 10051 20024 30310 40326 53008 60001 333 10066 20045 70000 555 32935 40153
AAXX 03064 71770 16/// /0704 11023 21078 39506 40293 53003 60001 333 10051 21038 70000 555 33419 40231
AAXX 03064 71771 NIL
AAXX 03064 71772 16/// /1305 10061 20033 30320 40326 52007 60001 333 10070 20047 70000 555 33231 40162
AAXX 03064 71773 16/// /3405 10032 21029 39307 40163 53024 60001 333 10044 21078 70000
AAXX 03064 71774 46/// ///// 10016 6///1 333 10042 20009 7////
AAXX 03064 71775 17/// /2401 10021 20008 30332 40338 50001 69941 7//4/ 333 10075 21003 70061
AAXX 03064 71776 46/// /2104 11019 21055 39644 40300 50006 6///1 333 10061 21019 7////
AAXX 03064 71777 16/// ///// 11047 21051 30087 40349 51003 60001 333 11035 21067 70000
AAXX 03064 71778 46/// /1002 6///1 333 7//// 555 32629 40072
AAXX 03064 71779 16/// /1305 10001 21006 39621 40299 58007 60001 333 10016 21114 7////
AAXX 03064 71780 16/// /0504 10049 20015 30309 40337 58002 60001 333 10085 20045 70000
AAXX 03064 71781 46/// /2807 10060 20031 30304 40329 53008 6///1 333 10073 20049 7//// 555 33335 40153
AAXX 03064 71782 46/// /1104 11086 21120 38919 40278 50006 6///1 333 10026 21086 7//// 555 31524 40081
AAXX 03064 71783 16/// /2901 10000 21004 30257 40332 53003 60001 333 10073 21006 70002
AAXX 03064 71784 16/// /0301 10016 20001 30121 40330 51007 60001 333 10073 20005 70000
AAXX 03064 71785 16/// /0303 10033 20012 30325 40341 51002 60001 333 10084 20021 70000
AAXX 03064 71786 46/// /2411 11109 21120 38404 40286 55004 6///1 333 11018 21110 7//// 555 32822 40071
AAXX 03064 71787 17/// /3306 11025 21057 39795 40293 53011 69941 7//4/ 333 10025 21072 70016
AAXX 03064 71788 NIL
AAXX 03064 71789 NIL
AAXX 03064 71791 NIL
AAXX 03064 71792 NIL
AAXX 03064 71793 NIL
AAXX 03064 71794 NIL
AAXX 03064 71795 NIL
AAXX 03064 71796 NIL
AAXX 03064 71797 NIL
AAXX 03064 71114 16564 80704 10013 21001 30293 40342 51005 60001 333 10050 21011 70005 555 32719 40111
AAXX 03064 71120 12574 21804 11114 21145 39536 40210 55002 60001 82570 333 10052 21115 70004 555 10004 20004 33438 40181
AAXX 03064 71122 16/// /2206 11091 21139 38617 40255 58003 60001 333 10000 21094 70000 555 32418 40191
AAXX 03064 71123 12974 72404 11086 21111 39333 40216 58010 60001 83072 333 10055 21124 79999 555 19999 29999 32846 40073
AAXX 03064 71125 NIL
AAXX 03064 71129 11574 22903 11112 21137 39370 40220 51018 69901 70171 81501 333 10030 21112 42001 79999 90951 555 10006 29999 33231 40221
AAXX 03064 71131 16/// /3220 11083 21097 38936 40218 53030 60001 333 11001 21085 70007 555 33139 40233
AAXX 03064 71135 16/// /3318 11082 21114 39083 40186 51027 60001 333 11002 21082 70012 555 33032 40232
AAXX 03064 71137 16/// /3421 11060 21088 39247 40208 53025 60001 333 10017 21064 70020 555 32937 40123
AAXX 03064 71140 12874 72513 11005 21022 39583 40084 53013 60001 87070 333 10026 21044 70000 555 10000 20000
AAXX 03064 71145 11362 82308 11009 21009 39681 49971 51005 60011 77177 885// 333 11009 21118 48026 70044 90973 93101 555 10044 20044
AAXX 03064 71148 NIL
AAXX 03064 71182 16964 02605 11187 21230 39737 40305 51020 60001 333 11118 21187 70000 555 32617 40121
AAXX 03064 71185 16964 03006 11029 30253 40277 51013 60001 333 11003 21061 70000
AAXX 03064 71188 11574 62506 11048 21067 30278 40322 52022 69901 70371 86500 333 11005 21077 79999 90931 555 19999 29999
AAXX 03064 71200 16/// /3501 10038 20015 60001 333 10074 20028 70000 555 33517 40191
AAXX 03064 71207 16/// /0401 11018 30274 40340 51010 60001 333 10052 21023 70000
AAXX 03064 71260 13/// ///// 11014 21047 30038 40280 58011 60001 333 10000 21071 79999 555 10002 29999
AAXX 03064 71700 17466 81901 11012 21016 30283 40309 53015 69931 7004/ 333 10015 21075 70003
AAXX 03064 71701 11274 80000 11008 21016 30244 40308 53014 69941 70272 885// 333 10013 21071 45997 70004 90921 555 10004 20004
AAXX 03064 71702 16/// /3504 10003 21029 30278 40293 53011 60001 333 10032 21011 70000
AAXX 03064 71703 NIL
AAXX 03064 71704 15566 81707 11005 21022 30110 40338 55005 60001 333 10023 21034 70010
AAXX 03064 71710 16/// /3107 10008 21042 30283 40293 53009 60001 333 10018 21005 70000 555 33318 40111
AAXX 03064 71712 16/// /2704 11022 21068 30298 40361 51010 60001 333 10047 21022 70012
AAXX 03064 71713 16/// /0203 11021 21036 60001 333 11005 21023 70026
AAXX 03064 71716 NIL
AAXX 03064 71717 NIL
AAXX 03064 71720 16/// /1001 11007 21009 30184 40341 51008 60001 333 10066 21018 70000
AAXX 03064 71721 NIL
AAXX 03064 71723 NIL
AAXX 03064 71724 NIL
AAXX 03064 71732 16/// /1804 11099 21109 60001 333 11019 21102 70000
AAXX 03064 71733 16/// /1610 11091 21101 39869 40317 58010 60001 333 11039 21126 70000
AAXX 03064 71734 NIL
AAXX 03064 71736 NIL
AAXX 03064 71737 NIL
AAXX 03064 71741 16/// /2806 10020 21044 39884 40312 53001 60001 333 10070 21064 70000 555 33024 40201
AAXX 03064 71742 46/// /2904 11013 21035 30090 40280 53008 6///1 333 10021 21015 7////
AAXX 03064 71743 NIL
AAXX 03064 71744 NIL
AAXX 03064 71745 NIL
AAXX 03064 71746 NIL
AAXX 03064 71747 NIL
AAXX 03064 71748 NIL
AAXX 03064 71001 NIL
AAXX 03064 71002 NIL
AAXX 03064 71003 NIL
AAXX 03064 71005 NIL
AAXX 03064 71006 NIL
AAXX 03064 71007 NIL
AAXX 03064 71008 NIL
AAXX 03064 71009 NIL
AAXX 03064 71010 NIL
AAXX 03064 71011 NIL
AAXX 03064 71012 NIL
AAXX 03064 71013 NIL
AAXX 03064 71014 NIL
AAXX 03064 71015 NIL
AAXX 03064 71016 NIL
AAXX 03064 71017 NIL
AAXX 03064 71018 NIL
AAXX 03064 71019 NIL
AAXX 03064 71020 NIL
AAXX 03064 71021 NIL
AAXX 03064 71022 17466 81104 10040 20033 30308 40353 51001 60041 70044 333 10064 20019 70074 555 33020 40071
AAXX 03064 71023 16964 02804 11137 21150 39409 40200 58003 60001 333 10037 21138 70000 555 33338 40173
AAXX 03064 71024 16/// /0402 11117 21125 60001 333 10016 21154 70007 555 33031 40092
AAXX 03064 71026 NIL
AAXX 03064 71027 16/// /2302 11004 21022 30279 40289 53006 60001 333 10044 21021 70000
AAXX 03064 71028 16/// /1101 11025 21044 39274 40340 57007 60001 333 10018 21096 70000 555 31517 40071
AAXX 03064 71029 16/// /0408 11285 21318 30115 40156 53009 60001 333 11242 21307 70000
AAXX 03064 71030 16/64 /3204 10004 21011 30203 40294 53014 60001 333 10044 21029 70000
AAXX 03064 71032 46/// /0000 11036 21062 39471 40327 53002 6///1 333 10046 21097 7////
AAXX 03064 71033 46/// /3004 11154 21169 39514 40163 51005 6///1 333 11029 21175 7//// 555 10020 33424 40201
AAXX 03064 71035 NIL
AAXX 03064 71036 17466 83315 11001 21036 39696 40070 53028 60001 761// 333 10031 21011 70000
AAXX 03064 71039 46/// /3212 11015 6///1 333 11015 21154 7////
AAXX 03064 71040 46/// /2205 11111 21135 30140 40347 53015 6///1 333 11030 21111 7//// 555 32917 40001
AAXX 03064 71041 15866 30203 11020 21039 30143 40288 52005 60001 333 10040 21027 70000 555 33419 40141
AAXX 03064 71042 16/// /0000 11017 21020 30327 40331 51005 60001 333 10079 21020 70000
AAXX 03064 71044 16/// /2704 11126 21140 39834 40160 52035 60001 333 11126 21217 70000
AAXX 03064 71046 460// /2616 11203 30185 40203 51036 6///1 333 11195 21270 7//// 555 32723 40031
AAXX 03064 71047 16/// ///// 11097 21117 60001 333 10060 21097 70000
AAXX 03064 71048 NIL
AAXX 03064 71049 NIL
AAXX 03064 71060 NIL
AAXX 03064 71063 NIL
AAXX 03064 71950 15766 12405 11040 21044 39642 40289 57005 60001 333 10015 21070 70000
AAXX 03064 71952 16/// /3501 11121 21131 39415 40299 58004 60001 333 11029 21170 70000
AAXX 03064 71954 NIL
AAXX 03064 71956 NIL
AAXX 03064 71959 16/// ///// 10002 21016 60001 333 10049 21010 70000
AAXX 03064 71960 460// /2817 11192 30014 40150 51024 6///1 333 11163 21236 7//// 555 30320 40061
AAXX 03064 71962 16/// /2010 11023 21101 39680 40105 56008 60001 333 11002 21101 70000 555 31725 40191
AAXX 03064 71963 NIL
AAXX 03064 71967 16/// /0304 11026 21053 30254 40363 51019 60001 333 10036 21026 70027
AAXX 03064 71970 NIL
AAXX 03064 71971 NIL
AAXX 03064 71972 460// ///// 11116 39620 40087 52014 6///1 333 11072 21119 7////
AAXX 03064 71973 46/// /1602 11014 21045 30095 40287 53012 6///1 333 10009 21030 7////
AAXX 03064 71974 NIL
AAXX 03064 71975 460// /2730 11151 39297 40029 51016 6///1 333 11112 21152 7//// 555 30339 40063
AAXX 03064 71976 NIL
AAXX 03064 71977 NIL
AAXX 03064 71978 NIL
AAXX 03064 71979 NIL
AAXX 03064 71980 NIL
AAXX 03064 71981 NIL
AAXX 03064 71982 NIL
AAXX 03064 71983 NIL
AAXX 03064 71984 16/// /2801 11229 21251 30127 40136 53007 60001 333 11220 21281 70000
AAXX 03064 71985 NIL
AAXX 03064 71986 NIL
AAXX 03064 71987 16/// /3609 10001 21019 30289 40299 53016 60001 333 10014 21017 70000
AAXX 03064 71988 46/// /3611 10048 20004 30279 40299 53008 6///1 333 10054 20019 7////
AAXX 03064 71989 NIL
AAXX 03064 71990 NIL
AAXX 03064 71999 46/// ///// 10000 6///1 333 10036 21045 7////
AAXX 03064 71250 16/// /3603 10001 21033 30128 40267 53010 60001 333 10047 21001 70005 555 30019 40141
AAXX 03064 71251 16/// /2808 11100 21132 39311 40260 53004 60001 333 10038 21110 70000 555 32737 40073
AAXX 03064 71252 NIL
AAXX 03064 71253 46/// /2201 11123 21129 6///1 333 11001 21153 7//// 555 33524 40101
AAXX 03064 71254 17/// /2005 11081 21095 69961 7//4/ 333 10045 21106 70012 555 10030 20012 33042 40173
AAXX 03064 71255 17/// /2206 11123 21147 69931 7//4/ 333 10022 21128 70003 555 33535 40133
AAXX 03064 71256 46/// /0000 11040 21083 39249 40198 58017 6///1 333 10031 21044 7//// 555 33047 40153
AAXX 03064 71257 NIL
AAXX 03064 71258 NIL
AAXX 03064 71259 NIL
AAXX 03064 71261 16/// /1505 11024 21045 30061 40329 58006 60001 333 10041 21026 70031 555 33418 40151
AAXX 03064 71263 12974 10000 11033 21045 30050 40348 58002 60001 80001 333 10043 21040 70014 555 10014 20014 33217 40190
AAXX 03064 71264 16/// /0201 10008 21002 30255 40287 53001 60001 333 10054 21008 70000
AAXX 03064 71265 15566 60608 10001 21018 30252 40349 58003 60001 333 10050 21013 70013
AAXX 03064 71266 NIL
AAXX 03064 71267 15866 82507 11039 21076 39144 40260 51005 60001 333 10048 21053 70000
AAXX 03064 71268 NIL
AAXX 03064 71269 NIL
AAXX 03064 71270 NIL
AAXX 03064 71271 16/// ///// 11053 21094 60001 333 10043 21084 70005
AAXX 03064 71272 17766 83412 11212 21237 39746 40111 53022 60001 771// 333 11124 21212 70000
AAXX 03064 71273 16/// /2905 11104 21132 39526 40201 51008 60001 333 10056 21106 70000 555 33231 40202
AAXX 03064 71274 NIL
AAXX 03064 71275 NIL
AAXX 03064 71276 NIL
AAXX 03064 71277 NIL
AAXX 03064 71278 NIL
AAXX 03064 71279 16/// /3303 11189 21209 30264 40333 51021 60001 333 11060 21189 7////
AAXX 03064 71281 NIL
AAXX 03064 71282 46/// /1305 11035 21035 30070 40349 56006 6///1 333 10039 21041 7//// 555 32618 40071
AAXX 03064 71283 NIL
AAXX 03064 71284 17/// ///// 11085 21102 69951 7//4/ 333 10040 21102 70005
AAXX 03064 71285 NIL
AAXX 03064 71286 NIL
AAXX 03064 71287 NIL
AAXX 03064 71288 NIL
AAXX 03064 71289 NIL
AAXX 03064 71290 15666 81408 11020 21047 39401 40253 58011 60001 333 10009 21118 70000 555 32725 40071
AAXX 03064 71291 16/// /1710 11003 21059 39859 40150 58007 60001 333 11003 21193 70000 555 31726 40001
AAXX 03064 71292 15566 83017 11064 21078 39505 40116 53044 60001 333 10025 21064 70033
AAXX 03064 71294 16/// /3201 11125 21128 39931 40350 50001 60001 333 10002 70009 555 10020 20009
AAXX 03064 71295 NIL
AAXX 03064 71296 NIL
AAXX 03064 71297 16/// /0000 11044 21044 60001 333 10054 21046 70009
AAXX 03064 71298 NIL
AAXX 03064 71299 NIL
AAXX 03064 71150 46/// /2917 11016 21034 39396 40076 53015 6///1 333 10013 21057 7//// 555 33024 40061
AAXX 03064 71151 NIL
AAXX 03064 71152 16/// /0206 10000 21034 30265 40278 53009 60001 333 10065 21002 70000 555 30222 40101
AAXX 03064 71153 NIL
AAXX 03064 71154 16/// /2009 11055 21125 60001 333 10029 21068 70000 555 32543 40083
AAXX 03064 71155 NIL
AAXX 03064 71156 NIL
AAXX 03064 71157 46/// ///// 11059 21077 6///1 333 10053 21066 7////
AAXX 03064 71158 NIL
AAXX 03064 71159 16/// /3302 11013 21034 30210 40284 53008 60001 333 10023 21023 70000 555 33320 40071
AAXX 03064 71160 NIL
AAXX 03064 71161 16/// /0802 11039 21073 30199 40352 50003 60001 333 10030 21039 70017 555 33417 40201
AAXX 03064 71162 NIL
AAXX 03064 71163 46/// /0604 11183 21200 39799 40152 53001 6///1 333 11145 21211 7////
AAXX 03064 71164 NIL
AAXX 03064 71165 NIL
AAXX 03064 71166 NIL
AAXX 03064 71167 15966 /3002 11069 21083 39100 40216 56013 60001 333 10014 21106 70000
AAXX 03064 71168 NIL
AAXX 03064 71170 16/// /2711 11004 21033 60001 333 10026 21037 70000 555 32524 40191
AAXX 03064 71171 16/// /1703 11019 21034 30240 40340 50000 60001 333 10050 21024 70013
AAXX 03064 71172 16/// ///// 11041 21056 30099 40323 58008 60001 333 10004 21064 70006
AAXX 03064 71175 NIL
AAXX 03064 71176 460// /2538 11096 39412 40101 53029 6///1 333 11083 21101 7////
AAXX 03064 71177 460// /3211 11140 39141 40169 53017 6///1 333 11114 21158 7//// 555 32150 40073
AAXX 03064 71178 16/// /2609 10019 21031 30235 40267 53004 60001 333 10031 20008 70000 555 30127 40081
AAXX 03064 71179 460// /2307 11157 39367 40224 51011 6///1 333 11141 21171 7//// 555 31930 40232
AAXX 03064 71180 46/// /0307 11008 21041 30254 40294 53003 6///1 333 10026 21021 7//// 555 33324 40101
AAXX 03064 71181 NIL
AAXX 03064 71183 16/// /3107 30313 51011 60001 333 70000 555 32618 40161
AAXX 03064 71184 46/// /3305 11018 21059 6///1 333 10027 21018 7//// 555 32417 40171
AAXX 03064 71186 NIL
AAXX 03064 71187 15566 80704 10011 20004 30293 40342 51005 60001 333 10048 21009 70000
AAXX 03064 71189 NIL
AAXX 03064 71190 NIL
AAXX 03064 71191 16/// ///// 11003 21037 60001 333 10032 21033 70000
AAXX 03064 71192 15366 81405 10000 21006 39624 40305 58007 69931 333 10017 21110 70003
AAXX 03064 71193 16/// /1711 11081 21099 39886 40261 58016 60001 333 11078 21231 70004 555 31717 40051
AAXX 03064 71196 16/// /1801 11102 21107 30145 40352 58001 60001 333 10004 21109 70003 555 10010 20003
AAXX 03064 71197 16964 03502 11010 21050 30241 40291 53002 60001 333 10033 21026 70000 555 33422 40071
AAXX 03064 71198 46/// /3110 11021 21061 6///1 333 10017 21024 7//// 555 33519 40001
AAXX 03064 71199 46/// /0000 11019 21033 39320 40162 55005 6///1 333 11001 21117 7//// 555 32728 40072
AAXX 03064 71603 12974 43205 10003 21017 30240 40294 53010 60001 84010 333 10055 21014 70000 555 10000 20000
AAXX 03064 71607 16/// /3102 11010 21016 30273 40306 53017 60001 333 10042 21069 70000
AAXX 03064 71609 12674 73606 11004 21051 30166 40303 53013 60001 87500 333 10029 21058 70000 555 10000 20000
AAXX 03064 71610 15466 83105 11026 21040 30042 40346 51027 60001 333 10010 21061 70003
AAXX 03064 71621 16964 00000 11048 21056 30250 40360 51006 60001 333 10048 21052 70000
AAXX 03064 71623 NIL
AAXX 03064 71624 12574 21302 11011 21031 30129 40347 58002 60001 82500 333 10050 21014 70014 555 10006 20006
AAXX 03064 71625 16564 31802 11081 21123 30185 40352 55003 60001 333 10003 21097 70005
AAXX 03064 71627 12574 73106 11030 21085 30312 40358 50012 60001 87500 333 10040 21030 70010 555 10000 20000
AAXX 03064 71628 12574 72802 11045 21080 30218 40364 51010 60001 87500 333 10006 21047 70038 555 10036 20036
AAXX 03064 71630 NIL
AAXX 03064 71631 16/// /1703 11050 21064 39821 40336 58001 60001 333 10003 21061 70029
AAXX 03064 71633 12974 01708 11027 21059 30049 40329 58005 60001 333 10010 21037 70006 555 10006 20006
AAXX 03064 71705 11574 73605 11013 21033 30215 40305 53016 69901 78522 87500 333 10025 21055 79999 90910 555 19999 29999
AAXX 03064 71706 12874 73203 11013 21030 30239 40301 53009 60001 83071 333 10039 21016 70000 555 10000 20000
AAXX 03064 71707 12974 53005 11021 21041 30209 40287 54000 60001 85050 333 10037 21032 70000 555 10000 20000 33418 40070
AAXX 03064 71709 NIL
AAXX 03064 71711 NIL
AAXX 03064 71714 16/// /3603 11026 21053 30263 40358 51026 60001 333 7////
AAXX 03064 71715 16/// /3406 11037 21049 30151 40338 53021 60001 333 11022 21061 70031 555 10030 20031
AAXX 03064 71718 11466 83411 11047 21078 30276 40344 53026 69961 77177 885// 333 11022 21069 47001 70014 90983 555 10014 20014
AAXX 03064 71719 NIL
AAXX 03064 71914 46/// /2301 10020 20010 30109 6///1 333 20009 7////
AAXX 03064 71893 12980 10000 10001 21017 30305 40337 51006 60001 81070 333 10076 21002 70000 555 10000 20000 33420 40130
AAXX 03064 71894 16/// /0107 10042 20031 30324 40333 53004 60001 333 10085 20023 70002 555 32934 40233
AAXX 03064 71896 15766 61909 11008 21027 39430 40278 58010 60001 333 10007 21030 70000
AAXX 03064 71897 12274 72310 10050 20028 3//// 4//// 54000 60001 87850 333 10062 20044 70002
AAXX 03064 71898 160// ///// 10044 51001 60061 333 10067 20021 70070
AAXX 03064 71899 11974 02820 10066 20053 3//// 4//// 54000 69941 70161 333 10074 20054 70008 90960 555 32728 40032
AAXX 03064 71902 NIL
AAXX 03064 71905 NIL
AAXX 03064 71906 11774 82312 11107 21150 30165 40217 53021 69901 70377 8657/ 333 11081 21116 48007 79999 90940 555 19999 29999
AAXX 03064 71907 17464 91815 11043 21088 30075 40108 58022 60001 745// 333 11043 21071 70000
AAXX 03064 71909 16564 63104 11132 21174 30054 40098 51017 60001 333 11121 21167 70000
AAXX 03064 71910 47319 92617 11082 21095 39993 40056 55000 6///1 745// 333 11071 21131 7//// 555 32229 40052
AAXX 03064 71911 46964 02205 11297 30034 40093 51008 6///1 333 11227 21302 7////
AAXX 03064 71912 11448 83314 11114 21131 39804 49988 52023 60021 77177 885// 333 11059 21188 48019 70066 90983 93103 555 10082 20066
AAXX 03064 71915 11469 82709 11178 21195 39982 40064 51005 69901 77177 885// 333 11127 21194 48050 70012 90983 555 10012 20012 32821 40041
AAXX 03064 71917 11974 00000 11354 21399 30077 40092 52010 69901 7767/ 333 11301 21355 47013 79999 90999 555 19999 29999
AAXX 03064 71922 11974 02911 11134 21158 39698 40173 52027 69901 70277 333 10026 21134 47024 70010 90933 555 10010 20010
AAXX 03064 71924 11974 00318 11263 21305 39978 40071 53009 60001 73611 333 11260 21324 48037 79999 555 19999 29999 33418 40201
AAXX 03064 71925 11474 13211 11304 21350 30094 40137 50005 69901 77677 81500 333 11265 21311 48017 79999 90983 555 19999 29999
AAXX 03064 71926 12574 40000 11288 21332 30096 40122 54000 60001 81501 333 11238 21290 70000 555 10000 20000
AAXX 03064 71928 16/// /2001 11117 21134 39041 40233 56011 60001 333 10033 21124 70000 555 33140 40183
AAXX 03064 71900 46/// /22// 11111 21162 30237 40250 53016 6///1 333 11069 21113 7////
AAXX 03064 71903 NIL
AAXX 03064 71904 NIL
AAXX 03064 71914 16/// /2301 10020 20010 30109 40335 54000 60001 333 10045 20009 70000
AAXX 03064 71916 NIL
AAXX 03064 71918 460// ///// 11305 6///1 333 7////
AAXX 03064 71920 NIL
AAXX 03064 71921 NIL
AAXX 03064 71923 NIL
AAXX 03064 71927 16/// /3501 11013 21020 30280 40339 51003 60001 333 10080 21019 70000
AAXX 03064 71941 15966 01907 11119 21133 39895 40331 58003 60001 333 11063 21168 70000
AAXX 03064 71947 15966 61811 11107 21155 39929 40290 58014 60001 333 11095 21228 70000
AAXX 03064 71930 NIL
AAXX 03064 71931 NIL
AAXX 03064 71934 11574 81502 11131 21151 39886 40151 58021 69901 70271 8557/ 333 11057 21136 47022 70030 90943 555 10030 20030 33422 40150
AAXX 03064 71935 12774 62203 11118 21136 39923 40137 56014 60001 86500 333 11073 21170 70012 555 10014 20012 33225 40091
AAXX 03064 71936 11558 80305 11171 21203 39884 40154 55004 69941 77177 8252/ 333 11121 21219 48027 70004 90973 93101 555 10006 20004 33525 40101
AAXX 03064 71937 NIL
AAXX 03064 71938 11974 02305 11311 21342 30139 40170 53001 69901 77677 333 11240 21321 43017 79999 90983 555 19999 29999
AAXX 03064 71940 12782 72115 11020 21064 39375 40189 58015 60001 83501 333 10019 21020 70000 555 10000 20000 33130 40141
AAXX 03064 71943 12974 32313 11016 21082 39327 40171 57018 60001 83070 333 10018 21036 70000 555 10000 20000 32725 40081
AAXX 03064 71944 160// ///// 11019 58011 60001 333 10010 21116 70000
AAXX 03064 71945 12874 82003 11040 21081 39674 40151 56009 60001 8807/ 333 11031 21097 70024 555 10042 20024 33230 40070
AAXX 03064 71946 12974 20000 11211 21234 39930 40153 53002 60001 80001 333 11110 21233 48039 79999 555 19999 29999
AAXX 03064 71948 47964 01017 11240 30023 40141 53004 6///1 745// 333 11222 21267 7//// 555 31023 40031
AAXX 03064 71949 46/// /0702 11084 21094 39290 40177 53014 6///1 333 11038 21118 7////
AAXX 03064 71951 11374 72010 10019 20010 30065 40338 58005 69901 70282 86870 333 10031 20006 44045 79999 90960 555 10000 20000 32125 40081
AAXX 03064 71957 47662 83203 11193 21234 30086 40177 51037 6///1 745// 333 11148 21258 7////
AAXX 03064 71958 43/// /2303 11001 21006 39258 40206 56001 6///1 333 7////
AAXX 03064 71964 12782 63303 10020 21041 39310 40166 53025 60001 83570 333 10053 21100 70000 555 10000 20000
AAXX 03064 71966 16/// /0503 11152 21166 39756 40233 51044 60001 333 11084 21177 70015 555 10020 20015
AAXX 03064 71968 47040 /2913 11202 30122 40189 52037 6///1 745// 333 11167 21256 7//// 555 31022 40071
AAXX 03064 71300 NIL
AAXX 03064 71301 NIL
AAXX 03064 71302 16/// /1908 11007 21023 39440 40273 57010 60001 333 10009 21022 70000 555 32823 40101
AAXX 03064 71303 46/// ///// 10030 21008 6///1 333 10041 20002 7////
AAXX 03064 71305 15966 80401 11147 21164 39871 40178 58024 60001 333 10002 21169 70018
AAXX 03064 71306 17566 81815 11040 21073 30075 40107 58022 60001 771// 333 11036 21060 70000 555 32735 40173
AAXX 03064 71307 NIL
AAXX 03064 71308 16/// /1603 11008 21027 30205 40291 53003 60001 333 10033 21021 70000 555 33321 40071
AAXX 03064 71309 NIL
AAXX 03064 71310 16/// /2402 11009 21028 30257 40295 53007 60001 333 10028 21017 70000 555 33417 40091
AAXX 03064 71311 NIL
AAXX 03064 71312 16/// /3314 11076 21112 39684 40145 51036 60001 333 10029 21076 70000 555 33432 40022
AAXX 03064 71314 16/// /0000 11076 21087 39977 40342 57005 60001 333 10013 21080 70024
AAXX 03064 71315 NIL
AAXX 03064 71316 16/// /2102 11113 21135 39498 40200 58011 60001 333 10046 21124 70000 555 33532 40192
AAXX 03064 71317 NIL
AAXX 03064 71318 16/// /2708 11118 21139 39262 40231 53007 60001 333 10046 21140 70000 555 33344 40213
AAXX 03064 71319 16/// /0202 11094 21101 39431 40322 52020 60001 333 11041 21101 70035
AAXX 03064 71320 16/// /2407 11286 21312 30060 40061 53013 60001 333 11142 21287 70000 555 33018 40101
AAXX 03064 71321 16/// /3203 11134 21163 30070 40114 51017 60001 333 11120 21166 70000
AAXX 03064 71322 NIL
AAXX 03064 71323 16/// /2803 11026 21045 30039 40328 51024 60001 333 10004 21046 70030
AAXX 03064 71331 16/// /3105 11141 21173 60001 333 10011 21142 70026 555 10030 20026 33422 40221
AAXX 03064 71332 NIL
AAXX 03064 71334 46/// /3410 11213 21244 39772 40112 53022 6///1 333 11125 21214 7//// 555 30519 40221
AAXX 03064 71335 46964 02725 11104 53020 6///1 333 11095 21117 7//// 555 32650 40113
AAXX 03064 71336 46/// ///03 10015 21015 30231 40254 53007 6///1 333 10037 20014 7////
AAXX 03064 71337 46/// /2602 11050 21064 30024 40267 53007 6///1 333 10006 21052 7////
AAXX 03064 71338 46964 01203 11180 21198 30036 40043 53016 6///1 333 11127 21196 7//// 555 33621 40121
AAXX 03064 71339 16964 02806 11107 21141 30250 40265 53010 60001 333 11036 21110 70000
AAXX 03064 71340 NIL
AAXX 03064 71341 NIL
AAXX 03064 71342 NIL
AAXX 03064 71343 NIL
AAXX 03064 71344 NIL
AAXX 03064 71345 NIL
AAXX 03064 71346 NIL
AAXX 03064 71347 NIL
AAXX 03064 71348 NIL
AAXX 03064 71349 NIL
AAXX 03064 71201 16/// ///// 10028 21006 60001 333 10078 20023 70000
AAXX 03064 71202 16/// ///// 11114 21130 60001 333 10059 21123 70000
AAXX 03064 71203 15766 81702 11007 21047 39778 40310 53001 60001 333 10067 21052 70000
AAXX 03064 71209 46/// /0706 10045 6///1 333 10064 20036 7//// 555 33127 40101
AAXX 03064 71211 17/// /0311 10029 20005 30324 40336 51008 60061 7//4/ 333 10049 20027 70066 555 30521 40151
AAXX 03064 71212 16/// /0501 11092 21110 39494 40324 51019 60001 333 11032 21093 70034 555 10030 20034
AAXX 03064 71213 46/// /1505 11113 21125 39993 40306 58015 6///1 333 11057 21146 7////
AAXX 03064 71214 NIL
AAXX 03064 71215 46/// /0601 11008 21048 39953 40306 58001 6///1 333 10083 21057 7//// 555 30125 40221
AAXX 03064 71216 16/// /1307 11011 21054 39665 40293 58001 60001 333 10067 21018 70000
AAXX 03064 71217 NIL
AAXX 03064 71218 16/// /0000 10004 21042 39870 40305 50002 60001 333 10070 21046 70000 555 33330 40132
AAXX 03064 71219 46/// /1309 10049 20030 30343 40349 50000 6///1 333 10074 20040 7//// 555 33127 40071
AAXX 03064 71220 46/// /1516 10046 20034 6///1 333 10068 20036 7////
AAXX 03064 71221 NIL
AAXX 03064 71222 16/// /2303 11001 21006 39247 40223 56001 60001 333 10000 21090 70052 555 10120 20052
AAXX 03064 71223 NIL
AAXX 03064 71224 NIL
AAXX 03064 71225 NIL
AAXX 03064 71226 NIL
AAXX 03064 71227 NIL
AAXX 03064 71228 NIL
AAXX 03064 71229 NIL
AAXX 03064 71230 16/// /2610 11018 21072 39282 40182 58014 60001 333 10020 21033 70000 555 32735 40073
AAXX 03064 71231 16/// /2104 11113 21132 60001 333 10042 21122 70007 555 33042 40083
AAXX 03064 71232 16/// /2508 11043 21144 38699 40216 58007 60001 333 10022 21045 70000 555 32528 40102
AAXX 03064 71233 16/// /1702 11073 21110 60001 333 10033 21073 70000 555 33131 40192
AAXX 03064 71234 16/// /1803 11109 21141 39041 40257 58001 60001 333 10041 21111 70000 555 33221 40211
AAXX 03064 71235 16/// /2106 11082 21109 60001 333 10043 21085 70000 555 33543 40203
AAXX 03064 71236 46/// /2801 11123 21141 6///1 333 10017 21123 7//// 555 33134 40073
AAXX 03064 71237 46/// /0000 11132 21143 39401 40237 51005 6///1 333 10061 21132 7//// 555 33532 40102
AAXX 03064 71238 16/// /2701 11096 21113 60001 333 10050 21101 70000 555 32933 40182
AAXX 03064 71239 16/// /2609 11010 21037 39625 40082 53012 60001 333 10037 21047 70000 555 10010 32125 40161
AAXX 03064 71240 16/// /0000 11111 21140 39366 40233 51012 60001 333 10034 21111 70000 555 33043 40203
AAXX 03064 71241 NIL
AAXX 03064 71242 16/// /2606 11111 21132 60001 333 10050 21111 70000 555 33142 40083
AAXX 03064 71243 NIL
AAXX 03064 71244 NIL
AAXX 03064 71245 NIL
AAXX 03064 71246 NIL
AAXX 03064 71247 15966 02907 11083 21108 39379 40253 51013 60001 333 10047 21100 70000
AAXX 03064 71248 16/// /0000 11138 21156 38904 40239 58007 60001 333 10043 21141 70008 555 32948 40193
AAXX 03064 71249 NIL
AAXX 03064 71401 16/// /3401 11037 21074 39601 40301 51006 60001 333 10052 21043 70000 555 33525 40191
AAXX 03064 71402 NIL
AAXX 03064 71404 NIL
AAXX 03064 71405 NIL
AAXX 03064 71406 NIL
AAXX 03064 71407 NIL
AAXX 03064 71408 NIL
AAXX 03064 71409 NIL
AAXX 03064 71410 17466 83215 11103 21134 39762 40042 51058 60001 771// 333 10014 21103 70003
AAXX 03064 71413 NIL
AAXX 03064 71414 NIL
AAXX 03064 71415 NIL
AAXX 03064 71417 NIL
AAXX 03064 71418 NIL
AAXX 03064 71419 46/// /0109 10028 20002 30274 40284 51001 6///1 333 10049 20024 7//// 555 33325 40071
AAXX 03064 71423 NIL
AAXX 03064 71424 46/// /0611 6///1 333 7//// 555 30624 40041
AAXX 03064 71425 16/// /3411 11031 21081 30288 40325 51021 60001 333 11010 21031 70000 555 32823 40101
AAXX 03064 71426 NIL
AAXX 03064 71427 NIL
AAXX 03064 71428 NIL
AAXX 03064 71429 16/// /3609 11025 21063 30286 40306 53020 60001 333 11002 21054 70000
AAXX 03064 71434 NIL
AAXX 03064 71436 15966 00000 11054 21055 30111 40353 58005 60001 333 10027 21066 70005
AAXX 03064 71437 46/// /2901 10007 21025 30247 40344 56002 6///1 333 10048 20007 7//// 555 33217 40211
AAXX 03064 71438 NIL
AAXX 03064 71439 NIL
AAXX 03064 71440 NIL
AAXX 03064 71442 NIL
AAXX 03064 71445 NIL
AAXX 03064 71446 16/// /3217 11076 21103 39207 40204 51031 60001 333 10014 21079 70003 555 33237 40003
AAXX 03064 71448 16/// /2606 11003 21035 39726 40055 53010 60001 333 10014 21072 70000 555 31821 40201
AAXX 03064 71449 NIL
AAXX 03064 71043 12783 70000 11167 21204 30048 40144 53005 60001 87500 333 11157 21196 79999 555 19999 29999
AAXX 03064 71045 16/// /2611 10028 21021 39300 40162 54000 60001 333 10032 21080 70000 555 10020
AAXX 03064 71050 46/// /2804 11003 21059 39210 40308 58005 6///1 333 10000 21103 7//// 555 32819 40081
AAXX 03064 71051 NIL
AAXX 03064 71052 NIL
AAXX 03064 71066 11674 80000 11105 21136 39720 40150 56019 69901 70272 8353/ 333 11009 21153 43017 70003 90940 555 10008 20003 33234 40081
AAXX 03064 71068 12974 72610 11031 21079 39467 40169 57025 60001 87070 333 10022 21104 79999 555 19999 29999 33040 40131
AAXX 03064 71069 16964 01104 11054 21069 39465 40181 58021 60001 333 10024 21069 70000 555 33044 40073
AAXX 03064 71076 16/// /0503 11181 21201 39766 40173 58008 60001 333 11097 21195 70006 555 10020 20006 30021 40171
AAXX 03064 71077 16/// /2601 11143 21159 39644 40200 58005 60001 333 10026 21145 70000 555 33136 40173
AAXX 03064 71079 11566 33214 11136 21158 39768 40050 52039 69951 77177 83500 333 11018 21136 48011 70047 90983 93101 555 10030 20047
AAXX 03064 71081 46964 02506 11284 21322 30058 40070 53013 6///1 333 11143 21287 7//// 555 33118 40101
AAXX 03064 71082 NIL
AAXX 03064 71083 11966 33515 11280 21321 30045 40089 58008 69901 77611 80001 333 11213 21280 48038 79999 90942 555 19999 29999 33520 40060
AAXX 03064 71090 46564 32803 11230 21266 30004 40039 53013 6///1 333 11163 21236 7//// 555 33227 40071
AAXX 03064 71091 460// /3104 11192 39846 40058 53019 6///1 333 7////
AAXX 03064 71092 46950 03004 11227 39371 40049 51020 6///1 333 11173 21228 7////
AAXX 03064 71093 460// /1304 11178 39529 40032 53011 6///1 333 11175 21191 7//// 555 30227 40071
AAXX 03064 71094 46061 /3605 11176 39086 49992 53015 6///1 333 11166 21184 7////
AAXX 03064 71095 46664 31607 11246 21287 39953 40035 53011 6///1 333 11215 21252 7////
AAXX 03064 71101 160// /2510 30351 51005 60001 333 70000 555 32526 40201
AAXX 03064 71104 NIL
AAXX 03064 71108 12574 80000 10028 20011 30262 40336 53001 60001 885// 333 10077 20014 79999 555 10000 20000
AAXX 03064 71109 12674 82408 10059 20026 30334 40361 56004 60001 885// 333 10076 20035 70014 555 10000 20000
AAXX 03064 71726 16/// /0000 11204 21222 39783 40354 51011 60001 333 11057 21204 70036 555 10020 20036
AAXX 03064 71727 11674 22403 11110 21136 30152 40358 52020 69901 70277 82500 333 11027 21112 46001 70014 90942 555 10014 20014
AAXX 03064 71728 12582 12507 11148 21169 30130 40363 52018 60001 81501 333 11053 21153 70016 555 10016 20016
AAXX 03064 71730 12574 61612 11094 21101 39877 40320 58010 60001 86500 333 11038 21110 70000 555 10000 20000
AAXX 03064 71731 12974 11807 11093 21106 39864 40334 56007 60001 81070 333 11035 21120 47009 70004 555 10004 20004
AAXX 03064 71735 NIL
AAXX 03064 71738 NIL
AAXX 03064 71739 42974 31911 11077 21102 39886 40261 57017 6//// 80008 333 11071 21215 4//// 7//// 555 1//// 2////
AAXX 03064 71749 16964 62207 10003 21073 39915 40164 58008 60001 333 10007 21230 70000 555 32320 40031
AAXX 03064 71799 12680 12404 10000 21011 30315 40340 52004 60001 81501 333 10073 21010 70000 555 10000 20000
AAXX 03064 71800 16/08 /3608 10010 21001 30227 40260 51005 60001 333 10067 20001 70008 555 30228 40132
AAXX 03064 71801 12574 73603 11004 21030 30101 40278 51010 60001 87500 333 10039 21008 70012 555 10000 20000 30123 40140
AAXX 03064 71803 12474 72905 11015 21043 30088 40278 53008 60001 87500 333 10021 21015 70002 555 10002 20002
AAXX 03064 71807 NIL
AAXX 03064 71808 12974 03306 11095 21128 30226 40274 53011 60001 333 11038 21101 70000 555 10000 20000
AAXX 03064 71809 12574 80000 11012 21041 30257 40285 53008 60001 885// 333 10016 21036 79999 555 19999 29999
AAXX 03064 71810 NIL
AAXX 03064 71811 NIL
AAXX 03064 71813 NIL
AAXX 03064 71814 16/// /3605 11083 21091 30276 40286 51013 60001 333 11025 21112 70000
AAXX 03064 71815 12674 30000 11002 21035 30256 40287 52003 60001 83500 333 10027 21014 70000 555 10000 20000
AAXX 03064 71604 16/// /3303 11023 21031 60001 333 11010 21034 70000 555 33120 40101
AAXX 03064 71605 16/// /2402 10028 20007 30179 40332 51008 60001 333 10076 20008 70000
AAXX 03064 71611 16/// /3406 11015 21043 60001 333 10020 21046 70000
AAXX 03064 71612 NIL
AAXX 03064 71614 NIL
AAXX 03064 71616 16/// /2702 11040 21058 30232 40356 51021 60001 333 10021 21040 70040
AAXX 03064 71617 16/// /2505 11105 21127 30187 40364 53021 60001 333 7////
AAXX 03064 71618 17/12 /0133 11076 21087 39970 40008 53019 69981 771// 333 11048 21249 70026
AAXX 03064 71619 NIL
AAXX 03064 71622 NIL
AAXX 03064 71632 46/// /3310 11178 21203 39669 40121 51031 6///1 333 11091 21178 7//// 555 10040 30022 40231
AAXX 03064 71634 17/// /3304 11033 21040 30165 40323 53021 69941 7//4/ 333 11002 21085 70004 555 10010 20004
AAXX 03064 71638 16/// /3303 10000 21011 30223 40331 53007 60001 333 10068 21010 70000
AAXX 03064 71639 12574 21002 11036 21056 30099 40349 58004 60001 82500 333 10027 21037 70016 555 10016 20016
AAXX 03064 71642 NIL
AAXX 03064 71350 16/// /2903 11004 21036 30227 40294 53009 60001 333 10039 21011 70000
AAXX 03064 71351 NIL
AAXX 03064 71352 16/// /1302 11043 21046 39871 40339 58003 60001 333 10022 21043 70006 555 33218 40171
AAXX 03064 71353 NIL
AAXX 03064 71354 NIL
AAXX 03064 71355 16/// /1202 11289 21319 30018 40107 51012 60001 333 11208 21310 70000
AAXX 03064 71356 NIL
AAXX 03064 71357 NIL
AAXX 03064 71358 16/// /2703 11232 21255 30003 40038 53014 60001 333 11162 21236 70000 555 33325 40081
AAXX 03064 71359 NIL
AAXX 03064 71360 NIL
AAXX 03064 71361 NIL
AAXX 03064 71362 NIL
AAXX 03064 71363 NIL
AAXX 03064 71364 NIL
AAXX 03064 71365 NIL
AAXX 03064 71368 17959 00901 11050 21053 39943 40344 58002 60001 710// 333 10038 21055 70008
AAXX 03064 71369 15966 61105 11052 21073 39465 40181 58021 60001 333 10025 21064 70000
AAXX 03064 71370 NIL
AAXX 03064 71371 15566 83404 11021 21058 30319 40354 51013 60001 333 10033 21021 70000
AAXX 03064 71372 16/// /2904 11018 21050 60001 333 10031 21018 70010
AAXX 03064 71373 NIL
AAXX 03064 71374 NIL
AAXX 03064 71375 NIL
AAXX 03064 71376 NIL
AAXX 03064 71377 16/// /3003 11027 21069 30307 40357 51013 60001 333 10037 21028 70006
AAXX 03064 71378 16/// /2902 11065 21109 30136 40352 51014 60001 333 11011 21065 70020 555 10030 20020
AAXX 03064 71379 NIL
AAXX 03064 71380 NIL
AAXX 03064 71381 NIL
AAXX 03064 71382 NIL
AAXX 03064 71383 NIL
AAXX 03064 71384 NIL
AAXX 03064 71385 NIL
AAXX 03064 71386 NIL
AAXX 03064 71387 NIL
AAXX 03064 71388 NIL
AAXX 03064 71389 NIL
AAXX 03064 71390 46/// /2606 11089 6///1 333 11047 21091 7////
AAXX 03064 71391 NIL
AAXX 03064 71392 16/// /1005 11015 21042 60001 333 11011 21031 70044
AAXX 03064 71393 NIL
AAXX 03064 71395 12974 30204 11003 21012 30105 40287 55002 60001 80001 333 10037 21018 70000
AAXX 03064 71398 15966 81917 11045 21089 30170 40182 58023 60001 333 11044 21198 70000
AAXX 03064 71399 NIL
AAXX 03064 71812 NIL
AAXX 03064 71819 15566 62803 11070 21101 30228 40271 53009 60001 333 11024 21082 70000
AAXX 03064 71820 16/// /0505 11042 21058 30234 40352 50005 60001 333 10049 21044 70031
AAXX 03064 71823 16964 01808 11147 21176 39874 40272 58013 60001 333 11127 21152 70000 555 32219 40201
AAXX 03064 71824 NIL
AAXX 03064 71826 16/// /2107 11123 21151 30005 40048 53024 60001 333 11101 21125 70003 555 10010 20003
AAXX 03064 71829 16/// /2807 11098 21125 30169 40337 53022 60001 333 7////
AAXX 03064 71833 NIL
AAXX 03064 71835 16/// /2216 11029 21090 39567 40046 56008 60001 333 11023 21177 70000 555 32126 40021
AAXX 03064 71837 NIL
AAXX 03064 71839 NIL
AAXX 03064 71840 46/// /2616 11004 21037 6///1 333 10030 21039 7//// 555 32336 40173
AAXX 03064 71846 NIL
AAXX 03064 71847 NIL
AAXX 03064 71848 NIL
AAXX 03064 71849 NIL
AAXX 03064 91636 11499 60906 10280 20250 40059 60001 71522 83308 333 562/9
AAXX 03064 91643 11498 70605 10290 20229 40070 53008 60001 71422 82268 333 56199 82818 83361 87280
AAXX 03064 91648 11498 70000 10279 20248 40074 60001 71422 8337/ 333 5679/
AAXX 03064 71864 NIL
AAXX 03064 71865 16/// /3212 11082 21112 39459 40147 51034 60001 333 10017 21082 70000 555 32227 40071
AAXX 03064 71866 46964 03410 11083 21131 39568 40191 51033 6///1 333 10041 21083 7//// 555 33135 40233
AAXX 03064 71867 11464 83320 11105 21127 39765 40102 51041 69911 77177 885// 333 10027 21105 48014 70002 90973 555 10006 20002 33329 40011
AAXX 03064 71868 16/// /3112 11075 21113 39672 40115 51042 60001 333 10037 21075 70006 555 33128 40042
AAXX 03064 71869 11574 13110 11093 21135 39642 40174 52035 69901 72211 81500 333 10033 21094 43004 79999 90973 555 19999 29999
AAXX 03064 71871 15966 02809 11129 21152 39391 40220 53010 60001 333 10050 21129 70000
AAXX 03064 71877 12974 02105 11073 21106 38949 40247 58003 60001 333 10058 21090 70000 555 10000 20000 33336 40222
AAXX 03064 71878 12974 22406 11093 21114 39142 40240 58002 60001 80001 333 10051 21094 79999 555 19999 29999 33045 40172
AAXX 03064 71879 16964 02306 11057 21095 39392 40210 58010 60001 333 10057 21067 70005 555 33341 40183
AAXX 03064 71880 12982 22304 11048 21100 39150 40279 58001 60001 80001 333 10024 21057 70000 555 10000 20000 31920 40080
AAXX 03064 71882 16764 83402 11027 21039 39759 40310 52004 60001 333 10034 21038 70015
AAXX 03064 71883 46/// /0000 11063 21068 39472 40319 58001 6///1 333 11004 21130 7////
AAXX 03064 71887 11786 82906 10017 21054 39887 40316 55000 69901 77111 8657/ 333 10069 21065 79999 90931 555 19999 29999 33027 40120
AAXX 03064 71889 12874 80000 10003 21059 39886 40311 56004 60001 8807/ 333 10074 21041 70000 555 10000 20000 33620 40211
AAXX 03064 71891 16864 60102 11008 21027 30051 40334 53001 60001 333 10055 21033 70000 555 31817 40091
AAXX 03064 71892 12580 30203 10011 20000 30333 40338 51006 60001 82672 333 10066 20005 70000 555 10000 20000 33020 40090
AAXX 03064 60020 11560 30505 10186 20119 30207 40252 56008 60004 702// 83500 333 20172 55085 924/7
AAXX 03064 60030 02560 23615 10184 20119 30180 40236 56007 60004 82800 333 018// 20181 55082 60007 924/6
AAXX 03064 60040 02575 40112 10180 20135 30217 40242 56008 60004 84800 333 015// 20163 55097 60007 924/8
AAXX 03064 60338 11680 42507 10126 20063 30123 40189 53005 60074 76060 84200 333 20114 55055 92428
AAXX 03061 26509 11470 32506 10061 21005 30069 40048 52007 69962 70181 83200 333 20048 31/// 91010 91117 555 53017 7005/
AAXX 03061 26518 11670 72303 10015 20010 40086 52015 60012 70281 86802 333 20012 32/// 91006 91109 555 53014 7005/
AAXX 03061 26524 12998 22103 10015 20007 39945 40079 52017 69982 80001 333 20015 32/// 91005 91108 555 53011 7002/
AAXX 03061 26531 12970 22403 10018 20007 40069 52015 60042 82040 333 20018 31/// 91007 91107 555 53013 7005/
AAXX 03061 26629 11497 72504 10033 20028 30009 40105 52019 60022 70262 8655/ 333 20033 31/// 86614 91007 91110 555 53012 7004/
AAXX 03061 26633 11570 32403 10028 20007 39956 40087 51017 60062 70161 82502 333 20028 31/// 91005 91109 555 53011 7007/
AAXX 03061 26730 11670 32502 10029 20019 39917 40109 52020 60022 70265 83500 333 20028 31/// 91005 91108 555 53011 7006/
AAXX 03061 26038 01584 32002 10005 21009 39948 49989 52023 60022 70280 83900 333 10027 20004 60007 83922 555 11100 20004 31100 50032 52101
AAXX 03061 26115 21483 12506 10053 20000 39990 49998 51012 70200 81600 333 10059 20041 60007 81717 91011 91112 555 11001 20041 31001 50054
AAXX 03061 01281 16/// /0906 11014 21060 39626 49799 58042 60002 333 21041 70039 91110
AAXX 03061 01400 41598 42614 10095 20046 49831 57020 70181 842// 22200 06094 10710 70050 333 91121
BBXX MINUK04 0306/ 99545 10058 46/// ///// 10100 4//// 57006
BBXX FLAO 0306/ 99764 70847 46/// ///// 11318 40048 52014
BBXX MINFR00 0306/ 99504 10006 46/// ///// 10113 40045 57033
AAXX 03061 01212 16/// /1710 10086 20013 39650 49665 56062 6//// 333 20049 91115
AAXX 03061 01300 41598 62211 10059 20038 49619 57041 72582 849// 22200 02079 10813 70063 333 91123
AAXX 03061 76040 32902 /1601 10098 20042 30126 40140 52002 90545 333 10182 20070 30/// 55047 59001 98602
AAXX 03061 76055 32970 01904 10115 20059 30114 40133 55002 90540 333 10176 20056 30/// 58011
AAXX 03061 76225 32520 32504 10142 20022 38573 40044 53006 83100 90540 333 10210 20076 30/// 55023 56500 59040 83827
AAXX 03061 76305 32970 00000 10150 20104 30146 40154 52007 90540 333 10262 20188 30/// 58///
AAXX 03061 76323 32910 01502 10132 20017 38230 40105 55006 90555 333 10232 20086 30/// 55048 59039
AAXX 03061 76373 32910 11101 10096 20003 38188 40129 57015 80001 90550 333 10218 21010 30/// 55049 21159 56009 59033 81067
AAXX 03061 76382 32960 21802 10204 20094 38869 40077 57002 80002 90256 333 10280 20125 30/// 55036 2//// 56005 59030 82076
AAXX 03061 76390 31850 11905 10156 20018 38222 40122 57011 70544 81060 90530 333 10205 20055 30/// 55080 21312 56040 59014 81356
AAXX 03061 76393 32520 21202 10192 20131 39574 40139 57015 82400 90550 333 10269 20130 30/// 55075 56700 59022
AAXX 03061 76402 32950 00000 10124 20107 30101 40158 52002 90545 333 10232 20138 30/// 55012 2//// 58015
AAXX 03061 76423 11960 02801 10113 20029 38153 40106 57005 69901 70150 90545 333 10252 20020 30/// 55095 21160 59014
AAXX 03061 76458 12860 51202 10220 20208 30149 40153 52005 69901 85050 90543 333 10282 20136 30/// 55040 56050 58006 85358
AAXX 03061 76491 32956 01603 10208 20170 39800 40182 57011 90545 333 10298 20122 30/// 55095 58///
AAXX 03061 76525 32960 02006 10114 20011 37482 40104 52001 90540 333 10185 20106 30/// 55092 22653 59001
AAXX 03061 76539 32958 03601 10063 20048 38185 40177 52009 90550 333 10270 20010 30/// 55082 58015
AAXX 03061 76548 32960 01302 10200 20179 30198 40208 57005 90540 333 10280 20168 30/// 55066 59003
AAXX 03061 76556 32960 00000 10160 20124 39137 40141 52005 90530 333 10279 20104 30/// 55099 58006
AAXX 03061 76571 32910 00000 10108 20032 38174 40117 54012 90545 333 10264 20035 30/// 55087 59002
AAXX 03061 76577 32960 00000 10130 20108 38056 40114 52009 90540 333 10266 20071 30/// 55073 59003
AAXX 03061 76581 32960 00000 10120 20105 39097 40203 52003 90550 333 10240 20063 30/// 55083 58001
AAXX 03061 76612 32958 01701 10153 20058 38487 40122 51006 90550 333 10280 20055 30/// 55098 21236 58002
AAXX 03061 76625 32960 00903 10151 20026 38156 40090 52011 90530 333 10280 20080 30/// 55080 58007
AAXX 03061 76632 31950 00705 10110 20000 37647 40090 5//// 70500 90540 333 10200 20082 30/// 55092 59003
AAXX 03061 76634 31970 00000 10078 20075 37869 40162 57002 71042 90550 333 10241 20062 30/// 55099 21859 59001
AAXX 03061 76644 32350 10901 10192 20168 30203 40215 52001 81200 90550 333 10294 20170 30/// 55089 21124 561// 58005 81810
AAXX 03061 76654 31956 03602 10228 20205 30163 40167 52009 70544 90550 333 10294 20210 30/// 55090 21070 58009
AAXX 03061 76662 32960 00900 10130 20093 38440 40142 57024 90545 333 10298 20038 30/// 55092 21220 59034
AAXX 03061 76665 32958 01801 10121 20084 38135 40116 52001 90550 333 10290 20050 30/// 55080 21283 58001
AAXX 03061 76675 32960 02001 10050 20034 37398 40119 52016 90545 333 10231 21015 30/// 55098 2//// 58003
AAXX 03061 76680 31956 02302 10122 21017 37767 40120 54000 70400 90550 333 10243 30065 30/// 55009 20774 59001
AAXX 03061 76683 32959 00000 10068 20010 37842 40149 57001 90550 333 10255 20022 30/// 50401 55100 21849 59008
AAXX 03061 76685 32950 00601 10108 21019 37896 40125 52014 90550 333 10250 20032 30/// 55104 58011
AAXX 03061 76687 31230 82001 10130 20119 38714 40205 57006 74042 886// 90543 333 10204 20050 30/// 55072 563// 58006 83708 85610
AAXX 03061 76692 31520 22301 10219 20177 30186 40205 50001 71040 825// 90545 333 10285 20135 30/// 55071 563// 58004 82628
AAXX 03061 76695 32956 00503 10192 20147 30188 40194 58005 90545 333 10275 20152 30/// 55088 58001 91005 91505
AAXX 03061 76726 32968 03601 10170 21006 38406 40098 52004 90535 333 10282 20110 30/// 55/// 58001
AAXX 03061 76737 31980 60000 10134 20096 38810 40196 58006 70122 8605/ 90532 333 10201 20050 30/// 55083 5609/ 58002 86358
AAXX 03061 76750 32558 13303 10176 20160 30184 40194 57010 81100 90550 333 10320 20155 30/// 55080 56100 59002 81820
AAXX 03061 76762 31602 20000 10167 20151 38774 40127 52001 70300 82400 90535 333 10302 20098 30/// 55096 21760 56400 58000 82638
AAXX 03061 76775 32960 00501 10107 20030 38544 40159 52004 90545 333 10296 20042 30/// 55084 59001
AAXX 03061 76805 32960 03301 10233 20229 30145 40149 50004 90545 333 10315 20215 30/// 55096 21049 58001
AAXX 03061 76833 32958 03609 10236 20168 30148 40151 57001 90540 333 10292 20228 30/// 55088 58006 92000
AAXX 03061 76843 32465 30000 10174 20149 39527 40173 50001 82109 90545 333 0//// 10246 20140 30/// 55074 59003 82810
AAXX 03061 76845 32930 00401 10060 20052 37965 40175 58004 90545 333 10220 20004 30/// 55074 59003
AAXX 03061 76848 32450 70502 10123 20092 38403 40126 50002 87400 90550 333 10216 20078 30/// 55084 56100 58003 87613
AAXX 03061 76160 32958 00501 10118 20073 39906 40156 5//// 90550 333 10185 20135 30/// 58025
AAXX 03061 76311 11520 81402 10176 20159 39867 40140 52012 60031 70262 887// 90555 333 10274 20140 32/// 55015 59001 60027 88820
AAXX 03061 76405 32940 01801 10200 20170 30127 40148 50002 90550 333 10276 20170 30/// 55054 2//// 58004
AAXX 03061 76640 31010 30000 10182 20179 30206 40218 52001 70300 832// 90540 333 10266 20138 30/// 55073 567// 58024 83801
AAXX 03061 76741 31340 30504 10224 20190 30166 40184 52002 70544 83200 90530 333 10266 20157 30/// 55061 561// 58/// 83810
AAXX 03061 76040 32902 /1601 10098 20042 30126 40140 52002 90545 333 10182 20070 30/// 55047 59001 98602
AAXX 03061 76055 32970 01904 10115 20059 30114 40133 55002 90540 333 10176 20056 30/// 58011
AAXX 03061 76225 32520 32504 10142 20022 38573 40044 53006 83100 90540 333 10210 20076 30/// 55023 56500 59040 83827
AAXX 03061 76305 32970 00000 10150 20104 30146 40154 52007 90540 333 10262 20188 30/// 58///
AAXX 03061 76323 32910 01502 10132 20017 38230 40105 55006 90555 333 10232 20086 30/// 55048 59039
AAXX 03061 76373 32910 11101 10096 20003 38188 40129 57015 80001 90550 333 10218 21010 30/// 55049 21159 56009 59033 81067
AAXX 03061 76382 32960 21802 10204 20094 38869 40077 57002 80002 90256 333 10280 20125 30/// 55036 2//// 56005 59030 82076
AAXX 03061 76390 31850 11905 10156 20018 38222 40122 57011 70544 81060 90530 333 10205 20055 30/// 55080 21312 56040 59014 81356
AAXX 03061 76393 32520 21202 10192 20131 39574 40139 57015 82400 90550 333 10269 20130 30/// 55075 56700 59022
AAXX 03061 76402 32950 00000 10124 20107 30101 40158 52002 90545 333 10232 20138 30/// 55012 2//// 58015
AAXX 03061 76423 11960 02801 10113 20029 38153 40106 57005 69901 70150 90545 333 10252 20020 30/// 55095 21160 59014
AAXX 03061 76458 12860 51202 10220 20208 30149 40153 52005 69901 85050 90543 333 10282 20136 30/// 55040 56050 58006 85358
AAXX 03061 76491 32956 01603 10208 20170 39800 40182 57011 90545 333 10298 20122 30/// 55095 58///
AAXX 03061 76525 32960 02006 10114 20011 37482 40104 52001 90540 333 10185 20106 30/// 55092 22653 59001
AAXX 03061 76539 32958 03601 10063 20048 38185 40177 52009 90550 333 10270 20010 30/// 55082 58015
AAXX 03061 76548 32960 01302 10200 20179 30198 40208 57005 90540 333 10280 20168 30/// 55066 59003
AAXX 03061 76556 32960 00000 10160 20124 39137 40141 52005 90530 333 10279 20104 30/// 55099 58006
AAXX 03061 76571 32910 00000 10108 20032 38174 40117 54012 90545 333 10264 20035 30/// 55087 59002
AAXX 03061 76577 32960 00000 10130 20108 38056 40114 52009 90540 333 10266 20071 30/// 55073 59003
AAXX 03061 76581 32960 00000 10120 20105 39097 40203 52003 90550 333 10240 20063 30/// 55083 58001
AAXX 03061 76612 32958 01701 10153 20058 38487 40122 51006 90550 333 10280 20055 30/// 55098 21236 58002
AAXX 03061 76625 32960 00903 10151 20026 38156 40090 52011 90530 333 10280 20080 30/// 55080 58007
AAXX 03061 76632 31950 00705 10110 20000 37647 40090 5//// 70500 90540 333 10200 20082 30/// 55092 59003
AAXX 03061 76634 31970 00000 10078 20075 37869 40162 57002 71042 90550 333 10241 20062 30/// 55099 21859 59001
AAXX 03061 76644 32350 10901 10192 20168 30203 40215 52001 81200 90550 333 10294 20170 30/// 55089 21124 561// 58005 81810
AAXX 03061 76654 31956 03602 10228 20205 30163 40167 52009 70544 90550 333 10294 20210 30/// 55090 21070 58009
AAXX 03061 76662 32960 00900 10130 20093 38440 40142 57024 90545 333 10298 20038 30/// 55092 21220 59034
AAXX 03061 76665 32958 01801 10121 20084 38135 40116 52001 90550 333 10290 20050 30/// 55080 21283 58001
AAXX 03061 76675 32960 02001 10050 20034 37398 40119 52016 90545 333 10231 21015 30/// 55098 2//// 58003
AAXX 03061 76680 31956 02302 10122 21017 37767 40120 54000 70400 90550 333 10243 30065 30/// 55009 20774 59001
AAXX 03061 76683 32959 00000 10068 20010 37842 40149 57001 90550 333 10255 20022 30/// 50401 55100 21849 59008
AAXX 03061 76685 32950 00601 10108 21019 37896 40125 52014 90550 333 10250 20032 30/// 55104 58011
AAXX 03061 76687 31230 82001 10130 20119 38714 40205 57006 74042 886// 90543 333 10204 20050 30/// 55072 563// 58006 83708 85610
AAXX 03061 76692 31520 22301 10219 20177 30186 40205 50001 71040 825// 90545 333 10285 20135 30/// 55071 563// 58004 82628
AAXX 03061 76695 32956 00503 10192 20147 30188 40194 58005 90545 333 10275 20152 30/// 55088 58001 91005 91505
AAXX 03061 76726 32968 03601 10170 21006 38406 40098 52004 90535 333 10282 20110 30/// 55/// 58001
AAXX 03061 76737 31980 60000 10134 20096 38810 40196 58006 70122 8605/ 90532 333 10201 20050 30/// 55083 5609/ 58002 86358
AAXX 03061 76750 32558 13303 10176 20160 30184 40194 57010 81100 90550 333 10320 20155 30/// 55080 56100 59002 81820
AAXX 03061 76762 31602 20000 10167 20151 38774 40127 52001 70300 82400 90535 333 10302 20098 30/// 55096 21760 56400 58000 82638
AAXX 03061 76775 32960 00501 10107 20030 38544 40159 52004 90545 333 10296 20042 30/// 55084 59001
AAXX 03061 76805 32960 03301 10233 20229 30145 40149 50004 90545 333 10315 20215 30/// 55096 21049 58001
AAXX 03061 76833 32958 03609 10236 20168 30148 40151 57001 90540 333 10292 20228 30/// 55088 58006 92000
AAXX 03061 76843 32465 30000 10174 20149 39527 40173 50001 82109 90545 333 0//// 10246 20140 30/// 55074 59003 82810
AAXX 03061 76845 32930 00401 10060 20052 37965 40175 58004 90545 333 10220 20004 30/// 55074 59003
AAXX 03061 76848 32450 70502 10123 20092 38403 40126 50002 87400 90550 333 10216 20078 30/// 55084 56100 58003 87613
AAXX 03061 76160 32958 00501 10118 20073 39906 40156 5//// 90550 333 10185 20135 30/// 58025
AAXX 03061 76311 11520 81402 10176 20159 39867 40140 52012 60031 70262 887// 90555 333 10274 20140 32/// 55015 59001 60027 88820
AAXX 03061 76405 32940 01801 10200 20170 30127 40148 50002 90550 333 10276 20170 30/// 55054 2//// 58004
AAXX 03061 76640 31010 30000 10182 20179 30206 40218 52001 70300 832// 90540 333 10266 20138 30/// 55073 567// 58024 83801
AAXX 03061 76741 31340 30504 10224 20190 30166 40184 52002 70544 83200 90530 333 10266 20157 30/// 55061 561// 58/// 83810
AAXX 03061 76040 32902 /1601 10098 20042 30126 40140 52002 90545 33310182 20070 30/// 55047 59001 98602
AAXX 03061 76055 32970 01904 10115 20059 30114 40133 55002 90540 33310176 20056 30/// 58011
AAXX 03061 76225 32520 32504 10142 20022 38573 40044 53006 83100 90540333 10210 20076 30/// 55023 56500 59040 83827
AAXX 03061 76305 32970 00000 10150 20104 30146 40154 52007 90540 33310262 20188 30/// 58///
AAXX 03061 76323 32910 01502 10132 20017 38230 40105 55006 90555 33310232 20086 30/// 55048 59039
AAXX 03061 76373 32910 11101 10096 20003 38188 40129 57015 80001 90550333 10218 21010 30/// 55049 21159 56009 59033 81067
AAXX 03061 76382 32960 21802 10204 20094 38869 40077 57002 80002 90256333 10280 20125 30/// 55036 2//// 56005 59030 82076
AAXX 03061 76390 31850 11905 10156 20018 38222 40122 57011 70544 8106090530 333 10205 20055 30/// 55080 21312 56040 59014 81356
AAXX 03061 76393 32520 21202 10192 20131 39574 40139 57015 82400 90550333 10269 20130 30/// 55075 56700 59022
AAXX 03061 76402 32950 00000 10124 20107 30101 40158 52002 90545 33310232 20138 30/// 55012 2//// 58015
AAXX 03061 76423 11960 02801 10113 20029 38153 40106 57005 69901 7015090545 333 10252 20020 30/// 55095 21160 59014
AAXX 03061 76458 12860 51202 10220 20208 30149 40153 52005 69901 8505090543 333 10282 20136 30/// 55040 56050 58006 85358
AAXX 03061 76491 32956 01603 10208 20170 39800 40182 57011 90545 33310298 20122 30/// 55095 58///
AAXX 03061 76525 32960 02006 10114 20011 37482 40104 52001 90540 33310185 20106 30/// 55092 22653 59001
AAXX 03061 76539 32958 03601 10063 20048 38185 40177 52009 90550 33310270 20010 30/// 55082 58015
AAXX 03061 76548 32960 01302 10200 20179 30198 40208 57005 90540 33310280 20168 30/// 55066 59003
AAXX 03061 76556 32960 00000 10160 20124 39137 40141 52005 90530 33310279 20104 30/// 55099 58006
AAXX 03061 76571 32910 00000 10108 20032 38174 40117 54012 90545 33310264 20035 30/// 55087 59002
AAXX 03061 76577 32960 00000 10130 20108 38056 40114 52009 90540 33310266 20071 30/// 55073 59003
AAXX 03061 76581 32960 00000 10120 20105 39097 40203 52003 90550 33310240 20063 30/// 55083 58001
AAXX 03061 76612 32958 01701 10153 20058 38487 40122 51006 90550 33310280 20055 30/// 55098 21236 58002
AAXX 03061 76625 32960 00903 10151 20026 38156 40090 52011 90530 33310280 20080 30/// 55080 58007
AAXX 03061 76632 31950 00705 10110 20000 37647 40090 5//// 70500 90540333 10200 20082 30/// 55092 59003
AAXX 03061 76634 31970 00000 10078 20075 37869 40162 57002 71042 90550333 10241 20062 30/// 55099 21859 59001
AAXX 03061 76644 32350 10901 10192 20168 30203 40215 52001 81200 90550333 10294 20170 30/// 55089 21124 561// 58005 81810
AAXX 03061 76654 31956 03602 10228 20205 30163 40167 52009 70544 90550333 10294 20210 30/// 55090 21070 58009
AAXX 03061 76662 32960 00900 10130 20093 38440 40142 57024 90545 33310298 20038 30/// 55092 21220 59034
AAXX 03061 76665 32958 01801 10121 20084 38135 40116 52001 90550 33310290 20050 30/// 55080 21283 58001
AAXX 03061 76675 32960 02001 10050 20034 37398 40119 52016 90545 33310231 21015 30/// 55098 2//// 58003
AAXX 03061 76680 31956 02302 10122 21017 37767 40120 54000 70400 90550333 10243 30065 30/// 55009 20774 59001
AAXX 03061 76683 32959 00000 10068 20010 37842 40149 57001 90550 33310255 20022 30/// 50401 55100 21849 59008
AAXX 03061 76685 32950 00601 10108 21019 37896 40125 52014 90550 33310250 20032 30/// 55104 58011
AAXX 03061 76687 31230 82001 10130 20119 38714 40205 57006 74042 886//90543 333 10204 20050 30/// 55072 563// 58006 83708 85610
AAXX 03061 76692 31520 22301 10219 20177 30186 40205 50001 71040 825//90545 333 10285 20135 30/// 55071 563// 58004 82628
AAXX 03061 76695 32956 00503 10192 20147 30188 40194 58005 90545 33310275 20152 30/// 55088 58001 91005 91505
AAXX 03061 76726 32968 03601 10170 21006 38406 40098 52004 90535 33310282 20110 30/// 55/// 58001
AAXX 03061 76737 31980 60000 10134 20096 38810 40196 58006 70122 8605/90532 333 10201 20050 30/// 55083 5609/ 58002 86358
AAXX 03061 76750 32558 13303 10176 20160 30184 40194 57010 81100 90550333 10320 20155 30/// 55080 56100 59002 81820
AAXX 03061 76762 31602 20000 10167 20151 38774 40127 52001 70300 8240090535 333 10302 20098 30/// 55096 21760 56400 58000 82638
AAXX 03061 76775 32960 00501 10107 20030 38544 40159 52004 90545 33310296 20042 30/// 55084 59001
AAXX 03061 76805 32960 03301 10233 20229 30145 40149 50004 90545 33310315 20215 30/// 55096 21049 58001
AAXX 03061 76833 32958 03609 10236 20168 30148 40151 57001 90540 33310292 20228 30/// 55088 58006 92000
AAXX 03061 76843 32465 30000 10174 20149 39527 40173 50001 82109 90545333 0//// 10246 20140 30/// 55074 59003 82810
AAXX 03061 76845 32930 00401 10060 20052 37965 40175 58004 90545 33310220 20004 30/// 55074 59003
AAXX 03061 76848 32450 70502 10123 20092 38403 40126 50002 87400 90550333 10216 20078 30/// 55084 56100 58003 87613
AAXX 03061 76160 32958 00501 10118 20073 39906 40156 5//// 90550 33310185 20135 30/// 58025
AAXX 03061 76311 11520 81402 10176 20159 39867 40140 52012 60031 70262887// 90555 333 10274 20140 32/// 55015 59001 60027 88820
AAXX 03061 76405 32940 01801 10200 20170 30127 40148 50002 90550 33310276 20170 30/// 55054 2//// 58004
AAXX 03061 76640 31010 30000 10182 20179 30206 40218 52001 70300 832//90540 333 10266 20138 30/// 55073 567// 58024 83801
AAXX 03061 76741 31340 30504 10224 20190 30166 40184 52002 70544 8320090530 333 10266 20157 30/// 55061 561// 58/// 83810
AAXX 03064 71867 11464 83320 11105 21127 39765 40102 51041 69921 77177 885// 333 10027 21105 48014 70002 90973 555 10006 20002 33329 40011
AAXX 03064 71867 11464 83320 11105 21127 39765 40102 51041 69921 77177 885// 333 10027 21105 48014 70002 90973 555 10006 20002 33329 40011
AAXX 03061 48919 12598 80512 10271 20222 30061 40083 58015 60333 8322/ 22200 02279 2//05 333 58011 83895 8849 9
AAXX 03061 48916 32998 70502 10293 20220 30038 40084 58015 80008 333 59003 87299
AAXX 03061 48914 32598 70702 10287 20233 30083 40085 57021 86201 333 58004 86895
AAXX 03061 48900 32497 63004 10290 20210 30068 40078 57020 862// 333 58009 86894
AAXX 03061 48917 32598 60504 10291 20205 30087 40093 57013 81208 222// 00309 2//00 333 59003 81895 86299
AAXX 03061 48918 32470 70705 10284 20215 30085 40096 58014 872// 222// 00288 2//02 333 58009 82894 86895
AAXX 03064 87692 32960 00000 10104 20088 30158 40183 57007 555 10182
AAXX 03061 26106 12/97 22003 10012 21003 40055 52016 60012 81501 333 20012
AAXX 03061 26313 33/// /2303 10033 21013 40032 52016 333 20033 91112
AAXX 03061 26346 12997 02503 10004 21002 40037 52022 69952 333 20004
AAXX 03061 26406 12597 52505 10057 21002 40061 52010 69932 85500 333 20052 85630 91010 91113
AAXX 03061 26416 33/// /2202 10005 21010 40063 52016 333 20005
AAXX 03061 26424 12497 32303 10015 21007 40060 52016 69972 83500 333 20015
AAXX 03061 26544 11597 62503 10026 20009 40076 52021 60042 70282 84301 333 20026
AAXX 03064 16206 11562 51309 10128 20102 30190 40199 56006 69982 70362 84130 333 20118 32/// 84820
AAXX 03064 08430 11560 71701 10110 20089 30121 40196 53005 60082 72065 83871 333 20094 31008 50151 55030 70131
AAXX 03061 02019 07/99 /2702 11069 21093 39200 49818 58010 60022 70087 333 11010 21079 60005 70139 90710 91105
AAXX 03061 02081 05/83 /2402 11059 21082 39422 49823 51015 69992 333 10008 21060 60005 70031 90710 91106
AAXX 03061 02095 05999 /1901 11036 21044 39634 49836 51017 60012 333 10014 21036 60005 70016 86/67 90710 91103
AAXX 03061 02101 45984 /1002 11060 21085 39273 49828 58030 8//// 333 11014 21095
AAXX 03061 02119 05999 /3202 11089 21108 39457 49844 50000 60002 333 10024 21105 60005 70001 87/70 90710 91105
AAXX 03061 02124 05/99 /1602 11055 21071 39326 49849 58013 60002 333 11004 21092 60005 70001 90710 91106
AAXX 03061 02126 05/99 /1301 11056 21064 39522 49859 58017 60002 333 10006 21077 60005 70000 90710 91103
AAXX 03061 02151 35984 00000 11084 21088 39516 49853 53008 60002 333 10026 21088 60005 70000 91000 90710 91102 90710 91202
AAXX 03061 02186 35984 02704 11017 21051 39836 49861 52017 60002 333 10035 21026 60005 70000 91006 90710 91106 90710 91204
AAXX 03061 02197 07/63 /2802 11014 21036 39828 49846 52018 69952 70061 333 10037 21015 60005 70005 90710 91103
AAXX 03061 02207 07980 ///// 11014 21063 39105 49791 58037 69902 72187 333 11014 21056 69905 70045 87/67
AAXX 03061 02219 05/65 /0802 11043 21081 39160 49821 58035 69912 333 11025 21077 60005 70033 90710 91108
AAXX 03061 02226 45984 /1606 11024 21094 39397 49847 56031 8//// 333 11002 21026
AAXX 03061 02243 07/56 /0701 11062 21070 39602 49871 58023 60002 71010 333 11005 21065 60005 70000 90710 91102
AAXX 03061 02269 05/83 /2109 10029 21005 60002 333 10029 20005 60005 70000 90710 91111
AAXX 03061 02287 05/80 /2507 10007 21022 39879 49889 50003 60002 333 10027 20004 60005 70000 90710 91109
AAXX 03061 02297 05/99 /2706 11009 21039 39835 49880 51015 60002 333 10030 21009 60005 70000 90710 91110
AAXX 03061 02308 05499 /1903 11045 21066 38991 49844 58038 60002 333 11045 21083 60005 70000 88/12 90710 91110
AAXX 03061 02327 05/99 /0702 11031 21073 39449 49883 58032 60002 333 11020 21112 60005 70000 90710 91105
AAXX 03061 02355 05/99 /1904 11009 21056 39909 49922 57012 60002 333 10014 21012 60005 70000 90710 91105
AAXX 03061 02366 47948 /1001 11066 21072 39898 49904 57015 710// 8//// 333 10006 21067
AAXX 03061 02407 07483 /1706 11008 21019 39531 49897 58043 69912 72487 333 11008 21103 69915 70001 87/10 90710 91110
AAXX 03061 02418 45481 /1807 10037 20021 39784 49914 56047 8//// 333 10037 21067 85/10 88/20
AAXX 03061 02435 45984 /1202 11032 21060 39744 49933 58026 8//// 333 11007 21049
AAXX 03061 02440 05/99 /2301 11027 21066 60002 333 11004 21090 60005 70000 90710 91106
AAXX 03061 02452 07680 /2003 11013 21017 60002 70010 333 11013 21037 60005 70000 87/42 90710 91105
AAXX 03061 02456 05/83 /2002 11041 21054 39920 49963 58009 60002 333 11019 21051 60005 70000 90710 91104
AAXX 03061 02469 05/99 /1702 11027 21036 60002 333 11004 21040 60005 70000 90710 91104
AAXX 03061 02498 05/99 /2309 10022 21002 39967 49984 58002 60002 333 10026 20015 60005 70000 90710 91112
AAXX 03061 02518 464// /1917 10071 20048 333 10075 20054 85/17 90710 91121
AAXX 03061 02520 07459 81707 10032 20017 39857 49924 58049 69922 76150 333 10033 21029 69925 70007 81/12 85/22 88/31 91010 90710 91110 90710 91207
AAXX 03061 02550 47264 /1805 10019 20019 39691 49966 56036 781// 8//// 333 10019 21014 81/05 83/08 85/10 88/12
AAXX 03061 02562 35483 61704 11003 21008 39859 49975 58031 60002 333 10012 21027 60005 70000 82/12 86/18 91005 90710 91106 90710 91204
AAXX 03061 02563 05/82 /1907 10019 20009 39969 49992 58018 60002 333 10024 20007 60005 70000 90710 91111
AAXX 03061 02565 07370 /1703 10027 20017 39879 49999 58025 60002 70010 333 10028 21043 60005 70004 88/09 90710 91106
AAXX 03061 02589 05583 /2407 10035 21005 39985 40006 50000 60002 333 10039 20026 60005 70002 90710 91112
AAXX 03061 02590 45681 /2005 10017 20010 39957 40019 58009 8//// 333 10042 20005 85/48
AAXX 03061 02618 07/61 /2006 10043 20037 39811 49974 58035 60012 70086 333 10045 20009 60005 70037 90710 91112
AAXX 03061 02664 32470 62204 10050 20030 39956 40027 58022 60002 86500 333 10053 20009 32/// 60005 70016 86616 91007 90710 91110 90710 91206
AAXX 03061 02679 05677 /2208 10050 20041 39989 40034 58012 60002 333 10051 20032 60005 70051 87/47 90710 91111
AAXX 03064 17320 12970 03604 10126 20043 30246 40251 52016 60002 333 20105 30008 50191 55078 92428
AAXX 03061 11813 11008 80000 11016 21016 39846 40208 51003 69912 74254 886// 333 21019 35102 70008 88701 93608
AAXX 03061 06447 16/// /2107 10062 20045 39946 40071 57035 60012 333 20057 3/004 91117 91209
AAXX 03063 91551 31598 70000 10285 20258 4//// 5//// 70226 8323/ 333 5699/ 83820 87362
AAXX 03063 91553 NIL
AAXX 03063 91554 11498 83205 10255 20246 40071 53002 69991 78082 888// 333 567// 69991 83818 88640
AAXX 03063 91555 31598 70000 10283 20257 40074 54000 70222 8223/ 333 5639/ 82825 87362
AAXX 03063 91557 11498 70908 10259 20245 40065 53010 60021 78022 8587/ 333 5629/ 60021 84818 85640 87460
AAXX 03063 91565 NIL
AAXX 03063 91568 31598 21010 10294 20230 40094 53002 70111 82100 333 563// 82826
AAXX 03061 14008 11/91 90509 11024 21027 37470 47028 55002 60142 77374 333 21025 44052 50007 70135 92874 93112 95190
AAXX 03061 06431 16/// /2109 10071 20061 30032 40044 56039 60022 333 20066 3/004 91117 91210
AAXX 03064 60715 12560 51808 10123 20102 30210 40217 53003 69914 83282 333 20121 59041 70001 83826 83360 91009 91110
AAXX 03064 60723 11920 20000 10071 20071 30042 40236 53005 60004 710// 80002 333 20071 82070
AAXX 03064 60725 11440 41102 10069 2//// 30050 40233 58002 60004 71000 83202 333 20069 83713
AAXX 03064 60735 12556 12402 10112 20096 30139 40222 56004 60004 81202 333 20111 81823
AAXX 03064 60745 12560 40407 10086 20077 39853 40231 53004 60004 84200 333 20078 84826
AAXX 03064 60748 13558 21804 10081 20081 39808 40235 58003 60004 710// 82200 333 20075 82823
AAXX 03064 60750 12656 23402 10102 20088 30199 40225 53003 60004 82500 333 20103 82633
AAXX 03064 60760 12560 21109 10125 20084 30111 40216 53002 60004 82200 333 20124 70000 82830 91012 91113
AAXX 03064 60765 13950 02902 10119 20113 30231 40235 51006 60004 333 20118 92426 925//
AAXX 03064 60767 12557 30000 10084 20076 30077 40225 54000 60004 70340 83500 333 20084 83630
AAXX 03064 60769 12450 11506 10120 20101 30214 40218 53004 60004 81800 333 20117 81816
AAXX 03061 02464 45983 /1702 11010 21025 39961 49979 58010 8//// 333 10011 21031
AAXX 03061 02500 07464 /1816 10066 20036 39830 49872 58059 69902 70086 333 10069 20035 60005 70000 83/19 90710 91121
AAXX 03061 02513 05/66 /1806 10070 20041 39922 49927 58051 60002 333 10070 20042 60005 70004 90710 91113
AAXX 03061 02615 05463 /2114 10054 20034 30013 40017 58034 60002 333 10060 20051 60005 70035 85/14 86/61 90710 91119
AAXX 03061 02635 07/62 /2105 10053 20035 60002 70010 333 10055 20040 60005 70036 90710 91111
AAXX 03064 08231 12970 02801 10031 20008 39133 48524 50007 60002 333 20030 31002 50104 55029 70034
AAXX 03061 26509 11470 32506 10061 21005 30069 40078 52007 69962 70181 83200 333 20048 31/// 91010 91117 555 53017 7005/
AAXX 03064 60715 12560 51808 10123 20102 30210 40217 53003 69914 83282 333 20121 59041 70001 83826 83360 91009 91110
AAXX 03064 60723 11920 20000 10071 20071 30042 40236 53005 60004 710// 80002 333 20071 82070
AAXX 03064 60725 11440 41102 10069 2//// 30050 40233 58002 60004 71000 83202 333 20069 83713
AAXX 03064 60735 12556 12402 10112 20096 30139 40222 56004 60004 81202 333 20111 81823
AAXX 03064 60745 12560 40407 10086 20077 39853 40231 53004 60004 84200 333 20078 84826
AAXX 03064 60748 13558 21804 10081 20081 39808 40235 58003 60004 710// 82200 333 20075 82823
AAXX 03064 60750 12656 23402 10102 20088 30199 40225 53003 60004 82500 333 20103 82633
AAXX 03064 60760 12560 21109 10125 20084 30111 40216 53002 60004 82200 333 20124 70000 82830 91012 91113
AAXX 03064 60765 13950 02902 10119 20113 30231 40235 51006 60004 333 20118 92426 925//
AAXX 03064 60767 12557 30000 10084 20076 30077 40225 54000 60004 70340 83500 333 20084 83630
AAXX 03064 60769 12450 11506 10120 20101 30214 40218 53004 60004 81800 333 20117 81816
AAXX 03063 91551 31598 70000 10285 20258 4//// 5//// 70226 8323/ 333 5699/ 83820 87362
AAXX 03063 91553 NIL
AAXX 03063 91554 11498 83205 10255 20246 40071 53002 69991 78082 888// 333 567// 69991 83818 88640
AAXX 03063 91555 31598 70000 10283 20257 40074 54000 70222 8223/ 333 5639/ 82825 87362
AAXX 03063 91557 11498 70908 10259 20245 40065 53010 60021 78022 8587/ 333 5629/ 60021 84818 85640 87460
AAXX 03063 91565 NIL
AAXX 03063 91568 31598 21010 10294 20230 40094 53002 70111 82100 333 563// 82826
AAXX 03064 91925 06/// /3402 10236 20187 30076 40137 52019 60001 333 55053 60007 90710 91108 555 60005 13008 58014
AAXX 03064 91929 04/75 /0612 10273 20233 30126 40129 51019 60002 700// 333 10301 20272 55/// 60007 70000 90710 91115 555 60005
AAXX 03064 91938 02570 60903 10275 20190 30138 40140 53021 69962 86800 333 10304 20258 30/// 55093 60007 70006 81820 86658 90710 91115 555 60005 10517 58013
AAXX 03064 91943 16/// /0809 10264 20216 30133 40135 51018 60014 333 20261 58008
AAXX 03064 91944 06/// /0523 10240 20205 30158 40161 52024 60012 333 10284 20238 55111 60017 70012 90710 91131 555 60015
AAXX 03064 91948 06/// /0204 10229 20199 30089 40192 51015 60001 333 55092 60007 90710 91109 555 60005 10209 58002
AAXX 03064 91954 06/// /1704 1//// 2//// 30153 4//// 50017 60011 333 55/// 60017 555 58004
AAXX 03064 91958 06/// /1506 10195 20180 30172 40174 53009 60121 333 55005 60077 90710 91111 555 60025 11916 58007
AAXX 03064 91945 36/// /0510 10264 20216 30153 40158 51017 555 58010 69924
AAXX 03064 88963 NIL
AAXX 03064 88968 11420 83230 10006 21002 39874 49889 56005 60071 76876 8772/ 333 56779 87710 88530 90061 90090 90215 90295 90315 90952 92434 92734 92801 93007 93102 94075 95065 96010 96122
AAXX 03064 89034 32970 02012 11114 21202 39546 49868 53005 333 92407 92830
AAXX 03064 89053 31460 32720 10000 21014 39993 40007 52039 71000 82570 333 56600 82610 90061 90084 92417 92851 94073 94477 95003 97520 98560
AAXX 03064 89055 31/00 92016 11037 21045 39708 49954 52047 74740 333 90005 90076 92700 92840 95199
AAXX 03064 89066 32570 83206 10002 21023 39961 49970 52024 886// 333 56199 86725 88728 92407 92731 92851 94072 95012
AAXX 03063 NIL
AAXX 03064 68014 12289 73406 10207 20161 38607 48523 5//// 69974 85582 333 20201 555 1//// 20007 91020
AAXX 03064 68110 32889 21604 10226 21019 38276 48493 52008 81082 333 20192 91010 555 10343 91019
AAXX 03064 68300 36/// /1718 10160 20097 39965 40115 52006 333 20126 91023 555 10236 91011
AAXX 03064 68004 36/// /0905 10220 20086 38540 48495 52012 333 20185 91007 555 10344 91017
AAXX 03064 68006 31489 70306 10222 20192 38916 48495 53008 71522 84980 333 20221 555 10333 91014
AAXX 03064 68010 36/// /0000 10223 20067 38916 48518 52013 333 20183 91004 555 10338 91017
AAXX 03064 68018 16/// /3003 10206 20174 38910 48513 52005 60054 333 20191 91005 555 10307 20052 91017
AAXX 03064 68098 32589 81112 10137 20114 30027 40136 56000 88500 333 20130 91014 555 10227 91013
AAXX 03064 68102 36/// /1204 10225 21043 38739 48491 52011 333 20165 91008 555 10351 91015
AAXX 03064 68112 32989 21811 10236 21026 38330 48510 53006 80002 333 20152 91019 555 10341 91020
AAXX 03064 68116 36/// /3303 10249 20090 38565 48514 52007 333 20185 91006 555 10336 91019
AAXX 03064 68212 36/// /1608 10257 20026 38909 48530 53002 333 20198 91018 555 10389 91018
AAXX 03064 68312 36/// /2204 10226 20088 38962 48527 53007 333 20170 91006 555 10363 91018
AAXX 03064 94102 46/// /0208 10314 20257 30041 40050
AAXX 03064 94103 NIL
AAXX 03064 94120 46/// /1913 10310 20230 39997 40037
AAXX 03064 94122 NIL
AAXX 03064 94131 46/// /2309 10327 20198 39888 40038
AAXX 03064 94132 NIL
AAXX 03064 94147 NIL
AAXX 03064 94150 46/// /0609 10307 20228 39974 40033
AAXX 03064 94151 46/// /0917 10284 20233 30029 4////
AAXX 03064 94170 46/// /3507 10280 20247 30025 40047
AAXX 03064 94200 NIL
AAXX 03064 94203 46/// /2713 10351 20220 30039 40049
AAXX 03064 94206 46/// /1706 10343 20191 39915 40043
AAXX 03064 94207 46/// /2112 10284 30048 40056 56013
AAXX 03064 94211 NIL
AAXX 03064 94212 46/// /1902 10315 20169 39575 40036
AAXX 03064 94216 46/// /0906 10321 20211 39995 40045
AAXX 03064 94236 NIL
AAXX 03064 94238 46/// /1408 10191 20160 39681 40095
AAXX 03064 94248 NIL
AAXX 03064 94255 46/// /3207 10326 20168 39782 40037
AAXX 03064 94268 46/// /1304 10276 20244 30039 40051
AAXX 03064 94287 46/// /1110 10290 20232 30065 40074
AAXX 03064 94290 NIL
AAXX 03064 94294 46/// /0812 10284 20223 30079 40089
AAXX 03064 94296 35/// /1411 10274 30054 40064 57005
AAXX 03064 94298 46/// /1316 10266 30071 40077 55005
AAXX 03064 95641 NIL
AAXX 03064 94299 46/// /1314 10292 2//// 30056 40066
AAXX 03064 94300 46/// /2915 10287 20202 30053 40063
AAXX 03064 94302 46/// /0410 10309 20166 30058 40064
AAXX 03064 94312 46/// /3618 10320 20209 30047 40056
AAXX 03064 94313 NIL
AAXX 03064 94317 46/// /3610 10336 20096 39478 40047
AAXX 03064 94319 46/// /1110 10337 20115 39729 40051
AAXX 03064 94324 NIL
AAXX 03064 94326 46/// /1813 10213 20062 39507 40110
AAXX 03064 94327 46/// /1508 10304 21003 39719 40083
AAXX 03064 94332 46/// /0207 10342 20145 39657 40032
AAXX 03064 94333 NIL
AAXX 03064 94341 46/// /1106 10362 20136 39810 40038
AAXX 03064 94346 46/// /0609 10329 20147 39854 40068
AAXX 03064 94363 46/// /0808 10310 20162 39881 40094
AAXX 03064 94366 NIL
AAXX 03064 94367 46/// /1214 10274 20214 30061 40102
AAXX 03064 94374 46/// /0811 10284 20169 30097 40113
AAXX 03064 94388 46/// /1322 10249 20177 30125 40130
AAXX 03064 94393 46/// /1420 10262 30072 40084 56005
AAXX 03064 94394 46/// /1428 10247 30095 40103 56007
AAXX 03064 94403 46/// /2119 10338 20085 30014 40055
AAXX 03064 94429 46/// /0709 10334 20023 39623 40075
AAXX 03064 94430 46/// /0108 10321 20037 39497 40065
AAXX 03064 94449 46/// /0915 10305 20010 39593 40111
AAXX 03064 94451 NIL
AAXX 03064 94461 46/// /1013 10247 20018 39444 40099
AAXX 03064 94462 46/// /1505 10239 20058 39575 40119
AAXX 03064 94477 NIL
AAXX 03064 94488 NIL
AAXX 03064 89564 41780 61120 10000 21060 39817 49837 51007 71522 84570
AAXX 03064 89570 46/// /1108 11044 21142 39188 53006
AAXX 03064 89571 41775 73511 11002 21099 39826 49854 56002 70222 81538
AAXX 03064 89573 35970 70907 11006 21138 39835 49857 57002 80002
AAXX 03064 89610 NIL
AAXX 03064 89611 41580 73513 11020 21060 39815 49867 56006 70322 83570
AAXX 03064 89614 NIL
AAXX 03064 89615 468// 73609 11055 21118 38965 56004
AAXX 03064 89807 NIL
AAXX 03064 89809 46/// /0115 11051 21069 39411 56005
AAXX 03064 41024 42660 23506 10240 20160 30138 40158 81530 333 20190 58003 81640
AAXX 03064 41030 42660 60302 10232 20170 39873 40146 86400 333 20210 59002 86640
AAXX 03064 41036 42560 10703 10156 20110 38577 48526 81100 333 20090 59008 81830 555 04410 50143
AAXX 03064 41055 42960 01105 10148 20080 38379 48527 333 20080 59011 555 04410 50168
AAXX 03064 41061 42960 01014 10133 20020 39494 40218 333 20060 59016
AAXX 03064 41084 42960 00000 10143 20040 38886 48535 333 20074 59014 555 04410 50169
AAXX 03064 41112 42960 01708 10149 20110 37963 48533 333 20078 59006 555 04410 50182
AAXX 03064 41114 42960 01708 10142 20110 37997 48533 333 20075 59006 555 04410 50181
AAXX 03064 41128 42960 01106 10140 21020 38855 48553 333 20070 59013 555 04410 50210
AAXX 03064 41136 42960 00707 10154 21010 39377 40206 333 20065 59014
AAXX 03064 41140 42960 00000 10296 20210 30136 40142 333 20238 59013
BBXX FHZI 03044 99643 31371 46/// /2629 11027 21073 39853 49864 52012 22200 05011 86042
BBXX FHZI 03054 99643 31371 46/// /2628 11030 21065 39854 49865 52009 22200 05011 86041
AAXX 03064 94893 46/// /2720 10154 20123 30041 40156
AAXX 03064 94907 46/// /2616 10196 20091 30151 40161
AAXX 03064 94910 46/// /1602 10254 20071 39886 40131
AAXX 03064 94926 46/// /3316 10234 20076 39469 40125
AAXX 03064 94935 46/// /1814 10159 20104 30134 40160
AAXX 03064 94954 46/// /2134 10126 20048 30058 40169
AAXX 03064 94956 46/// /2014 10103 20066 30145 40171
AAXX 03064 94975 46/// /2118 10122 20048 30094 40126
AAXX 03064 94983 46/// /2924 10186 20080 30074 40099
AAXX 03064 94995 46/// /0910 10205 20114 30153 40161
AAXX 03064 94996 46/// /0207 10220 20208 30000 40128
AAXX 03064 94997 NIL
AAXX 03064 94998 46/// /0216 10057 20050 39966 49976
AAXX 03064 95111 46/// /1204 10334 20215 30004 40040
AAXX 03064 95205 46/// /3011 10365 20190 30034 40041
AAXX 03064 95322 NIL
AAXX 03064 95448 46/// /1012 10308 21008 39536 40086
AAXX 03064 95458 46/// /0913 10308 21030 39873 40129
AAXX 03064 95480 46/// /1709 10320 21021 30073 40131
AAXX 03064 95481 46/// /1309 10339 20027 30065 40109
AAXX 03064 95482 46/// /1610 10346 20042 30031 40085
AAXX 03064 95485 46/// /3104 10309 20022 39919 40119
AAXX 03064 95492 46/// /1409 10314 20007 39959 40110
AAXX 03064 95527 46/// /0503 10266 20082 39883 40131
AAXX 03064 95634 46/// /0412 10304 20026 39728 40122
AAXX 03064 95637 46/// /0907 10293 20031 39806 40134
AAXX 03064 95646 46/// /1216 10291 20087 39973 40157
AAXX 03064 95666 NIL
AAXX 03064 95719 46/// /1303 10250 20072 39814 40138
AAXX 03064 95762 46/// /2203 10241 20059 39687 40135
AAXX 03064 95826 NIL
AAXX 03064 95839 46/// /1914 10233 20057 30011 40168
AAXX 03064 95864 NIL
AAXX 03064 95909 NIL
AAXX 03064 95954 NIL
AAXX 03064 95966 46/// /2914 10180 20015 39909 40107
AAXX 03064 96995 46/// /2003 10258 20239 39793 40087
AAXX 03064 96996 41460 81013 10256 20244 30054 40058 58014 76188 8452/
AAXX 03064 94500 NIL
AAXX 03064 94510 46/// /0609 10303 20127 39751 40090
AAXX 03064 94515 46/// /0907 10279 20106 39762 40104
AAXX 03064 94552 46/// /0608 10262 20095 39668 40127
AAXX 03064 94578 46/// /1212 10241 20124 30139 40150
AAXX 03064 94584 46/// /1424 10230 20126 30030 40139
AAXX 03064 94601 46/// /1313 10246 20179 30106 40123
AAXX 03064 94610 46/// /1010 10349 20012 30069 40092
AAXX 03064 94637 46/// /0707 10293 20023 39714 40132
AAXX 03064 94638 46/// /1220 10226 20111 30149 40181
AAXX 03064 94642 NIL
AAXX 03064 94643 NIL
AAXX 03064 94647 46/// /1315 10207 20114 30075 40195
AAXX 03064 94651 46/// /1424 10212 20112 30107 40183
AAXX 03064 94653 46/// /1825 10206 20113 30162 40180
AAXX 03064 94659 46/// /1911 10303 21068 39951 40142
AAXX 03064 94672 46/// /1617 10225 20074 30178 40188
AAXX 03064 94691 46/// /2111 10290 20015 39814 40135
AAXX 03064 94693 46/// /1708 10289 20021 30084 40145
AAXX 03064 94700 NIL
AAXX 03064 94703 46/// /0705 10291 20059 30001 40124
AAXX 03064 94710 46/// /2107 10285 20047 39879 40126
AAXX 03064 94729 46/// /2408 10207 20059 39296 40131
AAXX 03064 94750 46/// /0811 10210 20122 30021 40144
AAXX 03064 94767 46/// /0717 10215 20091 30151 40157
AAXX 03064 94776 46/// /1013 10207 20103 30156 40166
AAXX 03064 94791 NIL
AAXX 03064 94802 46/// /0817 10239 20126 30083 40165
AAXX 03064 94804 46/// /1721 10175 20106 30175 40213
AAXX 03064 94807 NIL
AAXX 03064 94821 46/// /2113 10139 20107 30131 40213
AAXX 03064 94842 46/// /2117 10134 20077 30098 40197
AAXX 03064 94847 NIL
AAXX 03064 94850 46/// /2120 10143 20061 30140 40186
AAXX 03064 94865 46/// /1613 10172 20110 30161 40185
AAXX 03064 94866 46/// /1713 10173 20090 30040 40179
AAXX 03064 94875 46/// /1914 10241 20073 30009 40142
AAXX 03064 40356 42960 00904 10050 21120 39246 48529 333 21010 59007 555 04410 50249
AAXX 03064 40357 42960 02803 10051 21090 39594 40254 333 20001 59014
AAXX 03064 40360 42960 02504 10028 21080 39639 40240 333 21020 59005
AAXX 03064 40361 42960 30000 10064 21140 39449 40242 83030 333 20034 59017 83360
AAXX 03064 40362 42660 41203 10077 21100 39706 40235 84500 333 20018 59018 84640
AAXX 03064 40373 NIL
AAXX 03064 40375 42960 02804 10080 21050 39326 40218 333 20040 58000
AAXX 03064 40377 NIL
AAXX 03064 40394 42660 22102 10094 20030 39067 48535 82500 333 20048 59028 82640 555 04410 50212
AAXX 03064 40400 42960 00503 10174 20060 30145 40173 333 20140 59003
AAXX 03064 40401 42960 00604 10140 20010 39483 40193 333 20100 59011
AAXX 03064 40405 42960 50000 10100 20060 39472 40232 85030 333 20060 5902285360
AAXX 03064 40416 42960 03114 10140 20060 30170 40190 333 20090 59014
AAXX 03064 40417 42960 03016 10135 20030 30194 40209 333 20089 59013
AAXX 03064 40420 42960 03216 10134 20000 30004 40217 333 20072 59011
AAXX 03064 40430 42660 20108 10168 20040 39452 40176 81530 333 20140 59023 81645
AAXX 03064 40435 42960 01510 10100 20020 39157 40230 333 20050 58004
AAXX 03064 40437 42960 00000 10112 20020 39516 40237 333 20043 59018
AAXX 03064 40438 NIL
AAXX 03064 40439 42960 00000 10170 20100 30141 40151 333 20130 58001
AAXX 03064 91375 NIL
AAXX 03064 91519 NIL
AAXX 03064 91531 NIL
AAXX 03064 91532 45/// /0805 10294 20238 30056 40064 52014
AAXX 03064 91559 NIL
AAXX 03064 91611 NIL
AAXX 03064 91642 NIL
AAXX 03064 91679 NIL
AAXX 03064 91689 NIL
AAXX 03064 91756 NIL
AAXX 03064 91844 NIL
AAXX 03064 92036 NIL
AAXX 03064 93713 NIL
AAXX 03064 94500 NIL
AAXX 03064 94510 46/// /0609 10303 20127 39751 40090
AAXX 03064 94515 46/// /0907 10279 20106 39762 40104
AAXX 03064 94552 46/// /0608 10262 20095 39668 40127
AAXX 03064 94578 46/// /1212 10241 20124 30139 40150
AAXX 03064 94584 46/// /1424 10230 20126 30030 40139
AAXX 03064 94601 46/// /1313 10246 20179 30106 40123
AAXX 03064 94610 46/// /1010 10349 20012 30069 40092
AAXX 03064 94637 46/// /0707 10293 20023 39714 40132
AAXX 03064 94638 46/// /1220 10226 20111 30149 40181
AAXX 03064 94642 NIL
AAXX 03064 94643 NIL
AAXX 03064 94647 46/// /1315 10207 20114 30075 40195
AAXX 03064 94651 46/// /1424 10212 20112 30107 40183
AAXX 03064 94653 46/// /1825 10206 20113 30162 40180
AAXX 03064 94659 46/// /1911 10303 21068 39951 40142
AAXX 03064 94672 46/// /1617 10225 20074 30178 40188
AAXX 03064 94691 46/// /2111 10290 20015 39814 40135
AAXX 03064 94693 46/// /1708 10289 20021 30084 40145
AAXX 03064 94700 NIL
AAXX 03064 94703 46/// /0705 10291 20059 30001 40124
AAXX 03064 94710 46/// /2107 10285 20047 39879 40126
AAXX 03064 94729 46/// /2408 10207 20059 39296 40131
AAXX 03064 94750 46/// /0811 10210 20122 30021 40144
AAXX 03064 94767 46/// /0717 10215 20091 30151 40157
AAXX 03064 94776 46/// /1013 10207 20103 30156 40166
AAXX 03064 94791 NIL
AAXX 03064 94802 46/// /0817 10239 20126 30083 40165
AAXX 03064 94804 46/// /1721 10175 20106 30175 40213
AAXX 03064 94807 NIL
AAXX 03064 94821 46/// /2113 10139 20107 30131 40213
AAXX 03064 94842 46/// /2117 10134 20077 30098 40197
AAXX 03064 94847 NIL
AAXX 03064 94850 46/// /2120 10143 20061 30140 40186
AAXX 03064 94865 46/// /1613 10172 20110 30161 40185
AAXX 03064 94866 46/// /1713 10173 20090 30040 40179
AAXX 03064 94875 46/// /1914 10241 20073 30009 40142
AAXX 03064 89564 41780 61120 10000 21060 39817 49837 51007 71522 84570
AAXX 03064 89570 46/// /1108 11044 21142 39188 53006
AAXX 03064 89571 41775 73511 11002 21099 39826 49854 56002 70222 81538
AAXX 03064 89573 35970 70907 11006 21138 39835 49857 57002 80002
AAXX 03064 89610 NIL
AAXX 03064 89611 41580 73513 11020 21060 39815 49867 56006 70322 83570
AAXX 03064 89614 NIL
AAXX 03064 89615 468// 73609 11055 21118 38965 56004
AAXX 03064 89807 NIL
AAXX 03064 89809 46/// /0115 11051 21069 39411 56005
AAXX 03064 94102 46/// /0208 10314 20257 30041 40050
AAXX 03064 94103 NIL
AAXX 03064 94120 46/// /1913 10310 20230 39997 40037
AAXX 03064 94122 NIL
AAXX 03064 94131 46/// /2309 10327 20198 39888 40038
AAXX 03064 94132 NIL
AAXX 03064 94147 NIL
AAXX 03064 94150 46/// /0609 10307 20228 39974 40033
AAXX 03064 94151 46/// /0917 10284 20233 30029 4////
AAXX 03064 94170 46/// /3507 10280 20247 30025 40047
AAXX 03064 94200 NIL
AAXX 03064 94203 46/// /2713 10351 20220 30039 40049
AAXX 03064 94206 46/// /1706 10343 20191 39915 40043
AAXX 03064 94207 46/// /2112 10284 30048 40056 56013
AAXX 03064 94211 NIL
AAXX 03064 94212 46/// /1902 10315 20169 39575 40036
AAXX 03064 94216 46/// /0906 10321 20211 39995 40045
AAXX 03064 94236 NIL
AAXX 03064 94238 46/// /1408 10191 20160 39681 40095
AAXX 03064 94248 NIL
AAXX 03064 94255 46/// /3207 10326 20168 39782 40037
AAXX 03064 94268 46/// /1304 10276 20244 30039 40051
AAXX 03064 94287 46/// /1110 10290 20232 30065 40074
AAXX 03064 94290 NIL
AAXX 03064 94294 46/// /0812 10284 20223 30079 40089
AAXX 03064 94296 35/// /1411 10274 30054 40064 57005
AAXX 03064 94298 46/// /1316 10266 30071 40077 55005
AAXX 03064 95641 NIL
AAXX 03064 94893 46/// /2720 10154 20123 30041 40156
AAXX 03064 94907 46/// /2616 10196 20091 30151 40161
AAXX 03064 94910 46/// /1602 10254 20071 39886 40131
AAXX 03064 94926 46/// /3316 10234 20076 39469 40125
AAXX 03064 94935 46/// /1814 10159 20104 30134 40160
AAXX 03064 94954 46/// /2134 10126 20048 30058 40169
AAXX 03064 94956 46/// /2014 10103 20066 30145 40171
AAXX 03064 94975 46/// /2118 10122 20048 30094 40126
AAXX 03064 94983 46/// /2924 10186 20080 30074 40099
AAXX 03064 94995 46/// /0910 10205 20114 30153 40161
AAXX 03064 94996 46/// /0207 10220 20208 30000 40128
AAXX 03064 94997 NIL
AAXX 03064 94998 46/// /0216 10057 20050 39966 49976
AAXX 03064 95111 46/// /1204 10334 20215 30004 40040
AAXX 03064 95205 46/// /3011 10365 20190 30034 40041
AAXX 03064 95322 NIL
AAXX 03064 95448 46/// /1012 10308 21008 39536 40086
AAXX 03064 95458 46/// /0913 10308 21030 39873 40129
AAXX 03064 95480 46/// /1709 10320 21021 30073 40131
AAXX 03064 95481 46/// /1309 10339 20027 30065 40109
AAXX 03064 95482 46/// /1610 10346 20042 30031 40085
AAXX 03064 95485 46/// /3104 10309 20022 39919 40119
AAXX 03064 95492 46/// /1409 10314 20007 39959 40110
AAXX 03064 95527 46/// /0503 10266 20082 39883 40131
AAXX 03064 95634 46/// /0412 10304 20026 39728 40122
AAXX 03064 95637 46/// /0907 10293 20031 39806 40134
AAXX 03064 95646 46/// /1216 10291 20087 39973 40157
AAXX 03064 95666 NIL
AAXX 03064 95719 46/// /1303 10250 20072 39814 40138
AAXX 03064 95762 46/// /2203 10241 20059 39687 40135
AAXX 03064 95826 NIL
AAXX 03064 95839 46/// /1914 10233 20057 30011 40168
AAXX 03064 95864 NIL
AAXX 03064 95909 NIL
AAXX 03064 95954 NIL
AAXX 03064 95966 46/// /2914 10180 20015 39909 40107
AAXX 03064 96995 46/// /2003 10258 20239 39793 40087
AAXX 03064 96996 41460 81013 10256 20244 30054 40058 58014 76188 8452/
AAXX 03064 94299 46/// /1314 10292 2//// 30056 40066
AAXX 03064 94300 46/// /2915 10287 20202 30053 40063
AAXX 03064 94302 46/// /0410 10309 20166 30058 40064
AAXX 03064 94312 46/// /3618 10320 20209 30047 40056
AAXX 03064 94313 NIL
AAXX 03064 94317 46/// /3610 10336 20096 39478 40047
AAXX 03064 94319 46/// /1110 10337 20115 39729 40051
AAXX 03064 94324 NIL
AAXX 03064 94326 46/// /1813 10213 20062 39507 40110
AAXX 03064 94327 46/// /1508 10304 21003 39719 40083
AAXX 03064 94332 46/// /0207 10342 20145 39657 40032
AAXX 03064 94333 NIL
AAXX 03064 94341 46/// /1106 10362 20136 39810 40038
AAXX 03064 94346 46/// /0609 10329 20147 39854 40068
AAXX 03064 94363 46/// /0808 10310 20162 39881 40094
AAXX 03064 94366 NIL
AAXX 03064 94367 46/// /1214 10274 20214 30061 40102
AAXX 03064 94374 46/// /0811 10284 20169 30097 40113
AAXX 03064 94388 46/// /1322 10249 20177 30125 40130
AAXX 03064 94393 46/// /1420 10262 30072 40084 56005
AAXX 03064 94394 46/// /1428 10247 30095 40103 56007
AAXX 03064 94403 46/// /2119 10338 20085 30014 40055
AAXX 03064 94429 46/// /0709 10334 20023 39623 40075
AAXX 03064 94430 46/// /0108 10321 20037 39497 40065
AAXX 03064 94449 46/// /0915 10305 20010 39593 40111
AAXX 03064 94451 NIL
AAXX 03064 94461 46/// /1013 10247 20018 39444 40099
AAXX 03064 94462 46/// /1505 10239 20058 39575 40119
AAXX 03064 94477 NIL
AAXX 03064 94488 NIL
AAXX 03064 41241 32960 02002 10261 20091 30131 40166 333 00029 20183 59014
AAXX 03064 41242 36/// /1808 10257 20124 30151 40175 333 0E021 20194 59016
AAXX 03064 41244 NIL
AAXX 03064 41246 32960 02902 10252 20174 30158 40162 333 20187 59016
AAXX 03064 41251 32965 00104 10192 21159 38054 40117 333 20103 3/009 58001
AAXX 03064 41252 32960 02603 10216 20114 39788 40160 333 20120 58000
AAXX 03064 41253 36/// /3604 10230 20163 39792 40175 333 0E017 20162 59019
AAXX 03064 41254 NIL
AAXX 03064 41255 NIL
AAXX 03064 41256 32970 02705 10251 20166 30153 40163 333 20196 3/021 59017
AAXX 03064 41257 NIL
AAXX 03064 41258 NIL
AAXX 03064 41259 NIL
AAXX 03064 41262 NIL
AAXX 03064 41263 NIL
AAXX 03064 41264 36/70 /0905 10261 20110 39781 40144 333 0E021 20174 59007
AAXX 03064 41265 NIL
AAXX 03064 41267 35/64 /3414 10262 20160 30141 40157 333 0E023 20242 59004
AAXX 03064 41268 32960 03511 10270 20181 30140 40156 333 20244 59004
AAXX 03064 41270 NIL
AAXX 03064 41275 NIL
AAXX 03064 41287 NIL
AAXX 03064 41288 31658 50414 10267 20217 30137 40158 70522 85500 333 20255 59008 85630
AAXX 03064 41290 NIL
AAXX 03064 41295 NIL
AAXX 03064 41304 NIL
AAXX 03064 41312 36/// /3115 10252 20032 30120 40159 333 0E/// 20216 59011
AAXX 03064 41314 NIL
AAXX 03064 41315 36/// /3325 10141 21012 39179 42817 333 0E/// 20120 59012
AAXX 03064 41316 32960 03222 10242 21001 30137 40163 333 20207 59009
BBXX VRAE4 03064 99212 31582 41298 71216 10260 20238 40086 57003 70311 84778 22274 04260 20401 319// 41103 80245
BBXX 3ECI3 03064 99217 51610 41597 50514 10260 20215 40119 52010 70300 85443 22253 00260 20302 314// 41004 80230
BBXX SHIP 03063 99121 31229 41/97 42404 10349 20227 49982 70322 222// 0//// 20000 322// 40500 5////
BBXX 9KWP 03063 99295 31130 41598 10912 10265 20188 40090 54000 70200 81100 22234 00240 2//// 80215
BBXX ZCBU6 03064 99418 31637 41598 62527 10130 20073 40109 57004 70222 865// 22234 00144 20404 323// 40508 5//// 80102
BBXX V2OG2 03063 99279 31116 41898 10906 10274 20196 40079 58007 70000 81100 22273 20301 318// 40403 80220
BBXX VRDU8 03063 99180 31089 41698 11810 10265 20179 40116 57010 70200 8/1// 22284 04250 20402 80210
BBXX VRFN8 03063 99246 31116 41/98 12607 10250 20204 40066 7//// 8///2 22244 00240 20301 323// 40802 80220
BBXX VNSZ 03054 99412 31464 46/// /2422 10167 20017 30083 40109 57005 22200 04159 85094
BBXX 9HA2479 03064 99335 31526 46/// /0606 10186 20081 30145 40175 57015 22283 04229 85127
BBXX C6FS9 03064 99239 31516 46/// /1227 10241 20182 30087 40123 57017 22200 04262 85201
BBXX VNSZ 03044 99412 31464 46/// /2423 10169 20023 30100 40126 52003 22200 04161 85097
BBXX 9HA2479 03044 99339 31526 46/// /0405 10184 20077 30155 40185 57015 22283 04228 85125
BBXX C6FS9 03044 99239 31517 46/// /1427 10239 20185 30097 40133 57017 22263 04264 85203
BBXX VNAH 03044 99354 31341 46/// /1418 10156 20079 30217 40241 57005 22263 04171 85114
BBXX VROB 03044 99255 31534 46/// /1623 10227 20115 30125 40150 57025 22283 04236 85159
BBXX VNSZ 03064 99412 31464 46/// /2518 10159 20017 30079 40105 57004 22200 04158 85090
BBXX 9HA2479 03054 99337 31526 46/// /0405 10185 20079 30152 40182 57011 22283 04227 85126
BBXX C6FS9 03054 99239 31516 46/// /1227 10244 20188 30093 40129 57019 22200 04261 85206
BBXX VROB 03054 99252 31534 46/// /1622 10230 20119 30119 40144 57023 22283 04244 85162
BBXX VNAH 03054 99353 31339 46/// /1418 10154 20088 30216 40240 57006 22263 04173 85117
BBXX OXVD2 03043 99365 31238 41598 60914 10190 20118 40249 51018 70322 8482/ 22224 04160 20101 30504 40202 50303 80150
AAXX 03060 67693 31958 10804 10306 20179 39245 48500 70500 80001 333 20244 5//// 55/// 59028 81080 555 10356 7//00
AAXX 03061 38141 32595 81501 10003 21022 30100 40263 53006 69960 77177 8802/ 333 21058
AAXX 03061 38149 42598 81301 10004 21044 30194 40273 54000 885// 333 21032
AAXX 03061 38178 41994 02402 11036 21057 30011 40310 52011 74440 333 21075
AAXX 03061 38262 12698 71802 11003 21034 30199 40283 57004 69920 87500 333 21046
AAXX 03061 38264 42998 61605 10013 21022 30184 40280 52005 85073 333 21025
AAXX 03061 38396 42997 21306 10020 21008 30160 40288 53002 82031 333 21061
AAXX 03061 38403 41493 70000 11033 21040 30171 40298 53002 74444 87600 333 21059
AAXX 03061 38413 42998 00903 11043 21050 30004 40306 58007 333 21046
AAXX 03061 38457 11497 83201 10025 20006 39698 40299 57007 60042 70262 886// 333 20009
AAXX 03061 38462 42999 00000 11008 21033 38814 48541 58001 6004/ 333 21042
AAXX 03061 38565 32998 20000 10024 21012 39700 40297 58002 82040 333 21001
AAXX 03061 38579 11595 82301 10022 20019 39875 40304 57002 60012 71076 885// 333 20022
AAXX 03061 38583 12697 40501 10039 20013 39977 40305 57003 60012 84500 333 20024
AAXX 03061 38611 12497 80501 10047 20019 39722 40301 50001 60022 889// 333 20025 81589
AAXX 03061 38618 12997 80401 10043 20026 39581 40280 52008 60030 8807/ 333 20030
AAXX 03061 38683 41496 40903 10047 20008 30005 40286 57003 71042 84500 333 21012 84615
AAXX 03061 38696 32697 70903 10026 20008 39412 40285 57009 86204 333 20008
AAXX 03061 38812 42597 30201 10058 20010 39810 40269 57008 83300 333 20027 83924
AAXX 03061 38927 12560 50401 10072 20038 39879 40258 57015 69902 85400 333 20039 85633
AAXX 03064 94310 46/// /0614 10310 20165 30047 40058 57017
AAXX 03064 95283 46/// /1210 10289 20223 30060 40067
AAXX 03064 95288 46/// /1514 10281 30046 40061 56011
AAXX 03064 95675 46/// /2024
AAXX 03064 95872 46/// /1616
AAXX 03064 95961 35/// /2215 10128 30125 40167 52009
BBXX VRAE4 03064 99212 31582 41298 71216 10260 20238 40086 57003 70311 84778 22274 04260 20401 319// 41103 80245
BBXX 3ECI3 03064 99217 51610 41597 50514 10260 20215 40119 52010 70300 85443 22253 00260 20302 314// 41004 80230
BBXX SHIP 03063 99121 31229 41/97 42404 10349 20227 49982 70322 222// 0//// 20000 322// 40500 5////
BBXX 9KWP 03063 99295 31130 41598 10912 10265 20188 40090 54000 70200 81100 22234 00240 2//// 80215
BBXX ZCBU6 03064 99418 31637 41598 62527 10130 20073 40109 57004 70222 865// 22234 00144 20404 323// 40508 5//// 80102
BBXX V2OG2 03063 99279 31116 41898 10906 10274 20196 40079 58007 70000 81100 22273 20301 318// 40403 80220
BBXX VRDU8 03063 99180 31089 41698 11810 10265 20179 40116 57010 70200 8/1// 22284 04250 20402 80210
BBXX VRFN8 03063 99246 31116 41/98 12607 10250 20204 40066 7//// 8///2 22244 00240 20301 323// 40802 80220
BBXX VNSZ 03054 99412 31464 46/// /2422 10167 20017 30083 40109 57005 22200 04159 85094
BBXX 9HA2479 03064 99335 31526 46/// /0606 10186 20081 30145 40175 57015 22283 04229 85127
BBXX C6FS9 03064 99239 31516 46/// /1227 10241 20182 30087 40123 57017 22200 04262 85201
BBXX VNSZ 03044 99412 31464 46/// /2423 10169 20023 30100 40126 52003 22200 04161 85097
BBXX 9HA2479 03044 99339 31526 46/// /0405 10184 20077 30155 40185 57015 22283 04228 85125
BBXX C6FS9 03044 99239 31517 46/// /1427 10239 20185 30097 40133 57017 22263 04264 85203
BBXX VNAH 03044 99354 31341 46/// /1418 10156 20079 30217 40241 57005 22263 04171 85114
BBXX VROB 03044 99255 31534 46/// /1623 10227 20115 30125 40150 57025 22283 04236 85159
BBXX VNSZ 03064 99412 31464 46/// /2518 10159 20017 30079 40105 57004 22200 04158 85090
BBXX 9HA2479 03054 99337 31526 46/// /0405 10185 20079 30152 40182 57011 22283 04227 85126
BBXX C6FS9 03054 99239 31516 46/// /1227 10244 20188 30093 40129 57019 22200 04261 85206
BBXX VROB 03054 99252 31534 46/// /1622 10230 20119 30119 40144 57023 22283 04244 85162
BBXX VNAH 03054 99353 31339 46/// /1418 10154 20088 30216 40240 57006 22263 04173 85117
BBXX OXVD2 03043 99365 31238 41598 60914 10190 20118 40249 51018 70322 8482/ 22224 04160 20101 30504 40202 50303 80150
BBXX VNVR 03044 99387 11199 46/// /3612 10040 21034 30224 40256 52012 22263 04094 85012
BBXX VNVR 03054 99388 11196 46/// /0109 10042 21026 30225 40257 52004 22263 04106 85016
AAXX 03064 40550 35/63 /3407 10097 21058 40246 52016 333 55309 00448 10000 21239 30404 40910 51292 61644 55407 40835 90069 90401 91011 91111 91207 91303
AAXX 03064 40551 36/// /2610 10101 21082 333 90400 91011 91113 91211 91309
AAXX 03064 40552 35/69 /3112 10102 21080 40244 50012 333 55310 90069 90400 91013 91115 91213 91311
AAXX 03064 40553 35/67 /3112 10091 21067 40242 51012 333 55308 90069 90400 91013 91113 91211 91307
AAXX 03064 40568 36/// /3112 10112 21031 333 90400 91015 91115 91211 91307
AAXX 03064 40569 NIL
AAXX 03064 40570 35/70 /3106 10083 21096 40248 50000 333 55310 90069 90400 91007 91109 91207 91305
AAXX 03064 40571 NIL
AAXX 03064 40572 NIL
AAXX 03064 40573 36/// /3309 10088 21095 333 90400 91011 91111 91209 91307
AAXX 03064 40580 46/// /3105 10119 21037 333 553// 00485 10026 21120 30249 40918 51315 61370 55407 40871 90401 91011 91111 91205 91303
AAXX 03064 40581 36/// /0102 10132 21014 333 90400 91005 91111 91201 91301
AAXX 03064 40582 32960 03506 10112 21057 40244 53013 333 55310 00500 10000 21241 30405 40966 51296 61646 55407 40836 90401 91007 91109 91207 91303
AAXX 03064 40583 NIL
AAXX 03064 40585 46/// /2912 10122 21001 222// 1//// 3//// 4//// 70/// 333 90400 91019 91121 91215 91313
AAXX 03064 40586 36/// /3004 10123 21072 333 90401 91007 91111 91205 91303
AAXX 03064 40587 36/// /3107 10116 21073 333 553// 00492 10000 21317 30448 40917 51289 61765 55407 40870 90401 91009 91111 91207 91305
AAXX 03064 40588 35/65 /3214 10118 21014 40239 53013 333 55307 90069 90400 91015 91119 91215 91311
AAXX 03064 40589 NIL
AAXX 03064 40590 36/// /3310 10100 21081 333 90400 91013 91113 91211 91307
AAXX 03064 40591 NIL
AAXX 03064 40592 35/69 /3411 10123 21061 40239 51008 333 55310 00684 10000 21337 30279 40926 51293 61616 55407 41058 90069 90401 91017 91117 91209 91305
AAXX 03064 40593 36/// /3312 10128 20018 333 90400 91015 91115 91211 91309
AAXX 03064 40594 36/// /3308 10129 21047 333 90401 91015 91115 91209 91305
AAXX 03064 40596 46/// /3321 10151 20022 333 90401 91029 91131 91223 91319
AAXX 03061 37395 12698 80902 10023 20010 30147 40292 53007 60030 8552/ 333 20012
AAXX 03061 37409 11/91 92702 11021 21021 38804 48516 52011 60020 77174 333 21036 95080
AAXX 03061 37432 32997 00000 11090 21119 39007 48520 57009 333 21115
AAXX 03061 37514 32599 80000 11037 21045 39103 40308 52009 77372 8872/ 333 21056
AAXX 03061 37545 32599 50505 10052 20011 39733 40254 52009 85300 555 21002 7000/
AAXX 03061 37621 32699 00000 10005 21069 39599 40259 52004 333 21020
AAXX 03061 37484 NIL
AAXX 03064 60710 12560 20504 10095 20074 30126 40207 53004 60004 81202 333 20092 81820
AAXX 03064 60714 12557 30000 10109 2//// 30218 40224 53004 69944 82882 333 20108 70004 82820
AAXX 03064 60720 13558 22002 10143 20133 30186 40220 58003 60004 82200 333 20141 82820
AAXX 03064 60728 13562 22108 10135 20135 30131 40225 53002 60004 81202 333 20131 81823
AAXX 03064 60729 13550 41204 10099 20099 30044 40234 53004 60004 82502 333 20093 82626 83070
AAXX 03064 60731 07958 /2004 10103 20098 30218 40225 53004 69944 70010 333 10164 20102 3//// 59039 5///4 69927 70004 91006 91108
AAXX 03064 60732 13558 40000 10054 20038 39616 40201 51003 60024 84800 333 20047 70022 83820
AAXX 03064 60734 13960 20904 10083 20077 39701 40232 53004 60004 80002 333 20081 82070
AAXX 03064 60738 12560 42614 10072 20061 38977 48538 53001 60014 84200 333 20054 70014 84823
AAXX 03064 60739 13656 31906 10036 20036 39408 40255 53004 60004 83532 333 20029 83633 94239
AAXX 03064 60740 11420 11404 10118 20107 30224 40226 53003 60004 71000 81200 333 20118 81816
AAXX 03064 60742 NIL
AAXX 03064 60764 13960 21104 10120 20085 30167 40219 53005 60004 82080 333 20109 82360
AAXX 03064 60770 13975 00000 10105 20099 30083 40224 53003 60004 333 20104
AAXX 03064 60772 13965 01906 10111 20088 39967 40226 53005 60004 333 20105
AAXX 03064 60775 13975 03404 10089 20060 39870 40232 53005 60004 333 20086 55069
AAXX 03064 60780 13960 01010 10104 20052 39914 40225 58001 60004 333 20104
AAXX 03064 64510 32258 7//// 10215 20209 3//// 4//// 875// 333 0//00 20215 5///4 55/// 5//// 84703 87610
AAXX 03064 64550 32460 8//// 10232 20225 30/// 40/// 885// 333 02200 10220 50114 55/// 5//// 84611 88616
AAXX 03064 64570 11308 83101 10220 20220 39612 40122 60184 74696 8692/ 333 02166 20216 50194 55/// 59003 85607 81920 88460 94942 95832
BBXX 41037 03061 99340 70775 46/// /0104 10149 40269 54000 90600 22200 00168 333 91205
BBXX 41038 03061 99341 70777 46/// /3404 10140 40306 54000 90600 22200 00160 333 91204
AAXX 03061 50468 NIL
AAXX 03061 50953 32965 73601 11055 21120 30035 40222 57002 8701/ 333 21112
AAXX 03061 51076 NIL
AAXX 03061 51243 NIL
AAXX 03061 51288 11565 82204 11073 21084 38323 52010 69951 77070 885// 333 00053 21096
AAXX 03061 51463 NIL
AAXX 03061 51573 NIL
AAXX 03061 51709 NIL
AAXX 03061 52533 NIL
AAXX 03061 52652 NIL
AAXX 03061 52866 32970 02001 10058 21113 37638 57019 333 05200 21085
AAXX 03061 52983 NIL
AAXX 03061 53463 32970 73401 11017 21126 38983 40279 57020 80002 333 00101 21117
AAXX 03061 53513 32965 71102 11022 21085 38993 40260 57011 80002 333 05253 21094
AAXX 03061 53588 NIL
AAXX 03061 53772 NIL
AAXX 03061 53915 NIL
AAXX 03061 54218 32980 03401 11012 21162 39436 40267 57018 333 21095
AAXX 03061 54337 32980 00204 10013 21132 30168 40254 57011 333 21039
AAXX 03061 54342 NIL
AAXX 03061 54401 NIL
AAXX 03061 54471 32962 00206 10004 21126 30243 40249 57005 333 21050
AAXX 03061 54497 32980 23406 10060 21045 30182 40198 57003 80002 333 20009
AAXX 03061 54511 NIL
AAXX 03061 54823 31912 03602 10029 21015 30048 40265 57014 71000 333 21037
AAXX 03061 56080 NIL
AAXX 03061 56096 NIL
AAXX 03061 57083 NIL
AAXX 03061 56187 11958 80401 10104 20056 39498 40146 57033 69911 71064 8807/ 333 05252 20085
AAXX 03061 56778 NIL
AAXX 03061 57265 NIL
AAXX 03061 57461 32960 71401 10108 20043 30067 40232 57028 8704/ 333 20042
AAXX 03061 57494 NIL
AAXX 03061 57516 31758 80201 10113 20066 39840 40152 57032 71000 885// 333 05253 20087
AAXX 03061 57687 32980 00702 10136 20003 30133 40218 57031 333 20027
AAXX 03061 57816 11660 81804 10070 20048 38763 40164 57031 69901 76060 885// 333 05255 20043
AAXX 03061 58040 32962 03402 10070 21041 30235 40249 57016 333 21019
AAXX 03061 58102 32975 03401 10078 21025 30210 40259 57025 333 21016
AAXX 03061 58150 31550 63405 10080 21005 30246 40250 57006 70500 86500 333 20006
AAXX 03061 58221 NIL
AAXX 03061 58238 NIL
AAXX 03061 58251 NIL
AAXX 03061 58362 NIL
AAXX 03061 58457 32562 20702 10110 21002 30188 40242 57012 82100 333 20027
AAXX 03061 58606 NIL
AAXX 03061 58752 NIL
AAXX 03061 58847 NIL
AAXX 03061 59117 NIL
AAXX 03061 59134 NIL
AAXX 03061 59287 NIL
AAXX 03061 59316 NIL
AAXX 03061 59431 NIL
AAXX 03061 59644 NIL
AAXX 03061 59758 NIL
AAXX 03061 33177 32560 81802 10046 20029 39925 40164 52020 885// 333 20035
BBXX UFJN 03061 99727 10229 41/98 80606 11030 41754 54000 70022 88/// 22200 0//// 20000
AAXX 03061 01218 16/// /1610 10073 21038 39692 49712 56062 60002 333 20023 70022 91119
AAXX 03061 01447 16/// /1204 10006 20000 39133 49788 58081 60032 333 21102 70026 91112
AAXX 03064 06610 41656 82106 10068 20048 39615 40203 5//// 71062 886// 333 20061 32005 55010 70134 88744 90768 93100
AAXX 03061 48855 01560 80000 10195 20187 30131 40139 57015 60033 76062 889// 333 59004 60031 82995 84895 8569 7 96160
AAXX 03061 48848 32598 82902 10208 20154 30132 40140 57023 888// 333 59033 82895 88697
AAXX 03064 06670 11362 72702 10053 20040 39682 40199 5//// 60102 71066 8547/ 333 20057 32005 55032 70100 81707 85648 85366 90768 93100
AAXX 03064 06700 41681 42108 10072 20044 39713 40209 5//// 70165 84500 333 20071 32006 55014 70037 84645 90768 93100
AAXX 03064 06680 41/01 92521 11049 21052 37481 47014 5//// 74574 333 21050 46001 55062 70012 90768 93101
AAXX 03064 06990 41540 82901 10061 20053 39641 40192 5//// 72566 887// 333 20061 32003 55054 70001 88725
AAXX 03064 06760 42668 70301 10076 20023 39737 40187 5//// 875// 333 20067 30006 55002 70000 87638 90768 93100
AAXX 03064 06720 41565 81601 10063 20058 39625 40205 5//// 76066 887// 333 20061 32001 55049 70019 88531 90768 93100
AAXX 03064 68148 32960 43606 10267 20178 48525 52013 84080
AAXX 03064 85244 32965 43405 10240 20197 39640 40067 56006 80001 333 56009 59032 84070
BBXX 44139 03061 99442 70571 46/// /3608 10060 40265 52001 22200 00073 11205 70025 333 91210
AAXX 03061 01380 11258 81606 11054 21065 69942 77171 8802/ 333 21129 48006 70004 91113
AAXX 03061 01440 46/// /2011 11015 21016 38526 49775 58050 333 21075 91118
AAXX 03061 01441 16/// /1810 11003 21012 38797 49755 56070 60052 333 21144 70047 91116
AAXX 03061 01257 11460 21803 10016 21054 39596 49754 58056 60002 70200 81160 333 21015 70027 91113
AAXX 03061 01277 16/// /0802 11002 21045 60002 333 21012 70022 91105
AAXX 03061 01476 16/// /1915 10070 20052 39827 49833 58071 6//// 333 21001 91131
AAXX 03061 01023 11589 20401 11021 21040 39717 49811 58004 60022 70120 82878 333 21021 47002 70113 91108
AAXX 03061 01059 11589 41704 10015 21035 39777 49786 52021 60022 72682 82840 333 20006 70016 91113
AAXX 03061 01494 11570 81811 10055 20034 39798 49862 58059 60032 70122 8472/ 333 21022 70025 91116
AAXX 03061 01015 46/// /1705 10020 21045 333 20010 91121
AAXX 03061 01180 11980 01802 10000 21041 39735 49791 58023 60012 70200 333 21020 70174 91104
AAXX 03061 01450 16/// /1611 11021 21030 38661 49778 58075 60022 333 21087 70017 91117
AAXX 03061 01199 11985 02502 11132 21142 39355 49833 53015 60002 70221 333 21133 47015 70085 91105
AAXX 03061 01393 16/// /1505 11034 21054 39049 49844 58046 6//// 333 21108 91110
AAXX 03064 16098 11512 83003 10076 20069 30156 40208 56002 69902 76062 8552/ 333 20074 31/// 55/// 2//// 85620 87456
AAXX 03064 68298 36/// /2005 1//// 2//// 39519 4//// 52012 333 2//// 91012 555 1//// 91018
AAXX 03061 02947 47/99 82605 10014 21015 49923 52015 70020 88/// 90551 333 10037 20002 3////
AAXX 03064 65352 31930 70404 10195 20052 3//// 4//// 70522 80002 333 20175 5//// 87076
AAXX 03064 65361 32960 70000 10175 20066 3//// 4//// /0002 333 20172 5//// 87076
AAXX 03064 65376 32958 73606 10225 20066 39653 40112 80002 333 20214 59002 87076
AAXX 03064 65387 31445 73002 10245 20242 30075 40093 71022 81502 333 20245 59003 81610 87073
AAXX 03064 60340 11565 42412 10086 20052 40214 51009 60094 70161 84200 333 20051 84820
BBXX 44139 03061 99442 70571 46/// /3608 10060 40265 52001 22200 00073 11205 70025 333 91210
AAXX 03064 13619 12970 00000 10012 20012 39483 42856 54000 60002 333 21022 34///
AAXX 03064 13622 12965 00000 10090 20059 30229 40236 54000 60002 333 20070 30///
AAXX 03064 13600 12965 00000 10054 20031 30197 40251 54002 60002 333 20030 31///
AAXX 03064 13625 11/03 90000 11015 21040 30020 40263 54001 60002 74500 333 21018 34///
AAXX 03064 13623 12960 10000 10035 20035 30237 40243 54000 60002 81030 333 20035 30/// 81360
AAXX 03064 13629 12960 00000 10020 20020 39176 42825 54000 60002 333 20002 30///
AAXX 03063 04064 42680 52502 11030 21077 49803 52016 83542 555 3//09
AAXX 03061 03963 17661 /2913 10095 20036 30005 40033 53009 69922 70381 86/// 333 20091 3/007 82/31 86/50 90710 91118
AAXX 03064 13610 11/00 90000 11004 21031 39830 40273 52012 60002 74522 333 21010 30///
AAXX 03064 13601 12965 00000 10072 20065 30120 40223 54003 60002 333 20070 30///
AAXX 03064 13624 12970 01408 10060 20027 30207 40247 54001 60002 333 20040 30///
AAXX 03061 02947 47/99 82605 10014 21015 49923 52015 70020 88/// 90551 333 10037 20002 3////
AAXX 03064 13611 11958 31408 10106 20090 30136 40228 54000 60002 71000 83030 333 20078 30/// 83360
BBXX WDB9949 03064 99338 11531 41497 81130 10190 20160 40180 50010 71622 8847/ 22234 00210 20308 306// 41108 5//// 6//// 80170 ICE /////
BBXX 3FZK3 03064 99355 11294 46/// /2918 10103 20053 40115 55000 7//// 8//// 22200 0//// 2////
BBXX 4XIS 03063 99333 11474 43194 81323 10220 20210 40130 57060 81/// 22265 20404 312// 40807 80210
BBXX DGZT2 03063 99354 11210 41/96 /3417 10070 20001 40230 56015 71200 8/678 22233 04150 21403 80040
BBXX V7DI8 03063 99335 11249 41396 73240 10110 20070 40200 54000 78182 879// 22272 00180 20607 332// 40806 5//// 6//// 80090 ICE /////
BBXX WGEB 03064 99309 11418 41697 82319 10233 20200 40110 58010 7//22 8899/ 22225 00233 21005 306// 41008 5//// 6//// 80211 ICE /////
BBXX 46035 03061 99571 71778 46/// /0306 1//// 49956 56031 90550 22200 11105 20401 300// 41105 70027 333 91207 555 11056 22059 30537 40307 60549 029056 025054 024051 027049 025043 020036 80206 90538
BBXX A8KW3 03063 99401 71757 41/98 83232 10110 20090 40154 58010 703// 8//// 22224 04190 299// 3//// 4//// 5//// 80100
BBXX C6SI6 03064 99568 71524 46/// /1621 10042 20035 40227 51002 7//// 8//// 22253 0//// 2////
BBXX DGBE 03063 99538 71610 41/96 81634 10058 20050 40130 57037 70244 8//// 22264 00050 2//// 80054
BBXX LAWO2 03063 99301 71505 41698 71724 10210 20200 40250 5//// 7//11 8616/ 22223 00230 2//// 3//// 4//// 5//// 6//// 80200 ICE /////
BBXX OZDQ2 03060 99315 71678 41/98 8//// 10208 20156 40150 57005 7//// 8//// 22264 00230 2//// 80175
BBXX SHIP 03064 99311 71799 41596 73324 10220 20191 40113 51009 75022 8//// 90600 22264 00220 2//// 3//// 4//// 80200
BBXX WCX8883 03064 99535 71778 41/94 83647 10005 2001/ 49860 55026 77177 88/// 22254 00040 20304 301// 40607 5//// 6//// 80005 ICE /////
AAXX 03064 17042 3//// ///// 1//// 2//// 3//// 4//// 5//// 6///2 333 2//// 3//// 4////
AAXX 03061 26045 27557 72204 10011 20008 39977 49979 51022 78180 87/// 333 10026 20007 69987 87/31 91009 91109 555 1/100 20007 3/101 50025
AAXX 03061 26058 27381 42404 10019 20008 39969 49977 52025 70000 84/// 333 10043 20018 60007 84/10 91011 91113 555 1/100 20018 3/101 50029 52001
AAXX 03061 26135 27683 72302 10003 21003 39929 40003 52022 70000 87/// 333 10032 21002 60007 87/36 555 1/100 21002 3/101 50024 52102
AAXX 03061 26247 27/61 /2304 10020 20009 39948 40028 51024 78180 333 10069 20013 60017 91010 91110 555 1/001 20013 3/000 50037
AAXX 03064 08001 11968 32110 10108 20087 30187 40270 54000 69922 70281 80002 333 20100 31011 50204 55030 70029 924/7
AAXX 03064 08284 02570 73210 10119 20064 30141 40217 53012 60012 8265/ 333 20106 3//// 55001 60007 70070
AAXX 03061 58221 32962 00202 10079 21039 30226 40255 57021 333 20007
AAXX 03061 58238 32962 02902 10094 21025 30208 40253 57014 333 20017
AAXX 03061 58606 32962 00902 10125 20018 30171 40230 57022 333 20030
AAXX 03061 58847 32980 01803 10168 20013 30095 40198 57021 333 20064
AAXX 03061 59117 32975 01102 10168 20005 30067 40175 57046 333 20036
AAXX 03061 59134 32980 00703 10182 21011 30010 40178 57023 333 20087
AAXX 03061 59287 32978 13605 10193 20031 30073 40159 57046 80002 333 20039
AAXX 03061 59316 32968 00903 10199 20004 30150 40155 57038 333 20085
AAXX 03061 59431 32970 02502 10195 20056 30017 40165 57032 333 20040
AAXX 03061 59644 32970 01603 10202 20058 30146 40163 57018 333 20095
AAXX 03061 59758 32478 10905 10204 20108 30067 40144 57034 81100 333 20137
AAXX 03061 50468 11970 73403 11170 21193 30045 40275 57022 69901 77000 80002 333 21247
AAXX 03061 51076 11962 80702 11036 21054 39341 40253 52002 60021 77077 8802/ 333 05152 21064
AAXX 03061 52533 11980 01403 10042 21045 38506 40202 57016 69901 70070 333 05102 21041
AAXX 03061 53588 32980 22504 11055 21207 37761 57010 80002 333 21130
AAXX 03061 53772 31920 21601 11005 21055 39314 40270 57026 70400 80002 333 21059
AAXX 03061 54342 32970 33403 11012 21086 30179 40243 57002 80002 333 21064
AAXX 03061 54511 32975 03201 10047 21098 30214 40255 57017 333 21059
AAXX 03061 56080 32980 20202 10074 21141 37068 57019 80002 333 05402 21094
AAXX 03061 57083 31930 21401 10053 20001 30118 40259 57020 71000 80002 333 20002
AAXX 03061 48852 01560 80000 10192 20184 30125 40135 57020 60023 76162 888// 333 59023 60021 86895 88697 9616 0
AAXX 03061 48839 32498 60204 10204 20140 30085 40151 58017 862// 222// 00210 2//01 333 59025 82894 84895
AAXX 03061 48826 32560 33202 10211 20151 30016 40151 58027 83200 333 59019 83895
AAXX 03061 51243 11830 72201 10002 20001 39682 40248 54000 69921 71070 875// 333 00051 21006
AAXX 03061 51463 11778 70703 11014 21033 39128 40259 54000 69901 70070 84502 333 00151 21019
AAXX 03061 51573 32975 71802 10046 21025 30170 40214 57006 80002 333 00051 21018
AAXX 03061 51709 32965 02001 10073 21044 38688 40168 57004 333 05102 21028
AAXX 03061 52652 32970 10902 10043 21055 38524 40200 57013 81042 333 00000 21032
AAXX 03061 52983 31957 53204 10021 21053 38062 57004 70500 80002 333 05252 21049
AAXX 03061 53915 11750 81103 11003 21013 38643 40213 57014 69931 76876 885// 333 00160 21012
AAXX 03061 54401 32980 02502 11003 21162 39376 40277 57025 333 21110
AAXX 03061 56096 32770 73202 10068 20013 38894 40142 57028 875// 333 05254 20028
AAXX 03061 56778 32562 72205 10147 20060 38072 57031 87800 333 05403 20025
AAXX 03061 57265 32861 70704 10075 20046 30121 40234 57026 875// 333 20041
AAXX 03061 57494 32968 20702 10129 20033 30197 40227 57029 80002 333 21008
AAXX 03061 58251 32563 23204 10081 20006 30242 40247 57008 82100 333 20014
AAXX 03061 58362 32968 03204 10097 21008 30232 40240 57008 333 20030
AAXX 03061 58752 32972 01104 10135 20021 30168 40215 57016 333 20066
AAXX 03064 71954 46/// /3509 11121 21152 39741 40121 53043 6///1 333 10025 21121 7//// 555 33430 40002
AAXX 03064 71956 16/// /2113 10008 21028 30064 40302 57008 60001 333 10012 21055 70000 555 32221 40061
AAXX 03064 71970 16/// /2606 11140 21157 39601 40203 51009 60001 333 10047 21143 70000 555 33337 40203
AAXX 03064 71977 46/// /0101 11240 21240 39430 40170 53023 6///1 333 11196 21248 7////
AAXX 03064 71978 46/// /1902 11245 21269 39846 40170 53035 6///1 333 11147 21271 7//// 555 30323 40121
AAXX 03064 71989 16/// /0403 11302 21332 30193 40210 53007 60001 333 11265 21304 7////
AAXX 03064 71758 16/// /3005 11025 21032 30208 40287 54000 60001 333 10033 21037 70000 555 33321 40071
AAXX 03064 71771 46/// /2611 10070 20008 30335 40356 58003 6///1 333 10090 20055 7////
AAXX 03064 71110 16/// /0803 10019 20012 30204 40265 53006 60001 333 10074 20017 70000 555 33417 40161
AAXX 03064 71139 16/// /3312 11111 21127 38710 40201 50012 60001 333 10017 21111 70080 555 33036 40103
AAXX 03064 71141 17/// /3104 11294 21323 30073 40101 53008 69941 7//4/ 333 11270 21298 70004
AAXX 03064 71149 16/// /2609 10008 21031 60001 333 10025 21022 70000 555 32538 40123
AAXX 03064 71501 16/// /3119 11214 21231 30183 40185 53037 60001 333 11198 21269 70000 555 33126 40051
AAXX 03064 71505 16/// /2809 10034 21054 39456 40185 53046 60001 333 10036 21101 7////
AAXX 03064 71511 16/// /3417 11073 21100 39520 40166 51035 60001 333 10035 21077 70000 555 33432 40012
AAXX 03064 71515 16/// /3218 11081 21102 39433 40142 53043 60001 333 10013 21081 70015 555 33332 40052
AAXX 03064 71300 16/// /2703 11034 21071 30234 40361 53008 60001 333 10025 21035 70005
AAXX 03064 71309 16/// /1808 11044 21096 30168 40180 58022 60001 333 11042 21203 70000 555 31820 40061
AAXX 03064 71311 16/// /3501 11018 21024 30274 40299 53011 60001 333 10041 21039 70009
AAXX 03064 71317 16/// /0501 11021 21029 30241 40289 53004 60001 333 10044 21026 70000
AAXX 03064 71332 16/// /2405 11310 21344 30128 40159 53001 60001 333 11240 21321 70000
AAXX 03064 71356 16/// /3409 11282 21310 30053 40123 58005 60001 333 11245 21302 70000 555 33517 40131
AAXX 03064 71361 16/// /2403 11118 21137 39914 40126 56014 60001 333 11059 21168 70003 555 33426 40081
AAXX 03064 71362 16/// /1702 11131 21150 39880 40142 58021 60001 333 11058 21133 70021 555 30121 40141
AAXX 03064 71363 16/// /3107 11315 21349 30041 40098 53008 60001 333 11248 21322 70000
AAXX 03064 71364 16/// /3204 11200 21221 30032 40170 51036 60001 333 11151 21254 70000
AAXX 03064 71365 16/// /0000 11216 21234 39925 40146 53002 60001 333 11110 21236 70000 555 30026 40071
AAXX 03064 71370 46/// /2903 11041 21080 30205 40345 51018 6///1 333 11001 21041 7////
AAXX 03064 71386 16/// /3504 11042 21068 30106 40318 51017 60001 333 11025 21063 70000
AAXX 03064 71387 16/// /0501 11158 21172 39950 40347 53020 60001 333 11038 21158 70000
AAXX 03064 71391 16/// ///// 11065 21094 60001 333 11002 21065 70056
AAXX 03064 71393 16/// ///// 11074 21107 38944 40242 58003 60001 333 10051 21077 70000
AAXX 03064 71074 16/// ///30 11282 21309 30025 40105 55000 60001 333 11271 21295 70000
AAXX 03064 71087 46/// /0000 11212 21238 39925 40137 58001 6///1 333 11102 21212 7//// 555 33520 40071
AAXX 03064 71148 16/// /2608 11011 21041 39517 40097 53011 60001 333 10028 21059 70000 555 32130 40102
AAXX 03064 71807 16/// /0703 10012 21017 30261 40280 53006 60001 333 10052 20011 70000 555 30221 40071
AAXX 03064 71015 16/// ///// 11048 60001 333 10020 21054 70000
AAXX 03064 71017 16/// /2708 11309 21343 30117 40132 53013 60001 333 11273 21316 70000 555 33117 40041
AAXX 03064 71018 16/// ///14 11266 21293 39979 40069 51009 60001 333 11260 21325 70000
AAXX 03064 71019 46/// /0201 11036 21036 30008 40318 51024 6///1 333 11024 21092 7////
AAXX 03064 71020 46/// /1002 10003 21052 39852 40108 55003 6///1 333 10029 21203 7////
AAXX 03064 71021 46/// /0000 11074 21102 39783 40142 55000 6///1 333 11014 21195 7////
AAXX 03064 71026 16/// /2906 11067 21109 39373 40244 51014 60001 333 7////
AAXX 03064 71151 16/// /2113 10001 21054 39562 40064 53005 60001 333 10004 21072 70000 555 32030 40182
AAXX 03064 71155 16/// ///// 11092 21095 60001 333 10054 21122 70000
AAXX 03064 71156 16/// /3101 11067 21081 39099 40214 57013 60001 333 10018 21102 70000 555 32633 40092
AAXX 03064 71158 16/// /3216 11035 21049 39756 40031 53035 60001 333 10011 21053 70016 555 32927 40061
AAXX 03064 71160 16/// /0503 11220 21245 39941 40165 55000 60001 333 11151 21234 70000
AAXX 03064 71162 16/// /0207 11118 21130 39916 40131 57009 60001 333 11079 21158 70000 555 33533 40112
AAXX 03064 71164 46/// /3303 11182 21202 30080 40164 53023 6///1 333 11172 21263 7////
AAXX 03064 71165 46/// ///00 11201 21222 39869 40162 53002 6///1 333 11146 21238 7////
AAXX 03064 71166 46/// /2702 39512 56005 6///1 333 7////
AAXX 03064 71669 16/// /0000 11126 21149 38589 40252 58007 60001 333 10020 21133 70000 555 32220 40101
AAXX 03064 71671 16/// /2203 11010 21013 30224 40285 53007 60001 333 10057 21024 70000
AAXX 03064 71723 16/// /3603 11023 21065 30341 40351 51018 60001 333 10009 21025 70031
AAXX 03064 71736 46/// ///// 11071 21132 6///1 333 10029 21094 7//// 555 10010
AAXX 03064 71744 17/// /3503 11016 21029 30276 40318 53024 69961 7//4/ 333 10011 21066 70006
AAXX 03064 71746 16/// /1705 11004 21026 30105 40332 55004 60001 333 10023 21036 70035 555 33324 40141
AAXX 03064 71832 16/// /1910 11032 21061 39846 40178 56012 60001 333 11030 21242 70000 555 31921 40061
AAXX 03064 71862 11470 83016 11040 21060 39439 40145 53030 69901 77111 885// 333 10042 21040 79999 90910 555 19999 29999 33225 40201
AAXX 03064 71450 16/// /3318 11063 21095 39459 40188 51033 60001 333 10038 21067 70022 555 33235 40023
AAXX 03064 71451 16/// /3206 11142 21170 39711 40148 52021 60001 333 11019 21148 70032 555 10030 20032 33224 40211
AAXX 03064 71465 46/// /1813 10046 21008 30115 40336 56003 6///1 333 10051 20006 7//// 555 32321 40071
AAXX 03064 71470 16/// /2503 11317 21350 39511 40176 52006 60001 333 11262 21330 7////
AAXX 03064 71476 17/// /1622 30328 58002 60111 7//4/ 333 70152 555 31726 40011
AAXX 03064 71480 16/// /0000 11155 21174 30014 40139 53005 60001 333 11130 21204 70000
AAXX 03064 71482 46/// /0801 10039 30334 40373 58004 6///1 333 10049 20025 7////
AAXX 03064 71484 16/// /2808 10078 20033 30334 40353 51001 60001 333 10081 20066 70000 555 33130 40102
AAXX 03064 71489 16/// /2907 11110 21133 39391 40208 51017 60001 333 10050 21110 70000 555 33335 40223
AAXX 03064 71492 46/// ///02 11236 21257 39411 40132 53006 6///1 333 11216 21280 7////
AAXX 03064 71837 16/// ///// 11028 60001 333 10021 21039 70000
AAXX 03064 71839 16/// ///// 11081 60001 333 10027 21082 70003
AAXX 03064 71849 16/// /2511 11009 21037 39772 40068 53012 60001 333 10016 21048 70000 555 31830 40192
AAXX 03064 71402 46/// /2908 11011 21049 30156 40273 53010 6///1 333 10013 21011 7//// 555 30617 40091
AAXX 03064 71407 16/// /2416 11281 21315 30064 40086 51005 60001 333 11190 21283 70000 555 32419 40061
AAXX 03064 71427 16/// /3605 11076 21114 30330 40338 51022 60001 333 11037 21078 70000
AAXX 03064 71434 17/// /1914 11030 21044 39933 49999 56024 60021 7//4/ 333 11030 70017 555 31921 40051
AAXX 03064 71442 16/// /2611 10011 21026 39730 40042 51014 60001 333 10013 21050 70000 555 32024 40121
AAXX 03064 71449 16/// /2308 10001 21059 39678 40080 53004 60001 333 10020 21078 70000 555 32332 40192
AAXX 03064 71550 16/// /3314 11009 21043 39696 40070 53028 60001 333 10031 21014 70000 555 32327 40131
AAXX 03064 71551 16/// /3310 11065 21106 39526 40193 51031 60001 333 10051 21065 70004 555 33134 40223
AAXX 03064 71552 46/// /2310 11003 21021 6///1 333 10009 21047 7//// 555 32034 40113
AAXX 03064 71553 16/// /3220 11044 21072 60001 333 10010 21045 70027 555 33227 40051
AAXX 03064 71556 16/// /3215 11070 21098 39554 40166 51036 60001 333 10028 21077 70000 555 33231 40012
AAXX 03064 71577 46/// /2507 11003 21028 6///1 333 10003 21051 7//// 555 32131 40112
AAXX 03064 71579 16/// /2405 10002 21037 39779 40062 53012 60001 333 10017 21048 70000 555 32322 40171
AAXX 03064 71296 16/// /1503 11044 21044 30022 40337 58007 60001 333 10017 70036
AAXX 03064 71299 16/// /1815 11046 21070 39934 40213 58014 60001 333 11046 21203 70000 555 10020 31723 40031
AAXX 03064 71432 16/// /1503 10015 21011 30247 40346 50000 60001 333 10053 20010 70009 555 32720 40131
AAXX 03064 71435 16/// /1809 11043 21096 39528 40127 58008 60001 333 11028 21183 70004 555 10010 20004 31622 40001
AAXX 03064 71472 16/// /3109 10070 20044 30345 40363 58005 60001 333 10076 20065 7////
AAXX 03064 71851 16/// /2608 10011 21024 39735 40069 53009 60001 333 10034 21023 70000 555 32324 40101
AAXX 03064 71885 16/// ///// 11085 60001 333 10036 21085 70000
AAXX 03064 71719 16/// /0209 11007 21032 30308 40314 53020 60001 333 10007 21046 70000 555 30117 40061
AAXX 03064 71614 16/// /3105 11025 21071 30280 40348 51010 60001 333 10043 21025 70015
AAXX 03064 71622 16/// ///// 11039 21045 39990 40337 58008 60001 333 10037 21042 70007
AAXX 03064 71243 16/// /2706 11028 21094 39165 40271 52005 60001 333 10052 21036 7//// 555 32656 40073
AAXX 03064 71246 16/// /1603 11087 21102 39491 40167 57027 60001 333 7////
AAXX 03064 71920 16/// /0408 10025 21004 30281 40287 53003 60001 333 10060 21005 70000
AAXX 03064 91753 02582 61002 10275 20237 30054 40086 53015 60012 82242 333 10305 20255 30025 55087 60007 70047 81820 85076 90710 91105 555 60005
AAXX 03064 91754 06/// /0302 10271 20240 30044 40085 53012 69961 333 69927 555 10304 20240 60364 60005
AAXX 03064 71110 16/// /0803 10019 20012 30204 40265 53006 60001 333 10074 20017 70000 555 33417 40161
AAXX 03064 71139 16/// /3312 11111 21127 38710 40201 50012 60001 333 10017 21111 70080 555 33036 40103
AAXX 03064 71141 17/// /3104 11294 21323 30073 40101 53008 69941 7//4/ 333 11270 21298 70004
AAXX 03064 71149 16/// /2609 10008 21031 60001 333 10025 21022 70000 555 32538 40123
AAXX 03064 71356 16/// /3409 11282 21310 30053 40123 58005 60001 333 11245 21302 70000 555 33517 40131
AAXX 03064 71361 16/// /2403 11118 21137 39914 40126 56014 60001 333 11059 21168 70003 555 33426 40081
AAXX 03064 71362 16/// /1702 11131 21150 39880 40142 58021 60001 333 11058 21133 70021 555 30121 40141
AAXX 03064 71363 16/// /3107 11315 21349 30041 40098 53008 60001 333 11248 21322 70000
AAXX 03064 71364 16/// /3204 11200 21221 30032 40170 51036 60001 333 11151 21254 70000
AAXX 03064 71365 16/// /0000 11216 21234 39925 40146 53002 60001 333 11110 21236 70000 555 30026 40071
AAXX 03064 71370 46/// /2903 11041 21080 30205 40345 51018 6///1 333 11001 21041 7////
AAXX 03064 71386 16/// /3504 11042 21068 30106 40318 51017 60001 333 11025 21063 70000
AAXX 03064 71387 16/// /0501 11158 21172 39950 40347 53020 60001 333 11038 21158 70000
AAXX 03064 71391 16/// ///// 11065 21094 60001 333 11002 21065 70056
AAXX 03064 71393 16/// ///// 11074 21107 38944 40242 58003 60001 333 10051 21077 70000
AAXX 03064 71501 16/// /3119 11214 21231 30183 40185 53037 60001 333 11198 21269 70000 555 33126 40051
AAXX 03064 71505 16/// /2809 10034 21054 39456 40185 53046 60001 333 10036 21101 7////
AAXX 03064 71511 16/// /3417 11073 21100 39520 40166 51035 60001 333 10035 21077 70000 555 33432 40012
AAXX 03064 71515 16/// /3218 11081 21102 39433 40142 53043 60001 333 10013 21081 70015 555 33332 40052
AAXX 03064 71300 16/// /2703 11034 21071 30234 40361 53008 60001 333 10025 21035 70005
AAXX 03064 71309 16/// /1808 11044 21096 30168 40180 58022 60001 333 11042 21203 70000 555 31820 40061
AAXX 03064 71311 16/// /3501 11018 21024 30274 40299 53011 60001 333 10041 21039 70009
AAXX 03064 71317 16/// /0501 11021 21029 30241 40289 53004 60001 333 10044 21026 70000
AAXX 03064 71332 16/// /2405 11310 21344 30128 40159 53001 60001 333 11240 21321 70000
AAXX 03064 71954 46/// /3509 11121 21152 39741 40121 53043 6///1 333 10025 21121 7//// 555 33430 40002
AAXX 03064 71956 16/// /2113 10008 21028 30064 40302 57008 60001 333 10012 21055 70000 555 32221 40061
AAXX 03064 71970 16/// /2606 11140 21157 39601 40203 51009 60001 333 10047 21143 70000 555 33337 40203
AAXX 03064 71977 46/// /0101 11240 21240 39430 40170 53023 6///1 333 11196 21248 7////
AAXX 03064 71978 46/// /1902 11245 21269 39846 40170 53035 6///1 333 11147 21271 7//// 555 30323 40121
AAXX 03064 71989 16/// /0403 11302 21332 30193 40210 53007 60001 333 11265 21304 7////
AAXX 03064 71074 16/// ///30 11282 21309 30025 40105 55000 60001 333 11271 21295 70000
AAXX 03064 71087 46/// /0000 11212 21238 39925 40137 58001 6///1 333 11102 21212 7//// 555 33520 40071
AAXX 03064 71807 16/// /0703 10012 21017 30261 40280 53006 60001 333 10052 20011 70000 555 30221 40071
AAXX 03064 71148 16/// /2608 11011 21041 39517 40097 53011 60001 333 10028 21059 70000 555 32130 40102
AAXX 03064 71432 16/// /1503 10015 21011 30247 40346 50000 60001 333 10053 20010 70009 555 32720 40131
AAXX 03064 71435 16/// /1809 11043 21096 39528 40127 58008 60001 333 11028 21183 70004 555 10010 20004 31622 40001
AAXX 03064 71472 16/// /3109 10070 20044 30345 40363 58005 60001 333 10076 20065 7////
AAXX 03064 71832 16/// /1910 11032 21061 39846 40178 56012 60001 333 11030 21242 70000 555 31921 40061
AAXX 03064 71862 11470 83016 11040 21060 39439 40145 53030 69901 77111 885// 333 10042 21040 79999 90910 555 19999 29999 33225 40201
AAXX 03064 71719 16/// /0209 11007 21032 30308 40314 53020 60001 333 10007 21046 70000 555 30117 40061
AAXX 03064 71837 16/// ///// 11028 60001 333 10021 21039 70000
AAXX 03064 71839 16/// ///// 11081 60001 333 10027 21082 70003
AAXX 03064 71849 16/// /2511 11009 21037 39772 40068 53012 60001 333 10016 21048 70000 555 31830 40192
AAXX 03064 71723 16/// /3603 11023 21065 30341 40351 51018 60001 333 10009 21025 70031
AAXX 03064 71736 46/// ///// 11071 21132 6///1 333 10029 21094 7//// 555 10010
AAXX 03064 71744 17/// /3503 11016 21029 30276 40318 53024 69961 7//4/ 333 10011 21066 70006
AAXX 03064 71746 16/// /1705 11004 21026 30105 40332 55004 60001 333 10023 21036 70035 555 33324 40141
AAXX 03064 71243 16/// /2706 11028 21094 39165 40271 52005 60001 333 10052 21036 7//// 555 32656 40073
AAXX 03064 71246 16/// /1603 11087 21102 39491 40167 57027 60001 333 7////
AAXX 03064 71851 16/// /2608 10011 21024 39735 40069 53009 60001 333 10034 21023 70000 555 32324 40101
AAXX 03064 71885 16/// ///// 11085 60001 333 10036 21085 70000
AAXX 03064 71015 16/// ///// 11048 60001 333 10020 21054 70000
AAXX 03064 71017 16/// /2708 11309 21343 30117 40132 53013 60001 333 11273 21316 70000 555 33117 40041
AAXX 03064 71018 16/// ///14 11266 21293 39979 40069 51009 60001 333 11260 21325 70000
AAXX 03064 71019 46/// /0201 11036 21036 30008 40318 51024 6///1 333 11024 21092 7////
AAXX 03064 71020 46/// /1002 10003 21052 39852 40108 55003 6///1 333 10029 21203 7////
AAXX 03064 71021 46/// /0000 11074 21102 39783 40142 55000 6///1 333 11014 21195 7////
AAXX 03064 71026 16/// /2906 11067 21109 39373 40244 51014 60001 333 7////
AAXX 03064 71402 46/// /2908 11011 21049 30156 40273 53010 6///1 333 10013 21011 7//// 555 30617 40091
AAXX 03064 71407 16/// /2416 11281 21315 30064 40086 51005 60001 333 11190 21283 70000 555 32419 40061
AAXX 03064 71427 16/// /3605 11076 21114 30330 40338 51022 60001 333 11037 21078 70000
AAXX 03064 71434 17/// /1914 11030 21044 39933 49999 56024 60021 7//4/ 333 11030 70017 555 31921 40051
AAXX 03064 71442 16/// /2611 10011 21026 39730 40042 51014 60001 333 10013 21050 70000 555 32024 40121
AAXX 03064 71449 16/// /2308 10001 21059 39678 40080 53004 60001 333 10020 21078 70000 555 32332 40192
AAXX 03064 71669 16/// /0000 11126 21149 38589 40252 58007 60001 333 10020 21133 70000 555 32220 40101
AAXX 03064 71671 16/// /2203 11010 21013 30224 40285 53007 60001 333 10057 21024 70000
AAXX 03064 71614 16/// /3105 11025 21071 30280 40348 51010 60001 333 10043 21025 70015
AAXX 03064 71622 16/// ///// 11039 21045 39990 40337 58008 60001 333 10037 21042 70007
AAXX 03064 71296 16/// /1503 11044 21044 30022 40337 58007 60001 333 10017 70036
AAXX 03064 71299 16/// /1815 11046 21070 39934 40213 58014 60001 333 11046 21203 70000 555 10020 31723 40031
AAXX 03064 71758 16/// /3005 11025 21032 30208 40287 54000 60001 333 10033 21037 70000 555 33321 40071
AAXX 03064 71771 46/// /2611 10070 20008 30335 40356 58003 6///1 333 10090 20055 7////
AAXX 03064 71450 16/// /3318 11063 21095 39459 40188 51033 60001 333 10038 21067 70022 555 33235 40023
AAXX 03064 71451 16/// /3206 11142 21170 39711 40148 52021 60001 333 11019 21148 70032 555 10030 20032 33224 40211
AAXX 03064 71465 46/// /1813 10046 21008 30115 40336 56003 6///1 333 10051 20006 7//// 555 32321 40071
AAXX 03064 71470 16/// /2503 11317 21350 39511 40176 52006 60001 333 11262 21330 7////
AAXX 03064 71476 17/// /1622 30328 58002 60111 7//4/ 333 70152 555 31726 40011
AAXX 03064 71480 16/// /0000 11155 21174 30014 40139 53005 60001 333 11130 21204 70000
AAXX 03064 71482 46/// /0801 10039 30334 40373 58004 6///1 333 10049 20025 7////
AAXX 03064 71484 16/// /2808 10078 20033 30334 40353 51001 60001 333 10081 20066 70000 555 33130 40102
AAXX 03064 71489 16/// /2907 11110 21133 39391 40208 51017 60001 333 10050 21110 70000 555 33335 40223
AAXX 03064 71492 46/// ///02 11236 21257 39411 40132 53006 6///1 333 11216 21280 7////
AAXX 03064 71550 16/// /3314 11009 21043 39696 40070 53028 60001 333 10031 21014 70000 555 32327 40131
AAXX 03064 71551 16/// /3310 11065 21106 39526 40193 51031 60001 333 10051 21065 70004 555 33134 40223
AAXX 03064 71552 46/// /2310 11003 21021 6///1 333 10009 21047 7//// 555 32034 40113
AAXX 03064 71553 16/// /3220 11044 21072 60001 333 10010 21045 70027 555 33227 40051
AAXX 03064 71556 16/// /3215 11070 21098 39554 40166 51036 60001 333 10028 21077 70000 555 33231 40012
AAXX 03064 71577 46/// /2507 11003 21028 6///1 333 10003 21051 7//// 555 32131 40112
AAXX 03064 71579 16/// /2405 10002 21037 39779 40062 53012 60001 333 10017 21048 70000 555 32322 40171
AAXX 03064 71151 16/// /2113 10001 21054 39562 40064 53005 60001 333 10004 21072 70000 555 32030 40182
AAXX 03064 71155 16/// ///// 11092 21095 60001 333 10054 21122 70000
AAXX 03064 71156 16/// /3101 11067 21081 39099 40214 57013 60001 333 10018 21102 70000 555 32633 40092
AAXX 03064 71158 16/// /3216 11035 21049 39756 40031 53035 60001 333 10011 21053 70016 555 32927 40061
AAXX 03064 71160 16/// /0503 11220 21245 39941 40165 55000 60001 333 11151 21234 70000
AAXX 03064 71162 16/// /0207 11118 21130 39916 40131 57009 60001 333 11079 21158 70000 555 33533 40112
AAXX 03064 71164 46/// /3303 11182 21202 30080 40164 53023 6///1 333 11172 21263 7////
AAXX 03064 71165 46/// ///00 11201 21222 39869 40162 53002 6///1 333 11146 21238 7////
AAXX 03064 71166 46/// /2702 39512 56005 6///1 333 7////
AAXX 03064 71920 16/// /0408 10025 21004 30281 40287 53003 60001 333 10060 21005 70000
BBXX 44150 03061 99425 70640 46/// /0003 10068 40276 57004 22200 00107 11104 70020 333 91205
AAXX 03061 33177 32560 81802 10046 20029 39925 40164 52020 885// 333 20035
BBXX 44150 03061 99425 70640 46/// /0003 10068 40276 57004 22200 00107 11104 70020 333 91205
AAXX 03064 89002 42899 61014 11115 21146 39770 49824 52003 82018 333 99021
AAXX 03061 37279 /1599 20000 10040 20030 30133 40280 52011 70162 82200 555 20024
AAXX 03061 37308 12698 70000 11028 21034 39623 40304 52011 69920 70177 84530 333 21048
AAXX 03061 37531 32598 32604 10028 21002 39538 40278 52011 82550 333 21049 47013 555 69900
AAXX 03061 37553 32999 03102 10029 21040 39580 40239 52007 333 21033
AAXX 03061 37651 16/// ///00 10012 21033 3//// 4//// 5//// 60002 333 21042
AAXX 03061 37492 NIL
BBXX SJCD 03061 99226 70607 43/98 71506 10253 40153 58014 22254 00258
BBXX SKUN 03063 99465 70461 43/04 93119 10062 40183 51018 22253 00060 2//// 4////
AAXX 03061 48808 31570 11101 10198 20099 39868 40151 57039 70241 81200 333 59017 81895
AAXX 03061 48830 32970 00000 10196 20082 39840 40147 57040 333 59029
AAXX 03061 48803 32460 71403 10190 20134 30034 40148 57036 878// 333 59020 83894 87696
AAXX 03061 40706 11958 01202 11020 21092 38697 40292 52012 60001 70500 333 34112 70000
AAXX 03061 40718 12665 42704 10092 20061 30277 40248 56012 60001 84200 222// 00098 20102 333 30101 50181 70000 84835
AAXX 03061 40732 12570 10000 10104 20056 30264 40239 52014 60001 81100 333 30101 50091 70000 81825
AAXX 03061 40745 11456 70302 10020 20001 39068 40247 56005 60001 71022 87600 333 31001 70000 87715
AAXX 03061 40754 11956 01902 10052 21083 38860 40231 52010 60001 70500 333 31102 5//// 70000
AAXX 03061 40766 12960 00000 10010 21070 38731 40271 51004 60001 333 34112 70000
AAXX 03061 40800 11956 00000 10030 21034 38483 40239 51005 60001 70500 333 31105 5///1 70000
AAXX 03061 40811 12960 03203 10098 21058 30192 40219 52012 60001 333 30004 50281 70000
AAXX 03061 40841 12965 00000 10070 20006 38282 40213 50006 60001 333 30107 5//// 70000
AAXX 03061 40848 12965 00000 10068 20013 38557 40216 52011 60001 333 31104 50041 70000
AAXX 03061 40856 12960 00402 10126 21009 38664 40183 50010 60001 333 30102 50481 70000
AAXX 03061 40875 12960 03202 10248 20079 30156 40167 52017 60001 333 30007 50381 70000
AAXX 03061 40706 11958 01202 11020 21092 38697 40292 52012 60001 70500 333 34112 70000
AAXX 03061 40718 12665 42704 10092 20061 30277 40248 56012 60001 84200 222// 00098 20102 333 30101 50181 70000 84835
AAXX 03061 40732 12570 10000 10104 20056 30264 40239 52014 60001 81100 333 30101 50091 70000 81825
AAXX 03061 40745 11456 70302 10020 20001 39068 40247 56005 60001 71022 87600 333 31001 70000 87715
AAXX 03061 40754 11956 01902 10052 21083 38860 40231 52010 60001 70500 333 31102 5//// 70000
AAXX 03061 40766 12960 00000 10010 21070 38731 40271 51004 60001 333 34112 70000
AAXX 03061 40800 11956 00000 10030 21034 38483 40239 51005 60001 70500 333 31105 5///1 70000
AAXX 03061 40811 12960 03203 10098 21058 30192 40219 52012 60001 333 30004 50281 70000
AAXX 03061 40841 12965 00000 10070 20006 38282 40213 50006 60001 333 30107 5//// 70000
AAXX 03061 40848 12965 00000 10068 20013 38557 40216 52011 60001 333 31104 50041 70000
AAXX 03061 40856 12960 00402 10126 21009 38664 40183 50010 60001 333 30102 50481 70000
AAXX 03061 40875 12960 03202 10248 20079 30156 40167 52017 60001 333 30007 50381 70000
AAXX 03064 89667 46/// /1926 11038 29063 39721 4//// 5////
AAXX 03061 80001 32470 50305 10270 20220 30135 40136 81230 333 5610/ 58003 81818 85359
AAXX 03061 80002 NIL
AAXX 03061 80009 NIL
AAXX 03061 80022 31463 60602 10270 20250 30111 40113 70521 84101 333 566/9 58009 84817
AAXX 03061 80028 31460 30404 10275 20241 30083 40118 70511 83600 333 569// 58000 83715
AAXX 03061 80035 NIL
AAXX 03061 80036 NIL
AAXX 03061 80063 NIL
AAXX 03061 80084 NIL
AAXX 03061 80091 NIL
AAXX 03061 80094 11460 80000 10194 20191 38810 60011 70352 8367/ 333 5699/ 83710 85357
AAXX 03061 80097 NIL
AAXX 03061 80099 NIL
AAXX 03061 80110 NIL
AAXX 03061 80112 31257 80000 10149 20144 37905 70522 85579 333 56009 58002 85606 85358
AAXX 03061 80139 NIL
AAXX 03061 80144 NIL
AAXX 03061 80149 NIL
AAXX 03061 80210 01459 71702 10188 20178 38667 69951 75052 84570 333 5699/ 58007 69937 84613 83357
AAXX 03061 80211 NIL
AAXX 03061 80214 NIL
AAXX 03061 80222 41462 60303 10221 20112 37517 70552 82570 333 5619/ 59001 82610 84357
AAXX 03061 80234 NIL
AAXX 03061 80241 NIL
AAXX 03061 80259 41259 80000 10198 20189 39067 71552 8362/ 333 5689/ 58009 83605 86458
AAXX 03061 80315 32665 50000 10228 20215 39598 40103 81150 333 5608/ 81840 85360
AAXX 03061 80342 NIL
AAXX 03061 80370 NIL
AAXX 03061 80398 NIL
BBXX SBLI 03061 99040 50842 43/98 51505 10208 40137 58012 22274 00214 2//// 4////
AAXX 0306/ 89872 46/// ///// 11050 39670 4//// 5////
AAXX 0306/ 89869 46/// ///// 11038 39671 4//// 5////
AAXX 0306/ 89866 46/// ///// 11018 39626 4//// 5////
AAXX 0306/ 89329 46/// ///// 11120 38642 4//// 5////
AAXX 0306/ 89799 46/// ///// 11296 4//// 5////
AAXX 0306/ 89868 46/// ///// 11056 39661 4//// 5////
AAXX 0306/ 89327 46/// ///// 11016 30142 4//// 5////
AAXX 0306/ 89769 46/// ///// 11058 39689 4//// 5////
AAXX 0306/ 89828 46/// ///// 11240 36459 4//// 5////
AAXX 0306/ 89879 46/// ///// 11001 39619 4//// 5////
AAXX 0306/ 89314 46/// ///// 11124 38128 4//// 5////
AAXX 03064 89667 46/// /1926 11040 39720 4//// 5////
AAXX 0306/ 89866 46/// ///// 11013 39626 4//// 5////
AAXX 0306/ 89329 46/// ///// 11119 38642 4//// 5////
AAXX 0306/ 89868 46/// ///// 11055 39659 4//// 5////
AAXX 0306/ 89332 46/// ///// 11083 39106 4//// 5////
AAXX 0306/ 89828 46/// ///// 11243 36459 4//// 5////
BBXX SBHI 03063 99566 10165 43/98 62313 10052 40034 58021 22242 053
AAXX 03061 48887 32570 70904 10293 20209 30079 40085 57018 81208 333 58002 81895 87299
AAXX 03061 48870 01574 83403 10245 20187 30109 40116 58018 69923 70382 878// 333 58002 69921 87895
AAXX 03061 48877 32570 70204 10264 20190 30095 40100 57023 84808 333 58003 82895 84697 87299
AAXX 03061 48920 01498 80210 10268 20238 30067 40070 57021 60193 72186 8272/ 222// 00288 2//04 333 58012 60011 82894 88499
BBXX 44255 03061 99473 70573 46/// /0106 10029 40263 52008 22200 00051 11104 70020 333 91208
AAXX 03061 48892 12498 83607 10272 20240 30060 40065 58015 60023 889// 333 58007 81894 83995 85697
AAXX 03064 43400 NIL
AAXX 03064 43404 22470 7//// 10292 20234 30083 40093 85206 333 59018 60007 70000 85818 87280
AAXX 03064 43410 NIL
AAXX 03064 43413 22470 30501 10280 20224 30092 40096 82202 333 59018 60007 70000 82818
AAXX 03064 43415 22470 30000 10298 20221 39982 40090 83100 333 59021 60007 70000 83818
AAXX 03064 43418 22470 51102 10290 20233 3//// 4//// 84232 333 5//// 60007 70000 84818
AAXX 03064 43421 22970 30000 10294 20200 39991 40093 80001 333 59014 60007 70000 83080
AAXX 03064 43422 22470 218// 10300 20220 39960 40090 82100 333 59018 60007 70000 82818
AAXX 03064 43424 22478 30502 10299 20216 30078 40081 82101 333 59018 60007 70000 82816
AAXX 03064 43436 22470 43402 10290 20239 30084 40086 84100 333 59018 60007 70000 84818
AAXX 03064 43441 22470 418// 10304 20215 39949 40078 84600 333 59020 60007 70396 84716
AAXX 03064 43444 22470 32302 10286 20182 39555 40084 83101 333 59019 60007 70016 83818
AAXX 03064 43467 22966 02506 10310 20222 30079 40084 333 59019 60007 70003
AAXX 03064 43473 22470 50000 10181 20131 38119 48480 83101 333 59013 60007 70015 83812 84080
AAXX 03064 43475 22470 50000 10304 20228 30079 40089 83101 333 59001 60007 70006 83818 84080
AAXX 03064 43476 22470 61304 10215 20177 38763 48509 862// 333 59013 60007 70140 86811
AAXX 03064 43479 21470 40902 10254 20194 39253 70214 81101 333 59012 60007 70029 81818 84080
AAXX 03064 43486 22470 43202 10304 20235 39991 40085 83106 333 59012 60007 70000 83814 83280
AAXX 03064 43495 22468 5//// 10306 20252 30076 40092 81101 333 59015 60007 70000 81818 84080
AAXX 03064 43497 22476 31802 10296 20235 30073 40090 81101 333 59010 60007 70000 81818 83080
AAXX 03061 50136 11970 70000 11185 21231 39726 40318 57006 69911 70070 8703/ 333 21300
AAXX 03061 50745 32968 63404 11091 21154 30052 40249 57015 80002 333 21174
AAXX 03061 50774 32962 80000 11067 21147 39904 40227 57012 8801/ 333 21169
AAXX 03061 50788 32970 80202 11095 21141 30139 40230 57009 8802/ 333 21151
AAXX 03061 51133 11970 82704 11010 21026 39599 40263 52010 60051 77077 8802/ 333 00252 21011
AAXX 03061 51431 11960 81101 10000 21011 39482 40298 54000 60051 77077 8802/ 333 00601 21008
AAXX 03061 51747 32975 70202 10034 21071 38902 40211 57009 80002 333 05154 21077
AAXX 03061 52203 32980 72202 10047 21046 39305 40192 57009 80002 333 05202 21044
AAXX 03061 52418 32980 10701 10049 21034 38847 40177 57020 80002 333 05402 21037
AAXX 03061 52681 11980 81801 11018 21043 38638 40252 57003 69901 77070 8807/ 333 00054 21051
AAXX 03061 53564 32968 82701 11003 21065 39210 40266 57023 80007 333 00151 21092
AAXX 03061 53614 32962 83603 11019 21049 38911 40239 57009 85037 333 05251 21046
AAXX 03061 53646 31959 82002 11044 21054 38867 40264 57008 71040 8802/ 333 00154 21097
AAXX 03061 53798 31/02 90701 11012 21018 30170 40271 57013 74544 333 21026
AAXX 03061 53845 32968 80702 10020 21035 39081 40227 57022 8802/ 333 00154 21020
AAXX 03061 53959 32961 83202 10078 21014 39771 40221 57026 8807/ 333 21027
AAXX 03061 54094 32765 52501 11074 21158 39896 40214 57013 85500 333 21167
AAXX 03061 54102 11980 02004 11121 21163 39053 40343 57012 69901 70070 333 21256
AAXX 03061 54161 32560 73203 11043 21101 39923 40230 57004 87202 333 21108
AAXX 03061 54292 32970 63201 11048 21118 39867 40202 57015 86030 333 21137
AAXX 03061 54374 32670 70000 10021 21058 39721 40195 57009 82102 333 21079
AAXX 03061 54423 32980 02502 10009 21156 39733 40264 57020 333 21081
AAXX 03061 54618 31959 73201 11018 21025 30249 40267 57011 71040 8703/ 333 21042
AAXX 03061 54843 32960 03204 10051 21016 30232 40261 57008 333 21009
AAXX 03061 54909 31940 83601 11006 21016 30202 40269 57018 71040 8807/ 333 21034
AAXX 03061 56029 32980 61601 10056 21150 36407 57028 80002 333 05505 21112
AAXX 03061 57127 31958 81401 10051 20051 39577 40196 57023 71000 8807/ 333 20026
AAXX 03061 57131 32960 80404 10043 20003 39719 40225 57026 8807/ 333 21007
BBXX 44255 03061 99473 70573 46/// /0106 10029 40263 52008 22200 00051 11104 70020 333 91208
AAXX 03064 62002 32960 01507 10104 20051 39504 48553 56001 333 20093 50364 55095
AAXX 03064 62007 NIL
AAXX 03064 62008 NIL
AAXX 03064 62010 32560 21607 10101 20076 40230 54000 82500 333 20907 50344 55068 82630
AAXX 03064 62012 31558 20000 10134 20113 30210 40240 5600 71000 82200 333 21132 50184 82825
AAXX 03064 62016 NIL
AAXX 03064 62019 NIL
AAXX 03064 62053 32560 21003 10085 20036 40261 52008 82100 333 20085 50284 55098 82820
AAXX 03064 62055 NIL
AAXX 03064 62056 NIL
AAXX 03064 62059 NIL
AAXX 03064 62062 NIL
AAXX 03064 62103 NIL
AAXX 03064 62120 NIL
AAXX 03064 62124 32960 53011 1010 20040 39717 40427 53008 85040 333 20098 40445 55097 85360
AAXX 03064 62131 NIL
AAXX 03064 62161 32970 00000 10084 20056 40229 53009 333 20078 50204 55084
AAXX 03064 62176 NIL
AAXX 03064 62200 NIL
AAXX 03064 62212 NIL
AAXX 03064 62259 32970 00000 10055 20031 40262 53005 333 20055 50324 55102
AAXX 03064 62271 32970 00405 10097 20024 40271 54000 333 20080 50494 55///
AAXX 03064 65351 32958 73608 10236 20068 3//// 4//// 80002 333 20220 5//// 87076
AAXX 03064 65355 32960 70610 10190 20013 39602 40118 80002 333 20170 58005 87073
AAXX 03064 65357 32960 60806 10195 20044 39727 40117 80002 333 20190 58001 86076
AAXX 03064 65380 31406 70000 10215 20209 3//// 4//// 74442 85502 333 20209 5//// 85610 87076
BBXX SBLI 03061 99040 50842 43/98 51505 10208 40137 58012 22274 00214 2//// 4//// 426621110
AAXX 03064 60115 12460 62007 10071 20046 40213 52004 60034 83870 333 20066 81820 83820
AAXX 03061 13492 ///// 0//// 11031 333 21041
AAXX 03061 13584 NIL
AAXX 03061 13585 42997 00701 11024 21029 39446 40273 51005 333 21028 34109 92000
AAXX 03061 13597 42998 00000 11018 21019 30174 40249 5//// 333 21020 30105 92001
AAXX 03061 13598 NIL
AAXX 03064 04211 47/32 /1306 11103 21113 39836 49999 52014 77177 333 11102 21120 91130
AAXX 03064 04220 05/84 03205 11046 21120 39934 49986 52016 69922 333 11035 21113 55300 20004 6///7 70005
AAXX 03064 04221 45684 10902 11094 21139 39941 49979 52016 333 11044 21106 81/46
AAXX 03064 04231 12984 20507 11168 21201 39940 40017 52013 6///2 8204/ 333 11065 21186 82360
AAXX 03064 04234 45/83 /1006 11070 21131 39980 49990 52010 333 11040 21070
AAXX 03064 04241 47669 80406 11054 21073 39953 49993 52012 72577 333 11046 21059 81/39 88/46
AAXX 03064 04250 07457 71709 11036 21051 39876 49982 52009 60022 78587 333 10042 21095 55300 20000 69947 70052 81/11 83/24 85/43 87/59 91220
AAXX 03064 04254 47581 72011 11037 21082 39881 49996 52009 78088 333 11027 21048 87/30 91219
AAXX 03064 04260 47414 72823 11036 21070 39996 40040 52011 78588 333 11020 21053 87/18 91133 91224 91033
AAXX 03064 04270 45583 70901 11087 21109 30038 40078 52013 333 11054 21092 81/23 87/31
AAXX 03064 04272 06/// ///// 39998 52012 69952 333 6///7 70006
AAXX 03064 04312 46/// /3317 11225 21254 39927 49969 52008
AAXX 03064 04320 NIL
AAXX 03064 04339 45/84 ///// 11184 21287 39850 49944 52007 333 11165 21203 55300 20000
AAXX 03064 04360 06/// /3104 11117 21178 39844 49917 52003 6///2 333 11072 21120 55300 20000 6///7 70000
AAXX 03064 04361 46/// /1802 11130 21196 39865 49919 52002 333 11073 21133
AAXX 03064 04390 05/84 02310 11035 21111 39952 40047 52010 6///2 333 11017 21039 6///7 70004
BBXX 9V8797 03064 99190 10400 43/98 43105 10264 40158 56003 22234 00285 2//// 4////
AAXX 03061 08501 NIL
AAXX 03061 08505 NIL
AAXX 03061 08509 32560 70000 10138 20121 30289 40354 57005 878// 333 20134 50184 55001 82822 86630
AAXX 03061 08512 NIL
AAXX 03061 08515 NIL
AAXX 03061 08533 32/// /0205 10109 20065 30231 40260 52004 333 20109 30009 5//// 55048 20862 91009 91113
AAXX 03061 08541 32/// /0106 10077 20044 30145 40267 52002 333 20076 30006 5//// 55055 20897
AAXX 03061 08545 31962 09901 10049 20026 30205 40292 54000 70200 333 20044 30001 50314 55073 20868
AAXX 03061 08548 32/// /0601 10046 20037 30075 40287 52002 333 20044 30002 5//// 55075 21011
AAXX 03061 08554 32/// /2802 10097 20030 30237 40247 52002 333 20087 30010 5//// 55052 20915 91106
AAXX 03061 08558 NIL
AAXX 03061 08560 32/// /3304 10038 20006 39514 40295 52003 333 20036 30101 5//// 55070 20951
AAXX 03061 08567 32/// /0401 10026 20009 39615 40302 52004 333 20021 30101 5//// 55036 20562
AAXX 03061 08570 32/// /3602 10067 20003 39803 40272 54000 333 20048 30003 5//// 55083 21010 91006 91106
AAXX 03061 08575 NIL
AAXX 03061 08579 32/// /36// 10102 20041 30148 40275 52004 333 20100 30008 5//// 55064 20909
AAXX 03060 44214 41595 80000 11093 21144 38227 40259 58006 77177 85270
AAXX 03060 44231 31996 70000 11185 21245 38716 40377 58013 70422 80008
AAXX 03060 44259 32997 02103 11170 21211 39345 40308 58001
AAXX 03060 44277 32699 73204 11052 21102 37754 40234 58009 83574
AAXX 03060 44288 32999 21301 11056 21216 38137 40254 58002 80004
AAXX 03060 44292 31898 61203 11166 21216 38702 40332 56006 70421 82088
AAXX 03060 44304 32999 20000 11180 21214 39015 40335 58008 82040
AAXX 03060 44354 32999 50000 11118 21162 39115 40293 58005 82046
AAXX 03060 44373 32999 60902 11048 21111 38510 40224 58012 80008
AAXX 03064 47401 11/80 81013 10007 21041 30185 40200 58024 69901 70282 8257/
AAXX 03064 47412 11230 81106 11007 21021 30131 40164 57021 60011 77172 887//
AAXX 03064 47420 17/70 /1315 10040 20000 30190 40224 56027 69901 76760
AAXX 03064 47426 17/64 /0816 10035 20011 30112 40160 58037 69951 76760
AAXX 03064 47582 11/82 70205 10083 20066 30005 40031 56079 60121 72166 8257/
AAXX 03064 47590 11/30 83313 10099 20093 39986 40039 56060 60271 76366 887//
AAXX 03064 47600 17/62 /2305 10128 20119 39991 49999 58013 60061 76160
AAXX 03064 47648 11/40 82215 10131 20123 39982 40015 53003 60131 71062 888//
AAXX 03064 47662 11/80 71903 10136 20111 39975 40018 58025 60161 70265 82832
AAXX 03064 47678 17/57 /2312 10195 20187 39883 40063 53002 60041 76160
AAXX 03064 47740 17/57 /3310 10103 20086 30024 40058 53026 60091 78186
AAXX 03064 47778 17/70 /2623 10201 20147 39953 40033 55011 69901 72360
AAXX 03064 47807 11/80 63009 10147 20058 30109 40127 53009 60021 72582 86231
AAXX 03064 47827 11/80 73210 10168 20090 30080 40117 53006 69901 70282 8257/
AAXX 03064 47843 17/81 /2910 10154 20056 30105 40137 55000 69901 70086
AAXX 03064 47893 11/70 72507 10185 20104 30039 40045 53010 69901 70282 84872
AAXX 03064 47909 11/70 83607 10195 20105 30127 40137 50000 69901 70262 8347/
AAXX 03064 47918 11/70 70212 10198 20116 30142 40159 56012 69901 70286 8287/
AAXX 03064 47936 11/80 83617 10199 20109 30088 40147 55002 69901 72586 8327/
AAXX 03064 47945 11/60 83611 10200 20181 30099 40123 55002 60041 76162 8687/
AAXX 03064 47971 11/75 61806 10252 20229 30111 40121 56010 69951 70181 82232
AAXX 03064 47991 16/// /0504 10268 20215 30148 40158 53001 60001
AAXX 03064 47407 12/70 72601 11054 21095 30019 40199 57028 60001 8267/
AAXX 03064 47409 12/80 81605 10025 21036 30164 40219 56021 60001 8157/
AAXX 03064 47418 11/58 80509 10014 21027 30166 40216 56029 69901 78522 887//
AAXX 03064 47421 17/70 /1610 10033 20014 30078 40122 58028 69901 76760
AAXX 03064 47430 11/57 81118 10081 20059 30051 40105 56045 60131 78188 887//
AAXX 03064 47570 17/70 /2902 10116 20107 39754 40005 58045 60051 72360
AAXX 03064 47575 11/57 80904 10096 20054 30071 40076 56056 60051 76166 887//
AAXX 03064 47584 11/60 83607 10053 20047 39887 40076 56071 60091 76122 8752/
AAXX 03064 47604 12/82 71317 10161 20102 39978 49986 56064 69901 8323/
AAXX 03064 47605 11/50 82205 10125 20112 39969 40009 58007 60041 78186 882//
AAXX 03064 47610 11580 62813 10141 20089 39514 49996 56038 60021 72162 82870
AAXX 03064 47624 11/65 73207 10131 20096 39874 40009 56061 60121 70262 8757/
AAXX 03064 47629 11/65 83205 10129 20115 39963 40000 55033 60131 72162 885//
AAXX 03064 47636 11/65 82802 10147 20129 39958 40024 55015 60021 70282 8727/
AAXX 03064 47651 11/50 72302 10159 20144 30009 40031 55007 69901 72582 8777/
AAXX 03064 47655 17/70 /0404 10171 20155 39972 40027 58016 60021 70060
AAXX 03064 47675 17/70 /1815 10191 20173 39935 40022 56025 60041 72360
AAXX 03064 47741 11/50 83213 10113 20101 30041 40068 53028 60021 78082 882//
AAXX 03064 47746 11/57 72813 10140 20114 30015 40034 53002 69951 78082 8687/
AAXX 03064 47750 11480 71805 10162 20124 39994 40021 55004 69951 70282 8327/
AAXX 03064 47765 11/80 73412 10151 20069 30016 40080 53023 69901 70282 872//
AAXX 03064 47772 11/70 82409 10157 20117 39944 40041 53008 69901 72582 8627/
AAXX 03064 47800 15/80 /3211 10138 20067 30118 40123 53009 60001
AAXX 03064 47815 12/80 72713 10153 20058 30086 40102 53015 60001 82271
AAXX 03064 47817 11/80 73009 10148 20071 30089 40132 53006 69901 70282 8623/
AAXX 03064 47830 12/80 72816 10166 20056 30084 40102 53010 60001 8227/
AAXX 03064 47887 11/75 82707 10156 20084 30044 40084 53014 69901 72582 8327/
AAXX 03064 47891 11/65 82508 10164 20109 30034 40050 55000 69951 70282 8627/
AAXX 03064 47895 12/75 73008 10173 20111 30031 40039 55005 60001 83272
AAXX 03064 47927 11/70 70112 10197 20130 30106 40155 55006 69901 72162 8487/
AAXX 03060 44203 32999 50000 11261 21285 38401 40418 58011 80006
AAXX 03060 44207 32999 70000 11186 21227 38291 40330 57007 81048
AAXX 03060 44212 41999 70000 11130 21157 39143 40330 58005 70272 8807/
AAXX 03060 44213 41699 70000 11149 21170 38781 40336 57002 70272 87500
AAXX 03060 44215 41595 80000 11136 21163 38379 40292 52003 77072 886//
AAXX 03060 44218 32998 71601 11112 21147 38576 40277 58007 87070
AAXX 03060 44225 32998 60000 11238 21263 38258 40408 56009 80008
AAXX 03060 44230 32998 80000 11185 21226 38798 40386 58006 8802/
AAXX 03060 44232 32999 50000 11226 21251 39134 40375 57005 83041
AAXX 03060 44237 32999 32302 11160 21211 38463 40299 58007 82044
AAXX 03060 44239 32999 81701 11183 21224 38797 40325 58003 8801/
AAXX 03060 44241 32999 60000 11162 21196 39293 40331 57001 80008
AAXX 03060 44256 32999 22703 11139 21166 39378 40284 58001 82040
AAXX 03060 44265 41595 80000 11069 21094 38830 40261 51008 77372 8802/
AAXX 03060 44272 32998 70000 11096 21177 38176 40227 58011 86047
AAXX 03060 44275 32698 60000 11051 21110 37676 40170 56008 83540
AAXX 03060 44282 32999 41602 11094 21218 38265 40247 58007 82044
AAXX 03060 44284 32899 50000 11165 21216 37820 40373 58006 84089
AAXX 03060 44285 32899 32101 11127 21201 38298 40302 57004 82081
AAXX 03060 44287 32999 20803 11096 21187 38090 40292 58002 80001
AAXX 03060 44294 32998 63601 11176 21203 38557 40358 57006 80006
AAXX 03060 44298 32999 10000 11188 21188 38708 40326 58006 80004
AAXX 03060 44302 32999 02704 11184 21224 39136 40336 58007
AAXX 03060 44305 32999 02902 11142 21184 39069 40290 58006
AAXX 03060 44313 41997 80000 11132 21175 39410 40293 58008 77072 8802/
AAXX 03060 44314 32998 03404 11102 2//// 39160 40292 57003
AAXX 03060 44317 32998 02703 11114 21149 38952 40284 58006
AAXX 03060 44336 32999 40000 11103 21139 38667 40263 56007 80008
AAXX 03060 44341 32999 50000 11097 21151 38590 40289 56008 82034
AAXX 03060 44347 32999 52702 11063 21133 38694 40235 58010 80008
AAXX 03060 44352 32999 20000 11139 21182 38930 40301 56002 80004
AAXX 03060 44358 32998 60904 11176 21188 39105 40332 58005 82049
AAXX 03061 08512 32470 70103 10149 20116 30258 40345 57005 878// 333 20146 30013 5//// 55/// 2//// 81815 87630
AAXX 03061 40703 12960 00000 11034 21068 38975 40293 51012 60001 333 31113 70000
AAXX 03061 40712 12966 02703 11010 21067 38725 40292 52012 60001 333 34114 70000
AAXX 03061 40729 12962 00000 11018 21056 38363 40265 52010 60001 333 3/113 70000
AAXX 03061 40736 12960 02102 10082 20050 30268 40241 52016 60001 333 30000 50011 70000
AAXX 03061 40739 12560 10000 10024 21038 38718 40250 53008 60001 81100 333 31107 70000 81830
AAXX 03061 40743 11658 10503 10040 20005 39108 40255 52007 60001 70500 81100 333 31101 70000
AAXX 03061 40762 12665 10000 10036 21018 38578 40232 51008 60001 81500 333 30105 70000 81635
AAXX 03061 40768 12960 00000 11014 21056 38281 40273 50003 60001 333 34111 70000
AAXX 03061 40769 11950 00000 11016 21047 38316 40255 50005 60001 70500 333 31108 5//// 70000
AAXX 03061 40785 12960 00000 10038 21021 39126 40248 52018 60001 333 30102 50061 70000
AAXX 03061 40809 12960 00000 10072 21074 38528 40228 51005 60001 333 30107 50301 70000
AAXX 03061 40821 11927 01303 10053 20005 38821 40244 50001 60001 70500 333 31101 50091 70000
AAXX 03061 40831 12960 03302 10088 21042 30228 40236 52013 60001 333 30002 50681 70000
AAXX 03061 37575 42999 00702 10020 21056 39652 40253 52015
AAXX 03061 37675 42999 02903 10008 21012 39597 40275 52017
AAXX 03061 37735 42999 02902 10039 21027 39813 40196 52002
AAXX 03061 37749 42998 02701 10022 21015 30173 40294 53012
AAXX 03061 37756 42999 20000 11043 21113 39379 40320 53012 82070
AAXX 03061 37864 32597 23205 10072 20038 40254 52018 82200 333 20010 555 30///
AAXX 03061 37985 42999 02001 10032 21009 30274 40259 51004
AAXX 03061 08521 NIL
AAXX 03061 08524 12465 40305 10166 20099 30196 40294 57004 69932 84800 333 20160 30014 5//// 55078 21079 83815 91009 91109
AAXX 0306/ 89767 46/// ///// 11069 39772 4//// 5////
AAXX 03061 48921 31457 51401 10175 20130 38538 48041 57021 71044 85800 333 59019
AAXX 03061 48924 32562 12202 10245 20173 39479 40097 57032 84100 333 59027
AAXX 03061 48925 31456 20203 10242 20168 39376 40099 57024 71044 82200 333 59025
AAXX 03061 48926 31559 70402 10232 20161 39648 40113 57019 70544 81800 333 59018
AAXX 03061 48927 31430 80402 10139 20111 39149 48614 57014 71044 888// 333 59023
AAXX 03061 48928 31456 82701 10133 20104 39061 48532 57024 71044 8681/ 333 59019
AAXX 03061 48930 32470 42701 10245 20163 39778 40125 57028 82800 333 59018
AAXX 03061 48935 32468 23603 10172 20100 38946 48444 57022 82100 333 59020
AAXX 03061 48938 31559 20402 10258 20168 39781 40113 57019 70544 82100 333 59027
AAXX 03061 48940 31956 00902 10251 20146 39912 40107 57028 70544 333 59013
AAXX 03061 48941 31565 22203 10256 20156 3//// 4//// 5//// 70544 82100 333 5////
AAXX 03061 48944 31660 10904 10218 20105 39524 40110 57004 81500 333 58000
AAXX 03061 48945 31940 01801 10258 20140 39937 40115 57026 70544 333 59020
AAXX 03061 48946 31559 41803 10264 20171 39944 40109 57021 70544 81101 333 59030
AAXX 03061 48947 32460 50403 10262 20156 39981 40146 57015 83230 333 59012
AAXX 03061 48948 32965 20905 10250 20132 39910 40119 57020 82031 333 59004
AAXX 03061 48952 NIL
AAXX 03061 48953 NIL
AAXX 03061 48955 31558 51803 10270 20169 39990 40106 57012 70544 82802 333 59003
AAXX 03061 48957 31568 40901 10298 20162 39977 40083 57020 70544 83202 333 59008
AAXX 03061 40701 12960 00000 11040 21094 38637 40291 53011 60001 333 30112 70000
AAXX 03061 40704 12970 02406 11012 21085 38646 40267 51011 60001 333 34109 70000
AAXX 03061 40708 12960 00000 11032 21072 38698 40261 52014 60001 333 3/109 45999 70000
AAXX 03061 40710 12978 09901 11082 21100 38350 40324 52011 60001 333 34117 70000
AAXX 03061 40713 11957 00000 11022 21069 38707 40287 50011 60001 70500 333 34110 70000
AAXX 03061 40731 11958 01501 10034 21055 38767 40256 52010 60001 70500 333 31108 70000
AAXX 03061 40740 12560 60604 11016 21029 38748 40261 53005 60001 86600 333 3/111 47015 70000 86725
AAXX 03061 40747 12962 00000 11020 21081 38667 40277 51013 60001 333 34112 70000
AAXX 03061 40757 12962 20000 10050 21017 38934 40248 51008 60001 80001 333 31104 70000 82070
AAXX 03061 40763 12662 10000 10046 20007 38956 40249 51006 60001 81100 333 32/// 70000
AAXX 03061 40782 12962 00000 10028 21046 38918 40263 52009 60001 333 34110 5//// 70000
AAXX 03061 40783 12968 03103 10022 21079 38000 40235 52007 60001 333 34108 5///1 70000
AAXX 03061 40789 12965 00000 10060 20017 39246 40239 52007 60001 333 31101 50101 70000
AAXX 03061 40798 12960 00000 11008 21069 37981 40267 54000 60001 333 30113 70000
AAXX 03061 40818 12970 03502 10030 21107 38003 40233 52014 60001 333 30105 5///1 70000
AAXX 03061 40827 12970 02102 10114 21051 38862 40231 50001 60001 333 30101 50241 70000
AAXX 03061 40836 12975 09901 10032 21050 38225 40240 51006 60001 333 31108 5///1 70000
AAXX 03061 40851 12965 00000 10094 21033 38297 40208 52013 60001 333 30107 50261 70000
AAXX 03061 40853 12965 00000 10104 21141 37776 40168 52014 60001 333 30105 50351 70000
AAXX 03061 40854 12960 00000 10126 20010 38987 40196 53006 60001 333 30004 50261 70000
AAXX 03061 40857 12960 00104 10154 20068 30197 40207 52011 60001 222// 00170 20402 333 30009 50271 70000
AAXX 03061 40859 12962 00000 10112 20041 38741 40185 51010 60001 333 31101 50161 70000
AAXX 03061 40878 12965 00000 10176 20000 38863 40176 51003 60001 333 30007 50551 70000
AAXX 03061 40879 11940 00000 10187 20017 39509 40183 50000 60001 70500 333 30007 50501 70000
AAXX 03061 40883 12962 00702 10236 20145 30141 40163 52013 60001 222// 00226 20600 333 30012 50491 70000
AAXX 03064 61902 11360 81310 10213 20202 40146 60034 78082 888// 333 20209 59002 82708 84812 88624
AAXX 03061 30372 41999 33601 11195 21221 39387 40321 58003 70171 82032
AAXX 03061 30433 42999 80302 11114 21158 39665 40285 51001 82041
AAXX 03061 30554 41998 81601 11157 21184 39158 40311 58003 70282 80006
AAXX 03061 30635 42899 51402 11139 21174 39696 40299 58004 82032
AAXX 03061 30673 41999 81501 11157 21184 39481 40295 58008 70172 80005
AAXX 03061 30692 42997 20000 11205 21231 39772 40308 58/// 82030
AAXX 03061 30758 41997 00000 11156 21175 39439 40310 58005 70411
AAXX 03061 30802 42999 80000 11094 21140 38685 48475 58005 84035
AAXX 03061 30823 41998 22102 11171 21213 39643 40324 58009 70471 80001
AAXX 03061 30879 42999 80000 11176 21218 39486 40298 58008 70272 80007
AAXX 03061 30935 41999 21701 11139 21174 39332 40319 58009 70171 80001
AAXX 03061 30949 42999 20000 11143 21178 39159 40312 58010 82030
AAXX 03061 30965 42999 03102 11159 21193 39419 40295 57006
AAXX 03061 31168 42999 02002 11099 21201 30232 40244 53003
AAXX 03061 31300 41999 80000 11203 21215 39989 40303 57013 70241 80002
AAXX 03061 31329 42999 60000 11211 21259 39574 40298 57021 80002
AAXX 03061 31369 42999 02601 11145 21188 30181 40272 58014
AAXX 03061 31416 42999 23501 11169 21203 30170 40266 57023 80001
AAXX 03061 31484 42999 50901 11118 21190 39899 40252 57024 82031
AAXX 03061 31512 419// 83302 11155 21189 30087 40265 57021 72272 8801/
AAXX 03061 31538 42699 82202 11180 21221 39797 40262 57026 82441
AAXX 03061 31707 42599 80000 11073 21155 30136 40230 57014 82571
AAXX 03061 31735 42997 70102 11130 21185 30151 40244 55004 85031
AAXX 03061 31770 42599 80502 11055 21106 30221 40252 57012 82531
AAXX 03063 87148 32970 01405 10186 20130 39982 40089 58023
AAXX 03064 87007 NIL
AAXX 03064 87022 32960 50000 10238 20188 39547 40040 57009 85070 333 56099 85360
AAXX 03064 87046 32965 52704 10212 20144 39070 48468 57019 85070 333 56090 85360 98365
AAXX 03064 87047 32965 02703 10172 20135 38765 48484 57017
AAXX 03064 87097 32960 00506 10143 20123 39790 40101 57009
AAXX 03064 87121 32965 00208 10221 20162 39561 40055 57015
AAXX 03064 87129 32965 00503 10213 20120 39860 40086 56003
AAXX 03064 87155 31962 01403 10166 20152 30049 40110 55016 71000
AAXX 03064 87162 32970 01802 10157 20147 30033 40102 58010
AAXX 03064 87166 32960 01404 10168 20144 30036 40108 57013
AAXX 03064 87178 32970 01105 10192 20102 39966 40110 52004
AAXX 03064 87217 NIL
AAXX 03064 87222 32970 00217 10257 20095 39537 40036 57001
AAXX 03064 87257 NIL
AAXX 03064 87270 31958 00905 10170 20137 30058 40121 58008 70400
AAXX 03064 87289 NIL
AAXX 03064 87311 32965 00000 10220 20122 39393 40045 58007
AAXX 03064 87320 NIL
AAXX 03064 87328 31965 00505 10217 20097 39465 40092 54000 70400 333 95090
AAXX 03064 40373 42960 00000 10089 20000 39807 40240 333 20023 59019
AAXX 03064 40377 42960 00405 10100 20010 39754 40249 333 20027 59014
AAXX 03064 NIL
AAXX 03064 NIL
AAXX 03064 NIL
AAXX 03064 82022 32970 00403 10258 20202 39984 40079 333 59003
AAXX 03064 82193 32970 00402 10252 20234 30067 40085 333 59014
AAXX 03064 82281 32470 10609 10266 20187 30017 40078 81500 333 59013
AAXX 03064 82332 31270 71905 10253 20239 39993 40085 70392 87500 333 59018
AAXX 03064 82398 32570 20907 10249 20206 30072 40101 82100 333 59037
AAXX 03064 82400 NIL
AAXX 03064 82579 32570 60302 10251 20215 39999 40075 84530 333 59016
AAXX 03064 82917 31112 73503 10253 20252 39870 40088 72842 86630 333 59001
AAXX 03064 82965 NIL
AAXX 03064 82993 32470 30204 10219 20207 39976 40111 83100 333 59005
AAXX 03064 83208 NIL
AAXX 03064 83349 NIL
AAXX 03064 83362 32970 00105 10254 20206 39858 40070 333 59014
AAXX 03064 83378 NIL
AAXX 03064 83460 32570 53502 10240 20225 30047 40104 83150 333 59004
AAXX 03064 83497 NIL
AAXX 03064 83566 NIL
AAXX 03064 83599 NIL
AAXX 03064 83612 32970 01107 10218 20062 39459 48500 56008
AAXX 03064 83649 21470 82108 10214 20199 30125 40130 58010 72162 8752/ 333 60021
AAXX 03064 83650 NIL
AAXX 03064 83780 32670 71306 10144 20115 39236 48510 58013 87500
AAXX 03064 83827 32970 00000 10136 20128 39817 40093 51010
AAXX 03064 83840 32370 80504 10119 20111 39125 48510 58012 886//
AAXX 03064 83899 21465 62505 10183 20168 30151 4//// 56015 76162 86500 333 69971
AAXX 03064 83925 NIL
AAXX 03064 83970 NIL
AAXX 03064 83971 32970 00703 10150 20142 30145 40149 56014
AAXX 03064 NIL
AAXX 03064 NIL
AAXX 03064 NIL
AAXX 03064 NIL
AAXX 03064 NIL
AAXX 03064 NIL
AAXX 03064 82143 NIL
AAXX 03064 82599 32570 31405 10231 20204 30042 40102 83100 333 59002
AAXX 03064 82824 32270 73310 10254 20236 39986 40086 84530 333 59000
AAXX 03064 82899 32570 40000 10256 20202 30100 40112 84100 333 59004
AAXX 03064 83117 NIL
AAXX 03064 83248 32470 30504 10261 20229 30076 40098 83200 333 59013
AAXX 03064 83746 32470 60802 10193 20166 40143 57014 82530
BBXX WQZ7791 03064 99468 70853 41/98 /0000 11177 2//// 40000 54000 70000 8//// 222// 0//// 2//00 3//// 4//// 5//// 6//// 8//// ICE /////
BBXX C6FR6 03064 99353 10258 41/// 12408 10150 2//// 40260 5/010 7//// 8//// 22253 0//// 2//// 3//// 4//// 5//// 6//// 8//// ICE /////
BBXX WDF2728 03064 99261 70800 41798 40520 10211 2012/ 40240 54/// 7//00 82182 22200 0//// 20302 305// 40703 5//// 6//// 80156 ICE /////
BBXX WE3806 03064 99468 70856 41/98 11818 10011 2//// 40251 56/// 70200 8//// 22263 0//// 2//02 3//// 4//// 5//// 6//// 8//// ICE /////
BBXX 9HA2583 03064 99259 70667 41497 32107 1//// 2//// 40170 51/// 7//22 83444 22244 0//// 2//// 3//// 4//// 5//// 6//// 8//// ICE /////
BBXX WAHP 03064 99249 10589 41998 02705 10270 20205 40210 51020 70200 80000 22224 00268 20201 325// 40402 5//// 6//// 80225 ICE /////
BBXX WNBE 03064 99222 71592 41398 60722 10240 2//// 40180 52020 78165 8626/ 22233 0//// 20502 335// 42004 5//// 6//// 8//// ICE /////
BBXX WZJC 03064 99200 70710 41498 30406 10256 2021/ 40151 58008 78081 839// 22273 00272 2//// 3//// 4//// 5//// 6//// 80222 ICE /////
BBXX WDE2719 03063 99607 71514 41/94 80410 11039 2//// 40220 5//// 745// 8//// 222// 00000 2//01 326// 4//01 5//// 6//// 8//// ICE /////
BBXX C6YZ5 03064 99181 70638 41598 40317 10260 2//// 40100 54/// 7//22 841// 22263 00290 20102 303// 4//// 5//// 6//// 8//// ICE /////
BBXX NWS0021 03064 99318 70642 43/// /0908 10204 20179 40183 5//// 7//// 8//// 222// 04238 2//// 3//// 4//// 5//// 6//// 8//// ICE /////
BBXX C6YA5 03064 99427 50728 41/96 80320 10144 2//// 40090 56020 78088 884// 22283 00130 20401 3//// 4//// 5//// 6//// 8//// ICE /////
AAXX 03061 40701 12960 00000 11040 21094 38637 40291 53011 60001 333 30112 70000
AAXX 03061 40704 12970 02406 11012 21085 38646 40267 51011 60001 333 34109 70000
AAXX 03061 40708 12960 00000 11032 21072 38698 40261 52014 60001 333 3/109 45999 70000
AAXX 03061 40710 12978 09901 11082 21100 38350 40324 52011 60001 333 34117 70000
AAXX 03061 40713 11957 00000 11022 21069 38707 40287 50011 60001 70500 333 34110 70000
AAXX 03061 40731 11958 01501 10034 21055 38767 40256 52010 60001 70500 333 31108 70000
AAXX 03061 40740 12560 60604 11016 21029 38748 40261 53005 60001 86600 333 3/111 47015 70000 86725
AAXX 03061 40747 12962 00000 11020 21081 38667 40277 51013 60001 333 34112 70000
AAXX 03061 40757 12962 20000 10050 21017 38934 40248 51008 60001 80001 333 31104 70000 82070
AAXX 03061 40763 12662 10000 10046 20007 38956 40249 51006 60001 81100 333 32/// 70000
AAXX 03061 40782 12962 00000 10028 21046 38918 40263 52009 60001 333 34110 5//// 70000
AAXX 03061 40783 12968 03103 10022 21079 38000 40235 52007 60001 333 34108 5///1 70000
AAXX 03061 40789 12965 00000 10060 20017 39246 40239 52007 60001 333 31101 50101 70000
AAXX 03061 40798 12960 00000 11008 21069 37981 40267 54000 60001 333 30113 70000
AAXX 03061 40818 12970 03502 10030 21107 38003 40233 52014 60001 333 30105 5///1 70000
AAXX 03061 40827 12970 02102 10114 21051 38862 40231 50001 60001 333 30101 50241 70000
AAXX 03061 40836 12975 09901 10032 21050 38225 40240 51006 60001 333 31108 5///1 70000
AAXX 03061 40851 12965 00000 10094 21033 38297 40208 52013 60001 333 30107 50261 70000
AAXX 03061 40853 12965 00000 10104 21141 37776 40168 52014 60001 333 30105 50351 70000
AAXX 03061 40854 12960 00000 10126 20010 38987 40196 53006 60001 333 30004 50261 70000
AAXX 03061 40857 12960 00104 10154 20068 30197 40207 52011 60001 222// 00170 20402 333 30009 50271 70000
AAXX 03061 40859 12962 00000 10112 20041 38741 40185 51010 60001 333 31101 50161 70000
AAXX 03061 40878 12965 00000 10176 20000 38863 40176 51003 60001 333 30007 50551 70000
AAXX 03061 40879 11940 00000 10187 20017 39509 40183 50000 60001 70500 333 30007 50501 70000
AAXX 03061 40883 12962 00702 10236 20145 30141 40163 52013 60001 222// 00226 20600 333 30012 50491 70000
AAXX 03064 NIL
AAXX 03061 26997 11456 82006 10006 21005 39930 40152 57004 60022 71082 886// 333 21001 88711
AAXX 03061 27595 31597 82503 11060 21083 30097 40251 57005 69900 70272 885// 333 21065
AAXX 03061 27612 11496 81903 10010 21001 39889 40083 57015 60022 77172 8872/ 333 20010 43001
AAXX 03061 27707 11556 72306 10003 21005 39819 40115 57006 69982 87500 333 21008 43004 87624 51002
AAXX 03061 27719 11497 82005 11002 21017 39895 40149 57016 69972 78582 883// 333 21019 43003
AAXX 03061 27786 31496 81705 11064 21076 30103 40271 53007 77172 885// 333 21067 88615
AAXX 03061 27857 32998 82205 11050 21086 30077 40247 57003 8802/ 333 21047
AAXX 03061 27906 11496 81608 10004 21007 39915 40160 57014 60022 78582 889// 333 21006 43002
AAXX 03061 27928 32997 71905 11018 21039 39990 40203 58021 8705/ 333 21038 41001
AAXX 03061 27947 32697 61704 11066 21122 30082 40249 57007 82530 333 21068
AAXX 03061 27962 32597 81703 11053 21082 40267 51001 885// 333 21057 88625
AAXX 03061 27983 12498 80000 11057 21072 30137 40271 54000 69900 886// 333 21060 88715
AAXX 03061 27995 11497 80000 11058 21065 40281 52008 69920 77172 8802/ 333 21067
AAXX 03061 28506 11996 82102 11054 21068 30140 40259 58002 69900 71072 8802/ 333 21060
AAXX 03061 28704 31496 82301 11069 21078 30174 40275 52004 71022 886// 333 21128 88715
AAXX 03061 28711 31295 82203 11090 21093 39883 40278 52004 71042 886// 333 21095 88703 93523
AAXX 03061 28807 11596 80000 11056 21070 30230 40283 52011 69900 77177 885// 333 21057 88631
AAXX 03061 34009 32597 81805 11005 21029 39889 40201 57008 885// 333 21014 43001
AAXX 03061 34110 32598 82103 11014 21028 39947 40233 57003 8535/ 333 21024 93402
AAXX 03061 34123 32575 71603 11035 21071 30049 40240 57009 82531 333 21072 41997
AAXX 03061 34152 32599 72001 11038 21075 30065 40269 57004 875// 333 21046 87626
AAXX 03061 34163 32498 81002 11060 21075 40277 53005 885// 333 88619
AAXX 03061 34171 31460 89902 11052 21073 30077 40278 52010 77172 886// 333 21053 88715
AAXX 03061 34186 11595 83601 11095 21107 30138 40285 52010 69900 77172 885// 333 21132 88624
AAXX 03061 34247 32567 81903 11034 21094 30158 40277 53006 885// 333 21040 88624
AAXX 03061 34336 32670 82001 11034 21085 30173 40282 52005 8351/ 333 21034
AAXX 03061 34391 11496 80202 11122 21142 30247 40280 52011 69920 71077 886// 333 21151 88720
AAXX 03061 35011 31497 80000 11147 21160 40294 52012 72242 886// 333 21161 88711 93513
AAXX 03061 35121 31396 80000 11115 21120 30132 40288 52012 71042 886// 333 21110 88708 93505
AAXX 03061 40701 12960 00000 11040 21094 38637 40291 53011 60001 333 30112 70000
AAXX 03061 40704 12970 02406 11012 21085 38646 40267 51011 60001 333 34109 70000
AAXX 03061 40708 12960 00000 11032 21072 38698 40261 52014 60001 333 3/109 45999 70000
AAXX 03061 40710 12978 09901 11082 21100 38350 40324 52011 60001 333 34117 70000
AAXX 03061 40713 11957 00000 11022 21069 38707 40287 50011 60001 70500 333 34110 70000
AAXX 03061 40731 11958 01501 10034 21055 38767 40256 52010 60001 70500 333 31108 70000
AAXX 03061 40740 12560 60604 11016 21029 38748 40261 53005 60001 86600 333 3/111 47015 70000 86725
AAXX 03061 40747 12962 00000 11020 21081 38667 40277 51013 60001 333 34112 70000
AAXX 03061 40757 12962 20000 10050 21017 38934 40248 51008 60001 80001 333 31104 70000 82070
AAXX 03061 40763 12662 10000 10046 20007 38956 40249 51006 60001 81100 333 32/// 70000
AAXX 03061 40782 12962 00000 10028 21046 38918 40263 52009 60001 333 34110 5//// 70000
AAXX 03061 40783 12968 03103 10022 21079 38000 40235 52007 60001 333 34108 5///1 70000
AAXX 03061 40789 12965 00000 10060 20017 39246 40239 52007 60001 333 31101 50101 70000
AAXX 03061 40798 12960 00000 11008 21069 37981 40267 54000 60001 333 30113 70000
AAXX 03061 40818 12970 03502 10030 21107 38003 40233 52014 60001 333 30105 5///1 70000
AAXX 03061 40827 12970 02102 10114 21051 38862 40231 50001 60001 333 30101 50241 70000
AAXX 03061 40836 12975 09901 10032 21050 38225 40240 51006 60001 333 31108 5///1 70000
AAXX 03061 40851 12965 00000 10094 21033 38297 40208 52013 60001 333 30107 50261 70000
AAXX 03061 40853 12965 00000 10104 21141 37776 40168 52014 60001 333 30105 50351 70000
AAXX 03061 40854 12960 00000 10126 20010 38987 40196 53006 60001 333 30004 50261 70000
AAXX 03061 40857 12960 00104 10154 20068 30197 40207 52011 60001 222// 00170 20402 333 30009 50271 70000
AAXX 03061 40859 12962 00000 10112 20041 38741 40185 51010 60001 333 31101 50161 70000
AAXX 03061 40878 12965 00000 10176 20000 38863 40176 51003 60001 333 30007 50551 70000
AAXX 03061 40879 11940 00000 10187 20017 39509 40183 50000 60001 70500 333 30007 50501 70000
AAXX 03061 40883 12962 00702 10236 20145 30141 40163 52013 60001 222// 00226 20600 333 30012 50491 70000
AAXX 03061 28676 11497 81602 11114 21130 30071 40204 57008 69900 77177 8802/ 333 21180
AAXX 03061 28766 11996 82205 11091 21111 30014 40211 57003 69950 71072 87071 333 21182
AAXX 03061 28867 11598 62703 11095 21125 39959 40241 52002 69900 70271 86500 333 21116
AAXX 03061 28879 11997 82407 11064 21087 39931 40226 53003 69930 77172 8805/ 333 21161
AAXX 03061 28952 32999 72001 11104 21110 30057 40258 52007 80001 333 21117
AAXX 03061 28966 11597 82704 11068 21084 39956 40248 52001 69960 77177 885// 333 21087
AAXX 03061 29802 11996 82303 11121 21140 30077 40227 57001 69920 72271 8807/ 333 21149
AAXX 03061 29807 31997 22301 11089 21123 30110 40233 57003 70171 82030 333 21171
AAXX 03061 34691 32998 63602 11092 21126 30289 40276 52019 86030 333 21061
AAXX 03061 35067 11998 82003 11055 21069 39976 40260 53004 69930 70372 8802/ 333 21077
AAXX 03061 35078 11597 82506 11055 21066 39867 40255 54000 69920 78582 889// 333 21068
AAXX 03061 35085 11396 82405 11062 21077 39760 40248 54000 69990 77172 8672/ 333 21075
AAXX 03061 35108 12597 80000 11061 21076 30233 40281 52012 69920 885// 333 21075
AAXX 03061 35188 11997 81302 11070 21095 39822 40270 52001 69950 77177 8802/ 333 21080
AAXX 03061 35217 32598 71801 11041 21068 30234 40274 52013 87500 333 21064
AAXX 03061 35229 11597 80201 11060 21071 39980 40262 52009 69930 77172 885// 333 21067
AAXX 03061 35302 11596 81503 11050 21056 30248 40268 52010 69900 77777 886// 333 21088
AAXX 03061 35357 32997 81802 11130 21150 39832 40292 52006 84052 333 21192
AAXX 03061 35394 11998 61602 11091 21120 39585 40288 52002 69900 72272 80002 333 21098
AAXX 03061 35406 31596 80000 11071 21097 30264 40267 53014 77172 8802/ 333 21063
AAXX 03061 35416 11597 80000 11054 21084 30147 40272 52008 69920 70272 886// 333 21062
AAXX 03061 35426 11997 82702 11069 21085 39965 40267 52010 69920 77172 8802/ 333 21067
AAXX 03061 35497 32998 30000 11124 21147 39459 40298 52007 80002 333 21168
AAXX 03061 35532 12498 80000 11080 21116 39756 40266 52013 69930 8802/ 333 21075
AAXX 03061 35671 11998 81202 11088 21131 39843 40290 52008 69900 70271 8807/ 333 21102
AAXX 03061 35700 11495 80604 11034 21051 30278 40254 52008 69950 77377 8802/ 333 21035
AAXX 03061 35746 11498 82401 11065 21073 30212 40282 52010 69980 70232 84770 333 21118
AAXX 03061 35796 11998 72602 11053 21098 39843 40289 52010 69900 72287 83079 333 21067
AAXX 03061 35849 12998 80000 11040 21059 30204 40289 52009 69960 885// 333 21057
AAXX 03061 35925 NIL
AAXX 03061 35953 11496 82504 11050 21063 30169 40303 52015 69930 77172 8802/ 333 21043
AAXX 03061 35969 12599 62301 11030 21061 30137 40215 52024 60010 86500 333 21033
AAXX 03061 36003 11596 82502 11067 21076 30092 40247 52001 69990 77172 8352/ 333 21074
AAXX 03061 36152 32998 72504 11070 21113 30075 40269 58003 84042 333 21131
AAXX 03061 36177 31996 71201 11099 21107 30031 40288 58004 77172 8807/ 333 21165
AAXX 03061 36208 11597 82301 11088 21103 39259 40267 52003 69900 77177 8372/ 333 21107
AAXX 03061 36397 11999 70000 11080 21107 39698 40277 51001 69920 70272 85052 333 21106
AAXX 03061 36428 11496 80000 11030 21053 39737 40240 58005 69960 77172 8372/ 333 21070 95050
AAXX 03061 36535 32599 52901 11040 21090 39615 40256 52004 85530 333 21067
AAXX 03061 36639 11596 82202 11027 21040 39644 40254 52014 60060 77177 8802/ 333 21023
AAXX 03061 36821 12599 82403 10001 21036 39802 40295 52011 69950 889// 333 21017
AAXX 03061 36859 11996 80901 10002 21017 39506 40294 52002 60050 70277 8802/ 333 21013
AAXX 03061 36864 12599 62906 10000 21053 39394 40296 58005 69920 83752 333 21016
AAXX 03061 36870 11597 70000 10039 20009 39264 40271 54000 60090 70282 85932 333 21010
AAXX 03061 38001 NIL
AAXX 03061 38062 12699 62401 11030 21082 30140 40307 52015 60010 86500 333 21032
AAXX 03061 38069 12998 22401 11018 21056 30116 40312 52007 69920 80009 333 21035
AAXX 03061 38196 NIL
AAXX 03061 38198 NIL
AAXX 03061 38222 12598 82503 11008 21040 39745 40315 52011 60020 885// 333 21007
AAXX 03061 38232 NIL
AAXX 03061 38328 NIL
AAXX 03061 38334 NIL
AAXX 03061 38341 32597 60301 11008 21029 39505 40307 52002 86700 333 21023
AAXX 03061 38343 12698 83401 11017 21050 39451 40313 52008 60030 885// 333 21008
AAXX 03061 38439 NIL
AAXX 03061 22271 NIL
AAXX 03061 22520 32598 72303 10015 21017 39820 49829 54000 87500 333 20013 87622
AAXX 03061 22550 11568 81805 11009 21034 39869 49879 56013 60050 70287 886// 333 21021 88631
AAXX 03061 22583 31336 81603 11036 21054 39882 49963 56017 77372 8872/ 333 21048
AAXX 03061 22768 NIL
AAXX 03061 22845 11394 81906 11005 21014 39769 49924 57019 60050 77373 8872/ 333 21030 86708
AAXX 03061 22887 32499 71809 11034 21070 39978 40049 57026 875// 333 21046 88616 91115
AAXX 03061 23205 NIL
AAXX 03061 23219 NIL
AAXX 03061 23418 12470 81807 11068 21088 30010 40085 57013 69900 886// 333 21076 88711
AAXX 03061 23606 31460 81905 11071 21096 39913 40089 57019 77172 885// 333 21072 88610
AAXX 03061 23711 11497 81404 11083 21111 39962 40141 56005 69900 78587 889// 333 21075
AAXX 03061 23804 41398 82004 11068 21092 39956 40109 57024 73632 885// 333 21073 84708
AAXX 03061 27037 11495 81806 11021 21027 39843 40005 57019 69900 77373 8872/ 333 21039 86710
AAXX 03061 27199 12498 82103 11068 21080 39990 40195 57018 69900 885// 333 21075
AAXX 03061 27271 31598 71407 11052 21081 39984 40144 57024 73632 87500 333 21057 91113
AAXX 03061 27459 32498 82003 11054 21083 39989 40192 57015 86501 333 21069 86617
AAXX 03061 27730 31497 81806 11028 21055 39968 40167 57024 77172 8802/ 333 21040 43003 88511 91114
BBXX 44067 03061 99384 70770 46/// /0804 10071 40346 51015 90600
BBXX 41029 03061 99328 70796 46/// /3603 1//// 90600 555 11042 22049
BBXX 44033 03061 99441 70690 46/30 /3607 10053 40304 53024 90604 22200 00092 10201 70004 333 91208 555 11086 22090
BBXX 44034 03061 99441 70681 46/30 /0405 10045 40296 53024 90604 22200 00094 333 91207 555 11062 22064
BBXX 46111 03061 99481 71227 46/// /3203 10067 40330 54000 90600 22200 00067
BBXX 46112 03061 99481 71227 46/// /2002 10047 40331 54000 90600
AAXX 03061 20107 11496 80203 11077 21108 39600 49693 52007 69942 78582 889// 333 21083 91006
AAXX 03061 22113 11582 72103 10006 21008 39690 49752 52018 60012 78582 86930 333 20006 42001 91005 91110
AAXX 03061 22217 11358 82101 10010 20002 39749 49780 53003 69952 78582 889// 333 20006 43004 86709 91003
AAXX 03061 22235 11580 82203 11003 21021 39607 49797 56004 60022 70282 889// 333 21004 43005 85622 91006 91111
AAXX 03061 22349 11498 82110 10016 21000 39823 49834 57016 69922 72582 889// 333 20001 91013 91119
AAXX 03061 22408 11457 82204 10003 21017 39676 49823 57005 69952 78582 883// 333 20003 43997 88913
AAXX 03061 22602 11474 82502 11006 21015 39645 49867 52009 69922 70272 885// 333 21007 47001 88614
AAXX 03061 22619 11381 82103 10004 20001 39714 49872 53003 60022 70272 886// 333 21001 44006 88708 93703
AAXX 03061 22721 11499 70000 10001 20001 39778 49878 53001 60072 72682 86930 333 21003 47018 84710 93742
AAXX 03061 22802 11598 72501 10004 21007 39894 49917 52019 60062 70282 87500 333 20002 43002 93700
AAXX 03061 22820 11356 82804 10005 20002 39755 49891 53007 60022 77172 8552/ 333 20002 43002 85607
AAXX 03061 26059 11597 22404 10009 21002 39958 49983 52026 60052 70261 82600 333 20009
AAXX 03061 26063 11497 82604 10025 20009 39950 49958 52025 60052 76176 885// 333 20012
AAXX 03061 26094 11466 82604 10025 20017 39874 49949 53023 60092 70262 886// 333 20016 41997 88713
AAXX 03061 26157 12998 72505 10022 20006 39951 40000 52024 60032 87030 333 20021
AAXX 03061 26167 11467 72504 10018 21001 39886 49998 52027 60072 70262 87500 333 20012 87712
AAXX 03061 26258 12598 42503 10013 21001 39977 40033 52024 60032 84900 333 20011
AAXX 03061 26298 11496 82403 10013 20008 39775 40004 53018 60082 72582 886// 333 20007 91112
AAXX 03061 26359 11977 12202 10015 20007 39915 40049 52028 60062 70261 81030 333 20012
AAXX 03061 26702 11596 72302 10037 20025 30079 40105 52006 60052 71081 87500 333 20035 91006
AAXX 03061 26781 11396 82403 10033 20028 39789 40080 53012 60052 76162 8872/ 333 20009 87710
AAXX 03061 27208 11395 82305 10006 20003 39823 49999 56006 60102 77376 8872/ 333 20003 43004 91113
AAXX 03061 27402 11294 81804 10011 20008 39853 40033 56010 60042 77176 8872/ 333 20004 43002 88705
AAXX 03061 22028 11580 72309 10013 21007 39710 49747 53008 69912 72582 86930 333 20010 42005 91010 91116
AAXX 03061 22106 11597 82402 10007 20001 39683 49760 53022 60032 78582 889// 333 20004 43004 86920 91004 91112
AAXX 03061 22127 12598 62204 10009 21040 39565 49759 53001 69912 83530 333 20008 43009 91008 91114
AAXX 03061 22324 12684 61806 10015 21010 39748 49796 57007 69902 86500 333 20014 41998 91010 91113
AAXX 03061 22621 11482 82402 10001 21002 39731 49869 53007 60022 70272 889// 333 21001 43001 86914
AAXX 03061 22831 11496 82001 10002 21003 39842 40901 57005 60162 78582 889// 333 21007 47017 93701
AAXX 03061 22892 12997 32504 10006 21005 39935 49951 52020 60042 83030 333 20004 43997
AAXX 03061 26275 11498 22103 10018 20010 39980 40010 52037 60062 70261 333 20017
AAXX 03061 26389 11458 81803 10017 20009 39761 40023 53023 60092 78082 889// 333 20010
AAXX 03061 26499 11497 82006 10016 20005 39812 40041 53004 60042 76187 8872/ 333 20005 42001 87710 91012 91115
AAXX 03061 26695 11296 82207 10014 20009 39778 40086 54000 60032 76176 8672/ 333 20000 43997 86704
AAXX 03061 26882 11450 82306 10020 20012 39836 40112 53009 60022 76162 8872/ 333 20008 88714 91112
AAXX 03061 28676 11497 81602 11114 21130 30071 40204 57008 69900 77177 8802/ 333 21180
AAXX 03061 28766 11996 82205 11091 21111 30014 40211 57003 69950 71072 87071 333 21182
AAXX 03061 28867 11598 62703 11095 21125 39959 40241 52002 69900 70271 86500 333 21116
AAXX 03061 28879 11997 82407 11064 21087 39931 40226 53003 69930 77172 8805/ 333 21161
AAXX 03061 28952 32999 72001 11104 21110 30057 40258 52007 80001 333 21117
AAXX 03061 28966 11597 82704 11068 21084 39956 40248 52001 69960 77177 885// 333 21087
AAXX 03061 29802 11996 82303 11121 21140 30077 40227 57001 69920 72271 8807/ 333 21149
AAXX 03061 29807 31997 22301 11089 21123 30110 40233 57003 70171 82030 333 21171
AAXX 03061 34691 32998 63602 11092 21126 30289 40276 52019 86030 333 21061
AAXX 03061 35067 11998 82003 11055 21069 39976 40260 53004 69930 70372 8802/ 333 21077
AAXX 03061 35078 11597 82506 11055 21066 39867 40255 54000 69920 78582 889// 333 21068
AAXX 03061 35085 11396 82405 11062 21077 39760 40248 54000 69990 77172 8672/ 333 21075
AAXX 03061 35108 12597 80000 11061 21076 30233 40281 52012 69920 885// 333 21075
AAXX 03061 35188 11997 81302 11070 21095 39822 40270 52001 69950 77177 8802/ 333 21080
AAXX 03061 35217 32598 71801 11041 21068 30234 40274 52013 87500 333 21064
AAXX 03061 35229 11597 80201 11060 21071 39980 40262 52009 69930 77172 885// 333 21067
AAXX 03061 35302 11596 81503 11050 21056 30248 40268 52010 69900 77777 886// 333 21088
AAXX 03061 35357 32997 81802 11130 21150 39832 40292 52006 84052 333 21192
AAXX 03061 35394 11998 61602 11091 21120 39585 40288 52002 69900 72272 80002 333 21098
AAXX 03061 35406 31596 80000 11071 21097 30264 40267 53014 77172 8802/ 333 21063
AAXX 03061 35416 11597 80000 11054 21084 30147 40272 52008 69920 70272 886// 333 21062
AAXX 03061 35426 11997 82702 11069 21085 39965 40267 52010 69920 77172 8802/ 333 21067
AAXX 03061 35497 32998 30000 11124 21147 39459 40298 52007 80002 333 21168
AAXX 03061 35532 12498 80000 11080 21116 39756 40266 52013 69930 8802/ 333 21075
AAXX 03061 35671 11998 81202 11088 21131 39843 40290 52008 69900 70271 8807/ 333 21102
AAXX 03061 35700 11495 80604 11034 21051 30278 40254 52008 69950 77377 8802/ 333 21035
AAXX 03061 35746 11498 82401 11065 21073 30212 40282 52010 69980 70232 84770 333 21118
AAXX 03061 35796 11998 72602 11053 21098 39843 40289 52010 69900 72287 83079 333 21067
AAXX 03061 35849 12998 80000 11040 21059 30204 40289 52009 69960 885// 333 21057
AAXX 03061 35925 NIL
AAXX 03061 35953 11496 82504 11050 21063 30169 40303 52015 69930 77172 8802/ 333 21043
AAXX 03061 35969 12599 62301 11030 21061 30137 40215 52024 60010 86500 333 21033
AAXX 03061 36003 11596 82502 11067 21076 30092 40247 52001 69990 77172 8352/ 333 21074
AAXX 03061 36152 32998 72504 11070 21113 30075 40269 58003 84042 333 21131
AAXX 03061 36177 31996 71201 11099 21107 30031 40288 58004 77172 8807/ 333 21165
AAXX 03061 36208 11597 82301 11088 21103 39259 40267 52003 69900 77177 8372/ 333 21107
AAXX 03061 36397 11999 70000 11080 21107 39698 40277 51001 69920 70272 85052 333 21106
AAXX 03061 36428 11496 80000 11030 21053 39737 40240 58005 69960 77172 8372/ 333 21070 95050
AAXX 03061 36535 32599 52901 11040 21090 39615 40256 52004 85530 333 21067
AAXX 03061 36639 11596 82202 11027 21040 39644 40254 52014 60060 77177 8802/ 333 21023
AAXX 03061 36821 12599 82403 10001 21036 39802 40295 52011 69950 889// 333 21017
AAXX 03061 36859 11996 80901 10002 21017 39506 40294 52002 60050 70277 8802/ 333 21013
AAXX 03061 36864 12599 62906 10000 21053 39394 40296 58005 69920 83752 333 21016
AAXX 03061 36870 11597 70000 10039 20009 39264 40271 54000 60090 70282 85932 333 21010
AAXX 03061 38001 NIL
AAXX 03061 38062 12699 62401 11030 21082 30140 40307 52015 60010 86500 333 21032
AAXX 03061 38069 12998 22401 11018 21056 30116 40312 52007 69920 80009 333 21035
AAXX 03061 38196 NIL
AAXX 03061 38198 NIL
AAXX 03061 38222 12598 82503 11008 21040 39745 40315 52011 60020 885// 333 21007
AAXX 03061 38232 NIL
AAXX 03061 38328 NIL
AAXX 03061 38334 NIL
AAXX 03061 38341 32597 60301 11008 21029 39505 40307 52002 86700 333 21023
AAXX 03061 38343 12698 83401 11017 21050 39451 40313 52008 60030 885// 333 21008
AAXX 03061 38439 NIL
AAXX 03061 38598 42597 80000 10041 20021 40303 57015 886//
AAXX 03061 38599 NIL
AAXX 03061 38725 NIL
AAXX 03061 38734 NIL
AAXX 03061 38744 42698 60000 11010 21046 38029 48540 58006 83501
AAXX 03061 38836 11/91 90000 10018 20007 39304 40263 57008 60040 74744 333 21001
AAXX 03061 38838 NIL
AAXX 03061 38844 NIL
AAXX 03061 38846 NIL
AAXX 03061 38847 NIL
AAXX 03061 38932 NIL
AAXX 03061 38933 11997 61801 10076 20030 39748 40264 56002 60030 70341 86080 333 20011
AAXX 03061 38944 12698 81803 10062 20038 39657 40196 57033 60040 885// 333 20037
AAXX 03061 38954 32899 60000 10036 20001 37934 48520 58016 84101 333 21001
AAXX 03061 38598 42597 80000 10041 20021 40303 57015 886//
AAXX 03061 38599 NIL
AAXX 03061 38725 NIL
AAXX 03061 38734 NIL
AAXX 03061 38744 42698 60000 11010 21046 38029 48540 58006 83501
AAXX 03061 38836 11/91 90000 10018 20007 39304 40263 57008 60040 74744 333 21001
AAXX 03061 38838 NIL
AAXX 03061 38844 NIL
AAXX 03061 38846 NIL
AAXX 03061 38847 NIL
AAXX 03061 38932 NIL
AAXX 03061 38933 11997 61801 10076 20030 39748 40264 56002 60030 70341 86080 333 20011
AAXX 03061 38944 12698 81803 10062 20038 39657 40196 57033 60040 885// 333 20037
AAXX 03061 38954 32899 60000 10036 20001 37934 48520 58016 84101 333 21001
AAXX 03064 70133 32966 01303 11250 21278 30234 40241 53032 90553 333 11189 21256 555 90306
AAXX 03064 70174 12666 81903 11144 21172 39955 40210 51044 60011 90553 333 11100 21144 4/046 555 90306
AAXX 03064 70200 32466 60307 11194 21233 30211 40218 52018 90553 333 11167 21217 4/013 555 90306
AAXX 03064 70219 11666 80410 11067 21072 30083 40142 58012 69951 710// 90553 333 11011 21128 555 90306
AAXX 03064 70231 35966 00000 11161 21178 30099 40232 53012 90553 333 11061 21172 555 90306
AAXX 03064 70261 12566 21604 11100 21122 30055 40236 51033 69931 90553 333 11039 21161 555 90306
AAXX 03064 70267 32466 83305 11061 21078 39756 40256 51032 90553 333 11044 21161 555 90306
AAXX 03064 70271 12666 40000 11122 21139 39651 40258 51029 69901 90553 333 11006 21128 4/008 555 90306
AAXX 03064 70273 31158 40000 11033 21044 30175 40235 53016 710// 90553 333 10033 21039 4/038 555 90306
AAXX 03064 70316 15566 81522 10044 20033 30002 40038 58024 60041 90553 333 10056 20022 91028 555 90306
AAXX 03064 70326 11666 80000 10028 20017 30133 40145 69931 761// 90554 333 10028 20006 555 90306
AAXX 03064 70340 32966 80205 10000 21039 30134 40197 58010 90553 333 10022 21022 555 90306
AAXX 03064 70350 12266 8//03 10022 20022 30165 40207 58004 60021 90553 333 10078 20017 4/008 555 90306
AAXX 03064 70361 17256 82307 10056 20050 30229 40241 51018 60071 710// 90553 333 10056 20000 555 90306
AAXX 03064 70381 11548 80607 10039 20039 30244 40255 53007 60061 761// 90553 333 10039 20011 4/999 96010 555 90306
AAXX 03064 70414 37562 43523 10006 21028 30001 40037 51017 771// 90556 333 10011 21016 91027 555 90306
AAXX 03064 40101 12956 00000 10029 21023 39159 48538 51013 60004 906// 333 21008 31/// 51904 55080 20960
AAXX 03064 40103 32960 01602 10077 20034 40239 52011 333 20064 30/// 50304 20933
AAXX 03064 40100 NIL
AAXX 03064 40102 NIL
AAXX 03064 16470 11456 61508 10148 20123 39992 40228 56008 60032 79596 86300 333 20142 32/// 55075 2//// 55300 22/// 85818 82920 95060
AAXX 03064 13600 12965 00000 10054 20031 30197 40251 54002 60002 333 20030 31///
AAXX 03064 13629 12960 00000 10020 20020 39176 42825 54000 60002 333 20002 30///
AAXX 03064 13622 12965 00000 10090 20059 30229 40236 54000 60002 333 20070 30///
AAXX 03064 60318 12960 02410 10103 20053 40218 58001 60024 333 20082
AAXX 03064 13623 12960 10000 10035 20035 30237 40243 54000 60002 81030 333 20035 30/// 81360
AAXX 03064 13601 12965 00000 10072 20065 30120 40223 54003 60002 333 20070 30///
AAXX 03061 10499 11956 82105 10024 20010 39853 40149 56012 69922 71022 80007 333 10057 20018 31000 55014 55300 20000 30000 70008 88271
AAXX 03064 13619 12970 00000 10012 20012 39483 42856 54000 60002 333 21022 34///
AAXX 03064 13611 11958 31408 10106 20090 30136 40228 54000 60002 71000 83030 333 20078 30/// 83360
AAXX 03064 13625 11/03 90000 11015 21040 30020 40263 54001 60002 74500 333 21018 34///
AAXX 03064 13624 12970 01408 10060 20027 30207 40247 54001 60002 333 20040 30///
AAXX 03064 13610 11/00 90000 11004 21031 39830 40273 52012 60002 74522 333 21010 30///
AAXX 03064 60351 12560 30000 10124 20084 40189 53006 60004 83200 333 00800 20115 83823 95990
AAXX 03064 60355 12960 12310 10135 20077 40195 53006 60004 81030 333 0//00 20134 81360 95990
AAXX 03064 60445 12560 50202 10064 20055 39049 48526 53004 60004 83232 333 00100 20046 83826 83073 95990
AAXX 03064 60468 12560 73403 10058 20042 39262 48529 53003 60004 86202 333 00100 20050 86823 95990
AAXX 03064 60507 12558 82404 10072 20059 40210 53009 60064 8487/ 333 00523 20066 84830 85360 95990
AAXX 03064 60511 12560 62809 10051 20038 39074 48509 53010 60004 83202 333 00300 20045 83823 84071 95990
AAXX 03064 60535 11560 30000 10043 20043 38849 48512 58001 60004 700// 83200 333 00100 20030 83823 95900
AAXX 03064 60536 11458 80000 10055 20042 39318 48503 54000 60064 70262 888// 333 00313 20050 82713 83826 85630 95990
AAXX 03064 60549 11556 71808 10025 20017 38930 48526 58005 60034 761// 872// 333 05151 20023 83710 85833 95990
AAXX 03064 60550 11430 80000 10005 20005 38675 48513 53005 60034 77176 886// 333 05151 20002 43003 88706 95990
AAXX 03064 60555 12970 30908 10072 20052 40209 55001 60004 80002 333 00300 20060 83073
AAXX 03064 60559 12960 00000 10087 20077 40213 53003 60004 333 0//00 20082
AAXX 03064 60581 12960 00606 10098 20050 40195 54000 60004 333 00600 20088
AAXX 03064 60602 11960 20000 10072 20036 40181 57008 60004 700// 80002 333 0//00 20069 82073 95990
AAXX 03064 60607 NIL
AAXX 03064 60640 12660 71010 10140 20003 40157 55002 60004 8327/ 333 00900 20100 83840 85360
AAXX 03064 60690 NIL
AAXX 03064 60351 12560 30000 10124 20084 40189 53006 60004 83200 333 00800 20115 83823 95990
AAXX 03064 60355 12960 12310 10135 20077 40195 53006 60004 81030 333 0//00 20134 81360 95990
AAXX 03064 60445 12560 50202 10064 20055 39049 48526 53004 60004 83232 333 00100 20046 83826 83073 95990
AAXX 03064 60468 12560 73403 10058 20042 39262 48529 53003 60004 86202 333 00100 20050 86823 95990
AAXX 03064 60507 12558 82404 10072 20059 40210 53009 60064 8487/ 333 00523 20066 84830 85360 95990
AAXX 03064 60511 12560 62809 10051 20038 39074 48509 53010 60004 83202 333 00300 20045 83823 84071 95990
AAXX 03064 60535 11560 30000 10043 20043 38849 48512 58001 60004 700// 83200 333 00100 20030 83823 95900
AAXX 03064 60536 11458 80000 10055 20042 39318 48503 54000 60064 70262 888// 333 00313 20050 82713 83826 85630 95990
AAXX 03064 60549 11556 71808 10025 20017 38930 48526 58005 60034 761// 872// 333 05151 20023 83710 85833 95990
AAXX 03064 60550 11430 80000 10005 20005 38675 48513 53005 60034 77176 886// 333 05151 20002 43003 88706 95990
AAXX 03064 60555 12970 30908 10072 20052 40209 55001 60004 80002 333 00300 20060 83073
AAXX 03064 60559 12960 00000 10087 20077 40213 53003 60004 333 0//00 20082
AAXX 03064 60581 12960 00606 10098 20050 40195 54000 60004 333 00600 20088
AAXX 03064 60602 11960 20000 10072 20036 40181 57008 60004 700// 80002 333 0//00 20069 82073 95990
AAXX 03064 60607 NIL
AAXX 03064 60640 12660 71010 10140 20003 40157 55002 60004 8327/ 333 00900 20100 83840 85360
AAXX 03064 60690 NIL
AAXX 03064 60360 12560 51907 10111 20085 40205 53002 60004 82802 333 00600 20104 81826 83073 95910
AAXX 03064 60390 12570 59901 10105 20089 40213 51010 60002 81232 333 00700 20102 81826 84070 95990
AAXX 03064 60402 12560 42606 10110 20090 40202 53010 60004 81202 333 00900 20110 81823 84073 95990
AAXX 03064 60419 12565 60000 10068 20050 40222 53005 60004 86800 333 00300 20060 81830 86640 95900
AAXX 03064 60475 12560 21202 10065 20054 39278 48538 53007 60004 81132 333 00400 20063 81826 95990
AAXX 03064 60490 NIL
AAXX 03064 60525 12660 61110 10145 20093 40201 53003 60004 82230 333 00300 20129 82840 86360 95990
AAXX 03064 60531 11560 42206 10075 20066 40211 50009 60104 70162 83230 333 00653 20071 83826 95990
AAXX 03064 60566 12660 50104 10097 20081 40212 55000 60004 85200 333 00400 20085 85840
AAXX 03064 60571 12962 30000 10084 20070 39249 48506 57010 60004 81082 333 0//00 20082 81360 95990
AAXX 03064 60580 12958 13206 10063 20042 40194 55005 60004 81030 333 00500 20055 81360
AAXX 03064 60590 12960 23304 10070 20059 40194 55001 60004 80002 333 0//00 20062 82073
AAXX 03064 60611 12658 51112 10100 20033 40197 58005 60004 82130 333 00800 20091 82840 84358
AAXX 03064 60620 12960 30110 10070 20033 40184 57012 60004 80002 333 0//00 20068 83075
AAXX 03064 60630 12960 43310 10125 20014 40158 53002 60004 82032 333 00800 20120 82362 83075
AAXX 03064 60656 NIL
AAXX 03064 60670 NIL
AAXX 03064 60680 NIL
AAXX 03064 78526 32566 60000 10244 20211 30122 40145 58016 90556 333 10267 20239 555 90306
AAXX 03064 78543 35566 61004 10261 20206 30058 40140 58014 90553 333 10267 20239 555 90306
AAXX 03064 60360 12560 51907 10111 20085 40205 53002 60004 82802 333 00600 20104 81826 83073 95910
AAXX 03064 60390 12570 59901 10105 20089 40213 51010 60002 81232 333 00700 20102 81826 84070 95990
AAXX 03064 60402 12560 42606 10110 20090 40202 53010 60004 81202 333 00900 20110 81823 84073 95990
AAXX 03064 60419 12565 60000 10068 20050 40222 53005 60004 86800 333 00300 20060 81830 86640 95900
AAXX 03064 60475 12560 21202 10065 20054 39278 48538 53007 60004 81132 333 00400 20063 81826 95990
AAXX 03064 60490 NIL
AAXX 03064 60525 12660 61110 10145 20093 40201 53003 60004 82230 333 00300 20129 82840 86360 95990
AAXX 03064 60531 11560 42206 10075 20066 40211 50009 60104 70162 83230 333 00653 20071 83826 95990
AAXX 03064 60566 12660 50104 10097 20081 40212 55000 60004 85200 333 00400 20085 85840
AAXX 03064 60571 12962 30000 10084 20070 39249 48506 57010 60004 81082 333 0//00 20082 81360 95990
AAXX 03064 60580 12958 13206 10063 20042 40194 55005 60004 81030 333 00500 20055 81360
AAXX 03064 60590 12960 23304 10070 20059 40194 55001 60004 80002 333 0//00 20062 82073
AAXX 03064 60611 12658 51112 10100 20033 40197 58005 60004 82130 333 00800 20091 82840 84358
AAXX 03064 60620 12960 30110 10070 20033 40184 57012 60004 80002 333 0//00 20068 83075
AAXX 03064 60630 12960 43310 10125 20014 40158 53002 60004 82032 333 00800 20120 82362 83075
AAXX 03064 60656 NIL
AAXX 03064 60670 NIL
AAXX 03064 60680 NIL
AAXX 03061 45032 36/// /3002 10201 21015 30139 40156 54000
AAXX 03061 45035 36/// /3103 10175 20018 30113 40155 54000
AAXX 03061 45039 36/// /3502 10195 21004 30137 40152 57001
AAXX 03061 45044 36/// /1702 10202 20051 30063 40155 57001
AAXX 03064 91945 36/// /0510 10264 20216 30153 40158 51017 555 58010 69924
AAXX 03061 45032 36/// /3002 10201 21015 30139 40156 54000
AAXX 03061 45035 36/// /3103 10175 20018 30113 40155 54000
AAXX 03061 45039 36/// /3502 10195 21004 30137 40152 57001
AAXX 03061 45044 36/// /1702 10202 20051 30063 40155 57001
BBXX VRGJ6 03063 99502 70004 41298 62725 10135 20106 40052 57069 75822 85718 22223 04141 20505 327// 40608 5//// 80120
BBXX 9LD2206 03063 99302 70170 41598 20817 10195 20164 40265 58010 7//11 81505 22242 04217 20501 309// 40802 80175
AAXX 03064 64500 32460 71608 10264 20240 30088 40101 875// 333 02450 20245 50201 55055 59001 84610 87633
AAXX 03064 64501 NIL
AAXX 03064 64507 NIL
AAXX 03064 64510 32258 7//// 10215 20209 3//// 4//// 875// 333 0//00 20215 5///4 55/// 5//// 84703 87610
AAXX 03064 64550 32460 8//// 10232 20225 30/// 40/// 885// 333 02200 10220 50114 55/// 5//// 84611 88616
AAXX 03064 64551 NIL
AAXX 03064 64556 NIL
AAXX 03064 64570 11308 83101 10220 20220 39612 40122 60184 74696 8692/ 333 02166 20216 50194 55/// 59003 85607 81920 88460 94942 95832
AAXX 03064 61974 12480 12304 10297 20226 40104 60004 81802 333 20205 59014 81819 94329
AAXX 03064 61986 12580 41006 10284 20221 40103 60004 84200 333 20252 59012 84820 94322
AAXX 03064 61988 12475 61218 10279 20196 40111 69924 86830 333 0//19 20234 50612 59019 82818 85650 91133
AAXX 03064 61989 12475 61119 10280 20206 40122 69904 86802 333 0//19 20232 59016 83818 84650
AAXX 03064 61990 11465 71111 10237 20202 40121 60024 71582 87800 333 01120 20232 50632 59019 84815 85650 94322
AAXX 03064 61995 11468 71309 10222 20188 39641 69914 71582 87840 333 01812 20186 50532 59016 84815 85650 94322
AAXX 03061 01488 16/// /1001 11014 21020 60022 333 21069 70015 91102
BBXX 46207 03061 99509 71299 46/// /3009 10084 40368 57007 22200 00089 11105 70024 333 91211
BBXX 3ERR2 03064 99635 10053 41497 81836 10061 20037 49641 57054 76082 887// 22200 06100 11112 70058 333 91147
BBXX LF3F 03064 99643 10078 41699 51229 10060 21003 49677 57063 72203 8503/ 22200 04096 10708 70038 333 91132
BBXX LF3N 03064 99653 10073 41697 71528 10079 20012 49678 57041 70282 8//// 22200 00095 10807 70036
BBXX LF4B 03064 99606 10037 47/97 /2033 10068 49665 57038 781// 22200 00075 10812 70058 333 91153
BBXX LF4C 03064 99584 10019 41698 82434 10085 20023 49742 57022 702// 89/// 22200 00088 10810 70050 333 91144
BBXX LF5T 03064 99660 10081 41796 /1626 10067 20018 49694 57050 700// 22200 10909 70047 333 91134
BBXX 46207 03061 99509 71299 46/// /3009 10084 40368 57007 22200 00089 11105 70024 333 91211
AAXX 03064 48387 32560 20503 10229 20158 39140 40089 82500 333 59016
AAXX 03064 87344 32960 03604 10164 20106 39577 40113 57013
AAXX 03064 87349 NIL
AAXX 03064 87371 32962 00905 10190 20153 30112 40133 57012
AAXX 03064 87374 32965 00000 10165 20120 30042 40128 57011
AAXX 03064 87395 32965 00000 10172 20101 30101 40145 51001
AAXX 03064 87418 32965 01807 10220 20094 39293 40059 53001
AAXX 03064 87436 32670 30914 10204 20113 39298 40080 50001 83500 333 56800 83640
AAXX 03064 87448 31565 61806 10212 20114 39553 40092 51005 71791 83976 333 56566 57921 81630 82940
AAXX 03064 87453 32965 13616 10186 20099 39625 40100 58005 81030 333 56060 81360
AAXX 03064 87467 NIL
AAXX 03064 87497 NIL
AAXX 03064 87506 NIL
AAXX 03064 87509 32970 02706 10170 20074 39250 40072 57016
AAXX 03064 87534 32960 00504 10159 20113 39958 40117 58005
AAXX 03064 87548 32960 00710 10154 20125 30045 40140 51008
AAXX 03064 87576 32960 00508 10193 20089 30138 40161 58005
AAXX 03064 87582 32960 00506 10185 20113 30158 40165 58004
AAXX 03064 87585 32960 00507 10182 20109 30128 40157 58008
AAXX 03063 87480 32965 00703 10179 20147 30102 40132 56008
AAXX 03063 87532 32965 63618 10196 20126 39945 40111 57012 84072 333 56066 84360
AAXX 03064 62305 32560 12607 10108 20094 40255 52018 81100 333 20097
AAXX 03064 62306 32560 22204 10115 20091 40258 52016 82200 333 20102
AAXX 03064 62318 32560 43603 10167 20102 40239 52011 84800 333 20141
AAXX 03064 62337 NIL
AAXX 03064 62366 31930 01002 10131 20077 40240 52013 71000 333 20116
AAXX 03064 62393 31956 03107 10094 20071 40228 53014 71000 333 20076
AAXX 03064 62405 31956 00000 10118 20055 40202 52016 70500 333 20080
AAXX 03064 62414 32960 00104 10133 20041 40212 52016 333 20101
AAXX 03064 62417 32960 00000 10088 20052 40251 52012 333 20060
AAXX 03064 62419 NIL
AAXX 03064 62440 32560 30000 10124 20117 40234 52016 83500 333 20090
AAXX 03064 62463 32960 03113 10158 20097 40204 52017 333 20133
AAXX 03064 62465 32960 03108 10162 20068 40188 52016 333 20128
AAXX 03064 91165 35466 60709 30142 90600 555 90306
AAXX 03064 91182 32566 20908 10250 20206 30167 40172 53017 90553 333 10294 20217 555 90306
AAXX 03064 91190 32566 40313 10239 20206 30158 40179 51014 90554 333 10278 20178 555 90306
AAXX 03064 91212 12566 40717 10294 20239 31338 40075 55006 69981 90554 333 10300 20267 91024 555 90306
AAXX 03064 91285 31559 80000 10220 20200 30171 763// 90610 333 96010 555 90306
AAXX 03064 91408 11474 80804 10283 20261 30010 40048 57022 60021 70281 82278 333 56999 70023 555 90306
AAXX 03061 22165 NIL
AAXX 03061 22676 11430 81707 11032 21046 39891 49970 57014 69900 77173 8872/ 333 21049 91113
AAXX 03061 22954 11220 81809 11024 21033 39727 49977 57023 60020 77373 8872/ 333 21048 86704
AAXX 03061 23405 31480 81807 11048 21080 39900 40001 57025 73632 885// 333 21064 88612
AAXX 03061 23412 11499 81507 11072 21089 39958 40057 57021 69920 73632 887// 333 21080 86710
AAXX 03061 23803 11599 82003 11087 21106 39964 40150 56009 79900 70273 889// 333 21087 88929
AAXX 03061 27066 31498 81806 11040 21062 39916 40097 57030 73632 888// 333 21052 88711
AAXX 03061 27083 31499 82006 11060 21079 39906 40136 57021 73632 885// 333 21079
AAXX 03061 27113 11210 82008 10001 21002 39832 49977 57020 60040 77587 8872/ 333 21020 86703
AAXX 03061 27242 11457 82605 11035 21049 39933 40064 57027 78582 889// 333 21058 88710 91014
AAXX 03061 27329 31510 81906 11011 21018 39935 40061 57027 78683 889// 333 21039 91114
AAXX 03061 27355 32497 81806 11052 21069 39983 40152 57017 885// 333 21066
AAXX 03061 27373 31399 81607 11067 39958 40184 57020 73632 886// 333 21078 88709 91113
AAXX 03061 27665 32497 81704 11064 21092 39950 40232 57012 886// 333 21066 88716
AAXX 03061 27835 32997 71605 11041 21071 30044 40208 57023 8707/ 333 21101 91111
AAXX 03061 28009 32598 82204 11070 21087 39977 40196 57014 885// 333 21076
AAXX 03061 28411 11497 82505 11058 21084 30043 40245 57003 69900 77172 885// 333 21060 88618
AAXX 03061 28418 11599 82501 11055 21073 30079 40252 57002 69940 70282 885// 333 21065 88622
AAXX 03061 34560 32597 81702 11041 21055 30112 40285 52009 885// 333 21047 44006 88630
AAXX 03061 34720 32597 81303 11007 21019 30236 40277 52009 885// 333 21006
AAXX 03061 34730 12397 81002 11023 21035 30185 40281 52010 69900 886// 333 21023 88708
AAXX 03061 34740 11596 81101 11012 21017 30180 40280 52015 69900 71087 889// 333 21010
AAXX 03061 34824 31595 81202 10012 20008 30269 40274 52007 71022 885// 333 20012
AAXX 03061 34858 11495 80702 11022 21027 30168 40280 52021 60020 77176 8802/ 333 21015
AAXX 03061 34866 11998 80302 11029 21031 30286 40276 52018 69990 70277 8002/ 333 21033
AAXX 03061 34880 11496 83503 11026 21032 30291 40263 52020 60040 71072 8672/ 333 21025
AAXX 03061 37018 12698 70502 10034 20008 30202 40279 52012 69990 8693/ 333 20030
AAXX 03061 37054 31496 82903 10007 21007 39889 40284 53020 71022 885// 333 21018
AAXX 03061 37472 NIL
AAXX 03061 22282 NIL
AAXX 03061 22438 NIL
AAXX 03061 22471 11480 82007 11034 21051 39855 49879 57026 69930 73673 8652/ 333 21035 86617
AAXX 03061 22563 11467 81905 11023 21035 39867 49905 57021 60030 73673 885// 333 21036 88615
AAXX 03061 22641 11499 81702 10000 21005 39854 49870 56008 60080 70273 886// 333 21008 88717 91106
AAXX 03061 22695 31498 82207 11050 21071 39870 40024 57024 73632 887// 333 21069 87710
AAXX 03061 22867 11495 81805 11030 21047 39873 49987 57020 60010 78683 889// 333 21045 88912 91113
AAXX 03061 22939 11396 81808 11000 21005 39783 49944 57014 60030 77373 8872/ 333 21013 84709
AAXX 03061 22996 11498 81905 11067 21087 39938 40134 57040 69900 73632 889// 333 21090
AAXX 03061 23324 32380 82204 11081 21099 39996 40076 57013 886// 333 21088 88709
AAXX 03061 27051 32396 81805 11040 21055 39866 40035 57020 77173 8652/ 333 21061 84707
AAXX 03061 27225 11457 81908 11002 21011 39892 40023 57021 77373 8872/ 333 21037 88716 91015 91116
AAXX 03061 27252 31471 81808 11048 21076 39912 40102 57030 73633 885// 333 21108 88617 91017
AAXX 03061 27333 31480 81810 11024 21046 39906 40065 57034 77172 887// 333 21058 47005 88713 91116
AAXX 03061 27369 32698 81905 11051 21076 30038 40180 57023 885// 333 21064
AAXX 03061 27393 32498 82304 11068 21084 30048 40222 57010 886// 333 21073
AAXX 03061 27479 11499 82006 11061 21080 30083 40223 57009 69900 70272 886// 333 21062 88712
AAXX 03061 27532 31496 81909 11027 21040 39901 40118 57029 77172 8665/ 333 21046 91014
AAXX 03061 27648 31597 81806 11057 21091 30026 40202 57016 73631 885// 333 21091 88620
AAXX 03061 27675 42497 82105 11065 21085 30068 40237 57008 885// 333 21139 88616
AAXX 03061 27679 32999 81902 11100 21106 30021 40257 57004 88070 333 21098
AAXX 03061 28214 11599 82406 11070 21083 30007 40227 57006 69900 70232 885// 333 21061
AAXX 03064 48401 32962 21106 10285 20184 30001 40107 57023 80005 333 59013
AAXX 03061 01003 16/// /0303 11068 21097 39672 49684 52004 6//// 333 91104
AAXX 03064 91245 32566 40511 10270 20250 30123 90559 555 90306
BBXX BATFR59 03064 99195 31595 46/// /1703 10279 20232 40074 55006 22231 00279
BBXX BATEU07 03064 99298 31128 46/// /0914 10244 20030 40085 55001 22233
BBXX BAREU08 03064 99119 50774 46/// ///// 40145 22271
BBXX BAREU11 03064 99285 50730 46/// ///// 40165 57019 22243
BBXX IDDUK02 03064 99581 50564 46/// ///// 40058 222//
BBXX BAREU04 03064 99374 70761 46/// ///// 40336 52006 22244
BBXX BAREU00 03064 99466 70462 46/// ///// 40230 52018 22263
BBXX BATEU08 03064 99681 70541 46/// /0106 11037 21088 49983 53004 22283
BBXX FVNM 03064 99142 71167 46/// /0509 10267 20220 40145 51006 22200 00267
BBXX BATEU06 03064 99486 70686 46/// /0014 11043 21081 40332 52026 22214 00024
AAXX 03064 68006 36/// /0207 10225 20193 38917 48497 52015 333 20221 91012 555 10334 91015
AAXX 03064 60395 12965 50000 10110 20098 40193 53010 60004 83032 333 00700 20095 83360 84073 95990
AAXX 03064 60421 11658 40000 10057 20050 39186 48530 51004 60004 700// 84500 333 00100 20051 84640 95900
AAXX 03064 60423 11670 40000 10111 20103 39239 48516 51002 60004 700// 81232 333 20057 81840 83073 95990
AAXX 03064 60430 11570 50000 10078 20057 40210 53010 60004 700// 83202 333 00500 20073 83826 83073 95990
AAXX 03064 60437 11456 40000 10055 20042 38988 48492 53005 60004 700// 82602 333 00400 20052 82710 83070 95990
AAXX 03064 60444 12560 30000 10071 20060 39109 48523 52004 60004 83200 333 00500 20063 83830 95990
AAXX 03064 60452 12560 6//// 10117 20079 40193 53015 60044 86800 222// 20000 333 20114 84820 83626 91826
AAXX 03064 60457 11560 12008 10092 20047 40201 53015 60164 70261 81102 333 00766 81820 95990
AAXX 03064 60514 11560 60000 10076 20039 39296 48551 53008 60004 700// 86500 333 00300 20071 86626 95990
AAXX 03064 60518 11560 92408 10091 20065 40190 53010 60074 700// 83232 222// 29903 333 00556 20085 83820 84360 91846 95990
AAXX 03064 60520 11560 42205 10060 20032 40202 53011 60034 700// 83502 333 003// 20057 83630 95990
AAXX 03064 60540 11560 80000 10046 20023 39065 48528 5//// 60054 700// 887// 333 00211 20042 84720 85826 95990
AAXX 03064 60560 11656 83408 10041 20022 38967 48514 53001 60014 751// 888// 333 00234 20038 82830 88633 95990
AAXX 03061 40716 11958 00000 11026 21076 38968 40296 52014 60001 70500 333 30111 70000
AAXX 03061 40719 12462 62703 10078 20030 30265 40254 52016 60001 86300 333 30004 50041 70000 81915 85720
AAXX 03061 40721 12960 00403 10054 20014 39688 40244 52026 60001 333 31001 50101 70000
AAXX 03061 40858 12960 00104 10140 20060 30196 40207 52019 60001 333 30010 50491 70000
AAXX 03061 40872 12970 03105 10188 20074 30163 40168 52015 60001 222// 00228 20301 333 30011 50421 70000
AAXX 03061 40877 12960 00000 10174 20010 39621 40164 52019 60001 333 30008 50351 70000
AAXX 03061 40898 12960 00000 10268 20180 30128 40137 51015 60001 222// 00261 10600 333 30017 50351 70000
AAXX 03061 60370 36/// /2601 10119 20101 333 20115
AAXX 03061 60371 36/// /1702 10126 20101 333 20115
AAXX 03061 60372 36/// /0000 10106 20106 333 20106
AAXX 03061 60373 NIL
AAXX 03061 60374 NIL
AAXX 03061 60376 NIL
AAXX 03061 60379 NIL
AAXX 03061 60380 NIL
AAXX 03061 60381 NIL
AAXX 03061 60393 NIL
AAXX 03061 60394 NIL
AAXX 03061 60593 NIL
AAXX 03061 60595 NIL
AAXX 03061 60605 NIL
AAXX 03061 60613 NIL
AAXX 03061 60623 NIL
AAXX 03064 60624 36/// /0000 10111 20006 333 20107
AAXX 03064 60639 NIL
AAXX 03064 60645 36/// /0000 10096 20036 333 20096
AAXX 03061 14235 12460 8//// 10074 20058 39033 48491 58003 60002 885// 333 20072 31///
AAXX 03061 14246 11/01 90901 10002 20002 39979 40189 55003 60002 7454/ 333 20002 31000
AAXX 03061 14314 12660 61803 10150 20119 30134 40197 57005 60002 86800 333 20145 31009 70000 92312 92427
AAXX 03061 14323 11665 71503 10158 20115 30156 40190 56012 69902 72162 87600 333 20151 30014 79999 92322 92427
AAXX 03061 14324 11/00 92310 10030 20030 38422 48523 56008 60022 74544 333 20028 31002 41998 70018
AAXX 03061 14328 NIL
AAXX 03061 14330 11560 81401 10085 20077 39536 40201 54000 60052 7606/ 885// 333 20084 31007 70060
AAXX 03061 14438 12575 71204 10144 20097 30118 40208 58001 60002 87800 222// 00160 333 20128 31010 92322
AAXX 03061 14443 32698 816// 10145 20130 30126 40217 52001 8877/ 333 20127 92312
AAXX 03061 14447 12570 81006 10156 20125 30184 40214 56/// 60002 888// 222// 00176 333 20145 31013 92322
AAXX 03061 14472 12670 61004 10141 20098 30165 40229 56005 60002 82250 222// 00180 333 20124 30/// 92312
AAXX 03061 08501 NIL
AAXX 03061 08505 NIL
AAXX 03061 08506 32/// /3402 10145 20126 30282 40355 57006 333 20143 30015 5//// 55038 20686 555 60005
AAXX 03061 08509 32560 70000 10138 20121 30289 40354 57005 878// 333 20134 50184 55001 82822 86630 555 60007
AAXX 03061 08511 32/// /0403 10142 20104 30243 40352 57004 333 20141 30012 5//// 55048 26534 555 60005
AAXX 03061 08512 32470 70103 10149 20116 30258 40345 57005 878// 333 20146 30013 5//// 55/// 2//// 81815 87630 555 60005
AAXX 03061 08515 NIL
AAXX 03061 08521 NIL
AAXX 03061 08522 32/// /9902 10163 20086 30214 40284 57009 333 20163 30014 5//// 55087 21318 91107 555 60005
AAXX 03061 08524 12465 40305 10166 20099 30196 40294 57004 69932 84800 333 20160 30014 5//// 55078 21079 83815 91009 91109 555 60005
AAXX 03061 08530 NIL
AAXX 03061 08531 32/// /0209 10142 20078 30241 40280 52003 333 20138 31011 5//// 55041 20749 91014 91114 555 60005
AAXX 03061 08532 NIL
AAXX 03061 08533 32/// /0205 10109 20065 30231 40260 52004 333 20109 30009 5//// 55048 20862 91009 91113 555 60005
AAXX 03061 08534 32962 10103 10086 20062 30252 40270 54000 80001 333 20086 50044 55081 81070 555 60007
AAXX 03061 08535 32/// /3605 10110 20054 30180 40274 52002 333 20110 30008 5//// 55069 21063 91109 555 60005
AAXX 03061 08537 NIL
AAXX 03061 08540 32960 19901 10050 20041 30210 40281 53001 80004 333 20050 50234 55072 81070 555 60007
AAXX 03061 08541 32/// /0106 10077 20044 30145 40267 52002 333 20076 30006 5//// 55055 20897 555 60005
AAXX 03061 08544 22960 19901 10032 20027 30262 40284 53003 80001 333 20032 50274 55062 81070 555 60007
AAXX 03061 08545 31962 09901 10049 20026 30205 40292 54000 70200 333 20044 30001 50314 55073 20868 555 60005
AAXX 03061 08548 32/// /0601 10046 20037 30075 40287 52002 333 20044 30002 5//// 55075 21011 555 60005
AAXX 03061 08551 32/// /1002 10055 20045 30233 40293 52002 333 20045 30002 5//// 55000 2//// 555 60005
AAXX 03061 08554 32/// /2802 10097 20030 30237 40247 52002 333 20087 30010 5//// 55052 20915 91106 555 60005
AAXX 03061 08558 NIL
AAXX 03061 08560 32/// /3304 10038 20006 39514 40295 52003 333 20036 30101 5//// 55070 20951 555 60005
AAXX 03061 08561 32970 13104 10056 20048 30026 40266 53003 80001 333 20044 50104 55072 81070 555 60007
AAXX 03061 08562 32/// /3603 10066 20025 39960 40261 52003 333 20062 30004 5//// 55074 21067 91006 91107 555 60005
AAXX 03061 08567 32/// /0401 10026 20009 39615 40302 52004 333 20021 30101 5//// 55036 20562 555 60005
AAXX 03061 08568 32/// /3404 11007 21028 38688 48554 54000 333 21012 30103 5//// 55/// 2//// 555 60005
AAXX 03061 08570 32/// /3602 10067 20003 39803 40272 54000 333 20048 30003 5//// 55083 21010 91006 91106 555 60005
AAXX 03061 08571 32/// /0305 10070 21003 39547 40262 52007 333 20061 30006 5//// 55070 20989 91011 91111 555 60005
AAXX 03061 08575 NIL
AAXX 03061 08579 32/// /36// 10102 20041 30148 40275 52004 333 20100 30008 5//// 55064 20909 555 60005
AAXX 03064 60353 NIL
AAXX 03064 60367 11560 3//// 10130 20093 40210 53003 60004 700// 83100 333 0//00 20120 83820
AAXX 03064 60369 12560 40000 10154 20109 40200 52016 60004 82820 333 20152 82826 91827
AAXX 03064 60401 NIL
AAXX 03064 60403 11962 60000 10066 20057 40217 53006 60004 700// 82032 333 00300 20064 82360 85075 95900
AAXX 03064 60425 12565 50000 10105 20085 40204 52006 60004 83232 333 00600 20101 83830 95990
AAXX 03064 60461 13570 72420 10113 20072 40200 53027 60054 875// 222// 20000 333 20110 87626 91838 95990
AAXX 03064 60467 11660 50810 10107 20095 40206 55000 60004 700// 84231 333 00800 20099 84833 95990
AAXX 03064 60492 NIL
AAXX 03064 60515 11960 30000 10083 20081 40211 51006 60004 700// 80002 333 00500 20074 83070 95990
AAXX 03064 60517 11560 60000 10094 20074 40211 51010 60234 700// 84230 333 0//// 20094 84826 84360 95990
AAXX 03064 60522 11565 32204 10068 20041 40212 53010 60004 713// 83900 333 004// 20068 81926 83630 95990
AAXX 03064 60557 11460 80000 10015 20013 38871 48515 51009 60034 700// 882// 333 00151 20010 84710 87833 95990
AAXX 03064 60563 12560 50000 10070 20065 39307 48514 57001 60004 84230 333 00100 20060 84830
AAXX 03064 60603 12960 20508 10120 20014 40170 56010 60004 80002 333 0//00 20100 82073
AAXX 03064 60638 NIL
AAXX 03064 60686 NIL
BBXX TESTFR9 03064 99489 70038 46/// /2633 10133 29094 40132 52035 22253
BBXX BAREU60 03064 99436 10135 46/// ///// 40199 57006 22252
BBXX BAREU12 03064 99524 10035 46/// ///// 49975 57064 22284
BBXX BATFR54 03064 99456 70016 46/// /2320 10135 20095 40214 56018 22223 00155
BBXX BATFR14 03064 99499 70016 46/// /2733 10137 20114 40055 56047 22264 00139
BBXX BATFR15 03064 99461 70170 46/// /2725 10132 20097 40261 56021 22214 00139
BBXX BATFR30 03064 99413 10093 46/// /1507 10149 20109 40201 22214 00170
BBXX BATEU05 03064 99586 70141 46/// /2922 10044 20014 49904 55008 22223
BBXX BATFR10 03064 99314 10303 44598 20213 40239 70222 8224/ 22271 00192 20202
BBXX BATFR03 03064 99508 70011 46/// /2631 10124 20104 40022 56054 22272
BBXX BATFR58 03064 99433 10078 44498 7//// 40178 56004 72992 877// 22281 00184 202// 31923 403// 50402 60/// ICE 0////
BBXX BATFR20 03064 99427 10088 46/// /2116 10175 20102 40183 51009 22224
BBXX BATFR09 03064 99384 70098 46/// /0134 10147 20074 40278 53011 22283 00174
BBXX BATFR01 03064 99359 70058 46/// /3312 10119 20062 40219 56001 22200 00184
BBXX BATFR27 03064 99494 70022 46/// /2632 10134 20100 40088 50003 22214 00134
BBXX BATFR24 03064 99427 10095 46/// ///// 10144 20084 40190 53009 22251 00174
BBXX BATFR52 03064 99489 70038 46/// /2525 10137 20112 40116 53018 22252 00134
BBXX BATFR04 03064 99584 70062 46/// /2841 10057 20014 4//// 22200 00109
BBXX BATEU04 03064 99634 70110 46/// /3122 10027 21016 4//// 22262
BBXX BATFR12 03064 99480 70073 46/// /2719 10132 20124 40155 55004 22200 00149
BBXX BATFR11 03064 99360 70003 46/// /2714 10127 20097 40196 22221 00184
BBXX BATFR60 03064 99460 70024 46/// /2426 10132 20109 40177 55/// 22232 00147
BBXX PHCQ 03063 99467 70116 41/98 /2616 10125 20107 40203 54000 70200 8//// 22253 04138 20407 327// 40506 5//// 80115
BBXX BATUK01 03064 99588 70028 46/// /2852 10069 20030 49673 56018 22241 00107
AAXX 03064 60490 11560 62412 10095 20065 40197 52018 60064 70162 84532 333 00213 84620 83360 95990
AAXX 03063 NIL
AAXX 03064 87078 NIL
AAXX 03064 87244 NIL
AAXX 03064 87393 NIL
AAXX 03064 87416 32965 01805 10200 20110 39352 40070 52001
AAXX 03064 87563 NIL
AAXX 03064 87640 NIL
AAXX 03064 87688 NIL
AAXX 03064 87774 NIL
AAXX 03064 87852 NIL
AAXX 03064 87896 NIL
AAXX 03064 89022 46/// /1804 11124 21158 39811 49850 52008
AAXX 03064 89062 46/// /2904 11005 21030 39911 49952 52023 333 55035
AAXX 03063 87016 32562 82304 10249 20195 39653 40047 56009 8457/ 333 84620
AAXX 03064 87593 NIL
AAXX 03064 87623 32980 23607 10180 20123 39889 40108 50000 80002 333 56006 82070
AAXX 03064 87641 NIL
AAXX 03064 87645 32965 00504 10110 20102 39961 40166 55007
AAXX 03064 87648 NIL
AAXX 03064 87692 32960 00000 10104 20088 30158 40183 57007
AAXX 03064 87715 32965 02303 10176 20045 39798 40108 56009
AAXX 03064 87750 32965 03610 10206 20081 30010 40105 58003
AAXX 03064 87765 32560 70000 10089 20044 39170 48471 57017 87500 333 56600 87625 96120
AAXX 03064 87784 NIL
AAXX 03064 87791 NIL
AAXX 03064 87800 NIL
AAXX 03064 87803 32580 30000 10068 20017 39194 40104 56011 81570 333 56660 81630 83360
AAXX 03064 87828 31956 02704 10128 20093 30028 40078 52011 70400
AAXX 03064 87860 31450 29901 10091 20089 30012 40067 57012 71011 82600 333 56400 82710 96004
AAXX 03064 87904 NIL
AAXX 03064 87909 NIL
AAXX 03064 87925 11660 81609 10110 20090 30021 40044 57007 69901 76162 8252/ 333 56669 82635 88540
AAXX 03064 87938 NIL
AAXX 03061 34357 32598 81902 11028 21054 30113 40274 53005 8653/ 333 21036
AAXX 03061 34363 11397 82501 11044 21054 30126 40285 52010 69920 70282 886// 333 21051
AAXX 03061 34545 32598 62801 11071 21076 30170 40288 52011 86500 333 21108
AAXX 03061 34579 31596 80701 11101 21108 30241 40288 52009 71011 8850/ 333 21097
AAXX 03061 34838 31395 80101 10007 20005 30181 40281 52016 72842 886// 333 20008
AAXX 03061 34927 32597 82701 10028 21019 30249 40287 52013 886// 333 20025
AAXX 03061 34949 11340 82904 11012 21020 39716 40279 52015 69940 77172 8802/ 333 21007 88507
AAXX 03061 37001 32997 20702 10018 21013 30231 40273 52007 80030 333 20011
AAXX 03061 37031 32597 82801 10011 20001 30083 40284 52015 8457/ 333 20007
AAXX 03061 37061 11496 83102 10015 20006 30094 40265 52015 69940 78082 883// 333 20003
AAXX 03061 37085 11596 80103 11000 21006 30288 40316 53013 69960 77176 8672/ 333 20007
AAXX 03061 37107 12597 80501 10005 21017 39591 40288 52010 69930 87801 333 21013
AAXX 03061 37126 31998 23203 11120 21134 37929 48513 53010 70241 80001 333 21126
AAXX 03061 37171 11698 70604 10042 20025 30261 40280 53013 60020 70182 84530 333 20031 84639
AAXX 03061 37228 32697 81401 10011 21061 39409 40261 52005 885// 333 21018
AAXX 03061 37470 32998 33602 10069 21026 30281 40259 52010 83030 333 20042
AAXX 03061 37663 33/// /3101 10003 21098 39041 48505 52004 333 21053
AAXX 03064 48350 32665 11306 10269 20160 39806 40104 81100 333 59015
AAXX 03064 48427 32961 20000 10279 20178 30086 40093 57026 80006 333 59012
AAXX 03060 67489 32980 00905 10246 20162 38752 48508 333 20147 5//// 55121 59025 555 10286 7//11
AAXX 03060 67485 32980 00103 10260 20158 333 20179 5//// 55121 555 10310 7//00
AAXX 03060 67584 32980 00502 10282 20149 80000 333 20151 5//// 55/// 555 10339 7//90
AAXX 03060 67692 32980 03402 10273 20190 80000 333 20216 5//// 55/// 555 10326 7//11
AAXX 03060 67695 32980 03101 10310 20184 80000 333 20248 5//// 55/// 555 10355 7//00
AAXX 03064 71750 16/// /2110 10009 21036 39961 40198 56005 60001 333 10011 21175 70000 555 31929 40032
AAXX 03064 71752 16/// /1001 11037 21043 30122 40346 58002 60001 333 10047 21038 70015
AAXX 03064 71107 16/// /3518 10065 20042 30260 40375 55002 60001 333 10076 20056 70000 555 33539 40063
AAXX 03064 71503 46/// /0404 11134 21148 39864 40140 58002 6///1 333 11127 21186 7////
AAXX 03064 71506 46/// /2308 11078 21083 39233 40124 53023 6///1 333 11075 21123 7////
AAXX 03064 71514 16/// /3320 11081 21112 39456 40164 51041 60001 333 10016 21081 70007 555 33334 40043
AAXX 03064 71539 16/// /3215 11070 21093 39478 40185 51035 60001 333 10015 21073 70014 555 10010 20014 32337 40073
AAXX 03064 71269 16/// /2710 11104 21133 60001 333 10034 21110 70000 555 33145 40113
AAXX 03064 71270 16/// /1604 11042 21065 30111 40339 58003 60001 333 10029 21049 70063 555 33317 40201
AAXX 03064 71285 46/// /2405 11099 21119 6///1 333 10039 21146 7//// 555 33238 40173
AAXX 03064 71288 16/// /3311 11303 21333 30104 40130 51005 60001 333 11261 21309 70000 555 33318 40191
AAXX 03064 71295 16/// /2205 10001 21053 39608 40051 56003 60001 333 10002 21083 70000 555 31923 40201
AAXX 03064 71903 46/// /2715 10061 20046 30290 40340 5/006 6///1 333 10071 20053 7////
AAXX 03064 71423 16/// /3311 11047 21071 30289 40299 53013 60001 333 11002 21060 70000
AAXX 03064 71228 16/// /2506 11115 21136 60001 333 10051 21117 70000 555 33242 40183
AAXX 03064 71743 16/// /2213 11107 21137 39966 40188 51002 60001 333 11077 21127 70000 555 32330 40102
AAXX 03064 71747 16/// /2110 11025 21093 39645 40124 56013 60001 333 10005 21119 70000 555 32123 40191
AAXX 03064 71748 16/// /2510 11004 21027 39762 40047 53008 60001 333 10002 21061 70000 555 32030 40182
AAXX 03064 71581 16/// /0000 11121 21131 39844 40346 53002 60001 333 10003 70019 555 10030 20019
AAXX 03064 71005 16/// ///// 11127 21152 60001 333 10061 21127 70000
AAXX 03064 71063 16/// /2203 11040 21071 30259 40361 51009 60001 333 10006 21040 70030 555 10020 20030 30018 40211
AAXX 03064 71168 16/// /0000 11035 21069 39586 40181 53004 60001 333 10010 21149 70000
AAXX 03064 71186 46/// /2814 11057 21096 6///1 333 7////
AAXX 03064 71190 46/// /2917 11026 21060 6///1 333 11006 21027 7//// 555 33023 40061
AAXX 03064 71833 46/// /0000 11070 21074 6///1 333 10027 21072 7//// 555 33017 40181
AAXX 03061 40700 12960 02405 10026 21034 30173 40264 52020 60001 333 30104 70000
AAXX 03061 40723 NIL
AAXX 03061 40726 12960 00000 11024 21072 38699 40282 52014 60001 333 34110 70000
AAXX 03061 40727 12960 00000 11050 21095 38515 40299 52015 60001 333 34112 70000
AAXX 03061 40734 12560 12102 10092 20025 30270 40244 52020 60001 81100 333 30002 50180 70000 81825
AAXX 03061 40737 12560 31903 10078 20055 30226 40245 51011 60001 83800 333 31101 50131 70000 81822
AAXX 03061 40741 12560 31204 10062 20040 39914 40258 57014 60001 83600 333 30002 70000 83725
AAXX 03061 40780 12960 01203 10030 21131 38717 40256 52006 60001 333 34105 5//// 70000
AAXX 03061 40791 12965 00000 10072 21022 39402 40242 52014 60001 333 30102 50201 70000
AAXX 03061 40792 12970 00000 10050 21049 38755 40238 52012 60001 333 30104 5///1 70000
AAXX 03061 40794 12960 00000 10104 20024 30120 40220 51007 60001 90550 333 30103 50261 70000
AAXX 03061 40812 12960 00000 10084 21001 39818 40203 51004 60001 90545 333 30001 50241 70000
AAXX 03061 40829 12960 03306 10123 21011 39632 40207 50008 60001 333 30005 50441 70000
AAXX 03061 40833 12960 00000 10080 21023 30192 40226 52010 60001 333 30003 50341 70000
AAXX 03061 40835 12965 00000 10092 20039 39366 40217 51010 60001 333 30000 50141 70000
AAXX 03061 40845 12960 03610 10162 20073 30198 40203 52018 60003 90545 333 30015 50811 70000
AAXX 03061 40882 12964 00603 10248 20140 30128 40163 52019 60001 333 30013 50601 70000
AAXX 03061 40889 12960 02403 10258 20140 30161 40166 52015 60003 222// 00265 20400 333 30015 50881 70000
AAXX 03061 40890 12965 00000 10260 20126 30150 40157 51014 60003 222// 00256 20301 333 30014 50610 70000
AAXX 03061 40893 12960 00000 10244 20161 30145 40151 52014 60001 222// 00230 20500 333 30016 50601 70000
AAXX 03061 40897 NIL
AAXX 03061 40700 12960 02405 10026 21034 30173 40264 52020 60001 333 30104 70000
AAXX 03061 40723 NIL
AAXX 03061 40726 12960 00000 11024 21072 38699 40282 52014 60001 333 34110 70000
AAXX 03061 40727 12960 00000 11050 21095 38515 40299 52015 60001 333 34112 70000
AAXX 03061 40734 12560 12102 10092 20025 30270 40244 52020 60001 81100 333 30002 50180 70000 81825
AAXX 03061 40737 12560 31903 10078 20055 30226 40245 51011 60001 83800 333 31101 50131 70000 81822
AAXX 03061 40741 12560 31204 10062 20040 39914 40258 57014 60001 83600 333 30002 70000 83725
AAXX 03061 40780 12960 01203 10030 21131 38717 40256 52006 60001 333 34105 5//// 70000
AAXX 03061 40791 12965 00000 10072 21022 39402 40242 52014 60001 333 30102 50201 70000
AAXX 03061 40792 12970 00000 10050 21049 38755 40238 52012 60001 333 30104 5///1 70000
AAXX 03061 40794 12960 00000 10104 20024 30120 40220 51007 60001 90550 333 30103 50261 70000
AAXX 03061 40812 12960 00000 10084 21001 39818 40203 51004 60001 90545 333 30001 50241 70000
AAXX 03061 40829 12960 03306 10123 21011 39632 40207 50008 60001 333 30005 50441 70000
AAXX 03061 40833 12960 00000 10080 21023 30192 40226 52010 60001 333 30003 50341 70000
AAXX 03061 40835 12965 00000 10092 20039 39366 40217 51010 60001 333 30000 50141 70000
AAXX 03061 40845 12960 03610 10162 20073 30198 40203 52018 60003 90545 333 30015 50811 70000
AAXX 03061 40882 12964 00603 10248 20140 30128 40163 52019 60001 333 30013 50601 70000
AAXX 03061 40889 12960 02403 10258 20140 30161 40166 52015 60003 222// 00265 20400 333 30015 50881 70000
AAXX 03061 40890 12965 00000 10260 20126 30150 40157 51014 60003 222// 00256 20301 333 30014 50610 70000
AAXX 03061 40893 12960 00000 10244 20161 30145 40151 52014 60001 222// 00230 20500 333 30016 50601 70000
AAXX 03061 40897 NIL
AAXX 03063 91553 31598 70000 10285 20250 40075 56003 70222 83936 333 56399 83820 81925 85361 87078
AAXX 03063 91553 31598 70000 10285 20250 40075 56003 70222 83936 333 56399 83820 81925 85361 87078
AAXX 03064 71107 16/// /3518 10065 20042 30260 40375 55002 60001 333 10076 20056 70000 555 33539 40063
AAXX 03064 71750 16/// /2110 10009 21036 39961 40198 56005 60001 333 10011 21175 70000 555 31929 40032
AAXX 03064 71752 16/// /1001 11037 21043 30122 40346 58002 60001 333 10047 21038 70015
AAXX 03064 71503 46/// /0404 11134 21148 39864 40140 58002 6///1 333 11127 21186 7////
AAXX 03064 71506 46/// /2308 11078 21083 39233 40124 53023 6///1 333 11075 21123 7////
AAXX 03064 71514 16/// /3320 11081 21112 39456 40164 51041 60001 333 10016 21081 70007 555 33334 40043
AAXX 03064 71539 16/// /3215 11070 21093 39478 40185 51035 60001 333 10015 21073 70014 555 10010 20014 32337 40073
AAXX 03064 71903 46/// /2715 10061 20046 30290 40340 5/006 6///1 333 10071 20053 7////
AAXX 03064 71667 16/// /2108 10004 21079 39911 40159 58008 60001 333 10006 21229 70000 555 10010 32321 40031
AAXX 03064 71682 16/// /0502 11126 21132 39905 40141 53006 60001 333 11075 21208 70000
AAXX 03064 71357 16/// /1202 11176 21197 30040 40047 53017 60001 333 11127 21180 70018 555 10120 20018 30020 40121
AAXX 03064 71374 46/// /3307 11036 21075 6///1 333 11024 21048 7//// 555 33018 40231
AAXX 03064 71322 16/// /3615 11244 21266 30083 40096 50001 60001 333 11153 21254 70016 555 30223 40031
AAXX 03064 71340 16/// /1205 11121 21136 60001 333 10043 21134 70000 555 33141 40153
AAXX 03064 71341 16/// /2908 11098 21130 60001 333 10042 21100 70000 555 32433 40092
AAXX 03064 71342 17/// /3008 11100 21132 60021 7//4/ 333 10049 21102 70019 555 33242 40203
AAXX 03064 71347 16/// /2504 11067 21093 60001 333 10019 21092 70000 555 32734 40083
AAXX 03064 71348 16/// /0000 11090 21109 60001 333 10027 21120 70000 555 33037 40123
AAXX 03064 71349 16/// ///// 11135 21152 60001 333 10039 21135 70000
AAXX 03064 71168 16/// /0000 11035 21069 39586 40181 53004 60001 333 10010 21149 70000
AAXX 03064 71186 46/// /2814 11057 21096 6///1 333 7////
AAXX 03064 71190 46/// /2917 11026 21060 6///1 333 11006 21027 7//// 555 33023 40061
AAXX 03064 71581 16/// /0000 11121 21131 39844 40346 53002 60001 333 10003 70019 555 10030 20019
AAXX 03064 71743 16/// /2213 11107 21137 39966 40188 51002 60001 333 11077 21127 70000 555 32330 40102
AAXX 03064 71747 16/// /2110 11025 21093 39645 40124 56013 60001 333 10005 21119 70000 555 32123 40191
AAXX 03064 71748 16/// /2510 11004 21027 39762 40047 53008 60001 333 10002 21061 70000 555 32030 40182
AAXX 03064 71269 16/// /2710 11104 21133 60001 333 10034 21110 70000 555 33145 40113
AAXX 03064 71270 16/// /1604 11042 21065 30111 40339 58003 60001 333 10029 21049 70063 555 33317 40201
AAXX 03064 71285 46/// /2405 11099 21119 6///1 333 10039 21146 7//// 555 33238 40173
AAXX 03064 71288 16/// /3311 11303 21333 30104 40130 51005 60001 333 11261 21309 70000 555 33318 40191
AAXX 03064 71295 16/// /2205 10001 21053 39608 40051 56003 60001 333 10002 21083 70000 555 31923 40201
AAXX 03064 71228 16/// /2506 11115 21136 60001 333 10051 21117 70000 555 33242 40183
AAXX 03064 71423 16/// /3311 11047 21071 30289 40299 53013 60001 333 11002 21060 70000
AAXX 03064 71005 16/// ///// 11127 21152 60001 333 10061 21127 70000
AAXX 03064 71063 16/// /2203 11040 21071 30259 40361 51009 60001 333 10006 21040 70030 555 10020 20030 30018 40211
AAXX 03064 71833 46/// /0000 11070 21074 6///1 333 10027 21072 7//// 555 33017 40181
AAXX 03061 40700 12960 02405 10026 21034 30173 40264 52020 60001 333 30104 70000
AAXX 03061 40723 NIL
AAXX 03061 40726 12960 00000 11024 21072 38699 40282 52014 60001 333 34110 70000
AAXX 03061 40727 12960 00000 11050 21095 38515 40299 52015 60001 333 34112 70000
AAXX 03061 40734 12560 12102 10092 20025 30270 40244 52020 60001 81100 333 30002 50180 70000 81825
AAXX 03061 40737 12560 31903 10078 20055 30226 40245 51011 60001 83800 333 31101 50131 70000 81822
AAXX 03061 40741 12560 31204 10062 20040 39914 40258 57014 60001 83600 333 30002 70000 83725
AAXX 03061 40780 12960 01203 10030 21131 38717 40256 52006 60001 333 34105 5//// 70000
AAXX 03061 40791 12965 00000 10072 21022 39402 40242 52014 60001 333 30102 50201 70000
AAXX 03061 40792 12970 00000 10050 21049 38755 40238 52012 60001 333 30104 5///1 70000
AAXX 03061 40794 12960 00000 10104 20024 30120 40220 51007 60001 90550 333 30103 50261 70000
AAXX 03061 40812 12960 00000 10084 21001 39818 40203 51004 60001 90545 333 30001 50241 70000
AAXX 03061 40829 12960 03306 10123 21011 39632 40207 50008 60001 333 30005 50441 70000
AAXX 03061 40833 12960 00000 10080 21023 30192 40226 52010 60001 333 30003 50341 70000
AAXX 03061 40835 12965 00000 10092 20039 39366 40217 51010 60001 333 30000 50141 70000
AAXX 03061 40845 12960 03610 10162 20073 30198 40203 52018 60003 90545 333 30015 50811 70000
AAXX 03061 40882 12964 00603 10248 20140 30128 40163 52019 60001 333 30013 50601 70000
AAXX 03061 40889 12960 02403 10258 20140 30161 40166 52015 60003 222// 00265 20400 333 30015 50881 70000
AAXX 03061 40890 12965 00000 10260 20126 30150 40157 51014 60003 222// 00256 20301 333 30014 50610 70000
AAXX 03061 40893 12960 00000 10244 20161 30145 40151 52014 60001 222// 00230 20500 333 30016 50601 70000
AAXX 03061 40897 NIL
AAXX 03061 38847 41497 60000 10038 20031 40272 57007 72841 86400
AAXX 03064 61968 16/// /0907 10299 20236 40112 60104 333 20246 55/// 59014 90710 91113 555 60005
AAXX 03064 65306 32960 50000 10200 20008 39795 40126 80002 333 00900 20150 51104 55100 58003 85076
AAXX 03064 65319 32958 50000 10165 20032 39608 40125 80002 333 01600 20162 50694 55111 58003 85076
AAXX 03064 65330 31920 50204 10209 20017 39674 40110 70522 81032 333 01800 20206 51044 55102 00477 58001 81361 85076
AAXX 03064 65335 32960 53204 10165 20112 39889 40114 80002 333 01300 20165 50564 55104 58002 85076
AAXX 03064 65344 31430 53402 10235 20228 30095 40106 71022 81502 333 02100 20230 50404 55095 58003 81612 85076
AAXX 03061 38734 42999 20904 11042 21111 47080 53008 80003
BBXX DBBC 03065 99535 1008/ 46/// /1911 10056 2//+/ 40012 57052 22230 00064
BBXX DBBI 03061 99532 10085 46/// /2008 10060 20058 40021 57052 22270 00068
BBXX DBCK 03061 99/// ///// 46/// ///// 10060 20057 40009 57051 22220 00065
AAXX 03064 60595 36/// /0000 11451 333 21451
BBXX DBND/03061 /9536 10086 46/// /1913 10058 20037 40009 57051 22220 00073
BBXX DBKR 03061 99573 10200 46/// /2512 10051 20019 40033 52016 22242 00072
AAXX 03064 40153 12960 01011 10093 21077 39150 48543 52011 60002 333 20085 70000
AAXX 03064 40179 12970 00401 10082 20029 30191 40229 52015 60002 333 20046 50171 70000
AAXX 03064 40180 12960 09901 10079 20008 30181 40232 52015 60002 333 20053 70000
AAXX 03064 40190 16/// ///// 10079 21011 39895 40237 52017 60002 333 20050 70000
AAXX 03064 40199 12975 00305 10147 21016 30198 40221 52019 60002 333 20104 51051 55092 70000
BBXX DBFH 03061 99555 10084 46/// /2013 10075 20057 49937 57062/ 22270 00067
BBXX 61001 03064 99434 10078 46/// /1609 10158 20133 40174 57004 22200 00172 10602 70012
BBXX DBBA 03061 99/// ///// 46/// ///// 10058 20036 40002 57052 22220 00101
BBXX DBJM 03061 99543 10079 46/// /2020 10073 20052 49977 57060 22261 00094
AAXX 03061 13463 32968 12301 10036 20030 30194 40254 53002 81030 333 20035 30002 55022
AAXX 03061 13459 32668 60201 10006 20006 39493 40281 53002 84840 333 20001 31103 55036 84696
AAXX 03061 13461 32570 30503 10110 20078 30239 40247 55001 83500 333 20089 31004 55080 83630 92311 92418 92515
AAXX 03061 13363 31/01 92005 11031 21031 39328 48519 54000 74544 333 21032 34106 55039
BBXX DBEB 03061 99538 10081 41/// /1918 10055 20055 49989 57051 7//// 22231 00080
BBXX DBFR 03061 99543 10101 46/// /1908 10047 20039 40013 57045 22200 00082
BBXX 41101 03064 99146 70562 46/// /0816 10270 20230 40108 57016 22200 00276 10704 70020
BBXX DBEA 03061 99540 10085 46/// /2019 10060 20037 49981 57059 22220 00080
AAXX 03061 23226 11/04 92004 11114 21127 39853 40077 57013 69920 74942 333 21086 936//
AAXX 03061 23701 12599 82005 11064 21092 39939 40072 57023 69900 885// 333 21064 88621
AAXX 03061 28909 31395 31301 11146 21152 30181 40289 52015 71040 82730 333 21154 93507
AAXX 03064 71357 16/// /1202 11176 21197 30040 40047 53017 60001 333 11127 21180 70018 555 10120 20018 30020 40121
AAXX 03064 71374 46/// /3307 11036 21075 6///1 333 11024 21048 7//// 555 33018 40231
AAXX 03064 71667 16/// /2108 10004 21079 39911 40159 58008 60001 333 10006 21229 70000 555 10010 32321 40031
AAXX 03064 71682 16/// /0502 11126 21132 39905 40141 53006 60001 333 11075 21208 70000
AAXX 03064 71322 16/// /3615 11244 21266 30083 40096 50001 60001 333 11153 21254 70016 555 30223 40031
AAXX 03064 71340 16/// /1205 11121 21136 60001 333 10043 21134 70000 555 33141 40153
AAXX 03064 71341 16/// /2908 11098 21130 60001 333 10042 21100 70000 555 32433 40092
AAXX 03064 71342 17/// /3008 11100 21132 60021 7//4/ 333 10049 21102 70019 555 33242 40203
AAXX 03064 71347 16/// /2504 11067 21093 60001 333 10019 21092 70000 555 32734 40083
AAXX 03064 71348 16/// /0000 11090 21109 60001 333 10027 21120 70000 555 33037 40123
AAXX 03064 71349 16/// ///// 11135 21152 60001 333 10039 21135 70000
AAXX 03061 48806 32570 61401 10199 20120 39366 40133 57031 862// 333 59038 86895
AAXX 03064 60607 12960 10209 10085 20032 40172 56007 60004 81030 333 0//00 20080 81362
AAXX 03064 60607 12960 10209 10085 20032 40172 56007 60004 81030 333 0//00 20080 81362
AAXX 03061 10044 46/// /1915 10048 20026 39966 49998 58049 222// 00071 333 10057 20040 55012 55300 91119 91216
AAXX 03061 10124 46/// /1818 10057 20057 39939 49977 58058 222// 00087 333 10076 20044 55/// 553// 91122 91218
AAXX 03063 64501 11358 60000 10237 20234 3//// 4//// 60624 72996 84930 333 0//53 20234 50274 55047 5//// 83608 81916 96360 94953 95834
AAXX 03061 08515 11575 80804 10150 20126 30220 40344 57005 69912 70282 888// 222// 333 20146 30112 50044 55/// 2//// 82820 87630 910// 911//
AAXX 03061 10578 11/01 92413 11022 21024 38733 48429 56011 69992 74944 333 11002 21028 3/104 43001 55047 55300 20000 30000 70032
AAXX 03061 08515 11575 80804 10150 20126 30220 40344 57005 69912 70282 888// 222// 333 20146 30112 50044 55/// 2//// 82820 87630 910// 911// 555 60007 912//
AAXX 03061 01003 11960 80303 11068 21097 39672 49684 52004 69901 77122 8802/ 333 49002 91104
AAXX 03064 62357 32960 03604 10125 20087 40233 52005 333 20105
AAXX 03064 62423 32960 03602 10092 20075 40249 52015 333 20069
AAXX 03064 62403 32960 03003 10118 20077 40204 52012 333 20096
AAXX 03064 62357 32960 03604 10125 20087 40233 52005 333 20105
AAXX 03064 62423 32960 03602 10092 20075 40249 52015 333 20069
AAXX 03064 62403 32960 03003 10118 20077 40204 52012 333 20096
AAXX 03061 33466 31357 82104 10015 20001 30000 40191 53001 71011 8672/ 333 21004 86710
AAXX 03064 63705 12558 73303 10213 38859 48513 60044 8292/ 3333 20184 59012 83618 81918 87464 5555 10200
AAXX 03061 22271 11496 81912 11019 21030 39835 49845 57017 69930 77173 8872/ 333 21021 91118
AAXX 03061 23205 31295 82007 11047 21075 39932 49947 58029 78683 889// 333 21049 87704 91114
AAXX 03061 22768 11295 81807 11027 21043 39908 49964 57018 69900 77373 8872/ 333 21043 86706 91114
AAXX 03061 23219 11398 82010 11080 21094 39953 40061 57016 69932 73673 8802/ 333 47039
BBXX 41053 03061 99185 70661 46/// /0304 10268 40135 90550 333 91205
BBXX 41053 03061 99185 70661 46/// /0303 10268 40137 90540 333 91205
BBXX 41052 03061 99183 70648 46/// /0304 10267 40127 90550 333 91205
BBXX 41052 03061 99183 70648 46/// /0304 10267 40129 90540 333 91205
BBXX 41053 03061 99185 70661 46/// /0303 10268 40134 58018 90600 22200 00282 10802 70009 333 91204
AAXX 03061 28676 11497 81602 11114 21130 30071 40204 57008 69900 77177 8802/ 333 21180
AAXX 03061 28766 11996 82205 11091 21111 30014 40211 57003 69950 71072 87071 333 21182
AAXX 03061 28867 11598 62703 11095 21125 39959 40241 52002 69900 70271 86500 333 21116
AAXX 03061 28879 11997 82407 11064 21087 39931 40226 53003 69930 77172 8805/ 333 21161
AAXX 03061 28952 32999 72001 11104 21110 30057 40258 52007 80001 333 21117
AAXX 03061 28966 11597 82704 11068 21084 39956 40248 52001 69960 77177 885// 333 21087
AAXX 03061 29802 11996 82303 11121 21140 30077 40227 57001 69920 72271 8807/ 333 21149
AAXX 03061 29807 31997 22301 11089 21123 30110 40233 57003 70171 82030 333 21171
AAXX 03061 34691 32998 63602 11092 21126 30289 40276 52019 86030 333 21061
AAXX 03061 35067 11998 82003 11055 21069 39976 40260 53004 69930 70372 8802/ 333 21077
AAXX 03061 35078 11597 82506 11055 21066 39867 40255 54000 69920 78582 889// 333 21068
AAXX 03061 35085 11396 82405 11062 21077 39760 40248 54000 69990 77172 8672/ 333 21075
AAXX 03061 35108 12597 80000 11061 21076 30233 40281 52012 69920 885// 333 21075
AAXX 03061 35188 11997 81302 11070 21095 39822 40270 52001 69950 77177 8802/ 333 21080
AAXX 03061 35217 32598 71801 11041 21068 30234 40274 52013 87500 333 21064
AAXX 03061 35229 11597 80201 11060 21071 39980 40262 52009 69930 77172 885// 333 21067
AAXX 03061 35302 11596 81503 11050 21056 30248 40268 52010 69900 77777 886// 333 21088
AAXX 03061 35357 32997 81802 11130 21150 39832 40292 52006 84052 333 21192
AAXX 03061 35394 11998 61602 11091 21120 39585 40288 52002 69900 72272 80002 333 21098
AAXX 03061 35406 31596 80000 11071 21097 30264 40267 53014 77172 8802/ 333 21063
AAXX 03061 35416 11597 80000 11054 21084 30147 40272 52008 69920 70272 886// 333 21062
AAXX 03061 35426 11997 82702 11069 21085 39965 40267 52010 69920 77172 8802/ 333 21067
AAXX 03061 35497 32998 30000 11124 21147 39459 40298 52007 80002 333 21168
AAXX 03061 35532 12498 80000 11080 21116 39756 40266 52013 69930 8802/ 333 21075
AAXX 03061 35671 11998 81202 11088 21131 39843 40290 52008 69900 70271 8807/ 333 21102
AAXX 03061 35700 11495 80604 11034 21051 30278 40254 52008 69950 77377 8802/ 333 21035
AAXX 03061 35746 11498 82401 11065 21073 30212 40282 52010 69980 70232 84770 333 21118
AAXX 03061 35796 11998 72602 11053 21098 39843 40289 52010 69900 72287 83079 333 21067
AAXX 03061 35849 12998 80000 11040 21059 30204 40289 52009 69960 885// 333 21057
AAXX 03061 35925 31595 81103 11060 21068 40257 57005 71072 886//
AAXX 03061 35953 11496 82504 11050 21063 30169 40303 52015 69930 77172 8802/ 333 21043
AAXX 03061 35969 12599 62301 11030 21061 30137 40215 52024 60010 86500 333 21033
AAXX 03061 36003 11596 82502 11067 21076 30092 40247 52001 69990 77172 8352/ 333 21074
AAXX 03061 36152 32998 72504 11070 21113 30075 40269 58003 84042 333 21131
AAXX 03061 36177 31996 71201 11099 21107 30031 40288 58004 77172 8807/ 333 21165
AAXX 03061 36208 11597 82301 11088 21103 39259 40267 52003 69900 77177 8372/ 333 21107
AAXX 03061 36397 11999 70000 11080 21107 39698 40277 51001 69920 70272 85052 333 21106
AAXX 03061 36428 11496 80000 11030 21053 39737 40240 58005 69960 77172 8372/ 333 21070 95050
AAXX 03061 36535 32599 52901 11040 21090 39615 40256 52004 85530 333 21067
AAXX 03061 36639 11596 82202 11027 21040 39644 40254 52014 60060 77177 8802/ 333 21023
AAXX 03061 36821 12599 82403 10001 21036 39802 40295 52011 69950 889// 333 21017
AAXX 03061 36859 11996 80901 10002 21017 39506 40294 52002 60050 70277 8802/ 333 21013
AAXX 03061 36864 12599 62906 10000 21053 39394 40296 58005 69920 83752 333 21016
AAXX 03061 36870 11597 70000 10039 20009 39264 40271 54000 60090 70282 85932 333 21010
AAXX 03061 38001 12997 82707 10030 20006 30261 40231 53001 69940 8807/ 333 20013
AAXX 03061 38062 12699 62401 11030 21082 30140 40307 52015 60010 86500 333 21032
AAXX 03061 38069 12998 22401 11018 21056 30116 40312 52007 69920 80009 333 21035
AAXX 03061 38196 NIL
AAXX 03061 38198 NIL
AAXX 03061 38222 12598 82503 11008 21040 39745 40315 52011 60020 885// 333 21007
AAXX 03061 38232 31498 82305 10032 20018 30145 40244 53005 76162 8802/ 333 21022
AAXX 03061 38328 NIL
AAXX 03061 38334 NIL
AAXX 03061 38341 32597 60301 11008 21029 39505 40307 52002 86700 333 21023
AAXX 03061 38343 12698 83401 11017 21050 39451 40313 52008 60030 885// 333 21008
AAXX 03061 38439 NIL
BBXX 42085 03061 99179 70665 46/// ///// 1//// 90600 22200 00285
AAXX 03061 28676 11497 81602 11114 21130 30071 40204 57008 69900 77177 8802/ 333 21180
AAXX 03061 28766 11996 82205 11091 21111 30014 40211 57003 69950 71072 87071 333 21182
AAXX 03061 28867 11598 62703 11095 21125 39959 40241 52002 69900 70271 86500 333 21116
AAXX 03061 28879 11997 82407 11064 21087 39931 40226 53003 69930 77172 8805/ 333 21161
AAXX 03061 28952 32999 72001 11104 21110 30057 40258 52007 80001 333 21117
AAXX 03061 28966 11597 82704 11068 21084 39956 40248 52001 69960 77177 885// 333 21087
AAXX 03061 29802 11996 82303 11121 21140 30077 40227 57001 69920 72271 8807/ 333 21149
AAXX 03061 29807 31997 22301 11089 21123 30110 40233 57003 70171 82030 333 21171
AAXX 03061 34691 32998 63602 11092 21126 30289 40276 52019 86030 333 21061
AAXX 03061 35067 11998 82003 11055 21069 39976 40260 53004 69930 70372 8802/ 333 21077
AAXX 03061 35078 11597 82506 11055 21066 39867 40255 54000 69920 78582 889// 333 21068
AAXX 03061 35085 11396 82405 11062 21077 39760 40248 54000 69990 77172 8672/ 333 21075
AAXX 03061 35108 12597 80000 11061 21076 30233 40281 52012 69920 885// 333 21075
AAXX 03061 35188 11997 81302 11070 21095 39822 40270 52001 69950 77177 8802/ 333 21080
AAXX 03061 35217 32598 71801 11041 21068 30234 40274 52013 87500 333 21064
AAXX 03061 35229 11597 80201 11060 21071 39980 40262 52009 69930 77172 885// 333 21067
AAXX 03061 35302 11596 81503 11050 21056 30248 40268 52010 69900 77777 886// 333 21088
AAXX 03061 35357 32997 81802 11130 21150 39832 40292 52006 84052 333 21192
AAXX 03061 35394 11998 61602 11091 21120 39585 40288 52002 69900 72272 80002 333 21098
AAXX 03061 35406 31596 80000 11071 21097 30264 40267 53014 77172 8802/ 333 21063
AAXX 03061 35416 11597 80000 11054 21084 30147 40272 52008 69920 70272 886// 333 21062
AAXX 03061 35426 11997 82702 11069 21085 39965 40267 52010 69920 77172 8802/ 333 21067
AAXX 03061 35497 32998 30000 11124 21147 39459 40298 52007 80002 333 21168
AAXX 03061 35532 12498 80000 11080 21116 39756 40266 52013 69930 8802/ 333 21075
AAXX 03061 35671 11998 81202 11088 21131 39843 40290 52008 69900 70271 8807/ 333 21102
AAXX 03061 35700 11495 80604 11034 21051 30278 40254 52008 69950 77377 8802/ 333 21035
AAXX 03061 35746 11498 82401 11065 21073 30212 40282 52010 69980 70232 84770 333 21118
AAXX 03061 35796 11998 72602 11053 21098 39843 40289 52010 69900 72287 83079 333 21067
AAXX 03061 35849 12998 80000 11040 21059 30204 40289 52009 69960 885// 333 21057
AAXX 03061 35925 31595 81103 11060 21068 40257 57005 71072 886//
AAXX 03061 35953 11496 82504 11050 21063 30169 40303 52015 69930 77172 8802/ 333 21043
AAXX 03061 35969 12599 62301 11030 21061 30137 40215 52024 60010 86500 333 21033
AAXX 03061 36003 11596 82502 11067 21076 30092 40247 52001 69990 77172 8352/ 333 21074
AAXX 03061 36152 32998 72504 11070 21113 30075 40269 58003 84042 333 21131
AAXX 03061 36177 31996 71201 11099 21107 30031 40288 58004 77172 8807/ 333 21165
AAXX 03061 36208 11597 82301 11088 21103 39259 40267 52003 69900 77177 8372/ 333 21107
AAXX 03061 36397 11999 70000 11080 21107 39698 40277 51001 69920 70272 85052 333 21106
AAXX 03061 36428 11496 80000 11030 21053 39737 40240 58005 69960 77172 8372/ 333 21070 95050
AAXX 03061 36535 32599 52901 11040 21090 39615 40256 52004 85530 333 21067
AAXX 03061 36639 11596 82202 11027 21040 39644 40254 52014 60060 77177 8802/ 333 21023
AAXX 03061 36821 12599 82403 10001 21036 39802 40295 52011 69950 889// 333 21017
AAXX 03061 36859 11996 80901 10002 21017 39506 40294 52002 60050 70277 8802/ 333 21013
AAXX 03061 36864 12599 62906 10000 21053 39394 40296 58005 69920 83752 333 21016
AAXX 03061 36870 11597 70000 10039 20009 39264 40271 54000 60090 70282 85932 333 21010
AAXX 03061 38001 12997 82707 10030 20006 30261 40231 53001 69940 8807/ 333 20013
AAXX 03061 38062 12699 62401 11030 21082 30140 40307 52015 60010 86500 333 21032
AAXX 03061 38069 12998 22401 11018 21056 30116 40312 52007 69920 80009 333 21035
AAXX 03061 38196 NIL
AAXX 03061 38198 NIL
AAXX 03061 38222 12598 82503 11008 21040 39745 40315 52011 60020 885// 333 21007
AAXX 03061 38232 31498 82305 10032 20018 30145 40244 53005 76162 8802/ 333 21022
AAXX 03061 38328 NIL
AAXX 03061 38334 NIL
AAXX 03061 38341 32597 60301 11008 21029 39505 40307 52002 86700 333 21023
AAXX 03061 38343 12698 83401 11017 21050 39451 40313 52008 60030 885// 333 21008
AAXX 03061 38439 NIL
BBXX 41052 03061 99183 70648 46/// /0304 10267 40127 58016 90600 22200 00281 10901 70006 333 91206
AAXX 03061 40001 32970 00203 10053 21076 40261 53016 333 20011 30///
AAXX 03061 40007 32960 00000 10019 21034 40281 53012 333 21020 34///
AAXX 03061 40025 32960 00302 10068 21039 40242 52017 333 20038 30///
AAXX 03061 40045 32970 02604 11024 21131 40264 52011 333 21030 30///
AAXX 03061 40061 32970 00000 10017 21002 40271 52020 333 20007 30///
AAXX 03061 40080 32970 00000 11008 21082 39525 40268 52016 333 21040 30///
AAXX 03061 40087 NIL
AAXX 03061 40095 NIL
AAXX 03064 60195 12558 72419 10036 20018 38504 48519 5//// 69964 8527/ 333 20035 31001 85830 83360 95560
BBXX OXHY2 03063 99333 10274 41598 22503 10190 20124 40250 51016 70200 81100 22264 00190 20402 30000 40000 5//// 80150
BBXX 61001 03064 99434 10078 46/// /1609 10158 20133 40174 57004 22200 00172 10602 70012
BBXX OXHY2 03063 99333 10274 41598 22503 10190 20124 40250 51016 70200 81100 22264 00190 20402 30000 40000 5//// 80150
BBXX 41101 03064 99146 70562 46/// /0816 10270 20230 40108 57016 22200 00276 10704 70020
AAXX 03061 60381 36/// /2301 10113 20097 333 20112
AAXX 03061 60639 36/// /0909 10103 21002 333 20103
AAXX 03061 60605 36/// /0905 10088 20031 333 20077
BBXX 46232 03061 99325 71174 46/// ///// 1//// 90538 22200 00162 11202 20902 326// 41202 70012
AAXX 03064 86330 32998 01206 10150 20068 40141 51004
AAXX 03064 86360 NIL
AAXX 03064 86460 NIL
AAXX 03064 86490 NIL
AAXX 03064 86530 NIL
AAXX 03064 86545 32997 00000 10110 20102 40168 52///
AAXX 03064 86565 32997 10000 10100 20088 40167 56003 80001
AAXX 03064 86580 32997 10000 10122 20108 40175 54000 80001
BBXX 46249 03061 99338 71197 46/// ///// 1//// 90617 22200 00149 11102 21002 330// 41101 70009
BBXX 46248 03061 99461 71247 46/// ///// 1//// 90604 22200 00099 11106 21005 330// 41104 70032
BBXX 46244 03061 99409 71244 46/// ///// 1//// 90605 22200 00108 11010 21008 329// 41505 70048
BBXX DDID2 03063 99077 70286 41397 60311 10264 20238 40110 57020 70151 866// 22244 04260 20402 80245
BBXX 46241 03061 99330 71173 46/// ///// 1//// 90541 22200 00151 11102 21001 327// 41101 70008
BBXX 46240 03061 99366 71219 46/// ///// 1//// 90612 22200 00125 11102 21002 334// 41102 70012
BBXX 46237 03061 99378 71226 46/// ///// 1//// 90610 22200 00118 11704 20903 325// 41704 70022
BBXX 46212 03061 99408 71243 46/// ///// 1//// 90612 22200 00104 10909 20907 332// 41105 70043
BBXX 46217 03061 99342 71194 46/// ///// 1//// 90612 22200 00151 10402 20402 320// 41401 70010
BBXX 46216 03061 99343 71198 46/// ///// 1//// 90557 22200 00148 10902 20901 325// 41101 70008
BBXX 46223 03061 99335 71178 46/// ///// 1//// 90600 22200 00162 11302 20801 319// 41301 70008
BBXX 46231 03061 99327 71174 46/// ///// 1//// 90554 22200 00151 11402 21002 321// 41401 70010
BBXX 46222 03061 99336 71183 46/// ///// 1//// 90556 22200 00160 11102 20702 326// 41101 70009
BBXX 46242 03061 99332 71174 46/// ///// 1//// 90556 22200 00155 11302 20801 322// 41301 70008
BBXX 46211 03061 99469 71242 46/// ///// 1//// 90606 22200 00094 10905 20904 328// 41103 70025
BBXX 46221 03061 99339 71186 46/// ///// 1//// 90545 22200 00153 11402 20601 320// 41401 70008
AAXX 03064 91945 36/// /0510 10264 20216 30153 40158 51017 555 58010 69924
AAXX 03064 89062 46/// /2904 11005 21030 39911 49952 52023 333 55035
AAXX 03064 40582 32960 03506 10112 21057 40244 53013 333 55310 00500 10000 21241 30405 40966 51296 61646 55407 40836 90401 91007 91109 91207 91303
AAXX 03064 41150 NIL
AAXX 03064 41168 NIL
AAXX 03064 41170 41959 03111 10183 20116 30184 40197 70500 333 20149 59020 555 00130
AAXX 03064 41176 NIL
AAXX 03064 41184 NIL
AAXX 03064 41194 NIL
AAXX 03064 41196 NIL
AAXX 03064 41198 NIL
AAXX 03064 41210 NIL
AAXX 03064 41216 NIL
AAXX 03064 41217 NIL
AAXX 03064 41218 NIL
AAXX 03064 41226 NIL
AAXX 03064 41244 NIL
AAXX 03064 41246 32960 02902 10252 20174 30158 40162 333 20187 59016
AAXX 03064 41254 NIL
AAXX 03064 41256 32970 02705 10251 20166 30153 40163 333 20196 3/021 59017
AAXX 03064 41258 NIL
AAXX 03064 41268 32960 03511 10270 20181 30140 40156 333 20244 59004
AAXX 03064 41312 36/// /3115 10252 20032 30120 40159 333 0E/// 20216 59011
AAXX 03064 41314 NIL
AAXX 03064 41316 32960 03222 10242 21001 30137 40163 333 20207 59009
AAXX 03064 41404 42960 02201 10138 21003 37886 48541 90618 333 20042 31001 59005
AAXX 03064 41407 NIL
AAXX 03064 41431 41558 50000 10280 20243 30130 40143 70544 85800 333 20230 30/// 59012 85830
AAXX 03064 41466 41456 41210 10204 20133 38580 48480 71044 81600 333 20150 30/// 59010 84720
AAXX 03064 41477 42560 31604 10280 20221 81150 333 20254 30/// 81830
AAXX 03064 41480 41457 30405 10265 20196 30154 40157 70544 83500 333 20233 30/// 59011 83618
BBXX A8IZ2 31112 03064 99362 70082 41998 03615 10150 20050 40260 52015 70012 22264 80100 .....
BBXX 62103 03064 99499 70029 46/96 /2830 10131 20112 40066 56015 22200 00136 10807 70035 333 90710 91144
BBXX 62081 03064 99510 70134 46/// ///// 10128 20113 40098 56004 22200 00122 10912 70058
BBXX 62442 03064 99490 70163 46/// /2728 1//// 2//// 40172 57008 22200 00132 333 90710 91137
BBXX 62029 03064 99487 70125 46/// /2724 10133 20108 40162 56005 22200 00139 10810 70050 333 90710 91135
BBXX 62001 03064 99452 70050 46/// /2620 10136 20118 40220 56020 22200 00158 10808 70039 333 90710 91132
BBXX 64046 03064 99606 70049 46/// /3237 10072 20033 49674 53047 22200 00091 11015 70076
BBXX 62301 03064 99524 70047 46/// /2823 10112 20063 40020 52009 22200 00123 10605 70027 333 90710 91132
BBXX 62303 03064 99516 70051 46/// /2923 10125 20078 40044 52008 22200 00128 10708 70038 333 90710 91133
BBXX 62105 03064 99554 70122 46/// /3030 10093 20038 49988 52009 22200 00112 11116 70079 333 90710 91142
BBXX 64045 03064 99591 70117 46/// /3033 10070 21002 49856 51025 22200 00103 11018 70090 333 90710 91143
BBXX AMOUK06 03064 99506 70024 46/// ///// 10126 20109 30023 40042 57019 90550
BBXX AMOUK03 03064 99519 10026 46/// ///// 10123 20119 39945 49978 57021 90550
BBXX AMOUK14 03064 99536 70038 46/// ///// 10102 20054 39940 49976 57006 90550
BBXX AMOUK05 03064 99522 10034 46/// ///// 10090 20088 39912 49949 57010 90550
BBXX AMOUK09 03064 99510 10013 46/// ///// 10126 20113 30005 40023 57034 90550
BBXX AMOUK04 03064 99533 70062 46/// ///// 10086 20043 30002 40008 52022 90550
BBXX AMOUK08 03064 99501 70061 46/// ///// 10126 20118 30082 40089 57005 90550
BBXX 63057 03064 99592 10015 47596 /2441 10076 20024 49688 57031 700// 22200 10812 70058
BBXX 63056 03064 99597 10016 47497 /2336 10056 20053 49664 57035 740// 22200 10812 70059
BBXX 62121 03064 99535 10027 46/// /2429 10104 20081 49949 56037 22200
BBXX 62144 03064 99534 10017 47497 /2528 10102 20084 49960 56011 700// 22200 10505 70025
BBXX 62145 03064 99531 10028 47398 /2229 10103 20081 49954 56027 700// 22200 10607 70033
BBXX 62111 03064 99580 70003 46/// /2747 10075 20019 22200 10811 70053
BBXX PJAI 03064 99581 70014 47496 /2535 10072 20028 49749 56022 740// 22200
BBXX 62112 03064 99584 70002 47596 /2536 10074 20029 49718 58036 740// 22200
BBXX 63055 03064 99606 10016 47998 /2522 10061 20033 49631 700// 22200 10810 70052
BBXX 63108 03064 99608 10017 47998 /2529 10053 20015 49626 56042 740// 22200 10910 70052
BBXX 63106 03064 99610 10017 46/// /2124 10066 49610 56042 22200
BBXX 63105 03064 99610 10017 47996 ///// 10068 20036 49611 57043 740// 22200
BBXX 63113 03064 99610 10017 46/// /2330 10063 20030 49624 57036 22200 10911 70055
BBXX 63112 03064 99611 10010 47/97 /2525 10078 20027 49598 57034 761// 22200 10812 70058
BBXX 63107 03064 99611 10017 46/// /2120 10071 49608 57042 22200
BBXX 63101 03064 99612 10009 46/// /2422 10068 20032 49596 57047 22200
BBXX 63103 03064 99612 10011 46/// /2527 10073 20024 49606 57035 22200 10911 70053
BBXX 63104 03064 99612 10016 47598 /2227 10079 20027 49606 57046 700// 22200
BBXX 63117 03064 99613 10011 47599 /2225 10169 20046 49599 57047 700// 22200
BBXX 63115 03064 99616 10013 47497 /2020 10102 20031 49592 57039 762// 22200 10811 70055
BBXX MWYG6 03064 99603 70040 47997 /2932 10069 700// 22200
BBXX 62142 03064 99530 10021 46/98 /2425 10104 49955 56024 22200 10505 70024
BBXX 64041 03064 99607 70026 47597 /2729 10063 20063 49628 53025 700// 22200 11013 70067
BBXX 62150 03064 99536 10007 46/// ///// 22200
BBXX 62148 03064 99536 10015 46/// /2323 10102 20085 49952 55018 22200
BBXX 62149 03064 99537 10011 47798 /2525 10101 20086 49943 55007 700// 22200 10504 70020
BBXX 62131 03064 99539 10012 46/// /26// 10104 20073 49932 56011 22200
BBXX 62127 03064 99540 10007 47798 ///// 10101 20045 49934 55002 700// 22200 10504 70018
BBXX 62165 03064 99540 10009 47798 /2716 10104 20060 49936 55005 700// 22200 10504 70022
BBXX 62123 03064 99563 10022 47597 /2532 10094 20064 49840 57015 700// 22200
BBXX 62132 03064 99564 10020 46/// /2823 10093 20034 49858 58002 22200
BBXX 62120 03064 99564 10021 47997 /2632 10090 20035 49834 57014 700// 22200
BBXX 62154 03064 99564 10022 46/// /2530 10090 20033 49839 56016 22200
BBXX 62152 03064 99570 10018 46/// ///// 22200
BBXX 62119 03064 99570 10019 46/// ///// 22200
BBXX 62133 03064 99571 10009 46/// ///// 22200
BBXX PJGO 03064 99571 10022 47697 /2420 10091 20033 49816 56014 700// 22200
BBXX 62164 03064 99572 10008 46/// ///// 22200
BBXX 62146 03064 99572 10021 46/// ///// 22200
BBXX 62128 03064 99587 10014 47497 /2342 10074 20021 49717 58032 700// 22200 10811 70053
BBXX 62129 03064 99584 10003 46/// ///// 10073 20024 49755 57026 22200
BBXX 62113 03064 99584 10002 47597 /2441 10073 20022 49751 57030 700// 22200
BBXX ZQSD5 03064 99583 10007 46/// /2441 10078 20016 49739 57032 22200 10913 70064
BBXX 62114 03064 99583 10000 46/// /2445 10075 20026 49715 57040 22200
BBXX 62134 03064 99580 10014 47697 /2433 10080 20025 49766 57027 700// 22200 10810 70049
BBXX 62102 03064 99579 10018 46/// /2532 10083 20014 49771 57019 22200 10709 70045
BBXX 62117 03064 99579 10000 47996 /2542 10079 20019 49754 57032 704// 22200 10709 70047
BBXX 62143 03064 99577 10018 47697 /2632 10088 20015 49802 55011 700// 22200 10709 70044
BBXX 62118 03064 99577 10009 47997 /2436 10093 20014 49769 57029 700// 22200 10709 70043
BBXX 62155 03064 99577 10007 47997 /2642 10086 20008 49794 56022 751// 22200 10709 70046
BBXX 62116 03064 99576 10011 47697 /2536 10084 20011 49776 57023 700// 22200 10709 70045
BBXX 62104 03064 99574 10013 47598 /2628 10091 20024 49792 57014 700// 22200
BBXX 62153 03064 99573 10020 47698 /2521 10087 20030 49800 57011 700// 22200 10810 70049
BBXX 62122 03064 99573 10016 47798 /2431 10089 20019 49815 57013 700// 22200 10709 70044
BBXX 62140 03064 99573 10013 46/// /26// 10087 20022 49792 58011 22200
BBXX 62027 03064 99491 70022 46/// /2626 1//// 2//// 40098 57024 22200 00132 10706 332// 70031
BBXX MYSU5 03064 99495 70088 41/97 81536 10130 20111 40114 54000 78082 8//// 22263 00150 20810 326// 41008 5//// 80120
BBXX PHBO 03063 99485 70159 41/97 /2831 10134 20107 40190 56020 75185 8//// 22224 21207 80120
BBXX 62163 03064 99475 70084 46/// /2721 10130 20104 40176 56011 22200 00139 10809 70047 333 90710 91129
BBXX 63110 03063 99595 10015 41/96 /2350 10073 20032 49656 78186 8//// 22200 11012 70060
BBXX UAST 03061 99691 10351 41/// /2013 10020 49730 54000 7//// 8//// 222// 20505
BBXX 64045 03064 99591 70117 46/// /2934 10073 21006 49858 51025 22200 00102 11018 70090 333 90710 91148
BBXX 62081 03064 99510 70174 46/// ///// 10128 20113 40098 56004 22200 00122 10912 70058
BBXX 62170 03064 99514 10020 46/96 /2344 10124 20112 40008 56031 22200 00130 10705 70024 333 90710 91154
BBXX 62304 03064 99511 10018 46/97 /2543 10128 20105 40019 56028 22200 00129 10706 70028 333 90710 91159
BBXX 62305 03064 99504 10000 46/95 /2437 10131 20117 40019 57062 22200 00139 10806 70030 333 90710 91152
BBXX 63118 03063 99591 10016 41597 62451 10076 20040 49688 57072 760// 8/8// 22200 10812 70060
AAXX 03061 29998 42799 80000 11174 21208 38611 48470 58010 85572
AAXX 03061 30385 42999 60000 11170 21196 39734 40300 57008 83031
AAXX 03061 30469 41999 10000 11141 21184 39501 40295 58004 70171 80001
AAXX 03061 30636 42998 00000 11198 21210 39670 40324 52011
AAXX 03061 30650 42999 80000 11193 21219 39136 40330 57003 8801/
AAXX 03061 30664 41999 20000 11142 21177 39256 40291 58004 70171 81041
AAXX 03061 30781 42999 80000 11185 21218 39814 40317 58007 80008
AAXX 03061 30777 41998 32401 11177 21219 39611 40306 52001 70171 80002
AAXX 03061 30844 42999 00000 11146 21189 39292 40319 58010
AAXX 03061 30925 42999 21501 11133 21168 39303 40321 51000 80001
AAXX 03061 31371 42999 80000 11207 21247 30023 40310 57015 82057
AAXX 03061 31388 42999 80000 11165 21199 39996 40275 58022 80007
AAXX 03061 31478 NIL
AAXX 03061 31532 42999 80000 11231 21255 39915 40290 57031 80007
AAXX 03061 31594 42999 82301 11127 21170 30061 40240 56020 8801/
AAXX 03061 31655 42998 70000 11112 21156 30191 40240 57026 86051
AAXX 03061 31754 42999 50000 11103 21176 39713 40232 57019 80001
AAXX 03061 22282 11/93 92115 11012 21017 39861 49869 57020 60010 73932 333 21022 91120
AAXX 03061 28216 32699 82702 11066 21090 39926 40217 57005 885// 333 21078
AAXX 03061 28428 11496 82502 11062 21070 30057 40249 54000 69920 77172 8802/ 333 21093
AAXX 03061 28451 31998 83305 11055 21086 30029 40192 52009 73632 8807/ 333 21100
AAXX 03061 28541 31583 72704 11074 21104 39714 40223 52008 73683 85532 333 21082
AAXX 03061 28655 11196 82804 11070 21082 39985 40215 53005 69900 77171 87010 333 21126
AAXX 03061 28756 11998 52203 11108 21119 30069 40224 51005 69940 72272 85070 333 21196
AAXX 03061 29557 41698 72502 11055 21097 39953 40225 58004 70282 82550
AAXX 03061 29625 41598 32101 11130 21143 30037 40225 58002 70281 82501
AAXX 03061 29813 41499 62103 11106 21112 30029 40216 58003 72682 82932
AAXX 03061 29822 41997 82304 11086 21097 30071 40240 52001 70272 8801/
AAXX 03061 29915 41498 62202 11072 21081 30074 40236 58003 72682 83932
AAXX 03061 36020 41496 72103 11076 21082 30053 40260 52002 78582 87900
AAXX 03061 38388 32998 51404 10010 21032 30197 40270 53003 85030 333 21048
AAXX 03061 38392 32998 21204 10004 21024 30183 40290 53006 80002 333 21070
AAXX 03061 38507 32698 60000 10050 20012 30139 40244 53008 83530 333 20027
AAXX 03061 38511 32998 70000 10022 20006 30103 40248 57002 87030 333 21023
AAXX 03061 38545 31998 01002 10021 21026 30111 40291 58007 70240 333 21054
AAXX 03061 38647 32295 80904 10016 20013 30186 40229 52011 886// 333 20004
AAXX 03061 38656 32998 00905 10036 21002 30145 40257 53002 333 21003
AAXX 03061 38687 31497 50903 10034 20029 30052 40293 57003 70342 85700 333 20006 85711
AAXX 03061 38750 NIL
AAXX 03061 38763 31/92 91202 10008 20008 30128 40237 53014 74742 333 21010
AAXX 03061 38774 31/93 91402 10018 20018 30057 40258 52008 74544 333 20010
AAXX 03061 38799 32597 70901 10026 20016 30050 40288 57002 87500 333 21010
AAXX 03061 38806 32997 03602 10044 20029 30019 40285 57005 333 21006
AAXX 03061 38880 31/91 91202 10014 20006 39983 40245 53002 74541 333 21004
AAXX 03061 38886 32997 01104 10071 20017 30019 40249 57008 333 20010
AAXX 03061 38895 31496 81103 10044 20024 39983 40279 57005 70242 8871/ 333 20004
AAXX 03061 38911 31697 73503 10046 21011 39970 40271 57011 70242 82570 333 20005
AAXX 03061 38915 32598 72801 10062 20038 39942 40270 57008 87500 333 20041
AAXX 03061 38974 32998 61402 10058 20024 39913 40252 57010 86070 333 20026
AAXX 03061 38987 31596 83001 10037 20022 39507 40265 58005 70242 885// 333 20021
AAXX 03061 23914 11498 81803 11095 21102 39925 40194 57014 69950 77172 8872/ 333 21122
AAXX 03061 23921 32974 30000 11223 21242 30046 40176 53003 81041 333 21225
AAXX 03061 23955 41497 81001 11247 21265 30131 40199 52004 77172 886// 333 84710 84640
AAXX 03061 23966 41999 80000 11195 21214 30052 40187 58004 70272 80007
AAXX 03061 28138 11596 82301 11118 21131 39620 40217 52001 69900 78582 83341 333 21113
AAXX 03061 28224 12597 82502 11059 21074 30002 40222 54000 69900 8452/ 333 21080
AAXX 03061 28255 32999 23202 11122 21134 30041 40176 52008 80070 333 21141
AAXX 03061 28440 31599 83004 11074 21100 39849 40211 52009 78582 889// 333 21071
AAXX 03061 28645 31467 72701 11074 21091 39923 40229 53005 78581 87300 333 21131
AAXX 03061 28661 11997 62103 11092 21100 30100 40196 52003 69900 72271 84031 333 21160
AAXX 03061 28722 11596 81801 11103 21108 30031 40168 52007 69920 78582 889// 333 21160
AAXX 03061 28748 32960 12703 11125 21138 39996 40250 52007 81040 333 21161
AAXX 03061 28838 32997 00000 11197 21216 39771 40292 52009 333 21236
AAXX 03061 29231 41597 80000 11173 21185 30100 40204 52006 77172 8653/
AAXX 03061 29313 41996 82501 11220 21233 30074 40207 52004 77171 8802/
AAXX 03061 29612 41596 81603 11123 21136 30045 40204 57003 78581 8631/
AAXX 03061 29638 41570 72002 11097 21123 30061 40233 52012 78582 86901
AAXX 03061 29838 41596 72103 11069 21090 30010 40250 52005 77172 86532
AAXX 03061 29846 41597 81702 11069 21085 39858 40254 51001 72287 8597/
AAXX 03061 36061 41998 40000 11106 21142 39852 40277 58006 70281 80001
AAXX 03061 23909 11397 82305 11075 21081 39921 40176 57017 69900 70272 886// 333 21131
AAXX 03061 28044 32999 02601 11150 21166 30011 40185 52008 333 21152
AAXX 03061 28116 11598 81802 11068 21084 39966 40206 57007 69900 70272 885// 333 21085
AAXX 03061 28240 11598 82804 11087 21113 39865 40201 53002 69900 73632 82509 333 21078
AAXX 03061 28522 11996 82303 11070 21078 39978 40246 58004 69950 77172 8802/ 333 21074
AAXX 03061 28621 31996 82001 11078 21084 30010 40252 52004 77172 8807/ 333 21089
AAXX 03061 29023 41997 80000 11213 21229 30096 40201 52002 77172 8801/
AAXX 03061 29122 41496 70000 11212 21231 30123 40202 51004 78581 84302 333 84918
AAXX 03061 29328 41497 82202 11152 21167 30061 40209 52005 78582 84901
AAXX 03061 29348 41596 72402 11095 21107 30058 40208 53006 78582 82906
AAXX 03061 29405 41597 80000 11164 21177 30038 40194 57002 70281 85330
AAXX 03061 29418 41597 81202 11158 21177 30037 40206 58003 78581 8597/
AAXX 03061 29430 41498 82501 11096 21108 30035 40217 52006 77172 85531
AAXX 03061 29524 41997 81301 11153 21166 30041 40214 54000 77172 80007
AAXX 03061 29605 41496 82103 11116 21122 30041 40189 57001 77187 8872/
AAXX 03061 29631 41997 32302 11113 21126 30035 40230 52007 70181 80002
AAXX 03061 29645 41596 81603 11061 21080 30035 40226 52002 78582 8697/ 333 86922
AAXX 03061 29706 41997 82405 11127 21140 30062 40216 57003 77172 8802/
AAXX 03061 29736 41497 82503 11067 21091 39979 40235 52010 78582 883//
AAXX 03061 29937 41596 82203 11073 21094 30033 40261 54000 78582 889//
AAXX 03061 36034 41598 82203 11109 21122 39989 40278 54000 72272 86505 333 86626
AAXX 03061 36096 41997 70901 11186 21219 39524 40359 58005 77172 80005 333 95000
AAXX 03064 41254 36/// /2808 10191 21174 38241 48246 333 0E006 20096 59003
AAXX 03064 41255 36/// /1502 10244 20112 39633 40179 333 0E021 20156 59002
BBXX 41115 03061 99184 70673 46/// ///// 1//// 90605 22200 10801 20801 70007
BBXX 41114 03061 99276 70802 46/// ///// 1//// 90616 22200 00226 10704 20703 307// 41101 70018
BBXX 42363 03061 99282 70892 46/// /1113 10206 20111 40271 90615 333 91215
BBXX 42364 03061 99291 70881 46/// /1207 10194 20106 40278 90615
BBXX 46114 03061 99364 71222 46/// ///// 1//// 90604 22200 00125 11707 21005 329// 41705 70037
AAXX 03064 67767 NIL
AAXX 03064 67843 12980 60906 10246 20171 38953 48513 69904 83088 333 20185 59006 83359 85280
AAXX 03064 67969 12980 70802 10252 20184 38/// 48/// 69904 8703/ 333 20234 5//// 87360
BBXX 44098 03061 99428 70702 46/// ///// 1//// 90607 22200 00099 11003 21003 312// 41101 70014
BBXX 44039 03061 99411 70727 46/// /3608 10067 20006 40338 52017 90600 22200 00115 10301 70006 333 91212
BBXX 44060 03061 99413 70721 46/// ///06 10051 40330 90615 22200 00119 333 91209 555 11067 22072
BBXX 44022 03061 99409 70737 46/// ///03 10059 21009 40340 90615 22200 00106 333 91204 555 11031 22031
BBXX 51203 03061 99208 71570 46/// ///// 1//// 90613 22200 00253 11402 20901 323// 41402 70010
BBXX 52200 03061 99134 11448 46/// ///// 1//// 90615 22200 00288 11105 20804 308// 41102 70023
BBXX 51201 03061 99217 71581 46/// ///// 1//// 90612 22200 00249 11305 21004 333// 41304 70027
BBXX 46088 03061 99483 71232 46/// /0902 10065 40334 90620 22200 00086 1//00 70002 333 91202 555 11016 22017 30545 41303 60619 089017 109021 106024 122025 120019 125016
AAXX 03061 33466 31357 82104 10015 20001 30000 40191 53001 71011 8672/ 333 21004 86710
BBXX SHIP 03064 99228 11352 41798 61512 10290 20264 40100 56019 70222 86342 22273 00260 20202 315// 40202 80270
BBXX DDYL2 03063 99325 11266 41598 62940 10154 20085 40138 57010 71522 862// 22231 00210 20710 80116
BBXX SHIP 03064 99250 11624 41/// 40213 10264 40164 52009 700// 83241 22263 00263 20500 322// 40500
BBXX SHIP 03064 99309 11342 41597 82717 10210 20164 40056 55/// 70322 86477 22283 00240 20605 327// 40605 80180
BBXX SHIP 03063 99200 11319 41/98 41717 10300 20267 40137 57015 70311 82131 22283 00270 20201 313// 40404 80275
BBXX 3FBC9 03064 99322 11548 41/96 /0930 10190 40165 56003 75122 8//// 9//// 22222 00230 20408 308// 40510 5//// 6//// 80170
BBXX 3EDA4 03063 99291 11370 41093 70730 10232 20218 40089 70466 22265 00242 20402 30707 40502 50502 80222
BBXX SHIP 03064 99295 11456 41697 72018 10240 20225 40119 57001 70222 82461 22233 04229 20402 30308 40804 50704
BBXX SHIP 03064 99295 11456 41697 72018 10240 20225 40119 57001 70222 82461 22233 04229 20402 30308 40804 50704
BBXX ZCBV4 03064 99236 11220 41297 80230 10200 20185 40166 70222 83717 22243 00250 20405 336// 40406 5//// 80190=40
BBXX SHIP 03064 99405 71605 41/96 80702 10140 20140 40077 56002 70302 88/// 90555 22224 00150 2//// 3//// 4//// 5//// 80140
BBXX SHIP 03064 99311 71799 41596 73324 10220 20191 40113 51009 75022 8//// 90600 22264 00220 2//// 3//// 4//// 80200
AAXX 03061 38725 42999 00000 10003 21156 48520 58006
BBXX SHIP 03064 99085 30997 41697 80731 10206 20244 40052 57015 76011 84520 22263 00279 10904 20302 33302 40605 50603 80250
BBXX SHIP 03064 99085 30997 41697 80731 10206 20244 40052 57015 76011 84520 22263 00279 10904 20302 33302 40605 50603 80250
BBXX 9V8797 03064 99190 10400 43/98 43105 10264 40158 56003 22234 00285 2//// 4////
BBXX WDF6832 03063 99145 10546 41898 20113 10240 2023/ 40170 51020 7//00 82189 22264 00240 20201 30000 40202 50202 6//// 80230 ICE /////
BBXX 3FMV6 03063 99318 30360 41298 72037 10210 20160 40076 51010 70222 87778 22253 06230 20208 80280
BBXX ONFE 03064 99238 10637 41898 53107 10280 2024/ 40160 54000 70122 83299 22224 00270 2//// 3//// 4//// 5//// 6//// 80250 ICE /////
BBXX WAHP 03064 99249 10589 41998 02705 10270 20205 40210 51020 70200 80000 22224 00268 20201 325// 40402 5//// 6//// 80225 ICE /////
BBXX LGWS 03061 99270 70134 43/// /0407 10163 20135 40221 5//// 222/0 04173 1//// 3//// 4//// 5////
BBXX PHOB 03064 99248 10580 41598 13212 10270 20198 40155 50011 70200 81100 22235 00250 20802 3//// 4//// 5//// 80220
BBXX A8RL3 03061 99346 30245 41/97 62008 10192 20169 40200 54000 70222 8/8// 22223 29903 3//// 4//// 5//// 80178
BBXX UCKZ 03061 99201 30062 42598 81413 10189 20146 40164 53009 888// 22233 00193 20606
BBXX PHQW 03063 99192 70300 41/97 /1205 10231 20188 40150 57021 760// 8//// 22233 00246 2//// 80202 59999
BBXX ZMFR 03064 99517 31736 43/// /05// 10080 20074 40107 57027 22242 00083
BBXX ZMENA 03064 99436 31727 46/// ///// 10192 20123 40093 57017 22252
BBXX 3EAT6 03063 99340 31726 41298 80615 10205 20189 40169 57010 70322 8/6// 22213 00180 303// 40302
BBXX PBDH 03064 99058 10813 41598 51506 10300 20231 40092 58010 70522 83243 22264 04280 20201 318// 40402 80250
BBXX DGZL 03063 99052 11066 41397 80517 10290 20239 40095 58005 70222 887// 22254 00270 20504 306// 40704 80253
BBXX SHIP 03064 99307 11719 41497 80220 10200 20153 40150 54000 7//22 8872/ 22213 00230 21004 306// 4//// 50903 6//// 80170 ICE /////
BBXX A8UT8 03064 99249 11225 41/97 /0133 10200 20109 40080 54000 70300 8//// 22283 20408 302// 40608 80150
BBXX DDYZ2 03064 99059 10894 41699 22818 10280 20239 40090 51010 7//// 82114 22214 04290 20506 80250
BBXX DGZT2 03063 99354 11210 41/96 /3417 10070 20001 40230 56015 71200 8/678 22233 04150 21403 80040
BBXX PHKL 03061 99250 11197 41597 30414 10180 20112 40177 56032 70300 83100 22255 00190 20306 307// 40707 5//// 80140
BBXX ZMFR 03064 99517 31736 43/// /05// 10080 20074 40107 57027 22242 00083
BBXX ZMENA 03064 99436 31727 46/// ///// 10192 20123 40093 57017 22252
BBXX 3EAT6 03063 99340 31726 41298 80615 10205 20189 40169 57010 70322 8/6// 22213 00180 303// 40302
AAXX 03064 93800 16/// /0315 10116 20110 40072 52034 60131
AAXX 03064 93805 16/// /3337 10132 20102 40003 57013 69941
AAXX 03064 93994 16/// /1110 10213 20187 40172 52002 60001
AAXX 03064 65028 12960 70404 10130 20020 39586 40177 60001 80008 333 20130 58001 87280
AAXX 03064 65112 32970 72804 10185 20078 3//// 4//// 80008 333 20185 5//// 87280
AAXX 03064 65123 12960 70815 10215 20067 30083 40112 60001 80008 333 20186 59004 87280
AAXX 03064 65125 31960 70905 10175 20050 30731 40135 70522 80008 333 20132 58004 87280
AAXX 03064 65201 31956 73303 10225 20221 30756 40131 71022 80008 333 20225 56000 58004 87280 91105
AAXX 03064 65208 31440 70706 10218 20202 39864 40130 71022 83508 333 20213 58005 83610 87280
AAXX 03064 65213 11350 73605 10193 20170 3//// 4//// 60001 70522 875// 333 20186 5//// 87607
AAXX 03064 65215 12935 70000 10135 20126 3//// 4//// 69991 70522 80008 333 20132 5//// 87280
AAXX 03064 65243 32950 40000 10155 20133 3//// 4//// 80008 333 20145 5//// 84280
BBXX C6YA5 03064 99427 50728 41/96 80320 10144 2//// 40090 56020 78088 884// 22283 00130 20401 3//// 4//// 5//// 6//// 8//// ICE /////
BBXX OXBB2 03061 99005 50813 41797 60106 10220 20175 40120 57/// 70311 86770 22284 00230 20101 80190
BBXX DFCX2 03060 99302 50771 41997 33204 10185 20148 40180 54000 70011 80004 22274 06160 20100
BBXX DDSB2 03063 99284 50729 41/97 81815 10145 20091 40165 58005 70222 8//// 22244 20203 80115
BBXX DFFA2 03063 99150 50758 41/97 21712 10200 20177 40130 58010 70300 8///7 22235 00180 2//// 3//// 4//// 5//// 80185
AAXX 03061 21432 41996 81809 11285 21308 30104 40125 57018 77073 8802/
AAXX 03061 21824 41993 82012 11231 21236 30114 40123 57016 73932 84032 333 91119
AAXX 03061 21908 42999 51801 11148 21168 30118 40201 58001 85010
AAXX 03061 21921 NIL
AAXX 03061 21931 42998 82004 11328 21364 30132 40167 57015 83031
AAXX 03061 21946 42999 22203 11398 21421 30157 40248 53001 82030
AAXX 03061 21982 11596 80301 11179 21198 30247 40276 53019 69902 73173 8657/ 333 11177 91107
AAXX 03061 25062 32999 32202 11357 21393 30283 40287 52007 80001 333 11347 91104
AAXX 03061 25123 42996 81401 11371 21401 30246 40283 53004 85031
AAXX 03061 25138 42999 30000 11406 21432 30154 40296 52005 81031 333 91102
AAXX 03061 25173 32999 00000 11290 21307 30284 40289 52013 333 11250 91102
AAXX 03061 25248 42698 51201 11428 21455 39798 40324 53010 85500 333 91101
AAXX 03061 25282 31984 03004 11260 21271 30271 40278 52023 70231 333 11202 91108
AAXX 03061 25325 NIL
AAXX 03061 25356 32999 63402 11361 21397 30168 40282 52011 80001 333 11/// 91004
AAXX 03061 25399 11674 20302 11162 21188 30242 40252 52020 69900 70281 81501 333 1//// 91104
AAXX 03061 25428 41924 60000 11426 21455 39916 40306 53003 71022 80001 333 91100
AAXX 03061 25551 32998 63901 11389 21417 30227 40263 52010 80001 333 11/// 91102
AAXX 03061 25563 32984 60205 11264 21288 30159 40245 53008 80001 333 11251 91108
AAXX 03061 25594 31598 30109 11150 21163 30162 40216 52005 73630 82501 333 11148 91114
AAXX 03061 25677 11591 83414 11166 21172 30167 40173 53003 60022 78683 883// 333 11173 88922 91117
AAXX 03061 31054 41999 60000 11323 21352 30011 40316 57010 70272 86020
AAXX 03061 31123 42999 62001 11261 21300 39970 40328 58015 80001
BBXX 44255 03061 99473 70573 46/// /0106 10029 40263 52008 22200 00051 11104 70020 333 91208
BBXX C6YZ5 03064 99181 70638 41598 40317 10260 2//// 40100 54/// 7//22 841// 22263 00290 20102 303// 4//// 5//// 6//// 8//// ICE /////
BBXX SJCD 03061 99226 70607 43/98 71506 10253 40153 58014 22254 00258
BBXX 44150 03061 99425 70640 46/// /0003 10068 40276 57004 22200 00107 11104 70020 333 91205
BBXX 44139 03061 99442 70571 46/// /3608 10060 40265 52001 22200 00073 11205 70025 333 91210
BBXX 41038 03061 99341 70777 46/// /3404 10140 40306 54000 90600 22200 00160 333 91204
BBXX 41037 03061 99340 70775 46/// /0104 10149 40269 54000 90600 22200 00168 333 91205
BBXX WKAP 03063 99243 70832 41398 60315 10210 2015/ 40240 58010 7//22 86800 22274 00270 20503 3//// 4//// 5//// 6//// 80170 ICE /////
BBXX WNBE 03064 99222 71592 41398 60722 10240 2//// 40180 52020 78165 8626/ 22233 0//// 20502 335// 42004 5//// 6//// 8//// ICE /////
BBXX J8PR3 03063 99109 70611 41197 70513 10290 2028/ 40100 55010 70266 87977 22222 00300 20402 30505 40402 50402 6//// 80280 ICE /////
BBXX SHIP 03064 99411 71769 41498 92623 10100 20061 40091 51009 70122 86360 90600 22223 00150 2//// 3//// 4//// 80080
BBXX J8PB 03064 99182 70651 41698 60713 10250 20222 40140 54000 7//11 86485 22232 0//// 20302 30709 40302 50302 6////
BBXX WZJC 03064 99200 70710 41498 30406 10256 2021/ 40151 58008 78081 839// 22273 00272 2//// 3//// 4//// 5//// 6//// 80222 ICE /////
BBXX A8UE5 03064 99544 71686 41497 81529 10055 20043 49870 56050 75122 888// 22265 04040 20908 3//// 41209 5//// 80050
BBXX WECH 03064 99380 71427 43/97 11019 10156 2013/ 40370 52020 7//// 80//9 22235 00161 2//// 3//// 4//// 5//// 6//// 80144 ICE /////
BBXX DFTH2 03064 99230 71374 41598 62919 10200 20130 40230 52030 703// 8/8// 22263 00220 20806 305// 40905 5////
BBXX WKAW 03064 99433 70579 41598 73618 10060 2004/ 40240 52010 7//22 8742/ 22255 00060 20604 336// 4//// 5//// 6//// 80050 ICE /////
BBXX FLAO 0306/ 99764 70847 46/// ///// 11318 40048 52014
BBXX MZDL7 03063 99208 71143 41397 10117 10211 20177 40168 53010 70111 81100 22273 00250 20201 333// 40503 5//// 80190
BBXX WDB3161 03064 99448 71355 41698 31911 10090 2006/ 40411 54000 7//11 8381/ 22234 00115 20202 328// 41004 5//// 6//// 80075 ICE /////
BBXX WGJT 03064 99190 70667 41598 10216 10250 2021/ 40141 5//// 70200 811// 22274 00267 20201 308// 40602 5//// 6//// 80222 ICE /////
BBXX 9HA2583 03064 99259 70667 41497 32107 1//// 2//// 40170 51/// 7//22 83444 22244 0//// 2//// 3//// 4//// 5//// 6//// 8//// ICE /////
BBXX WDF2728 03064 99261 70800 41798 40520 10211 2012/ 40240 54/// 7//00 82182 22200 0//// 20302 305// 40703 5//// 6//// 80156 ICE /////
BBXX WDD6126 03064 99281 70796 41698 40530 10220 2014/ 40247 51007 70200 84840 22284 00253 20305 305// 40303 5//// 6//// 80170 ICE /////
BBXX PDNN 03063 99344 70517 41/98 /1622 10210 20180 40230 57020 70186 8//// 22263 02217 20404 80190 99902
BBXX 44022 03061 99409 70737 46/// ///04 10059 21008 40339 51018 90600 22200 00106 333 91205 555 11036 22041
BBXX 44060 03061 99413 70721 46/// ///08 10053 40326 51020 90600 22200 00118 333 91209 555 11082 22088
BBXX 46083 03061 99582 71380 46/// /2808 10059 20057 40260 51004 90550 22200 00067 11109 20604 300// 41108 70045 333 91210 555 11085 22090 30519 42911 60549 283080 283088 284083 280086 278085 277079 82909 90533
BBXX 42363 03061 99282 70892 46/// /1113 10206 20111 40271 58004 90600 333 91213
BBXX 42364 03061 99291 70881 46/// /1209 10194 20106 40278 58007 90600
BBXX 46214 03061 99379 71235 46/// ///// 1//// 90600 22200 00119 11009 21007 332// 41205 70045
AAXX 03064 61600 NIL
AAXX 03064 61612 NIL
AAXX 03064 61627 NIL
AAXX 03064 61630 NIL
AAXX 03064 61641 32957 30206 10225 20210 30090 80003 333 02100 20223 55069 58003 83073
AAXX 03064 61666 NIL
AAXX 03064 61679 NIL
AAXX 03064 61687 NIL
AAXX 03064 61695 NIL
AAXX 03064 61697 NIL
AAXX 03064 61698 NIL
AAXX 03064 61699 NIL
AAXX 03061 63330 31270 11303 10139 20107 37808 40281 7100/ 81500 333 20090 58007 81604
AAXX 03061 63331 31970 00000 10200 20084 38062 40244 7050/ 333 20090 59006
AAXX 03061 63332 32980 01802 10158 20068 38229 40150 333 20027 58017
AAXX 03061 63333 32580 30000 10174 20133 38179 40190 83100 333 20110 59007 83824
AAXX 03061 63334 32980 01202 10172 20064 37636 40112 333 20080 59005
AAXX 03061 63340 31965 00201 10160 20078 37948 40171 7050/ 333 20095 59011
AAXX 03061 63402 NIL
AAXX 03061 63403 31060 41102 10160 20125 7052/ 81630 333 20123 81700 84360
AAXX 03061 63450 NIL
AAXX 03061 63451 31570 30000 10164 20122 38152 40129 70500 83830 333 20076 58004 82625 81826 81358
AAXX 03061 63453 31575 32901 10224 2//// 39085 7052/ 82530 333 20170 59004 82624 81359
AAXX 03061 63460 NIL
AAXX 03061 63471 31550 60000 10234 20140 38875 40136 705// 83130 333 20160 59007 83827 84357
AAXX 03061 63474 11870 80000 10122 20103 69904 7102/ 8802/ 333 20082 88457
AAXX 03061 63478 31965 00903 10238 20195 39808 40187 7050/ 333 20198 59022
AAXX 03061 63500 12580 60000 10226 20188 60034 85850 333 20180 83820 82626 84359
AAXX 03061 63533 NIL
BBXX 41041 03061 99142 70460 46/// /0907 10267 20226 40115 56020 90550 22200 00266 10804 20602 3//// 40803 70019 333 91209 555 11075 22080 30525 40909 60549 090070 090073 090075 091072 089072 091070 80908 90515
BBXX WXJ63 03063 99611 71464 41/94 83304 10006 20002 40240 52/// 710// 8//// 222// 0//// 2//// 3//// 4//// 5//// 6//// 8//// ICE /////
BBXX NWS0029 03064 99233 70382 43/// /0807 10232 20166 40169 5//// 7//// 8//// 222// 04260 2//// 3//// 4//// 5//// 6//// 8//// ICE /////
BBXX C6XP7 03063 99262 70789 41398 40723 10240 20211 40230 54/// 7//11 824// 22265 00210 20203 305// 4//// 5//// 6//// 80220 ICE
BBXX NWS0003 03064 99619 71705 43/// /0726 11084 21100 40112 5//// 7//// 8//// 222// 05010 2//// 3//// 4//// 5//// 6//// 8//// ICE /////
BBXX A8KX4 03064 99238 71133 41698 13310 10195 20114 40150 50/// 70300 8/1// 22234 04226 2//// 80150
BBXX SKUN 03063 99465 70461 43/04 93119 10062 40183 51018 22253 00060 2//// 4////
BBXX C6KD8 03063 99255 70558 41/// 81417 10245 20207 40179 51002 72588 89/// 22214 02260 20502 314// 41105 5//// 80220
BBXX OWFD2 03060 99209 70550 41/97 ///// 10250 20222 40150 54000 700// 8//// 22224 04270 2//// 80230
BBXX PJFF 03064 99313 70567 41/98 33515 10230 20202 40200 54000 70200 8//// 22214 04210 20201 332// 40804 80211
BBXX DGBE 03063 99538 71610 41/96 81634 10058 20050 40130 57037 70244 8//// 22264 00050 2//// 80054
BBXX A8KW3 03063 99401 71757 41/98 83232 10110 20090 40154 58010 703// 8//// 22224 04190 299// 3//// 4//// 5//// 80100
BBXX PCEO 03064 99399 70527 41/97 82811 10180 20141 40183 55008 75865 8//// 22224 04212 21004 314// 40602 80156
BBXX OZDQ2 03060 99315 71678 41/98 8//// 10208 20156 40150 57005 7//// 8//// 22264 00230 2//// 80175
BBXX DGDD 03061 99308 71292 41/98 10112 10165 20141 40225 52015 70200 81/// 22264 00180 2//// 3//// 4//// 5//// 80150
BBXX A8JS7 03063 99236 71128 41598 53410 10202 20124 40162 54000 702// 84130 22234 04240 2//// 334// 40801 5//// 80158
BBXX 46207 03061 99509 71299 46/// /3009 10084 40368 57007 22200 00089 11105 70024 333 91211
BBXX 9VVP 03064 99322 71402 41597 20110 10190 20159 40295 51015 70100 8269/ 22234 00210 20702 30809 40504 5//// 6//// 80170 ICE /////
BBXX A8EY7 03064 99490 71469 41/97 82017 10090 20071 40350 58020 758// 8//// 22273 2//04 3//// 4//// 5//// 80080
BBXX A8JE6 03064 99365 71392 41/97 50913 10145 20137 40318 55187 70000 8/61/ 22224 29901 310// 40603 5//// 80140
AAXX 03064 48001 32556 31301 10200 20168 40115 82510 333 56390 59023
AAXX 03064 48004 32562 50401 10224 20173 85900 333 56500
AAXX 03064 48008 32557 70000 10235 20143 40108 84970 333 56180 59027
AAXX 03064 48010 32560 60000 10235 20209 40102 85530 333 56560 59030
AAXX 03064 48018 32360 31401 10264 20203 40100 83800 333 56900 59031
AAXX 03064 48019 32460 20401 10250 20167 40107 80030 333 56090 59029
AAXX 03064 48020 32462 20401 10255 20169 82100 333 56500
AAXX 03064 48025 32458 30401 10270 20191 40101 83800 333 56700 59046
AAXX 03064 48035 31560 50000 10238 20155 40076 70544 83960 333 56590 59040
AAXX 03064 48037 32564 23201 10272 20191 40098 81130 333 56660 59026
AAXX 03064 48042 32558 42701 10285 20196 40101 82850 333 56990 59016
AAXX 03064 48045 32558 60000 10218 20173 86600 333 56500
AAXX 03064 48048 32560 30901 10280 20203 40095 83800 333 56400 59030
AAXX 03064 48053 32556 63601 10270 20191 40100 83550 333 56560 59015
AAXX 03064 48057 32460 52201 10224 20087 84830 333 56590
AAXX 03064 48060 31320 70000 10185 20159 40121 71052 84970 333 56560 59001
AAXX 03064 48062 31457 72701 10260 20220 40100 70522 85970 333 56590 59017
AAXX 03064 48071 32560 40504 10280 20220 40106 83530 333 56990 59015
AAXX 03064 48077 32560 20401 10310 20203 40101 82200 333 56900 59020
AAXX 03064 48078 32556 40402 10308 20237 40090 82231 333 56669 59021
AAXX 03064 48080 32561 21301 10315 20225 40082 81870 333 56990 59012
AAXX 03064 48094 32562 30401 10310 20250 40078 83800 333 56900 59023
AAXX 03064 48097 32457 61303 10325 20200 40094 86800 333 56900 59016
AAXX 03064 48108 31596 30501 10330 20234 40085 70522 81105 333 56209 59021
AAXX 03064 48109 32496 60401 10314 20267 40083 82536 333 56599 59017
AAXX 03064 48110 31996 50903 10315 20201 40081 70522 80056 333 56099 59021
AAXX 03064 48112 NIL
AAXX 03061 10004 46/60 /2020 10083 20068 39941 49941 56061 222// 00104 333 10098 20060 55020 55300 91126 91221 55
BBXX NWS0009 03064 99120 71733 43/// /1115 10269 20243 40091 5//// 7//// 8//// 222// 04273 2//// 3//// 4//// 5//// 6//// 8//// ICE /////
BBXX DILE 03063 99085 70844 41997 02410 10265 20237 40110 57005 70200 80000 22294 04270 2//// 80245
BBXX A8KC6 03064 99086 71422 41597 50719 10270 20241 40120 54000 70322 85793 22254 04280 20503 307// 40503 5//// 80250 46379 1738031222
AAXX 03064 60353 11565 61806 10134 20095 40184 53006 60004 700// 82272 333 00700 20130 82820 85359 91807 95900
AAXX 03064 04203 46/// /1012 11129 21165 39962 49980 52026
AAXX 03064 04205 45/84 /0000 11225 21313 39973 49997 52029 333 11213 21244
AAXX 03064 04208 46/// /0204 11127 21163 39952 49998 52015
AAXX 03064 04213 46/// /2510 11107 21170 39883 49996 52017 333 11090 21129
AAXX 03064 04214 46/// /0412 11095 21161 39961 49994 52020
AAXX 03064 04224 45/84 /3107 11046 21139 39951 49984 52016 333 11032 21052
AAXX 03064 04228 NIL
AAXX 03064 04242 46/// /0209 11040 21058 39980 49996 52015
AAXX 03064 04253 46/// /2912 11026 21040 30003 40030 52014
AAXX 03064 04266 46/// /2910 11016 21051 30025 40064 52009 333 91022
AAXX 03064 04285 46/// /2920 11017 21066 30047 40066 52009
AAXX 03064 04301 46/// /2623 11262 21305 30026 40031 52009
AAXX 03064 04313 46/// /3640 11191 21229 39881 49893 57018 333 91052
AAXX 03064 04330 46/// /3409 11205 21278 39926 49944 52005
AAXX 03064 04351 46/// /3601 11134 21229 39898 49914 52004
AAXX 03064 04373 46/// /3140 11064 21174 39827 49921 52003
AAXX 03064 04382 46/// /3038 11017 21144 39921 49970 52009
AAXX 03064 04416 46/// ///// 11600 21615 36445 52004
AAXX 03064 13600 12965 00000 10054 20031 30197 40251 54002 60002 333 20030 31///
AAXX 03061 60373 36/// /0301 10123 20122 333 20113
AAXX 03061 60623 36/// /0000 10118 21089 333 20118
AAXX 03061 60393 36/// /0000 10125 20099 333 20125
AAXX 03064 13610 11/00 90000 11004 21031 39830 40273 52012 60002 74522 333 21010 30///
BBXX VNSZ 03064 99412 31464 46/// /2518 10159 20017 30079 40105 57004 22200 04158 85090
BBXX VRDU8 03063 99180 31089 41698 11810 10265 20179 40116 57010 70200 8/1// 22284 04250 20402 80210
BBXX C6FS9 03064 99239 31516 46/// /1227 10241 20182 30087 40123 57017 22200 04262 85201
BBXX 9HA2479 03064 99335 31526 46/// /0606 10186 20081 30145 40175 57015 22283 04229 85127
BBXX VRFN8 03063 99246 31116 41/98 12607 10250 20204 40066 7//// 8///2 22244 00240 20301 323// 40802 80220
BBXX ZCBU6 03064 99418 31637 41598 62527 10130 20073 40109 57004 70222 865// 22234 00144 20404 323// 40508 5//// 80102
BBXX V2OG2 03063 99279 31116 41898 10906 10274 20196 40079 58007 70000 81100 22273 20301 318// 40403 80220
BBXX SHIP 03063 99121 31229 41/97 42404 10349 20227 49982 70322 222// 0//// 20000 322// 40500 5////
BBXX 9KWP 03063 99295 31130 41598 10912 10265 20188 40090 54000 70200 81100 22234 00240 2//// 80215
BBXX 3ECI3 03064 99217 51610 41597 50514 10260 20215 40119 52010 70300 85443 22253 00260 20302 314// 41004 80230
BBXX VRAE4 03064 99212 31582 41298 71216 10260 20238 40086 57003 70311 84778 22274 04260 20401 319// 41103 80245
BBXX DCCP2 03060 99038 10932 41598 32706 10290 20235 40080 57010 70200 82165 22221 00290 29903 31525 40805 5//04 80250
BBXX SHIP 03063 99030 31260 41498 30609 10320 2025/ 40080 58020 70211 8318/ 22254 00300 2//// 3//// 4//// 5//// 6//// 80270 ICE /////
BBXX TBWUK14 03063 99093 31157 41498 41813 10340 20302 40080 54000 7//11 842// 22283 06290 20302 399// 40302 80310
BBXX PBCK 03063 99078 31228 41697 23607 10302 20230 40054 57026 702// 81902 22223 00320 20201 30000 80250 59999
BBXX PCQL 03063 99351 31160 41/98 /0922 10218 20162 40145 56035 70200 8//08 22263 04192 20305 80182
BBXX KAOU 03064 99009 10805 43/// /2308 10276 20242 40078 5//// 7//// 8//// 222// 04290 2//// 3//// 4//// 5//// 6//// 8//// ICE /////
BBXX A8IH2 03063 99343 31699 41297 80420 10210 20172 40140 53010 75052 887// 22224 20302 305// 40504 5//// 80185
BBXX A8EH7 03064 99046 31274 41598 33206 10305 20233 40080 56020 7//00 82169 22263 00320 20501 33499 40601 5//// 80255
BBXX A8UU2 03064 99136 31168 41598 32014 10305 20256 40042 56010 7//00 8/263 22243 04310 20504 30000 80270
BBXX MCCW7 03064 99068 31145 41498 32814 10311 20238 40063 58006 70200 83120 22273 00293 29901 331// 40501 5//// 80260
BBXX A8QR9 03061 99038 11057 41697 618// 10275 20241 40100 50/// 70211 8/478 22253 203// 80250
AAXX 03064 48001 32556 31301 10200 20168 40115 82510 333 56390 59023
AAXX 03064 48004 32562 50401 10224 20173 85900 333 56500
AAXX 03064 48008 32557 70000 10235 20143 40108 84970 333 56180 59027
AAXX 03064 48010 32560 60000 10235 20209 40102 85530 333 56560 59030
AAXX 03064 48018 32360 31401 10264 20203 40100 83800 333 56900 59031
AAXX 03064 48019 32460 20401 10250 20167 40107 80030 333 56090 59029
AAXX 03064 48020 32462 20401 10255 20169 82100 333 56500
AAXX 03064 48025 32458 30401 10270 20191 40101 83800 333 56700 59046
AAXX 03064 48035 31560 50000 10238 20155 40076 70544 83960 333 56590 59040
AAXX 03064 48037 32564 23201 10272 20191 40098 81130 333 56660 59026
AAXX 03064 48042 32558 42701 10285 20196 40101 82850 333 56990 59016
AAXX 03064 48045 32558 60000 10218 20173 86600 333 56500
AAXX 03064 48048 32560 30901 10280 20203 40095 83800 333 56400 59030
AAXX 03064 48053 32556 63601 10270 20191 40100 83550 333 56560 59015
AAXX 03064 48057 32460 52201 10224 20087 84830 333 56590
AAXX 03064 48060 31320 70000 10185 20159 40121 71052 84970 333 56560 59001
AAXX 03064 48062 31457 72701 10260 20220 40100 70522 85970 333 56590 59017
AAXX 03064 48071 32560 40504 10280 20220 40106 83530 333 56990 59015
AAXX 03064 48077 32560 20401 10310 20203 40101 82200 333 56900 59020
AAXX 03064 48078 32556 40402 10308 20237 40090 82231 333 56669 59021
AAXX 03064 48080 32561 21301 10315 20225 40082 81870 333 56990 59012
AAXX 03064 48094 32562 30401 10310 20250 40078 83800 333 56900 59023
AAXX 03064 48097 32457 61303 10325 20200 40094 86800 333 56900 59016
AAXX 03064 48108 31596 30501 10330 20234 40085 70522 81105 333 56209 59021
AAXX 03064 48109 32496 60401 10314 20267 40083 82536 333 56599 59017
AAXX 03064 48110 31996 50903 10315 20201 40081 70522 80056 333 56099 59021
AAXX 03064 48112 NIL
AAXX 03061 08558 32/// /3504 10059 20031 39962 40265 52002 333 20048 30003 5//// 55010 20975 91006 91106
AAXX 03061 08575 32/// /0000 11012 21022 39461 40310 52006 333 21013 30103 5//// 55075 20919
AAXX 03061 08501 32/// /2402 10147 20114 30311 40347 57004 333 20142 30013 5//// 55006 20429
AAXX 03061 21921 41997 81702 11244 21276 30148 40196 56006 77172 8802/
BBXX 46147 03061 99518 71312 46/// /2908 10080 40373 57001 22200 00085 11006 70029 333 91210
BBXX SBHI 03063 99566 10165 43/98 62313 10052 40034 58021 22242 053
BBXX UFJN 03061 99727 10229 41/98 80606 11030 41754 54000 70022 88/// 22200 0//// 20000
BBXX 62023 03063 99514 70079 46/96 /2824 10115 2//// 40072 5//// 22200 10606 70032 555 70044 81009
BBXX MINFR00 0306/ 99504 10006 46/// ///// 10113 40045 57033
BBXX MINUK04 0306/ 99545 10058 46/// ///// 10100 4//// 57006
BBXX LF4H 03064 99596 10022 46/97 12336 10076 20029 49673 57038 8//// 22200 06093 10811 70053 333 91149
BBXX LDGJ 03061 99778 10098 43/// /0306 11055 21082 49692 5//// 222/1 04058 1//// 3//// 4//// 5////
BBXX LMEL 03061 99603 10053 43/// /1406 10059 20053 49715 5//// 222/2 04102 1//// 3//// 4//// 5////
BBXX PHAC 03063 99384 70114 41/98 43515 10157 20105 40285 50007 7//11 84/// 22282 2//02 334// 40607 80127 59999
BBXX TFDRN 03064 99658 70212 46/// ///// 22200 10805 70027
BBXX TFKGR 03064 99657 70136 46/// ///// 22200 10911 70057
BBXX TFSTD 03064 99664 70234 46/// ///// 22200 10706 70030
BBXX TFSRT 03064 99633 70203 46/// ///// 22200 11009 70047
BBXX TFBLK 03064 99657 70248 46/// ///// 22200 10806 70030
BBXX TFBKF 03064 99635 70202 46/// ///// 22200 11005 70023
BBXX TFGRS 03064 99663 70182 46/// ///// 22200 10705 70025
BBXX TFGRV 03064 99638 70225 46/// ///// 22200 11006 70030
BBXX TFGSK 03064 99641 70229 46/// ///// 22200 11008 70039
BBXX TFHFN 03064 99642 70152 46/// ///// 22200 11006 70029
BBXX NWS0020 03064 99353 10217 43/// /3003 10169 20099 40245 5//// 7//// 8//// 222// 04193 2//// 3//// 4//// 5//// 6//// 8//// ICE /////
BBXX MGRX2 03063 99574 10081 41/97 /1748 10050 20025 49853 57025 72562 8//// 22253 21010 317// 40809 5//// 80040
BBXX MGSH7 03063 99559 10207 41/97 42522 10060 20023 40061 54000 70200 84/// 22200 20404 324// 40506 5//// 80045
BBXX VRFX8 03064 99490 70123 41/98 82931 10140 20100 40150 54000 70222 88/// 22224 0//// 2//// 3//// 4//// 80120
BBXX UCJB 03061 99713 10273 41/98 /3104 10030 49757 54000 70022 22213 00100 20503
BBXX C6KD6 03064 99360 70321 41998 01118 10185 20160 40325 57014 70000 80000 22254 02191 2//// 302// 41206 80170
BBXX UCKA 03061 99575 10040 41/98 42423 10055 49806 57036 70262 22212 00110 21312
BBXX PCUI 03063 99627 10187 41797 42915 10034 21025 49911 51011 7//55 83185 22253 00115 20503 80011
BBXX PGRQ 03064 99352 10215 41597 52801 10174 2//// 40250 52006 70211 81549 22281 00195 20000 30000
BBXX UGGA 03061 99686 10394 41698 82115 10040 49773 57020 70222 888// 22221 20807
BBXX UCKG 03061 99705 10328 41/98 91812 10030 49724 57040 70222 22273 00030 20505
BBXX PDYI 03063 99370 10007 41/97 /2507 10150 20093 40200 52016 700// 8//// 22223 20405 32500 41003 5//// 80118
AAXX 03061 08575 32/// /0000 11012 21022 39461 40310 52006 333 21013 30103 5//// 55075 20919 555 60005
AAXX 03061 14328 11456 72401 10106 20102 39788 40179 58001 60022 7616/ 86520 333 20106 31009 70032
AAXX 03061 08558 32/// /3504 10059 20031 39962 40265 52002 333 20048 30003 5//// 55010 20975 91006 91106 555 60005
AAXX 03061 08501 32/// /2402 10147 20114 30311 40347 57004 333 20142 30013 5//// 55006 20429 555 60005
AAXX 03061 14216 11457 81801 10132 20128 30043 40192 56005 69902 71044 886// 333 20126 31013 70022 923// 924/6
AAXX 03061 14219 11350 72002 10087 20054 39179 48498 55/// 69952 76066 86870 333 20080 31006 70027
AAXX 03061 14232 12965 73401 10050 20037 30045 40182 54001 60012 333 20032 31002 70014
AAXX 03061 14234 11620 71901 10031 20029 39943 40194 53001 60002 72840 87500 333 20015 31100
AAXX 03061 14236 11656 60000 10070 20056 39986 40185 56/// 60002 710// 86500 333 20041 31001
AAXX 03061 14244 12460 61601 10037 20030 30059 40191 56005 69912 83570 333 20012 31101 70001
AAXX 03061 14248 11656 63202 10006 20004 30015 40194 54/// 60002 7102/ 86500 333 21011 31103
AAXX 03061 14253 11920 50000 10007 20002 30016 40195 54001 60002 71011 82051 333 20004 31102
AAXX 03061 14256 11520 22303 10086 20058 39863 40181 57004 60002 7104/ 82500 333 20000 31///
AAXX 03061 14280 12960 20902 10022 20017 30084 40196 54001 60002 82030 333 20002 30101
AAXX 03061 14308 11520 82303 10101 20097 39841 40192 57006 60002 71044 887// 333 20068 31004 70006
AAXX 03061 14321 12662 61207 10141 20116 30180 40204 57/// 69952 86800 222// 00151 333 20136 32012 70005 92323 92437
AAXX 03061 14370 11620 30000 11014 21019 30089 40202 55000 60002 71022 83500 333 21020 31104
AAXX 03061 14382 11630 81001 10018 20013 30081 40204 56007 60002 7102/ 885// 333 20018 31000
AAXX 03061 14428 12470 61003 10130 20108 30195 40202 58008 60002 83850 222// 00153 333 20130 31011 79999 92312
AAXX 03061 14441 12560 71605 10160 20128 30180 40204 56003 60002 82450 222// 00175 333 20137 30013 92322
AAXX 03061 14452 12597 71604 10140 20132 39996 40219 54/// 60002 84510 333 20126 92312
AAXX 03061 14454 12766 81204 10159 20084 30160 40219 54001 60002 8657/ 333 20135 31011 70000 92323
AAXX 03061 14462 12570 81001 10093 20069 30228 40234 56/// 60002 8651/ 333 20076 31007
AAXX 03061 25703 41998 80000 11376 21405 39972 40281 57002 77172 83037
AAXX 03061 25745 42698 22501 11325 21355 30195 40253 52010 82500
AAXX 03061 25913 41599 70504 11122 21135 30012 40166 53001 70282 83301
AAXX 03061 25954 42998 02002 11183 21251 30072 40192 52004
AAXX 03061 25956 42699 30404 11190 21239 30163 40169 53002 83500
AAXX 03061 31088 42999 10104 11186 21254 30191 40199 52001 81040
AAXX 03061 31873 42998 80401 11092 21158 30074 40213 57017 86071
AAXX 03061 31909 42599 83303 11071 21134 30123 40203 58027 885//
AAXX 03061 31960 42999 70107 11074 21144 39946 40189 57017 82035
AAXX 03061 31961 42998 63002 11066 21127 30153 40201 57020 86031
AAXX 03061 32053 42999 00000 11094 21170 30209 40260 58020 333 91001 91106
AAXX 03061 32061 41998 00303 11081 21143 30218 40258 56024 70281 333 91004 91104
AAXX 03061 32098 42998 50201 11076 21131 30263 40273 57010 80004 333 91002 91105
AAXX 03061 32150 42598 80202 11023 21061 30214 40244 56008 883// 333 91004 91105
AAXX 03061 32165 42598 81307 10038 21011 30179 40240 56027 889// 333 91011 91111
AAXX 03061 32215 41569 32805 11030 21097 30198 40228 53007 72683 83900 333 91012 91117
AAXX 03061 32252 NIL
AAXX 03061 32389 41699 71102 11123 21136 30139 40177 54000 70242 82531
AAXX 03061 32477 41496 71701 11082 21092 30172 40205 53010 78582 87900
AAXX 03061 32583 42999 03405 11036 21116 30163 40194 53012
AAXX 03061 32618 41598 20407 11034 21073 30132 40154 52016 70283 82500 333 91112
BBXX 46147 03061 99518 71312 46/// /2908 10080 40373 57001 22200 00085 11006 70029 333 91210
AAXX 03064 64400 11356 82206 10251 20238 30085 40105 60164 70162 8687/ 333 02261 20241 50144 55011 59003 84807 85623 88462
AAXX 03064 64401 12460 80000 10240 20225 39735 40107 60064 885// 333 01629 20231 50134 55069 58000 88616
AAXX 03064 64453 11460 80000 10212 20206 39/// 40/// 60044 72162 885// 333 01712 20188 50054 55069 5//// 88613
AAXX 03064 64456 32560 13204 10230 20217 39/// 40/// 81900 333 0//00 20215 55194 55093 5//// 81926 94941 95811
AAXX 03064 64458 31305 60000 10208 20203 39691 40078 74644 86600 333 0//00 20195 50264 55/// 59015 86608
AAXX 03064 64459 31940 02802 10225 20217 39731 40091 71000 333 02000 20210 50194 55/// 59011
AAXX 03064 89002 42899 61014 11115 21146 39770 49824 52003 82018 333 99021
AAXX 03064 71976 46/// /2214 11127 21140 39474 40111 51006 6///1 333 11110 21146 7//// 555 10040 32319 40031
AAXX 03064 71979 16/// ///// 11051 21104 38508 40187 56013 60001 333 11034 21071 70008
AAXX 03064 71343 17/// /2609 11046 21091 69941 7//4/ 333 10036 21066 70004 555 32749 40093
AAXX 03064 71421 16/// ///// 11174 21194 39581 40330 51015 60001 333 11091 21174 70000
AAXX 03064 71181 16564 80000 10017 21003 30210 40247 53004 60001 333 10059 20013 70005
AAXX 03064 71189 46/// /2714 11043 21082 6///1 333 11019 21047 7//// 555 32825 40061
AAXX 03064 71846 16/// /2112 11022 21090 39734 40050 57016 60001 333 11014 21199 70000 555 32126 40061
AAXX 03064 71276 16/// ///04 11108 21128 60001 333 10029 21126 70000
AAXX 03064 71217 16/// /2805 11069 21112 60001 333 10028 21080 70000 555 33334 40213
AAXX 03064 71224 16/// /2906 11068 21118 60001 333 10028 21068 70000 555 32545 40083
AAXX 03064 71737 16/// /3103 11090 21110 39804 40345 53014 60001 333 11012 21090 70029 555 10040 20029
AAXX 03061 22438 12569 81709 10022 20000 39810 49831 57010 69990 885// 333 20010
AAXX 03061 22165 11598 81415 10009 21005 39743 49803 57025 69930 70272 885// 333 20000 91119
AAXX 03064 71343 17/// /2609 11046 21091 69941 7//4/ 333 10036 21066 70004 555 32749 40093
AAXX 03064 71181 16564 80000 10017 21003 30210 40247 53004 60001 333 10059 20013 70005
AAXX 03064 71189 46/// /2714 11043 21082 6///1 333 11019 21047 7//// 555 32825 40061
AAXX 03064 71846 16/// /2112 11022 21090 39734 40050 57016 60001 333 11014 21199 70000 555 32126 40061
AAXX 03064 71976 46/// /2214 11127 21140 39474 40111 51006 6///1 333 11110 21146 7//// 555 10040 32319 40031
AAXX 03064 71979 16/// ///// 11051 21104 38508 40187 56013 60001 333 11034 21071 70008
AAXX 03064 71421 16/// ///// 11174 21194 39581 40330 51015 60001 333 11091 21174 70000
AAXX 03064 71276 16/// ///04 11108 21128 60001 333 10029 21126 70000
AAXX 03064 71217 16/// /2805 11069 21112 60001 333 10028 21080 70000 555 33334 40213
AAXX 03064 71224 16/// /2906 11068 21118 60001 333 10028 21068 70000 555 32545 40083
AAXX 03064 71737 16/// /3103 11090 21110 39804 40345 53014 60001 333 11012 21090 70029 555 10040 20029
BBXX 46183 03061 99536 71311 46/// /2606 10077 40358 52004 22200 00085 10402 70008 333 91207
BBXX 46183 03061 99536 71311 46/// /2606 10077 40358 52004 22200 00085 10402 70008 333 91207
BBXX 46145 03061 99544 71324 46/// /2910 10074 40341 52006 22200 00078 11206 70030 333 91212
BBXX 46145 03061 99544 71324 46/// /2910 10074 40341 52006 22200 00078 11206 70030 333 91212
AAXX 03061 48845 32498 83402 10206 20136 30144 40151 57019 888// 333 59031 85894 88697
AAXX 03064 84782 31965 00000 10150 20108 39633 40147 70200 333 59010
AAXX 03064 84452 31960 31811 10180 20158 30117 40148 70300 83010 333 56090 59003 83465
AAXX 03064 84515 31460 4//// 10240 20226 39915 40093 70222 844// 333 569// 59014 84620
AAXX 03064 84377 31460 80000 10230 20216 39982 40088 70222 84510 333 56000 59002 84612 86460
AAXX 03064 84691 31460 20804 10173 20154 30125 40132 70300 82600 333 56000 56000 59020 82712
AAXX 03064 84686 31760 40000 10102 20052 36876 70222 84500 333 56900 59006 84650
AAXX 03064 84501 31958 51406 10170 20150 30112 40139 71000 8503/ 333 56000 59007 85365
AAXX 03064 84752 32960 03604 10101 20015 37532 70200 333 59009
AAXX 03064 84628 34360 81706 10194 20172 30124 40140 70321 886// 333 564// 59007 82709 88715 84401 31960 01603 10220 20162 30104 40148 70200 333 58000
AAXX 03061 48840 32498 63402 10213 20135 30141 40147 57023 868// 333 59026 83894 86697
AAXX 03061 08521 12465 50206 10176 20084 30216 40287 57008 69942 85800 333 20174 30/// 55077 85816 555 60007
AAXX 03064 60663 36/// /2210 10186 21032 333 20182
AAXX 03061 08521 12465 50206 10176 20084 30216 40287 57008 69942 85800 333 20174 30/// 55077 85816
AAXX 03064 41859 31950 03102 10274 20170 30061 40098 70500 333 59033 70000
AAXX 03064 41883 32956 03102 10290 20160 30079 40100 333 59022 70000
AAXX 03064 41891 31445 50302 10280 20140 30058 40097 70522 82540 333 56990 59024 70000 82615 84365
AAXX 03064 41907 32456 20000 10328 20150 30081 40096 82500 333 56900 59022 70000 82616
AAXX 03064 41923 31450 20000 10299 20110 30070 40080 70500 82431 333 56999 59025 70000 81616
AAXX 03064 41936 31950 00000 10298 20150 40090 70500 333 59027 70000
AAXX 03064 41943 31450 61803 10275 20180 30099 40106 70522 83430 333 56990 59012 70000 82618 85362
AAXX 03064 41950 32456 11804 10288 20150 30083 40085 81500 333 56900 59019 70000 81618
AAXX 03064 41978 31435 70905 10250 20200 30092 40098 70522 83520 333 56990 59013 70000 83616 86460
AAXX 03064 41992 31430 30000 10283 20170 30086 40088 70511 82530 333 56990 59018 70000 82616 83362
AAXX 03061 60379 36/// /0000 10123 20123 333 20115
AAXX 03061 60380 36/// /1001 10098 20094 333 20086
AAXX 03061 60394 16/// /0000 10092 20090 69924 333 20089
AAXX 03061 60374 36/// /1004 10116 20115 333 20116
AAXX 03061 60613 36/// /1316 10121 20018 333 20110
BBXX 62087 03061 99547 10068 46/// /0111 10077 20068 4//// 5//// 22270 00109
AAXX 03064 60645 36/// /0000 10096 20036 333 20096
AAXX 03064 60619 36/// /3604 10036 21001 333 20035
BBXX 61002 03064 99421 10047 46/// /0724 10143 2//// 40214 52012 22200 00174 10705 70025 555 1/031
AAXX 03064 41951 32957 01301 10286 20170 30079 40084 333 59016 70000
AAXX 03034 41915 32456 40000 10280 20150 30065 40090 82450 333 56990 59032 70000 81618 84360
AAXX 03034 41926 32457 53201 10262 20170 30086 40099 85400 333 56700 59020 70000 82618 83825
AAXX 03034 41941 32557 32702 10296 20160 30084 40089 81101 333 56909 59023 70000 81830 82080
AAXX 03034 41960 31950 00902 10284 20160 30092 40093 70500 333 59022 70000
AAXX 03034 41963 31440 31802 10270 20160 30088 40090 70522 83800 333 56900 59017 70000 82618 83828
AAXX 03034 41964 32456 41801 10267 20180 30108 40110 81570 333 56990 59017 70000 81620 82460
AAXX 03034 41984 32958 00000 10273 20130 30088 40090 333 59019 70000
AAXX 03064 41933 31450 31803 10274 20180 30083 40092 70500 83530 333 56990 59022 70000 83616
AAXX 03064 41966 32956 30000 10270 20170 30027 40106 83030 333 56090 59016 70000 83362
AAXX 03064 41929 32956 03602 10290 20150 30079 40089 333 59022 70000
AAXX 03064 41858 31958 13005 10280 20180 30055 40100 70140 81040 333 56090 59025 70000 81362
AAXX 03064 41863 32957 02701 10285 20160 30051 40093 333 59026 70000
AAXX 03064 41886 31458 20000 10274 20150 30070 40091 70241 82500 333 56900 59026 70000 82618
AAXX 03064 41895 32958 02702 10264 20170 30076 40099 333 59020 70000
AAXX 03064 41909 NIL
AAXX 03064 41915 NIL
AAXX 03064 41926 NIL
AAXX 03064 41929 NIL
AAXX 03064 41933 NIL
AAXX 03064 41939 31957 00000 10183 20170 40098 70544 333 59027 70000
AAXX 03064 41941 NIL
AAXX 03064 41946 32956 00000 10286 20180 30090 40095 333 59023 70000
AAXX 03064 41947 32456 40000 10290 20170 30085 40087 84400 333 56800 59031 70000 82618 83820
AAXX 03064 41951 NIL
AAXX 03064 41953 31550 51303 10278 20180 30084 40089 70522 82530 333 56990 59021 70000 82618 84362
AAXX 03064 41958 32956 00000 10285 20170 20083 40085 333 59026 70000
AAXX 03064 41960 NIL
AAXX 03064 41963 NIL
AAXX 03064 41964 NIL
AAXX 03064 41965 NIL
AAXX 03064 41966 NIL
AAXX 03064 41984 NIL
AAXX 03064 41989 NIL
AAXX 03064 41998 32956 03401 10283 20180 30087 40092 333 59014 70000
BBXX 46131 03061 99499 71250 46/// /0201 1//// 40339 52007 22200 00077 10200 70001 333 91201
AAXX 03064 62309 32560 43602 10150 20094 40242 52012 84200 333 20126
AAXX 03064 62325 32960 00000 10152 20114 40246 52010 333 20136
AAXX 03064 62332 32560 40310 10180 20111 40237 52014 84100 333 20166
AAXX 03064 62387 31920 03308 10118 20104 40227 52013 71000 333 20096
AAXX 03064 62459 32960 00206 10154 20038 40193 52014 333 20132
AAXX 03064 62452 32960 02204 10046 21026 40258 52016 333 20043
AAXX 03064 62309 32560 43602 10150 20094 40242 52012 84200 333 20126
AAXX 03064 62325 32960 00000 10152 20114 40246 52010 333 20136
AAXX 03064 62332 32560 40310 10180 20111 40237 52014 84100 333 20166
AAXX 03064 62387 31920 03308 10118 20104 40227 52013 71000 333 20096
AAXX 03064 62459 32960 00206 10154 20038 40193 52014 333 20132
AAXX 03064 62452 32960 02204 10046 21026 40258 52016 333 20043
AAXX 03064 62458 32960 03405 10190 20038 40190 52014 333 20148
AAXX 03064 62420 31958 00000 10100 20081 40223 52025 71000 333 20088
AAXX 03064 62432 32960 02802 10133 20067 40222 52017 333 20084
AAXX 03064 62435 32960 03609 10142 20084 40210 52015 333 20113
AAXX 03064 62455 32960 03606 10121 20088 40224 52017 333 20098
AAXX 03064 62476 32960 02908 10194 20128 40170 53015 333 20158
BBXX 46131 03061 99499 71250 46/// /0201 1//// 40339 52007 22200 00077 10200 70001 333 91201
AAXX 03061 38750 32997 03202 10048 21005 30277 40248 52019 333 20010
AAXX 03061 50844 32962 00205 11067 21145 40247 57013 333 21160
AAXX 03061 50854 32965 23203 11056 21165 40228 57013 80002 333 21115
AAXX 03061 50968 32962 71401 11063 21145 40223 57003 80002 333 21115
AAXX 03061 51379 11765 82002 11007 21039 40264 52013 69901 77070 885// 333 00100 21017
AAXX 03061 51467 32670 51101 10034 21096 38224 57009 81502 333 00002 21049
AAXX 03061 51495 32980 73202 10063 21066 40203 57006 82032 333 05102 21030
AAXX 03061 53480 32980 61102 11058 21136 40302 57013 80002 333 21182
AAXX 03061 53673 11957 81601 11064 21078 40295 57017 69901 71074 8802/ 333 21092
AAXX 03061 53698 31915 81801 11010 21017 40273 57013 71040 8807/ 333 21025
AAXX 03061 53898 31412 82001 10000 21003 40268 57015 72844 886// 333 21018
AAXX 03061 54308 32980 01101 11001 21169 40269 57022 333 21131
AAXX 03061 54602 31962 81402 10024 21048 40265 57017 70040 80007 333 21037
AAXX 03061 54725 31/03 92702 11021 21028 40271 57009 74700 333 21030
AAXX 03061 54751 32565 63406 10046 21032 40245 54000 86400 333 20040
AAXX 03061 54916 32960 03201 10059 21020 40264 57015 333 21036
AAXX 03061 57014 32962 81104 10023 21013 40195 57013 8807/ 333 05254 21025
AAXX 03061 57025 31956 81802 10006 21013 40225 57023 71000 8802/ 333 21001
AAXX 03061 57046 32964 72006 10000 21075 37910 57017 82032 333 00051 21055
AAXX 03061 58208 32968 00703 10090 20023 40248 57020 333 20001
AAXX 03061 37472 32997 82802 10034 20005 30281 40257 52009 8807/ 333 20014
AAXX 03061 50353 11970 70202 11197 21236 30051 40299 57018 69911 70070 82032 333 21293
AAXX 03061 50557 11962 73603 11163 21195 39934 40264 57017 69911 77070 80002 333 21245
AAXX 03061 50756 11960 73202 11095 21150 39918 40233 57011 69921 70070 80002 333 21124
AAXX 03061 50949 32965 12903 11043 21142 30052 40230 57011 80002 333 21094
AAXX 03061 50963 32963 80903 11069 21158 30072 40217 57004 80007 333 21145
AAXX 03061 50978 32968 20702 11082 21159 39849 40217 57010 80002 333 21157
AAXX 03061 51087 32980 80000 11036 21083 39266 40269 52005 8802/ 333 05101 21086
AAXX 03061 51156 11780 72501 11047 21068 38706 40250 52003 69931 70070 86502 333 00054 21074
AAXX 03061 51644 32960 30702 10045 21033 38924 40195 57003 80002 333 00051 21037
AAXX 03061 51656 32775 42502 10056 21037 39090 40185 57017 81502 333 05101 21003
AAXX 03061 51886 32980 72001 11021 21205 37075 57017 80002 333 05201 21131
AAXX 03061 52602 32980 02901 10023 21225 37230 57011 333 05151 21166
AAXX 03061 52713 32980 21601 10017 21208 36873 57011 80002 333 05101 21145
AAXX 03061 52754 32580 23605 10036 21167 36734 57008 81102 333 05304 21104
AAXX 03061 52818 32980 73401 10034 21208 37206 57012 80002 333 00002 21057
AAXX 03061 52836 32980 72201 10018 21237 36870 57009 80002 333 00054 21110
AAXX 03061 52955 32980 73201 10043 21217 36916 57014 80002 333 05251 21127
AAXX 03061 53068 32980 70703 11160 21205 39097 40334 57008 80002 333 05155 21244
AAXX 03061 53276 32980 02202 11074 21138 38879 40321 57010 333 21216
AAXX 03061 54135 32980 03203 11037 21153 30026 40259 57012 333 21107
AAXX 03061 54236 32970 03406 11020 21141 30142 40252 57008 333 21076
AAXX 03061 54539 31962 22202 10037 21027 30245 40260 57011 70040 80002 333 21043
AAXX 03061 54662 32970 00206 10010 21077 30122 40240 57002 333 21016
AAXX 03061 54753 32662 53604 10053 21030 30242 40249 52002 85500 333 20028
AAXX 03061 54857 31530 63406 10046 21002 30155 40250 57007 71000 86600 333 20015
AAXX 03061 57067 32960 81802 10063 20000 39539 40234 57022 8807/ 333 21024
AAXX 03061 57178 31958 70702 10077 20022 30085 40248 57022 71000 8703/ 333 20019
AAXX 03061 57245 31956 80702 10058 20046 39849 40208 57027 71040 8807/ 333 00052 20026
AAXX 03061 57297 31950 73601 10062 20021 30107 40251 57022 71000 8703/ 333 20012
AAXX 03061 50434 32980 72903 11143 21198 39327 40282 57012 80002 333 21273
AAXX 03061 50527 11970 72702 11184 21203 39440 40293 57004 69911 70070 83032 333 21215
AAXX 03061 50603 11980 72702 11171 21205 39573 40311 57001 69921 72270 80002 333 21246
AAXX 03061 50632 11680 73204 11113 21168 39309 40257 57011 69901 70070 81532 333 21189
AAXX 03061 50727 11580 73403 11138 21181 39025 40295 57003 69911 77070 85502 333 21213
AAXX 03061 50915 11980 02502 11120 21182 39233 40315 57007 69901 70070 333 21203
AAXX 03061 51716 32962 02501 10062 21024 38876 40176 57007 333 05101 21048
AAXX 03061 51765 32980 23601 10045 21045 39192 40214 57008 80002 333 05101 21061
AAXX 03061 51777 32975 63401 10045 21053 39143 40203 57011 80002 333 05152 21031
AAXX 03061 51811 32965 00902 10078 21040 38745 40161 57017 333 05103 21033
AAXX 03061 51828 32963 03403 10079 21049 38597 40157 57005 333 00001 20008
AAXX 03061 52267 32980 30201 10004 21110 39112 40254 57008 80002 333 05151 21080
AAXX 03061 52323 32980 21102 11007 21041 38195 57017 80002 333 05153 21072
AAXX 03061 52495 11970 81102 11019 21054 38677 40256 57010 69901 77000 8802/ 333 05252 21098
AAXX 03061 53149 32980 22902 11034 21105 38786 40284 57006 80002 333 05204 21163
AAXX 03061 53192 31980 42502 11160 21179 38915 40366 57009 70040 80002 333 21265
AAXX 03061 53231 32972 82205 11035 21085 38471 57008 80007 333 05201 21126
AAXX 03061 53336 32970 71801 11042 21121 38717 40277 57012 80002 333 05201 21146
AAXX 03061 53391 32980 22502 11060 21147 38505 40303 57013 80002 333 00104 21200
AAXX 03061 53529 32975 81602 11031 21064 38616 40257 57005 8801/ 333 05151 21102
AAXX 03061 53543 32980 72203 11036 21088 38532 40260 57011 82032 333 21078
AAXX 03061 53723 31970 70202 11015 21040 38636 40224 57011 70040 83032 333 05301 21075
AAXX 03061 54012 32980 52704 11123 21172 39043 40336 57010 80002 333 21274
AAXX 03061 54026 32580 10202 11018 21163 39908 40249 57015 81100 333 21116
AAXX 03061 54027 32980 00401 11023 21164 39641 40258 57017 333 21148
AAXX 03061 54208 32980 00701 11076 21160 38771 40300 57013 333 21203
AAXX 03061 54776 32980 03211 10055 21046 30160 40218 52004 333 20046 91119 91534
AAXX 03061 56004 32980 10701 11020 21199 35789 57014 80002 333 05354 21173
AAXX 03061 56033 32580 73207 11007 21249 35980 57015 82802 333 05303 21122
AAXX 03061 56046 32580 72902 10018 21143 36213 57020 878// 333 05302 21109
AAXX 03060 44210 31598 80000 11130 21143 38480 56004 71522 8502/
AAXX 03060 44216 41599 70000 11130 21157 38983 40293 53003 70272 85717
AAXX 03060 44217 31597 80000 11061 21101 37792 40192 58001 71522 8852/
AAXX 03060 44219 32998 80000 11153 21204 38593 40303 58006 8807/
AAXX 03060 44221 32998 60000 11181 21231 38571 40335 58014 80009
AAXX 03060 44224 31997 72001 11157 21208 38019 40314 57016 71522 87070
AAXX 03060 44229 32999 22305 11195 21244 37897 40368 58011 80001
AAXX 03060 44242 32998 51801 11217 21239 39457 40360 57007 80002
AAXX 03060 44243 32999 30000 11190 21228 39455 40356 58005 80008
AAXX 03060 44254 32998 12703 11164 21203 39059 40309 58001 80004
AAXX 03060 44257 32998 10000 11209 21286 39002 40358 57008 80001
AAXX 03060 44263 31597 80000 11111 21155 38019 40289 54000 71522 886//
AAXX 03060 44266 32699 72302 11022 21113 37724 40147 52006 83574
AAXX 03060 44286 32998 61602 11128 21183 38634 40297 52001 80008
AAXX 03060 44291 31996 60000 11182 21225 38740 40363 58006 70421 80008
AAXX 03060 44325 32999 72701 11042 21084 38845 40243 58016 86051
AAXX 03060 44329 32898 42303 11078 21108 37731 40235 52002 82044
AAXX 03060 44338 32999 23403 11062 21111 38450 40232 52002 80004
AAXX 03060 44348 32997 30000 11058 21125 38675 40234 58007 82044
AAXX 03060 44374 32999 33401 11038 21084 38236 40249 58007 82064
AAXX 03060 44385 32999 20000 11056 21117 38907 40256 58009 80008
AAXX 03060 44386 32999 60000 11072 21159 39051 40260 57005 83047
AAXX 03064 45011 47961 /0111 10181 20047 40162 57021 70011 333 58004
AAXX 03061 45007 12962 03403 10185 20014 30150 40159 56029 60001 333 59002
AAXX 03061 56146 32980 70701 10074 21168 36670 57042 80002 333 05604 21094
AAXX 03061 56444 32980 00702 10082 21067 36759 57032 333 05551 21049
AAXX 03061 56492 31740 80401 10116 20077 39734 40142 57039 71000 885// 333 05352 20099
AAXX 03061 56571 32680 51603 10191 20029 38322 57045 85400 333 05602 20083
AAXX 03061 57799 31980 00000 10124 20046 30134 40225 57033 70040 333 20020
AAXX 03061 57866 32980 00203 10137 20007 39991 40201 57041 333 20022
AAXX 03061 57957 32968 01101 10176 20007 39979 40179 57051 333 20043
AAXX 03061 57993 32978 00701 10131 20014 30039 40209 57038 333 20017
AAXX 03061 58027 32961 02701 10070 21050 30198 40251 57017 333 21013
AAXX 03061 58141 31957 03202 10081 21025 30236 40256 57012 70500 333 21001
AAXX 03061 58265 31957 02906 10093 20012 30235 40243 57003 70500 333 20013
AAXX 03061 58472 32462 13408 10083 20012 30137 40234 57008 81100 333 20057
AAXX 03061 58477 31459 13206 10109 20009 30182 40227 57010 70500 81100 333 20055
AAXX 03061 58527 32962 00701 10135 20015 30154 40232 57020 333 20003
AAXX 03061 58633 31958 00903 10127 20023 30127 40229 57021 70500 333 20013
AAXX 03061 58666 32963 03611 10118 20036 30113 40217 57013 333 20074
AAXX 03061 58725 32965 02901 10143 21013 39948 40217 57030 333 21009
AAXX 03061 58921 32962 02902 10122 20037 39961 40214 57028 333 20052
AAXX 03061 59082 31980 03602 10156 21015 30041 40190 57040 70040 333 20017
AAXX 03061 59211 32563 10702 10189 20091 39946 40154 57047 81100 333 20095
AAXX 03061 59265 32975 01103 10189 20019 30023 40163 57050 333 20053
AAXX 03061 59293 32980 00401 10166 20003 30084 40171 57046 333 20021
AAXX 03061 59501 32980 00901 10207 20000 30126 40147 57034 333 20088
AAXX 03061 59663 32980 01403 10193 20022 30058 40167 57016 333 20085
AAXX 03061 59838 32975 13602 10250 20089 30119 40129 57031 80002 333 20145
AAXX 03061 59948 32480 70906 10190 20111 39656 40145 57024 81102 333 20139
AAXX 03061 59981 32580 70203 10248 20165 30108 40115 57021 87802 333 20227
AAXX 03063 64800 NIL
AAXX 03063 64820 NIL
AAXX 03063 64860 32960 50000 10160 20118 39847 40119 80002 333 00400 20150 50780 55109 59007 85080
AAXX 03063 64861 NIL
AAXX 03063 64870 32960 50000 10120 20060 38912 48503 80002 333 00700 20074 51710 55113 59008 85080
AAXX 03063 64871 NIL
AAXX 03063 64892 NIL
AAXX 03063 64893 NIL
AAXX 03063 64894 NIL
AAXX 03064 64910 31420 70000 10245 20242 30097 40106 71022 86302 333 02200 20212 50401 55101 59006 86614 82916 87080 94945 95835
AAXX 03064 64911 NIL
AAXX 03064 64950 NIL
AAXX 03061 56193 NIL
AAXX 03061 56196 11930 81102 10092 20065 40161 57026 69901 71060 8807/ 333 05253 20078
AAXX 03061 56287 11956 80701 10094 20078 40150 57036 69911 71060 8807/ 333 05256 20078
AAXX 03061 56684 32980 02905 10139 20025 37835 57033 333 05501 20028
AAXX 03061 56751 32778 10902 10172 21001 37967 57029 81400 333 05501 20050
AAXX 03061 56786 32580 61807 10145 20042 38060 57029 86400 333 05302 20053
AAXX 03061 56977 32580 81801 10164 20124 40130 57026 884// 333 05300 20127
AAXX 03061 57259 32968 71102 10104 20050 40204 57032 8703/ 333 20007
AAXX 03061 57279 32965 60902 10113 20033 40236 57024 80008 333 20017
AAXX 03061 57348 32875 80403 10128 20048 40175 57037 885// 333 20065
AAXX 03061 57399 32962 11801 10132 21004 40236 57027 81040 333 20006
AAXX 03061 57554 31962 70402 10109 20048 40217 57034 70040 8704/ 333 20029
AAXX 03061 57793 31968 00704 10126 20027 40224 57026 70040 333 20007
AAXX 03061 58345 32963 02902 10099 21009 40253 57014 333 20020
AAXX 03061 58506 32365 10000 10052 20013 40252 57010 81102 333 21020
AAXX 03061 58813 31980 00202 10126 21013 40219 57031 70040 333 21004
AAXX 03061 58834 32980 01803 10131 20023 40217 57029 333 20047
AAXX 03061 58926 32975 01101 10164 20013 40194 57037 333 20034
AAXX 03061 58944 32575 70206 10157 20072 40198 57015 87500 333 20103
AAXX 03061 59096 32970 00402 10190 21032 40173 57043 333 20026
AAXX 03061 59102 32980 00203 10161 20002 40188 57037 333 21004
AAXX 03061 59278 32970 00701 10183 21005 40166 57041 333 20083
AAXX 03061 59456 32980 03401 10217 21009 40143 57036 333 20102
AAXX 03061 59493 32966 02701 10182 20004 40158 57031 333 20075
AAXX 03061 59658 32980 01106 10186 20068 40153 57030 333 20091
AAXX 03061 59673 32971 03603 10178 20040 40168 57010 333 20111
AAXX 03061 59845 32980 01404 10210 20099 40143 57039 333 20117
AAXX 03064 65352 31930 70404 10195 20052 3//// 4//// 70522 80002 333 20175 5//// 87076
AAXX 03064 65361 32960 70000 10175 20066 3//// 4//// 80002 333 20172 5//// 87076
AAXX 03064 65376 32958 73606 10225 20066 39653 40112 80002 333 20214 59002 87076
AAXX 03064 65387 31445 73002 10245 20242 30075 40093 71022 81502 333 20245 59003 81610 87073
AAXX 03061 13586 31940 00000 11069 21085 39982 40293 53004 71000 333 21072
AAXX 03061 27612 11496 81903 10010 21001 39889 40083 57015 60022 77172 8872/ 333 21005 43001
AAXX 03064 64501 11358 60000 10237 20234 3//// 4//// 60624 72996 84930 333 0//053 20234 50274 5//// 83608 81916 96360 949+53 95834
AAXX 03061 01212 16/// /1710 10086 20013 39650 49665 56062 69954 333 20049 70005 91115
AAXX 03061 01415 16/// /2206 10073 20048 39760 49770 56047 6//// 333 20020 70140 91122
BBXX 46204 03061 99514 71288 46/// /2904 10084 40365 57005 22200 00090 11003 70016 333 91205
BBXX 46204 03061 99514 71288 46/// /2904 10084 40365 57005 22200 00090 11003 70016 333 91205
BBXX 45137 03061 99455 70810 46/// /2008 10025 30092 40313 57012 22200 00069 10401 70007 333 91210
BBXX 45137 03061 99455 70810 46/// /2008 10025 30092 40313 57012 22200 00069 10401 70007 333 91210
AAXX 03064 06670 01362 72702 10053 20040 39682 40199 55000 60102 71066 8547/ 333 20057 32005 55032 55300 20000 60005 70100 81707 85648 85366 90768 93100 91107 91204
AAXX 03064 06700 01681 42108 10072 20044 39713 40209 53001 60022 70165 84500 333 20071 32006 55014 55300 20000 60005 70037 84645 90768 93100 91114 91210
AAXX 03064 06680 01/01 92521 11049 21052 37481 47014 57003 60012 74574 333 21050 46001 55062 55300 20000 69915 70012 90768 93101 91141 91228
AAXX 03064 06990 01540 82901 10061 20053 39641 40192 55004 69912 72566 887// 333 20061 32003 55054 55300 20000 60005 70001 88725 91107 91204
AAXX 03064 06760 32668 70301 10076 20023 39737 40187 56008 875// 333 20067 30006 55002 55300 20000 70000 87638 90768 93100 91104 91203
AAXX 03064 06720 01565 81601 10063 20058 39625 40205 53000 60022 76066 887// 333 20061 32001 55049 55300 20000 69915 70019 88531 90768 93100 91106 91203
AAXX 03064 42309 32596 20702 10276 20175 40089 81530 333 59035
AAXX 03064 42314 31596 53203 10244 20151 40100 70522 82530 333 59025 82620 85360
AAXX 03064 42398 31596 59903 10262 20163 40097 70522 81430 333 59028
AAXX 03064 42410 31596 10204 10264 20186 40092 70510 81500 333 59036 81620
AAXX 03064 42415 32596 20000 10270 20167 40110 81101 333 59035 81825
AAXX 03064 42492 31995 02702 10264 20168 40107 70540 333 59028
AAXX 03064 42587 31995 00000 10240 20169 40115 70500 333 59020
AAXX 03064 42591 31995 02705 10252 20175 40112 70500 333 59025
AAXX 03064 42623 31395 70000 10170 20129 39233 40108 70510 84630 333 59026 82708 84616 86360
AAXX 03064 42701 31495 52703 10228 20120 39379 40101 70522 85400 333 59014 83618 83825
AAXX 03064 42706 31495 53201 10266 20166 40100 70522 82530 333 56390 59017 82618 83360
AAXX 03064 42724 31595 62702 10268 20176 40094 70522 82530 333 59019 82620 85360
AAXX 03064 42798 31995 00000 10264 20148 40098 70500 333 59018
AAXX 03064 42809 31495 40000 10284 20169 40093 70522 84800 333 59023 82615
AAXX 03064 42886 31995 00901 10266 20151 40107 70544 333 59011
AAXX 03064 42895 31996 03601 10290 20153 40094 70500 333 59019
AAXX 03064 42971 31594 50202 10278 20181 40097 71021 82501 333 59014 82620 84075
AAXX 03064 43333 32496 70503 10292 20235 40066 84431 333 59010 82616 83818 85360
AAXX 03064 42977 NIL
AAXX 03064 43368 NIL
AAXX 03064 06610 01656 82106 10068 20048 39615 40203 57002 60092 71062 886// 333 20061 32005 55010 55300 20000 60005 70134 88744 90768 93100 91111 91207
BBXX VROB 03064 99250 31534 46/// /1621 10233 20146 30118 40143 57017 22283 04253 85177
BBXX VNAH 03064 99353 31336 46/// /1519 10148 20095 30214 40238 57005 22263 04173 85119
BBXX ZMKA 03064 99373 31780 41397 80514 10172 20164 40220 57010 70122 8577/ 22233 20301 305// 40502 80167
AAXX 03064 41254 36/// /2808 10191 21174 38241 48246 333 0E006 20096 59003
BBXX FHZI 03064 99643 31371 46/// /2628 11028 21080 39860 49871 52012 22200 05011 86044
AAXX 03061 21802 41995 82406 11102 21108 30093 40117 57001 73673 86030
AAXX 03061 24125 42998 40000 11221 21233 39952 40253 58001 80001
AAXX 03061 24136 41999 61201 11232 21264 30131 40239 54000 70272 86030
AAXX 03061 24143 41997 81809 11294 21331 30200 40255 57005 77173 8807/
AAXX 03061 24266 42999 80000 11461 21485 30094 40304 52002 80005
AAXX 03061 24329 42999 50000 11336 21365 39981 40323 52007 82011
AAXX 03061 24343 42999 81701 11358 21380 30182 40318 52011 84036
AAXX 03061 24382 41995 80000 11432 21461 30000 40295 53003 77071 80007
AAXX 03061 24639 42999 20000 11294 21317 30150 40321 52016 80001
AAXX 03061 24641 42999 60000 11339 21368 30155 40317 52011 80001
AAXX 03061 24652 42999 62601 11335 21365 30185 40325 52013 80001
AAXX 03061 24656 41999 00501 11334 21369 30210 40327 52005 70171
AAXX 03061 24671 42999 03601 11473 21485 39768 40374 58001
AAXX 03061 24688 41999 00000 11469 21501 39319 40413 53003 70271
AAXX 03061 24724 42999 02602 11247 21271 39744 40323 52012
AAXX 03061 24738 42999 60000 11204 21210 30117 40306 52012 80001
AAXX 03061 24768 42998 20401 11348 21381 30042 40308 53008 80002
AAXX 03061 24923 41598 62603 11167 21209 39991 40318 52011 77172 86500 333 86625
AAXX 03061 24944 41596 80000 11146 21159 39986 40294 52009 78582 86902
AAXX 03061 24951 41999 02701 11181 21200 30111 40289 52012 70271
AAXX 03061 24661 42999 52901 11387 21413 30019 40327 54000 80001
AAXX 03061 24959 41998 80101 11337 21365 30158 40305 52011 77172 81035
AAXX 03061 24962 41997 80701 11329 21357 30086 40298 52006 77172 8802/
AAXX 03061 24966 41998 80000 11330 21353 30047 40293 56002 77171 84037
AAXX 03061 24967 42999 50000 11294 21324 30061 40305 53008 80002
AAXX 03061 25206 41998 70000 11401 21427 30241 40273 53007 70472 80001
AAXX 03061 25400 41998 81701 11380 21409 30202 40266 53004 77172 80007
AAXX 03061 30054 41997 81803 11183 21209 30069 40327 52003 77172 8807/
AAXX 03061 30089 41999 40000 11164 21177 30063 40301 53003 70271 84070
AAXX 03061 30393 41998 80000 11214 21233 39200 40325 57002 77172 84037
AAXX 03061 30493 41699 80000 11212 21244 39195 40321 57005 70272 82501
AAXX 03061 31004 41999 62302 11148 21168 39407 40283 52001 70272 84031
AAXX 03061 31137 42999 00000 11250 21288 39203 40332 56002
AAXX 03064 91650 NIL
AAXX 03064 91652 NIL
AAXX 03064 91656 NIL
AAXX 03064 91659 11599 61208 10270 2024/ 40100 53010 69901 72522 84878 333 56299 83827 84647
AAXX 03064 91660 NIL
AAXX 03064 91669 36/// /17// 10258 20249 40100 52006
AAXX 03064 91670 36/// /0600 10272 20222 40095
AAXX 03064 91676 14/// /1203 10265 20226 30024 40084 50007 60001
AAXX 03064 91680 11598 70000 10234 20228 40101 50008 60181 76198 878// 333 569// 84825 86645
AAXX 03064 91682 NIL
AAXX 03064 91683 11599 50809 10277 20234 40097 53006 60001 70122 8383/ 333 5629/ 83820 83362
AAXX 03064 91691 NIL
AAXX 03064 91693 NIL
AAXX 03064 91697 14/// /1002 10257 20217 30099 40104 50006 60001
AAXX 03064 91699 14/// /1305 10258 20222 30078 40110 50005 60001
BBXX VROB 03064 99250 31534 46/// /1621 10233 20146 30118 40143 57017 22283 04253 85177
BBXX VNAH 03064 99353 31336 46/// /1519 10148 20095 30214 40238 57005 22263 04173 85119
BBXX ZMKA 03064 99373 31780 41397 80514 10172 20164 40220 57010 70122 8577/ 22233 20301 305// 40502 80167
AAXX 03061 35925 31595 81103 11060 21068 40257 57005 71072 886//
AAXX 03061 38001 12997 82707 10030 20006 30261 40231 53001 69940 8807/ 333 20013
AAXX 03061 38196 11498 83202 11036 21068 39302 40310 52009 60040 70272 886// 333 21055
AAXX 03061 38198 12597 60000 10008 21018 30054 40318 52005 60010 82480 333 21016
AAXX 03061 38232 31498 82305 10032 20018 30145 40244 53005 76162 8802/ 333 21022
AAXX 03061 38328 11595 82901 11006 21015 39568 40313 53005 60050 78584 889// 333 21011
AAXX 03061 38334 11/91 93003 11022 21025 39324 40310 58001 60100 77174 333 21028 96045
AAXX 03061 38439 12598 71501 10042 20008 39964 40305 53002 69980 86501 333 20016
AAXX 03061 28049 32999 72801 11148 21162 30006 40180 52010 80050 333 21144
AAXX 03061 28144 32998 13101 11162 21176 30022 40190 53006 80001 333 21188
AAXX 03061 28319 11498 82504 11053 21074 30066 40236 58011 69900 70272 885// 333 21094 88614
AAXX 03061 28321 32999 82403 11059 21082 30017 40228 53002 8803/ 333 21075
AAXX 03061 28334 11496 82602 11070 21095 39916 40231 58001 69920 77172 8802/ 333 21085
AAXX 03061 28434 11598 80000 11063 21082 39975 40242 53004 69900 78582 889// 333 21086 86925
AAXX 03061 28552 11996 82803 11054 21071 30080 40195 53008 69900 77187 8807/ 333 21106
AAXX 03061 28666 11548 72204 11095 21104 30008 40190 54000 69920 77172 87020 333 21176
AAXX 03061 28825 11596 80000 11081 21087 30089 40269 53010 69900 72687 8597/ 333 21091
AAXX 03061 29111 41998 70000 11200 21223 30106 40201 52005 70272 83012
AAXX 03061 29209 42998 11601 11253 21278 30065 40204 52002 80001
AAXX 03061 29551 41497 81902 11068 21088 30037 40224 52003 78582 84332
AAXX 03061 29602 41496 82003 11112 21125 30048 40195 57004 77172 8802/
AAXX 03061 29636 41597 52504 11076 21102 30000 40224 52008 78582 85300
AAXX 03061 29654 41395 81804 11082 21092 39600 40229 52003 78682 889// 333 85708
AAXX 03061 29712 41897 82004 11103 21116 30062 40211 58006 77171 8802/
AAXX 03061 29724 41597 72004 11096 21117 30020 40230 58001 78582 83370
AAXX 03061 29726 41696 82303 11088 21117 30060 40234 52006 77187 82509
AAXX 03061 29814 41597 82002 11106 21126 30082 40235 58003 78582 8433/
AAXX 03061 29827 41697 82305 11069 21078 30084 40242 58002 78583 889//
AAXX 03061 29923 41599 62403 11083 21102 39969 40254 52003 70282 81361
AAXX 03061 29939 41997 82102 11069 21089 39973 40265 54000 77072 8802/
AAXX 03061 35026 32997 03201 11180 21203 39614 40304 52012 333 21196
AAXX 03061 36021 41599 72401 11060 21075 30068 40253 58003 70282 81932
AAXX 03061 36022 41497 82103 11078 21096 39991 40261 54000 70272 885// 333 88616
AAXX 03061 36038 41496 81502 11082 21101 39819 40277 58005 78582 889// 333 88915
AAXX 03061 36058 41698 80000 11082 21105 39732 40271 58004 77172 8671/
AAXX 03061 36064 41599 43301 11042 21088 39661 40265 52003 72271 82608
AAXX 03061 36229 41599 82401 11098 21132 39057 40266 58002 70382 8492/
AAXX 03061 36259 42599 80000 11149 21183 38191 48480 58003 83902
AAXX 03064 67765 NIL
AAXX 03064 67775 31965 41705 10244 20155 38509 48513 84032 333 20219 59015 84359
AAXX 03064 67779 31960 11102 10302 20162 39036 48506 70500 81031 333 20192 59028 81360
AAXX 03064 67853 NIL
AAXX 03064 67861 NIL
AAXX 03064 67867 NIL
AAXX 03064 67881 NIL
AAXX 03064 67965 11970 70606 10226 20149 38699 48525 60024 71622 87071 333 20199 58002 87458
AAXX 03064 67975 12580 31602 10245 20178 38921 48516 69934 81232 333 20206 59003 81827
AAXX 03064 67977 12980 71208 10251 20214 39664 48542 69904 8707/ 333 20250 59010 87459
AAXX 03064 67983 31950 71502 10254 20208 38882 48514 70511 86088 333 20215 59001 86360 87280
AAXX 03064 67991 11575 81405 10236 20215 39582 48496 60014 70262 8567/ 333 20229 58002 85720 88460
AAXX 03064 67755 NIL
AAXX 03064 67771 NIL
AAXX 03064 67773 32980 00503 10300 20147 38/// 48/// 333 20186 5////
AAXX 03064 67774 NIL
AAXX 03064 67785 NIL
AAXX 03064 67789 NIL
AAXX 03064 67855 NIL
AAXX 03064 67857 12980 41801 10275 20174 38/// 48/// 69904 84032 333 20217 5//// 84360
AAXX 03064 67863 NIL
AAXX 03064 67871 NIL
AAXX 03064 67875 NIL
AAXX 03064 67891 NIL
AAXX 03064 67895 NIL
AAXX 03064 67897 NIL
AAXX 03064 67899 NIL
AAXX 03064 67951 11975 82706 10195 20175 38/// 48/// 60054 76095 8807/ 333 20190 5//// 88459
AAXX 03064 67963 12980 81402 10208 20183 38/// 48/// 69904 8807/ 333 20185 5//// 88460
AAXX 03064 67967 NIL
AAXX 03064 67971 NIL
AAXX 03064 67976 NIL
AAXX 03064 67979 12480 71402 10252 20197 38/// 48/// 69904 875// 333 20249 5//// 87618
AAXX 03063 67775 32965 41705 10244 20155 38509 48513 84032 333 20219 84359
AAXX 03063 67779 31960 11102 10302 20162 39036 48506 70500 81031 333 20192 81360
AAXX 03063 67965 11870 70606 10226 20149 38699 48525 60024 71622 87071 333 20199 87458
AAXX 03063 67975 12580 31602 10245 20178 38921 48516 69934 81232 333 20206 81827
AAXX 03063 67977 12980 71208 10251 20214 39664 48542 69904 8707/ 333 20250 87459
AAXX 03063 67983 31950 71502 10254 20208 38882 48514 70511 86088 333 20215 86360 87280
AAXX 03063 67991 11575 81405 10236 20215 39582 48496 60014 70262 8567/ 333 20229 85720 88460
AAXX 03064 89050 41498 52922 10000 21025 49992 52024 70341 82408
AAXX 03064 89512 32998 01314 11080 21169 39689 49841 52002 333 21096
AAXX 03064 89574 NIL
AAXX 03064 89592 42598 70807 11060 21079 49868 57006 87500
AAXX 03064 89606 42998 01906 11276 21345 36251 47814 53001 333 21385
AAXX 03061 30157 42998 21601 11239 21264 30047 40360 56001 80001
AAXX 03061 35925 31595 81103 11060 21068 40257 57005 71072 886//
AAXX 03061 38001 12997 82707 10030 20006 30261 40231 53001 69940 8807/ 333 20013
AAXX 03061 38196 11498 83202 11036 21068 39302 40310 52009 60040 70272 886// 333 21055
AAXX 03061 38198 12597 60000 10008 21018 30054 40318 52005 60010 82480 333 21016
AAXX 03061 38232 31498 82305 10032 20018 30145 40244 53005 76162 8802/ 333 21022
AAXX 03061 38328 11595 82901 11006 21015 39568 40313 53005 60050 78584 889// 333 21011
AAXX 03061 38334 11/91 93003 11022 21025 39324 40310 58001 60100 77174 333 21028 96045
AAXX 03061 38439 12598 71501 10042 20008 39964 40305 53002 69980 86501 333 20016
BBXX C6FR4 03064 99295 70446 41798 20915 10200 2//// 40240 54000 7//00 8/4// 22253 04249 2//02 308// 41804 5//// 6//// 8//// ICE /////
BBXX C6VG7 03064 99217 70858 41798 11125 10239 2004/ 40203 54000 7//00 81/6/ 22214 00280 20305 313// 4//// 5//// 6//// 80133 ICE /////
BBXX WJBJ 03063 99192 70670 41298 10510 10260 20217 40141 57008 70200 81100 22274 00284 20404 309// 40405 5//// 6//// 80230 ICE /////
BBXX WFLH 03063 99238 71519 43598 71212 10233 20201 40223 52011 7//// 87/4/ 22213 00228 20501 312// 41004 5//// 6//// 80211 ICE /////
BBXX C6RN3 03064 99271 70796 41797 40629 10220 20140 40270 54000 7//// 81102 22274 00250 20205 3//// 4//// 5//// 6//// 80170 ICE /////
BBXX ONDC 03063 99072 11200 412// 31205 10260 2//// 40080 52010 70222 832// 22213 80320
BBXX ICGU 03064 99230 70352 41/// /1619 10220 20190 40180 54/// 7//// 80/// 22254 00186 2//// 3//// 4//// 5//// 6//// 80200 ICE /////
BBXX WKPY 03064 99250 10355 41698 10413 10209 20172 40278 53010 70510 81100 22235 00261 20201 333// 40503 5//// 6//// 80185 ICE /////
BBXX WDD2074 03064 99557 71415 41697 71919 10056 2003/ 40240 52020 70311 8542/ 22233 00050 2//// 3//// 4//// 5//// 6//// 80044 ICE /////
AAXX 03064 67863 32980 60000 10256 20176 38/// 48/// 86070 333 20217 5//// 86460
AAXX 03064 67867 12980 30000 10233 20155 38581 48510 60044 83082 333 20175 59011 83359
AAXX 03064 67861 11680 72004 10234 20176 38724 48507 60144 70296 82578 333 20180 59015 82530 85359
AAXX 03063 67867 12980 30000 10233 20155 38581 48510 60044 83082 333 20175 83359
AAXX 03063 67861 11580 72004 10234 20176 38724 48507 60144 70296 82578 333 20180 82530 85359
BBXX BAREU08 03064 99119 50774 46/// ///// 40145 22271
BBXX BAREU11 03064 99285 50730 46/// ///// 40165 57019 22243
BBXX IDDUK02 03064 99581 50564 46/// ///// 40058 222//
BBXX WKPY 03064 99250 10355 41698 10413 10209 20172 40278 53010 70510 81100 22235 00261 20201 333// 40503 5//// 6//// 80185 ICE /////
BBXX DDID2 03063 99077 70286 41397 60311 10264 20238 40110 57020 70151 866// 22244 04260 20402 80245
BBXX MFLQ4 03063 99192 30604 41597 41322 10255 20185 40119 54000 70200 84100 22213 00270 2//// 313// 40506 5//// 80210
BBXX VVML 03063 99173 10407 41598 50304 10027 20229 40150 51025 70122 85660 22233
BBXX ZCBV4 03064 99236 11220 41297 80230 10200 20185 40166 70222 83717 22243 00250 20405 336// 40406 5//// 80190/40
BBXX ONDC 03063 99072 11200 412// 31205 10260 2//// 40080 52010 70222 832// 22213 80320
BBXX SHIP 03064 99295 11456 41697 72018 10240 20225 40119 57001 70222 82461 22233 04229 20402 30308 40804 50704
BBXX 3EDA4 03063 99291 11370 41093 70730 10232 20218 40089 70466 22265 00242 20402 30707 40502 50502 80222
BBXX ZCBV4 03064 99236 11220 41297 80230 10200 20185 40166 70222 83717 22243 00250 20405 336// 40406 5//// 80190
BBXX 3FBC9 03064 99322 11548 41/96 /0930 10190 40165 56003 75122 8//// 9//// 22222 00230 20408 308// 40510 5//// 6//// 80170
BBXX SHIP 03063 99200 11319 41/98 41717 10300 20267 40137 57015 70311 82131 22283 00270 20201 313// 40404 80275
BBXX SHIP 03064 99309 11342 41597 82717 10210 20164 40056 55/// 70322 86477 22283 00240 20605 327// 40605 80180
BBXX DDYL2 03063 99325 11266 41598 62940 10154 20085 40138 57010 71522 862// 22231 00210 20710 80116
BBXX SHIP 03064 99250 11624 41/// 40213 10264 40164 52009 700// 83241 22263 00263 20500 322// 40500
BBXX SHIP 03064 99228 11352 41798 61512 10290 20264 40100 56019 70222 86342 22273 00260 20202 315// 40202 80270
BBXX SHIP 03064 99127 11318 41698 60716 10290 2026/ 40125 57015 71582 86980 22213 00300 20402 308// 41004 5//// 6//// 80270 ICE /////
BBXX UFLC 03060 99586 11492 41597 82808 11070 40187 54000 77072 8652/ 22213 06020 20402
BBXX SHIP 03064 99085 30997 41697 80731 10206 20244 40052 57015 76011 84520 22263 00279 10904 20302 333 02 40605 50603 80250
BBXX A8GU4 03064 99092 31322 41599 79902 10300 20246 40060 57010 70322 85120 22224 04300 2//// 80260
BBXX A8HJ8 03063 99012 11034 41697 32502 10330 20239 40090 58010 70200 82209 22200 20201 30000 80263
BBXX ZMENA 03064 99436 31727 46/// ///// 10192 20123 40093 57017 22252
BBXX 3EAT6 03063 99340 31726 41298 80615 10205 20189 40169 57010 70322 8/6// 22213 00180 303// 40302
BBXX ZMFR 03064 99517 31736 43/// /05// 10080 20074 40107 57027 22242 00083
BBXX SHIP 03064 99085 30997 41697 80731 10206 20244 40052 57015 76011 84520 22263 00279 10904 20302 33302 40605 50603 80250
BBXX 46204 03061 99514 71288 46/// /2904 10084 40365 57005 22200 00090 11003 70016 333 91205
BBXX 46131 03061 99499 71250 46/// /0201 1//// 40339 52007 22200 00077 10200 70001 333 91201
BBXX 46145 03061 99544 71324 46/// /2910 10074 40341 52006 22200 00078 11206 70030 333 91212
BBXX 46183 03061 99536 71311 46/// /2606 10077 40358 52004 22200 00085 10402 70008 333 91207
BBXX WDD2074 03064 99557 71415 41697 71919 10056 2003/ 40240 52020 70311 8542/ 22233 00050 2//// 3//// 4//// 5//// 6//// 80044 ICE /////
BBXX ICGU 03064 99230 70352 41/// /1619 10220 20190 40180 54/// 7//// 80/// 22254 00186 2//// 3//// 4//// 5//// 6//// 80200 ICE /////
BBXX WTEC 03064 99216 70643 41597 10407 10254 2020/ 40149 57004 70200 811// 22273 00273 20601 310// 41002 5//// 6//// 80216 ICE /////
BBXX 46147 03061 99518 71312 46/// /2908 10080 40373 57001 22200 00085 11006 70029 333 91210
BBXX SHIP 03064 99311 71799 41596 73324 10220 20191 40113 51009 75022 8//// 90600 22264 00220 2//// 3//// 4//// 80200
BBXX SHIP 03064 99405 71605 41/96 80702 10140 20140 40077 56002 70302 88/// 90555 22224 00150 2//// 3//// 4//// 5//// 80140
BBXX A8IP2 03063 99361 70398 41/96 /0911 10180 20164 40300 54000 70366 8//// 22214 20401 314// 40703 5//// 80170
BBXX 46088 03061 99483 71232 46/// /0902 10065 40334 90620 22200 00086 1//00 70002 333 91202 555 11016 22017 30545 41303 60619 089017 109021 106024 122025 120019 125016
BBXX 44022 03061 99409 70737 46/// ///03 10059 21009 40340 90615 22200 00106 333 91204 555 11031 22031
BBXX 44060 03061 99413 70721 46/// ///06 10051 40330 90615 22200 00119 333 91209 555 11067 22072
BBXX 44039 03061 99411 70727 46/// /3608 10067 20006 40338 52017 90600 22200 00115 10301 70006 333 91212
BBXX 44098 03061 99428 70702 46/// ///// 1//// 90607 22200 00099 11003 21003 312// 41101 70014
BBXX 46114 03061 99364 71222 46/// ///// 1//// 90604 22200 00125 11707 21005 329// 41705 70037
BBXX 42363 03061 99282 70892 46/// /1113 10206 20111 40271 90615 333 91215
BBXX 41115 03061 99184 70673 46/// ///// 1//// 90605 22200 10801 20801 70007
BBXX 41114 03061 99276 70802 46/// ///// 1//// 90616 22200 00226 10704 20703 307// 41101 70018
BBXX 42364 03061 99291 70881 46/// /1207 10194 20106 40278 90615
BBXX 46211 03061 99469 71242 46/// ///// 1//// 90606 22200 00094 10905 20904 328// 41103 70025
BBXX 46221 03061 99339 71186 46/// ///// 1//// 90545 22200 00153 11402 20601 320// 41401 70008
BBXX 46231 03061 99327 71174 46/// ///// 1//// 90554 22200 00151 11402 21002 321// 41401 70010
BBXX 46222 03061 99336 71183 46/// ///// 1//// 90556 22200 00160 11102 20702 326// 41101 70009
BBXX 46242 03061 99332 71174 46/// ///// 1//// 90556 22200 00155 11302 20801 322// 41301 70008
BBXX 46223 03061 99335 71178 46/// ///// 1//// 90600 22200 00162 11302 20801 319// 41301 70008
BBXX 46216 03061 99343 71198 46/// ///// 1//// 90557 22200 00148 10902 20901 325// 41101 70008
BBXX 46237 03061 99378 71226 46/// ///// 1//// 90610 22200 00118 11704 20903 325// 41704 70022
BBXX 46212 03061 99408 71243 46/// ///// 1//// 90612 22200 00104 10909 20907 332// 41105 70043
BBXX 46217 03061 99342 71194 46/// ///// 1//// 90612 22200 00151 10402 20402 320// 41401 70010
BBXX 46240 03061 99366 71219 46/// ///// 1//// 90612 22200 00125 11102 21002 334// 41102 70012
BBXX 46241 03061 99330 71173 46/// ///// 1//// 90541 22200 00151 11102 21001 327// 41101 70008
BBXX 46249 03061 99338 71197 46/// ///// 1//// 90617 22200 00149 11102 21002 330// 41101 70009
BBXX 46244 03061 99409 71244 46/// ///// 1//// 90605 22200 00108 11010 21008 329// 41505 70048
BBXX 46248 03061 99461 71247 46/// ///// 1//// 90604 22200 00099 11106 21005 330// 41104 70032
BBXX 46232 03061 99325 71174 46/// ///// 1//// 90538 22200 00162 11202 20902 326// 41202 70012
BBXX 42085 03061 99179 70665 46/// ///// 1//// 90600 22200 00285
BBXX 41053 03061 99185 70661 46/// /0303 10268 40134 58018 90600 22200 00282 10802 70009 333 91204
BBXX 41052 03061 99183 70648 46/// /0304 10267 40127 58016 90600 22200 00281 10901 70006 333 91206
BBXX 41053 03061 99185 70661 46/// /0303 10268 40137 90540 333 91205
BBXX 41053 03061 99185 70661 46/// /0304 10268 40135 90550 333 91205
BBXX 41052 03061 99183 70648 46/// /0304 10267 40129 90540 333 91205
BBXX 41052 03061 99183 70648 46/// /0304 10267 40127 90550 333 91205
BBXX WJBJ 03063 99192 70670 41298 10510 10260 20217 40141 57008 70200 81100 22274 00284 20404 309// 40405 5//// 6//// 80230 ICE /////
BBXX C6RN3 03064 99271 70796 41797 40629 10220 20140 40270 54000 7//// 81102 22274 00250 20205 3//// 4//// 5//// 6//// 80170 ICE /////
BBXX WFLH 03063 99238 71519 43598 71212 10233 20201 40223 52011 7//// 87/4/ 22213 00228 20501 312// 41004 5//// 6//// 80211 ICE /////
BBXX 41101 03064 99146 70562 46/// /0816 10270 20230 40108 57016 22200 00276 10704 70020
BBXX C6FR4 03064 99295 70446 41798 20915 10200 2//// 40240 54000 7//00 8/4// 22253 04249 2//02 308// 41804 5//// 6//// 8//// ICE /////
BBXX 46207 03061 99509 71299 46/// /3009 10084 40368 57007 22200 00089 11105 70024 333 91211
BBXX 46112 03061 99481 71227 46/// /2002 10047 40331 54000 90600
BBXX 46111 03061 99481 71227 46/// /3203 10067 40330 54000 90600 22200 00067
BBXX 44034 03061 99441 70681 46/30 /0405 10045 40296 53024 90604 22200 00094 333 91207 555 11062 22064
BBXX 44033 03061 99441 70690 46/30 /3607 10053 40304 53024 90604 22200 00092 10201 70004 333 91208 555 11086 22090
BBXX 44067 03061 99384 70770 46/// /0804 10071 40346 51015 90600
BBXX 41029 03061 99328 70796 46/// /3603 1//// 90600 555 11042 22049
BBXX WDE2719 03063 99607 71514 41/94 80410 11039 2//// 40220 5//// 745// 8//// 222// 00000 2//01 326// 4//01 5//// 6//// 8//// ICE /////
BBXX NWS0021 03064 99318 70642 43/// /0908 10204 20179 40183 5//// 7//// 8//// 222// 04238 2//// 3//// 4//// 5//// 6//// 8//// ICE /////
BBXX PHSG 03064 99125 70885 41998 10627 10270 20226 40130 53005 70200 81050 22234 00290 20202 80240
BBXX 62087 03061 99547 10068 46/// /0111 10077 20068 4//// 5//// 22270 00109
BBXX 63118 03063 99591 10016 41597 62451 10076 20040 49688 57072 760// 8/8// 22200 10812 70060
BBXX 62305 03064 99504 10000 46/95 /2437 10131 20117 40019 57062 22200 00139 10806 70030 333 90710 91152
BBXX 62304 03064 99511 10018 46/97 /2543 10128 20105 40019 56028 22200 00129 10706 70028 333 90710 91159
BBXX 62081 03064 99510 70174 46/// ///// 10128 20113 40098 56004 22200 00122 10912 70058
BBXX 62170 03064 99514 10020 46/96 /2344 10124 20112 40008 56031 22200 00130 10705 70024 333 90710 91154
BBXX 63110 03063 99595 10015 41/96 /2350 10073 20032 49656 78186 8//// 22200 11012 70060
BBXX UAST 03061 99691 10351 41/// /2013 10020 49730 54000 7//// 8//// 222// 20505
BBXX 64045 03064 99591 70117 46/// /2934 10073 21006 49858 51025 22200 00102 11018 70090 333 90710 91148
BBXX PHBO 03063 99485 70159 41/97 /2831 10134 20107 40190 56020 75185 8//// 22224 21207 80120
BBXX 62140 03064 99573 10013 46/// /26// 10087 20022 49792 58011 22200
BBXX 62027 03064 99491 70022 46/// /2626 1//// 2//// 40098 57024 22200 00132 10706 332// 70031
BBXX MYSU5 03064 99495 70088 41/97 81536 10130 20111 40114 54000 78082 8//// 22263 00150 20810 326// 41008 5//// 80120
BBXX 62163 03064 99475 70084 46/// /2721 10130 20104 40176 56011 22200 00139 10809 70047 333 90710 91129
BBXX 62153 03064 99573 10020 47698 /2521 10087 20030 49800 57011 700// 22200 10810 70049
BBXX 62104 03064 99574 10013 47598 /2628 10091 20024 49792 57014 700// 22200
BBXX 62122 03064 99573 10016 47798 /2431 10089 20019 49815 57013 700// 22200 10709 70044
BBXX 62116 03064 99576 10011 47697 /2536 10084 20011 49776 57023 700// 22200 10709 70045
BBXX 62155 03064 99577 10007 47997 /2642 10086 20008 49794 56022 751// 22200 10709 70046
BBXX 62143 03064 99577 10018 47697 /2632 10088 20015 49802 55011 700// 22200 10709 70044
BBXX 62118 03064 99577 10009 47997 /2436 10093 20014 49769 57029 700// 22200 10709 70043
BBXX 62117 03064 99579 10000 47996 /2542 10079 20019 49754 57032 704// 22200 10709 70047
BBXX 62113 03064 99584 10002 47597 /2441 10073 20022 49751 57030 700// 22200
BBXX 62128 03064 99587 10014 47497 /2342 10074 20021 49717 58032 700// 22200 10811 70053
BBXX 62114 03064 99583 10000 46/// /2445 10075 20026 49715 57040 22200
BBXX ZQSD5 03064 99583 10007 46/// /2441 10078 20016 49739 57032 22200 10913 70064
BBXX 62129 03064 99584 10003 46/// ///// 10073 20024 49755 57026 22200
BBXX 62102 03064 99579 10018 46/// /2532 10083 20014 49771 57019 22200 10709 70045
BBXX 62134 03064 99580 10014 47697 /2433 10080 20025 49766 57027 700// 22200 10810 70049
BBXX 62146 03064 99572 10021 46/// ///// 22200
BBXX 62164 03064 99572 10008 46/// ///// 22200
BBXX 62133 03064 99571 10009 46/// ///// 22200
BBXX PJGO 03064 99571 10022 47697 /2420 10091 20033 49816 56014 700// 22200
BBXX 62165 03064 99540 10009 47798 /2716 10104 20060 49936 55005 700// 22200 10504 70022
BBXX 62120 03064 99564 10021 47997 /2632 10090 20035 49834 57014 700// 22200
BBXX 62132 03064 99564 10020 46/// /2823 10093 20034 49858 58002 22200
BBXX 62123 03064 99563 10022 47597 /2532 10094 20064 49840 57015 700// 22200
BBXX 62119 03064 99570 10019 46/// ///// 22200
BBXX 62152 03064 99570 10018 46/// ///// 22200
BBXX 62154 03064 99564 10022 46/// /2530 10090 20033 49839 56016 22200
BBXX 62127 03064 99540 10007 47798 ///// 10101 20045 49934 55002 700// 22200 10504 70018
BBXX 62148 03064 99536 10015 46/// /2323 10102 20085 49952 55018 22200
BBXX 62149 03064 99537 10011 47798 /2525 10101 20086 49943 55007 700// 22200 10504 70020
BBXX 62131 03064 99539 10012 46/// /26// 10104 20073 49932 56011 22200
BBXX 64041 03064 99607 70026 47597 /2729 10063 20063 49628 53025 700// 22200 11013 70067
BBXX 45137 03061 99455 70810 46/// /2008 10025 30092 40313 57012 22200 00069 10401 70007 333 91210
BBXX WQZ7791 03064 99468 70853 41/98 /0000 11177 2//// 40000 54000 70000 8//// 222// 0//// 2//00 3//// 4//// 5//// 6//// 8//// ICE /////
BBXX WE3806 03064 99468 70856 41/98 11818 10011 2//// 40251 56/// 70200 8//// 22263 0//// 2//02 3//// 4//// 5//// 6//// 8//// ICE /////
BBXX 62150 03064 99536 10007 46/// ///// 22200
BBXX MWYG6 03064 99603 70040 47997 /2932 10069 700// 22200
BBXX 62142 03064 99530 10021 46/98 /2425 10104 49955 56024 22200 10505 70024
BBXX 63115 03064 99616 10013 47497 /2020 10102 20031 49592 57039 762// 22200 10811 70055
BBXX 63117 03064 99613 10011 47599 /2225 10169 20046 49599 57047 700// 22200
BBXX 63104 03064 99612 10016 47598 /2227 10079 20027 49606 57046 700// 22200
BBXX 63101 03064 99612 10009 46/// /2422 10068 20032 49596 57047 22200
BBXX 63103 03064 99612 10011 46/// /2527 10073 20024 49606 57035 22200 10911 70053
BBXX 63112 03064 99611 10010 47/97 /2525 10078 20027 49598 57034 761// 22200 10812 70058
BBXX 63107 03064 99611 10017 46/// /2120 10071 49608 57042 22200
BBXX 63113 03064 99610 10017 46/// /2330 10063 20030 49624 57036 22200 10911 70055
BBXX 63105 03064 99610 10017 47996 ///// 10068 20036 49611 57043 740// 22200
BBXX 63056 03064 99597 10016 47497 /2336 10056 20053 49664 57035 740// 22200 10812 70059
BBXX 63108 03064 99608 10017 47998 /2529 10053 20015 49626 56042 740// 22200 10910 70052
BBXX 63106 03064 99610 10017 46/// /2124 10066 49610 56042 22200
BBXX 63055 03064 99606 10016 47998 /2522 10061 20033 49631 700// 22200 10810 70052
BBXX 62112 03064 99584 70002 47596 /2536 10074 20029 49718 58036 740// 22200
BBXX PJAI 03064 99581 70014 47496 /2535 10072 20028 49749 56022 740// 22200
BBXX 62121 03064 99535 10027 46/// /2429 10104 20081 49949 56037 22200
BBXX 62111 03064 99580 70003 46/// /2747 10075 20019 22200 10811 70053
BBXX 63057 03064 99592 10015 47596 /2441 10076 20024 49688 57031 700// 22200 10812 70058
BBXX 62144 03064 99534 10017 47497 /2528 10102 20084 49960 56011 700// 22200 10505 70025
BBXX 62145 03064 99531 10028 47398 /2229 10103 20081 49954 56027 700// 22200 10607 70033
BBXX AMOUK04 03064 99533 70062 46/// ///// 10086 20043 30002 40008 52022 90550
BBXX AMOUK09 03064 99510 10013 46/// ///// 10126 20113 30005 40023 57034 90550
BBXX AMOUK08 03064 99501 70061 46/// ///// 10126 20118 30082 40089 57005 90550
BBXX AMOUK05 03064 99522 10034 46/// ///// 10090 20088 39912 49949 57010 90550
BBXX AMOUK03 03064 99519 10026 46/// ///// 10123 20119 39945 49978 57021 90550
BBXX AMOUK06 03064 99506 70024 46/// ///// 10126 20109 30023 40042 57019 90550
BBXX AMOUK14 03064 99536 70038 46/// ///// 10102 20054 39940 49976 57006 90550
BBXX 62303 03064 99516 70051 46/// /2923 10125 20078 40044 52008 22200 00128 10708 70038 333 90710 91133
BBXX 62001 03064 99452 70050 46/// /2620 10136 20118 40220 56020 22200 00158 10808 70039 333 90710 91132
BBXX 64045 03064 99591 70117 46/// /3033 10070 21002 49856 51025 22200 00103 11018 70090 333 90710 91143
BBXX 62081 03064 99510 70134 46/// ///// 10128 20113 40098 56004 22200 00122 10912 70058
BBXX 62105 03064 99554 70122 46/// /3030 10093 20038 49988 52009 22200 00112 11116 70079 333 90710 91142
BBXX 62301 03064 99524 70047 46/// /2823 10112 20063 40020 52009 22200 00123 10605 70027 333 90710 91132
BBXX 64046 03064 99606 70049 46/// /3237 10072 20033 49674 53047 22200 00091 11015 70076
BBXX 62442 03064 99490 70163 46/// /2728 1//// 2//// 40172 57008 22200 00132 333 90710 91137
BBXX 62029 03064 99487 70125 46/// /2724 10133 20108 40162 56005 22200 00139 10810 70050 333 90710 91135
BBXX 62103 03064 99499 70029 46/96 /2830 10131 20112 40066 56015 22200 00136 10807 70035 333 90710 91144
BBXX 61001 03064 99434 10078 46/// /1609 10158 20133 40174 57004 22200 00172 10602 70012
BBXX OXHY2 03063 99333 10274 41598 22503 10190 20124 40250 51016 70200 81100 22264 00190 20402 30000 40000 5//// 80150
BBXX DBEA 03061 99540 10085 46/// /2019 10060 20037 49981 57059 22220 00080
AAXX 03064 89628 46/// /3149 11261 4//// 5////
BBXX DBFR 03061 99543 10101 46/// /1908 10047 20039 40013 57045 22200 00082
BBXX DBEB 03061 99538 10081 41/// /1918 10055 20055 49989 57051 7//// 22231 00080
BBXX DBBI 03061 99532 10085 46/// /2008 10060 20058 40021 57052 22270 00068
BBXX DBFH 03061 99555 10084 46/// /2013 10075 20057 49937 57062/ 22270 00067
BBXX DBKR 03061 99573 10200 46/// /2512 10051 20019 40033 52016 22242 00072
BBXX DBJM 03061 99543 10079 46/// /2020 10073 20052 49977 57060 22261 00094
BBXX BAREU60 03064 99436 10135 46/// ///// 40199 57006 22252
BBXX BATFR03 03064 99508 70011 46/// /2631 10124 20104 40022 56054 22272
BBXX BATFR54 03064 99456 70016 46/// /2320 10135 20095 40214 56018 22223 00155
BBXX BATFR10 03064 99314 10303 44598 20213 40239 70222 8224/ 22271 00192 20202
BBXX BATUK01 03064 99588 70028 46/// /2852 10069 20030 49673 56018 22241 00107
BBXX PHCQ 03063 99467 70116 41/98 /2616 10125 20107 40203 54000 70200 8//// 22253 04138 20407 327// 40506 5//// 80115
BBXX BATFR11 03064 99360 70003 46/// /2714 10127 20097 40196 22221 00184
BBXX BATFR60 03064 99460 70024 46/// /2426 10132 20109 40177 55/// 22232 00147
BBXX BATFR12 03064 99480 70073 46/// /2719 10132 20124 40155 55004 22200 00149
BBXX BATFR24 03064 99427 10095 46/// ///// 10144 20084 40190 53009 22251 00174
BBXX BATFR27 03064 99494 70022 46/// /2632 10134 20100 40088 50003 22214 00134
BBXX BATEU04 03064 99634 70110 46/// /3122 10027 21016 4//// 22262
BBXX BATFR04 03064 99584 70062 46/// /2841 10057 20014 4//// 22200 00109
BBXX BATFR52 03064 99489 70038 46/// /2525 10137 20112 40116 53018 22252 00134
BBXX BATFR20 03064 99427 10088 46/// /2116 10175 20102 40183 51009 22224
BBXX BATFR01 03064 99359 70058 46/// /3312 10119 20062 40219 56001 22200 00184
BBXX BATFR09 03064 99384 70098 46/// /0134 10147 20074 40278 53011 22283 00174
BBXX BATFR58 03064 99433 10078 44498 7//// 40178 56004 72992 877// 22281 00184 202// 31923 403// 50402 60/// ICE 0////
BBXX BATFR15 03064 99461 70170 46/// /2725 10132 20097 40261 56021 22214 00139
BBXX TESTFR9 03064 99489 70038 46/// /2633 10133 29094 40132 52035 22253
BBXX BATEU05 03064 99586 70141 46/// /2922 10044 20014 49904 55008 22223
BBXX BATFR14 03064 99499 70016 46/// /2733 10137 20114 40055 56047 22264 00139
BBXX BATFR30 03064 99413 10093 46/// /1507 10149 20109 40201 22214 00170
BBXX BAREU12 03064 99524 10035 46/// ///// 49975 57064 22284
BBXX LF3N 03064 99653 10073 41697 71528 10079 20012 49678 57041 70282 8//// 22200 00095 10807 70036
BBXX LF3F 03064 99643 10078 41699 51229 10060 21003 49677 57063 72203 8503/ 22200 04096 10708 70038 333 91132
BBXX LF5T 03064 99660 10081 41796 /1626 10067 20018 49694 57050 700// 22200 10909 70047 333 91134
BBXX 3ERR2 03064 99635 10053 41497 81836 10061 20037 49641 57054 76082 887// 22200 06100 11112 70058 333 91147
BBXX LF4C 03064 99584 10019 41698 82434 10085 20023 49742 57022 702// 89/// 22200 00088 10810 70050 333 91144
BBXX LF4B 03064 99606 10037 47/97 /2033 10068 49665 57038 781// 22200 00075 10812 70058 333 91153
BBXX VRGJ6 03063 99502 70004 41298 62725 10135 20106 40052 57069 75822 85718 22223 04141 20505 327// 40608 5//// 80120
BBXX 9LD2206 03063 99302 70170 41598 20817 10195 20164 40265 58010 7//11 81505 22242 04217 20501 309// 40802 80175
AAXX 03064 40250 32960 00000 10024 21077 39343 40249 52007 333 21001 300//
AAXX 03064 40265 32960 01604 10036 21038 39441 40262 52016 333 21020 30106
AAXX 03064 40296 32960 00000 10130 20022 40222 52020 333 20080 30004
AAXX 03064 40310 NIL
AAXX 03061 55299 32980 03206 10039 21220 35811 57019 333 05602 21144
AAXX 03061 55591 32980 00000 10090 21171 36470 57043 333 05702 21052
AAXX 03061 56739 32575 62003 10178 20057 38322 57023 86400 333 05351 20050
AAXX 03061 56951 32780 60702 10201 20078 38467 57030 86200 333 05300 20067
AAXX 03061 56964 32580 72003 10174 20121 38686 40118 57021 87900 333 05253 20132
AAXX 03061 57328 11840 80901 10089 20053 39754 40171 57027 69901 76000 885// 333 20051
AAXX 03061 57411 31915 80702 10089 20070 39787 40163 57031 71000 8807/ 333 20064
AAXX 03061 57447 32965 80000 10085 20045 39660 40214 57031 8807/ 333 20030
AAXX 03061 57662 32968 00701 10132 20009 30179 40223 57024 333 20034
AAXX 03061 57745 31958 00701 10132 20056 39868 40200 57039 71040 333 20023
AAXX 03061 57972 32965 00201 10137 20026 39974 40203 57036 333 20018
AAXX 03061 58203 32960 00902 10081 21006 30216 40259 57020 333 21015
AAXX 03061 58314 32962 03602 10113 20015 30137 40246 57017 333 21009
AAXX 03061 58424 32960 00902 10111 20002 30220 40246 57015 333 20019
AAXX 03061 59023 32975 01802 10176 20042 39860 40172 57038 333 20067
AAXX 03061 59417 32975 02502 10199 20059 30003 40158 57039 333 20070
AAXX 03061 59985 32580 50404 10252 20174 30114 40119 57020 82102 333 20222
AAXX 03061 59995 NIL
BBXX TBWUK18 03064 99254 50350 41297 83418 10230 20230 40141 56030 70322 887// 22263 20602 318// 41405 5//// 80230
BBXX PCDE 03063 99367 30193 41598 61621 10183 20102 40248 52014 7//22 8/4// 22223 20506 315// 40607 80136
BBXX DQVI 03063 99360 10204 41698 43604 10168 40250 54000 70211 84100 22224 00200 29901
AAXX 03064 41909 31950 53103 10276 20180 30071 40083 70542 85030 333 56090 59028 70000 85362
BBXX 46185 03061 99524 71298 46/// /2904 10081 40363 57005 22200 00079 10802 70009 333 91205
BBXX 61002 03064 99421 10047 46/// /0724 10143 2//// 40214 52012 22200 00174 10705 70025 555 1/031
AAXX 03064 61401 NIL
AAXX 03064 61404 NIL
AAXX 03064 61415 31957 50408 10196 20095 30162 40167 70622 80002 333 20188 50444 55057 58024 85080
AAXX 03064 61421 NIL
AAXX 03064 61437 NIL
AAXX 03064 61442 NIL
AAXX 03064 61450 32960 40804 10170 20019 39704 40159 80002 333 0//00 20160 5//// 55/// 58014 84073
AAXX 03064 61461 NIL
AAXX 03064 61489 NIL
AAXX 03064 61492 NIL
AAXX 03064 61497 NIL
AAXX 03064 61498 31950 20406 10187 20126 39994 40125 705// 80001 333 0//00 20184 5//// 55/// 58007 82073
AAXX 03064 61499 NIL
AAXX 03064 61510 NIL
AAXX 03064 60638 11660 3//// 10101 20000 40164 53008 60004 700// 83130 333 00800 20098 81840 83360
BBXX 41036 03061 99342 70770 46/// ///// 10148 20034 40310 90620 22200 00171
AAXX 03063 61701 31958 40000 10180 20172 40113 71000 80002 333 20159 50391 55060 59003 84070
AAXX 03063 61705 NIL
AAXX 03063 61707 NIL
AAXX 03063 61711 NIL
AAXX 03063 61712 02303 ///// 10160 20125 4//// 80000 333 20140 50301 55015 5////
AAXX 03063 61717 NIL
AAXX 03063 61720 NIL
AAXX 03063 61721 NIL
AAXX 03063 61722 NIL
AAXX 03063 61731 NIL
AAXX 03063 61733 NIL
AAXX 03061 60376 36/// /1602 10118 20118 333 20118
AAXX 03061 60593 36/// /0000 10077 333 20072
BBXX NIL
BBXX NIL
BBXX NIL
BBXX NIL
BBXX NIL
BBXX 44029 03061 99425 70706 46/30 /3208 10053 40308 53021 90604 22200 00098 10301 70007 333 91210 555 11102 22107
BBXX 44030 03061 99432 70704 46/// /3308 1//// 40310 51022 90604 22200 00093 11103 70013 333 91209 555 11096 22102
BBXX 44032 03061 99437 70694 46/30 /3509 10047 40299 53024 90604 22200 00096 11104 70018 333 91210 555 11103 22108
BBXX 44040 03061 99410 70736 46/// /0104 10061 21007 40346 90615 22200 1//00 70000 333 91206 555 11057 22067
BBXX 46088 03061 99483 71232 46/// /0902 10065 40334 90620 22200 00086 1//00 70002 333 91202 555 11016 22017 30545 41303 60619 089017 109021 106024 122025 120019 125016
BBXX 46087 03061 99485 71247 46/// /0904 10069 20051 40333 90620 22200 00088 333 91206 555 11046 22047 30554 40906 60619 090043 087041 087044 087042 089043 083042
AAXX 03061 24790 42999 40000 11425 21443 39399 40348 53004 82031
AAXX 03061 24988 42999 03001 11258 21289 39944 40220 53002
AAXX 03061 25378 32998 33406 11178 21247 30228 40264 52010 333 11175 80001 333 91109
AAXX 03061 25503 41999 31002 11396 21416 30142 40289 53006 70271 80001
AAXX 03061 25705 41998 82301 11396 21416 39903 40286 53002 77074 83047
AAXX 03061 25927 41695 83105 11122 21128 30157 40164 54000 78583 889//
AAXX 03061 25932 42699 70103 11147 21174 30169 40209 52005 87500
AAXX 03061 31152 42998 60000 11300 21337 39870 40320 57004 83032
AAXX 03061 31174 41599 12703 11106 21142 30251 40263 57001 70183 81400 333 91110
AAXX 03061 31489 42997 70000 11169 21219 30137 40261 57021 80004
AAXX 03061 31866 41497 80202 11023 21069 30224 40229 57011 77172 8272/
AAXX 03061 31959 42598 82401 11024 21084 30135 40178 57034 8552/
AAXX 03061 31989 42599 70402 10026 21054 30104 40157 57025 83530
AAXX 03061 32027 42999 21102 11124 21176 30254 40263 58020 80002 333 91003 91105
AAXX 03061 32076 42599 33501 11072 21147 30250 40261 58020 82401 333 91002 91103
AAXX 03061 32099 42998 30501 11056 21107 30258 40266 58017 80001 333 91002 91104
AAXX 03061 32121 42599 80903 11037 21077 30227 40250 57010 84931 333 91006 91107
AAXX 03061 32213 41598 42712 11029 21049 30156 40222 53010 70283 84500 333 91015 91115
AAXX 03061 32287 42999 71103 11128 21148 30179 40190 53001 87070
AAXX 03061 32408 42999 21003 11142 21162 30147 40188 53009 80001
AAXX 03061 32509 42999 33103 11058 21131 30150 40185 52006 81031
AAXX 03061 32594 41597 73108 11014 21058 30171 40207 53008 73683 87300 333 91010 91114
AAXX 03064 40255 32960 00000 10070 21022 39509 40239 52008 333 20030 30000
AAXX 03064 40260 32960 03104 10030 21093 39436 40238 52006 333 200// 300//
AAXX 03064 40270 31930 00000 10060 21032 39322 40239 52009 70400 333 20034 30103
AAXX 03064 40272 31958 00000 10044 21078 39390 40246 52010 70500 333 21010 30103
AAXX 03064 40290 NIL
AAXX 03064 40340 32960 00110 10100 21018 40212 52015 333 20090 30008
AAXX 03064 61017 NIL
AAXX 03064 61024 32960 40808 10143 21022 39583 40154 80002 333 00900 20138 51781 55/// 58000 84080 P048
AAXX 03064 61036 NIL
AAXX 03064 61043 NIL
AAXX 03064 61045 NIL
AAXX 03064 61049 NIL
AAXX 03064 61052 32960 70404 10184 20013 39872 40129 80008 333 01200 20180 51301 55104 59005 87280
AAXX 03064 61075 NIL
AAXX 03064 61080 NIL
AAXX 03064 61090 NIL
AAXX 03064 61091 NIL
AAXX 03064 61096 NIL
AAXX 03064 61099 NIL
BBXX MINFR09 0306/ 99013 11038 46/// ///// 40086 57021
BBXX MINFR03 0306/ 99280 30153 46/// ///// 10155 40146 52016
AAXX 03064 61017 32960 50000 10107 20013 39760 40178 80002 333 00100 20087 50364 55103 59001 85080
AAXX 03064 61024 32960 40808 10143 21022 39583 40154 80002 333 00900 20138 51781 55/// 58000 84080
AAXX 03064 61036 32962 70000 10210 20029 39889 40126 80008 333 01800 20205 51051 50924 55102 59001 87280
AAXX 03064 61043 32960 70606 10168 21043 39695 40137 80008 333 0//00 20162 51751 5///4 55102 59003 87280
AAXX 03064 61045 31908 70402 10155 21008 39647 40148 7064/ 80008 333 00400 20146 5//// 50714 55107 59005 87280
AAXX 03064 61049 31956 70000 10144 20017 39810 40133 7062/ 80008 333 01100 20135 50871 50764 55105 59001 87280
AAXX 03064 61052 32960 70404 10184 20013 39872 40129 80008 333 01200 20100 51301 55104 59005 87280
AAXX 03064 61075 32960 31002 10190 20017 39819 40128 80002 333 01800 20190 50941 50774 55105 59003 83080
AAXX 03064 61080 32960 70802 10141 21029 39721 40146 80008 333 00400 20130 51081 51074 55102 59001 87280
AAXX 03064 61090 32965 70404 10164 20011 39629 40141 80008 333 01000 20160 51261 50984 55110 59002 87280
AAXX 03064 61091 32965 70000 10115 20039 39699 40161 80008 333 00700 20110 50651 50364 55104 59006 87280
AAXX 03064 61096 31935 70206 10150 21038 39758 40143 70522 80008 333 01300 20145 51281 50884 55101 59004 87280
AAXX 03064 61099 32960 70408 10210 20020 39890 40118 80008 333 01700 20205 51071 55090 58005 87280
AAXX 03064 40250 32960 00000 10024 21077 39343 40249 52007 333 21001 300//
AAXX 03064 40265 32960 01604 10036 21038 39441 40262 52016 333 21020 30106
AAXX 03064 40296 32960 00000 10130 20022 40222 52020 333 20080 30004
AAXX 03064 40310 NIL
AAXX 03061 38844 42999 10000 11002 21097 47510 58004 81030
AAXX 03061 38846 41696 62302 10020 20009 38543 48510 57016 71022 83933
AAXX 03064 61017 32960 50000 10107 20013 39760 40178 80002 333 00100 20087 50364 55103 59001 85080
AAXX 03064 61024 32960 40808 10143 21022 39583 40154 80002 333 00900 20138 51781 55/// 58000 84080
AAXX 03064 61036 32962 70000 10210 20029 39889 40126 80008 333 01800 20205 51051 50924 55102 59001 87280
AAXX 03064 61043 32960 70606 10168 21043 39695 40137 80008 333 0//00 20162 51751 5///4 55102 59003 87280
AAXX 03064 61045 31908 70402 10155 21008 39647 40148 7064/ 80008 333 00400 20146 5//// 50714 55107 59005 87280
AAXX 03064 61049 31956 70000 10144 20017 39810 40133 7062/ 80008 333 01100 20135 50871 50764 55105 59001 87280
AAXX 03064 61052 32960 70404 10184 20013 39872 40129 80008 333 01200 20100 51301 55104 59005 87280
AAXX 03064 61075 32960 31002 10190 20017 39819 40128 80002 333 01800 20190 50941 50774 55105 59003 83080
AAXX 03064 61080 32960 70802 10141 21029 39721 40146 80008 333 00400 20130 51081 51074 55102 59001 87280
AAXX 03064 61090 32965 70404 10164 20011 39629 40141 80008 333 01000 20160 51261 50984 55110 59002 87280
AAXX 03064 61091 32965 70000 10115 20039 39699 40161 80008 333 00700 20110 50651 50364 55104 59006 87280
AAXX 03064 61096 31935 70206 10150 21038 39758 40143 70522 80008 333 01300 20145 51281 50884 55101 59004 87280
AAXX 03064 61099 32960 70408 10210 20020 39890 40118 80008 333 01700 20205 51071 55090 58005 87280
AAXX 03063 42071 31996 09902 10232 20110 40109 70540 333 59045
AAXX 03064 42027 31995 02301 10086 20007 38426 48512 70500 333 59039
AAXX 03064 42101 32996 02703 10240 20130 40103 333 59046
AAXX 03064 42111 31995 02702 10236 20113 39331 40082 70500 333 59053
AAXX 03064 42131 32996 02902 10240 20121 40115 333 59037
AAXX 03064 42165 31995 00000 10280 20093 40112 70500 333 59030
AAXX 03064 42182 31994 02704 10238 20151 40108 70441 333 59044
AAXX 03064 42189 31995 02701 10228 20170 40106 70500 333 59041
AAXX 03064 42260 02304 10246 20151 40113 70540 333 59040
AAXX 03064 42328 32996 19901 10292 20068 40113 80001 333 59029 81075
AAXX 03064 42339 31995 00501 10282 20080 40114 70500 333 59030
AAXX 03064 42348 31995 02506 10260 20098 40112 70400 333 59027
AAXX 03064 42361 31994 00000 10250 20150 40115 71044 333 59037
AAXX 03064 42369 31996 02903 10256 20162 40112 70500 333 59033
AAXX 03064 42379 31995 02701 10262 20145 40101 70500 333 59031
AAXX 03064 42452 31994 00000 10258 20062 40117 70400 333 59031
AAXX 03064 42475 31995 00000 10236 20157 40119 70500 333 59027
AAXX 03064 42071 NIL
AAXX 03064 71462 46/// /2218 10023 21019 30072 40302 58010 6///1 333 7////
AAXX 03064 71464 46/// ///06 10040 30113 40331 58002 6///1 333 10051 20019 7////
AAXX 03064 71466 46/// ///// 10040 30096 40339 58005 6///1 333 7////
AAXX 03064 71351 17/// /2403 11060 21080 69971 7//4/ 333 10056 21116 70007 555 33038 40173
AAXX 03064 71353 16/// /2807 11062 21106 60001 333 10046 21081 70004 555 33248 40083
AAXX 03064 71375 46/// /3611 11090 6///1 333 11029 21092 7//// 555 33318 40001
AAXX 03064 71385 46/// /0110 11036 6///1 333 11011 21040 7//// 555 30517 40221
AAXX 03064 71916 46/// /1502 11354 21386 30114 40172 53006 6///1 333 11272 21354 7////
AAXX 03064 71683 46/// /2812 11199 30046 40160 53034 6///1 333 11154 21234 7////
AAXX 03064 71751 46/// /2017 10014 21055 39888 40148 5/015 6///1 333 10015 21122 7////
AAXX 03064 71010 16/// /2705 11104 21124 60001 333 10059 21106 70000 555 33147 40183
AAXX 03064 71345 17/// /2607 11081 21106 69941 7//4/ 333 10051 21090 70004 555 32139 40063
AAXX 03064 71525 16/// /2908 11095 21113 60001 333 10044 21101 70004 555 32841 40103
AAXX 03064 71526 16/// /2404 11087 21116 60001 333 10060 21092 70000 555 33442 40123
AAXX 03064 71535 16/// /2405 11062 21096 60001 333 10052 21074 70005 555 32438 40083
AAXX 03064 71536 16/// /2206 11031 21082 60001 333 10039 21070 70000 555 32648 40083
AAXX 03064 71537 47/// /2004 11134 21146 6///1 7//4/ 333 10047 21134 7//// 555 33245 40223
AAXX 03064 71214 16/// /3109 11095 21127 60001 333 10056 21095 70000 555 33142 40093
AAXX 03064 71223 16/// /3010 11096 21127 60001 333 10035 21096 70000 555 33151 40193
AAXX 03064 71225 16/// /2509 11092 21112 60001 333 10049 21107 7////
AAXX 03064 71244 16/// /3104 11094 21122 39002 40259 51012 60001 333 10045 21094 70003 555 32659 40073
AAXX 03064 71257 16/// /2507 11115 21132 60001 333 10040 21119 70000 555 33346 40093
AAXX 03064 71258 16/// /2110 11098 21123 60001 333 10038 21100 70000 555 33143 40203
AAXX 03064 71259 16/// /2407 11136 21152 60001 333 10040 21142 70000 555 33242 40113
AAXX 03064 71274 46/// /1902 11123 21136 6///1 333 7////
AAXX 03064 71275 46/// /1902 11130 21145 6///1 333 10034 21140 7////
AAXX 03064 71278 16/// /2805 11115 21134 60001 333 10056 21115 7////
AAXX 03064 71286 16/// /2204 11107 21124 60001 333 10049 21107 70000 555 33045 40083
AAXX 03064 71287 17/// /2103 11108 21121 69941 7//4/ 333 10041 21121 70009 555 33340 40153
AAXX 03064 71289 16/// /2608 11090 21112 60001 333 10053 21098 70000 555 33246 40183
AAXX 03061 01025 17/84 61807 10008 21031 39789 49800 58001 60022 700// 333 21004 70123 91113
AAXX 03061 01311 47/60 /2210 10074 20036 39656 49715 56046 724// 333 20020 91127
AAXX 03064 63729 32480 42403 10218 20198 38867 48/// 81932 333 20186 50381 55107 55302 59019 81618 81920 83359
AAXX 03064 63733 12580 30905 10230 20180 38860 48501 60014 81909 333 0//18 20180 50421 55080 55309 59016 81921 83176
AAXX 03064 63791 32580 71110 10239 20178 39139 48523 872// 333 20195 50801 55111 55302 59007 87826
AAXX 03064 63801 32580 70903 10245 20201 39196 48530 81901 333 20208 50601 55113 55310 59017 81820 81922 87075
AAXX 03064 63832 01480 60000 10230 20184 38825 48498 60024 70222 82231 333 0//19 20178 50051 55074 55300 59013 82818 84358
AAXX 03064 63862 32580 30811 10226 20171 38906 48517 83531 333 20194 51001 55114 55310 59012 83620
AAXX 03064 63866 32580 40000 10254 20230 39516 48/// 84200 333 20212 50651 55095 55310 59024 84822
AAXX 03064 63870 12580 30305 10294 20246 30097 40115 60024 83900 333 0//59 20228 50301 55461 55098 59016 83820 81922
AAXX 03064 63881 32580 20711 10214 20113 38201 48/// 82200 333 20128 50701 55018 55310 59011 82820
AAXX 03064 63887 32480 20000 10245 20120 38590 48516 82100 333 20160 50601 55109 55310 59013 82819
AAXX 03064 63894 12580 60606 10276 20248 30058 40118 60204 86900 333 0//19 20234 50268 55073 55302 59017 70196 86823 81924
AAXX 03064 63932 32980 10208 20132 38311 48507 333 20133 50750 55091 5310 59012
AAXX 03064 63962 32580 30210 10235 20190 38960 48521 83200 333 20184 50601 55104 55308 59011 83820
AAXX 03064 63971 32580 50512 10290 20243 39981 40109 85200 333 20247 50701 55118 55310 59021 85824
AAXX 03064 63756 NIL
AAXX 03064 61017 32960 50000 10107 20013 39760 40178 80002 333 00100 20087 50364 55103 59001 85080
AAXX 03064 61036 32962 70000 10210 20029 39889 40126 80008 333 01800 20205 51051 50924 55102 59001 87280
AAXX 03064 61043 32960 70606 10168 21043 39695 40137 80008 333 0//00 20162 51751 5///4 55102 59003 87280
AAXX 03064 61045 31908 70402 10155 21008 39647 40148 7064/ 80008 333 00400 20146 5//// 50714 55107 59005 87280
AAXX 03064 61049 31956 70000 10144 20017 39810 40133 7062/ 80008 333 01100 20135 50871 50764 55105 59001 87280
AAXX 03064 61075 32960 31002 10190 20017 39819 40128 80002 333 01800 20190 50941 50774 55105 59003 83080
AAXX 03064 61080 32960 70802 10141 21029 39721 40146 80008 333 00400 20130 51081 51074 55102 59001 87280
AAXX 03064 61090 32965 70404 10164 20011 39629 40141 80008 333 01000 20160 51261 50984 55110 59002 87280
AAXX 03064 61091 32965 70000 10115 20039 39699 40161 80008 333 00700 20110 50651 50364 55104 59006 87280
AAXX 03064 61096 31935 70206 10150 21038 39758 40143 70522 80008 333 01300 20145 51281 50884 55101 59004 87280
AAXX 03064 61099 32960 70408 10210 20020 39890 40118 80008 333 01700 20205 51071 55090 58005 87280
AAXX 03064 71351 17/// /2403 11060 21080 69971 7//4/ 333 10056 21116 70007 555 33038 40173
AAXX 03064 71353 16/// /2807 11062 21106 60001 333 10046 21081 70004 555 33248 40083
AAXX 03064 71375 46/// /3611 11090 6///1 333 11029 21092 7//// 555 33318 40001
AAXX 03064 71385 46/// /0110 11036 6///1 333 11011 21040 7//// 555 30517 40221
AAXX 03064 71214 16/// /3109 11095 21127 60001 333 10056 21095 70000 555 33142 40093
AAXX 03064 71223 16/// /3010 11096 21127 60001 333 10035 21096 70000 555 33151 40193
AAXX 03064 71225 16/// /2509 11092 21112 60001 333 10049 21107 7////
AAXX 03064 71244 16/// /3104 11094 21122 39002 40259 51012 60001 333 10045 21094 70003 555 32659 40073
AAXX 03064 71916 46/// /1502 11354 21386 30114 40172 53006 6///1 333 11272 21354 7////
AAXX 03064 71345 17/// /2607 11081 21106 69941 7//4/ 333 10051 21090 70004 555 32139 40063
AAXX 03061 51711 32980 00704 10053 21057 37962 57007 333 05101 21052
AAXX 03061 51730 32975 70402 10069 21025 40182 57011 80002 333 05101 21063
AAXX 03061 52112 32980 73203 10019 21079 40225 57012 80002 333 05301 21063
AAXX 03061 52737 32980 32203 10004 21225 37051 57006 80002 333 00052 21125
AAXX 03061 52787 32780 70213 11069 21114 36974 57003 82502 333 05157 21081
AAXX 03061 53352 32980 41401 11065 21126 40327 57012 80002 333 21242
AAXX 03061 53593 32970 30402 11033 21115 40284 57020 80002 333 21129
AAXX 03061 53705 32965 80703 10000 21032 40228 57002 8802/ 333 05251 21031
AAXX 03061 53863 31930 80000 11050 21055 40294 57017 71040 8802/ 333 21076
AAXX 03061 53975 32961 60902 10038 21032 40248 57025 80002 333 21031
AAXX 03061 54273 32970 42504 11042 21114 40222 57004 80002 333 21156
AAXX 03061 54324 32970 00702 10005 21143 40258 57014 333 21120
AAXX 03061 54405 32970 02504 10008 21152 40263 57023 333 21101
AAXX 03061 54436 32780 22701 10045 21083 40258 57016 82500 333 21074
AAXX 03061 54808 31907 82701 11013 21019 40273 57012 74444 8802/ 333 21033
AAXX 03061 54826 32960 02001 11017 21100 38468 57006 333 21084
AAXX 03061 54836 32966 00000 10052 21076 40259 57016 333 21037
AAXX 03061 54863 32562 83203 10057 21015 40237 57003 885// 333 20010
AAXX 03061 56018 32980 02202 10034 21181 36130 57027 333 05603 21124
AAXX 03061 56021 32980 72702 10008 21175 36036 57019 80002 333 05301 21130
AAXX 03061 57071 31930 81101 10027 21001 40256 57021 71000 8807/ 333 20011
AAXX 03064 71462 46/// /2218 10023 21019 30072 40302 58010 6///1 333 7////
AAXX 03064 71464 46/// ///06 10040 30113 40331 58002 6///1 333 10051 20019 7////
AAXX 03064 71466 46/// ///// 10040 30096 40339 58005 6///1 333 7////
AAXX 03064 71257 16/// /2507 11115 21132 60001 333 10040 21119 70000 555 33346 40093
AAXX 03064 71258 16/// /2110 11098 21123 60001 333 10038 21100 70000 555 33143 40203
AAXX 03064 71259 16/// /2407 11136 21152 60001 333 10040 21142 70000 555 33242 40113
AAXX 03064 71274 46/// /1902 11123 21136 6///1 333 7////
AAXX 03064 71275 46/// /1902 11130 21145 6///1 333 10034 21140 7////
AAXX 03064 71278 16/// /2805 11115 21134 60001 333 10056 21115 7////
AAXX 03064 71286 16/// /2204 11107 21124 60001 333 10049 21107 70000 555 33045 40083
AAXX 03064 71287 17/// /2103 11108 21121 69941 7//4/ 333 10041 21121 70009 555 33340 40153
AAXX 03064 71289 16/// /2608 11090 21112 60001 333 10053 21098 70000 555 33246 40183
AAXX 03064 71751 46/// /2017 10014 21055 39888 40148 5/015 6///1 333 10015 21122 7////
AAXX 03064 71683 46/// /2812 11199 30046 40160 53034 6///1 333 11154 21234 7////
AAXX 03064 71010 16/// /2705 11104 21124 60001 333 10059 21106 70000 555 33147 40183
AAXX 03064 71525 16/// /2908 11095 21113 60001 333 10044 21101 70004 555 32841 40103
AAXX 03064 71526 16/// /2404 11087 21116 60001 333 10060 21092 70000 555 33442 40123
AAXX 03064 71535 16/// /2405 11062 21096 60001 333 10052 21074 70005 555 32438 40083
AAXX 03064 71536 16/// /2206 11031 21082 60001 333 10039 21070 70000 555 32648 40083
AAXX 03064 71537 47/// /2004 11134 21146 6///1 7//4/ 333 10047 21134 7//// 555 33245 40223
AAXX 03061 47101 41670 61102 10067 20023 30076 40171 50002 72162 86500
AAXX 03061 47105 469// /2703 10047 20036 30134 40166 52005
AAXX 03061 47108 32670 53603 10082 20006 30065 40170 53002 85500
AAXX 03061 47115 41460 80724 10064 20035 39839 40109 53008 72166 8672/ 333 92056
AAXX 03061 47133 32668 33404 10092 20018 30089 40173 52008 83500
AAXX 03061 47138 32570 83604 10097 20052 30141 40144 53017 8552/ 333 92012
AAXX 03061 47159 32675 53611 10112 20029 30049 40133 52017 85500 333 92024
AAXX 03061 47165 32670 50216 10102 20036 30125 40171 52013 85500 333 92035
AAXX 03061 47168 32675 33415 10118 21007 30062 40140 53007 83500 333 92024
AAXX 03061 47184 32570 63413 10119 20059 30136 40161 53007 85800 333 92054
AAXX 03061 47003 42580 80501 10014 21041 30181 40185 57019 885//
AAXX 03061 47005 11680 73202 11041 21095 38557 57008 69911 70172 87500
AAXX 03061 47022 42475 83601 11001 21065 38790 57013 86502
AAXX 03061 47028 42667 73202 10058 21018 30092 40186 57007 87500
AAXX 03061 47031 42570 60000 11016 21053 38887 57010 86500
AAXX 03061 47037 42570 72701 10071 21027 30057 40179 57007 87500
AAXX 03061 47039 12560 60000 10046 20018 39995 40186 57013 60011 84501
AAXX 03061 47046 42569 80000 10063 21032 30150 40173 57010 83532
AAXX 03061 47050 42565 60000 10064 20002 30225 40259 52015 86500
AAXX 03061 47052 42565 80000 10042 20008 39846 40185 57004 885//
AAXX 03061 47060 42560 43603 10066 20008 30124 40182 58003 84100
AAXX 03061 47061 11680 83203 10043 20041 30139 40183 54000 60091 70262 885//
AAXX 03061 47065 42565 43202 10064 20017 30124 40189 58005 85500
AAXX 03061 47067 42570 80000 10066 20027 30078 40198 57001 85100
AAXX 03061 47068 42570 63603 10074 21000 30148 40183 54000 83230
AAXX 03061 47070 42580 53602 10082 20027 30092 40178 54000 85500
AAXX 03061 47075 12580 80000 10055 21006 39663 40085 52008 69911 885//
AAXX 03061 47008 12470 80502 10016 21019 30137 40192 57010 69901 8555/
AAXX 03061 47014 42650 50000 10022 21070 39778 40154 57028 85500
AAXX 03061 47016 11970 62705 11002 21079 39301 40174 58043 69901 70172 83084
AAXX 03061 47020 12565 60000 10044 21001 39813 40190 57011 69901 86500
AAXX 03061 47025 42568 83603 10043 20001 30157 40186 57011 885//
AAXX 03061 47035 42970 23602 10068 21022 30187 40196 57006 82030
AAXX 03061 47041 42570 70000 10051 20010 30146 40173 57004 87530
AAXX 03061 47055 11570 60000 10034 20029 30137 40182 57012 60031 70172 86040
AAXX 03061 47058 42560 62903 10067 20012 30141 40188 58005 85109
AAXX 03061 47069 42665 33403 10091 20061 30082 40180 54000 83500
AAXX 03064 68513 36/// /1214 10175 20104 30036 40148 52003 333 20122 91019 555 10232 91014
AAXX 03064 68514 NIL
AAXX 03064 68523 36/// /1107 10207 20064 39138 48553 53007 333 20160 91011 555 10308 91020
AAXX 03064 68527 36/// /1009 10211 20098 39101 48543 52008 333 20178 91016 555 10320 91019
AAXX 03064 68572 11462 71806 10129 20097 38423 48532 52010 60024 70355 876// 333 20110 91010 555 10223 20020 91022
AAXX 03064 68575 16/// /2503 10163 20110 39124 48543 53007 60014 333 20142 91006 555 10223 20014 91020
AAXX 03064 68581 NIL
AAXX 03064 68583 16/// /2306 10207 20167 30064 40174 53011 60014 333 20194 91011 555 10269 20016 91017
AAXX 03064 68589 16/// /0304 10129 20116 38269 48532 52011 60034 333 20122 91007 555 10236 20032 69925 91022
AAXX 03064 68613 36/// /1904 10177 20101 30070 40186 53002 333 20113 91007 555 10235 91018
AAXX 03064 68647 36/// /2104 10153 20083 38964 48556 52012 333 20121 91006 555 10240 91023
AAXX 03064 68651 16/// /2005 10124 20090 38602 48562 53007 60014 333 20109 91007 555 10192 20012 91025
AAXX 03064 68715 36/// /1106 10220 20056 30065 40191 52005 333 20153 91011 555 10291 91019
AAXX 03064 68717 36/// /2102 10188 20096 30037 40181 52004 333 20130 91004 555 10309 91018
AAXX 03064 68723 36/// /2006 10166 20070 39454 48571 53005 333 20136 91014 555 10289 91022
AAXX 03064 68737 32670 82005 10153 20081 39304 48564 52008 885// 333 20132 91007 555 10240 91022
AAXX 03064 68744 36/// /1409 10145 20091 39149 48551 52011 333 20119 91014 555 10245 91022
AAXX 03064 68747 36/// /1906 10164 20127 39685 48581 53012 333 20145 91009 555 10239 91022
AAXX 03064 68754 16/// /2106 10171 20126 39189 48570 53011 69964 333 20120 91013 555 10234 20006 91023
AAXX 03064 68817 36/// /1619 10195 20126 30190 40203 53007 333 20171 91031 555 10263 91020
AAXX 03064 68821 36/// /1513 10173 20100 39976 40217 53006 333 20125 91018 555 10286 91022
AAXX 03064 68835 36/// /3302 10181 20121 30106 40221 53011 333 20154 91004 555 10245 91022
AAXX 03064 68843 16/// /2709 10186 20143 30104 40203 53010 69984 333 20153 91014 555 10216 20008 91020
AAXX 03064 68849 16/// /2509 10143 20107 39467 48562 53011 69984 333 20123 91017 555 10194 20008 91022
AAXX 03064 68912 36/// /1418 10171 20128 30209 40218 52010 333 20149 91027 555 10195 91021
AAXX 03064 68918 36/// /1207 10168 20137 30214 40233 53010 333 20143 91010 555 10195 91023
AAXX 03064 68921 36/// /1412 10181 20138 30229 40232 53010 333 20161 91018 555 10233 91023
AAXX 03064 68925 36/// /1204 10155 20113 39853 40221 53005 333 20114 91014 555 10232 91022
AAXX 03064 68926 36/// /2504 10181 20121 30050 40230 52008 333 20136 91007 555 10275 91023
AAXX 03064 68935 16/// /2805 10186 20126 30161 40225 53010 69964 333 20156 91009 555 10235 20006 91022
AAXX 03064 61600 32960 30204 10196 20097 30121 40126 83080 333 20188 50704 55073 58004 83363
AAXX 03064 61612 32960 00000 10194 20020 30125 40133 333 02000 20189 50681 55085 58008
AAXX 03064 61627 32958 30204 10175 20036 3//// 4//// 80002 333 00800 20172 50624 55067 5//// 83073
AAXX 03064 61630 32960 00000 10190 20045 30101 40120 333 01600 20177 50642 55068 58008
AAXX 03064 61666 32956 20406 10165 20120 30110 40118 80002 333 01600 20127 50434 55052 58005 82073
AAXX 03064 61679 32958 03604 10177 20121 30124 40132 333 01800 20177 50634 55032 58010
AAXX 03064 61687 32958 20406 10200 20047 30060 40117 82030 333 01300 20165 50771 55062 58025 82363
AAXX 03064 61695 32958 30802 10185 20180 30095 40121 80002 333 01700 20180 50264 55062 58007 83073
AAXX 03064 61697 32960 20604 10205 20202 30102 40117 80002 333 01800 20192 50224 55054 58002 82073
AAXX 03064 61698 32958 00000 10147 20131 30111 40122 333 01300 20145 50224 55014 58007
AAXX 03064 61699 32958 01006 10188 20116 39914 40102 333 01500 20177 50584 55085 58010
AAXX 03064 64450 11459 72806 10240 20224 39740 40092 60254 70362 8592/ 333 01919 20224 50224 55078 59013 82810 85626 81930 87463 81930 94942 95832
BBXX 46208 03061 99525 71327 46/// ///// 1//// 4//// 5//// 22200 0//// 1//// 70/// 333 912//
AAXX 03064 67789 32980 10902 10270 20129 38/// 48/// 80001 333 20191 5//// 81080
AAXX 03061 01271 17/84 11205 10022 21066 39744 49764 58057 60002 700// 333 21012 70025 91112
AAXX 03061 01415 17/61 72206 10073 20048 39760 49770 56047 6//// 723// 333 20020 70140 91122
AAXX 03064 67002 12581 12805 10300 20228 30087 40120 69974 81832 333 20243 55/// 59020 81820 92408
AAXX 03064 67009 NIL
AAXX 03064 67012 12582 72406 10280 20244 30106 40115 51005 60334 878// 333 0//27 10310 20239 50204 55/// 85820 85640 = RR =33,1MM 67025 32581 32002 10301 20220 30007 40106 52004 83800 333 0//00 10322 20231 50274 55/// 82820 555 82640
AAXX 03064 67027 32582 70412 10272 20234 30084 40105 50006 8483/ 333 02100 10314 20259 50204 55027 82820 83640 86360
AAXX 03064 67045 NIL
AAXX 03064 67072 32481 31006 10300 20226 30118 40121 51002 83801 333 02100 10310 20246 50324 55/// 83817 92418 555 81640 81075
AAXX 03064 67073 32582 1//// 10322 20210 30073 40099 54000 81802 333 0//00 10330 20255 50//4 55/// 81823 555 81640 81073
AAXX 03064 67083 12482 60000 10224 20173 38734 48509 53005 60374 85802 333 01028 20184 50204 55042 85820 = RR=37,3MM 67095 11480 71002 10289 20236 30108 40114 51004 60034 70361 86802 333 02316 10306 20234 50364 55/// 84817 85633 555 81073=2.5 67113 32580 4/// 10276 20245 30/// 40// 5/// 84800 333 0//00 10299 20238 50244 55/// 84820 555 81640
AAXX 03064 67117 NIL
AAXX 03064 67137 12475 2//02 10230 20190 38878 48485 51001 60054 82200 333 0//19 10286 20188 50144 55/// 82817 = RR= 4,7MM 67143 32581 2//// 10/// 20/// 30104 40111 52001 82800 333 0//00 10/// 20/// 50//4 55/// 81820 92438 555 82640
AAXX 03064 67152 32582 1//// 10252 20198 39184 48499 51004 81200 333 01800 10340 20182 50794 55/// 81820
AAXX 03064 67157 32575 7//// 10/// 20/// 30128 40135 51005 878// 333 0//00 10/// 20/// 50//4 55/// 83820 85640
AAXX 03064 67161 NIL
AAXX 03064 67197 12582 52204 10272 20217 30082 40092 52007 69954 85800 333 01519 10290 20230 50574 55097 82820 84633
AAXX 03061 47090 31559 83404 10060 20033 30147 40169 53001 72162 8572/ 333 92042
AAXX 03061 47095 32570 73603 10061 20012 39982 40170 51002 87500
AAXX 03061 47097 329// /3603 10079 20021 30075 40170 52005
AAXX 03061 47098 429// /3202 10060 20022 30036 40170 52004
AAXX 03061 47099 329// /3604 10088 20025 30136 40172 54000
AAXX 03061 47100 41258 81605 10012 21010 39242 40164 53004 77077 8672/
AAXX 03061 47102 41668 70708 10046 20034 30013 40192 53003 76062 87500
AAXX 03061 47104 41570 82706 10052 20028 30068 40166 52005 72162 8552/
AAXX 03061 47106 429// /3205 10046 20029 30111 40160 52010
AAXX 03061 47112 32672 33210 10090 20011 30088 40171 53003 83500 333 92013
AAXX 03061 47114 32668 72702 10055 20023 39987 40170 52008 87500
AAXX 03061 47119 32670 53406 10083 20012 30130 40172 52004 85500
AAXX 03061 47121 429// /3602 10042 20030 39874 40169 53002
AAXX 03061 47127 329// /3203 10060 20031 30032 40174 52009
AAXX 03061 47129 32672 23409 10098 20019 30146 40181 53006 82500
AAXX 03061 47130 41563 82910 10048 20043 30092 40154 52021 76166 8672/ 333 92043
AAXX 03061 47131 32670 52904 10085 20009 30102 40172 52009 85500
AAXX 03061 47135 329// /2910 10070 20008 39867 40163 52013
AAXX 03061 47136 32670 73203 10076 20050 39984 40154 53009 87500
AAXX 03061 47137 329// /3208 10076 20012 30046 40163 53016
AAXX 03061 47140 32672 53210 10101 20004 30148 40176 52009 85500 333 92013
AAXX 03061 47143 32575 62905 10092 20040 30081 40159 53010 86500
AAXX 03061 47145 32668 22906 10098 20033 30139 40165 52006 82500
AAXX 03061 47146 32670 33408 10096 20007 30109 40174 52012 83500
AAXX 03061 47150 32670 33406 10102 21006 30157 40176 52007 83500
AAXX 03061 47152 32570 63212 10098 20045 30094 40136 53015 86500
AAXX 03061 47154 329// /2908 10088 20014 30100 40160 53012
AAXX 03061 47155 32675 21607 10107 20034 30094 40139 53008 82500
AAXX 03061 47156 32677 30211 10108 20021 30084 40172 52014 83500
AAXX 03061 47157 32970 03208 10096 21008 39876 40141 53013
AAXX 03061 47162 32575 20511 10123 20027 30095 40134 53006 82500 333 92024
AAXX 03061 47169 32670 73618 10097 20046 30083 40176 52011 87500 333 92065
AAXX 03061 47170 32675 23410 10111 20031 30116 40159 52009 82500 333 92023
AAXX 03061 47171 329// /3605 10101 20026 30122 40176 52012
AAXX 03061 47172 329// /3209 10103 20008 30104 40170 52012
AAXX 03061 47173 329// /3410 10099 20002 30056 40166 53014
AAXX 03061 47174 32670 33207 10113 20012 39951 40148 53006 83500
AAXX 03061 47175 32570 23412 10070 20020 39593 40160 52008 82500 333 92024
AAXX 03061 47185 41570 63228 10117 20068 30066 40155 53008 72161 86800 333 92047
AAXX 03061 47188 41670 53407 10125 20067 30123 40144 53003 72162 85500 333 92033
AAXX 03061 47189 41670 50206 10134 20067 30089 40147 54000 76062 85500 333 92033
AAXX 03061 47192 32675 23410 10120 21026 30109 40145 53011 82500
AAXX 03064 67017 NIL
AAXX 03064 67020 12582 83002 10280 20237 30084 40111 50005 60074 82876 333 02469 10361 20238 50404 55/// 82820 83460 85273 555 81640
AAXX 03064 67023 NIL
AAXX 03064 67037 32582 6//// 10/// 20/// 30057 40098 5/010 85201 333 0//00 10/// 20/// 50//4 55/// 85820 555 82073
AAXX 03064 67067 11565 7//// 10222 20187 39246 48/// 51006 60134 71062 878// 333 0//66 10293 20190 50624 55/// 83823 85630
AAXX 03064 67107 NIL
AAXX 03064 67131 32982 03206 10/// 20/// 30086 40091 51002 333 0//00 10/// 20/// 50//4 55///
BBXX 46208 03061 99525 71327 46/// ///// 1//// 4//// 5//// 22200 0//// 1//// 70/// 333 912//
AAXX 03064 68514 NIL
AAXX 03064 68581 NIL
AAXX 03061 50548 32980 73402 11146 21194 40272 57018 82032 333 21268
AAXX 03061 50564 11965 83602 11146 21174 40266 57018 69911 77070 8801/ 333 21227
AAXX 03061 51334 32975 70000 10041 21021 40246 52001 82032 333 00103 20008
AAXX 03061 51818 32965 03201 10085 21050 40153 57018 333 00001 21033
AAXX 03061 52378 32980 73201 11024 21104 40266 57012 80002 333 05154 21105
AAXX 03061 53487 32960 61402 11020 21103 40275 57024 80002 333 21147
AAXX 03061 53502 32980 80202 11023 21088 40269 57006 8802/ 333 05153 21101
AAXX 03061 53923 32980 81604 11008 21035 40221 57016 8807/ 333 21020
AAXX 03061 54049 32970 03203 11059 21167 40241 57006 333 21116
AAXX 03061 54115 32680 12901 11031 21167 40271 57013 81540 333 21163
AAXX 03061 54157 32968 02902 11032 21124 40240 57006 333 21093
AAXX 03061 54186 32962 70901 11040 21122 40206 57007 80002 333 21140
AAXX 03061 54311 32980 22503 11043 21189 40270 57018 80002 333 21143
AAXX 03061 54346 32965 03603 11009 21122 40242 54000 333 21038
AAXX 03061 54377 32570 60000 10030 21023 40196 57008 86200 333 21034
AAXX 03061 54386 11570 52506 11009 21066 40177 57004 69901 70070 85900 333 21063
AAXX 03061 54493 32574 62904 10033 21044 40205 57001 86800 333 21032
AAXX 03061 54587 NIL
AAXX 03061 54715 31905 83401 11020 21030 40272 57010 74244 8802/ 333 21050
AAXX 03061 54929 32970 02701 10071 21066 40258 57015 333 21019
AAXX 03061 54945 32962 03403 10068 21052 40251 57014 333 20007
AAXX 03061 56065 32680 72907 10049 21181 36562 57015 82208 333 05302 21125
AAXX 03061 57193 31658 20901 10039 20006 40263 57020 71040 82500 333 21009
AAXX 03061 57290 32960 62701 10056 20008 40259 57017 86030 333 20012
AAXX 0306/ 89872 46/// ///// 11048 39669 4//// 5////
AAXX 0306/ 89327 46/// ///// 11016 39689 4//// 5////
AAXX 0306/ 89769 46/// ///// 11059 39687 4//// 5////
AAXX 0306/ 89108 46/// ///// 11269 36876 4//// 5////
AAXX 0306/ 89314 46/// ///// 11124 38128 4//// 5////
AAXX 03064 42559 32996 30000 10256 20135 40104 80002 333 59022 83075
AAXX 03064 42571 31996 02301 10242 20128 40106 70500 333 59027
AAXX 03064 42667 31995 01803 10254 20111 39529 40109 70500 333 59021
AAXX 03064 42675 32996 00000 10234 20126 40114 70500 333 59016
AAXX 03064 42754 31995 00204 10262 20090 39475 40099 70500 333 59024
AAXX 03064 42779 31996 00901 10264 20140 4//// 70500 333 58///
AAXX 03064 42867 31996 00903 10260 20126 40107 70500 333 59016
AAXX 03064 42874 32996 01802 10264 20140 40102 333 59013
AAXX 03064 42933 32997 00000 10290 20093 40104 333 59019
AAXX 03064 43041 32996 00502 10252 20126 39489 40097 333 59011
AAXX 03064 68174 31465 50206 10193 20152 38798 48522 52011 70522 82580 333 20171 91011 555 10277 91019
AAXX 03064 68191 NIL
AAXX 03064 68242 32980 02804 10222 20114 38721 48503 53010 333 20152 91006 555 10308 91017
AAXX 03064 68262 36/// /0504 10236 20147 38705 48515 52015 333 20169 91006 555 10292 91018
AAXX 03064 68263 32880 13305 10218 20138 38488 48513 52012 81030 333 20161 91008 555 10264 91020
AAXX 03064 68267 31460 60512 10159 20130 38256 48528 5//// 70522 86500 333 2//// 555 1//// 91022
AAXX 03064 68289 16/// /0704 10176 20161 39173 48538 53010 69964 333 20174 91007 555 10283 20006 91019
AAXX 03064 68350 36/// /3105 10248 20135 38664 48518 53002 333 20129 91010 555 10334 91019
AAXX 03064 68368 12984 13513 10211 20142 38325 48515 51015 69944 81070 333 20170 555 10248 20004 91021
AAXX 03064 68403 36/// /1705 10163 20113 30136 40169 53003 333 20128 91007 555 10223 91016
AAXX 03064 68424 32982 01113 10254 20068 39200 48534 52012 333 20162 91019 555 10346 91016
AAXX 03064 68438 12982 01413 10191 20104 38834 48527 53016 69924 333 20115 91019 555 10320 20002 91019
AAXX 03064 68442 32982 01512 10189 20089 38673 48525 53012 333 20120 91017 555 10274 91020
AAXX 03064 68461 32480 21107 10178 20125 38329 48514 53002 82500 333 20106 91011 555 10253 91020
AAXX 03064 68512 32982 01215 10192 20083 39024 48522 52006 333 20149 91023 555 10274 91018
AAXX 03064 68538 32682 21117 10169 20096 38752 48535 53010 82500 333 20120 91024 555 10291 91021
AAXX 03064 68587 16/// /2208 10216 20162 30159 40171 53008 69964 333 20184 91012 555 10241 20006 91017
AAXX 03064 68588 16/// /2207 10212 20162 30164 40180 52008 60014 333 20194 91012 555 10266 20014 91018
AAXX 03064 68591 16/// /2307 10218 20170 39999 40178 52006 60014 333 20187 91011 555 10253 20012 91018
AAXX 03064 68592 NIL
AAXX 03064 68618 32980 00808 10196 20081 39083 48550 52010 333 20109 91014 555 10282 91020
AAXX 03064 68633 36/// /1512 10129 20065 38538 48532 52015 333 20103 91021 555 10270 91022
AAXX 03064 68668 12570 42414 10187 20103 39338 48561 53012 60014 84500 333 20135 91020 555 10243 20012 91020
AAXX 03064 68714 36/// /1711 10199 20074 30148 40184 52003 333 20137 91018 555 10252 91018
AAXX 03064 68727 36/// /1107 10143 20083 39175 48548 52012 333 20128 91013 555 10252 91021
AAXX 03064 68752 16/// /2411 10155 20135 39525 48567 52015 69924 333 20141 91014 555 10218 20002 91021
AAXX 03064 68816 32582 11523 10187 20123 30151 40205 53012 81500 333 20160 91031 555 10239 91020
AAXX 03064 68828 12570 42909 10176 20136 39989 40223 53013 69944 84500 333 20134 555 10223 20004 91022
AAXX 03064 68842 11470 72512 10170 20140 30140 40211 53017 60022 72161 85670 333 20140 555 10227 20016 91021
AAXX 03064 68858 12482 62610 10179 20158 30045 40202 51019 60022 86500 333 20153 555 10225 20018 91020
AAXX 03064 68906 32498 73510 10157 20121 30153 40218 58002 8517/ 222// 00125 333 20151 91025 555 10208 91021
AAXX 03064 68994 12598 32304 10073 21003 30026 40055 52015 60014 81530 222// 00057 333 20031 91010 555 10087 20010 91005
AAXX 03064 89004 31260 51013 11167 21195 38796 49839 51003 70244 82537 333 21179 91019 555 11088
AAXX 03063 67765 12982 11807 10241 20158 38665 48510 69924 81082 333 20203 81360
AAXX 03064 67765 12982 11807 10241 20158 38665 48510 69924 81082 333 20203 59016 81360
AAXX 03061 38196 11498 83202 11036 21068 39302 40310 52009 60040 70272 886// 333 21055
AAXX 03061 38198 12597 60000 10008 21018 30054 40318 52005 60010 82480 333 21016
AAXX 03061 38328 11595 82901 11006 21015 39568 40313 53005 60050 78584 889// 333 21011
AAXX 03061 38334 11/91 93003 11022 21025 39324 40310 58001 60100 77174 333 21028 96045
AAXX 03061 38439 12598 71501 10042 20008 39964 40305 53002 69980 86501 333 20016
AAXX 03061 38196 11498 83202 11036 21068 39302 40310 52009 60040 70272 886// 333 21055
AAXX 03061 38198 12597 60000 10008 21018 30054 40318 52005 60010 82480 333 21016
AAXX 03061 38328 11595 82901 11006 21015 39568 40313 53005 60050 78584 889// 333 21011
AAXX 03061 38334 11/91 93003 11022 21025 39324 40310 58001 60100 77174 333 21028 96045
AAXX 03061 38439 12598 71501 10042 20008 39964 40305 53002 69980 86501 333 20016
BBXX 46206 03061 99488 71260 46/// /3303 10086 40328 52001 22200 00097 11206 70030 333 91205
AAXX 03064 61202 32965 41004 10164 21069 39587 40140 80002 333 01500 20158 51254 55100 59007 84075
AAXX 03064 61214 NIL
AAXX 03064 61223 32960 50602 10150 21001 39838 40149 80002 333 01200 20150 50844 55105 59006 85075
AAXX 03064 61226 32960 30000 10196 20049 39842 40136 80002 333 01300 20186 50984 55085 59001 83075
AAXX 03064 61230 NIL
AAXX 03064 61233 32960 60000 10178 20003 3//// 4//// 80002 333 00700 20175 50934 55/// 5//// 86075
AAXX 03064 61235 32960 63406 10220 20036 3//// 4//// 80002 333 02700 20215 51854 55091 5//// 86075
AAXX 03064 61240 32960 20000 10185 20035 39808 40133 80002 333 01800 20176 51054 55101 59003 82075
AAXX 03064 61250 32960 30000 10175 20054 3//// 4//// 80002 333 01600 20175 51094 55102 5//// 83075
AAXX 03064 61257 31958 01604 10165 20015 30066 40160 70600 333 01300 20165 50334 55092 58006
AAXX 03064 61265 32965 00404 10162 20037 39816 40123 333 01400 20158 50091 55104 59002
AAXX 03064 61270 32960 33604 10215 20013 3//// 4//// 80002 333 01400 20170 50804 55089 5//// 83075
AAXX 03064 61272 32960 10804 10186 20081 39793 40118 80002 333 01300 20186 5//// 55096 59010 81075
AAXX 03064 61277 32960 00000 10182 20088 39802 40121 333 01400 20176 50851 55100 58000
AAXX 03064 61285 31958 40000 10140 20088 39974 40126 70611 80002 333 01100 20138 50534 55084 58011 84075
AAXX 03064 61291 32960 00407 10222 20005 39700 40107 333 00600 20120 51041 55076 58000
AAXX 03064 61293 32960 40000 10155 20081 3//// 4//// 80002 333 01100 20155 50600 55103 5//// 84075
AAXX 03064 61296 32960 60000 10152 20100 3//// 4//// 81072 333 00800 20148 50580 55092 5//// 81365 86075
AAXX 03064 61297 32960 70000 10160 20105 3//// 4//// 80002 333 01100 20158 51011 55104 5//// 87075
AAXX 03064 60612 36/// /3408 10072 21051 333 20069
AAXX 03064 60692 36/// /0106 10136 21042 333 20127
AAXX 03064 60621 36/// /0504 10081 20009 333 20075
AAXX 03064 60664 36/// /0000 10094 21030 333 20082
AAXX 03064 60667 36/// /0000 10108 21034 333 20107
AAXX 03064 61017 NIL
AAXX 03064 61024 32960 40808 10143 21022 39583 40154 80002 333 00900 20138 51781 55/// 58000 84080
AAXX 03064 61036 NIL
AAXX 03064 61043 NIL
AAXX 03064 61045 NIL
AAXX 03064 61049 NIL
AAXX 03064 61052 32960 70404 10184 20013 39872 40129 80008 333 01200 20180 51301 55104 59005 87280
AAXX 03064 61075 NIL
AAXX 03064 61080 NIL
AAXX 03064 61090 NIL
AAXX 03064 61091 NIL
AAXX 03064 61096 NIL
AAXX 03064 61099 NIL
AAXX 03064 60676 36/// /0000 10074 21002 333 20070
AAXX 03064 60691 36/// /0704 10120 21055 333 20119
BBXX 46206 03061 99488 71260 46/// /3303 10086 40328 52001 22200 00097 11206 70030 333 91205
AAXX 03064 60672 36/// /2905 10151 21037 333 20141
AAXX 03064 60633 36/// /1207 10164 21052 333 20150
AAXX 03064 60662 36/// /0000 10125 21056 333 20124
AAXX 03061 50658 11950 83602 11107 21126 40237 57014 69901 77070 80007 333 21171
AAXX 03061 50888 32980 63602 11071 21176 40219 57012 80002 333 21169
AAXX 03061 50983 32970 70202 11079 21154 40217 57017 82032 333 21155
AAXX 03061 51053 11956 82001 11034 21059 40252 57001 60021 77077 8802/ 333 05100 21048
AAXX 03061 51542 11680 70406 11041 21107 37543 52001 69901 70070 82502 333 00002 21146
AAXX 03061 52436 31950 70903 11023 21023 38442 40207 57016 71040 83032 333 05154 21044
AAXX 03061 52908 32980 72904 11025 21236 35728 57013 80002 333 05253 21108
AAXX 03061 52996 31/00 91802 11044 21044 37507 57003 74944 333 05357 21055
AAXX 03061 53083 32975 62501 11186 21213 40366 57007 80002 333 00059 21272
AAXX 03061 53764 32970 51801 10009 21078 40251 57021 80002 333 21078
AAXX 03061 53787 32970 72502 10003 21072 40261 57021 80002 333 21107
AAXX 03061 54096 32670 61101 11077 21131 40207 57016 82502 333 21151
AAXX 03061 54226 32980 02904 11034 21148 40268 57011 333 21094
AAXX 03061 54259 32675 33203 11008 21107 40230 57002 81502 333 21091
AAXX 03061 54527 31960 00203 10048 21117 40261 57014 70040 333 21020
AAXX 03061 54534 31920 82702 11005 21005 40263 57009 72844 8807/ 333 21026
AAXX 03064 68191 NIL
AAXX 03064 68592 NIL
BBXX 46132 03061 99497 71279 46/// /3410 10083 40352 5//// 22200 0//// 1//// 70/// 333 912//
BBXX 46205 03061 99542 71343 46/// /2608 10075 40348 5//// 22200 00076 11107 70034 333 91209
BBXX 46205 03061 99542 71343 46/// /2608 10075 40348 5//// 22200 00076 11107 70034 333 91209
BBXX 46132 03061 99497 71279 46/// /3410 10083 40352 5//// 22200 0//// 1//// 70/// 333 912//
AAXX 03064 42634 32996 09902 10304 20115 40111 333 59026
AAXX 03064 42647 32996 00903 10294 20124 40118 333 59020
AAXX 03064 42737 32996 00505 10312 20132 40110 333 59020
AAXX 03064 42840 32996 00903 10302 20136 40113 333 59018
AAXX 03064 42909 32997 02303 10314 20153 40108 222// 20000 333 59021
AAXX 03064 42921 32996 00504 10266 20096 40136 333 59016
AAXX 03064 43003 32996 03203 10310 20110 40096 333 59014
AAXX 03064 43014 31996 01106 10280 20103 39457 40091 70240 333 59019
AAXX 03064 43063 32996 00000 10272 20105 39482 40095 333 59011
AAXX 03064 43110 31995 00902 10326 20130 40093 70540 333 59013
AAXX 03064 43117 32997 01402 10300 20114 40089 333 59011
AAXX 03064 43192 31995 22702 10308 20248 40091 71040 80002 333 59014
AAXX 03064 67273 32980 10000 10312 20224 40051 80001 333 20253 5///0 55/// 59045 94300 555 10000
AAXX 03064 67280 32970 0//// 10305 20257 40070 333 20245 50200 55107 59039 94300 555 10000
AAXX 03064 67301 32460 80406 10224 20205 39040 48/// 888// 333 20218 50/// 55/// 58001 94382 555 10000
AAXX 03064 67323 11565 82002 10250 20236 40119 5//// 60284 79196 8527/ 333 20219 50600 94324 94320 555 00282 10000
AAXX 03064 67327 12580 61712 10243 20223 40132 52026 60014 84230 333 20230 50600 55107 94324 555 00014 10000
AAXX 03064 67331 32580 81912 10250 20192 40137 52004 8625/ 333 20230 50/// 55/// 94328 555 10000
AAXX 03064 67346 32980 71805 10/// 20/// 40160 52013 8704/ 333 20/// 50690 55004 94300 555 10000
AAXX 03064 68155 36/// /0702 10272 20166 39190 48532 53016 333 20213 91005 555 10327 91016
AAXX 03064 68171 NIL
AAXX 03064 68176 36/// /0905 10200 20165 39149 48531 52016 333 20192 91009 555 10344 91018
AAXX 03064 68181 NIL
AAXX 03064 68182 16/// /1304 10194 20180 39358 48540 52013 69924 333 20194 91008 555 10347 20002 91018
AAXX 03064 68185 16/// /2903 10181 20152 38474 48406 53001 69984 333 20134 91006 555 10229 20008 91007
AAXX 03064 68253 36/// /0602 10256 20136 39049 48529 52013 333 2//// 91005 555 10256 91017
AAXX 03064 68255 36/// /0302 10248 20135 38856 48509 52013 333 20172 91004 555 10314 91016
AAXX 03064 68271 36/// /2803 10243 20164 38917 48526 52013 333 20187 91009 555 10274 91018
AAXX 03064 68273 16/// /3608 10232 20153 38463 48517 53011 69924 333 20144 91013 555 10294 20002 91020
AAXX 03064 68287 16/// /1305 10152 20147 38593 48527 52011 60014 333 20136 91008 555 10216 20010 91021
AAXX 03064 68291 NIL
AAXX 03064 68297 NIL
AAXX 03064 68329 36/// /1702 10265 20039 39097 48539 52013 333 20150 91005 555 10368 91017
AAXX 03064 68331 36/// /1408 10230 20085 38836 48523 53006 333 20146 91014 555 10338 91018
AAXX 03064 68335 36/// /1706 10199 20104 38944 48550 53015 333 20128 91013 555 10327 91021
AAXX 03064 68341 36/// /2405 10242 20120 38531 48516 53008 333 20145 91009 555 10305 91020
AAXX 03064 68342 NIL
AAXX 03064 68343 36/// /1607 10190 20111 38788 48511 53007 333 20127 91011 555 10313 91018
AAXX 03064 68349 36/// /2509 10233 20124 38508 48502 53005 333 20154 91014 555 10307 91018
AAXX 03064 68353 36/// /0403 10225 20134 38513 48492 52010 333 20135 91006 555 10292 91017
AAXX 03064 68355 36/// /1004 10205 20115 38577 48511 53008 333 20122 91006 555 10287 91019
AAXX 03064 68370 NIL
AAXX 03064 68377 36/// /1206 10200 20161 38777 48517 52012 333 20170 91008 555 10324 91018
AAXX 03064 68380 36/// /2606 10195 20141 3//// 4//// 5//// 333 20141 91013 555 10271
AAXX 03064 68387 16/// /1808 10181 20168 38875 48533 52013 69944 333 20167 91021 555 10265 20004 91020
AAXX 03064 68411 36/// /3302 10243 20072 39949 40154 53006 333 20200 91004 555 10365 91016
AAXX 03064 68429 NIL
AAXX 03064 68449 36/// /1802 10177 20099 38394 48507 52013 333 20087 91005 555 10260 91019
AAXX 03064 68471 36/// /1205 10145 20130 38336 48516 53010 333 20133 91008 555 10261 91020
AAXX 03064 68474 NIL
AAXX 03064 68479 16/// /1208 10176 20149 38971 48531 53010 60124 333 20165 91012 555 10300 20122 91019
AAXX 03064 68481 NIL
AAXX 03064 68487 16/// /2207 10140 20128 39026 48537 53013 60024 333 20134 91011 555 10239 20026 69925 91020
AAXX 03064 68491 NIL
AAXX 03064 68497 16/// /2610 10197 20178 30129 40174 53015 69984 333 20196 91014 555 10270 20008 91017
AAXX 03064 68183 31450 81307 10206 20182 39458 48545 52015 75099 885// 333 20203 91011 555 10346 91017
AAXX 03064 68188 36/// /2303 10188 20166 39220 48542 52011 333 20175 91005 555 10317 91019
AAXX 03064 68268 36/// /2703 10296 20119 38890 48543 52007 333 20141 91005 555 10308 91019
AAXX 03064 68272 36/// /3406 10255 20175 39075 48530 52006 333 20165 91011 555 10316 91017
AAXX 03064 68296 36/// /2106 10263 20178 39839 48572 52007 333 20227 91012 555 10358 91015
AAXX 03064 68322 32982 01906 10258 20039 39146 48529 52006 333 20157 91012 555 10390 91016
AAXX 03064 68338 NIL
AAXX 03064 68345 16/// /1005 10222 20098 38669 48513 52010 69924 333 20129 91006 555 10289 20002 91018
AAXX 03064 68362 32980 00705 10206 20121 38507 48510 52002 333 20084 91010 555 10288 91019
AAXX 03064 68400 NIL
AAXX 03064 68408 36/// /1607 10144 20112 30151 40159 56001 333 20119 91012 555 10193 91015
AAXX 03064 68416 32984 01313 10211 20085 39049 48525 52005 333 20160 91023 555 10320 91017
AAXX 03064 68478 12480 81306 10175 20130 38894 48531 52006 60014 885// 333 20161 91009 555 10286 20012 91020
AAXX 03064 68488 NIL
AAXX 03064 68494 16/// /2405 10200 20168 30049 40180 53016 60014 333 20188 91010 555 10279 20012 91018
AAXX 03064 68524 32986 01209 10202 20086 39089 48542 52007 333 20158 91016 555 10317 91019
AAXX 03064 68546 36/// /1910 10173 20056 38685 48530 53010 333 20119 91017 555 10286 91021
AAXX 03064 68558 36/// /1615 10122 20047 38213 48532 52005 333 20090 91021 555 10245 91023
AAXX 03064 68570 NIL
AAXX 03064 68580 NIL
AAXX 03064 68614 36/// /3102 10216 20120 30129 40170 52003 333 20140 91004 555 10314 91017
AAXX 03064 68624 32482 11409 10147 20060 38786 48554 52008 81600 333 20110 91018 555 10272 91023
AAXX 03064 68674 16/// /2205 10220 20154 30154 48601 53006 60014 333 20181 91010 555 10264 20016 91018
AAXX 03064 68712 32900 01721 10167 20116 30113 40178 52001 333 20120 91029 555 10183 91017
AAXX 03064 68718 36/// /1103 10170 20117 39982 40231 52010 333 20134 91008 555 10282 91023
AAXX 03064 68722 36/// /1008 10141 20060 38589 48556 52006 333 20045 91014 555 10244 91024
AAXX 03064 68814 36/// /1713 10153 20115 30195 40203 52011 333 20133 91017 555 10186 91020
AAXX 03064 68832 32570 41908 10135 20064 39254 48561 52011 84700 333 20102 91013 555 10260 91023
AAXX 03064 68916 36/// /0710 10160 20124 39942 40212 52004 333 20150 91030 555 10201 91021
AAXX 03064 68920 32470 81410 10172 20129 30223 40236 52010 885// 333 20162 91019 555 10213 91023
AAXX 03064 68928 36/// /2705 10206 20145 30067 40227 53009 333 20168 91010 555 10241 91023
AAXX 03064 89020 46/// /1805 11122 21158 39803 49839 52009 90550
AAXX 03064 89087 46/// /2004 11247 21288 38033 49838 52004
AAXX 03061 31825 42999 80000 11101 21174 30042 40259 56018 80009
AAXX 03061 31845 42999 80000 11071 21194 30045 40213 57010 8805/
AAXX 03061 31878 42998 80201 11090 21170 30078 40207 56021 85032
AAXX 03061 31915 42999 51201 11067 21157 39928 40201 57019 82011
AAXX 03061 31921 42998 63505 11090 21134 30107 40209 57018 81019
AAXX 03061 31969 42597 63003 11016 21080 30133 40182 56019 83530
AAXX 03061 31981 42999 80301 11094 21151 39950 40194 57027 8801/
AAXX 03061 31987 42699 80401 11029 21087 39909 40172 57027 885//
AAXX 03061 32069 41598 11402 11068 21106 30249 40254 58025 70281 81900 333 91002 91104
AAXX 03061 30499 41980 82302 11214 21239 39612 40322 57009 77071 85031
AAXX 03061 30683 41997 80000 11168 21202 39612 40299 57006 83044
AAXX 03061 30695 42999 83201 11208 21248 39952 40315 57010 86039
AAXX 03061 31253 42999 30000 11256 21296 39820 40325 57011 80001
AAXX 03061 31295 42999 60000 11180 21214 39818 40305 57010 84031
AAXX 03061 31348 42999 00000 11173 21194 30073 40280 57016
AAXX 03061 31418 42999 83601 11184 21217 30005 40277 57016 80002
AAXX 03061 31439 42999 00000 11156 21198 30224 40271 58024
AAXX 03061 31442 42999 83402 11163 21205 39909 40284 57018 86031
AAXX 03061 31445 42999 83602 11154 21196 30005 40273 57018 80006
AAXX 03061 31474 42999 60000 11174 21233 39757 40269 57030 80006
AAXX 03061 31521 32982 80000 11150 21184 39953 40260 57027 80007
AAXX 03061 31527 42998 83402 11123 21175 39935 40250 57020 82037
AAXX 03061 31534 42999 80701 11138 21173 39892 40254 57030 80007
AAXX 03061 31587 41996 80000 11159 21178 30106 40261 57024 77172 8802/
AAXX 03061 31632 NIL
AAXX 03061 31702 42998 81902 11115 21168 39889 40238 56017 8801/
AAXX 03061 31713 42999 73601 11111 21155 30143 40245 54014 86071
AAXX 03061 31725 42998 80902 11117 21152 30171 40240 57018 8704/
AAXX 03061 31801 42998 80000 11095 21171 39987 40222 57016 84047
AAXX 03064 83349 32470 70304 10268 20244 30092 40098 85820 333 59009
BBXX ELZU8 03063 99015 11044 41598 73106 10295 20233 40085 56005 70222 85138 22200 20101 303// 40303 5//// 80250
BBXX A8HD5 03061 99053 10978 41498 32304 10300 20258 40105 54000 70100 82144 22274 04290 20401 300// 4//// 5//// 80270
BBXX ZCBZ4 03063 99152 11302 41/98 20910 10315 20274 40089 57010 70200 82100 22214 20403 31616 40303 50201 80285
BBXX 62141 03064 99493 50590 41/93 /2516 10085 20085 40115 58019 74554 8//// 22200 20702 3//// 4//// 5//// 80085
BBXX ZDLP 03063 99580 50564 41/97 82517 10028 20020 40057 53008 70222 886// 22242 04014 20101 324// 40502 5//// 80025
BBXX VQHO7 03064 99471 50764 41298 81105 10110 20090 40080 58020 70222 8/7// 22244 00096 20302 318// 40606 5//// 80100
AAXX 03061 30455 41999 21501 11174 21200 38935 48476 58002 70271 80002
AAXX 03061 30731 42999 02001 11079 21135 39651 40277 58002
AAXX 03061 30739 41999 21502 11202 21228 39462 40345 58002 70181 82070
AAXX 03061 30741 42998 12401 11100 21136 38701 48484 52008 80001
AAXX 03061 30745 41698 41401 11171 21190 39101 40318 58004 71041 82502
AAXX 03061 30764 41999 10000 11139 21174 39457 40291 58006 70271 80001
AAXX 03061 30829 42999 00000 11156 21190 39602 40332 58008
AAXX 03061 30838 41997 10000 11156 21198 39285 40323 58010 70400 80002
AAXX 03061 30846 42699 22101 11099 21171 39348 40285 58004 81530
AAXX 03061 30859 41699 22102 11113 21166 39414 40281 57004 70271 82500
AAXX 03061 30862 41998 30902 11168 21218 39515 40297 54000 70171 81042
AAXX 03061 30957 42699 42403 11142 21169 39359 40299 58011 81140
AAXX 03061 30975 42899 23402 11198 21247 39610 40305 57004 82031
AAXX 03064 88878 46/// /3102 10078 20058 40098 57012
AAXX 03064 88883 46/// /3005 10060 20059 40103 57013
AAXX 03064 88897 46/// /3202 10055 20048 40095 57005
AAXX 03064 88900 46/// /2416 10020 20014 30019 40022 52007 333 55019
BBXX AMOUK01 03064 99178 30036 46/// ///// 10192 20139 30159 40170 52009 90550
BBXX AMOUK15 03064 99339 30184 46/// ///// 10189 20122 30172 40199 52018 90550
BBXX AMOUK17 03064 99379 30504 46/// ///// 10178 20159 30086 40095 57024 90550
BBXX A8FQ8 03063 99084 70169 41/98 /3616 10265 20230 40120 54000 7//22 8//// 22235 00299 20403 80240
BBXX ZCDF4 03063 99121 70729 41498 20623 10281 20253 40115 58007 70211 82100 22215 00290 20404 308// 40404 5//// 80261
BBXX ZCDP8 03063 99121 70627 41/98 /0724 10274 20240 40113 52009 70211 8//// 22224 00280 20202 307// 40303 5//// 80250
BBXX DGTX 03063 99094 70861 41997 20604 10260 20213 40125 54000 70100 80005 22274 00290 20100 80227
BBXX PENR 03063 99124 70602 41497 60412 10270 20234 40104 58019 70222 84218 22254 20401 80245
BBXX ZCDM6 03063 99248 70795 41498 50436 10226 20193 40242 53/// 70322 82260 22284 00260 20605 30499 40605 5//// 80205
BBXX 44061 03061 99388 70770 46/// /0102 1//// 90610 333 91203
BBXX 44061 03061 99388 70770 46/// /0303 10068 40350 51011 90600 22200 00086 333 91204
BBXX 44059 03061 99368 70763 46/// /0406 1//// 90600 333 91209
BBXX 44057 03061 99395 70761 46/// /3302 1//// 90610 333 91203
BBXX 44057 03061 99395 70761 46/// /3002 10052 90600 22200 00089 333 91203
BBXX 44058 03061 99376 70763 46/// /0410 1//// 90610 333 91212
BBXX 44058 03061 99376 70763 46/// /0410 10093 40337 51019 90600 22200 00115 10302 70009 333 91213
BBXX 46092 03061 99368 71220 46/// /3403 10116 40147 52004 90557 22200 00129 555 11031 22031
BBXX 44063 03061 99390 70764 46/// /3501 1//// 90610 333 91204
BBXX 44063 03061 99390 70764 46/// /0000 10063 40351 50006 90600 22200 00096 333 91203
BBXX 44041 03061 99372 70768 46/// /0403 1//// 90610 333 91205
BBXX 44041 03061 99372 70768 46/// /0503 10087 40359 51017 90600 22200 00112 1//00 70000 333 91205
BBXX 44042 03061 99380 70763 46/// /0308 10090 90600 22200 00113 10201 70003 333 91210
BBXX 44043 03061 99392 70764 46/// /3506 1//// 90620 333 91207
BBXX 44043 03061 99392 70764 46/// /3505 1//// 40343 90610 333 91207
BBXX 44043 03061 99392 70764 46/// /3505 10069 40342 52010 90600 22200 00090 10201 70003 333 91206
BBXX 41010 03061 99289 70785 46/// /0510 10215 40258 90620 22200 00243 11005 20604 300// 41003 70024 333 91211 555 11101 22106
AAXX 03061 23973 41999 80101 11199 21218 30175 40242 52004 70272 82038
AAXX 03061 23975 41999 51101 11168 21187 30106 40222 54000 77071 80006
AAXX 03061 23986 42999 70802 11186 21212 39581 40257 53003 8707/
AAXX 03061 23987 41597 61202 11159 21186 30156 40234 51003 78582 83901
AAXX 03061 24606 42899 20000 11326 21348 30047 40352 52007 82030
AAXX 03061 29253 41998 80000 11187 21213 30043 40225 52002 77172 80007
AAXX 03061 29471 41596 80000 11105 21118 30010 40246 52001 78582 84907
AAXX 03061 29481 41999 81501 11127 21147 30006 40256 52004 77177 8802/
AAXX 03061 29553 41950 82002 11077 21087 39854 40229 54000 77187 8801/
AAXX 03061 29562 42998 81402 11089 21109 39809 40238 58004 8801/
AAXX 03061 29581 42998 31401 11134 21154 39997 40267 52002 80001
AAXX 03061 29594 41696 80000 11178 21190 39872 40285 52017 71082 83531
AAXX 03061 29653 42997 71803 11066 21117 39741 40234 58002 83088
AAXX 03061 29675 42898 62501 11125 21152 39649 40267 54000 86070
AAXX 03061 29676 41696 80000 11090 21124 39815 40251 58002 71072 82505
AAXX 03061 29752 41493 82404 11117 21130 38775 48433 58002 78682 889// 333 91115
AAXX 03061 29759 41599 50000 11091 21125 39196 40250 58002 78582 83949
AAXX 03061 29766 42999 70000 11132 21145 39904 40276 52001 87050
AAXX 03061 29789 42999 80000 11094 21124 39031 40242 58008 82041
AAXX 03061 29864 42999 73302 11089 21128 39593 40262 58003 83042
AAXX 03061 29866 41994 70301 11103 21109 39931 40263 58007 71042 83031
AAXX 03061 29869 41697 80401 11057 21075 39885 40267 58002 70272 8257/ 333 95030
AAXX 03061 29956 41699 12501 11104 21132 39698 40278 58005 70281 81500
AAXX 03061 30337 42998 60000 11175 21217 39851 40330 53001 80001
AAXX 03061 30405 41598 80000 11158 21171 39738 40298 52005 78582 82935
AAXX 03061 30504 42998 71801 11161 21174 39612 40299 51004 85032
AAXX 03061 30603 41995 80000 11147 21160 39690 40291 52004 71072 80001
AAXX 03061 30612 42599 61101 11159 21186 39735 40301 54000 82405
AAXX 03061 30622 42998 01301 11254 21278 39647 40358 58004
AAXX 03061 30627 42999 20603 11219 21232 39327 40334 52001 80001
AAXX 03061 30703 42999 80000 11130 21157 39581 40385 57003 81073
AAXX 03061 36307 42999 52601 11139 21200 38948 48499 57006 80001
AAXX 03061 23074 41597 81604 11155 21174 30212 40238 52003 77111 86507 333 86623
AAXX 03061 23274 41598 21702 11180 21199 30227 40266 53004 70181 82500
AAXX 03061 23383 42998 10000 11350 21380 39948 40353 52009 80001
AAXX 03061 23472 42999 00702 11220 21246 30214 40266 52004
AAXX 03061 23678 42998 20601 11170 21196 30189 40250 52004 80001
AAXX 03061 23884 42984 50601 11187 21206 30173 40253 52004 80001
AAXX 03061 23891 41998 50000 11269 21307 39964 54000 70272 85080
AAXX 03061 24507 41998 60000 11331 21354 30080 40357 52008 77171 83035
AAXX 03061 24817 42999 70000 11223 21242 39930 40330 52004 87030
AAXX 03061 24908 42980 80501 11222 21248 39958 40316 57002 80005
AAXX 03061 29263 41996 71001 11165 21191 30136 40243 52005 77172 84032
AAXX 03061 29282 41997 80000 11185 21211 30091 40273 52008 77072 80007
AAXX 03061 29379 41997 80000 11180 21199 30042 40266 52002 77111 80006
AAXX 03061 29570 41598 82303 11071 21109 39886 40242 52003 78582 83907
AAXX 03061 29698 41596 81601 11128 21141 39742 40280 51001 78582 889//
AAXX 03061 30230 42998 81001 11217 21235 39984 40340 51001 80001
AAXX 03061 30252 42999 50000 11236 21255 30013 40360 54000 80001
AAXX 03061 30309 41597 63601 11124 21130 39734 40277 52006 72287 83601
AAXX 03061 30328 42998 70000 11243 21268 39883 40351 58006 80004
AAXX 03061 30521 42997 31701 11198 21231 39774 40340 58002 80001
AAXX 03061 30710 41998 52601 11148 21173 39678 40294 58004 74122 80001
BBXX 46181 03061 99538 71288 46/// /2504 1//// 4//// 5//// 22200 0//// 1//// 70/// 333 912//
AAXX 03061 45032 36/// /9901 10207 21015 30139 40156 54000
AAXX 03061 45035 36/// /2903 10178 20012 30113 40155 54000
AAXX 03061 45039 36/// /0003 10196 20003 30138 40152 52001
AAXX 03061 45044 36/// /2101 10206 20050 30064 40156 52001
AAXX 03064 78922 46/// /1208 10258 20225 30073 40117 58016
AAXX 03061 45032 36/// /9901 10207 21015 30139 40156 54000
AAXX 03061 45035 36/// /2903 10178 20012 30113 40155 54000
AAXX 03061 45039 36/// /0003 10196 20003 30138 40152 52001
AAXX 03061 45044 36/// /2101 10206 20050 30064 40156 52001
BBXX 46181 03061 99538 71288 46/// /2504 1//// 4//// 5//// 22200 0//// 1//// 70/// 333 912//
BBXX 46184 03061 99539 71389 46/// /2107 10067 40341 57006 22200 00068 11206 70031 333 91208
AAXX 03064 68171 NIL
AAXX 03064 68181 NIL
AAXX 03064 68291 NIL
AAXX 03064 68297 NIL
AAXX 03064 68342 NIL
AAXX 03064 68370 NIL
AAXX 03064 68429 NIL
AAXX 03064 68474 NIL
AAXX 03064 68481 NIL
AAXX 03064 68491 NIL
BBXX UANA 03061 99750 10353 41/97 93005 10009 49712 50003 77321 8//// 22252 04010 20302
BBXX 46184 03061 99539 71389 46/// /2107 10067 40341 57006 22200 00068 11206 70031 333 91208
AAXX 03064 68338 NIL
AAXX 03064 43086 32997 00000 10280 20122 39922 40098 333 59018
AAXX 03064 43128 32997 03604 10282 20115 39496 40091 333 59013
AAXX 03064 43150 21495 83602 10240 20234 30023 40098 76165 8387/ 333 59013 6019/ 83618 83358 88460
AAXX 03064 43185 31596 62703 10314 20220 30086 40089 70521 86800 333 59014 83620 83825
AAXX 03064 43189 32597 49902 10304 20205 30081 40090 82532 333 59016
AAXX 03064 43198 31996 30203 10272 20140 39275 40083 70240 80001 333 59011 83075
AAXX 03064 43201 32997 00902 10294 20145 39373 40074 333 59017
AAXX 03064 43213 32597 19902 10305 20179 39779 40089 81400 333 59011
AAXX 03064 43226 32497 42303 10316 20242 30068 40097 83801 333 59013
AAXX 03064 43233 32497 19902 10294 20132 39287 40073 81100 333 59018
AAXX 03064 43237 32597 20000 10306 20178 39702 40086 82500 333 59013 82620
AAXX 03064 43245 32597 21602 10300 20227 30064 40090 81801 333 59018
AAXX 03064 43279 31596 40000 10296 20209 30077 40094 70522 84800 333 56800 59023 82620 83825
AAXX 03064 43284 31496 30000 10310 20229 39971 40084 70244 82801 333 59015 82615
AAXX 03064 43295 31396 62302 10246 20182 39087 48502 70522 85601 333 56509 59014 82708 83616 85075
AAXX 03064 43311 32597 60000 10308 20269 40094 83470 333 59021 82620 84360
AAXX 03064 43314 32597 42302 10306 20255 40093 83801 333 59019
AAXX 03064 43321 31495 60704 10270 20216 39655 40099 70522 83436 333 59020
AAXX 03064 43329 32597 50000 10302 20229 30079 40092 83431 333 59020
AAXX 03064 43344 21495 62902 10280 20227 30001 40100 70522 84701 333 59017 82710 83615 85075
AAXX 03064 43346 32597 30902 10288 20213 30085 40092 81502 333 59020 81620 83075
AAXX 03064 43353 32496 51408 10286 20237 40099 82840 333 56690 59017 82614 85458
AAXX 03064 43369 32597 22303 10310 20257 40096 81501 333 59016 81620
AAXX 03064 43371 31497 79902 10270 20241 30025 40098 70265 83478 333 59011 82618 83360 85270
AAXX 03064 78866 02584 30509 10262 20227 30129 40134 57016 60001 82830 333 59004 60007 81821
AAXX 03064 91723 NIL
AAXX 03064 91759 11598 50106 10280 20247 40087 53015 60001 71510 84862 333 56999 83820 84078
AAXX 03064 91762 11495 80405 10254 20234 40088 53018 60091 78002 8687/ 333 83819 85638 88462
AAXX 03064 87641 32965 00712 10137 20124 39988 40160 58005
AAXX 03061 31913 43/// /1301 11081 21156 30092 40214 56016
AAXX 03061 32128 41599 71404 11007 21052 30192 40245 56008 70282 87300 333 91007 91108
AAXX 03061 24856 41998 30701 11331 21353 30133 40309 52015 70271 80001
AAXX 03061 30679 NIL
AAXX 03061 30686 42999 70000 11194 21235 39921 40320 57007 87030
AAXX 03061 30961 42999 10000 11142 21169 39464 40289 58006 80001
AAXX 03061 30971 42999 20201 11182 21232 39250 40295 58006 80002
AAXX 03061 30978 41999 41401 11182 21223 39571 40297 58006 70271 80002
AAXX 03061 31513 42999 80202 11156 21175 30027 40266 57020 83031
AAXX 03061 31624 NIL
AAXX 03061 31832 42999 82801 11071 21140 30130 40219 57011 83012
AAXX 03061 40650 11940 03102 10042 21067 40256 52014 60002 70500
AAXX 03061 40608 12960 02702 10020 21044 40269 52015 60002
AAXX 03061 40621 12960 00000 10063 21060 40281 52009 60002
AAXX 03061 40629 12960 00000 11008 21077 40284 52010 60002
AAXX 03061 40680 12960 03202 10080 20007 40232 53004 60002
AAXX 03061 40670 12960 03002 10045 21045 40249 53010 60002
AAXX 03061 40676 12960 02702 10064 21085 40252 52012 60002
AAXX 03061 40690 12960 02603 10061 20000 40239 52014 60002
AAXX 03061 40656 12960 02702 10031 21054 40238 52013 60002
AAXX 03061 40666 12960 03306 10073 21068 40237 53007 60002
AAXX 03061 40642 12960 00000 10010 21111 40269 54000 60002
AAXX 03061 40634 12960 00000 10019 21051 40256 51009 60002
AAXX 03061 40665 12960 03104 10085 21006 40252 52011 60002
AAXX 03061 40672 12960 00000 10066 21040 40254 51008 60002
AAXX 03061 40691 12960 02404 10102 21022 40256 52014 60002
AAXX 03064 78866 02584 30509 10262 20227 30129 40134 57016 60001 82830 333 59004 60007 81821
AAXX 03064 78866 02584 30509 10262 20227 30129 40134 57016 60001 82830 333 59004 60007 81821
AAXX 03061 56671 32780 21603 10167 20044 38150 57035 82100 333 05604 20028
AAXX 03061 57378 31960 62202 10114 20014 40234 57027 70040 80002 333 20027
AAXX 03061 57426 31761 80401 10081 20064 40172 57033 70040 885// 333 05351 20024
AAXX 03061 57476 32962 20402 10119 20018 40227 57026 80002 333 20032
AAXX 03061 57584 32962 13602 10138 20030 40223 57031 81040 333 20045
AAXX 03061 57598 31970 03402 10144 20020 40225 57029 70040 333 20004
AAXX 03061 57655 32968 63603 10147 20032 40199 57030 86030 333 20041
AAXX 03061 57713 NIL
AAXX 03061 57776 32970 01802 10081 21004 40213 57018 333 21009
AAXX 03061 58321 31950 00203 10099 20002 40257 57015 70500 333 20013
AAXX 03061 58437 32980 03404 11009 21111 38161 57004 333 21054
AAXX 03061 58445 NIL
AAXX 03061 58556 32965 03605 10109 21003 40235 57019 333 20008
AAXX 03061 58569 32961 03604 10113 21011 40222 57012 333 20039
AAXX 03061 58646 32960 00401 10141 20014 40223 57028 333 20017
AAXX 03061 58653 NIL
AAXX 03061 58660 NIL
AAXX 03061 58715 31980 03404 10120 21005 40224 57026 70040 333 20006
AAXX 03061 58730 32980 01803 10137 20017 40215 57028 333 20004
AAXX 03061 58731 31974 02901 10145 20000 40215 57031 70040 333 21011
AAXX 03061 58754 32970 01602 10165 20002 40202 57023 333 20031
AAXX 03061 58911 31980 02902 10160 20041 40200 57030 70040 333 21004
AAXX 03061 58931 32980 00905 10083 21042 38354 57001 333 21008
AAXX 03061 59254 32970 00701 10201 20010 40159 57047 333 20079
AAXX 03061 59632 32975 00701 10212 20067 40162 57019 333 20096
AAXX 03061 59855 32577 41101 10227 20121 40145 57032 84100 333 20147
BBXX 46004 03061 99509 71361 46/// /2405 10075 40388 57010 22200 00078 11205 70025 333 91206
BBXX DDYL2 03063 99325 11266 41598 62940 10154 20085 40138 57010 71522 862// 22231 00210 20710 80116
BBXX SHIP 03064 99309 11342 41597 82717 10210 20164 40056 55/// 70322 86477 22283 00240 20605 327// 40605 80180
BBXX UFLC 03060 99586 11492 41597 82808 11070 40187 54000 77072 8652/ 22213 06020 20402
BBXX UFLT 03061 99526 11470 42/97 93008 11060 40232 54000 22213 00030 20704 336// 40906 61011
BBXX UGWJ 03061 99405 11316 42/98 82011 10060 40140 57025 887// 22242 00090 20304 30000
BBXX 46004 03061 99509 71361 46/// /2405 10075 40388 57010 22200 00078 11205 70025 333 91206
AAXX 03061 22217 11358 82101 10010 20002 39749 49780 53003 60012 78582 889// 333 20006 43004 86709 91003
AAXX 03064 41258 26/// /2604 10252 20167 30150 40154 333 0E/// 20232 59016 70000
AAXX 03064 41263 36/// /2004 10244 20089 39490 40181 333 0E016 20155 59003
AAXX 03064 71221 46/// /0000 11093 21099 6///1 333 10025 21103 7////
AAXX 03064 71226 16/// /2408 11017 21080 60001 333 10028 21058 70000 555 32941 40103
AAXX 03064 71229 46/// /2403 11033 21067 6///1 333 10023 21098 7//// 555 33241 40113
AAXX 03064 60677 36/// /0000 10103 21019 333 20093
AAXX 03064 60650 36/// /3101 10131 21047 333 20131
AAXX 03064 60679 36/// /2218 10061 21099 333 20050
AAXX 03064 60661 36/// /0000 10143 21045 333 20139
AAXX 03064 71888 16/// ///// 11110 21128 60001 333 10059 21112 70000
AAXX 03064 71895 16/// ///// 11074 21103 60001 333 10052 21086 7////
AAXX 03064 71359 46/// /2502 11112 21138 6///1 333 10055 21112 7////
AAXX 03064 71379 16/// /3301 11196 21215 30166 40346 51018 60001 333 11071 21215 70006
AAXX 03064 71788 16/// /2308 11094 21111 60001 333 10047 21115 70000 555 33038 40123
AAXX 03064 71792 16/// ///// 11103 21118 60001 333 10048 21124 70000
AAXX 03064 71673 16/// ///// 11119 21128 60001 333 10056 21130 70000
AAXX 03064 71690 16/// ///// 11052 21077 60001 333 10020 21076 7////
AAXX 03064 71405 17/// ///// 11123 21140 69941 7//4/ 333 10052 21125 70004
AAXX 03064 71417 16/// /3604 11036 21057 30233 40268 53008 60001 333 10014 21037 70000 555 33021 40201
AAXX 03064 71283 17/// /2506 11056 21093 69951 7//4/ 333 10016 21074 7////
AAXX 03064 71067 16/// ///// 11072 21103 60001 333 10048 21079 70000
AAXX 03064 71315 17/// /2406 11059 21071 30268 40323 51021 69951 7//4/ 333 11012 21068 70005
AAXX 03064 71011 16/// ///// 11069 21102 60001 333 10066 21080 70006
AAXX 03064 71500 16/// /2105 11039 21094 60001 333 10044 21052 70000 555 33048 40073
AAXX 03064 71504 16/// ///// 11049 21094 60001 333 10050 21092 70000
AAXX 03064 71541 16/// /2108 11079 21101 60001 333 10021 21083 70000 555 33448 40133
AAXX 03064 71543 16/// /2706 11041 21076 60001 333 10023 21052 70000 555 33238 40143
AAXX 03064 71546 16/// /2410 11018 21071 60001 333 10026 21065 70000 555 32837 40083
AAXX 03064 71547 16/// /2508 11032 21078 60001 333 10020 21059 70000 555 33342 40143
AAXX 03064 71555 16/// /1804 11062 21133 38652 40246 58005 60001 333 10026 21062 70000 555 32931 40102
AAXX 03064 71558 46/// ///// 11073 21103 30224 40262 53009 6///1 333 11022 21081 7////
AAXX 03064 71153 16/// /2102 11061 21096 60001 333 10043 21061 70000 555 32726 40101
AAXX 03064 71454 16/// /3207 11112 21141 39470 40172 51028 60001 333 10025 21112 70000 555 33229 40212
AAXX 03064 71461 46/// /2403 11043 21081 6///1 333 10026 21070 7////
AAXX 03064 71468 16/// /2113 10005 21060 39811 40135 50000 60001 333 21092 70000 555 32234 40033
AAXX 03064 71483 46/// ///// 11053 21092 6///1 333 10032 21070 7////
AAXX 03064 71221 46/// /0000 11093 21099 6///1 333 10025 21103 7////
AAXX 03064 71226 16/// /2408 11017 21080 60001 333 10028 21058 70000 555 32941 40103
AAXX 03064 71229 46/// /2403 11033 21067 6///1 333 10023 21098 7//// 555 33241 40113
AAXX 03064 71405 17/// ///// 11123 21140 69941 7//4/ 333 10052 21125 70004
AAXX 03064 71417 16/// /3604 11036 21057 30233 40268 53008 60001 333 10014 21037 70000 555 33021 40201
AAXX 03064 71359 46/// /2502 11112 21138 6///1 333 10055 21112 7////
AAXX 03064 71379 16/// /3301 11196 21215 30166 40346 51018 60001 333 11071 21215 70006
AAXX 03064 71673 16/// ///// 11119 21128 60001 333 10056 21130 70000
AAXX 03064 71690 16/// ///// 11052 21077 60001 333 10020 21076 7////
AAXX 03064 71067 16/// ///// 11072 21103 60001 333 10048 21079 70000
AAXX 03064 71153 16/// /2102 11061 21096 60001 333 10043 21061 70000 555 32726 40101
AAXX 03064 71888 16/// ///// 11110 21128 60001 333 10059 21112 70000
AAXX 03064 71895 16/// ///// 11074 21103 60001 333 10052 21086 7////
AAXX 03064 71315 17/// /2406 11059 21071 30268 40323 51021 69951 7//4/ 333 11012 21068 70005
AAXX 03064 71555 16/// /1804 11062 21133 38652 40246 58005 60001 333 10026 21062 70000 555 32931 40102
AAXX 03064 71558 46/// ///// 11073 21103 30224 40262 53009 6///1 333 11022 21081 7////
AAXX 03064 71283 17/// /2506 11056 21093 69951 7//4/ 333 10016 21074 7////
AAXX 03064 71788 16/// /2308 11094 21111 60001 333 10047 21115 70000 555 33038 40123
AAXX 03064 71792 16/// ///// 11103 21118 60001 333 10048 21124 70000
AAXX 03064 71011 16/// ///// 11069 21102 60001 333 10066 21080 70006
AAXX 03064 71454 16/// /3207 11112 21141 39470 40172 51028 60001 333 10025 21112 70000 555 33229 40212
AAXX 03064 71461 46/// /2403 11043 21081 6///1 333 10026 21070 7////
AAXX 03064 71468 16/// /2113 10005 21060 39811 40135 50000 60001 333 21092 70000 555 32234 40033
AAXX 03064 71483 46/// ///// 11053 21092 6///1 333 10032 21070 7////
AAXX 03064 71500 16/// /2105 11039 21094 60001 333 10044 21052 70000 555 33048 40073
AAXX 03064 71504 16/// ///// 11049 21094 60001 333 10050 21092 70000
AAXX 03064 71541 16/// /2108 11079 21101 60001 333 10021 21083 70000 555 33448 40133
AAXX 03064 71543 16/// /2706 11041 21076 60001 333 10023 21052 70000 555 33238 40143
AAXX 03064 71546 16/// /2410 11018 21071 60001 333 10026 21065 70000 555 32837 40083
AAXX 03064 71547 16/// /2508 11032 21078 60001 333 10020 21059 70000 555 33342 40143
AAXX 03061 56144 32980 61603 10062 21171 36800 57050 80002 333 05702 21088
AAXX 03061 56152 32680 70201 10049 21150 36258 57032 82102 333 05402 21143
AAXX 03061 56167 32980 10000 10120 21138 37012 57057 80002 333 05705 21088
AAXX 03061 56182 32680 12001 10105 21109 37116 57049 81102 333 05402 21065
AAXX 03061 56357 32980 01402 10102 21153 36384 57047 333 05602 21117
AAXX 03061 56586 32560 12901 10114 20044 37984 57040 81100 333 05453 20023
AAXX 03061 56748 32580 62704 10171 20048 38323 57022 86200 333 05352 20044
AAXX 03061 56763 32680 11408 10222 20068 40058 57042 81100 333 05604 20069
AAXX 03061 56768 32680 72506 10143 20080 38143 57028 87400 333 05402 20053
AAXX 03061 56838 32670 31601 10208 20120 40114 57026 82230 333 05302 20111
AAXX 03061 56886 32670 32205 10152 20087 38260 57028 83400 333 05303 20026
AAXX 03061 56946 31580 50000 10192 20102 40116 57031 70040 85400 333 05352 20074
AAXX 03061 56959 32770 72502 10221 20159 40111 57030 874// 333 05252 20143
AAXX 03061 56969 32580 71102 10241 20151 40113 57032 878// 333 05302 20141
AAXX 03061 57731 32766 72001 10105 20055 40186 57037 875// 333 05251 20056
AAXX 03061 57766 31965 00702 10135 20005 40209 57034 70040 333 20010
AAXX 03061 57845 31970 00202 10131 20032 40190 57042 70040 333 20021
AAXX 03061 57853 31965 03601 10131 20014 40202 57035 70040 333 20016
AAXX 03061 57916 32670 72701 10144 20084 40171 57037 878// 333 05301 20068
AAXX 03061 57922 32978 01105 10122 20044 40173 57037 333 05251 20027
AAXX 03061 57932 11568 71401 10086 20044 40200 57040 69901 70050 87800 333 05354 20049
AAXX 03061 58338 32663 53602 10102 20005 40248 57015 85500 333 20027
AAXX 03061 59007 31575 31102 10153 20078 40133 57039 70040 83100 333 20059
AAXX 03061 59046 32564 12702 10183 20048 40163 57048 81100 333 20068
AAXX 03061 59058 32980 02201 10198 21002 40162 57055 333 20035
AAXX 03061 59072 31973 03602 10167 21009 40184 57046 70040 333 20006
AAXX 03061 59087 32970 00704 10173 21019 40172 57046 333 20047
AAXX 03061 59209 32573 72201 10157 20089 40156 57035 878// 333 20079
BBXX 46146 03061 99493 71237 46/// /0803 10054 40339 52006 22200 00068 10200 70002 333 91203
AAXX 03064 48350 32665 11306 10269 20160 39806 40104 57029 81100 333 59015
BBXX 46146 03061 99493 71237 46/// /0803 10054 40339 52006 22200 00068 10200 70002 333 91203
BBXX KS088 03064 99267 70801 43/// /1217 10224 40242 22200 06220
BBXX KS044 03064 99165 31472 43/// /0914 10281 40064 22223 06286
BBXX KS094 03064 99185 70644 43/// /0410 10264 40146 22200 06267
BBXX KS099 03064 99263 70818 43/// /1103 10166 40257 22200 06352
AAXX 03063 41150 42966 03015 10184 20122 40199 333 20151 30015 59016
AAXX 03064 65401 31956 00502 10200 20046 40136 70500 333 20196 58002
AAXX 03064 65404 31959 00502 10208 20065 40135 70500 333 20200 58004
AAXX 03064 65416 NIL
AAXX 03064 65418 31956 00000 10135 20085 40130 70500 33 20122 58001
AAXX 03064 65420 NIL
AAXX 03064 65432 32465 52301 10210 20197 40122 85500 333 2//// 58001 85611
AAXX 03064 65437 31959 20000 10197 20192 40129 71000 82500 333 20182 58004 82612
AAXX 03064 65439 31302 70000 10225 20215 40127 74441 875// 333 20213 58002 87609
AAXX 03064 65442 31358 72302 10232 20229 40125 71011 875// 333 20230 58008 87607
AAXX 03064 65445 NIL
AAXX 03064 65450 NIL
AAXX 03064 65453 NIL
BBXX 44258 03061 99445 70634 46/// /0404 10041 40285 52001 22200 00080 11104 70018 333 91205
BBXX 44258 03061 99445 70634 46/// /0404 10041 40285 52001 22200 00080 11104 70018 333 91205
BBXX 44140 03061 99429 70515 46/// /0510 10128 40194 57021 22200 00116 11105 70027 333 91213
AAXX 03064 96009 32460 31005 10314 20233 30038 40074 57024 82221 333 56000 57803 82817 80860
AAXX 03064 96011 32560 33007 10325 20214 30051 40078 57017 82232 333 56000 57803 82820 80860
AAXX 03064 96035 31460 60906 10314 20216 30037 40075 57025 85276 333 56000 57801 85817 80850
AAXX 03064 96073 11560 72808 10306 20210 30078 40089 57022 60081 70262 83522 333 56000 83620
AAXX 03064 96091 32459 70308 10300 20237 30065 40088 57015 84848 333 56000 57802 82613 83817 86280 80860
AAXX 03064 96109 32460 63607 10317 20228 30033 40073 57018 83231 333 56000 57804 83815 80830
AAXX 03064 96145 31440 73506 10286 20234 30080 40085 58018 70522 84220 333 56800 84617 87460
AAXX 03064 96147 NIL
AAXX 03064 96163 32560 81002 10274 20229 30091 40093 57016 83521 333 56000 83620
AAXX 03064 96179 11460 70000 10296 20244 30060 40097 57007 69921 70262 83238 333 56700 57873 83817 80840
AAXX 03064 96195 32465 73305 10304 20226 30052 40088 57023 84231 333 56000 57802 84815 80850
AAXX 03064 96221 01460 80000 10274 20242 30070 40085 57019 60021 72162 84527 333 56997 84613
AAXX 03064 96237 01458 83305 10276 20232 30043 40085 57017 84017 84176 333 56000 69901 82616 85460 88260
AAXX 03064 96249 01558 73003 10264 20246 30022 40082 57018 60281 72162 84978 333 56000 57801 69967 84820 80863
AAXX 03064 96253 12458 73303 10298 20225 30045 40066 57017 69901 83972 333 56000 57900 57800 81915 81820 83460 80900 80800
AAXX 03064 96295 32460 53512 10300 20210 39984 40086 56002 83221 333 56000 57800 83815 80800
AAXX 03064 96509 01459 70000 10268 20247 30046 40058 57029 60131 70262 84271 333 56000 57802 60027 84815 80857
AAXX 03064 96581 31360 80000 10291 20222 30078 40085 57013 70362 8517/ 333 56809 85809 84362 80856
AAXX 03064 96633 32459 82406 10289 20246 30049 40057 57018 8352/ 333 56009 83618 88460
AAXX 03064 96645 31450 82604 10268 20241 30057 40089 57014 71522 86372 333 56000 57902 57802 81912 85812 80982 80857
AAXX 03064 96655 11458 82512 10285 20234 30064 40099 57017 60021 70262 85572 333 56600 85610
AAXX 03064 96685 01457 72806 10252 20233 30060 40086 57010 60151 76196 86511 333 56000 60157 88610 87462
AAXX 03064 96749 32560 83206 10294 20225 30079 40092 58016 83572 333 56000 83623 86362
AAXX 03064 96781 NIL
AAXX 03064 96805 01558 80000 10267 20243 30093 40102 56005 60071 76096 8422/ 333 56009 57802 60057 84820 85460 80860
AAXX 03064 96839 32557 73215 10313 20220 30069 40076 56017 83132 333 56000 83822
AAXX 03064 96935 31560 72107 10327 20257 30053 40060 57026 71622 83231 56220 57821 83820 85080 80863
AAXX 03064 65545 31940 0//// 10185 20169 39692 40120 70500 333 20180 58003
AAXX 03064 65557 31406 6//// 10231 20225 39876 40115 74244 86500 333 20228 58000 86611
AAXX 03064 65560 31402 8//// 10225 20225 39802 40109 74444 885// 333 20190 58000 88613
AAXX 03064 65563 31201 82606 10218 20215 39876 40116 74644 886// 333 20188 58004 88703
AAXX 03064 65578 11558 60000 10272 20248 30/// 40/// 60314 70266 86500 333 20266 5//// 86620
AAXX 03064 65585 32458 3//// 10241 20229 3//// 4//// 83200 333 20240 5//// 83813 94902
AAXX 03064 65599 11458 5//// 10239 20233 30027 40101 60064 72166 85900 333 20238 58001 85913 94923 94944 95814
AAXX 03061 11858 11420 89901 11005 21012 30048 40205 55002 69902 71022 886// 333 21010 31101 79999 88710 93401
AAXX 03064 65401 31956 00502 10200 20046 40136 70500 333 20196 58002
AAXX 03064 65404 31959 00502 10208 20065 40135 70500 333 20200 58004
AAXX 03064 65416 NIL
AAXX 03064 65418 31956 00000 10135 20085 40130 70500 333 20122 58001
AAXX 03064 65420 NIL
AAXX 03064 65432 32465 52301 10210 20197 40122 85500 333 2//// 58001 85611
AAXX 03064 65437 31959 20000 10197 20192 40129 71000 82500 333 20182 58004 82612
AAXX 03064 65439 31302 70000 10225 20215 40127 74441 875// 333 20213 58002 87609
AAXX 03064 65442 31358 72302 10232 20229 40125 71011 875// 333 20230 58008 87607
AAXX 03064 65445 NIL
AAXX 03064 65450 NIL
AAXX 03064 65453 NIL
AAXX 03064 89610 46/// /0404 11018 39694 4//// 5//// 333 90700 91106
AAXX 03061 33019 32660 72102 10054 20008 39970 40144 52021 875// 333 20053 87637 555 90010
AAXX 03064 96001 32560 62308 10312 20271 39947 40095 57011 83231 333 56500 57852 83820 80860
AAXX 03064 96015 01562 41003 10300 20245 30074 40081 56026 60021 82572 333 56000 69907 82620
AAXX 03064 96033 NIL
AAXX 03064 96075 01410 80000 10257 20242 30082 40088 57015 60131 76366 8792/ 333 56009 57901 60137 83915 84816 80965 80856
AAXX 03064 96087 32460 70610 10302 20231 30051 40084 56017 83232 333 56100 57812 83816 83360 85080 80860
AAXX 03064 96171 32458 73504 10304 20225 30050 40075 57021 85221 333 56000 57801 85815 80856
AAXX 03064 96207 NIL
AAXX 03064 96505 NIL
AAXX 03064 96525 32459 70000 10290 20251 30047 40055 57031 84925 333 56000 57901 81915 83815 86460 80980
AAXX 03064 96529 32460 60000 10322 20248 30044 40068 57029 83131 333 56000 83818
AAXX 03064 96535 01458 80000 10268 20238 30077 40098 57011 60041 70262 8427/ 333 56009 57802 60017 84814 88362 80864
AAXX 03064 96557 11460 83106 10275 20226 30040 40090 57012 69961 70262 8592/ 333 56609 57962 57861 82912 83813 88460 80980 80857
AAXX 03064 96559 01356 82706 10260 20230 30055 40093 57009 60241 70262 8612/ 333 56609 57862 60047 86809 88461 80850
AAXX 03064 96565 NIL
AAXX 03064 96595 01460 72305 10287 20245 30029 40080 57029 60061 71462 86576 333 56000 69907 86612
AAXX 03064 96607 01420 82108 10280 20244 30053 40068 57022 60031 79596 8692/ 333 56009 57940 60037 82914 84613 88459 809//
AAXX 03064 96615 12460 80403 10272 20221 30083 40097 57014 69951 70262 8347/ 333 56009 83617 88461
AAXX 03064 96695 32458 72009 10313 20247 30051 40057 56021 85211 333 56000 57802 85616 80865
AAXX 03064 96737 32457 83403 10304 20237 30045 40076 58012 84271 333 56000 57802 84815 84360 80859
AAXX 03064 96739 31462 70000 10304 20225 30035 40084 56027 85931 333 56000 57901 81918 84820 80981
AAXX 03064 96741 32560 73206 10300 20224 30081 40085 57012 83571 333 56000 83620 85360
AAXX 03064 96745 32559 72405 10300 20227 30091 40096 57013 83571 333 56000 83620 86460
AAXX 03064 96751 32560 70000 10231 20182 39034 48920 56017 85210 333 56600 57861 82820 83620 83460 80880
AAXX 03064 96791 32560 72905 10310 20231 30031 40105 56016 82531 333 56000 83620 85360
AAXX 03064 96797 32560 73118 10310 20244 30081 40087 57008 83971 333 56000 57901 81920 81620 80977
AAXX 03064 96837 NIL
AAXX 03064 96925 01460 82704 10250 20238 30075 40080 57016 60181 79596 85972 333 56900 57960 57860 60187 81917 84817 86460 80980 80860
AAXX 03064 96933 31460 52910 10336 20245 30062 40066 57022 71322 84921 333 56200 57921 81920 83819 80965
AAXX 03064 96937 32562 63212 10347 20257 30055 40060 57028 83211 333 56000 57800 83820 80860
AAXX 03064 96973 31461 73007 10302 20259 30061 40067 57017 72992 83931 333 56000 57903 57803 81919 82820 80976 80856
AAXX 03064 96987 32559 31507 10322 20254 30009 40068 57016 82201 333 56000 57803 82820 80859
AAXX 03064 97014 01559 71903 10275 20237 39961 40054 57021 69951 72162 85871 333 56800 57881 69907 84822 80860
AAXX 03064 97028 NIL
AAXX 03064 97048 31460 62205 10298 20240 30021 40045 57020 71522 85932 333 56100 57901 57801 82917 80980 83817 80860
AAXX 03064 97072 31459 70115 10292 20243 39962 40062 57018 71422 8392/ 333 56009 57901 57802 81919 82819 86459 80980 80860
AAXX 03064 97086 NIL
AAXX 03064 97096 32460 60606 10306 20246 30047 40068 57022 83221 333 56000 57802 82816 83460 80860
AAXX 03064 97120 32462 52402 10314 20254 30017 40050 57022 83931 333 56000 57903 57802 81917 82818 83080 80981 80860
AAXX 03064 97146 NIL
AAXX 03064 97180 11450 71507 10256 20251 30051 40069 58006 60051 79562 83972 333 56000 81917
AAXX 03064 97192 31460 70707 10314 20237 30019 40076 57010 71792 86920 333 56200 57923 82916 84616 80957
AAXX 03064 97230 32462 61907 10312 20241 30059 40066 57016 85902 333 56200 57901 57821 81915 84815 80981 80860
AAXX 03064 97260 32564 53109 10324 20253 30037 40044 57018 84101 333 56000 84820
AAXX 03064 97270 32460 31512 10350 20230 30039 40043 57020 83901 333 56000 57901 81915 82815 80960
AAXX 03064 97300 31562 62603 10328 20226 30027 40067 57010 71521 85201 333 56800 57881 85820 80858
AAXX 03064 97340 32570 10310 10322 20276 30035 40050 57010 81101 333 56000 81820
AAXX 03064 97372 01460 61004 10316 20261 39930 40050 57018 69901 71596 85971 333 56000 69907 81916 84816
AAXX 03064 97430 32460 50606 10310 20247 30019 40048 57025 83232 333 56600 57862 83818 80860
AAXX 03064 97460 01458 71605 10282 20241 30022 40036 57018 69901 72996 84376 333 56100 57921 69907 81917 83818 80959 80858
AAXX 03064 97502 32458 53205 10312 20247 30032 40025 57023 84931 333 56000 57901 81910 83812 80980
AAXX 03064 97530 32462 23605 10316 20246 30027 40032 57021 82201 333 56000 57802 82814 80850
AAXX 03064 97560 01460 62505 10311 20252 30026 40041 57019 69931 71522 84948 333 56000 57901 57803 69937 82916 82620 84361 86279 80980
AAXX 03064 97580 32462 23408 10320 20265 30040 40047 56013 82230 333 56000 57802 82815 80860
AAXX 03064 97600 01460 60903 10292 20252 30043 40049 57022 72162 60041 83271 333 56200 57822 60047 83819 84460 80859
AAXX 03064 97686 NIL
AAXX 03064 97690 31460 71405 10300 20236 39930 40031 57015 71522 84964 333 56000 57901 57801 81916 83816 86080 80978 80860
AAXX 03064 97724 01462 73004 10278 20249 30028 40044 57018 60161 70362 84932 333 56700 57972 57871 60087 81920 82818 80977 80856
AAXX 03064 97748 31457 73212 10284 20258 30057 40059 54000 71799 85972 333 56700 57970 83913 85458 80940
AAXX 03064 97760 11464 72805 10328 20240 30031 40040 57022 69911 70262 83932 333 56000 57901 81915 82816 80968
AAXX 03064 97796 31458 61808 10330 20259 39992 40043 57020 70522 84932 333 56000 57902 81914 84814 80980
AAXX 03064 97810 32464 63008 10304 20252 30025 40034 56020 85832 333 56000 57801 83819 80858
AAXX 03064 97876 NIL
AAXX 03064 97900 31468 62405 10300 20257 30013 40042 58016 70392 85920 333 56600 57961 84915 80975
AAXX 03064 97980 NIL
AAXX 03064 97008 32459 20805 10311 20245 30037 40047 57015 82201 333 56000 82819
AAXX 03064 97016 31460 70306 10322 20239 30052 40054 57010 70592 84972 333 56000 57901 57801 81918 83919 80984 80860
AAXX 03064 97126 32458 51704 10316 20248 39987 40047 57041 83921 333 56000 57902 57802 81916 82817 80980 80860
AAXX 03064 97142 NIL
AAXX 03064 97182 11565 71408 10272 20230 30049 40053 55018 60031 79696 82270 333 56000 57800 82820 86460 808//
AAXX 03064 97240 31460 62110 10324 20245 39949 40063 57016 70521 84131 333 56000 84816
AAXX 03064 97284 01458 73004 10242 20202 38839 40077 57016 69901 71796 86971 333 56000 57901 57801 69907 82910 85812 80959
AAXX 03064 97310 32568 31809 10325 20253 30041 40053 57013 83101 333 56000 83820
AAXX 03064 97320 31564 43106 10332 20237 30035 40048 57018 71400 84201 333 56000 57801 84820 80850
AAXX 03064 97378 32570 20000 10302 20244 39894 40057 56011 60271 70196 82101 333 56000 81820
AAXX 03064 97380 NIL
AAXX 03064 97406 32460 30905 10314 20216 30014 40039 58027 82201 333 56000 57802 82818 80860
AAXX 03064 97570 11460 73509 10272 20258 30037 40044 57026 60077 71464 333 56000 57901 82914 86616 80960
AAXX 03064 97630 31365 72008 10304 20255 39882 40042 57012 71522 86943 333 56000 57901 82912 85813 80978
AAXX 03064 97682 32465 33306 10326 20263 30026 40033 57022 83203 333 56000 57804 82814 80850
AAXX 03064 97698 32461 60000 10318 20244 30042 40049 57028 83932 333 56000 57902 57802 81916 83817 85079 80970 80862
AAXX 03064 97700 31458 53605 10298 20252 30031 40045 57020 71511 84932 333 56000 57903 83920 80972
AAXX 03064 97722 01458 73003 10279 20250 30025 40040 57024 69931 79196 85972 333 56800 57981 69937 82917 85458 80971
AAXX 03064 97780 NIL
AAXX 03064 97790 01565 33207 10305 20259 30006 40027 57012 69911 70162 81232 333 56000 57801 69917 81820 80858
BBXX 44140 03061 99429 70515 46/// /0510 10128 40194 57021 22200 00116 11105 70027 333 91213
BBXX 46247 03061 99378 71228 46/// ///// 1//// 90621 22200 00115 11506 20804 329// 41504 70030
BBXX 46243 03061 99462 71241 46/// ///// 1//// 90629 22200 00093 10905 20905 327// 41103 70027
BBXX 46236 03061 99368 71219 46/// ///// 1//// 90620 22200 00125 11004 21003 328// 41703 70021
BBXX 46229 03061 99438 71246 46/// ///// 1//// 90621 22200 00108 11407 20905 329// 41404 70034
BBXX 46225 03061 99329 71174 46/// ///// 1//// 90614 22200 00162 11402 20902 321// 41401 70010
BBXX 46213 03061 99403 71247 46/// ///// 1//// 90624 22200 00110 11110 21008 334// 41107 70052
BBXX 46215 03061 99352 71209 46/// ///// 1//// 90608 22200 00128 11003 21002 329// 41102 70016
AAXX 03064 68916 32370 60710 10160 20124 39942 40212 52004 86500 333 20150 91030 555 10201 91021
BBXX 44099 03061 99369 70757 46/// ///// 1//// 90622 22200 00134 11102 21002 310// 41101 70012
BBXX 41009 03061 99285 70802 46/// /0610 10224 20129 40264 90620 22200 00257 11104 20604 300// 41102 70022 333 91213 555 11105 22110
BBXX 42361 03061 99276 70925 46/// ///07 10222 20150 40224 58016 90630 555 11058 22061
BBXX 44100 03061 99363 70756 46/// ///// 1//// 90622 22200 00143 11302 21002 310// 41302 70012
BBXX 41110 03061 99341 70777 46/// ///// 1//// 90621 22200 00160 11102 21001 311// 41101 70008
BBXX 42099 03061 99273 70842 46/// ///// 1//// 90627 22200 00245 10603 20603 70016
BBXX 41113 03061 99284 70805 46/// ///// 1//// 90621 22200 00212 11102 20602 309// 41101 70012
BBXX 42013 03061 99272 70829 46/// ///// 1//// 40263 90540 22200 00208
BBXX 46036 03061 99484 71339 46/// /3005 10076 40410 52001 22200 00085 11404 70022 333 91206
BBXX 46036 03061 99484 71339 46/// /3005 10076 40410 52001 22200 00085 11404 70022 333 91206
BBXX 44039 03061 99411 70727 46/// /3608 10064 20005 40337 90553 22200 00115 10301 70006 333 91211
AAXX 03061 40608 12960 02702 10020 21044 40269 52015 60002
AAXX 03061 40621 12960 00000 10063 21060 40281 52009 60002
AAXX 03061 40629 12960 00000 11008 21077 40284 52010 60002
AAXX 03061 40634 12960 00000 10019 21051 40256 51009 60002
AAXX 03061 40642 12960 00000 10010 21111 40269 54000 60002
AAXX 03061 40650 11940 03102 10042 21067 40256 52014 60002 70500
AAXX 03061 40656 12960 02702 10031 21054 40238 52013 60002
AAXX 03061 40665 12960 03104 10085 21006 40252 52011 60002
AAXX 03061 40666 12960 03306 10073 21068 40237 53007 60002
AAXX 03061 40670 12960 03002 10045 21045 40249 53010 60002
AAXX 03061 40672 12960 00000 10066 21040 40254 51008 60002
AAXX 03061 40676 12960 02702 10064 21085 40252 52012 60002
AAXX 03061 40680 12960 03202 10080 20007 40232 53004 60002
AAXX 03061 40690 12960 02603 10061 20000 40239 52014 60002
AAXX 03061 40691 12960 02404 10102 21022 40256 52014 60002
AAXX 03061 88900 46/// /2416 10020 20014 30019 40022 52007 333 55019
AAXX 03064 87257 32965 00506 10156 20120 30001 40103 58015
BBXX 42363 03061 99282 70892 46/// /1114 10206 20100 40271 90630 333 91214
BBXX 42364 03061 99291 70881 46/// /1208 10194 20100 40278 90630
BBXX 46238 03061 99334 71195 46/// ///// 1//// 90620 22200 00140 11703 21002 329// 41702 70014
BBXX 46239 03061 99363 71221 46/// ///// 1//// 90621 22200 00120 11708 21005 329// 41706 70041
AAXX 03064 41258 26/// /2604 10252 20167 30150 40154 333 0E/// 20232 59016 70000
BBXX 64045 03064 99591 70117 46/// /3033 10070 21002 49856 51025 22200 00103 11018 70090 333 90710 91143
BBXX 63106 03064 99610 10017 46/// /2124 10066 49610 56042 22200
BBXX 63105 03064 99610 10017 47996 ///// 10068 20036 49611 57043 740// 22200
BBXX 63119 03064 99578 70022 41296 82645 10060 20015 49767 57010 76322 8/778 22200 20408 326// 40610 5//// 80042
BBXX 62094 03064 99517 70067 46/// /2819 10119 20069 40048 52006 22200 00122 10606 70031 333 90710 91128
BBXX 62107 03064 99501 70061 46/// /2927 10124 20108 40087 50002 22200 00126 10908 70039 333 90710 91143
BBXX 62092 03064 99512 70105 46/// /2819 10121 20106 40084 55002 22200 00126 10910 70050 333 90710 91129
BBXX 62092 03064 99512 70105 46/// /2819 10121 20106 49336 55002 22200 00126 10910 70050 333 90710 91129
BBXX 62095 03064 99530 70159 46/// /2818 10104 20061 40070 52001 22200 00120 11013 70066 333 90710 91127
BBXX 62305 03064 99504 10000 46/95 /2437 10131 20117 40019 57062 22200 00139 108// 333 90710 91152
BBXX A8IY4 03061 99427 70332 41497 72409 10150 20116 40320 54000 70322 877// 22214 04152 21503 80130
BBXX 44060 03061 99413 70721 46/// ///06 10051 40330 90630 22200 00121 333 91208 555 11062 22067
BBXX 44022 03061 99409 70737 46/// ///03 10058 21008 40340 90630 22200 00106 333 91204 555 11031 22031
BBXX 44040 03061 99410 70736 46/// /0104 10061 21004 40347 90619 22200 1//00 70000 333 91206 555 11051 22062
AAXX 03063 63661 12480 30000 10188 20152 48529 60094 81230 333 20134 59014 81819 83359
AAXX 03063 63671 32580 61306 10261 20232 862// 333 20239 86820
AAXX 03063 63695 31357 71402 10166 20158 74042 8465/ 333 20128 84707 87359
AAXX 03063 63723 32582 71006 10284 20235 40109 8623/ 333 20248 59016 86826
AAXX 03063 63793 32580 40000 10267 20208 40101 82231 333 20209 59003 82820
AAXX 03064 63688 12480 50912 10175 20141 48/// 60064 81231 333 20115 59013 81819 85358
AAXX 03064 63708 12980 50000 10240 20167 48497 69924 85030 333 20188 59016 85358
AAXX 03064 63714 11480 70000 10164 20153 48501 60044 70242 8223/ 333 20137 59009 82816 87359
AAXX 03064 63740 11365 70609 10181 20172 48517 69934 72065 8523/ 333 20160 59010 82706 84818 86358
AAXX 03064 63772 12580 43605 10275 20253 60244 82331 333 20237 81922 84359
AAXX 03064 63820 32580 30000 10285 20244 40121 83930 333 20238 59010 83821 81922
AAXX 03064 63612 NIL
AAXX 03064 63661 NIL
AAXX 03064 63671 NIL
AAXX 03064 63695 NIL
AAXX 03064 63723 NIL
AAXX 03064 63793 NIL
BBXX 46219 03061 99332 71199 46/// ///// 1//// 90628 22200 00135 11104 21003 331// 41103 70019
BBXX 46214 03061 99379 71235 46/// ///// 1//// 90630 22200 00119 11110 21007 332// 41106 70048
BBXX C6SE3 03064 99126 70711 41697 70621 10289 20277 40170 54/// 70311 87/// 22264 00309 20903 306// 41504 5//// 6//// 80280 ICE /////
BBXX WDA2768 03064 99460 70859 43/// /1726 00/// 10041 21006 40249 55015 7//// 8//// 22200 0//// 2//// 3//// 4//// 5//// 6//// 80022 ICE /////
BBXX WC5932 03064 99459 70859 43/// /2233 00/// 10026 21056 40206 5//// 7//// 8//// 22200 0//// 2//// 3//// 4//// 5//// 6//// 81003 ICE /////
BBXX ZCDM8 03063 99205 70185 41/97 /0513 10201 20152 40151 51012 705// 8//// 22284 00204 20304 306// 40607 5//// 80172
BBXX WDC 03064 99458 70858 41/97 61940 11030 40240 70222 22213
BBXX WRAH 03064 99288 10496 41498 33224 10180 2//// 40186 52014 7//00 8281/ 22274 00235 20305 336// 40506 5//// 6//// 8//// ICE /////
BBXX WCZ5238 03064 99297 50901 41598 82413 10190 20141 40228 54/// 7//22 8872/ 22273 00201 20302 324// 40605 5//// 6//// 80160 ICE /////
BBXX V7NV4 03064 99199 70665 41898 51006 10250 20222 40150 54/// 7//21 84191 22234 00270 20102 30909 40102 5//// 6//// 80230 ICE /////
BBXX WKAB 03063 99410 70435 41498 82024 10180 20130 40285 57025 70222 885// 22264 00180 20506 3//// 4//// 5//// 6//// 80150 ICE /////
BBXX WKAE 03063 99294 70796 41598 70520 10200 20127 40258 51005 70222 87100 22285 00260 2//// 3//// 4//// 5//// 6//// 80156 ICE /////
BBXX 9HXC9 03064 99261 70792 41498 30522 10238 20085 40249 55005 7//11 83205 22253 04269 20502 3//// 40602 5//// 6//// 80150 ICE /////
BBXX 51202 03061 99214 71577 46/// ///// 1//// 90609 22200 00246 11005 21004 335// 41303 70024
BBXX OYCY2 03064 99388 11596 41498 40110 10080 2004/ 40320 52010 7//22 841// 22224 00180 20201 301// 40706 5//// 6//// 80060 ICE /////
BBXX UGWJ 03061 99405 11316 42/98 82011 10060 40140 57025 887// 22242 00090 20304 30000
BBXX UFLT 03061 99526 11470 42/97 93008 11060 40232 54000 22213 00030 20704 336// 40906 61011
BBXX ZCBZ4 03063 99152 11302 41/98 20910 10315 20274 40089 57010 70200 82100 22214 20403 31616 40303 50201 80285
BBXX A8HD5 03061 99053 10978 41498 32304 10300 20258 40105 54000 70100 82144 22274 04290 20401 300// 4//// 5//// 80270
BBXX A8NO8 03064 99269 11215 41/96 90223 10140 20064 40210 56020 70511 89/// 22255 04220 20508 30000 80100
BBXX DDZC2 03064 99384 11789 41598 43219 10115 20069 40145 57005 7//// 83860 22225 00170 2//05 334// 4//06 5//// 80091
BBXX AMOUK01 03064 99178 30036 46/// ///// 10192 20139 30159 40170 52009 90550
BBXX A8FQ8 03063 99084 70169 41/98 /3616 10265 20230 40120 54000 7//22 8//// 22235 00299 20403 80240
BBXX AMOUK17 03064 99379 30504 46/// ///// 10178 20159 30086 40095 57024 90550
BBXX AMOUK15 03064 99339 30184 46/// ///// 10189 20122 30172 40199 52018 90550
BBXX ZCDM8 03063 99205 70185 41/97 /0513 10201 20152 40151 51012 705// 8//// 22284 00204 20304 306// 40607 5//// 80172
BBXX WRAH 03064 99288 10496 41498 33224 10180 2//// 40186 52014 7//00 8281/ 22274 00235 20305 336// 40506 5//// 6//// 8//// ICE /////
BBXX MINFR03 0306/ 99280 30153 46/// ///// 10155 40146 52016
BBXX PCDE 03063 99367 30193 41598 61621 10183 20102 40248 52014 7//22 8/4// 22223 20506 315// 40607 80136
BBXX WDA2768 03064 99460 70859 43/// /1726 00/// 10041 21006 40249 55015 7//// 8//// 22200 0//// 2//// 3//// 4//// 5//// 6//// 80022 ICE /////
BBXX SHIP 03064 99458 70858 41/97 61940 11030 40240 70222 22214 0 702
BBXX WC5932 03064 99459 70859 43/// /2233 00/// 10026 21056 40206 5//// 7//// 8//// 22200 0//// 2//// 3//// 4//// 5//// 6//// 81003 ICE /////
BBXX WCZ5238 03064 99297 50901 41598 82413 10190 20141 40228 54/// 7//22 8872/ 22273 00201 20302 324// 40605 5//// 6//// 80160 ICE /////
BBXX VQHO7 03064 99471 50764 41298 81105 10110 20090 40080 58020 70222 8/7// 22244 00096 20302 318// 40606 5//// 80100
BBXX ZDLP 03063 99580 50564 41/97 82517 10028 20020 40057 53008 70222 886// 22242 04014 20101 324// 40502 5//// 80025
BBXX 62141 03064 99493 50590 41/93 /2516 10085 20085 40115 58019 74554 8//// 22200 20702 3//// 4//// 5//// 80085
BBXX TBWUK18 03064 99254 50350 41297 83418 10230 20230 40141 56030 70322 887// 22263 20602 318// 41405 5//// 80230
BBXX 44039 03061 99411 70727 46/// /3608 10064 20005 40337 90553 22200 00115 10301 70006 333 91211
BBXX 46036 03061 99484 71339 46/// /3005 10076 40410 52001 22200 00085 11404 70022 333 91206
BBXX 42013 03061 99272 70829 46/// ///// 1//// 40263 90540 22200 00208
BBXX 44099 03061 99369 70757 46/// ///// 1//// 90622 22200 00134 11102 21002 310// 41101 70012
BBXX 41110 03061 99341 70777 46/// ///// 1//// 90621 22200 00160 11102 21001 311// 41101 70008
BBXX 44100 03061 99363 70756 46/// ///// 1//// 90622 22200 00143 11302 21002 310// 41302 70012
BBXX 41009 03061 99285 70802 46/// /0610 10224 20129 40264 90620 22200 00257 11104 20604 300// 41102 70022 333 91213 555 11105 22110
BBXX 41113 03061 99284 70805 46/// ///// 1//// 90621 22200 00212 11102 20602 309// 41101 70012
BBXX 42361 03061 99276 70925 46/// ///07 10222 20150 40224 58016 90630 555 11058 22061
BBXX 42099 03061 99273 70842 46/// ///// 1//// 90627 22200 00245 10603 20603 70016
BBXX 46213 03061 99403 71247 46/// ///// 1//// 90624 22200 00110 11110 21008 334// 41107 70052
BBXX 46229 03061 99438 71246 46/// ///// 1//// 90621 22200 00108 11407 20905 329// 41404 70034
BBXX 46225 03061 99329 71174 46/// ///// 1//// 90614 22200 00162 11402 20902 321// 41401 70010
BBXX 46215 03061 99352 71209 46/// ///// 1//// 90608 22200 00128 11003 21002 329// 41102 70016
BBXX 46243 03061 99462 71241 46/// ///// 1//// 90629 22200 00093 10905 20905 327// 41103 70027
BBXX 46247 03061 99378 71228 46/// ///// 1//// 90621 22200 00115 11506 20804 329// 41504 70030
BBXX 46236 03061 99368 71219 46/// ///// 1//// 90620 22200 00125 11004 21003 328// 41703 70021
BBXX 44140 03061 99429 70515 46/// /0510 10128 40194 57021 22200 00116 11105 70027 333 91213
BBXX WKAE 03063 99294 70796 41598 70520 10200 20127 40258 51005 70222 87100 22285 00260 2//// 3//// 4//// 5//// 6//// 80156 ICE /////
BBXX 9HXC9 03064 99261 70792 41498 30522 10238 20085 40249 55005 7//11 83205 22253 04269 20502 3//// 40602 5//// 6//// 80150 ICE /////
BBXX 44258 03061 99445 70634 46/// /0404 10041 40285 52001 22200 00080 11104 70018 333 91205
BBXX KS094 03064 99185 70644 43/// /0410 10264 40146 22200 06267
BBXX KS099 03064 99263 70818 43/// /1103 10166 40257 22200 06352
BBXX KS088 03064 99267 70801 43/// /1217 10224 40242 22200 06220
BBXX 46146 03061 99493 71237 46/// /0803 10054 40339 52006 22200 00068 10200 70002 333 91203
BBXX 46004 03061 99509 71361 46/// /2405 10075 40388 57010 22200 00078 11205 70025 333 91206
BBXX V7NV4 03064 99199 70665 41898 51006 10250 20222 40150 54/// 7//21 84191 22234 00270 20102 30909 40102 5//// 6//// 80230 ICE /////
BBXX WKAB 03063 99410 70435 41498 82024 10180 20130 40285 57025 70222 885// 22264 00180 20506 3//// 4//// 5//// 6//// 80150 ICE /////
BBXX DDSC2 03063 99115 70749 41398 40421 10280 20246 40100 57017 70311 82445 22214 06279 20604 327// 40604 80255
BBXX 46184 03061 99539 71389 46/// /2107 10067 40341 57006 22200 00068 11206 70031 333 91208
BBXX 46181 03061 99538 71288 46/// /2504 1//// 4//// 5//// 22200 0//// 1//// 70/// 333 912//
BBXX 44063 03061 99390 70764 46/// /3501 1//// 90610 333 91204
BBXX 44041 03061 99372 70768 46/// /0403 1//// 90610 333 91205
BBXX 44063 03061 99390 70764 46/// /0000 10063 40351 50006 90600 22200 00096 333 91203
BBXX 44042 03061 99380 70763 46/// /0308 10090 90600 22200 00113 10201 70003 333 91210
BBXX 41010 03061 99289 70785 46/// /0510 10215 40258 90620 22200 00243 11005 20604 300// 41003 70024 333 91211 555 11101 22106
BBXX 44043 03061 99392 70764 46/// /3506 1//// 90620 333 91207
BBXX 44043 03061 99392 70764 46/// /3505 1//// 40343 90610 333 91207
BBXX 44043 03061 99392 70764 46/// /3505 10069 40342 52010 90600 22200 00090 10201 70003 333 91206
BBXX FHZI 03064 99643 31371 46/// /2628 11028 21080 39860 49871 52012 22200 05011 86044
BBXX KS044 03064 99165 31472 43/// /0914 10281 40064 22223 06286
BBXX ELZU8 03063 99015 11044 41598 73106 10295 20233 40085 56005 70222 85138 22200 20101 303// 40303 5//// 80250
BBXX MINFR09 0306/ 99013 11038 46/// ///// 40086 57021
BBXX ZMKA 03064 99373 31780 41397 80514 10172 20164 40220 57010 70122 8577/ 22233 20301 305// 40502 80167
BBXX VROB 03064 99250 31534 46/// /1621 10233 20146 30118 40143 57017 22283 04253 85177
BBXX VNAH 03064 99353 31336 46/// /1519 10148 20095 30214 40238 57005 22263 04173 85119
BBXX WDF9323 03063 99117 31616 41398 71009 10320 2028/ 40070 50000 702// 8446/ 22254 0//// 29901 310// 4//// 5//// 6//// 80290 ICE /////
BBXX UANA 03061 99750 10353 41/97 93005 10009 49712 50003 77321 8//// 22252 04010 20302
BBXX 61002 03064 99421 10047 46/// /0724 10143 2//// 40214 52012 22200 00174 10705 70025 555 1/031
BBXX DQVI 03063 99360 10204 41698 43604 10168 40250 54000 70211 84100 22224 00200 29901
BBXX 44041 03061 99372 70768 46/// /0503 10087 40359 51017 90600 22200 00112 1//00 70000 333 91205
BBXX 44061 03061 99388 70770 46/// /0303 10068 40350 51011 90600 22200 00086 333 91204
BBXX 46092 03061 99368 71220 46/// /3403 10116 40147 52004 90557 22200 00129 555 11031 22031
BBXX 44057 03061 99395 70761 46/// /3302 1//// 90610 333 91203
BBXX 44058 03061 99376 70763 46/// /0410 1//// 90610 333 91212
BBXX 44057 03061 99395 70761 46/// /3002 10052 90600 22200 00089 333 91203
BBXX 44058 03061 99376 70763 46/// /0410 10093 40337 51019 90600 22200 00115 10302 70009 333 91213
BBXX 44059 03061 99368 70763 46/// /0406 1//// 90600 333 91209
BBXX 44061 03061 99388 70770 46/// /0102 1//// 90610 333 91203
BBXX PENR 03063 99124 70602 41497 60412 10270 20234 40104 58019 70222 84218 22254 20401 80245
BBXX ZCDM6 03063 99248 70795 41498 50436 10226 20193 40242 53/// 70322 82260 22284 00260 20605 30499 40605 5//// 80205
BBXX ZCDP8 03063 99121 70627 41/98 /0724 10274 20240 40113 52009 70211 8//// 22224 00280 20202 307// 40303 5//// 80250
BBXX 46132 03061 99497 71279 46/// /3410 10083 40352 5//// 22200 0//// 1//// 70/// 333 912//
BBXX 46205 03061 99542 71343 46/// /2608 10075 40348 5//// 22200 00076 11107 70034 333 91209
BBXX 46206 03061 99488 71260 46/// /3303 10086 40328 52001 22200 00097 11206 70030 333 91205
BBXX 46208 03061 99525 71327 46/// ///// 1//// 4//// 5//// 22200 0//// 1//// 70/// 333 912//
BBXX 44032 03061 99437 70694 46/30 /3509 10047 40299 53024 90604 22200 00096 11104 70018 333 91210 555 11103 22108
BBXX 44029 03061 99425 70706 46/30 /3208 10053 40308 53021 90604 22200 00098 10301 70007 333 91210 555 11102 22107
BBXX 44030 03061 99432 70704 46/// /3308 1//// 40310 51022 90604 22200 00093 11103 70013 333 91209 555 11096 22102
BBXX 44040 03061 99410 70736 46/// /0104 10061 21007 40346 90615 22200 1//00 70000 333 91206 555 11057 22067
BBXX 46087 03061 99485 71247 46/// /0904 10069 20051 40333 90620 22200 00088 333 91206 555 11046 22047 30554 40906 60619 090043 087041 087044 087042 089043 083042
BBXX 41036 03061 99342 70770 46/// ///// 10148 20034 40310 90620 22200 00171
BBXX 46185 03061 99524 71298 46/// /2904 10081 40363 57005 22200 00079 10802 70009 333 91205
BBXX C6VG7 03064 99217 70858 41798 11125 10239 2004/ 40203 54000 7//00 81/6/ 22214 00280 20305 313// 4//// 5//// 6//// 80133 ICE /////
BBXX C6SE3 03064 99126 70711 41697 70621 10289 20277 40170 54/// 70311 87/// 22264 00309 20903 306// 41504 5//// 6//// 80280 ICE /////
BBXX DGTX 03063 99094 70861 41997 20604 10260 20213 40125 54000 70100 80005 22274 00290 20100 80227
AAXX 03064 91723 NIL
AAXX 03064 91964 NIL
AAXX 03064 94996 41150 83605 10219 20210 39996 40132 53002 72582 8727/ 90630
AAXX 03064 94996 41150 83605 10219 20210 39996 40132 53002 72582 8727/ 90630
AAXX 03060 67493 32580 11701 10276 20220 81100 333 20201 5//// 55114 81530 555 10346 7//11
AAXX 03061 31152 42998 60000 11300 21337 39870 40320 57004 83032
AAXX 03061 31163 NIL
AAXX 03061 31285 42999 22001 11191 21249 30208 40293 57015 80001
AAXX 03061 31561 42998 30202 11123 21185 30225 40254 57028 80001
AAXX 03061 31683 42999 00000 11112 21185 30190 40268 57023
AAXX 03061 32010 41498 22504 11117 21152 30207 40259 54000 70281 82900 333 91007 91109
AAXX 03064 16168 11//0 91205 10126 20124 39457 42816 58004 60062 74562 333 20120 32/// 89/00
BBXX 44137 03061 99423 70620 46/// /0204 10066 40271 57004 22200 00123 11204 70022 333 91206
BBXX A8UE5 03064 99544 71686 41497 81529 10055 20043 49870 56050 75122 888// 22265 04040 20908 3//// 41209 5//// 80050
BBXX SHIP 03064 99411 71769 41498 92623 10100 20061 40091 51009 70122 86360 90600 22223 00150 2//// 3//// 4//// 80080
BBXX SHIP 03064 99405 71605 41/96 80702 10140 20140 40077 56002 70302 88/// 90555 22224 00150 2//// 3//// 4//// 5//// 80140
BBXX 3FBC9 03064 99322 11548 41/96 /0930 10190 40165 56003 75122 8//// 9//// 22222 00230 20408 308// 40510 5//// 6//// 80170
BBXX DDZC2 03064 99384 11789 41598 43219 10115 20069 40145 57005 7//// 83860 22225 00170 2//05 334// 4//06 5//// 80091
BBXX OYCY2 03064 99388 11596 41498 40110 10080 20040 40320 52010 7//22 841// 22224 00180 20201 301// 40706 5//// 6//// 80060 ICE /////
BBXX SHIP 03064 99307 11719 41497 80220 10200 20153 40150 54000 7//22 8872/ 22213 00230 21004 306// 4//// 50903 6//// 80170 ICE /////
BBXX 44137 03061 99423 70620 46/// /0204 10066 40271 57004 22200 00123 11204 70022 333 91206
AAXX 03061 14015 11562 82502 10115 20091 39825 40179 55003 69922 76052 8657/ 333 20100 31008 55003 70002 86630 555 20067 30063
AAXX 03064 60680 12970 41006 10097 21013 38653 48526 56004 60004 83032 333 00600 20081 83362 95900
AAXX 03064 71049 16/// /3502 11263 30073 40097 50004 60001 333 11183 21274 70000
AAXX 03064 71490 16/// /2908 11278 21302 39827 40163 55000 60001 333 11221 21300 70000
AAXX 03064 71923 46/// ///07 11231 21251 39680 40143 53005 6///1 333 11188 21246 7//// 555 10010
AAXX 03064 71963 16/// /3304 11305 21335 39734 40160 58002 60001 333 11213 21305 7////
AAXX 03064 71426 46/// /3217 11033 6///1 333 11016 21034 7//// 555 30320 40001
AAXX 03064 71761 16/// ///// 11125 21140 60001 333 10044 21125 70000
AAXX 03064 71277 46/// /2107 11035 21091 6///1 333 10020 21056 7//// 555 32943 40153
AAXX 03064 71592 16/// /0704 11228 21262 30020 40034 53013 60001 333 11192 21239 70000
BBXX 46004 03061 99509 71361 46/// /2405 10075 40388 57010 22200 00078 11205 70025 333 91206
BBXX 46036 03061 99484 71339 46/// /3005 10076 40410 52001 22200 00085 11404 70022 333 91206
BBXX 46145 03061 99544 71324 46/// /2910 10074 40341 52006 22200 00078 11206 70030 333 91212
BBXX 46181 03061 99538 71288 46/// /2504 1//// 4//// 5//// 22200 0//// 1//// 70/// 333 912//
BBXX 46183 03061 99536 71311 46/// /2606 10077 40358 52004 22200 00085 10402 70008 333 91207
BBXX 46185 03061 99524 71298 46/// /2904 10081 40363 57005 22200 00079 10802 70009 333 91205
BBXX 46204 03061 99514 71288 46/// /2904 10084 40365 57005 22200 00090 11003 70016 333 91205
BBXX 46205 03061 99542 71343 46/// /2608 10075 40348 5//// 22200 00076 11107 70034 333 91209
BBXX 46206 03061 99488 71260 46/// /3303 10086 40328 52001 22200 00097 11206 70030 333 91205
BBXX 46208 03061 99525 71327 46/// ///// 1//// 4//// 5//// 22200 0//// 1//// 70/// 333 912//
BBXX WDB3161 03064 99448 71355 41698 31911 10090 20060 40411 54000 7//11 8381/ 22234 00115 20202 328// 41004 5//// 6//// 80075 ICE /////
BBXX WDD2074 03064 99557 71415 41697 71919 10056 20030 40240 52020 70311 8542/ 22233 00050 2//// 3//// 4//// 5//// 6//// 80044 ICE /////
BBXX WECH 03064 99380 71427 43/97 11019 10156 20130 40370 52020 7//// 80//9 22235 00161 2//// 3//// 4//// 5//// 6//// 80144 ICE /////
AAXX 03064 71592 16/// /0704 11228 21262 30020 40034 53013 60001 333 11192 21239 70000
AAXX 03064 71049 16/// /3502 11263 30073 40097 50004 60001 333 11183 21274 70000
AAXX 03064 71963 16/// /3304 11305 21335 39734 40160 58002 60001 333 11213 21305 7////
AAXX 03064 71490 16/// /2908 11278 21302 39827 40163 55000 60001 333 11221 21300 70000
AAXX 03064 71923 46/// ///07 11231 21251 39680 40143 53005 6///1 333 11188 21246 7//// 555 10010
AAXX 03064 71277 46/// /2107 11035 21091 6///1 333 10020 21056 7//// 555 32943 40153
AAXX 03064 71426 46/// /3217 11033 6///1 333 11016 21034 7//// 555 30320 40001
AAXX 03064 71761 16/// ///// 11125 21140 60001 333 10044 21125 70000
BBXX 44138 03061 99443 70536 46/// /0209 10055 40239 57004 22200 00087 11206 70032 333 91211
AAXX 03061 37470 32996 03204 10041 21012 30271 40249 51015 333 55060
AAXX 03061 37472 32597 82901 10024 21000 302172 40248 520001 8357/ 333 55041
AAXX 03061 37661 42998 03101 10014 21049 39485 40264 52018
AAXX 03061 37675 42999 02903 10008 21012 39597 40275 52017
AAXX 03061 37729 42598 21804 11028 21052 38559 54000 82100 333 21067
AAXX 03061 37735 42999 02902 10039 21027 39813 40196 52002
AAXX 03061 37740 42999 00501 10007 21054 29436 40264 52012
AAXX 03061 37749 42998 02701 10022 21015 30173 40294 53012
AAXX 03061 37832 32998 0000 10041 21024 40260 52022 333 20010
AAXX 03061 37851 42998 00000 10051 20004 30183 40259 53029 555 20020
AAXX 03061 37864 32597 23205 10072 20038 40254 52018 82200 333 20010 555 30///
AAXX 03061 37905 42997 00000 10031 21030 40261 53004
AAXX 03061 37923 42997 50000 10056 20006 40229 53011 85050 333 20010
AAXX 03061 37925 42998 32703 10048 21005 30280 40250 52002 83050 333 20016
AAXX 03061 37985 42999 02001 10032 21009 30274 40259 51004
AAXX 03061 37989 42999 02702 10051 21008 40265 52012
AAXX 03061 38111 /1497 83601 10021 20011 30260 40231 53002 76162 8802/ 555 20011 69962 79961
AAXX 03061 38750 32997 61103 10032 20000 40236 57009 86240 333 55081 555 20027 30001 70001
BBXX 44138 03061 99443 70536 46/// /0209 10055 40239 57004 22200 00087 11206 70032 333 91211
AAXX 03064 41506 02997 01802 10120 20007 48502 60001 333 59027 60007
AAXX 03064 41508 22997 00000 10135 20014 48534 60001 333 59025 60007
AAXX 03064 41523 12997 00000 10150 20022 48515 60001 333 56000 59032 60007
AAXX 03064 41535 12997 00000 10180 20039 48488 60001 333 59020
AAXX 03064 41536 12697 10000 10150 20049 48493 60001 81200 333 56900 59040 81840
AAXX 03064 41573 12997 01302 10160 20069 48479 60001 333 59035
AAXX 03064 41600 01995 00000 10210 20111 39823 40114 60001 70400 333 59044 60007
AAXX 03064 41630 11995 00000 10215 20128 40127 60001 70400 333 59047
AAXX 03064 41678 02997 00000 10225 20140 40132 60001 333 59036 60007
AAXX 03064 41696 32997 00000 10130 20029 38023 48526 60001 333 59021 60007
AAXX 03064 41697 02997 00000 10244 20155 40128 60001 333 59038 60007
AAXX 03064 41700 11995 00000 10230 20136 40117 60001 70400 333 59041
AAXX 03064 41725 02996 00000 10255 20148 40119 60007 333 59054 60007
AAXX 03064 41746 02996 03104 10260 20164 40148 60001 333 59015 60007
AAXX 03064 41759 12996 02704 10280 20196 30138 40143 60001 333 59016
AAXX 03064 41785 02997 00000 10275 20153 40129 60001 333 59018 60007
AAXX 03064 41529 12997 00000 10161 20093 39800 40184 60001 333 58002
AAXX 03064 41598 11996 00000 10200 20109 39846 40116 60001 70500 333 59048
AAXX 03064 41620 32997 02709 10190 21073 38593 48499 333 59029
AAXX 03064 41624 01996 01302 10195 20103 39924 40123 60001 70400 333 59043 60007
AAXX 03064 41640 01996 02702 10215 20106 39869 40106 60001 70500 333 59050 60007
AAXX 03064 41660 12997 03106 10155 20081 38449 48533 60001 333 59009
AAXX 03064 41675 11993 00000 10235 20132 39983 40127 60001 70400 333 59048
AAXX 03064 41712 11996 00512 10190 20054 39217 48539 60001 70600 333 58003
AAXX 03064 41715 NIL
AAXX 03064 41756 01996 03106 10260 20191 30070 40134 60001 70504 333 59020 60007
AAXX 03064 41764 31996 36002 10270 20125 30077 40126 60001 70400 333 59023 60007
AAXX 03064 41768 02996 03102 10290 20163 30118 40125 60001 333 59018 60007
AAXX 03064 41780 02996 00000 10300 20166 30108 40135 60001 333 59020 60007
AAXX 03064 41515 02997 00000 10123 21001 38550 48513 60001 333 59026 60007
AAXX 03064 41560 22696 41803 10060 21010 38297 48525 60001 83430 333 59003 60007
AAXX 03064 41571 11994 00000 10180 20089 39544 40124 60001 70500 333 59042
AAXX 03064 41594 31994 02304 10210 20100 39907 40121 70500 333 59051
AAXX 03064 41685 32997 03104 10220 20015 38925 48519 333 59019
AAXX 03064 41710 02997 01304 10170 21102 39374 40145 60002 333 58011 60007
AAXX 03064 41718 11995 00000 10240 20139 30020 40122 60001 70500 333 59047
AAXX 03064 41739 02997 00906 10200 20092 39056 48516 60001 333 58006 60007
AAXX 03064 41744 32996 03600 10195 20092 38777 48505 333 59020
AAXX 03064 41749 01995 03603 10260 20144 30099 40131 60001 70400 333 59041 60007
AAXX 03064 41515 02997 00000 10123 21001 38550 48513 60001 333 59026 60007
AAXX 03064 41560 22696 41803 10060 21010 38297 48525 60001 83430 333 59003 60007
AAXX 03064 41571 11994 00000 10180 20089 39544 40124 60001 70500 333 59042
AAXX 03064 41594 31994 02304 10210 20100 39907 40121 70500 333 59051
AAXX 03064 41685 32997 03104 10220 20015 38925 48519 333 59019
AAXX 03064 41710 02997 01304 10170 21102 39374 40145 60002 333 58011 60007
AAXX 03064 41718 11995 00000 10240 20139 30020 40122 60001 70500 333 59047
AAXX 03064 41739 02997 00906 10200 20092 39056 48516 60001 333 58006 60007
AAXX 03064 41744 32996 03600 10195 20092 38777 48505 333 59020
AAXX 03064 41749 01995 03603 10260 20144 30099 40131 60001 70400 333 59041 60007
AAXX 03064 41529 12997 00000 10161 20093 39800 40184 60001 333 58002
AAXX 03064 41598 11996 00000 10200 20109 39846 40116 60001 70500 333 59048
AAXX 03064 41620 32997 02709 10190 21073 38593 48499 333 59029
AAXX 03064 41624 01996 01302 10195 20103 39924 40123 60001 70400 333 59043 60007
AAXX 03064 41640 01996 02702 10215 20106 39869 40106 60001 70500 333 59050 60007
AAXX 03064 41660 12997 03106 10155 20081 38449 48533 60001 333 59009
AAXX 03064 41675 11993 00000 10235 20132 39983 40127 60001 70400 333 59048
AAXX 03064 41712 11996 00512 10190 20054 39217 48539 60001 70600 333 58003
AAXX 03064 41715 NIL
AAXX 03064 41756 01996 03106 10260 20191 30070 40134 60001 70504 333 59020 60007
AAXX 03064 41764 31996 36002 10270 20125 30077 40126 60001 70400 333 59023 60007
AAXX 03064 41768 02996 03102 10290 20163 30118 40125 60001 333 59018 60007
AAXX 03064 41780 02996 00000 10300 20166 30108 40135 60001 333 59020 60007
AAXX 03061 98134 11462 80207 10220 20193 39914 40105 58012 69961 70544 8427/ 333 56899 84819 88357
AAXX 03061 98223 31565 70203 10267 20218 40060 57019 70544 82870 333 56999 82620 87360
AAXX 03061 98232 11565 80407 10240 20223 40104 58020 60081 71562 8557/ 222// 20100 333 56199 85620 88358
AAXX 03061 98325 31460 63203 10305 20266 40052 58018 70544 83570 333 56999 83616 85359
AAXX 03061 98328 31457 71402 10226 20204 38478 40034 58022 74244 84232 333 56299 84813 85358
AAXX 03061 98330 31470 53401 10315 20270 30024 40056 57027 70544 84301 333 56999 84918
AAXX 03061 98336 31468 70405 10300 20261 30068 40073 58019 70544 81271 333 56199 81815 85357
AAXX 03061 98429 31405 10327 20227 40049 57026 70544 82201 333 56999 82825
AAXX 03061 98430 11456 73602 10293 20251 40050 57027 69901 78044 82910 333 56299 82918 82458
AAXX 03061 98431 31470 20902 10293 20258 30004 40051 58025 70544 82200 333 56999 82818
AAXX 03061 98440 31468 80405 10278 20254 30062 40067 58021 71544 8427/ 333 56199 84815 88358
AAXX 03061 98444 31465 30901 10318 20269 30030 40049 58028 71520 83330 333 56999 83918
AAXX 03061 98526 32575 81204 10318 20269 40058 57030 83207 333 56399 83820 88274 98325
AAXX 03061 98531 31570 41603 10330 20266 30042 40046 58031 70544 82231 333 56399 82820 83080
AAXX 03061 98536 11470 40402 10280 20241 39856 40054 58035 60161 70584 83261 222// 20000 333 56199 83818
AAXX 03061 98543 11480 60000 10298 20275 30041 40052 57026 69981 70382 83208 333 56199 83818 85272
AAXX 03061 98550 31460 51401 10312 20252 40043 57030 71511 82341 333 56999 81915 83075
AAXX 03061 98618 32580 61403 10320 20259 40049 58025 83201 333 56999 83820 85075
AAXX 03061 98630 32575 30000 10332 20260 40125 58013 82201 222// 20000 333 56999 82820
AAXX 03061 98637 NIL
AAXX 03061 98646 32460 40804 10301 20262 30044 40072 57021 82902 333 56999 82918 83080
AAXX 03061 98653 31475 20402 10325 20256 30000 40045 57018 70544 81201 333 56199 81818
AAXX 03061 98741 31470 30000 10308 20270 40053 57011 70544 83900 333 56399 83917
AAXX 03061 98747 31460 33602 10318 20260 39838 40040 57029 70544 83200 333 56999 83818
AAXX 03061 98753 31468 32003 10328 20269 40040 57032 70544 84901 333 56999 82915
AAXX 03061 98755 32575 10903 10303 20260 40053 57020 81900 333 56999 81920
AAXX 03061 98836 11462 61102 10326 20250 40056 57022 69901 70282 81231 333 56999 81818 85362
AAXX 03064 94147 15/// /0505 10311 20232 30013 40037 57016 69944 90627
AAXX 03064 94290 46/// /1113 10277 30067 40076 56005 90624
AAXX 03064 94147 15/// /0505 10311 20232 30013 40037 57016 69944 90627
AAXX 03064 94290 46/// /1113 10277 30067 40076 56005 90624
AAXX 03064 89610 46/// /0404 11018 39694 4//// 5//// 333 90700 91106
AAXX 03064 89807 46/// /1908 11062 29059 39800 4//// 5//// 333 90700 91110
AAXX 03064 94210 35/// /0906 10333 30044 40049 57015
AAXX 03064 94289 46/// /1316 10280 30056 40063 56010 90615
AAXX 03064 94379 46/// /1327 10257 30092 40101 56006 90626
AAXX 03061 23426 31569 81803 11079 21089 30108 40133 57002 77172 8352/ 333 21084
AAXX 03061 23625 32999 80000 11090 21097 30106 40141 57001 8805/ 333 21128
AAXX 03061 28076 11997 11002 11148 21161 30090 40166 52005 60030 70271 80001 333 21123
AAXX 03061 28367 11996 82701 11076 21094 30037 40169 52004 69910 70272 8803/ 333 21092
AAXX 03061 28382 11962 80000 11144 21157 30096 40171 54000 60030 77172 8801/ 333 21145
AAXX 03061 28481 11996 72002 11111 21124 30076 40179 53002 60020 77172 87070 333 21106
AAXX 03061 28491 12962 30000 11139 21159 30068 40184 52005 60020 80001 333 21155
AAXX 03061 28573 11494 82103 11118 21131 30075 40184 57001 60030 77572 8802/ 333 21135
AAXX 03061 28593 11996 82102 11113 21119 30082 40185 57002 60020 77172 82025 333 21141
AAXX 03061 28786 11496 82404 11097 21105 30045 40209 57004 69930 77172 8802/ 333 21167 88511
AAXX 03061 28797 11496 82403 11101 21114 30052 40216 58005 69900 77172 8802/ 333 21174 88513
AAXX 03061 28799 11996 72402 11117 21130 30063 40215 57006 69920 77172 87010 333 21167
AAXX 03064 89610 46/// /0404 11018 39694 4//// 5//// 333 90700 91106
AAXX 03064 89807 46/// /1908 11062 29059 39800 4//// 5//// 333 90700 91110
AAXX 03061 20046 11998 72105 11023 21032 39646 49676 52007 69900 70272 8705/ 333 21036
AAXX 03061 20069 41458 72212 11003 21006 39761 49773 53018 73873 875// 333 87611 91116 92980
AAXX 03061 20087 41298 72211 11006 21015 39793 49803 52008 73783 876// 333 86706 91114
AAXX 03061 20292 41395 82311 11026 21036 39862 49881 53004 77373 8872/ 333 91113
AAXX 03061 20353 46/// /2012 11007 21049 39819 49823 52012 333 91117
AAXX 03061 20667 31998 82013 11025 21036 39961 49968 54000 73732 8805/ 333 21025 91119
AAXX 03061 20674 41296 72114 11075 21081 39967 40027 52010 73832 875// 333 86706 91121
AAXX 03061 20744 11496 71912 11004 21019 39813 49830 57026 69950 78583 85930 333 21002 85915 91119
AAXX 03061 20891 41496 72312 11110 21138 30110 40153 57002 73883 8645/ 333 86613 91117 92981
AAXX 03061 23022 31494 81913 11078 21092 39937 49998 57012 73832 885// 333 21078 91121
AAXX 03061 23032 31497 82310 11045 21072 30015 40045 57006 73633 87501 333 21063 87616 91115
AAXX 03061 23058 31296 81606 11179 21198 30162 40167 52002 73632 885// 333 21157 88703
AAXX 03061 23242 31995 21807 11140 21160 30137 40153 58001 73631 82030 333 21124 96110
AAXX 03061 23256 31297 61503 11206 21231 30179 40217 52006 70271 86600 333 21240 86705
AAXX 03061 23330 11497 81803 11089 21100 30109 40130 54000 77172 8672/ 333 21195 86614
AAXX 03061 23445 11295 81403 11137 21150 30166 40193 52001 69920 77172 885// 333 21165 86705
AAXX 03061 23552 12997 00000 11246 21263 30193 40231 52006 69920 333 21240
AAXX 03061 23631 31397 82002 11101 21114 30114 40157 52002 77772 886// 333 21106 88706
AAXX 03061 23662 32999 00000 11242 21266 30193 40242 52003 333 21255
AAXX 03061 23724 32999 30000 11204 21222 30086 40156 57004 80001 333 21234
AAXX 03061 23734 11995 81401 21125 30073 40168 52012 69900 77372 8802/ 333 21113
AAXX 03061 23849 41250 80000 11175 21195 40197 52004 77177 8872/ 333 83706
AAXX 03061 23867 11997 60000 11218 21243 30123 40201 52006 69920 77171 86010 333 21224
AAXX 03061 23933 12697 81303 11164 21175 30121 40181 52009 69940 82507 333 21157
AAXX 03061 28064 31597 83001 11099 21116 30072 40166 52012 77072 885// 333 21098
AAXX 03061 28275 11998 80000 11105 21118 30101 40163 53004 60030 72272 8805/ 333 21095
AAXX 03061 28493 11997 70901 11132 21152 30085 40183 54000 69980 77172 87070 333 21172
AAXX 03061 28698 11958 82302 11132 21152 30035 40198 57002 60020 77172 8801/ 333 21137
AAXX 03061 23929 32576 83301 11101 21107 30095 40165 52008 885// 333 21109
AAXX 03061 28383 11969 80601 11172 21184 30090 40181 52004 60020 77171 82037 333 21180
AAXX 03061 28465 11999 82502 11073 21082 30097 40176 52002 69920 70272 8802/ 333 21110
AAXX 03061 28586 11596 82403 11123 21143 30029 40185 54000 60020 77172 885// 333 21128 88625
AAXX 03061 28588 11933 82402 11128 21148 30024 40191 53003 60020 77172 8802/ 333 21136
AAXX 03061 28688 11996 82403 11128 21148 30031 40200 57005 69940 77172 8801/ 333 21166
AAXX 03061 28696 11930 82105 11130 21150 30053 40200 58002 60020 77173 8802/ 333 21140
AAXX 03061 28791 11996 82503 11109 21122 30049 40200 57007 69900 77172 8801/ 333 21169
AAXX 03064 41287 36/// /2704 10255 20135 30115 40182 333 0E023 20210 59007
BBXX MINUK05 0306/ 99574 70071 46/// ///// 10075 49862 52015
BBXX MINUK03 0306/ 99529 10037 46/// ///// 10113 49956 52004
BBXX MINUK01 0306/ 99576 70017 46/// ///// 10063 49763 52046
AAXX 03061 55279 32980 02908 10043 21258 35674 57013 333 05551 21022 91117 91529
AAXX 03061 55472 32980 02715 10069 21283 35709 57019 333 05602 21108 91122 91527
AAXX 03061 55696 32980 00000 10079 21120 36300 57043 333 05551 21102
AAXX 03061 56079 32780 43202 10062 21110 36622 57016 82102 333 05302 21099
AAXX 03061 56106 32780 12506 10071 21195 36157 57031 81100 333 05706 21112
AAXX 03061 56257 32980 00701 10100 21155 36215 57045 333 05604 21094
AAXX 03061 56374 32780 10906 10062 21022 37349 57036 81100 333 05452 21036
AAXX 03061 56385 31/00 91803 11021 21021 36951 57026 74544 333 05460 21050
AAXX 03061 56954 31580 71802 10196 20153 40120 57026 71500 8726/ 333 05253 20115
AAXX 03061 56966 32770 71105 10223 20114 40104 57039 87400 333 05551 20130
AAXX 03061 57237 32970 82901 10090 20038 40179 57030 8807/ 333 20012
AAXX 03061 57306 32965 80201 10090 20071 40169 57026 8807/ 333 20060
AAXX 03061 57604 31750 80202 10112 20086 40139 57041 71000 885// 333 20098
AAXX 03061 57707 11458 80902 10085 20071 38441 57037 69941 76066 887// 333 05257 20053
AAXX 03061 57832 31574 13202 10124 20044 39441 40188 57040 70040 81100 333 05204 20017
AAXX 03061 55228 32980 02707 10069 21326 36003 57019 333 05600 21124
AAXX 03061 55578 32980 01402 10098 21164 36343 57031 333 05602 21111
AAXX 03061 55664 32980 01604 10113 21251 35993 57027 333 05502 21107
AAXX 03061 55773 32970 02502 10097 21149 35987 57030 333 05503 21122
AAXX 03061 56116 32980 01101 10060 21141 36285 57033 333 05704 21103
AAXX 03061 56137 32980 02501 10094 21176 36724 57045 333 05804 21084
AAXX 03061 56172 32980 62903 10116 21112 37274 57048 80002 333 05502 21052
AAXX 03061 56247 32980 00201 10130 21122 37346 57070 333 05903 21035
AAXX 03061 56312 32680 71602 10049 21060 37061 57024 874// 333 05455 21036
AAXX 03061 56462 32980 01605 10135 21090 37050 57056 333 05600 21050
AAXX 03061 56651 32980 02206 10160 21045 37580 57032 333 05501 20023
AAXX 03061 56691 32572 62006 10100 20033 37719 57034 86100 333 05452 20020
AAXX 03061 56985 32562 21606 10150 20083 38679 40125 57033 81160 333 05401 20090
AAXX 03061 57633 32767 81402 10092 20014 39413 40205 57030 885// 333 00053 20030
AAXX 03061 57902 11665 72003 10099 20083 38600 40147 57032 69911 70060 875// 333 05254 20064
AAXX 03064 68191 16/// /1709 10237 20170 39655 40145 52005 69964 333 20209 91013 555 10373 20006 91016
AAXX 03064 91367 11474 80808 10283 20253 60201 70362 85238 333 56229 85815 88360 82180 70085 555 90306 91369 12474 80908 10278 20244 30065 40068 83771 333 56229 83815 87760 88180 70039 555 90306
AAXX 03064 67315 32580 41710 10300 20238 40122 52015 83230 333 20258 5///0 55122 555 10000
AAXX 0306/ 48969 NIL
AAXX 0306/ 48962 NIL
AAXX 0306/ 48990 NIL
AAXX 0306/ 48986 NIL
AAXX 0306/ 48995 NIL
AAXX 0306/ 48967 NIL
AAXX 0306/ 48992 NIL
AAXX 0306/ 48965 NIL
AAXX 0306/ 48985 NIL
AAXX 0306/ 48970 NIL
AAXX 0306/ 48991 NIL
AAXX 0306/ 48964 NIL
AAXX 0306/ 48997 NIL
AAXX 0306/ 48968 NIL
AAXX 0306/ 48973 NIL
AAXX 0306/ 48966 NIL
AAXX 0306/ 48983 NIL
AAXX 0306/ 48972 NIL
AAXX 0306/ 48998 NIL
AAXX 0306/ 48993 NIL
AAXX 0306/ 48971 NIL
AAXX 0306/ 48963 NIL
AAXX 0306/ 48987 NIL
AAXX 03063 63726 31520 61401 10160 20152 38139 48491 71044 82230 3333 20130 58004 82820 85363 5555 10155
AAXX 03063 63702 31520 70908 10200 20184 71044 81138 3333 20168 81820 87280 5555 10190
AAXX 03063 63680 12560 73403 10210 20188 38824 60014 8697/ 3333 20173 59016 81923 87362 5555 10194
AAXX 03063 63630 32570 73504 10217 20166 3//// 48/// 84056 3333 20183 5//// 84360 87280 5555 10181
AAXX 03064 91367 11474 80808 10283 20253 60201 70362 85238 333 56229 85815 88360 82180 70085 555 90306 91369 12474 80908 10278 20244 30065 40068 83771 333 56229 83815 87760 88180 70039 555 90306
AAXX 03064 71981 16/// /2105 11098 21133 60001 333 10039 21107 7////
AAXX 03064 71982 16/// /2006 11101 21128 60001 333 10052 21110 70000 555 33438 40213
AAXX 03064 71986 16/// /2806 11101 21123 60001 333 10055 21102 7//// 555 33344 40223
AAXX 03064 71990 16/// /1810 11069 21080 38513 40127 53002 60001 333 11067 21107 70000 555 32520 40201
AAXX 03064 71406 16/// /2913 11035 21077 30258 40268 53010 60001 333 11018 21061 70000 555 32723 40231
AAXX 03064 71418 46/// /3208 10019 21032 30250 40283 53005 6///1 333 10031 20010 7//// 555 33126 40111
AAXX 03064 71354 16/// /2405 11092 21113 60001 333 10050 21107 70000 555 33243 40183
AAXX 03064 71048 16/// /2811 11102 21138 60001 333 10057 21102 70000 555 33145 40203
AAXX 03064 71981 16/// /2105 11098 21133 60001 333 10039 21107 7////
AAXX 03064 71982 16/// /2006 11101 21128 60001 333 10052 21110 70000 555 33438 40213
AAXX 03064 71986 16/// /2806 11101 21123 60001 333 10055 21102 7//// 555 33344 40223
AAXX 03064 71990 16/// /1810 11069 21080 38513 40127 53002 60001 333 11067 21107 70000 555 32520 40201
AAXX 03064 71354 16/// /2405 11092 21113 60001 333 10050 21107 70000 555 33243 40183
AAXX 03064 71406 16/// /2913 11035 21077 30258 40268 53010 60001 333 11018 21061 70000 555 32723 40231
AAXX 03064 71418 46/// /3208 10019 21032 30250 40283 53005 6///1 333 10031 20010 7//// 555 33126 40111
AAXX 03064 71048 16/// /2811 11102 21138 60001 333 10057 21102 70000 555 33145 40203
AAXX 03064 61230 32960 43406 10152 21057 39840 40109 83042 333 0//00 20146 51134 55096 58004 83365
AAXX 03064 61230 32960 43406 10152 21057 39840 40109 83042 333 0//00 20146 51134 55096 58004 83365
AAXX 03064 68342 32980 01807 10257 20026 38513 48511 52005 333 20095 91010 555 10325 91019
AAXX 03064 68338 32978 01605 10226 20017 38775 48510 52010 333 20102 91010 555 10327 91017
BBXX 45143 03061 99449 70806 46/// /2007 10013 30105 40326 57007 22200 00079 10301 70005 333 91209
BBXX 45143 03061 99449 70806 46/// /2007 10013 30105 40326 57007 22200 00079 10301 70005 333 91209
AAXX 03064 89657 46/// /1101 11045 20063 49730 52010
BBXX 42360 03061 99267 70905 46/// /1010 10238 90600 22200 00254 10703 70016 333 91214
BBXX 42023 03061 99261 70831 46/// /0401 1//// 90630 333 91209
BBXX 42023 03061 99261 70831 46/// /0401 1//// 90600 333 91209
AAXX 03064 67871 11965 70000 10252 20167 38549 48507 69904 70511 81031 333 20201 59012 81362 86075
BBXX 41053 03061 99185 70661 46/// /0303 10268 40131 90630 333 91204
BBXX 41053 03061 99185 70661 46/// /0403 10268 40132 90620 333 91204
BBXX 41053 03061 99185 70661 46/// /0303 10268 40134 90610 333 91204
BBXX 41052 03061 99183 70648 46/// /0305 10266 40123 90630 333 91206
BBXX 41052 03061 99183 70648 46/// /0405 10266 40124 90620 333 91206
BBXX 41052 03061 99183 70648 46/// /0405 10266 40125 90610 333 91206
BBXX 42085 03061 99179 70665 46/// /0603 10267 40126 90630 333 91204
BBXX 42085 03061 99179 70665 46/// /0503 10267 40127 90620 333 91204
BBXX 42085 03061 99179 70665 46/// /0502 10267 40128 90610 333 91203
BBXX A8VL8 03064 99310 30139 41/// 81433 10210 20146 40195 56005 7//// 883// 22232 0//// 2//// 3//// 4//// 5//// 6//// 80170 ICE /////
BBXX MINUK01 0306/ 99576 70017 46/// ///// 10063 49763 52046
BBXX MINUK03 0306/ 99529 10037 46/// ///// 10113 49956 52004
BBXX MINUK05 0306/ 99574 70071 46/// ///// 10075 49862 52015
BBXX A8IY4 03061 99427 70332 41497 72409 10150 20116 40320 54000 70322 877// 22214 04152 21503 80130
BBXX 62095 03064 99530 70159 46/// /2818 10104 20061 40070 52001 22200 00120 11013 70066 333 90710 91127
BBXX 62092 03064 99512 70105 46/// /2819 10121 20106 40084 55002 22200 00126 10910 70050 333 90710 91129
BBXX 62094 03064 99517 70067 46/// /2819 10119 20069 40048 52006 22200 00122 10606 70031 333 90710 91128
BBXX 62305 03064 99504 10000 46/95 /2437 10131 20117 40019 57062 22200 00139 108// 333 90710 91152
BBXX 62092 03064 99512 70105 46/// /2819 10121 20106 49336 55002 22200 00126 10910 70050 333 90710 91129
BBXX 63119 03064 99578 70022 41296 82645 10060 20015 49767 57010 76322 8/778 22200 20408 326// 40610 5//// 80042
BBXX 62107 03064 99501 70061 46/// /2927 10124 20108 40087 50002 22200 00126 10908 70039 333 90710 91143
BBXX OXLD2 03064 99500 71310 41998 83219 1//// 2//// 40400 57020 70222 8//// 22225 04080 2//// 3//// 4//// 5//// 6//// 8//// ICE /////
BBXX A8VL8 03064 99310 30139 41/// 81433 10210 20146 40195 56005 7//// 883// 22232 0//// 2//// 3//// 4//// 5//// 6//// 80170 ICE /////
BBXX 42023 03061 99261 70831 46/// /0401 1//// 90630 333 91209
BBXX 42023 03061 99261 70831 46/// /0401 1//// 90600 333 91209
BBXX 42360 03061 99267 70905 46/// /1010 10238 90600 22200 00254 10703 70016 333 91214
BBXX SHIP 03064 99276 71175 41798 23409 10170 20100 40210 53008 70200 82105 22273 00280 20101 331// 40606 80130
BBXX SHIP 03064 99276 71175 41798 23408 10170 2010/ 40210 53008 70200 821/5 22273 00280 20101 332// 40606 5//// 6//// 80130 ICE /////
BBXX 44138 03061 99443 70536 46/// /0209 10055 40239 57004 22200 00087 11206 70032 333 91211
BBXX OXLD2 03064 99500 71310 41998 83219 1//// 2//// 40400 57020 70222 8//// 22225 04080 2//// 3//// 4//// 5//// 6//// 8//// ICE /////
BBXX 44137 03061 99423 70620 46/// /0204 10066 40271 57004 22200 00123 11204 70022 333 91206
BBXX 46219 03061 99332 71199 46/// ///// 1//// 90628 22200 00135 11104 21003 331// 41103 70019
BBXX 44022 03061 99409 70737 46/// ///03 10058 21008 40340 90630 22200 00106 333 91204 555 11031 22031
BBXX 44040 03061 99410 70736 46/// /0104 10061 21004 40347 90619 22200 1//00 70000 333 91206 555 11051 22062
BBXX 44060 03061 99413 70721 46/// ///06 10051 40330 90630 22200 00121 333 91208 555 11062 22067
BBXX 46214 03061 99379 71235 46/// ///// 1//// 90630 22200 00119 11110 21007 332// 41106 70048
BBXX 46238 03061 99334 71195 46/// ///// 1//// 90620 22200 00140 11703 21002 329// 41702 70014
BBXX 46239 03061 99363 71221 46/// ///// 1//// 90621 22200 00120 11708 21005 329// 41706 70041
BBXX 42363 03061 99282 70892 46/// /1114 10206 20100 40271 90630 333 91214
BBXX 42364 03061 99291 70881 46/// /1208 10194 20100 40278 90630
BBXX 45143 03061 99449 70806 46/// /2007 10013 30105 40326 57007 22200 00079 10301 70005 333 91209
BBXX WDC 03064 99458 70858 41/97 61940 11030 40240 70222 22213
AAXX 03061 45032 36/// /2601 10203 21020 30138 40155 57001
AAXX 03061 45035 36/// /3003 10178 20007 30113 40155 54000
AAXX 03061 45039 36/// /3401 10198 20004 30138 40152 54000
AAXX 03061 45044 36/// /1308 10191 20026 30063 40155 57001
AAXX 03061 45032 36/// /2601 10203 21020 30138 40155 57001
AAXX 03061 45035 36/// /3003 10178 20007 30113 40155 54000
AAXX 03061 45039 36/// /3401 10198 20004 30138 40152 54000
AAXX 03061 45044 36/// /1308 10191 20026 30063 40155 57001
AAXX 03061 47003 42580 80501 10014 21041 30181 40185 57019 885//
AAXX 03061 47005 11680 73202 11041 21095 38557 57008 69911 70172 87500
AAXX 03061 47022 42475 83601 11001 21065 38790 57013 86502
AAXX 03061 47028 42667 73202 10058 21018 30092 40186 57007 87500
AAXX 03061 47031 42570 60000 11016 21053 38887 57010 86500
AAXX 03061 47037 42570 72701 10071 21027 30057 40179 57007 87500
AAXX 03061 47039 12560 60000 10046 20018 39995 40186 57013 60011 84501
AAXX 03061 47046 42569 80000 10063 21032 30150 40173 57010 83532
AAXX 03061 47050 42565 60000 10064 20002 30225 40259 52015 86500
AAXX 03061 47052 42565 80000 10042 20008 39846 40185 57004 885//
AAXX 03061 47060 42560 43603 10066 20008 30124 40182 58003 84100
AAXX 03061 47061 11680 83203 10043 20041 30139 40183 54000 60091 70262 885//
AAXX 03061 47065 42565 43202 10064 20017 30124 40189 58005 85500
AAXX 03061 47067 42570 80000 10066 20027 30078 40198 57001 85100
AAXX 03061 47068 42570 63603 10074 21000 30148 40183 54000 83230
AAXX 03061 47070 42580 53602 10082 20027 30092 40178 54000 85500
AAXX 03061 47075 12580 80000 10055 21006 39663 40085 52008 69911 885//
AAXX 03061 47008 12470 80502 10016 21019 30137 40192 57010 69901 8555/
AAXX 03061 47014 42650 50000 10022 21070 39778 40154 57028 85500
AAXX 03061 47016 11970 62705 11002 21079 39301 40174 58043 69901 70172 83084
AAXX 03061 47020 12565 60000 10044 21001 39813 40190 57011 69901 86500
AAXX 03061 47025 42568 83603 10043 20001 30157 40186 57011 885//
AAXX 03061 47035 42970 23602 10068 21022 30187 40196 57006 82030
AAXX 03061 47041 42570 70000 10051 20010 30146 40173 57004 87530
AAXX 03061 47055 11570 60000 10034 20029 30137 40182 57012 60031 70172 86040
AAXX 03061 47058 42560 62903 10067 20012 30141 40188 58005 85109
AAXX 03061 47069 42665 33403 10091 20061 30082 40180 54000 83500
AAXX 03064 47575 11/57 80904 10096 20054 30071 40076 56056 60051 76366 887//
AAXX 03064 47604 12/82 71317 10161 20102 39978 49986 56064 69901 8327/
AAXX 03064 47746 11/57 72813 10140 20114 30015 40034 53002 69951 78082 8627/
AAXX 03061 01028 11670 22406 11027 21051 39698 49718 55001 69922 70282 82500 333 21028 70007 91114
AAXX 03061 40001 32970 00203 10053 21076 40261 53016 333 20011 30
AAXX 03061 40007 32960 00000 10019 21034 40281 53012 333 21020 34
AAXX 03061 40025 32960 00302 10068 21039 40242 52017 333 20038 30
AAXX 03061 40045 32970 02604 11024 21131 40264 52011 333 21030 30
AAXX 03061 40061 32970 00000 10017 21002 40271 52020 333 20007 30
AAXX 03061 40080 32970 00000 11008 21082 39525 40268 52016 333 21040 30
AAXX 03061 40087 NIL
AAXX 03061 40095 NIL
AAXX 03061 40009 32965 00000 11007 21046 40252 52010 333 21050 34
AAXX 03061 40016 32970 02603 10008 21042 40295 53016 333 21028 30
AAXX 03061 40022 32965 00302 10086 21017 40228 52009 2222 20000 333 20062 30
AAXX 03061 40030 32970 00000 10010 21034 40271 52013 333 21017 34
AAXX 03061 40039 32970 00000 10015 21029 40267 52013 333 21029 34
AAXX 03061 40066 32970 00603 10096 21095 40233 50009 333 20086 30
AAXX 03061 40072 32970 00000 10010 20198 40288 52010 333 21018 30
AAXX 03061 40083 32970 00000 11004 21072 48522 53005 333 21020 30
AAXX 03061 40001 32970 00203 10053 21076 40261 53016 333 20011 30
AAXX 03061 40007 32960 00000 10019 21034 40281 53012 333 21020 34
AAXX 03061 40025 32960 00302 10068 21039 40242 52017 333 20038 30
AAXX 03061 40045 32970 02604 11024 21131 40264 52011 333 21030 30
AAXX 03061 40061 32970 00000 10017 21002 40271 52020 333 20007 30
AAXX 03061 40080 32970 00000 11008 21082 39525 40268 52016 333 21040 30
AAXX 03061 40087 NIL
AAXX 03061 40095 NIL
AAXX 03061 98429 31405 31405 10327 20227 40049 57026 70544 82201 333 56999 82825
AAXX 0306/ 89329 46/// ///// 11120 38645 4//// 5//// 90630
AAXX 03064 89625 46/// /1707 11258 29073 36427 4//// 5//// 90600
AAXX 03064 89646 46/// /0111 11199 29077 37465 4//// 5////
AAXX 03064 89648 46/// /2121 11248 29074 37057 4//// 5////
AAXX 03064 89659 46/// /2106 11174 29069 37527 4//// 5////
AAXX 03064 89661 46/// /2222 11076 29075 39069 4//// 5////
AAXX 03064 89666 46/// /1710 11030 29087 39541 4//// 5////
BBXX 46232 03061 99325 71174 46/// ///// 1//// 90608 22200 00162 11202 21002 326// 41201 70012
AAXX 03064 71073 16/// /2701 11099 21122 60001 333 10030 21112 70000 555 33038 40083
AAXX 03064 71495 16/// /2903 11121 21141 60001 333 10033 21130 70000 555 33340 40223
AAXX 03064 71974 46/// /1504 11335 21365 30140 40185 51005 6///1 333 11246 21337 7////
AAXX 03064 71399 16/// ///// 11113 21134 60001 333 10047 21126 70000
AAXX 03064 71013 17/// ///// 11117 21132 69941 7//4/ 333 10060 21117 70004
AAXX 03064 71060 16/// /2802 11117 21141 38664 40270 56010 60001 333 10015 21130 70000 555 32725 40191
AAXX 03064 71848 16/// ///// 11054 21102 60001 333 10032 21057 70000
AAXX 03064 71565 16/// /2505 11084 21098 60001 333 10041 21103 70000 555 33345 40103
AAXX 03064 71566 16/// /2403 11065 21096 60001 333 10033 21068 70000 555 33136 40143
AAXX 03064 71567 16/// /2506 11126 21151 60001 333 10045 21127 70000 555 33142 40173
AAXX 03064 71793 16/// ///// 11126 21141 60001 333 10047 21126 70000
BBXX 46246 03061 99500 71451 46/// ///// 1//// 90629 22200 00076 11106 21004 329// 41104 70029
BBXX 46246 03061 99500 71451 46/// ///// 1//// 90559 22200 00076 11206 20904 328// 41205 70031
AAXX 03064 71399 16/// ///// 11113 21134 60001 333 10047 21126 70000
AAXX 03064 71793 16/// ///// 11126 21141 60001 333 10047 21126 70000
AAXX 03064 71073 16/// /2701 11099 21122 60001 333 10030 21112 70000 555 33038 40083
AAXX 03064 71974 46/// /1504 11335 21365 30140 40185 51005 6///1 333 11246 21337 7////
AAXX 03064 71013 17/// ///// 11117 21132 69941 7//4/ 333 10060 21117 70004
AAXX 03064 71060 16/// /2802 11117 21141 38664 40270 56010 60001 333 10015 21130 70000 555 32725 40191
AAXX 03064 71848 16/// ///// 11054 21102 60001 333 10032 21057 70000
AAXX 03064 71565 16/// /2505 11084 21098 60001 333 10041 21103 70000 555 33345 40103
AAXX 03064 71566 16/// /2403 11065 21096 60001 333 10033 21068 70000 555 33136 40143
AAXX 03064 71567 16/// /2506 11126 21151 60001 333 10045 21127 70000 555 33142 40173
AAXX 03064 71495 16/// /2903 11121 21141 60001 333 10033 21130 70000 555 33340 40223
BBXX 46241 03061 99330 71173 46/// ///// 1//// 90611 22200 00150 11402 20901 324// 41401 70008
BBXX 51204 03061 99213 71581 46/// ///// 1//// 90622 22200 00251 11304 21002 331// 41303 70018
BBXX 46216 03061 99343 71198 46/// ///// 1//// 90627 22200 00148 11102 20801 326// 41101 70008
BBXX 46223 03061 99335 71178 46/// ///// 1//// 90630 22200 00162 11401 20701 319// 41401 70007
BBXX 46231 03061 99327 71174 46/// ///// 1//// 90624 22200 00150 11302 20902 325// 41301 70010
BBXX 46222 03061 99336 71183 46/// ///// 1//// 90626 22200 00159 11402 20701 318// 41401 70008
BBXX 46242 03061 99332 71174 46/// ///// 1//// 90626 22200 00155 11401 20901 322// 41401 70007
AAXX 03064 64700 31940 20406 10165 20007 39787 40128 70600 80002 333 01100 20165 51071 ///// 55107 59001 82075
AAXX 03064 64701 NIL
AAXX 03064 64702 NIL
AAXX 03064 64705 33960 73604 10144 20040 3//// 4//// 80002 90555 333 0//00 2//// 50604 55/// ///// 5//// 87075
AAXX 03064 64706 33960 61806 10158 20113 39637 40116 80002 333 01200 20145 50814 ///// 55109 59003 86075
AAXX 03064 64708 33960 40000 10145 20008 3//// 4//// 80002 90600 333 0//00 20125 50264 ///// 55/// 5//// 84075
AAXX 03064 64709 31915 40000 10180 20013 3//// 4//// 705// 80002 90600 333 0//00 20152 5//// ///// 55/// 5//// 84075
AAXX 03064 64710 NIL
AAXX 03064 64713 33960 60000 10160 20092 3//// 4//// 80002 90552 333 0//00 20126 5//// ///// 55/// 5//// 86075
AAXX 03064 64722 33962 20000 10170 20096 3//// 4//// 80002 90600 333 0//00 20110 50474 ///// 55/// 5//// 82075
AAXX 03064 64750 32962 60000 10160 20115 39684 40098 80002 90555 333 01000 20120 50911 ///// 55090 59019 86075
AAXX 03064 64751 33960 20404 10171 21018 3//// 4//// 82032 90600 333 0//00 20078 50704 ///// 55/// 5//// 82365
AAXX 03064 64753 NIL
AAXX 03064 64754 33960 60404 10172 20050 3//// 4//// 80002 90555 333 0//00 20138 50584 ///// 55/// 5//// 86075
AAXX 03064 64756 33962 30808 10188 21010 39513 4//// 80002 90600 333 0//00 20175 5//// ///// 55/// 5//// 83075
AAXX 03064 64757 33960 00404 10188 20062 3//// 4//// 90600 64758 NIL= 0//00 20120 5//// ///// 55/// 5////
AAXX 03064 64761 33960 00812 10195 21006 3//// 4//// 90600 333 0//00 2//// 5//// ///// 55/// 5////
BBXX 44037 03061 99435 70679 46/30 /3309 10067 40279 51013 90604 22200 00093 333 91210 555 11105 22110
BBXX 44024 03061 99423 70659 46/30 /3603 10070 40276 54000 90604 22200 00096 333 91204 555 11036 22037
BBXX 44039 03061 99411 70727 46/// /3508 10064 20006 40339 90630 22200 00115 10301 70006 333 91211
AAXX 03061 02849 11459 83005 10000 21002 39532 49800 52027 60034 771// 88/// 333 10014 20000 3//// 4/001
AAXX 03061 02924 32483 12301 11019 21020 39719 49917 52018 700// 81/// 333 10009 21022 3/106
AAXX 03061 02935 12499 72602 10001 21015 39740 49913 52018 69942 700// 87/// 333 10011 21011 3/104
AAXX 03061 02981 32983 02510 10042 21011 39969 49978 52010 700// 333 10048 20030 3////
AAXX 03061 89063 42497 83401 11007 21011 39989 40001 52022 886//
AAXX 03064 97028 01560 80903 10262 20238 30051 40057 56008 69901 76166 84221 333 56000 57802 69907 84820 87460 80860
BBXX AMOUK08 03064 99501 70061 46/// ///// 10126 20118 30082 40089 57005 90550
BBXX 63106 03064 99610 10017 46/// /2124 10066 49610 56042 22200
BBXX 63113 03064 99610 10017 46/// /2330 10063 20030 49624 57036 22200 10911 70055
BBXX 62305 03064 99504 10000 46/95 /2437 10131 20117 40019 57062 22200 00139 10806 70030 333 90710 91152
BBXX 64045 03064 99591 70117 46/// /2934 10073 21006 49858 51025 22200 00102 11018 70090 333 90710 91148
BBXX 62092 03064 99512 70105 46/// /2819 10121 20106 40084 55002 22200 00126 10910 70050 333 90710 91129
BBXX 62169 03064 99614 10014 41/97 /2131 10070 20070 49597 57040 76386 8//// 22200 02090 20307 318// 41006 5//// 80070
BBXX PEBT 03063 99388 10238 41497 61607 10143 20095 40240 53012 7//22 865// 22273 02150 20201 300// 40000 5//// 80116
BBXX VRGW2 03064 99078 10754 41298 31305 10300 20211 40125 55011 70111 83121 22234 04290 20301 80240
BBXX DFUM2 03063 99044 11059 41397 80518 10284 20230 40102 57015 70522 8171/ 22255 00280 20703 305// 41004 80245
BBXX VVPG 03063 99191 10726 41798 43402 10295 20271 40086 54000 70102 84020 22200 00///
BBXX 9VDD3 03064 99162 11130 41297 80116 10260 20220 40010 57030 7//42 87373 22214 00300 20102 30101 40102 50102 80230
BBXX DQVN 03063 99358 11211 41596 63418 10080 20013 40230 54000 705// 862// 22200 00147 20402 80050
BBXX 9MEZ2 03064 99164 11194 41398 80127 10270 20232 40037 55000 70322 887// 22284 00295 20302 303// 40504 80245
BBXX 9HCX7 03064 99052 10977 41598 51207 10290 20238 40102 57020 70211 83166 22273 00/// 29901 80252
BBXX A8RV7 03064 99059 11349 41197 80911 10280 20253 40040 56020 70262 83777 22234 04290 20502 309// 40502 80260
BBXX C6KB2 03063 99110 30768 41/97 83414 10/// 20/// 40087 52011 7//55 8//// 22213 00/// 20301 301// 40502
AAXX 03061 10616 12365 72306 10031 20016 39530 40136 58022 69902 878// 333 10032 20008 31102 55000 55300 70010 81808 87613
AAXX 03064 71502 16/// /3116 11200 21215 30126 40142 51035 60001 333 7////
AAXX 03064 71509 16/// /2506 11033 21075 60001 333 10051 21048 70000 555 32559 40073
AAXX 03064 71517 16/// /2502 11032 21092 60001 333 10043 21071 70000 555 32749 40073
AAXX 03064 71518 16/// /2605 11094 21114 60001 333 10039 21107 70005 555 32641 40073
AAXX 03064 71519 16/// /1302 11139 21151 60001 333 10047 21139 70004 555 32735 40093
AAXX 03064 71528 16/// /2707 11090 21115 60001 333 10036 21090 70000 555 32649 40073
AAXX 03064 71102 16/// ///// 11131 21153 60001 333 10054 21133 70008
AAXX 03064 71105 46/// ///// 11108 21121 6///1 333 7////
AAXX 03064 71409 16/// ///// 11073 21107 60001 333 10044 21073 70000
AAXX 03064 71006 16/// /2605 11093 21111 60001 333 10062 21116 70000 555 33350 40223
AAXX 03064 71007 16/// ///// 11095 21129 60001 333 10035 21095 7////
AAXX 03064 71008 16/// /2803 11122 21141 60001 333 10058 21122 70000 555 33456 40223
AAXX 03064 71009 16/// /3505 11105 21128 60001 333 10049 21106 70000 555 33248 40193
AAXX 03064 71012 16/// /2808 11112 21138 60001 333 10059 21112 70000 555 33246 40213
AAXX 03064 71035 16/// ///// 11112 21129 60001 333 10044 21125 70000
AAXX 03064 71051 16/// ///// 11094 21118 60001 333 10036 21094 70000
AAXX 03064 71057 16/// ///// 11079 21111 60001 333 10040 21079 70000
AAXX 03064 71070 16/// ///// 11086 21107 60001 333 10048 21093 70007
AAXX 03064 71089 16/// ///// 11102 21127 60001 333 10059 21110 70000
AAXX 03064 71789 16/// ///// 11071 21115 60001 333 10043 21088 70000
AAXX 03064 71794 16/// ///// 11141 21159 60001 333 10054 21144 70004
AAXX 03064 71795 17/// ///// 11084 21112 69941 7//4/ 333 10039 21085 70004
AAXX 03064 71796 46/// ///// 11120 21138 6///1 333 7////
AAXX 03064 71841 16/// /2108 11031 21103 39707 40108 58014 60001 333 11027 21194 70000 555 32220 40201
AAXX 03064 71433 46/// /2230 10026 21007 39996 40230 58010 6///1 333 10028 21054 7//// 555 32243 40053
BBXX 46221 03061 99339 71186 46/// ///// 1//// 90615 22200 00152 11402 20701 319// 41401 70008
AAXX 03064 71841 16/// /2108 11031 21103 39707 40108 58014 60001 333 11027 21194 70000 555 32220 40201
AAXX 03064 71433 46/// /2230 10026 21007 39996 40230 58010 6///1 333 10028 21054 7//// 555 32243 40053
AAXX 03064 71789 16/// ///// 11071 21115 60001 333 10043 21088 70000
AAXX 03064 71794 16/// ///// 11141 21159 60001 333 10054 21144 70004
AAXX 03064 71795 17/// ///// 11084 21112 69941 7//4/ 333 10039 21085 70004
AAXX 03064 71796 46/// ///// 11120 21138 6///1 333 7////
AAXX 03064 71502 16/// /3116 11200 21215 30126 40142 51035 60001 333 7////
AAXX 03064 71509 16/// /2506 11033 21075 60001 333 10051 21048 70000 555 32559 40073
AAXX 03064 71517 16/// /2502 11032 21092 60001 333 10043 21071 70000 555 32749 40073
AAXX 03064 71518 16/// /2605 11094 21114 60001 333 10039 21107 70005 555 32641 40073
AAXX 03064 71519 16/// /1302 11139 21151 60001 333 10047 21139 70004 555 32735 40093
AAXX 03064 71528 16/// /2707 11090 21115 60001 333 10036 21090 70000 555 32649 40073
AAXX 03064 71102 16/// ///// 11131 21153 60001 333 10054 21133 70008
AAXX 03064 71105 46/// ///// 11108 21121 6///1 333 7////
AAXX 03064 71409 16/// ///// 11073 21107 60001 333 10044 21073 70000
AAXX 03064 71051 16/// ///// 11094 21118 60001 333 10036 21094 70000
AAXX 03064 71057 16/// ///// 11079 21111 60001 333 10040 21079 70000
AAXX 03064 71070 16/// ///// 11086 21107 60001 333 10048 21093 70007
AAXX 03064 71089 16/// ///// 11102 21127 60001 333 10059 21110 70000
AAXX 03064 71006 16/// /2605 11093 21111 60001 333 10062 21116 70000 555 33350 40223
AAXX 03064 71007 16/// ///// 11095 21129 60001 333 10035 21095 7////
AAXX 03064 71008 16/// /2803 11122 21141 60001 333 10058 21122 70000 555 33456 40223
AAXX 03064 71009 16/// /3505 11105 21128 60001 333 10049 21106 70000 555 33248 40193
AAXX 03064 71012 16/// /2808 11112 21138 60001 333 10059 21112 70000 555 33246 40213
AAXX 03064 71035 16/// ///// 11112 21129 60001 333 10044 21125 70000
BBXX 41112 03061 99307 70813 46/// ///// 1//// 90621 22200 00174 11002 21002 309// 41101 70011
AAXX 03061 38599 1497 80000 10032 20011 39771 40296 55004 60030 71022 889 333 20020 85710
AAXX 03064 63705 12558 73303 10213 38859 48513 60044 8292/ 3333 20184 59012 83618 81918 87464 5555 10200
BBXX DQVO 03064 99192 10398 41598 63409 10258 20187 40152 52014 70311 83269 22273 00293 20301 30000 80210
BBXX DFWV2 03064 99119 70993 41998 00916 10250 20207 40140 54000 70200 80000 22273 04260 2//03 3//// 4//// 5//// 80220
BBXX A8UT7 03064 99092 50026 41597 81512 10220 20161 40120 52010 70222 8771/ 22273 20703 313// 41203 80182
BBXX MHNO6 03063 99472 70128 41/98 /2627 10132 20091 40198 54000 70211 8//// 22263 00156 29906 3//// 4//// 5//// 80111
BBXX DGUG2 03064 99300 70192 41598 10722 10200 20144 40255 54000 70000 81100 22214 04220 2//// 80165
BBXX C6CU6 03063 99479 70084 41297 82925 10130 20042 40165 56020 70222 85728 22213 04145 20802 332// 41506 5//// 80090
BBXX A8ME3 03060 99032 11054 41398 70406 10280 20266 40085 56015 70222 8/6// 22254 04285 20603 303// 41205 5////
BBXX VRFJ6 03064 99291 31537 41998 21413 10230 20149 40160 54001 70200 82/3/ 22243 00241 20302 314// 40403 80175
BBXX VRDE7 03064 99129 31524 41798 61102 10300 20246 40055 54030 70222 81722 22274 00290 20000 3//// 4//// 80260
BBXX VRFJ6 03064 99291 31537 41998 21413 10230 20149 40160 54001 70200 82/3/ 22243 00241 20302 314// 40403 80175
BBXX VRDE7 03064 99129 31524 41798 61102 10300 20246 40055 54030 70222 81722 22274 00290 20000 3//// 4//// 80260
AAXX 03061 38838 42598 60000 10046 20010 39581 40261 57011 82580
BBXX DDZF2 03064 99371 10038 41/98 72412 10162 20125 40205 51015 70222 8//// 22225 00180 2//// 80140
BBXX DCAX2 03063 99289 11240 41296 21328 10160 20124 40210 54000 70022 826// 22213 20307 3//// 4//// 5//// 80140
AAXX 03064 89016 46/89 /1011 11133 29074 39403 4//// 5////
AAXX 03064 89507 46/89 /1007 4//// 5////
BBXX MINFR05 0306/ 99304 70096 46/// ///// 10160 40190 57020
AAXX 03061 38599 E1497 80000 10032 20011 39771 40296 55004 60030 71022 889EE 333 20020 85710
AAXX 03061 89063 42497 83401 11007 21011 39989 40001 52022 886//
AAXX 03064 41184 42960 01602 10245 20194 40163 333 20136 59015
AAXX 03064 41194 12960 01703 10232 20141 30168 40173 60001 333 20170 59014
AAXX 03064 41196 42960 01603 10237 20145 30135 40174 333 20120 30011 59017
AAXX 03064 41198 42960 02301 10266 20108 40163 333 20200 59014
AAXX 03064 41217 42960 03111 10248 20147 30137 40166 333 20180 30014 59017
AAXX 03064 41218 42960 03509 10210 20133 39864 40171 333 20141 30013 59018
AAXX 03064 03230 16680 /2514 10046 20026 39659 49912 55000 60022 90550 333 20044 3/003 4/000 70034 81/45 90710 91128 91028
AAXX 03064 03008 11470 52626 10067 20026 49656 60072 72782 85900 90550 333 20051 32/// 4//// 70070 85915 90710 91139
BBXX ICGU 03064 99229 70355 41/// /1619 10220 20190 40180 54/// 7//// 80/// 22254 00186 2//// 3//// 4//// 5//// 6//// 80200 ICE /////
BBXX WCF3012 03064 99442 70827 41/98 01928 10010 40320 70200 22283 00090
BBXX V7LZ4 03063 99050 10985 41598 30409 10310 20242 40090 54000 7//00 838// 22273 0//// 20601 304// 40601 5//// 6//// 80260 ICE /////
BBXX 9V7645 03064 99281 71195 41/// /3008 10155 20121 40180 54/// 700// 8/181 22234 00190 2//// 3//// 4//// 5//// 6//// 80135 ICE /////
BBXX A8UT7 03064 99092 50026 41597 81512 10220 20161 40120 52010 70222 8771/ 22273 20703 313// 41203 80182
BBXX DQVO 03064 99192 10398 41598 63409 10258 20187 40152 52014 70311 83269 22273 00293 20301 30000 80210
BBXX 41112 03061 99307 70813 46/// ///// 1//// 90621 22200 00174 11002 21002 309// 41101 70011
BBXX 46221 03061 99339 71186 46/// ///// 1//// 90615 22200 00152 11402 20701 319// 41401 70008
BBXX 44037 03061 99435 70679 46/30 /3309 10067 40279 51013 90604 22200 00093 333 91210 555 11105 22110
BBXX 44039 03061 99411 70727 46/// /3508 10064 20006 40339 90630 22200 00115 10301 70006 333 91211
BBXX 44024 03061 99423 70659 46/30 /3603 10070 40276 54000 90604 22200 00096 333 91204 555 11036 22037
BBXX 46222 03061 99336 71183 46/// ///// 1//// 90626 22200 00159 11402 20701 318// 41401 70008
BBXX 46231 03061 99327 71174 46/// ///// 1//// 90624 22200 00150 11302 20902 325// 41301 70010
BBXX 46242 03061 99332 71174 46/// ///// 1//// 90626 22200 00155 11401 20901 322// 41401 70007
BBXX 46216 03061 99343 71198 46/// ///// 1//// 90627 22200 00148 11102 20801 326// 41101 70008
BBXX 46223 03061 99335 71178 46/// ///// 1//// 90630 22200 00162 11401 20701 319// 41401 70007
BBXX 46241 03061 99330 71173 46/// ///// 1//// 90611 22200 00150 11402 20901 324// 41401 70008
BBXX 46246 03061 99500 71451 46/// ///// 1//// 90629 22200 00076 11106 21004 329// 41104 70029
BBXX 46246 03061 99500 71451 46/// ///// 1//// 90559 22200 00076 11206 20904 328// 41205 70031
BBXX 46232 03061 99325 71174 46/// ///// 1//// 90608 22200 00162 11202 21002 326// 41201 70012
BBXX ICGU 03064 99229 70355 41/// /1619 10220 20190 40180 54/// 7//// 80/// 22254 00186 2//// 3//// 4//// 5//// 6//// 80200 ICE /////
BBXX 42085 03061 99179 70665 46/// /0603 10267 40126 90630 333 91204
BBXX 41052 03061 99183 70648 46/// /0405 10266 40124 90620 333 91206
BBXX 42085 03061 99179 70665 46/// /0502 10267 40128 90610 333 91203
BBXX 41053 03061 99185 70661 46/// /0303 10268 40131 90630 333 91204
BBXX 42085 03061 99179 70665 46/// /0503 10267 40127 90620 333 91204
BBXX 41052 03061 99183 70648 46/// /0405 10266 40125 90610 333 91206
BBXX 41052 03061 99183 70648 46/// /0305 10266 40123 90630 333 91206
BBXX 41053 03061 99185 70661 46/// /0303 10268 40134 90610 333 91204
BBXX 41053 03061 99185 70661 46/// /0403 10268 40132 90620 333 91204
BBXX WCF3012 03064 99442 70827 41/98 01928 10010 40320 70200 22283 00090
BBXX DCAX2 03063 99289 11240 41296 21328 10160 20124 40210 54000 70022 826// 22213 20307 3//// 4//// 5//// 80140
BBXX VRGE3 03064 99057 10970 41598 51106 10300 20260 40100 58010 70222 85141 22223 00300 2//// 3//// 4//// 80270
BBXX SHIP 03064 99294 11502 41498 72610 10260 20230 40150 52010 70222 8777/ 22215 00254 20503 307// 40706 80240
BBXX VRIB2 03064 99060 10881 41498 42205 10295 20247 40097 57010 70211 8317/ 22265 0//// 20301 310// 40702 80260
BBXX V7LZ4 03063 99050 10985 41598 30409 10310 20242 40090 54000 7//00 838// 22273 0//// 20601 304// 40601 5//// 6//// 80260 ICE /////
BBXX A8RV7 03064 99059 11349 41197 80911 10280 20253 40040 56020 70262 83777 22234 04290 20502 309// 40502 80260
BBXX 9HCX7 03064 99052 10977 41598 51207 10290 20238 40102 57020 70211 83166 22273 00/// 29901 80252
BBXX 9VDD3 03064 99162 11130 41297 80116 10260 20220 40010 57030 7//42 87373 22214 00300 20102 30101 40102 50102 80230
BBXX DQVN 03063 99358 11211 41596 63418 10080 20013 40230 54000 705// 862// 22200 00147 20402 80050
BBXX VVPG 03063 99191 10726 41798 43402 10295 20271 40086 54000 70102 84020 22200 00///
BBXX SHIP 03064 99164 11194 41398 80127 10270 20232 40037 55000 70322 887// 22284 00295 20302 303// 40504 80245
BBXX VRGW2 03064 99078 10754 41298 31305 10300 20211 40125 55011 70111 83121 22234 04290 20301 80240
BBXX DFWV2 03064 99119 70993 41998 00916 10250 20207 40140 54000 70200 80000 22273 04260 2//03 3//// 4//// 5//// 80220
BBXX VRDE7 03064 99129 31524 41798 61102 10300 20246 40055 54030 70222 81722 22274 00290 20000 3//// 4//// 80260
BBXX VRFJ6 03064 99291 31537 41998 21413 10230 20149 40160 54001 70200 82/3/ 22243 00241 20302 314// 40403 80175
BBXX A8ME3 03060 99032 11054 41398 70406 10280 20266 40085 56015 70222 8/6// 22254 04285 20603 303// 41205 5////
BBXX C6KB2 03063 99110 30768 41/97 83414 10/// 20/// 40087 52011 7//55 8//// 22213 00/// 20301 301// 40502
BBXX DFUM2 03063 99044 11059 41397 80518 10284 20230 40102 57015 70522 8171/ 22255 00280 20703 305// 41004 80245
BBXX MINFR05 0306/ 99304 70096 46/// ///// 10160 40190 57020
BBXX SHIP 03061 99349 10215 41598 62904 10190 20147 40250 54000 70222 8346/ 22223 04177 20401 3//// 4//// 80165
BBXX DGUG2 03064 99300 70192 41598 10722 10200 20144 40255 54000 70000 81100 22214 04220 2//// 80165
BBXX PEBT 03063 99388 10238 41497 61607 10143 20095 40240 53012 7//22 865// 22273 02150 20201 300// 40000 5//// 80116
BBXX 62169 03064 99614 10014 41/97 /2131 10070 20070 49597 57040 76386 8//// 22200 02090 20307 318// 41006 5//// 80070
BBXX 2AQK9 03064 99043 70067 41297 41025 10280 20266 40114 52004 70211 8421/ 22264 20301 325// 40502 5//// 80270
BBXX KSDF 03064 99354 70192 41498 30616 10178 20121 40288 54000 70200 834// 22223 0//// 20202 33606 41006 50602 6//// 80144
BBXX DQVO 03064 99192 10398 41598 63409 10258 20187 40152 52014 70311 83269 22273 00293 20301 30000 80210
BBXX A8UT7 03064 99092 50026 41597 81512 10220 20161 40120 52010 70222 8771/ 22273 20703 313// 41203 80182
BBXX DGUG2 03064 99300 70192 41598 10722 10200 20144 40255 54000 70000 81100 22214 04220 2//// 80165
BBXX 2AQK9 03064 99043 70067 41297 41025 10280 20266 40114 52004 70211 8421/ 22264 20301 325// 40502 5//// 80270
BBXX DFWV2 03064 99119 70993 41998 00916 10250 20207 40140 54000 70200 80000 22273 04260 2//03 3//// 4//// 5//// 80220
BBXX A8ME3 03060 99032 11054 41398 70406 10280 20266 40085 56015 70222 8/6// 22254 04285 20603 303// 41205 5////
BBXX MHNO6 03063 99472 70128 41/98 /2627 10132 20091 40198 54000 70211 8//// 22263 00156 29906 3//// 4//// 5//// 80111
BBXX C6CU6 03063 99479 70084 41297 82925 10130 20042 40165 56020 70222 85728 22213 04145 20802 332// 41506 5//// 80090
BBXX DDZF2 03064 99371 10038 41/98 72412 10162 20125 40205 51015 70222 8//// 22225 00180 2//// 80140
BBXX BAREU60 03064 99436 10135 46/// ///// 40199 57006 22252
BBXX 61001 03064 99434 10078 46/// /1609 10158 20133 40174 57004 22200 00172 10602 70012
BBXX BATFR58 03064 99433 10078 44498 7//// 40178 56004 72992 877// 22281 00184 202// 31923 403// 50402 60/// ICE 0////
BBXX BATFR20 03064 99427 10088 46/// /2116 10175 20102 40183 51009 22224
BBXX BATFR24 03064 99427 10095 46/// ///// 10144 20084 40190 53009 22251 00174
BBXX 61002 03064 99421 10047 46/// /0724 10143 2//// 40214 52012 22200 00174 10705 70025 555 1/031
BBXX BATFR30 03064 99413 10093 46/// /1507 10149 20109 40201 22214 00170
BBXX PDYI 03063 99370 10007 41/97 /2507 10150 20093 40200 52016 700// 8//// 22223 20405 32500 41003 5//// 80118
BBXX BATFR11 03064 99360 70003 46/// /2714 10127 20097 40196 22221 00184
BBXX DQVI 03063 99360 10204 41698 43604 10168 40250 54000 70211 84100 22224 00200 29901
BBXX NWS0020 03064 99353 10217 43/// /3003 10169 20099 40245 5//// 7//// 8//// 222// 04193 2//// 3//// 4//// 5//// 6//// 8////
BBXX C6FR6 03064 99353 10258 41/// 12408 10150 2//// 40260 5/010 7//// 8//// 22253 0//// 2//// 3//// 4//// 5//// 6//// 8////
BBXX PGRQ 03064 99352 10215 41597 52801 10174 2//// 40250 52006 70211 81549 22281 00195 20000 30000
BBXX OVZV2 03060 99335 10273 41598 10304 10165 20109 40247 53012 70300 81100 22274 00188 20201 335// 40402 5//// 80135
BBXX OXHY2 03063 99333 10274 41598 22503 10190 20124 40250 51016 70200 81100 22264 00190 20402 30000 40000 5//// 80150
BBXX WKPF 03063 99329 10267 43/98 43212 10170 2012/ 40250 51014 7//// 8/1// 22275 00212 20101 3//// 4//// 5//// 6//// 80140
BBXX SHIP 03064 99085 30997 41697 80731 10206 20244 40052 57015 76011 84520 22263 00279 10904 20302 33302 40605 50603 80250
BBXX VRDU8 03063 99180 31089 41698 11810 10265 20179 40116 57010 70200 8/1// 22284 04250 20402 80210
BBXX MFLQ4 03063 99192 30604 41597 41322 10255 20185 40119 54000 70200 84100 22213 00270 2//// 313// 40506 5//// 80210
BBXX UCKZ 03061 99201 30062 42598 81413 10189 20146 40164 53009 888// 22233 00193 20606
BBXX 3FMV6 03063 99318 30360 41298 72037 10210 20160 40076 51010 70222 87778 22253 06230 20208 80280
BBXX A8RL3 03061 99346 30245 41/97 62008 10192 20169 40200 54000 70222 8/8// 22223 29903 3//// 4//// 5//// 80178
BBXX ONDY 03064 99348 30191 41797 51826 10175 2013/ 40210 52010 70111 854// 22274 00188 2//// 3//// 4//// 5//// 6//// 80145
BBXX DBBT 03061 99374 30557 46/// /1709 10157 20096 40265 22252 00201
OOXX AAEMI 03064 99785 31731 57083 00521 46/// /2314 11091 21119 39687 49752 52004 90600
OOXX AABRI 03064 99839 51342 60134 05251 46/// /0312 11076 21228 39175 49795 52015 90550
AAXX 03061 40009 32965 00000 11007 21046 40252 52010 333 21050 34
AAXX 03061 40016 32970 02603 10008 21042 40295 53016 333 21028 30
AAXX 03061 40022 32965 00302 10086 21017 40228 52009 2222 20000 333 20062 30
AAXX 03061 40030 32970 00000 10010 21034 40271 52013 333 21017 34
AAXX 03061 40039 32970 00000 10015 21029 40267 52013 333 21029 34
AAXX 03061 40066 32970 00603 10096 21095 40233 50009 333 20086 30
AAXX 03061 40072 32970 00000 10010 20198 40288 52010 333 21018 30
AAXX 03061 40083 32970 00000 11004 21072 48522 53005 333 21020 30
OOXX AALAU 03064 99775 31708 57070 00371 46/// /1811 11071 21105 39674 49720 52004 90550
OOXX AAMIZ 03064 99707 30443 58304 22602 46/// /0815 11058 2//// 37378 49508 52005 90550
OOXX AAKOM 03064 99795 51121 56392 18332 46/// /0216 11185 21208 37783 49697 52009 90600
OOXX AAERI 03064 99849 51288 60048 09901 46/// /0716 11110 21112 3//// 4//// 5//// 90550
OOXX AAPEG 03064 99779 31666 57186 00051 46/// /1926 11038 21098 39721 49727 52006 90600
AAXX 03064 89667 46/// /1925 11044 29065 39722 4//// 5//// 90640
AAXX 03064 89667 46/// /1924 11038 39722 4//// 5//// 90610
AAXX 0306/ 89869 46/// ///// 11041 39669 4//// 5////
AAXX 0306/ 89799 46/// ///// 11298 4//// 5////
AAXX 0306/ 89869 46/// ///// 11049 39672 4//// 5//// 90640
AAXX 0306/ 89332 46/// ///// 11088 39106 4//// 5////
AAXX 0306/ 89332 46/// ///// 11083 39108 4//// 5//// 90640
AAXX 0306/ 89799 46/// ///// 11291 4//// 5//// 90640
AAXX 0306/ 89108 46/// ///// 11266 36876 4//// 5////
AAXX 0306/ 89108 46/// ///// 11269 36876 4//// 5//// 90640
AAXX 0306/ 89667 46/// ///// 11042 39721 4//// 5//// 90630
AAXX 0306/ 89667 46/// ///// 11041 39721 4//// 5//// 90620
AAXX 0306/ 89872 46/// ///// 11058 39670 4//// 5//// 90640
AAXX 0306/ 89866 46/// ///// 11014 39628 4//// 5//// 90640
AAXX 0306/ 89329 46/// ///// 11119 38646 4//// 5//// 90640
AAXX 0306/ 89868 46/// ///// 11056 39661 4//// 5//// 90640
AAXX 0306/ 89327 46/// ///// 11023 30110 4//// 5//// 90640
AAXX 0306/ 89769 46/// ///// 11060 39688 4//// 5//// 90640
AAXX 0306/ 89879 46/// ///// 10000 39622 4//// 5//// 90640
AAXX 0306/ 89314 46/// ///// 11124 38130 4//// 5//// 90640
AAXX 03064 71540 16/// /2605 11097 21114 60001 333 10047 21111 70004 555 33143 40203
AAXX 03064 71544 16/// ///// 11062 21089 60001 333 10038 21091 70000
AAXX 03064 71548 16/// ///// 11101 21127 60001 333 10045 21102 70004
AAXX 03064 71413 16/// ///// 11128 21144 60001 333 10045 21131 70000
AAXX 03064 71414 16/// ///// 11140 21158 60001 333 10054 21140 70000
AAXX 03064 71440 16/// ///// 11062 21099 60001 333 10055 21078 70000
AAXX 03064 71674 16/// ///// 11108 21124 60001 333 10058 21108 70000
AAXX 03064 71791 16/// /2704 11106 21128 60001 333 10067 21106 70000 555 33150 40193
AAXX 03064 71797 16/// ///// 11110 21131 60001 333 10051 21114 70006
AAXX 03064 71904 16/// ///// 11054 21094 60001 333 10056 21061 70000
AAXX 03064 71857 16/// ///// 11115 21141 60001 333 10048 21115 70000
AAXX 03064 71055 46/// /1908 11114 21123 39779 40115 53013 6///1 333 11112 21223 7////
AAXX 03064 71065 46/// ///// 11135 21156 6///1 333 10055 21135 7////
AAXX 03064 71360 16/// ///// 11110 21132 60001 333 10062 21111 70000
AAXX 03064 71380 16/// /2703 11056 21100 60001 333 10054 21056 70000 555 33253 40203
AAXX 03064 71346 16/// /2507 11056 21094 60001 333 10046 21072 7////
AAXX 03064 71014 16/// /1802 11075 21113 60001 333 10059 21075 70000 555 33339 40093
AAXX 03064 71481 16/// /2105 11048 21087 60001 333 10027 21080 70000 555 33134 40163
AAXX 03064 71498 16/// /2306 11094 21119 60001 333 10065 21101 70000 555 32745 40083
AAXX 03064 71249 16/// /2715 11096 21119 60001 333 10037 21096 70000 555 33257 40103
BBXX KSDF 03064 99354 70192 41498 30616 10178 20121 40288 54000 70200 834// 22223 0//// 20202 33606 41006 50602 6//// 80144
OOXX AAVIT 03064 99785 31778 57087 00501 46/// /1811 11070 21100 39647 49709 52005 90600
AAXX 03064 71413 16/// ///// 11128 21144 60001 333 10045 21131 70000
AAXX 03064 71414 16/// ///// 11140 21158 60001 333 10054 21140 70000
AAXX 03064 71440 16/// ///// 11062 21099 60001 333 10055 21078 70000
AAXX 03064 71360 16/// ///// 11110 21132 60001 333 10062 21111 70000
AAXX 03064 71380 16/// /2703 11056 21100 60001 333 10054 21056 70000 555 33253 40203
AAXX 03064 71791 16/// /2704 11106 21128 60001 333 10067 21106 70000 555 33150 40193
AAXX 03064 71797 16/// ///// 11110 21131 60001 333 10051 21114 70006
OOXX AAERC 03064 99815 31639 60713 00451 46/// /2704 11035 21110 39684 49739 52003 90550
AAXX 03064 71904 16/// ///// 11054 21094 60001 333 10056 21061 70000
AAXX 03064 71857 16/// ///// 11115 21141 60001 333 10048 21115 70000
AAXX 03064 71540 16/// /2605 11097 21114 60001 333 10047 21111 70004 555 33143 40203
AAXX 03064 71544 16/// ///// 11062 21089 60001 333 10038 21091 70000
AAXX 03064 71548 16/// ///// 11101 21127 60001 333 10045 21102 70004
AAXX 03064 71674 16/// ///// 11108 21124 60001 333 10058 21108 70000
AAXX 03064 71346 16/// /2507 11056 21094 60001 333 10046 21072 7////
AAXX 03064 71055 46/// /1908 11114 21123 39779 40115 53013 6///1 333 11112 21223 7////
AAXX 03064 71065 46/// ///// 11135 21156 6///1 333 10055 21135 7////
AAXX 03064 71481 16/// /2105 11048 21087 60001 333 10027 21080 70000 555 33134 40163
AAXX 03064 71498 16/// /2306 11094 21119 60001 333 10065 21101 70000 555 32745 40083
AAXX 03064 71014 16/// /1802 11075 21113 60001 333 10059 21075 70000 555 33339 40093
AAXX 03064 71249 16/// /2715 11096 21119 60001 333 10037 21096 70000 555 33257 40103
AAXX 03064 67201 32580 50508 10240 20196 38/// 48/// 83230 333 20185 5///0 55/// 5//// 94321 555 10000
AAXX 03064 67305 32580 30000 10290 20237 40110 83200 333 20249 5///0 55119 59008 94328 555 10000
AAXX 03064 67215 32580 53605 10290 20248 40112 81250 333 20253 50540 55119 59031 94320 555 10000
AAXX 03064 67217 32775 10409 10250 20147 38674 48540 81031 333 20194 50730 55098 59023 94300 555 10000
AAXX 03064 65594 32458 60000 10240 20234 30082 40116 86900 333 20235 58002 81913 85813 94908 94945 95835
BBXX C6KB2 03063 99110 30768 41/97 83414 10/// 20/// 40087 52011 7//55 8//// 22213 00/// 20301 301// 40502
AAXX 03064 07005 01370 82017 10078 20067 39982 40072 56034 60022 76166 8472/ 333 10078 20053 31005 55039 60027 70034 84706 88459 91027 90710 91129 555 69945
AAXX 03064 88889 12689 13009 10063 20029 30034 40119 56008 60001 81500 90550 333 4/000 70000 81645
AAXX 03064 89108 46/// /2206 11266 36868 4//// 52005 90600
AAXX 03064 89314 46/// /0618 11124 38123 4//// 52006 90550
AAXX 03064 89327 46/// /0000 11016 3//// 4//// 5//// 90550
AAXX 03064 89329 46/// /0011 11120 38640 49708 52008 90600
AAXX 03064 89332 46/// /0408 11088 39106 49717 52011 90600
AAXX 03064 89345 46/// /3511 11086 38727 49426 52006 90600
AAXX 03064 89376 46/// /1809 11058 39624 49690 52004 90550
AAXX 03064 89667 46/// /1926 11038 39721 49731 52006 90600
AAXX 03064 89734 46/// /3402 11320 35965 4//// 52004 90600
AAXX 03064 89744 46/// /0111 11325 36356 4//// 52002 90550
AAXX 03064 89769 46/// /2119 11058 39666 49718 52005 90550
AAXX 03064 89799 46/// /2206 11296 36675 4//// 52003 90550
AAXX 03064 89828 46/// /1806 11242 36425 4//// 52005 90550
AAXX 03064 89865 46/// ///// 1//// 3//// 4//// 5//// 90600
AAXX 03064 89866 46/// /1209 11018 39587 49717 52008 90600
AAXX 03064 89868 46/// /1913 11055 39648 49714 5//// 90550
AAXX 03064 89869 46/// /1909 11038 39661 49738 52011 90550
AAXX 03064 89872 46/// /2015 11050 39664 49719 52008 90550
AAXX 03064 89873 46/// /1808 11053 39665 49741 52004 90550
AAXX 03064 89879 46/// ///02 11001 39599 49635 5//// 90550
BBXX A8TG2 03063 99379 11749 41/// /3324 10090 20069 40160 54000 7//// 8//// 22224 00101 20803 332// 41208 5//// 80080
BBXX OXLD2 03064 99500 71310 41998 83219 1//// 2//// 40400 57020 70222 8//// 22225 04080 2//// 3//// 4//// 5//// 6//// 8//// ICE /////
AAXX 03061 58968 31558 70703 10169 20103 30179 40187 57014 70511 874//
AAXX 03061 58974 31557 60207 10159 20083 30067 40192 56014 70511 86400
AAXX 03061 59358 31956 03604 10233 20123 30104 40135 57020 70510
AAXX 03061 59559 32566 40408 10215 20152 30102 40130 58011 84200
AAXX 03061 59792 32560 70409 10215 20171 30122 40127 57023 85410
AAXX 03061 59997 11456 80207 10260 20252 30063 40075 57020 60371 76366 8442/
AAXX 03061 59158 32965 03503 10222 20099 30026 40125 58023
AAXX 03061 59562 32660 80405 10198 20127 30142 40153 57009 885//
AAXX 03061 59567 31458 80109 10182 20146 39753 40132 58007 71022 885//
BBXX VCXF 03064 99464 70484 41497 80216 10038 2003/ 40240 52005 70222 886// 22200 02045 20403 32034 40806 50804 80035
BBXX VCXF 03064 99464 70484 41497 80216 10038 2003/ 40240 52005 70222 886// 22200 02045 20403 32034 40806 50804 80035
AAXX 03064 91844 46/// /0702 10250 40106 22200 00265
BBXX CFO383 03064 99439 70602 47599 /3509 10046 2101/ 40273 52001 700// 8/ // 22200 00093 11104 2//// 3//// 4//// 5//// 6//// 70022 80024 333 91012
AAXX 03061 01262 46/// /1418 10036 21035 333 20032 91122
BBXX CFO383 03064 99439 70602 47599 /3509 10046 2101/ 40273 52001 700// 8/ // 22200 00093 11104 2//// 3//// 4//// 5//// 6//// 70022 80024 333 91012
AAXX 03064 65528 NIL
AAXX 03064 65536 NIL
AAXX 03064 65545 31940 0//// 10185 20169 39692 40120 70500 333 20180 58003
AAXX 03064 65548 NIL
AAXX 03064 65555 NIL
AAXX 03064 65557 31406 6//// 10231 20225 39876 40115 74244 86500 333 20228 58000 86611
AAXX 03064 65560 31402 8//// 10225 20225 39802 40109 74444 885// 333 20190 58000 88613
AAXX 03064 65562 NIL
AAXX 03064 65563 31201 82606 10218 20215 39876 40116 74644 886// 333 20188 58004 88703
AAXX 03064 65578 11558 60000 10272 20248 30/// 40/// 60314 70266 86500 333 20266 5//// 86620
AAXX 03064 65585 32458 3//// 10241 20229 3//// 4//// 83200 333 20240 5//// 83813 94902
AAXX 03064 65592 NIL
AAXX 03064 65594 32458 60000 10240 20234 30082 40116 86900 333 20235 58002 81913 85813 94908 94945 95835
AAXX 03064 65599 11458 5//// 10239 20233 30027 40101 60064 72166 85900 333 20238 58001 85913 94923 94944 95814
BBXX 64045 03064 99591 70117 46/// /3033 10070 21002 49856 51025 22200 00103 11018 70090 333 90710 91143
BBXX 63106 03064 99610 10017 46/// /2124 10066 49610 56042 22200
BBXX 63105 03064 99610 10017 47996 ///// 10068 20036 49611 57043 740// 22200
BBXX 62107 03064 99501 70061 46/// /2927 10124 20108 40087 50002 22200 00126 10908 70039 333 90710 91143
BBXX 62092 03064 99512 70105 46/// /2819 10121 20106 49336 55002 22200 00126 10910 70050 333 90710 91129
BBXX 62305 03064 99504 10000 46/95 /2437 10131 20117 40019 57062 22200 00139 108// 333 90710 91152
AAXX 03064 41407 42970 01506 10160 20008 38971 48523 333 20076 30/// 58004
BBXX ONFP 03064 99215 50175 41593 71318 10210 2018/ 40210 56010 76021 87343 22233 04208 20604 31111 40605 50504 6//// 80190 ICE /////
BBXX A8TG2 03063 99379 11749 41/// /3324 10090 20069 40160 54000 7//// 8//// 22224 00101 20803 332// 41208 5//// 80080
BBXX WACW 03064 99458 71306 41498 40219 10100 2006/ 40400 54000 7//11 846// 22273 00100 20202 336// 40606 5//// 6//// 80080 ICE /////
BBXX ONFP 03064 99215 50175 41593 71318 10210 2018/ 40210 56010 76021 87343 22233 04208 20604 31111 40605 50504 6//// 80190 ICE /////
BBXX 2AQK9 03064 99043 70067 41297 41025 10280 20266 40114 52004 70211 8421/ 22264 20301 325// 40502 5//// 80270
BBXX WACW 03064 99458 71306 41498 40219 10100 2006/ 40400 54000 7//11 846// 22273 00100 20202 336// 40606 5//// 6//// 80080 ICE /////
BBXX CFO383 03064 99439 70602 47599 /3509 10046 2101/ 40273 52001 700// 8/ // 22200 00093 11104 2//// 3//// 4//// 5//// 6//// 70022 80024 333 91012
BBXX VCXF 03064 99464 70484 41497 80216 10038 2003/ 40240 52005 70222 886// 22200 02045 20403 32034 40806 50804 80035
BBXX 9V7645 03064 99281 71195 41/// /3008 10155 20121 40180 54/// 700// 8/181 22234 00190 2//// 3//// 4//// 5//// 6//// 80135 ICE /////
BBXX A8TG2 03063 99379 11749 41/// /3324 10090 20069 40160 54000 7//// 8//// 22224 00101 20803 332// 41208 5//// 80080
BBXX BSH03 03061 99540 10081 46/// ///// 22200 00098 20805 70023
BBXX BSH02 03061 99542 10079 46/// ///// 22200 00098 20806 70032
BBXX KSDF 03064 99354 70192 41498 30616 10178 20121 40288 54000 70200 834// 22223 0//// 20202 33606 41006 50602 6//// 80144
BBXX C6CU6 03063 99479 70084 41297 82925 10130 20042 40165 56020 70222 85728 22213 04145 20802 332// 41506 5//// 80090
BBXX DDZF2 03064 99371 10038 41/98 72412 10162 20125 40205 51015 70222 8//// 22225 00180 2//// 80140
BBXX MHNO6 03063 99472 70128 41/98 /2627 10132 20091 40198 54000 70211 8//// 22263 00156 29906 3//// 4//// 5//// 80111
OOXX CAP16 03041 99624 71145 ///// 02061 26/// /2701 11167 29076 39738 90410 333 60000
OOXX CAP16 03041 99624 71145 ///// 02061 26/// /2701 11167 29076 39738 90420 333 60000
OOXX CAP16 03041 99624 71145 ///// 02061 26/// /2602 11168 29077 39737 90430 333 60000
OOXX CAP16 03041 99624 71145 ///// 02061 26/// /2701 11167 29077 39737 90440 333 60000
OOXX CAP16 03041 99624 71145 ///// 02061 26/// /2902 11168 29076 39735 90450 333 60000
OOXX CAP16 03051 99624 71145 ///// 02061 26/// /2902 11168 29076 39734 90500 333 60000
OOXX CAP16 03051 99624 71145 ///// 02061 26/// /2902 11168 29076 39734 90510 333 60000
OOXX CAP16 03051 99624 71145 ///// 02061 26/// /2903 11169 29076 39732 90520 333 60000
OOXX CAP16 03051 99624 71145 ///// 02061 26/// /2903 11170 29076 39733 90530 333 60000
OOXX CAP16 03051 99624 71145 ///// 02061 26/// /3002 11170 29076 39735 90540 333 60000
OOXX CAP16 03051 99624 71145 ///// 02061 26/// /3002 11170 29076 39734 90550 333 60000
OOXX CAP16 03061 99624 71145 ///// 02061 26/// /3102 11170 29076 39735 90600 333 60000
OOXX MRP43 03041 99181 70159 ///// 00101 26/// /0202 10210 29016 30135 90440 333 60000
OOXX MRP43 03041 99181 70159 ///// 00101 26/// /0202 10208 29016 30136 90450 333 60000
OOXX MRP43 03051 99181 70159 ///// 00101 26/// /3602 10206 29016 30137 90500 333 60000
OOXX MRP43 03051 99181 70159 ///// 00101 26/// /3501 10204 29017 30136 90510 333 60000
OOXX MRP43 03051 99181 70159 ///// 00101 26/// /3501 10204 29017 30136 90520 333 60000
OOXX MRP43 03051 99181 70159 ///// 00101 26/// /0101 10202 29017 30137 90530 333 60000
OOXX MRP43 03051 99181 70159 ///// 00101 26/// /0101 10201 29017 30137 90540 333 60000
OOXX MRP43 03051 99181 70159 ///// 00101 26/// /3402 10200 29018 30137 90550 333 60000
OOXX MRP43 03061 99181 70159 ///// 00101 26/// /0102 10197 29018 30138 90600 333 60000
OOXX MRP43 03061 99181 70159 ///// 00101 26/// /0102 10197 29018 30139 90610 333 60000
OOXX MRP43 03061 99181 70159 ///// 00101 26/// /0101 10197 29018 30141 90620 333 60000
OOXX MRP43 03061 99181 70159 ///// 00101 26/// /0101 10197 29018 30142 90630 333 60000
OOXX GBP67 03041 99159 50057 ///// 04381 26/// /0904 10158 29086 39675 90410 333 60000
OOXX GBP67 03041 99159 50057 ///// 04381 26/// /0904 10158 29087 39676 90420 333 60000
OOXX GBP67 03041 99159 50057 ///// 04381 26/// /0904 10158 29084 39677 90430 333 60000
OOXX GBP67 03041 99159 50057 ///// 04381 26/// /0904 10158 29084 39676 90440 333 60000
OOXX GBP67 03041 99159 50057 ///// 04381 26/// /0904 10159 29085 39676 90450 333 60000
OOXX GBP67 03051 99159 50057 ///// 04381 26/// /0804 10159 29084 39677 90500 333 60000
OOXX GBP67 03051 99159 50057 ///// 04381 26/// /0904 10160 29087 39677 90510 333 60000
OOXX GBP67 03051 99159 50057 ///// 04381 26/// /0804 10158 29088 39679 90520 333 60000
OOXX GBP67 03051 99159 50057 ///// 04381 26/// /0904 10158 29089 39678 90530 333 60000
OOXX GBP67 03051 99159 50057 ///// 04381 26/// /0804 10158 29090 39679 90540 333 60000
OOXX GBP67 03051 99159 50057 ///// 04381 26/// /0804 10158 29083 39680 90550 333 60000
OOXX GBP67 03061 99159 50057 ///// 04381 26/// /0804 10159 29074 39683 90600 333 60000
OOXX RUP60 03041 99531 11588 ///// 00651 26/// /3002 11040 29046 30096 90452 333 60000
OOXX RUP60 03051 99531 11588 ///// 00651 26/// /3203 11045 29047 30097 90502 333 60000
OOXX RUP60 03051 99531 11588 ///// 00651 26/// /3202 11047 29048 30097 90512 333 60000
OOXX RUP60 03051 99531 11588 ///// 00651 26/// /3504 11055 29049 30099 90522 333 60000
OOXX RUP60 03051 99531 11588 ///// 00651 26/// /3202 11059 29051 30100 90532 333 60000
OOXX RUP60 03051 99531 11588 ///// 00651 26/// /0505 11062 29052 30100 90542 333 60000
OOXX RUP60 03051 99531 11588 ///// 00651 26/// /0205 11070 29053 30101 90552 333 60000
OOXX RUP60 03061 99531 11588 ///// 00651 26/// /3202 11078 29056 30102 90602 333 60000
OOXX RUP60 03061 99531 11588 ///// 00651 26/// /3203 11079 29057 30102 90612 333 60000
OOXX RUP60 03061 99531 11588 ///// 00651 26/// /3103 11074 29057 30102 90622 333 60000
OOXX RUP60 03061 99531 11588 ///// 00651 26/// /3203 11075 29057 30103 90632 333 60000
OOXX RUP60 03061 99531 11588 ///// 00651 26/// /3203 11075 29056 30102 90642 333 60000
OOXX KIP39 03041 99020 51574 ///// 00181 26/// /1106 10262 29081 30085 90430 333 60000
OOXX KIP39 03041 99020 51574 ///// 00181 26/// /1005 10262 29082 30086 90440 333 60000
OOXX KIP39 03041 99020 51574 ///// 00181 26/// /1005 10261 29082 30087 90450 333 60000
OOXX KIP39 03051 99020 51574 ///// 00181 26/// /1005 10262 29083 30088 90500 333 60000
OOXX KIP39 03051 99020 51574 ///// 00181 26/// /1006 10261 29082 30090 90510 333 60000
OOXX KIP39 03051 99020 51574 ///// 00181 26/// /1006 10261 29083 30090 90520 333 60000
OOXX KIP39 03051 99020 51574 ///// 00181 26/// /1006 10261 29083 30093 90530 333 60000
OOXX KIP39 03051 99020 51574 ///// 00181 26/// /1006 10261 29083 30091 90540 333 60000
OOXX KIP39 03051 99020 51574 ///// 00181 26/// /1006 10262 29083 30092 90550 333 60000
OOXX KIP39 03061 99020 51574 ///// 00181 26/// /1006 10261 29082 30095 90600 333 60000
OOXX KIP39 03061 99020 51574 ///// 00181 26/// /1006 10261 29082 30097 90610 333 60000
OOXX KIP39 03061 99020 51574 ///// 00181 26/// /1006 10262 29081 30098 90620 333 60000
OOXX MNP45 03041 99479 11063 ///// 17291 26/// /2301 11119 29052 38423 90422 333 60000
OOXX MNP45 03041 99479 11063 ///// 17291 26/// /2301 11120 29049 38423 90432 333 60000
OOXX MNP45 03041 99479 11063 ///// 17291 26/// /2001 11117 29053 38423 90442 333 60000
OOXX MNP45 03041 99479 11063 ///// 17291 26/// /2301 11115 29044 38422 90452 333 60000
OOXX MNP45 03051 99479 11063 ///// 17291 26/// /2601 11115 29044 38421 90502 333 60000
OOXX MNP45 03051 99479 11063 ///// 17291 26/// /2701 11119 29048 38421 90512 333 60000
OOXX MNP45 03051 99479 11063 ///// 17291 26/// /2501 11119 29048 38421 90522 333 60000
OOXX MNP45 03051 99479 11063 ///// 17291 26/// /2601 11117 29047 38424 90532 333 60000
OOXX MNP45 03051 99479 11063 ///// 17291 26/// /2702 11119 29047 38424 90542 333 60000
OOXX MNP45 03051 99479 11063 ///// 17291 26/// /2802 11123 29049 38422 90552 333 60000
OOXX MNP45 03061 99479 11063 ///// 17291 26/// /3002 11126 29053 38424 90602 333 60000
OOXX MNP45 03061 99479 11063 ///// 17291 26/// /3201 11134 29058 38424 90612 333 60000
OOXX AUP04 03051 99377 31451 ///// 00311 26/// /2102 10194 29045 30125 90503 333 60000
OOXX AUP04 03051 99377 31451 ///// 00311 26/// /2202 10191 29046 30124 90513 333 60000
OOXX AUP04 03051 99377 31451 ///// 00311 26/// /2302 10200 29044 30122 90523 333 60000
OOXX AUP04 03051 99377 31451 ///// 00311 26/// /1902 10195 29045 30121 90533 333 60000
OOXX AUP04 03051 99377 31451 ///// 00311 26/// /2002 10194 29045 30121 90543 333 60000
OOXX AUP04 03051 99377 31451 ///// 00311 26/// /1902 10191 29047 30120 90553 333 60000
OOXX AUP04 03061 99377 31451 ///// 00311 26/// /2102 10195 29046 30119 90603 333 60000
OOXX AUP04 03061 99377 31451 ///// 00311 26/// /2002 10189 29049 30121 90613 333 60000
OOXX AUP04 03061 99377 31451 ///// 00311 26/// /1903 10185 29053 30120 90623 333 60000
OOXX AUP04 03061 99377 31451 ///// 00311 26/// /1903 10176 29058 30123 90633 333 60000
OOXX AUP04 03061 99377 31451 ///// 00311 26/// /1903 10171 29060 30123 90643 333 60000
OOXX AUP04 03061 99377 31451 ///// 00311 26/// /1803 10169 29060 30123 90653 333 60000
OOXX RUP59 03041 99539 10848 ///// 02121 26/// /0802 11065 29080 39943 90440 333 60000
OOXX RUP59 03041 99539 10848 ///// 02121 26/// /0802 11065 29080 39942 90450 333 60000
OOXX RUP59 03051 99539 10848 ///// 02121 26/// /0802 11064 29080 39941 90500 333 60000
OOXX RUP59 03051 99539 10848 ///// 02121 26/// /0802 11063 29079 39941 90510 333 60000
OOXX RUP59 03051 99539 10848 ///// 02121 26/// /0802 11062 29079 39941 90520 333 60000
OOXX RUP59 03051 99539 10848 ///// 02121 26/// /0802 11061 29079 39940 90530 333 60000
OOXX RUP59 03051 99539 10848 ///// 02121 26/// /0902 11060 29079 39939 90540 333 60000
OOXX RUP59 03051 99539 10848 ///// 02121 26/// /0902 11060 29078 39940 90550 333 60000
OOXX RUP59 03061 99539 10848 ///// 02121 26/// /1003 11060 29079 39940 90600 333 60000
OOXX RUP59 03061 99539 10848 ///// 02121 26/// /0902 11059 29079 39941 90610 333 60000
OOXX RUP59 03061 99539 10848 ///// 02121 26/// /0902 11058 29078 39941 90620 333 60000
OOXX RUP59 03061 99539 10848 ///// 02121 26/// /0902 11058 29077 39940 90630 333 60000
OOXX PTP53 03041 99377 70257 ///// 00121 26/// ///// 1//// 29/// 3//// 90410 333 6///0
OOXX PTP53 03041 99377 70257 ///// 00121 26/// ///// 1//// 29/// 3//// 90420 333 6///0
OOXX PTP53 03041 99377 70257 ///// 00121 26/// ///// 1//// 29/// 3//// 90430 333 6///0
OOXX PTP53 03041 99377 70257 ///// 00121 26/// ///// 1//// 29/// 3//// 90440 333 6///0
OOXX PTP53 03041 99377 70257 ///// 00121 26/// ///// 1//// 29/// 3//// 90450 333 6///0
OOXX PTP53 03051 99377 70257 ///// 00121 26/// ///// 1//// 29/// 3//// 90500 333 6///0
OOXX PTP53 03051 99377 70257 ///// 00121 26/// ///// 1//// 29/// 3//// 90510 333 6///0
OOXX PTP53 03051 99377 70257 ///// 00121 26/// ///// 1//// 29/// 3//// 90520 333 6///0
OOXX PTP53 03051 99377 70257 ///// 00121 26/// ///// 1//// 29/// 3//// 90530 333 6///0
OOXX PTP53 03051 99377 70257 ///// 00121 26/// ///// 1//// 29/// 3//// 90540 333 6///0
OOXX PTP53 03051 99377 70257 ///// 00121 26/// ///// 1//// 29/// 3//// 90550 333 6///0
OOXX PTP53 03061 99377 70257 ///// 00121 26/// ///// 1//// 29/// 3//// 90600 333 6///0
OOXX AUP09 03041 99124 31309 ///// 00321 26/// ///// 1//// 29/// 3//// 90414 333 6///0
OOXX AUP09 03041 99124 31309 ///// 00321 26/// ///// 1//// 29/// 3//// 90424 333 6///0
OOXX AUP09 03041 99124 31309 ///// 00321 26/// ///// 1//// 29/// 3//// 90434 333 6///0
OOXX AUP09 03041 99124 31309 ///// 00321 26/// ///// 1//// 29/// 3//// 90444 333 6///0
OOXX AUP09 03041 99124 31309 ///// 00321 26/// ///// 1//// 29/// 3//// 90454 333 6///0
OOXX AUP09 03051 99124 31309 ///// 00321 26/// ///// 1//// 29/// 3//// 90504 333 6///0
OOXX AUP09 03051 99124 31309 ///// 00321 26/// ///// 1//// 29/// 3//// 90514 333 6///0
OOXX AUP09 03051 99124 31309 ///// 00321 26/// ///// 1//// 29/// 3//// 90524 333 6///0
OOXX AUP09 03051 99124 31309 ///// 00321 26/// ///// 1//// 29/// 3//// 90534 333 6///0
OOXX AUP09 03051 99124 31309 ///// 00321 26/// ///// 1//// 29/// 3//// 90544 333 6///0
OOXX AUP09 03051 99124 31309 ///// 00321 26/// ///// 1//// 29/// 3//// 90554 333 6///0
OOXX AUP09 03061 99124 31309 ///// 00321 26/// ///// 1//// 29/// 3//// 90604 333 6///0
OOXX FJP26 03041 99178 31775 ///// 00311 26/// /1003 10236 29093 30062 90400 333 60000
OOXX FJP26 03041 99178 31775 ///// 00311 26/// /1002 10235 29094 30063 90410 333 60000
OOXX FJP26 03041 99178 31775 ///// 00311 26/// /0903 10234 29095 30062 90420 333 60000
OOXX FJP26 03041 99178 31775 ///// 00311 26/// /0804 10231 29094 30064 90430 333 60000
OOXX FJP26 03041 99178 31775 ///// 00311 26/// /0703 10228 29093 30065 90440 333 60000
OOXX FJP26 03041 99178 31775 ///// 00311 26/// /0703 10225 29092 30067 90450 333 60000
OOXX FJP26 03051 99178 31775 ///// 00311 26/// /0702 10225 29094 30068 90500 333 60000
OOXX FJP26 03051 99178 31775 ///// 00311 26/// /0402 10229 29094 30067 90510 333 60000
OOXX FJP26 03051 99178 31775 ///// 00311 26/// /0303 10231 29095 30066 90520 333 60000
OOXX FJP26 03051 99178 31775 ///// 00311 26/// /0203 10231 29095 30065 90530 333 60000
OOXX FJP26 03051 99178 31775 ///// 00311 26/// /0302 10232 29095 30065 90540 333 60000
OOXX FJP26 03051 99178 31775 ///// 00311 26/// /3601 10235 29093 30066 90550 333 60000
OOXX ARP01 03041 99345 50585 ///// 00311 26/// /0000 10089 29036 30144 90410 333 60000
OOXX ARP01 03041 99345 50585 ///// 00311 26/// /1101 10089 29036 30144 90420 333 60000
OOXX ARP01 03041 99345 50585 ///// 00311 26/// /1101 10088 29036 30143 90430 333 60000
OOXX ARP01 03041 99345 50585 ///// 00311 26/// /1101 10088 29036 30143 90440 333 60000
OOXX ARP01 03041 99345 50585 ///// 00311 26/// /1102 10088 29036 30143 90450 333 60000
OOXX ARP01 03051 99345 50585 ///// 00311 26/// /1101 10087 29035 30142 90500 333 60000
OOXX ARP01 03051 99345 50585 ///// 00311 26/// /1101 10087 29034 30141 90510 333 60000
OOXX ARP01 03051 99345 50585 ///// 00311 26/// /1101 10087 29034 30140 90520 333 60000
OOXX ARP01 03051 99345 50585 ///// 00311 26/// /1101 10086 29034 30138 90530 333 60000
OOXX ARP01 03051 99345 50585 ///// 00311 26/// /1101 10086 29034 30138 90540 333 60000
OOXX ARP01 03051 99345 50585 ///// 00311 26/// /1101 10085 29035 30138 90550 333 60000
OOXX ARP01 03061 99345 50585 ///// 00311 26/// /1101 10084 29035 30138 90600 333 60000
OOXX MXP44 03041 99280 71140 ///// 00041 26/// /1422 10144 29055 30139 90410 333 60000
OOXX MXP44 03041 99280 71140 ///// 00041 26/// /1422 10144 29055 30139 90420 333 60000
OOXX MXP44 03041 99280 71140 ///// 00041 26/// /1422 10143 29055 30140 90430 333 60000
OOXX MXP44 03041 99280 71140 ///// 00041 26/// /1422 10141 29055 30139 90440 333 60000
OOXX MXP44 03041 99280 71140 ///// 00041 26/// /1422 10140 29055 30139 90450 333 60000
OOXX MXP44 03051 99280 71140 ///// 00041 26/// /1422 10138 29055 30138 90500 333 60000
OOXX MXP44 03051 99280 71140 ///// 00041 26/// /1422 10135 29054 30138 90510 333 60000
OOXX MXP44 03051 99280 71140 ///// 00041 26/// /1422 10131 29054 30139 90520 333 60000
OOXX MXP44 03051 99280 71140 ///// 00041 26/// /1422 10130 29054 30139 90530 333 60000
OOXX MXP44 03051 99280 71140 ///// 00041 26/// /1422 10131 29054 30140 90540 333 60000
OOXX MXP44 03051 99280 71140 ///// 00041 26/// /1422 10133 29054 30140 90550 333 60000
OOXX MXP44 03061 99280 71140 ///// 00041 26/// /1422 10128 29054 30141 90600 333 60000
OOXX RUP54 03041 99586 10494 ///// 01271 26/// /1803 11074 29086 30038 90427 333 60060
OOXX RUP54 03041 99586 10494 ///// 01271 26/// /3104 11074 29086 30037 90437 333 60060
OOXX RUP54 03041 99586 10494 ///// 01271 26/// /2603 11074 29086 30038 90447 333 60060
OOXX RUP54 03041 99586 10494 ///// 01271 26/// /0103 11073 29086 30037 90457 333 60060
OOXX RUP54 03051 99586 10494 ///// 01271 26/// /1403 11073 29086 30036 90507 333 60060
OOXX RUP54 03051 99586 10494 ///// 01271 26/// /0302 11073 29086 30035 90517 333 60060
OOXX RUP54 03051 99586 10494 ///// 01271 26/// /0803 11072 29086 30035 90527 333 60060
OOXX RUP54 03051 99586 10494 ///// 01271 26/// /0404 11072 29086 30034 90537 333 60060
OOXX RUP54 03051 99586 10494 ///// 01271 26/// /1004 11072 29086 30033 90547 333 60060
OOXX RUP54 03051 99586 10494 ///// 01271 26/// /1804 11071 29086 30032 90557 333 60060
OOXX RUP54 03061 99586 10494 ///// 01271 26/// /0304 11070 29086 30030 90607 333 60060
OOXX RUP54 03061 99586 10494 ///// 01271 26/// /0504 11070 29086 30030 90617 333 60060
OOXX CKP23 03041 99212 51598 ///// 00051 26/// /0903 10252 29089 30094 90450 333 60000
OOXX CKP23 03051 99212 51598 ///// 00051 26/// /1102 10250 29091 30094 90500 333 60000
OOXX CKP23 03051 99212 51598 ///// 00051 26/// /1103 10249 29091 30094 90510 333 60000
OOXX CKP23 03051 99212 51598 ///// 00051 26/// /1003 10248 29091 30096 90520 333 60000
OOXX CKP23 03051 99212 51598 ///// 00051 26/// /0902 10249 29092 30098 90530 333 60000
OOXX CKP23 03051 99212 51598 ///// 00051 26/// /0903 10253 29092 30098 90540 333 60000
OOXX CKP23 03051 99212 51598 ///// 00051 26/// /1003 10251 29092 30099 90550 333 60000
OOXX CKP23 03061 99212 51598 ///// 00051 26/// /0903 10252 29092 30099 90600 333 60000
OOXX CKP23 03061 99212 51598 ///// 00051 26/// /0903 10253 29092 30101 90610 333 60000
OOXX CKP23 03061 99212 51598 ///// 00051 26/// /0605 10256 29091 30102 90620 333 60000
OOXX CKP23 03061 99212 51598 ///// 00051 26/// /0506 10258 29089 30102 90630 333 60000
OOXX CKP23 03061 99212 51598 ///// 00051 26/// /0506 10259 29089 30103 90640 333 60000
OOXX NZP46 03041 99438 51765 ///// 00221 26/// /0108 10159 29073 30264 90420 333 60000
OOXX NZP46 03041 99438 51765 ///// 00221 26/// /0108 10157 29074 30264 90430 333 60000
OOXX NZP46 03041 99438 51765 ///// 00221 26/// /3607 10158 29075 30262 90440 333 60000
OOXX NZP46 03041 99438 51765 ///// 00221 26/// /3608 10154 29076 30262 90450 333 60000
OOXX NZP46 03051 99438 51765 ///// 00221 26/// /3607 10154 29076 30262 90500 333 60000
OOXX NZP46 03051 99438 51765 ///// 00221 26/// /3607 10154 29077 30262 90510 333 60000
OOXX NZP46 03051 99438 51765 ///// 00221 26/// /3608 10152 29078 30262 90520 333 60000
OOXX NZP46 03051 99438 51765 ///// 00221 26/// /3608 10150 29078 30262 90530 333 60000
OOXX NZP46 03051 99438 51765 ///// 00221 26/// /0108 10147 29079 30261 90540 333 60000
OOXX NZP46 03051 99438 51765 ///// 00221 26/// /0108 10145 29080 30261 90550 333 60000
OOXX NZP46 03061 99438 51765 ///// 00221 26/// /0108 10144 29081 30260 90600 333 60000
OOXX NZP46 03061 99438 51765 ///// 00221 26/// /0108 10142 29081 30259 90610 333 60000
OOXX RUP58 03041 99442 11320 ///// 01121 26/// /1402 11067 29054 30031 90442 333 60000
OOXX RUP58 03041 99442 11320 ///// 01121 26/// /1402 11065 29052 30029 90452 333 60000
OOXX RUP58 03051 99442 11320 ///// 01121 26/// /1301 11064 29053 30029 90502 333 60000
OOXX RUP58 03051 99442 11320 ///// 01121 26/// /1601 11064 29054 30029 90512 333 60000
OOXX RUP58 03051 99442 11320 ///// 01121 26/// /1901 11064 29054 30029 90522 333 60000
OOXX RUP58 03051 99442 11320 ///// 01121 26/// /1601 11063 29054 30026 90532 333 60000
OOXX RUP58 03051 99442 11320 ///// 01121 26/// /0000 11058 29054 30026 90542 333 60000
OOXX RUP58 03051 99442 11320 ///// 01121 26/// /0301 11052 29051 30026 90552 333 60000
OOXX RUP58 03061 99442 11320 ///// 01121 26/// /0301 11057 29051 30025 90602 333 60000
OOXX RUP58 03061 99442 11320 ///// 01121 26/// /0201 11057 29051 30025 90612 333 60000
OOXX RUP58 03061 99442 11320 ///// 01121 26/// /1703 11064 29056 30023 90622 333 60000
OOXX RUP58 03061 99442 11320 ///// 01121 26/// /1602 11069 29058 30023 90632 333 60000
AAXX 03064 40100 12960 00903 10154 20004 30203 40235 51013 60004 906// 333 20118 30/// 50374 55021 20837 92427
AAXX 03064 65528 NIL
AAXX 03064 65536 NIL
AAXX 03064 65545 31940 0//// 10185 20169 39692 40120 70500 333 20180 58003
AAXX 03064 65548 NIL
AAXX 03064 65555 NIL
AAXX 03064 65557 31406 6//// 10231 20225 39876 40115 74244 86500 333 20228 58000 86611
AAXX 03064 65560 31402 8//// 10225 20225 39802 40109 74444 885// 333 20190 58000 88613
AAXX 03064 65562 NIL
AAXX 03064 65563 31201 82606 10218 20215 39876 40116 74644 886// 333 20188 58004 88703
AAXX 03064 65578 11558 60000 10272 20248 30/// 40/// 60314 70266 86500 333 20266 5//// 86620
AAXX 03064 65585 32458 3//// 10241 20229 3//// 4//// 83200 333 20240 5//// 83813 94902
AAXX 03064 65592 NIL
AAXX 03064 65594 NIL
AAXX 03064 65599 11458 5//// 10239 20233 30027 40101 60064 72166 85900 333 20238 58001 85913 94923 94944 95814
BBXX DQVN 03063 99358 11211 41596 63418 10080 20013 40230 54000 705// 862// 22200 00147 20402 80050
AAXX 03064 91559 46/// /0000 10240 40071 22200 00275
AAXX 03063 63682 12482 62304 10222 20185 3//// 48/// 60024 82951 3333 20180 82819 81922 85078 5555 10198
AAXX 03063 63658 12980 70902 10235 20189 38879 48507 60034 83037 3333 20194 59018 83360 87280 5555 10205
AAXX 03064 78982 11484 40510 10271 20241 30106 40111 57012 60031 72580 81200 333 58000 60007 81817
AAXX 03064 71384 16/// /3605 11016 21060 30333 40341 52026 60001 333 10000 21034 70030
AAXX 03064 71389 46/// /3001 11069 21085 6///1 333 10001 21069 7////
AAXX 03064 71612 16/// /3304 11027 21070 30263 40356 50011 60001 333 10036 21028 70012
AAXX 03064 71619 16/// /3604 11050 21068 30254 40314 53018 60001 333 11011 21066 70000
AAXX 03064 71384 16/// /3605 11016 21060 30333 40341 52026 60001 333 10000 21034 70030
AAXX 03064 71389 46/// /3001 11069 21085 6///1 333 10001 21069 7////
AAXX 03064 71612 16/// /3304 11027 21070 30263 40356 50011 60001 333 10036 21028 70012
AAXX 03064 71619 16/// /3604 11050 21068 30254 40314 53018 60001 333 11011 21066 70000
AAXX 03064 87467 32970 00507 10138 20112 39993 40125 57005
AAXX 03064 91531 46/// /1004 1//// 40047 22200 00279
AAXX 03064 41265 36/// /2902 10253 20164 39622 40175 333 0E025 20181 59003
AAXX 03061 15360 01496 72106 10059 20055 30199 40213 57002 60002 71011 87600 222// 06054 2//// 333 10081 20059 3//// 60007 70000 91007 91108 92426
BBXX 46109 03061 99481 71234 46/// /1801 10033 40330 90557
BBXX 46110 03061 99481 71230 46/// /1503 10042 40333 90558
AAXX 03064 71016 16/// ///// 11085 60001 333 10035 21090 70000
AAXX 03064 71301 17/// ///// 11100 21121 39880 40293 58012 69971 7//4/ 333 11064 21167 70018
AAXX 03064 91642 46/// /0000 1//// 40065 22200 0////
AAXX 03064 71301 17/// ///// 11100 21121 39880 40293 58012 69971 7//4/ 333 11064 21167 70018
AAXX 03064 71016 16/// ///// 11085 60001 333 10035 21090 70000
AAXX 03064 60670 12770 60000 10097 21012 39094 48535 55003 60004 82232 333 00800 20087 82846 83360 95900
AAXX 03061 15360 01496 72106 10059 20055 30199 40213 57002 60002 71011 87600 222// 06054 2//01 333 10081 20059 3//// 60007 70000 91007 91108 92426
AAXX 03064 60686 12960 33006 10134 21028 40154 53002 60004 81032 333 01000 20134 81360
BBXX A8TG2 03063 99379 11749 41/// /3324 10090 20069 40160 54000 7//// 8//// 22224 00101 20803 332// 41208 5//// 80080
AAXX 03064 92036 46/// /0706 10297 40039 22200 00315
AAXX 03064 60107 11458 83010 10110 20040 40208 53010 60064 70262 889// 333 20080 31005 83816 84626 83930 95380
BBXX ZCDQ5 03033 99365 10184 43598 33210 10160 20150 40240 54000 70100 80//3 22274 00148 20201 3//// 4//// 5//// 80150
BBXX 46094 03061 99446 71243 46/// /3506 10090 90630
BBXX 46094 03061 99446 71243 46/// /3507 10091 90620
BBXX 46094 03061 99446 71243 46/// /3607 10091 90610
BBXX 46094 03061 99446 71243 46/// /0107 10091 90600
BBXX ZCDQ5 03063 99374 10170 43498 31513 10160 20150 40250 51001 70200 831// 22274 00138 20101 80150
BBXX 46094 03061 99446 71243 46/// /3607 10092 90550
BBXX 46094 03061 99446 71243 46/// /3607 10093 90540
BBXX AMOUK08 03064 99501 70061 46/// ///// 10126 20118 30082 40089 57005 90550
BBXX 63106 03064 99610 10017 46/// /2124 10066 49610 56042 22200
BBXX 63113 03064 99610 10017 46/// /2330 10063 20030 49624 57036 22200 10911 70055
BBXX 62305 03064 99504 10000 46/95 /2437 10131 20117 40019 57062 22200 00139 10806 70030 333 90710 91152
BBXX 64045 03064 99591 70117 46/// /2934 10073 21006 49858 51025 22200 00102 11018 70090 333 90710 91148
BBXX 62092 03064 99512 70105 46/// /2819 10121 20106 40084 55002 22200 00126 10910 70050 333 90710 91129
AAXX 03064 93713 46/// /0809 10143 40098 22200 00133
BBXX 46110 03061 99481 71230 46/// /1503 10042 40333 90558
BBXX 46109 03061 99481 71234 46/// /1801 10033 40330 90557
BBXX 66022 03061 99541 10142 46/// /2010 10049 30070 22200 00060
AAXX 0306/ 89879 46/// ///// 11003 39618 4//// 5////
BBXX WACW 03064 99458 71306 41498 40219 10100 20060 40400 54000 7//11 846// 22273 00100 20202 336// 40606 5//// 6//// 80080 ICE /////
AAXX 03061 15360 01496 72106 10059 20055 30199 40213 57002 60002 71011 87600 222// 06054 20301 333 10081 20059 3//// 60007 70000 91007 91108 92426
AAXX 03061 15360 01496 72106 10059 20055 30199 40213 57002 60002 71011 87600 222// 06054 20301 333 10081 20059 3//// 60007 70000 91007 91108 92426
AAXX 03064 41257 36/// /9902 10230 20173 39684 40173 333 0E024 20213 5////
AAXX 03064 41270 36/70 /0113 10270 20187 30098 40110 333 0E024 20243 59003
AAXX 03061 01218 11789 21610 10073 21038 39692 49712 56062 60002 70120 81188 333 20023 42001 70022 91119
AAXX 03064 89003 46/89 /3109 11145 29059 39008 4//// 5////
AAXX 0306/ 89872 46/// ///// 11058 39669 4//// 5//// 90620
AAXX 0306/ 89872 46/// ///// 11058 39670 4//// 5//// 90630
AAXX 0306/ 89869 46/// ///// 11046 39672 4//// 5//// 90620
AAXX 0306/ 89869 46/// ///// 11044 39672 4//// 5//// 90630
AAXX 0306/ 89866 46/// ///// 11014 39626 4//// 5//// 90620
AAXX 0306/ 89329 46/// ///// 11120 38644 4//// 5//// 90610
AAXX 0306/ 89329 46/// ///// 11120 38644 4//// 5//// 90620
AAXX 0306/ 89799 46/// ///// 11296 4//// 5//// 90620
AAXX 0306/ 89799 46/// ///// 11291 4//// 5//// 90630
AAXX 0306/ 89868 46/// ///// 11056 39661 4//// 5//// 90620
AAXX 0306/ 89327 46/// ///// 11019 30020 4//// 5//// 90620
AAXX 0306/ 89327 46/// ///// 11021 30156 4//// 5//// 90630
AAXX 0306/ 89828 46/// ///// 11240 36461 4//// 5//// 90620
AAXX 0306/ 89108 46/// ///// 11263 36876 4//// 5//// 90610
AAXX 0306/ 89108 46/// ///// 11264 36876 4//// 5//// 90620
AAXX 0306/ 89879 46/// ///// 10000 39620 4//// 5//// 90620
AAXX 0306/ 89879 46/// ///// 10001 39621 4//// 5//// 90630
AAXX 0306/ 89332 46/// ///// 11084 39107 4//// 5//// 90610
AAXX 0306/ 89332 46/// ///// 11084 39107 4//// 5//// 90620
AAXX 0306/ 89769 46/// ///// 11059 39688 4//// 5//// 90620
AAXX 0306/ 89769 46/// ///// 11061 39687 4//// 5//// 90630
AAXX 0306/ 89314 46/// ///// 11125 38130 4//// 5//// 90620
AAXX 0306/ 89314 46/// ///// 11124 38131 4//// 5//// 90630
OOXX AAPIG 03064 99758 51003 56251 08502 46/// /0619 11110 21182 38815 49791 52015 90610
BBXX C6FR3 03063 99219 70860 417// 10935 10250 2//// 40210 54000 7//00 817// 22283 0//// 20411 30405 40310 50310 6//// 8//// ICE /////
BBXX ZCDG8 03063 99144 70611 41398 60715 10260 20238 40144 51003 70222 867// 22273 00290 20203 317// 40203 5//// 80245
BBXX A8TG2 03063 99379 11749 41/// /3324 10090 20069 40160 54000 22224 00101 20803 332// 41208 80080
BBXX MINUK01 0306/ 99576 70017 46/// ///// 10063 49763 52046
BBXX MINUK05 0306/ 99574 70071 46/// ///// 10075 49862 52015
BBXX C6CU6 03063 99479 70084 41297 82925 10130 20042 40165 56020 70222 85728 22213 04145 20802 332// 41506 5//// 80090
BBXX MHNO6 03063 99472 70128 41/98 /2627 10132 20091 40198 54000 70211 8//// 22263 00156 29906 3//// 4//// 5//// 80111
BBXX KSDF 03064 99354 70192 41498 30616 10178 20121 40288 54000 70200 834// 22223 0//// 20202 33606 41006 50602 6//// 80144
AAXX 03064 16219 41/00 92912 10018 21004 38158 48543 56/// 6///2 745// 333 20018 32/// 55000 2//// 89/00 9509/ 9519/
BBXX 46094 03061 99446 71243 46/// /3607 10093 90540
BBXX 46094 03061 99446 71243 46/// /3607 10092 90550
BBXX 46094 03061 99446 71243 46/// /0107 10091 90600
BBXX 46094 03061 99446 71243 46/// /3506 10090 90630
BBXX 46094 03061 99446 71243 46/// /3607 10091 90610
BBXX 46094 03061 99446 71243 46/// /3507 10091 90620
BBXX ZCDG8 03063 99144 70611 41398 60715 10260 20238 40144 51003 70222 867// 22273 00290 20203 317// 40203 5//// 80245
BBXX C6FR3 03063 99219 70860 417// 10935 10250 2//// 40210 54000 7//00 817// 22283 0//// 20411 30405 40310 50310 6//// 8//// ICE /////
BBXX ZCDQ5 03063 99374 10170 43498 31513 10160 20150 40250 51001 70200 831// 22274 00138 20101 80150
AAXX 03064 89262 46/// /0000 11108 21118 39906 49951 52027 90640
AAXX 03064 89065 46/// /9901 11015 21020 39831 49909 52023 90640
AAXX 03064 89262 46/// /9901 11116 21124 39902 49947 52023 90620
AAXX 03064 89266 46/// /2805 11108 21119 39797 49940 5//// 90610
AAXX 03064 89257 46/// /9902 11102 21121 39872 49944 52018 90600
AAXX 03064 89262 46/// /9901 11126 21135 39900 49945 52033 90600
AAXX 03064 89266 46/// /2806 11108 21118 39801 49944 52021 90640
AAXX 03064 89257 46/// /9901 11104 21120 39873 49945 5//// 90610
AAXX 03064 89266 46/// /0705 11107 21118 39796 49939 5//// 90600
AAXX 03064 89257 46/// /9902 11106 21124 39874 49946 52014 90620
AAXX 03064 89065 46/// /9902 11012 21019 39828 49906 52022 90620
AAXX 03064 89257 46/// /3302 11104 21121 39875 49947 52015 90640
BBXX SKEC 03061 99649 10233 46/// ///// 10019 49823 52028 22245 00054
AAXX 03064 89528 46/// /3634 4//// 5////
AAXX 03064 04418 NIL
AAXX 03064 04425 NIL
AAXX 03064 04432 NIL
AAXX 03064 04436 NIL
AAXX 03064 04464 46/// /2308 11274 21299 333 553// 20000
AAXX 03064 04485 46/// /1607 11349 21370 37210 52007 333 553// 20000
AAXX 03064 04488 NIL
AAXX 03064 89065 46/// /9901 11015 21020 39831 49909 52023 90640
AAXX 03064 83378 21670 72802 10170 20159 38934 48490 72162 84530 333 59006 60011
AAXX 03064 89013 46/// /0905 11282 21331 37584 49665 52001 90550
AAXX 03064 89065 46/// /9902 11011 21018 39825 49903 52029 90550
AAXX 03064 89257 46/// /9901 11102 21119 39871 49943 52017 90550
AAXX 03064 89262 46/// /9901 11132 21144 39901 49947 52034 90550
AAXX 03064 89266 46/// /2705 11107 21117 39795 49938 5//// 90550
AAXX 03064 41259 36/// /0704 10112 21175 37151 40332 333 0E/// 20075 58001
AAXX 03064 65501 32960 70000 10158 20028 39812 40126 80002 333 01200 20155 50754 55095 59008 87076
AAXX 03064 65502 32960 70000 10180 20017 39739 40117 80002 333 01300 20180 51114 55094 59004 87076
AAXX 03064 65503 32960 73602 10153 20079 39776 40122 80002 333 01100 20153 50800 55102 51850 58001 87076
AAXX 03064 65505 32960 70408 10205 20011 39777 40113 80002 333 01700 20200 51134 55104 59001 87076
AAXX 03064 65507 32960 70000 10170 20035 39771 40121 80002 333 01400 59002 50884 55098 59002 87076
AAXX 03064 65510 32960 60806 10205 20022 39600 40111 80002 333 01800 20204 50870 55099 58006 86076
AAXX 03064 65516 32960 50000 10160 20032 39807 40114 80002 333 01300 20153 50884 55105 58001 85076
AAXX 03064 65518 NIL
AAXX 03064 65522 31956 70000 10131 20092 39787 40118 70622 80002 333 01200 20131 50834 55093 58002 87076
BBXX 64045 03064 99591 70117 46/// /3033 10070 21002 49856 51025 22200 00103 11018 70090 333 90710 91143
BBXX 63106 03064 99610 10017 46/// /2124 10066 49610 56042 22200
BBXX 63105 03064 99610 10017 47996 ///// 10068 20036 49611 57043 740// 22200
BBXX 62107 03064 99501 70061 46/// /2927 10124 20108 40087 50002 22200 00126 10908 70039 333 90710 91143
BBXX 62092 03064 99512 70105 46/// /2819 10121 20106 49336 55002 22200 00126 10910 70050 333 90710 91129
BBXX 62305 03064 99504 10000 46/95 /2437 10131 20117 40019 57062 22200 00139 108// 333 90710 91152
BBXX A8TG2 03063 99379 11749 41/// /3324 10090 20069 40160 54000 22224 00101 20803 332// 41208 80080
BBXX SKEC 03061 99649 10233 46/// ///// 10019 49823 52028 22245 00054
AAXX 03064 71408 46/// /0805 10030 20012 30185 40265 53005 6///1 333 10058 20023 7////
BBXX VRBL4 03063 99322 11240 41197 73224 10120 2004/ 40230 52020 70322 877// 22243 00170 20403 332// 40403 5//// 6//// 80080 ICE /////
AAXX 03064 71408 46/// /0805 10030 20012 30185 40265 53005 6///1 333 10058 20023 7////
AAXX 03064 41295 36/// /2913 10218 20132 39982 40158 333 0E022 20195 59008
AAXX 03064 64402 11440 82604 10225 20221 39520 40091 60014 71022 885// 333 01952 20203 50194 55032 59001 88610
AAXX 03063 64403 32459 80000 10245 20237 39/// 40/// 885// 333 0//00 20240 50084 55/// 5//// 88616
AAXX 03063 64405 11102 80000 10220 20217 39/// 40/// 60014 74442 889// 333 0//56 20206 50114 55/// 5//// 87702 81926 94944 95834
AAXX 03063 64406 32460 80000 10245 20238 39/// 40/// 885// 333 0//00 20/// 50/// 55/// 5//// 88616
AAXX 03063 64452 NIL
AAXX 03063 64454 31460 62804 10239 20211 39682 40097 71792 85960 333 0//00 20225 50294 55/// 59004 83613 82930 83363 94957 95837
AAXX 03063 64462 NIL
AAXX 03063 64463 NIL
AAXX 03064 64402 11440 82604 10225 20221 39520 40091 60014 71022 885// 333 01952 20203 50194 55032 59001 88610
AAXX 03064 64403 32459 80000 10245 20237 39/// 40/// 885// 333 0//00 20240 50084 55/// 5//// 88616
AAXX 03064 64405 11102 80000 10220 20217 39/// 40/// 60014 74442 889// 333 0//56 20206 50114 55/// 5//// 87702 81926 94944 95834
AAXX 03064 64406 32460 80000 10245 20238 39/// 40/// 885// 333 0//00 20/// 50/// 55/// 5//// 88616
AAXX 03064 64454 31460 62804 10239 20211 39682 40097 71792 85960 333 0//00 20225 50294 55/// 59004 83613 82930 83363 94957 95837
AAXX 03063 64463 12960 32804 10230 20223 39/// 40/// 60074 80002 333 0//58 20/// 50414 55/// 5//// 83080
AAXX 03063 64463 12960 32804 10230 20223 39/// 40/// 60074 80002 333 0//58 20/// 50414 55/// 5//// 83080
AAXX 03063 64462 31904 00000 10217 20215 39/// 40/// 74244 333 02000 20202 50164 55/// 5////
AAXX 03063 64462 31904 00000 10217 20215 39/// 40/// 74244 333 02000 20202 50164 55/// 5////
AAXX 03061 98132 31462 80705 10230 20213 40150 56008 70544 8527/ 333 56199 85816 88357
AAXX 03061 98133 11430 80405 10/// 20/// 40094 5//// 60231 76166 8542/ 222// 20703 333 56199 85618 88458
AAXX 03061 98222 31575 63603 10278 20231 40066 57019 70544 81236 333 56999 81820 84358 85078
AAXX 03061 98233 31570 83601 10260 20233 40086 57017 70544 8357/ 333 56199 83620 88358
AAXX 03061 98324 11440 81001 10278 20265 40059 57011 60034 78184 8452/ 333 56999 84616 88457
AAXX 03061 98327 31665 70902 10302 20224 39893 40067 57015 70544 84208 333 56999 84842 87277
AAXX 03061 98334 32475 70000 10280 20254 39871 40072 57020 83270 333 56999 83817 87357
AAXX 03061 98425 31564 53203 10314 20271 40051 57025 70544 83608 333 56999 83620 85280
AAXX 03061 98426 31570 72303 10300 20242 40060 57018 70544 81208 333 56999 81820 87280
AAXX 03061 98427 31470 60000 10305 20260 39870 40046 58023 70544 82270 333 56999 82818 86357
AAXX 03061 98428 31465 51404 10322 20260 40053 57021 70544 82931 333 56999 82917
AAXX 03061 98432 NIL
AAXX 03061 98433 31465 31003 10260 20227 39345 40059 57021 70544 83201 333 56999 83812
AAXX 03061 98434 11460 83602 10281 20256 30065 40073 58019 60021 76122 8552/ 33302 56199 85617 88457
AAXX 03061 98435 32475 60404 10283 20253 40066 5//// 83270 33302 56199 83818 85358
AAXX 03061 98442 NIL
AAXX 03061 98446 32480 31203 10304 20281 30020 40066 57018 83200 333 56399 83818
AAXX 03061 98447 31480 50402 10280 20254 39804 40067 5//// 71522 85200 333 56299 85818
AAXX 03061 98538 31468 33602 10315 20264 30044 40049 58024 70544 82201 333 56299 82811
AAXX 03061 98546 32575 33602 10307 20264 30039 40047 57022 81201 333 56999 81820
AAXX 03061 98548 32480 22102 10322 20264 30037 40043 58023 81203 333 56999 81816 98323
AAXX 03061 98553 31468 50904 10302 20267 30049 40053 57014 71544 84901 33303 56999 81915 84818 85074
AAXX 03061 98558 31470 41303 10293 20268 39989 40057 57021 71544 84370 222// 20300 333 56399 82916
AAXX 03061 98642 31468 30402 10315 20264 30032 40041 57029 82301 333 56999 82915
AAXX 03061 98644 31465 42402 10324 20261 30041 40050 57031 70544 82261 333 56199 82818
AAXX 03061 98648 31475 31802 10318 20285 39979 40061 57022 70544 82232 333 56299 82817
AAXX 03061 98746 31465 62704 10341 20260 40073 58026 70544 83206 333 56699 83818 85075
AAXX 03061 98751 31475 61802 10320 20255 39371 40031 57029 70544 84260 33302 56299 84815 83356 98432 31568 60701 10313 20264 40054 57024 70544 83272 333 56999 83820
AAXX 03061 98752 31464 21603 10345 20261 40064 57024 70544 82900 333 56999 82916
AAXX 03061 98851 31470 51206 10340 20255 39897 40044 57021 71544 82970 333 56199 82918 85358
BBXX 42013 03061 99272 70829 46/// ///// 1//// 40262 90620 22200 00208
BBXX 42013 03061 99272 70829 46/// ///// 1//// 40262 58007 90600 22200 00208
AAXX 03064 41244 36/// /3508 10209 20123 39823 48171 333 0E015 20128 59015
AAXX 03064 64400 11356 82206 10251 20238 30085 40105 60164 70162 8687/ 333 02261 20241 50144 55011 59003 84807 85623 88462
AAXX 03063 64401 12460 80000 10240 20225 39735 40107 60064 885// 333 01629 20231 50134 55069 58000 88616
AAXX 03064 64450 11459 72806 10240 20224 39740 40092 60254 70362 8592/ 333 01919 20224 50224 55078 59013 82810 85626 81930 87463 81930 94942 95832
AAXX 03063 64453 11460 80000 10212 20206 39/// 40/// 60044 72162 885// 333 01712 20188 50054 55069 5//// 88613
AAXX 03063 64456 32560 13204 10230 20217 39/// 40/// 81900 333 0//00 20215 55194 55093 5//// 81926 94941 95811
AAXX 03063 64458 31305 60000 10208 20203 39691 40078 74644 86600 333 0//00 20195 50264 55/// 59015 86608
AAXX 03063 64459 31940 02802 10225 20217 39731 40091 71000 333 02000 20210 50194 55/// 59011
AAXX 03063 64460 NIL
AAXX 03064 89574 42998 61104 11005 21102 49859 57002 82031
AAXX 03061 08554 32970 02802 10097 20030 30237 40247 52002 333 20087 30010 55052 20915 91106 555 60005
AAXX 03061 08554 32970 02802 10097 20030 30237 40247 52002 333 20087 30010 55052 20915 91106
AAXX 03064 64005 NIL
AAXX 03064 64006 NIL
AAXX 03064 64008 NIL
AAXX 03064 64018 NIL
AAXX 03064 64040 NIL
AAXX 03064 64072 NIL
AAXX 03064 64076 NIL
AAXX 03064 64108 NIL
AAXX 03064 64115 NIL
AAXX 03064 64146 NIL
AAXX 03064 64155 NIL
AAXX 03064 64180 NIL
AAXX 03064 64184 NIL
AAXX 03064 64207 NIL
AAXX 03064 64210 11456 80000 10242 20230 39742 40092 60174 76196 8492/ 333 0//00 20230 50/// 55/// 59012 84616 81925 88460 95356
AAXX 03064 64220 NIL
AAXX 03064 64222 NIL
AAXX 03064 64228 NIL
AAXX 03064 64235 NIL
AAXX 03064 64247 NIL
AAXX 03064 64276 NIL
AAXX 03064 64282 NIL
AAXX 03064 64285 NIL
AAXX 03064 64315 NIL
AAXX 03064 64328 NIL
AAXX 03064 64360 NIL
AAXX 03064 41244 36/// /3508 10209 20123 39823 48171 333 0E015 20128 59015
BBXX VRBL4 03063 99322 11240 41197 73224 10120 2004/ 40230 52020 70322 877// 22243 00170 20403 332// 40403 5//// 6//// 80080 ICE /////
BBXX 42013 03061 99272 70829 46/// ///// 1//// 40262 90620 22200 00208
BBXX 42013 03061 99272 70829 46/// ///// 1//// 40262 58007 90600 22200 00208
AAXX 03064 91371 32474 40915 10267 20274 30072 40075 83142 333 56229 84815 82260 70000 555 90306
AAXX 03064 91371 32474 40915 10267 20274 30072 40075 83142 333 56229 84815 82260 70000 555 90306
BBXX 9VBM6 03063 99268 10346 41898 33420 10230 20133 4//// 54/// 7//00 820/5 22273 04260 20704 334// 40705 80170
AAXX 03064 67221 32970 03208 10259 20174 39135 48/// 333 20184 5///0 55/// 59015 94300 555 10000
AAXX 03064 67223 32980 00000 10290 20193 39529 48545 333 20/// 50740 55003 59030 94300 555 10000
AAXX 03064 67237 32970 00106 10294 20188 40110 333 20230 50127 55107 59039 94300 555 10000
AAXX 03064 67241 32580 53604 10310 20254 40090 85200 333 20264 5///0 55088 59026 94338 555 10000
AAXX 03064 67295 32480 10904 10269 20227 39300 48539 81100 333 20140 50750 55090 59022 94310 555 10000
AAXX 03064 91371 32474 40915 10267 20274 30072 40075 83142 333 56229 84815 82260 70000 555 90306
BBXX AMOUK08 03064 99501 70061 46/// ///// 10126 20118 30082 40089 57005 90550
BBXX 63106 03064 99610 10017 46/// /2124 10066 49610 56042 22200
BBXX 63113 03064 99610 10017 46/// /2330 10063 20030 49624 57036 22200 10911 70055
BBXX 62305 03064 99504 10000 46/95 /2437 10131 20117 40019 57062 22200 00139 10806 70030 333 90710 91152
BBXX 64045 03064 99591 70117 46/// /2934 10073 21006 49858 51025 22200 00102 11018 70090 333 90710 91148
BBXX 62092 03064 99512 70105 46/// /2819 10121 20106 40084 55002 22200 00126 10910 70050 333 90710 91129
BBXX 9VBM6 03063 99268 10346 41898 33420 10230 20133 4//// 54/// 7//00 820/5 22273 04260 20704 334// 40705 80170
BBXX DUPE
BBXX VRBL4 03063 99322 11240 41197 73224 10120 20040 40230 52020 70322 877// 22243 00170 20403 332// 40403 5//// 6//// 80080 ICE /////
BBXX 9VBM6 03063 99268 10346 41898 33420 10230 20133 4//// 54/// 7//00 820/5 22273 04260 20704 334// 40705 80170
AAXX 03064 08171 11440 82401 10070 20066 30002 40247 52010 60002 71022 886// 333 20068 31005 50010 55000 70000
AAXX 03064 71245 46/// /2209 11130 21176 6///1 333 11083 21133 7//// 555 32358 40093
AAXX 03064 71245 46/// /2209 11130 21176 6///1 333 11083 21133 7//// 555 32358 40093
AAXX 03064 94997 46/// ///// 10083 39990 40005 5////
AAXX 03064 94997 46/// ///// 10083 39990 40005 5////
BBXX PHAM 03064 99519 10038 41/96 /2360 10072 40000 765// 8/8// 22200 2//// 99905
AAXX 03064 91375 46/// /0506 10279 40060 22200 00289
AAXX 0306/ 68902 46/// ///// 40199 57007
AAXX 03064 91165 35466 60709 30142 90600
AAXX 03064 91203 32474 60910 10317 20279 30076 40081 56012 81271
AAXX 03064 91212 12566 40717 10294 20239 31338 40075 55006 69981 90554
AAXX 03064 91245 32566 40511 10270 20250 30123 90559
AAXX 03064 91285 31559 80000 10220 20200 30171 763// 90610
AAXX 03064 91324 11474 81308 10300 20258 30048 40050 60021 70262 83231
AAXX 03064 91334 31474 80410 10289 20245 30051 40054 55005 71622 82371
AAXX 03064 91348 11474 80803 10289 20242 30019 40071 53003 60021 70282 83101
AAXX 03064 91367 11474 80808 10283 20253 60201 70362 85238
AAXX 03064 91376 11474 80808 10276 20244 30058 40061 53012 60011 70282 85878
AAXX 03064 91408 11474 80804 10283 20261 30010 40048 57022 60021 70281 82278
AAXX 03064 91413 32469 71208 10309 20251 30037 40062 57010 82171
AAXX 03064 91610 11499 40916 10290 20238 40059 53016 70300 82208
AAXX 03064 91155 NIL
AAXX 03064 91217 NIL
AAXX 03064 91232 NIL
AAXX 03064 91250 NIL
AAXX 03064 91275 NIL
AAXX 03064 91317 NIL
AAXX 03064 91339 NIL
AAXX 03064 91353 NIL
AAXX 03064 91356 NIL
AAXX 03064 91366 NIL
AAXX 03064 91369 NIL
AAXX 03064 91371 NIL
AAXX 03064 91378 NIL
AAXX 03064 91425 NIL
AAXX 03064 91434 NIL
AAXX 03064 91601 NIL
BBXX 64045 03064 99591 70117 46/// /3033 10070 21002 49856 51025 22200 00103 11018 70090 333 90710 91143
BBXX 63106 03064 99610 10017 46/// /2124 10066 49610 56042 22200
BBXX 63105 03064 99610 10017 47996 ///// 10068 20036 49611 57043 740// 22200
BBXX 62107 03064 99501 70061 46/// /2927 10124 20108 40087 50002 22200 00126 10908 70039 333 90710 91143
BBXX 62092 03064 99512 70105 46/// /2819 10121 20106 49336 55002 22200 00126 10910 70050 333 90710 91129
BBXX 62305 03064 99504 10000 46/95 /2437 10131 20117 40019 57062 22200 00139 108// 333 90710 91152
BBXX ICGU 03064 99229 70341 41/// /1619 10220 20190 40180 54/// 7//// 80/// 22254 00186 2//// 3//// 4//// 5//// 6//// 80200 ICE /////
AAXX 03064 91165 35466 60709 30142 90600
AAXX 03064 91212 12566 40717 10294 20239 31338 40075 55006 69981 90554
AAXX 03064 91285 31559 80000 10220 20200 30171 763// 90610
AAXX 03064 91334 31474 80410 10289 20245 30051 40054 55005 71622 82371
AAXX 03064 91348 11474 80803 10289 20242 30019 40071 53003 60021 70282 83101
AAXX 03064 91371 32474 40915 10267 20274 30072 40075 83142 333 56229 84815 82260 70000 555 90306
AAXX 03064 91376 11474 80808 10276 20244 30058 40061 53012 60011 70282 85878
AAXX 03064 91408 11474 80804 10283 20261 30010 40048 57022 60021 70281 82278
AAXX 03064 91413 32469 71208 10309 20251 30037 40062 57010 82171
AAXX 03064 91245 32566 40511 10270 20250 30123 90559
BBXX ICGU 03064 99229 70341 41/// /1619 10220 20190 40180 54/// 7//// 80/// 22254 00186 2//// 3//// 4//// 5//// 6//// 80200 ICE /////
BBXX PHAM 03064 99519 10038 41/96 /2360 10072 40000 765// 8/8// 22200 2//// 99905
AAXX 03064 71307 16/// /1805 10016 21007 30086 40343 58006 60001 333 10026 21034 70014 555 10010 20014
AAXX 03064 71824 46/// /1803 11169 21189 6///1 333 11098 21208 7////
AAXX 03064 71724 16/// /0304 11026 21075 30345 40353 52016 60001 333 10010 21027 70025 555 33418 40001
AAXX 03064 71734 16/// /1908 11093 21136 39899 40306 56016 60001 333 11074 21153 70000
AAXX 03064 71307 16/// /1805 10016 21007 30086 40343 58006 60001 333 10026 21034 70014 555 10010 20014
AAXX 03064 71724 16/// /0304 11026 21075 30345 40353 52016 60001 333 10010 21027 70025 555 33418 40001
AAXX 03064 71734 16/// /1908 11093 21136 39899 40306 56016 60001 333 11074 21153 70000
AAXX 03064 71824 46/// /1803 11169 21189 6///1 333 11098 21208 7////
AAXX 03064 97086 01459 73404 10284 20256 30034 40059 56020 69921 72196 83971 333 56000 57903 69927 82917 85460 80980
AAXX 03064 87648 32960 00000 10120 20101 30162 40172 54000
BBXX ICGU 03064 99228 70359 41/// /1619 10220 20190 40180 54/// 7//// 80/// 22254 00186 2//// 3//// 4//// 5//// 6//// 80200 ICE /////
BBXX ICGU 03064 99228 70359 41/// /1619 10220 20190 40180 54/// 7//// 80/// 22254 00186 2//// 3//// 4//// 5//// 6//// 80200 ICE /////
AAXX 03064 71971 16/// /3402 11262 21297 39997 40044 52016 60001 333 11201 21274 70000
AAXX 03064 71971 16/// /3402 11262 21297 39997 40044 52016 60001 333 11201 21274 70000
AAXX 03064 44404 NIL
AAXX 03064 44406 NIL
AAXX 03064 44409 42663 11303 10236 20161 39881 40082 81100 333 59043
AAXX 03064 44416 NIL
AAXX 03064 44418 42958 01802 10242 20183 39924 40113 333 59048
AAXX 03064 44424 NIL
AAXX 03064 44429 NIL
AAXX 03064 44434 NIL
AAXX 03064 44438 NIL
AAXX 03064 44449 41550 60902 10248 2//// 39959 40115 70544 82170 333 59030
AAXX 03064 44454 41440 70000 10148 20097 38653 48488 71022 84830 333 59033
AAXX 03064 44462 42360 60902 10150 20108 38253 48470 86400 333 59021
AAXX 03064 44474 NIL
AAXX 03064 44477 NIL
AAXX 03064 44478 NIL
BBXX AMOUK08 03064 99501 70061 46/// ///// 10126 20118 30082 40089 57005 90550
BBXX 63106 03064 99610 10017 46/// /2124 10066 49610 56042 22200
BBXX 63113 03064 99610 10017 46/// /2330 10063 20030 49624 57036 22200 10911 70055
BBXX 62305 03064 99504 10000 46/95 /2437 10131 20117 40019 57062 22200 00139 10806 70030 333 90710 91152
BBXX 64045 03064 99591 70117 46/// /2934 10073 21006 49858 51025 22200 00102 11018 70090 333 90710 91148
BBXX 62092 03064 99512 70105 46/// /2819 10121 20106 40084 55002 22200 00126 10910 70050 333 90710 91129
BBXX A8VL9 03064 99169 70219 41099 /0513 10240 20196 40150 56020 703// 8//// 22233 00250 2//// 3//// 4//// 5//// 6//// 80210 ICE 0////
BBXX A8VL9 03064 99169 70219 41099 /0513 10240 20196 40150 56020 703// 8//// 22233 00250 2//// 3//// 4//// 5//// 6//// 80210 ICE 0////
BBXX 42043 03061 99290 70949 46/// /1407 1//// 40208 90630 22200 00182 333 91209
BBXX 42043 03061 99290 70949 46/// /1407 1//// 40211 90600 22200 00182 333 91208
BBXX 42046 03061 99279 70940 46/// /1510 1//// 40218 90630 22200 00233 333 91211
BBXX 42046 03061 99279 70940 46/// /1511 1//// 40215 90600 22200 00233 333 91213
BBXX 52243 03061 99193 11666 46/// ///// 1//// 90600 22200 00274
BBXX 51179 03061 99143 51708 46/// ///// 1//// 90600 22200 00289
BBXX 51178 03061 99142 51695 46/// ///// 1//// 90600 22200 00290
BBXX 52246 03061 99152 11457 46/// ///// 1//// 90600 22200 00285
BBXX 51176 03061 99278 71758 46/// ///// 1//// 90600 22200 00234
BBXX 52245 03061 99181 11458 46/// ///// 1//// 90600 22200 00286
BBXX 51174 03061 99142 51697 46/// ///// 1//// 90600 22200 00288
BBXX 52244 03061 99200 11452 46/// ///// 1//// 90600 22200 00272
BBXX 51173 03061 99260 71739 46/// ///// 1//// 90600 22200 00240
BBXX 51172 03061 99284 71783 46/// ///// 1//// 90600 22200 00231
BBXX 51171 03061 99064 71623 46/// ///// 1//// 90600 22200 00282
BBXX 51170 03061 99168 71695 46/// ///// 1//// 90600 22200 00268
BBXX 51169 03061 99004 51600 46/// ///// 1//// 90600 22200 00254
BBXX 52248 03061 99135 11448 46/// ///// 1//// 90600 22200 00293
AAXX 03063 87007 32962 00000 10102 20042 36726 47120 58012
AAXX 03064 60185 32460 /0605 10134 20127 40236 5//// 8//// 333 20132 30009 8////
AAXX 03064 17070 11958 01701 11067 21091 39394 40312 52011 60002 71000 333 21070 34110 50064 55036 20624 9110 3
AAXX 03064 17250 12975 00406 11074 21130 38877 48551 52010 60002 333 21084 30109 55079
AAXX 03064 17070 11958 01701 11067 21091 39394 40312 52011 60002 71000 333 21070 34110 50064 55036 20624 91103
BBXX 64045 03064 99591 70117 46/// /3033 10070 21002 49856 51025 22200 00103 11018 70090 333 90710 91143
BBXX 63106 03064 99610 10017 46/// /2124 10066 49610 56042 22200
BBXX 63105 03064 99610 10017 47996 ///// 10068 20036 49611 57043 740// 22200
BBXX 62107 03064 99501 70061 46/// /2927 10124 20108 40087 50002 22200 00126 10908 70039 333 90710 91143
BBXX 62092 03064 99512 70105 46/// /2819 10121 20106 49336 55002 22200 00126 10910 70050 333 90710 91129
BBXX 62305 03064 99504 10000 46/95 /2437 10131 20117 40019 57062 22200 00139 108// 333 90710 91152
BBXX 52245 03061 99181 11458 46/// ///// 1//// 90600 22200 00286
BBXX 52244 03061 99200 11452 46/// ///// 1//// 90600 22200 00272
BBXX 52243 03061 99193 11666 46/// ///// 1//// 90600 22200 00274
BBXX 52248 03061 99135 11448 46/// ///// 1//// 90600 22200 00293
BBXX 52246 03061 99152 11457 46/// ///// 1//// 90600 22200 00285
BBXX 51172 03061 99284 71783 46/// ///// 1//// 90600 22200 00231
BBXX 51173 03061 99260 71739 46/// ///// 1//// 90600 22200 00240
BBXX 51176 03061 99278 71758 46/// ///// 1//// 90600 22200 00234
BBXX 42046 03061 99279 70940 46/// /1511 1//// 40215 90600 22200 00233 333 91213
BBXX 42046 03061 99279 70940 46/// /1510 1//// 40218 90630 22200 00233 333 91211
BBXX 42043 03061 99290 70949 46/// /1407 1//// 40208 90630 22200 00182 333 91209
BBXX 42043 03061 99290 70949 46/// /1407 1//// 40211 90600 22200 00182 333 91208
BBXX 51174 03061 99142 51697 46/// ///// 1//// 90600 22200 00288
BBXX 51169 03061 99004 51600 46/// ///// 1//// 90600 22200 00254
BBXX 51178 03061 99142 51695 46/// ///// 1//// 90600 22200 00290
BBXX 51179 03061 99143 51708 46/// ///// 1//// 90600 22200 00289
BBXX 51170 03061 99168 71695 46/// ///// 1//// 90600 22200 00268
BBXX 51171 03061 99064 71623 46/// ///// 1//// 90600 22200 00282
AAXX 03064 89253 46/// /0000 49323 5////
AAXX 03064 16021 11/01 91411 10008 21007 37971 48488 57008 69962 77076 333 20004 47001 55/// 2//// 89/01 92802 93101
AAXX 03063 63602 32965 43603 10217 20131 38803 81031 3333 20154 59013 81362 84080 5555 10165
AAXX 03064 97876 32460 60000 10326 20236 30035 40065 57019 85831 333 56000 57801 83810 80858
AAXX 03064 60656 12965 22918 10083 20036 40159 57021 60004 82030 333 00800 20082 82360
BBXX AMOUK01 03064 99178 30036 46/// ///// 10192 20139 30159 40170 52009 90550
BBXX MINFR03 0306/ 99280 30153 46/// ///// 10155 40146 52016
BBXX A8VL8 03064 99310 30139 41/// 81433 10210 20146 40195 56005 7//// 883// 22232 0//// 2//// 3//// 4//// 5//// 6//// 80170
BBXX AMOUK15 03064 99339 30184 46/// ///// 10189 20122 30172 40199 52018 90550
BBXX PCDE 03063 99367 30193 41598 61621 10183 20102 40248 52014 7//22 8/4// 22223 20506 315// 40607 80136
BBXX AMOUK17 03064 99379 30504 46/// ///// 10178 20159 30086 40095 57024 90550
BBXX 64045 03064 99591 70117 46/// /3033 10070 21002 49856 51025 22200 00103 11018 70090 333 90710 91143
BBXX BATUK01 03064 99588 70028 46/// /2852 10069 20030 49673 56018 22241 00107
BBXX BATEU05 03064 99586 70141 46/// /2922 10044 20014 49904 55008 22223
BBXX BATFR04 03064 99584 70062 46/// /2841 10057 20014 4//// 22200 00109
BBXX 62112 03064 99584 70002 47596 /2536 10074 20029 49718 58036 740// 22200
BBXX 62113 03064 99584 10002 47597 /2441 10073 20022 49751 57030 700// 22200
BBXX 62129 03064 99584 10003 46/// ///// 10073 20024 49755 57026 22200
BBXX 62114 03064 99583 10000 46/// /2445 10075 20026 49715 57040 22200
BBXX PJAI 03064 99581 70014 47496 /2535 10072 20028 49749 56022 740// 22200
BBXX 62111 03064 99580 70003 46/// /2747 10075 20019 22200 10811 70053
BBXX 62117 03064 99579 10000 47996 /2542 10079 20019 49754 57032 704// 22200 10709 70047
BBXX 63119 03064 99578 70022 41296 82645 10060 20015 49767 57010 76322 8/778 22200 20408 326// 40610 5//// 80042
BBXX 62105 03064 99554 70122 46/// /3030 10093 20038 49988 52009 22200 00112 11116 70079 333 90710 91142
BBXX AMOUK14 03064 99536 70038 46/// ///// 10102 20054 39940 49976 57006 90550
BBXX AMOUK04 03064 99533 70062 46/// ///// 10086 20043 30002 40008 52022 90550
BBXX 62095 03064 99530 70159 46/// /2818 10104 20061 40070 52001 22200 00120 11013 70066 333 90710 91127
BBXX 62301 03064 99524 70047 46/// /2823 10112 20063 40020 52009 22200 00123 10605 70027 333 90710 91132
BBXX 62094 03064 99517 70067 46/// /2819 10119 20069 40048 52006 22200 00122 10606 70031 333 90710 91128
BBXX 62303 03064 99516 70051 46/// /2923 10125 20078 40044 52008 22200 00128 10708 70038 333 90710 91133
BBXX 62023 03063 99514 70079 46/96 /2824 10115 2//// 40072 5//// 22200 10606 70032 555 70044 81009
BBXX 62092 03064 99512 70105 46/// /2819 10121 20106 40084 55002 22200 00126 10910 70050 333 90710 91129
BBXX 62081 03064 99510 70174 46/// ///// 10128 20113 40098 56004 22200 00122 10912 70058
BBXX 62081 03064 99510 70134 46/// ///// 10128 20113 40098 56004 22200 00122 10912 70058
BBXX BATFR03 03064 99508 70011 46/// /2631 10124 20104 40022 56054 22272
BBXX AMOUK06 03064 99506 70024 46/// ///// 10126 20109 30023 40042 57019 90550
BBXX 62305 03064 99504 10000 46/95 /2437 10131 20117 40019 57062 22200 00139 10806 70030 333 90710 91152
BBXX VRGJ6 03063 99502 70004 41298 62725 10135 20106 40052 57069 75822 85718 22223 04141 20505 327// 40608 5//// 80120
BBXX AMOUK08 03064 99501 70061 46/// ///// 10126 20118 30082 40089 57005 90550
BBXX 62103 03064 99499 70029 46/96 /2830 10131 20112 40066 56015 22200 00136 10807 70035 333 90710 91144
BBXX BATFR14 03064 99499 70016 46/// /2733 10137 20114 40055 56047 22264 00139
BBXX MYSU5 03064 99495 70088 41/97 81536 10130 20111 40114 54000 78082 8//// 22263 00150 20810 326// 41008 5//// 80120
BBXX BATFR27 03064 99494 70022 46/// /2632 10134 20100 40088 50003 22214 00134
BBXX 62027 03064 99491 70022 46/// /2626 1//// 2//// 40098 57024 22200 00132 10706 332// 70031
BBXX 62442 03064 99490 70163 46/// /2728 1//// 2//// 40172 57008 22200 00132 333 90710 91137
BBXX VRFX8 03064 99490 70123 41/98 82931 10140 20100 40150 54000 70222 88/// 22224 0//// 2//// 3//// 4//// 80120
BBXX TESTFR9 03064 99489 70038 46/// /2633 10133 29094 40132 52035 22253
BBXX 62029 03064 99487 70125 46/// /2724 10133 20108 40162 56005 22200 00139 10810 70050 333 90710 91135
BBXX PHBO 03063 99485 70159 41/97 /2831 10134 20107 40190 56020 75185 8//// 22224 21207 80120
BBXX BATFR12 03064 99480 70073 46/// /2719 10132 20124 40155 55004 22200 00149
BBXX 62163 03064 99475 70084 46/// /2721 10130 20104 40176 56011 22200 00139 10809 70047 333 90710 91129
BBXX PHCQ 03063 99467 70116 41/98 /2616 10125 20107 40203 54000 70200 8//// 22253 04138 20407 327// 40506 5//// 80115
BBXX BATFR15 03064 99461 70170 46/// /2725 10132 20097 40261 56021 22214 00139
BBXX BATFR60 03064 99460 70024 46/// /2426 10132 20109 40177 55/// 22232 00147
BBXX BATFR54 03064 99456 70016 46/// /2320 10135 20095 40214 56018 22223 00155
BBXX 62001 03064 99452 70050 46/// /2620 10136 20118 40220 56020 22200 00158 10808 70039 333 90710 91132
BBXX WAHV 03064 99396 70222 41998 83606 10135 2009/ 40360 57005 7//22 88/2/ 22234 00166 2//// 3//// 4//// 5//// 6//// 80110
BBXX PHAC 03063 99384 70114 41/98 43515 10157 20105 40285 50007 7//11 84/// 22282 2//02 334// 40607 80127
BBXX BATFR09 03064 99384 70098 46/// /0134 10147 20074 40278 53011 22283 00174
BBXX HZZB 03063 99380 70257 41797 80812 10165 2014/ 40345 57010 70322 8881/ 22233 0//// 20403 308// 40504 5//// 6//// 80150
BBXX BATFR11 03064 99360 70003 46/// /2714 10127 20097 40196 22221 00184
BBXX BATFR01 03064 99359 70058 46/// /3312 10119 20062 40219 56001 22200 00184
AAXX 03061 02805 12499 12805 11025 21050 39650 49780 52023 60032 70211 81400 333 10011 21025 3/106 43015
BBXX AMOUK08 03064 99501 70061 46/// ///// 10126 20118 30082 40089 57005 90550
BBXX 63106 03064 99610 10017 46/// /2124 10066 49610 56042 22200
BBXX 63113 03064 99610 10017 46/// /2330 10063 20030 49624 57036 22200 10911 70055
BBXX 62305 03064 99504 10000 46/95 /2437 10131 20117 40019 57062 22200 00139 10806 70030 333 90710 91152
BBXX 64045 03064 99591 70117 46/// /2934 10073 21006 49858 51025 22200 00102 11018 70090 333 90710 91148
BBXX 62092 03064 99512 70105 46/// /2819 10121 20106 40084 55002 22200 00126 10910 70050 333 90710 91129
AAXX 03064 87349 32970 03602 10174 20101 39742 40128 51004
BBXX V2AH1 03084 99297 30314 41297 82323 10246 20201 40185 52035 75052 8671/ 22264 20405 3//// 4//// 5//// 80215
BBXX A8AF6 03063 99395 70118 41298 83612 10140 20105 40300 52010 70322 887// 22282 02170 20202 33427 40504 50702 80120
BBXX PEBT 03063 99388 10238 41497 61607 10143 20095 40240 53012 7//22 865// 22273 02150 20201 300// 40000 5//// 80116
BBXX ZCDQ5 03063 99374 10170 43498 31513 10160 20150 40250 51001 70200 831// 22274 00138 20101 80150
BBXX DDZF2 03064 99371 10038 41/98 72412 10162 20125 40205 51015 70222 8//// 22225 00180 2//// 80140
BBXX SHIP 03061 99349 10215 41598 62904 10190 20147 40250 54000 70222 8346/ 22223 04177 20401 3//// 4//// 80165
BBXX A8AF6 03063 99395 70118 41298 83612 10140 20105 40300 52010 70322 887// 22282 02170 20202 33427 40504 50702 80120
BBXX A8AF6 03063 99395 70118 41298 83612 10140 20105 40300 52010 70322 887// 22282 02170 20202 33427 40504 50702 80120
AAXX 03064 08330 12980 10101 10048 20025 30028 40266 52010 60002 80001 333 20040 31002 50364 55079 70006
BBXX A8AF6 03063 99395 70118 41298 83612 10140 20105 40300 52010 70322 887// 22282 02170 20202 33427 40504 50702 80120
AAXX 03061 29481 42599 61601 11129 21142 30011 40261 52005 86300
AAXX 03064 71428 16/// /0104 11031 21078 30318 40324 51015 60001 333 11014 21039 70000 555 32721 40081
AAXX 03064 03072 46/// /2842 11021 2//// 90550 333 21024 90710 91161 91055
BBXX 64045 03064 99591 70117 46/// /3033 10070 21002 49856 51025 22200 00103 11018 70090 333 90710 91143
BBXX 63106 03064 99610 10017 46/// /2124 10066 49610 56042 22200
BBXX 63105 03064 99610 10017 47996 ///// 10068 20036 49611 57043 740// 22200
BBXX 62107 03064 99501 70061 46/// /2927 10124 20108 40087 50002 22200 00126 10908 70039 333 90710 91143
BBXX 62092 03064 99512 70105 46/// /2819 10121 20106 49336 55002 22200 00126 10910 70050 333 90710 91129
BBXX 62305 03064 99504 10000 46/95 /2437 10131 20117 40019 57062 22200 00139 108// 333 90710 91152
AAXX 03064 60220 32458 40206 10141 20041 40250 51004 84500 333 20138 84626
BBXX PBEN 03063 99330 70269 41/98 70925 10205 20175 40295 54000 71522 87700 22223 20606 304// 41206 80185
AAXX 03064 48454 31958 60608 10300 20164 30087 40094 57021 70522 84036 333 59004
AAXX 03064 65507 32960 70000 10170 20035 39771 40121 80002 333 01400 20170 59002 50884 55098 59002 87076
AAXX 03064 97380 32464 32505 10231 20263 30032 40052 57027 83101 333 56000 83819
AAXX 03064 64551 11360 60000 10240 20240 30078 40107 60064 70396 83530 333 0//51 20230 50074 55/// 58000 83608 86360
AAXX 03064 83566 32570 41704 10165 20156 39187 48490 82130 333 58003
BBXX ICGU 03064 99227 70366 41/// /1619 10220 20190 40180 54/// 7//// 80/// 22254 00186 2//// 3//// 4//// 5//// 6//// 80200 ICE /////
BBXX ICGU 03064 99225 70363 41/// /1619 10220 20190 40180 54/// 7//// 80/// 22254 00186 2//// 3//// 4//// 5//// 6//// 80200 ICE /////
AAXX 03064 78762 32670 10707 10183 20144 39106 40119 58019 81500 333 10261 20172 30/// 562// 58006 81640
AAXX 03064 78762 32670 10707 10183 20144 39106 40119 58019 81500 333 10261 20172 30/// 562// 58006 81640
AAXX 03064 61404 32960 71004 10160 20017 39795 40191 80002 333 0//00 20160 5//// 55/// 58014 87073
AAXX 03064 61421 33960 53008 10220 21020 39912 40166 85080 333 0//00 20217 5//// 55/// 58014 85363
AAXX 03064 61437 31956 70404 10214 20067 30037 40174 70622 8707/ 333 0//00 20214 5//// 55/// 58010 87363
AAXX 03064 61442 32958 50606 10219 21059 30146 40150 84082 333 02000 20202 50894 55064 58010 84363 85080
AAXX 03064 61489 32960 40804 10186 21028 30132 40139 84070 333 0//00 20186 50844 55/// 59009 84363
AAXX 03064 61492 32958 50810 10235 21043 30133 40152 80002 333 0//00 20235 5//// 59001 85073
AAXX 03064 61497 34956 60812 10218 21038 39889 4//// 706// 80002 333 0//00 20218 5//// 55/// 58002 86073
AAXX 03064 61499 31956 53606 10187 21014 39884 40138 70522 80001 333 0//00 20180 51354 55/// 58008 85073
BBXX ICGU 03064 99227 70366 41/// /1619 10220 20190 40180 54/// 7//// 80/// 22254 00186 2//// 3//// 4//// 5//// 6//// 80200 ICE /////
BBXX ICGU 03064 99225 70363 41/// /1619 10220 20190 40180 54/// 7//// 80/// 22254 00186 2//// 3//// 4//// 5//// 6//// 80200 ICE /////
BBXX PBEN 03063 99330 70269 41/98 70925 10205 20175 40295 54000 71522 87700 22223 20606 304// 41206 80185
AAXX 03064 67009 12582 70000 10295 20230 39995 40113 51005 60024 872// 333 02359 10354 20240 50274 55070 87820
AAXX 03064 67023 12582 61206 10305 20235 30101 40107 51003 60044 82202 333 01917 10314 20216 50504 55/// 82820 86075=3.6
BBXX AMOUK08 03064 99501 70061 46/// ///// 10126 20118 30082 40089 57005 90550
BBXX 63106 03064 99610 10017 46/// /2124 10066 49610 56042 22200
BBXX 63113 03064 99610 10017 46/// /2330 10063 20030 49624 57036 22200 10911 70055
BBXX 62305 03064 99504 10000 46/95 /2437 10131 20117 40019 57062 22200 00139 10806 70030 333 90710 91152
BBXX 64045 03064 99591 70117 46/// /2934 10073 21006 49858 51025 22200 00102 11018 70090 333 90710 91148
BBXX 62092 03064 99512 70105 46/// /2819 10121 20106 40084 55002 22200 00126 10910 70050 333 90710 91129
AAXX 03064 64600 31957 60000 10170 20152 39451 40101 71022 80002 333 01500 20154 55086 59011 86080
AAXX 03064 64601 32960 03614 10185 20047 38993 48503 333 01500 20170 59007
AAXX 03064 64605 32956 00000 10155 20136 39354 40098 333 01000 20126 59012
AAXX 03064 64610 32970 00404 10143 20138 3//// 4//// 333 01000 20125 5////
AAXX 03064 64650 31940 00000 10185 20160 39687 40097 71000 333 01600 20168 55101 59011
AAXX 03064 64654 32970 30806 10198 20054 39545 40117 80002 333 01300 20160 59015 83080
AAXX 03064 64655 32960 00000 10146 20121 39466 40116 333 01000 20124 59012
AAXX 03064 64656 31156 10000 10170 20153 39548 40104 72844 81600 333 01200 20130 59011 81703
AAXX 03064 64660 32958 03604 10145 20136 39571 40103 333 01000 20125 59008
AAXX 03064 64662 32965 03602 10140 20126 39601 40105 333 01200 20128 59001
AAXX 03064 64665 32265 20000 10176 20173 3//// 4//// 82600 333 00500 20150 55/// 5//// 82704
BBXX WYR4481 03064 99436 70824 41/98 11913 10017 40320 70200 22243 20302
BBXX WYR4481 03064 99436 70824 41/98 11913 10017 40320 70200 22243 20302
AAXX 03064 89642 42982 03011 11004 21068 39735 49787 53002 333 55201 23468
AAXX 03064 89269 46/// /3203 11058 3//// 4//// 5//// 90620
BBXX 64045 03064 99591 70117 46/// /3033 10070 21002 49856 51025 22200 00103 11018 70090 333 90710 91143
BBXX 63106 03064 99610 10017 46/// /2124 10066 49610 56042 22200
BBXX 63105 03064 99610 10017 47996 ///// 10068 20036 49611 57043 740// 22200
BBXX 62107 03064 99501 70061 46/// /2927 10124 20108 40087 50002 22200 00126 10908 70039 333 90710 91143
BBXX 62092 03064 99512 70105 46/// /2819 10121 20106 49336 55002 22200 00126 10910 70050 333 90710 91129
BBXX 62305 03064 99504 10000 46/95 /2437 10131 20117 40019 57062 22200 00139 108// 333 90710 91152
BBXX AMOUK08 03064 99501 70061 46/// ///// 10126 20118 30082 40089 57005 90550
BBXX 63106 03064 99610 10017 46/// /2124 10066 49610 56042 22200
BBXX 63113 03064 99610 10017 46/// /2330 10063 20030 49624 57036 22200 10911 70055
BBXX 62305 03064 99504 10000 46/95 /2437 10131 20117 40019 57062 22200 00139 10806 70030 333 90710 91152
BBXX 64045 03064 99591 70117 46/// /2934 10073 21006 49858 51025 22200 00102 11018 70090 333 90710 91148
BBXX 62092 03064 99512 70105 46/// /2819 10121 20106 40084 55002 22200 00126 10910 70050 333 90710 91129
BBXX S6SR 03064 99422 50825 41/96 82517 10140 20123 40050 54000 7//// 8//// 22233 00180 2//06 326// 4//// 5//// 6//// 80130 ICE /////
BBXX S6SR 03064 99422 50825 41/96 82517 10140 20123 40050 54000 7//// 8//// 22233 00180 2//06 326// 4//// 5//// 6//// 80130 ICE /////
BBXX 64045 03064 99591 70117 46/// /3033 10070 21002 49856 51025 22200 00103 11018 70090 333 90710 91143
BBXX 63106 03064 99610 10017 46/// /2124 10066 49610 56042 22200
BBXX 63105 03064 99610 10017 47996 ///// 10068 20036 49611 57043 740// 22200
BBXX 62107 03064 99501 70061 46/// /2927 10124 20108 40087 50002 22200 00126 10908 70039 333 90710 91143
BBXX 62092 03064 99512 70105 46/// /2819 10121 20106 49336 55002 22200 00126 10910 70050 333 90710 91129
BBXX 62305 03064 99504 10000 46/95 /2437 10131 20117 40019 57062 22200 00139 108// 333 90710 91152
AAXX 03064 03002 17400 /2829 10059 20039 39589 49607 55020 60102 733// 90550 333 20046 3/003 70154 82/15 85/22 96149 90710 91139
BBXX ICGU 03064 99221 70372 41/// /1619 10220 20190 40180 54/// 7//// 80/// 22254 00186 2//// 3//// 4//// 5//// 6//// 80200 ICE /////
BBXX ICGU 03064 99221 70372 41/// /1619 10220 20190 40180 54/// 7//// 80/// 22254 00186 2//// 3//// 4//// 5//// 6//// 80200 ICE /////
AAXX 03064 71376 16/// /0000 11080 21085 30057 40362 51016 60001 333 10004 21081 70040
AAXX 03064 71376 16/// /0000 11080 21085 30057 40362 51016 60001 333 10004 21081 70040
BBXX AMOUK08 03064 99501 70061 46/// ///// 10126 20118 30082 40089 57005 90550
BBXX 63106 03064 99610 10017 46/// /2124 10066 49610 56042 22200
BBXX 63113 03064 99610 10017 46/// /2330 10063 20030 49624 57036 22200 10911 70055
BBXX 62305 03064 99504 10000 46/95 /2437 10131 20117 40019 57062 22200 00139 10806 70030 333 90710 91152
BBXX 64045 03064 99591 70117 46/// /2934 10073 21006 49858 51025 22200 00102 11018 70090 333 90710 91148
BBXX 62092 03064 99512 70105 46/// /2819 10121 20106 40084 55002 22200 00126 10910 70050 333 90710 91129
BBXX V2AH1 03104 99298 30312 41598 62021 10235 20176 40187 52025 70111 84478 22200 20603 3//// 4//// 5//// 80196
BBXX V7HP4 03064 99140 70725 41897 30916 10260 20232 40180 51010 7//22 83198 22273 04260 2//// 3//// 4//// 5//// 6//// 80240 ICE /////
BBXX V7HP4 03064 99140 70725 41897 30916 10260 20232 40180 51010 7//22 83198 22273 04260 2//// 3//// 4//// 5//// 6//// 80240 ICE /////
BBXX 42044 03061 99262 70971 46/// /1508 10223 20184 40175 90630 22200 00217 333 91211
BBXX 42044 03061 99262 70971 46/// /1508 10218 20188 40180 90600 22200 00217 333 91210
BBXX 42045 03061 99262 70965 46/// /1411 10221 40172 90630 22200 00232 333 91214
BBXX 42045 03061 99262 70965 46/// /1411 10220 40182 90600 22200 00233 333 91214
BBXX 42047 03061 99279 70936 46/// /1510 10214 20139 40215 90630 22200 00236 333 91211
BBXX 42047 03061 99279 70936 46/// /1510 10214 20127 40219 90600 22200 00236 333 91212
BBXX 52249 03061 99052 31503 46/// ///// 1//// 90600 22200 00311
BBXX 64045 03064 99591 70117 46/// /3033 10070 21002 49856 51025 22200 00103 11018 70090 333 90710 91143
BBXX 63106 03064 99610 10017 46/// /2124 10066 49610 56042 22200
BBXX 63105 03064 99610 10017 47996 ///// 10068 20036 49611 57043 740// 22200
BBXX 62107 03064 99501 70061 46/// /2927 10124 20108 40087 50002 22200 00126 10908 70039 333 90710 91143
BBXX 62092 03064 99512 70105 46/// /2819 10121 20106 49336 55002 22200 00126 10910 70050 333 90710 91129
BBXX 62305 03064 99504 10000 46/95 /2437 10131 20117 40019 57062 22200 00139 108// 333 90710 91152
BBXX 42047 03061 99279 70936 46/// /1510 10214 20127 40219 90600 22200 00236 333 91212
BBXX 42047 03061 99279 70936 46/// /1510 10214 20139 40215 90630 22200 00236 333 91211
BBXX 42045 03061 99262 70965 46/// /1411 10220 40182 90600 22200 00233 333 91214
BBXX 42045 03061 99262 70965 46/// /1411 10221 40172 90630 22200 00232 333 91214
BBXX 42044 03061 99262 70971 46/// /1508 10218 20188 40180 90600 22200 00217 333 91210
BBXX 42044 03061 99262 70971 46/// /1508 10223 20184 40175 90630 22200 00217 333 91211
BBXX 52249 03061 99052 31503 46/// ///// 1//// 90600 22200 00311
BBXX AMOUK08 03064 99501 70061 46/// ///// 10126 20118 30082 40089 57005 90550
BBXX 63106 03064 99610 10017 46/// /2124 10066 49610 56042 22200
BBXX 63113 03064 99610 10017 46/// /2330 10063 20030 49624 57036 22200 10911 70055
BBXX 62305 03064 99504 10000 46/95 /2437 10131 20117 40019 57062 22200 00139 10806 70030 333 90710 91152
BBXX 64045 03064 99591 70117 46/// /2934 10073 21006 49858 51025 22200 00102 11018 70090 333 90710 91148
BBXX 62092 03064 99512 70105 46/// /2819 10121 20106 40084 55002 22200 00126 10910 70050 333 90710 91129
AAXX 03064 71854 43/// ///// 333 10004 21089 48009 79999 555 19999 29999
AAXX 03064 71854 43/// ///// 333 10004 21089 48009 79999 555 19999 29999
AAXX 03061 78090 15/// /0000 10213 30235 40238 69901 90600 222// 00136
AAXX 03064 71810 16/// /0103 11080 21107 30247 40316 52023 60001 333 11016 21089 7////
AAXX 03064 71810 16/// /0103 11080 21107 30247 40316 52023 60001 333 11016 21089 7////
BBXX 64045 03064 99591 70117 46/// /3033 10070 21002 49856 51025 22200 00103 11018 70090 333 90710 91143
BBXX 63106 03064 99610 10017 46/// /2124 10066 49610 56042 22200
BBXX 63105 03064 99610 10017 47996 ///// 10068 20036 49611 57043 740// 22200
BBXX 62107 03064 99501 70061 46/// /2927 10124 20108 40087 50002 22200 00126 10908 70039 333 90710 91143
BBXX 62092 03064 99512 70105 46/// /2819 10121 20106 49336 55002 22200 00126 10910 70050 333 90710 91129
BBXX 62305 03064 99504 10000 46/95 /2437 10131 20117 40019 57062 22200 00139 108// 333 90710 91152
AAXX 03064 71642 13/// //// 11050 60001 333 11047 21198 79999 555 19999 29999
AAXX 03064 71642 13/// //// 11050 60001 333 11047 21198 79999 555 19999 29999
AAXX 03064 71463 46/// /0405 10004 21045 30124 40354 58001 6///1 333 10054 20003 7//// 555 32424 40091
BBXX AMOUK08 03064 99501 70061 46/// ///// 10126 20118 30082 40089 57005 90550
BBXX 63106 03064 99610 10017 46/// /2124 10066 49610 56042 22200
BBXX 63113 03064 99610 10017 46/// /2330 10063 20030 49624 57036 22200 10911 70055
BBXX 62305 03064 99504 10000 46/95 /2437 10131 20117 40019 57062 22200 00139 10806 70030 333 90710 91152
BBXX 64045 03064 99591 70117 46/// /2934 10073 21006 49858 51025 22200 00102 11018 70090 333 90710 91148
BBXX 62092 03064 99512 70105 46/// /2819 10121 20106 40084 55002 22200 00126 10910 70050 333 90710 91129
BBXX MYNJ6 03063 99051 50349 415// 70519 10260 20232 40110 54000 7//22 87277 22273 00230 20502 30505 40502 50502 6//// 80240 ICE /////
BBXX MYNJ6 03063 99051 50349 415// 70519 10260 20232 40110 54000 7//22 87277 22273 00230 20502 30505 40502 50502 6//// 80240 ICE /////
AAXX 03064 60106 12960 00000 10045 20025 40242 56003 60044 333 20040
AAXX 03061 10578 11/01 92413 11022 21024 38733 48429 56011 69992 74941 333 11002 21028 3/104 43001 55047 55300 20000 30000 70032
BBXX 64045 03064 99591 70117 46/// /3033 10070 21002 49856 51025 22200 00103 11018 70090 333 90710 91143
BBXX 63106 03064 99610 10017 46/// /2124 10066 49610 56042 22200
BBXX 63105 03064 99610 10017 47996 ///// 10068 20036 49611 57043 740// 22200
BBXX 62107 03064 99501 70061 46/// /2927 10124 20108 40087 50002 22200 00126 10908 70039 333 90710 91143
BBXX 62092 03064 99512 70105 46/// /2819 10121 20106 49336 55002 22200 00126 10910 70050 333 90710 91129
BBXX 62305 03064 99504 10000 46/95 /2437 10131 20117 40019 57062 22200 00139 108// 333 90710 91152
AAXX 03064 91723 NIL
AAXX 03064 91964 NIL
BBXX AMOUK08 03064 99501 70061 46/// ///// 10126 20118 30082 40089 57005 90550
BBXX 63106 03064 99610 10017 46/// /2124 10066 49610 56042 22200
BBXX 63113 03064 99610 10017 46/// /2330 10063 20030 49624 57036 22200 10911 70055
BBXX 62305 03064 99504 10000 46/95 /2437 10131 20117 40019 57062 22200 00139 10806 70030 333 90710 91152
BBXX 64045 03064 99591 70117 46/// /2934 10073 21006 49858 51025 22200 00102 11018 70090 333 90710 91148
BBXX 62092 03064 99512 70105 46/// /2819 10121 20106 40084 55002 22200 00126 10910 70050 333 90710 91129
AAXX 03064 48325 32565 20000 10292 20187 39844 40083 57035 82202 333 59019
AAXX 03064 48358 32960 50904 10255 20118 39948 40123 57023 80005 333 59009
AAXX 03064 16021 11/01 91411 10008 21007 37971 48488 57008 69982 77076 333 20004 47001 55/// 2//// 89/01 92802 93101
AAXX 03061 37472 32997 82802 10038 20004 30224 40201 56009 8007/ 333 20014
BBXX 64045 03064 99591 70117 46/// /3033 10070 21002 49856 51025 22200 00103 11018 70090 333 90710 91143
BBXX 63106 03064 99610 10017 46/// /2124 10066 49610 56042 22200
BBXX 63105 03064 99610 10017 47996 ///// 10068 20036 49611 57043 740// 22200
BBXX 62107 03064 99501 70061 46/// /2927 10124 20108 40087 50002 22200 00126 10908 70039 333 90710 91143
BBXX 62092 03064 99512 70105 46/// /2819 10121 20106 49336 55002 22200 00126 10910 70050 333 90710 91129
BBXX 62305 03064 99504 10000 46/95 /2437 10131 20117 40019 57062 22200 00139 108// 333 90710 91152
AAXX 03064 71845 43/// ///// 333 11022 21177 79999 555 19999 29999 31924 40210
AAXX 03064 71845 43/// ///// 333 11022 21177 79999 555 19999 29999 31924 40210
BBXX AMOUK08 03064 99501 70061 46/// ///// 10126 20118 30082 40089 57005 90550
BBXX 63106 03064 99610 10017 46/// /2124 10066 49610 56042 22200
BBXX 63113 03064 99610 10017 46/// /2330 10063 20030 49624 57036 22200 10911 70055
BBXX 62305 03064 99504 10000 46/95 /2437 10131 20117 40019 57062 22200 00139 10806 70030 333 90710 91152
BBXX 64045 03064 99591 70117 46/// /2934 10073 21006 49858 51025 22200 00102 11018 70090 333 90710 91148
BBXX 62092 03064 99512 70105 46/// /2819 10121 20106 40084 55002 22200 00126 10910 70050 333 90710 91129
AAXX 03064 89065 46/// /9902 11012 21019 39828 49906 52024 90620
AAXX 03064 89065 46/// /9901 11015 21020 39831 49909 52027 90640
BBXX 9LD2206 03063 99302 70170 41598 20817 10195 20164 40265 58010 7//11 81505 22242 04217 20501 309// 40802 80175
BBXX DEFY 03063 99186 70383 41798 11016 10246 40149 57013 70100 22252 02257 82206
BBXX DEFY 03063 99186 70383 41798 11016 10246 40149 57013 70100 22252 02257 82206
BBXX 64045 03064 99591 70117 46/// /3033 10070 21002 49856 51025 22200 00103 11018 70090 333 90710 91143
BBXX 63106 03064 99610 10017 46/// /2124 10066 49610 56042 22200
BBXX 63105 03064 99610 10017 47996 ///// 10068 20036 49611 57043 740// 22200
BBXX 62107 03064 99501 70061 46/// /2927 10124 20108 40087 50002 22200 00126 10908 70039 333 90710 91143
BBXX 62092 03064 99512 70105 46/// /2819 10121 20106 49336 55002 22200 00126 10910 70050 333 90710 91129
BBXX 62305 03064 99504 10000 46/95 /2437 10131 20117 40019 57062 22200 00139 108// 333 90710 91152
AAXX 03061 10544 11/01 92112 11010 21010 39041 48415 56018 60002 74942 333 10005 21012 31101 55000 55300 70020 91117 91212 96041
AAXX 03064 91691 14/// /1001 10273 20233 30098 40101 50007 60001
AAXX 03054 91691 14/// /1102 10284 20236 30092 40095 50002
AAXX 03061 30683 41997 80000 11168 21202 39612 40299 57006 70272 83044
AAXX 03064 89065 46/// /9901 11015 21020 39831 49909 5//// 90640
AAXX 03064 89262 46/// /0000 11108 21118 39906 49951 5//// 90640
AAXX 03064 89065 46/// /9902 11012 21019 39828 49906 5//// 90620
AAXX 03064 89262 46/// /9901 11116 21124 39902 49947 5//// 90620
AAXX 03064 71373 16/// /2803 11022 21047 60001 333 10032 21022 70038
AAXX 03064 71373 16/// /2803 11022 21047 60001 333 10032 21022 70038
BBXX WYP8657 03064 99433 70868 41/97 71928 10049 2//// 40265 5//// 70322 8//// 22243 00078 20604 3//// 4//// 5//// 6//// 8//// ICE /////
BBXX WYP8657 03064 99433 70868 41/97 71928 10049 2//// 40265 5//// 70322 8//// 22243 00078 20604 3//// 4//// 5//// 6//// 8//// ICE /////
AAXX 03061 38932 42699 61401 10040 20035 40266 57028 86900
AAXX 03064 71721 16/// /0000 11114 21122 30099 40356 51007 60001 333 11008 21116 70050
AAXX 03064 68581 36/// /1502 10177 20138 39406 48547 52008 333 20164 91004 555 10240 91019
AAXX 03064 68474 32458 81006 10182 20129 38639 48530 52006 8/100 333 20135 91010 555 10280 91021
AAXX 03064 68481 36/// /1406 10218 20170 39800 40167 52008 333 20184 91009 555 10280 91017
AAXX 03064 68491 16/// /2205 10234 20181 30146 40155 52010 69924 333 20207 91010 555 10296 20002 91015
AAXX 03064 68400 32375 82206 10227 20168 30081 40154 52016 70233 80000 333 20199 91011 555 10319 91015
AAXX 03064 68488 11080 82104 10171 20132 39301 48544 52013 60014 70355 885// 333 20155 91008 555 10243 20018 91019
AAXX 03064 68570 11250 83503 10119 20098 38544 48536 52011 69984 75311 8800/ 333 20112 91005 555 10234 20008 69965 91022
AAXX 03064 68580 16/// /2202 10140 20110 38980 48536 52010 60014 333 20124 91004 555 10220 20014 91020
BBXX 70111 84478 22200 20603 3//// 4//// 5//// 80196
BBXX 75052 8671/ 22264 20405 3//// 4//// 5//// 80215
AAXX 03063 63682 12482 62304 10222 20185 3//// 48/// 60024 82951 333 20180 82819 81922 85078 555 10198
AAXX 03063 63658 12980 70902 10235 20189 38879 48507 60034 83037 333 20194 59018 83360 87280 555 10205
AAXX 03064 64402 11440 82604 10225 20221 39520 40091 60014 71022 885// 333 01952 20203 50194 55032 59001 88610
AAXX 03064 64403 32459 80000 10245 20237 39/// 40/// 885// 333 0//00 20240 50084 55/// 5//// 88616
AAXX 03064 64405 11102 80000 10220 20217 39/// 40/// 60014 74442 889// 333 0//56 20206 50114 55/// 5//// 87702 81926 94944 95834
AAXX 03064 64406 32460 80000 10245 20238 39/// 40/// 885// 333 0//00 20/// 50/// 55/// 5//// 88616
AAXX 03064 64452 NIL
AAXX 03064 64454 31460 62804 10239 20211 39682 40097 71792 85960 333 0//00 20225 50294 55/// 59004 83613 82930 83363 94957 95837
AAXX 03064 64462 NIL
AAXX 03064 64463 NIL
BBXX ONAN 03064 99155 51015 41496 40920 10180 2016/ 4//// 54/// 70321 8334/ 22273 00180 21005 3//// 40705 5//// 6//// 80170 ICE /////
AAXX 03063 63682 12482 62304 10222 20185 3//// 48/// 60024 82951 333 20180 82819 81922 85078 555 10198
AAXX 03063 63658 12980 70902 10235 20189 38879 48507 60034 83037 333 20194 59018 83360 87280 555 10205
BBXX ONAN 03064 99155 51015 41496 40920 10180 2016/ 4//// 54/// 70321 8334/ 22273 00180 21005 3//// 40705 5//// 6//// 80170 ICE /////
AAXX 03064 64501 11358 60000 10237 20234 3//// 4//// 60624 72996 84930 333 //053 20234 50274 5//// 83608 81916 96360 949+53 95834
AAXX 03063 63602 32965 43603 10217 20131 38803 81031 333 20154 59013 81362 84080 555 10165
AAXX 03063 63602 32965 43603 10217 20131 38803 81031 333 20154 59013 81362 84080 555 10165
AAXX 03061 26629 11497 72504 10033 20028 30009 40105 52019 60022 70262 86550 333 20033 31/// 86614 91007 91110 555 53012 7003/
AAXX 03064 67023 12582 61206 10305 20235 30101 40107 51003 60044 82202 333 01917 10314 20216 50504 55/// 82820 86075
AAXX 03064 71388 46/// /2406 11108 21132 30159 40355 53022 6///1 333 11026 21111 7//// 555 32719 40031
AAXX 03064 71388 46/// /2406 11108 21132 30159 40355 53022 6///1 333 11026 21111 7//// 555 32719 40031
AAXX 03061 10035 01458 71908 10038 20025 39935 49994 58050 69982 72111 875// 333 10049 20027 31002 55011 55300 20000 30000 41123 69907 70022 83712 87646 91114
BBXX S6SR 03064 99468 50794 41/97 /3215 10130 20112 40120 51010 7//// 80/// 22233 00130 2//04 332// 4//// 5//// 6//// 80120 ICE /////
AAXX 03064 48601 11559 62209 10311 20243 30072 40076 60001 70522 81241 333 81820 85080
AAXX 03064 48615 11462 70806 10296 20244 30073 40079 60001 70522 83242 333 83818 87074
AAXX 03064 48620 NIL
AAXX 03064 48647 11462 72706 10334 20246 30051 40075 60001 70522 84942 333 81917 83818 87078
AAXX 03064 48650 11462 71907 10305 20247 30060 40078 69921 70522 83942 333 81917 83818 86078
AAXX 03064 48657 11465 73503 10287 20250 30066 40083 60001 70522 83148 333 83818 83366 86276
AAXX 03064 48665 11568 62306 10312 20239 30074 40084 60001 70522 82132 333 82821 86078
AAXX 03064 96413 12470 73207 10267 20218 30063 40089 60041 82131 333 82814 86365
AAXX 03064 96421 11264 83105 10244 20235 30044 40080 60041 76162 8652/ 333 83705 84616 88465
AAXX 03064 96441 11430 82806 10248 20235 30048 40075 60051 76386 8452/ 333 84614 88464
AAXX 03064 96449 11458 82512 10269 20243 30042 40061 69961 76162 8452/ 333 84614 88464
AAXX 03064 96465 12460 72207 10294 20240 30020 40053 6///1 84878 333 83812 85364 87278
AAXX 03064 96471 11472 72504 10311 20261 30045 40048 60001 71522 83948 333 81814 81917 83640 87277
AAXX 03064 96481 12462 71906 10299 20247 30038 40057 69921 8387/ 333 82817 86364
AAXX 03064 96491 11467 72305 10312 20243 30039 40050 60001 70522 82842 333 82815 87078
AAXX 03064 48620 11565 71803 10306 20244 30066 40075 6///1 70522 82142 333 82825 83365 87078
AAXX 03064 71268 43/// ///// 333 11020 21080 70000 555 10000 20000
AAXX 03064 71268 43/// ///// 333 11020 21080 70000 555 10000 20000
AAXX 03064 71298 16/// /1907 10017 21009 30092 40329 58006 60001 333 7////
AAXX 03064 71298 16/// /1907 10017 21009 30092 40329 58006 60001 333 7////
AAXX 03061 78310 12501 10704 10206 20164 30207 40218 58007 60001 81240 333 10261 20154 30/// 56990 58009 81820 92014
AAXX 03061 78315 12564 10401 10158 20138 30147 40214 58005 60001 81400 333 10253 20133 31/// 56900 58012 70026 81820
AAXX 03061 78318 11565 60802 10198 20145 30209 40213 57008 69901 70162 86800 333 10240 20160 31/// 56900 58005 70169 83820 86622
AAXX 03061 78322 12556 30000 10152 20140 30199 40217 58015 60001 83400 333 10258 20139 30/// 56900 58014 70008 83820
AAXX 03061 78324 12/00 10606 10218 20151 30196 40207 57003 60001 81100 333 10250 20189 30/// 56900 58015 818//
AAXX 03061 78325 NIL
AAXX 03061 78328 12462 50806 10226 20125 30210 40/// 57011 60001 85800 333 10249 20215 30/// 56200 58018 84818 555 10903
AAXX 03061 78333 12910 10402 10155 20141 30204 40211 56006 60001 81030 333 10266 20147 30/// 56000 58019 81360
AAXX 03061 78344 12950 00301 10170 20153 30154 40203 58011 60001 333 10267 20153 30/// 58016
AAXX 03061 78345 12965 10101 10173 20162 30194 40198 58010 60001 333 10263 20154 30/// 58016
AAXX 03061 78348 11557 20409 10218 20131 30150 40202 58013 60001 70500 82200 333 10251 20206 30/// 56100 58024 82822 555 10402
AAXX 03061 78349 12950 03401 10170 20145 30097 40207 58012 60001 333 10255 20159 30/// 58014
AAXX 03061 78351 12950 00000 10170 20155 30176 40178 58005 60001 333 10282 20141 30/// 56000 58002
AAXX 03061 78353 NIL
AAXX 03061 78355 12460 10204 10188 20150 30053 40193 58008 60001 81200 333 10248 20175 30/// 56900 58016 81818
AAXX 03061 78358 12530 70407 10243 20178 30167 40182 58008 60001 878// 333 10268 20224 31/// 56999 58016 85823 84629
AAXX 03061 78360 12560 10111 10229 20187 30157 40168 58013 60001 81400 333 10287 20211 30/// 56900 58009 81820 92046
AAXX 03061 78363 12558 70000 10207 20186 30049 40164 56013 60001 875// 333 10254 20190 31/// 56999 58012 70021 87621
AAXX 03061 78365 NIL
AAXX 03061 78369 12464 50408 10250 20200 30158 40167 57006 60001 85200 333 10265 20221 31/// 56900 57860 58033 70090 85818
AAXX 03064 71931 16/// /2906 10000 21036 30245 40257 53008 60001 333 10049 21019 7//// 555 30322 40081
AAXX 03064 71931 16/// /2906 10000 21036 30245 40257 53008 60001 333 10049 21019 7//// 555 30322 40081
AAXX 03064 71415 16/// /2305 10012 21006 30285 40288 53006 60001 333 10042 20009 70000 555 33221 40071
AAXX 03061 31478 42999 82001 11187 21245 39118 40278 57020 80005
AAXX 03064 71381 46/// /3105 11123 21138 6///1 333 7////
AAXX 03064 71522 46/// /3303 11210 21240 39846 5/019 6///1 333 7////
AAXX 03064 71381 46/// /3105 11123 21138 6///1 333 7////
AAXX 03064 71522 46/// /3303 11210 21240 39846 5/019 6///1 333 7////
AAXX 03064 71521 46/// ///// 11290 21329 6///1 333 7////
AAXX 03064 71520 46/// /1501 11277 21299 39625 5/019 6///1 333 7////
AAXX 03064 71383 46/// ///// 11237 21271 39703 5/017 6///1 333 7////
AAXX 03064 71383 46/// ///// 11237 21271 39703 5/017 6///1 333 7////
AAXX 03064 71520 46/// /1501 11277 21299 39625 5/019 6///1 333 7////
AAXX 03064 71521 46/// ///// 11290 21329 6///1 333 7////
AAXX 03064 71523 46/// ///// 11228 21253 39945 5/015 6///1 333 7////
AAXX 03064 71523 46/// ///// 11228 21253 39945 5/015 6///1 333 7////
