BBXX ZMFR 02234 99509 31738 43/// /01// 10095 20088 40166 57008 22242 00084
BBXX ZMENA 02234 99427 31738 46/// ///// 10151 20128 40156 222//
BBXX 44172 03001 99445 70634 46/// ///// 1//// 92331 22200 00080 11203 21002 316// 41202 70016
BBXX 44097 03001 99410 70711 46/// ///// 1//// 92332 22200 00132 11103 21002 316// 41101 70013
BBXX 46218 03001 99345 71208 46/// ///// 1//// 92332 22200 00141 11104 21003 333// 41103 70020
AAXX 03004 40255 32960 00000 10060 21056 39497 40218 52003
AAXX 03004 40270 31956 00000 10057 21063 39310 40214 54000 70500
BBXX 42363 03001 99282 70892 46/// /1007 10211 20117 40258 92345 333 91208
BBXX 42364 03001 99291 70881 46/// /0908 10194 20133 40271 92345
AAXX 03004 78764 31460 20810 10181 20136 39030 40161 52005 71520 82100 333 10242 20170 30/// 562// 58006 82615
AAXX 03004 78764 31460 20810 10181 20136 39030 40161 52005 71520 82100 333 10242 20170 30/// 562// 58006 82615
AAXX 03004 08495 12680 12813 10119 20091 30210 40218 51003 60001 81500 92350 333 81630
BBXX 46249 03001 99338 71197 46/// ///// 1//// 92347 22200 00151 11202 20901 329// 41201 70008
BBXX 46248 03001 99461 71247 46/// ///// 1//// 92334 22200 00099 11508 20905 329// 41506 70039
BBXX 46244 03001 99409 71244 46/// ///// 1//// 92335 22200 00109 10909 20907 330// 41704 70044
BBXX 41115 03001 99184 70673 46/// ///// 1//// 92335 22200 11002 21002 70008
BBXX 41114 03001 99276 70802 46/// ///// 1//// 92346 22200 00226 10803 20803 308// 41101 70016
BBXX 46240 03001 99366 71219 46/// ///// 1//// 92342 22200 00127 11102 21002 335// 41101 70011
BBXX 46237 03001 99378 71226 46/// ///// 1//// 92340 22200 00121 11704 20903 325// 41703 70020
BBXX 46212 03001 99408 71243 46/// ///// 1//// 92342 22200 00108 11009 21007 330// 41504 70043
BBXX 46217 03001 99342 71194 46/// ///// 1//// 92342 22200 00153 11102 21002 327// 41101 70010
BBXX 46211 03001 99469 71242 46/// ///// 1//// 92336 22200 00098 11407 21005 328// 41404 70033
BBXX DBBT/03001 /93//(34564 46/// /1313 10164 20087 40244 52012 22252 /0230
BBXX DBBU 03001 99544 10124 46/// /2312 10059 20055 40096 57003 22251 00076
BBXX DBKV 03001 99281 70154 46/// /0606 10197 20155 40267 52011 22230 00210
AAXX 03004 91487 NIL
AAXX 03004 91490 NIL
AAXX 03004 91533 NIL
AAXX 03004 91601 NIL
AAXX 03004 91610 11599 40816 10310 20239 40057 58016 60001 70300 82201 333 20260
AAXX 03004 562/9 70000
AAXX 03004 91623 NIL
AAXX 03004 91629 NIL
AAXX 03004 91701 NIL
AAXX 03004 91487 NIL
AAXX 03004 91490 NIL
AAXX 03004 91533 NIL
AAXX 03004 91601 NIL
AAXX 03004 91610 11599 40816 10310 20239 40057 58016 60001 70300 82201 333 20260
AAXX 03004 562/9 70000
AAXX 03004 91623 NIL
AAXX 03004 91629 NIL
AAXX 03004 91701 NIL
BBXX DBEA 03001 99540 10083 46/// /2213 10061 20038 40072 57015/ 22221 00080
BBXX DBFR 03001 99543 10101 46/// /2106 10047 20047 40085 57008 22221 00079
BBXX DBJM 03005 99543 1008/ 46/// /2115 10071 20045 40078 57016 22271 00079
BBXX 46114 03001 99364 71222 46/// ///// 1//// 92334 22200 00127 11706 20904 330// 41704 70029
BBXX 44060 03001 99413 70721 46/// ///08 10098 40274 92345 22200 00123 333 91210 555 11088 22093
BBXX 44022 03001 99409 70737 46/// ///07 10098 21007 40288 92345 22200 00110 333 91210 555 11077 22082
AAXX 03001 13579 31956 03301 11026 21037 39422 40297 50001 71000
BBXX 51203 03001 99208 71570 46/// ///// 1//// 92343 22200 00256 11402 21001 330// 41401 70009
BBXX 52200 03001 99134 11448 46/// ///// 1//// 92345 22200 00288 11104 21004 308// 41102 70021
BBXX 51201 03001 99217 71581 46/// ///// 1//// 92342 22200 00250 11306 21004 332// 41304 70028
AAXX 03004 78767 11458 82807 10214 20201 30140 40150 55010 60091 76265 86420 333 10252 20197 32/// 56600 59010 70242 86610
AAXX 03004 78767 11458 82807 10214 20201 30140 40150 55010 60091 76265 86420 333 10252 20197 32/// 56600 59010 70242 86610
AAXX 03004 78767 11458 82807 10214 20201 30140 40150 55010 60091 76265 86420 333 10252 20197 32/// 56600 59010 70242 86610
AAXX 03004 68906 32598 50406 10151 20117 30183 40248 58004 84570 333 10208 20151 91012 555 91024
AAXX 03004 08583 31559 60720 10225 20181 40167 70622 81532 333 58002 81622 86070
AAXX 03004 08589 32462 30415 10233 20208 40156 82530 333 58012 82615
AAXX 03004 08594 31459 50410 10225 20186 40167 81532 333 58010 81615 85070
AAXX 03004 68392 36/// /1004 10160 20147 30058 4//// 56004 333 10237 20159 91006 555
AAXX 03004 68382 16/// /0603 10162 20140 39353 48521 58002 69923 333 10242 20162 91006 555 20002 91016
AAXX 03004 68994 11597 81619 10056 20045 39997 40026 57010 60013 72166 885// 333 10087 20053 91027 555 20014 60145 91002
AAXX 03004 91376 11474 80810 10290 20253 30064 40068 58008 60094 72582 84878 333 20265 56229 58004 70091 555 90300
AAXX 03004 91376 11474 80810 10290 20253 30064 40068 58008 60094 72582 84878 333 20265 56229 58004 70091 555 90300
AAXX 03004 78384 12460 60514 10255 20194 40178 60001 86800 333 10277 20243 58010 70000 86818
AAXX 03004 78383 12460 60513 10256 20201 40178 60001 86800 333 10279 20242 58011 70000 83816 84630
BBXX TESTFR9 03004 99502 70041 46/// /2638 10121 29094 40102 22243
AAXX 03004 78384 12460 60514 10255 20194 40178 60001 86800 333 10277 20243 58010 70000 86818
AAXX 03004 78383 12460 60513 10256 20201 40178 60001 86800 333 10279 20242 58011 70000 83816 84630
AAXX 03004 91334 11474 83608 10297 20247 30080 40083 50008 60034 70282 83171 333 20267 56899 58011 70028 555 90300
AAXX 03004 91334 11474 83608 10297 20247 30080 40083 50008 60034 70282 83171 333 20267 56899 58011 70028 555 90300
AAXX 03004 16597 32460 12002 10120 20116 30161 40249 58004 81100 333 81819
AAXX 03004 96315 11265 72206 10269 20248 40071 60144 71566 81968 333 20246 55053 81705 81916 85364
AAXX 03004 96323 NIL
AAXX 03004 61901 169// /1213 10157 20141 39682 40193 50000 60001 92350 333 8//99 555 7/090
AAXX 03004 91762 11599 30306 10298 20240 40081 58017 60001 70122 81102 20232 569/9 70000 81820 83078
AAXX 03004 91759 11598 30610 10305 20235 40081 58018 60001 71522 82203 20232 569/9 70002 82822 83076
AAXX 03004 91762 11599 30306 10298 20240 40081 58017 60001 70122 81102 20232 569/9 70000 81820 83078
AAXX 03004 91759 11598 30610 10305 20235 40081 58018 60001 71522 82203 20232 569/9 70002 82822 83076
AAXX 03004 91824 11498 71207 10265 20244 40089 57010 69981 78082 8587/ 333 20205 562
AAXX 03004 Scanned by MailMarshal - M86 Security's comprehensive email content s ecur
AAXX 03004 ity solution.
AAXX 03004 --_000_15A73B2E9A32B34CBBB7D7F59DAEB2C0DCBF5CE7mailniuegovloca_ html code found in mail The rest of this message has been deleted
BBXX NWS0022 03004 99416 70714 43/// /2606 10096 20034 40268 5//// 7//// 8//// 222// 04139 2//// 3//// 4//// 5//// 6//// 8//// ICE /////
BBXX WDC6698 03004 99097 71432 43/// /0615 10280 20273 40090 5//// 7//// 8//// 222// 04257 2//// 3//// 4//// 5//// 6//// 8//// ICE /////
BBXX A8RV6 03004 99245 11628 41898 10703 10270 20243 40180 5/020 7//// 81144 22263 04290 20804 30404 40904 50803 80250
BBXX 9HA2066 03004 99347 11614 418// 50230 10140 20140 40250 51/// 7//// 857// 22224 00140 21307 305// 40908 5//// 6//// 80140 ICE /////
BBXX C6FV9 03004 99219 70854 41/// /0532 10240 2023/ 40210 54000 700// 8//// 22214 00280 2//// 3//// 4//// 5//// 6//// 80230 ICE /////
BBXX V7NV4 03004 99216 70671 41598 21409 10240 20226 40150 51010 701// 81189 22244 00220 20201 314// 40406 5//// 6//// 80230 ICE /////
BBXX SHIP 03003 99230 70885 41298 70810 10241 20163 40210 52010 70311 8117/ 22224 00280 20402 80190 52010 70311 8117/ 22224 00280 20402 80170 311 8 117/ 22224 0028 0 204 02 80 19
BBXX A8LG9 03004 99504 71315 41/98 63120 10100 20071 40390 54000 70122 86/7/ 22275 20501 330// 41008 5//// 80085
BBXX 44060 03001 99413 70721 46/// ///08 10098 40274 92345 22200 00123 333 91210 555 11088 22093
BBXX 46114 03001 99364 71222 46/// ///// 1//// 92334 22200 00127 11706 20904 330// 41704 70029
BBXX 44022 03001 99409 70737 46/// ///07 10098 21007 40288 92345 22200 00110 333 91210 555 11077 22082
BBXX LADR4 03004 99198 71310 41899 80512 10220 2022/ 40190 56010 70322 888// 22273 00240 20403 3//// 4//// 5//// 6//// 80220
BBXX A8NW9 03004 99239 70466 41598 10620 10253 20178 40255 50000 70200 81100 22264 04250 20703 307// 41004 80203
BBXX KRGB 03004 99424 71359 41598 50520 10133 20114 40360 57020 71144 80100 22214 00122 20404 328// 40805 5//// 6//// 80122 ICE /////
BBXX PINX 03004 99181 70745 41/98 30610 10280 2//// 40120 54000 70200 8//// 22274 00300 2//// 3//// 4//// 5//// 6//// 8//// ICE /////
BBXX DFZB2 03003 99306 70740 41/98 /0330 10209 20190 40271 52031 7//22 8//// 22284 04220 20705 303// 410// 5//// 80196
BBXX 46211 03001 99469 71242 46/// ///// 1//// 92336 22200 00098 11407 21005 328// 41404 70033
BBXX 46217 03001 99342 71194 46/// ///// 1//// 92342 22200 00153 11102 21002 327// 41101 70010
BBXX 46240 03001 99366 71219 46/// ///// 1//// 92342 22200 00127 11102 21002 335// 41101 70011
BBXX 46237 03001 99378 71226 46/// ///// 1//// 92340 22200 00121 11704 20903 325// 41703 70020
BBXX 46212 03001 99408 71243 46/// ///// 1//// 92342 22200 00108 11009 21007 330// 41504 70043
BBXX 41114 03001 99276 70802 46/// ///// 1//// 92346 22200 00226 10803 20803 308// 41101 70016
BBXX 41115 03001 99184 70673 46/// ///// 1//// 92335 22200 11002 21002 70008
BBXX 46249 03001 99338 71197 46/// ///// 1//// 92347 22200 00151 11202 20901 329// 41201 70008
BBXX 46244 03001 99409 71244 46/// ///// 1//// 92335 22200 00109 10909 20907 330// 41704 70044
BBXX 46248 03001 99461 71247 46/// ///// 1//// 92334 22200 00099 11508 20905 329// 41506 70039
BBXX WCOB 03003 99274 70439 41598 30313 10220 2017/ 40240 51005 70200 8317/ 22263 0//// 20302 303// 40805 5//// 6//// 80190 ICE /////
BBXX 42363 03001 99282 70892 46/// /1007 10211 20117 40258 92345 333 91208
BBXX 42364 03001 99291 70881 46/// /0908 10194 20133 40271 92345
BBXX HZRX 03003 99422 10079 41797 61817 /// 10175 20160 40186 54004 70322 86000 22273 10160 20202 31818 40303 5//// 6//// 80150 ///// /////
BBXX VRCP9 03004 99383 70341 41497 21119 10180 20130 40360 54000 70100 81189 22223 00186 2//// 3//// 4//// 5//// 6//// 80150 ICE /////
BBXX DGAF 03004 99466 70256 41297 72617 10130 20103 40300 54000 70222 8/768 22224 00140 29904 80115
BBXX DBEA 03001 99540 10083 46/// /2213 10061 20038 40072 57015/ 22221 00080
BBXX DBFR 03001 99543 10101 46/// /2106 10047 20047 40085 57008 22221 00079
BBXX C6WW4 03004 99365 70091 41697 43638 10150 2//// 40250 57/// 7//22 843// 22234 04160 2//08 3//// 4//// 5//// 6//// 8//// ICE /////
BBXX DBBU 03001 99544 10124 46/// /2312 10059 20055 40096 57003 22251 00076
BBXX SHIP 03003 99371 31287 41398 71214 10150 2005/ 40250 55030 70211 8724/ 22223 00150 20202 3//// 41203 50501 6//// 80100 ICE /////
BBXX ONAI 03004 99080 50340 41598 20818 10250 2020/ 40120 52010 70111 82803 22284 00280 2//// 3//// 4//// 5//// 6//// 80215 ICE /////
BBXX DBKV 03001 99281 70154 46/// /0606 10197 20155 40267 52011 22230 00210
AAXX 03004 68352 16/// /0910 10194 21009 39062 48509 58005 69923 333 10320 20193 91012 555 20002 91016
AAXX 03004 40272 32960 00108 10010 21088 39372 40217 57004
AAXX 03004 78905 11478 72702 10232 20219 30117 40140 69901 70286 87800 333 10256 20232 58007 82817 87840 90960
AAXX 03004 78905 11478 72702 10232 20219 30117 40140 69901 70286 87800 333 10256 20232 58007 82817 87840 90960
AAXX 03004 78905 11478 72702 10232 20219 30117 40140 69901 70286 87800 333 10256 20232 58007 82817 87840 90960
AAXX 03004 78862 11480 60905 10256 20237 30117 40140 60001 71582 85802 333 10290 20251 58005 82817 85636
AAXX 03004 SCT023 PROB30 TEMPO 0204/0218 SHRA
AAXX 03004 TAF TQPF 011600Z 0118/0218 02006KT 9999 SCT023 PROB30 TEMPO 0204/0218 SHRA
AAXX 03004 TAF TUPJ 011600Z 0118/0218 02006KT 9999 SCT023 PROB30 TEMPO 0204/0218 SHRA
AAXX 03004 T020 PROB30 TEMPO 0100/0124 SHRA BKN015 BECMG 0110/0112 01006KT
AAXX 03004 TAF TUPJ 302200Z 0100/0124 VRBO2/00000KT 9999 SCT020 PROB30 TEMPO 0100/0124 SHRA BKN015 BECMG 0110/0112 01006KT
AAXX 03004 016 BKN032 BKN070 BKN260 TEMPO 2818/2918 15016G28KT 4000 +SHRA FEW013CB BKN014 PROB40 TEMPO 2823/2918 2000 +TSRA SCT010CB BKN250
AAXX 03004 TAF TUPJ 281600Z 2818/2918 11010KT 9999 SCT020 BKN270 TEMPO 2818/2918 SHRA BKN015 BKN036 PROB30 TEMPO 2818/2918 4000 TSRA FEW012CB
AAXX 03004 N015 BKN036 PROB40 TEMPO 0704/0724 3000 +TSRA SCT011CB BKN012 BECMG 0712/0714 14008KT
AAXX 03004 21/2712 07017G28KT 5000 SHRA BKN015 BKN036 PROB TEMPO 2700/2712 4000 TSRA FEW013CB
AAXX 03004 PROB30 TEMPO 0800/0806 4000 TSRA FEW012CB PROB40 TEMPO 0800/0824 2000 +SHRA/TSRA SCT010CB BKN012 BKN250
AAXX 03004 78862 11480 60905 10256 20237 30117 40140 60001 71582 85802 333 10290 20251 58005 82817 85636
AAXX 03004 SCT023 PROB30 TEMPO 0204/0218 SHRA
AAXX 03004 TAF TQPF 011600Z 0118/0218 02006KT 9999 SCT023 PROB30 TEMPO 0204/0218 SHRA
AAXX 03004 TAF TUPJ 011600Z 0118/0218 02006KT 9999 SCT023 PROB30 TEMPO 0204/0218 SHRA
AAXX 03004 T020 PROB30 TEMPO 0100/0124 SHRA BKN015 BECMG 0110/0112 01006KT
AAXX 03004 TAF TUPJ 302200Z 0100/0124 VRBO2/00000KT 9999 SCT020 PROB30 TEMPO 0100/0124 SHRA BKN015 BECMG 0110/0112 01006KT
AAXX 03004 016 BKN032 BKN070 BKN260 TEMPO 2818/2918 15016G28KT 4000 +SHRA FEW013CB BKN014 PROB40 TEMPO 2823/2918 2000 +TSRA SCT010CB BKN250
AAXX 03004 TAF TUPJ 281600Z 2818/2918 11010KT 9999 SCT020 BKN270 TEMPO 2818/2918 SHRA BKN015 BKN036 PROB30 TEMPO 2818/2918 4000 TSRA FEW012CB
AAXX 03004 N015 BKN036 PROB40 TEMPO 0704/0724 3000 +TSRA SCT011CB BKN012 BECMG 0712/0714 14008KT
AAXX 03004 21/2712 07017G28KT 5000 SHRA BKN015 BKN036 PROB TEMPO 2700/2712 4000 TSRA FEW013CB
AAXX 03004 PROB30 TEMPO 0800/0806 4000 TSRA FEW012CB PROB40 TEMPO 0800/0824 2000 +SHRA/TSRA SCT010CB BKN012 BKN250
AAXX 03004 78862 11480 60905 10256 20237 30117 40140 60001 71582 85802 333 10290 20251 58005 82817 85636
AAXX 03004 SCT023 PROB30 TEMPO 0204/0218 SHRA
AAXX 03004 TAF TQPF 011600Z 0118/0218 02006KT 9999 SCT023 PROB30 TEMPO 0204/0218 SHRA
AAXX 03004 TAF TUPJ 011600Z 0118/0218 02006KT 9999 SCT023 PROB30 TEMPO 0204/0218 SHRA
AAXX 03004 T020 PROB30 TEMPO 0100/0124 SHRA BKN015 BECMG 0110/0112 01006KT
AAXX 03004 TAF TUPJ 302200Z 0100/0124 VRBO2/00000KT 9999 SCT020 PROB30 TEMPO 0100/0124 SHRA BKN015 BECMG 0110/0112 01006KT
AAXX 03004 016 BKN032 BKN070 BKN260 TEMPO 2818/2918 15016G28KT 4000 +SHRA FEW013CB BKN014 PROB40 TEMPO 2823/2918 2000 +TSRA SCT010CB BKN250
AAXX 03004 TAF TUPJ 281600Z 2818/2918 11010KT 9999 SCT020 BKN270 TEMPO 2818/2918 SHRA BKN015 BKN036 PROB30 TEMPO 2818/2918 4000 TSRA FEW012CB
AAXX 03004 N015 BKN036 PROB40 TEMPO 0704/0724 3000 +TSRA SCT011CB BKN012 BECMG 0712/0714 14008KT
AAXX 03004 21/2712 07017G28KT 5000 SHRA BKN015 BKN036 PROB TEMPO 2700/2712 4000 TSRA FEW013CB
AAXX 03004 PROB30 TEMPO 0800/0806 4000 TSRA FEW012CB PROB40 TEMPO 0800/0824 2000 +SHRA/TSRA SCT010CB BKN012 BKN250
AAXX 03004 81405 04983 /1005 10258 20233 30097 40106 60001 700// 333 10321 60007 59007 555 60005
BBXX 46060 03001 99606 71468 46/// /2402 10042 40184 52023 92350 22200 00065 11101 20401 319// 41101 70007 333 91203 555 11019 22020 32314 41504 62349 241019 216012 186020 153026 156026 160022 81503 92314
BBXX 46081 03001 99608 71483 46/// /2102 10025 20018 40191 53015 92350 22200 00054 1//00 70000 333 91203 555 11015 22016 32258 42504 62349 214015 221015 231012 245019 251025 247023 82603 92259
BBXX 32012 03001 99197 50856 46/// ///// 1//// 92350 22200 11004 70018
BBXX 46002 03001 99426 71305 46/// ///// 10110 40367 55000 92350 22200 00126 10806 70030
BBXX 46006 03001 99408 71375 46/// /0607 10110 40379 56016 92350 22200 00130 11405 20602 3//// 41404 70025 333 91209 555 11072 22075 32319 40409 62349 057069 058067 054065 052066 053068 054064
BBXX 46084 03001 99566 71361 46/// /2509 10074 20052 40291 54000 92350 22200 00074 11108 20605 300// 41106 70040 333 91212 555 11100 22106 32313 42713 62349 254093 254100 251093 252095 250083 253086
BBXX 46078 03001 99561 71526 46/// /2208 10056 20046 40221 92350 22200 11311 20705 300// 41310 70056 333 91210 555 11088 22093 32252 42211 62349 215083 221078 226082 222079 225082 227086 82209 92252
BBXX 46075 03001 99539 71608 46/// /1811 10059 20057 40131 58019 92350 22200 00053 11309 20605 300// 41307 70043 333 91214 555 11117 22126 32327 41914 62349 181110 181114 183113 181108 183111 184110 81812 92328
BBXX 46005 03001 99461 71310 46/// ///09 10091 40387 58012 92350 22200 00104 11405 20803 3//// 41404 70027 333 91211 555 11092 22097
BBXX 46059 03001 99380 71300 46/// /0213 10130 40298 56009 92350 22200 00153 10907 20705 3//// 40905 70037 333 91217 555 11141 22149 32349 40217 62349 021132 021128 015124 012125 017128 016129
BBXX 46080 03001 99580 71500 46/// /0000 10047 20047 40212 51016 92350 22200 00055 10807 20401 3//// 40807 70037 333 91201 555 11003 22003 32318 40203 62349 317002 202003 113003 008013 314003 277008 80302 92319
BBXX 42055 03001 99222 70940 46/// /0908 10245 20157 40195 54000 92350 22200 00263 10603 20603 70015 333 91210 555 11087 22091 32343 40910 62349 087083 092080 084084 086080 087083 093078 80809 92325
BBXX 42059 03001 99151 70675 46/// /0708 10280 20222 40131 53014 92350 22200 00285 10503 20503 3//// 40901 70014 333 91210 555 11090 22095 32317 40810 62349 072084 073082 071083 070083 068082 070083 80709 92252
BBXX 42002 03001 99258 70937 46/// /1209 10232 20149 40217 55000 92350 22200 00251 10603 20603 70013 333 91211 555 11092 22098 32254 41212 62349 117093 112092 111088 114091 110097 109095
BBXX 41012 03001 99300 70805 46/// /0209 10202 40274 53004 92350 22200 00236 10803 20402 307// 40802 70013 333 91210 555 11094 22099 32252 40211 62349 021088 020084 016087 011084 019087 017086
BBXX 41049 03001 99275 70630 46/// /1505 10244 20202 40167 53013 92350 22200 00253 11004 20501 300// 41004 70019 333 91206 555 11057 22059 32305 41507 62349 153054 155049 154052 154053 150054 150051 81506 92305
BBXX 41001 03001 99347 70727 46/// ///// 10174 20093 40280 53019 92350 22200 00230 11104 70019
BBXX 42020 03001 99270 70967 46/// /1210 10240 20174 40193 57005 92350 22200 00253 10704 20704 70018 333 91211 555 11103 22109 32317 41312 62349 122097 120096 124096 122097 125094 125092
BBXX 41044 03001 99217 70587 46/// /1407 10270 20228 40160 51012 92350 22200 00272 10904 20502 300// 40904 70022 333 91209 555 11074 22078 32311 41309 62349 136069 134065 133067 134074 137070 135075 81408 92258
BBXX 41048 03001 99320 70696 46/// /0210 10206 20135 40229 53014 92350 22200 00233 11105 20804 3//// 41103 70024 333 91211 555 11095 22100 32311 40113 62349 025093 028095 026098 025098 024098 018102 80212 92310
BBXX 42065 03001 99149 70750 46/// /0608 10267 20237 92350 22200 10503 20502 3//// 40801 70013 333 91209 555 11080 22085 32253 40811 62349 064075 065077 072075 077078 081081 085089 80909 92258
BBXX 42001 03001 99259 70897 46/// /0807 10235 20148 40234 54000 92350 22200 00240 10602 20602 70010 333 91208 555 11073 22077 32326 40809 62349 085069 086068 082066 082066 083066 093064
BBXX 42012 03001 99301 70876 46/// /0806 10178 20103 40278 52003 92350 22200 00197 10602 20401 312// 40601 70008 333 91207 555 11062 22065 32304 40707 62349 080059 084057 082055 080060 078060 075057
BBXX 42035 03001 99292 70944 46/// /0908 10181 20167 40235 56007 92350 22200 00176 10502 20502 70011 333 91210 555 11089 22096 32330 40910 62349 090083 091087 092084 093085 092083 090079
BBXX 42058 03001 99149 70749 46/// /0507 10271 20228 40121 53013 92350 22200 00282 10602 20602 332// 40701 70012 333 91209 555 11078 22083 32253 40809 62349 051075 062071 070066 070071 073075 076077 80808 92254
BBXX 42060 03001 99163 70635 46/// /0406 10278 20237 40137 53015 92350 22200 00284 10502 20502 300// 40901 70011 333 91208 555 11066 22069 32320 40408 62349 038064 041069 046066 045067 047065 045066 80408 92333
BBXX 42036 03001 99285 70845 46/// /0508 10196 20126 40269 53008 92350 22200 00221 10502 20502 70011 333 91209 555 11085 22089 32320 40511 62349 052080 051082 052083 052084 054082 059084
BBXX 42056 03001 99198 70849 46/// /0510 10256 20187 40184 53008 92350 22200 00279 10703 20703 70017 333 91212 555 11108 22114 32342 40512 62349 046100 042099 044097 046100 050096 050099 80511 92342
BBXX 42019 03001 99279 70954 46/// /1407 10225 20155 40216 55000 92350 22200 10603 20603 70017 333 91209 555 11077 22082 32329 42810 62349 144073 282074 282079 282079 282080 279082
BBXX 42057 03001 99170 70815 46/// /0509 10268 40151 53009 92350 22200 00282 10805 20805 70025 333 91211 555 11100 22105 32318 40412 62349 045094 045092 039092 041092 047088 040092 80410 92318
BBXX 44005 03001 99432 70691 46/// /2606 10088 20024 40255 51014 92350 22200 00096 11003 20401 3//// 41002 70014 333 91207 555 11061 22064 32305 42308 62349 256059 250058 236058 235061 227057 219049
BBXX 42040 03001 99292 70882 46/// /1009 10197 40269 53004 92350 22200 00227 10603 20603 70013 333 91211 555 11092 22097 32333 41011 62349 102092 096093 097087 093092 090086 095091
BBXX 42003 03001 99260 70856 46/// /0807 1//// 92350 22200 10703 20502 308// 40702 70016 333 91209 555 11075 22080 32332 40810 62349 081071 077077 077083 074077 071073 073075 80809 92328
BBXX 46105 03001 99590 71522 46/// ///// 1//// 92350 22200 11102 70010
BBXX 46070 03001 99551 11753 46/// /0209 10012 21029 40034 58007 92350 22200 00049 11108 20704 3//// 41107 70039 333 91212 555 11098 22103 32346 40212 62349 020092 019092 028084 036082 040078 049081 80311 92346
BBXX 46078 03001 99561 71526 46/// /2208 10056 20046 40221 92350 22200 11311 20705 300// 41310 70056 333 91210 555 11088 22093 32252 42211 62349 215083 221078 226082 222079 225082 227086 82209 92252
BBXX 44025 03001 99402 70732 46/// /2909 10115 20022 40280 51027 92350 22200 00118 11102 20401 312// 41102 70010 333 91211 555 11094 22100 32349 42811 62349 288089 289086 284083 279082 278080 279070
BBXX 41008 03001 99314 70809 46/// /0304 10152 20091 40300 53007 92350 22200 00178 10802 20401 300// 40802 70008 333 91205 555 11041 22043 32307 40306 62349 032039 030039 029040 028042 031040 032042
BBXX 44014 03001 99366 70748 46/// /3003 10126 20039 40299 53018 92350 22200 00159 11002 310// 41002 70012 333 91204 555 11028 22028 32320 43104 62349 294029 301028 302031 295026 293027 281026
BBXX 41004 03001 99325 70791 46/// /0304 10162 20050 40299 53006 92350 22200 00209 11102 20401 3//// 41102 70011 333 91205 555 11040 22041 32333 40505 62349 032040 041038 035040 039036 037038 038037
BBXX 44009 03001 99385 70747 46/// /2908 10122 40307 53023 92350 22200 00131 11102 20301 300// 41102 70010 333 91209 555 11081 22085 32317 42709 62349 287076 287074 277074 270077 259071 245070
BBXX 44027 03001 99443 70673 46/// /1402 10043 21017 40271 51009 92350 22200 00093 11002 3//// 41002 70009 333 91203 555 11024 22024 32315 41404 62349 143023 148025 136028 148030 152027 154027
BBXX 44065 03001 99404 70737 46/// /2911 10111 20010 40284 53023 92350 22200 00117 11002 20301 311// 41001 70008 333 91212 555 11112 22119 32338 42913 62349 290106 290104 281094 278076 272068 268067 82911 92339
BBXX 41013 03001 99334 70777 46/// /3603 10142 20045 40297 52009 92350 22200 00201 11102 20401 312// 41102 70011 333 91204 555 11032 22033 32326 40104 62349 005031 007030 015028 008028 018029 016031
BBXX 45005 03001 99417 70824 46/// /1801 10032 30121 40336 51012 92350 22200 00068 1//00 70002 333 91203 555 11013 22014 32337 41603 62349 182011 161010 137010 136012 133009 109002
BBXX 45007 03001 99427 70870 46/// /1807 10046 21001 30078 40297 57007 92350 22200 00076 10301 20301 70004 333 91208 555 11073 22076 32254 41709 62349 175070 170065 170066 178063 180062 172070
BBXX 45003 03001 99454 70828 46/// /2007 10009 30093 40315 51008 92350 22200 00075 10401 20401 70003 333 91208 555 11070 22073 32330 42208 62349 198067 203061 196057 180054 201046 178043
BBXX 46088 03001 99483 71232 46/// /0204 10068 40327 52004 92350 22200 00084 1//00 70002 333 91205 555 11043 22044 32257 40208 62349 016041 016041 014044 012048 017053 016061
BBXX 46053 03001 99342 71198 46/// /2706 10143 40136 58011 92350 22200 00151 333 91208 555 11068 22071 32250 42708 62349 270065 269066 264061 258051 258049 261049
BBXX 46014 03001 99394 71240 46/// /3414 10114 40181 56008 92350 22200 00111 11608 20705 3//// 41606 70041 333 91217 555 11152 22162 32335 43418 62349 339142 338134 339132 340131 340131 341137
BBXX 46011 03001 99350 71210 46/// /2401 10138 40149 56014 92350 22200 00129 11104 20401 332// 41104 70020 333 91202 555 11016 22019 32306 42004 62349 234014 224024 225028 216028 205028 209019
BBXX 46047 03001 99324 71195 46/// /3003 10149 40159 56004 92350 22200 00148 11004 20401 330// 41004 70022 333 91204 555 11030 22033 32328 43004 62349 296028 292031 298028 291019 285019 298029
BBXX 46086 03001 99325 71180 46/// /2805 10159 40151 55000 92350 22200 00164 11003 20401 329// 41003 70017 333 91205 555 11047 22049 32250 42806 62349 279046 272043 269039 269038 275038 270041
BBXX 46088 03001 99483 71232 46/// /0204 10068 40327 92350 22200 00084 1//00 70002 333 91205 555 11043 22044 32257 40208 62349 016041 016041 014044 012048 017053 016061
BBXX 46027 03001 99419 71244 46/// /3415 10104 40239 56004 92350 22200 00103 11507 20605 329// 41506 70037 333 91218 555 11157 22168 32304 43418 62349 343145 343150 342147 343146 343148 343150
BBXX 46050 03001 99442 71246 46/// /3509 10094 40316 56003 92350 22200 00107 11607 20604 330// 41606 70034 333 91212 555 11095 22100 32345 43512 62349 354090 354096 353094 350092 355086 353089
BBXX 46069 03001 99337 71202 46/// /2905 10142 40148 58009 92350 22200 00141 11004 20501 332// 41004 70019 333 91207 555 11055 22058 32346 42907 62349 286050 288048 290048 288046 284039 284036
BBXX 46013 03001 99382 71233 46/// /3212 10118 40151 56012 92350 22200 00110 10907 20906 3//// 41604 70036 333 91214 555 11129 22139 32326 43115 62349 317120 316124 314121 313115 316114 319118
BBXX 46012 03001 99374 71229 46/// /3210 10121 40151 56011 92350 22200 00122 11006 20804 332// 41005 70031 333 91211 555 11102 22108 32306 43213 62349 318096 318099 320100 320099 319107 316098
BBXX 46087 03001 99485 71247 46/// /1105 10084 20049 40324 92350 22200 00090 333 91207 555 11051 22053 32258 41207 62349 113048 117045 111044 116043 111047 113049
BBXX 46029 03001 99461 71245 46/// /0105 10085 20037 40328 55000 92350 22200 00095 11408 20401 328// 41408 70041 333 91206 555 11048 22050 32329 40107 62349 008047 009050 015049 030044 025042 035038
BBXX 46028 03001 99357 71219 46/// /3503 10128 40149 56005 92350 22200 00131 11104 20401 332// 41104 70022 333 91205 555 11036 22037 32346 43405 62349 345034 345030 338033 337034 328035 339026
BBXX 46054 03001 99342 71204 46/// /2805 10141 40144 58010 92350 22200 00146 11103 20401 300// 41103 70016 333 91206 555 11053 22055 32253 42807 62349 282049 287047 282054 276055 279052 281058
BBXX 46025 03001 99337 71191 46/// /2805 10152 40144 56011 92350 22200 00158 10902 20301 329// 40901 70008 333 91206 555 11051 22053 32311 42807 62349 279048 284048 279053 276059 273059 264059
AAXX 03004 89009 41361 70209 11320 36773 51005 77671 87601 333 11313 21322 87707
AAXX 03004 78700 32578 12404 10286 20237 30107 40112 56005 81100 333 10342 20220 30/// 56000 59013 70000 81830
AAXX 03004 78703 31566 43606 10222 20188 30173 40175 53006 70544 83440 333 10270 20190 30/// 56100 59001 70053 83825
AAXX 03004 78704 31568 43203 10229 20209 30164 40169 51005 70544 82201 333 10269 20195 30/// 56700 59013 70190 82824 83075
AAXX 03004 78705 11560 50000 10213 20198 30162 40180 53006 60011 70554 84963 333 10247 20203 31/// 56000 59006 70043 84924 85070
AAXX 03004 78706 31560 70000 10203 20192 30210 40215 52010 70544 85270 333 10218 20200 31/// 56200 58030 70247 85822 87458
AAXX 03004 78707 NIL
AAXX 03004 78708 01150 82704 10202 20202 30153 40184 53005 60021 75155 8542/ 333 10253 20196 32/// 56899 60025 70022 81702 84615 88458
AAXX 03004 78711 NIL
AAXX 03004 78714 32570 40602 10242 20184 84200 333 02200 10278 20186 30/// 70000 84828
AAXX 03004 78717 11358 83404 10150 20147 38983 40190 52010 69933 75154 885// 333 10196 20126 30/// 56199 58001 70003 83706 88625
AAXX 03004 78718 31660 43516 10188 70544 83431 333 10250 20158 30/// 56800 70000 83840
AAXX 03004 78719 32450 70614 10136 20120 38362 40156 56001 87400 333 10177 20102 30/// 56100 59005 70000 81616 86820
AAXX 03004 78720 31560 53612 10191 20154 39048 40147 53008 70544 84830 333 10242 20126 30/// 56800 59006 79999 81622 83827
AAXX 03004 78724 32578 10510 10280 20177 30066 40123 52012 81100 333 10328 20234 30/// 56100 58001 70000 81832
AAXX 03004 85864 12680 12407 10154 20040 40105 52013 60001 81100 333 10202 56600 81835
AAXX 03004 85874 32982 /3018 10133 20026 39478 40090 53008 333 10189
AAXX 03004 97180 32559 50702 10278 20244 30067 40085 53018 81232 333 20249 50400 55068 55508 52140 56000 58009 81820 84080
AAXX 03004 85406 12980 02003 10199 20141 40159 53011 60001 333 10238
AAXX 03004 85418 12965 02209 10194 20140 40161 53010 60001 333 10233
AAXX 03004 85432 12970 02319 10180 21005 37780 48462 52017 60001 333 10238
AAXX 03004 85467 12460 22308 10164 20110 40184 53010 60001 82500 333 10220 56600 82615
AAXX 03004 85469 41560 60204 10203 20151 40240 57006 70382 86800 333 56800 85820 83630
AAXX 03004 85488 12562 83104 10152 20118 40181 58002 60001 885// 333 10186 56099 88630
AAXX 03004 89009 41361 70209 11320 36773 51005 77671 87601 333 11313 21322 87707
AAXX 03004 CCA 91772 31498 50000 10305 20249 4//// 60001 70212 82202 333 20250 569/9 79999 82818 85640
AAXX 03004 85574 12960 01912 10184 20081 39613 40160 52010 60001 333 10246
AAXX 03004 85585 12498 53314 10183 20130 40162 54002 60001 85200 333 10221 56700 85818
AAXX 03004 85629 12965 02508 10200 20095 40159 53005 60001 333 10259
AAXX 03004 85682 12962 00205 10140 20112 40182 55001 60001 333 10189
AAXX 03004 85743 12560 69902 10155 20113 40167 55001 60001 86500 333 10206 56600 86625
AAXX 03004 85799 12760 83206 10153 20111 40154 54001 60001 8553/ 333 10195 56779 85650 86357
AAXX 03004 85406 12980 02003 10199 20141 40159 53011 60001 333 10238
AAXX 03004 85418 12965 02209 10194 20140 40161 53010 60001 333 10233
AAXX 03004 85432 12970 02319 10180 21005 37780 48462 52017 60001 333 10238
AAXX 03004 85467 12460 22308 10164 20110 40184 53010 60001 82500 333 10220 56600 82615
AAXX 03004 85469 41560 60204 10203 20151 40240 57006 70382 86800 333 56800 85820 83630
AAXX 03004 85488 12562 83104 10152 20118 40181 58002 60001 885// 333 10186 56099 88630
BBXX BAREU54 03004 99094 70799 46/// ///// 40114 22200
BBXX BATFR15 03004 99452 70194 44998 82726 10134 20109 40308 56020 70222 8677/ 22224 00149 21002 336// 41506 5////
BBXX BAREU12 03004 99514 10036 46/// ///// 40102 22262
BBXX BATEU05 03004 99586 70168 46/// /3026 10057 20012 49906 53021 22222
BBXX BATFR03 03004 99496 70008 46/// /2135 10092 20070 40132 22272
BBXX BAREU11 03004 99268 50734 46/// ///// 40182 52006 22243
BBXX BATFR09 03004 99370 70094 46/// /0139 10154 20072 40271 53024 22283 00189
BBXX BATEU00 03004 99178 30041 46/// /1312 10187 20127 40174 58006 22233
BBXX BAREU04 03004 99391 70764 46/// ///// 40311 22231
BBXX BATFR13 03004 99267 70432 44498 60720 10219 20165 40230 58001 70222 863// 22254 00252 20000 302// 41204 5////
AAXX 03004 64450 11560 70202 10240 20230 39740 40089 60251 71396 8397/ 333 0//74 58004 83623 81930 87463 94944 95834
AAXX 03004 78862 11476 60905 10256 20237 30117 40140 60001 71582 85802 333 10290 20251 58005 82817 85636
AAXX 03004 ROB30 TEMPO 0204/0218 SHRA
AAXX 03004 TAF TQPF 011600Z 0118/0218 02006KT 9999 SCT023 PROB30 TEMPO 0204/0218 SHRA
AAXX 03004 TAF TUPJ 011600Z 0118/0218 02006KT 9999 SCT023 PROB30 TEMPO 0204/0218 SHRA
AAXX 03004 T020 PROB30 TEMPO 0100/0124 SHRA BKN015 BECMG 0110/0112 01006KT
AAXX 03004 TAF TUPJ 302200Z 0100/0124 VRBO2/00000KT 9999 SCT020 PROB30 TEMPO 0100/0124 SHRA BKN015 BECMG 0110/0112 01006KT
AAXX 03004 016 BKN032 BKN070 BKN260 TEMPO 2818/2918 15016G28KT 4000 +SHRA FEW013CB BKN014 PROB40 TEMPO 2823/2918 2000 +TSRA SCT010CB BKN250
AAXX 03004 TAF TUPJ 281600Z 2818/2918 11010KT 9999 SCT020 BKN270 TEMPO 2818/2918 SHRA BKN015 BKN036 PROB30 TEMPO 2818/2918 4000 TSRA FEW012CB
AAXX 03004 N015 BKN036 PROB40 TEMPO 0704/0724 3000 +TSRA SCT011CB BKN012 BECMG 0712/0714 14008KT
AAXX 03004 21/2712 07017G28KT 5000 SHRA BKN015 BKN036 PROB TEMPO 2700/2712 4000 TSRA FEW013CB
AAXX 03004 PROB30 TEMPO 0800/0806 4000 TSRA FEW012CB PROB40 TEMPO 0800/0824 2000 +SHRA/TSRA SCT010CB BKN012 BKN250
AAXX 03004 78862 11476 60905 10256 20237 30117 40140 60001 71582 85802 333 10290 20251 58005 82817 85636
AAXX 03004 ROB30 TEMPO 0204/0218 SHRA
AAXX 03004 TAF TQPF 011600Z 0118/0218 02006KT 9999 SCT023 PROB30 TEMPO 0204/0218 SHRA
AAXX 03004 TAF TUPJ 011600Z 0118/0218 02006KT 9999 SCT023 PROB30 TEMPO 0204/0218 SHRA
AAXX 03004 T020 PROB30 TEMPO 0100/0124 SHRA BKN015 BECMG 0110/0112 01006KT
AAXX 03004 TAF TUPJ 302200Z 0100/0124 VRBO2/00000KT 9999 SCT020 PROB30 TEMPO 0100/0124 SHRA BKN015 BECMG 0110/0112 01006KT
AAXX 03004 016 BKN032 BKN070 BKN260 TEMPO 2818/2918 15016G28KT 4000 +SHRA FEW013CB BKN014 PROB40 TEMPO 2823/2918 2000 +TSRA SCT010CB BKN250
AAXX 03004 TAF TUPJ 281600Z 2818/2918 11010KT 9999 SCT020 BKN270 TEMPO 2818/2918 SHRA BKN015 BKN036 PROB30 TEMPO 2818/2918 4000 TSRA FEW012CB
AAXX 03004 N015 BKN036 PROB40 TEMPO 0704/0724 3000 +TSRA SCT011CB BKN012 BECMG 0712/0714 14008KT
AAXX 03004 21/2712 07017G28KT 5000 SHRA BKN015 BKN036 PROB TEMPO 2700/2712 4000 TSRA FEW013CB
AAXX 03004 PROB30 TEMPO 0800/0806 4000 TSRA FEW012CB PROB40 TEMPO 0800/0824 2000 +SHRA/TSRA SCT010CB BKN012 BKN250
AAXX 03004 85201 31470 30712 10112 21067 36288 52008 71392 82302 333 10196 56000 59019 81615 81917
AAXX 03004 85223 12584 51009 10197 20068 37500 47135 52047 69931 82931 333 10308 56000 59004 81625 81927 83358 85070
AAXX 03004 85244 32970 43305 10287 20198 39632 40052 53010 81031 333 10354 56089 59043 81360 84070
AAXX 03004 78862 11476 60905 10256 20237 30117 40140 60001 71582 85802 333 10290 20251 58005 82817 85636
AAXX 03004 ROB30 TEMPO 0204/0218 SHRA
AAXX 03004 TAF TQPF 011600Z 0118/0218 02006KT 9999 SCT023 PROB30 TEMPO 0204/0218 SHRA
AAXX 03004 TAF TUPJ 011600Z 0118/0218 02006KT 9999 SCT023 PROB30 TEMPO 0204/0218 SHRA
AAXX 03004 T020 PROB30 TEMPO 0100/0124 SHRA BKN015 BECMG 0110/0112 01006KT
AAXX 03004 TAF TUPJ 302200Z 0100/0124 VRBO2/00000KT 9999 SCT020 PROB30 TEMPO 0100/0124 SHRA BKN015 BECMG 0110/0112 01006KT
AAXX 03004 016 BKN032 BKN070 BKN260 TEMPO 2818/2918 15016G28KT 4000 +SHRA FEW013CB BKN014 PROB40 TEMPO 2823/2918 2000 +TSRA SCT010CB BKN250
AAXX 03004 TAF TUPJ 281600Z 2818/2918 11010KT 9999 SCT020 BKN270 TEMPO 2818/2918 SHRA BKN015 BKN036 PROB30 TEMPO 2818/2918 4000 TSRA FEW012CB
AAXX 03004 N015 BKN036 PROB40 TEMPO 0704/0724 3000 +TSRA SCT011CB BKN012 BECMG 0712/0714 14008KT
AAXX 03004 21/2712 07017G28KT 5000 SHRA BKN015 BKN036 PROB TEMPO 2700/2712 4000 TSRA FEW013CB
AAXX 03004 PROB30 TEMPO 0800/0806 4000 TSRA FEW012CB PROB40 TEMPO 0800/0824 2000 +SHRA/TSRA SCT010CB BKN012 BKN250
BBXX 44020 03001 99414 70702 46/// /2506 10101 20046 40261 53012 92350 22200 00101 10301 20301 70004 333 91207 555 11061 22065 32300 42609 62349 255057 261060 260059 260059 260067 258064
BBXX 44040 03001 99410 70736 46/// /3408 10101 20001 40294 92345 22200 10201 70003 333 91211 555 11098 22113
BBXX 44018 03001 99422 70698 46/// /2405 10091 20049 40263 52015 92350 22200 00099 11002 20401 311// 41002 70012 333 91206 555 11054 22056 32348 42506 62349 243051 242052 237043 237048 233050 228052
AAXX 03001 45032 16/// /0601 10073 20043 30185 40202 52002 60000 333 70000
AAXX 03001 45035 16/// /0703 10100 20043 30159 40202 52003 60000 333 70000
AAXX 03001 45039 16/// /0102 10106 20026 30180 40196 52001 60000 333 70000
AAXX 03001 45044 16/// /3506 10114 20065 30091 40188 52001 60000 333 70000
AAXX 03004 91413 12469 50912 10307 20248 30064 40090 51010 69984 82271 333 20266 56299 58007 70008 555 90300
AAXX 03004 85574 12960 01912 10184 20081 39613 40160 52010 60001 333 10246
AAXX 03004 85585 12498 53314 10183 20130 40162 54002 60001 85200 333 10221 56700 85818
AAXX 03004 85629 12965 02508 10200 20095 40159 53005 60001 333 10259
AAXX 03004 85682 12962 00205 10140 20112 40182 55001 60001 333 10189
AAXX 03004 85743 12560 69902 10155 20113 40167 55001 60001 86500 333 10206 56600 86625
AAXX 03004 85799 12760 83206 10153 20111 40154 54001 60001 8553/ 333 10195 56779 85650 86357
AAXX 03004 85864 12680 12407 10154 20040 40105 52013 60001 81100 333 10202 56600 81835
AAXX 03004 85874 32982 /3018 10133 20026 39478 40090 53008 333 10189
BBXX 41047 03001 99275 70715 46/// /0314 10219 40208 53017 92350 22200 00255 10806 20806 70031 333 91216 555 11135 22143 32315 40417 62349 029136 022136 020145 027140 026131 024134 80315 92315
BBXX 41043 03001 99211 70650 46/// /0502 10258 20203 40159 53018 92350 22200 00273 10903 20401 300// 40903 70017 333 91203 555 11022 22022 32251 40404 62349 049021 071022 057022 043022 052022 045026 80403 92252
BBXX 41036 03001 99342 70770 46/// ///// 10137 20012 40298 51010 92350 22200 00171 11102 70010
BBXX 44066 03001 99396 70726 46/// /2708 10119 20054 40282 53017 92350 22200 00129 11102 20402 3//// 41102 70012 333 91210 555 11087 22092 32349 42710 62349 270081 271082 267084 268080 266074 261074
AAXX 03001 45032 16/// /0601 10073 20043 30185 40202 52002 60000 333 70000
AAXX 03001 45035 16/// /0703 10100 20043 30159 40202 52003 60000 333 70000
AAXX 03001 45039 16/// /0102 10106 20026 30180 40196 52001 60000 333 70000
AAXX 03001 45044 16/// /3506 10114 20065 30091 40188 52001 60000 333 70000
AAXX 03001 01001 11570 50108 11067 21114 39849 49861 58002 60001 70222 84530 333 91114
AAXX 03001 01008 41486 71002 11091 21136 39645 49679 50006 70272 8557/ 333 91108
AAXX 03001 01010 41484 62708 10019 21064 39793 49808 50001 70282 85870 333 91116
AAXX 03001 01026 41350 80000 10000 21033 39655 49793 50007 78582 8536/ 333 91108
AAXX 03001 01055 46/// /2910 10032 21012 39727 49744 51015 333 91117
AAXX 03001 01062 11460 82804 11039 21065 39660 49672 50007 69911 78587 883// 333 91109
AAXX 03001 01098 41475 52205 10015 21001 39690 49708 54000 70185 85700 333 91115
AAXX 03001 01115 41480 61510 10040 21002 39799 49819 58032 70311 81350 333 91115
AAXX 03001 01152 11789 42004 10033 21044 39820 49836 58007 69901 70181 84100 333 91117
AAXX 03001 01205 46/// ///// 10066 20013 39723 49767 58064
AAXX 03001 01212 16/// /1712 10065 21007 39774 49790 58056 6//// 333 91121
AAXX 03001 01271 NIL
AAXX 03001 01288 NIL
AAXX 03001 01300 NIL
AAXX 03001 01317 NIL
AAXX 03001 01367 41685 31102 11025 21085 39488 49931 58033 70300 82410 333 91106
AAXX 03001 01384 41989 11603 11052 21072 39710 49960 58020 70300 80005 333 91104
AAXX 03001 01403 NIL
AAXX 03001 01415 NIL
AAXX 03001 01482 46/// /2108 1//// 2//// 39960 49967 58025 333 91112
AAXX 03001 01492 41988 00301 11039 21057 39842 49962 58025 70200 333 91103
AAXX 03004 91413 12469 50912 10307 20248 30064 40090 51010 69984 82271 333 20266 56299 58007 70008 555 90300
AAXX 03001 01003 NIL
AAXX 03001 01007 NIL
AAXX 03001 01028 11665 82709 11018 21050 39696 49715 50002 69911 72682 888// 333 91115
AAXX 03001 01047 41588 63205 11008 21044 39407 49772 51031 70272 86500
AAXX 03001 01049 NIL
AAXX 03001 01078 NIL
AAXX 03001 01102 46/// /1715 10029 20003 39814 49833 56031 333 91120
AAXX 03001 01160 41989 02505 10027 21039 39807 49824 58006 70282 333 91115
AAXX 03001 01218 NIL
AAXX 03001 01238 NIL
AAXX 03001 01241 11886 71410 10026 21039 39815 49826 58038 60001 70220 86072 333 91117
AAXX 03001 01281 NIL
AAXX 03001 01338 16/// /1206 10037 21035 39802 49867 58058 60001 333 91111
AAXX 03001 01359 NIL
AAXX 03001 01397 16/// /1202 11094 21101 39517 49968 58012 60001 333 91103
AAXX 03001 01400 NIL
AAXX 03001 01427 NIL
AAXX 03001 01447 NIL
AAXX 03001 01448 46/// /2310 10071 20028 39950 49959 58037 333 91116
BBXX 46002 03001 99426 71305 46/// ///// 10110 40367 55000 92350 22200 00126 10806 70030
BBXX 46005 03001 99461 71310 46/// ///09 10091 40387 58012 92350 22200 00104 11405 20803 3//// 41404 70027 333 91211 555 11092 22097
BBXX 46006 03001 99408 71375 46/// /0607 10110 40379 56016 92350 22200 00130 11405 20602 3//// 41404 70025 333 91209 555 11072 22075 32319 40409 62349 057069 058067 054065 052066 053068 054064
BBXX 46012 03001 99374 71229 46/// /3210 10121 40151 56011 92350 22200 00122 11006 20804 332// 41005 70031 333 91211 555 11102 22108 32306 43213 62349 318096 318099 320100 320099 319107 316098
BBXX 46013 03001 99382 71233 46/// /3212 10118 40151 56012 92350 22200 00110 10907 20906 3//// 41604 70036 333 91214 555 11129 22139 32326 43115 62349 317120 316124 314121 313115 316114 319118
BBXX 46014 03001 99394 71240 46/// /3414 10114 40181 56008 92350 22200 00111 11608 20705 3//// 41606 70041 333 91217 555 11152 22162 32335 43418 62349 339142 338134 339132 340131 340131 341137
BBXX 46028 03001 99357 71219 46/// /3503 10128 40149 56005 92350 22200 00131 11104 20401 332// 41104 70022 333 91205 555 11036 22037 32346 43405 62349 345034 345030 338033 337034 328035 339026
BBXX 46029 03001 99461 71245 46/// /0105 10085 20037 40328 55000 92350 22200 00095 11408 20401 328// 41408 70041 333 91206 555 11048 22050 32329 40107 62349 008047 009050 015049 030044 025042 035038
BBXX 46050 03001 99442 71246 46/// /3509 10094 40316 56003 92350 22200 00107 11607 20604 330// 41606 70034 333 91212 555 11095 22100 32345 43512 62349 354090 354096 353094 350092 355086 353089
BBXX A8LG9 03004 99504 71315 41/98 63120 10100 20071 40390 54000 70122 86/7/ 22275 20501 330// 41008 5//// 80085
BBXX KRGB 03004 99424 71359 41598 50520 10133 20114 40360 57020 71144 80100 22214 00122 20404 328// 40805 5//// 6//// 80122 ICE /////
AAXX 03004 78925 11465 80503 10243 20238 40130 51008 60061 72586 8483/ 333 10298 20240 58002 70130 82818 83633 87366
AAXX 03001 12772 31415 83501 11027 21034 39919 40216 56003 72842 886// 333 88710
AAXX 03001 12822 36/// /1001 11006 21007 30058 40207 58003
AAXX 03001 12843 31220 80000 11017 21021 30034 40211 58002 71052 886// 333 88705
AAXX 03001 12882 31330 82802 10003 21003 30074 40211 53001 71052 886// 333 88706
AAXX 03001 12925 36/// /1601 10012 20009 30028 40205 57004
AAXX 03001 12942 31956 21001 10010 20010 39956 40209 50000 70240 82030
AAXX 03001 12982 31/01 90000 10004 21002 30107 40212 50004 74764 333 89/01
AAXX 03001 10004 NIL
AAXX 03001 10015 11970 22215 10074 20042 30055 40065 58018 60021 70281 80002 333 31/// 55/// 20140 30122 55300 20000 30000 82073 91120 91216 96488
AAXX 03001 10020 07680 42213 10072 20040 30004 40036 58029 60011 72365 333 55/// 20228 30156 55300 20000 30000 60017 82/36 84/50 91119 91213
AAXX 03001 10035 01475 12106 10044 20034 30014 40073 58013 69981 70181 81500 333 32/// 55/// 20155 30134 42594 55300 20000 30000 40938 69977 81613
AAXX 03001 10055 12572 52207 10056 20040 30071 40081 58008 60001 82506 333 31/// 55/// 20079 30078 55300 20000 30000 82633 85270 91113
AAXX 03001 10147 12970 12205 10038 20027 30086 40105 56008 60001 80001 333 31/// 55/// 20115 30113 42701 55300 20000 30000 40917 81072
AAXX 03001 10162 17950 72305 10036 20028 30023 40107 58006 60001 71000 333 55/// 20063 30062 55300 20000 30000 87/68
AAXX 03001 10184 11958 72103 10044 20032 30097 40105 50000 69901 70361 83016 333 31/// 55/// 20028 30028 55300 20000 30000 83470 87273
AAXX 03001 10200 15975 01906 10041 20025 30086 40084 58020 60001 333 55/// 20222 30158 55300 20000 30000
AAXX 03001 10224 12980 22104 10035 20020 30103 40109 58011 60001 82030 333 31/// 55/// 20201 30154 55300 20000 30000 82662
AAXX 03001 10270 16957 02103 10033 20021 30082 40138 50005 60001 222// 06064 333 55300
AAXX 03001 10338 12568 42104 10048 20024 30056 40129 58008 60001 81502 333 31/// 55/// 20121 30121 55300 20000 30000 81625 84071
AAXX 03001 10361 15964 11904 10025 20006 30043 40149 51003 60001 333 55/// 20075 30073 55300 20000 30000 81/74
AAXX 03001 10393 12465 82304 10053 20032 30019 40147 50007 60001 875// 333 31/// 55/// 20186 30163 55300 20000 30000 85619 87638
AAXX 03001 10400 12677 61805 10050 20024 30090 40140 58016 60001 81531 333 31/// 55/// 20203 30181 55300 20000 30000 81635 85075
AAXX 03001 10438 17938 21803 10017 20010 39874 40161 58007 60001 71000 333 55300 82/62
AAXX 03001 10469 12970 02003 10019 20007 39994 40163 50007 60001 333 31/// 55300
AAXX 03001 10488 11668 22403 10032 20015 39884 40170 52009 69921 70161 82500 333 31/// 55/// 20190 30183 42747 55300 20000 30000 40891 82634
AAXX 03001 10506 12970 32203 10013 20001 39578 40173 58011 60001 81031 333 31/// 55/// 20114 30114 55300 20000 30000 81363
AAXX 03001 10548 12970 02102 10011 21001 39628 40182 51005 60001 333 31/// 55/// 20149 30143 55300 20000 30000
AAXX 03001 10637 12971 51501 10000 21010 30043 40185 56001 60001 81031 333 34/// 55300 81363 85072
AAXX 03001 10685 17250 81801 10015 20015 39489 40175 53001 69931 71065 333 55/// 20376 30185 55300 20000 30000 81/05 88/19
AAXX 03001 10738 01665 72202 10057 20045 39716 40190 50000 60021 70262 8353/ 333 31/// 55300 69947 83635 86361 96463
AAXX 03001 10763 11565 72602 10043 20028 39798 40186 53008 69961 70262 875// 333 31/// 55/// 20285 30238 55300 20000 30000 87626
AAXX 03001 10788 07633 51201 10023 20023 39751 40192 53004 60011 76265 333 55/// 20227 30226 55300 20000 30000 60017 83/35 85/46
AAXX 03001 10852 07662 72501 10054 20051 39618 40192 50010 60031 76165 333 55/// 20377 30313 55300 20000 30000 60027 84/34 86/45 87/50
AAXX 03001 10946 07477 82403 10053 20035 39360 40196 51011 69961 76165 333 55/// 20606 30176 55300 20000 30000 69967 85/15 87/38 88/56
AAXX 03004 78925 11465 80503 10243 20238 40130 51008 60061 72586 8483/ 333 10298 20240 58002 70130 82818 83633 87366
AAXX 03004 78862 11480 60905 10256 20237 30117 40140 60001 71582 85802 333 10290 20251 58005 82817 85636
AAXX 03004 SCT023 PROB30 TEMPO 0204/0218 SHRA
AAXX 03004 TAF TQPF 011600Z 0118/0218 02006KT 9999 SCT023 PROB30 TEMPO 0204/0218 SHRA
AAXX 03004 TAF TUPJ 011600Z 0118/0218 02006KT 9999 SCT023 PROB30 TEMPO 0204/0218 SHRA
AAXX 03004 T020 PROB30 TEMPO 0100/0124 SHRA BKN015 BECMG 0110/0112 01006KT
AAXX 03004 TAF TUPJ 302200Z 0100/0124 VRBO2/00000KT 9999 SCT020 PROB30 TEMPO 0100/0124 SHRA BKN015 BECMG 0110/0112 01006KT
AAXX 03004 016 BKN032 BKN070 BKN260 TEMPO 2818/2918 15016G28KT 4000 +SHRA FEW013CB BKN014 PROB40 TEMPO 2823/2918 2000 +TSRA SCT010CB BKN250
AAXX 03004 TAF TUPJ 281600Z 2818/2918 11010KT 9999 SCT020 BKN270 TEMPO 2818/2918 SHRA BKN015 BKN036 PROB30 TEMPO 2818/2918 4000 TSRA FEW012CB
AAXX 03004 N015 BKN036 PROB40 TEMPO 0704/0724 3000 +TSRA SCT011CB BKN012 BECMG 0712/0714 14008KT
AAXX 03004 21/2712 07017G28KT 5000 SHRA BKN015 BKN036 PROB TEMPO 2700/2712 4000 TSRA FEW013CB
AAXX 03004 PROB30 TEMPO 0800/0806 4000 TSRA FEW012CB PROB40 TEMPO 0800/0824 2000 +SHRA/TSRA SCT010CB BKN012 BKN250
AAXX 03004 78897 11570 70902 10244 20234 40140 53016 69941 70262 82832 333 023// 10295 20231 58007 70080 81820 85366 85076
AAXX 03004 78897 11570 70902 10244 20234 40140 53016 69941 70262 82832 333 023// 10295 20231 58007 70080 81820 85366 85076
AAXX 03001 78221 NIL
AAXX 03001 78224 32659 30702 10193 20131 30141 40216 53012 83500 333 10249 83635
AAXX 03001 78229 42559 10704 10185 20126 30145 40220 52020 81400 333 81625
AAXX 03001 78239 11559 20409 10230 20137 30201 40204 52010 60004 70500 82200 333 10263 81820
AAXX 03001 78244 NIL
AAXX 03001 78243 42559 10402 10181 20143 30092 40216 52014 81100 333 81820
AAXX 03001 78255 42559 10405 10209 20142 30054 40203 52020 81500 333 10246 81820
AAXX 03001 78264 31559 63605 10222 20194 30097 40172 52020 70500 86210 333 10236 83820 85450
AAXX 03001 78265 31559 70304 10221 20166 30080 40180 52010 70546 83230 333 10229 83820 86359
AAXX 03001 78256 NIL
AAXX 03001 78259 NIL
AAXX 03001 78268 NIL
AAXX 03004 89664 32561 49905 11014 21086 39672 49712 53006 81878 333 10008 21060 56444 58010 81630 84270
AAXX 03001 10004 46/60 /2015 10082 20053 30046 40046 58024 222// 00101 333055300 91122 91217
AAXX 03004 89664 32561 49905 11014 21086 39672 49712 53006 81878 333 10008 21060 56444 58010 81630 84270
AAXX 03001 01037 16/// /2505 10025 21032 39781 49787 51014 69961 333 91112
AAXX 03001 01046 41689 63303 10012 21024 39774 49781 51016 70175 84440 333 91114
AAXX 03001 01058 16/// /3108 11015 21042 39311 49765 51026 60021 333 4/014 91114
AAXX 03001 01065 16/// /2302 10001 21024 39597 49755 52037 69971 333 91109
AAXX 03001 01092 46/// /2505 10015 21012 333 91111
AAXX 03001 01107 16/// /1305 10035 2//// 39810 49815 58026 60001 333 91112
AAXX 03001 01114 16/// /1403 10023 21039 39821 49831 58018 60001 333 91114
AAXX 03001 01144 46/// /2404 10034 21050 333 91116
AAXX 03001 01199 NIL
AAXX 03001 01245 NIL
AAXX 03001 01259 16/// /1512 10034 21032 39808 49830 56037 69931 333 91117
AAXX 03001 01262 NIL
AAXX 03001 01278 NIL
AAXX 03001 01293 16/// /2701 11032 21051 39673 49881 58033 60001 333 91106
AAXX 03001 01329 16/// /3503 10023 21011 39812 49873 58057 69931 333 91106
AAXX 03001 01337 16/// /0501 10022 21018 39810 49876 58058 60001 333 91108
AAXX 03001 01344 16/// ///// 11005 21050 6//// 333 4/015
AAXX 03001 01364 16/// /1006 11061 21088 38789 49914 50040 60001 333 4/027 91109
AAXX 03001 01373 16/// /0000 11052 21075 39740 49944 58031 60001 333 91102
AAXX 03001 01374 NIL
AAXX 03001 01380 16/// /1602 11079 21103 6//// 333 4/006 91108
AAXX 03001 01389 41985 30801 11080 21091 39658 49957 58018 70200 80008
AAXX 03001 01393 NIL
AAXX 03001 01424 16/// ///// 10003 21007 39907 49910 58053 60011
AAXX 03001 01431 16/// /1804 10005 21005 39267 49926 58049 60011 333 91110
AAXX 03001 01436 NIL
AAXX 03001 01465 16/// /2307 10050 20029 39945 49963 58039 60021 333 91112
AAXX 03001 01471 16/// /2301 11051 21071 60001 333 91103
AAXX 03001 01483 NIL
AAXX 03001 01025 16/// /2307 10016 21034 39783 49794 50007 6//// 333 91112
AAXX 03001 01052 16/// /2604 10011 21010 39653 49748 51015 60041 333 91115
AAXX 03001 01122 16/// /1701 11010 21019 39762 49851 58022 60001 333 91106
AAXX 03001 01132 16/// /1602 11020 21041 39483 49869 58017 69981 333 4/020 91109
AAXX 03001 01156 16/// /2705 10027 21043 39807 49817 58002 69951 333 91114
AAXX 03001 01203 46/// /1718 10050 20004 39728 49776 58068 333 91132
AAXX 03001 01233 16/// /3001 11048 21086 69941 333 91111
AAXX 03001 01265 NIL
AAXX 03001 01273 16/// /1504 11003 21067 39673 49868 58040 60001 333 91109
AAXX 03001 01307 46/// /1518 10061 20038 39779 49806 58074 333 91126
AAXX 03001 01321 NIL
AAXX 03001 01327 16/// /1005 10003 21008 60011 333 91108
AAXX 03001 01350 16/// /1311 11064 21071 38510 49880 58043 69921 333 91114
AAXX 03001 01361 16/// /0904 11032 21080 38848 49865 58037 60001 333 4/064 91112
AAXX 03001 01375 NIL
AAXX 03001 01378 16/// /1502 11030 21070 39642 49936 58026 60001 333 91105
AAXX 03001 01385 16/// /0302 11044 21066 39676 49951 58024 60001 333 91105
AAXX 03001 01412 16/// /1913 10062 20035 39869 49898 57052 60021 333 91121
AAXX 03001 01422 16/// /2007 10062 20019 69941 333 91117
AAXX 03001 01440 NIL
AAXX 03001 01441 NIL
AAXX 03001 01467 46/// /2204 10032 20013 39954 49959 58040 333 91107
AAXX 03001 01469 16/// /1701 11046 21070 39781 49956 58027 60001 333 91103
AAXX 03001 01477 16/// /3601 11057 21064 69921 333 91102
AAXX 03001 01480 16/// /0101 11040 21059 60001 333 91104
AAXX 03001 01484 16/// /1703 11042 21054 39813 49972 58018 69931 333 91105
AAXX 03001 01490 16/// /1903 11044 21056 60001 333 91107
AAXX 03001 01495 16/// /2208 10054 20000 39958 49971 58022 60001 333 91112
AAXX 03001 01121 46/// /1507 10033 21012 39818 49830 58032 333 91112
AAXX 03001 01135 16/// /1704 11004 21028 39699 49850 58017 60001 333 91109
AAXX 03001 01143 16/// /2302 11004 21043 69991 333 91109
AAXX 03001 01150 16/// /0701 11018 21035 60041 333 91108
AAXX 03001 01192 16/// /2705 10008 21056 60011 333 4/003 91111
AAXX 03001 01225 46/// /1406 10049 21024 39804 49809 58041 333 91113
AAXX 03001 01230 16/// /1002 11007 21071 60001 333 4/025 91112
AAXX 03001 01232 16/// /1306 10047 21059 39750 49827 58052 60001 333 4/006 91116
AAXX 03001 01234 16/// /2202 11013 21026 60001 333 91104
AAXX 03001 01253 16/// /2602 11020 21043 60001 333 91105
AAXX 03001 01254 16/// /2601 11028 21035 69941 333 91103
AAXX 03001 01257 NIL
AAXX 03001 01277 NIL
AAXX 03001 01291 16/// /1205 11002 21020 60001 333 91108
AAXX 03001 01332 NIL
AAXX 03001 01366 46/// /1605 11089 21116 38276 49899 58039 333 91111
AAXX 03001 01370 16/// /1904 11073 21105 38819 40007 58029 60001 333 4/011 91109
AAXX 03001 01376 16/// /0501 11035 21059 60001 333 91105
AAXX 03001 01383 46/// /1105 11039 21065 39630 49947 58020 333 91107
AAXX 03001 01386 16/// ///// 11047 21068 60001
AAXX 03001 01416 16/// ///// 10062 20019 60011
AAXX 03001 01419 16/// /2105 10035 20010 60021 333 91114
AAXX 03001 01430 16/// ///// 10074 20027 60001
AAXX 03001 01434 16/// /0702 11045 21060 38959 49917 58045 60001 333 91104
AAXX 03001 01455 16/// /1502 11014 21035 39645 49957 58040 60001 333 91105
AAXX 03001 01468 16/// /1301 11045 21063 60001 333 91104
AAXX 03001 01470 16/// /2801 11025 21040 39845 49961 58035 69921 333 91103
AAXX 03001 01476 NIL
AAXX 03001 01481 16/// /2101 11016 21045 39932 49964 58026 60001 333 91103
AAXX 03001 01488 NIL
AAXX 03001 01015 NIL
AAXX 03001 01023 41580 52602 11011 21020 39715 49809 51011 72682 84878 333 91110
AAXX 03001 01033 46/// /2509 10014 21017 39748 49778 53012 333 91119
AAXX 03001 01059 16/// /3006 10017 21028 39744 49753 51029 6//// 333 91116
AAXX 03001 01089 16/// /2303 10005 21002 39612 49715 52006 6//// 333 91110
AAXX 03001 01167 41681 61901 11004 21028 39816 49820 50004 70187 83570 333 91111
AAXX 03001 01180 NIL
AAXX 03001 01210 16/// /1611 10064 21027 39759 49785 58062 6//// 333 91119
AAXX 03001 01228 46/// /1607 10043 21034 39807 49814 58040 333 91112
AAXX 03001 01240 16/// /1515 10049 21015 39798 49817 58043 6//// 333 91121
AAXX 03001 01304 46/// /1623 10058 20033 39751 49781 58068 333 91131
AAXX 03001 01311 46/// /1512 10041 20023 39784 49845 58062 333 91117
AAXX 03001 01340 16/// /1106 11014 21053 39033 49896 58049 60001 333 91112
AAXX 03001 01355 16/// ///// 10019 21047 39872 49877 58060 60001
AAXX 03001 01360 NIL
AAXX 03001 01392 16/// /2201 11048 21062 39737 49967 58013 69921 333 91102
AAXX 03001 01406 46/// /1817 10076 20037 39825 49843 58066 333 91125
AAXX 03001 01411 16/// /1817 10075 20028 39846 49871 58066 6//// 333 91122
AAXX 03001 01425 NIL
AAXX 03001 01433 46/// /1607 11024 21045 38661 49906 56043 333 91111
AAXX 03001 01442 NIL
AAXX 03001 01450 NIL
AAXX 03001 01452 16/// /3601 10005 21001 39940 49961 58039 60021 333 91105
AAXX 03001 01473 16/// /2701 11052 21060 39748 49961 58029 6//// 333 91104
AAXX 03001 01494 16/// /1601 11002 21030 39907 49972 58018 60001 333 91107
AAXX 03004 68386 16/// /3102 10210 20198 39699 48612 57006 60033 333 10307 20208 91003 555 20030 91023
BBXX BATFR31 03004 99425 10070 46/// /2014 10177 20132 40181 52002 22233 00182
BBXX BATEU04 03004 99631 70086 46/// /0711 10039 20005 4//// 22262
BBXX PHCQ 03003 99475 70098 41497 82416 10124 20097 40192 52015 70211 8//// 22253 04138 20308 327// 40804 5//// 80109
BBXX BATEU07 03004 99288 31116 46/// /0815 10252 20039 40082 51005 22233
BBXX BATFR08 03004 99234 30549 46/// /0819 10234 20182 40130 56004 22243 00252
BBXX BATFR01 03004 99359 70058 46/// /3320 10142 20074 40224 53005 22200 00184
BBXX BATFR58 03004 99433 10076 46/// ///// 40187 56007 22200 00185
BBXX BATFR30 03004 99422 10073 46/// /1821 10179 20134 40179 22233 00180
BBXX BATFR27 03004 99502 70015 46/// /2337 10117 20085 40089 56033 22243 00145
BBXX BATEU09 03004 99398 10137 46/// /1715 10174 20129 40230 22251 00189
BBXX BATFR24 03004 99430 10074 46/// ///// 10174 20127 40183 56007 22224 00164
BBXX FVNM 03004 99142 71168 46/// /0507 10267 20219 40122 56007 22200 00270
BBXX BATFR60 03004 99469 70027 46/// /2331 10130 20057 40177 22242 00144
BBXX BATFR52 03004 99502 70041 46/// /2538 10124 20099 40092 22243 00132
BBXX BATFR02 03004 99504 70008 46/// /2040 10115 20087 40098 22243 00134
BBXX BATFR59 03004 99190 31590 46/// /1007 10267 20234 40091 58002 22231 00277
BBXX BATFR04 03004 99584 70062 46/// /2651 10082 20020 4//// 22200 00110
BBXX BATFR12 03004 99483 70072 46/// /2422 10127 20109 40168 56018 22200 00149
BBXX BATEU06 03004 99473 70705 46/// /0214 11005 21030 40268 53026 22283 00047
BBXX BATFR05 03004 99052 70039 46/// /2210 10280 20249 40122 58002 22200 00267
BBXX BATFR45 03004 99053 30393 46/// ///// 10275 20239 40086 56012 22254 00299
BBXX BATEU01 03004 99525 10038 46/// /2319 10107 20034 40072 58047 222// 00119
BBXX BATFR20 03004 99429 10068 46/// /1812 10172 20147 40179 50000 22223
AAXX 03001 10609 11638 42403 10009 20006 39850 40189 58003 60001 71011 81501 333 31/// 55/// 20082 30080 55300 20000 30000 81645 84073
AAXX 03001 10616 12870 52503 10013 20002 39572 40185 58002 60001 81031 333 31/// 55300 81358 85075
AAXX 03001 10641 17550 51902 10015 20009 30033 40184 52001 60001 71000 333 55300 85/30
AAXX 03001 10655 11957 02101 10039 20035 39852 40186 51009 60001 71011 333 31/// 55/// 20281 30196 55300 20000 30000
AAXX 03001 10675 17557 73301 10046 20034 39886 40181 53003 69911 71065 333 55/// 20285 30233 55300 20000 30000 84/23 87/30
AAXX 03001 10688 07244 72003 10047 20047 39649 40176 53003 60021 72365 333 55/// 20334 30242 55300 20000 30000 69917 86/05 86/12 87/16
AAXX 03001 10708 11159 31701 10018 20015 39802 40197 50003 60001 71111 81601 333 31/// 55/// 20092 30091 55300 20000 30000 81702 83075
AAXX 03001 10729 15558 82001 10051 20048 30072 40196 50004 60001 333 55/// 20272 30213 55300 20000 30000 87/23 88/39
AAXX 03001 10731 17536 82203 10059 20054 30045 40190 53005 69911 71065 333 55/// 20273 30216 55300 20000 30000 81/22 87/40 88/73
AAXX 03001 10742 17641 82602 10053 20047 39855 40190 51010 69911 71065 333 55/// 20223 30190 55300 20000 30000 88/43
AAXX 03001 10776 07623 71702 10031 20030 39736 40188 51005 60031 76165 333 55/// 20161 30161 55300 20000 30000 60027 86/36 87/44
AAXX 03001 10791 06/// /2706 11010 21010 38521 48466 53001 60021 333 55300 60017 91116 91212
AAXX 03001 10805 07539 71601 10052 20048 30003 40197 50005 60031 72065 333 55/// 20080 30080 55300 20000 30000 69917 87/27
AAXX 03001 10815 07275 72604 10026 20026 39241 48472 50001 60021 70065 333 55/// 20128 30125 55300 20000 30000 69917 81/04 87/60
AAXX 03001 10836 07366 72504 10037 20037 39310 40187 50001 60061 75765 333 55/// 20242 30221 55300 20000 30000 60027 84/08 87/42 87/56
AAXX 03001 10870 01359 82702 10060 20055 39653 40190 51013 69991 76366 8262/ 333 31/// 55300 69997 82707 88523
AAXX 03001 10895 17001 81901 11009 21009 39613 40201 53009 60001 73533 333 55/// 20321 30235 55300 20000 30000 88/00
AAXX 03001 10908 06001 82107 11002 21002 38482 48479 58002 60081 333 55/// 20070 30070 55300 20000 30000 60037 88/00
AAXX 03001 10929 01469 82402 10063 20055 39665 40200 51009 60041 76362 8452/ 333 31/// 55/// 20566 30248 55300 20000 30000 60037 82616 83630 88543
AAXX 03001 10948 07581 82901 10056 20039 39244 48489 51007 69911 75765 333 55/// 20569 30143 55300 20000 30000 69917 83/23 87/27 88/40
AAXX 03001 10961 46/// /2108 11053 21053 37060 47027 50000 333 55/// 20691 42089 55300 20000 41127 91124 91214
AAXX 03001 10962 01/15 82503 10043 20039 39038 48483 51009 60011 76162 887// 333 31/// 55/// 20652 30175 55300 20000 30000 60017 817// 88704 96010
AAXX 03001 10980 46/// /2806 11001 21006 38137 48484 50002 333 55/// 20571 30145 55300 20000 30000
AAXX 03001 10007 NIL
AAXX 03001 10044 NIL
AAXX 03001 10046 41465 52105 10046 20029 30043 40082 57011 70161 82801 333 81813 85069
AAXX 03001 10091 17357 62309 10038 20038 30036 40088 58003 60001 71000 333 55/// 20064 30064 55300 20000 30000 86/08 91114 91211
AAXX 03001 10113 17974 02007 10049 20034 30056 40075 58020 69901 70050 333 55/// 20261 30155 55300 20000 30000
AAXX 03001 10124 NIL
AAXX 03001 10131 17966 52106 10045 20027 30073 40088 56012 69901 70086 333 55/// 20154 30124 55300 20000 30000 85/80
AAXX 03001 10170 12660 12105 10045 20031 30082 40098 58004 60001 81500 333 31/// 55/// 20071 30070 55300 20000 30000 81645
AAXX 03001 10264 16256 72205 10038 20028 30008 40116 58002 60001 333 55/// 20045 30045 55300 20000 30000 81/05 84/67 87/70
AAXX 03001 10291 12467 82304 10052 20034 30064 40132 50005 60001 876// 333 31/// 55/// 20102 30101 55300 20000 30000 87711
AAXX 03001 10315 12668 31905 10047 20031 30061 40126 58018 60001 83501 333 31/// 55/// 20184 30149 55300 20000 30000 83640
AAXX 03001 10379 12577 22205 10027 20015 30018 40142 50005 60001 82501 333 31/// 55/// 20110 30105 42836 55300 20000 30000 40917 82624
AAXX 03001 10382 12475 62203 10046 20024 30095 40141 50004 60001 86500 333 31/// 55300 81614 86626
AAXX 03001 10384 16/// /2304 10052 20028 30082 40143 50007 60001 333 55/// 20121 30120 55300 20000 30000
AAXX 03001 10427 11045 32308 11009 21009 39134 48429 58005 60001 72844 83600 333 31/// 55/// 20042 30042 55300 20000 30000 83701 91113 96445 96441
AAXX 03001 10430 17958 01802 10033 20017 39949 40144 58011 60001 70010 333 55/// 20043 30043 55300 20000 30000
AAXX 03001 10439 42565 22004 10021 20007 39941 40166 58006 81501 333 81628
AAXX 03001 10453 11/90 92316 11027 21027 38789 48417 58005 69911 74944 333 46001 55300 91120 91216 96449
AAXX 03001 10496 05563 82303 10051 20034 30069 40155 50006 69901 333 55/// 20167 30155 55300 20000 30000 69907 85/25 88/33
AAXX 03001 10499 11565 72104 10039 20024 39868 40162 51004 69921 70262 875// 333 31/// 55/// 20227 30208 55300 20000 30000 87633
AAXX 03001 10505 12682 72208 10049 20022 39866 40150 58013 60001 8153/ 333 31/// 55/// 20206 30177 55300 20000 30000 81640 86360 91113
AAXX 03001 10513 12669 71704 10038 20016 30037 40160 58013 60001 85501 333 31/// 55/// 20115 30113 55300 20000 30000 85640 83075
AAXX 03001 10532 17949 71802 10011 20009 39919 40174 58005 60001 71000 333 55/// 20072 30072 55300 20000 30000 83/66 85/68 87/70
AAXX 03001 10544 11/01 92208 11008 21008 39076 48446 51001 60001 74941 333 31/// 55300 96045 96441 96410
AAXX 03001 10554 12980 32304 10009 21002 39771 40169 50001 60001 80008 333 34/// 55/// 20192 30162 55300 20000 30000 83280
AAXX 03001 10567 12975 02104 10008 20002 39787 40172 50002 60001 333 31/// 55/// 20363 30220 55300 20000 30000
AAXX 03001 10578 11/01 72506 11024 21024 38754 48448 51003 69991 74142 876// 333 43001 55/// 20485 30202 55300 20000 30000 877//
BBXX DBBA 03001 99536 10086 46/// ///// 10044 20030 40086 57012 22200 00111
BBXX DBEB 03001 99539 10079 41/// /2113 10052 20052 40077 5//// 7//// 222// 00086
BBXX DBFH 03001 99555 10084 46/// /2307 10065 20039 40036 57015 22220 00079
AAXX 03004 89664 32561 49905 11014 21086 39672 49712 53006 81878 333 10008 21060 56444 58010 81630 84270
AAXX 03004 07005 04/70 /2112 10071 20047 30053 40144 58016 69941 761// 333 69907 90710 91120 555 69905
AAXX 03004 07015 01680 72112 10065 20043 30078 40136 58020 69921 70386 8555/ 333 69927 85645 87359 90710 91117 93100 555 60005
AAXX 03004 07020 06/// /2227 10112 20103 30101 40128 58033 60031 333 60027 90710 91138 555 69965
AAXX 03004 07027 04786 81915 10078 20044 30077 40159 58019 60001 700// 333 60007 90710 91125 555 60005
AAXX 03004 07037 04786 /2110 10063 20045 39979 40165 58016 60001 700// 333 60007 90710 91117 555 60005
AAXX 03004 07070 04970 62105 10039 20016 30067 40180 58010 60001 700// 333 60007 90710 91109 555 60005
AAXX 03004 07110 01457 82416 10111 20095 30050 40165 58021 60011 76162 875// 333 60017 87613 90710 91123 555 69925
AAXX 03004 07117 01458 82316 10102 20094 30079 40149 56026 60021 76162 8472/ 333 60027 90710 91130 92436 555 60015
AAXX 03004 07130 04665 82008 10077 20060 30138 40191 58015 60011 761// 333 60017 90710 91114 555 69985
AAXX 03004 07139 06/// /2407 10074 20034 30011 40187 58012 60001 333 60007 90710 91113 555 60005
AAXX 03004 07149 02970 82207 10058 20041 30076 40187 58009 60001 8707/ 333 60007 87360 90710 91112 93100 555 60005
AAXX 03004 07168 04/65 /1804 10026 20013 30056 40203 58004 60001 700// 333 60007 90710 91112 555 60005
AAXX 03004 07181 04960 /2007 10021 20017 39783 40205 50003 60001 700// 333 60007 90710 91108 555 60005
AAXX 03004 07190 04450 70201 10047 20037 30010 40197 50003 69901 700// 333 60007 90710 91104 555 60005
AAXX 03004 07207 02560 82724 10122 20075 60001 83250 222// 327// 333 60007 91035 90710 91137 92437 555 60005
AAXX 03004 07222 01665 72006 10080 20063 30179 40211 58006 69901 70162 8253/ 333 69907 82636 87360 90710 91107 555 60005
AAXX 03004 07240 02980 72107 10071 20046 30072 40210 58006 60001 83032 333 60007 83365 87073 90710 91112 93100 555 60005
AAXX 03004 07255 04965 /2206 10054 20045 30017 40222 50000 60001 700// 333 60007 90710 91109 555 60005
AAXX 03004 07280 04959 81803 10043 20036 39937 40217 52006 60001 700// 333 60007 90710 91108 555 60005
AAXX 03004 07299 04685 82307 10076 20064 39869 40200 52004 60031 700// 333 60017 90710 91111 555 69905
AAXX 03004 07314 02870 52615 10127 20063 30203 40231 58005 60001 85070 333 60007 83356 90710 91120 92438 555 60005
AAXX 03004 07335 04975 72105 10052 20042 30080 40229 58002 60001 700// 333 60007 90710 91107 555 60005
AAXX 03004 07434 04956 62403 10048 20041 39748 40239 50003 60001 700// 333 60007 90710 91105 555 60005
AAXX 03004 07460 02575 70000 10055 20043 39834 40232 52006 60001 8352/ 333 60007 81626 83643 87466 90710 91102 93100 555 60005
AAXX 03004 07471 04470 82603 10049 20032 39242 48826 51001 60001 700// 333 60007 90710 91106 555 60005
AAXX 03004 07481 02557 82002 10085 20070 39928 40219 51004 60001 875// 333 60007 83624 87633 90710 91103 93100 555 60005
AAXX 03004 07510 01/59 72001 10043 20037 30179 40247 50002 60001 71111 80002 333 60007 87073 90710 91103 93100 555 60005
AAXX 03004 07535 06/// /1901 10043 20042 39927 40249 51010 60001 333 60007 90710 91103 555 60005
AAXX 03004 07558 06/// /3109 10051 20033 39381 40232 51006 60001 333 60007 90710 91112 555 60005
AAXX 03004 07577 04/70 /3610 10108 20065 30119 40209 50011 60001 700// 333 60007 90710 91124 555 60005
AAXX 03004 07591 04/// /2304 10074 20067 39180 4//// 50000 60021 760// 333 60027 90710 91107 555 69945
AAXX 03004 07607 04909 /0000 10022 20019 30183 40258 50007 60001 745// 333 60007 90710 91102 555 60005
AAXX 03004 07621 01670 62006 10055 20051 39817 40261 51008 69941 70165 86500 333 60007 86646 90710 91107 93100 555 60005
AAXX 03004 07627 06/// /0000 10064 20053 39758 40256 51007 69981 333 69947 90710 91103 555 60005
AAXX 03004 07630 04768 82709 10082 20068 30065 40249 51007 60001 700// 333 60007 90710 91113 555 60005
AAXX 03004 07643 04985 /0101 10083 20052 30195 40205 51010 60001 700// 333 60007 90710 91103 555 60005
AAXX 03004 07650 01111 50000 10109 20100 30152 40191 51004 60021 71062 8163/ 333 60027 81702 84360 90710 91103 93100 555 69905
AAXX 03004 07661 06/// /0405 10135 20127 30024 40184 50003 60041 333 60047 90710 91111 555 60005
AAXX 03004 07690 01780 73304 10126 20105 30158 40192 56004 60151 72186 86502 333 60017 84650 83658 90710 91110 93100 555 60015
AAXX 03004 07747 04986 /3010 10110 20053 30163 40217 51010 60001 700// 333 60007 90710 91123 555 60005
AAXX 03004 07761 04985 /0308 10102 20058 30192 40203 50001 60001 700// 333 60007 90710 91113 555 60005
AAXX 03004 07790 04985 /1905 10094 20065 30182 40197 58003 60001 700// 333 60007 90710 91107 555 60005
AAXX 03001 45032 36/// /0601 10073 20042 30185 40202 52002
AAXX 03001 45035 36/// /0803 10100 20043 30159 40202 52003
AAXX 03001 45039 36/// /0102 10107 20028 30180 40196 52001
AAXX 03001 45044 36/// /3506 10114 20065 30092 40189 52002
AAXX 03001 45032 36/// /0601 10073 20042 30185 40202 52002
AAXX 03001 45035 36/// /0803 10100 20043 30159 40202 52003
AAXX 03001 45039 36/// /0102 10107 20028 30180 40196 52001
AAXX 03001 45044 36/// /3506 10114 20065 30092 40189 52002
AAXX 03004 78073 12465 30414 10227 20144 40226 60001 83100 333 10250 20213 58037 83818
AAXX 03004 78073 12465 30414 10227 20144 40226 60001 83100 333 10250 20213 58037 83818
AAXX 03004 78982 02484 30512 10281 20247 30105 40110 52015 60001 83200 333 10312 20263 58001 60007 83818
AAXX 03004 78858 12479 60509 10268 20239 30086 40142 60001 85830 333 10291 20251 58006 70000 84816 84644
AAXX 03001 89061 179// 02804 10001 21003 39941 49948 52040 60074 70077 333 10009 20001 91006 91109
AAXX 03001 11816 11125 80702 11005 21010 30039 40208 58001 60001 71022 886// 333 55000 88703 93405
AAXX 03001 11826 17/27 /2301 11007 21020 30003 40210 52001 60001 71011 333 55000
AAXX 03001 11903 11340 80601 10011 21000 39814 40204 55000 60001 71022 886// 333 55019 83707 88712
AAXX 03001 11934 11256 62802 11013 21017 39350 42782 50000 60001 71011 86600 333 55061 86706
AAXX 03001 11968 11228 82301 11021 21032 39918 40210 56002 69901 71072 886// 333 55000 88705
AAXX 03004 61901 169// /1213 10157 20141 39682 40193 50000 60001 92350 333 8//99 555 7/090
AAXX 03004 88889 12689 12907 10110 20059 30028 40112 52008 60001 81801 92350 333 10162 81840
AAXX 03004 91503 11480 31406 10310 20246 40071 50000 60134 70500 82950 333 20240 56000 58018 82819 81920
AAXX 03004 91517 31475 30506 10309 20250 40075 54000 71500 82901 333 20244 56209 58012 82819 81920
AAXX 03004 03005 11462 72329 10069 20030 39594 49691 58051 60061 72582 8797/ 92350 333 55/// 20035 81916 83626 90710 91140
AAXX 03004 03017 17662 /2431 10064 20049 39696 49726 57050 60031 723// 92350 333 55/// 20079 81/31 84/38 90710 91143 91041
AAXX 03004 03023 17562 /2742 10065 20030 39836 49841 53003 69961 723// 92350 333 81/27 83/46 90710 91164 91061
AAXX 03004 03026 17762 /2533 10071 20021 39761 49779 55006 60021 723// 92350 333 55/// 20078 81/50 90710 91151 91047
AAXX 03004 03063 17563 /2210 10050 20018 39566 49837 50000 60021 781// 92350 333 55/// 20104 82/26 84/67 90710 91127 91026
AAXX 03004 03066 17580 /2429 10058 20028 39806 49812 55002 69941 782// 92350 333 55/// 20122 82/25 86/50 90710 91144 91044
AAXX 03004 03075 17570 /2231 10057 20031 39717 49760 57032 60011 723// 92350 333 83/24 83/63 90710 91142 91041
AAXX 03004 03091 15781 /2618 10085 20015 39745 49822 56029 60001 92350 333 55/// 20137 81/50 90710 91130 91028
AAXX 03004 03100 NIL
AAXX 03004 03111 16660 /2826 10092 20050 39907 49919 55004 60011 92350 333 82/45 87/68 90710 91143
AAXX 03004 03134 17667 /2713 10074 20039 39823 49894 56009 60031 723// 92350 333 55/// 20179 84/30 85/69 90710 91127
AAXX 03004 03136 17762 /2617 10093 20052 39883 49916 55006 60031 723// 92350 333 55/// 20106 83/50 86/69 90710 91139
AAXX 03004 03162 17481 /2216 10081 20061 39634 49913 56023 60061 781// 92350 333 55/// 20107 81/16 86/19 90710 91127 91027
AAXX 03004 03166 17761 /2518 10085 20056 39815 49883 55016 69921 723// 92350 333 55/// 20182 81/56 87/69 90710 91132
AAXX 03004 03171 11684 62625 10089 20033 39846 49858 56021 69901 70162 81501 92350 333 55/// 20169 81640 86070 90710 91136
AAXX 03004 03204 11470 72620 10109 20088 39935 49954 56019 60031 72586 875// 92350 333 55/// 20125 82712 83620 87656 90710 91133 91030
AAXX 03004 03240 NIL
AAXX 03004 03257 17467 /1911 10077 20066 39905 49945 56048 69901 723// 92350 333 55/// 20164 83/15 83/24 85/29
AAXX 03004 03292 164// /2111 10064 20044 39945 49964 56049 60001 92350 333 86/16 87/59 90710 91125
AAXX 03004 03302 17341 /2323 10111 20100 39974 49986 56019 60021 723// 92350 333 55/// 20116 81/09 86/20 90710 91133
AAXX 03004 03354 17371 /2212 10074 20068 39860 40001 57045 69941 723// 92350 333 55/// 20223 87/07 90710 91132 91022
AAXX 03004 03377 12483 72122 10075 20053 39913 49996 56050 60001 8557/ 92350 333 55/// 20269 84712 85625 87359 90710 91133
AAXX 03004 03414 17978 /2417 10103 20084 39909 49995 56039 69901 781// 92350 333 55/// 20174 87/58 90710 91127
AAXX 03004 03462 17484 /2018 10069 20052 39931 40020 56047 69921 723// 92350 333 55/// 20297 86/12 83/60 90710 91128
AAXX 03004 03482 17772 /2017 10069 20048 30007 40032 58047 69901 781// 92350 333 86/50 86/62 90710 91125
AAXX 03004 03502 17366 /2426 10105 20100 39869 40028 56021 60051 723// 92350 333 55/// 20114 82/08 87/16 90710 91136
AAXX 03004 03535 17363 /2016 10075 20071 39899 40015 56045 69941 751// 92350 333 55/// 20302 86/07 87/16 90710 91131
AAXX 03004 03590 15484 /2217 10070 20043 39947 40057 58042 60001 92350 333 55/// 20369 81/19 86/50 86/61 90710 91127 91027
AAXX 03004 03649 11480 82212 10096 20069 39942 40041 57048 69901 76062 8752/ 92350 333 87616 88458 90710 91126 91023
AAXX 03004 03716 17259 /2524 10112 20104 39990 40048 56034 60041 761// 92350 333 55/// 20184 86/05 85/16 90710 91136 91034
AAXX 03004 03740 16372 /2113 10090 20076 39878 40052 56043 60001 92350 333 55/// 2//// 87/08 86/16 90710 91128 91028
AAXX 03004 03746 17481 /2216 10096 20078 39918 40070 56042 69901 722// 92350 333 86/15 83/50 90710 91126
AAXX 03004 03772 17573 /2016 10089 20073 30037 40068 58044 69921 761// 92350 333 55/// 20321 84/22 84/56
AAXX 03004 03796 46/// /2423 10086 20070 39952 40094 58032 92350 333 90710 91136 91036
AAXX 03004 03803 17250 /2525 10115 20112 30074 40112 58019 69981 751// 92350 333 86/04 84/12 90710 91137 91037
AAXX 03004 03808 11456 82515 10107 20099 39996 40101 58023 60051 76362 885// 92350 333 55/// 20371 87710 88620 90710 91128
AAXX 03004 03809 11340 82518 10111 20104 30011 40103 57024 60061 76362 887// 92350 333 83706 85710 90710 91135 91035
AAXX 03004 03827 NIL
AAXX 03004 03840 17373 /2313 10085 20083 39774 40077 56031 60031 761// 92350 333 87/06 84/14
AAXX 03004 03853 17584 /2114 10108 20084 30047 40071 56035 69921 723// 92350 333 55/// 20235 87/22
AAXX 03004 03874 46/// /2530 10109 20095 30070 40081 58040 92350 333 90710 91139
AAXX 03004 03882 17459 /2312 10091 20078 30033 40096 58034 69981 762// 92350 333 55/// 20294 82/15 86/28 91024
AAXX 03004 03894 11260 82420 10107 20103 40133 57030 60051 76362 885// 333 81704 84708 87618 90710 91133
AAXX 03004 03917 17665 /2513 10085 20049 39882 49958 53006 60021 723// 92350 333 55/// 20095 86/45 85/67 90710 91130
AAXX 03004 91503 11480 31406 10310 20246 40071 50000 60134 70500 82950 333 20240 56000 58018 82819 81920
AAXX 03004 91517 31475 30506 10309 20250 40075 54000 71500 82901 333 20244 56209 58012 82819 81920
BBXX 46001 03001 99563 71480 46/// /2209 10059 40259 54000 92350 22200 00052 11309 20605 300// 41307 70046 333 91211 555 11096 22104 32301 42213 62349 224089 225087 230093 228092 227096 226096
BBXX 46082 03001 99597 71434 46/// ///// 10065 20065 40192 52003 92350 22200 00064 11109 70044
BBXX 46072 03001 99517 71722 46/// /1610 10069 20068 49865 56082 92350 22200 00057 11107 20805 3//// 41105 70035 333 91211 555 11105 22114 32340 41612 62349 159097 155097 152097 148096 140096 130096 81510 92328
BBXX 46085 03001 99559 71425 46/// /2412 10064 20029 40298 92350 555 11124 22133
BBXX 46077 03001 99579 71543 46/// /0604 10039 20037 40190 51007 92350 22200 00049 10903 20401 3//// 40903 70013 333 91204 555 11036 22038 32301 40804 62349 061035 071034 075034 080031 084035 082038 80804 92259
BBXX 46035 03001 99571 71778 46/// /2307 1//// 40015 58006 92350 22200 11107 20602 300// 41106 70033 333 91209 555 11070 22074 32255 42210 62349 227070 223069 221072 220075 218068 228081 82309 92251
BBXX 42039 03001 99288 70860 46/// /0708 10198 40270 51010 92350 22200 00235 10602 20602 70012 333 91211 555 11088 22092 32331 40711 62349 065083 068088 067079 064082 059077 057077 80710 92331
BBXX 41040 03001 99145 70530 46/// /0808 10270 20221 40136 51012 92350 22200 00276 10905 20603 3//// 40904 70023 333 91210 555 11086 22091 32308 40810 62349 080081 080077 077079 073080 074081 074078 80710 92308
AAXX 03001 02926 47581 42703 10021 21011 39901 49913 52008 700// 84/// 90000
AAXX 03001 02963 46/// /2103 10004 21006 49919
AAXX 03001 02974 41599 52404 11001 21012 39859 49926 52012 70261 85500
AAXX 03001 02741 47999 02603 11013 21025 39938 49954 52015 70000 92339
AAXX 03001 02755 47999 12402 11012 21021 39757 49851 54000 70000 81/// 92339
AAXX 03001 02805 47799 83408 10008 21008 39603 49731 52027 70076 85/// 92339
AAXX 03001 02836 47383 82702 10004 20002 39538 49755 52019 72387 88/// 92339
AAXX 03001 02845 47210 92204 11002 21002 39524 49767 52006 76787 92339
AAXX 03001 02849 47346 82205 10007 21003 39497 49763 57002 77187 88/// 92339
AAXX 03001 02866 47569 72105 11002 21010 39663 49809 57003 77774 87/// 92339
AAXX 03001 02924 47983 00000 11020 21020 39688 49885 54000 70000 92339
AAXX 03001 02935 47983 52402 11002 21013 39712 49884 57003 70000 85/// 92339
AAXX 03001 02939 47144 81902 10004 20004 39681 49872 57016 76786 88/// 92339
AAXX 03001 02947 47583 72602 10005 21001 49894 54000 70080 87/// 92351
AAXX 03001 02976 46/// /2806 10028 20022 39895 49911 52003 92339
AAXX 03001 02981 47499 32809 10035 21003 39941 49951 52015 70000 81/// 92339
AAXX 03001 02982 46/// /2911 10043 20003 39933 49941 52015 92339
AAXX 03001 02807 NIL
AAXX 03001 02897 NIL
AAXX 03001 02913 NIL
AAXX 03001 02917 NIL
AAXX 03001 02944 NIL
AAXX 03001 02917 47499 22203 10004 21018 39748 49869 700// 82/// 90000
AAXX 03001 02807 47460 82905 10007 20003 39560 49737 761// 88/// 90000
AAXX 03001 02947 47/83 72602 10005 21001 49894 54000 70080 87/// 92351
AAXX 03001 02897 47499 72303 10005 21016 39667 49846 700// 87/// 90000
AAXX 03001 89061 179// 02804 10001 21003 39941 49948 52040 60074 70077 333 10009 20001 91006 91109
AAXX 03001 02944 47599 72204 10004 21005 39763 49909 700// 87/// 90000
AAXX 03001 02913 47799 12303 11008 21019 39821 49873 700// 81///
BBXX 46072 03001 99517 71722 46/// /1610 10069 20068 49865 56082 92350 22200 00057 11107 20805 3//// 41105 70035 333 91211 555 11105 22114 32340 41612 62349 159097 155097 152097 148096 140096 130096 81510 92328
BBXX 51004 03001 99175 71524 46/// /0808 10245 20206 40133 58022 92350 22200 00250 11505 20703 334// 41504 70026 333 91209 555 11084 22089 32327 40710 62349 075080 070086 074083 070081 070083 070084
BBXX 51002 03001 99171 71578 46/// /0907 10248 40135 58021 92350 22200 00249 333 91208 555 11074 22078 32349 40710 62349 086070 087075 078069 066068 061074 063078
BBXX 51100 03001 99236 71539 46/// /1110 10231 40175 58024 92350 22200 00238 10908 20506 309// 40905 70038 333 91213 555 11109 22116 32304 41114 62349 112102 116104 113111 109117 108119 110111
BBXX 46026 03001 99378 71228 46/// /3211 10120 40145 56014 92350 22200 00116 11005 20804 331// 41004 70025 333 91213 555 11114 22122 32349 43213 62349 310106 280106 277095 275078 278087 278095
BBXX 46015 03001 99427 71248 46/// ///// 10100 30285 40285 55000 92350 22200 00105 11507 70036
BBXX 46041 03001 99474 71247 46/// /3506 10085 40322 54000 92350 22200 00102 11107 20502 3//// 41107 70036 333 91207 555 11060 22062 32306 43309 62349 352058 348064 337064 333068 333068 330064
BBXX 45008 03001 99443 70824 46/// /2104 10005 30106 40328 51014 92350 22200 00076 10501 20401 3//// 40501 70004 333 91207 555 11044 22046 62349 210042 211040 219039 213030 220029 218015
BBXX 45002 03001 99453 70864 46/// /2210 10022 21028 30061 40283 56009 92350 22200 10502 20502 70011 333 91212 555 11107 22114 32334 42213 62349 218100 219104 218102 215096 217096 215097
BBXX 44007 03001 99435 70701 46/// /2502 10077 40256 51018 92350 22200 00092 11002 20401 3//// 41002 70009 333 91203 555 11015 22016 32251 42505 62349 247015 265017 264029 256032 261035 254038
BBXX 44013 03001 99423 70707 46/// /3006 10097 20002 40258 51019 92350 22200 00100 11001 20601 300// 41001 70007 333 91208 555 11065 22068 32349 43008 62349 303061 298063 301059 257033 239031 238035
AAXX 03001 14648 12970 32701 10081 20060 30123 40244 57006 60001 83030 333 83359
AAXX 03001 14652 12984 12211 11003 21012 37976 48540 58003 60001 81030 333 81360
AAXX 03001 14542 12965 23401 10030 20020 30030 40227 54000 60001 82030 333 82360 95900
AAXX 03004 78905 11478 72702 10232 20219 30117 40140 69901 70286 87800 333 10256 20232 58007 82817 87840 90960
AAXX 03004 48601 11559 63502 10251 20241 30082 40086 69904 70522 81841 333 20241 50360 59008 79999 81820 86078
AAXX 03004 48615 11557 72302 10247 20231 30086 40092 69924 70592 83548 333 20237 50250 59013 70002 83620 87272
AAXX 03004 48620 11030 70501 10232 20229 30080 40089 69924 71022 83632 333 20231 50290 59003 70002 83700 83365 87078
AAXX 03004 48647 11560 70601 10244 20240 30068 40093 60104 71022 81542 333 20240 50220 58000 70100 81627 87078
AAXX 03004 48657 11058 80000 10237 20233 30077 40095 60004 71022 82537 333 20235 50060 58005 70000 81700 83366 88276
AAXX 03004 48665 11462 70301 10239 20234 30088 40098 60264 71022 82548 333 20235 50340 58003 70264 81712 85364 85277
AAXX 03004 96413 11030 82004 10232 20227 30083 40110 61004 76366 8652/ 333 20226 58027 71000 82701 84620 88465
AAXX 03004 96421 11275 72302 10237 20229 30062 40098 60334 70162 8357/ 333 20231 50150 55013 58014 70330 82706 83616 87365
AAXX 03004 96441 11480 71801 10244 20235 30061 40088 60044 70362 8357/ 333 20235 50240 55013 58009 70040 83616 87365
AAXX 03004 96449 12480 72009 10257 20237 30060 40079 60144 8257/ 333 20246 50250 58004 70138 82614 87365
AAXX 03004 96465 11478 72203 10271 20245 30039 40072 60604 70362 81858 333 20241 50420 55074 59004 70604 81814 85364 87279
AAXX 03004 96471 12474 71103 10274 20241 30070 40073 69924 83848 333 20252 50260 59004 70002 81814 84364 87277
AAXX 03004 96481 11462 73302 10246 20233 30064 40083 60534 72162 8384/ 333 20241 50560 55077 58004 70534 81710 83627 86364
AAXX 03004 96491 11460 72504 10259 20238 30070 40082 61194 70562 82848 333 20237 55095 58003 71188 81816 87277
BBXX DBKR 03001 99584 10199 46/// /2813 10/48 20000 49994 52013 22281 00082
BBXX DBND 03001 99536 10086 46/// /2007 10046 20031 40093 57012 22240 00077
BBXX 61001 03004 99434 10078 46/// /2403 10153 20141 40182 57002 22200 00176 10603 70013
BBXX DBCK 03001 99/// ///// 46/// ///// 10046 20047 40093 57012 22220 00069
BBXX DBBI 03001 99532 10085 46/// /2104 10046 20046 40103 57010 22250 00062
AAXX 03001 33815 42997 02003 10007 20003 39992 40205 57010 555 10100
BBXX DBBC 03001 99535 10086 46/// /1906 10036 2//// 40096 57013 22200 00066
AAXX 03001 10044 46/// /2112 10054 20028 30041 40073 58011 222// 00079 333 55300 91115 91213
AAXX 03001 10124 46/// /2013 10049 20049 30033 40071 58016 222// 00072 333 553// 91116 91214
AAXX 03004 40250 32960 00000 10014 21068 39420 40226 54002
AAXX 03004 40260 32960 03404 10034 21111 39424 40216 54002
AAXX 03004 40265 32960 00000 10030 21078 39425 40233 58003
AAXX 03004 40270 31956 00000 10057 21063 39310 40214 54000 70500
AAXX 03004 40296 32960 00000 10090 20023 40203 52009
BBXX CGDR 03004 99523 71285 46/// /1008 10056 20055 40367 58005 7//// 8//// 22261 00109 2////
AAXX 03004 78016 31564 80108 10215 20159 30204 40208 53011 71522 83177 333 10229 20205 79999
AAXX 03004 78016 31564 80108 10215 20159 30204 40208 53011 71522 83177 333 10229 20205 79999
BBXX CGDR 03004 99523 71285 46/// /1008 10056 20055 40367 58005 7//// 8//// 22261 00109 2////
AAXX 03001 01288 16/// /3002 11107 21124 39154 49922 58030 6//// 333 91105
AAXX 03001 01317 16/// /1507 10046 20008 39833 49847 58061 6//// 333 91117
AAXX 03001 01403 16/// /1918 10077 20036 39790 49857 58062 69961 333 91126
BBXX CGUM 03004 99447 70636 46/// /2201 10024 21007 40282 53013 7//// 8//// 22200 0//// 2////
BBXX CG2350 03004 99433 70798 46/// /3403 10028 21035 40331 53027 7//// 8//// 22200 0//// 2////
BBXX VCBW 03004 99485 70685 46/// /0707 11024 21041 40291 52034 7//// 8//// 22200 00037 2////
BBXX CGJK 03004 99484 71234 46/// /0405 10077 20022 40331 53001 7//// 8//// 22200 0//// 2////
BBXX VOPP 03004 99456 70735 46/// /2705 10005 21013 4//// 5//// 7//// 8//// 22200 0//// 2////
BBXX VCWL 03004 99468 70712 46/// /0000 11005 21015 40286 51035 7//// 8//// 22200 0//// 2////
BBXX CZ9742 03004 99506 70969 46/// /1912 11002 21043 40020 51011 7//// 8//// 22200 0//// 2////
BBXX 3FZK3 03004 99355 11294 46/// /3112 10083 20077 40115 51011 7//// 8//// 22200 0//// 2////
BBXX CGDX 03004 99468 70712 46/// /2103 11006 21012 40286 51036 7//// 8//// 22200 0//// 2////
BBXX VRYO3 03004 99513 70432 46/// /0921 10051 20063 40183 52036 7//// 8//// 22265 00089 2////
BBXX CGJV 03004 99460 70586 46/// /3513 10027 21014 40270 51011 7//// 8//// 22223 00068 2////
BBXX CGSB 03004 99468 70712 46/// /2302 11004 21017 40287 51037 7//// 8//// 22200 0//// 2////
BBXX CG2960 03004 99454 70825 46/// /1910 11001 21048 40321 51016 7//// 8//// 22223 00079 2////
BBXX VXKF 03004 99462 70602 46/// /3406 10006 21033 40271 53018 7//// 8//// 22251 0//// 2////
BBXX VCSZ 03004 99476 70527 46/// /0305 10015 20010 40258 51016 7//// 8//// 22200 0//// 2////
BBXX CGDT 03004 99490 70669 46/// /1401 11039 21049 40296 52022 7//// 8//// 22200 0//// 2////
BBXX CGBY 03004 99487 71235 46/// /1103 10067 20021 40328 56003 7//// 8//// 22200 0//// 2////
BBXX CGDG 03004 99421 70492 46/// /0405 10128 20127 40229 51006 7//// 8//// 22200 00139 2////
BBXX C6SI6 03004 99573 71506 46/// /2415 10050 20049 40233 53002 7//// 8//// 22272 0//// 2////
BBXX VCRG 03004 99474 70619 46/// /2703 10016 21028 40285 53008 7//// 8//// 22200 0//// 2////
BBXX CGBR 03004 99539 71302 46/// /0138 10039 20039 40361 55006 7//// 8//// 22242 00068 2////
BBXX CG2965 03004 99487 71235 46/// /1203 10068 20021 40330 56003 7//// 8//// 22200 0//// 2////
BBXX CG2958 03004 99487 71235 46/// /1403 10071 20027 40337 50007 7//// 8//// 22231 0//// 2////
BBXX CGCC 03004 99468 70712 46/// /2102 11007 21019 40286 51036 7//// 8//// 22200 0//// 2////
AAXX 03001 11423 07001 /2604 10032 20030 39285 42779 50001 69991 73365 333 55050 60005 89/01
AAXX 03001 11487 07603 /1902 10042 20035 39547 40175 52003 60021 76181 333 55028 69935 81/35 83/40 87/48
AAXX 03001 11518 01456 89901 10036 20032 39730 40175 50005 60021 76062 885// 333 55021 69905 88614 91112
AAXX 03001 11603 07558 /1202 10017 20001 39683 40175 51009 69961 71065 333 55000 60005 83/25 88/32
AAXX 03001 11659 07535 /1204 11014 21015 39534 40193 50001 60001 77187 333 55000 60005 81/29 88/33
AAXX 03001 11723 NIL
AAXX 03001 11782 01757 82408 10000 21018 39875 40190 50010 60001 71022 885// 333 55016 60005 88650 91115
BBXX CGTF 03004 99476 70527 46/// /2901 10021 21020 40263 51016 7//// 8//// 22200 0//// 2////
BBXX VAAP 03004 99456 70602 46/// /0608 10041 21001 40267 51013 7//// 8//// 22213 0//// 2////
BBXX CGHL 03004 99476 70527 46/// /3303 10026 21021 40263 51016 7//// 8//// 22200 0//// 2////
BBXX CGDS 03004 99447 70755 46/// /3103 11009 21052 4//// 5//// 7//// 8//// 22200 0//// 2////
AAXX 03001 01271 17884 30702 10011 21069 39841 49862 58038 6//// 700// 333 91110
AAXX 03001 01415 17974 81910 10068 20021 39882 49892 58054 6//// 700// 333 91115
AAXX 03001 01003 11970 52702 11070 21100 39666 49678 52005 69901 70172 87018
AAXX 03001 01007 16/// /0202 11092 21142 39682 49692 51005 60001 333 91111
AAXX 03001 01049 16/// /2702 10013 21002 39761 49764 51023 6//// 333 91115
AAXX 03001 01078 16/// /3214 10029 20010 39699 49712 53019 6//// 333 91118
AAXX 03001 01238 46/// /1510 11061 21103 38745 49862 58040 333 91113
AAXX 03001 01281 16/// /0000 11036 21045 39696 49871 58026 60001 333 91105
AAXX 03001 01359 16/// /0401 11040 21081 39008 49923 58043 60001 333 91107
AAXX 03001 01427 16/// /2115 10080 20039 39923 49939 58043 60001 333 91118
BBXX UGPK 03001 99554 11480 43/98 62708 11028 40140 54000 22231 00014 2//20 3//28
AAXX 03004 81401 06/// /0803 10254 20229 30096 40102 60001 333 10334 60007 59006 555 60005
AAXX 03004 81408 06/// /0701 10249 20222 30094 40102 60001 333 10337 60007 59009 555 60005
AAXX 03004 78906 12580 71502 10240 20223 30121 40126 60001 86841 333 10276 20240 58001 81820 86636
AAXX 03004 78954 11461 80910 10261 20235 30054 40118 69931 71582 85928 333 10275 20242 59005 81912 84814 87280 90941
BBXX CGBN 03004 99447 70636 46/// /1901 10035 21001 40267 51015 7//// 8//// 22200 0//// 2////
BBXX VAAZ 03004 99509 70500 46/// /2813 11008 21044 40242 53020 7//// 8//// 22251 0//// 2////
AAXX 03004 78397 112572 23503 10275 20199 30125 40141 60001 82800 333 01200 10315 20223 58003 81820
AAXX 03004 64500 32460 72206 10270 20238 30087 40100 875// 92358 333 0//00 58004 83610 87633
BBXX CGJK 03004 99484 71234 46/// /0405 10077 20022 40331 53001 7//// 8//// 22200 0//// 2////
BBXX VCBW 03004 99485 70685 46/// /0707 11024 21041 40291 52034 7//// 8//// 22200 00037 2////
BBXX CGCC 03004 99468 70712 46/// /2102 11007 21019 40286 51036 7//// 8//// 22200 0//// 2////
BBXX CGJV 03004 99460 70586 46/// /3513 10027 21014 40270 51011 7//// 8//// 22223 00068 2////
BBXX CGTF 03004 99476 70527 46/// /2901 10021 21020 40263 51016 7//// 8//// 22200 0//// 2////
BBXX VOPP 03004 99456 70735 46/// /2705 10005 21013 4//// 5//// 7//// 8//// 22200 0//// 2////
BBXX CGUM 03004 99447 70636 46/// /2201 10024 21007 40282 53013 7//// 8//// 22200 0//// 2////
BBXX C6SI6 03004 99573 71506 46/// /2415 10050 20049 40233 53002 7//// 8//// 22272 0//// 2////
BBXX VAAP 03004 99456 70602 46/// /0608 10041 21001 40267 51013 7//// 8//// 22213 0//// 2////
BBXX VRYO3 03004 99513 70432 46/// /0921 10051 20063 40183 52036 7//// 8//// 22265 00089 2////
BBXX CGDX 03004 99468 70712 46/// /2103 11006 21012 40286 51036 7//// 8//// 22200 0//// 2////
BBXX VCRG 03004 99474 70619 46/// /2703 10016 21028 40285 53008 7//// 8//// 22200 0//// 2////
BBXX CGDS 03004 99447 70755 46/// /3103 11009 21052 4//// 5//// 7//// 8//// 22200 0//// 2////
BBXX VCSZ 03004 99476 70527 46/// /0305 10015 20010 40258 51016 7//// 8//// 22200 0//// 2////
BBXX CGBR 03004 99539 71302 46/// /0138 10039 20039 40361 55006 7//// 8//// 22242 00068 2////
BBXX CGHL 03004 99476 70527 46/// /3303 10026 21021 40263 51016 7//// 8//// 22200 0//// 2////
BBXX CG2965 03004 99487 71235 46/// /1203 10068 20021 40330 56003 7//// 8//// 22200 0//// 2////
BBXX 3FZK3 03004 99355 11294 46/// /3112 10083 20077 40115 51011 7//// 8//// 22200 0//// 2////
BBXX CG2350 03004 99433 70798 46/// /3403 10028 21035 40331 53027 7//// 8//// 22200 0//// 2////
BBXX VCWL 03004 99468 70712 46/// /0000 11005 21015 40286 51035 7//// 8//// 22200 0//// 2////
BBXX CGSB 03004 99468 70712 46/// /2302 11004 21017 40287 51037 7//// 8//// 22200 0//// 2////
BBXX CGBY 03004 99487 71235 46/// /1103 10067 20021 40328 56003 7//// 8//// 22200 0//// 2////
BBXX CG2960 03004 99454 70825 46/// /1910 11001 21048 40321 51016 7//// 8//// 22223 00079 2////
BBXX CZ9742 03004 99506 70969 46/// /1912 11002 21043 40020 51011 7//// 8//// 22200 0//// 2////
BBXX CG2958 03004 99487 71235 46/// /1403 10071 20027 40337 50007 7//// 8//// 22231 0//// 2////
BBXX CGDT 03004 99490 70669 46/// /1401 11039 21049 40296 52022 7//// 8//// 22200 0//// 2////
BBXX CGDG 03004 99421 70492 46/// /0405 10128 20127 40229 51006 7//// 8//// 22200 00139 2////
BBXX VXKF 03004 99462 70602 46/// /3406 10006 21033 40271 53018 7//// 8//// 22251 0//// 2////
AAXX 03004 81401 06/// /0803 10254 20229 30096 40102 60001 333 10334 60007 59006 555 60005
AAXX 03004 81408 06/// /0701 10249 20222 30094 40102 60001 333 10337 60007 59009 555 60005
AAXX 03004 78397 112572 23503 10275 20199 30125 40141 60001 82800 333 01200 10315 20223 58003 81820
AAXX 03004 78906 12580 71502 10240 20223 30121 40126 60001 86841 333 10276 20240 58001 81820 86636
BBXX CGBN 03004 99447 70636 46/// /1901 10035 21001 40267 51015 7//// 8//// 22200 0//// 2////
AAXX 03004 78954 11461 80910 10261 20235 30054 40118 69931 71582 85928 333 10275 20242 59005 81912 84814 87280 90941
BBXX VAAZ 03004 99509 70500 46/// /2813 11008 21044 40242 53020 7//// 8//// 22251 0//// 2////
BBXX VCLM 03004 99554 70584 46/// /2726 11066 21097 40188 51008 7//// 8//// 22273 00012 2////
BBXX VOKJ 03004 99460 70732 46/// /3309 11000 21038 40291 51038 7//// 8//// 22213 0//// 2////
AAXX 03004 78862 11476 60905 10256 20237 30117 40140 60001 71582 85802 333 10290 20251 58005 82817 85636
AAXX 03004 ROB30 TEMPO 0204/0218 SHRA
AAXX 03004 TAF TQPF 011600Z 0118/0218 02006KT 9999 SCT023 PROB30 TEMPO 0204/0218 SHRA
AAXX 03004 TAF TUPJ 011600Z 0118/0218 02006KT 9999 SCT023 PROB30 TEMPO 0204/0218 SHRA
AAXX 03004 T020 PROB30 TEMPO 0100/0124 SHRA BKN015 BECMG 0110/0112 01006KT
AAXX 03004 TAF TUPJ 302200Z 0100/0124 VRBO2/00000KT 9999 SCT020 PROB30 TEMPO 0100/0124 SHRA BKN015 BECMG 0110/0112 01006KT
AAXX 03004 016 BKN032 BKN070 BKN260 TEMPO 2818/2918 15016G28KT 4000 +SHRA FEW013CB BKN014 PROB40 TEMPO 2823/2918 2000 +TSRA SCT010CB BKN250
AAXX 03004 TAF TUPJ 281600Z 2818/2918 11010KT 9999 SCT020 BKN270 TEMPO 2818/2918 SHRA BKN015 BKN036 PROB30 TEMPO 2818/2918 4000 TSRA FEW012CB
AAXX 03004 N015 BKN036 PROB40 TEMPO 0704/0724 3000 +TSRA SCT011CB BKN012 BECMG 0712/0714 14008KT
AAXX 03004 21/2712 07017G28KT 5000 SHRA BKN015 BKN036 PROB TEMPO 2700/2712 4000 TSRA FEW013CB
AAXX 03004 PROB30 TEMPO 0800/0806 4000 TSRA FEW012CB PROB40 TEMPO 0800/0824 2000 +SHRA/TSRA SCT010CB BKN012 BKN250
AAXX 03004 60141 12458 82610 10091 20072 39562 40238 56001 60131 8687/ 333 82810 86826
AAXX 03004 60265 32970 02716 10128 21096 38906 48531 58015
AAXX 03004 60060 NIL
AAXX 03004 60105 NIL
AAXX 03004 60106 NIL
AAXX 03004 60107 NIL
AAXX 03004 60127 NIL
AAXX 03004 60185 NIL
AAXX 03004 60190 NIL
AAXX 03004 60191 NIL
AAXX 03004 60195 NIL
AAXX 03004 60210 NIL
AAXX 03004 60220 NIL
AAXX 03004 60318 NIL
AAXX 03003 61701 31958 40000 10200 20191 40126 71022 80002 333 58012 84072
AAXX 03003 61705 NIL
AAXX 03003 61707 NIL
AAXX 03003 61711 NIL
AAXX 03003 61712 NIL
AAXX 03003 61717 NIL
AAXX 03003 61720 NIL
AAXX 03003 61721 NIL
AAXX 03003 61722 NIL
AAXX 03003 61731 32960 40000 10190 20165 4//// 80002 333 5//// 84073
AAXX 03003 61733 NIL
AAXX 03004 60150 11450 82606 10097 20080 39580 40244 58003 60061 70266 888// 333 83810 87820
AAXX 03004 60155 11458 732// 10158 20094 40240 58005 60011 70162 878// 333 83816 85626
AAXX 03004 60096 NIL
AAXX 03004 60101 NIL
AAXX 03004 60115 NIL
AAXX 03004 60135 NIL
AAXX 03004 60156 NIL
AAXX 03004 60230 NIL
AAXX 03004 60252 NIL
AAXX 03004 65338 33958 50000 10238 20219 39920 40105 80002 333 0//00 58001 85076
BBXX BAREU60 03004 99441 10146 46/// ///// 40210 22262
BBXX BATFR54 03004 99451 70035 46/// /2616 10132 20064 40245 58010 22223 00159
AAXX 03001 11812 36/// /1101 11036 21038 39483 42781 52003 333 55000
AAXX 03001 11813 16/// /0000 11016 21016 39849 40210 52001 60001 333 55000
AAXX 03001 11816 11125 80702 11005 21010 30039 40208 58001 60001 71022 886// 333 55000 88703 93405
AAXX 03001 11819 36/// /0000 11011 21014 39990 40214 52001 333 55000
AAXX 03001 11826 17/27 /2301 11007 21020 30003 40210 52001 60001 71011 333 55000
AAXX 03001 11841 16/// /2002 10008 21008 39818 40204 52003 60001 333 55005
AAXX 03001 11855 16/// /0000 11007 21015 30039 40211 57003 69901 333 55000
AAXX 03001 11856 36/// /2102 11017 21023 39879 40209 57003 333 55000
AAXX 03001 11858 16/// /9901 11006 21014 30050 40207 57005 60001 333 55000
AAXX 03001 11867 17/38 /3401 10005 21016 39881 40207 52001 60001 71011 333 55004
AAXX 03001 11880 16/// /0000 11011 21016 30031 40209 57006 60001 333 55000
AAXX 03001 11900 16/// /0000 10010 21007 39862 40206 57004 60001 333 55041
AAXX 03001 11903 11340 80601 10011 21000 39814 40204 55000 60001 71022 886// 333 55019 83707 88712
AAXX 03001 11916 46/// /3106 11004 21024 37950 48456 52001 6///1 333 91015 91120
AAXX 03001 11918 16/// /2505 11003 21007 39352 42782 52004 60001 333 55000
AAXX 03001 11927 16/// /0601 11016 21020 39939 40211 57002 60001 333 55000
AAXX 03001 11930 46/// ///// 1//// 2//// 3//// 47/// 5//// 6///1
AAXX 03001 11933 NIL
AAXX 03001 11934 11256 62802 11013 21017 39350 42782 50000 60001 71011 86600 333 55061 86706
AAXX 03001 11938 16/// /2401 11005 21010 39109 42782 52001 60001
AAXX 03001 11952 16/// /0000 11025 21030 39342 42782 54000 60001 333 55066
AAXX 03001 11958 36/// /3202 10003 21000 38738 48470 52004 333 55///
AAXX 03001 11968 11228 82301 11021 21032 39918 40210 56002 69901 71072 886// 333 55000 88705
AAXX 03001 11976 16/// /9901 11001 21014 39933 40205 57003 60001 333 55005
AAXX 03001 11978 16/// /2601 11007 21017 30070 40205 57005 60001 333 55000
AAXX 03001 11993 16/// /2603 10004 21006 39981 40204 52001 60001 333 55049
AAXX 03004 60340 11560 52816 10121 20053 40206 58002 60021 70262 84200 333 84823
AAXX 03004 60285 NIL
AAXX 03004 17600 15960 /0310 10107 20018 30219 40229 53004 60001
AAXX 03004 17601 12981 03303 10105 20027 30194 40226 52005 60001 92350
AAXX 03004 176076 NIL
AAXX 03004 17609 12970 03006 10097 20049 30227 40231 52004 60001
AAXX 03001 76040 32960 33502 10168 20042 30123 40137 57011 83030 92345 333 10182 20070 30/// 50150 56070 58036 70000 83372 98660
AAXX 03001 76055 32980 00404 10166 20049 30108 40127 57006 92340 333 10175 20042 30/// 50261 58032 70014
AAXX 03001 76113 32880 30901 10164 20064 39649 40120 57005 83030 92340 333 10170 20074 30/// 50421 56040 59031 79999 83358
AAXX 03001 76225 32560 41804 10188 20006 38564 40048 56017 82120 92345 333 10210 20076 30/// 50641 56550 59020 70000 82830 82450
AAXX 03001 76243 32472 63603 10144 20080 39907 40201 57001 86400 92337 333 10198 20135 30/// 50121 56700 58004 70000 86616
AAXX 03001 76256 02780 735// 10168 20101 30132 40146 52001 60011 87400 92345 333 10202 20130 31/// 50010 565// 58029 60017 70008 87650
AAXX 03001 76305 22670 72405 10198 20125 30123 40131 52001 75052 85430 92340 333 10262 20188 30/// 50321 56550 58027 69997 79999 85630 82358
AAXX 03001 76323 32970 52302 10186 21040 38232 40116 57002 80006 92345 333 10232 20086 30/// 50311 56005 59018 70000 85268
AAXX 03001 76342 31462 53602 10208 20104 39490 40192 57007 70222 85500 92350 333 10240 20100 30/// 50321 56400 58018 70000 85820
AAXX 03001 76382 32680 40901 10242 20138 38860 40078 57015 84060 92340 333 10280 20105 30/// 50011 56050 59001 70000 84356
AAXX 03001 76390 31856 70904 10133 20063 38225 40119 52001 70544 86066 92330 333 10205 20055 30/// 50311 56048 58006 70000 86356 81070
AAXX 03001 76402 31556 73305 10182 20137 30086 40143 52013 70544 87700 92345 333 10232 20138 30/// 50171 56500 58013 70000 87728
AAXX 03001 76458 32468 61602 10241 20196 30130 40134 57005 85505 92341 333 10282 20136 30/// 50121 566/9 58001 70000 85619 81070
AAXX 03001 76491 32960 01403 10244 20149 39793 40175 52008 92350 333 10298 20122 30/// 50601 58022 70000
AAXX 03001 76499 32860 31303 10249 20149 30153 40174 5//// 83030 92350 333 10308 20110 30/// 50301 56040 58019 70000 83357
AAXX 03001 76519 32560 12605 10238 20026 38339 40104 57005 81100 92340 333 10272 20019 30/// 50431 56200 58004 70000 81820
AAXX 03001 76525 32880 21809 10170 21006 37464 40082 52001 81130 92340 333 10185 20106 30/// 50741 5655/ 58001 70000 81857
AAXX 03001 76539 31965 01202 10170 20034 38155 40140 52001 70544 92350 333 10270 20010 30/// 50270 58007 70000
AAXX 03001 76543 32675 10902 10252 20174 30166 40199 53005 81500 92045 333 10298 20128 30/// 50291 56300 58015 70000 81640
AAXX 03001 76548 32575 21103 10242 20173 30184 40194 55003 82100 92340 333 10280 20168 30/// 50241 56300 58014 70000 82830
AAXX 03001 76556 32870 21702 10229 20160 39114 40124 52005 82040 92334 333 10279 20104 30/// 50301 56/6/ 58005 70000 82358
AAXX 03001 76571 32660 12101 10236 20008 38150 40102 57004 81200 92350 333 10264 20035 30/// 50231 56500 59002 70000 81846
AAXX 03001 76577 32970 32302 10228 20189 38031 40095 55003 80003 92340 333 10266 20071 30/// 50311 56005 58000 70000
AAXX 03001 76593 32360 10506 10228 20205 30197 40199 55002 81040 92350 333 10264 20150 30/// 50480 56100 58008 81330 91007 91505
AAXX 03001 76612 32962 02901 10246 20045 38458 40099 55002 92350 333 10280 20055 30/// 50351 59003 70000
AAXX 03001 76632 32968 00707 10158 20082 37612 40060 52012 92345 333 10200 20082 30/// 5//// 59010 70000
AAXX 03001 76634 31970 00000 10143 20099 37856 40124 52003 70500 92345 333 10241 20062 30/// 50541 58008 70000
AAXX 03001 76654 31956 22301 10267 20203 30148 40152 57001 70544 80001 92355 333 10294 20210 30/// 50301 5600/ 58019 70000 82070
AAXX 03001 76656 32975 20000 10210 20097 38503 40114 56004 80008 92350 333 10268 20052 30/// 50440 56005 58006 70000 82280
AAXX 03001 76662 32970 12803 10234 20130 38443 40090 57001 80001 92340 333 10298 20038 30/// 50410 5600/ 59002 70000 81070
AAXX 03001 76665 32964 01602 10206 20098 38108 40087 52001 92350 333 10290 20050 30/// 50300 59004 70000
AAXX 03001 76675 31975 02003 10166 20046 37376 40082 52002 70544 92350 333 10231 21015 30/// 50291 58005 70000 98475
AAXX 03001 76680 31940 02801 10216 21023 37744 40088 55001 70500 92355 333 10243 20065 30/// 50291 58001 70000
AAXX 03001 76685 31970 01602 10202 21033 37862 40086 52004 70544 92340 333 10250 20032 30/// 50311 56/// 58004 70000
AAXX 03001 76687 31564 80901 10160 20098 38705 40196 52004 70222 885// 92334 333 10204 20050 30/// 50200 563// 58010 70000 88621
AAXX 03001 76692 31556 10903 10250 20160 30163 40182 50001 70544 81400 92345 333 10285 20135 30/// 50341 563// 58005 70000 81640
AAXX 03001 76695 32956 10230 20185 30177 40182 52004 92348 333 10275 20152 30/// 50330 58008 70000
AAXX 03001 76698 32558 13601 10221 20195 30190 40202 52010 81200 92350 333 10295 20164 30/// 50381 58007 70000 81820
AAXX 03001 76726 32970 02001 10233 21031 38390 40077 52001 92330 333 10282 20110 30/// 50190 58005 70000
AAXX 03001 76737 31480 71402 10164 20102 38799 40186 53005 70322 81750 92335 333 10201 20050 30/// 50201 56220 58011 70000 81717 86358 91107 91516
AAXX 03001 76743 31340 70501 10245 20227 30172 40180 53006 70222 875// 92350 333 10267 20171 30/// 50050 561// 58001 70000 87808
AAXX 03001 76750 32558 30302 10245 20186 30177 40187 52009 81108 92350 333 10320 20155 30/// 50411 56106 58005 70008 81820
AAXX 03001 76775 31970 01401 10231 21013 38513 40121 57001 70500 92345 333 10296 20042 30/// 5///1 58007 70000
AAXX 03001 76805 32970 02602 10272 20222 30119 40123 55001 92350 333 10315 20215 30/// 50531 59002 70000
AAXX 03001 76833 32970 03610 10258 20186 30120 40122 54000 92345 333 10292 20214 30/// 50971 59003 70000 92023
AAXX 03001 76840 32930 00205 10266 20137 30078 40133 52010 92340 333 10307 20180 30/// 51051 58013 70000
AAXX 03001 76843 32565 20204 10201 20146 39513 40159 53007 81104 92335 333 10246 20140 30/// 50411 56/9/9 58013 70000 81830
AAXX 03001 76845 32960 00603 10142 20120 37954 40177 53009 92345 333 10220 20004 30/// 50231 58004 70000
AAXX 03001 76848 32970 00502 10136 20073 38388 40101 52007 92350 333 10216 20078 30/// 50301 59001 70000
AAXX 03001 76903 31670 62502 10277 20251 39993 40123 53008 70311 86200 92335 333 10343 20228 30/// 50171 56100 58004 70000 81834 85650
AAXX 03001 76160 32562 72301 10164 20077 39878 40126 54/// 87400 92334 333 10185 20135 30/// 50490 56400 58029 70000 87630
AAXX 03001 76253 32582 42704 10200 20116 30045 40135 56001 84500 92348 333 10210 20155 30/// 50331 56700 58034 70000 84620 92002
AAXX 03001 76405 32680 51802 10252 20178 30109 40130 52002 82430 92350 333 10276 20170 30/// 50517 56330 58013 70000 82640 83357
AAXX 03001 76412 31966 42201 10238 20203 30103 40147 52000 70544 84050 92345 333 10246 20132 30/// 50321 58011 70000 84356
AAXX 03001 76640 32958 01401 10234 20197 30192 40204 57002 92340 333 10266 20138 30/// 50241 58024 70000
AAXX 03001 76741 31565 30403 10244 20181 30134 40152 57001 70542 82206 92335 333 10266 20157 30/// 50461 568// 58010 70000 82826
AAXX 03001 76855 32580 41701 10260 20226 30067 40116 56006 82220 92340 333 10298 20178 30/// 50310 56990 59001 70000 82820 82458 92000
BBXX VOLG 03004 99/// ///// 46/// /2805 10021 21004 40279 51014 7//// 8//// 22200 0//// 2////
AAXX 03001 76040 32960 33502 10168 20042 30123 40137 57011 83030 92345333 10182 20070 30/// 50150 56070 58036 70000 83372 98660
AAXX 03001 76055 32980 00404 10166 20049 30108 40127 57006 92340 33310175 20042 30/// 50261 58032 70014
AAXX 03001 76113 32880 30901 10164 20064 39649 40120 57005 83030 92340333 10170 20074 30/// 50421 56040 59031 79999 83358
AAXX 03001 76225 32560 41804 10188 20006 38564 40048 56017 82120 92345333 10210 20076 30/// 50641 56550 59020 70000 82830 82450
AAXX 03001 76243 32472 63603 10144 20080 39907 40201 57001 86400 92337333 10198 20135 30/// 50121 56700 58004 70000 86616
AAXX 03001 76256 02780 735// 10168 20101 30132 40146 52001 60011 8740092345 333 10202 20130 31/// 50010 565// 58029 60017 7000887650
AAXX 03001 76305 22670 72405 10198 20125 30123 40131 52001 75052 8543092340 333 10262 20188 30/// 50321 56550 58027 69997 7999985630 82358
AAXX 03001 76323 32970 52302 10186 21040 38232 40116 57002 80006 92345333 10232 20086 30/// 50311 56005 59018 70000 85268
AAXX 03001 76342 31462 53602 10208 20104 39490 40192 57007 70222 8550092350 333 10240 20100 30/// 50321 56400 58018 70000 85820
AAXX 03001 76382 32680 40901 10242 20138 38860 40078 57015 84060 92340333 10280 20105 30/// 50011 56050 59001 70000 84356
AAXX 03001 76390 31856 70904 10133 20063 38225 40119 52001 70544 8606692330 333 10205 20055 30/// 50311 56048 58006 70000 8635681070
AAXX 03001 76402 31556 73305 10182 20137 30086 40143 52013 70544 8770092345 333 10232 20138 30/// 50171 56500 58013 70000 87728
AAXX 03001 76458 32468 61602 10241 20196 30130 40134 57005 85505 92341333 10282 20136 30/// 50121 566/9 58001 70000 85619 81070
AAXX 03001 76491 32960 01403 10244 20149 39793 40175 52008 92350 33310298 20122 30/// 50601 58022 70000
AAXX 03001 76499 32860 31303 10249 20149 30153 40174 5//// 83030 92350333 10308 20110 30/// 50301 56040 58019 70000 83357
AAXX 03001 76519 32560 12605 10238 20026 38339 40104 57005 81100 92340333 10272 20019 30/// 50431 56200 58004 70000 81820
AAXX 03001 76525 32880 21809 10170 21006 37464 40082 52001 81130 92340333 10185 20106 30/// 50741 5655/ 58001 70000 81857
AAXX 03001 76539 31965 01202 10170 20034 38155 40140 52001 70544 92350333 10270 20010 30/// 50270 58007 70000
AAXX 03001 76543 32675 10902 10252 20174 30166 40199 53005 81500 92045333 10298 20128 30/// 50291 56300 58015 70000 81640
AAXX 03001 76548 32575 21103 10242 20173 30184 40194 55003 82100 92340333 10280 20168 30/// 50241 56300 58014 70000 82830
AAXX 03001 76556 32870 21702 10229 20160 39114 40124 52005 82040 92334333 10279 20104 30/// 50301 56/6/ 58005 70000 82358
AAXX 03001 76571 32660 12101 10236 20008 38150 40102 57004 81200 92350333 10264 20035 30/// 50231 56500 59002 70000 81846
AAXX 03001 76577 32970 32302 10228 20189 38031 40095 55003 80003 92340333 10266 20071 30/// 50311 56005 58000 70000
AAXX 03001 76593 32360 10506 10228 20205 30197 40199 55002 81040 92350333 10264 20150 30/// 50480 56100 58008 81330 91007 91505
AAXX 03001 76612 32962 02901 10246 20045 38458 40099 55002 92350 33310280 20055 30/// 50351 59003 70000
AAXX 03001 76632 32968 00707 10158 20082 37612 40060 52012 92345 33310200 20082 30/// 5//// 59010 70000
AAXX 03001 76634 31970 00000 10143 20099 37856 40124 52003 70500 92345333 10241 20062 30/// 50541 58008 70000
AAXX 03001 76654 31956 22301 10267 20203 30148 40152 57001 70544 8000192355 333 10294 20210 30/// 50301 5600/ 58019 70000 82070
AAXX 03001 76656 32975 20000 10210 20097 38503 40114 56004 80008 92350333 10268 20052 30/// 50440 56005 58006 70000 82280
AAXX 03001 76662 32970 12803 10234 20130 38443 40090 57001 80001 92340333 10298 20038 30/// 50410 5600/ 59002 70000 81070
AAXX 03001 76665 32964 01602 10206 20098 38108 40087 52001 92350 33310290 20050 30/// 50300 59004 70000
AAXX 03001 76675 31975 02003 10166 20046 37376 40082 52002 70544 92350333 10231 21015 30/// 50291 58005 70000 98475
AAXX 03001 76680 31940 02801 10216 21023 37744 40088 55001 70500 92355333 10243 20065 30/// 50291 58001 70000
AAXX 03001 76685 31970 01602 10202 21033 37862 40086 52004 70544 92340333 10250 20032 30/// 50311 56/// 58004 70000
AAXX 03001 76687 31564 80901 10160 20098 38705 40196 52004 70222 885//92334 333 10204 20050 30/// 50200 563// 58010 70000 88621
AAXX 03001 76692 31556 10903 10250 20160 30163 40182 50001 70544 8140092345 333 10285 20135 30/// 50341 563// 58005 70000 81640
AAXX 03001 76695 32956 10230 20185 30177 40182 52004 92348 333 1027520152 30/// 50330 58008 70000
AAXX 03001 76698 32558 13601 10221 20195 30190 40202 52010 81200 92350333 10295 20164 30/// 50381 58007 70000 81820
AAXX 03001 76726 32970 02001 10233 21031 38390 40077 52001 92330 33310282 20110 30/// 50190 58005 70000
AAXX 03001 76737 31480 71402 10164 20102 38799 40186 53005 70322 8175092335 333 10201 20050 30/// 50201 56220 58011 70000 8171786358 91107 91516
AAXX 03001 76743 31340 70501 10245 20227 30172 40180 53006 70222 875//92350 333 10267 20171 30/// 50050 561// 58001 70000 87808
AAXX 03001 76750 32558 30302 10245 20186 30177 40187 52009 81108 92350333 10320 20155 30/// 50411 56106 58005 70008 81820
AAXX 03001 76775 31970 01401 10231 21013 38513 40121 57001 70500 92345333 10296 20042 30/// 5///1 58007 70000
AAXX 03001 76805 32970 02602 10272 20222 30119 40123 55001 92350 33310315 20215 30/// 50531 59002 70000
AAXX 03001 76833 32970 03610 10258 20186 30120 40122 54000 92345 33310292 20214 30/// 50971 59003 70000 92023
AAXX 03001 76840 32930 00205 10266 20137 30078 40133 52010 92340 33310307 20180 30/// 51051 58013 70000
AAXX 03001 76843 32565 20204 10201 20146 39513 40159 53007 81104 92335333 10246 20140 30/// 50411 56/9/9 58013 70000 81830
AAXX 03001 76845 32960 00603 10142 20120 37954 40177 53009 92345 33310220 20004 30/// 50231 58004 70000
AAXX 03001 76848 32970 00502 10136 20073 38388 40101 52007 92350 33310216 20078 30/// 50301 59001 70000
AAXX 03001 76903 31670 62502 10277 20251 39993 40123 53008 70311 8620092335 333 10343 20228 30/// 50171 56100 58004 70000 8183485650
AAXX 03001 76160 32562 72301 10164 20077 39878 40126 54/// 87400 92334333 10185 20135 30/// 50490 56400 58029 70000 87630
AAXX 03001 76253 32582 42704 10200 20116 30045 40135 56001 84500 92348333 10210 20155 30/// 50331 56700 58034 70000 84620 92002
AAXX 03001 76405 32680 51802 10252 20178 30109 40130 52002 82430 92350333 10276 20170 30/// 50517 56330 58013 70000 82640 83357
AAXX 03001 76412 31966 42201 10238 20203 30103 40147 52000 70544 8405092345 333 10246 20132 30/// 50321 58011 70000 84356
AAXX 03001 76640 32958 01401 10234 20197 30192 40204 57002 92340 33310266 20138 30/// 50241 58024 70000
AAXX 03001 76741 31565 30403 10244 20181 30134 40152 57001 70542 8220692335 333 10266 20157 30/// 50461 568// 58010 70000 82826
AAXX 03001 76855 32580 41701 10260 20226 30067 40116 56006 82220 92340333 10298 20178 30/// 50310 56990 59001 70000 82820 8245892000
AAXX 03004 67297 32975 2//// 10268 20256 40072 333 59032 9432/
BBXX VOLG 03004 99/// ///// 46/// /2805 10021 21004 40279 51014 7//// 8//// 22200 0//// 2////
AAXX 03004 48698 01458 83001 10246 20246 30076 40095 60154 72162 81878 333 20233 58003 60007 70150 81816 85365
AAXX 03004 48698 01458 83001 10246 20246 30076 40095 60154 72162 81878 333 20233 58003 60007 70150 81816 85365
AAXX 03001 37682 32997 23601 11120 21133 38131 48543 57003 82040
AAXX 03001 37717 325// 52303 11077 21122 38083 48519 52002 85500 555 1/112
AAXX 03001 37788 41995 00000 11075 21105 39252 40313 52004 71000
AAXX 03004 16008 NIL
AAXX 03004 16084 11205 83502 10064 20052 30037 40207 58002 60021 74442 885// 333 84705 85615
AAXX 03004 16088 11510 79901 10065 20062 30095 40215 50000 60011 76065 87000 333 85830
AAXX 03004 16110 11896 30000 10110 20107 30195 40200 57008 60001 71011 83030 333 83357 555 0////
AAXX 03004 16134 11/00 92222 10012 20005 37826 48505 58003 60001 74544 333 89/00 95090 95190
AAXX 03004 16153 11497 80102 10112 20069 39923 40189 51001 60101 72162 888// 333 83818 85620 555 0////
AAXX 03004 16158 11560 51008 10110 20099 30198 40206 56001 69961 72162 82260 333 82830 83358
AAXX 03004 16206 NIL
AAXX 03004 16219 NIL
AAXX 03004 16252 12865 10000 10090 20079 39294 42846 54000 60001 81040 333 81357 95090
AAXX 03004 16280 12597 31504 10150 20134 30010 40231 54000 60001 83100 333 83820 555 0////
AAXX 03004 16310 NIL
AAXX 03004 16320 NIL
AAXX 03004 16325 11996 03107 10080 20051 30219 40233 54000 60001 71000 333 98058 555 0////
AAXX 03004 16360 12997 20505 10128 20098 30100 40236 54000 60001 82030 333 82360 555 0////
AAXX 03004 16400 NIL
AAXX 03004 16420 12997 00000 10140 20120 30174 40239 58002 60001 555 0////
AAXX 03004 16429 12562 41103 10138 20130 30216 40228 58004 60001 84200 333 84820
AAXX 03004 16470 NIL
AAXX 03004 16480 12997 03205 10140 20115 30173 40235 53001 60001 555 0////
AAXX 03004 16522 12998 01812 10164 20139 39959 40200 58000 60001 555 0////
AAXX 03004 16539 NIL
AAXX 03004 16550 NIL
BBXX 46042 03001 99368 71224 46/// /3309 10132 30146 40146 56009 92350 22200 00131 11006 20703 332// 41005 70030 333 91210 555 11091 22097 32342 43310 62349 333085 330077 327080 327079 332070 332071
BBXX 51101 03001 99243 71621 46/// /0508 10217 20141 40188 56015 92350 22200 00245 11207 20603 301// 41206 70033 333 91210 555 11083 22087 32307 40411 62349 051079 060077 062083 055084 056086 052085
BBXX 46061 03001 99602 71468 46/// /3207 10041 40179 51022 92350 22200 00058 11205 20602 300// 41204 70025 333 91208 555 11068 22072 32348 43308 62349 323064 329059 339032 325039 322043 322047
AAXX 03004 16021 11/01 91711 10010 21005 37987 48504 58001 69941 76864 333 89/01 993197
AAXX 03004 16022 11/00 92122 10004 20004 37852 48489 57005 60001 74544 333 89/00
AAXX 03004 16033 12560 72402 10020 21011 38794 48499 58008 60001 87500 333 87630
AAXX 03004 16040 NIL
AAXX 03004 16052 12560 62218 11076 21080 36612 47043 56004 60001 86080 333 86325
AAXX 03004 16061 12961 50000 10060 20045 39360 42806 54000 60001 80001
AAXX 03004 16098 NIL
AAXX 03004 16138 NIL
AAXX 03004 16148 11907 12903 10026 20007 30198 40210 57001 60001 74441 81040 333 81362
AAXX 03004 16168 11165 81817 10122 20121 39469 42826 58002 60001 70242 8613/ 333 83702 84804
AAXX 03004 16172 11902 00000 10062 20059 39929 40234 50003 60001 74240
AAXX 03004 16179 12581 62505 10122 20077 39531 42823 54000 60001 86200 333 86827
AAXX 03004 16224 11257 61507 10114 20095 39903 40222 58002 60021 72162 86200 333 82706 85818
AAXX 03004 16232 12898 12003 10138 20082 30161 40215 50001 60001 81030 333 81358 555 0////
AAXX 03004 16245 11558 30910 10138 20115 30197 40223 56002 69941 72161 83200 333 83820
AAXX 03004 16253 11411 50602 10098 20081 30224 40236 50000 60041 76061 83770 333 83715 83457
AAXX 03004 16258 12460 62504 10094 20056 39234 42833 58001 60001 82540 333 82612 85360
AAXX 03004 16263 11/00 92613 10070 20053 38980 48541 54000 60001 74542 333 89/00
AAXX 03004 16294 NIL
AAXX 03004 16337 NIL
AAXX 03004 16344 12960 02303 10040 20040 38370 48551 54000 60001 333 95000 95100
AAXX 03004 16434 NIL
AAXX 03004 16450 NIL
AAXX 03004 16459 11957 02704 10080 20074 30210 40247 53002 60001 71000
AAXX 03004 16546 12462 33102 10098 20089 30178 40206 54000 60001 83200 333 83815
AAXX 03004 16564 12497 42006 10172 20127 30068 40209 50000 60001 83230 333 83812 555 0////
AAXX 03004 16320 11950 01709 10100 20100 30225 40238 58005 60001 71000 555 0////
AAXX 03004 16206 11565 61309 10134 20109 30200 40209 58003 69901 72162 83130 333 83820 83357
AAXX 03004 16045 NIL
AAXX 03004 16090 11404 80000 10076 20073 30129 40212 58002 60031 76065 885// 333 83715 85630
AAXX 03004 16149 11910 03204 10050 20035 30195 40211 53002 60001 71000
AAXX 03004 16261 NIL
AAXX 03004 16453 NIL
AAXX 03004 16560 11050 33006 10114 20084 30200 40206 58001 60001 71000 83600 333 82701
AAXX 03004 71805 04663 81301 10034 20019 30250 40259 51019 60001 700// 333 60007 90710 91109 555 60005
AAXX 03004 13600 NIL
AAXX 03004 13610 NIL
AAXX 03004 13611 NIL
AAXX 03004 13619 NIL
AAXX 03004 13622 NIL
AAXX 03004 13624 NIL
AAXX 03004 13625 NIL
AAXX 03004 13629 NIL
AAXX 03004 13601 12660 32702 10100 20094 30127 40229 54004 60001 83500 333 83640
AAXX 03004 13602 NIL
AAXX 03004 13623 NIL
BBXX 44172 03001 99445 70634 46/// ///// 1//// 90001 22200 00080 11103 21002 315// 41102 70013
AAXX 03001 01218 16/// /1610 10062 21065 39815 49836 56051 60001 333 91122
BBXX 44098 03001 99428 70702 46/// ///// 1//// 92337 22200 00100 11102 21002 313// 41102 70012
BBXX 41010 03001 99289 70785 46/// /0310 10213 40261 51011 92350 22200 00244 333 91211 555 11102 22107
BBXX 41009 03001 99285 70802 46/// /0408 10225 20129 40263 53005 92350 22200 00258 10704 20704 70019 333 91210 555 11082 22086
BBXX 44097 03001 99410 70711 46/// ///// 1//// 90002 22200 00132 11103 20402 316// 41101 70014
BBXX 46247 03001 99378 71228 46/// ///// 1//// 92351 22200 00116 11006 21005 331// 41103 70028
BBXX 46243 03001 99462 71241 46/// ///// 1//// 92359 22200 00091 11505 20904 327// 41503 70027
BBXX 46236 03001 99368 71219 46/// ///// 1//// 92350 22200 00126 11103 20902 328// 41102 70015
BBXX 46229 03001 99438 71246 46/// ///// 1//// 92351 22200 00108 11707 20806 328// 41704 70035
BBXX 46225 03001 99329 71174 46/// ///// 1//// 92344 22200 00163 11103 21002 329// 41102 70013
BBXX 46213 03001 99403 71247 46/// ///// 1//// 92354 22200 00112 11111 21009 333// 41106 70055
BBXX 46215 03001 99352 71209 46/// ///// 1//// 92338 22200 00131 11003 21002 330// 41102 70014
BBXX 46219 03001 99332 71199 46/// ///// 1//// 92358 22200 00136 11204 21003 331// 41202 70019
BBXX 46224 03001 99332 71175 46/// ///// 1//// 92336 22200 00161 11402 21001 320// 41401 70009
AAXX 03004 61968 16/// /0703 10247 20224 40095 60001 333 59014 90710 91105 555 60005
AAXX 03004 61970 16/// ///// 10267 20258 40091 60001 333 59012 555 60005
AAXX 03004 61980 11560 61415 10213 20185 40124 60031 72582 86830 333 59014 81823 85656 90710 91120 924/7 555 69925
AAXX 03004 67005 14/// /9901 10259 20230 40094 60001 700// 333 59015 90710 91106 555 60005
BBXX 44099 03001 99369 70757 46/// ///// 1//// 92352 22200 00134 11102 21001 310// 41101 70009
BBXX 41110 03001 99341 70777 46/// ///// 1//// 92351 22200 00161 11102 20901 311// 41101 70008
BBXX 42099 03001 99273 70842 46/// ///// 1//// 92357 22200 00244 10603 20603 70015
BBXX 41113 03001 99284 70805 46/// ///// 1//// 92351 22200 00212 10702 20702 70009
BBXX 41112 03001 99307 70813 46/// ///// 1//// 92351 22200 00174 10802 20802 70010
AAXX 03004 78948 11366 70608 10251 20241 30124 40132 60041 76186 8697/ 333 06229 10290 20243 58003 70059 81708 82915 87458 90915
BBXX A8PQ5 03003 99255 71092 41196 62710 10230 2020/ 40130 54000 7//22 86453 222// 00210 20300 32727 40300 50300 6//// 80210 ICE /////
AAXX 03001 11723 01244 81702 11007 21018 39897 40205 50001 60001 71022 886// 333 55000 60005 88704
BBXX 51204 03001 99213 71581 46/// ///// 1//// 92352 22200 00252 11303 21002 331// 41302 70015
BBXX 51202 03001 99214 71577 46/// ///// 1//// 92339 22200 00247 11304 20803 335// 41303 70022
AAXX 03001 45007 12959 10104 10113 20032 30191 40200 51017 60002 80001 333 20106 58005 70000 81080
BBXX 46238 03001 99334 71195 46/// ///// 1//// 92350 22200 00146 11003 21002 328// 41102 70014
BBXX 46239 03001 99363 71221 46/// ///// 1//// 92351 22200 00121 11105 21004 331// 41104 70027
AAXX 03004 48601 11559 63502 10251 20241 30082 40086 69904 70522 81841 333 20241 50360 59008 79999 81820 86078
AAXX 03004 48615 11557 72302 10247 20231 30086 40092 69924 70592 83548 333 20237 50250 59013 70002 83620 87272
AAXX 03004 48620 11030 70501 10232 20229 30080 40089 69924 71022 83632 333 20231 50290 59003 70002 83700 83365 87078
AAXX 03004 48647 11560 70601 10244 20240 30068 40093 60104 71022 81542 333 20240 50220 58000 70100 81627 87078
AAXX 03004 48650 11358 70501 10236 20233 30071 40090 60244 71022 82542 333 20229 50700 58000 70240 81707 83364 87078
AAXX 03004 48657 11058 80000 10237 20233 30077 40095 60004 71022 82537 333 20235 50060 58005 70000 81700 83366 88276
AAXX 03004 48665 11462 70301 10239 20234 30088 40098 60264 71022 82548 333 20235 50340 58003 70264 81712 85364 85277
AAXX 03004 96413 11030 82004 10232 20227 30083 40110 61004 76366 8652/ 333 20226 58027 71000 82701 84620 88465
AAXX 03004 96421 11275 72302 10237 20229 30062 40098 60334 70162 8357/ 333 20231 50150 55013 58014 70330 82706 83616 87365
AAXX 03004 96441 11480 71801 10244 20235 30061 40088 60044 70362 8357/ 333 20235 50240 55013 58009 70040 83616 87365
AAXX 03004 96449 12480 72009 10257 20237 30060 40079 60144 8257/ 333 20246 50250 58004 70138 82614 87365
AAXX 03004 96465 11478 72203 10271 20245 30039 40072 60604 70362 81858 333 20241 50420 55074 59004 70604 81814 85364 87279
AAXX 03004 96471 12474 71103 10274 20241 30070 40073 69924 83848 333 20252 50260 59004 70002 81814 84364 87277
AAXX 03004 96481 11462 73302 10246 20233 30064 40083 60534 72162 8384/ 333 20241 50560 55077 58004 70534 81710 83627 86364
AAXX 03004 96491 11460 72504 10259 20238 30070 40082 61194 70562 82848 333 20237 55095 58003 71188 81816 87277
AAXX 03001 45007 12959 10104 10113 20032 30191 40200 51017 60002 80001 333 20106 58005 70000 81080
AAXX 03004 91574 46/// ///// 29075 30382 40388 51239 333 58056
AAXX 03004 91570 NIL
AAXX 03004 91598 NIL
AAXX 03001 06201 47466 82217 10088 20049 39932 49984 58051 70280 8//// 333 82/14 85/17 88/20 91022 91123 91219
AAXX 03001 06203 45568 82317 10106 20043 30007 40058 58044 8//// 333 81/27 84/35 86/41 91020 91120 91217
AAXX 03001 06204 45575 72218 10101 20038 39987 40038 58042 8//// 333 81/24 83/28 85/43 91021 91121 91218
AAXX 03001 06205 47462 82118 10088 20046 39904 49962 58049 75100 8//// 333 84/17 86/20 88/27 91022 91123 91219
AAXX 03001 06208 47665 22113 10062 20037 30012 40061 58032 70180 8//// 333 81/45 91016 91116 91213
AAXX 03001 06211 45472 82116 10089 20045 39956 40011 58047 8//// 333 82/18 83/21 86/45 91020 91121 91217
AAXX 03001 06212 45580 82215 1//// 2//// 39994 40057 58035 8//// 333 82/26 83/32 88/50 91018 91118 91215
AAXX 03001 06235 15574 82210 10090 20041 30069 40069 58031 60001 8//// 333 84/28 85/32 85/37 91014 91116 91211
AAXX 03001 06240 15971 72007 10053 20038 30096 40091 58029 60001 8//// 333 87/60 91008 91110 91207
AAXX 03001 06251 17468 72010 10066 20048 30060 40061 58032 60001 72100 8//// 333 81/19 83/29 85/41 91013 91114 91210
AAXX 03001 06258 46/// /2113 333 91015 91115 91213
AAXX 03001 06269 15964 12006 10043 20034 30102 40096 58024 60001 8//// 333 81/61 91008 91110 91208
AAXX 03001 06280 15966 02007 10039 20027 30084 40088 58019 60001 333 91009 91110 91207
AAXX 03001 06310 15981 82011 10070 20051 30097 40107 58028 60001 8//// 333 88/59 91013 91114 91211
AAXX 03001 06344 15978 02007 10060 20039 30107 40100 58026 60001 333 91010 91113 91208
AAXX 03001 06370 15774 82006 10059 20036 30097 40123 58022 60001 8//// 333 85/50 88/60 91008 91109 91206
AAXX 03001 06380 15975 82007 10047 20025 30005 40146 58016 60001 8//// 333 88/61 91009 91109 91207
AAXX 03001 06206 45571 81916 10095 20035 39972 40024 58043 8//// 333 81/23 85/43 88/48 91020 91120 91216
AAXX 03001 06207 47569 7//14 10085 20024 39987 40040 56036 70380 8//// 333 83/27 84/31 85/37 91019 91121 91217
AAXX 03001 06239 47571 62216 10094 20041 3//// 4//// 5//// 70180 8//// 333 82/21 83/25 85/29 91020 91124 91218
AAXX 03001 06252 46/// /2315 10098 20046 39981 40026 58050 222// 00118 10606 333 91018 91119 91216
AAXX 03001 06260 15967 02106 10055 20031 30101 40103 58025 60001 333 91008 91109 91206
AAXX 03001 06270 17966 42008 10053 20039 30070 40070 58030 60001 70385 8//// 333 84/61 91011 91111 91208
AAXX 03001 06290 15565 41905 10041 20025 30073 40114 58021 60001 8//// 333 82/29 84/36 91008 91108 91206
AAXX 03004 91573 06/// /0610 10267 20240 30004 40100 58004 69981 333 10267 58012 60007
AAXX 03004 91577 06/// /2507 10293 20213 30070 40090 56013 69921 333 10300 58006 60007
AAXX 03004 91579 06/// /0708 10278 20240 30096 40104 58013 60311 333 10280 58005 69987
AAXX 03004 91582 04570 /0610 10291 20223 30074 40108 56011 60001 700// 333 60007 90710 91117 555 60005
AAXX 03004 91583 06/// /0904 10263 20226 30094 40109 58010 60221 333 10272 58007 60007
AAXX 03004 91587 06/// ///10 10278 20221 30065 40109 58010 69921 333 10293 58005 60007
AAXX 03004 91590 04785 /1810 10342 20206 30053 40094 56017 60001 700// 333 60007 90710 91117 555 60005
AAXX 03004 91592 06/// /1509 10325 20197 30015 40097 56017 60001 333 10329 59002 60007
AAXX 03004 91596 06/// /0616 10282 20217 30007 40114 57010 60001 333 10289 58005 60007
AAXX 03001 33135 NIL
AAXX 03001 33317 32997 31802 10017 21014 39820 40162 57008 83030
AAXX 03001 33345 32998 71904 10018 21013 39973 40182 57012 87070
AAXX 03001 33393 32960 62406 10052 20006 39773 40166 53002 80001
AAXX 03001 33506 32697 72303 10001 21020 30040 40242 58006 87500
AAXX 03001 33587 32963 00000 11004 21025 39941 40212 57011
AAXX 03001 33631 /1596 82502 10009 20001 30059 40206 57007 71052 885// 333 88630 555 69901
AAXX 03001 33663 32997 00000 10004 21013 30094 40193 57007
AAXX 03001 33658 31995 31201 11024 21046 39876 40186 57005 71000 80001
AAXX 03001 33711 32997 61904 11024 21043 30018 40236 58008 80001
AAXX 03001 33791 31950 01804 11022 21025 30088 40245 58005 71000
AAXX 03001 33837 32965 52302 10060 20034 30179 40231 58011 85070
AAXX 03001 33924 32997 11502 10016 21009 30242 40255 57004 80009
AAXX 03001 33946 32997 01105 11021 21037 30037 40268 57005
AAXX 03001 34300 31229 81503 11008 21015 30058 40256 58005 71022 885// 333 86705
AAXX 03001 34504 32597 81603 10002 21022 30068 40252 57005 885// 333 88630
AAXX 03001 34519 32360 80000 11019 21040 39980 40266 54000 886// 333 88706
AAXX 03001 34601 31650 60000 11012 21016 30123 40265 52001 71011 85500 333 85633
AAXX 03004 89642 42982 03403 11026 21126 39732 49785 50000 333 11025 21086
BBXX DBBH 03001 99550 10139 41/98 /2412 10067 20041 40082 52010 7//// 22253 04076
BBXX 44008 03001 99405 70692 46/// /2303 10107 20048 40269 53006 92350 22200 00138 11103 312// 41103 70015 333 91204 555 11033 22034 32347 42204 62349 232032 236028 233026 212022 224024 235024
BBXX 44039 03001 99411 70727 46/// /2809 10109 20007 40287 92345 22200 00115 10402 70008 333 91211
AAXX 03004 68399 36/// /2503 10225 20172 30059 40168 58003 333 10312 20225 91022 555 91017
AAXX 03004 68383 36/// /0000 10214 20164 39908 48557 57002 333 10288 20214 91000 555 91015
AAXX 03004 68379 36/// /1503 10228 20175 39820 48554 57002 333 10298 20227 91006 555 91015
AAXX 03004 68398 36/// /3607 10195 20162 39366 48509 57006 333 10256 20195 91012 555 91014
AAXX 03004 68299 16/// /1607 10127 20119 38930 48514 57007 60053 333 10229 20127 91010 555 20052 91018
AAXX 03001 01245 16/// /2906 11012 21107 39168 49866 58035 60001 333 91114
AAXX 03001 01393 16/// /1101 11076 21100 39123 49937 58022 6//// 333 91103
AAXX 03001 01436 16/// /2116 10078 20033 6//// 333 91121
AAXX 03001 01257 16/// /2004 10007 21067 39695 49855 58036 60001 333 91110
AAXX 03001 01277 16/// /0000 11006 21014 60001 333 91104
AAXX 03001 01476 16/// /3301 10005 21024 39953 49959 58036 6//// 333 91109
AAXX 03001 01488 16/// /0000 11067 21074 60001 333 91103
AAXX 03001 01025 17783 32307 10016 21034 39783 49794 50007 6//// 723// 333 91112
AAXX 03001 01015 46/// /2211 10019 21023 333 91120
AAXX 03001 01180 16/// /0000 11020 21033 39763 49820 50006 60011 333 91110
AAXX 03001 01425 16/// /3001 10013 20009 39850 49930 58052 60031 333 91104
AAXX 03001 01442 16/// /1806 11003 21008 39693 49951 57043 69991 333 91108
AAXX 03001 01450 16/// /1907 11051 21061 38786 49934 58038 60001 333 91111
AAXX 03001 01311 47/80 /1512 10041 20023 39784 49845 58062 781// 333 91117
AAXX 03001 01494 17981 61601 11002 21030 39907 49972 58018 60001 700// 333 91107
AAXX 03001 01265 16/// /2008 11043 21083 39321 49905 58033 60001 333 91113
AAXX 03001 01375 16/// /1304 11091 21105 6//// 333 91112
AAXX 03001 01440 46/// /1708 11038 21043 38637 49913 56043 333 91111
AAXX 03001 03951 17450 /2713 10115 20103 30039 40065 55001 60031 71086 87/// 333 87/12 87/59 90710 91118
AAXX 03001 03953 11465 72708 10110 20096 30038 40074 55000 60021 71565 878// 333 82714 87640 92437
AAXX 03001 03955 11575 62505 10103 20089 39853 40047 55006 69981 70265 862// 333 86821
AAXX 03001 03956 17363 /2705 10104 20096 39946 40022 57009 69931 7031/ 88/// 333 88/07
AAXX 03001 03962 11470 82706 10103 20090 30012 40036 53001 60041 72165 8553/ 333 81712 83620 87362
AAXX 03001 03963 17658 /2815 10105 20053 39988 40016 50007 69921 71085 86/// 333 86/30 87/62 90710 91119
AAXX 03001 03966 17663 /2606 10093 20076 39927 40018 57002 60031 72385 85/// 333 81/30 83/44 85/50
AAXX 03001 03967 NIL
AAXX 03001 03969 11367 72611 10097 20084 39883 49985 55010 60041 72165 875// 333 82708 83716 87630 90710 91119
AAXX 03001 03973 16/// /2808 10069 20057 39751 40003 52010 60021
AAXX 03001 03976 11466 82708 10092 20055 39989 40001 52008 69911 72165 886// 333 85715 87634
AAXX 03001 03980 17660 /2713 10080 20056 39911 49936 50006 60011 78181 87/// 333 87/38 90710 91121
AAXX 03004 89532 42/80 70504 11105 21147 39814 49842 51009 87502 333 11050 21114
AAXX 03001 11010 36309 /1002 11003 21003 39811 40201 54000 333 55///
AAXX 03001 11012 16/// /0501 11005 21006 39716 40199 50001 60001
AAXX 03001 11022 16/// /1701 11012 21022 39801 40201 50005 60001
AAXX 03001 11035 31125 82402 11004 21007 39942 40203 52003 71022 886// 333 88704
AAXX 03001 11036 31019 81402 11006 21006 39975 40206 50004 71022 333 55000 85701 87702
AAXX 03001 11101 17/// /3402 10072 20070 39680 40208 50010 60051 7404/
AAXX 03001 11120 36066 /9901 10010 21007 39479 40200 52008 333 55058
AAXX 03001 11126 16/// /1711 11015 21015 37722 48480 50007 60001 333 91125
AAXX 03001 11130 16/// /0000 10007 21002 39598 40201 50007 60001
AAXX 03001 11146 NIL
AAXX 03001 11150 36080 /9901 10032 20001 39647 40196 52009 333 55///
AAXX 03001 11155 16/// /2702 10009 20000 38355 48482 58003 60001
AAXX 03001 11157 32175 23301 11064 21070 39420 40228 53001 81640 333 81703
AAXX 03001 11172 NIL
AAXX 03001 11190 11/05 91202 11004 21014 39960 40201 50001 69901 74744 333 89/03
AAXX 03001 11204 16/// /2201 11015 21025 39410 40226 58005 60001
AAXX 03001 11212 NIL
AAXX 03001 11231 36205 /9901 11022 21022 39622 40214 57005 333 55051
AAXX 03001 11240 36204 /9901 11008 21008 39747 40199 57008 333 55///
AAXX 03001 11244 16/// /3301 11003 21013 39860 40199 58008 60001
AAXX 03001 11389 16/// /2002 11008 21018 39868 40205 50006 60001
AAXX 03001 15015 02598 81601 10015 20004 39600 42802 52003 60001 885// 333 55041 60007 91001 91102
AAXX 03001 15020 02997 01103 11008 21016 39977 40182 58008 60001 333 55067 60007 91004 91104
AAXX 03001 15090 01996 00602 11008 21017 30102 40198 57009 60001 71011 333 55300 0//// 20004 3//// 55064 0//// 20655 30170 60007 91003 91104 92600
AAXX 03001 15108 02698 22734 11023 21023 38084 48503 57014 60001 81041 333 41998 55076 60007 91040
AAXX 03001 15120 01595 81101 11024 21024 39711 40228 57003 69901 76871 8557/ 333 55300 00067 20003 30003 55012 00014 20267 30208 69907 91002 91102 92717
AAXX 03001 15150 01996 01601 11015 21021 39982 40203 57007 60001 71000 333 55045 60007 91003 91104
AAXX 03001 15170 01994 03401 11118 21124 39433 42812 55005 60001 71000 333 55047 60007 91002 91103 92611
AAXX 03001 15200 02597 62501 10055 20018 30063 40210 53007 60001 86500 333 55070 60007 91001 91102
AAXX 03001 15230 01596 80300 11014 21030 39925 40231 57009 60001 71011 885// 333 55300 00012 20001 30000 55034 00003 20415 30375 60007 91001 91101 92600
AAXX 03001 15260 02597 81002 11006 21029 39674 40227 57010 60001 885// 333 55063 60007 91004 91104
AAXX 03001 15280 02998 02704 11043 21164 37508 47046 58003 60001 333 41998 55076 60007
AAXX 03001 15292 02998 81504 10085 20002 39918 40214 57005 60001 8807/ 333 55050 60007 91007 91107
AAXX 03001 15310 02997 01501 10006 21007 30128 40217 58010 60001 333 55300 10186 20004 3//// 55058 10027 20616 30583 60007 91003 91105 92600
AAXX 03001 15335 03/// /1902 10013 20013 30215 40222 58010 6///1 333 4//// 55/// 6///7 91003 91104
AAXX 03001 15346 01996 03601 11036 21043 39935 40240 57003 60001 71000 333 55073 60007 91001 91101
AAXX 03001 15350 02997 02304 11035 21043 30091 40217 58010 60001 333 55059 60007 91005 91105
AAXX 03001 15360 02497 81808 10080 20043 30208 40222 58013 60001 886// 222// 0//// 2//// /059 60007 91010 91110 92437
AAXX 03001 15410 02997 60000 10012 21009 30135 40234 58005 60001 86070 333 55063 60007 91000 91100
AAXX 03001 15420 02997 02402 11016 21025 30107 40223 58007 60001 333 55300 0//// 20000 3//// 55063 0//// 20656 3//// 60007 91002 91103 92600
AAXX 03001 15450 02997 00103 11027 21038 39988 40235 58004 60001 333 55300 10139 20004 3//// 55067 10008 20652 30647 60007 91004 91104
AAXX 03001 15460 02997 02301 11002 21014 30202 40227 57007 60001 333 55061 60007 91002 91102 92610
AAXX 03001 15470 02997 02602 11038 21043 30100 40233 58004 60001 333 55070 60007 91003 91103 92600
AAXX 03001 15480 01996 02301 10048 20048 30212 40230 57007 60001 71000 222// 0//// 2//// 333 55062 60007 91002 91103 92416
OOXX AAUNI 03004 99798 50833 56093 07671 46/// /0508 11184 21204 38986 49910 52011 90000
AAXX 0300/ 89799 46/// ///// 11279 4//// 5////
AAXX 03004 78958 01460 70604 10254 20242 30109 40119 69941 70682 86802 333 10298 20241 58001 84818 83638 86078
AAXX 03004 78583 11470 70304 10231 20208 40185 60011 70181 82808 333 00101 10255 20/// 58000 70011 81817 87277
AAXX 03004 41170 32962 03013 10153 20104 30164 40177 333 59022
AAXX 03004 78958 01460 70604 10254 20242 30109 40119 69941 70682 86802 333 10298 20241 58001 84818 83638 86078
AAXX 03001 01447 16/// /0000 11060 21066 39274 49955 58043 60001 333 91100
AAXX 03001 06407 12775 72008 10062 20040 30111 40117 58026 60001 8353/ 333 70026 83656 86358 91110 91208
AAXX 03001 06447 NIL
AAXX 03004 86011 32970 01205 10322 20230 39898 40053 51006 333 10386 55120
AAXX 03004 86033 32970 00000 10308 20221 39976 40069 53015 333 10362 55118
AAXX 03004 86065 32970 00000 10304 20148 39823 40054 54000 333 10358 55105
AAXX 03004 86068 32970 01304 10306 20148 39873 40060 56002 333 10365 55126
AAXX 03004 86086 32970 01802 10270 20155 39993 40082 52010 333 10330 55120
AAXX 03004 86097 32970 01905 10242 20066 39454 40092 52002 333 10298 55111
AAXX 03004 86128 32970 00902 10250 20152 39965 40078 53010 333 10320 55125
AAXX 03004 86134 32970 01305 10236 20141 39998 40084 53003 333 10314 55125
AAXX 03004 86170 32970 00000 10224 20151 39971 40074 53005 333 10300 55123
AAXX 03004 86185 32970 00000 10266 20117 30010 40103 52003 333 10300 55125
AAXX 03004 86192 32970 00000 10262 20123 39896 40112 52007 333 10304 55///
AAXX 03004 86210 32970 02302 10226 20102 39742 40082 53005 333 10296 55130
AAXX 03004 86218 31958 00000 10216 20154 30000 40097 53006 70400 333 10300 55132
AAXX 03004 86221 32970 00000 10214 20141 39986 40121 51001 333 10294 55112
AAXX 03004 86233 32970 01802 10224 20130 39922 40112 54000 333 10284 55125
AAXX 03004 86234 32970 00000 10236 20141 39869 40051 53009 333 10295 55130
AAXX 03004 86246 32970 01905 10228 20199 39813 40098 54000 333 10300 55130
AAXX 03004 86251 32970 01404 10222 20110 39922 40090 53017 333 10277 55///
AAXX 03004 86255 32970 00000 10208 20161 30037 40105 53017 333 10330 55115
AAXX 03004 86260 32970 00000 10200 20164 39955 40108 52010 333 10270 55110
AAXX 03004 86268 32970 00000 10230 20162 39974 40139 52007 333 10284 55129
AAXX 03004 86285 32970 00000 10218 20153 39822 40103 54000 333 10280 55124
AAXX 03004 86297 32970 01805 10250 20133 39990 40093 57007 333 10295 55///
AAXX 03004 60135 11450 73405 10137 20070 40241 57005 60021 70282 875// 333 83710 87615
AAXX 03004 78970 11465 70703 10254 20238 30087 40112 60021 71596 82843 333 02299 10317 20236 58000 82816 86076 90955
AAXX 03004 78962 11468 70403 10255 20227 30107 40115 60011 71562 82832 333 02299 10307 20233 59005 82816 87077 90945
AAXX 03004 64550 32458 8//// 10236 20224 30/// 40/// 885// 333 0//00 5//// 84610 88616
AAXX 03004 64570 11250 82103 10220 20215 39602 40111 60181 79596 8692/ 333 0//63 58000 85608 82920 88460 94959 95839
AAXX 03001 06431 NIL
AAXX 03001 06432 35/71 /2107 10066 20041 30066 40143 58018 333 85/56 87/58 91111 91207
AAXX 03001 06449 12770 62006 10052 20031 39924 40154 58012 60001 81532 333 70022 81650 84360 91109 91206
AAXX 03001 06450 15878 82105 10066 20038 30114 40130 58020 60001 333 70031 88/57 91110 91206
AAXX 03001 06458 35976 /2107 10057 20038 39992 40147 58014 333 87/60 91110 91207
AAXX 03001 06465 35972 /2005 10058 20032 30072 40139 58016 333 87/61 91108 91205
AAXX 03001 06478 12975 62107 10053 20024 39930 40152 58013 60001 86032 333 70048 86361 91110 91207
AAXX 03001 06496 35458 /2104 10015 20007 39479 40165 58010 333 85/12 87/15 88/20 91106 91204
AAXX 03001 06400 NIL
AAXX 03001 06428 35773 /2106 10064 20040 30083 40132 58021 333 83/50 85/60 87/63 91110 91207
AAXX 03001 06451 12670 72207 10065 20034 30070 40137 58017 60001 8153/ 333 70047 81644 86359 91110 91207
AAXX 03001 06456 NIL
AAXX 03001 06476 17261 82204 10019 20009 39503 40177 57008 60001 70031 333 70067 84/05 88/06 91109 91205
AAXX 03001 06479 NIL
AAXX 03001 06490 15974 02105 10027 20011 39588 40166 57010 60001 333 70076 88/61 91108 91206
AAXX 03001 06590 12765 52003 10009 20006 39726 40190 58004 60001 83502 333 83650 84070 91105 91204
AAXX 03001 03967 11470 72510 10097 20083 39880 49992 55007 69971 72165 876// 333 84710 87630
BBXX TFBKF 03004 99635 70202 46/// ///// 22200 10704 70020
BBXX TFBLK 03004 99657 70248 46/// ///// 22200 10806 70032
BBXX TFDRN 03004 99658 70212 46/// ///// 22200 10806 70030
BBXX TFGRS 03004 99663 70182 46/// ///// 22200 10705 70026
BBXX TFGRV 03004 99638 70225 46/// ///// 22200 11107 70034
BBXX TFGSK 03004 99641 70229 46/// ///// 22200 11007 70033
BBXX TFHFN 03004 99642 70152 46/// ///// 22200 10803 70016
BBXX TFKGR 03004 99657 70136 46/// ///// 22200 10809 70046
BBXX TFSRT 03004 99633 70203 46/// ///// 22200 11110 70048
BBXX TFSTD 03004 99664 70234 46/// ///// 22200 10707 70034
AAXX 03001 03962 11470 82706 10103 20090 30012 40036 53001 60041 72165 8553/ 333 81712 83620 87362
AAXX 03001 33135 32697 82005 10028 21017 39982 40163 57021 8355/
BBXX UFTA 03001 99849 71301 42997 02303 11336 21369 40129 58014 333 21336
AAXX 03001 76040 32960 33502 10168 20042 30123 40137 57011 83030 92345 333 10182 20070 30/// 50150 56070 58036 70000 83372 98660
AAXX 03001 76055 32980 00404 10166 20049 30108 40127 57006 92340 333 10175 20042 30/// 50261 58032 70014
AAXX 03001 76113 32880 30901 10164 20064 39649 40120 57005 83030 92340 333 10170 20074 30/// 50421 56040 59031 79999 83358
AAXX 03001 76123 06/// /2309 10115 20022 3//// 4//// 5//// 60001 7//// 8//// 92350 333 0//// 10196 20024 50339 56/// 57/// 5//// 60007 70000 8//// 8//// 8//// 8//// 9//// 9//// 9//// 44
AAXX 03001 76225 32560 41804 10188 20006 38564 40048 56017 82120 92345 333 10210 20076 30/// 50641 56550 59020 70000 82830 82450
AAXX 03001 76226 06/// /1506 10185 21012 38558 40022 55014 60001 7//// 8//// 92350 333 0//// 10217 20075 30/// 4//// 50369 54/// 56/// 57/// 59018 60007 70000 8//// 8//// 8//// 9//// 9/
AAXX 03001 76242 06/// /3407 10138 20050 39887 40130 57005 60001 7//// 8//// 92350 333 0//// 10195 20138 30/// 4//// 50219 54/// 56/// 57/// 58029 60007 70000 8//// 8//// 8//// 9//// 9/
AAXX 03001 76243 32472 63603 10144 20080 39907 40201 57001 86400 92337 333 10198 20135 30/// 50121 56700 58004 70000 86616
AAXX 03001 76256 02780 735// 10168 20101 30132 40146 52001 60011 87400 92345 333 10202 20130 31/// 50010 565// 58029 60017 70008 87650
AAXX 03001 76305 22670 72405 10198 20125 30123 40131 52001 75052 85430 92340 333 10262 20188 30/// 50321 56550 58027 69997 79999 85630 82358
AAXX 03001 76323 32970 52302 10186 21040 38232 40116 57002 80006 92345 333 10232 20086 30/// 50311 56005 59018 70000 85268
AAXX 03001 76342 31462 53602 10208 20104 39490 40192 57007 70222 85500 92350 333 10240 20100 30/// 50321 56400 58018 70000 85820
AAXX 03001 76382 32680 40901 10242 20138 38860 40078 57015 84060 92340 333 10280 20105 30/// 50011 56050 59001 70000 84356
AAXX 03001 76390 31856 70904 10133 20063 38225 40119 52001 70544 86066 92330 333 10205 20055 30/// 50311 56048 58006 70000 86356 81070
AAXX 03001 76393 31530 51204 10238 20123 39578 40147 57004 70522 85500 92350 333 10269 20130 30/// 50391 56300 58010 70000 85629
AAXX 03001 76402 31556 73305 10182 20137 30086 40143 52013 70544 87700 92345 333 10232 20138 30/// 50171 56500 58013 70000 87728
AAXX 03001 76423 32580 22203 10191 20031 38142 40109 52008 84439 92355 333 10252 20020 30/// 50450 56999 58005 70000 84610 81358 82170
AAXX 03001 76458 32468 61602 10241 20196 30130 40134 57005 85505 92341 333 10282 20136 30/// 50121 566/9 58001 70000 85619 81070
AAXX 03001 76471 32580 42403 10172 20054 37682 40059 52005 84500 92350 333 10211 20042 30/// 50530 56500 59002 70000 84635
AAXX 03001 76490 06/// /1703 10239 20109 39778 40160 53008 60001 7//// 8//// 92350 333 0//// 10292 20115 30/// 50409 54/// 56/// 57/// 58025 60007 70000 8//// 8//// 8//// 8//// 9//// 9/
AAXX 03001 76491 32960 01403 10244 20149 39793 40175 52008 92350 333 10298 20122 30/// 50601 58022 70000
AAXX 03001 76499 32860 31303 10249 20149 30153 40174 5//// 83030 92350 333 10308 20110 30/// 50301 56040 58019 70000 83357
AAXX 03001 76519 32560 12605 10238 20026 38339 40104 57005 81100 92340 333 10272 20019 30/// 50431 56200 58004 70000 81820
AAXX 03001 76525 32880 21809 10170 21006 37464 40082 52001 81130 92340 333 10185 20106 30/// 50741 5655/ 58001 70000 81857
AAXX 03001 76538 06/// /0904 10159 20047 38155 40121 53004 60001 7//// 8//// 92350 333 0//// 10276 20011 30/// 4//// 50279 54/// 56/// 57/// 58010 60007 70000 8//// 8//// 8//// 9//// 9/
AAXX 03001 76539 31965 01202 10170 20034 38155 40140 52001 70544 92350 333 10270 20010 30/// 50270 58007 70000
AAXX 03001 76543 32675 10902 10252 20174 30166 40199 53005 81500 92045 333 10298 20128 30/// 50291 56300 58015 70000 81640
AAXX 03001 76547 06/// /1202 10220 20170 30173 40185 55001 60001 7//// 8//// 92350 333 0//// 10277 20168 50289 56/// 57/// 58015 60007 70000 8//// 8//// 8//// 8//// 9//// 9//// 9//// 44
AAXX 03001 76548 32575 21103 10242 20173 30184 40194 55003 82100 92340 333 10280 20168 30/// 50241 56300 58014 70000 82830
AAXX 03001 76556 32870 21702 10229 20160 39114 40124 52005 82040 92334 333 10279 20104 30/// 50301 56/6/ 58005 70000 82358
AAXX 03001 76571 32660 12101 10236 20008 38150 40102 57004 81200 92350 333 10264 20035 30/// 50231 56500 59002 70000 81846
AAXX 03001 76577 32970 32302 10228 20189 38031 40095 55003 80003 92340 333 10266 20071 30/// 50311 56005 58000 70000
AAXX 03001 76578 06/// /2002 10216 21011 38030 40069 55001 60001 7//// 8//// 92350 333 0//// 10285 20070 30/// 4//// 50289 54/// 56/// 57/// 58000 60007 70000 8//// 8//// 8//// 9//// 9/
AAXX 03001 76581 32970 01004 10194 20107 39067 40171 52006 92350 333 10250 20063 30/// 50370 58032 70000
AAXX 03001 76586 06/// /1801 10206 20155 30021 40177 55001 60001 7//// 8//// 92350 333 0//// 10292 20093 30/// 4//// 50259 54/// 56/// 57/// 58017 60007 70000 8//// 8//// 8//// 9//// 9/
AAXX 03001 76592 06/// /0510 10229 20110 30199 40199 53003 60001 7//// 8//// 92350 333 0//// 10264 20156 30/// 4//// 50519 54/// 56/// 57/// 58008 60007 70000 8//// 8//// 8//// 9//// 9/
AAXX 03001 76593 32360 10506 10228 20205 30197 40199 55002 81040 92350 333 10264 20150 30/// 50480 56100 58008 70000 81330 91007 91505
AAXX 03001 76612 32962 02901 10246 20045 38458 40099 55002 92350 333 10280 20055 30/// 50351 59003 70000
AAXX 03001 76632 32968 00707 10158 20082 37612 40060 52012 92345 333 10200 20082 30/// 5//// 59010 70000
AAXX 03001 76634 31970 00000 10143 20099 37856 40124 52003 70500 92345 333 10241 20062 30/// 50541 58008 70000
AAXX 03001 76641 06/// /0000 10219 20175 30178 40190 53001 60001 7//// 8//// 92350 333 0//// 10294 20132 30/// 4//// 50179 54/// 56/// 57/// 58016 60007 70000 8//// 8//// 8//// 8//// 9/
AAXX 03001 76644 32460 10505 10230 20159 30184 40198 52008 81100 92351 333 10294 20170 30/// 563// 50301 58011 70000 81820 91006 91505
AAXX 03001 76645 06/// /0303 10229 20148 30189 40202 53009 60001 7//// 8//// 92350 333 0//// 10290 20168 30/// 4//// 50379 54/// 56/// 57/// 58009 60007 70000 8//// 8//// 8//// 9//// 9/
AAXX 03001 76648 06/// /0302 10218 20149 30166 40197 53009 60001 7//// 8//// 92350 333 0//// 10304 20138 30/// 4//// 50319 54/// 56/// 57/// 58006 60007 70000 8//// 8//// 8//// 8//// 9/
AAXX 03001 76654 31956 22301 10267 20203 30148 40152 57001 70544 80001 92355 333 10294 20210 30/// 50301 5600/ 58019 70000 82070
AAXX 03001 76656 32975 20000 10210 20097 38503 40114 56004 80008 92350 333 10268 20052 30/// 50440 56005 58006 70000 82280
AAXX 03001 76659 06/// /1905 10249 20165 3//// 4//// 5//// 60001 7//// 8//// 92350 333 0//// 10322 20143 30/// 4//// 50359 54/// 56/// 57/// 5//// 60007 70000 8//// 8//// 8//// 9//// 9/
AAXX 03001 76662 32970 12803 10234 20130 38443 40090 57001 80001 92340 333 10298 20038 30/// 50410 5600/ 59002 70000 81070
AAXX 03001 76665 32964 01602 10206 20098 38108 40087 52001 92350 333 10290 20050 30/// 50300 59004 70000
AAXX 03001 76675 31975 02003 10166 20046 37376 40082 52002 70544 92350 333 10231 21015 30/// 50291 58005 70000 98475
AAXX 03001 76680 31940 02801 10216 21023 37744 40088 55001 70500 92355 333 10243 20065 30/// 50291 58001 70000
AAXX 03001 76683 32968 12101 10196 20035 37822 40117 51007 80001 92345 333 10255 20022 30/// 50461 56005 58004 70000 81080
AAXX 03001 76685 31970 01602 10202 21033 37862 40086 52004 70544 92340 333 10250 20032 30/// 50311 56/// 58004 70000
AAXX 03001 76687 31564 80901 10160 20098 38705 40196 52004 70222 885// 92334 333 10204 20050 30/// 50200 563// 58010 70000 88621
AAXX 03001 76692 31556 10903 10250 20160 30163 40182 50001 70544 81400 92345 333 10285 20135 30/// 50341 563// 58005 70000 81640
AAXX 03001 76693 06/// /0603 10242 20167 30171 40190 53004 60001 7//// 8//// 92350 333 0//// 10285 20147 30/// 4//// 50269 56/// 57/// 58011 60007 70000 8//// 8//// 8//// 8//// 9//// 9/
AAXX 03001 76695 32956 03012 10230 20185 30177 40182 52004 92348 333 10275 20152 30/// 50330 58008 70000
AAXX 03001 76698 32558 13601 10221 20195 30190 40202 52010 81200 92350 333 10295 20164 30/// 50381 58007 70000 81820
AAXX 03001 76726 32970 02001 10233 21031 38390 40077 52001 92330 333 10282 20110 30/// 50190 58005 70000
AAXX 03001 76727 06/// /0000 10199 21007 38389 40092 55000 60001 7//// 8//// 92350 333 0//// 10278 20113 30/// 4//// 50239 54/// 56/// 57/// 58001 60007 70000 8//// 8//// 8//// 9//// 9/
AAXX 03001 76737 31480 71402 10164 20102 38799 40186 53005 70322 81750 92335 333 10201 20050 30/// 50201 56220 58011 70000 81717 86358 91107 91516
AAXX 03001 76738 06/// /1402 10161 20095 38803 40189 53008 60001 7//// 8//// 333 10202 20043 30/// 50169 56/// 57/// 58013 60007 70000 8//// 8//// 8//// 8//// 9//// 9//// 9//// 444 ////
AAXX 03001 76743 31340 70501 10245 20227 30172 40180 53006 70222 875// 92350 333 10267 20171 30/// 50050 561// 58001 70000 87808
AAXX 03001 76750 32558 30302 10245 20186 30177 40187 52009 81108 92350 333 10320 20155 30/// 50411 56106 58005 70008 81820
AAXX 03001 76751 06/// /0402 10238 20184 30177 40188 53009 60001 7//// 8//// 92350 333 0//// 10301 20147 30/// 4//// 50249 54/// 56/// 57/// 58005 60007 70004 8//// 8//// 8//// 9//// 9/
AAXX 03001 76762 32904 01302 10222 20185 38754 40110 53004 92335 333 10302 20098 30/// 50321 58003 70000
AAXX 03001 76772 06/// /1102 10249 21072 38411 40075 53003 60001 7//// 8//// 92350 333 0//// 10308 20010 30/// 4//// 5///9 56/// 57/// 58000 60007 70000 8//// 8//// 8//// 9//// 9//// 9/
AAXX 03001 76773 32970 10901 10252 21002 38405 40081 54000 80001 92346 333 10298 20020 30/// 50411 56009 58001 70000
AAXX 03001 76775 31970 01401 10231 21013 38513 40121 57001 70500 92345 333 10296 20042 30/// 5///1 58007 70000
AAXX 03001 76776 06/// /1002 10216 21038 38499 40101 53004 60001 7//// 8//// 92350 333 0//// 10296 20040 30/// 4//// 50379 56/// 57/// 58012 60007 70000 8//// 8//// 8//// 9//// 9//// 9/
AAXX 03001 76805 32970 02602 10272 20222 30119 40123 55001 92350 333 10315 20215 30/// 50531 59002 70000
AAXX 03001 76806 06/// /2602 10268 20220 30121 40125 55000 60001 7//// 8//// 92350 333 10309 20212 30/// 50239 56/// 57/// 58001 60007 70000 8//// 8//// 8//// 8//// 9//// 9//// 9//// 55
AAXX 03001 76833 32970 03610 10258 20186 30120 40122 54000 92345 333 10292 20214 30/// 50971 59003 70000 92023
AAXX 03001 76840 32930 00205 10266 20137 30078 40133 52010 92340 333 10307 20180 30/// 51051 58013 70000
AAXX 03001 76843 32565 20204 10201 20146 39513 40159 53007 81104 92335 333 10246 20140 30/// 50411 56/9/9 58013 70000 81830
AAXX 03001 76845 32960 00603 10142 20120 37954 40177 53009 92345 333 10220 20004 30/// 50231 58004 70000
AAXX 03001 76848 32970 00502 10136 20073 38388 40101 52007 92350 333 10216 20078 30/// 50301 59001 70000
AAXX 03001 76903 31670 62502 10277 20251 39993 40123 53008 70311 86200 92335 333 10343 20228 30/// 50171 56100 58004 70000 81834 85650
AAXX 03001 76160 32562 72301 10164 20077 39878 40126 54/// 87400 92334 333 10185 20135 30/// 50490 56400 58029 70000 87630
AAXX 03001 76253 32582 42704 10200 20116 30045 40135 56001 84500 92348 333 10210 20155 30/// 50331 56700 58034 70000 84620 92002
AAXX 03001 76405 32680 51802 10252 20178 30109 40130 52002 82430 92350 333 10276 20170 30/// 50517 56330 58013 70000 82640 83357
AAXX 03001 76412 31966 42201 10238 20203 30103 40147 52000 70544 84050 92345 333 10246 20132 30/// 50321 58011 70000 84356
AAXX 03001 76640 32958 01401 10234 20197 30192 40204 57002 92340 333 10266 20138 30/// 50241 58024 70000
AAXX 03001 76647 32565 10502 10225 20161 30179 40210 52006 81100 92350 333 10292 20141 30/// 50331 56200 58007 70000 81826
AAXX 03001 76741 31565 30403 10244 20181 30134 40152 57001 70542 82206 92335 333 10266 20157 30/// 50461 568// 58010 70000 82826
AAXX 03001 76855 32580 41701 10260 20226 30067 40116 56006 82220 92340 333 10298 20178 30/// 50310 56990 59001 70000 82820 82458 92000
AAXX 03004 48300 31/03 90000 10180 20177 39795 40114 51010 74742 333 20172 59026
AAXX 03004 48327 01560 70000 10210 20194 39765 40125 52018 69964 72162 86535 333 20210 59026 69966 70006
AAXX 03004 48331 31/03 90000 10175 20170 39889 40125 52008 74742 333 20167 59022
AAXX 03004 48353 31930 00000 10158 20146 39835 40134 52012 71000 333 20155 59014
AAXX 03004 48356 32962 00000 10140 20121 39939 40144 52008 333 20140 59016
AAXX 03004 48375 31906 20000 10173 20168 39863 40094 52006 74440 80005 333 20167 59030
AAXX 03004 48378 31557 50000 10220 20197 30054 40107 52011 71022 82846 333 20216 59023
AAXX 03004 48381 31959 30302 10162 20143 39908 40132 51007 71011 80006 333 20145 59014
AAXX 03004 48407 31959 60203 10176 20143 39977 40122 52017 71021 81046 333 20164 59011
AAXX 03004 48431 32962 70903 10181 20152 39907 40126 52015 80006 333 20180 59019
AAXX 03004 48456 NIL
AAXX 03004 48480 31958 30610 10226 20156 30084 40089 52015 70511 80005 333 20224 59021
AAXX 03004 48500 NIL
AAXX 03004 48551 11557 80000 10235 20228 30077 40085 52014 60074 71022 84577 333 20230 59033 70067
AAXX 03004 48565 12560 60910 10257 20208 30056 40066 57009 69924 82246 333 20232 59032 70002
AAXX 03004 48569 32560 60000 10234 20210 30045 40086 52013 82246 333 20229 59023
AAXX 03004 48583 31558 60000 10234 20216 30079 40085 52009 71022 82106 333 20230 59017
AAXX 03004 48310 31540 50000 10179 20174 39654 40119 52010 71011 82535 333 20175 59036
AAXX 03004 48325 31620 40000 10200 20192 39859 40106 52011 71022 82555 333 20190 59033
AAXX 03004 48329 31530 80000 10205 20197 39763 40106 52005 71022 85806 333 20196 59032
AAXX 03004 48352 31950 00703 10156 20136 39912 40120 57013 71000 333 20150 59037
AAXX 03004 48357 31958 10000 10145 20125 39964 40139 52006 71000 80001 333 20141 59018
AAXX 03004 48380 31958 20000 10207 20199 30012 40108 52010 71020 81031 333 20201 59021
AAXX 03004 48383 31959 00605 10168 20128 39981 40146 51021 71000 333 20155 59021
AAXX 03004 48403 31958 60505 10188 20139 39910 40126 52012 71011 80006 333 20188 59017
AAXX 03004 48405 31958 60504 10165 20138 39958 40126 52010 71021 80006 333 20160 59014
AAXX 03004 48420 31959 70606 10225 20178 30089 40094 52013 71022 82046 333 20222 59025
AAXX 03004 48421 31950 20000 10190 20182 39987 40104 52014 71000 80005 333 20185 59027
AAXX 03004 48425 31956 40101 10219 20179 30093 40104 52013 71011 80006 333 20201 59022
AAXX 03004 48426 31958 50507 10221 20156 30086 40099 52013 71011 80005 333 20220 59023
AAXX 03004 48429 32560 51004 10231 20156 30090 40097 52013 81105 333 20231 59020
AAXX 03004 48430 31959 20907 10222 20151 30080 40087 51002 70500 80002 333 20214 59025
AAXX 03004 48450 31957 20000 10218 20189 30067 40100 52015 71000 80005 333 20197 59024
AAXX 03004 48459 32961 30603 10224 20177 30090 40093 52014 80006 333 20221 59020
AAXX 03004 48465 NIL
AAXX 03004 48550 31558 70000 10249 20233 30075 40082 52015 71022 81146 333 20242 59024
AAXX 03004 48552 NIL
AAXX 03004 48566 NIL
AAXX 03004 48568 32460 61702 10249 20222 30076 40083 52013 84876 333 20243 59015
AAXX 03004 91930 36/// ///// 10285 20220 333 20241
AAXX 03004 91943 36/// /0512 10287 20222 30113 40115 56017 333 58006
AAXX 03004 89061 179// 02804 10001 21003 39941 49948 52040 60074 70077 333 10009 20001 91006 91109
AAXX 03004 03240 17484 /2216 10102 20080 39869 49897 56043 69901 723// 92350 333 55/// 20176 86/17 83/69 90710 91127
AAXX 03004 03827 17460 /2527 10112 20103 30037 40098 56026 60051 761// 92350 333 81/11 83/14 86/50 90710 91136
AAXX 03004 03002 17400 /2214 10052 20037 39668 49685 56054 60081 733// 92350 333 83/13 84/19 96149
AAXX 03004 03008 16/// /2230 10069 20049 39640 49708 58044 60041 92350 333 90710 91150 91043
AAXX 03004 03010 46/// /2641 10084 20052 49701 57052 333 90710 91162
AAXX 03004 03014 46/// /2533 10088 20062 49685 58048 92350 333 8//// 90710 91142
AAXX 03004 03031 17423 /2634 10051 20015 39484 49802 58021 60091 762// 92350 333 55/// 20078 81/18 83/31 87/37 90710 91157 91048
AAXX 03004 03034 17662 /2732 10070 20027 39795 49808 55014 60041 781// 92350 333 81/30 85/38 90710 91160 91047
AAXX 03004 03037 17661 /2723 10082 20024 39820 49842 58010 60051 781// 92350 333 87/47 90710 91140 91040
AAXX 03004 03039 46/// /2849 10013 20013 92350 333 90710 91163 91059
AAXX 03004 03041 46/// /2536 11012 21012 92350 333 90710 91166 91055
AAXX 03004 03044 17561 /2734 10074 20016 39672 49768 57026 60041 723// 92350 333 55/// 20072 85/29 84/63 90710 91165 91065
AAXX 03004 03047 17665 /2215 10067 20007 39570 49865 58003 60061 781// 92350 333 55/// 20122 83/36 86/41 90710 91141
AAXX 03004 03062 17770 /2218 10059 20024 39797 49802 58010 60011 781// 92350 333 55/// 20119 87/50 90710 91142
AAXX 03004 03065 46/// /2565 11024 21025 92350 333 90710 91186 91086
AAXX 03004 03068 11575 72624 10064 20032 39803 49811 55006 69941 72581 8487/ 92350 333 82822 83650 87359 90710 91136 91036
AAXX 03004 03080 17980 /2418 10067 20012 39663 49829 55011 69901 723// 92350 333 81/69 90710 91135 91029
AAXX 03004 03088 15982 /2529 10074 20053 39668 49826 56033 60001 92350 333 55/// 20136 87/70 90710 91142 91042
AAXX 03004 03094 15971 /2421 10079 20023 39791 49796 56032 60001 92350 333 83/69 90710 91138
AAXX 03004 03105 17759 /2727 10088 20037 39903 49920 50001 60011 723// 92350 333 83/50 90710 91136
AAXX 03004 03144 17676 /2312 10073 20036 39830 49872 55007 60021 723// 92350 333 55/// 20127 81/34 83/50
AAXX 03004 03148 46/// /2735 10032 20023 92350 333 90710 91149 91048
AAXX 03004 03153 17471 /2522 10094 20078 39792 49927 56017 60021 723// 92350 333 55/// 20122 81/17 85/50 90710 91141 91032
AAXX 03004 03155 16473 /2624 10068 20058 39609 49900 56017 69961 92350 333 82/11 86/69 90710 91137
AAXX 03004 03158 17573 /2319 10090 20068 39748 49881 56028 69901 781// 92350 333 55/// 20202 81/26 84/31 85/38 90710 91129
AAXX 03004 03210 16469 /2421 10095 20083 39799 49946 56022 69981 92350 333 81/14 86/48 90710 91133
AAXX 03004 03212 17557 /2619 10102 20074 39846 49942 56025 60041 782// 92350 333 82/20 83/26 85/45 90710 91131 91030
AAXX 03004 03214 15461 /2421 10107 20094 39935 49953 56030 60011 92350 333 82/14 86/23 90710 91130
AAXX 03004 03220 16480 ///// 10102 20089 39888 49922 56028 69941 92350 333 83/10 83/70
AAXX 03004 03224 17164 /2524 10079 20077 39579 49916 56025 69921 723// 92350 333 88/02 90710 91142 91035
AAXX 03004 03225 16547 /2516 10091 20069 39640 49938 56031 60101 92350 333 55/// 20143 86/20 90710 91130
AAXX 03004 03226 17660 /2516 10090 20075 39665 49934 56037 69981 782// 92350 333 81/38 85/44 90710 91125
AAXX 03004 03227 46/// /2539 10044 2//// 92350 333 90710 91151
AAXX 03004 03230 16483 /2518 10085 20073 39655 49905 56033 60011 92350 333 85/15 90710 91137 91030
AAXX 03004 03238 17461 /2517 10094 20074 39738 49907 56038 69901 781// 92350 333 87/15 90710 91128 91027
AAXX 03004 03261 16470 /2013 10079 20063 39917 49957 56048 60001 92350 333 87/12
AAXX 03004 03265 17481 /2218 10080 20066 39924 49954 56049 69901 723// 92350 333 85/13 85/42
AAXX 03004 03266 16466 /1915 10077 20053 39941 49958 56049 60001 92350 333 87/16
AAXX 03004 03275 15472 /2023 10068 20048 39748 49937 56042 60001 92350 333 85/13 90710 91136
AAXX 03004 03281 16/// /2125 10053 20050 60001 92350 333 90710 91135 91035
AAXX 03004 03903 16558 /2709 10088 20050 39917 49973 53005 60011 92350 333 55/// 20077 82/28 83/44 86/50
AAXX 03004 03904 17661 /2608 10079 20041 39904 49963 52008 60011 781// 92350 333 81/37 86/45
AAXX 03004 03907 17760 /2518 10080 20038 39938 49946 53007 69921 723// 92350 333 55/// 20108 83/50 86/67 90710 91131
AAXX 03004 03911 16466 /2715 10065 20047 39688 49958 53008 60011 92350 333 84/17 84/40 90710 91126
AAXX 03004 03915 16670 /2710 10080 20060 39873 49950 53005 60011 92350 333 86/38 83/67 90710 91127
AAXX 03004 03916 16459 /3110 10067 20052 39752 49939 52007 60021 92350 333 55/// 20156 85/19 85/36 91020
AAXX 03004 03923 17662 /2914 10082 20045 39767 49960 55001 69961 723// 92350 333 84/40 85/45 90710 91129
AAXX 03004 78970 11465 70703 10254 20238 30087 40112 60021 71596 82843 333 02299 10317 20236 58000 82816 86076 90955
AAXX 03004 78962 11468 70403 10255 20227 30107 40115 60011 71562 82832 333 02299 10307 20233 59005 82816 87077 90945
AAXX 03004 03301 16464 /2321 10106 20106 39918 49990 56018 60041 92350 333 82/10 85/23 90710 91131
AAXX 03004 03305 17350 /2426 10095 20084 39734 49991 56016 60281 762// 92350 333 87/08 90710 91141 91037
AAXX 03004 03313 16689 /2512 10110 20087 39893 49985 56021 69961 92350 333 84/30 84/50 86/67
AAXX 03004 03316 15771 /2525 10107 20086 39963 49974 56031 69981 92350 333 82/50 87/68 90710 91131
AAXX 03004 03318 16/// /2526 10104 20091 60011 92350 333 90710 91133
AAXX 03004 03321 16984 /2513 10116 20084 39969 49981 56038 69921 92350 333 55/// 20157 87/66
AAXX 03004 03330 17142 /2217 10064 20064 39636 49993 56043 69901 751// 92350 333 88/02 90710 91125
AAXX 03004 03344 17328 /2219 10068 20068 39650 49963 56040 60011 758// 92350 333 81/06 87/17 90710 91133
AAXX 03004 03346 16/// /2324 10074 20065 60001 92350 333 90710 91138 91034
AAXX 03004 03348 17481 /2016 10085 20075 39876 49982 56041 69981 723// 92350 333 55/// 20249 86/16 86/30
AAXX 03004 03355 15581 /2017 10080 20055 39951 49962 56052 69901 92350 333 55/// 20167 87/20 84/32 90710 91130
AAXX 03004 03373 16469 /2019 10072 20054 39920 49990 56051 60001 92350 333 85/10 86/57 90710 91131 91030
AAXX 03004 03379 16480 /2127 10077 20057 39927 40004 57047 60001 92350 333 82/13 87/50 90710 91134
AAXX 03004 03382 15777 /2118 10072 20053 39959 49967 56051 60001 92350 333 55/// 20263 87/56 90710 91127
AAXX 03004 03385 46880 /2026 10068 20049 39975 49985 58054 92350 333 85/57 87/71 90710 91136 91036
AAXX 03004 03391 11481 82122 10074 20047 39996 40003 57052 69901 72162 85572 92350 333 85616 87360 87072 90710 91134
AAXX 03004 03392 16474 /2026 10069 20054 30004 40007 58049 60001 92350 333 82/19 87/56 85/71 90710 91134
AAXX 03004 03405 16360 /2431 10110 20109 39892 40006 56020 60041 92350 333 55/// 20106 85/08 86/16 90710 91142
AAXX 03004 03409 16/// /2413 10099 20090 60041 92350 333 55/// 2////
AAXX 03004 03410 16439 /2419 10088 20087 39572 49998 56024 60121 92350 333 55/// 20126 81/12 84/15 85/29 90710 91130
AAXX 03004 03469 17484 /2126 10072 20055 30013 40016 58050 69901 723// 92350 333 55/// 20335 81/18 86/56 90710 91135
AAXX 03004 03488 15684 /2023 10071 20039 39994 40020 58052 60001 92350 333 81/49 87/61 90710 91132
AAXX 03004 03503 17336 /2511 10108 20103 39950 40026 56023 60101 761// 92350 333 85/08 84/18 90710 91125 91023
AAXX 03004 03507 17143 /2416 10089 20089 39663 40029 56027 60121 751// 92350 333 88/02 90710 91128 91027
AAXX 03004 03520 16474 /2511 10099 20089 39901 40019 56037 60021 92350 333 55/// 20161 83/18 84/22 85/50
AAXX 03004 03522 17584 /2307 10106 20106 39936 40027 56036 69941 761// 92350 333 85/20 84/26 91018
AAXX 03004 03529 17356 /2117 10086 20081 39989 40031 56043 69941 757// 92350 333 81/06 86/31 90710 91132
AAXX 03004 03544 17364 /1908 10070 20062 39894 40024 56045 69941 723// 92350 333 55/// 20311 88/09
AAXX 03004 03560 17468 /2117 10075 20065 39931 40034 58046 60011 751// 92350 333 55/// 20357 87/11 90710 91129
AAXX 03004 03604 16363 /2721 10115 20109 39989 40042 56020 60071 92350 333 86/06 83/16 90710 91135
AAXX 03004 03605 16227 /2625 10113 20108 30039 40047 56022 60071 92350 333 81/05 86/09 90710 91136
AAXX 03004 03609 16/// /2433 10114 20111 39997 40048 56025 60051 92350 333 90710 91143
AAXX 03004 03628 17365 /2216 10096 20088 39975 40047 56038 69921 751// 92350 333 55/// 20197 86/08 87/18
AAXX 03004 03647 16232 /2320 10075 20074 39784 40037 56043 60001 92350 333 55/// 20260 88/03 90710 91127
AAXX 03004 03658 16481 /2117 10092 20071 39986 40055 56045 69921 92350 333 84/14 87/19 90710 91127
AAXX 03004 03660 17263 /2312 10074 20068 39811 40058 56043 69941 782// 92350 333 88/05 90710 91126 91023
AAXX 03004 03672 16580 /2113 10085 20065 30025 40066 58043 69921 92350 333 83/21 86/34
AAXX 03004 03684 17760 /2117 10070 20056 39952 40058 58043 69921 782// 92350 333 87/50 90710 91126
AAXX 03004 03693 16680 /2118 10085 20065 30076 40078 58036 60001 92350 333 86/49 83/60 90710 91127
AAXX 03004 03707 17322 /2526 10113 20113 30062 40070 56026 60081 751// 92350 333 87/07 90710 91133
AAXX 03004 03710 16235 /2515 10086 20086 39647 40062 56029 60081 92350 333 55/// 20205 87/03 85/11 90710 91133 91030
AAXX 03004 03743 16482 /2310 10097 20076 39907 40066 56042 69921 92350 333 87/16 90710 91125
AAXX 03004 03749 16580 /2113 10095 20081 39963 40072 56042 69941 92350 333 85/26 85/50
AAXX 03004 03761 17350 /2120 10089 20080 39928 40071 58042 69941 782// 92350 333 55/// 20310 85/08 86/15 90710 91128
AAXX 03004 03768 16457 /2217 10094 20079 39992 40070 58044 60001 92350 333 86/12 90710 91129 91029
AAXX 03004 03769 17457 /2112 10086 20081 30000 40081 58039 60011 762// 92350 333 55/// 20263 85/11 84/26
AAXX 03004 03770 16/// ///// 10085 20072 69921 92350
AAXX 03004 03781 17262 /2015 10075 20072 39872 40079 58038 60011 757// 92350 333 55/// 20363 87/04
AAXX 03004 03784 46/// /2114 10083 20068 30068 40071 58040 92350
AAXX 03004 03797 17680 /2117 10081 20053 30030 40090 58035 69901 723// 92350 333 55/// 20417 81/34 88/56
AAXX 03004 03839 16/// ///// 10107 20095 69981 92350 333 55/// 20245
AAXX 03004 03857 17457 /2631 10119 20109 30026 40088 56036 60021 751// 92350 333 81/11 85/42 90710 91141
AAXX 03004 03866 16/// /2431 10115 20093 30066 40091 57037 60011 92350 333 90710 91139
AAXX 03004 03872 17457 /2322 10105 20093 30082 40087 58039 60021 781// 92350 333 55/// 20340 81/12 86/23 90710 91130
AAXX 03004 03876 16/// /2322 10105 20090 30091 40094 58038 60021 92350 333 90710 91134
AAXX 03004 03895 41362 82324 10100 20083 40146 57029 72162 886// 333 86709 90710 91136 91036
AAXX 03001 26038 21483 22203 10011 21001 39905 49946 52015 70286 82900 333 10063 20010 60007 82920 555 1/000 20010 3/100 50040 52100
AAXX 03001 26045 27384 22304 10017 20012 39931 49934 53010 70000 82/// 333 10041 20015 60007 82/08 91109 555 1/100 20015 3/100 50030
AAXX 03001 26058 27481 72403 10030 20022 39926 49933 52020 70066 85/// 333 10043 20019 60017 85/16 91113 555 1/002 20019 3/002 50030 52002
AAXX 03001 26115 27584 52705 10044 20000 39960 49968 52017 70000 81/// 333 10064 20040 60007 81/24 91010 91112 555 1/002 20040 3/001 50062
AAXX 03001 26135 27/82 02402 10011 20006 39885 49960 52015 70000 80/// 333 10037 20010 60007 80/// 555 1/101 20010 3/101 50029 52100
AAXX 03001 26141 21283 72506 10011 20004 39799 49947 51016 72686 87300 333 10030 20010 69937 87906 91008 91110 555 1/000 20010 3/000 50022 52000
AAXX 03001 26231 21583 32404 10024 20004 39959 49974 53017 70286 83500 333 10056 20016 60007 83631 555 1/100 20016 3/101 50043
AAXX 03001 26242 21384 82503 10026 20016 39882 49968 51021 70262 875// 333 10060 20023 60007 87609 555 1/002 20023 3/002 50034 52002
AAXX 03001 26247 27/81 /2604 10034 20024 39903 49981 51021 72250 333 10069 20030 60007 91110 555 1/003 20030 3/003 50038
AAXX 03004 70026 NIL
AAXX 03004 70133 NIL
AAXX 03004 70174 NIL
AAXX 03004 70200 NIL
AAXX 03004 70219 NIL
AAXX 03004 70231 NIL
AAXX 03004 70261 NIL
AAXX 03004 70267 NIL
AAXX 03004 70271 NIL
AAXX 03004 70273 NIL
AAXX 03004 70308 NIL
AAXX 03004 70316 NIL
AAXX 03004 70326 NIL
AAXX 03004 70340 NIL
AAXX 03004 70350 NIL
AAXX 03004 70361 NIL
AAXX 03004 70381 NIL
AAXX 03004 70398 NIL
AAXX 03004 70414 NIL
AAXX 03004 78388 112570 40608 10264 20198 30147 40156 60001 84800 333 01200 10290 20210 58006 84822
AAXX 03004 68054 42960 33406 10211 20174 48523 58007 83070
AAXX 03004 68328 42960 01803 10208 20089 48498 53002
AAXX 03003 91802 NIL
AAXX 03003 91809 NIL
AAXX 03003 91831 36/// /0206 10282 20239 40115 57003 333 2////
AAXX 03003 91841 36/// /1004 10263 20217 4//// 5//// 333 20262
AAXX 03003 91843 31498 60606 10261 20233 40105 55005 60001 71521 868// 333 20210 561// 333 70193 83815 86645
AAXX 03003 91848 16/// /0306 10274 20226 40090 52032 69921 333 20218
AAXX 03004 48302 31/00 91102 10140 20136 38460 40102 74542 333 20135 59032
AAXX 03004 48304 31557 80000 10186 20179 39650 40118 52000 71021 8657/ 333 20172 59039
AAXX 03004 48334 31540 80000 10185 20182 39749 40119 52006 71022 85556 333 20175 59027
AAXX 03004 48360 NIL
AAXX 03004 48372 NIL
AAXX 03004 48373 11556 60000 10213 20202 30043 40106 52011 69934 71062 82536 333 20210 59021 70003
AAXX 03004 48386 31930 50000 10203 20197 30057 40101 52010 71011 80006 333 20193 59020
AAXX 03004 48387 31556 11006 10167 20162 39143 40113 52011 71000 81500 333 20142 59028
AAXX 03004 48408 32960 70000 10170 20146 39967 40121 52009 80006 333 20153 59012
AAXX 03004 48415 31956 40515 10221 20160 30084 40095 52012 71011 80005 333 20215 59024
AAXX 03004 48433 31956 20304 10163 20147 39958 40129 52014 71000 80005 333 20155 59013
AAXX 03004 48437 31957 80403 10162 20144 39910 40127 52009 71020 80006 333 20150 59018
AAXX 03004 48440 NIL
AAXX 03004 48451 31908 60000 10198 20198 30093 40104 52015 74142 81046 333 20196 59022
AAXX 03004 48454 31557 50606 10242 20171 30088 40095 71011 81106 333 20239 59019
AAXX 03004 48457 31557 60623 10250 20182 30080 40097 71022 81146 333 20246 59030
AAXX 03004 48463 31957 60707 10233 20157 30011 40106 70522 81046 333 20218 59012
AAXX 03004 48464 31556 62603 10215 20207 30075 40088 52008 71022 84534 333 20210 59017
AAXX 03004 48479 NIL
AAXX 03004 48520 31558 50000 10237 20227 30066 40081 50007 71011 82506 333 20233 59027
AAXX 03004 48554 31458 60000 10240 20233 30081 40085 52017 71022 83456 333 20235 59022
AAXX 03004 48563 32560 50000 10244 20215 30040 40076 52012 81156 333 20211 59032
AAXX 03004 48571 32560 60000 10237 20230 30070 40082 52011 82876 333 20228 59018
AAXX 03004 78526 NIL
AAXX 03004 78543 NIL
AAXX 03004 78255 42559 10405 10209 20142 30054 40203 52020 81500 333 10246 81820
AAXX 03004 78317 NIL
AAXX 03004 78318 NIL
AAXX 03004 78325 NIL
AAXX 03004 78333 NIL
AAXX 03004 78338 NIL
AAXX 03004 78348 NIL
AAXX 03004 78349 NIL
AAXX 03004 78353 NIL
AAXX 03004 78360 NIL
AAXX 03004 78367 NIL
AAXX 03004 78369 NIL
AAXX 03001 26554 41350 82304 10048 20036 39849 40010 57007 75165 886// 333 88707 91111 555 11004
AAXX 03001 26666 41460 71604 10034 20016 39829 40043 57018 70262 875// 333 87619 91010 91115 555 11003
AAXX 03001 26850 41560 82202 10050 20020 39796 40066 57002 70262 8653/ 333 86626 555 11003
AAXX 03001 26863 41658 72007 10016 21000 39847 40085 57012 71062 875// 333 87645 91110 555 11001
AAXX 03001 26941 42960 72005 10064 20002 39854 40089 53008 87070 333 91111 555 11004
AAXX 03001 26951 42562 72207 10054 20014 39891 40089 54000 875// 333 87632 91111 555 11003
AAXX 03001 33008 41543 82504 10060 20001 39942 40120 52013 70422 885// 333 88621 555 10004
AAXX 03001 33019 42960 72003 10062 20000 39938 40112 53004 8705/ 555 11003
AAXX 03001 33036 41970 71803 10043 21012 39893 40124 57013 70262 8707/ 555 11003
AAXX 03001 33041 41660 71804 10027 20003 39981 40138 57013 72582 8357/ 555 11002
BBXX VNVS 03004 99047 11278 41299 10104 10293 20232 40143 51/// 70100 81205 22283 00305 20303 301// 40303 80251
BBXX A8QR9 03001 99041 11059 41/96 /0306 10275 40080 55/// 703// 8/7// 22254 04280 2////
BBXX A8IH2 03003 99343 31678 41298 70522 10215 20185 40140 53010 71122 8/600 22224 00210 20403 304// 40202 5//// 80195
BBXX DDPH 03004 99342 31524 41998 21810 10191 20103 40192 53002 70100 80003 22263 04240 20401 320// 40602 80140
AAXX 03001 76040 32960 33502 10168 20042 30123 40137 57011 83030 92345333 10182 20070 30/// 50150 56070 58036 70000 83372 98660
AAXX 03001 76055 32980 00404 10166 20049 30108 40127 57006 92340 33310175 20042 30/// 50261 58032 70014
AAXX 03001 76113 32880 30901 10164 20064 39649 40120 57005 83030 92340333 10170 20074 30/// 50421 56040 59031 79999 83358
AAXX 03001 76123 06/// /2309 10115 20022 3//// 4//// 5//// 60001 7////8//// 92350 333 0//// 10196 20024 50339 56/// 57/// 5////60007 70000 8//// 8//// 8//// 8//// 9//// 9//// 9//// 44
AAXX 03001 76225 32560 41804 10188 20006 38564 40048 56017 82120 92345333 10210 20076 30/// 50641 56550 59020 70000 82830 82450
AAXX 03001 76226 06/// /1506 10185 21012 38558 40022 55014 60001 7////8//// 92350 333 0//// 10217 20075 30/// 4//// 50369 54///56/// 57/// 59018 60007 70000 8//// 8//// 8//// 9//// 9/
AAXX 03001 76242 06/// /3407 10138 20050 39887 40130 57005 60001 7////8//// 92350 333 0//// 10195 20138 30/// 4//// 50219 54///56/// 57/// 58029 60007 70000 8//// 8//// 8//// 9//// 9/
AAXX 03001 76243 32472 63603 10144 20080 39907 40201 57001 86400 92337333 10198 20135 30/// 50121 56700 58004 70000 86616
AAXX 03001 76256 02780 735// 10168 20101 30132 40146 52001 60011 8740092345 333 10202 20130 31/// 50010 565// 58029 60017 7000887650
AAXX 03001 76305 22670 72405 10198 20125 30123 40131 52001 75052 8543092340 333 10262 20188 30/// 50321 56550 58027 69997 7999985630 82358
AAXX 03001 76323 32970 52302 10186 21040 38232 40116 57002 80006 92345333 10232 20086 30/// 50311 56005 59018 70000 85268
AAXX 03001 76342 31462 53602 10208 20104 39490 40192 57007 70222 8550092350 333 10240 20100 30/// 50321 56400 58018 70000 85820
AAXX 03001 76382 32680 40901 10242 20138 38860 40078 57015 84060 92340333 10280 20105 30/// 50011 56050 59001 70000 84356
AAXX 03001 76390 31856 70904 10133 20063 38225 40119 52001 70544 8606692330 333 10205 20055 30/// 50311 56048 58006 70000 8635681070
AAXX 03001 76393 31530 51204 10238 20123 39578 40147 57004 70522 8550092350 333 10269 20130 30/// 50391 56300 58010 70000 85629
AAXX 03001 76402 31556 73305 10182 20137 30086 40143 52013 70544 8770092345 333 10232 20138 30/// 50171 56500 58013 70000 87728
AAXX 03001 76423 32580 22203 10191 20031 38142 40109 52008 84439 92355333 10252 20020 30/// 50450 56999 58005 70000 84610 8135882170
AAXX 03001 76458 32468 61602 10241 20196 30130 40134 57005 85505 92341333 10282 20136 30/// 50121 566/9 58001 70000 85619 81070
AAXX 03001 76471 32580 42403 10172 20054 37682 40059 52005 84500 92350333 10211 20042 30/// 50530 56500 59002 70000 84635
AAXX 03001 76490 06/// /1703 10239 20109 39778 40160 53008 60001 7////8//// 92350 333 0//// 10292 20115 30/// 50409 54/// 56///57/// 58025 60007 70000 8//// 8//// 8//// 8//// 9//// 9/
AAXX 03001 76491 32960 01403 10244 20149 39793 40175 52008 92350 33310298 20122 30/// 50601 58022 70000
AAXX 03001 76499 32860 31303 10249 20149 30153 40174 5//// 83030 92350333 10308 20110 30/// 50301 56040 58019 70000 83357
AAXX 03001 76519 32560 12605 10238 20026 38339 40104 57005 81100 92340333 10272 20019 30/// 50431 56200 58004 70000 81820
AAXX 03001 76525 32880 21809 10170 21006 37464 40082 52001 81130 92340333 10185 20106 30/// 50741 5655/ 58001 70000 81857
AAXX 03001 76538 06/// /0904 10159 20047 38155 40121 53004 60001 7////8//// 92350 333 0//// 10276 20011 30/// 4//// 50279 54///56/// 57/// 58010 60007 70000 8//// 8//// 8//// 9//// 9/
AAXX 03001 76539 31965 01202 10170 20034 38155 40140 52001 70544 92350333 10270 20010 30/// 50270 58007 70000
AAXX 03001 76543 32675 10902 10252 20174 30166 40199 53005 81500 92045333 10298 20128 30/// 50291 56300 58015 70000 81640
AAXX 03001 76547 06/// /1202 10220 20170 30173 40185 55001 60001 7////8//// 92350 333 0//// 10277 20168 50289 56/// 57/// 5801560007 70000 8//// 8//// 8//// 8//// 9//// 9//// 9//// 44
AAXX 03001 76548 32575 21103 10242 20173 30184 40194 55003 82100 92340333 10280 20168 30/// 50241 56300 58014 70000 82830
AAXX 03001 76556 32870 21702 10229 20160 39114 40124 52005 82040 92334333 10279 20104 30/// 50301 56/6/ 58005 70000 82358
AAXX 03001 76571 32660 12101 10236 20008 38150 40102 57004 81200 92350333 10264 20035 30/// 50231 56500 59002 70000 81846
AAXX 03001 76577 32970 32302 10228 20189 38031 40095 55003 80003 92340333 10266 20071 30/// 50311 56005 58000 70000
AAXX 03001 76578 06/// /2002 10216 21011 38030 40069 55001 60001 7////8//// 92350 333 0//// 10285 20070 30/// 4//// 50289 54///56/// 57/// 58000 60007 70000 8//// 8//// 8//// 9//// 9/
AAXX 03001 76581 32970 01004 10194 20107 39067 40171 52006 92350 33310250 20063 30/// 50370 58032 70000
AAXX 03001 76586 06/// /1801 10206 20155 30021 40177 55001 60001 7////8//// 92350 333 0//// 10292 20093 30/// 4//// 50259 54///56/// 57/// 58017 60007 70000 8//// 8//// 8//// 9//// 9/
AAXX 03001 76592 06/// /0510 10229 20110 30199 40199 53003 60001 7////8//// 92350 333 0//// 10264 20156 30/// 4//// 50519 54///56/// 57/// 58008 60007 70000 8//// 8//// 8//// 9//// 9/
AAXX 03001 76593 32360 10506 10228 20205 30197 40199 55002 81040 92350333 10264 20150 30/// 50480 56100 58008 70000 81330 9100791505
AAXX 03001 76612 32962 02901 10246 20045 38458 40099 55002 92350 33310280 20055 30/// 50351 59003 70000
AAXX 03001 76632 32968 00707 10158 20082 37612 40060 52012 92345 33310200 20082 30/// 5//// 59010 70000
AAXX 03001 76634 31970 00000 10143 20099 37856 40124 52003 70500 92345333 10241 20062 30/// 50541 58008 70000
AAXX 03001 76641 06/// /0000 10219 20175 30178 40190 53001 60001 7////8//// 92350 333 0//// 10294 20132 30/// 4//// 50179 54///56/// 57/// 58016 60007 70000 8//// 8//// 8//// 8//// 9/
AAXX 03001 76644 32460 10505 10230 20159 30184 40198 52008 81100 92351333 10294 20170 30/// 563// 50301 58011 70000 81820 9100691505
AAXX 03001 76645 06/// /0303 10229 20148 30189 40202 53009 60001 7////8//// 92350 333 0//// 10290 20168 30/// 4//// 50379 54///56/// 57/// 58009 60007 70000 8//// 8//// 8//// 9//// 9/
AAXX 03001 76648 06/// /0302 10218 20149 30166 40197 53009 60001 7////8//// 92350 333 0//// 10304 20138 30/// 4//// 50319 54///56/// 57/// 58006 60007 70000 8//// 8//// 8//// 8//// 9/
AAXX 03001 76654 31956 22301 10267 20203 30148 40152 57001 70544 8000192355 333 10294 20210 30/// 50301 5600/ 58019 70000 82070
AAXX 03001 76656 32975 20000 10210 20097 38503 40114 56004 80008 92350333 10268 20052 30/// 50440 56005 58006 70000 82280
AAXX 03001 76659 06/// /1905 10249 20165 3//// 4//// 5//// 60001 7////8//// 92350 333 0//// 10322 20143 30/// 4//// 50359 54///56/// 57/// 5//// 60007 70000 8//// 8//// 8//// 9//// 9/
AAXX 03001 76662 32970 12803 10234 20130 38443 40090 57001 80001 92340333 10298 20038 30/// 50410 5600/ 59002 70000 81070
AAXX 03001 76665 32964 01602 10206 20098 38108 40087 52001 92350 33310290 20050 30/// 50300 59004 70000
AAXX 03001 76675 31975 02003 10166 20046 37376 40082 52002 70544 92350333 10231 21015 30/// 50291 58005 70000 98475
AAXX 03001 76680 31940 02801 10216 21023 37744 40088 55001 70500 92355333 10243 20065 30/// 50291 58001 70000
AAXX 03001 76683 32968 12101 10196 20035 37822 40117 51007 80001 92345333 10255 20022 30/// 50461 56005 58004 70000 81080
AAXX 03001 76685 31970 01602 10202 21033 37862 40086 52004 70544 92340333 10250 20032 30/// 50311 56/// 58004 70000
AAXX 03001 76687 31564 80901 10160 20098 38705 40196 52004 70222 885//92334 333 10204 20050 30/// 50200 563// 58010 70000 88621
AAXX 03001 76692 31556 10903 10250 20160 30163 40182 50001 70544 8140092345 333 10285 20135 30/// 50341 563// 58005 70000 81640
AAXX 03001 76693 06/// /0603 10242 20167 30171 40190 53004 60001 7////8//// 92350 333 0//// 10285 20147 30/// 4//// 50269 56///57/// 58011 60007 70000 8//// 8//// 8//// 8//// 9//// 9/
AAXX 03001 76695 32956 03012 10230 20185 30177 40182 52004 92348 33310275 20152 30/// 50330 58008 70000
AAXX 03001 76698 32558 13601 10221 20195 30190 40202 52010 81200 92350333 10295 20164 30/// 50381 58007 70000 81820
AAXX 03001 76726 32970 02001 10233 21031 38390 40077 52001 92330 33310282 20110 30/// 50190 58005 70000
AAXX 03001 76727 06/// /0000 10199 21007 38389 40092 55000 60001 7////8//// 92350 333 0//// 10278 20113 30/// 4//// 50239 54///56/// 57/// 58001 60007 70000 8//// 8//// 8//// 9//// 9/
AAXX 03001 76737 31480 71402 10164 20102 38799 40186 53005 70322 8175092335 333 10201 20050 30/// 50201 56220 58011 70000 8171786358 91107 91516
AAXX 03001 76738 06/// /1402 10161 20095 38803 40189 53008 60001 7////8//// 333 10202 20043 30/// 50169 56/// 57/// 58013 6000770000 8//// 8//// 8//// 8//// 9//// 9//// 9//// 444 ////
AAXX 03001 76743 31340 70501 10245 20227 30172 40180 53006 70222 875//92350 333 10267 20171 30/// 50050 561// 58001 70000 87808
AAXX 03001 76750 32558 30302 10245 20186 30177 40187 52009 81108 92350333 10320 20155 30/// 50411 56106 58005 70008 81820
AAXX 03001 76751 06/// /0402 10238 20184 30177 40188 53009 60001 7////8//// 92350 333 0//// 10301 20147 30/// 4//// 50249 54///56/// 57/// 58005 60007 70004 8//// 8//// 8//// 9//// 9/
AAXX 03001 76762 32904 01302 10222 20185 38754 40110 53004 92335 33310302 20098 30/// 50321 58003 70000
AAXX 03001 76772 06/// /1102 10249 21072 38411 40075 53003 60001 7////8//// 92350 333 0//// 10308 20010 30/// 4//// 5///9 56///57/// 58000 60007 70000 8//// 8//// 8//// 9//// 9//// 9/
AAXX 03001 76773 32970 10901 10252 21002 38405 40081 54000 80001 92346333 10298 20020 30/// 50411 56009 58001 70000
AAXX 03001 76775 31970 01401 10231 21013 38513 40121 57001 70500 92345333 10296 20042 30/// 5///1 58007 70000
AAXX 03001 76776 06/// /1002 10216 21038 38499 40101 53004 60001 7////8//// 92350 333 0//// 10296 20040 30/// 4//// 50379 56///57/// 58012 60007 70000 8//// 8//// 8//// 9//// 9//// 9/
AAXX 03001 76805 32970 02602 10272 20222 30119 40123 55001 92350 33310315 20215 30/// 50531 59002 70000
AAXX 03001 76806 06/// /2602 10268 20220 30121 40125 55000 60001 7////8//// 92350 333 10309 20212 30/// 50239 56/// 57/// 5800160007 70000 8//// 8//// 8//// 8//// 9//// 9//// 9//// 55
AAXX 03001 76833 32970 03610 10258 20186 30120 40122 54000 92345 33310292 20214 30/// 50971 59003 70000 92023
AAXX 03001 76840 32930 00205 10266 20137 30078 40133 52010 92340 33310307 20180 30/// 51051 58013 70000
AAXX 03001 76843 32565 20204 10201 20146 39513 40159 53007 81104 92335333 10246 20140 30/// 50411 56/9/9 58013 70000 81830
AAXX 03001 76845 32960 00603 10142 20120 37954 40177 53009 92345 33310220 20004 30/// 50231 58004 70000
AAXX 03001 76848 32970 00502 10136 20073 38388 40101 52007 92350 33310216 20078 30/// 50301 59001 70000
AAXX 03001 76903 31670 62502 10277 20251 39993 40123 53008 70311 8620092335 333 10343 20228 30/// 50171 56100 58004 70000 8183485650
AAXX 03001 76160 32562 72301 10164 20077 39878 40126 54/// 87400 92334333 10185 20135 30/// 50490 56400 58029 70000 87630
AAXX 03001 76253 32582 42704 10200 20116 30045 40135 56001 84500 92348333 10210 20155 30/// 50331 56700 58034 70000 84620 92002
AAXX 03001 76405 32680 51802 10252 20178 30109 40130 52002 82430 92350333 10276 20170 30/// 50517 56330 58013 70000 82640 83357
AAXX 03001 76412 31966 42201 10238 20203 30103 40147 52000 70544 8405092345 333 10246 20132 30/// 50321 58011 70000 84356
AAXX 03001 76640 32958 01401 10234 20197 30192 40204 57002 92340 33310266 20138 30/// 50241 58024 70000
AAXX 03001 76647 32565 10502 10225 20161 30179 40210 52006 81100 92350333 10292 20141 30/// 50331 56200 58007 70000 81826
AAXX 03001 76741 31565 30403 10244 20181 30134 40152 57001 70542 8220692335 333 10266 20157 30/// 50461 568// 58010 70000 82826
AAXX 03001 76855 32580 41701 10260 20226 30067 40116 56006 82220 92340333 10298 20178 30/// 50310 56990 59001 70000 82820 8245892000
BBXX 41046 03001 99238 70683 46/// /3606 10248 20200 40166 53017 92350 22200 00264 10904 20501 300// 40903 70019 333 91207 555 11058 22060 32315 43408 62349 000054 347055 349061 348066 352051 357046 83507 92316
BBXX 44011 03001 99411 70666 46/// /3304 10081 20031 40276 51013 92350 22200 00100 11104 20401 3//// 41104 70019 333 91205 555 11041 22042 32319 41606 62349 333039 332041 326037 332036 326033 326032
BBXX 42363 03001 99282 70892 46/// /1111 10211 20111 40261 55000 90000 333 91211
BBXX 42364 03001 99291 70881 46/// /0808 10194 20133 40275 53007 90000
BBXX 41041 03001 99142 70460 46/// /0908 10271 20228 40141 51012 92350 22200 00267 333 91210 555 11087 22092 32329 40911 62349 093080 094081 092084 091085 090083 083078 80909 92306
BBXX PFFH 03003 99352 70120 41198 30318 10170 20110 40276 54000 7//00 83400 22223 00186 2//07 336// 41007 80135 59991 4224
BBXX UCKG 03001 99696 10353 41/98 91814 10030 49744 57040 70222 22273 00030 20505
BBXX A8IP3 03003 99500 70117 41/96 /2735 10135 20118 40115 54000 76055 8//// 22254 04130 21008 80125
BBXX PDYI 03003 99366 70007 41/97 80125 10120 20085 40185 54000 70266 88/// 22223 2//// 3//// 4//// 5//// 80101
BBXX PHAM 03004 99519 10038 41597 52218 10100 20081 40090 58020 7//// 84100 22200 20703 80090 59991
BBXX A8JI2 03004 99483 70092 41297 82724 10160 20108 40160 55030 70322 8677/ 22224 04165 20809 327// 41010 5//// 80130
BBXX VRFX8 03004 99487 70145 41/98 82832 10130 20090 40180 58010 70222 88/// 22224 0//// 2//// 3//// 4//// 80110
AAXX 03004 91165 NIL
AAXX 03004 91182 NIL
AAXX 03004 91190 NIL
AAXX 03004 91212 NIL
AAXX 03004 91217 NIL
AAXX 03004 91285 NIL
AAXX 03004 91317 NIL
AAXX 03004 91334 11474 83608 10297 20247 30080 40083 50008 60034 70282 83171 333 20267 56899 58011 70028 555 90300
AAXX 03004 91348 NIL
AAXX 03004 91356 NIL
AAXX 03004 91366 NIL
AAXX 03004 91369 NIL
AAXX 03004 91371 NIL
AAXX 03004 91376 11474 80810 10290 20253 30064 40068 58008 60094 72582 84878 333 20265 56229 58004 70091 555 90300
AAXX 03004 91408 NIL
AAXX 03004 91413 12469 50912 10307 20248 30064 40090 51010 69984 82271 333 20266 56299 58007 70008 555 90300
AAXX 03004 91425 NIL
AAXX 03004 91434 NIL
AAXX 03004 91765 NIL
AAXX 03004 91222 NIL
AAXX 03004 91245 NIL
AAXX 03004 91323 NIL
AAXX 03004 91339 NIL
AAXX 03004 91343 NIL
AAXX 03004 91353 NIL
AAXX 03004 91442 NIL
AAXX 03004 78388 112570 40608 10264 20198 30147 40156 60001 84800 333 01200 10290 20210 58006 84822
BBXX ICGU 03004 99236 70331 41/98 /1512 10220 20140 40210 54/// 7//// 8//// 22254 04240 2//03 336// 4//// 5//// 6//// 80170 ICE /////
BBXX 9HXC9 03004 99258 70775 41497 60329 10210 20128 40240 52010 7//22 86233 22264 00260 2//// 3//// 4//// 5//// 6//// 80160 ICE /////
BBXX WDD2876 03004 99474 70891 41/98 41931 10011 2//// 40196 54/// 70222 8//// 22223 00050 2//03 3//// 4//// 5//// 6//// 8//// ICE /////
BBXX KAOU 03004 99020 10805 43/// /2107 10274 20240 40075 5//// 7//// 8//// 222// 04286 2//// 3//// 4//// 5//// 6//// 8//// ICE /////
BBXX C6FV8 03003 99183 70651 41699 40717 10270 2//// 40080 51/// 7//11 84888 22272 04290 20402 3//// 40401 50301 6//// 8//// ICE /////
BBXX ONFW 03004 99193 11203 41196 80337 10250 20222 40100 51/// 70222 8834/ 22282 04250 20308 301// 40608 5//// 6//// 80230 ICE /////
BBXX NWS0020 03004 99353 10217 43/// /3008 10167 20106 40241 5//// 7//// 8//// 222// 04190 2//// 3//// 4//// 5//// 6//// 8//// ICE /////
BBXX NWS0029 03004 99238 70393 43/// /0318 10218 20169 40196 5//// 7//// 8//// 222// 04254 2//// 3//// 4//// 5//// 6//// 8//// ICE /////
BBXX ZCDA9 03003 99228 71504 41298 80625 10230 20215 40183 57015 72522 887// 22224 00250 20202 309// 40303 5//// 80220
BBXX C6DM2 03004 99056 11000 41797 70509 10270 20243 40080 54000 70211 87//8 22200 0//// 2//// 3//// 4//// 5//// 6//// 80250 ICE /////
BBXX C6XC6 03004 99428 10067 41/// 71915 10180 2//// 40170 5//// 7//92 8//// 22253 0//// 2//// 3//// 4//// 5//// 6//// 8//// ICE /////
BBXX NWS0009 03004 99116 71741 43/// /0918 10274 20246 40081 5//// 7//// 8//// 222// 04275 2//// 3//// 4//// 5//// 6//// 8//// ICE /////
BBXX WDF2728 03004 99261 70800 41/// /0523 10211 2014/ 40230 54000 7//// 8//// 222// 0//// 2//// 3//// 4//// 5//// 6//// 80167 ICE /////
BBXX 9HA2583 03004 99276 70674 41598 40531 1//// 2//// 40180 54/// 7//// 82284 22234 04263 2//// 3//// 4//// 5//// 6//// 8//// ICE /////
BBXX C6YA5 03004 99442 50734 41697 33109 10135 2//// 40110 57010 70200 8/8// 22284 00140 2//// 3//// 4//// 5//// 6//// 8//// ICE /////
BBXX 51000 03001 99235 71541 46/// /1110 10233 40172 58021 92350 22200 00236 10808 20806 334// 41406 70042 333 91213 555 11107 22114 32330 41115 62349 109100 108108 109112 110107 108107 112105
BBXX 51003 03001 99193 71606 46/// /0706 10250 40148 58018 92350 22200 00259 11405 20502 3//// 41405 70026 333 91208 555 11067 22070 32253 40709 62349 072063 066067 061066 063066 065068 064072
BBXX 46083 03001 99582 71380 46/// /2709 10062 20061 40250 54000 92350 22200 00069 11108 20804 300// 41107 70039 333 91210 555 11093 22099 32317 42711 62349 270088 273085 272088 273087 274076 276085 82810 92317
BBXX 44060 03001 99413 70721 46/// ///08 10098 40276 53020 90000 22200 00123 333 91210 555 11088 22093
BBXX 44022 03001 99409 70737 46/// ///07 10096 21006 40292 53033 90000 22200 00110 333 91210 555 11072 22077
BBXX 46214 03001 99379 71235 46/// ///// 1//// 90000 22200 00120 11008 21007 331// 41104 70041
BBXX 46089 03001 99459 71258 46/// /3610 10093 20049 40338 56003 92350 22200 00101 11407 20805 331// 41406 70037 333 91212 555 11110 22117 32321 43614 62349 000103 357105 358110 358112 357109 358107
AAXX 03004 48307 31956 20000 10171 20161 39748 40137 51004 71000 80005 333 20168 59014
AAXX 03004 48324 31520 70702 10205 20199 39891 40113 52012 71022 85536 333 20197 59023
AAXX 03004 48333 31905 10000 10174 20167 39815 40125 52005 74600 81010 333 20165 59027
AAXX 03004 48350 NIL
AAXX 03004 48355 31956 00000 10130 20121 39915 40145 71000 333 20125 59011
AAXX 03004 48358 NIL
AAXX 03004 48384 NIL
AAXX 03004 48401 31957 60502 10220 20162 30002 40111 52011 71022 81041 333 20214 59019
AAXX 03004 48404 32960 50706 10165 20135 39944 40128 51009 80006 333 20160 59017
AAXX 03004 48409 NIL
AAXX 03004 48419 31959 40402 10275 20239 30087 40095 52012 71011 80005 333 20230 59020
AAXX 03004 48427 31958 60000 10214 20175 30093 40101 52016 71020 80006 333 20200 59017
AAXX 03004 48435 32960 71110 10175 20149 39669 40118 53010 80006 333 20168 59021
AAXX 03004 48453 32960 70502 10229 20183 30092 40095 52014 82046 333 20224 59021
AAXX 03004 48458 32960 70000 10193 20172 30034 40117 52016 80001 333 20191 59028
AAXX 03004 48474 31958 70000 10209 20196 39973 40099 52019 71022 85036 333 20207 59018
AAXX 03004 48481 NIL
AAXX 03004 48555 31556 80000 10230 20212 30065 40108 55002 71022 8587/ 333 20225 59028
AAXX 03004 48556 11530 80000 10236 20230 30068 40085 52014 60064 71022 82507 333 20230 59033 70057
AAXX 03004 48557 11457 60000 10232 20224 30056 40092 52004 60014 71022 85806 333 20205 59022 70011
AAXX 03004 48560 31558 60000 10236 20227 30077 40082 51003 71022 81152 333 20235 59015
AAXX 03004 48574 32560 60000 10232 20227 30054 40083 52012 82136 333 20226 59017
AAXX 03004 48581 NIL
BBXX TBWUK38 03003 99223 30077 41/98 /1724 10190 40171 70255 8//// 22274 04220 20806 316// 41006 5////
BBXX 2AKI2 03003 99093 50245 41598 41116 10270 20220 40143 70200 83190 22234 00273 2//// 3//// 4//// 5//// 80236
BBXX BATFR05 03004 99052 70039 46/// /2210 10280 20249 40122 58002 22200 00267
BBXX BATFR45 03004 99053 30393 46/// ///// 10275 20239 40086 56012 22254 00299
BBXX BATFR08 03004 99234 30549 46/// /0819 10234 20182 40130 56004 22243 00252
BBXX DPKZ 03003 99221 70173 41497 40410 10215 20169 40185 54000 71011 83518 22254 04185 21002 80185
BBXX WDF6832 03003 99139 10566 41498 30123 10240 2018/ 40140 54000 70200 838// 22265 0//// 2//// 3//// 4//// 5//// 6//// 80200 ICE /////
BBXX BATEU00 03004 99178 30041 46/// /1312 10187 20127 40174 58006 22233
BBXX ICGU 03004 99236 70331 41/98 /1512 10220 20140 40210 54/// 7//// 8//// 22254 04240 2//03 336// 4//// 5//// 6//// 80170 ICE /////
BBXX OYCY2 03004 99382 11569 41698 60513 10100 2004/ 40320 52020 7//22 8547/ 22214 00210 20304 301// 40708 5//// 6//// 80070 ICE /////
BBXX UGPK 03001 99554 11480 43/98 62708 11028 40140 54000 22231 00014 2//20 3//28
BBXX 3FZK3 03004 99355 11294 46/// /3112 10083 20077 40115 51011 7//// 8//// 22200 0//// 2////
BBXX ELWG7 03004 99299 11682 416// 60513 10220 2019/ 40155 53005 7//11 865// 22264 00240 20803 332// 40803 5//// 6//// 80200 ICE /////
BBXX ONFW 03004 99193 11203 41196 80337 10250 20222 40100 51/// 70222 8834/ 22282 04250 20308 301// 40608 5//// 6//// 80230 ICE /////
BBXX C6DM2 03004 99056 11000 41797 70509 10270 20243 40080 54000 70211 87//8 22200 0//// 2//// 3//// 4//// 5//// 6//// 80250 ICE /////
BBXX 46070 03001 99551 11753 46/// /0209 10012 21029 40034 58007 92350 22200 00049 11108 20704 3//// 41107 70039 333 91212 555 11098 22103 32346 40212 62349 020092 019092 028084 036082 040078 049081 80311 92346
BBXX HZDD 03003 99052 10979 41397 41706 10275 20239 40075 52010 70222 81731 22234 20100 31899 40201 5//// 80250
BBXX C6YA5 03004 99442 50734 41697 33109 10135 2//// 40110 57010 70200 8/8// 22284 00140 2//// 3//// 4//// 5//// 6//// 8//// ICE /////
BBXX ELZA8 03004 99033 50358 41598 30119 10265 20215 40112 50000 70200 82101 22234 04290 20502 308// 41004 80230
BBXX A8DE3 03003 99350 50530 41/98 10812 10174 20116 40190 52020 7//// 81/00 22253 00200 29901 314// 40903 80140
BBXX 32012 03001 99197 50856 46/// ///// 1//// 92350 22200 11004 70018
BBXX UFTA 03001 99849 71301 42997 02303 11336 21369 40129 58014 333 21336
BBXX 9HA2583 03004 99276 70674 41598 40531 1//// 2//// 40180 54/// 7//// 82284 22234 04263 2//// 3//// 4//// 5//// 6//// 8//// ICE /////
BBXX 9HJB9 03004 99258 70776 41798 50130 10215 20193 40240 52020 70222 85168 22264 04254 20302 3//// 4//// 5//// 6//// 80200 ICE /////
BBXX A8UE5 03004 99543 71649 41/// 81525 10065 20054 40040 57060 70522 88/2/ 22265 04060 20302 327// 40606 5//// 80060
BBXX 44008 03001 99405 70692 46/// /2303 10107 20048 40269 53006 92350 22200 00138 11103 312// 41103 70015 333 91204 555 11033 22034 32347 42204 62349 232032 236028 233026 212022 224024 235024
BBXX 44039 03001 99411 70727 46/// /2809 10109 20007 40287 92345 22200 00115 10402 70008 333 91211
BBXX 46239 03001 99363 71221 46/// ///// 1//// 92351 22200 00121 11105 21004 331// 41104 70027
BBXX 46238 03001 99334 71195 46/// ///// 1//// 92350 22200 00146 11003 21002 328// 41102 70014
BBXX A8PQ5 03003 99255 71092 41196 62710 10230 2020/ 40130 54000 7//22 86453 222// 00210 20300 32727 40300 50300 6//// 80210 ICE /////
BBXX 44099 03001 99369 70757 46/// ///// 1//// 92352 22200 00134 11102 21001 310// 41101 70009
BBXX 41112 03001 99307 70813 46/// ///// 1//// 92351 22200 00174 10802 20802 70010
BBXX 41110 03001 99341 70777 46/// ///// 1//// 92351 22200 00161 11102 20901 311// 41101 70008
BBXX 42099 03001 99273 70842 46/// ///// 1//// 92357 22200 00244 10603 20603 70015
BBXX 41113 03001 99284 70805 46/// ///// 1//// 92351 22200 00212 10702 20702 70009
BBXX 46247 03001 99378 71228 46/// ///// 1//// 92351 22200 00116 11006 21005 331// 41103 70028
BBXX 46236 03001 99368 71219 46/// ///// 1//// 92350 22200 00126 11103 20902 328// 41102 70015
BBXX 46229 03001 99438 71246 46/// ///// 1//// 92351 22200 00108 11707 20806 328// 41704 70035
BBXX 46219 03001 99332 71199 46/// ///// 1//// 92358 22200 00136 11204 21003 331// 41202 70019
BBXX 46213 03001 99403 71247 46/// ///// 1//// 92354 22200 00112 11111 21009 333// 41106 70055
BBXX 46224 03001 99332 71175 46/// ///// 1//// 92336 22200 00161 11402 21001 320// 41401 70009
BBXX 46243 03001 99462 71241 46/// ///// 1//// 92359 22200 00091 11505 20904 327// 41503 70027
BBXX 46225 03001 99329 71174 46/// ///// 1//// 92344 22200 00163 11103 21002 329// 41102 70013
BBXX 46215 03001 99352 71209 46/// ///// 1//// 92338 22200 00131 11003 21002 330// 41102 70014
BBXX 44097 03001 99410 70711 46/// ///// 1//// 90002 22200 00132 11103 20402 316// 41101 70014
BBXX 41009 03001 99285 70802 46/// /0408 10225 20129 40263 53005 92350 22200 00258 10704 20704 70019 333 91210 555 11082 22086
BBXX 41010 03001 99289 70785 46/// /0310 10213 40261 51011 92350 22200 00244 333 91211 555 11102 22107
BBXX 44098 03001 99428 70702 46/// ///// 1//// 92337 22200 00100 11102 21002 313// 41102 70012
BBXX 44172 03001 99445 70634 46/// ///// 1//// 90001 22200 00080 11103 21002 315// 41102 70013
BBXX 46061 03001 99602 71468 46/// /3207 10041 40179 51022 92350 22200 00058 11205 20602 300// 41204 70025 333 91208 555 11068 22072 32348 43308 62349 323064 329059 339032 325039 322043 322047
BBXX 51101 03001 99243 71621 46/// /0508 10217 20141 40188 56015 92350 22200 00245 11207 20603 301// 41206 70033 333 91210 555 11083 22087 32307 40411 62349 051079 060077 062083 055084 056086 052085
BBXX 46042 03001 99368 71224 46/// /3309 10132 30146 40146 56009 92350 22200 00131 11006 20703 332// 41005 70030 333 91210 555 11091 22097 32342 43310 62349 333085 330077 327080 327079 332070 332071
BBXX VOKJ 03004 99460 70732 46/// /3309 11000 21038 40291 51038 7//// 8//// 22213 0//// 2////
BBXX 44018 03001 99422 70698 46/// /2405 10091 20049 40263 52015 92350 22200 00099 11002 20401 311// 41002 70012 333 91206 555 11054 22056 32348 42506 62349 243051 242052 237043 237048 233050 228052
BBXX BATFR13 03004 99267 70432 44498 60720 10219 20165 40230 58001 70222 863// 22254 00252 20000 302// 41204 5////
BBXX BAREU04 03004 99391 70764 46/// ///// 40311 22231
BBXX BAREU54 03004 99094 70799 46/// ///// 40114 22200
BBXX 44027 03001 99443 70673 46/// /1402 10043 21017 40271 51009 92350 22200 00093 11002 3//// 41002 70009 333 91203 555 11024 22024 32315 41404 62349 143023 148025 136028 148030 152027 154027
BBXX 46028 03001 99357 71219 46/// /3503 10128 40149 56005 92350 22200 00131 11104 20401 332// 41104 70022 333 91205 555 11036 22037 32346 43405 62349 345034 345030 338033 337034 328035 339026
BBXX 46025 03001 99337 71191 46/// /2805 10152 40144 56011 92350 22200 00158 10902 20301 329// 40901 70008 333 91206 555 11051 22053 32311 42807 62349 279048 284048 279053 276059 273059 264059
BBXX 46054 03001 99342 71204 46/// /2805 10141 40144 58010 92350 22200 00146 11103 20401 300// 41103 70016 333 91206 555 11053 22055 32253 42807 62349 282049 287047 282054 276055 279052 281058
BBXX 46012 03001 99374 71229 46/// /3210 10121 40151 56011 92350 22200 00122 11006 20804 332// 41005 70031 333 91211 555 11102 22108 32306 43213 62349 318096 318099 320100 320099 319107 316098
BBXX 46087 03001 99485 71247 46/// /1105 10084 20049 40324 92350 22200 00090 333 91207 555 11051 22053 32258 41207 62349 113048 117045 111044 116043 111047 113049
BBXX 46029 03001 99461 71245 46/// /0105 10085 20037 40328 55000 92350 22200 00095 11408 20401 328// 41408 70041 333 91206 555 11048 22050 32329 40107 62349 008047 009050 015049 030044 025042 035038
BBXX 46013 03001 99382 71233 46/// /3212 10118 40151 56012 92350 22200 00110 10907 20906 3//// 41604 70036 333 91214 555 11129 22139 32326 43115 62349 317120 316124 314121 313115 316114 319118
BBXX 46053 03001 99342 71198 46/// /2706 10143 40136 58011 92350 22200 00151 333 91208 555 11068 22071 32250 42708 62349 270065 269066 264061 258051 258049 261049
BBXX 46088 03001 99483 71232 46/// /0204 10068 40327 92350 22200 00084 1//00 70002 333 91205 555 11043 22044 32257 40208 62349 016041 016041 014044 012048 017053 016061
BBXX 46088 03001 99483 71232 46/// /0204 10068 40327 52004 92350 22200 00084 1//00 70002 333 91205 555 11043 22044 32257 40208 62349 016041 016041 014044 012048 017053 016061
BBXX 46050 03001 99442 71246 46/// /3509 10094 40316 56003 92350 22200 00107 11607 20604 330// 41606 70034 333 91212 555 11095 22100 32345 43512 62349 354090 354096 353094 350092 355086 353089
BBXX 46069 03001 99337 71202 46/// /2905 10142 40148 58009 92350 22200 00141 11004 20501 332// 41004 70019 333 91207 555 11055 22058 32346 42907 62349 286050 288048 290048 288046 284039 284036
BBXX 46027 03001 99419 71244 46/// /3415 10104 40239 56004 92350 22200 00103 11507 20605 329// 41506 70037 333 91218 555 11157 22168 32304 43418 62349 343145 343150 342147 343146 343148 343150
BBXX 46047 03001 99324 71195 46/// /3003 10149 40159 56004 92350 22200 00148 11004 20401 330// 41004 70022 333 91204 555 11030 22033 32328 43004 62349 296028 292031 298028 291019 285019 298029
BBXX 46014 03001 99394 71240 46/// /3414 10114 40181 56008 92350 22200 00111 11608 20705 3//// 41606 70041 333 91217 555 11152 22162 32335 43418 62349 339142 338134 339132 340131 340131 341137
BBXX 46086 03001 99325 71180 46/// /2805 10159 40151 55000 92350 22200 00164 11003 20401 329// 41003 70017 333 91205 555 11047 22049 32250 42806 62349 279046 272043 269039 269038 275038 270041
BBXX VCLM 03004 99554 70584 46/// /2726 11066 21097 40188 51008 7//// 8//// 22273 00012 2////
BBXX WDF2728 03004 99261 70800 41/// /0523 10211 2014/ 40230 54000 7//// 8//// 222// 0//// 2//// 3//// 4//// 5//// 6//// 80167 ICE /////
BBXX WKAW 03004 99436 70549 41/// /0513 10085 2008/ 40230 54000 702// 8//// 22255 00050 2//// 3//// 4//// 5//// 6//// 80082 ICE /////
BBXX A8EY7 03004 99483 71452 41696 82015 10112 20080 40393 57025 70322 897// 22273 04076 20906 327// 41406 5//// 80095
BBXX C6JS 03003 99290 70745 41498 80420 10200 2014/ 40230 51020 70322 89/// 22284 20805 3//// 4//// 5//// 80160
BBXX DDAC2 03000 99298 71268 41/97 /3312 10170 20154 40180 58000 7//11 8/600 22234 04180 2//// 335// 4//06 5//// 80160
BBXX A8JE6 03004 99367 71417 41597 31017 10175 20143 40350 54000 70200 83500 22224 20504 310// 40704 5//// 80155
BBXX VAAZ 03004 99509 70500 46/// /2813 11008 21044 40242 53020 7//// 8//// 22251 0//// 2////
BBXX CGBN 03004 99447 70636 46/// /1901 10035 21001 40267 51015 7//// 8//// 22200 0//// 2////
BBXX CGBY 03004 99487 71235 46/// /1103 10067 20021 40328 56003 7//// 8//// 22200 0//// 2////
BBXX CGDX 03004 99468 70712 46/// /2103 11006 21012 40286 51036 7//// 8//// 22200 0//// 2////
BBXX VCSZ 03004 99476 70527 46/// /0305 10015 20010 40258 51016 7//// 8//// 22200 0//// 2////
BBXX CGJV 03004 99460 70586 46/// /3513 10027 21014 40270 51011 7//// 8//// 22223 00068 2////
BBXX CGCC 03004 99468 70712 46/// /2102 11007 21019 40286 51036 7//// 8//// 22200 0//// 2////
BBXX VCRG 03004 99474 70619 46/// /2703 10016 21028 40285 53008 7//// 8//// 22200 0//// 2////
BBXX CGBR 03004 99539 71302 46/// /0138 10039 20039 40361 55006 7//// 8//// 22242 00068 2////
BBXX CGHL 03004 99476 70527 46/// /3303 10026 21021 40263 51016 7//// 8//// 22200 0//// 2////
BBXX CGDG 03004 99421 70492 46/// /0405 10128 20127 40229 51006 7//// 8//// 22200 00139 2////
BBXX CZ9742 03004 99506 70969 46/// /1912 11002 21043 40020 51011 7//// 8//// 22200 0//// 2////
BBXX VRYO3 03004 99513 70432 46/// /0921 10051 20063 40183 52036 7//// 8//// 22265 00089 2////
BBXX CGDT 03004 99490 70669 46/// /1401 11039 21049 40296 52022 7//// 8//// 22200 0//// 2////
BBXX VCWL 03004 99468 70712 46/// /0000 11005 21015 40286 51035 7//// 8//// 22200 0//// 2////
BBXX CG2958 03004 99487 71235 46/// /1403 10071 20027 40337 50007 7//// 8//// 22231 0//// 2////
BBXX CGTF 03004 99476 70527 46/// /2901 10021 21020 40263 51016 7//// 8//// 22200 0//// 2////
BBXX CG2965 03004 99487 71235 46/// /1203 10068 20021 40330 56003 7//// 8//// 22200 0//// 2////
BBXX CGUM 03004 99447 70636 46/// /2201 10024 21007 40282 53013 7//// 8//// 22200 0//// 2////
BBXX VAAP 03004 99456 70602 46/// /0608 10041 21001 40267 51013 7//// 8//// 22213 0//// 2////
BBXX VXKF 03004 99462 70602 46/// /3406 10006 21033 40271 53018 7//// 8//// 22251 0//// 2////
BBXX CGSB 03004 99468 70712 46/// /2302 11004 21017 40287 51037 7//// 8//// 22200 0//// 2////
BBXX VOPP 03004 99456 70735 46/// /2705 10005 21013 4//// 5//// 7//// 8//// 22200 0//// 2////
BBXX C6SI6 03004 99573 71506 46/// /2415 10050 20049 40233 53002 7//// 8//// 22272 0//// 2////
BBXX VCBW 03004 99485 70685 46/// /0707 11024 21041 40291 52034 7//// 8//// 22200 00037 2////
BBXX CGJK 03004 99484 71234 46/// /0405 10077 20022 40331 53001 7//// 8//// 22200 0//// 2////
BBXX CGDR 03004 99523 71285 46/// /1008 10056 20055 40367 58005 7//// 8//// 22261 00109 2////
BBXX 46015 03001 99427 71248 46/// ///// 10100 30285 40285 55000 92350 22200 00105 11507 70036
BBXX 46026 03001 99378 71228 46/// /3211 10120 40145 56014 92350 22200 00116 11005 20804 331// 41004 70025 333 91213 555 11114 22122 32349 43213 62349 310106 280106 277095 275078 278087 278095
BBXX 46041 03001 99474 71247 46/// /3506 10085 40322 54000 92350 22200 00102 11107 20502 3//// 41107 70036 333 91207 555 11060 22062 32306 43309 62349 352058 348064 337064 333068 333068 330064
BBXX 44013 03001 99423 70707 46/// /3006 10097 20002 40258 51019 92350 22200 00100 11001 20601 300// 41001 70007 333 91208 555 11065 22068 32349 43008 62349 303061 298063 301059 257033 239031 238035
BBXX 44007 03001 99435 70701 46/// /2502 10077 40256 51018 92350 22200 00092 11002 20401 3//// 41002 70009 333 91203 555 11015 22016 32251 42505 62349 247015 265017 264029 256032 261035 254038
BBXX 46001 03001 99563 71480 46/// /2209 10059 40259 54000 92350 22200 00052 11309 20605 300// 41307 70046 333 91211 555 11096 22104 32301 42213 62349 224089 225087 230093 228092 227096 226096
BBXX 46082 03001 99597 71434 46/// ///// 10065 20065 40192 52003 92350 22200 00064 11109 70044
BBXX 46077 03001 99579 71543 46/// /0604 10039 20037 40190 51007 92350 22200 00049 10903 20401 3//// 40903 70013 333 91204 555 11036 22038 32301 40804 62349 061035 071034 075034 080031 084035 082038 80804 92259
BBXX 46072 03001 99517 71722 46/// /1610 10069 20068 49865 56082 92350 22200 00057 11107 20805 3//// 41105 70035 333 91211 555 11105 22114 32340 41612 62349 159097 155097 152097 148096 140096 130096 81510 92328
BBXX 46085 03001 99559 71425 46/// /2412 10064 20029 40298 92350 555 11124 22133
BBXX 46035 03001 99571 71778 46/// /2307 1//// 40015 58006 92350 22200 11107 20602 300// 41106 70033 333 91209 555 11070 22074 32255 42210 62349 227070 223069 221072 220075 218068 228081 82309 92251
BBXX 41040 03001 99145 70530 46/// /0808 10270 20221 40136 51012 92350 22200 00276 10905 20603 3//// 40904 70023 333 91210 555 11086 22091 32308 40810 62349 080081 080077 077079 073080 074081 074078 80710 92308
BBXX 42039 03001 99288 70860 46/// /0708 10198 40270 51010 92350 22200 00235 10602 20602 70012 333 91211 555 11088 22092 32331 40711 62349 065083 068088 067079 064082 059077 057077 80710 92331
BBXX BATEU06 03004 99473 70705 46/// /0214 11005 21030 40268 53026 22283 00047
BBXX 44066 03001 99396 70726 46/// /2708 10119 20054 40282 53017 92350 22200 00129 11102 20402 3//// 41102 70012 333 91210 555 11087 22092 32349 42710 62349 270081 271082 267084 268080 266074 261074
BBXX 41043 03001 99211 70650 46/// /0502 10258 20203 40159 53018 92350 22200 00273 10903 20401 300// 40903 70017 333 91203 555 11022 22022 32251 40404 62349 049021 071022 057022 043022 052022 045026 80403 92252
BBXX 41036 03001 99342 70770 46/// ///// 10137 20012 40298 51010 92350 22200 00171 11102 70010
BBXX 41047 03001 99275 70715 46/// /0314 10219 40208 53017 92350 22200 00255 10806 20806 70031 333 91216 555 11135 22143 32315 40417 62349 029136 022136 020145 027140 026131 024134 80315 92315
BBXX LAWO2 03004 99299 71519 41497 81815 10240 2020/ 40220 57005 70322 87676 22223 00240 20304 313// 41507 5//// 6//// 80210 ICE /////
BBXX WDC3786 03004 99283 71330 41498 50205 10189 2014/ 40237 5//// 7//00 8/20/ 22274 0//// 20303 302// 4//// 5//// 6//// 80162 ICE /////
BBXX C6FV8 03003 99183 70651 41699 40717 10270 2//// 40080 51/// 7//11 84888 22272 04290 20402 3//// 40401 50301 6//// 8//// ICE /////
BBXX ZCDA9 03003 99228 71504 41298 80625 10230 20215 40183 57015 72522 887// 22224 00250 20202 309// 40303 5//// 80220
BBXX 44040 03001 99410 70736 46/// /3408 10101 20001 40294 92345 22200 10201 70003 333 91211 555 11098 22113
BBXX 44020 03001 99414 70702 46/// /2506 10101 20046 40261 53012 92350 22200 00101 10301 20301 70004 333 91207 555 11061 22065 32300 42609 62349 255057 261060 260059 260059 260067 258064
BBXX 46011 03001 99350 71210 46/// /2401 10138 40149 56014 92350 22200 00129 11104 20401 332// 41104 70020 333 91202 555 11016 22019 32306 42004 62349 234014 224024 225028 216028 205028 209019
BBXX 44065 03001 99404 70737 46/// /2911 10111 20010 40284 53023 92350 22200 00117 11002 20301 311// 41001 70008 333 91212 555 11112 22119 32338 42913 62349 290106 290104 281094 278076 272068 268067 82911 92339
BBXX 44014 03001 99366 70748 46/// /3003 10126 20039 40299 53018 92350 22200 00159 11002 310// 41002 70012 333 91204 555 11028 22028 32320 43104 62349 294029 301028 302031 295026 293027 281026
BBXX 44025 03001 99402 70732 46/// /2909 10115 20022 40280 51027 92350 22200 00118 11102 20401 312// 41102 70010 333 91211 555 11094 22100 32349 42811 62349 288089 289086 284083 279082 278080 279070
BBXX 44009 03001 99385 70747 46/// /2908 10122 40307 53023 92350 22200 00131 11102 20301 300// 41102 70010 333 91209 555 11081 22085 32317 42709 62349 287076 287074 277074 270077 259071 245070
BBXX 41013 03001 99334 70777 46/// /3603 10142 20045 40297 52009 92350 22200 00201 11102 20401 312// 41102 70011 333 91204 555 11032 22033 32326 40104 62349 005031 007030 015028 008028 018029 016031
BBXX 41008 03001 99314 70809 46/// /0304 10152 20091 40300 53007 92350 22200 00178 10802 20401 300// 40802 70008 333 91205 555 11041 22043 32307 40306 62349 032039 030039 029040 028042 031040 032042
BBXX 41004 03001 99325 70791 46/// /0304 10162 20050 40299 53006 92350 22200 00209 11102 20401 3//// 41102 70011 333 91205 555 11040 22041 32333 40505 62349 032040 041038 035040 039036 037038 038037
BBXX 42002 03001 99258 70937 46/// /1209 10232 20149 40217 55000 92350 22200 00251 10603 20603 70013 333 91211 555 11092 22098 32254 41212 62349 117093 112092 111088 114091 110097 109095
BBXX 42059 03001 99151 70675 46/// /0708 10280 20222 40131 53014 92350 22200 00285 10503 20503 3//// 40901 70014 333 91210 555 11090 22095 32317 40810 62349 072084 073082 071083 070083 068082 070083 80709 92252
BBXX 42055 03001 99222 70940 46/// /0908 10245 20157 40195 54000 92350 22200 00263 10603 20603 70015 333 91210 555 11087 22091 32343 40910 62349 087083 092080 084084 086080 087083 093078 80809 92325
BBXX 46105 03001 99590 71522 46/// ///// 1//// 92350 22200 11102 70010
BBXX 46059 03001 99380 71300 46/// /0213 10130 40298 56009 92350 22200 00153 10907 20705 3//// 40905 70037 333 91217 555 11141 22149 32349 40217 62349 021132 021128 015124 012125 017128 016129
BBXX 46075 03001 99539 71608 46/// /1811 10059 20057 40131 58019 92350 22200 00053 11309 20605 300// 41307 70043 333 91214 555 11117 22126 32327 41914 62349 181110 181114 183113 181108 183111 184110 81812 92328
BBXX 42040 03001 99292 70882 46/// /1009 10197 40269 53004 92350 22200 00227 10603 20603 70013 333 91211 555 11092 22097 32333 41011 62349 102092 096093 097087 093092 090086 095091
BBXX 42003 03001 99260 70856 46/// /0807 1//// 92350 22200 10703 20502 308// 40702 70016 333 91209 555 11075 22080 32332 40810 62349 081071 077077 077083 074077 071073 073075 80809 92328
BBXX 44005 03001 99432 70691 46/// /2606 10088 20024 40255 51014 92350 22200 00096 11003 20401 3//// 41002 70014 333 91207 555 11061 22064 32305 42308 62349 256059 250058 236058 235061 227057 219049
BBXX 46005 03001 99461 71310 46/// ///09 10091 40387 58012 92350 22200 00104 11405 20803 3//// 41404 70027 333 91211 555 11092 22097
BBXX 42057 03001 99170 70815 46/// /0509 10268 40151 53009 92350 22200 00282 10805 20805 70025 333 91211 555 11100 22105 32318 40412 62349 045094 045092 039092 041092 047088 040092 80410 92318
BBXX 42056 03001 99198 70849 46/// /0510 10256 20187 40184 53008 92350 22200 00279 10703 20703 70017 333 91212 555 11108 22114 32342 40512 62349 046100 042099 044097 046100 050096 050099 80511 92342
BBXX 42019 03001 99279 70954 46/// /1407 10225 20155 40216 55000 92350 22200 10603 20603 70017 333 91209 555 11077 22082 32329 42810 62349 144073 282074 282079 282079 282080 279082
BBXX 46084 03001 99566 71361 46/// /2509 10074 20052 40291 54000 92350 22200 00074 11108 20605 300// 41106 70040 333 91212 555 11100 22106 32313 42713 62349 254093 254100 251093 252095 250083 253086
BBXX 42036 03001 99285 70845 46/// /0508 10196 20126 40269 53008 92350 22200 00221 10502 20502 70011 333 91209 555 11085 22089 32320 40511 62349 052080 051082 052083 052084 054082 059084
BBXX 42060 03001 99163 70635 46/// /0406 10278 20237 40137 53015 92350 22200 00284 10502 20502 300// 40901 70011 333 91208 555 11066 22069 32320 40408 62349 038064 041069 046066 045067 047065 045066 80408 92333
BBXX 42058 03001 99149 70749 46/// /0507 10271 20228 40121 53013 92350 22200 00282 10602 20602 332// 40701 70012 333 91209 555 11078 22083 32253 40809 62349 051075 062071 070066 070071 073075 076077 80808 92254
BBXX 42035 03001 99292 70944 46/// /0908 10181 20167 40235 56007 92350 22200 00176 10502 20502 70011 333 91210 555 11089 22096 32330 40910 62349 090083 091087 092084 093085 092083 090079
BBXX 42012 03001 99301 70876 46/// /0806 10178 20103 40278 52003 92350 22200 00197 10602 20401 312// 40601 70008 333 91207 555 11062 22065 32304 40707 62349 080059 084057 082055 080060 078060 075057
BBXX 42001 03001 99259 70897 46/// /0807 10235 20148 40234 54000 92350 22200 00240 10602 20602 70010 333 91208 555 11073 22077 32326 40809 62349 085069 086068 082066 082066 083066 093064
BBXX 41048 03001 99320 70696 46/// /0210 10206 20135 40229 53014 92350 22200 00233 11105 20804 3//// 41103 70024 333 91211 555 11095 22100 32311 40113 62349 025093 028095 026098 025098 024098 018102 80212 92310
BBXX 42065 03001 99149 70750 46/// /0608 10267 20237 92350 22200 10503 20502 3//// 40801 70013 333 91209 555 11080 22085 32253 40811 62349 064075 065077 072075 077078 081081 085089 80909 92258
BBXX 41044 03001 99217 70587 46/// /1407 10270 20228 40160 51012 92350 22200 00272 10904 20502 300// 40904 70022 333 91209 555 11074 22078 32311 41309 62349 136069 134065 133067 134074 137070 135075 81408 92258
BBXX 41001 03001 99347 70727 46/// ///// 10174 20093 40280 53019 92350 22200 00230 11104 70019
BBXX 42020 03001 99270 70967 46/// /1210 10240 20174 40193 57005 92350 22200 00253 10704 20704 70018 333 91211 555 11103 22109 32317 41312 62349 122097 120096 124096 122097 125094 125092
BBXX 41012 03001 99300 70805 46/// /0209 10202 40274 53004 92350 22200 00236 10803 20402 307// 40802 70013 333 91210 555 11094 22099 32252 40211 62349 021088 020084 016087 011084 019087 017086
BBXX 41049 03001 99275 70630 46/// /1505 10244 20202 40167 53013 92350 22200 00253 11004 20501 300// 41004 70019 333 91206 555 11057 22059 32305 41507 62349 153054 155049 154052 154053 150054 150051 81506 92305
BBXX 46080 03001 99580 71500 46/// /0000 10047 20047 40212 51016 92350 22200 00055 10807 20401 3//// 40807 70037 333 91201 555 11003 22003 32318 40203 62349 317002 202003 113003 008013 314003 277008 80302 92319
BBXX 46081 03001 99608 71483 46/// /2102 10025 20018 40191 53015 92350 22200 00054 1//00 70000 333 91203 555 11015 22016 32258 42504 62349 214015 221015 231012 245019 251025 247023 82603 92259
BBXX 46060 03001 99606 71468 46/// /2402 10042 40184 52023 92350 22200 00065 11101 20401 319// 41101 70007 333 91203 555 11019 22020 32314 41504 62349 241019 216012 186020 153026 156026 160022 81503 92314
BBXX 46002 03001 99426 71305 46/// ///// 10110 40367 55000 92350 22200 00126 10806 70030
BBXX 46006 03001 99408 71375 46/// /0607 10110 40379 56016 92350 22200 00130 11405 20602 3//// 41404 70025 333 91209 555 11072 22075 32319 40409 62349 057069 058067 054065 052066 053068 054064
BBXX 46078 03001 99561 71526 46/// /2208 10056 20046 40221 92350 22200 11311 20705 300// 41310 70056 333 91210 555 11088 22093 32252 42211 62349 215083 221078 226082 222079 225082 227086 82209 92252
BBXX NWS0022 03004 99416 70714 43/// /2606 10096 20034 40268 5//// 7//// 8//// 222// 04139 2//// 3//// 4//// 5//// 6//// 8//// ICE /////
BBXX WABS 03004 99374 71243 41798 63529 10122 2009/ 40200 54000 7//22 86/17 22233 0//// 20209 335// 40611 5//// 6//// 80106 ICE /////
BBXX 9HXC9 03004 99258 70775 41497 60329 10210 20128 40240 52010 7//22 86233 22264 00260 2//// 3//// 4//// 5//// 6//// 80160 ICE /////
BBXX 9VVP 03004 99327 71426 413// 53616 10180 20148 40290 56025 7//22 8/272 22215 04220 21205 33636 41205 50804 6//// 85160 ICE /////
BBXX DDBB2 03004 99215 70763 41/// 40124 10250 20220 40160 54000 70311 8//// 22233 00270 29903 3//// 4//// 5//// 80230
BBXX ZCDF4 03003 99113 70749 41698 50432 10284 20256 40096 53010 70211 8346/ 22214 00290 20503 336// 40804 5//// 80264
BBXX 3FQO4 03004 99414 71288 41597 80332 00/// 10130 2011/ 40320 52020 70322 86462 22274 00130 20604 303// 40605 5//// 6//// 80120 ICE /////
BBXX C6T2064 03003 99223 70476 41498 30925 10250 2021/ 40170 54000 70221 82140 22214 20605 80220
BBXX VQKZ5 03003 99339 70396 41598 60910 10170 20135 40304 56050 70200 82588 22254 02183 2//// 309// 406// 5//// 80150
BBXX CGDS 03004 99447 70755 46/// /3103 11009 21052 4//// 5//// 7//// 8//// 22200 0//// 2////
BBXX CG2960 03004 99454 70825 46/// /1910 11001 21048 40321 51016 7//// 8//// 22223 00079 2////
BBXX CG2350 03004 99433 70798 46/// /3403 10028 21035 40331 53027 7//// 8//// 22200 0//// 2////
BBXX 45002 03001 99453 70864 46/// /2210 10022 21028 30061 40283 56009 92350 22200 10502 20502 70011 333 91212 555 11107 22114 32334 42213 62349 218100 219104 218102 215096 217096 215097
BBXX 45008 03001 99443 70824 46/// /2104 10005 30106 40328 51014 92350 22200 00076 10501 20401 3//// 40501 70004 333 91207 555 11044 22046 62349 210042 211040 219039 213030 220029 218015
BBXX 45005 03001 99417 70824 46/// /1801 10032 30121 40336 51012 92350 22200 00068 1//00 70002 333 91203 555 11013 22014 32337 41603 62349 182011 161010 137010 136012 133009 109002
BBXX 45007 03001 99427 70870 46/// /1807 10046 21001 30078 40297 57007 92350 22200 00076 10301 20301 70004 333 91208 555 11073 22076 32254 41709 62349 175070 170065 170066 178063 180062 172070
BBXX 45003 03001 99454 70828 46/// /2007 10009 30093 40315 51008 92350 22200 00075 10401 20401 70003 333 91208 555 11070 22073 32330 42208 62349 198067 203061 196057 180054 201046 178043
BBXX FVNM 03004 99142 71168 46/// /0507 10267 20219 40122 56007 22200 00270
BBXX WDC6698 03004 99097 71432 43/// /0615 10280 20273 40090 5//// 7//// 8//// 222// 04257 2//// 3//// 4//// 5//// 6//// 8//// ICE /////
BBXX WDC6698 03004 99097 71432 41598 30714 10267 2024/ 40094 57016 70181 834// 22263 00258 20201 302// 40603 5//// 6//// 80250 ICE /////
BBXX VRZN8 03004 99312 51759 41497 51615 10200 2017/ 40232 57014 70122 8522/ 22213 00200 20302 309// 40907 5//// 6//// 80180 ICE /////
BBXX BATEU07 03004 99288 31116 46/// /0815 10252 20039 40082 51005 22233
BBXX BATFR59 03004 99190 31590 46/// /1007 10267 20234 40091 58002 22231 00277
BBXX HZGH 03003 99038 11108 41397 83506 10264 20242 40073 53020 70365 85720 22224 02260 20301 30300 40404 5//// 80249
BBXX TFDRN 03004 99658 70212 46/// ///// 22200 10806 70030
BBXX TFHFN 03004 99642 70152 46/// ///// 22200 10803 70016
BBXX TFSTD 03004 99664 70234 46/// ///// 22200 10707 70034
BBXX TFKGR 03004 99657 70136 46/// ///// 22200 10809 70046
BBXX TFBKF 03004 99635 70202 46/// ///// 22200 10704 70020
BBXX TFGRS 03004 99663 70182 46/// ///// 22200 10705 70026
BBXX TFSRT 03004 99633 70203 46/// ///// 22200 11110 70048
BBXX TFGRV 03004 99638 70225 46/// ///// 22200 11107 70034
BBXX TFBLK 03004 99657 70248 46/// ///// 22200 10806 70032
BBXX TFGSK 03004 99641 70229 46/// ///// 22200 11007 70033
BBXX WDE8288 03004 99327 10302 41698 23508 10160 2011/ 40240 54000 70200 821// 22235 00200 2//// 3//// 4//// 5//// 6//// 80130 ICE /////
BBXX DBBH 03001 99550 10139 41/98 /2412 10067 20041 40082 52010 7//// 22253 04076
BBXX C6XC6 03004 99428 10067 41/// 71915 10180 2//// 40170 5//// 7//92 8//// 22253 0//// 2//// 3//// 4//// 5//// 6//// 8//// ICE /////
BBXX C6VF5 03004 99374 10204 43/// 33011 10160 2011/ 40240 5//// 7//// 83/// 22234 00200 2//// 3//// 4//// 5//// 6//// 80130 ICE /////
BBXX DPJK 03001 99468 70114 41/97 72712 10140 20105 40211 52010 71582 8//// 22254 04163 2//// 3//// 4//// 5//// 80120
BBXX DBBC 03001 99535 10086 46/// /1906 10036 2//// 40096 57013 22200 00066
BBXX DBBI 03001 99532 10085 46/// /2104 10046 20046 40103 57010 22250 00062
BBXX DBND 03001 99536 10086 46/// /2007 10046 20031 40093 57012 22240 00077
BBXX DBKR 03001 99584 10199 46/// /2813 10/48 20000 49994 52013 22281 00082
BBXX DBEB 03001 99539 10079 41/// /2113 10052 20052 40077 5//// 7//// 222// 00086
BBXX DBBA 03001 99536 10086 46/// ///// 10044 20030 40086 57012 22200 00111
BBXX DBFH 03001 99555 10084 46/// /2307 10065 20039 40036 57015 22220 00079
BBXX HZZB 03003 99381 70275 41697 80717 10170 2015/ 40333 5//// 7//22 886// 22223 0//// 20304 311// 40405 5//// 6//// 80155 ICE /////
BBXX DK7210 03001 99540 10066 46/// /2116 10081 20069 30031
BBXX MHNO6 03003 99478 70112 41/98 /2625 10137 20109 40187 53009 70282 8//// 22253 00159 2//// 3//// 4//// 5//// 80122
BBXX WBP3210 03004 99616 50606 43/// /2427 11001 2//// 49974 5//// 7//// 8//// 22242 01004 2//// 3//// 4//// 5//// 6//// ICE /////
BBXX A8EH7 03004 99050 31287 41598 22902 10310 20239 40108 53000 70222 821/8 22263 00320 20400 307// 40701 5//// 80260
AAXX 03004 91925 02580 40703 10287 20199 30045 40105 56015 60004 84200 333 20221 56200 58009 60007 84820 90710 91115 555 60005 11025
AAXX 03004 91929 04/72 /0613 10296 20231 30101 40104 57020 60001 700// 333 60007 90710 91119 555 60005
AAXX 03004 91938 01570 60312 10303 20219 30113 40115 56021 69961 70286 82801 333 69927 81820 85080 90710 91123 555 60005 10427
AAXX 03004 91943 36/// /0512 10287 20222 30113 40115 56017 333 58006
AAXX 03004 91944 06/// /0715 10271 20212 30131 40134 56015 60001 333 60007 90710 91122 555 60005
AAXX 03004 91948 02582 20403 10249 20186 30071 40173 56014 60004 82101 333 20220 56105 58007 60007 82820 90710 91112 555 60005 10612
AAXX 03004 91954 06/// /0308 1//// 2//// 30137 4//// 56011 6///4 333 2//// 59004 60007
AAXX 03004 91958 01465 81204 10228 20192 30155 40157 55009 69984 71586 888// 333 20198 56599 59005 69967 86813 88640 90710 91110 555 60005 10712
AAXX 03004 91945 NIL
AAXX 03001 15502 11930 50000 11014 21028 30200 40241 58001 60001 71011 85050 333 11012 21050 555 590//
AAXX 03001 15525 11958 02004 10006 21011 39962 40237 58007 60001 71000 333 10028 20001 555 588// 92600
AAXX 03001 15528 11930 00000 10000 21018 30020 40217 58009 60001 71000 333 10014 21006 555 588// 92600
AAXX 03001 15549 12970 00000 10016 21003 39809 40237 57002 60001 333 10036 20010 555 587// 92601
AAXX 03001 15552 11958 02701 10031 20015 30178 40228 57008 60001 71000 333 10060 20031 555 590// 92022 92426
AAXX 03001 15614 12961 01401 11008 21042 39535 40267 54000 60001 333 10050 21010 555 578//
AAXX 03001 15615 11984 02910 11024 21122 37162 47104 54000 60001 70200 333 11018 21024 444 27151 555 547//
AAXX 03001 15626 11920 00000 11034 21039 30053 40252 58002 60001 71000 333 10002 21040 555 597//
AAXX 03001 15640 12968 00000 10018 21013 39927 40250 57005 60001 333 10036 20016 555 580//
AAXX 03001 15655 12962 02302 10026 20005 30206 40240 58005 60001 222// 20000 333 10056 20024 555 586// 92012 92417
AAXX 03001 15712 12962 03201 10006 21017 30000 40260 51000 60001 333 10053 20004 555 584//
AAXX 03001 15730 11908 00000 11010 21011 39850 40259 58002 60001 74440 333 10044 21013 555 599//
AAXX 03004 93004 16/// /0725 10189 20187 40183 57012 60004 333 20163 70000
AAXX 03004 93023 16/// /0812 10206 20172 40212 57007 60004 333 20166 70000
AAXX 03004 93069 16/// /0811 10198 20166 40216 57006 60004 333 20166 70000
AAXX 03004 93110 16597 /0416 10236 20163 40209 57010 60004 333 20145 70000
AAXX 03004 93186 17497 /0410 10204 20176 40231 57008 60114 333 20164 70114
AAXX 03004 93196 16/// /0409 10199 20170 40246 57009 69964 333 20159 70006
AAXX 03004 93245 16598 /0209 10182 20139 40222 57012 60064 333 20110 70060
AAXX 03004 93292 17697 /0410 10224 20136 40229 57016 60004 333 20107 70000
AAXX 03004 93309 17/97 /3509 10206 20150 40210 57012 60004 333 20138 70000
AAXX 03004 93334 16/// /0406 10188 20108 39265 57012 69964 333 20103 70006
AAXX 03004 93339 16/// /0319 10189 20095 39269 57012 60014 333 20095 70014
AAXX 03004 93373 17/97 /0716 10212 20155 40215 57020 60004 333 20095 70000
AAXX 03004 93404 NIL
AAXX 03004 93420 17698 /0109 10216 20130 40207 57013 69924 333 20120 70002
AAXX 03004 93439 17698 /3617 10215 20125 40201 57015 60004 333 20139 70000
AAXX 03004 93498 16/// /0315 10170 20149 40207 57017 60004 333 20132 70000
AAXX 03004 93515 17497 /0412 10181 20159 40189 57016 60004 333 20102 70000
AAXX 03004 93527 16/// /3609 10202 20160 40207 57011 60004 333 20136 70000
AAXX 03004 93546 17897 /0309 10203 20155 40206 57014 69944 333 20128 70004
AAXX 03004 93597 16/// /3317 10186 20133 40180 57015 60004 333 20142 70000
AAXX 03004 93615 17797 /0114 10190 20148 40178 57019 60004 333 20101 70000
AAXX 03004 93678 16/98 /1402 10220 20114 40145 57019 60004 333 20124 70000
AAXX 03004 93709 16/// /0416 10171 20118 40154 57021 60004 333 20084 70000
AAXX 03004 93773 17/98 /1207 10206 20121 40117 57024 60004 333 20052 70000
AAXX 03004 93781 17/98 /0912 10235 20115 40133 57023 60004 333 20052 70000
AAXX 03004 93800 NIL
AAXX 03004 93805 NIL
AAXX 03004 93831 17/98 /3309 10177 20060 40101 57045 60004 333 20077 70000
AAXX 03004 93845 17/98 /0709 10208 20098 40088 57035 60004 333 20117 70000
AAXX 03004 93891 17/98 /3614 10258 20085 40093 57039 60004 333 20079 70000
AAXX 03004 93909 16/// /1308 10158 20114 40083 57036 69924 333 70002
AAXX 03004 93929 16/// /0000 10087 20073 40108 57025 60014 333 70010
AAXX 03004 93947 16/// /3410 10100 20069 40121 57009 60004 333 70000
AAXX 03004 93987 16/// /3613 10168 20089 40293 57015 60004 333 20116 70000
AAXX 03004 93994 NIL
AAXX 03004 78762 32570 21307 10185 20138 39095 40126 53004 82200 333 10261 20172 30/// 56300 58005 81630 81650
AAXX 03004 47101 11560 82701 10034 20019 30083 40180 52015 60082 76166 8672/ 333 20033 31003
AAXX 03004 47105 169// /2704 10050 20038 30122 40154 53001 60262 333 20041 3/006
AAXX 03004 47108 12663 60001 10042 20020 30062 40168 52006 60052 82530 333 20038 31005
AAXX 03004 47115 11462 80719 10070 20062 39847 40116 57004 60102 76166 8672/ 333 20064 31006 92055
AAXX 03004 47133 11563 70001 10055 20046 30081 40166 51011 60082 72162 87500 333 20051 31008
AAXX 03004 47138 11565 82505 10080 20073 30125 40128 52014 60222 76166 8672/ 333 20079 32008 92042
AAXX 03004 47159 11561 83414 10076 20057 30039 40124 52012 60052 76066 8572/ 333 20075 31008 92024
AAXX 03004 47165 12962 60001 10075 20053 30108 40155 52009 69952 85030 333 20054 31009 92021
AAXX 03004 47168 12680 23414 10090 20036 30059 40137 52010 69922 82500 333 20082 31009 92024
AAXX 03004 47184 11565 83210 10112 20073 30134 40159 52015 60022 76062 8572/ 333 20107 31010 92043
BBXX PFBF 03004 99011 31075 41297 82707 10261 20250 40070 53/// 78088 8/8// 22273 20305 328// 40305 5//// 80253
BBXX LDGJ 03001 99779 10094 43/// /3414 11070 21097 49694 5//// 222/1 04059 1//// 3//// 4//// 5////
BBXX LF4H 03004 99596 10022 46/// /1842 10075 20064 49757 57083 8//// 22200 06091 10807 70036 333 91152
BBXX LGWS 03001 99269 70135 43/// /0412 10174 20142 40230 5//// 222/0 04173 1//// 3//// 4//// 5////
BBXX LMEL 03001 99603 10053 43/// /1508 10038 20030 49842 5//// 222/2 04097 1//// 3//// 4//// 5////
AAXX 03004 78762 32570 21307 10185 20138 39095 40126 53004 82200 333 10261 20172 30/// 56300 58005 81630 81650
AAXX 03004 63980 42482 12910 10266 20222 40085 81202 333 59011 81816 943// 91117
AAXX 03001 38353 414// 80000 10004 20004 39381 40303 52012 77377 8872/
AAXX 03001 38613 415// 81801 10003 21009 39370 40297 51000 77177 889// 555 1/000
AAXX 03001 38616 415// 70000 10010 21001 39258 40298 51001 70272 87500
AAXX 03001 38345 41596 82701 11021 21027 38839 48528 52010 71022 886// 555 1/101
AAXX 03001 36911 415// 80000 10002 21004 39310 40296 52014 77377 887// 555 1/000
AAXX 03001 36974 416// 80501 11069 21081 38014 48598 54010 72072 8802/ 555 17110
AAXX 03001 36982 429// 51401 11153 21172 36506 47156 52002 80001
AAXX 03004 47090 11530 83206 10048 20036 30141 40163 55002 60192 76166 8672/ 333 20043 31005 92052
AAXX 03004 47095 11570 83403 10016 20008 39987 40179 52004 60082 76176 8672/ 333 20004 31003
AAXX 03004 47097 129// /0202 10037 20025 30071 40168 52007 60092 333 20034 3/006
AAXX 03004 47098 129// /3603 10024 20015 30033 40169 52006 60072 333 20017 3/005
AAXX 03004 47099 129// /3603 10036 20034 30138 40175 52008 60022 333 20031 3/005
AAXX 03004 47100 11215 82502 10005 21006 39236 40160 53002 60062 77177 8672/ 333 20004 3/000 49036
AAXX 03004 47102 11673 60502 10045 20013 30007 40186 52013 69902 72162 85501 333 20043 31004
AAXX 03004 47104 11565 82705 10050 20033 30056 40154 51002 60232 76166 8672/ 333 20047 32005
AAXX 03004 47106 129// /3210 10055 20036 30091 40140 51002 60112 333 20048 3/006
AAXX 03004 47112 12670 53607 10045 20028 30086 40170 52009 69912 82501 333 20042 31005 92012
AAXX 03004 47114 11562 82002 10019 20002 39986 40171 52017 60082 76166 8672/ 333 20019 31004
AAXX 03004 47119 12670 53204 10052 20038 30125 40167 52011 60052 85500 333 20047 31004
AAXX 03004 47121 129// /2704 10035 20018 39867 40162 52015 60042 333 20034 3/004
AAXX 03004 47127 129// /3402 10029 20012 30028 40171 52012 60112 333 20029 3/004
AAXX 03004 47129 12662 73603 10064 20053 30138 40174 52014 60022 87500 333 20055 31008
AAXX 03004 47130 11570 82709 10068 20060 30066 40127 54000 60092 76062 8672/ 333 20058 31007 92043
AAXX 03004 47131 11565 83603 10049 20038 30092 40163 52007 60122 76062 8552/ 333 20045 31007
AAXX 03004 47135 129// /2511 10039 20024 39860 40160 52014 60122 333 20038 3/005
AAXX 03004 47136 11557 82906 10050 20039 39976 40148 52015 60082 76166 8572/ 333 20050 31006
AAXX 03004 47137 129// /2705 10047 20046 30038 40157 52017 60092 333 20046 3/006
AAXX 03004 47140 12668 60503 10059 20040 30136 40165 52013 60012 85500 333 20057 31007 92012
AAXX 03004 47143 11550 82706 10069 20050 30074 40153 52013 60082 76166 8672/ 333 20066 32007
AAXX 03004 47145 11668 62905 10054 20041 30134 40160 52010 60052 72162 86500 333 20049 31006
AAXX 03004 47146 11663 83603 10062 20049 30093 40159 52013 60042 72162 8552/ 333 20059 31009
AAXX 03004 47150 12670 63606 10055 20041 30146 40165 52016 60022 85500 333 20050 31006
AAXX 03004 47152 11570 83603 10081 20071 30082 40124 52015 60102 76066 8572/ 333 20081 31009
AAXX 03004 47154 129// /2907 10058 20036 30094 40154 52016 60112 333 20058 3/007
AAXX 03004 47155 11672 71103 10089 20056 30091 40136 52016 60032 72162 85530 333 20074 31009
AAXX 03004 47156 12665 80000 10072 20064 30069 40158 52010 60012 8552/ 333 20062 31008
AAXX 03004 47157 12670 70502 10060 20044 39867 40136 52009 60032 87500 333 20051 31008
AAXX 03004 47162 12575 60702 10088 20070 30096 40136 52017 60032 85500 333 20074 31009 92021
AAXX 03004 47169 12680 70209 10097 20067 30056 40148 52007 60032 87500 333 20074 31009 92033
AAXX 03004 47170 12673 21803 10089 20066 30111 40154 52011 69922 82500 333 20061 31008 92021
AAXX 03004 47171 129// /0502 10064 20051 30105 40160 52011 60032 333 20063 3/008
AAXX 03004 47172 129// /3606 10071 20050 30087 40153 52010 60012 333 20068 3/009
AAXX 03004 47173 129// /0000 10068 20057 30043 40154 52010 60022 333 20058 3/008
AAXX 03004 47174 12665 52906 10077 20053 39945 40145 50008 69952 85500 333 20063 31007
AAXX 03004 47175 11558 53407 10059 20051 39581 40151 51007 60012 71062 85500 333 20046 31008 92022
AAXX 03004 47185 11670 72923 10124 20057 30066 40155 52010 60022 72162 87500 333 20100 31010 92046
AAXX 03004 47188 12670 53609 10111 20068 30129 40150 50016 69962 85500 333 20092 31009 92032
AAXX 03004 47189 12670 23206 10125 20056 30089 40148 52017 60012 82500 333 20101 31010 92032
AAXX 03004 47192 12672 61401 10090 20059 30105 40142 52013 60012 85500 333 20066 31009
AAXX 03004 78762 32570 21307 10185 20138 39095 40126 53004 82200 333 10261 20172 30/// 56300 58005 81630 81650
AAXX 03004 16622 11420 59903 10090 20082 30240 40251 58002 60001 71000 85600 333 90730 91105 555 40000 47710 44210 50000 50086 70000 77Y// 7/Y//
AAXX 03004 16641 12460 60000 10100 20100 30235 40240 57004 60001 83250 333 83818 86358 90730 91103 555 40000 47709 44220 50000 50100
AAXX 03004 16682 12560 20000 10092 20075 30210 40229 51001 60001 81130 333 90730 91106 555 40000 47688 44200 50000 50084
AAXX 03004 16716 NIL
AAXX 03004 16734 36/// /0406 10102 20080 30181 40243 57001 333 90730 91109
AAXX 03004 16743 NIL
AAXX 03004 16749 12960 02104 10136 20061 30206 40220 53001 60001 333 90730 91106 555 40000 47688 44220 50000 50100
AAXX 03004 16754 12460 12108 10080 20028 30191 40239 54000 60001 81100 333 90730 91110 555 40000 47677 44215 50000 50058 70000 77/I/ 7/I//
AAXX 03001 14240 11715 53601 10026 20021 30037 40197 58002 60001 71021 85500
AAXX 03001 14258 12970 01803 10112 20070 30000 40186 58002 60001
AAXX 03001 14445 12670 61104 10138 20096 30075 40229 58002 60001 86500 333 86696 92312
BBXX 46001 03001 99563 71480 46/// /2209 10059 40259 54000 92350 22200 00052 11309 20605 300// 41307 70046 333 91211 555 11096 22104 32301 42213 62349 224089 225087 230093 228092 227096 226096
BBXX 46026 03001 99378 71228 46/// /3211 10120 40145 56014 92350 22200 00116 11005 20804 331// 41004 70025 333 91213 555 11114 22122 32349 43213 62349 310106 280106 277095 275078 278087 278095
BBXX 46042 03001 99368 71224 46/// /3309 10132 30146 40146 56009 92350 22200 00131 11006 20703 332// 41005 70030 333 91210 555 11091 22097 32342 43310 62349 333085 330077 327080 327079 332070 332071
BBXX 46054 03001 99342 71204 46/// /2805 10141 40144 58010 92350 22200 00146 11103 20401 300// 41103 70016 333 91206 555 11053 22055 32253 42807 62349 282049 287047 282054 276055 279052 281058
BBXX A8JE6 03004 99367 71417 41597 31017 10175 20143 40350 54000 70200 83500 22224 20504 310// 40704 5//// 80155
BBXX CG2958 03004 99487 71235 46/// /1403 10071 20027 40337 50007 7//// 8//// 22231 0//// 2////
BBXX CG2965 03004 99487 71235 46/// /1203 10068 20021 40330 56003 7//// 8//// 22200 0//// 2////
BBXX CGBR 03004 99539 71302 46/// /0138 10039 20039 40361 55006 7//// 8//// 22242 00068 2////
BBXX CGBY 03004 99487 71235 46/// /1103 10067 20021 40328 56003 7//// 8//// 22200 0//// 2////
BBXX CGDR 03004 99523 71285 46/// /1008 10056 20055 40367 58005 7//// 8//// 22261 00109 2////
BBXX CGJK 03004 99484 71234 46/// /0405 10077 20022 40331 53001 7//// 8//// 22200 0//// 2////
BBXX DGDD 03001 99310 71268 41998 00211 10175 20134 40195 55010 70200 80000 22264 00170 20703 333 // 41507 5//// 80150
AAXX 03001 12120 11570 62303 10045 20033 30081 40088 51014 60011 70381 862// 333 93001
AAXX 03001 12250 12578 22202 10035 20023 30035 40125 52016 60001 82500 333 91109 93000
AAXX 03001 12295 11445 82704 10063 20051 39913 40097 52024 69911 76022 885// 333 88611 91110 93091
AAXX 03001 12330 11465 72404 10051 20038 30036 40145 52013 69901 70282 875// 333 91112 93097
AAXX 03001 12375 11470 72604 10064 20046 39997 40128 52024 69901 72562 875// 333 81618 91111 93097
AAXX 03001 12424 11580 72702 10055 20035 30008 40162 51012 69901 70286 875// 333 93097
AAXX 03004 08001 12965 32903 10116 20079 30200 40282 51003 60001 80002 333 924/7
AAXX 03004 08015 NIL
AAXX 03004 08023 11562 42308 10095 20071 30195 40267 51006 60021 70282 84100
AAXX 03004 08027 11457 72805 10106 20060 39943 40256 52012 60041 76262 86460
AAXX 03004 08045 02560 30000 10068 20054 39987 40305 51006 60001 83500 333 60007
AAXX 03004 08141 12962 03401 10020 20004 39395 40282 51009 60001
AAXX 03004 08160 12770 33009 10084 20052 39918 40231 52012 60001 83510
AAXX 03004 08181 02562 73513 10112 20051 30194 40200 51016 60001 878// 333 60007
AAXX 03004 08221 02780 20606 10054 20011 39542 40240 52010 60001 81570 333 60007
AAXX 03004 08231 NIL
AAXX 03004 08261 NIL
AAXX 03004 08284 02570 63304 10111 20074 30119 40195 51010 60011 8167/ 333 60007
AAXX 03004 08306 11462 43501 10112 20101 30181 40187 52012 69901 70151 82870
AAXX 03004 08314 01575 61601 10132 20119 30084 40187 51007 60021 70265 82840 333 60027
AAXX 03004 08430 11560 72502 10094 20077 30115 40191 51019 60061 76062 83872
AAXX 03004 08482 11770 13013 10106 20032 30202 40211 52008 69901 70150 81100
AAXX 03001 12105 12469 72204 10047 20032 30066 40109 51012 60001 875// 333 87613 93000
AAXX 03001 12195 11483 72806 10042 20032 39858 40086 51033 69981 70286 875// 333 91110 93001
AAXX 03001 12235 11463 82405 10042 20032 39904 40116 53014 69901 70282 885// 333 88612 93097
AAXX 03001 12270 11584 72807 10050 20027 39936 40119 52028 69911 70282 873// 333 91111 93091
AAXX 03001 12280 11584 82704 10050 20032 39942 40099 51029 69971 70282 885// 333 91111 93001
AAXX 03001 12300 12675 82703 10050 20037 30047 40138 52007 60001 885// 333 93000
AAXX 03001 12400 11565 82403 10042 20032 39916 40154 52008 69931 70182 875// 333 91109 93093
AAXX 03001 12435 11677 72504 10042 20019 39978 40152 51020 69901 70381 875// 333 93097
AAXX 03001 12495 11858 82304 10030 20004 39848 40144 52013 60001 71022 885// 333 91110 93000
AAXX 03001 12530 11558 71901 10043 20010 39966 40168 51013 60001 71022 875// 333 93000
AAXX 03001 12570 11457 82801 10036 20005 39834 40156 51012 60001 71022 8657/ 333 93000
AAXX 03001 12580 12960 02505 10019 20000 39906 40171 53021 60001 333 91114 93000
AAXX 03001 14241 11615 61801 10017 20011 30063 40197 58002 60001 71121 81530
AAXX 03001 14284 11940 01603 10013 20006 30093 40205 58003 60001 71011
AAXX 03001 14307 31908 31101 10096 20093 30131 40208 58004 74041 83030 333 90084 96010 98240 98608 98926
AAXX 03001 14317 NIL
AAXX 03001 14431 12565 61303 10114 20095 30128 40221 56004 60001 81570 333 81640 85458
AAXX 03001 14444 33565 63602 10128 20098 30206 40235 57002 86500 333
AAXX 03001 14474 13870 /0804 10097 20067 30053 40245 58003 60001
AAXX 03001 12160 11480 22404 10048 20028 30046 40099 51015 69921 70161 82500 333 93092
AAXX 03001 12205 12465 32206 10050 20038 30114 40122 50007 60001 83500 333 93000
AAXX 03001 12465 12568 72603 10051 20036 39912 40147 51023 60001 875// 333 91112 93000
AAXX 03001 12566 11758 72003 10010 21008 39879 40181 51016 60001 71011 875// 333 93000
AAXX 03004 16643 12460 40406 10110 20090 30246 40251 51001 60001 84600 333 90730 91110 555 40000 47720 44250 50000 50100
AAXX 03004 16648 11908 00000 10014 20008 30154 40247 54000 60001 74440 333 90730 91104 555 40000 47646 44210 50000 50012 70000 77F// 7FY//
AAXX 03004 16650 11950 00000 10012 20006 30230 40234 58001 60001 71000 333 90730 91102 555 40000 47702 44205 50000 50010 70000 77Y// 7/Y//
AAXX 03004 16684 12960 00000 10074 20056 30202 40230 58004 60001 333 90730 91103 555 40000 47682 44210 50000 50066
AAXX 03004 16732 NIL
AAXX 03001 26509 /1570 82706 10064 20014 30044 40053 52019 70282 888// 333 91011 91113 555 1/005 69961
AAXX 03001 26518 /1670 32504 10030 20027 39847 40052 52019 70261 82530 333 91006 91109 555 1/002 60011
AAXX 03001 26524 /1998 02303 10035 20027 39906 40038 52021 70161 333 91006 91111 555 1/001 69982
AAXX 03001 26531 /1470 62604 10042 20035 39952 40028 52035 72162 86500 333 86712 91007 91112 555 1/004 60041
AAXX 03001 26629 NIL
AAXX 03001 26633 /1460 82903 10045 20033 39909 40038 53029 76165 8872/ 333 88713 91007 91111 555 1/004 60061
AAXX 03001 26730 /1770 72806 10048 20036 39870 40060 53022 72165 87500 333 91009 91111 555 1/005 60021
AAXX 03001 26645 41296 82303 10045 20040 39873 40029 57003 76162 8872/ 555 12004
AAXX 03001 26659 41456 82104 10038 20028 39828 40042 56008 75165 886// 333 88713 91110 555 11003
AAXX 03001 26763 41460 81906 10025 20012 39841 40069 57018 70262 886// 333 88717 91112 555 12002
AAXX 03001 26825 42460 72706 10053 20031 39906 40087 52025 875// 333 87620 555 11003
AAXX 03001 26832 41457 82304 10056 20044 39875 40066 53009 78082 8637/ 333 86917 91110 555 11005
AAXX 03001 26887 41496 81706 10015 20007 39911 40118 57019 76162 8872/ 333 88712 91110 555 11001
AAXX 03001 26961 42961 82005 10055 20013 39900 40091 57008 8807/ 555 11///
AAXX 03001 33027 41597 82104 10067 20006 39950 40116 56006 72582 82907 555 11003
AAXX 03004 16614 36/// /0000 11026 21048 39469 40285 57002 333 90730 91106
AAXX 03004 16627 NIL
AAXX 03004 16667 12960 02405 10064 20046 30230 40235 54000 60001 333 90730 91107 555 40000 47702 44200 50000 50056
AAXX 03004 16675 17/// /2803 10019 20009 30230 40244 57001 69901 741// 333 90730 91106 555 60000 65555 6////
AAXX 03004 16710 36/// /0000 11025 21043 39483 40294 57001 333 90730 91101
AAXX 03004 16723 NIL
AAXX 03004 16738 17/// /0000 10111 20089 30043 40244 57001 69901 741// 333 90730 91104 555 60000 65555 60141
AAXX 03004 16746 NIL
AAXX 03004 61902 11582 71215 10230 20186 40155 69901 70381 878// 333 59002 83820 87636
AAXX 03001 33088 NIL
AAXX 03001 33177 32997 22001 10052 20012 39898 40136 53002 80001
AAXX 03001 33261 31996 81804 11003 21012 30009 40196 57015 71011 8805/
AAXX 03001 33275 32997 51906 11002 21019 39993 40223 57010 85030
AAXX 03001 33301 32997 22306 10048 21005 39864 40147 57003 80001
AAXX 03001 33325 32997 02002 10010 21022 39896 40169 57009
AAXX 03001 33377 31495 31404 11013 21021 30021 40220 57010 71000 83600
AAXX 03001 33415 31996 21602 11006 21021 39767 40175 57005 71011 80001
AAXX 03001 33429 32997 71703 10002 21015 39746 40179 57006 85031
AAXX 03001 33466 32967 21904 10009 21023 30010 40202 57009 82030
AAXX 03001 33526 31632 60000 11025 21031 39823 40174 58007 71022 85530 333 85633
AAXX 03001 33562 31996 32004 11006 21012 39818 40189 57007 71000 83030
AAXX 03001 33614 31950 01604 11007 21020 30127 40235 58004 71011
AAXX 03001 33761 31496 81904 10000 21012 39992 40222 57010 71011 886// 333 88711
AAXX 03001 33902 NIL
AAXX 03001 33983 32997 00000 11010 21028 30205 40268 52003
AAXX 03001 34415 32497 81802 11012 21019 30163 40263 54000 886//
AAXX 03001 34523 32597 80000 11017 21048 30191 40270 52001 885// 333 88622
AAXX 03001 34712 NIL
AAXX 03004 17026 12670 31603 10062 20050 30224 40264 57005 60001 82230 333 82835 83360 91104 92428
AAXX 03004 17034 12970 00000 10072 20028 30232 40279 55000 60001 333 92428
AAXX 03004 17070 NIL
AAXX 03004 17084 12970 01601 11088 21125 39352 40294 53001 60001
AAXX 03004 17090 12965 00000 11080 21116 38784 48546 52008 60001
AAXX 03004 17098 NIL
AAXX 03004 17150 11903 00000 11065 21065 30136 40267 55001 60001 74844
AAXX 03004 17160 NIL
AAXX 03004 17184 12970 20000 11017 21043 30140 40255 52002 60001 80001 333 82070 91103
AAXX 03004 17189 11956 01602 11113 21134 39087 48534 56001 60001 71000
AAXX 03004 17210 NIL
AAXX 03004 17234 12970 00802 10057 21050 30173 40242 50001 60001 333 91107
AAXX 03004 17260 11940 03102 11027 21062 39419 40259 54000 60001 71022
AAXX 03004 17290 NIL
AAXX 03004 17370 12965 01304 10125 21065 30232 40236 52002 60001 333 92427
AAXX 03001 26106 41/97 82203 10041 20024 39974 40016 52022 70285 8115/ 333 91113
AAXX 03001 26313 43/// /2606 10049 20006 39988 49995 52016 333 91012 91114
AAXX 03001 26346 41397 82703 10022 20020 39744 49987 52036 70265 886// 333 88709 91113
AAXX 03001 26406 41597 62606 10053 21002 30031 40037 52019 70282 86500 333 86631 91012 91112
AAXX 03001 26416 43/// /2403 10026 20006 39888 40028 52019 333 91110
AAXX 03001 26424 41497 62504 10035 20018 39969 40022 52022 70282 86500 333 91113
AAXX 03001 26544 41496 83004 10041 20030 39868 40020 52020 78082 889// 333 85916 91111
AAXX 03004 17024 NIL
AAXX 03004 17056 12970 02802 10037 20036 30243 40247 55003 60001 333 91105 92428
AAXX 03004 17067 12970 01301 10011 21011 30229 40252 56001 60001 333 91105 92408
AAXX 03004 17092 12960 00000 11095 21095 38927 48541 51003 60001
AAXX 03004 17112 12965 00603 10034 20000 30243 40245 51001 60001 333 91107 92417
AAXX 03004 17115 11915 02801 11032 21032 30197 40250 55001 60001 74000
AAXX 03004 17116 11950 00000 11019 21027 30134 40259 55002 60001 71000 333 91103
AAXX 03004 17188 11957 02803 11009 21092 39174 40251 53001 60001 70500 333 91106
AAXX 03004 17202 12970 02605 11068 21088 39226 40290 53006 60001
AAXX 03004 17248 NIL
AAXX 03004 17292 12970 01601 10005 21038 39475 40237 52003 60001 333 91102
AAXX 03004 17300 12960 03504 10054 20002 30157 40229 52009 60001
AAXX 03004 17310 NIL
AAXX 03004 17330 NIL
AAXX 03004 17022 12962 01303 10041 21002 30086 40255 58004 60001 333 91107 92427
AAXX 03004 17031 12670 11305 10003 20000 30260 40267 56003 60001 81100 333 81836
AAXX 03004 17038 11570 72305 10073 20029 30228 40280 53001 69961 70282 84250 333 82720 84830 86360 92428
AAXX 03004 17050 12970 03501 11002 21008 30185 40249 56001 60001 333 91107
AAXX 03004 17060 11932 00101 10040 20026 30208 40249 50000 60001 71000
AAXX 03004 17096 11903 00000 11162 21172 38268 48545 51002 60001 74400
AAXX 03004 17124 12960 00000 11071 21099 39337 40285 53004 60001
AAXX 03004 17128 11945 00000 11090 21101 39157 40301 52002 60001 71000
AAXX 03004 17170 NIL
AAXX 03004 17195 11960 00502 11104 21119 39045 48548 52007 60001 71000
AAXX 03004 17199 12970 02501 11023 21092 39150 40276 52006 60001
AAXX 03004 17219 11957 03402 11005 21037 30094 40243 50000 60001 71000
AAXX 03004 17240 12970 02101 11044 21113 39091 40264 52006 60001 333 91102
AAXX 03004 17244 12970 00301 11066 21096 39060 48543 51002 60001
AAXX 03004 17280 12960 03004 11034 21096 39445 40259 52002 60001
AAXX 03004 17350 12960 00103 10046 21048 30158 40237 52008 60001
BBXX KSDF 03003 99353 70208 41498 60519 10183 20139 40289 51010 7//22 85401 22223 0//// 20204 330// 40506 5//// 6//// 80156
AAXX 03004 78906 12580 71502 10240 20223 30121 40126 60001 86841 333 10276 20240 58001 81820 86636
AAXX 03001 37749 41596 82301 10027 20006 30164 40284 53008 71022 885// 555 11002
AAXX 03001 37925 42997 00000 10040 20022 30273 40243 53001 555 11002
AAXX 03001 37675 42995 32502 10011 21052 39569 40245 52002 83002 555 14101
AAXX 03001 37740 42998 02501 11013 21049 39420 40254 57001 555 11003
AAXX 03001 37905 42997 83602 10019 21000 30167 40257 52003 886// 555 10001
AAXX 03001 37989 42996 22701 10030 20001 30275 40247 52002 82030 555 14100
AAXX 03001 37985 42996 00000 10010 20002 30267 40252 52006 5551/105
AAXX 03001 37851 42598 50000 10038 21002 30154 40229 58008 85500
AAXX 03001 37661 42998 02501 10027 21050 39463 40237 57003 555 11000
AAXX 03001 37864 42997 32702 10039 21014 40232 53001 83040
AAXX 03004 78016 31564 80108 10215 20159 30204 40208 53011 71522 83177 333 10229 20205 79999
AAXX 03004 65352 31930 70000 10235 20134 3//// 4//// 70522 80002 333 5//// 87076
AAXX 03004 65361 NIL
AAXX 03004 65376 32958 72204 10245 20085 39654 40110 80002 333 59001 87076
AAXX 03004 65387 32460 62804 10265 20239 30081 40099 81502 333 58003 81610 86073
AAXX 03004 89577 46/// /1503 11364 35748 4//// 5////
AAXX 03004 89578 46/// /05// 11364 36822 4//// 5////
BBXX C6XQ2 03003 99136 70267 41397 80518 10251 20226 40163 54000 70522 886// 22243 04260 20805 334// 41304 5//// 80234
BBXX DFWV2 03004 99105 70986 41/// 20818 10265 20206 40120 54000 7//00 8//4/ 2227/ 29904 336// 4//02 5////
BBXX A8UT7 03004 99102 50018 41598 81211 10214 20161 40120 54000 70200 8271/ 22273 20703 80180
BBXX A8VL5 03004 99233 11179 41398 50325 10140 20102 40280 53010 70111 85500 22254 00190 20404 30000 80120
BBXX ELWP5 03001 99222 70174 41598 20208 10200 20169 40242 54000 70511 82612 22200 04190 20000 335// 41603 5//// 80180
BBXX DILS 03004 99303 30358 41/98 32326 10225 20186 40078 54000 70111 81/// 22254 04240 20506 323// 40404 80200
AAXX 03004 04005 41484 80504 11002 21057 49840 51016 71682 888// 555 3/309
AAXX 03004 04018 41582 53309 11018 21081 49815 52009 71522 8396/ 555 3//11 81925 85656 85363
AAXX 03004 04030 42886 70105 11020 21079 49816 52013 86031 555 3//06 86356
AAXX 03004 04048 NIL
AAXX 03004 04063 41660 80400 11042 21054 49826 52015 77072 8592/ 555 3//03
AAXX 03004 04077 NIL
AAXX 03004 04082 NIL
AAXX 03004 04097 41580 83520 10002 21041 49771 53011 78583 883// 555 3/430
AAXX 03004 68240 42960 32203 10200 20163 48489 56007 83080
AAXX 03004 48440 31957 60000 10195 20179 30052 40103 52010 71010 80006 333 20194 59020
AAXX 03004 48500 31556 30000 10257 20203 30082 40089 52015 71000 82855 333 20232 59022
AAXX 03004 48552 32460 70000 10238 20223 30083 40090 52019 84556 333 20216 59017
AAXX 03003 04013 42689 50909 11030 21054 49825 52018 82510 555 3//09
AAXX 03003 04064 42680 53213 11028 21083 49782 52020 82542 555 3//18
BBXX BATUK01 03004 99591 70024 46/// /2344 10070 20027 49714 57044 22241 00109
AAXX 03001 14121 36/// /0000 10024 20018 39919 40192 57004
AAXX 03004 60101 32458 63613 10132 20041 40236 54000 86200 333 86816
AAXX 03004 60115 12460 82211 10087 20062 40203 57007 60031 8587/ 333 82810 84820 85360
AAXX 03004 60156 17460 63506 10120 20107 40257 56007 69931 70060 86200 333 86816
AAXX 03004 60230 12556 30000 10102 20086 40254 56010 60001 83202 333 83826
BBXX A8KM9 03004 99295 71250 41/98 33421 10194 20123 40188 56040 70200 82170 22234 20404 336// 40605 80151
AAXX 03004 13601 12660 32702 10100 20094 30127 40229 54004 60001 83500 333 83640
BBXX 9V8072 03003 99389 10259 41/// /0000 10120 20079 40243 50/// 7//22 8//// 22233 06170 2//// 80100
AAXX 03001 06414 36/// /2006 10066 20037 30089 40122 58024 60001 333 91110 91207
AAXX 03001 06459 36/// /2006 10055 20047 39959 40154 58013 60001 333 91109 91206
AAXX 03001 06494 36/// /2105 10006 20002 39354 40167 58011 60001 333 91109 91205
BBXX V7OX3 03004 99359 30052 41/98 /1207 10120 20056 40300 54000 70211 8//// 22264 04180 2//03 323// 4//04 5//// 80090
AAXX 03001 13160 31/92 90000 10008 20006 30098 40210 51001 74541
AAXX 03001 13262 32998 32502 10084 20034 30065 40215 58006 83030
AAXX 03001 13272 31830 60000 10048 20025 30091 40213 58002 71022 86030 333 86357
AAXX 03001 13285 32697 80902 10047 20012 30122 40227 58002 885//
AAXX 03001 13289 32998 02806 10079 20004 39020 48526 58003
AAXX 03001 13376 31/92 90000 11024 21029 39977 40252 58003 74344
AAXX 03001 13388 31993 00000 11012 21021 39999 40258 51002 74644
AAXX 03001 13462 32960 00401 10038 20026 30214 40255 58002
AAXX 03001 13473 NIL
AAXX 03001 13489 31994 00500 11019 21033 39738 40282 52003 71000
AAXX 03004 48358 31956 20000 10130 20119 39959 40142 52005 71000 80001 333 20120 59021
AAXX 03004 17042 11670 81207 10062 20022 30246 40287 52004 60071 72166 8552/ 333 85635 88460 92438
AAXX 03004 17074 12570 32102 11062 21083 39317 40283 52003 60001 83500 333 83630 91105
AAXX 03004 17086 12970 00805 11037 21068 39541 40280 52006 60001
AAXX 03004 17088 12970 00702 11026 21069 38850 48541 52003 60001
AAXX 03004 17140 NIL
AAXX 03004 17155 NIL
AAXX 03004 17203 12970 00000 11061 21105 38935 48574 53002 60001
AAXX 03004 17237 12970 02403 10045 21071 39737 40246 55000 60001 333 91104
AAXX 03004 17250 NIL
AAXX 03004 17270 12970 03003 10031 21060 39592 40250 54000 60001
AAXX 03004 17295 12960 00504 10049 20012 30223 40230 52006 60001
AAXX 03004 17320 NIL
AAXX 03004 17375 12970 03601 10095 20022 30229 40231 52008 60001 333 91105 92408
AAXX 03004 17500 NIL
AAXX 03004 17501 12560 11807 10134 20060 30208 40227 52003 60001 81100 333 81830 92427
AAXX 03004 17505 12560 10807 10117 20049 30123 40238 51001 60001 81100 333 81830
AAXX 03004 17507 NIL
AAXX 03004 17510 12960 01804 10134 20072 30195 40205 54000 60001 333 92417
AAXX 03004 17515 11558 10000 10049 20003 30073 40255 52002 60001 71000 81100 333 81830
AAXX 03004 17521 NIL
AAXX 03004 17530 12560 12804 10041 20015 30182 40242 51002 60001 81100 333 81830
AAXX 03004 17535 12560 13604 10079 20045 30178 40215 52003 60001 81100 333 81830
AAXX 03004 17540 NIL
AAXX 03004 17547 NIL
AAXX 03004 17550 12560 11005 10118 20046 30080 40228 52002 60001 81100 333 81830 92437
AAXX 03004 17572 12960 0//// 10130 20072 30215 40240 53003 60001 333 92417
AAXX 03004 08055 NIL
AAXX 03004 08075 NIL
AAXX 03004 08084 02460 62707 10080 20049 39823 40262 51010 60001 86800 333 60007
AAXX 03004 08184 02760 43502 10100 20052 30043 40200 51015 60001 84050 333 60007
AAXX 03004 08202 02970 30402 10017 21006 39333 42866 50007 60001 80005 333 60007
AAXX 03004 08235 NIL
AAXX 03004 08238 NIL
AAXX 03004 08280 11570 83304 10057 20042 39373 40208 52009 69951 70262 886//
AAXX 03004 08330 NIL
AAXX 03004 08348 NIL
AAXX 03004 08360 01665 82903 10108 20086 30136 40173 51010 60031 70262 8457/ 333 69937
AAXX 03004 08373 07156 50309 10148 20121 30154 40175 51009 60021 75152 83220 333 69907
AAXX 03004 08410 06/// /2701 10105 20104 30113 40225 51007 60001 333 60007
AAXX 03004 08419 07/80 /2607 10046 20029 39537 40223 52006 60001 70066 333 60007
AAXX 03004 08451 02975 03401 10076 20057 30196 40230 50004 60001 333 60007
AAXX 03004 08487 06/// /3510 10123 20008 30146 40172 50004 60001 333 60007
AAXX 03004 91203 11474 80910 10289 20269 30100 40105 51010 69954 70282 82276 333 56299 70005 58005 82818 87080 555 90300 91317 12474 60505 10278 20263 30106 40110 5//// 60014 82171 333 56199 70023 59013 82815 83365 555 90300
AAXX 03004 71350 16/// /0000 10002 21024 30206 40273 51011 60001 333 10039 21004 70000
AAXX 03004 71351 NIL
AAXX 03004 71352 16/// /2602 11019 21028 39864 40331 53019 60001 333 10022 21019 70006
AAXX 03004 71353 NIL
AAXX 03004 71354 NIL
AAXX 03004 71355 NIL
AAXX 03004 71356 16/// /3413 11275 21303 30051 40121 53010 60001 333 11264 21284 70000
AAXX 03004 71357 NIL
AAXX 03004 71358 16/// /2604 11202 21234 39976 40011 51012 60001 333 11162 21202 70000
AAXX 03004 71359 NIL
AAXX 03004 71360 NIL
AAXX 03004 71361 NIL
AAXX 03004 71362 NIL
AAXX 03004 71363 NIL
AAXX 03004 71364 NIL
AAXX 03004 71365 NIL
AAXX 03004 71368 15966 02502 11035 21043 39934 40335 53020 60001 333 10038 21035 70008
AAXX 03004 71369 15966 02813 11031 21083 39493 40207 52001 60001 333 10015 21037 70000
AAXX 03004 71370 46/// /3507 11014 21051 30153 40293 51041 6///1 333 11001 21029 7////
AAXX 03004 71371 15566 83407 10011 21022 30265 40300 51040 60001 333 10033 21018 70000
AAXX 03004 71372 NIL
AAXX 03004 71373 NIL
AAXX 03004 71374 NIL
AAXX 03004 71375 NIL
AAXX 03004 71376 16/// /3102 11046 21065 30019 40322 53039 60001 333 10004 21047 70040
AAXX 03004 71377 16/// /2908 11004 21041 30254 40303 51040 60001 333 10037 21007 70006
AAXX 03004 71378 16/// /3606 11046 21084 30097 40312 51041 60001 333 11011 21053 70020 555 10030
AAXX 03004 71379 NIL
AAXX 03004 71380 NIL
AAXX 03004 71381 NIL
AAXX 03004 71382 NIL
AAXX 03004 71383 NIL
AAXX 03004 71384 NIL
AAXX 03004 71385 NIL
AAXX 03004 71386 NIL
AAXX 03004 71387 NIL
AAXX 03004 71388 NIL
AAXX 03004 71389 NIL
AAXX 03004 71390 46/// /3108 11056 6///1 333 11047 21078 7////
AAXX 03004 71391 16/// ///// 11037 21076 60001 333 11002 21037 70056
AAXX 03004 71392 17/// /2202 11022 21027 60021 7//4/ 333 11011 21031 70044
AAXX 03004 71393 NIL
AAXX 03004 71395 12974 62003 11015 21021 30098 40281 51017 60001 80004 333 10037 21018 79999
AAXX 03004 71398 15966 01911 11084 21126 30218 40230 56013 60001 333 11077 21198 70000
AAXX 03004 71399 NIL
AAXX 03004 71001 NIL
AAXX 03004 71002 NIL
AAXX 03004 71003 NIL
AAXX 03004 71005 16/// ///// 11058 21104 60001 333 10013 21058 70000
AAXX 03004 71006 NIL
AAXX 03004 71007 NIL
AAXX 03004 71008 NIL
AAXX 03004 71009 NIL
AAXX 03004 71010 NIL
AAXX 03004 71011 NIL
AAXX 03004 71012 NIL
AAXX 03004 71013 NIL
AAXX 03004 71014 NIL
AAXX 03004 71015 NIL
AAXX 03004 71016 NIL
AAXX 03004 71017 NIL
AAXX 03004 71018 NIL
AAXX 03004 71019 NIL
AAXX 03004 71020 NIL
AAXX 03004 71021 NIL
AAXX 03004 71022 17440 81307 10040 20033 30311 40356 55004 60011 7614/ 333 10055 20019 70031
AAXX 03004 71023 17564 33312 11078 21121 39389 40168 51046 60001 745// 333 10003 21080 70005
AAXX 03004 71024 16/// /0000 11143 21145 60001 333 11075 21145 70007
AAXX 03004 71026 NIL
AAXX 03004 71027 16/// /2303 11019 21031 30266 40276 51015 60001 333 10044 21021 70000
AAXX 03004 71028 16/// /1901 11014 21050 39277 40347 56009 60001 333 11006 21096 70000
AAXX 03004 71029 16/// /0504 11286 21316 30104 40145 51007 60001 333 11262 21307 70000
AAXX 03004 71030 16/64 /0310 11029 21039 30179 40271 51012 60001 333 10044 21029 70000
AAXX 03004 71032 46/// /3001 11009 21069 39460 40318 55002 6///1 333 10046 21097 7////
AAXX 03004 71033 46/// /3309 11151 21170 39480 40120 53048 6///1 333 11030 21152 7//// 555 10050
AAXX 03004 71035 NIL
AAXX 03004 71036 15766 62610 10017 21028 39653 40024 52026 60001 333 10031 21011 70000
AAXX 03004 71039 NIL
AAXX 03004 71040 46/// /2810 11058 21082 30094 40300 51033 6///1 333 11030 21080 7////
AAXX 03004 71041 15966 10103 11010 21031 30134 40279 53012 60001 333 10040 21018 70000
AAXX 03004 71042 16/// /2502 10043 20007 30327 40331 52006 60001 333 10079 21011 70000
AAXX 03004 71044 16/// /0703 11165 21185 39790 40117 50001 60001 333 11157 21217 70000
AAXX 03004 71046 460// /2614 11197 30123 40141 51021 6///1 333 11197 21270 7////
AAXX 03004 71047 16/// ///// 11056 21103 60001 333 10008 21057 70000
AAXX 03004 71048 NIL
AAXX 03004 71049 NIL
AAXX 03004 71060 NIL
AAXX 03004 71063 NIL
AAXX 03004 71816 11574 82710 11100 21154 30200 40264 53017 69901 78582 885// 333 11082 21100 43014 79999 90927
AAXX 03004 71817 NIL
AAXX 03004 71818 12574 72910 11082 21119 30223 40242 52019 60001 82508 333 11049 21097 70000
AAXX 03004 71822 12974 01802 11200 21239 39828 40334 52025 60001 333 11110 21206 79999
AAXX 03004 71825 11574 32605 11181 21226 39579 40284 51018 69901 70277 83500 333 11141 21190 47058 70002 90953
AAXX 03004 71827 NIL
AAXX 03004 71828 16564 62507 11162 21208 39584 40250 51017 60001 333 11135 21162 70000
AAXX 03004 71831 12674 61710 11063 21099 39962 40255 58009 60001 85501 333 11063 21201 70000
AAXX 03004 71832 NIL
AAXX 03004 71834 12574 62118 11029 21068 39735 40176 50001 60001 86500 333 11018 21213 79999
AAXX 03004 71841 NIL
AAXX 03004 71842 12974 82013 11018 21087 39617 40091 56008 60001 88070 333 11017 21093 79999
AAXX 03004 71844 17311 91915 11028 21035 39734 40014 56009 60021 74544 333 11026 21166 70025
AAXX 03004 71845 11574 81811 11023 21091 39591 40070 58012 69901 73677 8257/ 333 11022 21177 43012 79999 90942
AAXX 03004 71850 12974 32013 11002 21068 39563 40063 50008 60001 84070 333 10001 21072 44004 79999
AAXX 03004 71852 16564 81914 10011 21037 39746 40039 53011 60001 333 10014 21047 70000
AAXX 03004 71854 12974 62113 11005 21086 39566 40039 56003 60001 86070 333 11001 21089 79999
AAXX 03004 71858 16/// /2606 10018 21015 39693 49970 53015 60001 333 10020 21041 70003
AAXX 03004 71861 NIL
AAXX 03004 71862 12574 52814 11014 21048 39393 40097 51022 60001 81571 333 10042 21034 70000
AAXX 03004 71863 46564 82816 10000 21024 39379 40076 53016 6///1 333 10016 21010 7////
AAXX 03004 71150 46/// /2610 11007 21035 39363 40041 51028 6///1 333 10013 21057 7////
AAXX 03004 71151 NIL
AAXX 03004 71152 16/// /3603 10008 21023 30246 40259 53016 60001 333 10065 20008 70000
AAXX 03004 71153 16/// /3503 11009 21095 60001 333 10019 21024 70000
AAXX 03004 71154 16/// /0304 11007 21114 60001 333 10022 21028 70000
AAXX 03004 71155 NIL
AAXX 03004 71156 NIL
AAXX 03004 71157 NIL
AAXX 03004 71158 NIL
AAXX 03004 71159 NIL
AAXX 03004 71160 NIL
AAXX 03004 71161 NIL
AAXX 03004 71162 NIL
AAXX 03004 71163 46/// /1001 11147 21159 39796 40149 56006 6///1 333 11145 21211 7////
AAXX 03004 71164 NIL
AAXX 03004 71165 NIL
AAXX 03004 71166 NIL
AAXX 03004 71167 15866 33305 11026 21076 39119 40233 54000 60001 333 10004 21036 70000
AAXX 03004 71168 16/// /0000 11025 21129 39576 40186 56019 60001 333 10010 21149 70000
AAXX 03004 71170 16/// /2712 10010 21022 60001 333 10026 21037 70000
AAXX 03004 71171 16/// /0404 10023 21015 30227 40326 51027 60001 333 10050 20019 70013
AAXX 03004 71172 17/// ///// 11056 21071 30099 40323 51014 69931 7//4/ 333 11014 21057 70020
AAXX 03004 71175 NIL
AAXX 03004 71176 460// /2535 11095 39379 40066 51021 6///1 333 11083 21101 7////
AAXX 03004 71177 460// /3507 11134 39113 40142 51019 6///1 333 11114 21158 7////
AAXX 03004 71178 16/// /0106 10012 21031 30220 40252 51012 60001 333 10022 20008 70048
AAXX 03004 71179 460// /2018 11168 39354 40212 53019 6///1 333 11141 21168 7////
AAXX 03004 71180 46/// /0307 11008 21043 30234 40274 50012 6///1 333 10026 21021 7////
AAXX 03004 71181 17564 80000 10020 21002 30200 40237 60001 743// 333 10050 20017 70065
AAXX 03004 71183 16/// /3009 30260 51040 60001 333 70000
AAXX 03004 71184 46/// /3409 10012 21023 6///1 333 10027 21009 7////
AAXX 03004 71186 NIL
AAXX 03004 71187 15561 61601 10006 20006 30279 40328 53001 60001 333 10046 21001 70000
AAXX 03004 71189 NIL
AAXX 03004 71190 NIL
AAXX 03004 71191 16/// ///// 10012 21021 60001 333 10032 21033 70000
AAXX 03004 71192 17558 80304 11005 21027 39637 40316 55005 60001 771// 333 11003 21110 70000
AAXX 03004 71193 16/// /1808 11103 21161 39909 40292 56004 60001 333 11078 21231 70004
AAXX 03004 71196 16/// /3002 11054 21072 30135 40340 53032 60001 333 11020 21055 70003
AAXX 03004 71197 16964 00304 11017 21046 30223 40273 51016 60001 333 10033 21026 70000
AAXX 03004 71198 46/// /3415 10005 21045 6///1 333 10017 21004 7////
AAXX 03004 71199 46/// /0802 11034 21049 39337 40184 56013 6///1 333 11017 21117 7////
AAXX 03004 71854 12974 62113 11005 21086 39566 40039 50003 60001 86070 333 11001 21089 79999
AAXX 03004 71700 15966 81902 11009 21033 30253 40280 51015 60001 333 10015 21075 70000
AAXX 03004 71701 12874 80000 11010 21043 30216 40280 51016 60001 8807/ 333 10013 21071 70000
AAXX 03004 71702 16/// /3603 11002 21032 30257 40272 53011 60001 333 10032 21011 70000
AAXX 03004 71703 NIL
AAXX 03004 71704 15966 01503 11024 21043 30114 40343 53016 60001 333 10009 21026 70010
AAXX 03004 71710 16/// /2304 10004 21041 30264 40274 52011 60001 333 10018 21005 70000
AAXX 03004 71712 17/// /3108 11003 21041 30253 40315 51042 60011 7//4/ 333 10047 21013 70012
AAXX 03004 71713 17/// /0409 11017 21025 60031 7//4/ 333 11005 21023 70026
AAXX 03004 71716 NIL
AAXX 03004 71717 NIL
AAXX 03004 71720 16/// /3402 10045 20006 30176 40333 55003 60001 333 10066 21018 70000
AAXX 03004 71721 16/// /3302 11055 21085 30078 40332 51036 60001 333 11009 21055 70050
AAXX 03004 71723 17/// /3606 11001 21034 30287 40297 52041 60011 7//4/ 333 10009 21016 70031
AAXX 03004 71724 NIL
AAXX 03004 71732 16/// /1601 11094 21100 60001 333 11052 21095 70024
AAXX 03004 71733 16/// /1606 11122 21153 39877 40331 53011 60001 333 11065 21126 70000
AAXX 03004 71734 NIL
AAXX 03004 71736 NIL
AAXX 03004 71737 NIL
AAXX 03004 71741 16/// /3301 10028 21076 39879 40310 55001 60001 333 10070 21064 70000
AAXX 03004 71742 NIL
AAXX 03004 71743 NIL
AAXX 03004 71744 NIL
AAXX 03004 71745 NIL
AAXX 03004 71746 NIL
AAXX 03004 71747 NIL
AAXX 03004 71748 NIL
AAXX 03004 71397 12874 60000 11002 21020 30246 40281 51016 60001 86030 333 10060 21022 70000
AAXX 03004 71400 16/64 /3101 11022 21028 60001 333 10024 21030 70000
AAXX 03004 71403 46/// /3008 10030 21003 30255 40275 53012 6///1 333 10061 20014 7////
AAXX 03004 71411 16/// /2704 10016 20006 30264 40277 51013 60001 333 10062 21011 70000
AAXX 03004 71412 16/// /2703 10009 21021 30265 40275 53013 60001 333 10031 20000 70000
AAXX 03004 71421 NIL
AAXX 03004 71430 16/// /0206 11020 21029 30235 40334 51041 60001 333 10059 21020 70019
AAXX 03004 71431 16/// /3203 10001 21047 30235 40333 51040 60001 333 10040 21008 70003
AAXX 03004 71432 16/// /0106 10036 21015 30234 40333 51030 60001 333 10053 20026 70009
AAXX 03004 71433 NIL
AAXX 03004 71435 NIL
AAXX 03004 71441 46/// /2013 10007 21057 39746 40054 53013 6///1 333 10030 21043 7////
AAXX 03004 71443 NIL
AAXX 03004 71444 NIL
AAXX 03004 71447 16/// /2710 10011 21030 39527 40072 51027 60001 333 10048 21059 70000
AAXX 03004 71467 16/// /1307 11260 21284 30027 40148 58003 60001 333 11248 21340 70000
AAXX 03004 71472 NIL
AAXX 03004 71474 16764 33502 11017 21104 39046 40308 55001 60001 333 10014 21028 70000
AAXX 03004 71510 17/// /3317 11043 21089 39411 40120 51054 69961 7//4/ 333 10031 21043 70012
AAXX 03004 71538 12574 21305 10005 21019 30102 40339 51015 60001 82500 333 10047 20005 70004
AAXX 03004 71600 16564 60405 10044 21004 30264 40270 53011 60001 333 10070 20022 70005
AAXX 03004 71601 NIL
AAXX 03004 71950 15766 63102 11020 21027 39651 40299 56010 60001 333 11007 21070 70000
AAXX 03004 71952 16/// /3201 11053 21065 39420 40304 56013 60001 333 11029 21170 70000
AAXX 03004 71954 46/// /3517 11082 21112 39648 40025 51079 6///1 333 10025 21082 7////
AAXX 03004 71956 NIL
AAXX 03004 71959 NIL
AAXX 03004 71960 460// /2410 11165 39979 40115 53004 6///1 333 11164 21236 7////
AAXX 03004 71962 16/// /2011 11010 21094 39684 40111 55002 60001 333 11002 21101 70000
AAXX 03004 71963 NIL
AAXX 03004 71967 17/// /3406 10003 20003 30198 40306 51039 60021 7//4/ 333 10036 21021 70027
AAXX 03004 71970 NIL
AAXX 03004 71971 16/// /0101 11260 21303 39969 40016 51010 60001 333 11229 21268 70000
AAXX 03004 71972 460// /2426 11091 39590 40055 51030 6///1 333 11072 21111 7////
AAXX 03004 71973 46/// /0201 11027 21049 30076 40268 51013 6///1 333 10009 21027 7////
AAXX 03004 71974 NIL
AAXX 03004 71975 460// /2612 11135 39271 49999 53018 6///1 333 11114 21135 7////
AAXX 03004 71976 NIL
AAXX 03004 71977 NIL
AAXX 03004 71978 NIL
AAXX 03004 71979 NIL
AAXX 03004 71980 NIL
AAXX 03004 71981 NIL
AAXX 03004 71982 NIL
AAXX 03004 71983 NIL
AAXX 03004 71984 NIL
AAXX 03004 71985 NIL
AAXX 03004 71986 NIL
AAXX 03004 71987 16/// /1905 11013 21052 30262 40272 53010 60001 333 10010 21017 70000
AAXX 03004 71988 NIL
AAXX 03004 71989 NIL
AAXX 03004 71990 NIL
AAXX 03004 71999 46/// ///// 11011 6///1 333 10036 21045 7////
AAXX 03004 71893 12780 23409 10066 20015 30299 40331 55005 60001 81501 333 10076 20012 79999
AAXX 03004 71894 NIL
AAXX 03004 71896 15766 81807 11004 21044 39446 40294 58007 60001 333 10002 21030 70000
AAXX 03004 71897 12474 63605 10058 20043 3//// 4//// 57006 60001 86871 333 10078 20055 70002
AAXX 03004 71898 160// ///// 10041 55003 69951 333 10057 20021 70015
AAXX 03004 71899 11469 82618 10070 20058 3//// 4//// 56003 69921 76122 8112/ 333 10074 20054 70004 90910
AAXX 03004 71902 12974 12716 11094 21165 30197 40206 51019 60001 81040 333 11076 21102 70000
AAXX 03004 71905 NIL
AAXX 03004 71906 11774 62412 11104 21145 30126 40177 53020 69901 70377 85530 333 11083 21105 48007 79999 90941
AAXX 03004 71907 16564 82413 11053 21108 30100 40133 53008 60001 333 11049 21071 70005
AAXX 03004 71909 16564 83004 11143 21170 30017 40061 51024 60001 333 11121 21167 70000
AAXX 03004 71910 46964 00707 11117 21139 39993 40056 51009 6///1 333 11107 21131 7////
AAXX 03004 71911 46964 02406 11287 30018 40076 53005 6///1 333 11241 21287 7////
AAXX 03004 71912 11348 80604 11064 21070 39764 49948 53001 60011 77177 886// 333 11059 21188 47018 70042 90983 93101
AAXX 03004 71915 11574 73106 11179 21187 39967 40049 52013 69901 77177 87500 333 11127 21194 48050 70012 90973
AAXX 03004 71917 11974 01405 11339 21391 30059 40074 52007 69901 70177 333 11315 21342 47013 79999 90963
AAXX 03004 71922 11459 73216 11088 21117 39631 40099 52072 60011 77177 87500 333 10025 21090 47024 70010 90973 93101
AAXX 03004 71924 11974 13508 11310 21354 39958 40051 52008 69901 70171 80001 333 11262 21318 48037 79999 90940
AAXX 03004 71925 11474 23211 11304 21351 30080 40123 51005 69901 77677 82500 333 11291 21311 48017 79999 90983
AAXX 03004 71926 12580 43314 11270 21327 30092 40117 51010 60001 81501 333 11255 21282 79999
AAXX 03004 71928 16/// /3114 11012 21082 39047 40226 51014 60001 333 11002 21017 70000
AAXX 03004 71114 16561 60000 10006 20000 30279 40328 53001 60001 333 10046 21002 70005
AAXX 03004 71120 11574 23216 11063 21122 39513 40179 52040 69901 70181 82500 333 10013 21063 42003 70004 90956
AAXX 03004 71122 16/// /2603 11030 21143 38607 40235 53015 60001 333 10000 21050 70000
AAXX 03004 71123 12674 13108 11041 21096 39340 40220 53021 60001 81500 333 10013 21046 79999
AAXX 03004 71125 11569 83317 11061 21102 39557 40148 52052 69921 78572 882// 333 46997 70002 90937 93101
AAXX 03004 71129 11372 63320 11053 21101 39315 40154 52046 69901 77132 86500 333 10010 21053 42001 79999 90917
AAXX 03004 71131 16/// /3126 11047 21050 38882 40149 53019 60001 333 11004 21047 70007
AAXX 03004 71135 16/// /3117 11028 21060 39028 40118 51012 60001 333 11002 21036 70012
AAXX 03004 71137 16/// /3014 11030 21048 39193 40144 53019 60001 333 10014 21038 70020
AAXX 03004 71140 12974 42712 10008 21015 39555 40056 52024 60001 81071 333 10026 21044 70000
AAXX 03004 71145 11316 82008 11025 21025 39681 49973 50000 60031 77122 885// 333 11019 21118 48025 70034 90962 93103
AAXX 03004 71148 16/// /2706 10017 21022 39481 40060 51019 60001 333 10028 21059 70000
AAXX 03004 71182 16564 82605 11151 21200 39708 40272 51022 60001 333 11125 21152 70000
AAXX 03004 71185 16564 6//// 11014 30235 40259 51015 60001 333 11005 21061 70000
AAXX 03004 71188 12974 82803 11021 21059 30236 40280 52018 60001 8801/ 333 11005 21077 70000
AAXX 03004 71200 16/// /0304 10049 20009 60001 333 10074 20028 70000
AAXX 03004 71207 16/// /0301 10003 21003 30255 40321 56009 60001 333 10052 21019 70000
AAXX 03004 71260 13/// ///// 11024 21061 30052 40296 53001 60001 333 10000 21071 79999
AAXX 03004 71665 16/// /2816 11098 21154 30190 40200 51019 60001 333 11082 21103 70000
AAXX 03004 71666 16/// /1403 11006 21036 30229 40275 51014 60001 333 10018 21046 70000
AAXX 03004 71667 NIL
AAXX 03004 71668 16/// /1602 11006 21036 30232 40277 51016 60001 333 10016 21051 70000
AAXX 03004 71669 NIL
AAXX 03004 71670 16/// ///// 11012 21043 60001 333 10014 21060 70000
AAXX 03004 71671 NIL
AAXX 03004 71672 16/// /3301 11027 21066 30064 40336 51033 60001 333 10032 21027 70000
AAXX 03004 71673 NIL
AAXX 03004 71674 NIL
AAXX 03004 71675 17320 82015 11029 21035 39732 40013 56010 60041 77144 333 11027 21165 70214
AAXX 03004 71679 16/// /0203 10013 21030 39258 40288 56010 60001 333 10023 21013 70000
AAXX 03004 71680 NIL
AAXX 03004 71681 46/// /1804 10030 21040 6///1 333 10066 21062 7////
AAXX 03004 71682 NIL
AAXX 03004 71683 NIL
AAXX 03004 71684 15966 01506 11110 21144 30008 40325 53008 60001 333 11064 21148 70000
AAXX 03004 71685 15866 60309 10024 21043 39749 40298 53008 60001 333 10030 21023 70008
AAXX 03004 71686 NIL
AAXX 03004 71687 16/// /0000 11021 21043 39517 40319 53001 60001 333 10021 21051 70000
AAXX 03004 71688 16/// /0801 11031 21036 39248 40309 55002 60001 333 10013 21080 70000
AAXX 03004 71689 15966 02910 11086 21131 39729 40191 53024 60001 333 10018 21087 70000
AAXX 03004 71690 NIL
AAXX 03004 71691 15666 80203 11051 21078 30268 40296 51022 60001 333 11047 21103 70000
AAXX 03004 71692 NIL
AAXX 03004 71694 16/// /0000 11073 21078 39968 40344 51017 60001 333 11011 21074 70038
AAXX 03004 71695 16/// /3317 11030 21046 39661 49992 53046 60001 333 10028 21045 70000
AAXX 03004 71696 17/// /1004 11075 21083 39949 49986 55002 60021 7//4/ 333 11053 21251 70024
AAXX 03004 71697 15966 00301 11014 21024 30161 40337 51030 60001 333 10030 21015 70005
AAXX 03004 71699 16/// /3503 11006 21034 30270 40278 52014 60001 333 10041 21048 70000
AAXX 03004 71201 16/// ///// 10054 20004 60001 333 10078 20023 70002
AAXX 03004 71202 16/// ///// 11041 21103 60001 333 10011 21041 70000
AAXX 03004 71203 15966 03406 10010 21071 39768 40302 53003 60001 333 10067 21052 70000
AAXX 03004 71209 46/// /3304 10059 6///1 333 10060 20036 7////
AAXX 03004 71211 17/// /3302 10041 20003 30310 40322 55005 69941 7//4/ 333 10049 20027 70012
AAXX 03004 71212 16/// /3404 11051 21074 39445 40270 52033 60001 333 11032 21090 70034 555 10040
AAXX 03004 71213 46/// /1605 11112 21140 30005 40321 53009 6///1 333 11057 21146 7////
AAXX 03004 71214 NIL
AAXX 03004 71215 46/// /2904 10060 21086 39937 40289 53010 6///1 333 10083 21057 7////
AAXX 03004 71216 16/// /3102 10032 21042 39658 40283 53012 60001 333 10067 21008 70000
AAXX 03004 71217 NIL
AAXX 03004 71218 16/// /2101 10013 21052 39866 40301 53008 60001 333 10070 21046 70000
AAXX 03004 71219 46/// /1212 10044 20030 30346 40352 55002 6///1 333 10072 20040 7////
AAXX 03004 71220 46/// /1320 10040 20033 6///1 333 10067 20036 7////
AAXX 03004 71221 NIL
AAXX 03004 71222 17/// /2602 11024 21030 39255 40236 56014 60011 7//4/ 333 11020 21090 70052 555 10110
AAXX 03004 71223 NIL
AAXX 03004 71224 NIL
AAXX 03004 71225 NIL
AAXX 03004 71226 NIL
AAXX 03004 71227 NIL
AAXX 03004 71228 NIL
AAXX 03004 71229 NIL
AAXX 03004 71230 16/// /2410 11013 21084 39313 40215 58010 60001 333 10020 21019 70000
AAXX 03004 71231 16/// /3215 11018 21068 60001 333 10020 21050 70007
AAXX 03004 71232 16/// /2606 11017 21162 38698 40215 51018 60001 333 10011 21022 70000
AAXX 03004 71233 16/// /2905 11027 21088 60001 333 10008 21027 70000
AAXX 03004 71234 16/// /2808 11041 21113 39025 40236 52023 60001 333 10041 21076 70000
AAXX 03004 71235 16/// /3515 11028 21094 60001 333 10008 21035 70000
AAXX 03004 71236 46/// /2905 11031 21140 6///1 333 10017 21038 7////
AAXX 03004 71237 46/// /3308 11011 21072 39378 40203 53024 6///1 333 10031 21012 7////
AAXX 03004 71238 16/// /3106 11042 21104 60001 333 10005 21042 70000
AAXX 03004 71239 NIL
AAXX 03004 71240 16/// /0000 11039 21093 39317 40174 51047 60001 333 10009 21039 70000
AAXX 03004 71241 NIL
AAXX 03004 71242 16/// /3208 11028 21082 60001 333 10001 21029 70000
AAXX 03004 71243 NIL
AAXX 03004 71244 16/// /3315 11024 21084 38974 40220 53025 60001 333 10022 21057 70003
AAXX 03004 71245 46/// /2712 11110 21192 6///1 333 11085 21119 7////
AAXX 03004 71246 NIL
AAXX 03004 71247 15666 83112 11015 21058 39337 40202 53037 60001 333 10022 21016 70000
AAXX 03004 71248 17/// /3110 11020 21096 38903 40221 51014 69981 7//4/ 333 10007 21021 70008
AAXX 03004 71249 NIL
AAXX 03004 71900 46/// /25// 11097 21141 30204 40217 51014 6///1 333 11069 21101 7////
AAXX 03004 71903 NIL
AAXX 03004 71904 NIL
AAXX 03004 71914 16/// /0000 10030 20002 30101 40327 56007 60001 333 10045 20021 70000
AAXX 03004 71916 NIL
AAXX 03004 71918 460// ///// 11278 6///1 333 7////
AAXX 03004 71920 NIL
AAXX 03004 71921 NIL
AAXX 03004 71923 NIL
AAXX 03004 71927 16/// /0301 10059 20014 30268 40327 55000 60001 333 10080 21019 70000
AAXX 03004 71941 15966 01703 11148 21172 39888 40327 50011 60001 333 11084 21159 70000
AAXX 03004 71947 15966 01905 11141 21190 39948 40316 52010 60001 333 11095 21228 70000
AAXX 03004 71812 46348 83615 11190 21221 30076 40090 53011 6///1 333 11155 21254 7////
AAXX 03004 71819 15566 83012 11050 21086 30209 40252 53016 60001 333 11024 21082 70000
AAXX 03004 71820 17/// /0105 11005 21039 30217 40334 51041 69941 7//4/ 333 10049 21005 70031
AAXX 03004 71823 16564 82112 11127 21154 39877 40274 51018 60001 333 11127 21148 70000
AAXX 03004 71824 NIL
AAXX 03004 71826 16/// /2006 11120 21155 39963 40005 52022 60001 333 11101 21125 70003
AAXX 03004 71829 16/// /2806 11074 21095 30122 40289 51019 60001 333 11057 7////
AAXX 03004 71833 NIL
AAXX 03004 71835 16/// /1914 11023 21087 39581 40064 58013 60001 333 11023 21177 70000
AAXX 03004 71837 NIL
AAXX 03004 71839 NIL
AAXX 03004 71840 NIL
AAXX 03004 71846 16/// /2013 11022 21085 39766 40085 56011 60001 333 11022 21199 70000
AAXX 03004 71847 NIL
AAXX 03004 71848 NIL
AAXX 03004 71849 16/// /1913 10010 21037 39745 40040 53010 60001 333 10012 21048 70000
AAXX 03004 71550 NIL
AAXX 03004 71551 NIL
AAXX 03004 71552 46/// /2117 10006 21044 6///1 333 10006 21047 7////
AAXX 03004 71553 17/// /2714 10000 21028 69961 7//4/ 333 10010 21045 70027
AAXX 03004 71554 NIL
AAXX 03004 71555 16/// /3408 11028 21113 38645 40233 53023 60001 333 10017 21041 70000
AAXX 03004 71556 NIL
AAXX 03004 71557 46/// /2401 10020 21082 6///1 333 10064 21069 7////
AAXX 03004 71558 46/// ///// 11051 21088 30206 40243 53016 6///1 333 11022 21081 7////
AAXX 03004 71559 47/// /2713 11011 21044 39390 40093 51022 6///1 7//4/ 333 10043 21033 7////
AAXX 03004 71560 16/// /1914 10005 21051 39756 40055 52012 60001 333 10016 21056 70000
AAXX 03004 71563 NIL
AAXX 03004 71564 NIL
AAXX 03004 71565 NIL
AAXX 03004 71566 NIL
AAXX 03004 71567 NIL
AAXX 03004 71568 16/// /3030 10073 20029 30317 40330 58006 60001 333 10076 20049 70030
AAXX 03004 71569 16/// /2716 10000 21018 39368 40067 51014 60001 333 10010 21009 70000
AAXX 03004 71570 16/// /2009 10002 21072 39729 40040 53004 60001 333 10004 21058 70000
AAXX 03004 71571 NIL
AAXX 03004 71572 NIL
AAXX 03004 71573 16/// /2501 11019 21034 30041 40331 53020 60001 333 10035 21021 70011
AAXX 03004 71574 11548 80000 11019 21030 30208 40283 52019 69901 77122 885// 333 10004 21072 47997 79999 90921
AAXX 03004 71575 NIL
AAXX 03004 71576 16/// /1804 11229 21256 39926 40013 51009 60001 333 11223 21246 70000
AAXX 03004 71577 NIL
AAXX 03004 71578 17/// /3202 11018 21027 60021 7//4/ 333 11008 21029 70046
AAXX 03004 71579 NIL
AAXX 03004 71580 11874 63114 11267 21308 30028 40065 52005 69901 77672 86030 333 11232 21312 48034 70006 90931
AAXX 03004 71581 NIL
AAXX 03004 71582 15664 60501 10043 30314 58009 60001 333 10050 21007 70008
AAXX 03004 71583 NIL
AAXX 03004 71584 15966 03104 11059 21094 30224 40273 53018 60001 333 11029 21111 70000
AAXX 03004 71585 16/// /3010 11085 21127 39721 40184 53024 60001 333 10018 21088 7////
AAXX 03004 71586 16/// /3310 11089 21119 39629 40097 51073 60001 333 10023 21090 70000
AAXX 03004 71587 NIL
AAXX 03004 71588 16/// /2902 11017 21058 60001 333 11003 21050 70000
AAXX 03004 71589 16/// /1902 11006 21027 30117 40252 53008 60001 333 10018 21007 70012
AAXX 03004 71590 17/// /0000 11027 21036 30078 40275 53022 60021 7//4/ 333 11019 21100 70016
AAXX 03004 71592 NIL
AAXX 03004 71593 NIL
AAXX 03004 71596 NIL
AAXX 03004 71598 16/64 /2303 11011 21073 30276 40282 53018 60001 333 10004 21036 70000
AAXX 03004 71599 16/// /0000 11011 21023 30076 40283 51017 60001 333 10057 21020 70000
AAXX 03004 71914 46/// /0000 10030 20002 30101 6///1 333 20021 7////
AAXX 03004 71401 16/// /3112 10035 21105 39582 40279 53013 60001 333 10052 21037 70000
AAXX 03004 71402 NIL
AAXX 03004 71404 NIL
AAXX 03004 71405 NIL
AAXX 03004 71406 NIL
AAXX 03004 71407 NIL
AAXX 03004 71408 NIL
AAXX 03004 71409 NIL
AAXX 03004 71410 15566 82207 10005 21016 39679 49955 52011 60001 333 10006 21046 70003
AAXX 03004 71413 NIL
AAXX 03004 71414 NIL
AAXX 03004 71415 NIL
AAXX 03004 71417 NIL
AAXX 03004 71418 NIL
AAXX 03004 71419 46/// /3510 10028 21016 30266 40276 52015 6///1 333 10049 20026 7////
AAXX 03004 71423 NIL
AAXX 03004 71424 46/// /0311 6///1 333 7////
AAXX 03004 71425 16/// /3009 11028 21071 30252 40289 53018 60001 333 11010 21031 70000
AAXX 03004 71426 NIL
AAXX 03004 71427 NIL
AAXX 03004 71428 NIL
AAXX 03004 71429 NIL
AAXX 03004 71434 NIL
AAXX 03004 71436 15966 03204 11024 21046 30099 40341 51033 60001 333 10027 21027 70005
AAXX 03004 71437 46/// /3203 10031 21037 30232 40329 51023 6///1 333 10048 20018 7////
AAXX 03004 71438 NIL
AAXX 03004 71439 NIL
AAXX 03004 71440 NIL
AAXX 03004 71442 NIL
AAXX 03004 71445 NIL
AAXX 03004 71446 17/// /3228 11039 21050 39141 40125 53027 69931 7//4/ 333 10001 21039 70003
AAXX 03004 71448 NIL
AAXX 03004 71449 NIL
AAXX 03004 71043 12683 61303 11170 21213 30042 40138 52002 60001 85570 333 11160 21188 48017 79999
AAXX 03004 71045 16/// /1905 10005 21029 39310 40177 56010 60001 333 10014 21080 70000
AAXX 03004 71050 46/// /2805 11010 21074 39221 40321 55003 6///1 333 11006 21103 7////
AAXX 03004 71051 NIL
AAXX 03004 71052 NIL
AAXX 03004 71066 NIL
AAXX 03004 71068 12974 32306 11069 21088 39508 40211 57007 60001 82071 333 10012 21072 79999
AAXX 03004 71069 16964 02812 11032 21078 39494 40207 52001 60001 333 10016 21037 70000
AAXX 03004 71076 16/// /3606 11184 21213 39769 40175 53030 60001 333 11115 21184 70063 555 10080
AAXX 03004 71077 16/// /3118 11096 21121 39618 40165 51045 60001 333 10019 21096 70000
AAXX 03004 71079 11358 83514 11048 21063 39676 49954 53030 69941 77177 885// 333 11018 21122 47010 70042 90983 93101
AAXX 03004 71081 46664 33208 11228 21268 30032 40044 52013 6///1 333 11153 21237 7////
AAXX 03004 71082 NIL
AAXX 03004 71083 NIL
AAXX 03004 71090 46564 82605 11203 21245 39978 40013 51013 6///1 333 11163 21203 7////
AAXX 03004 71091 460// /2808 11191 39811 40022 51017 6///1 333 7////
AAXX 03004 71092 46964 02203 11200 39340 40013 53020 6///1 333 11173 21200 7////
AAXX 03004 71093 460// /0404 11182 39505 40008 53015 6///1 333 11176 21191 7////
AAXX 03004 71094 46064 /3003 11180 39058 49962 53017 6///1 333 11168 21184 7////
AAXX 03004 71095 47464 31704 11230 21264 39930 40012 6///1 745// 333 11220 21252 7////
AAXX 03004 71101 160// /2507 30351 55001 60001 333 70000
AAXX 03004 71104 12774 72703 11003 21079 39175 40310 58004 60001 82570 333 10010 21061 70000
AAXX 03004 71108 12583 22305 10058 20009 30253 40327 55002 60001 81101 333 10077 20014 79999
AAXX 03004 71109 12680 62905 10060 20028 30342 40369 58009 60001 84501 333 10076 20035 70036
AAXX 03004 71864 NIL
AAXX 03004 71865 16/// /2810 10002 21026 39370 40046 53020 60001 333 10017 20001 70000
AAXX 03004 71866 46564 63420 11042 21106 39490 40104 53057 6///1 333 10039 21042 7////
AAXX 03004 71867 11432 83419 11029 21039 39663 49995 53045 69901 77122 885// 333 10027 21047 48012 79999 90921
AAXX 03004 71868 NIL
AAXX 03004 71869 NIL
AAXX 03004 71871 17566 63221 11062 21108 39352 40169 51049 60001 771// 333 10001 21063 70000
AAXX 03004 71877 12786 13222 11017 21098 38940 40231 53020 60001 81570 333 10017 21020 70000
AAXX 03004 71878 11574 13110 11021 21077 39139 40229 52021 60001 73611 81570 333 11005 21024 79999
AAXX 03004 71879 16964 03006 11045 21102 39400 40216 51018 60001 333 10015 21049 70005
AAXX 03004 71880 12782 23506 10000 21093 39134 40254 53015 60001 82500 333 10024 21045 70000
AAXX 03004 71882 16764 60308 10025 21051 39750 40298 53007 69951 333 10034 21033 70015
AAXX 03004 71883 46/// /0000 11050 21057 39468 40315 55001 6///1 333 11004 21130 7////
AAXX 03004 71887 12986 20000 10031 21075 39882 40314 55001 60001 82070 333 10069 21065 70000
AAXX 03004 71889 12874 13206 10059 21084 39874 40300 53005 60001 81070 333 10074 21041 70000
AAXX 03004 71891 16964 00203 10007 21053 30042 40324 55002 60001 333 10055 21033 70000
AAXX 03004 71892 12583 22903 10048 20010 30323 40328 55005 60001 81501 333 10066 20005 70000
AAXX 03004 71102 NIL
AAXX 03004 71105 NIL
AAXX 03004 71107 NIL
AAXX 03004 71110 NIL
AAXX 03004 71111 16966 82407 10080 20029 30350 40358 56001 60001 333 10077 20044 70000
AAXX 03004 71112 16/// ///// 60001 333 70000
AAXX 03004 71113 16/// /2903 10050 20010 30295 40319 56006 60001 333 10077 20018 70000
AAXX 03004 71115 16/// /3202 10017 21061 39705 40296 53003 60001 333 10065 21046 70000
AAXX 03004 71116 16/// /3227 11023 21062 39091 40198 53024 60001 333 10022 21023 70000
AAXX 03004 71118 16/// /3317 11051 21102 39350 40187 51041 60001 333 10007 21052 70000
AAXX 03004 71121 16964 03206 11052 21124 39378 40214 51019 60001 333 10011 21052 70000
AAXX 03004 71127 16/// /3108 11027 21079 39290 40212 51014 60001 333 10011 21028 70000
AAXX 03004 71130 17558 82920 11029 21067 39590 40046 53052 60001 771// 333 10030 21029 70000
AAXX 03004 71132 15566 83206 11175 21209 39832 40155 51038 60001 333 11100 21179 70018
AAXX 03004 71133 NIL
AAXX 03004 71134 NIL
AAXX 03004 71139 17/// /3313 11063 21075 38678 40154 53019 60011 7//4/ 333 11027 21063 70080
AAXX 03004 71141 NIL
AAXX 03004 71142 17306 83126 11038 21039 39155 40130 53029 60001 772// 333 10003 21038 70013
AAXX 03004 71143 NIL
AAXX 03004 71144 NIL
AAXX 03004 71147 NIL
AAXX 03004 71149 NIL
AAXX 03004 71500 NIL
AAXX 03004 71501 NIL
AAXX 03004 71502 NIL
AAXX 03004 71503 NIL
AAXX 03004 71504 NIL
AAXX 03004 71505 NIL
AAXX 03004 71506 NIL
AAXX 03004 71507 16/// /2505 11081 21097 60001 333 11029 21112 70000
AAXX 03004 71508 16/// ///// 10016 21013 30197 40338 51027 60001 333 10050 20014 70017
AAXX 03004 71509 NIL
AAXX 03004 71511 16/// /3321 11017 21050 39435 40070 53036 60001 333 10034 21017 70000
AAXX 03004 71512 NIL
AAXX 03004 71513 15966 00502 11061 21084 30250 40266 51009 60001 333 11035 21098 70000
AAXX 03004 71514 NIL
AAXX 03004 71515 16/// /2814 10000 21024 39363 40062 51016 60001 333 10013 21020 70015
AAXX 03004 71516 16/// /2919 11012 21045 60001 333 10012 21048 70006
AAXX 03004 71517 NIL
AAXX 03004 71518 NIL
AAXX 03004 71519 NIL
AAXX 03004 71520 NIL
AAXX 03004 71521 NIL
AAXX 03004 71522 NIL
AAXX 03004 71523 NIL
AAXX 03004 71524 17/// /3308 11001 21034 30282 40309 51041 60011 7//4/ 333 10013 21015 70030
AAXX 03004 71525 NIL
AAXX 03004 71526 NIL
AAXX 03004 71527 15966 02016 11020 21089 39576 40086 56006 60001 333 11014 21087 70000
AAXX 03004 71528 NIL
AAXX 03004 71529 46/// /03// 11164 21185 39926 40160 56002 6///1 333 11135 21168 7////
AAXX 03004 71532 15106 11602 11078 21078 39976 40333 51019 60001 333 11009 21079
AAXX 03004 71534 17933 00505 11030 21039 30048 40327 51015 69951 7//44 333 10004 21043 70040
AAXX 03004 71535 NIL
AAXX 03004 71536 NIL
AAXX 03004 71537 NIL
AAXX 03004 71539 NIL
AAXX 03004 71540 NIL
AAXX 03004 71541 NIL
AAXX 03004 71542 16/// /0000 11113 21138 60001 333 11074 21113 70000
AAXX 03004 71543 NIL
AAXX 03004 71544 NIL
AAXX 03004 71545 16/// ///// 11055 21107 60001 333 10008 21058 70000
AAXX 03004 71546 NIL
AAXX 03004 71547 NIL
AAXX 03004 71548 NIL
AAXX 03004 71549 NIL
AAXX 03004 71603 12974 70000 11002 21019 30225 40279 51012 60001 87100 333 10055 21014 70000
AAXX 03004 71607 16/// /2901 11002 21023 30246 40279 51016 60001 333 10042 21069 70000
AAXX 03004 71609 12774 60000 11019 21044 30144 40282 52014 60001 84571 333 10029 21058 70000
AAXX 03004 71610 17366 83007 10002 21003 39982 40285 53032 69931 7004/ 333 10010 21061 70003
AAXX 03004 71621 NIL
AAXX 03004 71623 NIL
AAXX 03004 71624 12974 00602 10001 21023 30115 40332 51022 60001 333 10050 21002 70014
AAXX 03004 71625 16564 83304 11057 21113 30175 40341 51031 60001 333 11016 21057 70010
AAXX 03004 71627 NIL
AAXX 03004 71628 11574 73212 11032 21073 30193 40338 53045 69901 70277 87500 333 10006 21034 42002 70038 90953
AAXX 03004 71630 NIL
AAXX 03004 71631 16/// /2401 11045 21051 39815 40330 53018 60001 333 10003 21045 70029
AAXX 03004 71633 12574 51404 11024 21045 30048 40327 51014 60001 85500 333 10010 21025 70022
AAXX 03004 71705 12774 70203 11003 21053 30187 40277 51013 60001 87500 333 10025 21055 70000
AAXX 03004 71706 12874 73502 11001 21022 30218 40280 51008 60001 87070 333 10039 21005 70000
AAXX 03004 71707 12574 33305 10000 21032 30199 40277 52015 60001 82570 333 10037 21024 79999
AAXX 03004 71709 12574 82304 10009 21037 30265 40279 52012 60001 885// 333 10026 21001 70000
AAXX 03004 71711 NIL
AAXX 03004 71714 17/// /0701 11039 21044 30206 40301 51034 69971 7//4/ 333 11009 7////
AAXX 03004 71715 17/// /3609 11031 21037 30100 40287 53033 60021 7//4/ 333 11022 21061 70031 555 10030
AAXX 03004 71718 NIL
AAXX 03004 71719 NIL
AAXX 03004 71051 NIL
AAXX 03004 71055 NIL
AAXX 03004 71057 NIL
AAXX 03004 71059 460// ///// 11257 30060 40155 51001 6///1 333 11230 21270 7////
AAXX 03004 71061 16/// /2203 11059 21105 39413 40207 51011 60001 333 10012 21059 70000
AAXX 03004 71062 46/// /3010 11015 21077 39122 40204 53009 6///1 333 10005 21018 7////
AAXX 03004 71064 460// /3211 11319 39911 40139 50006 6///1 333 11296 21321 7////
AAXX 03004 71065 NIL
AAXX 03004 71067 NIL
AAXX 03004 71070 NIL
AAXX 03004 71073 NIL
AAXX 03004 71074 NIL
AAXX 03004 71075 NIL
AAXX 03004 71078 17966 13513 11149 21173 39593 40044 52055 60001 771// 333 11092 21149 70023
AAXX 03004 71084 460// ///// 11278 30051 40101 53011 6///1 333 11244 21278 7////
AAXX 03004 71085 15866 83106 11007 21142 38832 40233 53023 60001 333 10025 21049 70000
AAXX 03004 71087 NIL
AAXX 03004 71088 460// /3210 11176 51013 6///1 333 11148 21194 7////
AAXX 03004 71089 NIL
AAXX 03004 71096 460// ///// 11183 39261 40002 51015 6///1 333 11183 21190 7////
AAXX 03004 71097 46964 03112 11133 39548 40025 51025 6///1 333 11108 21133 7////
AAXX 03004 71098 43/// /2205 11016 21058 39637 49995 53001 6///1 333 11011 21107 7////
AAXX 03004 71099 43/// /1511 11089 21110 39999 40020 56031 6///1 333 11089 21252 7////
AAXX 03004 71726 NIL
AAXX 03004 71727 11459 82812 11047 21068 30103 40307 52034 69941 77172 885// 333 11027 21091 46001 70014 90937
AAXX 03004 71728 11682 33008 11100 21119 30093 40323 52032 69901 72277 83500 333 11069 21100 44004 70016 90983
AAXX 03004 71730 12974 21606 11103 21140 39884 40328 53010 60001 80001 333 11038 21107 79999
AAXX 03004 71731 12574 11402 11117 21140 39861 40333 53017 60001 81400 333 11060 21120 70020
AAXX 03004 71735 NIL
AAXX 03004 71738 11974 32007 11028 21083 39897 40262 58001 69901 70171 83070 333 11016 21177 47997 79999 90962
AAXX 03004 71739 42974 21809 11095 21176 39909 40292 56005 6//// 81071 333 11071 21215 4//// 7////
AAXX 03004 71749 16964 02110 11007 21076 39934 40189 56019 60001 333 11005 21230 70000
AAXX 03004 71799 12983 21604 10052 20011 30307 40332 55000 60001 80001 333 10073 21010 70000
AAXX 03004 71800 16/08 /0311 10013 21001 30224 40257 53023 60001 333 10051 20007 70236
AAXX 03004 71801 12574 73605 11003 21024 30085 40261 52019 60001 87500 333 10018 21004 70140
AAXX 03004 71803 11274 70000 11002 21016 30068 40258 53007 69921 70282 87500 333 10021 21005 42997 70002 90925
AAXX 03004 71807 NIL
AAXX 03004 71808 NIL
AAXX 03004 71809 12574 22504 11029 21052 30241 40269 52014 60001 82501 333 10016 21036 70004
AAXX 03004 71810 16/// /2903 11045 21087 30205 40273 53018 60001 333 11016 21048 7////
AAXX 03004 71811 NIL
AAXX 03004 71813 NIL
AAXX 03004 71814 16/// /3004 11076 21089 30253 40263 51015 60001 333 11025 21112 70000
AAXX 03004 71815 12574 30104 11007 21047 30239 40270 51012 60001 83500 333 10027 21014 70000
AAXX 03004 71930 11774 22704 11024 21076 39278 40223 53004 69901 70281 82501 333 10017 21026 47014 79999 90961
AAXX 03004 71931 NIL
AAXX 03004 71934 11369 82703 11126 21146 39920 40184 50007 69901 77177 885// 333 11090 21131 48022 70074 90983
AAXX 03004 71935 12974 71705 11129 21152 39956 40170 56018 60001 87070 333 11118 21170 70015
AAXX 03004 71936 11458 70000 11169 21196 39895 40166 55004 69901 77122 83570 333 11162 21219 48026 70030 90931
AAXX 03004 71937 NIL
AAXX 03004 71938 NIL
AAXX 03004 71940 12882 72412 11011 21078 39406 40221 57016 60001 81071 333 10017 21019 70000
AAXX 03004 71943 12974 82210 11013 21089 39358 40203 57017 60001 88070 333 10018 21036 70000
AAXX 03004 71944 160// ///// 11021 56010 60001 333 11013 21116 70005
AAXX 03004 71945 12880 81903 11036 21083 39690 40167 58020 60001 87071 333 11031 21097 70024
AAXX 03004 71946 12974 10000 11166 21191 39927 40149 55009 60001 81070 333 11116 21205 70008
AAXX 03004 71948 47064 81116 11248 30022 40140 55006 6///1 745// 333 11244 21267 7////
AAXX 03004 71949 46/// /0000 11090 21103 39281 40167 58001 6///1 333 11081 21118 7////
AAXX 03004 71951 11374 71816 10026 20010 30074 40347 53001 69901 78022 87800 333 10027 20006 44046 79999 90910
AAXX 03004 71957 46364 82902 11186 21226 30032 40123 53013 6///1 333 11148 21258 7////
AAXX 03004 71958 43/// /0000 11022 21031 39266 40222 56014 6///1 333 11019 7////
AAXX 03004 71964 12786 81610 10013 21043 39290 40144 56003 60001 8357/ 333 10019 21100 70000
AAXX 03004 71966 17/// /2502 11106 21122 39680 40151 53012 60021 7//4/ 333 11104 21177 70015 555 10020
AAXX 03004 71968 47050 /2508 11213 30065 40132 52013 6///1 745// 333 11213 21256 7////
AAXX 03004 71744 NIL
AAXX 03004 71750 NIL
AAXX 03004 71751 NIL
AAXX 03004 71752 NIL
AAXX 03004 71753 16/// /0201 11018 21027 30242 40272 53016 60001 333 10065 21020 70000
AAXX 03004 71754 16/// /3322 11059 21098 39470 40140 51054 60001 333 10024 21059 70000
AAXX 03004 71755 43/// /2110 11022 21039 39654 49998 57007 6///1 333 11021 21157 7////
AAXX 03004 71756 16/// /0601 11037 21045 39195 40317 55001 60001 333 10007 21062 70000
AAXX 03004 71758 NIL
AAXX 03004 71760 NIL
AAXX 03004 71761 NIL
AAXX 03004 71762 NIL
AAXX 03004 71763 NIL
AAXX 03004 71765 16/// /0203 30040 55002 60001 333 70000
AAXX 03004 71766 16/// /2602 10045 20016 30252 40325 55004 60001 333 10072 20022 70000
AAXX 03004 71767 16/// /2102 11026 21055 30059 40328 52015 60001 333 10000 21031 70005
AAXX 03004 71768 46/// /3108 10046 21087 39742 40300 55001 6///1 333 10072 21029 7////
AAXX 03004 71769 16/// /2713 10064 20024 30299 40315 57008 60001 333 10065 20045 70000
AAXX 03004 71770 NIL
AAXX 03004 71771 NIL
AAXX 03004 71772 16/// /3114 10068 20029 30308 40314 56007 60001 333 10070 20047 70000
AAXX 03004 71773 16/// /1102 10001 21036 39287 40143 58005 60001 333 10022 21078 70000
AAXX 03004 71774 NIL
AAXX 03004 71775 17/// /2401 10053 20007 30321 40327 55006 60021 7//4/ 333 10075 21003 70062
AAXX 03004 71776 46/// /1604 10012 21052 39624 40278 53014 6///1 333 10061 21014 7////
AAXX 03004 71777 16/// ///// 11057 21062 30078 40339 55002 60001 333 11036 21063 70000
AAXX 03004 71778 46/// /0611 6///1 333 7////
AAXX 03004 71779 16/// /0402 11002 21023 39634 40312 55004 60001 333 11002 21114 7//// 555 10010
AAXX 03004 71780 NIL
AAXX 03004 71781 46/// /2908 10064 20018 30296 40321 58005 6///1 333 10073 20049 7////
AAXX 03004 71782 46/// /0000 11034 21091 38897 40246 53019 6///1 333 10026 21056 7////
AAXX 03004 71783 17/// /0203 10052 20012 30251 40326 55000 69921 7//4/ 333 10073 21006 70002
AAXX 03004 71784 16/// /0000 10037 20002 30109 40318 55006 60001 333 10073 20005 70000
AAXX 03004 71785 16/// /2401 10058 20014 30317 40333 55005 60001 333 10084 20025 70000
AAXX 03004 71786 46/// /2406 11074 21086 38401 40274 53010 6///1 333 11018 21088 7////
AAXX 03004 71787 16/// /3303 11017 21036 39772 40272 51014 60001 333 10025 21072 70012
AAXX 03004 71788 NIL
AAXX 03004 71789 NIL
AAXX 03004 71791 NIL
AAXX 03004 71792 NIL
AAXX 03004 71793 NIL
AAXX 03004 71794 NIL
AAXX 03004 71795 NIL
AAXX 03004 71796 NIL
AAXX 03004 71797 NIL
AAXX 03004 71604 16/// /3005 11033 21045 60001 333 11010 21034 70006
AAXX 03004 71605 16/// /3403 10034 20008 30166 40319 57005 60001 333 10076 20008 70000
AAXX 03004 71611 16/// /3209 10010 21005 60001 333 10020 21046 70000
AAXX 03004 71612 16/// /3305 10002 21030 30212 40304 51040 60001 333 10036 21009 70012
AAXX 03004 71614 NIL
AAXX 03004 71616 NIL
AAXX 03004 71617 16/// /2910 11054 21076 30138 40313 51034 60001 333 11030 7////
AAXX 03004 71618 17220 81005 11075 21082 39955 49993 55002 60021 7714/ 333 11052 21249 70018
AAXX 03004 71619 NIL
AAXX 03004 71622 NIL
AAXX 03004 71632 46/// /3613 11151 21176 39595 40042 53055 6///1 333 11091 21151 7//// 555 10040
AAXX 03004 71634 16/// /1001 11023 21037 30128 40286 53017 60001 333 11002 21085 70000
AAXX 03004 71638 16/// /3205 10039 20006 30209 40317 56010 60001 333 10068 21010 70000
AAXX 03004 71639 12974 03603 11007 21038 30083 40331 51021 60001 333 10023 21009 70016
AAXX 03004 71642 11474 51908 11065 21095 39715 40286 58001 69901 70272 85500 333 11047 21198 43001 79999 90931
AAXX 03004 71250 NIL
AAXX 03004 71251 NIL
AAXX 03004 71252 NIL
AAXX 03004 71253 46/// /2102 11138 21144 6///1 333 11063 21140 7//// 555 10010
AAXX 03004 71254 16/// /3110 11049 21086 60001 333 10006 21051 70006 555 10020
AAXX 03004 71255 16/// /3208 11086 21135 60001 333 10018 21086 70000
AAXX 03004 71256 46/// /2704 11024 21073 39273 40221 53004 6///1 333 10017 21024 7////
AAXX 03004 71257 NIL
AAXX 03004 71258 NIL
AAXX 03004 71259 NIL
AAXX 03004 71261 16/// /1404 11012 21045 30062 40330 53013 60001 333 10017 21020 70031
AAXX 03004 71263 12574 11802 11013 21045 30037 40334 51019 60001 81501 333 10043 21015 70014
AAXX 03004 71264 16/// /3002 10014 21004 30248 40280 53013 60001 333 10054 21008 70000
AAXX 03004 71265 15966 00603 10010 21025 30238 40335 51026 60001 333 10050 20010 70013
AAXX 03004 71266 NIL
AAXX 03004 71267 15966 03409 11014 21082 39119 40231 51028 60001 333 10037 21053 70000
AAXX 03004 71268 NIL
AAXX 03004 71269 NIL
AAXX 03004 71270 NIL
AAXX 03004 71271 16/// ///// 11050 21100 60001 333 10011 21050 70005
AAXX 03004 71272 17548 80111 11159 21179 39693 40054 51038 60001 771// 333 11124 21159 70000
AAXX 03004 71273 16/// /3310 11062 21104 39483 40149 51048 60001 333 10016 21062 70000
AAXX 03004 71274 NIL
AAXX 03004 71275 NIL
AAXX 03004 71276 NIL
AAXX 03004 71277 NIL
AAXX 03004 71278 NIL
AAXX 03004 71279 47/// /3502 11099 21123 30222 40291 51022 6///1 7//4/ 333 11060 21169 7////
AAXX 03004 71281 NIL
AAXX 03004 71282 46/// /0702 11025 21026 30062 40340 51026 6///1 333 10004 21025 7////
AAXX 03004 71283 NIL
AAXX 03004 71284 16/// ///// 11051 21102 60001 333 10004 21051 70000
AAXX 03004 71285 NIL
AAXX 03004 71286 NIL
AAXX 03004 71287 NIL
AAXX 03004 71288 NIL
AAXX 03004 71289 NIL
AAXX 03004 71290 15966 61505 11020 21055 39421 40272 56009 60001 333 11013 21118 70000
AAXX 03004 71291 16/// /1714 11012 21059 39876 40176 56021 60001 333 11012 21193 70000
AAXX 03004 71292 15566 82713 10008 21019 39437 40041 52020 60001 333 10025 21020 70033
AAXX 03004 71294 16/// /3501 11048 21067 39916 40330 51034 60001 333 11001 70009 555 10020
AAXX 03004 71295 NIL
AAXX 03004 71296 NIL
AAXX 03004 71297 16/// /0000 11018 21033 60001 333 10054 21018 70009
AAXX 03004 71298 NIL
AAXX 03004 71299 NIL
AAXX 03004 71851 NIL
AAXX 03004 71857 NIL
AAXX 03004 71860 11682 73410 11030 21107 38815 40244 53024 60001 71511 85530 333 10003 21056 70000
AAXX 03004 71876 17566 83220 11053 21082 39473 40143 51054 60001 771// 333 10025 21053 70000
AAXX 03004 71885 NIL
AAXX 03004 71888 NIL
AAXX 03004 71895 NIL
AAXX 03004 71300 NIL
AAXX 03004 71301 16/// ///// 11104 21161 39889 40307 53004 60001 333 11064 21167 70011
AAXX 03004 71302 16/// /1806 11002 21036 39456 40290 58007 60001 333 10005 21022 70000
AAXX 03004 71303 46/// ///// 10023 21021 6///1 333 10040 20011 7////
AAXX 03004 71305 17466 82807 11125 21144 39890 40196 51021 60001 771// 333 11061 21125 70056
AAXX 03004 71306 17566 82415 11040 21101 30099 40131 53008 60001 771// 333 11041 21060 70000
AAXX 03004 71307 16/// /0502 11021 21032 30089 40347 51022 60001 333 10026 21024 70014
AAXX 03004 71308 16/// /0000 11014 21026 30195 40281 53012 60001 333 10033 21017 70000
AAXX 03004 71309 NIL
AAXX 03004 71310 16/// /1403 11009 21033 30239 40277 51013 60001 333 10028 21017 70000
AAXX 03004 71311 NIL
AAXX 03004 71312 NIL
AAXX 03004 71314 16/// /2701 11051 21060 39967 40330 51024 60001 333 11006 21053 70024
AAXX 03004 71315 16/// /2501 11030 21042 30232 40287 53024 60001 333 11012 21068 70000
AAXX 03004 71316 16/// /3210 11057 21127 39500 40194 52025 60001 333 10004 21058 70000
AAXX 03004 71317 NIL
AAXX 03004 71318 16/// /3322 11041 21106 39227 40185 51037 60001 333 10005 21042 70000 555 10270
AAXX 03004 71319 17/// /0304 11059 21064 39383 40268 52031 69951 7//4/ 333 11041 21076 70035
AAXX 03004 71320 NIL
AAXX 03004 71321 NIL
AAXX 03004 71322 16/// /0114 11189 21205 30077 40090 53011 60001 333 11153 21254 70016
AAXX 03004 71323 NIL
AAXX 03004 71331 17/// /3308 11105 21140 60011 7//4/ 333 10011 21105 70026 555 10030
AAXX 03004 71332 NIL
AAXX 03004 71334 NIL
AAXX 03004 71335 46564 32517 11102 53024 6///1 333 11095 21117 7////
AAXX 03004 71336 46/// ///09 10018 21019 30214 40236 53012 6///1 333 10025 20017 7////
AAXX 03004 71337 46/// /3005 11042 21058 30007 40250 53013 6///1 333 10006 21043 7////
AAXX 03004 71338 46561 82003 11158 21166 30004 40011 52018 6///1 333 11139 21164 7////
AAXX 03004 71339 16964 32705 11080 21126 30232 40247 53016 60001 333 11036 21101 70000
AAXX 03004 71340 NIL
AAXX 03004 71341 NIL
AAXX 03004 71342 NIL
AAXX 03004 71343 NIL
AAXX 03004 71344 NIL
AAXX 03004 71345 NIL
AAXX 03004 71346 NIL
AAXX 03004 71347 NIL
AAXX 03004 71348 NIL
AAXX 03004 71349 NIL
AAXX 03004 71450 NIL
AAXX 03004 71451 NIL
AAXX 03004 71452 46/// /2811 10003 21037 39375 40086 51016 6///1 333 10030 21016 7////
AAXX 03004 71453 NIL
AAXX 03004 71454 NIL
AAXX 03004 71455 NIL
AAXX 03004 71456 16/// /3117 11056 21082 39465 40063 53051 60001 333 10014 21056 70000
AAXX 03004 71457 16/// /3414 11022 21057 39291 40191 51030 60001 333 10019 21023 70000
AAXX 03004 71458 16/// /3113 11048 21107 39418 40198 51037 60001 333 10015 21049 70000
AAXX 03004 71459 16/// /3223 11026 21080 39345 40159 53042 60001 333 10026 21027 70000
AAXX 03004 71460 16/// /2107 11025 21073 30083 40333 53014 60001 333 11023 21057 70000
AAXX 03004 71461 NIL
AAXX 03004 71462 NIL
AAXX 03004 71463 46/// /3204 10024 21052 30112 40341 51026 6///1 333 10039 20008 7////
AAXX 03004 71464 NIL
AAXX 03004 71465 NIL
AAXX 03004 71466 NIL
AAXX 03004 71468 NIL
AAXX 03004 71470 NIL
AAXX 03004 71471 15966 62207 10004 21091 39411 40209 56015 60001 333 10026 21026 70000
AAXX 03004 71473 16/// /3203 10025 21006 30295 40326 56004 60001 333 10043 20023 70000
AAXX 03004 71475 16/// /0402 10016 20010 30244 40340 55002 60001 333 10019 21008 70002
AAXX 03004 71476 NIL
AAXX 03004 71477 16/// /2308 10062 20043 60001 333 10064 20042 70004
AAXX 03004 71478 NIL
AAXX 03004 71479 NIL
AAXX 03004 71480 NIL
AAXX 03004 71481 NIL
AAXX 03004 71482 NIL
AAXX 03004 71483 NIL
AAXX 03004 71484 NIL
AAXX 03004 71485 16/// /3213 10069 20031 30345 40366 56009 60001 333 10071 20051 70044
AAXX 03004 71486 16/// /1905 11011 21091 39034 40255 53004 60001 333 10010 21041 70000
AAXX 03004 71487 16/// /2921 11012 21038 39237 40106 53018 60001 333 10005 21014 70011
AAXX 03004 71489 NIL
AAXX 03004 71490 NIL
AAXX 03004 71491 16/// /1101 11199 21221 60001 333 11060 21320 70000
AAXX 03004 71492 NIL
AAXX 03004 71493 16/// /3001 11008 21017 30232 40271 52013 60001 333 10048 21022 70000
AAXX 03004 71494 NIL
AAXX 03004 71495 NIL
AAXX 03004 71496 16/// /3521 11042 21092 39485 40097 53055 60001 333 10040 21042 70000
AAXX 03004 71497 46/// /0000 11069 21088 39873 40142 56021 6///1 333 11058 21140 7////
AAXX 03004 71498 NIL
AAXX 03004 71499 17348 63211 11141 21161 39480 40118 53047 60001 771// 333 11028 21141 70000
AAXX 03004 71854 12974 62113 11005 21086 39566 40039 50003 60001 86070 333 11001 21089 79999
AAXX 03004 71816 11574 82710 11100 21154 30200 40264 53017 69901 78582 885// 333 11082 21100 43014 79999 90927
AAXX 03004 71817 NIL
AAXX 03004 71818 12574 72910 11082 21119 30223 40242 52019 60001 82508 333 11049 21097 70000
AAXX 03004 71822 12974 01802 11200 21239 39828 40334 52025 60001 333 11110 21206 79999
AAXX 03004 71825 11574 32605 11181 21226 39579 40284 51018 69901 70277 83500 333 11141 21190 47058 70002 90953
AAXX 03004 71827 NIL
AAXX 03004 71828 16564 62507 11162 21208 39584 40250 51017 60001 333 11135 21162 70000
AAXX 03004 71831 12674 61710 11063 21099 39962 40255 58009 60001 85501 333 11063 21201 70000
AAXX 03004 71832 NIL
AAXX 03004 71834 12574 62118 11029 21068 39735 40176 50001 60001 86500 333 11018 21213 79999
AAXX 03004 71841 NIL
AAXX 03004 71842 12974 82013 11018 21087 39617 40091 56008 60001 88070 333 11017 21093 79999
AAXX 03004 71844 17311 91915 11028 21035 39734 40014 56009 60021 74544 333 11026 21166 70025
AAXX 03004 71845 11574 81811 11023 21091 39591 40070 58012 69901 73677 8257/ 333 11022 21177 43012 79999 90942
AAXX 03004 71850 12974 32013 11002 21068 39563 40063 50008 60001 84070 333 10001 21072 44004 79999
AAXX 03004 71852 16564 81914 10011 21037 39746 40039 53011 60001 333 10014 21047 70000
AAXX 03004 71854 12974 62113 11005 21086 39566 40039 56003 60001 86070 333 11001 21089 79999
AAXX 03004 71858 16/// /2606 10018 21015 39693 49970 53015 60001 333 10020 21041 70003
AAXX 03004 71861 NIL
AAXX 03004 71862 12574 52814 11014 21048 39393 40097 51022 60001 81571 333 10042 21034 70000
AAXX 03004 71863 46564 82816 10000 21024 39379 40076 53016 6///1 333 10016 21010 7////
AAXX 03004 91203 11474 80910 10289 20269 30100 40105 51010 69954 70282 82276 333 56299 70005 58005 82818 87080 555 90300 91317 12474 60505 10278 20263 30106 40110 5//// 60014 82171 333 56199 70023 59013 82815 83365 555 90300
AAXX 03004 71864 NIL
AAXX 03004 71865 16/// /2810 10002 21026 39370 40046 53020 60001 333 10017 20001 70000
AAXX 03004 71866 46564 63420 11042 21106 39490 40104 53057 6///1 333 10039 21042 7////
AAXX 03004 71867 11432 83419 11029 21039 39663 49995 53045 69901 77122 885// 333 10027 21047 48012 79999 90921
AAXX 03004 71868 NIL
AAXX 03004 71869 NIL
AAXX 03004 71871 17566 63221 11062 21108 39352 40169 51049 60001 771// 333 10001 21063 70000
AAXX 03004 71877 12786 13222 11017 21098 38940 40231 53020 60001 81570 333 10017 21020 70000
AAXX 03004 71878 11574 13110 11021 21077 39139 40229 52021 60001 73611 81570 333 11005 21024 79999
AAXX 03004 71879 16964 03006 11045 21102 39400 40216 51018 60001 333 10015 21049 70005
AAXX 03004 71880 12782 23506 10000 21093 39134 40254 53015 60001 82500 333 10024 21045 70000
AAXX 03004 71882 16764 60308 10025 21051 39750 40298 53007 69951 333 10034 21033 70015
AAXX 03004 71883 46/// /0000 11050 21057 39468 40315 55001 6///1 333 11004 21130 7////
AAXX 03004 71887 12986 20000 10031 21075 39882 40314 55001 60001 82070 333 10069 21065 70000
AAXX 03004 71889 12874 13206 10059 21084 39874 40300 53005 60001 81070 333 10074 21041 70000
AAXX 03004 71891 16964 00203 10007 21053 30042 40324 55002 60001 333 10055 21033 70000
AAXX 03004 71892 12583 22903 10048 20010 30323 40328 55005 60001 81501 333 10066 20005 70000
AAXX 03004 71816 11574 82710 11100 21154 30200 40264 53017 69901 78582 885// 333 11082 21100 43014 79999 90927
AAXX 03004 71817 NIL
AAXX 03004 71818 12574 72910 11082 21119 30223 40242 52019 60001 82508 333 11049 21097 70000
AAXX 03004 71822 12974 01802 11200 21239 39828 40334 52025 60001 333 11110 21206 79999
AAXX 03004 71825 11574 32605 11181 21226 39579 40284 51018 69901 70277 83500 333 11141 21190 47058 70002 90953
AAXX 03004 71827 NIL
AAXX 03004 71828 16564 62507 11162 21208 39584 40250 51017 60001 333 11135 21162 70000
AAXX 03004 71831 12674 61710 11063 21099 39962 40255 58009 60001 85501 333 11063 21201 70000
AAXX 03004 71832 NIL
AAXX 03004 71834 12574 62118 11029 21068 39735 40176 50001 60001 86500 333 11018 21213 79999
AAXX 03004 71841 NIL
AAXX 03004 71842 12974 82013 11018 21087 39617 40091 56008 60001 88070 333 11017 21093 79999
AAXX 03004 71844 17311 91915 11028 21035 39734 40014 56009 60021 74544 333 11026 21166 70025
AAXX 03004 71845 11574 81811 11023 21091 39591 40070 58012 69901 73677 8257/ 333 11022 21177 43012 79999 90942
AAXX 03004 71850 12974 32013 11002 21068 39563 40063 50008 60001 84070 333 10001 21072 44004 79999
AAXX 03004 71852 16564 81914 10011 21037 39746 40039 53011 60001 333 10014 21047 70000
AAXX 03004 71854 12974 62113 11005 21086 39566 40039 56003 60001 86070 333 11001 21089 79999
AAXX 03004 71858 16/// /2606 10018 21015 39693 49970 53015 60001 333 10020 21041 70003
AAXX 03004 71861 NIL
AAXX 03004 71862 12574 52814 11014 21048 39393 40097 51022 60001 81571 333 10042 21034 70000
AAXX 03004 71863 46564 82816 10000 21024 39379 40076 53016 6///1 333 10016 21010 7////
AAXX 03004 71893 12780 23409 10066 20015 30299 40331 55005 60001 81501 333 10076 20012 79999
AAXX 03004 71894 NIL
AAXX 03004 71896 15766 81807 11004 21044 39446 40294 58007 60001 333 10002 21030 70000
AAXX 03004 71897 12474 63605 10058 20043 3//// 4//// 57006 60001 86871 333 10078 20055 70002
AAXX 03004 71898 160// ///// 10041 55003 69951 333 10057 20021 70015
AAXX 03004 71899 11469 82618 10070 20058 3//// 4//// 56003 69921 76122 8112/ 333 10074 20054 70004 90910
AAXX 03004 71902 12974 12716 11094 21165 30197 40206 51019 60001 81040 333 11076 21102 70000
AAXX 03004 71905 NIL
AAXX 03004 71906 11774 62412 11104 21145 30126 40177 53020 69901 70377 85530 333 11083 21105 48007 79999 90941
AAXX 03004 71907 16564 82413 11053 21108 30100 40133 53008 60001 333 11049 21071 70005
AAXX 03004 71909 16564 83004 11143 21170 30017 40061 51024 60001 333 11121 21167 70000
AAXX 03004 71910 46964 00707 11117 21139 39993 40056 51009 6///1 333 11107 21131 7////
AAXX 03004 71911 46964 02406 11287 30018 40076 53005 6///1 333 11241 21287 7////
AAXX 03004 71912 11348 80604 11064 21070 39764 49948 53001 60011 77177 886// 333 11059 21188 47018 70042 90983 93101
AAXX 03004 71915 11574 73106 11179 21187 39967 40049 52013 69901 77177 87500 333 11127 21194 48050 70012 90973
AAXX 03004 71917 11974 01405 11339 21391 30059 40074 52007 69901 70177 333 11315 21342 47013 79999 90963
AAXX 03004 71922 11459 73216 11088 21117 39631 40099 52072 60011 77177 87500 333 10025 21090 47024 70010 90973 93101
AAXX 03004 71924 11974 13508 11310 21354 39958 40051 52008 69901 70171 80001 333 11262 21318 48037 79999 90940
AAXX 03004 71925 11474 23211 11304 21351 30080 40123 51005 69901 77677 82500 333 11291 21311 48017 79999 90983
AAXX 03004 71926 12580 43314 11270 21327 30092 40117 51010 60001 81501 333 11255 21282 79999
AAXX 03004 71928 16/// /3114 11012 21082 39047 40226 51014 60001 333 11002 21017 70000
AAXX 03004 71114 16561 60000 10006 20000 30279 40328 53001 60001 333 10046 21002 70005
AAXX 03004 71120 11574 23216 11063 21122 39513 40179 52040 69901 70181 82500 333 10013 21063 42003 70004 90956
AAXX 03004 71122 16/// /2603 11030 21143 38607 40235 53015 60001 333 10000 21050 70000
AAXX 03004 71123 12674 13108 11041 21096 39340 40220 53021 60001 81500 333 10013 21046 79999
AAXX 03004 71125 11569 83317 11061 21102 39557 40148 52052 69921 78572 882// 333 46997 70002 90937 93101
AAXX 03004 71129 11372 63320 11053 21101 39315 40154 52046 69901 77132 86500 333 10010 21053 42001 79999 90917
AAXX 03004 71131 16/// /3126 11047 21050 38882 40149 53019 60001 333 11004 21047 70007
AAXX 03004 71135 16/// /3117 11028 21060 39028 40118 51012 60001 333 11002 21036 70012
AAXX 03004 71137 16/// /3014 11030 21048 39193 40144 53019 60001 333 10014 21038 70020
AAXX 03004 71140 12974 42712 10008 21015 39555 40056 52024 60001 81071 333 10026 21044 70000
AAXX 03004 71145 11316 82008 11025 21025 39681 49973 50000 60031 77122 885// 333 11019 21118 48025 70034 90962 93103
AAXX 03004 71148 16/// /2706 10017 21022 39481 40060 51019 60001 333 10028 21059 70000
AAXX 03004 71182 16564 82605 11151 21200 39708 40272 51022 60001 333 11125 21152 70000
AAXX 03004 71185 16564 6//// 11014 30235 40259 51015 60001 333 11005 21061 70000
AAXX 03004 71188 12974 82803 11021 21059 30236 40280 52018 60001 8801/ 333 11005 21077 70000
AAXX 03004 71200 16/// /0304 10049 20009 60001 333 10074 20028 70000
AAXX 03004 71207 16/// /0301 10003 21003 30255 40321 56009 60001 333 10052 21019 70000
AAXX 03004 71260 13/// ///// 11024 21061 30052 40296 53001 60001 333 10000 21071 79999
AAXX 03004 71603 12974 70000 11002 21019 30225 40279 51012 60001 87100 333 10055 21014 70000
AAXX 03004 71607 16/// /2901 11002 21023 30246 40279 51016 60001 333 10042 21069 70000
AAXX 03004 71609 12774 60000 11019 21044 30144 40282 52014 60001 84571 333 10029 21058 70000
AAXX 03004 71610 17366 83007 10002 21003 39982 40285 53032 69931 7004/ 333 10010 21061 70003
AAXX 03004 71621 NIL
AAXX 03004 71623 NIL
AAXX 03004 71624 12974 00602 10001 21023 30115 40332 51022 60001 333 10050 21002 70014
AAXX 03004 71625 16564 83304 11057 21113 30175 40341 51031 60001 333 11016 21057 70010
AAXX 03004 71627 NIL
AAXX 03004 71628 11574 73212 11032 21073 30193 40338 53045 69901 70277 87500 333 10006 21034 42002 70038 90953
AAXX 03004 71630 NIL
AAXX 03004 71631 16/// /2401 11045 21051 39815 40330 53018 60001 333 10003 21045 70029
AAXX 03004 71633 12574 51404 11024 21045 30048 40327 51014 60001 85500 333 10010 21025 70022
AAXX 03004 71705 12774 70203 11003 21053 30187 40277 51013 60001 87500 333 10025 21055 70000
AAXX 03004 71706 12874 73502 11001 21022 30218 40280 51008 60001 87070 333 10039 21005 70000
AAXX 03004 71707 12574 33305 10000 21032 30199 40277 52015 60001 82570 333 10037 21024 79999
AAXX 03004 71709 12574 82304 10009 21037 30265 40279 52012 60001 885// 333 10026 21001 70000
AAXX 03004 71711 NIL
AAXX 03004 71714 17/// /0701 11039 21044 30206 40301 51034 69971 7//4/ 333 11009 7////
AAXX 03004 71715 17/// /3609 11031 21037 30100 40287 53033 60021 7//4/ 333 11022 21061 70031 555 10030
AAXX 03004 71718 NIL
AAXX 03004 71719 NIL
AAXX 03004 71930 11774 22704 11024 21076 39278 40223 53004 69901 70281 82501 333 10017 21026 47014 79999 90961
AAXX 03004 71931 NIL
AAXX 03004 71934 11369 82703 11126 21146 39920 40184 50007 69901 77177 885// 333 11090 21131 48022 70074 90983
AAXX 03004 71935 12974 71705 11129 21152 39956 40170 56018 60001 87070 333 11118 21170 70015
AAXX 03004 71936 11458 70000 11169 21196 39895 40166 55004 69901 77122 83570 333 11162 21219 48026 70030 90931
AAXX 03004 71937 NIL
AAXX 03004 71938 NIL
AAXX 03004 71940 12882 72412 11011 21078 39406 40221 57016 60001 81071 333 10017 21019 70000
AAXX 03004 71943 12974 82210 11013 21089 39358 40203 57017 60001 88070 333 10018 21036 70000
AAXX 03004 71944 160// ///// 11021 56010 60001 333 11013 21116 70005
AAXX 03004 71945 12880 81903 11036 21083 39690 40167 58020 60001 87071 333 11031 21097 70024
AAXX 03004 71946 12974 10000 11166 21191 39927 40149 55009 60001 81070 333 11116 21205 70008
AAXX 03004 71948 47064 81116 11248 30022 40140 55006 6///1 745// 333 11244 21267 7////
AAXX 03004 71949 46/// /0000 11090 21103 39281 40167 58001 6///1 333 11081 21118 7////
AAXX 03004 71951 11374 71816 10026 20010 30074 40347 53001 69901 78022 87800 333 10027 20006 44046 79999 90910
AAXX 03004 71957 46364 82902 11186 21226 30032 40123 53013 6///1 333 11148 21258 7////
AAXX 03004 71958 43/// /0000 11022 21031 39266 40222 56014 6///1 333 11019 7////
AAXX 03004 71964 12786 81610 10013 21043 39290 40144 56003 60001 8357/ 333 10019 21100 70000
AAXX 03004 71966 17/// /2502 11106 21122 39680 40151 53012 60021 7//4/ 333 11104 21177 70015 555 10020
AAXX 03004 71968 47050 /2508 11213 30065 40132 52013 6///1 745// 333 11213 21256 7////
AAXX 03004 71397 12874 60000 11002 21020 30246 40281 51016 60001 86030 333 10060 21022 70000
AAXX 03004 71400 16/64 /3101 11022 21028 60001 333 10024 21030 70000
AAXX 03004 71403 46/// /3008 10030 21003 30255 40275 53012 6///1 333 10061 20014 7////
AAXX 03004 71411 16/// /2704 10016 20006 30264 40277 51013 60001 333 10062 21011 70000
AAXX 03004 71412 16/// /2703 10009 21021 30265 40275 53013 60001 333 10031 20000 70000
AAXX 03004 71421 NIL
AAXX 03004 71430 16/// /0206 11020 21029 30235 40334 51041 60001 333 10059 21020 70019
AAXX 03004 71431 16/// /3203 10001 21047 30235 40333 51040 60001 333 10040 21008 70003
AAXX 03004 71432 16/// /0106 10036 21015 30234 40333 51030 60001 333 10053 20026 70009
AAXX 03004 71433 NIL
AAXX 03004 71435 NIL
AAXX 03004 71441 46/// /2013 10007 21057 39746 40054 53013 6///1 333 10030 21043 7////
AAXX 03004 71443 NIL
AAXX 03004 71444 NIL
AAXX 03004 71447 16/// /2710 10011 21030 39527 40072 51027 60001 333 10048 21059 70000
AAXX 03004 71467 16/// /1307 11260 21284 30027 40148 58003 60001 333 11248 21340 70000
AAXX 03004 71472 NIL
AAXX 03004 71474 16764 33502 11017 21104 39046 40308 55001 60001 333 10014 21028 70000
AAXX 03004 71510 17/// /3317 11043 21089 39411 40120 51054 69961 7//4/ 333 10031 21043 70012
AAXX 03004 71538 12574 21305 10005 21019 30102 40339 51015 60001 82500 333 10047 20005 70004
AAXX 03004 71600 16564 60405 10044 21004 30264 40270 53011 60001 333 10070 20022 70005
AAXX 03004 71601 NIL
AAXX 03004 71726 NIL
AAXX 03004 71727 11459 82812 11047 21068 30103 40307 52034 69941 77172 885// 333 11027 21091 46001 70014 90937
AAXX 03004 71728 11682 33008 11100 21119 30093 40323 52032 69901 72277 83500 333 11069 21100 44004 70016 90983
AAXX 03004 71730 12974 21606 11103 21140 39884 40328 53010 60001 80001 333 11038 21107 79999
AAXX 03004 71731 12574 11402 11117 21140 39861 40333 53017 60001 81400 333 11060 21120 70020
AAXX 03004 71735 NIL
AAXX 03004 71738 11974 32007 11028 21083 39897 40262 58001 69901 70171 83070 333 11016 21177 47997 79999 90962
AAXX 03004 71739 42974 21809 11095 21176 39909 40292 56005 6//// 81071 333 11071 21215 4//// 7////
AAXX 03004 71749 16964 02110 11007 21076 39934 40189 56019 60001 333 11005 21230 70000
AAXX 03004 71799 12983 21604 10052 20011 30307 40332 55000 60001 80001 333 10073 21010 70000
AAXX 03004 71800 16/08 /0311 10013 21001 30224 40257 53023 60001 333 10051 20007 70236
AAXX 03004 71801 12574 73605 11003 21024 30085 40261 52019 60001 87500 333 10018 21004 70140
AAXX 03004 71803 11274 70000 11002 21016 30068 40258 53007 69921 70282 87500 333 10021 21005 42997 70002 90925
AAXX 03004 71807 NIL
AAXX 03004 71808 NIL
AAXX 03004 71809 12574 22504 11029 21052 30241 40269 52014 60001 82501 333 10016 21036 70004
AAXX 03004 71810 16/// /2903 11045 21087 30205 40273 53018 60001 333 11016 21048 7////
AAXX 03004 71811 NIL
AAXX 03004 71813 NIL
AAXX 03004 71814 16/// /3004 11076 21089 30253 40263 51015 60001 333 11025 21112 70000
AAXX 03004 71815 12574 30104 11007 21047 30239 40270 51012 60001 83500 333 10027 21014 70000
AAXX 03004 71043 12683 61303 11170 21213 30042 40138 52002 60001 85570 333 11160 21188 48017 79999
AAXX 03004 71045 16/// /1905 10005 21029 39310 40177 56010 60001 333 10014 21080 70000
AAXX 03004 71050 46/// /2805 11010 21074 39221 40321 55003 6///1 333 11006 21103 7////
AAXX 03004 71051 NIL
AAXX 03004 71052 NIL
AAXX 03004 71066 NIL
AAXX 03004 71068 12974 32306 11069 21088 39508 40211 57007 60001 82071 333 10012 21072 79999
AAXX 03004 71069 16964 02812 11032 21078 39494 40207 52001 60001 333 10016 21037 70000
AAXX 03004 71076 16/// /3606 11184 21213 39769 40175 53030 60001 333 11115 21184 70063 555 10080
AAXX 03004 71077 16/// /3118 11096 21121 39618 40165 51045 60001 333 10019 21096 70000
AAXX 03004 71079 11358 83514 11048 21063 39676 49954 53030 69941 77177 885// 333 11018 21122 47010 70042 90983 93101
AAXX 03004 71081 46664 33208 11228 21268 30032 40044 52013 6///1 333 11153 21237 7////
AAXX 03004 71082 NIL
AAXX 03004 71083 NIL
AAXX 03004 71090 46564 82605 11203 21245 39978 40013 51013 6///1 333 11163 21203 7////
AAXX 03004 71091 460// /2808 11191 39811 40022 51017 6///1 333 7////
AAXX 03004 71092 46964 02203 11200 39340 40013 53020 6///1 333 11173 21200 7////
AAXX 03004 71093 460// /0404 11182 39505 40008 53015 6///1 333 11176 21191 7////
AAXX 03004 71094 46064 /3003 11180 39058 49962 53017 6///1 333 11168 21184 7////
AAXX 03004 71095 47464 31704 11230 21264 39930 40012 6///1 745// 333 11220 21252 7////
AAXX 03004 71101 160// /2507 30351 55001 60001 333 70000
AAXX 03004 71104 12774 72703 11003 21079 39175 40310 58004 60001 82570 333 10010 21061 70000
AAXX 03004 71108 12583 22305 10058 20009 30253 40327 55002 60001 81101 333 10077 20014 79999
AAXX 03004 71109 12680 62905 10060 20028 30342 40369 58009 60001 84501 333 10076 20035 70036
AAXX 03004 71930 11774 22704 11024 21076 39278 40223 53004 69901 70281 82501 333 10017 21026 47014 79999 90961
AAXX 03004 71931 NIL
AAXX 03004 71934 11369 82703 11126 21146 39920 40184 50007 69901 77177 885// 333 11090 21131 48022 70074 90983
AAXX 03004 71935 12974 71705 11129 21152 39956 40170 56018 60001 87070 333 11118 21170 70015
AAXX 03004 71936 11458 70000 11169 21196 39895 40166 55004 69901 77122 83570 333 11162 21219 48026 70030 90931
AAXX 03004 71937 NIL
AAXX 03004 71938 NIL
AAXX 03004 71940 12882 72412 11011 21078 39406 40221 57016 60001 81071 333 10017 21019 70000
AAXX 03004 71943 12974 82210 11013 21089 39358 40203 57017 60001 88070 333 10018 21036 70000
AAXX 03004 71944 160// ///// 11021 56010 60001 333 11013 21116 70005
AAXX 03004 71945 12880 81903 11036 21083 39690 40167 58020 60001 87071 333 11031 21097 70024
AAXX 03004 71946 12974 10000 11166 21191 39927 40149 55009 60001 81070 333 11116 21205 70008
AAXX 03004 71948 47064 81116 11248 30022 40140 55006 6///1 745// 333 11244 21267 7////
AAXX 03004 71949 46/// /0000 11090 21103 39281 40167 58001 6///1 333 11081 21118 7////
AAXX 03004 71951 11374 71816 10026 20010 30074 40347 53001 69901 78022 87800 333 10027 20006 44046 79999 90910
AAXX 03004 71957 46364 82902 11186 21226 30032 40123 53013 6///1 333 11148 21258 7////
AAXX 03004 71958 43/// /0000 11022 21031 39266 40222 56014 6///1 333 11019 7////
AAXX 03004 71964 12786 81610 10013 21043 39290 40144 56003 60001 8357/ 333 10019 21100 70000
AAXX 03004 71966 17/// /2502 11106 21122 39680 40151 53012 60021 7//4/ 333 11104 21177 70015 555 10020
AAXX 03004 71968 47050 /2508 11213 30065 40132 52013 6///1 745// 333 11213 21256 7////
AAXX 03004 71114 16561 60000 10006 20000 30279 40328 53001 60001 333 10046 21002 70005
AAXX 03004 71120 11574 23216 11063 21122 39513 40179 52040 69901 70181 82500 333 10013 21063 42003 70004 90956
AAXX 03004 71122 16/// /2603 11030 21143 38607 40235 53015 60001 333 10000 21050 70000
AAXX 03004 71123 12674 13108 11041 21096 39340 40220 53021 60001 81500 333 10013 21046 79999
AAXX 03004 71125 11569 83317 11061 21102 39557 40148 52052 69921 78572 882// 333 46997 70002 90937 93101
AAXX 03004 71129 11372 63320 11053 21101 39315 40154 52046 69901 77132 86500 333 10010 21053 42001 79999 90917
AAXX 03004 71131 16/// /3126 11047 21050 38882 40149 53019 60001 333 11004 21047 70007
AAXX 03004 71135 16/// /3117 11028 21060 39028 40118 51012 60001 333 11002 21036 70012
AAXX 03004 71137 16/// /3014 11030 21048 39193 40144 53019 60001 333 10014 21038 70020
AAXX 03004 71140 12974 42712 10008 21015 39555 40056 52024 60001 81071 333 10026 21044 70000
AAXX 03004 71145 11316 82008 11025 21025 39681 49973 50000 60031 77122 885// 333 11019 21118 48025 70034 90962 93103
AAXX 03004 71148 16/// /2706 10017 21022 39481 40060 51019 60001 333 10028 21059 70000
AAXX 03004 71182 16564 82605 11151 21200 39708 40272 51022 60001 333 11125 21152 70000
AAXX 03004 71185 16564 6//// 11014 30235 40259 51015 60001 333 11005 21061 70000
AAXX 03004 71188 12974 82803 11021 21059 30236 40280 52018 60001 8801/ 333 11005 21077 70000
AAXX 03004 71200 16/// /0304 10049 20009 60001 333 10074 20028 70000
AAXX 03004 71207 16/// /0301 10003 21003 30255 40321 56009 60001 333 10052 21019 70000
AAXX 03004 71260 13/// ///// 11024 21061 30052 40296 53001 60001 333 10000 21071 79999
AAXX 03004 71043 12683 61303 11170 21213 30042 40138 52002 60001 85570 333 11160 21188 48017 79999
AAXX 03004 71045 16/// /1905 10005 21029 39310 40177 56010 60001 333 10014 21080 70000
AAXX 03004 71050 46/// /2805 11010 21074 39221 40321 55003 6///1 333 11006 21103 7////
AAXX 03004 71051 NIL
AAXX 03004 71052 NIL
AAXX 03004 71066 NIL
AAXX 03004 71068 12974 32306 11069 21088 39508 40211 57007 60001 82071 333 10012 21072 79999
AAXX 03004 71069 16964 02812 11032 21078 39494 40207 52001 60001 333 10016 21037 70000
AAXX 03004 71076 16/// /3606 11184 21213 39769 40175 53030 60001 333 11115 21184 70063 555 10080
AAXX 03004 71077 16/// /3118 11096 21121 39618 40165 51045 60001 333 10019 21096 70000
AAXX 03004 71079 11358 83514 11048 21063 39676 49954 53030 69941 77177 885// 333 11018 21122 47010 70042 90983 93101
AAXX 03004 71081 46664 33208 11228 21268 30032 40044 52013 6///1 333 11153 21237 7////
AAXX 03004 71082 NIL
AAXX 03004 71083 NIL
AAXX 03004 71090 46564 82605 11203 21245 39978 40013 51013 6///1 333 11163 21203 7////
AAXX 03004 71091 460// /2808 11191 39811 40022 51017 6///1 333 7////
AAXX 03004 71092 46964 02203 11200 39340 40013 53020 6///1 333 11173 21200 7////
AAXX 03004 71093 460// /0404 11182 39505 40008 53015 6///1 333 11176 21191 7////
AAXX 03004 71094 46064 /3003 11180 39058 49962 53017 6///1 333 11168 21184 7////
AAXX 03004 71095 47464 31704 11230 21264 39930 40012 6///1 745// 333 11220 21252 7////
AAXX 03004 71101 160// /2507 30351 55001 60001 333 70000
AAXX 03004 71104 12774 72703 11003 21079 39175 40310 58004 60001 82570 333 10010 21061 70000
AAXX 03004 71108 12583 22305 10058 20009 30253 40327 55002 60001 81101 333 10077 20014 79999
AAXX 03004 71109 12680 62905 10060 20028 30342 40369 58009 60001 84501 333 10076 20035 70036
AAXX 03004 71864 NIL
AAXX 03004 71865 16/// /2810 10002 21026 39370 40046 53020 60001 333 10017 20001 70000
AAXX 03004 71866 46564 63420 11042 21106 39490 40104 53057 6///1 333 10039 21042 7////
AAXX 03004 71867 11432 83419 11029 21039 39663 49995 53045 69901 77122 885// 333 10027 21047 48012 79999 90921
AAXX 03004 71868 NIL
AAXX 03004 71869 NIL
AAXX 03004 71871 17566 63221 11062 21108 39352 40169 51049 60001 771// 333 10001 21063 70000
AAXX 03004 71877 12786 13222 11017 21098 38940 40231 53020 60001 81570 333 10017 21020 70000
AAXX 03004 71878 11574 13110 11021 21077 39139 40229 52021 60001 73611 81570 333 11005 21024 79999
AAXX 03004 71879 16964 03006 11045 21102 39400 40216 51018 60001 333 10015 21049 70005
AAXX 03004 71880 12782 23506 10000 21093 39134 40254 53015 60001 82500 333 10024 21045 70000
AAXX 03004 71882 16764 60308 10025 21051 39750 40298 53007 69951 333 10034 21033 70015
AAXX 03004 71883 46/// /0000 11050 21057 39468 40315 55001 6///1 333 11004 21130 7////
AAXX 03004 71887 12986 20000 10031 21075 39882 40314 55001 60001 82070 333 10069 21065 70000
AAXX 03004 71889 12874 13206 10059 21084 39874 40300 53005 60001 81070 333 10074 21041 70000
AAXX 03004 71891 16964 00203 10007 21053 30042 40324 55002 60001 333 10055 21033 70000
AAXX 03004 71892 12583 22903 10048 20010 30323 40328 55005 60001 81501 333 10066 20005 70000
AAXX 03004 71726 NIL
AAXX 03004 71727 11459 82812 11047 21068 30103 40307 52034 69941 77172 885// 333 11027 21091 46001 70014 90937
AAXX 03004 71728 11682 33008 11100 21119 30093 40323 52032 69901 72277 83500 333 11069 21100 44004 70016 90983
AAXX 03004 71730 12974 21606 11103 21140 39884 40328 53010 60001 80001 333 11038 21107 79999
AAXX 03004 71731 12574 11402 11117 21140 39861 40333 53017 60001 81400 333 11060 21120 70020
AAXX 03004 71735 NIL
AAXX 03004 71738 11974 32007 11028 21083 39897 40262 58001 69901 70171 83070 333 11016 21177 47997 79999 90962
AAXX 03004 71739 42974 21809 11095 21176 39909 40292 56005 6//// 81071 333 11071 21215 4//// 7////
AAXX 03004 71749 16964 02110 11007 21076 39934 40189 56019 60001 333 11005 21230 70000
AAXX 03004 71799 12983 21604 10052 20011 30307 40332 55000 60001 80001 333 10073 21010 70000
AAXX 03004 71800 16/08 /0311 10013 21001 30224 40257 53023 60001 333 10051 20007 70236
AAXX 03004 71801 12574 73605 11003 21024 30085 40261 52019 60001 87500 333 10018 21004 70140
AAXX 03004 71803 11274 70000 11002 21016 30068 40258 53007 69921 70282 87500 333 10021 21005 42997 70002 90925
AAXX 03004 71807 NIL
AAXX 03004 71808 NIL
AAXX 03004 71809 12574 22504 11029 21052 30241 40269 52014 60001 82501 333 10016 21036 70004
AAXX 03004 71810 16/// /2903 11045 21087 30205 40273 53018 60001 333 11016 21048 7////
AAXX 03004 71811 NIL
AAXX 03004 71813 NIL
AAXX 03004 71814 16/// /3004 11076 21089 30253 40263 51015 60001 333 11025 21112 70000
AAXX 03004 71815 12574 30104 11007 21047 30239 40270 51012 60001 83500 333 10027 21014 70000
AAXX 03004 71603 12974 70000 11002 21019 30225 40279 51012 60001 87100 333 10055 21014 70000
AAXX 03004 71607 16/// /2901 11002 21023 30246 40279 51016 60001 333 10042 21069 70000
AAXX 03004 71609 12774 60000 11019 21044 30144 40282 52014 60001 84571 333 10029 21058 70000
AAXX 03004 71610 17366 83007 10002 21003 39982 40285 53032 69931 7004/ 333 10010 21061 70003
AAXX 03004 71621 NIL
AAXX 03004 71623 NIL
AAXX 03004 71624 12974 00602 10001 21023 30115 40332 51022 60001 333 10050 21002 70014
AAXX 03004 71625 16564 83304 11057 21113 30175 40341 51031 60001 333 11016 21057 70010
AAXX 03004 71627 NIL
AAXX 03004 71628 11574 73212 11032 21073 30193 40338 53045 69901 70277 87500 333 10006 21034 42002 70038 90953
AAXX 03004 71630 NIL
AAXX 03004 71631 16/// /2401 11045 21051 39815 40330 53018 60001 333 10003 21045 70029
AAXX 03004 71633 12574 51404 11024 21045 30048 40327 51014 60001 85500 333 10010 21025 70022
AAXX 03004 71705 12774 70203 11003 21053 30187 40277 51013 60001 87500 333 10025 21055 70000
AAXX 03004 71706 12874 73502 11001 21022 30218 40280 51008 60001 87070 333 10039 21005 70000
AAXX 03004 71707 12574 33305 10000 21032 30199 40277 52015 60001 82570 333 10037 21024 79999
AAXX 03004 71709 12574 82304 10009 21037 30265 40279 52012 60001 885// 333 10026 21001 70000
AAXX 03004 71711 NIL
AAXX 03004 71714 17/// /0701 11039 21044 30206 40301 51034 69971 7//4/ 333 11009 7////
AAXX 03004 71715 17/// /3609 11031 21037 30100 40287 53033 60021 7//4/ 333 11022 21061 70031 555 10030
AAXX 03004 71718 NIL
AAXX 03004 71719 NIL
AAXX 03001 01441 16/// /1707 11027 21046 38926 49906 58048 60001 333 91110
AAXX 03001 01199 16/// /2904 11032 21047 39320 49778 53029 6//// 333 91113
AAXX 03004 61017 NIL
AAXX 03004 61024 NIL
AAXX 03004 61036 32960 70000 10206 20055 39892 40128 80008 333 0//00 59001 87280
AAXX 03004 61043 32960 70610 10217 21060 39696 40131 80008 333 0//00 59005 87280
AAXX 03004 61045 NIL
AAXX 03004 61049 31956 70804 10194 20020 39808 40125 7062/ 80008 333 0//00 59008 87280
AAXX 03004 61052 32960 23604 10214 20026 39873 40127 80002 333 0//00 59005 82080
AAXX 03004 61075 32960 31004 10220 20024 39825 40131 80002 333 0//00 58003 83080
AAXX 03004 61080 NIL
AAXX 03004 61090 32960 53604 10195 20025 39630 40138 80002 333 0//00 59004 85080
AAXX 03004 61091 NIL
AAXX 03004 61096 32965 70404 10186 21010 39754 40133 80008 333 0//00 59004 87280
AAXX 03004 61099 32960 70210 10225 20030 39886 40112 80008 333 0//00 58003 87280
AAXX 03004 06030 02560 32012 10036 20020 39988 40004 57027 6///1 82501 333 6///7 82629
AAXX 03004 06060 01562 31809 10036 20030 39949 40014 57026 60021 78088 83900 333 60027 81925 83635 91021 91121
AAXX 03004 06070 05682 12209 10049 20021 30002 40032 57022 6///1 333 6///7 81/43
AAXX 03004 06120 36682 51910 10044 20037 30024 40050 57017 333 81/39 85/50
AAXX 03004 06180 02375 32315 10052 20042 30053 40059 57013 6///1 81601 333 6///7 81709 83075
AAXX 03004 06193 05466 72521 10064 20041 30064 40075 54000 6///1 333 55300 20000 6///7 81/16 87/72
AAXX 03001 13168 32697 33601 10035 20024 30096 40205 57001 83500
AAXX 03001 13174 31696 83601 10020 20011 30108 40209 52008 71022 885//
AAXX 03001 13269 31594 80000 10027 20018 30009 40229 54000 71022 886//
AAXX 03001 13274 32697 72002 10107 20045 30051 40211 58001 87500
AAXX 03001 13278 31696 80000 10066 20022 30006 40234 56001 71022 885//
AAXX 03001 13378 32998 01902 11015 21019 38315 48536 50000
AAXX 03001 13397 32998 01303 11020 21033 39711 40273 54000
AAXX 03001 13457 32965 00000 10049 20045 30240 40248 58004
AAXX 03001 13481 NIL
AAXX 03004 71350 16/// /0000 10002 21024 30206 40273 51011 60001 333 10039 21004 70000
AAXX 03004 71351 NIL
AAXX 03004 71352 16/// /2602 11019 21028 39864 40331 53019 60001 333 10022 21019 70006
AAXX 03004 71353 NIL
AAXX 03004 71354 NIL
AAXX 03004 71355 NIL
AAXX 03004 71356 16/// /3413 11275 21303 30051 40121 53010 60001 333 11264 21284 70000
AAXX 03004 71357 NIL
AAXX 03004 71358 16/// /2604 11202 21234 39976 40011 51012 60001 333 11162 21202 70000
AAXX 03004 71359 NIL
AAXX 03004 71360 NIL
AAXX 03004 71361 NIL
AAXX 03004 71362 NIL
AAXX 03004 71363 NIL
AAXX 03004 71364 NIL
AAXX 03004 71365 NIL
AAXX 03004 71368 15966 02502 11035 21043 39934 40335 53020 60001 333 10038 21035 70008
AAXX 03004 71369 15966 02813 11031 21083 39493 40207 52001 60001 333 10015 21037 70000
AAXX 03004 71370 46/// /3507 11014 21051 30153 40293 51041 6///1 333 11001 21029 7////
AAXX 03004 71371 15566 83407 10011 21022 30265 40300 51040 60001 333 10033 21018 70000
AAXX 03004 71372 NIL
AAXX 03004 71373 NIL
AAXX 03004 71374 NIL
AAXX 03004 71375 NIL
AAXX 03004 71376 16/// /3102 11046 21065 30019 40322 53039 60001 333 10004 21047 70040
AAXX 03004 71377 16/// /2908 11004 21041 30254 40303 51040 60001 333 10037 21007 70006
AAXX 03004 71378 16/// /3606 11046 21084 30097 40312 51041 60001 333 11011 21053 70020 555 10030
AAXX 03004 71379 NIL
AAXX 03004 71380 NIL
AAXX 03004 71381 NIL
AAXX 03004 71382 NIL
AAXX 03004 71383 NIL
AAXX 03004 71384 NIL
AAXX 03004 71385 NIL
AAXX 03004 71386 NIL
AAXX 03004 71387 NIL
AAXX 03004 71388 NIL
AAXX 03004 71389 NIL
AAXX 03004 71390 46/// /3108 11056 6///1 333 11047 21078 7////
AAXX 03004 71391 16/// ///// 11037 21076 60001 333 11002 21037 70056
AAXX 03004 71392 17/// /2202 11022 21027 60021 7//4/ 333 11011 21031 70044
AAXX 03004 71393 NIL
AAXX 03004 71395 12974 62003 11015 21021 30098 40281 51017 60001 80004 333 10037 21018 79999
AAXX 03004 71398 15966 01911 11084 21126 30218 40230 56013 60001 333 11077 21198 70000
AAXX 03004 71399 NIL
AAXX 03001 15501 11915 80000 11007 21012 30178 40224 58002 60001 71011 8807/ 333 10003 21020 555 596//
AAXX 03001 15511 11950 02301 11018 21023 30201 40242 53002 60001 71000 333 10008 21018 555 596//
AAXX 03001 15514 11911 00000 11004 21007 30185 40222 57005 60001 71041 333 10016 21012 555 598// 92601
AAXX 03001 15530 11925 00000 11018 21044 39996 40245 57007 60001 71000 333 10028 21018 555 583//
AAXX 03001 15533 11/04 90000 11017 21028 30168 40201 56003 60001 74541 333 10001 21019 555 591// 92600
AAXX 03001 15550 12965 00000 10009 21005 30199 40219 58005 60001 333 10027 20006 555 590//
AAXX 03001 15561 12970 02304 10064 20040 30216 40223 57008 60001 222// 2//01 333 10090 20060 555 585// 92024 92428
AAXX 03001 15600 11980 03220 10004 21016 38340 48540 54000 60001 70200 333 10006 20001 91128 555 586//
AAXX 03001 15601 11950 00000 11043 21046 39619 40270 51001 60001 71000 333 10010 21044 555 598//
AAXX 03001 15605 12968 00000 11056 21056 39389 40278 57003 60001 333 11010 21058 555 500//
AAXX 03001 15613 11989 02704 10000 21048 37756 47113 51002 60001 70200 333 10000 21008 555 570//
AAXX 03001 15628 11958 00000 11022 21038 39987 40256 58007 60001 71000 333 11005 21038 555 589//
AAXX 03001 15642 12970 00000 11022 21025 30066 40242 54000 60001 333 10048 21024 555 598//
AAXX 03001 15661 12970 02302 10034 20013 30207 40244 54000 60001 222// 20000 333 10072 20024 555 586// 92012 92418
AAXX 03001 15726 11982 03002 10046 21081 38298 48556 58002 60001 70200 333 10047 20028 555 539//
AAXX 03004 71401 16/// /3112 10035 21105 39582 40279 53013 60001 333 10052 21037 70000
AAXX 03004 71402 NIL
AAXX 03004 71404 NIL
AAXX 03004 71405 NIL
AAXX 03004 71406 NIL
AAXX 03004 71407 NIL
AAXX 03004 71408 NIL
AAXX 03004 71409 NIL
AAXX 03004 71410 15566 82207 10005 21016 39679 49955 52011 60001 333 10006 21046 70003
AAXX 03004 71413 NIL
AAXX 03004 71414 NIL
AAXX 03004 71415 NIL
AAXX 03004 71417 NIL
AAXX 03004 71418 NIL
AAXX 03004 71419 46/// /3510 10028 21016 30266 40276 52015 6///1 333 10049 20026 7////
AAXX 03004 71423 NIL
AAXX 03004 71424 46/// /0311 6///1 333 7////
AAXX 03004 71425 16/// /3009 11028 21071 30252 40289 53018 60001 333 11010 21031 70000
AAXX 03004 71426 NIL
AAXX 03004 71427 NIL
AAXX 03004 71428 NIL
AAXX 03004 71429 NIL
AAXX 03004 71434 NIL
AAXX 03004 71436 15966 03204 11024 21046 30099 40341 51033 60001 333 10027 21027 70005
AAXX 03004 71437 46/// /3203 10031 21037 30232 40329 51023 6///1 333 10048 20018 7////
AAXX 03004 71438 NIL
AAXX 03004 71439 NIL
AAXX 03004 71440 NIL
AAXX 03004 71442 NIL
AAXX 03004 71445 NIL
AAXX 03004 71446 17/// /3228 11039 21050 39141 40125 53027 69931 7//4/ 333 10001 21039 70003
AAXX 03004 71448 NIL
AAXX 03004 71449 NIL
AAXX 03001 13173 32697 10901 10050 20028 30108 40210 53003 81500
AAXX 03001 13180 32697 82004 10076 20033 30099 40210 54000 885//
AAXX 03001 13266 32998 03101 10052 20041 30108 40211 58002
AAXX 03001 13369 32997 00000 11047 21053 39038 48498 56002
AAXX 03001 13383 31994 00000 11028 21033 30039 40252 52003 71000
AAXX 03001 13384 32697 71101 10028 20009 30083 40239 58001 87500
AAXX 03001 13389 31995 00000 11040 21044 39967 40264 51004 71000
AAXX 03001 13477 NIL
AAXX 03004 07761 02570 10308 10102 20058 30192 40203 50001 60001 81200 333 60007 81826 90710 91113 93100 555 60005
AAXX 03004 60020 NIL
AAXX 03004 60030 02560 33612 10194 20153 30199 40255 51007 60001 83800 333 60007 924/6
AAXX 03004 60040 06/// /3607 10172 20127 30239 40264 50002 60001 333 60007
AAXX 03004 60338 NIL
AAXX 03004 68298 36/// /2004 1//// 2//// 39489 4//// 57005 333 1//// 2//// 91008 555 91015
AAXX 03004 71150 46/// /2610 11007 21035 39363 40041 51028 6///1 333 10013 21057 7////
AAXX 03004 71151 NIL
AAXX 03004 71152 16/// /3603 10008 21023 30246 40259 53016 60001 333 10065 20008 70000
AAXX 03004 71153 16/// /3503 11009 21095 60001 333 10019 21024 70000
AAXX 03004 71154 16/// /0304 11007 21114 60001 333 10022 21028 70000
AAXX 03004 71155 NIL
AAXX 03004 71156 NIL
AAXX 03004 71157 NIL
AAXX 03004 71158 NIL
AAXX 03004 71159 NIL
AAXX 03004 71160 NIL
AAXX 03004 71161 NIL
AAXX 03004 71162 NIL
AAXX 03004 71163 46/// /1001 11147 21159 39796 40149 56006 6///1 333 11145 21211 7////
AAXX 03004 71164 NIL
AAXX 03004 71165 NIL
AAXX 03004 71166 NIL
AAXX 03004 71167 15866 33305 11026 21076 39119 40233 54000 60001 333 10004 21036 70000
AAXX 03004 71168 16/// /0000 11025 21129 39576 40186 56019 60001 333 10010 21149 70000
AAXX 03004 71170 16/// /2712 10010 21022 60001 333 10026 21037 70000
AAXX 03004 71171 16/// /0404 10023 21015 30227 40326 51027 60001 333 10050 20019 70013
AAXX 03004 71172 17/// ///// 11056 21071 30099 40323 51014 69931 7//4/ 333 11014 21057 70020
AAXX 03004 71175 NIL
AAXX 03004 71176 460// /2535 11095 39379 40066 51021 6///1 333 11083 21101 7////
AAXX 03004 71177 460// /3507 11134 39113 40142 51019 6///1 333 11114 21158 7////
AAXX 03004 71178 16/// /0106 10012 21031 30220 40252 51012 60001 333 10022 20008 70048
AAXX 03004 71179 460// /2018 11168 39354 40212 53019 6///1 333 11141 21168 7////
AAXX 03004 71180 46/// /0307 11008 21043 30234 40274 50012 6///1 333 10026 21021 7////
AAXX 03004 71181 17564 80000 10020 21002 30200 40237 60001 743// 333 10050 20017 70065
AAXX 03004 71183 16/// /3009 30260 51040 60001 333 70000
AAXX 03004 71184 46/// /3409 10012 21023 6///1 333 10027 21009 7////
AAXX 03004 71186 NIL
AAXX 03004 71187 15561 61601 10006 20006 30279 40328 53001 60001 333 10046 21001 70000
AAXX 03004 71189 NIL
AAXX 03004 71190 NIL
AAXX 03004 71191 16/// ///// 10012 21021 60001 333 10032 21033 70000
AAXX 03004 71192 17558 80304 11005 21027 39637 40316 55005 60001 771// 333 11003 21110 70000
AAXX 03004 71193 16/// /1808 11103 21161 39909 40292 56004 60001 333 11078 21231 70004
AAXX 03004 71196 16/// /3002 11054 21072 30135 40340 53032 60001 333 11020 21055 70003
AAXX 03004 71197 16964 00304 11017 21046 30223 40273 51016 60001 333 10033 21026 70000
AAXX 03004 71198 46/// /3415 10005 21045 6///1 333 10017 21004 7////
AAXX 03004 71199 46/// /0802 11034 21049 39337 40184 56013 6///1 333 11017 21117 7////
AAXX 03004 71700 15966 81902 11009 21033 30253 40280 51015 60001 333 10015 21075 70000
AAXX 03004 71701 12874 80000 11010 21043 30216 40280 51016 60001 8807/ 333 10013 21071 70000
AAXX 03004 71702 16/// /3603 11002 21032 30257 40272 53011 60001 333 10032 21011 70000
AAXX 03004 71703 NIL
AAXX 03004 71704 15966 01503 11024 21043 30114 40343 53016 60001 333 10009 21026 70010
AAXX 03004 71710 16/// /2304 10004 21041 30264 40274 52011 60001 333 10018 21005 70000
AAXX 03004 71712 17/// /3108 11003 21041 30253 40315 51042 60011 7//4/ 333 10047 21013 70012
AAXX 03004 71713 17/// /0409 11017 21025 60031 7//4/ 333 11005 21023 70026
AAXX 03004 71716 NIL
AAXX 03004 71717 NIL
AAXX 03004 71720 16/// /3402 10045 20006 30176 40333 55003 60001 333 10066 21018 70000
AAXX 03004 71721 16/// /3302 11055 21085 30078 40332 51036 60001 333 11009 21055 70050
AAXX 03004 71723 17/// /3606 11001 21034 30287 40297 52041 60011 7//4/ 333 10009 21016 70031
AAXX 03004 71724 NIL
AAXX 03004 71732 16/// /1601 11094 21100 60001 333 11052 21095 70024
AAXX 03004 71733 16/// /1606 11122 21153 39877 40331 53011 60001 333 11065 21126 70000
AAXX 03004 71734 NIL
AAXX 03004 71736 NIL
AAXX 03004 71737 NIL
AAXX 03004 71741 16/// /3301 10028 21076 39879 40310 55001 60001 333 10070 21064 70000
AAXX 03004 71742 NIL
AAXX 03004 71743 NIL
AAXX 03004 71744 NIL
AAXX 03004 71745 NIL
AAXX 03004 71746 NIL
AAXX 03004 71747 NIL
AAXX 03004 71748 NIL
AAXX 03004 71102 NIL
AAXX 03004 71105 NIL
AAXX 03004 71107 NIL
AAXX 03004 71110 NIL
AAXX 03004 71111 16966 82407 10080 20029 30350 40358 56001 60001 333 10077 20044 70000
AAXX 03004 71112 16/// ///// 60001 333 70000
AAXX 03004 71113 16/// /2903 10050 20010 30295 40319 56006 60001 333 10077 20018 70000
AAXX 03004 71115 16/// /3202 10017 21061 39705 40296 53003 60001 333 10065 21046 70000
AAXX 03004 71116 16/// /3227 11023 21062 39091 40198 53024 60001 333 10022 21023 70000
AAXX 03004 71118 16/// /3317 11051 21102 39350 40187 51041 60001 333 10007 21052 70000
AAXX 03004 71121 16964 03206 11052 21124 39378 40214 51019 60001 333 10011 21052 70000
AAXX 03004 71127 16/// /3108 11027 21079 39290 40212 51014 60001 333 10011 21028 70000
AAXX 03004 71130 17558 82920 11029 21067 39590 40046 53052 60001 771// 333 10030 21029 70000
AAXX 03004 71132 15566 83206 11175 21209 39832 40155 51038 60001 333 11100 21179 70018
AAXX 03004 71133 NIL
AAXX 03004 71134 NIL
AAXX 03004 71139 17/// /3313 11063 21075 38678 40154 53019 60011 7//4/ 333 11027 21063 70080
AAXX 03004 71141 NIL
AAXX 03004 71142 17306 83126 11038 21039 39155 40130 53029 60001 772// 333 10003 21038 70013
AAXX 03004 71143 NIL
AAXX 03004 71144 NIL
AAXX 03004 71147 NIL
AAXX 03004 71149 NIL
AAXX 03004 71550 NIL
AAXX 03004 71551 NIL
AAXX 03004 71552 46/// /2117 10006 21044 6///1 333 10006 21047 7////
AAXX 03004 71553 17/// /2714 10000 21028 69961 7//4/ 333 10010 21045 70027
AAXX 03004 71554 NIL
AAXX 03004 71555 16/// /3408 11028 21113 38645 40233 53023 60001 333 10017 21041 70000
AAXX 03004 71556 NIL
AAXX 03004 71557 46/// /2401 10020 21082 6///1 333 10064 21069 7////
AAXX 03004 71558 46/// ///// 11051 21088 30206 40243 53016 6///1 333 11022 21081 7////
AAXX 03004 71559 47/// /2713 11011 21044 39390 40093 51022 6///1 7//4/ 333 10043 21033 7////
AAXX 03004 71560 16/// /1914 10005 21051 39756 40055 52012 60001 333 10016 21056 70000
AAXX 03004 71563 NIL
AAXX 03004 71564 NIL
AAXX 03004 71565 NIL
AAXX 03004 71566 NIL
AAXX 03004 71567 NIL
AAXX 03004 71568 16/// /3030 10073 20029 30317 40330 58006 60001 333 10076 20049 70030
AAXX 03004 71569 16/// /2716 10000 21018 39368 40067 51014 60001 333 10010 21009 70000
AAXX 03004 71570 16/// /2009 10002 21072 39729 40040 53004 60001 333 10004 21058 70000
AAXX 03004 71571 NIL
AAXX 03004 71572 NIL
AAXX 03004 71573 16/// /2501 11019 21034 30041 40331 53020 60001 333 10035 21021 70011
AAXX 03004 71574 11548 80000 11019 21030 30208 40283 52019 69901 77122 885// 333 10004 21072 47997 79999 90921
AAXX 03004 71575 NIL
AAXX 03004 71576 16/// /1804 11229 21256 39926 40013 51009 60001 333 11223 21246 70000
AAXX 03004 71577 NIL
AAXX 03004 71578 17/// /3202 11018 21027 60021 7//4/ 333 11008 21029 70046
AAXX 03004 71579 NIL
AAXX 03004 71580 11874 63114 11267 21308 30028 40065 52005 69901 77672 86030 333 11232 21312 48034 70006 90931
AAXX 03004 71581 NIL
AAXX 03004 71582 15664 60501 10043 30314 58009 60001 333 10050 21007 70008
AAXX 03004 71583 NIL
AAXX 03004 71584 15966 03104 11059 21094 30224 40273 53018 60001 333 11029 21111 70000
AAXX 03004 71585 16/// /3010 11085 21127 39721 40184 53024 60001 333 10018 21088 7////
AAXX 03004 71586 16/// /3310 11089 21119 39629 40097 51073 60001 333 10023 21090 70000
AAXX 03004 71587 NIL
AAXX 03004 71588 16/// /2902 11017 21058 60001 333 11003 21050 70000
AAXX 03004 71589 16/// /1902 11006 21027 30117 40252 53008 60001 333 10018 21007 70012
AAXX 03004 71590 17/// /0000 11027 21036 30078 40275 53022 60021 7//4/ 333 11019 21100 70016
AAXX 03004 71592 NIL
AAXX 03004 71593 NIL
AAXX 03004 71596 NIL
AAXX 03004 71598 16/64 /2303 11011 21073 30276 40282 53018 60001 333 10004 21036 70000
AAXX 03004 71599 16/// /0000 11011 21023 30076 40283 51017 60001 333 10057 21020 70000
AAXX 03004 71900 46/// /25// 11097 21141 30204 40217 51014 6///1 333 11069 21101 7////
AAXX 03004 71903 NIL
AAXX 03004 71904 NIL
AAXX 03004 71914 16/// /0000 10030 20002 30101 40327 56007 60001 333 10045 20021 70000
AAXX 03004 71916 NIL
AAXX 03004 71918 460// ///// 11278 6///1 333 7////
AAXX 03004 71920 NIL
AAXX 03004 71921 NIL
AAXX 03004 71923 NIL
AAXX 03004 71927 16/// /0301 10059 20014 30268 40327 55000 60001 333 10080 21019 70000
AAXX 03004 71941 15966 01703 11148 21172 39888 40327 50011 60001 333 11084 21159 70000
AAXX 03004 71947 15966 01905 11141 21190 39948 40316 52010 60001 333 11095 21228 70000
AAXX 03004 71812 46348 83615 11190 21221 30076 40090 53011 6///1 333 11155 21254 7////
AAXX 03004 71819 15566 83012 11050 21086 30209 40252 53016 60001 333 11024 21082 70000
AAXX 03004 71820 17/// /0105 11005 21039 30217 40334 51041 69941 7//4/ 333 10049 21005 70031
AAXX 03004 71823 16564 82112 11127 21154 39877 40274 51018 60001 333 11127 21148 70000
AAXX 03004 71824 NIL
AAXX 03004 71826 16/// /2006 11120 21155 39963 40005 52022 60001 333 11101 21125 70003
AAXX 03004 71829 16/// /2806 11074 21095 30122 40289 51019 60001 333 11057 7////
AAXX 03004 71833 NIL
AAXX 03004 71835 16/// /1914 11023 21087 39581 40064 58013 60001 333 11023 21177 70000
AAXX 03004 71837 NIL
AAXX 03004 71839 NIL
AAXX 03004 71840 NIL
AAXX 03004 71846 16/// /2013 11022 21085 39766 40085 56011 60001 333 11022 21199 70000
AAXX 03004 71847 NIL
AAXX 03004 71848 NIL
AAXX 03004 71849 16/// /1913 10010 21037 39745 40040 53010 60001 333 10012 21048 70000
AAXX 03004 71744 NIL
AAXX 03004 71750 NIL
AAXX 03004 71751 NIL
AAXX 03004 71752 NIL
AAXX 03004 71753 16/// /0201 11018 21027 30242 40272 53016 60001 333 10065 21020 70000
AAXX 03004 71754 16/// /3322 11059 21098 39470 40140 51054 60001 333 10024 21059 70000
AAXX 03004 71755 43/// /2110 11022 21039 39654 49998 57007 6///1 333 11021 21157 7////
AAXX 03004 71756 16/// /0601 11037 21045 39195 40317 55001 60001 333 10007 21062 70000
AAXX 03004 71758 NIL
AAXX 03004 71760 NIL
AAXX 03004 71761 NIL
AAXX 03004 71762 NIL
AAXX 03004 71763 NIL
AAXX 03004 71765 16/// /0203 30040 55002 60001 333 70000
AAXX 03004 71766 16/// /2602 10045 20016 30252 40325 55004 60001 333 10072 20022 70000
AAXX 03004 71767 16/// /2102 11026 21055 30059 40328 52015 60001 333 10000 21031 70005
AAXX 03004 71768 46/// /3108 10046 21087 39742 40300 55001 6///1 333 10072 21029 7////
AAXX 03004 71769 16/// /2713 10064 20024 30299 40315 57008 60001 333 10065 20045 70000
AAXX 03004 71770 NIL
AAXX 03004 71771 NIL
AAXX 03004 71772 16/// /3114 10068 20029 30308 40314 56007 60001 333 10070 20047 70000
AAXX 03004 71773 16/// /1102 10001 21036 39287 40143 58005 60001 333 10022 21078 70000
AAXX 03004 71774 NIL
AAXX 03004 71775 17/// /2401 10053 20007 30321 40327 55006 60021 7//4/ 333 10075 21003 70062
AAXX 03004 71776 46/// /1604 10012 21052 39624 40278 53014 6///1 333 10061 21014 7////
AAXX 03004 71777 16/// ///// 11057 21062 30078 40339 55002 60001 333 11036 21063 70000
AAXX 03004 71778 46/// /0611 6///1 333 7////
AAXX 03004 71779 16/// /0402 11002 21023 39634 40312 55004 60001 333 11002 21114 7//// 555 10010
AAXX 03004 71780 NIL
AAXX 03004 71781 46/// /2908 10064 20018 30296 40321 58005 6///1 333 10073 20049 7////
AAXX 03004 71782 46/// /0000 11034 21091 38897 40246 53019 6///1 333 10026 21056 7////
AAXX 03004 71783 17/// /0203 10052 20012 30251 40326 55000 69921 7//4/ 333 10073 21006 70002
AAXX 03004 71784 16/// /0000 10037 20002 30109 40318 55006 60001 333 10073 20005 70000
AAXX 03004 71785 16/// /2401 10058 20014 30317 40333 55005 60001 333 10084 20025 70000
AAXX 03004 71786 46/// /2406 11074 21086 38401 40274 53010 6///1 333 11018 21088 7////
AAXX 03004 71787 16/// /3303 11017 21036 39772 40272 51014 60001 333 10025 21072 70012
AAXX 03004 71788 NIL
AAXX 03004 71789 NIL
AAXX 03004 71791 NIL
AAXX 03004 71792 NIL
AAXX 03004 71793 NIL
AAXX 03004 71794 NIL
AAXX 03004 71795 NIL
AAXX 03004 71796 NIL
AAXX 03004 71797 NIL
AAXX 03004 71500 NIL
AAXX 03004 71501 NIL
AAXX 03004 71502 NIL
AAXX 03004 71503 NIL
AAXX 03004 71504 NIL
AAXX 03004 71505 NIL
AAXX 03004 71506 NIL
AAXX 03004 71507 16/// /2505 11081 21097 60001 333 11029 21112 70000
AAXX 03004 71508 16/// ///// 10016 21013 30197 40338 51027 60001 333 10050 20014 70017
AAXX 03004 71509 NIL
AAXX 03004 71511 16/// /3321 11017 21050 39435 40070 53036 60001 333 10034 21017 70000
AAXX 03004 71512 NIL
AAXX 03004 71513 15966 00502 11061 21084 30250 40266 51009 60001 333 11035 21098 70000
AAXX 03004 71514 NIL
AAXX 03004 71515 16/// /2814 10000 21024 39363 40062 51016 60001 333 10013 21020 70015
AAXX 03004 71516 16/// /2919 11012 21045 60001 333 10012 21048 70006
AAXX 03004 71517 NIL
AAXX 03004 71518 NIL
AAXX 03004 71519 NIL
AAXX 03004 71520 NIL
AAXX 03004 71521 NIL
AAXX 03004 71522 NIL
AAXX 03004 71523 NIL
AAXX 03004 71524 17/// /3308 11001 21034 30282 40309 51041 60011 7//4/ 333 10013 21015 70030
AAXX 03004 71525 NIL
AAXX 03004 71526 NIL
AAXX 03004 71527 15966 02016 11020 21089 39576 40086 56006 60001 333 11014 21087 70000
AAXX 03004 71528 NIL
AAXX 03004 71529 46/// /03// 11164 21185 39926 40160 56002 6///1 333 11135 21168 7////
AAXX 03004 71532 15106 11602 11078 21078 39976 40333 51019 60001 333 11009 21079
AAXX 03004 71534 17933 00505 11030 21039 30048 40327 51015 69951 7//44 333 10004 21043 70040
AAXX 03004 71535 NIL
AAXX 03004 71536 NIL
AAXX 03004 71537 NIL
AAXX 03004 71539 NIL
AAXX 03004 71540 NIL
AAXX 03004 71541 NIL
AAXX 03004 71542 16/// /0000 11113 21138 60001 333 11074 21113 70000
AAXX 03004 71543 NIL
AAXX 03004 71544 NIL
AAXX 03004 71545 16/// ///// 11055 21107 60001 333 10008 21058 70000
AAXX 03004 71546 NIL
AAXX 03004 71547 NIL
AAXX 03004 71548 NIL
AAXX 03004 71549 NIL
AAXX 03004 71665 16/// /2816 11098 21154 30190 40200 51019 60001 333 11082 21103 70000
AAXX 03004 71666 16/// /1403 11006 21036 30229 40275 51014 60001 333 10018 21046 70000
AAXX 03004 71667 NIL
AAXX 03004 71668 16/// /1602 11006 21036 30232 40277 51016 60001 333 10016 21051 70000
AAXX 03004 71669 NIL
AAXX 03004 71670 16/// ///// 11012 21043 60001 333 10014 21060 70000
AAXX 03004 71671 NIL
AAXX 03004 71672 16/// /3301 11027 21066 30064 40336 51033 60001 333 10032 21027 70000
AAXX 03004 71673 NIL
AAXX 03004 71674 NIL
AAXX 03004 71675 17320 82015 11029 21035 39732 40013 56010 60041 77144 333 11027 21165 70214
AAXX 03004 71679 16/// /0203 10013 21030 39258 40288 56010 60001 333 10023 21013 70000
AAXX 03004 71680 NIL
AAXX 03004 71681 46/// /1804 10030 21040 6///1 333 10066 21062 7////
AAXX 03004 71682 NIL
AAXX 03004 71683 NIL
AAXX 03004 71684 15966 01506 11110 21144 30008 40325 53008 60001 333 11064 21148 70000
AAXX 03004 71685 15866 60309 10024 21043 39749 40298 53008 60001 333 10030 21023 70008
AAXX 03004 71686 NIL
AAXX 03004 71687 16/// /0000 11021 21043 39517 40319 53001 60001 333 10021 21051 70000
AAXX 03004 71688 16/// /0801 11031 21036 39248 40309 55002 60001 333 10013 21080 70000
AAXX 03004 71689 15966 02910 11086 21131 39729 40191 53024 60001 333 10018 21087 70000
AAXX 03004 71690 NIL
AAXX 03004 71691 15666 80203 11051 21078 30268 40296 51022 60001 333 11047 21103 70000
AAXX 03004 71692 NIL
AAXX 03004 71694 16/// /0000 11073 21078 39968 40344 51017 60001 333 11011 21074 70038
AAXX 03004 71695 16/// /3317 11030 21046 39661 49992 53046 60001 333 10028 21045 70000
AAXX 03004 71696 17/// /1004 11075 21083 39949 49986 55002 60021 7//4/ 333 11053 21251 70024
AAXX 03004 71697 15966 00301 11014 21024 30161 40337 51030 60001 333 10030 21015 70005
AAXX 03004 71699 16/// /3503 11006 21034 30270 40278 52014 60001 333 10041 21048 70000
AAXX 03004 71450 NIL
AAXX 03004 71451 NIL
AAXX 03004 71452 46/// /2811 10003 21037 39375 40086 51016 6///1 333 10030 21016 7////
AAXX 03004 71453 NIL
AAXX 03004 71454 NIL
AAXX 03004 71455 NIL
AAXX 03004 71456 16/// /3117 11056 21082 39465 40063 53051 60001 333 10014 21056 70000
AAXX 03004 71457 16/// /3414 11022 21057 39291 40191 51030 60001 333 10019 21023 70000
AAXX 03004 71458 16/// /3113 11048 21107 39418 40198 51037 60001 333 10015 21049 70000
AAXX 03004 71459 16/// /3223 11026 21080 39345 40159 53042 60001 333 10026 21027 70000
AAXX 03004 71460 16/// /2107 11025 21073 30083 40333 53014 60001 333 11023 21057 70000
AAXX 03004 71461 NIL
AAXX 03004 71462 NIL
AAXX 03004 71463 46/// /3204 10024 21052 30112 40341 51026 6///1 333 10039 20008 7////
AAXX 03004 71464 NIL
AAXX 03004 71465 NIL
AAXX 03004 71466 NIL
AAXX 03004 71468 NIL
AAXX 03004 71470 NIL
AAXX 03004 71471 15966 62207 10004 21091 39411 40209 56015 60001 333 10026 21026 70000
AAXX 03004 71473 16/// /3203 10025 21006 30295 40326 56004 60001 333 10043 20023 70000
AAXX 03004 71475 16/// /0402 10016 20010 30244 40340 55002 60001 333 10019 21008 70002
AAXX 03004 71476 NIL
AAXX 03004 71477 16/// /2308 10062 20043 60001 333 10064 20042 70004
AAXX 03004 71478 NIL
AAXX 03004 71479 NIL
AAXX 03004 71480 NIL
AAXX 03004 71481 NIL
AAXX 03004 71482 NIL
AAXX 03004 71483 NIL
AAXX 03004 71484 NIL
AAXX 03004 71485 16/// /3213 10069 20031 30345 40366 56009 60001 333 10071 20051 70044
AAXX 03004 71486 16/// /1905 11011 21091 39034 40255 53004 60001 333 10010 21041 70000
AAXX 03004 71487 16/// /2921 11012 21038 39237 40106 53018 60001 333 10005 21014 70011
AAXX 03004 71489 NIL
AAXX 03004 71490 NIL
AAXX 03004 71491 16/// /1101 11199 21221 60001 333 11060 21320 70000
AAXX 03004 71492 NIL
AAXX 03004 71493 16/// /3001 11008 21017 30232 40271 52013 60001 333 10048 21022 70000
AAXX 03004 71494 NIL
AAXX 03004 71495 NIL
AAXX 03004 71496 16/// /3521 11042 21092 39485 40097 53055 60001 333 10040 21042 70000
AAXX 03004 71497 46/// /0000 11069 21088 39873 40142 56021 6///1 333 11058 21140 7////
AAXX 03004 71498 NIL
AAXX 03004 71499 17348 63211 11141 21161 39480 40118 53047 60001 771// 333 11028 21141 70000
AAXX 03004 71851 NIL
AAXX 03004 71857 NIL
AAXX 03004 71860 11682 73410 11030 21107 38815 40244 53024 60001 71511 85530 333 10003 21056 70000
AAXX 03004 71876 17566 83220 11053 21082 39473 40143 51054 60001 771// 333 10025 21053 70000
AAXX 03004 71885 NIL
AAXX 03004 71888 NIL
AAXX 03004 71895 NIL
AAXX 03004 71950 15766 63102 11020 21027 39651 40299 56010 60001 333 11007 21070 70000
AAXX 03004 71952 16/// /3201 11053 21065 39420 40304 56013 60001 333 11029 21170 70000
AAXX 03004 71954 46/// /3517 11082 21112 39648 40025 51079 6///1 333 10025 21082 7////
AAXX 03004 71956 NIL
AAXX 03004 71959 NIL
AAXX 03004 71960 460// /2410 11165 39979 40115 53004 6///1 333 11164 21236 7////
AAXX 03004 71962 16/// /2011 11010 21094 39684 40111 55002 60001 333 11002 21101 70000
AAXX 03004 71963 NIL
AAXX 03004 71967 17/// /3406 10003 20003 30198 40306 51039 60021 7//4/ 333 10036 21021 70027
AAXX 03004 71970 NIL
AAXX 03004 71971 16/// /0101 11260 21303 39969 40016 51010 60001 333 11229 21268 70000
AAXX 03004 71972 460// /2426 11091 39590 40055 51030 6///1 333 11072 21111 7////
AAXX 03004 71973 46/// /0201 11027 21049 30076 40268 51013 6///1 333 10009 21027 7////
AAXX 03004 71974 NIL
AAXX 03004 71975 460// /2612 11135 39271 49999 53018 6///1 333 11114 21135 7////
AAXX 03004 71976 NIL
AAXX 03004 71977 NIL
AAXX 03004 71978 NIL
AAXX 03004 71979 NIL
AAXX 03004 71980 NIL
AAXX 03004 71981 NIL
AAXX 03004 71982 NIL
AAXX 03004 71983 NIL
AAXX 03004 71984 NIL
AAXX 03004 71985 NIL
AAXX 03004 71986 NIL
AAXX 03004 71987 16/// /1905 11013 21052 30262 40272 53010 60001 333 10010 21017 70000
AAXX 03004 71988 NIL
AAXX 03004 71989 NIL
AAXX 03004 71990 NIL
AAXX 03004 71999 46/// ///// 11011 6///1 333 10036 21045 7////
AAXX 03004 71604 16/// /3005 11033 21045 60001 333 11010 21034 70006
AAXX 03004 71605 16/// /3403 10034 20008 30166 40319 57005 60001 333 10076 20008 70000
AAXX 03004 71611 16/// /3209 10010 21005 60001 333 10020 21046 70000
AAXX 03004 71612 16/// /3305 10002 21030 30212 40304 51040 60001 333 10036 21009 70012
AAXX 03004 71614 NIL
AAXX 03004 71616 NIL
AAXX 03004 71617 16/// /2910 11054 21076 30138 40313 51034 60001 333 11030 7////
AAXX 03004 71618 17220 81005 11075 21082 39955 49993 55002 60021 7714/ 333 11052 21249 70018
AAXX 03004 71619 NIL
AAXX 03004 71622 NIL
AAXX 03004 71632 46/// /3613 11151 21176 39595 40042 53055 6///1 333 11091 21151 7//// 555 10040
AAXX 03004 71634 16/// /1001 11023 21037 30128 40286 53017 60001 333 11002 21085 70000
AAXX 03004 71638 16/// /3205 10039 20006 30209 40317 56010 60001 333 10068 21010 70000
AAXX 03004 71639 12974 03603 11007 21038 30083 40331 51021 60001 333 10023 21009 70016
AAXX 03004 71642 11474 51908 11065 21095 39715 40286 58001 69901 70272 85500 333 11047 21198 43001 79999 90931
AAXX 03004 71201 16/// ///// 10054 20004 60001 333 10078 20023 70002
AAXX 03004 71202 16/// ///// 11041 21103 60001 333 10011 21041 70000
AAXX 03004 71203 15966 03406 10010 21071 39768 40302 53003 60001 333 10067 21052 70000
AAXX 03004 71209 46/// /3304 10059 6///1 333 10060 20036 7////
AAXX 03004 71211 17/// /3302 10041 20003 30310 40322 55005 69941 7//4/ 333 10049 20027 70012
AAXX 03004 71212 16/// /3404 11051 21074 39445 40270 52033 60001 333 11032 21090 70034 555 10040
AAXX 03004 71213 46/// /1605 11112 21140 30005 40321 53009 6///1 333 11057 21146 7////
AAXX 03004 71214 NIL
AAXX 03004 71215 46/// /2904 10060 21086 39937 40289 53010 6///1 333 10083 21057 7////
AAXX 03004 71216 16/// /3102 10032 21042 39658 40283 53012 60001 333 10067 21008 70000
AAXX 03004 71217 NIL
AAXX 03004 71218 16/// /2101 10013 21052 39866 40301 53008 60001 333 10070 21046 70000
AAXX 03004 71219 46/// /1212 10044 20030 30346 40352 55002 6///1 333 10072 20040 7////
AAXX 03004 71220 46/// /1320 10040 20033 6///1 333 10067 20036 7////
AAXX 03004 71221 NIL
AAXX 03004 71222 17/// /2602 11024 21030 39255 40236 56014 60011 7//4/ 333 11020 21090 70052 555 10110
AAXX 03004 71223 NIL
AAXX 03004 71224 NIL
AAXX 03004 71225 NIL
AAXX 03004 71226 NIL
AAXX 03004 71227 NIL
AAXX 03004 71228 NIL
AAXX 03004 71229 NIL
AAXX 03004 71230 16/// /2410 11013 21084 39313 40215 58010 60001 333 10020 21019 70000
AAXX 03004 71231 16/// /3215 11018 21068 60001 333 10020 21050 70007
AAXX 03004 71232 16/// /2606 11017 21162 38698 40215 51018 60001 333 10011 21022 70000
AAXX 03004 71233 16/// /2905 11027 21088 60001 333 10008 21027 70000
AAXX 03004 71234 16/// /2808 11041 21113 39025 40236 52023 60001 333 10041 21076 70000
AAXX 03004 71235 16/// /3515 11028 21094 60001 333 10008 21035 70000
AAXX 03004 71236 46/// /2905 11031 21140 6///1 333 10017 21038 7////
AAXX 03004 71237 46/// /3308 11011 21072 39378 40203 53024 6///1 333 10031 21012 7////
AAXX 03004 71238 16/// /3106 11042 21104 60001 333 10005 21042 70000
AAXX 03004 71239 NIL
AAXX 03004 71240 16/// /0000 11039 21093 39317 40174 51047 60001 333 10009 21039 70000
AAXX 03004 71241 NIL
AAXX 03004 71242 16/// /3208 11028 21082 60001 333 10001 21029 70000
AAXX 03004 71243 NIL
AAXX 03004 71244 16/// /3315 11024 21084 38974 40220 53025 60001 333 10022 21057 70003
AAXX 03004 71245 46/// /2712 11110 21192 6///1 333 11085 21119 7////
AAXX 03004 71246 NIL
AAXX 03004 71247 15666 83112 11015 21058 39337 40202 53037 60001 333 10022 21016 70000
AAXX 03004 71248 17/// /3110 11020 21096 38903 40221 51014 69981 7//4/ 333 10007 21021 70008
AAXX 03004 71249 NIL
AAXX 03004 71300 NIL
AAXX 03004 71301 16/// ///// 11104 21161 39889 40307 53004 60001 333 11064 21167 70011
AAXX 03004 71302 16/// /1806 11002 21036 39456 40290 58007 60001 333 10005 21022 70000
AAXX 03004 71303 46/// ///// 10023 21021 6///1 333 10040 20011 7////
AAXX 03004 71305 17466 82807 11125 21144 39890 40196 51021 60001 771// 333 11061 21125 70056
AAXX 03004 71306 17566 82415 11040 21101 30099 40131 53008 60001 771// 333 11041 21060 70000
AAXX 03004 71307 16/// /0502 11021 21032 30089 40347 51022 60001 333 10026 21024 70014
AAXX 03004 71308 16/// /0000 11014 21026 30195 40281 53012 60001 333 10033 21017 70000
AAXX 03004 71309 NIL
AAXX 03004 71310 16/// /1403 11009 21033 30239 40277 51013 60001 333 10028 21017 70000
AAXX 03004 71311 NIL
AAXX 03004 71312 NIL
AAXX 03004 71314 16/// /2701 11051 21060 39967 40330 51024 60001 333 11006 21053 70024
AAXX 03004 71315 16/// /2501 11030 21042 30232 40287 53024 60001 333 11012 21068 70000
AAXX 03004 71316 16/// /3210 11057 21127 39500 40194 52025 60001 333 10004 21058 70000
AAXX 03004 71317 NIL
AAXX 03004 71318 16/// /3322 11041 21106 39227 40185 51037 60001 333 10005 21042 70000 555 10270
AAXX 03004 71319 17/// /0304 11059 21064 39383 40268 52031 69951 7//4/ 333 11041 21076 70035
AAXX 03004 71320 NIL
AAXX 03004 71321 NIL
AAXX 03004 71322 16/// /0114 11189 21205 30077 40090 53011 60001 333 11153 21254 70016
AAXX 03004 71323 NIL
AAXX 03004 71331 17/// /3308 11105 21140 60011 7//4/ 333 10011 21105 70026 555 10030
AAXX 03004 71332 NIL
AAXX 03004 71334 NIL
AAXX 03004 71335 46564 32517 11102 53024 6///1 333 11095 21117 7////
AAXX 03004 71336 46/// ///09 10018 21019 30214 40236 53012 6///1 333 10025 20017 7////
AAXX 03004 71337 46/// /3005 11042 21058 30007 40250 53013 6///1 333 10006 21043 7////
AAXX 03004 71338 46561 82003 11158 21166 30004 40011 52018 6///1 333 11139 21164 7////
AAXX 03004 71339 16964 32705 11080 21126 30232 40247 53016 60001 333 11036 21101 70000
AAXX 03004 71340 NIL
AAXX 03004 71341 NIL
AAXX 03004 71342 NIL
AAXX 03004 71343 NIL
AAXX 03004 71344 NIL
AAXX 03004 71345 NIL
AAXX 03004 71346 NIL
AAXX 03004 71347 NIL
AAXX 03004 71348 NIL
AAXX 03004 71349 NIL
AAXX 03004 71914 46/// /0000 10030 20002 30101 6///1 333 20021 7////
AAXX 03004 71051 NIL
AAXX 03004 71055 NIL
AAXX 03004 71057 NIL
AAXX 03004 71059 460// ///// 11257 30060 40155 51001 6///1 333 11230 21270 7////
AAXX 03004 71061 16/// /2203 11059 21105 39413 40207 51011 60001 333 10012 21059 70000
AAXX 03004 71062 46/// /3010 11015 21077 39122 40204 53009 6///1 333 10005 21018 7////
AAXX 03004 71064 460// /3211 11319 39911 40139 50006 6///1 333 11296 21321 7////
AAXX 03004 71065 NIL
AAXX 03004 71067 NIL
AAXX 03004 71070 NIL
AAXX 03004 71073 NIL
AAXX 03004 71074 NIL
AAXX 03004 71075 NIL
AAXX 03004 71078 17966 13513 11149 21173 39593 40044 52055 60001 771// 333 11092 21149 70023
AAXX 03004 71084 460// ///// 11278 30051 40101 53011 6///1 333 11244 21278 7////
AAXX 03004 71085 15866 83106 11007 21142 38832 40233 53023 60001 333 10025 21049 70000
AAXX 03004 71087 NIL
AAXX 03004 71088 460// /3210 11176 51013 6///1 333 11148 21194 7////
AAXX 03004 71089 NIL
AAXX 03004 71096 460// ///// 11183 39261 40002 51015 6///1 333 11183 21190 7////
AAXX 03004 71097 46964 03112 11133 39548 40025 51025 6///1 333 11108 21133 7////
AAXX 03004 71098 43/// /2205 11016 21058 39637 49995 53001 6///1 333 11011 21107 7////
AAXX 03004 71099 43/// /1511 11089 21110 39999 40020 56031 6///1 333 11089 21252 7////
AAXX 03004 71250 NIL
AAXX 03004 71251 NIL
AAXX 03004 71252 NIL
AAXX 03004 71253 46/// /2102 11138 21144 6///1 333 11063 21140 7//// 555 10010
AAXX 03004 71254 16/// /3110 11049 21086 60001 333 10006 21051 70006 555 10020
AAXX 03004 71255 16/// /3208 11086 21135 60001 333 10018 21086 70000
AAXX 03004 71256 46/// /2704 11024 21073 39273 40221 53004 6///1 333 10017 21024 7////
AAXX 03004 71257 NIL
AAXX 03004 71258 NIL
AAXX 03004 71259 NIL
AAXX 03004 71261 16/// /1404 11012 21045 30062 40330 53013 60001 333 10017 21020 70031
AAXX 03004 71263 12574 11802 11013 21045 30037 40334 51019 60001 81501 333 10043 21015 70014
AAXX 03004 71264 16/// /3002 10014 21004 30248 40280 53013 60001 333 10054 21008 70000
AAXX 03004 71265 15966 00603 10010 21025 30238 40335 51026 60001 333 10050 20010 70013
AAXX 03004 71266 NIL
AAXX 03004 71267 15966 03409 11014 21082 39119 40231 51028 60001 333 10037 21053 70000
AAXX 03004 71268 NIL
AAXX 03004 71269 NIL
AAXX 03004 71270 NIL
AAXX 03004 71271 16/// ///// 11050 21100 60001 333 10011 21050 70005
AAXX 03004 71272 17548 80111 11159 21179 39693 40054 51038 60001 771// 333 11124 21159 70000
AAXX 03004 71273 16/// /3310 11062 21104 39483 40149 51048 60001 333 10016 21062 70000
AAXX 03004 71274 NIL
AAXX 03004 71275 NIL
AAXX 03004 71276 NIL
AAXX 03004 71277 NIL
AAXX 03004 71278 NIL
AAXX 03004 71279 47/// /3502 11099 21123 30222 40291 51022 6///1 7//4/ 333 11060 21169 7////
AAXX 03004 71281 NIL
AAXX 03004 71282 46/// /0702 11025 21026 30062 40340 51026 6///1 333 10004 21025 7////
AAXX 03004 71283 NIL
AAXX 03004 71284 16/// ///// 11051 21102 60001 333 10004 21051 70000
AAXX 03004 71285 NIL
AAXX 03004 71286 NIL
AAXX 03004 71287 NIL
AAXX 03004 71288 NIL
AAXX 03004 71289 NIL
AAXX 03004 71290 15966 61505 11020 21055 39421 40272 56009 60001 333 11013 21118 70000
AAXX 03004 71291 16/// /1714 11012 21059 39876 40176 56021 60001 333 11012 21193 70000
AAXX 03004 71292 15566 82713 10008 21019 39437 40041 52020 60001 333 10025 21020 70033
AAXX 03004 71294 16/// /3501 11048 21067 39916 40330 51034 60001 333 11001 70009 555 10020
AAXX 03004 71295 NIL
AAXX 03004 71296 NIL
AAXX 03004 71297 16/// /0000 11018 21033 60001 333 10054 21018 70009
AAXX 03004 71298 NIL
AAXX 03004 71299 NIL
AAXX 03004 71001 NIL
AAXX 03004 71002 NIL
AAXX 03004 71003 NIL
AAXX 03004 71005 16/// ///// 11058 21104 60001 333 10013 21058 70000
AAXX 03004 71006 NIL
AAXX 03004 71007 NIL
AAXX 03004 71008 NIL
AAXX 03004 71009 NIL
AAXX 03004 71010 NIL
AAXX 03004 71011 NIL
AAXX 03004 71012 NIL
AAXX 03004 71013 NIL
AAXX 03004 71014 NIL
AAXX 03004 71015 NIL
AAXX 03004 71016 NIL
AAXX 03004 71017 NIL
AAXX 03004 71018 NIL
AAXX 03004 71019 NIL
AAXX 03004 71020 NIL
AAXX 03004 71021 NIL
AAXX 03004 71022 17440 81307 10040 20033 30311 40356 55004 60011 7614/ 333 10055 20019 70031
AAXX 03004 71023 17564 33312 11078 21121 39389 40168 51046 60001 745// 333 10003 21080 70005
AAXX 03004 71024 16/// /0000 11143 21145 60001 333 11075 21145 70007
AAXX 03004 71026 NIL
AAXX 03004 71027 16/// /2303 11019 21031 30266 40276 51015 60001 333 10044 21021 70000
AAXX 03004 71028 16/// /1901 11014 21050 39277 40347 56009 60001 333 11006 21096 70000
AAXX 03004 71029 16/// /0504 11286 21316 30104 40145 51007 60001 333 11262 21307 70000
AAXX 03004 71030 16/64 /0310 11029 21039 30179 40271 51012 60001 333 10044 21029 70000
AAXX 03004 71032 46/// /3001 11009 21069 39460 40318 55002 6///1 333 10046 21097 7////
AAXX 03004 71033 46/// /3309 11151 21170 39480 40120 53048 6///1 333 11030 21152 7//// 555 10050
AAXX 03004 71035 NIL
AAXX 03004 71036 15766 62610 10017 21028 39653 40024 52026 60001 333 10031 21011 70000
AAXX 03004 71039 NIL
AAXX 03004 71040 46/// /2810 11058 21082 30094 40300 51033 6///1 333 11030 21080 7////
AAXX 03004 71041 15966 10103 11010 21031 30134 40279 53012 60001 333 10040 21018 70000
AAXX 03004 71042 16/// /2502 10043 20007 30327 40331 52006 60001 333 10079 21011 70000
AAXX 03004 71044 16/// /0703 11165 21185 39790 40117 50001 60001 333 11157 21217 70000
AAXX 03004 71046 460// /2614 11197 30123 40141 51021 6///1 333 11197 21270 7////
AAXX 03004 71047 16/// ///// 11056 21103 60001 333 10008 21057 70000
AAXX 03004 71048 NIL
AAXX 03004 71049 NIL
AAXX 03004 71060 NIL
AAXX 03004 71063 NIL
AAXX 03004 43533 12465 69901 10275 20249 30074 40077 60002 82232 333 59013 70000 82818 84362
AAXX 03004 43555 11462 61803 10270 20249 30075 40078 60132 70282 82202 333 59018 70013 82818 86077
AAXX 03004 43577 12465 40000 10257 20244 30077 40079 60002 82202 333 59023 79999 82818 84077
AAXX 03004 43588 12465 52905 10270 20243 30077 40079 60032 82232 333 59025 70004 82818 84077
AAXX 03004 43599 11456 82716 10247 20240 30088 40090 60012 78082 8497/ 333 59007 70009 83816 81917 88360
AAXX 03004 43533 12465 69901 10275 20249 30074 40077 60002 82232 333 59013 70000 82818 84362
AAXX 03004 43555 11462 61803 10270 20249 30075 40078 60132 70282 82202 333 59018 70013 82818 86077
AAXX 03004 43577 12465 40000 10257 20244 30077 40079 60002 82202 333 59023 79999 82818 84077
AAXX 03004 43588 12465 52905 10270 20243 30077 40079 60032 82232 333 59025 70004 82818 84077
AAXX 03004 43599 11456 82716 10247 20240 30088 40090 60012 78082 8497/ 333 59007 70009 83816 81917 88360
AAXX 03004 91408 12474 31205 10306 20253 30042 40080 52012 60164 82271 333 20256 56999 58005 70163 555 90300
AAXX 03004 48698 01458 83001 10246 20246 30076 40095 60154 72162 81878 333 20233 58003 69907 70150 81816 85365
AAXX 03003 91551 11498 80000 10270 20262 4//// 5//// 60604 72162 8597/ 333 5699/ 60604 84818 81925 88461
AAXX 03003 91553 31598 59908 10310 20254 40088 58006 70222 85900 333 20230 563// 58009 84820 81925
AAXX 03003 91554 11598 41106 10290 20255 40082 58008 60024 70118 82230 333 20230 5629/ 58010 60024 82820 84362
AAXX 03003 91555 11598 71312 10283 20261 40084 58007 60094 70262 8587/ 333 20220 5639/ 58007 60094 82823 85645 87462
AAXX 03003 91557 11598 50508 10300 20242 40069 58009 69961 70222 84231 333 20235 56199 58010 69961 84825
AAXX 03003 91565 11598 60312 10290 20248 40086 58012 60044 70228 85930 333 20220 5629/ 58003 60044 85822 81925
AAXX 03003 91568 11598 21313 10295 20245 40107 58007 60034 70181 82100 333 20224 563// 58010 60034 82826
AAXX 03004 48698 01458 83001 10246 20246 30076 40095 60154 72162 81878 333 20233 58003 69907 70150 81816 85365
AAXX 03004 91408 12474 31205 10306 20253 30042 40080 52012 60164 82271 333 20256 56999 58005 70163 555 90300
AAXX 03004 17024 3//// /1813 10015 21009 30177 40258 56005 60001
AAXX 03004 17310 3//// /0703 10131 20066 30225 40232 53007 60001
AAXX 03004 17070 3//// /2201 11055 21073 39385 40284 53001 60001
AAXX 03004 17160 3//// /0005 11057 21096 39089 40285 52002 60001
AAXX 03004 17290 3//// /3001 10098 20040 30202 40232 53003 60001
AAXX 03001 37575 42998 00202 10010 21094 39666 40265 54000 555 14103
AAXX 03001 37675 42995 32502 10011 21052 39569 40245 52002 83002 555 14101
AAXX 03001 37735 42697 52902 10032 21055 39806 40188 58005 82902 555 10101
AAXX 03001 37749 41596 82301 10027 20006 30164 40284 53008 71022 885// 555 11002
AAXX 03001 37756 42597 82804 11025 21044 39373 40304 51003 887// 555 1/103
AAXX 03001 37864 32997 32702 10039 21014 40232 53001 83040
AAXX 03001 37985 42996 00000 10010 20002 30267 40252 52006 555 1/105
AAXX 03004 17155 3//// /0501 11059 21095 39123 40274 58001 60001
AAXX 03001 33088 NIL
AAXX 03001 33177 32997 22001 10052 20012 39898 40136 53002 80001
AAXX 03001 33261 31996 81804 11003 21012 30009 40196 57015 71011 8805/
AAXX 03001 33275 32997 51906 11002 21019 39993 40223 57010 85030
AAXX 03001 33301 32997 22306 10048 21005 39864 40147 57003 80001
AAXX 03001 33325 32997 02002 10010 21022 39896 40169 57009
AAXX 03001 33377 31495 31404 11013 21021 30021 40220 57010 71000 83600
AAXX 03001 33415 31996 21602 11006 21021 39767 40175 57005 71011 80001
AAXX 03001 33429 32997 71703 10002 21015 39746 40179 57006 85031
AAXX 03001 33466 32967 21904 10009 21023 30010 40202 57009 82030
AAXX 03001 33526 31632 60000 11025 21031 39823 40174 58007 71022 85530 333 85633
AAXX 03001 33562 31996 32004 11006 21012 39818 40189 57007 71000 83030
AAXX 03001 33614 31950 01604 11007 21020 30127 40235 58004 71011
AAXX 03001 33761 31496 81904 10000 21012 39992 40222 57010 71011 886// 333 88711
AAXX 03001 33902 NIL
AAXX 03001 33983 32997 00000 11010 21028 30205 40268 52003
AAXX 03001 34415 32497 81802 11012 21019 30163 40263 54000 886//
AAXX 03001 34523 32597 80000 11017 21048 30191 40270 52001 885// 333 88622
AAXX 03001 34712 NIL
AAXX 03004 64600 33960 00000 10185 20177 39448 40086 333 59004
AAXX 03004 64601 33960 00212 10296 20060 38992 48507 333 59001
AAXX 03004 64605 NIL
AAXX 03004 64610 33960 00000 10155 20146 3//// 4//// 333 5////
AAXX 03004 64650 32960 03006 10190 20168 39681 40087 333 59004
AAXX 03004 64654 33960 00806 10182 20065 39540 40105 333 59001
AAXX 03004 64655 33960 00000 10146 20132 39449 40088 333 59009
AAXX 03004 64656 33960 00000 10175 20155 39535 40083 333 59006
AAXX 03004 64659 NIL
AAXX 03004 64660 33960 00000 10180 20155 39555 40075 333 59018
AAXX 03004 64662 NIL
AAXX 03004 64665 33960 00000 10180 20160 3//// 4//// 333 5////
AAXX 03004 40310 32960 03007 10024 21075 38973 48516 54001
AAXX 03001 01400 41598 72117 10084 20052 49903 57062 70282 872// 22200 06095 10707 70037 333 91122
AAXX 03001 01300 41496 81920 10066 20053 49698 57085 71022 88/// 22200 02078 10811 70055 333 91125
AAXX 03001 02019 07/31 /2907 11025 21037 39203 49815 50007 60011 78587 333 69975 90710 91112
AAXX 03001 02081 07/63 /3003 11013 21032 39388 49784 51027 69991 70071 333 60005 90710 91107
AAXX 03001 02095 07699 /3003 10008 21009 39593 49792 51036 60011 70076 333 60005 88/47 90710 91107
AAXX 03001 02101 45571 /1301 11061 21068 39314 49872 58005 8//// 333 82/24
AAXX 03001 02119 05699 /1401 11024 21060 39452 49833 50016 60001 333 60005 84/48 90710 91105
AAXX 03001 02124 05/99 /2703 11028 21045 39333 49853 50008 60001 333 60005 90710 91107
AAXX 03001 02126 05/99 /2602 11024 21059 39538 49874 52007 60001 333 60005 90710 91106
AAXX 03001 02151 35984 02904 11010 21050 39499 49830 51025 60001 333 60005 91006 90710 91106 90710 91204
AAXX 03001 02186 35984 02805 10012 21039 39804 49829 51019 60001 333 60005 91007 90710 91107 90710 91205
AAXX 03001 02197 07/64 /2903 10022 20002 39788 49807 52017 69941 76186 333 69935 90710 91111
AAXX 03001 02207 07999 /1805 11025 21090 39182 49874 57031 69901 70071 333 60005 88/65 90710 91111
AAXX 03001 02219 07/65 /0901 11072 21073 39218 49887 58014 69911 70071 333 60005 90710 91102
AAXX 03001 02226 45984 /1705 11022 21068 39453 49905 58011 8////
AAXX 03001 02243 07/58 /2602 11027 21041 39633 49901 50003 60001 71010 333 60005 90710 91104
AAXX 03001 02269 05/82 /2806 10008 21030 60001 333 60005 90710 91110
AAXX 03001 02287 05/99 /2807 10018 21020 39862 49871 51012 60001 333 60005 90710 91111
AAXX 03001 02297 05/99 /2708 10013 21034 39808 49852 51015 60001 333 60005 90710 91113
AAXX 03001 02308 05/99 /1802 11069 21107 39057 49920 58020 60001 333 60005 90710 91105
AAXX 03001 02327 05/99 /2801 11101 21116 39502 49944 58008 60001 333 60005 90710 91102
AAXX 03001 02355 05/99 /2706 10004 21054 39923 49935 52008 60001 333 60005 90710 91110
AAXX 03001 02366 45984 /2703 11012 21041 39915 49921 50010 8////
AAXX 03001 02407 05/78 /3301 11088 21094 39596 49971 58005 60001 333 60005 90710 91102
AAXX 03001 02418 45984 /2002 11050 21061 39854 49987 58004 8////
AAXX 03001 02435 45984 /1601 11046 21080 39782 49971 50005 8////
AAXX 03001 02440 05/83 /3001 11064 21082 60001 333 60005 90710 91102
AAXX 03001 02452 05/99 /2402 11031 21044 60001 333 60005 90710 91105
AAXX 03001 02456 05/99 /2302 11032 21056 39926 49968 52013 60001 333 60005 90710 91104
AAXX 03001 02469 05/99 /2503 11024 21045 60001 333 60005 90710 91105
AAXX 03001 02498 05/99 /2610 10019 21014 39956 49972 51017 60001 333 60005 90710 91112
AAXX 03001 02518 464// /2209 10064 20039 333 83/18 85/50 90710 91111
AAXX 03001 02520 35983 01905 11019 21038 39935 40003 58008 60001 333 60005 91005 90710 91106 90710 91205
AAXX 03001 02550 45580 /2205 11005 21005 39744 40021 50000 8//// 333 81/30
AAXX 03001 02562 35984 02205 11012 21021 39894 40010 51006 60001 333 60005 91006 90710 91107 90710 91206
AAXX 03001 02563 05/83 /2505 10012 21003 39982 40004 52010 60001 333 60005 90710 91108
AAXX 03001 02565 07/59 /2301 11014 21021 39914 40034 52012 60001 71010 333 60005 90710 91104
AAXX 03001 02589 05/99 /2708 10029 21013 39972 49993 52014 60001 333 60005 90710 91113
AAXX 03001 02590 45482 /2507 10033 20006 39956 40017 52013 8//// 333 81/16
AAXX 03001 02618 07/62 /2203 10026 20015 39867 40032 58008 69911 70084 333 60005 90710 91106
AAXX 03001 02664 35977 02302 10013 20003 39986 40058 50004 60001 333 60005 91004 90710 91104 90710 91202
AAXX 03001 02679 05/81 /2709 10034 20013 39991 40036 52013 60001 333 60005 90710 91116
AAXX 03004 78947 11579 81204 10256 20240 30130 40133 60021 76086 8547/ 333 05399 10296 20246 58001 70042 84640 87358 90916
BBXX 41037 03001 99340 70775 46/// /0501 10129 40258 52004 90000 22200 00168 333 91201
AAXX 03001 40001 32970 03506 10011 21085 40251 54000
AAXX 03001 40007 32960 00901 10014 21058 40265 52002 40025 32965 00403 10062 21025 40225 52004
AAXX 03001 40045 32970 02704 11018 21100 40255 53002
AAXX 03001 40061 NIL
AAXX 03001 40080 32970 00000 11018 21109 39506 40233 53004
AAXX 03001 40087 NIL
AAXX 03001 40095 NIL
BBXX DGUG2 03004 99286 70200 41998 00927 10215 20169 40250 52030 70200 80000 22214 04230 20807 399// 4//// 80185
BBXX 61002 03004 99421 10047 46/// /0124 10149 2//// 40198 52010 22200 00176 10604 70020 555 1/031
BBXX 62087 03001 99547 10068 46/// /0308 10110 20033 4//// 5//// 22230 00108
AAXX 03004 60645 36/// /0000 10142 20054
AAXX 03004 60715 12560 71804 10132 20114 30212 40219 58006 69973 83282 333 59062 83826 86360 91004 91121
AAXX 03004 60723 NIL
AAXX 03004 60725 12556 32102 10093 2//// 30051 40233 51001 60003 82202 333 55031 20837 82820
AAXX 03004 60735 12956 02002 10127 20116 30143 40225 54000 60003 333 55089 20981
AAXX 03004 60745 12960 00105 10096 20087 39855 40232 56006 60003 333 55052 10936
AAXX 03004 60748 NIL
AAXX 03004 60750 12556 20000 10123 20109 30204 40230 56005 69923 82500 333 55065 21037 82630
AAXX 03004 60760 12560 11008 10135 20096 30118 40223 57003 60003 81200 333 55080 21244 81830 91011 91112
AAXX 03004 60765 NIL
AAXX 03004 60767 12506 00000 10105 20099 30081 40228 58005 60003 74440 333 55067 21154
AAXX 03004 60769 12456 11606 10133 20117 30218 40222 57006 60003 81800 333 55084 21166 81816
AAXX 03004 60619 36/// /0306 10073 20005
AAXX 03004 60663 36/// /2307 10207 21056
AAXX 03004 60664 36/// /0000 10086 21037
AAXX 03004 60621 36/// /0310 10122 20015
AAXX 03004 60715 12560 71804 10132 20114 30212 40219 58006 69973 83282 333 59062 83826 86360 91004 91121
AAXX 03004 60723 NIL
AAXX 03004 60725 12556 32102 10093 2//// 30051 40233 51001 60003 82202 333 55031 20837 82820
AAXX 03004 60735 12956 02002 10127 20116 30143 40225 54000 60003 333 55089 20981
AAXX 03004 60745 12960 00105 10096 20087 39855 40232 56006 60003 333 55052 10936
AAXX 03004 60748 NIL
AAXX 03004 60750 12556 20000 10123 20109 30204 40230 56005 69923 82500 333 55065 21037 82630
AAXX 03004 60760 12560 11008 10135 20096 30118 40223 57003 60003 81200 333 55080 21244 81830 91011 91112
AAXX 03004 60765 NIL
AAXX 03004 60767 12506 00000 10105 20099 30081 40228 58005 60003 74440 333 55067 21154
AAXX 03004 60769 12456 11606 10133 20117 30218 40222 57006 60003 81800 333 55084 21166 81816
AAXX 03001 02464 45984 /2302 11006 21028 39967 49985 51013 8////
AAXX 03001 02500 05980 /2009 10054 21002 39935 49977 58022 60001 333 60005 81/67 90710 91112
AAXX 03001 02513 05/82 /1902 10051 20008 30005 40009 58014 60001 333 60005 90710 91106
AAXX 03001 02615 05369 /2310 10059 20046 30062 40066 58011 60001 333 60005 85/08 90710 91114
AAXX 03001 02635 05/63 /2303 10052 20041 60001 333 60005 90710 91107
AAXX 03004 60612 36/// /0000 10109 21049
AAXX 03004 84370 31460 89902 10230 20192 30098 40132 70220 84530 333 10297 56900 58020 84620 87358
AAXX 03004 84452 31960 21816 10194 20163 30100 40121 70300 80001 333 10264 56009 58000 82275
AAXX 03004 84782 31962 02005 10180 20132 39644 40153 70200 333 10260 59002
AAXX 03004 84735 31960 00000 10101 20050 36439 70222 333 10221 59011
AAXX 03004 84501 31558 31507 10178 20151 30114 40141 71022 83600 333 10205 56000 59014 83720
AAXX 03004 84628 34460 61710 10202 20172 30128 40144 53014 70222 866// 333 10228 564// 58004 86714
AAXX 03004 84377 31560 83302 10258 20227 39972 40076 70222 82210 333 10313 56000 59004 82820 86460
AAXX 03004 84455 31660 20000 10273 20221 39770 40120 70222 82100 333 10305 56000 59030 82840
AAXX 03004 84515 31460 4//// 10276 20240 39888 40062 70222 842// 333 10346 569// 59014 84817
AAXX 03004 84686 31760 73304 10164 20052 36858 70222 8452/ 333 10211 56990 59011 84650 83458
AAXX 03004 84401 31660 61909 10251 20158 30087 40131 70230 82530 333 10318 56000 58000 82640 84358
AAXX 03004 84752 32960 02707 10124 20023 37546 70200 333 10194 58002
AAXX 03004 84691 31960 02117 10200 20170 30130 40137 70200 333 10263 59001
AAXX 03004 41859 31930 00000 10164 20150 30053 40092 70500 333 59030 70000
AAXX 03004 41883 NIL
AAXX 03004 41891 NIL
AAXX 03004 41907 31410 60000 10182 20170 30072 40087 82830 333 56990 59037 70000 81618 85362
AAXX 03004 41923 NIL
AAXX 03004 41936 NIL
AAXX 03004 41943 31940 10000 10182 20180 30084 40092 70510 81030 333 56090 59026 70000 81362
AAXX 03004 41950 NIL
AAXX 03004 41978 31932 30000 10192 20180 30077 40083 70500 83030 333 56090 59018 70000 83362
AAXX 03004 41992 NIL
AAXX 03004 91925 02580 40703 10287 20199 30045 40105 56015 60004 84200 333 20221 56200 58009 60007 84820 90710 91115 555 60005 11025
AAXX 03004 91944 06/// /0715 10271 20212 30131 40134 56015 60001 333 60007 90710 91122 555 60005
AAXX 03004 91929 04/72 /0613 10296 20231 30101 40104 57020 60001 700// 333 60007 90710 91119 555 60005
AAXX 03004 91938 01570 60312 10303 20219 30113 40115 56021 69961 70286 82801 333 69927 81820 85080 90710 91123 555 60005 10427
AAXX 03004 91943 36/// /0512 10287 20222 30113 40115 56017 333 58006
AAXX 03004 91948 02582 20403 10249 20186 30071 40173 56014 60004 82101 333 20220 56105 58007 60007 82820 90710 91112 555 60005 10612
AAXX 03004 91954 06/// /0308 1//// 2//// 30137 4//// 56011 6///4 333 2//// 59004 60007
AAXX 03004 91958 01465 81204 10228 20192 30155 40157 55009 69984 71586 888// 333 20198 56599 59005 69967 86813 88640 90710 91110 555 60005 10712
AAXX 03004 91945 16/// /0412 10286 20223 30131 40136 56014 69924 333 20229 59001
AAXX 03001 78458 32566 30000 10260 20217 40169 53016 82230 333 10289 20204 30/// 56200 58015 82820
AAXX 03001 78460 31460 72702 10244 20210 40157 52026 70544 83571 333 1036 20170 30/// 56600 58015 83619 85358
AAXX 03001 78467 32466 20905 10240 20211 40151 52020 82200 333 10288 20180 30/// 56200 58007 82815
AAXX 03001 78479 32566 20403 10243 20215 40134 53018 82200 333 10290 20218 30/// 56200 58011 82820
AAXX 03001 78482 32466 51302 10264 20200 40152 52014 82951 333 10320 20195 30/// 56500 59001 81819 81822 85359
AAXX 03001 78485 32566 20504 10237 20195 40150 52023 83200 333 10308 20198 30/// 56000 58009 83820
AAXX 03001 78486 32566 70303 10262 20216 40136 52025 87500 333 10308 10222 20/// 56100 58006 87622
AAXX 03001 78488 32466 13603 10225 20211 40154 52019 81200 333 10312 20178 30/// 56000 58008 81818
AAXX 03004 88963 32560 22320 10072 21033 39826 49855 53041 82500 333 10080 20012 56700 82630 92417 94060 95000
AAXX 03004 88968 11440 83218 10006 21012 39884 49899 56005 69901 77772 887// 333 10022 21007 56799 88712 90008 90091 90205 90295 90910 92425 92731 92841 93000 93100 94075 95065 96010
AAXX 03004 89034 32970 11608 11098 21150 39540 49860 53004 81070 333 11067 21099 56060 81360 92407 92830
AAXX 03004 89053 31135 72724 10010 20006 39922 49936 52020 72842 87700 333 10015 20007 56600 87703 90107 90207 90281 92415 92851 94070 94470 95080 96010 96246 97526 98535
AAXX 03004 89055 31565 42315 10010 21010 39621 49862 52039 70341 84500 333 10012 21025 56500 84630 92730 92851 95153
AAXX 03004 89066 11470 83210 10010 21013 39902 49911 52044 60011 70272 8467/ 333 10030 21001 56129 84718 88360 90947 92417 92734 92851 93001 93193 94072 95012 96483
AAXX 03003 NIL
AAXX 03004 89564 45/// /1122 11017 21066 39806 49826 53007
AAXX 03004 89570 46/// /0924 11098 21139 39187 55001 333 21101
AAXX 03004 89571 41670 70606 11015 21103 39831 49860 51004 71422 86578
AAXX 03004 89573 NIL
AAXX 03004 89610 NIL
AAXX 03004 89611 41580 10312 11032 21068 39827 49879 58002 70211 81509
AAXX 03004 89614 NIL
AAXX 03004 89615 46/// /0307 11116 21150 38974 50001 333 21185
AAXX 03004 89807 NIL
AAXX 03004 89809 46/// /0310 11068 21092 39423 58001 333 21115
BBXX FHZI 02234 99643 31370 46/// /2628 11046 21070 39838 49849 52008 22200 05011 86054
BBXX FHZI 02224 99643 31370 46/// /2725 11054 21081 39834 49845 52008 22200 05011 86062
AAXX 03004 94500 NIL
AAXX 03004 94510 46/// /0303 10255 20155 39796 40136
AAXX 03004 94515 46/// /0510 10252 20137 39804 40148
AAXX 03004 94552 46/// /0714 10218 20103 39703 40163
AAXX 03004 94578 46/// /1212 10248 20113 30165 40176
AAXX 03004 94584 46/// /1427 10240 20132 30049 40158
AAXX 03004 94601 46/// /0523 10208 20107 30127 40144
AAXX 03004 94610 46/// /0721 10250 20068 30109 40132
AAXX 03004 94637 46/// /0911 10192 20098 39763 40183
AAXX 03004 94638 NIL
AAXX 03004 94642 NIL
AAXX 03004 94643 NIL
AAXX 03004 94647 46/// /1212 10196 20114 30095 40215
AAXX 03004 94651 46/// /1319 10201 20131 30134 40210
AAXX 03004 94653 46/// /1617 10199 20104 30191 40209
AAXX 03004 94659 46/// /1406 10242 20037 39993 40185
AAXX 03004 94672 46/// /0505 10200 20087 30206 40216
AAXX 03004 94691 46/// /1707 10234 20062 39856 40178
AAXX 03004 94693 46/// /1907 10242 20069 30127 40188
AAXX 03004 94700 NIL
AAXX 03004 94703 46/// /0806 10248 20099 30045 40168
AAXX 03004 94710 46/// /0507 10234 20083 39922 40171
AAXX 03004 94729 46/// /2205 10168 20060 39328 40165
AAXX 03004 94750 46/// /3308 10203 20095 30060 40183
AAXX 03004 94767 46/// /1406 10188 20097 30191 40197
AAXX 03004 94776 46/// /1207 10187 20096 30185 40195
AAXX 03004 94791 NIL
AAXX 03004 94802 46/// /0521 10195 20088 30116 40198
AAXX 03004 94804 46/// /1514 10171 20083 30195 40233
AAXX 03004 94807 NIL
AAXX 03004 94821 46/// /1811 10161 20084 30140 40222
AAXX 03004 94842 46/// /2612 10155 20095 30108 40207
AAXX 03004 94847 NIL
AAXX 03004 94850 46/// /2515 10155 20097 30144 40190
AAXX 03004 94865 46/// /2210 10163 20095 30181 40205
AAXX 03004 94866 46/// /2207 10160 20081 30063 40203
AAXX 03004 94875 46/// /0105 10215 20091 30045 40179
AAXX 03004 94299 46/// /1314 10299 2//// 30082 40092
AAXX 03004 94300 46/// /3205 10259 20190 30064 40074
AAXX 03004 94302 46/// /3503 10258 20187 30084 40090
AAXX 03004 94312 46/// /0818 10306 20111 30076 40085
AAXX 03004 94313 NIL
AAXX 03004 94317 46/// /0409 10249 20131 39517 40088
AAXX 03004 94319 46/// /1117 10240 20150 39772 40096
AAXX 03004 94324 NIL
AAXX 03004 94326 46/// /1412 10242 21055 39515 40118
AAXX 03004 94327 46/// /1109 10281 21023 39741 40107
AAXX 03004 94332 46/// /0911 10293 20182 39703 40080
AAXX 03004 94333 NIL
AAXX 03004 94341 46/// /0305 10293 20196 39862 40092
AAXX 03004 94346 46/// /0513 10277 20182 39902 40118
AAXX 03004 94363 46/// /0912 10261 20172 39923 40137
AAXX 03004 94366 NIL
AAXX 03004 94367 46/// /1315 10261 20209 30081 40123
AAXX 03004 94374 46/// /1212 10258 20160 30125 40141
AAXX 03004 94388 46/// /1321 10251 20200 30139 40144
AAXX 03004 94393 46/// /1317 10264 30091 40103 51007
AAXX 03004 94394 46/// /1324 10256 30111 40119 50002
AAXX 03004 94403 46/// /0620 10300 20062 30043 40084
AAXX 03004 94429 46/// /0716 10253 20070 39660 40114
AAXX 03004 94430 46/// /0714 10250 20083 39528 40098
AAXX 03004 94449 46/// /0921 10208 20078 39633 40153
AAXX 03004 94451 NIL
AAXX 03004 94461 46/// /0612 10248 21027 39451 40106
AAXX 03004 94462 46/// /1115 10244 21007 39582 40126
AAXX 03004 94477 NIL
AAXX 03004 94488 NIL
AAXX 03004 94102 46/// /1706 10302 20261 30070 40079
AAXX 03004 94103 NIL
AAXX 03004 94120 46/// /3305 10305 20248 30038 40078
AAXX 03004 94122 NIL
AAXX 03004 94131 46/// /1904 10302 20213 39930 40081
AAXX 03004 94132 NIL
AAXX 03004 94147 NIL
AAXX 03004 94150 46/// /3606 10305 20233 30011 40070
AAXX 03004 94151 46/// /0907 10328 20234 30053 4////
AAXX 03004 94170 46/// /0808 10305 20226 30058 40080
AAXX 03004 94200 NIL
AAXX 03004 94203 46/// /0912 10285 20200 30073 40083
AAXX 03004 94206 46/// /0803 10275 20222 39954 40082
AAXX 03004 94207 46/// /1913 10288 30065 40073 52012
AAXX 03004 94211 NIL
AAXX 03004 94212 46/// /0207 10245 20191 39614 40077
AAXX 03004 94216 46/// /1411 10240 20213 30041 40091
AAXX 03004 94236 NIL
AAXX 03004 94238 46/// /2905 10214 20186 39692 40107
AAXX 03004 94248 NIL
AAXX 03004 94255 46/// /0909 10307 20143 39819 40075
AAXX 03004 94268 46/// /1705 10243 20236 30091 40103
AAXX 03004 94287 46/// /1609 10287 20224 30092 40101
AAXX 03004 94290 NIL
AAXX 03004 94294 46/// /1115 10278 20228 30104 40114
AAXX 03004 94296 35/// /1212 10277 30076 40086 52005
AAXX 03004 94298 46/// /1216 10267 30092 40098 53006
AAXX 03004 95641 NIL
AAXX 03004 94893 46/// /2722 10152 20110 30063 40179
AAXX 03004 94907 46/// /2806 10176 20079 30174 40184
AAXX 03004 94910 46/// /3607 10205 20071 39935 40181
AAXX 03004 94926 46/// /3107 10178 20074 39514 40174
AAXX 03004 94935 46/// /1706 10160 20092 30155 40182
AAXX 03004 94954 46/// /2527 10140 20087 30066 40177
AAXX 03004 94956 46/// /2513 10114 20103 30141 40167
AAXX 03004 94975 46/// /3010 10169 20041 30089 40121
AAXX 03004 94983 46/// /2919 10177 20096 30116 40141
AAXX 03004 94995 46/// /1207 10215 20123 30161 40169
AAXX 03004 94996 46/// /0612 10231 20203 30019 40147
AAXX 03004 94997 NIL
AAXX 03004 94998 46/// /0210 10058 20051 30004 40015
AAXX 03004 95111 46/// /1614 10270 20220 30053 40089
AAXX 03004 95205 46/// /1608 10288 20203 30080 40087
AAXX 03004 95322 NIL
AAXX 03004 95448 46/// /0915 10226 20076 39572 40123
AAXX 03004 95458 46/// /0912 10267 20019 39911 40168
AAXX 03004 95480 46/// /1211 10281 21009 30117 40175
AAXX 03004 95481 46/// /1008 10302 20061 30104 40148
AAXX 03004 95482 46/// /0911 10315 20085 30068 40122
AAXX 03004 95485 46/// /0709 10267 20045 39955 40155
AAXX 03004 95492 46/// /1308 10291 20059 39995 40146
AAXX 03004 95527 46/// /0608 10217 20112 39923 40172
AAXX 03004 95634 46/// /0715 10206 20086 39772 40168
AAXX 03004 95637 46/// /0512 10190 20073 39852 40182
AAXX 03004 95646 46/// /1115 10214 20099 30013 40198
AAXX 03004 95666 NIL
AAXX 03004 95719 46/// /0910 10214 20090 39852 40178
AAXX 03004 95762 46/// /1605 10197 20071 39720 40170
AAXX 03004 95826 NIL
AAXX 03004 95839 46/// /2109 10183 20083 30043 40201
AAXX 03004 95864 NIL
AAXX 03004 95909 NIL
AAXX 03004 95954 NIL
AAXX 03004 95966 46/// /3315 10167 20087 39937 40136
AAXX 03004 96995 46/// /0000 10234 20231 39800 40094
AAXX 03004 96996 41458 71112 10258 20240 30060 40064 53014 76162 8452/
AAXX 03004 89564 45/// /1122 11017 21066 39806 49826 53007
AAXX 03004 89570 46/// /0924 11098 21139 39187 55001 333 21101
AAXX 03004 89571 41670 70606 11015 21103 39831 49860 51004 71422 86578
AAXX 03004 89573 NIL
AAXX 03004 89610 NIL
AAXX 03004 89611 41580 10312 11032 21068 39827 49879 58002 70211 81509
AAXX 03004 89614 NIL
AAXX 03004 89615 46/// /0307 11116 21150 38974 50001 333 21185
AAXX 03004 89807 NIL
AAXX 03004 89809 46/// /0310 11068 21092 39423 58001 333 21115
AAXX 03004 94893 46/// /2722 10152 20110 30063 40179
AAXX 03004 94907 46/// /2806 10176 20079 30174 40184
AAXX 03004 94910 46/// /3607 10205 20071 39935 40181
AAXX 03004 94926 46/// /3107 10178 20074 39514 40174
AAXX 03004 94935 46/// /1706 10160 20092 30155 40182
AAXX 03004 94954 46/// /2527 10140 20087 30066 40177
AAXX 03004 94956 46/// /2513 10114 20103 30141 40167
AAXX 03004 94975 46/// /3010 10169 20041 30089 40121
AAXX 03004 94983 46/// /2919 10177 20096 30116 40141
AAXX 03004 94995 46/// /1207 10215 20123 30161 40169
AAXX 03004 94996 46/// /0612 10231 20203 30019 40147
AAXX 03004 94997 NIL
AAXX 03004 94998 46/// /0210 10058 20051 30004 40015
AAXX 03004 95111 46/// /1614 10270 20220 30053 40089
AAXX 03004 95205 46/// /1608 10288 20203 30080 40087
AAXX 03004 95322 NIL
AAXX 03004 95448 46/// /0915 10226 20076 39572 40123
AAXX 03004 95458 46/// /0912 10267 20019 39911 40168
AAXX 03004 95480 46/// /1211 10281 21009 30117 40175
AAXX 03004 95481 46/// /1008 10302 20061 30104 40148
AAXX 03004 95482 46/// /0911 10315 20085 30068 40122
AAXX 03004 95485 46/// /0709 10267 20045 39955 40155
AAXX 03004 95492 46/// /1308 10291 20059 39995 40146
AAXX 03004 95527 46/// /0608 10217 20112 39923 40172
AAXX 03004 95634 46/// /0715 10206 20086 39772 40168
AAXX 03004 95637 46/// /0512 10190 20073 39852 40182
AAXX 03004 95646 46/// /1115 10214 20099 30013 40198
AAXX 03004 95666 NIL
AAXX 03004 95719 46/// /0910 10214 20090 39852 40178
AAXX 03004 95762 46/// /1605 10197 20071 39720 40170
AAXX 03004 95826 NIL
AAXX 03004 95839 46/// /2109 10183 20083 30043 40201
AAXX 03004 95864 NIL
AAXX 03004 95909 NIL
AAXX 03004 95954 NIL
AAXX 03004 95966 46/// /3315 10167 20087 39937 40136
AAXX 03004 96995 46/// /0000 10234 20231 39800 40094
AAXX 03004 96996 41458 71112 10258 20240 30060 40064 53014 76162 8452/
AAXX 03003 91502 11470 40205 10310 20261 40074 50002 69934 71695 84963 333 20252 56199 58022 83817 81918
AAXX 03003 91507 11480 32004 10310 20254 40073 57002 69914 70510 82932 333 20244 56000 58016 82815 81916
AAXX 03003 91520 31475 20505 10300 20249 40073 57001 71500 82938 333 20235 56299 58013 81818 81919
AAXX 03003 91541 NIL
AAXX 03004 40356 32960 01206 10000 21120 39222 48516 333 59010 555 04410 50216
AAXX 03004 40357 32960 02801 10018 21110 39577 40230 333 59015
AAXX 03004 40360 32960 02602 10018 21070 39617 40208 333 59011
AAXX 03004 40361 32960 00304 10048 21140 39430 40211 333 59019
AAXX 03004 40362 32960 01303 10025 21080 39692 40219 333 59014
AAXX 03004 40373 32960 00000 10044 21020 39789 40220 333 59014
AAXX 03004 40375 32960 00000 10070 21070 39301 40179 333 59012
AAXX 03004 40377 NIL
AAXX 03004 40394 32960 02108 10068 20010 39059 48531 333 59016 555 04410 50195
AAXX 03004 40400 32960 00303 10164 20070 30125 40153 333 59008
AAXX 03004 40401 NIL
AAXX 03004 40405 32960 00000 10075 20050 39451 40202 333 59016
AAXX 03004 40416 32960 03113 10110 20040 30150 40170 333 59018
AAXX 03004 40417 32960 02815 10107 20000 30177 40192 333 59015
AAXX 03004 40420 32960 03010 10092 20020 39984 40196 333 59009
AAXX 03004 40430 32660 40404 10174 20040 39427 40141 81530 333 59025 81645 83360
AAXX 03004 40435 NIL
AAXX 03004 40437 32960 03404 10065 20010 39495 40214 333 59013
AAXX 03004 40438 NIL
AAXX 03004 40439 32960 00000 10162 20080 30118 40128 333 59005
BBXX SHIP 03004 99105 31067 41/97 31210 10265 20244 40049 70311 222// 0//// 20300 319// 40301 5////
BBXX 2ALD3 03003 99095 31542 41698 53603 10295 20262 40072 56001 70322 82348 22284 20000 80270
BBXX VNW6069 02223 99122 31230 41698 10000 10300 20267 40063 70100 81400 22200 02295 2//00 30000 80276
BBXX VRSR 03003 99224 31515 41798 71122 10262 20206 40138 54000 70222 86788 22274 04241 20308 314// 40306 80225
BBXX VRAE3 03004 99029 31433 41597 72205 10295 20230 40090 51004 70202 85/22 22274 00310 2//// 333// 40802 5//// 80250
BBXX VRAE4 03004 99223 31593 41498 31011 10275 20231 40140 58002 70262 81448 22274 04260 20402 309// 41406 80245
BBXX VNSZ 02224 99412 31464 46/// /2911 10134 20092 30116 40143 57001 22200 04154 85111
BBXX VNSZ 03004 99412 31464 46/// /3017 10152 20093 30120 40146 52003 22200 04156 85119
BBXX VNSZ 02234 99412 31464 46/// /3016 10145 20087 30110 40136 57008 22200 04154 85113
BBXX 9HA2479 02234 99350 31526 46/// /2502 10167 20074 30175 40205 52005 22283 04202 85116
BBXX C6FS9 02234 99242 31531 46/// /1525 10240 20202 30117 40153 52010 22274 04262 85214
BBXX VNAH 02234 99354 31354 46/// /1414 10153 20070 30221 40245 52019 22263 04176 85109
BBXX 9HA2479 02224 99350 31528 46/// /2403 10164 20080 30174 40204 52007 22243 04203 85118
BBXX C6FS9 02224 99243 31534 46/// /1327 10238 20183 30115 40151 52008 22273 04263 85201
BBXX VROB 02224 99268 31532 46/// /1718 10205 20142 30159 40184 52009 22283 04235 85166
BBXX VROB 02234 99266 31533 46/// /1520 10217 20117 30152 40177 52002 22283 04231 85157
BBXX VNAH 02224 99354 31356 46/// /1417 10149 20077 30214 40238 52017 22263 04175 85110
BBXX SHIP 02233 99175 31637 41/98 29902 10260 20246 40049 702// 222// 0//// 20101 308// 40102 5////
BBXX ZM2619 03003 99442 31796 41/97 72913 10130 20126 40247 56005 70200 22262 29901 334// 40703 80128
BBXX VRDG4 03003 99378 31541 41496 51810 10170 20135 40187 54000 702// 84145 22223 20403 80150
BBXX VRRC 03004 99246 31540 41297 71430 10240 20194 40145 52015 70222 85770 22243 20304 31618 40408 50508 80210
AAXX 03004 94299 46/// /1314 10299 2//// 30082 40092
AAXX 03004 94300 46/// /3205 10259 20190 30064 40074
AAXX 03004 94302 46/// /3503 10258 20187 30084 40090
AAXX 03004 94312 46/// /0818 10306 20111 30076 40085
AAXX 03004 94313 NIL
AAXX 03004 94317 46/// /0409 10249 20131 39517 40088
AAXX 03004 94319 46/// /1117 10240 20150 39772 40096
AAXX 03004 94324 NIL
AAXX 03004 94326 46/// /1412 10242 21055 39515 40118
AAXX 03004 94327 46/// /1109 10281 21023 39741 40107
AAXX 03004 94332 46/// /0911 10293 20182 39703 40080
AAXX 03004 94333 NIL
AAXX 03004 94341 46/// /0305 10293 20196 39862 40092
AAXX 03004 94346 46/// /0513 10277 20182 39902 40118
AAXX 03004 94363 46/// /0912 10261 20172 39923 40137
AAXX 03004 94366 NIL
AAXX 03004 94367 46/// /1315 10261 20209 30081 40123
AAXX 03004 94374 46/// /1212 10258 20160 30125 40141
AAXX 03004 94388 46/// /1321 10251 20200 30139 40144
AAXX 03004 94393 46/// /1317 10264 30091 40103 51007
AAXX 03004 94394 46/// /1324 10256 30111 40119 50002
AAXX 03004 94403 46/// /0620 10300 20062 30043 40084
AAXX 03004 94429 46/// /0716 10253 20070 39660 40114
AAXX 03004 94430 46/// /0714 10250 20083 39528 40098
AAXX 03004 94449 46/// /0921 10208 20078 39633 40153
AAXX 03004 94451 NIL
AAXX 03004 94461 46/// /0612 10248 21027 39451 40106
AAXX 03004 94462 46/// /1115 10244 21007 39582 40126
AAXX 03004 94477 NIL
AAXX 03004 94488 NIL
AAXX 03004 91375 NIL
AAXX 03004 91519 NIL
AAXX 03004 91531 NIL
AAXX 03004 91532 45/// /0809 10305 20235 30057 40065 57011 333 20269
AAXX 03004 91559 NIL
AAXX 03004 91611 NIL
AAXX 03004 91642 NIL
AAXX 03004 91679 NIL
AAXX 03004 91689 NIL
AAXX 03004 91756 NIL
AAXX 03004 91844 NIL
AAXX 03004 92036 NIL
AAXX 03004 93713 NIL
BBXX SHIP 03004 99105 31067 41/97 31210 10265 20244 40049 70311 222// 0//// 20300 319// 40301 5////
BBXX 2ALD3 03003 99095 31542 41698 53603 10295 20262 40072 56001 70322 82348 22284 20000 80270
BBXX VNW6069 02223 99122 31230 41698 10000 10300 20267 40063 70100 81400 22200 02295 2//00 30000 80276
BBXX VRSR 03003 99224 31515 41798 71122 10262 20206 40138 54000 70222 86788 22274 04241 20308 314// 40306 80225
BBXX VRAE3 03004 99029 31433 41597 72205 10295 20230 40090 51004 70202 85/22 22274 00310 2//// 333// 40802 5//// 80250
BBXX VRAE4 03004 99223 31593 41498 31011 10275 20231 40140 58002 70262 81448 22274 04260 20402 309// 41406 80245
BBXX VNSZ 02224 99412 31464 46/// /2911 10134 20092 30116 40143 57001 22200 04154 85111
BBXX VNSZ 03004 99412 31464 46/// /3017 10152 20093 30120 40146 52003 22200 04156 85119
BBXX VNSZ 02234 99412 31464 46/// /3016 10145 20087 30110 40136 57008 22200 04154 85113
BBXX 9HA2479 02234 99350 31526 46/// /2502 10167 20074 30175 40205 52005 22283 04202 85116
BBXX C6FS9 02234 99242 31531 46/// /1525 10240 20202 30117 40153 52010 22274 04262 85214
BBXX VNAH 02234 99354 31354 46/// /1414 10153 20070 30221 40245 52019 22263 04176 85109
BBXX 9HA2479 02224 99350 31528 46/// /2403 10164 20080 30174 40204 52007 22243 04203 85118
BBXX C6FS9 02224 99243 31534 46/// /1327 10238 20183 30115 40151 52008 22273 04263 85201
BBXX VROB 02224 99268 31532 46/// /1718 10205 20142 30159 40184 52009 22283 04235 85166
BBXX VROB 02234 99266 31533 46/// /1520 10217 20117 30152 40177 52002 22283 04231 85157
BBXX VNAH 02224 99354 31356 46/// /1417 10149 20077 30214 40238 52017 22263 04175 85110
BBXX SHIP 02233 99175 31637 41/98 29902 10260 20246 40049 702// 222// 0//// 20101 308// 40102 5////
BBXX ZM2619 03003 99442 31796 41/97 72913 10130 20126 40247 56005 70200 22262 29901 334// 40703 80128
BBXX VRDG4 03003 99378 31541 41496 51810 10170 20135 40187 54000 702// 84145 22223 20403 80150
BBXX VRRC 03004 99246 31540 41297 71430 10240 20194 40145 52015 70222 85770 22243 20304 31618 40408 50508 80210
AAXX 03004 94500 NIL
AAXX 03004 94510 46/// /0303 10255 20155 39796 40136
AAXX 03004 94515 46/// /0510 10252 20137 39804 40148
AAXX 03004 94552 46/// /0714 10218 20103 39703 40163
AAXX 03004 94578 46/// /1212 10248 20113 30165 40176
AAXX 03004 94584 46/// /1427 10240 20132 30049 40158
AAXX 03004 94601 46/// /0523 10208 20107 30127 40144
AAXX 03004 94610 46/// /0721 10250 20068 30109 40132
AAXX 03004 94637 46/// /0911 10192 20098 39763 40183
AAXX 03004 94638 NIL
AAXX 03004 94642 NIL
AAXX 03004 94643 NIL
AAXX 03004 94647 46/// /1212 10196 20114 30095 40215
AAXX 03004 94651 46/// /1319 10201 20131 30134 40210
AAXX 03004 94653 46/// /1617 10199 20104 30191 40209
AAXX 03004 94659 46/// /1406 10242 20037 39993 40185
AAXX 03004 94672 46/// /0505 10200 20087 30206 40216
AAXX 03004 94691 46/// /1707 10234 20062 39856 40178
AAXX 03004 94693 46/// /1907 10242 20069 30127 40188
AAXX 03004 94700 NIL
AAXX 03004 94703 46/// /0806 10248 20099 30045 40168
AAXX 03004 94710 46/// /0507 10234 20083 39922 40171
AAXX 03004 94729 46/// /2205 10168 20060 39328 40165
AAXX 03004 94750 46/// /3308 10203 20095 30060 40183
AAXX 03004 94767 46/// /1406 10188 20097 30191 40197
AAXX 03004 94776 46/// /1207 10187 20096 30185 40195
AAXX 03004 94791 NIL
AAXX 03004 94802 46/// /0521 10195 20088 30116 40198
AAXX 03004 94804 46/// /1514 10171 20083 30195 40233
AAXX 03004 94807 NIL
AAXX 03004 94821 46/// /1811 10161 20084 30140 40222
AAXX 03004 94842 46/// /2612 10155 20095 30108 40207
AAXX 03004 94847 NIL
AAXX 03004 94850 46/// /2515 10155 20097 30144 40190
AAXX 03004 94865 46/// /2210 10163 20095 30181 40205
AAXX 03004 94866 46/// /2207 10160 20081 30063 40203
AAXX 03004 94875 46/// /0105 10215 20091 30045 40179
AAXX 03004 94310 46/// /0925 10290 20210 30067 40078 52017 333 20258
AAXX 03004 95283 46/// /1209 10305 20236 30090 40097
AAXX 03004 95288 46/// /1314 10283 30075 40090 51014
AAXX 03004 95675 46/// /2505
AAXX 03004 95872 46/// /2211
AAXX 03004 95961 37/// /2618 10126 30112 40153 52006 7//44
AAXX 03004 94102 46/// /1706 10302 20261 30070 40079
AAXX 03004 94103 NIL
AAXX 03004 94120 46/// /3305 10305 20248 30038 40078
AAXX 03004 94122 NIL
AAXX 03004 94131 46/// /1904 10302 20213 39930 40081
AAXX 03004 94132 NIL
AAXX 03004 94147 NIL
AAXX 03004 94150 46/// /3606 10305 20233 30011 40070
AAXX 03004 94151 46/// /0907 10328 20234 30053 4////
AAXX 03004 94170 46/// /0808 10305 20226 30058 40080
AAXX 03004 94200 NIL
AAXX 03004 94203 46/// /0912 10285 20200 30073 40083
AAXX 03004 94206 46/// /0803 10275 20222 39954 40082
AAXX 03004 94207 46/// /1913 10288 30065 40073 52012
AAXX 03004 94211 NIL
AAXX 03004 94212 46/// /0207 10245 20191 39614 40077
AAXX 03004 94216 46/// /1411 10240 20213 30041 40091
AAXX 03004 94236 NIL
AAXX 03004 94238 46/// /2905 10214 20186 39692 40107
AAXX 03004 94248 NIL
AAXX 03004 94255 46/// /0909 10307 20143 39819 40075
AAXX 03004 94268 46/// /1705 10243 20236 30091 40103
AAXX 03004 94287 46/// /1609 10287 20224 30092 40101
AAXX 03004 94290 NIL
AAXX 03004 94294 46/// /1115 10278 20228 30104 40114
AAXX 03004 94296 35/// /1212 10277 30076 40086 52005
AAXX 03004 94298 46/// /1216 10267 30092 40098 53006
AAXX 03004 95641 NIL
AAXX 03004 41024 32960 20202 10216 20170 30112 40131 80001 333 59001 82070
AAXX 03004 41030 32960 00000 10212 20160 39854 40125 333 58004
AAXX 03004 41036 NIL
AAXX 03004 41055 32960 00000 10108 20040 38364 48511 333 59006 555 04410 50137
AAXX 03004 41061 32960 01109 10090 20030 39467 40183 333 59007
AAXX 03004 41084 32960 00000 10110 20040 38868 48521 333 59008 555 04410 50139
AAXX 03004 41112 32960 00000 10108 20100 37949 48517 333 58000 555 04410 50158
AAXX 03004 41114 32960 00000 10108 20090 37983 48515 333 58000 555 04410 50148
AAXX 03004 41128 NIL
AAXX 03004 41136 32960 00704 10116 21010 39348 40171 333 59011
AAXX 03004 41140 32960 20000 10252 20210 30115 40122 82030 333 58000 82360
AAXX 03004 68110 36/// /2402 10198 20004 38278 48497 51001 333 10343 20198 91004 555 91019
AAXX 03004 68300 36/// /1617 10150 20108 39970 40121 57008 333 10236 20150 91022 555 91012
AAXX 03004 68004 36/// /0000 10197 20165 38532 48487 57006 333 10344 20197 91002 555 91016
AAXX 03004 68006 36/// /2903 10255 20197 38901 48485 57006 333 10334 20254 91005 555 91013
AAXX 03004 68010 36/// /2102 10218 20186 38907 48508 57010 333 10338 20217 91003 555 91016
AAXX 03004 68018 16/// /0712 10207 20181 38910 48513 57002 60053 333 10307 20207 91016 555 20050 60105 91017
AAXX 03004 68098 36/// /2808 10137 20117 30018 40127 58010 333 10227 20137 91011 555 91012
AAXX 03004 68102 36/// /2505 10195 21026 38729 48478 57010 333 10351 20195 91008 555 91014
AAXX 03004 68112 36/// /2403 10161 20042 38328 48513 58002 333 10341 20158 91004 555 91020
AAXX 03004 68116 36/// /3602 10201 20138 38557 48505 57005 333 10336 20198 91005 555 91018
AAXX 03004 68212 36/// /2004 10245 20016 38902 48522 52006 333 10389 20245 91006 555 91017
AAXX 03004 68312 36/// /2210 10204 20085 38944 48506 51001 333 10363 20204 91013 555 91016
AAXX 03001 38141 41596 80000 11040 21070 30101 40266 57006 77172 885// 555 1/103
AAXX 03001 38149 42598 81001 11005 21026 30194 40273 57002 885// 555 14103
AAXX 03001 38178 429// 02503 11044 21126 39994 40293 52003 555 14107
AAXX 03001 38262 416// 80000 11018 21037 30205 40289 52001 70277 885// 555 12102
AAXX 03001 38264 42698 71403 11015 21032 30180 40277 57004 87500 333 04101 555 14103
AAXX 03001 38396 42996 01001 11050 21063 30162 40293 57005 333 04105 555 14109
AAXX 03001 38403 414// 80000 11059 21098 30173 40301 52011 71011 886// 555 10109
AAXX 03001 38413 429// 00000 10006 21002 30002 40302 54000 555 15102
AAXX 03001 38457 41497 83001 10013 20005 39705 40309 57007 76062 8852/ 555 12002
AAXX 03001 38462 415// 80000 11011 21021 38814 48541 52007 82577 887// 555 1/103
AAXX 03001 38565 325// 80000 10015 20004 39708 40308 58006 885// 555 11001
AAXX 03001 38579 415// 81201 10031 20026 39880 40307 57003 70282 885// 333 02003 555 12003
AAXX 03001 38583 31596 83201 10028 20020 39981 40310 58006 71066 8872/ 333 01002 555 11003
AAXX 03001 38611 41497 80501 10036 20026 39709 40290 51002 70262 887// 333 01004 80887 555 11004
AAXX 03001 38618 416// 80000 10037 20030 39565 40264 51004 70262 8257/ 333 01003 555 11003
AAXX 03001 38683 42697 80000 10017 20001 30015 40300 57009 885// 333 01001 88639 555 11002
AAXX 03001 38696 325// 81102 10009 20006 39424 40304 58006 889// 333 02001 555 12001
AAXX 03001 38812 41395 80601 10031 20026 39823 40287 57016 71022 882// 333 85706 555 11003
AAXX 03001 38927 31359 81401 10040 20030 39907 40292 57016 71022 889// 333 87707 555 11005
AAXX 03001 78458 32566 30000 10260 20217 40169 53016 82230 333 10289 20204 30/// 56200 58015 82820
AAXX 03001 78460 31460 72702 10244 20210 40157 52026 70544 83571 333 1036 20170 30/// 56600 58015 83619 85358
AAXX 03001 78467 32466 20905 10240 20211 40151 52020 82200 333 10288 20180 30/// 56200 58007 82815
AAXX 03001 78479 32566 20403 10243 20215 40134 53018 82200 333 10290 20218 30/// 56200 58011 82820
AAXX 03001 78482 32466 51302 10264 20200 40152 52014 82951 333 10320 20195 30/// 56500 59001 81819 81822 85359
AAXX 03001 78485 32566 20504 10237 20195 40150 52023 83200 333 10308 20198 30/// 56000 58009 83820
AAXX 03001 78486 32566 70303 10262 20216 40136 52025 87500 333 10308 10222 20/// 56100 58006 87622
AAXX 03001 78488 32466 13603 10225 20211 40154 52019 81200 333 10312 20178 30/// 56000 58008 81818
AAXX 03004 17248 3//// /1100 11075 21108 39045 40285 5//// 60001
AAXX 03004 17330 3//// /2801 10109 21078 30222 40243 5//// 60001
AAXX 03001 02947 47/83 72602 10005 21001 49894 54000 70080 87/// 92351
BBXX ZCAS2 03003 99165 11301 41698 41316 10289 20245 40081 52011 70200 82362 22243 00284 20103 33013 40407 50304 80258
BBXX VNVR 02234 99385 11212 46/// /3622 10027 21041 30191 40223 52022 22273 04121 85002
BBXX VNVR 02224 99384 11214 46/// /3423 10035 21031 30181 40212 52013 22273 04121 85010
AAXX 03004 06670 41462 82003 10064 20049 39685 40200 5//// 76166 8152/ 333 81710 84636 88557
AAXX 03004 06700 41461 72603 10076 20066 39713 40209 5//// 76162 865// 333 81712 84725 86638
AAXX 03004 06680 43/// /2417 11039 21039 37492 47028 5////
AAXX 03004 06990 41460 83602 10084 20050 39646 40193 5//// 76122 887// 333 88719
AAXX 03004 06760 43/// /0401 10073 20026 39755 40206 5////
AAXX 03004 06720 41765 81901 10081 20060 39627 40203 5//// 76066 887// 333 88756
AAXX 03004 06610 41540 82204 10065 20060 39622 40211 5//// 76062 8572/ 333 85724 84534
AAXX 03004 17210 3//// /0000 10005 21069 39194 40255 5//// 60001
AAXX 03001 37395 41597 80902 10016 20011 30140 40285 52007 70282 8552/
AAXX 03001 37409 41/91 92706 11033 21033 38789 48506 52002 77174 333 95080 555 1/104
AAXX 03001 37432 42697 00000 11010 21117 38992 48514 52003 555 1/112
AAXX 03001 37545 425// 60000 10005 21015 39723 40253 52002 86400
AAXX 03001 37621 426// 40000 10002 21069 39593 40253 57001 80030 555 12101
AAXX 03001 37484 NIL
AAXX 03001 37514 NIL
AAXX 03004 40550 35/65 /3303 10035 21054 40222 55003 333 0/003 55300 00000 10262 20000 30000 40893 51155 60000 55407 40000 90069 90467 91005 91109 91205 91303
AAXX 03004 40551 36/// /2610 10041 21080 333 0//// 90467 91011 91113 91211 91309
AAXX 03004 40552 35/69 /3112 10050 21092 40224 53001 333 0/004 55300 90069 90467 91013 91117 91215 91313
AAXX 03004 40553 35/68 /3306 10031 21066 40220 55001 333 0/001 55300 90069 90467 91005 91111 91209 91305
AAXX 03004 40568 36/// /3108 10054 21019 333 0//// 90467 91009 91115 91211 91309
AAXX 03004 40569 NIL
AAXX 03004 40570 35/70 /3006 10023 21125 40237 55002 333 0/001 55300 90069 90467 91007 91109 91209 91305
AAXX 03004 40571 NIL
AAXX 03004 40572 NIL
AAXX 03004 40573 36/// /2807 10022 21100 333 0//// 90467 91007 91111 91209 91307
AAXX 03004 40580 36/// /3103 10091 21023 333 0/004 553// 00000 10264 20000 30000 40919 51182 60000 55407 40000 90467 91007 91107 91201 91301
AAXX 03004 40581 36/// /0202 10114 21016 333 0//// 90467 91005 91111 91203 91301
AAXX 03004 40582 32963 03004 10045 21082 40220 50002 333 00003 55300 00000 10230 20000 30000 40945 51175 60000 55407 40000 90467 91005 91111 91207 91305
AAXX 03004 40583 NIL
AAXX 03004 40585 36/// /3113 10121 21001 222// 1//// 3//// 4//// 70/// 333 0//// 90467 91017 91125 91215 91313
AAXX 03004 40586 36/// /2502 10062 21086 333 0//// 90467 91005 91109 91205 91303
AAXX 03004 40587 36/// /2706 10050 21079 333 0/004 553// 00000 10231 20000 30000 40905 51136 60000 55407 40000 90467 91007 91111 91207 91305
AAXX 03004 40588 35/66 /3516 10104 21006 40212 50001 333 0/009 55300 90069 90467 91019 91121 91217 91315
AAXX 03004 40589 NIL
AAXX 03004 40590 36/// /3109 10039 21084 333 0//// 90467 91009 91111 91209 91307
AAXX 03004 40591 NIL
AAXX 03004 40592 35/70 /3307 10083 21076 40219 57002 333 0/007 55300 00000 10275 20000 30000 40924 51199 60000 55407 40000 90069 90467 91011 91113 91209 91307
AAXX 03004 40593 36/// /3209 10094 21022 333 0//// 90467 91013 91117 91213 91309
AAXX 03004 40594 36/// /3306 10091 21061 333 0//// 90467 91013 91115 91207 91305
AAXX 03004 40596 36/// /3322 10158 21001 333 0//// 90467 91029 91129 91221 91319
AAXX 03004 41241 NIL
AAXX 03004 41242 36/// /2008 10205 20151 30128 40152 333 0E022 59015
AAXX 03004 41244 NIL
AAXX 03004 41246 NIL
AAXX 03004 41251 NIL
AAXX 03004 41252 NIL
AAXX 03004 41253 36/// /1804 10175 20161 39775 40157 333 0E019 59009
AAXX 03004 41254 NIL
AAXX 03004 41255 NIL
AAXX 03004 41256 32960 02303 10200 20180 30134 40144 333 59008
AAXX 03004 41257 NIL
AAXX 03004 41258 NIL
AAXX 03004 41259 NIL
AAXX 03004 41262 NIL
AAXX 03004 41263 NIL
AAXX 03004 41264 36/70 /3200 10176 20088 39752 40124 333 0E022 59011
AAXX 03004 41265 NIL
AAXX 03004 41267 35/63 /3110 10243 20180 30112 40127 333 0E024 59004
AAXX 03004 41268 NIL
AAXX 03004 41270 NIL
AAXX 03004 41275 NIL
AAXX 03004 41287 NIL
AAXX 03004 41288 NIL
AAXX 03004 41290 NIL
AAXX 03004 41295 NIL
AAXX 03004 41304 NIL
AAXX 03004 41312 36/// /3118 10222 20053 30091 40130 333 0E/// 59015
AAXX 03004 41314 32960 02707 10129 20025 39666 40186 333 59012
AAXX 03004 41315 NIL
AAXX 03004 41316 32960 03322 10210 20028 30110 40136 333 59002 91032
AAXX 03004 89667 46/// /0305 11036 29056 39715 4//// 5////
AAXX 0300/ 89108 46/// ///// 11269 36870 4//// 5////
AAXX 0300/ 89866 46/// ///// 11043 39612 4//// 5////
AAXX 0300/ 89332 46/// ///// 11068 39081 4//// 5////
AAXX 0300/ 89314 46/// ///// 11114 38113 4//// 5////
AAXX 0300/ 89329 46/// ///// 11110 38626 4//// 5////
AAXX 0300/ 89769 46/// ///// 11044 39691 4//// 5////
BBXX 41038 03001 99341 70777 46/// /2302 10144 40295 52011 90000 22200 00161 333 91203
AAXX 03004 13601 12660 32702 10100 20094 30127 40229 54004 60001 83500 333 83640
AAXX 03004 78922 46/// /0108 10244 20230 30088 40133 52009
AAXX 03004 60710 12558 30000 10137 20079 30125 40204 56002 60003 83200 333 55058 20949 83820
AAXX 03004 60714 11562 71908 10145 2//// 30221 40227 58003 69943 70261 8688/ 333 55083 21205 83820 84630
AAXX 03004 60720 NIL
AAXX 03004 60728 NIL
AAXX 03004 60729 NIL
AAXX 03004 60731 05960 /2303 10123 20115 30218 40225 56003 69923 333 59055 55078 60007 91004 91111
AAXX 03004 60732 NIL
AAXX 03004 60734 NIL
AAXX 03004 60738 NIL
AAXX 03004 60739 NIL
AAXX 03004 60740 12456 21505 10142 20128 30127 40129 58003 60003 82800 333 55083 21066 82816
AAXX 03004 60742 NIL
AAXX 03004 60764 NIL
AAXX 03004 60770 NIL
AAXX 03004 60772 NIL
AAXX 03004 60775 NIL
AAXX 03004 60780 NIL
AAXX 03001 56187 11920 82901 10089 20062 39531 40181 52009 69901 76060 8807/ 333 05406 79999
AAXX 03001 56778 NIL
AAXX 03001 57265 NIL
AAXX 03001 57461 31957 82001 10047 20043 30094 40261 52026 71000 8807/ 333 00102 30020
AAXX 03001 57494 NIL
AAXX 03001 57516 31756 82901 10095 20068 39868 40181 52004 71000 885// 333 05500
AAXX 03001 57687 NIL
AAXX 03001 57816 31640 81401 10048 20041 38787 40187 52013 71000 885// 333 05403 30035
AAXX 03001 58040 31956 02901 11007 21039 30242 40256 52023 71000 333 00100 31013
AAXX 03001 58102 NIL
AAXX 03001 58150 NIL
AAXX 03001 58221 NIL
AAXX 03001 58238 NIL
AAXX 03001 58251 NIL
AAXX 03001 58362 NIL
AAXX 03001 58457 NIL
AAXX 03001 58606 NIL
AAXX 03001 58752 NIL
AAXX 03001 58847 NIL
AAXX 03001 59117 NIL
AAXX 03001 59134 NIL
AAXX 03001 59287 NIL
AAXX 03001 59316 32972 01601 10106 20024 30189 40194 52021 333 00151
AAXX 03001 59431 NIL
AAXX 03001 59644 NIL
AAXX 03001 59758 NIL
AAXX 03001 50468 32670 73403 11225 21243 30076 40308 52004 86502 333 00002 92506
AAXX 03001 50953 32965 80402 11089 21157 30054 40242 52005 8801/ 333 05403
AAXX 03001 51076 NIL
AAXX 03001 51243 NIL
AAXX 03001 51288 32680 10702 11094 21103 38298 57002 81500 333 05300 31043 92509
AAXX 03001 51463 NIL
AAXX 03001 51573 NIL
AAXX 03001 51709 NIL
AAXX 03001 52533 NIL
AAXX 03001 52652 NIL
AAXX 03001 52866 32968 73201 11083 21104 37653 57001 80002 333 05402
AAXX 03001 52983 NIL
AAXX 03001 53463 32975 00401 11113 21168 38996 40311 52006 333 00256
AAXX 03001 53513 NIL
AAXX 03001 53588 NIL
AAXX 03001 53772 NIL
AAXX 03001 53915 NIL
AAXX 03001 54218 32780 73203 11094 21151 39452 40294 52012 83502 333 00253 79999
AAXX 03001 54337 NIL
AAXX 03001 54342 NIL
AAXX 03001 54401 NIL
AAXX 03001 54471 32960 00205 11042 21094 30246 40252 52023 333 00003
AAXX 03001 54497 32662 43602 10014 21051 30186 40203 52009 84500 333 05404 31011
AAXX 03001 54511 NIL
AAXX 03001 54823 31950 00000 11033 21055 30055 40274 52025 71000 333 00251 31032 92504
AAXX 03001 56080 NIL
AAXX 03001 56096 NIL
AAXX 03001 57083 NIL
AAXX 03004 86330 32998 01206 10210 20099 40129 53006 333 10272 20190
AAXX 03004 86360 NIL
AAXX 03004 86460 32998 11004 10206 20115 40143 54002 80005 333 1//// 20190
AAXX 03004 86490 32997 10704 10221 20105 40132 52003 81030 333 10284 20195
AAXX 03004 86530 32698 11506 10172 20096 40143 53006 81405 333 10262 20172
AAXX 03004 86545 32997 11308 10150 20113 40158 52005 80001 333 10250 20150
AAXX 03004 86565 32997 20000 10149 20125 40166 53005 80004 333 10211 20149
AAXX 03004 86580 32998 21007 10172 20102 40164 54000 82088 333 10207 20162
AAXX 03004 78951 11472 80712 10257 20229 30120 40135 69981 78182 84878 333 10284 20/// 58005 70214 83815 85457
AAXX 03001 78458 32566 30000 10260 20217 40169 53016 82230 333 10289 20204 30/// 56200 58015 82820
AAXX 03001 78460 31460 72702 10244 20210 40157 52026 70544 83571 333 1036 20170 30/// 56600 58015 83619 85358
AAXX 03001 78467 32466 20905 10240 20211 40151 52020 82200 333 10288 20180 30/// 56200 58007 82815
AAXX 03001 78479 32566 20403 10243 20215 40134 53018 82200 333 10290 20218 30/// 56200 58011 82820
AAXX 03001 78482 32466 51302 10264 20200 40152 52014 82951 333 10320 20195 30/// 56500 59001 81819 81822 85359
AAXX 03001 78485 32566 20504 10237 20195 40150 52023 83200 333 10308 20198 30/// 56000 58009 83820
AAXX 03001 78486 32566 70303 10262 20216 40136 52025 87500 333 10308 20222 30/// 56100 58006 87622
AAXX 03001 78488 32466 13603 10225 20211 40154 52019 81200 333 10312 20178 30/// 56000 58008 81818
AAXX 03004 61974 12470 10000 10214 20203 40086 60001 81200 333 59010 81818
AAXX 03004 61986 12470 41208 10254 20221 40090 60001 83840 333 59012 81818 83650
AAXX 03004 61988 11465 71312 10237 20189 40107 69921 71582 87802 333 0//12 59016 84817 84650 91029
AAXX 03004 61989 NIL
AAXX 03004 61990 11470 31007 10236 20196 40116 69971 70182 83800 333 0//14 59019 83818
AAXX 03004 61995 11468 41006 10198 20182 39634 60001 71500 84800 333 59020 83817
BBXX 44139 03001 99442 70571 46/// /3606 10060 40264 52009 22200 00070 11206 70028 333 91207
AAXX 03004 78951 11472 80712 10257 20229 30120 40135 69981 78182 84878 333 10284 20/// 58005 70214 83815 85457
AAXX 03001 78458 32566 30000 10260 20217 40169 53016 82230 333 10289 20204 30/// 56200 58015 82820
AAXX 03001 78460 31460 72702 10244 20210 40157 52026 70544 83571 333 1036 20170 30/// 56600 58015 83619 85358
AAXX 03001 78467 32466 20905 10240 20211 40151 52020 82200 333 10288 20180 30/// 56200 58007 82815
AAXX 03001 78479 32566 20403 10243 20215 40134 53018 82200 333 10290 20218 30/// 56200 58011 82820
AAXX 03001 78482 32466 51302 10264 20200 40152 52014 82951 333 10320 20195 30/// 56500 59001 81819 81822 85359
AAXX 03001 78485 32566 20504 10237 20195 40150 52023 83200 333 10308 20198 30/// 56000 58009 83820
AAXX 03001 78486 32566 70303 10262 20216 40136 52025 87500 333 10308 20222 30/// 56100 58006 87622
AAXX 03001 78488 32466 13603 10225 20211 40154 52019 81200 333 10312 20178 30/// 56000 58008 81818
BBXX 44139 03001 99442 70571 46/// /3606 10060 40264 52009 22200 00070 11206 70028 333 91207
AAXX 03001 33902 31994 60000 11046 21049 30177 40246 57002 72841 80001
BBXX 9HA2066 03004 99347 11614 418// 50230 10140 20140 40250 51/// 7//// 857// 22224 00140 21307 305// 40908 5//// 6//// 80140 ICE /////
BBXX OYCY2 03004 99382 11569 41698 60513 10100 20040 40320 52020 7//22 8547/ 22214 00210 20304 301// 40708 5//// 6//// 80070 ICE /////
AAXX 03004 17140 3//// /0500 11069 21095 38759 40294 5//// 60001
AAXX 03004 17250 3//// /0303 11065 21120 38865 40295 5//// 60001
AAXX 03004 17320 3//// /3302 10121 20057 30227 40234 5//// 60001
AAXX 03001 40009 NIL
AAXX 03001 40016 NIL
AAXX 03001 40022 32965 00202 10072 21014 40217 51002 222 20000
AAXX 03001 40030 32970 00000 10000 21017 40248 52006
AAXX 03001 40039 32970 00000 11020 21050 40240 51002
AAXX 03001 40066 32970 00602 10092 21094 40212 58001
AAXX 03001 40072 NIL
AAXX 03001 40083 32970 00000 11014 21071 48520 52006
AAXX 03004 89002 42599 71011 11116 21144 39770 49824 52001 878// 333 11078 21131
AAXX 03004 65306 NIL
AAXX 03004 65319 33958 50000 10186 20056 39607 40119 80002 333 0//00 59002 85076
AAXX 03004 65330 31920 50604 10240 20024 39670 40102 70522 80002 333 0//00 59010 85076
AAXX 03004 65335 33960 50204 10215 20103 39887 40109 80002 333 0//00 58001 85076
AAXX 03004 65344 32956 52206 10285 20232 30090 40101 80002 333 0//00 59004 85076
BBXX SBHI 03003 99568 10176 43/98 02337 10045 40041 51017 22262 06070
AAXX 03001 48845 32798 72002 10150 20141 30159 40166 52007 85508 333 01016 20143 3/014 59045 85697 87299
AAXX 03001 48840 32998 03202 10143 20132 30155 40161 52009 333 01015 20143 3/014 59051
AAXX 03004 89514 21497 70907 11083 49834 52007 70372 333 11041 21106 6990/ 82620 87435
AAXX 03004 89514 21497 70907 11083 49834 52007 70372 333 11041 21106 6990/ 82620 87435
AAXX 03004 71355 16/// /1303 11287 21315 39995 40084 51014 60001 333 11208 21301 70000
AAXX 03004 71357 16/// /2103 11156 21173 30007 40014 51018 60001 333 11138 21157 70033 555 10090
AAXX 03004 71361 16/// /2106 11128 21152 39946 40159 56019 60001 333 11116 21168 70037
AAXX 03004 71362 16/// /2703 11123 21140 39913 40175 51007 60001 333 11088 21132 70060
AAXX 03004 71364 16/// /3302 11189 21209 39980 40117 53013 60001 333 11151 21254 70000
AAXX 03004 71365 16/// /1502 11171 21187 39920 40141 56011 60001 333 11138 21212 70000
AAXX 03004 71384 17/// /2402 11008 21014 30275 40283 53034 60011 7//4/ 333 11006 21034 70030
AAXX 03004 71386 16/// /3603 11045 21070 30070 40282 53025 60001 333 11025 21063 70000
AAXX 03004 71388 46/// /2811 11046 21063 30107 40301 51033 6///1 333 11026 21100 7////
AAXX 03004 71393 16/// ///// 11019 21092 38934 40226 52020 60001 333 10011 21029 70000
AAXX 03004 71300 16/// /3007 11018 21046 30205 40331 53043 60001 333 10025 21018 70005
AAXX 03004 71311 16/// /1802 10000 21013 30251 40276 52012 60001 333 10041 21039 70009
AAXX 03004 71312 16/// /3120 11031 21070 39589 40044 53053 60001 333 10029 21031 70000
AAXX 03004 71317 16/// /1003 11015 21028 30228 40276 53014 60001 333 10044 21021 70000
AAXX 03004 71320 16/// /3108 11228 21250 30034 40035 52013 60001 333 11152 21236 70000
AAXX 03004 71332 16/// /3101 11290 21321 30124 40155 51002 60001 333 11245 21306 70000
AAXX 03004 71334 46/// /0109 11160 21186 39718 40054 52037 6///1 333 11125 21160 7////
AAXX 03004 71402 46/// /3504 11001 21030 30135 40251 53008 6///1 333 10012 21006 7////
AAXX 03004 71407 16/// /2411 11256 21290 30054 40075 53008 60001 333 11197 21257 70000
AAXX 03004 71442 16/// /2207 10005 21034 39703 40015 51015 60001 333 10005 21050 70000
AAXX 03004 71448 16/// /1905 10002 21065 39711 40040 51004 60001 333 10008 21072 70000
AAXX 03004 71449 16/// /2108 10013 21073 39667 40070 51009 60001 333 10020 21078 70000
AAXX 03004 71868 16/// /2709 10018 21022 39568 40004 53023 60001 333 10037 21024 70006
AAXX 03004 71869 11474 83314 11058 21104 39563 40088 52070 69901 77172 8757/ 333 10033 21058 47004 79999 90916
AAXX 03004 71435 16/// /1711 11044 21092 39535 40139 56017 60001 333 11028 21183 70004 555 10010
AAXX 03004 71444 16/// /2506 11013 21038 39278 40032 51022 60001 333 11006 21062 70000
AAXX 03004 71472 16/// /3009 10073 20042 30355 40373 55007 60001 333 10076 20065 7////
AAXX 03004 71622 16/// ///// 11017 21043 39995 40343 53022 60001 333 10037 21017 70007
AAXX 03004 71894 16/// /3022 10082 20053 30320 40329 56012 60001 333 10085 20023 70032
AAXX 03004 71750 16/// /2111 10002 21050 39974 40215 58018 60001 333 10003 21175 70000
AAXX 03004 71752 16/// /2701 11011 21027 30110 40333 51025 60001 333 10041 21011 70015
AAXX 03004 71758 16/// /3205 11001 21021 30197 40276 51014 60001 333 10033 21030 70000
AAXX 03004 71771 46/// /3005 10080 20028 30340 40361 55001 6///1 333 10090 20055 7////
AAXX 03004 71780 16/// /1214 10069 20028 30304 40332 55001 60001 333 10085 20045 70000
AAXX 03004 71807 16/// /0704 10019 21015 30247 40266 51019 60001 333 10045 20014 70099
AAXX 03004 71808 12974 33008 11069 21118 30209 40257 51018 60001 83030 333 11038 21101 70000
AAXX 03004 71250 16/// /3604 10004 21026 30112 40250 51020 60001 333 10027 20003 70145
AAXX 03004 71270 16/// /1702 11011 21033 30098 40324 50013 60001 333 10017 21012 70063
AAXX 03004 71295 16/// /1805 11010 21089 39611 40057 50002 60001 333 11002 21083 70000
AAXX 03004 71296 16/// /0705 11024 21027 30008 40322 51015 60001 333 10003 70036
AAXX 03004 71920 16/// /3203 10031 20008 30271 40277 51013 60001 333 10060 21005 70000
AAXX 03004 71074 16/// ///30 11274 21301 30018 40098 55002 60001 333 11273 21295 70000
AAXX 03004 71075 16/// /3408 11170 21190 39483 40103 51043 60001 333 11110 21171 70000 555 10060
AAXX 03004 71087 46/// /1403 11145 21165 39941 40151 58017 6///1 333 11104 21179 7////
AAXX 03004 71015 16/// ///// 11040 60001 333 10000 21042 70000
AAXX 03004 71017 16/// /2909 11295 21326 30098 40113 51009 60001 333 11276 21316 7////
AAXX 03004 71018 16/// ///06 11310 21341 39959 40050 51009 60001 333 11263 21319 70000
AAXX 03004 71019 46/// /0000 11032 21032 39963 40273 53014 6///1 333 11024 21092 7////
AAXX 03004 71020 46/// /0103 11067 21075 39860 40119 56011 6///1 333 11067 21203 7////
AAXX 03004 71021 46/// /2202 11047 21090 39788 40145 55006 6///1 333 11014 21195 7////
AAXX 03004 71039 46/// /0000 11049 6///1 333 11048 21154 7////
AAXX 03004 71861 16/// /2609 11001 21036 39335 40058 51018 60001 333 10019 21025 70000
AAXX 03004 71554 17/// /0704 11037 21047 30286 40292 51027 60011 7//4/ 333 11018 21060 70011
AAXX 03004 71556 16/// /2920 11004 21024 39464 40066 53025 60001 333 10028 21005 70000
AAXX 03004 71577 46/// /2112 10001 21042 6///1 333 10002 21051 7////
AAXX 03004 71579 16/// /2204 10015 21049 39754 40037 53011 60001 333 10017 21048 70000
AAXX 03004 71581 17/// /0000 11064 21076 39830 40328 51028 69971 7//4/ 333 11025 70022 555 10040
AAXX 03004 71956 16/// /1106 11054 21075 30076 40316 51012 60001 333 11018 21055 70000
AAXX 03004 71959 16/// ///// 11008 21024 60001 333 10049 21009 70000
AAXX 03004 71977 46/// /0000 11237 21237 39388 40126 53009 6///1 333 11205 21242 7////
AAXX 03004 71978 46/// /0206 11202 21224 39787 40112 51021 6///1 333 11147 21271 7////
AAXX 03004 71989 16/// /3404 11272 21299 30189 40206 51002 60001 333 11265 21303 7////
AAXX 03004 71621 11574 63106 11005 21051 30233 40342 51042 69901 70286 86500 333 10040 21005 70008 90947
AAXX 03004 71627 11574 73009 10000 21046 30260 40306 52041 69941 70255 87500 333 10040 21011 70010 90933
AAXX 03004 71718 11466 80704 11041 21048 30227 40295 52027 69981 77177 885// 333 11022 21069 43997 70008 90973
AAXX 03004 71719 16/// /2507 11001 21066 30274 40280 53016 60001 333 10007 21046 70000
AAXX 03004 71239 16/// /2706 10011 21027 39589 40047 51022 60001 333 10037 21047 70000 555 10010
AAXX 03004 71243 16/// /3509 11013 21089 39140 40241 51024 60001 333 10046 21036 7////
AAXX 03004 71246 16/// /1501 11106 21124 39534 40212 58002 60001 333 10000 7////
AAXX 03004 71110 16/// /0703 10023 20008 30194 40255 51020 60001 333 10056 20017 70039
AAXX 03004 71133 46/// /3312 11074 21099 39399 40110 51058 6///1 333 10017 21074 7////
AAXX 03004 71141 16/// /3206 11293 21322 30057 40085 52007 60001 333 11271 21294 70004
AAXX 03004 71147 16/// /2710 10029 21024 60001 333 10032 21035 70000
AAXX 03004 71149 16/// /2607 10013 21033 60001 333 10025 21022 70000
AAXX 03004 71851 16/// /2507 10029 21014 39704 40037 51021 60001 333 10034 21023 70000
AAXX 03004 71885 16/// ///// 10001 60001 333 10024 21043 70000
AAXX 03004 71157 46/// ///// 11045 21083 6///1 333 10012 21047 7////
AAXX 03004 71159 16/// /0301 11016 21048 30192 40265 51013 60001 333 10023 21023 70000
AAXX 03004 71160 16/// /0904 11214 21240 39941 40164 58001 60001 333 11185 21234 70000
AAXX 03004 71162 16/// /2813 11093 21102 39930 40144 56011 60001 333 11093 21158 70003
AAXX 03004 71164 46/// /0904 11185 21206 30053 40137 53002 6///1 333 11172 21263 7////
AAXX 03004 71165 46/// ///00 11153 21170 39864 40156 56002 6///1 333 11146 21238 7////
AAXX 03004 71166 46/// /2506 39522 56015 6///1 333 7////
AAXX 03004 71837 16/// ///// 11012 60001 333 10020 21039 70000
AAXX 03004 71839 16/// ///// 11007 60001 333 10023 21058 70007
AAXX 03004 71501 16/// /3213 11202 21221 30124 40126 51019 60001 333 11200 21269 70000 555 10010
AAXX 03004 71505 46/// /3504 10010 21041 39405 40130 58005 6///1 333 10018 21101 7////
AAXX 03004 71669 16/// /2602 11020 21142 38583 40227 53018 60001 333 11003 21038 70000
AAXX 03004 71671 16/// /1804 11006 21009 30208 40270 51012 60001 333 10057 21024 70000
AAXX 03004 71736 46/// ///// 11006 21136 6///1 333 10029 21049 7////
AAXX 03004 71742 46/// /2801 11002 21009 30069 40259 53007 6///1 333 10021 21006 7////
AAXX 03004 71744 16/// /1401 11010 21056 30237 40279 51014 60001 333 10011 21066 70000
AAXX 03004 71747 16/// /1908 11028 21106 39646 40128 56016 60001 333 10005 21119 70000
AAXX 03004 71450 16/// /3121 11032 21073 39385 40105 53038 60001 333 10021 21032 70022
AAXX 03004 71451 16/// /3209 11122 21151 39646 40078 51058 60001 333 11019 21129 70032 555 10030
AAXX 03004 71453 16/// /3213 11019 21065 39261 40184 53037 60001 333 10006 21021 70004
AAXX 03004 71454 16/// /3313 11082 21116 39400 40094 53052 60001 333 10020 21083 70000
AAXX 03004 71455 46/// /3223 11045 21076 39322 40124 53042 6///1 333 10015 21045 7////
AAXX 03004 71465 46/// /3603 10012 21033 30117 40340 51022 6///1 333 10033 20006 7////
AAXX 03004 71470 46/// /2604 11303 21335 39503 40163 6///1 333 11279 21325 7////
AAXX 03004 71476 17/// /1722 30330 56005 60021 7//4/ 333 70038
AAXX 03004 71484 16/// /2711 10078 20038 30338 40357 55002 60001 333 10081 20066 70000
AAXX 03004 71489 16/// /3216 11063 21107 39339 40142 51049 60001 333 10016 21064 70000
AAXX 03004 71492 46/// ///00 11267 21293 39408 40134 50002 6///1 333 11229 21280 7////
BBXX SJCD 03001 99235 70592 43/98 61611 10247 40169 53005 22254 00257
BBXX SHJC 03001 99334 11622 43/98 70511 10170 40254 53031 22263 00223 2//// 4////
AAXX 03004 91753 01582 20708 10301 20245 30046 40077 57019 60011 70186 82242 333 60007 82820 90710 91114 555 60005
AAXX 03004 91754 06/// /0806 10291 20244 30041 40081 57010 60354 333 20240 58008 69987 555 60005
AAXX 03004 65351 32958 70810 10250 20062 3//// 4//// 80002 333 5//// 87076
AAXX 03004 65355 32960 70406 10220 20021 39607 40117 80002 333 58004 87073
AAXX 03004 65357 32960 70806 10215 20096 39736 40123 80002 333 58006 86076
AAXX 03004 65380 32960 70000 10235 20226 3//// 4//// 80002 333 5//// 87076
BBXX 9V8797 03004 99206 10391 43/98 43209 10243 40165 56009 22234 00273 2//// 4////
AAXX 03004 71868 16/// /2709 10018 21022 39568 40004 53023 60001 333 10037 21024 70006
AAXX 03004 71869 11474 83314 11058 21104 39563 40088 52070 69901 77172 8757/ 333 10033 21058 47004 79999 90916
AAXX 03004 71622 16/// ///// 11017 21043 39995 40343 53022 60001 333 10037 21017 70007
AAXX 03004 71807 16/// /0704 10019 21015 30247 40266 51019 60001 333 10045 20014 70099
AAXX 03004 71808 12974 33008 11069 21118 30209 40257 51018 60001 83030 333 11038 21101 70000
AAXX 03004 71300 16/// /3007 11018 21046 30205 40331 53043 60001 333 10025 21018 70005
AAXX 03004 71311 16/// /1802 10000 21013 30251 40276 52012 60001 333 10041 21039 70009
AAXX 03004 71312 16/// /3120 11031 21070 39589 40044 53053 60001 333 10029 21031 70000
AAXX 03004 71317 16/// /1003 11015 21028 30228 40276 53014 60001 333 10044 21021 70000
AAXX 03004 71320 16/// /3108 11228 21250 30034 40035 52013 60001 333 11152 21236 70000
AAXX 03004 71332 16/// /3101 11290 21321 30124 40155 51002 60001 333 11245 21306 70000
AAXX 03004 71334 46/// /0109 11160 21186 39718 40054 52037 6///1 333 11125 21160 7////
AAXX 03004 71920 16/// /3203 10031 20008 30271 40277 51013 60001 333 10060 21005 70000
AAXX 03004 71894 16/// /3022 10082 20053 30320 40329 56012 60001 333 10085 20023 70032
AAXX 03004 71750 16/// /2111 10002 21050 39974 40215 58018 60001 333 10003 21175 70000
AAXX 03004 71752 16/// /2701 11011 21027 30110 40333 51025 60001 333 10041 21011 70015
AAXX 03004 71758 16/// /3205 11001 21021 30197 40276 51014 60001 333 10033 21030 70000
AAXX 03004 71771 46/// /3005 10080 20028 30340 40361 55001 6///1 333 10090 20055 7////
AAXX 03004 71780 16/// /1214 10069 20028 30304 40332 55001 60001 333 10085 20045 70000
AAXX 03004 71402 46/// /3504 11001 21030 30135 40251 53008 6///1 333 10012 21006 7////
AAXX 03004 71407 16/// /2411 11256 21290 30054 40075 53008 60001 333 11197 21257 70000
AAXX 03004 71442 16/// /2207 10005 21034 39703 40015 51015 60001 333 10005 21050 70000
AAXX 03004 71448 16/// /1905 10002 21065 39711 40040 51004 60001 333 10008 21072 70000
AAXX 03004 71449 16/// /2108 10013 21073 39667 40070 51009 60001 333 10020 21078 70000
AAXX 03004 71435 16/// /1711 11044 21092 39535 40139 56017 60001 333 11028 21183 70004 555 10010
AAXX 03004 71444 16/// /2506 11013 21038 39278 40032 51022 60001 333 11006 21062 70000
AAXX 03004 71472 16/// /3009 10073 20042 30355 40373 55007 60001 333 10076 20065 7////
AAXX 03004 71250 16/// /3604 10004 21026 30112 40250 51020 60001 333 10027 20003 70145
AAXX 03004 71270 16/// /1702 11011 21033 30098 40324 50013 60001 333 10017 21012 70063
AAXX 03004 71295 16/// /1805 11010 21089 39611 40057 50002 60001 333 11002 21083 70000
AAXX 03004 71296 16/// /0705 11024 21027 30008 40322 51015 60001 333 10003 70036
AAXX 03004 71621 11574 63106 11005 21051 30233 40342 51042 69901 70286 86500 333 10040 21005 70008 90947
AAXX 03004 71627 11574 73009 10000 21046 30260 40306 52041 69941 70255 87500 333 10040 21011 70010 90933
AAXX 03004 71718 11466 80704 11041 21048 30227 40295 52027 69981 77177 885// 333 11022 21069 43997 70008 90973
AAXX 03004 71719 16/// /2507 11001 21066 30274 40280 53016 60001 333 10007 21046 70000
AAXX 03004 04211 47/70 /0404 11113 21137 39804 49967 52026 78588
AAXX 03004 04220 07984 32908 11040 21103 39901 49953 52021 69921 70087 333 55300 20025 69927 81/68 83/74
AAXX 03004 04221 45584 73607 11061 21120 39909 49947 52029 333 81/26 87/30 91126
AAXX 03004 04231 11782 30507 11138 21157 39916 49992 52015 69911 70117 8304/ 333 87360
AAXX 03004 04234 45583 70503 11050 21103 39960 49970 52010 333 87/20
AAXX 03004 04241 45783 70809 11048 21114 39932 49972 52010 333 87///
AAXX 03004 04250 07584 71813 11031 21073 39862 49967 52008 60011 78587 333 55300 20000 69957 81/21 83/41 87/49
AAXX 03004 04254 47561 72014 11036 21085 39868 49983 52010 77177 333 87/23 91128
AAXX 03004 04260 47274 61406 11037 21080 39983 40027 52013 72488 333 81/05 86/30 91120 91216
AAXX 03004 04270 47581 71102 11064 21099 30015 40055 52010 78587 333 87/26
AAXX 03004 04272 06/// ///// 39977 52009 69941 333 69937
AAXX 03004 04312 46/// /3305 11236 21268 39914 49956 52005
AAXX 03004 04320 47508 82914 11172 21193 39913 49929 52006 77177 333 55300 81/26 85/32 88/41
AAXX 03004 04339 45/84 ///// 11195 21282 39840 49935 52004 333 55300 20000
AAXX 03004 04360 06/// /1504 11095 21123 39841 49913 52009 6///1 333 55300 20000 6///7 91116
AAXX 03004 04361 46/// /1704 11119 21173 39863 49917 52006
AAXX 03004 04390 05783 12306 11026 21110 39936 40030 52008 6///1 333 6///7 81/57
AAXX 03004 71861 16/// /2609 11001 21036 39335 40058 51018 60001 333 10019 21025 70000
AAXX 03004 71074 16/// ///30 11274 21301 30018 40098 55002 60001 333 11273 21295 70000
AAXX 03004 71075 16/// /3408 11170 21190 39483 40103 51043 60001 333 11110 21171 70000 555 10060
AAXX 03004 71087 46/// /1403 11145 21165 39941 40151 58017 6///1 333 11104 21179 7////
AAXX 03004 71837 16/// ///// 11012 60001 333 10020 21039 70000
AAXX 03004 71839 16/// ///// 11007 60001 333 10023 21058 70007
AAXX 03004 71851 16/// /2507 10029 21014 39704 40037 51021 60001 333 10034 21023 70000
AAXX 03004 71885 16/// ///// 10001 60001 333 10024 21043 70000
AAXX 03004 71157 46/// ///// 11045 21083 6///1 333 10012 21047 7////
AAXX 03004 71159 16/// /0301 11016 21048 30192 40265 51013 60001 333 10023 21023 70000
AAXX 03004 71160 16/// /0904 11214 21240 39941 40164 58001 60001 333 11185 21234 70000
AAXX 03004 71162 16/// /2813 11093 21102 39930 40144 56011 60001 333 11093 21158 70003
AAXX 03004 71164 46/// /0904 11185 21206 30053 40137 53002 6///1 333 11172 21263 7////
AAXX 03004 71165 46/// ///00 11153 21170 39864 40156 56002 6///1 333 11146 21238 7////
AAXX 03004 71166 46/// /2506 39522 56015 6///1 333 7////
AAXX 03004 71450 16/// /3121 11032 21073 39385 40105 53038 60001 333 10021 21032 70022
AAXX 03004 71451 16/// /3209 11122 21151 39646 40078 51058 60001 333 11019 21129 70032 555 10030
AAXX 03004 71453 16/// /3213 11019 21065 39261 40184 53037 60001 333 10006 21021 70004
AAXX 03004 71454 16/// /3313 11082 21116 39400 40094 53052 60001 333 10020 21083 70000
AAXX 03004 71455 46/// /3223 11045 21076 39322 40124 53042 6///1 333 10015 21045 7////
AAXX 03004 71465 46/// /3603 10012 21033 30117 40340 51022 6///1 333 10033 20006 7////
AAXX 03004 71470 46/// /2604 11303 21335 39503 40163 6///1 333 11279 21325 7////
AAXX 03004 71476 17/// /1722 30330 56005 60021 7//4/ 333 70038
AAXX 03004 71484 16/// /2711 10078 20038 30338 40357 55002 60001 333 10081 20066 70000
AAXX 03004 71489 16/// /3216 11063 21107 39339 40142 51049 60001 333 10016 21064 70000
AAXX 03004 71492 46/// ///00 11267 21293 39408 40134 50002 6///1 333 11229 21280 7////
AAXX 03004 71355 16/// /1303 11287 21315 39995 40084 51014 60001 333 11208 21301 70000
AAXX 03004 71357 16/// /2103 11156 21173 30007 40014 51018 60001 333 11138 21157 70033 555 10090
AAXX 03004 71361 16/// /2106 11128 21152 39946 40159 56019 60001 333 11116 21168 70037
AAXX 03004 71362 16/// /2703 11123 21140 39913 40175 51007 60001 333 11088 21132 70060
AAXX 03004 71364 16/// /3302 11189 21209 39980 40117 53013 60001 333 11151 21254 70000
AAXX 03004 71365 16/// /1502 11171 21187 39920 40141 56011 60001 333 11138 21212 70000
AAXX 03004 71384 17/// /2402 11008 21014 30275 40283 53034 60011 7//4/ 333 11006 21034 70030
AAXX 03004 71386 16/// /3603 11045 21070 30070 40282 53025 60001 333 11025 21063 70000
AAXX 03004 71388 46/// /2811 11046 21063 30107 40301 51033 6///1 333 11026 21100 7////
AAXX 03004 71393 16/// ///// 11019 21092 38934 40226 52020 60001 333 10011 21029 70000
AAXX 03004 71956 16/// /1106 11054 21075 30076 40316 51012 60001 333 11018 21055 70000
AAXX 03004 71959 16/// ///// 11008 21024 60001 333 10049 21009 70000
AAXX 03004 71977 46/// /0000 11237 21237 39388 40126 53009 6///1 333 11205 21242 7////
AAXX 03004 71978 46/// /0206 11202 21224 39787 40112 51021 6///1 333 11147 21271 7////
AAXX 03004 71989 16/// /3404 11272 21299 30189 40206 51002 60001 333 11265 21303 7////
AAXX 03004 71110 16/// /0703 10023 20008 30194 40255 51020 60001 333 10056 20017 70039
AAXX 03004 71133 46/// /3312 11074 21099 39399 40110 51058 6///1 333 10017 21074 7////
AAXX 03004 71141 16/// /3206 11293 21322 30057 40085 52007 60001 333 11271 21294 70004
AAXX 03004 71147 16/// /2710 10029 21024 60001 333 10032 21035 70000
AAXX 03004 71149 16/// /2607 10013 21033 60001 333 10025 21022 70000
AAXX 03004 71554 17/// /0704 11037 21047 30286 40292 51027 60011 7//4/ 333 11018 21060 70011
AAXX 03004 71556 16/// /2920 11004 21024 39464 40066 53025 60001 333 10028 21005 70000
AAXX 03004 71577 46/// /2112 10001 21042 6///1 333 10002 21051 7////
AAXX 03004 71579 16/// /2204 10015 21049 39754 40037 53011 60001 333 10017 21048 70000
AAXX 03004 71581 17/// /0000 11064 21076 39830 40328 51028 69971 7//4/ 333 11025 70022 555 10040
AAXX 03004 71501 16/// /3213 11202 21221 30124 40126 51019 60001 333 11200 21269 70000 555 10010
AAXX 03004 71505 46/// /3504 10010 21041 39405 40130 58005 6///1 333 10018 21101 7////
AAXX 03004 71736 46/// ///// 11006 21136 6///1 333 10029 21049 7////
AAXX 03004 71742 46/// /2801 11002 21009 30069 40259 53007 6///1 333 10021 21006 7////
AAXX 03004 71744 16/// /1401 11010 21056 30237 40279 51014 60001 333 10011 21066 70000
AAXX 03004 71747 16/// /1908 11028 21106 39646 40128 56016 60001 333 10005 21119 70000
AAXX 03004 71015 16/// ///// 11040 60001 333 10000 21042 70000
AAXX 03004 71017 16/// /2909 11295 21326 30098 40113 51009 60001 333 11276 21316 7////
AAXX 03004 71018 16/// ///06 11310 21341 39959 40050 51009 60001 333 11263 21319 70000
AAXX 03004 71019 46/// /0000 11032 21032 39963 40273 53014 6///1 333 11024 21092 7////
AAXX 03004 71020 46/// /0103 11067 21075 39860 40119 56011 6///1 333 11067 21203 7////
AAXX 03004 71021 46/// /2202 11047 21090 39788 40145 55006 6///1 333 11014 21195 7////
AAXX 03004 71039 46/// /0000 11049 6///1 333 11048 21154 7////
AAXX 03004 71669 16/// /2602 11020 21142 38583 40227 53018 60001 333 11003 21038 70000
AAXX 03004 71671 16/// /1804 11006 21009 30208 40270 51012 60001 333 10057 21024 70000
AAXX 03004 71239 16/// /2706 10011 21027 39589 40047 51022 60001 333 10037 21047 70000 555 10010
AAXX 03004 71243 16/// /3509 11013 21089 39140 40241 51024 60001 333 10046 21036 7////
AAXX 03004 71246 16/// /1501 11106 21124 39534 40212 58002 60001 333 10000 7////
BBXX 44150 03001 99425 70640 46/// /0501 10065 40278 52013 22200 00108 11404 70022 333 91203
BBXX 44150 03001 99425 70640 46/// /0501 10065 40278 52013 22200 00108 11404 70022 333 91203
BBXX 41052 03001 99183 70648 46/// /0506 10273 40135 92350 333 91207
BBXX 41052 03001 99183 70648 46/// /0606 10273 40135 92340 333 91207
BBXX 41052 03001 99183 70648 46/// /0606 10272 40136 51014 90000 22200 00282 10902 70008 333 91207
BBXX 42085 03001 99179 70665 46/// /2503 10255 40141 52020 90000 22200 00286 10501 70007 333 91204
BBXX 41053 03001 99185 70661 46/// /0405 10272 40144 51018 90000 22200 00283 11002 70009 333 91206
BBXX 42085 03001 99179 70665 46/// /2504 10253 40142 92350 333 91205
BBXX 42085 03001 99179 70665 46/// /2605 10251 40140 92340 333 91206
BBXX 41053 03001 99185 70661 46/// /0405 10272 40143 92350 333 91206
BBXX 41053 03001 99185 70661 46/// /0404 10272 40143 92340 333 91206
BBXX 42067 03001 99300 70886 46/// ///// 10157 20125 40275 92340 22200 00192 10502 70011
AAXX 03001 37279 41494 80903 10027 20019 30118 40266 53003 76166 8872/
AAXX 03001 37308 426// 80000 11032 21042 39612 40293 52002 8451/
AAXX 03001 37531 415// 80000 11012 21019 39522 40273 57006 77072 8802/
AAXX 03001 37553 426// 83001 11030 21082 39564 40237 57005 85530 333 55/// 555 14105
AAXX 03001 37651 16/// ///00 11031 21066 3//// 4//// 5//// 60001 333 55///
AAXX 03001 37492 NIL
AAXX 03001 33902 31994 60000 11046 21049 30177 40246 57002 72841 80001
AAXX 03004 13601 12660 32702 10100 20094 30127 40229 54004 60001 83500 333 83640
AAXX 03001 48900 31496 49901 10222 20222 30078 40088 52028 71000 84800 333 20220 81894 83696
AAXX 03001 48914 32598 70000 10258 20240 30088 40090 52021 83208 333 00026 20256 3/023 59009 82895 87299
AAXX 03001 48917 32598 70503 10260 20204 30078 40084 52018 81208 222// 00288 2//00 333 00025 20242 3/024 59012 81895 87299
AAXX 03001 48918 32470 70704 10262 20224 30082 40093 52015 85908 222// 00272 2//02 333 00029 20260 3/026 59007 82894 83995 86299
AAXX 03001 48916 32598 70202 10268 20222 30037 40084 53014 84208 333 00/// 20260 3//// 59017 84895 87299
AAXX 03001 48919 12598 80513 10271 20219 30072 40094 53021 60332 8222/ 22200 02278 2//05 333 20242 58011 82895 88499
AAXX 03001 50136 11968 72701 11242 21274 39737 40338 52007 69941 77070 8703/ 333 00108 70004 92508
AAXX 03001 50745 32965 70202 11171 21190 30077 40277 52008 80002 333 00001
AAXX 03001 50774 32660 70000 11153 21170 39943 40271 54000 82502 333 05407 92507
AAXX 03001 50788 32970 60201 11134 21160 30177 40269 54000 80002 333 05405 92502
AAXX 03001 51133 11958 82501 11009 21023 39574 40235 52014 60021 77077 8802/ 333 05151 31002 70026 92505
AAXX 03001 51431 NIL
AAXX 03001 51747 NIL
AAXX 03001 52203 32980 03201 11035 21078 39306 40204 52016 333 05151
AAXX 03001 52418 32980 41103 11020 21073 38852 40194 52001 80002 333 00004
AAXX 03001 52681 32980 83402 11044 21051 38621 40230 52023 8807/ 333 05202
AAXX 03001 53564 31959 00000 11090 21099 39229 40298 52010 71000 333 00257 79999
AAXX 03001 53614 31956 83602 11046 21057 38912 40242 52003 71000 86037 333 05151 31031 79999
AAXX 03001 53646 32970 00000 11091 21102 38873 40275 52006 333 00154 70007
AAXX 03001 53798 31/02 91101 11019 21025 30168 40269 52018 74540 333 00300 30004 92507
AAXX 03001 53845 32765 70902 11020 21033 39104 40258 52006 875// 333 00252 31016 79999
AAXX 03001 53959 31958 02002 11021 21035 39800 40256 52005 71000 333 00252 30002
AAXX 03001 54094 32962 52701 11161 21193 39939 40264 54000 80002 333 05605 92505
AAXX 03001 54102 11975 71402 11193 21215 39066 40374 52006 69901 77000 80002 333 00356 70001
AAXX 03001 54161 32960 70202 11093 21178 39938 40247 52013 80002 333 05201 92500
AAXX 03001 54292 31958 82901 11106 21152 39902 40241 57009 70400 8802/ 333 05808 92501
AAXX 03001 54374 32662 73601 11054 21086 39747 40230 52005 83502 333 05811 31006 92508
AAXX 03001 54423 32975 22901 11074 21138 39749 40287 52022 82030 333 00352
AAXX 03001 54618 31/02 93402 11042 21050 30248 40266 52022 74540 333 00251 31020
AAXX 03001 54843 31958 02702 11005 21037 30231 40260 52021 71000 333 00100 31031
AAXX 03001 54909 31/04 93201 11023 21033 30202 40268 52021 74340 333 00352 31011
AAXX 03001 56029 32980 70000 11107 21135 36425 52002 80002 333 05705
AAXX 03001 57127 31915 80401 10033 20033 39595 40213 52003 72840 8807/ 333 05452 30018
AAXX 03001 57131 31959 20202 11007 21010 39742 40252 52005 71040 80002 333 00151 31014
AAXX 03001 48855 12560 70000 10191 20177 30138 40146 53014 69902 878// 333 01020 20186 3/019 59017 82895 87697
AAXX 03001 48848 32565 83202 10180 20152 30148 40156 53008 888// 333 01017 20165 3/016 59042 83895 88697
AAXX 03001 56778 31557 22505 10055 20054 38095 52013 71000 82100 333 05651 30000
AAXX 03001 57687 32962 01401 10040 20027 30160 40247 52017 333 05202 30013
AAXX 03001 58102 32960 03601 11013 21021 30225 40275 52021 333 00352 31011
AAXX 03001 58150 31950 02904 10012 21022 30245 40249 52021 71000 333 00152 31002 79999
AAXX 03001 58457 31940 02003 10038 20017 30200 40254 52019 71000 333 00100 31005
AAXX 03001 58606 31950 01101 10045 20042 30193 40253 52013 71000 333 05100 31009
AAXX 03001 58847 32980 03202 10081 20038 30123 40228 52023 333 00253 30040 70002
AAXX 03001 59117 31659 52201 10046 20025 30114 40224 52018 71000 85500 333 00154
AAXX 03001 59431 31957 02201 10054 20047 30049 40200 52003 71000 333 05554 30036
AAXX 03001 59644 32962 00901 10111 20070 30169 40186 52005 333 05302
AAXX 03001 59758 32464 60404 10166 20111 30098 40175 52011 86140 333 05204
AAXX 03001 52533 11970 82201 11037 21057 38513 40234 52014 69911 77070 83047 333 05102 31045 70001
AAXX 03001 53513 32970 20403 11088 21101 38994 40271 52002 80002 333 05254
AAXX 03001 53588 32980 00702 11092 21240 37761 52011 333 00201 31015
AAXX 03001 53772 31920 61101 11057 21069 39333 40298 52012 71000 80002 333 00351 31002 92502
AAXX 03001 53915 31758 81104 11006 21023 38654 40219 52007 71000 885// 333 00103 31025
AAXX 03001 54337 32960 03603 11035 21112 30174 40260 52020 333 00104
AAXX 03001 54342 32960 73604 11060 21131 30180 40244 52020 83032 333 05104 31045 92503
AAXX 03001 56080 32980 00201 11094 21130 37087 52001 333 05503
AAXX 03001 57083 31913 81401 10013 21003 30128 40269 52016 71000 8803/ 333 00402 31006
AAXX 03001 48852 12598 70000 10182 20167 30140 40150 52011 69912 86808 333 01019 20175 3/018 59023 83895 83697 87299
AAXX 03001 57265 31758 80000 10041 20029 30140 40254 52018 71000 885// 333 00202 30019
AAXX 03001 57494 31930 00000 10008 20008 30221 40252 52019 71040 333 00000 31006
AAXX 03001 58221 31958 03601 10018 21011 30239 40268 52022 71000 333 00201 31014
AAXX 03001 58238 31657 73605 10050 21002 30214 40260 52021 71000 875// 333 00103 30011
AAXX 03001 58251 31957 03204 10023 21013 30241 40246 52018 71000 333 00100 31001
AAXX 03001 58362 32962 02703 10041 20003 30234 40242 52020 333 00100 30003
AAXX 03001 58752 32968 00901 10103 20003 30189 40236 52022 333 00203 30013 70007
AAXX 03001 59134 32980 03602 10109 20034 30034 40204 52016 333 00153
AAXX 03001 59287 32975 00401 10064 20030 30128 40216 52016 333 00052 30023
AAXX 03001 51463 32765 70702 11016 21032 39103 40230 52013 84502 333 05300 31004
AAXX 03001 51573 32975 71401 11004 21048 30157 40202 52005 80002 333 05252
AAXX 03001 51709 32965 02901 11018 21041 38685 40179 57004 333 05201
AAXX 03001 52652 32980 72001 11023 21056 38523 40211 52016 83042 333 05105
AAXX 03001 52983 32961 71601 11039 21057 38055 57005 80002 333 05503
AAXX 03001 54401 32980 03404 11110 21178 39396 40308 52007 333 00458 79999
AAXX 03001 54511 31965 00403 11029 21076 30222 40264 52018 70040 333 00352 31030 70026 92502
AAXX 03001 56096 32775 80402 10037 21009 38919 40169 54000 885// 333 05502 31011
AAXX 03001 33088 32997 22503 10040 20000 39941 40133 57002 82030
AAXX 03001 34712 31496 80601 10007 21007 30178 40266 52003 71022 886// 333 88716
AAXX 03001 40706 12965 20902 11060 21095 38681 40269 54000 60001 80002 333 82068
AAXX 03001 40718 12960 00000 10046 20031 30255 40226 53009 60001 333
AAXX 03001 40732 12960 02402 10062 20033 30238 40214 53004 60001 333
AAXX 03001 40745 11358 81102 10008 21010 39080 40257 57016 60001 71022 886// 333 88708
AAXX 03001 40754 12960 00000 10006 21052 38853 40228 57008 60001 333
AAXX 03001 40766 12960 00000 11064 21090 38728 40252 54000 60001 333
AAXX 03001 40800 12960 00000 11012 21019 38478 40225 54000 60001 333
AAXX 03001 40811 12960 03104 10088 21068 30182 40209 54000 60001 333
AAXX 03001 40841 12965 00000 11026 21053 38269 40202 58004 60001 333
AAXX 03001 40848 12970 03002 10006 21010 38544 40199 57001 60001 333
AAXX 03001 40856 12962 02602 10042 21014 38650 40166 56008 60001 333
AAXX 03001 40875 12960 03302 10143 20099 30132 40143 58005 60001 333
AAXX 03001 40706 12965 20902 11060 21095 38681 40269 54000 60001 80002 333 82068
AAXX 03001 40718 12960 00000 10046 20031 30255 40226 53009 60001 333
AAXX 03001 40732 12960 02402 10062 20033 30238 40214 53004 60001 333
AAXX 03001 40745 11358 81102 10008 21010 39080 40257 57016 60001 71022 886// 333 88708
AAXX 03001 40754 12960 00000 10006 21052 38853 40228 57008 60001 333
AAXX 03001 40766 12960 00000 11064 21090 38728 40252 54000 60001 333
AAXX 03001 40800 12960 00000 11012 21019 38478 40225 54000 60001 333
AAXX 03001 40811 12960 03104 10088 21068 30182 40209 54000 60001 333
AAXX 03001 40841 12965 00000 11026 21053 38269 40202 58004 60001 333
AAXX 03001 40848 12970 03002 10006 21010 38544 40199 57001 60001 333
AAXX 03001 40856 12962 02602 10042 21014 38650 40166 56008 60001 333
AAXX 03001 40875 12960 03302 10143 20099 30132 40143 58005 60001 333
AAXX 03000 44214 115// 81301 11132 21153 38229 40296 53004 69952 77177 8802/ 333 21170 47002 555 31176 93101
AAXX 03000 44231 319// 00000 11255 21305 38715 40427 53007 70400 333 21255 47010 55054 555 31243
AAXX 03000 44259 32997 02104 11234 21261 39335 40332 53011 333 21240 47014 555 31262
AAXX 03000 44277 329// 22303 11175 21225 37752 40370 57001 80004 333 21201 555 31216
AAXX 03000 44288 32999 02803 11120 21234 38129 40302 53011 333 21139 45998 555 31193
AAXX 03000 44292 31997 21003 11221 21247 38694 40355 53005 70400 80008 333 21242 47005 55062 555 31280
AAXX 03000 44304 32999 20000 11289 21320 39008 40386 52012 82040 333 21293 47010 555 31292
AAXX 03000 44354 32999 20000 11214 21233 39116 40339 54000 80001 333 21230 44002 555 31274
AAXX 03000 44373 32999 62501 11189 21212 38509 40327 53009 82046 333 21194 47006 55071 555 31237
AAXX 03000 44203 329// 40000 11290 21313 38396 40444 58002 80008 333 21301 47005 555 31340
AAXX 03000 44207 329// 30000 11262 21301 38287 40394 52005 80004 333 21275 47008 55/// 555 31285
AAXX 03000 44212 119// 83201 11138 21158 39131 40324 54000 69922 70272 8802/ 333 21147 47013 55000 555 31148 93100
AAXX 03000 44213 115// 80000 11164 21183 38780 40345 52001 69902 77172 8802/ 333 21227 47006 555 31245 93100
AAXX 03000 44215 11698 60000 11148 21168 38370 40288 57002 69952 70272 86500 333 21171 47998 555 31176 93100
AAXX 03000 44218 329// 80000 11138 21158 38576 40300 54000 8802/ 333 21162 47002 55003 555 3////
AAXX 03000 44225 329// 40000 11302 21319 38258 40475 58008 80006 333 21213 47011 555 3//// 93100
AAXX 03000 44230 329// 40101 11242 21269 38792 40418 52009 80004 333 21250 47008 555 31263
AAXX 03000 44232 329// 00000 11299 21328 39129 40409 52011 333 21311 43006 555 31319
AAXX 03000 44237 32999 02702 11211 21251 38464 40338 53009 333 21235 47012 555 31259
AAXX 03000 44239 329// 20000 11246 21277 38788 40360 53011 82040 333 21256 43008 555 31295
AAXX 03000 44241 329// 00000 11255 21257 39281 40365 52013 333 21257 47002 555 31275
AAXX 03000 44256 32999 40000 11229 21248 39348 53006 84070 333 21231 47005 555 31246
AAXX 03000 44265 329// 70502 11107 21143 38812 40261 58002 87010 333 21151 47002 555 31185
AAXX 03000 44272 329// 71101 11170 21229 38178 40290 57002 87070 333 21205 43003 55062 555 31244
AAXX 03000 44275 32998 10000 11231 21249 37678 40373 52007 80001 333 21236 555 21270
AAXX 03000 44282 32999 10201 11164 21233 38364 40307 53011 81006 333 21200 42000 55078 555 31226
AAXX 03000 44284 328// 40000 11261 21287 37816 40482 52009 83071 333 21273 47005 31281
AAXX 03000 44285 32999 11403 11224 21256 38295 40385 53013 80001 333 21250 44004 555 31270
AAXX 03000 44287 32899 10405 11172 21233 38084 40359 53007 81040 333 21191 47003 55061 555 31207
AAXX 03000 44294 32998 23502 11294 21326 38548 40444 52006 80004 333 21312 43004 555 31324
AAXX 03000 44298 32899 23603 11270 21276 38702 40370 53006 82040 333 21275 47001 555 31265
AAXX 03000 44302 32999 22904 11245 21272 39135 40371 51017 81041 333 21252 48012 555 31262
AAXX 03000 44305 32999 23202 11225 21252 39066 40331 53011 80001 333 21226 42004 555 31248
AAXX 03000 44313 11996 82303 11179 21212 39407 40312 56002 69902 77172 8802/ 333 21238 47006 555 3////
AAXX 03000 44314 NIL
AAXX 03000 44317 11998 62302 11160 21194 38948 40310 53002 69902 70272 86030 333 21173 47003 555 31204 93100
AAXX 03000 44336 329// 00000 11201 21220 38652 40312 54000 333 21203 42998 555 31245
AAXX 03000 44341 32999 60000 11184 21203 38581 40343 53006 83036 333 21209 46003 555 31265
AAXX 03000 44347 32999 30000 11146 21181 38689 40292 53005 81046 333 21154 555 31177
AAXX 03000 44352 32999 00000 11211 21236 38925 40329 53006 333 21220 42002 555 31237
AAXX 03000 44358 31998 30904 11242 21247 39108 40380 53004 71000 82044 333 21245 46001 555 31269
AAXX 03004 47401 12/82 71803 11016 21058 30257 40272 50002 60002 81532 333 21039 4/003 70005
AAXX 03004 47412 12/65 81204 11025 21068 30205 40239 58024 60002 8167/ 333 21049 4/003 70000
AAXX 03004 47420 15/70 /2302 10008 21031 30265 40300 51006 60002 333 21039
AAXX 03004 47426 15/70 /0811 10036 21032 30197 40245 58015 60002 333 21005
AAXX 03004 47582 11/82 81217 10095 20033 30116 40143 56030 69902 76122 8177/ 333 20028 79999
AAXX 03004 47590 11/40 83407 10064 20057 30128 40182 58023 60042 76166 887// 333 20044 70040
AAXX 03004 47600 17/50 /2208 10099 20093 30067 40075 55019 60092 76260 333 20069
AAXX 03004 47648 11/30 81125 10169 20158 30067 40100 58040 60142 76366 888// 333 20119 70145
AAXX 03004 47662 11340 83108 10087 20065 30079 40123 56029 60192 76366 885// 333 20065 70190
AAXX 03004 47678 17/57 /2016 10215 20212 39892 40071 58018 60252 72360 333 20151
AAXX 03004 47740 17/56 /0615 10124 20111 30020 40054 58009 60482 75265 333 20116
AAXX 03004 47778 17/70 /2405 10187 20144 39971 40051 51027 60252 70060 333 20124
AAXX 03004 47807 11465 83218 10143 20089 30088 40106 51029 60152 78082 882// 333 20114 70160
AAXX 03004 47827 11/65 73304 10160 20129 30070 40108 51026 60082 72582 8727/ 333 20156 70090
AAXX 03004 47843 17/83 /3110 10145 20087 30103 40135 51029 60192 72386 333 20123
AAXX 03004 47893 11/65 72902 10154 20143 30046 40052 53002 60352 72582 872// 333 20128 70345
AAXX 03004 47909 11/70 83608 10202 20114 30127 40137 51018 60082 72162 8257/ 333 20199 70080
AAXX 03004 47918 11/60 80314 10179 20138 30144 40162 51023 60082 76166 8382/ 333 20174 70085
AAXX 03004 47936 11/75 83518 10201 20136 30091 40150 51020 69902 76062 8522/ 333 20194 79999
AAXX 03004 47945 11/60 83515 10215 20173 30103 40127 51021 69952 76162 8287/ 333 20214 70005
AAXX 03004 47971 11/75 71703 10257 20224 30142 40152 53012 69902 72582 872// 333 20229 79999
AAXX 03004 47991 16/// /0905 10271 20218 30167 40177 50005 60002 333 20248 70000
AAXX 03004 40100 12960 00702 10127 20028 30185 40217 54000 60001 900// 333 92427
AAXX 03004 40101 NIL
AAXX 03004 40102 NIL
AAXX 03004 40103 NIL
AAXX 03004 47407 11/58 71301 11109 21126 30098 40284 58014 69902 71022 82602 333 21140 4/004 79999
AAXX 03004 47409 12/60 10902 11023 21078 30235 40291 50007 60002 81600 333 21077 4/001 70000
AAXX 03004 47418 12/80 70310 11040 21081 30244 40296 50002 60002 875// 333 21078 70000
AAXX 03004 47421 17/70 /1613 10036 20000 30156 40200 58043 69902 76760 333 21044
AAXX 03004 47430 11/65 80911 10064 20047 30146 40200 58021 69902 78082 862// 333 20010 79999
AAXX 03004 47570 17/68 /1006 10103 20072 39875 40131 58033 69952 76160 333 20058
AAXX 03004 47575 11/82 81209 10082 20020 30172 40177 58023 69902 76111 885// 333 21013 79999
AAXX 03004 47584 12665 81001 10044 20011 30005 40197 58024 60002 8357/ 333 20009 70000
AAXX 03004 47604 11/70 71416 10110 20077 30091 40100 58019 60042 76122 8252/ 333 20074 70035
AAXX 03004 47605 11/50 82005 10094 20088 30027 40068 55030 60172 76162 8572/ 333 20081 70170
AAXX 03004 47610 11/60 82719 10100 20065 39585 40079 58039 60022 76162 8352/ 333 20069 70015
AAXX 03004 47624 11125 83502 10062 20047 39994 40134 57031 60142 76366 8672/ 333 20041 70145
AAXX 03004 47629 11/58 80710 10138 20130 30088 40126 56032 60062 76366 885// 333 20063 70055
AAXX 03004 47636 11/30 83106 10107 20103 39996 40064 55015 60072 78186 882// 333 20095 70065
AAXX 03004 47651 11/58 72704 10141 20133 30032 40054 58017 60182 72588 8777/ 333 20098 70175
AAXX 03004 47655 17/50 /0320 10145 20136 30010 40065 56031 60102 76160 333 20132
AAXX 03004 47675 17/45 /0413 10119 20114 30000 40090 56042 60312 76266 333 20078
AAXX 03004 47741 11/40 82504 10109 20103 30031 40058 55019 60262 78082 8727/ 333 20091 70265
AAXX 03004 47746 11165 81503 10102 20088 30030 40049 58022 60142 78086 8727/ 333 20086 70140
AAXX 03004 47750 11165 72305 10114 20105 30028 40055 58025 60212 72562 8677/ 333 20088 70205
AAXX 03004 47765 11/30 82001 10105 20089 30008 40073 51018 60342 78082 882// 333 20093 70370
AAXX 03004 47772 11/70 70405 10158 20120 39943 40040 58007 60022 70286 81272 333 20120 70015
AAXX 03004 47800 17/84 /3214 10127 20097 30111 40116 53018 60222 72386 333 20118
AAXX 03004 47815 11/70 72104 10135 20117 30064 40080 51015 60232 70282 82270 333 20109 70385
AAXX 03004 47817 11/80 63008 10144 20098 30079 40122 51034 60072 72582 86230 333 20120 70100
AAXX 03004 47830 11/70 72615 10159 20121 30070 40088 53029 60042 70282 8427/ 333 20138 70155
AAXX 03004 47887 11/60 81802 10124 20103 30032 40073 51022 60142 72582 8327/ 333 20105 70175
AAXX 03004 47891 11/60 72203 10136 20120 30032 40049 58004 60132 70288 872// 333 20119 70130
AAXX 03004 47895 11/75 72005 10135 20117 30044 40052 58002 60122 70282 83831 333 20111 70115
AAXX 03004 47927 11/60 80115 10179 20140 30112 40161 51023 60012 76166 8687/ 333 20178 70010
AAXX 03004 43400 NIL
AAXX 03004 43404 22970 6//// 10218 20212 30077 40087 80005 333 59015 60008 86280
AAXX 03004 43410 NIL
AAXX 03004 43413 22470 20501 10242 20233 30076 40080 81101 333 59019 60007 81818
AAXX 03004 43415 NIL
AAXX 03004 43418 22470 32702 10241 20229 3//// 4//// 81131 333 5//// 60007 81818
AAXX 03004 43421 22460 40000 10238 20223 39977 40079 84130 333 59021 60007 84818
AAXX 03004 43422 NIL
AAXX 03004 43424 22968 20000 10243 20231 30069 40071 81031 333 59019 60007 81360
AAXX 03004 43436 22970 60000 10252 20234 30076 40079 80007 333 59017 60007 86280
AAXX 03004 43441 NIL
AAXX 03004 43444 22470 80000 10210 20195 39551 40082 8612/ 333 59015 60007 86818 88460
AAXX 03004 43467 22960 10902 10231 20216 30076 40081 80001 333 59016 60007 81080
AAXX 03004 43473 21250 73201 10141 20133 38115 48482 75152 8522/ 333 59012 69907 83704 84810 87460
AAXX 03004 43475 21470 72302 10243 20239 30075 40084 702// 85131 333 59012 69968 85818 85360 85080
AAXX 03004 43476 21/05 90203 10173 20169 38755 48497 7454/ 333 59013 69948
AAXX 03004 43479 NIL
AAXX 03004 43486 22470 30000 10230 20224 39990 40084 83100 333 59011 60007 83814
AAXX 03004 43495 22464 5//// 10240 20225 30068 40084 81101 333 59015 60007 81818 84078
AAXX 03004 43497 22970 13602 10239 20230 30062 40079 80001 333 59007 60007 81080
AAXX 03004 48001 NIL
AAXX 03004 48004 32560 70000 10143 20143 87900 333 20126 56500
AAXX 03004 48008 31550 20000 10150 20134 40104 71044 82400 333 20140 56100 59023
AAXX 03004 48010 32540 40000 10170 20170 40099 82830 333 20165 56770 59036
AAXX 03004 48018 31940 00000 10158 20144 40083 74244 333 20090 59035
AAXX 03004 48019 32450 20000 10132 20130 40102 82200 333 20129 56400 59031
AAXX 03004 48020 NIL
AAXX 03004 48025 NIL
AAXX 03004 48035 31/01 90000 10129 20113 40105 74704 333 10110 59053
AAXX 03004 48037 32540 13201 10180 20173 40100 80030 333 20175 56090 59021
AAXX 03004 48042 32557 10000 10185 20175 40106 81400 333 20180 56900 59015
AAXX 03004 48045 NIL
AAXX 03004 48048 32540 20000 10185 20180 40092 82800 333 20183 56900 59029
AAXX 03004 48053 32550 20000 10180 20165 40091 82500 333 20172 569// 59029
AAXX 03004 48057 31439 32201 10110 20091 71011 81530 333 20107 56590
AAXX 03004 48060 31410 80000 10146 20134 40133 74044 8487/ 333 20135 5656/ 59047
AAXX 03004 48062 31440 50904 10202 20170 74044 84830 333 20160 56990 59015
AAXX 03004 48071 32456 30901 10240 20226 40096 84800 333 20220 56990 59020
AAXX 03004 48077 32556 40000 10212 20195 40094 84800 333 20180 56900 59018
AAXX 03004 48078 32558 60401 10198 20176 40092 83531 333 20176 56599 58027
AAXX 03004 48080 32556 30000 10202 20185 40090 82870 333 20186 56990 59024
AAXX 03004 48094 32456 40000 10220 20215 40083 70322 83940 333 20215 56990 59026
AAXX 03004 48097 32456 13601 10215 20190 40108 70211 81500 333 20201 56900 59014
AAXX 03004 48108 31959 70000 10210 20195 40084 70522 82256 333 20205 56299 59035
AAXX 03004 48109 NIL
AAXX 03004 48110 31596 80000 10240 20209 40084 70522 82557 333 20235 56999 59027
AAXX 03004 48112 32957 80902 10260 20215 40100 83876 333 20202 56299 59018
AAXX 03001 06447 36/// /2104 10064 20037 30014 40140 58015 60001 333 91110 91206
AAXX 03004 17098 12960 03602 11127 21135 38222 48538 50000 60001
AAXX 03001 08501 32/// /2101 10151 20109 30326 40363 54000
AAXX 03001 08505 32470 70203 10162 20114 30308 40358 50001 878// 333 83814 86630
AAXX 03001 08509 32560 80000 10150 20134 30301 40366 50000 888// 333 83825 88630
AAXX 03001 08512 32470 70302 10151 20120 30271 40357 52001 878// 333 82815 86630
AAXX 03001 08515 11470 70703 10150 20142 30230 40353 50002 69911 72052 85801 333 82817 85624 87070 910// 911//
AAXX 03001 08533 32/// /0207 10123 20076 30234 40263 54000 333 91113
AAXX 03001 08541 NIL
AAXX 03001 08545 31965 20303 10087 20042 30206 40292 52006 70200 80002 333 82075 91105
AAXX 03001 08548 NIL
AAXX 03001 08554 32965 03505 10118 20049 30239 40249 57007 333 91009 91110
AAXX 03001 08558 32/// /3406 10078 20049 39960 40260 52005 333 91009 91113
AAXX 03001 08560 32/// /3602 10050 20005 39514 40290 52007 333 91106
AAXX 03001 08567 32/// /9901 10049 20010 39614 40296 52007
AAXX 03001 08570 NIL
AAXX 03001 08575 32/// /9901 10028 21006 39455 40291 52009
AAXX 03001 08579 NIL
AAXX 03004 16098 11515 80000 10078 20074 30161 40213 54000 60001 71022 8352/ 333 83625 86457
AAXX 03001 13492 13584 13585 13597 13598
AAXX 03001 06431 36/// /2005 10067 20045 30110 40122 58022 60001 333 91111 91206
AAXX 03004 43466 22470 10000 10232 20217 30064 40076 81100 333 59020 60007 81818
AAXX 03001 45032 36/// /1401 10081 20034 30185 40202 54000
AAXX 03001 45035 36/// /0803 10109 20040 30159 40202 54000
AAXX 03001 45039 36/// /0202 10112 20031 30182 40198 52002
AAXX 03001 45044 36/// /3506 10116 20065 30091 40187 57001
AAXX 03001 45032 36/// /1401 10081 20034 30185 40202 54000
AAXX 03001 45035 36/// /0803 10109 20040 30159 40202 54000
AAXX 03001 45039 36/// /0202 10112 20031 30182 40198 52002
AAXX 03001 45044 36/// /3506 10116 20065 30091 40187 57001
AAXX 03001 40703 12960 01702 11068 21096 38976 40282 53002 60001 333
AAXX 03001 40712 12960 02603 11060 21085 38711 40263 52004 60001 333
AAXX 03001 40729 NIL
AAXX 03001 40736 12960 00000 10052 20042 30240 40214 53006 60001 333
AAXX 03001 40739 12965 00000 11020 21059 38710 40240 56002 60001 333
AAXX 03001 40743 12960 00000 10012 21009 39101 40241 57012 60001 333
AAXX 03001 40762 11657 30805 11010 21025 38561 40216 57017 60001 71000 83500 333 83635
AAXX 03001 40768 12960 00000 11075 21092 38277 40255 57004 60001 333
AAXX 03001 40769 11956 00000 11050 21063 38309 40228 56005 60001 71000 333
AAXX 03001 40785 12960 00000 10014 21007 39113 40226 57007 60001 333
AAXX 03001 40809 12960 01303 11044 21091 38520 40223 56006 60001 333
AAXX 03001 40821 11920 00000 10020 20014 38818 40233 56003 60001 71000 333
AAXX 03001 40831 12960 03404 10086 21072 30207 40215 58004 60001 333
AAXX 03004 64800 NIL
AAXX 03004 64820 NIL
AAXX 03004 64860 NIL
AAXX 03004 64861 NIL
AAXX 03004 64870 NIL
AAXX 03004 64871 NIL
AAXX 03004 64892 NIL
AAXX 03004 64893 NIL
AAXX 03004 64894 NIL
AAXX 03004 64910 32460 60000 10265 20249 30093 40102 83302 333 0//00 59003 83616 81920 85080 94945 95835
AAXX 03004 64911 NIL
AAXX 03004 64950 NIL
AAXX 0300/ 41858 NIL
AAXX 0300/ 41863 NIL
AAXX 0300/ 41886 NIL
AAXX 0300/ 41895 NIL
AAXX 0300/ 41909 NIL
AAXX 0300/ 41915 NIL
AAXX 0300/ 41926 NIL
AAXX 0300/ 41929 NIL
AAXX 0300/ 41933 NIL
AAXX 0300/ 41939 NIL
AAXX 0300/ 41941 NIL
AAXX 0300/ 41946 NIL
AAXX 0300/ 41947 NIL
AAXX 0300/ 41951 NIL
AAXX 0300/ 41953 NIL
AAXX 0300/ 41958 NIL
AAXX 0300/ 41960 NIL
AAXX 0300/ 41963 NIL
AAXX 0300/ 41964 NIL
AAXX 0300/ 41965 NIL
AAXX 0300/ 41966 NIL
AAXX 0300/ 41984 NIL
AAXX 0300/ 41989 NIL
AAXX 0300/ 41998 NIL
AAXX 03004 82143 NIL
AAXX 03004 82599 32570 30905 10251 20208 30064 40124 83200 333 10298 59005
AAXX 03004 82824 21970 53002 10268 20250 39990 40091 70196 85030 333 10323 59006 69901
AAXX 03004 82899 32570 20410 10265 20200 30116 40128 82100 333 10296 59006
AAXX 03004 83117 NIL
AAXX 03004 83248 32470 30611 10267 20230 30096 40118 83200 333 10285 59014
AAXX 03004 83746 21460 73004 10205 20181 40166 52021 71022 87530 333 10231 69901
AAXX 03004 NIL
AAXX 03004 NIL
AAXX 03004 82022 32570 10503 10282 20223 39985 40081 81000 333 10328 59005
AAXX 03004 82193 21570 40410 10267 20238 30078 40096 70161 84000 333 10325 59017 60031
AAXX 03004 82281 32970 00617 10272 20196 30040 40102 333 10320 59006
AAXX 03004 82332 21470 72207 10266 20245 39994 40087 71796 84931 333 10326 59007 69911
AAXX 03004 82398 32570 20807 10256 20211 30089 40118 82100 333 10298 59004
AAXX 03004 82400 NIL
AAXX 03004 82579 32870 53502 10287 20253 30010 40086 85050 333 10342 59002
AAXX 03004 82917 21567 70404 10257 20248 39865 40084 71596 82230 333 10333 59007 60131
AAXX 03004 82965 31559 60902 10250 20230 39763 40089 71792 83934 333 10313 59008
AAXX 03004 82993 32570 10607 10232 20213 39991 40127 81100 333 10297 59006
AAXX 03004 83208 21570 63303 10226 20221 39400 48520 70261 83230 333 10306 59008 60141
AAXX 03004 83349 32470 60306 10272 20243 30114 40120 85830 333 10287 59011
AAXX 03004 83362 32570 10902 10294 20208 39855 40067 81100 333 10339 59027
AAXX 03004 83378 21564 60000 10190 20168 38947 48500 71096 82530 333 10250 59011 60181
AAXX 03004 83460 32570 10209 10248 20223 30053 40110 81100 333 10288 59014
AAXX 03004 83497 NIL
AAXX 03004 83566 21462 71705 10178 20161 39201 48510 71096 83530 333 10235 58002 60011
AAXX 03004 83599 NIL
AAXX 03004 83612 32970 01508 10255 20074 39458 48500 52010 333 10316
AAXX 03004 83649 21350 82007 10220 20211 30140 40145 51022 76162 857 2/ 333 10258 60161
AAXX 03004 83650 NIL
AAXX 03004 83780 32570 71410 10148 20105 39255 48530 53016 87500 333 10160
AAXX 03004 83827 32970 01202 10195 20126 39825 40102 51008 333 10287
AAXX 03004 83840 32270 80914 10131 20118 39137 48530 53013 886// 333 10163
AAXX 03004 83899 32570 52104 10194 20161 30166 51018 85500 333 10242
AAXX 03004 83925 NIL
AAXX 03004 83970 NIL
AAXX 03004 83971 32970 01209 10185 20142 30161 40165 52018 333 10248
AAXX 03004 NIL
AAXX 03004 83384 NIL
AAXX 03004 83386 NIL
AAXX 03004 83388 NIL
AAXX 03004 83393 NIL
AAXX 03004 83442 NIL
AAXX 03004 83479 NIL
AAXX 03004 83483 NIL
AAXX 03004 83531 NIL
AAXX 03004 83538 NIL
AAXX 03004 83574 NIL
AAXX 03004 83582 NIL
AAXX 03004 83595 NIL
AAXX 03004 83687 NIL
AAXX 03004 83692 NIL
AAXX 03004 83695 326// 80906 10214 20180 30020 40158 52020 885// 333 10286 29083 55006
AAXX 03004 83718 215// 80000 10194 20166 39567 40142 51012 70356 887// 333 10248 29/// 55000 60101
AAXX 03004 NIL
AAXX 03004 87022 32960 70000 10302 20138 39534 40024 53013 87070 333 10332 20214 56099 87360
AAXX 03004 87046 32665 33202 10232 20136 39077 48470 52027 83500 333 10289 20210 56000 83635 94060 94463 98365
AAXX 03004 87047 32570 72702 10213 20130 38770 48490 53024 87500 333 10231 20183 56000 87625
AAXX 03004 87097 32960 01806 10218 20146 39798 40109 52008 333 10288 20196
AAXX 03004 87121 32665 41806 10262 20182 39556 40054 53021 82530 333 10341 20238 56770 82640
AAXX 03004 87129 32965 30903 10276 20136 39846 40073 53019 83030 333 10331 20218
AAXX 03004 87155 32965 01107 10218 20140 30046 40108 53004 333 10275 20218
AAXX 03004 87162 32970 01104 10221 20133 30030 40099 53008 333 10292 20221
AAXX 03004 87166 32960 01405 10200 20155 30036 40108 53007 333 10275 20200
AAXX 03004 87178 32970 01405 10250 20100 39961 40105 52005 333 10300 20216
AAXX 03004 87217 32970 00508 10298 20147 39555 40030 52025 333 10354 20208
AAXX 03004 87222 32970 00215 10287 20118 39528 40030 52021 333 10333 20255
AAXX 03004 87257 32965 00705 10198 20144 30001 40104 53015 333 10292 20198
AAXX 03004 87270 31958 00906 10224 20141 30049 40111 52005 70400 333 10282 20219
AAXX 03004 87289 32962 01109 10211 20130 30046 40128 52011 333 10275 20208
AAXX 03004 87311 32965 01412 10300 20102 39374 40028 52021 333 10350 20218
AAXX 03004 87320 NIL
AAXX 03004 87328 31970 23208 10274 20099 39441 40070 52035 70400 82070 333 10332 20241 56050 82360 95090
AAXX 03003 87007 32968 60913 10166 21003 36709 47100 53011 81086 333 10258 20128 56055 81360 86270
AAXX 03003 87148 32970 01405 10239 20140 39978 40086 53013 333 10311 20219
AAXX 03004 NIL
AAXX 03004 83437 NIL
AAXX 03004 83550 213// 8//// 10230 20222 30075 40105 75165 8472/ 333 10310 29092 55014 58008 60041
AAXX 03004 83552 32995 0//// 10302 20224 39914 40086 333 10369 29058 55113 59022
AAXX 03004 83565 32994 01802 10278 20161 39612 40068 333 10356 29/// 55124 59004
AAXX 03004 83579 NIL
AAXX 03004 83592 NIL
AAXX 03004 83623 32995 0//// 1//// 2//// 39508 4//// 53026 333 1//// 29/// 55115
AAXX 03004 83630 32597 51806 10208 20176 3//// 4//// 52025 82240 333 10280 29076 55068
AAXX 03004 83676 31997 01406 10230 20214 39448 40070 53012 70291 333 10298 29/// 55///
AAXX 03004 83698 21/// 80000 10206 20191 30127 40141 51016 70266 887// 333 10247 29086 55/// 60021
AAXX 03004 83702 32098 01404 10234 20111 39346 40099 53005 333 10306 29041 55///
AAXX 03004 83704 32997 01802 10252 20114 39648 40053 56004 333 10310 29039 55125
AAXX 03004 83716 32997 01405 10252 20140 39594 40079 53004 333 10318 29/// 55114
AAXX 03004 83726 21596 41406 10178 20154 39168 40135 53027 70362 82602 333 10276 29078 55087 60211
AAXX 03004 83738 21/// 80000 10178 20161 39660 40161 52010 70250 887// 333 10240 29087 55012 69921
AAXX 03004 NIL
BBXX 41038 03001 99341 70777 46/// /2302 10144 40295 90000 22200 00161 333 91203
AAXX 03004 61902 11582 71215 10230 20186 40155 69901 70381 878// 333 59002 83820 87636
AAXX 03004 88883 46/// /3006 10095 20074 40104 52003
AAXX 03001 26997 41948 81804 10000 21008 39956 40180 57016 71011 8807/
AAXX 03001 27595 32597 83201 11056 21070 30108 40262 52001 885//
AAXX 03001 27612 414// 82003 10004 21016 39936 40131 57029 71022 886//
AAXX 03001 27707 41556 72003 11002 21011 39855 40153 57020 71022 87500 333 87624
AAXX 03001 27719 42597 81706 11007 21022 39939 40195 57012 8632/ 333 91012
AAXX 03001 27786 41496 82901 11058 21069 30100 40268 58001 71022 885// 333 88614
AAXX 03001 27857 42597 81703 11046 21062 30088 40258 58005 883// 333 88920
AAXX 03001 27906 41596 81606 11005 21017 39946 40192 57016 71022 8652/
AAXX 03001 27928 42597 81903 11034 21070 30021 40236 57011 8655/
AAXX 03001 27947 42597 71703 11041 21064 30092 40258 58005 875// 333 87628
AAXX 03001 27962 42497 81403 11054 21072 30039 40268 54000 885// 333 88617
AAXX 03001 27983 41467 80201 11056 21070 30135 40269 52007 70272 886// 333 88717
AAXX 03001 27995 41272 80701 11056 21067 40266 52002 70272 8802/ 333 88505
AAXX 03001 28506 42997 82902 11057 21072 30139 40258 58002 8807/
AAXX 03001 28704 42998 80101 11079 21085 30168 40271 52001 80002
AAXX 03001 28711 41296 80000 11082 21088 39872 40265 54000 71022 886// 333 88709 93523
AAXX 03001 28807 41597 80000 11056 21074 30216 40269 52005 77177 885// 333 88625
AAXX 03001 34009 42597 81504 11008 21030 39908 40220 57012 885//
AAXX 03001 34110 42597 81803 11022 21031 39956 40243 58004 8635/ 333 93402
AAXX 03001 34123 42597 71702 11046 21085 30061 40252 58007 87500 333 87623
AAXX 03001 34152 42560 70000 11043 21049 30072 40276 53007 875// 333 87626
AAXX 03001 34163 42498 80000 11054 21068 40271 52006 885// 333 88620
AAXX 03001 34171 42560 80201 11052 21081 30068 40269 53005 885// 333 88624
AAXX 03001 34186 42567 83402 11082 21092 30124 40269 52004 885// 333 88620
AAXX 03001 34247 42565 82001 11028 21085 30153 40271 52002 885// 333 88623
AAXX 03001 34336 42698 81102 11030 21076 30165 40273 54000 8352/
AAXX 03001 34391 41496 83602 11134 21154 30230 40263 52002 77171 887// 333 88519
AAXX 03001 35011 41215 80000 11129 21135 30109 40273 52008 71022 886// 333 88706
AAXX 03001 35121 41/93 93501 11095 21098 30112 40266 52004 74942 333 93503
AAXX 03004 NIL
AAXX 03001 22271 41496 82012 11013 21030 39870 49880 57026 77173 8572/ 333 91119
AAXX 03001 22520 42598 81704 10020 20007 39832 49841 57022 885// 333 88626
AAXX 03001 22550 41450 81704 11018 21036 39918 49928 57035 78582 889// 333 88911 91112
AAXX 03001 22583 42482 71604 11042 21058 39936 40018 58032 875// 333 87610
AAXX 03001 22768 41497 81809 11027 21057 39954 40011 58043 73632 885// 333 88619 91114
AAXX 03001 22845 41394 81907 11020 21032 39809 49966 57037 77373 8872/ 333 86707
AAXX 03001 22887 42497 71708 11040 21074 30034 40106 57026 875// 333 88618 91114
AAXX 03001 23205 41498 82308 11033 21061 39975 49990 57021 73632 885// 333 88611 91114
AAXX 03001 23219 41397 82010 11070 21079 39983 40091 57015 77173 8802/
AAXX 03001 23418 42470 81805 11076 21094 30039 40114 57014 886// 333 88710
AAXX 03001 23606 42360 82006 11065 21089 39951 40128 57017 886// 333 88707
AAXX 03001 23711 42398 81603 11074 21087 39983 40163 57010 886//
AAXX 03001 23804 42497 82003 11063 21082 30000 40152 57016 885// 333 88611
AAXX 03001 27037 42498 81807 11026 21052 39901 40065 57034 885// 333 86716
AAXX 03001 27199 42498 82303 11074 21083 30022 40227 57005 886//
AAXX 03001 27271 42597 71505 11053 21063 30031 40192 57020 87500
AAXX 03001 27459 42998 01802 11069 21085 30017 40220 57015
AAXX 03001 27730 42498 81905 11038 21079 30008 40209 57013 885// 333 88615 91012
BBXX 44067 03001 99384 70770 46/// /0701 10088 40303 53029 90000
BBXX 41029 03001 99328 70796 46/// /0703 1//// 90000 555 11035 22040
BBXX 44033 03001 99441 70690 46/30 /2904 10088 40255 53011 90004 22200 00092 11101 70007 333 91205 555 11047 22049
AAXX 03001 40701 12960 02503 11052 21120 38626 40274 53004 60001 333
AAXX 03001 40704 12970 02706 11038 21103 38633 40246 58001 60001 333
AAXX 03001 40708 12960 00000 11038 21099 38675 40228 56003 60001 333
AAXX 03001 40710 12978 00000 11110 21128 38335 40276 53001 60001 333
AAXX 03001 40713 12960 01202 11066 21104 38688 40251 53002 60001 333
AAXX 03001 40731 12960 00000 11034 21070 38760 40242 57013 60001 333
AAXX 03001 40740 12560 51207 11012 21030 38749 40227 57016 60001 85700 333 85731
AAXX 03001 40747 12960 00000 11074 21102 38654 40244 55001 60001 333
AAXX 03001 40757 12960 03602 11004 21021 38929 40241 58007 60001 333
AAXX 03001 40763 12965 00000 10000 21005 38947 40237 57011 60001 333
AAXX 03001 40782 12962 01502 11048 21064 38904 40240 58004 60001 333
AAXX 03001 40783 12965 00000 11048 21119 37992 40214 56005 60001 333
AAXX 03001 40789 12965 00000 10034 20009 39241 40230 56008 60001 333
AAXX 03001 40798 12960 00000 11078 21129 37975 40240 58004 60001 333
AAXX 03001 40818 12970 03402 11004 21099 37985 40190 56006 60001 333
AAXX 03001 40827 12965 00000 10032 21015 38857 40220 58005 60001 333
AAXX 03001 40836 12965 00000 11020 21086 38217 40218 55000 60001 333
AAXX 03001 40851 12960 00000 11010 21051 38275 40173 58003 60001 333
AAXX 03001 40853 12960 00000 10012 21079 37762 40159 56006 60001 333
AAXX 03001 40854 12960 02702 10068 20017 38976 40185 57011 60001 333
AAXX 03001 40857 12960 00103 10134 20067 30174 40184 57003 60001 222// 00/// 20301 333
AAXX 03001 40859 12960 03402 10036 20022 38727 40160 58002 60001 333
AAXX 03001 40878 12965 03103 10106 21013 38851 40157 54000 60001 333
AAXX 03001 40879 12956 00000 10114 20005 39479 40170 53001 60001 70500 333
AAXX 03001 40883 11958 03603 10172 20067 30120 40142 56002 60001 70500 333
AAXX 03001 30372 32999 80000 11259 21278 39387 40347 53007 85077 333 21289 47009 55014
AAXX 03001 30433 32699 63201 11127 21170 39659 40282 52005 82501 333 21141 47005 55025
AAXX 03001 30554 119// 80000 11233 21245 39158 40347 52006 69942 77172 80006 333 21233 47009 55000
AAXX 03001 30635 328// 21302 11175 21194 39691 40303 52005 82040 333 21188 47017
AAXX 03001 30673 11996 80000 11240 21246 39486 40329 53008 69952 77177 8801/ 333 21240 47009 55043
AAXX 03001 30692 32999 10202 11321 21337 39791 40355 52/// 81030 333 21322 55064
AAXX 03001 30758 11995 80000 11241 21248 39438 40342 52015 69902 71072 85031 333 21250 47003 55000
AAXX 03001 30802 32999 50000 11228 21234 38675 48457 53001 82031 333 21245 47005 55063
AAXX 03001 30823 31998 60902 11258 21276 39640 40345 52013 70411 80002 333 21258 47004 55070
AAXX 03001 30879 11997 80000 11210 21229 39485 40309 53008 69952 77177 8802/ 333 21227 47005 55038
AAXX 03001 30935 31697 80000 11228 21247 39332 40356 52009 71511 8257/ 333 21251 46000 55049
AAXX 03001 30949 10000 11292 21298 39164 40391 53040 80011 333 21292 47002 55044
AAXX 03001 30965 12998 71001 11287 21306 39418 40343 52011 69942 82042 333 21288 47002 55041
AAXX 03001 31168 32999 00502 11128 21223 30236 40248 52009 333 21147 47026 55009
AAXX 03001 31300 31993 00000 11284 21296 30013 40339 52005 74840 333 21286 47011
AAXX 03001 31329 32999 00000 11312 21336 39612 40370 54000 333 21320 55023
AAXX 03001 31369 32999 00000 11194 21206 30189 40281 52004 333 21233 47036
AAXX 03001 31416 32999 00000 11293 21305 30200 40301 51004 333 21304 47009 55072
AAXX 03001 31484 32999 02701 11192 21218 39938 40302 53012 333 21192 47011
AAXX 03001 31512 319// 83502 11201 21227 30117 40299 53004 71011 8807/ 333 21232 47///
AAXX 03001 31538 32999 20302 11280 21298 39839 40325 57002 80001 333 21290 47016
AAXX 03001 31707 32598 80000 11166 21179 30182 40281 53008 86576 333 21176 47002
AAXX 03001 31735 32997 61001 11191 21219 30196 40292 53012 80001 333 21201 47011
AAXX 03001 31770 32999 02702 11161 21203 30267 40299 53013 333 21179 48011 55158
AAXX 03001 22028 41578 71912 10022 20000 39709 49745 56018 78582 86930 333 91014 91120
AAXX 03001 22106 41596 82003 10013 20008 39654 49730 56005 78382 889// 333 91006
AAXX 03001 22127 41498 72006 10010 21029 39574 49768 57014 70282 84930 333 91011 91113
AAXX 03001 22324 41684 81906 10020 21002 39768 49816 57010 70282 885// 333 91009 91114
AAXX 03001 22621 41350 81905 10001 21005 39740 49878 57023 8672/ 333 86709 91112
AAXX 03001 22831 41496 82003 10002 21003 39865 49925 57031 78582 889//
AAXX 03001 22892 41997 82602 10005 21001 39893 49909 56006 70282 8802/
AAXX 03001 26275 41497 81706 10039 20032 39933 49963 57019 76162 8872/ 333 88712 91013 91113
AAXX 03001 26389 41496 81904 10014 20006 39752 40014 57025 78082 889// 333 91113
AAXX 03001 26499 41497 81808 10009 21005 39833 40063 57033 78082 889// 333 87711 91114
AAXX 03001 26695 41396 81905 10004 21004 39804 40115 57023 77172 8672/ 333 86707
AAXX 03001 26882 41465 82007 10009 21005 39837 40114 57020 76062 8677/ 333 86716 91012 91113
AAXX 03004 NIL
AAXX 03004 70133 32966 00000 11233 21261 30173 40179 53030 92353 333 11194 21250 555 90300
AAXX 03004 70174 11466 80000 11106 21122 39865 40117 53037 60021 771// 92353 333 11094 21122 4/046 555 90300
AAXX 03004 70200 32466 43604 11211 21250 30181 40186 51028 92353 333 11206 21250 555 90300
AAXX 03004 70219 11148 80705 11067 21078 30110 40169 58002 69901 771// 92353 333 11067 21161 96010 555 90300
AAXX 03004 70231 12966 00000 11061 21106 30072 40203 51031 69901 92353 333 10000 21100 4/076 555 90300
AAXX 03004 70261 11461 82614 11039 21072 39978 40159 53034 69951 771// 92353 333 11039 21161 91019 555 90300
AAXX 03004 70267 12466 60000 11067 21078 39677 40179 51033 69981 92353 333 11044 21161 555 90300
AAXX 03004 70271 11458 80000 11011 21022 39574 40168 51041 69931 771// 92353 333 10006 21022 4/008 96010 555 90300
AAXX 03004 70273 12166 61803 10022 20000 30138 40197 51025 69901 92353 333 10028 21005 4/041 555 90300
AAXX 03004 70316 11262 81420 10056 20050 30046 40082 58042 60021 761// 92353 333 10061 20022 555 90300
AAXX 03004 70326 32666 80503 10011 20006 30164 40175 56006 92354 333 10017 20006 555 90300
AAXX 03004 70340 32966 63605 11022 21039 30147 40209 53003 92353 333 10022 21022 4/030 555 90300
AAXX 03004 70350 11262 80000 10033 20028 30165 40208 51008 69931 761// 92353 333 10083 20017 4/010 555 90300
AAXX 03004 70361 11456 82409 10056 20044 30202 40214 53003 60151 761// 92353 333 10056 20000 91016 96010 555 90300
AAXX 03004 70381 11358 80809 10028 20022 30247 40256 58005 69981 761// 92353 333 10028 20011 4/003 96010 555 90300
AAXX 03004 70414 37464 60313 10011 21011 39977 40016 50002 771// 92356 333 10017 21017 555 90300
AAXX 03004 03132 17562 /2820 10088 20072 39928 49941 55008 60031 782// 92350 333 82/23 85/33 90710 91132 91032
AAXX 03004 41128 32960 00000 10100 20020 38834 48537 333 59008 555 04410 50172
AAXX 03001 20107 41597 73503 11083 21115 39588 49683 52007 70282 87900 333 91006
AAXX 03001 22113 41575 81805 10013 21001 39669 49731 57006 78582 889// 333 91008 91116
AAXX 03001 22217 41476 71904 10019 21009 39758 49789 58003 70282 87900 333 85918 91007 91111
AAXX 03001 22235 41465 72104 10005 21003 39630 49820 57010 78583 87900 333 91008 91112
AAXX 03001 22349 41596 82015 10017 20001 39859 49871 57025 78082 889// 333 91017 91122
AAXX 03001 22408 41484 82204 10006 21023 39690 49836 57008 70282 885// 333 88617 91111
AAXX 03001 22602 42472 82502 10007 21007 39638 49859 57016 885// 333 88611
AAXX 03001 22619 41257 81903 10003 21003 39720 49878 57021 77176 8872/ 333 87705
AAXX 03001 22721 41/93 90000 10001 20001 39793 49893 57030 78682 333 93728
AAXX 03001 22802 41443 81801 10003 20000 39867 49890 57018 78582 889// 333 93702
AAXX 03001 22820 41356 82202 10004 20001 39755 49892 57037 77172 8672/ 333 86707
AAXX 03001 26059 41397 82702 10032 20027 39909 49933 53017 76162 8872/ 333 86709
AAXX 03001 26063 41497 82503 10032 20019 39904 49911 56005 76176 8872/
AAXX 03001 26094 41457 81804 10020 20015 39863 49938 56023 76162 8872/ 333 88711 91111
AAXX 03001 26157 41597 62604 10029 20019 39907 49956 53037 70282 83501 333 91112
AAXX 03001 26167 41337 82805 10056 20047 39824 49933 57007 76386 8872/ 333 88708 91112
AAXX 03001 26258 41498 82903 10038 20023 39926 49980 53023 70262 8653/ 333 91114
AAXX 03001 26298 41496 81905 10015 20007 39774 40002 57026 72582 889// 333 91113
AAXX 03001 26359 41449 82204 10051 20046 39849 49981 57008 76162 8872/ 333 91114
AAXX 03001 26702 41496 72702 10050 20038 30055 40081 52018 78082 87900 333 91006
AAXX 03001 26781 41397 82005 10016 20010 39787 40082 57022 72162 8802/ 333 88509 91113
AAXX 03001 27208 41496 81807 10006 21005 39857 40033 56028 76176 8872/ 333 91012 91114
AAXX 03001 27402 41497 81708 10008 21006 39888 40069 57034 76176 8802/ 333 88510 91012 91112
AAXX 03004 78526 32566 40407 10267 20211 30132 40153 52017 92356 333 10289 20239 555 90300
AAXX 03004 78543 35566 60604 10261 20206 30068 40150 53015 92353 333 10300 20239 555 90300
AAXX 03001 40701 12960 02503 11052 21120 38626 40274 53004 60001 333
AAXX 03001 40704 12970 02706 11038 21103 38633 40246 58001 60001 333
AAXX 03001 40708 12960 00000 11038 21099 38675 40228 56003 60001 333
AAXX 03001 40710 12978 00000 11110 21128 38335 40276 53001 60001 333
AAXX 03001 40713 12960 01202 11066 21104 38688 40251 53002 60001 333
AAXX 03001 40731 12960 00000 11034 21070 38760 40242 57013 60001 333
AAXX 03001 40740 12560 51207 11012 21030 38749 40227 57016 60001 85700 333 85731
AAXX 03001 40747 12960 00000 11074 21102 38654 40244 55001 60001 333
AAXX 03001 40757 12960 03602 11004 21021 38929 40241 58007 60001 333
AAXX 03001 40763 12965 00000 10000 21005 38947 40237 57011 60001 333
AAXX 03001 40782 12962 01502 11048 21064 38904 40240 58004 60001 333
AAXX 03001 40783 12965 00000 11048 21119 37992 40214 56005 60001 333
AAXX 03001 40789 12965 00000 10034 20009 39241 40230 56008 60001 333
AAXX 03001 40798 12960 00000 11078 21129 37975 40240 58004 60001 333
AAXX 03001 40818 12970 03402 11004 21099 37985 40190 56006 60001 333
AAXX 03001 40827 12965 00000 10032 21015 38857 40220 58005 60001 333
AAXX 03001 40836 12965 00000 11020 21086 38217 40218 55000 60001 333
AAXX 03001 40851 12960 00000 11010 21051 38275 40173 58003 60001 333
AAXX 03001 40853 12960 00000 10012 21079 37762 40159 56006 60001 333
AAXX 03001 40854 12960 02702 10068 20017 38976 40185 57011 60001 333
AAXX 03001 40857 12960 00103 10134 20067 30174 40184 57003 60001 222// 00/// 20301 333
AAXX 03001 40859 12960 03402 10036 20022 38727 40160 58002 60001 333
AAXX 03001 40878 12965 03103 10106 21013 38851 40157 54000 60001 333
AAXX 03001 40879 12956 00000 10114 20005 39479 40170 53001 60001 70500 333
AAXX 03001 40883 11958 03603 10172 20067 30120 40142 56002 60001 70500 333
AAXX 03001 28676 415// 81702 11166 21185 30084 40220 57006 77187 8802/ 555 1/115
AAXX 03001 28766 419// 52302 11148 21170 30021 40223 57005 71011 85010 555 1/116
AAXX 03001 28867 NIL
AAXX 03001 28879 415// 82406 11062 21077 39934 40229 57002 77177 885// 555 1/108
AAXX 03001 28952 NIL
AAXX 03001 28966 415// 82503 11062 21070 39951 40242 53008 77177 885// 555 1/109
AAXX 03001 29802 419// 22103 11126 21140 30079 40230 52003 71071 88001 555 1/113
AAXX 03001 29807 429// 02202 11169 21188 30116 40243 52006 555 1/119
AAXX 03001 34691 41998 83202 11040 21062 30260 40247 52005 70242 8802/ 555 1/105
AAXX 03001 35067 415// 82102 11062 21070 39972 40256 57001 77172 8802/ 555 1/106
AAXX 03001 35078 415// 82505 11066 21074 39868 40258 54000 78583 889// 555 1/107
AAXX 03001 35085 419// 82604 11072 21081 39761 40251 54000 77172 8802/ 555 1/108
AAXX 03001 35108 415// 80000 11048 21065 30213 40260 52006 70272 885//
AAXX 03001 35188 413// 81702 11077 21095 39820 40269 58001 77177 8872/ 555 1/108
AAXX 03001 35217 425// 80000 11054 21058 30216 40258 52009 885// 555 1/106
AAXX 03001 35229 415// 80301 11062 21074 39961 40242 52005 77072 885// 555 1/106
AAXX 03001 35302 415// 83501 11082 21096 30233 40255 52006 77210 886// 555 1/109
AAXX 03001 35357 429// 31802 11169 21188 39823 40290 54000 83050 555 1/160
AAXX 03001 35394 41396 81801 11093 21105 39577 40280 58004 71022 886// 333 88709 555 1/109
AAXX 03001 35406 425// 80000 11046 21063 30250 40252 52005 885// 555 1/106
AAXX 03001 35416 415// 80000 11058 21084 30134 40258 51008 77772 886// 555 1/106
AAXX 03001 35426 419// 82803 11059 21070 39946 40246 52007 70272 8801/ 555 1/106
AAXX 03001 35497 429// 00000 11165 21189 39450 40302 53001 555 1/118
AAXX 03001 35532 42498 80000 11064 21027 39734 40243 52012 8802/ 555 1/108
AAXX 03001 35671 42998 40502 11101 21124 39832 40281 53001 84040 555 1/111
AAXX 03001 35700 41598 80802 11021 21046 30269 40245 58002 77172 8802/ 555 1/102
AAXX 03001 35746 414// 82308 11059 21066 30186 40255 52021 73673 8802/ 555 1/104
AAXX 03001 35796 41597 83502 11062 21097 39823 40270 53016 78782 8692/ 555 1/106
AAXX 03001 35849 42598 82703 11046 21059 30186 40275 52015 885// 555 1/104
AAXX 03001 35925 415// 81801 11104 21117 30151 40269 58004 71022 886// 555 1/110
AAXX 03001 35953 415// 82505 11025 21038 30141 40273 52015 70272 885// 555 1/103
AAXX 03001 35969 419// 80000 11033 21047 30106 40283 52009 72272 8802/ 555 1/103
AAXX 03001 36003 41597 80000 11068 21077 30090 40246 54000 77177 8802/ 555 1/107
AAXX 03001 36152 425// 82504 11074 21118 30074 40268 53003 885// 555 1/109
AAXX 03001 36177 429// 50000 11149 21163 30030 40292 52007 82031 555 1/114
AAXX 03001 36208 415// 80901 11090 21101 39251 40260 53003 77172 8672/ 555 1/110
AAXX 03001 36397 426// 80000 11098 21110 39691 40274 58007 885// 555 1/108
AAXX 03001 36428 414// 80000 11052 21066 39736 40243 53001 77172 8272/ 333 95090 555 1/106
AAXX 03001 36535 429// 72601 11067 21100 39608 40204 53007 87030 555 1/110
AAXX 03001 36639 415// 80000 11020 21029 39617 40224 53010 77177 8802/ 555 1/103
AAXX 03001 36821 415// 82001 11007 21017 39774 40267 52013 71082 889// 333 91105
AAXX 03001 36859 414// 80000 11012 21022 39485 40275 52017 77377 8802/ 333 91105 555 1/000
AAXX 03001 36864 426// 82708 10014 21015 39373 40268 52016 885// 555 91111
AAXX 03001 36870 415// 80000 10018 20005 39256 40270 51010 78088 889// 333 91103 555 1/000
AAXX 03001 38001 41497 80502 10015 20001 30270 40240 52003 70262 8872/ 555 1/001
AAXX 03001 38062 426// 82302 11024 21050 30116 40282 52014 885// 555 1/103
AAXX 03001 38069 425// 72403 11010 21026 30097 40293 52010 87500
AAXX 03001 38196 41596 80000 11054 21068 39290 40304 51007 77177 8802/
AAXX 03001 38198 415// 82302 11012 21019 30043 40309 52001 72272 885// 555 1/101
AAXX 03001 38222 41497 80000 10006 21008 39720 40285 52017 77177 8872/ 555 1/100
AAXX 03001 38232 41996 51801 11004 21007 30150 40252 54000 71022 85080 555 14101
AAXX 03001 38328 415// 82705 11009 21013 39563 40308 51001 78588 889// 555 1/101
AAXX 03001 38334 41294 82605 11020 21029 39317 40302 52005 77377 8802/ 555 1/102
AAXX 03001 38341 42697 32602 11008 21033 39485 40285 52008 83400 555 1/105 91112
AAXX 03001 38343 41696 80000 11004 21028 39432 40288 52014 77172 8872/
AAXX 03001 38439 42598 80501 10017 20003 39967 40311 58001 885// 555 12002
AAXX 03001 38598 415// 82701 10030 20020 40208 52006 70262 886//
AAXX 03001 38599 NIL
AAXX 03001 38725 425// 60000 11034 21055 37771 48510 58006 85902
AAXX 03001 38734 425// 40706 11042 21098 37458 47070 51001 82903
AAXX 03001 38744 NIL
AAXX 03001 38836 41/// 90000 10004 21007 39323 40289 57016 74544
AAXX 03001 38838 NIL
AAXX 03001 38844 NIL
AAXX 03001 38846 NIL
AAXX 03001 38847 NIL
AAXX 03001 38932 NIL
AAXX 03001 38933 NIL
AAXX 03001 38944 415// 81302 10042 20032 39708 40254 58001 70282 889//
AAXX 03001 38954 428// 60000 10001 21014 37936 48530 58009 865//
AAXX 03004 91165 32466 40216 30125 90000 555 90300
AAXX 03004 91182 32566 40611 10294 20183 30147 40151 58021 92353 333 10294 20217 555 90300
AAXX 03004 91190 32566 40516 10278 20200 30141 40160 56025 92354 333 10283 20178 91019 555 90300
AAXX 03004 91212 32566 60711 10289 20244 31368 40102 50010 92354 333 10289 20261 555 90300
AAXX 03004 91285 32466 80609 10260 20210 30141 90004 555 90300
AAXX 03004 91317 12474 60505 10278 20263 30106 40110 5//// 60014 82171 333 56199 70023 59013 82815 83365 555 90300
AAXX 03004 91408 12474 31205 10306 20253 30042 40080 52012 60164 82271 333 20256 56999 58005 70163 555 90300
BBXX 9HJB9 03004 99258 70776 41798 50130 10215 20193 40240 52020 70222 85168 22264 04254 20302 3//// 4//// 5//// 6//// 80200 ICE /////
BBXX ZCDF8 03004 99070 11072 41398 70530 10260 20218 40088 53015 70222 8/7// 22244 00270 20606 308// 40405 5//// 80232
BBXX WZE4928 03004 99466 70871 41/99 01442 11011 2//// 40227 57021 70100 80000 22263 00061 2//04 3//// 4//// 5//// 6//// 8//// ICE /////
BBXX C6VM6 03004 99346 10222 41/98 22608 10160 20126 40250 54000 7//00 8//// 22223 00170 2//// 3//// 4//// 5//// 6//// 80140 ICE /////
BBXX C6SE3 03004 99125 70692 41797 60527 10275 20262 40150 54/// 702// 8/2// 22274 00300 20303 3//// 4//// 5//// 6//// 80265 ICE /////
AAXX 03004 91245 32466 20713 10290 20230 30134 92355 555 90300
AAXX 03001 28676 415// 81702 11166 21185 30084 40220 57006 77187 8802/ 555 1/115
AAXX 03001 28766 419// 52302 11148 21170 30021 40223 57005 71011 85010 555 1/116
AAXX 03001 28867 NIL
AAXX 03001 28879 415// 82406 11062 21077 39934 40229 57002 77177 885// 555 1/108
AAXX 03001 28952 NIL
AAXX 03001 28966 415// 82503 11062 21070 39951 40242 53008 77177 885// 555 1/109
AAXX 03001 29802 419// 22103 11126 21140 30079 40230 52003 71071 88001 555 1/113
AAXX 03001 29807 429// 02202 11169 21188 30116 40243 52006 555 1/119
AAXX 03001 34691 41998 83202 11040 21062 30260 40247 52005 70242 8802/ 555 1/105
AAXX 03001 35067 415// 82102 11062 21070 39972 40256 57001 77172 8802/ 555 1/106
AAXX 03001 35078 415// 82505 11066 21074 39868 40258 54000 78583 889// 555 1/107
AAXX 03001 35085 419// 82604 11072 21081 39761 40251 54000 77172 8802/ 555 1/108
AAXX 03001 35108 415// 80000 11048 21065 30213 40260 52006 70272 885//
AAXX 03001 35188 413// 81702 11077 21095 39820 40269 58001 77177 8872/ 555 1/108
AAXX 03001 35217 425// 80000 11054 21058 30216 40258 52009 885// 555 1/106
AAXX 03001 35229 415// 80301 11062 21074 39961 40242 52005 77072 885// 555 1/106
AAXX 03001 35302 415// 83501 11082 21096 30233 40255 52006 77210 886// 555 1/109
AAXX 03001 35357 429// 31802 11169 21188 39823 40290 54000 83050 555 1/160
AAXX 03001 35394 41396 81801 11093 21105 39577 40280 58004 71022 886// 333 88709 555 1/109
AAXX 03001 35406 425// 80000 11046 21063 30250 40252 52005 885// 555 1/106
AAXX 03001 35416 415// 80000 11058 21084 30134 40258 51008 77772 886// 555 1/106
AAXX 03001 35426 419// 82803 11059 21070 39946 40246 52007 70272 8801/ 555 1/106
AAXX 03001 35497 429// 00000 11165 21189 39450 40302 53001 555 1/118
AAXX 03001 35532 42498 80000 11064 21027 39734 40243 52012 8802/ 555 1/108
AAXX 03001 35671 42998 40502 11101 21124 39832 40281 53001 84040 555 1/111
AAXX 03001 35700 41598 80802 11021 21046 30269 40245 58002 77172 8802/ 555 1/102
AAXX 03001 35746 414// 82308 11059 21066 30186 40255 52021 73673 8802/ 555 1/104
AAXX 03001 35796 41597 83502 11062 21097 39823 40270 53016 78782 8692/ 555 1/106
AAXX 03001 35849 42598 82703 11046 21059 30186 40275 52015 885// 555 1/104
AAXX 03001 35925 415// 81801 11104 21117 30151 40269 58004 71022 886// 555 1/110
AAXX 03001 35953 415// 82505 11025 21038 30141 40273 52015 70272 885// 555 1/103
AAXX 03001 35969 419// 80000 11033 21047 30106 40283 52009 72272 8802/ 555 1/103
AAXX 03001 36003 41597 80000 11068 21077 30090 40246 54000 77177 8802/ 555 1/107
AAXX 03001 36152 425// 82504 11074 21118 30074 40268 53003 885// 555 1/109
AAXX 03001 36177 429// 50000 11149 21163 30030 40292 52007 82031 555 1/114
AAXX 03001 36208 415// 80901 11090 21101 39251 40260 53003 77172 8672/ 555 1/110
AAXX 03001 36397 426// 80000 11098 21110 39691 40274 58007 885// 555 1/108
AAXX 03001 36428 414// 80000 11052 21066 39736 40243 53001 77172 8272/ 333 95090 555 1/106
AAXX 03001 36535 429// 72601 11067 21100 39608 40204 53007 87030 555 1/110
AAXX 03001 36639 415// 80000 11020 21029 39617 40224 53010 77177 8802/ 555 1/103
AAXX 03001 36821 415// 82001 11007 21017 39774 40267 52013 71082 889// 333 91105
AAXX 03001 36859 414// 80000 11012 21022 39485 40275 52017 77377 8802/ 333 91105 555 1/000
AAXX 03001 36864 426// 82708 10014 21015 39373 40268 52016 885// 555 91111
AAXX 03001 36870 415// 80000 10018 20005 39256 40270 51010 78088 889// 333 91103 555 1/000
AAXX 03001 38001 41497 80502 10015 20001 30270 40240 52003 70262 8872/ 555 1/001
AAXX 03001 38062 426// 82302 11024 21050 30116 40282 52014 885// 555 1/103
AAXX 03001 38069 425// 72403 11010 21026 30097 40293 52010 87500
AAXX 03001 38196 41596 80000 11054 21068 39290 40304 51007 77177 8802/
AAXX 03001 38198 415// 82302 11012 21019 30043 40309 52001 72272 885// 555 1/101
AAXX 03001 38222 41497 80000 10006 21008 39720 40285 52017 77177 8872/ 555 1/100
AAXX 03001 38232 41996 51801 11004 21007 30150 40252 54000 71022 85080 555 14101
AAXX 03001 38328 415// 82705 11009 21013 39563 40308 51001 78588 889// 555 1/101
AAXX 03001 38334 41294 82605 11020 21029 39317 40302 52005 77377 8802/ 555 1/102
AAXX 03001 38341 42697 32602 11008 21033 39485 40285 52008 83400 555 1/105 91112
AAXX 03001 38343 41696 80000 11004 21028 39432 40288 52014 77172 8872/
AAXX 03001 38439 42598 80501 10017 20003 39967 40311 58001 885// 555 12002
BBXX 46111 03001 99481 71227 46/// /3304 10070 40327 53004 90000 22200 00068
BBXX 46112 03001 99481 71227 46/// /3403 10069 40329 53005 90000
AAXX 03004 60351 12560 21603 10140 20079 40183 56001 60001 82200 333 0//00 82823 95990
AAXX 03004 60355 12960 12206 10145 20078 40192 50000 60001 81030 333 0//00 81360 95990
AAXX 03004 60445 12560 33602 10052 20043 39046 48525 58002 60001 81232 333 81826 83073 95990
AAXX 03004 60468 12560 32008 10099 20053 39259 48534 58003 60001 81202 333 81823 95990
AAXX 03004 60507 11560 81806 10078 20076 40203 50019 60011 76162 8424/ 333 84830 85360 95990
AAXX 03004 60511 12560 73012 10073 20050 39061 48505 53004 60001 83202 333 0//00 83823 85071 95990
AAXX 03004 60536 12560 82412 10073 20049 39318 48512 53015 60001 84502 333 84626 85073 95990
AAXX 03004 60550 12560 32410 10054 20031 38674 48514 56011 60001 83200 333 83823 95990
AAXX 03004 60555 12970 00000 10111 20069 40213 58006 60001 333 0//00
AAXX 03004 60559 12960 00000 10114 20086 40216 58005 60001 333 0//00
AAXX 03004 60581 12960 00804 10104 20039 40205 58009 60001 333 0//00
AAXX 03004 60607 12960 03608 10109 20033 40184 58012 60001 333 0//00
AAXX 03004 60640 12960 50910 10120 20009 40174 58010 60001 80002 333 0//00 85073
AAXX 03004 60351 12560 21603 10140 20079 40183 56001 60001 82200 333 0//00 82823 95990
AAXX 03004 60355 12960 12206 10145 20078 40192 50000 60001 81030 333 0//00 81360 95990
AAXX 03004 60445 12560 33602 10052 20043 39046 48525 58002 60001 81232 333 81826 83073 95990
AAXX 03004 60468 12560 32008 10099 20053 39259 48534 58003 60001 81202 333 81823 95990
AAXX 03004 60507 11560 81806 10078 20076 40203 50019 60011 76162 8424/ 333 84830 85360 95990
AAXX 03004 60511 12560 73012 10073 20050 39061 48505 53004 60001 83202 333 0//00 83823 85071 95990
AAXX 03004 60536 12560 82412 10073 20049 39318 48512 53015 60001 84502 333 84626 85073 95990
AAXX 03004 60550 12560 32410 10054 20031 38674 48514 56011 60001 83200 333 83823 95990
AAXX 03004 60555 12970 00000 10111 20069 40213 58006 60001 333 0//00
AAXX 03004 60559 12960 00000 10114 20086 40216 58005 60001 333 0//00
AAXX 03004 60581 12960 00804 10104 20039 40205 58009 60001 333 0//00
AAXX 03004 60607 12960 03608 10109 20033 40184 58012 60001 333 0//00
AAXX 03004 60640 12960 50910 10120 20009 40174 58010 60001 80002 333 0//00 85073
AAXX 03004 60252 32960 01202 10111 20087 40217
AAXX 03001 08548 32/// /9901 10071 20051 30078 40289 52008
AAXX 03001 08579 32/// /36// 10110 20069 30153 40280 52007
BBXX DDZF2 03004 99368 10012 41697 72520 10160 20144 40190 56020 70322 83474 22224 00180 20604 323// 40602 80150
AAXX 03004 64810 32460 50000 10255 20248 30069 40098 84530 333 59011 84614 84364
AAXX 03004 60360 12660 22206 10131 20105 40205 51001 60001 82230 333 0//00 82826 95990
AAXX 03004 60390 12970 62602 10125 20076 40188 56003 60001 80002 333 86070 95990
AAXX 03004 60402 12560 32404 10122 20088 40196 51003 60001 82202 333 82823 95990
AAXX 03004 60419 12560 32403 10072 20041 40212 54000 60001 81502 333 81630 95990
AAXX 03004 60475 12660 51406 10089 20073 39278 48546 54000 60001 85500 333 85633 95990
AAXX 03004 60490 11560 82014 10107 20095 40182 53002 60021 72162 8557/ 333 0//12 85620 86460 95990
AAXX 03004 60525 12660 60903 10144 20098 40206 58002 60001 82230 333 0//00 82840 86360 95990
AAXX 03004 60531 11458 82614 10094 20082 40203 55003 60061 76166 8527/ 333 0//11 83710 83826 95990
AAXX 03004 60566 12660 20000 10096 20067 40221 58008 60001 82200 333 0//00 82840
AAXX 03004 60571 12962 52104 10100 20070 39268 48526 57012 60001 80002 333 0//00 85073 95990
AAXX 03004 60580 12960 03306 10096 20060 40206 57008 60001 333 0//00
AAXX 03004 60590 12960 03106 10090 20080 40204 58010 60001 333 0//00
AAXX 03004 60611 12860 31114 10110 20023 40211 58008 60001 82031 333 0//00 82358
AAXX 03004 60620 12960 13610 10105 20035 40197 58005 60001 80002 333 0//00 81075
AAXX 03004 60630 NIL
AAXX 03004 60656 NIL
AAXX 03004 60670 12970 51807 10110 21025 39103 48548 58001 60001 80004 333 0//00 85073 95990
AAXX 03004 60680 12970 21206 10098 21019 38666 48538 58007 60001 80002 333 82073 95990
AAXX 03001 08521 11465 50205 10182 20112 30230 40301 50003 69941 70281 85800 333 85816 91008
AAXX 03001 08524 11465 50206 10162 20099 30206 40305 52002 69931 70282 85800 333 83815 83630 91111
AAXX 03004 04048 42689 33520 11019 21082 49802 52020 81548 555 3/632
AAXX 03004 64500 32460 72206 10270 20238 30087 40100 875// 92358 333 0//00 58004 83610 87633
AAXX 03004 64501 NIL
AAXX 03004 64570 11250 82103 10220 20215 39602 40111 60181 79596 8692/ 333 0//63 58000 85608 82920 88460 94959 95839
BBXX MQEC7 03003 99432 70097 41/98 63616 10130 20074 40283 51007 7//// 8//// 22284 00150 2//// 3//// 4//07 5//// 80100
BBXX PCBT 03003 99438 70102 41/98 82821 10130 20094 40276 52006 72582 8//// 22254 2//// 80110
AAXX 03004 78988 02475 30811 10280 20251 30102 40112 52015 60001 83200 333 10308 20276 58003 60007 83816
AAXX 03004 78990 02475 50917 10266 2026 40122 52017 69981 85200 333 10315 20262 58005 69987 85818
AAXX 03004 78873 01081 /0509 10266 20232 30099 52016 60001 70000 333 10286 20000 58007 60007
BBXX PHAC 03003 99374 70117 41/98 /0225 10159 20093 40290 7//// 8//// 22282 2//// 80122 59992
AAXX 03004 91945 16/// /0412 10286 20223 30131 40136 56014 69924 333 20229 59001
BBXX 46207 03001 99509 71299 46/// /3209 10083 40379 57007 22200 00089 11205 70027 333 91210
AAXX 03004 89528 46/// /3621 4//// 5////
AAXX 03004 78988 02475 30811 10280 20251 30102 40112 52015 60001 83200 333 10308 20276 58003 60007 83816
AAXX 03004 78990 02475 50917 10266 2026 40122 52017 69981 85200 333 10315 20262 58005 69987 85818
AAXX 03004 78873 01081 /0509 10266 20232 30099 52016 60001 70000 333 10286 20000 58007 60007
BBXX 3ERR2 03004 99635 10053 43/// /1937 10059 20044 49757 57051 22200 10810 70051 333 91155
BBXX LF3F 03004 99643 10078 43/// /1925 10042 20011 49791 57039 22200 04095 10809 70045 333 91134
BBXX LF3N 03004 99653 10073 41497 72025 10043 20023 49767 57026 70282 8//// 22200 00095 10809 70046
BBXX LF4B 03004 99606 10037 47/95 /1841 10075 49767 57075 781// 22200 00078 10710 70052 333 91151
BBXX LF4C 03004 99584 10019 43/// /2136 10087 20074 49795 57073 22200 10809 70047 333 91142
BBXX LF5T 03004 99660 10081 41496 /2026 10044 20034 49765 57037 700// 22200 06086 10808 70042 333 91144
BBXX 46207 03001 99509 71299 46/// /3209 10083 40379 57007 22200 00089 11205 70027 333 91210
AAXX 03004 78988 02475 30811 10280 20251 30102 40112 52015 60001 83200 333 10308 20276 58003 60007 83816
AAXX 03004 78990 02475 50917 10266 2026 40122 52017 69981 85200 333 10315 20262 58005 69987 85818
AAXX 03004 78873 01081 /0509 10266 20232 30099 52016 60001 70000 333 10286 20000 58007 60007
AAXX 03004 87344 32960 10511 10219 20095 39562 40098 52020 81070 333 10291 20219 56000 81360
AAXX 03004 87349 31965 00505 10225 20095 39721 40108 52023 70500 333 10284 20197
AAXX 03004 87371 32962 00505 10230 20126 30098 40120 52001 333 10272 20220
AAXX 03004 87374 32965 00504 10229 20125 30032 40118 53007 333 10276 20208
AAXX 03004 87395 32965 00000 10221 20117 30086 40131 53007 333 10270 20188
AAXX 03004 87418 NIL
AAXX 03004 87436 32670 40510 10255 20117 39258 40042 50008 82506 333 10312 20209 56506 82640 83270
AAXX 03004 87448 32565 60512 10256 20125 39525 40066 52023 81576 333 10343 20246 56566 81630 83270
AAXX 03004 87453 32565 40216 10226 20100 39610 40089 52020 81114 333 10285 20204 56113 81830
AAXX 03004 87467 32970 00509 10214 20101 39973 40105 53009 333 10290 20212
AAXX 03004 87497 32965 00908 10236 20089 30113 40140 53009 333 10281 20208
AAXX 03004 87506 32570 22710 10232 21033 38544 48470 53013 82900 333 10232 21033 38544 48470 53013 82900 333 10280 20195 56600 57922 82930 95000
AAXX 03004 87509 31570 31805 10238 20071 39241 40064 52035 71300 83900 333 10320 20228 56200 57923 82830 82945
AAXX 03004 87532 31960 30505 10247 20129 39936 40102 53020 70611 83070 333 10300 20204 56060 83360
AAXX 03004 87534 32960 40504 10217 20120 39945 40104 52020 82076 333 10295 20203 56056 82360 83270
AAXX 03004 87548 32960 30509 10214 20092 30022 40118 52013 80004 333 10289 20184 56005 83070
AAXX 03004 87576 32960 10912 10216 20080 30125 40148 53005 80005 333 10275 20216 56009 81270
AAXX 03004 87582 32980 10919 10215 20128 30142 40149 53004 80001 333 10245 20198 56004 81070
AAXX 03004 87585 32960 01411 10214 20123 30117 40146 53003 333 10266 20208
AAXX 03003 87480 32965 10704 10230 20133 30086 40115 53007 80001 333 10289 20221 56005 81070
AAXX 03001 22165 41496 81415 10010 21001 39785 49845 57023 77172 8802/ 333 91123
AAXX 03001 22676 41484 81607 11036 21054 39941 40020 58033 73632 885// 333 91113
AAXX 03001 22954 41498 81709 11039 21054 39778 40030 57036 73632 887// 333 86710
AAXX 03001 23405 41371 81606 11064 21087 39954 40056 57022 73632 886// 333 88709
AAXX 03001 23412 41499 81705 11079 21097 30002 40103 57011 70282 883// 333 86711
AAXX 03001 23803 41597 82504 11080 21094 39993 40180 58009 77172 8802/ 333 88523
AAXX 03001 27066 41498 81905 11047 21067 39972 40154 57023 73632 888// 333 88713
AAXX 03001 27083 41484 81704 11079 21089 39952 40185 57017 73632 885//
AAXX 03001 27113 NIL
AAXX 03001 27242 42498 82603 11042 21054 39989 40121 57032 889// 333 88918
AAXX 03001 27329 42574 82006 11021 21043 39994 40122 57031 885// 333 91113
AAXX 03001 27355 42997 01605 11065 21073 30030 40202 57013
AAXX 03001 27373 42396 81605 11065 21073 39995 40222 58019 886// 333 88708
AAXX 03001 27665 42297 81901 11066 21074 39973 40255 58006 886// 333 88705
AAXX 03001 27835 425// 71903 11049 21085 30070 40241 57004 875// 333 87635
AAXX 03001 28009 42998 82204 11066 21078 30003 40221 57007 8807/
AAXX 03001 28411 41597 82602 11060 21071 30046 40248 58004 77172 8657/ 333 86622
AAXX 03001 28418 41497 80000 11055 21062 30082 40255 52002 78582 889// 333 88916
AAXX 03001 34560 42597 71203 11041 21051 30096 40269 52008 87500 333 87628
AAXX 03001 34720 42598 80701 11004 21023 30222 40263 52004 885//
AAXX 03001 34730 41497 80603 11014 21026 30167 40262 52003 70272 885// 333 88610
AAXX 03001 34740 41596 80302 11006 21010 30154 40254 50008 71022 885//
AAXX 03001 34824 41596 80101 10019 20010 30258 40263 52007 71022 8850/
AAXX 03001 34858 41395 80501 11006 21010 30136 40247 53005 76165 8802/
AAXX 03001 34866 41498 80404 11031 21032 30256 40247 52010 70277 8860/ 333 88713
AAXX 03001 34880 41395 80204 11017 21017 30253 40226 52012 77377 8872/
AAXX 03001 37018 42598 80301 10038 20006 30187 40264 52007 8890/
AAXX 03001 37054 42697 82801 10000 21013 39867 40262 53002 8553/
AAXX 03001 37472 42997 73003 10022 21021 30271 40247 52016 83081
AAXX 03001 33088 32997 22503 10040 20000 39941 40133 57002 82030
AAXX 03001 22282 415// 82212 11020 21027 39911 49912 58011 78682 889// 333 91118
AAXX 03001 22438 NIL
AAXX 03001 22471 41973 81709 11029 21049 39907 49931 57031 77187 8802/ 333 91014 91114
AAXX 03001 22563 41396 82005 11032 21039 39925 49964 57028 77173 8872/ 333 86708 91112
AAXX 03001 22641 41398 81602 11007 21010 39890 49906 57037 77173 8872/ 333 88707 91109
AAXX 03001 22695 42498 81805 11054 21068 39924 40080 57024 887// 333 87712
AAXX 03001 22867 42498 81807 11030 21057 39918 40033 57037 886// 333 88714 91114
AAXX 03001 22939 41396 81810 11006 21018 39823 49985 57030 77177 8872/ 333 91118 84708
AAXX 03001 22996 41997 82004 11080 21090 39997 40195 57009 70272 8802/
AAXX 03001 23324 41378 82205 11075 21088 30025 40105 58011 70232 886// 333 88708
AAXX 03001 27051 42597 81806 11046 21062 39925 40095 57032 8453/
AAXX 03001 27225 42464 82006 11010 21032 39949 40081 57036 885// 333 88618 91013 91113
AAXX 03001 27252 41498 82007 11053 21074 39971 40162 57023 73632 885// 333 88617 91014
AAXX 03001 27333 42484 81808 11041 21067 39974 40135 57026 887// 333 88712 91014
AAXX 03001 27369 42697 81803 11058 21073 30075 40218 57016 885//
AAXX 03001 27393 41497 82504 11071 21080 30070 40244 58004 71022 886//
AAXX 03001 27479 41497 82403 11055 21076 30094 40234 58018 77172 88721 333 88710
AAXX 03001 27532 42497 82006 11038 21063 39955 40174 57020 8557/ 333 85713
AAXX 03001 27648 41997 01903 11089 21104 30059 40236 58007 73630
AAXX 03001 27675 41996 81602 11090 21101 30084 40263 58004 71011 8802/
AAXX 03001 27679 42598 82001 11080 21086 30035 40271 54000 885// 333 88621
AAXX 03001 28214 41996 82604 11056 21074 30019 40238 57002 73673 8807/
AAXX 03004 60369 NIL
AAXX 03004 60403 NIL
AAXX 03004 60425 12565 72608 10127 20102 40191 53010 60001 83232 333 0//00 83826 83360 95990
BBXX BATFR13 03004 99267 70432 44498 60720 10219 20165 40230 58001 70222 863// 22254 00252 20000 302// 41204 5////
BBXX FVNM 03004 99142 71168 46/// /0507 10267 20219 40122 56007 22200 00270
BBXX BATEU06 03004 99473 70705 46/// /0214 11005 21030 40268 53026 22283 00047
BBXX DFWV2 03004 99105 70986 41/// 20818 10265 20206 40120 54000 7//00 8//4/ 2227/ 29904 336// 4//02 5////
BBXX A8KM9 03004 99295 71250 41/98 33421 10194 20123 40188 56040 70200 82170 22234 20404 336// 40605 80151
AAXX 03001 08501 32/// /2101 10151 20109 30326 40363 54000 555 60005
AAXX 03001 08505 32470 70203 10162 20114 30308 40358 50001 878// 333 83814 86630 555 60007
AAXX 03001 08506 32/// /0203 10148 20123 30297 40370 52002 555 60005
AAXX 03001 08509 32560 80000 10150 20134 30301 40366 50000 888// 333 83825 88630 555 60007
AAXX 03001 08511 32/// /0602 10147 20111 30257 40366 54000 555 60005
AAXX 03001 08512 32470 70302 10151 20120 30271 40357 52001 878// 333 82815 86630 555 60005
AAXX 03001 08515 11470 70703 10150 20142 30230 40353 50002 69911 72052 85801 333 82817 85624 87070 910// 911// 555 69917 912//
AAXX 03001 08521 11465 50205 10182 20112 30230 40301 50003 69941 70281 85800 333 85816 91008 555 69927
AAXX 03001 08522 32/// /9902 10179 20111 30227 40296 52002 333 91105 555 60005
AAXX 03001 08524 11465 50206 10162 20099 30206 40305 52002 69931 70282 85800 333 83815 83630 91111 555 60005
AAXX 03001 08530 NIL
AAXX 03001 08531 32/// /0210 10145 20089 30242 40280 52002 555 60005
AAXX 03001 08532 NIL
AAXX 03001 08533 32/// /0207 10123 20076 30234 40263 54000 333 91113 555 60005
AAXX 03001 08534 32962 23505 10106 20076 30257 40275 51006 80001 333 82070 555 60007
AAXX 03001 08535 32/// /3604 10118 20073 30187 40281 52007 333 91006 91108 555 60005
AAXX 03001 08537 NIL
AAXX 03001 08540 32560 20104 10090 20058 30211 40281 52003 81204 333 81820 555 60007
AAXX 03001 08541 NIL
AAXX 03001 08544 22860 43605 10068 20047 30263 40284 50006 81034 333 81357 83070 555 60007
AAXX 03001 08545 31965 20303 10087 20042 30206 40292 52006 70200 80002 333 82075 91105 555 60005
AAXX 03001 08548 32/// /9901 10071 20051 30078 40289 52008 555 60005
AAXX 03001 08551 32/// /0000 10066 20048 30237 40297 52003 555 60005
AAXX 03001 08554 32965 03505 10118 20049 30239 40249 57007 333 91009 91110 555 60005
AAXX 03001 08558 32/// /3406 10078 20049 39960 40260 52005 333 91009 91113 555 60005
AAXX 03001 08560 32/// /3602 10050 20005 39514 40290 52007 333 91106 555 60005
AAXX 03001 08561 32970 43203 10076 20064 30031 40269 52014 80006 333 84070 555 60007
AAXX 03001 08562 32/// /3204 10073 20046 39960 40261 52006 333 91007 91107 555 60005
AAXX 03001 08567 32/// /9901 10049 20010 39614 40296 52007 555 60005
AAXX 03001 08568 32/// /3403 10006 21030 38691 48557 52007 333 91007 91108 555 60005
AAXX 03001 08570 NIL
AAXX 03001 08571 32/// /0105 10067 20009 39553 40270 52004 333 91010 91110 555 60005
AAXX 03001 08575 32/// /9901 10028 21006 39455 40291 52009 555 60005
AAXX 03001 08579 32/// /36// 10110 20069 30153 40280 52007 555 60005
BBXX BAREU12 03004 99514 10036 46/// ///// 40102 22262
BBXX BATFR09 03004 99370 70094 46/// /0139 10154 20072 40271 53024 22283 00189
BBXX BATEU05 03004 99586 70168 46/// /3026 10057 20012 49906 53021 22222
BBXX BATFR15 03004 99452 70194 44998 82726 10134 20109 40308 56020 70222 8677/ 22224 00149 21002 336// 41506 5////
BBXX BATFR03 03004 99496 70008 46/// /2135 10092 20070 40132 22272
BBXX PHCQ 03003 99475 70098 41497 82416 10124 20097 40192 52015 70211 8//// 22253 04138 20308 327// 40804 5//// 80109
BBXX BATFR58 03004 99433 10076 46/// ///// 40187 56007 22200 00185
BBXX BATFR04 03004 99584 70062 46/// /2651 10082 20020 4//// 22200 00110
BBXX BATFR01 03004 99359 70058 46/// /3320 10142 20074 40224 53005 22200 00184
BBXX BATEU04 03004 99631 70086 46/// /0711 10039 20005 4//// 22262
BBXX BATFR31 03004 99425 10070 46/// /2014 10177 20132 40181 52002 22233 00182
BBXX BATFR24 03004 99430 10074 46/// ///// 10174 20127 40183 56007 22224 00164
BBXX BATEU09 03004 99398 10137 46/// /1715 10174 20129 40230 22251 00189
BBXX BATFR20 03004 99429 10068 46/// /1812 10172 20147 40179 50000 22223
BBXX BATFR30 03004 99422 10073 46/// /1821 10179 20134 40179 22233 00180
BBXX BATFR60 03004 99469 70027 46/// /2331 10130 20057 40177 22242 00144
BBXX BATFR52 03004 99502 70041 46/// /2538 10124 20099 40092 22243 00132
BBXX BATFR12 03004 99483 70072 46/// /2422 10127 20109 40168 56018 22200 00149
BBXX BATEU01 03004 99525 10038 46/// /2319 10107 20034 40072 58047 222// 00119
BBXX BATFR02 03004 99504 70008 46/// /2040 10115 20087 40098 22243 00134
BBXX BATFR27 03004 99502 70015 46/// /2337 10117 20085 40089 56033 22243 00145
BBXX 61001 03004 99434 10078 46/// /2403 10153 20141 40182 57002 22200 00176 10603 70013
BBXX BATFR54 03004 99451 70035 46/// /2616 10132 20064 40245 58010 22223 00159
BBXX BAREU60 03004 99441 10146 46/// ///// 40210 22262
BBXX KSDF 03003 99353 70208 41498 60519 10183 20139 40289 51010 7//22 85401 22223 0//// 20204 330// 40506 5//// 6//// 80156
BBXX BATUK01 03004 99591 70024 46/// /2344 10070 20027 49714 57044 22241 00109
BBXX 9V8072 03003 99389 10259 41/// /0000 10120 20079 40243 50/// 7//22 8//// 22233 06170 2//// 80100
BBXX 61002 03004 99421 10047 46/// /0124 10149 2//// 40198 52010 22200 00176 10604 70020 555 1/031
BBXX DDZF2 03004 99368 10012 41697 72520 10160 20144 40190 56020 70322 83474 22224 00180 20604 323// 40602 80150
AAXX 03004 60395 12965 60000 10123 20094 40182 54000 60001 83032 333 0//00 83360 84073 95990
AAXX 03004 60444 12960 20000 10075 20054 39109 48527 55001 60001 82030 333 82360 95990
AAXX 03004 60452 11560 8//// 10132 20097 40182 50005 60041 72166 882// 222// 20000 333 0//51 86820 84826 91826
AAXX 03004 60457 11558 81608 10096 20088 40192 51013 60151 76361 882// 333 0//61 88820 95990
BBXX BATEU07 03004 99288 31116 46/// /0815 10252 20039 40082 51005 22233
BBXX BATFR59 03004 99190 31590 46/// /1007 10267 20234 40091 58002 22231 00277
AAXX 03001 34712 31496 80601 10007 21007 30178 40266 52003 71022 886// 333 88716
AAXX 03004 65306 32960 50000 10230 20040 39785 40117 80002 333 0//00 59007 85076
AAXX 03001 60370 36/// /1601 10131 20091
AAXX 03001 60371 36/// /1602 10117 20087
AAXX 03001 60372 36/// /1705 10137 20050
AAXX 03001 60373 NIL
AAXX 03001 60374 NIL
AAXX 03001 60376 NIL
AAXX 03001 60379 NIL
AAXX 03001 60380 NIL
AAXX 03001 60381 NIL
AAXX 03001 60393 NIL
AAXX 03001 60394 NIL
AAXX 03001 60593 NIL
AAXX 03001 60595 NIL
AAXX 03001 60605 NIL
AAXX 03001 60613 NIL
AAXX 03001 60623 NIL
AAXX 03004 60624 36/// /0000 10145 20006
AAXX 03004 60639 NIL
AAXX 03004 60645 36/// /0000 10142 20054
BBXX IDDUK02 03004 99575 50567 46/// ///// 40055 222//
BBXX A8YW2 03004 99250 50429 41/98 81312 10220 20153 40160 52015 70322 8//// 22223 00210 20602 80180
BBXX A8SF7 03001 99034 70899 41497 72007 10255 20218 40125 53007 70222 85177 22224 00240 2//02 331// 4//03 5//// 80230
BBXX BATEU00 03004 99178 30041 46/// /1312 10187 20127 40174 58006 22233
BBXX BATFR08 03004 99234 30549 46/// /0819 10234 20182 40130 56004 22243 00252
BBXX BATFR05 03004 99052 70039 46/// /2210 10280 20249 40122 58002 22200 00267
BBXX BATFR45 03004 99053 30393 46/// ///// 10275 20239 40086 56012 22254 00299
BBXX C6XQ2 03003 99136 70267 41397 80518 10251 20226 40163 54000 70522 886// 22243 04260 20805 334// 41304 5//// 80234
BBXX DILS 03004 99303 30358 41/98 32326 10225 20186 40078 54000 70111 81/// 22254 04240 20506 323// 40404 80200
BBXX A8UT7 03004 99102 50018 41598 81211 10214 20161 40120 54000 70200 8271/ 22273 20703 80180
BBXX ELWP5 03001 99222 70174 41598 20208 10200 20169 40242 54000 70511 82612 22200 04190 20000 335// 41603 5//// 80180
BBXX V7OX3 03004 99359 30052 41/98 /1207 10120 20056 40300 54000 70211 8//// 22264 04180 2//03 323// 4//04 5//// 80090
BBXX DGUG2 03004 99286 70200 41998 00927 10215 20169 40250 52030 70200 80000 22214 04230 20807 399// 4//// 80185
AAXX 03004 64400 32457 62204 10253 20243 30088 40107 86800 333 0//00 58004 82810 84623
AAXX 03003 64401 32560 40000 10240 20225 39726 40098 84500 333 0//00 59002 84620
AAXX 03004 64450 11560 70202 10240 20230 39740 40089 60251 71396 8397/ 333 0//74 58004 83623 81930 87463 94944 95834
AAXX 03004 64458 NIL
AAXX 03004 64459 NIL
BBXX SKUN 03003 99469 70441 43/04 93119 10064 40163 53017 22253 00055 2//// 4////
AAXX 03001 14235 12960 0//// 10072 20064 39039 48498 58002 60001
AAXX 03001 14246 NIL
AAXX 03001 14314 NIL
AAXX 03001 14323 NIL
AAXX 03001 14324 NIL
AAXX 03001 14328 NIL
AAXX 03001 14330 NIL
AAXX 03001 14438 NIL
AAXX 03001 14443 NIL
AAXX 03001 14447 NIL
AAXX 03001 14472 NIL
AAXX 03001 40716 12960 00000 11060 21097 38944 40256 54000 60001 333
AAXX 03001 40719 12960 22402 10058 20023 30234 40223 50005 60001 82040 333 82362
AAXX 03001 40721 12960 01509 10076 21018 39654 40206 57011 60001 333
AAXX 03001 40858 12960 00205 10142 20063 30173 40184 53001 60001 333
AAXX 03001 40872 12970 03104 10150 20053 30150 40155 57007 60001 222// 00/// 20301 333
AAXX 03001 40877 12960 03604 10130 20028 39595 40131 55002 60001 333
AAXX 03001 40898 12960 00000 10220 20182 30109 40118 57003 60001 222// 00261 10601 333
BBXX 46035 03001 99571 71778 46/// /2307 1//// 40015 58006 92350 22200 11107 20602 300// 41106 70033 333 91209 555 11070 22074 32255 42210 62349 227070 223069 221072 220075 218068 228081 82309 92251
BBXX A8UE5 03004 99543 71649 41/// 81525 10065 20054 40040 57060 70522 88/2/ 22265 04060 20302 327// 40606 5//// 80060
BBXX C6SI6 03004 99573 71506 46/// /2415 10050 20049 40233 53002 7//// 8//// 22272 0//// 2////
BBXX DGBE 03003 99532 71579 41796 22127 10050 20041 40190 57058 70500 81010 22274 21407 323// 41408 80046
BBXX MGPU2 03003 99350 71723 41297 63428 10190 20165 40118 57024 72522 8/7// 22263 00195 20512 334// 40510 5//// 80175
AAXX 03001 50844 32962 20202 11155 21174 40273 52008 80002 333 00052
AAXX 03001 50854 31758 70701 11106 21154 40255 52006 70400 875// 333 05301
AAXX 03001 50968 32662 70404 11111 21157 40248 52001 82502 333 05504
AAXX 03001 51379 32770 81801 11016 21048 40220 57006 885// 333 05400 31008 92505
AAXX 03001 51467 32980 03201 11038 21140 38214 57005 333 05201
AAXX 03001 51495 32980 13403 11024 21075 40209 52014 80002 333 05153 31048
AAXX 03001 53480 32980 22901 11173 21201 40337 52003 80002 333 00260 79999
AAXX 03001 53673 11908 83201 11087 21102 40307 52011 69901 74670 8802/ 333 00352 30003 79999
AAXX 03001 53698 31/04 92702 11022 21029 40270 52021 74540 333 00351 31022 79999
AAXX 03001 53898 31/02 90000 11014 21015 40268 52018 74740 333 00402 31001 92501
AAXX 03001 54308 32980 03401 11131 21166 40304 52017 333 00456
AAXX 03001 54602 31902 80903 11011 21017 40269 52021 74640 8802/ 333 00301 31010 79999
AAXX 03001 54725 31956 82701 11030 21043 40269 52020 71000 80007 333 00251 31041
AAXX 03001 54751 11559 83607 10041 21011 40231 52019 69901 76070 885// 333 05101 30001 79999
AAXX 03001 54916 31940 00000 11029 21040 40268 52022 71000 333 00251 31042
AAXX 03001 57014 31956 70000 11018 21022 40209 57001 71000 8703/ 333 05402 31018
AAXX 03001 57025 31720 81405 10011 21008 40234 52004 71040 885// 333 00102 31011
AAXX 03001 57046 NIL
AAXX 03001 58208 31958 03401 10003 20003 40266 52023 71000 333 00200 31006
AAXX 03001 40700 12960 02304 10000 21012 30150 40241 54000 60001 333
AAXX 03001 40723 12860 20000 11028 21057 38941 40254 56008 60001 82050 333 82358
AAXX 03001 40726 12960 00000 11046 21072 38679 40249 55000 60001 333
AAXX 03001 40727 12960 00000 11080 21122 38492 40245 56004 60001 333
AAXX 03001 40734 12960 00000 10080 20038 30244 40218 53004 60001 3333
AAXX 03001 40737 12960 02103 10022 20017 30202 40220 53009 60001 333
AAXX 03001 40741 12960 00000 10025 20024 39931 40276 57023 60001 333
AAXX 03001 40780 12960 00000 11022 21146 38704 40221 57006 60001 333
AAXX 03001 40791 12962 00000 10028 21038 39386 40223 57005 60001 333
AAXX 03001 40792 12970 00903 11008 21064 38740 40226 57008 60001 333
AAXX 03001 40794 12960 03102 10028 21011 30110 40209 54000 60001 333
AAXX 03001 40812 12960 00000 10078 20015 39809 40188 57015 60001 333
AAXX 03001 40829 12960 03206 10078 21005 39615 40187 56006 60001 333
AAXX 03001 40833 12960 03005 10054 21032 30178 40211 54000 60001 92350 333
AAXX 03001 40835 12965 00000 10040 20033 39348 40191 57006 60001 333
AAXX 03001 40845 NIL
AAXX 03001 40882 12962 03204 10208 20110 30103 40138 55004 60001 333
AAXX 03001 40889 NIL
AAXX 03001 40890 NIL
AAXX 03001 40893 11956 03603 10206 20150 30122 40128 57006 60001 70500 222// 00/// 20402 333
AAXX 03001 40897 NIL
AAXX 03001 40700 12960 02304 10000 21012 30150 40241 54000 60001 333
AAXX 03001 40723 12860 20000 11028 21057 38941 40254 56008 60001 82050 333 82358
AAXX 03001 40726 12960 00000 11046 21072 38679 40249 55000 60001 333
AAXX 03001 40727 12960 00000 11080 21122 38492 40245 56004 60001 333
AAXX 03001 40734 12960 00000 10080 20038 30244 40218 53004 60001 3333
AAXX 03001 40737 12960 02103 10022 20017 30202 40220 53009 60001 333
AAXX 03001 40741 12960 00000 10025 20024 39931 40276 57023 60001 333
AAXX 03001 40780 12960 00000 11022 21146 38704 40221 57006 60001 333
AAXX 03001 40791 12962 00000 10028 21038 39386 40223 57005 60001 333
AAXX 03001 40792 12970 00903 11008 21064 38740 40226 57008 60001 333
AAXX 03001 40794 12960 03102 10028 21011 30110 40209 54000 60001 333
AAXX 03001 40812 12960 00000 10078 20015 39809 40188 57015 60001 333
AAXX 03001 40829 12960 03206 10078 21005 39615 40187 56006 60001 333
AAXX 03001 40833 12960 03005 10054 21032 30178 40211 54000 60001 92350 333
AAXX 03001 40835 12965 00000 10040 20033 39348 40191 57006 60001 333
AAXX 03001 40845 NIL
AAXX 03001 40882 12962 03204 10208 20110 30103 40138 55004 60001 333
AAXX 03001 40889 NIL
AAXX 03001 40890 NIL
AAXX 03001 40893 11956 03603 10206 20150 30122 40128 57006 60001 70500 222// 00/// 20402 333
AAXX 03001 40897 NIL
AAXX 03004 87078 32970 00903 10252 20125 39933 40081 52008 333 10312 20148
AAXX 03004 87244 32970 00505 10236 20120 39710 40098 5//// 333 10298 20218
AAXX 03004 87393 NIL
AAXX 03004 87416 32965 00000 10266 20139 39329 40051 52023 333 10327 20207
AAXX 03004 87563 32965 20000 10230 20080 30064 40116 56001 80001 333 10275 20194 56006 82070
AAXX 03004 87640 32965 60903 10210 20100 30021 40130 53013 82036 333 10290 20210 56056 82360 84270
AAXX 03004 87688 32565 83612 10205 20082 39998 40133 51005 885// 333 10280 20179 56799 88625
AAXX 03004 87774 32682 42708 10150 21003 39097 48459 5//// 84400 10250 20150 84736
AAXX 03004 87852 32584 42720 10164 21001 39562 40058 52005 83270 333 10225 20151 56100 57813 83820
AAXX 03004 87896 31350 80905 10112 20084 39994 40091 51004 74144 886// 333 10165 2//// 56299 88708
AAXX 03004 87593 NIL
AAXX 03004 87623 31957 60214 10250 20118 39874 40094 52012 70721 81076 333 10318 20204 56067 81360 85270
AAXX 03004 87641 32965 40709 10192 20113 39972 40145 52012 82072 333 10269 20161 56066 82359
AAXX 03004 87645 32965 30506 10186 20094 39942 40148 52008 80005 333 10258 20170 56006 83270
AAXX 03004 87648 32960 00504 10162 20118 30153 40164 54000 333 10257 20162
AAXX 03004 87692 NIL
AAXX 03004 87715 32965 22304 10257 20035 39782 40090 53012 80006 333 10285 20225 56006 82270
AAXX 03004 87750 32762 60218 10250 20090 30001 40097 51007 82570 333 10318 20230 56770 82650 84360
AAXX 03004 87765 31557 33212 10124 20030 39186 48485 52012 70400 83500 333 10172 20124 56600 83625 96104 96120
AAXX 03004 87784 32980 63210 10279 21060 30032 40055 52020 80008 333 10354 20228 56000 86270
AAXX 03004 87800 32680 50000 10157 20080 39749 40143 52011 85500 333 10233 20157 56600 85645
AAXX 03004 87803 32680 13214 10132 20014 39198 40103 52004 81400 333 10187 20133 56600 81635
AAXX 03004 87828 31940 02315 10284 20044 39974 40024 53020 70421 333 10334 20200
AAXX 03004 87860 31456 81805 10129 20120 30016 40071 52001 71022 887// 333 10167 20115 56500 82712 87622 96104 99350
AAXX 03004 87904 32680 52713 10152 20057 39806 40046 56007 81471 333 10208 20124 56666 81640
AAXX 03004 87909 32580 70214 10138 20087 39997 40071 52004 82506 333 10190 20138 56505 82630 86270
AAXX 03004 87925 31680 71108 10129 20072 30034 40058 56008 71410 82578 333 10210 20110 56779 82645 83360
AAXX 03004 87938 32980 40905 10123 20065 30002 40071 52009 84030 333 10195 20105 56000 84360
AAXX 03003 87016 32562 50000 10276 20190 39647 40045 53016 83830 333 10332 20238 81820 83625
AAXX 03003 87791 32680 53205 10278 20061 30044 40052 53007 81102 333 10340 20233 56606 81840 85070
AAXX 03004 89022 46/// /1903 11127 21151 39805 49844 52001 333 11108 21127
AAXX 03004 89062 42586 40103 10008 21018 39859 49900 52036 84500 333 10022 21005 81620 84640
AAXX 03001 34357 42597 82601 11034 21045 30101 40262 50004 885//
AAXX 03001 34363 42497 82602 11049 21054 30114 40273 50003 885//
AAXX 03001 34545 42998 00000 11090 21094 30154 40273 52007
AAXX 03001 34579 42998 00302 11070 21086 30218 40265 52006
AAXX 03001 34838 42997 81502 10011 20004 30161 40260 52009 8007/
AAXX 03001 34927 42597 83001 10030 20006 30231 40269 52006 8665/
AAXX 03001 34949 41225 82706 10003 21001 39694 40253 53004 77176 8802/ 333 88505
AAXX 03001 37001 42997 00602 10016 20007 30224 40266 52004
AAXX 03001 37031 41497 82903 10014 20010 30060 40260 53007 72052 886//
AAXX 03001 37061 41558 72703 10011 21003 30076 40247 54000 71022 87500
AAXX 03001 37085 41596 82403 10008 20001 30272 40300 53005 72176 8672/
AAXX 03001 37126 41/92 /1601 11108 21116 37916 48507 55000 74942
AAXX 03001 37171 41596 80501 10043 20036 30248 40267 52014 78082 889// 333 88926
AAXX 03001 37228 42597 80000 11011 21042 39403 40261 51008 885//
AAXX 03001 37470 42596 83003 10050 21019 30256 40233 53010 885//
AAXX 03001 37663 43/// /2702 11032 21071 39035 48495 53004
AAXX 03004 71970 16/// /3314 11060 21101 39555 40147 51055 60001 333 10018 21061 70000
AAXX 03004 71976 46/// /2412 11120 21133 39451 40087 53022 6///1 333 11110 21146 7//// 555 10090
AAXX 03004 71228 16/// /3311 11050 21110 60001 333 10010 21050 70000
AAXX 03004 71480 16/// /1301 11165 21184 30007 40132 50002 60001 333 11151 21204 70000
AAXX 03004 71482 46/// /1905 10045 30335 40374 58010 6///1 333 10048 20025 7////
AAXX 03004 71827 11574 71713 11121 21142 39981 40235 55002 69901 77188 87500 333 11083 21161 47018 70004 90983
AAXX 03004 71832 16/// /1809 11041 21067 39876 40215 58008 60001 333 11040 21242 70000
AAXX 03004 71374 46/// /3210 11033 21086 6///1 333 11024 21048 7////
AAXX 03004 71387 16/// /3508 11076 21096 39907 40299 51032 60001 333 11038 21104 70000
AAXX 03004 71503 46/// /3502 11173 21189 39868 40147 51003 6///1 333 11130 21186 7////
AAXX 03004 71506 46/// /1804 11080 21084 39203 40090 51005 6///1 333 11075 21123 7////
AAXX 03004 71514 16/// /2815 10000 21026 39380 40078 51017 60001 333 10016 21009 70007
AAXX 03004 71539 16/// /3022 11009 21042 39402 40099 53023 60001 333 10013 21009 70014 555 10010
AAXX 03004 71421 16/// ///// 11151 21167 39544 40291 51020 60001 333 11091 21156 7////
AAXX 03004 71443 16/// /2309 10019 21019 39602 40009 53022 60001 333 10028 21022 70003
AAXX 03004 71151 16/// /1914 11005 21063 39553 40057 50006 60001 333 11003 21072 70000
AAXX 03004 71156 16/// /3202 11031 21075 39118 40229 54000 60001 333 10008 21031 70000
AAXX 03004 71158 17/// /1906 11016 21027 39716 49989 53009 60021 7//4/ 333 11003 21053 70016
AAXX 03004 71190 46/// /3602 11018 21047 6///1 333 11008 21021 7////
AAXX 03004 71550 16/// /2510 10016 21028 39653 40024 52025 60001 333 10031 21014 70000
AAXX 03004 71551 16/// /3313 11035 21077 39455 40111 53052 60001 333 10039 21035 70004
AAXX 03004 71564 16/// /2507 10028 21039 39683 40047 53011 60001 333 10039 21035 70000
AAXX 03004 71575 16/// /0906 11116 21138 39984 40049 51007 60001 333 11106 21128 70000 555 10010
AAXX 03004 71309 16/// /1807 11084 21132 30215 40227 56014 60001 333 11075 21203 70000
AAXX 03004 71321 16/// /3004 11143 21162 30033 40077 51024 60001 333 11120 21166 70000
AAXX 03004 71340 16/// /3005 11053 21105 60001 333 10016 21053 70000
AAXX 03004 71341 16/// /2403 11019 21109 60001 333 10042 21039 70000
AAXX 03004 71342 16/// /3423 11038 21091 60001 333 10010 21039 70000
AAXX 03004 71344 16/// /3222 11036 21079 60001 333 11006 21037 7////
AAXX 03004 71347 16/// /1902 11060 21091 60001 333 10008 21060 70000
AAXX 03004 71348 16/// /2303 11044 21089 60001 333 10019 21049 70000
AAXX 03004 71349 16/// ///// 11070 21123 60001 333 11003 21073 70000
AAXX 03004 71063 16/// /3108 11025 21070 30233 40334 53044 60001 333 10006 21028 70030 555 10020
AAXX 03004 71107 16/// /3419 10068 20046 30263 40378 56002 60001 333 10076 20056 70000
AAXX 03004 71269 16/// /3227 11027 21069 60001 333 10009 21030 70010
AAXX 03004 71285 46/// /3207 11065 21107 6///1 333 10003 21065 7////
AAXX 03004 71299 16/// /1812 11064 21093 39963 40251 58009 60001 333 11064 21203 70000
AAXX 03004 71423 16/// /3003 11039 21061 30266 40276 53016 60001 333 11002 21060 70000
AAXX 03004 71903 46/// /2613 10066 20053 30292 40342 5/001 6///1 333 20053 7////
AAXX 03004 71737 16/// /3105 11064 21085 39766 40303 51035 60001 333 11012 21064 70029 555 10040
AAXX 03004 71743 16/// /2215 11106 21129 39948 40170 51021 60001 333 11092 21114 70000
AAXX 03004 71746 16/// /1503 11022 21047 30108 40336 53016 60001 333 10008 21028 70035
AAXX 03004 71748 16/// /2011 11005 21042 39740 40025 53010 60001 333 10002 21061 70000
AAXX 03004 71667 16/// /2110 11006 21085 39929 40183 56020 60001 333 11006 21229 70000 555 10010
AAXX 03004 71682 16/// /0000 11160 21170 39904 40141 58010 60001 333 11160 21208 70000
AAXX 03004 71083 11474 13615 11279 21320 30058 40102 52012 60001 73611 81501 333 11224 21279 79999
AAXX 03004 71833 46/// /2201 11040 21054 6///1 333 10027 21040 7////
AAXX 03004 71840 46/// /2714 10027 21022 6///1 333 10030 21039 7////
BBXX BAREU00 03004 99469 70441 46/// ///// 40168 52018 22263
AAXX 03004 65501 32960 70000 10205 20051 39804 40115 80002 333 0//00 59018 87076
AAXX 03004 65502 32960 50000 10216 20032 39749 40123 80002 333 0//00 59002 85076
AAXX 03004 65503 32960 70000 10198 20078 39784 40126 80002 333 0//00 58000 87076
AAXX 03004 65505 32960 70406 10250 21001 39787 40120 80002 333 0//00 59001 87076
AAXX 03004 65507 32960 70204 10214 20040 39775 40121 80002 333 0//00 59002 87076
AAXX 03004 65510 32960 50606 10247 20018 39608 40114 80002 333 0//00 59001 85076
AAXX 03004 65516 32960 50000 10202 20020 39816 40119 80002 333 0//00 58000 85076
AAXX 03004 65518 32965 73602 10220 20041 39751 40110 80002 333 0//00 59001 87076
AAXX 03004 65522 31958 70000 10175 20101 39792 40119 70622 80002 333 0//00 58002 87076
BBXX DDID2 03003 99092 70281 41397 80515 10268 20217 40135 54000 70222 886// 22253 04260 80232
BBXX 46232 03001 99325 71174 46/// ///// 1//// 92338 22200 00164 11203 20802 328// 41202 70013
AAXX 03004 13601 12660 32702 10100 20094 30127 40229 54004 60001 83500 333 83640
AAXX 03001 13463 32970 21102 10046 20035 30193 40254 57002 82020
AAXX 03001 13459 32670 50201 10013 20012 39493 40281 58002 84830 333 84696
AAXX 03001 13461 32965 20502 10099 20074 30242 40250 58004 80002 333 92311 92418
AAXX 03001 13363 31/02 90501 11030 21030 39328 48519 58001 74540
AAXX 03004 61972 16/// /1302 10231 20212 40086 60001 333 59016 90710 91103 555 60005
AAXX 03003 41150 32964 02913 10157 20094 40180 333 59017
BBXX 44100 03001 99363 70756 46/// ///// 1//// 92352 22200 00144 11102 21002 310// 41101 70011
AAXX 03004 71827 11574 71713 11121 21142 39981 40235 55002 69901 77188 87500 333 11083 21161 47018 70004 90983
AAXX 03004 71832 16/// /1809 11041 21067 39876 40215 58008 60001 333 11040 21242 70000
AAXX 03004 71550 16/// /2510 10016 21028 39653 40024 52025 60001 333 10031 21014 70000
AAXX 03004 71551 16/// /3313 11035 21077 39455 40111 53052 60001 333 10039 21035 70004
AAXX 03004 71564 16/// /2507 10028 21039 39683 40047 53011 60001 333 10039 21035 70000
AAXX 03004 71575 16/// /0906 11116 21138 39984 40049 51007 60001 333 11106 21128 70000 555 10010
AAXX 03004 71374 46/// /3210 11033 21086 6///1 333 11024 21048 7////
AAXX 03004 71387 16/// /3508 11076 21096 39907 40299 51032 60001 333 11038 21104 70000
AAXX 03004 71151 16/// /1914 11005 21063 39553 40057 50006 60001 333 11003 21072 70000
AAXX 03004 71156 16/// /3202 11031 21075 39118 40229 54000 60001 333 10008 21031 70000
AAXX 03004 71158 17/// /1906 11016 21027 39716 49989 53009 60021 7//4/ 333 11003 21053 70016
AAXX 03004 71190 46/// /3602 11018 21047 6///1 333 11008 21021 7////
AAXX 03004 71309 16/// /1807 11084 21132 30215 40227 56014 60001 333 11075 21203 70000
AAXX 03004 71321 16/// /3004 11143 21162 30033 40077 51024 60001 333 11120 21166 70000
AAXX 03004 71340 16/// /3005 11053 21105 60001 333 10016 21053 70000
AAXX 03004 71341 16/// /2403 11019 21109 60001 333 10042 21039 70000
AAXX 03004 71342 16/// /3423 11038 21091 60001 333 10010 21039 70000
AAXX 03004 71344 16/// /3222 11036 21079 60001 333 11006 21037 7////
AAXX 03004 71347 16/// /1902 11060 21091 60001 333 10008 21060 70000
AAXX 03004 71348 16/// /2303 11044 21089 60001 333 10019 21049 70000
AAXX 03004 71349 16/// ///// 11070 21123 60001 333 11003 21073 70000
AAXX 03004 71063 16/// /3108 11025 21070 30233 40334 53044 60001 333 10006 21028 70030 555 10020
AAXX 03004 71970 16/// /3314 11060 21101 39555 40147 51055 60001 333 10018 21061 70000
AAXX 03004 71976 46/// /2412 11120 21133 39451 40087 53022 6///1 333 11110 21146 7//// 555 10090
AAXX 03004 71228 16/// /3311 11050 21110 60001 333 10010 21050 70000
AAXX 03004 71480 16/// /1301 11165 21184 30007 40132 50002 60001 333 11151 21204 70000
AAXX 03004 71482 46/// /1905 10045 30335 40374 58010 6///1 333 10048 20025 7////
AAXX 03004 71107 16/// /3419 10068 20046 30263 40378 56002 60001 333 10076 20056 70000
AAXX 03004 71421 16/// ///// 11151 21167 39544 40291 51020 60001 333 11091 21156 7////
AAXX 03004 71443 16/// /2309 10019 21019 39602 40009 53022 60001 333 10028 21022 70003
BBXX 46241 03001 99330 71173 46/// ///// 1//// 92341 22200 00152 11102 21001 327// 41101 70008
BBXX 46249 03001 99338 71197 46/// ///// 1//// 90017 22200 00151 11402 20801 318// 41401 70009
BBXX 46248 03001 99461 71247 46/// ///// 1//// 90004 22200 00099 11408 20906 329// 41405 70039
BBXX 46244 03001 99409 71244 46/// ///// 1//// 90005 22200 00109 10909 20908 329// 41504 70046
AAXX 03004 71667 16/// /2110 11006 21085 39929 40183 56020 60001 333 11006 21229 70000 555 10010
AAXX 03004 71682 16/// /0000 11160 21170 39904 40141 58010 60001 333 11160 21208 70000
AAXX 03004 71269 16/// /3227 11027 21069 60001 333 10009 21030 70010
AAXX 03004 71285 46/// /3207 11065 21107 6///1 333 10003 21065 7////
AAXX 03004 71299 16/// /1812 11064 21093 39963 40251 58009 60001 333 11064 21203 70000
AAXX 03004 71833 46/// /2201 11040 21054 6///1 333 10027 21040 7////
AAXX 03004 71840 46/// /2714 10027 21022 6///1 333 10030 21039 7////
AAXX 03004 71903 46/// /2613 10066 20053 30292 40342 5/001 6///1 333 20053 7////
AAXX 03004 71737 16/// /3105 11064 21085 39766 40303 51035 60001 333 11012 21064 70029 555 10040
AAXX 03004 71743 16/// /2215 11106 21129 39948 40170 51021 60001 333 11092 21114 70000
AAXX 03004 71746 16/// /1503 11022 21047 30108 40336 53016 60001 333 10008 21028 70035
AAXX 03004 71748 16/// /2011 11005 21042 39740 40025 53010 60001 333 10002 21061 70000
AAXX 03004 71423 16/// /3003 11039 21061 30266 40276 53016 60001 333 11002 21060 70000
AAXX 03004 71503 46/// /3502 11173 21189 39868 40147 51003 6///1 333 11130 21186 7////
AAXX 03004 71506 46/// /1804 11080 21084 39203 40090 51005 6///1 333 11075 21123 7////
AAXX 03004 71514 16/// /2815 10000 21026 39380 40078 51017 60001 333 10016 21009 70007
AAXX 03004 71539 16/// /3022 11009 21042 39402 40099 53023 60001 333 10013 21009 70014 555 10010
AAXX 03004 71083 11474 13615 11279 21320 30058 40102 52012 60001 73611 81501 333 11224 21279 79999
BBXX 3FZK3 03004 99355 11294 46/// /3112 10083 20077 40115 51011 7//// 8//// 22200 0//// 2////
BBXX DGXS 03004 99438 11473 41598 30632 10035 21030 40310 53010 70100 8/47/ 22255 00060 29901 305// 4//02 5//// 80010
BBXX UFLC 03000 99578 11477 41397 82808 11086 40191 54000 77072 8672/ 22213 06021 20402
BBXX UGPK 03001 99554 11480 43/98 62708 11028 40140 54000 22231 00014 2//20 3//28
BBXX UICN 03000 99484 11410 42998 03507 10000 40286 54000 22273 2////
BBXX VQFV3 03003 99354 11294 41597 70325 10100 20068 40115 58020 70286 8537/ 22200 20407 3//// 4//// 5//// 80085
BBXX 46240 03001 99366 71219 46/// ///// 1//// 90012 22200 00126 11102 21002 335// 41101 70012
BBXX 46237 03001 99378 71226 46/// ///// 1//// 90010 22200 00121 11704 20903 325// 41703 70020
BBXX 46212 03001 99408 71243 46/// ///// 1//// 90012 22200 00107 10908 20907 332// 41104 70041
BBXX 46217 03001 99342 71194 46/// ///// 1//// 90012 22200 00153 11202 20702 328// 41201 70009
BBXX 46216 03001 99343 71198 46/// ///// 1//// 92357 22200 00150 11202 20801 326// 41201 70008
BBXX 46223 03001 99335 71178 46/// ///// 1//// 90000 22200 00163 11401 21001 319// 41401 70007
BBXX 46218 03001 99345 71208 46/// ///// 1//// 90002 22200 00141 11104 21003 332// 41103 70022
BBXX 46211 03001 99469 71242 46/// ///// 1//// 90006 22200 00098 11407 20905 328// 41404 70033
BBXX 46231 03001 99327 71174 46/// ///// 1//// 92354 22200 00152 11003 21002 328// 41101 70013
BBXX 46222 03001 99336 71183 46/// ///// 1//// 92356 22200 00161 11302 21002 324// 41301 70009
AAXX 03001 48870 32574 73201 10220 20171 30117 40124 53011 85208 333 01021 20215 3/018 58000 85895 87299
AAXX 03001 48877 32570 62701 10220 20188 30102 40107 53017 82208 333 00025 20215 3/021 58001 82895 86299
AAXX 03001 48887 32570 60202 10249 20200 30084 40090 52013 868// 333 00027 20245 3/024 59006 81895 86697
AAXX 03001 48920 12498 83611 10270 20238 30079 40082 53027 60172 8292/ 222// 00280 2//05 333 20249 58009 8189 4 82995 88499 91117 91502
BBXX V2AN5 03001 99471 11542 41597 62710 10039 21031 40274 58011 70122 85470 22214 20403 327// 40607 5//// 80012
AAXX 03001 48820 32598 60501 10146 20117 30171 40179 52019 862// 333 01015 20143 3/013 59044 86895
AAXX 03000 44210 32999 30000 11178 21184 38476 56003 83070 333 21182 555 31217
AAXX 03000 44216 32599 70000 11163 21182 38985 40321 56004 85510 333 21182 47001 555 31187
AAXX 03000 44217 32698 60000 11120 21126 37783 40241 58007 84810 333 21139 46997 555 31182
AAXX 03000 44219 329// 20000 11210 21243 38593 40347 57002 82040 333 21214 46002 555 31223
AAXX 03000 44221 329// 70000 11245 21263 38574 40382 57005 87010 333 21203 47008 555 31307
AAXX 03000 44224 329// 60000 11215 21247 38031 40387 54000 86070 333 21261 48006 555 31281
AAXX 03000 44229 32999 12703 11252 21284 37900 40424 53017 81040 333 21258 48008 555 31269
AAXX 03000 44242 32998 20901 11298 21329 39350 40388 52011 80002 333 21300 47010 555 31305
AAXX 03000 44243 32999 20000 11303 21337 39450 40396 52012 80004 333 21305 47003 555 31317
AAXX 03000 44254 32998 02502 11213 21251 39048 40324 51012 333 21238 47010 555 31286
AAXX 03000 44257 32998 10000 11305 21349 38998 40410 53012 81041 333 21305 48010 555 31335
AAXX 03000 44263 32698 60000 11152 21194 38023 40328 57006 86500 333 21189 47025 555 31212
AAXX 03000 44266 329// 00000 11108 21136 37709 40234 53003 333 21114 555 31155
AAXX 03000 44286 32998 00000 11196 21230 38630 40344 52006 333 21216 44007 555 31244
AAXX 03000 44291 31996 00000 11312 21346 38732 40449 53006 70400 333 21321 47009 555 31319
AAXX 03000 44325 329// 20000 11122 21135 38831 40278 53005 82044 333 21134 555 31150
AAXX 03000 44329 32898 22303 11134 21147 37722 40277 53004 82040 333 21150 47003 555 31187
AAXX 03000 44338 32999 20000 11157 21176 38442 40294 53003 80004 333 21168 555 31210
AAXX 03000 44348 32997 30000 11179 21179 38674 40301 53002 83040 333 21181 46001 555 31257
AAXX 03000 44374 32599 72003 11091 21104 38231 40287 53003 84530 333 21117 45998 555 31137
AAXX 03000 44385 32999 60000 11107 21146 38895 40271 56011 83041 333 21150 46001 555 31212
AAXX 03000 44386 32999 20000 11160 21187 39051 40305 53002 80004 333 21162 47001 55/// 555 31175
AAXX 03001 26629 /1597 82704 10048 20041 39969 40064 52034 70262 885// 333 88627 91007 91112 555 1/005 60021
AAXX 03001 48823 32697 70000 10142 20134 30165 40168 53011 875// 333 01015 20136 3/012 59049 87696 96122
AAXX 03001 48892 12498 70207 10268 20242 30072 40077 53019 60022 879// 333 20257 58001 81894 83995 85697
AAXX 03001 23226 41460 81806 11058 21084 39879 40099 57012 70272 885// 333 88616 93403
AAXX 03001 23701 41480 82005 11054 21083 39990 40123 57015 70272 8802/ 333 88519
AAXX 03001 28909 42999 40000 11120 21126 30159 40265 52005 84030
AAXX 03004 91324 32474 81310 10289 20248 30072 40074 8423/ 333 56399 58011 84818 88362 555 90300
AAXX 03004 91329 32474 80910 10294 20256 30152 40156 84101 333 562/9 58006 84818 88075 555 90300
AAXX 03004 91336 11474 80915 10294 20250 30152 40155 60354 70282 83201 333 562/9 58007 70353 83818 88075 555 90300
AAXX 03004 91339 11474 81310 10294 20249 30078 40084 60094 70282 8636/ 333 56399 58014 70090 86918 88362 555 90300
AAXX 03004 91320 32474 80712 10294 20272 30102 40107 8421/ 333 56299 58007 84815 84463 555 90300
AAXX 03004 91643 11599 70406 10306 20234 40070 58016 60001 70202 82108 333 20295 50084 561/9 70000 82820 87280
AAXX 03004 91636 11599 30909 10304 20261 40071 60001 70200 83200 333 20269 562// 70000
AAXX 03004 91648 11499 70510 10299 20257 40071 60001 70222 83208 333 20255 561/9 70012
AAXX 03004 91324 32474 81310 10289 20248 30072 40074 8423/ 333 56399 58011 84818 88362 555 90300
AAXX 03004 91329 32474 80910 10294 20256 30152 40156 84101 333 562/9 58006 84818 88075 555 90300
AAXX 03004 91336 11474 80915 10294 20250 30152 40155 60354 70282 83201 333 562/9 58007 70353 83818 88075 555 90300
AAXX 03004 91339 11474 81310 10294 20249 30078 40084 60094 70282 8636/ 333 56399 58014 70090 86918 88362 555 90300
AAXX 03004 91320 32474 80712 10294 20272 30102 40107 8421/ 333 56299 58007 84815 84463 555 90300
AAXX 03001 15562 12970 02306 10086 20055 30162 40235 57004 60001 222// 2//02 333 10092 20084 555 581// 92035 92438
AAXX 03004 60595 36/// /0000 11451
AAXX 03004 60381 36/// /1301 10124 20086
AAXX 03004 60639 36/// /0810 10114 21020
AAXX 03004 60605 36/// /0000 10119 20030
AAXX 03001 56146 32980 00000 11089 21130 36712 52009 333 05703
AAXX 03001 56444 32980 02703 11048 21079 36788 54000 333 05500
AAXX 03001 56492 31730 80000 10101 20072 39769 40179 52003 71000 885// 333 05402
AAXX 03001 56571 32670 80000 10095 20051 38362 52010 884// 333 05700
AAXX 03001 57799 31/02 90000 10023 20022 30159 40252 52013 74540 333 05153 30014
AAXX 03001 57866 31920 01601 10024 20009 30028 40242 52014 71000 333 05400 30015
AAXX 03001 57957 32970 02201 10054 20015 30029 40233 52011 333 05401 30015
AAXX 03001 57993 31740 81101 10020 20019 30073 40247 52014 71000 885// 333 05154 30007
AAXX 03001 58027 31920 00000 11006 21022 30206 40260 52019 71000 333 00201 31009
AAXX 03001 58141 31920 02902 10004 21015 30240 40260 52022 71000 333 00100 31001
AAXX 03001 58265 31930 02704 10026 21005 30236 40244 52020 71000 333 00100 31004
AAXX 03001 58472 32463 13411 10063 21007 30138 40235 52020 81100 333 00201 30030 70006 91119 91534
AAXX 03001 58477 32460 33206 10077 20000 30188 40234 52019 83100 333 00202 30017 70017
AAXX 03001 58527 31956 00000 10015 20006 30182 40261 52019 71000 333 00051 31001
AAXX 03001 58633 31940 02702 10028 20019 30153 40257 52013 71000 333 00153 30007
AAXX 03001 58666 32962 03609 10086 20015 30126 40230 52023 333 00201 30043 70013 91119 91534
AAXX 03001 58725 31430 82502 10012 20003 39986 40260 52018 71000 886// 333 00154 31001
AAXX 03001 58921 31656 80402 10058 20033 39991 40247 52021 71000 885// 333 00151 30044
AAXX 03001 59082 31906 21602 10024 20020 30085 40238 52019 74600 82040 333 05154 30017
AAXX 03001 59211 31630 82501 10103 20086 39988 40200 52018 71000 885// 333 05500
AAXX 03001 59265 31258 10402 10057 20040 30081 40224 52021 71000 81600 333 05200 30044
AAXX 03001 59293 32968 00000 10043 20017 30137 40226 52021 333 00154 30022
AAXX 03001 59501 32980 03201 10112 20020 30173 40195 52027 333 00151
AAXX 03001 59663 32970 00204 10099 20034 30082 40192 52011 333 00051
AAXX 03001 59838 32965 20705 10153 20109 30152 40162 52009 80002 333 05352 79999
AAXX 03001 59948 32480 70709 10149 20088 39672 40164 52017 82102 333 05151
AAXX 03001 59981 32578 70205 10230 20156 30129 40136 52018 878// 333 00052 79999
AAXX 03001 38744 416// 42402 11013 21039 38033 48540 53021 70181 84900
AAXX 03001 38844 419// 00000 11037 21070 48510 54000 70284
AAXX 03001 38599 41397 82307 10024 20005 39772 40299 58007 70182 889 333 86942
AAXX 03001 38599 41397 82307 10024 20005 39772 40299 58007 70182 889 333 86942
BBXX BAREU00 03004 99469 70441 46/// ///// 40168 52018 22263
AAXX 03004 04203 46/// /0406 11139 21193 39919 49937 52013
AAXX 03004 04205 45/84 /0000 11223 21301 39922 49946 52016
AAXX 03004 04208 46/// /3205 11132 21155 39915 49961 52025
AAXX 03004 04213 46/// /2304 11094 21176 39850 49961 52020
AAXX 03004 04214 46/// /0410 11072 21158 39924 49957 52024
AAXX 03004 04224 47/84 /2912 11039 21125 39917 49950 52020 70088
AAXX 03004 04228 NIL
AAXX 03004 04242 46/// /0611 11042 21050 39960 49976 52009
AAXX 03004 04253 46/// /1817 11017 21052 39988 40015 52009
AAXX 03004 04266 46/// /3111 11030 21047 30011 40050 52014
AAXX 03004 04285 46/// /2913 11017 21057 30034 40053 52009
AAXX 03004 04301 46/// /2627 11246 21283 30004 40009 52008
AAXX 03004 04313 46/// /3528 11181 21219 39891 49903 52009
AAXX 03004 04330 46/// /3410 11226 21298 39917 49935 52005
AAXX 03004 04351 46/// /3206 11128 21235 39893 49909 57002
AAXX 03004 04373 46/// /3130 11060 21165 39830 49924 52015
AAXX 03004 04382 46/// /2926 11019 21137 39923 49972 52013
AAXX 03004 04416 NIL
AAXX 03004 78988 02475 30811 10280 20251 30102 40112 52015 60001 83200 333 10308 20276 58003 60007 83816
AAXX 03004 78990 02475 50917 10266 2026 40122 52017 69981 85200 333 10315 20262 58005 69987 85818
AAXX 03004 78873 01081 /0509 10266 20232 30099 52016 60001 70000 333 10286 20000 58007 60007
AAXX 03001 50353 32964 72001 11291 21324 30079 40331 52007 80002 333 00251 92507
AAXX 03001 50557 11956 60000 11242 21269 39963 40297 52005 69901 70470 80002 333 00051 79999 92503
AAXX 03001 50756 31950 80401 11122 21165 39945 40262 52001 70400 8801/ 333 05405 92505
AAXX 03001 50949 32965 73401 11087 21135 30072 40252 52010 80002 333 05202
AAXX 03001 50963 32765 70706 11097 21164 30097 40242 52003 82502 333 05506
AAXX 03001 50978 32962 60403 11140 21172 39889 40261 54000 80002 333 05603
AAXX 03001 51087 32680 70000 11075 21100 39241 40248 52006 82532 333 05305 31002 92514
AAXX 03001 51156 NIL
AAXX 03001 51644 32960 00401 11031 21051 38919 40199 52003 333 05251
AAXX 03001 51656 32970 71801 10011 21039 39087 40195 52002 80002 333 05301 31017
AAXX 03001 51886 32980 20901 11104 21243 37082 52005 80002 333 05351
AAXX 03001 52602 32980 02001 11156 21241 37232 52007 333 05354
AAXX 03001 52713 32980 61101 11131 21228 36868 52007 80002 333 05300
AAXX 03001 52754 32980 13602 11098 21176 36731 52008 80002 333 05503
AAXX 03001 52818 32980 32501 11049 21219 37202 52011 80002 333 05203
AAXX 03001 52836 32980 61602 11109 21195 36860 52011 80002 333 05353
AAXX 03001 52955 32980 11603 11116 21199 36913 52002 80002 333 05505
AAXX 03001 53068 32980 00401 11242 21271 39101 40357 52004 333 00055
AAXX 03001 53276 32980 02004 11185 21217 38884 40350 52001 333 00159 79999
AAXX 03001 54135 32973 03202 11105 21166 30041 40276 52013 333 00100
AAXX 03001 54236 31958 03403 11074 21130 30150 40261 52020 70400 333 00004
AAXX 03001 54539 31/01 92901 11038 21042 30248 40263 52021 74540 333 00251 31030 70002
AAXX 03001 54662 32965 03604 11012 21105 30118 40236 52020 333 05101 31042
AAXX 03001 54753 11560 73603 10048 20006 30225 40232 52013 69951 72586 874// 333 05104 31007 70014
AAXX 03001 54857 31950 03406 10015 21028 30152 40247 52019 71000 333 00001 31008
AAXX 03001 57067 32960 31401 11018 21031 39564 40262 52015 80002 333 00251 31020
AAXX 03001 57178 31915 00402 10024 20001 30100 40264 52015 71000 333 00301 30013
AAXX 03001 57245 31/06 91601 10032 20032 39869 40228 52009 74540 333 05200 30015
AAXX 03001 57297 31930 70201 10017 20002 30116 40260 52016 71000 8703/ 333 00251 31010
AAXX 03001 15627 11989 03210 11015 21104 37679 47122 54000 60001 70200 333 11012 21016 41/// 555 552//
BBXX 9V8797 03004 99206 10391 43/98 43209 10243 40165 56009 22234 00273 2//// 4////
BBXX ONDY 03004 99349 30208 41598 52219 10180 2013/ 40190 54000 70311 85/9/ 22264 00205 2//// 3//// 4//// 5//// 6//// 80150 ICE /////
BBXX DGUG2 03004 99286 70200 41998 00927 10215 20169 40250 52030 70200 80000 22214 04230 20807 399// 4//// 80185
BBXX ONFE 03004 99243 10618 43/// ///// 1//// 2//// 4//// 5//// 7//// 8//// 22211 0//// 2//// 3//// 4//// 5//// 6//// ICE /////
BBXX V7OX3 03004 99359 30052 41/98 /1207 10120 20056 40300 54000 70211 8//// 22264 04180 2//03 323// 4//04 5//// 80090
BBXX ELWP5 03001 99222 70174 41598 20208 10200 20169 40242 54000 70511 82612 22200 04190 20000 335// 41603 5//// 80180
BBXX A8UT7 03004 99102 50018 41598 81211 10214 20161 40120 54000 70200 8271/ 22273 20703 80180
BBXX DILS 03004 99303 30358 41/98 32326 10225 20186 40078 54000 70111 81/// 22254 04240 20506 323// 40404 80200
BBXX C6XQ2 03003 99136 70267 41397 80518 10251 20226 40163 54000 70522 886// 22243 04260 20805 334// 41304 5//// 80234
BBXX LGWS 03001 99269 70135 43/// /0412 10174 20142 40230 5//// 222/0 04173 1//// 3//// 4//// 5////
BBXX A8KH9 03004 99051 10026 41998 02110 10275 20219 40090 54000 70000 80000 22200 20301 31800 41002 5//// 80235
BBXX UCKZ 03001 99192 30055 42597 71313 10190 20143 40162 58004 87800 22233 00192 2////
BBXX DGZR2 03003 99274 10341 41998 03119 10195 20127 40162 55002 7//00 80000 22234 00240 20301 30000
BBXX A8RL3 03001 99350 30227 41398 11609 10182 20146 40195 57003 70100 8//// 22223 00243 2//// 3//// 4//// 5//// 80161
BBXX PHQW 03003 99198 70312 41/98 /0510 10238 20168 40190 52011 70222 8//// 22233 00248 2//// 80192 59991
BBXX SHJC 03001 99334 11622 43/98 70511 10170 40254 53031 22263 00223 2//// 4////
BBXX ZCAS2 03003 99165 11301 41698 41316 10289 20245 40081 52011 70200 82362 22243 00284 20103 33013 40407 50304 80258
BBXX SHIP 03004 99228 11585 41/98 30512 10250 2022/ 40200 51010 7//11 8/2// 22253 0//// 2//// 3//// 4//// 5//// 6//// 80230 ICE /////
BBXX SHIP 03004 99122 11306 41597 60613 10260 2025/ 40130 53020 70322 84385 22213 00300 20402 308// 40803 5//// 6//// 80250 ICE /////
BBXX ZCDF8 03004 99070 11072 41398 70530 10260 20218 40088 53015 70222 8/7// 22244 00270 20606 308// 40405 5//// 80232
BBXX WRYC 03004 99075 10764 41297 /2124 10260 2025/ 40075 56005 79598 8//// 22235 00282 20202 3//// 4//// 5//// 6//// 80250 ICE /////
BBXX A8VL5 03004 99233 11179 41398 50325 10140 20102 40280 53010 70111 85500 22254 00190 20404 30000 80120
BBXX MZER8 03003 99065 10778 41598 31510 10299 20228 40075 56004 70200 8223/ 22223 00287 2//// 3//// 4//// 5//// 80250
BBXX ELXS8 03003 99210 11455 41498 51010 10280 20244 40155 50010 70211 85200 22283 02280 20201 310// 40402 5//// 80255
BBXX VVKS 03003 99119 11409 41797 20904 10310 20300 40051 54000 70100 8222/ 22232
BBXX VQFV3 03003 99354 11294 41597 70325 10100 20068 40115 58020 70286 8537/ 22200 20407 3//// 4//// 5//// 80085
BBXX OXOR2 03004 99055 10975 41498 41311 10269 20230 40071 53005 70200 83135 22224 00288 20302 30000 80241
BBXX MSDM7 03003 99138 11100 41397 60618 10245 20245 40179 54000 70222 84761 22244 04257 20703 322// 40704 5//// 80245
BBXX MCLJ8 03000 99064 11106 41397 80128 10260 20246 40071 53/// 7//52 86710 22223 04270 20202 302// 40306 5//// 80250
BBXX PHKL 03000 99268 11205 41598 10312 10142 20064 40212 51/// 70222 811// 22254 00218 20501 304// 40704 5//// 80101
BBXX DGXS 03004 99438 11473 41598 30632 10035 21030 40310 53010 70100 8/47/ 22255 00060 29901 305// 4//02 5//// 80010
BBXX VNVZ 03004 99217 11329 41398 81412 10265 20251 40110 54000 70222 8672/ 22283 00255 20000 30905 40402 50402 80255
AAXX 03001 91945 16/// /0412 10286 20223 30131 40136 56014 69924 333 20229 59001
AAXX 03001 89062 42586 40103 10008 21018 39859 49900 52036 84500 333 10022 21005 81620 84640
AAXX 03004 82106 21695 80000 10236 20231 3//// 4//// 70362 8543/ 333 10274 29097 55000 5//// 60021
AAXX 03004 82113 32995 60000 10254 20245 3//// 4//// 86050 333 10293 29092 55000 5////
AAXX 03004 82212 21596 80000 10239 20231 30028 40110 70366 887// 333 10323 29092 55011 58014 60081
AAXX 03004 82336 32998 33602 10294 20256 3//// 4//// 80006 333 10335 29080 55096 5////
AAXX 03004 82410 21595 73602 10253 20236 3//// 4//// 71396 8432/ 333 10295 29093 55005 5//// 60031
AAXX 03004 82425 21193 80902 10246 20232 3//// 4//// 70266 887// 333 10304 29082 55/// 5//// 60181
AAXX 03004 82533 31495 60000 10244 20230 30060 40116 71322 84370 333 10286 29093 55003 58017
AAXX 03004 82704 21694 80000 10245 20234 39851 40045 70362 885// 333 10335 29087 55033 59009 60061
AAXX 03004 82723 32196 63606 10255 20242 30023 40105 86700 333 10328 29086 55017 58013
AAXX 03004 82042 32697 50000 10277 20267 3//// 4//// 83400 333 10334 29089 55095 5////
AAXX 03004 82240 32096 00000 10298 20255 3//// 4//// 333 10350 29070 55104 5////
AAXX 03004 82317 32193 80502 10239 20231 3//// 4//// 886// 333 10294 29093 55007 5////
AAXX 03004 82610 32995 00000 10275 20260 3//// 4//// 333 10347 29087 55043 5////
AAXX 03004 82807 21294 80000 10269 20254 3//// 4//// 76162 887// 333 10328 29087 55043 5//// 60021
BBXX WAHV 03004 99402 70244 41797 81704 10135 2008/ 40367 51001 7//22 8874/ 22225 00167 2//// 302// 41405 5//// 6//// 80105 ICE /////
BBXX 62081 03004 99510 70134 46/// ///// 10126 20115 40110 58001 22200 00122 10812 70060
BBXX 64045 03004 99591 70117 46/// /2943 10063 20047 49772 53041 22200 00104 11227 70135 333 90710 91164
BBXX 62105 03004 99554 70122 46/// /2830 10087 20045 49968 53006 22200 00111 10914 70068 333 90710 91141
BBXX 62442 03004 99490 70163 46/// /2726 1//// 2//// 40192 58009 22200 00133 333 90710 91137
BBXX 62029 03004 99487 70125 46/// /2825 10134 20109 40178 58003 22200 00139 10811 70057 333 90710 91134
BBXX 62163 03004 99475 70084 46/// /2623 10124 20099 40198 56012 22200 00140 10910 70048 333 90710 91129
BBXX 62001 03004 99452 70050 46/// /2716 10135 20066 40248 57006 22200 00158 10807 70034
BBXX 64046 03004 99606 70049 46/// /2629 10074 20040 49620 56069 22200 00090 10811 70054
BBXX 62301 03004 99524 70047 46/// /2524 10121 20102 40014 57021 22200 00123 10606 70032 333 90710 91140
BBXX 62303 03004 99516 70051 46/// /2522 10122 20115 40044 56022 22200 00128 10708 70041 333 90710 91134
BBXX AMOUK14 03004 99535 70030 46/// ///// 10110 20083 39944 49979 57017 92350
BBXX AMOUK06 03004 99506 70024 46/// ///// 10125 20103 30060 40079 57039 92350
BBXX AMOUK04 03004 99536 70035 46/// ///// 10115 20099 39943 49949 57042 92350
BBXX AMOUK09 03004 99506 70001 46/// ///// 10108 20091 30088 40106 57031 92350
BBXX AMOUK12 03004 99533 70057 46/// ///// 10116 20091 39935 49968 57047 92350
BBXX AMOUK03 03004 99531 10010 46/// ///// 10078 20058 39970 40003 57032 92350
BBXX AMOUK11 03004 99533 70050 46/// ///// 10115 20103 39943 49986 57017 92350
BBXX AMOUK13 03004 99519 10013 46/// ///// 10081 20051 30058 40067 57031 92350
BBXX AMOUK08 03004 99501 70061 46/// ///// 10123 20113 30097 40104 57019 92350
BBXX AMOUK05 03004 99534 10008 46/// ///// 10079 20050 39932 49970 57053 92350
BBXX 62149 03004 99537 10011 47498 /2134 10085 20055 49989 57054 700// 22200 10605 70024
BBXX 62148 03004 99536 10015 46/// /2133 10080 20046 40016 57047 22200
BBXX 62131 03004 99539 10012 46/// /20// 10085 20057 49984 57054 22200
BBXX 62150 03004 99536 10007 46/// ///// 22200
BBXX 62121 03004 99535 10027 46/// /2233 10084 20037 40036 57040 22200
BBXX 62111 03004 99580 70003 46/// /2538 10099 20060 49820 56044 22200 10709 70044
BBXX PJAI 03004 99581 70014 47997 /2537 10099 20025 49784 57038 700// 22200
BBXX 62112 03004 99584 70002 47497 /2333 10086 20060 49779 57056 700// 22200
BBXX 63055 03004 99606 10016 47395 /1925 10072 20072 730// 22200 10811 70053
BBXX 63108 03004 99608 10017 47296 /2038 10073 20054 49714 57073 761// 22200 10808 70042
BBXX 63106 03004 99610 10017 46/// /1931 10072 49704 57085 22200
BBXX 63105 03004 99610 10017 47496 ///// 10084 20059 49704 57083 751// 22200
BBXX 63113 03004 99610 10017 46/// /2037 10081 20060 49712 57081 22200 10812 70060
BBXX 63112 03004 99611 10010 47/97 /2427 10075 20041 49692 57077 700// 22200 10711 70056
BBXX 63107 03004 99611 10017 46/// /1942 10074 49700 57085 22200
BBXX 63101 03004 99612 10009 46/// /2522 10063 20038 49695 57088 22200
BBXX 63103 03004 99612 10011 46/// /2529 10061 20056 49704 56064 22200 10811 70055
BBXX 63104 03004 99612 10016 47494 /1941 10074 20062 49705 57084 762// 22200
BBXX 63117 03004 99613 10011 47498 /2328 10133 20099 49696 57099 700// 22200
BBXX 63115 03004 99616 10013 47396 /2036 10092 20053 49673 57084 700// 22200 10812 70059
BBXX MWYG6 03004 99603 70040 47998 /2622 10070 700// 22200
BBXX 62144 03004 99534 10017 47698 /2133 10081 20043 40012 57053 700// 22200 10505 70026
BBXX 64041 03004 99607 70026 47597 /1823 10062 20062 49645 57066 700// 22200 10809 70046
BBXX 62145 03004 99531 10028 47798 /2031 10092 20036 40034 57046 700// 22200 10506 70028
BBXX 62142 03004 99530 10021 46/98 /2230 10082 40026 57050 22200 10504 70021
BBXX 62155 03004 99577 10007 47496 /2137 10095 20070 49828 57062 763// 22200 10710 70048
BBXX 62116 03004 99576 10011 47497 /2235 10091 20066 49828 57069 700// 22200 10810 70048
BBXX 62104 03004 99574 10013 47497 /2137 10092 20067 49834 57066 700// 22200
BBXX 62153 03004 99573 10020 47395 /2036 10083 20043 49857 57065 762// 22200 10709 70044
BBXX 62122 03004 99573 10016 47397 /2033 10099 20060 49853 57064 700// 22200 10710 70050
BBXX 62140 03004 99573 10013 46/// /22// 10093 20070 49852 57065 22200
BBXX 62146 03004 99572 10021 46/// ///// 22200
BBXX 62164 03004 99572 10008 46/// ///// 22200
BBXX PJGO 03004 99571 10022 47195 /1935 10080 20047 49879 57056 762// 22200
BBXX 62133 03004 99571 10009 46/// ///// 22200
BBXX 62119 03004 99570 10019 46/// ///// 22200
BBXX 62152 03004 99570 10018 46/// ///// 22200
BBXX 62154 03004 99564 10022 46/// /2132 10080 20053 49907 57059 22200
BBXX 62120 03004 99564 10021 47497 /2234 10085 20043 49896 57061 700// 22200
BBXX 62132 03004 99564 10020 46/// /2333 10083 20051 49907 57058 22200
BBXX 62123 03004 99563 10022 47497 /2033 10087 20041 49904 57060 700// 22200
BBXX 62165 03004 99540 10009 47498 /2232 10082 20052 49976 57056 700// 22200 10605 70026
BBXX 62127 03004 99540 10007 47498 ///// 10082 20051 49969 57056 700// 22200 10605 70025
BBXX 63056 03004 99597 10016 47496 /2040 10084 20049 49763 57084 700// 22200 10810 70052
BBXX 63057 03004 99592 10015 47496 /2046 10085 20062 49757 57077 700// 22200 10810 70052
BBXX 62128 03004 99587 10014 47496 /2041 10085 20060 49781 57071 761// 22200 10810 70050
BBXX 62129 03004 99584 10003 46/// ///// 10090 20071 49802 57061 22200
BBXX 62113 03004 99584 10002 47496 /2135 10091 20067 49803 57066 762// 22200
BBXX ZQSD5 03004 99583 10007 46/// /2038 10089 20071 49795 57069 22200 10910 70050
BBXX 62114 03004 99583 10000 46/// /2238 10093 20067 49775 57057 22200
BBXX 62134 03004 99580 10014 47497 /2137 10092 20051 49808 57074 700// 22200 10709 70045
BBXX 62102 03004 99579 10018 46/// /2031 10081 20057 49830 57068 22200 10708 70041
BBXX 62117 03004 99579 10000 47496 /2233 10099 20073 49802 57057 700// 22200 10709 70045
BBXX 62143 03004 99577 10018 47396 /2028 10078 20069 49827 57071 751// 22200 10708 70042
BBXX 62118 03004 99577 10009 47496 /2140 10100 20069 49818 57061 752// 22200 10709 70046
BBXX 62305 03004 99504 10000 46/96 /2231 10101 20079 40123 58028 22200 00137 10603 70017 333 90710 91146
BBXX 62105 03004 99554 70132 46/// /2830 10087 20045 49968 53006 22200 00111 10914 70068 333 90710 91141
BBXX 62304 03004 99511 10018 46/98 /2330 10108 20071 40103 57032 22200 00129 10602 70011 333 90710 91145
BBXX 62081 03004 99510 70134 46/// ///// 10122 20111 40110 58001 22200 00121 10812 70060
BBXX 62170 03004 99514 10020 46/97 /2333 10107 20064 40092 58038 22200 00129 10602 70008 333 90710 91146
BBXX 62103 03004 99499 70029 46/98 /2631 10125 20101 40106 56037 22200 00135 10705 70024 333 90710 91146
BBXX 62303 03004 99516 70051 46/// /2524 10122 2//// 40048 57021 22200 00126 10709 70044 333 90710 91132
BBXX 62094 03004 99517 70067 46/// /2521 10123 20109 40044 56013 22200 00122 10708 70039 333 90710 91133
BBXX 62027 03004 99491 70022 46/// /2526 1//// 2//// 40149 57024 22200 00133 11205 328// 70023
BBXX MCZN2 03004 99538 70041 41298 82026 10100 20001 49973 57040 70222 887// 22271 04120 20101 32000 40105 50000 80060
BBXX PHBO 03003 99480 70188 41298 72633 10135 20098 40235 58019 703// 8/7// 22224 2//// 80116
BBXX 62107 03004 99501 70061 46/// /2630 10118 20105 40101 58022 22200 00125 10907 70035 333 90710 91142
BBXX 62092 03004 99512 70105 46/// /2724 10128 20110 40090 52001 22200 00127 10811 70056 333 90710 91135
BBXX 62095 03004 99530 70159 46/// /2823 10108 20074 40070 52006 22200 00119 10811 70053 333 90710 91133
BBXX TBWUK03 03003 99421 70342 41398 82216 10143 20119 40365 53022 70222 85710 22223 20301 323// 40602 5//// 80129
BBXX GHJV 03004 99489 70056 41297 82530 10132 20111 40148 57/// 78082 8762/ 22251 02144 20302 334// 40704 80121
BBXX DDSX2 03001 99455 70080 41498 62811 10145 20101 40240 56010 70211 8347/ 22215 04197 21005 328// 41408 5//// 80120
AAXX 03001 23909 41396 82402 11081 21087 39949 40206 57007 71022 886//
AAXX 03001 28044 42997 03102 11131 21145 30000 40172 52003
AAXX 03001 28116 41598 82404 11078 21088 39982 40224 57002 70271 885//
AAXX 03001 28240 41598 72904 11064 21086 39856 40188 55001 70282 87900
AAXX 03001 28522 41996 82903 11067 21075 39980 40247 52001 77172 8802/
AAXX 03001 28621 42597 81801 11080 21090 30003 40246 58001 885//
AAXX 03001 29023 11997 80000 11242 21267 30084 40191 52007 69932 77172 8801/ 333 21252 47024 55000
AAXX 03001 29122 11499 40000 11236 21254 30111 40191 52005 69902 70281 84300 333 21248 47018 84913
AAXX 03001 29328 11498 22202 11173 21187 30046 40195 53006 69962 72681 82900 333 21174 47009 55004
AAXX 03001 29348 11596 81601 11118 21131 30051 40202 58001 60012 78582 8297/ 333 21121 47016
AAXX 03001 29405 32997 01001 11193 21205 30041 40200 54000 333 21205 47017 55000
AAXX 03001 29418 11998 02401 11170 21189 30038 40207 52001 69932 70281 333 21176 47013 55011
AAXX 03001 29430 11498 82201 11108 21114 30022 40205 54000 60012 77172 8872/ 333 21121 47020 55000 86710
AAXX 03001 29524 11997 82202 11158 21171 30036 40209 52006 69992 77172 80007 333 21158 47022
AAXX 03001 29605 11496 81802 11133 21139 30053 40202 58008 69952 78582 889// 333 21153 47014 55009
AAXX 03001 29631 11496 82303 11089 21092 30015 40206 52003 60022 78582 889// 333 21109 47017
AAXX 03001 29645 11598 81902 11076 21094 30029 40221 52004 69982 70272 82572 333 21079 47018 55004
AAXX 03001 29706 11997 82103 11128 21141 30068 40222 58003 69962 77171 8802/ 333 21172 48011 55026
AAXX 03001 29736 11597 81902 11073 21078 39966 40223 52001 69952 78582 883// 333 21076 47013
AAXX 03001 29937 12597 82003 11078 21096 30029 40257 53004 69902 885// 333 21088 47016
AAXX 03001 36034 11498 82104 11102 21115 39985 40273 53008 69902 72672 885// 333 21150 48015 84710
AAXX 03001 36096 32997 70000 11223 21242 39520 40368 57003 80005 333 21231 47004 55000
AAXX 03001 28216 42698 82702 11077 21091 39935 40227 57004 885//
AAXX 03001 28428 41497 82801 11090 21097 30061 40256 52004 70272 8555/
AAXX 03001 28451 41996 72803 11064 21078 30015 40178 57006 73632 87030
AAXX 03001 28537 42496 62704 11068 21081 39806 40239 54000 82370
AAXX 03001 28541 41582 82804 11072 21085 39704 40212 57006 73632 8357/
AAXX 03001 28615 41596 72003 11072 21085 30090 40253 57001 78582 879//
AAXX 03001 28655 42998 02403 11104 21114 39983 40215 57007
AAXX 03001 28756 41596 82102 11128 21140 30068 40225 57009 77072 885//
AAXX 03001 29557 11597 72402 11075 21101 39951 40225 52002 69902 78581 85301 333 21080 47005 85920
AAXX 03001 29625 11496 32503 11123 21136 30027 40215 52006 69942 78581 83900 333 21123 47018
AAXX 03001 29813 11497 82202 11122 21135 30028 40216 52001 69932 78581 8497/ 333 21123 47009
AAXX 03001 29822 32997 52303 11105 21118 30065 40236 52008 85070 333 21131 47011 55004
AAXX 03001 29915 11497 82302 11103 21109 30077 40242 52002 69952 78581 889// 333 21130 47006 88914
AAXX 03001 36020 11496 82303 11071 21076 30034 40240 57001 69932 78582 889// 333 21074 48016 55019 88915
AAXX 03001 29998 32999 31801 11221 21228 38616 48480 52006 333 21254 55043
AAXX 03001 30385 12999 80000 11210 21222 39731 40306 54000 69922 80007 333 21212 55020
AAXX 03001 30469 11996 80000 11222 21229 39505 40326 53012 69962 77177 8802/ 333 21252 47015 55000
AAXX 03001 30636 329// 00000 11286 21298 39667 40346 52003 333 21228 47014 55035
AAXX 03001 30650 12999 40000 11282 21300 39130 40369 52008 69932 81041 333 21286 47006
AAXX 03001 30664 11998 80000 11217 21223 39251 40317 53009 60012 77172 8802/ 333 21221 55017
AAXX 03001 30781 11999 50000 11294 21305 39821 40348 53009 69952 70371 82041 333 21294
AAXX 03001 30777 11998 80000 11232 21250 39606 40317 52009 69962 77177 85027 333 21233 47008 55031
AAXX 03001 30844 12599 52701 11188 21194 39286 40331 52014 69932 333 21190 47006 85500
AAXX 03001 30925 31997 20000 11222 21235 39289 40344 52020 70400 80001 333 21224 55064
AAXX 03001 31371 32999 40000 11317 21341 30040 40341 53004 82031 333 21317 55072
AAXX 03001 31388 32999 20000 11261 21273 30029 40321 54000 80001 333 21290 47005 55064
AAXX 03001 31478 NIL
AAXX 03001 31532 32999 20000 11290 21301 39963 40348 57003 80001 333 21306 47009 55076
AAXX 03001 31594 32998 80000 11202 21214 30096 40281 55001 82037 333 21222 47019
AAXX 03001 31655 32998 20000 11168 21210 30238 40288 53007 80001 333 21165 47016
AAXX 03001 31754 32999 30000 11256 21281 39779 40335 53004 80001 333 21303
AAXX 03001 22438 42568 81816 10020 20001 39831 49852 57024 884// 333 91019 91119
AAXX 03001 23914 41497 82702 11109 21117 39954 40225 53007 77172 8872/
AAXX 03001 23921 42997 00901 11213 21232 30046 40176 52006
AAXX 03001 23955 11227 80000 11245 21259 30118 40186 52006 69972 71081 886// 333 21245 47030 88703
AAXX 03001 23966 11996 80000 11207 21226 30045 40181 52007 69902 77172 8801/ 333 21207 47031 55000
AAXX 03001 28138 42599 82903 11102 21115 39619 40213 52005 885//
AAXX 03001 28224 41596 82701 11070 21079 30008 40228 54000 77172 8852/
AAXX 03001 28255 42594 83101 11094 21102 30025 40159 56005 885// 333 88625
AAXX 03001 28440 42597 83006 11058 21082 39835 40194 57005 883//
AAXX 03001 28645 42997 01601 11130 21136 39922 40235 58004
AAXX 03001 28661 42995 22104 11120 21130 30103 40200 57011 82030
AAXX 03001 28722 41596 81601 11119 21128 30123 40262 52004 78582 889//
AAXX 03001 28748 42961 02701 11142 21155 39988 40244 58002
AAXX 03001 28838 41995 00301 11228 21253 39761 40288 52002 71011
AAXX 03001 29231 11996 80000 11175 21187 30087 40191 52005 69932 77172 8802/ 333 21180 47019 55000
AAXX 03001 29313 11996 52001 11218 21232 30062 40195 52001 69942 77171 85020 333 21255 47021 55005
AAXX 03001 29612 12998 02002 11177 21189 30058 40220 52006 69962 333 21180 47015 55025
AAXX 03001 29638 11496 82003 11076 21094 30046 40217 53004 60012 78582 889// 333 21086 47017 55000 88917
AAXX 03001 29838 11597 82002 11079 21093 30000 40241 53004 69922 72272 885// 333 21081 47015 55025
AAXX 03001 29846 11444 81903 11089 21104 39852 40251 53002 69942 78582 889// 333 21091 47007 88915
AAXX 03001 36061 11999 40000 11165 21178 39852 40287 52005 60012 72681 80001 333 21165 47038 55000
BBXX PBQK 03003 99510 50593 41998 13109 10110 40120 54000 70200 80001 22223 20301 30000
BBXX PDZS 03003 99464 50607 41497 70624 10116 20102 40099 56009 70351 84402 22242 02115 20503 305// 40803 5//// 80108
BBXX DDSB2 03003 99267 50734 41297 61915 10190 20132 40165 52005 7//11 8677/ 22244 29901
AAXX 03004 40582 32963 03004 10045 21082 40220 50002 333 00003 55300 00000 10230 20000 30000 40945 51175 60000 55407 40000 90467 91005 91111 91207 91305
AAXX 03004 41150 NIL
AAXX 03004 41168 NIL
AAXX 03004 41170 32962 03013 10153 20104 30164 40177 333 59022
AAXX 03004 41176 NIL
AAXX 03004 41184 NIL
AAXX 03004 41194 NIL
AAXX 03004 41196 NIL
AAXX 03004 41198 NIL
AAXX 03004 41210 NIL
AAXX 03004 41216 NIL
AAXX 03004 41217 NIL
AAXX 03004 41218 NIL
AAXX 03004 41226 NIL
AAXX 03004 41244 NIL
AAXX 03004 41246 NIL
AAXX 03004 41254 NIL
AAXX 03004 41256 32960 02303 10200 20180 30134 40144 333 59008
AAXX 03004 41258 NIL
AAXX 03004 41268 NIL
AAXX 03004 41312 36/// /3118 10222 20053 30091 40130 333 0E/// 59015
AAXX 03004 41314 32960 02707 10129 20025 39666 40186 333 59012
AAXX 03004 41316 32960 03322 10210 20028 30110 40136 333 59002 91032
AAXX 03004 41404 12960 00000 10074 20004 37866 48534 60002 333 59004
AAXX 03004 41407 NIL
AAXX 03004 41431 12560 30000 10236 20216 30106 40119 60002 83400 333 59006 83630
AAXX 03004 41466 NIL
AAXX 03004 41477 NIL
AAXX 03004 41480 11457 20304 10253 20191 30123 40126 60002 70544 82500 333 59013 82618
AAXX 03001 38388 42998 00000 11010 21049 30197 40270 58016 555 14106
AAXX 03001 38392 42997 01003 11057 21075 30183 40291 58011 555 14108
AAXX 03001 38507 42996 51405 10043 20012 30140 40245 57009 85030 555 10002
AAXX 03001 38511 42998 00000 11015 21024 30108 40255 57010 555 11103
AAXX 03001 38545 41/93 90000 11042 21054 30118 40302 57004 74341 555 14107
AAXX 03001 38647 42997 00910 10010 21004 30161 40204 57032 555 10101
AAXX 03001 38656 42998 00702 10004 21026 30161 40274 57027 555 14102
AAXX 03001 38687 42796 50000 10030 20014 30059 40300 57009 85500 555 11001
AAXX 03001 38750 42997 00502 10018 21001 30243 40214 57014 555 10001
AAXX 03001 38763 42997 01003 10014 20003 30121 40229 57023 555 11101
AAXX 03001 38774 42895 80902 10016 20008 30048 40249 57002 8807/ 555 11001
AAXX 03001 38799 42997 00000 10000 21006 30062 40303 57010 555 11102
AAXX 03001 38806 42997 00000 10006 20001 30031 40301 57010 555 14101
AAXX 03001 38880 41993 01401 10003 21005 39984 40247 57025 71100 555 14103
AAXX 03001 38886 41995 01003 10013 20002 30041 40276 57015 71000 555 11101
AAXX 03001 38895 42996 00702 10012 20009 39992 40292 57015 555 11100
AAXX 03001 38911 41493 60000 10010 20007 39992 40296 57015 74442 86600 555 12002
AAXX 03001 38915 42597 82001 10046 20034 39958 40287 56017 885// 555 12005
AAXX 03001 38974 42998 01602 10027 20014 39932 40276 57014 555 12002
AAXX 03001 38987 42596 80503 10024 20019 39512 40274 57014 885// 555 11003
AAXX 03001 48806 32460 80000 10100 20098 39394 40193 52016 888// 333 00012 20090 3/008 59037 83894 88696 9612 2
BBXX 44098 03001 99428 70702 46/// ///// 1//// 90007 22200 00100 11002 21002 313// 41101 70011
AAXX 03001 48826 31956 00702 10132 20117 30031 40171 53005 71000 333 00013 20131 3/012 59049
AAXX 03001 48839 32498 10506 10170 20117 30102 40169 53006 81100 222// 00209 2//02 333 00/// 20162 59031 8189 4
BBXX 46114 03001 99364 71222 46/// ///// 1//// 90004 22200 00127 11106 21004 332// 41104 70029
BBXX 41115 03001 99184 70673 46/// ///// 1//// 90005 22200 10802 20802 70009
BBXX 41114 03001 99276 70802 46/// ///// 1//// 90016 22200 00226 10803 20803 308// 41301 70017
AAXX 03001 48830 32970 00000 10062 20062 39868 40190 52005 333 00008 20062 3/007 59056 96122
AAXX 03001 48808 31/02 90000 10092 20090 39901 40196 52014 74544 333 01013 20090 3/010 59041
AAXX 03001 38847 ///// /1800 10019 20007 39480 40270
BBXX 51203 03001 99208 71570 46/// ///// 1//// 90013 22200 00257 11302 20901 331// 41302 70010
BBXX 52200 03001 99134 11448 46/// ///// 1//// 90015 22200 00288 11004 21004 309// 41102 70021
BBXX 51201 03001 99217 71581 46/// ///// 1//// 90012 22200 00250 11305 21004 333// 41303 70026
BBXX 46221 03001 99339 71186 46/// ///// 1//// 92345 22200 00152 11402 20802 321// 41401 70009
AAXX 03001 60373 36/// /1803 10120 20101
AAXX 03001 60623 36/// /0000 1012' 21092
AAXX 03001 60393 36/// /1401 10136 20073
BBXX WDD2876 03004 99474 70891 41/98 41931 10011 2//// 40196 54/// 70222 8//// 22223 00050 2//03 3//// 4//// 5//// 6//// 8//// ICE /////
BBXX DFWV2 03004 99105 70986 41/// 20818 10265 20206 40120 54000 7//00 8//4/ 2227/ 29904 336// 4//02 5////
BBXX NWS0009 03004 99116 71741 43/// /0918 10274 20246 40081 5//// 7//// 8//// 222// 04275 2//// 3//// 4//// 5//// 6//// 8//// ICE /////
BBXX A8UL4 03004 99074 70827 41498 32609 10265 20223 40110 54000 70322 82148 22234 00282 29901 318// 40301 5//// 80235
BBXX DILE 03003 99093 70860 41/98 /9902 10267 20215 40100 52010 7//00 8//// 22234 04260 2//// 80230
BBXX 42067 03001 99300 70886 46/// ///// 10157 20125 40275 92340 22200 00192 10502 70011
BBXX 42085 03001 99179 70665 46/// /2504 10253 40142 92350 333 91205
BBXX 41053 03001 99185 70661 46/// /0404 10272 40143 92340 333 91206
BBXX 42085 03001 99179 70665 46/// /2503 10255 40141 52020 90000 22200 00286 10501 70007 333 91204
BBXX 42085 03001 99179 70665 46/// /2605 10251 40140 92340 333 91206
BBXX 41053 03001 99185 70661 46/// /0405 10272 40143 92350 333 91206
BBXX 41053 03001 99185 70661 46/// /0405 10272 40144 51018 90000 22200 00283 11002 70009 333 91206
BBXX C6SE3 03004 99125 70692 41797 60527 10275 20262 40150 54/// 702// 8/2// 22274 00300 20303 3//// 4//// 5//// 6//// 80265 ICE /////
BBXX 9VAW8 03004 99360 71309 41598 50120 10150 20150 40270 57010 7//// 8626/ 22223 04200 20406 30101 40406 50406 6//// 85150 ICE /////
BBXX 41052 03001 99183 70648 46/// /0606 10272 40136 51014 90000 22200 00282 10902 70008 333 91207
BBXX 41052 03001 99183 70648 46/// /0606 10273 40135 92340 333 91207
BBXX 41052 03001 99183 70648 46/// /0506 10273 40135 92350 333 91207
BBXX 44150 03001 99425 70640 46/// /0501 10065 40278 52013 22200 00108 11404 70022 333 91203
BBXX SJCD 03001 99235 70592 43/98 61611 10247 40169 53005 22254 00257
BBXX 44139 03001 99442 70571 46/// /3606 10060 40264 52009 22200 00070 11206 70028 333 91207
BBXX PJFF 03004 99305 70585 41/// /3211 10240 20240 40190 54000 7//// 8/4// 22214 04220 21003 80240
BBXX DPLE 03003 99308 70796 41/98 50410 10200 20126 40280 52020 70211 8//// 22274 00270 20301 336// 40702 80155
BBXX 41038 03001 99341 70777 46/// /2302 10144 40295 52011 90000 22200 00161 333 91203
BBXX 2AKI3 03004 99106 70616 41/98 /3608 10263 20243 40103 55011 70192 8///6 22200 04285 29902 300// 4//// 5//// 80249
BBXX 41037 03001 99340 70775 46/// /0501 10129 40258 52004 90000 22200 00168 333 91201
BBXX C6FT7 03003 99220 70700 41499 40222 10253 2021/ 40160 5//// 7//00 841// 22274 00200 2//// 3//// 4//// 5//// 6//// 80220 ICE /////
BBXX LAJK7 03004 99352 70365 41797 80519 10200 2015/ 40340 51010 70222 8738/ 22213 00224 20306 306// 41206 5//// 6//// 80170
BBXX WDC6736 03004 99413 70444 41498 82022 10180 2015/ 40285 52015 70222 8879/ 22224 00200 20605 3//// 4//// 5//// 6//// 80160 ICE /////
BBXX C6FY8 03003 99486 71225 41697 63005 10080 2001/ 40310 5//// 70222 862// 22200 0//// 20500 3//// 4//// 5//// 6//// 80050 ICE /////
BBXX SHIP 03004 99411 71600 41296 81418 10170 20155 40102 57023 70222 887// 90000 22224 00150 20605 313// 40806 80160
BBXX SHIP 03004 99311 71785 41596 73319 10225 20203 40114 56014 75022 8892/ 90005 22262 00220 20302 331// 40302 80210
BBXX WDD6126 03004 99260 70798 41298 40530 10210 2016/ 40225 52014 70111 8418/ 22284 00250 20303 305// 40403 5//// 6//// 80180 ICE /////
BBXX DGHX 03003 99390 71716 41596 82018 10190 20175 40045 56010 70222 896// 22225 00160 20503 31617 41107 51006 80180
BBXX A8KM9 03004 99295 71250 41/98 33421 10194 20123 40188 56040 70200 82170 22234 20404 336// 40605 80151
BBXX SKUN 03003 99469 70441 43/04 93119 10064 40163 53017 22253 00055 2//// 4////
BBXX 46089 03001 99459 71258 46/// /3610 10093 20049 40338 56003 92350 22200 00101 11407 20805 331// 41406 70037 333 91212 555 11110 22117 32321 43614 62349 000103 357105 358110 358112 357109 358107
BBXX 46214 03001 99379 71235 46/// ///// 1//// 90000 22200 00120 11008 21007 331// 41104 70041
BBXX 44022 03001 99409 70737 46/// ///07 10096 21006 40292 53033 90000 22200 00110 333 91210 555 11072 22077
BBXX 44060 03001 99413 70721 46/// ///08 10098 40276 53020 90000 22200 00123 333 91210 555 11088 22093
BBXX 46083 03001 99582 71380 46/// /2709 10062 20061 40250 54000 92350 22200 00069 11108 20804 300// 41107 70039 333 91210 555 11093 22099 32317 42711 62349 270088 273085 272088 273087 274076 276085 82810 92317
BBXX NWS0029 03004 99238 70393 43/// /0318 10218 20169 40196 5//// 7//// 8//// 222// 04254 2//// 3//// 4//// 5//// 6//// 8//// ICE /////
BBXX 42363 03001 99282 70892 46/// /1111 10211 20111 40261 55000 90000 333 91211
BBXX 41041 03001 99142 70460 46/// /0908 10271 20228 40141 51012 92350 22200 00267 333 91210 555 11087 22092 32329 40911 62349 093080 094081 092084 091085 090083 083078 80909 92306
BBXX 41046 03001 99238 70683 46/// /3606 10248 20200 40166 53017 92350 22200 00264 10904 20501 300// 40903 70019 333 91207 555 11058 22060 32315 43408 62349 000054 347055 349061 348066 352051 357046 83507 92316
BBXX 42364 03001 99291 70881 46/// /0808 10194 20133 40275 53007 90000
BBXX 44011 03001 99411 70666 46/// /3304 10081 20031 40276 51013 92350 22200 00100 11104 20401 3//// 41104 70019 333 91205 555 11041 22042 32319 41606 62349 333039 332041 326037 332036 326033 326032
BBXX PDNN 03003 99346 70502 41598 21618 10211 20176 40259 54000 70100 81870 22263 02210 20304 317// 41005 80188 59991
BBXX A8IN7 03004 99259 70746 41397 50221 10240 20138 40210 54000 70211 83444 22244 06190 20406 80180
BBXX C6KD8 03003 99243 70574 41398 60908 10250 20223 40170 52007 75022 84778 22214 02265 20602 311// 41405 5//// 80232
BBXX PDHW 03003 99451 70607 41/99 13606 10035 21030 40265 51030 70200 81//2 22253 2//// 80010
BBXX DEDI 03004 99349 70491 41598 30732 10218 20150 40275 56005 70100 82164 22264 00215 20502 80175
BBXX OWFD2 03001 99203 70571 41/97 /0807 10250 20226 40147 52152 76266 8//// 22225 04270 20401 80233
BBXX DGDD 03001 99310 71268 41998 00211 10175 20134 40195 55010 70200 80000 22264 00170 20703 333// 41507 5//// 80150
BBXX DGBE 03003 99532 71579 41796 22127 10050 20041 40190 57058 70500 81010 22274 21407 323// 41408 80046
BBXX ZM2619 03003 99442 31796 41/97 72913 10130 20126 40247 56005 70200 22262 29901 334// 40703 80128
BBXX VRDG4 03003 99378 31541 41496 51810 10170 20135 40187 54000 702// 84145 22223 20403 80150
BBXX VRRC 03004 99246 31540 41297 71430 10240 20194 40145 52015 70222 85770 22243 20304 31618 40408 50508 80210
BBXX 2ALD3 03003 99095 31542 41698 53603 10295 20262 40072 56001 70322 82348 22284 20000 80270
BBXX VRSR 03003 99224 31515 41798 71122 10262 20206 40138 54000 70222 86788 22274 04241 20308 314// 40306 80225
BBXX VRAE3 03004 99029 31433 41597 72205 10295 20230 40090 51004 70202 85/22 22274 00310 2//// 333// 40802 5//// 80250
BBXX VRAE4 03004 99223 31593 41498 31011 10275 20231 40140 58002 70262 81448 22274 04260 20402 309// 41406 80245
BBXX SHIP 03004 99105 31067 41/97 31210 10265 20244 40049 70311 222// 0//// 20300 319// 40301 5////
BBXX VNSZ 03004 99412 31464 46/// /3017 10152 20093 30120 40146 52003 22200 04156 85119
BBXX MLJA8 03003 99364 31242 41297 51215 10150 20092 40268 58010 70222 8/71/ 22263 00170 2//01 323// 4//04 5//// 80120
BBXX PFBF 03004 99011 31075 41297 82707 10261 20250 40070 53/// 78088 8/8// 22273 20305 328// 40305 5//// 80253
BBXX A8EH7 03004 99050 31287 41598 22902 10310 20239 40108 53000 70222 821/8 22263 00320 20400 307// 40701 5//// 80260
BBXX KAOU 03004 99020 10805 43/// /2107 10274 20240 40075 5//// 7//// 8//// 222// 04286 2//// 3//// 4//// 5//// 6//// 8//// ICE /////
BBXX VNVS 03004 99047 11278 41299 10104 10293 20232 40143 51/// 70100 81205 22283 00305 20303 301// 40303 80251
BBXX DDPH 03004 99342 31524 41998 21810 10191 20103 40192 53002 70100 80003 22263 04240 20401 320// 40602 80140
BBXX A8QR9 03001 99041 11059 41/96 /0306 10275 40080 55/// 703// 8/7// 22254 04280 2////
BBXX A8IH2 03003 99343 31678 41298 70522 10215 20185 40140 53010 71122 8/600 22224 00210 20403 304// 40202 5//// 80195
BBXX DASO 03003 99311 11739 41397 83225 10210 20195 40150 52020 76366 887// 22263 00210 20806 327// 40606 5//// 80200
BBXX PEND 03003 99203 11203 41297 80332 10238 20203 40123 53007 70252 887// 22243 00280 2//// 3//// 4//// 5//// 80214
BBXX 3FBC9 03004 99323 11535 41798 60832 10190 40185 51015 70322 85456 9//// 22223 00230 20309 306// 40310 5//// 6//// 80170
BBXX SBHI 03003 99568 10176 43/98 02337 10045 40041 51017 22262 06070
BBXX C6VM6 03004 99346 10222 41/98 22608 10160 20126 40250 54000 7//00 8//// 22223 00170 2//// 3//// 4//// 5//// 6//// 80140 ICE /////
BBXX 62087 03001 99547 10068 46/// /0308 10110 20033 4//// 5//// 22230 00108
BBXX TFNA 03001 99678 70220 42/98 80415 11045 49864 22271 00029
BBXX 62023 03003 99514 70079 46/96 /2631 10119 2//// 40069 5//// 22200 10708 70042 333 91142 555 70072 80010
BBXX LF4H 03004 99596 10022 46/// /1842 10075 20064 49757 57083 8//// 22200 06091 10807 70036 333 91152
BBXX LDGJ 03001 99779 10094 43/// /3414 11070 21097 49694 5//// 222/1 04059 1//// 3//// 4//// 5////
BBXX LMEL 03001 99603 10053 43/// /1508 10038 20030 49842 5//// 222/2 04097 1//// 3//// 4//// 5////
BBXX NWS0020 03004 99353 10217 43/// /3008 10167 20106 40241 5//// 7//// 8//// 222// 04190 2//// 3//// 4//// 5//// 6//// 8//// ICE /////
BBXX A8JI2 03004 99483 70092 41297 82724 10160 20108 40160 55030 70322 8677/ 22224 04165 20809 327// 41010 5//// 80130
BBXX A8IP3 03003 99500 70117 41/96 /2735 10135 20118 40115 54000 76055 8//// 22254 04130 21008 80125
BBXX PHAM 03004 99519 10038 41597 52218 10100 20081 40090 58020 7//// 84100 22200 20703 80090 59991
BBXX PFFH 03003 99352 70120 41198 30318 10170 20110 40276 54000 7//00 83400 22223 00186 2//07 336// 41007 80135 59991 4224
BBXX PDYI 03003 99366 70007 41/97 80125 10120 20085 40185 54000 70266 88/// 22223 2//// 3//// 4//// 5//// 80101
BBXX VRFX8 03004 99487 70145 41/98 82832 10130 20090 40180 58010 70222 88/// 22224 0//// 2//// 3//// 4//// 80110
BBXX UCKG 03001 99696 10353 41/98 91814 10030 49744 57040 70222 22273 00030 20505
BBXX PHJV 03003 99076 31223 41498 30810 10312 20290 40076 51015 70311 83165 22223 06306 20101 308// 40101 80295
BBXX SHIP 03004 99086 31008 41797 70127 10260 40067 53011 70111 84410 22263 00283 10905 20701 33402 40505 50703 80242
AAXX 03004 RTD 78792 32560 29902 10284 20199 300097 40110 52015 82100 333 010// 10327 20230 30/// 58009 82820
AAXX 03004 RTD 78792 32560 29902 10284 20199 300097 40110 52015 82100 333 010// 10327 20230 30/// 58009 82820
BBXX PHJV 03003 99076 31223 41498 30810 10312 20290 40076 51015 70311 83165 22223 06306 20101 308// 40101 80295
BBXX SHIP 03004 99086 31008 41797 70127 10260 40067 53011 70111 84410 22263 00283 10905 20701 33402 40505 50703 80242
AAXX 03001 14216 NIL
AAXX 03001 14219 NIL
AAXX 03001 14232 NIL
AAXX 03001 14234 NIL
AAXX 03001 14236 NIL
AAXX 03001 14244 NIL
AAXX 03001 14248 NIL
AAXX 03001 14253 NIL
AAXX 03001 14256 11902 02001 10062 20049 39870 40190 56002 60001 746//
AAXX 03001 14280 12960 00902 10018 20013 30087 40199 54000 60001
AAXX 03001 14308 NIL
AAXX 03001 14321 NIL
AAXX 03001 14370 NIL
AAXX 03001 14382 11930 01201 10033 20026 30088 40210 54000 60001 7100/
AAXX 03001 14428 NIL
AAXX 03001 14441 NIL
AAXX 03001 14452 NIL
AAXX 03001 14454 NIL
AAXX 03001 14462 NIL
AAXX 03004 RTD 78792 32560 29902 10284 20199 300097 40110 52015 82100 333 010// 10327 20230 30/// 58009 82820
AAXX 03001 80001 32570 70304 10272 20209 30129 40130 81130 333 10285 5610/ 58007 81822 87360
AAXX 03001 80002 32470 23604 10266 20221 81170 333 10291 5689/ 81817
AAXX 03001 80009 31560 20203 10280 20235 30082 40087 71300 82901 333 10326 560/0 57921 59007 82920
AAXX 03001 80022 31463 30502 10280 20249 30093 40095 70510 82101 333 10318 566/9 59001 82818
AAXX 03001 80028 31460 50204 10279 20252 30073 40108 70511 83530 333 10321 5619/ 59004 83615 83357
AAXX 03001 80035 31565 10604 10248 20266 30108 40113 70500 81100 333 562// 59005 81820
AAXX 03001 80036 31468 50605 10274 20230 70522 82878 333 10327 56000 82815
AAXX 03001 80063 01462 70000 10264 20253 60341 70522 83770 333 10320 5600/ 60347 83715 85358
AAXX 03001 80084 31460 73602 10254 20244 70522 8287/ 333 10288 5649/ 82810 86358
AAXX 03001 80091 31460 40602 10273 20243 70510 84800 333 10312 569// 84615
AAXX 03001 80094 01310 83502 10200 20197 38804 60031 75352 8572/ 333 10240 5699/ 58004 60037 85707 84457
AAXX 03001 80097 31566 70000 10253 20231 39744 40092 71322 84830 333 10290 5699/ 58003 84820 83359
AAXX 03001 80099 31464 20000 10264 20244 39897 40040 70500 82401 333 10316 569/9 58000 82610
AAXX 03001 80110 NIL
AAXX 03001 80112 11465 80000 10164 20144 37896 69951 70552 84271 333 10217 56009 57894 58005 84815 83358
AAXX 03001 80139 NIL
AAXX 03001 80144 NIL
AAXX 03001 80149 NIL
AAXX 03001 80210 01457 80901 10205 20190 38660 60101 76196 8552/ 333 10258 5699/ 58013 60057 85612 85459
AAXX 03001 80211 01465 70000 10214 20200 60031 71795 84370 333 10268 5623/ 57922 69967 83822 81927 84360
AAXX 03001 80214 31460 72401 10230 20224 39111 70522 84870 333 10290 5699/ 58001 84817 86358
AAXX 03001 80222 41458 80403 10131 20116 37514 76096 8387/ 333 10207 5609/ 59002 83815 86458
AAXX 03001 80234 NIL
AAXX 03001 80241 NIL
AAXX 03001 80259 11560 73202 10239 20168 39050 69921 70552 82875 333 10260 56649 58014 82820 86359
AAXX 03001 80315 31665 71705 10253 20194 39587 40087 71522 83870 333 10311 5644/ 58011 83840 84361
AAXX 03001 80342 NIL
AAXX 03001 80370 NIL
AAXX 03001 80398 01450 70000 10254 20248 30005 40100 60011 72095 84970 333 10304 5699/ 57921 58015 69947 84910 87759
AAXX 03001 38599 41397 82307 10024 20005 39772 40299 58007 70182 889EE 333 86942
AAXX 03001 21432 NIL
AAXX 03001 21824 31995 62213 11262 21274 30145 40155 58024 73831 84031 333 21331 48001
AAXX 03001 21908 11999 61801 11145 21165 30115 40198 53006 69922 70272 86020 333 21291 55000
AAXX 03001 21921 11997 80000 11331 21360 30176 40226 57006 69992 77172 8802/ 333 21423 48028
AAXX 03001 21931 32998 02002 11393 21429 30158 40194 57015 333 21396 48016
AAXX 03001 21946 11999 02003 11387 21407 30162 40252 54000 69920 70271 333 21377 47025
AAXX 03001 21982 41698 33507 11205 21238 30220 40249 52013 73631 82530 333 91109
AAXX 03001 25062 42999 22304 11360 21397 30271 40275 52006 80001 333 91106
AAXX 03001 25123 11998 51301 11382 21415 30242 40279 52003 69900 70272 84031 333 21386 47020
AAXX 03001 25138 31999 51301 11407 21432 30148 40290 51002 70271 82031 333 21414 47020 55000 91102
AAXX 03001 25173 42999 02902 11258 21276 30261 40266 52013 333 91107
AAXX 03001 25248 32599 50000 11420 21448 39786 40309 51004 85500 333 21418 47028 91101
AAXX 03001 25282 41570 83106 11202 21208 30243 40250 52016 73632 885// 333 91110
AAXX 03001 25325 NIL
AAXX 03001 25356 42999 60000 11376 21411 30151 40265 52008 80001 333 91004
AAXX 03001 25399 41559 73403 11144 21187 30207 40217 52025 78582 87900 333 91105
AAXX 03001 25428 31933 70000 11430 21455 39915 10305 51003 71022 80001 333 21435 47027 55000 91101
AAXX 03001 25551 42999 73601 11334 21356 30211 40246 52009 81031 333 91102
AAXX 03001 25563 42960 43106 11307 21329 30149 40236 52010 80001 333 91107
AAXX 03001 25594 42698 30105 11177 21189 30156 40211 52016 81501 333 91108
AAXX 03001 25677 41594 83313 11166 21170 30166 40172 52003 78683 8537/ 333 85921 91117
AAXX 03001 31054 32599 80000 11370 21397 30026 40339 57001 82106 333 21420 47024 55010
AAXX 03001 31123 32998 62001 11302 21335 39980 40344 51004 80001 333 21324 47016
AAXX 03001 08541 32/// /3607 10106 20064 30148 40269 52005 333 91111 555 60005
AAXX 03001 08570 32/// /0502 10079 20005 39807 40274 52009
AAXX 03004 61600 32960 50204 10222 20170 30136 40141 85080 333 58008 85363
AAXX 03004 61612 NIL
AAXX 03004 61627 32958 40204 10228 20022 3//// 4//// 84080 333 0//00 5//// 84363
AAXX 03004 61630 32960 32802 10218 20079 30121 40140 83070 333 0//00 58010 83363
AAXX 03004 61641 32957 60209 10237 20222 30106 40139 83032 333 0//00 58011 83363 85073
AAXX 03004 61666 NIL
AAXX 03004 61679 32958 20000 10240 20167 30131 40139 82030 333 0//00 58005 82363
AAXX 03004 61687 32958 03602 10220 20087 30075 40132 333 0//00 58017
AAXX 03004 61695 32958 00000 10218 20206 30110 40136 333 0//00 58009
AAXX 03004 61697 32960 40000 10216 20210 30113 40127 80002 333 0//00 58003 83073
AAXX 03004 61698 NIL
AAXX 03004 61699 NIL
AAXX 03001 08541 32/// /3607 10106 20064 30148 40269 52005 333 91111
AAXX 03001 08570 32/// /0502 10079 20005 39807 40274 52009 555 60005
AAXX 03004 62423 32960 03404 10103 20073 40232 57001
AAXX 03004 62357 32960 03604 10115 20089 40224 52004
AAXX 03004 62403 32960 02903 10120 20071 40186 52001
AAXX 03004 62305 32960 02805 10109 20104 40246 57001
AAXX 03004 62306 32560 33305 10118 20096 40243 57001 82500
AAXX 03004 62318 32560 43606 10151 20103 40226 54000 84800
AAXX 03004 62337 NIL
AAXX 03004 62366 31956 00000 10135 20084 40224 52003 71000
AAXX 03004 62393 32960 03307 10106 20072 40210 54000
AAXX 03004 62405 32960 01702 10118 20060 40178 57002
AAXX 03004 62414 NIL
AAXX 03004 62417 32960 01302 10104 20070 40242 52008
AAXX 03004 62440 32960 00000 10099 20094 40215 52001
AAXX 03004 62463 32960 02915 10152 20062 40180 57001
AAXX 03004 62465 32960 03005 10160 20076 40167 57002
AAXX 03004 62419 NIL
AAXX 03004 62309 32960 03602 10143 20090 40229 57001
AAXX 03004 62325 32960 00000 10155 20102 40231 52003
AAXX 03004 62332 32560 30212 10175 20104 40220 52002 83500
AAXX 03004 62387 32960 03504 10120 20087 40211 52002
AAXX 03004 62459 32960 00308 10138 20031 40174 57001
AAXX 03004 62452 32960 02206 10032 21051 40241 52004
AAXX 03004 62476 32960 03606 10174 20128 40144 56009
AAXX 03004 62458 32960 03505 10156 20019 40170 54000
AAXX 03004 62420 32960 00000 10117 20086 40225 57001
AAXX 03004 62432 32960 02301 10107 20067 40219 57005
AAXX 03004 62435 32960 00205 10136 20059 40190 57004
AAXX 03004 62455 32960 03605 10112 20066 40200 52003
AAXX 03004 62423 32960 03404 10103 20073 40232 57001
AAXX 03004 62357 32960 03604 10115 20089 40224 52004
AAXX 03004 62403 32960 02903 10120 20071 40186 52001
AAXX 03004 62305 32960 02805 10109 20104 40246 57001
AAXX 03004 62306 32560 33305 10118 20096 40243 57001 82500
AAXX 03004 62318 32560 43606 10151 20103 40226 54000 84800
AAXX 03004 62337 NIL
AAXX 03004 62366 31956 00000 10135 20084 40224 52003 71000
AAXX 03004 62393 32960 03307 10106 20072 40210 54000
AAXX 03004 62405 32960 01702 10118 20060 40178 57002
AAXX 03004 62414 NIL
AAXX 03004 62417 32960 01302 10104 20070 40242 52008
AAXX 03004 62440 32960 00000 10099 20094 40215 52001
AAXX 03004 62463 32960 02915 10152 20062 40180 57001
AAXX 03004 62465 32960 03005 10160 20076 40167 57002
AAXX 03004 62419 NIL
AAXX 03004 40153 12960 00911 10087 21081 39135 48527 57001 60001
AAXX 03004 40179 12960 01003 10065 20037 30168 40207 54000 60001
AAXX 03004 40180 12960 00801 10069 20017 30159 40210 55001 60001
AAXX 03004 40190 16/// ///// 10065 20007 39872 40214 52001 60001
AAXX 03004 40199 12970 00403 10135 21028 30170 40193 52003 60001
AAXX 03004 62309 32960 03602 10143 20090 40229 57001
AAXX 03004 62325 32960 00000 10155 20102 40231 52003
AAXX 03004 62332 32560 30212 10175 20104 40220 52002 83500
AAXX 03004 62387 32960 03504 10120 20087 40211 52002
AAXX 03004 62459 32960 00308 10138 20031 40174 57001
AAXX 03004 62452 32960 02206 10032 21051 40241 52004
AAXX 03004 62476 32960 03606 10174 20128 40144 56009
AAXX 03004 62458 32960 03505 10156 20019 40170 54000
AAXX 03004 62420 32960 00000 10117 20086 40225 57001
AAXX 03004 62432 32960 02301 10107 20067 40219 57005
AAXX 03004 62435 32960 00205 10136 20059 40190 57004
AAXX 03004 62455 32960 03605 10112 20066 40200 52003
BBXX 3FQO4 03004 99414 71288 41597 80332 00/// 10130 20110 40320 52020 70322 86462 22274 00130 20604 303// 40605 5//// 6//// 80120 ICE /////
BBXX 46207 03001 99509 71299 46/// /3209 10083 40379 57007 22200 00089 11205 70027 333 91210
BBXX 9VAW8 03004 99360 71309 41598 50120 10150 20150 40270 57010 7//// 8626/ 22223 04200 20406 30101 40406 50406 6//// 85150 ICE /////
BBXX 9VVP 03004 99327 71426 413// 53616 10180 20148 40290 56025 7//22 8/272 22215 04220 21205 33636 41205 50804 6//// 85160 ICE /////
BBXX A8EY7 03004 99483 71452 41696 82015 10112 20080 40393 57025 70322 897// 22273 04076 20906 327// 41406 5//// 80095
BBXX C6FY8 03003 99486 71225 41697 63005 10080 20010 40310 5//// 70222 862// 22200 0//// 20500 3//// 4//// 5//// 6//// 80050 ICE /////
BBXX WABS 03004 99374 71243 41798 63529 10122 20090 40200 54000 7//22 86/17 22233 0//// 20209 335// 40611 5//// 6//// 80106 ICE /////
BBXX 46147 03001 99518 71312 46/// /2809 10081 40376 57006 22200 00086 11407 70036 333 91211
AAXX 03004 93404 NIL
AAXX 03004 93800 16/// /0424 10174 20105 40069 57045 60004 333 70000
AAXX 03004 93805 16/// /1604 10131 20120 40072 57037 60004 333 70000
AAXX 03004 93994 16/// /1011 10233 20190 40181 57006 60004 333 70000
BBXX 46147 03001 99518 71312 46/// /2809 10081 40376 57006 22200 00086 11407 70036 333 91211
AAXX 03001 31909 32599 83404 11136 21171 30173 40257 58015 82504 333 21161 44018 55077
AAXX 03001 31873 32998 80502 11175 21200 30120 40264 58009 8805/ 333 21198 47010
AAXX 03001 31961 32597 83502 11120 21155 30196 40245 57013 885// 333 21187 42004 55082 88626
AAXX 03001 25703 11996 60000 11415 21443 39980 40295 52010 69930 71022 81031 333 21412 47020 55005
AAXX 03001 25745 32699 10000 11313 21342 30180 40238 52007 81500 333 21331 47009 55015
AAXX 03001 25913 11598 70605 11135 21148 30014 40168 52006 69960 78587 83901 333 21150 48021 55008
AAXX 03001 25954 32999 03607 11190 21258 30067 40187 52009 333 21189 48035 55040
AAXX 03001 25956 32699 70608 11180 21230 30161 40167 58001 87500 333 21201 47017 55036
AAXX 03001 31088 32999 00204 11216 21273 30188 40196 52016 333 21223 46997 55044
AAXX 03001 31873 32998 80502 11175 21200 30120 40264 58009 8805/ 333 21198 47010
AAXX 03001 31909 32599 83404 11136 21171 30173 40257 58015 82504 333 21161 44018 55077
AAXX 03001 31960 32998 83608 11109 21162 39984 40232 56018 83035 333 21106 41998 55073 91112
AAXX 03001 31961 32597 83502 11120 21155 30196 40245 57013 885// 333 21187 42004 55082 88626
AAXX 03001 32053 32999 02403 11162 21196 30225 40277 52004 333 21194 47045 91004 91105
AAXX 03001 32061 11597 61302 11121 21127 30246 40287 52008 69900 78582 83902 333 21161 47003 91003 91104
AAXX 03001 32098 32998 03303 11160 21166 30292 40303 52012 333 21211 47025 91003 91104
AAXX 03001 32150 12598 80000 11064 21080 30267 40297 53026 69920 883// 333 21108 47009 88321 91104
AAXX 03001 32165 32599 63202 11001 21066 30247 40309 53016 86900 333 21037 47007 91002 91102
AAXX 03001 32215 11559 63003 11005 21053 30192 40222 51009 60010 78582 86900 333 21013 47037 91007 91106
AAXX 03001 32252 NIL
AAXX 03001 32389 31698 72701 11144 21157 30149 40188 52008 74042 81531 333 21139 47034 55000 1/120 7000/
AAXX 03001 32477 32599 70801 11165 21165 30171 40205 52008 86530 333 21232 47048 55056
AAXX 03001 32583 32999 13404 11041 21091 30153 40184 51011 80001 333 21040 48034
AAXX 03001 32618 11598 70312 11023 21035 30110 40133 52015 60060 73683 85540 333 21025 48021 55055 91014 91117 92980
AAXX 03001 31960 32998 83608 11109 21162 39984 40232 56018 83035 333 21106 41998 55073 91112
AAXX 03001 48803 31456 80000 10148 20143 30066 40183 53024 71022 888// 333 00016 20136 3/014 59037 84894 8869 6
AAXX 03004 71026 16/// /3210 11016 21066 39331 40194 52038 60001 333 10023 7////
AAXX 03004 71217 16/// /3317 11018 21089 60001 333 10022 21080 70000
AAXX 03004 71224 16/// /3309 11029 21092 60001 333 10004 21049 70000
AAXX 03004 71276 16/// ///16 11069 21120 60001 333 11005 21072 70000
AAXX 03004 71343 16/// /3215 11019 21081 60001 333 10020 21041 70000
AAXX 03004 71161 16/// /3108 11018 21060 30178 40330 53044 60001 333 10030 21018 70017
AAXX 03004 71189 46/// /0000 11022 21041 6///1 333 11019 21046 7////
AAXX 03004 71434 16/// /1611 11084 21100 39990 40058 58030 60001 333 11083 70000
AAXX 03004 71979 16/// ///// 11066 21120 38529 40213 56009 60001 333 11034 21067 70008
AAXX 03004 13601 12660 32702 10100 20094 30127 40229 54004 60001 83500 333 83640
AAXX 03004 65201 31958 70000 10253 20234 30072 40127 70522 80008 333 56000 59002 87280
AAXX 03004 65125 31957 70706 10178 20100 30729 40133 70522 80008 333 59001 87280
AAXX 03004 65101 32960 70000 10178 20108 3//// 40116 80008 333 59005 87280
AAXX 03004 65112 32970 72702 10228 20079 3//// 4//// 80008 333 5//// 87280
AAXX 03004 65215 12960 70000 10170 20144 3//// 4//// 80008 333 5//// 87280
AAXX 03004 89002 42599 71011 11116 21144 39770 49824 52001 878// 333 11078 21131
AAXX 03004 64700 31940 20408 10211 21028 39782 70600 80002 333 0//00 59001 82075
AAXX 03004 647504750 32960 50000 10175 20141 39683 40094 80002 90003 333 0//00 59006 85075
AAXX 03004 61202 NIL
AAXX 03004 61214 NIL
AAXX 03004 61223 32960 20406 10205 21008 39852 40157 80002 333 0//00 58002 82075
AAXX 03004 61226 31958 30804 10211 20052 39850 40143 70600 80002 333 59006 83075
AAXX 03004 61230 32960 00806 10225 21096 39846 40112 333 0//00 58012
AAXX 03004 61233 32960 50404 10225 21025 3//// 4//// 80002 333 0//00 5//// 85075
AAXX 03004 61235 32960 40410 10280 21001 3//// 4//// 80002 333 0//00 5//// 84075
AAXX 03004 61240 32960 20000 10233 20039 39802 40122 80002 333 0//00 59010 82075
AAXX 03004 61250 NIL
AAXX 03004 61257 31958 21404 10251 21014 30068 40161 70611 80002 333 0//00 58008 82075
AAXX 03004 61265 32965 00604 10211 20035 39821 40124 333 59002
AAXX 03004 61270 32960 30000 10215 20065 3//// 4//// 80002 333 0//00 5//// 83075
AAXX 03004 61272 32960 00000 10222 20075 39801 40122 333 0//00 59009
AAXX 03004 61277 32960 20404 10230 20072 39803 40118 80002 333 0//00 59007 82075
AAXX 03004 61285 31958 50000 10182 20106 39978 40128 70622 80002 333 58012 85075
AAXX 03004 61291 32960 00404 10200 20064 39713 40121 333 0//00 58005
AAXX 03004 61293 32960 33002 10210 20091 3//// 4//// 80002 333 0//00 5//// 83075
AAXX 03004 61296 32960 60000 10197 20133 3//// 4//// 80002 333 0//00 5//// 86075
AAXX 03004 61297 32960 71802 10227 20086 3//// 4//// 80002 333 0//00 5//// 87075
AAXX 03004 84036 11560 80000 10115 20104 60061 75055 8571/ 333 10202 555 10060 30093
AAXX 03004 84204 31565 83204 10250 20195 70544 8451/ 333 10269 555 30071
AAXX 03004 84202 32565 80402 10232 20206 30167 8565/ 333 10255 58014 555 30085
AAXX 03004 84270 31560 72004 10150 20132 74042 86410 333 10246 555 30089
AAXX 03004 84135 32565 71404 10238 20188 30080 83550 333 10277 58006 555 30074
AAXX 03004 84179 31560 60000 10202 20189 39049 72999 84830 333 10267 59006 555 30093
AAXX 03004 84160 11460 80000 10113 20101 37255 69921 74044 888// 333 10149 59004 555 10002 30092
AAXX 03004 84076 11460 80000 10122 20118 60101 72994 886// 333 10223 555 10097 30097
AAXX 03004 84008 32970 01408 10224 20193 30117 40127 00197 333 10273 58001 555 30081
AAXX 03004 84140 31330 81804 10218 20198 30047 40132 71044 886// 333 10240 58019 555 30088
AAXX 03004 84143 11550 80000 10132 20107 37402 69921 71552 8262/ 333 10191 58000 555 10002 30085
AAXX 03004 84050 11350 81808 10208 20200 69901 71454 887// 333 10238 555 1 T 30095
AAXX 03004 84088 11110 80000 10090 20089 37073 60101 75059 887// 333 10180 58010 555 10096 30099
AAXX 03004 84056 11240 80502 10112 20110 60091 72166 886// 333 10212 555 10086 30099
AAXX 03004 84142 11120 83204 10158 20155 60061 76056 887// 333 10175 555 10064 30098
AAXX 03004 84173 11565 70000 10118 20096 60061 72055 85710 333 10195 555 10056 30086
AAXX 03004 84132 32570 73602 10256 20237 39875 84230 333 10281 58014 555 30089
AAXX 03004 84226 31/00 90000 10094 20094 74744 89/// 333 10154 555 30100
AAXX 03004 84072 11558 80000 10118 20103 37300 60081 72159 8311/ 333 10208 58002 555 10080 30090
AAXX 03004 84045 11/00 90000 10088 20088 60011 76056 89/// 333 10149 555 10011 30100
AAXX 03004 71026 16/// /3210 11016 21066 39331 40194 52038 60001 333 10023 7////
AAXX 03004 71343 16/// /3215 11019 21081 60001 333 10020 21041 70000
AAXX 03004 71161 16/// /3108 11018 21060 30178 40330 53044 60001 333 10030 21018 70017
AAXX 03004 71189 46/// /0000 11022 21041 6///1 333 11019 21046 7////
BBXX 46183 03001 99536 71311 46/// /2506 10081 40356 57004 22200 00085 11301 70006 333 91207
AAXX 03004 71276 16/// ///16 11069 21120 60001 333 11005 21072 70000
AAXX 03004 71979 16/// ///// 11066 21120 38529 40213 56009 60001 333 11034 21067 70008
AAXX 03004 71434 16/// /1611 11084 21100 39990 40058 58030 60001 333 11083 70000
AAXX 03004 71217 16/// /3317 11018 21089 60001 333 10022 21080 70000
AAXX 03004 71224 16/// /3309 11029 21092 60001 333 10004 21049 70000
AAXX 03001 50434 11680 70000 11246 21275 39345 40327 52006 69901 70070 85502 333 00000 70002
AAXX 03001 50527 11960 71801 11178 21194 39444 40300 52008 69921 77070 86032 333 05107 70004 92514
AAXX 03001 50603 11976 72701 11240 21265 39568 40316 52007 69911 77070 80002 333 00052 70001
AAXX 03001 50632 11980 70701 11182 21200 39326 40285 52003 69901 77070 8703/ 333 05152 79999
AAXX 03001 50727 32580 70000 11179 21204 39029 40301 52004 875// 333 05205 79999
AAXX 03001 50915 11670 72501 11181 21219 39240 40329 52011 69901 77000 86502 333 00003 79999
AAXX 03001 51716 NIL
AAXX 03001 51765 32980 71601 11030 21063 39191 40219 52004 80002 333 05252
AAXX 03001 51777 32975 02503 11021 21070 39144 40207 57003 333 05354
AAXX 03001 51811 32962 62901 11026 21068 38753 40186 52009 82032 333 05203
AAXX 03001 51828 32965 41602 10024 21064 38588 40151 57006 80002 333 05303
AAXX 03001 52267 32980 70401 11072 21125 39106 40254 52012 80002 333 05200
AAXX 03001 52323 11980 72201 11072 21079 38197 52005 60031 77077 82042 333 05204 31043 70034 92503
AAXX 03001 52495 32870 20201 11087 21102 38669 40256 52007 81502 333 05352
AAXX 03001 53149 32980 00000 11139 21166 38786 40306 52002 333 05200
AAXX 03001 53192 31/06 92901 11226 21244 38924 40387 52006 74700 333 00255
AAXX 03001 53231 32980 21104 11109 21146 38464 52004 80002 333 05352
AAXX 03001 53336 32980 00000 11141 21169 38720 40298 52004 333 05156 92503
AAXX 03001 53391 32980 00000 11198 21218 38515 40358 52003 333 00261
AAXX 03001 53529 32962 80701 11100 21116 38621 40275 52004 8802/ 333 05154
AAXX 03001 53543 32980 02002 11076 21098 38537 40271 52007 333 00151
AAXX 03001 53723 31909 80000 11072 21075 38642 40246 54000 74240 8807/ 333 05103 31027 79999 92502
AAXX 03001 54012 32980 60000 11238 21268 39052 40358 52007 86030 333 00157
AAXX 03001 54026 32980 03201 11098 21159 39928 40273 52009 333 00254
AAXX 03001 54027 32975 12701 11130 21168 39665 40291 52012 81030 333 00354 79999
AAXX 03001 54208 11980 02501 11200 21220 38784 40352 52007 69901 70070 333 00358 79999
AAXX 03001 54776 11980 03414 10053 21018 30147 40205 52013 69911 70080 333 05201 30019 70016 91118 91532
AAXX 03001 56004 32980 62704 11169 21249 35792 52002 80002 333 05451
AAXX 03001 56033 32680 60401 11120 21182 35984 52004 81502 333 05506
AAXX 03001 56046 32980 40701 11104 21152 36226 52003 80002 333 05507
AAXX 03004 48360 32960 00000 10170 20144 39864 40132 52003 333 20162 59018
AAXX 03004 48372 31556 60000 10219 20207 30047 40106 52006 71022 82136 333 20214 59020
AAXX 03001 56193 NIL
AAXX 03001 56196 31930 81801 10085 20068 40185 52007 71000 8807/ 333 05504
AAXX 03001 56287 11450 80201 10079 20071 40186 52006 60011 76066 885// 333 05401 70040
AAXX 03001 56684 32980 02701 10029 20006 37863 52007 333 05651 31023
AAXX 03001 56751 32980 02702 10055 20032 37990 52005 333 05600 30015
AAXX 03001 56786 31556 81603 10066 20049 38084 52014 71000 884// 333 05606 30000
AAXX 03001 56977 32470 80701 10132 20118 40156 52015 884// 333 05402
AAXX 03001 57259 32962 80401 10032 20032 40247 52014 8807/ 333 05103 30001
AAXX 03001 57279 32961 00901 10026 20008 40257 52018 333 00101 30000
AAXX 03001 57348 32862 33603 10066 20048 40212 52012 83500 333 05400 30038
AAXX 03001 57399 31958 03602 10016 21005 40259 52013 71000 333 00002 31002
AAXX 03001 57554 31/07 90901 10035 20029 40251 52023 74540 333 05153 30038
AAXX 03001 57793 31906 01102 10018 20018 40252 52013 74200 333 05252 31006
AAXX 03001 58345 32961 62701 10045 20015 40259 52020 86040 333 00101 31006
AAXX 03001 58506 32967 00404 10001 21007 40267 52012 333 00104 31001
AAXX 03001 58813 31/07 90401 10009 20008 40255 52013 74340 333 00054 30001
AAXX 03001 58834 31458 80402 10055 20030 40252 52017 71000 885// 333 00252 30033 70001
AAXX 03001 58926 31430 82901 10045 20022 40244 52016 71000 886// 333 00254 30049
AAXX 03001 58944 32568 10205 10137 20056 40211 52020 81500 333 00101
AAXX 03001 59096 32965 02201 10036 20008 40229 52018 333 05154 30040
AAXX 03001 59102 32564 12501 10017 20011 40236 52016 81100 333 00054 31021
AAXX 03001 59278 32564 22002 10092 20066 40215 52014 82800 333 00000
AAXX 03001 59456 32972 00402 10111 20041 40194 52015 333 05202
AAXX 03001 59493 32968 00202 10093 20031 40202 52018 333 00152
AAXX 03001 59658 32967 03602 10110 20057 40181 52010 333 05201
AAXX 03001 59673 32972 00209 10116 20050 40185 52004 333 00000
AAXX 03001 59845 32665 40000 10126 20115 40182 52014 84500 333 05252 79999
BBXX 46183 03001 99536 71311 46/// /2506 10081 40356 57004 22200 00085 11301 70006 333 91207
AAXX 03004 48384 31958 40000 10162 20141 39940 40137 71010 80006 333 20154 59013
AAXX 03004 48581 31520 82102 10234 20226 30054 40096 52015 71022 85546 333 20228 59012
BBXX 46145 03001 99544 71324 46/// /2710 10076 40343 54000 22200 00080 11207 70034 333 91213
BBXX 46145 03001 99544 71324 46/// /2710 10076 40343 54000 22200 00080 11207 70034 333 91213
AAXX 03004 45011 17963 /3611 10100 20039 40192 52013 60002 70011 333 20087 58005 70000
AAXX 03001 51716 32965 00000 11043 21067 38873 40190 52002 333 05201
AAXX 03001 51431 11961 80000 11007 21017 39465 40281 52026 60031 77070 8802/ 333 00303 31002 70030 92507
AAXX 03001 51747 32970 42202 11035 21075 38896 40194 57008 80002 333 05303
AAXX 03001 51156 11665 70701 11062 21074 38688 40229 52004 69901 77000 86502 333 05301 31050 79999 92505
AAXX 03001 51076 11962 80000 11047 21061 39320 40230 52002 69991 77070 8802/ 333 05303 30000 70009 92523
AAXX 03001 51243 11865 72002 11005 21013 39664 40230 52009 69901 77070 875// 333 05300 30002 79999
AAXX 03001 57046 32964 52008 11027 21062 37922 52003 80002 333 00000 92504
AAXX 03001 57793 31906 01102 10018 20018 40252 52013 74600 333 05252 31006
AAXX 02184 91636 11599 31010 10278 20250 40058 60001 70200 83200 333 562//
AAXX 02124 91636 11599 61011 10271 20248 40063 60001 71422 83208 333 10312 562//
AAXX 02064 91643 11599 50908 10289 20252 40059 60001 71422 83208 333 562/9
AAXX 03001 37514 42696 80000 11039 21051 39090 40294 54000 88500
AAXX 03001 60379 36/// /1301 10121 20121
AAXX 03001 60380 36/// /0801 10102 20088
AAXX 03001 60394 36/// /1301 10096 20096
AAXX 03001 60374 36/// /1304 10151 20093
AAXX 03001 60613 36/// /1214 10131 20015
AAXX 03004 60672 36/// /2406 10165 21052
AAXX 03004 60692 36/// /3309 10180 21030
AAXX 03004 60691 36/// /3613 10163 21050
AAXX 03004 60667 36/// /0000 10137 21029
AAXX 03004 60633 36/// /2108 10157 21092
AAXX 03004 60676 36/// /0000 10105 21048
AAXX 03004 60661 36/// /0000 10141 21066
AAXX 03004 60650 36/// /1802 10162 21043
AAXX 03004 60677 36/// /0000 10122 21027
AAXX 03004 60662 36/// /0000 10133 21049
AAXX 03003 64501 11358 81806 10232 20224 3//// 4//// 60//1 76162 8452/ 333 0//32 5//// 84608 88460
BBXX 46131 03001 99499 71250 46/// /3508 1//// 40330 57004 22200 00078 10301 70004 333 91210
BBXX 46131 03001 99499 71250 46/// /3508 1//// 40330 57004 22200 00078 10301 70004 333 91210
AAXX 03001 40729 12960 00904 11052 21086 38347 40229 58004 60001 333
AAXX 0300/ 89327 46/// ///// 10008 39526 4//// 5////
AAXX 0300/ 89872 46/// ///// 11059 39664 4//// 5////
AAXX 0300/ 89869 46/// ///// 11085 39657 4//// 5////
AAXX 0300/ 89866 46/// ///// 11040 39611 4//// 5////
AAXX 0300/ 89799 46/// ///// 11273 4//// 5////
AAXX 0300/ 89332 46/// ///// 11065 39082 4//// 5////
AAXX 0300/ 89769 46/// ///// 11048 39689 4//// 5//// 90010
AAXX 0300/ 89828 46/// ///// 11303 36451 4//// 5////
AAXX 0300/ 89108 46/// ///// 11269 36870 4//// 5////
AAXX 0300/ 89879 46/// ///// 10011 39592 4//// 5////
AAXX 0300/ 89879 46/// ///// 10019 39592 4//// 5//// 90010
AAXX 0300/ 89314 46/// ///// 11114 38113 4//// 5////
AAXX 03004 89667 46/// /0306 11039 29060 39715 4//// 5////
AAXX 0300/ 89327 46/// ///// 10014 39525 4//// 5////
AAXX 03004 48465 32961 60303 10260 20193 30094 40099 52020 80006 333 20231 59018
AAXX 03004 48481 31958 12302 10200 20182 30068 40096 71010 80001 333 20212 59017
AAXX 03004 41858 31915 00000 10164 20150 30041 40088 71000 333 59035 70000
AAXX 03004 41863 31940 02701 10160 20150 30043 40088 70500 333 59037 70000
AAXX 03004 41886 31415 20000 10160 20150 30060 40082 71041 82400 333 59033 70000 81618
AAXX 03004 41895 32950 20000 10192 20170 30066 40089 82030 333 56090 59037 70000 82362
AAXX 03004 41946 31940 00000 10174 20160 30079 40084 70500 333 59031 70000
AAXX 03004 41529 12995 00000 10083 20074 39748 40142 60002 333 59048
AAXX 03004 41598 11995 00000 10105 20085 39853 40132 60002 71000 333 59026
AAXX 03004 41620 32995 01305 10070 20024 38593 48499 333 59022
AAXX 03004 41624 02995 00000 10110 20090 39908 40114 60002 333 59047 60007
AAXX 03004 41640 01995 00000 10140 20102 39854 40107 60002 70500 333 59049 60007
AAXX 03004 41660 NIL
AAXX 03004 41675 11994 00000 10140 20122 39974 40117 60002 71000 333 59040
AAXX 03004 41712 12996 00502 10135 20042 39218 48527 60002 333 58004
AAXX 03004 41715 01996 00000 10170 20153 30056 40121 60002 70400 82030 333 56090 59013 60007 83360
AAXX 03004 41756 01595 63106 10215 20191 30049 40113 60002 71000 86400 333 56900 59015 60007 86625
AAXX 03004 41764 32996 03602 10205 20136 30102 40152 333 58038 60007
AAXX 03004 41768 02996 00902 10175 20149 30108 40115 60002 333 59013 60007
AAXX 03004 41780 02996 00000 10220 20113 30094 40121 60002 333 59004 60007
AAXX 03004 41529 12995 00000 10083 20074 39748 40142 60002 333 59048
AAXX 03004 41598 11995 00000 10105 20085 39853 40132 60002 71000 333 59026
AAXX 03004 41620 32995 01305 10070 20024 38593 48499 333 59022
AAXX 03004 41624 02995 00000 10110 20090 39908 40114 60002 333 59047 60007
AAXX 03004 41640 01995 00000 10140 20102 39854 40107 60002 70500 333 59049 60007
AAXX 03004 41660 NIL
AAXX 03004 41675 11994 00000 10140 20122 39974 40117 60002 71000 333 59040
AAXX 03004 41712 12996 00502 10135 20042 39218 48527 60002 333 58004
AAXX 03004 41715 01996 00000 10170 20153 30056 40121 60002 70400 82030 333 56090 59013 60007 83360
AAXX 03004 41756 01595 63106 10215 20191 30049 40113 60002 71000 86400 333 56900 59015 60007 86625
AAXX 03004 41764 32996 03602 10205 20136 30102 40152 333 58038 60007
AAXX 03004 41768 02996 00902 10175 20149 30108 40115 60002 333 59013 60007
AAXX 03004 41780 02996 00000 10220 20113 30094 40121 60002 333 59004 60007
BBXX 46204 03001 99514 71288 46/// /2506 10083 40373 57004 22200 00090 11204 70020 333 91206
BBXX 45137 03001 99455 70810 46/// /1001 11012 30105 40328 52014 22200 00065 10200 70002 333 91202
BBXX 46204 03001 99514 71288 46/// /2506 10083 40373 57004 22200 00090 11204 70020 333 91206
AAXX 03004 06670 01462 82003 10064 20049 39685 40200 52003 60091 76166 8152/ 333 55300 20000 69935 81710 84636 88557 91111 91207
AAXX 03004 06700 01461 72603 10076 20066 39713 40209 50007 60021 76162 865// 333 55300 20000 69915 81712 84725 86638 91112 91207
AAXX 03004 06680 03/// /2417 11039 21039 37492 47028 50002 69921 333 55300 20000 69925 91127 91219
AAXX 03004 06990 31460 83602 10084 20050 39646 40193 52009 76122 887// 333 55300 20000 88719 91105 91203
AAXX 03004 06760 33/// /0401 10073 20026 39755 40206 58002 333 55300 20000 91103 91202
AAXX 03004 06720 01765 81901 10081 20060 39627 40203 52017 69951 76066 887// 333 55300 20000 69955 88756 91119 91210
AAXX 03004 06610 01540 82204 10065 20060 39622 40211 52006 60071 76062 8572/ 333 55300 20000 69985 85724 84534 91107 91206
BBXX 45137 03001 99455 70810 46/// /1001 11012 30105 40328 52014 22200 00065 10200 70002 333 91202
BBXX A8OZ4 03004 99251 10359 43998 03320 10240 20130 40140 54000 80/// 22274 00248 80170
AAXX 03004 42314 31595 60000 10144 20126 40099 70522 81530 333 59035 81620 86360
AAXX 03004 42492 31994 00000 10162 20152 40089 71000 333 59034
AAXX 03004 42587 31994 00000 10150 20139 40102 71000 333 59029
AAXX 03004 42591 31994 01104 10150 20150 40099 71000 333 59042
AAXX 03004 42701 31994 02902 10134 20116 39361 40105 71000 333 59027
AAXX 03004 42706 31495 70000 10174 20150 40085 70522 85530 333 56390 59033 85616 85360
AAXX 03004 42724 31594 30000 10160 20153 40086 71010 83500 333 59026 83620
AAXX 03004 42798 31995 00000 10158 20122 40111 70500 333 59008
AAXX 03004 42809 31995 00000 10178 20158 40080 70500 333 59031
AAXX 03004 42886 31994 00000 10148 20134 40103 71040 333 59023
AAXX 03004 42895 31995 00000 10172 20144 40084 70500 333 59029
AAXX 03004 42971 31594 42702 10194 20171 40087 71022 82531 333 59025 82620 83075
AAXX 03004 43333 21495 71105 10246 20228 40067 70522 84430 333 56290 59018 6054/ 82616 84818 86362
AAXX 03004 42309 NIL
AAXX 03004 42398 NIL
AAXX 03004 42410 NIL
AAXX 03004 42415 NIL
AAXX 03004 42623 NIL
AAXX 03004 42977 NIL
AAXX 03004 43368 NIL
AAXX 03004 83117 31298 83301 10200 20185 40170 51018 7012/ 8867/ 222// 02180 80190 333 10210
AAXX 03004 83064 32/95 90000 10273 20253 39811 40078 333 10331 29081 55071 59020
AAXX 03004 83235 21697 60904 10235 20204 39423 40083 70365 86400 333 10324 29073 55/// 59016 60021
AAXX 03004 83332 32696 80000 10232 20209 39180 40074 885// 333 10292 29078 55003 59016
AAXX 03004 83423 21694 80502 10216 20195 39284 40094 72196 889// 333 10311 29075 55/// 59003 60021
AAXX 03004 83470 32697 52702 10229 20190 39220 40062 85100 333 10315 29070 55083 59021
BBXX FHZI 03004 99643 31371 46/// /2529 11033 21077 39840 49851 52010 22200 05011 86047
AAXX 03001 48921 31556 21401 10105 20085 38552 48050 5//// 710// 82500 333 20095 59030
AAXX 03001 48924 31310 70000 10142 20140 39502 40144 5//// 710// 85660 333 20113 59023
AAXX 03001 48925 31/02 90201 10122 20119 39398 40152 5//// 747// 333 20120 59017
AAXX 03001 48926 31756 50902 10174 20154 39657 40127 5//// 710// 85500 333 20167 59027
AAXX 03001 48927 31210 80000 10098 20094 39152 48651 5//// 740// 888// 333 20085 59032
AAXX 03001 48928 31/06 92701 10094 20090 39075 48542 5//// 747// 333 20084 59039
AAXX 03001 48930 31230 70401 10152 20149 39791 40154 52015 71044 83830 333 20146 59015
AAXX 03001 48935 31/03 90000 10092 20090 38954 48432 52011 74544 333 20087 59030
AAXX 03001 48938 31320 83601 10170 20167 39795 40137 52004 71044 8467/ 333 20170 59019
AAXX 03001 48940 31930 03601 10170 20138 39925 40125 52015 71044 333 20170 59018
AAXX 03001 48941 31650 23602 10155 20151 3//// 4//// 5//// 710// 82500 333 20152 5////
AAXX 03001 48944 31640 23603 10125 20099 39526 40132 5//// 710// 82500 333 20120 58002
AAXX 03001 48945 31930 00000 10148 20133 39954 40139 5//// 710// 333 20145 59029
AAXX 03001 48946 31520 20901 10156 20127 39957 40128 52002 740// 81101 333 20134 59020
AAXX 03001 48947 31520 53601 10140 20132 39991 40164 52001 71044 83530 333 20140 59004
AAXX 03001 48948 31965 20602 10155 20139 39920 40137 52010 71044 82030 333 20155 59025
AAXX 03001 48952 31550 20901 10160 20153 39907 40105 52006 71044 81100 333 20160 59011
AAXX 03001 48953 31940 10000 10155 20155 39927 40096 5//// 710// 80001 333 20150 58006
AAXX 03001 48955 31458 40401 10178 20147 39992 40112 52005 71044 82800 333 20170 59007
AAXX 03001 48957 31565 43601 10190 20156 39997 40107 5//// 710// 83202 333 20177 58013
AAXX 03001 30157 12998 31001 11254 21278 30049 40364 53015 69902 80001 333 21272 47015
AAXX 03001 48921 31556 21401 10105 20085 38552 48050 5//// 710// 82500 333 20095 59030
AAXX 03001 48924 31310 70000 10142 20140 39502 40144 5//// 710// 85660 333 20113 59023
AAXX 03001 48925 31/02 90201 10122 20119 39398 40152 5//// 747// 333 20120 59017
AAXX 03001 48926 31756 50902 10174 20154 39657 40127 5//// 710// 85500 333 20167 59027
AAXX 03001 48927 31210 80000 10098 20094 39152 48651 5//// 740// 888// 333 20085 59032
AAXX 03001 48928 31/06 92701 10094 20090 39075 48542 5//// 747// 333 20084 59039
AAXX 03001 48930 31230 70401 10152 20149 39791 40154 52015 71044 83830 333 20146 59015
AAXX 03001 48935 31/03 90000 10092 20090 38954 48432 52011 74544 333 20087 59030
AAXX 03001 48938 31320 83601 10170 20167 39795 40137 52004 71044 8467/ 333 20170 59019
AAXX 03001 48940 31930 03601 10170 20138 39925 40125 52015 71044 333 20170 59018
AAXX 03001 48941 31650 23602 10155 20151 3//// 4//// 5//// 710// 82500 333 20152 5////
AAXX 03001 48944 31640 23603 10125 20099 39526 40132 5//// 710// 82500 333 20120 58002
AAXX 03001 48945 31930 00000 10148 20133 39954 40139 5//// 710// 333 20145 59029
AAXX 03001 48946 31520 20901 10156 20127 39957 40128 52002 740// 81101 333 20134 59020
AAXX 03001 48947 31520 53601 10140 20132 39991 40164 52001 71044 83530 333 20140 59004
AAXX 03001 48948 31965 20602 10155 20139 39920 40137 52010 71044 82030 333 20155 59025
AAXX 03001 48952 31550 20901 10160 20153 39907 40105 52006 71044 81100 333 20160 59011
AAXX 03001 48953 31940 10000 10155 20155 39927 40096 5//// 710// 80001 333 20150 58006
AAXX 03001 48955 31458 40401 10178 20147 39992 40112 52005 71044 82800 333 20170 59007
AAXX 03001 48957 31565 43601 10190 20156 39997 40107 5//// 710// 83202 333 20177 58013
BBXX VNVR 03004 99386 11209 46/// /3621 10037 21028 30200 40232 52027 22273 04120 85012
AAXX 03004 91650 NIL
AAXX 03004 91652 NIL
AAXX 03004 91656 NIL
AAXX 03004 91659 11599 81415 10301 2024/ 40100 58011 60001 70322 84878 333 20242 56199 70001 83828
AAXX 03004 91660 NIL
AAXX 03004 91669 36/// /12// 10299 20274 40105 57007 333 20241
AAXX 03004 91670 36/// /0500 10289 20230 40097
AAXX 03004 91676 NIL
AAXX 03004 91680 11599 73003 10292 20231 40099 58008 60001 71522 85832 333 20230 56999 70001 83828 84648 85078
AAXX 03004 91682 NIL
AAXX 03004 91683 11599 70910 10295 20227 40100 57009 60001 70222 85832 333 20241 56299 70026 82820 85078
AAXX 03004 91691 NIL
AAXX 03004 91693 NIL
AAXX 03004 91697 NIL
AAXX 03004 91699 NIL
BBXX 9HA2479 03004 99347 31526 46/// /3604 10169 20077 30172 40202 57001 22284 04196 85118
BBXX C6FS9 03004 99241 31528 46/// /1429 10237 20196 30116 40152 52006 22274 04256 85209
BBXX VROB 03004 99264 31533 46/// /1520 10220 20114 30152 40177 57005 22283 04237 85156
BBXX VNAH 03004 99354 31351 46/// /1516 10153 20072 30223 40247 52015 22263 04178 85110
BBXX ZMKA 03003 99368 31768 41497 40615 10190 20163 40223 58009 70511 8/1// 22232 20301 306// 40604 80174
AAXX 03001 28867 42998 02303 11115 21143 39956 40240 57003 555 1/113
AAXX 03001 28952 425// 21801 11096 21104 30046 40245 58004 82500 555 1/111
AAXX 03001 21802 11996 82609 11092 21099 30104 40128 57001 73673 86030 333 21100 55000
AAXX 03001 24125 32998 73401 11231 21249 39952 40255 52009 80001 333 21265 47023 55000
AAXX 03001 24136 11998 80000 11321 21350 30139 40249 52001 69902 77171 8802/ 333 21360 47017 55000
AAXX 03001 24143 11997 82406 11311 21347 30207 40262 52006 69992 77173 8802/ 333 21334
AAXX 03001 24266 32998 02501 11477 21505 30095 40307 52004 333 21477 47021 55000
AAXX 03001 24329 11997 80000 11346 21374 39963 40305 52013 69922 77172 83014 333 21350 47024
AAXX 03001 24343 32798 21802 11391 21417 30160 40298 52013 82500 333 21394 47053 55000
AAXX 03001 24382 31995 10000 11468 21494 30001 40301 52005 71000 80001 333 21468 47012 55000
AAXX 03001 24639 32999 60000 11292 21315 30117 40287 52021 80008 333 21299 47022 55000
AAXX 03001 24641 11999 00000 11339 21368 30127 40289 52020 69932 70271 333 21346 47030 55000
AAXX 03001 24652 11998 01403 11308 21345 30164 40302 52012 69962 70271 333 21319 47038
AAXX 03001 24656 11998 80701 11339 21375 30197 40314 52010 69952 77177 80000 333 21366 47045
AAXX 03001 24671 32999 03501 11475 21505 39764 40376 52007 333 21479 47020 55000
AAXX 03001 24688 11998 80000 11431 21461 39318 40392 52005 69900 77172 83037 333 21485 47015 55015
AAXX 03001 24724 11999 22703 11232 21257 39726 40301 52016 69922 70171 80001 333 21232 48038 55000 93516
AAXX 03001 24738 11998 83001 11196 21202 30093 40282 52016 69922 70272 86035 333 21200 47020 55000
AAXX 03001 24768 11998 50702 11350 21382 30034 40300 53010 69952 70272 84031 333 21405 47027
AAXX 03001 24923 11597 82302 11154 21181 39973 40296 52011 69932 77172 885// 333 21159 47035 88526
AAXX 03001 24944 11597 82702 11153 21166 39972 40279 52013 69962 72687 86901 333 21165 47026 55000 86928
AAXX 03001 24951 11998 82802 11186 21205 30086 40264 53012 60012 77177 8802/ 333 21265 47013
AAXX 03001 24661 11998 23001 11412 21438 30014 40325 52006 69942 74071 81031 333 21423 48047
AAXX 03001 24959 11997 80202 11333 21362 30137 40284 52010 69992 77172 83035 333 21360 47020 55000 93503
AAXX 03001 24962 11998 80000 11363 21390 30079 40294 53003 69972 77172 83037 333 21371 47018 55041
AAXX 03001 24966 11999 60402 11363 21384 30054 40305 57004 69930 72272 82031 333 21409 47024 55052
AAXX 03001 24967 11999 80000 11319 21350 30053 40299 54000 69962 71071 85306 333 21360 47022
AAXX 03001 25206 11998 80000 11385 21413 30241 40273 52002 69930 77177 80007 333 21384 47020
AAXX 03001 25400 11998 81701 11374 21401 30204 40267 52004 69930 77172 83037 333 21376 48025 55000
AAXX 03001 30054 32998 60000 11248 21273 30065 40330 52008 86030 333 21263 47031 55003
AAXX 03001 30089 11998 80701 11184 21196 30053 40293 53008 69932 77177 8807/ 333 21202 47019
AAXX 03001 30393 11998 80000 11262 21280 39202 40394 52008 69942 77172 85037 333 21274 47015
AAXX 03001 30493 11698 80000 11283 21306 39204 40366 53004 69902 77171 86507 333 21308 47008 55055
AAXX 03001 31004 11998 82401 11158 21171 39400 40279 53009 69902 77172 84037 333 21224 47034 55040
AAXX 03001 31137 32999 00000 11405 21426 39213 40423 53004 333 21404 47023
AAXX 03001 28049 42997 03201 11130 21141 39991 40164 52002
AAXX 03001 28144 42998 02901 11170 21183 30009 40178 52002
AAXX 03001 28319 41496 82703 11058 21084 30075 40245 54000 77122 8802/
AAXX 03001 28321 42999 82602 11068 21080 30021 40232 57002 8803/
AAXX 03001 28334 41497 82704 11082 21096 39914 40229 52002 77072 8802/
AAXX 03001 28434 42498 82302 11066 21079 39969 40235 53005 886// 333 88712
AAXX 03001 28552 42598 82703 11065 21083 30072 40187 57010 883//
AAXX 03001 28666 41556 81903 11141 21154 30020 40205 57007 77172 8802/
AAXX 03001 28825 41996 80000 11088 21095 30079 40259 52004 70422 8805/
AAXX 03001 29111 11997 82101 11197 21218 30093 40187 52003 69952 77071 8802/ 333 21200 47026 55000
AAXX 03001 29209 32998 00000 11274 21292 30059 40199 54000 333 21275 47023
AAXX 03001 29551 11497 80000 11085 21092 30027 40215 58002 60012 78582 883// 333 21089 47005
AAXX 03001 29602 11997 81903 11154 21167 30056 40205 58004 69932 77172 8802/ 333 21159 47013
AAXX 03001 29636 11596 82002 11059 21070 39986 40209 53003 69972 78582 883// 333 21097 47012
AAXX 03001 29654 NIL
AAXX 03001 29712 32998 02102 11145 21165 30066 40218 58002 333 21150 47010
AAXX 03001 29724 11596 72203 11126 21139 30016 40228 52009 69962 78582 83370 333 21126 47007
AAXX 03001 29726 11596 82303 11080 21098 30049 40221 52004 69942 78582 883// 333 21080 47012 88922
AAXX 03001 29814 11499 72103 11104 21117 30084 40237 57001 69902 70282 87900 333 21141 48009 87919
AAXX 03001 29827 11697 82304 11106 21112 30080 40241 52005 69932 78581 889// 333 21110 47011
AAXX 03001 29923 11599 82405 11066 21082 39961 40244 53002 69942 70282 8493/ 333 21067 47020 55000
AAXX 03001 29939 11495 81903 11091 21098 39969 40263 53002 69902 77372 8802/ 333 21105 47024
AAXX 03001 35026 41996 00501 11172 21191 39595 40281 58001 71000
AAXX 03001 36021 11599 82402 11077 21087 30061 40247 52005 69922 70282 8195/ 333 21079 47007
AAXX 03001 36022 11497 82102 11081 21091 39988 40258 52004 69902 77172 885// 333 21082 47018 88614
AAXX 03001 36038 11496 71201 11128 21134 39819 40286 52002 69922 78581 87900 333 21177 48038 55006 87915
AAXX 03001 36058 11497 80000 11097 21101 39733 40274 52003 69962 77177 8852/ 333 21110 47007 55000
AAXX 03001 36064 11599 23501 11071 21105 39657 40263 52005 69922 70271 82600 333 21072 47015 55000
AAXX 03001 36229 32599 50000 11122 21127 39056 40276 53004 84930 333 21130 47014 55000 82930
AAXX 03001 36259 11997 80000 11176 21195 38193 48483 57001 69902 77172 8802/ 333 21193 47997 55000
AAXX 03004 89050 11194 83010 10003 20003 49939 52032 69902 74442 886//
AAXX 03004 89512 42698 70602 11092 21123 39683 49835 52007 87500
AAXX 03004 89574 11498 80807 11025 21081 49868 52003 69932 70272 8667/ 333 21032
AAXX 03004 89592 11596 81410 11073 21101 49880 57001 60012 78582 889//
AAXX 03004 89606 32998 02306 11346 21409 36251 47791 52002
BBXX 9HA2479 03004 99347 31526 46/// /3604 10169 20077 30172 40202 57001 22284 04196 85118
BBXX C6FS9 03004 99241 31528 46/// /1429 10237 20196 30116 40152 52006 22274 04256 85209
BBXX VROB 03004 99264 31533 46/// /1520 10220 20114 30152 40177 57005 22283 04237 85156
BBXX VNAH 03004 99354 31351 46/// /1516 10153 20072 30223 40247 52015 22263 04178 85110
BBXX ZMKA 03003 99368 31768 41497 40615 10190 20163 40223 58009 70511 8/1// 22232 20301 306// 40604 80174
AAXX 03004 67765 41880 52301 10208 20164 38646 48490 71562 81973 333 59018 81956 85460
AAXX 03004 67775 42980 40304 10226 20136 38490 48494 84032 333 59019 84359
AAXX 03004 67779 NIL
AAXX 03004 67853 NIL
AAXX 03004 67861 NIL
AAXX 03004 67867 NIL
AAXX 03004 67881 NIL
AAXX 03004 67965 NIL
AAXX 03004 67975 NIL
AAXX 03004 67977 42975 32602 10280 20183 39622 48521 82032 333 59012 82360
AAXX 03004 67983 41970 10000 10234 20177 38860 48492 70500 81032 333 59015 81360
AAXX 03004 67991 42975 31005 10287 20185 39539 48484 83030 333 59003 83360
AAXX 03003 67765 41780 52301 10208 20164 38646 48490 71562 81973 333 81950 85460
AAXX 03003 67775 42980 40304 10226 20136 38490 48494 84032 333 84359
AAXX 03003 67977 42975 32602 10280 20183 39622 48521 82032 333 82360
AAXX 03003 67983 41970 10000 10234 20177 38860 48492 70500 81032 333 81360
AAXX 03003 67991 42975 31005 10287 20185 39539 48484 83030 333 83360
BBXX V7HC6 03004 99273 70907 41797 20715 10220 20190 40237 54000 70200 81489 22200 00237 20301 309// 40501 5//// 6//// 80200 ICE /////
BBXX V7MO2 03004 99262 70914 41/97 /1010 10220 20125 40233 54000 7//// 8//// 22200 00241 20301 310// 40501 5//// 6//// 80162 ICE /////
BBXX WKAB 03004 99408 70411 41798 72513 10160 20126 40326 51004 70222 87570 22274 00170 20401 335// 40804 5//// 6//// 80140 ICE /////
BBXX WKAE 03004 99273 70797 41498 50524 10230 20133 40230 52015 70222 851// 22285 00270 2//// 3//// 4//// 5//// 6//// 80170 ICE /////
BBXX WKAU 03004 99480 70279 41296 82428 10130 2013/ 40244 58005 75052 886// 22224 00130 20406 329// 41105 5//// 6//// 80130 ICE /////
AAXX 03004 41515 02995 00000 10126 21018 38564 48526 60002 333 59023 60007
AAXX 03004 41560 22696 33603 10010 21080 38291 48525 60002 82320 333 59004 60007
AAXX 03004 41571 119// 00000 10095 20085 39535 40132 60002 71000 333 59043
AAXX 03004 41594 319// 00000 10110 20090 39889 40112 71000 333 59050
AAXX 03004 41685 32993 00000 10115 20076 38906 48485 333 59010
AAXX 03004 41710 02997 03104 10150 21072 39357 40132 60002 333 58004 60007
AAXX 03004 41718 12996 00000 10150 20123 30003 40108 60002 333 59043
AAXX 03004 41739 02696 60504 10105 20053 39050 48497 60002 85530 333 56990 58009 60007 85635 81360
AAXX 03004 41744 32996 00000 10075 20042 38759 48478 333 59008
AAXX 03004 41749 01995 00000 10190 20156 30097 40131 60002 70400 333 59009 60007
AAXX 03004 41515 02995 00000 10126 21018 38564 48526 60002 333 59023 60007
AAXX 03004 41560 22696 33603 10010 21080 38291 48525 60002 82320 333 59004 60007
AAXX 03004 41571 119// 00000 10095 20085 39535 40132 60002 71000 333 59043
AAXX 03004 41594 319// 00000 10110 20090 39889 40112 71000 333 59050
AAXX 03004 41685 32993 00000 10115 20076 38906 48485 333 59010
AAXX 03004 41710 02997 03104 10150 21072 39357 40132 60002 333 58004 60007
AAXX 03004 41718 12996 00000 10150 20123 30003 40108 60002 333 59043
AAXX 03004 41739 02696 60504 10105 20053 39050 48497 60002 85530 333 56990 58009 60007 85635 81360
AAXX 03004 41744 32996 00000 10075 20042 38759 48478 333 59008
AAXX 03004 41749 01995 00000 10190 20156 30097 40131 60002 70400 333 59009 60007
AAXX 03004 13601 12660 32702 10100 20094 30127 40229 54004 60001 83500 333 83640
BBXX A8OZ4 03004 99251 10359 43998 03320 10240 20130 40140 54000 80/// 22274 00248 80170
BBXX WQVY 03004 99202 10389 41599 43312 10260 2019/ 40127 5//// 70200 84100 22273 0//// 20401 335// 40602 5//// 6//// 80210 ICE /////
BBXX DDID2 03003 99092 70281 41397 80515 10268 20217 40135 54000 70222 886// 22253 04260 80232
BBXX C6UB2 03004 99337 11490 41297 81030 10210 2020/ 40190 54000 72586 8842/ 22223 00200 20806 306// 41006 5//// 6//// 80200 ICE /////
BBXX SHIP 03004 99137 11339 41497 41024 10290 2026/ 40130 54000 7//11 841// 22213 00290 20202 311// 40404 5//// 6//// 80270 ICE /////
BBXX DASO 03003 99311 11739 41397 83225 10210 20195 40150 52020 76366 887// 22263 00210 20806 327// 40606 5//// 80200
BBXX 3FBC9 03004 99323 11535 41798 60832 10190 40185 51015 70322 85456 9//// 22223 00230 20309 306// 40310 5//// 6//// 80170
BBXX PEND 03003 99203 11203 41297 80332 10238 20203 40123 53007 70252 887// 22243 00280 2//// 3//// 4//// 5//// 80214
BBXX V2AN5 03001 99471 11542 41597 62710 10039 21031 40274 58011 70122 85470 22214 20403 327// 40607 5//// 80012
BBXX UICN 03000 99484 11410 42998 03507 10000 40286 54000 22273 2////
BBXX SHIP 03004 99411 11787 41498 92622 10130 20074 40083 54000 70222 886// 92355 22223 00160 20704 318// 41006 80100
BBXX A8CN8 03000 99486 11699 41298 83424 10040 20029 40005 53015 72822 83723 22224 06055 20404 331// 40510 5//// 80035
BBXX UFLC 03000 99578 11477 41397 82808 11086 40191 54000 77072 8672/ 22213 06021 20402
BBXX A8SF7 03001 99034 70899 41497 72007 10255 20218 40125 53007 70222 85177 22224 00240 2//02 331// 4//03 5//// 80230
BBXX A8YW2 03004 99250 50429 41/98 81312 10220 20153 40160 52015 70322 8//// 22223 00210 20602 80180
BBXX IDDUK02 03004 99575 50567 46/// ///// 40055 222//
BBXX V7DI7 03004 99412 70581 41698 80218 10110 2007/ 40200 51010 70222 88/7/ 22213 00077 20404 302// 40808 5//// 6//// 80090 ICE /////
BBXX 46207 03001 99509 71299 46/// /3209 10083 40379 57007 22200 00089 11205 70027 333 91210
BBXX A8IP2 03003 99351 70420 41598 60927 10188 20148 40308 52019 70311 85468 22214 20404 3//// 4//// 5//// 80163
BBXX MGPU2 03003 99350 71723 41297 63428 10190 20165 40118 57024 72522 8/7// 22263 00195 20512 334// 40510 5//// 80175
BBXX 46111 03001 99481 71227 46/// /3304 10070 40327 53004 90000 22200 00068
BBXX 46112 03001 99481 71227 46/// /3403 10069 40329 53005 90000
BBXX 41038 03001 99341 70777 46/// /2302 10144 40295 90000 22200 00161 333 91203
BBXX 44067 03001 99384 70770 46/// /0701 10088 40303 53029 90000
BBXX 44033 03001 99441 70690 46/30 /2904 10088 40255 53011 90004 22200 00092 11101 70007 333 91205 555 11047 22049
BBXX 41029 03001 99328 70796 46/// /0703 1//// 90000 555 11035 22040
BBXX 46204 03001 99514 71288 46/// /2506 10083 40373 57004 22200 00090 11204 70020 333 91206
BBXX 46131 03001 99499 71250 46/// /3508 1//// 40330 57004 22200 00078 10301 70004 333 91210
BBXX 46145 03001 99544 71324 46/// /2710 10076 40343 54000 22200 00080 11207 70034 333 91213
BBXX 46183 03001 99536 71311 46/// /2506 10081 40356 57004 22200 00085 11301 70006 333 91207
BBXX C6KJ5 03004 99238 70910 41497 41014 10220 2014/ 40225 52001 70321 84220 22273 00258 60170
BBXX V7MO2 03004 99262 70914 41/97 /1010 10220 20125 40233 54000 7//// 8//// 22200 00241 20301 310// 40501 5//// 6//// 80162 ICE /////
BBXX A8WP6 03004 99228 70573 41597 51221 00/// 10250 2023/ 40200 53010 70222 85/// 22233 00252 2//// 3//// 4//// 5//// 6//// 80240
BBXX WKAE 03004 99273 70797 41498 50524 10230 20133 40230 52015 70222 851// 22285 00270 2//// 3//// 4//// 5//// 6//// 80170 ICE /////
BBXX WKAB 03004 99408 70411 41798 72513 10160 20126 40326 51004 70222 87570 22274 00170 20401 335// 40804 5//// 6//// 80140 ICE /////
BBXX 46147 03001 99518 71312 46/// /2809 10081 40376 57006 22200 00086 11407 70036 333 91211
BBXX 46221 03001 99339 71186 46/// ///// 1//// 92345 22200 00152 11402 20802 321// 41401 70009
BBXX 44098 03001 99428 70702 46/// ///// 1//// 90007 22200 00100 11002 21002 313// 41101 70011
BBXX 41114 03001 99276 70802 46/// ///// 1//// 90016 22200 00226 10803 20803 308// 41301 70017
BBXX 41115 03001 99184 70673 46/// ///// 1//// 90005 22200 10802 20802 70009
BBXX 46114 03001 99364 71222 46/// ///// 1//// 90004 22200 00127 11106 21004 332// 41104 70029
BBXX WKAP 03004 99243 70813 41498 52009 10220 2017/ 40245 53012 70222 8553/ 22254 00250 20402 3//// 4//// 5//// 6//// 80190 ICE /////
BBXX KABL 03004 99254 70800 41598 60623 10230 2017/ 40245 54000 70222 8613/ 22244 00271 20202 306// 40402 5//// 6//// 80190 ICE /////
BBXX 46211 03001 99469 71242 46/// ///// 1//// 90006 22200 00098 11407 20905 328// 41404 70033
BBXX 46218 03001 99345 71208 46/// ///// 1//// 90002 22200 00141 11104 21003 332// 41103 70022
BBXX 46231 03001 99327 71174 46/// ///// 1//// 92354 22200 00152 11003 21002 328// 41101 70013
BBXX 46222 03001 99336 71183 46/// ///// 1//// 92356 22200 00161 11302 21002 324// 41301 70009
BBXX 46223 03001 99335 71178 46/// ///// 1//// 90000 22200 00163 11401 21001 319// 41401 70007
BBXX 46216 03001 99343 71198 46/// ///// 1//// 92357 22200 00150 11202 20801 326// 41201 70008
BBXX 46212 03001 99408 71243 46/// ///// 1//// 90012 22200 00107 10908 20907 332// 41104 70041
BBXX 46240 03001 99366 71219 46/// ///// 1//// 90012 22200 00126 11102 21002 335// 41101 70012
BBXX 46217 03001 99342 71194 46/// ///// 1//// 90012 22200 00153 11202 20702 328// 41201 70009
BBXX 46237 03001 99378 71226 46/// ///// 1//// 90010 22200 00121 11704 20903 325// 41703 70020
BBXX 46241 03001 99330 71173 46/// ///// 1//// 92341 22200 00152 11102 21001 327// 41101 70008
BBXX 46248 03001 99461 71247 46/// ///// 1//// 90004 22200 00099 11408 20906 329// 41405 70039
BBXX 46249 03001 99338 71197 46/// ///// 1//// 90017 22200 00151 11402 20801 318// 41401 70009
BBXX 46244 03001 99409 71244 46/// ///// 1//// 90005 22200 00109 10909 20908 329// 41504 70046
BBXX 44100 03001 99363 70756 46/// ///// 1//// 92352 22200 00144 11102 21002 310// 41101 70011
BBXX 46232 03001 99325 71174 46/// ///// 1//// 92338 22200 00164 11203 20802 328// 41202 70013
BBXX BAREU00 03004 99469 70441 46/// ///// 40168 52018 22263
BBXX SHIP 03004 99266 71162 432// 20106 10190 2010/ 40180 51010 7//// 81400 22273 00290 20303 33334 40304 50303 6//// 80140 ICE /////
BBXX ELXU2 03000 99280 71604 41698 33203 10220 20138 40232 57010 70111 81146 22233 04210 20201 335// 40608 5//// 80169
BBXX 45137 03001 99455 70810 46/// /1001 11012 30105 40328 52014 22200 00065 10200 70002 333 91202
BBXX WZE4928 03004 99466 70871 41/99 01442 11011 2//// 40227 57021 70100 80000 22263 00061 2//04 3//// 4//// 5//// 6//// 8//// ICE /////
BBXX WKAU 03004 99480 70279 41296 82428 10130 2013/ 40244 58005 75052 886// 22224 00130 20406 329// 41105 5//// 6//// 80130 ICE /////
BBXX 62094 03004 99517 70067 46/// /2521 10123 20109 40044 56013 22200 00122 10708 70039 333 90710 91133
BBXX 62027 03004 99491 70022 46/// /2526 1//// 2//// 40149 57024 22200 00133 11205 328// 70023
BBXX 62081 03004 99510 70134 46/// ///// 10122 20111 40110 58001 22200 00121 10812 70060
BBXX 62303 03004 99516 70051 46/// /2524 10122 2//// 40048 57021 22200 00126 10709 70044 333 90710 91132
BBXX 62103 03004 99499 70029 46/98 /2631 10125 20101 40106 56037 22200 00135 10705 70024 333 90710 91146
BBXX 62170 03004 99514 10020 46/97 /2333 10107 20064 40092 58038 22200 00129 10602 70008 333 90710 91146
BBXX DDSX2 03001 99455 70080 41498 62811 10145 20101 40240 56010 70211 8347/ 22215 04197 21005 328// 41408 5//// 80120
BBXX GHJV 03004 99489 70056 41297 82530 10132 20111 40148 57/// 78082 8762/ 22251 02144 20302 334// 40704 80121
BBXX TBWUK03 03003 99421 70342 41398 82216 10143 20119 40365 53022 70222 85710 22223 20301 323// 40602 5//// 80129
BBXX 62092 03004 99512 70105 46/// /2724 10128 20110 40090 52001 22200 00127 10811 70056 333 90710 91135
BBXX 62095 03004 99530 70159 46/// /2823 10108 20074 40070 52006 22200 00119 10811 70053 333 90710 91133
BBXX PHBO 03003 99480 70188 41298 72633 10135 20098 40235 58019 703// 8/7// 22224 2//// 80116
BBXX MCZN2 03004 99538 70041 41298 82026 10100 20001 49973 57040 70222 887// 22271 04120 20101 32000 40105 50000 80060
BBXX 62107 03004 99501 70061 46/// /2630 10118 20105 40101 58022 22200 00125 10907 70035 333 90710 91142
BBXX 62304 03004 99511 10018 46/98 /2330 10108 20071 40103 57032 22200 00129 10602 70011 333 90710 91145
BBXX 62105 03004 99554 70132 46/// /2830 10087 20045 49968 53006 22200 00111 10914 70068 333 90710 91141
BBXX 62305 03004 99504 10000 46/96 /2231 10101 20079 40123 58028 22200 00137 10603 70017 333 90710 91146
BBXX 62118 03004 99577 10009 47496 /2140 10100 20069 49818 57061 752// 22200 10709 70046
BBXX 62143 03004 99577 10018 47396 /2028 10078 20069 49827 57071 751// 22200 10708 70042
BBXX 62134 03004 99580 10014 47497 /2137 10092 20051 49808 57074 700// 22200 10709 70045
BBXX 62102 03004 99579 10018 46/// /2031 10081 20057 49830 57068 22200 10708 70041
BBXX 62117 03004 99579 10000 47496 /2233 10099 20073 49802 57057 700// 22200 10709 70045
BBXX 62114 03004 99583 10000 46/// /2238 10093 20067 49775 57057 22200
BBXX 62128 03004 99587 10014 47496 /2041 10085 20060 49781 57071 761// 22200 10810 70050
BBXX 62129 03004 99584 10003 46/// ///// 10090 20071 49802 57061 22200
BBXX 62113 03004 99584 10002 47496 /2135 10091 20067 49803 57066 762// 22200
BBXX ZQSD5 03004 99583 10007 46/// /2038 10089 20071 49795 57069 22200 10910 70050
BBXX 62119 03004 99570 10019 46/// ///// 22200
BBXX 62133 03004 99571 10009 46/// ///// 22200
BBXX 62164 03004 99572 10008 46/// ///// 22200
BBXX PJGO 03004 99571 10022 47195 /1935 10080 20047 49879 57056 762// 22200
BBXX 62146 03004 99572 10021 46/// ///// 22200
BBXX 62140 03004 99573 10013 46/// /22// 10093 20070 49852 57065 22200
BBXX 63056 03004 99597 10016 47496 /2040 10084 20049 49763 57084 700// 22200 10810 70052
BBXX 62127 03004 99540 10007 47498 ///// 10082 20051 49969 57056 700// 22200 10605 70025
BBXX 63057 03004 99592 10015 47496 /2046 10085 20062 49757 57077 700// 22200 10810 70052
BBXX 62165 03004 99540 10009 47498 /2232 10082 20052 49976 57056 700// 22200 10605 70026
BBXX 62123 03004 99563 10022 47497 /2033 10087 20041 49904 57060 700// 22200
BBXX 62132 03004 99564 10020 46/// /2333 10083 20051 49907 57058 22200
BBXX 62120 03004 99564 10021 47497 /2234 10085 20043 49896 57061 700// 22200
BBXX PHJV 03003 99076 31223 41498 30810 10312 20290 40076 51015 70311 83165 22223 06306 20101 308// 40101 80295
BBXX SHIP 03004 99086 31008 41797 70127 10260 40067 53011 70111 84410 22263 00283 10905 20701 33402 40505 50703 80242
BBXX A8KC6 03004 99101 71410 41598 40718 10300 20258 40100 51010 70311 824// 22254 04280 20602 307// 40602 5//// 80270 46379 1738031222
BBXX PHAC 03003 99374 70117 41/98 /0225 10159 20093 40290 7//// 8//// 22282 2//// 80122 59992
BBXX MQEC7 03003 99432 70097 41/98 63616 10130 20074 40283 51007 7//// 8//// 22284 00150 2//// 3//// 4//07 5//// 80100
BBXX PCBT 03003 99438 70102 41/98 82821 10130 20094 40276 52006 72582 8//// 22254 2//// 80110
BBXX 62154 03004 99564 10022 46/// /2132 10080 20053 49907 57059 22200
BBXX 62122 03004 99573 10016 47397 /2033 10099 20060 49853 57064 700// 22200 10710 70050
BBXX 62152 03004 99570 10018 46/// ///// 22200
BBXX 62153 03004 99573 10020 47395 /2036 10083 20043 49857 57065 762// 22200 10709 70044
BBXX 62104 03004 99574 10013 47497 /2137 10092 20067 49834 57066 700// 22200
BBXX 62116 03004 99576 10011 47497 /2235 10091 20066 49828 57069 700// 22200 10810 70048
BBXX 62155 03004 99577 10007 47496 /2137 10095 20070 49828 57062 763// 22200 10710 70048
BBXX 64041 03004 99607 70026 47597 /1823 10062 20062 49645 57066 700// 22200 10809 70046
BBXX 62144 03004 99534 10017 47698 /2133 10081 20043 40012 57053 700// 22200 10505 70026
BBXX MWYG6 03004 99603 70040 47998 /2622 10070 700// 22200
BBXX 62142 03004 99530 10021 46/98 /2230 10082 40026 57050 22200 10504 70021
BBXX 62145 03004 99531 10028 47798 /2031 10092 20036 40034 57046 700// 22200 10506 70028
BBXX 63115 03004 99616 10013 47396 /2036 10092 20053 49673 57084 700// 22200 10812 70059
BBXX 63117 03004 99613 10011 47498 /2328 10133 20099 49696 57099 700// 22200
BBXX 63103 03004 99612 10011 46/// /2529 10061 20056 49704 56064 22200 10811 70055
BBXX 63104 03004 99612 10016 47494 /1941 10074 20062 49705 57084 762// 22200
BBXX 63107 03004 99611 10017 46/// /1942 10074 49700 57085 22200
BBXX 63101 03004 99612 10009 46/// /2522 10063 20038 49695 57088 22200
BBXX 63106 03004 99610 10017 46/// /1931 10072 49704 57085 22200
BBXX 63105 03004 99610 10017 47496 ///// 10084 20059 49704 57083 751// 22200
BBXX 63112 03004 99611 10010 47/97 /2427 10075 20041 49692 57077 700// 22200 10711 70056
BBXX 63113 03004 99610 10017 46/// /2037 10081 20060 49712 57081 22200 10812 70060
BBXX 63108 03004 99608 10017 47296 /2038 10073 20054 49714 57073 761// 22200 10808 70042
BBXX 63055 03004 99606 10016 47395 /1925 10072 20072 730// 22200 10811 70053
BBXX PJAI 03004 99581 70014 47997 /2537 10099 20025 49784 57038 700// 22200
BBXX 62111 03004 99580 70003 46/// /2538 10099 20060 49820 56044 22200 10709 70044
BBXX 62112 03004 99584 70002 47497 /2333 10086 20060 49779 57056 700// 22200
BBXX 62303 03004 99516 70051 46/// /2522 10122 20115 40044 56022 22200 00128 10708 70041 333 90710 91134
BBXX AMOUK06 03004 99506 70024 46/// ///// 10125 20103 30060 40079 57039 92350
BBXX 62301 03004 99524 70047 46/// /2524 10121 20102 40014 57021 22200 00123 10606 70032 333 90710 91140
BBXX 64046 03004 99606 70049 46/// /2629 10074 20040 49620 56069 22200 00090 10811 70054
BBXX 62001 03004 99452 70050 46/// /2716 10135 20066 40248 57006 22200 00158 10807 70034
BBXX AMOUK14 03004 99535 70030 46/// ///// 10110 20083 39944 49979 57017 92350
BBXX 62121 03004 99535 10027 46/// /2233 10084 20037 40036 57040 22200
BBXX 62150 03004 99536 10007 46/// ///// 22200
BBXX 62131 03004 99539 10012 46/// /20// 10085 20057 49984 57054 22200
BBXX 62148 03004 99536 10015 46/// /2133 10080 20046 40016 57047 22200
BBXX 62149 03004 99537 10011 47498 /2134 10085 20055 49989 57054 700// 22200 10605 70024
BBXX AMOUK05 03004 99534 10008 46/// ///// 10079 20050 39932 49970 57053 92350
BBXX AMOUK08 03004 99501 70061 46/// ///// 10123 20113 30097 40104 57019 92350
BBXX AMOUK13 03004 99519 10013 46/// ///// 10081 20051 30058 40067 57031 92350
BBXX AMOUK11 03004 99533 70050 46/// ///// 10115 20103 39943 49986 57017 92350
BBXX AMOUK03 03004 99531 10010 46/// ///// 10078 20058 39970 40003 57032 92350
BBXX AMOUK09 03004 99506 70001 46/// ///// 10108 20091 30088 40106 57031 92350
BBXX AMOUK12 03004 99533 70057 46/// ///// 10116 20091 39935 49968 57047 92350
BBXX AMOUK04 03004 99536 70035 46/// ///// 10115 20099 39943 49949 57042 92350
BBXX 62163 03004 99475 70084 46/// /2623 10124 20099 40198 56012 22200 00140 10910 70048 333 90710 91129
BBXX 62029 03004 99487 70125 46/// /2825 10134 20109 40178 58003 22200 00139 10811 70057 333 90710 91134
BBXX 62442 03004 99490 70163 46/// /2726 1//// 2//// 40192 58009 22200 00133 333 90710 91137
BBXX 62105 03004 99554 70122 46/// /2830 10087 20045 49968 53006 22200 00111 10914 70068 333 90710 91141
BBXX 64045 03004 99591 70117 46/// /2943 10063 20047 49772 53041 22200 00104 11227 70135 333 90710 91164
BBXX WAHV 03004 99402 70244 41797 81704 10135 2008/ 40367 51001 7//22 8874/ 22225 00167 2//// 302// 41405 5//// 6//// 80105 ICE /////
BBXX 62081 03004 99510 70134 46/// ///// 10126 20115 40110 58001 22200 00122 10812 70060
BBXX BATFR24 03004 99430 10074 46/// ///// 10174 20127 40183 56007 22224 00164
BBXX BATFR02 03004 99504 70008 46/// /2040 10115 20087 40098 22243 00134
BBXX 61001 03004 99434 10078 46/// /2403 10153 20141 40182 57002 22200 00176 10603 70013
BBXX DDZF2 03004 99368 10012 41697 72520 10160 20144 40190 56020 70322 83474 22224 00180 20604 323// 40602 80150
BBXX 61002 03004 99421 10047 46/// /0124 10149 2//// 40198 52010 22200 00176 10604 70020 555 1/031
BBXX 9V8072 03003 99389 10259 41/// /0000 10120 20079 40243 50/// 7//22 8//// 22233 06170 2//// 80100
BBXX KSDF 03003 99353 70208 41498 60519 10183 20139 40289 51010 7//22 85401 22223 0//// 20204 330// 40506 5//// 6//// 80156
BBXX BATUK01 03004 99591 70024 46/// /2344 10070 20027 49714 57044 22241 00109
BBXX BAREU60 03004 99441 10146 46/// ///// 40210 22262
BBXX BATEU01 03004 99525 10038 46/// /2319 10107 20034 40072 58047 222// 00119
BBXX BATFR27 03004 99502 70015 46/// /2337 10117 20085 40089 56033 22243 00145
BBXX BATFR54 03004 99451 70035 46/// /2616 10132 20064 40245 58010 22223 00159
BBXX BATFR12 03004 99483 70072 46/// /2422 10127 20109 40168 56018 22200 00149
BBXX BATFR03 03004 99496 70008 46/// /2135 10092 20070 40132 22272
BBXX BATFR15 03004 99452 70194 44998 82726 10134 20109 40308 56020 70222 8677/ 22224 00149 21002 336// 41506 5////
BBXX BATFR52 03004 99502 70041 46/// /2538 10124 20099 40092 22243 00132
BBXX BATFR58 03004 99433 10076 46/// ///// 40187 56007 22200 00185
BBXX BATFR60 03004 99469 70027 46/// /2331 10130 20057 40177 22242 00144
BBXX BATFR09 03004 99370 70094 46/// /0139 10154 20072 40271 53024 22283 00189
BBXX BATFR30 03004 99422 10073 46/// /1821 10179 20134 40179 22233 00180
BBXX BATFR20 03004 99429 10068 46/// /1812 10172 20147 40179 50000 22223
BBXX BATFR31 03004 99425 10070 46/// /2014 10177 20132 40181 52002 22233 00182
BBXX BATEU09 03004 99398 10137 46/// /1715 10174 20129 40230 22251 00189
BBXX BATEU04 03004 99631 70086 46/// /0711 10039 20005 4//// 22262
BBXX BATFR01 03004 99359 70058 46/// /3320 10142 20074 40224 53005 22200 00184
BBXX BATEU05 03004 99586 70168 46/// /3026 10057 20012 49906 53021 22222
BBXX PHCQ 03003 99475 70098 41497 82416 10124 20097 40192 52015 70211 8//// 22253 04138 20308 327// 40804 5//// 80109
BBXX BATFR04 03004 99584 70062 46/// /2651 10082 20020 4//// 22200 00110
BBXX BAREU12 03004 99514 10036 46/// ///// 40102 22262
BBXX LF4C 03004 99584 10019 43/// /2136 10087 20074 49795 57073 22200 10809 70047 333 91142
BBXX LF3N 03004 99653 10073 41497 72025 10043 20023 49767 57026 70282 8//// 22200 00095 10809 70046
BBXX LF4B 03004 99606 10037 47/95 /1841 10075 49767 57075 781// 22200 00078 10710 70052 333 91151
BBXX 3ERR2 03004 99635 10053 43/// /1937 10059 20044 49757 57051 22200 10810 70051 333 91155
BBXX LF5T 03004 99660 10081 41496 /2026 10044 20034 49765 57037 700// 22200 06086 10808 70042 333 91144
BBXX LF3F 03004 99643 10078 43/// /1925 10042 20011 49791 57039 22200 04095 10809 70045 333 91134
AAXX 03001 60376 36/// /1203 10149 20084
AAXX 03001 60593 36/// /0000 10097
AAXX 03004 61017 NIL
AAXX 03004 61024 NIL
AAXX 03004 61036 32960 70000 10206 20055 39892 40128 80008 333 0//00 59001 87280
AAXX 03004 61043 32960 70610 10217 21060 39696 40131 80008 333 0//00 59005 87280
AAXX 03004 61045 NIL
AAXX 03004 61049 31956 70804 10194 20020 39808 40125 7062/ 80008 333 0//00 59008 87280
AAXX 03004 61052 32960 23604 10214 20026 39873 40127 80002 333 0//00 59005 82080
AAXX 03004 61075 32960 31004 10220 20024 39825 40131 80002 333 0//00 58003 83080
AAXX 03004 61080 NIL
AAXX 03004 61090 32960 53604 10195 20025 39630 40138 80002 333 0//00 59004 85080
AAXX 03004 61091 NIL
AAXX 03004 61096 32965 70404 10186 21010 39754 40133 80008 333 0//00 59004 87280
AAXX 03004 61099 32960 70210 10225 20030 39886 40112 80008 333 0//00 58003 87280
BBXX VMGO 03003 99404 31459 41/98 72020 10151 40169 72582 85263 22233 00119 20401 324// 40602 5////
AAXX 03001 55299 32980 00702 11138 21179 35824 57007 333 05602
AAXX 03001 55591 32980 00701 11038 21148 36507 52004 333 05700
AAXX 03001 56739 32580 20201 10055 20032 38333 52005 82400 333 05300 30014
AAXX 03001 56951 32780 10000 10067 20050 38491 52008 81400 333 05400 30038
AAXX 03001 56964 32570 82201 10139 20119 38696 40131 52013 889// 333 05401
AAXX 03001 57328 31930 80401 10058 20052 39778 40196 52012 71040 8807/ 333 05551 30049
AAXX 03001 57411 31940 81602 10078 20064 39810 40186 52007 71000 8807/ 333 05500 30044
AAXX 03001 57447 31940 83601 10050 20049 39685 40242 52016 71000 8802/ 333 05200 30038
AAXX 03001 57662 32962 00201 10039 20013 30197 40242 52021 333 05101 30020
AAXX 03001 57745 31/01 92202 10027 20015 39898 40235 52015 74540 333 05501 30026
AAXX 03001 57972 32962 00000 10024 20011 30014 40247 52020 333 05351 30002
AAXX 03001 58203 31950 00000 11010 21026 30226 40269 52020 71000 333 00251 31015
AAXX 03001 58314 32960 00000 11003 21003 30151 40262 52021 333 00201 30000
AAXX 03001 58424 31956 00000 10031 20019 30237 40264 52018 71000 333 00101 31004
AAXX 03001 59023 32962 00000 10069 20066 39896 40213 52015 333 05500
AAXX 03001 59417 32563 11101 10076 20070 30041 40199 52012 81140 333 05452
AAXX 03001 59985 32580 60405 10223 20160 30128 40133 52016 86100 333 00051
AAXX 03001 59995 NIL
AAXX 03004 63729 32980 70000 10193 20189 38850 48/// 80002 333 55300 58017 87070
AAXX 03004 63733 12480 70000 10197 20184 38845 48482 60011 8193/ 333 0//14 59020 81918 87358
AAXX 03004 63756 32480 70000 10208 20188 38845 48480 81932 333 59023 81617 81918 87359
AAXX 03004 63801 32480 50000 10225 20210 39175 48494 81901 333 59024 81819 81920 85076
AAXX 03004 63832 32980 13609 10185 20179 38799 48463 82221 333 55300 59017 81072
AAXX 03004 63862 32580 10606 10209 20172 38875 48483 81500 333 59013 81621
AAXX 03004 63881 32480 11403 10158 20127 38191 48/// 81500 333 59008 81618
AAXX 03004 63887 32980 00000 10174 20116 38566 48484 333 59011
AAXX 03004 63894 32580 40000 10230 20227 30036 40096 82230 333 59012 82820 84357
AAXX 03004 63932 32580 10000 10134 20118 38293 48494 81500 333 59011 81620
AAXX 03004 63962 32580 10000 10206 20174 38931 48490 81500 333 59023 81620
AAXX 03004 63971 32580 10606 10256 20240 39959 40088 81200 333 55300 59019 81822
AAXX 03004 63791 NIL
AAXX 03004 63866 NIL
AAXX 03004 63870 NIL
AAXX 03004 40250 32960 00000 10014 21068 39420 40226 54002
AAXX 03004 40265 32960 00000 10030 21078 39425 40233 58003
AAXX 03004 40296 32960 00000 10090 20023 40203 52009
AAXX 03004 40310 32960 03007 10024 21075 38973 48516 54001
BBXX 46185 03001 99524 71298 46/// /2906 10082 40369 57007 22200 00080 11302 70012 333 91206
BBXX 46185 03001 99524 71298 46/// /2906 10082 40369 57007 22200 00080 11302 70012 333 91206
AAXX 03001 10637 11971 51501 10000 21010 30043 40185 56001 60001 71211 81031 333 34/// 55300 81363 85072
OOXX AAEMI 03004 99785 31731 57083 00521 46/// /2112 11059 21144 39687 49751 5//// 92340
AAXX 03004 16746 12560 10000 10068 20040 30055 40243 54000 60001 81100 333 90730 91103 555 40000 47570 44175 50000 50056
BBXX ZMFR 03004 99509 31738 43/// /03// 10101 20090 40160 57013 22241 00085
BBXX C6TE3 03004 99498 31461 41297 80245 10070 20070 40062 70200 8/7// 22242 00080 31919 40407 50710
BBXX 3EAT6 03003 99352 31726 41598 60618 10220 20172 40186 56023 70322 84472 22283 00180 20401 302// 40501
AAXX 03004 41506 02694 70000 10080 20036 48510 60002 83440 333 56990 59045 60007 83640 84460
AAXX 03004 41508 22996 40000 10080 20048 48532 60002 84030 333 56090 59029 60007 84360
AAXX 03004 41523 02996 00000 10060 20026 48494 60002 333 56000 59037 60007
AAXX 03004 41535 12997 23102 10060 20038 48481 60002 82030 333 56090 59009 82360
AAXX 03004 41536 12996 00000 10065 20031 48478 60002 333 59041
AAXX 03004 41573 12996 03102 10090 20039 48510 60002 333 59010
AAXX 03004 41600 12996 00000 10115 20095 39812 40114 60002 333 59048 60007
AAXX 03004 41630 11994 00000 10100 20090 40123 60002 71000 333 59039
AAXX 03004 41678 12996 00000 10165 20129 40130 60002 333 59002 60007
AAXX 03004 41696 NIL
AAXX 03004 41697 02996 00000 10156 20128 39954 40114 60002 333 59028 60007
AAXX 03004 41700 11995 00000 10150 20123 39972 40102 60002 70400 333 59043
AAXX 03004 41725 02996 30000 10190 20138 30036 40115 83030 60002 333 56090 59010 60007 83360
AAXX 03004 41746 01995 00000 10175 20158 30087 40143 60002 70500 333 58007 60007
AAXX 03004 41759 12696 80000 10225 20194 30134 40140 60002 87530 333 56990 59009 87630 88360
AAXX 03004 41785 02996 00502 10200 20167 30097 40110 60002 333 59011 60007
AAXX 03001 24790 32984 71201 11418 21437 39396 40342 52009 83031 333 21409 48020 55000
AAXX 03001 24988 32999 03102 11308 21332 39945 40227 52011 333 21321 43005
AAXX 03001 25378 42998 33606 11223 21271 30210 40245 52012 80001 333 91109
AAXX 03001 25503 11698 81202 11388 21411 30142 40289 52003 69900 77072 82537 333 21409 47021 55000
AAXX 03001 25705 11993 52601 11410 21438 39908 40293 52012 69920 74874 80001 333 21398 47058 55000
AAXX 03001 25927 11698 73404 11164 21177 30178 40185 58003 69950 78582 87900 333 21207 48018 55038
AAXX 03001 25932 32999 80906 11127 21147 30162 40202 52009 8807/ 333 21152 42014 55035
AAXX 03001 31152 32998 50000 11332 21363 39879 40335 52010 83032 333 21335 47025 55000
AAXX 03001 31174 11597 72606 11107 21113 30253 40265 53013 69900 78587 87900 333 21109 47007 55022 91111
AAXX 03001 31489 32997 00000 11264 21289 30173 40302 52005 333 21279 47018
AAXX 03001 31866 32699 62607 11129 21184 30278 40284 50016 81244 333 21153 44014
AAXX 03001 31959 32598 82904 11058 21125 30179 40224 58037 83532 333 21153 41998 55088
AAXX 03001 31989 32599 80404 11018 21075 30156 40211 56036 8555/ 333 21059
AAXX 03001 32027 32999 31103 11212 21237 30270 40280 52006 82032 333 21224 48020 91004 91105
AAXX 03001 32076 32999 22803 11158 21185 30274 40285 52008 80001 333 21194 47060 91005 91105
AAXX 03001 32099 32998 03604 11067 21118 30276 40284 52004 333 21069 47005 91005 91108
AAXX 03001 32121 12999 01402 11159 21172 30269 40293 53017 69900 333 21181 47011 91003 91104
AAXX 03001 32213 11596 63207 11020 21026 30146 40210 51008 69930 78582 86500 333 21029 47009 55028
AAXX 03001 32287 12999 61304 11144 21157 30180 40191 52008 69900 82031 333 21140 47061 55031
AAXX 03001 32408 12699 20000 11080 21103 30142 40182 52010 69930 81530 333 21144 48056 55000
AAXX 03001 32509 32999 33205 11042 21126 30146 40181 52018 81031 333 21045 44023 55000
AAXX 03001 32594 11496 71103 11063 21086 30161 40198 51003 69960 78582 87900 333 21055 48008 55000
BBXX ZMFR 03004 99509 31738 43/// /03// 10101 20090 40160 57013 22241 00085
BBXX C6TE3 03004 99498 31461 41297 80245 10070 20070 40062 70200 8/7// 22242 00080 31919 40407 50710
BBXX 3EAT6 03003 99352 31726 41598 60618 10220 20172 40186 56023 70322 84472 22283 00180 20401 302// 40501
BBXX 44039 03001 99411 70727 46/// /2811 10105 21003 40292 90015 22200 00116 10402 70008 333 91214
BBXX 44060 03001 99413 70721 46/// ///08 10097 40280 90015 22200 00122 333 91210 555 11088 22093
BBXX 44030 03001 99432 70704 46/// /3004 1//// 40259 51021 90004 22200 00093 11102 70009 333 91204 555 11043 22045
BBXX 44032 03001 99437 70694 46/30 /2706 10083 40250 52018 90004 22200 00096 333 91208 555 11074 22078
BBXX 44022 03001 99409 70737 46/// ///08 10092 21007 40296 90015 22200 00110 333 91211 555 11082 22088
BBXX 44034 03001 99441 70681 46/30 /1405 10062 40263 52009 90004 22200 00095 11103 70014 333 91206 555 11054 22055
BBXX 44037 03001 99435 70679 46/30 /1304 10067 40266 53008 90004 22200 00094 11103 70015 333 91206 555 11051 22053
BBXX 44040 03001 99410 70736 46/// /3409 10094 21003 40300 90015 22200 10301 70004 333 91212 555 11108 22124
BBXX 42363 03001 99282 70892 46/// /1013 10211 20106 40264 90015 333 91213
BBXX 42364 03001 99291 70881 46/// /0908 10194 20128 40275 90015
BBXX 41036 03001 99342 70770 46/// ///// 10138 20011 40298 90020 22200 00171
BBXX 46088 03001 99483 71232 46/// /0304 10067 40327 90020 22200 00084 1//00 70002 333 91205 555 11038 22040 32328 40205 60019 026038 016040 019042 016041 016041 014044
BBXX 46088 03001 99483 71232 46/// /0304 10067 40327 90020 22200 00084 1//00 70002 333 91205 555 11038 22040 32328 40205 60019 026038 016040 019042 016041 016041 014044
BBXX 46087 03001 99485 71247 46/// /1105 10084 20047 40326 90020 22200 00090 333 91207 555 11056 22059 30006 41108 60019 108053 111055 110050 113048 117045 111044
BBXX NIL
AAXX 03004 40255 32960 00000 10060 21056 39497 40218 52003
AAXX 03004 40260 32960 03404 10034 21111 39424 40216 54002
AAXX 03004 40270 31956 00000 10057 21063 39310 40214 54000 70500
AAXX 03004 40272 32960 00108 10010 21088 39372 40217 57004
AAXX 03004 40290 NIL
AAXX 03004 40340 NIL
BBXX NIL
BBXX NIL
BBXX NIL
BBXX NIL
AAXX 03004 40250 32960 00000 10014 21068 39420 40226 54002
AAXX 03004 40265 32960 00000 10030 21078 39425 40233 58003
AAXX 03004 40296 32960 00000 10090 20023 40203 52009
AAXX 03004 40310 32960 03007 10024 21075 38973 48516 54001
BBXX 51170 03001 99168 71695 46/// ///// 1//// 92348 22200 00268
BBXX 51171 03001 99064 71623 46/// ///// 1//// 92350 22200 00284
BBXX 51174 03001 99142 51697 46/// ///// 1//// 92354 22200 00293
BBXX 52243 03001 99193 11666 46/// ///// 1//// 92354 22200 00272
BBXX 51169 03001 99004 51600 46/// ///// 1//// 92355 22200 00256
BBXX 51178 03001 99142 51695 46/// ///// 1//// 92357 22200 00291
AAXX 03001 38933 419// 23602 10034 20013 39773 40300 58029 70161 80002
AAXX 03001 21432 11997 81707 11311 21340 30142 40163 57008 69902 77073 8802/ 333 21340 48008
AAXX 03001 38838 425// 82303 10038 20028 39615 40300 52010 70282 889//
AAXX 03004 84036 11560 80000 10115 20104 60061 75055 8571/ 333 10202 555 10060 30093
AAXX 03004 84204 31565 83204 10250 20195 70544 8451/ 333 10269 555 30071
AAXX 03004 84202 32565 80402 10232 20206 30167 8565/ 333 10255 58014 555 30085
AAXX 03004 84270 31560 72004 10150 20132 74042 86410 333 10246 555 30089
AAXX 03004 84135 32565 71404 10238 20188 30080 83550 333 10277 58006 555 30074
AAXX 03004 84179 31560 60000 10202 20189 39049 72999 84830 333 10267 59006 555 30093
AAXX 03004 84160 11460 80000 10113 20101 37255 69921 74044 888// 333 10149 59004 555 10002 30092
AAXX 03004 84076 11460 80000 10122 20118 60101 72994 886// 333 10223 555 10097 30097
AAXX 03004 84008 32970 01408 10224 20193 30117 40127 00197 333 10273 58001 555 30081
AAXX 03004 84140 31330 81804 10218 20198 30047 40132 71044 886// 333 10240 58019 555 30088
AAXX 03004 84143 11550 80000 10132 20107 37402 69921 71552 8262/ 333 10191 58000 555 10002 30085
AAXX 03004 84050 11350 81808 10208 20200 69901 71454 887// 333 10238 555 1 T 30095
AAXX 03004 84088 11110 80000 10090 20089 37073 60101 75059 887// 333 10180 58010 555 10096 30099
AAXX 03004 84056 11240 80502 10112 20110 60091 72166 886// 333 10212 555 10086 30099
AAXX 03004 84132 32570 73602 10256 20237 39875 84230 333 10281 58014 555 30089
AAXX 03004 84226 31/00 90000 10094 20094 74744 89/// 333 10154 555 30100
AAXX 03004 84072 11558 80000 10118 20103 37300 60081 72159 8311/ 333 10208 58002 555 10080 30090
AAXX 03004 84045 11/00 90000 10088 20088 60011 76056 89/// 333 10149 555 10011 30100
AAXX 03004 84001 31565 11510 10243 20174 30097 40117 70544 81400 333 10296 58001
AAXX 03004 84010 32980 01510 10228 20186 333 10262
AAXX 03004 84071 11256 80000 10113 20105 37290 47141 60051 76164 8641/ 333 10185 58010 555 10054
AAXX 03004 84123 11556 80202 10122 20103 37298 47132 69931 76162 8652/ 333 10175 58000 555 10003
AAXX 03004 84203 11660 70303 10252 20172 30118 40123 69911 75065 86530 333 10264 58001 555 10001
AAXX 03004 84239 32680 51101 10164 20065 37546 47152 83430 333 10197 58000
AAXX 03004 84252 31562 80603 10241 20203 30127 40135 70544 8452/ 333 10276 58006
OOXX AAKOM 03004 99795 51121 56392 18332 46/// /0219 11158 21197 37765 49654 5//// 92340
AAXX 03004 71462 46/// /2111 10007 21043 30080 51009 6///1 333 7////
AAXX 03004 71464 46/// ///03 10030 30107 40325 53022 6///1 333 10038 20019 7////
AAXX 03004 71010 16/// /3217 11045 21105 60001 333 10007 21045 70000
AAXX 03004 71251 16/// /3314 11019 21072 39286 40226 53029 60001 333 10022 21058 70000
AAXX 03004 71257 16/// /3418 11028 21083 60001 333 10002 21028 70000
AAXX 03004 71258 16/// /3009 11040 21092 60001 333 11005 21040 70000
AAXX 03004 71259 16/// /3219 11032 21084 60001 333 10010 21041 70000
AAXX 03004 71274 16/// /3209 11060 21123 60001 333 10004 21060 70000
AAXX 03004 71275 46/// /3011 11072 21108 6///1 333 10001 21072 7////
AAXX 03004 71278 16/// /3311 11056 21101 60001 333 10011 21057 7////
AAXX 03004 71286 16/// /3110 11063 21108 60001 333 10006 21063 70000
AAXX 03004 71287 16/// /2806 11064 21122 60001 333 10007 21064 70005
AAXX 03004 71289 16/// /3215 11037 21093 60001 333 10008 21037 70000
AAXX 03004 71916 46/// /1703 11346 21377 30104 40162 51008 6///1 333 11272 21346 7////
AAXX 03004 71525 17/// /3216 11020 21044 69941 7//4/ 333 10015 21021 70004
AAXX 03004 71526 16/// /3412 11028 21078 60001 333 10004 21029 70000
AAXX 03004 71535 16/// /3114 11013 21065 60001 333 10033 21031 70005
AAXX 03004 71536 16/// /3404 11028 21087 60001 333 10036 21052 70000
AAXX 03004 71537 16/// /3112 11025 21069 60001 333 10014 21039 70000
AAXX 03004 41883 32930 60000 10200 20180 30063 40084 86030 333 56090 59031 70000 86362
AAXX 03004 41891 31435 30902 10182 20140 30043 40082 70511 81530 333 56990 59034 70000 81615 83365
AAXX 03004 41923 31950 00000 10184 20160 30065 40075 70500 333 59034 70000
AAXX 03004 41936 31910 30000 10178 20170 40079 71041 83030 333 56090 59038 70000 83362
AAXX 03004 41950 31430 30000 10175 20175 30073 40076 70500 83500 333 56900 59302 70000 83618
AAXX 03004 41992 31425 20000 10190 20180 30081 40084 71010 82500 333 56900 59019 70000 82616
AAXX 03004 71214 16/// /3323 11042 21097 60001 333 10014 21042 70000
AAXX 03004 71223 16/// /3321 11044 21101 60001 333 10005 21044 70000
AAXX 03004 71227 46/// /3215 11047 21107 6///1 333 21047 7////
AAXX 03004 71229 46/// /1805 11082 21104 6///1 333 11016 21088 7////
AAXX 03004 71751 46/// /1919 10010 21064 39908 40171 56021 6///1 333 10010 21122 7////
AAXX 03004 71345 16/// /3221 11014 21076 60001 333 10018 21036 70000
AAXX 03004 71683 46/// /3102 11185 39991 40105 51012 6///1 333 11154 21234 7////
AAXX 03004 71351 16/// /3206 11039 21094 60001 333 10013 21039 70000
AAXX 03004 71353 16/// /3310 11040 21096 60001 333 11007 21040 70004
AAXX 03004 71375 46/// /3213 11052 6///1 333 11029 21062 7////
AAXX 03004 71385 46/// /0312 11026 6///1 333 11011 21040 7////
AAXX 03004 40340 32960 00108 10120 20020 40181 54000
AAXX 03004 40340 32960 00108 10120 20020 40181 54000
AAXX 03004 71462 46/// /2111 10007 21043 30080 51009 6///1 333 7////
AAXX 03004 71464 46/// ///03 10030 30107 40325 53022 6///1 333 10038 20019 7////
AAXX 03004 71010 16/// /3217 11045 21105 60001 333 10007 21045 70000
AAXX 03004 71214 16/// /3323 11042 21097 60001 333 10014 21042 70000
AAXX 03004 71223 16/// /3321 11044 21101 60001 333 10005 21044 70000
AAXX 03004 71227 46/// /3215 11047 21107 6///1 333 21047 7////
AAXX 03004 71229 46/// /1805 11082 21104 6///1 333 11016 21088 7////
AAXX 03004 71525 17/// /3216 11020 21044 69941 7//4/ 333 10015 21021 70004
AAXX 03004 71526 16/// /3412 11028 21078 60001 333 10004 21029 70000
AAXX 03004 71535 16/// /3114 11013 21065 60001 333 10033 21031 70005
AAXX 03004 71536 16/// /3404 11028 21087 60001 333 10036 21052 70000
AAXX 03004 71537 16/// /3112 11025 21069 60001 333 10014 21039 70000
AAXX 03004 71683 46/// /3102 11185 39991 40105 51012 6///1 333 11154 21234 7////
AAXX 03004 71751 46/// /1919 10010 21064 39908 40171 56021 6///1 333 10010 21122 7////
AAXX 03004 71345 16/// /3221 11014 21076 60001 333 10018 21036 70000
AAXX 03004 71916 46/// /1703 11346 21377 30104 40162 51008 6///1 333 11272 21346 7////
AAXX 03004 71251 16/// /3314 11019 21072 39286 40226 53029 60001 333 10022 21058 70000
AAXX 03004 71257 16/// /3418 11028 21083 60001 333 10002 21028 70000
AAXX 03004 71258 16/// /3009 11040 21092 60001 333 11005 21040 70000
AAXX 03004 71259 16/// /3219 11032 21084 60001 333 10010 21041 70000
AAXX 03004 71274 16/// /3209 11060 21123 60001 333 10004 21060 70000
AAXX 03004 71275 46/// /3011 11072 21108 6///1 333 10001 21072 7////
AAXX 03004 71278 16/// /3311 11056 21101 60001 333 10011 21057 7////
AAXX 03004 71286 16/// /3110 11063 21108 60001 333 10006 21063 70000
AAXX 03004 71287 16/// /2806 11064 21122 60001 333 10007 21064 70005
AAXX 03004 71289 16/// /3215 11037 21093 60001 333 10008 21037 70000
AAXX 03004 71351 16/// /3206 11039 21094 60001 333 10013 21039 70000
AAXX 03004 71353 16/// /3310 11040 21096 60001 333 11007 21040 70004
AAXX 03004 71375 46/// /3213 11052 6///1 333 11029 21062 7////
AAXX 03004 71385 46/// /0312 11026 6///1 333 11011 21040 7////
BBXX 3FBC9 03004 99323 11535 41798 60832 10190 40185 51015 70322 85456 9//// 22223 00230 20309 306// 40310 5//// 6//// 80170
BBXX A8CN8 03000 99486 11699 41298 83424 10040 20029 40005 53015 72822 83723 22224 06055 20404 331// 40510 5//// 80035
BBXX DASO 03003 99311 11739 41397 83225 10210 20195 40150 52020 76366 887// 22263 00210 20806 327// 40606 5//// 80200
BBXX SHIP 03004 99411 11787 41498 92622 10130 20074 40083 54000 70222 886// 92355 22223 00160 20704 318// 41006 80100
BBXX SHJC 03001 99334 11622 43/98 70511 10170 40254 53031 22263 00223 2//// 4////
BBXX V2AN5 03001 99471 11542 41597 62710 10039 21031 40274 58011 70122 85470 22214 20403 327// 40607 5//// 80012
AAXX 03001 51711 32980 42701 11049 21070 37969 57003 80002 333 05101
AAXX 03001 51730 32975 70701 11055 21066 40204 52002 80002 333 05252
AAXX 03001 52112 32980 10000 11058 21104 40232 52006 80002 333 05300
AAXX 03001 52737 32980 50000 11121 21227 37040 52011 80002 333 05453
AAXX 03001 52787 32980 71603 11057 21150 36961 52001 80002 333 05402
AAXX 03001 53352 32980 01102 11239 21269 40380 52002 333 00065
AAXX 03001 53593 32975 02501 11125 21151 40312 52014 333 00459 70004 92502
AAXX 03001 53705 32962 80904 11029 21039 40214 52001 8807/ 333 05201 31014
AAXX 03001 53863 31/00 93401 11068 21075 40309 52019 74944 333 00351 30002 92503
AAXX 03001 53975 31950 02501 11029 21054 40272 52014 71000 333 00251 31017
AAXX 03001 54273 32962 70701 11145 21170 40247 52008 80002 333 05506 31012 92516
AAXX 03001 54324 32962 01801 11112 21129 40276 52020 333 00251
AAXX 03001 54405 32970 01102 11085 21149 40292 52015 333 00456 70001
AAXX 03001 54436 32970 02501 11062 21073 40276 52021 333 00200 79999
AAXX 03001 54808 31906 00000 11025 21030 40271 52019 74440 333 00352 31012
AAXX 03001 54826 32980 00208 11056 21095 38460 52019 333 00202 92501
AAXX 03001 54836 32960 02701 11025 21045 40267 52019 333 00101 31043
AAXX 03001 54863 31556 62502 10019 21007 40232 52019 71000 86500 333 05102 31004
AAXX 03001 56018 32980 21802 11117 21175 36148 57002 80002 333 05704
AAXX 03001 56021 32980 70000 11106 21181 36045 52002 8701/ 333 05507
AAXX 03001 57071 31912 81801 10013 20000 40264 52017 72844 8807/ 333 00302 30015
AAXX 03001 47008 11460 80000 11004 21022 30170 40225 58009 69912 77772 886// 333 21012
AAXX 03001 47014 31540 80000 11050 21078 39815 40229 53016 71044 886// 333 21080
AAXX 03001 47016 11560 60000 11048 21101 39331 40215 57012 69902 77377 86500 333 21054
AAXX 03001 47020 11560 80000 11018 21030 39829 40216 54000 60012 77177 8802/ 333 21025
AAXX 03001 47025 11567 83403 10008 20003 30181 40211 58017 69932 70372 86500 333 21005
AAXX 03001 47035 32970 40000 10026 21030 30193 40202 52003 84030 333 20010
AAXX 03001 47041 12570 60000 10024 20003 30160 40188 57020 69902 83502 333 20015
AAXX 03001 47055 11560 80000 10006 20006 30154 40201 53005 60122 77377 8802/ 333 20002
AAXX 03001 47058 12560 80000 10028 20015 30146 40193 54000 69902 885// 333 20023
AAXX 03001 47069 32965 60000 10033 20012 30086 40186 53012 80001 333 20013
AAXX 03001 47090 11530 83206 10048 20036 30141 40163 55002 60192 76166 8672/ 333 20043 31005 92052
AAXX 03001 47095 11570 83403 10016 20008 39987 40179 52004 60082 76176 8672/ 333 20004 31003
AAXX 03001 47097 129// /0202 10037 20025 30071 40168 52007 60092 333 20034 3/006
AAXX 03001 47098 129// /3603 10024 20015 30033 40169 52006 60072 333 20017 3/005
AAXX 03001 47099 129// /3603 10036 20034 30138 40175 52008 60022 333 20031 3/005
AAXX 03001 47100 11215 82502 10005 21006 39236 40160 53002 60062 77177 8672/ 333 20004 3/000 49036
AAXX 03001 47102 11673 60502 10045 20013 30007 40186 52013 69902 72162 85501 333 20043 31004
AAXX 03001 47104 11565 82705 10050 20033 30056 40154 51002 60232 76166 8672/ 333 20047 32005
AAXX 03001 47106 129// /3210 10055 20036 30091 40140 51002 60112 333 20048 3/006
AAXX 03001 47112 12670 53607 10045 20028 30086 40170 52009 69912 82501 333 20042 31005 92012
AAXX 03001 47114 11562 82002 10019 20002 39986 40171 52017 60082 76166 8672/ 333 20019 31004
AAXX 03001 47119 12670 53204 10052 20038 30125 40167 52011 60052 85500 333 20047 31004
AAXX 03001 47121 129// /2704 10035 20018 39867 40162 52015 60042 333 20034 3/004
AAXX 03001 47127 129// /3402 10029 20012 30028 40171 52012 60112 333 20029 3/004
AAXX 03001 47129 12662 73603 10064 20053 30138 40174 52014 60022 87500 333 20055 31008
AAXX 03001 47130 11570 82709 10068 20060 30066 40127 54000 60092 76062 8672/ 333 20058 31007 92043
AAXX 03001 47131 11565 83603 10049 20038 30092 40163 52007 60122 76062 8552/ 333 20045 31007
AAXX 03001 47135 129// /2511 10039 20024 39860 40160 52014 60122 333 20038 3/005
AAXX 03001 47136 11557 82906 10050 20039 39976 40148 52015 60082 76166 8572/ 333 20050 31006
AAXX 03001 47137 129// /2705 10047 20046 30038 40157 52017 60092 333 20046 3/006
AAXX 03001 47140 12668 60503 10059 20040 30136 40165 52013 60012 85500 333 20057 31007 92012
AAXX 03001 47143 11550 82706 10069 20050 30074 40153 52013 60082 76166 8672/ 333 20066 32007
AAXX 03001 47145 11668 62905 10054 20041 30134 40160 52010 60052 72162 86500 333 20049 31006
AAXX 03001 47146 11663 83603 10062 20049 30093 40159 52013 60042 72162 8552/ 333 20059 31009
AAXX 03001 47150 12670 63606 10055 20041 30146 40165 52016 60022 85500 333 20050 31006
AAXX 03001 47152 11570 83603 10081 20071 30082 40124 52015 60102 76066 8572/ 333 20081 31009
AAXX 03001 47154 129// /2907 10058 20036 30094 40154 52016 60112 333 20058 3/007
AAXX 03001 47155 11672 71103 10089 20056 30091 40136 52016 60032 72162 85530 333 20074 31009
AAXX 03001 47156 12665 80000 10072 20064 30069 40158 52010 60012 8552/ 333 20062 31008
AAXX 03001 47157 12670 70502 10060 20044 39867 40136 52009 60032 87500 333 20051 31008
AAXX 03001 47162 12575 60702 10088 20070 30096 40136 52017 60032 85500 333 20074 31009 92021
AAXX 03001 47169 12680 70209 10097 20067 30056 40148 52007 60032 87500 333 20074 31009 92033
AAXX 03001 47170 12673 21803 10089 20066 30111 40154 52011 69922 82500 333 20061 31008 92021
AAXX 03001 47171 129// /0502 10064 20051 30105 40160 52011 60032 333 20063 3/008
AAXX 03001 47172 129// /3606 10071 20050 30087 40153 52010 60012 333 20068 3/009
AAXX 03001 47173 129// /0000 10068 20057 30043 40154 52010 60022 333 20058 3/008
AAXX 03001 47174 12665 52906 10077 20053 39945 40145 50008 69952 85500 333 20063 31007
AAXX 03001 47175 11558 53407 10059 20051 39581 40151 51007 60012 71062 85500 333 20046 31008 92022
AAXX 03001 47185 11670 72923 10124 20057 30066 40155 52010 60022 72162 87500 333 20100 31010 92046
AAXX 03001 47188 12670 53609 10111 20068 30129 40150 50016 69962 85500 333 20092 31009 92032
AAXX 03001 47189 12670 23206 10125 20056 30089 40148 52017 60012 82500 333 20101 31010 92032
AAXX 03001 47192 12672 61401 10090 20059 30105 40142 52013 60012 85500 333 20066 31009
AAXX 03001 47003 32580 83601 11028 21062 30216 40220 57013 87502 333 21041
AAXX 03001 47005 11560 81801 11071 21084 38570 57005 69912 77177 885// 333 21106
AAXX 03001 47022 12775 80000 11060 21068 38819 53006 69902 86032 333 21064
AAXX 03001 47028 32665 31801 11010 21025 30102 40199 53003 83500 333 21015
AAXX 03001 47031 11570 70000 11056 21063 38904 54000 60012 72272 87500 333 21058
AAXX 03001 47037 32970 20000 11002 21026 30083 40209 53012 82030 333 21065
AAXX 03001 47039 11556 80000 10007 21013 30009 40203 52002 60012 77177 8802/ 333 20003
AAXX 03001 47046 12969 80502 10030 21025 30165 40188 57008 69902 83032 333 20028
AAXX 03001 47050 11565 80701 10023 20004 30210 40244 52004 69902 70162 885// 333 20020
AAXX 03001 47052 11565 80000 10007 20001 39857 40200 52011 60032 70327 885// 333 20005
AAXX 03001 47060 31550 50000 10020 20017 30125 40184 54000 71022 85501 333 20013
AAXX 03001 47061 11650 83201 10029 20024 30148 40192 52003 60222 76366 8802/ 333 20025
AAXX 03001 47065 31/01 90000 11002 21017 30124 40190 53006 74344 333 21012
AAXX 03001 47067 11550 83601 10022 20012 30079 40201 52005 60032 71022 885// 333 20015
AAXX 03001 47068 32560 80000 10009 21008 30147 40183 53008 82502 333 21001
AAXX 03001 47070 12580 80000 10039 20027 30092 40180 54000 69932 885// 333 20029
AAXX 03001 47075 11560 83601 10008 21003 39665 40095 52008 60072 77177 8802/ 333 21001
AAXX 03001 47101 11560 82701 10034 20019 30083 40180 52015 60082 76166 8672/ 333 20033 31003
AAXX 03001 47105 169// /2704 10050 20038 30122 40154 53001 60262 333 20041 3/006
AAXX 03001 47108 12663 60001 10042 20020 30062 40168 52006 60052 82530 333 20038 31005
AAXX 03001 47115 11462 80719 10070 20062 39847 40116 57004 60102 76166 8672/ 333 20064 31006 92055
AAXX 03001 47133 11563 70001 10055 20046 30081 40166 51011 60082 72162 87500 333 20051 31008
AAXX 03001 47138 11565 82505 10080 20073 30125 40128 52014 60222 76166 8672/ 333 20079 32008 92042
AAXX 03001 47159 11561 83414 10076 20057 30039 40124 52012 60052 76066 8572/ 333 20075 31008 92024
AAXX 03001 47165 12962 60001 10075 20053 30108 40155 52009 69952 85030 333 20054 31009 92021
AAXX 03001 47168 12680 23414 10090 20036 30059 40137 52010 69922 82500 333 20082 31009 92024
AAXX 03001 47184 11565 83210 10112 20073 30134 40159 52015 60022 76062 8572/ 333 20107 31010 92043
AAXX 03003 42071 31995 00000 10108 20096 40109 71000 333 59044
AAXX 03004 42027 31995 00000 10012 21002 38403 48493 71000 333 59064
AAXX 03004 42101 31995 02702 10138 20123 40109 70500 333 59035
AAXX 03004 42111 31996 00501 10118 20095 39317 40101 70500 333 59055
AAXX 03004 42131 32996 00000 10134 20119 40110 333 59031
AAXX 03004 42165 32996 00000 10198 20078 40099 333 59035
AAXX 03004 42182 31994 02303 10154 20140 40100 71000 333 59042
AAXX 03004 42328 32996 10501 10194 20101 40100 81030 333 59030 81360
AAXX 03004 42339 31995 00000 10178 20055 40108 70500 333 59028
AAXX 03004 42348 31995 00000 10148 20126 40112 70400 333 58031
AAXX 03004 42369 31994 09902 10150 20139 40097 71000 333 59037
AAXX 03004 42379 31995 00000 10152 20130 40083 71000 333 59039
AAXX 03004 42452 32996 20000 10166 20110 40109 80001 333 59029
AAXX 03004 42071 NIL
AAXX 03004 42189 NIL
AAXX 03004 42260 NIL
AAXX 03004 42361 NIL
AAXX 03004 42475 NIL
AAXX 03004 68513 36/// /1314 10142 20100 30042 40155 58007 333 10232 20141 91019 555 91015
AAXX 03004 68514 NIL
AAXX 03004 68523 36/// /1710 10186 20075 39116 48527 57001 333 10308 20181 91015 555 91018
AAXX 03004 68527 36/// /0702 10208 20068 39068 48510 57002 333 10320 20208 91004 555 91015
AAXX 03004 68572 16/// /1103 10121 20111 38401 48511 56001 69963 333 10223 20120 91006 555 20006 91020
AAXX 03004 68575 16/// /1705 10142 20127 39103 48518 58001 69943 333 10223 20142 91010 555 20004 69925 91018
AAXX 03004 68581 36/// /1202 10166 20153 39380 48519 57007 333 10240 20166 91004 555 91016
AAXX 03004 68583 16/// /2003 10201 20173 30032 40142 58003 60013 333 10269 20201 91009 555 20014 91014
AAXX 03004 68589 16/// /0203 10127 20119 38250 48513 58003 69983 333 10236 20126 91005 555 20008 69925 91020
AAXX 03004 68613 36/// /1907 10135 20092 30058 40176 58005 333 10235 20135 91010 555 91017
AAXX 03004 68647 36/// /1504 10136 20111 38942 48532 52007 333 10240 20136 91006 555 91020
AAXX 03004 68651 16/// /1608 10112 20101 38582 48542 53001 60013 333 10192 20112 91011 555 20010 69925 91023
AAXX 03004 68715 36/// /1903 10161 20098 30060 40189 57005 333 10291 20159 91006 555 91018
AAXX 03004 68717 36/// /3502 10142 20094 30026 40172 57005 333 10309 20141 91004 555 91017
AAXX 03004 68723 36/// /2004 10141 20079 39438 48549 51000 333 10289 20141 91008 555 91020
AAXX 03004 68737 36/// /1303 10149 20095 39283 48544 52002 333 10240 20147 91004 555 91020
AAXX 03004 68744 36/// /1510 10131 20095 39128 48529 52003 333 10245 20131 91014 555 91019
AAXX 03004 68747 36/// /3205 10159 20134 39655 48552 51001 333 10239 20159 91006 555 91019
AAXX 03004 68754 36/// /2504 10124 20108 39165 48537 58002 333 10234 20124 91007 555 91020
AAXX 03004 68817 36/// /1717 10184 20106 30176 40189 58005 333 10263 20182 91029 555 91018
AAXX 03004 68821 36/// /1206 10147 20093 39961 40204 57005 333 10286 20146 91009 555 91020
AAXX 03004 68835 36/// /3003 10165 20147 30080 40195 55000 333 10245 20162 91005 555 91019
AAXX 03004 68843 16/// /2704 10162 20142 30074 40174 58002 69923 333 10216 20160 91006 555 20002 91017
AAXX 03004 68849 36/// /3107 10130 20114 39440 48533 50000 333 10194 20129 91009 555 91019
AAXX 03004 68912 36/// /1313 10167 20123 30197 40206 58001 333 10195 20149 91018 555 91020
AAXX 03004 68918 36/// /0805 10151 20126 30201 40220 57005 333 10195 20150 91006 555 91022
AAXX 03004 68921 36/// /1811 10167 20138 30214 40217 57003 333 10233 20167 91018 555 91021
AAXX 03004 68925 36/// /0000 10118 20090 39843 40215 58004 333 10232 20116 91004 555 91021
AAXX 03004 68926 36/// /2502 10164 20124 30031 40212 57002 333 10275 20164 91002 555 91021
AAXX 03004 68935 16/// /2804 10167 20127 30141 40205 58001 69963 333 10235 20166 91007 555 20006 91020
AAXX 03004 68514 NIL
AAXX 03004 07650 01111 50000 10109 20100 30152 40191 51004 60021 71062 81630 333 60027 81702 84360 90710 91103 93100 555 60005
AAXX 03001 37832 4297 0000 10013 21025 30148 40234 56003 555 10103
AAXX 03001 37735 42697 52902 10032 21055 39806 40188 58005 82902 555 10101
AAXX 03001 37729 42597 62502 11044 21051 38557 52004 86500
AAXX 03001 37470 42596 83003 10050 21019 30256 40233 53010 885// 37472 42997 73003 10022 21021 30271 40247 52016 83081
AAXX 03001 38111 42997 80000 10016 20002 30258 40229 57006 8802/ 555 11001
AAXX 03001 38750 42997 00502 10018 21001 30243 40214 57014 555 10001
AAXX 03001 50548 32980 00000 11265 21297 40310 52005 333 00051
AAXX 03001 50564 31930 72201 11199 21216 40302 52002 70400 80002 333 00002
AAXX 03001 51334 32668 81101 10012 21009 40227 52009 885// 333 05201 30001
AAXX 03001 51818 32965 73201 11031 21071 40171 52004 80002 333 05300
AAXX 03001 52378 32980 80901 11094 21140 40263 52014 80007 333 05301
AAXX 03001 53487 32965 03203 11142 21180 40318 52008 333 00360 70002
AAXX 03001 53502 32980 73601 11093 21106 40261 52008 80002 333 05255
AAXX 03001 53923 31970 82003 11020 21027 40233 52007 70040 8807/ 333 00100 31022
AAXX 03001 54049 32970 23402 11113 21162 40257 52014 80002 333 05100
AAXX 03001 54115 32680 52903 11132 21179 40298 52008 82502 333 00256 79999
AAXX 03001 54157 32963 73601 11076 21153 40252 52014 80002 333 05203 92503
AAXX 03001 54186 32660 22901 11130 21162 40248 57001 82500 333 05608 92509
AAXX 03001 54311 32980 03603 11139 21184 40299 52011 333 00355
AAXX 03001 54346 11958 83601 11038 21113 40237 52016 69901 72270 8802/ 333 05204 31036 79999
AAXX 03001 54377 11960 60202 11021 21031 40220 52004 69941 70070 80002 333 05708 31022 70004 92504
AAXX 03001 54386 11565 70000 11051 21078 40207 57002 69911 77070 83502 333 05912 31048 70001 92500
AAXX 03001 54493 32962 32201 11022 21036 40214 52008 83030 333 05505 31021
AAXX 03001 54587 NIL
AAXX 03001 54715 31/00 92501 11044 21054 40275 52024 74540 333 00300 31030 92503
AAXX 03001 54929 31956 02901 11015 21037 40264 52021 71000 333 00100 31010
AAXX 03001 54945 32960 03205 10015 21044 40253 52017 333 00101 31015
AAXX 03001 56065 32980 60000 11122 21146 36568 52005 80002 333 05404
AAXX 03001 57193 31909 03201 11005 21021 40273 52023 74600 333 00452 31003
AAXX 03001 57290 31958 83401 10014 21002 40269 52021 71000 8807/ 333 00402 30001
AAXX 03004 68174 36/// /0304 10192 20153 38773 48497 57010 333 10277 20192 91006 555 91016
AAXX 03004 68191 16/// /1609 10210 20180 39631 48526 52007 69963 333 10373 20210 91015 555 20006 91013
AAXX 03004 68242 36/// /3604 10198 20121 38703 48484 58003 333 10308 20195 91006 555 91015
AAXX 03004 68262 36/// /0000 10186 20143 38688 48495 58004 333 10292 20185 91002 555 91016
AAXX 03004 68263 32880 10000 10187 20116 38473 48498 58005 81030 333 10264 20183 91002 555 91018
AAXX 03004 68267 36/// ///// 1//// 2//// 3//// 4//// 5//// 333 1//// 2//// 555
AAXX 03004 68289 36/// /0403 10195 20167 39146 48516 57006 333 10283 20194 91004 555 91016
AAXX 03004 68350 36/// /0305 10165 20130 38647 48496 58002 333 10334 20151 91008 555 91017
AAXX 03004 68368 43970 23504 10190 20122 38312 48507 57009 82070 555 91019
AAXX 03004 68403 36/// /1818 10145 20115 30137 40170 57006 333 10223 20145 91023 555 91017
AAXX 03004 68424 36/// /1906 10211 20039 39183 48508 52002 333 10346 20206 91010 555 91014
AAXX 03004 68438 16/// /1908 10143 20069 38804 48493 56001 69923 333 10320 20140 91010 555 20002 91016
AAXX 03004 68442 36/// /1808 10140 20100 38647 48497 53001 333 10274 20127 91011 555 91017
AAXX 03004 68461 36/// /1106 10138 20122 38306 48493 58001 333 10253 20109 91010 555 91018
AAXX 03004 68512 36/// /1211 10158 20012 39027 48519 57012 333 10274 20149 91016 555 91018
AAXX 03004 68538 36/// /1409 10148 20087 38725 48506 53002 333 10291 20148 91013 555 91018
AAXX 03004 68587 16/// /2408 10195 20162 30138 40151 52002 69943 333 10241 20194 91015 555 20004 91015
AAXX 03004 68588 16/// /1707 10200 20179 30139 40155 50000 60013 333 10266 20198 91012 555 20010 69925 91015
AAXX 03004 68591 16/// /2407 10201 20175 39980 40160 54000 69983 333 10253 20200 91011 555 20008 91016
AAXX 03004 68592 NIL
AAXX 03004 68618 36/// /0203 10157 20080 39075 48535 53001 333 10282 20157 91005 555 91020
AAXX 03004 68633 36/// /1517 10116 20090 38511 48505 52001 333 10270 20116 91026 555 91019
AAXX 03004 68668 16/// /2005 10149 20117 39318 48531 57004 60013 333 10243 20149 91009 555 20012 91018
AAXX 03004 68714 36/// /1709 10149 20097 30146 40183 57002 333 10252 20148 91014 555 91018
AAXX 03004 68727 36/// /0206 10141 20095 39156 48530 51003 333 10252 20141 91008 555 91019
AAXX 03004 68752 36/// /2608 10147 20130 39495 48537 58002 333 10218 20143 91010 555 91018
AAXX 03004 68816 32580 11513 10166 20101 30147 40202 57005 81500 555 91020
AAXX 03004 68828 13570 /3005 10151 20139 39973 40208 56004 60001
AAXX 03004 68842 11256 71809 10162 20141 30117 40188 53001 60023 75365 876// 555 91018
AAXX 03004 68858 NIL
AAXX 03004 68906 32598 50406 10151 20117 30183 40248 58004 84570 333 10208 20151 91012 555 91024
AAXX 03004 68994 11597 81619 10056 20045 39997 40026 57010 60013 72166 885// 333 10087 20053 91027 555 20014 60145 91002
AAXX 03004 89004 36/// /0807 11173 21188 38802 49848 53001 333 11088 21174 91008 555
BBXX 46206 03001 99488 71260 46/// /3212 10093 40321 57003 22200 00099 10808 70039 333 91214
BBXX 46206 03001 99488 71260 46/// /3212 10093 40321 57003 22200 00099 10808 70039 333 91214
AAXX 03004 68592 NIL
AAXX 03004 68858 NIL
AAXX 03001 50658 31950 83402 11127 21169 40263 52001 70400 80007 333 05307 92503
AAXX 03001 50888 31956 72901 11138 21176 40266 57001 70400 8703/ 333 05501
AAXX 03001 50983 32970 70202 11140 21188 40261 57010 85032 333 05703 92501
AAXX 03001 51053 11960 80000 11040 21054 40238 54000 60021 77077 8802/ 333 05301 30000 70030 92511
AAXX 03001 51542 32680 70707 11108 21136 37518 57001 81502 333 05302
AAXX 03001 52436 11980 80902 11043 21043 38443 40210 52003 60011 70070 8802/ 333 05102 31031 70010 92502
AAXX 03001 52908 32680 62702 11081 21172 35733 54000 82502 333 05301
AAXX 03001 52996 31/00 91406 11054 21054 37504 57001 74944 333 05451 31041
AAXX 03001 53083 32980 70000 11271 21299 40379 52006 80002 333 00159
AAXX 03001 53764 32968 03203 11075 21103 40291 52015 333 00256 31006 92502
AAXX 03001 53787 31959 00201 11103 21116 40292 52011 71000 333 00253 31048 92508
AAXX 03001 54096 32662 83402 11130 21167 40253 57007 85507 333 05605 92504
AAXX 03001 54226 32970 43202 11087 21141 40280 52015 80002 333 00203
AAXX 03001 54259 32662 71101 11088 21115 40242 52013 875// 333 05408 31026 92509
AAXX 03001 54527 31/08 93602 11016 21029 40272 52021 74340 333 00200 31038 79999
AAXX 03001 54534 31/01 92902 11022 21022 40264 52020 74544 333 00201 31005 70006
AAXX 03001 45032 36/// /0001 10090 20026 30186 40203 52001
AAXX 03001 45035 36/// /0803 10115 20040 30159 40202 54000
AAXX 03001 45039 36/// /0202 10115 20031 30181 40197 57001
AAXX 03001 45044 36/// /0007 10118 20060 30089 40185 57002
AAXX 03001 45032 36/// /0001 10090 20026 30186 40203 52001
AAXX 03001 45035 36/// /0803 10115 20040 30159 40202 54000
AAXX 03001 45039 36/// /0202 10115 20031 30181 40197 57001
AAXX 03001 45044 36/// /0007 10118 20060 30089 40185 57002
BBXX 46205 03001 99542 71343 46/// /2709 10078 40351 54000 22200 00076 11108 70038 333 91211
AAXX 03004 42559 32996 00000 10134 20101 40129 333 59027
AAXX 03004 42571 31996 00000 10132 20113 40107 70500 333 59025
AAXX 03004 42667 31996 00000 10142 20102 39509 40110 70500 333 59020
AAXX 03004 42675 31995 00000 10130 20107 40115 70500 333 59021
AAXX 03004 42754 32996 10160 20094 39460 40108 333 59016
AAXX 03004 42779 32996 00000 10140 20115 39403 40118 333 59019
AAXX 03004 42867 31995 03603 10156 20107 40102 70500 333 59021
AAXX 03004 42874 31996 00000 10164 20147 40098 70500 333 59023
AAXX 03004 42933 32996 30000 10150 20096 40101 80002 333 59021 83075
AAXX 03004 43041 31995 00000 10140 20122 39472 40107 71000 333 59024
BBXX 46205 03001 99542 71343 46/// /2709 10078 40351 54000 22200 00076 11108 70038 333 91211
AAXX 03004 41184 32960 02202 10165 20141 40145 333 59014
AAXX 03004 41194 12960 02103 10200 20138 30144 40149 60001 333 59020 70000
AAXX 03004 41196 32960 01304 10128 20104 30112 40152 333 59017
AAXX 03004 41198 32960 03107 10206 20141 40140 333 59015
AAXX 03004 41217 32960 03206 10202 20151 30115 40144 333 59021
AAXX 03004 41218 31957 00207 10150 20122 39842 40155 70500 333 59021
AAXX 03004 83096 32695 30905 10278 20230 30096 40103 83100 333 10299 29075 55/// 59022
AAXX 03004 83186 32998 60000 10249 20194 39567 40094 80006 333 10304 29070 55038 58000
AAXX 03004 83236 21598 62702 10239 20219 39592 40080 75022 84520 333 10307 29/// 55065 59020 69941
AAXX 03004 83288 32495 81403 10237 20220 39600 40091 86402 333 10305 29084 55060 54028
AAXX 03004 83344 32496 80902 10213 20198 39152 40103 886// 333 10207 29083 55043 59009
AAXX 03004 89020 46/// /2104 11143 21169 39798 49834 52003 92330
AAXX 03004 89087 46/// /9901 11216 21258 38030 49812 52004
BBXX ZQCP3 03003 99221 11176 41/97 /0422 10185 20142 40161 53025 7//22 8/770 22263 00250 20302 305// 40506 5//// 80160
BBXX A8HD5 03001 99044 10992 41397 32104 10265 20244 40100 52010 70300 82104 2227/ 04270 20401 3//// 4//// 5//// 80250
AAXX 03001 30499 32999 20000 11325 21336 39623 40367 52007 82030 333 21328 47014
AAXX 03001 30683 32998 80000 11280 21298 39622 40343 52002 85044 333 21285 47009
AAXX 03001 30695 32999 83601 11288 21312 39967 40344 51006 84079 333 21316 47011
AAXX 03001 31253 32999 00000 11308 21332 39839 40356 53005 333 21311 55053
AAXX 03001 31295 32998 30202 11279 21297 39833 40341 53002 83040 333 21290 47007
AAXX 03001 31348 32999 00000 11307 21312 30100 40320 52002 333 21323 47020
AAXX 03001 31418 32999 00000 11232 21250 30027 40306 52007 333 21252
AAXX 03001 31439 32999 00000 11236 21255 30247 40296 52003 333 21268 47007
AAXX 03001 31442 32999 80000 11302 21332 39930 40328 54000 80001 333 21311 47007
AAXX 03001 31445 32998 80000 11299 21324 30030 40316 53001 82031 333 21311 47007
AAXX 03001 31474 32999 00000 11302 21332 39804 40356 58003 333 21320 47012
AAXX 03001 31521 32981 60000 11265 21284 39982 40310 54000 83075 333 21275 47012
AAXX 03001 31527 32998 80000 11219 21245 39964 40293 53001 85031 333 21244 47011
AAXX 03001 31534 32998 60000 11222 21235 39938 40313 53002 80002 333 21227
AAXX 03001 31587 32997 80000 11226 21238 30139 40298 53004 8802/ 333 21244 47015
AAXX 03001 31632 NIL
AAXX 03001 31702 32998 50301 11189 21215 39928 40290 53003 80001 333 21204 47020
AAXX 03001 31713 32998 20000 11214 21220 30187 40294 53010 81039 333 21233 47013
AAXX 03001 31725 32998 00202 11196 21208 30214 40286 53019 333 21220
AAXX 03001 31801 32998 80000 11237 21256 30056 40307 51009 80007 333 21253
AAXX 03004 88900 46/// /2413 10022 20006 30009 40012 52015 333 10036 20014
BBXX ZDLP 03003 99574 50567 41297 82820 10025 20020 40062 53001 70222 886// 22241 04013 20704 32529 41006 50602 80023
BBXX ZCDG4 03004 99123 70724 41497 33515 10274 20247 40112 53006 70200 812/7 22255 00300 20101 306// 40403 5////
BBXX ZCDF4 03003 99113 70749 41698 50432 10284 20256 40096 53010 70211 8346/ 22214 00290 20503 336// 40804 5//// 80264
BBXX A8IY4 03001 99419 70353 41398 72307 10170 20128 40350 51010 7//22 86710 22214 04166 20504 80145
BBXX DGTX 03003 99085 70845 41/98 /2409 10265 20237 40100 54000 70300 8//// 22274 00290 2//// 80245
AAXX 03004 82141 32797 43606 10276 20242 30080 40092 84030 333 10301 29082 55060 59015
AAXX 03004 82145 32895 80000 10260 20227 30055 40096 8801/ 333 10328 29076 55064 59010
AAXX 03004 82181 32497 60504 10299 20240 39974 40113 86200 333 10330 29066 55095 58000
AAXX 03004 82198 32492 10706 10263 20229 30057 40108 81100 333 10327 29074 55034 59007
AAXX 03004 82353 32996 00000 10293 20247 39965 40049 333 10354 29075 55089 59010
AAXX 03004 82361 32496 00000 10286 20252 30055 40092 333 10333 29078 55051 59015
AAXX 03004 82861 32697 23606 10279 20236 39887 40055 82030 333 10336 29075 55098 59027
AAXX 03004 83766 32997 01406 10230 20156 39467 40107 5//// 333 10306 29060 55091
AAXX 03004 83836 32997 00909 10162 20135 39147 40118 51013 333 10252 29078 55053
AAXX 03004 83881 32997 01402 10196 20138 39828 40112 54000 333 10286 29060 55121
AAXX 03004 83980 32997 01406 10190 20071 39862 40144 53001 333 10242 29048 55111
AAXX 03004 83997 32997 01402 10150 20129 30150 40194 51008 333 10210 29073 55111
AAXX 03004 83811 32997 01406 10178 20139 39218 40118 55005 333 10285 29069 55073
AAXX 03004 83844 32597 823// 10194 20172 30146 40153 52010 8572/ 333 10214 29083 55///
AAXX 03004 83887 32997 10902 10172 20101 39087 40133 52016 81060 333 10245 29056 55110
AAXX 03004 83907 32997 01405 10222 20127 39851 40133 53009 333 10285 29049 55120
AAXX 03004 83914 31996 01411 10188 20082 39355 40124 52002 70500 333 10264 29/// 55///
AAXX 03004 83919 31896 31412 10126 20105 38977 40162 52010 71010 83030 333 10226 29064 55115
AAXX 03004 83927 32997 00902 10254 20104 30042 40116 52002 333 10282 29046 55116
AAXX 03004 83936 32997 00901 10194 20119 30022 40144 54000 333 10262 29054 55124
AAXX 03004 83948 31596 80502 10194 20168 30158 40164 51010 71011 888// 333 10235 29075 55117
AAXX 03004 83964 32997 01402 10162 20105 39664 40158 52010 333 10247 29051 55120
AAXX 03004 83995 32997 01408 10176 20107 30167 40170 53010 333 10218 29068 55///
AAXX 03004 82098 21496 80505 10270 20245 30073 40090 70352 8487/ 333 10330 29078 55085 59007 69941
AAXX 03004 82246 32997 00000 10271 20252 39895 40092 333 10319 29087 55073 59005
AAXX 03004 82445 32997 20000 10294 20266 30047 40099 80006 333 10340 29080 55093 59007
AAXX 03004 82460 32595 63603 10273 20238 30064 40093 83500 333 10350 29073 55044 59001
AAXX 03004 82562 32995 00902 10276 20228 39955 40062 333 10337 29071 55083 59025
AAXX 03004 82571 31497 72301 10272 20243 39912 40085 71321 87500 333 10319 29078 55014 59013
AAXX 03004 82765 31598 20503 10256 20238 39880 40119 70092 82100 333 10321 29084 55083 59024
AAXX 03004 82979 32693 24000 10259 20202 39629 40070 82050 333 10334 29060 55113 59013
AAXX 03004 83179 32594 40503 10281 20169 39628 40068 84200 333 10350 29051 55091 59005
AAXX 03004 83192 32995 01304 10258 20192 39962 40125 333 10345 29055 55077 58001
AAXX 03004 83339 24095 20000 10213 20206 39137 40097 74022 82000 333 10262 29091 55027 59016
AAXX 03004 83498 21595 83603 10259 20249 30115 40120 76192 8472/ 333 10296 29090 55/// 59014 60021
AAXX 03004 83599 31698 71304 10210 20196 40119 51008 71022 8553/ 222// 20403 80200
AAXX 03004 83650 42/96 /0608 10250 20222 40180 52005 8//// 222// 80230 333 10270
AAXX 03004 83925 32/96 /1201 10200 20164 40150 52013 7002/ 8//// 222// 20000 80176 333 10210
AAXX 03004 83970 41/90 /3410 10200 20154 30160 40164 54000 700// 8//// 222// 02180 20502 80170 333 10220
AAXX 03004 83264 32893 30502 10240 20223 39651 40111 82034 333 10336 29080 55062 59015
AAXX 03004 83358 31593 80000 10276 20194 39661 40055 71321 8359/ 333 10340 29064 55098 59029
AAXX 03004 82863 31596 20504 10277 20211 39878 40087 71362 81901 333 10338 29077 55100 59034
AAXX 03004 83228 31696 80000 10252 20229 39806 40078 71392 889// 333 10324 29077 55070 59016
AAXX 03004 83270 32/95 90000 10232 20225 39614 40094 8//// 333 1//// 29088 55023 59025
AAXX 03004 83309 31692 80000 10270 20240 39767 40086 71092 885// 333 10340 29083 55/// 59024
AAXX 03004 83319 32692 60000 10232 20230 39748 40118 83420 333 10325 29094 55049 59010
AAXX 03004 83368 31696 60000 10254 20208 39721 40082 71322 86200 333 10342 29072 55064 59021
AAXX 03004 83374 32596 63604 10227 20204 39520 40087 86800 333 10337 29078 55065 59011
AAXX 03004 83405 32992 0//// 10300 20244 39895 40028 333 10375 29068 55087 59045
AAXX 03004 83526 32497 60000 10221 20190 39167 40095 86500 333 10284 29077 55/// 58003
BBXX ZDLS1 03003 99170 30029 41/98 81123 10185 20126 40157 54000 70222 8//// 22233 04185 20502 313// 40806 80152
BBXX PCGQ 03004 99043 70012 41/98 /2204 10270 40102 52/// 70200 8/1// 22263 04289 299//
BBXX A8FQ8 03003 99114 70179 41497 80510 10260 20218 40150 57010 70522 887// 22245 00288 29901 80230
BBXX A8UL5 03003 99346 50085 41698 80317 10175 20125 40290 52020 70322 8651/ 22224 20303 3//// 4//// 5//// 80145
BBXX AMOUK17 03004 99380 30504 46/// ///// 10171 20157 30129 40136 57023 92350
BBXX AMOUK01 03004 99170 30029 46/// ///// 10188 20134 30157 40168 57005 92350
BBXX AMOUK15 03004 99339 30184 46/// ///// 10185 20090 30164 40189 54000 92350
BBXX ZQDI9 03003 99161 10558 41598 33521 10248 20148 40119 56015 70100 817/7 22214 00255 20403 3//// 4//// 5//// 80188
AAXX 03004 68155 36/// /1902 10232 20168 39161 48495 57007 333 10327 20230 91005 555 91012
AAXX 03004 68171 NIL
AAXX 03004 68176 36/// /0903 10235 20159 39111 48502 57007 333 10344 20234 91006 555 91014
AAXX 03004 68181 NIL
AAXX 03004 68182 36/// /1006 10230 20200 39324 48518 53001 333 10347 20230 91010 555 91014
AAXX 03004 68185 16/// /1503 10147 20124 38466 48399 58001 69983 333 10229 20140 91006 555 20008 91006
AAXX 03004 68253 36/// /0000 1//// 2//// 39025 4//// 5//// 333 10191 2//// 91008 555 91014
AAXX 03004 68255 36/// /0402 10189 20133 38839 48486 58003 333 10314 20188 91003 555 91014
AAXX 03004 68271 36/// /2506 10189 20144 38890 48492 57008 333 10274 20187 91007 555 91015
AAXX 03004 68273 36/// /3302 10170 20157 38447 48501 58005 333 10294 20153 91003 555 91018
AAXX 03004 68287 16/// /1802 10144 20140 38572 48507 57007 69963 333 10216 20143 91004 555 20006 91018
AAXX 03004 68291 36/// /1405 10200 20174 39529 48520 53001 333 10338 20200 91009 555 91014
AAXX 03004 68297 NIL
AAXX 03004 68329 36/// /1405 10204 20014 39068 48499 57006 333 10368 20202 91007 555 91014
AAXX 03004 68331 36/// /1707 10170 20011 38825 48506 58002 333 10338 20170 91009 555 91017
AAXX 03004 68335 36/// /0000 10148 20087 38912 48512 50000 333 10327 20148 91002 555 91018
AAXX 03004 68341 36/// /3303 10156 20100 38514 48498 58003 333 10305 20148 91034 555 91018
AAXX 03004 68342 NIL
AAXX 03004 68343 36/// /2503 10150 20118 38766 48485 52003 333 10313 20150 91005 555 91015
AAXX 03004 68349 36/// /3509 10171 20110 38491 48485 58006 333 10307 20168 91012 555 91016
AAXX 03004 68353 36/// /3305 10154 20121 38500 48478 58007 333 10292 20144 91006 555 91015
AAXX 03004 68355 36/// /0207 10140 20075 38556 48489 58001 333 10287 20135 91009 555 91016
AAXX 03004 68370 NIL
AAXX 03004 68377 36/// /1109 10179 20162 38753 48491 51000 333 10324 20179 91013 555 91016
AAXX 03004 68380 36/// /2604 10141 20133 3//// 4//// 5//// 333 10271 20141 91007 555
AAXX 03004 68387 36/// /1102 10179 20169 38855 48513 57003 333 10265 20174 91020 555 91018
AAXX 03004 68411 36/// /1504 10242 20071 39934 40138 58005 333 10365 20242 91007 555 91014
AAXX 03004 68429 NIL
AAXX 03004 68449 36/// /0302 10120 20071 38372 48487 51001 333 10260 20117 91002 555 91017
AAXX 03004 68471 36/// /1406 10140 20130 38315 48495 58006 333 10261 20140 91010 555 91018
AAXX 03004 68474 36/// /0903 10145 20127 38619 48509 57005 333 10280 20144 91006 555 91019
AAXX 03004 68479 16/// /1307 10170 20152 38946 48506 58002 60123 333 10300 20170 91011 555 20122 91016
AAXX 03004 68481 36/// /3402 10197 20167 39771 40140 57003 333 10280 20194 91003 555 91014
AAXX 03004 68487 16/// /1705 10150 20138 38998 48512 57006 60013 333 10239 20150 91008 555 20018 91017
AAXX 03004 68491 16/// /2204 10221 20185 30115 40124 57005 69923 333 10296 20221 91008 555 20002 91012
AAXX 03004 68497 16/// /2606 10204 20183 30095 40139 57008 69923 333 10270 20204 91009 555 20002 91014
AAXX 03004 68183 36/// /1208 10240 20204 39427 48527 53003 333 10346 20240 91013 555 91014
AAXX 03004 68188 36/// /0000 10206 20185 39188 48516 51003 333 10317 20204 91002 555 91015
AAXX 03004 68268 36/// /0502 10166 20122 38867 48503 57003 333 10308 20166 91003 555 91017
AAXX 03004 68272 36/// /0202 10179 20160 39052 48493 58005 333 10316 20173 91003 555 91014
AAXX 03004 68296 36/// /1502 10233 20184 39813 48534 52000 333 10358 20232 91005 555 91012
AAXX 03004 68322 36/// /1802 10183 21030 39118 48486 57004 333 10390 20183 91005 555 91013
AAXX 03004 68338 36/// /1903 10143 20019 38754 48482 57005 333 10327 20143 91006 555 91015
AAXX 03004 68345 16/// /0702 10163 20100 38653 48494 57002 69923 333 10289 20163 91003 555 20002 91017
AAXX 03004 68362 NIL
AAXX 03004 68400 36/// /2302 10214 20170 30049 40122 57003 333 10319 20214 91005 555 91012
AAXX 03004 68408 36/// /1309 10131 20108 30154 40162 57012 333 10193 20131 91016 555 91016
AAXX 03004 68416 36/// /1913 10175 20027 39038 48508 57003 333 10320 20175 91018 555 91016
AAXX 03004 68478 16/// /0702 10168 20139 38871 48508 57006 60013 333 10286 20167 91004 555 20012 91017
AAXX 03004 68488 NIL
AAXX 03004 68494 16/// /2106 10199 20171 30015 40146 57006 60013 333 10279 20195 91013 555 20012 91014
AAXX 03004 68524 36/// /1706 10192 20074 39066 48518 52008 333 10317 20192 91012 555 91017
AAXX 03004 68546 36/// /2005 10141 20105 38662 48506 53003 333 10286 20140 91011 555 91018
AAXX 03004 68558 36/// /1407 10108 20084 38192 48512 55000 333 10245 20102 91010 555 91020
AAXX 03004 68570 36/// /1003 10136 20091 38514 48506 57001 333 10234 20136 91006 555 91019
AAXX 03004 68580 NIL
AAXX 03004 68614 36/// /2004 10184 20110 30114 40155 57005 333 10314 20182 91007 555 91015
AAXX 03004 68624 36/// /1408 10129 20086 38767 48534 57003 333 10272 20129 91014 555 91021
AAXX 03004 68674 16/// /2306 10203 20169 30136 48576 55000 60013 333 10264 20200 91013 555 20016 91016
AAXX 03004 68712 36/// /1611 10123 20095 30113 40179 57005 333 10183 20123 91014 555 91017
AAXX 03004 68718 36/// /0704 10140 20100 39965 40216 57006 333 10282 20138 91005 555 91021
AAXX 03004 68722 36/// /2003 10079 20052 38577 48543 57005 333 10244 20079 91006 555 91023
AAXX 03004 68814 36/// /1914 10135 20110 30188 40196 57007 333 10186 20134 91018 555 91019
AAXX 03004 68832 36/// /1504 10130 20077 39229 48537 57001 333 10260 20124 91011 555 91020
AAXX 03004 68916 36/// /0909 10158 20129 39940 40211 57003 333 10201 20157 91020 555 91021
AAXX 03004 68920 36/// /1705 10162 20133 30207 40220 56002 333 10213 20162 91014 555 91022
AAXX 03004 68928 36/// /2605 10174 20131 30049 40210 58002 333 10241 20173 91008 555 91021
AAXX 03001 30455 119// 80000 11214 21232 38931 48462 52005 69922 77172 86012 333 21224 47010
AAXX 03001 30669 11997 80000 11198 21217 39371 40301 53007 60012 77177 8801/ 333 21189 47006
AAXX 03001 30731 32999 00701 11166 21179 39641 40289 52005 333 21170 47023
AAXX 03001 30739 32998 81601 11280 21298 39457 40370 52015 8807/ 333 21286 47003
AAXX 03001 30741 329// 00000 11176 21182 38690 48473 52002 333 21190
AAXX 03001 30745 319// 82001 11243 21268 39098 40351 53009 74441 80007 333 21289 47006 55031
AAXX 03001 30764 11997 80000 11211 21223 39457 40316 52014 69952 77177 8802/ 333 21223 47001
AAXX 03001 30829 32984 10000 11260 21271 39599 40361 52016 80001 333 21261
AAXX 03001 30838 32998 00000 11316 21327 39291 40401 52012 333 21317 47007
AAXX 03001 30846 12999 00000 11216 21241 39347 40330 52012 69932 333 21219 47001
AAXX 03001 30859 11899 20000 11246 21265 39413 40329 52015 69992 70271 81041 333 21274 47004
AAXX 03001 30862 11995 80000 11207 21232 39507 40301 53008 69992 77172 8802/ 333 21212 47007
AAXX 03001 30957 32999 12102 11229 21235 39362 40336 53013 81040 333 21230 47001
AAXX 03001 30975 11899 83601 11238 21270 39615 40322 53006 69922 70272 8801/ 333 21239 47011
BBXX 51176 03001 99278 71758 46/// ///// 1//// 90002 22200 00234
BBXX 51179 03001 99143 51708 46/// ///// 1//// 90003 22200 00293
BBXX 52248 03001 99135 11448 46/// ///// 1//// 90005 22200 00287
BBXX 52246 03001 99152 11457 46/// ///// 1//// 90007 22200 00284
BBXX 52244 03001 99200 11452 46/// ///// 1//// 90007 22200 00272
BBXX 51172 03001 99284 71783 46/// ///// 1//// 90011 22200 00230
BBXX 51173 03001 99260 71739 46/// ///// 1//// 90012 22200 00240
AAXX 03001 31825 32999 20000 11239 21257 30114 40344 53019 80001 333 21273 47016
AAXX 03001 31845 32999 32501 11210 21259 30104 40282 53004 80001 333 21262 47026
AAXX 03001 31878 32698 80000 11167 21200 30117 40250 58019 82532 333 21203 47018
AAXX 03001 31915 32598 89901 11124 21176 39970 40248 57010 885// 333 21162 47008 1/111 7000/
AAXX 03001 31921 32997 83405 11116 21136 30146 40248 58010 8802/ 333 21123 42002
AAXX 03001 31969 32698 82802 11050 21108 30168 40219 58020 85533 333 21070 41998
AAXX 03001 31981 32999 81702 11169 21182 39995 40248 57020 85011 333 21201 47023
AAXX 03001 31987 32699 83403 11086 21105 39957 40226 56030 81549 333 21102 42998
AAXX 03001 32069 12598 21304 11141 21168 30281 40286 58003 69900 82200 333 21159 47005 91005 91108
BBXX 41010 03001 99289 70785 46/// /0310 10213 40262 90020 22200 00243 10905 20703 300// 40903 70024 333 91211 555 11102 22107
BBXX 41009 03001 99285 70802 46/// /0609 10222 20138 40267 90020 22200 00258 10704 20703 300// 41202 70020 333 91212 555 11096 22101
BBXX 46181 03001 99538 71288 46/// /2009 10053 40356 57006 22200 00053 10201 70003 333 91212
AAXX 03001 23074 12997 01704 11176 21202 30204 40231 52003 69902 70271 333 21207 47025 55000
AAXX 03001 23274 11497 71503 11172 21191 30221 40259 52007 69972 78587 8696/ 333 21225 47032 55000 85916
AAXX 03001 23383 32998 00000 11350 21380 39938 40343 58002 333 21354 47032
AAXX 03001 23472 32999 20602 11219 21252 30208 40260 52003 80001 333 21224 48035 55000
AAXX 03001 23678 329// 00502 11172 21198 30176 40237 52003 333 21183 47026
AAXX 03001 23884 329// 20000 11198 21217 30160 40240 52006 80001 333 21203 47032 55000
AAXX 03001 23891 11996 61801 11298 21335 39956 53004 69902 77171 83035 333 21317 47041 55009
AAXX 03001 24507 329// 01201 11337 21359 30062 40339 52011 333 21341 47020 55000
AAXX 03001 24817 119// 11901 11220 21239 39917 40315 53008 69902 70181 81040 333 21241 47026 55013
AAXX 03001 24908 11998 80301 11304 21334 39961 40331 54000 69902 70272 80007 333 21317 47031 55001
AAXX 03001 29263 11959 71001 11170 21196 30122 40229 52006 60022 77172 86032 333 21171 47023 55000
AAXX 03001 29282 11960 80000 11203 21222 30079 40263 54000 60022 77177 8807/ 333 21255 47018 55008
AAXX 03001 29379 11998 00000 11234 21252 30029 40256 53011 69902 70281 333 21237 47015
AAXX 03001 29570 11596 72304 11089 21113 39878 40237 52005 69922 78582 82931 333 21131 47013
AAXX 03001 29698 116// 80000 11153 21166 39732 40274 52013 69902 70272 82972 333 21182 47011 55023
AAXX 03001 30230 11998 80000 11242 21260 39981 40340 52008 69902 70272 81046 333 21243 47018 55000
AAXX 03001 30252 119// 70000 11280 21298 30011 40364 52010 69902 72272 82031 333 21280 47015 55002
AAXX 03001 30309 11597 81905 11096 21104 39720 40256 53002 69922 78587 889// 333 21145 47017 55001
AAXX 03001 30328 329// 10000 11316 21339 39881 40365 53007 80001 333 21317 47016 55039
AAXX 03001 30521 325// 80000 11252 21271 39769 40345 53005 82901 333 21297 47011 55027
AAXX 03001 30710 11496 60201 11193 21208 39672 40298 52010 69902 71022 83601 333 21193 47014 55008
AAXX 03001 23973 11997 83501 11180 21199 30158 40225 52005 69902 77172 8802/ 333 21209 47028
AAXX 03001 23975 118// 30901 11230 21249 30096 40215 52005 69932 70171 83070 333 21231 47018 55000
AAXX 03001 23986 32999 40000 11200 21219 39583 40263 53007 84010 333 21200 47032
AAXX 03001 23987 11597 61404 11142 21169 30139 40216 52007 69932 78582 83901 333 21142 47012 55000
AAXX 03001 24606 329// 00000 11351 21374 30032 40340 52008 333 21352 47022 55000
AAXX 03001 29253 119// 80000 11192 21218 30030 40212 52003 60022 77172 80007 333 21192 47024
AAXX 03001 29471 11496 70000 11151 21164 30000 40241 52006 60012 78582 87900 333 21161 47023 87916
AAXX 03001 29481 12999 80000 11202 21214 39997 40254 52010 69932 80007 333 21226 47018
AAXX 03001 29553 11538 81802 11098 21106 39847 40224 52002 60012 78587 889// 333 21102 47009 55000
AAXX 03001 29562 11984 01802 11112 21125 39804 40236 52006 69952 70271 333 21113 47021
AAXX 03001 29581 119// 81401 11180 21192 39989 40265 52008 69922 70272 82037 333 21250 47011
AAXX 03001 29594 11598 80000 11198 21210 39855 40270 53019 69922 78582 85931 333 21198 48015 55032
AAXX 03001 29653 32997 81701 11133 21146 39740 40246 52003 8802/ 333 21195 47006
AAXX 03001 29675 32998 01401 11175 21194 39639 40269 52005 333 21175 47015
AAXX 03001 29676 32698 80000 11136 21149 39804 40247 52006 8357/ 333 21163 47012
AAXX 03001 29752 114// 82502 11126 21132 38776 48433 52004 60022 78583 889// 333 21131 49039 55000
AAXX 03001 29759 115// 60000 11109 21122 39191 40251 52006 69952 78581 82931 333 21110 47030
AAXX 03001 29766 32899 80000 11171 21177 39899 40277 52011 8801/ 333 21205 47012 55000
AAXX 03001 29789 32999 80000 11216 21222 39037 40313 52004 86031 333 21228 47003 55000
AAXX 03001 29864 329// 03204 11177 21196 39588 40282 52007 333 21185 47001
AAXX 03001 29866 318// 80000 11202 21208 39931 40277 52008 71022 8807/ 333 21208 47002 55000
AAXX 03001 29869 115// 81801 11103 21109 39879 40267 52005 60012 77171 8872/ 333 21134 48009 95090
AAXX 03001 29956 32984 02301 11157 21170 39698 40292 52011 333 21160 47006 55000
AAXX 03001 30337 31598 50000 11212 21231 39856 40342 53016 69902 70282 80001 333 21212 47015 55007
AAXX 03001 30405 329// 80000 11254 21266 39723 40303 52009 80004 333 21257 47012
AAXX 03001 30504 32997 70000 11188 21200 39599 40292 52010 80002 333 21190 47014 55026
AAXX 03001 30603 11997 82201 11145 21151 39677 40278 52006 69902 77172 80007 333 21173 47012
AAXX 03001 30612 325// 52401 11213 21225 39719 40295 53002 81541 333 21230 47009 55///
AAXX 03001 30622 329// 00000 11316 21333 39641 40370 53006 333 21327 47007
AAXX 03001 30627 32999 00302 11249 21262 39322 40341 52008 333 21245 47011 55045
AAXX 03001 30703 329// 80000 11231 21244 39571 40303 52008 83071 333 21246 47015 55058
AAXX 03001 36307 32897 81001 11214 21232 38960 48492 58008 8801/ 333 21237 47011 95090
AAXX 03004 68171 NIL
AAXX 03004 68181 NIL
AAXX 03004 68297 NIL
AAXX 03004 68342 NIL
AAXX 03004 68370 NIL
AAXX 03004 68429 NIL
BBXX 46181 03001 99538 71288 46/// /2009 10053 40356 57006 22200 00053 10201 70003 333 91212
BBXX 46184 03001 99539 71389 46/// /2409 10070 40355 57006 22200 00068 11006 70029 333 91210
BBXX 46184 03001 99539 71389 46/// /2409 10070 40355 57006 22200 00068 11006 70029 333 91210
AAXX 03004 42634 32996 00000 10220 20089 40094 333 59016
AAXX 03004 42647 31995 00000 10194 20127 40099 70500 333 59019
AAXX 03004 42737 32996 00503 10214 20154 40093 333 59020
AAXX 03004 42840 32996 03602 10214 20146 40092 333 59017
AAXX 03004 42909 32996 10203 10216 20129 40088 80001 333 59019 81070
AAXX 03004 42921 32996 00000 10146 20090 40142 333 59018
AAXX 03004 43003 31995 00000 10192 20159 40073 70500 333 59022
AAXX 03004 43014 31995 00000 10164 20099 39441 40099 70500 333 59017
AAXX 03004 43063 32996 00000 10138 20124 39462 40104 333 59018
AAXX 03004 43110 32996 01101 10230 20205 40070 333 59034
AAXX 03004 43117 32996 20000 10166 20101 40090 80002 333 59022
AAXX 03004 43192 31992 00000 10248 20242 40068 74244 333 59026
BBXX 44061 03001 99388 70770 46/// /0102 1//// 90020 333 91204
BBXX 44061 03001 99388 70770 46/// /0203 1//// 40314 90010 333 91204
BBXX 44061 03001 99388 70770 46/// /3502 10092 40311 53037 90000 333 91205
BBXX 44059 03001 99368 70763 46/// /2101 1//// 90010 333 91201
BBXX 44059 03001 99368 70763 46/// /0000 10115 40288 51018 90000 333 91201
BBXX 44057 03001 99395 70761 46/// /3506 1//// 90020 333 91207
BBXX 44057 03001 99395 70761 46/// /3506 1//// 40314 90010 333 91207
BBXX 44057 03001 99395 70761 46/// /3506 10096 40312 53040 90000 22200 00092 333 91208
BBXX 44058 03001 99376 70763 46/// /2002 1//// 90010 333 91202
BBXX 44058 03001 99376 70763 46/// /1902 10113 40296 53024 90000 22200 00115 1//00 70002 333 91202
BBXX 44039 03001 99411 70727 46/// /2811 10105 21003 40292 92353 22200 00116 10402 70008 333 91214
BBXX 46092 03001 99368 71220 46/// /3204 10128 40142 56009 92357 22200 00133 555 11046 22046
AAXX 03001 31913 33/// /3001 11145 21188 30139 40264 50001 333 21168
AAXX 03001 31939 32998 70000 11210 21222 39913 40266 58022 83036 333 21242 47025
AAXX 03001 32128 11599 71404 11014 21054 30242 40295 52025 69920 72682 87300 333 21040 47016 91005 91107
AAXX 03001 24856 11997 80502 11321 21343 30106 40280 53012 60012 77177 85027 333 21362 47016 55042
AAXX 03001 30679 NIL
AAXX 03001 30686 11999 80000 11228 21253 39930 40338 52013 69902 70272 8807/ 333 21251 47012
AAXX 03001 30961 11899 80000 11241 21254 39462 40322 52008 69982 70272 8802/ 333 21244
AAXX 03001 30971 32999 52202 11305 21336 39251 40352 53013 80002 333 21306 47004
AAXX 03001 30978 11578 83603 11222 21248 39574 40340 53004 69902 77172 8802/ 333 21237 47005
AAXX 03001 31513 31996 30902 11258 21264 30058 40307 53005 71000 82031 333 21261 47009
AAXX 03001 31624 NIL
AAXX 03001 31832 31996 80000 11180 21206 30187 40280 53005 71011 80002 333 21213 47011
BBXX 46247 03001 99378 71228 46/// ///// 1//// 90021 22200 00116 11706 21004 328// 41703 70028
AAXX 03001 31939 32998 70000 11210 21222 39913 40266 58022 83036 333 21242 47025
AAXX 03001 31913 33/// /3001 11145 21188 30139 40264 50001 333 21168
BBXX 46246 03001 99500 71451 46/// ///// 1//// 90029 22200 00076 11105 21004 327// 41104 70027
BBXX 46246 03001 99500 71451 46/// ///// 1//// 92359 22200 00076 11305 21004 329// 41303 70025
BBXX 46004 03001 99509 71361 46/// /2408 10072 40396 57016 22200 00079 11006 70032 333 91210
AAXX 03001 15505 12965 01102 10060 21005 39845 40222 57005 60001 333 10060 20043 555 563//
AAXX 03004 13601 12660 32702 10100 20094 30127 40229 54004 60001 83500 333 83640
AAXX 03001 56671 32780 11801 10028 20015 38180 52008 81102 333 05754 30004
AAXX 03001 57378 31905 83401 10028 20013 40258 52021 74600 8807/ 333 00100 31002
AAXX 03001 57426 31904 00402 10029 20028 40201 52013 74600 333 05552 30014
AAXX 03001 57476 32960 00201 10035 20023 40251 52023 333 00001 31001
AAXX 03001 57584 31958 00000 10050 20024 40250 52017 71000 333 05103 30014
AAXX 03001 57598 31/01 90000 10010 20009 40257 52013 74740 333 05151 30019
AAXX 03001 57655 31960 51102 10044 20035 40234 52019 72844 85040 333 05300 30040
AAXX 03001 57713 NIL
AAXX 03001 57776 32970 00906 10031 21083 40245 52012 333 05109 31011
AAXX 03001 58321 31920 00201 10026 20022 40270 52019 71000 333 00102 31003
AAXX 03001 58437 31980 03408 11037 21082 38160 52015 70040 333 00201 92500
AAXX 03001 58445 NIL
AAXX 03001 58556 31957 00000 10025 20009 40255 52015 71000 333 00152 31003
AAXX 03001 58569 32963 03404 10063 21018 40238 52020 333 00201 30002 70006
AAXX 03001 58646 31956 00401 10031 20022 40263 52020 71000 333 00253 30017
AAXX 03001 58653 NIL
AAXX 03001 58660 NIL
AAXX 03001 58715 31/07 91601 10013 20001 40257 52012 74340 333 00053 30007
AAXX 03001 58730 32770 13601 10019 20000 40261 52017 81500 333 00255 31011
AAXX 03001 58731 31/03 90201 10000 21004 40264 52016 74740 333 00255 31003
AAXX 03001 58754 32968 00401 10059 20020 40236 52023 333 00251 30016 70011
AAXX 03001 58911 31/07 92501 10003 20002 40250 52015 74740 333 00055 30024
AAXX 03001 58931 32980 00413 10024 21126 38346 52011 333 00104 31013
AAXX 03001 59254 32968 00201 10091 20064 40213 52017 333 05300
AAXX 03001 59632 32970 03202 10108 20053 40190 52007 333 05501
AAXX 03001 59855 32572 63202 10163 20121 40178 52019 82140 333 05100
BBXX 46004 03001 99509 71361 46/// /2408 10072 40396 57016 22200 00079 11006 70032 333 91210
AAXX 03004 43086 NIL
AAXX 03004 43128 NIL
AAXX 03004 43150 NIL
AAXX 03004 43185 NIL
AAXX 03004 43189 NIL
AAXX 03004 43198 NIL
AAXX 03004 43201 NIL
AAXX 03004 43213 NIL
AAXX 03004 43226 NIL
AAXX 03004 43233 NIL
AAXX 03004 43237 NIL
AAXX 03004 43245 NIL
AAXX 03004 43279 NIL
AAXX 03004 43284 NIL
AAXX 03004 43295 NIL
AAXX 03004 43311 NIL
AAXX 03004 43314 NIL
AAXX 03004 43321 NIL
AAXX 03004 43329 NIL
AAXX 03004 43344 NIL
AAXX 03004 43346 NIL
AAXX 03004 43353 NIL
AAXX 03004 43369 NIL
AAXX 03004 43371 NIL
AAXX 03003 64860 32970 50000 10183 20082 39830 40099 80002 333 0//00 59001 85080
BBXX KS094 03004 99185 70644 43/// /0509 10266 40156 22200 06268
BBXX KS044 03004 99165 31472 43/// /1311 10282 40095 22221 06284
BBXX KS088 03004 99267 70801 43/// /0918 10226 40240 22200 06225
BBXX KS099 03004 99263 70818 43/// /1307 10221 40253 22200 06413
AAXX 03004 71461 16/// /2104 11045 21084 60001 333 10018 21049 70000
AAXX 03004 71468 16/// /2018 11004 21030 39820 40147 56025 60001 333 21092 70000
AAXX 03004 71483 16/// ///// 11041 21100 60001 333 10013 21041 70000
AAXX 03004 71500 16/// /3012 11028 21082 60001 333 10011 21028 70000
AAXX 03004 71504 16/// ///// 11030 21085 60001 333 10012 21040 70000
AAXX 03004 71541 16/// /2205 11059 21084 60001 333 10005 21059 70000
AAXX 03004 71543 16/// /2503 11045 21089 60001 333 10018 21045 70000
AAXX 03004 71546 16/// /2105 11053 21085 60001 333 10019 21053 70000
AAXX 03004 71547 16/// /1805 11048 21092 60001 333 10016 21056 70000
AAXX 03004 71288 16/// /3311 11303 21333 30090 40116 51004 60001 333 11290 21309 70000
AAXX 03004 71221 16/// /2602 11056 21084 60001 333 10019 21056 7////
AAXX 03004 71226 16/// /2305 11024 21070 60001 333 10020 21032 70000
AAXX 03004 71761 16/// ///// 11056 21119 60001 333 10009 21057 70000
AAXX 03004 71770 16/// /3407 10029 21069 39485 40271 53015 60001 333 10051 21038 70000
AAXX 03004 71774 46/// ///// 10026 6///1 333 10042 20009 7////
AAXX 03004 71788 16/// /3217 11014 21062 60001 333 10024 21034 70000
AAXX 03004 71792 16/// ///// 11045 21095 60001 333 10004 21046 70000
AAXX 03004 71011 17/// ///// 11028 21086 69961 7//4/ 333 10002 21029 70006
AAXX 03004 71067 16/// ///// 11042 21103 60001 333 10005 21042 70000
AAXX 03004 71359 16/// /3212 11061 21102 60001 333 10006 21062 7////
AAXX 03004 71379 16/// /3007 11139 21160 30128 40306 51029 60001 333 11071 21149 70006
AAXX 03004 71405 16/// ///// 11048 21103 60001 333 10013 21048 70000
AAXX 03004 71417 16/// /2803 11034 21061 30217 40252 51014 60001 333 10014 21037 70000
AAXX 03004 71426 46/// /0314 11025 6///1 333 11019 21031 7////
AAXX 03004 71984 16/// /1102 11264 21290 30124 40133 58007 60001 333 11224 21281 70000
AAXX 03004 71988 46/// /3004 10029 21022 30265 40285 51013 6///1 333 10054 20019 7////
AAXX 03004 71888 16/// ///// 11054 21111 60001 333 10009 21055 70000
AAXX 03004 71895 16/// ///// 11035 21082 60001 333 10008 21035 7////
AAXX 03004 71673 16/// ///// 11042 21096 60001 333 10007 21042 70000
AAXX 03004 71690 16/// ///// 11038 21073 60001 333 10020 21045 7////
AAXX 03004 61091 32960 50000 10150 20047 39691 40145 80002 333 0//00 59008 85080
AAXX 03004 61091 32960 50000 10150 20047 39691 40145 80002 333 0//00 59008 85080
BBXX 46146 03001 99493 71237 46/// /3105 10060 40326 57006 22200 00071 10301 70004 333 91206
AAXX 03001 56144 32980 02001 11084 21156 36852 52008 333 05701
AAXX 03001 56152 32980 00000 11141 21171 36285 52011 333 05605
AAXX 03001 56167 32980 00000 11087 21120 37079 52012 333 05702
AAXX 03001 56182 32980 70000 11058 21125 37168 52007 80002 333 05605
AAXX 03001 56357 32980 02501 11113 21179 36439 52004 333 05502
AAXX 03001 56586 32460 80000 10037 20022 38019 52004 885// 333 05605 30006
AAXX 03001 56748 32580 11401 10045 20035 38336 52009 81100 333 05451 30025
AAXX 03001 56763 32980 00000 10069 20065 40122 52011 333 05756
AAXX 03001 56768 31670 72201 10074 20068 38162 52009 72840 874// 333 05551 30035
AAXX 03001 56838 31/08 90000 10118 20107 40135 52008 74700 333 05401
AAXX 03001 56886 31558 70000 10063 20059 38281 52014 71000 874// 333 05600 30013
AAXX 03001 56946 31420 70401 10079 20079 40153 52012 71040 874// 333 05400
AAXX 03001 56959 32762 72701 10151 20151 40134 52012 874// 333 05451 79999
AAXX 03001 56969 31458 70201 10143 20138 40156 52016 71000 876// 333 05352 70055
AAXX 03001 57731 31657 82701 10068 20051 40218 52012 71000 885// 333 05401 30040
AAXX 03001 57766 31904 01401 10010 20004 40244 52014 74640 333 05400 31001
AAXX 03001 57845 31/02 90202 10026 20019 40229 52010 74544 333 05501 30035
AAXX 03001 57853 31902 01101 10021 20006 40244 52016 74640 333 05400 30006
AAXX 03001 57916 31630 80000 10081 20081 40202 52014 72840 885// 333 05501
AAXX 03001 57922 31918 60000 10030 20030 40219 52014 72800 82042 333 05451 30039
AAXX 03001 57932 11356 80402 10049 20034 40235 52016 69901 75050 886// 333 05501 79999
AAXX 03001 58338 32961 02001 10036 20016 40256 52017 333 00001 30007
AAXX 03001 59007 31/01 92701 10060 20050 40179 52019 74540 333 05501
AAXX 03001 59046 32962 03401 10079 20032 40216 52013 333 05502 30023
AAXX 03001 59058 32965 01401 10041 20029 40231 52020 333 05353 30036
AAXX 03001 59072 31906 03601 10013 20013 40242 52019 74240 333 05254 30002
AAXX 03001 59087 32965 02901 10065 20004 40227 52025 333 00052 30041
AAXX 03001 59209 32560 72003 10100 20063 40187 52014 878// 333 05504
AAXX 03004 71888 16/// ///// 11054 21111 60001 333 10009 21055 70000
AAXX 03004 71895 16/// ///// 11035 21082 60001 333 10008 21035 7////
AAXX 03004 71288 16/// /3311 11303 21333 30090 40116 51004 60001 333 11290 21309 70000
AAXX 03004 71761 16/// ///// 11056 21119 60001 333 10009 21057 70000
AAXX 03004 71770 16/// /3407 10029 21069 39485 40271 53015 60001 333 10051 21038 70000
AAXX 03004 71774 46/// ///// 10026 6///1 333 10042 20009 7////
AAXX 03004 71788 16/// /3217 11014 21062 60001 333 10024 21034 70000
AAXX 03004 71792 16/// ///// 11045 21095 60001 333 10004 21046 70000
AAXX 03004 71011 17/// ///// 11028 21086 69961 7//4/ 333 10002 21029 70006
AAXX 03004 71359 16/// /3212 11061 21102 60001 333 10006 21062 7////
AAXX 03004 71379 16/// /3007 11139 21160 30128 40306 51029 60001 333 11071 21149 70006
AAXX 03004 71461 16/// /2104 11045 21084 60001 333 10018 21049 70000
AAXX 03004 71468 16/// /2018 11004 21030 39820 40147 56025 60001 333 21092 70000
AAXX 03004 71483 16/// ///// 11041 21100 60001 333 10013 21041 70000
AAXX 03004 71500 16/// /3012 11028 21082 60001 333 10011 21028 70000
AAXX 03004 71504 16/// ///// 11030 21085 60001 333 10012 21040 70000
AAXX 03004 71541 16/// /2205 11059 21084 60001 333 10005 21059 70000
AAXX 03004 71543 16/// /2503 11045 21089 60001 333 10018 21045 70000
AAXX 03004 71546 16/// /2105 11053 21085 60001 333 10019 21053 70000
AAXX 03004 71547 16/// /1805 11048 21092 60001 333 10016 21056 70000
AAXX 03004 71673 16/// ///// 11042 21096 60001 333 10007 21042 70000
AAXX 03004 71690 16/// ///// 11038 21073 60001 333 10020 21045 7////
AAXX 03004 71405 16/// ///// 11048 21103 60001 333 10013 21048 70000
AAXX 03004 71417 16/// /2803 11034 21061 30217 40252 51014 60001 333 10014 21037 70000
AAXX 03004 71426 46/// /0314 11025 6///1 333 11019 21031 7////
AAXX 03004 71067 16/// ///// 11042 21103 60001 333 10005 21042 70000
AAXX 03004 71984 16/// /1102 11264 21290 30124 40133 58007 60001 333 11224 21281 70000
AAXX 03004 71988 46/// /3004 10029 21022 30265 40285 51013 6///1 333 10054 20019 7////
AAXX 03004 71221 16/// /2602 11056 21084 60001 333 10019 21056 7////
AAXX 03004 71226 16/// /2305 11024 21070 60001 333 10020 21032 70000
BBXX 46146 03001 99493 71237 46/// /3105 10060 40326 57006 22200 00071 10301 70004 333 91206
BBXX 44062 03001 99386 70764 46/// /0102 1//// 90010 22200 00109 333 91203
BBXX 44062 03001 99386 70764 46/// /0101 10098 40289 53031 90000 22200 00109 1//00 70002 333 91202
BBXX 44063 03001 99390 70764 46/// /3503 1//// 90010 333 91204
BBXX 44063 03001 99390 70764 46/// /3501 10096 40317 51033 90000 22200 00099 1//00 70001 333 91204
BBXX 44041 03001 99372 70768 46/// /0501 10088 90010 333 91201
BBXX 44041 03001 99372 70768 46/// /0101 10092 40318 53022 90000 22200 00116 1//00 70000 333 91201
BBXX 44043 03001 99392 70764 46/// /3605 1//// 90020 333 91207
BBXX 44043 03001 99392 70764 46/// /3604 1//// 40309 90010 333 91204
BBXX 44043 03001 99392 70764 46/// /0104 10101 40307 53036 90000 22200 00094 1//00 70001 333 91204
BBXX 41110 03001 99341 70777 46/// ///// 1//// 90021 22200 00161 11102 21001 311// 41101 70008
BBXX 42099 03001 99273 70842 46/// ///// 1//// 90027 22200 00245 10603 20603 70015
BBXX 41113 03001 99284 70805 46/// ///// 1//// 90021 22200 00212 10802 20802 70009
BBXX 41112 03001 99307 70813 46/// ///// 1//// 90021 22200 00174 10802 20802 70010
BBXX 42361 03001 99276 70925 46/// ///09 10222 20117 40234 55000 90030 555 11070 22074
BBXX 42013 03001 99272 70829 46/// ///// 1//// 40250 92340 22200 00210
AAXX 03004 48350 31915 00000 10155 20150 39824 40134 71000 333 20149 59024
BBXX 44258 03001 99445 70634 46/// /2503 10047 40278 52011 22200 00078 11103 70015 333 91204
BBXX 44258 03001 99445 70634 46/// /2503 10047 40278 52011 22200 00078 11103 70015 333 91204
BBXX 44140 03001 99429 70515 46/// /0406 10135 40227 5//// 22200 00118 11207 70034 333 91208
AAXX 03004 96009 32557 30000 10230 20227 30041 40076 53015 81531 333 20228 50150 55018 56000 59016 81620
AAXX 03004 96011 32560 71103 10240 20233 30056 40082 52009 82532 333 20246 50230 55065 59007 82620
AAXX 03004 96035 11458 60000 10230 20221 30045 40083 52012 69964 70522 82531 333 20224 50220 55001 56000 59020 82618 86080
AAXX 03004 96073 01430 70000 10230 20222 30088 40099 52020 60094 76062 84972 333 20223 50580 55013 56000 57901 59006 60087 84910 80956
AAXX 03004 96091 01456 80000 10238 20232 30074 40097 51008 60184 71662 84527 333 20236 50030 55000 56000 58001 69947 84613 88280
AAXX 03004 96109 12958 70000 10228 20225 30040 40029 52005 60074 85032 333 20222 50230 55000 56000 58000 85360
AAXX 03004 96145 NIL
AAXX 03004 96147 11440 73615 10268 20236 30082 40087 5//// 60064 71522 84572 333 20228 56800 58002 84614 84360
AAXX 03004 96163 12560 80000 10236 20224 30089 40091 52019 60154 84521 333 20228 55000 56000 59001 84620
AAXX 03004 96179 01460 70000 10230 20227 30058 40095 52006 60574 72162 82228 333 20220 50/// 55000 56000 57803 58013 60017 82817 85460 80840
AAXX 03004 96195 11407 81802 10238 20233 30066 40103 52011 60014 74042 8352/ 333 20234 50121 55000 56009 58011 83611 88460
AAXX 03004 96221 01420 80000 10238 20234 30083 40098 52017 60024 76062 84527 333 20236 50240 55000 56999 58015 69907 84610 88280
AAXX 03004 96237 12456 80000 10240 20230 30063 40104 52020 60004 85177 333 20180 50540 55000 56000 58021 82816 85460 88280
AAXX 03004 96249 01420 80000 10228 20225 30046 40107 52020 60784 76366 8697/ 333 20222 5//// 5640/ 57941 57841 58020 60237 82913 84817 80980
AAXX 03004 96253 01456 70000 10232 20223 30050 40070 52016 60291 76066 83972 333 20224 50184 55014 50420 56000 57900 58009 69907 81915 84460
AAXX 03004 96295 11450 83405 10246 20234 39993 40095 51020 69904 70522 8552/ 333 20240 50280 55002 55508 50444 56000 58012 85615 88462
AAXX 03004 96509 01450 81205 10246 20239 30074 40086 52016 61044 76062 85271 333 20242 5//// 55025 56400 57842 58011 60017 85815 80858
AAXX 03004 96581 01358 83503 10212 20206 30096 40103 52013 60584 76166 8672/ 333 20212 5///0 55023 56809 58025 60027 86707 88462 80750
AAXX 03004 96633 32458 62803 10262 20251 30068 40076 52014 82971 333 20249 50030 55044 56000 57901 58010 81918 81620 83460 80980
AAXX 03004 96645 12450 73010 10250 20232 30064 40096 52023 61304 84572 333 20230 50330 55018 56600 57902 58017 81910 84610 80981
AAXX 03004 96655 01430 82003 10247 20242 30082 40117 52017 60041 76162 86572 333 20235 50280 55000 58018 60037 86611
AAXX 03004 96685 02459 70000 10252 20241 30073 40099 52017 60234 83511 333 20240 51500 55030 56000 58024 60017 84618
AAXX 03004 96749 11558 71603 10258 20233 30092 40105 53020 60024 70522 83572 333 20242 50390 55002 56500 58022 83623 85462
AAXX 03004 96781 NIL
AAXX 03004 96805 12559 70000 10252 20240 30086 40095 51005 60024 83271 333 20250 50600 55089 56000 57801 58008 83820 85460 80860
AAXX 03004 96839 11450 71503 10262 20241 30078 40085 52009 60251 72992 84876 333 20240 50591 55097 56000 57803 58000 81919 83620 80860
AAXX 03004 96935 32958 62606 10270 20237 30079 40086 52007 82031 333 20250 50420 55071 56020 58008 82360 84080
AAXX 03004 97008 32459 30000 10298 20252 30057 40067 52015 83200 333 20246 50260 55087 56000 57801 58006 83819 80858
AAXX 03004 97016 01564 51303 10286 20242 30070 40072 51007 60184 72161 83232 333 20242 50560 55044 56000 57801 58002 69907 83820 80860
AAXX 03004 97126 32457 83201 10260 20236 30033 40094 52026 8392/ 333 20220 50680 55073 56000 57901 58013 82915 88460 80980
AAXX 03004 97142 12560 50000 10286 20240 30049 40063 5//// 60294 82801 333 20250 50119 55069 56000 57806 58008 81819 84080 80857
AAXX 03004 97182 42568 50704 10285 20251 30073 40077 52019 82871 333 20260 50460 55095 56000 57800 58008 82820 83360 80480 808//
AAXX 03004 97240 31460 42305 10282 20239 39974 40089 52011 70511 83131 333 20248 50400 55068 56000 58008 83816
AAXX 03004 97284 32464 10000 10220 20160 38858 40096 5//// 81101 333 20150 50330 55080 56000 59008 81813
AAXX 03004 97310 32568 10000 10306 20246 30060 40072 5//// 81101 333 20224 50480 55098 56000 59009 81820
AAXX 03004 97320 32565 11505 10310 20255 30062 40075 5//// 81100 333 20250 50570 55103 56000 59014 81820
AAXX 03004 97378 12570 40000 10308 20245 39911 40074 5//// 69904 83201 333 20244 50420 55075 56000 58001 83820
AAXX 03004 97380 32564 10000 10311 20264 30059 40079 5//// 81101 333 20258 50360 55081 56000 58008 81820
AAXX 03004 97406 11560 40000 10286 20249 30044 40069 52016 60024 70261 82231 333 20224 50070 55070 56000 57802 58000 82820 80859
AAXX 03004 97570 31460 32004 10316 20257 30069 40076 5//// 70340 83903 333 20238 55012 56000 57904 59008 81913 82813 80970
AAXX 03004 97630 11463 71805 10278 20249 39923 40083 52021 60034 71522 86972 333 20238 50047 55048 56000 57901 58010 81911 85813 80978
AAXX 03004 97682 32468 71606 10294 20248 30063 40070 52011 83872 333 20240 55003 56000 57804 59005 82815 86362 80854
AAXX 03004 97698 NIL
AAXX 03004 97700 12462 52203 10277 20248 30058 40072 52024 60234 82231 333 20240 50680 55089 56000 57804 58009 82817 83360 80850
AAXX 03004 97722 12463 50000 10296 20244 30067 40082 52016 60024 84832 333 20234 50300 55080 56000 57801 58017 83819 80850
AAXX 03004 97780 01463 72505 10208 20150 4//// 60044 70144 85962 333 20152 55029 56000 57902 82913 84814 80960
AAXX 03004 97790 01457 60000 10278 20258 30030 40050 52013 69924 70562 81131 333 20232 50230 55000 56000 57803 58003 82818 80858
AAXX 03004 97014 12560 31702 10290 20243 39991 40084 52017 60034 82831 333 20222 50530 55038 55508 51168 56000 57803 58005 81823 80858
AAXX 03004 97028 32565 61002 10278 20246 30064 40070 53018 83471 333 20240 50710 55004 56000 58000 83620 85460
AAXX 03004 97048 12460 50000 10270 20243 30055 40079 52025 60554 83231 333 20227 51540 55050 56000 57801 58007 83817 80860
AAXX 03004 97072 32560 50000 10274 20226 39990 40090 52017 82221 333 20252 50400 55024 56000 57805 58008 81820 84460 80857
AAXX 03004 97086 32560 40000 10298 20253 30060 40085 51018 82211 333 20255 50730 55111 56000 57806 58008 82820 80856
AAXX 03004 97096 12460 80000 10266 20248 30074 40095 52018 60474 8422/ 333 20236 50500 55240 56009 57802 58004 84818 88460 80857
AAXX 03004 97120 01461 80000 10255 20240 30047 40080 52023 60014 72196 8397/ 333 20250 50550 55084 56000 57900 57802 58011 60017 81917 82818 85360 80981 80860
AAXX 03004 97146 11450 52806 10280 20248 30015 40076 5//// 69904 70511 82121 333 20240 56000 57802 58008 69907 82813 83460 80858
AAXX 03004 97180 32559 50702 10278 20244 30067 40085 53018 81232 333 20249 50400 55068 55508 52140 56000 58009 81820 84080
AAXX 03004 97192 32967 13403 10278 20250 30038 40095 52013 80001 333 20238 50241 55105 56000 58008 81080
AAXX 03004 97230 32462 60303 10285 20261 30072 40079 52009 85201 333 20260 50590 55092 56000 57801 58004 85818 80860
AAXX 03004 97260 32570 21205 10302 20244 30068 40075 52015 81101 333 20256 50600 55118 56000 58013 81820
AAXX 03004 97270 31457 20000 10300 20249 30071 40075 51011 70500 81101 333 20266 50800 55092 56000 58004 81815
AAXX 03004 97300 32562 22308 10308 20236 30043 40083 52005 82201 333 20260 50620 55112 56000 57803 58007 82820 80856
AAXX 03004 97340 32570 12309 10294 20255 30065 40079 53007 81101 333 20250 50710 55106 56000 58003 81820
AAXX 03004 97372 12562 20604 10298 20256 39960 40080 56011 60194 82101 333 20240 50540 55102 56000 59001 82820
AAXX 03004 97430 32460 41108 10296 20247 30055 40085 52023 82232 333 20246 50600 55090 56600 57863 58010 82818 80860
AAXX 03004 97460 11460 50603 10284 20249 30051 40065 52020 60024 70162 83876 333 20234 50330 55038 56200 57822 58007 82817 80857
AAXX 03004 97502 11457 60000 10276 20248 30074 40077 51020 69924 71464 84931 333 20248 55045 56000 57901 58003 82912 84812 80956
AAXX 03004 97530 32462 33605 10304 20240 30069 40074 52015 82131 333 20237 50250 55017 56000 57802 58002 82814 80833
AAXX 03004 97560 12460 50000 10294 20240 30062 40077 52017 60494 82239 333 20240 5//// 55011 56000 57803 59003 83818 83361 84279 80860
AAXX 03004 97580 NIL
AAXX 03004 97600 32560 60000 10286 20255 30069 40075 5//// 82271 333 20252 5//// 55068 56200 57823 58008 82820 84460 80860
AAXX 03004 97686 12462 60000 10212 20154 38343 40075 52015 60104 85833 333 20158 50/// 55038 56000 57802 58007 84812 85361 80859
AAXX 03004 97690 12465 50000 10276 20244 39970 40072 52013 60094 82841 333 20240 55010 56000 57803 58003 81816 85080
AAXX 03004 97724 11559 60804 10293 20253 30059 40076 52018 69964 70521 82239 333 20248 50660 55080 56700 57872 58001 82820 80850
AAXX 03004 97748 31462 63505 10294 20251 30058 40060 54000 70522 82232 333 20260 50450 55071 56800 57882 58002 82817 84075 80856
AAXX 03004 97760 32460 73502 10287 20258 30071 40081 52020 84832 333 20246 55072 56000 57801 58009 83816 80868
AAXX 03004 97796 11460 50000 10286 20252 30037 40087 57012 60451 70522 83532 333 20238 55030 56000 59012 83613 85362
AAXX 03004 97810 12465 62904 10290 20262 30055 40064 53015 60074 84831 333 20250 50130 55020 56000 57802 58009 82819 80850
AAXX 03004 97876 01360 60000 10270 20241 30078 40108 58001 60154 70363 85131 333 20244 55015 56000 58008 69927 82807 83608
AAXX 03004 97900 32568 33003 10296 20255 30044 40073 52015 83200 333 20255 50450 55062 56700 57872 58003 83820 80850
AAXX 03004 97980 32460 70000 10274 20233 30054 40061 50000 85842 333 20250 50790 55045 56000 58003 82817 84620
AAXX 03004 96001 31557 62210 10252 20240 39937 40085 5//// 70522 83231 333 20190 50260 55060 56500 57852 59014 83820 80860
AAXX 03004 96015 01440 70000 10238 20230 30076 40083 5//// 69904 76066 85572 333 20212 50000 55000 56000 59028 69907 85613
AAXX 03004 96033 NIL
AAXX 03004 96075 01450 70000 10222 20219 30078 40083 5//// 60044 70562 83571 333 20206 50320 55000 56000 59014 83618
AAXX 03004 96087 11457 70000 10246 20240 30058 40092 51013 60174 71022 81576 333 20238 50150 55000 56000 58002 81615 86460 85280
AAXX 03004 96171 11440 80000 10224 20218 30062 40087 52014 60014 70522 85522 333 20222 50150 55000 56000 58005 85615
AAXX 03004 96207 NIL
AAXX 03004 96505 11420 70602 10205 20195 39053 4//// 5//// 71042 86631 333 20192 55028 56000 58002 86710
AAXX 03004 96525 01450 80000 10252 20241 30083 40090 52027 60094 71562 8392/ 333 20248 50640 55044 56009 57900 58014 69907 81915 83615 88460 809//
AAXX 03004 96529 32457 70000 10254 20248 30070 40094 52012 83121 333 20248 50230 50063 56000 58005 83817 85460
AAXX 03004 96535 01440 80000 10227 20220 30094 40115 5//// 61154 76062 8322/ 333 20222 5///0 55016 56009 57803 58034 60358 83814 88462 80864
AAXX 03004 96557 01450 81103 10239 20234 30040 40090 60174 76166 8592/ 333 20230 50570 55013 56509 57951 57851 58007 60038 82912 83813 88460 80980 80857
AAXX 03004 96559 01315 80000 10242 20239 30052 40090 52010 60524 76162 8672/ 333 20230 50410 55000 56209 57724 58005 69997 86707 88460 80730
AAXX 03004 96565 01350 80000 10236 20234 30052 40104 5//// 61474 71522 86721 333 20224 50200 55031 56009 58002 60938 86708 86457
AAXX 03004 96595 11440 80000 10245 20234 30056 40108 60144 71422 8657/ 333 20242 50420 55022 56009 58010 86610
AAXX 03004 96607 12460 72707 10266 20254 30079 40094 52020 60024 85521 333 20242 50470 55055 56000 58011 85614
AAXX 03004 96615 11450 83520 10248 20228 30099 40113 60434 76062 881// 333 20238 50580 55008 56299 57823 58020 88812 80856
AAXX 03004 96695 12458 71704 10270 20240 30074 40080 5//// 60044 83211 333 20254 50460 55006 56000 57802 58009 83617 84460 80860
AAXX 03004 96737 12456 80000 10240 20234 30054 40084 53013 60284 85521 333 20234 50360 55005 56000 58017 85615 84460
AAXX 03004 96739 12460 70000 10245 20231 30054 40103 52014 60014 84532 333 20239 50670 55022 56000 58013 84618
AAXX 03004 96741 12559 72504 10268 20230 30092 40096 52014 60114 84571 333 20260 50250 55008 56000 58013 84620
AAXX 03004 96745 12556 70000 10264 20228 30098 40102 52015 60254 83571 333 20254 50460 55010 56700 58021 83620 87460
AAXX 03004 96751 12558 70000 10196 20169 39040 48920 51006 60234 85510 333 20194 50100 55003 56500 58017 85620 83460
AAXX 03004 96791 12558 70000 10258 20237 30040 40115 51009 69934 82572 333 20254 50414 55065 56000 58013 82620 85460
AAXX 03004 96797 32560 72204 10278 20234 30088 40093 52015 82571 333 20257 50620 55084 52189 56000 58014 82620 85360
AAXX 03004 96837 01558 71202 10266 20242 30084 40087 51020 60244 70596 83232 333 20230 50540 55095 56000 57800 59004 83823
AAXX 03004 96925 01464 82606 10286 20255 30080 40084 52012 60044 72996 85972 333 20265 50570 55081 56600 57960 57860 58007 60047 81917 84817 80980 80860
AAXX 03004 96933 32560 42906 10265 20235 30081 40084 52014 81501 333 20254 50351 55074 56200 58005 81620 84080
AAXX 03004 96937 32560 52803 10290 20245 30080 40085 52010 81101 333 20258 50610 55037 56000 58009 81820 85080
AAXX 03004 96973 11562 23003 10284 20255 30076 40081 52014 60114 70510 81101 333 20260 50371 55075 56000 58007 81820
AAXX 03004 96987 12560 40000 10286 20251 30023 40083 52013 60114 83531 333 20250 50571 55067 56000 58003 83620
BBXX 44140 03001 99429 70515 46/// /0406 10135 40227 5//// 22200 00118 11207 70034 333 91208
BBXX 46036 03001 99484 71339 46/// /2603 10074 40420 57008 22200 00085 11206 70029 333 91204
BBXX 46036 03001 99484 71339 46/// /2603 10074 40420 57008 22200 00085 11206 70029 333 91204
AAXX 03001 88900 46/// /2413 10022 20006 30009 40012 52015 333 10036 20014
BBXX 62081 03004 99510 70134 46/// ///// 10126 20115 40110 58001 22200 00122 10812 70060
BBXX 62303 03004 99516 70051 46/// /2522 10122 20115 40044 56022 22200 00128 10708 70041 333 90710 91134
BBXX AMOUK08 03004 99501 70061 46/// ///// 10123 20113 30097 40104 57019 92350
BBXX 63106 03004 99610 10017 46/// /1931 10072 49704 57085 22200
BBXX 63105 03004 99610 10017 47496 ///// 10084 20059 49704 57083 751// 22200
BBXX 63119 03004 99578 70030 41497 82436 10075 20022 49780 57025 78122 887// 22251 20302 324// 40504 5////
AAXX 03004 82586 32994 03606 10255 20215 39877 40114 333 10357 29069 55105 58007
AAXX 03004 82678 32592 80000 10266 20250 39955 40095 885// 333 10293 29089 55000 58001
AAXX 03004 82784 32995 00000 10238 20222 39639 40092 333 10325 29080 55075 59005
AAXX 03004 82791 32595 20509 10297 20189 39812 40088 82100 333 10365 29051 55101 58003
AAXX 03004 82983 32595 31403 10326 20198 39663 40065 82280 333 10358 29049 55110 59014
AAXX 03004 63708 11475 80000 10200 20191 48478 69921 72122 8197/ 333 59011 81919 88358
AAXX 03004 63612 NIL
AAXX 03004 63661 NIL
AAXX 03004 63671 NIL
AAXX 03004 63688 NIL
AAXX 03004 63695 NIL
AAXX 03004 63714 NIL
AAXX 03004 63723 NIL
AAXX 03004 63740 NIL
AAXX 03004 63772 NIL
AAXX 03004 63793 NIL
AAXX 03004 63820 NIL
AAXX 03003 63723 32580 71904 10253 20236 40090 875// 333 59013 87623
BBXX 42363 03001 99282 70892 46/// /1013 10211 20111 40264 90030 333 91213
BBXX 42364 03001 99291 70881 46/// /0808 10194 20128 40275 90030
BBXX 46238 03001 99334 71195 46/// ///// 1//// 90020 22200 00145 11102 20802 328// 41101 70011
BBXX 46239 03001 99363 71221 46/// ///// 1//// 90021 22200 00123 11705 21004 329// 41704 70027
BBXX C6TQ6 03004 99207 70868 41698 50521 10250 20236 40200 54000 7//11 8228/ 22284 00280 20102 305// 40202 5//// 6//// 80240 ICE /////
BBXX WC5932 03004 99459 70859 43/// /2125 00/// 10026 21056 40203 5//// 7//// 8//// 22200 0//// 2//// 3//// 4//// 5//// 6//// 81003 ICE /////
BBXX WDA2768 03004 99460 70859 43/// /0123 00/// 10015 21028 40268 57008 7//// 8//// 22200 0//// 2//// 3//// 4//// 5//// 6//// 81001 ICE /////
BBXX WRAH 03003 99274 10507 41998 03527 10200 2//// 40149 56001 7//00 80000 22284 00244 20304 3//// 4//// 5//// 6//// 8//// ICE /////
BBXX S6MJ 03004 99337 70250 41797 70219 10180 20148 40310 51/// 7//// 8/1// 22263 0//// 20308 332// 4//// 5//// 6//// 80160 ICE /////
BBXX VRWG3 03004 99450 70502 41/97 /0319 10070 21029 40260 51100 75821 8//// 22222 00090 2//// 3//// 4//// 5//// 6//// 80030 ICE /////
BBXX 51204 03001 99213 71581 46/// ///// 1//// 90022 22200 00253 11303 21002 331// 41302 70014
BBXX 51202 03001 99214 71577 46/// ///// 1//// 90009 22200 00248 10904 20904 335// 41202 70022
BBXX 44099 03001 99369 70757 46/// ///// 1//// 90022 22200 00134 11102 21001 310// 41101 70009
BBXX 44039 03001 99411 70727 46/// /2811 10105 21003 40292 90015 22200 00116 10402 70008 333 91214
BBXX 44022 03001 99409 70737 46/// ///08 10089 21006 40300 90030 22200 00109 333 91212 555 11093 22098
BBXX 44060 03001 99413 70721 46/// ///08 10096 40282 90030 22200 00121 333 91210 555 11088 22093
BBXX 44022 03001 99409 70737 46/// ///08 10092 21007 40296 90015 22200 00110 333 91211 555 11082 22088
BBXX 46243 03001 99462 71241 46/// ///// 1//// 90029 22200 00090 11405 21004 327// 41403 70027
BBXX 46236 03001 99368 71219 46/// ///// 1//// 90020 22200 00126 11403 21002 327// 41402 70017
BBXX 46229 03001 99438 71246 46/// ///// 1//// 90021 22200 00108 11407 20805 329// 41404 70034
BBXX 46225 03001 99329 71174 46/// ///// 1//// 90014 22200 00163 10902 20902 329// 41102 70012
BBXX 46213 03001 99403 71247 46/// ///// 1//// 90024 22200 00112 11011 21009 328// 41706 70054
BBXX 46215 03001 99352 71209 46/// ///// 1//// 90008 22200 00130 11103 21002 329// 41102 70015
BBXX 46219 03001 99332 71199 46/// ///// 1//// 90028 22200 00136 11104 21003 331// 41102 70019
BBXX 46224 03001 99332 71175 46/// ///// 1//// 90006 22200 00162 11402 21001 321// 41401 70008
BBXX 46214 03001 99379 71235 46/// ///// 1//// 90030 22200 00120 11108 20907 332// 41105 70042
AAXX 03004 13601 12660 32702 10100 20094 30127 40229 54004 60001 83500 333 83640
BBXX ZDLP 03003 99574 50567 41297 82820 10025 20020 40062 53001 70222 886// 22241 04013 20704 32529 41006 50602 80023
BBXX ZQDI9 03003 99161 10558 41598 33521 10248 20148 40119 56015 70100 817/7 22214 00255 20403 3//// 4//// 5//// 80188
BBXX AMOUK15 03004 99339 30184 46/// ///// 10185 20090 30164 40189 54000 92350
BBXX AMOUK01 03004 99170 30029 46/// ///// 10188 20134 30157 40168 57005 92350
BBXX AMOUK17 03004 99380 30504 46/// ///// 10171 20157 30129 40136 57023 92350
BBXX A8UL5 03003 99346 50085 41698 80317 10175 20125 40290 52020 70322 8651/ 22224 20303 3//// 4//// 5//// 80145
BBXX A8FQ8 03003 99114 70179 41497 80510 10260 20218 40150 57010 70522 887// 22245 00288 29901 80230
BBXX PCGQ 03004 99043 70012 41/98 /2204 10270 40102 52/// 70200 8/1// 22263 04289 299//
BBXX ZDLS1 03003 99170 30029 41/98 81123 10185 20126 40157 54000 70222 8//// 22233 04185 20502 313// 40806 80152
BBXX WRAH 03003 99274 10507 41998 03527 10200 2//// 40149 56001 7//00 80000 22284 00244 20304 3//// 4//// 5//// 6//// 8//// ICE /////
BBXX ATMG 03003 99196 10699 410/9 /3404 10280 20267 41014 54001 70302 8//// 22273
BBXX 52248 03001 99135 11448 46/// ///// 1//// 90005 22200 00287
BBXX 52244 03001 99200 11452 46/// ///// 1//// 90007 22200 00272
BBXX 52246 03001 99152 11457 46/// ///// 1//// 90007 22200 00284
BBXX UFLT 03001 99515 11465 42/97 72910 11070 40250 54000 8772/ 22213 00040 20904 33629 41206 50603 61020
BBXX UDWE 03001 99443 11373 42698 80810 10022 40193 57025 88500 22213 00079 20502
BBXX ZQCP3 03003 99221 11176 41/97 /0422 10185 20142 40161 53025 7//22 8/770 22263 00250 20302 305// 40506 5//// 80160
BBXX 52243 03001 99193 11666 46/// ///// 1//// 92354 22200 00272
BBXX VNVR 03004 99386 11209 46/// /3621 10037 21028 30200 40232 52027 22273 04120 85012
AAXX 03004 67002 32580 21204 10255 20224 30070 40103 81800 333 0//00 59015 81820 92408
AAXX 03004 67009 NIL
AAXX 03004 67012 NIL
AAXX 03004 67025 NIL
AAXX 03004 67027 32580 70804 10270 20249 30073 40094 57002 878// 333 0//00 82820 86640
AAXX 03004 67045 NIL
AAXX 03004 67072 NIL
AAXX 03004 67073 NIL
AAXX 03004 67083 12570 70000 10190 20188 38720 48495 56010 60121 878// 333 0//56 81817 87620= RR 12,3MM 67095 32475 40000 10263 20223 30100 40107 56013 84800 333 0//00 83817 555 82633
AAXX 03004 67113 NIL
AAXX 03004 67117 NIL
AAXX 03004 67137 NIL
AAXX 03004 67143 NIL
AAXX 03004 67157 NIL
AAXX 03004 67161 NIL
AAXX 03004 67197 32480 30604 10244 20216 30073 40083 58004 8380 333 0//00 81817 83633
BBXX 46036 03001 99484 71339 46/// /2603 10074 40420 57008 22200 00085 11206 70029 333 91204
BBXX 44140 03001 99429 70515 46/// /0406 10135 40227 5//// 22200 00118 11207 70034 333 91208
BBXX 44258 03001 99445 70634 46/// /2503 10047 40278 52011 22200 00078 11103 70015 333 91204
BBXX 41110 03001 99341 70777 46/// ///// 1//// 90021 22200 00161 11102 21001 311// 41101 70008
BBXX 44063 03001 99390 70764 46/// /3501 10096 40317 51033 90000 22200 00099 1//00 70001 333 91204
BBXX 44062 03001 99386 70764 46/// /0101 10098 40289 53031 90000 22200 00109 1//00 70002 333 91202
BBXX 44062 03001 99386 70764 46/// /0102 1//// 90010 22200 00109 333 91203
BBXX 44041 03001 99372 70768 46/// /0101 10092 40318 53022 90000 22200 00116 1//00 70000 333 91201
BBXX 44063 03001 99390 70764 46/// /3503 1//// 90010 333 91204
BBXX 42013 03001 99272 70829 46/// ///// 1//// 40250 92340 22200 00210
BBXX 44043 03001 99392 70764 46/// /0104 10101 40307 53036 90000 22200 00094 1//00 70001 333 91204
BBXX 44043 03001 99392 70764 46/// /3604 1//// 40309 90010 333 91204
BBXX 44043 03001 99392 70764 46/// /3605 1//// 90020 333 91207
BBXX 42361 03001 99276 70925 46/// ///09 10222 20117 40234 55000 90030 555 11070 22074
BBXX 41112 03001 99307 70813 46/// ///// 1//// 90021 22200 00174 10802 20802 70010
BBXX 41113 03001 99284 70805 46/// ///// 1//// 90021 22200 00212 10802 20802 70009
BBXX 42099 03001 99273 70842 46/// ///// 1//// 90027 22200 00245 10603 20603 70015
BBXX 44041 03001 99372 70768 46/// /0501 10088 90010 333 91201
BBXX 46146 03001 99493 71237 46/// /3105 10060 40326 57006 22200 00071 10301 70004 333 91206
BBXX KS099 03004 99263 70818 43/// /1307 10221 40253 22200 06413
BBXX KS094 03004 99185 70644 43/// /0509 10266 40156 22200 06268
BBXX KS088 03004 99267 70801 43/// /0918 10226 40240 22200 06225
BBXX 46004 03001 99509 71361 46/// /2408 10072 40396 57016 22200 00079 11006 70032 333 91210
BBXX 46246 03001 99500 71451 46/// ///// 1//// 92359 22200 00076 11305 21004 329// 41303 70025
BBXX 46246 03001 99500 71451 46/// ///// 1//// 90029 22200 00076 11105 21004 327// 41104 70027
BBXX 46247 03001 99378 71228 46/// ///// 1//// 90021 22200 00116 11706 21004 328// 41703 70028
BBXX VRWG3 03004 99450 70502 41/97 /0319 10070 21029 40260 51100 75821 8//// 22222 00090 2//// 3//// 4//// 5//// 6//// 80030 ICE /////
BBXX 44057 03001 99395 70761 46/// /3506 1//// 40314 90010 333 91207
BBXX 44061 03001 99388 70770 46/// /3502 10092 40311 53037 90000 333 91205
BBXX 44058 03001 99376 70763 46/// /2002 1//// 90010 333 91202
BBXX 44058 03001 99376 70763 46/// /1902 10113 40296 53024 90000 22200 00115 1//00 70002 333 91202
BBXX 44059 03001 99368 70763 46/// /2101 1//// 90010 333 91201
BBXX 44057 03001 99395 70761 46/// /3506 1//// 90020 333 91207
BBXX 44057 03001 99395 70761 46/// /3506 10096 40312 53040 90000 22200 00092 333 91208
BBXX 44059 03001 99368 70763 46/// /0000 10115 40288 51018 90000 333 91201
BBXX 44061 03001 99388 70770 46/// /0203 1//// 40314 90010 333 91204
BBXX 44039 03001 99411 70727 46/// /2811 10105 21003 40292 92353 22200 00116 10402 70008 333 91214
BBXX 46092 03001 99368 71220 46/// /3204 10128 40142 56009 92357 22200 00133 555 11046 22046
BBXX 44061 03001 99388 70770 46/// /0102 1//// 90020 333 91204
BBXX OZDQ2 03003 99316 71659 41798 72312 10208 20116 40165 56029 70200 85035 22264 00220 20504 306// 41006 80153
BBXX 46184 03001 99539 71389 46/// /2409 10070 40355 57006 22200 00068 11006 70029 333 91210
BBXX 46181 03001 99538 71288 46/// /2009 10053 40356 57006 22200 00053 10201 70003 333 91212
BBXX 41010 03001 99289 70785 46/// /0310 10213 40262 90020 22200 00243 10905 20703 300// 40903 70024 333 91211 555 11102 22107
BBXX DGTX 03003 99085 70845 41/98 /2409 10265 20237 40100 54000 70300 8//// 22274 00290 2//// 80245
BBXX 51171 03001 99064 71623 46/// ///// 1//// 92350 22200 00284
BBXX 51170 03001 99168 71695 46/// ///// 1//// 92348 22200 00268
BBXX TFEA 03001 99671 70215 41/97 80515 11024 49830 22282 00063
BBXX S6MJ 03004 99337 70250 41797 70219 10180 20148 40310 51/// 7//// 8/1// 22263 0//// 20308 332// 4//// 5//// 6//// 80160 ICE /////
BBXX OVZV2 03000 99325 10293 41998 00205 10165 20099 40228 52010 70000 80000 22264 00208 2//// 3//// 4//// 5//// 80130
BBXX KS044 03004 99165 31472 43/// /1311 10282 40095 22221 06284
BBXX 51179 03001 99143 51708 46/// ///// 1//// 90003 22200 00293
BBXX A8HD5 03001 99044 10992 41397 32104 10265 20244 40100 52010 70300 82104 2227/ 04270 20401 3//// 4//// 5//// 80250
BBXX 51178 03001 99142 51695 46/// ///// 1//// 92357 22200 00291
BBXX 51169 03001 99004 51600 46/// ///// 1//// 92355 22200 00256
BBXX 51174 03001 99142 51697 46/// ///// 1//// 92354 22200 00293
BBXX 3EAT6 03003 99352 31726 41598 60618 10220 20172 40186 56023 70322 84472 22283 00180 20401 302// 40501
BBXX ZMFR 03004 99509 31738 43/// /03// 10101 20090 40160 57013 22241 00085
BBXX C6TE3 03004 99498 31461 41297 80245 10070 20070 40062 70200 8/7// 22242 00080 31919 40407 50710
BBXX VMGO 03003 99404 31459 41/98 72020 10151 40169 72582 85263 22233 00119 20401 324// 40602 5////
BBXX C6FS9 03004 99241 31528 46/// /1429 10237 20196 30116 40152 52006 22274 04256 85209
BBXX VROB 03004 99264 31533 46/// /1520 10220 20114 30152 40177 57005 22283 04237 85156
BBXX VNAH 03004 99354 31351 46/// /1516 10153 20072 30223 40247 52015 22263 04178 85110
BBXX 9HA2479 03004 99347 31526 46/// /3604 10169 20077 30172 40202 57001 22284 04196 85118
BBXX ZMKA 03003 99368 31768 41497 40615 10190 20163 40223 58009 70511 8/1// 22232 20301 306// 40604 80174
BBXX WDA2768 03004 99460 70859 43/// /0123 00/// 10015 21028 40268 57008 7//// 8//// 22200 0//// 2//// 3//// 4//// 5//// 6//// 81001 ICE /////
BBXX WC5932 03004 99459 70859 43/// /2125 00/// 10026 21056 40203 5//// 7//// 8//// 22200 0//// 2//// 3//// 4//// 5//// 6//// 81003 ICE /////
BBXX 41009 03001 99285 70802 46/// /0609 10222 20138 40267 90020 22200 00258 10704 20703 300// 41202 70020 333 91212 555 11096 22101
BBXX 51173 03001 99260 71739 46/// ///// 1//// 90012 22200 00240
BBXX 51176 03001 99278 71758 46/// ///// 1//// 90002 22200 00234
BBXX 51172 03001 99284 71783 46/// ///// 1//// 90011 22200 00230
BBXX A8IY4 03001 99419 70353 41398 72307 10170 20128 40350 51010 7//22 86710 22214 04166 20504 80145
BBXX ZCDG4 03004 99123 70724 41497 33515 10274 20247 40112 53006 70200 812/7 22255 00300 20101 306// 40403 5////
BBXX 46205 03001 99542 71343 46/// /2709 10078 40351 54000 22200 00076 11108 70038 333 91211
BBXX 46206 03001 99488 71260 46/// /3212 10093 40321 57003 22200 00099 10808 70039 333 91214
BBXX 46088 03001 99483 71232 46/// /0304 10067 40327 90020 22200 00084 1//00 70002 333 91205 555 11038 22040 32328 40205 60019 026038 016040 019042 016041 016041 014044
BBXX 46087 03001 99485 71247 46/// /1105 10084 20047 40326 90020 22200 00090 333 91207 555 11056 22059 30006 41108 60019 108053 111055 110050 113048 117045 111044
BBXX 41036 03001 99342 70770 46/// ///// 10138 20011 40298 90020 22200 00171
BBXX 42363 03001 99282 70892 46/// /1013 10211 20106 40264 90015 333 91213
BBXX 42364 03001 99291 70881 46/// /0908 10194 20128 40275 90015
BBXX 44032 03001 99437 70694 46/30 /2706 10083 40250 52018 90004 22200 00096 333 91208 555 11074 22078
BBXX 44060 03001 99413 70721 46/// ///08 10097 40280 90015 22200 00122 333 91210 555 11088 22093
BBXX 44030 03001 99432 70704 46/// /3004 1//// 40259 51021 90004 22200 00093 11102 70009 333 91204 555 11043 22045
BBXX 44040 03001 99410 70736 46/// /3409 10094 21003 40300 90015 22200 10301 70004 333 91212 555 11108 22124
BBXX 44034 03001 99441 70681 46/30 /1405 10062 40263 52009 90004 22200 00095 11103 70014 333 91206 555 11054 22055
BBXX 44039 03001 99411 70727 46/// /2811 10105 21003 40292 90015 22200 00116 10402 70008 333 91214
BBXX 44037 03001 99435 70679 46/30 /1304 10067 40266 53008 90004 22200 00094 11103 70015 333 91206 555 11051 22053
BBXX 44022 03001 99409 70737 46/// ///08 10092 21007 40296 90015 22200 00110 333 91211 555 11082 22088
BBXX 46185 03001 99524 71298 46/// /2906 10082 40369 57007 22200 00080 11302 70012 333 91206
BBXX V7HC6 03004 99273 70907 41797 20715 10220 20190 40237 54000 70200 81489 22200 00237 20301 309// 40501 5//// 6//// 80200 ICE /////
BBXX FHZI 03004 99643 31371 46/// /2529 11033 21077 39840 49851 52010 22200 05011 86047
AAXX 03004 67023 NIL
AAXX 03004 67131 NIL
AAXX 0300/ 89869 46/// ///// 11083 39657 4//// 5//// 90020
AAXX 0300/ 89329 46/// ///// 11109 38628 4//// 5//// 90020
AAXX 0300/ 89799 46/// ///// 11274 4//// 5//// 90020
AAXX 0300/ 89332 46/// ///// 11064 39084 4//// 5//// 90020
AAXX 0300/ 89769 46/// ///// 11046 39690 4//// 5//// 90020
AAXX 0300/ 89828 46/// ///// 11298 36452 4//// 5//// 90020
AAXX 0300/ 89314 46/// ///// 11111 38113 4//// 5//// 90020
AAXX 03004 42309 31995 00000 10124 20113 40093 70500 333 59026
AAXX 03004 42398 31695 69901 10164 20164 40090 71021 81530 333 59039
AAXX 03004 42410 31495 30000 10152 20152 40097 71000 81530 333 59034 81618 83359
AAXX 03004 42415 31996 20000 10150 20139 40115 70500 82030 333 59036 82360
AAXX 03004 42623 31395 60000 10092 20080 39232 40130 71022 82630 333 59033 82708 85360
AAXX 03004 63870 32480 20000 10244 20238 30073 40091 82200 333 55300 59016 81816
AAXX 03001 31152 32998 50000 11332 21363 39879 40335 52010 83032 333 21335 47025 55000
AAXX 03001 31163 NIL
AAXX 03001 31285 32999 00000 11246 21279 30237 40324 52009 333 21281
AAXX 03001 31561 31998 00501 11220 21239 30271 40301 53006 70270 333 21255
AAXX 03001 31683 32999 00000 11240 21252 30241 40323 52008 333 21272 47012
AAXX 03001 32010 11496 52405 11146 21173 30204 40256 52010 69970 78582 85900 333 21170 48045 85911 91008 91109
BBXX DGHX 03003 99390 71716 41596 82018 10190 20175 40045 56010 70222 896// 22225 00160 20503 31617 41107 51006 80180
BBXX OZDQ2 03003 99316 71659 41798 72312 10208 20116 40165 56029 70200 85035 22264 00220 20504 306// 41006 80153
BBXX SHIP 03004 99311 71785 41596 73319 10225 20203 40114 56014 75022 8892/ 90005 22262 00220 20302 331// 40302 80210
BBXX SHIP 03004 99411 71600 41296 81418 10170 20155 40102 57023 70222 887// 90000 22224 00150 20605 313// 40806 80160
AAXX 03004 91723 NIL
AAXX 03004 91964 NIL
BBXX 44137 03001 99423 70620 46/// /0103 10068 40272 52010 22200 00118 11205 70026 333 91205
BBXX 44137 03001 99423 70620 46/// /0103 10068 40272 52010 22200 00118 11205 70026 333 91205
BBXX 44039 03001 99411 70727 46/// /2811 10105 21003 40292 92353 22200 00116 10402 70008 333 91214
AAXX 03004 71923 16/// ///08 11240 21260 39667 40128 51026 60001 333 11188 21246 70000
AAXX 03004 71592 16/// /0609 11229 21270 39994 40007 51011 60001 333 11193 21230 70000
AAXX 03004 71049 16/// /3110 11244 30061 40085 51013 60001 333 11183 21257 70000
AAXX 03004 71963 16/// /3004 11286 21313 39733 40156 51010 60001 333 11232 21294 7////
AAXX 03004 71490 16/// /2808 11288 21313 39827 40163 53009 60001 333 11231 21291 70000
AAXX 03004 89016 46/82 ///07 11139 29081 39398 4//// 5////
AAXX 03004 91772 31498 50000 10305 20249 4//// 60001 70212 82202 333 20250 569/9 79999 82818 85640
AAXX 03004 91776 31498 51005 1//// 2//// 4//// 60001 70312 8323/ 333 2//// 5629/ 70000 83819 85361
AAXX 03004 91779 31398 61006 10286 20213 40095 58017 60001 70222 83701 333 20219 563/9 70027 81708 83817 86079
AAXX 03004 91784 11498 51006 10256 20234 40096 58013 60021 70282 83208 333 20239 562/9 70020 83818 85278
AAXX 03004 91792 31498 31509 10289 20240 40111 58012 60001 70200 832// 333 20230 563// 70014 83816
AAXX 03004 71923 16/// ///08 11240 21260 39667 40128 51026 60001 333 11188 21246 70000
AAXX 03004 71490 16/// /2808 11288 21313 39827 40163 53009 60001 333 11231 21291 70000
AAXX 03004 71963 16/// /3004 11286 21313 39733 40156 51010 60001 333 11232 21294 7////
AAXX 03004 71049 16/// /3110 11244 30061 40085 51013 60001 333 11183 21257 70000
AAXX 03004 71592 16/// /0609 11229 21270 39994 40007 51011 60001 333 11193 21230 70000
AAXX 03004 42361 31994 00000 10140 20129 40104 71044 333 59034
BBXX 44138 03001 99443 70536 46/// /0208 10064 40241 52007 22200 00087 11208 70042 333 91211
BBXX 44138 03001 99443 70536 46/// /0208 10064 40241 52007 22200 00087 11208 70042 333 91211
AAXX 03004 13601 12660 32702 10100 20094 30127 40229 54004 60001 83500 333 83640
AAXX 03003 91802 NIL
AAXX 03003 91809 NIL
AAXX 03003 91831 36/// /0206 10282 20239 40115 57003 333 2////
AAXX 03003 91841 36/// /1004 10263 20217 4//// 5//// 333 20262
AAXX 03003 91843 31498 60606 10261 20233 40105 55005 60001 71521 868// 333 20210 561// 70193 83815 86645
AAXX 03003 91848 16/// /0306 10274 20226 40090 52032 69921 333 20218
AAXX 03001 15535 11956 00000 11024 21037 30171 40220 58005 60001 71000 333 10006 21026 555 591// 92600
AAXX 03004 91487 NIL
AAXX 03004 91490 NIL
AAXX 03004 91533 NIL
AAXX 03004 91601 NIL
AAXX 03004 91610 11599 40816 10310 20239 40057 58016 60001 70300 82201 333 20260
AAXX 03004 562/9 70000
AAXX 03004 91623 NIL
AAXX 03004 91629 NIL
AAXX 03004 91701 NIL
BBXX 46004 03001 99509 71361 46/// /2408 10072 40396 57016 22200 00079 11006 70032 333 91210
BBXX 46036 03001 99484 71339 46/// /2603 10074 40420 57008 22200 00085 11206 70029 333 91204
BBXX 46145 03001 99544 71324 46/// /2710 10076 40343 54000 22200 00080 11207 70034 333 91213
BBXX 46181 03001 99538 71288 46/// /2009 10053 40356 57006 22200 00053 10201 70003 333 91212
BBXX 46183 03001 99536 71311 46/// /2506 10081 40356 57004 22200 00085 11301 70006 333 91207
BBXX 46185 03001 99524 71298 46/// /2906 10082 40369 57007 22200 00080 11302 70012 333 91206
BBXX 46204 03001 99514 71288 46/// /2506 10083 40373 57004 22200 00090 11204 70020 333 91206
BBXX 46205 03001 99542 71343 46/// /2709 10078 40351 54000 22200 00076 11108 70038 333 91211
BBXX 46206 03001 99488 71260 46/// /3212 10093 40321 57003 22200 00099 10808 70039 333 91214
AAXX 03004 94996 41258 80510 10224 20207 30007 40143 58003 71085 882// 90030 333 20209
AAXX 03004 94996 41258 80510 10224 20207 30007 40143 58003 71085 882// 90030 333 20209
AAXX 03001 40650 42960 00000 11002 21048 40239 56001
AAXX 03001 40670 42960 00000 10030 21012 40244 51005
AAXX 03001 40690 42960 03003 10042 21006 40219 56002
AAXX 03001 40643 42960 02102 10020 21066 40264 54002
AAXX 03001 40608 42960 00000 10000 21050 40274 52005
AAXX 03001 40629 42960 00000 11022 21073 40263 52006
AAXX 03001 40634 42960 02702 11002 21065 40257 54000
AAXX 03001 40665 42960 02802 10057 21011 40241 54000
AAXX 03001 40670 42960 00000 10030 21012 40244 51005
AAXX 03001 40672 42960 00000 10022 21043 40249 54002
AAXX 03001 40676 42960 03202 10048 21075 40230 57007
AAXX 03001 40691 42960 00000 10062 21005 40236 54000
AAXX 03001 40001 32970 03506 10011 21085 40251 54000
AAXX 03001 40007 32960 00901 10014 21058 40265 52002 40025 32965 00403 10062 21025 40225 52004
AAXX 03001 40045 32970 02704 11018 21100 40255 53002
AAXX 03001 40061 NIL
AAXX 03001 40080 32970 00000 11018 21109 39506 40233 53004
AAXX 03001 40087 NIL
AAXX 03001 40095 NIL
AAXX 03001 40009 NIL
AAXX 03001 40016 NIL
AAXX 03001 40022 32965 00202 10072 21014 40217 51002 222 20000
AAXX 03001 40030 32970 00000 10000 21017 40248 52006
AAXX 03001 40039 32970 00000 11020 21050 40240 51002
AAXX 03001 40066 32970 00602 10092 21094 40212 58001
AAXX 03001 40072 NIL
AAXX 03001 40083 32970 00000 11014 21071 48520 52006
AAXX 03001 98134 11460 80203 10220 20203 39924 40115 52027 60074 70584 8427/ 333 20186 56899 58003 70072 84819 88357 555 20016
AAXX 03001 98223 11462 73605 10252 20218 40079 52018 69904 70584 81860 333 20241 56999 58007 79999 81619 87360
AAXX 03001 98232 11570 82203 10235 20228 40115 53017 61384 71542 8557/ 222// 20100 333 20215 56599 59011 71380 85620 88358
AAXX 03001 98325 11460 82201 10255 20248 40075 53018 60040 71582 8557/ 222// 20501 333 20230 56999 58007 70038 84616 88358 98328 555 20018
AAXX 03001 98328 11457 81102 10182 20173 38495 40070 53017 60094 74684 8557/ 333 20150 50100 55003 56999 59005 70090 85613 88358 555 29998
AAXX 03001 98330 11470 40000 10257 20244 30052 40084 52027 60044 70544 84200 333 20250 56999 58002 70040 84818 555 00020
AAXX 03001 98336 31470 50000 10270 20243 30083 40088 53019 70544 82231 333 20234 56999 58001 82815
AAXX 03001 98429 11559 31502 10277 20242 40080 52016 69954 70544 82201 333 20255 56999 58004 70005 82825
AAXX 03001 98430 11558 50901 10272 20248 40081 53021 60074 70544 82101 333 20239 56999 59003 70066 82820 83080
AAXX 03001 98431 31469 72401 10255 20233 30030 40077 53022 70542 82230 333 20230 56999 58002 82818 85360
AAXX 03001 98440 31475 42701 10258 20238 30080 40085 52023 70544 82230 333 20238 56999 58003 82815 83358
AAXX 03001 98444 12468 21201 10270 20253 30061 40080 53024 69984 82200 333 20235 56999 58012 70008 82818
AAXX 03001 98526 12575 80000 10285 20259 40082 52028 60014 83207 333 20248 56399 58004 70010 83820 88274 98315
AAXX 03001 98531 31570 51201 10280 20247 30072 40076 53020 70544 82202 333 20/// 56399 58005 82820 84075
AAXX 03001 98536 31470 40401 10260 20236 39886 40084 52034 70541 83260 222// 20000 333 20252 56199 58004 83818
AAXX 03001 98543 32475 50000 10280 20259 30075 40086 53025 82201 333 20254 56999 58016 82818 84075
AAXX 03001 98550 12460 50000 10273 20248 40082 52024 69944 81232 333 20252 56999 58007 70004 81818 84357
AAXX 03001 98618 32480 53601 10256 20250 40077 53020 83900 333 20250 56999 59001 83917 84820 555 0////
AAXX 03001 98630 32575 80000 10272 20245 40137 53014 82207 222// 20000 333 20256 56999 58004 82820 88275
AAXX 03001 98637 NIL
AAXX 03001 98646 32560 63201 10270 20252 30076 40104 52022 81232 333 20252 56999 58011 81820 83360 85080
AAXX 03001 98653 11470 30000 10290 20251 30026 40071 52024 60104 70544 81201 333 20225 56999 58004 70104 81818 83075
AAXX 03001 98741 31470 50000 10264 20254 40073 52017 69904 70544 82930 333 20244 56999 58003 79999 82917 85358
AAXX 03001 98747 11460 62002 10270 20243 39872 40076 52023 69904 70544 82430 333 20235 56999 58009 79999 82618 85358
AAXX 03001 98753 31468 40903 10278 20248 40085 51015 70544 81231 333 20248 55092 2//// 56999 58005 81816 83079
AAXX 03001 98755 11570 10000 10283 20254 40083 52016 60204 70521 81200 333 20237 56999 58010 70198 81820
AAXX 03001 98836 11460 70000 10260 20247 40091 52023 69944 78082 82971 333 20250 56999 58012 70004 82918 87362 555 20004
AAXX 03004 40103 42958 01602 10075 20034 40226 54000
AAXX 03001 40608 42960 00000 10000 21050 40274 52005
AAXX 03001 40629 42960 00000 11022 21073 40263 52006
AAXX 03001 40634 42960 02702 11002 21065 40257 54000
AAXX 03001 40643 42960 02102 10020 21066 40264 54002
AAXX 03001 40650 42960 00000 11002 21048 40239 56001
AAXX 03001 40665 42960 02802 10057 21011 40241 54000
AAXX 03001 40670 42960 00000 10030 21012 40244 51005
AAXX 03001 40672 42960 00000 10022 21043 40249 54002
AAXX 03001 40676 42960 03202 10048 21075 40230 57007
AAXX 03001 40690 42960 03003 10042 21006 40219 56002
AAXX 03001 40691 42960 00000 10062 21005 40236 54000
AAXX 03004 94638 46/// /0810 10188 20088 30196 40228
AAXX 03004 89573 44970 80915 11034 21098 39843 49865 52001 70070 8803/
AAXX 03004 94147 17/// /0508 10329 20262 30052 40076 51007 69944 7//44 90027
AAXX 03004 94290 46/// /1016 10280 30088 40097 51006 90024
AAXX 03004 94210 35/// /0610 10318 30064 40069 52010
AAXX 03004 94289 46/// /1116 10282 30083 40090 51008 90015
AAXX 03004 94379 46/// /1326 10253 30110 40119 51004 90026
AAXX 03004 89573 44970 80915 11034 21098 39843 49865 52001 70070 8803/
AAXX 03004 83437 21596 83602 10211 20205 39385 40099 71366 886// 333 10250 29094 55001 59011 60341
AAXX 03004 83579 32596 60903 10210 20174 38991 40097 86200 333 10294 29075 55060 59005
AAXX 03004 83592 215// 81404 10208 20189 39438 40116 70265 8472/ 333 10296 29083 55027 58008 60111
AAXX 03004 94638 46/// /0810 10188 20088 30196 40228
AAXX 03004 94147 17/// /0508 10329 20262 30052 40076 51007 69944 7//44 90027
AAXX 03004 94290 46/// /1016 10280 30088 40097 51006 90024
BBXX 44022 03001 99409 70737 46/// ///08 10089 21006 40300 90030 22200 00109 333 91212 555 11093 22098
BBXX 44040 03001 99410 70736 46/// /3208 10092 20001 40303 90019 22200 10301 70004 333 91211 555 11103 22118
AAXX 03001 23426 42584 81902 11067 21079 30116 40141 54000 885//
AAXX 03001 23625 42998 70000 11110 21123 30113 40148 57001 87050
AAXX 03001 28076 41996 80902 11108 21114 30078 40153 54000 77172 8801/
AAXX 03001 28367 41984 82302 11082 21092 30034 40166 57009 77172 8802/
AAXX 03001 28382 41997 80000 11126 21139 30092 40166 57008 77172 8801/
AAXX 03001 28481 41996 82102 11094 21101 30081 40184 57006 77172 8807/
AAXX 03001 28491 41997 81901 11121 21134 30063 40178 57007 70272 80001
AAXX 03001 28573 41996 82203 11128 21141 30085 40195 58006 77172 8802/
AAXX 03001 28593 41996 82001 11116 21129 30089 40192 57004 77172 8802/
AAXX 03001 28786 41396 82703 11154 21167 30053 40221 57010 77171 8802/ 333 88507
AAXX 03001 28797 41997 82301 11170 21183 30052 40221 58009 70372 80007
AAXX 03001 28799 41996 82101 11155 21168 30070 40224 57003 77172 84075
AAXX 03001 20046 41997 81602 11023 21032 39636 49666 58004 77173 8807/ 333 91112
AAXX 03001 20069 11464 82109 11004 21007 39742 49754 58003 69932 77173 8452/ 333 21023 47017 84611 91113
AAXX 03001 20087 11297 72008 11022 21028 39780 49790 57017 69942 78683 879// 333 21037 48018 85704 91111
AAXX 03001 20292 NIL
AAXX 03001 20353 46/// /1703 10024 21025 39806 49810 52009 333 91114
AAXX 03001 20667 41998 82211 11014 21019 39957 49964 52005 73732 8805/ 333 91119
AAXX 03001 20674 11294 72313 11047 21050 39948 40007 52009 60012 73932 875// 333 21047 48018 86705 91120 92980
AAXX 03001 20744 41396 81913 11001 21019 39857 49875 58013 78587 889// 333 86917 91121
AAXX 03001 20891 11497 72412 11128 21155 30120 40163 58003 69942 78583 8395/ 333 21128 47/// 83919 91115
AAXX 03001 23022 41494 62116 11067 21079 39956 40017 57004 73831 86500 333 91121
AAXX 03001 23032 41497 82111 11056 21082 30032 40062 57001 73733 885// 333 88613 91115
AAXX 03001 23058 41297 81605 11140 21160 30155 40160 54000 70222 886// 333 88704 96510
AAXX 03001 23242 41497 81907 11101 21114 30131 40147 52001 73631 885// 333 88610
AAXX 03001 23256 42998 01705 11235 21260 30168 40207 52006
AAXX 03001 23330 41497 81602 11075 21088 30114 40136 57001 8653/ 333 88618
AAXX 03001 23445 41396 81502 11142 21155 30159 40186 52007 77172 885// 333 88607
AAXX 03001 23552 41997 01301 11216 21234 30180 40218 52006 70171
AAXX 03001 23631 42398 82201 11093 21105 30110 40153 54000 83651 333 83707
AAXX 03001 23662 42998 00701 11233 21251 30180 40228 52004
AAXX 03001 23724 42998 00000 11225 21243 30093 40163 58001
AAXX 03001 23734 42598 80601 11104 21117 30057 40152 52008 885//
AAXX 03001 23849 41130 80901 11188 21209 40188 52007 72822 886// 333 88702
AAXX 03001 23867 41999 00901 11223 21242 30111 40189 52005 70271
AAXX 03001 23933 42997 41302 11136 21145 30100 40159 52006 70272 84020
AAXX 03001 28064 42598 80000 11095 21111 30057 40151 52001 885//
AAXX 03001 28275 41996 82202 11085 21096 30097 40159 57009 77172 8802/
AAXX 03001 28493 41996 81601 11136 21149 30087 40185 57004 77172 8801/
AAXX 03001 28698 41496 82102 11136 21149 30039 40202 57007 77172 8802/ 333 88510
BBXX PCIM 03004 99120 10452 41397 10609 10261 20205 40129 58011 70200 81100 22264 00271 2//// 80222
BBXX TBWUK18 03004 99257 50307 41/97 53419 10230 20215 40168 52007 70011 8515/ 22263 00240 20503 316// 41003 5//// 80220
BBXX PCDE 03003 99360 30178 41/97 11505 10160 20108 40230 52020 7//// 8//// 22233 20204 80130
BBXX DQVI 03000 99360 10181 41/97 22102 10170 20128 40240 54000 70300 8//// 22224 00208 20401 80145
BBXX MGGK4 03004 99347 30220 41/98 /2430 10183 20114 40207 58010 70200 8//// 22225 00198 2//// 3//// 4//// 5//// 80145
AAXX 03001 23929 42577 73202 11100 21113 30080 40150 52002 83530
AAXX 03001 28383 41996 80000 11137 21150 30088 40177 57005 77172 80007
AAXX 03001 28465 41996 82105 11104 21110 30102 40183 57006 77172 8802/
AAXX 03001 28586 41596 82402 11116 21136 30035 40191 57001 77172 885// 333 88626
AAXX 03001 28588 41496 82003 11133 21153 30024 40192 58009 77172 8872/
AAXX 03001 28688 41996 82302 11149 21169 30035 40205 57010 77172 8801/
AAXX 03001 28696 41995 82103 11113 21126 30055 40202 57006 77172 8802/
AAXX 03001 28791 41998 82504 11163 21182 30056 40210 57009 70272 8802/
BBXX 44056 03001 99362 70757 46/// ///// 1//// 92350 22200 00124 11002 21002 309// 41101 70010
AAXX 03001 24266 12998 02501 11477 21505 30095 40307 52004 69902 333 21477 47021 55000
BBXX SHIP 03004 99217 11360 41798 21316 10250 20222 40128 51001 70155 82245 22273 00279 20303 312// 40303 80230
BBXX 3EDA4 03003 99275 11378 41397 80804 10240 20226 40123 53/// 70322 87757 22274 00247 20301 302// 40403 80230
BBXX SHIP 03004 99217 11360 41798 21316 10250 20222 40128 51001 70155 82245 22273 00279 20303 312// 40303 80230
BBXX SHIP 03004 99294 11611 41598 60718 OO/// 10230 20201 40193 51012 70311 83211 92349 22223 00250 1//// 20602 304// 40502 5//// 6// // 80210
BBXX C6OA3 03003 99402 31469 41598 32633 10150 20103 40189 53/// 7//22 82585 22283 04155 20603 326// 40902 5//// 80125
AAXX 03001 55228 32980 00000 11115 21317 36019 57005 333 05552
AAXX 03001 55578 32980 00000 11106 21148 36365 54000 333 05601
AAXX 03001 55664 32980 00000 11096 21165 36010 52001 333 05500
AAXX 03001 55773 32970 00000 11115 21143 36011 57005 333 05451
AAXX 03001 56116 32980 00000 11100 21137 36316 57006 333 05702
AAXX 03001 56137 32980 00000 11079 21167 36775 57001 333 05802
AAXX 03001 56172 32980 10000 11051 21099 37326 52016 80002 333 05702
AAXX 03001 56247 32980 00000 11032 21158 37426 52009 333 05701
AAXX 03001 56312 32680 70000 11015 21055 37078 57002 874// 333 05604
AAXX 03001 56462 32980 03401 11048 21087 37119 52007 333 05601
AAXX 03001 56651 32980 02001 10025 21017 37608 52007 333 05604 31022
AAXX 03001 56691 31465 81603 10043 20031 37745 52007 70040 886// 333 05505 30004
AAXX 03001 56985 32561 31604 10095 20071 38705 40166 52019 82460 333 05500
AAXX 03001 57633 32762 70000 10043 20033 39435 40231 52013 875// 333 05302 30028
AAXX 03001 57902 11456 81602 10067 20067 38624 40179 52016 69901 76000 887// 333 05502 79999
BBXX SHIP 03004 99401 71624 41/90 /3422 10150 20133 40079 56053 74704 8//// 92355 22224 00150 2//// 3//// 4//// 5//// 80140
AAXX 03001 55279 32980 02207 10005 21266 35675 57005 333 05510
AAXX 03001 55472 32880 12905 11042 21233 35720 57005 81100 333 05509
AAXX 03001 55696 32980 00000 11094 21105 36341 57005 333 05603
AAXX 03001 56079 32780 11801 11097 21127 36633 52009 81402 333 05503
AAXX 03001 56106 32980 02901 11103 21145 36180 57006 333 05802
AAXX 03001 56257 32980 00000 11092 21180 36262 52005 333 05504
AAXX 03001 56374 32980 02001 11034 21094 37393 52003 333 05651
AAXX 03001 56385 31/00 91601 11036 21036 36974 52006 74944 333 05452 30007
AAXX 03001 56954 31259 70000 10120 20120 40142 52011 71000 874// 333 05402
AAXX 03001 56966 32768 71602 10136 20115 40146 52015 87400 333 05653
AAXX 03001 57237 31810 83201 10017 20011 40214 52004 71000 885// 333 05452 30000
AAXX 03001 57306 31950 80000 10071 20068 40188 52010 71000 8807/ 333 05500 30035
AAXX 03001 57604 31858 81801 10098 20082 40178 52006 71000 885// 333 05302
AAXX 03001 57707 11456 80000 10053 20052 38475 52006 69951 76060 887// 333 05505 30038 70005
AAXX 03001 57832 11/03 92201 10019 20019 39473 40232 52015 69901 74554 333 05400 30020 79999
AAXX 03000 44256 32999 40000 11229 21248 39368 40309 53006 84070 333 21231 47005 555 31246
BBXX FLAO 0300/ 99764 70847 46/// ///// 11303 40019 52008
AAXX 03004 13601 12660 32702 10100 20094 30127 40229 54004 60001 83500 333 83640
BBXX C6UB2 03004 99337 11490 41297 81030 10210 20200 40190 54000 72586 8842/ 22223 00200 20806 306// 41006 5//// 6//// 80200 ICE /////
BBXX UDWE 03001 99443 11373 42698 80810 10022 40193 57025 88500 22213 00079 20502
BBXX UFLT 03001 99515 11465 42/97 72910 11070 40250 54000 8772/ 22213 00040 20904 33629 41206 50603 61020
BBXX VNVR 03004 99386 11209 46/// /3621 10037 21028 30200 40232 52027 22273 04120 85012
AAXX 03001 32150 12598 80000 11064 21080 30267 40297 53026 69920 883// 333 21108 47009 91104
AAXX 03004 71981 16/// /3104 11030 21100 60001 333 10027 21083 7////
AAXX 03004 71982 16/// /3609 11027 21107 60001 333 10025 21070 70000
AAXX 03004 71986 16/// /3325 11035 21082 60001 333 10008 21035 7////
AAXX 03004 71990 16/// /2210 11085 21097 38519 40138 58007 60001 333 11075 21107 70003
AAXX 03004 71406 16/// /2913 11026 21060 30236 40246 51014 60001 333 11018 21061 70000
AAXX 03004 71418 46/// /3410 10011 21030 30233 40266 51013 6///1 333 10025 20010 7////
AAXX 03004 71354 16/// /3316 11050 21112 60001 333 10006 21050 70000
AAXX 03004 71048 16/// /3223 11030 21079 60001 333 10018 21032 70000
AAXX 03004 71277 46/// /2504 11035 21074 6///1 333 10016 21035 7////
AAXX 03004 71406 16/// /2913 11026 21060 30236 40246 51014 60001 333 11018 21061 70000
AAXX 03004 71418 46/// /3410 10011 21030 30233 40266 51013 6///1 333 10025 20010 7////
AAXX 03004 71048 16/// /3223 11030 21079 60001 333 10018 21032 70000
AAXX 03004 71277 46/// /2504 11035 21074 6///1 333 10016 21035 7////
AAXX 03004 71354 16/// /3316 11050 21112 60001 333 10006 21050 70000
AAXX 03004 71981 16/// /3104 11030 21100 60001 333 10027 21083 7////
AAXX 03004 71982 16/// /3609 11027 21107 60001 333 10025 21070 70000
AAXX 03004 71986 16/// /3325 11035 21082 60001 333 10008 21035 7////
AAXX 03004 71990 16/// /2210 11085 21097 38519 40138 58007 60001 333 11075 21107 70003
AAXX 03001 48983 ///// ///// 10/// 20/// 30/// 40/// 8//// 333 20245
BBXX CFO383 03004 99439 70602 47598 /9905 10049 2100/ 40270 52000 700// 8/ // 22200 00094 11104 2//// 3//// 4//// 5//// 6//// 70020 80027 333 91008
BBXX CFO383 03004 99439 70602 47598 /9905 10049 2100/ 40270 52000 700// 8/ // 22200 00094 11104 2//// 3//// 4//// 5//// 6//// 70020 80027 333 91008
BBXX 45143 03001 99449 70806 46/// /2003 10008 30109 40330 52018 22200 00077 10401 70004 333 91204
BBXX 45143 03001 99449 70806 46/// /2003 10008 30109 40330 52018 22200 00077 10401 70004 333 91204
AAXX 03004 89657 46/// /1301 11048 20076 49711 52006
AAXX 03004 16550 12998 02806 10138 20108 30020 40200 56001 60001 555 0////
AAXX 03004 13601 12660 32702 10100 20094 30127 40229 54004 60001 83500 333 83640
AAXX 03001 45032 36/// /0001 10097 20028 30184 40201 57002
AAXX 03001 45035 36/// /0704 10122 20037 30159 40202 54000
AAXX 03001 45039 36/// /0303 10118 20028 30182 40198 52001
AAXX 03001 45044 36/// /0008 10121 20060 30090 40186 52001
AAXX 03001 45032 36/// /0001 10097 20028 30184 40201 57002
AAXX 03001 45035 36/// /0704 10122 20037 30159 40202 54000
AAXX 03001 45039 36/// /0303 10118 20028 30182 40198 52001
AAXX 03001 45044 36/// /0008 10121 20060 30090 40186 52001
AAXX 03004 91367 32474 30913 10306 20261 83100 333 20256 562// 83815 555 90300 91369 11448 70915 10283 20256 30070 40073 62874 78182 827// 333 20250 562// 58003 83810 555 90300 91371 32474 30915 10300 20286 30084 40087 82210 333 20261 5622/ 58000 82815 555 90300
BBXX ZDLS1 03003 99170 30029 41/98 81123 10185 20126 40157 54000 70222 8//// 22233 04185 20502 313// 40806 80152
AAXX 03004 82392 32996 00506 10260 20203 39995 40097 333 10366 29067 55080 58000
AAXX 03004 82583 32996 10907 10293 20169 39768 40104 80001 333 10357 29052 55069 58013
AAXX 03004 82594 32697 21410 10272 20198 30093 40101 82010 333 10314 29060 55104 59002
AAXX 03004 82683 32994 01802 10284 20167 39649 40097 333 10332 29054 55081 59005
AAXX 03004 82780 32996 00502 10308 20164 39856 40103 333 10363 29042 55095 59008
AAXX 03004 82789 32994 01806 10230 20148 38921 40011 333 10299 29/// 55112 59017
AAXX 03004 82795 32594 40908 10223 20199 39519 40133 84200 333 10309 29074 55087 59004
AAXX 03004 82879 32592 53202 10274 20217 39825 40087 85800 333 10372 29058 55091 59001
AAXX 03004 83386 21495 80502 10231 20224 39566 40094 72186 8572/ 333 10294 29086 55039 59009 60081
AAXX 03004 83388 21496 80000 10236 20215 39408 40063 70262 885// 333 10295 29082 55027 59017 60011
AAXX 03004 83393 215// 81402 10220 20210 39396 40109 76369 887// 333 10298 29082 55044 59007 60161
AAXX 03004 83442 21595 80502 10240 20231 39739 40082 70351 888// 333 10303 29093 55/// 59015 69951
AAXX 03004 83479 31798 82704 10220 20205 39310 40102 75195 8809/ 333 10281 29084 55037 59012
AAXX 03004 83483 21596 83601 10217 20214 39536 40100 70296 8237/ 333 10287 29089 55033 59010 60241
AAXX 03004 83531 215// 60902 10204 20182 39064 40089 70162 86500 333 10273 29086 55030 59014 60011
AAXX 03004 83574 327// 51402 10256 20202 39563 40163 5//// 85400 333 1//// 29063 55098
AAXX 03004 83582 325// 60902 10220 20205 39325 40085 53016 86200 333 10296 29083 55029
AAXX 03004 83595 215// 81402 10222 20212 30052 40137 76165 888// 333 10310 29085 55031 58030 60231
AAXX 03004 83687 32696 41809 10196 20164 39100 40100 53002 84700 333 10280 29/// 55096
AAXX 03004 83692 32697 81808 10156 20145 39099 40143 53010 882// 333 10228 29089 55024
BBXX 41053 03001 99185 70661 46/// /0504 10273 40148 90030 333 91205
BBXX 41053 03001 99185 70661 46/// /0404 10273 40147 90020 333 91205
BBXX 41053 03001 99185 70661 46/// /0404 10272 40145 90010 333 91205
BBXX 41052 03001 99183 70648 46/// /0204 10270 40140 90030 333 91206
BBXX 41052 03001 99183 70648 46/// /0305 10270 40139 90020 333 91205
BBXX 41052 03001 99183 70648 46/// /0505 10272 40138 90010 333 91206
BBXX 44024 03001 99423 70659 46/30 /2901 10066 40270 51010 90004 22200 00097 11103 70017 333 91202 555 11014 22014
BBXX C6FY5 03004 99228 50431 41998 81802 10200 2017/ 40145 54100 7//// 8//4/ 222// 0//// 2//// 3//// 4//// 5//// 6//// 80180 ICE /////
BBXX VRXL7 03003 99469 70115 41297 82819 10130 2011/ 40225 50025 70222 8861/ 22213 00150 20107 33231 40106 50106 6//// 80120 ICE 0/0//
BBXX MYNJ6 03003 99063 50344 41597 40821 10260 20232 40140 54/// 70200 8348/ 22283 0//// 20202 308// 40202 5//// 6//// 80240 ICE /////
AAXX 03001 48969 ///// ///// 10/// 20/// 30/// 40/// 8//// 333 20175
AAXX 03001 48962 ///// ///// 10/// 20/// 30/// 40/// 8//// 333 20213
AAXX 03001 48990 NIL
AAXX 03001 48986 ///// ///// 10/// 20/// 30/// 40/// 8//// 333 20180
AAXX 03001 48995 ///// ///// 10/// 20/// 30/// 40/// 8//// 333 20217
AAXX 03001 48967 NIL
AAXX 03001 48992 NIL
AAXX 03001 48965 NIL
AAXX 03001 48985 ///// ///// 10/// 20/// 30/// 40/// 8//// 333 20225
AAXX 03001 48970 ///// ///// 10/// 20/// 30/// 40/// 8//// 333 20201
AAXX 03001 48991 32660 50501 10224 20195 30082 40094 83502 333 20224 58002
AAXX 03001 48964 NIL
AAXX 03001 48997 32496 63604 10187 20105 30113 40113 86800 333 20196 59001
AAXX 03001 48968 ///// ///// 10/// 20/// 30/// 40/// 8//// 333 20210
AAXX 03001 48973 NIL
AAXX 03001 48966 NIL
AAXX 03001 48983 ///// ///// 10/// 20/// 30/// 40/// 8//// 333 20245
AAXX 03001 48972 ///// ///// 10/// 20/// 30/// 40/// 8//// 333 20192
AAXX 03001 48998 ///// ///// 10/// 20/// 30/// 40/// 8//// 333 20220
AAXX 03001 48993 NIL
AAXX 03001 48971 NIL
AAXX 03001 48963 NIL
AAXX 03001 48987 NIL
BBXX MGGK4 03004 99347 30220 41/98 /2430 10183 20114 40207 58010 70200 8//// 22225 00198 2//// 3//// 4//// 5//// 80145
BBXX PCDE 03003 99360 30178 41/97 11505 10160 20108 40230 52020 7//// 8//// 22233 20204 80130
BBXX TBWUK18 03004 99257 50307 41/97 53419 10230 20215 40168 52007 70011 8515/ 22263 00240 20503 316// 41003 5//// 80220
BBXX PCIM 03004 99120 10452 41397 10609 10261 20205 40129 58011 70200 81100 22264 00271 2//// 80222
BBXX MYNJ6 03003 99063 50344 41597 40821 10260 20232 40140 54/// 70200 8348/ 22283 0//// 20202 308// 40202 5//// 6//// 80240 ICE /////
BBXX SHIP 03004 99294 11611 41598 60718 10230 20201 40193 51012 70311 83211 OO/// 92349 22223 00250 1//// 20602 304// 40502 5//// 6// // 80210
BBXX WDB9986 03004 99537 11788 41598 30115 10040 2113/ 40020 5//// 70000 83342 22264 00040 20302 324// 40604 5//// 6//// 81010 ICE /////
BBXX SHIP 03004 99294 11611 41598 60718 OO/// 10230 20201 40193 51012 70311 83211 92349 22223 00250 1//// 20602 304// 40502 5//// 6// // 80210
BBXX SHIP 03004 99217 11360 41798 21316 10250 20222 40128 51001 70155 82245 22273 00279 20303 312// 40303 80230
BBXX 3EDA4 03003 99275 11378 41397 80804 10240 20226 40123 53/// 70322 87757 22274 00247 20301 302// 40403 80230
BBXX C6FY5 03004 99228 50431 41998 81802 10200 2017/ 40145 54100 7//// 8//4/ 222// 0//// 2//// 3//// 4//// 5//// 6//// 80180 ICE /////
BBXX 3EPD8 03004 99026 50972 41/98 11616 10228 20200 40120 52010 7//00 8//4/ 22234 04230 20201 399// 4//02 80210
BBXX DQVI 03000 99360 10181 41/97 22102 10170 20128 40240 54000 70300 8//// 22224 00208 20401 80145
BBXX VRXL7 03003 99469 70115 41297 82819 10130 2011/ 40225 50025 70222 8861/ 22213 00150 20107 33231 40106 50106 6//// 80120 ICE 0/0//
BBXX 63119 03004 99578 70030 41497 82436 10075 20022 49780 57025 78122 887// 22251 20302 324// 40504 5////
BBXX 45143 03001 99449 70806 46/// /2003 10008 30109 40330 52018 22200 00077 10401 70004 333 91204
BBXX CFO383 03004 99439 70602 47598 /9905 10049 2100/ 40270 52000 700// 8/ // 22200 00094 11104 2//// 3//// 4//// 5//// 6//// 70020 80027 333 91008
BBXX FLAO 0300/ 99764 70847 46/// ///// 11303 40019 52008
BBXX SHIP 03004 99401 71624 41/90 /3422 10150 20133 40079 56053 74704 8//// 92355 22224 00150 2//// 3//// 4//// 5//// 80140
BBXX 44056 03001 99362 70757 46/// ///// 1//// 92350 22200 00124 11002 21002 309// 41101 70010
BBXX 44040 03001 99410 70736 46/// /3208 10092 20001 40303 90019 22200 10301 70004 333 91211 555 11103 22118
BBXX 44138 03001 99443 70536 46/// /0208 10064 40241 52007 22200 00087 11208 70042 333 91211
BBXX 44137 03001 99423 70620 46/// /0103 10068 40272 52010 22200 00118 11205 70026 333 91205
BBXX 46214 03001 99379 71235 46/// ///// 1//// 90030 22200 00120 11108 20907 332// 41105 70042
BBXX 46243 03001 99462 71241 46/// ///// 1//// 90029 22200 00090 11405 21004 327// 41403 70027
BBXX 46213 03001 99403 71247 46/// ///// 1//// 90024 22200 00112 11011 21009 328// 41706 70054
BBXX 46225 03001 99329 71174 46/// ///// 1//// 90014 22200 00163 10902 20902 329// 41102 70012
BBXX 44022 03001 99409 70737 46/// ///08 10089 21006 40300 90030 22200 00109 333 91212 555 11093 22098
BBXX 44060 03001 99413 70721 46/// ///08 10096 40282 90030 22200 00121 333 91210 555 11088 22093
BBXX 44099 03001 99369 70757 46/// ///// 1//// 90022 22200 00134 11102 21001 310// 41101 70009
BBXX 46236 03001 99368 71219 46/// ///// 1//// 90020 22200 00126 11403 21002 327// 41402 70017
BBXX 46229 03001 99438 71246 46/// ///// 1//// 90021 22200 00108 11407 20805 329// 41404 70034
BBXX 46224 03001 99332 71175 46/// ///// 1//// 90006 22200 00162 11402 21001 321// 41401 70008
BBXX 46219 03001 99332 71199 46/// ///// 1//// 90028 22200 00136 11104 21003 331// 41102 70019
BBXX 46215 03001 99352 71209 46/// ///// 1//// 90008 22200 00130 11103 21002 329// 41102 70015
BBXX C6TQ6 03004 99207 70868 41698 50521 10250 20236 40200 54000 7//11 8228/ 22284 00280 20102 305// 40202 5//// 6//// 80240 ICE /////
BBXX 46238 03001 99334 71195 46/// ///// 1//// 90020 22200 00145 11102 20802 328// 41101 70011
BBXX 46239 03001 99363 71221 46/// ///// 1//// 90021 22200 00123 11705 21004 329// 41704 70027
BBXX 42363 03001 99282 70892 46/// /1013 10211 20111 40264 90030 333 91213
BBXX 42364 03001 99291 70881 46/// /0808 10194 20128 40275 90030
BBXX C6OA3 03003 99402 31469 41598 32633 10150 20103 40189 53/// 7//22 82585 22283 04155 20603 326// 40902 5//// 80125
AAXX 03001 47008 11460 80000 11004 21022 30170 40225 58009 69912 77772 886// 333 21012
AAXX 03001 47014 31540 80000 11050 21078 39815 40229 53016 71044 886// 333 21080
AAXX 03001 47016 11560 60000 11048 21101 39331 40215 57012 69902 77377 86500 333 21054
AAXX 03001 47020 11560 80000 11018 21030 39829 40216 54000 60012 77177 8802/ 333 21025
AAXX 03001 47025 11567 83403 10008 20003 30181 40211 58017 69932 70372 86500 333 21005
AAXX 03001 47035 32970 40000 10026 21030 30193 40202 52003 84030 333 20010
AAXX 03001 47041 12570 60000 10024 20003 30160 40188 57020 69902 83502 333 20015
AAXX 03001 47055 11560 80000 10006 20006 30154 40201 53005 60122 77377 8802/ 333 20002
AAXX 03001 47058 12560 80000 10028 20015 30146 40193 54000 69902 885// 333 20023
AAXX 03001 47069 32965 60000 10033 20012 30086 40186 53012 80001 333 20013
AAXX 03001 47003 32580 83601 11028 21062 30216 40220 57013 87502 333 21041
AAXX 03001 47005 11560 81801 11071 21084 38570 57005 69912 77177 885// 333 21106
AAXX 03001 47022 12775 80000 11060 21068 38819 53006 69902 86032 333 21064
AAXX 03001 47028 32665 31801 11010 21025 30102 40199 53003 83500 333 21015
AAXX 03001 47031 11570 70000 11056 21063 38904 54000 60012 72272 87500 333 21058
AAXX 03001 47037 32970 20000 11002 21026 30083 40209 53012 82030 333 21065
AAXX 03001 47039 11556 80000 10007 21013 30009 40203 52002 60012 77177 8802/ 333 20003
AAXX 03001 47046 12969 80502 10030 21025 30165 40188 57008 69902 83032 333 20028
AAXX 03001 47050 11565 80701 10023 20004 30210 40244 52004 69902 70162 885// 333 20020
AAXX 03001 47052 11565 80000 10007 20001 39857 40200 52011 60032 70327 885// 333 20005
AAXX 03001 47060 31550 50000 10020 20017 30125 40184 54000 71022 85501 333 20013
AAXX 03001 47061 11650 83201 10029 20024 30148 40192 52003 60222 76366 8802/ 333 20025
AAXX 03001 47065 31/01 90000 11002 21017 30124 40190 53006 74344 333 21012
AAXX 03001 47067 11550 83601 10022 20012 30079 40201 52005 60032 71022 885// 333 20015
AAXX 03001 47068 32560 80000 10009 21008 30147 40183 53008 82502 333 21001
AAXX 03001 47070 12580 80000 10039 20027 30092 40180 54000 69932 885// 333 20029
AAXX 03001 47075 11560 83601 10008 21003 39665 40095 52008 60072 77177 8802/ 333 21001
BBXX DGWF2 03003 99087 11092 41397 80229 10260 20232 40085 51010 7//22 887// 22213 04270 20205 303// 40308 80240
BBXX 9MEU4 03004 99295 11278 41198 73206 10170 20125 40086 51030 70102 8//// 22244 00240 2//// 80145
BBXX A8KO3 03003 99344 11286 41598 43214 10125 20088 40125 51010 70211 83181 22253 00190 20302 302// 40703 80105
BBXX DQVN 03003 99358 11211 41396 83516 10059 20003 40230 53020 70322 887// 22200 00148 2//04 80035
BBXX VRCI9 03004 99248 11300 41398 80222 10225 20188 40070 52030 70262 887// 22256 00264 20605 334// 40805 80200
BBXX VRGW2 03004 99086 10737 41096 51911 10280 20280 40101 53008 70222 85168 22234 04300 20301 80280
BBXX MGDM 03003 99101 30767 413// 70208 10282 20248 40063 56008 71052 87700 22213 00291 20402 334// 40402 80258
BBXX 9MBW7 03004 99245 11235 41398 73535 10195 20151 40030 51020 70315 877// 22213 00265 20408 33608 40408 50408 80170
BBXX 9MEZ2 03004 99145 11189 41498 80315 10270 20241 40048 54000 70325 8747/ 22284 00294 20101 301// 40604 80250
BBXX TBWUK37 03001 99320 11357 41398 82407 10240 20210 40057 57010 78022 8/71/ 22213 04240 20402 307// 40904 80220
AAXX 03004 47409 12/60 10902 11023 21078 30235 40291 50007 60002 81602 333 21077 4/001 70000
AAXX 03004 47430 11/65 80911 10064 20047 30146 40200 58021 69902 78082 882// 333 20010 79999
AAXX 03004 47636 11/30 83106 10107 20103 39996 40064 55015 60072 78086 882// 333 20095 70065
AAXX 03004 47651 11/58 72704 10141 20133 30032 40054 58017 60182 78088 8777/ 333 20098 70175
AAXX 03004 48409 31558 50202 10178 20141 39977 40130 57066 71011 82252 333 20170 59006
AAXX 03004 91367 32474 30913 10306 20261 83100 333 20256 562// 83815 555 90300 91369 11448 70915 10283 20256 30070 40073 62874 78182 827// 333 20250 562// 58003 83810 555 90300 91371 32474 30915 10300 20286 30084 40087 82210 333 20261 5622/ 58000 82815 555 90300
BBXX VCXF 03004 99464 70484 41296 83515 10039 2004/ 40223 52039 71054 886// 22200 02040 20402 32034 40905 50905 80038
BBXX VCXF 03004 99464 70484 41296 83515 10039 2004/ 40223 52039 71054 886// 22200 02040 20402 32034 40905 50905 80038
AAXX 03004 89646 46/// /0213 11252 29077 37454 4//// 5////
AAXX 03004 89648 46/// /2120 11279 29072 37052 4//// 5////
AAXX 03004 89659 46/// /2206 11189 29071 37512 4//// 5////
AAXX 03004 89661 46/// /2323 11079 29079 39051 4//// 5////
AAXX 03004 89666 46/// /1703 11036 29072 39529 4//// 5////
AAXX 03004 13601 12660 32702 10100 20094 30127 40229 54004 60001 83500 333 83640
BBXX 44100 03001 99363 70756 46/// ///// 1//// 90022 22200 00144 11102 21002 309// 41102 70011
AAXX 03004 71848 16/// ///// 11019 21085 60001 333 10025 21055 70000
AAXX 03004 71073 16/// /3216 11034 21085 60001 333 11002 21064 70000
BBXX 46232 03001 99325 71174 46/// ///// 1//// 90008 22200 00163 11403 21002 319// 41402 70013
AAXX 03004 71399 16/// ///// 11040 21094 60001 333 10010 21041 70000
AAXX 03004 71495 16/// /3318 11035 21100 60001 333 11004 21038 70000
AAXX 03004 71793 16/// ///// 11042 21096 60001 333 10008 21042 70000
AAXX 03004 71974 46/// /1404 11323 21351 30138 40183 53005 6///1 333 11248 21324 7////
AAXX 03004 71013 16/// ///// 11043 21084 60001 333 10004 21043 70000
AAXX 03004 71060 16/// /2603 11040 21102 38670 40263 58001 60001 333 10001 21040 70000
AAXX 03004 71565 16/// /3114 11022 21071 60001 333 11005 21022 70000
AAXX 03004 71566 16/// /3008 11025 21082 60001 333 10009 21026 70000
AAXX 03004 71567 16/// /3211 11064 21110 60001 333 10005 21065 70000
BBXX 46241 03001 99330 71173 46/// ///// 1//// 90011 22200 00154 11102 21001 327// 41101 70009
AAXX 03004 71974 46/// /1404 11323 21351 30138 40183 53005 6///1 333 11248 21324 7////
AAXX 03004 71848 16/// ///// 11019 21085 60001 333 10025 21055 70000
AAXX 03004 71399 16/// ///// 11040 21094 60001 333 10010 21041 70000
AAXX 03004 71013 16/// ///// 11043 21084 60001 333 10004 21043 70000
AAXX 03004 71060 16/// /2603 11040 21102 38670 40263 58001 60001 333 10001 21040 70000
AAXX 03004 71073 16/// /3216 11034 21085 60001 333 11002 21064 70000
AAXX 03004 71565 16/// /3114 11022 21071 60001 333 11005 21022 70000
AAXX 03004 71566 16/// /3008 11025 21082 60001 333 10009 21026 70000
AAXX 03004 71567 16/// /3211 11064 21110 60001 333 10005 21065 70000
AAXX 03004 71793 16/// ///// 11042 21096 60001 333 10008 21042 70000
AAXX 03004 71495 16/// /3318 11035 21100 60001 333 11004 21038 70000
BBXX 46216 03001 99343 71198 46/// ///// 1//// 90027 22200 00150 11002 21001 327// 41201 70008
BBXX 46223 03001 99335 71178 46/// ///// 1//// 90030 22200 00163 11401 21001 319// 41401 70007
BBXX 46231 03001 99327 71174 46/// ///// 1//// 90024 22200 00152 11202 21002 328// 41202 70012
BBXX 46222 03001 99336 71183 46/// ///// 1//// 90026 22200 00160 11102 21002 328// 41101 70010
AAXX 03004 96011 01560 71103 10240 20233 30056 40082 52009 69901 70161 82532 333 20246 50230 55065 59007 69907 82620
BBXX 46242 03001 99332 71174 46/// ///// 1//// 90026 22200 00158 11402 20701 322// 41401 70008
BBXX 46242 03001 99332 71174 46/// ///// 1//// 92356 22200 00158 11402 21001 322// 41401 70008
BBXX 42023 03001 99261 70831 46/// /0308 1//// 90030 333 91209
BBXX 42023 03001 99261 70831 46/// /0308 1//// 90000 333 91209
BBXX 44029 03001 99425 70706 46/30 /3006 10088 40257 53019 90004 22200 00097 11102 70012 333 91207 555 11067 22070
BBXX 44039 03001 99411 70727 46/// /2910 10103 20000 40295 90030 22200 00115 10402 70008 333 91213
AAXX 03004 41246 32960 02303 10198 20140 30136 40141 333 59013
AAXX 03001 14015 12598 81401 10104 20079 39833 40192 57006 60001 885// 333 88630
AAXX 03001 89063 41497 82502 11003 21010 39931 49942 52041 72272 880// 333 10002 21006
AAXX 03004 96033 31450 60000 10244 20238 30079 40086 57016 69904 70562 83926 333 20242 50134 55000 56000 57903 58017 81920 83617 80980
AAXX 03004 96207 11450 80000 10195 20190 39210 40132 57010 60134 70522 85531 333 20191 55000 56000 58000 85614
BBXX 63106 03004 99610 10017 46/// /1931 10072 49704 57085 22200
BBXX 63113 03004 99610 10017 46/// /2037 10081 20060 49712 57081 22200 10812 70060
BBXX 62303 03004 99516 70051 46/// /2524 10122 2//// 40048 57021 22200 00126 10709 70044 333 90710 91132
BBXX 62081 03004 99510 70134 46/// ///// 10122 20111 40110 58001 22200 00121 10812 70060
BBXX 62107 03004 99501 70061 46/// /2630 10118 20105 40101 58022 22200 00125 10907 70035 333 90710 91142
BBXX 62103 03004 99499 70029 46/97 /2632 10124 20102 40096 57034 22200 00136 10705 70027 333 90710 91147
AAXX 03004 41246 32960 02303 10198 20129 30136 40141 333 59013
AAXX 03004 41246 32960 02303 10198 20129 30136 40141 333 59013
AAXX 03004 63820 32580 10000 10245 20226 40091 81100 333 59017 81820
BBXX PFBF 03004 99011 31075 41297 82707 10261 20250 40070 53/// 78088 8/8// 22273 20305 328// 40305 5//// 80253
BBXX BATFR45 03004 99053 30393 46/// ///// 10275 20239 40086 56012 22254 00299
BBXX SHIP 03004 99086 31008 41797 70127 10260 40067 53011 70111 84410 22263 00283 10905 20701 33402 40505 50703 80242
BBXX SHIP 03004 99105 31067 41/97 31210 10265 20244 40049 70311 222// 0//// 20300 319// 40301 5////
BBXX BATEU00 03004 99178 30041 46/// /1312 10187 20127 40174 58006 22233
BBXX UCKZ 03001 99192 30055 42597 71313 10190 20143 40162 58004 87800 22233 00192 2////
BBXX TBWUK38 03003 99223 30077 41/98 /1724 10190 40171 70255 8//// 22274 04220 20806 316// 41006 5////
BBXX BATFR08 03004 99234 30549 46/// /0819 10234 20182 40130 56004 22243 00252
BBXX DILS 03004 99303 30358 41/98 32326 10225 20186 40078 54000 70111 81/// 22254 04240 20506 323// 40404 80200
BBXX ONDY 03004 99349 30208 41598 52219 10180 2013/ 40190 54000 70311 85/9/ 22264 00205 2//// 3//// 4//// 5//// 6//// 80150 /////
BBXX A8RL3 03001 99350 30227 41398 11609 10182 20146 40195 57003 70100 8//// 22223 00243 2//// 3//// 4//// 5//// 80161
BBXX V7OX3 03004 99359 30052 41/98 /1207 10120 20056 40300 54000 70211 8//// 22264 04180 2//03 323// 4//04 5//// 80090
BBXX C6CU6 03003 99469 70074 41497 82918 10130 20111 40225 58030 76222 887// 22213 04155 20508 330// 40508 5//// 80120
AAXX 03004 93404 NIL
AAXX 03001 01332 16/// /3602 10007 21012 60001 333 91104
BBXX C6CU6 03003 99469 70074 41497 82918 10130 20111 40225 58030 76222 887// 22213 04155 20508 330// 40508 5//// 80120
AAXX 03004 13601 12660 32702 10100 20094 30127 40229 54004 60001 83500 333 83640
BBXX BAREU60 03004 99441 10146 46/// ///// 40210 22262
BBXX 61001 03004 99434 10078 46/// /2403 10153 20141 40182 57002 22200 00176 10603 70013
BBXX BATFR58 03004 99433 10076 46/// ///// 40187 56007 22200 00185
BBXX BATFR24 03004 99430 10074 46/// ///// 10174 20127 40183 56007 22224 00164
BBXX BATFR20 03004 99429 10068 46/// /1812 10172 20147 40179 50000 22223
BBXX C6XC6 03004 99428 10067 41/// 71915 10180 2//// 40170 5//// 7//92 8//// 22253 0//// 2//// 3//// 4//// 5//// 6//// 8//// /////
BBXX BATFR31 03004 99425 10070 46/// /2014 10177 20132 40181 52002 22233 00182
BBXX BATFR30 03004 99422 10073 46/// /1821 10179 20134 40179 22233 00180
BBXX HZRX 03003 99422 10079 41797 61817 10175 20160 40186 54004 70322 86000 22273 10160 20202 31818 40303 5//// 6//// 80150 ///// /////
BBXX 61002 03004 99421 10047 46/// /0124 10149 2//// 40198 52010 22200 00176 10604 70020 555 1/031
BBXX BATEU09 03004 99398 10137 46/// /1715 10174 20129 40230 22251 00189
BBXX 9V8072 03003 99389 10259 41/// /0000 10120 20079 40243 50/// 7//22 8//// 22233 06170 2//// 80100
BBXX C6VF5 03004 99374 10204 43/// 33011 10160 2011/ 40240 5//// 7//// 83/// 22234 00200 2//// 3//// 4//// 5//// 6//// 80130 /////
BBXX DDZF2 03004 99368 10012 41697 72520 10160 20144 40190 56020 70322 83474 22224 00180 20604 323// 40602 80150
BBXX PDYI 03003 99366 70007 41/97 80125 10120 20085 40185 54000 70266 88/// 22223 2//// 3//// 4//// 5//// 80101
BBXX DQVI 03000 99360 10181 41/97 22102 10170 20128 40240 54000 70300 8//// 22224 00208 20401 80145
BBXX NWS0020 03004 99353 10217 43/// /3008 10167 20106 40241 5//// 7//// 8//// 222// 04190 2//// 3//// 4//// 5//// 6//// 8//// /////
BBXX C6VM6 03004 99346 10222 41/98 22608 10160 20126 40250 54000 7//00 8//// 22223 00170 2//// 3//// 4//// 5//// 6//// 80140 /////
BBXX OVZV2 03000 99325 10293 41998 00205 10165 20099 40228 52010 70000 80000 22264 00208 2//// 3//// 4//// 5//// 80130
BBXX 64045 03004 99591 70117 46/// /2943 10063 20047 49772 53041 22200 00104 11227 70135 333 90710 91164
BBXX BATUK01 03004 99591 70024 46/// /2344 10070 20027 49714 57044 22241 00109
BBXX BATEU05 03004 99586 70168 46/// /3026 10057 20012 49906 53021 22222
BBXX BATFR04 03004 99584 70062 46/// /2651 10082 20020 4//// 22200 00110
BBXX 62112 03004 99584 70002 47497 /2333 10086 20060 49779 57056 700// 22200
BBXX 62113 03004 99584 10002 47496 /2135 10091 20067 49803 57066 762// 22200
BBXX 62129 03004 99584 10003 46/// ///// 10090 20071 49802 57061 22200
BBXX 62114 03004 99583 10000 46/// /2238 10093 20067 49775 57057 22200
BBXX PJAI 03004 99581 70014 47997 /2537 10099 20025 49784 57038 700// 22200
BBXX 62111 03004 99580 70003 46/// /2538 10099 20060 49820 56044 22200 10709 70044
BBXX 62117 03004 99579 10000 47496 /2233 10099 20073 49802 57057 700// 22200 10709 70045
BBXX 63119 03004 99578 70030 41497 82436 10075 20022 49780 57025 78122 887// 22251 20302 324// 40504 5////
BBXX 62105 03004 99554 70132 46/// /2830 10087 20045 49968 53006 22200 00111 10914 70068 333 90710 91141
BBXX 62105 03004 99554 70122 46/// /2830 10087 20045 49968 53006 22200 00111 10914 70068 333 90710 91141
BBXX MCZN2 03004 99538 70041 41298 82026 10100 20001 49973 57040 70222 887// 22271 04120 20101 32000 40105 50000 80060
BBXX AMOUK04 03004 99536 70035 46/// ///// 10115 20099 39943 49949 57042 92350
BBXX AMOUK14 03004 99535 70030 46/// ///// 10110 20083 39944 49979 57017 92350
BBXX AMOUK12 03004 99533 70057 46/// ///// 10116 20091 39935 49968 57047 92350
BBXX AMOUK11 03004 99533 70050 46/// ///// 10115 20103 39943 49986 57017 92350
BBXX 62095 03004 99530 70159 46/// /2823 10108 20074 40070 52006 22200 00119 10811 70053 333 90710 91133
BBXX 62301 03004 99524 70047 46/// /2524 10121 20102 40014 57021 22200 00123 10606 70032 333 90710 91140
BBXX 62094 03004 99517 70067 46/// /2521 10123 20109 40044 56013 22200 00122 10708 70039 333 90710 91133
BBXX 62303 03004 99516 70051 46/// /2522 10122 20115 40044 56022 22200 00128 10708 70041 333 90710 91134
BBXX 62023 03003 99514 70079 46/96 /2631 10119 2//// 40069 5//// 22200 10708 70042 333 91142 555 70072 80010
BBXX 62092 03004 99512 70105 46/// /2724 10128 20110 40090 52001 22200 00127 10811 70056 333 90710 91135
BBXX 62081 03004 99510 70134 46/// ///// 10126 20115 40110 58001 22200 00122 10812 70060
BBXX AMOUK06 03004 99506 70024 46/// ///// 10125 20103 30060 40079 57039 92350
BBXX AMOUK09 03004 99506 70001 46/// ///// 10108 20091 30088 40106 57031 92350
BBXX BATFR02 03004 99504 70008 46/// /2040 10115 20087 40098 22243 00134
BBXX 62305 03004 99504 10000 46/96 /2231 10101 20079 40123 58028 22200 00137 10603 70017 333 90710 91146
BBXX TESTFR9 03004 99502 70041 46/// /2638 10121 29094 40102 22243
BBXX BATFR27 03004 99502 70015 46/// /2337 10117 20085 40089 56033 22243 00145
BBXX AMOUK08 03004 99501 70061 46/// ///// 10123 20113 30097 40104 57019 92350
BBXX A8IP3 03003 99500 70117 41/96 /2735 10135 20118 40115 54000 76055 8//// 22254 04130 21008 80125
BBXX 62103 03004 99499 70029 46/98 /2631 10125 20101 40106 56037 22200 00135 10705 70024 333 90710 91146
BBXX BATFR03 03004 99496 70008 46/// /2135 10092 20070 40132 22272
BBXX 62027 03004 99491 70022 46/// /2526 1//// 2//// 40149 57024 22200 00133 11205 328// 70023
BBXX 62442 03004 99490 70163 46/// /2726 1//// 2//// 40192 58009 22200 00133 333 90710 91137
BBXX GHJV 03004 99489 70056 41297 82530 10132 20111 40148 57/// 78082 8762/ 22251 02144 20302 334// 40704 80121
BBXX VRFX8 03004 99487 70145 41/98 82832 10130 20090 40180 58010 70222 88/// 22224 0//// 2//// 3//// 4//// 80110
BBXX 62029 03004 99487 70125 46/// /2825 10134 20109 40178 58003 22200 00139 10811 70057 333 90710 91134
BBXX A8JI2 03004 99483 70092 41297 82724 10160 20108 40160 55030 70322 8677/ 22224 04165 20809 327// 41010 5//// 80130
BBXX BATFR12 03004 99483 70072 46/// /2422 10127 20109 40168 56018 22200 00149
BBXX WKAU 03004 99480 70279 41296 82428 10130 2013/ 40244 58005 75052 886// 22224 00130 20406 329// 41105 5//// 6//// 80130 /////
BBXX PHBO 03003 99480 70188 41298 72633 10135 20098 40235 58019 703// 8/7// 22224 2//// 80116
BBXX MHNO6 03003 99478 70112 41/98 /2625 10137 20109 40187 53009 70282 8//// 22253 00159 2//// 3//// 4//// 5//// 80122
BBXX PHCQ 03003 99475 70098 41497 82416 10124 20097 40192 52015 70211 8//// 22253 04138 20308 327// 40804 5//// 80109
BBXX 62163 03004 99475 70084 46/// /2623 10124 20099 40198 56012 22200 00140 10910 70048 333 90710 91129
BBXX BATFR60 03004 99469 70027 46/// /2331 10130 20057 40177 22242 00144
BBXX DPJK 03001 99468 70114 41/97 72712 10140 20105 40211 52010 71582 8//// 22254 04163 2//// 3//// 4//// 5//// 80120
BBXX DGAF 03004 99466 70256 41297 72617 10130 20103 40300 54000 70222 8/768 22224 00140 29904 80115
BBXX DDSX2 03001 99455 70080 41498 62811 10145 20101 40240 56010 70211 8347/ 22215 04197 21005 328// 41408 5//// 80120
BBXX BATFR15 03004 99452 70194 44998 82726 10134 20109 40308 56020 70222 8677/ 22224 00149 21002 336// 41506 5////
BBXX 62001 03004 99452 70050 46/// /2716 10135 20066 40248 57006 22200 00158 10807 70034
BBXX BATFR54 03004 99451 70035 46/// /2616 10132 20064 40245 58010 22223 00159
BBXX PCBT 03003 99438 70102 41/98 82821 10130 20094 40276 52006 72582 8//// 22254 2//// 80110
BBXX MQEC7 03003 99432 70097 41/98 63616 10130 20074 40283 51007 7//// 8//// 22284 00150 2//// 3//// 4//07 5//// 80100
BBXX WAHV 03004 99402 70244 41797 81704 10135 2008/ 40367 51001 7//22 8874/ 22225 00167 2//// 302// 41405 5//// 6//// 80105 /////
BBXX HZZB 03003 99381 70275 41697 80717 10170 2015/ 40333 5//// 7//22 886// 22223 0//// 20304 311// 40405 5//// 6//// 80155 /////
BBXX PHAC 03003 99374 70117 41/98 /0225 10159 20093 40290 7//// 8//// 22282 2//// 80122
BBXX BATFR09 03004 99370 70094 46/// /0139 10154 20072 40271 53024 22283 00189
BBXX PDYI 03003 99366 70007 41/97 80125 10120 20085 40185 54000 70266 88/// 22223 2//// 3//// 4//// 5//// 80101
BBXX C6WW4 03004 99365 70091 41697 43638 10150 2//// 40250 57/// 7//22 843// 22234 04160 2//08 3//// 4//// 5//// 6//// 8//// /////
BBXX BATFR01 03004 99359 70058 46/// /3320 10142 20074 40224 53005 22200 00184
BBXX KSDF 03003 99353 70208 41498 60519 10183 20139 40289 51010 7//22 85401 22223 0//// 20204 330// 40506 5//// 6//// 80156
BBXX PFFH 03003 99352 70120 41198 30318 10170 20110 40276 54000 7//00 83400 22223 00186 2//07 336// 41007 80135
BBXX 46221 03001 99339 71186 46/// ///// 1//// 90015 22200 00152 11402 21002 321// 41401 70010
AAXX 03004 71841 16/// /1911 11032 21077 39726 40131 55018 60001 333 11027 21194 70000
AAXX 03004 71006 16/// /3318 11041 21093 60001 333 10012 21041 70000
AAXX 03004 71007 46/// ///// 11015 21095 6///1 333 10035 21078 7////
AAXX 03004 71008 16/// /3218 11025 21073 60001 333 10007 21045 70000
AAXX 03004 71009 16/// /3316 11029 21073 60001 333 10009 21032 70000
AAXX 03004 71012 16/// /3325 11045 21098 60001 333 10007 21045 70000
AAXX 03004 71035 16/// ///// 11028 21076 60001 333 10009 21030 70000
AAXX 03004 71102 17/// ///// 11063 21107 69941 7//4/ 333 10002 21063 70008
AAXX 03004 71105 16/// ///// 11029 21053 60001 333 21037 7////
AAXX 03004 71433 46/// /2025 10006 21033 30012 40248 58008 6///1 333 10010 21054 7////
AAXX 03004 71051 16/// ///// 11028 21060 60001 333 10014 21032 70000
AAXX 03004 71057 16/// ///// 11032 21091 60001 333 10016 21070 70000
AAXX 03004 71070 16/// ///// 11021 21063 60001 333 10016 21046 70007
AAXX 03004 71089 16/// ///// 11049 21101 60001 333 10011 21049 70000
AAXX 03004 71502 16/// /2813 11199 21213 30074 40090 51006 60001 333 11188 7////
AAXX 03004 71509 16/// /3308 11014 21076 60001 333 10038 21048 7////
AAXX 03004 71517 16/// /3307 11024 21096 60001 333 10042 21071 70000
AAXX 03004 71518 16/// /3212 11019 21065 60001 333 10024 21044 70005
AAXX 03004 71519 17/// /3107 11024 21041 69941 7//4/ 333 10020 21025 70004
AAXX 03004 71528 16/// /3410 11023 21076 60001 333 10029 21054 70000
AAXX 03004 71789 16/// ///// 11034 21099 60001 333 10043 21088 70000
AAXX 03004 71791 16/// /3217 11056 21103 60001 333 10009 21056 70000
AAXX 03004 71794 16/// ///// 11049 21100 60001 333 10004 21049 70004
AAXX 03004 71795 16/// ///// 11025 21072 60001 333 10007 21026 70000
AAXX 03004 71796 16/// ///// 11045 21098 60001 333 7////
AAXX 03004 71797 16/// ///// 11066 21101 60001 333 10003 21066 70006
AAXX 03004 71409 16/// ///// 11026 21047 60001 333 10016 21026 70000
AAXX 03004 71841 16/// /1911 11032 21077 39726 40131 55018 60001 333 11027 21194 70000
AAXX 03004 71433 46/// /2025 10006 21033 30012 40248 58008 6///1 333 10010 21054 7////
AAXX 03004 71102 17/// ///// 11063 21107 69941 7//4/ 333 10002 21063 70008
AAXX 03004 71105 16/// ///// 11029 21053 60001 333 21037 7////
AAXX 03004 71789 16/// ///// 11034 21099 60001 333 10043 21088 70000
AAXX 03004 71791 16/// /3217 11056 21103 60001 333 10009 21056 70000
AAXX 03004 71794 16/// ///// 11049 21100 60001 333 10004 21049 70004
AAXX 03004 71795 16/// ///// 11025 21072 60001 333 10007 21026 70000
AAXX 03004 71796 16/// ///// 11045 21098 60001 333 7////
AAXX 03004 71797 16/// ///// 11066 21101 60001 333 10003 21066 70006
AAXX 03004 71006 16/// /3318 11041 21093 60001 333 10012 21041 70000
AAXX 03004 71007 46/// ///// 11015 21095 6///1 333 10035 21078 7////
AAXX 03004 71008 16/// /3218 11025 21073 60001 333 10007 21045 70000
AAXX 03004 71009 16/// /3316 11029 21073 60001 333 10009 21032 70000
AAXX 03004 71012 16/// /3325 11045 21098 60001 333 10007 21045 70000
AAXX 03004 71035 16/// ///// 11028 21076 60001 333 10009 21030 70000
AAXX 03004 71051 16/// ///// 11028 21060 60001 333 10014 21032 70000
AAXX 03004 71057 16/// ///// 11032 21091 60001 333 10016 21070 70000
AAXX 03004 71070 16/// ///// 11021 21063 60001 333 10016 21046 70007
AAXX 03004 71089 16/// ///// 11049 21101 60001 333 10011 21049 70000
AAXX 03004 61017 NIL
AAXX 03004 61024 NIL
AAXX 03004 61036 32960 70000 10206 20055 39892 40128 80008 333 0//00 59001 87280
AAXX 03004 61043 32960 70610 10217 21060 39696 40131 80008 333 0//00 59005 87280
AAXX 03004 61045 NIL
AAXX 03004 61049 31956 70804 10194 20020 39808 40125 7062/ 80008 333 0//00 59008 87280
AAXX 03004 61052 32960 23604 10214 20026 39873 40127 80002 333 0//00 59005 82080
AAXX 03004 61075 32960 31004 10220 20024 39825 40131 80002 333 0//00 58003 83080
AAXX 03004 61080 NIL
AAXX 03004 61090 32960 53604 10195 20025 39630 40138 80002 333 0//00 59004 85080
AAXX 03004 61091 NIL
AAXX 03004 61096 32965 70404 10186 21010 39754 40133 80008 333 0//00 59004 87280
AAXX 03004 61099 32960 70210 10225 20030 39886 40112 80008 333 0//00 58003 87280
AAXX 03004
AAXX 03004 71409 16/// ///// 11026 21047 60001 333 10016 21026 70000
AAXX 03004 71502 16/// /2813 11199 21213 30074 40090 51006 60001 333 11188 7////
AAXX 03004 71509 16/// /3308 11014 21076 60001 333 10038 21048 7////
AAXX 03004 71517 16/// /3307 11024 21096 60001 333 10042 21071 70000
AAXX 03004 71518 16/// /3212 11019 21065 60001 333 10024 21044 70005
AAXX 03004 71519 17/// /3107 11024 21041 69941 7//4/ 333 10020 21025 70004
AAXX 03004 71528 16/// /3410 11023 21076 60001 333 10029 21054 70000
AAXX 03004 64700 31940 20408 10211 21028 39782 70600 80002 333 0//00 59001 82075
AAXX 03004 64750 47/50 32960 20141 39683 40094 80002 90003 333 0//00 59006 85075
AAXX 03004 61091 32960 50000 10150 20047 39691 40145 80002 333 0//00 59008 85080
AAXX 03004
AAXX 03004 67002 32580 21204 10255 20224 30070 40103 81800 333 0//00 59015 81820 92408
AAXX 03004 67009 NIL
AAXX 03004 67012 NIL
AAXX 03004 67025 NIL
AAXX 03004 67027 32580 70804 10270 20249 30073 40094 57002 878// 333 0//00 82820 86640
AAXX 03004 67045 NIL
AAXX 03004 67072 NIL
AAXX 03004 67073 NIL
AAXX 03004 67083 12570 70000 10190 20188 38720 48495 56010 60121 878// 333 0//56 81817 87620
AAXX 03004 67095 32475 40000 10263 20223 30100 40107 56013 84800 333 0//00 83817 555 82633
AAXX 03004 67113 NIL
AAXX 03004 67117 NIL
AAXX 03004 67137 NIL
AAXX 03004 67143 NIL
AAXX 03004 67157 NIL
AAXX 03004 67161 NIL
AAXX 03004 67197 32480 30604 10244 20216 30073 40083 58004 8380/ 333 0//00 81817 83633
AAXX 03004 89628 46/// /2939 4//// 5////
AAXX 03004 13601 12660 32702 10100 20094 30127 40229 54004 60001 83500 333 83640
AAXX 03004 41915 31440 50000 10150 20140 30065 40091 70521 82530 333 56990 59025 70000 82616 84362
AAXX 03004 41926 31950 20000 10170 20160 30072 40085 70500 82030 333 56090 59033 70000 82362
AAXX 03004 41933 31940 00000 10170 20160 30078 40087 70500 333 59028 70000
AAXX 03004 41941 31440 20000 10188 20180 30073 40079 70520 82500 333 56990 59034 70000 82616
AAXX 03004 41947 31950 00000 10180 20180 30065 40067 70544 333 59036 70000
AAXX 03004 41953 31940 00000 10190 20190 30077 40083 70500 333 59030 70000
AAXX 03004 41958 31930 00000 10185 20185 30071 40073 70500 333 59035 70000
AAXX 03004 41960 31440 30000 10180 20180 30082 40083 70500 83400 333 56900 59028 70000 82618
AAXX 03004 41964 31920 30000 10186 20180 30092 40095 71022 83070 333 56090 59024 70000 82640
AAXX 03004 41966 32450 40000 10182 20170 30016 40097 82530 333 56990 59032 70000 83616
AAXX 03004 41984 31956 00000 10177 20177 30077 40079 70500 333 59027 70000
AAXX 03004 89063 41497 82502 11003 21010 39931 49942 52041 72272 880// 333 10002 21006
BBXX 3FCC4 03004 99203 70840 41997 10724 10240 20163 40180 54000 7//// 80009 22234 00280 20308 305// 4//// 5//// 6//// 80190 ICE /////
BBXX SHIP 03004 99290 11479 41598 82612 10250 20240 40160 52010 70121 8777/ 22215 00252 20402 350// 41004 80240
BBXX SHIP 03003 99081 11087 41597 70116 10260 20246 40110 51020 70222 87771 22213 00/// 20200 399// 40301 80250
BBXX VRIB3 03004 99271 11217 41197 30217 10128 20076 40217 52035 70222 8365/ 22213 0//// 20408 80010
BBXX VRDN3 03004 99070 11075 41497 80422 00/// 10280 2022/ 40100 53020 70222 884// 22214 0//// 20403 304// 40402 5//// 6//// 80240
BBXX A8KO3 03003 99344 11286 41598 43214 10125 20088 40125 51010 70211 83181 22253 00190 20302 302// 40703 80105
BBXX TBWUK37 03001 99320 11357 41398 82407 10240 20210 40057 57010 78022 8/71/ 22213 04240 20402 307// 40904 80220
BBXX SHIP 03004 99145 11189 41498 80315 10270 20241 40048 54000 70325 8747/ 22284 00294 20101 301// 40604 80250
BBXX VRGW2 03004 99086 10737 41096 51911 10280 20280 40101 53008 70222 85168 22234 04300 20301 80280
BBXX SHIP 03004 99245 11235 41398 73535 10195 20151 40030 51020 70315 877// 22213 00265 20408 33608 40408 50408 80170
BBXX VRCI9 03004 99248 11300 41398 80222 10225 20188 40070 52030 70262 887// 22256 00264 20605 334// 40805 80200
BBXX DQVN 03003 99358 11211 41396 83516 10059 20003 40230 53020 70322 887// 22200 00148 2//04 80035
BBXX SHIP 03004 99295 11278 41198 73206 10170 20125 40086 51030 70102 8//// 22244 00240 2//// 80145
BBXX DGWF2 03003 99087 11092 41397 80229 10260 20232 40085 51010 7//22 887// 22213 04270 20205 303// 40308 80240
BBXX 46221 03001 99339 71186 46/// ///// 1//// 90015 22200 00152 11402 21002 321// 41401 70010
BBXX A8PX5 03004 99387 71264 41597 83340 10130 20094 40240 56010 70222 8/7// 22273 04120 20615 336// 40714 5//// 80110
BBXX 42023 03001 99261 70831 46/// /0308 1//// 90000 333 91209
BBXX 42023 03001 99261 70831 46/// /0308 1//// 90030 333 91209
BBXX 44029 03001 99425 70706 46/30 /3006 10088 40257 53019 90004 22200 00097 11102 70012 333 91207 555 11067 22070
BBXX 44039 03001 99411 70727 46/// /2910 10103 20000 40295 90030 22200 00115 10402 70008 333 91213
BBXX 46242 03001 99332 71174 46/// ///// 1//// 92356 22200 00158 11402 21001 322// 41401 70008
BBXX 46242 03001 99332 71174 46/// ///// 1//// 90026 22200 00158 11402 20701 322// 41401 70008
BBXX 46223 03001 99335 71178 46/// ///// 1//// 90030 22200 00163 11401 21001 319// 41401 70007
BBXX 46222 03001 99336 71183 46/// ///// 1//// 90026 22200 00160 11102 21002 328// 41101 70010
BBXX 46216 03001 99343 71198 46/// ///// 1//// 90027 22200 00150 11002 21001 327// 41201 70008
BBXX 46231 03001 99327 71174 46/// ///// 1//// 90024 22200 00152 11202 21002 328// 41202 70012
BBXX 46241 03001 99330 71173 46/// ///// 1//// 90011 22200 00154 11102 21001 327// 41101 70009
BBXX 44100 03001 99363 70756 46/// ///// 1//// 90022 22200 00144 11102 21002 309// 41102 70011
BBXX 46232 03001 99325 71174 46/// ///// 1//// 90008 22200 00163 11403 21002 319// 41402 70013
BBXX VCXF 03004 99464 70484 41296 83515 10039 2004/ 40223 52039 71054 886// 22200 02040 20402 32034 40905 50905 80038
BBXX 3FCC4 03004 99203 70840 41997 10724 10240 20163 40180 54000 7//// 80009 22234 00280 20308 305// 4//// 5//// 6//// 80190 ICE /////
BBXX 41052 03001 99183 70648 46/// /0305 10270 40139 90020 333 91205
BBXX 41052 03001 99183 70648 46/// /0204 10270 40140 90030 333 91206
BBXX 41052 03001 99183 70648 46/// /0505 10272 40138 90010 333 91206
BBXX 41053 03001 99185 70661 46/// /0404 10272 40145 90010 333 91205
BBXX 41053 03001 99185 70661 46/// /0404 10273 40147 90020 333 91205
BBXX 44024 03001 99423 70659 46/30 /2901 10066 40270 51010 90004 22200 00097 11103 70017 333 91202 555 11014 22014
BBXX 41053 03001 99185 70661 46/// /0504 10273 40148 90030 333 91205
BBXX MGDM 03003 99101 30767 413// 70208 10282 20248 40063 56008 71052 87700 22213 00291 20402 334// 40402 80258
BBXX C6CU6 03003 99469 70074 41497 82918 10130 20111 40225 58030 76222 887// 22213 04155 20508 330// 40508 5//// 80120
BBXX 62103 03004 99499 70029 46/97 /2632 10124 20102 40096 57034 22200 00136 10705 70027 333 90710 91147
BBXX 66022 03001 99541 10142 46/// /2209 10050 30100 22200 00061
BBXX SHIP 03004 99401 71624 41/90 /3422 10150 20133 40079 56053 74704 8//// 92355 22224 00150 2//// 3//// 4//// 5//// 80140
AAXX 03004 67002 32580 21204 10255 20224 30070 40103 81800 333 0//00 59015 81820 92408
AAXX 03004 67009 NIL
AAXX 03004 67012 NIL
AAXX 03004 67025 NIL
AAXX 03004 67027 32580 70804 10270 20249 30073 40094 57002 878// 333 0//00 82820 86640
AAXX 03004 67045 NIL
AAXX 03004 67072 NIL
AAXX 03004 67073 NIL
AAXX 03004 67083 12570 70000 10190 20188 38720 48495 56010 60121 878// 333 0//56 81817 87620
AAXX 03004 67095 32475 40000 10263 20223 30100 40107 56013 84800 333 0//00 83817 555 82633
AAXX 03004 67113 NIL
AAXX 03004 67117 NIL
AAXX 03004 67137 NIL
AAXX 03004 67143 NIL
AAXX 03004 67157 NIL
AAXX 03004 67161 NIL
AAXX 03004 67197 32480 30604 10244 20216 30073 40083 58004 8380/ 333 0//00 81817 83633
BBXX ZDLS1 03003 99170 30029 41/98 81123 10185 20126 40157 54000 70222 8//// 22233 04185 20502 313// 40806 80152
BBXX AMOUK15 03004 99339 30184 46/// ///// 10185 20090 30164 40189 54000 92350
BBXX MGGK4 03004 99347 30220 41/98 /2430 10183 20114 40207 58010 70200 8//// 22225 00198 2//// 3//// 4//// 5//// 80145
BBXX PCDE 03003 99360 30178 41/97 11505 10160 20108 40230 52020 7//// 8//// 22233 20204 80130
BBXX AMOUK17 03004 99380 30504 46/// ///// 10171 20157 30129 40136 57023 92350
AAXX 03004 71346 16/// /3208 11022 21073 60001 333 10030 21044 7////
AAXX 03004 71904 16/// ///// 11032 21083 60001 333 11004 21032 70000
AAXX 03004 71674 16/// ///// 11041 21106 60001 333 10010 21041 70000
AAXX 03004 71540 16/// /3114 11015 21085 60001 333 11001 21018 70004
AAXX 03004 71544 16/// ///// 11062 21096 60001 333 10006 21062 70000
AAXX 03004 71548 16/// ///// 11064 21111 60001 333 10006 21064 70004
AAXX 03004 71014 16/// /3110 11034 21089 60001 333 10001 21035 70000
AAXX 03004 71857 16/// ///// 11059 21109 60001 333 10005 21059 70000
AAXX 03004 71413 16/// ///// 11043 21092 60001 333 10008 21043 70000
AAXX 03004 71414 16/// ///// 11069 21115 60001 333 10012 21069 70000
AAXX 03004 71440 16/// ///// 11032 21076 60001 333 10006 21032 70000
AAXX 03004 71055 46/// /0302 11160 21174 39773 40112 57006 6///1 333 11160 21223 7////
AAXX 03004 71065 16/// ///// 11054 21107 60001 333 10010 21054 7////
AAXX 03004 71360 16/// ///// 11053 21103 60001 333 10012 21053 70000
AAXX 03004 71380 16/// /3114 11031 21081 60001 333 10001 21031 70000
AAXX 03004 71481 16/// /2907 11022 21083 60001 333 10009 21022 70000
AAXX 03004 71498 16/// /3118 11028 21069 60001 333 10009 21031 70000
AAXX 03004 71249 16/// /3217 11035 21080 60001 333 11003 21035 70000
AAXX 03004 71346 16/// /3208 11022 21073 60001 333 10030 21044 7////
AAXX 03004 71857 16/// ///// 11059 21109 60001 333 10005 21059 70000
AAXX 03004 71674 16/// ///// 11041 21106 60001 333 10010 21041 70000
AAXX 03004 71249 16/// /3217 11035 21080 60001 333 11003 21035 70000
AAXX 03004 71904 16/// ///// 11032 21083 60001 333 11004 21032 70000
AAXX 03004 71055 46/// /0302 11160 21174 39773 40112 57006 6///1 333 11160 21223 7////
AAXX 03004 71065 16/// ///// 11054 21107 60001 333 10010 21054 7////
AAXX 03004 71360 16/// ///// 11053 21103 60001 333 10012 21053 70000
AAXX 03004 71380 16/// /3114 11031 21081 60001 333 10001 21031 70000
AAXX 03004 71014 16/// /3110 11034 21089 60001 333 10001 21035 70000
AAXX 03004 71413 16/// ///// 11043 21092 60001 333 10008 21043 70000
AAXX 03004 71414 16/// ///// 11069 21115 60001 333 10012 21069 70000
AAXX 03004 71440 16/// ///// 11032 21076 60001 333 10006 21032 70000
AAXX 03004 71481 16/// /2907 11022 21083 60001 333 10009 21022 70000
AAXX 03004 71498 16/// /3118 11028 21069 60001 333 10009 21031 70000
AAXX 03004 71540 16/// /3114 11015 21085 60001 333 11001 21018 70004
AAXX 03004 71544 16/// ///// 11062 21096 60001 333 10006 21062 70000
AAXX 03004 71548 16/// ///// 11064 21111 60001 333 10006 21064 70004
BBXX MGDM 03003 99101 30767 413// 70208 10282 20248 40063 56008 71052 87700 22213 00291 20402 334// 40402 80258
AAXX 03004 41909 31440 70000 10185 20180 30065 40077 70542 82510 333 56990 59032 70000 82615 87458
BBXX MGSM3 03004 99333 11256 41098 82827 10090 20040 40130 52010 70222 88700 22213 06150 20503 31111 40803 50703 80070
AAXX 03004 41036 32960 02104 10120 20090 38560 48510 333 59004 555 04410 50116
BBXX AMOUK01 03004 99170 30029 46/// ///// 10188 20134 30157 40168 57005 92350
AAXX 03004 13601 12660 32702 10100 20094 30127 40229 54004 60001 83500 333 83640
OOXX FJP26 02221 99178 31775 ///// 00311 26/// /3104 10280 29069 30072 92200 333 60000
OOXX FJP26 02221 99178 31775 ///// 00311 26/// /3104 10280 29069 30071 92210 333 60000
OOXX FJP26 02221 99178 31775 ///// 00311 26/// /3104 10279 29070 30071 92220 333 60000
OOXX FJP26 02221 99178 31775 ///// 00311 26/// /3103 10280 29071 30071 92230 333 60000
OOXX FJP26 02221 99178 31775 ///// 00311 26/// /3004 10281 29071 30071 92240 333 60000
OOXX FJP26 02221 99178 31775 ///// 00311 26/// /2904 10283 29071 30070 92250 333 60000
OOXX FJP26 02231 99178 31775 ///// 00311 26/// /2803 10282 29068 30069 92300 333 60000
OOXX FJP26 02231 99178 31775 ///// 00311 26/// /2703 10285 29068 30069 92310 333 60000
OOXX FJP26 02231 99178 31775 ///// 00311 26/// /2502 10286 29071 30068 92320 333 60000
OOXX FJP26 02231 99178 31775 ///// 00311 26/// /2502 10287 29071 30069 92330 333 60000
OOXX FJP26 02231 99178 31775 ///// 00311 26/// /2502 10289 29070 30068 92340 333 60000
OOXX FJP26 02231 99178 31775 ///// 00311 26/// /2701 10291 29070 30067 92350 333 60000
OOXX PTP53 02221 99377 70257 ///// 00121 26/// ///// 1//// 29/// 3//// 92210 333 6///0
OOXX PTP53 02221 99377 70257 ///// 00121 26/// ///// 1//// 29/// 3//// 92220 333 6///0
OOXX PTP53 02221 99377 70257 ///// 00121 26/// ///// 1//// 29/// 3//// 92230 333 6///0
OOXX PTP53 02221 99377 70257 ///// 00121 26/// ///// 1//// 29/// 3//// 92240 333 6///0
OOXX PTP53 02221 99377 70257 ///// 00121 26/// ///// 1//// 29/// 3//// 92250 333 6///0
OOXX PTP53 02231 99377 70257 ///// 00121 26/// ///// 1//// 29/// 3//// 92300 333 6///0
OOXX PTP53 02231 99377 70257 ///// 00121 26/// ///// 1//// 29/// 3//// 92310 333 6///0
OOXX PTP53 02231 99377 70257 ///// 00121 26/// ///// 1//// 29/// 3//// 92320 333 6///0
OOXX PTP53 02231 99377 70257 ///// 00121 26/// ///// 1//// 29/// 3//// 92330 333 6///0
OOXX PTP53 02231 99377 70257 ///// 00121 26/// ///// 1//// 29/// 3//// 92340 333 6///0
OOXX PTP53 02231 99377 70257 ///// 00121 26/// ///// 1//// 29/// 3//// 92350 333 6///0
OOXX PTP53 03001 99377 70257 ///// 00121 26/// ///// 1//// 29/// 3//// 90000 333 6///0
AAXX 03004 41929 32956 20000 10183 20170 30072 40082 82030 333 56090 59032 70000 82365
BBXX A8KO3 03003 99344 11286 41598 43214 10125 20088 40125 51010 70211 83181 22253 00190 20302 302// 40703 80105
BBXX DQVN 03003 99358 11211 41396 83516 10059 20003 40230 53020 70322 887// 22200 00148 2//04 80035
BBXX MGSM3 03004 99333 11256 41098 82827 10090 20040 40130 52010 70222 88700 22213 06150 20503 31111 40803 50703 80070
BBXX TBWUK37 03001 99320 11357 41398 82407 10240 20210 40057 57010 78022 8/71/ 22213 04240 20402 307// 40904 80220
BBXX WDB9986 03004 99537 11788 41598 30115 10040 21130 40020 5//// 70000 83342 22264 00040 20302 324// 40604 5//// 6//// 81010 ICE /////
AAXX 03004 89667 46/// /0206 11035 29060 39714 4//// 5//// 90040
AAXX 03004 89667 46/// /0206 11030 39715 4//// 5//// 90030
AAXX 03004 89667 46/// /0105 11031 39715 4//// 5//// 90020
AAXX 0300/ 89828 46/// ///// 11291 36452 4//// 5//// 90040
AAXX 0300/ 89108 46/// ///// 11273 36871 4//// 5//// 90040
AAXX 0300/ 89667 46/// ///// 4//// 5//// 90010
AAXX 0300/ 89872 46/// ///// 11060 39665 4//// 5//// 90040
AAXX 0300/ 89866 46/// ///// 11025 39611 4//// 5//// 90040
AAXX 0300/ 89799 46/// ///// 11279 4//// 5//// 90040
AAXX 0300/ 89769 46/// ///// 11048 39690 4//// 5//// 90040
AAXX 0300/ 89314 46/// ///// 11116 38115 4//// 5//// 90040
AAXX 03004 16310 12597 11206 10136 20117 30007 40229 54002 60001 81200 333 81630 555 0////
AAXX 03004 13601 12660 32702 10100 20094 30127 40229 54004 60001 83500 333 83640
AAXX 03004 91844 46/// /0602 10259 40096 22200 00262
AAXX 03001 01262 46/// /1714 10040 21022 333 91117
AAXX 03001 58968 12560 30803 10152 20104 30194 40202 51025 69902 83400
AAXX 03001 58974 32560 50110 10142 20080 30078 40204 51025 85400
AAXX 03001 59358 32660 40105 10156 20109 30127 40159 51018 84500
AAXX 03001 59559 12568 50306 10200 20165 30112 40140 53014 69952 83230
AAXX 03001 59792 32560 60309 10204 20160 30150 40155 52024 85470
AAXX 03001 59997 11456 80505 10250 20247 30073 40085 52024 60982 76366 8342/
AAXX 03001 59158 32662 20202 10154 20104 30057 40159 51019 82500
AAXX 03001 59562 12668 80202 10188 20152 30153 40165 52026 60012 885//
AAXX 03001 59567 11258 80215 10177 20160 39759 40139 52021 60082 71022 885//
AAXX 03004 67002 32580 21204 10255 20224 30070 40103 81800 333 0//00 59015 81820 92408
AAXX 03004 67009 NIL
AAXX 03004 67012 NIL
AAXX 03004 67025 NIL
AAXX 03004 67027 32580 70804 10270 20249 30073 40094 57002 878// 333 0//00 82820 86640
AAXX 03004 67045 NIL
AAXX 03004 67072 NIL
AAXX 03004 67073 NIL
AAXX 03004 67083 12570 70000 10190 20188 38720 48495 56010 60121 878// 333 0//56 81817 87620
AAXX 03004 67095 32475 40000 10263 20223 30100 40107 56013 84800 333 0//00 83817 555 82633
AAXX 03004 67113 NIL
AAXX 03004 67117 NIL
AAXX 03004 67137 NIL
AAXX 03004 67143 NIL
AAXX 03004 67157 NIL
AAXX 03004 67161 NIL
AAXX 03004 67197 32480 30604 10244 20216 30073 40083 58004 83800 333 0//00 81817 83633
BBXX 62081 03004 99510 70134 46/// ///// 10126 20115 40110 58001 22200 00122 10812 70060
BBXX 62303 03004 99516 70051 46/// /2522 10122 20115 40044 56022 22200 00128 10708 70041 333 90710 91134
BBXX AMOUK08 03004 99501 70061 46/// ///// 10123 20113 30097 40104 57019 92350
BBXX 63106 03004 99610 10017 46/// /1931 10072 49704 57085 22200
BBXX 63105 03004 99610 10017 47496 ///// 10084 20059 49704 57083 751// 22200
BBXX 62103 03004 99499 70029 46/98 /2631 10125 20101 40106 56037 22200 00135 10705 70024 333 90710 91146
AAXX 03004 91369 11448 70915 10283 20256 30070 40073 62874 78182 827// 333 20250 562// 58003 83810 555 90300 91371 32474 30915 10300 20286 30084 40087 82210 333 20261 5622/ 58000 82815 555 90300
BBXX WCPU 03004 99285 70403 41/// 40519 10183 20175 40241 50001 71661 8//// 22263 0//// 2//// 3//// 4//// 5//// 6//// 80178 ICE /////
BBXX 9HXC9 03004 99258 70778 41497 60329 10210 20128 40240 52010 7//22 86233 22264 00260 2//// 3//// 4//// 5//// 6//// 80160 ICE /////
BBXX IBLC 03004 99267 70175 41797 10530 10200 2//// 40280 54/// 7//00 81005 22254 0//// 20102 3//// 4//// 5//// 6//// 8//// ICE /////
BBXX ONFP 03003 99209 50185 43796 60919 10210 2018/ 40220 55/// 7//11 85163 22233 00220 20305 30909 40204 50204 6//// 80190 ICE /////
BBXX 9V7645 03003 99290 71211 419// 03514 10165 20132 40150 56030 70200 8//// 22234 04180 20502 335// 40806 5//// 6//// 80145 ICE /////
BBXX 42085 03001 99179 70665 46/// /2403 10256 40143 90030 333 91203
BBXX 42085 03001 99179 70665 46/// /2503 10255 40143 90020 333 91204
BBXX 42085 03001 99179 70665 46/// /2603 10254 40142 90010 333 91204
BBXX IBLC 03004 99267 70175 41797 10530 10200 2//// 40280 54/// 7//00 81005 22254 0//// 20102 3//// 4//// 5//// 6//// 8//// ICE /////
BBXX ONFP 03003 99209 50185 43796 60919 10210 2018/ 40220 55/// 7//11 85163 22233 00220 20305 30909 40204 50204 6//// 80190 ICE /////
BBXX MGSM3 03004 99333 11256 41098 82827 10090 20040 40130 52010 70222 88700 22213 06150 20503 31111 40803 50703 80070
BBXX 9V7645 03003 99290 71211 419// 03514 10165 20132 40150 56030 70200 8//// 22234 04180 20502 335// 40806 5//// 6//// 80145 ICE /////
BBXX 9HXC9 03004 99258 70778 41497 60329 10210 20128 40240 52010 7//22 86233 22264 00260 2//// 3//// 4//// 5//// 6//// 80160 ICE /////
BBXX BSH02 03001 99542 10079 46/// ///// 22200 00101 20705 70023
BBXX BSH03 03001 99540 10081 46/// ///// 22200 00092 20704 70019
OOXX GBP67 02221 99159 50057 ///// 04381 26/// /0703 10159 29090 39694 92210 333 60000
OOXX GBP67 02221 99159 50057 ///// 04381 26/// /0704 10158 29091 39694 92220 333 60000
OOXX GBP67 02221 99159 50057 ///// 04381 26/// /0803 10158 29091 39692 92230 333 60000
OOXX GBP67 02221 99159 50057 ///// 04381 26/// /0803 10158 29091 39692 92240 333 60000
OOXX GBP67 02221 99159 50057 ///// 04381 26/// /0903 10156 29091 39692 92250 333 60000
OOXX GBP67 02231 99159 50057 ///// 04381 26/// /1003 10156 29090 39692 92300 333 60000
OOXX GBP67 02231 99159 50057 ///// 04381 26/// /0904 10159 29091 39691 92310 333 60000
OOXX GBP67 02231 99159 50057 ///// 04381 26/// /0904 10159 29092 39692 92320 333 60000
OOXX GBP67 02231 99159 50057 ///// 04381 26/// /0904 10159 29092 39690 92330 333 60000
OOXX GBP67 02231 99159 50057 ///// 04381 26/// /0903 10159 29092 39690 92340 333 60000
OOXX GBP67 02231 99159 50057 ///// 04381 26/// /0704 10159 29092 39690 92350 333 60000
OOXX GBP67 03001 99159 50057 ///// 04381 26/// /0803 10159 29093 39688 90000 333 60000
OOXX ISP34 02221 99641 70219 ///// 01301 26/// /0404 11012 29001 39738 92210 333 6///0
OOXX ISP34 02221 99641 70219 ///// 01301 26/// /0502 11010 29001 39738 92220 333 6///0
OOXX ISP34 02221 99641 70219 ///// 01301 26/// /0702 11011 29001 39740 92230 333 6///0
OOXX ISP34 02221 99641 70219 ///// 01301 26/// /0802 11011 29001 39741 92240 333 6///0
OOXX ISP34 02221 99641 70219 ///// 01301 26/// /0702 11011 29001 39741 92250 333 6///0
OOXX ISP34 02231 99641 70219 ///// 01301 26/// /0503 11011 29001 39741 92300 333 6///0
OOXX ISP34 02231 99641 70219 ///// 01301 26/// /0503 11010 29001 39742 92310 333 6///0
OOXX ISP34 02231 99641 70219 ///// 01301 26/// /0503 11009 29001 39742 92320 333 6///0
OOXX ISP34 02231 99641 70219 ///// 01301 26/// /0503 11008 29001 39742 92330 333 6///0
OOXX ISP34 02231 99641 70219 ///// 01301 26/// /0503 11008 29001 39742 92340 333 6///0
OOXX ISP34 02231 99641 70219 ///// 01301 26/// /0403 11008 29001 39744 92350 333 6///0
OOXX ISP34 03001 99641 70219 ///// 01301 26/// /0502 11009 29001 39744 90000 333 6///0
OOXX AUP04 02231 99377 31451 ///// 00311 26/// /1702 10167 29061 30143 92303 333 60000
OOXX AUP04 02231 99377 31451 ///// 00311 26/// /2202 10160 29065 30144 92313 333 60000
OOXX AUP04 02231 99377 31451 ///// 00311 26/// /2002 10156 29067 30144 92323 333 60000
OOXX AUP04 02231 99377 31451 ///// 00311 26/// /2402 10156 29068 30144 92333 333 60000
OOXX AUP04 02231 99377 31451 ///// 00311 26/// /2102 10152 29069 30145 92343 333 60000
OOXX AUP04 02231 99377 31451 ///// 00311 26/// /2302 10152 29066 30146 92353 333 60000
OOXX AUP04 03001 99377 31451 ///// 00311 26/// /2302 10154 29066 30145 90003 333 60000
OOXX AUP04 03001 99377 31451 ///// 00311 26/// /2102 10155 29064 30145 90013 333 60000
OOXX AUP04 03001 99377 31451 ///// 00311 26/// /2002 10158 29063 30143 90023 333 60000
OOXX AUP04 03001 99377 31451 ///// 00311 26/// /2002 10160 29063 30143 90033 333 60000
OOXX AUP04 03001 99377 31451 ///// 00311 26/// /2102 10163 29063 30143 90043 333 60000
OOXX AUP04 03001 99377 31451 ///// 00311 26/// /2002 10168 29060 30142 90053 333 60000
OOXX NZP46 02221 99438 51765 ///// 00221 26/// /0206 10166 29067 30286 92220 333 60000
OOXX NZP46 02221 99438 51765 ///// 00221 26/// /0207 10168 29066 30286 92230 333 60000
OOXX NZP46 02221 99438 51765 ///// 00221 26/// /0208 10166 29064 30285 92240 333 60000
OOXX NZP46 02221 99438 51765 ///// 00221 26/// /0207 10171 29063 30285 92250 333 60000
OOXX NZP46 02231 99438 51765 ///// 00221 26/// /0207 10171 29063 30284 92300 333 60000
OOXX NZP46 02231 99438 51765 ///// 00221 26/// /0307 10171 29063 30282 92310 333 60000
OOXX NZP46 02231 99438 51765 ///// 00221 26/// /0306 10176 29062 30281 92320 333 60000
OOXX NZP46 02231 99438 51765 ///// 00221 26/// /0208 10170 29060 30282 92330 333 60000
OOXX NZP46 02231 99438 51765 ///// 00221 26/// /0207 10171 29061 30281 92340 333 60000
OOXX NZP46 02231 99438 51765 ///// 00221 26/// /0208 10170 29061 30280 92350 333 60000
OOXX NZP46 03001 99438 51765 ///// 00221 26/// /0207 10174 29061 30278 90000 333 60000
OOXX NZP46 03001 99438 51765 ///// 00221 26/// /0208 10171 29060 30279 90010 333 60000
OOXX RUP59 02221 99539 10848 ///// 02121 26/// /0702 11072 29085 39930 92240 333 60000
OOXX RUP59 02221 99539 10848 ///// 02121 26/// /0702 11072 29085 39930 92250 333 60000
OOXX RUP59 02231 99539 10848 ///// 02121 26/// /0802 11072 29085 39930 92300 333 60000
OOXX RUP59 02231 99539 10848 ///// 02121 26/// /0801 11072 29085 39930 92310 333 60000
OOXX RUP59 02231 99539 10848 ///// 02121 26/// /0801 11073 29085 39930 92320 333 60000
OOXX RUP59 02231 99539 10848 ///// 02121 26/// /0802 11073 29085 39931 92330 333 60000
OOXX RUP59 02231 99539 10848 ///// 02121 26/// /0802 11073 29085 39931 92340 333 60000
OOXX RUP59 02231 99539 10848 ///// 02121 26/// /0902 11072 29084 39933 92350 333 60000
OOXX RUP59 03001 99539 10848 ///// 02121 26/// /0902 11072 29084 39933 90000 333 60000
OOXX RUP59 03001 99539 10848 ///// 02121 26/// /1002 11072 29084 39936 90010 333 60000
OOXX RUP59 03001 99539 10848 ///// 02121 26/// /0902 11071 29084 39937 90020 333 60000
OOXX RUP59 03001 99539 10848 ///// 02121 26/// /0902 11071 29084 39937 90030 333 60000
OOXX RUP58 02221 99442 11320 ///// 01121 26/// /0602 11129 29073 30075 92242 333 60000
OOXX RUP58 02221 99442 11320 ///// 01121 26/// /0501 11129 29074 30077 92252 333 60000
OOXX RUP58 02231 99442 11320 ///// 01121 26/// /0701 11125 29074 30074 92302 333 60000
OOXX RUP58 02231 99442 11320 ///// 01121 26/// /1102 11122 29074 30073 92312 333 60000
OOXX RUP58 02231 99442 11320 ///// 01121 26/// /3501 11118 29072 30073 92322 333 60000
OOXX RUP58 02231 99442 11320 ///// 01121 26/// /0802 11114 29069 30067 92332 333 60000
OOXX RUP58 02231 99442 11320 ///// 01121 26/// /0702 11112 29068 30063 92342 333 60000
OOXX RUP58 02231 99442 11320 ///// 01121 26/// /0801 11111 29068 30061 92352 333 60000
OOXX RUP58 03001 99442 11320 ///// 01121 26/// /0601 11108 29067 30061 90002 333 60000
OOXX RUP58 03001 99442 11320 ///// 01121 26/// /1102 11105 29066 30059 90012 333 60000
OOXX RUP58 03001 99442 11320 ///// 01121 26/// /1102 11105 29065 30058 90022 333 60000
OOXX RUP58 03001 99442 11320 ///// 01121 26/// /0902 11103 29064 30059 90032 333 60000
OOXX CKP23 02221 99212 51598 ///// 00051 26/// /0604 10260 29087 30094 92250 333 60000
OOXX CKP23 02231 99212 51598 ///// 00051 26/// /0704 10266 29085 30094 92300 333 60000
OOXX CKP23 02231 99212 51598 ///// 00051 26/// /0604 10270 29084 30093 92310 333 60000
OOXX CKP23 02231 99212 51598 ///// 00051 26/// /0604 10268 29084 30095 92320 333 60000
OOXX CKP23 02231 99212 51598 ///// 00051 26/// /0604 10265 29084 30096 92330 333 60000
OOXX CKP23 02231 99212 51598 ///// 00051 26/// /0604 10261 29085 30096 92340 333 60000
OOXX CKP23 02231 99212 51598 ///// 00051 26/// /0603 10261 29086 30095 92350 333 60000
OOXX CKP23 03001 99212 51598 ///// 00051 26/// /0703 10263 29087 30092 90000 333 60000
OOXX CKP23 03001 99212 51598 ///// 00051 26/// /0503 10264 29087 30091 90010 333 60000
OOXX CKP23 03001 99212 51598 ///// 00051 26/// /0303 10256 29092 30091 90020 333 60010
OOXX CKP23 03001 99212 51598 ///// 00051 26/// /0407 10238 29097 30092 90030 333 60030
OOXX CKP23 03001 99212 51598 ///// 00051 26/// /0803 10230 29097 30092 90040 333 69960
OOXX MRP43 02221 99181 70159 ///// 00101 26/// /0501 10246 29013 30149 92240 333 60000
OOXX MRP43 02221 99181 70159 ///// 00101 26/// /0402 10248 29012 30148 92250 333 60000
OOXX MRP43 02231 99181 70159 ///// 00101 26/// /0102 10246 29012 30150 92300 333 60000
OOXX MRP43 02231 99181 70159 ///// 00101 26/// /3402 10240 29013 30150 92310 333 60000
OOXX MRP43 02231 99181 70159 ///// 00101 26/// /3302 10238 29013 30148 92320 333 60000
OOXX MRP43 02231 99181 70159 ///// 00101 26/// /3302 10237 29013 30147 92330 333 60000
OOXX MRP43 02231 99181 70159 ///// 00101 26/// /3401 10236 29013 30149 92340 333 60000
OOXX MRP43 02231 99181 70159 ///// 00101 26/// /3202 10234 29013 30148 92350 333 60000
OOXX MRP43 03001 99181 70159 ///// 00101 26/// /0302 10236 29013 30146 90000 333 60000
OOXX MRP43 03001 99181 70159 ///// 00101 26/// /3502 10232 29014 30146 90010 333 60000
OOXX MRP43 03001 99181 70159 ///// 00101 26/// /3202 10229 29014 30145 90020 333 60000
OOXX MRP43 03001 99181 70159 ///// 00101 26/// /3502 10232 29014 30143 90030 333 60000
OOXX CAP16 02221 99624 71145 ///// 02061 26/// /0000 11161 29076 39752 92210 333 60000
OOXX CAP16 02221 99624 71145 ///// 02061 26/// /0000 11161 29076 39752 92220 333 60000
OOXX CAP16 02221 99624 71145 ///// 02061 26/// /0000 11161 29076 39752 92230 333 60000
OOXX CAP16 02221 99624 71145 ///// 02061 26/// /0000 11161 29077 39753 92240 333 60000
OOXX CAP16 02221 99624 71145 ///// 02061 26/// /0000 11161 29077 39751 92250 333 60000
OOXX CAP16 02231 99624 71145 ///// 02061 26/// /0000 11160 29077 39753 92300 333 60000
OOXX CAP16 02231 99624 71145 ///// 02061 26/// /0000 11160 29076 39752 92310 333 60000
OOXX CAP16 02231 99624 71145 ///// 02061 26/// /0000 11161 29077 39755 92320 333 60000
OOXX CAP16 02231 99624 71145 ///// 02061 26/// /0000 11161 29076 39752 92330 333 60000
OOXX CAP16 02231 99624 71145 ///// 02061 26/// /0000 11160 29076 39752 92340 333 60000
OOXX CAP16 02231 99624 71145 ///// 02061 26/// /0000 11164 29076 39752 92350 333 60000
OOXX CAP16 03001 99624 71145 ///// 02061 26/// /2401 11166 29077 39751 90000 333 60000
OOXX RUP60 02221 99531 11588 ///// 00651 26/// /3203 11043 29052 30089 92252 333 60000
OOXX RUP60 02231 99531 11588 ///// 00651 26/// /2903 11043 29052 30090 92302 333 60000
OOXX RUP60 02231 99531 11588 ///// 00651 26/// /3304 11041 29052 30091 92312 333 60000
OOXX RUP60 02231 99531 11588 ///// 00651 26/// /3105 11038 29051 30091 92322 333 60000
OOXX RUP60 02231 99531 11588 ///// 00651 26/// /3406 11037 29051 30092 92332 333 60000
OOXX RUP60 02231 99531 11588 ///// 00651 26/// /3202 11037 29051 30092 92342 333 60000
OOXX RUP60 02231 99531 11588 ///// 00651 26/// /2305 11034 29050 30091 92352 333 60000
OOXX RUP60 03001 99531 11588 ///// 00651 26/// /3103 11033 29049 30091 90002 333 60000
OOXX RUP60 03001 99531 11588 ///// 00651 26/// /3303 11032 29049 30091 90012 333 60000
OOXX RUP60 03001 99531 11588 ///// 00651 26/// /3203 11032 29049 30090 90022 333 60000
OOXX RUP60 03001 99531 11588 ///// 00651 26/// /3103 11032 29048 30089 90032 333 60000
OOXX RUP60 03001 99531 11588 ///// 00651 26/// /3103 11031 29049 30089 90042 333 60000
OOXX RUP54 02221 99586 10494 ///// 01271 26/// /2702 11079 29086 30069 92227 333 60060
OOXX RUP54 02221 99586 10494 ///// 01271 26/// /2802 11078 29086 30068 92237 333 60060
OOXX RUP54 02221 99586 10494 ///// 01271 26/// /2702 11078 29086 30068 92247 333 60060
OOXX RUP54 02221 99586 10494 ///// 01271 26/// /2702 11078 29086 30067 92257 333 60060
OOXX RUP54 02231 99586 10494 ///// 01271 26/// /2802 11078 29086 30069 92307 333 60060
OOXX RUP54 02231 99586 10494 ///// 01271 26/// /2802 11078 29086 30067 92317 333 60060
OOXX RUP54 02231 99586 10494 ///// 01271 26/// /2702 11078 29086 30067 92327 333 60060
OOXX RUP54 02231 99586 10494 ///// 01271 26/// /2802 11078 29086 30065 92337 333 60060
OOXX RUP54 02231 99586 10494 ///// 01271 26/// /2901 11079 29086 30064 92347 333 60060
OOXX RUP54 02231 99586 10494 ///// 01271 26/// /2901 11079 29086 30064 92357 333 60060
OOXX RUP54 03001 99586 10494 ///// 01271 26/// /2702 11079 29086 30063 90007 333 60060
OOXX RUP54 03001 99586 10494 ///// 01271 26/// /2901 11079 29086 30062 90017 333 60060
OOXX KIP39 02221 99020 51574 ///// 00181 26/// /1006 10284 29071 30087 92230 333 60000
OOXX KIP39 02221 99020 51574 ///// 00181 26/// /1107 10285 29070 30087 92240 333 60000
OOXX KIP39 02221 99020 51574 ///// 00181 26/// /1007 10283 29071 30084 92250 333 60000
OOXX KIP39 02231 99020 51574 ///// 00181 26/// /1006 10284 29071 30083 92300 333 60000
OOXX KIP39 02231 99020 51574 ///// 00181 26/// /1007 10285 29071 30082 92310 333 60000
OOXX KIP39 02231 99020 51574 ///// 00181 26/// /1007 10285 29072 30079 92320 333 60000
OOXX KIP39 02231 99020 51574 ///// 00181 26/// /1006 10283 29072 30077 92330 333 60000
OOXX KIP39 02231 99020 51574 ///// 00181 26/// /1006 10284 29072 30077 92340 333 60000
OOXX KIP39 02231 99020 51574 ///// 00181 26/// /1106 10286 29071 30075 92350 333 60000
OOXX KIP39 03001 99020 51574 ///// 00181 26/// /1106 10285 29072 30073 90000 333 60000
OOXX KIP39 03001 99020 51574 ///// 00181 26/// /1106 10285 29071 30071 90010 333 60000
OOXX KIP39 03001 99020 51574 ///// 00181 26/// /1006 10283 29071 30069 90020 333 60000
OOXX MNP45 02221 99479 11063 ///// 17291 26/// /3401 11127 29047 38407 92222 333 60000
OOXX MNP45 02221 99479 11063 ///// 17291 26/// /3401 11129 29049 38407 92232 333 60000
OOXX MNP45 02221 99479 11063 ///// 17291 26/// /2001 11128 29047 38408 92242 333 60000
OOXX MNP45 02221 99479 11063 ///// 17291 26/// /0101 11125 29046 38409 92252 333 60000
OOXX MNP45 02231 99479 11063 ///// 17291 26/// /0201 11126 29047 38408 92302 333 60000
OOXX MNP45 02231 99479 11063 ///// 17291 26/// /0201 11127 29047 38409 92312 333 60000
OOXX MNP45 02231 99479 11063 ///// 17291 26/// /0201 11127 29048 38409 92322 333 60000
OOXX MNP45 02231 99479 11063 ///// 17291 26/// /0401 11127 29048 38410 92332 333 60000
OOXX MNP45 02231 99479 11063 ///// 17291 26/// /0000 11127 29048 38412 92342 333 60000
OOXX MNP45 02231 99479 11063 ///// 17291 26/// /0000 11127 29048 38413 92352 333 60000
OOXX MNP45 03001 99479 11063 ///// 17291 26/// /0000 11127 29048 38414 90002 333 60000
OOXX MNP45 03001 99479 11063 ///// 17291 26/// /0000 11129 29049 38415 90012 333 60000
OOXX ARP01 02221 99345 50585 ///// 00311 26/// /1101 10111 29031 30117 92210 333 60000
OOXX ARP01 02221 99345 50585 ///// 00311 26/// /1401 10110 29030 30117 92220 333 60000
OOXX ARP01 02221 99345 50585 ///// 00311 26/// /1401 10108 29031 30116 92230 333 60000
OOXX ARP01 02221 99345 50585 ///// 00311 26/// /1101 10107 29031 30116 92240 333 60000
OOXX ARP01 02221 99345 50585 ///// 00311 26/// /1601 10106 29032 30117 92250 333 60000
OOXX ARP01 02231 99345 50585 ///// 00311 26/// /1401 10105 29032 30117 92300 333 60000
OOXX ARP01 02231 99345 50585 ///// 00311 26/// /1402 10104 29032 30119 92310 333 60000
OOXX ARP01 02231 99345 50585 ///// 00311 26/// /1401 10104 29032 30120 92320 333 60000
OOXX ARP01 02231 99345 50585 ///// 00311 26/// /1401 10103 29034 30121 92330 333 60000
OOXX ARP01 02231 99345 50585 ///// 00311 26/// /1601 10102 29034 30122 92340 333 60000
OOXX ARP01 02231 99345 50585 ///// 00311 26/// /1101 10102 29033 30122 92350 333 60000
OOXX ARP01 03001 99345 50585 ///// 00311 26/// /1402 10102 29034 30122 90000 333 60000
AAXX 03004 13601 12660 32702 10100 20094 30127 40229 54004 60001 83500 333 83640
AAXX 03004 91559 46/// /0502 10272 40076 22200 00271
AAXX 03004 71616 17/// /3207 11002 21013 30177 40300 51040 60021 7//4/ 333 10021 21027 70040
AAXX 03004 71619 16/// /3202 11018 21069 30220 40280 53020 60001 333 11011 21066 70000
AAXX 03004 71824 46/// /1802 11191 21212 6///1 333 11098 21194 7////
AAXX 03004 71372 17/// /2905 10007 21014 60011 7//4/ 333 10031 21011 70010
AAXX 03004 71373 17/// /2805 10003 21008 60041 7//4/ 333 10032 21018 70038
AAXX 03004 71389 46/// /0000 11016 21022 6///1 333 10001 21038 7////
AAXX 03004 71734 16/// /1904 11109 21179 39907 40318 53008 60001 333 11074 21153 70000
AAXX 03004 71726 16/// /2902 11117 21130 39766 40329 53034 60001 333 11057 21117 70036 555 10030
AAXX 03004 71427 16/// /3302 11065 21090 30287 40295 52021 60001 333 11037 21078 70000
AAXX 03004 71726 16/// /2902 11117 21130 39766 40329 53034 60001 333 11057 21117 70036 555 10030
AAXX 03004 40101 12958 00000 10015 21030 39145 48523 53001 60001 900//
AAXX 03004 91531 46/// /1007 1//// 40048 22200 00272
AAXX 03004 16294 12997 02302 10134 20087 30048 40242 58001 60001 555 0////
AAXX 03004 89003 46/// /3008 29058 39008 4//// 5////
AAXX 0300/ 89767 46/// ///// 11158 39770 4//// 5////
AAXX 03004 60369 12560 30000 10160 20056 40176 58002 60001 82280 333 0//00 82826 91827
AAXX 03004 13601 12660 32702 10100 20094 30127 40229 54004 60001 83500 333 83640
BBXX A8PX5 03004 99387 71264 41597 83340 10130 20094 40240 56010 70222 8/7// 22273 04120 20615 336// 40714 5//// 80110
BBXX 44056 03001 99362 70757 46/// ///// 1//// 90020 22200 00124 11102 21001 310// 41101 70010
AAXX 03004 71016 16/// ///// 11012 60001 333 10005 21047 70000
BBXX 46109 03001 99481 71234 46/// /0904 10073 40329 92357
BBXX 46110 03001 99481 71230 46/// /0102 10069 40330 92358
AAXX 03004 91642 46/// /0000 1//// 40063 22200 0////
AAXX 03001 28661 41995 22104 11120 21130 30103 40200 57011 71011 82030
AAXX 03004 13601 12660 32702 10100 20094 30127 40229 54004 60001 83500 333 83640
BBXX SHIP 03004 99294 11611 41598 60718 OO/// 10230 20201 40193 51012 70311 83211 92349 22223 00250 1//// 20602 304// 40502 5//// 6// // 80210
BBXX A8EO8 03004 99508 11582 41498 33532 10040 20022 40200 52020 70100 821// 22255 04040 2//02 314// 4//03 5//// 80032
BBXX SHIP 03004 99299 11343 41497 82520 10220 20206 40063 51008 70211 86717 22283 00240 20805 325// 40705 80210
BBXX ZDLS1 03003 99170 30029 41/98 81123 10185 20126 40157 54000 70222 8//// 22233 04185 20502 313// 40806 80152
AAXX 03004 96145 11440 81602 10241 30088 40092 5//// 61004 70522 8452/ 333 20230 50/// 55000 56809 58013 84617 88460
AAXX 03004 13601 12660 32702 10100 20094 30127 40229 54004 60001 83500 333 83640
AAXX 03001 20292 11495 72111 11054 21061 39867 49886 58003 60032 73873 875// 333 21142 91116 92980
AAXX 03004 71155 16/// ///// 11044 21081 60001 333 10011 21045 70008
AAXX 03004 71363 16/// /3209 11304 21336 30026 40083 53007 60001 333 11255 21308 70000
AAXX 03004 92036 46/// /1104 10291 40071 22200 00311
BBXX 46094 03001 99446 71243 46/// /3309 10095 92350
BBXX 46094 03001 99446 71243 46/// /3410 10095 92340
BBXX 46094 03001 99446 71243 46/// /3406 10096 90030
BBXX 46094 03001 99446 71243 46/// /3307 10095 90020
BBXX 46094 03001 99446 71243 46/// /3209 10095 90010
BBXX 46094 03001 99446 71243 46/// /3609 10095 90000
BBXX 63106 03004 99610 10017 46/// /1931 10072 49704 57085 22200
BBXX 63113 03004 99610 10017 46/// /2037 10081 20060 49712 57081 22200 10812 70060
BBXX 62303 03004 99516 70051 46/// /2524 10122 2//// 40048 57021 22200 00126 10709 70044 333 90710 91132
BBXX 62081 03004 99510 70134 46/// ///// 10122 20111 40110 58001 22200 00121 10812 70060
BBXX 62107 03004 99501 70061 46/// /2630 10118 20105 40101 58022 22200 00125 10907 70035 333 90710 91142
BBXX 62103 03004 99499 70029 46/97 /2632 10124 20102 40096 57034 22200 00136 10705 70027 333 90710 91147
AAXX 03004 93713 46/// /1011 10155 40142 22200 00132
BBXX SHIP 03004 99299 11343 41497 82520 10220 20206 40063 51008 70211 86717 22283 00240 20805 325// 40705 80210
BBXX A8EO8 03004 99508 11582 41498 33532 10040 20022 40200 52020 70100 821// 22255 04040 2//02 314// 4//03 5//// 80032
BBXX 44056 03001 99362 70757 46/// ///// 1//// 90020 22200 00124 11102 21001 310// 41101 70010
BBXX 46109 03001 99481 71234 46/// /0904 10073 40329 92357
BBXX 46110 03001 99481 71230 46/// /0102 10069 40330 92358
BBXX 42085 03001 99179 70665 46/// /2503 10255 40143 90020 333 91204
BBXX 42085 03001 99179 70665 46/// /2603 10254 40142 90010 333 91204
BBXX 42085 03001 99179 70665 46/// /2403 10256 40143 90030 333 91203
BBXX WCPU 03004 99285 70403 41/// 40519 10183 20175 40241 50001 71661 8//// 22263 0//// 2//// 3//// 4//// 5//// 6//// 80178 ICE /////
BBXX C6LU4 03004 99447 70169 41496 83043 10145 2012/ 40320 54000 70222 88/// 22254 299// 330// 49909 5//// 80128
AAXX 03004 63729 32980 70000 10193 20189 38850 48/// 80002 333 55300 58017 87070
AAXX 03004 63733 12480 70000 10197 20184 38845 48482 60011 8193/ 333 0//14 59020 81918 87358
AAXX 03004 63756 32480 70000 10208 20188 38845 48480 81932 333 59023 81617 81918 87359
AAXX 03004 63801 32480 50000 10225 20210 39175 48494 81901 333 59024 81819 81920 85076
AAXX 03004 63832 32980 13609 10185 20179 38799 48463 82221 333 55300 59017 81072
AAXX 03004 63862 32580 10606 10209 20172 38875 48483 81500 333 59013 81621
AAXX 03004 63870 32480 20000 10244 20238 30073 40091 82200 333 55300 59016 81816
AAXX 03004 63881 32480 11403 10158 20127 38191 48/// 81500 333 59008 81618
AAXX 03004 63887 32980 00000 10174 20116 38566 48484 333 59011
AAXX 03004 63894 32580 40000 10230 20227 30036 40096 82230 333 59012 82820 84357
AAXX 03004 63932 32580 10000 10134 20118 38293 48494 81500 333 59011 81620
AAXX 03004 63962 32580 10000 10206 20174 38931 48490 81500 333 59023 81620
AAXX 03004 63971 32580 10606 10256 20240 39959 40088 81200 333 55300 59019 81822
BBXX MINFR09 0300/ 99013 11038 46/// ///// 40101 52016
AAXX 03004 13601 12660 32702 10100 20094 30127 40229 54004 60001 83500 333 83640
OOXX AAPIG 03004 99758 51003 56251 08502 46/// /0722 11104 21176 38791 49762 52009 92340
AAXX 0300/ 89872 46/// ///// 11060 39664 4//// 5//// 90020
AAXX 0300/ 89866 46/// ///// 11038 39610 4//// 5//// 90010
AAXX 0300/ 89866 46/// ///// 11031 39611 4//// 5//// 90020
AAXX 0300/ 89828 46/// ///// 11298 36451 4//// 5//// 90010
AAXX 0300/ 89108 46/// ///// 11273 36871 4//// 5//// 90020
AAXX 0300/ 89879 46/// ///// 10011 39594 4//// 5//// 90020
AAXX 03004 91689 46/// /1010 10275 40094 22200 00137
AAXX 03004 43086 31996 00000 10168 20151 39900 40082 70500 333 59010
AAXX 03004 43128 31996 00000 10168 20134 39473 40092 70500 333 59027
AAXX 03004 43150 21596 70000 10250 20220 30003 40078 70522 83532 333 59028 6994/ 83620 84360
AAXX 03004 43185 31596 50000 10230 20218 30069 40072 70522 82531 333 59028 82620 84360
AAXX 03004 43189 32996 00000 10230 20215 30065 40074 333 59031
AAXX 03004 43198 31/90 90000 10158 20151 39250 40090 74542 89/// 333 59025
AAXX 03004 43201 32997 00000 10194 20155 39352 40076 333 59025
AAXX 03004 43213 32996 00000 10210 20185 39757 40078 333 59024
AAXX 03004 43233 32996 00000 10186 20160 39266 40075 333 59021
AAXX 03004 43237 32996 20000 10194 20174 39682 40080 80001 333 59019 82070
AAXX 03004 43245 32996 11602 10236 20227 30047 40074 80001 333 59023
AAXX 03004 43279 31996 10000 10220 20211 30067 40085 71000 80001 333 59019 81075
AAXX 03004 43284 31191 53604 10254 20248 39950 40065 74642 85600 333 56800 59022 85703
AAXX 03004 43295 31996 00000 10190 20174 39066 48471 70500 333 59019
AAXX 03004 43311 32996 00000 10264 20258 40074 333 59010
AAXX 03004 43314 32996 30000 10254 20185 40070 80001 333 59024
AAXX 03004 43321 31493 53205 10234 20225 39639 40086 71042 83631 333 56799 59021
AAXX 03004 43329 31595 20000 10220 20220 30065 40079 70500 81501 333 59022
AAXX 03004 43344 31995 20000 10230 20218 39986 40087 70500 80001 333 59017 82075
AAXX 03004 43346 31995 20000 10236 20230 30071 40078 70511 80001 333 59019 82075
AAXX 03004 43353 32496 51308 10256 20241 40082 83870 333 56690 59016 83612 85458
AAXX 03004 43369 22596 30000 10258 20246 40072 82530 333 59020 6997/ 82620
AAXX 03004 43371 21596 80000 10250 20241 30006 40079 75065 8442/ 333 59012 6001/ 84618 88458
BBXX VRDX2 03003 99283 31574 41/97 /1607 10210 20164 40173 54000 7//// 8/772 22234 00201 20203 316// 40203
BBXX VRDX2 03003 99283 31574 41/97 /1607 10210 20164 40173 54000 7//// 8/772 22234 00201 20203 316// 40203
AAXX 03004 13601 12660 32702 10100 20094 30127 40229 54004 60001 83500 333 83640
BBXX 46094 03001 99446 71243 46/// /3309 10095 92350
BBXX 46094 03001 99446 71243 46/// /3410 10095 92340
BBXX 46094 03001 99446 71243 46/// /3406 10096 90030
BBXX 46094 03001 99446 71243 46/// /3609 10095 90000
BBXX 46094 03001 99446 71243 46/// /3209 10095 90010
BBXX 46094 03001 99446 71243 46/// /3307 10095 90020
BBXX MINFR09 0300/ 99013 11038 46/// ///// 40101 52016
AAXX 03004 13601 12660 32702 10100 20094 30127 40229 54004 60001 83500 333 83640
AAXX 03004 04418 NIL
AAXX 03004 04425 NIL
AAXX 03004 04432 NIL
AAXX 03004 04436 NIL
AAXX 03004 04464 46/// /2207 11276 21301 333 553// 20004
AAXX 03004 04485 46/// /1808 11320 21338 37203 52004 333 553// 20000
AAXX 03004 04488 46/// /2515 11278 21296 37237 52006 333 553// 20000
AAXX 03004 41660 1179// 31304 10060 20023 38429 48520 60002 70500 82530 333 56990 59017 82650
BBXX AMOUK01 03004 99170 30029 46/// ///// 10188 20134 30157 40168 57005 92350
BBXX A8EO8 03004 99508 11582 41498 33532 10040 20022 40200 52020 70100 821// 22255 04040 2//02 314// 4//03 5//// 80032
BBXX TBWAA05 03003 99600 10255 41/97 /2708 10030 20006 49934 52015 70122 8//// 22200 02050 2//// 3//// 4//// 5//// 80020
AAXX 0300/ 89869 46/// ///// 11080 39656 4//// 5//// 90030
AAXX 0300/ 89879 46/// ///// 10011 39594 4//// 5//// 90030
AAXX 03004 60630 12960 60215 10168 20020 40162 58014 60001 82032 333 82362 85075
BBXX 62081 03004 99510 70134 46/// ///// 10126 20115 40110 58001 22200 00122 10812 70060
BBXX 62303 03004 99516 70051 46/// /2522 10122 20115 40044 56022 22200 00128 10708 70041 333 90710 91134
BBXX AMOUK08 03004 99501 70061 46/// ///// 10123 20113 30097 40104 57019 92350
BBXX 63106 03004 99610 10017 46/// /1931 10072 49704 57085 22200
BBXX 63105 03004 99610 10017 47496 ///// 10084 20059 49704 57083 751// 22200
BBXX 62103 03004 99499 70029 46/98 /2631 10125 20101 40106 56037 22200 00135 10705 70024 333 90710 91146
BBXX WDD2074 03004 99568 71425 41897 32325 10058 2//// 40220 52020 70111 82/18 22233 00050 20607 324// 41211 5//// 6//// 8//// ICE /////
BBXX 42013 03001 99272 70829 46/// ///// 1//// 40254 90020 22200 00210
BBXX 42013 03001 99272 70829 46/// ///// 1//// 40251 51010 90000 22200 00210
BBXX VRDX2 03003 99283 31574 41/97 /1607 10210 20164 40173 54000 7//// 8/772 22234 00201 20203 316// 40203
BBXX WDD2074 03004 99568 71425 41897 32325 10058 2//// 40220 52020 70111 82/18 22233 00050 20607 324// 41211 5//// 6//// 8//// ICE /////
BBXX TBWAA05 03003 99600 10255 41/97 /2708 10030 20006 49934 52015 70122 8//// 22200 02050 2//// 3//// 4//// 5//// 80020
BBXX TESTFR9 03004 99502 70041 46/// /2638 10121 29094 40102 22243
BBXX BAREU54 03004 99094 70799 46/// ///// 40114 22200
BBXX BAREU04 03004 99391 70764 46/// ///// 40311 22231
AAXX 0300/ 68902 46/// ///// 40221 57011
BBXX MINFR03 0300/ 99270 30147 46/// ///// 10145 40135 52006
AAXX 03004 71408 46/// /0704 10035 20001 30174 40254 5/015 6///1 333 7////
AAXX 03004 71408 46/// /0704 10035 20001 30174 40254 5/015 6///1 333 7////
AAXX 03001 30337 11598 50000 11212 21231 39856 40342 53016 69902 70282 80001 333 21213 47015 55007
AAXX 03001 98132 11460 80204 10225 20217 40153 52020 60174 76064 8687/ 333 20200 56199 58006 70174 86816 88357 555 20066
AAXX 03001 98133 11460 80405 10/// 20/// 40103 5//// 60334 76066 8567/ 222// 20703 333 20/// 56199 58003 70330 85318 88358 555 20098
AAXX 03001 98222 11570 62601 10242 20218 40085 53015 69904 70544 82270 333 20225 56999 58007 79999 82820 86359
AAXX 03001 98233 31568 83601 10230 20204 40101 52020 70544 8357/ 333 20195 56199 58013 83620 88358 555
AAXX 03001 98324 11462 73601 10260 20245 40078 52013 60064 70544 82272 333 20237 56999 58005 70062 82816 85358 555 20010
AAXX 03001 98327 11665 53401 10247 20231 39912 40087 52017 60084 70544 81108 333 20228 56999 58004 70080 81842 84280
AAXX 03001 98334 12480 51401 10260 20247 39883 40086 52021 60104 82201 333 20228 56999 58009 70103 82818 85358
AAXX 03001 98425 31558 62502 10280 20243 40087 52020 70544 83608 333 20245 56999 59002 83620 86280
AAXX 03001 98426 31570 70605 10261 20226 40083 52016 70544 81109 333 20247 56999 58003 79999 81820 86180
AAXX 03001 98427 32580 30402 10272 20243 39893 40070 53020 82260 333 20242 56119 59002 82820
AAXX 03001 98428 11460 60901 10280 20252 40073 52015 60024 70598 82468 333 20260 56999 58002 70018 82618 84275 92/76
AAXX 03001 98432 11568 30000 10258 20250 40081 52016 60184 70544 81272 333 20240 56999 58002 70175 81820
AAXX 03001 98433 31465 30902 10232 20215 39366 40085 53017 60054 70544 82231 333 20205 56999 58016 70058 82812
AAXX 03001 98434 12470 63601 10260 20244 30080 40088 53027 69984 81231 333 20232 56999 58004 70008 81818 84359
AAXX 03001 98435 12472 60402 10272 20248 40091 5//// 60164 83270 333 20201 56199 59001 70158 83818 85358
AAXX 03001 98442 NIL
AAXX 03001 98446 11480 23301 10264 20259 30042 40088 52019 60014 70182 82200 333 20238 56999 58005 70010 82818 555 20010
AAXX 03001 98447 11480 32202 10258 20245 39828 40081 5//// 60151 70182 83200 222// 2//// 333 20/// 56999 59002 70148 83818 555 20088
AAXX 03001 98538 11466 20000 10285 20258 30080 40085 53027 69904 70540 81901 333 20255 56999 58038 79999 81911
AAXX 03001 98546 32575 20000 10270 20254 30072 40080 52022 81201 333 20227 56999 58012 81820
AAXX 03001 98548 32478 21802 10275 20248 30061 40067 53021 81170 333 20245 58001 81816 98301
AAXX 03001 98553 31475 42201 10290 20260 30076 40080 52021 70544 83301 333 20240 56999 58008 81918 83820 84075
AAXX 03001 98558 11470 71803 10281 20275 30016 40084 53020 60084 72582 85970 222// 20400 333 20247 56999 58006 70075 84915 83357 555 20075
AAXX 03001 98642 31462 30000 10285 20259 30071 40080 52027 70544 82201 333 20254 56999 58011 82815
AAXX 03001 98644 31465 70601 10268 20258 30079 40088 53021 70544 82270 333 20248 56199 58017 82817 87358
AAXX 03001 98648 31475 40000 10270 20246 39999 40081 52019 70544 82268 333 20218 56299 58009 82817 83270
AAXX 03001 98746 11465 60802 10279 20226 40105 52029 60014 70586 82206 333 20234 56999 58003 70014 82818 85075
AAXX 03001 98751 11475 40901 10247 20223 39423 40093 52022 69904 70544 82161 333 20195 56999 58016 79999 82815
AAXX 03001 98752 31566 31803 10280 20247 40088 52020 70510 81101 333 20250 56999 58013 81820
AAXX 03001 98851 31470 50901 10298 20242 39932 40079 53020 70544 82101 333 20230 56999 58008 82818 85075
AAXX 03004 42189 31993 00000 10170 20142 40104 74244 333 58///
AAXX 0300/ 89108 46/// ///// 11268 36871 4//// 5//// 90030
AAXX 0300/ 89872 46/// ///// 11060 39665 4//// 5//// 90030
AAXX 0300/ 89329 46/// ///// 11110 38628 4//// 5//// 90030
AAXX 0300/ 89799 46/// ///// 11275 4//// 5//// 90030
AAXX 0300/ 89332 46/// ///// 11069 39085 4//// 5//// 90030
AAXX 0300/ 89769 46/// ///// 11046 39690 4//// 5//// 90030
AAXX 0300/ 89314 46/// ///// 11118 38115 4//// 5//// 90030
BBXX ZDLS1 03003 99170 30029 41/98 81123 10185 20126 40157 54000 70222 8//// 22233 04185 20502 313// 40806 80152
BBXX C6TH9 03003 99174 51498 41297 40616 10270 2021/ 40140 56010 7//11 842// 22200 00270 2//// 3//// 4//// 5//// 6//// 80230 ICE /////
BBXX MINFR03 0300/ 99270 30147 46/// ///// 10145 40135 52006
BBXX TESTFR9 03004 99502 70041 46/// /2638 10121 29094 40102 22243
BBXX BAREU11 03004 99268 50734 46/// ///// 40182 52006 22243
BBXX 42013 03001 99272 70829 46/// ///// 1//// 40254 90020 22200 00210
BBXX 42013 03001 99272 70829 46/// ///// 1//// 40251 51010 90000 22200 00210
AAXX 03003 64870 32960 50000 10099 20049 38908 48505 80002 333 0//00 59004 85080
BBXX MINFR03 0300/ 99270 30147 46/// ///// 10145 40135 52006
AAXX 03004 94997 46/// ///// 10018 30013 40028 5////
AAXX 03004 89614 46/// /0308 11114 29073 39012 4//// 5//// 90030 333 90700 91111
AAXX 03004 94997 46/// ///// 10018 30013 40028 5////
AAXX 03004 89807 46/// /2215 11095 29054 39812 4//// 5//// 90030 333 90700 91116
AAXX 03004 89807 46/// /2215 11095 29054 39812 4//// 5//// 90030 333 90700 91116
AAXX 03004 89614 46/// /0308 11114 29073 39012 4//// 5//// 90030 333 90700 91111
AAXX 03004 89610 46/// /0405 11041 39704 4//// 5//// 333 90700 91106
AAXX 03004 89610 46/// /0405 11041 39704 4//// 5//// 333 90700 91106
AAXX 03004 89610 46/// /0405 11041 39704 4//// 5//// 333 90700 91106
AAXX 0300/ 89329 46/// ///// 11109 38628 4//// 5//// 90040
AAXX 0300/ 89327 46/// ///// 11005 39528 4//// 5//// 90040
AAXX 0300/ 89332 46/// ///// 11071 39085 4//// 5//// 90040
BBXX 63106 03004 99610 10017 46/// /1931 10072 49704 57085 22200
BBXX 63113 03004 99610 10017 46/// /2037 10081 20060 49712 57081 22200 10812 70060
BBXX 62303 03004 99516 70051 46/// /2524 10122 2//// 40048 57021 22200 00126 10709 70044 333 90710 91132
BBXX 62081 03004 99510 70134 46/// ///// 10122 20111 40110 58001 22200 00121 10812 70060
BBXX 62107 03004 99501 70061 46/// /2630 10118 20105 40101 58022 22200 00125 10907 70035 333 90710 91142
BBXX 62103 03004 99499 70029 46/97 /2632 10124 20102 40096 57034 22200 00136 10705 70027 333 90710 91147
BBXX WDD2074 03004 99568 71425 41897 32325 10058 2//// 40220 52020 70111 82/18 22233 00050 20607 324// 41211 5//// 6//// 8//// ICE /////
BBXX C6TH9 03003 99174 51498 41297 40616 10270 2021/ 40140 56010 7//11 842// 22200 00270 2//// 3//// 4//// 5//// 6//// 80230 ICE /////
AAXX 03004 62600 32970 00208 10160 20030 39975 40196 333 58005
AAXX 03004 62640 31968 03617 10175 21010 39773 40140 70700 333 58003
AAXX 03004 62641 32970 03207 10195 20135 30102 40150 333 59012
AAXX 03004 62650 32970 03610 10130 21010 39889 40170 333 58005
AAXX 03004 62660 32970 03606 10160 21040 39854 40161 333 58000
AAXX 03004 62680 32970 03608 10177 20038 39731 40136 333 58001
AAXX 03004 62721 32970 73407 10190 21020 39688 40135 80007 333 56009 58005 87275
AAXX 03004 62730 32970 00204 10193 20117 39575 40150 333 59014
AAXX 03004 62733 32970 03605 10180 20090 39610 40130 333 58000
AAXX 03004 62750 32970 73408 10200 20070 39669 40107 80007 333 56009 59002 87275
AAXX 03004 62751 32970 00404 10153 20047 39668 40144 333 58008
AAXX 03004 62752 32970 00204 10200 20000 39436 40117 333 59005
AAXX 03004 62762 32970 73605 10125 20050 39625 40111 80007 333 56009 58001 87275
AAXX 03004 62771 32970 73510 10170 21020 39495 40155 80007 333 56009 58008 87275
AAXX 03004 62772 32970 03605 10183 20087 39685 40126 333 58000
AAXX 03004 62781 32970 70303 10170 21020 39503 40150 80007 333 56009 59001 87275
AAXX 03004 62790 32970 73606 10170 21020 39414 40155 80007 333 56009 58002 87275
AAXX 03004 62795 32970 70307 10200 20040 39602 40109 80007 333 56009 59001 87275
AAXX 03004 62600 32970 00208 10160 20030 39975 40196 333 58005
AAXX 03004 62640 31968 03617 10175 21010 39773 40140 70700 333 58003
AAXX 03004 62641 32970 03207 10195 20135 30102 40150 333 59012
AAXX 03004 62650 32970 03610 10130 21010 39889 40170 333 58005
AAXX 03004 62660 32970 03606 10160 21040 39854 40161 333 58000
AAXX 03004 62680 32970 03608 10177 20038 39731 40136 333 58001
AAXX 03004 62721 32970 73407 10190 21020 39688 40135 80007 333 56009 58005 87275
AAXX 03004 62730 32970 00204 10193 20117 39575 40150 333 59014
AAXX 03004 62733 32970 03605 10180 20090 39610 40130 333 58000
AAXX 03004 62750 32970 73408 10200 20070 39669 40107 80007 333 56009 59002 87275
AAXX 03004 62751 32970 00404 10153 20047 39668 40144 333 58008
AAXX 03004 62752 32970 00204 10200 20000 39436 40117 333 59005
AAXX 03004 62762 32970 73605 10125 20050 39625 40111 80007 333 56009 58001 87275
AAXX 03004 62771 32970 73510 10170 21020 39495 40155 80007 333 56009 58008 87275
AAXX 03004 62772 32970 03605 10183 20087 39685 40126 333 58000
AAXX 03004 62781 32970 70303 10170 21020 39503 40150 80007 333 56009 59001 87275
AAXX 03004 62790 32970 73606 10170 21020 39414 40155 80007 333 56009 58002 87275
AAXX 03004 62795 32970 70307 10200 20040 39602 40109 80007 333 56009 59001 87275
AAXX 03004 63688 32480 71004 10135 20128 48/// 8152/ 333 59008 81616 87358
BBXX MINUK01 0300/ 99590 70030 46/// ///// 10068 49730 52004
BBXX AMOUK01 03004 99170 30029 46/// ///// 10188 20134 30157 40168 57005 92350
BBXX VRXL7 03003 99469 70115 41297 82819 10130 2011/ 40225 50025 70222 8861/ 22213 00150 20107 33231 40106 50106 6//// 80120
BBXX C6CU6 03003 99469 70074 41497 82918 10130 20111 40225 58030 76222 887// 22213 04155 20508 330// 40508 5//// 80120
BBXX C6LU4 03004 99447 70169 41496 83043 10145 2012/ 40320 54000 70222 88/// 22254 299// 330// 49909 5//// 80128
AAXX 03004 91375 46/// /0611 10290 40065 22200 00290
AAXX 03004 91165 32466 40216 30125 90000
AAXX 03004 91203 11474 80910 10289 20269 30100 40105 51010 69954 70282 82276
AAXX 03004 91212 32566 60711 10289 20244 31368 40102 50010 92354
AAXX 03004 91245 32466 20713 10290 20230 30134 92355
AAXX 03004 91285 32466 80609 10260 20210 30141 90004
AAXX 03004 91317 12474 60505 10278 20263 30106 40110 5//// 60014 82171
AAXX 03004 91324 32474 81310 10289 20248 30072 40074 8423/
AAXX 03004 91334 11474 83608 10297 20247 30080 40083 50008 60034 70282 83171
AAXX 03004 91367 32474 30913 10306 20261 83100
AAXX 03004 91369 11448 70915 10283 20256 30070 40073 62874 78182 827//
AAXX 03004 91376 11474 80810 10290 20253 30064 40068 58008 60094 72582 84878
AAXX 03004 91408 12474 31205 10306 20253 30042 40080 52012 60164 82271
AAXX 03004 91413 12469 50912 10307 20248 30064 40090 51010 69984 82271
AAXX 03004 91610 11599 40816 10310 20239 40057 58016 60001 70300 82201
AAXX 03004 91155 NIL
AAXX 03004 91217 NIL
AAXX 03004 91232 NIL
AAXX 03004 91250 NIL
AAXX 03004 91275 NIL
AAXX 03004 91339 NIL
AAXX 03004 91348 NIL
AAXX 03004 91353 NIL
AAXX 03004 91356 NIL
AAXX 03004 91366 NIL
AAXX 03004 91371 NIL
AAXX 03004 91378 NIL
AAXX 03004 91425 NIL
AAXX 03004 91434 NIL
AAXX 03004 91601 NIL
BBXX 62081 03004 99510 70134 46/// ///// 10126 20115 40110 58001 22200 00122 10812 70060
BBXX 62303 03004 99516 70051 46/// /2522 10122 20115 40044 56022 22200 00128 10708 70041 333 90710 91134
BBXX AMOUK08 03004 99501 70061 46/// ///// 10123 20113 30097 40104 57019 92350
BBXX 63106 03004 99610 10017 46/// /1931 10072 49704 57085 22200
BBXX 63105 03004 99610 10017 47496 ///// 10084 20059 49704 57083 751// 22200
BBXX 62103 03004 99499 70029 46/98 /2631 10125 20101 40106 56037 22200 00135 10705 70024 333 90710 91146
AAXX 03004 91245 32466 20713 10290 20230 30134 92355
AAXX 03004 91165 32466 40216 30125 90000
AAXX 03004 91212 32566 60711 10289 20244 31368 40102 50010 92354
AAXX 03004 91285 32466 80609 10260 20210 30141 90004
AAXX 03004 91317 12474 60505 10278 20263 30106 40110 5//// 60014 82171
AAXX 03004 91334 11474 83608 10297 20247 30080 40083 50008 60034 70282 83171
AAXX 03004 91369 11448 70915 10283 20256 30070 40073 62874 78182 827//
AAXX 03004 91376 11474 80810 10290 20253 30064 40068 58008 60094 72582 84878
AAXX 03004 91408 12474 31205 10306 20253 30042 40080 52012 60164 82271
AAXX 03004 91413 12469 50912 10307 20248 30064 40090 51010 69984 82271
BBXX MINUK01 0300/ 99590 70030 46/// ///// 10068 49730 52004
AAXX 0300/ 89327 46/// ///// 10004 39527 4//// 5//// 90020
AAXX 0300/ 89327 46/// ///// 10000 39528 4//// 5//// 90030
AAXX 03004 71428 16/// /1901 11038 21059 30285 40291 51022 60001 333 11014 21038 70000
AAXX 03004 71429 16/// /3403 11013 21054 30249 40269 53019 60001 333 11002 21054 70000
AAXX 03004 71614 17/// /3005 10001 21021 30229 40296 51041 69981 7//4/ 333 10043 21011 70015
AAXX 03004 71494 17/// /3206 11021 21025 39743 40276 53033 60011 7//4/ 333 11005 21070 70031 555 10040
AAXX 03004 71512 16/// /3003 11074 21097 30264 40279 53022 60001 333 11020 21118 70000
BBXX MINUK01 0300/ 99590 70030 46/// ///// 10068 49730 52004
AAXX 03001 27113 41450 81910 10001 21014 39869 40014 58044 78583 883// 333 84914
BBXX ZDLS1 03003 99170 30029 41/98 81123 10185 20126 40157 54000 70222 8//// 22233 04185 20502 313// 40806 80152
BBXX 63106 03004 99610 10017 46/// /1931 10072 49704 57085 22200
BBXX 63113 03004 99610 10017 46/// /2037 10081 20060 49712 57081 22200 10812 70060
BBXX 62303 03004 99516 70051 46/// /2524 10122 2//// 40048 57021 22200 00126 10709 70044 333 90710 91132
BBXX 62081 03004 99510 70134 46/// ///// 10122 20111 40110 58001 22200 00121 10812 70060
BBXX 62107 03004 99501 70061 46/// /2630 10118 20105 40101 58022 22200 00125 10907 70035 333 90710 91142
BBXX 62103 03004 99499 70029 46/97 /2632 10124 20102 40096 57034 22200 00136 10705 70027 333 90710 91147
BBXX V7QX2 03004 99012 11039 41796 43600 10250 2025/ 40090 54/// 7//// 8/69/ 2221/ 00300 20300 323// 4//// 5//// 6//// 80250 ICE /////
AAXX 03004 89266 46/// /1909 11111 21121 39757 49899 52021 90030
AAXX 03004 89065 46/// /1102 11006 21015 39781 49858 52025 90030
AAXX 03004 89272 46/// /0106 11155 21175 38038 49696 52015 90030
AAXX 03004 89013 46/// /1005 11282 21321 37585 49666 54000 90020
AAXX 03004 89065 46/// /1402 11004 21014 39780 49857 52028 90020
AAXX 03004 89257 46/// /1204 11095 21117 39843 49914 52017 90030
AAXX 03004 89262 46/// /9901 11028 21049 39841 49885 52038 90030
AAXX 03004 89266 46/// /1908 11109 21119 39756 49898 52022 90020
AAXX 03004 89272 46/// /0105 11153 21172 38037 49694 52017 90020
BBXX AMOUK01 03004 99170 30029 46/// ///// 10188 20134 30157 40168 57005 92350
BBXX 52249 03001 99052 31503 46/// ///// 1//// 90027 22200 00317
AAXX 03004 61401 NIL
AAXX 03004 61404 NIL
AAXX 03004 61415 31957 73508 10203 20115 30173 40178 70622 84032 333 0//00 58027 84363 85080
AAXX 03004 61421 NIL
AAXX 03004 61437 NIL
AAXX 03004 61442 32958 50103 10251 21052 30152 40155 85080 333 0//00 58011 85363
AAXX 03004 61450 NIL
AAXX 03004 61461 NIL
AAXX 03004 61489 NIL
AAXX 03004 61492 NIL
AAXX 03004 61497 NIL
AAXX 03004 61498 NIL
AAXX 03004 61499 NIL
AAXX 03004 61510 NIL
AAXX 03001 38846 415// 80504 11014 21020 38573 48530 52007 71072 886//
AAXX 03004 89065 46/// /1102 11006 21015 39781 49858 52025 90030
BBXX 62081 03004 99510 70134 46/// ///// 10126 20115 40110 58001 22200 00122 10812 70060
BBXX 62303 03004 99516 70051 46/// /2522 10122 20115 40044 56022 22200 00128 10708 70041 333 90710 91134
BBXX AMOUK08 03004 99501 70061 46/// ///// 10123 20113 30097 40104 57019 92350
BBXX 63106 03004 99610 10017 46/// /1931 10072 49704 57085 22200
BBXX 63105 03004 99610 10017 47496 ///// 10084 20059 49704 57083 751// 22200
BBXX 62103 03004 99499 70029 46/98 /2631 10125 20101 40106 56037 22200 00135 10705 70024 333 90710 91146
BBXX 52249 03001 99052 31503 46/// ///// 1//// 90027 22200 00317
BBXX V7QX2 03004 99012 11039 41796 43600 10250 2025/ 40090 54/// 7//// 8/69/ 2221/ 00300 20300 323// 4//// 5//// 6//// 80250 ICE /////
AAXX 03004 89507 46/// /1105 29060 36736 4//// 5////
AAXX 03004 63714 32480 70000 10140 20136 48495 8151/ 333 59008 81616 85458
AAXX 03004 41998 31930 00000 10175 20160 30092 40098 70500 333 59012 70000
BBXX NWS0021 03004 99318 70642 43/// /0711 10226 20174 40181 5//// 7//// 8//// 222// 04237 2//// 3//// 4//// 5//// 6//// 8//// ICE /////
AAXX 03004 17088 12970 00000 11030 21055 38852 48542 51002 60001
AAXX 03001 30949 32999 10000 11292 21298 39164 40391 53040 80011 333 21292 47002 55044
BBXX 63106 03004 99610 10017 46/// /1931 10072 49704 57085 22200
BBXX 63113 03004 99610 10017 46/// /2037 10081 20060 49712 57081 22200 10812 70060
BBXX 62303 03004 99516 70051 46/// /2524 10122 2//// 40048 57021 22200 00126 10709 70044 333 90710 91132
BBXX 62081 03004 99510 70134 46/// ///// 10122 20111 40110 58001 22200 00121 10812 70060
BBXX 62107 03004 99501 70061 46/// /2630 10118 20105 40101 58022 22200 00125 10907 70035 333 90710 91142
BBXX 62103 03004 99499 70029 46/97 /2632 10124 20102 40096 57034 22200 00136 10705 70027 333 90710 91147
AAXX 03001 31878 32/// /0000 11167 21200 30117 40250 58019 333 21203
AAXX 0300/ 89869 46/// ///// 11084 39657 4//// 5//// 90010
BBXX NWS0021 03004 99318 70642 43/// /0711 10226 20174 40181 5//// 7//// 8//// 222// 04237 2//// 3//// 4//// 5//// 6//// 8//// ICE /////
AAXX 03001 01321 16/// /1303 10016 21025 39577 49826 58062 60001 333 91110
BBXX MINFR00 0300/ 99500 70015 46/// ///// 10115 40112 57037
BBXX MINUK03 0300/ 99539 10016 46/// ///// 10085 49969 57009
AAXX 03001 30337 11998 50000 11212 21231 39856 40342 53016 69902 70282 80001 333 21213 47015 55007
AAXX 03004 87418 31960 00000 10276 20122 39272 40041 52019 70400 333 10325 20209
AAXX 03001 29430 11498 82201 11108 21114 30022 40205 54000 60012 77172 8872/ 333 21121 47020 55000 88710
BBXX 62081 03004 99510 70134 46/// ///// 10126 20115 40110 58001 22200 00122 10812 70060
BBXX 62303 03004 99516 70051 46/// /2522 10122 20115 40044 56022 22200 00128 10708 70041 333 90710 91134
BBXX AMOUK08 03004 99501 70061 46/// ///// 10123 20113 30097 40104 57019 92350
BBXX 63106 03004 99610 10017 46/// /1931 10072 49704 57085 22200
BBXX 63105 03004 99610 10017 47496 ///// 10084 20059 49704 57083 751// 22200
BBXX 62103 03004 99499 70029 46/98 /2631 10125 20101 40106 56037 22200 00135 10705 70024 333 90710 91146
BBXX MINFR00 0300/ 99500 70015 46/// ///// 10115 40112 57037
BBXX MINUK03 0300/ 99539 10016 46/// ///// 10085 49969 57009
AAXX 03001 23074 11997 01704 11176 21202 30204 40231 52003 69902 70271 333 21207 47025 55000
BBXX MINFR05 0300/ 99304 70096 46/// ///// 10153 40219 57007
AAXX 03001 11035 31225 82402 11004 21007 39942 40203 52003 71022 886// 333 88704
AAXX 03004 71323 17/// /3304 11008 21016 39981 40268 53032 60031 7//4/ 333 10004 21046 70030
BBXX MINFR00 0300/ 99500 70015 46/// ///// 10115 40112 57037
AAXX 03001 23058 42297 81605 11140 21160 30155 40160 54000 886// 333 88704 96510
AAXX 03001 36034 11498 82104 11102 21115 39985 40273 53008 69902 72272 885// 333 21150 48015 84710
BBXX MINFR05 0300/ 99304 70096 46/// ///// 10153 40219 57007
BBXX MINUK04 0300/ 99532 10034 46/// ///// 10100 4//// 52039
AAXX 03034 48001 31/09 90000 10113 20110 40134 74344 333 20090 59030
AAXX 03034 48020 32458 50000 10160 20151 83530 333 20155 56500
AAXX 03034 48025 31/30 52701 10182 20182 40104 74244 83640 333 20166 56690 59033
AAXX 03034 48045 32562 20000 10127 20113 82100 333 20112 56300
AAXX 03034 48001 31/09 90000 10113 20110 40134 74344 333 20090 59030
AAXX 03034 48020 32458 50000 10160 20151 83530 333 20155 56500
AAXX 03034 48025 31/30 52701 10182 20182 40104 74244 83640 333 20166 56690 59033
AAXX 03034 48045 32562 20000 10127 20113 82100 333 20112 56300
BBXX 63106 03004 99610 10017 46/// /1931 10072 49704 57085 22200
BBXX 63113 03004 99610 10017 46/// /2037 10081 20060 49712 57081 22200 10812 70060
BBXX 62303 03004 99516 70051 46/// /2524 10122 2//// 40048 57021 22200 00126 10709 70044 333 90710 91132
BBXX 62081 03004 99510 70134 46/// ///// 10122 20111 40110 58001 22200 00121 10812 70060
BBXX 62107 03004 99501 70061 46/// /2630 10118 20105 40101 58022 22200 00125 10907 70035 333 90710 91142
BBXX 62103 03004 99499 70029 46/97 /2632 10124 20102 40096 57034 22200 00136 10705 70027 333 90710 91147
BBXX MINUK05 0300/ 99566 70076 46/// ///// 10093 49869 57024
AAXX 03001 63332 NIL
AAXX 03001 63333 NIL
AAXX 03001 63340 NIL
AAXX 03001 63402 NIL
AAXX 03001 63450 42580 40804 10135 20107 37719 401213 84500 333 59005 84625
AAXX 03001 63451
AAXX 03001 63471 NIL
AAXX 03001 NNNN
AAXX 03001 29654 11396 81902 11093 21105 39594 40227 52003 60042 78582 889// 333 21095 48082 86708
AAXX 03001 38847 427// 60000 10020 20006 40297 57025 82550
BBXX MINUK05 0300/ 99566 70076 46/// ///// 10093 49869 57024
BBXX MINUK04 0300/ 99532 10034 46/// ///// 10100 4//// 52039
AAXX 03000 44294 32998 23502 11294 21326 38548 40444 52006 80004 333 21324 43004 555 31312
AAXX 03000 44314 32998 20000 11192 2//// 39154 40323 52012 80004 333 21205 46002 555 31250
BBXX MINUK05 0300/ 99566 70076 46/// ///// 10093 49869 57024
AAXX 03004 67009 11480 6//// 10240 20231 39983 40101 56005 60021 72162 83202 333 0//56 83817 83073
AAXX 03004 67012 11575 8//// 10240 20225 30093 40102 56011 60331 7009/ 889// 333 0//21 85820 81920 85640 94961/2/3/8 95831/2/3/8= RR 33,1 67073 33980 0//// 10264 20250 30062 40088 56015 333 0//00
AAXX 03004 67157 31575 7//// 10/// 20/// 30122 40129 58008 715// 878// 333 0//00 81820 87633
AAXX 03004 67131 33580 10000 10/// 20/// 30079 40084 57017 81200 333 0//00 81823
BBXX ZDLS1 03003 99170 30029 41/98 81123 10185 20126 40157 54000 70222 8//// 22233 04185 20502 313// 40806 80152
AAXX 03004 48001 31/09 90000 10113 20110 40134 74344 333 20090 59030
AAXX 03004 48020 32458 50000 10160 20151 83530 333 20155 56500
AAXX 03004 48025 31/30 52701 10182 20182 40104 74244 83640 333 20166 56690 59033
AAXX 03004 48045 32562 20000 10127 20113 82100 333 20112 56300
AAXX 03004 67009 11480 6//// 10240 20231 39983 40101 56005 60021 72162 83202 333 0//56 83817 83073
AAXX 03004 67012 11575 8//// 10240 20225 30093 40102 56011 60331 7009/ 889// 333 0//21 85820 81920 85640 94961 94962 94963 94968 95831 95832 95833 95838
AAXX 03004 67073 33980 0//// 10264 20250 30062 40088 56015 333 0//00
AAXX 03004 67157 31575 7//// 10/// 20/// 30122 40129 58008 715// 878// 333 0//00 81820 87633
BBXX 62081 03004 99510 70134 46/// ///// 10126 20115 40110 58001 22200 00122 10812 70060
BBXX 62303 03004 99516 70051 46/// /2522 10122 20115 40044 56022 22200 00128 10708 70041 333 90710 91134
BBXX AMOUK08 03004 99501 70061 46/// ///// 10123 20113 30097 40104 57019 92350
BBXX 63106 03004 99610 10017 46/// /1931 10072 49704 57085 22200
BBXX 63105 03004 99610 10017 47496 ///// 10084 20059 49704 57083 751// 22200
BBXX 62103 03004 99499 70029 46/98 /2631 10125 20101 40106 56037 22200 00135 10705 70024 333 90710 91146
AAXX 03003 63695 32480 30000 10143 20139 82530 333 82614 83358
AAXX 03004 44404 NIL
AAXX 03004 44406 NIL
AAXX 03004 44409 42960 00000 10127 20125 39857 40058 333 59001
AAXX 03004 44416 NIL
AAXX 03004 44418 NIL
AAXX 03004 44424 NIL
AAXX 03004 44429 NIL
AAXX 03004 44434 NIL
AAXX 03004 44438 NIL
AAXX 03004 44449 NIL
AAXX 03004 44454 42956 00000 10066 20052 38634 48477 333 59037
AAXX 03004 44462 NIL
AAXX 03004 44474 NIL
AAXX 03004 44474 NIL
AAXX 03004 44477 NIL
AAXX 03004 44478 NIL
BBXX 63106 03004 99610 10017 46/// /1931 10072 49704 57085 22200
BBXX 63113 03004 99610 10017 46/// /2037 10081 20060 49712 57081 22200 10812 70060
BBXX 62303 03004 99516 70051 46/// /2524 10122 2//// 40048 57021 22200 00126 10709 70044 333 90710 91132
BBXX 62081 03004 99510 70134 46/// ///// 10122 20111 40110 58001 22200 00121 10812 70060
BBXX 62107 03004 99501 70061 46/// /2630 10118 20105 40101 58022 22200 00125 10907 70035 333 90710 91142
BBXX 62103 03004 99499 70029 46/97 /2632 10124 20102 40096 57034 22200 00136 10705 70027 333 90710 91147
AAXX 03004 67283 32980 01205 10223 20203 40080 333 59033 94300
BBXX SHIP 03004 99105 31320 41/98 12002 10310 40053 70000 22233
BBXX SHIP 03004 99105 31320 41/98 12002 10310 40053 70000 22233
AAXX 03004 48481 31958 42302 10200 20182 30068 40096 52023 71011 80001 333 20198 59017
BBXX 62081 03004 99510 70134 46/// ///// 10126 20115 40110 58001 22200 00122 10812 70060
BBXX 62303 03004 99516 70051 46/// /2522 10122 20115 40044 56022 22200 00128 10708 70041 333 90710 91134
BBXX AMOUK08 03004 99501 70061 46/// ///// 10123 20113 30097 40104 57019 92350
BBXX 63106 03004 99610 10017 46/// /1931 10072 49704 57085 22200
BBXX 63105 03004 99610 10017 47496 ///// 10084 20059 49704 57083 751// 22200
BBXX 62103 03004 99499 70029 46/98 /2631 10125 20101 40106 56037 22200 00135 10705 70024 333 90710 91146
BBXX SHIP 03004 99105 31320 41/98 12002 10310 40053 70000 22233
AAXX 03003 63661 32980 30000 10147 20143 48522 83050 333 59010 83359
AAXX 03003 63671 32980 00000 10250 20236 333
BBXX DDEP2 03003 99058 10899 41697 43107 10276 20223 40128 53/// 78111 8257/ 22264 04290 29901 321// 40902 80238
BBXX DDEP2 03003 99058 10899 41697 43107 10276 20223 40128 53/// 78111 8257/ 22264 04290 29901 321// 40902 80238
AAXX 03004 40260 42960 03104 10000 21121 39430 40229 52006
BBXX 63106 03004 99610 10017 46/// /1931 10072 49704 57085 22200
BBXX 63113 03004 99610 10017 46/// /2037 10081 20060 49712 57081 22200 10812 70060
BBXX 62303 03004 99516 70051 46/// /2524 10122 2//// 40048 57021 22200 00126 10709 70044 333 90710 91132
BBXX 62081 03004 99510 70134 46/// ///// 10122 20111 40110 58001 22200 00121 10812 70060
BBXX 62107 03004 99501 70061 46/// /2630 10118 20105 40101 58022 22200 00125 10907 70035 333 90710 91142
BBXX 62103 03004 99499 70029 46/97 /2632 10124 20102 40096 57034 22200 00136 10705 70027 333 90710 91147
BBXX 52243 03001 99193 11666 46/// ///// 1//// 90000 22200 00273
BBXX 51178 03001 99142 51695 46/// ///// 1//// 90000 22200 00291
BBXX 51174 03001 99142 51697 46/// ///// 1//// 90000 22200 00294
BBXX 51171 03001 99064 71623 46/// ///// 1//// 90000 22200 00285
BBXX 51170 03001 99168 71695 46/// ///// 1//// 90000 22200 00269
BBXX 51169 03001 99004 51600 46/// ///// 1//// 90000 22200 00256
BBXX AMOUK01 03004 99170 30029 46/// ///// 10188 20134 30157 40168 57005 92350
BBXX 62081 03004 99510 70134 46/// ///// 10126 20115 40110 58001 22200 00122 10812 70060
BBXX 62303 03004 99516 70051 46/// /2522 10122 20115 40044 56022 22200 00128 10708 70041 333 90710 91134
BBXX AMOUK08 03004 99501 70061 46/// ///// 10123 20113 30097 40104 57019 92350
BBXX 63106 03004 99610 10017 46/// /1931 10072 49704 57085 22200
BBXX 63105 03004 99610 10017 47496 ///// 10084 20059 49704 57083 751// 22200
BBXX 62103 03004 99499 70029 46/98 /2631 10125 20101 40106 56037 22200 00135 10705 70024 333 90710 91146
BBXX A8VL8 03004 99302 30131 41598 61435 10175 20143 40200 54/// 70222 861// 22233 0//// 20308 31616 40208 50207 6//// 80155 ICE /////
BBXX A8VL8 03004 99302 30131 41598 61435 10175 20143 40200 54/// 70222 861// 22233 0//// 20308 31616 40208 50207 6//// 80155 ICE /////
BBXX 52243 03001 99193 11666 46/// ///// 1//// 90000 22200 00273
BBXX 51170 03001 99168 71695 46/// ///// 1//// 90000 22200 00269
BBXX 51171 03001 99064 71623 46/// ///// 1//// 90000 22200 00285
BBXX 51169 03001 99004 51600 46/// ///// 1//// 90000 22200 00256
BBXX 51174 03001 99142 51697 46/// ///// 1//// 90000 22200 00294
BBXX 51178 03001 99142 51695 46/// ///// 1//// 90000 22200 00291
AAXX 18124 65528 NIL
AAXX 18124 65536 NIL
AAXX 18124 65545 31940 0//// 10206 20164 39699 40123 70500 333 58009
AAXX 18124 65548 NIL
AAXX 18124 65555 NIL
AAXX 18124 65557 NIL
AAXX 18124 65560 32958 0//// 10230 20215 39816 40124 333 58007
AAXX 18124 65562 32958 0//// 10245 20235 3//// 4//// 333 5////
AAXX 18124 65563 32958 00000 10230 20227 39882 40122 333 58004
AAXX 18124 65578 11558 60000 10270 20249 30/// 40/// 60201 72166 86500 333 5//// 86620
AAXX 18124 65585 32460 3//// 10262 20242 3//// 4//// 83500 333 5//// 83613
AAXX 18124 65592 NIL
AAXX 18124 65594 32460 70000 10265 20251 30093 40127 875// 333 38004 87613
AAXX 18124 65599 32460 3//// 10258 20242 30037 40111 83200 333 59001 83815 94906 94904
AAXX 03004 16450 11/00 92205 10098 20098 39132 48594 50001 60001 74741 333 89/00
AAXX 03001 28334 11497 82702 11064 21083 39910 40223 57001 69900 77072 8802/ 333 11050
AAXX 03001 14370 11510 80000 10002 20000 30093 40206 57002 60001 71042 886//
BBXX 63106 03004 99610 10017 46/// /1931 10072 49704 57085 22200
BBXX 63113 03004 99610 10017 46/// /2037 10081 20060 49712 57081 22200 10812 70060
BBXX 62303 03004 99516 70051 46/// /2524 10122 2//// 40048 57021 22200 00126 10709 70044 333 90710 91132
BBXX 62081 03004 99510 70134 46/// ///// 10122 20111 40110 58001 22200 00121 10812 70060
BBXX 62107 03004 99501 70061 46/// /2630 10118 20105 40101 58022 22200 00125 10907 70035 333 90710 91142
BBXX 62103 03004 99499 70029 46/97 /2632 10124 20102 40096 57034 22200 00136 10705 70027 333 90710 91147
AAXX 03004 13610 11980 30000 10014 21010 39810 40250 54000 60001 71022 83030 333 83360
AAXX 03004 13600 12960 00902 10072 20043 30203 40257 52003 60001
AAXX 03004 13619 12665 20000 10025 20007 39481 42856 54003 60001 82500 333 82643
AAXX 03004 13624 12960 01406 10040 20026 30208 40248 54002 60001
AAXX 03001 78090 15/// /0000 10206 30249 40252 69901 90000 222// 00174
AAXX 03004 13629 12962 00000 10040 20026 39176 42824 54000 60001
AAXX 03004 13625 12960 00000 10013 21006 30018 40259 57005 60001
AAXX 03004 03100 17550 /2822 10074 20050 39873 49888 50001 60021 782// 92350 333 55/// 20087 81/26 86/43 90710 91142
AAXX 02234 91697 14/// /1603 10272 20219 30105 40110 55006
AAXX 03004 91697 14/// /1402 10276 20221 30100 40105 50010 60001 333 20246
AAXX 02234 91699 14/// /1405 10284 20233 30085 40117 55010
AAXX 03004 91699 14/// /1405 10283 20231 30081 40113 55011 60001 333 20246
AAXX 02234 91676 14/// /1104 10289 20236 30030 40090 50005
AAXX 03004 91676 14/// /1204 10287 20234 30028 40088 55006 60001 333 20252
BBXX 62081 03004 99510 70134 46/// ///// 10126 20115 40110 58001 22200 00122 10812 70060
BBXX 62303 03004 99516 70051 46/// /2522 10122 20115 40044 56022 22200 00128 10708 70041 333 90710 91134
BBXX AMOUK08 03004 99501 70061 46/// ///// 10123 20113 30097 40104 57019 92350
BBXX 63106 03004 99610 10017 46/// /1931 10072 49704 57085 22200
BBXX 63105 03004 99610 10017 47496 ///// 10084 20059 49704 57083 751// 22200
BBXX 62103 03004 99499 70029 46/98 /2631 10125 20101 40106 56037 22200 00135 10705 70024 333 90710 91146
AAXX 03001 11938 16/// /2401 11005 21010 39109 42782 52001 60001 333 55024
AAXX 03004 71724 17/// /3312 11001 21042 30289 40297 51042 60011 7//4/ 333 10010 21014 70025
AAXX 03004 71724 17/// /3312 11001 21042 30289 40297 51042 60011 7//4/ 333 10010 21014 70025
AAXX 03001 11916 46/// /3106 11004 21024 37950 48456 52001 6///1 333 55068 91015 91120
BBXX 63106 03004 99610 10017 46/// /1931 10072 49704 57085 22200
BBXX 63113 03004 99610 10017 46/// /2037 10081 20060 49712 57081 22200 10812 70060
BBXX 62303 03004 99516 70051 46/// /2524 10122 2//// 40048 57021 22200 00126 10709 70044 333 90710 91132
BBXX 62081 03004 99510 70134 46/// ///// 10122 20111 40110 58001 22200 00121 10812 70060
BBXX 62107 03004 99501 70061 46/// /2630 10118 20105 40101 58022 22200 00125 10907 70035 333 90710 91142
BBXX 62103 03004 99499 70029 46/97 /2632 10124 20102 40096 57034 22200 00136 10705 70027 333 90710 91147
AAXX 03001 10224 12980 22104 10035 20020 30103 40109 58011 60001 82030 333 31/// 55/// 20201 30154 55300 20000 30000 82362
AAXX 03004 42260 31993 09901 10118 20118 40103 74444 333 59039
AAXX 03001 11933 16/// /9901 10027 21007 38649 48466 54000 60001 333 55049
AAXX 03001 15335 03/// /1902 10013 20013 30215 40222 58010 6///1 333 4//// 55055 6///7 91003 91104
AAXX 03014 89262 46/// /9901 11033 21053 39844 49888 52035 90050
AAXX 03014 89065 46/// /0903 11008 21017 39783 49860 52026 90050
AAXX 03014 89257 46/// /1304 11097 21115 39845 49916 52019 90050
AAXX 03014 89266 46/// /1808 11111 21121 39760 49902 52023 90050
AAXX 03014 89272 46/// /0308 11162 21186 38038 49701 52015 90050
AAXX 03004 16008 12560 81706 10028 20028 38533 48492 57002 60001 885// 333 88630
BBXX ZDLS1 03003 99170 30029 41/98 81123 10185 20126 40157 54000 70222 8//// 22233 04185 20502 313// 40806 80152
BBXX 62081 03004 99510 70134 46/// ///// 10126 20115 40110 58001 22200 00122 10812 70060
BBXX 62303 03004 99516 70051 46/// /2522 10122 20115 40044 56022 22200 00128 10708 70041 333 90710 91134
BBXX AMOUK08 03004 99501 70061 46/// ///// 10123 20113 30097 40104 57019 92350
BBXX 63106 03004 99610 10017 46/// /1931 10072 49704 57085 22200
BBXX 63105 03004 99610 10017 47496 ///// 10084 20059 49704 57083 751// 22200
BBXX 62103 03004 99499 70029 46/98 /2631 10125 20101 40106 56037 22200 00135 10705 70024 333 90710 91146
AAXX 03004 89253 46/// /01// 4//// 5////
AAXX 03004 48384 31958 40000 10162 20141 39940 40137 52011 71011 80006 333 20154 59013
BBXX 42360 03001 99267 70905 46/// /0906 10233 90000 22200 00254 10602 70010 333 91209
BBXX 42360 03001 99267 70905 46/// /0906 10233 90000 22200 00254 10602 70010 333 91209
AAXX 03004 91723 NIL
AAXX 03004 91964 NIL
AAXX 03004 43226 32996 00901 10240 20231 30046 40076 333 59022
AAXX 03001 11918 16/// /2505 11003 21007 39352 42782 52004 60001 333 55045
BBXX 63106 03004 99610 10017 46/// /1931 10072 49704 57085 22200
BBXX 63113 03004 99610 10017 46/// /2037 10081 20060 49712 57081 22200 10812 70060
BBXX 62303 03004 99516 70051 46/// /2524 10122 2//// 40048 57021 22200 00126 10709 70044 333 90710 91132
BBXX 62081 03004 99510 70134 46/// ///// 10122 20111 40110 58001 22200 00121 10812 70060
BBXX 62107 03004 99501 70061 46/// /2630 10118 20105 40101 58022 22200 00125 10907 70035 333 90710 91142
BBXX 62103 03004 99499 70029 46/97 /2632 10124 20102 40096 57034 22200 00136 10705 70027 333 90710 91147
BBXX VRDJ7 03004 99405 10270 41997 00105 10110 2011/ 40290 54000 70200 80/// 222// 0//// 2//// 3//// 4//// 5//// 6//// 80110 ICE /////
BBXX 62081 03004 99510 70134 46/// ///// 10126 20115 40110 58001 22200 00122 10812 70060
BBXX 62303 03004 99516 70051 46/// /2522 10122 20115 40044 56022 22200 00128 10708 70041 333 90710 91134
BBXX AMOUK08 03004 99501 70061 46/// ///// 10123 20113 30097 40104 57019 92350
BBXX 63106 03004 99610 10017 46/// /1931 10072 49704 57085 22200
BBXX 63105 03004 99610 10017 47496 ///// 10084 20059 49704 57083 751// 22200
BBXX 62103 03004 99499 70029 46/98 /2631 10125 20101 40106 56037 22200 00135 10705 70024 333 90710 91146
BBXX VRDJ7 03004 99405 10270 41997 00105 10110 2011/ 40290 54000 70200 80/// 222// 0//// 2//// 3//// 4//// 5//// 6//// 80110 ICE /////
AAXX 03004 89514 21497 70907 11083 49834 52007 70372 84580 333 11041 21106 6990/ 82620 87435
AAXX 03004 89514 21497 70907 11083 49834 52007 70372 84580 333 11041 21106 6990/ 82620 87435
AAXX 03001 10870 01359 82702 10060 20055 39653 40190 51013 69991 76362 8262/ 333 31/// 55300 69997 82707 88523
AAXX 03004 89625 46/// /1805 11346 29066 36419 4//// 5//// 90000
BBXX 63106 03004 99610 10017 46/// /1931 10072 49704 57085 22200
BBXX 63113 03004 99610 10017 46/// /2037 10081 20060 49712 57081 22200 10812 70060
BBXX 62303 03004 99516 70051 46/// /2524 10122 2//// 40048 57021 22200 00126 10709 70044 333 90710 91132
BBXX 62081 03004 99510 70134 46/// ///// 10122 20111 40110 58001 22200 00121 10812 70060
BBXX 62107 03004 99501 70061 46/// /2630 10118 20105 40101 58022 22200 00125 10907 70035 333 90710 91142
BBXX 62103 03004 99499 70029 46/97 /2632 10124 20102 40096 57034 22200 00136 10705 70027 333 90710 91147
AAXX 03004 41254 36/// /2708 10120 20042 38037 48042 333 0E008 58016
AAXX 03004 41255 36/// /0600 10169 20080 39603 40162 333 0E023 59010
AAXX 03004 41287 36/// /3011 10228 20109 30085 40153 333 0E025 59006
AAXX 03004 41288 36/// /0714 10256 20219 30106 40130 333 0E026 59006
BBXX 42043 03001 99290 70949 46/// /1107 1//// 40226 90030 22200 00182 333 91208
BBXX 42043 03001 99290 70949 46/// /1006 1//// 40230 90000 22200 00182 333 91208
BBXX 42044 03001 99262 70971 46/// /1307 10223 20183 40191 90030 22200 00218 333 91209
BBXX 42045 03001 99262 70965 46/// /1309 10219 40195 90030 22200 00233 333 91211
BBXX 42045 03001 99262 70965 46/// /1309 10219 40194 90000 22200 00233 333 91211
BBXX 42046 03001 99279 70940 46/// /1208 1//// 40231 90030 22200 00234 333 91211
BBXX 42045 03001 99262 70965 46/// /1309 10219 40195 90030 22200 00233 333 91211
BBXX 42045 03001 99262 70965 46/// /1309 10219 40194 90000 22200 00233 333 91211
BBXX 42044 03001 99262 70971 46/// /1307 10223 20183 40191 90030 22200 00218 333 91209
BBXX 42043 03001 99290 70949 46/// /1006 1//// 40230 90000 22200 00182 333 91208
BBXX 42043 03001 99290 70949 46/// /1107 1//// 40226 90030 22200 00182 333 91208
BBXX 42047 03001 99279 70936 46/// /1209 10207 20130 40233 90030 22200 00236 333 91210
AAXX 03004 67072 33580 20000 10264 20230 30108 40111 56013 81102 333 0//00 81820 924/8 555 82075
AAXX 03004 67113 33475 4//// 10242 20230 30/// 40///5//// 84800 333 0//00 81813 84633
AAXX 03004 41254 36/// /2708 10120 20042 38037 48042 333 0E008 58016
BBXX AMOUK01 03004 99170 30029 46/// ///// 10188 20134 30157 40168 57005 92350
AAXX 03004 67072 33580 20000 10264 20230 30108 40111 56013 81102 333 0//00 81820 924/8 555 82075
AAXX 03004 67113 33475 4//// 10242 20230 30/// 40/// 5//// 84800 333 0//00 81813 84633
AAXX 03004 48350 31910 00000 10155 20150 39824 40134 52011 71000 333 20149 59024
AAXX 03004 48409 31558 50202 10178 20141 39977 40130 71011 82252 333 20170 59006
AAXX 03004 48566 32560 60000 10255 20221 30077 40085 52021 82846 333 20233 59015
AAXX 03004 41258 26/// /2505 10238 20173 30128 40133 333 0E/// 59008 70000
AAXX 03004 41263 36/// /0000 10165 20050 39462 40152 333 0E017 59007
BBXX 42047 03001 99279 70936 46/// /1209 10207 20130 40233 90030 22200 00236 333 91210
BBXX 42046 03001 99279 70940 46/// /1208 1//// 40231 90030 22200 00234 333 91211
AAXX 03004 41258 26/// /2505 10238 20173 30128 40133 333 0E/// 59008 70000
BBXX 62081 03004 99510 70134 46/// ///// 10126 20115 40110 58001 22200 00122 10812 70060
BBXX 62303 03004 99516 70051 46/// /2522 10122 20115 40044 56022 22200 00128 10708 70041 333 90710 91134
BBXX AMOUK08 03004 99501 70061 46/// ///// 10123 20113 30097 40104 57019 92350
BBXX 63106 03004 99610 10017 46/// /1931 10072 49704 57085 22200
BBXX 63105 03004 99610 10017 47496 ///// 10084 20059 49704 57083 751// 22200
BBXX 62103 03004 99499 70029 46/98 /2631 10125 20101 40106 56037 22200 00135 10705 70024 333 90710 91146
BBXX A8VL8 03004 99302 30131 41598 61435 10175 20143 40200 54/// 70222 861// 22233 0//// 20308 31616 40208 50207 6//// 80155
BBXX VRDJ7 03004 99405 10270 41997 00105 10110 2011/ 40290 54000 70200 80/// 222// 0//// 2//// 3//// 4//// 5//// 6//// 80110
AAXX 18124 65557 32958 0//// 10236 20227 39887 40126 333 58000
AAXX 03004 41241 36/// /1504 10195 20105 30107 40145 333 0E023 59015
AAXX 03004 41265 36/// /2704 10190 20163 39598 40149 333 0E026 59002
AAXX 03004 41270 36/70 /3511 10245 20195 30074 40085 333 0E024 58000
AAXX 03004 41252 36/// /3304 10156 20117 39762 40051 333 0E019 59015
AAXX 03001 26531 /1470 62604 10042 20035 39952 40028 52035 72162 86600 333 86712 91007 91112 555 1/004 60041
BBXX ZDLS1 03003 99170 30029 41/98 81123 10185 20126 40157 54000 70222 8//// 22233 04185 20502 313// 40806 80152
AAXX 03004 41259 36/// /3204 10093 21333 37129 40302 333 0E/// 59001
AAXX 03004 41295 36/// /2913 10205 20111 39958 40134 333 0E022 59005
AAXX 03004 41244 36/// /0105 10171 20127 39801 47914 333 0E018 59021
AAXX 03004 41244 36/// /0105 10171 20127 39801 47914 333 0E018 59021
AAXX 03004 41268 36/// /3407 10246 20193 30109 47868 333 0E025 59003
AAXX 03004 41315 36/// /3323 10122 20019 39154 42794 333 0E/// 59012
AAXX 03004 41268 36/// /3407 10246 20193 30109 47868 333 0E025 59003
BBXX AMOUK01 03004 99170 30029 46/// ///// 10188 20134 30157 40168 57005 92350
AAXX 03004 03072 46/// /2742 10005 2//// 92350 333 90710 91172 91053
AAXX 03004 67023 11470 52404 10234 20225 30094 40100 56009 60041 7156/ 84902 333 0//12 84817 81917 94962 95832 555 81640 82073=3.6
BBXX WYR4481 03004 99448 70829 41/98 42014 10003 40304 70300 22243 20201
BBXX WYR4481 03004 99448 70829 41/98 42014 10003 40304 70300 22243 20201
BBXX ZDLS1 03003 99170 30029 41/98 81123 10185 20126 40157 54000 70222 8//// 22233 04185 20502 313// 40806 80152
BBXX S6SR 03004 99411 50832 41696 /2713 10180 20148 40050 56010 7//22 8//// 222// 0//// 2//// 3//// 4//// 5//// 6//// 80160 ICE /////
BBXX S6SR 03004 99411 50832 41696 /2713 10180 20148 40050 56010 7//22 8//// 222// 0//// 2//// 3//// 4//// 5//// 6//// 80160 ICE /////
AAXX 03004 87692 32960 20204 10136 20106 30156 40181 53008 80001 333 10186 20136 82070 555 10180 64157 65210
BBXX AMOUK01 03004 99170 30029 46/// ///// 10188 20134 30157 40168 57005 92350
AAXX 03001 10578 11/01 72506 11024 21024 38754 48448 51003 69991 74174 876// 333 43001 55/// 20485 30202 55300 20000 30000 877//
BBXX ZDLS1 03003 99170 30029 41/98 81123 10185 20126 40157 54000 70222 8//// 22233 04185 20502 313// 40806 80152
AAXX 03001 30844 12599 52701 11188 21194 39286 40331 52014 69932 85500 333 21190 47006 85630
AAXX 03001 37472 42997 62903 10021 21019 30224 40201 56009 83081
BBXX AMOUK01 03004 99170 30029 46/// ///// 10188 20134 30157 40168 57005 92350
AAXX 03004 91691 14/// /1203 10292 20235 30098 40101 55009 60001 333 20256
AAXX 02234 91691 14/// /1202 10286 20239 30101 40104 55008
BBXX ZDLS1 03003 99170 30029 41/98 81123 10185 20126 40157 54000 70222 8//// 22233 04185 20502 313// 40806 80152
BBXX AMOUK01 03004 99170 30029 46/// ///// 10188 20134 30157 40168 57005 92350
BBXX ZDLS1 03003 99170 30029 41/98 81123 10185 20126 40157 54000 70222 8//// 22233 04185 20502 313// 40806 80152
AAXX 03004 67023 11470 52404 10234 20225 30094 40100 56009 60041 7156/ 84902 333 0//12 84817 81917 94962 95832 555 81640 82073
BBXX AMOUK01 03004 99170 30029 46/// ///// 10188 20134 30157 40168 57005 92350
BBXX ZDLS1 03003 99170 30029 41/98 81123 10185 20126 40157 54000 70222 8//// 22233 04185 20502 313// 40806 80152
BBXX AMOUK01 03004 99170 30029 46/// ///// 10188 20134 30157 40168 57005 92350
BBXX ZDLS1 03003 99170 30029 41/98 81123 10185 20126 40157 54000 70222 8//// 22233 04185 20502 313// 40806 80152
AAXX 03004 78388 112570 40608 10264 20198 30147 40156 60001 84800 333 01200 10290 20210 58006 84822
AAXX 03004 DUPE
AAXX 03004 78388 112570 40608 10264 20198 30147 40156 60001 84800 333 01200 10290 20210 58006 84822
AAXX 03004 DUPE
BBXX 63106 03004 99610 10017 46/// /1931 10072 49704 57085 22200
BBXX 63113 03004 99610 10017 46/// /2037 10081 20060 49712 57081 22200 10812 70060
BBXX 62303 03004 99516 70051 46/// /2524 10122 2//// 40048 57021 22200 00126 10709 70044 333 90710 91132
BBXX 62081 03004 99510 70134 46/// ///// 10122 20111 40110 58001 22200 00121 10812 70060
BBXX 62107 03004 99501 70061 46/// /2630 10118 20105 40101 58022 22200 00125 10907 70035 333 90710 91142
BBXX 62103 03004 99499 70029 46/97 /2632 10124 20102 40096 57034 22200 00136 10705 70027 333 90710 91147
BBXX 2AUO5 03003 99606 10017 41/97 73038 10046 20036 49732 54000 76977 8//// 22261 20712 80042
AAXX 03001 31295 32998 30202 11279 21297 39833 40341 53002 83040 333 21291 47007
AAXX 03004 78388 112570 40608 10264 20198 30147 40156 60001 84800 333 01200 10290 20210 58006 84822
AAXX 03004 DUPE DUPE
AAXX 03004 78388 112570 40608 10264 20198 30147 40156 60001 84800 333 01200 10290 20210 58006 84822
AAXX 03004 DUPE DUPE
AAXX 03004 78388 112570 40608 10264 20198 30147 40156 60001 84800 333 01200 10290 20210 58006 84822
AAXX 03004 DUPE DUPE DUPE
AAXX 03004 78388 112570 40608 10264 20198 30147 40156 60001 84800 333 01200 10290 20210 58006 84822
AAXX 03004 DUPE DUPE DUPE
AAXX 03004 48601 11559 63502 10251 20241 30082 40086 69904 70522 81841 333 20241 50360 59008 79999 81820 86078
AAXX 03004 48615 11557 72302 10247 20231 30086 40092 69924 70592 83548 333 20237 50250 59013 70002 83620 87272
AAXX 03004 48620 11030 70501 10232 20229 30080 40089 69924 71022 83632 333 20231 50290 59003 70002 83700 83365 87078
AAXX 03004 48647 11560 70601 10244 20240 30068 40093 60104 71022 81542 333 20240 50220 58000 70100 81627 87078
AAXX 03004 48650 11358 70501 10236 20233 30071 40090 60244 71022 82542 333 20229 50700 58000 70240 81707 83364 87078
AAXX 03004 48657 11058 80000 10237 20233 30077 40095 60004 71022 82537 333 20235 50060 58005 70000 81700 83366 88276
AAXX 03004 48665 11462 70301 10239 20234 30088 40098 60264 71022 82548 333 20235 50340 58003 70264 81712 85364 85277
AAXX 03004 96413 11030 82004 10232 20227 30083 40110 61004 76366 8652/ 333 20226 58027 71000 82701 84620 88465
AAXX 03004 96421 11275 72302 10237 20229 30062 40098 60334 70162 8357/ 333 20231 50150 55013 58014 70330 82706 83616 87365
AAXX 03004 96441 11480 71801 10244 20235 30061 40088 60044 70362 8357/ 333 20235 50240 55013 58009 70040 83616 87365
AAXX 03004 96449 12480 72009 10257 20237 30060 40079 60144 8257/ 333 20246 50250 58004 70138 82614 87365
AAXX 03004 96465 11478 72203 10271 20245 30039 40072 60604 70362 81858 333 20241 50420 55074 59004 70604 81814 85364 87279
AAXX 03004 96471 12474 71103 10274 20241 30070 40073 69924 83848 333 20252 50260 59004 70002 81814 84364 87277
AAXX 03004 96481 11462 73302 10246 20233 30064 40083 60534 72162 8384/ 333 20241 50560 55077 58004 70534 81710 83627 86364
AAXX 03004 96491 11460 72504 10259 20238 30070 40082 61194 70562 82848 333 20237 55095 58003 71188 81816 87277
AAXX 03001 10004 46/60 /2015 10082 20053 30046 40046 58024 222// 00101 333 55300 91122 91217
AAXX 03004 71298 16/// /2004 10025 21012 30097 40335 53013 60001 333 10042 7////
AAXX 03004 71298 16/// /2004 10025 21012 30097 40335 53013 60001 333 10042 7////
AAXX 03004 71931 46/// /3102 11008 21027 30227 40239 52009 6///1 333 10044 21019 7////
AAXX 03004 71931 46/// /3102 11008 21027 30227 40239 52009 6///1 333 10044 21019 7////
AAXX 03004 71415 16/// /2303 10018 21011 30270 40273 53012 60001 333 10042 20017 70000
AAXX 03001 10496 07563 82303 10051 20034 30069 40155 50006 69901 72360 333 55/// 20167 30155 55300 20000 30000 69907 85/25 88/33
AAXX 03001 31478 32999 00000 11326 21355 39153 40388 54000 333 21341 47025
AAXX 03004 71383 46/// ///// 11198 21221 39673 6///1 333 7////
AAXX 03004 71523 46/// ///// 11188 21210 39921 6///1 333 7////
AAXX 03004 71520 46/// /0000 11267 21296 39594 6///1 333 7////
AAXX 03004 71521 46/// ///// 11223 21251 6///1 333 7////
AAXX 03004 71522 46/// /3106 11136 21170 39800 6///1 333 7////
AAXX 03004 71522 46/// /3106 11136 21170 39800 6///1 333 7////
AAXX 03004 71381 46/// /3007 11078 21090 6///1 333 7////
AAXX 03004 71381 46/// /3007 11078 21090 6///1 333 7////
