BBXX PBIG 02064 99100 70783 41598 50420 10266 20206 40120 54000 7//// 8/2// 22264 00290 20405 80226
BBXX ZMFR 02054 99428 31783 43/// /2229 10143 20088 40096 52009 22231 00151
BBXX ZMENA 02054 99413 31733 46/// ///// 10181 20107 40106 52012 22200
BBXX 44172 02061 99445 70634 46/// ///// 1//// 90531 22200 00054 11003 21002 315// 41101 70013
BBXX 44097 02061 99410 70711 46/// ///// 1//// 90532 22200 00108 10603 20603 70016
BBXX 3ETA8 02064 99285 70934 41898 83640 10160 2102/ 40270 52010 7//// 888// 22234 04220 2//// 3//// 4//// 5//// 6//// 80080 ICE /////
AAXX 02064 40255 11650 82504 10086 20069 39456 40179 52004 60052 75022 888XX 333 20080 31008 70054 85830 84630
AAXX 02064 89664 32661 70405 11004 21102 39834 49875 51002 81870 333 56330 81640 85457 87460
BBXX 42362 02061 99278 70907 46/// /0116 10183 20061 40278 90545
BBXX 42363 02061 99282 70892 46/// /0217 10183 20078 40268 90545 333 91217
BBXX 42364 02061 99291 70881 46/// /3618 10161 20061 40264 90545
AAXX 02064 89664 32661 70405 11004 21102 39834 49875 51002 81870 333 56330 81640 85457 87460
BBXX V7MO2 02064 99262 70914 41797 80127 10202 20139 40257 57011 70221 84/// 22200 00230 20604 3//// 40704 5//// 6//// 80163 ICE /////
BBXX WDC8227 02063 99571 71545 41/94 81715 1//// 2//// 49910 5//// 771// 8//// 222// 0//// 2//01 3//// 4//// 5//// 6//// 8//// ICE /////
BBXX WDC9175 02063 99551 71615 41/94 03125 1//// 2//// 40080 5//// 8//// 222// 0//// 2//02 3//// 4//// 5//// 6//// 8//// ICE /////
BBXX WZP8164 02064 99467 70844 43/// /3150 11027 2//// 40020 5//// 7//// 8//// 222// 0//// 2//04 3//// 4//// 5//// 6//// 8//// ICE /////
BBXX WHKM 02064 99164 30925 41198 31513 10260 20232 40120 54000 7//10 82201 22233 0//// 20302 314// 40604 5//// 6//// 80240 ICE /////
AAXX 02064 89664 32661 70405 11004 21102 39834 49875 51002 81870 333 56330 81640 85457 87460
AAXX 02064 40270 11530 82504 10070 20060 39280 40189 52018 69942 76365 888// 333 20066 31005 85825 87630 70004
AAXX 02064 08495 12570 62713 10137 20098 30297 40305 51007 60002 865// 90550 333 20131 30012 70000 83625 86640
BBXX 46249 02061 99338 71197 46/// ///// 1//// 90537 22200 00148 11302 21001 327// 41302 70012
BBXX 46248 02061 99461 71247 46/// ///// 1//// 90534 22200 00095 11004 21004 324// 41102 70022
BBXX 46244 02061 99409 71244 46/// ///// 1//// 90535 22200 00101 11303 21002 328// 41302 70013
BBXX 41115 02061 99184 70673 46/// ///// 1//// 90535 22200 10802 20802 70008
BBXX 41114 02061 99276 70802 46/// ///// 1//// 90546 22200 00233 10901 20901 70004
BBXX 46240 02061 99366 71219 46/// ///// 1//// 90542 22200 00120 11201 21001 335// 41201 70006
BBXX 46237 02061 99378 71226 46/// ///// 1//// 90540 22200 00109 11202 21001 325// 41201 70009
BBXX 46212 02061 99408 71243 46/// ///// 1//// 90542 22200 00105 11302 20802 327// 41301 70011
BBXX 46217 02061 99342 71194 46/// ///// 1//// 90542 22200 00146 11302 21001 326// 41301 70008
BBXX 46218 02061 99345 71208 46/// ///// 1//// 90532 22200 00133 11103 21002 330// 41103 70017
BBXX 46211 02061 99469 71242 46/// ///// 1//// 90536 22200 00082 11004 21003 324// 41102 70018
AAXX 02064 91334 32474 60410 10319 20235 30064 40067 57008 82101 333 561/9 70000 555 90206
AAXX 02064 78705 11560 71905 10225 20213 30152 40170 58012 69941 72994 84930 333 10281 20199 31/// 56600 58007 84925 87358
AAXX 02064 78708 11560 73605 10235 20235 30145 40173 58010 60061 71544 83570 333 10278 20203 30/// 56800 58012 83625 87458
AAXX 02064 78714 32570 60402 10214 20204 84220 333 10278 20202 30/// 56220 84828 84357
AAXX 02064 78717 11330 83608 10176 20173 38982 40168 57010 60054 75154 885// 333 10222 20162 32/// 56899 58002 84706 88620
AAXX 02064 78720 31360 43608 10178 20169 39065 40171 56003 71044 84530 333 10245 20163 30/// 56100 58000 81708 84622
AAXX 02064 78724 32578 60510 10274 20218 30077 40134 54000 82530 333 10346 20242 30/// 56100 58020 82630 85358
AAXX 02064 91334 32474 60410 10319 20235 30064 40067 57008 82101 333 561/9 70000 555 90206
AAXX 02064 89054 31305 83208 10012 20007 49902 50004 74152 885// 333 56799 88606
AAXX 02064 89056 11/02 93504 11013 21015 49892 58005 60001 74544 333 89/01
AAXX 02064 89057 12460 83405 10022 21004 49893 54002 60001 886// 333 56699 88710
AAXX 02064 89058 11/05 93205 11007 21013 39875 49896 57001 69901 74776
AAXX 02064 89059 11850 80603 10000 21014 49893 54000 60001 71022 8802/ 333 76009 88456
AAXX 02064 89251 41130 82906 11005 21009 49888 57002 71022 8672/
BBXX 44098 02061 99428 70702 46/// ///// 1//// 90537 22200 00082 10503 20503 70013
AAXX 02064 16597 12759 52602 10104 20103 30178 40267 53005 69922 85800 333 20090 30005 70002 81815 85650
BBXX 51205 02061 99210 71564 46/// ///// 1//// 90548 22200 00242 11405 21003 334// 41404 70027
BBXX 46114 02061 99364 71222 46/// ///// 1//// 90534 22200 00122 11303 21002 328// 41302 70016
BBXX 46060 02061 99606 71468 46/// /2913 11022 49755 57014 90550 22200 00047 333 91216 555 11139 22146
AAXX 02064 91376 11474 60712 10283 20234 30076 40080 53010 69931 70281 85801 333 562/9 70107 555 90206
BBXX 51203 02061 99208 71570 46/// ///// 1//// 90543 22200 00246 11502 21001 332// 41501 70008
BBXX 52200 02061 99134 11448 46/// ///// 1//// 90545 22200 00287 11103 20602 310// 41101 70014
BBXX 51201 02061 99217 71581 46/// ///// 1//// 90542 22200 00240 11506 21002 334// 41506 70031
BBXX 44039 02061 99411 70727 46/// /2307 10103 20099 40050 90545 22200 00083 10301 70006 333 91209
BBXX 44060 02061 99413 70721 46/// ///07 10100 40040 90545 22200 00093 333 91209 555 11082 22088
BBXX 44022 02061 99409 70737 46/// ///07 10095 20059 40049 90545 22200 00073 333 91211 555 11082 22093
BBXX A8TG2 02063 99254 71213 41698 82806 10170 20115 40200 52010 702// 8477/ 22263 20102 300// 40000 5//// 80140
AAXX 02064 91376 11474 60712 10283 20234 30076 40080 53010 69931 70281 85801 333 562/9 70107 555 90206
AAXX 02061 13579 32970 03402 11064 21081 39435 40325 53004 333 21067 34/// 92000
AAXX 02064 66160 35462 72802 10244 20223 40128 8223/ 333 20242 58004
AAXX 02064 68906 12598 22510 10114 20079 30077 40142 53005 69934 82500 222// 00133 319// 41001 333 20110 91014 555 10184 20003 91014
AAXX 02064 68994 12598 52925 10075 20039 39830 49858 53015 60094 84530 222// 00068 303// 41001 333 20058 91041 555 10106 20090 90985
AAXX 02064 61902 32582 61409 10231 20189 40149 868// 333 20227 58007 81824 86648
BBXX 44025 02061 99402 70732 46/// /2608 10110 20080 40050 56026 90550 22200 00100 10503 20503 70013 333 91210 555 11090 22098 30459 42412 60549 255084 251087 251094 244091 236096 230099
BBXX 41008 02061 99314 70809 46/// /2507 10168 20162 40187 55008 90550 22200 00165 10301 20301 70007 333 91208 555 11074 22080 30516 42510 60549 254070 251070 250074 251075 233080 231083
BBXX 41004 02061 99325 70791 46/// /2312 10203 20158 40160 58018 90550 22200 00209 10604 20604 70018 333 91214 555 11123 22131 30530 42315 60549 232115 232121 233115 231118 233114 233110
AAXX 02064 91413 32469 40709 10310 20234 30063 40088 57017 81171 333 56299 70000 555 90206
AAXX 02064 91772 31498 20000 10291 20247 4//// 60001 70200 82200 333 569// 82818
AAXX 02064 91776 NIL
AAXX 02064 91779 31598 20806 10280 20216 40090 53009 60001 70210 82100 333 562// 82820
AAXX 02064 91784 31498 70808 10277 20246 40092 53006 60001 70211 878// 333 562// 82818 87640
AAXX 02064 91792 31498 41005 10287 20253 40108 53005 60001 70311 842// 333 562// 82818 84640
AAXX 02064 91772 31498 20000 10291 20247 4//// 60001 70200 82200 333 569// 82818
AAXX 02064 91776 NIL
AAXX 02064 91779 31598 20806 10280 20216 40090 53009 60001 70210 82100 333 562// 82820
AAXX 02064 91784 31498 70808 10277 20246 40092 53006 60001 70211 878// 333 562// 82818 87640
AAXX 02064 91792 31498 41005 10287 20253 40108 53005 60001 70311 842// 333 562// 82818 84640
AAXX 02064 08594 11459 70719 10200 20123 40177 69904 70602 8523/ 333 20186 59009 85616 87070
AAXX 02064 08589 NIL
AAXX 02064 08583 32560 70717 10202 20125 40182 85501 333 20196 59024 85624 85070
AAXX 02064 40272 31558 63504 10076 20052 39352 40199 52011 76021 86800 333 20064 30006 83830 85635
AAXX 02064 91413 32469 40709 10310 20234 30063 40088 57017 81171 333 56299 70000 555 90206
AAXX 02064 61901 169// /1310 10166 20156 39667 40176 53007 69942 90550 333 20161 3/016 70004 8//99 555 7/090
AAXX 02064 67297 32580 5//// 10284 20253 40101 85200 333 20255 50040 55056 59003 94320 555 10000
BBXX NWS0022 02064 99416 70714 43/// /2111 10116 20096 40025 5//// 7//// 8//// 222// 04096 2//// 3//// 4//// 5//// 6//// 8//// ICE /////
BBXX WDF7994 02064 99443 70833 41/97 82932 10000 2//// 40146 57005 70202 89/// 22262 00033 20504 3//// 4//// 5//// 6//// 8//// ICE /////
BBXX WDC6698 02064 99213 71579 43/// /1203 1//// 2//// 40170 5//// 7//// 8//// 222// 04238 2//// 3//// 4//// 5//// 6//// 8//// ICE /////
BBXX PINX 02064 99260 70783 41/98 20113 10220 2//// 40200 54000 70200 8//// 22274 00260 2//// 3//// 4//// 5//// 6//// 8//// ICE /////
BBXX PBAD 02061 99140 70607 41298 80816 10250 20228 40135 57010 78182 888// 22272 00280 20402 303// 40601 5//// 80235
BBXX C6DM2 02064 99078 10982 41999 70703 10300 20246 40100 50020 7//11 8629/ 22200 0//// 2//// 3//// 4//// 5//// 6//// 80260 ICE /////
BBXX A8TG2 02063 99254 71213 41698 82806 10170 20115 40200 52010 702// 8477/ 22263 20102 300// 40000 5//// 80140
BBXX C6VF5 02064 99123 10465 41597 31219 10240 2018/ 40160 5//// 70300 83200 22214 00260 2//// 3//// 4//// 5//// 6//// 80200 ICE /////
BBXX WDE8288 02063 99191 10395 41398 23415 10290 2022/ 40145 52012 70200 82400 22274 0//// 20402 317// 40704 5//// 6//// 80240 ICE /////
BBXX C6DM2 02064 99078 10982 41999 70703 10300 20246 40100 50020 7//11 8629/ 22200 0//// 2//// 3//// 4//// 5//// 6//// 80260 ICE /////
BBXX OUJS2 02064 99450 11750 41297 73440 10050 2130/ 40140 51090 70722 8/223 22224 00060 20502 30303 41002 50801 6//// 81020 ICE /////
BBXX DDZB2 02063 99300 11246 41497 73608 10090 20026 40250 54000 70300 8667/ 22253 04150 20201 336// 40804 80040
BBXX HZGN 02063 99061 10900 415// 61308 10290 20235 40125 58013 70322 84260 22264 02280 20000 302// 40201 5//// 80250
BBXX LAJF7 02064 99333 11398 41597 72935 10180 2013/ 40146 55004 70222 87260 22223 00203 21108 3//// 4//// 5//// 6//// 80150 ICE /////
BBXX ONAI 02064 99144 50356 41998 00518 10250 2020/ 40110 56010 70100 80000 22283 00280 2//// 3//// 4//// 5//// 6//// 80215 ICE /////
BBXX DGAF 02063 99096 70867 41998 00616 10270 20257 40110 51010 70200 80000 22274 00280 20301 80260
BBXX WDC8227 02063 99571 71545 41/94 81715 1//// 2//// 49910 5//// 771// 8//// 222// 0//// 2//01 3//// 4//// 5//// 6//// 8//// ICE /////
BBXX WDC9175 02063 99551 71615 41/94 03125 1//// 2//// 40080 5//// 8//// 222// 0//// 2//02 3//// 4//// 5//// 6//// 8//// ICE /////
BBXX 42364 02061 99291 70881 46/// /3618 10161 20061 40264 90545
BBXX 42362 02061 99278 70907 46/// /0116 10183 20061 40278 90545
BBXX 42363 02061 99282 70892 46/// /0217 10183 20078 40268 90545 333 91217
BBXX WZP8164 02064 99467 70844 43/// /3150 11027 2//// 40020 5//// 7//// 8//// 222// 0//// 2//04 3//// 4//// 5//// 6//// 8//// ICE /////
BBXX VRCZ7 02060 99363 70082 41/97 4//// 10164 20104 40314 54000 70200 8//// 22224 2//// 3//// 4//// 5//// 80132
BBXX WDD3825 02064 99446 70219 41498 82622 10150 2008/ 40240 56010 70322 88/// 22224 00150 20604 329// 41209 5//// 6//// 80110 ICE /////
BBXX ZQTP2 02064 99361 70033 41598 32831 10148 20104 40263 53002 70300 81470 22263 00160 2//// 3//// 4//// 5//// 80125
BBXX 41004 02061 99325 70791 46/// /2312 10203 20158 40160 58018 90550 22200 00209 10604 20604 70018 333 91214 555 11123 22131 30530 42315 60549 232115 232121 233115 231118 233114 233110
BBXX 44025 02061 99402 70732 46/// /2608 10110 20080 40050 56026 90550 22200 00100 10503 20503 70013 333 91210 555 11090 22098 30459 42412 60549 255084 251087 251094 244091 236096 230099
BBXX 41008 02061 99314 70809 46/// /2507 10168 20162 40187 55008 90550 22200 00165 10301 20301 70007 333 91208 555 11074 22080 30516 42510 60549 254070 251070 250074 251075 233080 231083
BBXX A8TG2 02063 99254 71213 41698 82806 10170 20115 40200 52010 702// 8477/ 22263 20102 300// 40000 5//// 80140
BBXX 44022 02061 99409 70737 46/// ///07 10095 20059 40049 90545 22200 00073 333 91211 555 11082 22093
BBXX 44060 02061 99413 70721 46/// ///07 10100 40040 90545 22200 00093 333 91209 555 11082 22088
BBXX 44039 02061 99411 70727 46/// /2307 10103 20099 40050 90545 22200 00083 10301 70006 333 91209
BBXX WCX8883 02064 99354 71234 41398 82217 10140 2011/ 40203 50002 7//22 886// 22235 00140 20801 321// 4//// 5//// 6//// 80125 ICE /////
BBXX PBAD 02061 99140 70607 41298 80816 10250 20228 40135 57010 78182 888// 22272 00280 20402 303// 40601 5//// 80235
BBXX PINX 02064 99260 70783 41/98 20113 10220 2//// 40200 54000 70200 8//// 22274 00260 2//// 3//// 4//// 5//// 6//// 8//// ICE /////
BBXX A8UT7 02064 99376 70721 41596 82434 10185 20153 40034 55040 76400 844// 22262 20606 80165
BBXX A8PX5 02064 99348 71378 41597 43022 10160 20144 40180 52040 70100 8/5// 2229/ 04170 20905 325// 41308 5//// 80150
BBXX 46060 02061 99606 71468 46/// /2913 11022 49755 57014 90550 22200 00047 333 91216 555 11139 22146
BBXX 46114 02061 99364 71222 46/// ///// 1//// 90534 22200 00122 11303 21002 328// 41302 70016
BBXX 51205 02061 99210 71564 46/// ///// 1//// 90548 22200 00242 11405 21003 334// 41404 70027
BBXX 44098 02061 99428 70702 46/// ///// 1//// 90537 22200 00082 10503 20503 70013
BBXX LAIG7 02064 99247 71221 414// 80209 10170 2012/ 40230 52030 70222 8862/ 22223 00187 20201 301// 40303 5//// 6//// 80140 ICE /////
BBXX ZCDA9 02063 99281 71309 41798 71511 10185 20177 40214 52013 70222 8707/ 22224 00190 20201 309// 40404 5//// 80180
BBXX WDB9986 02064 99482 71381 41596 72413 10090 2007/ 40010 51010 70222 8672/ 22274 00090 20510 324// 40508 5//// 6//// 80080 ICE /////
BBXX 3FQS8 02064 99539 71540 41396 83427 00/// 11010 2103/ 49982 54000 70322 88653 22264 00040 20705 334// 40604 5//// 6//// 81010 /////
BBXX 46211 02061 99469 71242 46/// ///// 1//// 90536 22200 00082 11004 21003 324// 41102 70018
BBXX 46218 02061 99345 71208 46/// ///// 1//// 90532 22200 00133 11103 21002 330// 41103 70017
BBXX 46212 02061 99408 71243 46/// ///// 1//// 90542 22200 00105 11302 20802 327// 41301 70011
BBXX 46237 02061 99378 71226 46/// ///// 1//// 90540 22200 00109 11202 21001 325// 41201 70009
BBXX 46240 02061 99366 71219 46/// ///// 1//// 90542 22200 00120 11201 21001 335// 41201 70006
BBXX 46217 02061 99342 71194 46/// ///// 1//// 90542 22200 00146 11302 21001 326// 41301 70008
BBXX 41114 02061 99276 70802 46/// ///// 1//// 90546 22200 00233 10901 20901 70004
BBXX 41115 02061 99184 70673 46/// ///// 1//// 90535 22200 10802 20802 70008
BBXX 46249 02061 99338 71197 46/// ///// 1//// 90537 22200 00148 11302 21001 327// 41302 70012
BBXX 46248 02061 99461 71247 46/// ///// 1//// 90534 22200 00095 11004 21004 324// 41102 70022
BBXX 46244 02061 99409 71244 46/// ///// 1//// 90535 22200 00101 11303 21002 328// 41302 70013
BBXX LAGB5 02064 99293 71767 41697 63126 10220 2022/ 40135 52005 70222 86243 22223 ///// 21005 331// 41405 80220
BBXX 42055 02061 99222 70940 46/// /0510 10241 20206 40240 50000 90550 22200 00251 10602 20602 70009 333 91212 555 11102 22108 30543 40412 60549 050095 030086 027086 022089 006092 010100 80111 90454
BBXX 42002 02061 99258 70937 46/// /0213 10210 20144 40278 50000 90550 22200 00246 10705 20404 335// 40703 70023 333 91216 555 11134 22143 30549 40316 60549 022134 027131 022127 026135 027136 026131
BBXX 41047 02061 99275 70715 46/// /1709 10243 40205 58021 90550 22200 00254 10803 20501 335// 40803 70015 333 91210 555 11085 22090 30548 41710 60549 164085 164087 164089 168081 172072 170069 81709 90548
BBXX 42003 02061 99260 70856 46/// /2703 1//// 90550 22200 10501 20301 312// 40501 70004 333 91204 555 11034 22036 30540 42804 60549 275033 285028 318024 304030 300030 302033 82804 90540
BBXX 41043 02061 99211 70650 46/// /1109 10254 20221 40196 58016 90550 22200 00258 11005 20703 300// 41004 70025 333 91210 555 11091 22096 30547 41010 60549 105083 101076 100079 100078 102076 100074 81109 90549
BBXX 41036 02061 99342 70770 46/// ///// 10188 20148 40132 56013 90550 22200 00211 10705 70023
BBXX 44066 02061 99396 70726 46/// /2511 10135 20096 40056 56028 90550 22200 00123 10605 20605 70023 333 91213 555 11117 22126 30526 42416 60549 245109 243116 241127 234120 228109 226113
BBXX 41012 02061 99300 70805 46/// /2509 10204 40196 56010 90550 22200 00228 333 91210 555 11095 22100 30529 42512 60549 247090 249095 252097 248094 249095 251094
BBXX 41001 02061 99347 70727 46/// ///// 10210 20155 40139 56026 90550 22200 00214 10705 70026
BBXX 41049 02061 99275 70630 46/// /1202 10227 20187 40233 56012 90550 22200 00232 11003 20301 300// 41003 70017 333 91203 555 11023 22023 30452 41204 60549 123022 130020 118020 115026 118025 121026 81203 90452
BBXX 42020 02061 99270 70967 46/// /0211 10173 20075 40317 50000 90550 22200 00198 10605 20605 301// 41101 70024 333 91214 555 11121 22128 30526 40114 60549 014114 013115 014115 011116 014113 013118
BBXX 41044 02061 99217 70587 46/// /0908 10252 20202 40207 58016 90550 22200 00258 11105 20503 300// 41104 70027 333 91210 555 11084 22089 30452 40810 60549 091079 086082 082081 088081 086083 086078 80809 90509
BBXX 41048 02061 99320 70696 46/// /2109 10212 20158 40193 56023 90550 22200 00219 10803 20602 3//// 40802 70017 333 91210 555 11087 22092 30534 42111 60549 213087 210088 209086 213086 210089 213086 82110 90535
BBXX 42065 02061 99170 70817 46/// /0408 10264 20228 90550 22200 10904 20703 3//// 40903 70022 333 91209 555 11082 22088 30526 40510 60549 041077 043077 045080 048081 051080 050081 80509 90550
BBXX 42012 02061 99301 70876 46/// /3511 10143 20050 40257 53012 90550 22200 00184 10402 20402 70009 333 91213 555 11116 22122 30521 43614 60549 347110 345105 347106 347109 350114 348120
BBXX 42001 02061 99259 70897 46/// /3106 10232 20200 40246 58015 90550 22200 00241 10601 20501 70003 333 91207 555 11060 22063 30542 43107 60549 308057 301058 295053 292052 285048 283041
BBXX 42035 02061 99292 70944 46/// /0111 10135 20043 40320 53008 90550 22200 00155 10402 20402 70012 333 91213 555 11118 22125 30532 40114 60549 008111 008114 006117 005109 004112 003109
BBXX 42058 02061 99149 70749 46/// /0710 10268 20222 40132 58015 90550 22200 00271 10805 20604 310// 40804 70027 333 91212 555 11106 22113 30450 40812 60549 074098 074088 074095 073091 070091 069092 80811 90547
BBXX 42060 02061 99163 70635 46/// /0711 10268 20211 40158 58020 90550 22200 00273 11004 20704 300// 41002 70022 333 91214 555 11113 22120 30548 40714 60549 073105 073102 071093 071098 071096 062091 80712 90549
BBXX 41060 02061 99148 70510 46/// ///// 1//// 90550 22200 11007 70037
BBXX 42036 02061 99285 70845 46/// /2506 10218 20202 40209 58017 90550 22200 00213 10301 20301 70005 333 91207 555 11061 22066 30524 42607 60549 251056 254054 255058 252055 251050 248049
BBXX 42056 02061 99198 70849 46/// /0509 10262 20243 40194 58008 90550 22200 00269 10804 20804 307// 41101 70018 333 91210 555 11091 22096 30511 40511 60549 048084 045082 045085 047087 045082 042085 80409 90525
BBXX 42059 02061 99151 70675 46/// /0910 10272 20212 40146 58021 90550 22200 00276 10705 20503 3//// 40703 70023 333 91211 555 11104 22110 30451 40912 60549 090097 086090 087091 087090 089082 093100 81011 90454
BBXX 42019 02061 99279 70954 46/// /0212 10173 20070 40306 50000 90550 333 91215 555 11131 22140 30518 42815 60549 007121 283117 283119 284120 284122 285118
BBXX 44005 02061 99432 70691 46/// /1610 10089 20088 40037 58045 90550 22200 00081 10503 20503 70017 333 91213 555 11111 22120 30542 41713 60549 164104 163104 162102 165104 164102 166105
BBXX 42040 02061 99292 70882 46/// /3614 10153 40254 51007 90550 22200 00200 10604 20604 70020 333 91217 555 11142 22150 30503 43518 60549 002141 003131 004139 002137 359145 001140
BBXX 32012 02061 99197 50856 46/// ///// 1//// 90550 22200 11103 70015
BBXX 46002 02061 99426 71305 46/// ///// 10125 40043 58011 90550 22200 00119 11008 70042
BBXX 46006 02061 99408 71375 46/// /2708 10118 40073 51022 90550 22200 00120 11410 20704 3//// 41409 70048 333 91210 555 11088 22093 30547 42710 60549 268082 279074 281074 283076 282077 280082
BBXX 46084 02061 99566 71361 46/// ///// 10067 20056 49823 55004 90550 22200 00066 11209 70046
BBXX 46078 02061 99561 71526 46/// /2810 1//// 90550 555 11103 22110
BBXX 46075 02061 99539 71608 46/// /2907 10013 20005 49988 54000 90550 22200 00036 11007 20603 300// 41007 70037 333 91210 555 11078 22082 30506 42811 60549 288074 285071 286079 287078 284080 270075 82809 90506
BBXX 46005 02061 99461 71310 46/// ///07 10107 40032 51012 90550 22200 00099 11008 20503 3//// 41007 70040 333 91208 555 11076 22083
BBXX 46059 02061 99380 71300 46/// /2211 10132 40108 53014 90550 22200 00140 11007 20706 3//// 41004 70034 333 91213 555 11120 22127 30548 42213 60549 215111 209101 207100 205100 204102 209105
BBXX 46080 02061 99580 71500 46/// /2915 11024 21064 49872 53008 90550 22200 00044 10808 20606 3//// 40805 70039 333 91218 555 11154 22163 30459 42919 60549 290145 286148 286148 289155 289150 290154 82917 90500
BBXX 46105 02061 99590 71522 46/// ///// 1//// 90550 22200 11204 70018
BBXX 46070 02061 99551 11753 46/// /2907 11028 21124 40059 51003 90550 22200 00031 11105 20503 3//// 41104 70024 333 91208 555 11068 22070 30510 42909 60549 289064 273051 290056 288059 292067 291058 82908 90509
BBXX 46078 02061 99561 71526 46/// /2810 1//// 90550 555 11103 22110
BBXX 44009 02061 99385 70747 46/// /2808 10122 40092 55000 90550 22200 00101 10704 20704 70018 333 91210 555 11091 22101 30459 42512 60549 279083 278073 275067 272070 257075 245081
BBXX 44014 02061 99366 70748 46/// /1207 1//// 40102 58010 90550 22200 00144 10703 20602 316// 40702 70016 333 91208 555 11068 22068 30450 41208 60549 118068 119061 117055 113051 111049 110051
BBXX 44027 02061 99443 70673 46/// /1711 10074 20057 40066 56047 90550 22200 00076 10503 20503 3//// 40801 70014 333 91212 555 11115 22122 30454 41614 60549 165109 165109 166110 163112 162112 159111
BBXX 41013 02061 99334 70777 46/// /2512 10192 20156 40146 56012 90550 22200 00182 10704 20704 70022 333 91215 555 11125 22135 30532 42415 60549 249116 247119 242116 239118 237112 233125
BBXX 44065 02061 99404 70737 46/// /2607 10102 20067 40052 56008 90550 22200 00094 10502 20502 313// 40901 70011 333 91209 555 11079 22086 30541 42609 60549 258074 255073 249066 253062 252054 253050 82608 90541
BBXX 44020 02061 99414 70702 46/// /2009 10097 20095 40046 56049 90550 22200 00066 10301 20301 70006 333 91211 555 11092 22098 30532 42614 60549 213088 261103 263092 264092 263088 258092
BBXX 46014 02061 99394 71240 46/// /1603 10120 40188 53003 90550 22200 00110 11202 20401 3//// 41202 70012 333 91203 555 11029 22035 30458 41204 60549 164025 155025 144028 136026 125033 120035
BBXX 46011 02061 99350 71210 46/// /1102 10110 40224 51007 90550 22200 00131 11103 20401 329// 41103 70017 333 91204 555 11025 22025 30515 41005 60549 113026 136022 123027 104026 121028 106029
BBXX 46047 02061 99324 71195 46/// /0101 10107 40227 51016 90550 22200 00135 11304 329// 41304 70021 333 91202 555 11006 22006 30452 43005 60549 020006 048007 338012 304025 309022 299029
BBXX 46086 02061 99325 71180 46/// /3403 10117 40216 51009 90550 22200 00149 11403 328// 41403 70015 333 91205 555 11034 22035 30452 43305 60549 340033 342035 340033 332035 333034 333039
BBXX 46027 02061 99419 71244 46/// /1201 10095 40165 57006 90550 22200 00091 10903 327// 40902 70013 333 91201 555 11010 22012 30451 41003 60549 126007 130001 110006 106005 115009 095015
BBXX 46088 02061 99483 71232 46/// /1409 10094 40156 56024 90550 22200 00077 10502 20502 70010 333 91213 555 11093 22102 30548 41313 60549 135081 140066 139080 138087 134083 131086
BBXX 46050 02061 99442 71246 46/// /1107 10097 40159 56004 90550 22200 00093 10903 20501 325// 40903 70017 333 91208 555 11073 22079 30516 41009 60549 110068 108068 105072 101077 102067 105062
BBXX 46069 02061 99337 71202 46/// /0000 10101 40224 51010 90550 22200 00132 11203 330// 41203 70016 333 91202 555 11004 22004 30537 41602 60549 181004 181013 213006 180000 180000 180000
BBXX 46013 02061 99382 71233 46/// /1206 10127 40201 52010 90550 22200 00113 11202 20401 3//// 41202 70011 333 91208 555 11070 22079 30519 41108 60549 116064 113062 111065 112068 109063 102058
BBXX 46012 02061 99374 71229 46/// /1609 10105 40210 53014 90550 22200 00119 11202 20301 329// 41202 70011 333 91211 555 11092 22097 30548 41611 60549 165087 167086 166078 168070 165072 160064
BBXX 46087 02061 99485 71247 46/// /0908 10090 20055 40154 57011 90550 22200 00079 11003 20301 322// 41003 70017 333 91210 555 11086 22094 30454 40911 60549 092078 089076 094078 099081 100085 094090
BBXX 46029 02061 99461 71245 46/// /1207 10106 20057 40157 57005 90550 22200 00092 11004 20402 325// 41004 70021 333 91208 555 11072 22081 30528 41108 60549 117066 119066 120070 122064 121069 119063
BBXX 46028 02061 99357 71219 46/// /1707 10112 40217 53011 90550 22200 00127 11203 20301 328// 41203 70015 333 91209 555 11071 22074 30545 41809 60549 167067 161064 159062 144061 133063 124062
BBXX 46054 02061 99342 71204 46/// /1901 10098 40223 51007 90550 22200 00129 11103 300// 41103 70016 333 91202 555 11012 22012 30546 41802 60549 192010 150009 136006 179007 185009 175009
BBXX 46025 02061 99337 71191 46/// /2704 10108 20107 40217 52012 90550 22200 00144 11402 326// 41402 70009 333 91205 555 11044 22045 30509 42507 60549 270042 261050 257056 243058 241056 248044
BBXX 46002 02061 99426 71305 46/// ///// 10125 40043 58011 90550 22200 00119 11008 70042
BBXX 46005 02061 99461 71310 46/// ///07 10107 40032 51012 90550 22200 00099 11008 20503 3//// 41007 70040 333 91208 555 11076 22083
BBXX 46006 02061 99408 71375 46/// /2708 10118 40073 51022 90550 22200 00120 11410 20704 3//// 41409 70048 333 91210 555 11088 22093 30547 42710 60549 268082 279074 281074 283076 282077 280082
BBXX 46012 02061 99374 71229 46/// /1609 10105 40210 53014 90550 22200 00119 11202 20301 329// 41202 70011 333 91211 555 11092 22097 30548 41611 60549 165087 167086 166078 168070 165072 160064
BBXX 46013 02061 99382 71233 46/// /1206 10127 40201 52010 90550 22200 00113 11202 20401 3//// 41202 70011 333 91208 555 11070 22079 30519 41108 60549 116064 113062 111065 112068 109063 102058
BBXX 46014 02061 99394 71240 46/// /1603 10120 40188 53003 90550 22200 00110 11202 20401 3//// 41202 70012 333 91203 555 11029 22035 30458 41204 60549 164025 155025 144028 136026 125033 120035
BBXX 46029 02061 99461 71245 46/// /1207 10106 20057 40157 57005 90550 22200 00092 11004 20402 325// 41004 70021 333 91208 555 11072 22081 30528 41108 60549 117066 119066 120070 122064 121069 119063
BBXX 46050 02061 99442 71246 46/// /1107 10097 40159 56004 90550 22200 00093 10903 20501 325// 40903 70017 333 91208 555 11073 22079 30516 41009 60549 110068 108068 105072 101077 102067 105062
BBXX 46054 02061 99342 71204 46/// /1901 10098 40223 51007 90550 22200 00129 11103 300// 41103 70016 333 91202 555 11012 22012 30546 41802 60549 192010 150009 136006 179007 185009 175009
BBXX WCX8883 02064 99354 71234 41398 82217 10140 20110 40203 50002 7//22 886// 22235 00140 20801 321// 4//// 5//// 6//// 80125 ICE /////
AAXX 02064 96315 32470 70112 10298 20249 40097 83968 333 83816 81917 85080
AAXX 02064 96323 NIL
AAXX 02064 85418 12970 02105 10201 20161 40132 57020 60001
AAXX 02064 85442 12970 09902 10185 20152 40130 57019 60001
AAXX 02064 85469 42460 70000 10215 20189 40183 52007 86811 333 56300 83817 83640
AAXX 02064 85488 12460 40000 10151 20135 40141 54000 60001 84500 333 56600 84512
BBXX BAREU08 02064 99375 70294 46/// ///// 40305 57021 22254
AAXX 02061 33815 32598 52404 11027 21052 30002 40218 57003 82530 333 21035 555 80014
BBXX DBBT 02061 99339 30184 46/// /3103 10156 20156 40139 52004 22220 00136
BBXX DBFR 02061 99535 10086 46/// /2204 10083 20083 40010 52008 22270 00057
AAXX 02061 76342 31840 60701 10130 20025 39649 40369 52002 70310 86050 90544 333 10204 20110 30/// 55091 20478 56030 58/// 86358
AAXX 02061 76382 32460 40202 10144 20070 39020 40259 52016 81130 90554 333 10252 20076 30/// 55063 2//// 56550 58085 81810 83356
AAXX 02061 76390 31450 81403 10045 20001 38344 40311 52001 70544 887// 90530 333 10144 20035 30/// 55084 21430 568// 58075 88713
AAXX 02061 76458 32960 03002 10186 20151 30150 40155 52002 90540 333 10255 20112 30/// 55090 59002
AAXX 02061 76525 32250 80809 10075 20061 37536 40208 52004 88500 90540 333 10165 20074 30/// 55094 22532 562// 58034 88706
AAXX 02061 76548 32460 63606 10182 20091 30298 40308 52018 8543/ 90545 333 10272 20178 30/// 55027 56150 58102 85611
AAXX 02061 76556 32960 00000 10182 20141 39148 40146 52011 90530 333 10298 20130 30/// 55091 58017
AAXX 02061 76577 32560 23606 10127 20103 38101 40197 52006 82600 90540 333 10230 20110 30/// 55047 56100 58034 82623
AAXX 02061 76593 32950 00506 10240 20229 30227 40229 52001 90550 333 10292 20210 30/// 55093 21240 58/// 91009 91505
AAXX 02061 76644 32950 00502 10228 20208 30219 40235 52007 90550 333 10325 20208 30/// 55082 21005 58034
AAXX 02061 76685 32950 00000 10106 20056 37928 40178 52018 90550 333 10222 20060 30/// 55076 58033
AAXX 02061 76750 01558 70202 10227 20221 30197 40207 52001 60021 75051 84230 90545 333 10318 20204 32/// 55045 56110 58024 69917 84820 83357
AAXX 02061 76845 32330 60401 10114 20098 37991 40205 50001 86700 90545 333 10194 20108 30/// 55079 56200 58021 86707
AAXX 02061 76311 32955 00000 10150 20081 39892 40162 51014 90550 333 10372 20086 30/// 55085 58012
BBXX DBKV 02061 99207 70217 46/// /0615 10193 20119 40214 57009 22211 00204
BBXX DBBU 02061 99542 10120 46/// /2611 10085 20083 49998 52018 22240 00061
AAXX 02064 85874 32984 /3212 10100 20038 39574 40199 58008
AAXX 02064 85934 12480 73015 10097 20041 40080 58008 60001 83530 333 56660 83619 86357
AAXX 02064 89056 11/02 93504 11013 21015 49892 58005 60001 74544 333 89/01
AAXX 02064 89057 12460 83405 10022 21004 49893 54002 60001 886// 333 56699 88710
AAXX 02064 89058 11/05 93205 11007 21013 39875 49896 57001 69901 74776
AAXX 02064 89059 11850 80603 10000 21014 49893 54000 60001 71022 8802/ 333 76009 88456
AAXX 02064 89251 41130 82906 11005 21009 49888 57002 71022 8672/
AAXX 02064 85574 12960 01804 10190 20119 39575 40119 54000 60001
AAXX 02064 85577 12960 00000 10187 20125 39525 40125 54000 60001
AAXX 02064 85585 339// 91819 10177 20135 30152 40188 57004
AAXX 02064 85682 12960 02206 10151 20121 40114 58006 60001
AAXX 02064 85743 12960 09902 10114 20097 40166 58013 60001
AAXX 02064 85799 12960 00000 10091 20082 40206 57011 6000
AAXX 02061 76342 31840 60701 10130 20025 39649 40369 52002 70310 8605090544 333 10204 20110 30/// 55091 20478 56030 58/// 86358
AAXX 02061 76382 32460 40202 10144 20070 39020 40259 52016 81130 90554333 10252 20076 30/// 55063 2//// 56550 58085 81810 83356
AAXX 02061 76390 31450 81403 10045 20001 38344 40311 52001 70544 887//90530 333 10144 20035 30/// 55084 21430 568// 58075 88713
AAXX 02061 76458 32960 03002 10186 20151 30150 40155 52002 90540 33310255 20112 30/// 55090 59002
AAXX 02061 76525 32250 80809 10075 20061 37536 40208 52004 88500 90540333 10165 20074 30/// 55094 22532 562// 58034 88706
AAXX 02061 76548 32460 63606 10182 20091 30298 40308 52018 8543/ 90545333 10272 20178 30/// 55027 56150 58102 85611
AAXX 02061 76556 32960 00000 10182 20141 39148 40146 52011 90530 33310298 20130 30/// 55091 58017
AAXX 02061 76577 32560 23606 10127 20103 38101 40197 52006 82600 90540333 10230 20110 30/// 55047 56100 58034 82623
AAXX 02061 76593 32950 00506 10240 20229 30227 40229 52001 90550 33310292 20210 30/// 55093 21240 58/// 91009 91505
AAXX 02061 76644 32950 00502 10228 20208 30219 40235 52007 90550 33310325 20208 30/// 55082 21005 58034
AAXX 02061 76685 32950 00000 10106 20056 37928 40178 52018 90550 33310222 20060 30/// 55076 58033
AAXX 02061 76750 01558 70202 10227 20221 30197 40207 52001 60021 7505184230 90545 333 10318 20204 32/// 55045 56110 58024 6991784820 83357
AAXX 02061 76845 32330 60401 10114 20098 37991 40205 50001 86700 90545333 10194 20108 30/// 55079 56200 58021 86707
AAXX 02061 76311 32955 00000 10150 20081 39892 40162 51014 90550 33310372 20086 30/// 55085 58012
AAXX 02064 78073 12965 00000 10210 20168 40209 60001 80000 333 58001
AAXX 02064 81405 04/18 90000 10227 20224 30100 40109 60001 710// 333 3/021 55024 60007 59005 70051 555 60005
BBXX BATFR32 02064 99432 10053 46/// /1720 10135 20110 40175 58035 7//// 8//// 22273 00144
BBXX FVNM 02064 99151 70826 46/// /0619 10274 20224 40156 58013 22200 00275
BBXX BAREU00 02064 99514 70070 46/// ///// 40038 52027 22253
BBXX BAREU11 02064 99527 10032 46/// ///// 40027 52020 22253
AAXX 02064 78073 12965 00000 10210 20168 40209 60001 80000 333 58001
AAXX 02064 78925 14581 /0509 10252 20211 40145 58022 69901 700// 333 10287 20236 55062 21666 59015 70044
AAXX 02064 78397 111570 13003 10250 20208 30147 40163 60001 70500 81801 333 00909 10326 20232 59001 81824
BBXX VOXS 02064 99467 70480 41397 83632 10029 2002/ 49971 52037 71022 885// 22200 04016 20402 320// 40807 80026
AAXX 02064 91643 11498 82705 10260 20246 40091 52024 60121 78386 8432/ 333 5669/ 84918 88460
AAXX 02064 91636 11498 60710 10280 20252 40077 60001 71422 8336/ 333 5629/
AAXX 02064 91648 11498 72804 10277 20264 40061 69911 78022 8337/ 333 5669/
AAXX 02064 91631 11599 70810 10284 20237 4//// 60001 70301 82230 333 5629/
AAXX 02064 78925 14581 /0509 10252 20211 40145 58022 69901 700// 333 10287 20236 55062 21666 59015 70044
AAXX 02064 78397 111570 13003 10250 20208 30147 40163 60001 70500 81801 333 00909 10326 20232 59001 81824
BBXX VOXS 02064 99467 70480 41397 83632 10029 2002/ 49971 52037 71022 885// 22200 04016 20402 320// 40807 80026
AAXX 02061 01001 NIL
AAXX 02061 01008 NIL
AAXX 02061 01010 11487 71511 10024 21054 39919 49935 50000 69902 70287 8687/ 333 20013 79999 91119
AAXX 02061 01026 NIL
AAXX 02061 01055 NIL
AAXX 02061 01062 NIL
AAXX 02061 01098 NIL
AAXX 02061 01115 11470 81315 10035 21022 39870 49891 58006 60002 70222 887// 333 20018 70008 91120
AAXX 02061 01152 NIL
AAXX 02061 01205 NIL
AAXX 02061 01212 NIL
AAXX 02061 01271 16/// /0701 10000 21039 39851 49872 58010 60002 333 21015 43003 70012 91105
AAXX 02061 01288 11665 50000 11083 21091 39158 49920 57009 60012 70172 84831 333 21116 47032 70045 91103
AAXX 02061 01300 NIL
AAXX 02061 01317 NIL
AAXX 02061 01367 NIL
AAXX 02061 01384 11113 83001 10007 20007 39660 49907 57016 60022 76662 887// 333 21002 91102
AAXX 02061 01403 11560 82209 10052 20027 39807 49875 57005 60022 76162 8572/ 333 20047 70024 91117
AAXX 02061 01415 16/// /2205 10058 20028 39879 49890 58005 6//// 333 20039 91110
AAXX 02061 01482 46/// /3503 10033 20020 39897 49904 55004 333 20032 91111
AAXX 02061 01492 NIL
AAXX 02061 01003 NIL
AAXX 02061 01007 16/// /1110 10005 21039 39967 49976 52012 60002 333 21008 70000 91116
AAXX 02061 01028 NIL
AAXX 02061 01047 NIL
AAXX 02061 01049 NIL
AAXX 02061 01078 NIL
AAXX 02061 01102 46/// /1511 10025 21015 39853 49872 57013 333 20023 91116
AAXX 02061 01160 NIL
AAXX 02061 01218 NIL
AAXX 02061 01238 41482 23602 11066 21077 38761 49880 56008 77870 82600 333 21069 44015 91104
AAXX 02061 01241 NIL
AAXX 02061 01281 NIL
AAXX 02061 01338 16/// /0802 10022 20012 39812 49878 56008 60042 333 20016 70162 91107
AAXX 02061 01359 NIL
AAXX 02061 01397 NIL
AAXX 02061 01400 NIL
AAXX 02061 01427 16/// /2308 10074 20049 39894 49910 54000 60022 333 20068 70019 91111
AAXX 02061 01447 NIL
AAXX 02061 01448 46/// /2904 10048 20038 39906 49916 55001 333 20033 91110
AAXX 02064 78897 14975 72602 10234 20213 40159 58021 69921 700// 333 10287 20223 59016 70105
AAXX 02064 78897 14975 72602 10234 20213 40159 58021 69921 700// 333 10287 20223 59016 70105
AAXX 02064 85201 11158 89902 10050 20036 36306 56007 60121 76086 8472/ 333 56000 58010 81703 83612 88457
AAXX 02064 85223 11565 80000 10142 20127 37525 47157 50000 60031 76062 85372 333 56000 58000 84625 81927 86357 87070 96013
AAXX 02064 85244 11470 72408 10240 20233 39664 40092 56013 60011 72582 85930 333 56770 58002 84617 81927 85357
AAXX 02064 97180 01457 73110 10292 20266 30072 40090 56022 69901 76062 83271 333 56000 69907 83819 83459
AAXX 02061 12772 31440 81201 10003 21003 39928 40222 58003 71022 886// 333 21008 4/000 55000 88713
AAXX 02061 12822 36/// /1002 11003 21004 30039 40187 56012 333 21013 70007
AAXX 02061 12843 31950 70902 10002 21011 30031 40207 57008 71011 85072 333 20002 4/000 55000
AAXX 02061 12882 31965 81704 10029 21007 30092 40228 54000 70222 8807/ 333 20018 4/000 55022
AAXX 02061 12925 36/// /1803 10016 21008 30017 40193 57013 333 21020
AAXX 02061 12942 31981 71401 11004 21023 39962 40216 56008 70211 80008 333 21010 4/000 55034
AAXX 02061 12982 31950 11403 11006 21023 30115 40220 57007 71011 81042 333 21007 4/000 55004
AAXX 02061 10004 NIL
AAXX 02061 10015 01462 72407 10074 20065 39991 40001 51012 60072 70262 876// 222// 02063 333 10086 20072 32007 55005 55300 20000 30000 69907 70073 87710
AAXX 02061 10020 17964 02406 10066 20065 39950 49982 52013 60032 70065 333 10084 20064 3/005 55004 55300 20000 30000 70033 91113
AAXX 02061 10035 01265 82305 10074 20068 39935 49993 52012 60092 70262 877// 333 10099 20074 32007 55000 55300 20000 30000 41239 69907 70114 87706
AAXX 02061 10055 11480 82507 10067 20059 39985 49995 51020 60082 70362 875// 333 10112 20067 32006 55000 55300 20000 30000 70090 84616 87633 91113
AAXX 02061 10147 01375 82503 10088 20078 39996 40014 53016 60072 70262 876// 333 10125 20087 31008 55000 55300 20000 30000 41217 69997 70082 82708 87711 91114 91211
AAXX 02061 10162 01482 82607 10089 20076 39929 40010 53020 60032 70365 878// 333 10115 20089 31008 55000 55300 20000 30000 69937 70059 84810 87627 91114
AAXX 02061 10184 01588 82604 10103 20085 39990 49998 53015 60012 72062 875// 333 10122 20086 31007 55000 55300 20000 30000 69917 70059 87632 91114
AAXX 02061 10200 07380 72504 10079 20071 30018 40016 53011 60302 70065 333 10117 20079 3/007 55000 55300 20000 30000 69987 70313 85/09 87/62
AAXX 02061 10224 11480 82304 10089 20078 30014 40020 51010 60062 70262 875// 333 10125 20088 33008 55000 55300 20000 30000 70063 81710 87645 91113
AAXX 02061 10270 06560 82405 10120 20098 39970 40024 53003 60012 222// 06050 333 10124 20081 3/007 55000 55300 69907 70033 84/21 87/56 88/59 91113
AAXX 02061 10338 01475 82602 10094 20084 39960 40031 51011 60022 72162 875// 333 10141 20094 31009 55000 55300 20000 30000 69977 70027 83612 87640 91116
AAXX 02061 10361 01786 82604 10112 20082 39937 40038 53007 60012 72162 885// 333 10137 20106 31009 55000 55300 20000 30000 60017 70023 88650
AAXX 02061 10393 01784 72106 10120 20087 39915 40038 56012 69922 70362 8357/ 333 10121 20095 31009 55000 55300 20000 30000 69907 70013 83650 85359 87462
AAXX 02061 10400 01456 82206 10093 20082 30000 40049 55002 60042 76365 8352/ 333 10146 20092 32009 55000 55300 20000 30000 69977 70063 83612 87522 91117 91212
AAXX 02061 10438 07456 81501 10096 20088 39774 40049 53002 60022 76265 333 10118 20096 3/009 55001 55300 60027 70024 86/15 87/22 88/49 91113
AAXX 02061 10469 12686 72108 10123 20084 39886 40047 56008 60002 8457/ 333 10126 20101 31009 55000 55300 70018 84636 87358 91113
AAXX 02061 10488 12684 82007 10119 20074 39792 40067 56012 60002 8252/ 333 10122 20079 31006 55000 55300 20000 30000 41213 70005 82634 88463 91114
AAXX 02061 10506 01272 82303 10070 20060 39484 40060 56009 60042 76165 8172/ 333 10108 20070 31007 55000 55300 20000 30000 60037 70050 81706 88525 91118
AAXX 02061 10548 01214 81805 10088 20081 39538 40070 57011 60022 75152 877// 333 10098 20088 31008 55000 55300 20000 30000 69927 70022 87706
AAXX 02061 10637 01582 72207 10123 20088 39933 40067 56013 69902 76022 878// 333 10130 20118 31011 55000 55300 69907 79999 81823 83635 87656 91113
AAXX 02061 10685 12582 82005 10084 20069 39417 40080 56015 69942 875// 333 10091 20082 31008 55000 55300 20000 30000 70017 87626
AAXX 02061 10738 12587 82004 10115 20064 39640 40100 56016 60002 8657/ 333 10118 20095 31006 55001 55300 70001 82630 85640 87463
AAXX 02061 10763 12775 81604 10082 20066 39723 40102 56015 60002 8257/ 333 10099 20078 31007 55000 55300 20000 30000 79999 81650 87361
AAXX 02061 10788 17937 00903 10025 20025 39704 40143 56014 60002 71030 333 10051 20020 3/000 55000 55300 20000 30000 70012
AAXX 02061 10852 12986 81604 10063 20047 39560 40128 56016 60002 8807/ 333 10089 20050 31002 55004 55300 20000 30000 79999 88362
AAXX 02061 10946 15988 51403 10035 20020 39308 40145 56017 60002 333 10060 20026 3/000 55008 55300 20000 30000 70004 84/65 85/67
AAXX 02064 78862 11476 50715 10256 20209 30141 40164 69911 70581 85200 333 10281 20241 59016 79911 85816
AAXX 02064 TAF TKPN 011000Z 0112/0212 07014KT 9999 SCT022 PROB40 TEMPO 0112/0212 07014G24KT SHRA BKN015 BKN038
AAXX 02064 TAF TQPF 011000Z 0112/0212 07014KT 9999 SCT022 PROB40 TEMPO 0112/0212 07014G24KT SHRA BKN015 BKN038
AAXX 02064 TAF TUPJ 011000Z 0112/0212 07014KT 9999 SCT022 PROB40 TEMPO 0112/0212 07014G24KT SHRA BKN015 BKN038
AAXX 02064 2400/2424 07016KT 9999 SCT020 SCT040 PROB40 TEMPO 2400/2412 07018G28KT SHRA TEMPO 2412/2424 07016G26KT SHRA
AAXX 02064 TAF TUPJ 041000Z 04012/0512 07008KT 9999 SCT016 BKN038 SCT270 TEMPO 0412/0512 SHRA BKN015 PROB40 TEMPO 0418/0512 5000 SHRA BKN014 BKN036 PROB30 0420/0512 4000 TSRA FEW012CB
AAXX 02064 918 4000 TSRA FEW012CB
AAXX 02064 N015 BKN036 PROB40 TEMPO 0704/0724 3000 +TSRA SCT011CB BKN012 BECMG 0712/0714 14008KT
AAXX 02064 21/2712 07017G28KT 5000 SHRA BKN015 BKN036 PROB TEMPO 2700/2712 4000 TSRA FEW013CB
AAXX 02064 PROB30 TEMPO 0800/0806 4000 TSRA FEW012CB PROB40 TEMPO 0800/0824 2000 +SHRA/TSRA SCT010CB BKN012 BKN250
AAXX 02064 78862 11476 50715 10256 20209 30141 40164 69911 70581 85200 333 10281 20241 59016 79911 85816
AAXX 02064 TAF TKPN 011000Z 0112/0212 07014KT 9999 SCT022 PROB40 TEMPO 0112/0212 07014G24KT SHRA BKN015 BKN038
AAXX 02064 TAF TQPF 011000Z 0112/0212 07014KT 9999 SCT022 PROB40 TEMPO 0112/0212 07014G24KT SHRA BKN015 BKN038
AAXX 02064 TAF TUPJ 011000Z 0112/0212 07014KT 9999 SCT022 PROB40 TEMPO 0112/0212 07014G24KT SHRA BKN015 BKN038
AAXX 02064 2400/2424 07016KT 9999 SCT020 SCT040 PROB40 TEMPO 2400/2412 07018G28KT SHRA TEMPO 2412/2424 07016G26KT SHRA
AAXX 02064 TAF TUPJ 041000Z 04012/0512 07008KT 9999 SCT016 BKN038 SCT270 TEMPO 0412/0512 SHRA BKN015 PROB40 TEMPO 0418/0512 5000 SHRA BKN014 BKN036 PROB30 0420/0512 4000 TSRA FEW012CB
AAXX 02064 918 4000 TSRA FEW012CB
AAXX 02064 N015 BKN036 PROB40 TEMPO 0704/0724 3000 +TSRA SCT011CB BKN012 BECMG 0712/0714 14008KT
AAXX 02064 21/2712 07017G28KT 5000 SHRA BKN015 BKN036 PROB TEMPO 2700/2712 4000 TSRA FEW013CB
AAXX 02064 PROB30 TEMPO 0800/0806 4000 TSRA FEW012CB PROB40 TEMPO 0800/0824 2000 +SHRA/TSRA SCT010CB BKN012 BKN250
BBXX PHQX 02063 99132 70691 41498 40911 10265 20215 40150 56010 70211 83162 22254 20603 309// 40904 5//// 80230
BBXX PCEO 02063 99209 70551 41498 20904 10240 20202 40204 57014 7//// 82100 22254 04256 20802 309// 40904 5//// 80214
AAXX 02061 13586 32960 00701 11075 21088 39999 40312 52006 333 21078 33///
AAXX 02061 10007 NIL
AAXX 02061 10044 NIL
AAXX 02061 10046 11362 82406 10079 20066 39960 49998 53013 60122 70262 876// 333 10103 20075 31007 55000 70140 87708 91114
AAXX 02061 10091 01583 82511 10075 20068 39934 49984 53022 60042 70265 8657/ 222// 06053 333 10106 20066 31006 55000 55300 20000 30000 69907 70069 86625 87466 91119 91215 96445
AAXX 02061 10113 01968 82405 10072 20067 39989 40008 51008 60142 70262 80002 222// 06060 333 10100 20072 32006 55011 55300 20000 30000 60017 70156 88070
AAXX 02061 10124 NIL
AAXX 02061 10131 01466 82405 10081 20071 39991 40006 51008 60292 72165 875// 222// 02055 333 10119 20078 31007 55004 55300 20000 30000 69957 70303 82710 87619
AAXX 02061 10170 01482 82606 10093 20078 39985 40001 51023 60022 70262 875// 333 10122 20082 32008 55000 55300 20000 30000 69987 70066 87616 91114
AAXX 02061 10264 01482 72504 10093 20085 39906 40011 51020 60032 72162 875// 333 10119 20093 31009 55000 55300 20000 30000 60027 70058 87610
AAXX 02061 10291 01688 72007 10119 20092 39951 40017 56011 60022 70362 875// 333 10119 20091 31008 55000 55300 20000 30000 69907 70032 87646
AAXX 02061 10315 01358 82203 10093 20086 39972 40035 52002 60062 76362 875// 333 10136 20093 32009 55000 55300 20000 30000 60027 70071 81709 83614 86620 91114
AAXX 02061 10379 01582 82207 10118 20093 39907 40025 55009 69982 76062 875// 333 10121 20093 31008 55000 55300 20000 30000 41247 69907 70020 83633 87650 91115
AAXX 02061 10382 01475 82207 10124 20091 39984 40028 55007 69982 75862 875// 333 10127 20102 31009 55000 55300 20000 30000 69907 70018 82710 87630
AAXX 02061 10384 16/// /2005 10125 20093 39968 40026 56011 69962 333 10126 20100 3/009 55000 55300 20000 30000 70018
AAXX 02061 10427 01/03 92608 10041 20041 39055 48370 55002 60112 76386 333 10073 20041 3/004 42012 55000 55300 20000 30000 60077 70174 91123 91215 96041 96481 96463 96441
AAXX 02061 10430 01357 82204 10087 20079 39855 40044 51001 60052 76165 885// 333 10139 20087 31008 55000 55300 20000 30000 60027 70101 85708 87630 91115
AAXX 02061 10439 11660 82303 10094 20078 39838 40055 5/001 60012 7616/ 875// 333 10123 20093 31009 70014 87647
AAXX 02061 10453 11/90 92615 10029 20029 38716 48355 51037 60092 76154 333 10055 20029 3/002 49093 55000 55300 70145 91139 91218 90311 91231 96045 96451
AAXX 02061 10496 01375 82104 10108 20089 39972 40055 56011 69942 76162 877// 333 10113 20093 31008 55000 55300 20000 30000 69937 70014 87708
AAXX 02061 10499 12981 81909 10091 20069 39790 40076 56013 69912 8807/ 333 10096 20057 31005 55000 55300 20000 30000 70008 88462 91115
AAXX 02061 10505 01256 82506 10078 20067 39778 40056 55004 60072 76366 887// 333 10130 20077 32007 55000 55300 20000 30000 60037 70080 81705 88707 91120 91214
AAXX 02061 10513 01465 81802 10086 20086 39942 40062 56006 60062 76362 8682/ 333 10142 20086 31008 55000 55300 20000 30000 60037 70074 81817 86634 88542 91114 96463
AAXX 02061 10532 07456 72502 10088 20088 39813 40058 55004 60042 76265 333 10127 20088 3/008 55000 55300 20000 30000 60047 70052 87/10 87/26 87/32 91115
AAXX 02061 10544 01/01 92214 10063 20063 38996 48389 56011 60022 75964 333 10072 20063 3/006 42004 55000 55300 69987 70057 91125 91218 90328 91218 96041
AAXX 02061 10554 12582 62408 10112 20080 39670 40048 56011 60002 86500 333 10119 20100 31009 55000 55300 20000 30000 70001 84623 83633 91114 91211
AAXX 02061 10567 12588 82109 10109 20079 39694 40061 56014 60002 875// 333 10115 20091 31008 55000 55300 20000 30000 70001 87623 91114
AAXX 02061 10578 11/01 92418 10036 20036 38699 48402 56013 69962 74344 333 10044 20035 3/003 44060 55000 55300 20000 30000 70036 91125 91219
AAXX 02061 10609 01358 82404 10086 20078 39743 40069 56009 60082 76362 8272/ 333 10125 20086 31008 55000 55300 20000 30000 60077 70084 82707 88525 91118 91212
AAXX 02061 10616 01156 82803 10075 20069 39475 40067 55009 60082 76362 887// 333 10105 20073 32007 55000 55300 60077 70087 82702 87704 91116 96265 96459
AAXX 02061 10641 07588 82005 10125 20087 39923 40066 56012 69902 75165 333 10132 20123 3/011 55002 55300 69907 70001 87/27 87/33 88/46
AAXX 02061 10655 01482 82206 10109 20091 39764 40086 56009 69902 72162 878// 333 10116 20102 31009 55000 55300 20000 30000 69907 79999 82816 87624
AAXX 02061 10675 15588 71604 10098 20071 39806 40093 56014 60002 333 10105 20086 3/008 55000 55300 20000 30000 70004 85/26 85/45 87/56
AAXX 02061 10688 15861 41605 10066 20058 39589 40109 56017 69902 333 10088 20066 3/006 55000 55300 20000 30000 70017 84/56
AAXX 02061 10708 01259 82008 10096 20087 39703 40082 56016 60022 76362 885// 333 10115 20096 32009 55000 55300 20000 30000 60027 70044 85706 88611 91115
AAXX 02061 10729 07688 71806 10121 20090 39973 40092 56013 69902 70050 333 10127 20117 3/011 55000 55300 20000 30000 69907 79999 87/36 87/42 87/49
AAXX 02061 10731 01477 82207 10115 20094 39950 40091 56009 69902 72162 885// 333 10135 20114 31011 55000 55300 20000 30000 69907 70001 85617 88640
AAXX 02061 10742 07588 82405 10124 20077 39769 40093 56013 69902 75165 333 10127 20113 3/009 55000 55300 20000 30000 69907 70003 87/31 88/37
AAXX 02061 10776 11158 81504 10038 20038 39681 40129 56016 60002 70242 8267/ 333 10062 20038 31003 55000 55300 20000 30000 70003 82702 83362 87468
AAXX 02061 10791 01/90 92210 10020 20020 38493 48439 56008 69962 74544 333 10031 20019 49113 55000 55300 69907 70135 91118 91213
AAXX 02061 10805 12689 82005 10121 20081 39917 40104 56014 60002 8757/ 333 10132 20119 31010 55000 55300 20000 30000 79999 87646
AAXX 02061 10815 01459 82405 10072 20066 39176 48427 56012 69952 76362 875// 333 10081 20072 31007 4/998 55000 55300 20000 30000 69957 70031 87613
AAXX 02061 10836 12588 62005 10062 20056 39252 40115 56015 60002 83571 333 10085 20059 31005 55000 55300 20000 30000 79999 83630 85362
AAXX 02061 10870 12986 72401 10061 20034 39599 40133 56018 60002 8707/ 333 10098 20033 31002 55009 55300 79999 83364 86466
AAXX 02061 10895 11901 70402 10012 20008 39572 40153 56015 60002 74622 80008 333 10080 20012 31000 55000 55300 20000 30000 70023 87269
AAXX 02061 10908 01182 82317 10027 20027 38432 48431 56013 60042 76064 885// 333 10039 20025 3/002 42063 55000 55300 20000 30000 69907 70130 88603 91128 90255 91218 90313 91222 96245
AAXX 02061 10929 NIL
AAXX 02061 10948 11980 51901 11007 21007 39200 48435 56018 60002 74041 80001 333 10022 21020 3/104 43028 55002 55300 20000 30000 70020 85073
AAXX 02061 10961 12589 71812 11040 21087 37054 47021 56016 60002 84042 333 11025 21059 49260 55007 55300 20000 40980 70012 84333 85070 91123 90253 91218 90351 91218
AAXX 02061 10962 12989 72104 10067 20019 38996 48449 56016 60002 8707/ 333 10084 20047 31003 4/998 55018 55300 20000 30000 70006 84363 87465
AAXX 02061 10980 12989 71808 10033 21011 38117 48459 56016 60002 80001 333 10039 20021 3/001 44070 55000 55300 20000 30000 70017 87070
BBXX BATFR31 02064 99419 10087 46/// /0509 10132 20124 40224 53005 22213 00154
BBXX BATFR33 02064 99411 10068 46/// /2021 10152 20122 40216 56024 22283 00152
BBXX BATFR46 02064 99366 70035 46/// /2817 10155 20097 40259 53013 22263 00160
BBXX BATFR16 02064 99238 70536 44598 21121 10244 20194 40218 56011 70100 821// 22214 00259 21004 308// 41004 5////
BBXX BATFR05 02064 99108 70172 46/// /0719 10245 20109 40138 55/// 22283 00257
BBXX BATEU04 02064 99594 70459 46/// /3040 11065 21136 49931 56015 22233
BBXX BATFR24 02064 99429 10095 46/// /2104 10134 20094 40221 53001 22244 00145
BBXX BATFR21 02064 99433 10053 46/// /1117 40178 56034 22232
BBXX BATEU05 02064 99664 70236 46/// /0324 11035 49706 51024 22253
BBXX BATFR08 02064 99306 30540 46/// /1010 10207 20139 40184 53010 22243 00232
BBXX BATFR19 02064 99067 30055 46/// /1712 10237 20194 40152 52018 22200 00254
AAXX 02064 81225 12970 20000 10230 20224 40112 60001 81031 333 56099 59008 81360
AAXX 02064 81200 NIL
AAXX 02064 81202 NIL
AAXX 02064 81209 NIL
AAXX 02064 81251 NIL
BBXX BATEU01 02064 99439 70310 44597 71914 10145 20104 40156 58049 70222 84313 22263 00149 21006 324// 41608 5////
BBXX BATFR55 02064 99203 30570 44998 20605 10274 20220 40127 70100 82051 22212 00280 206// 32626 410// 510//
BBXX BATEU08 02064 99578 10104 46/// /2420 10069 20057 49923 53006 22223
BBXX BATFR20 02064 99431 10054 46/// ///// 10134 20117 40185 58024 22274
AAXX 02061 11816 11140 70604 10005 21002 30022 40190 56010 69972 71022 876// 333 20000 31000 70036 82703 87705
AAXX 02061 11826 11202 70000 11006 21012 39983 40189 57010 69932 74422 875// 333 21011 32102 70011 85705 87617
AAXX 02061 11903 11445 80000 11002 21002 39819 40211 57007 69962 71065 886// 333 21017 3/102 43003 70009 88710 93402
AAXX 02061 11934 11156 79901 11024 21034 39347 42779 58008 69902 71072 875// 333 21024 3/102 41998 79999 86703 87630
AAXX 02061 11968 11113 82102 10005 21002 39929 40218 57002 69902 75142 886// 333 21010 32101 79999 88702
BBXX BATFR27 02064 99503 70016 46/// /2720 10109 20039 40066 55001 22213 00117
AAXX 02064 78970 12470 10903 10250 20216 30117 40132 60001 81100 333 00200 10328 20233 59001 81816
AAXX 02064 78962 11468 10000 10244 20230 30127 40145 60001 70500 81200 333 01200 10307 20232 59006 81816
BBXX BATFR53 02064 99167 51249 46/// /0809 10252 20195 40186 53015 22222 00259
AAXX 02064 78862 11476 50715 10256 20209 30141 40164 69911 70581 85200 333 10281 20241 59016 79911 85816
AAXX 02064 TAF TKPN 011000Z 0112/0212 07014KT 9999 SCT022 PROB40 TEMPO 0112/0212 07014G24KT SHRA BKN015 BKN038
AAXX 02064 TAF TQPF 011000Z 0112/0212 07014KT 9999 SCT022 PROB40 TEMPO 0112/0212 07014G24KT SHRA BKN015 BKN038
AAXX 02064 TAF TUPJ 011000Z 0112/0212 07014KT 9999 SCT022 PROB40 TEMPO 0112/0212 07014G24KT SHRA BKN015 BKN038
AAXX 02064 2400/2424 07016KT 9999 SCT020 SCT040 PROB40 TEMPO 2400/2412 07018G28KT SHRA TEMPO 2412/2424 07016G26KT SHRA
AAXX 02064 TAF TUPJ 041000Z 04012/0512 07008KT 9999 SCT016 BKN038 SCT270 TEMPO 0412/0512 SHRA BKN015 PROB40 TEMPO 0418/0512 5000 SHRA BKN014 BKN036 PROB30 0420/0512 4000 TSRA FEW012CB
AAXX 02064 918 4000 TSRA FEW012CB
AAXX 02064 N015 BKN036 PROB40 TEMPO 0704/0724 3000 +TSRA SCT011CB BKN012 BECMG 0712/0714 14008KT
AAXX 02064 21/2712 07017G28KT 5000 SHRA BKN015 BKN036 PROB TEMPO 2700/2712 4000 TSRA FEW013CB
AAXX 02064 PROB30 TEMPO 0800/0806 4000 TSRA FEW012CB PROB40 TEMPO 0800/0824 2000 +SHRA/TSRA SCT010CB BKN012 BKN250
AAXX 02064 65338 32458 73204 10238 20231 39946 40133 875// 333 02100 20238 50504 55089 58023 87611
AAXX 02064 78954 12480 60813 10253 20226 30072 40137 60001 86802 333 10294 20245 59008 85818 83078
AAXX 02061 01037 NIL
AAXX 02061 01046 NIL
AAXX 02061 01058 16/// /1609 11079 21104 39598 40077 51007 60002 333 21107 4/017 70000 91116
AAXX 02061 01065 NIL
AAXX 02061 01092 NIL
AAXX 02061 01107 16/// /1107 10034 20025 39891 49895 58004 60002 333 20013 70016 91113
AAXX 02061 01114 NIL
AAXX 02061 01144 46/// /1114 10024 21048 333 20006 91121
AAXX 02061 01199 NIL
AAXX 02061 01245 NIL
AAXX 02061 01259 16/// /1008 10029 21022 39834 49856 56015 60002 333 20018 70040 91114
AAXX 02061 01262 NIL
AAXX 02061 01278 31985 81503 10004 21037 39777 49878 57013 70222 8807/ 333 21001 44013 79999
AAXX 02061 01293 16/// /1802 10003 21038 39675 49881 58013 60002 333 21028 70000 91105
AAXX 02061 01329 NIL
AAXX 02061 01337 NIL
AAXX 02061 01344 NIL
AAXX 02061 01364 NIL
AAXX 02061 01373 16/// /0000 11025 21031 39715 49918 56005 60002 333 21045 70028 91102
AAXX 02061 01374 11470 80000 11026 21026 69952 70272 886// 333 21028 44034 70041
AAXX 02061 01380 16/// /1502 11041 21050 6//// 333 21051 4/040 91106
AAXX 02061 01389 NIL
AAXX 02061 01393 NIL
AAXX 02061 01424 11460 8//// 10009 21000 39890 49894 58008 60192 76162 887// 333 20006 70347
AAXX 02061 01431 16/// /2002 10008 21003 39247 49904 58005 60042 333 20004 70168 91105
AAXX 02061 01436 NIL
AAXX 02061 01465 11356 83102 10032 20025 39899 49918 52003 60062 76366 8472/ 333 20030 70073 91108
AAXX 02061 01471 11380 61001 11021 21027 60002 70272 86600 333 21025 70019 91102
AAXX 02061 01483 NIL
AAXX 02061 01121 46/// /1214 10019 21020 39875 49887 58001 333 20009 91123
AAXX 02061 01135 NIL
AAXX 02061 01143 16/// /1407 10015 21070 60002 333 20000 70000 91118
AAXX 02061 01150 NIL
AAXX 02061 01192 NIL
AAXX 02061 01225 46/// /1404 10052 20017 39839 49844 55008 333 20051 91107
AAXX 02061 01230 NIL
AAXX 02061 01232 NIL
AAXX 02061 01234 16/// /2203 11053 21059 60002 333 21055 70044 91106
AAXX 02061 01253 NIL
AAXX 02061 01254 NIL
AAXX 02061 01257 NIL
AAXX 02061 01277 NIL
AAXX 02061 01291 NIL
AAXX 02061 01332 16/// /3001 10003 21008 60062 333 20001 70125 91104
AAXX 02061 01366 NIL
AAXX 02061 01370 NIL
AAXX 02061 01376 16/// /1101 10000 21004 60002 333 21010 70040 91102
AAXX 02061 01383 46/// /0000 11018 21019 39605 49919 58008 333 21023 91100
AAXX 02061 01386 NIL
AAXX 02061 01416 16/// ///// 10045 20040 60072 333 20045 70112
AAXX 02061 01419 NIL
AAXX 02061 01430 16/// ///// 10044 20033 60092 333 20042 70117
AAXX 02061 01434 16/// /0000 11055 21066 38939 49897 57007 69952 333 21056 70113 91102
AAXX 02061 01455 NIL
AAXX 02061 01468 16/// /1003 10015 20009 60042 333 20003 70079 91105
AAXX 02061 01470 NIL
AAXX 02061 01476 NIL
AAXX 02061 01481 NIL
AAXX 02061 01488 NIL
AAXX 02061 01015 NIL
AAXX 02061 01023 NIL
AAXX 02061 01033 NIL
AAXX 02061 01059 11485 71512 11041 21079 30067 40077 56009 60002 77087 87840 333 21085 79999 91120
AAXX 02061 01089 NIL
AAXX 02061 01167 41586 61609 10025 21056 39921 49925 58004 70182 84570 333 20004 79999 91113
AAXX 02061 01180 NIL
AAXX 02061 01210 11587 72003 10061 20013 39814 49840 58007 69954 70262 83578 333 20054 70005 91110
AAXX 02061 01228 NIL
AAXX 02061 01240 16/// /1410 10042 21000 39829 49848 58013 6//// 333 20037 91114
AAXX 02061 01304 46/// /0000 10051 20030 39809 49839 56013 333 20042 91100
AAXX 02061 01311 NIL
AAXX 02061 01340 NIL
AAXX 02061 01355 16/// ///// 10010 21013 39873 49878 57008 60002 333 20003 70019
AAXX 02061 01360 NIL
AAXX 02061 01392 16/// /3601 10005 20001 39688 49912 57014 60012 333 21003 70079 91102
AAXX 02061 01406 NIL
AAXX 02061 01411 16/// /2107 10068 20040 39857 49882 57005 6//// 333 20051 91114
AAXX 02061 01425 NIL
AAXX 02061 01433 46/// /0000 11016 21027 38648 49887 56009 333 21018 91106
AAXX 02061 01442 NIL
AAXX 02061 01450 NIL
AAXX 02061 01452 NIL
AAXX 02061 01473 16/// /0000 11012 21016 39707 49916 55006 6//// 333 21022 91102
AAXX 02061 01494 16/// /0401 10027 20024 39840 49904 55013 60132 333 20019 70215 91105
AAXX 02061 01025 16/// /1909 10011 21084 39957 49968 53007 6//// 333 20003 91121
AAXX 02061 01052 16/// /1711 11043 21086 39933 40033 53004 60002 333 21062 70000 91126
AAXX 02061 01122 NIL
AAXX 02061 01132 NIL
AAXX 02061 01156 NIL
AAXX 02061 01203 NIL
AAXX 02061 01233 16/// /1703 11026 21038 60002 333 21037 70015 91106
AAXX 02061 01265 NIL
AAXX 02061 01273 NIL
AAXX 02061 01307 NIL
AAXX 02061 01321 NIL
AAXX 02061 01327 16/// /0704 10004 21004 60192 333 21001 70362 91106
AAXX 02061 01350 16/// /1404 11031 21036 38506 49870 57007 60012 333 21042 70042 91109
AAXX 02061 01361 NIL
AAXX 02061 01375 NIL
AAXX 02061 01378 NIL
AAXX 02061 01385 16/// /0202 10006 20001 39643 49913 57012 60002 333 21007 70041 91104
AAXX 02061 01412 16/// /2310 10061 20034 39865 49894 56002 60012 333 20056 70015 91118
AAXX 02061 01422 NIL
AAXX 02061 01440 NIL
AAXX 02061 01441 NIL
AAXX 02061 01467 NIL
AAXX 02061 01469 NIL
AAXX 02061 01477 NIL
AAXX 02061 01480 16/// /3302 10001 21006 69992 333 20001 70064 91104
AAXX 02061 01484 16/// /1602 10017 20007 39753 49908 57015 60082 333 20001 70118 91104
AAXX 02061 01490 16/// /2001 10003 20003 60022 333 21014 70091 91105
AAXX 02061 01495 NIL
AAXX 02064 78954 12480 60813 10253 20226 30072 40137 60001 86802 333 10294 20245 59008 85818 83078
AAXX 02064 61901 169// /1310 10166 20156 39667 40176 53007 69942 90550 333 20161 3/016 70004 8//99 555 7/090
AAXX 02064 61902 32582 61409 10231 20189 40149 868// 333 20227 58007 81824 86648
AAXX 02064 88889 12783 53013 10083 20047 30023 40108 57004 60001 81502 90550 333 70002 81656 85075
AAXX 02064 07005 01565 72407 10068 20057 39984 40074 53009 60062 78086 878// 333 10137 20068 31006 55000 60017 70074 85820 83633 90710 91117 555 69965
AAXX 02064 07015 01665 82305 10072 20063 30007 40064 53003 60092 721// 8357/ 333 10137 20072 32006 55000 60037 70094 83643 87366 90710 91109 93100 555 69905
AAXX 02064 07020 01660 62721 10099 20041 30060 40087 51008 60042 76161 86500 333 10118 20077 55/// 60037 70237 86633 90710 91132 555 69905
AAXX 02064 07027 02575 42312 10069 20052 30016 40098 53014 60042 83861 333 10119 20066 32005 55000 69927 70078 83830 83650 90710 91118 93100 555 60005
AAXX 02064 07037 01465 72410 10073 20064 39906 40090 53011 60092 72586 875// 333 10128 20073 32006 55000 69947 70095 83611 84617 85631 90710 91118 93100 555 69925
AAXX 02064 07070 04467 82711 10088 20076 39969 40079 55002 60092 761// 333 10138 20088 32008 55000 60037 70091 90710 91117 555 69985
AAXX 02064 07110 01565 82305 10058 20044 39999 40115 53004 60022 72587 8693/ 333 10100 20054 32003 55000 60027 70258 86823 85646 85357 90710 91120 555 69965
AAXX 02064 07117 01460 72411 10067 20049 30035 40106 53011 60052 70262 8782/ 333 10107 20064 60017 90710 91138 92447 555 69925
AAXX 02064 07130 04986 /2308 10066 20051 3//// 4//// 60032 700// 333 10120 20062 31005 55/// 60007 70064 90710 91112 555 60005
AAXX 02064 07139 02360 52610 10076 20054 39936 40111 52013 60092 83102 333 10120 20073 31006 55000 60007 70113 83808 85075 90710 91117 93100 555 60005
AAXX 02064 07149 01681 72611 10085 20063 39991 40100 53018 60052 70162 8552/ 333 10131 20083 32007 55001 60027 70052 85640 87459 90710 91117 93100 555 69905
AAXX 02064 07168 01465 82914 10088 20066 39960 40103 53004 60072 76166 885// 333 10133 20088 32008 55000 60047 70071 82710 87616 90710 91127 93100 555 60025
AAXX 02064 07181 04459 82117 10096 20087 39683 40089 56017 60042 761// 333 10120 20095 3/009 55/// 60037 70050 90710 91125 555 60025
AAXX 02064 07190 04685 82008 10113 20082 39920 40100 56014 69902 761// 333 10121 20106 31010 55000 69907 79999 90710 91115 555 69905
AAXX 02064 07207 02662 62925 10099 20041 60072 86500 222// 328// 333 10123 20086 69927 91039 90710 91139 92457 555 60005
AAXX 02064 07222 01670 42507 10078 20058 30110 40142 53015 60062 725// 82801 333 10125 20078 32006 55000 69907 70096 82833 83071 90710 91116 555 69905
AAXX 02064 07240 01480 72409 10085 20073 39994 40130 53017 60072 701// 8153/ 333 10127 20085 32008 55000 69907 70083 81711 87369 90710 91116 93100 555 60005
AAXX 02064 07255 01465 82706 10099 20085 39932 40132 53012 60022 72162 875// 333 10127 20099 32009 55000 60027 70028 87613 90710 91122 93100 555 69985
AAXX 02064 07280 04557 81809 10092 20086 39851 40123 56013 60032 761// 333 10114 20092 32008 55000 60037 70038 90710 91112 555 60025
AAXX 02064 07299 02767 81608 10079 20067 39794 40122 56017 60002 8157/ 333 10121 20073 30006 55001 60007 70000 81650 87360 90710 91111 93100 555 60005
AAXX 02064 07314 06/// /2616 10114 20077 30134 40162 53007 60052 333 10138 20095 55/// 69947 70048 90710 91125 555 60005
AAXX 02064 07335 01680 72410 10085 20071 30003 40149 52016 60042 72162 8457/ 333 10125 20085 31008 55000 69987 70050 84646 87360 90710 91118 555 69925
AAXX 02064 07434 01470 72808 10075 20064 39680 40162 53012 60112 72162 875// 333 10102 20075 32007 55000 60087 70117 83615 86656 90710 91124 93100 555 60015
AAXX 02064 07460 01665 82311 10108 20062 39758 40145 53001 69902 760// 885// 333 10129 20094 31008 55022 69907 79999 85640 88656 90710 91120 93100 555 69905
AAXX 02064 07471 02681 72107 10081 20052 39195 48784 55005 60002 8357/ 333 10091 20049 31002 55030 60007 79999 83633 87360 90710 91119 93100 555 60005
AAXX 02064 07481 01870 81919 10120 20079 39864 40150 56010 69902 76062 875// 333 10128 20086 31007 55/// 69907 70006 87656 90710 91132 93100 555 69905
AAXX 02064 07510 01560 82607 10107 20095 30116 40182 53013 60062 76062 8687/ 333 10127 20106 32010 55000 60017 70068 83826 85656 87360 90710 91115 93100 555 69905
AAXX 02064 07535 01425 82207 10091 20088 39869 40183 53005 60082 76366 885// 333 10116 20091 32007 55000 60087 70085 84713 88620 90710 91125 93100 555 60045
AAXX 02064 07558 01459 82403 10070 20066 39347 40188 53001 60002 74022 885// 333 10079 20069 31005 55012 60007 70002 88610 90710 91106 93100 555 60005
AAXX 02064 07577 02458 72002 10098 20084 30089 40179 56016 60002 8557/ 333 10102 20043 31002 55043 60007 70002 85611 87363 90710 91106 93100 555 60005
AAXX 02064 07591 04/// /0703 10017 21007 39178 4//// 56014 60002 700// 333 10046 20001 3/103 55073 60007 70000 90710 91108 555 60005
AAXX 02064 07607 04347 82708 10102 20094 30133 40205 53016 60072 765// 333 10107 20071 3/003 55038 60067 70071 90710 91115 555 60025
AAXX 02064 07621 01659 82916 10088 20074 39778 40215 53029 60032 76166 885// 333 10097 20058 32004 55080 60037 70030 87646 90710 91126 93100 555 60025
AAXX 02064 07627 01460 82703 10069 20052 39717 40212 53020 60012 76162 885// 333 10105 20046 31001 55062 60017 70010 88610 90710 91105 93100 555 60015
AAXX 02064 07630 04570 82708 10103 20079 30022 40204 53016 69922 761// 333 10118 20067 32003 55042 69927 70002 90710 91118 555 69925
AAXX 02064 07643 01458 80109 10110 20097 30166 40176 55008 69922 75052 875// 333 10120 20070 31006 55080 69927 70002 87711 90710 91114 555 69925
AAXX 02064 07650 02582 81109 10130 20089 30141 40180 56012 69922 888// 333 10130 20100 30005 55085 60007 70002 83825 88628 90710 91116 93100 555 60005
AAXX 02064 07661 02468 70511 10113 20097 30032 40194 56014 60002 877// 333 10116 20094 55/// 60007 70000 87716 90710 91117 555 60005
AAXX 02064 07690 02575 83406 10119 20046 30175 40209 56009 60002 885// 333 10145 20115 30011 55074 60007 70000 81622 88636 90710 91110 93100 555 60005
AAXX 02064 07747 02770 83209 10116 20095 30127 40180 53008 60002 875// 333 10124 20063 30003 55079 60007 70000 87650 90710 91113 93100 555 60005
AAXX 02064 07761 02570 70607 10112 20082 30216 40227 56011 60002 875// 333 10126 20077 30006 55040 60007 70000 82625 86640 90710 91108 93100 555 60005
AAXX 02064 07790 02670 32105 10060 20042 30204 40219 56008 60002 82501 333 10119 20060 30003 55005 60007 70000 82633 90710 91106 93100 555 60005
AAXX 02064 03005 11470 62725 10025 20006 39729 49828 53003 60022 72581 868// 90550 333 20024 31001 55025 55300 20000 70020 83817 84630 90710 91136 91036
AAXX 02064 03017 15966 /2318 10027 20004 39811 49843 55001 69902 90550 333 20020 3/001 55022 55300 20000 79999 86/60
AAXX 02064 03023 17659 /2634 10033 20009 39842 49847 55001 60012 781// 90550 333 20025 3/001 70066 81/32 90710 91148 91047
AAXX 02064 03026 17983 /2014 10023 20003 39809 49827 57014 60032 724// 90550 333 20008 3/100 55001 55300 20000 70044 81/64
AAXX 02064 03063 17478 /2110 10005 21005 39604 49881 58001 60032 771// 90550 333 20004 3/100 55001 55300 20000 70086 84/10 85/68
AAXX 02064 03066 17787 /2308 10019 21011 39864 49870 56004 69922 723// 90550 333 20014 3/101 55041 55300 20000 70002 81/50
AAXX 02064 03075 15973 /2112 10018 21003 39809 49853 55003 60002 90550 333 20015 3/100 70000 87/71
AAXX 02064 03091 15983 /1503 11003 21027 39807 49887 55003 60002 90550 333 21003 3/105 55042 55300 20000 70002 82/71
AAXX 02064 03100 15665 /2323 10049 20020 39858 49874 56015 60022 90550 333 20026 3/001 55000 55300 20000 70066 84/41 90710 91133
AAXX 02064 03111 16473 /2324 10033 20012 39914 49927 50001 60002 90550 333 20026 3/002 70000 85/14 90710 91133
AAXX 02064 03134 16/// /2313 10034 21003 3//// 4//// 5//// 69942 90550 333 20023 3/100 55006 55300 20000 70012
AAXX 02064 03136 15475 /2319 10045 20012 39903 49936 53007 69902 90550 333 20045 3/003 55009 55300 20000 79999 86/18 83/29 90710 91129
AAXX 02064 03162 15582 /2215 10013 21013 39661 49949 55002 60022 90550 333 20011 3/100 55000 55300 20000 70020 84/26
AAXX 02064 03166 17583 /2215 10024 20005 39845 49915 56005 60022 723// 90550 333 20011 3/000 55023 55300 20000 70026 81/22 90710 91127
AAXX 02064 03171 11981 22517 10024 21005 39893 49906 55003 69942 70280 82031 90550 333 20017 31101 55017 55300 20000 70004 82363
AAXX 02064 03204 12580 22519 10047 20004 39954 49974 53005 60002 82100 90550 333 20044 3/003 55006 55300 20000 70000 82825 90710 91128
AAXX 02064 03240 15981 /2318 10031 20008 39907 49935 55009 69942 90550 333 20021 3/100 55021 55300 20000 70004 83/66 90710 91129
AAXX 02064 03257 17469 /2412 10030 20014 39937 49978 55001 69942 781// 90550 333 20027 3/000 55000 55300 20000 70030 82/15 84/22
AAXX 02064 03292 169// /2406 10020 20003 39964 49983 52001 60002 90550 333 20020 3/001 70032 82/65
AAXX 02064 03302 15564 /2420 10049 20006 39986 49999 53007 60002 90550 333 20049 3/004 55000 55300 20000 70030 83/25 90710 91131
AAXX 02064 03354 15574 /2211 10035 20011 39867 40010 55000 60002 90550 333 20030 3/001 55000 55300 20000 70040 83/28
AAXX 02064 03377 12982 32213 10034 20016 39923 40007 52001 60002 81031 90550 333 20033 31001 55000 55300 20000 70032 81364 83074
AAXX 02064 03414 17482 /2209 10024 20016 39924 40012 50005 60022 723// 90550 333 20016 3/102 55000 55300 20000 70038 83/18 83/50
AAXX 02064 03462 15980 /1907 10028 20019 39933 40023 53003 69962 90550 333 20025 3/001 55000 55300 20000 70006 84/65
AAXX 02064 03482 15971 /2211 10043 20025 39997 40023 55000 69982 90550 333 20036 3/001 70012 87/63
AAXX 02064 03502 15678 /2725 10052 21003 39866 40028 53011 69962 90550 333 20036 3/002 55000 55300 20000 70036 81/35 83/40 90710 91135 91035
AAXX 02064 03535 15982 /2009 10032 20016 39901 40019 53002 69942 90550 333 20025 3/000 55001 55300 20000 70012 82/60
AAXX 02064 03590 15983 /2309 10035 20027 39927 40037 53006 69962 90550 333 20029 3/000 55000 55300 20000 70048 81/60
AAXX 02064 03649 11581 62208 10043 20033 39937 40038 50003 60012 72581 83860 90550 333 20040 31002 55000 55300 2//// 70022 82820 84358
AAXX 02064 03716 17581 /2619 10057 20014 39982 40042 52008 60052 782// 90550 333 20055 3/003 55000 55300 20000 70064 81/24 83/64 90710 91128
AAXX 02064 03740 16480 /2108 10028 20017 39867 40046 50004 60012 90550 333 20028 3/000 55000 55300 2//// 70044 82/14 90710 91125
AAXX 02064 03746 15484 /2614 10044 20014 39901 40055 53006 69902 90550 333 20035 3/001 70040 82/19 83/50
AAXX 02064 03772 15976 /2207 10046 20031 30020 40050 53006 69922 90550 333 20044 3/000 55000 55300 20000 70072 8//99
AAXX 02064 03796 46/// /2608 10052 20044 39911 40054 53006 90550 333 20052
AAXX 02064 03803 NIL
AAXX 02064 03808 11575 62916 10071 20017 39971 40078 52009 60012 70381 868// 90550 333 20051 31004 55000 55300 20000 70028 81822 86656
AAXX 02064 03809 11458 42816 10067 20029 39988 40081 53012 60012 78081 84800 90550 333 20055 31003 70028 83818 84622 90710 91128
AAXX 02064 03827 15974 /2616 10060 20027 30014 40076 53011 69942 90550 333 20051 3/003 70034 8//99
AAXX 02064 03840 17378 /2307 10024 20024 39754 40064 51005 60022 741// 90550 333 20024 3/001 70056 82/09 83/26
AAXX 02064 03853 17967 /2105 10032 20019 30034 40058 51006 69962 723// 90550 333 20030 3/100 55000 55300 20000 70028 83/59 85/63
AAXX 02064 03874 46/// /2816 10073 20046 30048 40059 53008 90550 333 20072
AAXX 02064 03882 15664 /2603 10048 20039 39996 40060 53008 69982 90550 333 20045 3/100 55000 55300 20000 70156 81/47
AAXX 02064 03894 11582 62618 10080 20038 40092 52010 60012 71581 85830 333 20069 32005 85825 90710 91126
AAXX 02064 03917 15484 /2216 10018 21005 39878 49956 53001 60002 90550 333 20015 3/000 55022 55300 20000 70014 85/13
AAXX 02064 85418 12970 02105 10201 20161 40132 57020 60001
AAXX 02064 85442 12970 09902 10185 20152 40130 57019 60001
AAXX 02064 85469 42460 70000 10215 20189 40183 52007 86811 333 56300 83817 83640
AAXX 02064 85488 12460 40000 10151 20135 40141 54000 60001 84500 333 56600 84512
BBXX 46082 02061 99597 71434 46/// ///// 10026 49706 55000 90550 22200 00057 11412 70062
BBXX 46072 02061 99517 71722 46/// /0510 10013 21008 49990 53008 90550 22200 00041 10906 20504 3//// 40905 70031 333 91211 555 11102 22107 30507 40313 60549 050097 037103 031098 036098 042096 043088 80411 90537
BBXX 46077 02061 99579 71543 46/// /2305 11039 21074 49918 56023 90550 22200 00028 10702 20401 3//// 40701 70008 333 91207 555 11055 22057 30453 42307 60549 231053 232053 241049 235053 229047 234050 82406 90542
BBXX 46035 02061 99571 71778 46/// /0709 1//// 40087 52007 90550 22200 10805 20804 300// 41003 70023 333 91212 555 11093 22099 30501 40513 60549 068094 075091 062089 065096 060099 063094 80711 90549
BBXX 41040 02061 99145 70530 46/// /0711 10264 20220 40147 58020 90550 22200 00268 11107 20805 3//// 41105 70036 333 91213 555 11116 22123 30540 40713 60549 073107 074107 073106 076101 075109 081090 80812 90550
AAXX 02064 85574 12960 01804 10190 20119 39575 40119 54000 60001
AAXX 02064 85577 12960 00000 10187 20125 39525 40125 54000 60001
AAXX 02064 85585 339// 91819 10177 20135 30152 40188 57004
AAXX 02064 85682 12960 02206 10151 20121 40114 58006 60001
AAXX 02064 85743 12960 09902 10114 20097 40166 58013 60001
AAXX 02064 85799 12960 00000 10091 20082 40206 57011 6000
AAXX 02064 78388 111570 21404 10243 20208 30159 40168 60001 70500 81801 333 00909 10307 20234 59002 81824
AAXX 02064 85874 32984 /3212 10100 20038 39574 40199 58008
AAXX 02064 85934 12480 73015 10097 20041 40080 58008 60001 83530 333 56660 83619 86357
AAXX 02064 89056 11/02 93504 11013 21015 49892 58005 60001 74544 333 89/01
AAXX 02064 89057 12460 83405 10022 21004 49893 54002 60001 886// 333 56699 88710
AAXX 02064 89058 11/05 93205 11007 21013 39875 49896 57001 69901 74776
AAXX 02064 89059 11850 80603 10000 21014 49893 54000 60001 71022 8802/ 333 76009 88456
AAXX 02064 89251 41130 82906 11005 21009 49888 57002 71022 8672/
BBXX 51004 02061 99175 71524 46/// /0508 10238 20208 90550 555 11088 22093
BBXX 51002 02061 99171 71578 46/// /0707 10242 40165 51021 90550 22200 00247 333 91209 555 11073 22077 30504 40709 60549 070068 074068 071067 071067 073071 071065
BBXX 51100 02061 99236 71539 46/// /1406 10226 40196 51023 90550 22200 00233 11407 20401 334// 41407 70034 333 91209 555 11065 22068 30544 41409 60549 141061 141064 138065 139060 140056 139049
BBXX 44007 02061 99435 70701 46/// /1808 10085 20085 40022 58046 90550 22200 00072 10603 20603 70016 333 91210 555 11090 22099 30504 41812 60549 177083 176088 177092 182089 179096 180093
BBXX 46072 02061 99517 71722 46/// /0510 10013 21008 49990 53008 90550 22200 00041 10906 20504 3//// 40905 70031 333 91211 555 11102 22107 30507 40313 60549 050097 037103 031098 036098 042096 043088 80411 90537
BBXX 46026 02061 99378 71228 46/// /1305 10127 40208 53012 90550 22200 00113 11302 20301 327// 41302 70010 333 91207 555 11059 22067 30501 42809 60549 143054 269056 273061 273066 274067 276070
BBXX 46041 02061 99474 71247 46/// /1212 10108 40141 56012 90550 22200 00090 11005 20503 3//// 41003 70023 333 91214 555 11129 22140 30452 41215 60549 117118 122114 123113 121115 119121 120118
AAXX 02064 78388 111570 21404 10243 20208 30159 40168 60001 70500 81801 333 00909 10307 20234 59002 81824
AAXX 02064 89642 41730 82103 11003 21022 39781 49834 50001 77177 885// 333 55053 22532 88650
AAXX 02061 10430 01357 82204 10087 20079 39855 40044 51001 60052 76165 885// 333 10139 20087 32008 55000 55300 20000 30000 60027 70101 85708 87630 91115
AAXX 02064 63980 11470 73412 10286 20242 40116 60154 70282 8383/ 333 10246 50390 55031 59013 83815 87358 943// 911//
AAXX 02061 14648 12970 03201 10007 21022 30146 40271 53003 60002 333 20000 34103 55079 70000
AAXX 02061 14652 12988 12311 11019 21036 37970 48537 54000 60002 80002 333 21024 3//// 49073 55073 70000 81080
AAXX 02061 14542 11950 20000 11021 21029 30027 40226 57008 60002 71000 80001 333 21024 34105 55027 70000 82080 95590
AAXX 02061 14528 12970 00000 10030 21031 39917 40221 57010 60003 333 10071 20000 3/101 41001 55028 70000
AAXX 02061 14537 12970 00000 11039 21045 30020 40217 56004 60003 333 10072 21044 3/105 43005 55036 70000
AAXX 02061 14544 11/01 90000 11071 21071 39577 40287 56004 60003 74544 333 10032 21076 3/109 43006 55056 70000 89///
AAXX 02061 14557 12965 03601 11017 21026 39850 40233 57020 60002 333 10086 21026 34104 55069 70000
AAXX 02061 14640 12970 00000 11080 21080 39400 48505 51006 60003 333 10041 21081 3/110 43003 55080 70000
AAXX 02061 02741 17146 71404 10044 20041 39972 49988 57012 60082 75186 87/// 90539 333 10045 20019 3/001
AAXX 02061 02755 37483 71307 11038 21057 39993 40091 57007 70000 87/// 90539 333 11034 21044 3//// 4/008
AAXX 02061 02805 37449 81704 11079 21102 39990 40127 57002 78587 88/// 90539 333 11033 21096 3/111
AAXX 02061 02807 47999 12003 11113 21135 39952 40145 700// 80/// 90600 333 11034 21113 3////
AAXX 02061 02836 37383 81403 11091 21101 39902 40135 54000 78587 88/// 90539 333 11062 21098 3//// 4/045
AAXX 02061 02845 47250 81106 11105 21112 39868 40129 57006 77170 88/// 90539 333 11065 21106 3/111 4/051
AAXX 02061 02849 47377 71505 11086 21096 39870 40157 54000 77887 87/// 90539 333 11084 21119 3////
AAXX 02061 02866 37368 81203 11103 21109 39983 40141 57004 77787 88/// 90539 333 11082 21139 3/121 4/041
AAXX 02061 02897 47699 31204 11088 21099 39952 40143 700// 83/// 90600 333 11077 21123 3////
AAXX 02061 02913 47437 71208 11015 21026 39995 40048 771// 87/// 333 11014 21047 3////
AAXX 02061 02917 47282 71203 11069 21074 30015 40143 700// 87/// 90600 333 11059 21090 3////
AAXX 02061 02924 47450 71203 11027 21034 39874 40075 57013 771// 85/// 90539 333 11026 21053 3/106
AAXX 02061 02926 17356 81307 10005 20005 30010 40022 57006 60022 771// 88/// 90600 333 10005 21034 3//// 4/005
AAXX 02061 02935 37462 81304 11036 21048 39928 40106 57008 70010 88/// 90539 333 11032 21040 3/105 4/007
AAXX 02061 02939 37259 71203 11026 21027 39963 40162 57003 77170 87/// 90539 333 11026 21062 3/106 4/017
AAXX 02061 02944 47482 81206 11011 21024 39908 40057 785// 88/// 90600 333 11011 21066 3////
AAXX 02061 02947 47382 71203 11044 21051 40133 57005 70000 87/// 90551 333 11036 21078
AAXX 02061 02963 11482 81407 11002 21010 40051 58010 69914 70272 885// 333 1//// 2//// 3/109 47001
AAXX 02061 02974 11499 81309 10002 21025 30017 40084 57010 69902 70372 8655/ 333 10004 21055 3/106 45///
AAXX 02061 02976 46/// /1408 11004 21018 30102 40119 57009 90539 333 11001 21011 3////
AAXX 02061 02981 17234 71513 10031 2//// 30008 40018 57013 60022 76186 87/// 90539 333 10038 20025 3////
AAXX 02061 02982 46/// /1617 10013 20006 30037 40045 57010 90539 333 10025 20013 3////
AAXX 02061 11812 36/// /0907 11015 21015 39468 42770 57013 333 21018 3////
AAXX 02061 11813 11/01 99902 11003 21003 39827 40187 57009 69952 74544 333 21006 35100 70035 89/00 93403
AAXX 02061 11816 11140 70604 10005 21002 30022 40190 56010 69972 71022 876// 333 20000 31000 70036 82703 87705
AAXX 02061 11819 16/// /9901 11003 21006 39970 40193 57012 69972 333 21009 3/104
AAXX 02061 11826 11202 70000 11006 21012 39983 40189 57010 69932 74422 875// 333 21011 32102 70011 85705 87617
AAXX 02061 11841 11230 82802 10002 21004 39803 40189 55007 69972 71062 886// 333 21002 3/100 43005 70007 88704
AAXX 02061 11855 12460 70904 10010 21002 30023 40193 57009 69902 875// 333 20003 34100 70004 81712 87656
AAXX 02061 11856 16/// /1004 11001 21006 39872 40200 57009 69962 333 21007 3/101
AAXX 02061 11858 12880 40903 10003 21004 30035 40191 57010 60002 81044 333 21001 34104 70007 81357 84070
AAXX 02061 11867 11430 71901 11002 21013 39869 40195 57010 60012 71022 84571 333 21002 3/101 70014 82710 87358
AAXX 02061 11880 11550 89901 10007 20007 30030 40207 58006 69912 71062 885// 333 20000 3/100 41998 70005 88626
AAXX 02061 11900 16/// /0501 10002 21010 39865 40210 57011 69912 333 21011 3//// 70002
AAXX 02061 11903 11445 80000 11002 21002 39819 40211 57007 69962 71065 886// 333 21017 3/102 43003 70009 88710 93402
AAXX 02061 11916 11/00 92613 11011 21016 37940 48446 55002 60002 74944 333 21025 3//// 44051 70012 89/00 91019 91122 93598
AAXX 02061 11918 11250 82705 10012 20009 39338 42770 58009 60002 71022 885// 333 21007 3/101 42001 79999 85704 88616
AAXX 02061 11927 11250 80502 10000 21003 39944 40214 57006 69952 71077 885// 333 21008 34101 70006 82703 88611
AAXX 02061 11930 11689 72709 11036 21037 37333 47011 58006 69962 70274 83042 333 21057 3//// 44040 70050 83333 86061 91018 91120 93556 444 47115
AAXX 02061 11933 11/62 72603 10026 20026 38649 48466 55002 69942 72172 875// 333 21014 3/102 44040 70006 817// 87616 444 17//1
AAXX 02061 11934 11156 79901 11024 21034 39347 42779 58008 69902 71072 875// 333 21024 3/102 41998 79999 86703 87630
AAXX 02061 11938 11230 82304 11007 21011 39111 42784 56006 69902 75622 885// 333 21037 3/104 44019 79999 85705 88626 93402
AAXX 02061 11952 16/// /1407 11025 21025 39338 42779 57008 60002 333 21033 3/104 70000
AAXX 02061 11958 36/// ///// 11001 21005 38734 48466 57004 333 21072 3////
AAXX 02061 11968 11113 82102 10005 21002 39929 40218 57002 69902 75142 886// 333 21010 32101 79999 88702
AAXX 02061 11976 11360 81603 10009 20002 39942 40213 54000 69932 70276 885// 333 21004 31101 70006 84708 88616
AAXX 02061 11978 11230 81405 10014 20008 30087 40221 50000 69912 72022 886// 333 20004 32000 70001 88704
AAXX 02061 11993 11464 89902 10015 20005 30000 40222 53001 69902 76062 885// 333 20008 31000 79999 84713 88632 91007
AAXX 02064 89578 46/// /0408 11313 36870 4//// 5////
AAXX 02061 02947 47/82 71203 11044 21051 40133 57005 70000 87/// 90551 333 11036 21078 3////
AAXX 02061 02947 47/82 71203 11044 21051 40133 57005 70000 87/// 90551 333 11036 21078 3////
BBXX CGSB 02064 99483 70709 46/// /0830 11032 21052 49962 56055 7//// 8//// 22200 0//// 2////
BBXX VCBW 02064 99456 70735 46/// /2111 10058 20018 49956 56012 7//// 8//// 22200 0//// 2////
BBXX VOFG 02064 99456 70614 46/// /2105 10003 21005 40130 58002 7//// 8//// 22200 0//// 2////
BBXX CGBR 02064 99525 71288 46/// /0624 10074 20067 40046 51005 7//// 8//// 22200 0//// 2////
BBXX CG2350 02064 99433 70798 46/// /2320 10014 21019 40037 54000 7//// 8//// 22200 0//// 2////
BBXX CZ9742 02064 99506 70969 46/// /3211 11117 21161 4//// 5//// 7//// 8//// 22200 0//// 2////
BBXX VCRG 02064 99474 70619 46/// /1805 11011 21018 40116 58020 7//// 8//// 22200 0//// 2////
BBXX VOPP 02064 99456 70735 46/// /1913 10052 20026 4//// 5//// 7//// 8//// 22200 0//// 2////
BBXX CG2960 02064 99429 70824 46/// /2609 10003 21036 40081 50001 7//// 8//// 22200 0//// 2////
BBXX CG2958 02064 99507 71275 46/// /0904 10079 20034 40100 56009 7//// 8//// 22200 0//// 2////
BBXX CGHL 02064 99476 70527 46/// /0909 10015 21001 40085 53054 7//// 8//// 22200 0//// 2////
AAXX 02064 41170 41957 11504 10208 20169 30171 40184 70500 80001 333 20152 59028 81074 555 00104
AAXX 02064 64500 32360 81810 10252 20235 30111 40124 845// 333 02350 20225 50201 55084 58006 84608 88633
AAXX 02064 81401 06/// /0000 10225 20217 30101 40107 60001 333 55/// 60007 59009 7//// 555 60005
AAXX 02064 81408 06/// /0000 10231 2//// 30096 40104 60001 333 55/// 60007 59006 7//// 555 60005
AAXX 02061 01008 11585 51305 11003 21049 39950 49984 53013 69902 70122 8157/ 333 21005 44008 79999 91113
AAXX 02061 01098 11470 81512 10003 21026 30136 40155 52005 60002 70222 873// 333 20001 44999 79999 91117
AAXX 02061 01007 11688 81110 10005 21039 39967 49976 52012 60002 70222 82057 333 21008 42/// 70000 91116
AAXX 02064 81401 06/// /0000 10225 20217 30101 40107 60001 333 55/// 60007 59009 7//// 555 60005
AAXX 02064 81408 06/// /0000 10231 2//// 30096 40104 60001 333 55/// 60007 59006 7//// 555 60005
BBXX CGDT 02064 99468 70712 46/// /0509 11001 21004 49979 58045 7//// 8//// 22200 0//// 2////
BBXX VOKF 02064 99490 70669 46/// /0404 11006 21039 40027 58048 7//// 8//// 22200 0//// 2////
BBXX VOLG 02064 99467 70563 46/// /3508 10016 21004 40117 51030 7//// 8//// 22222 0//// 2////
BBXX CGJV 02064 99462 70631 46/// /2010 11013 21027 40121 56021 7//// 8//// 22200 0//// 2////
BBXX VCSZ 02064 99466 70543 46/// /0227 10019 20019 40083 53025 7//// 8//// 22223 0//// 2////
BBXX VRYO3 02064 99456 70735 46/// /2012 10058 20018 49952 56013 7//// 8//// 22200 0//// 2////
BBXX CGBN 02064 99447 70636 46/// /1705 10019 20000 40133 56024 7//// 8//// 22200 0//// 2////
BBXX CGDG 02064 99447 70636 46/// /1505 10007 20038 40134 56023 7//// 8//// 22200 0//// 2////
BBXX VCLM 02064 99468 70712 46/// /0405 11001 21003 49972 58046 7//// 8//// 22200 0//// 2////
BBXX CGCC 02064 99463 70725 46/// /2015 10036 20033 49957 56032 7//// 8//// 22200 0//// 2////
BBXX VOKJ 02064 99455 70735 46/// /2007 10052 20018 49960 56013 7//// 8//// 22200 0//// 2////
BBXX VCWL 02064 99468 70712 46/// /0510 11010 21013 49975 57046 7//// 8//// 22200 0//// 2////
BBXX CGDX 02064 99468 70712 46/// /0708 11011 21013 49981 56047 7//// 8//// 22200 0//// 2////
BBXX C6SI6 02064 99471 11566 46/// /1612 10007 21044 40221 55001 7//// 8//// 22213 0//// 2////
BBXX CGDR 02064 99500 71252 46/// /1105 10069 20050 40167 56017 7//// 8//// 22272 00107 2////
BBXX VXKF 02064 99468 70597 46/// /3110 10010 20005 40113 56005 7//// 8//// 22213 0//// 2////
BBXX CGTF 02064 99476 70527 46/// /2801 10010 21004 40084 53055 7//// 8//// 22200 0//// 2////
BBXX VAAP 02064 99461 70602 46/// /1902 10001 21005 40119 50001 7//// 8//// 22200 0//// 2////
BBXX 3FZK3 02064 99489 71237 46/// /2503 10023 20016 40184 56016 7//// 8//// 22200 0//// 2////
BBXX CGUM 02064 99460 70599 46/// /2008 10009 20005 40132 53008 7//// 8//// 22200 0//// 2////
BBXX CGBY 02064 99487 71235 46/// /3104 10037 20018 40184 56018 7//// 8//// 22200 0//// 2////
AAXX 02061 78221 NIL
AAXX 02061 78224 31659 10000 10161 20147 30140 40216 58011 70544 81500 333 81640
AAXX 02061 78229 42559 11001 10194 20169 30126 40201 52010 81600 333 81625
AAXX 02061 78239 41559 40504 10237 20210 30195 40198 57020 70500 84800 333 83820
AAXX 02061 78244 NIL
AAXX 02061 78243 42559 40802 10205 20197 30084 40208 57019 84200 333 84820
AAXX 02061 78255 42559 10402 10210 20195 30053 40202 57010 81800 333 81820
AAXX 02061 78264 31559 23503 10213 20180 30105 40180 57010 70500 82100 333 82820
AAXX 02061 78265 41560 20503 10214 20196 30083 40183 57020 70544 82200 333 82820
AAXX 02061 78256 NIL
AAXX 02061 78259 NIL
AAXX 02061 78268 NIL
AAXX 02064 91203 32474 80807 10317 20273 30100 40105 56010 81216 333 56299 70000 81818 83468 88080 555 90206
AAXX 02064 81225 12970 20000 10230 20224 40112 60001 81031 333 56099 59008 81360
AAXX 02064 81200 NIL
AAXX 02064 81202 NIL
AAXX 02064 81209 NIL
AAXX 02064 81251 NIL
AAXX 02061 11423 NIL
AAXX 02061 11487 01985 72202 10068 20053 39505 40124 56011 60002 702// 81048 333 20051 31002 60005 70008 81362 87271
AAXX 02061 11518 02982 81703 10080 20061 39673 40108 57012 60002 8807/ 333 20080 32007 60005 70002 83364 88466
AAXX 02061 11603 01362 81103 10065 20048 39625 40105 56009 69952 702// 84548 333 20040 32004 60005 70011 82706 84617 86068
AAXX 02061 11659 01957 61105 10017 20017 39499 40148 58008 69932 710// 86070 333 20009 32000 60005 70028 86464
AAXX 02061 11723 01228 81702 10008 21001 39866 40172 57006 69912 71054 886// 333 20008 31001 60005 70011 88704
AAXX 02061 11782 NIL
AAXX 02061 89061 379// 01301 10020 21002 39863 49869 57004 70077 333 91002 91104
BBXX A8GH5 02063 99013 70281 41/96 /0510 10240 20214 40130 56010 70066 8//// 22254 04230 20302 305// 40504 80222
AAXX 02061 89061 379// 01301 10020 21002 39863 49869 57004 70077 333 91002 91104
AAXX 02064 91203 32474 80807 10317 20273 30100 40105 56010 81216 333 56299 70000 81818 83468 88080 555 90206
AAXX 02064 60101 11356 71003 10129 20111 40325 53003 69924 72162 872// 333 20091 83706 86816
AAXX 02064 60135 14440 41603 10108 20099 40323 53003 69904 71000 84600 333 20060 30/// 55058 21144 84710
AAXX 02064 60150 32960 01604 10045 20028 39659 40342 55002 333 20042 30001
AAXX 02064 60156 17457 31302 10061 20046 40338 55000 60004 70010 83500 333 20006 83616
AAXX 02064 60230 15957 01101 10051 20003 40335 52006 60004 333 20014
AAXX 02064 60252 32960 00605 10031 20012 40294 58008 333 20021
AAXX 02064 60096 NIL
AAXX 02064 60115 NIL
AAXX 02064 60155 NIL
AAXX 02064 60127 32960 00000 10083 20030 39709 40323 5/001 333 20079 30005
AAXX 02064 60265 32970 03401 11007 21096 38999 48594 55003 333 21007 30105
AAXX 02064 60060 NIL
AAXX 02064 60105 NIL
AAXX 02064 60106 NIL
AAXX 02064 60107 NIL
AAXX 02064 60141 NIL
AAXX 02064 60185 NIL
AAXX 02064 60190 NIL
AAXX 02064 60191 NIL
AAXX 02064 60195 NIL
AAXX 02064 60210 NIL
AAXX 02064 60220 NIL
AAXX 02064 60318 NIL
AAXX 02064 60285 NIL
AAXX 02064 60340 NIL
BBXX VAAZ 02064 99/// ///// 46/// /0112 10006 20003 40087 51047 7//// 8//// 22200 0//// 2////
BBXX CGDS 02064 99429 70792 46/// /3414 10017 21030 40056 50001 7//// 8//// 22200 0//// 2////
BBXX 3FQS8 02064 99539 71540 41396 83427 00/// 11010 21030 49982 54000 70322 88653 22264 00040 20705 334// 40604 5//// 6//// 81010 /////
BBXX 46035 02061 99571 71778 46/// /0709 1//// 40087 52007 90550 22200 10805 20804 300// 41003 70023 333 91212 555 11093 22099 30501 40513 60549 068094 075091 062089 065096 060099 063094 80711 90549
BBXX WDC8227 02063 99571 71545 41/94 81715 1//// 2//// 49910 5//// 771// 8//// 222// 0//// 2//01 3//// 4//// 5//// 6//// 8//// ICE /////
BBXX WDC9175 02063 99551 71615 41/94 03125 1//// 2//// 40080 5//// 8//// 222// 0//// 2//02 3//// 4//// 5//// 6//// 8//// ICE /////
AAXX 0206/ 89329 46/// ///// 11108 38752 4//// 5////
AAXX 0206/ 89828 46/// ///// 11206 36531 4//// 5////
AAXX 02064 89667 46/// /0703 11003 29053 39878 4//// 5////
AAXX 02064 48601 11560 62207 10310 20247 30100 40104 60001 70522 82231 333 82820 86080
AAXX 02064 48615 11456 81202 10251 20242 30111 40117 60211 76166 8452/ 333 82710 83620 88469
AAXX 02064 48620 11564 71804 10318 20230 30093 40102 60001 70522 83232 333 83820 86078
AAXX 02064 48647 11467 71801 10339 20240 30074 40098 60001 70522 83132 333 83819 83364 87078
AAXX 02064 48657 11020 80104 10253 20249 30097 40115 60071 76366 84547 333 82700 83624 88276
AAXX 02064 48665 11566 70304 10322 20244 30099 40109 60001 70522 83232 333 83820 86078
AAXX 02064 96413 12570 73410 10313 20253 30071 40097 69961 84232 333 84820 86080
AAXX 02064 96421 11468 73506 10266 20233 30057 40093 6///1 72582 8597/ 333 81915 84816 87365
AAXX 02064 96441 11468 70306 10300 20251 30059 40086 6///1 72998 85941 333 84814 81915 86365
AAXX 02064 96449 12480 70213 10298 20246 30071 40090 60001 83131 333 83814 84365 85080
AAXX 02064 96465 12478 70312 10299 20254 30061 40094 60001 83878 333 83810 84364 87279
AAXX 02064 96471 11470 70106 10309 20253 30085 40088 60001 70522 82848 333 82815 84364 87278
AAXX 02064 96481 11457 73406 10250 20231 30077 40096 60051 76166 8484/ 333 82710 83627 87468
AAXX 02064 96491 11340 80205 10264 20252 30083 40095 60111 76498 86817 333 83708 84640 88276
AAXX 02061 76040 32902 03201 10134 20034 30217 40231 57007 90540 333 10166 20039 30/// 55093 58053 98602
AAXX 02061 76122 32935 00000 10038 21042 38647 40275 5//// 90550 333 10182 21003 30/// 55095 58060
AAXX 02061 76342 31840 60701 10130 20025 39649 40369 52002 70310 86050 90544 333 10204 20110 30/// 55091 20478 56030 58/// 86358
AAXX 02061 76382 32460 40202 10144 20070 39020 40259 52016 81130 90554 333 10252 20076 30/// 55063 2//// 56550 58085 81810 83356
AAXX 02061 76390 31450 81403 10045 20001 38344 40311 52001 70544 887// 90530 333 10144 20035 30/// 55084 21430 568// 58075 88713
AAXX 02061 76393 31720 70000 10150 20026 39752 40342 57005 70422 885// 90552 333 10246 20140 30/// 55000 565// 58/// 87650
AAXX 02061 76458 32960 03002 10186 20151 30150 40155 52002 90540 333 10255 20112 30/// 55090 59002
AAXX 02061 76525 32250 80809 10075 20061 37536 40208 52004 88500 90540 333 10165 20074 30/// 55094 22532 562// 58034 88706
AAXX 02061 76548 32460 63606 10182 20091 30298 40308 52018 8543/ 90545 333 10272 20178 30/// 55027 56150 58102 85611
AAXX 02061 76556 32960 00000 10182 20141 39148 40146 52011 90530 333 10298 20130 30/// 55091 58017
AAXX 02061 76577 32560 23606 10127 20103 38101 40197 52006 82600 90540 333 10230 20110 30/// 55047 56100 58034 82623
AAXX 02061 76593 32950 00506 10240 20229 30227 40229 52001 90550 333 10292 20210 30/// 55093 21240 58/// 91009 91505
AAXX 02061 76644 32950 00502 10228 20208 30219 40235 52007 90550 333 10325 20208 30/// 55082 21005 58034
AAXX 02061 76654 31956 00000 10239 20218 30172 40176 52018 70544 90550 333 10289 20222 30/// 55080 20934 58012
AAXX 02061 76685 32950 00000 10106 20056 37928 40178 52018 90550 333 10222 20060 30/// 55076 58033
AAXX 02061 76750 01558 70202 10227 20221 30197 40207 52001 60021 75051 84230 90545 333 10318 20204 32/// 55045 56110 58024 69917 84820 83357
AAXX 02061 76845 32330 60401 10114 20098 37991 40205 50001 86700 90545 333 10194 20108 30/// 55079 56200 58021 86707
AAXX 02061 76848 32450 60201 10147 20112 38417 40132 58002 8463/ 90551 333 10210 20142 30/// 55067 56199 58011 84614
AAXX 02061 76311 32955 00000 10150 20081 39892 40162 51014 90550 333 10372 20086 30/// 55085 58012
AAXX 02061 76040 32902 03201 10134 20034 30217 40231 57007 90540 33310166 20039 30/// 55093 58053 98602
AAXX 02061 76122 32935 00000 10038 21042 38647 40275 5//// 90550 33310182 21003 30/// 55095 58060
AAXX 02061 76342 31840 60701 10130 20025 39649 40369 52002 70310 8605090544 333 10204 20110 30/// 55091 20478 56030 58/// 86358
AAXX 02061 76382 32460 40202 10144 20070 39020 40259 52016 81130 90554333 10252 20076 30/// 55063 2//// 56550 58085 81810 83356
AAXX 02061 76390 31450 81403 10045 20001 38344 40311 52001 70544 887//90530 333 10144 20035 30/// 55084 21430 568// 58075 88713
AAXX 02061 76393 31720 70000 10150 20026 39752 40342 57005 70422 885//90552 333 10246 20140 30/// 55000 565// 58/// 87650
AAXX 02061 76458 32960 03002 10186 20151 30150 40155 52002 90540 33310255 20112 30/// 55090 59002
AAXX 02061 76525 32250 80809 10075 20061 37536 40208 52004 88500 90540333 10165 20074 30/// 55094 22532 562// 58034 88706
AAXX 02061 76548 32460 63606 10182 20091 30298 40308 52018 8543/ 90545333 10272 20178 30/// 55027 56150 58102 85611
AAXX 02061 76556 32960 00000 10182 20141 39148 40146 52011 90530 33310298 20130 30/// 55091 58017
AAXX 02061 76577 32560 23606 10127 20103 38101 40197 52006 82600 90540333 10230 20110 30/// 55047 56100 58034 82623
AAXX 02061 76593 32950 00506 10240 20229 30227 40229 52001 90550 33310292 20210 30/// 55093 21240 58/// 91009 91505
AAXX 02061 76644 32950 00502 10228 20208 30219 40235 52007 90550 33310325 20208 30/// 55082 21005 58034
AAXX 02061 76654 31956 00000 10239 20218 30172 40176 52018 70544 90550333 10289 20222 30/// 55080 20934 58012
AAXX 02061 76685 32950 00000 10106 20056 37928 40178 52018 90550 33310222 20060 30/// 55076 58033
AAXX 02061 76750 01558 70202 10227 20221 30197 40207 52001 60021 7505184230 90545 333 10318 20204 32/// 55045 56110 58024 6991784820 83357
AAXX 02061 76845 32330 60401 10114 20098 37991 40205 50001 86700 90545333 10194 20108 30/// 55079 56200 58021 86707
AAXX 02061 76848 32450 60201 10147 20112 38417 40132 58002 8463/ 90551333 10210 20142 30/// 55067 56199 58011 84614
AAXX 02061 76311 32955 00000 10150 20081 39892 40162 51014 90550 33310372 20086 30/// 55085 58012
AAXX 02061 76040 32902 03201 10134 20034 30217 40231 57007 90540 333 10166 20039 30/// 55093 58053 98602
AAXX 02061 76122 32935 00000 10038 21042 38647 40275 5//// 90550 333 10182 21003 30/// 55095 58060
AAXX 02061 76342 31840 60701 10130 20025 39649 40369 52002 70310 86050 90544 333 10204 20110 30/// 55091 20478 56030 58/// 86358
AAXX 02061 76382 32460 40202 10144 20070 39020 40259 52016 81130 90554 333 10252 20076 30/// 55063 2//// 56550 58085 81810 83356
AAXX 02061 76390 31450 81403 10045 20001 38344 40311 52001 70544 887// 90530 333 10144 20035 30/// 55084 21430 568// 58075 88713
AAXX 02061 76393 31720 70000 10150 20026 39752 40342 57005 70422 885// 90552 333 10246 20140 30/// 55000 565// 58/// 87650
AAXX 02061 76458 32960 03002 10186 20151 30150 40155 52002 90540 333 10255 20112 30/// 55090 59002
AAXX 02061 76525 32250 80809 10075 20061 37536 40208 52004 88500 90540 333 10165 20074 30/// 55094 22532 562// 58034 88706
AAXX 02061 76548 32460 63606 10182 20091 30298 40308 52018 8543/ 90545 333 10272 20178 30/// 55027 56150 58102 85611
AAXX 02061 76556 32960 00000 10182 20141 39148 40146 52011 90530 333 10298 20130 30/// 55091 58017
AAXX 02061 76577 32560 23606 10127 20103 38101 40197 52006 82600 90540 333 10230 20110 30/// 55047 56100 58034 82623
AAXX 02061 76593 32950 00506 10240 20229 30227 40229 52001 90550 333 10292 20210 30/// 55093 21240 58/// 91009 91505
AAXX 02061 76644 32950 00502 10228 20208 30219 40235 52007 90550 333 10325 20208 30/// 55082 21005 58034
AAXX 02061 76654 31956 00000 10239 20218 30172 40176 52018 70544 90550 333 10289 20222 30/// 55080 20934 58012
AAXX 02061 76685 32950 00000 10106 20056 37928 40178 52018 90550 333 10222 20060 30/// 55076 58033
AAXX 02061 76750 01558 70202 10227 20221 30197 40207 52001 60021 75051 84230 90545 333 10318 20204 32/// 55045 56110 58024 69917 84820 83357
AAXX 02061 76845 32330 60401 10114 20098 37991 40205 50001 86700 90545 333 10194 20108 30/// 55079 56200 58021 86707
AAXX 02061 76848 32450 60201 10147 20112 38417 40132 58002 8463/ 90551 333 10210 20142 30/// 55067 56199 58011 84614
AAXX 02061 76311 32955 00000 10150 20081 39892 40162 51014 90550 333 10372 20086 30/// 55085 58012
AAXX 02064 91317 32474 80908 10300 20278 30070 40074 5//// 82201 333 562/9 70000 82818 88080 555 90206
AAXX 02064 78948 11574 20918 10254 20226 30132 40140 60021 70581 82800 333 02200 10297 20246 59015 70022 90916
AAXX 02064 86033 NIL
AAXX 02064 86086 32970 01803 10238 20139 39980 40070 52007
AAXX 02064 86097 32970 02305 10200 20150 39434 40078 57008
AAXX 02064 86134 32970 01403 10228 20200 39976 40063 54000
AAXX 02064 86170 NIL
AAXX 02064 86192 NIL
AAXX 02064 86210 NIL
AAXX 02064 86218 32970 21908 10216 20174 39971 40067 57014 80001 333 82070
AAXX 02064 86233 32970 01804 10208 20176 39902 40093 54000
AAXX 02064 86246 32970 01905 10200 20165 39769 40055 56010
AAXX 02064 86255 NIL
AAXX 02064 86260 32970 01004 10210 20180 39918 40070 52004
AAXX 02064 86268 NIL
AAXX 02064 86297 NIL
AAXX 02064 86221 32970 01802 10202 20180 39961 40097 56003
AAXX 02063 91502 31462 82705 10285 20234 40078 53012 71622 879// 333 56699 83816 81917 87629
AAXX 02063 91507 01475 72503 10292 20249 40070 55000 60041 71552 83956 333 56799 69907 82817 81918 84361 86280
AAXX 02063 91520 31470 80903 10285 20257 40068 53005 71522 84937 333 56199 83817 81920 84360 86280
AAXX 02063 91541 11475 63205 10290 20247 40077 57003 69981 71522 83970 333 56600 82817 81918 86361
AAXX 02063 91502 31462 82705 10285 20234 40078 53012 71622 879// 333 56699 83816 81917 87629
AAXX 02063 91507 01475 72503 10292 20249 40070 55000 60041 71552 83956 333 56799 69907 82817 81918 84361 86280
AAXX 02063 91520 31470 80903 10285 20257 40068 53005 71522 84937 333 56199 83817 81920 84360 86280
AAXX 02063 91541 11475 63205 10290 20247 40077 57003 69981 71522 83970 333 56600 82817 81918 86361
AAXX 02061 45032 36/// /0701 10182 20102 30177 40194 57001
AAXX 02061 45035 36/// /0602 10198 20114 30148 40190 57003
AAXX 02061 45039 36/// /3302 10168 20104 30177 40193 57001
AAXX 02061 45044 36/// /1209 10185 20106 30098 40191 54000
AAXX 02061 45032 36/// /0701 10182 20102 30177 40194 57001
AAXX 02061 45035 36/// /0602 10198 20114 30148 40190 57003
AAXX 02061 45039 36/// /3302 10168 20104 30177 40193 57001
AAXX 02061 45044 36/// /1209 10185 20106 30098 40191 54000
AAXX 02064 78948 11574 20918 10254 20226 30132 40140 60021 70581 82800 333 02200 10297 20246 59015 70022 90916
AAXX 02064 91317 32474 80908 10300 20278 30070 40074 5//// 82201 333 562/9 70000 82818 88080 555 90206
AAXX 02064 71805 04486 80208 10011 21005 30113 40122 53044 60022 700// 333 10032 20010 3/000 55000 60007 70184 90710 91113 555 60005
AAXX 02064 16021 12960 31209 10004 21069 37987 48505 56010 60002 80001 333 20010 43010 55/// 2//// 92852
AAXX 02064 16022 11/00 92019 11008 21008 37854 48494 57013 60002 74941 333 21008 43012 55047 2//// 89/00 92832
AAXX 02064 16033 11/03 92602 11006 21020 38791 48494 57009 60002 74742 333 21020 47026 55/// 2//// 89/02 92802
AAXX 02064 16040 13765 82807 10008 21024 39278 42802 5//// 60002 8802/ 333 20000 43007 55/// 2//// 88456 92832
AAXX 02064 16052 12560 72120 11082 21115 36606 47036 57017 60002 87080 333 21082 49999 55029 23198 87320 444 26245
AAXX 02064 16061 11/01 93603 10028 20028 39372 42816 58014 69902 74554 333 20028 31/// 55052 2//// 89/01 90046
AAXX 02064 16098 NIL
AAXX 02064 16138 11925 62202 10014 20008 30222 40233 56010 60002 710// 86030 333 21014 32/// 55/// 2//// 86359
AAXX 02064 16148 11656 82703 10022 20010 30224 40236 56005 60002 71011 885// 333 20003 30/// 55070 2//// 55300 88640
AAXX 02064 16168 11/00 91512 10100 20100 39473 42829 57007 60012 74564 333 20088 32/// 89/00
AAXX 02064 16172 11540 80000 10042 20032 39950 40258 56008 69902 76162 885// 333 20000 31/// 55/// 2//// 88624
AAXX 02064 16179 12581 60705 10080 20071 39543 42830 56007 60002 85270 333 20074 30/// 85827 83357
AAXX 02064 16224 11460 81508 10078 20056 39913 40237 55007 69962 70252 885// 333 20074 32/// 55008 2//// 83612 86630
AAXX 02064 16232 12998 01502 10070 20015 30182 40236 56001 60002 333 20058 30/// 55077 2//// 555 0////
AAXX 02064 16245 NIL
AAXX 02064 16253 11557 70502 10054 20024 30250 40263 56001 60002 71011 83230 333 20038 30/// 55080 20817 83820 85357
AAXX 02064 16258 12962 02404 10050 21010 39234 42834 56006 60002 333 20040 30/// 55/// 2////
AAXX 02064 16263 NIL
AAXX 02064 16294 42697 89901 10124 20083 30060 40255 54002 6///2 8850/ 333 20106 30/// 55/// 2//// 88640 555 0////
AAXX 02064 16337 12998 00000 10070 20048 39669 40252 55001 60002 333 20062 30/// 55/// 2//// 555 0216/
AAXX 02064 16344 12970 00000 10044 21008 38367 48548 54000 60002 333 20020 43048 55090 21433 95000 95100
AAXX 02064 16434 13480 12004 10062 20051 39050 48545 55001 60002 81500 333 20058 31/// 55/// 2//// 81616 95000 95100
AAXX 02064 16450 NIL
AAXX 02064 16459 12978 03102 10030 20027 30230 40267 53006 60002 333 20018 30///
AAXX 02064 16546 11104 33202 10054 20036 30221 40250 56010 60002 74641 83600 333 20048 30/// 55/// 2//// 83702
AAXX 02064 16564 12998 02412 10144 20110 30104 40246 55001 60002 333 20134 30/// 55/// 2//// 555 0////
AAXX 02064 13600 12965 00904 10005 21034 30216 40271 54000 60002 333 21010 34///
AAXX 02064 13610 12960 00000 10010 21004 39839 40280 52014 60002 333 20005 34///
AAXX 02064 13611 12965 03104 10056 21002 30150 40243 52007 60002 333 20040 30///
AAXX 02064 13619 12965 00000 11042 21062 39493 42861 54003 60002 333 21074 34///
AAXX 02064 13622 12965 00000 10020 21033 30247 40255 54000 60002 333 20012 30///
AAXX 02064 13624 12965 01406 10008 21061 30215 40256 54000 60002 333 21027 34///
AAXX 02064 13625 12960 00000 11040 21062 30029 40275 52012 60002 333 21045 34///
AAXX 02064 13629 12962 01406 11064 21084 39177 42827 53008 60002 333 21080 47004
AAXX 02064 13601 12965 00000 10002 21034 30132 40237 51005 60002 333 20000 33///
AAXX 02064 13602 NIL
AAXX 02064 13623 12970 00000 10012 21010 30252 40259 54000 60002 333 20010 30///
AAXX 02061 06407 12568 72204 10073 20052 30050 40057 53004 60092 878// 333 20073 32007 81820 86645 91111 91208
AAXX 02061 06447 NIL
AAXX 02064 16008 11110 81808 11020 21043 38538 48496 57010 60002 71011 886// 333 21022 43028 55/// 2//// 88703 92850
AAXX 02064 16084 11658 72201 10020 20004 30059 40232 57005 69902 72052 84530 333 21018 31/// 55056 20455 84640 84356
AAXX 02064 16088 11540 71702 10044 20037 30112 40233 58009 60002 71022 83530 333 21002 30/// 55/// 2//// 83630 84358
AAXX 02064 16110 NIL
AAXX 02064 16134 11/00 91920 10004 21003 37828 48509 56011 60002 74741 333 20004 44020 55070 2//// 89/00 92855 95090 95190
AAXX 02064 16153 12497 82309 10108 20097 39950 40216 58011 60002 888// 333 20106 30/// 55018 2//// 83810 85620 555 0////
AAXX 02064 16158 12560 81206 10076 20054 30218 40225 56013 60002 8880/ 333 20040 30/// 55/// 2//// 83820 85650
AAXX 02064 16206 NIL
AAXX 02064 16219 NIL
AAXX 02064 16252 12970 02103 10064 20032 39291 42843 58002 60002 333 20050 30/// 55087 2//// 95000
AAXX 02064 16280 12497 81905 10122 20106 30022 40246 55005 60002 8357/ 333 20110 31/// 55014 2//// 83615 86356 555 0////
AAXX 02064 16310 12998 00000 10086 20059 30021 40247 58007 60002 333 20080 30/// 55084 2//// 555 0100/
AAXX 02064 16320 12960 02310 10052 20045 30242 40255 54000 60002 333 20046 31101 55080 2//// 55300 555 0215/
AAXX 02064 16325 12998 02909 10030 20011 30228 40243 56009 60002 333 20030 30/// 55/// 2//// 98075 555 0000/
AAXX 02064 16360 12998 03409 10086 20034 30112 40250 53004 60002 333 20066 30/// 55087 2//// 555 0118/
AAXX 02064 16400 12997 02308 10114 20077 39968 40262 55002 60002 333 20114 30/// 55066 2//// 55300 555 0215/
AAXX 02064 16420 12997 00000 10098 20071 30194 40261 53002 60002 333 20098 30/// 55080 2//// 555 0100/
AAXX 02064 16429 12462 81201 10118 20115 30244 40255 54000 60002 8583/ 333 20086 32/// 55063 2//// 55300 83818 85650 85357
AAXX 02064 16470 12560 63600 10142 20114 30022 40259 54000 60002 82100 333 20134 31001 41001 55000 2???? 55300 22/// 82720 85830 95010
AAXX 02064 16480 12997 00104 10102 20091 30190 40253 53000 60002 333 20102 30/// 55088 2//// 55300 555 0200/
AAXX 02064 16522 12497 42114 10140 20119 39987 40231 57008 60002 84200 333 20140 31/// 55002 2//// 55300 84815 555 0////
AAXX 02064 16539 12498 30000 10098 20086 30133 40250 56005 69922 83800 333 20098 31/// 55/// 2//// 81815 555 0////
AAXX 02064 16550 NIL
AAXX 02061 06431 NIL
AAXX 02061 06432 NIL
AAXX 02061 06449 11460 82804 10067 20056 39843 40070 53004 60082 76166 875// 333 20067 32006 81712 84725 86636 91111 91208
AAXX 02061 06450 11575 42006 10080 20052 30036 40051 50001 60072 72161 84531 333 20078 32007 81622 83640 91111 91207
AAXX 02061 06458 NIL
AAXX 02061 06465 NIL
AAXX 02061 06478 11461 82304 10079 20068 39842 40060 56005 60042 76166 877// 333 20079 32008 82714 86636 91113 91209
AAXX 02061 06496 NIL
AAXX 02061 06400 11574 72304 10075 20063 30049 40060 53004 60112 70182 83831 333 20074 31008 81820 83650 87070 91111 91208
AAXX 02061 06428 NIL
AAXX 02061 06451 11559 82603 10072 20057 39998 40065 53009 60072 76162 875// 333 20072 32007 81621 86633 91112 91208
AAXX 02061 06456 11465 82906 10075 20066 39704 40068 55003 60112 76165 875// 333 20075 32007 84711 87629 91111 91208
AAXX 02061 06476 17006 82502 10059 20056 39410 40068 55009 60092 76251 333 20058 3/006 88/01 91115 91208
AAXX 02061 06479 31660 72404 10084 20067 39979 40055 53005 6//// 76162 875// 333 2//// 3//// 81640 87646 91110 91207
AAXX 02061 06490 17160 82703 10063 20053 39499 40064 56010 60052 76266 333 20063 3/006 86/03 88/04 91114 91209
AAXX 02061 06590 11265 82404 10079 20076 39621 40068 58012 60092 76166 877// 333 20079 31008 84705 87709 91115 91209
AAXX 02061 11867 11430 71901 11002 21013 39869 40195 57010 60012 71062 82774 333 21002 3/101 70014 82710 87358
AAXX 02064 16045 NIL
AAXX 02064 16090 11658 81803 10040 20037 30145 40231 58010 60002 71022 885// 333 20010 30/// 55067 20584 85640 84656
AAXX 02064 16149 12960 62302 10010 21008 30217 40233 58008 60002 86070 333 21024 30/// 55/// 2//// 86360
AAXX 02064 16261 12962 00903 10034 20006 30166 40241 54000 60002 333 20034 30/// 55/// 20604 55300
AAXX 02064 16453 11997 20402 10112 20059 30179 40259 53003 60002 702// 82040 333 20098 30/// 55089 2//// 55300 82359 555 0100/
AAXX 02064 16560 11150 23005 10064 20033 30242 40249 56010 60002 71041 82600 333 20064 31006 55050 20612 82702
BBXX DBLK 02061 99399 30120 41497 52817 10154 20118 40010 52008 70262 84480 22213 04153 20809 323// 41005
AAXX 02061 01047 11688 81810 11071 21099 39687 40065 52001 69912 7//73 8802/ 333 21092 48037 70001
AAXX 02061 11518 02982 81703 10080 20061 39673 40108 57012 60002 8807/ 333 20080 31007 60005 70002 83364 88466
AAXX 02061 11423 01130 62404 10054 20053 39235 42734 56015 69922 728// 86500 333 20054 3/004 41998 60005 70017 83703 85606 91111
AAXX 02064 61968 16/// /2806 10303 20237 40118 60004 333 20276 55/// 59010 90710 91110 555 60005
AAXX 02064 61970 16/// ///// 10310 20258 40111 60004 333 20283 55/// 59009 555 60005
AAXX 02064 61976 16/// /1007 10309 20220 40118 60004 333 20261 55/// 59007 90710 91111 555 60005
AAXX 02064 61980 12562 30510 10286 20242 40126 60014 82832 333 02119 20234 55069 59002 82825 90710 91113 92427 555 60005
AAXX 02064 67005 12570 33214 10304 20233 40119 60004 82231 333 02700 20281 55099 59008 82822 90710 91122 555 60005
BBXX 44040 02061 99410 70736 46/// /2506 10093 20074 40053 90545 22200 1//00 70002 333 91209 555 11082 22098
AAXX 02064 78862 11476 50715 10256 20209 30141 40164 69911 70581 85200 333 10281 20241 59016 79911 85816
AAXX 02064 TAF TKPN 011000Z 0112/0212 07014KT 9999 SCT022 PROB40 TEMPO 0112/0212 07014G24KT SHRA BKN015 BKN038
AAXX 02064 TAF TQPF 011000Z 0112/0212 07014KT 9999 SCT022 PROB40 TEMPO 0112/0212 07014G24KT SHRA BKN015 BKN038
AAXX 02064 TAF TUPJ 011000Z 0112/0212 07014KT 9999 SCT022 PROB40 TEMPO 0112/0212 07014G24KT SHRA BKN015 BKN038
AAXX 02064 2400/2424 07016KT 9999 SCT020 SCT040 PROB40 TEMPO 2400/2412 07018G28KT SHRA TEMPO 2412/2424 07016G26KT SHRA
AAXX 02064 TAF TUPJ 041000Z 04012/0512 07008KT 9999 SCT016 BKN038 SCT270 TEMPO 0412/0512 SHRA BKN015 PROB40 TEMPO 0418/0512 5000 SHRA BKN014 BKN036 PROB30 0420/0512 4000 TSRA FEW012CB
AAXX 02064 918 4000 TSRA FEW012CB
AAXX 02064 N015 BKN036 PROB40 TEMPO 0704/0724 3000 +TSRA SCT011CB BKN012 BECMG 0712/0714 14008KT
AAXX 02064 21/2712 07017G28KT 5000 SHRA BKN015 BKN036 PROB TEMPO 2700/2712 4000 TSRA FEW013CB
AAXX 02064 PROB30 TEMPO 0800/0806 4000 TSRA FEW012CB PROB40 TEMPO 0800/0824 2000 +SHRA/TSRA SCT010CB BKN012 BKN250
AAXX 02061 06206 46474 4//09 10077 20031 39955 40008 51013 8//// 333 20077 82/18 83/21 91010 91111 91209
AAXX 02061 06207 47464 82609 10061 20037 39952 40005 53008 70280 8//// 333 20061 82/11 88/69 91010 91112 91211
AAXX 02061 06239 45571 3//11 10075 20029 39917 49978 53008 8//// 333 20074 83/20 83/24 91013 91116 91213
AAXX 02061 06252 46/// /2709 10073 20040 39973 40019 53010 222// 00086 10503 333 20073 91011 91113 91211
AAXX 02061 06260 17464 72504 10088 20067 30035 40037 53006 60092 70286 8//// 333 20088 3/008 70121 81/14 87/57 91007 91108 91205
AAXX 02061 06270 17468 82403 10068 20057 30017 40017 53007 60212 70386 8//// 333 20068 3/006 70223 82/19 88/65 91004 91110 91207
AAXX 02061 06290 16363 72303 10089 20083 39990 40030 56002 60082 8//// 333 20089 3/009 70113 82/07 83/09 87/50 91004 91110 91207
AAXX 02064 17600 11570 70204 10119 20093 30158 40168 53020 60032 72511 878// 333 10165 20105 31008 50351 55033 70078 83825 85650 92428
AAXX 02064 17601 11682 63101 10107 20078 30130 40162 53017 69942 70381 81833 90550 333 20092 31004 70036 81830 86358
AAXX 02064 17607 11580 52402 10086 20082 39979 40173 52/// 60034 703// 83880 333 20077 70031 82825 83650
AAXX 02064 17609 12580 43204 10112 20089 30167 40171 53020 60002 82880 333 10112 20075 31004 50201 55029 70016 81830 83360
AAXX 02063 91551 NIL
AAXX 02063 91553 NIL
AAXX 02063 91554 11498 80000 10270 20256 40063 53006 60081 78082 888// 333 569// 60081 84818 88640
AAXX 02063 91555 31598 82307 10277 20263 40064 53008 70222 8387/ 333 5699/ 83825 88461
AAXX 02063 91557 31598 89903 10306 20236 40061 53004 70522 8327/ 333 5699/ 83820 88461
AAXX 02063 91565 31598 70208 10290 20248 40050 53012 70522 83907 333 568/9 83825 81928 87280
AAXX 02063 91568 31598 70708 10285 20257 40067 53010 70522 84802 333 562/9 84825 87080
AAXX 02061 06201 45570 42509 10071 20031 39939 49991 51008 8//// 333 20070 81/23 84/64 91010 91114 91211
AAXX 02061 06203 45461 82609 10085 20043 39980 40031 51012 8//// 333 20085 82/18 88/70 91010 91113 91211
AAXX 02061 06204 45475 72711 10076 20041 39966 40017 53009 8//// 333 20076 82/15 85/18 87/73 91013 91115 91213
AAXX 02061 06205 45570 22412 10072 20022 39909 49967 51011 8//// 333 20072 82/21 91014 91114 91212
AAXX 02061 06208 47964 82505 10073 20059 39965 40014 53008 70385 8//// 333 20073 88/65 91006 91109 91208
AAXX 02061 06211 45973 22510 10070 20032 39947 40002 51008 8//// 333 20070 82/63 91011 91114 91212
AAXX 02061 06212 47480 72609 1//// 2//// 39958 40021 53008 70286 8//// 333 2//// 82/15 84/18 85/24 91010 91113 91211
AAXX 02061 06235 17971 72605 10072 20053 30023 40023 52009 60102 70280 8//// 333 20072 3/007 70161 87/66 91007 91111 91208
AAXX 02061 06240 15967 82605 10079 20060 30037 40032 53007 60052 8//// 333 20079 3/007 70110 85/60 88/64 91007 91112 91208
AAXX 02061 06251 15467 82605 10067 20054 30014 40015 53009 60082 8//// 333 20067 3/006 70081 82/16 88/67 91007 91111 91208
AAXX 02061 06258 46/// /2405 333 91006 91112 91209
AAXX 02061 06269 17467 82404 10085 20071 30036 40030 53008 60112 70380 8//// 333 20085 3/008 70162 82/13 84/15 86/20 91005 91111 91207
AAXX 02061 06280 17971 82404 10075 20066 30013 40017 52006 60252 70285 8//// 333 20073 3/007 70278 88/61 91005 91110 91207
AAXX 02061 06310 17963 72606 10078 20069 30040 40050 53006 60072 70185 8//// 333 20078 3/007 70086 82/62 87/66 91007 91111 91209
AAXX 02061 06344 15968 72604 10083 20058 30047 40041 53008 60112 8//// 333 20083 3/008 70174 87/64 91006 91112 91208
AAXX 02061 06370 17680 62204 10075 20066 30024 40049 53007 60142 75785 8//// 333 20075 3/007 70188 81/39 84/47 86/50 91006 91110 91207
AAXX 02061 06380 17564 82702 10069 20062 39924 40062 53002 60082 76165 8//// 333 20069 3/007 70094 82/28 88/31 91005 91111 91207
AAXX 02063 91551 NIL
AAXX 02063 91553 NIL
AAXX 02063 91554 11498 80000 10270 20256 40063 53006 60081 78082 888// 333 569// 60081 84818 88640
AAXX 02063 91555 31598 82307 10277 20263 40064 53008 70222 8387/ 333 5699/ 83825 88461
AAXX 02063 91557 31598 89903 10306 20236 40061 53004 70522 8327/ 333 5699/ 83820 88461
AAXX 02063 91565 31598 70208 10290 20248 40050 53012 70522 83907 333 568/9 83825 81928 87280
AAXX 02063 91568 31598 70708 10285 20257 40067 53010 70522 84802 333 562/9 84825 87080
AAXX 02064 91573 06/// /1104 10256 2//// 39973 4//// 53003 60001 333 58007 60007
AAXX 02064 91579 06/// /1308 10238 20233 30058 40066 53013 60391 333 59003 60397
AAXX 02064 91582 04257 81316 10239 20232 30027 40061 53004 6///2 762// 333 1//// 2//// 55/// 60047 7//// 90710 91125 555 60015
AAXX 02064 91583 06/// /1202 10263 20238 30046 40061 53001 60001 333 59009 60007
AAXX 02064 91587 06/// /1410 10231 20224 30028 40073 53014 60551 333 59006 60377
AAXX 02064 91590 04486 81406 10239 20222 30036 40078 55000 60192 700// 333 10244 20214 55000 60017 70340 90710 91116 555 60005
AAXX 02064 91592 06/// /1013 10232 20222 39998 40083 55000 60121 333 59004 60037
AAXX 02064 91596 06/// /1208 10224 20214 39976 40085 55003 60151 333 59001 60057
AAXX 02064 91577 NIL
AAXX 02064 48601 11560 62207 10310 20247 30100 40104 60001 70522 82231 333 82820 86080
AAXX 02064 48615 11456 81202 10251 20242 30111 40117 60211 76166 8452/ 333 82710 83620 88469
AAXX 02064 48620 11564 71804 10318 20230 30093 40102 60001 70522 83232 333 83820 86078
AAXX 02064 48647 11467 71801 10339 20240 30074 40098 60001 70522 83132 333 83819 83364 87078
AAXX 02064 48650 11460 71303 10323 20241 30083 40101 60001 70522 83242 333 83818 87077
AAXX 02064 48657 11020 80104 10253 20249 30097 40115 60071 76366 84547 333 82700 83624 88276
AAXX 02064 48665 11566 70304 10322 20244 30099 40109 60001 70522 83232 333 83820 86078
AAXX 02064 96413 12570 73410 10313 20253 30071 40097 69961 84232 333 84820 86080
AAXX 02064 96421 11468 73506 10266 20233 30057 40093 6///1 72582 8597/ 333 81915 84816 87365
AAXX 02064 96441 11468 70306 10300 20251 30059 40086 6///1 72998 85941 333 84814 81915 86365
AAXX 02064 96449 12480 70213 10298 20246 30071 40090 60001 83131 333 83814 84365 85080
AAXX 02064 96465 12478 70312 10299 20254 30061 40094 60001 83878 333 83810 84364 87279
AAXX 02064 96471 11470 70106 10309 20253 30085 40088 60001 70522 82848 333 82815 84364 87278
AAXX 02064 96481 11457 73406 10250 20231 30077 40096 60051 76166 8484/ 333 82710 83627 87468
AAXX 02064 96491 11340 80205 10264 20252 30083 40095 60111 76498 86817 333 83708 84640 88276
AAXX 02064 91574 46/// ///// 29083 30167 40173 50016
AAXX 02064 91570 NIL
AAXX 02064 91598 NIL
BBXX DBBC 02061 99535 10100 46/// /2504 10091 20075 40014 52014 22220 00057
BBXX DBCK 02061 99/// ///// 46/// ///// 10085 20085 40009 52008 22220 00060
BBXX DBEA 0/061 99540 10082 46/// /2408 10071 20064 40002 52014 22270 00064
BBXX DBJM 02061 99540 10085 46/// /2308 10068 20060 40003 52010 22200 00061
BBXX DBBA 02061 99/// ///// 46/// ///// 10098 20080 49998 52020 22220 00055
BBXX DBND 02061 99536 10086 42/// /2304 10083 20083 40008 52008 22260 0007/
BBXX DBKR 02061 99541 10121 46/// /2505 10093 20093 49998 52021 22200 00055
BBXX 41101 02064 99146 70562 46/// /0822 10261 20216 40136 57020 22200 00267 10806 70030 555 1/029
BBXX DBBI 02061 99535 10100 46/// /2605 10091 20091 40012 52012 22270 00055
BBXX DBFH 02061 99535 10086 46/// /2103 10084 20078 40015 52008 22210 00061
BBXX 61001 02064 99434 10078 46/// /2304 10132 20109 40202 57012 22200 00136 10601 70007
BBXX 42362 02061 99278 70907 46/// /3617 10183 20067 40278 52003 90600
BBXX 42363 02061 99282 70892 46/// /0117 10189 20078 40268 50000 90600 333 91217
BBXX 42364 02061 99291 70881 46/// /3516 10161 20061 40264 51006 90600
BBXX 41010 02061 99289 70785 46/// /2108 10226 40198 58025 90550 22200 00237 10902 20301 300// 40901 70008 333 91209 555 11081 22085
BBXX 41009 02061 99285 70802 46/// /2606 10214 20156 40208 58023 90550 22200 00234 10801 20301 300// 40801 70004 333 91207 555 11064 22067
BBXX 42057 02061 99168 70815 46/// /0409 10271 20225 40172 58009 90550 22200 00275 10904 20704 3//// 40902 70021 333 91210 555 11091 22096 30507 40511 60549 045092 050093 052091 052090 053093 047089 80510 90502
BBXX 41046 02061 99238 70683 46/// /1106 10248 20204 40205 56014 90550 22200 00253 11004 20502 300// 41003 70020 333 91207 555 11065 22068 30453 41108 60549 112061 113063 115065 110067 110069 111069 81108 90513
BBXX 44011 02061 99411 70666 46/// /1705 10099 20082 40115 56029 90550 22200 00090 10803 20402 3//// 40803 70016 333 91207 555 11057 22064 30522 43309 60549 167054 159065 155071 152073 146070 149068
AAXX 02061 03951 17557 /2612 10059 20025 30014 40040 50008 60012 71081 84/// 333 20045 3/003 83/27 84/57 90710 91123
AAXX 02061 03953 11470 32409 10057 20000 30001 40038 53009 60022 72581 83300 333 20033 31000 55023 81919 92457 90710 91118
AAXX 02061 03955 11480 62404 10014 20005 39841 40041 53008 69982 72681 8493/ 333 20003 31102 55027 82916 83637 92600 96485
AAXX 02061 03956 15982 /2607 10021 21005 39947 40025 50010 60002 80/// 333 20017 3/100 81/70
AAXX 02061 03962 11570 12507 10040 20007 39987 40011 53004 60032 72581 81300 333 20028 3/000 55030 81920
AAXX 02061 03963 17565 /2615 10056 20016 39950 49978 52008 69972 78185 84/// 333 20036 3/002 84/26 86/74 90710 91125 91218
AAXX 02061 03966 17580 /2506 10017 20002 39913 40007 53011 60022 7808/ 85/// 333 20009 3/101 81/28 83/44 85/56
AAXX 02061 03967 11480 12309 10014 21002 39879 49994 53003 69972 70181 81500 333 20014 31101 55006 81717
AAXX 02061 03969 11580 32308 10016 20003 39890 49995 52005 60022 72682 83800 333 20013 31100 55042 81820 83640
AAXX 02061 03973 11580 12104 10007 20001 39715 49972 52005 60022 70281 81300 333 20003 3/101 41097 55010 81920
AAXX 02061 03976 11578 12410 10046 20016 39938 49950 52004 60022 72581 81900 333 20037 31001 55018 81920 96487 90710 91122
AAXX 02061 03980 17469 /2214 10032 20020 39893 49918 54000 60062 78186 85/// 333 20017 3/000 85/15 90710 91118
BBXX 46089 02061 99459 71258 46/// /1509 10106 20067 40133 58006 90550 22200 00093 10905 20703 323// 40904 70025 333 91211 555 11100 22109 30517 41411 60549 149091 149093 148092 148096 145095 145095
AAXX 02061 01307 46/// /1808 10063 20036 39825 49852 57005 333 20054 91116
AAXX 02061 01321 16/// /2501 10014 20010 39609 49859 55006 69972 333 20007 70038 91107
AAXX 02061 01495 16/// /3402 10047 20037 39890 49903 56011 60082 333 20046 70135 91111
AAXX 02061 01366 46/// /1404 11051 21064 38284 49884 57008 333 21052 91108
AAXX 02061 01385 16/// /0401 10006 20001 39643 49913 57011 60002 333 21007 70041 91104
AAXX 02061 01089 16/// /1604 11065 21073 30039 40150 52003 6//// 333 21070 91111
BBXX 51101 02061 99243 71621 46/// /2104 10230 20172 40173 51015 90550 22200 00240 11405 20301 334// 41405 70025 333 91205 555 11036 22038 30458 42006 60549 204035 198039 198038 205037 204036 204037
BBXX 46061 02061 99602 71468 46/// /3112 11017 49760 53004 90550 22200 00053 11306 20403 300// 41305 70029 333 91216 555 11124 22130 30502 43319 60549 310116 310115 315120 324134 328144 327143
BBXX 46083 02061 99582 71380 46/// /1711 10062 20054 49779 58008 90550 22200 00065 11409 20805 300// 41407 70046 333 91214 555 11122 22130 30502 41716 60549 171113 173123 168112 165114 163117 162123 81613 90452
BBXX 51000 02061 99235 71541 46/// /1406 10227 40190 51022 90550 22200 00231 11508 20601 333// 41508 70042 333 91208 555 11064 22067 30539 41408 60549 134060 138051 143043 137047 141048 134051
AAXX 02064 89532 42980 00412 11019 21084 39792 49819 50003 333 55174 23360
AAXX 02064 48698 01466 70410 10307 20248 30089 40108 60001 70522 83138 333 60007 83818 85080
AAXX 02064 48698 01466 70410 10307 20248 30089 40108 60001 70522 83138 333 60007 83818 85080
BBXX 44008 02061 99405 70692 46/// /1609 10129 20112 40065 58047 90550 22200 00113 10803 20502 319// 40802 70015 333 91211 555 11099 22108 30547 41611 60549 163091 162090 163084 164081 166076 171070
BBXX 44172 02061 99445 70634 46/// ///// 1//// 90601 22200 00054 11003 21002 315// 41101 70013
BBXX 44097 02061 99410 70711 46/// ///// 1//// 90602 22200 00108 10603 20603 70015
AAXX 02061 11782 02261 72308 10029 20022 39841 40151 56011 69912 81612 333 20021 32002 60005 70003 81705 83460 87070
BBXX VEP717 02064 99487 70487 41396 80247 10026 2003/ 49972 53061 71042 886// 22200 06021 20504 336// 40908 80026
BBXX 46232 02061 99325 71174 46/// ///// 1//// 90538 22200 00147 11303 21001 326// 41303 70014
BBXX 46247 02061 99378 71228 46/// ///// 1//// 90551 22200 00114 11302 21002 328// 41301 70010
BBXX 46243 02061 99462 71241 46/// ///// 1//// 90559 22200 00088 11004 21003 324// 41102 70019
BBXX 46236 02061 99368 71219 46/// ///// 1//// 90550 22200 00121 11102 21002 327// 41102 70012
BBXX 46229 02061 99438 71246 46/// ///// 1//// 90551 22200 00097 11003 21002 327// 41202 70015
BBXX 46225 02061 99329 71174 46/// ///// 1//// 90544 22200 00149 11202 21001 326// 41201 70009
BBXX 46213 02061 99403 71247 46/// ///// 1//// 90554 22200 00108 11303 20802 324// 41301 70013
BBXX 46215 02061 99352 71209 46/// ///// 1//// 90538 22200 00128 11102 21002 327// 41102 70012
BBXX 46218 02061 99345 71208 46/// ///// 1//// 90602 22200 00133 11203 21002 330// 41202 70016
BBXX 44100 02061 99363 70756 46/// ///// 1//// 90552 22200 00123 10502 20502 70009
BBXX 41110 02061 99341 70777 46/// ///// 1//// 90551 22200 00136 10602 20602 70011
BBXX 42099 02061 99273 70842 46/// ///// 1//// 90557 22200 00245 10401 20401 70006
BBXX 41113 02061 99284 70805 46/// ///// 1//// 90551 22200 00216 10801 20801 70003
BBXX 41112 02061 99307 70813 46/// ///// 1//// 90551 22200 00168 10301 20301 70005
AAXX 02064 78583 11470 73610 10226 20217 40188 60181 71798 87903 333 06805 58011 81910 84812 86645
BBXX 44099 02061 99369 70757 46/// ///// 1//// 90552 22200 00107 10602 20602 70009
BBXX 51204 02061 99213 71581 46/// ///// 1//// 90552 22200 00246 11302 21001 332// 41302 70010
BBXX 51202 02061 99214 71577 46/// ///// 1//// 90540 22200 00238 11404 21003 336// 41404 70022
BBXX 46219 02061 99332 71199 46/// ///// 1//// 90558 22200 00136 11104 21002 330// 41103 70018
BBXX 46224 02061 99332 71175 46/// ///// 1//// 90536 22200 00147 11302 20901 323// 41301 70008
BBXX 46214 02061 99379 71235 46/// ///// 1//// 90550 22200 00119 11303 21002 327// 41302 70013
AAXX 02064 91487 NIL
AAXX 02064 91490 11599 41210 10261 2023/ 40112 60001 70200 82100 333 563//
AAXX 02064 91533 NIL
AAXX 02064 91601 NIL
AAXX 02064 91610 11599 40713 10286 20226 40077 53017 60001 70200 84100 333 562//
AAXX 02064 84820
AAXX 02064 91623 NIL
AAXX 02064 91629 NIL
AAXX 02064 91701 11599 10905 10272 2025/ 60001 70200 81100 333 562// 81820
AAXX 02064 91487 NIL
AAXX 02064 91490 11599 41210 10261 2023/ 40112 60001 70200 82100 333 563//
AAXX 02064 91533 NIL
AAXX 02064 91601 NIL
AAXX 02064 91610 11599 40713 10286 20226 40077 53017 60001 70200 84100 333 562//
AAXX 02064 84820
AAXX 02064 91623 NIL
AAXX 02064 91629 NIL
AAXX 02064 91701 11599 10905 10272 2025/ 60001 70200 81100 333 562// 81820
AAXX 02064 78583 11470 73610 10226 20217 40188 60181 71798 87903 333 06805 58011 81910 84812 86645
BBXX DBBH 02061 99376 10153 41498 13203 10126 20056 40269 53005 70200 81102 22241 04156 20200 307// 4//01
BBXX A8CS2 02063 99138 10547 41498 33418 10240 20210 40170 52010 70311 82147 22224 20803 307// 40702 5//// 80220
AAXX 02061 76040 32902 03201 10134 20034 30217 40231 57007 90540 333 10166 20039 30/// 55093 58053 98602
AAXX 02061 76122 32935 00000 10038 21042 38647 40275 5//// 90550 333 10182 21003 30/// 55095 58060
AAXX 02061 76342 31840 60701 10130 20025 39649 40369 52002 70310 86050 90544 333 10204 20110 30/// 55091 20478 56030 58/// 86358
AAXX 02061 76382 32460 40202 10144 20070 39020 40259 52016 81130 90554 333 10252 20076 30/// 55063 2//// 56550 58085 81810 83356
AAXX 02061 76390 31450 81403 10045 20001 38344 40311 52001 70544 887// 90530 333 10144 20035 30/// 55084 21430 568// 58075 88713
AAXX 02061 76393 31720 70000 10150 20026 39752 40342 57005 70422 885// 90552 333 10246 20140 30/// 55000 565// 58/// 87650
AAXX 02061 76423 32560 60501 10117 21021 38239 40216 52020 86360 90557 333 10241 20050 30/// 55072 21063 56090 58056 86357
AAXX 02061 76458 32960 03002 10186 20151 30150 40155 52002 90540 333 10255 20112 30/// 55090 59002
AAXX 02061 76525 32250 80809 10075 20061 37536 40208 52004 88500 90540 333 10165 20074 30/// 55094 22532 562// 58034 88706
AAXX 02061 76548 32460 63606 10182 20091 30298 40308 52018 8543/ 90545 333 10272 20178 30/// 55027 56150 58102 85611
AAXX 02061 76556 32960 00000 10182 20141 39148 40146 52011 90530 333 10298 20130 30/// 55091 58017
AAXX 02061 76571 32910 00000 10132 20078 38240 40206 52015 90550 333 10254 20097 30/// 55077 58043
AAXX 02061 76577 32560 23606 10127 20103 38101 40197 52006 82600 90540 333 10230 20110 30/// 55047 56100 58034 82623
AAXX 02061 76593 32950 00506 10240 20229 30227 40229 52001 90550 333 10292 20210 30/// 55093 21240 58/// 91009 91505
AAXX 02061 76644 32950 00502 10228 20208 30219 40235 52007 90550 333 10325 20208 30/// 55082 21005 58034
AAXX 02061 76654 31956 00000 10239 20218 30172 40176 52018 70544 90550 333 10289 20222 30/// 55080 20934 58012
AAXX 02061 76662 32660 30603 10146 20080 38510 40162 52018 83400 90530 333 10282 20080 30/// 55061 20960 56/00 58028 83633
AAXX 02061 76675 32560 10902 10074 20018 37431 40184 52006 81500 90550 333 10201 21013 30/// 55090 2//// 56900 58013 81627
AAXX 02061 76685 32950 00000 10106 20056 37928 40178 52018 90550 333 10222 20060 30/// 55076 58033
AAXX 02061 76687 31/05 90401 10138 20125 38763 40251 52011 74522 89/// 90548 333 10224 20118 30/// 55075 58037
AAXX 02061 76692 01420 83603 10223 20206 30233 40252 52013 60061 76264 8427/ 90545 333 10261 20212 32/// 55014 5688/ 58057 60067 81817 83640 91111 91536
AAXX 02061 76737 31470 80000 10161 20142 38853 40242 50002 70222 806// 90535 333 10234 20122 30/// 55039 569// 58043 88710
AAXX 02061 76750 01558 70202 10227 20221 30197 40207 52001 60021 75051 84230 90545 333 10318 20204 32/// 55045 56110 58024 69917 84820 83357
AAXX 02061 76833 32958 03612 10273 20178 30159 40162 50006 90540 333 10296 20260 30/// 55090 59017 92000
AAXX 02061 76845 32330 60401 10114 20098 37991 40205 50001 86700 90545 333 10194 20108 30/// 55079 56200 58021 86707
AAXX 02061 76848 32450 60201 10147 20112 38417 40132 58002 8463/ 90551 333 10210 20142 30/// 55067 56199 58011 84614
AAXX 02061 76311 32955 00000 10150 20081 39892 40162 51014 90550 333 10372 20086 30/// 55085 58012
AAXX 02061 76640 31010 83604 10200 20197 30290 40302 52029 70222 8652/ 90540 333 10270 20196 30/// 55007 5689/ 58095 86601
AAXX 02061 76741 31340 30505 10238 20222 30190 40209 50007 70120 83100 90535 333 10275 20155 30/// 55063 568// 58/// 83807
BBXX A8SF7 02061 99222 51345 41598 30905 10260 20182 40175 53010 70200 831// 22254 04240 20501 311// 41003 5//// 80210
BBXX C6JE5 02063 99318 50111 41597 52711 10210 20178 40222 54000 70211 8/36/ 22263 04220 2//// 3//// 4//// 5//// 80190
AAXX 02061 03967 11480 12309 10014 21002 39879 49994 53003 69972 70181 81500 333 20014 31101 55006 81717
AAXX 02061 11010 31/03 99901 10014 20013 39777 40164 57009 74544 333 20013 31000 89/02
AAXX 02061 11012 12970 30301 10019 20016 39684 40161 56008 60002 82041 333 10110 20012 3/000 55300
AAXX 02061 11022 11/01 90802 10012 20005 39768 40163 57007 60002 74554 333 10024 20012 3/001 55300 89/01
AAXX 02061 11035 11/01 91802 10005 20005 39913 40173 56008 69902 74544 333 10037 20004 89/01
AAXX 02061 11036 31022 81306 11003 21007 39947 40177 57010 71022 333 21004 30101 85701 88702
AAXX 02061 11101 32970 71601 10040 20031 39616 40147 57018 86032 333 10095 20035 86362
AAXX 02061 11120 31/07 92702 10002 20000 39464 40186 57020 74544 333 20002 3/001 43026 89/03
AAXX 02061 11126 17/// /1622 11005 21053 37699 48453 57019 69902 7408/ 333 10013 21007 55300 91128
AAXX 02061 11130 36/// /2202 10022 20013 39578 40176 57018 333 10024 20008 47024
AAXX 02061 11146 32284 52618 11059 21091 36924 47029 58012 82571 333 11042 21061 49190 55300 82602 84340 93102 91121
AAXX 02061 11150 32980 31607 10039 20012 39612 40157 57015 333 20039 31003 83080
AAXX 02061 11155 12784 22905 10044 21006 38343 48469 56011 60002 82040 333 10050 20034 3/002 44082 55300 82356 91120
AAXX 02061 11157 31212 82501 10009 20008 39412 40197 58007 71044 886// 333 20004 3/000 44020 88704
AAXX 02061 11172 NIL
AAXX 02061 11190 11640 80703 10002 21006 39938 40178 57013 69932 70522 885// 333 10025 20000 3/101 55300 88638
AAXX 02061 11204 32980 41001 11040 21046 39411 40235 56007 80008 333 11014 21050 84279 555 10005 6000/
AAXX 02061 11212 31/86 52517 11020 21048 37823 48494 55013 73832 81502 333 21020 42015 816// 85068 91121 444 66075
AAXX 02061 11231 31/03 99901 11040 21040 39630 40226 56006 74944 333 21041 3/107 41998 89/02
AAXX 02061 11240 31008 49901 11042 21042 39732 40189 57011 74140 333 21048 34107 81701 84078
AAXX 02061 11244 16/// /3501 11033 21041 39845 40187 55010 60002 333 10021 21034 55300
AAXX 02061 11389 11/02 90302 10013 20004 39831 40164 58006 60002 74744 89/02 333 10088 20013 3/000 55300
OOXX AAUNI 02064 99798 50833 56093 07671 46/// /2218 11099 21150 39037 49936 5//// 90600
AAXX 02061 01078 11375 81411 11047 21076 30106 40119 51012 60002 70322 87327 333 21050 91118
AAXX 02061 01152 11586 71211 10025 21044 39894 49909 57003 60002 70222 81578 333 20007 79999 91119
AAXX 02061 33135 32997 22202 11066 21082 30012 40200 54000 82030 333 21075 43001
AAXX 02061 33317 NIL
AAXX 02061 33345 32998 61501 11043 21066 39994 40208 54000 86030 333 21049
AAXX 02061 33393 11560 82403 10028 21007 39781 40178 53001 69972 70272 885// 333 21013 88620
AAXX 02061 33506 12697 73105 11029 21063 30001 40205 52015 69902 87500 333 21029 42///
AAXX 02061 33587 32697 80000 11050 21063 39946 40222 53001 885// 333 21064 88636 555 34109
AAXX 02061 33631 11295 81305 10013 20010 30087 40235 57002 60012 76166 8772/ 333 20006 87704
AAXX 02061 33663 NIL
AAXX 02061 33658 32797 61102 11008 21026 39894 40203 52002 86500 333 21026 86650
AAXX 02061 33711 32997 51602 11062 21077 30007 40228 52006 80001 333 21064
AAXX 02061 33791 32997 00000 11058 21080 30069 40228 52009 333 21062
AAXX 02061 33837 32961 52602 10005 21021 30178 40232 57001 80001 333 21016
AAXX 02061 33924 NIL
AAXX 02061 33946 32997 21902 11035 21040 30031 40262 52016 80002 333 21042 42997
AAXX 02061 34300 32497 82906 11011 21037 39985 40182 52017 885// 333 21011 42997 88614
AAXX 02061 34504 32997 03004 11050 21063 30022 40209 52014 333 21050
AAXX 02061 34519 11260 82909 11022 21031 39894 40177 52019 60012 70287 886// 333 21022 88705
AAXX 02061 34601 32960 03104 11047 21054 30074 40217 52016 333 21047 43002
AAXX 02061 01427 11565 42308 10074 20049 39894 49910 54000 60022 70281 84800 333 20068 70019 91111
AAXX 02061 76040 32902 03201 10134 20034 30217 40231 57007 90540 33310166 20039 30/// 55093 58053 98602
AAXX 02061 76122 32935 00000 10038 21042 38647 40275 5//// 90550 33310182 21003 30/// 55095 58060
AAXX 02061 76342 31840 60701 10130 20025 39649 40369 52002 70310 8605090544 333 10204 20110 30/// 55091 20478 56030 58/// 86358
AAXX 02061 76382 32460 40202 10144 20070 39020 40259 52016 81130 90554333 10252 20076 30/// 55063 2//// 56550 58085 81810 83356
AAXX 02061 76390 31450 81403 10045 20001 38344 40311 52001 70544 887//90530 333 10144 20035 30/// 55084 21430 568// 58075 88713
AAXX 02061 76393 31720 70000 10150 20026 39752 40342 57005 70422 885//90552 333 10246 20140 30/// 55000 565// 58/// 87650
AAXX 02061 76423 32560 60501 10117 21021 38239 40216 52020 86360 90557333 10241 20050 30/// 55072 21063 56090 58056 86357
AAXX 02061 76458 32960 03002 10186 20151 30150 40155 52002 90540 33310255 20112 30/// 55090 59002
AAXX 02061 76525 32250 80809 10075 20061 37536 40208 52004 88500 90540333 10165 20074 30/// 55094 22532 562// 58034 88706
AAXX 02061 76548 32460 63606 10182 20091 30298 40308 52018 8543/ 90545333 10272 20178 30/// 55027 56150 58102 85611
AAXX 02061 76556 32960 00000 10182 20141 39148 40146 52011 90530 33310298 20130 30/// 55091 58017
AAXX 02061 76571 32910 00000 10132 20078 38240 40206 52015 90550 33310254 20097 30/// 55077 58043
AAXX 02061 76577 32560 23606 10127 20103 38101 40197 52006 82600 90540333 10230 20110 30/// 55047 56100 58034 82623
AAXX 02061 76593 32950 00506 10240 20229 30227 40229 52001 90550 33310292 20210 30/// 55093 21240 58/// 91009 91505
AAXX 02061 76644 32950 00502 10228 20208 30219 40235 52007 90550 33310325 20208 30/// 55082 21005 58034
AAXX 02061 76654 31956 00000 10239 20218 30172 40176 52018 70544 90550333 10289 20222 30/// 55080 20934 58012
AAXX 02061 76662 32660 30603 10146 20080 38510 40162 52018 83400 90530333 10282 20080 30/// 55061 20960 56/00 58028 83633
AAXX 02061 76675 32560 10902 10074 20018 37431 40184 52006 81500 90550333 10201 21013 30/// 55090 2//// 56900 58013 81627
AAXX 02061 76685 32950 00000 10106 20056 37928 40178 52018 90550 33310222 20060 30/// 55076 58033
AAXX 02061 76687 31/05 90401 10138 20125 38763 40251 52011 74522 89///90548 333 10224 20118 30/// 55075 58037
AAXX 02061 76692 01420 83603 10223 20206 30233 40252 52013 60061 762648427/ 90545 333 10261 20212 32/// 55014 5688/ 58057 6006781817 83640 91111 91536
AAXX 02061 76737 31470 80000 10161 20142 38853 40242 50002 70222 806//90535 333 10234 20122 30/// 55039 569// 58043 88710
AAXX 02061 76750 01558 70202 10227 20221 30197 40207 52001 60021 7505184230 90545 333 10318 20204 32/// 55045 56110 58024 6991784820 83357
AAXX 02061 76833 32958 03612 10273 20178 30159 40162 50006 90540 33310296 20260 30/// 55090 59017 92000
AAXX 02061 76845 32330 60401 10114 20098 37991 40205 50001 86700 90545333 10194 20108 30/// 55079 56200 58021 86707
AAXX 02061 76848 32450 60201 10147 20112 38417 40132 58002 8463/ 90551333 10210 20142 30/// 55067 56199 58011 84614
AAXX 02061 76311 32955 00000 10150 20081 39892 40162 51014 90550 33310372 20086 30/// 55085 58012
AAXX 02061 76640 31010 83604 10200 20197 30290 40302 52029 70222 8652/90540 333 10270 20196 30/// 55007 5689/ 58095 86601
AAXX 02061 76741 31340 30505 10238 20222 30190 40209 50007 70120 8310090535 333 10275 20155 30/// 55063 568// 58/// 83807
AAXX 02061 76040 32902 03201 10134 20034 30217 40231 57007 90540 333 10166 20039 30/// 55093 58053 98602
AAXX 02061 76122 32935 00000 10038 21042 38647 40275 5//// 90550 333 10182 21003 30/// 55095 58060
AAXX 02061 76342 31840 60701 10130 20025 39649 40369 52002 70310 86050 90544 333 10204 20110 30/// 55091 20478 56030 58/// 86358
AAXX 02061 76382 32460 40202 10144 20070 39020 40259 52016 81130 90554 333 10252 20076 30/// 55063 2//// 56550 58085 81810 83356
AAXX 02061 76390 31450 81403 10045 20001 38344 40311 52001 70544 887// 90530 333 10144 20035 30/// 55084 21430 568// 58075 88713
AAXX 02061 76393 31720 70000 10150 20026 39752 40342 57005 70422 885// 90552 333 10246 20140 30/// 55000 565// 58/// 87650
AAXX 02061 76423 32560 60501 10117 21021 38239 40216 52020 86360 90557 333 10241 20050 30/// 55072 21063 56090 58056 86357
AAXX 02061 76458 32960 03002 10186 20151 30150 40155 52002 90540 333 10255 20112 30/// 55090 59002
AAXX 02061 76525 32250 80809 10075 20061 37536 40208 52004 88500 90540 333 10165 20074 30/// 55094 22532 562// 58034 88706
AAXX 02061 76548 32460 63606 10182 20091 30298 40308 52018 8543/ 90545 333 10272 20178 30/// 55027 56150 58102 85611
AAXX 02061 76556 32960 00000 10182 20141 39148 40146 52011 90530 333 10298 20130 30/// 55091 58017
AAXX 02061 76571 32910 00000 10132 20078 38240 40206 52015 90550 333 10254 20097 30/// 55077 58043
AAXX 02061 76577 32560 23606 10127 20103 38101 40197 52006 82600 90540 333 10230 20110 30/// 55047 56100 58034 82623
AAXX 02061 76593 32950 00506 10240 20229 30227 40229 52001 90550 333 10292 20210 30/// 55093 21240 58/// 91009 91505
AAXX 02061 76644 32950 00502 10228 20208 30219 40235 52007 90550 333 10325 20208 30/// 55082 21005 58034
AAXX 02061 76654 31956 00000 10239 20218 30172 40176 52018 70544 90550 333 10289 20222 30/// 55080 20934 58012
AAXX 02061 76662 32660 30603 10146 20080 38510 40162 52018 83400 90530 333 10282 20080 30/// 55061 20960 56/00 58028 83633
AAXX 02061 76675 32560 10902 10074 20018 37431 40184 52006 81500 90550 333 10201 21013 30/// 55090 2//// 56900 58013 81627
AAXX 02061 76685 32950 00000 10106 20056 37928 40178 52018 90550 333 10222 20060 30/// 55076 58033
AAXX 02061 76687 31/05 90401 10138 20125 38763 40251 52011 74522 89/// 90548 333 10224 20118 30/// 55075 58037
AAXX 02061 76692 01420 83603 10223 20206 30233 40252 52013 60061 76264 8427/ 90545 333 10261 20212 32/// 55014 5688/ 58057 60067 81817 83640 91111 91536
AAXX 02061 76737 31470 80000 10161 20142 38853 40242 50002 70222 806// 90535 333 10234 20122 30/// 55039 569// 58043 88710
AAXX 02061 76750 01558 70202 10227 20221 30197 40207 52001 60021 75051 84230 90545 333 10318 20204 32/// 55045 56110 58024 69917 84820 83357
AAXX 02061 76833 32958 03612 10273 20178 30159 40162 50006 90540 333 10296 20260 30/// 55090 59017 92000
AAXX 02061 76845 32330 60401 10114 20098 37991 40205 50001 86700 90545 333 10194 20108 30/// 55079 56200 58021 86707
AAXX 02061 76848 32450 60201 10147 20112 38417 40132 58002 8463/ 90551 333 10210 20142 30/// 55067 56199 58011 84614
AAXX 02061 76311 32955 00000 10150 20081 39892 40162 51014 90550 333 10372 20086 30/// 55085 58012
AAXX 02061 76640 31010 83604 10200 20197 30290 40302 52029 70222 8652/ 90540 333 10270 20196 30/// 55007 5689/ 58095 86601
AAXX 02061 76741 31340 30505 10238 20222 30190 40209 50007 70120 83100 90535 333 10275 20155 30/// 55063 568// 58/// 83807
BBXX UFTA 02061 99845 71195 11996 82004 11291 21321 40126 52019 69902 77173 80007 555 48041
BBXX 46238 02061 99334 71195 46/// ///// 1//// 90550 22200 00140 11303 20901 327// 41302 70014
BBXX 46239 02061 99363 71221 46/// ///// 1//// 90551 22200 00122 11303 21002 328// 41302 70016
AAXX 02061 15015 01596 83000 11015 21020 39628 42822 53003 60002 7102/ 885// 333 11009 21016 3/103 43004 60007 70000 91001 91101 92830
AAXX 02061 15020 02597 80802 10018 21031 30002 40206 55001 60002 8557/ 333 10018 21003 31105 60007 70000 91002 91104
AAXX 02061 15090 02997 40602 11041 21049 30124 40221 54001 60002 84070 333 11008 21054 34105 55300 10217 20003 3//// 60007 70000 91003 91103 92611
AAXX 02061 15108 01/91 92720 11094 21094 38052 48484 54000 60002 74944 333 11094 21121 3//// 44018 60007 70000 91028 92722 92863
AAXX 02061 15120 02597 80803 11014 21022 39737 40254 53004 60002 8457/ 333 11012 21023 3/105 43003 55300 10006 2//// 3//// 60007 70000 91004 91104 92600
AAXX 02061 15150 02997 31701 11037 21050 39999 40223 58002 60002 83030 333 11019 21063 34108 60007 70000 91003 91103 92600
AAXX 02061 15170 02997 70901 11066 21074 39436 42817 54001 60002 87070 333 11063 21101 3/112 43002 60007 70000 91001 91102 92870
AAXX 02061 15200 02998 71202 10012 21004 30081 40230 55008 60002 87070 333 10018 20000 31102 60007 70000 91003 91103
AAXX 02061 15230 02597 23401 11003 21017 39950 40255 57005 60002 82500 333 10000 21035 34103 55300 00008 20000 30000 60007 70000 91001 91101
AAXX 02061 15260 02597 81204 11023 21045 39698 40257 55002 60002 8657/ 333 11023 21056 34104 60007 70000 91005 91105 92600
AAXX 02061 15280 01/93 62508 11063 21078 37480 47015 53006 60002 74144 85540 333 11063 21140 3//// 49035 60007 70000 92848
AAXX 02061 15292 02998 81702 10008 21017 39943 40248 56011 60002 8807/ 333 10015 21030 3/103 41998 60007 70000 91003 91103
AAXX 02061 15310 01495 52003 11051 21051 30151 40242 52003 60002 71041 85600 333 10008 21051 34105 55300 10167 20004 3//// 60007 70000 91007 91107 92611
AAXX 02061 15335 02997 41701 11036 21046 30232 40239 50002 60002 82042 333 11006 21050 34106 60007 70000 91002 91104 92611
AAXX 02061 15346 02997 43301 11057 21067 39951 40258 55003 60002 84070 333 11010 21060 34106 60007 70000 91002 91103 92600
AAXX 02061 15350 02597 12404 11053 21062 30116 40244 50001 60002 81100 333 10015 21063 34106 60007 70000 91005 91105 92600
AAXX 02061 15360 02997 32306 11001 21014 30223 40238 50002 60002 83040 222// 06035 20301 333 10021 21001 3//// 60007 70000 91006 91108 92427 92600
AAXX 02061 15410 02997 00000 11036 21047 30154 40255 55004 60002 333 10030 21047 34106 60007 70000 91001 91101 92600
AAXX 02061 15420 01997 42302 11034 21038 30132 40249 54001 60002 70341 80006 333 11026 21044 34106 55300 0//// 20000 3//// 60007 70000 91003 91103 92717 93502
AAXX 02061 15450 02997 30000 11040 21050 30004 40252 57003 60002 82041 333 10006 21059 34105 55300 10154 20004 3//// 60007 70000 91001 91102 92611
AAXX 02061 15460 02997 22303 11010 21027 30224 40250 55001 60002 82040 333 10004 21050 34107 60007 70000 91004 91105 92611
AAXX 02061 15470 02997 12201 11050 21050 30122 40256 50002 60002 81040 333 11006 21056 34107 60007 70000 91001 91102 92611
AAXX 02061 15480 02497 32602 11010 21028 30233 40251 50000 60002 83600 222// 06060 2//// 333 10016 21014 34103 60007 70000 91004 91105 92427 92600
AAXX 02064 91930 16/// ///// 10234 20218 69921 555 69924
AAXX 02064 91943 36/// /1105 10267 20212 30150 40152 53024 333 20267 58003
AAXX 02061 89061 379// 01301 10020 21002 39863 49869 57004 70077 333 91002 91104
AAXX 02061 10004 46/60 /2508 10082 20068 39997 49997 51008 222// 00075 333 10093 20081 55005 55300
AAXX 02064 03301 16580 /2517 10044 20010 39926 40000 53005 60002 90550 333 20041 70022 82/28 90710 91125
AAXX 02064 03305 17580 /2419 10036 21008 39742 40005 53007 69922 781// 90550 333 20036 3/002 70190 85/27 85/36 90710 91133
AAXX 02064 03313 16980 /2305 10035 21013 39906 40000 53001 69942 90550 333 20034 3/101 70168 81/65
AAXX 02064 03316 15666 /2524 10063 20011 39982 49993 55000 69902 90550 333 20046 3/003 70070 81/38 90710 91136
AAXX 02064 03318 16/// /2624 10060 20010 60002 90550 333 20059 70066 90710 91133
AAXX 02064 03321 16980 /2510 10045 20009 39987 49999 55001 60002 90550 333 20014 3/103 55/// 553// 20000 70004 82/63
AAXX 02064 03330 17173 /2005 10003 21001 39646 40012 58002 69942 724// 90550 333 20001 3/101 70034 84/02 87/56
AAXX 02064 03344 15774 /2214 10019 21001 39663 49982 57005 60032 90550 333 20015 3/001 70176 82/50 86/62
AAXX 02064 03346 16/// /2319 10019 21001 60002 90550 333 20019 3/001 70046 90710 91133
AAXX 02064 03348 17981 /2111 10021 20007 39892 40000 55003 69922 723// 90550 333 20019 3/101 55000 55300 20000 70022 87/58
AAXX 02064 03355 15980 /1909 10036 20011 39971 49982 58008 69922 90550 333 20030 3/000 55000 55300 20000 70032 87/64
AAXX 02064 03373 16966 /2111 10030 20015 39933 40004 52002 60002 90550 333 20020 3/001 70010 8//99
AAXX 02064 03379 16981 /2212 10035 20013 39933 40011 52001 60002 90550 333 20031 3/001 70018 86/68
AAXX 02064 03382 15983 /2110 10037 20016 39977 49986 55002 69902 90550 333 20029 3/001 55000 55300 20000 70028 86/60
AAXX 02064 03385 46972 /1910 10023 20017 39993 40003 52004 90550 333 20019 82/68
AAXX 02064 03391 12980 32010 10023 20012 30002 40009 54000 60002 80002 90550 333 20014 31102 70012 83070
AAXX 02064 03392 16971 /2214 10031 20025 30006 40009 54000 69942 90550 333 20030 3/002 70024 83/66
AAXX 02064 03405 16581 /2627 10049 20005 39898 40014 53009 69922 90550 333 20049 3/004 55/// 553// 20000 70012 81/26 90710 91137
AAXX 02064 03409 16/// /2609 10037 20000 69962 90550 333 20032 3/001 55000 55300 2//// 70006
AAXX 02064 03410 16677 /2515 10016 21002 39570 40008 50002 60032 90550 333 20010 3/101 55/// 553// 20000 70172 82/38
AAXX 02064 03469 15976 /2215 10041 20033 30011 40015 57001 69922 90550 333 20036 3/001 55/// 553// 20000 70002 8//99
AAXX 02064 03488 15974 /2313 10046 20029 39992 40018 53001 69922 90550 333 20044 70004 83/64
AAXX 02064 03503 17683 /2304 10043 20015 39949 40026 53008 60022 723// 90550 333 20032 3/001 70072 85/32 84/62
AAXX 02064 03507 17476 /2410 10017 20010 39662 40037 53005 69922 723// 90550 333 20013 3/101 70074 83/14 84/22 90710 91130
AAXX 02064 03520 16457 /2815 10028 20013 39909 40032 53009 69982 90550 333 21004 3/103 55/// 553// 20000 70020 85/14 90710 91126 91026
AAXX 02064 03522 15781 /2409 10057 20006 39939 40032 53006 69902 90550 333 20040 3/101 70010 83/56 85/64
AAXX 02064 03529 15981 /2208 10038 20014 39992 40035 51007 60002 90550 333 20038 3/001 70004 81/60 83/64
AAXX 02064 03544 15982 /1904 10029 20014 39893 40025 52003 69902 90550 333 20029 3/001 55/// 553// 20000 70018 81/61
AAXX 02064 03560 15782 /2309 10043 20025 39927 40031 52005 69902 90550 333 20040 3/002 55/// 553// 20000 70002 81/50 84/60
AAXX 02064 03604 16684 /2915 10061 20001 39983 40037 53012 60012 90550 333 20050 3/003 70034 81/38 90710 91129
AAXX 02064 03605 16680 /2717 10063 20017 30034 40042 53011 69942 90550 333 20048 70024 82/37 90710 91134
AAXX 02064 03609 16/// /2425 10064 20025 39992 40045 52012 60012 90550 333 20050 3/003 70024 90710 91137
AAXX 02064 03628 17680 /2316 10041 20025 39966 40039 50003 60012 723// 90550 333 20041 3/001 55000 55300 20000 70026 81/30 83/35
AAXX 02064 03647 16980 /2214 10028 20021 39775 40032 51004 60022 90550 333 20027 3/001 55/// 553// 20000 70024 87/58
AAXX 02064 03658 16777 /2108 10042 20024 39976 40046 52007 69942 90550 333 20036 3/002 70018 87/56
AAXX 02064 03660 15475 /2606 10041 20027 39797 40046 52006 69962 90550 333 20038 3/101 70034 81/17 86/58
AAXX 02064 03672 16682 /2407 10042 20025 30007 40048 53005 69962 90550 333 20042 3/002 70056 81/37
AAXX 02064 03684 15976 /2307 10035 20025 39934 40041 53007 69942 90550 333 20033 3/001 70034 8//99
AAXX 02064 03693 16980 /2407 10058 20042 30042 40045 53005 69942 90550 333 20057 3/004 70066 8//99
AAXX 02064 03707 17680 /2818 10064 20016 30050 40057 53016 60042 723// 90550 333 20053 3/004 70064 83/31 83/50 90710 91129
AAXX 02064 03710 16269 /2511 10022 20022 39632 40056 52003 60062 90550 333 20015 3/001 55/// 553// 20000 70088 83/03 85/13
AAXX 02064 03743 16484 /2408 10043 20025 39891 40053 53005 69922 90550 333 20035 3/100 70036 84/17
AAXX 02064 03749 16782 /2512 10050 20025 39946 40057 53008 60002 90550 333 20037 3/001 70090 85/50
AAXX 02064 03761 15980 /2309 10041 20019 39908 40053 53006 69942 90550 333 20039 3/002 55000 55300 20000 70108 8//99
AAXX 02064 03768 16964 /2508 10048 20027 39973 40053 53007 69922 90550 333 20021 3/004 70100 8//99
AAXX 02064 03769 15971 /2205 10036 20033 39974 40056 53007 6///2 90550 333 20035 3/100 55000 55300 20000 7//// 8//99
AAXX 02064 03781 15681 /2208 10044 20029 39846 40054 53006 69942 90550 333 20042 3/002 55/// 553// 20000 70158 82/46
AAXX 02064 03797 15970 /2207 10045 20032 39992 40053 53008 60022 90550 333 20045 3/002 55000 55300 20000 70094 8//99
AAXX 02064 03823 17568 /2611 10036 20025 39825 40071 53007 60042 781// 90550 333 20025 3/100 55/// 553// 20000 70058 81/24 85/56
AAXX 02064 03839 16/// ///// 10045 20026 69942 90550 333 20024 55/// 553// 20000 70014
AAXX 02064 03857 17577 /2823 10071 20041 39999 40062 53006 69962 723// 90550 333 20065 3/005 70078 82/21 90710 91142
AAXX 02064 03862 15580 /2505 10033 20023 30050 40063 53008 69942 90550 333 20031 3/100 55000 55300 20000 70118 81/26 84/57
AAXX 02064 03866 16/// /2621 10088 20038 30036 40060 53007 69922 90550 333 20085 3/007 70120 90710 91130
AAXX 02064 03872 15980 /2615 10074 20048 30054 40059 53007 69942 90550 333 20069 3/005 55/// 553// 20000 70138 8//99
AAXX 02064 03876 16/// /3003 10046 20043 30057 40059 53006 69962 90550 333 20026 70160
AAXX 02064 03895 41475 42718 10083 20049 40094 53009 70381 84900 333 20073 81918 83820 90710 91128
AAXX 02064 03008 16/// /2219 10044 20001 39763 49831 56001 60002 90550 333 20040 70000 90710 91128
AAXX 02064 03010 46/// /2319 10056 20008 49825 55003 333 90710 91130
AAXX 02064 03014 46/// /2710 10031 20006 49826 50004 90550 333 8//// 90710 91131
AAXX 02064 03031 17471 /2310 10008 21003 39540 49865 56004 60012 771// 90550 333 20001 3/102 55/// 553// 20000 70112 84/16 83/50
AAXX 02064 03034 17471 /2222 10032 20014 39843 49856 50002 60052 741// 90550 333 20017 3/001 70102 83/19 85/37 90710 91130
AAXX 02064 03037 17381 /2110 10016 20007 39846 49868 55006 60042 723// 90550 333 20014 3/000 70100 81/08 84/61 90710 91128
AAXX 02064 03039 46/// /2227 11030 21059 90550 333 21031 90710 91145
AAXX 02064 03041 46/// /2229 11055 21056 90550 333 21061 90710 91148 91048
AAXX 02064 03044 17784 /2208 10011 21001 39752 49851 55001 60052 724// 90550 333 20009 3/101 55/// 553// 20000 70078 81/56 83/66
AAXX 02064 03047 17309 /2109 10005 21007 39596 49898 54000 60072 772// 90550 333 20005 3/000 55/// 553// 20000 70212 83/06 85/35 91020
AAXX 02064 03062 17369 /2108 10016 21003 39862 49867 55001 69942 741// 90550 333 20006 3/101 55/// 553// 20000 70014 87/08
AAXX 02064 03065 46/// /2338 11061 21067 90550 333 21066 90710 91153
AAXX 02064 03068 12782 22409 10015 21017 39863 49872 52001 60002 82500 90550 333 20006 31103 70000 82650
AAXX 02064 03080 17984 /2318 10022 21017 39709 49879 58006 69902 723// 90550 333 21001 3/104 79999 83/64 90710 91126
AAXX 02064 03088 15484 /2515 10013 20002 39732 49895 50000 69902 90550 333 20007 3/101 55/// 553// 20000 79999 86/12 83/18 86/72
AAXX 02064 03094 15982 /1711 10012 21020 39865 49870 50000 60002 90550 333 20009 3/101 70000 81/60
AAXX 02064 03105 17467 /2122 10035 20016 39901 49918 50001 60032 781// 90550 333 20023 3/002 70060 83/15 83/50 90710 91130
AAXX 02064 03132 15981 /2316 10027 20005 39940 49954 53002 60002 90550 333 20026 3/001 70008 8//99 90710 91125
AAXX 02064 03144 17462 /2212 10029 20004 39867 49909 50000 60072 761// 90550 333 20007 3/000 55/// 553// 20000 70108 82/16 86/22
AAXX 02064 03148 46/// /2414 11014 21014 90550 333 21015
AAXX 02064 03153 15474 /2521 10034 21002 39811 49948 53001 69922 90550 333 20033 3/002 55/// 553// 20000 70010 83/19 90710 91131
AAXX 02064 03155 16364 /2014 10011 21007 39637 49935 51009 60012 90550 333 20007 3/000 70018 87/09 83/19
AAXX 02064 03158 15684 /2214 10016 21004 39789 49927 50002 60002 90550 333 20014 3/100 55/// 553// 20000 70000 83/30
AAXX 02064 03210 16469 /2522 10038 20004 39816 49967 53004 60002 90550 333 20036 3/002 70000 81/17 90710 91132
AAXX 02064 03212 17681 /2609 10041 21007 39867 49965 52004 69942 723// 90550 333 20032 3/001 70016 83/30
AAXX 02064 03214 15570 /2619 10056 20010 39955 49973 52001 69982 90550 333 20048 3/003 70012 81/26 86/50 90710 91132
AAXX 02064 03220 16182 ///// 10040 20007 39921 49955 52004 60052 90550 333 20032 3/001 70068 81/02
AAXX 02064 03225 16572 /2511 10024 21014 39661 49967 53001 60032 90550 333 20018 3/000 55/// 553// 20000 70108 81/21
AAXX 02064 03226 17471 /2411 10020 20001 39690 49967 53002 60022 781// 90550 333 20014 3/100 70078 86/16 83/58 90710 91125
AAXX 02064 03227 46/// /2422 11032 2//// 90550 333 21032 90710 91131
AAXX 02064 03230 16980 /2413 10015 21005 39686 49943 55002 60032 90550 333 20013 3/000 70048 8//99 90710 91128
AAXX 02064 03238 15981 /2408 10021 21013 39775 49948 55003 69922 90550 333 20014 3/101 70012 83/64
AAXX 02064 03261 16975 /2107 10024 21001 39939 49980 55004 69922 90550 333 20020 3/101 70038 83/66
AAXX 02064 03265 17458 /2904 10028 20007 39952 49982 55001 69942 782// 90550 333 20015 3/101 70024 83/18
AAXX 02064 03266 16980 /2208 10037 21002 39963 49980 56004 60002 90550 333 20037 3/002 70032 81/64 83/68
AAXX 02064 03275 15973 /2422 10032 21005 39772 49965 55003 60002 90550 333 20023 3/001 70014 86/59 90710 91131
AAXX 02064 03281 16/// /2212 10004 20002 60002 90550 333 20002 70032
AAXX 02064 03903 16461 /2213 10021 20007 39902 49960 53006 69942 90550 333 20015 3/100 55/// 553// 20000 70012 84/12 83/61
AAXX 02064 03904 16465 /2116 10016 20000 39886 49946 53003 60012 90550 333 20013 3/000 70036 83/11 90710 91125
AAXX 02064 03907 17457 /2118 10023 20006 39926 49933 55001 60092 782// 90550 333 20011 3/000 55019 55300 20000 70096 82/13 85/22 90710 91128 91028
AAXX 02064 03911 16381 /2209 10003 21007 39677 49953 53003 60002 90550 333 20002 3/102 70004 85/07
AAXX 02064 03915 16481 /1908 10011 20009 39868 49947 53003 60002 90550 333 20010 3/101 70016 86/16
AAXX 02064 03916 16315 /2209 10007 20000 39744 49935 50001 69942 90550 333 20004 3/100 55/// 553// 20000 70008 81/09 84/13 85/58
AAXX 02064 03923 15384 /2313 10007 21008 39763 49961 52001 69922 90550 333 20004 3/101 70032 82/08
AAXX 02064 68024 32960 13303 10270 20169 48510 52011 81080 333 20200
AAXX 02064 68030 32960 60000 10229 20200 48518 52014 80006 333 20188
AAXX 02064 68032 32960 33202 10255 20199 48519 52020 81082 333 20210
AAXX 02064 68040 32960 10209 10260 20170 48524 51023 81080 333 20186
AAXX 02064 68054 32960 10202 10240 20168 48529 52014 80002 333 20183
AAXX 02064 68070 31960 11403 10265 20187 48526 52011 70400 81080 333 20195
AAXX 02064 68148 32960 33610 10253 20177 48519 51008 83080 333 20176
AAXX 02064 68226 32960 00000 10230 20098 48516 52018 333 20154
AAXX 02064 68234 32960 00710 10264 20148 48514 51008 333 20181
AAXX 02064 68240 32960 00807 10247 20173 48517 52014 333 20201
AAXX 02064 68320 32960 00000 10250 20157 48517 52010 333 20152
AAXX 02064 68328 32960 01801 10222 20089 48512 52012 333 20133
AAXX 02064 91324 32574 80907 10317 20264 30058 40060 82203 333 562/9 70000 82820 88075 555 90206
AAXX 02064 91336 32474 80615 10300 20256 30098 40101 8421/ 333 56199 70000 84818 88463 555 90206
AAXX 02064 91320 32474 80510 10311 20272 30085 40090 83109 333 561/9 70000 83816 85274 555 90206
AAXX 02064 91324 32474 80910 10306 20261 30105 40108 84302 333 562/9 70000 84918 88075 555 90206
AAXX 02064 91339 11474 80805 10289 20243 30058 40064 60021 70282 8322/ 333 56299 70020 83818 88463 555 90206
BBXX 46042 02061 99368 71224 46/// /1908 10112 40215 53016 90550 22200 00125 11403 20402 326// 41402 70014 333 91209 555 11079 22084 30513 41910 60549 189075 193068 188067 182077 179076 176075
BBXX 46053 02061 99342 71198 46/// /3002 10105 40222 51011 90550 22200 00141 11302 326// 41302 70010 333 91203 555 11023 22023 30514 42604 60549 294022 275022 294023 270029 275025 261033
BBXX 51003 02061 99193 71606 46/// /0903 10245 40172 53020 90550 22200 00251 11504 20401 3//// 41504 70019 333 91204 555 11032 22033 30518 40804 60549 089030 087029 079031 076031 075029 074029
BBXX MGRH9 02064 99266 31532 41597 41210 10260 20173 40161 50002 7//00 844// 22200 00245 20000 312// 40802 5//// 80205
BBXX DCDO2 02063 99090 31513 41698 62707 10305 20237 40065 54000 70322 86574 22244 00300 20301 3//// 4//// 5//// 80255
BBXX ELYP7 02064 99181 31139 41498 21917 10275 20255 40085 58015 70200 811/1 22243 20603 319// 41004 80260
BBXX A8KX4 02064 99365 51573 412// 60516 10165 20123 40190 56010 70222 8/7/4 22274 00173 20101 30000 80140
BBXX PCDE 02063 99390 31447 41998 10901 10270 20178 40130 58010 7//00 80001 22263 20601 80208
BBXX PEBT 02063 99548 10130 41/97 /2220 10076 20024 49980 53010 7//11 8//// 22253 02040 20403 3//// 4//// 5//// 80052
BBXX UCAB 02061 99697 10151 41/97 91811 10040 49895 54000 70022 8//// 22213 00080 20706
BBXX SKUN 02063 99514 70070 43/98 52736 10069 40029 51009 22253 00095 2//// 4////
BBXX DDYL2 02063 99353 10186 41/98 /0115 10150 20085 40250 52020 7//// 8//// 22264 00170 20102
BBXX PCHM 02064 99339 31649 41598 51820 10195 20162 40166 52001 70222 84544 22264 00180 20202 316// 40304 80175
BBXX C6SW3 02064 99081 10866 41598 33605 10280 20253 40090 52010 7//50 8//6/ 22224 00270 20300 310// 40300 5//// 6//// 80260 ICE /////
BBXX WE4805 02064 99473 70879 41/99 93430 11038 2//// 40098 53000 70202 88541 22200 00028 20602 3//// 4//// 5//// 6//// 8//// ICE /////
BBXX NWS0029 02064 99415 70707 43/// /1914 10109 20081 40036 5//// 7//// 8//// 222// 04070 2//// 3//// 4//// 5//// 6//// 8//// ICE /////
BBXX KAOU 02064 99031 10891 43/// /1199 00110 10275 20214 40102 7//// 8//// 222// 04290 2//// 3//// 4//// 5//// 6//// 8//// ICE /////
BBXX WL3972 02064 99460 70839 41/95 92829 11030 2//// 40020 5//// 77577 8//// 22200 00000 2//// 3//// 4//// 5//// 6//// 8//// ICE /////
BBXX NWS0021 02064 99322 70757 43/// /2327 10219 20162 40148 5//// 7//// 8//// 222// 04221 2//// 3//// 4//// 5//// 6//// 8//// ICE /////
BBXX NWS0003 02064 99539 71665 43/// /0000 11026 21042 40007 5//// 7//// 8//// 222// 0//// 2//// 3//// 4//// 5//// 6//// 8//// ICE /////
BBXX NWS0020 02064 99261 70801 43/// /2604 10194 20156 40214 5//// 7//// 8//// 222// 04254 2//// 3//// 4//// 5//// 6//// 8//// ICE /////
BBXX PFRO 02064 99260 70784 41597 42807 10214 20167 40210 7//22 835// 22264 20101 80185
BBXX ZCDG7 02064 99279 71156 41997 00215 10159 20157 40215 52006 70200 80000 22233 00180 20401 332// 40301 5////
BBXX WDB9950 02063 99438 11477 41797 /1536 10030 20018 40065 57050 78085 8//// 22254 00020 2//10 31313 4//11 5//11 6//// 80025 ICE /////
BBXX C6XC6 02064 99207 71072 41897 30216 10230 2//// 40160 52020 70300 831// 22273 00300 2//// 3//// 4//// 5//// 6//// 8//// ICE /////
BBXX ELPP9 02063 99229 70591 41599 50519 10250 20207 40170 54000 70222 85202 22274 04260 20504 305// 40504 5//// 6//// 80220 ICE /////
BBXX C6VG8 02064 99385 70741 41/98 32832 10120 2//// 40060 51010 7//00 8//// 22244 00130 20206 327// 40306 5//// 6//// 8//// ICE /////
BBXX C6XP7 02063 99203 70722 41798 41021 1//// 2//// 40160 54/// 7//// 82995 22234 00260 20501 30707 40501 50501 6//// 8//// ICE /////
BBXX 44060 02061 99413 70721 46/// ///08 10101 40037 56044 90600 22200 00093 333 91209 555 11088 22093
BBXX 44022 02061 99409 70737 46/// ///08 10095 20052 40049 58010 90600 22200 00073 333 91212 555 11093 22103
BBXX 41041 02061 99142 70460 46/// /0710 10248 20213 40154 58014 90550 22200 00261 11106 20504 3//// 41104 70030 333 91212 555 11107 22114 30536 40713 60549 073101 070100 079091 090087 098067 100072 80711 90536
BBXX 41038 02061 99341 70777 46/// /2505 10155 40137 58008 90600 22200 00136 333 91206
BBXX 46001 02061 99563 71480 46/// /2913 10002 49905 52025 90550 22200 00041 11010 20507 300// 41007 70048 333 91216 555 11140 22147 30452 42917 60549 286130 288136 287135 287138 289136 290134
AAXX 02064 16450 12975 02803 10078 20075 39147 48602 53004 60002 333 20076 30/// 55/// 2////
AAXX 02064 16098 12960 00000 10000 21017 30182 40235 58010 60002 333 21018 34/// 55/// 2////
AAXX 02064 16550 12998 02304 10132 20068 30053 40234 56010 60002 333 20128 30/// 55085 2//// 555 0////
AAXX 02064 70026 NIL
AAXX 02064 70133 NIL
AAXX 02064 70174 NIL
AAXX 02064 70200 NIL
AAXX 02064 70219 NIL
AAXX 02064 70231 NIL
AAXX 02064 70261 NIL
AAXX 02064 70267 NIL
AAXX 02064 70271 NIL
AAXX 02064 70273 NIL
AAXX 02064 70308 NIL
AAXX 02064 70316 NIL
AAXX 02064 70326 NIL
AAXX 02064 70340 NIL
AAXX 02064 70350 NIL
AAXX 02064 70361 NIL
AAXX 02064 70381 NIL
AAXX 02064 70398 NIL
AAXX 02064 70414 NIL
BBXX PCSV 02063 99254 30011 41598 62108 10188 20129 40205 52/// 70311 86500 22273 04194 20501 323// 41003 80152
AAXX 02064 67665 12380 73201 10213 20203 48518 60164 86630 333 10266 20196 58000 86608 86360
AAXX 02063 61701 31959 00507 10170 20028 40147 70500 80000 333 20161 50601 55076 59005
AAXX 02063 61705 NIL
AAXX 02063 61707 NIL
AAXX 02063 61711 NIL
AAXX 02063 61712 32960 02706 10160 20057 4//// 80000 333 20140 50381 55068 5////
AAXX 02063 61717 NIL
AAXX 02063 61720 NIL
AAXX 02063 61721 NIL
AAXX 02063 61722 NIL
AAXX 02063 61731 NIL
AAXX 02063 61733 NIL
BBXX DMQN 02064 99057 50331 41/98 /0916 10248 20228 40125 54000 70000 8//// 22244 04280 20503 3//// 4//// 5//// 80234
BBXX A8VL5 02064 99514 10027 41397 82719 10080 20080 40160 54000 70222 880// 22200 00100 20202 30000 80080
AAXX 02061 26554 31958 21203 11058 21076 39987 40158 57005 71011 81031 333 21095 47004 93505 555 90012
AAXX 02061 26666 31960 31702 11049 21062 39966 40190 53007 71011 83070 333 21056 47002 555 90012
AAXX 02061 26850 31959 31402 11042 21054 39878 40160 57005 71011 82031 333 21065 47003 555 90010
AAXX 02061 26863 31957 61603 11069 21081 39949 40198 53007 71011 82032 333 21080 47001 93504
AAXX 02061 26941 32260 81403 11034 21042 39905 40150 57003 887// 333 21034 43002 88705 555 90010
AAXX 02061 26951 31558 71403 11025 21038 39957 40162 57008 71022 875// 333 21041 46997 87631 555 90011
AAXX 02061 33008 11122 81802 10011 20005 39950 40131 57006 60022 75175 886// 333 21003 43001 88702 555 90010
AAXX 02061 33019 11338 81202 11007 21011 39974 40152 57008 69902 71072 886// 333 21024 47001 88707 555 90010
AAXX 02061 33036 32965 71403 11037 21055 39952 40192 53002 87050 333 21060 43002 555 90011
AAXX 02061 33041 31957 60000 11074 21083 30039 40204 53006 71011 86030 333 21074 43002 555 90010
AAXX 02061 37682 32997 73401 11052 21059 38105 48515 57003 8707/ 333 21096 7000/
AAXX 02061 37717 32598 72303 11022 21054 38038 48469 52007 86531 333 21029 7000/
AAXX 02061 37788 41693 60000 11024 21030 39186 40218 52005 74442 8553/ 333 21045 85643
AAXX 02064 91324 32574 80907 10317 20264 30058 40060 82203 333 562/9 70000 82820 88075 555 90206
AAXX 02064 91336 32474 80615 10300 20256 30098 40101 8421/ 333 56199 70000 84818 88463 555 90206
AAXX 02064 91320 32474 80510 10311 20272 30085 40090 83109 333 561/9 70000 83816 85274 555 90206
AAXX 02064 91324 32474 80910 10306 20261 30105 40108 84302 333 562/9 70000 84918 88075 555 90206
AAXX 02064 91339 11474 80805 10289 20243 30058 40064 60021 70282 8322/ 333 56299 70020 83818 88463 555 90206
AAXX 02061 06414 16/// /2304 10073 20050 30020 40052 53001 60102 333 20073 91113 91209
AAXX 02061 06459 16/// /2805 10071 20071 39880 40072 53003 60072 333 20071 3/007 91111 91209
AAXX 02061 06494 16/// /2805 10047 20046 39274 40068 55010 60142 333 20047 91117 91210
BBXX TFBKF 02064 99635 70202 46/// ///// 22200 10805 70026
BBXX TFDRN 02064 99658 70212 46/// ///// 22200 10706 70029
BBXX TFGRS 02064 99663 70182 46/// ///// 22200 10806 70031
BBXX TFGRV 02064 99638 70225 46/// ///// 22200 11007 70034
BBXX TFGSK 02064 99641 70229 46/// ///// 22200 10908 70038
BBXX TFHFN 02064 99642 70152 46/// ///// 22200 11008 70038
BBXX TFKGR 02064 99657 70136 46/// ///// 22200 10906 70029
BBXX TFSRT 02064 99633 70203 46/// ///// 22200 11008 70042
BBXX TFSTD 02064 99664 70234 46/// ///// 22200 10607 70034
AAXX 02061 03967 11480 12309 10014 21002 39879 49994 53003 69972 70181 81500 333 20014 31101 55006 81717 92600
AAXX 02064 78526 NIL
AAXX 02064 78543 NIL
BBXX WDB9950 02063 99438 11477 41797 /1536 10030 20018 40065 57050 78085 8//// 22254 00020 2//10 31313 4//11 5//11 6//// 80025 ICE /////
BBXX C6SI6 02064 99471 11566 46/// /1612 10007 21044 40221 55001 7//// 8//// 22213 0//// 2////
BBXX ONFE 02064 99127 10731 435// /1514 10320 2024/ 40150 54000 7//// 8/616 22274 00280 2//// 3//// 4//// 5//// 6//// 80260 ICE 0/0//
BBXX VREX8 02064 99472 11543 41597 71413 10030 2105/ 40210 54000 70111 871// 22215 0//// 20305 309// 40406 5//// 6//// 80000 ICE /////
BBXX A8GF4 02064 99453 11506 41498 81438 10030 20030 40120 54000 702// 84777 22214 04020 21004 314// 41006 5//// 80030
BBXX C6SW3 02064 99081 10866 41598 33605 10280 20253 40090 52010 7//50 8//6/ 22224 00270 20300 310// 40300 5//// 6//// 80260 ICE /////
BBXX 46070 02061 99551 11753 46/// /2907 11028 21124 40059 51003 90550 22200 00031 11105 20503 3//// 41104 70024 333 91208 555 11068 22070 30510 42909 60549 289064 273051 290056 288059 292067 291058 82908 90509
BBXX C6JE5 02063 99318 50111 41597 52711 10210 20178 40222 54000 70211 8/36/ 22263 04220 2//// 3//// 4//// 5//// 80190
BBXX A8CS2 02063 99138 10547 41498 33418 10240 20210 40170 52010 70311 82147 22224 20803 307// 40702 5//// 80220
BBXX DBLK 02061 99399 30120 41497 52817 10154 20118 40010 52008 70262 84480 22213 04153 20809 323// 41005
BBXX A8GH5 02063 99013 70281 41/96 /0510 10240 20214 40130 56010 70066 8//// 22254 04230 20302 305// 40504 80222
BBXX BATFR55 02064 99203 30570 44998 20605 10274 20220 40127 70100 82051 22212 00280 206// 32626 410// 510//
BBXX BATFR08 02064 99306 30540 46/// /1010 10207 20139 40184 53010 22243 00232
BBXX BATFR19 02064 99067 30055 46/// /1712 10237 20194 40152 52018 22200 00254
BBXX BATFR05 02064 99108 70172 46/// /0719 10245 20109 40138 55/// 22283 00257
BBXX DBBT 02061 99339 30184 46/// /3103 10156 20156 40139 52004 22220 00136
BBXX DBKV 02061 99207 70217 46/// /0615 10193 20119 40214 57009 22211 00204
BBXX A8HY8 02063 99005 70305 41/96 /0513 10251 2021/ 40119 56020 70522 8//// 22253 00268 2//// 3//// 4//// 5//// 6//// 80222 ICE /////
BBXX 32012 02061 99197 50856 46/// ///// 1//// 90550 22200 11103 70015
BBXX 46238 02061 99334 71195 46/// ///// 1//// 90550 22200 00140 11303 20901 327// 41302 70014
BBXX 46239 02061 99363 71221 46/// ///// 1//// 90551 22200 00122 11303 21002 328// 41302 70016
BBXX UFTA 02061 99845 71195 11996 82004 11291 21321 40126 52019 69902 77173 80007 555 48041
BBXX 46214 02061 99379 71235 46/// ///// 1//// 90550 22200 00119 11303 21002 327// 41302 70013
BBXX 46219 02061 99332 71199 46/// ///// 1//// 90558 22200 00136 11104 21002 330// 41103 70018
BBXX 46224 02061 99332 71175 46/// ///// 1//// 90536 22200 00147 11302 20901 323// 41301 70008
BBXX 44099 02061 99369 70757 46/// ///// 1//// 90552 22200 00107 10602 20602 70009
BBXX C6XP7 02063 99203 70722 41798 41021 1//// 2//// 40160 54/// 7//// 82995 22234 00260 20501 30707 40501 50501 6//// 8//// ICE /////
BBXX 5BDK2 02064 99117 70801 41797 40524 10260 2025/ 40170 57010 70000 84363 22243 00270 20707 3//// 41106 5//// 6//// 80250 ICE /////
BBXX S6JU 02064 99452 71330 41697 82510 10100 20080 40040 51010 70222 886// 22274 0//// 2//// 3//// 4//// 5//// 6//// 80090 ICE /////
BBXX ICGU 02064 99177 70657 41897 30816 10220 20205 40170 54/// 70311 834// 22255 04270 21001 31111 41201 51402 6//// 85210 ICE /////
BBXX WDD6126 02064 99268 70893 41498 73524 10230 2020/ 40240 56005 70366 87720 22274 00230 20202 3//// 4//// 5//// 6//// 80210 ICE /////
BBXX VQKR7 02064 99322 71171 41292 82708 10125 20125 40217 51012 71222 89610 22200 04040 20000 30000 80125
BBXX VQAJ8 02063 99486 71225 41/98 80115 10054 20032 40183 57015 70222 88/// 22200 00085 20401 300// 40000 5//// 80045
BBXX 42099 02061 99273 70842 46/// ///// 1//// 90557 22200 00245 10401 20401 70006
BBXX 44100 02061 99363 70756 46/// ///// 1//// 90552 22200 00123 10502 20502 70009
BBXX 41112 02061 99307 70813 46/// ///// 1//// 90551 22200 00168 10301 20301 70005
BBXX 41113 02061 99284 70805 46/// ///// 1//// 90551 22200 00216 10801 20801 70003
BBXX 41110 02061 99341 70777 46/// ///// 1//// 90551 22200 00136 10602 20602 70011
BBXX 46218 02061 99345 71208 46/// ///// 1//// 90602 22200 00133 11203 21002 330// 41202 70016
BBXX 46229 02061 99438 71246 46/// ///// 1//// 90551 22200 00097 11003 21002 327// 41202 70015
BBXX 46213 02061 99403 71247 46/// ///// 1//// 90554 22200 00108 11303 20802 324// 41301 70013
BBXX 46236 02061 99368 71219 46/// ///// 1//// 90550 22200 00121 11102 21002 327// 41102 70012
BBXX 46232 02061 99325 71174 46/// ///// 1//// 90538 22200 00147 11303 21001 326// 41303 70014
BBXX 46215 02061 99352 71209 46/// ///// 1//// 90538 22200 00128 11102 21002 327// 41102 70012
BBXX 46243 02061 99462 71241 46/// ///// 1//// 90559 22200 00088 11004 21003 324// 41102 70019
BBXX 46247 02061 99378 71228 46/// ///// 1//// 90551 22200 00114 11302 21002 328// 41301 70010
BBXX 46225 02061 99329 71174 46/// ///// 1//// 90544 22200 00149 11202 21001 326// 41201 70009
BBXX 44097 02061 99410 70711 46/// ///// 1//// 90602 22200 00108 10603 20603 70015
BBXX 44008 02061 99405 70692 46/// /1609 10129 20112 40065 58047 90550 22200 00113 10803 20502 319// 40802 70015 333 91211 555 11099 22108 30547 41611 60549 163091 162090 163084 164081 166076 171070
BBXX 44172 02061 99445 70634 46/// ///// 1//// 90601 22200 00054 11003 21002 315// 41101 70013
BBXX 51101 02061 99243 71621 46/// /2104 10230 20172 40173 51015 90550 22200 00240 11405 20301 334// 41405 70025 333 91205 555 11036 22038 30458 42006 60549 204035 198039 198038 205037 204036 204037
BBXX 46083 02061 99582 71380 46/// /1711 10062 20054 49779 58008 90550 22200 00065 11409 20805 300// 41407 70046 333 91214 555 11122 22130 30502 41716 60549 171113 173123 168112 165114 163117 162123 81613 90452
BBXX 46061 02061 99602 71468 46/// /3112 11017 49760 53004 90550 22200 00053 11306 20403 300// 41305 70029 333 91216 555 11124 22130 30502 43319 60549 310116 310115 315120 324134 328144 327143
BBXX 46089 02061 99459 71258 46/// /1509 10106 20067 40133 58006 90550 22200 00093 10905 20703 323// 40904 70025 333 91211 555 11100 22109 30517 41411 60549 149091 149093 148092 148096 145095 145095
BBXX 42057 02061 99168 70815 46/// /0409 10271 20225 40172 58009 90550 22200 00275 10904 20704 3//// 40902 70021 333 91210 555 11091 22096 30507 40511 60549 045092 050093 052091 052090 053093 047089 80510 90502
BBXX 42362 02061 99278 70907 46/// /3617 10183 20067 40278 52003 90600
BBXX 41046 02061 99238 70683 46/// /1106 10248 20204 40205 56014 90550 22200 00253 11004 20502 300// 41003 70020 333 91207 555 11065 22068 30453 41108 60549 112061 113063 115065 110067 110069 111069 81108 90513
BBXX 44011 02061 99411 70666 46/// /1705 10099 20082 40115 56029 90550 22200 00090 10803 20402 3//// 40803 70016 333 91207 555 11057 22064 30522 43309 60549 167054 159065 155071 152073 146070 149068
BBXX 42364 02061 99291 70881 46/// /3516 10161 20061 40264 51006 90600
BBXX 41009 02061 99285 70802 46/// /2606 10214 20156 40208 58023 90550 22200 00234 10801 20301 300// 40801 70004 333 91207 555 11064 22067
BBXX 41010 02061 99289 70785 46/// /2108 10226 40198 58025 90550 22200 00237 10902 20301 300// 40901 70008 333 91209 555 11081 22085
BBXX 42363 02061 99282 70892 46/// /0117 10189 20078 40268 50000 90600 333 91217
BBXX 41101 02064 99146 70562 46/// /0822 10261 20216 40136 57020 22200 00267 10806 70030 555 1/029
BBXX 44040 02061 99410 70736 46/// /2506 10093 20074 40053 90545 22200 1//00 70002 333 91209 555 11082 22098
BBXX ZCDG7 02064 99279 71156 41997 00215 10159 20157 40215 52006 70200 80000 22233 00180 20401 332// 40301 5////
BBXX VRCI9 02064 99439 71306 41/96 /1528 10130 20113 40050 57030 76100 8//// 22275 00125 2//// 3//// 4//// 80120
BBXX ELPP9 02063 99229 70591 41599 50519 10250 20207 40170 54000 70222 85202 22274 04260 20504 305// 40504 5//// 6//// 80220 ICE /////
BBXX C6T2064 02063 99302 70789 41598 12710 10210 2016/ 40180 57010 70200 81200 22264 20302 80180
BBXX 2AKI3 02063 99173 70704 41/98 /0818 10253 20219 40168 50000 70222 8//// 22264 04275 2//// 3//// 4//// 5//// 80230
BBXX C6XC6 02064 99207 71072 41897 30216 10230 2//// 40160 52020 70300 831// 22273 00300 2//// 3//// 4//// 5//// 6//// 8//// ICE /////
BBXX VOKJ 02064 99455 70735 46/// /2007 10052 20018 49960 56013 7//// 8//// 22200 0//// 2////
BBXX VCWL 02064 99468 70712 46/// /0510 11010 21013 49975 57046 7//// 8//// 22200 0//// 2////
BBXX VCLM 02064 99468 70712 46/// /0405 11001 21003 49972 58046 7//// 8//// 22200 0//// 2////
BBXX CGBY 02064 99487 71235 46/// /3104 10037 20018 40184 56018 7//// 8//// 22200 0//// 2////
BBXX VXKF 02064 99468 70597 46/// /3110 10010 20005 40113 56005 7//// 8//// 22213 0//// 2////
BBXX CGDG 02064 99447 70636 46/// /1505 10007 20038 40134 56023 7//// 8//// 22200 0//// 2////
BBXX VOLG 02064 99467 70563 46/// /3508 10016 21004 40117 51030 7//// 8//// 22222 0//// 2////
BBXX CGJV 02064 99462 70631 46/// /2010 11013 21027 40121 56021 7//// 8//// 22200 0//// 2////
BBXX CGTF 02064 99476 70527 46/// /2801 10010 21004 40084 53055 7//// 8//// 22200 0//// 2////
BBXX VAAP 02064 99461 70602 46/// /1902 10001 21005 40119 50001 7//// 8//// 22200 0//// 2////
BBXX CGDX 02064 99468 70712 46/// /0708 11011 21013 49981 56047 7//// 8//// 22200 0//// 2////
BBXX VCSZ 02064 99466 70543 46/// /0227 10019 20019 40083 53025 7//// 8//// 22223 0//// 2////
BBXX CGDT 02064 99468 70712 46/// /0509 11001 21004 49979 58045 7//// 8//// 22200 0//// 2////
BBXX VRYO3 02064 99456 70735 46/// /2012 10058 20018 49952 56013 7//// 8//// 22200 0//// 2////
BBXX VOKF 02064 99490 70669 46/// /0404 11006 21039 40027 58048 7//// 8//// 22200 0//// 2////
BBXX 3FZK3 02064 99489 71237 46/// /2503 10023 20016 40184 56016 7//// 8//// 22200 0//// 2////
BBXX CGUM 02064 99460 70599 46/// /2008 10009 20005 40132 53008 7//// 8//// 22200 0//// 2////
BBXX CGDR 02064 99500 71252 46/// /1105 10069 20050 40167 56017 7//// 8//// 22272 00107 2////
BBXX CGCC 02064 99463 70725 46/// /2015 10036 20033 49957 56032 7//// 8//// 22200 0//// 2////
BBXX CGBN 02064 99447 70636 46/// /1705 10019 20000 40133 56024 7//// 8//// 22200 0//// 2////
BBXX VOPP 02064 99456 70735 46/// /1913 10052 20026 4//// 5//// 7//// 8//// 22200 0//// 2////
BBXX VOFG 02064 99456 70614 46/// /2105 10003 21005 40130 58002 7//// 8//// 22200 0//// 2////
BBXX VCRG 02064 99474 70619 46/// /1805 11011 21018 40116 58020 7//// 8//// 22200 0//// 2////
BBXX CGHL 02064 99476 70527 46/// /0909 10015 21001 40085 53054 7//// 8//// 22200 0//// 2////
BBXX CG2958 02064 99507 71275 46/// /0904 10079 20034 40100 56009 7//// 8//// 22200 0//// 2////
BBXX CGSB 02064 99483 70709 46/// /0830 11032 21052 49962 56055 7//// 8//// 22200 0//// 2////
BBXX CZ9742 02064 99506 70969 46/// /3211 11117 21161 4//// 5//// 7//// 8//// 22200 0//// 2////
BBXX VCBW 02064 99456 70735 46/// /2111 10058 20018 49956 56012 7//// 8//// 22200 0//// 2////
BBXX CGBR 02064 99525 71288 46/// /0624 10074 20067 40046 51005 7//// 8//// 22200 0//// 2////
BBXX 44007 02061 99435 70701 46/// /1808 10085 20085 40022 58046 90550 22200 00072 10603 20603 70016 333 91210 555 11090 22099 30504 41812 60549 177083 176088 177092 182089 179096 180093
BBXX 46026 02061 99378 71228 46/// /1305 10127 40208 53012 90550 22200 00113 11302 20301 327// 41302 70010 333 91207 555 11059 22067 30501 42809 60549 143054 269056 273061 273066 274067 276070
BBXX 46041 02061 99474 71247 46/// /1212 10108 40141 56012 90550 22200 00090 11005 20503 3//// 41003 70023 333 91214 555 11129 22140 30452 41215 60549 117118 122114 123113 121115 119121 120118
BBXX 46082 02061 99597 71434 46/// ///// 10026 49706 55000 90550 22200 00057 11412 70062
BBXX 46077 02061 99579 71543 46/// /2305 11039 21074 49918 56023 90550 22200 00028 10702 20401 3//// 40701 70008 333 91207 555 11055 22057 30453 42307 60549 231053 232053 241049 235053 229047 234050 82406 90542
BBXX 46072 02061 99517 71722 46/// /0510 10013 21008 49990 53008 90550 22200 00041 10906 20504 3//// 40905 70031 333 91211 555 11102 22107 30507 40313 60549 050097 037103 031098 036098 042096 043088 80411 90537
BBXX 46035 02061 99571 71778 46/// /0709 1//// 40087 52007 90550 22200 10805 20804 300// 41003 70023 333 91212 555 11093 22099 30501 40513 60549 068094 075091 062089 065096 060099 063094 80711 90549
BBXX 41040 02061 99145 70530 46/// /0711 10264 20220 40147 58020 90550 22200 00268 11107 20805 3//// 41105 70036 333 91213 555 11116 22123 30540 40713 60549 073107 074107 073106 076101 075109 081090 80812 90550
BBXX BATEU04 02064 99594 70459 46/// /3040 11065 21136 49931 56015 22233
BBXX BATFR16 02064 99238 70536 44598 21121 10244 20194 40218 56011 70100 821// 22214 00259 21004 308// 41004 5////
BBXX PHQX 02063 99132 70691 41498 40911 10265 20215 40150 56010 70211 83162 22254 20603 309// 40904 5//// 80230
BBXX PCEO 02063 99209 70551 41498 20904 10240 20202 40204 57014 7//// 82100 22254 04256 20802 309// 40904 5//// 80214
BBXX VOXS 02064 99467 70480 41397 83632 10029 2002/ 49971 52037 71022 885// 22200 04016 20402 320// 40807 80026
BBXX PFRO 02064 99260 70784 41597 42807 10214 20167 40210 7//22 835// 22264 20101 80185
BBXX FVNM 02064 99151 70826 46/// /0619 10274 20224 40156 58013 22200 00275
BBXX 44020 02061 99414 70702 46/// /2009 10097 20095 40046 56049 90550 22200 00066 10301 20301 70006 333 91211 555 11092 22098 30532 42614 60549 213088 261103 263092 264092 263088 258092
BBXX 46012 02061 99374 71229 46/// /1609 10105 40210 53014 90550 22200 00119 11202 20301 329// 41202 70011 333 91211 555 11092 22097 30548 41611 60549 165087 167086 166078 168070 165072 160064
BBXX 44014 02061 99366 70748 46/// /1207 1//// 40102 58010 90550 22200 00144 10703 20602 316// 40702 70016 333 91208 555 11068 22068 30450 41208 60549 118068 119061 117055 113051 111049 110051
BBXX 44027 02061 99443 70673 46/// /1711 10074 20057 40066 56047 90550 22200 00076 10503 20503 3//// 40801 70014 333 91212 555 11115 22122 30454 41614 60549 165109 165109 166110 163112 162112 159111
BBXX 44065 02061 99404 70737 46/// /2607 10102 20067 40052 56008 90550 22200 00094 10502 20502 313// 40901 70011 333 91209 555 11079 22086 30541 42609 60549 258074 255073 249066 253062 252054 253050 82608 90541
BBXX 44009 02061 99385 70747 46/// /2808 10122 40092 55000 90550 22200 00101 10704 20704 70018 333 91210 555 11091 22101 30459 42512 60549 279083 278073 275067 272070 257075 245081
BBXX 41013 02061 99334 70777 46/// /2512 10192 20156 40146 56012 90550 22200 00182 10704 20704 70022 333 91215 555 11125 22135 30532 42415 60549 249116 247119 242116 239118 237112 233125
BBXX 46069 02061 99337 71202 46/// /0000 10101 40224 51010 90550 22200 00132 11203 330// 41203 70016 333 91202 555 11004 22004 30537 41602 60549 181004 181013 213006 180000 180000 180000
BBXX 46105 02061 99590 71522 46/// ///// 1//// 90550 22200 11204 70018
BBXX 46025 02061 99337 71191 46/// /2704 10108 20107 40217 52012 90550 22200 00144 11402 326// 41402 70009 333 91205 555 11044 22045 30509 42507 60549 270042 261050 257056 243058 241056 248044
BBXX 46028 02061 99357 71219 46/// /1707 10112 40217 53011 90550 22200 00127 11203 20301 328// 41203 70015 333 91209 555 11071 22074 30545 41809 60549 167067 161064 159062 144061 133063 124062
BBXX 46054 02061 99342 71204 46/// /1901 10098 40223 51007 90550 22200 00129 11103 300// 41103 70016 333 91202 555 11012 22012 30546 41802 60549 192010 150009 136006 179007 185009 175009
BBXX 46029 02061 99461 71245 46/// /1207 10106 20057 40157 57005 90550 22200 00092 11004 20402 325// 41004 70021 333 91208 555 11072 22081 30528 41108 60549 117066 119066 120070 122064 121069 119063
BBXX 46087 02061 99485 71247 46/// /0908 10090 20055 40154 57011 90550 22200 00079 11003 20301 322// 41003 70017 333 91210 555 11086 22094 30454 40911 60549 092078 089076 094078 099081 100085 094090
BBXX 46088 02061 99483 71232 46/// /1409 10094 40156 56024 90550 22200 00077 10502 20502 70010 333 91213 555 11093 22102 30548 41313 60549 135081 140066 139080 138087 134083 131086
BBXX 46086 02061 99325 71180 46/// /3403 10117 40216 51009 90550 22200 00149 11403 328// 41403 70015 333 91205 555 11034 22035 30452 43305 60549 340033 342035 340033 332035 333034 333039
BBXX 46013 02061 99382 71233 46/// /1206 10127 40201 52010 90550 22200 00113 11202 20401 3//// 41202 70011 333 91208 555 11070 22079 30519 41108 60549 116064 113062 111065 112068 109063 102058
BBXX 46050 02061 99442 71246 46/// /1107 10097 40159 56004 90550 22200 00093 10903 20501 325// 40903 70017 333 91208 555 11073 22079 30516 41009 60549 110068 108068 105072 101077 102067 105062
BBXX 46047 02061 99324 71195 46/// /0101 10107 40227 51016 90550 22200 00135 11304 329// 41304 70021 333 91202 555 11006 22006 30452 43005 60549 020006 048007 338012 304025 309022 299029
AAXX 02061 45007 12558 60703 10189 20106 30182 40191 56041 60001 84531 333 59015 81628 83635
BBXX 46006 02061 99408 71375 46/// /2708 10118 40073 51022 90550 22200 00120 11410 20704 3//// 41409 70048 333 91210 555 11088 22093 30547 42710 60549 268082 279074 281074 283076 282077 280082
BBXX 46075 02061 99539 71608 46/// /2907 10013 20005 49988 54000 90550 22200 00036 11007 20603 300// 41007 70037 333 91210 555 11078 22082 30506 42811 60549 288074 285071 286079 287078 284080 270075 82809 90506
BBXX 46078 02061 99561 71526 46/// /2810 1//// 90550 555 11103 22110
BBXX 46084 02061 99566 71361 46/// ///// 10067 20056 49823 55004 90550 22200 00066 11209 70046
BBXX 41043 02061 99211 70650 46/// /1109 10254 20221 40196 58016 90550 22200 00258 11005 20703 300// 41004 70025 333 91210 555 11091 22096 30547 41010 60549 105083 101076 100079 100078 102076 100074 81109 90549
BBXX 46002 02061 99426 71305 46/// ///// 10125 40043 58011 90550 22200 00119 11008 70042
BBXX 44005 02061 99432 70691 46/// /1610 10089 20088 40037 58045 90550 22200 00081 10503 20503 70017 333 91213 555 11111 22120 30542 41713 60549 164104 163104 162102 165104 164102 166105
BBXX 42040 02061 99292 70882 46/// /3614 10153 40254 51007 90550 22200 00200 10604 20604 70020 333 91217 555 11142 22150 30503 43518 60549 002141 003131 004139 002137 359145 001140
BBXX 42019 02061 99279 70954 46/// /0212 10173 20070 40306 50000 90550 333 91215 555 11131 22140 30518 42815 60549 007121 283117 283119 284120 284122 285118
BBXX 42059 02061 99151 70675 46/// /0910 10272 20212 40146 58021 90550 22200 00276 10705 20503 3//// 40703 70023 333 91211 555 11104 22110 30451 40912 60549 090097 086090 087091 087090 089082 093100 81011 90454
BBXX 42056 02061 99198 70849 46/// /0509 10262 20243 40194 58008 90550 22200 00269 10804 20804 307// 41101 70018 333 91210 555 11091 22096 30511 40511 60549 048084 045082 045085 047087 045082 042085 80409 90525
BBXX 42036 02061 99285 70845 46/// /2506 10218 20202 40209 58017 90550 22200 00213 10301 20301 70005 333 91207 555 11061 22066 30524 42607 60549 251056 254054 255058 252055 251050 248049
BBXX 41060 02061 99148 70510 46/// ///// 1//// 90550 22200 11007 70037
BBXX 42060 02061 99163 70635 46/// /0711 10268 20211 40158 58020 90550 22200 00273 11004 20704 300// 41002 70022 333 91214 555 11113 22120 30548 40714 60549 073105 073102 071093 071098 071096 062091 80712 90549
BBXX 41001 02061 99347 70727 46/// ///// 10210 20155 40139 56026 90550 22200 00214 10705 70026
BBXX 42058 02061 99149 70749 46/// /0710 10268 20222 40132 58015 90550 22200 00271 10805 20604 310// 40804 70027 333 91212 555 11106 22113 30450 40812 60549 074098 074088 074095 073091 070091 069092 80811 90547
BBXX 41012 02061 99300 70805 46/// /2509 10204 40196 56010 90550 22200 00228 333 91210 555 11095 22100 30529 42512 60549 247090 249095 252097 248094 249095 251094
BBXX 42055 02061 99222 70940 46/// /0510 10241 20206 40240 50000 90550 22200 00251 10602 20602 70009 333 91212 555 11102 22108 30543 40412 60549 050095 030086 027086 022089 006092 010100 80111 90454
BBXX NWS0022 02064 99416 70714 43/// /2111 10116 20096 40025 5//// 7//// 8//// 222// 04096 2//// 3//// 4//// 5//// 6//// 8//// ICE /////
BBXX WDC6698 02064 99213 71579 43/// /1203 1//// 2//// 40170 5//// 7//// 8//// 222// 04238 2//// 3//// 4//// 5//// 6//// 8//// ICE /////
BBXX ELQQ4 02064 99195 70693 43/// /0819 10260 2025/ 40140 56010 7//// 8//// 22234 00260 203// 3//// 4//// 5//// 6//// 80250 ICE /////
BBXX HZRX 02063 99289 70798 41297 23010 /// 10220 20190 40206 55002 70111 82100 22214 10140 20101 33030 40200 5//// 6//// 80170 ///// /////
BBXX PBFM 02063 99388 70398 41/97 23430 10182 20171 40182 57017 70322 8277/ 22224 2//// 399// 40601 80175
BBXX WCX7445 02064 99642 50618 43/// /0508 10011 2//// 49834 5//// 7//// 8//// 22241 00024 2//// 3//// 4//// 5//// 6//// ICE /////
AAXX 02064 43466 22470 53203 10300 20210 30101 40113 81101 333 59002 60007 70000 81818 85080
BBXX 46011 02061 99350 71210 46/// /1102 10110 40224 51007 90550 22200 00131 11103 20401 329// 41103 70017 333 91204 555 11025 22025 30515 41005 60549 113026 136022 123027 104026 121028 106029
BBXX 46014 02061 99394 71240 46/// /1603 10120 40188 53003 90550 22200 00110 11202 20401 3//// 41202 70012 333 91203 555 11029 22035 30458 41204 60549 164025 155025 144028 136026 125033 120035
BBXX 46027 02061 99419 71244 46/// /1201 10095 40165 57006 90550 22200 00091 10903 327// 40902 70013 333 91201 555 11010 22012 30451 41003 60549 126007 130001 110006 106005 115009 095015
BBXX 41048 02061 99320 70696 46/// /2109 10212 20158 40193 56023 90550 22200 00219 10803 20602 3//// 40802 70017 333 91210 555 11087 22092 30534 42111 60549 213087 210088 209086 213086 210089 213086 82110 90535
BBXX 42012 02061 99301 70876 46/// /3511 10143 20050 40257 53012 90550 22200 00184 10402 20402 70009 333 91213 555 11116 22122 30521 43614 60549 347110 345105 347106 347109 350114 348120
BBXX 41044 02061 99217 70587 46/// /0908 10252 20202 40207 58016 90550 22200 00258 11105 20503 300// 41104 70027 333 91210 555 11084 22089 30452 40810 60549 091079 086082 082081 088081 086083 086078 80809 90509
BBXX 42020 02061 99270 70967 46/// /0211 10173 20075 40317 50000 90550 22200 00198 10605 20605 301// 41101 70024 333 91214 555 11121 22128 30526 40114 60549 014114 013115 014115 011116 014113 013118
BBXX 41049 02061 99275 70630 46/// /1202 10227 20187 40233 56012 90550 22200 00232 11003 20301 300// 41003 70017 333 91203 555 11023 22023 30452 41204 60549 123022 130020 118020 115026 118025 121026 81203 90452
BBXX 42035 02061 99292 70944 46/// /0111 10135 20043 40320 53008 90550 22200 00155 10402 20402 70012 333 91213 555 11118 22125 30532 40114 60549 008111 008114 006117 005109 004112 003109
BBXX 42065 02061 99170 70817 46/// /0408 10264 20228 90550 22200 10904 20703 3//// 40903 70022 333 91209 555 11082 22088 30526 40510 60549 041077 043077 045080 048081 051080 050081 80509 90550
BBXX 42001 02061 99259 70897 46/// /3106 10232 20200 40246 58015 90550 22200 00241 10601 20501 70003 333 91207 555 11060 22063 30542 43107 60549 308057 301058 295053 292052 285048 283041
BBXX 41047 02061 99275 70715 46/// /1709 10243 40205 58021 90550 22200 00254 10803 20501 335// 40803 70015 333 91210 555 11085 22090 30548 41710 60549 164085 164087 164089 168081 172072 170069 81709 90548
BBXX 44066 02061 99396 70726 46/// /2511 10135 20096 40056 56028 90550 22200 00123 10605 20605 70023 333 91213 555 11117 22126 30526 42416 60549 245109 243116 241127 234120 228109 226113
BBXX 42002 02061 99258 70937 46/// /0213 10210 20144 40278 50000 90550 22200 00246 10705 20404 335// 40703 70023 333 91216 555 11134 22143 30549 40316 60549 022134 027131 022127 026135 027136 026131
BBXX 46080 02061 99580 71500 46/// /2915 11024 21064 49872 53008 90550 22200 00044 10808 20606 3//// 40805 70039 333 91218 555 11154 22163 30459 42919 60549 290145 286148 286148 289155 289150 290154 82917 90500
BBXX 42003 02061 99260 70856 46/// /2703 1//// 90550 22200 10501 20301 312// 40501 70004 333 91204 555 11034 22036 30540 42804 60549 275033 285028 318024 304030 300030 302033 82804 90540
BBXX 41036 02061 99342 70770 46/// ///// 10188 20148 40132 56013 90550 22200 00211 10705 70023
BBXX 46059 02061 99380 71300 46/// /2211 10132 40108 53014 90550 22200 00140 11007 20706 3//// 41004 70034 333 91213 555 11120 22127 30548 42213 60549 215111 209101 207100 205100 204102 209105
BBXX 46005 02061 99461 71310 46/// ///07 10107 40032 51012 90550 22200 00099 11008 20503 3//// 41007 70040 333 91208 555 11076 22083
BBXX DBBH 02061 99376 10153 41498 13203 10126 20056 40269 53005 70200 81102 22241 04156 20200 307// 4//01
BBXX WDC6907 02064 99392 70189 41/// /2819 10144 2007/ 40326 51005 700// 8//// 22253 00180 2//// 3//// 4//// 5//// 6//// 80108 ICE /////
BBXX DBKR 02061 99541 10121 46/// /2505 10093 20093 49998 52021 22200 00055
BBXX DBND 02061 99536 10086 42/// /2304 10083 20083 40008 52008 22260 0007/
BBXX DBBC 02061 99535 10100 46/// /2504 10091 20075 40014 52014 22220 00057
BBXX DBBI 02061 99535 10100 46/// /2605 10091 20091 40012 52012 22270 00055
BBXX DBFH 02061 99535 10086 46/// /2103 10084 20078 40015 52008 22210 00061
BBXX DBJM 02061 99540 10085 46/// /2308 10068 20060 40003 52010 22200 00061
BBXX MCUV3 02063 99395 70237 41498 42615 10140 20122 40317 57002 70211 82145 22253 2//05 326// 4//05 5//// 80130
BBXX WAHV 02063 99375 10012 43499 32430 10160 2014/ 40228 56012 82400 22264 00161 20905 80150
BBXX DBBU 02061 99542 10120 46/// /2611 10085 20083 49998 52018 22240 00061
BBXX DBFR 02061 99535 10086 46/// /2204 10083 20083 40010 52008 22270 00057
BBXX DK7210 02061 99540 10066 46/// /2609 10085 20085 39979
BBXX CGDS 02064 99429 70792 46/// /3414 10017 21030 40056 50001 7//// 8//// 22200 0//// 2////
BBXX CG2350 02064 99433 70798 46/// /2320 10014 21019 40037 54000 7//// 8//// 22200 0//// 2////
BBXX CG2960 02064 99429 70824 46/// /2609 10003 21036 40081 50001 7//// 8//// 22200 0//// 2////
BBXX WL3972 02064 99460 70839 41/95 92829 11030 2//// 40020 5//// 77577 8//// 22200 00000 2//// 3//// 4//// 5//// 6//// 8//// ICE /////
BBXX WDF7994 02064 99443 70833 41/97 82932 10000 2//// 40146 57005 70202 89/// 22262 00033 20504 3//// 4//// 5//// 6//// 8//// ICE /////
BBXX A8SF7 02061 99222 51345 41598 30905 10260 20182 40175 53010 70200 831// 22254 04240 20501 311// 41003 5//// 80210
BBXX A8UT8 02064 99132 31167 41198 61704 10300 20243 40110 54000 70311 84345 22283 299// 80260
BBXX BATFR53 02064 99167 51249 46/// /0809 10252 20195 40186 53015 22222 00259
BBXX ZCBH7 02064 99010 31076 41597 30520 10302 20290 40141 56033 70322 8/272 22273 04294 20202 305// 40202 5//// 80293
BBXX ZCBZ5 02063 99042 11119 41497 50224 10282 20248 40084 58008 70322 82233 22224 02282 20303 336// 40605 5//// 80258
BBXX PCHM 02064 99339 31649 41598 51820 10195 20162 40166 52001 70222 84544 22264 00180 20202 316// 40304 80175
AAXX 02061 45007 12558 60703 10189 20106 30182 40191 56041 60001 84531 333 59015 81628 83635
BBXX A8IH2 02063 99080 51562 41698 60716 10280 20209 40120 53020 7//22 86460 22254 06285 21402 305// 41003 5//// 80230
BBXX A8KH9 02064 99031 30836 41498 53215 10280 20239 40080 54000 70300 84108 22214 20301 32200 41004 5//// 80250
AAXX 02064 78255 42559 10402 10210 20195 30053 40202 57010 81800 333 81820
AAXX 02064 78317 NIL
AAXX 02064 78318 NIL
AAXX 02064 78325 NIL
AAXX 02064 78333 NIL
AAXX 02064 78338 NIL
AAXX 02064 78348 NIL
AAXX 02064 78349 NIL
AAXX 02064 78353 NIL
AAXX 02064 78360 NIL
AAXX 02064 78367 NIL
AAXX 02064 78369 NIL
BBXX TBWAA05 02063 99589 10195 41297 81824 10020 21033 49983 56020 79592 887// 22263 2//// 3//// 4//// 5//// 80000 00/87 1/764 5989300/ 871/7 64598 93931/65 1/626 /807
AAXX 02064 93004 16/// /2122 10180 20126 40123 54000 60001
AAXX 02064 93023 16/// /0000 10203 20114 40120 52003 60001
AAXX 02064 93069 16/// /2216 10190 20120 40106 52004 6///1
AAXX 02064 93110 17697 /2315 10186 20128 40107 52003 60001
AAXX 02064 93186 17/98 /2512 10237 20179 40076 52015 60001
AAXX 02064 93196 16/// /1516 10183 20129 40093 52021 60001
AAXX 02064 93245 16698 /1117 10170 20119 40091 52024 60001
AAXX 02064 93292 17697 /1609 10173 20129 40119 52022 60001
AAXX 02064 93309 17/98 /1615 10192 20122 40101 52008 60001
AAXX 02064 93334 16/// /1804 10158 20106 39166 52012 60001
AAXX 02064 93339 16/// /1807 10141 20108 39174 52013 60001
AAXX 02064 93373 17598 /1609 10170 20117 40125 52023 60001
AAXX 02064 93404 17798 /1312 10158 20121 40119 52018 60001
AAXX 02064 93420 17998 /1610 10169 20100 40118 52021 60001
AAXX 02064 93439 17697 /1614 10142 20084 40144 52017 69921
AAXX 02064 93498 16/// /1916 10128 20108 40132 52018 69921
AAXX 02064 93515 17/96 /2908 10189 20128 40110 52007 60001
AAXX 02064 93527 16/// /0811 10171 20144 40118 52012 60001
AAXX 02064 93546 17698 /1008 10168 20113 40116 52016 60001
AAXX 02064 93597 16/// /1717 10134 20085 40141 52016 60001
AAXX 02064 93615 17/97 /3604 10186 20124 40106 52007 60001
AAXX 02064 93678 16598 /2508 10110 20093 40158 52019 60001
AAXX 02064 93709 16/// /2904 10183 20103 40106 52003 60001
AAXX 02064 93773 17597 /1205 10119 20069 40162 52017 60001
AAXX 02064 93781 17597 /1813 10135 20063 40157 52020 60001
AAXX 02064 93800 NIL
AAXX 02064 93805 NIL
AAXX 02064 93831 17/98 /1821 10149 20011 40127 52005 60001
AAXX 02064 93845 17/98 /2415 10134 20050 40171 52006 60001
AAXX 02064 93891 17798 /2111 10144 20047 40149 52005 60001
AAXX 02064 93909 16/// /2212 10108 20050 40171 52008 60001
AAXX 02064 93929 16/// /2113 10095 20033 40141 52010 60001
AAXX 02064 93947 16/// /2522 10075 20025 40079 52014 69941
AAXX 02064 93987 16/// /2318 10121 20086 40041 52020 60001
AAXX 02064 93994 NIL
AAXX 02064 60715 12558 31804 10109 20090 30259 40266 58001 60004 83280 333 20108 58027 83823 91005 91114
AAXX 02064 60723 11500 90002 10066 20076 30092 40287 55000 60004 747// 89/// 333 20072
AAXX 02064 60725 12558 21902 10058 2//// 30101 40286 58010 60004 82200 333 20058 82820
AAXX 02064 60735 12958 02202 10090 20070 30180 40270 55008 60004 333 20089
AAXX 02064 60745 12560 1//// 10021 20002 39907 40297 53001 60004 81500 333 20021 81630
AAXX 02064 60748 NIL
AAXX 02064 60750 12560 32601 10066 20034 30248 40274 58001 60004 83800 333 20065 82820
AAXX 02064 60760 12560 20000 10075 20014 30181 40289 53002 60004 82200 333 20072 82830
AAXX 02064 60765 NIL
AAXX 02064 60767 NIL
AAXX 02064 60769 12558 22810 10135 20077 30267 40271 53008 60004 82800 333 20131 81820
AAXX 02064 68029 32560 61502 10224 20206 48519 52013 82576 333 20186
AAXX 02064 68325 32960 03610 10251 20174 48513 52011 333 20179
AAXX 02061 38353 NIL
AAXX 02061 38613 42999 01001 10042 21013 40200 58007 333 21067
AAXX 02061 38616 42599 10000 10048 21005 39178 40194 58003 81500 333 21073
AAXX 02061 38345 32999 00902 10039 21089 38776 48480 57001 333 21098
AAXX 02061 36911 42999 70000 10064 21059 39219 40175 58003 80009 333 21131
AAXX 02061 36974 32998 32301 11166 21192 38008 48585 53010 83040 333 21240
AAXX 02061 36982 42598 60000 11158 21263 36535 47193 54000 82530 333 21212
AAXX 02064 60715 12558 31804 10109 20090 30259 40266 58001 60004 83280 333 20108 58027 83823 91005 91114
AAXX 02064 60723 11500 90002 10066 20076 30092 40287 55000 60004 747// 89/// 333 20072
AAXX 02064 60725 12558 21902 10058 2//// 30101 40286 58010 60004 82200 333 20058 82820
AAXX 02064 60735 12958 02202 10090 20070 30180 40270 55008 60004 333 20089
AAXX 02064 60745 12560 1//// 10021 20002 39907 40297 53001 60004 81500 333 20021 81630
AAXX 02064 60748 NIL
AAXX 02064 60750 12560 32601 10066 20034 30248 40274 58001 60004 83800 333 20065 82820
AAXX 02064 60760 12560 20000 10075 20014 30181 40289 53002 60004 82200 333 20072 82830
AAXX 02064 60765 NIL
AAXX 02064 60767 NIL
AAXX 02064 60769 12558 22810 10135 20077 30267 40271 53008 60004 82800 333 20131 81820
AAXX 02064 91165 NIL
AAXX 02064 91182 NIL
AAXX 02064 91190 NIL
AAXX 02064 91212 NIL
AAXX 02064 91217 NIL
AAXX 02064 91285 NIL
AAXX 02064 91317 32474 80908 10300 20278 30070 40074 5//// 82201 333 562/9 70000 82818 88080 555 90206
AAXX 02064 91334 32474 60410 10319 20235 30064 40067 57008 82101 333 561/9 70000 555 90206
AAXX 02064 91348 NIL
AAXX 02064 91356 NIL
AAXX 02064 91366 NIL
AAXX 02064 91369 NIL
AAXX 02064 91371 NIL
AAXX 02064 91376 11474 60712 10283 20234 30076 40080 53010 69931 70281 85801 333 562/9 70107 555 90206
AAXX 02064 91408 NIL
AAXX 02064 91413 32469 40709 10310 20234 30063 40088 57017 81171 333 56299 70000 555 90206
AAXX 02064 91425 NIL
AAXX 02064 91434 NIL
AAXX 02064 91765 NIL
AAXX 02064 91925 06/// /3401 10237 20206 30086 40147 53026 60001 333 55054 60007 90710 91106 555 60005 10609 58004
AAXX 02064 91929 04986 81407 10257 20226 30149 40152 52021 60012 700// 333 10292 20246 55/// 60007 70010 90710 91111 555 60005
AAXX 02064 91938 02575 61804 10263 20211 30156 40158 52025 60002 82832 333 10297 20263 30/// 55015 60007 70483 81820 86365 90710 91105 555 60005 12405 58010
AAXX 02064 91944 06/// /1008 10263 20199 30158 40161 51023 60002 333 10291 20262 55107 60007 70101 90710 91115 555 60005
AAXX 02064 91948 06/// /3603 10243 20196 30077 40179 51021 60001 333 55101 60007 90710 91108 555 60005 13608 58000
AAXX 02064 91954 06/// /2402 10239 20227 30160 40163 51020 60041 333 55/// 60047 555 58006
AAXX 02064 91958 06/// /2003 10229 20217 30173 40175 53020 60031 333 55002 69907 90710 91106 555 69905 11807 58007
AAXX 02064 91943 NIL
AAXX 02064 91945 NIL
AAXX 02064 91222 NIL
AAXX 02064 91245 NIL
AAXX 02064 91323 NIL
AAXX 02064 91339 NIL
AAXX 02064 91343 NIL
AAXX 02064 91353 NIL
AAXX 02064 91442 NIL
AAXX 02064 47101 31956 33402 11024 21095 30155 40255 57031 70500 80001
AAXX 02064 47105 369// /0504 10038 21037 30196 40229 57016
AAXX 02064 47108 31657 42307 11017 21100 30145 40255 57024 70522 82501
AAXX 02064 47115 41560 80713 11010 21040 39952 40233 55003 78582 888// 333 92044
AAXX 02064 47133 31658 43403 10000 21072 30171 40259 57020 70511 84500
AAXX 02064 47138 32966 02005 10067 21096 30225 40228 57017 333 92032
AAXX 02064 47159 32970 02906 10069 21123 30138 40224 55018 333 92022
AAXX 02064 47165 32665 63606 10017 21046 30206 40254 57015 86500 333 92022
AAXX 02064 47168 32966 02912 10052 21101 30151 40231 57020 333 92024
AAXX 02064 47184 41670 83207 10057 21010 30223 40249 57016 72162 8552/ 333 92033
AAXX 02061 14240 12960 12002 10018 21007 30046 40206 57010 60002 81030 333 21023 34106
AAXX 02061 14258 12970 01501 11019 21022 30016 40212 56007 60002 333 21021 34104
AAXX 02061 14445 12980 10603 10072 21027 30094 40253 53001 60002 81030 222// 00140 333 20068 30102 81399 92311
AAXX 02061 26038 01372 71305 11017 21028 30031 40073 56010 69902 70272 85670 333 11015 21039 47004 60007 85708 91008 91111 555 1/102 21039 3/105 51025 52102
AAXX 02061 26045 NIL
AAXX 02061 26058 NIL
AAXX 02061 26115 NIL
AAXX 02061 26135 NIL
AAXX 02061 26141 01684 71408 11027 21045 39950 40102 58011 60002 73632 82577 333 11025 21043 47001 60007 82650 91010 91113 555 1/103 21043 3/104 51029 52106
AAXX 02061 26231 01368 81606 11008 21024 30060 40075 56014 69902 70282 886// 333 11008 21016 47997 60007 88710 91010 91110 555 1/100 21016 3/100 51012
AAXX 02061 26242 01884 81405 11021 21048 30019 40108 58011 60002 70222 8807/ 333 11016 21045 47001 60007 88/58 91109 555 1/102 21045 3/103 51025 52107
AAXX 02061 26247 NIL
AAXX 02064 16622 12560 11004 11028 21031 30279 40290 53005 60002 81100 333 21028 30/// 50070 55080 70000 90730 91106 555 10000 30028 20000 89046 99092 30000 10012 2//// 30034 4//// 5//// 40000 47739 44210 50000 51028
AAXX 02064 16641 12970 00000 10004 20004 30253 40258 52013 60002 333 20002 30/// 55072 70000 90730 91103 555 10000 30036 20000 89050 99097 40000 47720 44210 50000 50004
AAXX 02064 16682 12960 00000 10000 21005 30218 40236 52009 60002 333 21002 30/// 50290 55079 70000 90730 91103 555 10000 30074 20000 89048 99096 30000 10030 20055 30060 40084 50110 60165 40000 47694 44200 50000 51002
AAXX 02064 16716 12560 23204 10064 20003 30239 40258 58001 60002 82100 333 20050 30/// 55055 70000 555 10000 30092 20000 89035 99067 40000 47706 44170 50000 50040
AAXX 02064 16734 NIL
AAXX 02064 16743 NIL
AAXX 02064 16749 12960 02809 10120 20056 30169 40183 52015 60002 333 20120 30/// 55063 70000 90730 91115 555 10000 30130 20000 89066 99090 40000 47657 44200 50000 50090
AAXX 02064 16754 12465 53512 10114 20048 30187 40235 52013 69912 85800 333 20110 31/// 50190 55017 70001 82818 85630 90730 91124 555 10000 30122 20000 89065 99090 40000 47674 44215 50000 50084 60000 60001 60010
BBXX 3FZK3 02064 99489 71237 46/// /2503 10023 20016 40184 56016 7//// 8//// 22200 0//// 2////
BBXX 46001 02061 99563 71480 46/// /2913 10002 49905 52025 90550 22200 00041 11010 20507 300// 41007 70048 333 91216 555 11140 22147 30452 42917 60549 286130 288136 287135 287138 289136 290134
BBXX 46026 02061 99378 71228 46/// /1305 10127 40208 53012 90550 22200 00113 11302 20301 327// 41302 70010 333 91207 555 11059 22067 30501 42809 60549 143054 269056 273061 273066 274067 276070
BBXX 46028 02061 99357 71219 46/// /1707 10112 40217 53011 90550 22200 00127 11203 20301 328// 41203 70015 333 91209 555 11071 22074 30545 41809 60549 167067 161064 159062 144061 133063 124062
BBXX 46042 02061 99368 71224 46/// /1908 10112 40215 53016 90550 22200 00125 11403 20402 326// 41402 70014 333 91209 555 11079 22084 30513 41910 60549 189075 193068 188067 182077 179076 176075
BBXX A8PX5 02064 99348 71378 41597 43022 10160 20144 40180 52040 70100 8/5// 2229/ 04170 20905 325// 41308 5//// 80150
BBXX CG2958 02064 99507 71275 46/// /0904 10079 20034 40100 56009 7//// 8//// 22200 0//// 2////
BBXX CGBR 02064 99525 71288 46/// /0624 10074 20067 40046 51005 7//// 8//// 22200 0//// 2////
BBXX CGBY 02064 99487 71235 46/// /3104 10037 20018 40184 56018 7//// 8//// 22200 0//// 2////
BBXX CGDR 02064 99500 71252 46/// /1105 10069 20050 40167 56017 7//// 8//// 22272 00107 2////
BBXX DGXS 02064 99517 71370 41298 63428 10062 20027 49965 52055 70122 8/77/ 22224 00080 2//// 3//// 4//// 5//// 80046
BBXX WDB9986 02064 99482 71381 41596 72413 10090 20070 40010 51010 70222 8672/ 22274 00090 20510 324// 40508 5//// 6//// 80080 ICE /////
BBXX LAHV 02061 99589 10057 43/// /1704 10054 20027 49890 222// 04081 1////
BBXX LF4H 02064 99596 10022 46/// /2318 10058 20004 49847 57004 8//// 22200 06085 10705 70027 333 91125
BBXX LMEL 02061 99603 10053 43/// /1502 10040 20038 49862 5//// 222/0 04083 1//// 3//// 4//// 5////
AAXX 02064 47090 32665 30504 10035 21062 30207 40230 57016 81501 333 92032
AAXX 02064 47095 31950 42305 11028 21101 30054 40250 57032 70500 80001
AAXX 02064 47097 329// /1602 11010 21101 30154 40253 57029
AAXX 02064 47098 329// /2004 11014 21102 30108 40247 57028
AAXX 02064 47099 329// /2306 11013 21099 30221 40259 55024
AAXX 02064 47100 32370 42503 11022 21100 39286 40225 57026 82501
AAXX 02064 47102 32668 72908 11025 21083 30074 40259 57014 87500
AAXX 02064 47104 32670 33605 10025 21028 30129 40228 57015 82501
AAXX 02064 47106 329// /3609 10042 21026 30173 40223 57014
AAXX 02064 47112 31656 42303 11003 21082 30173 40260 55018 70522 82501 333 92012
AAXX 02064 47114 31950 22702 11016 21109 30064 40253 57024 70500 80001
AAXX 02064 47119 31650 31603 11010 21077 30214 40258 57024 70500 83500
AAXX 02064 47121 329// /2703 11003 21087 39943 40246 57026
AAXX 02064 47127 329// /0502 11020 21096 30112 40259 57022
AAXX 02064 47129 31658 63604 10006 21060 30226 40263 57017 70522 86500
AAXX 02064 47130 32670 40504 10049 21044 30161 40223 57015 83501 333 92042
AAXX 02064 47131 31658 12904 11011 21083 30187 40260 57019 70500 81500
AAXX 02064 47135 329// /2711 11015 21087 39942 40251 55019
AAXX 02064 47136 32962 22504 10017 21111 30064 40240 57022 80001
AAXX 02064 47137 329// /2709 11002 21125 30125 40247 56017
AAXX 02064 47140 32961 23204 10007 21059 30229 40259 57015 80001 333 92022
AAXX 02064 47143 32965 22704 10040 21124 30162 40242 57026 80001
AAXX 02064 47145 31658 42302 10000 21079 30222 40249 57022 70511 84500
AAXX 02064 47146 32662 43202 10013 21067 30191 40259 56013 84500
AAXX 02064 47150 31657 23602 10009 21062 30233 40253 57018 70521 82500
AAXX 02064 47152 32968 00205 10064 21076 30178 40221 57020
AAXX 02064 47154 329// /2907 10020 21108 30185 40247 55020
AAXX 02064 47155 32966 01403 10052 21127 30180 40226 57024
AAXX 02064 47156 32662 60207 10023 21055 30165 40256 57016 86500
AAXX 02064 47157 32970 22506 10042 21131 39943 40215 57030 80001
AAXX 02064 47162 32970 22705 10061 21125 30187 40228 55019 80001 333 92022
AAXX 02064 47169 32670 73410 10037 21031 30157 40253 57016 87500 333 92043
AAXX 02064 47170 32665 63210 10031 21068 30205 40249 55014 86500 333 92023
AAXX 02064 47171 329// /0204 10015 21065 30202 40258 55014
AAXX 02064 47172 329// /3404 10019 21057 30184 40252 57012
AAXX 02064 47173 329// /3403 10020 21078 30138 40252 57021
AAXX 02064 47174 32965 33207 10018 21070 30037 40244 55016 80001
AAXX 02064 47175 32563 73208 11004 21039 39660 40249 57016 87500 333 92023
AAXX 02064 47185 32665 73218 10061 21027 30155 40247 55013 87500 333 92035
AAXX 02064 47188 32670 72907 10056 21020 30211 40233 57018 87500 333 92033
AAXX 02064 47189 32675 61403 10086 21004 30165 40225 57021 86500 333 92022
AAXX 02064 47192 32972 23602 10055 21145 30192 40230 57025 80001
AAXX 02064 17026 12570 52403 10050 20010 30221 40261 52022 69902 85200 333 20050 31004 55000 20666 70001 85830 91125 92438
AAXX 02064 17034 11561 72506 10055 20026 30213 40260 52028 60072 78182 84270 333 20054 32004 70066 84830 87359 92437
AAXX 02064 17070 12562 53601 11001 21027 39376 40274 52017 69902 85500 333 21001 3/101 41998 50024 55000 20096 70012 85630 91110
AAXX 02064 17084 11670 80901 10001 21007 39323 40258 52027 60012 72272 8552/ 333 21003 32000 55000 70083 85635 88460 91112 93100
AAXX 02064 17090 11665 80000 11001 21039 38724 48494 52023 60032 70272 8552/ 333 21004 3/101 47002 55007 70030 85637 88460 93101
AAXX 02064 17098 12560 72102 11104 21107 38167 48489 53005 60002 84530 333 21171 3/117 46017 50014 55003 20699 70006 84630 85357
AAXX 02064 17150 12660 43410 10042 20012 30138 40265 52009 60002 83140 333 20034 32002 50011 55000 20092 70012 83835 84360
AAXX 02064 17160 12670 83613 10008 21009 39040 48502 52023 60002 8652/ 333 20007 32001 55000 70004 86640 88460 91122
AAXX 02064 17184 12970 03602 10027 20003 30143 40258 52014 60002 333 20027 31101 55000 91110
AAXX 02064 17189 12670 73109 11003 21034 39062 48515 52016 69902 84550 333 21003 32101 70097 84635 87360
AAXX 02064 17210 11640 80000 10045 20028 39137 40184 53010 60002 71022 8452/ 333 20036 32001 50111 70008 84633 88459
AAXX 02064 17234 12970 01301 10027 20016 30161 40231 52013 60002 333 20026 31000 50064 55056 91104
AAXX 02064 17260 11335 70305 10056 20052 39350 40178 52017 60062 76064 87700 333 20053 32003 50094 55000 20096 70068 83707 87630 96010
AAXX 02064 17290 12970 00102 10073 20033 30179 40212 52012 60002 333 20070 31004 50204 55070 91112 92408
AAXX 02064 17370 11665 21301 10088 20053 30166 40170 52017 60062 70282 82200 333 20082 32006 50044 55000 2//// 70085 82840 92427
AAXX 02064 17022 12662 61102 10040 20010 30103 40274 52013 60022 84230 333 20037 32004 55000 70163 84834 86360 91106 92427
AAXX 02064 17031 11670 72913 10070 21006 30249 40255 52021 60022 70262 84450 333 20061 32005 70028 84636 87360
AAXX 02064 17038 11556 73115 10064 20034 30188 40240 52041 60022 78082 85250 333 20062 32/// 55020 20444 70016 85830 87360 92446
AAXX 02064 17050 12970 03601 11025 21026 30213 40278 52003 60002 333 21026 34103 55053 91103
AAXX 02064 17060 12660 23506 10019 21009 30234 40275 51011 60002 82100 333 20010 30101 50131 20113 70002 82835
AAXX 02064 17096 11531 61103 11050 21050 38210 48483 52007 60002 71022 84550 333 21073 3/108 47013 55029 20247 79999 84630 86358
AAXX 02064 17124 12560 63006 10001 21027 39317 40263 52016 60002 86500 333 21006 31101 50074 55000 20126 70002 86630
AAXX 02064 17128 12670 10000 11054 21054 39124 40270 52021 60002 81500 333 21072 3/108 41002 50024 55000 20059 70126 81640
AAXX 02064 17170 NIL
AAXX 02064 17195 11456 82105 10015 20006 38978 48495 52020 60012 76862 8652/ 333 20014 3/000 45998 50064 55021 20582 70012 83711 85630 88458 93100 96010
AAXX 02064 17199 11558 82302 10031 20029 39083 40196 52012 69932 71062 8562/ 333 20025 32002 55000 20184 70003 82720 84635 88459
AAXX 02064 17219 12565 13609 10040 21000 30090 40239 53010 60002 81100 333 20038 30002 55067 20346 81830 91120
AAXX 02064 17240 12670 32601 11004 21026 39051 40231 52017 60002 83500 333 21006 32101 55000 20193 70156 83635 91105
AAXX 02064 17244 12570 63110 10016 21023 39018 48508 52023 69902 84550 333 20015 32/// 55/// 2//// 70050 84630 86359
AAXX 02064 17280 11656 82501 10044 20040 39383 40186 52012 69942 76062 8552/ 333 20023 32000 50081 55000 20046 70032 85635 88459 96010
AAXX 02064 17350 12660 53603 10063 20051 30089 40169 52017 69902 83250 333 20044 32/// 70116 83835 85360
AAXX 02064 17024 11340 81908 10037 20010 30185 40265 52019 60052 77722 8572/ 333 20032 32003 55000 70210 83709 85632 88460 91116 92446
AAXX 02064 17056 12970 03102 11002 21003 30271 40276 50005 60002 333 21007 34102 55002 20188 91109 92428
AAXX 02064 17067 12670 31701 10029 20001 30250 40273 52012 60002 83200 333 20029 32002 55000 70010 83840 91106 92408
AAXX 02064 17092 12660 61202 11009 21016 38856 48482 52014 60002 84550 333 21023 34104 50114 55006 20364 84638 86359
AAXX 02064 17112 11956 00703 11005 21016 30274 40277 50007 60002 71000 333 21005 34102 50084 55001 20021 91107 92416
AAXX 02064 17115 12660 40407 10054 20007 30217 40270 52012 60002 83230 333 20050 31004 50044 55000 20067 70016 83835 84360
AAXX 02064 17116 12660 60000 10016 20004 30152 40278 52016 60002 84250 333 20015 32101 55000 20004 70020 84835 86360 91106
AAXX 02064 17188 11957 02702 11022 21040 39152 40249 52013 60002 71000 333 21026 34104 70010 91104
AAXX 02064 17202 11457 82103 10021 20017 39162 40203 52013 60022 76122 8652/ 333 20010 32000 70018 83718 85630 88459 96010
AAXX 02064 17248 11520 82203 10015 20008 38993 48497 52019 60022 71062 8552/ 333 20011 32001 55000 2//// 70015 85630 88459
AAXX 02064 17292 12970 03204 10040 21006 39431 40202 52012 60002 333 20018 31002 50054 55005 20456 91114
AAXX 02064 17300 12960 03111 10090 20010 30106 40178 52020 60002 333 20075 31/// 50091 55/// 2//// 70032
AAXX 02064 17310 NIL
AAXX 02064 17330 12670 23503 10109 20031 30160 40178 52014 60002 82100 333 20090 32005 50081 55002 70166 82840
AAXX 02064 78016 32464 31807 10198 20176 30209 40213 57018 83400 333 10219 20179 70005
AAXX 02064 60748 13565 30000 10040 20034 39850 40266 58002 60004 83200 333 20038 83823
AAXX 02064 60765 13956 02506 10109 20044 30286 40290 53002 60004 333 20105 92436 925//
AAXX 02064 60767 12558 22310 10068 20015 30136 40285 52007 60004 82500 333 20057 82630
AAXX 02064 61974 11465 32103 10305 20241 40110 60004 71500 83940 333 20230 59008 81917 83819 94329
AAXX 02064 61986 12580 11403 10280 20241 40109 60004 81200 333 20266 59003 81820 94323
AAXX 02064 61988 12580 21608 10295 20217 40117 60004 82200 333 20244 50612 59004 82820
AAXX 02064 61989 12580 31412 10294 20221 40125 60004 83200 333 20248 59004 83820
AAXX 02064 61990 12475 30606 10289 20217 40125 60004 83800 333 02100 20233 50742 59002 83819 94322
AAXX 02064 61995 12475 41106 10264 20196 39645 60074 84800 333 01919 20208 55023 59007 84819 94322
AAXX 02064 60748 13565 30000 10040 20034 39850 40266 58002 60004 83200 333 20038 83823
AAXX 02064 60765 13956 02506 10109 20044 30286 40290 53002 60004 333 20105 92436 925//
AAXX 02064 60767 12558 22310 10068 20015 30136 40285 52007 60004 82500 333 20057 82630
AAXX 02061 26645 32297 81803 11024 21030 39869 40135 57005 886// 333 21041 47003 88706 555 90010
AAXX 02061 26659 32562 61502 11047 21064 39951 40173 54000 86500 333 21070 47002 86627 555 90010
AAXX 02061 26763 32960 61301 11072 21085 39954 40193 53004 84012 333 21096 47002 555 90010
AAXX 02061 26825 11232 81703 10003 20000 39930 40116 57008 69932 71022 886// 333 21020 42997 88704
AAXX 02061 26832 31245 81702 11011 21015 39936 40133 57006 71022 886// 333 21026 43001 88704 555 90010
AAXX 02061 26887 32497 83201 11043 21062 39982 40196 52012 886// 333 21062 47005 88715 555 90011
AAXX 02061 26961 32560 71501 11034 21056 39984 40184 53001 87500 333 21085 47001 87620 555 90011
AAXX 02061 33027 32997 81502 11020 21039 30005 40178 56003 8807/ 333 21047 555 90012
AAXX 02064 16245 11458 71107 10122 20108 30215 40242 56002 69982 76122 86130 333 20110 31/// 55/// 2//// 82815 84820 85356
BBXX BATUK01 02064 99560 70032 46/// /2506 10027 21013 49910 58001 22200 00059
BBXX DGLM 02064 99060 10023 41797 12409 10265 20251 40132 52012 70511 8/407 22200 2//01 80255
AAXX 02064 08001 11462 5//// 10104 20083 30159 40214 52008 60102 72562 82872 333 20094 32007 50184 55008 70148 924/7
AAXX 02064 08015 11765 72908 10089 20009 39825 40234 53013 69982 760// 87070 333 20079 32006 50224 55007 70008
AAXX 02064 08023 11560 82819 10123 20059 30148 40219 52016 60022 70262 8387/ 333 20115 50153 55041 70019
AAXX 02064 08027 11462 82813 10090 20078 39907 40220 52014 60082 76162 885// 333 20086 32007 50200 55053 70085
AAXX 02064 08045 01565 32101 10095 20078 39965 40279 53011 60212 70162 8257/ 333 20091 32008 55000 60037 70291
AAXX 02064 08141 NIL
AAXX 02064 08160 12770 42710 10114 20048 39912 40221 53003 60002 81571 333 20070 55081 70000
AAXX 02064 08181 02680 40101 10088 20032 30183 40189 55008 60002 81872 333 20070 3/007 55044 60007 70000
AAXX 02064 08221 04280 72416 10079 20054 39566 40260 55006 60002 86841 333 20047 30002 55084 60007 70000
AAXX 02064 08231 NIL
AAXX 02064 08261 11350 82205 10096 20088 39811 40299 56001 69922 75062 887// 333 20092 31008 55069 70002
AAXX 02064 08284 02980 52819 10135 20042 30158 40234 53005 60002 84022 333 20081 30007 50234 55088 60007 70000
AAXX 02064 08306 11256 13201 10102 20099 30209 40215 56010 60002 71011 81600 333 20078 55080 70000
AAXX 02064 08314 02468 72213 10147 20127 30107 40210 56010 60002 875// 333 20106 3//// 55072 60007 70000
AAXX 02064 08430 12970 32603 10082 20050 30182 40259 53001 60002 80006 333 20065 30004 50121 55094 70000
AAXX 02064 08482 12670 23018 10136 20060 30285 40294 53004 60002 82100 333 20126 55084 70000
AAXX 02064 60710 12960 00705 10077 20070 30178 40260 58004 69924 333 20077 70002
AAXX 02064 60714 12550 10602 10084 20076 30270 40276 58003 69924 81200 333 20084 70002 81820
AAXX 02064 60720 13558 30000 10098 20093 30232 40266 58004 60014 83200 333 20098 70013 83820
AAXX 02064 60728 13962 03104 10099 20099 30176 40272 53002 60004 333 20099
AAXX 02064 60729 13956 00000 10067 20067 30091 40284 56002 60004 333 20066
AAXX 02064 60731 05957 02203 10076 20069 30262 40269 55000 69924 333 10148 20070 58021 5///4 69927 70002 91004 91110
AAXX 02064 60732 13558 42304 10063 20054 39657 40282 58009 60004 84800 333 20046 82820 83626
AAXX 02064 60734 13560 62402 10068 20068 39741 40277 58004 60004 82582 333 20058 82630 83360
AAXX 02064 60738 NIL
AAXX 02064 60739 NIL
AAXX 02064 60740 12456 11604 10087 20070 30268 40270 55003 60004 81200 333 20087 81816
AAXX 02064 60742 NIL
AAXX 02064 60764 NIL
AAXX 02064 60770 13975 02504 10104 20054 30138 40280 53002 60004 333 20102
AAXX 02064 60772 13965 01804 10124 20028 30024 40284 53003 60004 333 20120
AAXX 02064 60775 13975 02504 10091 20010 39930 40295 53002 60004 333 20091 55074
AAXX 02064 60780 13960 00000 10033 21003 39996 40318 53002 60004 333 20032
AAXX 02064 16206 12565 60306 10084 20060 30218 40226 56010 60002 87800 333 20084 30/// 55/// 2//// 81825 85640
AAXX 02064 78016 32464 31807 10198 20176 30209 40213 57018 83400 333 10219 20179 70005
AAXX 02064 78016 32464 31807 10198 20176 30209 40213 57018 83400 333 10219 20179 70005
AAXX 02064 04005 41489 60208 11032 21076 49700 52002 71522 86800 555 3/311
AAXX 02064 04018 42684 10315 11018 21039 49651 52019 81580 555 3//15 81645
AAXX 02064 04030 42886 11704 11046 21074 49652 52016 81030 555 3//05 81357
AAXX 02064 04048 NIL
AAXX 02064 04063 42570 82704 11020 21035 49670 52004 8572/ 555 3//04
AAXX 02064 04077 NIL
AAXX 02064 04082 NIL
AAXX 02064 04097 41556 83106 10004 21007 49656 52001 78582 883// 555 3/408
AAXX 02064 60060 32956 01202 10134 20105 40291 5//// 333 20124 30010
AAXX 02064 60106 32560 52404 10100 20068 40330 52002 85200 333 20080 85820
AAXX 02061 15502 12970 33401 11072 21081 30209 40251 56003 60002 80005 333 11024 21072 55065 70000 555 30108 593// 92601
AAXX 02061 15525 12981 11803 11048 21076 39982 40263 53001 60002 81030 333 11012 21048 42001 70000 555 3/107 581//
AAXX 02061 15528 12670 20000 11038 21057 30043 40243 54000 60002 82500 333 10004 21046 41998 55068 70000 555 3/107 587// 92602
AAXX 02061 15535 12968 20000 11033 21050 30202 40251 52010 60002 80002 333 11004 21036 55066 70000 555 34/// 588// 92602
AAXX 02061 15549 12970 02001 11042 21054 39828 40267 54000 60002 333 11023 21042 43004 70000 555 3/106 590//
AAXX 02061 15552 11960 20000 11004 21032 30207 40258 52003 60002 74000 81031 222// 2//00 333 10005 21016 55067 70000 555 34106 581// 92012 92413 92600
AAXX 02061 15614 12670 10000 11070 21077 39550 40301 52007 60002 81100 333 11026 21087 44008 55076 70000 555 3/113 594//
AAXX 02061 15615 11988 03608 11068 21088 37125 47063 52008 60002 70200 333 11066 21128 44999 55080 70000 555 586//
AAXX 02061 15626 11970 00000 11096 21117 30077 40281 53002 60002 70240 333 11014 21096 43004 55053 70000 555 3/111 584// 92710
AAXX 02061 15627 11389 23410 11055 21089 37630 47060 53005 60002 70300 81501 333 11055 21095 48034 55079 70000 555 577//
AAXX 02061 15640 12974 00000 11026 21068 39945 40274 57026 60002 333 10014 21028 55076 70000 555 34104 573//
AAXX 02061 15655 12965 00000 11012 21024 30223 40258 52001 60002 222// 00070 332// 40601 333 10040 21015 70000 555 34/// 591// 92602 92023 92428
AAXX 02061 15712 12980 03201 11054 21054 30034 40301 53009 60002 333 10004 21060 42004 55084 70000 555 3/111 500//
AAXX 02061 15730 11/00 90000 11074 21084 39869 40289 58003 60002 74941 333 10004 21076 42003 55048 70000 555 3/112 593// 92721
AAXX 02061 14015 12670 60000 11010 21016 39859 40232 57004 60002 84531 333 21015 34105 55038 70000 84640 555 20010 30017
AAXX 02061 14023 12799 42507 10066 21011 39899 40196 57006 60002 81532 333 21034 31105 55016 70000 81656 555 20008 30012
AAXX 02061 14024 12899 22513 10013 21026 39087 48475 58005 6990/ 81048 333 20013 34102 42012 55016 70000 91121 92863 95000
AAXX 02061 14026 12998 32801 11016 21028 39848 40180 57015 60002 80002 333 21023 34104 55013 70000 555 20006 30013
AAXX 02061 14031 11994 50000 11025 21028 39945 40183 56014 60002 710// 83038 333 21025 34105 55022 70000 555 21001 30008
AAXX 02061 14105 12698 81205 10024 20006 30229 40234 57008 60002 885// 333 20005 31101 55072 70000 88648 555 20025 30034
AAXX 02061 14106 12998 80000 10004 21001 30160 40231 57009 60002 8802/ 333 21031 34105 55045 70000 95000 555 20007 30011
AAXX 02061 14112 12/97 82302 10028 29080 60004 333 10087 21025 3/104 70000
AAXX 02061 14121 12998 12701 11021 21027 39937 40215 57005 60002 80001 333 21021 34104 55015 70000 555 20009 30018
AAXX 02061 14122 12970 12804 10005 21009 30008 40211 57007 60002 80001 333 21019 31/// 70000
AAXX 02063 04013 42589 80218 11022 21058 49677 52013 82220 555 3//18
AAXX 02063 04064 42660 60205 11008 21015 49635 52008 8352/ 555 3//09
AAXX 02064 60739 13556 41908 10031 20019 39447 40300 56005 60004 83202 333 20021 83830 94249
AAXX 02064 16614 12960 00000 11110 21131 39491 40337 53009 60002 333 21123 42998 55070 70000 90730 91104 555 10000 31048 20000 89044 99091
AAXX 02064 16627 12960 00000 11040 21051 30274 40278 52003 60002 333 21040 34/// 50000 55055 70000 90730 91105 555 10000 30030 20000 89044 99072 30000 10016 20020 30038 40052 50072 6//// 40000 47738 44230 50000 51042
AAXX 02064 16667 12565 13509 10072 20024 30250 40255 53012 60002 81100 333 20056 30/// 55034 70000 90730 91117 555 10000 30090 20000 89062 99084 30000 20064 30078 40000 47716 44190 50000 50052
AAXX 02064 16675 NIL
AAXX 02064 16710 36/// /0000 11052 21059 39490 40310 52009 333 21052 90730 91102 555 10000 30027 20000 89051 99097
AAXX 02064 16723 12560 33609 10074 20021 30213 40229 52008 60002 83150 333 20074 30/// 55/// 70000 90730 91120 555 10000 30094 20000 89056 99085 40000 47691 44210 50000 50052
AAXX 02064 16738 NIL
AAXX 02064 16746 11560 40212 10080 20058 30056 40243 51007 60032 72162 84800 333 20080 32/// 55042 70041 82820 84630 90730 91121 555 10000 30102 20000 89063 99097 40000 47571 44180 50000 50070 60000 60030 60125 70000 77R// 7R///
AAXX 02064 16643 12975 00310 10052 20006 30265 40270 52005 60002 333 20046 30/// 70000 90730 91113 555 10000 30064 20000 89046 99085 40000 47729 44210 50000 50034
AAXX 02064 16648 12560 10000 11040 21058 30189 40285 50004 60002 81100 333 21040 30/// 50040 55073 70000 90730 91104 555 10000 30024 20000 89044 99092 30000 10010 2//// 30060 40070 5//// 6//// 40000 47672 44210 50000 51044
AAXX 02064 16650 12560 20000 10024 21016 30258 40262 52004 60002 82100 333 20024 30/// 55027 70000 90730 91104 555 10000 30074 20000 89055 99083 30000 10030 20038 30034 40044 50098 60120 40000 47725 44225 50000 50010
AAXX 02064 16684 12565 50307 10088 20010 30226 40254 52007 60002 85500 333 20084 30/// 55000 70000 90730 91111 555 10000 30094 20000 89056 99073 40000 47699 44200 50000 50056
AAXX 02064 16732 11570 33628 10104 20013 30220 40233 52010 60002 701// 83200 333 20098 31/// 55005 70000 90730 91138 555 10000 30114 20000 89061 99071 40000 47690 44150 50000 50066
AAXX 02064 17042 11560 72608 10061 20051 30204 40244 52045 60182 78022 84250 333 20059 32005 55038 70182 84830 87358 92437
AAXX 02064 17074 12670 61901 11012 21052 39307 40273 52018 60012 84230 333 21012 3/102 45998 55000 20126 70060 84833 86360 91107
AAXX 02064 17086 11665 81011 10020 21023 39504 40232 52028 60032 77062 8552/ 333 20019 32002 55000 20301 70033 85633 88459
AAXX 02064 17088 11550 82308 10009 21071 38802 48500 52021 60012 77077 8552/ 333 20004 3/000 43001 55000 20234 70012 85631 88459 93101
AAXX 02064 17140 11450 80505 11017 21030 38718 48500 52022 69922 71022 8672/ 333 21018 3/102 47001 55000 2//// 70012 82710 85638 88459
AAXX 02064 17155 11670 73403 11004 21038 39111 40264 52013 69922 70172 85550 333 21006 3/101 47001 55000 70014 85635 87359 91109 93101
AAXX 02064 17203 11520 80000 11005 21010 38877 48523 52011 69942 77072 8552/ 333 21011 3/103 47005 55000 2//// 70004 85632 88457 93101
AAXX 02064 17237 12670 82603 10034 20011 39727 40245 52015 60002 8552/ 333 20031 32003 55000 70034 85633 88458 91109
AAXX 02064 17250 11606 82506 10001 21004 38813 48500 52022 60002 74622 8452/ 333 20001 30100 55000 84638 88460
AAXX 02064 17270 11558 80000 10060 20052 39523 40178 52013 60032 72162 8561/ 333 20058 32005 55000 70034 81720 85635 88459 96010
AAXX 02064 17295 12960 03514 10099 20016 30176 40183 52017 60002 333 20095 30009 50114 55072
AAXX 02064 17320 12970 23404 10091 20078 30166 40171 52012 60042 80001 333 20080 32006 50121 55000 70336 82070 92448
AAXX 02064 17375 12970 03404 10128 20000 30175 40177 52021 60002 333 20082 30004 50101 55043 91109 92428
AAXX 02061 01241 11988 21308 10025 21016 39844 49855 57010 60002 70200 81072 333 20022 47997 70024 91111
AAXX 02064 17500 11560 40000 10087 20082 30121 40181 52021 60222 70181 83830 333 20086 32008 50051 55031 20451 70413 81825
AAXX 02064 17501 11560 61603 10113 20079 30146 40165 52017 60032 72582 86200 333 20095 32008 55019 20553 70052 82825 84830 92437
AAXX 02064 17505 11560 60000 10103 20082 30057 40172 52014 60112 70282 86200 333 20103 32008 55028 20691 70212 82825 84830
AAXX 02064 17507 11560 42707 10108 20074 30065 40187 52019 60052 70181 83830 333 20106 32009 5///1 55/// 2//// 70153 81825
AAXX 02064 17510 11560 60000 10108 20096 30135 40145 52016 60102 70282 86900 333 20106 31009 5///1 55040 20761 70188 81925 85830 92427
AAXX 02064 17515 11560 60000 10080 20067 30009 40188 52018 60052 70282 86200 333 20084 32006 50151 55028 20705 70110 82825 84830
AAXX 02064 17521 12560 52205 10085 20076 30026 40167 52021 60042 84930 333 20076 32/// 50101 55035 20708 70052 81925 83830
AAXX 02064 17530 11560 60000 10109 20095 30118 40175 52017 60062 70282 86200 333 20092 32008 55032 20712 70100 82825 84830
AAXX 02064 17535 11560 60406 10115 20089 30117 40153 52016 60052 70282 86200 333 20103 32009 55010 20602 70138 82825 84830
AAXX 02064 17540 12560 40107 10140 20094 30159 40183 52021 60002 83230 333 20089 31005 50141 55/// 2//// 70094 83825 92437
AAXX 02064 17547 11560 40307 10101 20087 39921 40167 52020 60032 70181 83230 333 20082 31006 5///1 55006 20348 70274 83825 92437
AAXX 02064 17550 11560 60000 10105 20092 30018 40165 52019 60132 78082 86200 333 20089 32008 55017 20527 70180 82825 84830 92447
AAXX 02064 17572 11560 6//// 10123 20088 30155 40180 52017 60062 70282 86900 333 20110 31009 70250 81925 85830 92427
AAXX 02061 01001 11350 81106 10007 20001 39739 49750 52020 69902 71054 887// 333 21001 44999 70001 91110
AAXX 02061 01055 46/// /1620 11031 21065 30005 40023 53005 333 21043 91131
AAXX 02061 01317 41580 61303 10046 20018 39849 49863 58010 72782 85690 333 20044 91111
AAXX 02064 68026 32960 53404 10240 20200 48520 52018 333 20195
BBXX VCXF 02064 99464 70484 41296 80238 10024 2002/ 49955 52044 71054 887// 22200 02023 20607 320// 40804 80024
BBXX VCXF 02064 99464 70484 41296 80238 10024 2002/ 49955 52044 71054 887// 22200 02023 20607 320// 40804 80024
AAXX 02061 26106 11/97 81406 10000 21012 40083 57010 69912 77076 8872/ 333 21006 43997 91010 91110 93492
AAXX 02061 26313 12/97 81706 10009 20000 40046 57017 60012 886// 333 21001 43997 91010 91111
AAXX 02061 26346 32997 61504 11036 21051 40125 57010 86030 333 21054 47001 93501
AAXX 02061 26406 11296 81305 10013 20008 40032 57020 60012 71022 886// 333 21003 42997 88705
AAXX 02061 26416 33/// /1505 10000 21006 40056 57015 333 21014
AAXX 02061 26424 11497 81607 11002 21007 40072 57012 69902 70282 885// 333 21012 88616 91110
AAXX 02061 26544 32497 81604 11029 21035 40135 57006 883// 333 21040 47002
AAXX 02061 38353 42998 52201 10097 21112 39289 40172 52002 80001 333 21111
AAXX 02061 26115 21260 81405 10019 20012 30020 40028 58013 71022 886// 333 10023 20009 42997 60007 88705 91012 91113 555 1/001 20009 3/100 50015
AAXX 02061 26509 11395 81105 10013 20010 30027 40036 57024 60022 71052 886// 333 21005 31/// 91010 91110 555 53010 7002/
AAXX 02061 26518 11/93 91406 11002 21002 40061 57015 69902 74984 333 21017 45997 91009 91109 555 53009 7990/
AAXX 02061 26524 11295 81503 11001 21001 39938 40073 57018 69942 71062 886// 333 21011 34/// 88704 91007 91108 93402 555 53009 7994/ 94003
AAXX 02061 26531 11359 81504 11002 21014 40102 57006 69902 77172 8872/ 333 21008 34/// 88709 91007 91109 555 53009 7990/
AAXX 02061 26629 11228 81506 10002 21001 39997 40093 57016 69902 75152 886// 333 21016 41997 88704 91008 91110 555 53010 7990/
AAXX 02061 26633 32465 81504 11010 21025 39986 40119 56005 886// 333 21023 43003 88713 91007 91108 555 53008 7000/
AAXX 02061 26730 31250 81605 11013 21015 39926 40123 57006 71022 886// 333 43004 88705 91008 91109 555 53009 7000/
AAXX 02061 13160 32997 01801 11005 21010 30105 40218 57006 333 21005 34102 55024 70000
AAXX 02061 13262 32998 00000 11010 21024 30067 40223 57008 333 21012 34106 55075 70000
AAXX 02061 13272 32965 00801 11003 21028 30101 40225 57009 333 21013 31105 55054
AAXX 02061 13285 32698 31103 11006 21019 30140 40247 57009 83500 333 21039 34106 55046 70000
AAXX 02061 13289 32999 03005 10010 21006 39018 48512 55000 333 21040 3/106 43004 55069 70000
AAXX 02061 13376 32997 01201 11029 21036 39989 40265 57007 333 21029 34106 55078 70000
AAXX 02061 13388 32997 10000 11037 21057 30018 40280 54000 81030 333 21038 34108 55039 70000
AAXX 02061 13462 32970 00000 11025 21050 30231 40273 53003 333 21025 34106 55///
AAXX 02061 13473 NIL
AAXX 02061 13489 31996 00000 11072 21076 39753 40307 53009 333 21070 34109 55045 70000
AAXX 02064 06030 01365 72409 10058 20050 39923 49939 52009 60022 70262 87500 333 10081 20058 32/// 69907 70028 81709 87640
AAXX 02064 06060 01465 72408 10065 20057 39894 49958 53016 60022 70262 86501 333 10084 20066 32005 69927 70024 82612 86622
AAXX 02064 06070 07482 52608 10072 20055 39928 49958 52011 60022 72288 333 10080 20070 3/006 6///7 70048 81/15 83/18 85/42
AAXX 02064 06120 36471 52310 10071 20062 39950 49976 52015 333 10091 20071 3/005 81/12 85/16 91122
AAXX 02064 06180 01465 82413 10079 20069 39965 49971 53022 60152 70262 885// 333 10082 20063 32006 6///7 70263 81612 83615 87618
AAXX 02064 06193 07565 72317 10068 20064 39954 49966 52002 60102 70086 333 10106 20064 55300 20000 69927 70168 81/32 87/71 91142 91228
AAXX 02061 14241 12970 11902 11026 21032 30071 40207 56010 60002 80001 333 21033 31///
AAXX 02061 14284 12960 01503 11014 21024 30101 40214 56006 60002 333 21016 34104
AAXX 02061 14307 32675 70803 10073 20054 30155 40233 50007 87500 333 21003 30/// 87646
AAXX 02061 14317 NIL
AAXX 02061 14431 12970 01203 10015 21007 30154 40251 53003 60002 333 21015 30///
AAXX 02061 14444 33970 03401 10031 20011 30228 40258 52004 333 20024 30000
AAXX 02061 14474 12980 00904 10048 21006 30066 40262 53004 60002 333 20021 30///
AAXX 02061 33088 NIL
AAXX 02061 33177 NIL
AAXX 02061 33261 32997 32801 11035 21071 30009 40199 52003 83030 333 21038
AAXX 02061 33275 12597 83105 11036 21068 39962 40194 52011 69902 8555/ 333 21036 47997
AAXX 02061 33301 11397 82102 10006 20003 39884 40172 69932 70272 886// 333 21023 47997 88707
AAXX 02061 33325 32997 82101 11013 21030 39917 40193 57003 8805/ 333 21039
AAXX 02061 33377 32997 22701 11055 21069 30011 40214 52006 82050 333 21055
AAXX 02061 33415 11597 81803 11001 21009 39780 40188 57004 60022 70282 8533/ 333 21021 43002 85920
AAXX 02061 33429 11497 72003 11010 21017 39761 40196 54000 69962 72682 87300 333 21034 47001 87616
AAXX 02061 33466 31958 81801 11035 21043 30019 40214 58002 71011 8805/ 333 21044
AAXX 02061 33526 32660 80000 10003 21017 39840 40188 57002 885// 333 21040 88640
AAXX 02061 33562 32597 82002 11019 21034 39832 40205 52004 8555/ 333 21043 47002 85620
AAXX 02061 33614 12697 13103 11014 21062 30107 40215 52010 69902 81400 333 21020
AAXX 02061 33761 31942 61903 11038 21043 39984 40217 57005 71011 83034 333 21042
AAXX 02061 33902 NIL
AAXX 02061 33983 32597 22905 11008 21036 30169 40232 52020 82500 333 21014
AAXX 02061 34415 NIL
AAXX 02061 34523 NIL
AAXX 02061 34712 12569 43205 11015 21029 30112 40201 52022 69902 82530 333 21016 47001
AAXX 02064 48300 31562 20000 10281 20202 39808 40117 56037 70340 82100 333 59015
AAXX 02064 48327 32560 10000 10304 20181 39776 40125 57038 81100 333 59017
AAXX 02064 48331 32562 10000 10302 20184 39897 40123 57041 81100 333 59021
AAXX 02064 48353 31659 21406 10285 20155 39844 40130 57036 70500 82100 333 59012
AAXX 02064 48356 32962 00502 10275 20169 39940 40135 57041 333 59017
AAXX 02064 48375 32562 21202 10315 20193 39879 40100 57038 82500 333 59010
AAXX 02064 48378 31559 31403 10304 20198 30079 40131 57031 70500 82845 333 59007
AAXX 02064 48381 32960 20904 10282 20167 39920 40135 57035 80005 333 59018
AAXX 02064 48407 31559 42306 10290 20186 39985 40125 57030 70521 81241 333 59008
AAXX 02064 48431 32962 60302 10273 20189 39918 40131 57036 85035 333 59012
AAXX 02064 48456 NIL
AAXX 02064 48480 32562 60408 10326 20207 30102 40106 57027 84836 333 59007
AAXX 02064 48500 01556 80000 10275 20229 30114 40121 57024 60081 71092 85876 333 59001 69937 70085
AAXX 02064 48551 01440 80000 10245 20238 30109 40117 57010 60401 76166 8587/ 333 58001 60127 71278
AAXX 02064 48565 01460 70806 10267 20245 30096 40106 57001 60311 70262 82246 333 58003 60137 70412
AAXX 02064 48569 32560 50504 10306 20266 30069 40109 57022 83201 333 59002 70024
AAXX 02064 48583 01459 70506 10258 20241 30110 40116 57015 69921 72122 82246 333 58009 69925 70004
AAXX 02064 48310 32560 20000 10298 20194 39666 40113 57041 82100 333 59017
AAXX 02064 48325 31665 20000 10307 20198 39871 40110 57043 70340 82500 333 59014
AAXX 02064 48329 31556 10000 10306 20202 39783 40115 57034 70500 81200 333 59014
AAXX 02064 48352 32563 10905 10291 20174 39939 40138 57037 81100 333 59016
AAXX 02064 48357 32560 10905 10294 20172 39965 40132 57039 81101 333 59021
AAXX 02064 48380 31658 11801 10310 20208 30034 40126 57035 70500 81100 333 59010
AAXX 02064 48383 31959 00802 10290 20180 39966 40124 57041 70510 333 59018
AAXX 02064 48403 31957 60705 10282 20185 39917 40126 57041 70522 86036 333 59011
AAXX 02064 48405 31958 20000 10290 20188 39965 40126 57038 70510 80005 333 59011
AAXX 02064 48420 31958 50610 10316 20200 30115 40119 57031 70511 82036 333 59005
AAXX 02064 48421 31556 80000 10295 20204 30013 40126 57031 70522 83536 333 58006
AAXX 02064 48425 01556 70602 10285 20205 30119 40129 57028 69921 70562 83556 333 59006 69927 70002
AAXX 02064 48426 12560 70000 10302 20182 30106 40119 57034 69901 83276 333 59016 79999
AAXX 02064 48429 32660 50712 10315 20176 30114 40121 57024 81536 333 59005
AAXX 02064 48430 31559 51212 10322 20169 30111 40118 56032 70521 82236 333 59009
AAXX 02064 48450 31557 60905 10300 20178 30089 40122 57033 70522 81556 333 59004
AAXX 02064 48459 32961 60604 10324 20206 30109 40111 57034 86055 333 59009
AAXX 02064 48465 31558 80509 10290 20229 30118 40123 57024 71022 8252/ 333 59006
AAXX 02064 48550 01457 70811 10260 20250 30102 40109 57021 60121 76166 82876 333 59007 60067 70350
AAXX 02064 48552 01430 81606 10248 20239 30102 40108 57018 60581 76062 8672/ 333 59005 60047 72059
AAXX 02064 48566 01560 81807 10288 20233 30097 40106 57027 69981 70262 82847 333 59004 69967 70112
AAXX 02064 48568 32462 30411 10285 20248 30103 40110 57018 82201 333 58005 70026
BBXX VRFO7 02064 99250 70525 41498 30516 10240 20194 40250 52010 70200 81141 22254 20302 333// 40604 80210
AAXX 02061 12105 11567 81905 10110 20096 39960 40002 56016 60042 78062 889// 333 10110 20056 32005 70084 91110 93004
AAXX 02061 12195 11104 81804 10004 20004 39865 40097 57008 69972 74275 886// 333 10004 21023 3/102 44003 55045 70007 93095
AAXX 02061 12235 11259 82008 10084 20084 39824 40031 56016 60012 76164 8672/ 333 10084 20019 32002 55000 70047 86706 93001
AAXX 02061 12270 11204 81904 10046 20046 39899 40081 56014 60012 76164 8552/ 333 10046 20004 31000 70025 93095
AAXX 02061 12280 11313 81605 10022 20022 39922 40081 57015 60022 76852 8772/ 333 10022 21005 3/101 43001 55014 70023 93092
AAXX 02061 12300 11582 72404 10102 20086 39949 40037 56015 69952 72182 8353/ 333 10102 20080 31008 70023 91109 93095
AAXX 02061 12400 11680 72005 10088 20076 39832 40064 56012 69962 70381 84536 333 10089 20070 31006 70013 91010 91110 93092
AAXX 02061 12435 11558 71604 10062 20050 39919 40091 57010 69902 71022 875// 333 10074 20040 31003 55001 70008 93000
AAXX 02061 12495 11356 82003 10030 20030 39844 40140 55002 60032 72052 886// 333 10030 20005 31001 55021 70032 93096
AAXX 02061 12530 12970 61604 10050 20038 39917 40117 57011 69932 8605/ 333 10050 20035 31003 55009 70003 93000
AAXX 02061 12570 11256 71805 10044 20043 39814 40134 56010 69982 71054 8557/ 333 10053 20009 31001 55006 70008 82703 85626 93092
AAXX 02061 12580 12470 62009 10027 20008 39900 40164 57001 69902 86500 333 10031 20010 31100 55053 79999 86616 91114 93000
AAXX 02061 10929 12975 80902 10048 20043 39603 40137 56018 60002 80002 222// 06053 333 10095 20042 31002 55003 55300 20000 30000 79999 88080
AAXX 02061 13168 32998 11102 10015 21007 30105 40215 58011 80001 333 20006 34104 55051 70000
AAXX 02061 13174 32997 21605 10004 21017 30116 40220 56008 81031 333 20004 31100 55052 70000
AAXX 02061 13269 31994 00000 11030 21039 30009 40234 57018 71000 333 21030 34105 55069 70000
AAXX 02061 13274 32997 01601 10026 21025 30061 40227 57006 333 20026 34001 55072 70000
AAXX 02061 13278 32997 02302 10003 21041 30021 40255 56008 333 20001 31102 55074 70000
AAXX 02061 13378 32498 30301 11015 21019 38302 48523 54000 83500 333 21046 3/107 48020 55061 70000
AAXX 02061 13397 32998 01303 11082 21097 39726 40302 50006 333 21087 34110 55055 70000
AAXX 02061 13457 32970 00000 11016 21024 30259 40267 52004 333 21033 34104 55///
AAXX 02061 13481 NIL
AAXX 02064 08055 12560 12812 10032 20008 39170 48525 57010 60022 81500 333 20026 31001 55000 70019 95090
AAXX 02064 08075 11370 62309 10052 20043 39189 48526 53007 60022 70262 86500 333 20052 55000 70025
AAXX 02064 08084 02665 62701 10053 20038 39790 40233 53008 69962 84570 333 20048 3/003 55080 69907 70006
AAXX 02064 08171 NIL
AAXX 02064 08184 02982 40000 10091 20049 30010 40167 55007 60002 80006 333 20061 3/004 55080 60007 70000
AAXX 02064 08202 01965 12410 10058 20044 39334 42868 53007 69992 70062 80001 333 20053 31004 55000 69917 70009
AAXX 02064 08235 NIL
AAXX 02064 08238 12770 63103 10130 20051 30138 40198 57012 60002 864// 333 20069 55085 70000
AAXX 02064 08280 12465 82713 10072 20045 39445 40281 56001 60002 886// 333 20037 50304 55089 70000
AAXX 02064 08330 12560 62206 10104 20082 30061 40295 53/// 69902 86800 333 20085 31008 50194 55026 79999
AAXX 02064 08348 12470 82506 10082 20065 39544 40293 55002 60002 886// 333 20074 50114 55086 70000
AAXX 02064 08360 02975 03016 10125 20034 30207 40244 53004 60002 333 20079 30009 5///4 55088 60007 70000
AAXX 02064 08373 02965 02510 10136 20119 30202 40224 55003 60002 333 20126 3/010 55078 60007 70000
AAXX 02064 08410 02660 80000 10070 20051 30200 40314 51004 60002 887// 333 20046 31002 55090 60007 70000
AAXX 02064 08419 01558 82001 10024 20009 39632 40331 53007 60002 71022 885// 333 20004 3/000 55070 60007 70000
AAXX 02064 08451 02668 50702 10093 20079 30276 40310 58003 60002 85500 333 20080 3/005 55050 60007 70000
AAXX 02064 08487 02565 20202 10104 20093 30225 40251 53002 60002 81605 333 20092 3/009 55086 60007 70000
AAXX 02064 48302 31559 32703 10205 20154 38491 40100 57018 71011 82805 333 59029
AAXX 02064 48304 32565 20000 10284 20188 39668 40121 57032 82500 333 59018
AAXX 02064 48334 31958 00000 10295 20158 39762 40118 57037 70500 333 59024
AAXX 02064 48360 32563 20505 10285 20165 39868 40126 57035 82100 333 59016
AAXX 02064 48372 31958 20000 10312 20221 30070 40127 57029 70500 80001 333 59011
AAXX 02064 48373 31958 20000 10313 20196 30059 40121 57037 70500 80001 333 59016
AAXX 02064 48386 31556 52802 10275 20202 30081 40125 57023 70511 81156 333 59006
AAXX 02064 48387 32560 21004 10230 20125 39166 40117 57031 81501 333 59012
AAXX 02064 48408 32960 60000 10300 20193 39977 40124 58032 82046 333 59005
AAXX 02064 48415 31558 60608 10305 20199 30112 40123 57035 70522 82536 333 59008
AAXX 02064 48433 NIL
AAXX 02064 48437 32960 83302 10252 20181 39928 40139 57030 8805/ 333 59003
AAXX 02064 48440 32560 70304 10313 20201 30068 40116 57033 85506 333 59011
AAXX 02064 48451 32562 80000 10283 20204 30116 40128 57032 8557/ 333 59008
AAXX 02064 48454 31559 60905 10319 20181 30113 40120 57025 70522 81146 333 59002
AAXX 02064 48457 31557 60414 10277 20206 30104 40121 58029 71022 84846 333 59007
AAXX 02064 48463 31556 60000 10337 20199 30029 40120 57027 70522 82206 333 59011
AAXX 02064 48464 31557 80205 10295 20204 30101 40114 57025 70522 86536 333 59002
AAXX 02064 48479 NIL
AAXX 02064 48520 01557 80000 10240 20233 30102 40117 55013 60121 76022 8557/ 333 59001 60115 70398
AAXX 02064 48554 01430 81506 10245 20242 30105 40109 57020 60611 79599 8692/ 333 59001 60277 72026
AAXX 02064 48563 01460 62303 10289 20267 30065 40100 57027 60701 70162 83877 333 59006 60077 71620
AAXX 02064 48571 32562 40806 10298 20237 30093 40104 57015 82113 333 58002 70020
AAXX 02061 12120 11365 82006 10092 20091 39987 49994 56027 60032 76122 8572/ 333 10092 20029 31003 55010 70056 93003
AAXX 02061 12250 11659 81904 10079 20076 39973 40061 57017 60012 72142 885// 333 10079 20026 31002 55016 70043 93001
AAXX 02061 12295 11115 81702 10006 20006 39923 40111 57009 60022 72065 886// 333 10006 21011 3/101 43997 55006 70021 88702 93001
AAXX 02061 12330 11965 71905 10084 20070 39953 40060 57016 69952 70162 85072 333 10087 20055 31005 70023 93092
AAXX 02061 12375 11256 81801 10058 20057 39973 40104 57010 60022 71065 876// 333 10058 20019 31002 55034 70016 87705 93096
AAXX 02061 12424 12999 82204 10099 20071 39942 40092 56012 60002 8807/ 333 10102 20067 31004 55003 70003 93000
BBXX A8RV9 02064 99209 50126 41598 40814 10215 20169 40170 58010 70300 8/87/ 22234 20802 321// 41002 5//// 80185
AAXX 02064 08231 11468 83005 10056 20042 39162 48556 55004 69902 75055 887// 333 20013 30001 50154 55079 79999
AAXX 02061 13173 32998 11605 10012 21016 30117 40221 57012 81030 333 20010 31000 55054 70000
AAXX 02061 13180 32698 21607 10015 21018 30118 40232 55012 82500 333 21021 31104 55046 70000 91112
AAXX 02061 13266 32997 20904 10015 21016 30111 40216 57010 82030 333 20000 31102 55055 70000
AAXX 02061 13369 31995 00000 11153 21162 39044 48483 56002 71000 333 21153 3/117 47015 55079 70000
AAXX 02061 13383 32998 01501 11028 21044 30050 40264 56003 333 21036 34106 55077 70000
AAXX 02061 13384 32998 01401 11012 21033 30104 40263 57004 333 21030 34106 55061 70000
AAXX 02061 13389 32998 00000 11055 21066 39989 40289 54000 333 21056 34108 55054 70000
AAXX 02061 13477 NIL
AAXX 02061 12160 11230 81604 10061 20060 39987 40039 57026 60062 76142 8772/ 333 10061 20006 32000 55018 70093 93003
AAXX 02061 12205 11684 72107 10117 20099 30001 40009 56011 60012 70362 875// 333 10117 20089 31008 70048 91114 93001
AAXX 02061 12465 11661 72004 10057 20048 39870 40104 56009 69952 70152 8553/ 333 10064 20028 31003 55024 2//// 70008 93097
AAXX 02061 12566 11925 70401 10005 20004 39842 40143 57014 69902 71011 8707/ 333 10030 20005 31100 79999 93000
BBXX 62087 02061 99547 10068 46/// /1002 10083 20061 4//// 5//// 22270 00079
AAXX 02064 60663 36/// /1104 10090 21065 333 20082
AAXX 02064 71816 12474 52003 11229 21278 30048 40112 56011 60001 81571 333 11152 21250 70000 555 10000 20000
AAXX 02064 71817 NIL
AAXX 02064 71818 12974 01803 11180 21214 30089 40108 58001 60001 333 11122 21221 70000 555 10000 20000
AAXX 02064 71822 NIL
AAXX 02064 71825 11369 81806 11105 21116 39352 40032 58030 69921 77177 886// 333 11090 21263 48120 70004 90983 555 10010 20004
AAXX 02064 71827 11/24 90703 11049 21053 39642 49883 58033 60051 77177 333 11045 21127 47027 70098 90983 93105 555 10098 20098
AAXX 02064 71828 16261 81611 11101 21108 39367 40014 56038 60001 333 11101 21268 70005
AAXX 02064 71831 11432 83015 11100 21116 39710 49991 51023 60031 77177 885// 333 11016 21101 48053 70128 90983 93103 555 10128 20128 33027 40031
AAXX 02064 71832 NIL
AAXX 02064 71834 11558 83215 11116 21144 39669 40104 52022 60021 77177 885// 333 11003 21116 48035 70090 90983 93103 555 10112 20090 33128 40231
AAXX 02064 71841 NIL
AAXX 02064 71842 11456 83319 11137 21169 39742 40229 52018 69921 77177 885// 333 11024 21137 48007 70004 90983 555 10006 20004 33331 40061
AAXX 02064 71844 NIL
AAXX 02064 71845 NIL
AAXX 02064 71850 11574 83414 11116 21159 39757 40278 51017 69921 77177 885// 333 11015 21117 48012 70010 90983 555 10010 20010 33226 40200
AAXX 02064 71852 16564 83513 11099 21134 30035 40342 51023 60001 333 11017 21104 70015
AAXX 02064 71854 NIL
AAXX 02064 71858 16/// /0207 11121 21151 30073 40367 53017 60001 333 11079 21159 70003 555 33326 40191
AAXX 02064 71861 NIL
AAXX 02064 71862 12974 02908 11171 21192 39665 40406 55005 60001 333 11066 21171 79999 555 19999 29999 33130 40111
AAXX 02064 71863 46964 00000 11183 21216 39661 40402 58006 6///1 333 11075 21209 7//// 555 33031 40072
AAXX 02064 71700 15361 81105 11003 21007 30054 40080 58041 60001 333 10007 21023 70000
AAXX 02064 71701 11256 81409 10004 21001 30018 40080 57040 69901 76122 887// 333 10004 21019 79999 90910 555 19999 29999
AAXX 02064 71702 16/// /1809 11011 21026 30084 40099 56026 60001 333 10025 21014 70000 555 30031 40142
AAXX 02064 71703 NIL
AAXX 02064 71704 15566 82615 11001 21036 39852 40072 58002 60001 333 10079 21006 70023
AAXX 02064 71710 16/// /1904 11006 21018 30096 40106 56016 60001 333 10031 21016 70010 555 30130 40162
AAXX 02064 71712 17/// /2316 10043 20001 39911 49971 56006 60021 7//4/ 333 10077 21019 70016 555 32032 40062
AAXX 02064 71713 17/// /0206 11020 21023 60041 7//4/ 333 11012 21042 70038
AAXX 02064 71716 NIL
AAXX 02064 71717 NIL
AAXX 02064 71720 16/// /1011 10051 20011 30017 40171 58013 60001 333 10051 21001 70000 555 31019 40061
AAXX 02064 71721 17/// /2110 10025 20004 39676 49918 55007 60021 7//4/ 333 10032 21036 70050 555 32119 40061
AAXX 02064 71723 NIL
AAXX 02064 71724 17/// /1915 10034 20023 39947 49954 56031 60061 7//4/ 333 10035 21031 70057 555 31820 40061
AAXX 02064 71732 NIL
AAXX 02064 71733 17/// /2910 11042 21042 39532 49955 51026 69931 7//4/ 333 10000 21057 70030 555 10020 20030 31520 40171
AAXX 02064 71734 17/// /3012 11035 21040 39511 49897 53008 60011 7//4/ 333 11015 21079 70104 555 33222 40061
AAXX 02064 71736 NIL
AAXX 02064 71737 NIL
AAXX 02064 71741 16/// /1208 10019 21052 39834 40264 57026 60001 333 10025 21034 70000
AAXX 02064 71742 NIL
AAXX 02064 71743 NIL
AAXX 02064 71744 NIL
AAXX 02064 71745 NIL
AAXX 02064 71746 NIL
AAXX 02064 71747 NIL
AAXX 02064 71748 NIL
AAXX 02061 10291 01688 72007 10119 20092 39951 40017 56011 60022 70362 875// 333 10119 20091 31008 55000 55300 20000 30000 69907 70031 87646
AAXX 02064 71744 NIL
AAXX 02064 71750 16/// /3404 11090 21115 39843 40080 51024 60001 333 10025 21090 70131 555 10040 20131 32020 40071
AAXX 02064 71751 NIL
AAXX 02064 71752 NIL
AAXX 02064 71753 16/// /1909 11005 21018 30093 40122 55015 60001 333 10086 21010 70049 555 33328 40192
AAXX 02064 71754 17/// /1009 11175 21210 39673 40374 56021 69971 7//4/ 333 11060 21199 70007 555 33121 40071
AAXX 02064 71755 43/// /3311 11207 21225 39894 40256 51024 6///1 333 11046 21210 7////
AAXX 02064 71756 16/// /2101 11031 21035 39094 40203 56021 60001 333 11025 21062 70000
AAXX 02064 71758 NIL
AAXX 02064 71760 NIL
AAXX 02064 71761 NIL
AAXX 02064 71762 NIL
AAXX 02064 71763 NIL
AAXX 02064 71765 16/// /1707 11013 21025 39957 40237 56026 60001 333 10012 21025 70000
AAXX 02064 71766 16/// /1209 10077 20005 30086 40158 56014 60001 333 10083 20020 70003 555 31518 40141
AAXX 02064 71767 17/// /2909 11011 21020 39739 49997 51009 60031 7//4/ 333 10044 21016 70103 555 32838 40013
AAXX 02064 71768 46/// /2604 11032 21054 39743 40305 58019 6///1 333 10011 21034 7////
AAXX 02064 71769 16/// /0923 10066 20034 30141 40157 56014 60001 333 10076 20026 70004 555 30926 40061
AAXX 02064 71770 NIL
AAXX 02064 71771 NIL
AAXX 02064 71772 16/// /1411 10062 20025 30164 40170 56013 60001 333 10071 20030 70002 555 31325 40131
AAXX 02064 71773 17/// /1710 11052 21066 39010 49853 56030 69941 7//4/ 333 11051 21176 70011 555 10010 20011 31423 40051
AAXX 02064 71774 46/// ///// 10056 6///1 333 10060 20001 7////
AAXX 02064 71775 16/// /0000 10012 20003 30180 40186 58015 60001 333 10067 20004 70000
AAXX 02064 71776 46/// /1104 11003 21054 39689 40349 56021 6///1 333 10014 21034 7////
AAXX 02064 71777 16/// ///// 11046 21049 39974 40232 56023 60001 333 11005 21048 70000 555 10010
AAXX 02064 71778 46/// /0124 6///1 333 7//// 555 30233 40032
AAXX 02064 71779 16/// /1408 10022 21044 39494 40165 56020 60001 333 10026 21168 70000 555 31624 40041
AAXX 02064 71780 16/// /0806 10099 21005 30132 40159 57022 60001 333 10099 20030 70002 555 31022 40211
AAXX 02064 71781 46/// /1228 10072 20025 30124 40149 58016 6///1 333 10078 20030 7//// 555 31332 40062
AAXX 02064 71782 46/// /0000 11087 21105 39005 40393 56013 6///1 333 11042 21138 7////
AAXX 02064 71783 16/// /0403 10073 20022 30095 40169 56017 60001 333 10078 20041 70002
AAXX 02064 71784 16/// /2401 10041 20009 39969 40175 58014 60001 333 10077 20014 70000
AAXX 02064 71785 16/// /0503 10066 20006 30171 40187 58018 60001 333 10087 20025 70000
AAXX 02064 71786 46/// /1302 11136 21153 38470 40408 58022 6///1 333 11123 21235 7//// 555 32418 40211
AAXX 02064 71787 16/// /1909 11018 21018 39609 40099 55012 60001 333 11002 21038 70003 555 10020 20003 33121 40131
AAXX 02064 71788 NIL
AAXX 02064 71789 NIL
AAXX 02064 71791 NIL
AAXX 02064 71792 NIL
AAXX 02064 71793 NIL
AAXX 02064 71794 NIL
AAXX 02064 71795 NIL
AAXX 02064 71796 NIL
AAXX 02064 71797 NIL
AAXX 02064 71726 17/// /1704 10011 20007 39355 49884 56038 60031 7//4/ 333 10012 21059 70038 555 10030 20038
AAXX 02064 71727 11766 81023 11039 21062 39760 49957 56049 69921 77122 8557/ 333 11039 21119 48045 70002 90962 555 10006 20002 32429 40021
AAXX 02064 71728 11580 81305 11032 21052 39706 49926 57048 60031 77177 885// 333 11032 21096 44004 70032 90983 93103 555 10032 20032
AAXX 02064 71730 NIL
AAXX 02064 71731 NIL
AAXX 02064 71735 NIL
AAXX 02064 71738 NIL
AAXX 02064 71739 41532 83115 11088 21114 39602 49965 53034 6//// 77177 888// 333 11021 21088 4//// 7//// 90983 93101 555 33130 40042
AAXX 02064 71749 16562 83219 11094 21144 39911 40162 51026 60001 333 11004 21096 70020 555 30330 40062
AAXX 02064 71799 12983 52706 10018 20011 30160 40184 57015 60001 80008 333 10066 20010 70009 555 10000 20000
AAXX 02064 71800 NIL
AAXX 02064 71801 11374 80114 11005 21010 39914 40088 52053 60011 72474 886// 333 10007 21014 44005 70340 90983 93101 555 10105 20105 30240 40011
AAXX 02064 71803 11159 83504 11020 21027 39916 40104 51013 69921 71075 886// 333 11005 21041 48010 70068 90933 555 10074 20068 31022 40131
AAXX 02064 71807 NIL
AAXX 02064 71808 12974 00205 11094 21112 30061 40108 55002 60001 333 11036 21108 70014 555 10014 20014
AAXX 02064 71809 11469 80000 11033 21039 30087 40115 53004 69901 70277 885// 333 11002 21052 43014 70136 90942 555 10136 20136 30322 40140
AAXX 02064 71810 16/// /0905 11082 21100 30016 40083 56020 60001 333 11027 21108 70008 555 30422 40071
AAXX 02064 71811 NIL
AAXX 02064 71813 16/// /0506 11091 21113 30078 40092 58014 60001 333 11054 21140 70007 555 30421 40091
AAXX 02064 71814 16/// /3506 11079 21097 30098 40108 55005 60001 333 11044 21105 70036 555 30222 40141
AAXX 02064 71815 12474 70705 10002 21010 30081 40112 53009 60001 87500 333 10030 20000 70182 555 10004 20004 30722 40100
AAXX 02064 71950 17666 81509 11040 21056 39432 40066 56024 60001 771// 333 11030 21092 70000 555 31822 40191
AAXX 02064 71952 16/// /3502 11120 21131 39217 40084 58029 60001 333 11070 21164 70000
AAXX 02064 71954 46/// /3503 11118 21147 39977 40372 53001 6///1 333 11089 21126 7//// 555 33419 40171
AAXX 02064 71956 NIL
AAXX 02064 71959 NIL
AAXX 02064 71960 460// /0724 11293 39999 40139 58047 6///1 333 11272 21325 7//// 555 30128 40062
AAXX 02064 71962 16/// /3215 11093 21139 39819 40256 53013 60001 333 11020 21096 70000 555 33031 40222
AAXX 02064 71963 NIL
AAXX 02064 71967 17/// /2113 10044 20032 39878 49982 55015 60021 7//4/ 333 10044 21034 70029 555 32118 40061
AAXX 02064 71970 NIL
AAXX 02064 71971 NIL
AAXX 02064 71972 460// ///// 11132 39597 40067 58010 6///1 333 11125 21138 7////
AAXX 02064 71973 46/// /0704 11030 21040 39919 40108 56000 6///1 333 11008 21042 7//// 555 30625 40151
AAXX 02064 71974 NIL
AAXX 02064 71975 460// /2706 11208 39312 40057 55001 6///1 333 11186 21208 7//// 555 32520 40001
AAXX 02064 71976 NIL
AAXX 02064 71977 NIL
AAXX 02064 71978 NIL
AAXX 02064 71979 NIL
AAXX 02064 71980 46/// /0000 11248 21277 6///1 333 11248 21389 7//// 555 10040
AAXX 02064 71981 NIL
AAXX 02064 71982 NIL
AAXX 02064 71983 NIL
AAXX 02064 71984 16/// /0705 11294 21329 30185 40194 58033 60001 333 11261 21328 70000
AAXX 02064 71985 NIL
AAXX 02064 71986 NIL
AAXX 02064 71987 16/// /1807 11013 21028 30088 40098 56020 60001 333 10011 21017 70017 555 30033 40132
AAXX 02064 71988 16/// /1420 10043 20035 30078 40098 58036 60001 333 10055 20011 70000 555 33334 40083
AAXX 02064 71989 NIL
AAXX 02064 71990 NIL
AAXX 02064 71999 46/// ///// 11023 6///1 333 10016 21042 7////
AAXX 02064 71915 11874 13417 11313 21359 30066 40152 50001 60001 73611 81070 333 11206 21335 48042 79999 555 19999 29999 33417 40061
AAXX 02064 71930 NIL
AAXX 02064 71931 16/// /0107 11003 21014 30072 40084 53023 60001 333 10030 21019 70000 555 30426 40231
AAXX 02064 71934 11974 01205 11197 21219 30032 40305 58032 69901 70271 333 11163 21251 47029 79999 90953 555 10002 29999
AAXX 02064 71935 12874 71410 11148 21171 39992 40211 56056 60001 87010 333 11147 21260 79999 555 19999 29999
AAXX 02064 71936 11474 71117 11172 21199 30002 40275 57027 69901 77177 87500 333 11160 21178 48027 70002 90983 555 10010 20002 31120 40060
AAXX 02064 71937 NIL
AAXX 02064 71938 11574 10000 11265 21293 30247 40279 58016 69901 72277 81500 333 11245 21331 46029 79999 90913 555 19999 29999
AAXX 02064 71940 12782 81905 11089 21124 39332 40164 57036 60001 8357/ 333 11089 21215 70000 555 10000 20000
AAXX 02064 71943 12974 81210 11105 21169 39289 40146 57041 60001 8807/ 333 11076 21128 70000 555 10000 20000
AAXX 02064 71944 160// ///// 11091 56032 60001 333 11091 21240 70000
AAXX 02064 71945 12974 70704 11068 21139 39577 40057 56049 60001 86071 333 11061 21208 70000 555 10000 20000
AAXX 02064 71946 11/08 91208 11175 21195 39894 40120 58080 60011 77172 333 11173 21374 48043 70008 90931 93101 555 10014 20008
AAXX 02064 71948 47011 /0825 11284 30086 40206 58033 6///1 745// 333 11278 21302 7//// 555 30130 40062
AAXX 02064 71949 NIL
AAXX 02064 71951 11/10 90307 11020 21024 39781 40049 55001 60241 77177 333 11020 21052 47070 70400 90983 93141 555 10416 20400 30321 40190
AAXX 02064 71957 46964 00713 11191 21273 39960 40052 58073 6///1 333 11189 21318 7//// 555 30121 40061
AAXX 02064 71964 11566 61715 11051 21076 39015 49858 56026 60011 73681 83570 333 11050 21145 47021 70026 90923 93101 555 10040 20026 31730 40051
AAXX 02064 71966 17/// /0000 11237 21265 39427 49902 56046 60061 7//4/ 333 11237 21361 70061 555 10040 20061
AAXX 02064 71968 460// /3208 11328 30015 40084 58030 6///1 333 11235 21382 7//// 555 32028 40092
AAXX 02064 71604 16/// /3203 11036 21036 60001 333 10031 21037 70135 555 30520 40171
AAXX 02064 71605 16/// /2501 10063 20014 30028 40178 56013 60001 333 10073 20018 70003
AAXX 02064 71611 NIL
AAXX 02064 71612 NIL
AAXX 02064 71614 17/// /2512 10050 20000 39902 49967 58003 69981 7//4/ 333 10060 21018 70037 555 31426 40211
AAXX 02064 71616 17/// /1912 10043 20035 39853 49972 56026 60051 7//4/ 333 10045 21039 70050 555 31819 40061
AAXX 02064 71617 17/// /1013 11033 21054 39788 49957 57050 60021 7//4/ 333 11033 21118 70027 555 30725 40041
AAXX 02064 71618 15966 03322 11257 21286 30284 40325 53013 60001 333 11131 21258 70003
AAXX 02064 71619 16/// /1506 11013 21029 30023 40081 58023 60001 333 11005 21032 70030
AAXX 02064 71622 NIL
AAXX 02064 71632 46/// /3602 11138 21158 39888 40350 52001 6///1 333 11128 21156 7//// 555 33520 40111
AAXX 02064 71634 16/// /0000 11022 21029 39934 40088 58026 60001 333 11012 21027 70000
AAXX 02064 71638 16/// /0201 10013 21002 30067 40173 56012 60001 333 10063 20009 70000
AAXX 02064 71639 11574 72508 10008 21046 39779 40019 53001 69901 70282 83570 333 10063 20008 41997 70042 90940 555 19999 29999 32525 40021
AAXX 02064 71642 NIL
AAXX 02064 71250 NIL
AAXX 02064 71251 16/// /1612 11026 21083 39357 40310 56023 60001 333 7////
AAXX 02064 71252 NIL
AAXX 02064 71253 46/// /0203 11200 21216 6///1 333 11134 21227 7////
AAXX 02064 71254 16/// /1414 11106 21116 60001 333 11045 21178 70000 555 10010 31419 40061
AAXX 02064 71255 16/// /1304 11191 21216 60001 333 11108 21201 70000 555 32722 40071
AAXX 02064 71256 46/// /0908 11122 21153 39274 40248 56036 6///1 333 11097 21197 7////
AAXX 02064 71257 NIL
AAXX 02064 71258 NIL
AAXX 02064 71259 NIL
AAXX 02064 71261 17/// /2720 11001 21033 39782 40041 58003 60031 7//4/ 333 10064 21016 70058 555 32737 40003
AAXX 02064 71263 11460 /2420 11004 21026 39756 40044 57002 60011 78588 8171/ 333 10071 21004 70038 909/6 555 10000 20000 32335 40003
AAXX 02064 71264 16/// /1909 10019 20002 30103 40135 55023 60001 333 10085 20002 70020 555 33330 40162
AAXX 02064 71265 15566 82520 10018 21018 39935 40028 53002 60001 333 10071 20016 70035
AAXX 02064 71266 NIL
AAXX 02064 71267 15966 81812 11013 21059 39184 40311 58024 60001 333 10035 21159 70000
AAXX 02064 71268 NIL
AAXX 02064 71269 NIL
AAXX 02064 71270 NIL
AAXX 02064 71271 16/// ///// 11078 21131 60001 333 11057 21142 70000
AAXX 02064 71272 15966 03105 11308 21336 39992 40376 53009 60001 333 11169 21309 70000
AAXX 02064 71273 16/// /1505 11196 21218 39653 40350 58020 60001 333 11063 21214 70000 555 32918 40071
AAXX 02064 71274 NIL
AAXX 02064 71275 NIL
AAXX 02064 71276 NIL
AAXX 02064 71277 NIL
AAXX 02064 71278 NIL
AAXX 02064 71279 NIL
AAXX 02064 71281 NIL
AAXX 02064 71282 46/// /2626 10004 20002 39724 49991 55003 6///1 333 10037 20004 7//// 555 32434 40023
AAXX 02064 71283 NIL
AAXX 02064 71284 16/// ///// 11080 21108 60001 333 11058 21164 70000
AAXX 02064 71285 NIL
AAXX 02064 71286 NIL
AAXX 02064 71287 NIL
AAXX 02064 71288 NIL
AAXX 02064 71289 NIL
AAXX 02064 71290 17866 80203 11080 21092 39306 40164 56031 60001 771// 333 11084 21219 70000
AAXX 02064 71291 17/// /3309 11096 21127 39836 40132 51022 69941 7//4/ 333 11003 21096 70041 555 33529 40042
AAXX 02064 71292 15966 02811 11134 21163 39745 40383 53001 60001 333 11053 21135 70000
AAXX 02064 71294 17/// /2409 10002 21011 39559 49955 52004 69981 7//4/ 333 10045 21032 70082 555 32122 40051
AAXX 02064 71295 NIL
AAXX 02064 71296 NIL
AAXX 02064 71297 16/// /2508 10010 21017 60001 333 10084 20010 70029 555 32527 40011
AAXX 02064 71298 16/// /2714 11005 21032 39873 40105 58003 60001 333 10078 21015 70008 555 10010 20008 32835 40203
AAXX 02064 71299 NIL
AAXX 02064 71043 11656 81116 11138 21186 39920 40016 57091 60001 73822 8357/ 333 11137 21356 48034 79999 555 19999 29999 31129 40060
AAXX 02064 71045 17/// /1005 11095 21106 39060 49921 57020 60011 7//4/ 333 11095 21219 70048 555 10130 20048
AAXX 02064 71050 46/// /2403 11072 21089 39052 40145 57006 6///1 333 11012 21126 7//// 555 30520 40031
AAXX 02064 71051 NIL
AAXX 02064 71052 NIL
AAXX 02064 71066 12974 71215 11117 21164 39761 40199 58055 60001 87030 333 11101 21266 70000 555 10000 20000
AAXX 02064 71068 12974 81406 11046 21150 39470 40180 56042 60001 80001 333 11046 21190 70000 555 10000 20000
AAXX 02064 71069 17964 01014 11100 21142 39514 40247 58040 60001 745// 333 11089 21191 70000 555 31221 40041
AAXX 02064 71076 16/// /1202 11190 21209 39933 40349 56013 60001 333 11148 21202 70000
AAXX 02064 71077 16/// /1702 11215 21237 39790 40362 58016 60001 333 11106 21224 70000
AAXX 02064 71079 NIL
AAXX 02064 71081 46964 03111 11363 21408 30128 40141 53001 6///1 333 11346 21370 7//// 555 33220 40191
AAXX 02064 71082 NIL
AAXX 02064 71083 11902 03425 11318 21359 30206 40251 55003 60001 73933 333 11207 21320 79999 555 19999 29999 33434 40012
AAXX 02064 71090 46964 02802 11386 21419 30072 40109 55001 6///1 333 11331 21391 7////
AAXX 02064 71091 460// /0107 11325 39884 40105 51001 6///1 333 7//// 555 32918 40181
AAXX 02064 71092 46964 00000 11287 39394 40087 55000 6///1 333 11258 21288 7////
AAXX 02064 71093 460// ///// 11286 39570 40088 53001 6///1 333 11232 21293 7////
AAXX 02064 71094 46064 /0106 11272 39107 40036 52002 6///1 333 11247 21272 7////
AAXX 02064 71095 46864 31903 11331 21374 30046 40132 53003 6///1 333 11331 21386 7////
AAXX 02064 71101 160// /2206 39972 52026 69951 333 70140 555 31458 40203
AAXX 02064 71104 12874 81419 11003 21065 39062 40184 56023 60001 83077 333 11002 21104 70000 555 10000 20000 31441 40041
AAXX 02064 71108 12974 80403 10051 21002 30113 40186 58014 60001 82071 333 10073 20025 79999 555 10000 20000 30721 40050
AAXX 02064 71109 11874 81320 10076 20013 30052 40078 56014 60001 8807/ 333 10076 20042 79999 555 10000 20000 30940 40152
AAXX 02064 71665 16/// /0000 11157 21211 30060 40070 58015 60001 333 11138 21195 70000
AAXX 02064 71666 16/// /1604 11008 21018 30051 40096 58011 60001 333 10012 21011 70005 555 33426 40131
AAXX 02064 71667 NIL
AAXX 02064 71668 16/// /1205 11008 21017 30034 40078 58040 60001 333 10011 21022 70021 555 33119 40101
AAXX 02064 71669 NIL
AAXX 02064 71670 16/// ///// 11010 21014 60001 333 10005 21013 70006
AAXX 02064 71671 16/// /1906 10010 20002 30048 40108 58016 60001 333 10065 21008 70003 555 33419 40181
AAXX 02064 71672 16/// /2408 10025 21018 39730 49990 51003 60001 333 10068 20013 70023 555 32325 40031
AAXX 02064 71673 NIL
AAXX 02064 71674 NIL
AAXX 02064 71675 17556 83314 11210 21242 39926 40217 53027 60031 7714/ 333 11049 21210 70116
AAXX 02064 71679 16/// /1210 10010 21041 39042 40057 58027 60001 333 10010 21092 70000 555 31218 40061
AAXX 02064 71680 NIL
AAXX 02064 71681 46/// /2002 11039 21057 6///1 333 11004 21055 7////
AAXX 02064 71682 NIL
AAXX 02064 71683 NIL
AAXX 02064 71684 17440 83013 11029 21040 39627 49924 53024 69951 7714/ 333 11010 21071 70033
AAXX 02064 71685 15966 63402 11035 21049 39795 40354 58023 60001 333 11026 21058 70000
AAXX 02064 71686 469// /1407 10008 21053 38997 49939 56017 6///1 333 10009 21163
AAXX 02064 71687 16/// /1001 11050 21059 39416 40213 56021 60001 333 11012 21050 70000 555 10020
AAXX 02064 71688 16/// /0000 11022 21022 39144 40190 56020 60001 333 11014 21064 70000
AAXX 02064 71689 15966 01109 11155 21172 39834 40314 58026 60001 333 11105 21188 70000
AAXX 02064 71690 NIL
AAXX 02064 71691 17424 81314 11021 21029 30000 40027 58049 60001 771// 333 11018 21065 70000
AAXX 02064 71692 NIL
AAXX 02064 71694 17/// /2509 11006 21010 39619 49978 51003 60021 7//4/ 333 10037 21026 70128 555 32723 40031
AAXX 02064 71695 16/// /3602 11113 21139 30015 40365 50003 60001 333 11085 21127 70000 555 33122 40181
AAXX 02064 71696 16/// /3320 11260 21289 30277 40316 53011 60001 333 11131 21261 70000 555 33332 40202
AAXX 02064 71697 15566 82415 10015 21023 39843 40013 55002 60001 333 10070 20007 70048
AAXX 02064 71699 16/// /1520 10034 20026 30077 40084 58036 60001 333 10035 21006 70009
AAXX 02064 71639 11574 72508 10008 21046 39779 40019 53001 69901 70282 83570 333 10063 20008 41997 70042 90940 555 19999 29999 32127 40220
AAXX 02061 10044 46/// /2409 10078 20063 39960 49991 53013 222// 00051 333 10106 20075 55000 55300 91117 91214
AAXX 02061 10124 46/// ///// 10072 2//// 39963 40001 51013 222// 00060 333 10104 20071 55/// 553// 911// 912//
AAXX 02064 60619 36/// /0304 10027 21046 333 20024
AAXX 02064 71900 46/// /23// 11181 21205 30069 40082 57012 6///1 333 11161 21213 7////
AAXX 02064 71903 NIL
AAXX 02064 71904 NIL
AAXX 02064 71914 16/// /0000 10048 20008 39961 40183 56020 60001 333 10060 20016 70000
AAXX 02064 71916 NIL
AAXX 02064 71918 460// ///// 11371 6///1 333 7////
AAXX 02064 71920 NIL
AAXX 02064 71921 NIL
AAXX 02064 71923 NIL
AAXX 02064 71927 16/// /0000 11008 21014 30129 40188 56014 60001 333 10084 21009 70012
AAXX 02064 71941 17236 83109 11005 21011 39468 49876 56010 60031 77144 333 10001 21069 70055
AAXX 02064 71947 17228 82908 11028 21028 39532 49873 56013 60021 7714/ 333 11023 21093 70028
AAXX 02064 60645 36/// /0000 10090 21052 333 20080
AAXX 02064 60612 36/// /0212 10035 21032 333 20034
BBXX 2ALE5 02063 99114 70172 41697 30514 10225 20108 40141 55005 70200 835// 22243 20406 80160
AAXX 02064 71102 NIL
AAXX 02064 71105 NIL
AAXX 02064 71107 NIL
AAXX 02064 71110 NIL
AAXX 02064 71111 17966 62206 10070 20054 39971 49979 51024 60081 7004/ 333 10081 20051 70366
AAXX 02064 71112 16/// ///// 60001 333 70000
AAXX 02064 71113 16/// /0206 10066 20003 30169 40192 56018 60001 333 10077 20034 70000 555 30325 40021
AAXX 02064 71115 NIL
AAXX 02064 71116 16/// /0811 11095 21135 39222 40366 58019 60001 333 7//// 555 10010
AAXX 02064 71118 16/// /1411 11125 21155 39458 40322 58026 60001 333 11056 21174 70000
AAXX 02064 71121 16964 01512 11058 21139 39409 40258 58043 60001 333 11032 21175 70000 555 31418 40051
AAXX 02064 71127 16/// /1409 11090 21112 39308 40257 58043 60001 333 11060 21148 70000
AAXX 02064 71130 15966 02604 11183 21203 39899 40382 58001 60001 333 11076 21201 70000
AAXX 02064 71132 15566 82402 11172 21189 30030 40361 55003 60001 333 11120 21172 70000
AAXX 02064 71133 NIL
AAXX 02064 71139 16/// /1808 11094 21147 38828 40344 56021 60001 333 11074 21145 70000
AAXX 02064 71141 NIL
AAXX 02064 71142 15966 01817 11100 21140 39357 40370 56020 60001 333 11065 21137 70000
AAXX 02064 71143 NIL
AAXX 02064 71144 NIL
AAXX 02064 71147 16/// /3412 11098 21139 60001 333 11014 21099 70000 555 33336 40183
AAXX 02064 71149 NIL
AAXX 02064 71401 16/// /3207 11011 21061 39638 40342 56021 60001 333 10001 21045 70000 555 10010
AAXX 02064 71402 NIL
AAXX 02064 71404 NIL
AAXX 02064 71405 NIL
AAXX 02064 71406 NIL
AAXX 02064 71407 NIL
AAXX 02064 71408 NIL
AAXX 02064 71409 NIL
AAXX 02064 71410 15566 33508 11174 21200 30063 40358 51019 60001 333 11084 21174 70000
AAXX 02064 71413 NIL
AAXX 02064 71414 NIL
AAXX 02064 71415 16/// /1712 11006 21019 30109 40112 56018 60001 333 10076 21011 70029 555 33233 40122
AAXX 02064 71417 NIL
AAXX 02064 71418 NIL
AAXX 02064 71419 46/// /2005 10007 21005 30122 40132 50003 6///1 333 10077 20006 7//// 555 33042 40163
AAXX 02064 71423 NIL
AAXX 02064 71424 46/// /0415 6///1 333 7//// 555 30424 40001
AAXX 02064 71425 NIL
AAXX 02064 71426 NIL
AAXX 02064 71427 NIL
AAXX 02064 71428 16/// /1402 11036 21053 30021 40027 58049 60001 333 11020 21057 70000 555 30519 40081
AAXX 02064 71429 NIL
AAXX 02064 71434 NIL
AAXX 02064 71436 15566 82310 10012 21017 39765 49997 51002 60001 333 10059 20003 70061
AAXX 02064 71437 46/// /2311 10017 21030 39940 40034 55000 6///1 333 10089 20017 7//// 555 32034 40213
AAXX 02064 71438 NIL
AAXX 02064 71439 NIL
AAXX 02064 71440 NIL
AAXX 02064 71442 17/// /3308 11111 21142 30019 40348 51016 69931 7//4/ 333 11030 21121 70003 555 33433 40182
AAXX 02064 71445 NIL
AAXX 02064 71446 NIL
AAXX 02064 71448 NIL
AAXX 02064 71449 NIL
AAXX 02064 71114 160// /1115 10029 21021 30176 40225 56021 60001 333 10056 20004 70000 555 30125 40061
AAXX 02064 71120 12974 31903 11168 21211 39653 40347 57023 60001 80001 333 11083 21168 70000 555 10000 20000
AAXX 02064 71122 16/// /2608 11100 21148 38679 40349 58022 60001 333 7////
AAXX 02064 71123 12974 81418 11078 21112 39364 40261 58042 60001 88020 333 11059 21216 70000 555 10000 20000 31422 40061
AAXX 02064 71125 NIL
AAXX 02064 71129 12974 21308 11094 21145 39485 40352 57022 60001 80001 333 11047 21148 70000 555 10000 20000
AAXX 02064 71131 16/// /1603 11094 21143 39051 40363 56019 60001 333 11083 21187 70000 555 33021 40111
AAXX 02064 71135 16/// /2407 11118 21172 39258 40396 56015 60001 333 11057 21128 70000 555 33230 40112
AAXX 02064 71137 NIL
AAXX 02064 71140 12974 03110 11152 21171 39853 40382 5/018 60001 333 11037 21155 79999 555 19999 29999 33130 40111
AAXX 02064 71145 11974 03307 11202 21246 30008 40318 52028 69901 73677 333 11071 21203 48033 70024 90923 555 10024 20024 33326 40231
AAXX 02064 71148 16/// /3211 11133 21161 39759 40368 52021 60001 333 11035 21133 70000 555 33133 40222
AAXX 02064 71185 16564 81404 11010 30073 40097 55001 60001 333 10005 21038 70020
AAXX 02064 71188 12474 80000 11079 21101 30044 40087 57025 60001 885// 333 11013 21111 70020 555 10018 20020
AAXX 02064 71200 16/// /0505 10079 20020 60001 333 10082 20039 70000 555 30719 40111
AAXX 02064 71207 16/// /3503 10004 21011 30139 40204 56020 60001 333 10028 21002 70000
AAXX 02064 71260 NIL
AAXX 02064 71603 12269 81408 10042 20033 30054 40107 56031 60001 88500 333 10057 20009 70000 555 10000 20000 33226 40081
AAXX 02064 71607 16/// /1207 10034 20024 30031 40064 57053 60001 333 10034 21023 70000 555 33320 40121
AAXX 02064 71609 11256 81612 10008 21014 39965 40100 58024 69901 71072 886// 333 10013 21010 70003 90962 555 19999 29999 33528 40101
AAXX 02064 71610 17566 82103 10038 20028 39687 49979 56034 60041 7614/ 333 10040 21026 70043
AAXX 02064 71621 17564 32319 10027 21010 39896 40001 50003 60001 745// 333 10079 20002 70050 555 32334 40023
AAXX 02064 71623 NIL
AAXX 02064 71624 NIL
AAXX 02064 71625 16564 82308 10024 21003 39767 49925 52004 60011 333 10038 21044 70040
AAXX 02064 71627 11574 82322 10046 20000 39926 49970 56006 69941 72586 8757/ 333 10058 21018 41997 70014 90927 555 10000 20000
AAXX 02064 71628 11560 42217 10029 21002 39820 49959 55001 60011 70262 84570 333 10051 21040 70014 909/6 555 32128 40002
AAXX 02064 71630 NIL
AAXX 02064 71631 NIL
AAXX 02064 71633 11/12 92714 11005 21009 39734 40003 52003 60021 76162 333 10051 21007 43003 70064 90982 93102 555 10020 20018 32635 40051
AAXX 02064 71705 11374 81809 11005 21018 30013 40101 55015 69901 70287 886// 333 10011 21012 41997 70016 90936 555 10002 20002 33427 40131
AAXX 02064 71706 11474 82008 11015 21031 30060 40121 55019 69901 70282 885// 333 10053 21020 46997 70004 90927 555 19999 29999 33429 40111
AAXX 02064 71707 12474 81905 10001 21014 30051 40128 50004 60001 885// 333 10060 21014 70101 555 10000 20000 33626 40171
AAXX 02064 71709 NIL
AAXX 02064 71711 NIL
AAXX 02064 71714 17/// /0807 11005 21009 39899 49991 56045 60071 7//4/ 333 7//// 555 10020
AAXX 02064 71715 17/// /1404 11021 21029 39811 49992 58056 60021 7//4/ 333 11018 21060 70024
AAXX 02064 71718 11424 81422 11025 21030 39945 40010 58061 69961 78582 887// 333 11022 21050 48012 70008 90916 555 10008 20008
AAXX 02064 71719 NIL
AAXX 02064 71150 NIL
AAXX 02064 71151 NIL
AAXX 02064 71152 16/// /0607 10005 21012 30108 40121 53018 60001 333 10040 21001 70053 555 30339 40193
AAXX 02064 71153 16/// /1403 11006 21048 60001 333 10053 21116 70000
AAXX 02064 71154 16/// /2323 10025 21046 60001 333 10029 21053 70007 555 32136 40023
AAXX 02064 71155 NIL
AAXX 02064 71156 NIL
AAXX 02064 71157 46/// ///// 11062 21095 6///1 333 11031 21148 7////
AAXX 02064 71158 NIL
AAXX 02064 71159 NIL
AAXX 02064 71160 NIL
AAXX 02064 71161 17/// /2317 10027 21012 39832 49978 52008 60011 7//4/ 333 10060 21031 70046 555 32331 40042
AAXX 02064 71162 NIL
AAXX 02064 71163 46/// /1213 11174 21189 39853 40209 58055 6///1 333 11165 21204 7//// 555 31318 40061
AAXX 02064 71164 NIL
AAXX 02064 71165 NIL
AAXX 02064 71166 NIL
AAXX 02064 71167 15966 82802 11116 21173 39105 40252 58035 60001 333 11113 21235 70000
AAXX 02064 71168 16/// /3116 11066 21111 39739 40350 53003 60001 333 11010 21067 70000 555 33041 40183
AAXX 02064 71170 NIL
AAXX 02064 71171 16/// /2613 10013 21023 39939 40034 53001 60001 333 10094 20013 70035 555 32536 40223
AAXX 02064 71172 17/// ///// 11006 21016 39752 49966 53015 60021 7//4/ 333 10042 21025 70108
AAXX 02064 71175 NIL
AAXX 02064 71176 460// /1506 11152 39351 40045 56018 6///1 333 11141 21192 7//// 555 32432 40112
AAXX 02064 71177 460// /1910 11109 39026 40036 58012 6///1 333 11097 21132 7//// 555 33222 40091
AAXX 02064 71178 17/// /0114 11003 21005 30061 40093 53031 60061 7//4/ 333 10005 21020 70108 555 30533 40212
AAXX 02064 71179 460// /2311 11112 39237 40074 55001 6///1 333 11077 21143 7//// 555 32319 40041
AAXX 02064 71180 16/// /1305 10005 21003 30078 40117 53004 60001 333 10069 21015 70108 555 31258 40093
AAXX 02064 71181 16464 80109 10005 21022 30053 40089 51034 60001 333 10029 21002 70190
AAXX 02064 71183 17/// /2316 39927 57007 69981 7//4/ 333 70015 555 32227 40061
AAXX 02064 71184 46/// /2216 10048 20016 6///1 333 10054 21017 7//// 555 32224 40061
AAXX 02064 71186 NIL
AAXX 02064 71187 15966 11115 10027 21011 30175 40224 56021 60001 333 10055 20004 70000
AAXX 02064 71189 NIL
AAXX 02064 71190 NIL
AAXX 02064 71191 NIL
AAXX 02064 71192 15966 01509 10022 21043 39497 40170 56021 60001 333 10026 21163 70000
AAXX 02064 71193 16/// /3117 11091 21109 39601 49964 53032 60001 333 11025 21091 70070 555 10020 20070 32931 40052
AAXX 02064 71196 16/// /2211 10021 21002 39730 49925 51004 60001 333 10037 21049 70034
AAXX 02064 71197 16364 80807 10005 21001 30073 40122 53011 60001 333 10043 21002 70130 555 30838 40083
AAXX 02064 71198 46/// /1818 10046 20032 6///1 333 10047 21022 7//// 555 31923 40061
AAXX 02064 71199 46/// /1211 11066 21093 39145 49990 56027 6///1 333 11063 21307 7//// 555 31025 40051
AAXX 02064 71397 12474 82007 10008 20001 30090 40125 55010 60001 885// 333 10053 20004 70008 555 10000 20000
AAXX 02064 71400 16/64 /3203 11026 21026 60001 333 11004 21033 70039
AAXX 02064 71403 46/// /2010 10015 21002 30113 40133 58012 6///1 333 10080 20001 7//// 555 33241 40163
AAXX 02064 71411 16/// /1914 10039 20027 30113 40125 58021 60001 333 10084 20014 70000 555 33125 40141
AAXX 02064 71412 16/// /1807 11001 21011 30099 40109 56020 60001 333 10066 21012 70031 555 33534 40153
AAXX 02064 71421 NIL
AAXX 02064 71430 16/// /2532 10037 20002 39910 40005 51001 60001 333 10077 20011 70025 555 32558 40033
AAXX 02064 71431 16/// /2625 10024 21004 39904 49999 51003 60001 333 10068 20009 70032 555 32737 40033
AAXX 02064 71432 16/// /2411 10020 21015 39942 40038 53002 60001 333 10092 20019 70025 555 32635 40023
AAXX 02064 71433 NIL
AAXX 02064 71435 NIL
AAXX 02064 71441 46/// /3415 11100 21141 30022 40344 53022 6///1 333 11015 21104 7//// 555 33441 40163
AAXX 02064 71443 NIL
AAXX 02064 71444 NIL
AAXX 02064 71447 NIL
AAXX 02064 71467 16/// /1112 11292 21320 30123 40245 56018 60001 333 11260 21303 70000
AAXX 02064 71472 NIL
AAXX 02064 71474 16964 01807 11031 21076 38967 40229 56025 60001 333 11026 21094 70000 555 31420 40211
AAXX 02064 71510 NIL
AAXX 02064 71538 11662 82615 11006 21037 39872 40102 58001 69941 77182 885// 333 10088 21014 42997 70018 90952 555 10008 20008 32738 40212
AAXX 02064 71600 164// 82607 10030 20008 30152 40158 53010 60001 333 10098 20030 70190 555 33043 40173
AAXX 02064 71601 NIL
AAXX 02064 71001 17566 82607 11219 21246 38893 49878 57019 69931 7714/ 333 11134 21327 70042
AAXX 02064 71002 17466 81105 11142 21157 39507 40062 58036 60001 771// 333 11139 21311 70004
AAXX 02064 71003 17536 81009 11045 21053 39527 49903 58050 60001 771// 333 11042 21164 70000
AAXX 02064 71005 NIL
AAXX 02064 71006 NIL
AAXX 02064 71007 NIL
AAXX 02064 71008 NIL
AAXX 02064 71009 NIL
AAXX 02064 71010 NIL
AAXX 02064 71011 NIL
AAXX 02064 71012 NIL
AAXX 02064 71013 NIL
AAXX 02064 71014 NIL
AAXX 02064 71015 NIL
AAXX 02064 71016 NIL
AAXX 02064 71017 NIL
AAXX 02064 71018 NIL
AAXX 02064 71019 NIL
AAXX 02064 71020 NIL
AAXX 02064 71021 NIL
AAXX 02064 71022 17562 81421 10060 20043 39953 49996 53021 60131 76144 333 10070 20010 555 31242 40043
AAXX 02064 71023 16964 02704 11175 21182 39536 40344 55021 60001 333 11062 21212 70000 555 33119 40071
AAXX 02064 71024 16/// /0908 11139 21155 60001 333 7//// 555 10020
AAXX 02064 71026 NIL
AAXX 02064 71027 16/// /2103 10005 21005 30105 40115 58001 60001 333 10043 21003 70118 555 33317 40221
AAXX 02064 71028 16/// /2410 10085 21015 39078 40113 58026 60001 333 10085 21108 70000 555 32032 40062
AAXX 02064 71029 NIL
AAXX 02064 71030 16/64 /1614 10049 20039 39983 40072 58039 60001 333 10049 21013 70000
AAXX 02064 71032 46/// /0000 11081 21091 39427 40286 58014 6///1 333 11032 21095 7////
AAXX 02064 71033 46/// /2702 11187 21202 39695 40360 50001 6///1 333 11126 21266 7//// 555 33218 40081
AAXX 02064 71035 NIL
AAXX 02064 71036 15566 82605 11120 21143 39981 40374 51010 60001 333 11026 21145 70000
AAXX 02064 71039 46/// /0000 11226 6///1 333 11224 21389 7////
AAXX 02064 71040 46/// /0809 11039 21059 39746 49945 58049 6///1 333 11033 21121 7//// 555 30820 40001
AAXX 02064 71041 15366 81704 11005 21009 39986 40129 58002 60001 333 10074 21009 70100 555 33134 40173
AAXX 02064 71042 16/// /0802 10032 20005 30171 40175 57018 60001 333 10078 20000 70000
AAXX 02064 71044 16/// /2503 11332 21370 39684 40023 58056 60001 333 11332 21400 70000
AAXX 02064 71046 460// /1016 11314 30073 40091 58034 6///1 333 11310 21382 7//// 555 30122 40061
AAXX 02064 71047 NIL
AAXX 02064 71048 NIL
AAXX 02064 71049 NIL
AAXX 02064 71060 NIL
AAXX 02064 71063 NIL
AAXX 02064 71864 NIL
AAXX 02064 71865 16/// /2504 11141 21177 39671 40386 56005 60001 333 11064 21143 70000 555 32922 40211
AAXX 02064 71866 46964 01905 11159 21190 39738 40386 56011 6///1 333 11048 21170 7//// 555 33225 40081
AAXX 02064 71867 NIL
AAXX 02064 71868 16/// /2202 11210 21231 39913 40380 51005 60001 333 11071 21212 70000 555 32828 40152
AAXX 02064 71869 12974 00000 11209 21217 39831 40387 58003 60001 333 11043 21211 79999 555 19999 29999
AAXX 02064 71871 15966 01808 11150 21187 39504 40353 56017 60001 333 11082 21171 70000
AAXX 02064 71877 12974 82206 11063 21107 38980 40297 57028 60001 85072 333 11057 21151 70000 555 10000 20000
AAXX 02064 71878 12974 71712 11047 21095 39163 40268 56037 60001 84071 333 11044 21218 70000 555 10000 20000
AAXX 02064 71879 16964 01511 11060 21111 39429 40259 58041 60001 333 11028 21148 70005 555 31419 40051
AAXX 02064 71880 12682 80000 11061 21089 39237 40387 57017 60001 85570 333 11039 21096 70000 555 10000 20000
AAXX 02064 71882 160// /0000 11036 21058 39796 40355 58023 60001 333 11027 21061 70000
AAXX 02064 71883 46/// /0000 11094 21108 39468 40324 57022 6///1 333 11090 21197 7////
AAXX 02064 71887 12986 21207 10016 21063 39838 40268 57026 60001 82070 333 10023 21034 70000 555 10000 20000
AAXX 02064 71889 12974 60102 11029 21061 39875 40304 58021 60001 82072 333 10030 21039 79999 555 10000 20000
AAXX 02064 71891 16964 01807 11011 21022 39959 40239 56026 60001 333 10015 21023 70000
AAXX 02064 71892 12980 71204 10044 20002 30178 40183 57017 60001 82071 333 10064 20013 70002 555 10000 20000
AAXX 02064 71550 NIL
AAXX 02064 71551 NIL
AAXX 02064 71552 NIL
AAXX 02064 71553 NIL
AAXX 02064 71554 NIL
AAXX 02064 71555 16/// /2406 10024 21053 38686 40276 56018 60001 333 7////
AAXX 02064 71556 16/// /1303 11166 21183 39751 40389 58010 60001 333 11051 21177 70000 555 10010 33125 40071
AAXX 02064 71557 46/// /1503 11023 21048 6///1 333 10006 21056 7////
AAXX 02064 71558 46/// ///// 11092 21099 30066 40104 53001 6///1 333 11041 21097 7////
AAXX 02064 71559 46/// /2905 11167 21193 39664 40404 55005 6///1 333 11064 21167 7//// 555 33034 40123
AAXX 02064 71560 46/// /3419 11104 21139 30023 40343 53020 6///1 333 11017 21106 7////
AAXX 02064 71563 NIL
AAXX 02064 71564 NIL
AAXX 02064 71565 NIL
AAXX 02064 71566 NIL
AAXX 02064 71567 NIL
AAXX 02064 71568 16/// /1412 10065 20020 30140 40152 58013 60001 333 10065 20029 70006 555 31427 40221
AAXX 02064 71569 16/// /2509 11164 21183 39644 40383 58009 60001 333 11071 21177 70000 555 32832 40072
AAXX 02064 71570 16/// /3110 11129 21166 30003 40330 51030 60001 333 11023 21129 70000 555 33133 40182
AAXX 02064 71571 NIL
AAXX 02064 71572 NIL
AAXX 02064 71573 NIL
AAXX 02064 71574 11474 81606 11018 21028 30006 40079 58030 69901 78522 885// 333 11002 21030 43024 79999 90921 555 19999 29999
AAXX 02064 71575 16/// /0410 11262 21289 30052 40120 53001 60001 333 11144 21267 70000
AAXX 02064 71576 16/// /1901 11331 21368 30042 40133 53003 60001 333 11331 21388 70000
AAXX 02064 71577 NIL
AAXX 02064 71578 16/// /0910 11012 21016 60001 333 11010 21041 70000 555 30819 40001
AAXX 02064 71579 NIL
AAXX 02064 71580 12974 03210 11295 21325 30190 40229 51007 60001 333 11294 21394 43030 79999 555 19999 29999 33224 40131
AAXX 02064 71581 NIL
AAXX 02064 71582 17766 81721 10100 20028 30014 40066 51011 60001 761// 333 10127 20024 70028
AAXX 02064 71583 NIL
AAXX 02064 71584 15466 60508 11109 21124 30050 40099 55017 60001 333 11033 21135 70000
AAXX 02064 71585 NIL
AAXX 02064 71586 16/// /2102 11195 21210 39880 40372 55004 60001 333 11089 21231 70000 555 32919 40091
AAXX 02064 71587 NIL
AAXX 02064 71588 16/// /1705 11026 21033 60001 333 10008 21032 70000
AAXX 02064 71589 16/// /3603 11019 21019 39961 40094 53020 60001 333 11005 21034 70151 555 10170 20151 30018 40231
AAXX 02064 71590 17/// /1507 11033 21044 39838 40030 56056 69971 7//4/ 333 11033 21057 70007 555 10020 20007 31417 40061
AAXX 02064 71592 NIL
AAXX 02064 71593 NIL
AAXX 02064 71596 NIL
AAXX 02064 71598 17/60 /1502 11020 21026 30087 40093 58017 69931 7//4/ 333 10000 21053 70029
AAXX 02064 71599 NIL
AAXX 02064 71051 NIL
AAXX 02064 71055 NIL
AAXX 02064 71057 NIL
AAXX 02064 71059 460// ///// 11307 30149 40246 58022 6///1 333 11299 21341 7////
AAXX 02064 71061 16/// /1407 11081 21111 39431 40244 56042 60001 333 11076 21182 70000
AAXX 02064 71062 46/// /2004 11082 21154 39113 40215 56040 6///1 333 11051 21162 7////
AAXX 02064 71064 460// /2403 11319 30103 40336 53005 6///1 333 11308 21344 7////
AAXX 02064 71065 NIL
AAXX 02064 71067 NIL
AAXX 02064 71070 NIL
AAXX 02064 71073 NIL
AAXX 02064 71074 NIL
AAXX 02064 71075 16/// /2801 11176 21196 39714 40353 55003 60001 333 11136 21177 70000
AAXX 02064 71078 NIL
AAXX 02064 71084 460// ///// 11345 30255 40307 53004 6///1 333 11341 21363 7////
AAXX 02064 71085 15966 83111 10018 21052 38893 40300 56009 60001 333 10019 21122 70000
AAXX 02064 71087 NIL
AAXX 02064 71088 460// /3212 11346 56001 6///1 333 11317 21348 7//// 555 33119 40211
AAXX 02064 71089 NIL
AAXX 02064 71096 460// ///// 11283 39318 40080 52003 6///1 333 11223 21283 7////
AAXX 02064 71097 46664 80305 11169 39585 40069 55005 6///1 333 11169 21177 7////
AAXX 02064 71098 43/// /3213 11179 21197 39903 40280 52022 6///1 333 11031 21180 7//// 555 33230 40012
AAXX 02064 71099 43/// /3321 11175 21192 30148 40169 53034 6///1 333 11089 21175 7//// 555 33439 40043
AAXX 02064 71500 NIL
AAXX 02064 71501 NIL
AAXX 02064 71502 NIL
AAXX 02064 71503 NIL
AAXX 02064 71504 NIL
AAXX 02064 71505 NIL
AAXX 02064 71506 NIL
AAXX 02064 71507 NIL
AAXX 02064 71508 16/// ///// 10018 21015 39893 40030 53001 60001 333 10076 20018 70035
AAXX 02064 71509 NIL
AAXX 02064 71511 16/// /2704 11152 21180 39713 40384 58009 60001 333 11049 21152 70000 555 33329 40072
AAXX 02064 71512 NIL
AAXX 02064 71513 15466 80606 11091 21113 30080 40096 58016 60001 333 11054 21138 70008
AAXX 02064 71514 NIL
AAXX 02064 71515 16/// /3303 11153 21182 39656 40396 55003 60001 333 11069 21160 70000 555 33133 40082
AAXX 02064 71516 16/// /1502 11144 21172 60001 333 11036 21155 70000 555 33029 40082
AAXX 02064 71517 NIL
AAXX 02064 71518 NIL
AAXX 02064 71519 NIL
AAXX 02064 71520 NIL
AAXX 02064 71521 NIL
AAXX 02064 71522 NIL
AAXX 02064 71523 NIL
AAXX 02064 71524 17/// /2012 10042 20013 39940 49966 56015 60021 7//4/ 333 10047 21024 70050 555 31919 40061
AAXX 02064 71525 NIL
AAXX 02064 71526 NIL
AAXX 02064 71527 17556 83212 11125 21154 39721 40245 53017 60001 771// 333 11028 21125 70000
AAXX 02064 71528 NIL
AAXX 02064 71529 46/// /0805 11243 21273 30090 40333 56015 6///1 333 11183 21275 7//// 555 10010
AAXX 02064 71532 17216 82610 11005 21005 39631 49972 53001 60021 7714/ 333 10037 21017 74151
AAXX 02064 71534 17564 82510 11001 21021 39738 40007 50001 60001 745// 333 10044 21003 70050 555 32525 40021
AAXX 02064 71535 NIL
AAXX 02064 71536 NIL
AAXX 02064 71537 NIL
AAXX 02064 71539 NIL
AAXX 02064 71540 NIL
AAXX 02064 71541 NIL
AAXX 02064 71542 16/// /0816 11133 21156 60001 333 11089 21198 70000 555 30824 40041
AAXX 02064 71543 NIL
AAXX 02064 71544 NIL
AAXX 02064 71545 16/// ///// 11090 21119 60001 333 11061 21169 70012
AAXX 02064 71546 NIL
AAXX 02064 71547 NIL
AAXX 02064 71548 NIL
AAXX 02064 71549 NIL
AAXX 02064 71450 16/// /1404 11209 21234 39629 40390 56016 60001 333 11065 21214 70000 555 33026 40081
AAXX 02064 71451 16/// /2301 11229 21248 39916 40369 53002 60001 333 11087 21239 70000
AAXX 02064 71452 46/// /3105 11169 21194 39652 40404 56005 6///1 333 11062 21176 7//// 555 33033 40102
AAXX 02064 71453 16/// /1912 11041 21122 39395 40336 57025 60001 333 11012 21127 70000 555 31918 40061
AAXX 02064 71454 NIL
AAXX 02064 71455 NIL
AAXX 02064 71456 16/// /2506 11160 21190 39756 40387 55006 60001 333 11087 21168 70000 555 33121 40101
AAXX 02064 71457 16/// /1609 11069 21092 39378 40300 58021 60001 333 11037 21220 70000 555 10030
AAXX 02064 71458 16/// /1410 11105 21134 39496 40301 58032 60001 333 11084 21210 70000
AAXX 02064 71459 NIL
AAXX 02064 71460 16/// /3014 11015 21021 39747 49986 51022 60001 333 10038 21019 70000 555 32835 40023
AAXX 02064 71461 NIL
AAXX 02064 71462 NIL
AAXX 02064 71463 NIL
AAXX 02064 71464 NIL
AAXX 02064 71465 NIL
AAXX 02064 71466 NIL
AAXX 02064 71468 NIL
AAXX 02064 71470 NIL
AAXX 02064 71471 15966 81205 11080 21144 39340 40151 58039 60001 333 11073 21188 70000
AAXX 02064 71473 16/// /1012 10059 20012 30146 40176 56019 60001 333 10061 20022 70000 555 30726 40141
AAXX 02064 71475 16/// /0501 10005 20004 30088 40183 56013 60001 333 10018 21010 70036
AAXX 02064 71476 NIL
AAXX 02064 71477 17/// /1621 10063 20056 60101 7//4/ 333 10065 20027 70328 555 31565 40223
AAXX 02064 71478 NIL
AAXX 02064 71479 NIL
AAXX 02064 71480 NIL
AAXX 02064 71481 NIL
AAXX 02064 71482 NIL
AAXX 02064 71483 NIL
AAXX 02064 71484 NIL
AAXX 02064 71485 17/// /1247 10090 20022 30037 40057 58012 69921 7//4/ 333 10091 20042 70008 555 31266 40223
AAXX 02064 71486 16/// /1903 11095 21123 39026 40274 56033 60001 333 11084 21202 70000
AAXX 02064 71487 16/// /2006 11111 21149 39483 40390 56013 60001 333 11050 21133 70000 555 32825 40081
AAXX 02064 71489 16/// /1205 11167 21196 39526 40383 56019 60001 333 11063 21200 70000 555 32918 40071
AAXX 02064 71490 NIL
AAXX 02064 71491 NIL
AAXX 02064 71492 NIL
AAXX 02064 71493 16/// /1706 10005 21008 30070 40108 58016 60001 333 10042 21017 70000 555 33427 40101
AAXX 02064 71494 17/// /1706 10012 20011 39462 49977 56037 60081 7//4/ 333 10012 21048 70081 555 31217 40231
AAXX 02064 71495 NIL
AAXX 02064 71496 16/// /1905 11158 21177 39736 40380 56010 60001 333 11050 21172 70000 555 33223 40081
AAXX 02064 71497 46/// /0810 11219 21250 39825 40102 56056 6///1 333 7////
AAXX 02064 71498 NIL
AAXX 02064 71499 17258 82802 11172 21187 39696 40358 53001 60001 710// 333 11118 21233 70000
AAXX 02064 71812 46814 33221 11308 21351 30292 40307 58002 6///1 333 11197 21313 7//// 555 33435 40123
AAXX 02064 71819 15966 00303 11096 21101 30070 40112 53002 60001 333 11040 21109 70000
AAXX 02064 71820 17/// /2420 10030 21002 39883 49996 51006 69961 7//4/ 333 10076 21005 70030 555 32242 40013
AAXX 02064 71823 17227 91106 11047 21053 39526 49903 58051 60061 74544 333 11043 21183 70065 555 31519 40011
AAXX 02064 71824 NIL
AAXX 02064 71826 16/// /0000 11245 21285 30031 40076 50001 60001 333 11204 21252 70000
AAXX 02064 71829 17/// /0713 11032 21041 39861 40022 58047 69931 7//4/ 333 11029 21078 70003 555 30522 40061
AAXX 02064 71833 46/// /2612 11019 21022 6///1 333 10056 21020 7//// 555 32633 40002
AAXX 02064 71835 16/// /3210 11156 21183 39695 40190 51024 60001 333 11031 21156 70008 555 33528 40032
AAXX 02064 71837 NIL
AAXX 02064 71839 NIL
AAXX 02064 71840 NIL
AAXX 02064 71846 16/// /3109 11170 21195 39829 40154 53028 60001 333 11029 21170 70003 555 10020 20003 33022 40031
AAXX 02064 71847 NIL
AAXX 02064 71848 NIL
AAXX 02064 71849 16/// /3413 11099 21134 30034 40347 51023 60001 333 11019 21103 70000 555 33337 40183
BBXX 61002 02064 99421 10047 46/// /0000 10143 2//// 40174 57014 22200 00133 10604 70019
AAXX 02064 71893 12980 72202 10034 20010 30137 40169 57015 60001 82074 333 10063 20028 70016 555 10000 20000 31720 40110
AAXX 02064 71894 16/// /1022 10122 20021 30115 40124 55006 60001 333 10129 20043 70000 555 30938 40083
AAXX 02064 71896 15966 81916 10019 21034 39302 40146 56026 60001 333 10019 21192 70000
AAXX 02064 71897 11459 81450 10080 20048 3//// 4//// 55001 60051 76162 885XX 333 10100 20080 70072 90962
AAXX 02064 71898 160// ///// 10056 53024 60121 333 10072 20012 70175
AAXX 02064 71899 11469 82237 10070 20058 3//// 4//// 52010 60061 78062 8451/ 333 10080 20022 70154 90917 555 32237 40063
AAXX 02064 71902 NIL
AAXX 02064 71905 NIL
AAXX 02064 71906 11569 80404 11150 21172 39974 40025 58029 60011 77111 885// 333 11138 21217 48016 70010 90962 93101 555 10010 20010
AAXX 02064 71907 17420 90419 11151 21176 39952 49985 57021 60021 7//44 333 11124 21152 70025 555 30022 40061
AAXX 02064 71909 16633 63520 11243 21286 30039 40084 58002 60001 333 11143 21248 70000 555 30425 40061
AAXX 02064 71910 46964 00211 11263 21306 30059 40125 53002 6///1 333 11145 21266 7////
AAXX 02064 71911 46014 02908 11349 30180 40241 51004 6///1 333 11344 21435 7//// 555 32717 40171
AAXX 02064 71912 12974 03212 11264 21314 30142 40338 53027 60001 333 11100 21264 70010 555 10044 20010 33125 40201
AAXX 02064 71915 11874 13417 11313 21359 30066 40152 50001 60001 73611 81070 333 11206 21335 48042 79999 555 19999 29999
AAXX 02064 71917 11974 20802 11385 21434 30179 40194 52008 69901 77677 82070 333 11302 21402 47015 79999 90999 555 10002 29999
AAXX 02064 71922 12974 02003 11203 21236 39882 40376 58004 60001 333 11088 21236 79999 555 19999 29999
AAXX 02064 71924 NIL
AAXX 02064 71925 11969 13206 11370 21412 30288 40333 53002 69901 77677 81030 333 11347 21384 42021 79999 90983 555 19999 29999
AAXX 02064 71926 11932 13224 11312 21367 30277 40303 53006 60001 73811 81500 333 11301 21342 79999 555 19999 29999 33134 40033
AAXX 02064 71928 16/// /1206 11113 21137 39051 40264 56035 60001 333 11113 21243 70000 555 10010
AAXX 02064 71300 NIL
AAXX 02064 71301 NIL
AAXX 02064 71302 16/// /1915 10019 21024 39314 40143 56025 60001 333 10019 21180 70000 555 10010 31922 40061
AAXX 02064 71303 46/// ///// 10000 21016 6///1 333 10079 21006 7////
AAXX 02064 71305 15966 01009 11213 21233 30008 40321 56035 60001 333 11180 21300 70000
AAXX 02064 71306 17524 80421 11130 21147 39949 49981 58022 60001 771// 333 11104 21139 70000 555 30526 40051
AAXX 02064 71307 NIL
AAXX 02064 71308 16/// /1804 11005 21009 30042 40127 56011 60001 333 10095 21006 70099 555 33233 40182
AAXX 02064 71309 NIL
AAXX 02064 71310 NIL
AAXX 02064 71311 NIL
AAXX 02064 71312 16/// /2803 11200 21218 39896 40379 58002 60001 333 11079 21215 70000 555 33025 40141
AAXX 02064 71314 16/// /2615 11003 21030 39641 49989 58001 60001 333 10040 21003 70030 555 32625 40061
AAXX 02064 71315 16/// /0000 11018 21035 30022 40076 58027 60001 333 11008 21062 70000
AAXX 02064 71316 16/// /1505 11109 21172 39590 40303 58024 60001 333 11084 21192 70000
AAXX 02064 71317 NIL
AAXX 02064 71318 16/// /1512 11101 21134 39326 40306 58030 60001 333 11038 21180 70000
AAXX 02064 71319 NIL
AAXX 02064 71320 NIL
AAXX 02064 71321 16/// /3517 11242 21269 30055 40100 58002 60001 333 11143 21246 70000 555 10010 33522 40061
AAXX 02064 71322 46/// /3319 11307 21336 30292 40306 58003 6///1 333 11195 21312 7//// 555 33532 40132
AAXX 02064 71323 17/// /1304 10008 20003 39696 49975 56042 60051 7//4/ 333 10011 21051 70050
AAXX 02064 71331 16/// /2802 11123 21153 60001 333 11091 21124 70000
AAXX 02064 71332 NIL
AAXX 02064 71334 NIL
AAXX 02064 71335 46464 8//// 11114 39428 40053 56017 6///1 333 11081 21136 7////
AAXX 02064 71336 46/// ///21 10003 21010 30049 40071 53042 6///1 333 10014 21005 7////
AAXX 02064 71337 46/// /0000 11025 21027 39862 40100 53005 6///1 333 11015 21040 7//// 555 31219 40141
AAXX 02064 71338 46458 80602 11293 21342 30099 40107 52005 6///1 333 11235 21322 7////
AAXX 02064 71339 16964 02504 11173 21224 30095 40110 55001 60001 333 11095 21178 70000
AAXX 02064 71340 NIL
AAXX 02064 71341 NIL
AAXX 02064 71342 NIL
AAXX 02064 71343 NIL
AAXX 02064 71344 NIL
AAXX 02064 71345 NIL
AAXX 02064 71346 NIL
AAXX 02064 71347 NIL
AAXX 02064 71348 NIL
AAXX 02064 71349 NIL
AAXX 02064 60621 36/// /0206 10043 21050 333 20043
AAXX 02064 71851 16/// /3415 11100 21131 30009 40360 51021 60001 333 11011 21100 70012 555 33331 40172
AAXX 02064 71857 NIL
AAXX 02064 71860 NIL
AAXX 02064 71876 15966 00908 11153 21180 39676 40376 56021 60001 333 11054 21169 70000
AAXX 02064 71885 NIL
AAXX 02064 71886 16/// /2810 11136 21172 39744 40382 53001 60001 333 11053 21137 70000 555 33333 40092
AAXX 02064 71888 NIL
AAXX 02064 71890 16/// /0313 11022 21041 39997 40024 58049 60001 333 11019 21066 70000 555 30219 40061
AAXX 02064 71895 NIL
AAXX 02064 71350 16/// /2008 11017 21030 30047 40113 55018 60001 333 10048 21022 70003 555 33531 40162
AAXX 02064 71351 NIL
AAXX 02064 71352 16/// /2719 11020 21027 39574 40026 58001 60001 333 10047 21020 70060 555 32835 40003
AAXX 02064 71353 NIL
AAXX 02064 71354 NIL
AAXX 02064 71355 16/// /2805 11322 21356 30091 40181 51007 60001 333 11305 21347 70000
AAXX 02064 71356 16/// /3123 11315 21349 30231 40303 53003 60001 333 11304 21344 70000 555 33534 40083
AAXX 02064 71357 16/// /0702 11301 21331 30103 40110 52005 60001 333 11235 21324 70003
AAXX 02064 71358 17/// /3102 11391 21435 30070 40108 55002 60021 7//4/ 333 11336 21397 70027 555 10010 20027
AAXX 02064 71359 NIL
AAXX 02064 71360 NIL
AAXX 02064 71361 NIL
AAXX 02064 71362 NIL
AAXX 02064 71363 NIL
AAXX 02064 71364 NIL
AAXX 02064 71365 NIL
AAXX 02064 71368 17448 82516 11013 21027 39649 40036 50000 69981 7714/ 333 10058 21015 70058
AAXX 02064 71369 15966 81015 11095 21146 39512 40245 58042 60001 333 11084 21180 70000
AAXX 02064 71370 46/// /1806 10032 20032 39809 49943 56037 6///1 333 10032 21046 7////
AAXX 02064 71371 15566 82116 10046 20016 39932 49966 58010 60011 333 10053 21017 70023
AAXX 02064 71372 17/// /2313 10049 20012 60011 7//4/ 333 10052 21020 70058 555 31724 40021
AAXX 02064 71373 NIL
AAXX 02064 71374 NIL
AAXX 02064 71375 NIL
AAXX 02064 71376 NIL
AAXX 02064 71377 NIL
AAXX 02064 71378 17/// /1708 10014 21001 39726 49932 56042 60041 7//4/ 333 10015 21091 70038 555 10010 20038 31617 40061
AAXX 02064 71379 17/// /1307 11029 21034 39738 49907 56051 60021 7//4/ 333 11029 21092 70019 555 31420 40041
AAXX 02064 71380 NIL
AAXX 02064 71381 NIL
AAXX 02064 71382 17/// /1907 11017 21022 39027 49944 58037 60011 7//4/ 333 11015 21055 70010
AAXX 02064 71383 NIL
AAXX 02064 71384 17/// /2203 11004 21008 39975 49982 57043 60081 7//4/ 333 10013 21042 70080
AAXX 02064 71385 NIL
AAXX 02064 71386 NIL
AAXX 02064 71387 NIL
AAXX 02064 71388 46/// /0808 11033 21053 39767 49955 57049 6///1 333 11027 21116 7//// 555 30917 40001
AAXX 02064 71389 46/// /1205 10003 20000 6///1 333 10006 21041 7//// 555 31118 40011
AAXX 02064 71390 NIL
AAXX 02064 71391 16/// ///// 10025 20001 60001 333 10031 21033 70022
AAXX 02064 71392 17/// /0807 11003 21005 60081 7//4/ 333 11003 21042 70094 555 30718 40001
AAXX 02064 71393 NIL
AAXX 02064 71395 NIL
AAXX 02064 71398 17448 83116 11079 21095 39919 49930 53017 60001 771// 333 11031 21079 70000
AAXX 02064 71399 NIL
AAXX 02064 71201 16/// ///// 10054 20019 60001 333 10073 20035 70000
AAXX 02064 71202 16/// ///// 11107 21126 60001 333 11034 21173 70012
AAXX 02064 71203 15966 02601 11049 21065 39773 40309 58022 60001 333 10000 21057 70000
AAXX 02064 71209 46/// /1203 10053 6///1 333 10058 20031 7//// 555 31018 40131
AAXX 02064 71211 46/// /0229 10051 20009 30167 40179 56010 6///1 333 10057 20034 7//// 555 30351 40223
AAXX 02064 71212 17/// /1702 11013 21018 39169 49964 58037 60061 7//4/ 333 11013 21058 70063 555 10050 20063
AAXX 02064 71213 46/// /3013 11028 21035 39626 49923 51024 6///1 333 11008 21070 7//// 555 33027 40051
AAXX 02064 71214 NIL
AAXX 02064 71215 NIL
AAXX 02064 71216 16/// /0902 11035 21051 39709 40345 56022 60001 333 11007 21050 70000
AAXX 02064 71217 NIL
AAXX 02064 71218 16/// /2302 11018 21047 39860 40299 56021 60001 333 11001 21056 70000
AAXX 02064 71219 46/// /1432 10050 20025 39999 40005 53022 6///1 333 10067 21002 7//// 555 31350 40223
AAXX 02064 71220 46/// /1436 10057 20043 6///1 333 10068 20008 7////
AAXX 02064 71221 NIL
AAXX 02064 71222 16/// /1406 10008 21052 38997 49952 56017 60001 333 10008 21185 70000 555 32017 40031
AAXX 02064 71223 NIL
AAXX 02064 71224 NIL
AAXX 02064 71225 NIL
AAXX 02064 71226 NIL
AAXX 02064 71227 NIL
AAXX 02064 71228 NIL
AAXX 02064 71229 NIL
AAXX 02064 71230 16/// /2807 11113 21156 39236 40156 57039 60001 333 11096 21207 70000
AAXX 02064 71231 16/// /1516 11056 21110 60001 333 11006 21144 70006 555 31520 40061
AAXX 02064 71232 16/// /2517 11038 21134 38741 40278 57020 60001 333 11009 21108 70000 555 32835 40063
AAXX 02064 71233 NIL
AAXX 02064 71234 16/// /1506 10039 21049 39063 40266 58023 60001 333 10051 21106 70000 555 32719 40221
AAXX 02064 71235 16/// /2403 11038 21133 60001 333 11032 21132 70000
AAXX 02064 71236 46/// /3105 11007 21071 6///1 333 11007 21119 7//// 555 33133 40202
AAXX 02064 71237 46/// /1611 11084 21105 39447 40297 56028 6///1 333 11035 21192 7////
AAXX 02064 71238 16/// /1611 11090 21115 60001 333 11014 21189 70000 555 31419 40031
AAXX 02064 71239 16/// /2907 11147 21173 39888 40379 51023 60001 333 11026 21148 70000 555 33334 40123
AAXX 02064 71240 16/// ///// 11112 21148 39461 40344 58019 60001 333 11031 21157 70000
AAXX 02064 71241 NIL
AAXX 02064 71242 NIL
AAXX 02064 71243 NIL
AAXX 02064 71244 16/// /1812 11052 21102 39054 40318 58020 60001 333 11010 21136 70000 555 31819 40211
AAXX 02064 71245 NIL
AAXX 02064 71246 NIL
AAXX 02064 71247 15966 11805 11028 21091 39441 40327 58022 60001 333 11021 21163 70000
AAXX 02064 71248 16/// /2501 11074 21113 38917 40264 56029 60001 333 11062 21243 70000
AAXX 02064 71249 NIL
BBXX V7OX3 02061 99353 50157 41/97 /2308 10180 20127 40210 54000 703// 8/1// 22223 3//// 4//// 5//// 80150
AAXX 02064 06011 07982 71608 10024 21006 39676 49743 57005 60072 72386 333 10051 20019 55300 20000 69927 70177 81/63 83/64 87/66 91124
AAXX 02061 15501 12968 00000 11036 21039 30197 40244 56003 60002 333 10001 21042 70000 555 34/// 598//
AAXX 02061 15505 12975 21104 11005 21033 39865 40252 57002 60002 80005 333 10002 21020 41998 70000 555 3/107 582//
AAXX 02061 15511 12970 02302 11036 21051 30218 40259 53001 60002 333 10021 21041 55065 70000 555 34/// 588//
AAXX 02061 15514 12568 10000 11028 21040 30207 40244 52004 60002 81400 333 10013 21030 70000 555 34/// 591// 92601
AAXX 02061 15530 12965 00000 11080 21103 30018 40273 58004 60002 333 11020 21080 43009 70000 555 3/113 584// 92601
AAXX 02061 15533 12966 20000 11037 21040 30197 40231 56001 60002 82031 333 10006 21040 43002 70000 555 598// 92602
AAXX 02061 15550 12668 62302 11013 21032 30223 40244 53001 60002 82550 333 10008 21028 70000 555 34/// 587// 92602
AAXX 02061 15561 12970 52704 11018 21044 30243 40251 53004 60002 82035 222// 00072 2//00 333 10008 21025 70000 555 34105 582// 92014 92418
AAXX 02061 15562 12474 22704 10030 20003 30193 40267 53003 60002 82500 222// 2//01 333 10034 20008 55071 70000 555 31100 582// 92023 92428
AAXX 02061 15600 11989 13210 11034 21051 38328 48533 53007 60002 70300 81030 333 11034 21036 48012 55064 555 588//
AAXX 02061 15601 12970 00000 11088 21096 39636 40300 52003 60002 333 11026 21094 55072 70000 555 34111 593// 92601
AAXX 02061 15605 12975 02701 11108 21108 39402 40311 57003 60002 333 11038 21110 44003 70000 555 3/113 500//
AAXX 02061 15613 11989 03408 11048 21061 37728 47072 53005 60002 70300 81040 333 11032 21088 48047 55084 70000 555 590//
AAXX 02061 15628 12680 20000 11092 21104 30010 40287 52004 60002 81230 333 11035 21104 43008 55061 70000 555 3/112 591// 92601
AAXX 02061 15642 12970 00000 11048 21054 30088 40266 52001 60002 333 10000 21052 55000 70000 555 34108 595// 92602
AAXX 02061 15661 12970 02303 10000 21052 30223 40260 54000 60002 222// 20000 333 10030 21010 70000 555 32102 568// 92600 92012 92418
AAXX 02061 15726 11983 03603 11039 21237 38275 48539 58005 60002 70200 333 11037 21085 44051 55014 70000 555 520//
AAXX 02064 78922 46/// /0918 10260 20203 30105 40150 58022
AAXX 02064 48307 32562 10000 10292 20181 39750 40125 57041 81100 333 59017
AAXX 02064 48324 32560 23002 10295 20173 39903 40119 57040 82101 333 59014
AAXX 02064 48333 31958 00000 10287 20177 39830 40129 55048 70500 333 59008
AAXX 02064 48350 NIL
AAXX 02064 48355 31958 00000 10280 20177 39915 40133 57042 70500 333 59013
AAXX 02064 48358 NIL
AAXX 02064 48384 32961 10000 10297 20189 39945 40133 56036 80005 333 59014
AAXX 02064 48401 31559 50503 10305 20208 30025 40131 57033 70511 82136 333 59006
AAXX 02064 48404 32962 00000 10290 20204 39947 40124 57041 333 59014
AAXX 02064 48409 31958 60000 10269 20193 39977 40124 57034 70522 86031 333 58000
AAXX 02064 48419 31558 80603 10295 20196 30117 40125 57014 70522 83576 333 59004
AAXX 02064 48427 31558 80704 10291 20210 30112 40120 57035 70522 83556 333 59005
AAXX 02064 48435 32562 60312 10285 20172 39687 40120 58033 86541 333 59014
AAXX 02064 48453 32560 40306 10320 20196 30112 40114 57036 81145 333 59007
AAXX 02064 48458 32561 50508 10320 20192 30051 40130 57032 84210 333 59008
AAXX 02064 48474 31557 73305 10290 20207 39998 40121 57024 70522 82576 333 59002
AAXX 02064 48481 NIL
AAXX 02064 48555 01440 80000 10238 20234 30092 40135 58015 60481 76122 8772/ 333 59005 60327 72065
AAXX 02064 48556 01458 80000 10270 20248 30090 40106 57020 60031 76166 83877 333 59007 60027 70289
AAXX 02064 48557 01460 80206 10280 20257 30078 40113 57021 60011 72162 8687/ 333 58000 60016 70663
AAXX 02064 48560 31558 60905 10287 20242 30108 40113 56024 71022 82846 333 59014 70269
AAXX 02064 48574 NIL
AAXX 02064 48581 32460 30204 10309 20239 30068 40109 57023 82251 333 59005
AAXX 02061 01344 16/// ///// 10012 21028 69972 333 20001 4/070 70072
AAXX 02061 01122 16/// /2003 10009 21034 39814 49903 58009 60002 333 21022 70011 91106
AAXX 02061 01132 16/// /1603 10002 21038 39516 49901 57013 60002 333 21019 4/058 70008 91109
AAXX 02061 01203 46/// /1706 10056 20012 39791 49839 57003 333 20038 91119
AAXX 02061 01361 16/// /1104 11045 21059 38862 49886 56009 60002 333 21052 4/069 70011 91113
AAXX 02061 01378 16/// /0000 11013 21017 39616 49907 56010 60012 333 21019 70060 91101
AAXX 02061 01422 16/// /2005 10049 20021 60032 333 20044 70050 91111
AAXX 02061 01477 16/// /0000 10001 21002 69962 333 20000 4/023 70053 91102
AAXX 02064 71816 12474 52003 11229 21278 30048 40112 56011 60001 81571 333 11152 21250 70000 555 10000 20000
AAXX 02064 71817 NIL
AAXX 02064 71818 12974 01803 11180 21214 30089 40108 58001 60001 333 11122 21221 70000 555 10000 20000
AAXX 02064 71822 NIL
AAXX 02064 71825 11369 81806 11105 21116 39352 40032 58030 69921 77177 886// 333 11090 21263 48120 70004 90983 555 10010 20004
AAXX 02064 71827 11/24 90703 11049 21053 39642 49883 58033 60051 77177 333 11045 21127 47027 70098 90983 93105 555 10098 20098
AAXX 02064 71828 16261 81611 11101 21108 39367 40014 56038 60001 333 11101 21268 70005
AAXX 02064 71831 11432 83015 11100 21116 39710 49991 51023 60031 77177 885// 333 11016 21101 48053 70128 90983 93103 555 10128 20128 33027 40031
AAXX 02064 71832 NIL
AAXX 02064 71834 11558 83215 11116 21144 39669 40104 52022 60021 77177 885// 333 11003 21116 48035 70090 90983 93103 555 10112 20090 33128 40231
AAXX 02064 71841 NIL
AAXX 02064 71842 11456 83319 11137 21169 39742 40229 52018 69921 77177 885// 333 11024 21137 48007 70004 90983 555 10006 20004 33331 40061
AAXX 02064 71844 NIL
AAXX 02064 71845 NIL
AAXX 02064 71850 11574 83414 11116 21159 39757 40278 51017 69921 77177 885// 333 11015 21117 48012 70010 90983 555 10010 20010 33226 40200
AAXX 02064 71852 16564 83513 11099 21134 30035 40342 51023 60001 333 11017 21104 70015
AAXX 02064 71854 NIL
AAXX 02064 71858 16/// /0207 11121 21151 30073 40367 53017 60001 333 11079 21159 70003 555 33326 40191
AAXX 02064 71861 NIL
AAXX 02064 71862 12974 02908 11171 21192 39665 40406 55005 60001 333 11066 21171 79999 555 19999 29999 33130 40111
AAXX 02064 71863 46964 00000 11183 21216 39661 40402 58006 6///1 333 11075 21209 7//// 555 33031 40072
AAXX 02061 01150 16/// /2103 11025 21055 60012 333 21050 70045 91115
AAXX 02061 01230 16/// /1802 11024 21048 60002 333 21025 4/043 70005 91110
AAXX 02061 01232 16/// /1705 10038 21034 39790 49868 57005 60002 333 20031 70000 91113
AAXX 02061 01253 16/// /1701 11023 21038 60002 333 21038 70008 91104
AAXX 02061 01254 16/// /1401 11057 21066 60002 333 21058 4/029 70000 91103
AAXX 02061 01291 16/// /2501 11014 21024 60022 333 21014 4/039 70031 91107
AAXX 02061 01386 16/// ///// 10005 21004 60002 333 20000 70022
AAXX 02061 01470 16/// /0601 10001 21001 39799 49913 55003 69952 333 21001 4/015 70030 91103
AAXX 02061 01392 11266 83601 10005 20001 39688 49912 57014 60012 70282 888// 333 21003 47007 70079 91102
AAXX 02061 01023 11689 71107 11002 21068 39869 49964 56011 60002 70222 81578 333 21024 47016 70000 91116
AAXX 02061 01311 46/// /1505 10045 20036 39803 49864 58008 333 20038 91111
AAXX 02061 01452 11031 81401 10020 20016 39898 49919 52002 60092 78084 878// 333 20014 70099 91105
AAXX 02064 71043 11656 81116 11138 21186 39920 40016 57091 60001 73822 8357/ 333 11137 21356 48034 79999 555 19999 29999 31129 40060
AAXX 02064 71045 17/// /1005 11095 21106 39060 49921 57020 60011 7//4/ 333 11095 21219 70048 555 10130 20048
AAXX 02064 71050 46/// /2403 11072 21089 39052 40145 57006 6///1 333 11012 21126 7//// 555 30520 40031
AAXX 02064 71051 NIL
AAXX 02064 71052 NIL
AAXX 02064 71066 12974 71215 11117 21164 39761 40199 58055 60001 87030 333 11101 21266 70000 555 10000 20000
AAXX 02064 71068 12974 81406 11046 21150 39470 40180 56042 60001 80001 333 11046 21190 70000 555 10000 20000
AAXX 02064 71069 17964 01014 11100 21142 39514 40247 58040 60001 745// 333 11089 21191 70000 555 31221 40041
AAXX 02064 71076 16/// /1202 11190 21209 39933 40349 56013 60001 333 11148 21202 70000
AAXX 02064 71077 16/// /1702 11215 21237 39790 40362 58016 60001 333 11106 21224 70000
AAXX 02064 71079 NIL
AAXX 02064 71081 46964 03111 11363 21408 30128 40141 53001 6///1 333 11346 21370 7//// 555 33220 40191
AAXX 02064 71082 NIL
AAXX 02064 71083 11902 03425 11318 21359 30206 40251 55003 60001 73933 333 11207 21320 79999 555 19999 29999 33434 40012
AAXX 02064 71090 46964 02802 11386 21419 30072 40109 55001 6///1 333 11331 21391 7////
AAXX 02064 71091 460// /0107 11325 39884 40105 51001 6///1 333 7//// 555 32918 40181
AAXX 02064 71092 46964 00000 11287 39394 40087 55000 6///1 333 11258 21288 7////
AAXX 02064 71093 460// ///// 11286 39570 40088 53001 6///1 333 11232 21293 7////
AAXX 02064 71094 46064 /0106 11272 39107 40036 52002 6///1 333 11247 21272 7////
AAXX 02064 71095 46864 31903 11331 21374 30046 40132 53003 6///1 333 11331 21386 7////
AAXX 02064 71101 160// /2206 39972 52026 69951 333 70140 555 31458 40203
AAXX 02064 71104 12874 81419 11003 21065 39062 40184 56023 60001 83077 333 11002 21104 70000 555 10000 20000 31441 40041
AAXX 02064 71108 12974 80403 10051 21002 30113 40186 58014 60001 82071 333 10073 20025 79999 555 10000 20000 30721 40050
AAXX 02064 71109 11874 81320 10076 20013 30052 40078 56014 60001 8807/ 333 10076 20042 79999 555 10000 20000 30940 40152
AAXX 02064 71930 NIL
AAXX 02064 71931 16/// /0107 11003 21014 30072 40084 53023 60001 333 10030 21019 70000 555 30426 40231
AAXX 02064 71934 11974 01205 11197 21219 30032 40305 58032 69901 70271 333 11163 21251 47029 79999 90953 555 10002 29999
AAXX 02064 71935 12874 71410 11148 21171 39992 40211 56056 60001 87010 333 11147 21260 79999 555 19999 29999
AAXX 02064 71936 11474 71117 11172 21199 30002 40275 57027 69901 77177 87500 333 11160 21178 48027 70002 90983 555 10010 20002 31120 40060
AAXX 02064 71937 NIL
AAXX 02064 71938 11574 10000 11265 21293 30247 40279 58016 69901 72277 81500 333 11245 21331 46029 79999 90913 555 19999 29999
AAXX 02064 71940 12782 81905 11089 21124 39332 40164 57036 60001 8357/ 333 11089 21215 70000 555 10000 20000
AAXX 02064 71943 12974 81210 11105 21169 39289 40146 57041 60001 8807/ 333 11076 21128 70000 555 10000 20000
AAXX 02064 71944 160// ///// 11091 56032 60001 333 11091 21240 70000
AAXX 02064 71945 12974 70704 11068 21139 39577 40057 56049 60001 86071 333 11061 21208 70000 555 10000 20000
AAXX 02064 71946 11/08 91208 11175 21195 39894 40120 58080 60011 77172 333 11173 21374 48043 70008 90931 93101 555 10014 20008
AAXX 02064 71948 47011 /0825 11284 30086 40206 58033 6///1 745// 333 11278 21302 7//// 555 30130 40062
AAXX 02064 71949 NIL
AAXX 02064 71951 11/10 90307 11020 21024 39781 40049 55001 60241 77177 333 11020 21052 47070 70400 90983 93141 555 10416 20400 30321 40190
AAXX 02064 71957 46964 00713 11191 21273 39960 40052 58073 6///1 333 11189 21318 7//// 555 30121 40061
AAXX 02064 71964 11566 61715 11051 21076 39015 49858 56026 60011 73681 83570 333 11050 21145 47021 70026 90923 93101 555 10040 20026 31730 40051
AAXX 02064 71966 17/// /0000 11237 21265 39427 49902 56046 60061 7//4/ 333 11237 21361 70061 555 10040 20061
AAXX 02064 71968 460// /3208 11328 30015 40084 58030 6///1 333 11235 21382 7//// 555 32028 40092
AAXX 02064 71726 17/// /1704 10011 20007 39355 49884 56038 60031 7//4/ 333 10012 21059 70038 555 10030 20038
AAXX 02064 71727 11766 81023 11039 21062 39760 49957 56049 69921 77122 8557/ 333 11039 21119 48045 70002 90962 555 10006 20002 32429 40021
AAXX 02064 71728 11580 81305 11032 21052 39706 49926 57048 60031 77177 885// 333 11032 21096 44004 70032 90983 93103 555 10032 20032
AAXX 02064 71730 NIL
AAXX 02064 71731 NIL
AAXX 02064 71735 NIL
AAXX 02064 71738 NIL
AAXX 02064 71739 41532 83115 11088 21114 39602 49965 53034 6//// 77177 888// 333 11021 21088 4//// 7//// 90983 93101 555 33130 40042
AAXX 02064 71749 16562 83219 11094 21144 39911 40162 51026 60001 333 11004 21096 70020 555 30330 40062
AAXX 02064 71799 12983 52706 10018 20011 30160 40184 57015 60001 80008 333 10066 20010 70009 555 10000 20000
AAXX 02064 71800 NIL
AAXX 02064 71801 11374 80114 11005 21010 39914 40088 52053 60011 72474 886// 333 10007 21014 44005 70340 90983 93101 555 10105 20105 30240 40011
AAXX 02064 71803 11159 83504 11020 21027 39916 40104 51013 69921 71075 886// 333 11005 21041 48010 70068 90933 555 10074 20068 31022 40131
AAXX 02064 71807 NIL
AAXX 02064 71808 12974 00205 11094 21112 30061 40108 55002 60001 333 11036 21108 70014 555 10014 20014
AAXX 02064 71809 11469 80000 11033 21039 30087 40115 53004 69901 70277 885// 333 11002 21052 43014 70136 90942 555 10136 20136 30322 40140
AAXX 02064 71810 16/// /0905 11082 21100 30016 40083 56020 60001 333 11027 21108 70008 555 30422 40071
AAXX 02064 71811 NIL
AAXX 02064 71813 16/// /0506 11091 21113 30078 40092 58014 60001 333 11054 21140 70007 555 30421 40091
AAXX 02064 71814 16/// /3506 11079 21097 30098 40108 55005 60001 333 11044 21105 70036 555 30222 40141
AAXX 02064 71815 12474 70705 10002 21010 30081 40112 53009 60001 87500 333 10030 20000 70182 555 10004 20004 30722 40100
AAXX 02064 71915 11874 13417 11313 21359 30066 40152 50001 60001 73611 81070 333 11206 21335 48042 79999 555 19999 29999 33417 40061
AAXX 02064 71816 12474 52003 11229 21278 30048 40112 56011 60001 81571 333 11152 21250 70000 555 10000 20000
AAXX 02064 71817 NIL
AAXX 02064 71818 12974 01803 11180 21214 30089 40108 58001 60001 333 11122 21221 70000 555 10000 20000
AAXX 02064 71822 NIL
AAXX 02064 71825 11369 81806 11105 21116 39352 40032 58030 69921 77177 886// 333 11090 21263 48120 70004 90983 555 10010 20004
AAXX 02064 71827 11/24 90703 11049 21053 39642 49883 58033 60051 77177 333 11045 21127 47027 70098 90983 93105 555 10098 20098
AAXX 02064 71828 16261 81611 11101 21108 39367 40014 56038 60001 333 11101 21268 70005
AAXX 02064 71831 11432 83015 11100 21116 39710 49991 51023 60031 77177 885// 333 11016 21101 48053 70128 90983 93103 555 10128 20128 33027 40031
AAXX 02064 71832 NIL
AAXX 02064 71834 11558 83215 11116 21144 39669 40104 52022 60021 77177 885// 333 11003 21116 48035 70090 90983 93103 555 10112 20090 33128 40231
AAXX 02064 71841 NIL
AAXX 02064 71842 11456 83319 11137 21169 39742 40229 52018 69921 77177 885// 333 11024 21137 48007 70004 90983 555 10006 20004 33331 40061
AAXX 02064 71844 NIL
AAXX 02064 71845 NIL
AAXX 02064 71850 11574 83414 11116 21159 39757 40278 51017 69921 77177 885// 333 11015 21117 48012 70010 90983 555 10010 20010 33226 40200
AAXX 02064 71852 16564 83513 11099 21134 30035 40342 51023 60001 333 11017 21104 70015
AAXX 02064 71854 NIL
AAXX 02064 71858 16/// /0207 11121 21151 30073 40367 53017 60001 333 11079 21159 70003 555 33326 40191
AAXX 02064 71861 NIL
AAXX 02064 71862 12974 02908 11171 21192 39665 40406 55005 60001 333 11066 21171 79999 555 19999 29999 33130 40111
AAXX 02064 71863 46964 00000 11183 21216 39661 40402 58006 6///1 333 11075 21209 7//// 555 33031 40072
AAXX 02064 60020 11560 40502 10171 20102 30259 40304 56008 60004 702// 84500 333 20170 55062 924/7
AAXX 02064 60030 02660 30115 10171 20099 30230 40287 56004 60004 8380/ 333 017// 20168 55069 60007 924/7
AAXX 02064 60040 02575 60311 10169 20105 30273 40298 58003 60004 86500 333 014// 20152 55052 60007 924/8
AAXX 02064 60338 12580 12614 10140 20106 30222 40288 52007 60004 81800 333 20140 55087 924/8
AAXX 02064 71864 NIL
AAXX 02064 71865 16/// /2504 11141 21177 39671 40386 56005 60001 333 11064 21143 70000 555 32922 40211
AAXX 02064 71866 46964 01905 11159 21190 39738 40386 56011 6///1 333 11048 21170 7//// 555 33225 40081
AAXX 02064 71867 NIL
AAXX 02064 71868 16/// /2202 11210 21231 39913 40380 51005 60001 333 11071 21212 70000 555 32828 40152
AAXX 02064 71869 12974 00000 11209 21217 39831 40387 58003 60001 333 11043 21211 79999 555 19999 29999
AAXX 02064 71871 15966 01808 11150 21187 39504 40353 56017 60001 333 11082 21171 70000
AAXX 02064 71877 12974 82206 11063 21107 38980 40297 57028 60001 85072 333 11057 21151 70000 555 10000 20000
AAXX 02064 71878 12974 71712 11047 21095 39163 40268 56037 60001 84071 333 11044 21218 70000 555 10000 20000
AAXX 02064 71879 16964 01511 11060 21111 39429 40259 58041 60001 333 11028 21148 70005 555 31419 40051
AAXX 02064 71880 12682 80000 11061 21089 39237 40387 57017 60001 85570 333 11039 21096 70000 555 10000 20000
AAXX 02064 71882 160// /0000 11036 21058 39796 40355 58023 60001 333 11027 21061 70000
AAXX 02064 71883 46/// /0000 11094 21108 39468 40324 57022 6///1 333 11090 21197 7////
AAXX 02064 71887 12986 21207 10016 21063 39838 40268 57026 60001 82070 333 10023 21034 70000 555 10000 20000
AAXX 02064 71889 12974 60102 11029 21061 39875 40304 58021 60001 82072 333 10030 21039 79999 555 10000 20000
AAXX 02064 71891 16964 01807 11011 21022 39959 40239 56026 60001 333 10015 21023 70000
AAXX 02064 71892 12980 71204 10044 20002 30178 40183 57017 60001 82071 333 10064 20013 70002 555 10000 20000
AAXX 02064 71603 12269 81408 10042 20033 30054 40107 56031 60001 88500 333 10057 20009 70000 555 10000 20000 33226 40081
AAXX 02064 71607 16/// /1207 10034 20024 30031 40064 57053 60001 333 10034 21023 70000 555 33320 40121
AAXX 02064 71609 11256 81612 10008 21014 39965 40100 58024 69901 71072 886// 333 10013 21010 70003 90962 555 19999 29999 33528 40101
AAXX 02064 71610 17566 82103 10038 20028 39687 49979 56034 60041 7614/ 333 10040 21026 70043
AAXX 02064 71621 17564 32319 10027 21010 39896 40001 50003 60001 745// 333 10079 20002 70050 555 32334 40023
AAXX 02064 71623 NIL
AAXX 02064 71624 NIL
AAXX 02064 71625 16564 82308 10024 21003 39767 49925 52004 60011 333 10038 21044 70040
AAXX 02064 71627 11574 82322 10046 20000 39926 49970 56006 69941 72586 8757/ 333 10058 21018 41997 70014 90927 555 10000 20000
AAXX 02064 71628 11560 42217 10029 21002 39820 49959 55001 60011 70262 84570 333 10051 21040 70014 909/6 555 32128 40002
AAXX 02064 71630 NIL
AAXX 02064 71631 NIL
AAXX 02064 71633 11/12 92714 11005 21009 39734 40003 52003 60021 76162 333 10051 21007 43003 70064 90982 93102 555 10020 20018 32635 40051
AAXX 02064 71705 11374 81809 11005 21018 30013 40101 55015 69901 70287 886// 333 10011 21012 41997 70016 90936 555 10002 20002 33427 40131
AAXX 02064 71706 11474 82008 11015 21031 30060 40121 55019 69901 70282 885// 333 10053 21020 46997 70004 90927 555 19999 29999 33429 40111
AAXX 02064 71707 12474 81905 10001 21014 30051 40128 50004 60001 885// 333 10060 21014 70101 555 10000 20000 33626 40171
AAXX 02064 71709 NIL
AAXX 02064 71711 NIL
AAXX 02064 71714 17/// /0807 11005 21009 39899 49991 56045 60071 7//4/ 333 7//// 555 10020
AAXX 02064 71715 17/// /1404 11021 21029 39811 49992 58056 60021 7//4/ 333 11018 21060 70024
AAXX 02064 71718 11424 81422 11025 21030 39945 40010 58061 69961 78582 887// 333 11022 21050 48012 70008 90916 555 10008 20008
AAXX 02064 71719 NIL
AAXX 02064 71397 12474 82007 10008 20001 30090 40125 55010 60001 885// 333 10053 20004 70008 555 10000 20000
AAXX 02064 71400 16/64 /3203 11026 21026 60001 333 11004 21033 70039
AAXX 02064 71403 46/// /2010 10015 21002 30113 40133 58012 6///1 333 10080 20001 7//// 555 33241 40163
AAXX 02064 71411 16/// /1914 10039 20027 30113 40125 58021 60001 333 10084 20014 70000 555 33125 40141
AAXX 02064 71412 16/// /1807 11001 21011 30099 40109 56020 60001 333 10066 21012 70031 555 33534 40153
AAXX 02064 71421 NIL
AAXX 02064 71430 16/// /2532 10037 20002 39910 40005 51001 60001 333 10077 20011 70025 555 32558 40033
AAXX 02064 71431 16/// /2625 10024 21004 39904 49999 51003 60001 333 10068 20009 70032 555 32737 40033
AAXX 02064 71432 16/// /2411 10020 21015 39942 40038 53002 60001 333 10092 20019 70025 555 32635 40023
AAXX 02064 71433 NIL
AAXX 02064 71435 NIL
AAXX 02064 71441 46/// /3415 11100 21141 30022 40344 53022 6///1 333 11015 21104 7//// 555 33441 40163
AAXX 02064 71443 NIL
AAXX 02064 71444 NIL
AAXX 02064 71447 NIL
AAXX 02064 71467 16/// /1112 11292 21320 30123 40245 56018 60001 333 11260 21303 70000
AAXX 02064 71472 NIL
AAXX 02064 71474 16964 01807 11031 21076 38967 40229 56025 60001 333 11026 21094 70000 555 31420 40211
AAXX 02064 71510 NIL
AAXX 02064 71538 11662 82615 11006 21037 39872 40102 58001 69941 77182 885// 333 10088 21014 42997 70018 90952 555 10008 20008 32738 40212
AAXX 02064 71600 164// 82607 10030 20008 30152 40158 53010 60001 333 10098 20030 70190 555 33043 40173
AAXX 02064 71601 NIL
AAXX 02064 71893 12980 72202 10034 20010 30137 40169 57015 60001 82074 333 10063 20028 70016 555 10000 20000 31720 40110
AAXX 02064 71894 16/// /1022 10122 20021 30115 40124 55006 60001 333 10129 20043 70000 555 30938 40083
AAXX 02064 71896 15966 81916 10019 21034 39302 40146 56026 60001 333 10019 21192 70000
AAXX 02064 71897 11459 81450 10080 20048 3//// 4//// 55001 60051 76162 885XX 333 10100 20080 70072 90962
AAXX 02064 71898 160// ///// 10056 53024 60121 333 10072 20012 70175
AAXX 02064 71899 11469 82237 10070 20058 3//// 4//// 52010 60061 78062 8451/ 333 10080 20022 70154 90917 555 32237 40063
AAXX 02064 71902 NIL
AAXX 02064 71905 NIL
AAXX 02064 71906 11569 80404 11150 21172 39974 40025 58029 60011 77111 885// 333 11138 21217 48016 70010 90962 93101 555 10010 20010
AAXX 02064 71907 17420 90419 11151 21176 39952 49985 57021 60021 7//44 333 11124 21152 70025 555 30022 40061
AAXX 02064 71909 16633 63520 11243 21286 30039 40084 58002 60001 333 11143 21248 70000 555 30425 40061
AAXX 02064 71910 46964 00211 11263 21306 30059 40125 53002 6///1 333 11145 21266 7////
AAXX 02064 71911 46014 02908 11349 30180 40241 51004 6///1 333 11344 21435 7//// 555 32717 40171
AAXX 02064 71912 12974 03212 11264 21314 30142 40338 53027 60001 333 11100 21264 70010 555 10044 20010 33125 40201
AAXX 02064 71915 11874 13417 11313 21359 30066 40152 50001 60001 73611 81070 333 11206 21335 48042 79999 555 19999 29999
AAXX 02064 71917 11974 20802 11385 21434 30179 40194 52008 69901 77677 82070 333 11302 21402 47015 79999 90999 555 10002 29999
AAXX 02064 71922 12974 02003 11203 21236 39882 40376 58004 60001 333 11088 21236 79999 555 19999 29999
AAXX 02064 71924 NIL
AAXX 02064 71925 11969 13206 11370 21412 30288 40333 53002 69901 77677 81030 333 11347 21384 42021 79999 90983 555 19999 29999
AAXX 02064 71926 11932 13224 11312 21367 30277 40303 53006 60001 73811 81500 333 11301 21342 79999 555 19999 29999 33134 40033
AAXX 02064 71928 16/// /1206 11113 21137 39051 40264 56035 60001 333 11113 21243 70000 555 10010
AAXX 02064 71114 160// /1115 10029 21021 30176 40225 56021 60001 333 10056 20004 70000 555 30125 40061
AAXX 02064 71120 12974 31903 11168 21211 39653 40347 57023 60001 80001 333 11083 21168 70000 555 10000 20000
AAXX 02064 71122 16/// /2608 11100 21148 38679 40349 58022 60001 333 7////
AAXX 02064 71123 12974 81418 11078 21112 39364 40261 58042 60001 88020 333 11059 21216 70000 555 10000 20000 31422 40061
AAXX 02064 71125 NIL
AAXX 02064 71129 12974 21308 11094 21145 39485 40352 57022 60001 80001 333 11047 21148 70000 555 10000 20000
AAXX 02064 71131 16/// /1603 11094 21143 39051 40363 56019 60001 333 11083 21187 70000 555 33021 40111
AAXX 02064 71135 16/// /2407 11118 21172 39258 40396 56015 60001 333 11057 21128 70000 555 33230 40112
AAXX 02064 71137 NIL
AAXX 02064 71140 12974 03110 11152 21171 39853 40382 5/018 60001 333 11037 21155 79999 555 19999 29999 33130 40111
AAXX 02064 71145 11974 03307 11202 21246 30008 40318 52028 69901 73677 333 11071 21203 48033 70024 90923 555 10024 20024 33326 40231
AAXX 02064 71148 16/// /3211 11133 21161 39759 40368 52021 60001 333 11035 21133 70000 555 33133 40222
AAXX 02064 71185 16564 81404 11010 30073 40097 55001 60001 333 10005 21038 70020
AAXX 02064 71188 12474 80000 11079 21101 30044 40087 57025 60001 885// 333 11013 21111 70020 555 10018 20020
AAXX 02064 71200 16/// /0505 10079 20020 60001 333 10082 20039 70000 555 30719 40111
AAXX 02064 71207 16/// /3503 10004 21011 30139 40204 56020 60001 333 10028 21002 70000
AAXX 02064 71260 NIL
AAXX 02064 71043 11656 81116 11138 21186 39920 40016 57091 60001 73822 8357/ 333 11137 21356 48034 79999 555 19999 29999 31129 40060
AAXX 02064 71045 17/// /1005 11095 21106 39060 49921 57020 60011 7//4/ 333 11095 21219 70048 555 10130 20048
AAXX 02064 71050 46/// /2403 11072 21089 39052 40145 57006 6///1 333 11012 21126 7//// 555 30520 40031
AAXX 02064 71051 NIL
AAXX 02064 71052 NIL
AAXX 02064 71066 12974 71215 11117 21164 39761 40199 58055 60001 87030 333 11101 21266 70000 555 10000 20000
AAXX 02064 71068 12974 81406 11046 21150 39470 40180 56042 60001 80001 333 11046 21190 70000 555 10000 20000
AAXX 02064 71069 17964 01014 11100 21142 39514 40247 58040 60001 745// 333 11089 21191 70000 555 31221 40041
AAXX 02064 71076 16/// /1202 11190 21209 39933 40349 56013 60001 333 11148 21202 70000
AAXX 02064 71077 16/// /1702 11215 21237 39790 40362 58016 60001 333 11106 21224 70000
AAXX 02064 71079 NIL
AAXX 02064 71081 46964 03111 11363 21408 30128 40141 53001 6///1 333 11346 21370 7//// 555 33220 40191
AAXX 02064 71082 NIL
AAXX 02064 71083 11902 03425 11318 21359 30206 40251 55003 60001 73933 333 11207 21320 79999 555 19999 29999 33434 40012
AAXX 02064 71090 46964 02802 11386 21419 30072 40109 55001 6///1 333 11331 21391 7////
AAXX 02064 71091 460// /0107 11325 39884 40105 51001 6///1 333 7//// 555 32918 40181
AAXX 02064 71092 46964 00000 11287 39394 40087 55000 6///1 333 11258 21288 7////
AAXX 02064 71093 460// ///// 11286 39570 40088 53001 6///1 333 11232 21293 7////
AAXX 02064 71094 46064 /0106 11272 39107 40036 52002 6///1 333 11247 21272 7////
AAXX 02064 71095 46864 31903 11331 21374 30046 40132 53003 6///1 333 11331 21386 7////
AAXX 02064 71101 160// /2206 39972 52026 69951 333 70140 555 31458 40203
AAXX 02064 71104 12874 81419 11003 21065 39062 40184 56023 60001 83077 333 11002 21104 70000 555 10000 20000 31441 40041
AAXX 02064 71108 12974 80403 10051 21002 30113 40186 58014 60001 82071 333 10073 20025 79999 555 10000 20000 30721 40050
AAXX 02064 71109 11874 81320 10076 20013 30052 40078 56014 60001 8807/ 333 10076 20042 79999 555 10000 20000 30940 40152
AAXX 02064 71864 NIL
AAXX 02064 71865 16/// /2504 11141 21177 39671 40386 56005 60001 333 11064 21143 70000 555 32922 40211
AAXX 02064 71866 46964 01905 11159 21190 39738 40386 56011 6///1 333 11048 21170 7//// 555 33225 40081
AAXX 02064 71867 NIL
AAXX 02064 71868 16/// /2202 11210 21231 39913 40380 51005 60001 333 11071 21212 70000 555 32828 40152
AAXX 02064 71869 12974 00000 11209 21217 39831 40387 58003 60001 333 11043 21211 79999 555 19999 29999
AAXX 02064 71871 15966 01808 11150 21187 39504 40353 56017 60001 333 11082 21171 70000
AAXX 02064 71877 12974 82206 11063 21107 38980 40297 57028 60001 85072 333 11057 21151 70000 555 10000 20000
AAXX 02064 71878 12974 71712 11047 21095 39163 40268 56037 60001 84071 333 11044 21218 70000 555 10000 20000
AAXX 02064 71879 16964 01511 11060 21111 39429 40259 58041 60001 333 11028 21148 70005 555 31419 40051
AAXX 02064 71880 12682 80000 11061 21089 39237 40387 57017 60001 85570 333 11039 21096 70000 555 10000 20000
AAXX 02064 71882 160// /0000 11036 21058 39796 40355 58023 60001 333 11027 21061 70000
AAXX 02064 71883 46/// /0000 11094 21108 39468 40324 57022 6///1 333 11090 21197 7////
AAXX 02064 71887 12986 21207 10016 21063 39838 40268 57026 60001 82070 333 10023 21034 70000 555 10000 20000
AAXX 02064 71889 12974 60102 11029 21061 39875 40304 58021 60001 82072 333 10030 21039 79999 555 10000 20000
AAXX 02064 71891 16964 01807 11011 21022 39959 40239 56026 60001 333 10015 21023 70000
AAXX 02064 71892 12980 71204 10044 20002 30178 40183 57017 60001 82071 333 10064 20013 70002 555 10000 20000
AAXX 02064 71930 NIL
AAXX 02064 71931 16/// /0107 11003 21014 30072 40084 53023 60001 333 10030 21019 70000 555 30426 40231
AAXX 02064 71934 11974 01205 11197 21219 30032 40305 58032 69901 70271 333 11163 21251 47029 79999 90953 555 10002 29999
AAXX 02064 71935 12874 71410 11148 21171 39992 40211 56056 60001 87010 333 11147 21260 79999 555 19999 29999
AAXX 02064 71936 11474 71117 11172 21199 30002 40275 57027 69901 77177 87500 333 11160 21178 48027 70002 90983 555 10010 20002 31120 40060
AAXX 02064 71937 NIL
AAXX 02064 71938 11574 10000 11265 21293 30247 40279 58016 69901 72277 81500 333 11245 21331 46029 79999 90913 555 19999 29999
AAXX 02064 71940 12782 81905 11089 21124 39332 40164 57036 60001 8357/ 333 11089 21215 70000 555 10000 20000
AAXX 02064 71943 12974 81210 11105 21169 39289 40146 57041 60001 8807/ 333 11076 21128 70000 555 10000 20000
AAXX 02064 71944 160// ///// 11091 56032 60001 333 11091 21240 70000
AAXX 02064 71945 12974 70704 11068 21139 39577 40057 56049 60001 86071 333 11061 21208 70000 555 10000 20000
AAXX 02064 71946 11/08 91208 11175 21195 39894 40120 58080 60011 77172 333 11173 21374 48043 70008 90931 93101 555 10014 20008
AAXX 02064 71948 47011 /0825 11284 30086 40206 58033 6///1 745// 333 11278 21302 7//// 555 30130 40062
AAXX 02064 71949 NIL
AAXX 02064 71951 11/10 90307 11020 21024 39781 40049 55001 60241 77177 333 11020 21052 47070 70400 90983 93141 555 10416 20400 30321 40190
AAXX 02064 71957 46964 00713 11191 21273 39960 40052 58073 6///1 333 11189 21318 7//// 555 30121 40061
AAXX 02064 71964 11566 61715 11051 21076 39015 49858 56026 60011 73681 83570 333 11050 21145 47021 70026 90923 93101 555 10040 20026 31730 40051
AAXX 02064 71966 17/// /0000 11237 21265 39427 49902 56046 60061 7//4/ 333 11237 21361 70061 555 10040 20061
AAXX 02064 71968 460// /3208 11328 30015 40084 58030 6///1 333 11235 21382 7//// 555 32028 40092
AAXX 02061 80001 11470 10604 10270 20238 30139 40140 69911 70250 81100 333 562// 58010 81818
AAXX 02061 80002 NIL
AAXX 02061 80009 31560 20303 10262 20192 30084 40089 70500 81802 333 560/0 58/// 81820
AAXX 02061 80022 32962 09901 10258 20229 30093 40095 333 58006
AAXX 02061 80028 NIL
AAXX 02061 80035 NIL
AAXX 02061 80036 NIL
AAXX 02061 80063 NIL
AAXX 02061 80084 NIL
AAXX 02061 80091 NIL
AAXX 02061 80094 NIL
AAXX 02061 80097 NIL
AAXX 02061 80099 NIL
AAXX 02061 80110 NIL
AAXX 02061 80112 31250 70000 10136 20131 37900 70511 83680 333 5699/ 59002 83705 84358
AAXX 02061 80139 NIL
AAXX 02061 80144 NIL
AAXX 02061 80149 NIL
AAXX 02061 80210 31362 40802 10205 20167 38653 70520 81630 333 5600/ 58/// 81617 83457
AAXX 02061 80211 31570 70000 10192 20177 70522 84501 333 568/2 84625 83070
AAXX 02061 80214 NIL
AAXX 02061 80222 31565 40101 10085 20066 37528 70500 83535 333 56299 58013 83620
AAXX 02061 80234 NIL
AAXX 02061 80241 NIL
AAXX 02061 80259 NIL
AAXX 02061 80315 NIL
AAXX 02061 80342 NIL
AAXX 02061 80370 NIL
AAXX 02061 80398 11468 80000 10246 20240 30011 40106 69911 70352 8357/ 333 5699/ 58002 83620 87458
AAXX 02064 48433 31559 60000 10276 20193 39966 40131 57035 70522 82556 333 59006
AAXX 02064 48481 32562 50503 10312 20209 30078 40105 57032 82131 333 59009
AAXX 02064 48574 32562 60000 10302 20249 30076 40105 57017 82136 333 58001 70032
AAXX 02061 80001 11470 10604 10270 20238 30139 40140 69911 70250 81100 333 562// 58010 81818
AAXX 02061 80002 NIL
AAXX 02061 80009 31560 20303 10262 20192 30084 40089 70500 81802 333 560/0 58/// 81820
AAXX 02061 80022 32962 09901 10258 20229 30093 40095 333 58006
AAXX 02061 80028 NIL
AAXX 02061 80035 NIL
AAXX 02061 80036 NIL
AAXX 02061 80063 NIL
AAXX 02061 80084 NIL
AAXX 02061 80091 NIL
AAXX 02061 80094 NIL
AAXX 02061 80097 NIL
AAXX 02061 80099 NIL
AAXX 02061 80110 NIL
AAXX 02061 80112 31250 70000 10136 20131 37900 70511 83680 333 5699/ 59002 83705 84358
AAXX 02061 80139 NIL
AAXX 02061 80144 NIL
AAXX 02061 80149 NIL
AAXX 02061 80210 31362 40802 10205 20167 38653 70520 81630 333 5600/ 58/// 81617 83457
AAXX 02061 80211 31570 70000 10192 20177 70522 84501 333 568/2 84625 83070
AAXX 02061 80214 NIL
AAXX 02061 80222 31565 40101 10085 20066 37528 70500 83535 333 56299 58013 83620
AAXX 02061 80234 NIL
AAXX 02061 80241 NIL
AAXX 02061 80259 NIL
AAXX 02061 80315 NIL
AAXX 02061 80342 NIL
AAXX 02061 80370 NIL
AAXX 02061 80398 11468 80000 10246 20240 30011 40106 69911 70352 8357/ 333 5699/ 58002 83620 87458
AAXX 02064 89009 41459 83007 11262 36905 57001 77772 886// 333 88715
AAXX 02064 89009 41459 83007 11262 36905 57001 77772 886// 333 88715
AAXX 02063 91553 31598 50000 10285 20239 40068 52008 70222 85900 333 563// 84820 81925
AAXX 02063 91553 31598 50000 10285 20239 40068 52008 70222 85900 333 563// 84820 81925
AAXX 02061 06447 11395 82903 10074 20059 39941 40065 53010 60092 76166 875// 333 20073 32007 91111 91207
BBXX SHIP 02064 99390 70618 41398 21907 10145 20081 40173 55007 70022 82100 22224 04170 20301 80110
AAXX 02064 64600 31958 73604 10185 20177 39477 40126 71022 84082 333 01700 20180 55072 58006 84363 86080
AAXX 02064 64601 31910 30217 10174 20018 39015 48524 70500 83030 333 01600 20172 58002 83365
AAXX 02064 64605 32958 60000 10180 20123 39375 40114 86030 333 01300 20152 58004 86365
AAXX 02064 64610 32960 60000 10145 20128 3//// 4//// 80002 333 01000 20135 5//// 86080
AAXX 02064 64650 32956 70000 10235 20226 39711 40119 8703/ 333 01900 20230 55079 58002 87365
AAXX 02064 64654 32970 41006 10188 20099 39563 40135 80002 333 01400 20160 58007 84080
AAXX 02064 64655 32965 40402 10195 20187 39469 40111 80002 333 01700 20185 59001 84080
AAXX 02064 64656 31903 70000 10235 20225 39563 40110 74644 8707/ 333 02100 20215 58003 87364
AAXX 02064 64659 NIL
AAXX 02064 64660 NIL
AAXX 02064 64662 32965 41602 10217 20206 39606 40099 82072 333 01900 20210 59002 82365 84080
AAXX 02064 64665 32970 60000 10226 20211 3//// 4//// 86030 333 01200 20218 55/// 5//// 86365
BBXX DCAX2 02063 99250 51406 41697 20512 10270 20228 40170 54000 70300 82140 22233 2//// 3//// 4//// 5//// 80240
AAXX 02061 37575 42999 00202 10014 21045 39578 40176 54000
AAXX 02061 37675 41495 80000 11005 20011 39487 40162 52011 70242 8802/
AAXX 02061 37735 42999 02902 10057 21041 39767 40145 53001 37749 42998 33601 10014 21011 30069 40188 57007 83080
AAXX 02061 37756 41496 83005 11002 21008 39285 40199 57020 71011 887//
AAXX 02061 37864 32597 81602 10055 20034 40144 52003 885// 333 20012 86625 555 30///
AAXX 02061 37985 42997 32301 10064 20055 30168 40154 53005 83040
AAXX 02061 06432 11565 89901 10071 20057 39991 40067 53006 60082 76162 875// 333 20071 32006 83631 87636 91110 91202
AAXX 02061 06458 11564 82804 10073 20063 39915 40068 53007 60072 76362 875// 333 20073 31007 81829 87639 91112 91208
AAXX 02061 06465 17463 /2905 10075 20064 39996 40062 53008 60082 76186 333 20075 3/007 81/17 85/28 88/32 91110 91207
AAXX 02061 06496 11256 72604 10059 20056 39389 40057 56010 60112 76366 877// 333 20059 32006 81703 83706 85709 91113 91208
AAXX 02061 06428 11679 72204 10075 20057 30009 40057 50001 60102 72162 8353/ 333 20075 32006 81645 83657 87359 91110 91206
AAXX 02064 40340 32960 00000 10094 20030 40214 52008 333 20094 30007
AAXX 02061 02947 47/82 71203 11044 21051 40133 57005 70000 87/// 90551 333 11036 21078 3////
AAXX 02061 02947 47/82 71203 11044 21051 40133 57005 70000 87/// 90551 333 11036 21078 3////
AAXX 02061 01212 16/// /2206 10064 20027 39830 49845 57003 6//// 333 20060 91108
AAXX 02061 01300 41597 42608 10058 20019 49834 54000 70282 84/// 22200 02063 10708 70038 333 91115
AAXX 02061 01367 11450 80000 11054 21064 39476 49925 57008 69912 77175 887// 333 21059 47020 70010 91100
AAXX 02061 01049 16/// /2203 11039 21085 30063 40066 55000 60002 333 21063 70004 91115
AAXX 02061 01160 46/// /1108 10032 21042 39908 49925 58008 333 20006 91110
AAXX 02061 01397 16/// /0000 11011 21013 39480 49915 56016 69962 333 21033 70090 91102
AAXX 02061 01400 41599 32414 10066 20006 49933 52008 70281 83201 22200 06077 10606 70031 333 91116
AAXX 02061 33317 31496 81802 11002 21008 39839 40184 57002 71022 885// 333 21059 47001 88614
AAXX 02061 33663 32597 81301 11008 21029 30110 40209 58004 8653/ 333 21046 86629
AAXX 02061 02019 07/57 /1808 11029 21082 39339 49963 53014 69912 78587 333 11013 21048 69905 70001 90710 91124
AAXX 02061 02081 07/62 /1405 11080 21091 39659 40071 52003 69922 70070 333 11066 21085 60005 70002 90710 91109
AAXX 02061 02095 05263 /1304 11088 21097 39888 40097 57001 69922 333 11057 21088 60005 70002 88/06 90710 91109
AAXX 02061 02101 47550 /1308 11023 21059 39380 49938 57015 785// 8//// 333 11022 21038 88/23
AAXX 02061 02119 07418 /0602 11043 21051 39617 40007 57007 60022 77187 333 11043 21069 69925 70057 88/16 90710 91106
AAXX 02061 02124 07521 /1105 11043 21078 39462 49990 57009 60042 77177 333 11043 21055 69965 70067 89/26 90710 91108
AAXX 02061 02126 07322 /1202 11027 21034 39631 49970 57011 60032 77774 333 11027 21041 69915 70058 88/08 90710 91108
AAXX 02061 02151 36/// ///// 1//// 2//// 3//// 4//// 5//// 6///2 333 1//// 2//// 6///5 7//// 910// 90710 911// 90710 912//
AAXX 02061 02186 07427 81411 11010 21018 30028 40053 58007 69982 74144 333 11009 21026 69955 70010 84/11 87/15 88/19 91013 90710 91114 90710 91211
AAXX 02061 02197 07/58 /1405 11040 21048 30076 40095 56007 69922 71071 333 11031 21068 60005 70004 90710 91111
AAXX 02061 02207 05999 /1203 11026 21051 39193 49886 55008 69992 333 11014 21059 60005 70018 87/61 90710 91110
AAXX 02061 02219 07/27 /1207 11024 21033 39242 49905 58009 60022 77174 333 11024 21044 69925 70032 90710 91113
AAXX 02061 02226 47384 /1706 11010 21029 39467 49919 55005 785// 8//// 333 11008 21033 81/10 88/18
AAXX 02061 02243 07/58 /1303 10002 20002 39678 49945 57003 60042 72387 333 10003 21014 69905 90710 91107
AAXX 02061 02269 07221 /1514 10032 20032 60022 76164 333 10032 20010 69925 70018 88/04 90710 91118
AAXX 02061 02287 07205 /1408 11011 21017 30004 40014 57007 60032 77377 333 11007 21024 69995 70029 88/04 90710 91116
AAXX 02061 02297 07313 /1512 11010 21013 39984 40030 57009 60012 77177 333 11007 21023 69935 70016 81/09 87/12 90710 91122
AAXX 02061 02308 07399 /1702 11033 21041 39057 49913 57006 60012 70070 333 11033 21049 60005 70018 88/06 90710 91105
AAXX 02061 02327 07/64 /0702 11015 21016 39497 49931 58007 69932 72487 333 11014 21036 69905 70054 90710 91103
AAXX 02061 02355 07011 /1807 10020 20020 39944 49956 58005 60032 72086 333 10020 20013 60005 70035 85/01 87/03 90710 91109
AAXX 02061 02366 47/61 /1502 10008 20007 39948 49954 58005 724// 8//// 333 10014 20003
AAXX 02061 02407 07103 /0000 10005 20005 39555 49922 57012 69932 75286 333 10013 21025 69915 70080 89/03 90710 91101
AAXX 02061 02418 47159 /1505 10044 20041 39781 49910 57025 761// 8//// 333 10045 20022 85/02 88/05
AAXX 02061 02435 47250 /1402 10023 20014 39755 49941 57013 761// 8//// 333 10023 20000 81/04 88/05
AAXX 02061 02440 07107 /0000 10003 20001 69972 73486 333 10005 21006 60005 70046 88/01 90710 91102
AAXX 02061 02452 07102 /1202 10024 20024 60062 76263 333 10033 21001 60015 70136 89/02 90710 91104
AAXX 02061 02456 07131 /1601 10030 20028 39924 49966 57010 60022 76286 333 10030 20005 69995 70042 88/02 90710 91104
AAXX 02061 02469 07/43 /1503 10047 20042 69972 76161 333 10047 20019 69935 70045 90710 91105
AAXX 02061 02498 07382 /1609 10052 20042 39968 49985 56012 60032 70010 333 10054 20033 60005 70031 88/09 90710 91112
AAXX 02061 02518 463// /2407 10064 20063 333 10065 20057 82/07 87/29 88/35 90710 91110
AAXX 02061 02520 07360 81705 10062 20053 39845 49911 56022 69972 75280 333 10064 20053 69915 70031 82/06 84/10 88/15 91007 90710 91108 90710 91206
AAXX 02061 02550 47182 /1503 10048 20048 39662 49932 56018 751// 8//// 333 10052 20046 83/02 85/23 87/39
AAXX 02061 02562 07257 91302 10041 20040 39830 49944 56025 60022 75264 333 10044 20022 69975 70049 89/06 91003 90710 91104 90710 91203
AAXX 02061 02563 07114 /1505 10039 20038 39931 49953 58026 60022 76161 333 10043 20028 69995 70067 89/02 90710 91108
AAXX 02061 02565 07250 /0502 10044 20044 39815 49933 58044 60042 76165 333 10048 20013 60015 70063 87/04 88/25 90710 91104
AAXX 02061 02589 07132 /1705 10055 20049 39963 49984 58017 60022 76261 333 10055 20032 69975 70041 87/02 88/19 90710 91109
AAXX 02061 02590 47115 /1204 10038 20038 39910 49971 58027 781// 8//// 333 10042 20024 88/02
AAXX 02061 02618 07/50 /2203 10067 20067 39776 49937 56010 60112 78186 333 10068 20057 69925 70187 90710 91106
AAXX 02061 02664 01125 82204 10080 20077 39864 49934 56037 60142 76162 886// 333 10081 20052 32/// 69905 70142 88702 91009 90710 91112 90710 91207
AAXX 02061 02679 07/02 /1509 10048 20048 39924 49968 58039 60032 78186 333 10049 20035 69965 70042 90710 91112
AAXX 02061 33088 NIL
AAXX 02061 33177 NIL
AAXX 02061 33261 32997 32801 11035 21071 30009 40199 52003 83030 333 21038
AAXX 02061 33275 12597 83105 11036 21068 39962 40194 52011 69902 8555/ 333 21036 47997
AAXX 02061 33301 11397 82102 10006 20003 39884 40172 69932 70272 886// 333 21023 47997 88707
AAXX 02061 33325 32997 82101 11013 21030 39917 40193 57003 8805/ 333 21039
AAXX 02061 33377 32997 22701 11055 21069 30011 40214 52006 82050 333 21055
AAXX 02061 33415 11597 81803 11001 21009 39780 40188 57004 60022 70282 8533/ 333 21021 43002 85920
AAXX 02061 33429 11497 72003 11010 21017 39761 40196 54000 69962 72682 87300 333 21034 47001 87616
AAXX 02061 33466 31958 81801 11035 21043 30019 40214 58002 71011 8805/ 333 21044
AAXX 02061 33526 32660 80000 10003 21017 39840 40188 57002 885// 333 21040 88640
AAXX 02061 33562 32597 82002 11019 21034 39832 40205 52004 8555/ 333 21043 47002 85620
AAXX 02061 33614 12697 13103 11014 21062 30107 40215 52010 69902 81400 333 21020
AAXX 02061 33761 31942 61903 11038 21043 39984 40217 57005 71011 83034 333 21042
AAXX 02061 33902 NIL
AAXX 02061 33983 32597 22905 11008 21036 30169 40232 52020 82500 333 21014
AAXX 02061 34415 NIL
AAXX 02061 34523 NIL
AAXX 02061 34712 12569 43205 11015 21029 30112 40201 52022 69902 82530 333 21016 47001
AAXX 02064 85558 12597 80705 10163 20142 40135 57005 60001 886// 333 56099 88720
AAXX 02064 85564 12597 83607 10147 20134 40155 54001 60001 885// 333 56799 88630
AAXX 02064 85680 12997 02308 10180 20122 40121 57005 60001
AAXX 02064 85732 12997 01826 10130 20105 40141 57015 60001
AAXX 02064 85812 12997 01804 10122 20084 40195 57015 60001
AAXX 02064 85834 12597 32416 10110 20090 40186 54015 83400 333 56600 83620
AAXX 02064 85889 12997 03614 10120 20097 40220 57007 60001
AAXX 02064 85896 12597 43003 10120 20090 40206 57008 60001 84700 333 56700 84725
AAXX 02064 85931 12597 82823 10116 20086 40075 57010 60001 885// 333 56699 88620
AAXX 02064 85935 12997 03318 10104 20052 40086 56004
AAXX 02064 85967 12997 02103 10090 20057 40007 5//// 60001
AAXX 02064 85972 11496 83014 10076 20072 49986 54001 71622 887// 333 56799 88716
AAXX 02064 89057 12460 83405 10002 21004 49893 54002 60001 886// 333 56699 88710
AAXX 02064 85558 12597 80705 10163 20142 40135 57005 60001 886// 333 56099 88720
AAXX 02064 85564 12597 83607 10147 20134 40155 54001 60001 885// 333 56799 88630
AAXX 02064 85680 12997 02308 10180 20122 40121 57005 60001
AAXX 02064 85732 12997 01826 10130 20105 40141 57015 60001
AAXX 02064 85812 12997 01804 10122 20084 40195 57015 60001
AAXX 02064 85834 12597 32416 10110 20090 40186 54015 83400 333 56600 83620
AAXX 02064 85889 12997 03614 10120 20097 40220 57007 60001
AAXX 02064 85896 12597 43003 10120 20090 40206 57008 60001 84700 333 56700 84725
AAXX 02064 85931 12597 82823 10116 20086 40075 57010 60001 885// 333 56699 88620
AAXX 02064 85935 12997 03318 10104 20052 40086 56004
AAXX 02064 85967 12997 02103 10090 20057 40007 5//// 60001
AAXX 02064 85972 11496 83014 10076 20072 49986 54001 71622 887// 333 56799 88716
AAXX 02064 89057 12460 83405 10002 21004 49893 54002 60001 886// 333 56699 88710
AAXX 02061 14024 12899 22513 10013 21026 39087 48475 58005 60002 81048 333 20013 34102 42012 55016 70000 91121 92863 95000
AAXX 02061 14008 12099 73215 11019 21059 37468 47027 57022 60002 81538 333 21020 49100 55060 70000 92878 95155 444 26196
AAXX 02061 02464 47030 /1303 10045 20044 39951 49969 57014 761// 8//// 333 10045 20021 88/01
AAXX 02061 02500 07/60 /2902 10050 20048 39863 49905 55006 60082 78186 333 10069 20050 69935 70156 90710 91105
AAXX 02061 02513 07/56 /2403 10069 20062 39922 49926 55004 60082 76186 333 10079 20068 60025 70162 90710 91109
AAXX 02061 02615 07473 /2408 10069 20064 39972 49976 53027 60122 70086 333 10081 20060 60005 70166 84/13 88/35 90710 91111
AAXX 02061 02635 07/66 /2503 10077 20072 60152 72386 333 10092 20068 69915 70236 90710 91107
AAXX 02064 40356 42660 62106 10050 20030 39205 48497 84520 333 20020 58019 84630 85460 555 04410 50200
AAXX 02064 40357 42960 02307 10058 20030 39549 40201 333 20023 58016
AAXX 02064 40360 42960 40806 10044 20020 39594 40187 84070 333 20030 58006 84360
AAXX 02064 40361 42960 22304 10062 21010 39422 40209 80009 333 20025 58019 81070
AAXX 02064 40362 NIL
AAXX 02064 40373 42660 63508 10118 20000 39752 40172 86500 333 20094 58025 86635
AAXX 02064 40375 42960 00000 10062 21050 39317 40212 333 20029 58021
AAXX 02064 40377 42660 40311 10116 20100 39697 40181 84400 333 20100 58023 84640
AAXX 02064 40394 42960 00608 10114 20040 39046 48520 333 20056 58013 555 04410 50177
AAXX 02064 40400 42660 50706 10180 20060 30161 40189 85500 333 20146 58010 85640
AAXX 02064 40401 NIL
AAXX 02064 40405 42960 03606 10150 20090 39430 40166 333 20116 58003
AAXX 02064 40416 42960 01712 10180 20120 30124 40144 333 20160 59034
AAXX 02064 40417 41958 21906 10164 20080 30144 40159 70500 82030 333 20142 59039 82360
AAXX 02064 40420 41956 01708 10175 20060 39949 40158 70600 333 20104 59039
AAXX 02064 40430 42660 53104 10190 20060 39440 40154 83501 333 20170 58003 83645 84070
AAXX 02064 40435 NIL
AAXX 02064 40437 42960 00000 10187 20060 39463 40162 333 20105 59021
AAXX 02064 40439 NIL
AAXX 02061 91925 06/// /3401 10237 20206 30086 40147 53026 60001 333 55054 60007 90710 91106 555 60005 10609 58004
AAXX 02061 91954 06/// /2402 10239 20227 30160 40163 51020 60041 333 55/// 60047 555 58006
AAXX 02061 91929 04986 81407 10257 20226 30149 40152 52021 60012 700// 333 10292 20246 55/// 60007 70010 90710 91111 555 60005
AAXX 02061 91938 02575 61804 10263 20211 30156 40158 52025 60002 82832 333 10297 20263 30/// 55015 60007 70483 81820 86365 90710 91105 555 60005 12405 58010
AAXX 02061 91944 06/// /1008 10263 20199 30158 40161 51023 60002 333 10291 20262 55107 60007 70101 90710 91115 555 60005
AAXX 02061 91948 06/// /3603 10243 20196 30077 40179 51021 60001 333 55101 60007 90710 91108 555 60005 13608 58000
AAXX 02061 91958 06/// /2003 10229 20217 30173 40175 53020 60031 333 55002 69907 90710 91106 555 69905 11807 58007
AAXX 02061 91945 16/// /1102 10247 20231 30162 40167 53019 60181 555 58004 60274
AAXX 02064 94299 46/// /1419 10279 20193 30084 40094
AAXX 02064 94300 46/// /2214 10272 20188 30087 40097
AAXX 02064 94302 46/// /2511 10327 20136 30079 40085
AAXX 02064 94312 46/// /3214 10317 20212 30060 40069
AAXX 02064 94313 NIL
AAXX 02064 94317 46/// /3211 10388 20031 39466 40033
AAXX 02064 94319 46/// /3408 10395 20152 39726 40047
AAXX 02064 94324 NIL
AAXX 02064 94326 46/// /2212 10397 20077 39441 40037
AAXX 02064 94327 46/// /2314 10366 20366 39673 40034
AAXX 02064 94332 46/// /2106 10368 20165 39679 40054
AAXX 02064 94333 NIL
AAXX 02064 94341 46/// /00// 1//// 2//// 39847 40076
AAXX 02064 94346 46/// /0509 10364 20103 39871 40086
AAXX 02064 94363 46/// /1410 10327 20107 39892 40105
AAXX 02064 94366 NIL
AAXX 02064 94367 46/// /1309 10276 20176 30084 40126
AAXX 02064 94374 46/// /0911 10285 20144 30112 40128
AAXX 02064 94388 46/// /1318 10261 20156 30136 40141
AAXX 02064 94393 46/// /1424 10254 30093 40105 55004
AAXX 02064 94394 46/// /1323 10244 30116 40124 55005
AAXX 02064 94403 46/// /2116 10269 20173 30052 40092
AAXX 02064 94429 46/// /2707 10372 20063 39600 40047
AAXX 02064 94430 46/// /3114 10372 21035 39480 40043
AAXX 02064 94449 46/// /2410 10374 20091 39535 40046
AAXX 02064 94451 NIL
AAXX 02064 94461 46/// /3507 10338 20155 39416 40065
AAXX 02064 94462 46/// /2006 10357 20126 39521 40058
AAXX 02064 94477 NIL
AAXX 02064 94488 NIL
AAXX 02064 94102 46/// /2705 10323 20249 30068 40077
AAXX 02064 94103 NIL
AAXX 02064 94120 46/// /1907 10342 20226 30026 40066
AAXX 02064 94122 46/// /1906 10317 20251 30060 40068
AAXX 02064 94131 46/// /2404 10354 20190 39910 40060
AAXX 02064 94132 NIL
AAXX 02064 94147 NIL
AAXX 02064 94150 46/// /0709 10313 20224 30019 40078
AAXX 02064 94151 46/// /0508 10329 20238 30063 4////
AAXX 02064 94170 46/// /0907 10324 20183 30055 40077
AAXX 02064 94200 NIL
AAXX 02064 94203 46/// /2615 10325 20228 30059 40069
AAXX 02064 94206 46/// /0208 10320 2//// 39939 40067
AAXX 02064 94207 46/// /2309 10279 30065 40073 58018
AAXX 02064 94211 NIL
AAXX 02064 94212 46/// /0406 10315 20193 39612 40075
AAXX 02064 94216 46/// /1608 10297 20227 30031 40081
AAXX 02064 94236 NIL
AAXX 02064 94238 46/// /3110 10371 20171 39634 40047
AAXX 02064 94248 NIL
AAXX 02064 94255 46/// /0211 10360 20186 39795 40051
AAXX 02064 94268 46/// /1606 10328 20187 30070 40082
AAXX 02064 94287 46/// /1217 10301 20175 30093 40102
AAXX 02064 94290 NIL
AAXX 02064 94294 46/// /0616 10305 20165 30102 40112
AAXX 02064 94296 35/// /1514 10269 30075 40085 57004
AAXX 02064 94298 46/// /1421 10262 30090 40096 56007
AAXX 02064 95641 NIL
AAXX 02064 94299 46/// /1419 10279 20193 30084 40094
AAXX 02064 94300 46/// /2214 10272 20188 30087 40097
AAXX 02064 94302 46/// /2511 10327 20136 30079 40085
AAXX 02064 94312 46/// /3214 10317 20212 30060 40069
AAXX 02064 94313 NIL
AAXX 02064 94317 46/// /3211 10388 20031 39466 40033
AAXX 02064 94319 46/// /3408 10395 20152 39726 40047
AAXX 02064 94324 NIL
AAXX 02064 94326 46/// /2212 10397 20077 39441 40037
AAXX 02064 94327 46/// /2314 10366 20366 39673 40034
AAXX 02064 94332 46/// /2106 10368 20165 39679 40054
AAXX 02064 94333 NIL
AAXX 02064 94341 46/// /00// 1//// 2//// 39847 40076
AAXX 02064 94346 46/// /0509 10364 20103 39871 40086
AAXX 02064 94363 46/// /1410 10327 20107 39892 40105
AAXX 02064 94366 NIL
AAXX 02064 94367 46/// /1309 10276 20176 30084 40126
AAXX 02064 94374 46/// /0911 10285 20144 30112 40128
AAXX 02064 94388 46/// /1318 10261 20156 30136 40141
AAXX 02064 94393 46/// /1424 10254 30093 40105 55004
AAXX 02064 94394 46/// /1323 10244 30116 40124 55005
AAXX 02064 94403 46/// /2116 10269 20173 30052 40092
AAXX 02064 94429 46/// /2707 10372 20063 39600 40047
AAXX 02064 94430 46/// /3114 10372 21035 39480 40043
AAXX 02064 94449 46/// /2410 10374 20091 39535 40046
AAXX 02064 94451 NIL
AAXX 02064 94461 46/// /3507 10338 20155 39416 40065
AAXX 02064 94462 46/// /2006 10357 20126 39521 40058
AAXX 02064 94477 NIL
AAXX 02064 94488 NIL
AAXX 02064 94893 NIL
AAXX 02064 94907 46/// /0913 10310 20175 30088 40098
AAXX 02064 94910 46/// /0703 10339 20097 39876 40119
AAXX 02064 94926 46/// /2507 10308 20126 39479 40133
AAXX 02064 94935 46/// /0407 10249 20188 30097 40123
AAXX 02064 94954 46/// /0930 10203 20172 39982 40091
AAXX 02064 94956 46/// /3111 10295 20124 30042 40068
AAXX 02064 94975 46/// /0507 10272 20140 30060 40092
AAXX 02064 94983 NIL
AAXX 02064 94995 46/// /0912 10206 20113 30175 40183
AAXX 02064 94996 46/// /1108 10202 20144 30014 40142
AAXX 02064 94997 NIL
AAXX 02064 94998 46/// /2915 10071 20048 30093 40104
AAXX 02064 95111 46/// /3307 10332 20241 30032 40068
AAXX 02064 95205 46/// /1306 10335 20221 30054 40061
AAXX 02064 95322 NIL
AAXX 02064 95448 46/// /2916 10382 20013 39488 40031
AAXX 02064 95458 46/// /2316 10341 20087 39825 40079
AAXX 02064 95480 46/// /0808 10423 20081 30006 40063
AAXX 02064 95481 46/// /0708 10403 20105 30019 40062
AAXX 02064 95482 46/// /0210 10431 20076 39984 40038
AAXX 02064 95485 NIL
AAXX 02064 95492 46/// /1705 10373 20063 39945 40094
AAXX 02064 95527 46/// /0000 10306 20100 39880 40127
AAXX 02064 95634 46/// /1206 10318 20135 39689 40078
AAXX 02064 95637 46/// /1708 10262 20119 39786 40111
AAXX 02064 95646 46/// /2008 10375 20115 39896 40078
AAXX 02064 95666 NIL
AAXX 02064 95719 46/// /1106 10333 20106 39804 40126
AAXX 02064 95762 46/// /0704 10308 20079 39680 40125
AAXX 02064 95826 NIL
AAXX 02064 95839 46/// /3518 10396 20023 39913 40067
AAXX 02064 95864 NIL
AAXX 02064 95909 NIL
AAXX 02064 95954 NIL
AAXX 02064 95966 46/// /3211 10267 20141 39915 40112
AAXX 02064 96995 46/// /3008 10277 20227 39796 40090
AAXX 02064 96996 41562 61210 10292 20234 30094 40098 58012 71511 8683/
AAXX 02064 94500 NIL
AAXX 02064 94510 46/// /0909 10337 20101 39763 40101
AAXX 02064 94515 46/// /1108 10308 20096 39772 40113
AAXX 02064 94552 46/// /0613 10280 20088 39678 40135
AAXX 02064 94578 46/// /1111 10253 20157 30149 40160
AAXX 02064 94584 46/// /1220 10249 20144 30040 40149
AAXX 02064 94601 46/// /1512 10226 20117 30139 40156
AAXX 02064 94610 46/// /2611 10303 20143 30075 40098
AAXX 02064 94637 46/// /1307 10318 20139 39661 40075
AAXX 02064 94638 46/// /1411 10220 20153 30104 40135
AAXX 02064 94642 NIL
AAXX 02064 94643 NIL
AAXX 02064 94647 46/// /1712 10238 20183 39991 40110
AAXX 02064 94651 46/// /0609 10329 20145 30031 40107
AAXX 02064 94653 46/// /2407 10247 20177 30106 40124
AAXX 02064 94659 46/// /2405 10395 20020 39882 40070
AAXX 02064 94672 46/// /2115 10281 20153 30085 40095
AAXX 02064 94691 46/// /3409 10385 20041 39773 40091
AAXX 02064 94693 46/// /0108 10398 20056 30029 40089
AAXX 02064 94700 NIL
AAXX 02064 94703 46/// /0711 10364 20074 39990 40112
AAXX 02064 94710 46/// /1008 10360 20062 39864 40110
AAXX 02064 94729 46/// /1902 10292 20108 39298 40128
AAXX 02064 94750 46/// /1010 10270 20172 30018 40140
AAXX 02064 94767 46/// /0521 10266 20150 30152 40158
AAXX 02064 94776 46/// /0715 10265 20159 30147 40157
AAXX 02064 94791 NIL
AAXX 02064 94802 46/// /1610 10199 20086 30070 40151
AAXX 02064 94804 46/// /2508 10216 20180 30068 40105
AAXX 02064 94807 NIL
AAXX 02064 94821 46/// /2919 10367 20039 39990 40071
AAXX 02064 94842 NIL
AAXX 02064 94847 NIL
AAXX 02064 94850 46/// /0914 10262 20182 30024 40068
AAXX 02064 94865 46/// /3310 10392 20105 30055 40079
AAXX 02064 94866 46/// /3619 10388 20045 39950 40087
AAXX 02064 94875 46/// /3108 10381 20070 39971 40102
AAXX 02064 94102 46/// /2705 10323 20249 30068 40077
AAXX 02064 94103 NIL
AAXX 02064 94120 46/// /1907 10342 20226 30026 40066
AAXX 02064 94122 46/// /1906 10317 20251 30060 40068
AAXX 02064 94131 46/// /2404 10354 20190 39910 40060
AAXX 02064 94132 NIL
AAXX 02064 94147 NIL
AAXX 02064 94150 46/// /0709 10313 20224 30019 40078
AAXX 02064 94151 46/// /0508 10329 20238 30063 4////
AAXX 02064 94170 46/// /0907 10324 20183 30055 40077
AAXX 02064 94200 NIL
AAXX 02064 94203 46/// /2615 10325 20228 30059 40069
AAXX 02064 94206 46/// /0208 10320 2//// 39939 40067
AAXX 02064 94207 46/// /2309 10279 30065 40073 58018
AAXX 02064 94211 NIL
AAXX 02064 94212 46/// /0406 10315 20193 39612 40075
AAXX 02064 94216 46/// /1608 10297 20227 30031 40081
AAXX 02064 94236 NIL
AAXX 02064 94238 46/// /3110 10371 20171 39634 40047
AAXX 02064 94248 NIL
AAXX 02064 94255 46/// /0211 10360 20186 39795 40051
AAXX 02064 94268 46/// /1606 10328 20187 30070 40082
AAXX 02064 94287 46/// /1217 10301 20175 30093 40102
AAXX 02064 94290 NIL
AAXX 02064 94294 46/// /0616 10305 20165 30102 40112
AAXX 02064 94296 35/// /1514 10269 30075 40085 57004
AAXX 02064 94298 46/// /1421 10262 30090 40096 56007
AAXX 02064 95641 NIL
AAXX 02060 67690 11450 70000 10238 20229 60034 76196 8357/ 333 20234 70029 83610 86458 555 10306 7//96
AAXX 02064 88963 11225 81410 11010 21023 39876 49906 56001 69951 77172 887// 333 56799 88706 90025 90094 90220 90280 90931 92405 92800 93101 94075 95015 96010
AAXX 02064 88968 aus 89066 32970 00910 11005 21071 39886 49895 56001 333 92417
AAXX 02064 89034 11460 71806 11039 21061 39572 49886 58012 69901 71022 83506 333 56402 83615 85270 92427 92830
AAXX 02064 89053 11025 72008 10000 21011 39888 49902 57005 69901 72854 87700 333 56400 84701 87710 90108 90208 90281 90915 92415 94070 94479 95080 96010 96244 97510 98525
AAXX 02064 89055 31958 71607 11035 21046 39666 49911 58007 71042 87070 333 56060 87360 90025 90084 92730 92840 95190
AAXX 02064 89066 NIL
AAXX 02061 48820 01496 83601 10139 20131 30175 40183 57034 69903 75152 887// 333 59024 69901 85794 88697 9615 0 555 20137
AAXX 02064 89564 41975 81327 11010 21061 39839 49859 57004 71522 8802/
AAXX 02064 89570 46/// /0000 10052 21109 39245 53005
AAXX 02064 89571 41575 42806 10005 21045 39884 49913 53005 70200 81501
AAXX 02064 89573 32980 02907 11019 21082 39890 49912 52001
AAXX 02064 89610 NIL
AAXX 02064 89611 41780 70106 10019 21032 39774 49826 53011 70222 81532
AAXX 02064 89614 NIL
AAXX 02064 89615 466// 80606 10008 21106 38939 53011
AAXX 02064 89807 NIL
AAXX 02064 89809 46/// /0309 11002 21016 39377 53012
AAXX 02064 85406 NIL
AAXX 02064 85418 12970 02105 10201 20161 40132 57020 60001
AAXX 02064 85432 NIL
AAXX 02064 85442 12970 09902 10185 20152 40130 57019 60001
AAXX 02064 85467 NIL
AAXX 02064 85469 42460 70000 10215 20189 40183 52007 86811 333 56300 83817 83640
AAXX 02064 85488 12460 40000 10151 20135 40141 54000 60001 84500 333 56600 84512
AAXX 02064 85574 12960 01804 10190 20119 39575 40119 54000 60001
AAXX 02064 85577 12960 00000 10187 20125 39525 40125 54000 60001
AAXX 02064 85585 339// 91819 10177 20135 30152 40188 57004
AAXX 02064 85586 NIL
AAXX 02064 85629 NIL
AAXX 02064 85672 NIL
AAXX 02064 85682 12960 02206 10151 20121 40114 58006 60001
AAXX 02064 85743 12960 09902 10114 20097 40166 58013 60001
AAXX 02064 85766 NIL
AAXX 02064 85782 NIL
AAXX 02064 85799 12960 00000 10091 20082 40206 57011 6000
AAXX 02064 85830 NIL
AAXX 02064 85874 32984 /3212 10100 20038 39574 40199 58008
AAXX 02064 85934 12480 73015 10097 20041 40080 58008 60001 83530 333 56660 83619 86357
AAXX 02064 85972 11496 83014 10076 20072 49986 54001 71622 887// 333 56799 88716
AAXX 02064 89054 31305 83208 10012 20007 49902 50004 74152 885// 333 56799 88606
AAXX 02064 89056 11/02 93504 11013 21015 49892 58005 60001 74544 333 89/01
AAXX 02064 89057 12460 83405 10022 21004 49893 54002 60001 886// 333 56699 88710
AAXX 02064 89058 11/05 93205 11007 21013 39875 49896 57001 69901 74776
AAXX 02064 89059 11850 80603 10000 21014 49893 54000 60001 71022 8802/ 333 76009 88456
AAXX 02064 89251 41130 82906 11005 21009 49888 57002 71022 8672/
AAXX 02063 NIL
AAXX 02060 67693 11380 70302 10238 20211 39262 48513 60014 70142 8367/ 333 20204 5//// 55/// 70011 83708 87458 555 10292 7//96
AAXX 02064 68014 32789 32103 10232 20182 38611 53005 80081 333 20179 555 10326 91020
AAXX 02061 48823 01496 83202 10148 20144 30178 40181 57036 69923 76162 8672/ 333 59019 69921 86894 88499 9601 0 96160 555 20144
AAXX 02064 68312 32989 02604 10226 20048 38962 4//// 53007 333 20182 9//// 555 10363 91018
AAXX 02064 89564 41975 81327 11010 21061 39839 49859 57004 71522 8802/
AAXX 02064 89570 46/// /0000 10052 21109 39245 53005
AAXX 02064 89571 41575 42806 10005 21045 39884 49913 53005 70200 81501
AAXX 02064 89573 32980 02907 11019 21082 39890 49912 52001
AAXX 02064 89610 NIL
AAXX 02064 89611 41780 70106 10019 21032 39774 49826 53011 70222 81532
AAXX 02064 89614 NIL
AAXX 02064 89615 466// 80606 10008 21106 38939 53011
AAXX 02064 89807 NIL
AAXX 02064 89809 46/// /0309 11002 21016 39377 53012
AAXX 02061 48900 32497 39903 10310 20220 30098 40108 57030 83800 333 59004 81894 83696
AAXX 02061 48917 32598 60502 10296 20235 30128 40134 58013 82208 222// 00292 2//00 333 59002 82895 86299
AAXX 02061 48918 32498 70505 10268 20217 30109 40120 57027 83208 222// 00278 2//03 333 59009 82894 86299
AAXX 02061 48914 32598 70904 10299 20197 30110 40112 57027 82208 333 59004 82895 87299
AAXX 02064 94893 NIL
AAXX 02064 94907 46/// /0913 10310 20175 30088 40098
AAXX 02064 94910 46/// /0703 10339 20097 39876 40119
AAXX 02064 94926 46/// /2507 10308 20126 39479 40133
AAXX 02064 94935 46/// /0407 10249 20188 30097 40123
AAXX 02064 94954 46/// /0930 10203 20172 39982 40091
AAXX 02064 94956 46/// /3111 10295 20124 30042 40068
AAXX 02064 94975 46/// /0507 10272 20140 30060 40092
AAXX 02064 94983 NIL
AAXX 02064 94995 46/// /0912 10206 20113 30175 40183
AAXX 02064 94996 46/// /1108 10202 20144 30014 40142
AAXX 02064 94997 NIL
AAXX 02064 94998 46/// /2915 10071 20048 30093 40104
AAXX 02064 95111 46/// /3307 10332 20241 30032 40068
AAXX 02064 95205 46/// /1306 10335 20221 30054 40061
AAXX 02064 95322 NIL
AAXX 02064 95448 46/// /2916 10382 20013 39488 40031
AAXX 02064 95458 46/// /2316 10341 20087 39825 40079
AAXX 02064 95480 46/// /0808 10423 20081 30006 40063
AAXX 02064 95481 46/// /0708 10403 20105 30019 40062
AAXX 02064 95482 46/// /0210 10431 20076 39984 40038
AAXX 02064 95485 NIL
AAXX 02064 95492 46/// /1705 10373 20063 39945 40094
AAXX 02064 95527 46/// /0000 10306 20100 39880 40127
AAXX 02064 95634 46/// /1206 10318 20135 39689 40078
AAXX 02064 95637 46/// /1708 10262 20119 39786 40111
AAXX 02064 95646 46/// /2008 10375 20115 39896 40078
AAXX 02064 95666 NIL
AAXX 02064 95719 46/// /1106 10333 20106 39804 40126
AAXX 02064 95762 46/// /0704 10308 20079 39680 40125
AAXX 02064 95826 NIL
AAXX 02064 95839 46/// /3518 10396 20023 39913 40067
AAXX 02064 95864 NIL
AAXX 02064 95909 NIL
AAXX 02064 95954 NIL
AAXX 02064 95966 46/// /3211 10267 20141 39915 40112
AAXX 02064 96995 46/// /3008 10277 20227 39796 40090
AAXX 02064 96996 41562 61210 10292 20234 30094 40098 58012 71511 8683/
BBXX YCZC5 02063 99253 31552 41497 41425 10240 20158 40152 51/// 70/// 83242 22253 02260 20302 312// 40403 80190
BBXX VRAE3 02064 99086 31515 41597 84009 10300 20290 40070 56027 70360 8867/ 22234 00310 20201 34030 40705 5//// 80290
BBXX VNSZ 02044 99396 31454 46/// /0825 10191 20172 30076 40102 57012 22236 04185 85179
BBXX 9HA2479 02044 99202 31698 46/// /1120 10270 20241 30029 40057 57026 22200 04276 85248
BBXX C6FS9 02044 99315 31531 46/// /0616 10228 20148 30150 40186 57010 22283 04250 85177
BBXX VNSZ 02054 99400 31457 46/// /0822 10180 20171 30076 40102 57009 22236 04183 85174
BBXX 9HA2479 02054 99202 31698 46/// /1219 10271 20247 30035 40063 57011 22200 04277 85253
BBXX C6FS9 02054 99312 31531 46/// /0716 10227 20140 30146 40182 57011 22283 04252 85172
BBXX VROB 02054 99166 31526 46/// /1520 10269 20190 30060 40085 57019 22283 04279 85215
BBXX VNAH 02054 99383 31416 46/// /2727 10332 20071 30035 40057 57013 22200 85178
BBXX VROB 02044 99168 31526 46/// /1518 10267 20182 30064 40089 57022 22283 04279 85209
BBXX FHZI 02044 99538 31463 46/// /3322 10057 2//// 30006 40017 57022 22283 04041
BBXX VNAH 02044 99383 31416 46/// /3020 10370 20053 30037 40059 57015 22200 04216 85185
BBXX FHZI 02054 99536 31463 46/// /3017 10056 2//// 30012 40023 57006 22283 04043
BBXX V2BE4 02061 99142 31582 41397 71514 10270 20249 40038 57007 76266 8772/ 22233 04280 20506 318// 40608 80255
BBXX VNSZ 02064 99404 31459 46/// /1024 10187 20179 30077 40103 52001 22236 85182
BBXX 9HA2479 02064 99202 31698 46/// /1118 10269 20243 30042 40071 52010 22200 04277 85250
BBXX C6FS9 02064 99310 31532 46/// /0816 10227 20138 30144 40180 57007 22213 04252 85171
BBXX 2ALD3 02063 99390 31469 41998 60612 10238 20209 40104 56067 70322 80008 22263 04200 20301 30000 80218
AAXX 02061 48887 32570 20908 10277 20219 30111 40117 57022 81201 333 59002 81895
AAXX 02061 48877 01570 63602 10246 20200 30146 50151 58022 60053 70382 868// 333 59003 69941 82895 86697
AAXX 02061 48920 32598 63610 10278 20236 30108 40111 57024 868// 222// 00283 2//04 333 59002 82895 84697
AAXX 02061 48870 01474 80201 10240 20211 30144 40151 57026 60033 70262 888// 333 59007 69981 83894 88696
AAXX 02064 41241 36/// /9902 10228 20116 30150 40188 333 0E020 20176 59028
AAXX 02064 41242 36/// /0000 10239 20138 30173 40197 333 0E017 20131 59029
AAXX 02064 41244 NIL
AAXX 02064 41246 32960 01903 10234 20135 30178 40182 333 20165 59031
AAXX 02064 41251 32965 02003 10184 21037 38062 48130 333 20127 58001
AAXX 02064 41252 32960 01404 10200 20071 39821 40196 333 20151 59018
AAXX 02064 41253 36/// /9902 10224 20111 39816 40200 333 0E015 20138 59022
AAXX 02064 41254 36/// /3304 10193 21037 38224 48229 333 0E007 20101 59036
AAXX 02064 41255 32960 01802 10195 20097 39660 40186 333 20125 3/017 59023
AAXX 02064 41256 31958 00303 10232 20122 30179 40189 70500 333 20156 59028
AAXX 02064 41257 NIL
AAXX 02064 41258 NIL
AAXX 02064 41259 NIL
AAXX 02064 41262 NIL
AAXX 02064 41263 NIL
AAXX 02064 41264 NIL
AAXX 02064 41265 NIL
AAXX 02064 41267 35/// /1106 10243 20104 30173 40189 333 0E017 20181 59027
AAXX 02064 41268 32960 02408 10222 20107 30174 40190 333 20165 3/018 59025
AAXX 02064 41270 36/70 /2303 10227 20127 30134 40146 333 0E016 20160 59025
AAXX 02064 41275 NIL
AAXX 02064 41287 36/// /0104 10217 20118 30152 40220 333 0E015 20132 59018
AAXX 02064 41288 36/// /3508 10231 20181 30175 40199 333 0E/// 20192 59019
AAXX 02064 41290 NIL
AAXX 02064 41295 NIL
AAXX 02064 41304 NIL
AAXX 02064 41312 36/// /0802 10249 20174 30142 40181 333 0E/// 20201 59013
AAXX 02064 41314 32960 09903 10207 20129 39686 40191 333 20127 59025
AAXX 02064 41315 36/// /1606 10183 20138 39191 42828 333 0E/// 20141 59013
AAXX 02064 41316 NIL
BBXX YCZC5 02063 99253 31552 41497 41425 10240 20158 40152 51/// 70/// 83242 22253 02260 20302 312// 40403 80190
BBXX VRAE3 02064 99086 31515 41597 84009 10300 20290 40070 56027 70360 8867/ 22234 00310 20201 34030 40705 5//// 80290
BBXX VNSZ 02044 99396 31454 46/// /0825 10191 20172 30076 40102 57012 22236 04185 85179
BBXX 9HA2479 02044 99202 31698 46/// /1120 10270 20241 30029 40057 57026 22200 04276 85248
BBXX C6FS9 02044 99315 31531 46/// /0616 10228 20148 30150 40186 57010 22283 04250 85177
BBXX VNSZ 02054 99400 31457 46/// /0822 10180 20171 30076 40102 57009 22236 04183 85174
BBXX 9HA2479 02054 99202 31698 46/// /1219 10271 20247 30035 40063 57011 22200 04277 85253
BBXX C6FS9 02054 99312 31531 46/// /0716 10227 20140 30146 40182 57011 22283 04252 85172
BBXX VROB 02054 99166 31526 46/// /1520 10269 20190 30060 40085 57019 22283 04279 85215
BBXX VNAH 02054 99383 31416 46/// /2727 10332 20071 30035 40057 57013 22200 85178
BBXX VROB 02044 99168 31526 46/// /1518 10267 20182 30064 40089 57022 22283 04279 85209
BBXX FHZI 02044 99538 31463 46/// /3322 10057 2//// 30006 40017 57022 22283 04041
BBXX VNAH 02044 99383 31416 46/// /3020 10370 20053 30037 40059 57015 22200 04216 85185
BBXX FHZI 02054 99536 31463 46/// /3017 10056 2//// 30012 40023 57006 22283 04043
BBXX V2BE4 02061 99142 31582 41397 71514 10270 20249 40038 57007 76266 8772/ 22233 04280 20506 318// 40608 80255
BBXX VNSZ 02064 99404 31459 46/// /1024 10187 20179 30077 40103 52001 22236 85182
BBXX 9HA2479 02064 99202 31698 46/// /1118 10269 20243 30042 40071 52010 22200 04277 85250
BBXX C6FS9 02064 99310 31532 46/// /0816 10227 20138 30144 40180 57007 22213 04252 85171
BBXX 2ALD3 02063 99390 31469 41998 60612 10238 20209 40104 56067 70322 80008 22263 04200 20301 30000 80218
AAXX 02064 94500 NIL
AAXX 02064 94510 46/// /0909 10337 20101 39763 40101
AAXX 02064 94515 46/// /1108 10308 20096 39772 40113
AAXX 02064 94552 46/// /0613 10280 20088 39678 40135
AAXX 02064 94578 46/// /1111 10253 20157 30149 40160
AAXX 02064 94584 46/// /1220 10249 20144 30040 40149
AAXX 02064 94601 46/// /1512 10226 20117 30139 40156
AAXX 02064 94610 46/// /2611 10303 20143 30075 40098
AAXX 02064 94637 46/// /1307 10318 20139 39661 40075
AAXX 02064 94638 46/// /1411 10220 20153 30104 40135
AAXX 02064 94642 NIL
AAXX 02064 94643 NIL
AAXX 02064 94647 46/// /1712 10238 20183 39991 40110
AAXX 02064 94651 46/// /0609 10329 20145 30031 40107
AAXX 02064 94653 46/// /2407 10247 20177 30106 40124
AAXX 02064 94659 46/// /2405 10395 20020 39882 40070
AAXX 02064 94672 46/// /2115 10281 20153 30085 40095
AAXX 02064 94691 46/// /3409 10385 20041 39773 40091
AAXX 02064 94693 46/// /0108 10398 20056 30029 40089
AAXX 02064 94700 NIL
AAXX 02064 94703 46/// /0711 10364 20074 39990 40112
AAXX 02064 94710 46/// /1008 10360 20062 39864 40110
AAXX 02064 94729 46/// /1902 10292 20108 39298 40128
AAXX 02064 94750 46/// /1010 10270 20172 30018 40140
AAXX 02064 94767 46/// /0521 10266 20150 30152 40158
AAXX 02064 94776 46/// /0715 10265 20159 30147 40157
AAXX 02064 94791 NIL
AAXX 02064 94802 46/// /1610 10199 20086 30070 40151
AAXX 02064 94804 46/// /2508 10216 20180 30068 40105
AAXX 02064 94807 NIL
AAXX 02064 94821 46/// /2919 10367 20039 39990 40071
AAXX 02064 94842 NIL
AAXX 02064 94847 NIL
AAXX 02064 94850 46/// /0914 10262 20182 30024 40068
AAXX 02064 94865 46/// /3310 10392 20105 30055 40079
AAXX 02064 94866 46/// /3619 10388 20045 39950 40087
AAXX 02064 94875 46/// /3108 10381 20070 39971 40102
AAXX 02061 48892 32598 20205 10292 20226 30111 40116 57020 82200 333 59004 82895
AAXX 02064 41024 42660 30308 10240 20140 30145 40165 82502 333 20198 58006 82640
AAXX 02064 41030 42660 30000 10217 20180 39877 40150 81101 333 20210 59004 81840
AAXX 02064 41036 42960 12103 10158 20020 38577 48526 80001 333 20100 59016 81070 555 04410 50141
AAXX 02064 41055 42960 00000 10185 20030 38387 48534 333 20128 59009 555 04410 50155
AAXX 02064 41061 42960 02804 10158 20040 39457 40168 333 20100 59019
AAXX 02064 41084 42960 01502 10186 20030 38883 48537 333 20110 59008 555 04410 50149
AAXX 02064 41112 42960 00000 10181 20000 37976 48543 333 20090 59012 555 04410 50167
AAXX 02064 41114 42960 02104 10170 20020 38008 48542 333 20090 59011 555 04410 50174
AAXX 02064 41128 42960 00000 10224 21040 38834 48541 333 20120 59015 555 04410 50150
AAXX 02064 41136 42960 00000 10160 21020 39344 40163 333 20107 59024
AAXX 02064 41140 42560 21207 10268 20210 30154 40163 82100 333 20210 59001 82830
AAXX 02061 48916 32598 60204 10281 20230 30068 40115 58014 868// 333 58002 82895 86696
AAXX 02061 48919 32598 70510 10269 20232 30100 40122 58018 82208 22200 02265 2//04 333 58002 82895 87299
AAXX 02064 91503 NIL
AAXX 02064 91517 31475 73403 10305 20256 40069 52007 71522 82978 333 56799 82818 81920 86360
AAXX 02064 94310 46/// /2911 10318 20175 30062 40073 57015
AAXX 02064 95283 46/// /1213 10289 20201 30092 40099
AAXX 02064 95287 41/98 51418 10285 20202 3//// 4//// 78088 85200
AAXX 02064 95288 46/// /1422 10259 30079 40094 56009
AAXX 02064 95290 41/98 41320 10280 20204 3//// 4//// 70211 84200
AAXX 02064 95675 46/// /2019
AAXX 02064 95872 46/// /3513
AAXX 02064 95961 35/// /1307 10255 30026 40067 57028
AAXX 02064 91577 06/// /1710 10260 20214 30041 40061 55001 60001 333 59001 60007
AAXX 02061 37395 11596 82712 10066 20052 30057 40199 52026 60010 78088 8692/ 333 20084
AAXX 02061 37409 31/91 92705 11007 21007 38759 48474 52003 77374 333 20000 95090
AAXX 02061 37432 32997 00000 11035 21063 38917 48452 57015 333 21044
AAXX 02061 37514 32699 70000 11008 21036 39019 40199 52002 87500 333 21014
AAXX 02061 37545 32599 40503 10067 20031 39638 40150 52002 84100 555 20009 7000/
AAXX 02061 37621 32699 30000 10029 21044 39511 40159 57005 81530 333 20010
AAXX 02061 37484 NIL
AAXX 02061 38141 41993 00000 11054 21072 39991 40156 53011 74442 333 21045
AAXX 02061 38149 42998 01201 11003 21052 30073 40151 57001 333 21039
AAXX 02061 38178 42998 61402 11078 21185 39881 40182 53001 86040 333 21090
AAXX 02061 38262 32998 61401 10020 21041 30069 40161 57004 86032 333 21032
AAXX 02061 38264 42998 01403 10009 21030 30062 40157 52007 333 21032
AAXX 02061 38396 42996 69901 10022 21031 30036 40163 52004 85071 333 21035
AAXX 02061 38403 42997 50903 11030 21122 30040 40165 53019 80001 333 21037
AAXX 02061 38413 42998 82704 11009 21067 39871 40158 53003 8802/ 333 21063
AAXX 02061 38457 32999 20901 10074 21067 39586 40169 52006 82040 333 21044
AAXX 02061 38462 42999 00000 10006 21098 38747 48478 54000 333 21051
AAXX 02061 38565 32998 50000 10060 21029 39579 40162 53004 333 21042
AAXX 02061 38579 31598 72401 11007 21022 39751 40179 52004 70240 82540 333 21108
AAXX 02061 38583 31996 30901 11014 21023 39863 40194 53006 71000 80001 333 21077
AAXX 02061 38611 41/92 92001 11045 21049 39650 40246 57002 74544 333 21064 8019/
AAXX 02061 38618 31993 02401 11038 21043 39509 40225 50201 74842 333 21065
AAXX 02061 38683 42997 81805 10038 21011 39891 40171 52012 8803/ 333 21017
AAXX 02061 38696 32599 71402 10065 21075 39316 40169 53006 86950 333 21010
AAXX 02061 38812 42797 81603 10040 21003 39714 40171 52006 8435/ 333 21012 84956
AAXX 02061 38927 31658 53401 10041 20007 39824 40205 52003 71022 85950 333 21020
AAXX 02064 40550 37/50 /3509 10115 20070 40184 51020 71011 333 55305 00308 10000 20888 30279 41035 51329 61167 55407 40609 90069 90400 91015 91117 91209 91305
AAXX 02064 40551 36/// /2916 10120 20071 333 90400 91019 91119 91215 91311
AAXX 02064 40552 47/57 /3220 10120 20069 40181 51015 71011 333 55309 90069 90400 91023 91125 91221 91315
AAXX 02064 40553 37/50 /3314 10112 20073 40184 51021 71011 333 55300 90069 90400 91015 91115 91213 91309
AAXX 02064 40568 36/// /3216 10132 20089 333 90400 91019 91119 91215 91309
AAXX 02064 40569 NIL
AAXX 02064 40570 37/50 /3311 10099 20069 40190 53011 71011 333 55306 90069 90401 91015 91119 91215 91309
AAXX 02064 40571 NIL
AAXX 02064 40572 NIL
AAXX 02064 40573 36/// /3314 10112 20079 333 90400 91017 91119 91217 91311
AAXX 02064 40580 36/// /3206 10132 20080 333 553// 00073 10004 20388 30076 41123 51362 60465 55407 40312 90400 91013 91113 91205 91303
AAXX 02064 40581 36/// /1405 10130 20085 333 90401 91011 91117 91205 91303
AAXX 02064 40582 41856 63513 10132 20075 40180 53013 70562 86030 333 55300 00193 10000 20473 30131 41225 51370 60605 55407 40342 86358 90400 91019 91123 91217 91309
AAXX 02064 40583 NIL
AAXX 02064 40585 46/// /3117 10125 20083 222// 1//// 3//// 4//// 70/// 333 90400 91031 91131 91217 91313
AAXX 02064 40586 36/// /3205 10143 20070 333 90400 91013 91121 91209 91305
AAXX 02064 40587 36/// /3410 10143 20075 333 553// 00151 10002 20551 30164 41131 51365 60715 55407 40387 90401 91015 91121 91215 91309
AAXX 02064 40588 47/50 /3317 10129 20084 40175 53017 71063 333 55300 90069 90401 91021 91127 91221 91315
AAXX 02064 40589 NIL
AAXX 02064 40590 36/// /3316 10128 20072 333 90400 91019 91123 91219 91315
AAXX 02064 40591 NIL
AAXX 02064 40592 37/56 /3411 10158 20081 40171 53012 71086 333 55302 00366 10000 20779 30215 41243 51435 60994 55407 40564 90069 90401 91019 91121 91213 91309
AAXX 02064 40593 36/// /3617 10158 20104 333 90400 91021 91125 91219 91315
AAXX 02064 40594 36/// /3513 10166 20099 333 90401 91019 91119 91213 91307
AAXX 02064 40596 46/// /3415 10161 20144 333 90400 91019 91127 91219 91315
AAXX 02064 06670 32675 71809 10052 20033 39622 40136 56019 8167/ 333 20043 32002 55002 55300 20000 70003 81736 87366 90768 93100 91120 91210
AAXX 02064 06700 32580 62308 10091 20059 39659 40149 56014 8385/ 333 20052 31003 55000 55300 20000 70002 81821 83657 85360 90768 93100 91120 91212
AAXX 02064 06680 31770 82307 11019 21066 37478 47017 56014 70242 8807/ 333 21024 43390 55000 55300 20000 70100 88456 90768 93100 91123 91218
AAXX 02064 06990 31859 53001 10010 20005 39593 40153 57017 71011 855// 333 20015 32000 55017 55300 20000 70000 85657 91114 91208
AAXX 02064 06760 01030 82702 10035 20026 39770 40229 57009 69972 76062 8372/ 333 20024 31000 55022 55300 20000 69945 70006 83701 88528 90768 93100 91105 91203
AAXX 02064 06720 33/// /1201 10006 20001 39594 40185 56019 333 20004 3/100 55031 55300 20000 70000 91109 91204
AAXX 02064 78016 32464 31807 10198 20176 30209 40213 57018 83400 333 10219 20179 70005
AAXX 02064 06610 32877 61908 10090 20046 39559 40138 57015 8607/ 333 20068 32005 55003 55300 20000 70000 83358 86460 90768 93100 91115 91208
AAXX 02064 48001 31420 80901 10160 20144 40159 75122 8577/ 333 56229 59021
AAXX 02064 48004 31556 80000 10183 20165 75055 8497/ 333 56459
AAXX 02064 48008 32558 70000 10210 20160 40145 84970 333 56450 59021
AAXX 02064 48010 21456 80000 10195 20168 40154 75155 8477/ 333 56559 59012
AAXX 02064 48018 32360 63601 10247 20150 40144 83870 333 56880 59023
AAXX 02064 48019 32560 60401 10240 20155 40143 83840 333 56560 59008
AAXX 02064 48020 32460 70901 10225 20173 86830 333 56550
AAXX 02064 48025 32458 70000 10230 20198 40157 84840 333 56770 59003
AAXX 02064 48035 31560 10000 10231 20163 40113 70522 81200 333 56900 59030
AAXX 02064 48037 32562 83601 10267 20172 40144 85531 333 56559 59011
AAXX 02064 48042 31557 63601 10275 20203 40143 71022 83850 333 56990 59008
AAXX 02064 48045 31235 61801 10212 20175 74144 84860 333 56450
AAXX 02064 48048 32560 40401 10270 20191 40146 84800 333 56900 59007
AAXX 02064 48053 32956 03602 10285 20241 40138 333 59007
AAXX 02064 48057 32458 32701 10232 20124 83500 333 56500
AAXX 02064 48060 31440 10000 10240 20191 40123 81100 333 56500 59027
AAXX 02064 48062 31558 51303 10295 20230 40141 70522 83830 333 56690 58003
AAXX 02064 48071 /2460 33203 10285 20248 40135 82360 333 56700 59008
AAXX 02064 48077 32960 00401 10320 20215 40134 333 59005
AAXX 02064 48078 32558 23601 10307 20203 40128 81100 333 56900 59012
AAXX 02064 48080 31561 22202 10325 20212 40125 70511 82100 333 56500 58000
AAXX 02064 48094 32960 20401 10305 20210 40126 80006 333 56009 59007
AAXX 02064 48097 32457 40902 10340 20216 40127 84100 333 56900 59017
AAXX 02064 48108 31595 83202 10317 20215 40127 70522 83877 333 56789 58000
AAXX 02064 48109 32597 10401 10320 20265 40125 81500 333 56500 59011
AAXX 02064 48110 31596 81302 10305 20194 40120 70522 82577 333 56299 58003
AAXX 02064 48112 NIL
AAXX 02064 68396 11559 60000 10220 20210 39453 48522 51014 69924 74041 866// 333 20196 555 10270 91015
BBXX C6KD5 02063 99421 70131 41597 62920 10135 20072 40299 52025 70281 85468 22254 02135 20603 323// 40907 5//// 80104
BBXX DILE 02063 99400 70160 41/98 63322 10152 20085 40308 52018 70051 89/// 22264 04160 21209 328// 41809 80115
AAXX 02061 01028 11657 81314 10004 21025 39953 49973 58004 69912 73673 885// 333 20002 70001 91120
AAXX 02061 01359 11889 40000 11069 21080 38997 49922 57006 69982 70282 84030 333 21069 48038 70025 91103
AAXX 02061 01026 11688 61706 10010 21086 39824 49965 53012 60002 70232 81548 333 20001 47017 70000 91123
AAXX 02061 01492 11270 83001 10020 20013 39787 49904 56014 60022 75165 887// 333 20011 44004 70082 91103
BBXX 44139 02061 99442 70571 46/// /3106 10053 40148 52033 22200 00048 10808 70040 333 91208
BBXX 44139 02061 99442 70571 46/// /3106 10053 40148 52033 22200 00048 10808 70040 333 91208
AAXX 02061 48852 01598 83202 10192 20179 30157 40167 57027 60033 70262 888// 333 59013 60011 86895 88697
AAXX 02061 48855 01560 83402 10213 20204 30157 40165 57029 60043 72162 888// 333 59010 60011 83895 88697
AAXX 02061 48848 32565 83203 10195 20164 30163 40171 57033 888// 333 59023 82895 88697
AAXX 02061 33088 11597 82203 11002 21011 39971 40167 57006 69902 70272 885// 333 21039 47997
AAXX 02061 33177 11458 81803 10020 20012 39920 40161 57004 60022 71062 886// 333 21015 43001
AAXX 02061 33902 32897 62201 11041 21060 30161 40230 51009 86030 333 21041
AAXX 02061 34415 11667 72704 11006 21015 30076 40175 53020 60022 70272 87500 333 21007 43007 93713
AAXX 02061 34523 11494 82905 11008 21015 30073 40151 52022 60112 77172 8772/ 333 21008 47010
AAXX 02064 71906 11532 80404 11150 21172 39974 40025 58029 60011 77111 885// 333 11138 21217 48016 70010 90962 93101 555 10010 20010
AAXX 02064 65352 32956 70408 10212 20016 3//// 4//// 80002 333 20212 5//// 87076
AAXX 02064 65361 32958 70000 10175 20054 3//// 4//// 80002 333 20175 5//// 87076
AAXX 02064 65376 32958 70000 10230 20193 39672 40130 80002 333 20225 58013 87076
AAXX 02064 65387 32456 72802 10250 20243 30094 40112 81502 333 20250 58008 81610 87073
AAXX 02064 89002 42999 12207 11088 21107 39807 49861 57008 80001
AAXX 02064 60340 32965 03004 10042 20027 40312 53005 333 20034
AAXX 02064 40272 31558 63504 10076 20052 39352 40199 52011 76021 86800 333 20064 30006 83830 85635
AAXX 02064 40250 32660 60000 10072 20023 39380 40183 52007 86800 333 20/// 30/// 83830= 84635
AAXX 02064 40260 32560 72304 10074 20043 39392 40184 52012 87100 333 20055 30040 87830
AAXX 02064 40265 11550 81914 10080 20070 39395 40203 52012 69932 75052 888// 333 20070 30004 84825 85630
AAXX 02061 26058 27384 71302 11035 21044 30126 40134 58009 70000 81/// 333 11025 21046 60007 81/08 91108 555 1/101 21046 3/102 51031 52108
AAXX 02061 26045 27984 71506 11015 21031 30100 40103 58012 70000 80/// 333 11015 21050 60007 80/59 91010 91111 555 1/101 21050 3/101 51028
AAXX 02061 26135 27481 71504 11019 21033 30013 40089 57015 70000 84/// 333 11019 21045 60007 84/11 91110 555 1/101 21045 3/102 51028 52105
AAXX 02061 26247 27/73 /1405 11019 21033 30024 40106 58013 70000 333 11019 21045 60007 91108 555 1/101 21045 3/103 51028
BBXX DDZB2 02063 99300 11246 41497 73608 10090 20026 40250 54000 70300 8667/ 22253 04150 20201 336// 40804 80040
BBXX LAJF7 02064 99333 11398 41597 72935 10180 20130 40146 55004 70222 87260 22223 00203 21108 3//// 4//// 5//// 6//// 80150 ICE /////
BBXX WDB9950 02063 99438 11477 41797 /1536 10030 20018 40065 57050 78085 8//// 22254 00020 2//10 31313 4//11 5//11 6//// 80025 ICE /////
BBXX A8GF4 02064 99453 11506 41498 81438 10030 20030 40120 54000 702// 84777 22214 04020 21004 314// 41006 5//// 80030
BBXX C6SI6 02064 99471 11566 46/// /1612 10007 21044 40221 55001 7//// 8//// 22213 0//// 2////
BBXX OUJS2 02064 99450 11750 41297 73440 10050 21300 40140 51090 70722 8/223 22224 00060 20502 30303 41002 50801 6//// 81020 ICE /////
BBXX VREX8 02064 99472 11543 41597 71413 10030 21050 40210 54000 70111 871// 22215 0//// 20305 309// 40406 5//// 6//// 80000 ICE /////
AAXX 02061 01135 16/// /1902 10003 21033 39762 49913 58009 60002 333 21007 4/030 70018 91110
AAXX 02061 01192 16/// /1309 10023 21094 60002 333 20000 4/016 70000 91118
AAXX 02061 01257 11977 31401 11011 21041 39710 49871 57010 60002 70121 80001 333 21028 70039 91104
AAXX 02061 01370 16/// /1801 11054 21060 38814 49993 57008 69922 333 21067 4/038 70067 91103
AAXX 02061 01455 16/// /1601 10004 21005 39606 49915 54000 60012 333 21009 70028 91104
AAXX 02061 01481 16/// /0000 10018 20014 39876 49908 55009 60112 333 20018 70207 91103
AAXX 02061 01033 46/// /1512 10018 21057 39929 49960 55001 333 20014 91121
AAXX 02061 01406 46/// /2213 10061 20038 39844 49862 58009 333 20059 91116
AAXX 02061 01442 11X02 91704 10017 20013 39659 49914 54000 60032 74542 333 20010 70048 91106
AAXX 02061 01037 16/// /1308 11024 21071 30007 40013 55004 60002 333 21030 70000 91119
AAXX 02061 01046 16/// /1315 11020 21080 30000 40007 53003 6//// 333 21037 91126
AAXX 02061 01065 16/// /1506 11059 21089 39939 40106 55001 60002 333 21099 70000 91113
AAXX 02061 01114 16/// /0804 10029 21056 39882 49892 57006 60002 333 21006 70000 91106
AAXX 02061 01245 11680 62902 10013 21055 39178 49871 56010 60002 70222 84510 333 20000 48040 70003 91107
AAXX 02061 01364 16/// /0802 11061 21067 38787 49911 50007 60002 333 21064 70041 91107
AAXX 02061 01389 11710 80101 11007 21011 39610 49920 57012 60022 71072 8172/ 333 21023 43022 70105 91103
AAXX 02064 71906 11532 80404 11150 21172 39974 40025 58029 60011 77111 885// 333 11138 21217 48016 70010 90962 93101 555 10010 20010
AAXX 02061 01156 16/// /1208 10027 21032 39906 49915 58005 69932 333 20000 70005 91114
AAXX 02061 01273 16/// /1401 11014 21044 39683 49879 57010 69952 333 21036 70008 91106
AAXX 02064 48350 32668 11002 10290 20184 39828 40124 57042 81100 333 59010
AAXX 02064 71727 11766 81023 11039 21062 39760 49957 56049 69921 77122 8557/ 333 11039 21119 48045 70002 90962 555 10006 20002 31029 40021
AAXX 02061 78458 32466 20000 10220 20205 40192 58016 82200 333 10285 20204 30/// 56200 59010 82818
AAXX 02061 78460 31462 60902 10213 20210 40186 57014 70544 84530 333 10290 20180 31/// 56220 59010 84614 84357
AAXX 02061 78479 32466 30705 10255 20220 40157 57009 83200 333 01284 20228 30/// 5600 59016 83818
AAXX 02061 78485 32466 30203 10206 20193 40175 57018 83230 333 10300 20202 31/// 56000 59015 83816
AAXX 02061 78486 32466 43602 10232 20218 40161 57020 84500 333 10312 20215 31/// 56200 59015 84616
AAXX 02061 48845 32498 80701 10209 20158 30163 40170 57038 888// 333 59037 83894 88697
AAXX 02061 48840 32498 80502 10177 20140 30166 40172 57035 888// 333 59028 83894 88696
AAXX 02064 91753 02582 30506 10286 20244 30051 40083 53018 60002 83200 333 10312 20258 30026 55078 60007 70000 83825 90710 91110 555 60005
AAXX 02064 91754 06/// /0602 10290 20239 30041 40081 53019 60001 333 60007 555 10313 20258 60004 60005
AAXX 02061 78458 32466 20000 10220 20205 40192 58016 82200 333 10285 20204 30/// 56200 59010 82818
AAXX 02061 78460 31462 60902 10213 20210 40186 57014 70544 84530 333 10290 20180 31/// 56220 59010 84614 84357
AAXX 02061 78479 32466 30705 10255 20220 40157 57009 83200 333 01284 20228 30/// 5600 59016 83818
AAXX 02061 78485 32466 30203 10206 20193 40175 57018 83230 333 10300 20202 31/// 56000 59015 83816
AAXX 02061 78486 32466 43602 10232 20218 40161 57020 84500 333 10312 20215 31/// 56200 59015 84616
AAXX 02064 71727 11766 81023 11039 21062 39760 49957 56049 69921 77122 8557/ 333 11039 21119 48045 70002 90962 555 10006 20002 31029 40021
AAXX 02064 41259 36/// /2506 10113 21082 37159 40342 333 0E/// 20086 58019
AAXX 02064 41295 36/// /0702 10225 20141 30007 40186 333 0E017 20135 59017
AAXX 02061 37279 /1498 82701 10062 20048 30048 40193 52028 76166 8872/ 555 20062
AAXX 02061 37308 11496 80000 10007 21001 39539 40204 54000 60010 77377 8672/ 333 20005
AAXX 02061 37531 11598 60000 10044 20037 39450 40178 57005 70162 85550 333 21033 555 69900
AAXX 02061 37553 32999 33101 10042 21023 39493 40142 57001 80030 333 21009
AAXX 02061 37651 16/// ///00 10029 21042 3//// 4//// 5//// 60002 333 21025
AAXX 02061 37492 NIL
AAXX 02061 78458 32466 20000 10220 20205 40192 58016 82200 333 10285 20204 30/// 56200 59010 82818
AAXX 02061 78460 31462 60902 10213 20210 40186 57014 70544 84530 333 10290 20180 31/// 56220 59010 84614 84357
AAXX 02061 78479 32466 30705 10255 20220 40157 57009 83200 333 01284 20228 30/// 5600 59016 83818
AAXX 02061 78485 32466 30203 10206 20193 40175 57018 83230 333 10300 20202 31/// 56000 59015 83816
AAXX 02061 78486 32466 43602 10232 20218 40161 57020 84500 333 10312 20215 31/// 56200 59015 84616
AAXX 02064 71867 11574 80000 11114 21132 30018 40369 50003 69901 77111 885// 333 11086 21129 47024 79999 90931 555 10002 29999 3////
AAXX 02064 71758 16/// /1805 11002 21006 30050 40127 51004 60001 333 10055 21003 70102 555 33529 40182
AAXX 02064 71771 46/// /1919 10096 20055 39960 49980 51022 6///1 333 10096 20052 7////
AAXX 02064 71150 46/// /3208 11160 21184 39651 40368 51010 6///1 333 11053 21160 7//// 555 33234 40153
AAXX 02064 71158 16/// /3209 11164 21184 30053 40343 51023 60001 333 11056 21164 70000 555 33230 40102
AAXX 02064 71159 16/// /0502 11004 21016 30035 40107 51010 60001 333 10018 21008 70170 555 30422 40121
AAXX 02064 71160 16/// /2503 11293 21322 30114 40343 56019 60001 333 11181 21298 70000
AAXX 02064 71162 16/// /1223 11167 21187 30046 40265 58031 60001 333 11139 21167 70000 555 31127 40061
AAXX 02064 71164 46/// /1007 11172 21193 39954 40038 58082 6///1 333 11164 21380 7//// 555 30819 40061
AAXX 02064 71165 46/// ///09 11183 21205 39935 40230 58043 6///1 333 11177 21211 7////
AAXX 02064 71166 46/// /1510 11076 21118 39452 40071 56068 6///1 333 11069 21276 7//// 555 31324 40051
AAXX 02064 71956 16/// /2918 11008 21029 39764 49994 51011 60001 333 10038 21008 70084 555 33034 40013
AAXX 02064 71959 17/// ///// 11004 21004 60021 7//4/ 333 10078 21004 70137
AAXX 02064 71970 16/// /1102 11258 21283 39731 40354 58023 60001 333 11089 21271 70000 555 33017 40071
AAXX 02064 71977 46/// /2902 11221 21221 39311 40054 56034 6///1 333 11221 21358 7////
AAXX 02064 71978 46/// /0102 11301 21332 39738 40066 56033 6///1 333 11246 21319 7//// 555 32324 40111
AAXX 02064 71989 16/// /0702 11387 21428 30309 40327 54000 60001 333 11334 21392 70000
AAXX 02064 71732 17/// /3207 11003 21020 60031 7//4/ 333 10019 21050 70081 555 10020 20081 32720 40061
AAXX 02064 71736 46/// ///// 10018 21055 6///1 333 10018 21131 7////
AAXX 02064 71742 46/// /3404 11020 21020 39918 40106 53014 6///1 333 11007 21041 7//// 555 30923 40141
AAXX 02064 71744 16/// /1805 11012 21024 30051 40092 58024 60001 333 10006 21015 70003 555 33218 40131
AAXX 02064 71746 16/// /2614 10000 21040 39847 40066 58001 60001 333 10079 21006 70018 555 32833 40222
AAXX 02064 71747 16/// /3105 11120 21144 39726 40216 51013 60001 333 7////
AAXX 02064 71730 11474 83115 11043 21048 39538 49959 52026 60021 77174 885// 333 11001 21059 47018 70052 90973 93104 555 10082 20052 33022 40020
AAXX 02064 71800 16/// /0214 10015 20008 30045 40078 51080 60001 333 10031 20006 70159 555 30352 40013
AAXX 02064 71807 16/// /0216 10009 21005 30083 40102 53049 60001 333 10027 20001 70185 555 31143 40123
AAXX 02064 71300 17/// /2311 10031 21002 39847 49968 53006 69961 7//4/ 333 10056 21035 70017 555 32124 40051
AAXX 02064 71309 17/// /3011 11080 21100 39918 49929 53016 69951 7//4/ 333 11027 21080 70033 555 10050 20033 33122 40061
AAXX 02064 71311 16/// /1708 11002 21017 30081 40106 57020 60001 333 10025 21015 70000 555 33428 40142
AAXX 02064 71317 16/// /2204 11009 21021 30080 40127 55018 60001 333 10076 21019 70003 555 33530 40162
AAXX 02064 71319 17/// /1802 11023 21023 39116 49971 58038 60081 7//4/ 333 11022 21092 70084
AAXX 02064 71334 46/// /3107 11315 21349 30019 40376 51010 6///1 333 11170 21319 7////
AAXX 02064 71501 16/// /0000 11311 21347 30095 40097 58027 60001 333 11281 21374 70013
AAXX 02064 71505 46/// /0000 11115 21133 39121 49845 56025 6///1 333 11115 21244 7////
AAXX 02064 71522 47/// /1108 11064 21078 39470 49956 56054 6///1 7//4/ 333 21105 70003
AAXX 02064 71110 16/// /3405 11005 21014 30049 40109 53051 60001 333 10027 21006 70283 555 30640 40163
AAXX 02064 71133 46/// /2001 11197 21229 39615 40362 56014 6///1 333 11071 21208 7//// 555 33023 40081
AAXX 02064 71141 16/// /3308 11341 21376 30262 40291 53006 60001 333 11332 21367 7////
AAXX 02064 71149 16/// /3210 11101 21136 60001 333 11028 21107 70000 555 33029 40192
AAXX 02064 71624 11574 72620 10005 21033 39817 40028 53003 69921 70276 81620 333 10072 20003 70040 90923 555 19999 29999 32636 40012
AAXX 02064 71631 17/// /2810 11025 21034 39524 40020 50000 60021 7//4/ 333 10041 21025 70123 555 32429 40222
AAXX 02064 71719 16/// /1605 11021 21033 30088 40094 58020 60001 333 10000 21026 70020 555 30229 40122
AAXX 02064 71443 16/// /2506 11147 21172 39942 40375 53005 60001 333 11051 21157 70000 555 33327 40111
AAXX 02064 71444 16/// /3103 11128 21146 39567 40360 51013 60001 333 11051 21130 70000 555 33223 40131
AAXX 02064 71447 16/// /2907 11137 21174 39811 40383 50002 60001 333 11047 21143 70000 555 33137 40123
AAXX 02064 71472 17/// /2125 10072 20043 60031 7//4/ 333 10093 20061 70146 555 31772 40223
AAXX 02064 71510 16/// /1703 11166 21200 60001 333 11063 21203 70000 555 32921 40081
AAXX 02064 71861 16/// /2907 11142 21174 39624 40388 53003 60001 333 11066 21149 70000 555 33231 40132
AAXX 02064 71015 16/// ///// 11049 60001 333 11003 21111 70003
AAXX 02064 71017 16/// /2813 11319 21353 30294 40310 55001 60001 333 11306 21342 70000 555 32817 40201
AAXX 02064 71018 16/// ///15 11294 21324 30124 40216 55005 60001 333 11285 21337 70000
AAXX 02064 71019 46/// /1409 11034 21034 39739 40042 58055 6///1 333 11034 21059 7//// 555 31221 40231
AAXX 02064 71020 46/// /0201 11255 21283 39827 40095 56063 6///1 333 11241 21302 7//// 555 10040
AAXX 02064 71021 46/// /0000 11243 21271 39719 40089 56058 6///1 333 11243 21331 7//// 555 10030
AAXX 02064 71920 16/// /1614 10054 20048 30112 40118 58025 60001 333 10074 20014 70014 555 33231 40122
AAXX 02064 71622 17/// ///// 11016 21028 39722 40058 58002 69951 7//4/ 333 10067 21016 70066
AAXX 02064 71402 46/// /0506 11014 21025 39989 40104 53013 6///1 333 11007 21039 7//// 555 30828 40202
AAXX 02064 71407 16/// /2318 11333 21373 30190 40212 55000 60001 333 11327 21353 70000 555 32726 40031
AAXX 02064 71425 16/// /1508 11014 21047 30021 40057 58030 60001 333 11012 21034 70020 555 30421 40071
AAXX 02064 71427 16/// /0712 11017 21037 30025 40032 58047 60001 333 11017 21049 70030 555 30217 40081
AAXX 02064 71446 16/// /1711 11106 21151 39343 40367 56020 60001 333 11063 21139 70000 555 33123 40071
AAXX 02064 71448 16/// /3317 11124 21164 39977 40323 51028 60001 333 11018 21124 70000 555 33233 40182
AAXX 02064 71449 16/// /3209 11101 21120 39883 40303 52017 60001 333 11023 21101 70000 555 33436 40213
AAXX 02064 71669 16/// /2504 10021 21049 38629 40274 56019 60001 333 10031 21170 70000 555 32519 40011
AAXX 02064 71837 16/// ///// 11017 60001 333 10032 21103 70000
AAXX 02064 71839 16/// ///// 11021 60001 333 10034 21124 70000
BBXX SMGW 02061 99243 71126 43/98 03505 10182 40202 51006 22234 00208 2//// 4////
AAXX 02063 91802 NIL
AAXX 02063 91809 NIL
AAXX 02063 91831 36/// /0202 10245 20236 40135 52006
AAXX 02063 91841 NIL
AAXX 02063 91843 31599 20000 10252 20226 40120 53021 60001 70100 82130 333 5649/ 82825
AAXX 02063 91848 NIL
AAXX 02064 71074 16/// ///15 11312 21343 30150 40232 50006 60001 333 11309 21327 70000
AAXX 02064 71087 46/// /1006 11167 21188 39956 40169 58074 6///1 333 11167 21253 7////
AAXX 02064 71885 46/// ///// 11013 6///1 333 7////
AAXX 02064 71455 46/// /2009 11134 21159 39544 40381 56019 6///1 333 11055 21162 7//// 555 33027 40071
AAXX 02064 71459 16/// /1507 11102 21140 39505 40346 56023 60001 333 11033 21139 70000 555 32821 40071
AAXX 02064 71465 46/// /2423 10002 21023 39870 40087 58005 6///1 333 10078 21004 7//// 555 32440 40213
AAXX 02064 71470 16/// /1505 11311 21344 39653 40325 55005 60001 333 11260 21345 70000
AAXX 02064 71476 17/// /1635 39965 53018 60151 7//4/ 333 7////
AAXX 02064 71478 16/// /1655 10066 20056 39907 40042 53016 60001 333 10091 20052 70016 555 31584 40203
AAXX 02064 71484 16/// /1830 10078 20067 39960 49978 53027 60001 333 10078 20015 70000 555 31670 40233
AAXX 02064 71492 46/// ///27 11236 21264 39438 40165 58037 6///1 333 11236 21323 7////
AAXX 02064 71137 16/// /1002 11153 21178 39390 40382 58017 60001 333 11033 21154 70000 555 33117 40071
AAXX 02064 71260 13/// ///// 11030 21067 39795 40031 52014 60061 333 10015 21030 44014 70152 555 10162 20152
AAXX 02064 71250 17/// /0211 10000 21008 39942 40078 51055 69951 7//4/ 333 10012 21006 70304 555 30230 40012
AAXX 02064 71279 16/// /1108 11025 21043 39988 40054 58035 60001 333 11022 21080 70000
AAXX 02064 71288 16/// /3006 11364 21402 30298 40325 53001 60001 333 11346 21383 70000
AAXX 02064 71295 16/// /3213 11131 21166 39795 40258 52019 60001 333 11028 21133 70000 555 33230 40202
AAXX 02064 71296 16/// /2609 11002 21025 39700 40003 50000 60001 333 10044 70028 555 31426 40161
AAXX 02064 71299 46/// /3115 11100 21117 39713 49986 51024 6///1 333 11016 21100 7//// 555 10090
BBXX 9V8797 02064 99221 11166 43/92 50428 10157 40201 58032 22233 00215 2//// 4////
BBXX 9V9243 02063 99052 11067 41497 60518 10259 40108 58019 70222 856/1 22213 00264 20403 304// 40505
AAXX 02064 71215 46/// /1710 10001 21041 39951 40304 58019 6///1 333 10032 21029 7//// 555 31618 40031
AAXX 02064 71243 16/// /1405 11010 21072 39201 40321 56021 60001 333 7////
AAXX 02064 71246 16/// /1513 11064 21123 39533 40216 56048 60001 333 11064 21236 70000 555 31324 40061
AAXX 02064 71361 16/// /1609 11147 21167 39984 40201 58058 60001 333 11146 21259 70000
AAXX 02064 71362 16/// /1403 11198 21221 30027 40297 56033 60001 333 11165 21255 70010
AAXX 02064 71364 16/// /0612 11197 21232 39909 40047 58071 60001 333 11176 21301 70000 555 30824 40061
AAXX 02064 71365 17/// /1408 11173 21190 39888 40112 56080 69961 7//4/ 333 11173 21372 70006 555 10010 20006 31219 40061
AAXX 02064 71373 17/// /2208 10050 20015 60011 7//4/ 333 10068 21029 70010 555 31825 40061
AAXX 02064 71377 16/// /2215 10045 20002 39917 49965 56008 60001 333 10054 21018 70008 555 32125 40061
AAXX 02064 71381 47/// /1119 11031 21044 6///1 7//4/ 333 11031 21141 70000
AAXX 02064 71393 16/// ///// 11069 21095 38973 40287 56028 60001 333 11054 21151 70000 555 10010
AAXX 02064 71395 11374 81709 11006 21016 39950 40130 56021 69901 78582 887// 333 10081 21012 70037 90973 555 19999 29999 33231 40141
AAXX 02064 71551 16/// /1507 11191 21204 39688 40397 56021 60001 333 11073 21193 70000 555 33019 40071
AAXX 02064 71552 46/// /3424 11120 21144 6///1 333 11027 21124 7//// 555 33437 40143
AAXX 02064 71553 16/// /2804 11161 21182 60001 333 11054 21174 70000 555 33234 40083
AAXX 02064 71564 16/// /3407 11101 21134 39969 40357 51022 60001 333 11014 21103 70000 555 33131 40102
AAXX 02064 71571 16/// /1516 11044 21141 38920 40129 58033 60001 333 11034 21120 7////
AAXX 02064 71577 46/// /3411 11117 21158 6///1 333 11015 21120 7//// 555 33234 40193
AAXX 02064 71579 16/// /3508 11099 21147 30039 40335 51024 60001 333 11015 21099 70000 555 33233 40192
AAXX 02064 71581 17/// /2503 11002 21009 39459 49933 53003 60021 7//4/ 333 10026 70060 555 32417 40031
AAXX 02064 71585 16/// /1109 11154 21167 39826 40313 58026 60001 333 7////
AAXX 02064 71599 16/// /2202 11002 21002 39925 40129 56011 60001 333 10065 21010 70000
AAXX 02061 33088 11597 82203 11002 21011 39971 40167 57006 69902 70272 885// 333 21039 47997
AAXX 02061 33177 11458 81803 10020 20012 39920 40161 57004 60022 71062 886// 333 21015 43001
AAXX 02061 33902 32897 62201 11041 21060 30161 40230 51009 86030 333 21041
AAXX 02061 34415 11667 72704 11006 21015 30076 40175 53020 60022 70272 87500 333 21007 43007 93713
AAXX 02061 34523 11494 82905 11008 21015 30073 40151 52022 60112 77172 8772/ 333 21008 47010
AAXX 02061 01062 11456 81409 11006 21014 30055 40068 50003 60002 71082 883// 333 21008 70001 91115
BBXX SKUN 02063 99514 70070 43/98 52736 10069 40029 51009 22253 00095 2//// 4////
BBXX 41053 02061 99185 70661 46/// /1104 10262 40167 90550 333 91207
BBXX 41053 02061 99185 70661 46/// /0806 10265 40168 90540 333 91208
BBXX 41053 02061 99185 70661 46/// /1006 10264 40166 58016 90600 22200 00271 10703 70014 333 91208
BBXX 42085 02061 99179 70665 46/// /0405 10257 40161 58014 90600 22200 00270 10703 70014 333 91206
BBXX 42085 02061 99179 70665 46/// /0405 10257 40163 90550 333 91206
BBXX 42085 02061 99179 70665 46/// /0505 10259 40165 90540 333 91206
AAXX 02064 71730 11474 83115 11043 21048 39538 49959 52026 60021 77174 885// 333 11001 21059 47018 70052 90973 93104 555 10082 20052 33022 40020
AAXX 02064 71800 16/// /0214 10015 20008 30045 40078 51080 60001 333 10031 20006 70159 555 30352 40013
AAXX 02064 71807 16/// /0216 10009 21005 30083 40102 53049 60001 333 10027 20001 70185 555 31143 40123
AAXX 02064 71443 16/// /2506 11147 21172 39942 40375 53005 60001 333 11051 21157 70000 555 33327 40111
AAXX 02064 71444 16/// /3103 11128 21146 39567 40360 51013 60001 333 11051 21130 70000 555 33223 40131
AAXX 02064 71447 16/// /2907 11137 21174 39811 40383 50002 60001 333 11047 21143 70000 555 33137 40123
AAXX 02064 71472 17/// /2125 10072 20043 60031 7//4/ 333 10093 20061 70146 555 31772 40223
AAXX 02064 71510 16/// /1703 11166 21200 60001 333 11063 21203 70000 555 32921 40081
AAXX 02064 71867 11574 80000 11114 21132 30018 40369 50003 69901 77111 885// 333 11086 21129 47024 79999 90931 555 10002 29999 3////
AAXX 02064 71624 11574 72620 10005 21033 39817 40028 53003 69921 70276 81620 333 10072 20003 70040 90923 555 19999 29999 32636 40012
AAXX 02064 71631 17/// /2810 11025 21034 39524 40020 50000 60021 7//4/ 333 10041 21025 70123 555 32429 40222
AAXX 02064 71719 16/// /1605 11021 21033 30088 40094 58020 60001 333 10000 21026 70020 555 30229 40122
AAXX 02064 71137 16/// /1002 11153 21178 39390 40382 58017 60001 333 11033 21154 70000 555 33117 40071
AAXX 02064 71260 13/// ///// 11030 21067 39795 40031 52014 60061 333 10015 21030 44014 70152 555 10162 20152
AAXX 02064 71861 16/// /2907 11142 21174 39624 40388 53003 60001 333 11066 21149 70000 555 33231 40132
BBXX 44150 02061 99425 70640 46/// /2208 10073 40146 57021 22200 00104 10803 70017 333 91211
AAXX 02061 56187 31961 80903 10088 20000 39570 40230 57044 70040 8807/ 333 05303 20044
AAXX 02061 57461 11412 81401 10041 20025 30109 40277 57033 69901 76064 8277/ 333 20040
AAXX 02061 57516 11612 83201 10071 20056 39916 40234 57038 69941 76166 8802/ 333 05352 20071
AAXX 02061 57687 11412 82904 10047 20032 30173 40260 57026 69901 76060 887// 333 20047
AAXX 02061 57816 11456 80702 10035 20028 38798 40220 57038 69931 72166 885// 333 05353 20027
AAXX 02061 58040 31957 32002 10027 21057 30252 40266 57036 70500 80002 333 21066
AAXX 02061 58102 31956 82202 10013 21013 30224 40274 57035 71000 8802/ 333 21022
AAXX 02061 58150 31957 02203 10053 21048 30267 40271 57035 70500 333 21019
AAXX 02061 58221 32960 42901 10075 21046 30235 40264 57040 80002 333 21016
AAXX 02061 59117 32962 73201 10166 20067 30098 40205 57044 8704/ 333 20096
AAXX 02061 59644 31556 71104 10193 20123 30166 40183 57036 70500 878// 333 20141
AAXX 02061 50468 32970 21801 11185 21228 30069 40302 57010 80002 333 21294
AAXX 02061 51288 32980 01603 11097 21197 38407 57011 333 05402 21174
AAXX 02061 52866 32970 61801 11050 21188 37712 57031 80002 333 05155 21142
AAXX 02061 53463 32980 03203 11087 21208 39051 40370 57014 333 00254 21113
AAXX 02061 53513 32980 03404 11060 21190 39100 40403 57018 333 00555 21157
AAXX 02061 54218 32770 62706 11076 21198 39428 40282 57007 86500 333 21148
AAXX 02061 54471 32760 70901 11078 21164 30260 40266 57027 875// 333 21153
AAXX 02061 54497 32665 70402 11064 21172 30246 40263 57020 875// 333 21122
AAXX 02061 54823 32962 82703 11002 21039 30048 40266 57020 8802/ 333 21037
AAXX 02061 50953 32965 71401 11136 21203 30102 40298 57016 80002 333 21232
AAXX 02061 52533 32980 00902 11060 21183 38624 40422 57016 333 05151 21170
AAXX 02061 53588 32480 22505 11150 21189 37757 57005 82100 333 21168 91118 91532
AAXX 02061 53772 32970 72706 10018 21177 39336 40294 57028 80002 333 21085
AAXX 02061 53915 32980 73405 11014 21160 38734 40333 57032 80002 333 00155 21051
AAXX 02061 54337 11958 81602 11082 21123 30176 40265 57025 69911 77070 8802/ 333 21137
AAXX 02061 54342 32660 70402 11106 21171 30203 40270 57026 85502 333 21203
AAXX 02061 54511 32980 03205 10022 21185 30221 40263 57019 333 21056
AAXX 02061 56080 11970 71102 11058 21151 37116 57032 69901 70070 8703/ 333 05256 21114
AAXX 02061 57083 31959 02705 10083 21096 30117 40257 57033 70500 333 21011
AAXX 02061 58238 32964 21102 10076 21080 30215 40261 57046 80002 333 21024
AAXX 02061 58251 31958 62202 10064 21038 30259 40264 57039 70500 80002 333 21008
AAXX 02061 58457 31957 01102 10085 21040 30204 40258 57039 70500 333 20018
AAXX 02061 58606 31740 83602 10087 20018 30192 40252 57032 70500 885// 333 20046
AAXX 02061 58752 31758 70903 10115 20023 30201 40248 57034 70500 87500 333 20058
AAXX 02061 58847 31658 71602 10142 20045 30126 40229 57038 70500 875// 333 20089
AAXX 02061 59287 32665 63602 10190 20086 30107 40193 57048 84502 333 20095
AAXX 02061 59316 31910 00902 10177 20059 30199 40204 57038 70500 333 20133
AAXX 02061 59431 31557 80203 10136 20084 30054 40202 57038 71000 888// 333 20121
AAXX 02061 59758 32470 70905 10208 20162 30099 40175 57033 878// 333 20178
AAXX 02061 56778 32580 12207 10210 20054 38086 57038 81100 333 05202 20065
AAXX 02061 57265 32760 80000 10044 20004 30160 40275 57036 885// 333 20008
AAXX 02061 57494 31958 73603 10056 20023 30237 40268 57026 71000 8703/ 333 20006
AAXX 02061 58362 32575 10403 10071 21029 30256 40264 57037 81100 333 20023
AAXX 02061 59134 32660 70203 10152 20051 30051 40221 57033 875// 333 20109
BBXX 44150 02061 99425 70640 46/// /2208 10073 40146 57021 22200 00104 10803 70017 333 91211
AAXX 02061 51076 32980 00701 11085 21178 39471 40434 57003 333 05604 21219
AAXX 02061 51243 32970 00000 11112 21144 39809 40413 57015 333 05652 21182
AAXX 02061 51573 32970 01402 11046 21142 30376 40423 57015 333 05151 21106
AAXX 02061 52652 32965 13604 11056 21162 38631 40418 57020 80002 333 05251 21193
AAXX 02061 52983 11968 72901 11050 21165 38149 57029 69901 70070 80002 333 05153 21081
AAXX 02061 54401 32770 53405 11067 21196 39348 40318 57019 85500 333 21098
AAXX 02061 56096 32668 12002 10077 21101 38977 40232 57050 81100 333 05100 20035
AAXX 02061 48887 32570 20908 10277 20219 30111 40117 57022 81201 333 59002 81895
AAXX 02061 48877 01570 63602 10246 20200 30146 40151 58022 60053 70382 868// 333 59003 69941 82895 86697
AAXX 02061 48920 32598 63610 10278 20236 30108 40111 57024 868// 222// 00283 2//04 333 59002 82895 84697
AAXX 02061 48870 01474 80201 10240 20211 30144 40151 57026 60033 70262 888// 333 59007 69981 83894 88696
BBXX 44255 02061 99473 70573 46/// /0303 10020 40111 5//// 22200 00031 10902 70012 333 91204
AAXX 02060 44214 32998 02707 11159 21244 38379 40507 58016
AAXX 02060 44231 31996 00000 11197 21263 38862 40567 50005 70400
AAXX 02060 44259 41995 83004 11144 21175 39345 40296 56001 77172 8802/
AAXX 02060 44277 32999 02002 11178 21237 37887 40555 58010
AAXX 02060 44288 32999 03206 11143 21252 38247 40475 58012
AAXX 02060 44292 41896 33205 11148 21191 38795 40437 58009 70471 82031 333 91110
AAXX 02060 44304 32999 62906 11142 21193 39049 40348 58015 86040
AAXX 02060 44354 31999 02909 11134 21169 39177 40365 57014 73633
AAXX 02060 44373 41699 23208 11137 21190 38637 40442 58012 70270 82100
AAXX 02061 50136 32970 40000 11219 21272 39737 40342 57009 80002 333 21358
AAXX 02061 50745 32962 40403 11139 21198 30087 40288 57009 80002 333 21222
AAXX 02061 50774 32960 02701 11163 21230 39964 40305 57016 333 21334
AAXX 02061 50788 32970 02704 11159 21206 30179 40274 57008 333 21252
AAXX 02061 51133 NIL
AAXX 02061 51431 32980 00701 11029 21124 39417 40251 57003 333 06001 21153
AAXX 02061 51747 NIL
AAXX 02061 52203 32980 02202 11052 21186 39468 40409 57017 333 05251 21171
AAXX 02061 52418 32980 03402 11059 21183 38990 40405 57016 333 05453 21180
AAXX 02061 52681 32980 20202 11048 21176 38734 40399 57024 80002 333 00054 21143
AAXX 02061 53564 32980 03204 11038 21177 39283 40356 57023 333 00251 21152
AAXX 02061 53614 32970 71402 11036 21149 39012 40374 57030 81032 333 00252 21103
AAXX 02061 53646 32975 13403 11063 21168 38941 40361 57020 80002 333 00155 21127
AAXX 02061 53798 11950 70701 11012 21058 30169 40270 57025 69901 71070 8703/ 333 21052
AAXX 02061 53845 32968 72702 11014 21156 39168 40345 57027 80002 333 00156 21072
AAXX 02061 53959 32965 01606 10059 21142 39847 40305 57035 333 21041
AAXX 02061 54094 32975 02002 11144 21217 39965 40294 57016 333 21251
AAXX 02061 54102 11980 72905 11132 21182 39057 40322 57003 69931 70070 80002 333 21183
AAXX 02061 54161 32760 70201 11122 21196 39968 40288 57020 83502 333 21214
AAXX 02061 54292 32960 51401 11103 21205 39927 40269 57024 80002 333 21193
AAXX 02061 54374 32970 71801 11145 21204 39784 40291 57026 80002 333 21239
AAXX 02061 54423 11580 13406 11038 21197 39732 40274 57017 69901 70070 81100 333 21107
AAXX 02061 54618 32961 73402 11015 21061 30246 40265 57021 8703/ 333 21063
AAXX 02061 54843 32771 81602 11001 21069 30233 40262 57029 885// 333 21076
AAXX 02061 54909 31959 82502 10016 21013 30201 40267 57024 71000 8807/ 333 21060
AAXX 02061 56029 32680 52205 10095 21136 36360 57046 82102 333 05901 21118
AAXX 02061 57127 32961 81802 10072 20021 39647 40266 57035 8807/ 333 20047
AAXX 02061 57131 32970 61401 10068 21096 39799 40308 57042 82032 333 21019
AAXX 02064 48358 31958 20000 10285 20174 39972 40147 57029 70500 80001 333 59009
AAXX 02064 40272 31558 63504 10076 20052 39352 40199 52011 76021 86800 333 20064 30006 83830 85635
AAXX 02064 40250 32660 60000 10072 20023 39380 40183 52007 86800 333 20/// 30/// 83830= 84635
AAXX 02064 40260 32560 72304 10074 20043 39392 40184 52012 87100 333 20055 30040 87830
AAXX 02064 40265 11550 81914 10080 20070 39395 40203 52012 69932 75052 888// 333 20070 30004 84825 85630
AAXX 02064 40296 32660 70000 10138 20068 40201 52013 87800 333 20134 30011 83830 84630
AAXX 02064 40310 32560 72404 10063 20011 38959 48498 52010 86830 333 20046 30002 83825 84630 82360
AAXX 02064 04211 47/78 /3106 11232 21252 39895 40067 57006 72277 333 11229 21238
AAXX 02064 04220 07557 72208 11153 21185 39989 40043 57001 60022 78587 333 10338 21214 55300 20288 69917 70045 81/25 85/36 87/45
AAXX 02064 04221 47/01 91021 11189 21215 39994 40034 57001 77377 333 11178 21194 89/06
AAXX 02064 04231 12/89 00505 11340 21389 39995 40078 57002 6///2 333 11285 21349
AAXX 02064 04234 45/84 /1005 11213 21285 30041 40052 57001 333 11171 21213
AAXX 02064 04241 45/84 /0810 11165 21227 39992 40034 54000 333 11149 21167
AAXX 02064 04250 07584 50509 11145 21191 39916 40027 52003 69912 70080 333 11135 21147 55300 20000 69907 70001 83/21 85/70
AAXX 02064 04254 45484 40609 11154 21210 39911 40031 52003 333 11145 21159 82/19 84/23
AAXX 02064 04260 45/84 /3419 11131 21276 39944 49990 57003 333 11120 21138
AAXX 02064 04270 45/84 /0609 11171 21248 39869 49910 57003 333 11133 21183
AAXX 02064 04272 07/84 0//// 11132 21200 39834 49908 54000 60042 70087 333 11113 21133 69907 70107
AAXX 02064 04312 46/// /3210 11263 21298 30068 40111 52004
AAXX 02064 04320 47/// /3444 11159 21177 39856 49872 52008 77377 333 11140 21174 55300 91162 91253 91054
AAXX 02064 04339 47/06 ///// 11083 21105 39666 49756 52023 77277 333 11077 21090 55300 20000
AAXX 02064 04360 06/// /2702 11099 21122 39674 49744 52006 6///2 333 11047 21107 55300 20000 6///7 70000
AAXX 02064 04361 469// 32102 11098 21137 39695 49748 52006 333 11048 21112 83/67
AAXX 02064 04390 07/36 02733 11065 21219 39694 49787 57002 60032 77787 333 11059 21073 60017 70119 91045 91145
AAXX 02061 40706 11402 80000 10010 20004 38630 40191 53003 60001 74442 886XX 333 31102 70001 88712
AAXX 02061 40718 11550 81803 10096 20075 30177 40149 52011 60001 71022 886// 222// 00102 20301 333 30003 50091 70000 88720
AAXX 02061 40732 11457 80000 10098 20073 30165 40141 53010 60001 71021 886// 333 30003 50121 70000 88712
AAXX 02061 40745 11665 13302 10093 21003 39011 40160 52008 60001 70182 81130 333 30108 79999 81835
AAXX 02061 40754 11630 81702 10038 20023 38812 40176 52020 60011 76062 8332/ 333 30100 5//// 70046 81935 83640 88559
AAXX 02061 40766 11658 63002 10065 20059 38684 40166 53001 60021 71062 83470 333 32003 70038 83640 86358
AAXX 02061 40800 11958 00000 10034 20010 38445 40180 53009 60001 71000 333 30106 5///1 70000
AAXX 02061 40811 11630 72602 10166 20142 30140 40167 52017 60001 71010 83570 333 30010 50131 70001 83635 87460
AAXX 02061 40841 12665 11202 10152 21010 38260 40150 52020 60001 81400 333 30002 5//// 70000 81645
AAXX 02061 40848 12665 50000 10102 21069 38537 40170 52010 60001 81450 333 30101 70000 81640 83360
AAXX 02061 40856 12960 23402 10127 21117 38632 40153 50015 60001 82030 333 30101 5///1 70000 82360
AAXX 02061 40875 12960 20202 10215 21008 30175 40187 52018 60001 82031 333 30008 50421 70000 82360
BBXX 44255 02061 99473 70573 46/// /0303 10020 40111 5//// 22200 00031 10902 70012 333 91204
AAXX 02064 16734 12570 20504 10060 20037 30168 40234 53010 60002 82200 333 20054 30/// 55088 70000 90730 91108 555 10000 30136 20000 89062 99085 40000 47648 44120 50000 50050
AAXX 02061 33924 32598 82903 10031 21037 30232 40244 52010 81101 333 20023
AAXX 02064 62305 12560 42609 10094 20075 40243 52022 69904 84800 333 20089
AAXX 02064 62306 12560 42510 10114 20096 40223 52014 60034 84200 333 20110
AAXX 02064 62318 11560 71806 10126 20116 40210 52017 60114 70282 878// 333 20122
AAXX 02064 62337 32960 02504 10130 20071 40194 52010 333 20112
AAXX 02064 62366 31840 31809 10107 20047 40218 52014 70500 83050 333 20104
AAXX 02064 62393 32960 02901 10068 20039 40242 53010 333 20052
AAXX 02064 62405 32960 02202 10102 20045 40229 52015 333 20076
AAXX 02064 62414 32960 03505 10100 20015 40236 52009 333 20091
AAXX 02064 62417 32960 02804 10068 20039 40241 52004 333 20052
AAXX 02064 62440 32960 72406 10117 20088 40206 52015 8702/ 333 20099
AAXX 02064 62463 32960 12910 10130 20033 40214 52012 80001 333 20106
AAXX 02064 62465 32960 22703 10146 20052 40204 52006 80001 333 20126
AAXX 02064 62419 NIL
AAXX 02061 80400 NIL
AAXX 02061 80403 NIL
AAXX 02061 80405 NIL
AAXX 02061 80407 NIL
AAXX 02061 80410 32460 51602 10210 20202 39455 40129 857// 333 30/// 569// 5904 85716 555 10162
AAXX 02061 80413 32960 00000 10204 20181 39648 40135 333 30/// 59002 555 10170
AAXX 02061 80415 NIL
AAXX 02061 80419 NIL
AAXX 02061 80421 NIL
AAXX 02061 80423 NIL
AAXX 02061 80428 32960 00000 10223 20202 39932 40116 333 30/// 59006 555 10128
AAXX 02064 47407 11/65 63513 11029 21070 39936 40113 53005 69951 78582 86200
AAXX 02064 47409 11/20 83211 11020 21033 30047 40102 52008 60011 78588 882//
AAXX 02064 47418 11/70 60226 10012 21042 30014 40064 55005 60011 70282 81202
AAXX 02064 47421 17/70 /0212 10016 21035 30060 40104 53008 69901 72476
AAXX 02064 47430 12/70 73408 10031 21022 30021 40075 55002 60001 872//
AAXX 02064 47570 17/70 /2910 10029 21011 39852 40115 53009 69901 70070
AAXX 02064 47575 11/58 82807 10025 20006 30079 40084 55001 69901 78082 882//
AAXX 02064 47584 12/70 62404 10054 21011 39883 40072 55002 60001 86230
AAXX 02064 47604 11/70 73011 10045 20005 30121 40130 53013 60021 78082 872//
AAXX 02064 47605 11/70 73213 10048 21014 30135 40177 53015 60051 72582 872//
AAXX 02064 47610 11465 60912 10008 21011 39621 40135 53006 60061 78588 86200
AAXX 02064 47624 11/80 23210 10077 21050 39956 40095 53015 69901 70280 82200
AAXX 02064 47629 12/70 23408 10100 21059 30027 40065 53007 60001 81230
AAXX 02064 47636 11/70 13218 10082 21060 30073 40142 53026 69901 70281 81200
AAXX 02064 47651 11/70 43216 10063 21007 30133 40156 53020 69901 72582 84230
AAXX 02064 47655 15/70 /2818 10118 21048 30028 40084 53030 60001
AAXX 02064 47675 15/70 /0109 10119 21009 39981 40071 53024 60001
AAXX 02064 47741 11/75 73210 10053 21030 30190 40218 53002 60021 78382 872//
AAXX 02064 47746 11/65 73312 10058 21020 30184 40204 53002 69951 72782 87200
AAXX 02064 47750 11/80 53405 10055 20005 30158 40186 53001 60031 72682 85200
AAXX 02064 47765 11/80 73611 10072 21042 30147 40214 53002 69901 70381 87200
AAXX 02064 47772 11/82 73309 10070 21024 30078 40180 53013 69901 78081 87200
AAXX 02064 47800 15/74 /3107 10074 21026 30216 40221 56014 60001
AAXX 02064 47815 12/75 60209 10082 20004 30192 40209 56008 60001 86200
AAXX 02064 47817 12/80 23505 10093 21036 30175 40219 56016 60001 82200
AAXX 02064 47830 12/84 12706 10116 21037 30169 40187 56020 60001 81100
AAXX 02064 47887 12/80 43611 10092 21051 30165 40207 55001 60001 83201
AAXX 02064 47891 12/75 23212 10078 21056 30179 40196 53004 60001 82800
AAXX 02064 47895 11/80 63115 10086 21039 30170 40178 55002 69901 70281 86800
AAXX 02064 47927 12/60 10513 10187 20108 30132 40181 55035 60001 81100
AAXX 02064 47401 11/65 73619 11030 21081 30120 40135 53002 69901 78582 872//
AAXX 02064 47412 11/65 73311 10008 21038 30071 40104 53005 69951 72682 872//
AAXX 02064 47420 17/70 /3416 10019 21012 30017 40051 57014 60051 76760
AAXX 02064 47426 15/70 /2809 10041 21011 30004 40051 56011 60001
AAXX 02064 47582 11/60 73317 10032 20008 30067 40094 53001 69951 72582 86230
AAXX 02064 47590 11/75 33216 10070 21030 30020 40073 53008 69901 70281 83330
AAXX 02064 47600 17/70 /3111 10035 21009 30161 40169 53013 60011 72360
AAXX 02064 47648 11/80 53522 10098 20012 30025 40059 53012 69901 70282 84230
AAXX 02064 47662 11/80 13311 10104 21073 30032 40076 53015 69901 72582 81200
AAXX 02064 47678 17/70 /2817 10108 20031 39889 40075 53012 60021 70060
AAXX 02064 47740 17/78 /3007 10038 21032 30179 40214 53004 60041 72387
AAXX 02064 47778 15/70 /3111 10089 21009 30063 40147 51018 60001
AAXX 02064 47807 11370 71302 10071 20035 30198 40217 56010 69901 72582 87200
AAXX 02064 47827 12/82 13208 10114 21010 30163 40202 55020 60001 81100
AAXX 02064 47843 15/80 /3007 10088 21019 30194 40227 55009 60001
AAXX 02064 47893 11/80 20606 10100 21040 30172 40178 55004 69901 70280 82200
AAXX 02064 47909 11/65 73408 10137 20054 30186 40196 56015 69901 72522 878//
AAXX 02064 47918 12/60 60608 10195 20102 30171 40189 58014 60001 82830
AAXX 02064 47936 12/70 23507 10179 20052 30126 40185 56031 60001 82100
AAXX 02064 47945 12/65 10108 10197 20071 30145 40169 56025 60001 81800
AAXX 02064 47971 11/70 20308 10201 20131 30098 40108 53002 69901 72581 82200
AAXX 02064 47991 16/// /2014 10263 20222 30106 40116 55002 60001
AAXX 02064 40100 11556 71807 10134 20088 30139 40171 51015 60354 79196 85970 906// 333 20123 32/// 50154 55024 20599 81920 85826 92437
AAXX 02064 40101 11557 62506 10070 20042 39092 48488 51016 60294 72996 86900 906// 333 20054 32/// 50114 55005 20209 81923 85826
AAXX 02064 40102 NIL
AAXX 02064 40103 NIL
AAXX 02064 41265 36/// /0802 10206 20123 39650 40204 333 0E020 20132 59022
AAXX 02060 44203 32999 00000 11335 21359 38536 40667 58010
AAXX 02060 44207 32999 03302 11253 21291 38422 40548 58009
AAXX 02060 44212 32999 41801 11262 21301 39334 40609 56004 80004
AAXX 02060 44213 32999 00000 11255 21295 38949 40607 57008
AAXX 02060 44215 32998 00000 11214 21254 38537 40547 57003
AAXX 02060 44218 32998 03303 11218 21250 38738 40551 58010
AAXX 02060 44225 32998 00000 11309 21332 38403 40673 57007
AAXX 02060 44230 32998 00000 11187 21241 38930 40542 58012
AAXX 02060 44232 32999 02801 11199 21229 39260 40504 57016
AAXX 02060 44237 32999 01802 11195 21244 38610 40513 51001
AAXX 02060 44239 32999 01703 11160 21220 38915 40453 56012
AAXX 02060 44241 32999 10000 11230 21255 39397 40485 58015 80001
AAXX 02060 44256 41595 80000 11151 21170 39380 40288 56002 77172 8652/
AAXX 02060 44265 32999 00000 11154 21196 38970 40472 58009
AAXX 02060 44272 31998 11402 11221 21261 38333 40526 57012 77800 81040
AAXX 02060 44275 32998 03202 11110 21138 37802 40394 58007
AAXX 02060 44282 32999 03203 11143 21264 38396 40465 58012
AAXX 02060 44284 32999 00000 11185 21285 37936 40553 58005
AAXX 02060 44285 32999 03006 11164 21232 38417 40483 58016
AAXX 02060 44287 32999 03204 11152 21252 38206 40496 58015
AAXX 02060 44294 32998 03205 11170 21214 38632 40444 57001
AAXX 02060 44298 32999 23205 11168 21181 38783 40395 58005 80004
AAXX 02060 44302 32999 72705 11132 21200 39154 40324 58005 80008
AAXX 02060 44305 32999 23206 11124 21191 39082 40296 58010 82040
AAXX 02060 44313 41997 83203 11172 21214 39413 40308 58002 77072 8802/
AAXX 02060 44314 31998 63409 11131 21166 39178 40329 54000 73633 86040
AAXX 02060 44317 41996 83406 11146 21189 38954 40305 57011 77073 8802/
AAXX 02060 44336 32999 03504 11112 21209 38805 40458 58016
AAXX 02060 44341 32999 03210 11150 21204 38687 40444 56012
AAXX 02060 44347 32999 02907 11138 21181 38822 40440 57012
AAXX 02060 44352 32999 53207 11154 21188 38959 40341 53001 85040
AAXX 02060 44358 31997 22907 11140 21183 39153 40373 57009 70230 80004
AAXX 02064 61995 12475 41106 10264 20196 39645 60074 84800 333 01919 20208 50232 59007 84819 94322
AAXX 02061 40716 11901 00000 10000 21003 38901 40195 53015 60001 74442 333 31102 70012
AAXX 02061 40719 11415 80000 10094 20086 30163 40152 53017 60001 71022 8662/ 333 31003 50061 70000 86710 88458
AAXX 02061 40721 12960 30000 10122 20023 39608 40153 53006 60001 83030 333 30003 50241 70000 83360
AAXX 02061 40858 11660 81503 10202 20107 30152 40163 52013 69901 70262 8192/ 333 30016 50381 79999 81935 83640 88459
AAXX 02061 40872 12960 40302 10210 20074 30170 40175 53017 60001 84070 222// 00216 20402 333 30012 50321 70000 84360
AAXX 02061 40877 12962 00000 10136 21029 39613 40164 52019 60001 333 30004 50271 70000
AAXX 02061 40898 12960 00000 10230 20098 30160 40169 52010 222// 00232 10600 333 30009 50531 70000
AAXX 02064 65306 32960 50000 10195 20027 39819 40151 80002 333 01300 20192 50974 55093 58022 85076
AAXX 02064 65319 32960 53204 10220 20010 39627 40138 80002 333 01900 20216 50694 55086 58018 85076
AAXX 02064 65330 31920 50808 10200 20004 39695 40132 70522 80002 333 01900 20200 50994 44089 00438 58018 85076
AAXX 02064 65335 32956 60000 10211 20167 39918 40141 80002 333 01500 20207 50504 55094 58028 86076
AAXX 02064 65344 31425 73206 10260 20253 30112 40123 71022 86502 333 02400 20250 50274 55074 58012 86610 83076
AAXX 02061 10548 01264 81805 10088 20081 39538 40070 57011 60022 75152 877// 333 10098 20088 31008 55000 55300 20000 30000 69927 70022 87706
AAXX 02061 08515 32475 71603 10163 20152 30202 40327 57010 878// 333 20160 3001450174 55/// 82813 87633 910// 911//
AAXX 02061 08501 32/// /1806 10162 20132 30235 40271 57022 333 20108 30007 5//// 55065 20902 91010 91110
AAXX 02061 08505 NIL
AAXX 02061 08509 32360 41505 10151 20124 30239 40304 57020 84800 333 20102 50144 55059 81709 91109
AAXX 02061 08512 11475 61801 10152 20131 30232 40317 57011 69902 72522 86800 333 20119 30011 5//// 55050 20813 82816 85630 91107
AAXX 02061 08515 NIL
AAXX 02061 08533 12/// /2903 10149 20137 30281 40310 57002 69912 333 20146 30012 5//// 55046 20735 91106
AAXX 02061 08541 12/// /3204 10129 20119 30187 40308 52005 69982 333 20124 30010 5//// 55004 20460 91108
AAXX 02061 08545 11565 72804 10123 20048 30207 40291 52014 60182 70222 83532 333 20114 32009 50144 55005 20316 83630 86675 91007 91108
AAXX 02061 08548 12/// /2902 10105 20085 30089 40298 52007 60052 333 20100 30005 5//// 55011 20418 91106
AAXX 02061 08554 31565 70000 10119 20090 30301 40311 56005 70222 878// 333 20117 30010 5//// 55086 21124 81825 86630
AAXX 02061 08558 12/// /2403 10099 20099 30002 40301 52004 60022 333 20071 30002 5//// 55000 20420
AAXX 02061 08560 12/// /2602 10066 20053 39521 40294 52009 60072 333 20065 30005 5//// 55015 20456 91105
AAXX 02061 08567 12/// /2005 10080 20041 39608 40282 52019 60072 333 20079 30007 5//// 55033 20539 91008 91110
AAXX 02061 08570 12/// /2704 10092 20062 39822 40288 52008 69922 333 20085 30007 5//// 55061 20782 91007 91107
AAXX 02061 08575 12/// /2906 10057 20036 39444 40270 52012 60072 333 20057 31004 5//// 55002 20309 91011 91112
AAXX 02061 08579 12/// /2401 10121 20099 30176 40303 52009 69912 333 20121 30010 5//// 55005 20414 91105
AAXX 02064 89577 46/// /0705 11332 35794 4//// 5////
AAXX 02061 01205 46/// /1607 10058 20028 39791 49836 56006 333 20051 91115
AAXX 02061 01281 16/// ///// 1//// 2//// 39729 49903 57015 69972 333 70025
AAXX 02064 62357 NIL
AAXX 02064 62403 32960 00000 10102 20045 40227 52007 333 20076
AAXX 02064 62423 32960 43403 10095 20049 40248 52013 80004 333 20054
AAXX 02061 28676 32697 60202 11188 21212 30165 40304 57003 83530 333 21206
AAXX 02061 28766 31996 80901 11156 21187 30081 40284 57009 71022 83031 333 21178
AAXX 02061 28867 32598 31401 11145 21188 39979 40267 57010 83500 333 21195
AAXX 02061 28879 31997 80000 11105 21154 39980 40282 57012 70411 80005 333 21162
AAXX 02061 28952 32999 80000 11172 21198 30055 40261 57008 8801/ 333 21192
AAXX 02061 28966 32598 61404 11104 21179 39985 40283 53001 83531 333 21142
AAXX 02061 29802 31996 81101 11192 21210 30188 40344 57011 71011 80001 333 21232
AAXX 02061 29807 32997 01402 11172 21203 30206 40334 57022 333 21223
AAXX 02061 34691 32998 80501 11021 21051 30186 40173 53007 8802/ 333 21015
AAXX 02061 35067 32998 60902 11132 21186 39972 40264 57009 82075 333 21191
AAXX 02061 35078 32998 60603 11175 21196 39880 40288 57015 80001 333 21248
AAXX 02061 35085 32998 50000 11117 21129 39786 40286 57017 80001 333 21220
AAXX 02061 35108 31597 80802 11063 21079 30143 40190 54000 71022 333 21065
AAXX 02061 35188 31998 31502 11064 21144 39826 40273 57018 70411 80001 333 21167
AAXX 02061 35217 31498 80702 11064 21092 30137 40179 57001 77122 8802/ 333 21066
AAXX 02061 35229 32998 70301 11125 21152 39910 40197 58002 87030 333 21145
AAXX 02061 35302 32998 81203 11059 21082 30157 40177 57001 8802/ 333 21059
AAXX 02061 35357 32997 01601 11159 21186 39797 40261 57017 333 21241
AAXX 02061 35394 32998 00904 11068 21162 39572 40268 57014 333 21170
AAXX 02061 35406 32597 80901 11060 21079 30168 40170 53001 886// 333 21058
AAXX 02061 35416 31/93 90802 11077 21095 30048 40172 57001 74942 333 21085
AAXX 02061 35426 32999 60903 11088 21116 39880 40183 57003 83036 333 21127
AAXX 02061 35497 32998 00703 11038 21137 39440 40250 57018 333 21114
AAXX 02061 35532 32998 81305 11113 21157 39668 40179 57015 8802/ 333 21138
AAXX 02061 35671 32998 21003 11127 21188 39795 40246 57010 80001 333 21145
AAXX 02061 35700 31494 80402 11060 21075 30188 40164 53006 71022 886// 333 21047
AAXX 02061 35746 32998 80703 11120 21147 30113 40183 57001 8807/ 333 21128
AAXX 02061 35796 32999 60308 11088 21147 39796 40246 57011 86030 333 21130
AAXX 02061 35849 32998 71101 11108 21128 30087 40176 57001 83072 333 21124
AAXX 02061 35925 31/92 90000 11037 21040 40153 53004 74644 333 21074
AAXX 02061 35953 32999 50904 11117 21137 30048 40183 57005 82030 333 21136
AAXX 02061 35969 32999 20702 11132 21159 30037 40220 57005 80001 333 21155
AAXX 02061 36003 32999 51502 11142 21177 30174 40335 57013 80001 333 21228
AAXX 02061 36152 32998 01402 11180 21230 30139 40343 57012 333 21222
AAXX 02061 36177 32997 10302 11148 21166 30091 40354 57014 80001 333 21213
AAXX 02061 36208 NIL
AAXX 02061 36397 32999 01608 11103 21162 39749 40337 57010 333 21139
AAXX 02061 36428 NIL
AAXX 02061 36535 31999 00000 11187 21206 39708 40393 57009 71040 333 21290
AAXX 02061 36639 31999 00808 11020 21123 39659 40269 52005 73630 333 21225
AAXX 02061 36821 31999 30000 11130 21151 39728 40243 57008 70241 80002 333 21181
AAXX 02061 36859 32999 21201 11020 21116 39442 40231 58002 82040 333 21123
AAXX 02061 36864 32899 30000 11084 21112 39305 40229 57003 81031 333 21168
AAXX 02061 36870 32997 80000 10009 21066 39177 40187 58002 85042 333 21093
AAXX 02061 38001 32997 80702 10005 21021 30184 40154 57004 8807/ 333 20000
AAXX 02061 38062 32999 61201 11085 21127 30020 40189 53001 80001 333 21128
AAXX 02061 38069 32998 01001 11059 21094 39995 40192 58007 333 21115
AAXX 02061 38196 32998 01401 10015 21123 39201 40179 53004 333 21078
AAXX 02061 38198 32997 00000 11101 21129 39932 40204 54000 333 21148
AAXX 02061 38222 32998 30000 11126 21146 39640 40230 57006 82061 333 21141
AAXX 02061 38232 32598 82101 10008 21019 30057 40156 53005 885// 333 21006
AAXX 02061 38328 32999 01902 10041 21089 39453 40177 53006 333 21111
AAXX 02061 38334 32998 00000 10066 21089 39219 40163 53001 333 21043
AAXX 02061 38341 32999 01701 10018 21071 39395 40180 57001 333 21169
AAXX 02061 38343 32998 00000 11021 21053 39341 40194 53001 333 21193
AAXX 02061 38439 31995 40201 11054 21068 39845 40194 53004 71044 84071 333 21084
AAXX 02061 28676 32697 60202 11188 21212 30165 40304 57003 83530 333 21206
AAXX 02061 28766 31996 80901 11156 21187 30081 40284 57009 71022 83031 333 21178
AAXX 02061 28867 32598 31401 11145 21188 39979 40267 57010 83500 333 21195
AAXX 02061 28879 31997 80000 11105 21154 39980 40282 57012 70411 80005 333 21162
AAXX 02061 28952 32999 80000 11172 21198 30055 40261 57008 8801/ 333 21192
AAXX 02061 28966 32598 61404 11104 21179 39985 40283 53001 83531 333 21142
AAXX 02061 29802 31996 81101 11192 21210 30188 40344 57011 71011 80001 333 21232
AAXX 02061 29807 32997 01402 11172 21203 30206 40334 57022 333 21223
AAXX 02061 34691 32998 80501 11021 21051 30186 40173 53007 8802/ 333 21015
AAXX 02061 35067 32998 60902 11132 21186 39972 40264 57009 82075 333 21191
AAXX 02061 35078 32998 60603 11175 21196 39880 40288 57015 80001 333 21248
AAXX 02061 35085 32998 50000 11117 21129 39786 40286 57017 80001 333 21220
AAXX 02061 35108 31597 80802 11063 21079 30143 40190 54000 71022 333 21065
AAXX 02061 35188 31998 31502 11064 21144 39826 40273 57018 70411 80001 333 21167
AAXX 02061 35217 31498 80702 11064 21092 30137 40179 57001 77122 8802/ 333 21066
AAXX 02061 35229 32998 70301 11125 21152 39910 40197 58002 87030 333 21145
AAXX 02061 35302 32998 81203 11059 21082 30157 40177 57001 8802/ 333 21059
AAXX 02061 35357 32997 01601 11159 21186 39797 40261 57017 333 21241
AAXX 02061 35394 32998 00904 11068 21162 39572 40268 57014 333 21170
AAXX 02061 35406 32597 80901 11060 21079 30168 40170 53001 886// 333 21058
AAXX 02061 35416 31/93 90802 11077 21095 30048 40172 57001 74942 333 21085
AAXX 02061 35426 32999 60903 11088 21116 39880 40183 57003 83036 333 21127
AAXX 02061 35497 32998 00703 11038 21137 39440 40250 57018 333 21114
AAXX 02061 35532 32998 81305 11113 21157 39668 40179 57015 8802/ 333 21138
AAXX 02061 35671 32998 21003 11127 21188 39795 40246 57010 80001 333 21145
AAXX 02061 35700 31494 80402 11060 21075 30188 40164 53006 71022 886// 333 21047
AAXX 02061 35746 32998 80703 11120 21147 30113 40183 57001 8807/ 333 21128
AAXX 02061 35796 32999 60308 11088 21147 39796 40246 57011 86030 333 21130
AAXX 02061 35849 32998 71101 11108 21128 30087 40176 57001 83072 333 21124
AAXX 02061 35925 31/92 90000 11037 21040 40153 53004 74644 333 21074
AAXX 02061 35953 32999 50904 11117 21137 30048 40183 57005 82030 333 21136
AAXX 02061 35969 32999 20702 11132 21159 30037 40220 57005 80001 333 21155
AAXX 02061 36003 32999 51502 11142 21177 30174 40335 57013 80001 333 21228
AAXX 02061 36152 32998 01402 11180 21230 30139 40343 57012 333 21222
AAXX 02061 36177 32997 10302 11148 21166 30091 40354 57014 80001 333 21213
AAXX 02061 36208 NIL
AAXX 02061 36397 32999 01608 11103 21162 39749 40337 57010 333 21139
AAXX 02061 36428 NIL
AAXX 02061 36535 31999 00000 11187 21206 39708 40393 57009 71040 333 21290
AAXX 02061 36639 31999 00808 11020 21123 39659 40269 52005 73630 333 21225
AAXX 02061 36821 31999 30000 11130 21151 39728 40243 57008 70241 80002 333 21181
AAXX 02061 36859 32999 21201 11020 21116 39442 40231 58002 82040 333 21123
AAXX 02061 36864 32899 30000 11084 21112 39305 40229 57003 81031 333 21168
AAXX 02061 36870 32997 80000 10009 21066 39177 40187 58002 85042 333 21093
AAXX 02061 38001 32997 80702 10005 21021 30184 40154 57004 8807/ 333 20000
AAXX 02061 38062 32999 61201 11085 21127 30020 40189 53001 80001 333 21128
AAXX 02061 38069 32998 01001 11059 21094 39995 40192 58007 333 21115
AAXX 02061 38196 32998 01401 10015 21123 39201 40179 53004 333 21078
AAXX 02061 38198 32997 00000 11101 21129 39932 40204 54000 333 21148
AAXX 02061 38222 32998 30000 11126 21146 39640 40230 57006 82061 333 21141
AAXX 02061 38232 32598 82101 10008 21019 30057 40156 53005 885// 333 21006
AAXX 02061 38328 32999 01902 10041 21089 39453 40177 53006 333 21111
AAXX 02061 38334 32998 00000 10066 21089 39219 40163 53001 333 21043
AAXX 02061 38341 32999 01701 10018 21071 39395 40180 57001 333 21169
AAXX 02061 38343 32998 00000 11021 21053 39341 40194 53001 333 21193
AAXX 02061 38439 31995 40201 11054 21068 39845 40194 53004 71044 84071 333 21084
AAXX 02064 88878 46/// /2712 10094 20075 40101 57002
AAXX 02064 88883 46/// /2814 10101 20079 40101 57006
AAXX 02064 88897 46/// /3114 10093 20070 40077 57005
AAXX 02064 03896 16/// ///// 10085 60032 333 20077 55000
AAXX 02061 30372 42799 60000 11254 21285 39438 40401 58003 81102
AAXX 02061 30433 42699 60901 11151 21185 39750 40385 58005 82531
AAXX 02061 30554 42998 01701 11149 21192 39197 40351 58004
AAXX 02061 30635 42999 01001 11171 21190 39783 40400 58005
AAXX 02061 30673 42999 60301 11204 21216 39494 40324 58008 82048
AAXX 02061 30692 42998 23204 11222 21255 39767 40306 58/// 80001
AAXX 02061 30758 41995 80000 11138 21173 39464 40328 58003 77177 83016
AAXX 02061 30802 42799 12702 11118 21190 38811 48577 58017 81100
AAXX 02061 30823 42699 21801 11085 21138 39715 40379 58006 81930
AAXX 02061 30879 42999 80000 11223 21256 39497 40326 58009 80007
AAXX 02061 30935 42999 82202 11118 21162 39402 40388 58008 80001
AAXX 02061 30949 42699 72906 11104 21188 39171 40307 58005 83530
AAXX 02061 30965 41997 73501 11202 21228 39428 40321 57004 77172 81046
AAXX 02061 31168 42999 80000 11150 21177 30209 40221 53002 80007
AAXX 02061 31300 41997 50000 11236 21249 39978 40297 56007 74011 80002
AAXX 02061 31329 42999 00000 11268 21315 39566 40309 57011
AAXX 02061 31369 42499 82403 11221 21233 30137 40228 57005 82532
AAXX 02061 31416 42998 50000 11238 21256 30161 40260 57007 82011
AAXX 02061 31484 42999 12301 11190 21231 39891 40254 57014 80001
AAXX 02061 31512 429// 01901 11191 21232 30115 40296 56008
AAXX 02061 31538 42999 00000 11240 21280 39822 40299 57006
AAXX 02061 31707 42999 03403 11141 21212 30171 40270 57010
AAXX 02061 31735 42997 60000 11236 21265 30177 40275 55007 80001
AAXX 02061 31770 42999 23602 11127 21222 30166 40198 57007 80041
AAXX 02063 87007 11562 73202 10099 20067 36758 47166 57009 69961 70262 85570 333 56780 85620
AAXX 02063 87047 31562 30503 10190 20176 38806 48527 57012 71021 83500 333 56100 83625
AAXX 02063 87148 32970 01805 10191 20163 39985 40091 58008
AAXX 02064 87022 32960 00000 10246 20197 39582 40072 58004
AAXX 02064 87046 32662 63209 10222 20179 39108 48508 57016 86500 333 56900 86640
AAXX 02064 87097 32960 21804 10197 20168 39748 40051 57011 82070 333 56060 82360
AAXX 02064 87121 32665 33604 10242 20187 39610 40105 54000 83500 333 56400 83640
AAXX 02064 87129 32965 00903 10248 20124 39894 40118 50000
AAXX 02064 87155 32965 02303 10183 20167 30030 40091 57013
AAXX 02064 87162 NIL
AAXX 02064 87166 32960 01807 10206 20172 30013 40084 57013
AAXX 02064 87178 42970 01107 10230 20167 39924 40066 57003
AAXX 02064 87217 NIL
AAXX 02064 87222 32970 00512 10283 20112 39574 40067 58008
AAXX 02064 87257 32965 02303 10204 20143 30017 40118 57012
AAXX 02064 87270 NIL
AAXX 02064 87289 32962 01407 10210 20178 30022 40103 58008
AAXX 02064 87311 NIL
AAXX 02064 87320 NIL
AAXX 02064 87328 32980 00904 10230 20133 39470 40095 53004 333 95090
AAXX 02061 26997 11450 83203 11046 21055 39963 40191 52007 69902 71022 889// 333 21048 43002 86915
AAXX 02061 27595 32497 81002 11050 21063 30055 40204 52005 8860/ 333 21057 88716
AAXX 02061 27612 31396 80302 11024 21033 39976 40174 52012 71022 887// 333 21024 43012
AAXX 02061 27707 31425 80000 11032 21034 39872 40174 52008 71042 886// 333 21080 47017 88713
AAXX 02061 27719 32497 73402 11013 21024 39901 40156 53004 87600 333 21022 43007
AAXX 02061 27786 31496 81003 11039 21040 30024 40189 57007 71022 885// 333 21039 88614
AAXX 02061 27857 11396 81403 11015 21023 39960 40125 53004 60060 77172 8802/ 333 21011 88507
AAXX 02061 27906 11596 83004 11034 21045 39918 40167 52007 69902 71022 885// 333 21050 47004
AAXX 02061 27928 11596 83503 11017 21031 39924 40136 53006 69930 72272 8655/ 333 21022 47004
AAXX 02061 27947 11212 81304 11013 21018 39948 40109 57003 60070 77472 8872/ 333 21014 43011 88705 937// 333 53004
AAXX 02061 27962 11495 81204 11020 21035 40151 54000 69930 77172 8802/ 333 21019 88510
AAXX 02061 27983 32497 81102 11044 21053 30060 40192 54000 886// 333 21043 88711
AAXX 02061 27995 32698 70802 11055 21066 40198 52001 83550 333 21045
AAXX 02061 28506 11997 80802 11061 21068 30097 40214 57002 69900 77172 8802/ 333 21063
AAXX 02061 28704 12998 80901 11052 21063 30106 40204 52003 69900 8807/ 333 21055
AAXX 02061 28711 31296 80801 11078 21083 39820 40210 54001 77172 886// 333 21080 88704 93503
AAXX 02061 28807 31597 80000 11060 21075 30150 40203 55001 77122 8457/ 333 21055
AAXX 02061 34009 11597 83003 11021 21036 39855 40167 52009 69902 78522 889// 333 21023 47005
AAXX 02061 34110 32598 83304 11013 21033 39864 40147 52001 8635/ 333 21028 43003
AAXX 02061 34123 12230 83206 11014 21034 39924 40110 54000 60030 77372 882// 333 21014 47005 88506
AAXX 02061 34152 11395 81203 11021 21024 39917 40116 53003 60040 77372 8872/ 333 21018
AAXX 02061 34163 11497 81004 11032 21036 40158 57005 60020 78588 889// 333 88920
AAXX 02061 34171 11215 81505 11028 21032 39968 40165 53004 60020 77374 8872/ 333 21028 88503 93405
AAXX 02061 34186 32298 81202 11039 21054 30041 40184 54000 8872/ 333 21037 88704
AAXX 02061 34247 11348 80000 11009 21016 39980 40095 53002 60110 77177 8872/ 333 21010 43013 86707 93742
AAXX 02061 34336 11442 83202 11004 21007 39992 40097 53008 60150 78588 8632/ 333 21004 43015 93723
AAXX 02061 34391 12997 81401 11042 21051 30149 40181 53004 69900 8802/ 333 21044
AAXX 02061 35011 11997 61201 11093 21128 40204 53001 69920 70172 86030 333 21079
AAXX 02061 35121 32998 01001 11152 21173 30047 40204 57002 333 21145
AAXX 02061 22271 NIL
AAXX 02061 22520 12497 81002 11064 21080 30191 40201 57004 69902 886// 333 21168 88715
AAXX 02061 22550 31367 80301 11082 21101 30208 40219 52005 70242 886// 333 21115 88707
AAXX 02061 22583 12470 70000 11021 21024 30134 40216 52006 69900 875// 333 21026 87612
AAXX 02061 22768 12497 80402 11024 21033 30146 40203 53010 69920 885// 333 21046 88612
AAXX 02061 22845 31496 83601 11069 21078 30030 40194 52005 77172 8672/ 333 21094 86713
AAXX 02061 22887 31597 80000 11097 21105 30147 40221 52009 71022 83531 333 21076 91102
AAXX 02061 23205 NIL
AAXX 02061 23219 11398 80206 11151 21170 30140 40254 52011 60032 73673 8667/ 333 47050
AAXX 02061 23418 11314 83406 11048 21058 30134 40210 53008 69960 77572 8872/ 333 21041 85708
AAXX 02061 23606 32260 81902 11040 21042 30046 40223 51001 886// 333 21036 88703
AAXX 02061 23711 NIL
AAXX 02061 23804 11997 80000 11072 21077 30087 40242 52009 69920 77172 8807/ 333 21064
AAXX 02061 27037 11498 81201 11024 21030 30010 40174 52011 60020 77872 885// 333 21024 86713
AAXX 02061 27199 12598 81002 11078 21088 30021 40227 52004 69900 8457/ 333 21079
AAXX 02061 27271 11496 80903 11052 21062 30036 40197 53004 69970 77172 8371/ 333 21045
AAXX 02061 27459 11296 81003 11026 21029 39960 40159 53003 60030 77172 8872/ 333 21020 88704
AAXX 02061 27730 11396 83603 11018 21023 39934 40133 54000 60020 77372 8872/ 333 21036 47012 88508
AAXX 02061 80402 NIL
AAXX 02061 80412 NIL
AAXX 02061 80416 NIL
AAXX 02061 80420 32960 01601 10226 20225 30123 40129 333 30/// 58002 555 10142
AAXX 02061 80425 32460 40502 10264 20180 30086 40117 84400 333 30/// 56900 59008 84613 555 10118
AAXX 02061 80426 32560 60000 10220 20198 39485 40127 865// 333 30/// 569// 59007 86620 555 10160
AAXX 02061 80427 32960 03604 10238 20216 39871 40121 333 30/// 59012 555 10140
AAXX 02061 80431 NIL
AAXX 02061 80434 NIL
AAXX 02064 70133 32966 20000 11333 21372 30061 40067 56026 90553 333 11322 21356 555 90206
AAXX 02064 70174 12766 81504 11361 39759 40029 56036 69901 90553 333 11289 21406 4/076 555 90206
AAXX 02064 70200 32966 00000 11322 21356 30046 40051 55007 90553 333 11306 21372 555 90206
AAXX 02064 70219 11240 83620 11294 21328 39925 49985 53004 69901 738// 90553 333 11289 21350 555 90206
AAXX 02064 70231 35866 60000 11383 39861 40003 58026 90553 333 11378 21461 555 90206
AAXX 02064 70261 11256 81803 11339 21367 39794 49981 58043 69901 771// 90553 333 11339 21372 96010 555 90206
AAXX 02064 70267 11656 80000 11294 21328 39459 49995 58026 69931 771// 90553 333 11294 21344 555 90206
AAXX 02064 70271 11420 80000 11194 21217 39254 49866 56028 60011 771// 90553 333 11194 21267 4/013 96010 555 90206
AAXX 02064 70273 32966 41604 11233 21267 39831 49892 56029 90553 333 11172 21256 4/071 555 90206
AAXX 02064 70316 15566 83014 11056 21089 39958 49995 51023 69901 90553 333 11017 21083 555 90206
AAXX 02064 70326 12366 80303 11139 21167 39883 49895 56024 69931 90554 333 11139 21333 4/005 555 90206
AAXX 02064 70340 32866 43507 11222 21272 39861 49926 56019 90553 333 11217 21294 555 90206
AAXX 02064 70350 32566 23507 11072 21128 39865 49904 56018 90553 333 11067 21106 555 90206
AAXX 02064 70361 17340 81416 10039 20028 39749 49760 60081 762// 90553 333 10039 21066 91027 96010 555 90206
AAXX 02064 70381 11466 61118 10011 20006 39848 49856 56017 60031 761// 90553 333 10022 21016 4/015 91026 555 90206
AAXX 02064 70414 35566 62717 11050 21089 30058 40096 51009 90556 333 11028 21050 555 90206
AAXX 02064 78526 32566 20000 10239 20206 30153 40176 58014 90556 333 10256 20228 555 90206
AAXX 02064 78543 32966 00705 10233 20211 30092 40173 58015 90553 333 10244 20222 555 90206
AAXX 02061 38598 41594 80913 11030 21040 40236 52012 71022 886// 333 91017
AAXX 02061 38599 NIL
AAXX 02061 38725 NIL
AAXX 02061 38734 42699 40706 11061 21147 47040 53003 82503
AAXX 02061 38744 42999 20000 11118 21180 38047 48580 52006 80002
AAXX 02061 38836 32699 70000 10047 21065 39273 40219 53012 86903 333 21045
AAXX 02061 38838 41998 70000 10005 21021 39547 40236 58016 70242 83032
AAXX 02061 38844 NIL
AAXX 02061 38846 42999 82102 10018 21022 38510 48480 58009 8802/
AAXX 02061 38847 42899 70000 10018 21019 40248 52005 82550
AAXX 02061 38932 NIL
AAXX 02061 38933 31998 60000 10016 21006 39710 40237 58012 70141 82082 333 21045
AAXX 02061 38944 32997 33604 10016 21003 39660 40209 52001 83030 333 21028
AAXX 02061 38954 32999 40000 11053 21158 37984 48580 52002 80001 333 21106
AAXX 02061 22028 11580 71416 11029 21049 30162 40202 54000 69902 73683 85930 333 21029 48047 91020 91120
AAXX 02061 22106 12998 00501 11054 21064 30090 40172 52004 69902 333 21054 47019 91002
AAXX 02061 22127 11498 81403 11041 21046 39992 40199 52006 69992 72682 889// 333 21041 47028 86711 91006
AAXX 02061 22324 11575 81302 11046 21052 30149 40200 54000 69962 78582 889// 333 21049 47027 91004
AAXX 02061 22621 31310 81102 11060 21071 30050 40195 54000 70422 886// 333 21093 43026 88707
AAXX 02061 22831 32997 60601 11048 21054 30130 40192 52008 86030 333 21056 47037
AAXX 02061 22892 32497 71302 11040 21048 30133 40150 57004 87900 333 21060 47997 86711
AAXX 02061 26275 32498 71302 11033 21050 30147 40179 52003 87500 333 21043 47006 87616
AAXX 02061 26389 31496 82401 11059 21067 39916 40191 52009 71022 886// 333 21061 47004
AAXX 02061 26499 11397 83202 11021 21024 39950 40186 52013 69922 70272 886// 333 21031 42003 88707
AAXX 02061 26695 11296 83101 11030 21040 39869 40186 52005 60022 71072 886// 333 21031 47011 88706
AAXX 02061 26882 32970 32603 11076 21094 39911 40200 52011 82031 333 21077 47006
AAXX 02061 28676 32697 60202 11188 21212 30165 40304 57003 83530 333 21206
AAXX 02061 28766 31996 80901 11156 21187 30081 40284 57009 71022 83031 333 21178
AAXX 02061 28867 32598 31401 11145 21188 39979 40267 57010 83500 333 21195
AAXX 02061 28879 31997 80000 11105 21154 39980 40282 57012 70411 80005 333 21162
AAXX 02061 28952 32999 80000 11172 21198 30055 40261 57008 8801/ 333 21192
AAXX 02061 28966 32598 61404 11104 21179 39985 40283 53001 83531 333 21142
AAXX 02061 29802 31996 81101 11192 21210 30188 40344 57011 71011 80001 333 21232
AAXX 02061 29807 32997 01402 11172 21203 30206 40334 57022 333 21223
AAXX 02061 34691 32998 80501 11021 21051 30186 40173 53007 8802/ 333 21015
AAXX 02061 35067 32998 60902 11132 21186 39972 40264 57009 82075 333 21191
AAXX 02061 35078 32998 60603 11175 21196 39880 40288 57015 80001 333 21248
AAXX 02061 35085 32998 50000 11117 21129 39786 40286 57017 80001 333 21220
AAXX 02061 35108 31597 80802 11063 21079 30143 40190 54000 71022 333 21065
AAXX 02061 35188 31998 31502 11064 21144 39826 40273 57018 70411 80001 333 21167
AAXX 02061 35217 31498 80702 11064 21092 30137 40179 57001 77122 8802/ 333 21066
AAXX 02061 35229 32998 70301 11125 21152 39910 40197 58002 87030 333 21145
AAXX 02061 35302 32998 81203 11059 21082 30157 40177 57001 8802/ 333 21059
AAXX 02061 35357 32997 01601 11159 21186 39797 40261 57017 333 21241
AAXX 02061 35394 32998 00904 11068 21162 39572 40268 57014 333 21170
AAXX 02061 35406 32597 80901 11060 21079 30168 40170 53001 886// 333 21058
AAXX 02061 35416 31/93 90802 11077 21095 30048 40172 57001 74942 333 21085
AAXX 02061 35426 32999 60903 11088 21116 39880 40183 57003 83036 333 21127
AAXX 02061 35497 32998 00703 11038 21137 39440 40250 57018 333 21114
AAXX 02061 35532 32998 81305 11113 21157 39668 40179 57015 8802/ 333 21138
AAXX 02061 35671 32998 21003 11127 21188 39795 40246 57010 80001 333 21145
AAXX 02061 35700 31494 80402 11060 21075 30188 40164 53006 71022 886// 333 21047
AAXX 02061 35746 32998 80703 11120 21147 30113 40183 57001 8807/ 333 21128
AAXX 02061 35796 32999 60308 11088 21147 39796 40246 57011 86030 333 21130
AAXX 02061 35849 32998 71101 11108 21128 30087 40176 57001 83072 333 21124
AAXX 02061 35925 NIL
AAXX 02061 35953 32999 50904 11117 21137 30048 40183 57005 82030 333 21136
AAXX 02061 35969 32999 20702 11132 21159 30037 40220 57005 80001 333 21155
AAXX 02061 36003 32999 51502 11142 21177 30174 40335 57013 80001 333 21228
AAXX 02061 36152 32998 01402 11180 21230 30139 40343 57012 333 21222
AAXX 02061 36177 32997 10302 11148 21166 30091 40354 57014 80001 333 21213
AAXX 02061 36208 NIL
AAXX 02061 36397 32999 01608 11103 21162 39749 40337 57010 333 21139
AAXX 02061 36428 NIL
AAXX 02061 36535 31999 00000 11187 21206 39708 40393 57009 71040 333 21290
AAXX 02061 36639 31999 00808 11020 21123 39659 40269 52005 73630 333 21225
AAXX 02061 36821 31999 30000 11130 21151 39728 40243 57008 70241 80002 333 21181
AAXX 02061 36859 32999 21201 11020 21116 39442 40231 58002 82040 333 21123
AAXX 02061 36864 32899 30000 11084 21112 39305 40229 57003 81031 333 21168
AAXX 02061 36870 32997 80000 10009 21066 39177 40187 58002 85042 333 21093
AAXX 02061 38001 NIL
AAXX 02061 38062 32999 61201 11085 21127 30020 40189 53001 80001 333 21128
AAXX 02061 38069 32998 01001 11059 21094 39995 40192 58007 333 21115
AAXX 02061 38196 32998 01401 10015 21123 39201 40179 53004 333 21078
AAXX 02061 38198 32997 00000 11101 21129 39932 40204 54000 333 21148
AAXX 02061 38222 32998 30000 11126 21146 39640 40230 57006 82061 333 21141
AAXX 02061 38232 NIL
AAXX 02061 38328 32999 01902 10041 21089 39453 40177 53006 333 21111
AAXX 02061 38334 32998 00000 10066 21089 39219 40163 53001 333 21043
AAXX 02061 38341 32999 01701 10018 21071 39395 40180 57001 333 21169
AAXX 02061 38343 32998 00000 11021 21053 39341 40194 53001 333 21193
AAXX 02061 38439 31995 40201 11054 21068 39845 40194 53004 71044 84071 333 21084
BBXX 44067 02061 99384 70770 46/// /0105 10101 40099 51007 90600
BBXX 41029 02061 99328 70796 46/// /2404 1//// 90600 555 11045 22046
BBXX 44032 02061 99437 70694 46/28 /1710 10086 40021 58050 90604 22200 00078 10503 70017 333 91212 555 11127 22137
BBXX WXJ63 02063 99611 71464 41/97 80613 11038 21086 49769 56/// 702// 8//// 222// 00038 2//// 3//// 4//// 5//// 6//// 8//// ICE /////
BBXX VRHO2 02064 99435 11470 41696 81724 10040 20017 40060 54000 78162 86620 22214 00030 20402 315// 40704 50000 6/00/ 80030 ICE 0////
BBXX WFLG 02064 99314 71288 41498 70909 10161 20153 40218 51020 70222 875// 22264 00133 20501 309// 40705 5//// 6//// 80156 ICE /////
BBXX C6RN3 02064 99244 70743 41898 21106 10240 20211 40240 54000 7//00 80/01 22235 00260 20101 305// 4//// 5//// 6//// 80220 ICE /////
BBXX C6VV8 02063 99174 70871 412// 60626 10260 2026/ 40160 54/// 7//22 86743 22273 00260 20804 318// 40804 50804 6//// 80260 ICE /////
BBXX C6VG7 02064 99259 70782 41697 43611 10260 2//// 40210 5//// 7//// 83195 2222/ 00270 20302 3//// 40302 50302 6//// 8//// ICE /////
BBXX WBS5272 02064 99416 70874 41/97 83415 10011 2//// 40224 5//// 70222 8//// 22200 0//// 20101 3//// 4//// 5//// 6//// 8//// ICE /////
BBXX WFLH 02063 99279 71411 43598 32805 10194 20109 40218 52019 7//// 834// 22213 00200 20701 332// 41212 5//// 6//// 80144 ICE /////
BBXX WKPN 02064 99145 10530 41997 00510 10250 20191 40175 52005 70000 80000 222// 00274 20401 327// 40702 5//// 6//// 80210 ICE /////
AAXX 02064 NIL
AAXX 02064 NIL
AAXX 02061 38598 41594 80913 11030 21040 40236 52012 71022 886// 333 91017
AAXX 02061 38599 NIL
AAXX 02061 38725 NIL
AAXX 02061 38734 42699 40706 11061 21147 47040 53003 82503
AAXX 02061 38744 42999 20000 11118 21180 38047 48580 52006 80002
AAXX 02061 38836 32699 70000 10047 21065 39273 40219 53012 86903 333 21045
AAXX 02061 38838 41998 70000 10005 21021 39547 40236 58016 70242 83032
AAXX 02061 38844 NIL
AAXX 02061 38846 42999 82102 10018 21022 38510 48480 58009 8802/
AAXX 02061 38847 42899 70000 10018 21019 40248 52005 82550
AAXX 02061 38932 NIL
AAXX 02061 38933 31998 60000 10016 21006 39710 40237 58012 70141 82082 333 21045
AAXX 02061 38944 32997 33604 10016 21003 39660 40209 52001 83030 333 21028
AAXX 02061 38954 32999 40000 11053 21158 37984 48580 52002 80001 333 21106
AAXX 02064 NIL
AAXX 02064 NIL
AAXX 02061 48803 32460 71402 10178 20132 30063 40178 57036 878// 333 59025 83894 87696
AAXX 02064 NIL
AAXX 02064 NIL
BBXX 46111 02061 99481 71227 46/// /1008 10098 40171 56015 90600 22200 00054
AAXX 02064 NIL
AAXX 02064 NIL
AAXX 02061 28676 32697 60202 11188 21212 30165 40304 57003 83530 333 21206
AAXX 02061 28766 31996 80901 11156 21187 30081 40284 57009 71022 83031 333 21178
AAXX 02061 28867 32598 31401 11145 21188 39979 40267 57010 83500 333 21195
AAXX 02061 28879 31997 80000 11105 21154 39980 40282 57012 70411 80005 333 21162
AAXX 02061 28952 32999 80000 11172 21198 30055 40261 57008 8801/ 333 21192
AAXX 02061 28966 32598 61404 11104 21179 39985 40283 53001 83531 333 21142
AAXX 02061 29802 31996 81101 11192 21210 30188 40344 57011 71011 80001 333 21232
AAXX 02061 29807 32997 01402 11172 21203 30206 40334 57022 333 21223
AAXX 02061 34691 32998 80501 11021 21051 30186 40173 53007 8802/ 333 21015
AAXX 02061 35067 32998 60902 11132 21186 39972 40264 57009 82075 333 21191
AAXX 02061 35078 32998 60603 11175 21196 39880 40288 57015 80001 333 21248
AAXX 02061 35085 32998 50000 11117 21129 39786 40286 57017 80001 333 21220
AAXX 02061 35108 31597 80802 11063 21079 30143 40190 54000 71022 333 21065
AAXX 02061 35188 31998 31502 11064 21144 39826 40273 57018 70411 80001 333 21167
AAXX 02061 35217 31498 80702 11064 21092 30137 40179 57001 77122 8802/ 333 21066
AAXX 02061 35229 32998 70301 11125 21152 39910 40197 58002 87030 333 21145
AAXX 02061 35302 32998 81203 11059 21082 30157 40177 57001 8802/ 333 21059
AAXX 02061 35357 32997 01601 11159 21186 39797 40261 57017 333 21241
AAXX 02061 35394 32998 00904 11068 21162 39572 40268 57014 333 21170
AAXX 02061 35406 32597 80901 11060 21079 30168 40170 53001 886// 333 21058
AAXX 02061 35416 31/93 90802 11077 21095 30048 40172 57001 74942 333 21085
AAXX 02061 35426 32999 60903 11088 21116 39880 40183 57003 83036 333 21127
AAXX 02061 35497 32998 00703 11038 21137 39440 40250 57018 333 21114
AAXX 02061 35532 32998 81305 11113 21157 39668 40179 57015 8802/ 333 21138
AAXX 02061 35671 32998 21003 11127 21188 39795 40246 57010 80001 333 21145
AAXX 02061 35700 31494 80402 11060 21075 30188 40164 53006 71022 886// 333 21047
AAXX 02061 35746 32998 80703 11120 21147 30113 40183 57001 8807/ 333 21128
AAXX 02061 35796 32999 60308 11088 21147 39796 40246 57011 86030 333 21130
AAXX 02061 35849 32998 71101 11108 21128 30087 40176 57001 83072 333 21124
AAXX 02061 35925 NIL
AAXX 02061 35953 32999 50904 11117 21137 30048 40183 57005 82030 333 21136
AAXX 02061 35969 32999 20702 11132 21159 30037 40220 57005 80001 333 21155
AAXX 02061 36003 32999 51502 11142 21177 30174 40335 57013 80001 333 21228
AAXX 02061 36152 32998 01402 11180 21230 30139 40343 57012 333 21222
AAXX 02061 36177 32997 10302 11148 21166 30091 40354 57014 80001 333 21213
AAXX 02061 36208 NIL
AAXX 02061 36397 32999 01608 11103 21162 39749 40337 57010 333 21139
AAXX 02061 36428 NIL
AAXX 02061 36535 31999 00000 11187 21206 39708 40393 57009 71040 333 21290
AAXX 02061 36639 31999 00808 11020 21123 39659 40269 52005 73630 333 21225
AAXX 02061 36821 31999 30000 11130 21151 39728 40243 57008 70241 80002 333 21181
AAXX 02061 36859 32999 21201 11020 21116 39442 40231 58002 82040 333 21123
AAXX 02061 36864 32899 30000 11084 21112 39305 40229 57003 81031 333 21168
AAXX 02061 36870 32997 80000 10009 21066 39177 40187 58002 85042 333 21093
AAXX 02061 38001 NIL
AAXX 02061 38062 32999 61201 11085 21127 30020 40189 53001 80001 333 21128
AAXX 02061 38069 32998 01001 11059 21094 39995 40192 58007 333 21115
AAXX 02061 38196 32998 01401 10015 21123 39201 40179 53004 333 21078
AAXX 02061 38198 32997 00000 11101 21129 39932 40204 54000 333 21148
AAXX 02061 38222 32998 30000 11126 21146 39640 40230 57006 82061 333 21141
AAXX 02061 38232 NIL
AAXX 02061 38328 32999 01902 10041 21089 39453 40177 53006 333 21111
AAXX 02061 38334 32998 00000 10066 21089 39219 40163 53001 333 21043
AAXX 02061 38341 32999 01701 10018 21071 39395 40180 57001 333 21169
AAXX 02061 38343 32998 00000 11021 21053 39341 40194 53001 333 21193
AAXX 02061 38439 31995 40201 11054 21068 39845 40194 53004 71044 84071 333 21084
AAXX 02064 82143 NIL
AAXX 02064 82599 32570 31202 10251 20225 30035 40095 83100 333 59020
AAXX 02064 82824 21470 50000 10262 20245 39990 40090 70262 81540 333 59003 69911
AAXX 02064 82899 32570 20508 10265 20203 30112 40124 82100 333 58003
AAXX 02064 83117 NIL
AAXX 02064 83248 32470 30409 10281 20248 30083 40105 83200 333 59008
AAXX 02064 83746 21450 82707 10221 20216 30028 40038 56014 76062 8542/ 333 60271
AAXX 02064 82022 32970 00606 10250 20210 30004 40100 333 59006
AAXX 02064 82193 32970 60203 10256 20235 30079 40097 86030 333 59002
AAXX 02064 82281 32470 30609 10270 20204 30038 40100 83500 333 59002
AAXX 02064 82332 32970 50902 10258 20243 39991 40083 85030 333 58010
AAXX 02064 82398 32470 50907 10251 20223 30086 40115 85500 333 58005
AAXX 02064 82400 NIL
AAXX 02064 82579 32570 30503 10263 20228 30019 40095 83500 333 58005
AAXX 02064 82917 31450 62302 10226 20226 39881 40103 71022 82530 333 59001
AAXX 02064 82965 NIL
AAXX 02064 82993 32970 00605 10227 20215 39984 40120 333 58001
AAXX 02064 83208 NIL
AAXX 02064 83349 32470 50207 10272 20239 30101 40107 86800 333 59001
AAXX 02064 83362 32970 03606 10231 20212 39847 40061 333 59017
AAXX 02064 83378 21470 43408 10201 20179 38910 48470 72162 84530 333 59029 69951
AAXX 02064 83460 32570 10205 10237 20220 30040 40097 81100 333 59010
AAXX 02064 83497 NIL
AAXX 02064 83566 21140 70311 10179 20171 39148 48460 76162 87630 333 59016 60131
AAXX 02064 83599 NIL
AAXX 02064 83612 32970 00000 10193 20154 39433 48480 57010
AAXX 02064 83649 22470 80209 10238 20228 30065 40070 57015 8552/ 333 69981
AAXX 02064 83650 NIL
AAXX 02064 83780 NIL
AAXX 02064 83827 32970 01804 10191 20173 39775 40046 56009
AAXX 02064 83840 21370 71605 10149 20143 39058 48460 56011 70252 87600 333 69921
AAXX 02064 83899 21470 62002 10205 20190 30056 40062 56018 70262 86500 333 60021
AAXX 02064 83925 NIL
AAXX 02064 83970 NIL
AAXX 02064 83971 32470 61607 10207 20192 30093 40097 56014 84600
AAXX 02064 91245 32566 40711 10250 20250 30130 90551 555 90206
AAXX 02064 NIL
AAXX 02064 NIL
AAXX 02064 91165 32566 42805 10210 20180 30145 90610 555 90206
AAXX 02064 91182 32566 40204 10239 20189 30174 40180 51024 90553 555 90206
AAXX 02064 91190 32666 22207 10222 20178 30165 40183 52022 90554 333 10278 20189 555 90206
AAXX 02064 91212 12566 61108 10272 20222 31357 40096 55003 69901 90554 333 10294 20244 555 90206
AAXX 02064 91285 12566 42303 10200 20189 30175 40186 51022 60011 90553 555 90206
AAXX 02064 91376 32474 40515 10290 20240 30074 90553 555 90206
AAXX 02061 20107 11597 71211 10013 21036 39887 49981 52011 69902 73683 86530 333 21005 91014 91116
AAXX 02061 22003 NIL
AAXX 02061 22004 NIL
AAXX 02061 22100 NIL
AAXX 02061 22140 NIL
AAXX 02061 22113 11584 71705 11018 21042 30114 40178 52002 69902 72682 86930 333 21018 47013 91006 91110
AAXX 02061 22212 11569 71803 11041 21064 30014 40182 53006 69942 70281 83530 333 21045 47029 91008
AAXX 02061 22213 NIL
AAXX 02061 22217 11477 71603 11054 21061 30160 40193 52008 69972 72682 87900 333 21062 47035 86710 91007
AAXX 02061 22235 11358 81401 11053 21056 30010 40211 51006 69972 71082 886// 333 21053 47033 88708 91001
AAXX 02061 22249 32584 80801 11038 21046 30019 40212 52005 885// 333 21040 47024 91002
AAXX 02061 22312 12480 82202 11123 21136 30177 40200 51004 69902 886// 333 21125 47025 91004
AAXX 02061 22334 11465 81704 11042 21058 30201 40208 52011 69902 78582 889// 333 21045 47010 91005
AAXX 02061 22349 NIL
AAXX 02061 22408 12484 80000 11096 21108 30038 40190 53001 69922 885// 333 21121 47038 88611
AAXX 02061 22602 32476 81201 11053 21060 39939 40172 52008 885// 333 21147 47027 88613
AAXX 02061 22619 11240 81303 11036 21041 30022 40187 53003 69922 77172 8872/ 333 21068 86706 43012
AAXX 02061 22721 11498 60000 11058 21065 30085 40190 52001 69902 78587 85930 333 21058 47039 83918
AAXX 02061 22802 11580 71104 11008 21021 30141 40164 53001 69952 70282 87500 333 21043 47001
AAXX 02061 22820 11484 81303 11011 21021 30037 40178 52003 60022 72682 889// 333 21019 47005 86611
AAXX 02061 26059 32497 81404 11035 21049 30124 40150 56003 886// 333 21053 47001 88711
AAXX 02061 26063 32497 81202 11037 21052 30156 40164 56002 885// 333 21039 43000 88611
AAXX 02061 26094 32970 80901 11023 21026 30092 40169 52003 8805/ 333 21029 47004 93704
AAXX 02061 26157 32597 81306 11030 21050 30085 40137 57009 83531 333 21036 47003
AAXX 02061 26167 32466 81703 11034 21048 30052 40167 58001 886// 333 21048 41998 88713
AAXX 02061 26258 32598 61503 11035 21051 30094 40151 57004 83530 333 21039
AAXX 02061 26298 11396 82601 11026 21029 39945 40181 52010 69972 71072 886// 333 21028 47004
AAXX 02061 26359 32967 71504 11041 21064 30025 40164 57006 87050 333 21049 47006 93702
AAXX 02061 26702 11496 81702 10026 20021 30021 40047 57022 60012 76065 886// 333 20001 91004 91104
AAXX 02061 26781 32997 00000 11093 21105 39883 40192 52003 333 21093 47003
AAXX 02061 27208 11495 50000 11063 21067 39998 40181 52014 69942 71072 83630 333 21064 4/007
AAXX 02061 27402 11194 80000 11023 21026 39993 40178 52011 69902 71072 886// 333 21026 47003 88702
AAXX 02061 08521 32470 40203 10154 20093 30265 40336 51002 84800 333 20148 30/// 55007 83818
AAXX 02061 08524 32470 70102 10151 20108 30237 40337 54000 87800 333 20121 30009 5//// 55003 20502 82815 87630
AAXX 02064 43400 NIL
AAXX 02064 43404 22470 6//// 10284 20238 30118 40128 83201 333 58005 60007 70000 83818 86080
AAXX 02064 43410 NIL
AAXX 02064 43413 21470 23605 10282 20247 30125 40129 70340 82101 333 58001 60007 70000 82818
AAXX 02064 43415 NIL
AAXX 02064 43418 22470 40702 10296 20249 3//// 4//// 83132 333 5//// 60007 70000 83818
AAXX 02064 43421 22470 22701 10300 20235 30021 40123 82101 333 58001 60007 70000 82818
AAXX 02064 43422 21470 11103 10296 20227 39990 40120 70340 81101 333 59002 60007 70000 81818
AAXX 02064 43424 22978 5//// 10302 20195 30108 40111 80001 333 59003 60007 70000 85080
AAXX 02064 43436 22470 30000 10286 20234 30115 40118 83100 333 58000 60007 70000 83818
AAXX 02064 43441 22970 529// 10300 20191 39983 40112 80001 333 58002 60007 70000 85080
AAXX 02064 43444 22970 50902 10290 20156 39584 40115 80006 333 59003 60007 70000 85280
AAXX 02064 43467 22966 52901 10303 20193 30113 40118 80001 333 59005 60007 70000 85080
AAXX 02064 43473 22970 62302 10216 20046 38140 48499 80006 333 58003 60007 70000 86280
AAXX 02064 43475 22470 33602 10290 20232 30111 40119 82101 333 58002 60007 70000 82818 83080
AAXX 02064 43476 22970 40905 10240 20075 38785 48533 80001 333 58004 60007 70000 84080
AAXX 02064 43479 21970 10904 10260 20132 39279 70240 80002 333 58005 60007 70000 81080
AAXX 02064 43486 21470 53203 10295 20195 30021 40115 70341 81101 333 58005 60007 70000 81808 85080
AAXX 02064 43495 22970 4//// 10290 20244 30108 40124 80001 333 59001 60007 70000 84080
AAXX 02064 43497 22976 20904 10303 20211 30100 40117 80001 333 58002 60007 70000 82080
AAXX 02061 48826 31556 83403 10152 20136 30038 40177 58036 71022 888// 333 59028 82895 88697
AAXX 02061 48839 32697 80905 10191 20168 30105 40171 57034 885// 222// 00189 2//01 333 59026 88696
AAXX 02064 60738 12560 2//// 10072 20031 39014 48572 55005 60004 82200 333 20051 82823
AAXX 02064 60351 12965 30000 10073 20058 40247 55003 60004 80032 333 00500 20060 83359 95990
AAXX 02064 60355 12960 02310 10104 20079 40247 58003 60001 333 0//00 20098 95990
AAXX 02064 60445 12965 02804 10003 21014 39103 48566 55003 60004 333 05500 21004 95990
AAXX 02064 60468 12960 00000 10013 20000 39313 48564 58004 60004 333 05600 21010 95900
AAXX 02064 60507 12965 00000 10026 20018 40304 55007 60004 333 00200 20020 95990
AAXX 02064 60511 NIL
AAXX 02064 60535 11965 00000 10028 20008 38920 48577 56009 60004 700// 333 05100 20015 95900
AAXX 02064 60536 12960 00000 10035 20015 39411 48580 54000 60004 333 05400 20023 95990
AAXX 02064 60549 11960 01306 10038 20006 39018 48607 53008 60004 700// 333 05100 20018 95990
AAXX 02064 60550 12960 00000 11003 21009 38760 48591 56002 60004 333 05300 21005 95990
AAXX 02064 60555 12970 00000 10066 21007 40286 53002 60004 333 00000 20066
AAXX 02064 60559 12960 02005 10048 20007 40291 55002 60004 333 0//00 20043
AAXX 02064 60581 12960 00000 10026 21004 40304 53005 60004 333 05100 20025
AAXX 02064 60602 11960 00000 10028 21029 40305 53006 60004 700// 333 0//00 20028 95990
AAXX 02064 60607 12960 00610 10054 21065 40282 53003 60004 333 0//00 20050
AAXX 02064 60640 12960 20000 10043 21012 40298 53006 60004 82030 333 00100 20041 82360
AAXX 02064 60690 NIL
AAXX 02064 60360 32960 11804 10064 20054 40258 56003 60004 81030 333 00400 20060 81630 95990
AAXX 02064 60390 12970 02204 10055 20048 40272 55000 60004 333 00100 20036 95990
AAXX 02064 60402 12960 02410 10088 20071 40264 58007 60004 333 00500 20075 95990
AAXX 02064 60419 11930 00000 10018 20007 40288 50002 60004 71000 333 05100 20012 95990
AAXX 02064 60475 12960 10000 10001 21002 39315 48561 58003 60004 80002 333 05400 20000 81073 95990
AAXX 02064 60490 12980 02408 10077 20055 40283 55001 60004 333 00000 20053 95990
AAXX 02064 60525 12960 00000 10076 20026 40276 58002 60004 333 05300 20060 95990
AAXX 02064 60531 12970 02412 10107 20009 40299 55002 60004 333 05100 20050 95990
AAXX 02064 60566 12960 03005 10085 21005 40297 55003 60004 333 05000 20069
AAXX 02064 60571 12962 00000 10020 20000 39354 48590 57003 60004 333 0//00 20020 95990
AAXX 02064 60580 12960 01706 10032 20009 40294 55002 60004 333 00100 20020
AAXX 02064 60590 12960 03105 10018 21036 40310 55002 60004 333 0//00 20005
AAXX 02064 60611 12660 50507 10071 20005 40302 53002 60004 83230 333 00400 20054 83840 83360
AAXX 02064 60620 12960 20411 10042 21032 40285 55000 60004 82030 333 0//00 20040 82365
AAXX 02064 60630 12960 00314 10108 20031 40272 51001 60004 333 00600 20095
AAXX 02064 60656 12965 43606 10042 21054 40279 58005 60004 80002 333 00100 20030 84073
AAXX 02064 60670 NIL
AAXX 02064 60680 12970 20304 10003 21141 38690 48556 53003 60004 80002 333 05400 20002 82073 95900
AAXX 02064 60360 32960 11804 10064 20054 40258 56003 60004 81030 333 00400 20060 81630 95990
AAXX 02064 60390 12970 02204 10055 20048 40272 55000 60004 333 00100 20036 95990
AAXX 02064 60402 12960 02410 10088 20071 40264 58007 60004 333 00500 20075 95990
AAXX 02064 60419 11930 00000 10018 20007 40288 50002 60004 71000 333 05100 20012 95990
AAXX 02064 60475 12960 10000 10001 21002 39315 48561 58003 60004 80002 333 05400 20000 81073 95990
AAXX 02064 60490 12980 02408 10077 20055 40283 55001 60004 333 00000 20053 95990
AAXX 02064 60525 12960 00000 10076 20026 40276 58002 60004 333 05300 20060 95990
AAXX 02064 60531 12970 02412 10107 20009 40299 55002 60004 333 05100 20050 95990
AAXX 02064 60566 12960 03005 10085 21005 40297 55003 60004 333 05000 20069
AAXX 02064 60571 12962 00000 10020 20000 39354 48590 57003 60004 333 0//00 20020 95990
AAXX 02064 60580 12960 01706 10032 20009 40294 55002 60004 333 00100 20020
AAXX 02064 60590 12960 03105 10018 21036 40310 55002 60004 333 0//00 20005
AAXX 02064 60611 12660 50507 10071 20005 40302 53002 60004 83230 333 00400 20054 83840 83360
AAXX 02064 60620 12960 20411 10042 21032 40285 55000 60004 82030 333 0//00 20040 82365
AAXX 02064 60630 12960 00314 10108 20031 40272 51001 60004 333 00600 20095
AAXX 02064 60656 12965 43606 10042 21054 40279 58005 60004 80002 333 00100 20030 84073
AAXX 02064 60670 NIL
AAXX 02064 60680 12970 20304 10003 21141 38690 48556 53003 60004 80002 333 05400 20002 82073 95900
AAXX 02064 60351 12965 30000 10073 20058 40247 55003 60004 80032 333 00500 20060 83359 95990
AAXX 02064 60355 12960 02310 10104 20079 40247 58003 60001 333 0//00 20098 95990
AAXX 02064 60445 12965 02804 10003 21014 39103 48566 55003 60004 333 05500 21004 95990
AAXX 02064 60468 12960 00000 10013 20000 39313 48564 58004 60004 333 05600 21010 95900
AAXX 02064 60507 12965 00000 10026 20018 40304 55007 60004 333 00200 20020 95990
AAXX 02064 60511 NIL
AAXX 02064 60535 11965 00000 10028 20008 38920 48577 56009 60004 700// 333 05100 20015 95900
AAXX 02064 60536 12960 00000 10035 20015 39411 48580 54000 60004 333 05400 20023 95990
AAXX 02064 60549 11960 01306 10038 20006 39018 48607 53008 60004 700// 333 05100 20018 95990
AAXX 02064 60550 12960 00000 11003 21009 38760 48591 56002 60004 333 05300 21005 95990
AAXX 02064 60555 12970 00000 10066 21007 40286 53002 60004 333 00000 20066
AAXX 02064 60559 12960 02005 10048 20007 40291 55002 60004 333 0//00 20043
AAXX 02064 60581 12960 00000 10026 21004 40304 53005 60004 333 05100 20025
AAXX 02064 60602 11960 00000 10028 21029 40305 53006 60004 700// 333 0//00 20028 95990
AAXX 02064 60607 12960 00610 10054 21065 40282 53003 60004 333 0//00 20050
AAXX 02064 60640 12960 20000 10043 21012 40298 53006 60004 82030 333 00100 20041 82360
AAXX 02064 60690 NIL
AAXX 02064 62305 12560 42609 10094 20075 40243 52022 69904 84800 333 20089
AAXX 02064 62306 12560 42510 10114 20096 40223 52014 60034 84200 333 20110
AAXX 02064 62318 11560 71806 10126 20116 40210 52017 60114 70282 878// 333 20122
AAXX 02064 62337 32960 02504 10130 20071 40194 52010 333 20112
AAXX 02064 62366 31840 31809 10107 20047 40218 52014 70500 83050 333 20104
AAXX 02064 62393 32960 02901 10068 20039 40242 53010 333 20052
AAXX 02064 62405 32960 02202 10102 20045 40229 52015 333 20076
AAXX 02064 62414 32960 03505 10100 20015 40236 52009 333 20091
AAXX 02064 62417 32960 02804 10068 20039 40241 52004 333 20052
AAXX 02064 62440 32960 72406 10117 20088 40206 52015 8702/ 333 20099
AAXX 02064 62463 32960 12910 10130 20033 40214 52012 80001 333 20106
AAXX 02064 62465 32960 22703 10146 20052 40204 52006 80001 333 20126
AAXX 02064 62419 NIL
AAXX 02061 45032 36/// /1802 10178 20097 30175 40192 57002
AAXX 02061 45035 36/// /0103 10185 20106 30148 40190 54000
AAXX 02061 45039 36/// /3502 10169 20105 30176 40192 57001
AAXX 02061 45044 36/// /1209 10182 20105 30094 40187 57004
AAXX 02061 40701 12660 20000 11024 21045 38568 40200 58001 60001 82500 333 3/110 41002 70000 82640
AAXX 02061 40704 12670 12705 10028 21031 38580 40157 53010 60001 81100 333 31104 70000
AAXX 02061 40708 12860 12104 10040 21016 38625 40140 53008 60001 81040 333 30104 70000 81358
AAXX 02061 40710 12660 62102 11020 21028 38292 40195 53006 60001 83570 333 3/107 41997 79999 83635 85459
AAXX 02061 40713 11958 00903 10014 21023 38642 40174 53007 60001 70500 333 34102 70001
AAXX 02061 40719 11415 80000 10094 20086 30163 40152 53017 60001 71022 8662/ 333 31003 50061 70000 86710 88458
AAXX 02061 40731 11/01 90000 10013 20013 38729 40206 53014 60001 74744 333 32101 70031 89/03
AAXX 02061 40738 11930 30000 10080 20080 30155 40157 52011 60001 71042 83030 333 31101 50081 70000 83360
AAXX 02061 40740 12660 20000 10040 21010 38702 40155 53010 60001 82500 333 3/106 41001 70000 82640
AAXX 02061 40747 11650 20000 10030 20021 38616 40170 52012 60001 71010 82100 333 31101 70004 82840
AAXX 02061 40757 12662 60301 10026 21016 38888 40199 53011 60001 81502 333 30104 70000 81635 85070
AAXX 02061 40763 12665 40000 10074 21009 38908 40178 52009 60001 83430 333 31001 70014 83635
AAXX 02061 40782 12658 40000 10074 20044 38866 40178 52006 60001 71021 83530 333 5//// 70031 83635 84358
AAXX 02061 40783 12665 41205 10060 21010 37960 40156 53005 60001 84500 333 30104 5///1 70000 84640
AAXX 02061 40789 12965 00000 10082 21026 39199 40183 51012 60001 333 30001 50201 70000
AAXX 02061 40798 12660 11804 10074 21047 37951 40155 50001 60001 81400 333 31102 70010 81640
AAXX 02061 40818 12965 00000 10084 21038 37971 40136 52013 60001 333 30103 5///1 70000
AAXX 02061 40827 12970 10903 10094 21092 38845 40228 53012 60001 81030 333 30102 70000
AAXX 02061 40836 12965 02302 10084 21064 38205 40174 50004 60001 333 30104 5///1 70000
AAXX 02061 40851 12660 31204 10122 21096 38278 40151 51017 60001 81408 333 30004 5///1 70000 81640 83270
AAXX 02061 40853 12965 22402 10084 21110 37764 40168 53010 60001 82030 333 30101 5//// 70000 82360
AAXX 02061 40854 12960 22803 10218 21033 38929 40111 52012 60001 80001 333 30004 50261 70000 82070
AAXX 02061 40857 11560 71402 10210 20129 30157 40166 52017 69911 70262 84970 222// 00204 20301 333 31015 50231 70001 81930 83640 87360
AAXX 02061 40859 12960 40000 10090 21061 38734 40178 52015 60001 84030 333 30102 50261 70000 84360
AAXX 02061 40878 12965 10000 10129 21194 38856 40206 50008 60001 80001 333 30000 5//// 70000 81070
AAXX 02061 40879 NIL
AAXX 02061 40883 12960 00602 10206 20120 30158 40181 51016 60001 222// 00194 20600 333 30009 50411 70000
AAXX 02061 40898 12960 00000 10230 20098 30160 40169 52010 222// 00232 10600 333 30009 50531 70000
AAXX 02061 40703 11940 00000 11016 21024 38903 40201 53003 60001 71000 333 34108 70000
AAXX 02061 40712 11640 22702 11002 21018 38662 40200 52009 60001 71000 81102 333 34114 70000 81835
AAXX 02061 40729 11560 20000 10018 20004 38316 40176 53008 69901 70171 82600 333 3/105 70020 81720
AAXX 02061 40736 12960 00000 10104 20084 30162 40136 52010 60001 333 30003 50091 79999
AAXX 02061 40739 12962 00000 10040 21049 38670 40183 50007 60001 333 30104 70000
AAXX 02061 40743 12560 60503 10056 20018 39061 40192 53007 60001 85370 333 31101 70020 81930 84635
AAXX 02061 40762 11662 41202 10053 21002 38541 40183 53007 69901 70172 82530 333 30102 70002 82635
AAXX 02061 40768 11/04 90000 10002 20000 38244 40194 53009 60011 77047 333 32102 70012 89/15
AAXX 02061 40769 41558 50203 10048 20006 38277 40159 53006 60001 70511 83370 333 30000 5//// 70000 81930 82635 83360
AAXX 02061 40785 12960 60000 10042 21009 39071 40188 52012 60001 80006 333 30101 5///1 70000 86270
AAXX 02061 40809 12660 10000 10096 21032 38493 40161 52013 60001 81400 333 30102 70000
AAXX 02061 40821 11957 01202 10066 21033 38793 40192 51012 60001 70500 333 30103 5//// 70000
AAXX 02061 40831 11916 02906 10122 20086 30174 40182 52019 60001 70600 333 30009 50311 70000
AAXX 02061 45032 36/// /1802 10178 20097 30175 40192 57002
AAXX 02061 45035 36/// /0103 10185 20106 30148 40190 54000
AAXX 02061 45039 36/// /3502 10169 20105 30176 40192 57001
AAXX 02061 45044 36/// /1209 10182 20105 30094 40187 57004
AAXX 02061 01473 11460 80000 11012 21016 39707 49916 55006 69922 70252 887// 333 21022 47010 70020 91102
AAXX 02061 01494 11580 80401 10027 20024 39840 49904 55013 60132 75152 887// 333 20019 70215 91105
AAXX 02064 91943 36/// /1105 10267 20212 30150 40152 53024 333 20267 58003
AAXX 02064 91945 16/// /1102 10247 20231 30162 40167 53019 60181 555 58004 60274
AAXX 02061 01015 46/// /1614 10003 21053 333 21003 91125
AAXX 02061 01228 46/// /1406 10039 20003 39838 49845 57012 333 20039 91109
AAXX 02061 01340 16/// /0905 11003 21041 39028 49887 57007 69942 333 21025 70017 91110
AAXX 02061 01425 16/// /0201 10024 20021 39829 49908 53002 60052 333 20004 70127 91103
AAXX 02061 01450 16/// /1001 11031 21040 38768 49904 55003 60002 333 21038 70039 91107
AAXX 02061 01065 16/// /1506 11059 21089 39939 40106 55001 60002 333 21099 47029 70000 91113
AAXX 02061 01293 11865 81802 10003 21038 39675 49881 58013 60002 70222 8807/ 333 21028 70000 91105
AAXX 02061 01380 11165 81502 11041 21050 60022 70272 886// 333 21051 49040 70104 91106
AAXX 02061 01277 16/// /0903 10002 21031 60002 333 21002 70054 91108
AAXX 02061 01419 16/// /2203 10031 20024 60102 333 20026 70154 91108
AAXX 02061 01476 16/// /3202 10009 20000 39905 49911 53002 6//// 333 20009 91105
AAXX 02061 01092 46/// /1609 11022 21056 333 21026 91114
AAXX 02061 01199 11450 81510 11085 21102 39604 40086 50002 60002 73632 887// 333 21104 47033 70000 91115
AAXX 02061 01262 46/// /1214 10021 21006 333 20019 91117
AAXX 02061 01329 11345 83302 10027 20017 39821 49881 58006 60102 78082 888// 333 20024 70305 91108
AAXX 02061 01337 16/// /2301 10011 21000 39816 49882 55004 60052 333 20007 70161 91104
AAXX 02061 01436 11465 32308 10071 20053 60022 70282 82963 333 20066 70032 91115
BBXX 3ERR2 02064 99635 10053 41497 11923 10062 49824 57003 70182 81100 22200 06098 11106 70031 333 91131
BBXX LF3F 02064 99643 10078 43/// /1316 10059 20025 49838 57013 22200 04086 10806 70030 333 91118
BBXX LF3N 02064 99653 10073 41498 61520 10067 20041 49832 57007 70182 8//// 22200 00089 10706 70032
BBXX LF4B 02064 99606 10037 47/98 /2316 10061 49848 57005 723// 22200 00063 10706 70032 333 91128
AAXX 02064 48358 31958 20000 10285 20174 39966 40140 57036 70500 80001 333 59015
AAXX 02061 01265 16/// /2004 11012 21029 39323 49900 57011 69932 333 21065 70020 91107
AAXX 02061 01375 16/// /1502 11053 21058 6//// 333 21062 91104
AAXX 02061 01440 46/// /2107 11026 21030 38627 49896 57006 333 21033 91111
AAXX 02061 01469 16/// /0000 10003 21011 39741 49912 56010 60002 333 20001 70012 91103
BBXX 46207 02061 99509 71299 46/// /1614 10081 40027 52014 22200 00080 11213 70065 333 91218
AAXX 02063 87480 32960 00000 10178 20154 30094 40123 57012
AAXX 02063 87532 32970 03608 10242 20138 39938 40101 57011
AAXX 02064 87344 32965 03207 10214 20131 39594 40123 57012
AAXX 02064 87349 NIL
AAXX 02064 87371 32962 00000 10214 20169 30110 40132 57009
AAXX 02064 87374 32965 01603 10200 20144 30038 40123 58008
AAXX 02064 87395 NIL
AAXX 02064 87418 32965 00000 10273 20125 39318 40070 57009
AAXX 02064 87436 NIL
AAXX 02064 87448 32960 00206 10202 20149 39565 40103 57019 333
AAXX 02064 87453 NIL
AAXX 02064 87467 NIL
AAXX 02064 87497 NIL
AAXX 02064 87506 NIL
AAXX 02064 87509 32970 01404 10233 20114 39276 40083 58007
AAXX 02064 87534 32960 03602 10179 20124 39962 40119 57011
AAXX 02064 87548 32965 00206 10160 20104 30029 40123 57007
AAXX 02064 87576 32960 01101 10194 20175 30109 40132 57019
AAXX 02064 87582 32960 00705 10234 20189 30125 40132 57019
AAXX 02064 87585 NIL
AAXX 02061 22165 31598 20910 11081 21132 30199 40264 51007 70230 82500 333 21075 91114
AAXX 02061 22676 11374 81301 11021 21027 30139 40219 53008 69900 70272 886// 333 21030
AAXX 02061 22954 11450 80701 11033 21040 39929 40185 53009 60020 77172 8872/ 333 21044 86710
AAXX 02061 23405 11558 80102 11078 21100 30128 40232 52018 69920 77172 885// 333 21073 88620
AAXX 02061 23412 11496 83604 11124 21151 30127 40229 52019 60050 77172 8872/ 333 21102 86711
AAXX 02061 23803 31597 81301 11072 21081 30058 40245 52003 78582 889// 333 21067 88927
AAXX 02061 27066 11496 81402 11045 21058 30020 40203 52006 69970 77177 8672/ 333 21042 86710
AAXX 02061 27083 32999 80000 11070 21075 39989 40222 54000 8803/ 333 21066
AAXX 02061 27113 11250 80000 11030 21034 30021 40171 53011 60020 77187 8672/ 333 21029 86705
AAXX 02061 27242 32270 81402 11016 21018 30046 40177 52008 69900 889// 333 21022 88706
AAXX 02061 27329 32566 80502 11020 21041 30043 40171 52009 8555/ 333 21020
AAXX 02061 27355 11497 80701 11028 21032 30007 40175 53002 69960 72272 8872/ 333 21028
AAXX 02061 27373 11398 81104 11055 21069 39976 40202 53006 60010 70272 886// 333 21053 88707
AAXX 02061 27665 11396 81102 11024 21036 39882 40158 53004 60030 77172 8872/ 333 21018 86707
AAXX 02061 27835 11221 83602 11013 21018 39956 40116 54000 60050 77172 8872/ 333 21018 87705
AAXX 02061 28009 11957 80801 11083 21098 30021 40241 53002 69950 77172 8802/ 333 21086
AAXX 02061 28411 11597 80000 11075 21084 30024 40226 58007 69960 77172 8651/ 333 21095
AAXX 02061 28418 11562 80401 11071 21084 30055 40228 54000 69930 70272 885// 333 21072 88623
AAXX 02061 34560 11/08 91510 11017 21017 39958 40127 52004 69900 77175 333 21020 47001 93617 96045
AAXX 02061 34720 11599 62903 11003 21022 30136 40177 52020 60020 70272 86940 333 21004
AAXX 02061 34730 11496 82605 11004 21012 30073 40167 52022 60070 77187 8672/ 333 21006 86710
AAXX 02061 34740 12498 82705 11000 21022 30075 40173 51027 60030 887// 333 20002
AAXX 02061 34824 12597 83204 10015 21016 30203 40208 52021 60020 885// 333 20011
AAXX 02061 34858 11495 83005 10006 21008 30062 40171 52027 69900 77176 886// 333 20006
AAXX 02061 34866 12996 81704 11001 21001 30171 40162 52011 69950 8007/ 333 21005
AAXX 02061 34880 31496 80000 11006 21018 30196 40169 51013 71022 8672/ 333 21008 88411
AAXX 02061 37018 12698 20302 10024 21041 30151 40229 5//// 60120 82800 333 20022
AAXX 02061 37054 32598 82806 10009 21016 39804 40195 52030 885// 333 21015
AAXX 02061 37472 32597 73004 10028 21007 30183 40160 53042 85531 333 20044
AAXX 02061 22282 119// 01311 11076 21098 30249 40257 52012 60020 73730 333 21070
AAXX 02061 22438 NIL
AAXX 02061 22471 11584 81801 11074 21091 30198 40223 52010 69930 78582 8493/ 333 21080 84927
AAXX 02061 22563 31597 73401 11083 21089 30182 40222 52006 70242 885// 333 21076 87626
AAXX 02061 22641 11598 80000 11042 21047 30190 40206 52003 69900 78582 8495/ 333 21068 91103
AAXX 02061 22695 12398 82701 11030 21036 30064 40220 52007 69900 886// 333 21030 88707
AAXX 02061 22867 11497 80701 11035 21045 30071 40187 52005 60020 77172 8872/ 333 21034 88715 91103
AAXX 02061 22939 11496 80401 11034 21042 30009 40175 52008 60010 77072 8872/ 333 21064 84710
AAXX 02061 22996 11496 71601 11066 21078 30036 40234 52006 69900 71072 84530 333 21061
AAXX 02061 23324 11338 80204 11135 21155 30149 40232 52006 60040 77372 8872/ 333 21129 86707
AAXX 02061 27051 11497 80702 11038 21050 30021 40193 52013 60020 70272 8657/ 333 21034 84710
AAXX 02061 27225 11457 82001 11023 21032 40040 52008 60020 70272 885// 333 21026 88618
AAXX 02061 27252 11958 80702 11042 21044 39994 40185 52007 69900 77172 8802/ 333 21036
AAXX 02061 27333 11957 83602 11020 21023 30007 40168 52004 69900 71022 8807/ 333 21023 47005
AAXX 02061 27369 11659 81202 11042 21047 30045 40187 52005 60030 77172 8802/ 333 21039
AAXX 02061 27393 31997 80902 11083 21085 30053 40228 53003 71022 8805/ 333 21100
AAXX 02061 27479 11346 81203 11039 21041 30049 40187 53004 60010 77187 8872/ 333 21039 88706
AAXX 02061 27532 11295 80203 11020 21023 39937 40155 53002 69940 77172 8872/ 333 21038 86704
AAXX 02061 27648 11294 80901 11007 21010 39962 40132 53007 60170 77172 8872/ 333 21007 88706
AAXX 02061 27675 11597 81207 11021 21033 30003 40176 53006 69960 70272 885// 333 21026 88621
AAXX 02061 27679 32599 81404 11028 21041 39949 40177 53001 885// 333 21035 88621
AAXX 02061 28214 11699 80401 11082 21096 30019 40240 54000 69900 70272 885// 333 21110
AAXX 02064 78762 32970 00708 10206 20159 39094 40104 58006 333 10281 20196 30/// 58003
AAXX 02060 44210 32999 00000 11181 21222 38642 56021
AAXX 02060 44216 32999 00000 11286 21310 39187 40627 57007
AAXX 02060 44217 32998 00000 11194 21235 37948 40541 51002
AAXX 02060 44219 32998 01401 11231 21263 38764 40568 58012
AAXX 02060 44221 32998 00000 11260 21284 38737 40604 58008
AAXX 02060 44224 32998 00000 11258 21282 38159 40598 58007
AAXX 02060 44229 32999 22705 11216 21256 38016 40549 58001 82040
AAXX 02060 44242 32998 41401 11176 21216 39460 40456 57013 80002
AAXX 02060 44243 32999 30901 11261 21291 39555 40494 58014 82034
AAXX 02060 44254 32998 72903 11107 21208 39071 40295 58005 87010
AAXX 02060 44257 31998 73207 11125 21195 39017 40348 58009 73632 82079
AAXX 02060 44263 32998 00000 11227 21283 38152 40579 58013
AAXX 02060 44266 32999 00000 11180 21248 37847 40492 58007
AAXX 02060 44286 32998 02707 11183 21229 38756 40486 52001
AAXX 02060 44291 32598 23202 11160 21184 38832 40458 58010 82500
AAXX 02060 44325 32999 00901 11127 21188 38994 40470 58004
AAXX 02060 44329 32998 03605 11163 21243 37836 40470 58003
AAXX 02060 44338 41999 00000 11188 21221 38590 40502 58013 70171 555 81003 83006
AAXX 02060 44348 32997 03210 11170 21183 38754 40390 58018 333 91012
AAXX 02060 44374 32999 10204 11141 21190 38347 40478 58011 81040
AAXX 02060 44385 32999 33205 11102 21175 39021 40404 58018 80001 555 81000 82001
AAXX 02060 44386 32999 32706 11125 21168 39134 40374 57018 82040
AAXX 02064 41316 36/64 /1202 10249 20158 30156 40181 333 0E018 20185 59014
AAXX 02064 78762 32970 00708 10206 20159 39094 40104 58006 333 10281 20196 30/// 58003
AAXX 02064 78762 32970 00708 10206 20159 39094 40104 58006 333 10281 20196 30/// 58003
AAXX 02064 64500 32360 81810 10252 20235 30111 40124 845// 333 02350 20225 50201 55084 58006 84608 88633
AAXX 02063 64501 32360 51804 10250 20236 3//// 4//// 85500 333 0//00 20249 50254 55/// 5//// 83608 85630
AAXX 02063 64507 NIL
AAXX 02063 64510 NIL
AAXX 02063 64550 NIL
AAXX 02063 64551 NIL
AAXX 02063 64556 NIL
AAXX 02064 64570 31440 5//// 10220 20217 3//// 4//// 71022 82530 333 02100 2//// 50164 55/// 5//// 82610 85360
BBXX 46207 02061 99509 71299 46/// /1614 10081 40027 52014 22200 00080 11213 70065 333 91218
BBXX BATFR53 02064 99167 51249 46/// /0809 10252 20195 40186 53015 22222 00259
BBXX A8SF7 02061 99222 51345 41598 30905 10260 20182 40175 53010 70200 831// 22254 04240 20501 311// 41003 5//// 80210
BBXX DCAX2 02063 99250 51406 41697 20512 10270 20228 40170 54000 70300 82140 22233 2//// 3//// 4//// 5//// 80240
BBXX IDDUK02 02064 99540 50388 46/// ///// 40029 222//
BBXX FVNM 02064 99151 70826 46/// /0619 10274 20224 40156 58013 22200 00275
BBXX PCEO 02063 99209 70551 41498 20904 10240 20202 40204 57014 7//// 82100 22254 04256 20802 309// 40904 5//// 80214
BBXX PHQX 02063 99132 70691 41498 40911 10265 20215 40150 56010 70211 83162 22254 20603 309// 40904 5//// 80230
BBXX BATFR16 02064 99238 70536 44598 21121 10244 20194 40218 56011 70100 821// 22214 00259 21004 308// 41004 5////
BBXX BATEU04 02064 99594 70459 46/// /3040 11065 21136 49931 56015 22233
BBXX 41101 02064 99146 70562 46/// /0822 10261 20216 40136 57020 22200 00267 10806 70030 555 1/029
BBXX VRFO7 02064 99250 70525 41498 30516 10240 20194 40250 52010 70200 81141 22254 20302 333// 40604 80210
BBXX SHIP 02064 99390 70618 41398 21907 10145 20081 40173 55007 70022 82100 22224 04170 20301 80110
BBXX BATFR05 02064 99108 70172 46/// /0719 10245 20109 40138 55/// 22283 00257
BBXX BATFR08 02064 99306 30540 46/// /1010 10207 20139 40184 53010 22243 00232
BBXX BATFR19 02064 99067 30055 46/// /1712 10237 20194 40152 52018 22200 00254
BBXX BATFR55 02064 99203 30570 44998 20605 10274 20220 40127 70100 82051 22212 00280 206// 32626 410// 510//
BBXX A8CS2 02063 99138 10547 41498 33418 10240 20210 40170 52010 70311 82147 22224 20803 307// 40702 5//// 80220
BBXX C6JE5 02063 99318 50111 41597 52711 10210 20178 40222 54000 70211 8/36/ 22263 04220 2//// 3//// 4//// 5//// 80190
BBXX PCSV 02063 99254 30011 41598 62108 10188 20129 40205 52/// 70311 86500 22273 04194 20501 323// 41003 80152
BBXX DMQN 02064 99057 50331 41/98 /0916 10248 20228 40125 54000 70000 8//// 22244 04280 20503 3//// 4//// 5//// 80234
BBXX DGLM 02064 99060 10023 41797 12409 10265 20251 40132 52012 70511 8/407 22200 2//01 80255
BBXX A8RV9 02064 99209 50126 41598 40814 10215 20169 40170 58010 70300 8/87/ 22234 20802 321// 41002 5//// 80185
BBXX 2ALE5 02063 99114 70172 41697 30514 10225 20108 40141 55005 70200 835// 22243 20406 80160
BBXX V7OX3 02061 99353 50157 41/97 /2308 10180 20127 40210 54000 703// 8/1// 22223 3//// 4//// 5//// 80150
AAXX 02064 60764 13962 01207 10030 20002 30240 40294 53006 60004 333 20029
AAXX 02064 64400 32457 71006 10242 20229 30124 40143 8117/ 333 02000 20228 50164 55048 58012 81810 87362
AAXX 02063 64401 32460 61802 10225 20210 39762 40136 83530 333 01900 20210 50184 55001 58012 83616 85363
AAXX 02064 64450 32460 72202 10225 20213 39778 40132 878// 333 02000 20221 50174 55020 58009 81813 87630 94901 95811
AAXX 02064 64453 NIL
AAXX 02063 64456 31460 61804 10234 20225 39/// 40/// 71799 84930 333 0//00 20225 50200 55085 5//// 84613 81926 94946 95836
AAXX 02063 64458 32457 80000 10233 20221 39718 40103 8357/ 333 0//00 20222 50204 55/// 59004 83610 88360
AAXX 02063 64459 11340 60000 10220 20213 39768 40129 60374 71092 82973 333 02056 20216 50224 55/// 58005 81806 81930 84360 85080 94945 95815
AAXX 02063 64460 NIL
AAXX 02064 60395 NIL
AAXX 02064 60421 NIL
AAXX 02064 60423 11965 00000 10069 20053 39277 48541 58003 60004 700// 333 0//00 20050 95990
AAXX 02064 60430 11965 02812 10103 20021 40277 55003 60004 700// 333 00400 20087 95990
AAXX 02064 60437 11960 02206 10074 20019 39050 48549 58000 60004 700// 333 00300 20064 95990
AAXX 02064 60444 12960 00000 10039 20029 39162 48566 56007 60004 333 00100 20024 95990
AAXX 02064 60452 12965 0//// 10120 20067 40270 55003 60004 222// 20000 333 00000 20113 91826
AAXX 02064 60457 12960 00000 10084 20053 40275 56002 60004 333 05000 20036 95990
AAXX 02064 60514 11960 00000 10026 20016 39368 48579 53006 60004 700// 333 05200 20021 95990
AAXX 02064 60518 11965 02408 10115 20044 40273 52003 60004 700// 222// 20000 333 00400 20113 91807 95990
AAXX 02064 60520 11960 01906 10050 20012 40293 55000 60004 700// 333 05200 20014 95990
AAXX 02064 60540 11960 00000 10017 21003 39099 48550 5//// 60004 700// 333 05100 20014 95990
AAXX 02064 60560 11960 00000 10010 21003 39052 48588 54001 60004 700// 333 05100 20009 95990
AAXX 02064 08141 11460 52611 10064 20050 39383 40254 53007 69952 72152 83770 333 20052 31004 55000 70009
AAXX 02064 60607 12960 00610 10054 21052 40282 53003 60004 333 0//00 20050
AAXX 02061 60370 36/// /2303 10107 20051 333 20102
AAXX 02061 60371 36/// /1802 10116 20048 333 20096
AAXX 02061 60372 36/// /2605 10119 20030 333 20104
AAXX 02061 60373 NIL
AAXX 02061 60374 NIL
AAXX 02061 60376 NIL
AAXX 02061 60379 NIL
AAXX 02061 60380 NIL
AAXX 02061 60381 NIL
AAXX 02061 60393 NIL
AAXX 02061 60394 NIL
AAXX 02061 60593 NIL
AAXX 02061 60595 NIL
AAXX 02061 60605 NIL
AAXX 02061 60613 NIL
AAXX 02061 60623 NIL
AAXX 02064 60624 36/// /0000 10080 21066 333 20079
AAXX 02064 60639 NIL
AAXX 02064 60645 36/// /0000 10090 21052 333 20080
AAXX 02064 61401 NIL
AAXX 02064 61404 32960 51206 10106 21008 39843 40248 80002 333 0//00 20106 5//// 55/// 58004 85073
AAXX 02064 61415 32960 60112 10153 20031 30231 40236 86070 333 20153 50884 55/// 59007 86463
AAXX 02064 61421 NIL
AAXX 02064 61437 NIL
AAXX 02064 61442 32956 70307 10163 21067 30194 40198 85082 333 020// 20163 5///4 59006 85363 84073
AAXX 02064 61450 NIL
AAXX 02064 61461 NIL
AAXX 02064 61489 NIL
AAXX 02064 61492 NIL
AAXX 02064 61497 NIL
AAXX 02064 61498 31950 30406 10150 20069 30036 40171 705// 80001 333 0//00 20150 5//// 55/// 59010 82073
AAXX 02064 61499 NIL
AAXX 02064 61510 NIL
AAXX 02064 60353 11970 21806 10096 20084 40252 56006 60004 700// 80002 333 00500 20084 82070 91838 95990
AAXX 02064 60367 11560 0//// 10081 20067 40255 53006 60004 700// 333 20071
AAXX 02064 60369 NIL
AAXX 02064 60401 NIL
AAXX 02064 60403 11960 20000 10038 20031 40269 55005 60004 700// 80002 333 00000 20037 82075 95990
AAXX 02064 60425 12970 00405 10073 20053 40287 55000 60004 333 00100 20056 95990
AAXX 02064 60461 13970 21612 10120 20055 40280 51001 60004 700// 80002 222// 20001 333 20115 82073 91838 95990
AAXX 02064 60467 11960 03606 10023 20023 40297 56001 60004 700// 333 00000 20018 95990
AAXX 02064 60492 11960 00000 10055 20045 40281 56001 60004 700// 333 00200 20044 95990
AAXX 02064 60515 NIL
AAXX 02064 60517 11960 01404 10081 20048 40295 53007 60004 700// 333 0//00 20081 95990
AAXX 02064 60522 11970 00000 10048 20010 40308 5//// 60004 700// 333 05200 20038 95990
AAXX 02064 60557 11965 00000 10006 20001 38957 48591 55001 60004 700// 333 05200 20003 95990
AAXX 02064 60563 12960 00000 10037 20000 39390 48581 51004 60004 333 05300 20020
AAXX 02064 60603 12960 00000 10034 21026 40320 54001 60004 333 0//00 20030
AAXX 02064 60638 12960 00706 10025 21050 40302 53004 60004 333 05200 20020
AAXX 02064 60686 NIL
AAXX 02061 14235 12960 0//// 10005 21014 39028 48475 56009 60002 333 20005 44015
AAXX 02061 14246 12975 22404 10065 20005 39977 40183 56009 60002 80001 333 20015 31101 79999
AAXX 02061 14314 12670 61204 10100 20049 30169 40234 55005 60002 83870 333 20076 31002 70000 92312 92428
AAXX 02061 14323 12981 51201 10061 20035 30203 40238 56002 60002 82032 333 20052 31001 92311 92418
AAXX 02061 14324 12470 82707 11012 21043 38430 48531 58007 60002 885// 333 21024 3/103 44032 70000
AAXX 02061 14328 12580 11201 10083 20002 39806 40202 56003 60002 81502 333 20003 3/101 42004
AAXX 02061 14330 12565 20901 11067 21075 39555 40263 55003 60002 82201 333 21073 3/109 43007 70000 92842
AAXX 02061 14438 12682 50000 10038 20005 30150 40245 53001 60002 85800 222// 00150 333 20031 34102 92300 92601
AAXX 02061 14443 32698 114// 10112 20090 30145 40241 57008 81100 333 20101 92312
AAXX 02061 14447 12984 00703 10087 20029 30216 40247 53/// 60002 222// 00151 333 20060 31005 92311
AAXX 02061 14472 12980 03302 10062 21035 30170 40237 55000 60002 222// 00155 333 20058 30/// 92312
BBXX BAREU08 02064 99375 70294 46/// ///// 40305 57021 22254
BBXX BATFR32 02064 99432 10053 46/// /1720 10135 20110 40175 58035 7//// 8//// 22273 00144
BBXX BAREU11 02064 99527 10032 46/// ///// 40027 52020 22253
BBXX BAREU00 02064 99514 70070 46/// ///// 40038 52027 22253
BBXX BATFR33 02064 99411 10068 46/// /2021 10152 20122 40216 56024 22283 00152
BBXX BATFR31 02064 99419 10087 46/// /0509 10132 20124 40224 53005 22213 00154
BBXX BATFR46 02064 99366 70035 46/// /2817 10155 20097 40259 53013 22263 00160
BBXX BATFR21 02064 99433 10053 46/// /1117 40178 56034 22232
BBXX BATFR24 02064 99429 10095 46/// /2104 10134 20094 40221 53001 22244 00145
BBXX BATEU05 02064 99664 70236 46/// /0324 11035 49706 51024 22253
BBXX BATEU08 02064 99578 10104 46/// /2420 10069 20057 49923 53006 22223
BBXX BATEU01 02064 99439 70310 44597 71914 10145 20104 40156 58049 70222 84313 22263 00149 21006 324// 41608 5////
BBXX BATFR27 02064 99503 70016 46/// /2720 10109 20039 40066 55001 22213 00117
BBXX BATFR20 02064 99431 10054 46/// ///// 10134 20117 40185 58024 22274
BBXX 61001 02064 99434 10078 46/// /2304 10132 20109 40202 57012 22200 00136 10601 70007
BBXX A8VL5 02064 99514 10027 41397 82719 10080 20080 40160 54000 70222 880// 22200 00100 20202 30000 80080
BBXX BATUK01 02064 99560 70032 46/// /2506 10027 21013 49910 58001 22200 00059
BBXX 61002 02064 99421 10047 46/// /0000 10143 2//// 40174 57014 22200 00133 10604 70019
AAXX 02061 08501 32/// /1806 10162 20132 30235 40271 57022 333 20108 30007 5//// 55065 20902 91010 91110 555 60005
AAXX 02061 08505 NIL
AAXX 02061 08506 32/// /2007 10148 20129 30233 40306 57018 333 20126 30013 5//// 55069 20878 91010 91113 555 60005
AAXX 02061 08509 32360 41505 10151 20124 30239 40304 57020 84800 333 20102 50144 55059 81709 91109 555 60007
AAXX 02061 08511 32/// /2601 10146 20121 30200 40309 57015 333 20116 30008 5//// 55024 25070 555 60005
AAXX 02061 08512 11475 61801 10152 20131 30232 40317 57011 69902 72522 86800 333 20119 30011 5//// 55050 20813 82816 85630 91107 555 69905
AAXX 02061 08515 32475 71603 10163 20152 30202 40327 57010 878// 333 20160 3001450174 55/// 82813 87633 910// 911// 555 60007 912//
AAXX 02061 08521 32470 40203 10154 20093 30265 40336 51002 84800 333 20148 30/// 55007 83818 555 60007
AAXX 02061 08522 32/// /9902 10136 20076 30264 40335 54000 333 20136 30010 5//// 55030 20573 555 60005
AAXX 02061 08524 32470 70102 10151 20108 30237 40337 54000 87800 333 20121 30009 5//// 55003 20502 82815 87630 555 60005
AAXX 02061 08530 NIL
AAXX 02061 08531 NIL
AAXX 02061 08532 NIL
AAXX 02061 08533 12/// /2903 10149 20137 30281 40310 57002 69912 333 20146 30012 5//// 55046 20735 91106 555 60005
AAXX 02060 08534 11470 33203 10104 20097 30282 40300 52007 69942 70152 83800 333 20104 40104 55002 81818 555 60007
AAXX 02060 08535 NIL
AAXX 02060 08537 NIL
AAXX 02061 08540 11360 83004 10124 20106 30229 40299 53014 60052 70382 8727/ 333 20096 50144 55007 83709 86630 555 69917
AAXX 02061 08541 12/// /3204 10129 20119 30187 40308 52005 69982 333 20124 30010 5//// 55004 20460 91108 555 60005
AAXX 02061 08544 12460 43304 10132 20066 30268 40288 52013 60112 83830 333 20126 50224 55002 91007 91108 555 60007
AAXX 02061 08545 11565 72804 10123 20048 30207 40291 52014 60182 70222 83532 333 20114 32009 50144 55005 20316 83630 86675 91007 91108 555 60005
AAXX 02061 08548 12/// /2902 10105 20085 30089 40298 52007 60052 333 20100 30005 5//// 55011 20418 91106 555 60005
AAXX 02061 08551 NIL
AAXX 02061 08554 31565 70000 10119 20090 30301 40311 56005 70222 878// 333 20117 30010 5//// 55086 21124 81825 86630 555 60005
AAXX 02061 08558 12/// /2403 10099 20099 30002 40301 52004 60022 333 20071 30002 5//// 55000 20420 555 60005
AAXX 02061 08560 12/// /2602 10066 20053 39521 40294 52009 60072 333 20065 30005 5//// 55015 20456 91105 555 60005
AAXX 02061 08561 NIL
AAXX 02061 08562 12/// /2603 10103 20098 30004 40303 52002 69922 333 20100 30008 5//// 55008 20453 91106 555 69915
AAXX 02061 08567 12/// /2005 10080 20041 39608 40282 52019 60072 333 20079 30007 5//// 55033 20539 91008 91110 555 60005
AAXX 02061 08568 12/// /3017 10018 2//// 38686 48553 57003 60212 333 20017 30001 5//// 55077 21217 555 60005
AAXX 02061 08570 12/// /2704 10092 20062 39822 40288 52008 69922 333 20085 30007 5//// 55061 20782 91007 91107 555 60005
AAXX 02061 08571 12/// /3105 10081 20081 39582 40297 52002 60012 333 20077 30008 5//// 55027 20544 91009 91109 555 60005
AAXX 02061 08575 12/// /2906 10057 20036 39444 40270 52012 60072 333 20057 31004 5//// 55002 20309 91011 91112 555 69915
AAXX 02061 08579 12/// /2401 10121 20099 30176 40303 52009 69912 333 20121 30010 5//// 55005 20414 91105 555 60005
AAXX 02064 04048 41420 80406 10002 21015 49644 52026 78588 889// 555 3/613
AAXX 02061 01218 16/// /1406 10071 21040 39835 49856 57008 60002 333 20062 70000 91114
AAXX 02061 01447 16/// /0000 11018 21019 39244 49913 58003 69932 333 21034 70021 91100
AAXX 02064 86330 32998 01110 10198 20158 40105 58006
AAXX 02064 86360 NIL
AAXX 02064 86460 NIL
AAXX 02064 86490 NIL
AAXX 02064 86530 NIL
AAXX 02064 86545 32997 00706 10160 20143 40148 52///
AAXX 02064 86565 31996 00000 10155 20146 40128 57020 71000
AAXX 02064 86580 32997 00000 10198 20180 40126 57025
AAXX 02061 50844 32962 72201 11103 21187 40281 57014 80002 333 21229
AAXX 02061 50854 32965 72202 11112 21189 40290 57015 80002 333 21235
AAXX 02061 50968 32962 22201 11142 21211 40307 57017 80002 333 21273
AAXX 02061 51379 NIL
AAXX 02061 51467 32980 00901 11100 21192 38278 57021 333 05354 21193
AAXX 02061 51495 32980 02003 11041 21163 40415 57011 333 05100 21124
AAXX 02061 53480 32980 02909 11110 21222 40350 57014 333 21151
AAXX 02061 53673 32680 13204 11031 21161 40326 57015 81100 333 21107
AAXX 02061 53698 31911 72001 11011 21021 40269 57022 71040 80002 333 21074
AAXX 02061 53898 31918 70702 11001 21026 40266 57020 71000 8703/ 333 21050
AAXX 02061 54308 32980 03612 11071 21210 40296 57007 333 21146 91118 91536
AAXX 02061 54602 31950 80201 10001 21074 40269 57019 71000 80007 333 21105
AAXX 02061 54725 11930 82902 11029 21034 40268 57023 69911 77070 8802/ 333 21064
AAXX 02061 54751 32965 72502 11004 21074 40262 57027 80002 333 21038
AAXX 02061 54916 31958 82202 10000 21025 40274 57029 71000 8802/ 333 21053
AAXX 02061 57014 32980 60901 10041 21137 40283 57043 86030 333 05100 21030
AAXX 02061 57025 32964 22003 10057 21144 40303 57042 80002 333 21049
AAXX 02061 57046 32964 22705 11078 21132 37956 57022 82030 333 05258 21103
AAXX 02061 58208 31956 83601 10034 20001 40270 57036 71000 8807/ 333 21001
AAXX 02061 38725 42999 80000 11033 21228 48500 58003 80002
AAXX 02061 48830 31740 83603 10122 20094 39876 40193 57035 71022 885// 333 59021 88697
AAXX 02061 48808 01440 80000 10120 20112 39905 40198 57033 60023 76066 888// 333 59019 60011 83894 88696 9601 0 96160
AAXX 02064 89022 46/// /0604 11059 21064 39846 49884 57013
AAXX 02064 89062 46/// /0911 10012 21054 39833 49873 57005 333 55078
AAXX 02064 87078 NIL
AAXX 02064 87244 NIL
AAXX 02064 87393 32970 01405 10215 20172 30048 40109 58007
AAXX 02064 87416 32965 00000 10246 20139 39369 40075 58004
AAXX 02064 87563 NIL
AAXX 02064 87640 NIL
AAXX 02064 87688 NIL
AAXX 02064 87774 NIL
AAXX 02064 87852 NIL
AAXX 02064 87896 NIL
AAXX 02063 NIL
AAXX 02063 87016 32960 02304 10232 20198 39087 40087 58005
AAXX 02061 34357 11395 81505 11008 21008 39929 40086 57003 60030 77387 8872/ 333 21015
AAXX 02061 34363 31/93 91406 11027 21027 39998 40154 54001 74942 333 21025 93608
AAXX 02061 34545 11398 82807 10001 21004 30006 40119 52025 60060 70372 886// 333 21007
AAXX 02061 34579 31596 81202 11018 21019 30120 40166 51006 71022 8850/ 333 21028
AAXX 02061 34838 32697 80203 11001 21023 30100 40199 52023 885// 333 21001
AAXX 02061 34927 12597 72402 10013 21013 30185 40223 51021 60080 87500 333 20005
AAXX 02061 34949 12498 82805 11025 21041 39637 40199 52030 69960 8597/ 333 21020 43003 85912
AAXX 02061 37001 12597 63103 10023 21045 30192 40233 52023 60030 86500 333 20021
AAXX 02061 37031 11597 82806 11003 21019 30008 40208 52026 60020 70382 889// 333 20001
AAXX 02061 37061 31496 83004 10007 20000 30010 40179 53026 78582 883// 333 20008
AAXX 02061 37085 12598 70102 10025 20010 30196 40223 53029 69900 87500 333 20014
AAXX 02061 37107 11597 82801 10008 20008 39514 40204 52019 60150 72884 86481 333 20001
AAXX 02061 37126 31/92 93205 11090 21090 37864 48451 53009 74942 333 21083 42001
AAXX 02061 37171 11597 52908 10046 20004 30190 40209 52031 60150 70182 82930 333 20035
AAXX 02061 37228 31496 82802 11005 21021 39341 40191 51036 71022 886// 333 21061
AAXX 02061 37470 32598 71903 10049 21002 30160 40138 53009 85530 333 20039
AAXX 02061 37663 32999 03103 10063 21089 38944 48429 52007 333 21034
AAXX 02061 23914 11998 70901 11102 21111 39984 40256 53005 69920 70172 87070 333 21102
AAXX 02061 23921 32680 73401 11136 21149 30126 40253 53008 82501 333 21106
AAXX 02061 23955 41698 52202 11157 21172 30200 40266 52005 77172 82501
AAXX 02061 23966 41497 82203 11102 21124 30119 40251 57003 72682 84901
AAXX 02061 28138 32999 80201 11112 21122 39655 40253 52001 8802/ 333 21123
AAXX 02061 28224 11397 80000 11081 21087 30014 40237 52001 69910 77775 887// 333 21086
AAXX 02061 28255 31558 81601 11115 21123 30131 40268 52006 71022 885// 333 21123 88627
AAXX 02061 28440 32599 81403 11111 21130 39887 40255 53002 85507 333 21098
AAXX 02061 28645 32568 81801 11122 21128 39942 40254 57004 87500 333 21117
AAXX 02061 28661 32999 80802 11158 21172 30176 40275 57007 84031 333 21166
AAXX 02061 28722 12997 62501 11155 21161 30069 40209 57006 69920 81031 333 21141
AAXX 02061 28748 32960 80000 11139 21159 39998 40254 57002 8807/ 333 21140
AAXX 02061 28838 11997 80401 11131 21131 39741 40246 57002 69900 70272 8807/ 333 21148
AAXX 02061 29231 42998 61602 11125 21160 30197 40300 57003 80001
AAXX 02061 29313 42998 82002 11148 21170 30184 40315 57002 80002
AAXX 02061 29612 42998 21801 11177 21189 30188 40353 57001 80001
AAXX 02061 29638 41979 61603 11133 21153 30193 40371 57002 70282 80001
AAXX 02061 29838 42997 00000 11180 21199 30120 40374 57015
AAXX 02061 29846 41933 22301 11112 21118 39969 40376 57011 71040 80001
AAXX 02061 36061 42999 00000 11156 21189 39943 40382 57017
AAXX 02061 28049 32999 81602 11121 21131 30081 40255 51008 86015 333 21133
AAXX 02061 28144 32599 80201 11120 21132 30086 40253 52003 82538 333 21174
AAXX 02061 28319 11496 80502 11078 21092 30062 40234 57003 69920 77177 8802/ 333 21080
AAXX 02061 28321 11496 83301 11081 21087 30021 40232 57004 69930 71072 8802/ 333 21088
AAXX 02061 28334 11498 80502 11087 21098 39921 40239 57004 69900 70272 8751/ 333 21085
AAXX 02061 28434 32599 83102 11066 21087 39956 40222 57012 885// 333 21079 88632
AAXX 02061 28552 32597 80902 11150 21166 30150 40271 54000 85502 333 21139
AAXX 02061 28666 32998 71102 11161 21182 30098 40286 57005 80002 333 21171
AAXX 02061 28825 32998 50000 11147 21156 30026 40209 57002 85030 333 21143
AAXX 02061 29111 42499 82303 11141 21166 30200 40293 52005 889// 333 88913
AAXX 02061 29209 42998 81603 11161 21174 30175 40311 53001 80002
AAXX 02061 29551 42497 81903 11092 21127 30171 40362 56007 83301
AAXX 02061 29602 42999 81502 11185 21204 30186 40339 57005 80002
AAXX 02061 29636 41599 31201 11110 21116 30133 40364 57009 70281 83300
AAXX 02061 29654 42699 51802 11077 21122 39728 40365 57007 82571
AAXX 02061 29712 42998 21502 11161 21175 30195 40350 57012 82002
AAXX 02061 29724 42998 30901 11175 21194 30148 40368 57008 80001
AAXX 02061 29726 41996 53201 11163 21189 30193 40374 57004 71011 80008
AAXX 02061 29814 42999 21103 11168 21187 30196 40355 57013 80001
AAXX 02061 29827 42998 20701 11162 21181 30195 40361 58016 80005
AAXX 02061 29923 41996 10000 11195 21214 30078 40379 57013 71040 80001
AAXX 02061 29939 42998 20801 11127 21140 30066 40368 57010 80001
AAXX 02061 35026 32597 40902 11136 21160 39548 40221 57004 84500 333 21147
AAXX 02061 36021 42999 21703 11153 21166 30162 40356 57009 80001
AAXX 02061 36022 42998 20202 11170 21182 30079 40362 58016 80001
AAXX 02061 36038 42999 00000 11143 21163 39890 40361 58013
AAXX 02061 36058 42999 01004 11103 21147 39837 40386 58017
AAXX 02061 36064 41999 00708 11038 21130 39773 40384 58016 70230
AAXX 02061 36229 42999 00000 11195 21214 39193 40470 58014
AAXX 02061 36259 42999 00000 11228 21261 38349 48631 58018
AAXX 02061 23909 11296 81101 11099 21108 39987 40248 52004 69900 77172 886// 333 21101
AAXX 02061 28044 32597 80000 11080 21099 30079 40249 52006 885// 333 21121
AAXX 02061 28116 11596 80000 11098 21110 30004 40248 58002 69900 77172 8557/ 333 21107
AAXX 02061 28240 32598 81101 11101 21111 39915 40255 54000 885// 333 21113
AAXX 02061 28522 11998 80202 11069 21084 39948 40215 57008 69900 70272 8807/ 333 21073
AAXX 02061 28621 11998 70502 11064 21084 39966 40206 57004 69900 70272 86032 333 21073
AAXX 02061 28719 11598 709// 11087 21098 39754 40210 57003 69920 70272 87500 333 21085
AAXX 02061 29023 41997 82101 11128 21147 30171 40274 52005 77172 8801/
AAXX 02061 29122 41497 72203 11130 21157 30210 40287 54000 78582 84332 333 84912
AAXX 02061 29328 42998 82104 11124 21156 30180 40328 57011 80002
AAXX 02061 29348 41997 71903 11100 21122 30190 40342 56004 70283 82036
AAXX 02061 29405 42997 31802 11176 21202 30170 40329 57004 82031
AAXX 02061 29418 42998 31803 11176 21202 30168 40341 58005 80001
AAXX 02061 29430 41598 82301 11097 21114 30162 40347 57007 8255/
AAXX 02061 29524 42998 32002 11147 21167 30175 40351 57009 80001
AAXX 02061 29605 42998 81601 11175 21187 30175 40328 57006 80001
AAXX 02061 29631 42997 62003 11117 21130 30161 40358 57007 80001
AAXX 02061 29645 41996 30000 11131 21151 30177 40376 57005 70411 81041
AAXX 02061 29706 42998 81702 11160 21179 30187 40346 57006 80001
AAXX 02061 29736 41997 51901 11162 21175 30116 40386 57002 70274 80001
AAXX 02061 29937 41996 00201 11165 21184 30132 40371 57009 71011
AAXX 02061 36034 42997 20501 11164 21183 30069 40366 57009 80009
AAXX 02061 36096 41996 60000 11254 21278 39676 40549 58009 71022 82031 333 95090
AAXX 02064 87593 NIL
AAXX 02064 87623 32980 01403 10233 20154 39902 40117 52015
AAXX 02064 87641 32965 00208 10160 20153 39968 40138 58001
AAXX 02064 87645 32965 00000 10148 20134 39938 40139 57004
AAXX 02064 87648 32960 00000 10180 20172 30122 40132 57013
AAXX 02064 87692 NIL
AAXX 02064 87715 32965 01108 10245 20063 39834 40136 52017
AAXX 02064 87750 NIL
AAXX 02064 87765 32960 02004 10102 20023 39232 48538 54000 333 96120
AAXX 02064 87784 NIL
AAXX 02064 87791 NIL
AAXX 02064 87800 NIL
AAXX 02064 87803 32980 00000 10127 20009 39269 40169 57009
AAXX 02064 87828 32980 00000 10122 20099 30134 40185 54000
AAXX 02064 87860 31970 21402 10124 20084 30096 40151 54000 71000 80006 333 56006 82270
AAXX 02064 87904 NIL
AAXX 02064 87909 NIL
AAXX 02064 87925 32580 72709 10128 20024 30089 40112 56008 83546 333 56000 57300 83625 83270
AAXX 02064 87938 NIL
AAXX 02064 60692 36/// /0422 10127 21034 333 20126
AAXX 02064 60662 36/// /0000 10037 21035 333 20037
AAXX 02064 60667 36/// /0000 11001 21070 333 21001
AAXX 02064 71079 12574 63405 11216 21263 30069 40367 51017 60001 86500 333 11117 21216 70006 555 10010 20006 33219 40120
AAXX 02064 60677 36/// /0000 11014 21069 333 21015
AAXX 02061 13463 32970 00000 11014 21040 30208 40270 53005 333 21015 33106 55055
AAXX 02061 13459 32970 00201 11044 21044 39490 40296 54000 333 21050 37110 47002 55086
AAXX 02061 13461 32970 00902 10041 21017 30258 40265 53005 333 20036 31101 55078 92311 92418 92511
AAXX 02061 13363 NIL
AAXX 02064 60633 36/// /0307 10085 21133 333 20085
AAXX 02064 60691 36/// /0415 10108 21061 333 20108
AAXX 02064 71503 46/// /0618 11198 21223 39843 40127 58061 6///1 333 11198 21341 7//// 555 30527 40061
AAXX 02064 71506 46/// /0844 11182 21216 39016 49904 56056 6///1 333 11138 21240 7//// 555 30967 40043
AAXX 02064 71514 16/// /0000 11183 21205 39661 40402 58007 60001 333 11075 21204 70000 555 33028 40082
AAXX 02064 71539 16/// /2205 11133 21168 39671 40403 55010 60001 333 11051 21168 70000 555 32928 40072
AAXX 02064 71228 16/// /1310 11122 21150 60001 333 11050 21194 7////
AAXX 02064 71320 16/// /3010 11365 21401 30132 40132 53001 60001 333 11348 21370 70000 555 33120 40191
AAXX 02064 71340 16/// /1111 11086 21119 60001 333 11085 21203 70000
AAXX 02064 71341 16/// /0000 10032 21053 60001 333 10035 21134 70000
AAXX 02064 71342 17/// /1613 11091 21133 60021 7//4/ 333 11038 21137 70027 555 32818 40071
AAXX 02064 71344 16/// /1412 11093 21107 60001 333 11071 21143 70000 555 31518 40201
AAXX 02064 71347 46/// /1014 11061 21135 6///1 333 7////
AAXX 02064 71348 16/// /0706 11050 21124 60001 333 11050 21197 7////
AAXX 02064 71349 16/// ///// 11148 21190 60001 333 11063 21189 70004
AAXX 02064 71374 46/// /0306 11061 21077 6///1 333 11038 21079 7//// 555 30435 40123
AAXX 02064 71387 17/// /1808 10006 21008 39562 49933 58042 60021 7//4/ 333 10007 21121 70003
AAXX 02064 60650 36/// /0000 10048 21077 333 20039
AAXX 02064 60661 36/// /0207 10022 21079 333 20020
AAXX 02064 60672 36/// /0000 10022 21132 333 20021
AAXX 02064 71421 16/// ///// 11146 21160 39368 40098 56025 60001 333 11101 21258 70000
AAXX 02064 71435 16/// /2713 11136 21160 39570 40181 51019 60001 333 11027 21136 70003 555 32726 40001
AAXX 02064 60676 36/// /3610 10056 21005 333 20054
AAXX 02064 60660 36/// /1602 10091 21108 333 20082
AAXX 02064 71976 46/// /0611 11180 21200 39410 40052 58009 6///1 333 11179 21203 7////
AAXX 02064 71269 16/// /1203 11114 21129 60001 333 11019 21127 70000
AAXX 02064 71270 16/// /2613 10003 21027 39780 49997 50002 60001 333 10059 20003 70039 555 31528 40152
AAXX 02064 71285 46/// /1312 11116 21142 6///1 333 11091 21195 7////
AAXX 02064 71151 16/// /3313 11117 21153 39746 40270 51016 60001 333 11034 21117 70000 555 33131 40172
AAXX 02064 71155 16/// ///// 11079 21093 60001 333 11057 21215 70000 555 10010
AAXX 02064 71156 16/// /2601 11124 21176 39104 40248 57034 60001 333 11114 21250 70000
AAXX 02064 71186 46/// /0828 11029 21056 6///1 333 11028 21102 7//// 555 30841 40013
AAXX 02064 71190 46/// /1215 11006 21014 6///1 333 11005 21047 7//// 555 32622 40081
AAXX 02064 71903 47/// /2422 10062 20049 39878 49926 6///1 7//4/ 333 7////
AAXX 02064 71107 16/// /2319 10073 20069 39905 40016 51024 60001 333 10077 20048 7////
AAXX 02064 71479 16/// /1254 10100 20031 39917 40036 58001 60001 333 10105 20045 7////
AAXX 02064 71480 16/// /1223 11125 21156 39891 40016 58087 60001 333 11125 21376 70000 555 31038 40063
AAXX 02064 71550 16/// /2505 11135 21158 39979 40372 51009 60001 333 11028 21164 70000 555 33225 40091
AAXX 02064 71840 46/// /3314 11098 21128 6///1 333 11019 21102 7//// 555 33439 40163
AAXX 02064 71832 16/// /2712 11100 21112 39696 40024 53011 60001 333 11010 21101 70000 555 10140 32729 40012
AAXX 02064 60679 36/// /0223 10005 21339 333 20001
AAXX 02064 71063 16/// /2113 10034 20004 39857 49953 55000 60001 333 10048 21038 70015 555 31921 40051
AAXX 02064 71737 17/// /1805 10017 20008 39397 49908 56034 60021 7//4/ 333 10017 21046 70032 555 10020 20032
AAXX 02064 71743 16/// /0812 11125 21143 39748 49968 58033 60001 333 11125 21190 70003
AAXX 02064 71748 16/// /3414 11118 21159 30039 40342 51026 60001 333 11017 21123 70000 555 33435 40193
AAXX 02064 71752 16/// /2614 10008 21037 39831 40046 50000 60001 333 10086 20008 70040 555 10010 20040
AAXX 02061 89064 36/// /0500 10023 29078 49883 57008
AAXX 02064 64500 32360 81810 10252 20235 30111 40124 845// 333 02350 20225 50201 55084 58006 84608 88633
AAXX 02064 64501 32360 51804 10250 20236 3//// 4//// 85500 333 0//00 20249 50254 55/// 5//// 83608 85630
AAXX 02064 64550 32460 6//// 10235 20222 30/// 40/// 86500 333 0//00 20230 50114 55/// 5//// 83610 86623
AAXX 02064 64551 32358 70000 10235 20228 30108 40137 8353/ 333 0//00 20206 50024 55/// 58008 82703 83608 87360
AAXX 02064 64556 11356 8//// 10218 20215 39553 40149 60014 760166 8452/ 333 0//11 20218 50024 55007 58010 84609 88460
AAXX 02064 71667 16/// /3119 11094 21146 39906 40157 51027 60001 333 11004 21094 70019 555 33031 40052
AAXX 02064 71682 17/// /2001 11239 21259 39876 40119 56064 60021 7//4/ 333 11239 21337 70020
AAXX 02064 71423 16/// /1610 11021 21030 30088 40097 58013 60001 333 11005 21091 7////
AAXX 02064 71434 16/// /3320 11131 21151 30011 40078 52022 60001 333 11084 70010 555 33333 40062
AAXX 02061 40700 11405 82102 11006 21013 30064 40155 51003 60001 74244 886// 333 30104 70000 88710
AAXX 02061 40723 12660 40000 10038 20009 38890 40178 51006 69901 83550 333 31103 5///1 79999 83640
AAXX 02061 40726 12960 00000 10044 21011 38630 40164 52007 60001 333 34102 70004
AAXX 02061 40727 11/01 91503 11016 21018 38460 40196 52008 60001 74540 333 3/103 43006 70021 89/10
AAXX 02061 40734 12562 50000 10100 20083 30164 40139 53010 60001 83430 333 31001 50070 70000 83630 84358
AAXX 02061 40737 12960 20000 10078 20060 30115 40133 56004 60001 82030 333 30001 50081 70000 82360
AAXX 02061 40741 12662 50000 10080 21002 39830 40169 51007 60001 82550 333 30001 70000 82635 85359
AAXX 02061 40780 11640 50000 10070 20066 38675 40162 52011 69941 71062 83570 333 31004 5//// 70046 83635 85458
AAXX 02061 40791 12665 22102 10100 21069 39350 40179 52022 60001 82100 333 30003 50181 79999 82840
AAXX 02061 40792 12668 40000 10084 21048 38710 40158 53014 60001 81530 333 30002 70000 81640 83360
AAXX 02061 40794 12660 80000 10144 20093 30076 40174 52015 60001 8431/ 90540 333 30010 50211 70000 81935 83640 88459
AAXX 02061 40812 12560 60502 10140 20057 39783 40158 52011 60001 86300 333 30009 50231 70000 829308 84835
AAXX 02061 40829 12660 30000 10088 21106 39614 40199 52012 60001 83500 333 30101 70000 83640
AAXX 02061 40833 12960 01303 10184 20102 30146 40178 53014 60001 90548 333 30011 50421 70002
AAXX 02061 40835 12960 00000 10144 20016 39356 40188 52020 60001 333 30008 50541 70000
AAXX 02061 40845 11560 70000 10190 20138 30162 40167 52014 69993 72122 81970 333 30012 50221 70000 81930 84635 87359
AAXX 02061 40882 11958 01202 10206 20120 30142 40177 53017 60001 70500 333 30010 50511 70000
AAXX 02061 40889 12960 01203 10240 20138 30182 40187 52020 60003 222// 00240 20500 333 30014 50851 70000
AAXX 02061 40890 12960 00000 10234 20113 30171 40178 52023 60003 222// 00230 20300 333 30011 50600 70000
AAXX 02061 40893 11957 00000 10237 20140 30175 40181 53008 60001 70500 222// 00195 20301 333 30017 50511 70000
AAXX 02061 40897 NIL
AAXX 02061 40700 11405 82102 11006 21013 30064 40155 51003 60001 74244 886// 333 30104 70000 88710
AAXX 02061 40723 12660 40000 10038 20009 38890 40178 51006 69901 83550 333 31103 5///1 79999 83640
AAXX 02061 40726 12960 00000 10044 21011 38630 40164 52007 60001 333 34102 70004
AAXX 02061 40727 11/01 91503 11016 21018 38460 40196 52008 60001 74540 333 3/103 43006 70021 89/10
AAXX 02061 40734 12562 50000 10100 20083 30164 40139 53010 60001 83430 333 31001 50070 70000 83630 84358
AAXX 02061 40737 12960 20000 10078 20060 30115 40133 56004 60001 82030 333 30001 50081 70000 82360
AAXX 02061 40741 12662 50000 10080 21002 39830 40169 51007 60001 82550 333 30001 70000 82635 85359
AAXX 02061 40780 11640 50000 10070 20066 38675 40162 52011 69941 71062 83570 333 31004 5//// 70046 83635 85458
AAXX 02061 40791 12665 22102 10100 21069 39350 40179 52022 60001 82100 333 30003 50181 79999 82840
AAXX 02061 40792 12668 40000 10084 21048 38710 40158 53014 60001 81530 333 30002 70000 81640 83360
AAXX 02061 40794 12660 80000 10144 20093 30076 40174 52015 60001 8431/ 90540 333 30010 50211 70000 81935 83640 88459
AAXX 02061 40812 12560 60502 10140 20057 39783 40158 52011 60001 86300 333 30009 50231 70000 829308 84835
AAXX 02061 40829 12660 30000 10088 21106 39614 40199 52012 60001 83500 333 30101 70000 83640
AAXX 02061 40833 12960 01303 10184 20102 30146 40178 53014 60001 90548 333 30011 50421 70002
AAXX 02061 40835 12960 00000 10144 20016 39356 40188 52020 60001 333 30008 50541 70000
AAXX 02061 40845 11560 70000 10190 20138 30162 40167 52014 69993 72122 81970 333 30012 50221 70000 81930 84635 87359
AAXX 02061 40882 11958 01202 10206 20120 30142 40177 53017 60001 70500 333 30010 50511 70000
AAXX 02061 40889 12960 01203 10240 20138 30182 40187 52020 60003 222// 00240 20500 333 30014 50851 70000
AAXX 02061 40890 12960 00000 10234 20113 30171 40178 52023 60003 222// 00230 20300 333 30011 50600 70000
AAXX 02061 40893 11957 00000 10237 20140 30175 40181 53008 60001 70500 222// 00195 20301 333 30017 50511 70000
AAXX 02061 40897 NIL
AAXX 02064 71079 12574 63405 11216 21263 30069 40367 51017 60001 86500 333 11117 21216 70006 555 10010 20006 33219 40120
AAXX 02064 71832 16/// /2712 11100 21112 39696 40024 53011 60001 333 11010 21101 70000 555 10140 32729 40012
AAXX 02064 71421 16/// ///// 11146 21160 39368 40098 56025 60001 333 11101 21258 70000
AAXX 02064 71435 16/// /2713 11136 21160 39570 40181 51019 60001 333 11027 21136 70003 555 32726 40001
AAXX 02064 71079 12574 63405 11216 21263 30069 40367 51017 60001 86500 333 11117 21216 70006 555 10010 20006 33219 40120
AAXX 02064 71503 46/// /0618 11198 21223 39843 40127 58061 6///1 333 11198 21341 7//// 555 30527 40061
AAXX 02064 71506 46/// /0844 11182 21216 39016 49904 56056 6///1 333 11138 21240 7//// 555 30967 40043
AAXX 02064 71514 16/// /0000 11183 21205 39661 40402 58007 60001 333 11075 21204 70000 555 33028 40082
AAXX 02064 71539 16/// /2205 11133 21168 39671 40403 55010 60001 333 11051 21168 70000 555 32928 40072
AAXX 02061 28216 32698 82301 11097 21114 39942 40237 57006 885// 333 21095
AAXX 02061 28428 11597 80302 11084 21095 30040 40233 57003 69900 70272 83531 333 21081
AAXX 02061 28451 32598 81303 11103 21115 30092 40259 54000 885// 333 21092
AAXX 02061 28541 32983 51001 11132 21152 39726 40247 53002 85030 333 21140
AAXX 02061 28655 32998 71001 11166 21182 30029 40270 57004 86032 333 21181
AAXX 02061 28756 32998 81203 11164 21190 30111 40271 57010 8801/ 333 21182
AAXX 02061 29557 42998 70000 11078 21100 30086 40365 57004 80001
AAXX 02061 29625 42998 32302 11142 21155 30165 40356 57007 80001
AAXX 02061 29813 42999 31403 11170 21182 30150 40343 57007 80001
AAXX 02061 29822 41996 21403 11166 21172 30194 40370 57012 71000 80001
AAXX 02061 29915 42998 01602 11160 21173 30182 40353 57013
AAXX 02061 36020 42998 30701 11142 21162 30155 40370 57007 80002
AAXX 02061 22004 31984 31408 11030 21054 30038 40153 54000 70230 83030 333 21055 48008 91012 91114
AAXX 02061 22213 11479 81305 11047 21057 30022 40194 52006 69932 77787 886// 333 21047 47034 88714 91007 93401
AAXX 02061 22140 31597 81112 11033 21061 30198 40213 52011 73632 885// 333 21033 47008 91015 91119
AAXX 02061 22100 42998 01802 11089 21100 30013 40163 52002 333 21152 47020 91008
AAXX 02061 22003 31999 31607 11018 21036 30152 40162 58001 70183 83030 333 21019 48009 91010 91114
AAXX 02061 23226 11560 80408 11154 21196 30007 40238 52016 69940 77172 885// 333 21131 88630 93402
AAXX 02061 23701 12370 81801 11035 21046 30104 40238 53008 69900 886// 333 21034 88707
AAXX 02061 28909 32997 80802 11074 21087 30094 40197 57001 80002 333 21075
BBXX DDVK2 02063 99375 10075 41998 01508 10150 20125 40262 52002 70200 80000 22224 00169 2//// 30000 80135
AAXX 02061 13492 ///// 0//// 10020 333 20000 47010
AAXX 02061 13585 42997 00000 11082 21091 39467 40315 52004 333 21085 34111 42002
AAXX 02061 13597 42998 0//// 11037 21061 30199 40276 5//// 333 21044 33108 92002
AAXX 02061 13598 42998 00000 11150 21153 48474 53003 333 21162 3/116 47018 92200
AAXX 02061 01218 11989 21406 10071 21040 39835 49856 57008 60002 70120 80001 333 20062 70000 91114
AAXX 02061 56146 32780 52006 10145 21118 36638 57046 83402 333 05908 21064
AAXX 02061 56444 11578 82902 10041 21015 36791 57029 69931 78588 884// 333 05355 20000
AAXX 02061 56492 11730 80201 10071 20056 39818 40235 57044 69961 76066 885// 333 05351 20068
AAXX 02061 56571 32780 11601 10179 20014 38336 57056 81100 333 05502 20034
AAXX 02061 57799 32960 83401 10097 20041 30151 40242 57035 8807/ 333 20065
AAXX 02061 57866 11730 80403 10068 20050 30030 40242 57030 69991 76060 885// 333 20068
AAXX 02061 57957 11740 80202 10088 20064 30029 40232 57034 69921 76060 885// 333 20084
AAXX 02061 57993 32760 73402 10127 20058 30054 40223 57043 875// 333 20086
AAXX 02061 58027 31956 82703 10048 21035 30210 40263 57032 70500 80007 333 21009
AAXX 02061 58141 31956 01603 10061 21052 30251 40271 57034 70500 333 21040
AAXX 02061 58265 32562 23602 10061 21041 30264 40270 57038 82500 333 20019
AAXX 02061 58472 32980 03407 10064 20003 30167 40264 57031 333 20049
AAXX 02061 58477 32465 13204 10090 21009 30215 40261 57028 81100 333 20025
AAXX 02061 58527 31956 00901 10105 20005 30155 40233 57047 70500 333 20026
AAXX 02061 58633 31940 70701 10083 21007 30146 40249 57042 70500 8704/ 333 20028
AAXX 02061 58666 32962 03607 10087 20016 30146 40251 57030 333 20046
AAXX 02061 58725 31960 03401 10131 20050 39955 40222 57050 70040 333 20035
AAXX 02061 58921 32760 80201 10129 20069 39975 40226 57037 885// 333 20088
AAXX 02061 59082 32962 72702 10158 20048 30061 40209 57043 8704/ 333 20103
AAXX 02061 59211 11530 81601 10122 20099 39990 40201 57037 69901 72166 885// 333 20110
AAXX 02061 59265 31857 83402 10162 20082 30061 40201 57041 70500 885// 333 20106
AAXX 02061 59293 32965 02901 10177 20046 30114 40200 57048 333 20095
AAXX 02061 59501 32971 00702 10184 20095 30169 40190 57046 333 20133
AAXX 02061 59663 31759 70703 10194 20096 30082 40190 57039 70500 8654/ 333 20137
AAXX 02061 59838 11562 73602 10240 20173 30152 40162 57033 69931 70060 878// 333 20193
AAXX 02061 59948 32480 70909 10188 20160 39686 40174 57026 878// 333 20170
AAXX 02061 59981 32580 50705 10252 20177 30148 40155 57028 85100 333 20220
AAXX 02064 41859 11340 80904 10178 20150 30131 40169 60018 70262 8672/ 333 56299 58010 70040 84708 84614 88456
AAXX 02064 41883 11350 80000 10190 20150 30137 40159 69926 70262 8562/ 333 56699 58010 70005 82709 84615 88458
AAXX 02064 41891 11315 80504 10190 20170 30122 40162 69943 76062 8632/ 333 56499 58023 70004 83708 84614 81925 88458
AAXX 02064 41907 11350 83601 10182 20160 30143 40158 69993 70566 8672/ 333 56799 58017 70010 85710 88458
AAXX 02063 41858 32457 80504 10180 20150 30117 40164 8452/ 333 56299 58006 70048 84615 88460
AAXX 02063 41863 NIL
AAXX 02063 41886 11330 80000 10183 20170 30140 40162 60039 76064 8472/ 333 56399 58010 70034 82709 83616 88459
AAXX 02063 41895 32457 83601 10182 20160 30142 40165 8452/ 333 56899 58013 70010 84615 88458
AAXX 02063 41909 11440 80602 10186 20180 30142 40154 60019 76162 8352/ 333 56999 58018 70032 83615 88458
AAXX 02063 41915 NIL
AAXX 02063 41926 NIL
AAXX 02063 41929 NIL
AAXX 02063 41933 NIL
AAXX 02063 41939 11340 80000 10215 20190 40169 69923 76164 8472/ 333 56999 58022 70005 82709 83612 88457
AAXX 02063 41941 NIL
AAXX 02063 41946 NIL
AAXX 02063 41947 11356 83103 10203 20180 30160 40162 60019 72162 8562/ 333 56799 58019 70008 82709 83616 88458
AAXX 02063 41951 NIL
AAXX 02063 41953 NIL
AAXX 02063 41958 NIL
AAXX 02063 41960 NIL
AAXX 02063 41963 NIL
AAXX 02063 41964 NIL
AAXX 02063 41965 NIL
AAXX 02063 41966 NIL
AAXX 02063 41984 11457 80000 10250 20160 30146 40148 69918 70262 8252/ 333 56999 58015 70001 82618 88458
AAXX 02063 41989 NIL
AAXX 02063 41998 32456 42801 10275 20160 30131 40137 82430 333 56990 58001 70000 82618 83362
AAXX 02064 41859 NIL
AAXX 02064 41883 NIL
AAXX 02064 41891 NIL
AAXX 02064 41907 NIL
AAXX 02064 41923 11330 80000 10204 20180 30142 40152 60017 76166 8572/ 333 56999 58015 70008 82708 83615 88457
AAXX 02064 41936 11314 80000 10190 20170 40160 60034 76166 85730 333 56990 58018 70000 83708 83615 86362
AAXX 02064 41943 32440 80000 10220 20170 30147 40155 8662/ 333 56999 58015 70000 83710 84615 88458
AAXX 02064 41950 11435 60000 10250 20180 30151 40154 69913 72164 84531 333 56999 58021 70004 84617 83362
AAXX 02064 41978 31431 73306 10242 20130 30141 40148 70540 82520 333 56990 58014 70000 82615 86460
AAXX 02064 41992 31430 70000 10268 20130 30134 40137 70522 83520 333 56990 58006 70000 83616 87460
AAXX 02061 22271 31596 10910 11105 21149 30242 40253 52015 73833 81500 333 21086
AAXX 02061 23205 11995 60903 11181 21207 30273 40289 52023 60010 71072 81031 333 21158 91107
AAXX 02061 23711 12498 81402 11068 21076 30070 40250 53010 69900 889// 333 21075 86711
AAXX 02064 60595 36/// /0000 11451 333 21451
AAXX 02064 60381 16/// /2301 10069 20055 69924 333 20068
AAXX 02064 60639 36/// /0504 10022 21079 333 20022
AAXX 02064 60605 36/// /0000 10059 21060 333 20059
AAXX 02061 08561 11260 72502 10109 20106 30069 40306 51001 69912 72051 878// 333 20087 50094 55002 83706 86620 555 69917
BBXX DDVK2 02063 99375 10075 41998 01508 10150 20125 40262 52002 70200 80000 22224 00169 2//// 30000 80135
AAXX 02064 04203 46/// /1907 11213 21265 30080 40098 52011
AAXX 02064 04205 45/84 /1702 11281 21365 30080 40104 52007 333 11276 21312
AAXX 02064 04208 46/// /1202 11227 21259 30021 40068 57003
AAXX 02064 04213 NIL
AAXX 02064 04214 46/// /2607 11162 21213 30009 40042 57002
AAXX 02064 04224 47649 72309 11154 21184 30006 40041 54000 78587 333 11135 21154 87/37
AAXX 02064 04228 NIL
AAXX 02064 04242 46/// /0515 11159 21205 30020 40037 52002
AAXX 02064 04253 46/// /0510 11147 21218 39979 40006 54000
AAXX 02064 04266 46/// /3242 11096 21169 39908 49946 57008 333 91054
AAXX 02064 04285 46/// /3139 11069 21168 39854 49873 52007 333 91051
AAXX 02064 04301 46/// /2607 11276 21321 30155 40160 52009
AAXX 02064 04313 46/// /0140 11186 21211 39952 49964 57005
AAXX 02064 04330 46/// /0129 11094 21109 39790 49807 57004
AAXX 02064 04351 46/// /3207 11068 21118 39723 49739 52013
AAXX 02064 04373 46/// /3039 11105 21152 39640 49732 54000 333 91050
AAXX 02064 04382 46/// /2906 11059 21182 39720 49768 52002
AAXX 02064 04416 NIL
AAXX 02061 01180 11675 81605 10013 21072 39889 49946 54000 60002 70222 885// 333 20009 70000 91114
AAXX 02061 01065 11650 81506 11059 21089 39939 40106 55001 60002 78582 888// 333 21099 47029 70000 91113
AAXX 02061 01373 11462 80000 11025 21031 39715 49918 56005 60002 70222 886// 333 21045 47019 70028 91102
AAXX 02061 01393 16/// /0901 11030 21037 39112 49911 56013 6//// 333 21046 91104
AAXX 02061 01488 16/// /0000 10004 21000 60002 333 20002 4/016 70064 91102
AAXX 02061 01441 16/// /1904 11006 21033 38913 49885 57005 60002 333 21034 70070 91107
AAXX 02061 50353 32970 00000 11232 21286 30052 40303 57012 333 21330
AAXX 02061 50557 32962 50201 11242 21275 39972 40313 57009 80002 333 21332
AAXX 02061 50756 32960 21101 11207 21241 39985 40318 57010 80002 333 21290
AAXX 02061 50949 32665 72501 11111 21207 30103 40289 57020 83502 333 21228
AAXX 02061 50963 32960 22704 11148 21206 30147 40299 57015 80001 333 21308
AAXX 02061 50978 32972 02503 11128 21215 39904 40284 57013 333 21236
AAXX 02061 51087 32980 00000 11116 21193 39386 40455 57013 333 05605 21263
AAXX 02061 51156 NIL
AAXX 02061 51644 32960 00401 11036 21113 39064 40411 57005 333 05300 21153
AAXX 02061 51656 NIL
AAXX 02061 51886 32980 11801 11087 21282 37105 57019 80002 333 05500 21193
AAXX 02061 52602 32980 13403 11056 21275 37251 57021 80002 333 05601 21218
AAXX 02061 52713 32980 22702 11063 21295 36882 57019 80002 333 05500 21158
AAXX 02061 52754 32980 71402 11064 21208 36746 57024 80002 333 05353 21152
AAXX 02061 52818 32980 82902 11070 21224 37226 57018 8801/ 333 05553 21136
AAXX 02061 52836 32980 73201 11065 21252 36869 57017 80002 333 05554 21156
AAXX 02061 52955 32780 73202 11044 21224 36930 57024 875// 333 05453 21174
AAXX 02061 53068 32980 02909 11134 21184 39148 40389 57013 333 00304 21216
AAXX 02061 53276 32980 02709 11140 21197 38934 40385 57011 333 21171
AAXX 02061 54135 32980 70903 11094 21199 30037 40278 57027 80002 333 21196
AAXX 02061 54236 32962 62701 11088 21186 30158 40272 57027 80002 333 21191
AAXX 02061 54539 32770 72503 11009 21057 30245 40260 57029 83502 333 21075
AAXX 02061 54662 32965 82202 11023 21092 30146 40267 57028 8801/ 333 21096
AAXX 02061 54753 32960 52003 10007 21102 30254 40261 57031 85040 333 21044
AAXX 02061 54857 31958 82203 10005 21057 30171 40268 57037 70500 8801/ 333 21050
AAXX 02061 57067 32960 50203 10051 21098 39588 40291 57037 85030 333 21043
AAXX 02061 57178 31930 82202 10028 21023 30119 40284 57032 71000 8807/ 333 21001
AAXX 02061 57245 11920 80000 10069 20039 39906 40266 57037 69911 71060 8807/ 333 05302 20040
AAXX 02061 57297 31930 71601 10033 21016 30129 40275 57031 71000 8703/ 333 20008
BBXX 46249 02061 99338 71197 46/// ///// 1//// 90607 22200 00148 11302 20901 323// 41302 70012
BBXX 46248 02061 99461 71247 46/// ///// 1//// 90604 22200 00095 10905 20904 326// 41102 70023
BBXX 46244 02061 99409 71244 46/// ///// 1//// 90605 22200 00101 11103 20902 327// 41101 70014
BBXX 46241 02061 99330 71173 46/// ///// 1//// 90541 22200 00146 11301 21001 327// 41301 70007
BBXX WKPN 02064 99145 10530 41997 00510 10250 20191 40175 52005 70000 80000 222// 00274 20401 327// 40702 5//// 6//// 80210 ICE /////
BBXX WRYD 02064 99255 10571 43997 01306 10230 2017/ 40190 51030 7//// 80/// 22235 00244 20000 33636 40000 50000 6/00/ 80190 ICE /////
BBXX PFDH 02061 99185 10591 41997 00504 10220 40181 54000 70000 80000 22215 00249 20200 30000
BBXX 3FMV6 02063 99154 30654 41498 41416 10300 20258 40086 51010 70222 84444 22213 06280 20102 80270
BBXX V7OX3 02061 99353 50157 41/97 /2308 10180 20127 40210 54000 703// 8/1// 22223 3//// 4//// 5//// 80150
BBXX 2ALE5 02063 99114 70172 41697 30514 10225 20108 40141 55005 70200 835// 22243 20406 80160
BBXX A8RV9 02064 99209 50126 41598 40814 10215 20169 40170 58010 70300 8/87/ 22234 20802 321// 41002 5//// 80185
BBXX DGLM 02064 99060 10023 41797 12409 10265 20251 40132 52012 70511 8/407 22200 2//01 80255
BBXX DMQN 02064 99057 50331 41/98 /0916 10248 20228 40125 54000 70000 8//// 22244 04280 20503 3//// 4//// 5//// 80234
BBXX PCSV 02063 99254 30011 41598 62108 10188 20129 40205 52/// 70311 86500 22273 04194 20501 323// 41003 80152
BBXX UBAU 02061 99124 70175 41/96 90607 10250 40148 57003 71044 22231 04228 20200
BBXX DCHO 02064 99098 50345 41/98 /0718 10253 20209 40121 54000 70200 8//// 22214 04270 20602 312// 40802 80222
BBXX OXOR2 02064 99140 10518 41598 40512 10274 20238 40175 51009 7//22 84310 22265 00247 29901 305// 40801 80248
BBXX PDHO 02064 99175 10406 41997 00000 10270 20213 40155 51004 70200 80000 22274 00283 2//// 316// 41602 80230
BBXX A8UU3 02064 99186 30040 41398 81617 10200 20185 40160 51010 7//22 8/7// 22233 2//// 314// 40502 80190
BBXX PDKK 02063 99117 50166 41698 61307 10225 20169 40149 53005 70222 8247/ 22254 20301 315// 40802 80188
BBXX A8AX3 02063 99047 30117 41698 60405 10244 40160 52009 70122 81450 22200 20000 317// 40902
BBXX MIBR 02063 99223 30569 41598 60410 10280 20237 40132 52010 70322 86300 22254 00273 20301 316// 40604 5//// 80250
BBXX PHPP 02064 99129 10479 41/98 20911 10243 20184 40179 51015 70200 821// 22264 00265 2//01 80203
BBXX DCPL2 02063 99185 10654 41798 10416 10255 20134 40160 52005 70200 81100 22275 00260 20502 399// 4//03 80179
BBXX 9V8797 02064 99221 11166 43/92 50428 10157 40201 58032 22233 00215 2//// 4////
BBXX 9V9243 02063 99052 11067 41497 60518 10259 40108 58019 70222 856/1 22213 00264 20403 304// 40505
BBXX VRGJ6 02063 99189 10717 41996 10315 10270 20175 40165 52044 728// 80001 22263 04270 20303 303// 41001 5//// 80210
BBXX DGTX 02063 99275 11248 41497 70218 10140 20040 40225 58025 70322 82578 22214 00220 20504 302// 40504 80090
BBXX DACP 02063 99124 11124 41497 50327 10255 20244 40120 58010 7//11 8/1/5 22214 00280 20403 303// 40605 5//// 80247
BBXX WCX8882 02064 99430 11608 41498 61109 10060 2099/ 40200 5//// 70222 865// 22214 00070 2//// 306// 40708 5//// 6//// 81020 ICE /////
BBXX VRHO2 02064 99435 11470 41696 81724 10040 20017 40060 54000 78162 86620 22214 00030 20402 315// 40704 50000 6/00/ 80030 ICE 0////
BBXX PHKL 02060 99078 10717 41398 71405 10280 20239 40109 50/// 71622 877// 22224 00278 201// 336// 41404 5//// 80250
BBXX PDWT 02063 99260 11222 41296 80204 10170 20104 40225 56/// 70322 8/6// 22253 20202 301// 40803 5//// 80132
BBXX 46240 02061 99366 71219 46/// ///// 1//// 90612 22200 00120 11301 21001 335// 41301 70006
BBXX 46237 02061 99378 71226 46/// ///// 1//// 90610 22200 00109 11302 21001 325// 41301 70009
BBXX 46212 02061 99408 71243 46/// ///// 1//// 90612 22200 00104 10802 20802 328// 41301 70011
BBXX 46217 02061 99342 71194 46/// ///// 1//// 90612 22200 00145 11202 21001 327// 41201 70008
AAXX 02061 91943 36/// /1105 10267 20212 30150 40152 53024 333 20267 58003
AAXX 02061 91945 16/// /1102 10247 20231 30162 40167 53019 60181 555 58004 60274
AAXX 02064 89062 46/// /0911 10012 21054 39833 49873 57005 333 55078
AAXX 02064 40582 41856 63513 10132 20075 40180 53013 70562 86030 333 55300 00193 10000 20473 30131 41225 51370 60605 55407 40342 86358 90400 91019 91123 91217 91309
AAXX 02064 41150 NIL
AAXX 02064 41168 NIL
AAXX 02064 41170 41957 11504 10208 20169 30171 40184 70500 80001 333 20152 59028 81074 555 00104
AAXX 02064 41176 NIL
AAXX 02064 41184 42960 01807 10200 20110 40183 333 20110 59023
AAXX 02064 41194 12960 01904 10207 20068 30186 40191 60001 333 20160 59023
AAXX 02064 41196 32960 01803 10206 20070 30154 40194 333 20100 30009 59023
AAXX 02064 41198 32960 00902 10241 20111 30155 40183 333 20169 5////
AAXX 02064 41210 NIL
AAXX 02064 41216 NIL
AAXX 02064 41217 42960 01706 10199 20071 30154 40183 333 20148 30012 59021
AAXX 02064 41218 42960 01303 10212 20069 39885 40192 333 20156 30013 59020
AAXX 02064 41226 NIL
AAXX 02064 41244 NIL
AAXX 02064 41246 32960 01903 10234 20135 30178 40182 333 20165 59031
AAXX 02064 41254 36/// /3304 10193 21037 38224 48229 333 0E007 20101 59036
AAXX 02064 41256 31958 00303 10232 20122 30179 40189 70500 333 20156 59028
AAXX 02064 41258 NIL
AAXX 02064 41268 32960 02408 10222 20107 30174 40190 333 20165 3/018 59025
AAXX 02064 41312 36/// /0802 10249 20174 30142 40181 333 0E/// 20201 59013
AAXX 02064 41314 32960 09903 10207 20129 39686 40191 333 20127 59025
AAXX 02064 41316 36/64 /1202 10249 20158 30156 40181 333 0E018 20185 59014
AAXX 02064 41404 42960 09902 10157 21032 37903 48556 333 20045 30000 59011
AAXX 02064 41407 NIL
AAXX 02064 41431 41960 01710 10242 20210 30136 40149 70544 333 20194 30/// 59018
AAXX 02064 41466 41346 71006 10154 20119 38594 48494 71044 876// 333 20126 30/// 59006 87715
AAXX 02064 41477 42560 11809 10252 20204 81100 333 20230 30/// 81830
AAXX 02064 41480 42460 71211 10256 20189 30175 40178 87500 333 20242 30/// 59007 82618 86635
AAXX 02064 40362 41920 02905 10073 20000 39665 40191 70633 333 20033 58021
AAXX 02064 40439 42960 43004 10156 20060 30150 40160 82031 333 20116 58014 82360
BBXX 62027 02064 99491 70022 46/// /2819 1//// 2//// 40099 52011 22200 00107 11705 333// 70027 333 90710 91138
BBXX 62301 02064 99524 70047 46/// /2623 10064 20005 40020 51016 22200 00091 10605 70027 333 90710 91129
BBXX 62442 02064 99490 70164 46/// /2627 1//// 2//// 40126 50002 22200 00120 333 90710 91139
BBXX 64046 02064 99606 70049 46/// /1716 10053 20016 49784 58004 22200 00083 11012 70058
BBXX 62001 02064 99452 70050 46/// /2723 10124 20074 40186 52008 22200 00129 10911 70053 333 90710 91133
BBXX 62303 02064 99516 70051 46/// /2621 10081 20013 40044 52011 22200 00109 10608 70038 333 90710 91131
BBXX 62163 02064 99475 70084 46/// /2924 10091 20035 40152 51011 22200 00124 11012 70058 333 90710 91135
BBXX 62029 02064 99487 70125 46/// /2628 10084 20047 40130 52010 22200 00125 11013 70066 333 90710 91138
BBXX 62081 02064 99510 70134 46/// ///// 10072 20032 40060 51007 22200 00118 11015 70077
BBXX 62105 02064 99554 70121 46/// /2733 10040 20013 49894 55002 22200 00106 11217 70087 333 90710 91151
BBXX 64045 02064 99591 70117 46/// /2433 10035 21007 49730 58014 22200 00100 11117 70085 333 90710 91149
BBXX 62113 02064 99584 10002 47598 /2323 10054 20002 49875 54000 700// 22200
BBXX 62129 02064 99584 10003 46/// ///// 10053 21002 49877 54000 22200
BBXX 62128 02064 99587 10014 47598 /2323 10055 20002 49864 57002 700// 22200 10606 70028
BBXX 63057 02064 99592 10015 47598 /2225 10061 20003 49851 57003 700// 22200 10706 70030
BBXX 63110 02064 99595 10015 46/// ///// 22200
BBXX 63056 02064 99597 10016 47598 /2417 10053 20009 49837 57001 700// 22200 10605 70026
BBXX ZQSD5 02064 99583 10007 46/// /2423 10061 20006 49872 50000 22200 10807 70036
BBXX 62114 02064 99583 10000 46/// /2323 10053 21000 49868 54000 22200
BBXX 64041 02064 99607 70026 47698 /1918 10032 20032 49805 58004 700// 22200 10908 70040
BBXX 62111 02064 99580 70003 46/// /2523 10054 20006 49888 50002 22200 10605 70026
BBXX PJAI 02064 99581 70014 47999 /2215 10058 21006 49868 50000 700// 22200
BBXX 62112 02064 99584 70002 47598 /2419 10054 21001 49871 52001 700// 22200
BBXX 63055 02064 99606 10016 46/// ///// 22200
BBXX 63108 02064 99608 10017 47998 /2517 10052 21002 49826 57002 700// 22200 10805 70026
BBXX 63106 02064 99610 10017 46/// /2418 10055 49826 57001 22200
BBXX 63105 02064 99610 10017 47597 ///// 10060 20008 49825 58002 741// 22200
BBXX 63113 02064 99610 10017 46/// /2618 10056 20000 49834 55001 22200 10706 70030
BBXX 63112 02064 99611 10010 47/97 /2513 10071 20009 49820 52001 700// 22200 10706 70032
BBXX 63107 02064 99611 10017 46/// /2313 10058 49824 55001 22200
BBXX 63101 02064 99612 10009 46/// /2512 10048 20015 49818 52001 22200
BBXX 63103 02064 99612 10011 46/// /2515 10051 20010 49826 50002 22200 10706 70030
BBXX 63104 02064 99612 10016 47598 /2516 10062 20011 49821 58002 700// 22200
BBXX 63117 02064 99613 10011 47599 /2316 10150 20029 49822 50000 700// 22200
BBXX 63115 02064 99616 10013 47598 /2217 10062 20011 49816 51002 700// 22200 10808 70040
BBXX MWYG6 02064 99603 70040 47998 /2021 10051 700// 22200
BBXX 62142 02064 99530 10021 47997 /2517 10066 20034 40018 53009 700// 22200 10402 70011
BBXX 62145 02064 99531 10028 47998 /2415 10068 20028 40022 52008 700// 22200 10403 70014
BBXX 62144 02064 99534 10017 47998 /2522 10064 20026 40019 53005 700// 22200 10403 70013
BBXX 62121 02064 99535 10027 46/// ///// 22200
BBXX 62150 02064 99536 10007 47998 /2316 10058 20021 40010 51004 700// 22200 10302 70009
BBXX 62148 02064 99536 10015 46/// /2418 10063 20020 40012 52006 22200
BBXX 62149 02064 99537 10011 47998 /2317 10060 20026 40007 52005 700// 22200 10402 70012
BBXX 62131 02064 99539 10012 46/// /22// 10063 20023 49997 50002 22200
BBXX 62127 02064 99540 10007 47998 ///// 10059 20013 49994 51002 700// 22200 10403 70013
BBXX 62165 02064 99540 10009 47998 /2420 10063 20015 49998 58001 700// 22200 10403 70015
BBXX 62123 02064 99563 10022 47698 /2528 10068 20018 49931 51005 700// 22200
BBXX 62132 02064 99564 10020 46/// /2721 10066 21002 49927 50001 22200
BBXX 62120 02064 99564 10021 47698 /2628 10063 20014 49927 52003 700// 22200
BBXX 62154 02064 99564 10022 46/// /2426 10064 21012 49932 51006 22200
BBXX 62152 02064 99570 10018 47/98 /2215 10061 20009 49925 53004 700// 22200 10607 70035
BBXX 62134 02064 99580 10014 47598 /2425 10058 20008 49885 53002 700// 22200 10605 70027
BBXX 62102 02064 99579 10018 46/// /2522 10060 20009 49886 53003 22200 10606 70031
BBXX 62117 02064 99579 10000 47598 /2322 10058 20012 49878 51001 700// 22200 10606 70030
BBXX 62143 02064 99577 10018 47598 /2528 10061 21001 49902 53001 700// 22200 10607 70034
BBXX 62118 02064 99577 10009 47598 /2328 10073 20008 49882 57001 700// 22200 10606 70030
BBXX 62155 02064 99577 10007 47598 /2529 10059 20010 49897 53001 751// 22200 10606 70028
BBXX 62116 02064 99576 10011 47598 /2528 10059 20001 49887 53001 700// 22200 10606 70031
BBXX 62104 02064 99574 10013 47598 /2525 10064 20005 49892 54000 700// 22200
BBXX 62153 02064 99573 10020 47598 /2326 10056 20014 49903 50001 751// 22200 10707 70034
BBXX 62122 02064 99573 10016 47598 /2326 10066 20015 49911 50000 700// 22200 10707 70035
BBXX 62140 02064 99573 10013 46/// /25// 10056 20010 49895 53002 22200
BBXX 62146 02064 99572 10021 47/98 /2518 10051 20005 49919 53002 700// 22200 10606 70032
BBXX 62164 02064 99572 10008 47598 /2323 10072 20011 49906 53002 700// 22200 10707 70035
BBXX PJGO 02064 99571 10022 47/98 /2324 10056 49919 53003 700// 22200
BBXX 62133 02064 99571 10009 46/// /2426 10060 21014 49902 52002 22200 1//06 70031
BBXX 62119 02064 99570 10019 47597 /2527 10060 20001 49924 53003 700// 22200 10607 70033
BBXX 62103 02064 99499 70029 46/99 /2827 10099 20027 40070 52009 22200 00116 10905 70027 333 90710 91140
BBXX 62094 02064 99517 70067 46/// /26// 10080 20027 40040 52009 22200 00104 10607 70033 333 90710 91131
BBXX 62170 02064 99514 10020 46/98 /2621 10087 20055 40046 53004 22200 00105 14101 70007
BBXX 62304 02064 99511 10018 46/98 /2517 10092 20054 40051 53204 22200 00106 10601 70007
BBXX 62304 02064 99511 10018 46/98 /2517 10090 20052 40051 53014 22200 00106 10601 70007
BBXX 62305 02064 99504 10000 46/98 /2722 10098 20050 40071 52008 22200 00114 10702 70012 333 90710 91131
BBXX E5U2123 02063 99417 70111 41/98 22625 10140 20068 40293 52030 70100 8//// 22243 00149 2//// 3//// 4//// 5//// 80105
BBXX 63119 02064 99583 10009 41598 32527 10059 20004 49864 54000 70200 832// 22200 20405 325// 40808 5////
BBXX 64049 02063 99571 10022 41/97 52432 10070 20070 49907 53004 70011 8//// 22200 20608 3//// 4//// 5//// 80070
BBXX 62094 02064 99517 70067 46/// /2623 10080 20027 40040 52009 22200 00104 10607 70033 333 90710 91131
BBXX 62107 02064 99501 70061 46/// /2929 10086 20000 40081 52008 22200 00113 11009 70045 333 90710 91141
BBXX 62095 02064 99530 70159 46/// /2627 10072 20016 49988 50003 22200 00111 11119 70095 333 90710 91147
BBXX 62305 02064 99504 10000 46/98 /27// 10098 20050 40071 52008 22200 00114 10702 70012 333 90710 91131
BBXX 62103 02064 99499 70029 46/99 /2822 10094 20049 40074 52011 22200 00116 10906 70029 333 90710 91144
BBXX V2NA1 02064 99448 70093 41/98 22836 10124 20069 40211 52025 70199 8//// 22254 20410 80095
BBXX 2AUO5 02063 99606 10016 41597 72219 10067 20031 49835 54000 76866 878// 22251 20603 322// 41006 80052
BBXX PCGM 02063 99377 70250 41/98 89903 10190 20142 40325 56011 70222 8//// 22214 00186 2//// 80160
AAXX 02061 29998 42999 21802 11248 21273 38747 48590 58020 80001
AAXX 02061 30385 42999 60000 11262 21281 39767 40355 58007 80002
AAXX 02061 30469 42999 20000 11228 21267 39548 40375 58001 80002
AAXX 02061 30636 02061 329// 00801 11333 21350 39745 40445 52018 333 47034 55000
AAXX 02061 30650 41999 20000 11173 21207 39170 40358 57002 70272 80001
AAXX 02061 30664 41999 80000 11176 21202 39297 40351 52003 70172 82047
AAXX 02061 30781 42999 60000 11234 21274 39837 40352 58011 80005
AAXX 02061 30777 41998 82802 11199 21240 40333 57003 70172 80006
AAXX 02061 30844 41699 52705 11120 21155 39341 40362 58006 70372 83201
AAXX 02061 30925 42899 21901 11138 21173 39384 40412 58010 80030
AAXX 02061 31371 42999 20000 11245 21293 30008 40298 58012 80001
AAXX 02061 31388 42999 00000 11223 21264 30008 40294 57007
AAXX 02061 31478 NIL
AAXX 02061 31532 42999 00000 11279 21309 39937 40319 57008
AAXX 02061 31594 42998 03002 11225 21250 30107 40293 55007
AAXX 02061 31655 42997 01102 11253 21278 30219 40271 57007
AAXX 02061 31754 41999 20000 11200 21249 39731 40272 57009 70271 80002
BBXX SHIP 02064 99027 11452 41497 43005 10288 20235 40062 56015 70122 82232 22253 06308 11403 20301 33235 41003 50802
AAXX 02061 28465 32999 81702 11124 21137 30201 40283 54000 8807/ 333 21120
BBXX DFCX2 02063 99046 50837 41/// /1908 10224 20212 40138 58007 70322 8//// 22274 06217 20301
BBXX P3GY9 02064 99280 50464 41697 81824 10210 2020/ 40055 57010 75255 88742 22253 00240 20706 316// 40905 5//// 6//// 80200 ICE /////
BBXX OXKO2 02060 99258 50750 41498 72904 10190 20138 40147 55010 70322 8727/ 22284 04180 20602 329// 40802 5//// 80160
BBXX C6YM6 02064 99287 50437 41/95 /2024 10210 2016/ 49920 57130 78186 8//// 22214 00230 2//// 3//// 4//// 5//// 6//// 80180 ICE /////
BBXX MZDL7 02063 99425 50443 41/97 /3228 10160 20151 40129 58002 70111 8//// 22213 00170 2//// 3//// 4//// 5//// 80155
AAXX 02061 23929 32576 82101 11108 21121 30179 40250 52008 885// 333 21132
AAXX 02061 28696 32982 81001 11195 21214 30176 40329 54000 80003 333 21205
AAXX 02061 28791 32999 80601 11191 21210 30157 40315 57006 80005 333 21228
AAXX 02061 28586 32998 81401 11192 21211 30150 40312 57004 80005 333 21234
AAXX 02061 28688 32998 61001 11180 21199 30139 40312 57004 80005 333 21211
AAXX 02061 28588 32982 61601 11185 21204 30141 40313 57002 80002 333 21207
AAXX 02061 28383 11958 80000 11155 21174 30210 40301 52002 69900 77172 8802/ 333 21159
AAXX 02061 22438 32571 72301 11048 21068 30192 40214 52012 87500 333 21054
BBXX 46216 02061 99343 71198 46/// ///// 1//// 90557 22200 00142 11302 20901 326// 41302 70010
AAXX 02061 38388 NIL
AAXX 02061 38392 32998 61803 10013 21025 30055 40160 57007 80002 333 21030
AAXX 02061 38507 32598 80000 10056 20035 30048 40151 53009 885// 333 88621 21009
AAXX 02061 38511 NIL
AAXX 02061 38545 32998 60802 10021 21071 39984 40162 53004 86050 333 21024
AAXX 02061 38647 32697 80000 10044 20013 30101 40144 52003 82507 333 21005
AAXX 02061 38656 NIL
AAXX 02061 38687 32997 22303 10048 21012 39940 40178 52019 82030 333 20015
AAXX 02061 38750 32997 30901 10052 20033 30175 40146 53007 83030 333 20039
AAXX 02061 38763 32599 30402 10021 20005 30046 40153 57001 83200 333 21020
AAXX 02061 38774 32898 63202 10057 20006 39979 40176 52002 86070 333 20008
AAXX 02061 38799 32597 71801 10034 20013 39944 40179 52013 86530 333 20010
AAXX 02061 38806 32997 61804 10062 21013 39916 40178 52007 80002 333 20024
AAXX 02061 38880 32797 73602 10073 21007 39907 40162 53008 83931 333 21005
AAXX 02061 38886 32697 61401 10051 21002 39940 40170 52008 82530 333 20005
AAXX 02061 38895 32996 81802 10046 21002 39886 40180 52006 8807/ 333 21015
AAXX 02061 38911 22997 61409 10082 21038 39887 40181 52014 86030 333 69900 20035
AAXX 02061 38915 32998 72606 10074 21038 39861 40185 52016 87070 333 20040
AAXX 02061 38974 32998 53401 10080 20002 39827 40160 52007 85060 333 20034
AAXX 02061 38987 21996 60901 10108 20053 39439 40171 52011 70262 86030 333 60010 20079
AAXX 02061 48806 01460 80000 10177 20134 39389 40166 57044 69903 70262 888// 333 59027 69901 82894 88696
BBXX 46223 02061 99335 71178 46/// ///// 1//// 90600 22200 00151 11302 21001 323// 41301 70009
BBXX 46231 02061 99327 71174 46/// ///// 1//// 90554 22200 00148 11202 21001 327// 41202 70011
BBXX 46222 02061 99336 71183 46/// ///// 1//// 90556 22200 00144 11302 20901 326// 41302 70010
BBXX 46242 02061 99332 71174 46/// ///// 1//// 90558 22200 00146 11301 21001 322// 41301 70007
BBXX 46211 02061 99469 71242 46/// ///// 1//// 90606 22200 00082 11004 21003 325// 41102 70019
BBXX 44255 02061 99473 70573 46/// /0303 10020 40111 5//// 22200 00031 10902 70012 333 91204
BBXX WFLH 02063 99279 71411 43598 32805 10194 20109 40218 52019 7//// 834// 22213 00200 20701 332// 41212 5//// 6//// 80144 ICE /////
BBXX 9VVP 02064 99255 71141 41396 43210 10170 20154 40200 52010 70311 8489/ 22274 00190 21002 3//// 4//// 5//// 6//// 80160 ICE /////
BBXX 44150 02061 99425 70640 46/// /2208 10073 40146 57021 22200 00104 10803 70017 333 91211
BBXX 41053 02061 99185 70661 46/// /1006 10264 40166 58016 90600 22200 00271 10703 70014 333 91208
BBXX 42085 02061 99179 70665 46/// /0405 10257 40161 58014 90600 22200 00270 10703 70014 333 91206
BBXX 41053 02061 99185 70661 46/// /1104 10262 40167 90550 333 91207
BBXX 41053 02061 99185 70661 46/// /0806 10265 40168 90540 333 91208
BBXX 42085 02061 99179 70665 46/// /0405 10257 40163 90550 333 91206
BBXX 42085 02061 99179 70665 46/// /0505 10259 40165 90540 333 91206
BBXX SMGW 02061 99243 71126 43/98 03505 10182 40202 51006 22234 00208 2//// 4////
BBXX 44139 02061 99442 70571 46/// /3106 10053 40148 52033 22200 00048 10808 70040 333 91208
BBXX C6KJ5 02064 99260 70880 41497 32509 10220 2021/ 40240 57010 70200 83800 22273 00257 80210
BBXX 9HXC9 02064 99208 70694 41498 21018 10250 20176 40170 55003 76011 82200 22234 04273 20604 3//// 40902 5//// 6//// 80201 ICE /////
BBXX WHRN 02063 99276 71376 41498 10113 10180 2014/ 40202 52028 70111 811// 22215 00200 20302 334// 40804 5//// 6//// 80155 ICE /////
BBXX DDAC2 02060 99525 71565 41498 62503 10009 21020 40000 54000 7//22 84470 22273 04046 20400 309// 40906 5//// 81002
BBXX KCHV 02064 99273 70913 41598 60127 10183 2016/ 40260 55013 7//11 8679/ 22273 0//// 2//// 3//// 4//// 5//// 6//// 80172 ICE /////
BBXX SHIP 02064 99191 70744 41798 20509 10270 2023/ 40170 56020 70200 82485 22214 00300 20102 307// 40102 5//// 6//// 85240 ICE /////
BBXX 9HXD9 02064 99260 70785 41998 12304 10220 2//// 40190 54/// 70200 80//3 22274 04280 208// 3//// 4//// 5//// 6//// 8//// ICE /////
BBXX J8PE4 02063 99160 70630 414// 62524 10280 2022/ 40160 50030 70311 86286 22234 00280 20805 325// 40402 5//// 6//// 80240 ICE /////
BBXX SHIP 02064 99390 70618 41398 21907 10145 20081 40173 55007 70022 82100 22224 04170 20301 80110
BBXX VRFO7 02064 99250 70525 41498 30516 10240 20194 40250 52010 70200 81141 22254 20302 333// 40604 80210
BBXX WSRL 02063 99234 71537 41398 21713 10225 2019/ 40180 52015 70200 82100 22255 0//// 2//// 3//// 4//// 5//// 6//// 80200 ICE 0/0//
BBXX WDD3826 02064 99360 70438 41698 12137 10190 2018/ 40215 57025 7//11 81/// 22264 00170 20404 323// 40805 5//// 6//// 80180 ICE /////
BBXX C6VV8 02063 99174 70871 412// 60626 10260 2026/ 40160 54/// 7//22 86743 22273 00260 20804 318// 40804 50804 6//// 80260 ICE /////
BBXX C6RN3 02064 99244 70743 41898 21106 10240 20211 40240 54000 7//00 80/01 22235 00260 20101 305// 4//// 5//// 6//// 80220 ICE /////
BBXX SHIP 02064 99435 71289 41698 61823 10120 20102 40085 56027 70322 858// 90600 22274 00110 2//// 3//// 4////
BBXX C6FZ9 02064 99273 70796 41397 22422 10220 20190 40160 50010 7//11 82163 22284 00260 2//// 3//// 4//// 5//// 6//// 80200 ICE /////
BBXX WFLG 02064 99314 71288 41498 70909 10161 20153 40218 51020 70222 875// 22264 00133 20501 309// 40705 5//// 6//// 80156 ICE /////
BBXX VCXF 02064 99464 70484 41296 80238 10024 2002/ 49955 52044 71054 887// 22200 02023 20607 320// 40804 80024
BBXX A8IN7 02064 99141 70758 41497 30721 10262 20237 40132 55/// 70222 8326/ 22244 20602 80245
BBXX DFFA2 02063 99263 70789 41/98 32103 10210 20128 40210 57020 70200 8///7 22200 00250 20100 3//// 4//// 5//// 80160
BBXX DGBE 02063 99500 71344 41/97 82716 10082 20049 40010 51027 72582 8//// 22224 2//// 80066
AAXX 02061 51463 11730 70402 11125 21142 39208 40397 57015 69921 77070 85502 333 05658 21148
AAXX 02061 51709 11962 72201 11050 21089 38827 40399 57004 69901 72270 80002 333 05300 21129
BBXX 46053 02061 99342 71198 46/// /3002 10105 40222 51011 90550 22200 00141 11302 326// 41302 70010 333 91203 555 11023 22023 30514 42604 60549 294022 275022 294023 270029 275025 261033
BBXX 46042 02061 99368 71224 46/// /1908 10112 40215 53016 90550 22200 00125 11403 20402 326// 41402 70014 333 91209 555 11079 22084 30513 41910 60549 189075 193068 188067 182077 179076 176075
BBXX C6VG8 02064 99385 70741 41/98 32832 10120 2//// 40060 51010 7//00 8//// 22244 00130 20206 327// 40306 5//// 6//// 8//// ICE /////
BBXX NWS0021 02064 99322 70757 43/// /2327 10219 20162 40148 5//// 7//// 8//// 222// 04221 2//// 3//// 4//// 5//// 6//// 8//// ICE /////
BBXX NWS0029 02064 99415 70707 43/// /1914 10109 20081 40036 5//// 7//// 8//// 222// 04070 2//// 3//// 4//// 5//// 6//// 8//// ICE /////
BBXX NWS0003 02064 99539 71665 43/// /0000 11026 21042 40007 5//// 7//// 8//// 222// 0//// 2//// 3//// 4//// 5//// 6//// 8//// ICE /////
BBXX NWS0020 02064 99261 70801 43/// /2604 10194 20156 40214 5//// 7//// 8//// 222// 04254 2//// 3//// 4//// 5//// 6//// 8//// ICE /////
BBXX A8CH2 02064 99203 70645 41598 50718 10240 40190 58020 70211 854// 22254 04240 299// 30000
BBXX 44060 02061 99413 70721 46/// ///08 10101 40037 56044 90600 22200 00093 333 91209 555 11088 22093
BBXX 44022 02061 99409 70737 46/// ///08 10095 20052 40049 58010 90600 22200 00073 333 91212 555 11093 22103
BBXX DGOS 02063 99326 70541 41597 62318 10214 20187 40220 54000 70222 8436/ 22264 299// 80196
BBXX PHDL 02063 99323 70580 41/98 /2708 10209 20180 40180 54000 71411 8//// 22223 00210 20301 320// 40404 80190 91048
BBXX 9LD2206 02063 99150 70539 41397 30917 10260 20229 40160 57030 71882 83700 22262 04272 20501 307// 40703 80238
BBXX DGXS 02064 99517 71370 41298 63428 10062 20027 49965 52055 70122 8/77/ 22224 00080 2//// 3//// 4//// 5//// 80046
BBXX LAJK7 02064 99278 70588 41697 51011 10220 2021/ 40270 54000 70322 8313/ 22263 00250 20406 315// 40304 5//// 6//// 80210
BBXX 46001 02061 99563 71480 46/// /2913 10002 49905 52025 90550 22200 00041 11010 20507 300// 41007 70048 333 91216 555 11140 22147 30452 42917 60549 286130 288136 287135 287138 289136 290134
BBXX 41041 02061 99142 70460 46/// /0710 10248 20213 40154 58014 90550 22200 00261 11106 20504 3//// 41104 70030 333 91212 555 11107 22114 30536 40713 60549 073101 070100 079091 090087 098067 100072 80711 90536
BBXX 41038 02061 99341 70777 46/// /2505 10155 40137 58008 90600 22200 00136 333 91206
AAXX 02061 51379 11740 62201 11143 21167 40419 57015 69901 77074 86500 333 05758 21251
AAXX 02061 51156 32980 02001 11070 21186 38807 40408 57008 333 05501 21169
AAXX 02061 51656 32970 00702 11031 21111 39240 40402 57005 333 05301 21137
BBXX 51205 02061 99210 71564 46/// ///// 1//// 90618 22200 00242 11406 21003 334// 41405 70028
BBXX 46114 02061 99364 71222 46/// ///// 1//// 90604 22200 00121 11103 21002 329// 41102 70016
BBXX WE4805 02064 99473 70879 41/99 93430 11038 2//// 40098 53000 70202 88541 22200 00028 20602 3//// 4//// 5//// 6//// 8//// ICE /////
BBXX 46221 02061 99339 71186 46/// ///// 1//// 90545 22200 00149 11202 21001 326// 41202 70010
BBXX 41115 02061 99184 70673 46/// ///// 1//// 90605 22200 11002 21002 70009
BBXX 41114 02061 99276 70802 46/// ///// 1//// 90616 22200 00233 10901 20901 70003
BBXX SHIP 02064 99424 11540 41598 81243 10070 20013 40158 56007 70222 8855/ 90555 22214 00080 20605 306// 40806 80050
BBXX DHDM 02064 99458 11517 41397 71240 10020 21005 40150 55010 70222 8677/ 22214 00010 20404 309// 40507 5//// 80010
BBXX SHIP 02064 99114 11291 41697 50813 10290 20250 40089 56/// 70111 84346 22283 00280 20403 308// 40403 80260
BBXX DCLH2 02063 99280 11641 41298 70716 10195 20129 40192 50002 70211 8572/ 22264 06230 20303 332// 40908 5//// 80155
BBXX SHIP 02064 99210 11320 41397 70423 10230 20114 40150 56006 70222 85871 22283 00267 20505 302// 40707 5//// 80190
BBXX SHIP 02064 99376 11432 41797 83432 10100 20061 40004 52003 78182 888// 22282 00154 20404 334// 40305 80080
BBXX SHIP 02063 99112 11294 41/98 60916 10295 20262 40144 56010 703// 83244 22214 00280 2//01 80270
BBXX SHIP 02064 99233 11269 41697 30520 10200 20135 40181 57045 70100 82230 22243 00245 20101 336// 40303 80160
BBXX SHIP 02064 99312 11280 41698 60507 10130 20073 40226 56019 70222 86453 22213 00192 20203 301// 40203 80100
BBXX DHYW 02061 99490 11589 41398 32005 10030 21021 40210 54000 7//00 8114/ 22214 00080 299// 314// 40703 5//// 80010
AAXX 02061 51133 32970 00905 11032 21132 39633 40312 57002 333 05801 21096
AAXX 02061 51747 32965 73201 11070 21137 39039 40434 57008 80002 333 05352 21241
BBXX WDE9586 02063 99074 70827 41/98 /3010 10260 2025/ 40100 57005 7//00 8//// 22234 00280 2//// 3//// 4//// 5//// 6//// 80250 ICE /////
BBXX WDF9323 02063 99177 71483 41298 30705 10240 2021/ 40170 54000 7//00 832// 22234 0//// 20202 3//// 4//// 5//// 6//// 80220 ICE /////
BBXX J8PR3 02063 99080 70587 41197 70919 10300 2025/ 40130 56030 70266 87988 22231 00280 20402 30909 40402 50402 6//// 80260 ICE /////
BBXX C6OT4 02064 99083 70871 41497 31607 10261 20232 40118 52031 70222 83143 22223 04275 20802 32000 41023 5//// 80241
BBXX PDYI 02063 99412 70158 41/98 /2720 10143 20083 40304 57006 702// 8//// 22262 20605 33299 41409 5//// 80110
BBXX SHIP 02064 99026 51323 41/97 31320 10248 20221 40134 50013 70311 8//// 22233 04237
BBXX SHIP 02064 99583 31100 41497 72429 10017 21015 49878 51022 70372 87411 22201 00023 11009 20304 32328 40709 50606 85004
AAXX 02064 60318 32558 52715 10155 20087 40309 53007 85200 333 20135 85820
BBXX 51203 02061 99208 71570 46/// ///// 1//// 90613 22200 00246 11502 20901 331// 41501 70008
BBXX 52200 02061 99134 11448 46/// ///// 1//// 90615 22200 00287 11103 21003 309// 41102 70016
BBXX 51201 02061 99217 71581 46/// ///// 1//// 90612 22200 00240 11506 21002 334// 41505 70029
BBXX C6FS9 02064 99310 31532 46/// /0816 10227 20138 30144 40180 57007 22213 04252 85171
BBXX 2ALD3 02063 99390 31469 41998 60612 10238 20209 40104 56067 70322 80008 22263 04200 20301 30000 80218
BBXX 9HA2479 02064 99202 31698 46/// /1118 10269 20243 30042 40071 52010 22200 04277 85250
BBXX VNSZ 02064 99404 31459 46/// /1024 10187 20179 30077 40103 52001 22236 85182
BBXX V2BE4 02061 99142 31582 41397 71514 10270 20249 40038 57007 76266 8772/ 22233 04280 20506 318// 40608 80255
BBXX YCZC5 02063 99253 31552 41497 41425 10240 20158 40152 51/// 70/// 83242 22253 02260 20302 312// 40403 80190
BBXX VRAE3 02064 99086 31515 41597 84009 10300 20290 40070 56027 70360 8867/ 22234 00310 20201 34030 40705 5//// 80290
BBXX MRWF2 02064 99355 31182 41497 71616 10205 2013/ 40140 54000 70322 87137 22234 00211 20503 3//// 4//// 5//// 6//// 80162 ICE /////
BBXX DCAX2 02063 99250 51406 41697 20512 10270 20228 40170 54000 70300 82140 22233 2//// 3//// 4//// 5//// 80240
BBXX A8IH2 02063 99080 51562 41698 60716 10280 20209 40120 53020 7//22 86460 22254 06285 21402 305// 41003 5//// 80230
BBXX A8KH9 02064 99031 30836 41498 53215 10280 20239 40080 54000 70300 84108 22214 20301 32200 41004 5//// 80250
BBXX KAOU 02064 99031 10891 43/// /1199 00110 10275 20214 40102 7//// 8//// 222// 04290 2//// 3//// 4//// 5//// 6//// 8//// ICE /////
BBXX A8KX4 02064 99365 51573 412// 60516 10165 20123 40190 56010 70222 8/7/4 22274 00173 20101 30000 80140
BBXX DCDO2 02063 99090 31513 41698 62707 10305 20237 40065 54000 70322 86574 22244 00300 20301 3//// 4//// 5//// 80255
BBXX PCDE 02063 99390 31447 41998 10901 10270 20178 40130 58010 7//00 80001 22263 20601 80208
BBXX ELYP7 02064 99181 31139 41498 21917 10275 20255 40085 58015 70200 811/1 22243 20603 319// 41004 80260
BBXX MGRH9 02064 99266 31532 41597 41210 10260 20173 40161 50002 7//00 844// 22200 00245 20000 312// 40802 5//// 80205
AAXX 02061 38388 32998 20000 10014 21008 30086 40158 52002 80003 333 21061
BBXX DILE 02063 99400 70160 41/98 63322 10152 20085 40308 52018 70051 89/// 22264 04160 21209 328// 41809 80115
BBXX C6KD5 02063 99421 70131 41597 62920 10135 20072 40299 52025 70281 85468 22254 02135 20603 323// 40907 5//// 80104
BBXX 62023 02063 99514 70079 46/97 /2633 10061 2//// 40053 5//// 22200 10709 70044 333 91154 555 70069 81008
BBXX 62087 02061 99547 10068 46/// /1002 10083 20061 4//// 5//// 22270 00079
BBXX LMEL 02061 99603 10053 43/// /1502 10040 20038 49862 5//// 222/0 04083 1//// 3//// 4//// 5////
BBXX LAHV 02061 99589 10057 43/// /1704 10054 20027 49890 222// 04081 1////
BBXX LF4H 02064 99596 10022 46/// /2318 10058 20004 49847 57004 8//// 22200 06085 10705 70027 333 91125
BBXX TBWAA05 02063 99589 10195 41297 81824 10020 21033 49983 56020 79592 887// 22263 2//// 3//// 4//// 5//// 80000 00/87 1/764 5989300/ 871/7 64598 93931/65 1/626 /807
BBXX TFSTD 02064 99664 70234 46/// ///// 22200 10607 70034
BBXX TFGSK 02064 99641 70229 46/// ///// 22200 10908 70038
BBXX TFSRT 02064 99633 70203 46/// ///// 22200 11008 70042
BBXX TFHFN 02064 99642 70152 46/// ///// 22200 11008 70038
BBXX TFBKF 02064 99635 70202 46/// ///// 22200 10805 70026
BBXX TFGRS 02064 99663 70182 46/// ///// 22200 10806 70031
BBXX TFGRV 02064 99638 70225 46/// ///// 22200 11007 70034
BBXX TFKGR 02064 99657 70136 46/// ///// 22200 10906 70029
BBXX TFDRN 02064 99658 70212 46/// ///// 22200 10706 70029
BBXX UCAB 02061 99697 10151 41/97 91811 10040 49895 54000 70022 8//// 22213 00080 20706
BBXX SKUN 02063 99514 70070 43/98 52736 10069 40029 51009 22253 00095 2//// 4////
BBXX DDYL2 02063 99353 10186 41/98 /0115 10150 20085 40250 52020 7//// 8//// 22264 00170 20102
BBXX PEBT 02063 99548 10130 41/97 /2220 10076 20024 49980 53010 7//11 8//// 22253 02040 20403 3//// 4//// 5//// 80052
AAXX 02061 38656 32698 70000 10024 21012 30054 40166 52008 83580 333 21026
AAXX 02061 38511 32998 60000 10008 21012 30005 40149 53001 82030 333 21032
BBXX SHIP 02064 99026 51323 41/97 31320 10248 20221 40134 50013 70311 8//// 22233 04237
BBXX SHIP 02064 99583 31100 41497 72429 10017 21015 49878 51022 70372 87411 22201 00023 11009 20304 32328 40709 50606 85004
AAXX 02061 14216 12775 80501 10072 20040 30082 40236 51008 60002 8802/ 333 20044 30101 70000 923// 924/8
AAXX 02061 14219 11350 61902 10026 20003 39197 48500 56/// 60002 71012 82472 333 21006 3/104 43009
AAXX 02061 14232 11958 01601 11035 21042 30074 40216 56008 60002 7100/ 333 21035 34106
AAXX 02061 14234 12975 11901 10012 21003 39954 40207 56007 60002 81031 333 21022 34104
AAXX 02061 14236 12975 02102 10012 21005 30000 40203 57/// 60002 333 20005 31103
AAXX 02061 14244 12970 20000 11025 21031 30081 40217 56007 60002 80002 333 21027 34105
AAXX 02061 14248 11930 22302 11011 21012 30028 40208 56/// 60002 7100/ 80005 333 21011 34106 79999
AAXX 02061 14253 11930 22001 11005 21010 30028 40208 56007 60002 71000 80001 333 21016 34105
AAXX 02061 14256 12970 22304 10029 21019 39876 40201 55001 60002 80001 333 20013 34/// 41998 79999
AAXX 02061 14280 12960 01302 11006 21016 30094 40207 57010 60002 333 21007 34103
AAXX 02061 14308 12570 80000 11034 21043 39876 40247 57006 60002 886// 333 21040 34108 92611
AAXX 02061 14321 12680 41002 10084 20053 30217 40241 56/// 60002 82541 222// 00115 333 20065 30002 92312 92428
AAXX 02061 14370 11930 00000 11032 21039 30102 40217 57009 60002 71000 333 21036 34106
AAXX 02061 14382 12960 03401 11008 21019 30089 40213 57008 60002 333 21011 34103
AAXX 02061 14428 12570 21003 10053 20001 30237 40245 55000 60002 81104 222// 00131 333 20049 31002 92312
AAXX 02061 14441 12586 30901 10103 20080 30212 40236 55000 60002 83400 222// 00160 333 20078 30004 92311
AAXX 02061 14452 12599 21602 10092 20073 30014 40241 51/// 60002 81530 333 20089 92301
AAXX 02061 14454 12981 00701 10074 20005 30187 40249 54000 60002 333 20070 31101 70000 92311
AAXX 02061 14462 12980 00702 10003 21027 30259 40266 51/// 60002 333 21001 34105
BBXX A8IZ2 31201 02064 99332 10326 41698 32717 10170 20080 40190 52015 70211 8311/ 22234 20403 332// 40804 80120
AAXX 02061 21432 41998 62207 11199 21225 30077 40097 57003 73632 86030
AAXX 02061 21824 41998 62312 11220 21230 30145 40154 53001 73773 85031
AAXX 02061 21908 42999 30000 11317 21334 30105 40195 52012 80002
AAXX 02061 21921 41999 70000 11258 21289 30155 40203 52003 70272 87010
AAXX 02061 21931 41997 82102 11268 21300 30143 40178 53003 77171 8805/
AAXX 02061 21946 42999 02504 11305 21327 30118 40205 56003
AAXX 02061 21982 11996 83307 11243 21268 30126 40155 53003 69932 77173 8807/ 333 11208 91110
AAXX 02061 25062 31998 42106 11359 21393 30194 40198 57007 73632 84030 333 91108
AAXX 02061 25123 42996 21503 11348 21377 30214 40251 53003 80001
AAXX 02061 25138 41999 51201 11410 21438 30130 40272 54000 77671 82031 333 91104
AAXX 02061 25173 31596 83109 11276 21293 30173 40178 57004 73832 86530 333 11270 91114
AAXX 02061 25248 42998 00000 11472 21494 39760 40294 57001 333 91100
AAXX 02061 25282 32984 03104 11296 21313 30154 40161 57004 333 11294 91107
AAXX 02061 25325 NIL
AAXX 02061 25356 32999 20000 11465 21508 30102 40220 57002 80001 333 11/// 91000
AAXX 02061 25399 32574 50000 11302 21332 30118 40128 57006 82531 333 1//// 91103
AAXX 02061 25428 41943 70000 11450 21483 39910 40303 53005 71022 80001 333 91100
AAXX 02061 25551 11996 80000 11472 21501 30184 40220 57002 69920 77172 80006 333 11/// 91100
AAXX 02061 25563 32970 23306 11377 21411 30111 40202 56003 80001 333 11377 91107
AAXX 02061 25594 32598 53401 11256 21274 30073 40128 57007 82504 333 11253 91102
AAXX 02061 25677 32998 02803 11334 21363 30179 40185 57003 333 11334 91106
AAXX 02061 31054 NIL
AAXX 02061 31123 41997 82102 11252 21291 39948 40304 57010 77173 8802/
AAXX 02064 93800 16/// /2508 10148 20074 40131 57007 60001
AAXX 02064 93805 16/// /1508 10125 20064 40179 54000 60001
AAXX 02064 93994 16/// /0902 10211 20199 40117 52014 60091
BBXX ZMFR 02064 99429 31784 43/// /2125 10138 20075 40104 52012 22232 00153
BBXX ZMENA 02064 99413 31733 46/// ///// 10173 20106 40116 52018 22200
BBXX ZMFR 02064 99429 31784 43/// /2125 10138 20075 40104 52012 22232 00153
BBXX ZMENA 02064 99413 31733 46/// ///// 10173 20106 40116 52018 22200
BBXX DDAC2 02060 99525 71565 41498 62503 10009 21020 40000 54000 7//22 84470 22273 04046 20400 309// 40906 5//// 81002
BBXX NWS0003 02064 99539 71665 43/// /0000 11026 21042 40007 5//// 7//// 8//// 222// 0//// 2//// 3//// 4//// 5//// 6//// 8//// ICE /////
BBXX 46207 02061 99509 71299 46/// /1614 10081 40027 52014 22200 00080 11213 70065 333 91218
BBXX DGBE 02063 99500 71344 41/97 82716 10082 20049 40010 51027 72582 8//// 22224 2//// 80066
BBXX S6JU 02064 99452 71330 41697 82510 10100 20080 40040 51010 70222 886// 22274 0//// 2//// 3//// 4//// 5//// 6//// 80090 ICE /////
BBXX SHIP 02064 99435 71289 41698 61823 10120 20102 40085 56027 70322 858// 90600 22274 00110 2//// 3//// 4////
BBXX VQAJ8 02063 99486 71225 41/98 80115 10054 20032 40183 57015 70222 88/// 22200 00085 20401 300// 40000 5//// 80045
BBXX VRCI9 02064 99439 71306 41/96 /1528 10130 20113 40050 57030 76100 8//// 22275 00125 2//// 3//// 4//// 80120
BBXX WFLG 02064 99314 71288 41498 70909 10161 20153 40218 51020 70222 875// 22264 00133 20501 309// 40705 5//// 6//// 80156 ICE /////
AAXX 02064 65528 NIL
AAXX 02064 65536 NIL
AAXX 02064 65545 NIL
AAXX 02064 65548 NIL
AAXX 02064 65555 NIL
AAXX 02064 65557 NIL
AAXX 02064 65560 NIL
AAXX 02064 65562 NIL
AAXX 02064 65563 NIL
AAXX 02064 65578 31902 00402 10222 20219 30116 40133 74644 80000 333 20220 58005
AAXX 02064 65585 NIL
AAXX 02064 65592 NIL
AAXX 02064 65594 NIL
AAXX 02064 65599 NIL
AAXX 02064 61600 NIL
AAXX 02064 61612 NIL
AAXX 02064 61627 NIL
AAXX 02064 61630 NIL
AAXX 02064 61641 32958 40211 10195 20118 30131 40164 82032 333 01900 20192 50844 55040 59009 82363 84073
AAXX 02064 61666 NIL
AAXX 02064 61679 NIL
AAXX 02064 61687 NIL
AAXX 02064 61695 NIL
AAXX 02064 61697 NIL
AAXX 02064 61698 NIL
AAXX 02064 61699 NIL
AAXX 02061 60373 36/// /2604 10124 20067 333 20107
AAXX 02061 60623 36/// /0000 10056 21057 333 20055
AAXX 02061 60393 16/// /1602 10078 20054 69924 333 20073
BBXX FLAO 0206/ 99764 70847 46/// ///// 11318 40150 52006
BBXX 46147 02061 99518 71312 46/// /1908 10084 40012 52019 22200 00078 11312 70062 333 91211
AAXX 02064 60285 32956 00608 10110 20104 40289 5//// 333 20106
AAXX 02061 08535 12/// /3102 10117 20111 30211 40305 52008 60032 333 20117 30008 5//// 55013 20602 91106 555 60005
AAXX 02061 08531 12/// /3306 10137 20114 30264 40303 52009 60022 333 20136 30012 5//// 55009 20416 91011 91111 555 69935
AAXX 02064 67767 NIL
AAXX 02064 67843 NIL
AAXX 02064 67969 32980 13501 10243 20193 3//// 48/// 80001 333 20175 5//// 81080
BBXX 46147 02061 99518 71312 46/// /1908 10084 40012 52019 22200 00078 11312 70062 333 91211
AAXX 02064 41257 36/// /1602 10214 20118 39709 40199 333 0E014 20148 59026
AAXX 02064 63705 32560 32903 10210 20193 38876 48530 82200 3333 20182 59006 81820 5555 10198
AAXX 02061 25703 41999 30000 11454 21483 30005 40324 54000 70171 80001
AAXX 02061 25745 42998 00000 11403 21432 30180 40240 53001
AAXX 02061 25913 42699 70603 11216 21241 30061 40221 57001 82531
AAXX 02061 25954 42998 80000 11221 21278 30068 40190 53002 82031
AAXX 02061 25956 42598 70406 11240 21280 30169 40175 53002 84501
AAXX 02061 31088 42999 73503 11256 21295 30219 40227 57003 82041
AAXX 02061 31873 42998 02403 11180 21238 30136 40281 56011
AAXX 02061 31909 42999 02908 11102 21212 30120 40201 55007 333 91012 91112
AAXX 02061 31960 42997 03410 11151 21221 30007 40259 57006 333 91016 91116
AAXX 02061 31961 41996 00703 11141 21193 30228 40277 56013 70400
AAXX 02061 32053 41597 83303 11153 21180 30138 40190 56005 78582 889// 333 88920 91005 91106
AAXX 02061 32061 41597 83607 11156 21207 30164 40205 55000 72682 82902 333 91009 91109
AAXX 02061 32098 41598 73605 11121 21165 30151 40161 57002 73683 85930 333 91008 91110
AAXX 02061 32150 41597 30104 11069 21106 30102 40133 57004 73683 83900 333 91009 91111
AAXX 02061 32165 41493 83603 10000 21003 30006 40067 56012 78686 889// 333 91005 91109
AAXX 02061 32215 42980 52602 11052 21132 30195 40225 54000 82039 333 91004 91104
AAXX 02061 32252 NIL
AAXX 02061 32389 42699 70000 11250 21268 30172 40213 53013 82530
AAXX 02061 32477 42999 71402 11106 21134 30201 40234 56003 87070
AAXX 02061 32583 42999 03402 11113 21141 30196 40228 53007
AAXX 02061 32618 41497 83407 11065 21093 30150 40172 52012 78583 889// 333 91012 91112
AAXX 02064 61600 32960 00604 10155 20052 30167 40172 333 20150 50794 55049 59012
AAXX 02064 61612 32958 30000 10160 21021 30167 40175 80002 333 01200 20158 50471 55045 59017 83073
AAXX 02064 61630 32958 00000 10179 20030 30141 40161 333 01600 20165 50552 55039 59010
AAXX 02064 61666 32960 00804 10170 20142 30155 40164 333 01100 20134 56104 55054 59007
AAXX 02064 61679 32958 03608 10173 20066 30161 40169 333 01500 20173 50814 55058 59002
AAXX 02064 61687 32960 00204 10166 21017 30093 40151 333 01000 20140 50831 55074 59005
AAXX 02064 61695 32960 03404 10172 20063 30122 40148 333 01500 20172 50394 55064 59004
AAXX 02064 61697 32960 30410 10177 20048 30132 40147 80001 333 01500 20170 50604 55074 59003 83073
AAXX 02064 61698 32958 30604 10258 20015 30137 40148 80002 333 01300 50604 55027 58000 83073
AAXX 02064 61699 32958 61406 10150 20043 39942 40134 80002 333 01200 20145 50584 55042 59004 86073
AAXX 02064 89002 42999 12207 11088 21107 39807 49861 57008 80001
AAXX 02064 71979 16/// ///// 11042 21071 38480 40178 58024 60001 333 11042 21274 70000
AAXX 02064 71343 16/// /1713 11028 21089 60001 333 10011 21118 70000 555 31721 40211
AAXX 02064 71345 16/// /1907 11006 21082 60001 333 10011 21134 70004 555 32023 40211
AAXX 02064 71217 16/// /0606 11068 21086 60001 333 11033 21152 70000
AAXX 02064 71224 16/// /1910 11027 21060 60001 333 10014 21115 70000
AAXX 02064 71463 46/// /2733 10018 21039 39827 40049 53001 6///1 333 10076 20010 7//// 555 32157 40003
AAXX 02064 71189 46/// /0812 11030 21058 6///1 333 11030 21099 7//// 555 30826 40011
AAXX 02064 71191 16/// ///// 10012 21003 60001 333 10028 21005 70015
AAXX 02064 71276 16/// ///13 11125 21153 60001 333 11061 21188 70004
BBXX 42362 02061 99278 70907 46/// /3616 10178 20067 40278 90615
BBXX 42363 02061 99282 70892 46/// /0218 10178 20078 40271 90615 333 91218
BBXX 42363 02061 99282 70892 46/// /0117 10194 20061 40271 90630 333 91217
BBXX 42364 02061 99291 70881 46/// /3617 10156 20061 40264 90615
AAXX 02061 27083 32999 80000 11070 21075 39989 40222 54000 8803/ 333 21066
AAXX 02061 50434 32980 70000 11207 21256 39347 40338 57011 80002 333 21338
AAXX 02061 50527 32965 70401 11192 21221 39448 40318 57004 83032 333 21274
AAXX 02061 50603 11980 73602 11199 21246 39575 40321 57004 69911 70070 80002 333 21226
AAXX 02061 50632 32980 72701 11113 21181 39320 40274 57013 80002 333 21216
AAXX 02061 50727 11580 73402 11161 21206 39017 40311 57009 69901 72270 82502 333 21282
AAXX 02061 50915 11675 72905 11139 21187 39229 40316 57005 69951 77070 86502 333 21217
AAXX 02061 51716 32965 01401 11032 21107 39022 40393 57003 333 05300 21132
AAXX 02061 51765 32980 03401 11034 21116 39338 40409 57011 333 05301 21180
AAXX 02061 51777 32970 03401 11034 21123 39290 40410 57012 333 05201 21160
AAXX 02061 51811 31958 03201 11073 21088 38893 40411 57003 71040 333 05351 21153
AAXX 02061 51828 32965 03402 11041 21132 38728 40384 57003 333 05300 21102
AAXX 02061 52267 32980 01402 11066 21160 39253 40445 57016 333 00553 21172
AAXX 02061 52323 32980 00903 11113 21188 38313 57013 333 00154 21242
AAXX 02061 52495 32980 00204 11084 21165 38785 40426 57019 333 00356 21187
AAXX 02061 53149 32980 02907 11122 21178 38863 40397 57019 333 00558 21195
AAXX 02061 53192 32980 22505 11190 21225 38933 40369 52002 80002 333 21211
AAXX 02061 53231 32980 00000 11116 21176 38576 57013 333 00452 21260
AAXX 02061 53336 32980 03404 11115 21192 38810 40412 57012 333 00552 21170
AAXX 02061 53391 32980 72906 11158 21195 38536 40360 57004 80002 333 05157 21188
AAXX 02061 53529 32980 23606 11072 21174 38703 40382 57023 80002 333 00256 21150
AAXX 02061 53543 32980 03203 11086 21201 38597 40366 57019 333 21148
AAXX 02061 53723 32975 60202 11072 21154 38741 40382 57024 80002 333 00257 21130
AAXX 02061 54012 11980 72905 11158 21195 39037 40322 57002 69941 77177 80002 333 21244
AAXX 02061 54026 32980 71601 11094 21186 39917 40268 57018 80002 333 21172
AAXX 02061 54027 11965 83601 11111 21143 39638 40275 57016 69911 77070 8801/ 333 21179
AAXX 02061 54208 11980 52909 11163 21208 38780 40341 52001 69901 70070 80002 333 21176
AAXX 02061 54776 32980 03406 10001 21079 30209 40269 57018 333 21029
AAXX 02061 56004 11680 72712 11040 21142 35751 57022 69901 70080 879// 333 05853 21131 91120 91527
AAXX 02061 56033 11580 70404 11086 21134 35952 57024 69951 70070 83802 333 05655 21175
AAXX 02061 56046 32580 60902 10004 21178 36169 57043 86900 333 05751 21163
AAXX 02060 67586 11357 80000 10189 20184 38794 48513 60924 76196 8577/ 333 20175 59001 5//// 55013 70923 82707 84609 88458 555 10260 7//96
AAXX 02060 67585 11470 80000 10199 20193 60204 76066 8557/ 333 20190 5//// 55/// 70201 85610 88458 555 10269 7//96
AAXX 02061 56193 NIL
AAXX 02061 56196 32962 60404 10089 21015 40232 57041 86040 333 05301 20050
AAXX 02061 56287 11456 80901 10065 20058 40242 57042 69921 76066 8272/ 333 05200 20050
AAXX 02061 56684 32580 10702 10130 20042 37857 57047 81100 333 05302 20036
AAXX 02061 56751 32780 43606 10198 20047 37995 57039 84400 333 05203 20091 91121 91522
AAXX 02061 56786 32580 12004 10214 20049 38064 57048 81140 333 05306 20050
AAXX 02061 56977 32580 71103 10203 20171 40128 57034 874// 333 05200 20161
AAXX 02061 57259 11962 83201 10061 20026 40272 57033 69901 70060 8807/ 333 20035
AAXX 02061 57279 31958 72902 10039 21005 40280 57032 71000 8707/ 333 20009
AAXX 02061 57348 11856 83601 10077 20058 40236 57033 60021 76060 885// 333 20077
AAXX 02061 57399 31957 82701 10059 20012 40271 57032 70500 8807/ 333 20018
AAXX 02061 57554 31840 82001 10074 20017 40255 57035 71000 885// 333 20059
AAXX 02061 57793 31930 80402 10085 20033 40248 57034 71000 8807/ 333 20062
AAXX 02061 58345 32962 00702 10075 21056 40260 57044 333 21023
AAXX 02061 58506 32/61 42901 10033 21026 40255 57025 81140 333 21023
AAXX 02061 58813 32960 23402 10121 20055 40230 57041 82040 333 20045
AAXX 02061 58834 32962 70703 10136 20045 40230 57040 8704/ 333 20084
AAXX 02061 58926 32761 81801 10137 20070 40223 57036 8757/ 333 20100
AAXX 02061 58944 32560 80204 10109 20041 40231 57031 885// 333 20096
AAXX 02061 59096 32963 72501 10178 20040 40202 57050 8704/ 333 20105
AAXX 02061 59102 32962 50000 10146 20051 40212 57043 85030 333 20061
AAXX 02061 59278 32860 70202 10174 20072 40200 57043 875// 333 20134
AAXX 02061 59456 32970 72501 10201 20094 40184 57041 8704/ 333 20140
AAXX 02061 59493 31657 73403 10184 20108 40191 57041 70500 875// 333 20149
AAXX 02061 59658 32560 70905 10190 20127 40182 57035 878// 333 20164
AAXX 02061 59673 32565 40907 10177 20115 40191 57039 84200 333 20144
AAXX 02061 59845 11565 71604 10219 20157 40172 57035 69901 70060 878// 333 20175
BBXX 46183 02061 99536 71311 46/// /1613 10084 49981 5//// 22200 00076 11212 70059 333 91216
BBXX 46183 02061 99536 71311 46/// /1613 10084 49981 5//// 22200 00076 11212 70059 333 91216
AAXX 02064 62309 12560 62305 10116 20112 40209 52014 60064 86800 333 20114
AAXX 02064 62325 11556 52503 10124 20121 40205 52012 60114 71061 85500 333 20120
AAXX 02064 62332 31956 72510 10125 20111 40201 52015 71021 84048 333 20114
AAXX 02064 62387 32960 00000 10098 20036 40234 52014 333 20068
AAXX 02064 62452 32960 02206 10060 20032 40226 52008 333 20022
AAXX 02064 62459 32560 23308 10120 20040 40209 52011 82200 333 20091
AAXX 02064 62458 NIL
AAXX 02064 62455 32560 30000 10114 20063 40194 53011 83500 333 20100
AAXX 02064 62420 32960 00000 10070 20003 40234 52013 333 20060
AAXX 02064 62432 32960 22005 10074 20027 40245 52014 80002 333 20028
AAXX 02064 62435 32960 00000 10086 20040 40229 52009 333 20056
AAXX 02064 62476 32960 02710 10164 20001 40189 52016 333 20132
AAXX 02064 62309 12560 62305 10116 20112 40209 52014 60064 86800 333 20114
AAXX 02064 62325 11556 52503 10124 20121 40205 52012 60114 71061 85500 333 20120
AAXX 02064 62332 31956 72510 10125 20111 40201 52015 71021 84048 333 20114
AAXX 02064 62387 32960 00000 10098 20036 40234 52014 333 20068
AAXX 02064 62452 32960 02206 10060 20032 40226 52008 333 20022
AAXX 02064 62459 32560 23308 10120 20040 40209 52011 82200 333 20091
AAXX 02063 41863 32456 80901 10175 20150 30116 40161 8452/ 333 56999 58001 70041 84616 88458
AAXX 02063 41915 11350 80000 10200 20180 30136 40132 69963 76066 8672/ 333 56999 58019 70006 84708 85616 88458
AAXX 02063 41926 11450 80000 10180 20170 30153 40167 60013 76166 8352/ 333 56699 58007 70022 83618 88458
AAXX 02063 41929 11450 82302 10200 20170 30148 40157 60023 76066 8452/ 333 56999 58013 70024 84618 88460
AAXX 02063 41941 11450 80000 10217 20180 30156 40162 60013 76062 8452/ 333 56999 58021 70016 84614 88459
AAXX 02063 41960 11440 83202 10236 20190 30158 40160 69903 76062 8552/ 333 56799 58018 79999 85615 88458
AAXX 02061 60379 16/// /1601 10071 20071 69924 333 20071
AAXX 02061 60380 16/// /2501 10038 20037 69924 333 20035
AAXX 02061 60394 36/// /0000 10050 20050 333 20049
AAXX 02061 60374 36/// /1803 10121 20066 333 20094
AAXX 02061 60613 36/// /0000 10044 21012 333 20042
AAXX 02064 61017 31958 50424 10140 21026 39781 40198 70728 80002 333 00400 20128 50494 55097 59002 85080
AAXX 02064 61024 32960 50806 10130 21056 39602 40178 80001 333 01000 20129 51371 55/// 58006 85080
AAXX 02064 61036 32960 70604 10190 21011 39916 40155 80008 333 01800 20188 51001 50854 55068 58014 87280
AAXX 02064 61043 32960 70608 10158 21050 39720 40166 80008 333 0//00 20155 51181 5///4 55085 58015 87280
AAXX 02064 61045 31956 70404 10145 21040 39665 40170 7062/ 80008 333 01100 20145 5//// 50724 55087 58000 87280
AAXX 02064 61049 31910 70000 10140 21017 39839 40168 7062/ 80008 333 01100 20135 51011 50904 55086 58004 87280
AAXX 02064 61052 32960 50606 10180 21026 39900 40158 80002 333 01400 20172 50601 55062 58004 85080
AAXX 02064 61075 32960 71002 10170 21021 39850 40162 80008 333 01400 20165 51041 50714 55088 58016 87280
AAXX 02064 61080 32960 70000 10117 21009 39753 40192 80008 333 00900 20115 51091 51124 55087 58017 87280
AAXX 02064 61090 32960 70404 10160 21034 39653 40170 80008 333 01400 20158 51001 50894 55098 58000 87280
AAXX 02064 61091 32965 70000 10100 20033 39715 40179 80008 333 00700 20095 50531 50434 55079 58003 87280
AAXX 02064 61096 32906 73602 10170 21018 39787 40172 70642 80008 333 01500 20155 51001 50794 55085 58007 87280
AAXX 02064 61099 32960 70410 10196 21008 39913 40142 80008 333 01500 20190 50961 55090 58010 87280
BBXX 46131 02061 99499 71250 46/// /1210 1//// 40164 57014 22200 00073 10401 70005 333 91212
AAXX 02064 43415 22470 20502 10304 20250 30016 40124 82100 333 58000 60007 70000 82818
BBXX 46131 02061 99499 71250 46/// /1210 1//// 40164 57014 22200 00073 10401 70005 333 91212
AAXX 02064 64500 32360 81810 10252 20235 30111 40124 845// 333 02350 20225 50201 55084 58006 84608 88633
AAXX 02064 64501 32360 51804 10250 20236 3//// 4//// 85500 333 0//00 20249 50254 55/// 5//// 83608 85630
AAXX 02064 64507 NIL
AAXX 02064 64510 NIL
AAXX 02064 64550 NIL
AAXX 02064 64551 NIL
AAXX 02064 64556 NIL
AAXX 02064 64570 31440 5//// 10220 20217 3//// 4//// 71022 82530 333 02100 2//// 50164 55/// 5//// 82610 85360
AAXX 02064 60210 32960 00602 10028 21075 39103 48603 53003 333 20022 34005
AAXX 02061 37661 42998 02401 10004 21005 39380 40153 57001
AAXX 02061 37675 41495 80000 11005 21011 39487 40162 52011 70242 8802/
AAXX 02061 37729 42598 22904 10010 21004 38486 54000 82100 333 21012
AAXX 02061 37735 42999 02902 10057 39767 40145 53001
AAXX 02061 37740 42999 22001 10009 21002 39331 40147 57003 82030
AAXX 02061 37749 42998 33601 10014 21018 30069 40188 57007 83080
AAXX 02061 37832 NIL
AAXX 02061 37851 42598 82302 10068 20038 30077 40149 53004 885// 555 20032
AAXX 02061 37864 32597 81602 10055 20034 40144 52003 885// 333 20012 88625 555 30///
AAXX 02061 37905 42997 00000 10017 20014 40161 53010
AAXX 02061 37923 42997 32706 10080 20038 40127 54000 83030 333 20041
AAXX 02061 37925 42998 42701 10060 20051 30181 40151 58020 84050 333 20035
AAXX 02061 37985 42997 32301 10064 20055 30168 40154 53005 83040
AAXX 02061 37989 42999 12701 10061 20050 40163 53007 81030
AAXX 02064 63705 32560 32903 10210 20193 38876 48530 82200 333 20182 59006 81820 555 10198
AAXX 02064 63705 32560 32903 10210 20193 38876 48530 82200 333 20182 59006 81820 555 10198
AAXX 02064 61017 31958 50424 10140 21026 39781 40198 70728 80002 333 00400 20128 50494 55097 59002 85080
AAXX 02064 61024 32960 50806 10130 21056 39602 40178 80001 333 01000 20129 51371 55/// 58006 85080
AAXX 02064 61036 32960 70604 10190 21011 39916 40155 80008 333 01800 20188 51001 50854 55068 58014 87280
AAXX 02064 61043 32960 70608 10158 21050 39720 40166 80008 333 0//00 20155 51181 5///4 55085 58015 87280
AAXX 02064 61045 31956 70404 10145 21040 39665 40170 7062/ 80008 333 01100 20145 5//// 50724 55087 58000 87280
AAXX 02064 61049 31910 70000 10140 21017 39839 40168 7062/ 80008 333 01100 20135 51011 50904 55086 58004 87280
AAXX 02064 61052 32960 50606 10180 21026 39900 40158 80002 333 01400 20172 50601 55062 58004 85080
AAXX 02064 61075 32960 71002 10170 21021 39850 40162 80008 333 01400 20165 51041 50714 55088 58016 87280
AAXX 02064 61080 32960 70000 10117 21009 39753 40192 80008 333 00900 20115 51091 51124 55087 58017 87280
AAXX 02064 61090 32960 70404 10160 21034 39653 40170 80008 333 01400 20158 51001 50894 55098 58000 87280
AAXX 02064 61091 32965 70000 10100 20033 39715 40179 80008 333 00700 20095 50531 50434 55079 58003 87280
AAXX 02064 61096 32906 73602 10170 21018 39787 40172 70642 80008 333 01500 20155 51001 50794 55085 58007 87280
AAXX 02064 61099 32960 70410 10196 21008 39913 40142 80008 333 01500 20190 50961 55090 58010 87280
AAXX 02064 40103 11460 61804 10115 20081 40165 52012 60144 71722 86900 333 20099 32/// 50184 20363 82917 85824 555 10182
AAXX 02064 67341 32580 29902 10274 20200 40126 52012 82500 333 20222 5///0 5//// 94350 555 10000
BBXX 46204 02061 99514 71288 46/// /1413 10073 40055 52018 22200 00082 11010 70049 333 91217
AAXX 02061 38599 3107 90704 11033 21037 39692 40227 52006 74944 333 21037
AAXX 02061 36208 32999 00801 11097 21147 39323 40343 57023 333 21183
AAXX 02061 36428 32599 22702 11216 21238 39842 40390 58017 82600 333 21274 95000
BBXX 46204 02061 99514 71288 46/// /1413 10073 40055 52018 22200 00082 11010 70049 333 91217
BBXX 41036 02061 99342 70770 46/// ///// 10186 20147 40132 90620 22200 00210
AAXX 02064 92044 31480 80104 10282 20243 30067 40073 57001 72022 86936
BBXX A8KO3 02060 99138 31148 41798 61004 10290 20263 40100 54000 70311 855// 22284 00190 2//// 80270
BBXX VROB 02064 99163 31526 46/// /1519 10269 20192 30065 40090 57007 22283 04278 85216
BBXX VNAH 02064 99383 31416 46/// /2724 10297 20106 30037 40059 57004 22200 04217 85179
BBXX FHZI 02064 99534 31463 46/// /3015 10061 2//// 30009 40020 54000 22283 04055
BBXX A8TX8 02063 99106 31403 41698 61010 10310 20231 40080 54000 703// 8343/ 22224 04300 20401 30000 80255
BBXX VNAA 02064 99446 31456 41599 80623 10174 20147 40059 58042 70222 8157/ 22213 04157 20502 323// 41202
AAXX 02064 91650 NIL
AAXX 02064 91652 NIL
AAXX 02064 91656 NIL
AAXX 02064 91659 11498 70000 10268 2025/ 40080 55000 60061 76066 8587/ 333 5699/ 81718 84820 86460
AAXX 02064 91660 NIL
AAXX 02064 91669 36/// /0601 10281 20266 40090 52016 90618
AAXX 02064 91670 36/// /0200 10289 20242 40076
AAXX 02064 91676 NIL
AAXX 02064 91680 11498 71104 10260 20253 40081 51016 69991 79519 877// 333 569// 81708 82918 84824 85648
AAXX 02064 91682 NIL
AAXX 02064 91683 11599 60509 10294 20253 40082 53012 70222 85872 333 56999 83822 83647 85080
AAXX 02064 91691 NIL
AAXX 02064 91693 NIL
AAXX 02064 91697 NIL
AAXX 02064 91699 NIL
AAXX 02064 40401 42960 30000 10120 21060 39479 40193 80001 333 20050 58021 83070
AAXX 02064 03008 12484 22219 10044 20001 49831 60002 82800 90550 333 20040 31/// 70000 81818 90710 91128
AAXX 02064 92044 31480 80104 10282 20243 30067 40073 57001 72022 86936
BBXX A8KO3 02060 99138 31148 41798 61004 10290 20263 40100 54000 70311 855// 22284 00190 2//// 80270
BBXX VROB 02064 99163 31526 46/// /1519 10269 20192 30065 40090 57007 22283 04278 85216
BBXX VNAH 02064 99383 31416 46/// /2724 10297 20106 30037 40059 57004 22200 04217 85179
BBXX FHZI 02064 99534 31463 46/// /3015 10061 2//// 30009 40020 54000 22283 04055
BBXX A8TX8 02063 99106 31403 41698 61010 10310 20231 40080 54000 703// 8343/ 22224 04300 20401 30000 80255
BBXX VNAA 02064 99446 31456 41599 80623 10174 20147 40059 58042 70222 8157/ 22213 04157 20502 323// 41202
AAXX 02061 21802 41997 83206 11214 21227 30149 40174 52007 77173 8802/
AAXX 02061 24125 42998 60000 11233 21239 39914 40215 52005 86020
AAXX 02061 24136 41999 20000 11280 21311 30094 40203 52007 70271 82070
AAXX 02061 24143 41999 21805 11273 21312 30157 40211 54000 70273 82070
AAXX 02061 24266 42999 02301 11400 21427 30044 40248 52002
AAXX 02061 24329 42999 20000 11292 21315 39928 40261 52011 82010
AAXX 02061 24343 41497 81402 11276 21299 30104 40235 52004 77172 86607 333 86713
AAXX 02061 24382 41997 20000 11433 21461 39978 40273 54000 71000 80001
AAXX 02061 24639 41997 82503 11195 21214 30090 40254 52009 77172 83017
AAXX 02061 24641 41999 20000 11299 21330 30086 40245 53004 70271 80001
AAXX 02061 24652 42998 20000 11317 21347 30135 40273 57005 80001
AAXX 02061 24656 41999 60501 11350 21380 30173 40290 54000 70171 80001
AAXX 02061 24671 41997 83201 11394 21422 39729 40314 56001 71522 83087
AAXX 02061 24688 41999 20000 11500 21535 39331 40442 57002 70400 80001
AAXX 02061 24724 42999 02204 11214 21233 39733 40305 52010
AAXX 02061 24738 42999 42502 11172 21184 30086 40273 52009 80001
AAXX 02061 24768 42997 70000 11332 21366 30016 40280 53001 80002
AAXX 02061 24923 41699 42403 11147 21174 39992 40316 52007 72273 81501
AAXX 02061 24944 41698 62603 11159 21172 39984 40292 53002 70272 82531
AAXX 02061 24951 41999 72902 11135 21155 30092 40267 58003 70272 87070
AAXX 02061 24661 42999 20000 11386 21413 39987 40295 53003 80001
AAXX 02061 24959 41998 82201 11305 21334 30133 40278 53004 77172 82035
AAXX 02061 24962 41997 80000 11313 21342 30070 40279 52002 77172 85075
AAXX 02061 24966 41999 80000 11314 21336 30026 40270 53002 70272 82031
AAXX 02061 24967 41998 80000 11267 21298 30050 40292 53006 77172 80007
AAXX 02061 25206 42999 50000 11366 21394 30222 40253 53001 80001
AAXX 02061 25400 41995 00000 11397 21416 30185 40249 57001 71000
AAXX 02061 30054 41997 73201 11189 21215 30092 40352 52005 77172 83045
AAXX 02061 30089 41999 20000 11242 21266 30083 40330 58003 70271 80001
AAXX 02061 30393 41998 89901 11214 21233 39209 40336 52001 77172 82037
AAXX 02061 30493 42699 80000 11160 21194 39201 40304 52002 86531
AAXX 02061 31004 41997 82402 11157 21176 39420 40302 52002 77172 83037
AAXX 02061 31137 42999 80000 11284 21315 39192 40336 57005 80002
AAXX 02061 35925 31/92 90000 11037 21040 40153 53004 74644 333 21074
AAXX 02061 36208 32999 00801 11097 21147 39323 40343 57023 333 21183
AAXX 02061 36428 32599 22702 11216 21238 39842 40390 58017 82600 333 21274 95000
AAXX 02061 38001 32997 80702 10005 21021 30184 40154 57004 8807/ 333 20000
AAXX 02061 38232 32598 82101 10008 21019 30057 40156 53005 885// 333 21006
BBXX 44033 02061 99441 70690 46/28 /1709 10080 40029 58049 90604 22200 00057 10503 70014 333 91210 555 11112 22123
BBXX 44034 02061 99441 70681 46/30 /1710 10080 40050 58044 90604 22200 00077 10504 70018 333 91212 555 11129 22138
BBXX 44039 02061 99411 70727 46/// /2306 10101 20098 40048 56034 90600 22200 00082 10401 70006 333 91208
BBXX 44060 02061 99413 70721 46/// ///07 10097 40034 90615 22200 00093 333 91209 555 11077 22082
BBXX 44022 02061 99409 70737 46/// ///08 10094 20046 40049 90615 22200 00073 333 91211 555 11093 22103
BBXX 44029 02061 99425 70706 46/30 /1807 10087 40019 58046 90604 22200 00079 10502 70010 333 91208 555 11089 22097
BBXX 44030 02061 99432 70704 46/// /1809 1//// 40016 57048 90604 22200 00078 10503 70014 333 91210 555 11108 22115
BBXX 44040 02061 99410 70736 46/// /2708 10092 20069 40053 90615 22200 10201 70003 333 91210 555 11093 22113
BBXX 46088 02061 99483 71232 46/// /1210 10093 40153 90620 22200 00077 10502 20502 70010 333 91212 555 11106 22116 30551 41413 60619 124100 134098 138106 135081 140066 139080
BBXX 46087 02061 99485 71247 46/// /0908 10090 20056 40153 90620 22200 00079 333 91210 555 11090 22098 30605 41011 60619 095083 095088 087079 092078 089076 094078
AAXX 02061 30157 41698 81303 11229 21262 30086 40399 58002 70272 84501
AAXX 02064 67765 NIL
AAXX 02064 67775 12380 60603 10200 20182 38511 48515 60234 8663/ 333 20169 59001 86708
AAXX 02064 67779 11480 70802 10223 20203 39048 48506 60204 70296 8453/ 333 20189 59004 84615 87360
AAXX 02064 67853 NIL
AAXX 02064 67861 12980 51401 10228 20185 38721 48504 60334 81072 333 20171 58003 81359 85080
AAXX 02064 67867 32980 61102 10224 20155 38581 48510 80002 333 20138 58000 86080
AAXX 02064 67881 NIL
AAXX 02064 67965 32980 61003 10238 20144 38694 48522 80008 333 20174 59002 86280
AAXX 02064 67975 NIL
AAXX 02064 67977 NIL
AAXX 02064 67983 NIL
AAXX 02064 67991 32975 00000 10286 20191 39583 48508 333 20225 59013
BBXX WZJC 02064 99237 70813 41398 30310 10233 2018/ 40205 57010 70200 832// 22263 00256 20301 3//// 4//// 5//// 6//// 80200 ICE /////
BBXX WJBJ 02063 99117 70774 41998 00525 10270 20228 40108 57013 70200 80000 22254 00275 20403 308// 40604 5//// 6//// 80240 ICE /////
AAXX 02064 67755 NIL
AAXX 02064 67771 12480 60303 10221 20192 3//// 48/// 69904 81132 333 20186 5//// 81812 86080
AAXX 02064 67773 12480 70603 10220 20190 3//// 48/// 60024 875// 333 20190 5//// 87616
AAXX 02064 67774 NIL
AAXX 02064 67785 NIL
AAXX 02064 67789 NIL
AAXX 02064 67855 31970 71801 10230 20195 3//// 48/// 70522 80001 333 20184 5//// 87080
AAXX 02064 67857 NIL
AAXX 02064 67863 NIL
AAXX 02064 67871 NIL
AAXX 02064 67875 NIL
AAXX 02064 67891 NIL
AAXX 02064 67895 NIL
AAXX 02064 67897 NIL
AAXX 02064 67899 NIL
AAXX 02064 67951 32980 20107 10227 20153 3//// 48/// 80001 333 20167 5//// 82080
AAXX 02064 67963 NIL
AAXX 02064 67967 NIL
AAXX 02064 67971 NIL
AAXX 02064 67976 32976 53003 10256 20197 38/// 80002 333 20187 5//// 85080
AAXX 02064 67979 NIL
AAXX 02064 40250 32660 60000 10072 20023 39380 40183 52007 86800 333 20/// 30/// 83830
AAXX 02064 40265 11550 81914 10080 20070 39395 40203 52012 69932 75052 888// 333 20070 30004 84825 85630
AAXX 02064 40296 32660 70000 10138 20068 40201 52013 87800 333 20134 30011 83830 84630
AAXX 02064 40310 32560 72404 10063 20011 38959 48498 52010 86830 333 20046 30002 83825 84630 82360
AAXX 02061 60376 16/// /1603 10074 20074 69924 333 20071
BBXX ELWO6 02063 99241 70570 41598 41110 10248 20212 40225 57015 70300 82444 22254 00254 20801 311// 41003 80223
BBXX DAJT 02064 99268 50320 41498 10323 10230 20193 40105 58025 70200 8/1// 22264 04230 2//04 80205
BBXX A8TG2 02063 99254 71213 41698 82806 10170 20115 40200 52010 702// 8467/ 22263 20102 300// 40000 80140
BBXX DFVY2 02064 99022 50380 41/98 20818 10270 20225 40111 57009 70300 22214 00260 80238
BBXX DGOQ 02064 99548 10096 43/97 /2404 10068 49980 57010 22200 04068 2//01
AAXX 02064 40153 11002 /2409 10070 20069 39094 48487 52013 60122 72164 333 20055 70214
AAXX 02064 40179 11460 81709 10108 20098 30154 40192 52016 60442 76162 888// 333 20106 55083 70000
AAXX 02064 40180 11456 81809 10107 20084 30149 40199 52018 60282 76286 882// 333 20104 70440
AAXX 02064 40190 16/// ///// 10120 20061 39861 40197 52010 60002 333 20114 70000
AAXX 02064 40199 12970 00501 10105 20028 30187 40210 52012 60002 222// 00218 333 20095 50331 55093 70000
BBXX BAREU04 02064 99439 70639 46/// ///// 40134 57019 22212
BBXX BAREU12 02064 99514 10042 46/// ///// 40043 22273
BBXX PHAA 02063 99095 70250 41/// /0519 10232 20184 40141 70200 8//// 22243 20504 80200 91048
BBXX PHAL 02063 99134 70180 41/96 /0527 10220 20107 40158 52008 702// 8//// 22282 2//// 80153 91048
BBXX IDDUK02 02064 99540 50388 46/// ///// 40029 222//
BBXX PHOB 02064 99129 10719 41/98 81716 10280 20253 40118 51009 70222 81/7/ 22274 00271 20604 3//// 4//// 5//// 80260
BBXX SHIP 02064 99376 11432 41797 83432 10100 20061 40004 52003 78182 888// 22282 00154 20404 334// 40305 80080
BBXX DHYW 02061 99490 11589 41398 32005 10030 21021 40210 54000 7//00 8114/ 22214 00080 299// 314// 40703 5//// 80010
BBXX DCLH2 02063 99280 11641 41298 70716 10195 20129 40192 50002 70211 8572/ 22264 06230 20303 332// 40908 5//// 80155
BBXX SHIP 02063 99112 11294 41/98 60916 10295 20262 40144 56010 703// 83244 22214 00280 2//01 80270
BBXX SHIP 02064 99114 11291 41697 50813 10290 20250 40089 56/// 70111 84346 22283 00280 20403 308// 40403 80260
BBXX DHDM 02064 99458 11517 41397 71240 10020 21005 40150 55010 70222 8677/ 22214 00010 20404 309// 40507 5//// 80010
BBXX SHIP 02064 99312 11280 41698 60507 10130 20073 40226 56019 70222 86453 22213 00192 20203 301// 40203 80100
BBXX SHIP 02064 99210 11320 41397 70423 10230 20114 40150 56006 70222 85871 22283 00267 20505 302// 40707 5//// 80190
BBXX SHIP 02064 99233 11269 41697 30520 10200 20135 40181 57045 70100 82230 22243 00245 20101 336// 40303 80160
BBXX SHIP 02064 99424 11540 41598 81243 10070 20013 40158 56007 70222 8855/ 90555 22214 00080 20605 306// 40806 80050
BBXX DQXQ 02064 99178 71021 41997 52809 10256 20230 40160 52015 70000 80007 22200 00270 20201 328// 40402 80237
BBXX 46204 02061 99514 71288 46/// /1413 10073 40055 52018 22200 00082 11010 70049 333 91217
BBXX 46131 02061 99499 71250 46/// /1210 1//// 40164 57014 22200 00073 10401 70005 333 91212
BBXX 46183 02061 99536 71311 46/// /1613 10084 49981 5//// 22200 00076 11212 70059 333 91216
BBXX 42364 02061 99291 70881 46/// /3617 10156 20061 40264 90615
BBXX 42363 02061 99282 70892 46/// /0218 10178 20078 40271 90615 333 91218
BBXX 42363 02061 99282 70892 46/// /0117 10194 20061 40271 90630 333 91217
BBXX 42362 02061 99278 70907 46/// /3616 10178 20067 40278 90615
BBXX 46147 02061 99518 71312 46/// /1908 10084 40012 52019 22200 00078 11312 70062 333 91211
BBXX FLAO 0206/ 99764 70847 46/// ///// 11318 40150 52006
BBXX PECF 02063 99258 70794 41998 00402 10215 20188 40215 58020 70200 80000 22214 2//// 80197
BBXX 46114 02061 99364 71222 46/// ///// 1//// 90604 22200 00121 11103 21002 329// 41102 70016
BBXX 51205 02061 99210 71564 46/// ///// 1//// 90618 22200 00242 11406 21003 334// 41405 70028
BBXX 46221 02061 99339 71186 46/// ///// 1//// 90545 22200 00149 11202 21001 326// 41202 70010
BBXX 41114 02061 99276 70802 46/// ///// 1//// 90616 22200 00233 10901 20901 70003
BBXX 41115 02061 99184 70673 46/// ///// 1//// 90605 22200 11002 21002 70009
BBXX 46211 02061 99469 71242 46/// ///// 1//// 90606 22200 00082 11004 21003 325// 41102 70019
BBXX 46222 02061 99336 71183 46/// ///// 1//// 90556 22200 00144 11302 20901 326// 41302 70010
BBXX 46231 02061 99327 71174 46/// ///// 1//// 90554 22200 00148 11202 21001 327// 41202 70011
BBXX 46242 02061 99332 71174 46/// ///// 1//// 90558 22200 00146 11301 21001 322// 41301 70007
BBXX 46223 02061 99335 71178 46/// ///// 1//// 90600 22200 00151 11302 21001 323// 41301 70009
BBXX 46216 02061 99343 71198 46/// ///// 1//// 90557 22200 00142 11302 20901 326// 41302 70010
BBXX 46217 02061 99342 71194 46/// ///// 1//// 90612 22200 00145 11202 21001 327// 41201 70008
BBXX 46240 02061 99366 71219 46/// ///// 1//// 90612 22200 00120 11301 21001 335// 41301 70006
BBXX 46237 02061 99378 71226 46/// ///// 1//// 90610 22200 00109 11302 21001 325// 41301 70009
BBXX 46212 02061 99408 71243 46/// ///// 1//// 90612 22200 00104 10802 20802 328// 41301 70011
BBXX 46249 02061 99338 71197 46/// ///// 1//// 90607 22200 00148 11302 20901 323// 41302 70012
BBXX 46244 02061 99409 71244 46/// ///// 1//// 90605 22200 00101 11103 20902 327// 41101 70014
BBXX 46248 02061 99461 71247 46/// ///// 1//// 90604 22200 00095 10905 20904 326// 41102 70023
BBXX 46241 02061 99330 71173 46/// ///// 1//// 90541 22200 00146 11301 21001 327// 41301 70007
BBXX WJBJ 02063 99117 70774 41998 00525 10270 20228 40108 57013 70200 80000 22254 00275 20403 308// 40604 5//// 6//// 80240 ICE /////
BBXX WRYC 02064 99386 70689 43/// /2534 10190 2016/ 40090 57055 7//// 8//// 22274 00154 2//// 3//// 4//// 5//// 6//// 80170 ICE /////
BBXX 46207 02061 99509 71299 46/// /1614 10081 40027 52014 22200 00080 11213 70065 333 91218
BBXX A8CN9 02060 99538 71508 41397 72712 10010 21010 49980 51045 70322 87775 22263 04036 21006 332// 40906 5//// 80002
BBXX WZJC 02064 99237 70813 41398 30310 10233 2018/ 40205 57010 70200 832// 22263 00256 20301 3//// 4//// 5//// 6//// 80200 ICE /////
BBXX 46111 02061 99481 71227 46/// /1008 10098 40171 56015 90600 22200 00054
BBXX C6VG7 02064 99259 70782 41697 43611 10260 2//// 40210 5//// 7//// 83195 2222/ 00270 20302 3//// 40302 50302 6//// 8//// ICE /////
BBXX WXJ63 02063 99611 71464 41/97 80613 11038 21086 49769 56/// 702// 8//// 222// 00038 2//// 3//// 4//// 5//// 6//// 8//// ICE /////
BBXX 44067 02061 99384 70770 46/// /0105 10101 40099 51007 90600
BBXX 44032 02061 99437 70694 46/28 /1710 10086 40021 58050 90604 22200 00078 10503 70017 333 91212 555 11127 22137
BBXX 41029 02061 99328 70796 46/// /2404 1//// 90600 555 11045 22046
BBXX WBS5272 02064 99416 70874 41/97 83415 10011 2//// 40224 5//// 70222 8//// 22200 0//// 20101 3//// 4//// 5//// 6//// 8//// ICE /////
BBXX PDYI 02063 99412 70158 41/98 /2720 10143 20083 40304 57006 702// 8//// 22262 20605 33299 41409 5//// 80110
BBXX 62305 02064 99504 10000 46/98 /2722 10098 20050 40071 52008 22200 00114 10702 70012 333 90710 91131
BBXX 62164 02064 99572 10008 47598 /2323 10072 20011 49906 53002 700// 22200 10707 70035
BBXX V2NA1 02064 99448 70093 41/98 22836 10124 20069 40211 52025 70199 8//// 22254 20410 80095
BBXX 62103 02064 99499 70029 46/99 /2822 10094 20049 40074 52011 22200 00116 10906 70029 333 90710 91144
BBXX 2AUO5 02063 99606 10016 41597 72219 10067 20031 49835 54000 76866 878// 22251 20603 322// 41006 80052
BBXX PCGM 02063 99377 70250 41/98 89903 10190 20142 40325 56011 70222 8//// 22214 00186 2//// 80160
BBXX 62305 02064 99504 10000 46/98 /27// 10098 20050 40071 52008 22200 00114 10702 70012 333 90710 91131
BBXX 62107 02064 99501 70061 46/// /2929 10086 20000 40081 52008 22200 00113 11009 70045 333 90710 91141
BBXX 62095 02064 99530 70159 46/// /2627 10072 20016 49988 50003 22200 00111 11119 70095 333 90710 91147
BBXX 62094 02064 99517 70067 46/// /2623 10080 20027 40040 52009 22200 00104 10607 70033 333 90710 91131
BBXX 63119 02064 99583 10009 41598 32527 10059 20004 49864 54000 70200 832// 22200 20405 325// 40808 5////
BBXX E5U2123 02063 99417 70111 41/98 22625 10140 20068 40293 52030 70100 8//// 22243 00149 2//// 3//// 4//// 5//// 80105
BBXX 64049 02063 99571 10022 41/97 52432 10070 20070 49907 53004 70011 8//// 22200 20608 3//// 4//// 5//// 80070
BBXX 62304 02064 99511 10018 46/98 /2517 10090 20052 40051 53014 22200 00106 10601 70007
BBXX 62133 02064 99571 10009 46/// /2426 10060 21014 49902 52002 22200 1//06 70031
BBXX 62304 02064 99511 10018 46/98 /2517 10092 20054 40051 53204 22200 00106 10601 70007
BBXX 62170 02064 99514 10020 46/98 /2621 10087 20055 40046 53004 22200 00105 14101 70007
BBXX 62146 02064 99572 10021 47/98 /2518 10051 20005 49919 53002 700// 22200 10606 70032
BBXX 62094 02064 99517 70067 46/// /26// 10080 20027 40040 52009 22200 00104 10607 70033 333 90710 91131
BBXX 62103 02064 99499 70029 46/99 /2827 10099 20027 40070 52009 22200 00116 10905 70027 333 90710 91140
BBXX 62119 02064 99570 10019 47597 /2527 10060 20001 49924 53003 700// 22200 10607 70033
BBXX 62122 02064 99573 10016 47598 /2326 10066 20015 49911 50000 700// 22200 10707 70035
BBXX PJGO 02064 99571 10022 47/98 /2324 10056 49919 53003 700// 22200
BBXX 62140 02064 99573 10013 46/// /25// 10056 20010 49895 53002 22200
BBXX 62104 02064 99574 10013 47598 /2525 10064 20005 49892 54000 700// 22200
BBXX 62153 02064 99573 10020 47598 /2326 10056 20014 49903 50001 751// 22200 10707 70034
BBXX 62116 02064 99576 10011 47598 /2528 10059 20001 49887 53001 700// 22200 10606 70031
BBXX 62155 02064 99577 10007 47598 /2529 10059 20010 49897 53001 751// 22200 10606 70028
BBXX 62117 02064 99579 10000 47598 /2322 10058 20012 49878 51001 700// 22200 10606 70030
BBXX 62143 02064 99577 10018 47598 /2528 10061 21001 49902 53001 700// 22200 10607 70034
BBXX 62118 02064 99577 10009 47598 /2328 10073 20008 49882 57001 700// 22200 10606 70030
BBXX 62102 02064 99579 10018 46/// /2522 10060 20009 49886 53003 22200 10606 70031
BBXX 62134 02064 99580 10014 47598 /2425 10058 20008 49885 53002 700// 22200 10605 70027
BBXX 62152 02064 99570 10018 47/98 /2215 10061 20009 49925 53004 700// 22200 10607 70035
BBXX 62123 02064 99563 10022 47698 /2528 10068 20018 49931 51005 700// 22200
BBXX 62132 02064 99564 10020 46/// /2721 10066 21002 49927 50001 22200
BBXX 62120 02064 99564 10021 47698 /2628 10063 20014 49927 52003 700// 22200
BBXX 62154 02064 99564 10022 46/// /2426 10064 21012 49932 51006 22200
BBXX 62165 02064 99540 10009 47998 /2420 10063 20015 49998 58001 700// 22200 10403 70015
BBXX 62127 02064 99540 10007 47998 ///// 10059 20013 49994 51002 700// 22200 10403 70013
BBXX 62149 02064 99537 10011 47998 /2317 10060 20026 40007 52005 700// 22200 10402 70012
BBXX 62131 02064 99539 10012 46/// /22// 10063 20023 49997 50002 22200
BBXX 62148 02064 99536 10015 46/// /2418 10063 20020 40012 52006 22200
BBXX 62121 02064 99535 10027 46/// ///// 22200
BBXX 62150 02064 99536 10007 47998 /2316 10058 20021 40010 51004 700// 22200 10302 70009
BBXX 62145 02064 99531 10028 47998 /2415 10068 20028 40022 52008 700// 22200 10403 70014
BBXX 62144 02064 99534 10017 47998 /2522 10064 20026 40019 53005 700// 22200 10403 70013
BBXX 62142 02064 99530 10021 47997 /2517 10066 20034 40018 53009 700// 22200 10402 70011
BBXX MWYG6 02064 99603 70040 47998 /2021 10051 700// 22200
BBXX 63115 02064 99616 10013 47598 /2217 10062 20011 49816 51002 700// 22200 10808 70040
BBXX 63117 02064 99613 10011 47599 /2316 10150 20029 49822 50000 700// 22200
BBXX 63104 02064 99612 10016 47598 /2516 10062 20011 49821 58002 700// 22200
BBXX 63103 02064 99612 10011 46/// /2515 10051 20010 49826 50002 22200 10706 70030
BBXX 63112 02064 99611 10010 47/97 /2513 10071 20009 49820 52001 700// 22200 10706 70032
BBXX 63107 02064 99611 10017 46/// /2313 10058 49824 55001 22200
BBXX 63113 02064 99610 10017 46/// /2618 10056 20000 49834 55001 22200 10706 70030
BBXX 63101 02064 99612 10009 46/// /2512 10048 20015 49818 52001 22200
BBXX 63105 02064 99610 10017 47597 ///// 10060 20008 49825 58002 741// 22200
BBXX 63108 02064 99608 10017 47998 /2517 10052 21002 49826 57002 700// 22200 10805 70026
BBXX 63106 02064 99610 10017 46/// /2418 10055 49826 57001 22200
BBXX 63055 02064 99606 10016 46/// ///// 22200
BBXX PJAI 02064 99581 70014 47999 /2215 10058 21006 49868 50000 700// 22200
BBXX 62112 02064 99584 70002 47598 /2419 10054 21001 49871 52001 700// 22200
BBXX 62111 02064 99580 70003 46/// /2523 10054 20006 49888 50002 22200 10605 70026
BBXX 62114 02064 99583 10000 46/// /2323 10053 21000 49868 54000 22200
BBXX 64041 02064 99607 70026 47698 /1918 10032 20032 49805 58004 700// 22200 10908 70040
BBXX ZQSD5 02064 99583 10007 46/// /2423 10061 20006 49872 50000 22200 10807 70036
BBXX 63110 02064 99595 10015 46/// ///// 22200
BBXX 63056 02064 99597 10016 47598 /2417 10053 20009 49837 57001 700// 22200 10605 70026
BBXX 63057 02064 99592 10015 47598 /2225 10061 20003 49851 57003 700// 22200 10706 70030
BBXX 62129 02064 99584 10003 46/// ///// 10053 21002 49877 54000 22200
BBXX 62128 02064 99587 10014 47598 /2323 10055 20002 49864 57002 700// 22200 10606 70028
BBXX 62113 02064 99584 10002 47598 /2323 10054 20002 49875 54000 700// 22200
BBXX 64045 02064 99591 70117 46/// /2433 10035 21007 49730 58014 22200 00100 11117 70085 333 90710 91149
BBXX 62105 02064 99554 70121 46/// /2733 10040 20013 49894 55002 22200 00106 11217 70087 333 90710 91151
BBXX 62081 02064 99510 70134 46/// ///// 10072 20032 40060 51007 22200 00118 11015 70077
BBXX 62029 02064 99487 70125 46/// /2628 10084 20047 40130 52010 22200 00125 11013 70066 333 90710 91138
BBXX 62163 02064 99475 70084 46/// /2924 10091 20035 40152 51011 22200 00124 11012 70058 333 90710 91135
BBXX 62303 02064 99516 70051 46/// /2621 10081 20013 40044 52011 22200 00109 10608 70038 333 90710 91131
BBXX 62442 02064 99490 70164 46/// /2627 1//// 2//// 40126 50002 22200 00120 333 90710 91139
BBXX 62001 02064 99452 70050 46/// /2723 10124 20074 40186 52008 22200 00129 10911 70053 333 90710 91133
BBXX 62027 02064 99491 70022 46/// /2819 1//// 2//// 40099 52011 22200 00107 11705 333// 70027 333 90710 91138
BBXX ZMENA 02064 99413 31733 46/// ///// 10173 20106 40116 52018 22200
BBXX ZMFR 02064 99429 31784 43/// /2125 10138 20075 40104 52012 22232 00153
BBXX SHIP 02064 99026 51323 41/97 31320 10248 20221 40134 50013 70311 8//// 22233 04237
BBXX SHIP 02064 99583 31100 41497 72429 10017 21015 49878 51022 70372 87411 22201 00023 11009 20304 32328 40709 50606 85004
BBXX SHIP 02064 99027 11452 41497 43005 10288 20235 40062 56015 70122 82232 22253 06308 11403 20301 33235 41003 50802
BBXX 64046 02064 99606 70049 46/// /1716 10053 20016 49784 58004 22200 00083 11012 70058
BBXX 62301 02064 99524 70047 46/// /2623 10064 20005 40020 51016 22200 00091 10605 70027 333 90710 91129
BBXX DDVK2 02063 99375 10075 41998 01508 10150 20125 40262 52002 70200 80000 22224 00169 2//// 30000 80135
BBXX 61002 02064 99421 10047 46/// /0000 10143 2//// 40174 57014 22200 00133 10604 70019
BBXX BATUK01 02064 99560 70032 46/// /2506 10027 21013 49910 58001 22200 00059
BBXX A8VL5 02064 99514 10027 41397 82719 10080 20080 40160 54000 70222 880// 22200 00100 20202 30000 80080
BBXX BATFR20 02064 99431 10054 46/// ///// 10134 20117 40185 58024 22274
BBXX 61001 02064 99434 10078 46/// /2304 10132 20109 40202 57012 22200 00136 10601 70007
BBXX BATFR27 02064 99503 70016 46/// /2720 10109 20039 40066 55001 22213 00117
BBXX BATEU01 02064 99439 70310 44597 71914 10145 20104 40156 58049 70222 84313 22263 00149 21006 324// 41608 5////
BBXX BATFR24 02064 99429 10095 46/// /2104 10134 20094 40221 53001 22244 00145
BBXX BATFR46 02064 99366 70035 46/// /2817 10155 20097 40259 53013 22263 00160
BBXX BATEU08 02064 99578 10104 46/// /2420 10069 20057 49923 53006 22223
BBXX BATEU05 02064 99664 70236 46/// /0324 11035 49706 51024 22253
BBXX BATFR21 02064 99433 10053 46/// /1117 40178 56034 22232
BBXX BATFR33 02064 99411 10068 46/// /2021 10152 20122 40216 56024 22283 00152
BBXX BATFR31 02064 99419 10087 46/// /0509 10132 20124 40224 53005 22213 00154
BBXX BAREU00 02064 99514 70070 46/// ///// 40038 52027 22253
BBXX BAREU11 02064 99527 10032 46/// ///// 40027 52020 22253
BBXX BATFR32 02064 99432 10053 46/// /1720 10135 20110 40175 58035 7//// 8//// 22273 00144
BBXX BAREU08 02064 99375 70294 46/// ///// 40305 57021 22254
BBXX LF3F 02064 99643 10078 43/// /1316 10059 20025 49838 57013 22200 04086 10806 70030 333 91118
BBXX 3ERR2 02064 99635 10053 41497 11923 10062 49824 57003 70182 81100 22200 06098 11106 70031 333 91131
BBXX LF3N 02064 99653 10073 41498 61520 10067 20041 49832 57007 70182 8//// 22200 00089 10706 70032
BBXX LF4B 02064 99606 10037 47/98 /2316 10061 49848 57005 723// 22200 00063 10706 70032 333 91128
AAXX 02063 41963 31440 83602 10235 20150 30146 40149 70500 8352/ 333 56999 58003 70000 83618 88458
AAXX 02063 41964 11456 63601 10233 20160 30159 40161 69924 75162 83520 333 56990 58006 70002 83616 86459
AAXX 02063 41989 31450 70000 10258 20160 30144 40147 70522 83570 333 56990 58008 70000 82618 84460
AAXX 02064 42309 21496 82302 10182 20172 40154 76066 8457/ 333 59006 6001/
AAXX 02064 42314 21494 70000 10182 20155 40156 76064 83530 333 58010 6990/ 83616 87360
AAXX 02064 42410 21495 70000 10164 20160 40173 76166 83520 333 58014 6002/ 83616 87458
AAXX 02064 42415 21496 80000 10170 20160 40186 75062 8532/ 333 58005 6003/ 84618 81930 87458
AAXX 02064 42492 31494 60906 10176 20156 40160 71022 83530 333 59001 83618 86360
AAXX 02064 42587 31495 60000 10194 20184 40158 70522 83530 333 59016 83618 85360
AAXX 02064 42591 31494 72504 10210 20185 40158 71022 85530 333 59017 85618 86360
AAXX 02064 42623 21495 80000 10160 20150 39273 40155 76062 8671/ 333 59001 6003/ 84710 86459
AAXX 02064 42701 21496 52306 10194 20162 39416 40149 70562 82530 333 58008 6994/ 82618 84360
AAXX 02064 42706 21495 82702 10218 20203 40161 76061 8657/ 333 56599 58007 6998/ 86615 86458
AAXX 02064 42724 21494 80000 10206 20177 40065 76066 8572/ 333 58021 6992/ 83710 84616 88458
AAXX 02064 42798 21495 72303 10200 20174 40149 72166 84430 333 58010 6003/ 83618 83825 87360
AAXX 02064 42809 21495 80000 10204 20181 40160 75065 8452/ 333 58016 6001/ 84612 87458
AAXX 02064 42886 31595 70502 10244 20159 40150 70522 85530 333 58003 85620 87360
AAXX 02064 42895 32996 40202 10266 20138 40146 84030 333 58001 84360
AAXX 02064 42971 31595 30208 10278 20158 40146 70521 81531 333 59002 81620
AAXX 02064 43333 32496 40713 10304 20253 40112 83401 333 56201 59010 82316
AAXX 02064 42398 NIL
AAXX 02064 42977 NIL
AAXX 02064 43368 NIL
AAXX 02064 89050 41192 83606 11013 21013 49894 57004 74442 8761/
AAXX 02064 89512 32998 61726 11020 21120 39665 49813 57003 80001 333 21027
AAXX 02064 89574 42998 13001 11007 21100 49913 52001 80001
AAXX 02064 89592 42998 50000 10022 21051 49898 57006 80001
AAXX 02064 89606 42998 32708 11262 21317 36322 47737 52001 80001 333 21361
BBXX 46185 02061 99524 71298 46/// /1716 10078 40021 52019 22200 00070 11316 70081 333 91221
AAXX 02061 55299 11780 82707 11013 21070 35800 57013 69901 78500 889// 333 05753 21079
AAXX 02061 55591 11580 82902 10015 21017 36482 57013 69901 78580 889// 333 05653 21003
AAXX 02061 56739 32578 71801 10174 20098 38348 57030 874// 333 05253 20088
AAXX 02061 56951 32680 72701 10193 20098 38496 57037 872// 333 05152 20079
AAXX 02061 56964 32580 62205 10219 20135 38703 40126 57033 86200 333 05200 20127
AAXX 02061 57328 11820 80000 10077 20060 39813 40232 57035 60021 76066 885// 333 20071
AAXX 02061 57411 11420 83601 10073 20049 39858 40238 57037 69901 76060 887// 333 20067
AAXX 02061 57447 11958 82202 10072 20040 39692 40246 57033 69911 76066 8807/ 333 20065
AAXX 02061 57662 31957 83602 10040 20000 30074 40263 57033 71000 8807/ 333 20030
AAXX 02061 57745 11730 80702 10061 20041 39913 40248 57032 69941 76060 885// 333 20060
AAXX 02061 57972 11450 83601 10076 20067 30008 40238 57030 69921 76066 887// 333 20070
AAXX 02061 58203 31518 82901 10021 21015 30235 40278 57035 71040 885// 333 21011
AAXX 02061 58314 31960 00402 10082 21013 30143 40253 57044 70040 333 20016
AAXX 02061 58424 31956 00903 10071 21023 30225 40251 57042 70500 333 20019
AAXX 02061 59023 11420 80701 10097 20096 39901 40218 57034 60021 76066 887// 333 20088
AAXX 02061 59417 11440 82701 10118 20102 30044 40201 57035 69951 76060 887// 333 20114
AAXX 02061 59985 32580 30405 10257 20199 30151 40156 57028 83100 333 20219
AAXX 02061 59995 NIL
BBXX 46185 02061 99524 71298 46/// /1716 10078 40021 52019 22200 00070 11316 70081 333 91221
AAXX 02064 67280 12370 6//// 10258 20246 40110 60144 84230 333 20210 50670 55047 58001 94326 555 00136
AAXX 02064 67323 32580 30000 10285 20227 40170 52010 83100 333 20196 50550 55124 94310 555
AAXX 02064 67327 32580 31806 10265 20197 40118 52006 82530 333 20210 50520 55107 94350
AAXX 02064 67331 32580 31712 10260 20204 40112 57011 83200 333 20210 50/// 55/// 94320
AAXX 02064 67346 32980 80000 10/// 20/// 40123 52010 8805/ 333 20/// 50520 55072 555 10000
AAXX 02061 47090 32665 30504 10035 21062 30207 40230 57016 81501 333 92032
AAXX 02061 47095 31950 42305 11028 21101 30054 40250 57032 70500 80001
AAXX 02061 47097 329// /1602 11010 21101 30154 40253 57029
AAXX 02061 47098 329// /2004 11014 21102 30108 40247 57028
AAXX 02061 47099 329// /2306 11013 21099 30221 40259 55024
AAXX 02061 47100 32370 42503 11022 21100 39286 40225 57026 82501
AAXX 02061 47102 32668 72908 11025 21083 30074 40259 57014 87500
AAXX 02061 47104 32670 33605 10025 21028 30129 40228 57015 82501
AAXX 02061 47106 329// /3609 10042 21026 30173 40223 57014
AAXX 02061 47112 31656 42303 11003 21082 30173 40260 55018 70522 82501 333 92012
AAXX 02061 47114 31950 22702 11016 21109 30064 40253 57024 70500 80001
AAXX 02061 47119 31650 31603 11010 21077 30214 40258 57024 70500 83500
AAXX 02061 47121 329// /2703 11003 21087 39943 40246 57026
AAXX 02061 47127 329// /0502 11020 21096 30112 40259 57022
AAXX 02061 47129 31658 63604 10006 21060 30226 40263 57017 70522 86500
AAXX 02061 47130 32670 40504 10049 21044 30161 40223 57015 83501 333 92042
AAXX 02061 47131 31658 12904 11011 21083 30187 40260 57019 70500 81500
AAXX 02061 47135 329// /2711 11015 21087 39942 40251 55019
AAXX 02061 47136 32962 22504 10017 21111 30064 40240 57022 80001
AAXX 02061 47137 329// /2709 11002 21125 30125 40247 56017
AAXX 02061 47140 32961 23204 10007 21059 30229 40259 57015 80001 333 92022
AAXX 02061 47143 32965 22704 10040 21124 30162 40242 57026 80001
AAXX 02061 47145 31658 42302 10000 21079 30222 40249 57022 70511 84500
AAXX 02061 47146 32662 43202 10013 21067 30191 40259 56013 84500
AAXX 02061 47150 31657 23602 10009 21062 30233 40253 57018 70521 82500
AAXX 02061 47152 32968 00205 10064 21076 30178 40221 57020
AAXX 02061 47154 329// /2907 10020 21108 30185 40247 55020
AAXX 02061 47155 32966 01403 10052 21127 30180 40226 57024
AAXX 02061 47156 32662 60207 10023 21055 30165 40256 57016 86500
AAXX 02061 47157 32970 22506 10042 21131 39943 40215 57030 80001
AAXX 02061 47162 32970 22705 10061 21125 30187 40228 55019 80001 333 92022
AAXX 02061 47169 32670 73410 10037 21031 30157 40253 57016 87500 333 92043
AAXX 02061 47170 32665 63210 10031 21068 30205 40249 55014 86500 333 92023
AAXX 02061 47171 329// /0204 10015 21065 30202 40258 55014
AAXX 02061 47172 329// /3404 10019 21057 30184 40252 57012
AAXX 02061 47173 329// /3403 10020 21078 30138 40252 57021
AAXX 02061 47174 32965 33207 10018 21070 30037 40244 55016 80001
AAXX 02061 47175 32563 73208 11004 21039 39660 40249 57016 87500 333 92023
AAXX 02061 47185 32665 73218 10061 21027 30155 40247 55013 87500 333 92035
AAXX 02061 47188 32670 72907 10056 21020 30211 40233 57018 87500 333 92033
AAXX 02061 47189 32675 61403 10086 21004 30165 40225 57021 86500 333 92022
AAXX 02061 47192 32972 23602 10055 21145 30192 40230 57025 80001
AAXX 02061 47003 42980 13604 11040 21190 30243 40247 57020 80001
AAXX 02061 47005 42980 80000 11113 21197 38576 57015 8803/
AAXX 02061 47022 42775 80000 11072 21147 38812 57040 83032
AAXX 02061 47028 42967 80000 11061 21110 30175 40275 57011 80002
AAXX 02061 47031 42970 00000 11108 21144 38916 58025
AAXX 02061 47037 42970 40000 11033 21133 30135 40263 58019 84010
AAXX 02061 47039 42960 80000 11052 21126 30056 40255 57025 80001
AAXX 02061 47046 11550 82301 11007 21049 30218 40241 58015 69901 77072 885//
AAXX 02061 47050 41956 40000 11052 21106 30230 40265 57022 71044 80002
AAXX 02061 47052 42965 83201 11054 21108 39908 40261 57035 80002
AAXX 02061 47060 41950 70902 11048 21097 30209 40270 58013 71022 87030
AAXX 02061 47061 42970 83601 10003 21027 30216 40261 52008 8807/
AAXX 02061 47065 41960 81801 11028 21094 30194 40262 57013 71022 80002
AAXX 02061 47067 41560 80000 11032 21091 30157 40282 57026 71022 885//
AAXX 02061 47068 42560 62703 11025 21169 30217 40253 58019 83502
AAXX 02061 47070 41960 72303 11017 21082 30172 40263 58025 71000 80002
AAXX 02061 47075 42970 80000 11035 21087 39752 40195 57022 80002
AAXX 02061 47008 42970 81401 11038 21115 30204 40260 57024 82052
AAXX 02061 47014 42950 80000 11147 21190 39846 40278 57024 8804/
AAXX 02061 47016 42970 60000 11116 21178 39352 40265 57041 80002
AAXX 02061 47020 42965 80000 11100 21142 39877 40278 57023 80004
AAXX 02061 47025 42967 81603 11009 21059 30221 40251 57012 80002
AAXX 02061 47035 42970 80000 11065 21106 30253 40262 57023 8801/
AAXX 02061 47041 41760 60000 11019 21068 30213 40241 58021 71042 86030
AAXX 02061 47055 42965 80000 11006 21058 30193 40240 57029 88050
AAXX 02061 47058 41956 80000 11056 21107 30220 40270 58022 71022 87032
AAXX 02061 47069 41956 82704 11012 21063 30158 40261 58026 71022 80002
AAXX 02061 47101 31956 33402 11024 21095 30155 40255 57031 70500 80001
AAXX 02061 47105 369// /0504 10038 21037 30196 40229 57016
AAXX 02061 47108 31657 42307 11017 21100 30145 40255 57024 70522 82501
AAXX 02061 47115 41560 80713 11010 21040 39952 40233 55003 78582 888// 333 92044
AAXX 02061 47133 31658 43403 10000 21072 30171 40259 57020 70511 84500
AAXX 02061 47138 32966 02005 10067 21096 30225 40228 57017 333 92032
AAXX 02061 47159 32970 02906 10069 21123 30138 40224 55018 333 92022
AAXX 02061 47165 32665 63606 10017 21046 30206 40254 57015 86500 333 92022
AAXX 02061 47168 32966 02912 10052 21101 30151 40231 57020 333 92024
AAXX 02061 47184 41670 83207 10057 21010 30223 40249 57016 72162 8552/ 333 92033
AAXX 02061 24790 41999 30000 11465 21489 39421 40389 57003 70270 80001
AAXX 02061 24988 42999 60000 11317 21341 39959 40242 57004 85031
AAXX 02061 25378 32998 30000 11288 21313 30137 40174 57004 80001 333 11274 91103
AAXX 02061 25503 42699 21102 11441 21469 30156 40307 53007 82500
AAXX 02061 25705 41996 70000 11444 21469 39926 40318 54000 71022 82041
AAXX 02061 25927 NIL
AAXX 02061 25932 42999 53102 11211 21229 30177 40219 54000 85030
AAXX 02061 31152 42998 60000 11285 21317 39839 40285 57002 83032
AAXX 02061 31174 41598 80000 11173 21173 30228 40240 53001 77172 81507
AAXX 02061 31489 42998 00000 11257 21288 30145 40274 57003
AAXX 02061 31866 42999 02703 11094 21218 30185 40191 56012
AAXX 02061 31959 42999 02604 11084 21174 30150 40195 57007 333 91112
AAXX 02061 31989 42999 03603 11048 21286 30146 40201 55004 333 91112
AAXX 02061 32027 42999 43603 11203 21229 30202 40211 57007 82032 333 91004 91105
AAXX 02061 32076 41440 83603 11122 21135 30156 40167 56010 77187 8872/ 333 91006 91107
AAXX 02061 32099 41597 80109 11098 21110 30127 40135 57012 73633 889// 333 91011 91113
AAXX 02061 32121 42598 23604 11087 21153 30127 40150 57007 82900 333 91005 91108
AAXX 02061 32213 42599 20000 11052 21097 30162 40228 53004 82500
AAXX 02061 32287 42599 61702 11146 21159 30202 40213 53004 83530
AAXX 02061 32408 42999 61004 11183 21202 30149 40190 57006 82031
AAXX 02061 32509 41999 03106 11100 21212 30173 40209 53003 73633
AAXX 02061 32594 42599 20804 11069 21161 30180 40217 53001 81501
AAXX 02064 63729 12580 10000 10220 20165 38890 48/// 60014 81900 333 0//19 20176 50471 55082 55310 59005 81620 81922
AAXX 02064 63733 32580 10905 10215 20176 38890 48528 81900 333 20166 50411 55096 55310 59003 81920
AAXX 02064 63756 32580 20905 10234 20207 38893 48530 81901 333 20175 50501 55074 55310 59004 81822 81923
AAXX 02064 63801 12480 60000 10218 20191 39230 48550 69904 8193/ 333 0//19 20185 50301 55026 55300 59005 81819 81920 86359
AAXX 02064 63832 32980 20806 10220 20192 38847 48516 81032 333 20175 50501 55076 55310 59003 81358
AAXX 02064 63862 32580 40910 10244 20197 38917 48535 81441 333 20192 50601 55092 55310 59010 81620 84074
AAXX 02064 63866 32580 30000 10240 20206 39534 48/// 83500 333 20207 50601 55104 55310 59001 83624
AAXX 02064 63870 32480 33615 10281 20233 30108 40126 83200 333 20232 50601 55110 55310 59012 83818
AAXX 02064 63881 12480 50000 10176 20139 38220 48/// 69904 81130 333 0//19 20115 50301 55011 55302 58000 81818 85357
AAXX 02064 63887 32579 20000 10220 20173 38608 48525 82501 333 20172 50451 55108 55310 59004 82620
AAXX 02064 63894 32580 43612 10282 20228 30072 40132 84200 333 20248 50751 55110 55310 58010 84823
AAXX 02064 63932 32580 62505 10186 20145 38328 48525 8217/ 333 20186 50351 55025 55309 59002 82821 86358
AAXX 02064 63962 12580 40412 10240 20195 38956 48518 69904 84930 333 0//19 20210 50551 55099 55303 59006 84820 81922 83358
AAXX 02064 63971 32580 63615 10278 20246 39990 40118 83930 333 20254 50901 55099 55304 58004 83823 81924 84358
AAXX 02064 63791 NIL
AAXX 02061 48921 NIL
AAXX 02061 48924 31558 52701 10238 20195 39501 40120 57032 71044 84870 333 59015
AAXX 02061 48925 31458 51803 10262 20171 39396 40114 57025 70544 83800 333 59008
AAXX 02061 48926 32562 32201 10282 20173 39664 40124 57036 83100 333 59016
AAXX 02061 48927 NIL
AAXX 02061 48928 31458 30905 10201 20147 39065 48545 57041 71044 83100 333 59027
AAXX 02061 48930 31458 22402 10275 20166 39790 40135 57040 70544 82800 333 59021
AAXX 02061 48935 31468 62202 10234 20118 38966 48473 57038 83801 333 59022
AAXX 02061 48938 31558 21802 10262 20180 39804 40136 57040 70544 82100 333 59016
AAXX 02061 48940 31458 21802 10280 20180 39937 40131 57034 70544 82200 333 59013
AAXX 02061 48941 32465 13603 10270 20207 3//// 4//// 5//// 81100 333 5////
AAXX 02061 48944 31650 20403 10229 20113 39528 40118 57002 70544 82500 333 58001
AAXX 02061 48945 31558 13202 10280 20154 39969 40146 57028 70544 82110 333 59026
AAXX 02061 48946 31559 10902 10290 20225 39963 40126 57037 70544 81100 333 59021
AAXX 02061 48947 32461 30601 10286 20190 30008 40175 57020 83200 333 59001
AAXX 02061 48948 NIL
AAXX 02061 48952 31559 20902 10320 20184 39929 40117 57007 70544 82100 333 59013
AAXX 02061 48953 31565 31401 10320 20201 39909 40071 57036 83840 333 59013
AAXX 02061 48955 32565 22702 10311 20188 30000 40115 57032 82100 333 59009
AAXX 02061 48957 3168/ 22701 10315 20188 39990 40095 57038 70544 82801 333 58002
AAXX 02064 41263 36/// /9902 10191 20068 39515 40208 333 0E013 20130 59021
AAXX 02064 89132 NIL
AAXX 02064 89542 46/// /1208 11012 20072 49816 57003
AAXX 02064 89575 NIL
AAXX 02064 89657 NIL
BBXX NIL
BBXX NIL
BBXX ZCBH7 02064 99010 31076 41597 30520 10302 20290 40141 56033 70322 8/272 22273 04294 20202 305// 40202 5//// 80293
BBXX A8KH9 02064 99031 30836 41498 53215 10280 20239 40080 54000 70300 84108 22214 20301 32200 41004 5//// 80250
BBXX A8AX3 02063 99047 30117 41698 60405 10244 40160 52009 70122 81450 22200 20000 317// 40902
BBXX BATFR19 02064 99067 30055 46/// /1712 10237 20194 40152 52018 22200 00254
BBXX 3FMV6 02063 99154 30654 41498 41416 10300 20258 40086 51010 70222 84444 22213 06280 20102 80270
BBXX A8UU3 02064 99186 30040 41398 81617 10200 20185 40160 51010 7//22 8/7// 22233 2//// 314// 40502 80190
BBXX BATFR55 02064 99203 30570 44998 20605 10274 20220 40127 70100 82051 22212 00280 206// 32626 410// 510//
BBXX MIBR 02063 99223 30569 41598 60410 10280 20237 40132 52010 70322 86300 22254 00273 20301 316// 40604 5//// 80250
BBXX PCSV 02063 99254 30011 41598 62108 10188 20129 40205 52/// 70311 86500 22273 04194 20501 323// 41003 80152
BBXX BATFR08 02064 99306 30540 46/// /1010 10207 20139 40184 53010 22243 00232
BBXX DBBT 02061 99339 30184 46/// /3103 10156 20156 40139 52004 22220 00136
BBXX DBLK 02061 99399 30120 41497 52817 10154 20118 40010 52008 70262 84480 22213 04153 20809 323// 41005
BBXX SHIP 02064 99583 31100 41497 72429 10017 21015 49878 51022 70372 87411 22201 00023 11009 20304 32328 40709 50606 85004
BBXX NIL
BBXX NIL
BBXX NIL
AAXX 02064 40250 32660 60000 10072 20023 39380 40183 52007 86800 333 20/// 30/// 83830
AAXX 02064 40265 11550 81914 10080 20070 39395 40203 52012 69932 75052 888// 333 20070 30004 84825 85630
AAXX 02064 40296 32660 70000 10138 20068 40201 52013 87800 333 20134 30011 83830 84630
AAXX 02064 40310 32560 72404 10063 20011 38959 48498 52010 86830 333 20046 30002 83825 84630 82360
AAXX 02064 78958 11462 60808 10253 20235 30122 40132 69961 78081 85201 333 10304 20239 59010 85818
AAXX 02064 78958 11462 60808 10253 20235 30122 40132 69961 78081 85201 333 10304 20239 59010 85818
AAXX 02061 38599 31E07 90704 11033 21037 39692 40227 52006 74944 333 21037
AAXX 02061 23074 42998 80000 11216 21234 30233 40260 52016 80001
AAXX 02061 23274 41496 70402 11137 21150 30184 40222 52008 78582 86903 333 85918
AAXX 02061 23383 41896 80601 11181 21207 39879 40254 57001 77187 8802/
AAXX 02061 23472 41497 70901 11104 21117 30163 40213 53005 78582 87900
AAXX 02061 23678 41998 21402 11077 21091 30167 40226 57004 70283 82030
AAXX 02061 23884 41968 82102 11077 21095 30182 40257 57010 77172 8802/
AAXX 02061 23891 41595 80000 11108 21128 39956 57018 77387 8452/ 333 95090
AAXX 02061 24507 41997 80000 11239 21257 30039 40305 57014 77172 8807/
AAXX 02061 24817 42999 80000 11241 21260 39942 40346 58001 86039
AAXX 02061 24908 41468 72101 11111 21131 39993 40337 57011 78588 86930 333 86917
AAXX 02061 29263 41999 71602 11088 21112 30216 40320 57021 70282 84032
AAXX 02061 29282 41596 80000 11172 21184 30176 40360 57021 78587 889//
AAXX 02061 29379 41597 81902 11077 21095 30136 40352 57022 78587 8597/
AAXX 02061 29570 41599 82206 11055 21121 39991 40345 57022 73682 889// 333 91112
AAXX 02061 29698 42698 80000 11127 21154 39851 40394 57028 87501
AAXX 02061 30230 41597 82103 11105 21125 30034 40376 58001 78582 8497/
AAXX 02061 30252 41697 70000 11256 21280 30064 40416 58003 77172 83531
AAXX 02061 30309 41999 81701 11120 21133 39845 40393 57012 70282 86031
AAXX 02061 30328 41697 80000 11154 21173 39967 40422 58008 77177 84547
AAXX 02061 30521 41597 50000 11171 21190 39867 40431 58008 70282 82901
AAXX 02061 30710 41599 83202 11085 21117 39812 40421 58014 70282 86931
AAXX 02061 23973 41597 81804 11083 21093 30203 40268 57017 77173 8211/
AAXX 02061 23975 41598 82103 11082 21101 30154 40266 57011 78587 889//
AAXX 02061 23986 41966 81503 11116 21136 39634 40295 58020 77173 8801/
AAXX 02061 23987 41496 71505 11098 21115 30213 40290 57011 78583 85930 333 92980
AAXX 02061 24606 42899 80000 11300 21324 30025 40326 58009 83037
AAXX 02061 29253 41698 81602 11094 21123 30132 40312 57016 77172 8552/
AAXX 02061 29471 41596 82002 11074 21087 30117 40353 57017 78582 889// 333 88920
AAXX 02061 29481 42999 81902 11067 21100 30110 40356 57015 8802/
AAXX 02061 29553 42975 52403 11081 21108 39978 40358 57008 80001
AAXX 02061 29562 42598 82401 11078 21105 39929 40361 57012 889//
AAXX 02061 29581 42998 71103 11083 21106 30102 40370 57017 8707/
AAXX 02061 29594 41599 81502 11075 21105 39977 40376 57016 70282 889//
AAXX 02061 29653 42997 21702 11127 21154 39863 40375 57012 80001
AAXX 02061 29675 42598 60000 11068 21110 39754 40364 57014 86500
AAXX 02061 29676 42698 70101 11078 21114 39924 40363 57019 84580
AAXX 02061 29752 42599 52203 11054 21096 38890 48529 57009 82539
AAXX 02061 29759 42999 20000 11107 21143 39302 40374 58016 80009
AAXX 02061 29766 42999 70901 11141 21161 30024 40402 57007 80001
AAXX 02061 29789 NIL
AAXX 02061 29864 42999 23305 11138 21173 39708 40399 58019 82040
AAXX 02061 29866 41895 70000 11151 21157 30055 40399 58011 71042 85032
AAXX 02061 29869 42998 60000 11132 21132 30000 40397 58021 82031 333 95030
AAXX 02061 29956 42999 00000 11171 21197 39810 40414 57017
AAXX 02061 30337 41597 80000 11125 21145 39934 40407 57003 78582 86908
AAXX 02061 30405 41998 70000 11101 21114 39845 40398 58017 70282 87030
AAXX 02061 30504 41698 70000 11123 21128 39724 40408 57020 70282 82530
AAXX 02061 30603 41996 50000 11165 21178 39813 40426 58017 71011 82031
AAXX 02061 30612 41999 61103 11218 21230 39863 40449 58010 70281 82015
AAXX 02061 30622 42998 20000 11175 21201 39748 40444 54000 80003
AAXX 02061 30627 41999 82001 11163 21176 39433 40427 58004 70272 86071
AAXX 02061 30703 42999 60000 11099 21125 39710 40414 57017 86050
AAXX 02061 36307 42999 21901 11279 21317 39133 48610 58006 80001
BBXX BAREU12 02064 99514 10042 46/// ///// 40043 22273
BBXX BAREU04 02064 99439 70639 46/// ///// 40134 57019 22212
AAXX 02064 71257 17/// /1808 11077 21102 69991 7//4/ 333 11054 21186 70022 555 31817 40211
AAXX 02064 71258 17/// /1612 11032 21102 69951 7//4/ 333 11017 21170 70005 555 31720 40021
AAXX 02064 71259 16/// /1108 11096 21121 60001 333 11031 21195 7////
AAXX 02064 71274 16/// /1512 11108 21142 60001 333 11077 21209 70000
AAXX 02064 71275 46/// /1206 11151 21188 6///1 333 11079 21196 7////
AAXX 02064 71278 16/// /1511 11141 21174 60001 333 11046 21198 70000
AAXX 02064 71286 16/// /1413 11114 21142 60001 333 11063 21206 70000 555 31318 40061
AAXX 02064 71287 16/// /0906 11113 21153 60001 333 11047 21187 70000 555 10010
AAXX 02064 71289 16/// /1611 11084 21109 60001 333 11029 21159 70000 555 31618 40051
AAXX 02064 71445 17/// /3419 11158 21184 30059 40351 51021 60031 7//4/ 333 11066 21158 70038 555 33241 40133
AAXX 02064 71683 46/// /0511 11274 39943 40059 58063 6///1 333 11248 21330 7////
AAXX 02064 71214 16/// /1307 11114 21155 60001 333 11058 21191 70000
AAXX 02064 71223 16/// /1106 11107 21149 60001 333 11047 21185 70000 555 32817 40071
AAXX 02064 71225 16/// /1309 11050 21091 60001 333 10015 21142 70000
AAXX 02064 71227 46/// /1412 11111 21133 6///1 333 11052 21185 7//// 555 31418 40061
AAXX 02064 71010 16/// /1311 11107 21142 60001 333 11028 21163 70000 555 31518 40031
AAXX 02064 71525 16/// /1808 11038 21094 60001 333 11019 21159 70005 555 31617 40201
AAXX 02064 71535 46/// /1612 11016 21081 6///1 333 7////
AAXX 02064 71536 16/// /2009 10010 21056 60001 333 10040 21156 70000
AAXX 02064 71537 16/// /1508 11063 21085 60001 333 7////
AAXX 02064 71351 16/// /1406 11061 21097 60001 333 7////
AAXX 02064 71353 17/// /1709 11066 21104 69951 7//4/ 333 11056 21137 70015
AAXX 02064 71375 46/// /0912 11059 6///1 333 10002 21074 7//// 555 30421 40071
AAXX 02064 71385 46/// /1617 11028 6///1 333 11020 21057 7//// 555 31622 40061
AAXX 02064 71916 46/// /2902 11388 21425 30228 40288 56011 6///1 333 11362 21405 7////
AAXX 02064 71464 46/// ///26 10005 39837 40049 54000 6///1 333 10082 21003 7////
AAXX 02064 71466 46/// ///// 10001 39871 40109 5/005 6///1 333 7////
AAXX 02063 42071 31993 00000 10156 20099 40190 70444 333 58017 90530
AAXX 02064 42027 31595 41402 10050 21070 38457 48544 70521 84400 333 58003
AAXX 02064 42101 31/91 90000 10120 20109 40183 74544 333 58020
AAXX 02064 42111 31695 10000 10156 20117 39391 40170 70522 81100 333 58009 81835
AAXX 02064 42131 31994 03202 10154 20105 40189 71040 333 58017
AAXX 02064 42165 31995 00000 10180 20009 40188 70500 333 58010
AAXX 02064 42182 31/92 92706 10166 20149 40182 74544 89/// 333 58022
AAXX 02064 42189 31595 60000 10176 20156 40172 70522 85530 333 58021 85625 84360
AAXX 02064 42328 32996 00903 10188 21005 40187 333 58001
AAXX 02064 42339 31995 00902 10180 20068 40186 70500 333 58017
AAXX 02064 42361 31995 80000 10160 20131 40182 70522 8552/ 333 58027 85615 88458
AAXX 02064 42369 21495 89902 10156 20146 40178 75052 8672/ 333 58008 6990/ 83710 84620 88459
AAXX 02064 42379 31595 80902 10166 20125 40162 70222 8652/ 333 5629/ 59002 86620 88458
AAXX 02064 42452 31594 70503 10170 20119 40184 70544 85530 333 58029
AAXX 02064 42475 31595 70000 10168 20154 40167 70522 84520 333 58008 84630 86460
AAXX 02064 42071 NIL
AAXX 02064 42260 NIL
AAXX 02064 42348 NIL
AAXX 02061 51711 32780 42902 11063 21141 38066 57007 82502 333 05200 21162
AAXX 02061 51730 32970 70000 11032 21105 40410 57003 80002 333 05351 21169
AAXX 02061 52112 32980 01102 11048 21183 40445 57015 333 00254 21158
AAXX 02061 52737 32980 62003 11049 21239 37051 57025 80002 333 05601 21143
AAXX 02061 52787 32980 73407 11112 21193 37006 57023 80002 333 05251 21184
AAXX 02061 53352 32980 03206 11122 21205 40398 57019 333 21182
AAXX 02061 53593 32770 13205 11052 21197 40316 57019 81500 333 21114
AAXX 02061 53705 32965 72902 11030 21163 40373 57027 80002 333 00054 21086
AAXX 02061 53863 32965 72704 11002 21149 40310 57022 80002 333 21051
AAXX 02061 53975 32972 73207 10041 21157 40283 57028 80002 333 21057
AAXX 02061 54273 32970 70401 11144 21209 40299 57019 80002 333 21295
AAXX 02061 54324 11970 71102 11074 21136 40259 57028 69901 70070 80002 333 21167
AAXX 02061 54405 32670 23211 11043 21193 40295 57020 82400 333 21093
AAXX 02061 54436 11762 72203 11035 21075 40264 57026 69931 70070 82502 333 21092
AAXX 02061 54808 31958 82901 10011 21023 40266 57025 71000 8801/ 333 21054
AAXX 02061 54826 31960 43603 11083 21096 38446 57024 72844 80002 333 21103
AAXX 02061 54836 32660 82704 11006 21060 40270 57030 885// 333 21063
AAXX 02061 54863 32970 42502 10005 21101 40268 57028 80002 333 21081
AAXX 02061 56018 32680 72504 10050 21120 36096 57037 879// 333 05851 21112
AAXX 02061 56021 32680 72209 11010 21084 35996 57023 879// 333 05854 21110
AAXX 02061 57071 31967 03206 10076 21122 40268 57036 70040 333 21034
AAXX 02064 68513 36/// /1211 10189 20131 30026 40137 53005 333 20125 91014 555 10237 91013
AAXX 02064 68514 36/// /2105 10222 20014 39676 48546 52008 333 20190 91009 555 10373 91015
AAXX 02064 68523 36/// /2104 10184 20053 39113 48524 52008 333 20121 91007 555 10342 91017
AAXX 02064 68527 36/// /1905 10266 20040 39066 48519 52007 333 20206 91007 555 10363 91015
AAXX 02064 68572 12574 73602 10171 20136 38413 48521 52005 60064 872// 333 20121 91003 555 10288 20060 91021
AAXX 02064 68575 NIL
AAXX 02064 68581 36/// /1604 10217 20171 39385 48539 52011 333 20173 91008 555 10303 91017
AAXX 02064 68583 36/// /2205 10258 20202 30028 40136 53013 333 20221 91012 555 10286 91014
AAXX 02064 68589 NIL
AAXX 02064 68613 36/// /3503 10168 20153 30048 40164 53000 333 20112 91005 555 10227 91016
AAXX 02064 68647 36/// /1003 10189 20113 38923 48521 56002 333 20153 91006 555 10306 91018
AAXX 02064 68651 36/// /0908 10160 20114 38561 48523 58001 333 20135 91014 555 10283 91020
AAXX 02064 68715 NIL
AAXX 02064 68717 36/// /2603 10193 20139 30005 40148 52007 333 20147 91005 555 10291 91015
AAXX 02064 68723 36/// /0102 10212 20049 39383 48519 55000 333 20157 91004 555 10348 91014
AAXX 02064 68737 32370 83303 10161 20126 39243 48509 54000 886// 333 20132 91005 555 10336 91016
AAXX 02064 68744 36/// /1504 10189 20122 39096 48510 52003 333 20139 91007 555 10332 91016
AAXX 02064 68747 36/// /0903 10211 20123 39620 48540 58002 333 20151 91006 555 10347 91015
AAXX 02064 68754 16/// /0203 10215 20135 39145 48538 52003 69924 333 20148 91006 555 10303 20002 91018
AAXX 02064 68817 36/// /3403 10170 20162 30132 40145 53004 333 20164 91008 555 10233 91014
AAXX 02064 68821 36/// /2711 10215 20119 39883 40119 58002 333 20167 91017 555 10295 91012
AAXX 02064 68835 36/// /2802 10203 20142 30020 40133 51002 333 20152 91003 555 10303 91013
AAXX 02064 68843 36/// /3007 10223 20142 30037 40134 58001 333 20167 91012 555 10242 91013
AAXX 02064 68849 36/// /2604 10187 20120 39410 48523 50000 333 20141 91008 555 10279 91015
AAXX 02064 68912 NIL
AAXX 02064 68918 36/// /3112 10213 20157 30107 40125 58001 333 20190 91021 555 10244 91012
AAXX 02064 68921 NIL
AAXX 02064 68925 16/// /2705 10188 20145 39767 40128 53005 60014 333 20170 91012 555 10229 20016 91013
AAXX 02064 68926 32770 22506 10238 20113 39945 40120 58001 82500 333 20165 91012 555 10306 91012
AAXX 02064 68935 36/// /2502 10234 20131 30064 40126 57001 333 20169 91004 555 10251 91012
AAXX 02064 65201 31340 73206 10252 20249 30093 40148 71022 85508 333 20250 56500 57692 58016 85609 91108 94469
AAXX 02064 67002 12575 63408 10295 20238 30102 40136 69914 85502 333 20264 59007 85630 92418
AAXX 02064 67004 32581 63412 10290 20276 30121 40136 83830 333 20260 58002 83820 83353 92418
AAXX 02064 67009 12582 32812 10300 20234 39997 40115 51005 60034 81930 333 02419 10330 20250 50504 55020 81820 81920 94971/6 95811/6 555 83360=3.0 67012 12582 72604 10288 20247 30104 40115 51002 60064 8483/ 333 0//17 10310 20231 50204 55/// 81820 84640 85360=5.5 67025 32581 21802 10298 20239 30005 40104 50001 60824 81932 333 0//// 10321 20225 50174 55/// 81820 81920 94962 95832 555 81640 81360 81073
AAXX 02064 67027 12582 71206 10292 20253 30095 40116 51005 60344 81238 333 02133 10313 20242 50214 55048 81820 83360 85273
AAXX 02064 67045 NIL
AAXX 02064 67072 31470 62810 10285 20261 30116 40119 51007 71522 86800 333 02500 10302 20265 50244 55/// 82817 86640 92428
AAXX 02064 67073 31580 7//// 10308 20230 30084 40110 50007 71522 81933 333 0//00 10308 20250 50//4 55/// 81920 81820 84073 94966/7 95837 555 82633 81360
AAXX 02064 67083 11475 70000 10218 20194 38739 48514 50001 60034 70262 8683/ 333 01514 20189 50224 55086 83817 85620=2.6 67095 31470 71404 10288 20241 30109 40115 50002 71522 86932 333 02400 10320 20237 50304 55/// 85817 83633
AAXX 02064 67113 NIL
AAXX 02064 67117 NIL
AAXX 02064 67137 12480 60000 10232 20194 38891 48497 50003 60114 84232 333 0//26 10280 20181 50144 55/// 84817 555 82360 81073=10.5 67143 12582 4//// 10/// 20/// 30108 40115 51002 60074 84800 333 0//18 10/// 20/// 50//4 55/// 2820 83633 92438
AAXX 02064 67152 11480 6//// 10225 20218 39193 48503 51007 60014 7025/ 84870 333 02016 10300 20222 50284 55/// 83817 84460 555 82620=1.0 67157 11480 6//// 10/// 20/// 30129 40136 53009 60134 70162 86800 333 0//13 10/// 20/// 50//4 55/// 83817 85633=13.0 67161 NIL
AAXX 02064 67197 12480 60812 10259 20239 30107 40117 51002 60054 86800 333 01559 10272 20231 50125 55004 83817 84633=4.5
AAXX 02064 60421 12960 02404 10011 20008 39226 48560 56006 60004 700// 333 05400 20000 95900
AAXX 02064 87311 32965 41603 10276 20092 39422 40063 57007 80004 333 56007 84070
AAXX 02064 68575 NIL
AAXX 02064 68589 NIL
AAXX 02064 68715 NIL
AAXX 02064 68912 NIL
AAXX 02064 68921 NIL
AAXX 02061 50548 32980 00000 11156 21232 40301 57014 333 21302
AAXX 02061 50564 32965 00701 11186 21227 40306 57011 333 21305
AAXX 02061 51334 11970 10000 11085 21121 40405 57017 69941 72277 80002 333 05600 21147
AAXX 02061 51818 32965 00201 11049 21119 40401 57006 333 05351 21157
AAXX 02061 52378 32980 00000 11082 21154 40445 57015 333 00455 21171
AAXX 02061 53487 32970 33206 11068 21194 40319 57025 82032 333 21102
AAXX 02061 53502 32980 02201 11054 21157 40406 57023 333 00355 21168
AAXX 02061 53923 32980 53604 11021 21178 40332 57028 80002 333 21063
AAXX 02061 54049 32970 71401 11112 21216 40284 57022 80002 333 21200
AAXX 02061 54115 32676 72505 11114 21226 40290 57002 86502 333 21168
AAXX 02061 54157 32767 73402 11106 21197 40280 57023 85502 333 21220
AAXX 02061 54186 32965 70401 11136 21203 40291 57020 80002 333 21269
AAXX 02061 54311 32980 43207 11114 21226 40299 57006 80002 333 21177
AAXX 02061 54346 32662 71101 11094 21168 40270 57025 875// 333 21185
AAXX 02061 54377 32670 70000 11087 21166 40271 57023 875// 333 21177
AAXX 02061 54386 32970 50000 11132 21212 40284 57029 80002 333 21262
AAXX 02061 54493 32970 81801 11068 21173 40264 57023 80007 333 21177
AAXX 02061 54587 NIL
AAXX 02061 54715 31920 82903 11030 21035 40270 57020 71000 8802/ 333 21073
AAXX 02061 54929 32960 82502 10015 21040 40268 57033 8802/ 333 21055
AAXX 02061 54945 32960 72501 10015 21052 40271 57034 80002 333 21055
AAXX 02061 56065 32680 71401 11028 21216 36563 57033 81138 333 05552 21195
AAXX 02061 57193 31956 02501 10046 20002 40267 57037 71000 333 20007
AAXX 02061 57290 31957 72702 10048 21010 40269 57037 71000 80002 333 20008
AAXX 02064 68174 31965 00404 10242 20163 38795 48524 5//// 60144 70500 333 20155 555 10289 20145 91019
AAXX 02064 68191 16/// /0502 10259 20191 39631 48544 52008 69924 333 20211 91004 555 10335 20002 91013
AAXX 02064 68242 32980 00203 10234 20142 38723 48506 53006 333 20137 91006 555 10306 91017
AAXX 02064 68262 36/// /0403 10244 20154 38711 48522 53008 333 20180 91007 555 10290 91019
AAXX 02064 68263 32980 03204 10223 20150 38494 48519 53008 333 20163 91007 555 10267 91020
AAXX 02064 68267 32970 03311 10203 20153 38257 48525 52013 333 20144 91014 555 10260 91022
AAXX 02064 68289 16/// /3405 10223 20179 39146 48522 52003 69984 333 20192 91008 555 10261 20008 91016
AAXX 02064 68350 16/// /0403 10274 20165 38667 48522 53006 69924 333 20139 91007 555 10328 20002 91019
AAXX 02064 68368 NIL
AAXX 02064 68403 36/// /1903 10182 20137 30129 40162 53006 333 20150 91006 555 10235 91016
AAXX 02064 68424 32982 01907 10227 20024 39196 48524 53003 333 20157 91011 555 10362 91016
AAXX 02064 68438 32982 00000 10265 20020 38800 48501 53007 333 20148 91005 555 10344 91015
AAXX 02064 68442 32982 00705 10218 20084 38653 48507 53006 333 20118 91008 555 10325 91018
AAXX 02064 68461 32980 00608 10222 20146 38330 48512 53005 333 20127 91012 555 10274 91021
AAXX 02064 68512 32982 01403 10228 21079 39017 48522 52003 333 20165 91005 555 10271 91017
AAXX 02064 68538 31974 01609 10243 20067 38711 48500 53005 70500 333 20162 91013 555 10330 91016
AAXX 02064 68587 NIL
AAXX 02064 68588 36/// /1911 10269 20145 30133 40149 53015 333 20205 91018 555 10304 91014
AAXX 02064 68591 16/// /2009 10245 20200 39973 40150 52007 69924 333 20216 91014 555 10277 20002 91015
AAXX 02064 68592 NIL
AAXX 02064 68618 32980 02402 10173 20056 39054 48518 53001 333 20071 91003 555 10304 91017
AAXX 02064 68633 36/// /1606 10212 20108 38499 48493 53002 333 20151 91009 555 10310 91017
AAXX 02064 68668 32670 70202 10190 20121 39306 48531 52003 875// 333 20175 91003 555 10301 91017
AAXX 02064 68714 36/// /3205 10196 20147 30110 40146 52008 333 20144 91007 555 10233 91014
AAXX 02064 68727 36/// /1903 10202 20073 39113 48502 52002 333 20169 91006 555 10335 91014
AAXX 02064 68752 16/// /2706 10208 20140 39473 48536 57002 69924 333 20154 91011 555 10303 20002 91016
AAXX 02064 68816 11370 73311 10179 20174 30083 40137 53002 69964 70262 875// 333 20167 91014 555 10237 20006 91013
AAXX 02064 68828 32980 02503 10216 20131 39893 40121 55000 333 20159 555 10231 91012
AAXX 02064 68842 32980 03006 10223 20130 30065 40134 50002 333 20184 555 10244 91013
AAXX 02064 68858 32980 22708 10230 20145 39987 40140 50001 82050 333 20173 555 10251 91014
AAXX 02064 68906 12598 22510 10114 20079 30077 40142 53005 69934 82500 222// 00133 319// 41001 333 20110 91014 555 10184 20003 91014
AAXX 02064 68994 12598 52925 10075 20039 39830 49858 53015 60094 84530 222// 00068 303// 41001 333 20058 91041 555 10106 20090 90985
AAXX 02064 89004 329// 01110 11095 21165 38841 49860 58003 333 21115 91010 555 11052
AAXX 02061 78322 12956 40000 10176 20161 30196 40213 58014 60001 80008 333 10294 20176 30/// 56009 59001 84280
AAXX 02061 78345 12565 10302 10218 20210 30198 40201 58007 60001 81500 333 10297 20212 30/// 56900 59004 81623
AAXX 02061 78351 12550 10000 10202 20195 30177 40179 58008 60001 81500 333 10313 20195 31/// 56900 58012 70022 81626
AAXX 02061 78355 12560 30202 10216 20206 30053 40193 56012 60001 83200 333 10284 20210 30/// 56900 59006 83820
AAXX 02061 78310 NIL
AAXX 02061 78315 NIL
AAXX 02061 78318 NIL
AAXX 02061 78324 NIL
AAXX 02061 78325 NIL
AAXX 02061 78328 NIL
AAXX 02061 78333 NIL
AAXX 02061 78344 NIL
AAXX 02061 78348 NIL
AAXX 02061 78349 NIL
AAXX 02061 78365 NIL
AAXX 02061 78360 NIL
AAXX 02061 78369 NIL
AAXX 02061 78358 NIL
AAXX 02061 78353 NIL
AAXX 02064 68174 31965 00404 10242 20163 38795 48524 5//// 60144 70500 333 20155 555 10289 20145 91019
AAXX 02064 68191 16/// /0502 10259 20191 39631 48544 52008 69924 333 20211 91004 555 10335 20002 91013
AAXX 02064 68242 32980 00203 10234 20142 38723 48506 53006 333 20137 91006 555 10306 91017
AAXX 02064 68262 36/// /0403 10244 20154 38711 48522 53008 333 20180 91007 555 10290 91019
AAXX 02064 68263 32980 03204 10223 20150 38494 48519 53008 333 20163 91007 555 10267 91020
AAXX 02064 68267 32970 03311 10203 20153 38257 48525 52013 333 20144 91014 555 10260 91022
AAXX 02064 68289 16/// /3405 10223 20179 39146 48522 52003 69984 333 20192 91008 555 10261 20008 91016
AAXX 02064 68350 16/// /0403 10274 20165 38667 48522 53006 69924 333 20139 91007 555 10328 20002 91019
AAXX 02064 68368 NIL
AAXX 02064 68403 36/// /1903 10182 20137 30129 40162 53006 333 20150 91006 555 10235 91016
AAXX 02064 68424 32982 01907 10227 20024 39196 48524 53003 333 20157 91011 555 10362 91016
AAXX 02064 68438 32982 00000 10265 20020 38800 48501 53007 333 20148 91005 555 10344 91015
AAXX 02064 68442 32982 00705 10218 20084 38653 48507 53006 333 20118 91008 555 10325 91018
AAXX 02064 68461 32980 00608 10222 20146 38330 48512 53005 333 20127 91012 555 10274 91021
AAXX 02064 68512 32982 01403 10228 21079 39017 48522 52003 333 20165 91005 555 10271 91017
AAXX 02064 68538 31974 01609 10243 20067 38711 48500 53005 70500 333 20162 91013 555 10330 91016
AAXX 02064 68587 NIL
AAXX 02064 68588 36/// /1911 10269 20145 30133 40149 53015 333 20205 91018 555 10304 91014
AAXX 02064 68591 16/// /2009 10245 20200 39973 40150 52007 69924 333 20216 91014 555 10277 20002 91015
AAXX 02064 68592 NIL
AAXX 02064 68618 32980 02402 10173 20056 39054 48518 53001 333 20071 91003 555 10304 91017
AAXX 02064 68633 36/// /1606 10212 20108 38499 48493 53002 333 20151 91009 555 10310 91017
AAXX 02064 68668 32670 70202 10190 20121 39306 48531 52003 875// 333 20175 91003 555 10301 91017
AAXX 02064 68714 36/// /3205 10196 20147 30110 40146 52008 333 20144 91007 555 10233 91014
AAXX 02064 68727 36/// /1903 10202 20073 39113 48502 52002 333 20169 91006 555 10335 91014
AAXX 02064 68752 16/// /2706 10208 20140 39473 48536 57002 69924 333 20154 91011 555 10303 20002 91016
AAXX 02064 68816 11370 73311 10179 20174 30083 40137 53002 69964 70262 875// 333 20167 91014 555 10237 20006 91013
AAXX 02064 68828 32980 02503 10216 20131 39893 40121 55000 333 20159 555 10231 91012
AAXX 02064 68842 32980 03006 10223 20130 30065 40134 50002 333 20184 555 10244 91013
AAXX 02064 68858 32980 22708 10230 20145 39987 40140 50001 82050 333 20173 555 10251 91014
AAXX 02064 68906 12598 22510 10114 20079 30077 40142 53005 69934 82500 222// 00133 319// 41001 333 20110 91014 555 10184 20003 91014
AAXX 02064 68994 12598 52925 10075 20039 39830 49858 53015 60094 84530 222// 00068 303// 41001 333 20058 91041 555 10106 20090 90985
AAXX 02064 89004 329// 01110 11095 21165 38841 49860 58003 333 21115 91010 555 11052
BBXX 46206 02061 99488 71260 46/// /1112 10091 40140 52002 22200 00084 11106 70031 333 91214
BBXX 46205 02061 99542 71343 46/// /2212 10065 49926 52043 22200 00070 11011 70053 333 91216
BBXX 46132 02061 99497 71279 46/// /1316 10093 40072 57009 22200 00085 11011 70056 333 91220
AAXX 02064 42571 32596 83201 10160 20143 40169 8653/ 333 58026
AAXX 02064 42667 31595 43410 10166 20128 39572 40173 70500 8230/ 333 58038 82620 83360
AAXX 02064 42754 31495 20905 10170 20106 39519 40168 71022 82500 333 58029 82615
AAXX 02064 42867 21595 62306 10272 20218 40133 70552 84830 333 59002 6990/ 82620 83825
AAXX 02064 42933 32997 62701 10256 20182 40140 80008 333 58017 86270
AAXX 02064 42559 NIL
AAXX 02064 42675 NIL
AAXX 02064 42779 NIL
AAXX 02064 42874 NIL
AAXX 02064 43041 NIL
AAXX 02064 67017 NIL
AAXX 02064 67020 12582 60000 10286 20244 30086 40113 58001 60311 86900 333 024// 10324 20234 50124 55/// 83820 81920 86640 94976 95836=30.1 67023 12582 51010 10300 20249 30100 40106 50002 60124 83232 333 02018 10328 20212 50214 55/// 83820 555 81360 82075=11.6 67037 NIL
AAXX 02064 67067 12581 5//// 10248 20211 39250 48/// 51002 60454 85800 333 0//// 10291 20195 50214 55/// 84823 555 82630
AAXX 02064 67107 NIL
AAXX 02064 67131 NIL
BBXX OXHY2 02063 99324 10293 41598 43314 10180 20139 40204 53011 7//00 84370 22224 20103 3//// 4//// 5//// 80155
BBXX OXHY2 02063 99324 10293 41598 43314 10180 20139 40204 53011 7//00 84370 22224 20103 3//// 4//// 5//// 80155
AAXX 02064 68587 NIL
AAXX 02064 68592 NIL
AAXX 02064 84452 31360 81410 10210 20192 30109 40140 70322 886// 333 564// 58023 86707
AAXX 02064 84515 31960 00000 10240 20226 39928 40106 70122 333 58012
AAXX 02064 84377 21454 80202 10220 20214 30001 40107 76156 85720 333 56000 58015 60092 85710 88458
AAXX 02064 84782 31962 60000 10190 20138 39628 40135 70222 8603/ 333 5609/ 58007 86360
AAXX 02064 84782 31962 60000 10190 20138 39628 40135 70222 8603/ 333 5609/ 58007 86360
AAXX 02064 84782 31962 60000 10190 20138 39628 40135 70222 8603/ 333 5609/ 58007 86360
AAXX 02064 84782 31962 60000 10190 20138 39628 40135 70222 8603/ 333 5609/ 58007 86360
AAXX 02064 84752 32560 62703 10134 20102 37541 70122 86500 333 56900 58016 83520 83556
AAXX 02064 84691 31460 30000 10200 20185 30121 40128 70300 83600 333 56000 58015 83714
AAXX 02064 84401 31660 51503 10260 20172 30097 40142 70222 855// 333 560// 58014 85640
AAXX 02064 84686 21660 80000 10089 20067 36893 76162 881// 333 56900 58009 83633 85843
AAXX 02064 84501 31258 81510 10196 20176 30107 40134 71011 8363/ 333 56000 58028 83705 87364
AAXX 02064 84628 34250 21706 10202 20189 30115 40131 71021 82600 333 564// 58024 82705
AAXX 02061 50658 31920 80901 11201 21227 40305 57009 70400 80007 333 21303
AAXX 02061 50888 32965 03402 11136 21203 40274 57010 333 21275
AAXX 02061 50983 32965 22001 11168 21222 40287 57009 80002 333 21292
AAXX 02061 51053 32980 01105 11102 21177 40400 57007 333 05703 21156
AAXX 02061 51542 11680 22502 11224 21253 37581 57013 69901 70070 81502 333 05651 21315
AAXX 02061 52436 32980 00704 11069 21177 38558 40417 57016 333 05252 21168
AAXX 02061 52908 11670 73205 11066 21095 35695 57013 69911 77070 875// 333 05755 21115
AAXX 02061 52996 32975 70205 11093 21171 37574 57024 8704/ 333 05153 21129
AAXX 02061 53083 32980 02904 11177 21218 40362 54000 333 05200 21208
AAXX 02061 53764 32970 62204 11044 21145 40350 57016 80002 333 21100
AAXX 02061 53787 32980 73603 11011 21157 40292 57023 80002 333 21117
AAXX 02061 54096 32968 12704 11138 21215 40284 57006 80002 333 21229
AAXX 02061 54226 11680 73401 11089 21129 40273 57014 69931 72270 82502 333 21209
AAXX 02061 54259 32665 71102 11107 21189 40273 57034 81502 333 21247
AAXX 02061 54527 31958 52903 10007 21075 40268 57024 70500 80002 333 21062
AAXX 02061 54534 11668 72704 11008 21065 40260 57031 69901 70070 83502 333 21072
BBXX 46132 02061 99497 71279 46/// /1316 10093 40072 57009 22200 00085 11011 70056 333 91220
BBXX 46205 02061 99542 71343 46/// /2212 10065 49926 52043 22200 00070 11011 70053 333 91216
BBXX 46206 02061 99488 71260 46/// /1112 10091 40140 52002 22200 00084 11106 70031 333 91214
BBXX 44062 02061 99386 70764 46/// /3207 1//// 90620 22200 00081 333 91210
BBXX 44062 02061 99386 70764 46/// /3307 1//// 40078 90610 22200 00081 333 91209
BBXX 44062 02061 99386 70764 46/// /3308 10088 40075 51003 90600 22200 00081 10201 70005 333 91211
BBXX 44063 02061 99390 70764 46/// /3009 1//// 90620 333 91212
BBXX 44063 02061 99390 70764 46/// /3110 1//// 40120 90610 333 91213
BBXX 44063 02061 99390 70764 46/// /3109 10086 40115 50006 90600 22200 00073 1//00 70002 333 91212
BBXX 44041 02061 99372 70768 46/// /3208 1//// 90620 333 91210
BBXX 44041 02061 99372 70768 46/// /3208 1//// 40136 90610 333 91210
BBXX 44041 02061 99372 70768 46/// /3108 10115 40136 53008 90600 22200 00090 1//00 70001 333 91210
BBXX 44042 02061 99380 70763 46/// /3107 1//// 90620 333 91208
BBXX 44042 02061 99380 70763 46/// /3107 1//// 40105 90610 333 91208
BBXX 44042 02061 99380 70763 46/// /3108 10104 40105 53013 90600 22200 00085 10301 70006 333 91209
BBXX 44043 02061 99392 70764 46/// /3008 1//// 90620 333 91211
BBXX 44043 02061 99392 70764 46/// /3009 1//// 40094 90610 333 91211
BBXX 44043 02061 99392 70764 46/// /3010 10086 40093 51009 90600 22200 00065 10301 70006 333 91213
AAXX 02064 87436 32970 20904 10249 20105 39306 40076 57020 80006 333 56005 82270
AAXX 02064 88900 46/// /2104 10027 20023 30015 40018 50003 333 55037
AAXX 02064 89020 46/// /9901 11044 21049 39841 49876 57011 90540
BBXX PFFH 02063 99002 70006 41/98 /1607 10260 40128 52005 71500 8//// 22223 00271 2////
BBXX MLRM6 02063 99400 30021 41997 32436 10120 20065 40057 53014 70111 83060 22261 00129 20308 3//// 4//// 5////
BBXX LAVN4 02064 99207 70183 41797 60626 10185 2008/ 40210 58008 70200 86/// 22213 00200 20904 305// 40804 5//// 6//// 80130 NNNN
BBXX DANV 02064 99098 10672 41397 5//// 10270 20221 40120 54000 70322 84773 22224 04260 20304 305// 40304 80235
BBXX ZCDN9 02064 99280 70151 41298 80115 10174 20110 40297 52005 70200 8/7// 22263 00196 20202 3//// 4//// 5////
BBXX ZCDG4 02063 99114 70744 41998 10731 10239 20208 40106 57024 70200 80008 22254 00260 20302 308// 40804 5////
BBXX PENR 02064 99124 70608 41497 40226 10270 20234 40134 58026 70300 83245 22254 20402 309// 41004 80245
BBXX ZCDY2 02064 99168 70632 41698 52639 10255 20207 40156 57030 70122 854// 22234 00260 20305 311// 40304 5////
BBXX GDTT 02063 99118 70685 41/// 50810 10265 20236 40125 50/// 70011 8///2 22276 02290 20201 307// 40303 80245
AAXX 02061 30455 42999 21101 11227 21252 38983 48499 58001 80001
AAXX 02061 30731 41497 83002 11072 21102 39740 40370 58001 77172 8277/
AAXX 02061 30739 41999 02702 11104 21148 39506 40359 58002 70231
AAXX 02061 30741 42998 23105 11150 21170 38762 48542 54000 82050
AAXX 02061 30745 42999 03003 11167 21209 39141 40361 58005
AAXX 02061 30764 41999 80000 11181 21207 39487 40339 58004 70272 8801/
AAXX 02061 30829 42699 63101 11153 21187 39682 40417 58012 81149
AAXX 02061 30838 42598 62705 11126 21153 39353 40384 58008 81902
AAXX 02061 30846 41999 83003 11108 21161 39383 40326 54000 70172 80003
AAXX 02061 30859 41998 83604 11137 21189 39432 40310 52003 77172 80007
AAXX 02061 30862 41920 80702 11200 21233 39539 40334 58001 77172 8801/
AAXX 02061 30957 42699 83506 11103 21156 39367 40293 58005 8637/
AAXX 02061 30975 41899 80703 11216 21248 39625 40327 58011 77171 8802/
BBXX ZDLP 02063 99539 50387 41/93 82414 10033 20033 40021 54000 74154 896// 22262 04029 20100 323// 40402 5//// 80033
BBXX VQKZ6 02063 99189 50753 41398 21709 10218 20195 40144 58010 70200 82100 22274 02195 20302 317// 40503 5//// 80203
BBXX 62141 02063 99493 50591 41/98 /2818 10102 20096 40144 54000 700// 8//// 22200 20503 324// 40602 5//// 80099
AAXX 02061 30499 42999 82403 11217 21242 39612 40322 57005 80001
AAXX 02061 30683 42998 82902 11195 21228 39619 40315 58006 80004
AAXX 02061 30695 42998 02903 11224 21256 39947 40312 56010
AAXX 02061 31253 42999 00000 11290 21328 39797 40307 57006
AAXX 02061 31295 42999 40000 11181 21214 39802 40288 57007 80001
AAXX 02061 31348 41999 20000 11239 21257 30056 40269 57004 70271 80001
AAXX 02061 31418 42999 20000 11248 21266 39988 40268 57003 80002
AAXX 02061 31439 42599 81602 11229 21248 30190 40239 57006 8353/
AAXX 02061 31442 42999 00000 11169 21219 39908 40284 57005
AAXX 02061 31445 42998 01301 11198 21247 30013 40286 57008
AAXX 02061 31474 42999 00000 11240 21296 39771 40298 57007
AAXX 02061 31521 32971 00000 11204 21245 39983 40297 57008
AAXX 02061 31527 42998 02501 11193 21226 39967 40292 57005
AAXX 02061 31534 42999 00000 11228 21276 39933 40309 57002
AAXX 02061 31587 42998 03001 11200 21233 30143 40301 57011
AAXX 02061 31632 NIL
AAXX 02061 31702 42998 02401 11204 21253 39927 40291 57005
AAXX 02061 31713 42999 02301 11182 21232 30164 40271 57010
AAXX 02061 31725 42998 00000 11212 21231 30200 40272 57007
AAXX 02061 31801 42998 00000 11189 21247 30019 40263 57015
AAXX 02064 68171 NIL
AAXX 02064 68181 NIL
AAXX 02064 68182 NIL
AAXX 02064 68185 NIL
AAXX 02064 68297 NIL
AAXX 02064 68342 NIL
AAXX 02064 68471 NIL
AAXX 02061 31825 42999 00000 11135 21206 30007 40225 56010
AAXX 02061 31845 42999 02601 11170 21212 30096 40275 57006
AAXX 02061 31878 42998 02501 11172 21234 30153 40286 55006
AAXX 02061 31915 42999 30903 11135 21206 39991 40271 57008 80001
AAXX 02061 31921 41996 00802 11155 21197 30174 40279 56010 71000
AAXX 02061 31969 42/97 82803 11068 21208 30203 40254 56015 80002
AAXX 02061 31981 42999 00501 11155 21225 30021 40272 56014
AAXX 02061 31987 42999 03508 11104 21235 39961 40233 56009 333 91014 91115
AAXX 02061 32069 41598 70000 11113 21133 30165 40170 57008 70282 85930 333 91107
AAXX 02064 68155 36/// /0804 10258 20165 39192 48531 52008 333 20202 91008 555 10339 91016
AAXX 02064 68171 NIL
AAXX 02064 68176 16/// /0802 10247 20187 39135 48528 53007 60274 333 20173 91005 555 10348 20272 91016
AAXX 02064 68181 NIL
AAXX 02064 68182 NIL
AAXX 02064 68185 NIL
AAXX 02064 68253 36/// /1002 10269 20169 39050 48532 52011 333 20182 91008 555 10320 91017
AAXX 02064 68255 36/// /0903 10248 20138 38863 48516 52015 333 20166 91005 555 10305 91017
AAXX 02064 68271 36/// /3404 10238 20157 38917 48526 53007 333 20197 91009 555 10320 91018
AAXX 02064 68273 16/// /0106 10231 20167 38468 48522 53008 69924 333 20155 91008 555 10281 20002 91021
AAXX 02064 68287 36/// /0106 10210 20162 38582 48518 52008 333 20141 91010 555 10219 91020
AAXX 02064 68291 36/// /1202 10250 20197 39528 48536 52010 333 20207 91004 555 10326 91014
AAXX 02064 68297 NIL
AAXX 02064 68329 36/// /0000 10261 20036 39090 48531 52007 333 20137 91003 555 10369 91017
AAXX 02064 68331 36/// /1808 10239 20023 38830 48519 53001 333 20142 91011 555 10338 91018
AAXX 02064 68335 36/// /3304 10231 20038 38924 48536 53006 333 20137 91005 555 10347 91019
AAXX 02064 68341 36/// /3310 10254 20141 38537 48522 52008 333 20145 91015 555 10308 91020
AAXX 02064 68342 NIL
AAXX 02064 68343 36/// /1706 10233 20034 38773 48500 53006 333 20139 91010 555 10334 91016
AAXX 02064 68349 36/// /3112 10253 20146 38511 48505 53008 333 20150 91017 555 10309 91018
AAXX 02064 68353 36/// /1203 10228 20157 38523 48502 52008 333 20144 91005 555 10286 91018
AAXX 02064 68355 36/// /0412 10228 20150 38574 48509 52006 333 20134 91016 555 10302 91018
AAXX 02064 68370 32970 03108 10191 20174 38380 48528 52012 333 20150 555 10280 91022
AAXX 02064 68377 36/// /1304 10219 20193 38766 48508 53010 333 20204 91006 555 10326 91017
AAXX 02064 68380 36/// /3203 10203 20166 3//// 4//// 5//// 333 20133 91007 555 10273
AAXX 02064 68387 16/// /2208 10226 20201 38862 48525 53010 60024 333 20179 91018 555 10300 20028 91018
AAXX 02064 68411 36/// /0000 10248 20076 39942 40146 53006 333 20200 91001 555 10370 91015
AAXX 02064 68429 36/// ///// 10208 20018 38682 48503 52012 333 20132 555 10326 91017
AAXX 02064 68449 36/// /3502 10214 20129 38389 48500 52006 333 20116 91003 555 10284 91019
AAXX 02064 68471 NIL
AAXX 02064 68474 32450 61203 10215 20158 38635 48528 52003 86100 333 20144 91006 555 10317 91020
AAXX 02064 68479 36/// /0904 10251 20107 38955 48527 52007 333 20188 91006 555 10334 91017
AAXX 02064 68481 36/// /1604 10244 20213 39771 40134 52008 333 20212 91006 555 10305 91014
AAXX 02064 68487 36/// /1604 10216 20155 39007 48532 53009 333 20152 91006 555 10297 91018
AAXX 02064 68491 36/// /3105 10274 20222 30116 40125 52008 333 20227 91008 555 10294 91012
AAXX 02064 68497 36/// /2312 10265 20209 30095 40138 53013 333 20223 91018 555 10322 91014
AAXX 02064 68183 31978 21905 10246 20188 39435 48536 52007 70500 80002 333 20194 91008 555 10312 91015
AAXX 02064 68188 36/// /0000 10248 20181 39199 48536 52008 333 20179 91002 555 10290 91017
AAXX 02064 68268 36/// /2002 10270 20190 38891 48540 52008 333 20179 91004 555 10318 91019
AAXX 02064 68272 16/// /0000 10259 20187 39079 48535 53011 69924 333 20183 91003 555 10324 20002 91017
AAXX 02064 68296 16/// /3602 1//// 2//// 38914 4//// 54000 69924 333 2//// 91003 555 1//// 20002
AAXX 02064 68322 32982 01906 10253 20002 39146 48528 52010 333 20135 91010 555 10379 91016
AAXX 02064 68338 32980 03304 10237 20043 38771 48507 52005 333 20120 91006 555 10325 91017
AAXX 02064 68345 36/// /0307 10225 20080 38670 48514 53013 333 20154 91009 555 10322 91018
AAXX 02064 68362 32980 01102 10217 20137 38514 48517 52006 333 20123 91004 555 10297 91020
AAXX 02064 68400 36/// /0403 10270 20211 30050 40122 52010 333 20225 91006 555 10338 91012
AAXX 02064 68408 36/// /1803 10153 20126 30145 40153 52005 333 20113 91005 555 10211 91015
AAXX 02064 68416 32984 01606 10241 21080 39044 48526 52011 333 20163 91011 555 10347 91017
AAXX 02064 68478 12989 00802 10254 20114 38880 48528 52003 69924 333 20157 91003 555 10315 20002 91018
AAXX 02064 68488 16/// /1102 10242 20170 39272 48535 52010 69924 333 20190 91005 555 10294 20002 91016
AAXX 02064 68494 36/// /2006 10255 20192 30006 40134 52013 333 20202 91012 555 10313 91013
AAXX 02064 68524 32986 02002 10265 21002 39059 48525 52010 333 20160 91004 555 10362 91016
AAXX 02064 68546 36/// /1404 10222 20139 38651 48499 53007 333 20131 91009 555 10305 91017
AAXX 02064 68558 36/// /2402 10185 20101 38189 48501 52005 333 20097 91005 555 10248 91020
AAXX 02064 68570 12370 81205 10195 20130 38518 48511 52002 69924 885// 333 20161 91011 555 10293 20002 91019
AAXX 02064 68580 36/// /0905 10195 20162 38963 48528 52007 333 20128 91008 555 10294 91019
AAXX 02064 68614 31001 93002 10175 20155 30110 40151 52007 74744 891// 333 20143 91004 555 10272 91015
AAXX 02064 68624 32982 00803 10227 21091 38740 48516 52003 333 20117 91010 555 10338 91018
AAXX 02064 68674 36/// /1903 10240 20173 30119 48580 52011 333 20214 91005 555 10313 91015
AAXX 02064 68712 36/// /0205 10168 20151 30080 40145 52008 333 20158 91007 555 10222 91014
AAXX 02064 68718 NIL
AAXX 02064 68722 32980 03004 10217 21020 38548 48506 53000 333 20090 91010 555 10278 91018
AAXX 02064 68814 36/// /3607 1//// 2//// 30140 4//// 53003 333 2//// 91010 555 1//// 91014
AAXX 02064 68832 32970 03102 10186 20102 39187 48511 51001 333 20118 91005 555 10321 91015
AAXX 02064 68916 16/// /3414 10166 20162 39868 40136 55000 69984 333 20164 91020 555 10210 20008 91013
AAXX 02064 68920 12470 62804 10198 20177 30110 40122 54000 69964 86500 333 20182 91011 555 10237 20006 69945 91012
AAXX 02064 68928 36/// /2804 10250 20140 39970 40126 56001 333 20181 91009 555 10250 91013
BBXX 44059 02061 99368 70763 46/// /3106 1//// 90620 333 91208
BBXX 44059 02061 99368 70763 46/// /3004 1//// 40100 90610 333 91206
BBXX 44059 02061 99368 70763 46/// /3103 10142 40101 55000 90600 22200 00110 333 91207
BBXX 44057 02061 99395 70761 46/// /3209 1//// 90620 333 91211
BBXX 44057 02061 99395 70761 46/// /3109 1//// 40089 90610 333 91214
BBXX 44057 02061 99395 70761 46/// /3110 10077 40090 51009 90600 22200 00044 333 91215
BBXX 44058 02061 99376 70763 46/// /3008 1//// 90620 333 91210
BBXX 44058 02061 99376 70763 46/// /3009 1//// 40104 90610 333 91211
BBXX 44058 02061 99376 70763 46/// /2907 10120 40102 53006 90600 22200 00090 10201 70004 333 91209
BBXX 46092 02061 99368 71220 46/// /1907 10111 40210 90537 22200 00123 555 11072 22072
AAXX 02064 89253 46/// ///04 10047 4//// 5////
BBXX 46181 02061 99538 71288 46/// /1801 10005 40056 52011 22200 00038 10200 70001 333 91202
AAXX 02064 42634 31995 00906 10204 20126 40167 70500 333 59009
AAXX 02064 42647 31996 00706 10208 20119 40173 70400 333 58007
AAXX 02064 42737 31996 00508 10208 20151 40167 70500 333 58009
AAXX 02064 42840 31995 00502 10234 20143 40151 70500 333 59008
AAXX 02064 42909 32997 00504 10228 20095 40153 222// 20000 333 59013
AAXX 02064 42921 31995 11402 10240 20123 40170 70540 80001 333 58009 81075
AAXX 02064 43003 31994 00903 10288 20115 40131 70400 333 58000
AAXX 02064 43014 31996 00000 10262 20166 39481 40119 70040 333 58004
AAXX 02064 43063 31996 00000 10270 20133 39507 40123 70500 333 58013
AAXX 02064 43110 31995 00000 10300 20193 40123 71044 333 58002
AAXX 02064 43117 32597 51402 10284 20195 40120 85400 333 58006
AAXX 02064 43192 31996 12903 10310 20229 40121 70510 80001 333 58001
BBXX 46181 02061 99538 71288 46/// /1801 10005 40056 52011 22200 00038 10200 70001 333 91202
BBXX 46184 02061 99539 71389 46/// /2813 10046 49920 52066 22200 00059 11412 70059 333 91218
AAXX 02064 91723 NIL
AAXX 02064 91759 NIL
AAXX 02064 91762 NIL
BBXX 46184 02061 99539 71389 46/// /2813 10046 49920 52066 22200 00059 11412 70059 333 91218
AAXX 02061 31913 43/// /3401 11125 21219 30152 40276 56012
AAXX 02061 32128 41599 70104 11071 21114 30093 40146 56002 73683 87300 333 91010 91114
AAXX 02061 24856 41999 83501 11309 21332 30107 40280 53002 70272 85031
AAXX 02061 30679 NIL
AAXX 02061 30686 42999 20000 11243 21282 39922 40329 58009 80001
AAXX 02061 30961 41897 83503 11184 21190 39482 40323 52001 77177 8802/
AAXX 02061 30971 41974 82401 11185 21218 39258 40305 58005 77172 8802/
AAXX 02061 30978 41999 80604 11210 21243 39583 40319 58010 70272 86017
AAXX 02061 31513 42998 00000 11197 21223 30049 40292 57009
AAXX 02061 31624 NIL
AAXX 02061 31832 42997 01302 11195 21236 30184 40277 57008
AAXX 02064 64500 32360 81810 10252 20235 30111 40124 845// 333 02350 20225 50201 55084 58006 84608 88633
AAXX 02064 64501 32360 51804 10250 20236 3//// 4//// 85500 333 0//00 20249 50254 55/// 5//// 83608 85630
AAXX 02064 64550 32460 6//// 10235 20222 30/// 40/// 86500 333 0//00 20230 50114 55/// 5//// 83610 86623
AAXX 02064 64551 32358 70000 10235 20228 30108 40137 8353/ 333 0//00 20206 50024 55/// 58008 82703 83608 87360
AAXX 02064 64556 11356 8//// 10218 20215 39553 40149 60014 760166 8452/ 333 0//11 20218 50024 55007 58010 84609 88460
BBXX 2AQK9 02064 99041 10052 41497 42109 10280 20237 40120 53013 70200 841// 22233 04300 20402 80250
AAXX 02064 62002 32960 22708 10093 21008 39556 48595 52002 82030 333 20090 50474 55052 82360
AAXX 02064 62007 NIL
AAXX 02064 62008 NIL
AAXX 02064 62010 12560 72405 10115 20095 40278 53003 60015 82530 333 0//28 50234 55022 82630 85390
AAXX 02064 62012 11558 42710 10140 20122 30240 40270 54000 60084 71000 82530 333 0//39 20135 50094 82630 83358
AAXX 02064 62016 12560 62908 10130 2009 40288 53002 60084 83870 333 0//28 20128 50164 55042 81820 83625 85360
AAXX 02064 62019 NIL
AAXX 02064 62053 32560 30000 10054 20034 40261 53001 82530 333 20054 50254 55055 82620 83358
AAXX 02064 62055 NIL
AAXX 02064 62056 NIL
AAXX 02064 62059 NIL
AAXX 02064 62062 NIL
AAXX 02064 62103 NIL
AAXX 02064 62120 NIL
AAXX 02064 62124 32960 41305 10028 20014 39752 40268 52008 84040 333 20095 50214 55081 84360
AAXX 02064 62131 NIL
AAXX 02064 62161 32970 30000 10061 20047 40254 51011 80004 333 20054 50354 55071 83070
AAXX 02064 62176 NIL
AAXX 02064 62200 NIL
AAXX 02064 62212 NIL
AAXX 02064 62259 NIL
AAXX 02064 62271 32960 30000 10070 20013 40293 51008 80006 333 20065 50414 55/// 83270
AAXX 02064 64550 32460 6//// 10235 20222 30/// 40/// 86500 333 0//00 20230 50114 55/// 5//// 83610 86623
AAXX 02064 64551 32358 70000 10235 20228 30108 40137 8353/ 333 0//00 20206 50024 55/// 58008 82703 83608 87360
BBXX SHIP 02064 99312 11280 41698 60507 10130 20073 40226 56019 70222 86453 22213 00192 20203 301// 40203 80100
BBXX SHIP 02064 99376 11432 41797 83432 10100 20061 40004 52003 78182 888// 22282 00154 20404 334// 40305 80080
BBXX UIFY 02061 99514 11409 42598 53013 11158 21220 40211 57002 85400 22200 01015 2//// ICE 40092
BBXX VRHO2 02064 99435 11470 41696 81724 10040 20017 40060 54000 78162 86620 22214 00030 20402 315// 40704 50000 6/00/ 80030 ICE 0////
BBXX 44039 02061 99411 70727 46/// /2306 10100 20095 40047 90553 22200 00082 10401 70006 333 91208
AAXX 02064 43086 32597 81803 10254 20218 39960 40138 8457/ 333 59002
AAXX 02064 43128 32497 61403 10272 20191 39532 40131 84831 333 56399 58005 84615
AAXX 02064 43150 31596 20504 10288 20217 30070 40144 70511 82100 333 59005 82825
AAXX 02064 43185 32597 60903 10280 20239 30134 40137 83531 333 58005 83620 85360
AAXX 02064 43189 32597 30702 10300 20227 30136 40145 82530 333 59004
AAXX 02064 43198 32496 32303 10276 20157 39297 40106 82501 333 56509 58001 82615
AAXX 02064 43201 32497 20903 10274 20213 39399 40092 81530 333 58004 81618
AAXX 02064 43213 32597 31803 10292 20179 39814 40127 83400 333 56300 58000
AAXX 02064 43226 32597 22702 10320 20188 30097 40126 82500 333 58006
AAXX 02064 43233 32997 00903 10284 20185 39316 40108 333 58003
AAXX 02064 43237 32597 31403 10302 20157 39736 40121 83500 333 58004 83620
AAXX 02064 43245 32597 30000 10284 20238 30109 40106 83400 333 58007
AAXX 02064 43279 32497 70503 10284 20235 30120 40137 84830 333 58001 83618 83825 85360
AAXX 02064 43284 32996 11105 10310 20187 30001 40115 80001 333 58008 81075
AAXX 02064 43295 32997 20906 10256 20151 39114 48530 80001 333 59001 82075
AAXX 02064 43311 32597 71806 10292 20237 40112 83431 333 56499 58007 83620 85360
AAXX 02064 43314 32997 02702 10312 20224 40122 333 58004
AAXX 02064 43321 31496 30504 10262 20191 39695 40140 70520 83500 333 56900 58007
AAXX 02064 43329 32597 40702 10310 20244 30117 40130 83401 333 58015
AAXX 02064 43344 31496 59903 10304 20231 30036 40134 70522 84801 333 58006 82615 83820
AAXX 02064 43346 32597 50504 10282 20239 30121 40128 84401 333 58009 84620
AAXX 02064 43353 31496 41405 10308 20165 40124 81531 333 56699 58002 81616 84072
AAXX 02064 43369 32597 51809 10302 20239 40118 82530 333 56490 58008 82620 84360
AAXX 02064 43371 32997 10000 10306 20170 30047 40119 80001 333 58005 81075
AAXX 02061 56671 32780 21604 10175 20034 38170 57041 81130 333 05301 20032
AAXX 02061 57378 31930 83602 10038 20005 40276 57030 71000 8807/ 333 20016
AAXX 02061 57426 11540 80401 10070 20067 40233 57035 69991 76064 887// 333 05352 20060
AAXX 02061 57476 31959 80202 10055 20016 40269 57035 71000 8807/ 333 20026
AAXX 02061 57584 31915 80203 10049 20019 40265 57034 71000 8807/ 333 20037
AAXX 02061 57598 31958 83401 10076 20008 40254 57034 70500 8807/ 333 20038
AAXX 02061 57655 11950 80702 10060 20033 40254 57032 69911 76060 8802/ 333 20060
AAXX 02061 57713 NIL
AAXX 02061 57776 11/00 90704 11002 21008 40253 57027 69981 76664 333 21011 93428
AAXX 02061 58321 31957 01402 10084 21020 40265 57043 70500 333 21016
AAXX 02061 58437 32980 03402 10022 21100 38159 57023 333 21035
AAXX 02061 58445 NIL
AAXX 02061 58556 32962 01801 10094 21032 40253 57045 333 20012
AAXX 02061 58569 32470 10406 10114 20008 40254 57030 81100 333 20030
AAXX 02061 58646 31958 01801 10117 21008 40240 57047 70500 333 20034
AAXX 02061 58653 NIL
AAXX 02061 58660 NIL
AAXX 02061 58715 31930 13403 10094 20029 40239 57042 70500 81040 333 20041
AAXX 02061 58730 32770 71602 10124 20046 40231 57039 875// 333 20051
AAXX 02061 58731 31962 01401 10121 20028 40234 57043 70040 333 20013
AAXX 02061 58754 31659 72202 10121 20014 40240 57031 70500 875// 333 20054
AAXX 02061 58911 32768 21101 10152 20057 40214 57046 82502 333 20070
AAXX 02061 58931 31/00 92502 10036 20029 38366 57023 74544 333 21001
AAXX 02061 59254 11758 80201 10138 20095 40203 57038 69901 72160 885// 333 20122
AAXX 02061 59632 31759 73202 10172 20099 40188 57040 70500 875// 333 20134
AAXX 02061 59855 11578 70903 10230 20161 40175 57031 69901 70060 878// 333 20190
BBXX 46004 02061 99509 71361 46/// /2508 10066 49989 52042 22200 00072 11012 70059 333 91211
AAXX 0206/ 89872 46/// ///// 11006 39828 4//// 5//// 90610
AAXX 0206/ 89872 46/// ///// 11005 39828 4//// 5//// 90620
AAXX 0206/ 89869 46/// ///// 11019 39814 4//// 5//// 90610
AAXX 0206/ 89869 46/// ///// 11016 39813 4//// 5//// 90620
AAXX 0206/ 89866 46/// ///// 11010 39770 4//// 5//// 90610
AAXX 0206/ 89866 46/// ///// 11008 39770 4//// 5//// 90620
AAXX 0206/ 89329 46/// ///// 11109 38754 4//// 5//// 90620
AAXX 0206/ 89799 46/// ///// 11251 4//// 5//// 90620
AAXX 0206/ 89327 46/// ///// 11029 39685 4//// 5//// 90620
AAXX 0206/ 89332 46/// ///// 11074 39236 4//// 5//// 90620
AAXX 0206/ 89769 46/// ///// 10006 39880 4//// 5//// 90620
AAXX 0206/ 89108 46/// ///// 11208 37000 4//// 5//// 90610
AAXX 0206/ 89108 46/// ///// 11208 37000 4//// 5//// 90620
AAXX 0206/ 89879 46/// ///// 11005 39772 4//// 5//// 90620
AAXX 0206/ 89314 46/// ///// 11118 38231 4//// 5//// 90620
AAXX 02064 89667 46/// /0701 10009 29046 39878 4//// 5//// 90620
AAXX 02064 89667 46/// /0901 10001 39878 4//// 5//// 90610
AAXX 02064 89667 46/// /0703 10000 39878 4//// 5////
BBXX 46004 02061 99509 71361 46/// /2508 10066 49989 52042 22200 00072 11012 70059 333 91211
AAXX 02064 45011 47558 /0905 10183 20115 40194 57037 70200 333 59010
AAXX 02061 40650 11/03 92501 10076 20071 40194 52012 60002 74544
AAXX 02061 40602 12960 80000 10048 20028 40220 53009 60002 8802/
AAXX 02061 40608 41550 70000 10050 20045 40191 52013 60002 71022 83520
AAXX 02061 40621 11958 31602 10075 20000 40216 520005 60002 70600 80001
AAXX 02061 40631 11556 30000 10060 20046 40192 52009 600002 71010 83200
AAXX 02061 40634 11940 00000 10006 200002 40176 580067 60002 74210
AAXX 02061 40642 12960 30000 10066 200004 40198 58004 60002 83030
AAXX 02061 40655 11950 00000 10068 20059 40155 52014 60002 71000
AAXX 02061 40665 12960 02702 10080 20077 40194 52017 60002
AAXX 02061 40670 11540 42703 10075 20065 40189 52014 60002 71000 85600
AAXX 02061 40674 11908 82705 10075 20064 40198 52019 60002 74441 8802/
AAXX 02061 40691 12660 22104 10126 20090 40196 53014 60002 82230
AAXX 02064 78982 01480 30814 10238 20218 30126 40131 57015 60031 72581 83201 333 59003 60037 83818
AAXX 02064 17203 11520 80000 11005 21010 38877 48523 52011 69942 77072 8552/ 333 21011 3/103 47005 55000 2//// 70013 85632 88457 93101
AAXX 02064 62002 32960 22708 10093 21008 39556 48595 52002 82030 333 20090 50474 55052 82360
AAXX 02064 62007 NIL
AAXX 02064 62008 NIL
AAXX 02064 62010 12560 72405 10115 20095 40278 53003 60015 82530 333 0//28 50234 55022 82630 85390
AAXX 02064 62012 11558 42710 10140 20122 30240 40270 54000 60084 71000 82530 333 0//39 20135 50094 82630 83358
AAXX 02064 62016 12560 62908 10130 2//// 40288 53002 60084 83870 333 0//28 20128 50164 55042 81820 83625 85360
AAXX 02064 62019 NIL
AAXX 02064 62053 32560 30000 10054 20034 40261 53001 82530 333 20054 50254 55055 82620 83358
AAXX 02064 62055 NIL
AAXX 02064 62056 NIL
AAXX 02064 62059 NIL
AAXX 02064 62062 NIL
AAXX 02064 62103 NIL
AAXX 02064 62120 NIL
AAXX 02064 62124 32960 41305 10028 20014 39752 40268 52008 84040 333 20095 50214 55081 84360
AAXX 02064 62131 NIL
AAXX 02064 62161 32970 30000 10061 20047 40254 51011 80004 333 20054 50354 55071 83070
AAXX 02064 62176 NIL
AAXX 02064 62200 NIL
AAXX 02064 62212 NIL
AAXX 02064 62259 NIL
AAXX 02064 62271 32960 30000 10070 20013 40293 51008 80006 333 20065 50414 55/// 83270
AAXX 02061 40009 11565 70000 10070 20061 40147 52012 60022 76166 85550 333 20066 31/// 70018 85630 87360
AAXX 02061 40016 11570 70000 10060 20056 40200 51018 60012 76262 84510 333 20045 31/// 55035 70010 84630 87460
AAXX 02061 40022 12565 50000 10100 20082 40146 52021 60071 85800 222// 20000 333 20090 32/// 82830 84632
AAXX 02061 40030 11560 80000 10072 20063 40173 52029 60033 71066 8557/ 333 20068 32/// 50044 55000 85630 88360
AAXX 02061 40039 NIL
AAXX 02061 40066 11570 70000 10096 20075 40155 52016 60373 79596 87900 333 20085 32/// 70581 84926 85630
AAXX 02061 40072 32970 00000 10074 20042 40190 54000 333 20030 30///
AAXX 02061 40083 32570 20000 10025 21004 48456 52008 82200 333 20014 30/// 82826
AAXX 02061 13463 32970 00000 11014 21040 30208 40270 53005 333 21015 33106 55055
AAXX 02061 13459 32970 00201 11044 21044 39490 40296 54000 333 21050 37110 47002 55086
AAXX 02061 13461 32970 00902 10041 21017 30258 40265 53005 333 20036 31101 55078 92311 92418 92511
AAXX 02061 13363 31/06 90000 11129 21136 39342 48502 56002 74740 333 21132 3/115 47017 55046
BBXX 44060 02061 99413 70721 46/// ///07 10097 40035 90630 22200 00092 333 91208 555 11077 22082
BBXX 46232 02061 99325 71174 46/// ///// 1//// 90608 22200 00147 11303 21001 327// 41302 70013
BBXX 46247 02061 99378 71228 46/// ///// 1//// 90621 22200 00114 11302 20901 326// 41301 70010
BBXX 46246 02061 99500 71451 46/// ///// 1//// 90629 22200 00067 11310 21007 336// 41308 70051
AAXX 02064 71405 16/// ///// 11100 21125 60001 333 11038 21179 70000
AAXX 02064 71417 16/// /3302 11041 21041 30076 40111 53004 60001 333 11014 21047 70104 555 30819 40141
AAXX 02064 71426 46/// /1514 11021 6///1 333 11020 21052 7//// 555 31620 40061
AAXX 02064 71283 16/// /1208 11055 21139 60001 333 11054 21224 70005 555 31417 40051
AAXX 02064 71788 16/// /1514 11056 21092 60001 333 10006 21140 70004 555 31721 40221
AAXX 02064 71792 16/// ///// 11103 21122 60001 333 11029 21162 70000
AAXX 02064 71221 16/// /0604 11081 21134 60001 333 11081 21231 70012
AAXX 02064 71226 16/// /0809 11078 21119 60001 333 11078 21185 70000 555 30817 40051
AAXX 02064 71229 46/// /0201 11119 21140 6///1 333 11119 21220 7////
AAXX 02064 71242 16/// /1507 11078 21101 60001 333 11059 21194 70000
AAXX 02064 71454 16/// /1602 11185 21209 39643 40371 56009 60001 333 11089 21185 70000 555 33319 40071
AAXX 02064 71461 16/// /1010 11057 21132 60001 333 11055 21183 70000 555 31017 40041
AAXX 02064 71468 17/// /3332 11081 21091 39806 40133 51020 60031 7//4/ 333 21081 7////
AAXX 02064 71483 16/// ///// 11112 21141 60001 333 11078 21200 70000
AAXX 02064 71673 16/// ///// 11104 21116 60001 333 11047 21195 70000
AAXX 02064 71690 16/// ///// 11040 21118 60001 333 11039 21230 70000
AAXX 02064 71971 16/// /0402 11319 21350 30100 40148 51013 60001 333 11292 21345 70000
AAXX 02064 71359 16/// /1103 11170 21199 60001 333 11074 21196 70000
AAXX 02064 71011 16/// ///// 11106 21124 60001 333 11042 21172 70000
AAXX 02064 71888 16/// ///// 11105 21137 60001 333 11060 21197 70000
AAXX 02064 71895 16/// ///// 11088 21104 60001 333 11052 21202 70004
AAXX 02064 71067 16/// ///// 11095 21119 60001 333 11064 21197 70004
AAXX 02061 38844 42699 80504 11008 21113 48500 52003 889//
AAXX 02064 71500 16/// /1506 11082 21119 60001 333 11041 21165 70000
AAXX 02064 71504 46/// ///// 11085 21116 6///1 333 11060 21177 7////
AAXX 02064 71541 16/// /1410 11041 21135 60001 333 11041 21170 70000 555 31319 40061
AAXX 02064 71543 46/// /1103 11055 21120 6///1 333 11055 21255 7////
AAXX 02064 71546 16/// /0906 11073 21128 60001 333 11072 21151 70000
AAXX 02064 71547 16/// /1007 11094 21146 60001 333 11082 21176 70000
BBXX 46246 02061 99500 71451 46/// ///// 1//// 90559 22200 00067 11110 21007 300// 41107 70048
AAXX 02064 68916 11/00 93414 10166 20162 39868 40136 55000 69984 74542 333 20164 91020 555 10210 20008 91013
AAXX 02061 56144 32780 71804 10116 21112 36768 57060 874// 333 05906 21042
AAXX 02061 56152 32780 62505 10087 21102 36231 57041 84102 333 05701 21144
AAXX 02061 56167 32780 61805 10160 21098 36989 57066 86402 333 05807 21083
AAXX 02061 56182 11980 12901 10015 21123 37145 57047 69901 70070 80002 333 05355 21099
AAXX 02061 56357 32680 62507 10100 21086 36415 57032 86100 333 05300 21056
AAXX 02061 56586 11460 80401 10024 21009 38033 57040 69901 70060 885// 333 05252 21003
AAXX 02061 56748 11580 62001 10189 20074 38344 57035 69901 70080 86900 333 05251 20076
AAXX 02061 56763 32680 12503 10275 20045 40040 57055 81102 333 05304 20147
AAXX 02061 56768 32680 52204 10194 20078 38162 57033 85100 333 05201 20075
AAXX 02061 56838 32675 50701 10243 20147 40133 57039 82130 333 05304 20127
AAXX 02061 56886 32680 12005 10196 20114 38270 57042 81100 333 05308 20059
AAXX 02061 56946 32670 71801 10222 20133 40135 57037 874// 333 05200 20092
AAXX 02061 56959 32768 40901 10262 20189 40115 57044 84100 333 05201 20161
AAXX 02061 56969 31575 71401 10250 20170 40132 57042 70040 878// 333 05252 20157
AAXX 02061 57731 11662 82702 10073 20022 40236 57035 69901 70060 885// 333 05351 20068
AAXX 02061 57766 11430 80701 10063 20051 40250 57030 60021 76066 8772/ 333 20061
AAXX 02061 57845 11756 83401 10068 20054 40233 57033 60011 76066 885// 333 20064
AAXX 02061 57853 11415 83401 10059 20042 40245 57033 60031 76066 8772/ 333 20056
AAXX 02061 57916 11456 80000 10094 20082 40210 57039 69901 76060 885// 333 05254 20083
AAXX 02061 57922 11330 81601 10053 20050 40220 57037 69991 76066 887// 333 05353 20043
AAXX 02061 57932 11256 80701 10087 20072 40226 57036 69951 76066 887// 333 05352 20079
AAXX 02061 58338 32962 00902 10089 21027 40254 57042 333 21006
AAXX 02061 59007 11465 83201 10088 20062 40183 57038 69911 70050 886// 333 20061
AAXX 02061 59046 11414 80402 10099 20096 40217 57036 69951 76066 885// 333 20096
AAXX 02061 59058 11830 83401 10103 20072 40219 57034 69901 76060 885// 333 20099
AAXX 02061 59072 31756 83402 10131 20069 40216 57039 70500 885// 333 20083
AAXX 02061 59087 32761 61802 10189 20047 40199 57047 86500 333 20118
AAXX 02061 59209 11360 82203 10109 20093 40190 57035 69901 76066 887// 333 20088
BBXX 46146 02061 99493 71237 46/// /1506 10069 40182 57011 22200 00068 10301 70004 333 91207
AAXX 02064 71405 16/// ///// 11100 21125 60001 333 11038 21179 70000
AAXX 02064 71417 16/// /3302 11041 21041 30076 40111 53004 60001 333 11014 21047 70104 555 30819 40141
AAXX 02064 71426 46/// /1514 11021 6///1 333 11020 21052 7//// 555 31620 40061
BBXX KS094 02064 99181 70631 43/// /1018 10260 40174 22200 06251
BBXX KS007 02064 99267 70801 43/// ///// 10192 40174 22200
BBXX KS088 02064 99267 70801 43/// /0702 10191 40211 22200 06222
BBXX 46146 02061 99493 71237 46/// /1506 10069 40182 57011 22200 00068 10301 70004 333 91207
AAXX 02061 45032 36/// /1301 10184 20102 30174 40191 57001
AAXX 02061 45035 36/// /0001 10184 20111 30148 40190 54000
AAXX 02061 45039 36/// /0402 10169 20107 30176 40192 54000
AAXX 02061 45044 36/// /1209 10180 20106 30094 40187 54000
AAXX 02061 45032 36/// /1301 10184 20102 30174 40191 57001
AAXX 02061 45035 36/// /0001 10184 20111 30148 40190 54000
AAXX 02061 45039 36/// /0402 10169 20107 30176 40192 54000
AAXX 02061 45044 36/// /1209 10180 20106 30094 40187 54000
BBXX 46243 02061 99462 71241 46/// ///// 1//// 90629 22200 00088 11004 21003 324// 41101 70018
BBXX 46236 02061 99368 71219 46/// ///// 1//// 90620 22200 00120 11102 21002 327// 41102 70012
BBXX 46229 02061 99438 71246 46/// ///// 1//// 90621 22200 00097 11003 21003 325// 41102 70016
BBXX 46225 02061 99329 71174 46/// ///// 1//// 90614 22200 00149 11302 21001 326// 41302 70009
BBXX 46213 02061 99403 71247 46/// ///// 1//// 90624 22200 00108 11303 20702 326// 41301 70014
BBXX 46215 02061 99352 71209 46/// ///// 1//// 90608 22200 00128 11203 21002 327// 41202 70013
AAXX 02064 41515 02697 70000 10053 21106 38595 48555 60001 85520 333 56990 59006 60007 85650 82458
AAXX 02064 41560 22697 41803 10032 21145 38295 48527 60001 83430 333 58002 60007
AAXX 02064 41571 11995 00000 10140 20007 39606 40197 60001 70500 333 58012
AAXX 02064 41594 31994 21304 10125 20028 39976 40199 70500 333 58011
AAXX 02064 41685 32997 20000 10145 21059 38938 48520 82020 333 56090 59009 82460
AAXX 02064 41710 02697 30000 10100 21115 39391 40184 60001 83200 333 56900 59044 60007 83835
AAXX 02064 41718 11995 20000 10150 20069 30086 40192 60001 70400 82030 333 56090 59009 82362
AAXX 02064 41739 02997 00506 10130 21027 39061 48513 60001 333 59039 60007
AAXX 02064 41744 32996 00000 10130 21069 38804 48526 333 59005
AAXX 02064 41749 01994 04503 10170 20070 30159 40194 60001 70400 333 59026 60007
AAXX 02064 41506 02997 33606 10085 21070 48557 60001 80030 333 56090 58000 60007 83362
AAXX 02064 41508 22997 20000 10075 21117 48555 60001 82030 333 56090 59009 60007 82360
AAXX 02064 41523 12997 20000 10120 21046 48547 60001 82030 333 56090 58000 60007 82360
AAXX 02064 41535 12697 00000 10120 21026 48505 60001 83500 333 56900 59001 82635
AAXX 02064 41536 12997 50000 10100 21007 48527 60001 85030 333 56090 59001 85362
AAXX 02064 41573 12997 21302 10100 21014 48510 60001 82020 333 58005
AAXX 02064 41600 01994 00000 10130 20101 39884 40186 60001 71000 333 58009 60007
AAXX 02064 41630 11995 00000 10165 21015 40202 60001 70500 333 58012
AAXX 02064 41678 01995 20000 10120 20068 40014 60001 70500 82030 333 56090 58011 60007 82362
AAXX 02064 41696 32997 00000 10120 21156 38017 48528 60001 333 59009 60007
AAXX 02064 41697 02997 00000 10178 20044 40193 60001 333 59010 60007
AAXX 02064 41700 11995 30502 10165 20036 40188 60001 70400 83030 333 56090 58001 83360
AAXX 02064 41725 01995 00504 10150 20056 40194 60001 70500 333 59018 60007
AAXX 02064 41746 02996 00000 10140 20068 40203 60001 333 59015 60007
AAXX 02064 41759 12996 02704 10205 20023 30180 40186 60001 333 59021
AAXX 02064 41785 02997 00904 10190 20045 40182 60001 333 59012 60007
AAXX 02064 41515 02697 70000 10053 21106 38595 48555 60001 85520 333 56990 59006 60007 85650 82458
AAXX 02064 41560 22697 41803 10032 21145 38295 48527 60001 83430 333 58002 60007
AAXX 02064 41571 11995 00000 10140 20007 39606 40197 60001 70500 333 58012
AAXX 02064 41594 31994 21304 10125 20028 39976 40199 70500 333 58011
AAXX 02064 41685 32997 20000 10145 21059 38938 48520 82020 333 56090 59009 82460
AAXX 02064 41710 02697 30000 10100 21115 39391 40184 60001 83200 333 56900 59044 60007 83835
AAXX 02064 41718 11995 20000 10150 20069 30086 40192 60001 70400 82030 333 56090 59009 82362
AAXX 02064 41739 02997 00506 10130 21027 39061 48513 60001 333 59039 60007
AAXX 02064 41744 32996 00000 10130 21069 38804 48526 333 59005
AAXX 02064 41749 01994 04503 10170 20070 30159 40194 60001 70400 333 59026 60007
BBXX 41010 02061 99289 70785 46/// /2508 10231 40195 90620 22200 00236 10302 20301 300// 40901 70008 333 91209 555 11081 22086
BBXX 41009 02061 99285 70802 46/// /2506 10215 20154 40204 90620 22200 00236 10301 20301 300// 40901 70005 333 91207 555 11058 22060
BBXX 42362 02061 99278 70907 46/// /0117 10178 20072 40275 90630
BBXX 42364 02061 99291 70881 46/// /3517 10156 20061 40264 90630
BBXX 42361 02061 99276 70925 46/// ///18 10178 20039 40278 54000 90630 555 11148 22159
BBXX 44100 02061 99363 70756 46/// ///// 1//// 90622 22200 00123 10502 20502 70008
BBXX 41110 02061 99341 70777 46/// ///// 1//// 90621 22200 00136 10602 20602 70011
BBXX 42099 02061 99273 70842 46/// ///// 1//// 90627 22200 00245 10401 20401 70006
BBXX 41113 02061 99284 70805 46/// ///// 1//// 90621 22200 00216 11001 70003
BBXX 41112 02061 99307 70813 46/// ///// 1//// 90621 22200 00168 10301 20301 70005
BBXX 2AQK9 02064 99041 10052 41497 42109 10280 20237 40120 53013 70200 841// 22233 04300 20402 80250
AAXX 02064 67131 11575 80000 10/// 20/// 30098 40103 51013 60174 76196 888// 333 0//61 10/// 20/// 50//4 55/// 83820 85633= 16.8
AAXX 02064 67002 12575 63408 10295 20238 30102 40136 69914 85502 333 20264 59007 85630 92418
AAXX 02064 67004 32581 63412 10290 20276 30121 40136 83830 333 20260 58002 83820 83353 92418
AAXX 02064 67009 12582 32812 10300 20234 39997 40115 51005 60034 81930 333 02419 10330 20250 50504 55020 81820 81920 83360
AAXX 02064 67012 12582 72604 10288 20247 30104 40115 51002 60064 8483/ 333 0//17 10310 20231 50204 55/// 81820 84640 85360
AAXX 02064 67025 32581 21802 10298 20239 30005 40104 50001 60824 81932 333 0//// 10321 20225 50174 55/// 81820 81920 94962 95832 555 81640 81360 81073
AAXX 02064 67027 12582 71206 10292 20253 30095 40116 51005 60344 81238 333 02133 10313 20242 50214 55048 81820 83360 85273
AAXX 02064 67045 NIL
AAXX 02064 67072 31470 62810 10285 20261 30116 40119 51007 71522 86800 333 02500 10302 20265 50244 55/// 82817 86640 92428
AAXX 02064 67073 31580 7//// 10308 20230 30084 40110 50007 71522 81933 333 0//00 10308 20250 50//4 55/// 81920 81820 84073 95837 555 82633 81360
AAXX 02064 67083 11475 70000 10218 20194 38739 48514 50001 60034 70262 8683/ 333 01514 20189 50224 55086 83817 85620
AAXX 02064 67095 31470 71404 10288 20241 30109 40115 50002 71522 86932 333 02400 10320 20237 50304 55/// 85817 83633
AAXX 02064 67113 NIL
AAXX 02064 67117 NIL
AAXX 02064 67137 12480 60000 10232 20194 38891 48497 50003 60114 84232 333 0//26 10280 20181 50144 55/// 84817 555 82360 81073
AAXX 02064 67143 12582 4//// 10/// 20/// 30108 40115 51002 60074 84800 333 0//18 10/// 20/// 50//4 55/// 83633 92438
AAXX 02064 67152 11480 6//// 10225 20218 39193 48503 51007 60014 7025/ 84870 333 02016 10300 20222 50284 55/// 83817 84460 555 82620
AAXX 02064 67157 11480 6//// 10/// 20/// 30129 40136 53009 60134 70162 86800 333 0//13 10/// 20/// 50//4 55/// 83817 85633
AAXX 02064 67161 NIL
AAXX 02064 67197 12480 60812 10259 20239 30107 40117 51002 60054 86800 333 01559 10272 20231 50125 55004 83817 84633
AAXX 02064 67017 NIL
AAXX 02064 67020 12582 60000 10286 20244 30086 40113 58001 60311 86900 333 024// 10324 20234 50124 55/// 83820 81920 86640 94976 95836
AAXX 02064 67023 12582 51010 10300 20249 30100 40106 50002 60124 83232 333 02018 10328 20212 50214 55/// 83820 555 81360 82075
AAXX 02064 67037 NIL
AAXX 02064 67067 12581 5//// 10248 20211 39250 48/// 51002 60454 85800 333 0//// 10291 20195 50214 55/// 84823 555 82630
AAXX 02064 67107 NIL
AAXX 02064 67131 NIL
AAXX 02064 67899 12583 31502 10230 20173 3//// 48/// 60024 81132 333 20170 5//// 81824 83080
BBXX 44258 02061 99445 70634 46/// /1906 10030 40132 57026 22200 00053 10802 70012 333 91208
AAXX 02064 67131 11575 80000 10/// 20/// 30098 40103 51013 60174 76196 888// 333 0//61 10/// 20/// 50//4 55/// 83820 85633
BBXX 44258 02061 99445 70634 46/// /1906 10030 40132 57026 22200 00053 10802 70012 333 91208
AAXX 02064 67131 11575 80000 10/// 20/// 30098 40103 51013 60174 76196 888// 333 0//61 10/// 20/// 50//4 55/// 83820 85633
BBXX 44140 02061 99429 70515 46/// /2917 10120 40044 5//// 22200 00089 11116 70080 333 91222
AAXX 02064 97014 32560 62704 10286 20239 39990 40083 57023 83271 333 56800 57882 83820 80860
AAXX 02064 97028 NIL
AAXX 02064 97048 31462 43606 10316 20222 30045 40069 57025 71500 83931 333 56000 57901 57801 81918 82818 80980 80860
AAXX 02064 97072 31560 53314 10316 20226 39991 40091 57024 71522 82271 333 56700 57804 82820 80856
AAXX 02064 97086 31459 71703 10295 20254 30062 40087 56016 71522 83870 333 56000 57802 83817 86460 80860
AAXX 02064 97096 31458 70810 10310 20256 30071 40092 57017 71422 82221 333 56000 57803 82816 86460 80857
AAXX 02064 97120 01462 62707 10310 20231 30046 40079 57026 69921 70162 81231 333 56000 57803 69927 81818 84360 80860
AAXX 02064 97146 31457 60504 10306 20257 30010 40070 57029 70522 83271 333 56000 57801 83814 80858
AAXX 02064 97180 01457 73110 10292 20266 30072 40090 56022 69901 76062 83271 333 56000 69907 83819 83459
AAXX 02064 97192 32467 32303 10314 20256 30045 40102 57020 81221 333 56000 57803 81817 80857
AAXX 02064 97230 32460 32308 10315 20246 30068 40075 57025 82231 333 56000 57801 82816 80860
AAXX 02064 97260 32566 33206 10305 20260 30069 40076 57019 82901 333 56000 57905 81920 80980
AAXX 02064 97270 01410 71004 10256 20250 30079 40084 57014 60081 76166 85821 333 56000 57800 60087 82815 83617 85460
AAXX 02064 97300 01558 80000 10288 20247 30052 40092 58018 60211 71662 84271 333 56000 57801 60207 84820 84460 80858
AAXX 02064 97340 01450 82706 10242 20236 30082 40097 57007 60531 79596 889// 333 56099 57900 60537 82916 86618 80980
AAXX 02064 97372 01459 72804 10259 20248 39970 40091 57012 60117 72162 85971 333 56000 60111 81915 85816
AAXX 02064 97430 01458 73506 10280 20245 30051 40080 57021 60051 72162 84932 333 56700 57971 57871 60027 81915 83818 80980 80860
AAXX 02064 97460 32458 62602 10306 20226 30050 40064 57004 84876 333 56000 57801 83817 80859
AAXX 02064 97502 01458 71603 10290 20251 30068 40072 57022 69901 70322 85831 333 56000 69907 82811 84614
AAXX 02064 97530 NIL
AAXX 02064 97560 01460 82809 10292 20260 30047 40062 57024 69901 70262 83847 333 56000 57803 69907 82818 85361 88279 80860
AAXX 02064 97580 32462 50000 10294 20254 30078 40085 56017 82238 333 56000 57802 82814 80850
AAXX 02064 97600 01458 71204 10286 20255 30073 40079 52018 60101 70262 84971 333 56600 57961 60107 83916 85459 80958
AAXX 02064 97686 NIL
AAXX 02064 97690 32465 42810 10322 20245 39946 40048 57026 82842 333 56000 57802 82817 80860
AAXX 02064 97724 32460 71907 10293 20251 30059 40075 57021 83872 333 56700 57871 82819 80856
AAXX 02064 97748 01460 72915 10290 20256 30054 40056 54000 60071 70562 84936 333 56600 57960 60077 83914 85074 80940
AAXX 02064 97760 01458 73403 10288 20245 30073 40082 57019 69901 72166 83932 333 56000 57901 69907 81915 82816 80960
AAXX 02064 97796 01457 70000 10282 20250 30039 40090 57014 69951 70562 87432 333 56000 69957 87612
AAXX 02064 97810 32464 71108 10314 20263 30052 40061 56011 85832 333 56700 57871 84819 80858
AAXX 02064 97876 NIL
AAXX 02064 97900 32568 62109 10319 20258 30040 40069 57017 85205 333 56600 57861 85820 80850
AAXX 02064 97980 32460 31707 10306 20236 30053 40060 57026 82141 333 56000 82817
AAXX 02064 96009 32458 30307 20294 20243 30066 40102 57016 82921 333 56000 57903 57803 81917 81818 80964 80864
AAXX 02064 96011 32460 73206 10296 20244 30079 40105 57014 84931 333 56000 57901 82918 82619 80961
AAXX 02064 96035 32460 70000 10326 20216 30065 40103 57022 85236 333 56000 57802 85817 80850
AAXX 02064 96073 32560 70000 10312 20207 30091 40103 56021 83522 333 56000 83620
AAXX 02064 96091 32458 80516 10310 20248 30091 40114 57025 85818 333 56000 57801 82613 84817 87280 80860
AAXX 02064 96109 32460 60000 10318 20214 30056 40095 57016 84131 333 56000 57802 84815 80840
AAXX 02064 96145 32456 60209 10284 20237 30105 40108 58011 86800 333 56800 57883 82616 84816 80857
AAXX 02064 96147 31457 73615 10286 20252 30117 40123 56016 70522 84531 333 56800 84614 84360
AAXX 02064 96163 32562 42608 10320 20233 30098 40100 57012 82821 333 56000 57802 81820 80830
AAXX 02064 96179 32460 73612 10306 20248 30068 40105 57012 83208 333 56800 57883 83817 87273 80840
AAXX 02064 96195 NIL
AAXX 02064 96221 32460 70610 10309 20246 30083 40098 57018 84276 333 56999 57893 84815 80857
AAXX 02064 96237 01458 83613 10290 20241 30059 40101 57018 69901 76162 83938 333 56000 57902 69907 81918 82816 84360 85280 80980
AAXX 02064 96249 32561 72408 10302 20235 30047 40098 57019 84232 333 56800 57881 84820 80863
AAXX 02064 96253 32560 62709 10316 20241 30063 40083 57018 82832 333 56000 57800 81820
AAXX 02064 96295 01457 80310 10278 20242 39999 40102 56020 69901 76062 85221 333 56000 57800 69907 85815 80800
AAXX 02064 96509 01458 83606 10261 20246 30089 40100 57020 60051 76166 8327/ 333 56009 57800 60057 83815 88460 808//
AAXX 02064 96581 32460 70207 10334 20217 30083 40090 57026 83131 333 56800 83812 80860
AAXX 02064 96633 32458 70606 10296 20270 30071 40079 57022 82971 333 56000 57900 81918 82618 86460 809//
AAXX 02064 96645 32459 73503 10318 20266 30058 40090 57021 85272 333 56000 57802 85812 80857
AAXX 02064 96655 32460 63205 10324 20234 30070 40104 57023 85572 333 56000 85613
AAXX 02064 96685 32460 62009 10309 20254 30062 40088 57031 85811 333 56600 85816
AAXX 02064 96749 01560 73204 10261 20236 30097 40110 58013 60031 72166 83571 333 56600 60017 83620 86461
AAXX 02064 96781 31457 62715 10262 20193 39269 48732 57018 70522 83231 333 56000 57802 83818 80858
AAXX 02064 96805 32561 62706 10325 20234 30085 40094 56021 83271 333 56000 57801 83820 80860
AAXX 02064 96839 NIL
AAXX 02064 96935 01560 52911 10308 20240 30081 40087 57024 60041 70196 83271 333 56600 57862 60047 83820 84360 80860
AAXX 02064 96001 11457 80000 10284 20266 39973 40121 57012 69981 70522 84572 333 56200 84619
AAXX 02064 96015 32562 51905 10300 20257 30090 40097 57020 82572 333 56000 82620
AAXX 02064 96033 31458 50104 10306 20240 30105 40110 57006 70511 82921 333 56000 57902 57802 81920 82818 80980 80860
AAXX 02064 96075 32462 70205 10300 20247 30100 40106 57009 82221 333 56000 57892 82816 85462 80850
AAXX 02064 96087 32460 60515 10300 20233 30077 40110 56014 82531 333 56100 82615 86080
AAXX 02064 96171 32458 73406 10302 20238 30079 40104 57014 85222 333 56000 57801 85815 80856
AAXX 02064 96207 32560 60000 10272 20190 39238 40159 57007 82232 333 56000 57800 81820 83080
AAXX 02064 96505 32460 62708 10277 20217 39059 4//// 57014 86131 333 56000 86817
AAXX 02064 96525 01440 80504 10282 20260 30090 40097 57021 60021 76162 8292/ 333 56009 57900 60027 81915 88460 809//
AAXX 02064 96529 32460 70000 10300 20254 30071 40095 57039 83128 333 56000 83818 87280
AAXX 02064 96535 32460 60106 10306 20249 30088 40109 58020 83231 333 56000 57803 83814 80865
AAXX 02064 96557 32460 70000 10316 20241 30034 40084 57035 84271 333 56200 57821 84813 86460 80857
AAXX 02064 96559 32458 70000 10322 20238 30058 40096 57026 85231 333 56600 57863 85812 84362 80858
AAXX 02064 96565 31358 63204 10320 20261 30044 40096 57035 71522 84231 333 56000 57803 84809 80840
AAXX 02064 96595 31461 70000 10309 20246 30045 40097 57028 70522 85976 333 56000 57902 81916 84612 80977
AAXX 02064 96607 32460 73503 10310 20244 30079 40094 57023 85521 333 56000 85814 87460
AAXX 02064 96615 32460 73505 10308 20250 30088 40102 57022 82132 333 56600 57863 82812 85082 80856
AAXX 02064 96695 01405 82514 10284 20239 30083 40088 56019 69901 79192 86921 333 56000 57901 57802 69907 82915 85616 80980 808//
AAXX 02064 96737 01450 80000 10274 20245 30065 40095 57013 60011 72162 84221 333 56000 57802 69917 84815 84460 80859
AAXX 02064 96739 01450 80000 10276 20238 30065 40114 57019 69901 70562 8512/ 333 56000 69907 85817
AAXX 02064 96741 01557 83202 10264 20238 30099 40103 57014 60091 72162 8357/ 333 56009 60047 83620 86460
AAXX 02064 96745 01459 82703 10264 20240 30106 40110 57019 60041 72162 8352/ 333 56609 60027 83619 88459
AAXX 02064 96751 01558 80000 10222 20199 39043 48920 57015 69951 70562 86221 333 56200 69957 82820 84620 80880
AAXX 02064 96791 31458 80000 10280 20247 30045 40119 57019 71522 8492/ 333 56009 57901 81918 83618
AAXX 02064 96797 11460 83204 10276 20250 30093 40098 57019 60011 71562 8497/ 333 56009 57901 81918 83620 80980
AAXX 02064 96837 01559 72910 10270 20241 30105 40108 57014 60121 71562 83976 333 56000 57900 69957 81920 83823
AAXX 02064 96925 32465 72808 10298 20249 30088 40093 57016 84272 333 56600 57860 84817 80860
AAXX 02064 96933 32460 62812 12315 20243 30086 40090 52026 84571 333 56600 84617
AAXX 02064 96937 32562 53011 10317 20248 30085 40085 57023 83131 333 56000 83820
AAXX 02064 96973 32462 63018 10318 20266 30082 40087 57019 84931 333 56000 57902 81919 80976 83820 80850
AAXX 02064 96987 32560 61205 10326 20259 30020 40080 57021 83531 333 56300 83620
AAXX 02064 97008 01459 52706 10294 20245 30063 40074 57008 60011 70162 82135 333 56000 60017 82819
AAXX 02064 97016 01560 70000 10305 20226 30069 40071 57020 60011 72162 83232 333 56000 57801 60017 83820 84459 80860
AAXX 02064 97126 32459 71903 10322 20229 30024 40084 57024 83221 333 56000 57802 83817 87460 80860
AAXX 02064 97142 NIL
AAXX 02064 97182 32568 62605 10320 20261 30076 40080 57028 83936 333 56000 57901 57801 81920 82820 80980 80880
AAXX 02064 97240 31460 53015 10314 20231 39968 40082 56020 70511 83131 333 56000 83816
AAXX 02064 97284 01450 70000 10228 20203 38866 40104 57016 69901 76062 85221 333 56000 57801 69907 85810 80837
AAXX 02064 97310 32568 51808 10316 20240 30067 40079 57022 82221 333 56000 57802 82818 84460 80840
AAXX 02064 97320 32565 52506 10322 20251 30061 40074 57023 83231 333 56000 57801 83820 80850
AAXX 02064 97378 11565 70000 10260 20248 39924 40086 56030 60141 76062 82171 333 56600 82820 85459
AAXX 02064 97380 32564 60000 10304 20254 30065 40085 57016 83231 333 56000 57802 83819 83360 80850
AAXX 02064 97406 NIL
AAXX 02064 97570 32460 72505 10316 20238 30058 40065 57032 82132 333 56600 82815 86079
AAXX 02064 97630 01307 81807 10268 20254 39922 40083 56015 69911 76096 8697/ 333 56309 57931 69917 84808 82910 86360 80980
AAXX 02064 97682 32465 73604 10342 20272 30038 40045 57024 83871 333 56000 57803 83815 86080 80860
AAXX 02064 97698 NIL
AAXX 02064 97700 32462 52704 10302 20251 30047 40061 58029 82232 333 56000 57804 82818 80856
AAXX 02064 97722 32461 71406 10291 20239 30060 40075 57029 85970 333 56600 57961 57861 81918 83819 86458 80971 80857
AAXX 02064 97780 NIL
AAXX 02064 97790 32462 82908 10302 20266 30033 40053 55007 8487/ 333 56609 57861 82819 86458 80858
BBXX 44140 02061 99429 70515 46/// /2917 10120 40044 5//// 22200 00089 11116 70080 333 91222
BBXX MINFR03 0206/ 99250 10551 46/// ///// 10215 40187 52014
AAXX 02061 01212 16/// /2206 10064 20027 39830 49845 57003 60014 333 20060 70013 91108
AAXX 02061 98134 NIL
AAXX 02061 98223 31562 10405 10310 20226 40098 57039 70544 81200 333 56999 81820
AAXX 02061 98232 11565 80404 10250 20225 40153 57030 60011 71588 8557/ 222// 20101 333 56199 85620 88358
AAXX 02061 98325 31462 33603 10313 20257 40107 58032 70544 81201 333 56999 81817
AAXX 02061 98328 31460 70000 10236 20163 38516 40089 58028 74044 87200 333 56999 87813
AAXX 02061 98330 31480 60402 10316 20245 30078 40110 57032 70544 86200 333 56999 86818
AAXX 02061 98336 31468 70708 10265 20245 30130 40135 57025 71544 83471 333 56199 83615 83357
AAXX 02061 98429 31560 82704 10291 20222 40111 57032 70544 8493/ 333 56999 81923 83825 88360
AAXX 02061 98430 31558 70201 10298 20223 40105 57032 70544 82870 333 56999 83620 85358
AAXX 02061 98431 31470 60901 10275 20243 30069 40116 58021 70544 82230 333 56999 82818 86360
AAXX 02061 98440 11462 80404 10270 20250 30106 40111 57025 60041 71586 8527/ 333 56199 85815 88357
AAXX 02061 98444 32468 20504 10305 20254 30086 40105 58024 82200 333 56999 82818
AAXX 02061 98526 32575 81201 10316 20262 40104 57032 83207 333 56999 83820 88274 98315
AAXX 02061 98531 31570 32701 10314 20260 30088 40092 58023 70544 82230 333 56699 82820
AAXX 02061 98536 31470 60404 10270 20241 39925 40131 58005 70544 82270 222// 20000 333 56199 82818 84357
AAXX 02061 98543 32480 53602 10320 20276 30070 40081 57030 83201 333 56199 83818 84075
AAXX 02061 98550 NIL
AAXX 02061 98618 32480 50905 10320 20255 40096 56024 71511 82961 333 56199 33303 56199 81917 82820 83358
AAXX 02061 98630 32575 30204 10298 20259 40121 58010 82201 222// 2//03 333 56199 82820
AAXX 02061 98637 NIL
AAXX 02061 98646 32460 40205 10300 20256 30085 40113 57024 82901 333 56999 82918 83080
AAXX 02061 98653 11465 70902 10299 20253 30032 40077 57027 60081 72586 83270 333 56299 83817 87358
AAXX 02061 98741 31470 50404 10306 20262 40094 57018 70544 82902 333 56199 82917 85075
AAXX 02061 98747 31460 63303 10290 20240 39903 40107 58006 70544 83970 333 56999 83917 86358
AAXX 02061 98753 31468 63603 10313 20256 40074 57035 70544 82238 333 56999 82816 86279
AAXX 02061 98755 NIL
AAXX 02061 98836 32460 61803 10316 20256 40092 57016 84271 333 56999 84262 83362
BBXX 46036 02061 99484 71339 46/// /1805 10083 40020 52020 22200 00079 11009 70043 333 91206
BBXX 46036 02061 99484 71339 46/// /1805 10083 40020 52020 22200 00079 11009 70043 333 91206
AAXX 02064 40655 11950 00000 10068 20059 40155 52014 60002 71000
AAXX 02064 40665 12960 02702 10080 20077 40194 52017 60002
AAXX 02064 40670 11540 42703 10075 20065 40189 52014 60002 71000 85600
AAXX 02064 40674 11908 82705 10075 20064 40198 52019 60002 74441 8802/
AAXX 02064 40691 12660 22104 10126 20090 40196 53014 60002 82230
AAXX 02064 40602 12960 80000 10048 20028 40220 53009 60002 8802/
AAXX 02064 40608 41550 70000 10050 20045 40191 52013 60002 71022 83520
AAXX 02064 40621 11958 31602 10075 20000 40216 520005 60002 70600 80001
AAXX 02064 40631 11556 30000 10060 20046 40192 52009 600002 71010 83200
AAXX 02064 40634 11940 00000 10006 200002 40176 580067 60002 74210
AAXX 02064 40642 12960 30000 10066 200004 40198 58004 60002 83030
AAXX 02064 40650 11/03 92501 10076 20071 40194 52012 60002 74544
AAXX 02061 88900 46/// /2104 10027 20023 30015 40018 50003 333 55037
AAXX 02061 23426 11965 80205 11124 21137 30210 40236 52021 69960 77173 8802/ 333 21138
AAXX 02061 23625 32999 10601 11193 21212 30190 40227 52010 81030 333 21187
AAXX 02061 28076 32997 80000 11120 21126 30184 40260 52006 8807/ 333 21147
AAXX 02061 28367 11996 81601 11112 21125 30139 40275 52002 69900 70272 8807/ 333 21103
AAXX 02061 28382 11945 81102 11133 21146 30216 40292 53002 69940 77172 8802/ 333 21148
AAXX 02061 28481 32998 72001 11157 21170 30195 40301 57001 83082 333 21169
AAXX 02061 28491 32965 01801 11167 21186 30197 40316 52001 333 21194
AAXX 02061 28573 12998 81902 11144 21164 30190 40302 57018 69900 80001 333 21160
AAXX 02061 28593 32998 71702 11159 21186 30212 40318 57006 80005 333 21192
AAXX 02061 28786 32998 81402 11170 21183 30142 40312 57005 80002 333 21193
AAXX 02061 28797 32997 81801 11156 21169 30145 40314 57008 80002 333 21186
AAXX 02061 28799 32998 81502 11168 21187 30174 40330 57007 80005 333 21206
BBXX PJGO 02064 99571 10022 47/98 /2324 10056 49919 53003 700// 22200
BBXX 63055 02064 99606 10016 46/// ///// 22200
BBXX 63106 02064 99610 10017 46/// /2418 10055 49826 57001 22200
BBXX 63105 02064 99610 10017 47597 ///// 10060 20008 49825 58002 741// 22200
BBXX 62305 02064 99504 10000 46/98 /2722 10098 20050 40071 52008 22200 00114 10702 70012 333 90710 91131
BBXX 62304 02064 99511 10018 46/98 /2517 10092 20054 40051 53204 22200 00106 10601 70007
BBXX 62094 02064 99517 70067 46/// /26// 10080 20027 40040 52009 22200 00104 10607 70033 333 90710 91131
BBXX 62103 02064 99499 70029 46/99 /2827 10099 20027 40070 52009 22200 00116 10905 70027 333 90710 91140
BBXX UASP 02061 99692 10352 41/96 91316 11040 40201 54000 70011 8//// 222// 20709
BBXX DDSB2 02063 99577 10032 41598 62522 10095 20044 40020 52020 7//22 864// 22234 29903 80070
AAXX 02064 63688 32980 00710 10185 20018 48/// 333 20035 59007
AAXX 02064 63708 32980 01208 10212 20066 48515 333 20128 59006
AAXX 02064 63714 32980 00000 10142 20058 48521 333 20048 59012
AAXX 02064 63740 32980 00402 10187 20066 48530 333 20074 59009
AAXX 02064 63772 32580 20509 10290 20226 82100 333 20192 82823
AAXX 02064 63820 32580 33510 10267 20211 40135 83100 333 20220 59013 83822
AAXX 02064 63612 NIL
AAXX 02064 63661 NIL
AAXX 02064 63671 NIL
AAXX 02064 63695 NIL
AAXX 02064 63723 NIL
AAXX 02064 63793 NIL
AAXX 02063 63671 32980 00607 10247 20183 333 20180
AAXX 02063 63723 32582 20205 10260 20202 40128 82100 333 20201 59016 82824
AAXX 02063 63793 32980 40510 10272 20140 40106 80001 333 20188 59015 84080
AAXX 02061 20046 31996 72712 11037 21045 30141 40173 52010 73831 8703/ 333 21082 91116
AAXX 02061 20069 41858 72812 11049 21077 30144 40157 52006 73873 8703/ 333 91116
AAXX 02061 20087 NIL
AAXX 02061 20292 41393 82212 11128 21141 30052 40072 57032 77373 8872/ 333 91115 92992
AAXX 02061 20353 46/// /3012 11015 21050 30235 40239 52017 333 91117
AAXX 02061 20667 32998 22005 11166 21185 30326 40334 52007 80001 333 21235
AAXX 02061 20674 NIL
AAXX 02061 20744 32998 20000 11145 21188 30320 40339 52006 80001 333 21145
AAXX 02061 20891 42998 52305 11263 21280 30183 40229 52020 70283 85030 333 91108
AAXX 02061 23022 11597 10908 11158 21200 30256 40321 52014 69900 73630 81100 333 21145
AAXX 02061 23032 32997 20604 11284 21308 30283 40317 52015 80001 333 21285
AAXX 02061 23058 11996 80308 11224 21242 30267 40272 52017 60020 77173 8802/ 333 21213
AAXX 02061 23242 11497 70606 11160 21187 30216 40233 52015 69900 73683 84531 333 21165
AAXX 02061 23256 11997 80604 11168 21187 30188 40225 52014 60020 77172 80006 333 21159
AAXX 02061 23330 11297 80307 11143 21170 30220 40242 52015 60010 77173 8677/ 333 21134 86705 91113
AAXX 02061 23445 11297 83102 11084 21087 30188 40214 60010 70242 886// 333 21164 88704
AAXX 02061 23552 11496 82401 11093 21105 30168 40204 52008 69960 77172 885// 333 21108 88612
AAXX 02061 23631 11298 80000 11062 21062 30180 40222 52009 69900 70271 886// 333 21080 88704
AAXX 02061 23662 11999 82501 11092 21099 30170 40216 52011 60020 70271 86031 333 21113
AAXX 02061 23724 32999 30000 11190 21202 30170 40240 52009 80002 333 21179
AAXX 02061 23734 11/92 90000 11078 21084 30139 40235 58003 69940 74542 333 21085
AAXX 02061 23849 42996 32502 11171 21191 40251 52007 83030
AAXX 02061 23867 32999 42602 11148 21168 30178 52005 83031 333 21143
AAXX 02061 23933 32397 82401 11114 21123 30187 40246 52008 8802/ 333 21180 88507
AAXX 02061 28064 32599 72101 11134 21147 30168 40265 52005 87500 333 21146
AAXX 02061 28275 11598 81701 11082 21101 30217 40279 53004 69900 78582 8595/
AAXX 02061 28493 32998 81401 11169 21188 30212 40311 53001 82036 333 21183
AAXX 02061 28698 11957 80000 11175 21187 30155 40322 57003 69900 71022 80005 333 21178
BBXX 51204 02061 99213 71581 46/// ///// 1//// 90622 22200 00246 11202 21001 330// 41202 70011
BBXX 51202 02061 99214 71577 46/// ///// 1//// 90610 22200 00238 11405 21003 335// 41404 70023
BBXX 46219 02061 99332 71199 46/// ///// 1//// 90628 22200 00136 11304 21002 330// 41303 70018
BBXX 46224 02061 99332 71175 46/// ///// 1//// 90606 22200 00147 11301 21001 325// 41301 70007
BBXX 46214 02061 99379 71235 46/// ///// 1//// 90620 22200 00119 11302 21002 325// 41302 70012
BBXX 44099 02061 99369 70757 46/// ///// 1//// 90622 22200 00106 10502 20502 70010
BBXX 44022 02061 99409 70737 46/// ///08 10093 20039 40050 90630 22200 00072 333 91213 555 11093 22103
BBXX 46238 02061 99334 71195 46/// ///// 1//// 90620 22200 00139 11303 20901 328// 41302 70014
BBXX 46239 02061 99363 71221 46/// ///// 1//// 90621 22200 00122 11303 21002 328// 41302 70017
BBXX WC5932 02064 99458 70870 43/// /3227 00/// 11040 21172 40109 50010 7//// 8//// 22200 0//// 2//// 3//// 4//// 5//// 6//// 81073 ICE /////
BBXX WXY6216 02064 99458 70871 43/// ///// 00/// 11044 21083 40091 50009 7//// 8//// 22200 0//// 2//// 3//// 4//// 5//// 6//// 81057 ICE /////
BBXX C6FR6 02064 99189 10728 41/// /3604 10230 2//// 40140 5//// 7//// 8//// 222// 0//// 2//// 3//// 4//// 5//// 6//// 8//// ICE /////
BBXX VRIO2 02064 99157 50164 41497 41015 10200 20169 40120 54000 70100 83500 22273 00180 2//// 3//// 4//// 5//// 6//// 80180 ICE /////
BBXX ZCDM8 02063 99191 30098 41498 51620 10188 20160 40147 5/000 70222 84169 22243 00192 20202 314// 40605 5//// 80171
AAXX 02064 61202 32965 30000 10140 21080 39646 40210 81042 333 01200 20134 51084 55094 58027 81365 83075
AAXX 02064 61214 NIL
AAXX 02064 61223 31958 50606 10155 21052 39877 40189 70622 80002 333 01200 20152 50724 55096 58022 85075
AAXX 02064 61226 NIL
AAXX 02064 61230 32960 50404 10140 21042 39880 40154 82042 333 0//00 20140 50794 55067 59004 82365
AAXX 02064 61233 32960 70604 10168 21036 3//// 4//// 80002 333 00300 20168 50764 55/// 5//// 87075
AAXX 02064 61235 31956 70812 10195 21014 3//// 4//// 70622 80002 333 0//00 20185 51104 55074 5//// 87075
AAXX 02064 61240 31958 61006 10189 21025 39836 40163 70622 80002 333 01200 20177 50824 55083 58021 86075
AAXX 02064 61250 32960 50000 10168 20035 3//// 4//// 80002 333 01600 20167 50093 55081 5//// 85075
AAXX 02064 61257 32960 41402 10160 21013 30098 40194 80002 333 00900 20134 50114 55069 59009 84075
AAXX 02064 61265 32960 30604 10155 20021 39840 40150 80002 333 01300 20155 50680 55099 58001 83075
AAXX 02064 61270 32960 40000 10175 21009 3//// 4//// 80002 333 01200 20160 50744 55077 5//// 84075
AAXX 02064 61272 32960 20000 10167 20042 39826 40155 80002 333 01100 20167 5//// 55088 59005 82075
AAXX 02064 61277 32960 20404 10166 20049 39826 40145 80002 333 01400 20161 50821 55101 58008 82075
AAXX 02064 61285 32960 60000 10140 20025 30005 40158 83072 333 01200 20138 50674 55042 59005 83365 83075
AAXX 02064 61291 32960 00204 10174 21004 39731 40145 333 01000 20146 50741 55081 58002
AAXX 02064 61293 32960 70404 10162 20057 3//// 4//// 80002 333 01100 20160 50670 55089 5//// 87075
AAXX 02064 61296 32960 60802 10154 20040 3//// 4//// 80002 333 00600 20148 50480 55095 5//// 86075
AAXX 02064 61297 32960 53604 10160 20044 3//// 4//// 80002 333 00900 20156 51021 55102 5//// 82075
AAXX 02064 67002 12575 63408 10295 20238 30102 40136 69914 85502 333 20264 59007 85630 92418
AAXX 02064 67004 32581 63412 10290 20276 30121 40136 83830 333 20260 58002 83820 83353 92418
AAXX 02064 67009 12582 32812 10300 20234 39997 40115 51005 60034 81930 333 02419 10330 20250 50504 55020 81820 81920 83360
AAXX 02064 67012 12582 72604 10288 20247 30104 40115 51002 60064 8483/ 333 0//17 10310 20231 50204 55/// 81820 84640 85360
AAXX 02064 67025 32581 21802 10298 20239 30005 40104 50001 60824 81932 333 0//// 10321 20225 50174 55/// 81820 81920 94962 95832 555 81640 81360 81073
AAXX 02064 67027 12582 71206 10292 20253 30095 40116 51005 60344 81238 333 02133 10313 20242 50214 55048 81820 83360 85273
AAXX 02064 67045 NIL
AAXX 02064 67072 31470 62810 10285 20261 30116 40119 51007 71522 86800 333 02500 10302 20265 50244 55/// 82817 86640 92428
AAXX 02064 67073 31580 7//// 10308 20230 30084 40110 50007 71522 81933 333 0//00 10308 20250 50//4 55/// 81920 81820 84073 95837 555 82633 81360
AAXX 02064 67083 11475 70000 10218 20194 38739 48514 50001 60034 70262 8683/ 333 01514 20189 50224 55086 83817 85620
AAXX 02064 67095 31470 71404 10288 20241 30109 40115 50002 71522 86932 333 02400 10320 20237 50304 55/// 85817 83633
AAXX 02064 67113 NIL
AAXX 02064 67117 NIL
AAXX 02064 67137 12480 60000 10232 20194 38891 48497 50003 60114 84232 333 0//26 10280 20181 50144 55/// 84817 555 82360 81073
AAXX 02064 67143 12582 4//// 10/// 20/// 30108 40115 51002 60074 84800 333 0//18 10/// 20/// 50//4 55/// 83633 92438
AAXX 02064 67152 11480 6//// 10225 20218 39193 48503 51007 60014 7025/ 84870 333 02016 10300 20222 50284 55/// 83817 84460 555 82620
AAXX 02064 67157 11480 6//// 10/// 20/// 30129 40136 53009 60134 70162 86800 333 0//13 10/// 20/// 50//4 55/// 83817 85633
AAXX 02064 67161 NIL
AAXX 02064 67197 12480 60812 10259 20239 30107 40117 51002 60054 86800 333 01559 10272 20231 50125 55004 83817 84633
BBXX 46036 02061 99484 71339 46/// /1805 10083 40020 52020 22200 00079 11009 70043 333 91206
BBXX 44140 02061 99429 70515 46/// /2917 10120 40044 5//// 22200 00089 11116 70080 333 91222
BBXX 44258 02061 99445 70634 46/// /1906 10030 40132 57026 22200 00053 10802 70012 333 91208
BBXX 42362 02061 99278 70907 46/// /0117 10178 20072 40275 90630
BBXX 42364 02061 99291 70881 46/// /3517 10156 20061 40264 90630
BBXX 41009 02061 99285 70802 46/// /2506 10215 20154 40204 90620 22200 00236 10301 20301 300// 40901 70005 333 91207 555 11058 22060
BBXX 42099 02061 99273 70842 46/// ///// 1//// 90627 22200 00245 10401 20401 70006
BBXX 41110 02061 99341 70777 46/// ///// 1//// 90621 22200 00136 10602 20602 70011
BBXX 41113 02061 99284 70805 46/// ///// 1//// 90621 22200 00216 11001 70003
BBXX 42361 02061 99276 70925 46/// ///18 10178 20039 40278 54000 90630 555 11148 22159
BBXX 41112 02061 99307 70813 46/// ///// 1//// 90621 22200 00168 10301 20301 70005
BBXX 44100 02061 99363 70756 46/// ///// 1//// 90622 22200 00123 10502 20502 70008
BBXX 41010 02061 99289 70785 46/// /2508 10231 40195 90620 22200 00236 10302 20301 300// 40901 70008 333 91209 555 11081 22086
BBXX 46215 02061 99352 71209 46/// ///// 1//// 90608 22200 00128 11203 21002 327// 41202 70013
BBXX 46243 02061 99462 71241 46/// ///// 1//// 90629 22200 00088 11004 21003 324// 41101 70018
BBXX 46213 02061 99403 71247 46/// ///// 1//// 90624 22200 00108 11303 20702 326// 41301 70014
BBXX 46229 02061 99438 71246 46/// ///// 1//// 90621 22200 00097 11003 21003 325// 41102 70016
BBXX 46225 02061 99329 71174 46/// ///// 1//// 90614 22200 00149 11302 21001 326// 41302 70009
BBXX 46236 02061 99368 71219 46/// ///// 1//// 90620 22200 00120 11102 21002 327// 41102 70012
BBXX KS094 02064 99181 70631 43/// /1018 10260 40174 22200 06251
BBXX KS007 02064 99267 70801 43/// ///// 10192 40174 22200
BBXX KS088 02064 99267 70801 43/// /0702 10191 40211 22200 06222
BBXX 46146 02061 99493 71237 46/// /1506 10069 40182 57011 22200 00068 10301 70004 333 91207
BBXX 46246 02061 99500 71451 46/// ///// 1//// 90559 22200 00067 11110 21007 300// 41107 70048
BBXX 46247 02061 99378 71228 46/// ///// 1//// 90621 22200 00114 11302 20901 326// 41301 70010
BBXX 46232 02061 99325 71174 46/// ///// 1//// 90608 22200 00147 11303 21001 327// 41302 70013
BBXX 46246 02061 99500 71451 46/// ///// 1//// 90629 22200 00067 11310 21007 336// 41308 70051
BBXX 44060 02061 99413 70721 46/// ///07 10097 40035 90630 22200 00092 333 91208 555 11077 22082
BBXX 46004 02061 99509 71361 46/// /2508 10066 49989 52042 22200 00072 11012 70059 333 91211
BBXX 44039 02061 99411 70727 46/// /2306 10100 20095 40047 90553 22200 00082 10401 70006 333 91208
BBXX 46184 02061 99539 71389 46/// /2813 10046 49920 52066 22200 00059 11412 70059 333 91218
BBXX DDSC2 02063 99137 70732 41298 10720 10270 20213 40135 57025 70100 81100 22254 00267 20604 80230
BBXX 46181 02061 99538 71288 46/// /1801 10005 40056 52011 22200 00038 10200 70001 333 91202
BBXX 46092 02061 99368 71220 46/// /1907 10111 40210 90537 22200 00123 555 11072 22072
BBXX 44059 02061 99368 70763 46/// /3004 1//// 40100 90610 333 91206
BBXX 44059 02061 99368 70763 46/// /3106 1//// 90620 333 91208
BBXX 44058 02061 99376 70763 46/// /3009 1//// 40104 90610 333 91211
BBXX 44057 02061 99395 70761 46/// /3110 10077 40090 51009 90600 22200 00044 333 91215
BBXX 44057 02061 99395 70761 46/// /3109 1//// 40089 90610 333 91214
BBXX 44057 02061 99395 70761 46/// /3209 1//// 90620 333 91211
BBXX 44059 02061 99368 70763 46/// /3103 10142 40101 55000 90600 22200 00110 333 91207
BBXX 44058 02061 99376 70763 46/// /3008 1//// 90620 333 91210
BBXX MINFR03 0206/ 99250 10551 46/// ///// 10215 40187 52014
BBXX 2AQK9 02064 99041 10052 41497 42109 10280 20237 40120 53013 70200 841// 22233 04300 20402 80250
BBXX ZCDM8 02063 99191 30098 41498 51620 10188 20160 40147 5/000 70222 84169 22243 00192 20202 314// 40605 5//// 80171
BBXX ZCDN9 02064 99280 70151 41298 80115 10174 20110 40297 52005 70200 8/7// 22263 00196 20202 3//// 4//// 5////
BBXX LAVN4 02064 99207 70183 41797 60626 10185 2008/ 40210 58008 70200 86/// 22213 00200 20904 305// 40804 5//// 6//// 80130 NNNN
BBXX DANV 02064 99098 10672 41397 5//// 10270 20221 40120 54000 70322 84773 22224 04260 20304 305// 40304 80235
BBXX PFFH 02063 99002 70006 41/98 /1607 10260 40128 52005 71500 8//// 22223 00271 2////
BBXX MLRM6 02063 99400 30021 41997 32436 10120 20065 40057 53014 70111 83060 22261 00129 20308 3//// 4//// 5////
BBXX VRIO2 02064 99157 50164 41497 41015 10200 20169 40120 54000 70100 83500 22273 00180 2//// 3//// 4//// 5//// 6//// 80180 ICE /////
BBXX MQPF2 02063 99143 10600 41597 30210 10270 20156 40175 53/// 70011 81148 22274 21003 30204 41203 50902 80200
BBXX DAJT 02064 99268 50320 41498 10323 10230 20193 40105 58025 70200 8/1// 22264 04230 2//04 80205
BBXX UIFY 02061 99514 11409 42598 53013 11158 21220 40211 57002 85400 22200 01015 2//// ICE 40092
BBXX C6FR6 02064 99189 10728 41/// /3604 10230 2//// 40140 5//// 7//// 8//// 222// 0//// 2//// 3//// 4//// 5//// 6//// 8//// ICE /////
BBXX VQKZ6 02063 99189 50753 41398 21709 10218 20195 40144 58010 70200 82100 22274 02195 20302 317// 40503 5//// 80203
BBXX 62141 02063 99493 50591 41/98 /2818 10102 20096 40144 54000 700// 8//// 22200 20503 324// 40602 5//// 80099
BBXX ZDLP 02063 99539 50387 41/93 82414 10033 20033 40021 54000 74154 896// 22262 04029 20100 323// 40402 5//// 80033
BBXX DFVY2 02064 99022 50380 41/98 20818 10270 20225 40111 57009 70300 22214 00260 80238
BBXX WC5932 02064 99458 70870 43/// /3227 00/// 11040 21172 40109 50010 7//// 8//// 22200 0//// 2//// 3//// 4//// 5//// 6//// 81073 ICE /////
BBXX WXY6216 02064 99458 70871 43/// ///// 00/// 11044 21083 40091 50009 7//// 8//// 22200 0//// 2//// 3//// 4//// 5//// 6//// 81057 ICE /////
BBXX 44058 02061 99376 70763 46/// /2907 10120 40102 53006 90600 22200 00090 10201 70004 333 91209
BBXX GDTT 02063 99118 70685 41/// 50810 10265 20236 40125 50/// 70011 8///2 22276 02290 20201 307// 40303 80245
BBXX ZCDY2 02064 99168 70632 41698 52639 10255 20207 40156 57030 70122 854// 22234 00260 20305 311// 40304 5////
BBXX ZCDG4 02063 99114 70744 41998 10731 10239 20208 40106 57024 70200 80008 22254 00260 20302 308// 40804 5////
BBXX PENR 02064 99124 70608 41497 40226 10270 20234 40134 58026 70300 83245 22254 20402 309// 41004 80245
BBXX 44043 02061 99392 70764 46/// /3009 1//// 40094 90610 333 91211
BBXX 44043 02061 99392 70764 46/// /3010 10086 40093 51009 90600 22200 00065 10301 70006 333 91213
BBXX 44042 02061 99380 70763 46/// /3108 10104 40105 53013 90600 22200 00085 10301 70006 333 91209
BBXX 44043 02061 99392 70764 46/// /3008 1//// 90620 333 91211
BBXX 44042 02061 99380 70763 46/// /3107 1//// 40105 90610 333 91208
BBXX 44063 02061 99390 70764 46/// /3009 1//// 90620 333 91212
BBXX 44063 02061 99390 70764 46/// /3110 1//// 40120 90610 333 91213
BBXX 44042 02061 99380 70763 46/// /3107 1//// 90620 333 91208
BBXX 44062 02061 99386 70764 46/// /3308 10088 40075 51003 90600 22200 00081 10201 70005 333 91211
BBXX 44063 02061 99390 70764 46/// /3109 10086 40115 50006 90600 22200 00073 1//00 70002 333 91212
BBXX 44062 02061 99386 70764 46/// /3207 1//// 90620 22200 00081 333 91210
BBXX 44041 02061 99372 70768 46/// /3208 1//// 40136 90610 333 91210
BBXX 44041 02061 99372 70768 46/// /3108 10115 40136 53008 90600 22200 00090 1//00 70001 333 91210
BBXX 44041 02061 99372 70768 46/// /3208 1//// 90620 333 91210
BBXX 44062 02061 99386 70764 46/// /3307 1//// 40078 90610 22200 00081 333 91209
BBXX 46205 02061 99542 71343 46/// /2212 10065 49926 52043 22200 00070 11011 70053 333 91216
BBXX 46132 02061 99497 71279 46/// /1316 10093 40072 57009 22200 00085 11011 70056 333 91220
BBXX 46206 02061 99488 71260 46/// /1112 10091 40140 52002 22200 00084 11106 70031 333 91214
BBXX 9HA2583 02064 99242 70740 41598 21009 1//// 2//// 40180 53/// 7//11 82111 22275 0//// 2//// 3//// 4//// 5//// 6//// 8//// ICE /////
BBXX 46185 02061 99524 71298 46/// /1716 10078 40021 52019 22200 00070 11316 70081 333 91221
BBXX A8TG2 02063 99254 71213 41698 82806 10170 20115 40200 52010 702// 8467/ 22263 20102 300// 40000 80140
BBXX ELWO6 02063 99241 70570 41598 41110 10248 20212 40225 57015 70300 82444 22254 00254 20801 311// 41003 80223
BBXX BAREU04 02064 99439 70639 46/// ///// 40134 57019 22212
BBXX 44022 02061 99409 70737 46/// ///08 10094 20046 40049 90615 22200 00073 333 91211 555 11093 22103
BBXX 44033 02061 99441 70690 46/28 /1709 10080 40029 58049 90604 22200 00057 10503 70014 333 91210 555 11112 22123
BBXX 44030 02061 99432 70704 46/// /1809 1//// 40016 57048 90604 22200 00078 10503 70014 333 91210 555 11108 22115
BBXX 44039 02061 99411 70727 46/// /2306 10101 20098 40048 56034 90600 22200 00082 10401 70006 333 91208
BBXX 44040 02061 99410 70736 46/// /2708 10092 20069 40053 90615 22200 10201 70003 333 91210 555 11093 22113
BBXX 44029 02061 99425 70706 46/30 /1807 10087 40019 58046 90604 22200 00079 10502 70010 333 91208 555 11089 22097
BBXX 44034 02061 99441 70681 46/30 /1710 10080 40050 58044 90604 22200 00077 10504 70018 333 91212 555 11129 22138
BBXX 44060 02061 99413 70721 46/// ///07 10097 40034 90615 22200 00093 333 91209 555 11077 22082
BBXX 46087 02061 99485 71247 46/// /0908 10090 20056 40153 90620 22200 00079 333 91210 555 11090 22098 30605 41011 60619 095083 095088 087079 092078 089076 094078
BBXX 46088 02061 99483 71232 46/// /1210 10093 40153 90620 22200 00077 10502 20502 70010 333 91212 555 11106 22116 30551 41413 60619 124100 134098 138106 135081 140066 139080
BBXX 41036 02061 99342 70770 46/// ///// 10186 20147 40132 90620 22200 00210
BBXX 4XFV 02063 99373 71588 43298 72528 10165 20135 49930 52010 88/// 22224 2//// ///// 4//// 80145
BBXX VROB 02064 99163 31526 46/// /1519 10269 20192 30065 40090 57007 22283 04278 85216
BBXX FHZI 02064 99534 31463 46/// /3015 10061 2//// 30009 40020 54000 22283 04055
BBXX VNAH 02064 99383 31416 46/// /2724 10297 20106 30037 40059 57004 22200 04217 85179
BBXX A8TX8 02063 99106 31403 41698 61010 10310 20231 40080 54000 703// 8343/ 22224 04300 20401 30000 80255
BBXX A8KO3 02060 99138 31148 41798 61004 10290 20263 40100 54000 70311 855// 22284 00190 2//// 80270
BBXX VNAA 02064 99446 31456 41599 80623 10174 20147 40059 58042 70222 8157/ 22213 04157 20502 323// 41202
BBXX OXHY2 02063 99324 10293 41598 43314 10180 20139 40204 53011 7//00 84370 22224 20103 3//// 4//// 5//// 80155
BBXX BAREU12 02064 99514 10042 46/// ///// 40043 22273
BBXX DGOQ 02064 99548 10096 43/97 /2404 10068 49980 57010 22200 04068 2//01
AAXX 02064 94996 41580 71207 10203 20147 30008 40143 53001 71522 876// 90630
AAXX 02064 94996 41580 71207 10203 20147 30008 40143 53001 71522 876// 90630
AAXX 02064 91723 NIL
AAXX 02064 91964 36/// /0306 10223 20219 40189 52018
AAXX 02061 01025 16/// /1909 10011 21084 39957 49968 53007 60002 333 20003 43003 70000 91121
AAXX 02061 10131 01466 82405 10081 20071 39991 40006 51008 60292 72165 875// 222// 02055 333 10119 20078 32007 55004 55300 20000 30000 69957 70303 82710 87619
BBXX DHDM 02064 99458 11517 41397 71240 10020 21005 40150 55010 70222 8677/ 22214 00010 20404 309// 40507 5//// 80010
BBXX DHYW 02061 99490 11589 41398 32005 10030 21021 40210 54000 7//00 8114/ 22214 00080 299// 314// 40703 5//// 80010
BBXX SHIP 02064 99424 11540 41598 81243 10070 20013 40158 56007 70222 8855/ 90555 22214 00080 20605 306// 40806 80050
BBXX WCX8882 02064 99430 11608 41498 61109 10060 2099/ 40200 5//// 70222 865// 22214 00070 2//// 306// 40708 5//// 6//// 81020 ICE /////
AAXX 02064 94996 41580 71207 10203 20147 30008 40143 53001 71522 878// 90630
AAXX 02064 94996 41580 71207 10203 20147 30008 40143 53001 71522 878// 90630
BBXX 44137 02061 99423 70620 46/// /2204 10071 40157 57011 22200 00090 10806 70029 333 91206
BBXX 44137 02061 99423 70620 46/// /2204 10071 40157 57011 22200 00090 10806 70029 333 91206
AAXX 02061 31152 42998 60000 11285 21317 39839 40285 57002 83032
AAXX 02061 31163 NIL
AAXX 02061 31285 42999 20000 11222 21271 30188 40273 57003 81049
AAXX 02061 31561 42998 62301 11255 21280 30246 40276 55005 80005
AAXX 02061 31683 42999 20000 11193 21251 30138 40218 56011 82030
AAXX 02061 32010 41498 73006 11169 21188 30145 40197 57004 70281 82902 333 91007 91109
AAXX 02064 71277 46/// /1422 11039 21136 6///1 333 11039 21162 7//// 555 31529 40042
AAXX 02064 42260 32596 62003 10181 20153 40177 84530 333 58020
AAXX 02064 42348 31993 00504 10150 20113 40182 71100 333 58019
AAXX 02064 71924 11240 53321 11292 21335 30122 40217 57006 69901 77677 85600 333 11284 21336 48038 79999 90983 555 19999 29999 33321 40061
AAXX 02064 71490 16/// /2808 11363 21398 30027 40386 53007 60001 333 11347 21387 70000
AAXX 02064 71923 46/// ///06 11343 21374 39896 40383 5/009 6///1 333 7////
AAXX 02064 71963 16/// /2303 11354 21390 39929 40373 58005 60001 333 11270 21389 70000
AAXX 02064 71592 16/// /1303 11324 21361 30124 40138 53002 60001 333 11313 21355 70000
AAXX 02064 71761 16/// ///// 11133 21169 60001 333 11064 21163 70000
AAXX 02064 71049 16/// /3016 11335 30207 40232 53004 60001 333 11295 21354 70000 555 33124 40051
AAXX 02064 71924 11240 53321 11292 21335 30122 40217 57006 69901 77677 85600 333 11284 21336 48038 79999 90983 555 19999 29999 33321 40061
BBXX 44138 02061 99443 70536 46/// /3414 10045 40093 52086 22200 00080 11211 70057 333 91217
AAXX 02064 71277 46/// /1422 11039 21136 6///1 333 11039 21162 7//// 555 31529 40042
BBXX 44138 02061 99443 70536 46/// /3414 10045 40093 52086 22200 00080 11211 70057 333 91217
BBXX 46004 02061 99509 71361 46/// /2508 10066 49989 52042 22200 00072 11012 70059 333 91211
BBXX 46036 02061 99484 71339 46/// /1805 10083 40020 52020 22200 00079 11009 70043 333 91206
BBXX 46181 02061 99538 71288 46/// /1801 10005 40056 52011 22200 00038 10200 70001 333 91202
BBXX 46183 02061 99536 71311 46/// /1613 10084 49981 5//// 22200 00076 11212 70059 333 91216
BBXX 46185 02061 99524 71298 46/// /1716 10078 40021 52019 22200 00070 11316 70081 333 91221
BBXX 46204 02061 99514 71288 46/// /1413 10073 40055 52018 22200 00082 11010 70049 333 91217
BBXX 46205 02061 99542 71343 46/// /2212 10065 49926 52043 22200 00070 11011 70053 333 91216
BBXX 46206 02061 99488 71260 46/// /1112 10091 40140 52002 22200 00084 11106 70031 333 91214
AAXX 02061 01415 16/// /2205 10058 20028 39879 49890 58005 6//// 333 20039 70087 91110
BBXX 44056 02061 99362 70757 46/// ///// 1//// 90550 22200 00126 10401 20401 70005
AAXX 02064 42779 21496 80000 10180 20170 39450 40159 72162 8452/ 333 59002 6004/ 84615 88458
AAXX 02064 42874 32596 60000 10230 20192 40148 84530 333 58001 84620 83360
AAXX 02064 43041 32996 11802 10266 20174 39526 40135 81030 333 59006 81360
AAXX 02064 87585 32960 00506 10224 20193 30101 40130 58012
AAXX 02064 94290 46/// /1516 10262 30097 40106 55001 90624
AAXX 02064 94290 46/// /1516 10262 30097 40106 55001 90624
BBXX 41033 02061 99323 70804 46/// /3006 1//// 40172 58006 90600 555 11058 22060
BBXX 44040 02061 99410 70736 46/// /2809 10093 20060 40054 90619 22200 10201 70003 333 91211 555 11103 22124
AAXX 02064 94210 35/// /2308 10329 30067 40072 57017
AAXX 02064 94289 46/// /1517 10275 30088 40095 56006 90615
AAXX 02064 94379 46/// /1421 10255 30114 40123 55003 90626
AAXX 02064 91532 45/// /0506 10285 20239 30071 40079 52011
AAXX 02063 41150 42962 01608 10190 20128 40166 333 20176 30015 59041
AAXX 02061 55228 32780 10000 11076 21238 36004 57007 81100 333 05253 21192
AAXX 02061 55578 11880 70401 10018 21068 36342 57020 69951 70070 874// 333 05600 21039
AAXX 02061 55664 32880 22013 10009 21263 35972 57015 82100 333 05551 21063 91125 91518
AAXX 02061 55773 11470 71808 11046 21077 36001 57011 69921 78580 879// 333 05457 21054
AAXX 02061 56116 32680 51406 10076 21117 36276 57040 82102 333 05803 21059
AAXX 02061 56137 32680 72206 10144 21128 36720 57045 82102 333 05807 21054
AAXX 02061 56172 32680 12902 10095 21072 37239 57065 81100 333 05801 21071
AAXX 02061 56247 32880 22205 10193 21071 37345 57069 82100 333 05907 21010
AAXX 02061 56312 32680 81802 10066 21051 37063 57030 884// 333 05551 20029
AAXX 02061 56462 32680 11404 10176 21056 37063 57058 81400 333 05405 21041
AAXX 02061 56651 32680 63203 10140 20006 37622 57031 86400 333 00054 20081
AAXX 02061 56691 11250 83201 10011 20004 37751 57037 69911 76066 887// 333 05352 21006 93427
AAXX 02061 56985 32568 22003 10202 20109 38690 40116 57037 82100 333 05304 20117
AAXX 02061 57633 11759 80903 10039 21009 39262 40247 57037 69901 76060 885// 333 05353 20039
AAXX 02061 57902 11440 81103 10053 20053 38629 40202 57038 69941 76066 887// 333 05351 20044
BBXX SHIP 02064 99028 31259 41597 62311 10320 20305 40076 57011 70222 84231 22213 00295 10500 20300 312// 40600 80308
AAXX 02061 55279 11680 52706 11027 21191 35657 57010 69911 72680 84902 333 05653 21085 91120 91527
AAXX 02061 55472 11880 62510 11034 21271 35694 57016 69901 70080 86400 333 05555 21076 91118 91525
AAXX 02061 55696 32680 52206 10067 21119 36319 57020 82240 333 05604 21030
AAXX 02061 56079 32980 10702 11012 21116 36622 57032 80002 333 05454 21113
AAXX 02061 56106 32680 83203 10051 21115 36128 57030 887// 333 06001 21039
AAXX 02061 56257 32680 12705 10103 21099 36230 57036 81100 333 05502 21016
AAXX 02061 56374 11580 81403 11021 21070 37386 57042 69901 78500 884// 333 05256 21042
AAXX 02061 56385 11/00 93201 11072 21075 36978 57034 69911 76664 333 05353 21086 93439
AAXX 02061 56954 32580 63201 10240 20163 40130 57041 86200 333 05200 20122
AAXX 02061 56966 32780 21602 10231 20121 40129 57053 82100 333 05251 20145
AAXX 02061 57237 11962 83403 10054 21002 40244 57033 69921 76066 8807/ 333 20047
AAXX 02061 57306 11960 83202 10061 20046 40243 57034 69931 76060 8807/ 333 20059
AAXX 02061 57604 11318 83401 10068 20065 40233 57044 69961 76064 885// 333 20061
AAXX 02061 57707 11357 80401 10028 20018 38495 57040 69911 76066 887// 333 05352 20018
AAXX 02061 57832 11450 80402 10036 20029 39484 40242 57034 69991 76066 887// 333 05254 20036
BBXX SHIP 02064 99028 31259 41597 62311 10320 20305 40076 57011 70222 84231 22213 00295 10500 20300 312// 40600 80308
AAXX 02063 63702 31940 32706 10198 20170 70644 80008 333 20150 83280 555 10180
AAXX 02063 63630 32980 21405 10236 20090 3//// 48/// 80001 333 20162 5//// 82080 555 10152
AAXX 02063 63682 32484 21804 10230 20170 3//// 48/// 82901 333 20146 5//// 81819 81922 555 10192
AAXX 02064 16158 12560 81206 10076 20054 30218 40225 56013 60002 888// 333 20040 30/// 55022 2//// 83820 85650
BBXX 61001 02064 99434 10078 46/// /2304 10132 20109 40202 57012 22200 00136 10601 70007
BBXX BATFR21 02064 99433 10053 46/// /1117 40178 56034 22232
BBXX BATFR32 02064 99432 10053 46/// /1720 10135 20110 40175 58035 7//// 8//// 22273 00144
BBXX BATFR20 02064 99431 10054 46/// ///// 10134 20117 40185 58024 22274
BBXX BATFR24 02064 99429 10095 46/// /2104 10134 20094 40221 53001 22244 00145
BBXX 61002 02064 99421 10047 46/// /0000 10143 2//// 40174 57014 22200 00133 10604 70019
BBXX BATFR31 02064 99419 10087 46/// /0509 10132 20124 40224 53005 22213 00154
BBXX BATFR33 02064 99411 10068 46/// /2021 10152 20122 40216 56024 22283 00152
BBXX DBBH 02061 99376 10153 41498 13203 10126 20056 40269 53005 70200 81102 22241 04156 20200 307// 4//01
BBXX WAHV 02063 99375 10012 43499 32430 10160 2014/ 40228 56012 82400 22264 00161 20905 80150
BBXX DDVK2 02063 99375 10075 41998 01508 10150 20125 40262 52002 70200 80000 22224 00169 2//// 30000 80135
BBXX DDYL2 02063 99353 10186 41/98 /0115 10150 20085 40250 52020 7//// 8//// 22264 00170 20102
BBXX OXHY2 02063 99324 10293 41598 43314 10180 20139 40204 53011 7//00 84370 22224 20103 3//// 4//// 5//// 80155
AAXX 02064 42559 32596 60502 10166 20113 40168 84530 333 58035 82620 84825 86360
AAXX 02064 42675 31394 83602 10166 20156 40167 71042 8672/ 333 58016 84706 84615 88458
AAXX 02063 63702 31940 32706 10198 20170 70644 80008 3333 20150 83280 5555 10180
AAXX 02063 63630 32980 21405 10236 20090 3//// 48/// 80001 3333 20162 5/// 82080 5555 10152
AAXX 02063 63682 32484 21804 10230 20170 3//// 48/// 82901 3333 20146 5/// 81819 81922 5555 10192
AAXX 0206/ 89872 46/// ///// 11010 39829 4//// 5//// 90630
AAXX 0206/ 89329 46/// ///// 11113 38753 4//// 5//// 90630
AAXX 0206/ 89868 46/// ///// 11029 39804 4//// 5//// 90620
AAXX 0206/ 89868 46/// ///// 11029 39804 4//// 5//// 90630
AAXX 0206/ 89327 46/// ///// 11029 39685 4//// 5//// 90630
AAXX 0206/ 89332 46/// ///// 11076 39237 4//// 5//// 90630
AAXX 0206/ 89769 46/// ///// 10016 39879 4//// 5//// 90630
AAXX 0206/ 89828 46/// ///// 11203 36532 4//// 5//// 90630
AAXX 0206/ 89879 46/// ///// 11005 39771 4//// 5//// 90630
AAXX 0206/ 89314 46/// ///// 11119 38231 4//// 5//// 90630
BBXX 4XFV 02063 99373 71588 43298 72528 10165 20135 49930 52010 88/// 22224 2//// ///// 4//// 80145
BBXX A8CN9 02060 99538 71508 41397 72712 10010 21010 49980 51045 70322 87775 22263 04036 21006 332// 40906 5//// 80002
AAXX 02064 89667 46/// /0502 10007 39879 4//// 5//// 90630
AAXX 0206/ 48969 NIL
AAXX 0206/ 48962 NIL
AAXX 0206/ 48990 NIL
AAXX 0206/ 48986 NIL
AAXX 0206/ 48995 NIL
AAXX 0206/ 48967 NIL
AAXX 0206/ 48992 NIL
AAXX 0206/ 48965 NIL
AAXX 0206/ 48985 NIL
AAXX 0206/ 48970 NIL
AAXX 0206/ 48991 NIL
AAXX 0206/ 48964 NIL
AAXX 0206/ 48997 NIL
AAXX 0206/ 48968 NIL
AAXX 0206/ 48973 NIL
AAXX 0206/ 48966 NIL
AAXX 0206/ 48983 NIL
AAXX 0206/ 48972 NIL
AAXX 0206/ 48998 NIL
AAXX 0206/ 48993 NIL
AAXX 0206/ 48971 NIL
AAXX 0206/ 48963 NIL
AAXX 0206/ 48987 NIL
AAXX 0206/ 89767 46/// ///// 11066 39820 4//// 5////
AAXX 02064 71824 46/// /1403 11040 21045 6///1 333 11038 21099 7////
AAXX 02064 71406 16/// /0605 11053 21060 30089 40099 55000 60001 333 11029 21062 70035 555 30525 40181
AAXX 02064 71418 46/// /2406 10009 21001 30072 40105 58001 6///1 333 10043 20009 7//// 555 33533 40212
AAXX 02064 71048 16/// /0906 11104 21135 60001 333 11039 21134 70000 555 32918 40091
AAXX 02064 71981 16/// /2004 10013 21047 60001 333 10013 21144 70006
AAXX 02064 71982 16/// /2605 11067 21101 60001 333 11028 21164 70000
AAXX 02064 71986 16/// /1411 11080 21119 60001 333 11041 21161 70000 555 31822 40211
AAXX 02064 71990 17/// /0707 11175 21194 38342 49977 56046 60011 7//4/ 333 11161 21257 70023 555 30225 40001
AAXX 02064 71354 17/// /1511 11113 21136 69951 7//4/ 333 11060 21170 7////
AAXX 02064 71140 12974 03110 11152 21171 39853 40382 5/018 60001 333 11037 21155 79999 555 19999 29999 33132 40191
AAXX 02064 71816 12474 52003 11229 21278 30048 40112 56011 60001 83571 333 11152 21250 70000 555 10000 20000
AAXX 02064 71824 46/// /1403 11040 21045 6///1 333 11038 21099 7////
AAXX 02064 71816 12474 52003 11229 21278 30048 40112 56011 60001 83571 333 11152 21250 70000 555 10000 20000
AAXX 02064 71140 12974 03110 11152 21171 39853 40382 5/018 60001 333 11037 21155 79999 555 19999 29999 33132 40191
AAXX 26001 98755 32575 83603 10303 20246 40081 58026 81207 333 56999 81820 88280
AAXX 02061 20674 42998 02102 11230 21249 30248 40313 52008 333 91104
AAXX 02064 89657 46/// /0605 11030 20011 49844 52002
BBXX MINUK05 0206/ 99571 70021 46/// ///// 10023 49886 57009
BBXX CFO383 02064 99439 70602 47498 /9904 10043 2001/ 40154 5//// 700// 8//// 22200 00068 10805 2//// 3//// 70026 80031 91011
BBXX CFO383 02064 99439 70602 47498 /9904 10043 2001/ 40154 5//// 700// 8//// 22200 00068 10805 2//// 3//// 70026 80031 91011
BBXX ZCAO7 02063 99168 31188 41598 22207 10298 20228 40074 57013 70200 81110 22214 00308 20201 323// 41402 80250
BBXX MCCN6 02063 99113 11295 41698 40616 10290 20262 40089 58018 70111 82910 22283 00280 20603 305// 40506 5//// 80270
BBXX ELWZ5 02064 99482 71352 41397 42314 10085 20075 40010 53010 7//22 8/61/ 22224 04140 2//// 3//// 4//// 5//// 80080
BBXX NAZJ 02064 99503 71600 41/// 60921 10011 2//// 40000 51/// 7//55 8/515 22262 04044 20602 39909 40602 50602 6//// 8//// ICE /////
BBXX 42360 02061 99267 70905 46/// /0111 10216 90600 22200 00245 10402 70012 333 91215
BBXX 41052 02061 99183 70648 46/// /0809 10258 40156 90630 333 91211
BBXX 41052 02061 99183 70648 46/// /0708 10261 40157 90620 333 91209
BBXX 41052 02061 99183 70648 46/// /0707 10261 40157 90610 333 91209
BBXX 41052 02061 99183 70648 46/// /0707 10262 40159 58016 90600 22200 00267 10703 70014 333 91209
BBXX 41053 02061 99185 70661 46/// /1404 10255 40162 90630 333 91205
BBXX 41053 02061 99185 70661 46/// /1004 10260 40164 90620 333 91206
BBXX 41053 02061 99185 70661 46/// /0906 10260 40165 90610 333 91209
BBXX 42085 02061 99179 70665 46/// /0405 10258 40158 90630 333 91206
BBXX 42085 02061 99179 70665 46/// /0405 10257 40158 90620 333 91207
BBXX 42085 02061 99179 70665 46/// /0406 10256 40160 90610 333 91207
BBXX 44024 02061 99423 70659 46/28 /1608 10079 40111 58021 90604 22200 00077 10803 70016 333 91210 555 11104 22112
BBXX CFO383 02064 99439 70602 47498 /9904 10043 2001/ 40154 5//// 700// 8//// 22200 00068 10805 2//// 3//// 70026 80031 91011
BBXX 41033 02061 99323 70804 46/// /3006 1//// 40172 58006 90600 555 11058 22060
BBXX 44040 02061 99410 70736 46/// /2809 10093 20060 40054 90619 22200 10201 70003 333 91211 555 11103 22124
BBXX 44056 02061 99362 70757 46/// ///// 1//// 90550 22200 00126 10401 20401 70005
BBXX 44138 02061 99443 70536 46/// /3414 10045 40093 52086 22200 00080 11211 70057 333 91217
BBXX NAZJ 02064 99503 71600 41/// 60921 10011 2//// 40000 51/// 7//55 8/515 22262 04044 20602 39909 40602 50602 6//// 8//// ICE /////
BBXX 44137 02061 99423 70620 46/// /2204 10071 40157 57011 22200 00090 10806 70029 333 91206
BBXX 46238 02061 99334 71195 46/// ///// 1//// 90620 22200 00139 11303 20901 328// 41302 70014
BBXX 44099 02061 99369 70757 46/// ///// 1//// 90622 22200 00106 10502 20502 70010
BBXX 46239 02061 99363 71221 46/// ///// 1//// 90621 22200 00122 11303 21002 328// 41302 70017
BBXX 44022 02061 99409 70737 46/// ///08 10093 20039 40050 90630 22200 00072 333 91213 555 11093 22103
BBXX 46214 02061 99379 71235 46/// ///// 1//// 90620 22200 00119 11302 21002 325// 41302 70012
BBXX 46219 02061 99332 71199 46/// ///// 1//// 90628 22200 00136 11304 21002 330// 41303 70018
BBXX 46224 02061 99332 71175 46/// ///// 1//// 90606 22200 00147 11301 21001 325// 41301 70007
BBXX SHIP 02064 99028 31259 41597 62311 10320 20305 40076 57011 70222 84231 22213 00295 10500 20300 312// 40600 80308
BBXX MINUK05 0206/ 99571 70021 46/// ///// 10023 49886 57009
BBXX DDSB2 02063 99577 10032 41598 62522 10095 20044 40020 52020 7//22 864// 22234 29903 80070
BBXX UASP 02061 99692 10352 41/96 91316 11040 40201 54000 70011 8//// 222// 20709
AAXX 02061 47008 42970 81401 11038 21115 30204 40260 57024 82052
AAXX 02061 47014 42950 80000 11147 21190 39846 40278 57024 8804/
AAXX 02061 47016 42970 60000 11116 21178 39352 40265 57041 80002
AAXX 02061 47020 42965 80000 11100 21142 39877 40278 57023 80004
AAXX 02061 47025 42967 81603 11009 21059 30221 40251 57012 80002
AAXX 02061 47035 42970 80000 11065 21106 30253 40262 57023 8801/
AAXX 02061 47041 41760 60000 11019 21068 30213 40241 58021 71042 86030
AAXX 02061 47055 42965 80000 11006 21058 30193 40240 57029 88050
AAXX 02061 47058 41956 80000 11056 21107 30220 40270 58022 71022 87032
AAXX 02061 47069 41956 82704 11012 21063 30158 40261 58026 71022 80002
AAXX 02061 47003 42980 13604 11040 21190 30243 40247 57020 80001
AAXX 02061 47005 42980 80000 11113 21197 38576 57015 8803/
AAXX 02061 47022 42775 80000 11072 21147 38812 57040 83032
AAXX 02061 47028 42967 80000 11061 21110 30175 40275 57011 80002
AAXX 02061 47031 42970 00000 11108 21144 38916 58025
AAXX 02061 47037 42970 40000 11033 21133 30135 40263 58019 84010
AAXX 02061 47039 42960 80000 11052 21126 30056 40255 57025 80001
AAXX 02061 47046 11550 82301 11007 21049 30218 40241 58015 69901 77072 885//
AAXX 02061 47050 41956 40000 11052 21106 30230 40265 57022 71044 80002
AAXX 02061 47052 42965 83201 11054 21108 39908 40261 57035 80002
AAXX 02061 47060 41950 70902 11048 21097 30209 40270 58013 71022 87030
AAXX 02061 47061 42970 83601 10003 21027 30216 40261 52008 8807/
AAXX 02061 47065 41960 81801 11028 21094 30194 40262 57013 71022 80002
AAXX 02061 47067 41560 80000 11032 21091 30157 40282 57026 71022 885//
AAXX 02061 47068 42560 62703 11025 21169 30217 40253 58019 83502
AAXX 02061 47070 41960 72303 11017 21082 30172 40263 58025 71000 80002
AAXX 02061 47075 42970 80000 11035 21087 39752 40195 57022 80002
BBXX MYJU 02063 99069 10751 41697 21416 10280 20178 40121 52011 70500 82100 22223 00275 20201 80215
BBXX A8LGY 02061 99052 10983 41/98 51603 10296 20233 40130 58010 70182 83140 22234 00/// 20000 80250
BBXX VRAR7 02063 99363 11686 41598 50020 10130 20094 40180 54000 70222 8587/ 22224 00182 20402 80100
BBXX DDZD2 02064 99130 10640 41598 20517 10270 20213 40170 50000 70200 81145 22225 00/// 20103 80230
BBXX VRGW2 02063 99087 10709 41397 80706 10285 20237 40120 58007 75055 887// 22265 00/// 20201 80250
BBXX A8SZ5 02064 99146 11197 41597 /3207 10300 20231 40110 57020 703// 8/2// 22283 00/// 2//02 80250
BBXX ELZU8 02063 99015 11044 41598 60216 10300 20239 40115 56005 70222 84464 22200 00/// 20202 303// 40404 80255
BBXX 9VBS 02064 99221 11142 41396 70715 10200 20149 40200 56020 70222 866// 22200 00140 20301 306// 40502 80170
BBXX 3FUL2 02063 99032 11052 41598 60616 10250 20188 40123 50013 70322 86312 22244 04301 20302 308// 40603 80210
BBXX DGHX 02063 99062 11072 41698 30519 10285 20237 40115 56010 70222 82185 22254 00240 20503 306// 41204 80250
AAXX 02061 10496 01375 82104 10108 20089 39972 40055 56011 69942 76165 877// 333 10113 20093 31008 55000 55300 20000 30000 69937 70014 87708
AAXX 02064 47418 11/70 60226 10012 21042 30014 40064 55005 69951 70282 81202
AAXX 02064 47750 11/80 53405 10055 20005 30158 40186 53001 60031 72582 85200
AAXX 02064 47772 11/82 73309 10070 21024 30078 40180 53013 69901 78081 87200
AAXX 02064 89625 46/// /1808 11236 29060 36508 4//// 5//// 90600
AAXX 02064 89646 46/// /0214 11137 29077 37579 4//// 5////
AAXX 02064 89648 46/// /2014 11204 29073 37173 4//// 5////
AAXX 02064 89659 46/// /1804 11141 29062 37645 4//// 5////
AAXX 02064 89661 46/// /1703 11061 29094 39226 4//// 5////
AAXX 02064 89662 42580 63405 11002 21057 39765 49869 52006 85520 222 ICE 98012 333 10006 85620 82459
AAXX 02064 89666 46/// /1510 11015 29070 39691 4//// 5////
AAXX 02061 45032 36/// /2001 10187 20099 30173 40190 57001
AAXX 02061 45035 36/// /9901 10194 20113 30147 40189 57001
AAXX 02061 45039 36/// /0602 10169 20110 30175 40191 57001
AAXX 02061 45044 36/// /1108 10179 20108 30094 40187 54000
AAXX 02061 11146 32184 52618 11059 21091 36924 47029 58012 82571 333 11042 21061 49190 55300 82602 84340 91121 93102 91121
AAXX 02061 45032 36/// /2001 10187 20099 30173 40190 57001
AAXX 02061 45035 36/// /9901 10194 20113 30147 40189 57001
AAXX 02061 45039 36/// /0602 10169 20110 30175 40191 57001
AAXX 02061 45044 36/// /1108 10179 20108 30094 40187 54000
AAXX 02064 60511 12960 02404 10013 20000 39152 48575 52003 60004 333 05200 20013 95990
AAXX 02061 11389 31/02 90302 10013 20004 39831 40164 58006 74744 333 10088 20013 3/000 55300 89/02
AAXX 02064 64390 32556 40306 10223 20201 39253 48506 82532 333 20195 59004 82830 83080 1016
AAXX 02064 71949 46/// /1313 11073 21093 39031 49898 56038 6///1 333 11071 21245 7//// 555 31226 40011
AAXX 02064 71848 16/// ///// 11048 21083 60001 333 11018 21158 70000
AAXX 02064 71399 16/// ///// 11096 21133 60001 333 11034 21178 70004
AAXX 02064 71012 16/// /1304 11143 21170 60001 333 11030 21173 70000 555 32918 40061
AAXX 02064 71013 16/// ///// 11091 21108 60001 333 11029 21163 70000
AAXX 02064 71060 16/// /2904 11002 21086 38678 40276 56025 60001 333 11001 21233 70000 555 32817 40031
AAXX 02064 71495 16/// /2005 11043 21124 60001 333 11036 21166 70000
AAXX 02064 71974 46/// /1503 11366 21402 30260 40306 58009 6///1 333 11331 21377 7////
AAXX 02064 71565 17/// /2609 11102 21131 69951 7//4/ 333 11096 21244 70014
AAXX 02064 71566 16/// /1305 11095 21124 60001 333 11074 21174 70000
AAXX 02064 71567 46/// /1409 11137 21185 6///1 333 11071 21215 7////
AAXX 02064 71793 16/// ///// 11094 21130 60001 333 11037 21182 70000
AAXX 02064 71073 16/// /1809 11030 21080 60001 333 11029 21141 70000 555 31622 40171
AAXX 02064 71949 46/// /1313 11073 21093 39031 49898 56038 6///1 333 11071 21245 7//// 555 31226 40011
AAXX 0206/ 89869 46/// ///// 11019 39813 4//// 5//// 90630
BBXX 46241 02061 99330 71173 46/// ///// 1//// 90611 22200 00146 11401 21001 326// 41401 70006
AAXX 02064 64700 31925 30208 10155 21011 39808 40150 70500 80002 333 01200 20160 51381 ///// 55090 58008 83075
AAXX 02064 64701 NIL
AAXX 02064 64702 NIL
AAXX 02064 64705 31910 70000 10162 20069 3//// 4//// 705// 80002 90600 333 0//00 2//// 50674 55/// ///// 5//// 87075
AAXX 02064 64706 31920 50000 10170 20060 39664 40140 705// 80002 333 01600 20165 51264 55061 58013 85075
AAXX 02064 64708 NIL
AAXX 02064 64709 31903 70000 10190 20013 3//// 4//// 705// 80002 90600 333 0//00 20185 5//// ///// 55/// 5//// 87075
AAXX 02064 64710 NIL
AAXX 02064 64713 NIL
AAXX 02064 64722 31915 10000 10170 20072 3//// 4//// 705// 80002 90600 333 0//00 20145 50484 ///// 55/// 5//// 81075
AAXX 02064 64750 32960 63204 10194 20071 39709 40120 80002 90556 333 01000 20170 50711 ///// 55089 58023 86075
AAXX 02064 64751 33960 50406 10167 21007 3//// 4//// 83032 90553 333 0//00 20163 50883 ///// 55/// 5//// 83365 83075
AAXX 02064 64753 33960 40410 10140 21018 3//// 4//// 80002 90550 333 0//00 20130 51304 ///// 55/// 5//// 84075
AAXX 02064 64754 33960 30000 10198 20050 3//// 4//// 80002 90615 333 0//00 20150 50604 ///// 55/// 5//// 83075
AAXX 02064 64756 33962 71012 10192 21022 39527 4//// 80002 90600 333 0//00 20180 5//// ///// 55/// 58012 87075
AAXX 02064 64757 NIL
AAXX 02064 64758 NIL
AAXX 02064 64761 NIL= 333
BBXX A8IZ2 02064 99332 10326 41698 32717 10170 20080 40190 52015 70211 8311/ 22234 20403 332// 40804 80120
BBXX 46216 02061 99343 71198 46/// ///// 1//// 90627 22200 00142 11302 21001 326// 41302 70010
BBXX 46223 02061 99335 71178 46/// ///// 1//// 90630 22200 00151 11302 21001 326// 41301 70009
BBXX 46231 02061 99327 71174 46/// ///// 1//// 90624 22200 00148 11302 21001 327// 41302 70012
BBXX 46222 02061 99336 71183 46/// ///// 1//// 90626 22200 00144 11302 21001 326// 41301 70009
BBXX 46242 02061 99332 71174 46/// ///// 1//// 90628 22200 00146 11201 21001 323// 41201 70007
AAXX 02061 89063 42598 83501 11002 21010 39862 49873 57005 8552/
AAXX 02061 27947 11212 81304 11013 21018 39948 40109 57003 60070 77472 8872/ 333 21014 43011 88705 93723 333 53004
AAXX 02064 65501 32960 70000 10170 21037 39846 40163 80002 333 01200 20168 50784 55075 58023 87076
AAXX 02064 65502 32960 70406 10193 21046 39769 40149 80002 333 01400 20191 51014 55098 58020 87076
AAXX 02064 65503 32960 70404 10175 20039 39801 40148 80002 333 01200 20175 50570 55089 51574 58013 87076
AAXX 02064 65505 32960 60408 10200 21018 39800 40138 80002 333 01200 20194 50874 55105 58001 86076
AAXX 02064 65507 32960 62602 10180 20003 39797 40147 80002 333 01600 20180 50924 55090 58021 87076
AAXX 02064 65510 32960 50206 10191 21030 39617 40132 80002 333 01400 20189 50930 55095 58001 85076
AAXX 02064 65516 32960 60000 10176 20023 39833 40140 80002 333 01200 20171 50704 55103 58009 86076
AAXX 02064 65518 32965 73604 10192 21031 39766 40130 80002 333 01400 20180 51144 55099 58012 87076
AAXX 02064 65522 32960 70000 10165 20039 39805 40134 80002 333 01200 20165 50814 55100 58005 87076
AAXX 02061 02981 11234 71513 10031 2//// 30008 40018 57013 60042 761// 87/// 333 10038 20025 3////
AAXX 02061 02935 32462 81304 11036 21048 39928 40106 57008 700// 88/// 333 11032 21040 3/105 4/007
AAXX 02061 02924 11450 71203 11027 21034 39874 40075 57013 69944 771// 85/// 333 11026 21053 3/106 4/010
AAXX 02061 02935 32462 81304 11036 21048 39928 40106 57008 700// 88/// 333 11032 21040 3/105 4/007
AAXX 02061 40621 11958 31602 10075 20000 40216 52005 60002 70600 80001
AAXX 02061 40631 11556 30000 10060 20046 40192 52009 60002 71010 83200
AAXX 02061 40634 11940 00000 10006 20002 40176 58067 60002 74210
AAXX 02061 40642 12960 30000 10066 20004 40198 58004 60002 83030
BBXX 63106 02064 99610 10017 46/// /2418 10055 49826 57001 22200
BBXX 63113 02064 99610 10017 46/// /2618 10056 20000 49834 55001 22200 10706 70030
BBXX 62304 02064 99511 10018 46/98 /2517 10090 20052 40051 53014 22200 00106 10601 70007
BBXX 64049 02063 99571 10022 41/97 52432 10070 20070 49907 53004 70011 8//// 22200 20608 3//// 4//// 5//// 80070
BBXX 62305 02064 99504 10000 46/98 /27// 10098 20050 40071 52008 22200 00114 10702 70012 333 90710 91131
BBXX 62094 02064 99517 70067 46/// /2623 10080 20027 40040 52009 22200 00104 10607 70033 333 90710 91131
BBXX 62103 02064 99499 70029 46/99 /2822 10094 20049 40074 52011 22200 00116 10906 70029 333 90710 91144
BBXX 2AUO5 02063 99606 10016 41597 72219 10067 20031 49835 54000 76866 878// 22251 20603 322// 41006 80052
BBXX A8IV9 02063 99359 70067 41598 62710 10190 20159 40320 50/// 70222 8647/ 22224 2//// 80170
BBXX 62169 02063 99614 10014 41/97 72230 10070 20047 49824 53005 70022 8//// 22200 02080 20305 324// 41207 5//// 80060
BBXX PBHZ 02063 99655 10103 41/97 91511 10030 20022 49872 52002 70211 89/// 22213 20302 399// 40803 80027
AAXX 02064 89610 46/// /0414 11002 39644 4//// 5//// 333 90700 91116
AAXX 02064 89610 46/// /0414 11002 39644 4//// 5//// 333 90700 91116
AAXX 02064 89610 46/// /0414 11002 39644 4//// 5//// 333 90700 91116
AAXX 02061 11022 41/01 90802 10012 20005 39768 40163 57007 74554 333 10024 20012 3/001 55300 89/01
BBXX VRCI9 02064 99439 71306 41/96 /1528 10130 20113 40050 57030 76100 8//// 22275 00125 2//// 3//// 4//// 80120
AAXX 02061 01327 11220 80704 10004 21004 60192 78388 889// 333 21001 44058 70362 91106
BBXX VRCI9 02064 99439 71306 41/96 /1528 10130 20113 40050 57030 76100 8//// 22275 00125 2//// 3//// 4//// 80120
AAXX 02061 01046 11889 51315 11020 21080 30000 40007 53003 60002 70132 85062 333 21037 44015 70000 91126
AAXX 02064 97406 31460 71106 10270 20247 30046 40072 57014 71722 84931 333 56000 57901 57801 81917 83818 80975 80860
BBXX 42023 02061 99261 70831 46/// /2501 1//// 90630 333 91202
BBXX 42023 02061 99261 70831 46/// /2501 1//// 90600 333 91202
BBXX 46221 02061 99339 71186 46/// ///// 1//// 90615 22200 00149 11202 21001 326// 41201 70010
AAXX 02061 98550 11459 60000 10277 20255 40092 57023 60101 78082 85962 333 56999 83915
AAXX 02064 85406 42960 73302 10205 20154 40132 58018 60001 87030 333 56000 87362
AAXX 02064 71102 16/// ///// 11145 21179 60001 333 11077 21179 7////
AAXX 02064 71105 16/// ///// 11056 21096 60001 333 11017 21202 70004
AAXX 02064 71789 16/// ///// 10041 21048 60001 333 10041 21114 70000
AAXX 02064 71791 16/// /1209 11149 21181 60001 333 11061 21169 70000 555 33023 40071
AAXX 02064 71794 16/// ///// 11139 21161 60001 333 11044 21201 70000
AAXX 02064 71795 16/// ///// 11073 21114 60001 333 11010 21170 70000
AAXX 02064 71796 16/// ///// 11124 21151 60001 333 11037 21177 70000
AAXX 02064 71797 16/// ///// 11129 21169 60001 333 11065 21182 70000
AAXX 02064 71841 16/// /3211 11132 21169 39746 40153 51022 60001 333 11023 21132 7////
AAXX 02064 71502 16/// /0920 11260 21281 30062 40079 58039 60001 333 11260 21314 70000 555 30925 40061
AAXX 02064 71509 16/// /1505 11008 21057 60001 333 10037 21145 70000
AAXX 02064 71517 16/// /2108 11015 21069 60001 333 10040 21155 70000
AAXX 02064 71518 16/// /1814 11014 21061 60001 333 10015 21154 70000 555 31819 40061
AAXX 02064 71519 16/// /1512 11049 21098 60001 333 11016 21155 7////
AAXX 02064 71520 16/// /1417 11072 21078 39264 49929 56062 60001 333 11072 21119 70000
AAXX 02064 71521 17/// /1211 11081 21098 60011 7//4/ 333 21119 70010
AAXX 02064 71523 17/// ///// 11052 21059 39522 49893 56048 60071 7//4/ 333 11051 21104 70000
AAXX 02064 71528 46/// /1913 11005 21061 6///1 333 7////
AAXX 02064 71006 16/// /1410 11097 21122 60001 333 11021 21149 70000 555 31619 40061
AAXX 02064 71007 46/// ///// 11007 21053 6///1 333 10031 21129 7////
AAXX 02064 71008 16/// /0702 11116 21126 60001 333 11028 21156 70000 555 31418 40191
AAXX 02064 71009 16/// /1506 11109 21117 60001 333 11055 21226 70000
AAXX 02064 71035 16/// ///// 11104 21114 60001 333 11064 21222 70000
AAXX 02064 71383 46/// ///// 39341 57056 6///1 333 11065 21108 7////
AAXX 02064 71409 16/// ///// 11059 21114 60001 333 11023 21157 70000
AAXX 02064 71433 46/// /3324 11035 21062 39822 40053 52023 6///1 333 10027 21035 7//// 555 33144 40023
AAXX 02064 71051 16/// ///// 11073 21129 60001 333 11035 21180 70005
AAXX 02064 71057 16/// ///// 11067 21090 60001 333 11018 21132 70000
AAXX 02064 71065 16/// ///// 11151 21193 60001 333 11049 21235 70000
AAXX 02064 71070 16/// ///// 11048 21092 60001 333 11002 21134 70000
AAXX 02064 71089 16/// ///// 11148 21168 60001 333 11068 21200 70000
AAXX 02064 71841 16/// /3211 11132 21169 39746 40153 51022 60001 333 11023 21132 7////
AAXX 02064 71433 46/// /3324 11035 21062 39822 40053 52023 6///1 333 10027 21035 7//// 555 33144 40023
BBXX 44039 02061 99411 70727 46/// /2407 10099 20092 40047 90630 22200 00082 10401 70006 333 91208
AAXX 02064 87692 32960 03408 10180 20164 30110 40135 57017
AAXX 02064 16219 41/00 91206 10008 20008 38166 48552 51/// 6///2 760// 333 20008 41002 55084 2//// 89/00 92842
AAXX 02064 40255 11650 82504 10086 20069 39456 40179 52004 60052 75022 888// 333 20080 31008 70054 85830 84630
AAXX 02064 40260 32560 72304 10074 20043 39392 40184 52012 87100 333 20055 30040 87830
AAXX 02064 40270 11530 82504 10070 20060 39280 40189 52018 69942 76365 888// 333 20066 31005 85825 87630 70004
AAXX 02064 40272 31558 63504 10076 20052 39352 40199 52011 76021 86800 333 20064 30006 83830 85635
AAXX 02064 40290 NIL
AAXX 02064 40340 32960 00000 10094 20030 40214 52008 333 20094 30007
AAXX 02064 87692 32960 03408 10180 20164 30110 40135 57017 555 10134
AAXX 02063 63612 32980 00000 10245 20095 40152 333 20165 59010
AAXX 02063 63695 32980 00103 10207 20072 333 20077
AAXX 02064 40255 11650 82504 10086 20069 39456 40179 52004 60052 75022 888// 333 20080 31008 70054 85830 84630
AAXX 02064 97028 01650 83303 10290 20241 30080 40086 56012 69907 72162 84221 333 56000 57802 69907 84820 87460 80860
AAXX 02061 89063 42598 83501 11002 21010 39862 49873 57005 8552/
BBXX mpjh9 02064 99388 31408 41998 23321 10220 20153 40058 70200 81041 22264 2//// 80180
AAXX 02064 40435 42960 01404 10180 21020 39129 40158 333 20125 59010
BBXX mpjh9 02064 99388 31408 41998 23321 10220 20153 40058 70200 81041 22264 2//// 80180
BBXX UGWJ 02061 99272 30468 42598 60909 10263 40160 54000 86450 22252 00236 20302 31200 40603
BBXX DDZD2 02064 99130 10640 41598 20517 10270 20213 40170 50000 70200 81145 22225 00/// 20103 80230
BBXX SHIP 02064 99483 11645 41098 79918 10020 21005 40229 52040 70222 881// 22275 00043 20402 331// 40904 80010
BBXX DGHX 02063 99062 11072 41698 30519 10285 20237 40115 56010 70222 82185 22254 00240 20503 306// 41204 80250
BBXX VRGW2 02063 99087 10709 41397 80706 10285 20237 40120 58007 75055 887// 22265 00/// 20201 80250
BBXX SHIP 02063 99363 11686 41598 50020 10130 20094 40180 54000 70222 8587/ 22224 00182 20402 80100
BBXX 9VBS 02064 99221 11142 41396 70715 10200 20149 40200 56020 70222 866// 22200 00140 20301 306// 40502 80170
BBXX A8SZ5 02064 99146 11197 41597 /3207 10300 20231 40110 57020 703// 8/2// 22283 00/// 2//02 80250
BBXX A8LGY 02061 99052 10983 41/98 51603 10296 20233 40130 58010 70182 83140 22234 00/// 20000 80250
BBXX MYJU 02063 99069 10751 41697 21416 10280 20178 40121 52011 70500 82100 22223 00275 20201 80215
BBXX MCCN6 02063 99113 11295 41698 40616 10290 20262 40089 58018 70111 82910 22283 00280 20603 305// 40506 5//// 80270
BBXX 44039 02061 99411 70727 46/// /2407 10099 20092 40047 90630 22200 00082 10401 70006 333 91208
BBXX 46221 02061 99339 71186 46/// ///// 1//// 90615 22200 00149 11202 21001 326// 41201 70010
BBXX 42023 02061 99261 70831 46/// /2501 1//// 90630 333 91202
BBXX 42023 02061 99261 70831 46/// /2501 1//// 90600 333 91202
BBXX 46242 02061 99332 71174 46/// ///// 1//// 90628 22200 00146 11201 21001 323// 41201 70007
BBXX 46216 02061 99343 71198 46/// ///// 1//// 90627 22200 00142 11302 21001 326// 41302 70010
BBXX 46222 02061 99336 71183 46/// ///// 1//// 90626 22200 00144 11302 21001 326// 41301 70009
BBXX 46223 02061 99335 71178 46/// ///// 1//// 90630 22200 00151 11302 21001 326// 41301 70009
BBXX 46231 02061 99327 71174 46/// ///// 1//// 90624 22200 00148 11302 21001 327// 41302 70012
BBXX 46241 02061 99330 71173 46/// ///// 1//// 90611 22200 00146 11401 21001 326// 41401 70006
BBXX 41053 02061 99185 70661 46/// /1004 10260 40164 90620 333 91206
BBXX 42085 02061 99179 70665 46/// /0406 10256 40160 90610 333 91207
BBXX 41052 02061 99183 70648 46/// /0707 10262 40159 58016 90600 22200 00267 10703 70014 333 91209
BBXX 42085 02061 99179 70665 46/// /0405 10258 40158 90630 333 91206
BBXX 41053 02061 99185 70661 46/// /0906 10260 40165 90610 333 91209
BBXX 41053 02061 99185 70661 46/// /1404 10255 40162 90630 333 91205
BBXX 42085 02061 99179 70665 46/// /0405 10257 40158 90620 333 91207
BBXX 41052 02061 99183 70648 46/// /0707 10261 40157 90610 333 91209
BBXX 41052 02061 99183 70648 46/// /0708 10261 40157 90620 333 91209
BBXX 44024 02061 99423 70659 46/28 /1608 10079 40111 58021 90604 22200 00077 10803 70016 333 91210 555 11104 22112
BBXX 41052 02061 99183 70648 46/// /0809 10258 40156 90630 333 91211
BBXX 42360 02061 99267 70905 46/// /0111 10216 90600 22200 00245 10402 70012 333 91215
BBXX ELWZ5 02064 99482 71352 41397 42314 10085 20075 40010 53010 7//22 8/61/ 22224 04140 2//// 3//// 4//// 5//// 80080
BBXX PBHZ 02063 99655 10103 41/97 91511 10030 20022 49872 52002 70211 89/// 22213 20302 399// 40803 80027
BBXX A8IV9 02063 99359 70067 41598 62710 10190 20159 40320 50/// 70222 8647/ 22224 2//// 80170
BBXX 62169 02063 99614 10014 41/97 72230 10070 20047 49824 53005 70022 8//// 22200 02080 20305 324// 41207 5//// 80060
BBXX 3EPD8 02064 99436 70096 41297 62415 10110 20068 40240 54000 76262 8/7// 22213 04137 29906 399// 4//08 80090
BBXX A8IZ2 02064 99332 10326 41698 32717 10170 20080 40190 52015 70211 8311/ 22234 20403 332// 40804 80120
BBXX 3FUL2 02063 99032 11052 41598 60616 10250 20188 40123 50013 70322 86312 22244 04301 20302 308// 40603 80210
BBXX ELZU8 02063 99015 11044 41598 60216 10300 20239 40115 56005 70222 84464 22200 00/// 20202 303// 40404 80255
BBXX ZCAO7 02063 99168 31188 41598 22207 10298 20228 40074 57013 70200 81110 22214 00308 20201 323// 41402 80250
AAXX 02061 25927 42999 40000 11302 21319 30223 40231 53001 80001
BBXX ZCDM8 02063 99191 30098 41498 51620 10188 20160 40147 5/000 70222 84169 22243 00192 20202 314// 40605 5//// 80171
BBXX MLRM6 02063 99400 30021 41997 32436 10120 20065 40057 53014 70111 83060 22261 00129 20308 3//// 4//// 5////
AAXX 02064 71540 16/// /1105 11108 21129 60001 333 11097 21231 70000
AAXX 02064 71544 16/// ///// 11077 21109 60001 333 11060 21157 70000
AAXX 02064 71548 16/// ///// 11125 21175 60001 333 11051 21168 70000
AAXX 02064 71904 16/// ///// 11096 21107 60001 333 11077 21178 7////
AAXX 02064 71674 16/// ///// 11097 21120 60001 333 11019 21162 70000
AAXX 02064 71346 16/// /1706 11022 21073 60001 333 10027 21143 70004 555 31619 40191
AAXX 02064 71055 46/// /1004 11216 21237 39744 40092 58066 6///1 333 11216 21390 7//// 555 31120 40041
AAXX 02064 71249 16/// /1713 11088 21098 60001 333 11065 21151 70004 555 32818 40081
AAXX 02064 71481 16/// /1603 11105 21140 60001 333 11066 21202 70000
AAXX 02064 71498 16/// /1606 11072 21092 60001 333 11036 21143 70000 555 31618 40191
AAXX 02064 71413 16/// ///// 11120 21135 60001 333 11032 21177 70000
AAXX 02064 71414 16/// ///// 11221 21241 60001 333 11073 21233 70000
AAXX 02064 71440 16/// ///// 11073 21094 60001 333 11048 21145 70000
AAXX 02064 71014 16/// /1412 11088 21104 60001 333 11061 21144 70000 555 31519 40041
AAXX 02064 71360 16/// ///// 11169 21191 60001 333 11045 21188 70000
AAXX 02064 71380 16/// /1612 11068 21111 60001 333 11059 21219 70000
AAXX 02064 71857 16/// ///// 11174 21210 60001 333 11095 21200 7////
AAXX 02064 17070 11562 53601 11001 21027 39376 40274 52017 69902 70272 85500 333 21001 3/101 41998 50024 55000 20096 70012 85630 91110 93100
AAXX 02064 60369 12560 00000 10140 21005 40258 53003 60004 333 20128 91827
BBXX UGWJ 02061 99272 30468 42598 60909 10263 40160 54000 86450 22252 00236 20302 31200 40603
AAXX 02061 58968 31558 80803 10163 20101 30192 40200 57018 70522 885//
AAXX 02061 58974 31657 80404 10160 20083 30086 40211 57017 70522 885//
AAXX 02061 59358 31630 73603 10190 20121 30163 40195 57022 70522 875//
AAXX 02061 59559 32568 40406 10214 20129 30149 40177 56025 82230
AAXX 02061 59792 32560 60409 10204 20160 30172 40177 57029 85670
AAXX 02061 59997 11458 60504 10275 20245 30109 40117 57024 6002/ 72582 83820
AAXX 02061 59158 31656 73602 10189 20103 30090 40191 57017 70522 875//
AAXX 02061 59562 11662 83601 10189 20122 30174 40186 57036 69901 70252 885//
AAXX 02061 59567 32460 80105 10164 20142 39800 40183 56029 885//
BBXX VREX7 02063 99229 70614 41397 40922 10250 20220 40220 50000 70211 84710 22214 21004 30909 40503 50802 80230
BBXX ELVL8 02063 99210 70462 41496 40420 10261 20200 40212 50000 7//11 842// 22214 04260 20205 304// 40306 5//// 80221 ELVL8
BBXX A8RW4 02063 99265 30460 41598 70927 10270 20213 40120 51010 70322 87778 22214 04268 20405 309// 40405 80230
BBXX A8QL5 02061 99186 70222 41497 60417 10205 20132 40180 56/// 70122 867// 22214 04220 20504 305// 40707 80160
BBXX MQPF2 02063 99143 10600 41597 30210 10270 20156 40175 53/// 70011 81148 22274 21003 30204 41203 50902 80200
AAXX 02064 16263 12466 62718 10046 20043 38976 48534 54002 60002 86400 333 20040 31/// 55/// 2//// 86610
AAXX 02064 60141 32960 02006 10018 21003 39649 40361 53002 333 20015 31104
AAXX 02064 60686 12960 20406 10053 21104 40236 53004 60004 81032 333 00100 20049 81360
BBXX PHAM 02064 99495 70011 41/98 32213 10091 20055 40083 52013 72585 82/// 22200 20302 80073 91049
AAXX 02064 91367 11474 70806 10278 20232 60111 70182 84232 333 56229 84815 82760 82080 70078 555 90206 91369 12474 81915 10272 20245 30069 40072 62161 84387 333 56449 84815 83360 88780 70085 555 90206
AAXX 02064 64556 11356 8//// 10218 20215 39553 40149 60014 76016 8452/ 333 0//11 20218 50024 55007 58010 84609 88460
BBXX SHIP 02063 99363 11686 41598 50020 10130 20094 40180 54000 70222 8587/ 22224 00182 20402 80100
BBXX SHIP 02064 99483 11645 41098 79918 10020 21005 40229 52040 70222 881// 22275 00043 20402 331// 40904 80010
BBXX VRAR7 02063 99363 11686 41598 50020 10130 20094 40180 54000 70222 8587/ 22224 00182 20402 80100
BBXX VRBQ6 02064 99483 11645 41098 79918 10020 21005 40229 52040 70222 881// 22275 00043 20402 331// 40904 80010
BBXX NAZJ 02064 99503 71600 41/// 60921 10011 2//// 40000 51/// 7//55 8/515 22262 04044 20602 39909 40602 50602 6//// 8//// ICE /////
BBXX ELWZ5 02064 99482 71352 41397 42314 10085 20075 40010 53010 7//22 8/61/ 22224 04140 2//// 3//// 4//// 5//// 80080
AAXX 02064 89528 46/// /1010 4//// 5////
AAXX 02064 89628 46/// /3135 4//// 5////
AAXX 02064 91348 11474 70609 10282 20255 30022 40075 53002 69901 72522 83101 333 562/9 70168 555 90206
AAXX 02064 71611 17/// /2008 10044 20026 60041 7//4/ 333 10048 21016 70042
AAXX 02064 71429 16/// /2013 11014 21036 30062 40081 58023 60001 333 11004 21061 70010 555 30330 40102
BBXX A8LK7 02064 99496 70066 41297 32724 10080 20080 40080 51020 75955 8247/ 22254 20506 399// 40506 80080
AAXX 02063 63684 32970 60908 10210 207 38849 48/// 80046 333 20/// 59011 86272 555 10165
AAXX 02064 17096 11531 61103 11050 21050 38210 48483 52007 69902 71072 84550 333 21073 3/108 47013 55002 20247 79999 84630 86358 93197
AAXX 02061 40001 32970 40603 10058 20040 40165 53015 84050 333 20042 30/// 84360
AAXX 02061 40007 11530 83401 10065 20059 40179 53018 60052 71062 8657/ 333 20061 30/// 50064 55/// 70054 86630 88360
AAXX 02061 40025 11560 60602 10094 20090 40162 52019 60081 79226 86900 333 20090 32/// 76800 82926 85630
AAXX 02061 40045 31530 60000 10062 20046 40178 53001 71000 84550 333 20041 30/// 55032 84630 86360
AAXX 02061 40061 32570 52903 10074 20039 40168 52019 82450 333 20070 30/// 50054 55050 70000 82630 84360
AAXX 02061 40080 11570 52305 10078 20056 39454 40169 52010 69981 70260 85800 333 20068 83826 83630
AAXX 02061 40087 NIL
AAXX 02061 40095 NIL
AAXX 02061 40001 32970 40603 10058 20040 40165 53015 84050 333 20042 30/// 84360
AAXX 02061 40007 11530 83401 10065 20059 40179 53018 60052 71062 8657/ 333 20061 30/// 50064 55/// 70054 86630 88360
AAXX 02061 40025 11560 60602 10094 20090 40162 52019 60081 79226 86900 333 20090 32/// 76800 82926 85630
AAXX 02061 40045 31530 60000 10062 20046 40178 53001 71000 84550 333 20041 30/// 55032 84630 86360
AAXX 02061 40061 32570 52903 10074 20039 40168 52019 82450 333 20070 30/// 50054 55050 70000 82630 84360
AAXX 02061 40080 11570 52305 10078 20056 39454 40169 52010 69981 70260 85800 333 20068 83826 83630
AAXX 02061 40087 NIL
AAXX 02061 40095 NIL
AAXX 02061 40009 11565 70000 10070 20061 40147 52012 60022 76166 85550 333 20066 31/// 70018 85630 87360
AAXX 02061 40016 11570 70000 10060 20056 40200 51018 60012 76262 84510 333 20045 31/// 55035 70010 84630 87460
AAXX 02061 40022 12565 50000 10100 20082 40146 52021 60071 85800 222// 20000 333 20090 32/// 82830 84632
AAXX 02061 40030 11560 80000 10072 20063 40173 52029 60033 71066 8557/ 333 20068 32/// 50044 55000 85630 88360
AAXX 02061 40039 NIL
AAXX 02061 40066 11570 70000 10096 20075 40155 52016 60373 79596 87900 333 20085 32/// 70581 84926 85630
AAXX 02061 40072 32970 00000 10074 20042 40190 54000 333 20030 30///
AAXX 02061 40083 32570 20000 10025 21004 48456 52008 82200 333 20014 30///82826
AAXX 02061 DUPE
AAXX 02064 60107 32560 52006 10089 20072 40308 52014 85800 333 20070 30005 82816 84626 95310
AAXX 02064 91367 11474 70806 10278 20232 60111 70182 84232 333 56229 84815 82760 82080 70078 555 90206 91369 12474 81915 10272 20245 30069 40072 62161 84387 333 56449 84815 83360 88780 70085 555 90206
AAXX 02064 91348 11474 70609 10282 20255 30022 40075 53002 69901 72522 83101 333 562/9 70168 555 90206
AAXX 02064 91844 46/// /9901 10246 40116 22200 00272
BBXX A8RW4 02063 99265 30460 41598 70927 10270 20213 40120 51010 70322 87778 22214 04268 20405 309// 40405 80230
BBXX PJGO 02064 99571 10022 47/98 /2324 10056 49919 53003 700// 22200
BBXX 63055 02064 99606 10016 46/// ///// 22200
BBXX 63106 02064 99610 10017 46/// /2418 10055 49826 57001 22200
BBXX 63105 02064 99610 10017 47597 ///// 10060 20008 49825 58002 741// 22200
BBXX 62305 02064 99504 10000 46/98 /2722 10098 20050 40071 52008 22200 00114 10702 70012 333 90710 91131
BBXX 62304 02064 99511 10018 46/98 /2517 10092 20054 40051 53204 22200 00106 10601 70007
BBXX 62094 02064 99517 70067 46/// /26// 10080 20027 40040 52009 22200 00104 10607 70033 333 90710 91131
BBXX 62103 02064 99499 70029 46/99 /2827 10099 20027 40070 52009 22200 00116 10905 70027 333 90710 91140
AAXX 02064 91348 11474 70609 10282 20255 30022 40075 53002 69901 72522 83101 333 562/9 70168 555 90206
BBXX KNJK 02063 99261 70800 41798 12708 10194 20169 40210 54000 70200 81/8/ 22200 0//// 2//// 3//// 4//// 5//// 6//// 80178 ICE /////
BBXX 9V7645 02064 99370 71254 41/// 31814 10130 20130 40190 54/// 70000 83134 22274 00130 2//// 3//// 4//// 5//// 6//// 80130 ICE /////
BBXX A8RW4 02063 99265 30460 41598 70927 10270 20213 40120 51010 70322 87778 22214 04268 20405 309// 40405 80230
BBXX A8QL5 02061 99186 70222 41497 60417 10205 20132 40180 56/// 70122 867// 22214 04220 20504 305// 40707 80160
BBXX UFLT 02061 99508 11465 42/97 90909 11010 40106 54000 22253 00020 20604 314// 40604
BBXX A8LK7 02064 99496 70066 41297 32724 10080 20080 40080 51020 75955 8247/ 22254 20506 399// 40506 80080
BBXX BSH03 02061 99540 10081 46/// ///// 22200 00063 20402 70011
BBXX C6OR4 02063 99395 70101 41497 23122 10150 20103 40309 53000 70111 8216/ 22243 06152 21003 3//// 4//// 5//// 80125
BBXX PHAM 02064 99495 70011 41/98 32213 10091 20055 40083 52013 72585 82/// 22200 20302 80073 91049
BBXX MPJH9 02064 99388 31408 41998 23321 10220 20153 40058 70200 81041 22264 2//// 80180
BBXX mpjh9 02064 99388 31408 41998 23321 10220 20153 40058 70200 81041 22264 2//// 80180
BBXX 9V7645 02064 99370 71254 41/// 31814 10130 20130 40190 54/// 70000 83134 22274 00130 2//// 3//// 4//// 5//// 6//// 80130 ICE /////
BBXX ELVL8 02063 99210 70462 41496 40420 10261 20200 40212 50000 7//11 842// 22214 04260 20205 304// 40306 5//// 80221 ELVL8
BBXX VREX7 02063 99229 70614 41397 40922 10250 20220 40220 50000 70211 84710 22214 21004 30909 40503 50802 80230
BBXX KNJK 02063 99261 70800 41798 12708 10194 20169 40210 54000 70200 81/8/ 22200 0//// 2//// 3//// 4//// 5//// 6//// 80178 ICE /////
BBXX A8QM9 02064 99303 70776 41698 32322 10225 20155 40180 54000 70222 83144 22253 20503 323// 40503 80180
OOXX FJP26 02041 99178 31775 ///// 00311 26/// /1403 10270 29092 30036 90420 333 60000
OOXX FJP26 02041 99178 31775 ///// 00311 26/// /1403 10268 29092 30039 90430 333 60000
OOXX FJP26 02041 99178 31775 ///// 00311 26/// /1403 10265 29094 30038 90440 333 60000
OOXX FJP26 02041 99178 31775 ///// 00311 26/// /1403 10263 29094 30040 90450 333 60000
OOXX FJP26 02051 99178 31775 ///// 00311 26/// /1403 10262 29094 30042 90500 333 60000
OOXX FJP26 02051 99178 31775 ///// 00311 26/// /1403 10262 29094 30044 90510 333 60000
OOXX FJP26 02051 99178 31775 ///// 00311 26/// /1302 10261 29094 30044 90520 333 60000
OOXX FJP26 02051 99178 31775 ///// 00311 26/// /1403 10260 29094 30045 90530 333 60000
OOXX FJP26 02051 99178 31775 ///// 00311 26/// /1303 10261 29094 30045 90540 333 60000
OOXX FJP26 02051 99178 31775 ///// 00311 26/// /1302 10261 29094 30047 90550 333 60000
OOXX FJP26 02061 99178 31775 ///// 00311 26/// /1303 10261 29093 30048 90600 333 60000
OOXX FJP26 02061 99178 31775 ///// 00311 26/// /1203 10260 29093 30050 90610 333 60000
OOXX AUP09 02041 99124 31309 ///// 00321 26/// ///// 1//// 29/// 3//// 90418 333 6///0
OOXX AUP09 02041 99124 31309 ///// 00321 26/// ///// 1//// 29/// 3//// 90428 333 6///0
OOXX AUP09 02041 99124 31309 ///// 00321 26/// ///// 1//// 29/// 3//// 90438 333 6///0
OOXX AUP09 02041 99124 31309 ///// 00321 26/// ///// 1//// 29/// 3//// 90448 333 6///0
OOXX AUP09 02041 99124 31309 ///// 00321 26/// ///// 1//// 29/// 3//// 90458 333 6///0
OOXX AUP09 02051 99124 31309 ///// 00321 26/// ///// 1//// 29/// 3//// 90508 333 6///0
OOXX AUP09 02051 99124 31309 ///// 00321 26/// ///// 1//// 29/// 3//// 90518 333 6///0
OOXX AUP09 02051 99124 31309 ///// 00321 26/// ///// 1//// 29/// 3//// 90528 333 6///0
OOXX AUP09 02051 99124 31309 ///// 00321 26/// ///// 1//// 29/// 3//// 90538 333 6///0
OOXX AUP09 02051 99124 31309 ///// 00321 26/// ///// 1//// 29/// 3//// 90548 333 6///0
OOXX AUP09 02051 99124 31309 ///// 00321 26/// ///// 1//// 29/// 3//// 90558 333 6///0
OOXX AUP09 02061 99124 31309 ///// 00321 26/// ///// 1//// 29/// 3//// 90608 333 6///0
OOXX AUP06 02041 99192 31468 ///// 00071 26/// /0709 10301 29044 30100 90457 333 60000
OOXX AUP06 02051 99192 31468 ///// 00071 26/// /0609 10304 29045 30098 90507 333 60000
OOXX AUP06 02051 99192 31468 ///// 00071 26/// /0708 10302 29044 30097 90517 333 60000
OOXX AUP06 02051 99192 31468 ///// 00071 26/// /0708 10303 29047 30097 90527 333 60000
OOXX AUP06 02051 99192 31468 ///// 00071 26/// /0608 10299 29047 30097 90537 333 60000
OOXX AUP06 02051 99192 31468 ///// 00071 26/// /0608 10302 29046 30097 90547 333 60000
OOXX AUP06 02051 99192 31468 ///// 00071 26/// /0608 10303 29041 30097 90557 333 60000
OOXX AUP06 02061 99192 31468 ///// 00071 26/// /0708 10300 29046 30098 90607 333 60000
OOXX AUP06 02061 99192 31468 ///// 00071 26/// /0708 10301 29044 30099 90617 333 60000
OOXX AUP06 02061 99192 31468 ///// 00071 26/// /0608 10299 29042 30099 90627 333 60000
OOXX AUP06 02061 99192 31468 ///// 00071 26/// /0608 10296 29048 30099 90637 333 60000
OOXX AUP06 02061 99192 31468 ///// 00071 26/// /0608 10296 29046 30100 90647 333 60000
OOXX MXP44 02041 99280 71140 ///// 00041 26/// /1422 10132 29054 30171 90410 333 60000
OOXX MXP44 02041 99280 71140 ///// 00041 26/// /1422 10132 29054 30172 90420 333 60000
OOXX MXP44 02041 99280 71140 ///// 00041 26/// /1422 10128 29054 30173 90430 333 60000
OOXX MXP44 02041 99280 71140 ///// 00041 26/// /1422 10125 29054 30174 90440 333 60000
OOXX MXP44 02041 99280 71140 ///// 00041 26/// /1422 10123 29054 30175 90450 333 60000
OOXX MXP44 02051 99280 71140 ///// 00041 26/// /1422 10122 29054 30175 90500 333 60000
OOXX MXP44 02051 99280 71140 ///// 00041 26/// /1422 10123 29054 30175 90510 333 60000
OOXX MXP44 02051 99280 71140 ///// 00041 26/// /1422 10124 29054 30176 90520 333 60000
OOXX MXP44 02051 99280 71140 ///// 00041 26/// /1422 10126 29054 30176 90530 333 60000
OOXX MXP44 02051 99280 71140 ///// 00041 26/// /1422 10125 29054 30175 90540 333 60000
OOXX MXP44 02051 99280 71140 ///// 00041 26/// /1422 10123 29054 30176 90550 333 60000
OOXX MXP44 02061 99280 71140 ///// 00041 26/// /1422 10124 29054 30176 90600 333 60000
OOXX NZP46 02041 99438 51765 ///// 00221 26/// /2310 10155 29067 30014 90430 333 60000
OOXX NZP46 02041 99438 51765 ///// 00221 26/// /2310 10156 29066 30015 90440 333 60000
OOXX NZP46 02041 99438 51765 ///// 00221 26/// /2210 10153 29068 30016 90450 333 60000
OOXX NZP46 02051 99438 51765 ///// 00221 26/// /2309 10153 29069 30018 90500 333 60000
OOXX NZP46 02051 99438 51765 ///// 00221 26/// /2209 10145 29066 30020 90510 333 60000
OOXX NZP46 02051 99438 51765 ///// 00221 26/// /2210 10139 29071 30022 90520 333 60000
OOXX NZP46 02051 99438 51765 ///// 00221 26/// /2208 10131 29082 30023 90530 333 60000
OOXX NZP46 02051 99438 51765 ///// 00221 26/// /2308 10138 29078 30023 90540 333 60000
OOXX NZP46 02051 99438 51765 ///// 00221 26/// /2209 10139 29076 30024 90550 333 60000
OOXX NZP46 02061 99438 51765 ///// 00221 26/// /2310 10135 29072 30026 90600 333 60000
OOXX NZP46 02061 99438 51765 ///// 00221 26/// /2211 10130 29075 30029 90610 333 60000
OOXX NZP46 02061 99438 51765 ///// 00221 26/// /2210 10129 29076 30030 90620 333 60000
OOXX MRP43 02041 99181 70159 ///// 00101 26/// /0203 10158 29022 30181 90450 333 60000
OOXX MRP43 02051 99181 70159 ///// 00101 26/// /0203 10157 29022 30182 90500 333 60000
OOXX MRP43 02051 99181 70159 ///// 00101 26/// /3602 10153 29023 30184 90510 333 60000
OOXX MRP43 02051 99181 70159 ///// 00101 26/// /3602 10150 29023 30186 90520 333 60000
OOXX MRP43 02051 99181 70159 ///// 00101 26/// /3303 10146 29024 30186 90530 333 60000
OOXX MRP43 02051 99181 70159 ///// 00101 26/// /3303 10144 29024 30189 90540 333 60000
OOXX MRP43 02051 99181 70159 ///// 00101 26/// /3503 10141 29024 30189 90550 333 60000
OOXX MRP43 02061 99181 70159 ///// 00101 26/// /0103 10143 29024 30188 90600 333 60000
OOXX MRP43 02061 99181 70159 ///// 00101 26/// /0103 10146 29024 30191 90610 333 60000
OOXX MRP43 02061 99181 70159 ///// 00101 26/// /0203 10148 29023 30192 90620 333 60000
OOXX MRP43 02061 99181 70159 ///// 00101 26/// /0304 10149 29023 30189 90630 333 60000
OOXX MRP43 02061 99181 70159 ///// 00101 26/// /0304 10152 29023 30189 90640 333 60000
OOXX AUP07 02041 99/// ///// ///// ///// 26/// /2809 10078 29081 30100 90450 333 60000
OOXX AUP07 02051 99/// ///// ///// ///// 26/// /2809 10076 29081 30100 90500 333 60000
OOXX AUP07 02051 99/// ///// ///// ///// 26/// /2809 10075 29082 30099 90510 333 60000
OOXX AUP07 02051 99/// ///// ///// ///// 26/// /2808 10074 29070 30099 90520 333 60000
OOXX AUP07 02051 99/// ///// ///// ///// 26/// /2808 10073 29083 30097 90530 333 60000
OOXX AUP07 02051 99/// ///// ///// ///// 26/// /2808 10070 29084 30098 90540 333 60000
OOXX AUP07 02051 99/// ///// ///// ///// 26/// /2908 10070 29085 30096 90550 333 60000
OOXX AUP07 02061 99/// ///// ///// ///// 26/// /2907 10070 29085 30095 90600 333 60000
OOXX AUP07 02061 99/// ///// ///// ///// 26/// /2908 10070 29085 30095 90610 333 60000
OOXX AUP07 02061 99/// ///// ///// ///// 26/// /2908 10069 29086 30095 90620 333 60000
OOXX AUP07 02061 99/// ///// ///// ///// 26/// /2808 10070 29086 30095 90630 333 60000
OOXX AUP07 02061 99/// ///// ///// ///// 26/// /2808 10069 29086 30095 90640 333 60000
OOXX GBP67 02041 99159 50057 ///// 04381 26/// /0902 10168 29097 39667 90410 333 60000
OOXX GBP67 02041 99159 50057 ///// 04381 26/// /1002 10167 29097 39668 90420 333 60000
OOXX GBP67 02041 99159 50057 ///// 04381 26/// /1002 10166 29097 39666 90430 333 60000
OOXX GBP67 02041 99159 50057 ///// 04381 26/// /0802 10167 29097 39667 90440 333 60000
OOXX GBP67 02041 99159 50057 ///// 04381 26/// /0402 10166 29097 39667 90450 333 60000
OOXX GBP67 02051 99159 50057 ///// 04381 26/// /0702 10167 29097 39668 90500 333 60000
OOXX GBP67 02051 99159 50057 ///// 04381 26/// /0502 10164 29097 39669 90510 333 60000
OOXX GBP67 02051 99159 50057 ///// 04381 26/// /0702 10167 29097 39670 90520 333 60000
OOXX GBP67 02051 99159 50057 ///// 04381 26/// /0703 10167 29097 39670 90530 333 60000
OOXX GBP67 02051 99159 50057 ///// 04381 26/// /0603 10166 29096 39672 90540 333 60000
OOXX GBP67 02051 99159 50057 ///// 04381 26/// /0803 10166 29096 39672 90550 333 60000
OOXX GBP67 02061 99159 50057 ///// 04381 26/// /0702 10168 29096 39674 90600 333 60000
OOXX GBP68 02041 99371 50123 ///// 00641 26/// /3511 11110 29079 30126 90410 333 60000
OOXX GBP68 02041 99371 50123 ///// 00641 26/// /3511 10085 29076 30126 90420 333 60000
OOXX GBP68 02041 99371 50123 ///// 00641 26/// /3511 11075 29077 30127 90430 333 60000
OOXX GBP68 02041 99371 50123 ///// 00641 26/// /3511 11462 29077 30128 90440 333 60000
OOXX GBP68 02041 99371 50123 ///// 00641 26/// /3511 11263 29076 30129 90450 333 60000
OOXX GBP68 02051 99371 50123 ///// 00641 26/// /3511 11309 29078 30129 90500 333 60000
OOXX GBP68 02051 99371 50123 ///// 00641 26/// /3510 11194 29079 30128 90510 333 60000
OOXX GBP68 02051 99371 50123 ///// 00641 26/// /3510 10093 29077 30130 90520 333 60000
OOXX GBP68 02051 99371 50123 ///// 00641 26/// /3511 10000 29072 30129 90530 333 60000
OOXX GBP68 02051 99371 50123 ///// 00641 26/// /3511 10202 29072 30128 90540 333 60000
OOXX GBP68 02051 99371 50123 ///// 00641 26/// /3511 10000 29075 30126 90550 333 60000
OOXX GBP68 02061 99371 50123 ///// 00641 26/// /3511 11286 29078 30128 90600 333 60000
OOXX KIP39 02041 99020 51574 ///// 00181 26/// /1104 10254 29090 30105 90430 333 60000
OOXX KIP39 02041 99020 51574 ///// 00181 26/// /1204 10257 29089 30107 90440 333 60000
OOXX KIP39 02041 99020 51574 ///// 00181 26/// /1204 10258 29089 30108 90450 333 60000
OOXX KIP39 02051 99020 51574 ///// 00181 26/// /1104 10257 29088 30109 90500 333 60000
OOXX KIP39 02051 99020 51574 ///// 00181 26/// /1104 10257 29088 30109 90510 333 60000
OOXX KIP39 02051 99020 51574 ///// 00181 26/// /1104 10257 29089 30112 90520 333 60000
OOXX KIP39 02051 99020 51574 ///// 00181 26/// /1104 10257 29089 30111 90530 333 60000
OOXX KIP39 02051 99020 51574 ///// 00181 26/// /1204 10255 29089 30112 90540 333 60000
OOXX KIP39 02051 99020 51574 ///// 00181 26/// /1204 10256 29088 30113 90550 333 60000
OOXX KIP39 02061 99020 51574 ///// 00181 26/// /1204 10255 29088 30114 90600 333 60000
OOXX KIP39 02061 99020 51574 ///// 00181 26/// /1204 10257 29087 30115 90610 333 60000
OOXX KIP39 02061 99020 51574 ///// 00181 26/// /1204 10258 29087 30115 90620 333 60000
OOXX RUP54 02041 99586 10494 ///// 01271 26/// /0202 11083 29089 30067 90427 333 60120
OOXX RUP54 02041 99586 10494 ///// 01271 26/// /0602 11083 29089 30066 90437 333 60120
OOXX RUP54 02041 99586 10494 ///// 01271 26/// /0203 11083 29089 30066 90447 333 60120
OOXX RUP54 02041 99586 10494 ///// 01271 26/// /0402 11083 29089 30067 90457 333 60120
OOXX RUP54 02051 99586 10494 ///// 01271 26/// /0503 11083 29089 30068 90507 333 60120
OOXX RUP54 02051 99586 10494 ///// 01271 26/// /0502 11083 29089 30068 90517 333 60120
OOXX RUP54 02051 99586 10494 ///// 01271 26/// /0603 11083 29089 30068 90527 333 60120
OOXX RUP54 02051 99586 10494 ///// 01271 26/// /0502 11083 29089 30069 90537 333 60120
OOXX RUP54 02051 99586 10494 ///// 01271 26/// /0603 11083 29089 30069 90547 333 60120
OOXX RUP54 02051 99586 10494 ///// 01271 26/// /2103 11083 29089 30070 90557 333 60120
OOXX RUP54 02061 99586 10494 ///// 01271 26/// /0503 11082 29089 30069 90607 333 60120
OOXX RUP54 02061 99586 10494 ///// 01271 26/// /0603 11082 29089 30069 90617 333 60120
OOXX ARP03 02041 99412 50712 ///// 08491 26/// /1401 10133 29047 39227 90410 333 60000
OOXX ARP03 02041 99412 50712 ///// 08491 26/// /1401 10129 29047 39225 90420 333 60000
OOXX ARP03 02041 99412 50712 ///// 08491 26/// /1501 10125 29049 39226 90430 333 60000
OOXX ARP03 02041 99412 50712 ///// 08491 26/// /1401 10123 29049 39226 90440 333 60000
OOXX ARP03 02041 99412 50712 ///// 08491 26/// /0000 10121 29050 39226 90450 333 60000
OOXX ARP03 02051 99412 50712 ///// 08491 26/// /0000 10121 29050 39227 90500 333 60000
OOXX ARP03 02051 99412 50712 ///// 08491 26/// /1401 10120 29050 39226 90510 333 60000
OOXX ARP03 02051 99412 50712 ///// 08491 26/// /1501 10115 29051 39226 90520 333 60000
OOXX ARP03 02051 99412 50712 ///// 08491 26/// /1501 10118 29051 39226 90530 333 60000
OOXX ARP03 02051 99412 50712 ///// 08491 26/// /1401 10124 29049 39226 90540 333 60000
OOXX ARP03 02051 99412 50712 ///// 08491 26/// /1401 10122 29050 39226 90550 333 60000
OOXX ARP03 02061 99412 50712 ///// 08491 26/// /1401 10119 29052 39226 90600 333 60000
OOXX ARP01 02041 99345 50585 ///// 00311 26/// /0000 10104 29040 30117 90410 333 60000
OOXX ARP01 02041 99345 50585 ///// 00311 26/// /0000 10103 29040 30115 90420 333 60000
OOXX ARP01 02041 99345 50585 ///// 00311 26/// /0000 10103 29040 30114 90430 333 60000
OOXX ARP01 02041 99345 50585 ///// 00311 26/// /0000 10103 29040 30114 90440 333 60000
OOXX ARP01 02041 99345 50585 ///// 00311 26/// /0000 10102 29040 30113 90450 333 60000
OOXX ARP01 02051 99345 50585 ///// 00311 26/// /0000 10102 29040 30112 90500 333 60000
OOXX ARP01 02051 99345 50585 ///// 00311 26/// /0000 10102 29040 30110 90510 333 60000
OOXX ARP01 02051 99345 50585 ///// 00311 26/// /0000 10101 29041 30108 90520 333 60000
OOXX ARP01 02051 99345 50585 ///// 00311 26/// /0000 10101 29041 30107 90530 333 60000
OOXX ARP01 02051 99345 50585 ///// 00311 26/// /0000 10101 29041 30106 90540 333 60000
OOXX ARP01 02051 99345 50585 ///// 00311 26/// /0000 10101 29040 30106 90550 333 60000
OOXX ARP01 02061 99345 50585 ///// 00311 26/// /0000 10100 29040 30106 90600 333 60000
OOXX PAP50 02031 99090 70795 ///// 00901 26/// /3403 10253 29071 30017 90350 333 60000
OOXX PAP50 02041 99090 70795 ///// 00901 26/// /3403 10252 29072 30015 90400 333 60000
OOXX PAP50 02041 99090 70795 ///// 00901 26/// /3403 10252 29072 30016 90410 333 60000
OOXX PAP50 02041 99090 70795 ///// 00901 26/// /3503 10251 29072 30014 90420 333 60000
OOXX PAP50 02041 99090 70795 ///// 00901 26/// /3503 10251 29072 30014 90430 333 60000
OOXX PAP50 02041 99090 70795 ///// 00901 26/// /3402 10252 29072 30013 90440 333 60000
OOXX PAP50 02041 99090 70795 ///// 00901 26/// /3403 10251 29072 30013 90450 333 60000
OOXX PAP50 02051 99090 70795 ///// 00901 26/// /3403 10252 29072 30012 90500 333 60000
OOXX PAP50 02051 99090 70795 ///// 00901 26/// /3503 10252 29072 30012 90510 333 60000
OOXX PAP50 02051 99090 70795 ///// 00901 26/// /3403 10249 29074 30010 90520 333 60000
OOXX PAP50 02051 99090 70795 ///// 00901 26/// /3303 10247 29077 30009 90530 333 60000
OOXX PAP50 02051 99090 70795 ///// 00901 26/// /3302 10246 29078 30007 90540 333 60000
OOXX AAPEG 02064 99779 31666 57186 00051 46/// ///02 10007 21083 39879 49885 5//// 90630
OOXX AABRI 02064 99839 51342 60134 05251 46/// /0610 11055 21154 39297 49920 5//// 90620
OOXX AAEMI 02064 99785 31731 57083 00521 46/// /2311 11048 21077 39846 49911 5//// 90630
AAXX 02064 87453 32965 03609 10208 20116 39640 40110 57019
AAXX 02064 60395 12960 00000 10065 20061 40269 56002 60004 333 00300 20065 95990
AAXX 02064 91559 46/// /0000 10294 40047 22200 00291
OOXX AAERI 02064 99849 51288 60048 09901 46/// /0713 11092 21097 38792 49918 5//// 90620
OOXX AALAU 02064 99775 31708 57070 00371 46/// /1810 11048 21082 39831 49877 57001 90620
OOXX AAVIT 02064 99785 31778 57087 00501 46/// /1914 11039 21062 39801 49863 5//// 90620
OOXX AAERC 02064 99815 31639 60713 00451 46/// /1807 11018 21099 39821 49877 5//// 90630
AAXX 02064 71376 17/// /2008 10028 20017 39653 49940 56020 60011 7//4/ 333 10039 21017 70050 555 31617 40061
AAXX 02064 71386 16/// /1607 11030 21050 39832 40038 58037 60001 333 11029 21046 70000 555 31519 40051
AAXX 02064 71512 16/// /0504 11090 21095 30077 40091 56023 60001 333 11013 21122 70012
AAXX 02064 71612 17/// /2108 10049 20014 39880 49970 58013 60011 7//4/ 333 10055 21019 70012 555 32317 40061
AAXX 02064 71554 17/// /1809 11023 21031 30010 40016 56054 60021 7//4/ 333 11015 21051 70016 555 31818 40061
AAXX 02064 64700 31925 30208 10155 21011 39808 40150 70500 80002 333 01200 20160 51381 55090 58008 83075
AAXX 02064 64701 NIL
AAXX 02064 64702 NIL
AAXX 02064 64705 31910 70000 10162 20069 3//// 4//// 705// 80002 90600 333 0//00 2//// 50674 55/// ///// 5//// 87075
AAXX 02064 64706 31920 50000 10170 20060 39664 40140 705// 80002 333 01600 20165 51264 55061 58013 85075
AAXX 02064 64708 NIL
AAXX 02064 64709 31903 70000 10190 20013 3//// 4//// 705// 80002 90600 333 0//00 20185 5//// 55/// 5//// 87075
AAXX 02064 64710 NIL
AAXX 02064 64713 NIL
AAXX 02064 64722 31915 10000 10170 20072 3//// 4//// 705// 80002 90600 333 0//00 20145 50484 55/// 5//// 81075
AAXX 02064 64750 32960 63204 10194 20071 39709 40120 80002 90556 333 01000 20170 50711 55089 58023 86075
AAXX 02064 64751 33960 50406 10167 21007 3//// 4//// 83032 90553 333 0//00 20163 50883 55/// 5//// 83365 83075
AAXX 02064 64753 33960 40410 10140 21018 3//// 4//// 80002 90550 333 0//00 20130 51304 55/// 5//// 84075
AAXX 02064 64754 33960 30000 10198 20050 3//// 4//// 80002 90615 333 0//00 20150 50604 55/// 5//// 83075
AAXX 02064 64756 33962 71012 10192 21022 39527 4//// 80002 90600 333 0//00 20180 5//// 55/// 58012 87075
AAXX 02064 64757 NIL
AAXX 02064 64758 NIL
AAXX 02064 64761 NIL
AAXX 02063 63684 32970 60908 10210 20207 38849 48/// 80046 333 20/// 59011 86272 555 10165
AAXX 02064 64700 31925 30208 10155 21011 39808 40150 70500 80002 333 01200 20160 51381 55090 58008 83075
AAXX 02064 64701 NIL
AAXX 02064 64702 NIL
AAXX 02064 64705 31910 70000 10162 20069 3//// 4//// 705// 80002 90600 333 0//00 2//// 50674 55/// ///// 5//// 87075
AAXX 02064 64706 31920 50000 10170 20060 39664 40140 705// 80002 333 01600 20165 51264 55061 58013 85075
AAXX 02064 64708 NIL
AAXX 02064 64709 31903 70000 10190 20013 3//// 4//// 705// 80002 90600 333 0//00 20185 5//// 55/// 5//// 87075
AAXX 02064 64710 NIL
AAXX 02064 64713 NIL
AAXX 02064 64722 31915 10000 10170 20072 3//// 4//// 705// 80002 90600 333 0//00 20145 50484 55/// 5//// 81075
AAXX 02064 64750 32960 63204 10194 20071 39709 40120 80002 90556 333 01000 20170 50711 55089 58023 86075
AAXX 02064 64751 33960 50406 10167 21007 3//// 4//// 83032 90553 333 0//00 20163 50883 55/// 5//// 83365 83075
AAXX 02064 64753 33960 40410 10140 21018 3//// 4//// 80002 90550 333 0//00 20130 51304 55/// 5//// 84075
AAXX 02064 64754 33960 30000 10198 20050 3//// 4//// 80002 90615 333 0//00 20150 50604 55/// 5//// 83075
AAXX 02064 64756 33962 71012 10192 21022 39527 4//// 80002 90600 333 0//00 20180 5//// 55/// 58012 87075
AAXX 02064 64757 NIL
AAXX 02064 64758 NIL
AAXX 02064 64761 NIL
AAXX 0206/ 89507 46/// ///// 29055 36811 4//// 5////
BBXX MINUK04 0206/ 99555 10084 46/// ///// 10068 4//// 57033
AAXX 0206/ 68902 46/// ///// 40127 52009
AAXX 02064 91531 46/// /0502 1//// 40065 22200 00272
AAXX 02061 59316 32960 00902 10177 20059 30199 40204 57038 333 20133
AAXX 02064 16110 12898 70703 10070 20038 30229 40233 57004 60002 85039 333 20048 30/// 55042 26207 85357 555 0////
AAXX 02064 71016 16/// ///// 10019 60001 333 10028 21099 70000
AAXX 02061 01271 17/84 00701 10000 21039 39851 49872 58010 60002 700// 333 21015 43003 70012 91105
AAXX 02061 01415 17/64 72205 10058 20028 39879 49890 58005 6//// 781// 333 20039 70087 91110
AAXX 02064 91642 46/// /0000 1//// 40079 22200 0////
BBXX 42043 02061 99290 70949 46/// /0210 1//// 40320 90630 22200 00146 333 91213
BBXX 42043 02061 99290 70949 46/// /0209 1//// 40322 90600 22200 00146 333 91212
BBXX 42044 02061 99262 70971 46/// /0304 10164 20087 40314 90630 22200 00165 333 91210
BBXX 42044 02061 99262 70971 46/// /0404 10165 20088 40312 90600 22200 00165 333 91211
BBXX 42045 02061 99262 70965 46/// /0206 10168 40302 90630 22200 00198 333 91211
BBXX 42045 02061 99262 70965 46/// /0207 10170 40303 90600 22200 00198 333 91210
BBXX 42046 02061 99279 70940 46/// /0312 1//// 40299 90630 22200 00222 333 91214
BBXX 42046 02061 99279 70940 46/// /0312 1//// 40299 90600 22200 00222 333 91214
BBXX 42047 02061 99279 70936 46/// /0312 10161 40295 90630 22200 00220 333 91214
BBXX 42047 02061 99279 70936 46/// /0312 10163 40295 90600 22200 00220 333 91213
BBXX 46109 02061 99481 71234 46/// /1002 10043 40158 90557 22200 00078
BBXX 46094 02061 99446 71243 46/// /0906 10106 90630
BBXX 46094 02061 99446 71243 46/// /1307 10107 90620
BBXX 46094 02061 99446 71243 46/// /1008 10108 90610
BBXX 46094 02061 99446 71243 46/// /1207 10106 90600
BBXX 46094 02061 99446 71243 46/// /1006 10107 90550
BBXX 46094 02061 99446 71243 46/// /1006 10107 90540
BBXX 44056 02061 99362 70757 46/// ///// 1//// 90620 22200 00126 10601 20601 70005
AAXX 02064 89108 46/// /1703 11222 36999 4//// 57002 90620
AAXX 02064 89314 46/// /0822 11119 38226 4//// 5//// 90620
AAXX 02064 89327 46/// /0000 11029 39654 49935 5//// 90620
AAXX 02064 89329 46/// /0305 11112 38748 49826 5//// 90620
AAXX 02064 89332 46/// /0404 11076 39236 49853 5//// 90620
AAXX 02064 89376 46/// /2007 11037 39755 49822 5//// 90620
AAXX 02064 89667 46/// ///02 10007 39879 49889 5//// 90630
AAXX 02064 89734 46/// /1404 11278 36000 4//// 5//// 90630
AAXX 02064 89744 46/// /0113 11292 36385 4//// 54000 90620
AAXX 02064 89769 46/// ///02 10016 39823 49874 5//// 90620
AAXX 02064 89799 46/// /1006 11251 36796 4//// 52001 90620
AAXX 02064 89828 46/// /1808 11202 36507 4//// 5//// 90620
AAXX 02064 89832 46/// ///02 10065 39497 49779 52002 90620
AAXX 02064 89834 46/// /1012 11080 38075 4//// 5//// 90630
AAXX 02064 89865 46/// ///// 1//// 3//// 4//// 5//// 90630
AAXX 02064 89866 46/// /1106 11008 39743 49875 52003 90620
AAXX 02064 89868 46/// /2417 11029 39791 49858 5//// 90620
AAXX 02064 89869 46/// /2607 11019 39798 49876 5//// 90630
AAXX 02064 89872 46/// /2208 11010 39820 49875 5//// 90630
AAXX 02064 89873 46/// /1609 11028 39794 49871 5//// 90620
AAXX 02064 89879 46/// /0000 11005 39754 49791 5//// 90620
AAXX 02061 26730 31250 81605 11013 21015 39926 40123 57006 71022 886// 333 21031 43004 88705 91008 91109 555 53009 7000/
BBXX VDRV 02064 99442 70874 41/97 83338 11003 2//// 41014 53010 70272 8//// 22242 0//// 20307 3//// 4//// 5//// 6//// 8//// ICE /////
AAXX 02064 83780 21256 81906 10169 20158 39170 48460 58010 72052 887/ / 333 69961
BBXX 44056 02061 99362 70757 46/// ///// 1//// 90620 22200 00126 10601 20601 70005
BBXX 46094 02061 99446 71243 46/// /1006 10107 90540
BBXX 46094 02061 99446 71243 46/// /1006 10107 90550
BBXX 46094 02061 99446 71243 46/// /0906 10106 90630
BBXX 46094 02061 99446 71243 46/// /1207 10106 90600
BBXX 46094 02061 99446 71243 46/// /1307 10107 90620
BBXX 46094 02061 99446 71243 46/// /1008 10108 90610
BBXX 46109 02061 99481 71234 46/// /1002 10043 40158 90557 22200 00078
BBXX 42047 02061 99279 70936 46/// /0312 10161 40295 90630 22200 00220 333 91214
BBXX 42047 02061 99279 70936 46/// /0312 10163 40295 90600 22200 00220 333 91213
BBXX 42046 02061 99279 70940 46/// /0312 1//// 40299 90630 22200 00222 333 91214
BBXX 42046 02061 99279 70940 46/// /0312 1//// 40299 90600 22200 00222 333 91214
BBXX 42045 02061 99262 70965 46/// /0206 10168 40302 90630 22200 00198 333 91211
BBXX 42045 02061 99262 70965 46/// /0207 10170 40303 90600 22200 00198 333 91210
BBXX 42044 02061 99262 70971 46/// /0304 10164 20087 40314 90630 22200 00165 333 91210
BBXX 42044 02061 99262 70971 46/// /0404 10165 20088 40312 90600 22200 00165 333 91211
BBXX 42043 02061 99290 70949 46/// /0209 1//// 40322 90600 22200 00146 333 91212
BBXX 42043 02061 99290 70949 46/// /0210 1//// 40320 90630 22200 00146 333 91213
BBXX SHIP 02063 99074 11193 41597 89919 10280 2024/ 40090 56020 78111 886// 22283 00300 20402 3//// 4//// 5//// 6//// 80250 ICE /////
BBXX MINUK04 0206/ 99555 10084 46/// ///// 10068 4//// 57033
BBXX 66022 02061 99541 10142 46/// /2109 10102 39980 22200 00040
BBXX UFLT 02061 99508 11465 42/97 90909 11010 40106 54000 22253 00020 20604 314// 40604
BBXX UFLT 02061 99508 11465 42/97 90909 11010 40106 54000 22253 00020 20604 314// 40604
AAXX 02061 01311 47473 81505 10045 20036 39803 49864 58008 723// 333 20038 91111
AAXX 02061 01025 17/84 01909 10011 21084 39957 49968 53007 60002 700// 333 20003 43003 70000 91121
AAXX 02064 67789 12980 40802 10215 20156 3//// 48/// 60014 81032 333 20179 5//// 81360 84080
AAXX 02064 67881 12980 70000 10220 20166 38581 48510 60024 81038 333 20170 59004 81360 87280
AAXX 02064 67975 32980 70000 10218 20176 38921 48512 80002 333 20169 59007 87080
AAXX 02064 67983 32980 71201 10236 20182 38884 48514 81038 333 20170 59002 81360 87280
BBXX 44055 02061 99391 70753 46/// ///// 1//// 90630 22200 00070 10401 70006
AAXX 02061 28275 11598 81701 11082 21101 30217 40279 53004 69900 78582 8595/ 333 21098
AAXX 02064 71170 16/// /2807 11168 21185 60001 333 11028 21181 70000 555 33133 40212
AAXX 02064 71026 16/// /2401 11062 21123 39435 40321 58022 60001 333 7////
AAXX 02061 22349 11496 80000 21027 21043 30220 40232 52022 69902 78582 889// 333 21029 47012 91001
AAXX 02064 92036 46/// /9901 10288 40063 22200 00313
BBXX ZNQO3 02060 99398 70101 41/98 13111 10150 20069 40320 52030 70200 8//// 22244 04162 2//// 3//// 4//// 5//// 80110
BBXX TBWUK18 02063 99307 30517 41398 21507 10220 20153 40169 51008 70000 8214/ 22222 00230 20501 331// 40602 5//// 80180
BBXX TBWUK17 02063 99338 30156 41397 72819 10209 20187 40168 54000 70322 86444 22262 20203 323// 40808 5//// 80195
BBXX A8HD5 02061 99356 11227 41598 62704 10085 20026 40275 56020 70322 82362 22244 04110 20301 30000 40000 5//// 80060
BBXX 63106 02064 99610 10017 46/// /2418 10055 49826 57001 22200
BBXX 63113 02064 99610 10017 46/// /2618 10056 20000 49834 55001 22200 10706 70030
BBXX 62304 02064 99511 10018 46/98 /2517 10090 20052 40051 53014 22200 00106 10601 70007
BBXX 64049 02063 99571 10022 41/97 52432 10070 20070 49907 53004 70011 8//// 22200 20608 3//// 4//// 5//// 80070
BBXX 62305 02064 99504 10000 46/98 /27// 10098 20050 40071 52008 22200 00114 10702 70012 333 90710 91131
BBXX 62094 02064 99517 70067 46/// /2623 10080 20027 40040 52009 22200 00104 10607 70033 333 90710 91131
BBXX 62103 02064 99499 70029 46/99 /2822 10094 20049 40074 52011 22200 00116 10906 70029 333 90710 91144
BBXX 2AUO5 02063 99606 10016 41597 72219 10067 20031 49835 54000 76866 878// 22251 20603 322// 41006 80052
AAXX 02063 63680 12560 40000 10212 20181 38850 48/// 69924 81905 333 20160 59010 81621 81922 84272 555 10192
AAXX 02064 65501 32960 70000 10170 21037 39846 40163 80002 333 01200 20168 50784 55075 58023 87076
AAXX 02064 65502 32960 70406 10193 21046 39769 40149 80002 333 01400 20191 51014 55098 58020 87076
AAXX 02064 65503 32960 70404 10175 20039 39801 40148 80002 333 01200 20175 50570 55089 51574 58013 87076
AAXX 02064 65505 32960 60408 10200 21018 39800 40138 80002 333 01200 20194 50874 55105 58001 86076
AAXX 02064 65507 32960 62602 10180 20003 39797 40147 80002 333 01600 20180 50924 55090 58021 87076
AAXX 02064 65510 32960 50206 10191 21030 39617 40132 80002 333 01400 20189 5093/ 55095 58001 85076
AAXX 02064 65516 32960 60000 10176 20023 39833 40140 80002 333 01200 20171 50704 55103 58009 86076
AAXX 02064 65518 32965 73604 10192 21031 39766 40130 80002 333 01400 20180 51144 55099 58012 87076
AAXX 02064 65522 32960 70000 10165 20039 39805 40134 80002 333 01200 20165 50814 55100 58005 87076
AAXX 02064 93713 46/// /0000 10201 40088 22200 00177
AAXX 02064 60515 11960 00000 10040 20033 40293 55003 60004 700// 333 05200 20020 95990
AAXX 02063 63680 12560 40000 10212 20181 38850 48/// 69924 81905 333 20160 59010 81621 81922 84272 555 10192
AAXX 02064 67461 11560 83602 10194 20188 48518 60054 76166 8257/ 333 10268 20174 58003 82624 88461
AAXX 02064 67477 11260 82803 10183 20178 48533 60154 76066 8677/ 333 10275 20156 58001 86704 88360
AAXX 02064 67561 11360 80103 10200 20186 48516 60134 70522 8467/ 333 10269 20181 59004 84706 88459
AAXX 02064 67665 12380 73201 10213 20203 48518 60164 86630 333 10266 20196 58000 86608 86360
AAXX 02064 67743 12380 72902 10225 20209 48517 60034 81637 333 10317 20199 58004 81706 81360 87280
BBXX TBWUK18 02063 99307 30517 41398 21507 10220 20153 40169 51008 70000 8214/ 22222 00230 20501 331// 40602 5//// 80180
BBXX TBWUK17 02063 99338 30156 41397 72819 10209 20187 40168 54000 70322 86444 22262 20203 323// 40808 5//// 80195
BBXX 9V7645 02064 99370 71254 41/// 31814 10130 20130 40190 54/// 70000 83134 22274 00130 2//// 3//// 4//// 5//// 6//// 80130 ICE /////
AAXX 02064 67765 11375 70803 10211 20196 38664 48508 60214 70242 86132 333 20177 58000 86808
BBXX PHET 02061 99247 70797 41/98 /0406 10228 20161 40210 54000 7//// 8//// 22284 00270 2//// 3//// 4//// 5////
BBXX 2AJI3 02063 99040 10004 41998 42505 10282 20251 40116 53/// 70211 84013 22263 00280 20000 300// 4//// 5//// 80260
BBXX PHET 02061 99247 70797 41/98 /0406 10228 20161 40210 54000 7//// 8//// 22284 00270 2//// 3//// 4//// 5////
BBXX 44055 02061 99391 70753 46/// ///// 1//// 90630 22200 00070 10401 70006
BBXX VDRV 02064 99442 70874 41/97 83338 11003 2//// 41014 53010 70272 8//// 22242 0//// 20307 3//// 4//// 5//// 6//// 8//// ICE /////
BBXX A8HD5 02061 99356 11227 41598 62704 10085 20026 40275 56020 70322 82362 22244 04110 20301 30000 40000 5//// 80060
BBXX TBWUK17 02063 99338 30156 41397 72819 10209 20187 40168 54000 70322 86444 22262 20203 323// 40808 5//// 80195
BBXX TBWUK18 02063 99307 30517 41398 21507 10220 20153 40169 51008 70000 8214/ 22222 00230 20501 331// 40602 5//// 80180
BBXX ZNQO3 02060 99398 70101 41/98 13111 10150 20069 40320 52030 70200 8//// 22244 04162 2//// 3//// 4//// 5//// 80110
BBXX 2AJI3 02063 99040 10004 41998 42505 10282 20251 40116 53/// 70211 84013 22263 00280 20000 300// 4//// 5//// 80260
BBXX MINUK05 0206/ 99571 70021 46/// ///// 10023 49886 57009
BBXX A8LK7 02064 99496 70066 41297 32724 10080 20080 40080 51020 75955 8247/ 22254 20506 399// 40506 80080
BBXX 3EPD8 02064 99436 70096 41297 62415 10110 20068 40240 54000 76262 8/7// 22213 04137 29906 399// 4//08 80090
BBXX ZNQO3 02060 99398 70101 41/98 13111 10150 20069 40320 52030 70200 8//// 22244 04162 2//// 3//// 4//// 5//// 80110
BBXX C6OR4 02063 99395 70101 41497 23122 10150 20103 40309 53000 70111 8216/ 22243 06152 21003 3//// 4//// 5//// 80125
BBXX A8IV9 02063 99359 70067 41598 62710 10190 20159 40320 50/// 70222 8647/ 22224 2//// 80170
BBXX 64045 02064 99591 70117 46/// /2433 10035 21007 49730 58014 22200 00100 11117 70085 333 90710 91149
BBXX 62112 02064 99584 70002 47598 /2419 10054 21001 49871 52001 700// 22200
BBXX 62113 02064 99584 10002 47598 /2323 10054 20002 49875 54000 700// 22200
BBXX 62129 02064 99584 10003 46/// ///// 10053 21002 49877 54000 22200
BBXX 62114 02064 99583 10000 46/// /2323 10053 21000 49868 54000 22200
BBXX PJAI 02064 99581 70014 47999 /2215 10058 21006 49868 50000 700// 22200
BBXX 62111 02064 99580 70003 46/// /2523 10054 20006 49888 50002 22200 10605 70026
BBXX 62117 02064 99579 10000 47598 /2322 10058 20012 49878 51001 700// 22200 10606 70030
BBXX BATUK01 02064 99560 70032 46/// /2506 10027 21013 49910 58001 22200 00059
BBXX 62105 02064 99554 70121 46/// /2733 10040 20013 49894 55002 22200 00106 11217 70087 333 90710 91151
BBXX 62095 02064 99530 70159 46/// /2627 10072 20016 49988 50003 22200 00111 11119 70095 333 90710 91147
BBXX 62301 02064 99524 70047 46/// /2623 10064 20005 40020 51016 22200 00091 10605 70027 333 90710 91129
BBXX 62094 02064 99517 70067 46/// /26// 10080 20027 40040 52009 22200 00104 10607 70033 333 90710 91131
BBXX 62303 02064 99516 70051 46/// /2621 10081 20013 40044 52011 22200 00109 10608 70038 333 90710 91131
BBXX 62023 02063 99514 70079 46/97 /2633 10061 2//// 40053 5//// 22200 10709 70044 333 91154 555 70069 81008
BBXX BAREU00 02064 99514 70070 46/// ///// 40038 52027 22253
BBXX 62081 02064 99510 70134 46/// ///// 10072 20032 40060 51007 22200 00118 11015 70077
BBXX 62305 02064 99504 10000 46/98 /2722 10098 20050 40071 52008 22200 00114 10702 70012 333 90710 91131
BBXX BATFR27 02064 99503 70016 46/// /2720 10109 20039 40066 55001 22213 00117
BBXX 62107 02064 99501 70061 46/// /2929 10086 20000 40081 52008 22200 00113 11009 70045 333 90710 91141
BBXX 62103 02064 99499 70029 46/99 /2827 10099 20027 40070 52009 22200 00116 10905 70027 333 90710 91140
BBXX 62027 02064 99491 70022 46/// /2819 1//// 2//// 40099 52011 22200 00107 11705 333// 70027 333 90710 91138
BBXX 62442 02064 99490 70164 46/// /2627 1//// 2//// 40126 50002 22200 00120 333 90710 91139
BBXX 62029 02064 99487 70125 46/// /2628 10084 20047 40130 52010 22200 00125 11013 70066 333 90710 91138
BBXX 62163 02064 99475 70084 46/// /2924 10091 20035 40152 51011 22200 00124 11012 70058 333 90710 91135
BBXX 62001 02064 99452 70050 46/// /2723 10124 20074 40186 52008 22200 00129 10911 70053 333 90710 91133
BBXX V2NA1 02064 99448 70093 41/98 22836 10124 20069 40211 52025 70199 8//// 22254 20410 80095
BBXX WDD3825 02064 99446 70219 41498 82622 10150 2008/ 40240 56010 70322 88/// 22224 00150 20604 329// 41209 5//// 6//// 80110 /////
BBXX C6KD5 02063 99421 70131 41597 62920 10135 20072 40299 52025 70281 85468 22254 02135 20603 323// 40907 5//// 80104
BBXX E5U2123 02063 99417 70111 41/98 22625 10140 20068 40293 52030 70100 8//// 22243 00149 2//// 3//// 4//// 5//// 80105
BBXX PDYI 02063 99412 70158 41/98 /2720 10143 20083 40304 57006 702// 8//// 22262 20605 33299 41409 5//// 80110
BBXX DILE 02063 99400 70160 41/98 63322 10152 20085 40308 52018 70051 89/// 22264 04160 21209 328// 41809 80115
BBXX MCUV3 02063 99395 70237 41498 42615 10140 20122 40317 57002 70211 82145 22253 2//05 326// 4//05 5//// 80130
BBXX WDC6907 02064 99392 70189 41/// /2819 10144 2007/ 40326 51005 700// 8//// 22253 00180 2//// 3//// 4//// 5//// 6//// 80108 /////
BBXX PCGM 02063 99377 70250 41/98 89903 10190 20142 40325 56011 70222 8//// 22214 00186 2//// 80160
BBXX BAREU08 02064 99375 70294 46/// ///// 40305 57021 22254
BBXX BATFR46 02064 99366 70035 46/// /2817 10155 20097 40259 53013 22263 00160
BBXX VRCZ7 02060 99363 70082 41/97 4//// 10164 20104 40314 54000 70200 8//// 22224 2//// 3//// 4//// 5//// 80132
BBXX ZQTP2 02064 99361 70033 41598 32831 10148 20104 40263 53002 70300 81470 22263 00160 2//// 3//// 4//// 5//// 80125
BBXX MINUK01 0206/ 99571 70021 46/// ///// 10025 49894 57008
AAXX 0206/ 89872 46/// ///// 11005 39829 4//// 5//// 90640
AAXX 0206/ 89869 46/// ///// 11019 39813 4//// 5//// 90640
AAXX 0206/ 89866 46/// ///// 11013 39771 4//// 5//// 90640
AAXX 0206/ 89799 46/// ///// 11226 4//// 5//// 90640
AAXX 02064 89667 46/// /0403 11001 39879 4//// 5//// 90640
AAXX 02064 89016 46/89 /1010 11083 29061 39443 4//// 5////
AAXX 02064 89003 46/89 /1705 11063 29066 39048 4//// 5////
AAXX 02061 98132 31458 80705 10213 20176 40199 57029 70544 8327/ 333 56199 83816 88357
AAXX 02061 98133 31462 70405 10/// 20/// 40145 5//// 70544 84220 222// 20703 333 56199 84818 87459
AAXX 02061 98222 31575 13604 10290 20225 40102 57032 70544 81100 333 56899 81822
AAXX 02061 98233 31570 63601 10270 20232 40124 57032 70544 86200 333 56999 86820
AAXX 02061 98324 31465 32703 10300 20256 40102 57028 70544 83200 333 56999 83816
AAXX 02061 98327 31670 40403 10309 20190 39938 40112 57038 70544 82201 333 56999 82842 83080
AAXX 02061 98334 32480 80000 10265 20245 39926 40127 57022 8427/ 333 56999 84817 88357
AAXX 02061 98425 31560 62202 10283 20233 40104 57033 70544 84870 333 56999 84620 86358
AAXX 02061 98426 31570 21004 10314 20204 40111 57034 70544 82200 333 56999 82820
AAXX 02061 98427 11476 80204 10270 20232 39934 40113 58024 69901 72588 8327/ 333 56199 83818 88357
AAXX 02061 98428 31464 62202 10300 20233 40106 57034 70544 82474 333 56999 82618 84359
AAXX 02061 98432 31568 60402 10308 20242 40110 57031 70544 83272 333 56199 83820 83356
AAXX 02061 98433 31460 60205 10242 20209 39392 40113 57025 71564 84970 333 56999 84912 86357
AAXX 02061 98434 11458 83603 10245 20241 30116 40124 57030 60041 76162 8552/ 333 56199 85617 88457
AAXX 02061 98435 32470 70403 10282 20246 40115 5//// 84270 333 56199 84818 87358
AAXX 02061 98442 NIL
AAXX 02061 98446 11480 50701 10288 20262 30068 40114 58025 60011 72522 83202 333 56199 83818 85070
AAXX 02061 98447 32475 50705 10273 20240 39848 40112 5//// 83202 333 56299 83818 83070
AAXX 02061 98538 32468 53604 10300 20252 30090 40095 58025 70544 83206 333 56199 83811 83072
AAXX 02061 98546 32575 80404 10299 20259 30092 40100 57024 83267 333 56199 83820 83360 88275
AAXX 02061 98548 11475 70000 10275 20253 30086 40092 58040 60051 70286 84208 333 56299 84816 86272 98323
AAXX 02061 98553 11460 73603 10250 20243 30103 40107 57017 60141 78184 84908 333 56999 84915 87272
AAXX 02061 98558 11460 70508 10276 20258 40096 58033 60081 78084 84970 222// 20600 333 56199 83915 85357
AAXX 02061 98642 11460 83403 10285 20252 30079 40088 57021 69901 71582 8527/ 333 56199 85815 88358
AAXX 02061 98644 11462 80902 10267 20251 30084 40093 58025 60071 76088 8352/ 333 56199 83616 88457
AAXX 02061 98648 31470 60901 10298 20264 30015 40097 57022 71544 84926 333 56229 81912 83817 86358
AAXX 02061 98746 31462 80903 10316 20246 40073 58027 70544 82978 333 56399 82918 85358 87275
AAXX 02061 98751 11468 80101 10260 20233 39416 40088 57021 60021 72564 8497/ 333 56999 84915 88356
AAXX 02061 98752 11462 43202 10311 20258 40087 57027 69941 71581 82901 333 56999 82916 83075
AAXX 02061 98851 31570 60905 10333 20236 39922 40070 57024 70544 82208 333 56399 82820 86275
BBXX A8HD5 02061 99356 11227 41598 62704 10085 20026 40275 56020 70322 82362 22244 04110 20301 30000 40000 5//// 80060
BBXX PJGO 02064 99571 10022 47/98 /2324 10056 49919 53003 700// 22200
BBXX 63055 02064 99606 10016 46/// ///// 22200
BBXX 63106 02064 99610 10017 46/// /2418 10055 49826 57001 22200
BBXX 63105 02064 99610 10017 47597 ///// 10060 20008 49825 58002 741// 22200
BBXX 62305 02064 99504 10000 46/98 /2722 10098 20050 40071 52008 22200 00114 10702 70012 333 90710 91131
BBXX 62304 02064 99511 10018 46/98 /2517 10092 20054 40051 53204 22200 00106 10601 70007
BBXX 62094 02064 99517 70067 46/// /26// 10080 20027 40040 52009 22200 00104 10607 70033 333 90710 91131
BBXX 62103 02064 99499 70029 46/99 /2827 10099 20027 40070 52009 22200 00116 10905 70027 333 90710 91140
BBXX 2AJI3 02063 99040 10004 41998 42505 10282 20251 40116 53/// 70211 84013 22263 00280 20000 300// 4//// 5//// 80260
BBXX MINUK01 0206/ 99571 70021 46/// ///// 10025 49894 57008
AAXX 02064 67871 11970 70401 10218 20177 38548 48506 60034 70511 80002 333 20149 59005 87075
AAXX 02064 67977 32980 50000 10258 20215 39656 48539 80008 333 20194 59017 85280
AAXX 02064 71408 46/// /3509 10000 21018 30033 40113 5/033 6///1 333 7////
AAXX 02064 65001 31912 73604 10170 20085 3//// 4//// 70522 80008 333 20160 5//// 87280
AAXX 02064 65101 31920 70000 10180 20137 39751 40149 70522 80008 333 20160 58020 87280
AAXX 02064 65108 31957 70202 10181 20085 3//// 4//// 70522 80008 333 20179 5//// 87280
AAXX 02064 65112 31930 72505 10190 20060 3//// 4//// 70522 80008 333 20190 5//// 87280
AAXX 02064 65123 11940 70809 10195 20038 30009 40138 60001 70522 80008 333 20181 58013 87280
AAXX 02064 65125 42957 60804 10185 20052 3//// 40141 80008 333 58011 86280
AAXX 02064 65210 31458 70000 10242 20239 3//// 4//// 71022 86508 333 20240 5//// 86610
AAXX 02064 65213 12956 71904 10245 20231 3//// 4//// 60001 86508 333 20244 5//// 86611
AAXX 02064 65215 12958 70000 10185 20168 3//// 4//// 69991 80008 333 20168 5//// 87280
AAXX 02064 65222 31456 70000 10230 20222 3//// 4//// 71022 83508 333 20229 5//// 83610 87280
BBXX MINFR00 0206/ 99134 51367 46/// ///// 10253 40163 52021
AAXX 02064 65560 31930 0//// 10170 20170 39818 40129 71000 333 20170 58022
AAXX 02064 65563 31930 00000 10115 20105 39892 40136 71000 333 20115 58010
AAXX 02064 65594 32456 73602 10118 20170 30094 40128 84502 333 20176 58008 84613 87080
AAXX 02064 65599 32958 6//// 10190 20182 30040 40115 80002 333 20190 58008 86076
BBXX 42369 02061 99272 70903 46/// /0215 1//// 90540 22200 10504 70020
BBXX 42370 02061 99273 70905 46/// ///// 10188 90540 22200 10404 70019
BBXX 42376 02061 99291 70879 46/// /3314 10159 40260 90540 22200 11005 70027
BBXX 42392 02061 99272 70900 46/// ///// 1//// 90540 22200 10403 70017
BBXX 42887 02061 99282 70885 46/// /0213 10191 90540 22200 10504 70021
AAXX 02064 87349 32970 00000 10203 20134 39757 40139 58003
BBXX S6SR 02064 99080 70145 41699 23503 10260 20246 40140 56010 7//00 82//9 22273 00260 2//01 32020 41402 51402 6//// 80250 ICE /////
BBXX 42887 02061 99282 70885 46/// /0213 10191 90540 22200 10504 70021
BBXX 42376 02061 99291 70879 46/// /3314 10159 40260 90540 22200 11005 70027
BBXX 42392 02061 99272 70900 46/// ///// 1//// 90540 22200 10403 70017
BBXX 42370 02061 99273 70905 46/// ///// 10188 90540 22200 10404 70019
BBXX 42369 02061 99272 70903 46/// /0215 1//// 90540 22200 10504 70020
BBXX MINFR00 0206/ 99134 51367 46/// ///// 10253 40163 52021
BBXX S6SR 02064 99080 70145 41699 23503 10260 20246 40140 56010 7//00 82//9 22273 00260 2//01 32020 41402 51402 6//// 80250 ICE /////
BBXX DPFP 02064 99126 10821 41398 70910 10280 20260 40130 50005 70300 86778 22233 04270 20501 314// 40901 80265
BBXX V7SY6 02064 99228 11218 41697 80230 10200 20185 40350 51010 75055 88927 22213 00220 20608 305// 40608 80190
BBXX 9MGJ9 02064 99203 11211 41397 80532 10236 20182 40135 57010 70722 887// 22214 00280 20806 305// 40808 80202
BBXX 9MCN8 02064 99329 11356 41598 63530 10112 20046 40148 5//// 70311 84131 22213 00230 20706 334// 42411 80082
BBXX 9MET6 02064 99047 11136 41798 60318 10290 20248 40109 58015 70301 84443 22253 00291 20301 301// 40403 80260
AAXX 02064 94997 46/// ///// 10078 30066 40081 5////
AAXX 02064 89614 46/// /0000 10001 29055 38965 4//// 5//// 90630
AAXX 02064 89807 46/// /1714 10019 29094 39741 4//// 5//// 90630 333 90700 91115
AAXX 02064 94997 46/// ///// 10078 30066 40081 5////
AAXX 02064 89614 46/// /0000 10001 29055 38965 4//// 5//// 90630
AAXX 02064 89807 46/// /1714 10019 29094 39741 4//// 5//// 90630 333 90700 91115
AAXX 02064 62600 32970 70410 10140 20030 30017 40241 80007 10205 20100 56009 58018 87275
AAXX 02064 62640 31930 70220 10150 20000 39806 40175 70722 80007 10275 20128 56009 58011 87275
AAXX 02064 62641 31668 73214 10278 20107 30125 40173 70722 82570 10304 20225 56990 58024 82640 87365
AAXX 02064 62650 32970 73512 10125 21045 39926 40208 80007 10250 20090 56009 58016 87275
AAXX 02064 62680 31960 03618 10190 20000 39746 40150 70700 10325 20153 58006
AAXX 02064 62721 32970 73214 10175 21010 39707 40159 80007 10325 20168 56009 58004 87275
AAXX 02064 62730 31968 03612 10245 20190 39587 40152 70722 10330 20220 59009
AAXX 02064 62733 32970 03605 10220 20170 39617 40129 10335 20160 58001
AAXX 02064 62750 31968 73412 10200 20040 39688 40122 70722 80007 10345 20187 56009 58003 87275
AAXX 02064 62751 32970 70204 10213 20026 39678 40145 80007 10368 20172 56009 58007 87275
AAXX 02064 62752 32970 00506 10230 20146 39436 40113 10388 20200 59007
AAXX 02064 62760 31965 70404 10140 21036 39370 40170 70622 80007 10310 20105 56009 58001 87275
AAXX 02064 62762 31968 70507 10195 20045 39637 40117 70620 80007 10375 20145 56009 58004 87275
AAXX 02064 62770 32970 70415 10145 21040 39253 40171 80007 10205 20125 56009 58001 87275
AAXX 02064 62771 31960 73512 10170 21060 39512 40176 70722 80007 10312 20160 56009 58013 87275
BBXX 63106 02064 99610 10017 46/// /2418 10055 49826 57001 22200
BBXX 63113 02064 99610 10017 46/// /2618 10056 20000 49834 55001 22200 10706 70030
BBXX 62304 02064 99511 10018 46/98 /2517 10090 20052 40051 53014 22200 00106 10601 70007
BBXX 64049 02063 99571 10022 41/97 52432 10070 20070 49907 53004 70011 8//// 22200 20608 3//// 4//// 5//// 80070
BBXX 62305 02064 99504 10000 46/98 /27// 10098 20050 40071 52008 22200 00114 10702 70012 333 90710 91131
BBXX 62094 02064 99517 70067 46/// /2623 10080 20027 40040 52009 22200 00104 10607 70033 333 90710 91131
BBXX 62103 02064 99499 70029 46/99 /2822 10094 20049 40074 52011 22200 00116 10906 70029 333 90710 91144
BBXX 2AUO5 02063 99606 10016 41597 72219 10067 20031 49835 54000 76866 878// 22251 20603 322// 41006 80052
AAXX 02064 17199 12970 03301 11005 21106 39148 40276 53005 60002 333 21030 34107 55086 20779
AAXX 02064 17310 12670 10501 10089 20051 30169 40176 52020 69942 81200 333 20088 32006 55000 70326 81835 9110 4 92438
AAXX 02064 16320 12960 02310 10052 20045 30242 40255 54000 60002 333 20046 31101 55080 20853 55300 555 0215/
AAXX 02064 17310 12670 10501 10089 20051 30169 40176 52020 69942 81200 333 20088 32006 55000 70326 81835 91104 92438
BBXX DPFP 02064 99126 10821 41398 70910 10280 20260 40130 50005 70300 86778 22233 04270 20501 314// 40901 80265
BBXX SHIP 02064 99329 11356 41598 63530 10112 20046 40148 5//// 70311 84131 22213 00230 20706 334// 42411 80082
BBXX SHIP 02064 99203 11211 41397 80532 10236 20182 40135 57010 70722 887// 22214 00280 20806 305// 40808 80202
BBXX V7SY6 02064 99228 11218 41697 80230 10200 20185 40350 51010 75055 88927 22213 00220 20608 305// 40608 80190
BBXX SHIP 02064 99047 11136 41798 60318 10290 20248 40109 58015 70301 84443 22253 00291 20301 301// 40403 80260
AAXX 02064 89257 46/// /2114 11109 21121 39846 49918 57008 90620
AAXX 02064 89272 46/// /0512 11222 21266 38102 49818 57001 90610
AAXX 02064 89266 46/// /1908 11110 21123 39786 49929 57002 90620
AAXX 02064 89266 46/// /1908 11110 21123 39786 49929 57002 90610
AAXX 02064 89272 46/// /0511 11211 21256 38101 49809 57001 90620
AAXX 02064 89013 46/// /0814 11210 21245 37691 49741 57012 90610
AAXX 02064 89065 46/// /3304 11042 21049 39810 49888 54000 90610
AAXX 02064 89257 46/// /2113 11108 21120 39846 49918 57008 90610
AAXX 02064 89262 46/// /1003 11026 21041 39873 49917 57002 90620
AAXX 02064 89266 46/// /1908 11110 21123 39786 49929 57002 90610
AAXX 02064 89272 46/// /0512 11222 21266 38102 49818 57001 90610
AAXX 02064 91375 46/// /0509 10285 40078 22200 00280
BBXX 42369 02061 99272 70903 46/// /0216 1//// 90600 22200 10504 70020
BBXX 42370 02061 99273 70905 46/// ///// 10184 90600 22200 10404 70019
BBXX 9MCN8 02064 99329 11356 41598 63530 10112 20046 40148 5//// 70311 84131 22213 00230 20706 334// 42411 80082
BBXX SHIP 02064 99329 11356 41598 63530 10112 20046 40148 5//// 70311 84131 22213 00230 20706 334// 42411 80082
BBXX 42376 02061 99291 70879 46/// /3413 10155 40263 53013 90600 22200 11006 70029
BBXX 42392 02061 99272 70900 46/// ///// 1//// 90600 22200 10504 70020
BBXX 42887 02061 99282 70885 46/// /0213 10190 90600 22200 10505 70023
AAXX 02064 91165 32566 42805 10210 20180 30145 90610
AAXX 02064 91203 32474 80807 10317 20273 30100 40105 56010 81216
AAXX 02064 91212 12566 61108 10272 20222 31357 40096 55003 69901 90554
AAXX 02064 91245 32566 40711 10250 20250 30130 90551
AAXX 02064 91285 12566 42303 10200 20189 30175 40186 51022 60011 90553
AAXX 02064 91317 32474 80908 10300 20278 30070 40074 5//// 82201
AAXX 02064 91324 32574 80907 10317 20264 30058 40060 82203
AAXX 02064 91334 32474 60410 10319 20235 30064 40067 57008 82101
AAXX 02064 91348 11474 70609 10282 20255 30022 40075 53002 69901 72522 83101
AAXX 02064 91367 11474 70806 10278 20232 60111 70182 84232
AAXX 02064 91376 32474 40515 10290 20240 30074 90553
AAXX 02064 91413 32469 40709 10310 20234 30063 40088 57017 81171
AAXX 02064 91155 NIL
AAXX 02064 91217 NIL
AAXX 02064 91232 NIL
AAXX 02064 91250 NIL
AAXX 02064 91275 NIL
AAXX 02064 91339 NIL
AAXX 02064 91353 NIL
AAXX 02064 91356 NIL
AAXX 02064 91366 NIL
AAXX 02064 91369 NIL
AAXX 02064 91371 NIL
AAXX 02064 91378 NIL
AAXX 02064 91408 NIL
AAXX 02064 91425 NIL
AAXX 02064 91434 NIL
AAXX 02064 91601 NIL
AAXX 02064 91610 NIL
AAXX 02064 89065 46/// /3304 11042 21049 39810 49888 54000 90610
BBXX PJGO 02064 99571 10022 47/98 /2324 10056 49919 53003 700// 22200
BBXX 63055 02064 99606 10016 46/// ///// 22200
BBXX 63106 02064 99610 10017 46/// /2418 10055 49826 57001 22200
BBXX 63105 02064 99610 10017 47597 ///// 10060 20008 49825 58002 741// 22200
BBXX 62305 02064 99504 10000 46/98 /2722 10098 20050 40071 52008 22200 00114 10702 70012 333 90710 91131
BBXX 62304 02064 99511 10018 46/98 /2517 10092 20054 40051 53204 22200 00106 10601 70007
BBXX 62094 02064 99517 70067 46/// /26// 10080 20027 40040 52009 22200 00104 10607 70033 333 90710 91131
BBXX 62103 02064 99499 70029 46/99 /2827 10099 20027 40070 52009 22200 00116 10905 70027 333 90710 91140
AAXX 02064 91165 32566 42805 10210 20180 30145 90610
AAXX 02064 91212 12566 61108 10272 20222 31357 40096 55003 69901 90554
AAXX 02064 91285 12566 42303 10200 20189 30175 40186 51022 60011 90553
AAXX 02064 91317 32474 80908 10300 20278 30070 40074 5//// 82201
AAXX 02064 91334 32474 60410 10319 20235 30064 40067 57008 82101
AAXX 02064 91348 11474 70609 10282 20255 30022 40075 53002 69901 72522 83101
AAXX 02064 91376 32474 40515 10290 20240 30074 90553
AAXX 02064 91413 32469 40709 10310 20234 30063 40088 57017 81171
AAXX 02064 91245 32566 40711 10250 20250 30130 90551
BBXX 42376 02061 99291 70879 46/// /3413 10155 40263 53013 90600 22200 11006 70029
BBXX 42392 02061 99272 70900 46/// ///// 1//// 90600 22200 10504 70020
BBXX 42887 02061 99282 70885 46/// /0213 10190 90600 22200 10505 70023
BBXX 42369 02061 99272 70903 46/// /0216 1//// 90600 22200 10504 70020
BBXX 42370 02061 99273 70905 46/// ///// 10184 90600 22200 10404 70019
BBXX S6IH 02061 99318 70243 41597 41408 10200 20130 40350 54000 70322 82448 22223 04195 20804 309// 41603 5//// 80160
AAXX 02064 62772 32970 03408 10200 20040 39706 40145 10330 20195 58013
AAXX 02064 62781 32970 70208 10175 21085 39821 40177 80007 10315 20165 56009 59001 87275
AAXX 02064 62790 31950 70416 10170 21060 39422 40163 70722 80007 10327 20136 56009 59001 87275
AAXX 02064 62795 31960 73109 10220 20055 39611 40196 70622 80007 10390 20198 56009 58005 87275
AAXX 02064 62803 31968 73405 10220 20040 3//// 4//// 70622 80007 10315 20170 56009 5//// 87275
AAXX 02064 62805 32970 73410 10230 20080 39770 40100 80007 10390 20205 56009 59005 87275
AAXX 02064 62809 31968 70407 10192 21024 39639 40160 70622 80007 10335 20157 56009 58005 87275
AAXX 02064 71301 17/// ///// 11045 21047 39523 49916 52020 60031 7//4/ 333 11019 21093 70116 555 10080 20116
AAXX 02064 71307 16/// /2415 11006 21028 39836 40086 58004 60001 333 10085 21007 70031 555 32236 40193
AAXX 02064 71723 17/// /1809 10038 20022 39949 49959 56023 60041 7//4/ 333 10039 21034 70044 555 31818 40061
AAXX 02064 71390 46/// /1007 11015 6///1 333 11015 21050 7////
AAXX 02064 17098 12560 72102 11104 21107 38167 48489 53005 60002 84530 333 21171 3/119 43013 50014 55003 20699 70006 84630 85357
BBXX MINFR05 0206/ 99055 10000 46/// ///// 10245 40136 52011
AAXX 02064 97698 32462 60906 10315 20242 30059 40066 83931 333 56000 57900 57802 81914 83815 85078 80862
AAXX 02064 87395 32965 00000 10198 20163 30076 40119 58003
BBXX MINFR05 0206/ 99055 10000 46/// ///// 10245 40136 52011
BBXX 63106 02064 99610 10017 46/// /2418 10055 49826 57001 22200
BBXX 63113 02064 99610 10017 46/// /2618 10056 20000 49834 55001 22200 10706 70030
BBXX 62304 02064 99511 10018 46/98 /2517 10090 20052 40051 53014 22200 00106 10601 70007
BBXX 64049 02063 99571 10022 41/97 52432 10070 20070 49907 53004 70011 8//// 22200 20608 3//// 4//// 5//// 80070
BBXX 62305 02064 99504 10000 46/98 /27// 10098 20050 40071 52008 22200 00114 10702 70012 333 90710 91131
BBXX 62094 02064 99517 70067 46/// /2623 10080 20027 40040 52009 22200 00104 10607 70033 333 90710 91131
BBXX 62103 02064 99499 70029 46/99 /2822 10094 20049 40074 52011 22200 00116 10906 70029 333 90710 91144
BBXX 2AUO5 02063 99606 10016 41597 72219 10067 20031 49835 54000 76866 878// 22251 20603 322// 41006 80052
BBXX MINUK03 0206/ 99527 10039 46/// ///// 10080 40020 52016
BBXX 42369 02061 99272 70903 46/// /0216 1//// 90620 22200 10504 70020
AAXX 02064 97780 32460 82116 10246 20128 38228 40241 57011 8596/ 333 56009 57903 82913 84615 86359 80940
BBXX 42370 02061 99273 70905 46/// ///// 10180 90620 22200 10504 70020
BBXX 42376 02061 99291 70879 46/// /3413 10155 40263 90620 22200 11006 70029
BBXX 42392 02061 99272 70900 46/// ///// 1//// 90620 22200 10504 70020
BBXX 42887 02061 99282 70885 46/// /0114 10189 90620 22200 10505 70025
BBXX MINUK03 0206/ 99527 10039 46/// ///// 10080 40020 52016
BBXX 42376 02061 99291 70879 46/// /3413 10155 40263 90620 22200 11006 70029
BBXX 42887 02061 99282 70885 46/// /0114 10189 90620 22200 10505 70025
BBXX 42392 02061 99272 70900 46/// ///// 1//// 90620 22200 10504 70020
BBXX 42370 02061 99273 70905 46/// ///// 10180 90620 22200 10504 70020
BBXX 42369 02061 99272 70903 46/// /0216 1//// 90620 22200 10504 70020
AAXX 02064 87467 32970 00503 10158 20137 39997 40128 58005
AAXX 02064 65352 32956 70408 10212 20016 3//// 4//// 80002 333 20212 5//// 87076
AAXX 02064 65361 32958 70000 10175 20054 3//// 4//// 80002 333 20175 5//// 87076
AAXX 02064 65376 32958 70000 10230 20193 39672 40130 80002 333 20225 58013 87076
AAXX 02064 65387 32456 72802 10250 20243 30094 40112 81502 333 20250 58008 81610 87073
AAXX 02064 DUPE
AAXX 02064 65306 32960 50000 10195 20027 39819 40151 80002 333 01300 20192 50974 55093 58022 85076
AAXX 02064 65319 32960 53204 10220 20010 39627 40138 80002 333 01900 20216 50694 55086 58018 85076
AAXX 02064 65330 31920 50808 10200 20004 39695 40132 70522 80002 333 01900 20200 50994 44089 00438 58018 85076
AAXX 02064 65335 32956 60000 10211 20167 39918 40141 80002 333 01500 20207 50504 55094 58028 86076
AAXX 02064 65344 31425 73206 10260 20253 30112 40123 71022 86502 333 02400 20250 50274 55074 58012 86610 83076
AAXX 02064 DUPE
AAXX 02064 65338 32458 73204 10238 20231 39946 40133 875// 333 02100 20238 50504 55089 58023 87611
AAXX 02064 DUPE
BBXX 46145 02061 99544 71324 46/// /1708 1//// 49949 52023 22200 0//// 1//// 70/// 333 91211
BBXX 46145 02061 99544 71324 46/// /1708 1//// 49949 52023 22200 0//// 1//// 70/// 333 91211
BBXX 46208 02061 99525 71327 46/// /2110 1//// 49989 52031 22200 0//// 1//// 70/// 333 91212
BBXX 4XFB 02064 99409 10120 41598 32113 10160 20140 40220 54000 70000 8//// 22273 00190 80150
BBXX PJGO 02064 99571 10022 47/98 /2324 10056 49919 53003 700// 22200
BBXX 63055 02064 99606 10016 46/// ///// 22200
BBXX 63106 02064 99610 10017 46/// /2418 10055 49826 57001 22200
BBXX 63105 02064 99610 10017 47597 ///// 10060 20008 49825 58002 741// 22200
BBXX 62305 02064 99504 10000 46/98 /2722 10098 20050 40071 52008 22200 00114 10702 70012 333 90710 91131
BBXX 62304 02064 99511 10018 46/98 /2517 10092 20054 40051 53204 22200 00106 10601 70007
BBXX 62094 02064 99517 70067 46/// /26// 10080 20027 40040 52009 22200 00104 10607 70033 333 90710 91131
BBXX 62103 02064 99499 70029 46/99 /2827 10099 20027 40070 52009 22200 00116 10905 70027 333 90710 91140
BBXX 4XFB 02064 99409 10120 41598 32113 10160 20140 40220 54000 70000 8//// 22273 00190 80150
BBXX 46208 02061 99525 71327 46/// /2110 1//// 49989 52031 22200 0//// 1//// 70/// 333 91212
BBXX 46145 02061 99544 71324 46/// /1708 1//// 49949 52023 22200 0//// 1//// 70/// 333 91211
BBXX 4XFB 02064 99409 10120 41598 32113 10160 20140 40220 54000 70000 8//// 22273 00190 80150
AAXX 02064 44404 NIL
AAXX 02064 44406 NIL
AAXX 02064 44409 42475 51803 10203 20131 39938 40145 83440 333 59021
AAXX 02064 44416 NIL
AAXX 02064 44418 41465 72701 10172 20151 39999 40196 72065 85540 333 58004
AAXX 02064 44424 NIL
AAXX 02064 44429 NIL
AAXX 02064 44434 42458 40000 10164 20107 39248 48543 83230 333 59015
AAXX 02064 44438 42556 20205 10196 20144 30045 40174 81130 333 59007
AAXX 02064 44449 42560 40905 10196 20146 30015 40174 81101 333 59002
AAXX 02064 44454 41340 80000 10104 20083 38683 48515 75044 8487/ 333 59026
AAXX 02064 44462 42/02 80904 10082 20082 38262 48486 74044 888// 333 59012
AAXX 02064 44474 41060 80000 10080 20066 3//// 4//// 75062 888// 333 5////
AAXX 02064 44477 42056 80000 10130 20112 38829 48533 84808 333 59021
AAXX 02064 44478 41456 70902 10162 20154 30089 40171 85560 333 58033
AAXX 02064 65557 32958 0//// 10145 20131 39904 40174 333 20140 58016
AAXX 0206/ 89329 46/// ///// 11109 38753 4//// 5////
AAXX 0206/ 89879 46/// ///// 11006 39771 4//// 5////
AAXX 0206/ 89769 46/// ///// 10031 39879 4//// 5////
AAXX 0206/ 89872 46/// ///// 11013 39827 4//// 5////
AAXX 0206/ 89869 46/// ///// 11016 39813 4//// 5////
AAXX 0206/ 89866 46/// ///// 11010 39768 4//// 5////
AAXX 0206/ 89799 46/// ///// 11253 4//// 5////
AAXX 0206/ 89868 46/// ///// 11024 39807 4//// 5////
AAXX 0206/ 89327 46/// ///// 11029 39692 4//// 5////
AAXX 0206/ 89108 46/// ///// 11229 37000 4//// 5////
AAXX 0206/ 89879 46/// ///// 11006 39769 4//// 5////
AAXX 0206/ 89332 46/// ///// 11071 39236 4//// 5////
AAXX 0206/ 89769 46/// ///// 10035 39878 4//// 5////
AAXX 0206/ 89314 46/// ///// 11124 38230 4//// 5////
AAXX 02061 08515 32475 71603 10163 20152 30202 40327 57010 878// 333 20160 30014 50174 55/// 82813 87633 910// 911//
AAXX 02061 08515 32475 71603 10163 20152 30202 40327 57010 878// 333 20160 30014 50174 55/// 82813 87633 910// 911// 555 60007 912//
AAXX 02064 41529 12997 00000 10117 20022 39826 40214 60001 333 58004
AAXX 02064 41598 11995 20000 10140 20056 39918 40194 60001 70400 82030 333 58012
AAXX 02064 41620 32697 22705 10075 21196 38618 48519 82500 333 56900 59009 82640
AAXX 02064 41624 01696 40504 10110 20015 39989 40197 60001 70420 84500 333 56900 60007 84637
AAXX 02064 41640 01995 00000 10150 20081 39940 40195 60001 70400 333 58014 60007
AAXX 02064 41660 11795 72704 10070 21026 38447 48538 60001 70500 83530 333 56990 59022 83650 85362
AAXX 02064 41675 11995 30000 10175 20036 30046 40190 60001 70500 83030 333 56090 58000 83362
AAXX 02064 41712 12697 30506 10100 21115 39215 48511 60001 82530 333 56990 59048 82640
AAXX 02064 41715 01996 00000 100175 20064 30127 40194 60001 70400 333 59015 60007
AAXX 02064 41756 01996 00000 10220 20064 30110 40174 60001 70504 333 59038 60007
AAXX 02064 41764 31995 00910 10205 20006 30129 40179 60001 70400 333 59018 60007
AAXX 02064 41768 02996 00000 10190 20072 30183 40190 60001 333 59005 60007
AAXX 02064 41780 02996 00000 10225 20043 30161 40188 60001 70500 333 59016 60007
AAXX 02064 41529 12997 00000 10117 20022 39826 40214 60001 333 58004
AAXX 02064 41598 11995 20000 10140 20056 39918 40194 60001 70400 82030 333 58012
AAXX 02064 41620 32697 22705 10075 21196 38618 48519 82500 333 56900 59009 82640
AAXX 02064 41624 01696 40504 10110 20015 39989 40197 60001 70420 84500 333 56900 60007 84637
AAXX 02064 41640 01995 00000 10150 20081 39940 40195 60001 70400 333 58014 60007
AAXX 02064 41660 11795 72704 10070 21026 38447 48538 60001 70500 83530 333 56990 59022 83650 85362
AAXX 02064 41675 11995 30000 10175 20036 30046 40190 60001 70500 83030 333 56090 58000 83362
AAXX 02064 41712 12697 30506 10100 21115 39215 48511 60001 82530 333 56990 59048 82640
AAXX 02064 41715 01996 00000 100175 20064 30127 40194 60001 70400 333 59015 60007
AAXX 02064 41756 01996 00000 10220 20064 30110 40174 60001 70504 333 59038 60007
AAXX 02064 41764 31995 00910 10205 20006 30129 40179 60001 70400 333 59018 60007
AAXX 02064 41768 02996 00000 10190 20072 30183 40190 60001 333 59005 60007
AAXX 02064 41780 02996 00000 10225 20043 30161 40188 60001 70500 333 59016 60007
BBXX VRJI2 02063 99119 70274 41796 60715 10230 2019/ 40130 54000 7//22 85761 22243 04220 20502 305// 41006 5//// 6//// 80200
BBXX VRJI2 02063 99119 70274 41796 60715 10230 2019/ 40130 54000 7//22 85761 22243 04220 20502 305// 41006 5//// 6//// 80200
AAXX 02064 67113 12581 4//// 10282 20235 30/// 40/// 5//// 60//4 82830 333 0//// 10291 20230 50264 55/// 82820 555 81640 82360
AAXX 02064 97580 32462 50000 10276 20262 30074 40082 56003 82232 333 56000 57802 82814 80850
BBXX 46145 02061 99544 71324 46/// /1708 1//// 49949 52023 22200 0//// 1//// 70/// 333 91211
BBXX 46208 02061 99525 71327 46/// /2110 1//// 49989 52031 22200 0//// 1//// 70/// 333 91212
BBXX 63106 02064 99610 10017 46/// /2418 10055 49826 57001 22200
BBXX 63113 02064 99610 10017 46/// /2618 10056 20000 49834 55001 22200 10706 70030
BBXX 62304 02064 99511 10018 46/98 /2517 10090 20052 40051 53014 22200 00106 10601 70007
BBXX 64049 02063 99571 10022 41/97 52432 10070 20070 49907 53004 70011 8//// 22200 20608 3//// 4//// 5//// 80070
BBXX 62305 02064 99504 10000 46/98 /27// 10098 20050 40071 52008 22200 00114 10702 70012 333 90710 91131
BBXX 62094 02064 99517 70067 46/// /2623 10080 20027 40040 52009 22200 00104 10607 70033 333 90710 91131
BBXX 62103 02064 99499 70029 46/99 /2822 10094 20049 40074 52011 22200 00116 10906 70029 333 90710 91144
BBXX 2AUO5 02063 99606 10016 41597 72219 10067 20031 49835 54000 76866 878// 22251 20603 322// 41006 80052
AAXX 02064 67469 11960 70000 10192 20/// 48582 60074 76166 8707/ 333 10256 20167 5/// 87461
AAXX 02064 67563 11378 83402 10197 20190 48/// 60254 75062 8577/ 333 10280 20180 59003 85708 88358
AAXX 02064 67571 11460 82703 10189 20186 48481 60364 76566 885// 333 10280 20173 58000 88617
AAXX 02064 64500 32360 81810 10252 20235 30111 40124 845// 333 02350 20225 50201 55084 58006 84608 88633
AAXX 02064 64501 32360 51804 10250 20236 3//// 4//// 85500 333 0//00 20249 50254 55/// 5//// 83608 85630
AAXX 02064 64550 32460 6//// 10235 20222 30/// 40/// 86500 333 0//00 20230 50114 55/// 5//// 83610 86623
AAXX 02064 64551 32358 70000 10235 20228 30108 40137 8353/ 333 0//00 20206 50024 55/// 58008 82703 83608 87360
AAXX 02064 64556 11356 8//// 10218 20215 39553 40149 60014 76066 8452/ 333 0//11 20218 50024 55007 58010 84609 88460
AAXX 02061 23921 32680 73501 11136 21149 30125 40251 52006 82501 333 21106
AAXX 02061 29638 02091 29638 42979 21501 11117 21152 30185 40361 57008 80001
AAXX 02061 28722 41997 70000 11096 21103 30082 57004 70172 80001
AAXX 02061 29789 42999 81801 11052 21126 39155 40364 57019 83031
BBXX PJGO 02064 99571 10022 47/98 /2324 10056 49919 53003 700// 22200
BBXX 63055 02064 99606 10016 46/// ///// 22200
BBXX 63106 02064 99610 10017 46/// /2418 10055 49826 57001 22200
BBXX 63105 02064 99610 10017 47597 ///// 10060 20008 49825 58002 741// 22200
BBXX 62305 02064 99504 10000 46/98 /2722 10098 20050 40071 52008 22200 00114 10702 70012 333 90710 91131
BBXX 62304 02064 99511 10018 46/98 /2517 10092 20054 40051 53204 22200 00106 10601 70007
BBXX 62094 02064 99517 70067 46/// /26// 10080 20027 40040 52009 22200 00104 10607 70033 333 90710 91131
BBXX 62103 02064 99499 70029 46/99 /2827 10099 20027 40070 52009 22200 00116 10905 70027 333 90710 91140
AAXX 02061 31054 41998 81101 11285 21315 39992 40293 52006 77172 8802/
AAXX 02061 20087 41897 83206 11151 21170 30112 40123 52014 77173 8802/
AAXX 02063 63661 32980 00503 10200 20050 48547 333 20065 59007
BBXX 42044 02061 99262 70971 46/// /0304 10164 20087 40314 90630 22200 00165 333 91210
BBXX 42044 02061 99262 70971 46/// /0404 10165 20088 40312 90600 22200 00165 333 91211
BBXX 63106 02064 99610 10017 46/// /2418 10055 49826 57001 22200
BBXX 63113 02064 99610 10017 46/// /2618 10056 20000 49834 55001 22200 10706 70030
BBXX 62304 02064 99511 10018 46/98 /2517 10090 20052 40051 53014 22200 00106 10601 70007
BBXX 64049 02063 99571 10022 41/97 52432 10070 20070 49907 53004 70011 8//// 22200 20608 3//// 4//// 5//// 80070
BBXX 62305 02064 99504 10000 46/98 /27// 10098 20050 40071 52008 22200 00114 10702 70012 333 90710 91131
BBXX 62094 02064 99517 70067 46/// /2623 10080 20027 40040 52009 22200 00104 10607 70033 333 90710 91131
BBXX 62103 02064 99499 70029 46/99 /2822 10094 20049 40074 52011 22200 00116 10906 70029 333 90710 91144
BBXX 2AUO5 02063 99606 10016 41597 72219 10067 20031 49835 54000 76866 878// 22251 20603 322// 41006 80052
AAXX 02064 67037 11580 7//// 10/// 20/// 30068 40109 5/009 60184 70362 83873 333 0//24 10/// 20/// 50//4 55/// 81820 81920 83633 85460 94963 95833 555 82073=17.9
AAXX 02064 62458 32960 30000 10121 20048 40219 52011 83030 333 20102
AAXX 02064 16539 12498 33600 10098 20086 30133 40250 56005 69922 83800 333 20098 31/// 55/// 2//// 81815 555 0////
AAXX 02061 23219 41996 80206 11180 21199 30155 40270 52015 77073 8807/
AAXX 02061 10791 11/90 92210 10020 20020 38493 48439 56008 69962 74544 333 10031 20019 49113 55000 55300 70135 91118 91213
AAXX 02064 67037 11580 7//// 10/// 20/// 30068 40109 5/009 60184 70362 83873 333 0//24 10/// 20/// 50//4 55/// 81820 81920 83633 85460 94963 95833 555 82073
BBXX MINFR09 0206/ 99354 11397 46/// ///// 40076 52013
BBXX PJGO 02064 99571 10022 47/98 /2324 10056 49919 53003 700// 22200
BBXX 63055 02064 99606 10016 46/// ///// 22200
BBXX 63106 02064 99610 10017 46/// /2418 10055 49826 57001 22200
BBXX 63105 02064 99610 10017 47597 ///// 10060 20008 49825 58002 741// 22200
BBXX 62305 02064 99504 10000 46/98 /2722 10098 20050 40071 52008 22200 00114 10702 70012 333 90710 91131
BBXX 62304 02064 99511 10018 46/98 /2517 10092 20054 40051 53204 22200 00106 10601 70007
BBXX 62094 02064 99517 70067 46/// /26// 10080 20027 40040 52009 22200 00104 10607 70033 333 90710 91131
BBXX 62103 02064 99499 70029 46/99 /2827 10099 20027 40070 52009 22200 00116 10905 70027 333 90710 91140
BBXX MINFR09 0206/ 99354 11397 46/// ///// 40076 52013
AAXX 02061 01160 41785 81108 10032 21042 39908 49925 58008 70282 888// 333 20006 91110
AAXX 02061 26518 11/93 91406 11002 21002 40061 57015 69902 74574 333 21017 45997 91009 91109 555 53009 7990/
AAXX 02064 60105 31401 82406 10110 20110 40321 5//// 74442 886// 333 20086 31003 88710
BBXX MINFR09 0206/ 99354 11397 46/// ///// 40076 52013
BBXX 63106 02064 99610 10017 46/// /2418 10055 49826 57001 22200
BBXX 63113 02064 99610 10017 46/// /2618 10056 20000 49834 55001 22200 10706 70030
BBXX 62304 02064 99511 10018 46/98 /2517 10090 20052 40051 53014 22200 00106 10601 70007
BBXX 64049 02063 99571 10022 41/97 52432 10070 20070 49907 53004 70011 8//// 22200 20608 3//// 4//// 5//// 80070
BBXX 62305 02064 99504 10000 46/98 /27// 10098 20050 40071 52008 22200 00114 10702 70012 333 90710 91131
BBXX 62094 02064 99517 70067 46/// /2623 10080 20027 40040 52009 22200 00104 10607 70033 333 90710 91131
BBXX 62103 02064 99499 70029 46/99 /2822 10094 20049 40074 52011 22200 00116 10906 70029 333 90710 91144
BBXX 2AUO5 02063 99606 10016 41597 72219 10067 20031 49835 54000 76866 878// 22251 20603 322// 41006 80052
AAXX 02064 60155 32456 716// 10102 20091 40317 55000 872// 333 20087 31004 87816
AAXX 02064 61698 32958 30604 10258 20015 30137 40148 80002 333 01300 20154 50604 55027 58000 83073
AAXX 02064 71573 16/// /2508 11001 21043 39770 40050 58002 60001 333 10078 21004 7////
BBXX PJGO 02064 99571 10022 47/98 /2324 10056 49919 53003 700// 22200
BBXX 63055 02064 99606 10016 46/// ///// 22200
BBXX 63106 02064 99610 10017 46/// /2418 10055 49826 57001 22200
BBXX 63105 02064 99610 10017 47597 ///// 10060 20008 49825 58002 741// 22200
BBXX 62305 02064 99504 10000 46/98 /2722 10098 20050 40071 52008 22200 00114 10702 70012 333 90710 91131
BBXX 62304 02064 99511 10018 46/98 /2517 10092 20054 40051 53204 22200 00106 10601 70007
BBXX 62094 02064 99517 70067 46/// /26// 10080 20027 40040 52009 22200 00104 10607 70033 333 90710 91131
BBXX 62103 02064 99499 70029 46/99 /2827 10099 20027 40070 52009 22200 00116 10905 70027 333 90710 91140
BBXX 42043 02061 99290 70949 46/// /0210 1//// 40320 90630 22200 00146 333 91213
BBXX 42043 02061 99290 70949 46/// /0209 1//// 40322 90600 22200 00146 333 91212
BBXX 42045 02061 99262 70965 46/// /0206 10168 40302 90630 22200 00198 333 91211
BBXX 42045 02061 99262 70965 46/// /0207 10170 40303 90600 22200 00198 333 91210
BBXX 42046 02061 99279 70940 46/// /0312 1//// 40299 90630 22200 00222 333 91214
BBXX 42046 02061 99279 70940 46/// /0312 1//// 40299 90600 22200 00222 333 91214
BBXX 42047 02061 99279 70936 46/// /0312 10161 20048 40295 90630 22200 00220 333 91214
BBXX 42047 02061 99279 70936 46/// /0312 10163 20051 40295 90600 22200 00220 333 91213
BBXX 63106 02064 99610 10017 46/// /2418 10055 49826 57001 22200
BBXX 63113 02064 99610 10017 46/// /2618 10056 20000 49834 55001 22200 10706 70030
BBXX 62304 02064 99511 10018 46/98 /2517 10090 20052 40051 53014 22200 00106 10601 70007
BBXX 64049 02063 99571 10022 41/97 52432 10070 20070 49907 53004 70011 8//// 22200 20608 3//// 4//// 5//// 80070
BBXX 62305 02064 99504 10000 46/98 /27// 10098 20050 40071 52008 22200 00114 10702 70012 333 90710 91131
BBXX 62094 02064 99517 70067 46/// /2623 10080 20027 40040 52009 22200 00104 10607 70033 333 90710 91131
BBXX 62103 02064 99499 70029 46/99 /2822 10094 20049 40074 52011 22200 00116 10906 70029 333 90710 91144
BBXX 2AUO5 02063 99606 10016 41597 72219 10067 20031 49835 54000 76866 878// 22251 20603 322// 41006 80052
BBXX 42047 02061 99279 70936 46/// /0312 10161 20048 40295 90630 22200 00220 333 91214
BBXX 42047 02061 99279 70936 46/// /0312 10163 20051 40295 90600 22200 00220 333 91213
AAXX 02064 89377 46/// /0000 1//// 3//// 4//// 5//// 90640
AAXX 02064 87162 32970 12505 10207 20178 30006 40074 58013 81030 333 56070 81360
BBXX PJGO 02064 99571 10022 47/98 /2324 10056 49919 53003 700// 22200
BBXX 63055 02064 99606 10016 46/// ///// 22200
BBXX 63106 02064 99610 10017 46/// /2418 10055 49826 57001 22200
BBXX 63105 02064 99610 10017 47597 ///// 10060 20008 49825 58002 741// 22200
BBXX 62305 02064 99504 10000 46/98 /2722 10098 20050 40071 52008 22200 00114 10702 70012 333 90710 91131
BBXX 62304 02064 99511 10018 46/98 /2517 10092 20054 40051 53204 22200 00106 10601 70007
BBXX 62094 02064 99517 70067 46/// /26// 10080 20027 40040 52009 22200 00104 10607 70033 333 90710 91131
BBXX 62103 02064 99499 70029 46/99 /2827 10099 20027 40070 52009 22200 00116 10905 70027 333 90710 91140
AAXX 02061 10170 01482 82606 10093 20078 39985 40001 51023 60022 70265 875// 333 10122 20082 32008 55000 55300 20000 30000 69987 70066 87616 91114
BBXX 63106 02064 99610 10017 46/// /2418 10055 49826 57001 22200
BBXX 63113 02064 99610 10017 46/// /2618 10056 20000 49834 55001 22200 10706 70030
BBXX 62304 02064 99511 10018 46/98 /2517 10090 20052 40051 53014 22200 00106 10601 70007
BBXX 64049 02063 99571 10022 41/97 52432 10070 20070 49907 53004 70011 8//// 22200 20608 3//// 4//// 5//// 80070
BBXX 62305 02064 99504 10000 46/98 /27// 10098 20050 40071 52008 22200 00114 10702 70012 333 90710 91131
BBXX 62094 02064 99517 70067 46/// /2623 10080 20027 40040 52009 22200 00104 10607 70033 333 90710 91131
BBXX 62103 02064 99499 70029 46/99 /2822 10094 20049 40074 52011 22200 00116 10906 70029 333 90710 91144
BBXX 2AUO5 02063 99606 10016 41597 72219 10067 20031 49835 54000 76866 878// 22251 20603 322// 41006 80052
AAXX 02061 10046 11362 82406 10079 20066 39960 49998 53013 60122 70262 876// 333 10121 20078 31007 55000 70140 87708 91114
AAXX 02061 78090 15/// /0000 10154 30207 40212 69901 90600 222// 00246
AAXX 02064 71845 43/// ///// 333 11032 21157 44024 70034 90999 555 10050 20034 33132 40211
AAXX 02064 71845 43/// ///// 333 11032 21157 44024 70034 90999 555 10050 20034 33132 40211
BBXX PJGO 02064 99571 10022 47/98 /2324 10056 49919 53003 700// 22200
BBXX 63055 02064 99606 10016 46/// ///// 22200
BBXX 63106 02064 99610 10017 46/// /2418 10055 49826 57001 22200
BBXX 63105 02064 99610 10017 47597 ///// 10060 20008 49825 58002 741// 22200
BBXX 62305 02064 99504 10000 46/98 /2722 10098 20050 40071 52008 22200 00114 10702 70012 333 90710 91131
BBXX 62304 02064 99511 10018 46/98 /2517 10092 20054 40051 53204 22200 00106 10601 70007
BBXX 62094 02064 99517 70067 46/// /26// 10080 20027 40040 52009 22200 00104 10607 70033 333 90710 91131
BBXX 62103 02064 99499 70029 46/99 /2827 10099 20027 40070 52009 22200 00116 10905 70027 333 90710 91140
AAXX 02064 60195 32960 00000 10041 21053 38617 48627 5//// 333 20041 30002 95500
AAXX 02061 11867 11430 71901 11002 21013 39869 40195 57010 60012 71062 82774 333 21002 3/101 43003 70014 82710 87358 93402
AAXX 02064 71854 43/// ///// 333 11028 21150 48019 70024 555 10024 20024
AAXX 02064 71854 43/// ///// 333 11028 21150 48019 70024 555 10024 20024
BBXX 63106 02064 99610 10017 46/// /2418 10055 49826 57001 22200
BBXX 63113 02064 99610 10017 46/// /2618 10056 20000 49834 55001 22200 10706 70030
BBXX 62304 02064 99511 10018 46/98 /2517 10090 20052 40051 53014 22200 00106 10601 70007
BBXX 64049 02063 99571 10022 41/97 52432 10070 20070 49907 53004 70011 8//// 22200 20608 3//// 4//// 5//// 80070
BBXX 62305 02064 99504 10000 46/98 /27// 10098 20050 40071 52008 22200 00114 10702 70012 333 90710 91131
BBXX 62094 02064 99517 70067 46/// /2623 10080 20027 40040 52009 22200 00104 10607 70033 333 90710 91131
BBXX 62103 02064 99499 70029 46/99 /2822 10094 20049 40074 52011 22200 00116 10906 70029 333 90710 91144
BBXX 2AUO5 02063 99606 10016 41597 72219 10067 20031 49835 54000 76866 878// 22251 20603 322// 41006 80052
AAXX 02064 71642 13/// ///// 11100 60021 333 11030 21100 70104 555 10090 20104
BBXX PJGO 02064 99571 10022 47/98 /2324 10056 49919 53003 700// 22200
BBXX 63055 02064 99606 10016 46/// ///// 22200
BBXX 63106 02064 99610 10017 46/// /2418 10055 49826 57001 22200
BBXX 63105 02064 99610 10017 47597 ///// 10060 20008 49825 58002 741// 22200
BBXX 62305 02064 99504 10000 46/98 /2722 10098 20050 40071 52008 22200 00114 10702 70012 333 90710 91131
BBXX 62304 02064 99511 10018 46/98 /2517 10092 20054 40051 53204 22200 00106 10601 70007
BBXX 62094 02064 99517 70067 46/// /26// 10080 20027 40040 52009 22200 00104 10607 70033 333 90710 91131
BBXX 62103 02064 99499 70029 46/99 /2827 10099 20027 40070 52009 22200 00116 10905 70027 333 90710 91140
AAXX 02064 91723 NIL
AAXX 02064 91964 36/// /0306 10223 20219 40189 52018
BBXX 63106 02064 99610 10017 46/// /2418 10055 49826 57001 22200
BBXX 63113 02064 99610 10017 46/// /2618 10056 20000 49834 55001 22200 10706 70030
BBXX 62304 02064 99511 10018 46/98 /2517 10090 20052 40051 53014 22200 00106 10601 70007
BBXX 64049 02063 99571 10022 41/97 52432 10070 20070 49907 53004 70011 8//// 22200 20608 3//// 4//// 5//// 80070
BBXX 62305 02064 99504 10000 46/98 /27// 10098 20050 40071 52008 22200 00114 10702 70012 333 90710 91131
BBXX 62094 02064 99517 70067 46/// /2623 10080 20027 40040 52009 22200 00104 10607 70033 333 90710 91131
BBXX 62103 02064 99499 70029 46/99 /2822 10094 20049 40074 52011 22200 00116 10906 70029 333 90710 91144
BBXX 2AUO5 02063 99606 10016 41597 72219 10067 20031 49835 54000 76866 878// 22251 20603 322// 41006 80052
AAXX 02064 71770 16/// /0706 11028 21070 39527 40321 58017 60001 333 10000 21039 70000
AAXX 02064 71310 16/// /1703 11031 21035 30073 40110 56022 60001 333 10059 21035 70000 555 33527 40161
AAXX 02064 03770 16/// ///// 10056 20039 69922 90550 333 20053 3/002 70106
BBXX PJGO 02064 99571 10022 47/98 /2324 10056 49919 53003 700// 22200
BBXX 63055 02064 99606 10016 46/// ///// 22200
BBXX 63106 02064 99610 10017 46/// /2418 10055 49826 57001 22200
BBXX 63105 02064 99610 10017 47597 ///// 10060 20008 49825 58002 741// 22200
BBXX 62305 02064 99504 10000 46/98 /2722 10098 20050 40071 52008 22200 00114 10702 70012 333 90710 91131
BBXX 62304 02064 99511 10018 46/98 /2517 10092 20054 40051 53204 22200 00106 10601 70007
BBXX 62094 02064 99517 70067 46/// /26// 10080 20027 40040 52009 22200 00104 10607 70033 333 90710 91131
BBXX 62103 02064 99499 70029 46/99 /2827 10099 20027 40070 52009 22200 00116 10905 70027 333 90710 91140
BBXX DEFY 02063 99098 70777 41598 40418 10276 20243 40098 57003 70222 22262 02272 80252
BBXX 63106 02064 99610 10017 46/// /2418 10055 49826 57001 22200
BBXX 63113 02064 99610 10017 46/// /2618 10056 20000 49834 55001 22200 10706 70030
BBXX 62304 02064 99511 10018 46/98 /2517 10090 20052 40051 53014 22200 00106 10601 70007
BBXX 64049 02063 99571 10022 41/97 52432 10070 20070 49907 53004 70011 8//// 22200 20608 3//// 4//// 5//// 80070
BBXX 62305 02064 99504 10000 46/98 /27// 10098 20050 40071 52008 22200 00114 10702 70012 333 90710 91131
BBXX 62094 02064 99517 70067 46/// /2623 10080 20027 40040 52009 22200 00104 10607 70033 333 90710 91131
BBXX 62103 02064 99499 70029 46/99 /2822 10094 20049 40074 52011 22200 00116 10906 70029 333 90710 91144
BBXX 2AUO5 02063 99606 10016 41597 72219 10067 20031 49835 54000 76866 878// 22251 20603 322// 41006 80052
AAXX 02064 67161 32581 70000 10295 20242 30094 40103 51009 89385/ 333 0//00 10315 20240 50664 55/// 81823 83640 87360
BBXX DEFY 02063 99098 70777 41598 40418 10276 20243 40098 57003 70222 22262 02272 80252
AAXX 02064 67161 32581 70000 10295 20242 30094 40103 51009 8385/ 333 0//00 10315 20240 50664 55/// 81823 83640 87360
AAXX 02064 67161 32581 70000 10295 20242 30094 40103 51009 333 0//00 10315 20240 50664 55/// 81823 83640 87360
AAXX 02064 67161 32581 70000 10295 20242 30094 40103 51009 333 0//00 10315 20240 50664 55/// 81823 83640 87360
BBXX PJGO 02064 99571 10022 47/98 /2324 10056 49919 53003 700// 22200
BBXX 63055 02064 99606 10016 46/// ///// 22200
BBXX 63106 02064 99610 10017 46/// /2418 10055 49826 57001 22200
BBXX 63105 02064 99610 10017 47597 ///// 10060 20008 49825 58002 741// 22200
BBXX 62305 02064 99504 10000 46/98 /2722 10098 20050 40071 52008 22200 00114 10702 70012 333 90710 91131
BBXX 62304 02064 99511 10018 46/98 /2517 10092 20054 40051 53204 22200 00106 10601 70007
BBXX 62094 02064 99517 70067 46/// /26// 10080 20027 40040 52009 22200 00104 10607 70033 333 90710 91131
BBXX 62103 02064 99499 70029 46/99 /2827 10099 20027 40070 52009 22200 00116 10905 70027 333 90710 91140
BBXX ONCT 02064 99189 70811 41898 30319 10260 2023/ 40155 54000 70300 83100 22274 04280 2//// 3//// 4//// 5//// 6//// 80240 ICE /////
BBXX ONCT 02064 99189 70811 41898 30319 10260 2023/ 40155 54000 70300 83100 22274 04280 2//// 3//// 4//// 5//// 6//// 80240 ICE /////
BBXX A8PQ6 02064 99228 10700 41597 61815 10200 2017/ 40190 54/// 70122 8666/ 22200 00243 20301 31818 40301 50301 6//// 80180 ICE /////
AAXX 02061 26424 11497 22105 10017 20005 49965 52004 60022 70281 82500 333 20013
BBXX A8PQ6 02064 99228 10700 41597 61815 10200 2017/ 40190 54/// 70122 8666/ 22200 00243 20301 31818 40301 50301 6//// 80180 ICE /////
BBXX WCAJ 02064 99559 71437 41698 72732 10011 21053 49850 52030 70272 87200 22233 00050 21011 3//// 4//// 5//// 6///0 81011 ICE 0/0//
BBXX WCAJ 02064 99559 71437 41698 72732 10011 21053 49850 52030 70272 87200 22233 00050 21011 3//// 4//// 5//// 6///0 81011 ICE 0/0//
BBXX WCAJ 02064 99559 71437 41698 72732 10011 21053 49850 52030 70272 87200 22233 00050 21011 3//// 4//// 5//// 6///0 81011 ICE 0/0//
AAXX 0206/ 89329 46/// ///// 11113 38754 4//// 5//// 90640
AAXX 0206/ 89868 46/// ///// 11029 39804 4//// 5//// 90640
AAXX 0206/ 89327 46/// ///// 11030 39690 4//// 5//// 90640
AAXX 0206/ 89828 46/// ///// 11203 36532 4//// 5//// 90640
AAXX 0206/ 89108 46/// ///// 11223 37000 4//// 5//// 90640
AAXX 0206/ 89879 46/// ///// 11006 39772 4//// 5//// 90640
AAXX 0206/ 89332 46/// ///// 11076 39237 4//// 5//// 90640
AAXX 0206/ 89769 46/// ///// 10013 39879 4//// 5//// 90640
AAXX 0206/ 89314 46/// ///// 11120 38232 4//// 5//// 90640
AAXX 02064 41264 36/70 /2302 10195 20107 39814 40186 333 0E017 20131 59023
BBXX C6FY5 02063 99270 70856 41/// 12710 10180 2016/ 4//// 5//// 7//// 8//// 222// 0//// 2//// 3//// 4//// 5//// 6//// 80170 ICE /////
BBXX C6FY5 02063 99270 70856 41/// 12710 10180 2016/ 4//// 5//// 7//// 8//// 222// 0//// 2//// 3//// 4//// 5//// 6//// 80170 ICE /////
AAXX 02064 78397 111570 13003 10250 20208 30147 40163 60001 70500 81801 333 00909 10326 20232 59001 81824
AAXX 02064 DUPE
AAXX 02064 78397 111570 13003 10250 20208 30147 40163 60001 70500 81801 333 00909 10326 20232 59001 81824
AAXX 02064 DUPE
AAXX 02054 91691 14/// /0802 10297 20239 30081 40084 50001
AAXX 02064 91697 14/// /1002 10277 20226 30086 40091 50012 60001
AAXX 02064 91691 14/// /0801 10293 20239 30089 40092 50013 60001
AAXX 02054 91697 14/// /0903 10286 20230 30078 40083 50001
AAXX 02054 91699 14/// /1202 10290 20226 30062 40093 50000
AAXX 02064 91699 14/// /0602 10280 20234 30068 40100 53011 60001
AAXX 02061 10895 11901 70402 10012 20008 39572 40153 56015 60002 74642 80008 333 10080 20012 31000 55000 55300 20000 30000 70023 87269
BBXX WYR4481 02064 99486 70879 41/98 83144 11083 40095 70222 22212 20604
AAXX 02064 71268 43/// ///// 333 10000 21055 70066 555 10050 20050
AAXX 02064 71363 16/// /3320 11348 21386 30195 40254 51003 60001 333 11330 21374 70000 555 33324 40041
AAXX 02064 71363 16/// /3320 11348 21386 30195 40254 51003 60001 333 11330 21374 70000 555 33324 40041
AAXX 02064 71332 16/// /3202 11266 21295 30235 40266 58017 60001 333 11245 21329 70000
AAXX 02064 71029 16/// /1118 11270 21299 30229 40271 58013 60001 333 11267 21346 70003 555 31223 40061
AAXX 02064 71005 16/// ///// 11121 21151 60001 333 11069 21184 70000
AAXX 02064 71047 16/// ///// 11109 21148 60001 333 11075 21166 70004
AAXX 02064 71233 16/// /1705 11063 21130 60001 333 11062 21182 70000
AAXX 02064 71507 16/// /0501 11107 21131 60001 333 11084 21199 70000 555 32717 40071
AAXX 02064 71507 16/// /0501 11107 21131 60001 333 11084 21199 70000 555 32717 40071
AAXX 02064 71245 46/// /2325 11020 21070 6///1 333 11019 21157 7////
AAXX 02064 71472 16/// /1613 60001 333 70010 555 32242 40083
