BBXX WCZ5238 18183 99151 71790 41798 40818 10240 20196 40130 54/// 7//11 841// 22273 00270 20502 308// 41205 5//// 6//// 80210 ICE /////
BBXX ZMFR 18174 99489 31668 43/// /21// 10090 20082 40186 57003 22271 00115
BBXX ZMENA 18174 99436 31728 46/// ///// 10097 20065 40189 52003 22221
BBXX 44172 18181 99445 70634 46/// ///// 1//// 91731 22200 00071 11003 21003 313// 41101 70014
BBXX 44097 18181 99410 70711 46/// ///// 1//// 91732 22200 00121 10503 20503 315// 41101 70013
BBXX 46218 18181 99345 71208 46/// ///// 1//// 91732 22200 00138 11704 20802 331// 41704 70022
AAXX 18184 40270 31950 01103 10112 21054 39325 40238 52003 70500 333 10176
AAXX 18184 40255 32960 00000 10116 20009 39509 40237 52010 333 10180
BBXX 42363 18181 99282 70892 46/// /0507 10167 20050 40281 91745 333 91207
BBXX 42364 18181 99291 70881 46/// /0307 10167 20072 40281 91745
BBXX WDD2876 18184 99467 70849 41/98 82115 11005 2//// 40139 57/// 70222 8//// 22263 00056 2//02 3//// 4//// 5//// 6//// 8//// ICE /////
BBXX 9HA2066 18184 99132 70937 419// 10209 10280 20280 40140 56/// 7//// 81//9 22234 00280 20706 332// 41004 5//// 6//// 80280 ICE /////
BBXX C6DM2 18183 99067 10988 418// 20624 10270 20228 40100 50010 7//00 82//9 22273 0//// 2//// 3//// 4//// 5//// 6//// 80240 ICE /////
AAXX 18184 08495 12980 12812 10127 20041 30209 40217 53012 60002 80001 91750 333 10152 81075
AAXX 18184 40272 32960 20912 10108 21037 39395 40245 52014 80001 333 10190 82070
BBXX BAREU56 18184 99408 10143 46/// ///// 40087 52016 22222
BBXX BAREU61 18184 99105 70175 46/// /3510 10275 29052 40098 57001 22234
BBXX 46249 18181 99338 71197 46/// ///// 1//// 91742 22200 00147 11802 21001 325// 41801 70009
BBXX 46248 18181 99461 71247 46/// ///// 1//// 91734 22200 00095 11507 20904 329// 41505 70033
BBXX 46244 18181 99409 71244 46/// ///// 1//// 91735 22200 00099 11407 20903 330// 41406 70033
BBXX 46240 18181 99366 71219 46/// ///// 1//// 91742 22200 00122 11702 21001 301// 41701 70008
BBXX 46237 18181 99378 71226 46/// ///// 1//// 91740 22200 00111 11706 20802 325// 41705 70028
BBXX 46212 18181 99408 71243 46/// ///// 1//// 91742 22200 00097 11506 21003 330// 41505 70030
BBXX 46217 18181 99342 71194 46/// ///// 1//// 91742 22200 00147 11201 20401 325// 41201 70007
BBXX 46211 18181 99469 71242 46/// ///// 1//// 91736 22200 00087 11306 20804 327// 41305 70031
AAXX 18184 91413 32469 70907 10277 20242 30054 40079 57012 82171 333 56299 70033 555 91818
AAXX 18184 91413 32469 70907 10277 20242 30054 40079 57012 82171 333 56299 70033 555 91818
AAXX 18184 91643 11498 73609 10277 20245 40079 52011 60001 71501 82378 333 56199 82918 85360 87280
AAXX 18184 91643 11498 73609 10277 20245 40079 52011 60001 71501 82378 333 56199 82918 85360 87280
AAXX 18184 91334 32474 70411 10275 20221 30063 40066 57012 82171 333 56299 70417 555 91818
AAXX 18184 91334 32474 70411 10275 20221 30063 40066 57012 82171 333 56299 70417 555 91818
AAXX 18181 13586 32970 01201 11003 21024 39883 40184 52010 333 10080
AAXX 18184 68906 31498 82821 10131 20097 30090 40155 53003 75055 885// 222// 00119 20401 333 10155 20129 91038 555 91015
AAXX 18184 81225 12670 41204 10326 20204 40095 60001 83202 333 56209 58002 83845
AAXX 18184 81200 12670 40906 10325 20215 40098 60001 83262 333 56299 58005 83835
AAXX 18184 81202 12570 20413 10290 20243 40103 60001 82903 333 56209 58003 81825 81930
AAXX 18184 81209 12670 30000 10320 20218 4//// 60001 83102 333 56209 5//// 83835
AAXX 18184 81251 NIL
AAXX 18184 81225 12670 41204 10326 20204 40095 60001 83202 333 56209 58002 83845
AAXX 18184 81200 12670 40906 10325 20215 40098 60001 83262 333 56299 58005 83835
AAXX 18184 81202 12570 20413 10290 20243 40103 60001 82903 333 56209 58003 81825 81930
AAXX 18184 81209 12670 30000 10320 20218 4//// 60001 83102 333 56209 5//// 83835
AAXX 18184 81251 NIL
AAXX 18184 89577 46/// /2608 11227 35840 4//// 5////
AAXX 18184 89578 46/// /1003 11349 36952 4//// 5////
BBXX BAREU63 18184 99347 10306 46/// /1212 10183 29065 40210 52010 22263
AAXX 18184 61902 31357 71313 10225 20202 40130 69952 78082 878// 333 10265 58002 81708 83815 87640
AAXX 18184 66160 35560 62405 10256 20213 40087 82130 333 10288 58000
BBXX 44098 18181 99428 70702 46/// ///// 1//// 91737 22200 00089 10604 20604 310// 41101 70019
BBXX 46088 18181 99483 71232 46/// /0000 10078 40237 53027 91750 22200 00080 1//00 70002 333 91201 555 11003 22003 31703 42403 61749 342004 306007 270009 256013 249019 269018
BBXX 41115 18181 99184 70673 46/// ///// 1//// 91735 22200 11204 21002 302// 41202 70018
BBXX 51205 18181 99210 71564 46/// ///// 1//// 91748 22200 00243 11405 20804 333// 41403 70027
BBXX 46114 18181 99364 71222 46/// ///// 1//// 91734 22200 00125 11707 21002 331// 41707 70036
BBXX 46060 18181 99606 71468 46/// /1022 10022 49873 58069 91750 555 11234 22251
BBXX 51203 18181 99208 71570 46/// ///// 1//// 91743 22200 00248 11302 20801 328// 41301 70009
BBXX 52200 18181 99134 11448 46/// ///// 1//// 91745 22200 00287 10906 20905 310// 41101 70028
BBXX 51201 18181 99217 71581 46/// ///// 1//// 91742 22200 00242 11405 20804 332// 41403 70024
AAXX 18184 68994 31393 82913 10091 20089 30154 40183 50000 74744 886// 222// 00070 333 10102 20084 91019 555 91018
AAXX 18181 13579 32670 53204 10031 21020 39314 40161 53002 82556 333 10065 82640 83363 85070
BBXX 44025 18181 99402 70732 46/// /3508 11016 21084 40227 56006 91750 22200 00110 10402 20402 309// 41201 70010 333 91210 555 11079 22082 31704 43410 61749 345077 339078 332078 335075 338075 341071
BBXX 44014 18181 99366 70748 46/// /3310 1//// 40231 58005 91750 22200 00144 10703 20703 309// 41101 70017 333 91212 555 11100 22100 31650 43313 61749 327101 333098 326096 328099 333097 329098
AAXX 18184 89009 42461 21104 11281 36783 55003 81608 333 81715
BBXX BAREU08 18184 99425 70209 46/// ///// 40298 52000 22214
BBXX BAREU05 18184 99453 70504 46/// ///// 40138 57039 22264
AAXX 18184 16597 11565 22604 10102 20070 30042 40130 53012 60012 70181 82800 333 10144 81820
AAXX 18184 61901 169// /1318 10169 20132 39655 40163 55004 60002 91750 333 10196 8//99 90710 91125 555 7/090
AAXX 18184 89009 42461 21104 11281 36783 55003 81608 333 81715
BBXX PDGS 18184 99206 71052 41998 09904 10200 40190 50010 70200 80000 22200 00210 20100
BBXX KQXZ 18183 99415 71276 41797 70133 10117 2007/ 40230 52030 7//22 8//7/ 22273 0//// 20605 330// 41007 5//// 6//// 80094 ICE /////
BBXX NWS0022 18184 99416 70714 43/// /3612 11009 21123 40216 5//// 7//// 8//// 222// 04102 2//// 3//// 4//// 5//// 6//// 8//// ICE /////
BBXX WDC6698 18184 99089 71452 43/// /0614 11351 2//// 40100 5//// 7//// 8//// 222// 04274 2//// 3//// 4//// 5//// 6//// 8//// ICE /////
BBXX LAVW4 18184 99295 70416 41697 71428 00/// 10225 2020/ 40190 56020 70322 8624/ 22253 00230 20504 313// 40706 5//// 6////
BBXX KEY796 18183 99571 71703 41/97 72526 11011 21033 49706 53/// 702// 8//// 222// 00011 2//// 3//// 4//// 5//// 6//// 8//// ICE /////
BBXX SHIP 18183 99289 11275 41/95 43325 10160 2007/ 40248 55002 70211 8//// 22284 00263 2//// 3//// 4//// 5//// 6//// 80110 ICE /////
BBXX WECH 18184 99171 11582 41598 20813 10255 2//// 40145 57020 70200 82200 22255 00280 20302 309// 40805 5//// 6//// ICE /////
BBXX 4XIS 18183 99349 11544 43/98 72518 10140 2011/ 40140 54000 22225 80120
BBXX ONAI 18184 99347 50525 41598 42128 10215 2019/ 49990 55025 70211 84270 22254 00214 2//// 3//// 4//// 5//// 6//// 80195 ICE /////
BBXX ELWR5 18180 99140 70932 41/98 20107 10310 20284 40130 50/// 7//// 8/200 22224 04290 20803 80290
BBXX DFZB2 18184 99116 70992 41598 10626 10266 20204 40170 54000 70200 81100 22264 04250 20806 304// 41206 5//// 80223
BBXX ONDY 18184 99254 30140 41799 31822 10170 2014/ 40140 54000 70100 838// 22234 00150 2//// 3//// 4//// 5//// 6//// 80150 ICE /////
BBXX BAREU61 18184 99105 70175 46/// /3510 10275 29052 40098 57001 22234
BBXX ONCE 18184 99313 30535 41497 71119 10210 2016/ 40170 5//// 70311 8583/ 22224 00212 2//// 3//// 4//// 5//// 6//// 80180 ICE /////
BBXX BAREU05 18184 99453 70504 46/// ///// 40138 57039 22264
BBXX 44025 18181 99402 70732 46/// /3508 11016 21084 40227 56006 91750 22200 00110 10402 20402 309// 41201 70010 333 91210 555 11079 22082 31704 43410 61749 345077 339078 332078 335075 338075 341071
BBXX 44014 18181 99366 70748 46/// /3310 1//// 40231 58005 91750 22200 00144 10703 20703 309// 41101 70017 333 91212 555 11100 22100 31650 43313 61749 327101 333098 326096 328099 333097 329098
BBXX 51205 18181 99210 71564 46/// ///// 1//// 91748 22200 00243 11405 20804 333// 41403 70027
BBXX 46114 18181 99364 71222 46/// ///// 1//// 91734 22200 00125 11707 21002 331// 41707 70036
BBXX 46060 18181 99606 71468 46/// /1022 10022 49873 58069 91750 555 11234 22251
BBXX 44098 18181 99428 70702 46/// ///// 1//// 91737 22200 00089 10604 20604 310// 41101 70019
BBXX 41115 18181 99184 70673 46/// ///// 1//// 91735 22200 11204 21002 302// 41202 70018
BBXX 46088 18181 99483 71232 46/// /0000 10078 40237 53027 91750 22200 00080 1//00 70002 333 91201 555 11003 22003 31703 42403 61749 342004 306007 270009 256013 249019 269018
BBXX LAVW4 18184 99295 70416 41697 71428 00/// 10225 2020/ 40190 56020 70322 8624/ 22253 00230 20504 313// 40706 5//// 6////
BBXX SHIP 18184 99345 71291 41598 20309 10150 20106 40280 52020 70200 812// 22225 00164 20303 310// 40406 80125
BBXX V2NA1 18184 99404 70418 41396 71720 10215 20177 40190 50000 70522 87778 22224 04170 21004 313// 41004 80190
BBXX KGTY 18184 99534 71575 41898 62342 10022 2108/ 49830 5//// 701// 84/8/ 22224 00039 21015 32219 41215 51011 6//// 81011 ICE /////
BBXX WPGK 18184 99228 70712 41398 61009 10272 2020/ 40161 57027 70322 82816 22234 00267 20601 311// 40402 5//// 6//// 80222 ICE /////
BBXX 46211 18181 99469 71242 46/// ///// 1//// 91736 22200 00087 11306 20804 327// 41305 70031
BBXX KQXZ 18183 99415 71276 41797 70133 10117 2007/ 40230 52030 7//22 8//7/ 22273 0//// 20605 330// 41007 5//// 6//// 80094 ICE /////
BBXX C6OT4 18184 99186 71576 41498 71116 10245 20179 40152 53008 70322 86540 22223 04253 21007 303// 41206 5//// 80203
BBXX LEQZ3 18183 99543 71577 41397 81944 10050 2003/ 49800 52020 75055 88722 22261 00100 80040
BBXX KHRC 18184 99318 71286 41398 72809 10167 2008/ 40255 51009 7//22 87/// 22254 00128 2//// 330// 40703 5//// 6//// 80122 ICE /////
BBXX 3FSB4 18184 99330 71309 41597 60314 10150 2012/ 40280 51010 702// 8416/ 22234 0//// 20402 332// 40502 5//// 6//// 80130 ICE /////
BBXX 46240 18181 99366 71219 46/// ///// 1//// 91742 22200 00122 11702 21001 301// 41701 70008
BBXX 46212 18181 99408 71243 46/// ///// 1//// 91742 22200 00097 11506 21003 330// 41505 70030
BBXX 46237 18181 99378 71226 46/// ///// 1//// 91740 22200 00111 11706 20802 325// 41705 70028
BBXX 46217 18181 99342 71194 46/// ///// 1//// 91742 22200 00147 11201 20401 325// 41201 70007
BBXX 46248 18181 99461 71247 46/// ///// 1//// 91734 22200 00095 11507 20904 329// 41505 70033
BBXX 46244 18181 99409 71244 46/// ///// 1//// 91735 22200 00099 11407 20903 330// 41406 70033
BBXX 46249 18181 99338 71197 46/// ///// 1//// 91742 22200 00147 11802 21001 325// 41801 70009
BBXX ZCDF4 18183 99238 71112 41598 60225 10190 20146 40218 53023 72922 85478 22274 00260 20101 336// 40202 5//// 80164
BBXX DGHX 18183 99339 71786 41298 32217 10180 20112 40130 7//11 83700 22265 00190 2//// 323// 40407 80140
BBXX PDGS 18184 99206 71052 41998 09904 10200 40190 50010 70200 80000 22200 00210 20100
BBXX DMDZ 18183 99221 70422 41298 41416 10247 20205 40170 57010 70122 844// 22263 04250 2//// 307// 40605 5//// 80218
BBXX 42364 18181 99291 70881 46/// /0307 10167 20072 40281 91745
BBXX 42363 18181 99282 70892 46/// /0507 10167 20050 40281 91745 333 91207
BBXX C6SE7 18184 99357 31540 41798 20419 10180 2//// 40120 54000 70322 82873 22234 00200 20306 30404 40306 50306 6//// 8//// ICE /////
BBXX WDD2876 18184 99467 70849 41/98 82115 11005 2//// 40139 57/// 70222 8//// 22263 00056 2//02 3//// 4//// 5//// 6//// 8//// ICE /////
BBXX SHIP 18183 99405 10270 41597 70623 10120 2008/ 40170 52010 7//22 87268 22200 00130 2//// 3//// 4//// 5//// 6//// 80100 ICE /////
BBXX 41012 18181 99300 70805 46/// /3507 10167 40244 58009 91750 22200 00235 10603 20402 336// 40602 70013 333 91209 555 11070 22073 31721 43609 61749 353068 001069 001069 352067 354069 351073
BBXX 41001 18181 99347 70727 46/// ///// 10106 20047 40181 58010 91750 22200 00219 10806 70032
BBXX 41049 18181 99275 70630 46/// /2607 10225 20139 40164 57029 91750 22200 00243 10903 20601 300// 40903 70015 333 91208 555 11070 22073 31716 42608 61749 259066 262060 260062 258065 247060 247057 82507 91716
BBXX 42020 18181 99270 70967 46/// /0908 10219 20166 40248 58014 91750 22200 00238 10603 20603 70014 333 91210 555 11085 22089 31722 40710 61749 091080 093079 086080 090080 088076 080075
BBXX 41044 18181 99217 70587 46/// /0305 10246 20158 40149 57020 91750 22200 00265 11106 20401 300// 41106 70028 333 91208 555 11048 22050 31742 40308 61749 030045 028039 032036 027043 023042 036038 80306 91742
BBXX 41048 18181 99320 70696 46/// /3112 10173 20088 40141 58021 91750 22200 00225 10805 20805 3//// 41303 70027 333 91214 555 11115 22121 31707 43018 61749 308114 309112 312122 311141 313137 311117 83116 91709
BBXX 42065 18181 99149 70750 46/// /0708 10273 20207 91750 22200 10804 20704 3//// 40802 70021 333 91211 555 11090 22096 31720 40711 61749 074084 066084 074087 074084 073081 069086 80810 91720
BBXX 42012 18181 99301 70876 46/// /0305 10128 20040 40280 58007 91750 22200 00205 10502 20401 308// 40501 70008 333 91207 555 11054 22056 31655 40508 61749 027051 036053 026053 030054 032060 038062
BBXX 42001 18181 99259 70897 46/// /0507 10221 20142 40257 58008 91750 22200 00262 10703 20602 3//// 40702 70015 333 91209 555 11075 22078 31700 40512 61749 050073 058079 053074 049078 047079 047078
BBXX 42035 18181 99292 70944 46/// /0807 10148 20090 40279 58009 91750 22200 00170 10502 20502 70011 333 91208 555 11076 22080 31738 40909 61749 080073 082074 081072 083071 083071 085068
BBXX 42058 18181 99149 70749 46/// /0809 10272 20198 40130 58020 91750 22200 00276 10803 20603 309// 40802 70017 333 91211 555 11096 22102 31748 40811 61749 077090 077087 081085 080082 080085 077082 80810 91748
BBXX 42060 18181 99163 70635 46/// /0507 10265 20189 40141 58023 91750 22200 00279 11104 20503 300// 41102 70018 333 91209 555 11077 22081 31700 40509 61749 053072 050075 052071 056072 053072 055076 80508 91700
BBXX 42036 18181 99285 70845 46/// /0308 10152 20067 40252 58015 91750 22200 00213 10603 20603 70016 333 91210 555 11083 22086 31700 40511 61749 033079 034078 034081 040083 040084 041083
BBXX 42056 18181 99198 70849 46/// /0609 10257 20208 40190 58011 91750 22200 00270 10604 20604 312// 40901 70020 333 91211 555 11094 22099 31654 40512 61749 061087 058095 060093 060095 058095 057100 80610 91704
BBXX 42059 18181 99151 70675 46/// /0806 10274 20198 40134 58021 91750 22200 00281 10603 20502 3//// 40602 70014 333 91207 555 11060 22063 31711 40808 61749 082056 082061 086061 085062 088061 087062 80807 91712
BBXX 42019 18181 99279 70954 46/// /1007 10201 20144 40258 58010 91750 22200 10602 20602 311// 40801 70011 333 91209 555 11079 22084 31739 42809 61749 095075 280071 282072 280071 281075 281074
BBXX 44005 18181 99432 70691 46/// /0108 11045 21109 40210 57013 91750 22200 00086 10603 20603 3//// 41101 70015 333 91210 555 11080 22083 31739 40112 61749 009079 002079 004074 004077 000074 357082
BBXX 42003 18181 99260 70856 46/// /0608 1//// 91750 22200 10603 20603 70014 333 91210 555 11086 22091 31712 40610 61749 056079 054079 059077 057079 052081 049083 80609 91712
BBXX 41060 18181 99148 70510 46/// ///// 1//// 91750 22200 11406 70029
BBXX 46105 18181 99590 71522 46/// ///// 1//// 91750 22200 11007 70034
BBXX 46070 18181 99551 11753 46/// /3206 11021 21099 49827 56006 91750 22200 00037 11208 20502 3//// 41208 70041 333 91208 555 11064 22066 31720 43209 61749 318062 322069 325072 321064 321046 311046 83208 91715
BBXX 32012 18181 99197 50856 46/// ///// 1//// 91750 22200 11204 70021
BBXX 46002 18181 99426 71305 46/// ///// 10112 40305 51020 91750 22200 00121 11407 70036
BBXX 46006 18181 99408 71375 46/// /3602 10110 40342 53023 91750 22200 00124 11508 20401 3//// 41508 70038 333 91204 555 11023 22023 31742 43404 61749 001022 020022 357020 018024 039023 030017
BBXX 46084 18181 99566 71361 46/// /1615 10066 20032 40153 58026 91750 22200 00071 10506 20505 300// 41203 70030 333 91218 555 11158 22168 31748 41718 61749 157146 152135 153134 154133 158131 155129
BBXX 46075 18181 99539 71608 46/// /2615 10025 20001 49831 51059 91750 22200 00047 11412 20506 300// 41410 70060 333 91220 555 11158 22168 31713 42622 61749 264151 263159 264143 264165 255139 268124 82618 91715
BBXX 46005 18181 99461 71310 46/// ///03 10091 40302 52011 91750 22200 00100 11607 20401 3//// 41607 70036 333 91205 555 11032 22033
BBXX 46059 18181 99380 71300 46/// /0108 10127 40280 52015 91750 22200 00146 11606 20602 3//// 41605 70028 333 91210 555 11081 22085 31745 40110 61749 010076 004065 009062 015057 017059 021051
BBXX 46080 18181 99580 71500 46/// /1815 10050 20033 49755 54000 91750 22200 00054 11111 20606 3//// 41109 70057 333 91219 555 11156 22166 31727 41822 61749 184144 182160 184163 181150 179148 185134 81818 91727
BBXX 42055 18181 99222 70940 46/// /0706 10252 20195 40230 58005 91750 22200 00253 10703 20602 335// 40702 70014 333 91208 555 11068 22072 31656 40809 61749 068064 069066 068066 069070 066073 068074 80708 91657
BBXX 42040 18181 99292 70882 46/// /0407 10147 40278 58006 91750 22200 00225 10602 20602 70012 333 91209 555 11073 22076 31650 40410 61749 039074 045073 044069 047068 052069 046075
BBXX 42002 18181 99258 70937 46/// /0708 10219 20157 40254 58008 91750 22200 00239 10603 20602 311// 40801 70013 333 91209 555 11078 22083 31736 40710 61749 071079 070076 067076 066077 066075 065073
BBXX 41047 18181 99275 70715 46/// /3113 10225 40186 58013 91750 22200 00252 11204 20403 307// 41203 70019 333 91215 555 11128 22135 31747 43115 61749 305129 301124 297123 291115 289112 286107 83114 91748
BBXX 41036 18181 99342 70770 46/// ///// 10079 21007 40255 58005 91750 22200 00164 10402 70011
BBXX 41043 18181 99211 70650 46/// /0904 10251 20175 40170 58023 91750 22200 00266 11005 20401 300// 41005 70025 333 91205 555 11044 22045 31653 40907 61749 096041 090043 090045 090045 079051 087050 80906 91653
BBXX 44066 18181 99396 70726 46/// /3409 10007 21047 40213 57009 91750 22200 00134 10503 20503 70014 333 91211 555 11090 22093 31734 43313 61749 335085 339083 336085 340083 334078 324084
BBXX 41004 18181 99325 70791 46/// /0107 10122 20051 40263 50000 91750 22200 00219 10902 20502 3//// 40901 70012 333 91209 555 11072 22074 31740 43510 61749 006072 013068 011069 012075 010074 006067
BBXX 44060 18181 99413 70721 46/// ///07 11025 40223 91745 22200 00106 333 91209 555 11072 22077
BBXX 44009 18181 99385 70747 46/// /3210 10028 40246 58011 91750 22200 00119 10603 20602 300// 40701 70013 333 91212 555 11104 22109 31726 43012 61749 319098 317091 314095 311086 311086 318082
BBXX 44022 18181 99409 70737 46/// ///06 11025 21108 40243 91745 22200 00086 333 91208 555 11057 22062
BBXX 44027 18181 99443 70673 46/// /0109 11050 21079 40201 56016 91750 22200 00084 10602 20602 70012 333 91211 555 11089 22092 31733 43611 61749 004085 359087 005087 006082 359084 002084
BBXX 44065 18181 99404 70737 46/// /3208 11020 21092 40236 57008 91750 22200 00101 11102 20301 312// 41101 70008 333 91210 555 11079 22082 31716 43311 61749 321074 327074 333071 331078 332070 334072 83310 91655
BBXX 41013 18181 99334 70777 46/// /3509 10091 20006 40260 50000 91750 22200 00203 10603 20603 309// 41401 70014 333 91212 555 11092 22096 31714 43612 61749 344088 350085 356084 350091 351090 351086
BBXX 44040 18181 99410 70736 46/// /0106 11026 21130 40246 91745 22200 1//00 70002 333 91207 555 11062 22062
BBXX 44020 18181 99414 70702 46/// /0110 11008 21021 40193 57005 91750 22200 00078 10402 20402 70010 333 91212 555 11110 22118 31714 42513 61749 352102 256098 256102 256108 257098 259096
BBXX 46014 18181 99394 71240 46/// /3503 10091 40241 51015 91750 22200 00107 11706 20401 3//// 41706 70030 333 91205 555 11033 22034 31743 43405 61749 351031 025020 021021 032021 029023 042022
BBXX 46011 18181 99350 71210 46/// /3304 10126 40230 51012 91750 22200 00138 11604 20401 331// 41604 70018 333 91205 555 11045 22047 31724 43206 61749 326043 324042 321044 323034 342019 002018
BBXX 46047 18181 99324 71195 46/// /3004 10139 40230 51016 91750 22200 00138 11704 330// 41704 70020 333 91204 555 11037 22040 31650 43004 61749 298034 297027 296030 298030 304030 308029
BBXX 46086 18181 99325 71180 46/// /3004 10147 40223 53012 91750 22200 00151 11403 328// 41403 70014 333 91205 555 11046 22048 31734 42806 61749 297045 291047 290046 290038 293031 290030
BBXX 46027 18181 99419 71244 46/// /3401 10082 40243 51020 91750 22200 00094 11506 20401 329// 41506 70028 333 91202 555 11009 22009 31702 43203 61749 336008 341008 016007 014008 347010 343015
BBXX 46088 18181 99483 71232 46/// /0000 10078 40237 91750 22200 00080 1//00 70002 333 91201 555 11003 22003 31703 42403 61749 342004 306007 270009 256013 249019 269018
BBXX 46050 18181 99442 71246 46/// /3409 10095 40259 52029 91750 22200 00098 11607 20803 330// 41606 70033 333 91211 555 11092 22097 31725 43412 61749 342086 341090 344094 342090 344089 349083
BBXX 46069 18181 99337 71202 46/// /3109 10132 40223 91750 22200 00139 11704 20401 330// 41704 70020 333 91210 555 11094 22099 31736 43011 61749 307088 304088 301086 301081 305075 304074
BBXX 46012 18181 99374 71229 46/// /1801 10100 40234 51012 91750 22200 00120 11607 20401 331// 41607 70033 333 91202 555 11007 22007 31713 41304 61749 183007 151006 127012 133016 135011 135007
BBXX 46013 18181 99382 71233 46/// /0603 10097 40231 52013 91750 22200 00107 11606 20301 3//// 41606 70028 333 91204 555 11031 22032 31708 40704 61749 057030 054030 056030 053032 049032 053031
BBXX 46087 18181 99485 71247 46/// /2901 10076 20075 40242 51031 91750 22200 00079 11506 20401 326// 41506 70032 333 91202 555 11010 22011 31727 42904 61749 286009 295018 294022 344014 356009 353015
BBXX 46029 18181 99461 71245 46/// /3208 10090 20052 40254 51026 91750 22200 00089 11506 20703 329// 41505 70031 333 91210 555 11088 22094 31710 43210 61749 324081 321079 317082 321080 318084 316085
BBXX 46054 18181 99342 71204 46/// /3108 10130 40222 52012 91750 22200 00142 11403 20402 300// 41403 70017 333 91209 555 11082 22086 31652 43210 61749 313077 317076 313079 317081 318083 318085
BBXX 46028 18181 99357 71219 46/// /3005 10120 40224 51011 91750 22200 00136 11706 20401 331// 41706 70031 333 91207 555 11050 22052 31746 43007 61749 301048 305047 305043 305044 308045 312041
BBXX 46025 18181 99337 71191 46/// /2604 10142 20117 40212 51007 91750 22200 00152 11401 324// 41401 70006 333 91205 555 11039 22040 31732 42506 61749 262036 256046 255046 267044 265044 267039
BBXX 3FSB4 18184 99330 71309 41597 60314 10150 20120 40280 51010 702// 8416/ 22234 0//// 20402 332// 40502 5//// 6//// 80130 ICE /////
BBXX 46002 18181 99426 71305 46/// ///// 10112 40305 51020 91750 22200 00121 11407 70036
BBXX 46005 18181 99461 71310 46/// ///03 10091 40302 52011 91750 22200 00100 11607 20401 3//// 41607 70036 333 91205 555 11032 22033
BBXX 46006 18181 99408 71375 46/// /3602 10110 40342 53023 91750 22200 00124 11508 20401 3//// 41508 70038 333 91204 555 11023 22023 31742 43404 61749 001022 020022 357020 018024 039023 030017
BBXX 46012 18181 99374 71229 46/// /1801 10100 40234 51012 91750 22200 00120 11607 20401 331// 41607 70033 333 91202 555 11007 22007 31713 41304 61749 183007 151006 127012 133016 135011 135007
BBXX 46013 18181 99382 71233 46/// /0603 10097 40231 52013 91750 22200 00107 11606 20301 3//// 41606 70028 333 91204 555 11031 22032 31708 40704 61749 057030 054030 056030 053032 049032 053031
BBXX 46014 18181 99394 71240 46/// /3503 10091 40241 51015 91750 22200 00107 11706 20401 3//// 41706 70030 333 91205 555 11033 22034 31743 43405 61749 351031 025020 021021 032021 029023 042022
BBXX 46028 18181 99357 71219 46/// /3005 10120 40224 51011 91750 22200 00136 11706 20401 331// 41706 70031 333 91207 555 11050 22052 31746 43007 61749 301048 305047 305043 305044 308045 312041
BBXX 46054 18181 99342 71204 46/// /3108 10130 40222 52012 91750 22200 00142 11403 20402 300// 41403 70017 333 91209 555 11082 22086 31652 43210 61749 313077 317076 313079 317081 318083 318085
BBXX KQXZ 18183 99415 71276 41797 70133 10117 20070 40230 52030 7//22 8//7/ 22273 0//// 20605 330// 41007 5//// 6//// 80094 ICE /////
BBXX SHIP 18184 99345 71291 41598 20309 10150 20106 40280 52020 70200 812// 22225 00164 20303 310// 40406 80125
AAXX 18181 76040 32960 02702 10131 20090 30204 40218 52011 91740 333 10186 20061 30/// 58019 98660
AAXX 18181 76220 32558 80000 10064 20045 38152 40219 57001 88500 91735 333 10064 21012 30/// 56500 59041 88624
AAXX 18181 76225 32560 60901 10112 20053 38645 40176 50011 84620 91745 333 10112 20078 30/// 56550 59069 84630 82450
AAXX 18181 76256 32980 73001 10183 20117 30203 40217 52012 87030 91745 333 10193 20108 30/// 56/5/ 59002 87356
AAXX 18181 76305 32970 02202 10206 20058 30199 40207 52006 91740 333 10210 20119 30/// 58008
AAXX 18181 76342 31460 80201 10100 20086 39577 40309 57011 70222 886// 91750 333 10105 20085 31/// 561// 59042 88710
AAXX 18181 76390 31968 52503 10179 20058 38276 40199 57002 70544 80006 91730 333 10190 20025 30/// 56005 59028 85070
AAXX 18181 76458 32970 42604 10254 20163 30180 40185 50000 84006 91738 333 10265 20134 30/// 56//9 59005 84070
AAXX 18181 76471 32580 62104 10182 20007 37736 40199 54000 83505 91750 333 10190 20040 30/// 56501 59005 83635 83075
AAXX 18181 76491 32960 00701 10220 20146 39870 40268 57017 91750 333 10223 20118 30/// 59048
AAXX 18181 76499 32860 30000 10216 20148 30222 40244 57014 83030 91750 333 10217 20156 30/// 56090 58/// 83357
AAXX 18181 76525 32970 61303 10122 20064 37513 40225 57002 80006 91740 333 10122 20055 30/// 56//5 59009 86080
AAXX 18181 76548 32475 52202 10220 20151 30254 40264 58012 82434 91735 333 10225 20154 30/// 56325 59024 82617
AAXX 18181 76556 32970 32702 10254 20130 39151 40183 50004 80006 91733 333 10254 20131 30/// 56006 59003 83270 99020
AAXX 18181 76571 32980 00000 10184 20065 38215 40233 55009 91748 333 10188 20080 30/// 59003
AAXX 18181 76577 32970 00000 10182 20093 38087 40210 58005 91740 333 10188 20095 30/// 59004
AAXX 18181 76625 32450 20909 10196 20077 38187 40196 57012 82200 91740 333 10196 20095 30/// 56200 59004 82820
AAXX 18181 76654 31930 02701 10301 20215 30165 40169 52001 70544 91752 333 10301 20218 30/// 59002
AAXX 18181 76658 31560 13203 10306 20154 39656 40167 57014 70540 81200 91748 333 10313 20273 30/// 56800 58004 81822 94082 98924
AAXX 18181 76665 32962 03002 10201 20102 38158 40206 57013 91755 333 10212 20072 30/// 59008
AAXX 18181 76681 31480 23201 10180 20089 37823 40185 57010 70500 82200 91445 333 10180 20068 30/// 50190 55030 50190 59006 70000 82817
AAXX 18181 76685 32570 13601 10204 20041 37901 40205 57004 81100 91750 333 10206 20054 30/// 56900 59002 81827
AAXX 18181 76695 32960 33303 10272 20200 30199 40204 57015 82105 91750 333 10280 20191 30/// 561/0 58005 82825
AAXX 18181 76750 01560 80602 10238 20224 30191 40207 57010 60011 75151 83770 91750 333 10248 20190 31/// 51100 58008 60017 83920 85557
AAXX 18181 76805 32570 12303 10291 20253 30147 40151 50000 81100 91750 333 10311 20220 30/// 565// 58017 81831
AAXX 18181 76833 32970 03511 10296 20158 30157 40159 57008 91745 333 10296 20250 30/// 58013 92011
AAXX 18181 76840 32550 10208 10282 20174 30085 40141 57010 81100 91740 333 10290 20210 30/// 569// 59010 81827 91223 91502 90417
AAXX 18181 76843 32565 13604 10252 20155 39540 40186 57001 81200 91733 333 10264 20176 30/// 58001 81822
AAXX 18181 76855 32580 12301 10320 20242 30076 40126 56001 81200 91740 333 10325 20218 30/// 56900 58002 81820 92000
AAXX 18181 76243 11372 80801 10118 20093 39979 40282 57006 69901 75050 884// 91735 333 10124 20098 30/// 563// 59054 88612
AAXX 18181 76311 32980 40000 10182 20126 39922 40207 50011 80008 91740 333 10186 20098 30/// 56005 58000 84270
AAXX 18181 76405 32875 70000 10200 20160 30193 40215 52009 87020 91750 333 10200 20160 30/// 56040 58008 87457
AAXX 18181 76412 31766 62002 10200 20135 30172 40218 52034 70544 86030 91740 333 10210 20150 30/// 56030 58018 86352
OOXX AAEMI 18184 99785 31731 57083 00521 46/// /0605 11101 21151 39928 49995 57019 91740
AAXX 18181 76040 32960 02702 10131 20090 30204 40218 52011 91740 333 10186 20061 30/// 58019 98660
AAXX 18181 76220 32558 80000 10064 20045 38152 40219 57001 88500 91735 333 10064 21012 30/// 56500 59041 88624
AAXX 18181 76225 32560 60901 10112 20053 38645 40176 50011 84620 91745 333 10112 20078 30/// 56550 59069 84630 82450
AAXX 18181 76256 32980 73001 10183 20117 30203 40217 52012 87030 91745 333 10193 20108 30/// 56/5/ 59002 87356
AAXX 18181 76305 32970 02202 10206 20058 30199 40207 52006 91740 333 10210 20119 30/// 58008
AAXX 18181 76342 31460 80201 10100 20086 39577 40309 57011 70222 886// 91750 333 10105 20085 31/// 561// 59042 88710
AAXX 18181 76390 31968 52503 10179 20058 38276 40199 57002 70544 80006 91730 333 10190 20025 30/// 56005 59028 85070
AAXX 18181 76458 32970 42604 10254 20163 30180 40185 50000 84006 91738 333 10265 20134 30/// 56//9 59005 84070
AAXX 18181 76471 32580 62104 10182 20007 37736 40199 54000 83505 91750 333 10190 20040 30/// 56501 59005 83635 83075
AAXX 18181 76491 32960 00701 10220 20146 39870 40268 57017 91750 333 10223 20118 30/// 59048
AAXX 18181 76499 32860 30000 10216 20148 30222 40244 57014 83030 91750 333 10217 20156 30/// 56090 58/// 83357
AAXX 18181 76525 32970 61303 10122 20064 37513 40225 57002 80006 91740 333 10122 20055 30/// 56//5 59009 86080
AAXX 18181 76548 32475 52202 10220 20151 30254 40264 58012 82434 91735 333 10225 20154 30/// 56325 59024 82617
AAXX 18181 76556 32970 32702 10254 20130 39151 40183 50004 80006 91733 333 10254 20131 30/// 56006 59003 83270 99020
AAXX 18181 76571 32980 00000 10184 20065 38215 40233 55009 91748 333 10188 20080 30/// 59003
AAXX 18181 76577 32970 00000 10182 20093 38087 40210 58005 91740 333 10188 20095 30/// 59004
AAXX 18181 76625 32450 20909 10196 20077 38187 40196 57012 82200 91740 333 10196 20095 30/// 56200 59004 82820
AAXX 18181 76654 31930 02701 10301 20215 30165 40169 52001 70544 91752 333 10301 20218 30/// 59002
AAXX 18181 76658 31560 13203 10306 20154 39656 40167 57014 70540 81200 91748 333 10313 20273 30/// 56800 58004 81822 94082 98924
AAXX 18181 76665 32962 03002 10201 20102 38158 40206 57013 91755 333 10212 20072 30/// 59008
AAXX 18181 76681 31480 23201 10180 20089 37823 40185 57010 70500 82200 91445 333 10180 20068 30/// 50190 55030 50190 59006 70000 82817
AAXX 18181 76685 32570 13601 10204 20041 37901 40205 57004 81100 91750 333 10206 20054 30/// 56900 59002 81827
AAXX 18181 76695 32960 33303 10272 20200 30199 40204 57015 82105 91750 333 10280 20191 30/// 561/0 58005 82825
AAXX 18181 76750 01560 80602 10238 20224 30191 40207 57010 60011 75151 83770 91750 333 10248 20190 31/// 51100 58008 60017 83920 85557
AAXX 18181 76805 32570 12303 10291 20253 30147 40151 50000 81100 91750 333 10311 20220 30/// 565// 58017 81831
AAXX 18181 76833 32970 03511 10296 20158 30157 40159 57008 91745 333 10296 20250 30/// 58013 92011
AAXX 18181 76840 32550 10208 10282 20174 30085 40141 57010 81100 91740 333 10290 20210 30/// 569// 59010 81827 91223 91502 90417
AAXX 18181 76843 32565 13604 10252 20155 39540 40186 57001 81200 91733 333 10264 20176 30/// 58001 81822
AAXX 18181 76855 32580 12301 10320 20242 30076 40126 56001 81200 91740 333 10325 20218 30/// 56900 58002 81820 92000
AAXX 18181 76243 11372 80801 10118 20093 39979 40282 57006 69901 75050 884// 91735 333 10124 20098 30/// 563// 59054 88612
AAXX 18181 76311 32980 40000 10182 20126 39922 40207 50011 80008 91740 333 10186 20098 30/// 56005 58000 84270
AAXX 18181 76405 32875 70000 10200 20160 30193 40215 52009 87020 91750 333 10200 20160 30/// 56040 58008 87457
AAXX 18181 76412 31766 62002 10200 20135 30172 40218 52034 70544 86030 91740 333 10210 20150 30/// 56030 58018 86352
OOXX AAPEG 18184 99779 31666 57186 00051 46/// /0908 11123 21165 39933 49940 57028 91740
AAXX 18181 76040 32960 02702 10131 20090 30204 40218 52011 91740 33310186 20061 30/// 58019 98660
AAXX 18181 76220 32558 80000 10064 20045 38152 40219 57001 88500 91735333 10064 21012 30/// 56500 59041 88624
AAXX 18181 76225 32560 60901 10112 20053 38645 40176 50011 84620 91745333 10112 20078 30/// 56550 59069 84630 82450
AAXX 18181 76256 32980 73001 10183 20117 30203 40217 52012 87030 91745333 10193 20108 30/// 56/5/ 59002 87356
AAXX 18181 76305 32970 02202 10206 20058 30199 40207 52006 91740 33310210 20119 30/// 58008
AAXX 18181 76342 31460 80201 10100 20086 39577 40309 57011 70222 886//91750 333 10105 20085 31/// 561// 59042 88710
AAXX 18181 76390 31968 52503 10179 20058 38276 40199 57002 70544 8000691730 333 10190 20025 30/// 56005 59028 85070
AAXX 18181 76458 32970 42604 10254 20163 30180 40185 50000 84006 91738333 10265 20134 30/// 56//9 59005 84070
AAXX 18181 76471 32580 62104 10182 20007 37736 40199 54000 83505 91750333 10190 20040 30/// 56501 59005 83635 83075
AAXX 18181 76491 32960 00701 10220 20146 39870 40268 57017 91750 33310223 20118 30/// 59048
AAXX 18181 76499 32860 30000 10216 20148 30222 40244 57014 83030 91750333 10217 20156 30/// 56090 58/// 83357
AAXX 18181 76525 32970 61303 10122 20064 37513 40225 57002 80006 91740333 10122 20055 30/// 56//5 59009 86080
AAXX 18181 76548 32475 52202 10220 20151 30254 40264 58012 82434 91735333 10225 20154 30/// 56325 59024 82617
AAXX 18181 76556 32970 32702 10254 20130 39151 40183 50004 80006 91733333 10254 20131 30/// 56006 59003 83270 99020
AAXX 18181 76571 32980 00000 10184 20065 38215 40233 55009 91748 33310188 20080 30/// 59003
AAXX 18181 76577 32970 00000 10182 20093 38087 40210 58005 91740 33310188 20095 30/// 59004
AAXX 18181 76625 32450 20909 10196 20077 38187 40196 57012 82200 91740333 10196 20095 30/// 56200 59004 82820
AAXX 18181 76654 31930 02701 10301 20215 30165 40169 52001 70544 91752333 10301 20218 30/// 59002
AAXX 18181 76658 31560 13203 10306 20154 39656 40167 57014 70540 8120091748 333 10313 20273 30/// 56800 58004 81822 94082 98924
AAXX 18181 76665 32962 03002 10201 20102 38158 40206 57013 91755 33310212 20072 30/// 59008
AAXX 18181 76681 31480 23201 10180 20089 37823 40185 57010 70500 8220091445 333 10180 20068 30/// 50190 55030 50190 59006 7000082817
AAXX 18181 76685 32570 13601 10204 20041 37901 40205 57004 81100 91750333 10206 20054 30/// 56900 59002 81827
AAXX 18181 76695 32960 33303 10272 20200 30199 40204 57015 82105 91750333 10280 20191 30/// 561/0 58005 82825
AAXX 18181 76750 01560 80602 10238 20224 30191 40207 57010 60011 7515183770 91750 333 10248 20190 31/// 51100 58008 60017 8392085557
AAXX 18181 76805 32570 12303 10291 20253 30147 40151 50000 81100 91750333 10311 20220 30/// 565// 58017 81831
AAXX 18181 76833 32970 03511 10296 20158 30157 40159 57008 91745 33310296 20250 30/// 58013 92011
AAXX 18181 76840 32550 10208 10282 20174 30085 40141 57010 81100 91740333 10290 20210 30/// 569// 59010 81827 91223 91502 90417
AAXX 18181 76843 32565 13604 10252 20155 39540 40186 57001 81200 91733333 10264 20176 30/// 58001 81822
AAXX 18181 76855 32580 12301 10320 20242 30076 40126 56001 81200 91740333 10325 20218 30/// 56900 58002 81820 92000
AAXX 18181 76243 11372 80801 10118 20093 39979 40282 57006 69901 75050884// 91735 333 10124 20098 30/// 563// 59054 88612
AAXX 18181 76311 32980 40000 10182 20126 39922 40207 50011 80008 91740333 10186 20098 30/// 56005 58000 84270
AAXX 18181 76405 32875 70000 10200 20160 30193 40215 52009 87020 91750333 10200 20160 30/// 56040 58008 87457
AAXX 18181 76412 31766 62002 10200 20135 30172 40218 52034 70544 8603091740 333 10210 20150 30/// 56030 58018 86352
BBXX BAREU00 18184 99516 70164 46/// ///// 40207 57010 22224
BBXX BAREU51 18184 99381 10134 46/// ///// 40119 52021 22200
BBXX BAREU54 18184 99094 70799 46/// ///// 40123 22200
BBXX BAREU04 18184 99551 70192 46/// ///// 40103 57027 22263
AAXX 18184 85406 12970 02112 10232 20138 40125 58014 60001
AAXX 18184 85418 12570 12321 10225 20146 40134 57015 60001 81500 333 56000 81625
AAXX 18184 85442 12465 31914 10202 20142 40135 57016 60001 83500 333 56400 83618
AAXX 18184 85467 12960 02510 10204 20123 40164 56013 60001
AAXX 18184 85469 42570 40707 10255 20180 40269 52003 83201 333 56200 83820
AAXX 18184 85488 12460 22809 10198 20143 40155 58007 60001 82500 333 56600 82615
AAXX 18184 85874 12982 33223 10162 20030 39489 40095 58020 60001 82201 333 56606 82840
AAXX 18184 85934 12580 73014 10168 20018 49971 57020 60001 85130 333 56660 85820 83358
AAXX 18184 89056 11125 80122 10003 21001 49916 57019 69953 71072 885// 333 56699 88603 93101
AAXX 18184 89057 11360 83507 10005 20000 49925 57015 60053 72672 8672/ 333 56779 86709 88540 93105
AAXX 18184 89058 11460 83617 10018 20005 39904 49925 57020 60011 77077 8272/
AAXX 18184 89059 11402 80309 11001 21015 49929 57019 60033 72272 884// 333 71099 88616
AAXX 18184 89251 32462 70526 10023 21001 49910 57020 83540
AAXX 18184 85586 11457 52507 10180 2018 40168 57010 60001 70522 85500 333 56600 85610
AAXX 18184 85629 12984 01710 10298 20113 40125 57019 60001
AAXX 18184 85682 12970 02416 10230 20131 40169 58011 60001
AAXX 18184 85703 12560 22710 10268 20163 40156 57017 60001 82200 333 56000 82830
AAXX 18184 85743 12570 22805 10232 20101 40177 58017 60001 82100 333 56600 82825
AAXX 18184 85782 12560 51004 10210 20090 40181 57014 60001 85200 333 56500 85830
AAXX 18184 85799 12560 62206 10191 20121 40180 57013 60001 86500 333 56500 84625 85633
AAXX 18183 91802 NIL
AAXX 18183 91809 NIL
AAXX 18183 91831 36/// /1203 10268 20231 40155 51004 555 2////
AAXX 18183 91841 36/// /0703 10271 20216 40141 52020 555 20170
AAXX 18183 91843 31599 21103 10251 20224 40142 52013 60001 70200 82100 333 563// 82825
AAXX 18183 91848 36/// /1205 10257 20214 40127 52004 555 20000
AAXX 18184 97180 12458 50603 10245 20245 30050 40068 56027 82232 333 56000 82819
AAXX 18184 78862 12580 20309 10269 20186 30117 40140 60001 81802 333 10283 20227 59001 81828
AAXX 18184 TAF TKPN 181600Z 1818/1918 05014KT 9999 SCT022 BKN036 PROB40 TEMPO 1818/1918 5000 SHRA BKN015 BKN035
AAXX 18184 TAF TQPF 181600Z 1818/1918 05014KT 9999 SCT022 BKN036 PROB40 TEMPO 1818/1918 5000 SHRA BKN015 BKN035
AAXX 18184 TAF TUPJ 181600Z 1818/1918 05014KT 9999 SCT022 BKN036 PROB40 TEMPO 1818/1918 5000 SHRA BKN015 BKN035
AAXX 18184 EMPO 0600/0624 SHRA BKN015=+TSRA SCT012CB
AAXX 18184 TAF TUPJ 041000Z 04012/0512 07008KT 9999 SCT016 BKN038 SCT270 TEMPO 0412/0512 SHRA BKN015 PROB40 TEMPO 0418/0512 5000 SHRA BKN014 BKN036 PROB30 0420/0512 4000 TSRA FEW012CB
AAXX 18184 918 4000 TSRA FEW012CB
AAXX 18184 N015 BKN036 PROB40 TEMPO 0704/0724 3000 +TSRA SCT011CB BKN012 BECMG 0712/0714 14008KT
AAXX 18184 21/2712 07017G28KT 5000 SHRA BKN015 BKN036 PROB TEMPO 2700/2712 4000 TSRA FEW013CB
AAXX 18184 PROB30 TEMPO 0800/0806 4000 TSRA FEW012CB PROB40 TEMPO 0800/0824 2000 +SHRA/TSRA SCT010CB BKN012 BKN250
AAXX 18184 78700 32578 10408 10338 20214 30132 40137 58012 81100 333 10338 20240 30/// 56000 58002 81830
AAXX 18184 78703 31565 60710 10275 20201 30184 40186 56012 70544 85431 333 10281 20223 30/// 56800 58003 85825
AAXX 18184 78704 11570 50904 10276 20220 30186 40191 56004 60021 70565 84230 333 10280 20205 30/// 56200 58025 84824
AAXX 18184 78705 11570 53603 10279 20205 30172 40190 58015 60091 70564 83130 333 10280 20196 31/// 56300 58002 83828 85358
AAXX 18184 78706 31560 40904 10264 20235 30180 40185 57010 70544 84200 333 10264 20189 30/// 56400 59020 84824
AAXX 18184 78707 NIL
AAXX 18184 78708 01160 73004 10228 20226 30163 40194 58015 60091 72165 84470 333 10228 20207 32/// 58002 60027 81702 83615 87358
AAXX 18184 78711 NIL
AAXX 18184 78714 32570 70000 10262 20207 84270 333 10262 20183 30/// 56110 84826 87458
AAXX 18184 78717 01560 83206 10170 20164 38998 40198 58010 60051 72065 8652/ 333 10170 20130 32/// 56899 59002 60027 86622 88460
AAXX 18184 78718 31660 33612 10224 71544 83430 333 10234 20184 30/// 56800 83840
AAXX 18184 78719 NIL
AAXX 18184 78720 01530 73613 10195 20172 39063 40162 58012 69901 75055 85470 333 10218 20153 30/// 56810 59012 69900 85822 87457
AAXX 18184 78724 32578 40420 10316 20193 30079 40136 51007 83101 333 10316 20256 30/// 56100 58016 83832
AAXX 18184 78858 12580 20610 10273 20183 30084 40140 60001 81831 333 10280 20226 59003 81821
AAXX 18184 81405 02660 20710 10307 20228 30086 40095 60001 82200 333 60007 58003 82835 555 60005
AAXX 18184 91772 11498 60703 10264 20244 4//// 69901 70218 868// 333 561// 82817 86640
AAXX 18184 91776 31498 40910 1//// 2//// 4//// 60001 70200 84200 333 562// 84818
AAXX 18184 91779 31398 50610 10266 20228 40106 53007 60001 70212 83781 333 561/9 81709 83817 85079
AAXX 18184 91784 31498 20312 10267 20240 40098 50001 60001 70200 81135 333 561// 81818
AAXX 18184 91792 31398 70308 10265 20244 40103 53010 60001 70322 83732 333 561// 81709 83816 84464 87177
AAXX 18184 68382 36/// /0909 10191 20146 39382 48557 53013 333 10280 20191 91015 555 91020
AAXX 18184 68352 36/// /0909 10239 20029 39089 48544 52013 333 10326 20238 91011 555 91019
AAXX 18184 78397 111578 62006 10297 20211 30132 40148 60001 70522 82872 333 00999 10306 20224 58004 81822 86074
AAXX 18184 78862 12580 20309 10269 20186 30117 40140 60001 81802 333 10283 20227 59001 81828
AAXX 18184 TAF TKPN 181600Z 1818/1918 05014KT 9999 SCT022 BKN036 PROB40 TEMPO 1818/1918 5000 SHRA BKN015 BKN035
AAXX 18184 TAF TQPF 181600Z 1818/1918 05014KT 9999 SCT022 BKN036 PROB40 TEMPO 1818/1918 5000 SHRA BKN015 BKN035
AAXX 18184 TAF TUPJ 181600Z 1818/1918 05014KT 9999 SCT022 BKN036 PROB40 TEMPO 1818/1918 5000 SHRA BKN015 BKN035
AAXX 18184 EMPO 0600/0624 SHRA BKN015=+TSRA SCT012CB
AAXX 18184 TAF TUPJ 041000Z 04012/0512 07008KT 9999 SCT016 BKN038 SCT270 TEMPO 0412/0512 SHRA BKN015 PROB40 TEMPO 0418/0512 5000 SHRA BKN014 BKN036 PROB30 0420/0512 4000 TSRA FEW012CB
AAXX 18184 918 4000 TSRA FEW012CB
AAXX 18184 N015 BKN036 PROB40 TEMPO 0704/0724 3000 +TSRA SCT011CB BKN012 BECMG 0712/0714 14008KT
AAXX 18184 21/2712 07017G28KT 5000 SHRA BKN015 BKN036 PROB TEMPO 2700/2712 4000 TSRA FEW013CB
AAXX 18184 PROB30 TEMPO 0800/0806 4000 TSRA FEW012CB PROB40 TEMPO 0800/0824 2000 +SHRA/TSRA SCT010CB BKN012 BKN250
AAXX 18184 81405 02660 20710 10307 20228 30086 40095 60001 82200 333 60007 58003 82835 555 60005
BBXX DBFR 18181 99542 10080 46/// /2710 10049 20026 40048 52008 22230 00072
BBXX DBKV 18181 99169 70250 46/// /0603 10242 20185 40149 57004 22230 00236
BBXX DBBT 18181 99418 30021 46/// /2/16 10109 20061 40110 57007 22241 00114
BBXX DBBU 18181 99542 10119 46/// /2715 10046 20024 40019 52016 22261 00057
BBXX DBEA 18181 99540 10084 46/// /2910 10052 20005 40052 52013 22261 00051
BBXX DBJM 18181 99540 10085 46/// /2908 10049 20008 40052 52012 22261 00051
AAXX 18184 08583 31559 70516 10252 20173 40152 70621 81232 333 10285 58004 81622 86360 85070
AAXX 18184 08589 31460 30418 10253 20200 40134 81501 333 10283 59001 81615 83070
AAXX 18184 08594 32460 70617 10247 20170 40145 84231 333 10266 59009 84814 84360 86070
BBXX DBEB 18181 99538 10081 41/// /2711 10052 20052 40051 52010 7//// 22261 00054
BBXX DBFH 18181 99535 10086 46/// /2404 10029 20009 40066 52015 22230 00048
AAXX 18184 78862 12580 20309 10269 20186 30117 40140 60001 81802 333 10283 20227 59001 81828
AAXX 18184 TAF TKPN 181600Z 1818/1918 05014KT 9999 SCT022 BKN036 PROB40 TEMPO 1818/1918 5000 SHRA BKN015 BKN035
AAXX 18184 TAF TQPF 181600Z 1818/1918 05014KT 9999 SCT022 BKN036 PROB40 TEMPO 1818/1918 5000 SHRA BKN015 BKN035
AAXX 18184 TAF TUPJ 181600Z 1818/1918 05014KT 9999 SCT022 BKN036 PROB40 TEMPO 1818/1918 5000 SHRA BKN015 BKN035
AAXX 18184 EMPO 0600/0624 SHRA BKN015=+TSRA SCT012CB
AAXX 18184 TAF TUPJ 041000Z 04012/0512 07008KT 9999 SCT016 BKN038 SCT270 TEMPO 0412/0512 SHRA BKN015 PROB40 TEMPO 0418/0512 5000 SHRA BKN014 BKN036 PROB30 0420/0512 4000 TSRA FEW012CB
AAXX 18184 918 4000 TSRA FEW012CB
AAXX 18184 N015 BKN036 PROB40 TEMPO 0704/0724 3000 +TSRA SCT011CB BKN012 BECMG 0712/0714 14008KT
AAXX 18184 21/2712 07017G28KT 5000 SHRA BKN015 BKN036 PROB TEMPO 2700/2712 4000 TSRA FEW013CB
AAXX 18184 PROB30 TEMPO 0800/0806 4000 TSRA FEW012CB PROB40 TEMPO 0800/0824 2000 +SHRA/TSRA SCT010CB BKN012 BKN250
AAXX 18184 78925 12680 70405 10275 20206 40126 56030 60001 85801 333 10293 20196 59006 83833 84656 85075
AAXX 18184 78397 111578 62006 10297 20211 30132 40148 60001 70522 82872 333 00999 10306 20224 58004 81822 86074
AAXX 18184 78925 12680 70405 10275 20206 40126 56030 60001 85801 333 10293 20196 59006 83833 84656 85075
AAXX 18184 78073 12565 53610 10262 20185 40206 60001 83131 333 58006 83825 85072
AAXX 18184 85406 12970 02112 10232 20138 40125 58014 60001
AAXX 18184 85418 12570 12321 10225 20146 40134 57015 60001 81500 333 56000 81625
AAXX 18184 85442 12465 31914 10202 20142 40135 57016 60001 83500 333 56400 83618
AAXX 18184 85467 12960 02510 10204 20123 40164 56013 60001
AAXX 18184 85469 42570 40707 10255 20180 40269 52003 83201 333 56200 83820
AAXX 18184 85488 12460 22809 10198 20143 40155 58007 60001 82500 333 56600 82615
AAXX 18181 12772 31982 01903 10014 21042 39870 40161 51027 70100 333 10064 4/000
AAXX 18181 12822 36/// /1702 10019 21030 30004 40150 52014 333 10078
AAXX 18181 12843 31981 12001 10020 21033 39985 40159 51016 70200 80002 333 10068 4/000
AAXX 18181 12882 31980 01903 10000 21010 30034 40170 51025 70211 333 10052 4/000
AAXX 18181 12925 36/// /0000 11013 21023 39980 40158 52008 333 10069
AAXX 18181 12942 31982 70803 10016 21011 39912 40163 52008 70311 83038 333 10068 4/000
AAXX 18181 12982 31980 21302 10007 21012 30065 40169 52011 70200 81042 333 10072 4/000
AAXX 18181 10004 NIL
AAXX 18181 10015 01582 22811 10048 20007 30043 40053 52009 69942 70181 81800 222// 02067 333 10063 20039 31002 55300 20000 30000 69907 81823 91117 91213
AAXX 18181 10020 07580 32910 10050 20028 39995 40027 53009 60022 70065 333 10052 20026 3/002 55300 20000 30000 69907 82/26 83/45 91115 91213
AAXX 18181 10035 11580 22706 10019 20000 39976 40035 52013 69952 70181 82800 333 10037 20011 31100 55300 20000 30000 40872 81826
AAXX 18181 10055 12982 12712 10046 20021 30008 40018 51015 69902 80001 333 10049 20035 31003 55300 20000 30000 81070 91116 91213
AAXX 18181 10147 01380 32505 10023 20007 30038 40057 53016 60042 72581 83900 333 10038 20009 31000 55300 20000 30000 40957 69907 81808 82920
AAXX 18181 10162 15965 02507 10012 20003 39960 40044 51020 69942 333 10034 20011 3/000 55300 20000 30000
AAXX 18181 10184 01580 72704 10025 20012 30005 40013 53016 60022 72781 873// 333 10032 20012 31000 55300 20000 30000 60017 87921 96488
AAXX 18181 10200 01465 72708 10020 20005 30085 40083 53015 60022 78381 8597/ 333 10056 20019 32000 55300 20000 30000 69957 84818 82920 91114 96487
AAXX 18181 10224 01475 52505 10016 20003 30074 40080 53016 60072 78381 85300 333 10032 20000 35100 4/998 55300 20000 30000 69907 82915 84819 96283
AAXX 18181 10270 NIL
AAXX 18181 10338 01570 42604 10022 20005 30014 40088 52020 60012 72581 84200 333 10036 20017 31000 55300 20000 30000 69917 84820
AAXX 18181 10361 01482 72605 10029 20005 39978 40083 52020 60022 72187 8487/ 333 10043 20014 31001 55300 20000 30000 60017 82815 84650 87360 91113
AAXX 18181 10393 01468 82605 10022 20012 39933 40061 51026 69932 72162 875// 333 10038 20016 31001 55300 20000 30000 69937 84710 87626 91116
AAXX 18181 10400 01570 22203 10008 21002 30080 40131 51011 60012 70181 81101 333 10051 20006 32101 55300 20000 30000 69967 81831 96483
AAXX 18181 10438 17673 71802 10003 21017 39831 40118 53014 69922 70050 333 10030 20003 3/102 55300 84/42 87/68
AAXX 18181 10469 01275 82508 10023 20001 39925 40092 53021 69922 76871 8552/ 333 10041 20020 31001 55300 69927 81704 83632 88463 91114
AAXX 18181 10488 11381 82507 10021 21012 39806 40091 53018 69902 70386 878// 333 10030 20011 31101 55300 20000 30000 41082 82808 83819 86642 96483
AAXX 18181 10506 01382 42704 11009 21029 39553 40152 51014 60022 70181 84200 333 10004 21009 3/103 43003 55300 20000 30000 69907 84807 96485
AAXX 18181 10548 01470 72604 10005 21023 39575 40127 52020 69922 72687 878// 333 10008 21002 31100 41998 55300 20000 30000 69907 84813 86636 96285 96485
AAXX 18181 10637 01580 72302 10021 21001 30006 40147 53018 60012 72686 873// 333 10031 20011 32101 55300 69957 81925 83638 87650
AAXX 18181 10685 01568 72404 11015 21025 39430 40120 51017 60022 70287 875// 333 11002 21019 3/104 47006 55300 20000 30000 69917 87625 96485 96471
AAXX 18181 10738 01475 82705 10012 21011 39679 40159 53023 69902 77887 885// 333 10029 21003 31102 55300 69907 82712 86619 87650 96485 96471
AAXX 18181 10763 01262 82602 10002 21005 39748 40140 53020 69952 72272 885// 333 10026 20002 31101 55300 20000 30000 69947 84705 87612
AAXX 18181 10788 07370 52204 10004 21000 39704 40146 53016 69912 75175 333 10026 21007 3/102 55300 20000 30000 69917 83/08 85/56
AAXX 18181 10852 01584 72304 11002 21017 39572 40156 53019 69902 70282 878// 333 10018 21002 31101 55300 20000 30000 69907 81826 87650
AAXX 18181 10946 07474 52003 11015 21030 39311 40165 53015 60022 72475 333 10006 21015 3/106 55300 20000 30000 69907 81/16 85/56
AAXX 18184 85586 11457 52507 10180 2018 40168 57010 60001 70522 85500 333 56600 85610
AAXX 18184 85629 12984 01710 10298 20113 40125 57019 60001
AAXX 18184 85682 12970 02416 10230 20131 40169 58011 60001
AAXX 18184 85703 12560 22710 10268 20163 40156 57017 60001 82200 333 56000 82830
AAXX 18184 85743 12570 22805 10232 20101 40177 58017 60001 82100 333 56600 82825
AAXX 18184 85782 12560 51004 10210 20090 40181 57014 60001 85200 333 56500 85830
AAXX 18184 85799 12560 62206 10191 20121 40180 57013 60001 86500 333 56500 84625 85633
AAXX 18184 85874 12982 33223 10162 20030 39489 40095 58020 60001 82201 333 56606 82840
AAXX 18184 85934 12580 73014 10168 20018 49971 57020 60001 85130 333 56660 85820 83358
AAXX 18184 89056 11125 80122 10003 21001 49916 57019 69953 71072 885// 333 56699 88603 93101
AAXX 18184 89057 11360 83507 10005 20000 49925 57015 60053 72672 8672/ 333 56779 86709 88540 93105
AAXX 18184 89058 11460 83617 10018 20005 39904 49925 57020 60011 77077 8272/
AAXX 18184 89059 11402 80309 11001 21015 49929 57019 60033 72272 884// 333 71099 88616
AAXX 18184 89251 32462 70526 10023 21001 49910 57020 83540
AAXX 18184 85432 12960 02518 10225 20027 37751 48427 57013 60001
AAXX 18184 78925 12680 70405 10275 20206 40126 56030 60001 85801 333 10293 20196 59006 83833 84656 85075
AAXX 18184 91487 NIL
AAXX 18184 91490 NIL
AAXX 18184 91533 NIL
AAXX 18184 91601 NIL
AAXX 18184 91610 11599 61018 10266 20225 40072 53010 60001 70312 83460 333 5629/ 83 91623 NIL
AAXX 18184 91629 NIL
AAXX 18184 91701 11599 21012 10270 2024/ 60001 70200 82100 562// 82818
BBXX BATFR15 18184 99180 70575 44898 23510 10250 20187 40136 56022 70000 82152 22264 00275 20802 305// 40802 5////
BBXX FVNM 18184 99056 70870 46/// /3002 10260 20219 40122 58013 22200 00260
BBXX BATFR09 18184 99461 70049 44497 53609 10094 20024 40262 53004 70282 85700 22223 00140 20102 335// 40506 5////
BBXX BATFR41 18184 99411 10012 46/// ///// 10102 21003 40206 53018 22200
BBXX BATFR04 18184 99598 70106 46/// /2007 10060 20002 40124 58011 22200 00100
AAXX 18184 40250 32960 01304 10114 21049 39440 40247 52016 333 10188
AAXX 18184 40260 32960 00000 10076 21070 39450 40252 52036 333 10175
AAXX 18184 40296 32960 00000 10154 20069 40190 52007 333 10220
AAXX 18184 40265 32960 00000 10075 21058 39443 40259 52008 333 10166
BBXX BATFR14 18184 99209 70559 44898 40407 10250 20177 40137 56024 70300 84162 22214 00262 305// 410// 5////
BBXX BATFR05 18184 99063 10034 46/// /2109 10279 20242 40094 53010 22200 00260
BBXX BATFR19 18184 99065 30060 46/// /1912 10234 20187 40112 56001 22241 00254
BBXX BATFR12 18184 99481 70075 46/// /3117 10109 20054 40260 53006 22281 00144
BBXX BATFR42 18184 99443 70040 46/// /3420 10107 20029 40256 22284 00152
BBXX BATFR54 18184 99454 70008 46/// /3212 10079 20012 40242 22273 00105
BBXX BATFR16 18184 99466 70047 46/// /3223 10104 20032 40253 53019 22263 00139
BBXX BATFR60 18184 99512 10017 46/// /3029 10049 21001 40150 53028 22253 00102
BBXX BATEU07 18184 99346 31288 46/// /0406 10167 40106 53003 22264
AAXX 18184 91487 NIL
AAXX 18184 91490 NIL
AAXX 18184 91533 NIL
AAXX 18184 91601 NIL
AAXX 18184 91610 11599 61018 10266 20225 40072 53010 60001 70312 83460 333 5629/ 83 91623 NIL
AAXX 18184 91629 NIL
AAXX 18184 91701 11599 21012 10270 2024/ 60001 70200 82100 562// 82818
BBXX BATFR46 18184 99366 70031 44/96 41109 10149 20094 40215 51014 70131 83/4/ 22263 00159 21002 314// 41502 5////
BBXX BATEU06 18184 99526 70494 46/// /2628 11052 21108 4//// 22264 00052
BBXX BATFR45 18184 99063 30469 46/// ///// 10289 20237 40106 52018 22214 00317
BBXX BATFR02 18184 99500 70006 46/// /3232 10080 20012 40188 22284 00129
BBXX BATEU08 18184 99621 70286 46/// /2522 10030 21023 49967 53011 22262
BBXX BATEU01 18184 99493 70401 44597 72810 10077 20002 40187 53011 70222 84563 22224 00134 21002 327// 41002 5////
AAXX 18181 01001 11575 22703 11089 21123 30070 40082 57003 60002 70220 82100 333 11058 91107
AAXX 18181 01008 11487 71002 11031 21057 39983 40017 52005 60002 70321 8457/ 333 11025 91104
AAXX 18181 01010 41989 30904 11004 21040 30012 40028 52003 70300 80008 333 11004 91108
AAXX 18181 01026 11889 40301 11042 21064 39896 40041 52003 69912 70300 81078 333 11033 4/022 91103
AAXX 18181 01055 46/// /1003 10014 21017 30038 40056 52005 333 10019 91104
AAXX 18181 01062 NIL
AAXX 18181 01098 11360 72802 11017 21026 30055 40074 52002 69902 70322 8467/ 333 10008 91105
AAXX 18181 01115 11988 00506 10031 21022 39964 49985 58002 60002 70200 333 10036 91107
AAXX 18181 01152 11983 80906 11008 21049 39980 49996 57003 60002 70322 80007 333 10013 91110
AAXX 18181 01205 NIL
AAXX 18181 01212 16/// /3111 10057 20034 39962 49978 53002 6//// 333 10061 91114
AAXX 18181 01271 16/// /1203 11082 21100 39964 49985 58002 6//// 333 11078 91105
AAXX 18181 01288 11X09 90000 11086 21097 39209 49975 58007 60002 74541 333 11073 91101
AAXX 18181 01300 NIL
AAXX 18181 01317 11240 81401 10009 21002 30013 40028 51006 60022 78382 876// 333 10010 91107
AAXX 18181 01367 NIL
AAXX 18181 01384 11989 13103 11028 21056 39693 49941 58006 60002 70200 80008 333 11017 91107
AAXX 18181 01403 11580 5//// 10039 20018 39966 40035 51008 60062 70282 85900 333 10041
AAXX 18181 01415 16/// /3506 10032 20011 30022 40032 51011 6//// 333 10033 91108
AAXX 18181 01482 46/// /3107 10011 21037 39946 49954 50000 333 10014 91110
AAXX 18181 01492 NIL
AAXX 18181 01003 NIL
AAXX 18181 01007 11550 81601 11035 21061 39998 40007 53001 60002 77121 887// 333 11032 44004 91106
AAXX 18181 01028 11880 31105 11007 21013 30035 40055 53006 69902 70121 83030 333 11007 91108
AAXX 18181 01047 31588 83205 11052 21060 39671 40048 54001 70222 885// 333 11005
AAXX 18181 01049 16/// /2002 11044 21059 30058 40062 52006 60002 333 11013 91105
AAXX 18181 01078 11375 71701 11015 21047 30052 40065 52006 60002 70221 85130 333 11015 91105
AAXX 18181 01102 46/// /0303 10022 21035 39954 49974 58005 333 10029 91106
AAXX 18181 01160 41989 3//// 10013 21059 39987 40004 58003 70200 80008 333 10023
AAXX 18181 01218 NIL
AAXX 18181 01238 41482 32505 11029 21048 38824 49951 58003 70120 82940 333 11029 91108
AAXX 18181 01241 11360 81206 11006 21012 39961 49973 52002 69902 76876 887// 333 11005 91110
AAXX 18181 01281 NIL
AAXX 18181 01338 16/// /2101 10001 21007 39940 40007 58003 60012 333 10003 91104
AAXX 18181 01359 NIL
AAXX 18181 01397 16/// /3304 11025 21053 39488 49925 58014 60002 333 11024 91109
AAXX 18181 01400 NIL
AAXX 18181 01427 11582 13207 10035 21003 39999 40015 53015 60002 70200 81200 333 10041 91113
AAXX 18181 01447 NIL
AAXX 18181 01448 46/// /3505 10008 21040 39983 49993 52009 333 10012 91107
BBXX CGDS 18184 99452 70740 46/// /0802 11080 21152 4//// 5//// 7//// 8//// 22212 00057 2////
BBXX CGDS 18184 99452 70740 46/// /0802 11080 21152 4//// 5//// 7//// 8//// 22212 00057 2////
AAXX 18184 91408 32466 80603 10267 20235 30030 40068 57015 84201 333 569/9 70003 555 91818
AAXX 18184 85432 12960 02518 10225 20027 37751 48427 57013 60001
AAXX 18181 33815 32997 52502 10026 21021 39955 40166 52034 85030 333 10073 555 80018
AAXX 18184 78897 11570 70408 10268 20178 40135 57025 69941 70286 85802 333 021// 10269 20201 59001 70014 81823 85643
AAXX 18184 91408 32466 80603 10267 20235 30030 40068 57015 84201 333 569/9 70003 555 91818
AAXX 18184 78970 11570 50308 10317 20195 30084 40109 60001 71511 83842 333 01299 10327 20222 58001 82822 84081
AAXX 18184 78962 12582 10310 20187 30115 40123 60001 81402 333 00209 10300 20222 58003 81630
AAXX 18184 78897 11570 70408 10268 20178 40135 57025 69941 70286 85802 333 021// 10269 20201 59001 70014 81823 85643
AAXX 18181 10609 11580 32804 10009 21015 39824 40162 51017 69952 70161 83500 333 10031 20005 31101 55300 20000 30000 83621
AAXX 18181 10616 01265 72803 11007 21014 39539 40155 51017 60022 70272 878// 333 10003 21007 3/101 43003 55300 69907 81804 84806 87640
AAXX 18181 10641 07564 72303 10014 20000 39995 40145 53018 69982 72476 333 10032 20005 3/102 55300 69907 81/30 86/46 87/56
AAXX 18181 10655 01572 73005 10008 21003 39804 40140 53020 69912 70272 81571 333 10032 20006 31101 55300 20000 30000 69917 81630 83365 85080
AAXX 18181 10675 07766 82401 10003 21005 39837 40136 51019 69982 70076 333 10031 20002 3/101 55300 20000 30000 69957 87/50 88/61 88/65
AAXX 18181 10688 07357 72204 11001 21011 39599 40134 52020 69932 77775 333 10019 21001 3/100 55300 20000 30000 69927 82/08 86/12 87/16
AAXX 18181 10708 01480 62604 10003 21010 39771 40167 51020 60012 70387 84801 333 10018 20002 31101 55300 20000 30000 69917 81814 83623 96485
AAXX 18181 10729 07563 51401 10003 21003 30038 40164 51022 60032 70076 333 10048 20001 3/101 55300 20000 30000 69977 83/25 84/32 85/56
AAXX 18181 10731 01765 82204 10021 20009 30013 40160 51024 69952 70286 885// 333 10040 20017 31001 55300 20000 30000 69907 88656
AAXX 18181 10742 07257 72702 10007 21001 39814 40154 52023 69942 72476 333 10027 20007 3/100 55300 20000 30000 69907 87/05 87/31
AAXX 18181 10776 12482 71801 10005 21011 39686 40140 52016 60002 8585/ 333 10033 21007 31102 55300 20000 30000 82813 85650 87359
AAXX 18181 10791 01/00 92310 11070 21076 38451 48401 51017 69922 74974 333 11067 21075 49085 55300 69927
AAXX 18181 10805 01482 81702 10020 20008 39978 40174 51025 60012 70186 8757/ 333 10040 20010 31000 55300 20000 30000 69937 81715 87647 96483 96458
AAXX 18181 10815 01161 73004 11026 21028 39201 48425 53024 60042 78587 878// 333 11016 21027 3/104 48019 55300 20000 30000 60027 81803 85814 96285 96486 96485 96478
AAXX 18181 10836 01/03 92707 11022 21022 39260 40153 53014 69952 77374 333 11005 21025 3/103 44005 55300 20000 30000 69957 89/03 96047
AAXX 18181 10870 01482 62505 10004 21016 39606 40153 53016 69962 72681 8487/ 333 10026 21007 3/102 42001 55300 69907 82814 83643 86358 96285 96485
AAXX 18181 10895 12580 62303 11006 21023 39565 40150 51015 69902 82870 333 10014 21012 3/103 42001 55300 20000 30000 81820 84357
AAXX 18181 10908 01/01 93208 11071 21071 38425 48427 51019 60052 77174 333 11066 21074 3/108 49047 55300 20000 30000 60027 89/01 91113 96049 96036
AAXX 18181 10929 01482 52403 10008 21011 39624 40168 52019 69902 70181 85800 333 10034 20002 31101 4/998 55300 20000 30000 69907 84816 85657 96485
AAXX 18181 10948 07680 62502 11041 21041 39197 48424 51017 60032 70070 333 10009 21047 3/107 4/033 55300 20000 30000 60027 81/34 85/57 86/58
AAXX 18181 10961 11/05 82805 11176 21190 36955 47912 53009 69992 77174 8657/ 333 11163 21178 49120 55300 20000 40895 866// 83320 91118 91211 95199 96041
AAXX 18181 10962 01582 72405 11036 21046 38982 48419 53013 69912 70284 878// 333 10006 21040 3/105 48003 55300 20000 30000 69917 83823 86643 91115 96485 96447
AAXX 18181 10980 11/04 72507 11091 21102 38059 48421 53008 69932 74174 8657/ 333 11082 21096 3/110 48033 55300 20000 30000 866// 86350 91113 91211
AAXX 18181 10007 NIL
AAXX 18181 10044 NIL
AAXX 18181 10046 12975 22505 10022 21005 39995 40034 52015 60002 81031 333 10043 20012 31100 81362
AAXX 18181 10091 15588 32713 10033 20001 39942 49993 53013 69982 333 10039 20018 3/001 55300 20000 30000 82/20 83/62 91117 91213
AAXX 18181 10113 01578 12608 10043 20014 30051 40070 53009 69952 78081 81200 333 10059 20031 31002 55300 20000 30000 69907 81826 91117 91214 96487
AAXX 18181 10124 NIL
AAXX 18181 10131 01678 52804 10040 20008 30042 40057 52015 60082 72581 83902 333 10052 20012 31001 55300 20000 30000 69907 83935 83080 91113
AAXX 18181 10170 01486 32610 10041 20015 30005 40021 52017 60012 70181 83200 333 10047 20022 31002 55300 20000 30000 69907 83817 91116 91213
AAXX 18181 10264 06380 62606 10013 20002 39938 40046 53020 69942 333 10029 20013 3/000 55300 20000 30000 69907 86/09
AAXX 18181 10291 01482 52406 10023 20011 39970 40038 51016 69992 72186 85500 333 10032 20015 31000 55300 20000 30000 69917 82711 84620
AAXX 18181 10315 12481 32405 10016 20004 30044 40110 51014 60002 83500 333 10046 20006 31101 55300 20000 30000 83612
AAXX 18181 10379 01382 82607 10024 20008 39938 40061 53021 69922 72052 875// 333 10036 20021 31001 55300 20000 30000 41148 69907 81709 87619 91114
AAXX 18181 10382 01481 82706 10026 20009 30013 40059 53022 69992 72186 876// 333 10036 20019 31000 55300 20000 30000 69927 87710
AAXX 18181 10384 06/// /2506 10028 20010 39998 40059 53021 60012 333 10043 20026 3/001 55300 20000 30000 69937
AAXX 18181 10427 01/06 92809 11033 21033 39090 48386 51013 60022 77074 333 11026 21033 3/104 48046 55300 20000 30000 69927 91115 96041
AAXX 18181 10430 01475 72505 10019 20004 39917 40113 53018 60032 70282 878// 333 10028 20003 31100 55300 20000 30000 69997 81812 84830 86647 96488 96487 96481 96480
AAXX 18181 10439 11575 72203 10006 21015 39900 40125 53019 69912 70362 878// 333 10041 21001 31103 83828 87642
AAXX 18181 10453 11/90 92715 11053 21054 38734 48365 53020 60072 74974 333 11047 21053 3/105 49118 55300 91126 91218 90343 91220 96036 96473 96468 96449 96436
AAXX 18181 10496 01481 82506 10025 20008 39987 40073 53026 69902 72582 875// 333 10040 20016 31001 55300 20000 30000 69907 87617
AAXX 18181 10499 11685 62407 10020 21016 39789 40083 51018 69902 70275 86500 333 10026 20010 31101 55300 20000 30000 84641 84657
AAXX 18181 10505 12470 12406 10004 21005 39856 40145 53007 60012 81500 333 10018 21002 32101 4/998 55300 20000 30000 81613
AAXX 18181 10513 01482 72603 10020 20008 30021 40145 51018 60032 70282 878// 333 10042 20002 31100 55300 20000 30000 69957 83814 83630 86650 96484
AAXX 18181 10532 07443 72204 10003 20001 39880 40134 53017 60022 72470 333 10031 20002 3/101 55300 20000 30000 69977 82/15 87/21 87/35
AAXX 18181 10544 01/00 92705 11037 21037 39023 48395 52019 60062 74974 333 11029 21037 3/104 48020 55300 69907 96147 96278 96478 96473 96441
AAXX 18181 10554 11580 42705 10005 21015 39718 40114 51019 69902 70275 84800 333 10019 21001 34102 55300 20000 30000 81823 84643 96477 96471
AAXX 18181 10567 01583 72504 10012 21013 39726 40109 53019 69922 70272 878// 333 10018 20005 31100 55300 20000 30000 69907 81826 87633
AAXX 18181 10578 11/01 92712 11057 21062 38679 48378 53018 60032 74974 333 11047 21057 3/106 49056 55300 20000 30000
AAXX 18184 78958 42580 20406 10291 20195 30110 40120 60001 81441 333 10301 20225 58000 81824
AAXX 18181 01037 NIL
AAXX 18181 01046 11889 31603 11034 21082 30044 40051 50003 60002 70210 81045 333 11020 91108
AAXX 18181 01058 16/// /2901 11082 21093 39589 40069 52002 69922 333 11040 4/016 91103
AAXX 18181 01065 NIL
AAXX 18181 01092 NIL
AAXX 18181 01107 16/// /0507 10032 2//// 39996 40001 50000 60002 333 10042 91110
AAXX 18181 01114 16/// /0502 11043 21064 39977 49988 58004 60002 333 11032 91104
AAXX 18181 01144 46/// /0405 10022 21039 333 10024 91107
AAXX 18181 01199 NIL
AAXX 18181 01245 NIL
AAXX 18181 01259 16/// /1002 10005 21051 39951 49974 50000 60002 333 10023 91107
AAXX 18181 01262 NIL
AAXX 18181 01278 31065 61101 11084 21096 39877 49983 58006 74011 866// 333 11050
AAXX 18181 01293 16/// /0000 11120 21130 39772 49990 58008 60002 333 11119 91102
AAXX 18181 01329 NIL
AAXX 18181 01337 NIL
AAXX 18181 01344 16/// ///// 11042 21048 60012 333 11042 4/081
AAXX 18181 01364 16/// /2706 11043 21067 38862 49988 50004 60002 333 11039 4/038 91110
AAXX 18181 01373 11989 00000 11160 21175 39780 49988 58005 60002 70200 333 11146 91101
AAXX 18181 01374 NIL
AAXX 18181 01380 11985 03204 11062 21075 60002 70210 333 11046 4/025 91109
AAXX 18181 01389 NIL
AAXX 18181 01393 NIL
AAXX 18181 01424 11360 8//// 11045 21054 30033 40036 51010 60002 70372 886// 333 11036
AAXX 18181 01431 16/// /3403 11039 21054 39350 40027 52012 60002 333 11037 91108
AAXX 18181 01436 NIL
AAXX 18181 01465 11985 23209 10016 21038 39965 49984 52005 60002 70200 80001 333 10016 91111
AAXX 18181 01471 16/// /0000 11076 21086 60002 333 11062 91100
AAXX 18181 01483 NIL
AAXX 18181 11816 12765 50000 10028 21027 39984 40150 52021 60002 82540 333 10069 82656 84357
AAXX 18181 11826 12780 71702 10034 21023 39941 40144 52016 60002 85540 333 10054 85650 87357
AAXX 18181 11903 12660 73201 11001 21008 39762 40152 52020 69922 875// 333 10040 83640 87650
AAXX 18181 11934 11681 52204 11025 21065 39299 42738 53020 69902 70377 85500 333 10014 42001 85643
AAXX 18181 11968 12770 12103 10009 21022 39862 40149 52026 60002 81500 333 10046 81650
AAXX 18181 01025 16/// /0501 11054 21071 30029 40040 50002 60002 333 11050 91104
AAXX 18181 01052 16/// /0501 11057 21089 39952 40052 52004 60002 333 11024 91104
AAXX 18181 01122 16/// /1602 11089 21100 39898 49991 57003 60002 333 11082 91103
AAXX 18181 01132 16/// /2401 11064 21077 39586 49983 58004 60002 333 11060 4/036 91103
AAXX 18181 01156 NIL
AAXX 18181 01203 46/// /3013 10053 20020 39960 40008 51007 333 10058 91119
AAXX 18181 01233 16/// /1302 11022 21039 60002 333 11016 91105
AAXX 18181 01265 NIL
AAXX 18181 01273 NIL
AAXX 18181 01307 46/// /3214 10048 20018 39989 40016 58001 333 10055 91119
AAXX 18181 01321 16/// /3301 11006 21008 39746 40001 54001 60092 333 11001 91103
AAXX 18181 01327 16/// /2903 11011 21021 69992 333 11010 91105
AAXX 18181 01350 16/// /2713 11053 21059 38585 49964 50001 60002 333 11049 91115
AAXX 18181 01361 16/// /2906 11022 21040 38952 49977 57002 60022 333 11022 91109
AAXX 18181 01375 NIL
AAXX 18181 01378 16/// /0202 11051 21065 39652 49949 58008 60002 333 11050 91107
AAXX 18181 01385 16/// /2702 11040 21055 39675 49950 58007 60002 333 11028 91106
AAXX 18181 01412 16/// /3509 10037 20017 30000 40030 51009 69952 333 10040 91115
AAXX 18181 01422 16/// /1002 11005 21016 60002 333 11001 91105
AAXX 18181 01440 NIL
AAXX 18181 01441 NIL
AAXX 18181 01467 NIL
AAXX 18181 01469 NIL
AAXX 18181 01477 16/// /3102 11016 21053 60002 333 11014 4/020 91105
AAXX 18181 01480 16/// /3303 11064 21085 60002 333 11059 91109
AAXX 18181 01484 16/// /3602 11060 21072 39784 49944 57005 60002 333 11022 91104
AAXX 18181 01490 16/// /3504 11036 21046 60002 333 11034 91110
AAXX 18181 01495 16/// /3208 10021 21029 39937 49950 58001 60002 333 10022 91111
AAXX 18181 01015 NIL
AAXX 18181 01023 41689 50000 11104 21110 39941 40041 52001 70222 81508 333 11097 91101
AAXX 18181 01033 46/// /3502 10010 21037 30005 40036 50003 333 10019 91106
AAXX 18181 01059 11689 11502 11053 21063 30054 40064 52008 60002 70200 81100 333 11006 91105
AAXX 18181 01089 16/// /0000 11025 21025 39958 40066 58000 6//// 333 11023 91103
AAXX 18181 01167 31988 53302 11017 21053 30012 40017 54001 70310 80006 333 11004 91105
AAXX 18181 01180 NIL
AAXX 18181 01210 41582 43108 10056 20024 39961 49987 53003 72582 83961 333 10057 91113
AAXX 18181 01228 NIL
AAXX 18181 01240 16/// /0000 10023 21006 39951 49971 50003 6//// 333 10028 91108
AAXX 18181 01304 46/// /3314 10058 20025 39976 40007 50003 333 10060 91118
AAXX 18181 01311 46/// /3302 10008 20008 39967 40030 51007 333 10008 91103
AAXX 18181 01340 NIL
AAXX 18181 01355 16/// ///// 11027 21039 30003 40008 58002 60002 333 11011
AAXX 18181 01360 NIL
AAXX 18181 01392 11978 23106 11013 21043 39706 49932 58008 60002 70200 80001 333 11013 91113
AAXX 18181 01406 46/// /3606 10037 20024 30011 40029 51007 333 10056 91118
AAXX 18181 01411 16/// /3307 10031 20018 30008 40034 51011 6//// 333 10038 91113
AAXX 18181 01425 NIL
AAXX 18181 01433 46/// /3110 11034 21060 38741 40003 53008 333 11034 91118
AAXX 18181 01442 11989 03503 11030 21048 39741 40003 52006 60002 70200 333 11018 91106
AAXX 18181 01450 NIL
AAXX 18181 01452 11984 13207 10012 21055 39972 49994 52007 60002 70100 80002 333 10012 91110
AAXX 18181 01473 16/// /3602 11088 21099 39756 49972 58004 6//// 333 11078 91103
AAXX 18181 01494 16/// /3003 11014 21048 39887 49953 57001 60002 333 11001 91106
AAXX 18184 78958 42580 20406 10291 20195 30110 40120 60001 81441 333 10301 20225 58000 81824
AAXX 18181 01121 46/// /0405 10029 21028 39973 49985 58005 333 10029 91106
AAXX 18181 01135 16/// /0401 11058 21064 39835 49991 57005 60002 333 11040 91102
AAXX 18181 01143 16/// /1601 11042 21068 60002 333 10015 91105
AAXX 18181 01150 16/// /1101 11066 21087 60002 333 11051 91104
AAXX 18181 01192 NIL
AAXX 18181 01225 46/// /3404 10062 20032 39959 49964 52003 333 10065 91109
AAXX 18181 01230 16/// /0000 11044 21049 69942 333 11041 4/026 91102
AAXX 18181 01232 16/// /0000 11019 21025 39905 49985 58002 69942 333 11019 4/006 91104
AAXX 18181 01234 16/// /1902 11037 21042 60012 333 11036 91104
AAXX 18181 01253 16/// /0000 11053 21057 60022 333 11053 4/030 91102
AAXX 18181 01254 16/// /1802 11064 21073 69982 333 11064 4/019 91105
AAXX 18181 01257 NIL
AAXX 18181 01277 NIL
AAXX 18181 01291 16/// /3501 11129 21143 60002 333 11128 4/018 91102
AAXX 18181 01332 16/// /0000 11010 21020 60032 333 11008 91101
AAXX 18181 01366 46/// /2903 11081 21093 38360 49994 57004 333 11072 91106
AAXX 18181 01370 NIL
AAXX 18181 01376 16/// /3201 11083 21093 60002 333 11076 91106
AAXX 18181 01383 46/// /3202 11058 21066 39640 49960 57007 333 11058 91106
AAXX 18181 01386 16/// ///// 11075 21086 60002 333 11043
AAXX 18181 01416 16/// ///// 10020 20020 60002 333 10021
AAXX 18181 01419 NIL
AAXX 18181 01430 16/// ///// 10004 21044 60002 333 10020
AAXX 18181 01434 16/// /2101 11040 21073 39028 49993 50004 60002 333 11016 91107
AAXX 18181 01455 NIL
AAXX 18181 01468 16/// /3003 11030 21051 60002 333 11022 91107
AAXX 18181 01470 16/// /3102 11069 21076 39859 49977 57001 60002 333 11041 4/005 91103
AAXX 18181 01476 NIL
AAXX 18181 01481 16/// /0000 11035 21052 39925 49958 57001 60002 333 11007 91104
AAXX 18181 01488 NIL
AAXX 18181 02897 47360 80904 10003 21004 39784 49965 761// 88/// 91800 333 10008 20003
AAXX 18181 02913 47470 80805 10016 20007 39842 49894 761// 88/// 333 10020 20009
AAXX 18181 02807 47360 80304 11044 21045 39863 40049 771// 88/// 91800 333 11039 21060
AAXX 18181 02944 47365 80806 10012 20006 39714 49859 781// 88/// 91800 333 10031 20012
AAXX 18181 45032 NIL
AAXX 18181 45035 NIL
AAXX 18181 45039 NIL
AAXX 18181 45044 NIL
AAXX 18181 02741 17263 80702 10016 20013 39801 49817 57006 60072 762// 88/// 91739 333 10032 20016
AAXX 18181 02755 17480 81005 10012 20003 39840 49935 54000 60032 72287 88/// 91739 333 10013 20004
AAXX 18181 02805 37166 80203 11052 21063 39935 40071 52004 78587 88/// 91739 333 11015 21055
AAXX 18181 02836 17226 80602 11010 21012 39791 40014 54001 60042 77170 88/// 91739 333 11010 21017
AAXX 18181 02845 47025 80704 11006 21006 39746 49994 54002 77476 88/// 91739 333 11006 21015
AAXX 18181 02849 47582 80903 11003 21009 39738 40013 54001 77174 88/// 91739 333 11002 21012
AAXX 18181 02866 17576 80903 10006 20006 39830 49979 54001 60032 77170 88/// 91739 333 10006 21002
AAXX 18181 02924 47372 70802 10006 20005 39698 49893 57006 78087 87/// 91739 333 10015 20005
AAXX 18181 02926 17480 80803 10023 20015 39832 49844 57008 60052 780// 88/// 91800 333 10032 20007
AAXX 18181 02935 17380 81006 10007 21003 39735 49907 57008 60032 777// 88/// 91739 333 10022 20006
AAXX 18181 02939 37350 81004 11005 21014 39783 49977 57007 77770 88/// 91739 333 10013 21005
AAXX 18181 02963 46/// /1406 10014 20011 49841 333 1//// 2////
AAXX 18181 02974 11360 81408 10030 20018 39787 49851 54001 60092 76166 885// 333 10048 20029 32///
AAXX 18181 02976 46/// /1610 10038 20027 39864 49880 54002 91739 333 10047 20030
AAXX 18181 02981 17482 71805 10036 20023 39805 49814 54001 60072 76186 87/// 91739 333 10049 20031
AAXX 18181 02982 46/// /1711 10032 20023 39819 49827 52005 91739 333 10052 20022
AAXX 18181 02807 NIL
AAXX 18181 02897 NIL
AAXX 18181 02913 NIL
AAXX 18181 02917 NIL
AAXX 18181 02944 NIL
AAXX 18181 02947 NIL
AAXX 18181 02917 47483 81006 10005 21009 39821 49943 700// 88/// 91800 333 10017 20002
AAXX 18181 02913 47470 80805 10016 20007 39842 49894 761// 88/// 333 10020 20009
AAXX 18181 02897 47360 80904 10003 21004 39784 49965 761// 88/// 91800 333 10008 20003
AAXX 18181 02741 17263 80702 10016 20013 39801 49817 57006 60072 762// 88/// 91739 333 10032 20016
AAXX 18181 02755 17480 81005 10012 20003 39840 49935 54000 60032 72287 88/// 91739 333 10013 20004
AAXX 18181 02805 37166 80203 11052 21063 39935 40071 52004 78587 88/// 91739 333 11015 21055
AAXX 18181 02836 17226 80602 11010 21012 39791 40014 54001 60042 77170 88/// 91739 333 11010 21017
AAXX 18181 02845 47025 80704 11006 21006 39746 49994 54002 77476 88/// 91739 333 11006 21015
AAXX 18181 02849 47582 80903 11003 21009 39738 40013 54001 77174 88/// 91739 333 11002 21012
AAXX 18181 02866 17576 80903 10006 20006 39830 49979 54001 60032 77170 88/// 91739 333 10006 21002
AAXX 18181 02924 47372 70802 10006 20005 39698 49893 57006 78087 87/// 91739 333 10015 20005
AAXX 18181 02926 17480 80803 10023 20015 39832 49844 57008 60052 780// 88/// 91800 333 10032 20007
AAXX 18181 02935 17380 81006 10007 21003 39735 49907 57008 60032 777// 88/// 91739 333 10022 20006
AAXX 18181 02939 37350 81004 11005 21014 39783 49977 57007 77770 88/// 91739 333 10013 21005
AAXX 18181 02963 46/// /1406 10014 20011 49841 333 1//// 2////
AAXX 18181 02974 11360 81408 10030 20018 39787 49851 54001 60092 76166 885// 333 10048 20029 32///
AAXX 18181 02976 46/// /1610 10038 20027 39864 49880 54002 91739 333 10047 20030
AAXX 18181 02981 17482 71805 10036 20023 39805 49814 54001 60072 76186 87/// 91739 333 10049 20031
AAXX 18181 02982 46/// /1711 10032 20023 39819 49827 52005 91739 333 10052 20022
AAXX 18181 02807 NIL
AAXX 18181 02897 NIL
AAXX 18181 02913 NIL
AAXX 18181 02917 NIL
AAXX 18181 02944 NIL
AAXX 18181 02947 NIL
AAXX 18181 45032 NIL
AAXX 18181 45035 NIL
AAXX 18181 45039 NIL
AAXX 18181 45044 NIL
AAXX 18181 02807 47360 80304 11044 21045 39863 40049 771// 88/// 91800 333 11039 21060
AAXX 18181 02944 47365 80806 10012 20006 39714 49859 781// 88/// 91800 333 10031 20012
AAXX 18181 02917 47483 81006 10005 21009 39821 49943 700// 88/// 91800 333 10017 20002
AAXX 18184 03005 12675 73206 10016 21027 39997 40099 52007 69952 875// 91750 333 10023 42002 55300 20000 87633
AAXX 18184 03017 15984 /3304 10006 21005 30080 40113 53009 60012 91750 333 10026 4/003 55300 20000 8//99
AAXX 18184 03023 15768 /3108 10041 20015 30141 40146 52003 69982 91750 333 10055 81/50
AAXX 18184 03026 15982 /3107 10000 21012 30120 40139 52009 60022 91750 333 10035 55300 20000 8//99
AAXX 18184 03063 17672 /2201 11019 21036 39855 40142 52003 69902 724// 91750 333 10006 4/005 55300 20000 85/41 85/47
AAXX 18184 03066 17685 /2410 10007 21005 30125 40131 53004 69922 721// 91750 333 10014 55300 20000 84/38
AAXX 18184 03075 17668 /2609 11013 21022 30069 40114 53007 69902 721// 91750 333 10008 81/32 83/57
AAXX 18184 03091 15980 /2810 10015 21021 30042 40123 50000 60022 91750 333 10023 4/003 55300 20000 8//99
AAXX 18184 03100 17582 /3209 10043 20027 30138 40154 53004 69942 723// 91750 333 10059 55300 20000 83/27
AAXX 18184 03111 16581 /3007 10052 20032 30148 40160 53002 69962 91750 333 10056 84/29 86/50
AAXX 18184 03134 15482 /3006 10014 20002 30078 40152 55000 69982 91750 333 10026 4/005 55300 20000 84/14 86/71
AAXX 18184 03136 15980 /2706 10044 20020 30121 40155 55001 69902 91750 333 10059 55300 20000 87/58 83/71
AAXX 18184 03162 15684 /1804 11018 21036 39868 40166 52005 60002 91750 333 10029 55300 20000 83/42
AAXX 18184 03166 15983 /2409 10017 21013 30072 40143 58003 60002 91750 333 10028 55300 20000 81/59 88/70
AAXX 18184 03171 12986 73008 10016 21043 30123 40136 56001 60002 81031 91750 333 10026 55300 20000 81359 87071
AAXX 18184 03204 12582 62806 10057 20024 30154 40174 53001 69962 868// 91750 333 10068 55300 20000 82820 86638
AAXX 18184 03240 15784 /2610 10015 21039 30117 40146 52001 60002 91750 333 10031 55300 20000 87/56
AAXX 18184 03257 15971 /2504 11017 21041 30123 40165 52009 60002 91750 333 10032 55300 20000 8//99
AAXX 18184 03292 169// /3110 10006 21026 30129 40148 52016 60022 91750 333 10043 8//99
AAXX 18184 03302 15680 /2905 10054 20028 30171 40184 51003 69902 91750 333 10070 55300 20000 83/43 84/58
AAXX 18184 03354 15968 /2804 10010 21020 30030 40177 52016 69922 91750 333 10041 55300 20000 8//99
AAXX 18184 03377 12783 12706 10002 21033 30079 40166 51014 69922 81500 91750 333 10035 55300 20000 81656
AAXX 18184 03414 15969 /2601 11001 21006 30094 40185 51011 69982 91750 333 10059 55300 20000 85/72
AAXX 18184 03462 15983 /3009 10012 21026 30079 40171 52018 69922 91750 333 10040 55300 20000 8//99
AAXX 18184 03482 15975 /3008 10005 21025 30133 40160 51017 69902 91750 333 10037 8//99
AAXX 18184 03502 15578 /3216 10060 20011 30032 40196 51009 60002 91750 333 10067 55300 20000 81/23 85/60
AAXX 18184 03535 15980 /2806 10006 21018 30061 40182 51017 69962 91750 333 10043 55300 20000 8//99
AAXX 18184 03590 15981 /3111 10007 21009 30048 40161 51017 69942 91750 333 10024 55300 20000 8//99
AAXX 18184 03649 12682 53106 10024 20001 30083 40185 51017 60022 81531 91750 333 10064 55300 2//// 81635 85075
AAXX 18184 03716 15981 /3303 10036 20016 30133 40195 51010 69902 91750 333 10074 55300 20000 83/58
AAXX 18184 03740 16973 /2806 10012 21002 30010 40193 51016 60002 91750 333 10055 55300 2//// 83/74
AAXX 18184 03746 15983 /3008 10026 20008 30033 40191 53016 60002 91750 333 10062 8//99
AAXX 18184 03772 15976 /3105 10021 21003 30147 40179 53016 69962 91750 333 10060 55300 20000 8//99
AAXX 18184 03796 46/// /3213 10014 20000 30014 40160 53012 91750 333 10034
AAXX 18184 03803 NIL
AAXX 18184 03808 11575 33312 10072 20023 30111 40219 51005 60012 72581 81870 91750 333 10084 55300 20000 81825
AAXX 18184 03809 11468 53111 10063 20047 30126 40221 51007 6///2 78082 85800 91750 333 10085 82815 85622
AAXX 18184 03827 15980 /3005 10044 20022 30150 40213 51009 69962 91750 333 10086 8//99
AAXX 18184 03840 15680 /3106 10032 20013 39890 40202 51012 69942 91750 333 10060 81/45
AAXX 18184 03853 17781 /3004 10035 20021 30172 40197 51014 69942 723// 91750 333 10072 55300 20000 84/50
AAXX 18184 03874 46/// /3112 10049 20018 30173 40185 53014 91750 333 10073
AAXX 18184 03882 15781 /3006 10029 20008 30106 40171 52011 69922 91750 333 10055 55300 20000 84/56
AAXX 18184 03894 11584 73216 10073 20025 40209 53008 69902 70281 83832 333 10088 83828 87075
AAXX 18184 03917 17766 /2208 10030 20019 30099 40178 53001 60012 721// 91750 333 10043 55300 20000 81/50 87/58
AAXX 18184 61901 169// /1318 10169 20132 39655 40163 55004 60002 91750 333 10196 8//99 90710 91125 555 7/090
AAXX 18184 61902 31357 71313 10225 20202 40130 69952 78082 878// 333 10265 58002 81708 83815 87640
AAXX 18184 88889 11484 72117 10155 20104 49995 53012 69901 70362 876/2 91750 333 87612
AAXX 18181 78221 41462 60306 10246 20190 30181 40208 57020 70122 86200 333 86818
AAXX 18181 78224 32560 50308 10255 20167 30131 40205 58013 70322 85200 333 85830
AAXX 18181 78229 42459 51001 10194 20169 30126 40201 52010 85800 333 82818 83625
AAXX 18181 78239 31559 40508 10264 20177 30190 40193 57020 70500 83802 333 10270 20204 83820
AAXX 18181 12345 42560 50707 10268 20182 30150 40180 57021 85100 333 85835
AAXX 18181 78243 42559 40607 10253 20167 30077 40200 57017 84200 333 84820
AAXX 18181 78255 12459 50507 10250 20181 30044 40193 57020 69951 84871 333 10253 20191 84818 85357
AAXX 18181 78264 31559 70203 10282 20176 30091 40166 57020 70500 87220 333 10280 83820 85457
AAXX 18181 78265 31558 70406 10265 20185 30073 40173 57020 71522 83220 333 10280 20174 83820 87458
AAXX 18181 78256 NIL
AAXX 18181 78259 NIL
AAXX 18181 78268 11460 70904 10268 20224 30159 40178 57020 60001 70222 83200 333 10280 83815 87830
AAXX 18184 87692 11560 61612 10200 20160 30050 40076 55009 69901 70252 85101 333 56505 85820 555 10074
BBXX 46072 18181 99517 71722 46/// /2605 10022 21070 49861 54000 91750 22200 00049 11106 20501 3//// 41106 70032 333 91207 555 11053 22055 31733 42509 61749 262054 257068 249052 248048 239043 244047 82607 91737
BBXX 42039 18181 99288 70860 46/// /0408 10154 91750 555 11085 22090
BBXX 41040 18181 99145 70530 46/// /0306 10265 20202 40121 57024 91750 22200 00281 11106 20502 3//// 41106 70029 333 91207 555 11061 22064 31651 40308 61749 028058 030062 030059 020056 024060 025060 80307 91651
BBXX 46082 18181 99597 71434 46/// ///// 10028 20028 49966 56071 91750 22200 00063 10810 70051
BBXX 46072 18181 99517 71722 46/// /2605 10022 21070 49861 54000 91750 22200 00049 11106 20501 3//// 41106 70032 333 91207 555 11053 22055 31733 42509 61749 262054 257068 249052 248048 239043 244047 82607 91737
BBXX 46035 18181 99571 71778 46/// /2809 1//// 49741 54000 91750 22200 11309 20603 300// 41308 70045 333 91211 555 11085 22091 31741 42912 61749 283088 290085 281074 296073 289079 302087 82910 91741
BBXX 46077 18181 99579 71543 46/// /1614 10039 20024 49605 56049 91750 22200 00054 10504 20504 3//// 41001 70021 333 91217 555 11151 22161 31715 41618 61749 163141 159138 158138 156139 150139 150135 81615 91746
BBXX 51004 18181 99175 71524 46/// /0711 10222 20198 91750 555 11112 22120
BBXX 51002 18181 99171 71578 46/// /0610 10242 40147 53013 91750 22200 00252 333 91212 555 11106 22112 31715 40713 61749 061099 065102 070099 072097 065103 068099
BBXX 51100 18181 99236 71539 46/// /0809 10212 40206 53018 91750 22200 00234 11506 20804 332// 41504 70030 333 91212 555 11095 22100 31739 40916 61749 081094 095106 077094 074091 080091 075094
BBXX 46026 18181 99378 71228 46/// /0000 10100 40234 51015 91750 22200 00111 11605 20401 328// 41605 70027 333 91201 555 11004 22004 31731 42001 61749 318004 258002 266001 263002 218003 180000
BBXX 46041 18181 99474 71247 46/// /3309 10085 40238 51023 91750 22200 00081 11507 20804 3//// 41506 70036 333 91211 555 11099 22106 31720 43212 61749 327093 325096 324093 323097 322094 321086
BBXX 44007 18181 99435 70701 46/// /3506 11059 21124 40230 57015 91750 22200 00082 10602 20401 3//// 40602 70012 333 91208 555 11057 22059 31652 43512 61749 348056 000062 354056 357059 003062 351068
AAXX 18181 89061 379// 01307 10025 21024 39860 49866 57016 73011 333 91010 91114
AAXX 18184 78767 11965 70903 10256 20178 30150 40160 57020 69901 70565 87070 333 10261 20169 31/// 56000 58010 87362
AAXX 18184 78016 11364 83022 10171 20140 30090 40094 57024 60111 76086 8677/ 333 10235 20170 70114 90942
AAXX 18184 78947 12582 60809 10277 20206 30124 40127 60001 70311 84201 333 02206 10288 20206 59002 84826
AAXX 18184 CCA 91487 NIL
AAXX 18184 CCA 91487 NIL
BBXX VCRG 18184 99474 70619 46/// /3617 11042 21089 40208 56019 7//// 8//// 22200 0//// 2////
AAXX 18184 78016 11364 83022 10171 20140 30090 40094 57024 60111 76086 8677/ 333 10235 20170 70114 90942
AAXX 18184 78767 11965 70903 10256 20178 30150 40160 57020 69901 70565 87070 333 10261 20169 31/// 56000 58010 87362
AAXX 18184 96315 11257 71702 10247 20245 40072 60112 79198 84978 333 81703 81916 86465
AAXX 18184 96323 NIL
AAXX 18184 96315 11257 71702 10247 20245 40072 60112 79198 84978 333 81703 81916 86465
AAXX 18184 96323 NIL
AAXX 18181 89061 379// 01307 10025 21024 39860 49866 57016 73011 333 91010 91114
BBXX VOPP 18184 99456 70735 46/// /2002 11081 21158 4//// 5//// 7//// 8//// 22200 0//// 2////
BBXX VRYO3 18184 99535 10099 46/// /0000 10021 20030 40058 51015 7//// 8//// 22200 0//// 2////
BBXX VAAZ 18184 99546 70530 46/// /2529 11085 21119 40133 53008 7//// 8//// 22200 0//// 2////
BBXX CG2958 18184 99507 71275 46/// /2303 10065 20031 40285 51021 7//// 8//// 22200 0//// 2////
BBXX VCSZ 18184 99495 70664 46/// /2511 11101 21120 40231 56015 7//// 8//// 22264 0//// 2////
BBXX VOLG 18184 99446 70627 46/// /0220 11001 21045 40149 56035 7//// 8//// 22223 0//// 2////
BBXX 3FZK3 18184 99549 71481 46/// /2734 10051 20030 49885 53059 7//// 8//// 22232 0//// 2////
BBXX CGBN 18184 99447 70636 46/// /0110 11009 21062 40161 56014 7//// 8//// 22200 0//// 2////
BBXX CGDT 18184 99468 70712 46/// /3002 11074 21154 40257 58019 7//// 8//// 22200 0//// 2////
BBXX CGDX 18184 99468 70712 46/// /2902 11084 21158 40256 58019 7//// 8//// 22200 0//// 2////
BBXX CG2350 18184 99433 70798 46/// /2410 10004 21031 40221 58003 7//// 8//// 22200 0//// 2////
BBXX CG2965 18184 99487 71235 46/// /2506 10072 20050 40243 51024 7//// 8//// 22200 0//// 2////
BBXX CZ9742 18184 99506 70969 46/// /3005 11017 21020 40013 58007 7//// 8//// 22200 0//// 2////
BBXX CGJK 18184 99484 71234 46/// /0401 10080 20070 40242 51026 7//// 8//// 22200 0//// 2////
BBXX VCWL 18184 99456 70735 46/// /0000 11077 21150 40257 58016 7//// 8//// 22200 0//// 2////
BBXX VOKF 18184 99490 70669 46/// /2610 11110 21158 40245 56015 7//// 8//// 22200 0//// 2////
BBXX CGJV 18184 99454 70609 46/// /0421 10001 21030 40166 55008 7//// 8//// 22212 00064 2////
AAXX 18184 78905 11478 70908 10245 20209 30119 40142 60063 70382 87800 333 10281 20206 58001 70081 87816 90960
AAXX 18184 07005 04/70 /3306 10033 20005 30074 40166 53005 60012 700// 333 10057 20019 69967 90710 91115 555 69925
AAXX 18184 07015 01470 82607 10021 20009 30096 40155 53006 69922 70361 875// 333 10048 20016 69927 87616 90710 91115 93100 555 69905
AAXX 18184 07020 06/// /3321 10088 20026 30177 40204 53009 69902 333 10092 20074 60007 90710 91128 555 60005
AAXX 18184 07027 04686 /2513 10046 20021 30110 40193 51002 69962 700// 333 10075 20023 69907 90710 91118 555 60005
AAXX 18184 07037 04480 82505 10030 20027 39993 40182 53004 60022 761// 333 10062 20006 60027 90710 91110 555 69905
AAXX 18184 07070 04870 82306 10017 21014 30059 40173 52002 60022 700// 333 10046 20003 60007 90710 91109 555 60005
AAXX 18184 07110 01562 63008 10063 20041 30117 40235 53008 69982 72586 86900 333 10098 20042 69987 81924 85826 90710 91120 93100 555 69985
AAXX 18184 07117 01468 72914 10079 20043 30146 40217 53004 69982 70282 87300 333 10096 20066 69947 90710 91131 92447 555 69945
AAXX 18184 07130 04686 72607 10049 20029 30168 40222 53003 69922 700// 333 10087 20008 69907 90710 91113 555 69905
AAXX 18184 07139 06/// /2609 10038 20013 30025 40204 53003 6///2 333 10066 20002 6///7 90710 91116 555 60005
AAXX 18184 07149 04460 62809 10035 20015 30075 40187 53001 69942 761// 333 10054 20009 69947 90710 91119 555 69945
AAXX 18184 07168 04/70 /2006 11005 21022 30046 40195 51008 69902 700// 333 10052 21008 60007 90710 91111 555 60005
AAXX 18184 07181 04583 /2605 11010 21018 39762 40189 53017 69982 700// 333 10016 21010 69907 90710 91110 555 60005
AAXX 18184 07190 04783 72404 10023 21010 39985 40173 52024 69942 700// 333 10045 20012 69907 90710 91110 555 60005
AAXX 18184 07207 02565 53312 10094 20025 60002 85800 222// 327// 333 10096 20053 60007 90710 91123 92437 555 60005
AAXX 18184 07222 02880 42806 10049 20012 30200 40233 52009 60002 83031 333 10087 21005 60007 82357 90710 91110 555 60005
AAXX 18184 07240 02780 12508 10033 20007 30080 40220 53010 69922 81500 333 10067 20007 60007 81656 90710 91112 93100 555 60005
AAXX 18184 07255 04570 /2504 10020 21001 30011 40218 53009 60002 700// 333 10058 20015 60007 90710 91108 555 60005
AAXX 18184 07280 04982 /2703 10002 21014 39920 40204 51017 69982 700// 333 10043 20002 69907 90710 91106 555 60005
AAXX 18184 07299 01457 72606 10010 20001 39841 40179 53025 60012 78587 878// 333 10035 20006 69947 82810 84616 87626 90710 91113 93100 555 69945
AAXX 18184 07314 06/// /3311 10089 20020 30216 40244 53008 60002 333 10089 20072 60007 90710 91117 555 60005
AAXX 18184 07335 04985 /2504 10013 21002 30085 40236 53011 60002 700// 333 10067 20012 60007 90710 91106 555 60005
AAXX 18184 07434 04583 /2804 10006 21012 39741 40240 53012 60002 700// 333 10039 21004 60007 90710 91107 555 60005
AAXX 18184 07460 02575 60000 10015 21025 39821 40225 51016 69942 86500 333 10049 20014 60007 81630 86643 90710 91107 93100 555 60005
AAXX 18184 07471 04570 /0000 11035 21057 39220 48807 53016 69922 700// 333 11004 21036 43/// 69907 90710 91105 555 60005
AAXX 18184 07481 02880 52806 10016 21015 39915 40214 52019 69962 85500 333 10047 20016 60007 85656 90710 91111 93100 555 60005
AAXX 18184 07510 04961 /2603 10033 20003 30180 40248 53011 60002 700// 333 10091 20020 60007 90710 91105 555 60005
AAXX 18184 07535 06/// /1602 10002 21004 39918 40245 53013 60002 333 10037 20002 60007 90710 91104 555 60005
AAXX 18184 07558 06/// /3212 11006 21028 39356 40224 53021 69922 333 10016 21010 60007 90710 91119 555 60005
AAXX 18184 07577 04/70 /0110 10047 21051 30106 40198 53020 69982 700// 333 10062 20010 60007 90710 91123 555 60005
AAXX 18184 07591 04/// /0000 11034 21079 39121 4//// 53022 60002 700// 333 10026 21064 60007 90710 91103 555 60005
AAXX 18184 07607 04582 /2801 10030 20020 30182 40256 53013 60002 700// 333 10075 20030 60007 90710 91103 555 60005
AAXX 18184 07621 02865 22305 10004 21014 39810 40263 53012 69902 82500 333 10057 20002 60007 82657 90710 91107 93100 555 60005
AAXX 18184 07627 06/// /2904 10027 21004 39751 40256 52021 60002 333 10060 20019 60007 90710 91110 555 60005
AAXX 18184 07630 01680 32807 10044 20000 30060 40247 52022 69902 70386 83100 333 10077 20038 60007 83835 90710 91111 93100 555 60005
AAXX 18184 07643 02784 13001 10045 21050 30187 40197 53026 60002 81500 333 10105 20039 60007 81650 90710 91107 555 60005
AAXX 18184 07650 02986 03320 10061 21041 30127 40167 53021 60002 333 10085 20029 60007 91032 90710 91134 93100 555 60005
AAXX 18184 07661 02570 53023 10068 21056 39957 40121 51017 60002 85200 333 10089 20054 60007 85826 91037 90710 91137 555 60005
AAXX 18184 07690 02980 13309 10043 21042 30079 40114 53015 60032 80002 333 10087 20040 60007 81070 90710 91115 93100 555 60005
AAXX 18184 07747 01262 43117 10044 20019 30160 40215 51027 60012 72586 84900 333 10095 20040 60017 81705 82930 83638 90710 91137 93100 555 69945
AAXX 18184 07761 01580 61006 10068 20013 30069 40080 53010 60002 72991 86900 333 10123 20027 60007 83930 83833 90710 91111 93100 555 60005
AAXX 18184 07790 01662 52407 10040 20020 30083 40098 51011 60192 72198 8553/ 333 10144 20033 60127 82646 83650 85357 90710 91112 93100 555 69945
AAXX 18181 11423 01115 82606 11023 21026 39228 42729 52016 60012 77172 887// 333 11014 48014 69965 88703 91113
AAXX 18181 11487 02682 32606 10002 21037 39492 40127 52011 60002 82510 333 10012 41998 60005 82643 91113
AAXX 18181 11518 01358 72306 11002 21009 39670 40119 52022 69912 77172 875// 333 10024 43001 69915 83708 87623 91112 93708
AAXX 18181 11603 NIL
AAXX 18181 11659 02972 12504 11011 21036 39473 40128 52018 60002 80002 333 10016 42001 60005 81073
AAXX 18181 11723 02780 52305 10008 21029 39832 40137 52020 60002 85530 333 10035 60005 85650
AAXX 18181 11782 02870 62105 10027 21030 39812 40122 52016 60002 86030 333 10038 60005 86357 91111
AAXX 18181 01367 16/// /3206 11130 21144 39531 49995 58007 6//// 333 11119 91109
AAXX 18181 01492 11989 00000 11037 21056 39828 49948 58004 60002 70100 333 11009 91103
AAXX 18181 01359 11589 22704 11006 21057 39064 49973 58004 60002 70230 82200 333 11006 91112
AAXX 18184 78905 11478 70908 10245 20209 30119 40142 60063 70382 87800 333 10281 20206 58001 70081 87816 90960
AAXX 18184 78905 11478 70908 10245 20209 30119 40142 60063 70382 87800 333 10281 20206 58001 70081 87816 90960
AAXX 18184 89664 12561 53605 11035 21073 39888 49931 56022 60033 81578 333 56333 81620 83458 90967 93104 99114 99115
AAXX 18184 78970 11570 50308 10317 20195 30084 40109 60001 71511 83842 333 01299 10327 20222 58001 82822 84081
AAXX 18184 78962 12582 10310 20187 30115 40123 60001 81402 333 00209 10300 20222 58003 81630
BBXX VOFG 18184 99456 70614 46/// /0506 11001 21041 40174 56016 7//// 8//// 22200 0//// 2////
BBXX CGDR 18184 99484 71234 46/// /0101 10082 20081 40243 51025 7//// 8//// 22200 0//// 2////
BBXX VCLM 18184 99556 70553 46/// /2627 11082 21112 40111 51024 7//// 8//// 22233 00028 2////
BBXX C6SI6 18184 99332 11239 46/// /3309 10071 21007 40311 57002 7//// 8//// 22254 0//// 2////
BBXX CGBY 18184 99487 71235 46/// /2505 10074 20053 40240 51023 7//// 8//// 22200 0//// 2////
BBXX CGDG 18184 99447 70636 46/// /0106 11012 20002 40176 56014 7//// 8//// 22200 0//// 2////
BBXX VOKJ 18184 99468 70568 46/// /3614 11033 21088 40176 56035 7//// 8//// 22224 0//// 2////
BBXX CG2960 18184 99422 70831 46/// /2008 10018 21025 40236 50003 7//// 8//// 22272 00032 2////
BBXX VAAP 18184 99446 70636 46/// /0213 11016 21058 40163 56013 7//// 8//// 22200 0//// 2////
BBXX VXKF 18184 99468 70598 46/// /0213 11027 21087 40184 56025 7//// 8//// 22254 0//// 2////
BBXX VCBW 18184 99490 70678 46/// /2311 11119 21151 40240 56017 7//// 8//// 22253 00022 2////
BBXX CGBR 18184 99543 71303 46/// /0000 10008 20007 40258 51009 7//// 8//// 22281 00079 2////
BBXX CGTF 18184 99476 70527 46/// /2902 11036 21047 40187 56016 7//// 8//// 22200 0//// 2////
BBXX CGSB 18184 99492 70681 46/// /2502 11114 21177 40249 58017 7//// 8//// 22200 0//// 2////
AAXX 18184 89664 12561 53605 11035 21073 39888 49931 56022 60033 81578 333 56333 81620 83458 90967 93104 99114 99115
AAXX 18181 14528 NIL
AAXX 18181 14537 NIL
AAXX 18181 14544 NIL
AAXX 18181 14557 12960 00402 10010 21034 39785 40162 52009 60002
AAXX 18181 14640 NIL
AAXX 18184 48698 01458 83503 10251 20250 30066 40084 60021 76162 82878 333 69927 81612 87466
AAXX 18181 14648 11665 83201 10052 20015 30004 40126 50004 69912 76022 8352/ 333 10085 83646 88458
AAXX 18181 14652 12380 81811 11086 21092 37838 48416 58001 60002 886// 333 11086 48028 88706
AAXX 18181 14542 11950 70000 10012 21002 39957 40152 52014 60002 71022 80006 333 10068 87275 95990
AAXX 18184 48698 01458 83503 10251 20250 30066 40084 60021 76162 82878 333 69927 81612 87466
AAXX 18184 78862 12580 20309 10269 20186 30117 40140 60001 81802 333 10283 20227 59001 81828
AAXX 18184 TAF TKPN 181600Z 1818/1918 05014KT 9999 SCT022 BKN036 PROB40 TEMPO 1818/1918 5000 SHRA BKN015 BKN035
AAXX 18184 TAF TQPF 181600Z 1818/1918 05014KT 9999 SCT022 BKN036 PROB40 TEMPO 1818/1918 5000 SHRA BKN015 BKN035
AAXX 18184 TAF TUPJ 181600Z 1818/1918 05014KT 9999 SCT022 BKN036 PROB40 TEMPO 1818/1918 5000 SHRA BKN015 BKN035
AAXX 18184 EMPO 0600/0624 SHRA BKN015=+TSRA SCT012CB
AAXX 18184 TAF TUPJ 041000Z 04012/0512 07008KT 9999 SCT016 BKN038 SCT270 TEMPO 0412/0512 SHRA BKN015 PROB40 TEMPO 0418/0512 5000 SHRA BKN014 BKN036 PROB30 0420/0512 4000 TSRA FEW012CB
AAXX 18184 918 4000 TSRA FEW012CB
AAXX 18184 N015 BKN036 PROB40 TEMPO 0704/0724 3000 +TSRA SCT011CB BKN012 BECMG 0712/0714 14008KT
AAXX 18184 21/2712 07017G28KT 5000 SHRA BKN015 BKN036 PROB TEMPO 2700/2712 4000 TSRA FEW013CB
AAXX 18184 PROB30 TEMPO 0800/0806 4000 TSRA FEW012CB PROB40 TEMPO 0800/0824 2000 +SHRA/TSRA SCT010CB BKN012 BKN250
AAXX 18184 89664 12561 53605 11035 21073 39888 49931 56022 60033 81578 333 56333 81620 83458 90967 93104 99114 99115
BBXX BATFR55 18184 99154 30532 44798 20316 10275 20232 40093 70100 82101 22272 00284 20802 33131 412// 512//
BBXX BATEU03 18184 99538 70104 46/// /2617 10094 20050 40199 58006 22282 00102
BBXX CGDG 18184 99447 70636 46/// /0106 11012 20002 40176 56014 7//// 8//// 22200 0//// 2////
BBXX CGDR 18184 99484 71234 46/// /0101 10082 20081 40243 51025 7//// 8//// 22200 0//// 2////
BBXX CGBR 18184 99543 71303 46/// /0000 10008 20007 40258 51009 7//// 8//// 22281 00079 2////
BBXX VCLM 18184 99556 70553 46/// /2627 11082 21112 40111 51024 7//// 8//// 22233 00028 2////
BBXX CGSB 18184 99492 70681 46/// /2502 11114 21177 40249 58017 7//// 8//// 22200 0//// 2////
BBXX C6SI6 18184 99332 11239 46/// /3309 10071 21007 40311 57002 7//// 8//// 22254 0//// 2////
BBXX VOKJ 18184 99468 70568 46/// /3614 11033 21088 40176 56035 7//// 8//// 22224 0//// 2////
BBXX VOFG 18184 99456 70614 46/// /0506 11001 21041 40174 56016 7//// 8//// 22200 0//// 2////
AAXX 18184 64500 32460 72412 10272 20241 30073 40086 875// 333 10290 59003 84610 87640
BBXX VAAP 18184 99446 70636 46/// /0213 11016 21058 40163 56013 7//// 8//// 22200 0//// 2////
BBXX CG2960 18184 99422 70831 46/// /2008 10018 21025 40236 50003 7//// 8//// 22272 00032 2////
BBXX CGTF 18184 99476 70527 46/// /2902 11036 21047 40187 56016 7//// 8//// 22200 0//// 2////
BBXX CGBY 18184 99487 71235 46/// /2505 10074 20053 40240 51023 7//// 8//// 22200 0//// 2////
BBXX VXKF 18184 99468 70598 46/// /0213 11027 21087 40184 56025 7//// 8//// 22254 0//// 2////
BBXX VCBW 18184 99490 70678 46/// /2311 11119 21151 40240 56017 7//// 8//// 22253 00022 2////
AAXX 18184 68392 36/// /1008 10187 20156 30129 4//// 53016 333 10269 20187 91013 555
AAXX 18184 68386 36/// /1403 10230 20182 39728 48647 52020 333 10332 20230 91006 555 91026
AAXX 18181 45007 12956 00603 10154 20111 30219 40228 57009 60001 333 59023
AAXX 18181 45007 12956 00603 10154 20111 30219 40228 57009 60001 333 59023
BBXX DBLK 18181 99705 50081 41496 80914 11021 21034 49804 52020 77187 8652/ 22221 05015 ICE 88795
AAXX 18184 60101 12358 70803 10074 20052 40234 53007 60022 872// 333 10129 83708 86816
AAXX 18184 60115 32570 43407 10109 20072 40222 53012 82282 333 10142 84826
AAXX 18184 60135 11330 80904 10132 20124 40207 53003 60022 76066 885// 333 10135 83706 87616
AAXX 18184 60150 11420 83602 10111 20100 39558 40217 55001 60092 76066 882// 333 10117 82710 87820
AAXX 18184 60155 11450 824// 10154 20147 40194 57008 60022 72166 8687/ 333 10166 84816 85626 86360
AAXX 18184 60156 17460 82110 10146 20144 40207 57003 60022 75861 886// 333 10155 83710 86615
AAXX 18184 60252 32960 20000 10161 20088 40167 58004 80002 333 10199 82070 95800
AAXX 18184 60096 NIL
AAXX 18184 60230 NIL
AAXX 18184 60060 32456 50411 10174 20121 40195 57004 85500 333 10183 85616 95300
AAXX 18184 60105 11456 71006 10119 20107 40222 55001 60052 70262 878// 333 10122 84816 84620
AAXX 18184 60107 32560 63004 10121 20079 40219 53007 86800 333 10153 83816 85626 95310
AAXX 18184 60127 11558 82704 10094 20083 39619 40224 51001 60032 76162 882// 333 10100 88820
AAXX 18184 60141 11420 80000 10101 20090 39547 40219 53004 60112 71062 882// 333 10108 84710 85826
AAXX 18184 60185 32470 60000 10171 20138 40221 56008 86500 333 10190 86616
AAXX 18184 60190 11558 83602 10122 20099 40216 56001 69902 70252 882// 333 10124 88826
AAXX 18184 60191 32560 83602 10124 20107 40221 57003 8427/ 333 10130 84826 86360
AAXX 18184 60195 11560 72414 10070 20038 38515 48530 54000 60012 70282 83272 333 10109 83830 84360 95520
AAXX 18184 60220 32558 43612 10174 20130 40226 57004 84500 333 10194 84626
AAXX 18184 60265 32670 33213 10145 20021 38889 48518 53009 82202 333 10208 82830
AAXX 18184 60106 NIL
AAXX 18184 60210 NIL
AAXX 18184 60318 NIL
AAXX 18181 11812 36/// /2904 10003 21045 39439 42747 52018 333 10021
AAXX 18181 11813 12780 62802 10026 21037 39795 40150 52017 60002 82531 333 10058 82650 83360 85070
AAXX 18181 11816 12765 50000 10028 21027 39984 40150 52021 60002 82540 333 10069 82656 84357
AAXX 18181 11819 36/// /2003 10024 21018 39928 40148 52019 333 10061
AAXX 18181 11826 12780 71702 10034 21023 39941 40144 52016 60002 85540 333 10054 85650 87357
AAXX 18181 11841 12683 72304 10024 21029 39753 40134 51019 69912 87500 333 10036 83641 87656
AAXX 18181 11855 12780 71201 10020 21014 39981 40150 52015 60002 875// 333 10070 87656
AAXX 18181 11856 36/// /2104 10024 21026 39827 40151 52018 333 10052
AAXX 18181 11858 12580 61604 10019 21015 39998 40153 52016 60002 81544 333 10080 81630 83358 85070
AAXX 18181 11867 11569 79901 10006 21028 39826 40150 52017 69912 77122 875// 333 10047 87631
AAXX 18181 11880 12662 40801 11005 21016 39980 40157 52018 60002 82431 333 10062 82646
AAXX 18181 11900 16/// /2301 10026 21027 39813 40153 52024 69902 333 10059
AAXX 18181 11903 12660 73201 11001 21008 39762 40152 52020 69922 875// 333 10040 83640 87650
AAXX 18181 11916 11/00 92811 11112 21129 37861 48388 52019 69922 74983 333 11091 49043 89/00 91017 91121 92982 93598
AAXX 18181 11918 12581 82405 11013 21052 39301 42737 53022 69902 885// 333 10009 43009 83625 87636
AAXX 18181 11927 12770 52302 10010 21029 39887 40155 52022 60002 83502 333 10070 83650
AAXX 18181 11930 12984 32405 11162 21171 37246 47901 52014 60032 80002 333 11145 48055 83060 93565 444 26220
AAXX 18181 11933 11580 62603 11063 21080 38588 48406 52018 69972 77081 85502 333 11045 48041 85623
AAXX 18181 11934 11681 52204 11025 21065 39299 42738 53020 69902 70377 85500 333 10014 42001 85643
AAXX 18181 11938 12667 42308 11035 21061 39056 42736 52020 60002 84500 333 11010 44015 84633
AAXX 18181 11952 16/// /9901 11020 21071 39292 42739 52020 60002 333 10020
AAXX 18181 11958 36/// /2314 11062 21071 38677 48409 52019 333 11037
AAXX 18181 11968 12770 12103 10009 21022 39862 40149 52026 60002 81500 333 10046 81650
AAXX 18181 11976 12965 01702 10012 21001 39876 40145 52026 60002 333 10049
AAXX 18181 11978 12670 11804 10014 20001 30017 40150 52029 60002 81500 333 10063 81640
AAXX 18181 11993 36/// /9903 10024 20011 39933 40153 52033 333 10055
AAXX 18184 60285 NIL
AAXX 18184 60340 NIL
AAXX 18181 48921 NIL
AAXX 18181 48924 NIL
AAXX 18181 48925 NIL
AAXX 18181 48926 NIL
AAXX 18181 48927 NIL
AAXX 18181 48928 NIL
AAXX 18181 48930 31310 30000 10140 20131 39849 40212 52006 71044 83100 333 58008
AAXX 18181 48935 NIL
AAXX 18181 48938 NIL
AAXX 18181 48940 31630 21401 10182 20136 39985 40187 52024 71044 82500 333 58017
AAXX 18181 48941 NIL
AAXX 18181 48944 NIL
AAXX 18181 48945 NIL
AAXX 18181 48946 NIL
AAXX 18181 48947 31530 60402 10168 20142 30032 40203 52010 71044 83560 333 58006
AAXX 18181 48948 NIL
AAXX 18181 48952 NIL
AAXX 18181 48953 NIL
AAXX 18181 48955 31758 33603 10200 20149 30010 40130 57018 71044 82800 333 59010
AAXX 18181 48957 NIL
AAXX 18184 85223 32584 40704 10246 20104 37493 47134 57029 83201 333 56000 58016 83827 81830
AAXX 18184 85283 32584 50110 10179 20084 37204 47136 57018 84230 333 56100 58013 84820
AAXX 18184 85345 32584 20000 10337 20163 39627 40080 57028 81101 333 56000 59034 81825
AAXX 18184 85364 32670 21504 10266 20157 38160 48215 57015 82201 333 56000 58000 82833
AAXX 18184 85365 32584 30000 10330 20201 39363 40106 57025 83100 333 56000 59024 83823
AAXX 18181 33135 32697 62304 10026 21007 39928 40108 52039 82530 333 10039
AAXX 18181 33317 NIL
AAXX 18181 33345 32998 62303 10022 21015 39931 40139 52041 86040 333 10040
AAXX 18181 33393 12960 02104 10000 21033 39742 40141 52028 69952 333 10015
AAXX 18181 33506 12597 61801 10037 20011 39959 40157 52038 60052 86500 333 10074
AAXX 18181 33587 32964 22302 10020 21008 39899 40166 52034 82030 333 10052
AAXX 18181 33631 12697 41403 10023 20007 30014 40160 52027 69902 82530 333 10035
AAXX 18181 33663 32997 00000 11007 21022 30067 40166 52040 333 10081
AAXX 18181 33658 11997 02001 10008 21048 39861 40167 52031 69902 70181 333 10069
AAXX 18181 33711 32997 02504 10020 21008 39954 40167 52038 333 10078
AAXX 18181 33791 12997 02502 10013 20005 30020 40174 52037 69902 333 10076
AAXX 18181 33837 32970 42401 10056 20037 30125 40177 52032 84030 333 10105
AAXX 18181 33924 32996 02001 10044 20032 30171 40183 52034 71011 333 10093
AAXX 18181 33946 32797 82204 10060 20053 39973 40194 52031 8255/ 333 10105
AAXX 18181 34300 11597 82302 10040 20020 39970 40163 52049 60122 70286 885// 333 10056 88628
AAXX 18181 34504 12997 00000 10010 21001 39993 40175 52042 60022 333 10082
AAXX 18181 34519 11360 81802 10054 20040 39900 40175 52029 60012 70262 886// 333 10054 88707
AAXX 18181 34601 12960 32802 10026 20025 30043 40182 52040 60052 83030 333 10085
AAXX 18184 41858 31905 02706 10128 20120 30125 40173 74440 333 59003 70000
AAXX 18184 41863 31920 02701 10117 20110 30124 40170 71000 333 59009 70000
AAXX 18184 41886 NIL
AAXX 18184 41895 32950 03601 10140 20130 30147 40170 333 59001 70000
AAXX 18184 41909 NIL
AAXX 18184 41915 31/02 90000 10116 20116 30144 40171 74744 89/// 333 58003 70000
AAXX 18184 41926 31930 00000 10110 20110 30162 40176 70500 333 58003 70000
AAXX 18184 41929 31920 00000 10123 20110 30152 40162 71040 333 59006 70000
AAXX 18184 41933 NIL
AAXX 18184 41939 31930 00000 10124 20110 40170 71044 333 59001 70000
AAXX 18184 41941 31940 00000 10142 20130 30168 40174 70520 333 58011 70000
AAXX 18184 41946 31940 00000 10138 20130 30163 40167 70500 333 58000 70000
AAXX 18184 41947 31905 00000 10120 20120 30161 40163 74444 333 59003 70000
AAXX 18184 41951 NIL
AAXX 18184 41953 NIL
AAXX 18184 41958 NIL
AAXX 18184 41960 31953 00000 10126 20125 30168 40170 70500 333 58002 70000
AAXX 18184 41963 NIL
AAXX 18184 41964 NIL
AAXX 18184 41965 NIL
AAXX 18184 41966 NIL
AAXX 18184 41984 31940 00000 10118 20110 30151 40153 70500 333 59006 70000
AAXX 18184 41989 NIL
AAXX 18184 41998 NIL
BBXX 41010 18181 99289 70785 46/// /0206 10208 40220 58014 91750 22200 00239 10503 20502 300// 40602 70013 333 91208 555 11066 22069
BBXX 41009 18181 99285 70802 46/// /0108 10201 20121 40232 58013 91750 22200 00255 10604 20603 300// 41002 70019 333 91210 555 11085 22089
BBXX 42057 18181 99168 70815 46/// /0409 10274 20215 40162 58016 91750 22200 00280 10603 20603 3//// 40801 70016 333 91211 555 11093 22098 31736 40412 61749 037093 035101 040090 043095 038093 036092 80411 91738
BBXX 44011 18181 99411 70666 46/// /3513 10035 20015 40135 55003 91750 22200 00097 10807 20807 70035 333 91216 555 11139 22147 31735 41717 61749 350132 350142 349137 351141 352139 356139
BBXX 41046 18181 99238 70683 46/// /0401 10251 20141 40179 58022 91750 22200 00260 11103 20401 300// 41103 70017 333 91202 555 11014 22015 31702 40503 61749 039014 024012 021012 044013 040018 017018 80502 91702
BBXX CGCC 18184 99461 70731 46/// /2603 11094 21148 40256 58016 7//// 8//// 22252 00045 2////
BBXX 46089 18181 99459 71258 46/// /3511 10089 20047 40268 51021 91750 22200 00096 11508 20704 330// 41507 70040 333 91213 555 11117 22124 31712 43414 61749 348110 349099 347100 343107 341107 340107
BBXX 46042 18181 99368 71224 46/// /1102 10108 40233 53016 91750 22200 00126 11607 20301 331// 41607 70037 333 91204 555 11022 22022 31720 41105 61749 105022 104023 102027 101025 104027 106030
AAXX 18184 78583 11470 63508 10257 20214 40197 69901 70182 84808 333 0/705 58003 81818 83642 85278
AAXX 18184 16008 12960 00203 11084 21152 38449 48414 51013 60002 333 11030 43013 92820
AAXX 18184 16084 12570 72703 10012 21012 39956 40128 52014 60002 82535 333 10044 82630 83357
AAXX 18184 16088 12970 43503 10020 20016 30008 40129 53017 60002 82031 333 10060 82361
AAXX 18184 16110 12898 70712 10060 21034 30110 40115 52004 60002 87070 333 10112 82357 85458 555 0////
AAXX 18184 16134 11/00 92418 11078 21078 37700 48399 56001 60002 74942 333 11042 44004 89/00 92710 92845 95090 95190
AAXX 18184 16153 12598 53621 10080 21108 39831 40097 52008 69902 82510 333 10098 82620 83458 555 0////
AAXX 18184 16158 12960 73103 10050 20000 30082 40090 52012 60002 87010 333 10120 87463
AAXX 18184 16206 12770 60106 10036 20021 30066 40075 53005 60002 83031 333 10070 83356
AAXX 18184 16219 11/00 90630 11060 21060 37980 48379 53010 60002 74944 333 11040 41005 89/00 95090 95190
AAXX 18184 16252 11457 71602 10010 20010 39129 42701 58006 60012 72862 85530 333 10038 41001 85618 83358
AAXX 18184 16280 12598 22813 10108 20066 39841 40061 52005 60032 82200 333 10122 82820 555 0////
AAXX 18184 16310 11597 62007 10070 20063 39861 40085 50001 60042 70196 86800 333 10114 83830 84640 555 0////
AAXX 18184 16320 11560 51309 10084 20075 30111 40123 51008 60052 72162 82270 333 10130 82630 85357 555 0////
AAXX 18184 16325 12597 73106 10090 20068 30080 40094 53006 60002 84530 333 10120 84620 86358 98065 555 0////
AAXX 18184 16360 11598 70709 10104 20085 39967 40102 55011 60062 70262 83570 333 10134 83630 85358 555 0////
AAXX 18184 16400 12497 32105 10114 20061 39821 40109 51009 60002 83100 333 10148 55300 83817 555 0435/
AAXX 18184 16420 11597 40000 10116 20097 30042 40108 52002 60042 70196 82530 333 10160 82620 83358 90945 96495 96562 555 0////
AAXX 18184 16429 12568 52908 10118 20033 30102 40113 53004 60002 84870 333 10150 82822 83628
AAXX 18184 16470 11560 52711 10118 20085 39900 40136 52011 60012 70261 85800 333 10130 55300 22/// 83823 83640 95000
AAXX 18184 16480 12997 03106 10112 20057 30037 40098 53007 60002 333 10150 555 0////
AAXX 18184 16522 12497 53225 10100 20058 39854 40098 53004 69922 85200 333 10110 55300 85815 555 0////
AAXX 18184 16539 NIL
AAXX 18184 16550 12998 02807 10086 20008 39911 40092 52011 60002 333 10122 555 0////
AAXX 18184 16021 12760 60204 11080 21161 37887 48421 51002 60002 86010 333 11048 43026 86456 92842
AAXX 18184 16022 12780 50108 11090 21160 37751 48410 53008 60002 83018 333 11079 48016 83456 92835
AAXX 18184 16033 12962 00000 11064 21098 38723 48428 52012 60002 333 11034 47020 92822
AAXX 18184 16040 12965 60701 11026 21036 39204 42738 53012 60002 80002 333 10000 41998 92832
AAXX 18184 16052 11/08 90512 11190 21214 36483 47913 52006 60002 74541 333 11180 49999 89/03
AAXX 18184 16061 12984 03104 10026 21063 39282 42738 52012 60002 333 10052
AAXX 18184 16098 12980 53503 10030 21008 30069 40121 51004 60002 80001 333 10078
AAXX 18184 16138 11757 42902 10018 21004 30109 40120 51014 60002 71022 84080 333 10046 84356
AAXX 18184 16148 12575 62708 10040 20027 30098 40110 52005 60002 83272 333 10073 83830 83358
AAXX 18184 16168 12475 83404 10036 21026 39318 42691 54000 69942 8352/ 333 10060 83610 86458
AAXX 18184 16172 12562 60506 10052 21034 39793 40095 53006 60002 81118 333 10070 81828 83459
AAXX 18184 16179 11575 80000 10034 20010 39401 42705 53002 69942 72162 8537/ 333 10054 81925 84827
AAXX 18184 16224 11463 70404 10044 20027 39743 40065 53004 60042 70262 87800 333 10062 82813 85616
AAXX 18184 16232 11598 41510 10070 20052 30019 40073 58005 69922 70261 81271 333 10112 55300 81825 83357 555 0////
AAXX 18184 16245 11460 40105 10046 20031 30044 40071 52013 60062 70162 83830 333 10086 82818 83633
AAXX 18184 16253 11462 63105 10048 20038 30075 40087 53011 60082 79592 83970 333 10102 81915 83818 85356
AAXX 18184 16258 12565 82005 10022 20022 39082 42699 55008 60002 8557/ 333 10040 85620 83459
AAXX 18184 16263 11064 22007 10010 21002 38819 48388 53005 60042 72274 82830 333 10030 44003 81801 92822 93120
AAXX 18184 16294 11497 52510 10086 20028 39882 40075 54001 60012 79596 85900 333 10100 82916 85630 555 0////
AAXX 18184 16337 12598 41120 10074 20057 39513 40086 57002 60012 84300 333 10082 81920 555 0////
AAXX 18184 16344 11/00 92412 11014 21014 38230 48419 54002 60022 74574 333 10000 47005 89/00 95090 95190
AAXX 18184 16434 12261 12610 10030 21029 38911 48415 53009 60002 81100 333 10064 81805 95010 95100
AAXX 18184 16450 12462 23104 10058 20004 39013 48479 52008 60002 82130 333 10092 81810
AAXX 18184 16459 NIL
AAXX 18184 16546 11464 51002 10082 20053 30090 40119 52007 60022 70162 84810 333 10140 81710 83650
AAXX 18184 16564 11598 42914 10094 20013 39972 40115 53011 69902 70161 82130 333 10138 82820 555 0////
AAXX 18184 71805 02580 70419 11036 21092 30166 40175 58021 60002 8750/ 333 11029 21037 60007 87626 91030 90710 91130 93100 555 60005
AAXX 18184 65338 31956 51802 10300 20204 39921 40108 70522 80002 333 10350 58015 85076
AAXX 18184 81401 06/// /1404 10319 20202 30085 40091 60001 333 60007 58005 555 60005
AAXX 18184 81408 06/// /0706 10315 20201 30080 40088 60001 333 60007 58002 555 60005
AAXX 18184 16045 NIL
AAXX 18184 16090 12965 60101 10040 21014 30041 40125 52014 60002 83031 333 10074 83363
AAXX 18184 16149 11456 82205 10039 20030 30086 40103 52005 60052 79599 883// 333 10070 83910 85830
AAXX 18184 16261 NIL
AAXX 18184 16453 12997 03404 10132 20046 30042 40120 52007 60002 333 10166 55300 555 0100/
AAXX 18184 16560 NIL
AAXX 18181 01062 11881 12106 11005 21022 30036 40049 52015 60002 70200 81030 333 10006 91111
AAXX 18181 01205 46/// /3013 10062 20034 39947 49992 50004 333 10071 91119
AAXX 18184 89642 40/// /1115 11033 21059 30031 40086 58008
AAXX 18181 01218 11682 82801 10000 21002 39970 49992 58003 60052 70282 83280 333 10004 91102
AAXX 18184 61968 16/// /2704 10280 20236 40100 60002 333 1//// 59003 90710 91110 555 60005
AAXX 18184 61970 16/// ///// 10279 20222 40098 69982 333 10324 59003 555 60005
AAXX 18184 61972 16/// /1813 10259 20209 40107 69922 333 10310 59008 90710 91123 555 60005
AAXX 18184 61980 11560 71707 10242 20217 40107 60012 70382 83832 333 10297 59011 83826 83368 90710 91111 924/7 555 69945
AAXX 18184 67005 14/// /2906 10276 20246 40097 60272 700// 333 10309 59008 90710 91108 555 60005
BBXX 51101 18181 99243 71621 46/// /0807 10232 20161 40208 53009 91750 22200 00239 11205 20502 333// 41204 70023 333 91208 555 11072 22076 31720 40809 61749 074069 073072 074070 067070 063065 068066
BBXX 46061 18181 99602 71468 46/// /1023 10021 49865 58070 91750 22200 00059 11009 20605 300// 41007 70043 333 91229 555 11249 22266 31655 41030 61749 097229 098220 098231 100222 100226 098222
BBXX 46083 18181 99582 71380 46/// /1614 10053 20035 40102 58043 91750 22200 00067 11006 20705 300// 41003 70032 333 91217 555 11152 22163 31732 41519 61749 160141 156139 153138 154142 154132 157141 81516 91732
BBXX 51000 18181 99235 71541 46/// /0809 10222 40202 53018 91750 22200 00232 10806 20804 332// 41404 70029 333 91212 555 11093 22098 31714 40812 61749 081085 084089 079094 078097 077098 078097
AAXX 18184 13600 12962 31410 10082 20002 30078 40131 57005 60002 83020 333 10106 83460
AAXX 18184 13610 12660 60000 10064 20019 39729 40156 52005 60002 86500 333 10074 86633
AAXX 18184 13611 12662 63208 10100 20048 30068 40159 52006 60002 86500 333 10145 86640
AAXX 18184 13619 12660 60000 10014 20008 39373 42763 52008 60002 86500 333 10042 86640
AAXX 18184 13622 12665 83202 10108 20008 30102 40110 54001 60002 885// 333 10135 88640
AAXX 18184 13624 12960 80902 10086 20031 30075 40114 54003 60002 8802/ 333 10140 88460
AAXX 18184 13625 12960 00000 10066 20012 39903 40137 54002 60002 333 10104
AAXX 18184 13629 12664 42204 10048 21023 39067 42726 54002 60002 84500 333 10072 84640
AAXX 18184 13601 12960 51802 10098 21001 30002 40103 54002 60002 85020 333 10136 85460
AAXX 18184 13602 NIL
AAXX 18184 13623 11960 72202 10066 20046 30121 40127 54000 60032 70266 87020 333 10090 87460
BBXX CGCC 18184 99461 70731 46/// /2603 11094 21148 40256 58016 7//// 8//// 22252 00045 2////
BBXX 44008 18181 99405 70692 46/// /0111 10034 21014 40167 56006 91750 22200 00114 10905 20705 303// 40903 70026 333 91213 555 11114 22119 31710 43614 61749 007109 011105 007108 007107 007104 016093
BBXX 44172 18181 99445 70634 46/// ///// 1//// 91801 22200 00070 10903 20903 312// 41101 70014
BBXX 44097 18181 99410 70711 46/// ///// 1//// 91802 22200 00121 10503 20502 315// 41201 70013
AAXX 18181 11603 01465 52602 10005 21028 39611 40102 52021 60012 72287 84501 333 10015 43002 69905 84615
BBXX VEP717 18184 99467 70487 41598 80000 10024 2002/ 40163 57024 70222 885// 22200 06032 322// 40806 80021
BBXX 46232 18181 99325 71174 46/// ///// 1//// 91738 22200 00151 11402 20901 328// 41402 70010
BBXX 46247 18181 99378 71228 46/// ///// 1//// 91751 22200 00113 11505 21002 329// 41505 70025
BBXX 46243 18181 99462 71241 46/// ///// 1//// 91759 22200 00085 11405 20804 326// 41404 70026
BBXX 46236 18181 99368 71219 46/// ///// 1//// 91750 22200 00126 11403 21001 328// 41403 70017
BBXX 46229 18181 99438 71246 46/// ///// 1//// 91751 22200 00102 11406 21003 330// 41406 70032
BBXX 46225 18181 99329 71174 46/// ///// 1//// 91744 22200 00148 11402 21001 328// 41401 70008
BBXX 46213 18181 99403 71247 46/// ///// 1//// 91754 22200 00103 11507 21003 329// 41506 70035
BBXX 46215 18181 99352 71209 46/// ///// 1//// 91738 22200 00148 11703 21001 325// 41703 70014
BBXX 46218 18181 99345 71208 46/// ///// 1//// 91802 22200 00138 11705 20802 331// 41705 70027
AAXX 18184 48601 11560 70309 10261 20225 30090 40094 60001 70522 81541 333 81626 83364 87078
AAXX 18184 48615 11562 70305 10265 20237 30096 40102 60001 70522 83542 333 83620 84364 87074
AAXX 18184 48620 11259 70000 10250 20242 30084 40093 60001 71022 83538 333 81706 83365 87276
AAXX 18184 48647 11456 73402 10270 20251 30067 40092 60001 71322 84942 333 81710 81917 86364
AAXX 18184 48657 11240 83507 10242 20235 30075 40093 69961 76166 86557 333 82705 84624 85464
AAXX 18184 48665 11563 70403 10243 20234 30087 40097 69921 70162 82542 333 82628 84364 86077
AAXX 18184 96413 11565 72202 10242 20237 30049 40076 60071 70196 83541 333 83620 86365
AAXX 18184 96421 11263 80000 10230 20225 30032 40068 60761 76196 8552/ 333 82706 84616 88464
AAXX 18184 96441 11468 72503 10251 20235 30039 40066 60001 71322 84931 333 83614 81915 83365 86080
AAXX 18184 96449 11458 70602 10245 20242 30042 40061 60191 76166 8467/ 333 84614 87365
AAXX 18184 96465 11440 81101 10250 20242 30036 40069 60181 79596 8597/ 333 83810 81912 84630 86363
AAXX 18184 96471 11466 71403 10261 20244 30062 40065 69961 76162 84848 333 82813 83635 87277
AAXX 18184 96481 12462 63402 10252 20233 30053 40072 60001 82841 333 81817 85080
AAXX 18184 96491 11465 61903 10263 20250 30056 40068 60001 71322 81931 333 81816 81917 86080
AAXX 18184 48601 11560 70309 10261 20225 30090 40094 60001 70522 81541 333 81626 83364 87078
AAXX 18184 48615 11562 70305 10265 20237 30096 40102 60001 70522 83542 333 83620 84364 87074
AAXX 18184 48620 11259 70000 10250 20242 30084 40093 60001 71022 83538 333 81706 83365 87276
AAXX 18184 48647 11456 73402 10270 20251 30067 40092 60001 71322 84942 333 81710 81917 86364
AAXX 18184 48650 11360 73403 10257 20234 30072 40091 60001 71322 82948 333 81708 81917 85364 85277
AAXX 18184 48657 11240 83507 10242 20235 30075 40093 69961 76166 86557 333 82705 84624 85464
AAXX 18184 48665 11563 70403 10243 20234 30087 40097 69921 70162 82542 333 82628 84364 86077
AAXX 18184 96413 11565 72202 10242 20237 30049 40076 60071 70196 83541 333 83620 86365
AAXX 18184 96421 11263 80000 10230 20225 30032 40068 60761 76196 8552/ 333 82706 84616 88464
AAXX 18184 96441 11468 72503 10251 20235 30039 40066 60001 71322 84931 333 83614 81915 83365 86080
AAXX 18184 96449 11458 70602 10245 20242 30042 40061 60191 76166 8467/ 333 84614 87365
AAXX 18184 96465 11440 81101 10250 20242 30036 40069 60181 79596 8597/ 333 83810 81912 84630 86363
AAXX 18184 96471 11466 71403 10261 20244 30062 40065 69961 76162 84848 333 82813 83635 87277
AAXX 18184 96481 12462 63402 10252 20233 30053 40072 60001 82841 333 81817 85080
AAXX 18184 96491 11465 61903 10263 20250 30056 40068 60001 71322 81931 333 81816 81917 86080
AAXX 18184 78958 42580 20406 10291 20195 30110 40120 60001 81441 333 10301 20225 58000 81824
BBXX 44099 18181 99369 70757 46/// ///// 1//// 91752 22200 00123 10602 20602 308// 41301 70011
BBXX 44039 18181 99411 70727 46/// /3507 11028 21120 40240 91745 22200 00097 10301 70006 333 91210
AAXX 18184 91348 11474 80906 10266 20244 30029 40081 55007 69901 70282 8527/ 333 56299 70358 555 91818
AAXX 18181 06201 47469 43311 10053 20015 30056 40109 51018 72385 8//// 333 10061 81/14 84/45 91014 91116 91213
AAXX 18181 06203 47581 6//06 10052 20007 30072 40123 51014 72386 8//// 333 10069 82/20 83/24 85/37 91010 91113 91210
AAXX 18181 06204 47783 33209 10056 20005 30058 40109 52011 72187 8//// 333 10062 81/56 83/61 91011 91112 91210
AAXX 18181 06205 47669 83310 10068 21014 30016 40076 53009 70385 8//// 333 10068 82/34 85/39 86/44 91013 91118 91212
AAXX 18181 06208 47676 13008 10054 20000 30034 40084 51012 70186 8//// 333 10062 81/45 91009 91114 91211
AAXX 18181 06211 47380 53113 10049 20009 30056 40112 53014 78100 8//// 333 10061 81/07 83/22 85/36 91016 91117 91213
AAXX 18181 06212 47984 03208 1//// 2//// 30050 40113 53016 72387 333 1//// 91010 91113 91211
AAXX 18181 06235 17462 83004 10027 20004 30108 40108 53010 60012 78100 8//// 333 10061 83/10 85/13 86/22 91008 91114 91209
AAXX 18181 06240 17464 82703 10028 20021 30122 40117 51010 60032 78185 8//// 333 10059 85/10 85/19 85/21 91005 91112 91209
AAXX 18181 06251 17570 72705 10042 20014 30092 40093 51011 69972 70385 8//// 333 10059 81/23 83/31 85/37 91008 91114 91209
AAXX 18181 06258 46/// /2407 333 91008 91113 91211
AAXX 18181 06269 17562 72303 10009 20009 30119 40113 53008 60022 70387 8//// 333 10058 85/29 87/37 87/47 91003 91111 91207
AAXX 18181 06280 17883 62505 10018 20007 30089 40093 53013 60022 72200 8//// 333 10052 86/58 91008 91109 91206
AAXX 18181 06310 17462 82105 10022 20019 30127 40137 52009 60052 72385 8//// 333 10059 81/16 83/27 86/40 91008 91115 91209
AAXX 18181 06344 17483 72703 10027 20010 30132 40125 53009 69992 72300 8//// 333 10057 81/17 83/27 85/31 91004 91110 91206
AAXX 18181 06370 15574 72404 10015 20005 30107 40133 53008 60002 8//// 333 10046 81/20 83/33 91006 91111 91207
AAXX 18181 06380 15962 02305 10009 21004 30004 40148 53007 69942 333 10032 91007 91109 91206
AAXX 18181 06206 47483 53109 10052 20004 30048 40101 53013 72300 8//// 333 10062 81/11 83/39 85/50 91012 91115 91212
AAXX 18181 06207 47476 6//12 10038 21010 30035 40090 51010 72100 8//// 333 10052 81/15 83/26 85/36 91016 91117 91213
AAXX 18181 06239 47473 7//09 10057 20016 3//// 4//// 5//// 72300 8//// 333 10060 81/15 83/22 87/50 91011 91116 91213
AAXX 18181 06252 46/// /3310 10061 20008 30066 40113 53012 222// 00097 10804 333 10065 91012 91116 91213
AAXX 18181 06260 17269 82604 10015 20006 30118 40120 53007 60022 78195 8//// 333 10056 81/04 83/06 85/15 91007 91110 91205
AAXX 18181 06270 17981 02705 10024 20000 30094 40094 51013 60012 72185 333 10053 91007 91111 91207
AAXX 18181 06290 15268 82304 10010 20003 30070 40111 51011 60002 8//// 333 10049 83/05 87/07 88/08 91006 91110 91207
BBXX 44100 18181 99363 70756 46/// ///// 1//// 91752 22200 00130 10603 20603 308// 41301 70014
BBXX 41110 18181 99341 70777 46/// ///// 1//// 91751 22200 00141 11301 20401 311// 41301 70007
BBXX 42099 18181 99273 70842 46/// ///// 1//// 91757 22200 00233 10604 20604 70018
BBXX 41113 18181 99284 70805 46/// ///// 1//// 91751 22200 00215 11302 20602 309// 41301 70009
BBXX 41114 18181 99276 70802 46/// ///// 1//// 91746 22200 00246 11303 20602 307// 41301 70014
BBXX 41112 18181 99307 70813 46/// ///// 1//// 91751 22200 00162 11102 20502 309// 41101 70010
BBXX 51204 18181 99213 71581 46/// ///// 1//// 91752 22200 00247 11303 20603 330// 41302 70016
BBXX 51202 18181 99214 71577 46/// ///// 1//// 91739 22200 00245 10805 20804 335// 41302 70024
AAXX 18184 91573 06/// /1008 10224 20199 39998 40096 53006 69941 333 58003 69947
AAXX 18184 91577 06/// /0000 10211 20161 30075 40096 52007 60001 333 58006 60007
AAXX 18184 91579 06/// /1208 10231 20159 30090 40098 53008 60001 333 58013 60007
AAXX 18184 91582 04670 /1802 10172 20162 30065 40100 53008 60002 700// 333 10246 20172 60007 90710 91105 555 60005
AAXX 18184 91583 06/// /2002 10204 20156 30090 40105 53009 60001 333 58015 60007
AAXX 18184 91587 06/// ///// 10149 20144 30055 40101 53008 60001 333 58011 60007
AAXX 18184 91590 04786 /0101 10179 20150 30069 40112 53009 60002 700// 333 10255 20174 60007 90710 91104 555 60005
AAXX 18184 91592 06/// /1310 10225 20146 30028 40113 53008 60001 333 58006 60007
AAXX 18184 91596 06/// /1606 10188 20141 30003 40114 53007 60001 333 58013 60007
AAXX 18184 91574 46/// ///// 29070 39865 49871 56011
AAXX 18184 91570 NIL
AAXX 18184 91598 NIL
BBXX 46219 18181 99332 71199 46/// ///// 1//// 91758 22200 00135 11805 20802 330// 41804 70023
BBXX 46224 18181 99332 71175 46/// ///// 1//// 91736 22200 00143 11401 20901 325// 41401 70005
BBXX 46214 18181 99379 71235 46/// ///// 1//// 91755 22200 00113 11707 21002 331// 41707 70035
AAXX 18184 67002 32580 20803 10268 20239 30081 40115 82800 333 10322 58001 81820 924/7
AAXX 18184 67009 NIL
AAXX 18184 67027 32582 22612 10287 20249 30061 40082 51023 82232 333 10318 82820 555 81360 81073
AAXX 18184 67083 31470 20000 10195 20165 38690 48465 51013 71311 82900 333 10279 81817 81917 94968 95818
AAXX 18184 67095 31465 70206 10276 20248 30045 40051 51015 71522 8693/ 333 10317 83817 81917 85633 94966 94967 95836 95837
AAXX 18184 67197 12480 42006 10225 20195 30076 40086 51011 60162 84800 333 10260 83817 555 81633=15.5
BBXX DBBH 18181 99368 70113 41598 30609 10146 20058 40249 52007 70111 82721 22221 04181 20503
AAXX 18181 03951 17960 /2904 10076 20043 30207 40234 52004 60002 7031/ 80/// 333 10089 85/72
AAXX 18181 03953 11581 72202 10067 20051 30196 40233 52001 60022 70282 87802 333 10086 81825 85656 92428
AAXX 18181 03955 11668 72604 10047 20035 30028 40230 53006 69902 78082 872// 333 10057 87821
AAXX 18181 03956 15982 /2804 10044 20021 30134 40213 53005 60002 87/// 333 10050 87/65
AAXX 18181 03962 11675 12801 10052 20036 30192 40216 55000 69902 72581 81500 333 10076 81640 92600
AAXX 18181 03963 17580 /2905 10073 20041 30178 40207 56001 69982 78185 87/// 333 10084 87/24 87/75
AAXX 18181 03966 17657 /2202 10020 20015 30116 40212 52002 60002 7101/ 83/// 333 10048 83/35
AAXX 18181 03967 11470 72406 10039 20027 30085 40202 53003 69902 75052 875// 333 10039 83710 87640
AAXX 18181 03969 11580 72707 10036 20026 30090 40196 55000 69902 72162 8353/ 333 10039 81620 83656 86358
AAXX 18181 03973 11578 72705 10040 20025 39943 40203 52002 69952 70381 875// 333 10048 83623 86631
AAXX 18181 03976 11480 72605 10079 20045 30182 40194 58004 69912 70382 85301 333 10085 81718 82920 85638
AAXX 18181 03980 17575 /3007 10060 20028 30144 40169 50003 69962 7015/ 85/// 333 10072 82/21 85/56 85/59
AAXX 18181 06407 11470 53208 10040 20002 30139 40146 53007 60032 72687 84832 333 10052 82814 83625 91114 91210
AAXX 18181 06447 NIL
AAXX 18181 06431 NIL
AAXX 18181 06432 NIL
AAXX 18181 06449 11565 82205 10008 21016 39921 40156 52003 69992 78511 8683/ 333 10024 83823 85650 91108 91205
AAXX 18181 06450 11240 82704 10010 21003 30129 40145 53010 60052 77087 877// 333 10049 83705 87706 91109 91206
AAXX 18181 06458 NIL
AAXX 18181 06465 NIL
AAXX 18181 06478 11960 12305 10000 21016 39925 40151 52005 69942 70181 80002 333 10021 81070 91110 91207
AAXX 18181 06496 NIL
OOXX AAUNI 18184 99798 50833 56093 07671 46/// /2417 11087 21175 38935 49820 54000 91800
AAXX 18181 06400 11580 72908 10043 20008 30138 40149 53006 60042 72186 878// 333 10061 81824 83638 85656 91113 91209
AAXX 18181 06428 NIL
AAXX 18181 06451 11580 62503 10020 21008 30076 40145 53004 60022 70387 85963 333 10039 84920 85657 91108 91206
AAXX 18181 06456 11775 72303 11003 21020 39782 40160 51003 60022 70272 81671 333 10013 41997 81556 83360 85362 91108 91206
AAXX 18181 06476 162// 7//// 11032 21042 39482 40169 52007 60032 333 11011 86/03 87/05 911// 912//
AAXX 18181 06479 11565 52204 10009 21003 30063 40145 52007 69902 70381 84501 333 10041 84634 91109 91205
AAXX 18181 06490 162// 82504 11014 21026 39571 40158 52008 60022 333 11003 86/05 88/06 91110 91204
AAXX 18181 06590 12475 32603 11007 21015 39701 40167 52016 60012 83500 333 10015 42001 83615 91109 91204
AAXX 18184 85041 31550 71508 10298 20250 39809 40073 57021 71522 85940 333 5600 59006 84820 81923 84358
AAXX 18184 85140 32470 71403 10288 20230 39908 40116 57015 82150 333 56330 58008 82817 87358
AAXX 18184 85141 32484 61810 10310 20260 39880 40107 57020 84134 333 56330 58010 84817 83358 86070
AAXX 18184 85151 NIL
AAXX 18184 85152 32484 82304 10250 20217 39870 40101 57016 8253/ 333 56330 58012 82617 88358
AAXX 18184 85201 32470 51410 10134 20028 36282 57018 84332 333 56100 58000 83817 81920
AAXX 18184 85230 NIL
AAXX 18184 85242 32584 60000 10182 21006 36538 57020 82201 333 56205 59002 82820 86070
AAXX 18184 91348 11474 80906 10266 20244 30029 40081 55007 69901 70282 8527/ 333 56299 70358 555 91818
AAXX 18181 01015 46/// /1705 11001 21039 333 10005 91110
AAXX 18181 01228 46/// /1304 10040 20024 39959 49966 52005 333 10054 91107
AAXX 18181 01340 16/// /3101 11044 21050 39133 40015 50003 69972 333 11042 91103
AAXX 18181 01425 16/// /3603 11025 21034 39939 40020 53015 60002 333 11002 91105
AAXX 18181 01192 16/// /1405 11007 21057 60002 333 11004 4/006 91110
AAXX 18181 01370 16/// /3103 11032 21061 38868 40044 58004 60002 333 11030 4/027 91110
AAXX 18181 01419 16/// /0502 10000 21012 60002 333 10000 91107
AAXX 18181 01455 16/// /0301 11043 21057 39674 49990 52004 60002 333 11022 91103
AAXX 18181 01156 16/// /0504 10000 21046 30001 40011 57001 60002 333 10014 91109
AAXX 18181 01265 16/// /0000 11087 21099 39381 49978 58006 60002 333 11087 91103
AAXX 18181 01273 16/// /1702 11097 21117 39784 49988 58006 60012 333 11097 91103
AAXX 18181 01375 16/// /3113 11049 21057 6//// 333 11046 91118
AAXX 18181 01440 46/// /2906 11071 21078 38719 40024 53007 333 11068 91108
AAXX 18181 01469 16/// /0102 11094 21111 39790 49968 57004 60002 333 11069 91102
AAXX 18181 01494 11885 13003 11014 21048 39887 49953 57001 60002 70200 81070 333 11001 91106
AAXX 18181 01144 41989 00405 10022 21039 70100 333 10024 91107
AAXX 18181 01293 11965 70000 11120 21130 39772 49990 58008 60002 70222 80001 333 11119 91102
AAXX 18181 01471 11989 00000 11076 21086 60002 70100 333 11062 91100
AAXX 18181 01037 16/// /1102 11078 21086 30041 40047 54001 60002 333 11005 91104
AAXX 18181 01065 11530 80502 11053 21059 39902 40067 52003 60002 71022 886// 333 11012 91103
AAXX 18181 01092 46/// /1903 11037 21074 333 10003 91106
AAXX 18181 01199 11572 80404 11052 21057 39571 40045 56006 60002 70232 885// 333 11032 91107
AAXX 18181 01245 11560 72801 11009 21025 39260 49964 57003 60012 78582 872// 333 11007 91103
AAXX 18181 01329 11260 72603 10002 21014 39963 40025 52002 69942 71522 87800 333 10007 91106
AAXX 18181 01337 16/// /0501 11032 21048 39957 40025 55002 60002 333 11023 91102
AAXX 18181 01374 31889 13003 11005 21041 70200 81040 333 11002
AAXX 18181 01389 11885 63202 11130 21140 39634 49959 58014 60002 70320 83028 333 11099 91103
AAXX 18181 01436 16/// /3006 10034 21011 6//// 333 10035 91109
AAXX 18184 89532 41/70 71910 11002 21015 39889 49916 58037 70271 86802
AAXX 18181 76040 32960 02702 10131 20090 30204 40218 52011 91740 333 10186 20061 30/// 58019 98660
AAXX 18181 76220 32558 80000 10064 20045 38152 40219 57001 88500 91735 333 10064 21012 30/// 56500 59041 88624
AAXX 18181 76225 32560 60901 10112 20053 38645 40176 50011 84620 91745 333 10112 20078 30/// 56550 59069 84630 82450
AAXX 18181 76256 32980 73001 10183 20117 30203 40217 52012 87030 91745 333 10193 20108 30/// 56/5/ 59002 87356
AAXX 18181 76305 32970 02202 10206 20058 30199 40207 52006 91740 333 10210 20119 30/// 58008
AAXX 18181 76323 32770 71605 10166 20024 38286 40226 58008 82430 91745 333 10168 20075 30/// 56550 59068 82650 85356
AAXX 18181 76342 31460 80201 10100 20086 39577 40309 57011 70222 886// 91750 333 10105 20085 31/// 561// 59042 88710
AAXX 18181 76382 32980 61101 10195 20126 38948 40212 57010 80004 91748 333 10206 20110 30/// 56007 58017 86076
AAXX 18181 76390 31968 52503 10179 20058 38276 40199 57002 70544 80006 91730 333 10190 20025 30/// 56005 59028 85070
AAXX 18181 76393 01108 80501 10118 20111 39666 40260 57009 60021 75055 887// 91750 333 10120 20100 31/// 569// 59047 69977 88703
AAXX 18181 76423 32580 81301 10184 20011 38190 40219 57009 85474 91755 333 10212 20045 30/// 56999 59014 81820 84627 81357 92067
AAXX 18181 76458 32970 42604 10254 20163 30180 40185 50000 84006 91738 333 10265 20134 30/// 56//9 59005 84070
AAXX 18181 76471 32580 62104 10182 20007 37736 40199 54000 83505 91750 333 10190 20040 30/// 56501 59005 83635 83075
AAXX 18181 76491 32960 00701 10220 20146 39870 40268 57017 91750 333 10223 20118 30/// 59048
AAXX 18181 76499 32860 30000 10216 20148 30222 40244 57014 83030 91750 333 10217 20156 30/// 56090 58/// 83357
AAXX 18181 76525 32970 61303 10122 20064 37513 40225 57002 80006 91740 333 10122 20055 30/// 56//5 59009 86080
AAXX 18181 76548 32475 52202 10220 20151 30254 40264 58012 82434 91735 333 10225 20154 30/// 56325 59024 82617
AAXX 18181 76556 32970 32702 10254 20130 39151 40183 50004 80006 91733 333 10254 20131 30/// 56006 59003 83270 99020
AAXX 18181 76571 32980 00000 10184 20065 38215 40233 55009 91748 333 10188 20080 30/// 59003
AAXX 18181 76577 32970 00000 10182 20093 38087 40210 58005 91740 333 10188 20095 30/// 59004
AAXX 18181 76581 32575 70302 10200 20141 39130 40248 57010 87200 91750 333 10205 20120 30/// 56030 59020 87830
AAXX 18181 76593 32370 30505 10266 20244 30219 40221 58011 82204 91750 333 10280 20214 30/// 561/9 58002 82820 810// 91007 91505
AAXX 18181 76612 32962 01101 10216 20092 38519 40229 58011 91752 333 10220 20088 30/// 59003
AAXX 18181 76625 32450 20909 10196 20077 38187 40196 57012 82200 91740 333 10196 20095 30/// 56200 59004 82820
AAXX 18181 76654 31930 02701 10301 20215 30165 40169 52001 70544 91752 333 10301 20218 30/// 59002
AAXX 18181 76658 31560 13203 10306 20154 39656 40167 57014 70540 81200 91748 333 10313 20273 30/// 56800 58004 81822 94082 98924
AAXX 18181 76662 32670 22601 10218 20132 38508 40199 57001 81200 91745 333 10222 20064 30/// 56200 58005 82833
AAXX 18181 76665 32962 03002 10201 20102 38158 40206 57013 91755 333 10212 20072 30/// 59008
AAXX 18181 76675 32581 11302 10186 20005 37410 40213 57007 81200 91749 333 10193 20009 30/// 569// 59006 81826
AAXX 18181 76681 31480 23201 10180 20089 37823 40185 57010 70500 82200 91445 333 10180 20068 30/// 50190 55030 50190 59006 70000 82817
AAXX 18181 76683 32575 10502 10192 20072 37860 40218 57017 81200 91755 333 10195 20080 30/// 56200 59007 81833
AAXX 18181 76685 32570 13601 10204 20041 37901 40205 57004 81100 91750 333 10206 20054 30/// 56900 59002 81827
AAXX 18181 76687 01462 72001 10156 20128 38756 40269 58007 60051 70158 874// 91745 333 10159 20118 31/// 563// 58004 60017 86618 81821
AAXX 18181 76692 31556 63003 10268 20169 30225 40244 58001 70542 83234 91745 333 10273 20204 30/// 56815 58006 81820 82630
AAXX 18181 76695 32960 33303 10272 20200 30199 40204 57015 82105 91750 333 10280 20191 30/// 561/0 58005 82825
AAXX 18181 76698 12560 40601 10277 20216 30196 40204 57011 69931 83201 91755 333 10292 20200 30/// 5610/ 58004 83820
AAXX 18181 76737 01480 70701 10170 20135 38850 40254 58009 60041 70352 82270 91735 333 10170 20124 31/// 56220 58004 60047 82813 85358 91105 91516
AAXX 18181 76750 01560 80602 10238 20224 30191 40207 57010 60011 75151 83770 91750 333 10248 20190 31/// 51100 58008 60017 83920 85557
AAXX 18181 76773 32570 20903 10220 20072 38467 40202 57007 82400 91746 333 10228 20081 30/// 56200 58009 82620
AAXX 18181 76775 31570 32404 10243 20081 38567 40219 52008 70300 83800 91745 333 10252 20095 30/// 56800 58010 81820 82627
AAXX 18181 76805 32570 12303 10291 20253 30147 40151 50000 81100 91750 333 10311 20220 30/// 565// 58017 81831
AAXX 18181 76833 32970 03511 10296 20158 30157 40159 57008 91745 333 10296 20250 30/// 58013 92011
AAXX 18181 76840 32550 10208 10282 20174 30085 40141 57010 81100 91740 333 10290 20210 30/// 569// 59010 81827 91223 91502 90417
AAXX 18181 76843 32565 13604 10252 20155 39540 40186 57001 81200 91733 333 10264 20176 30/// 58001 81822
AAXX 18181 76845 21460 60502 10146 20115 37983 40220 56007 70152 86600 91745 333 10152 20090 30/// 56100 58002 69907 86713
AAXX 18181 76855 32580 12301 10320 20242 30076 40126 56001 81200 91740 333 10325 20218 30/// 56900 58002 81820 92000
AAXX 18181 76243 11372 80801 10118 20093 39979 40282 57006 69901 75050 884// 91735 333 10124 20098 30/// 563// 59054 88612
AAXX 18181 76311 32980 40000 10182 20126 39922 40207 50011 80008 91740 333 10186 20098 30/// 56005 58000 84270
AAXX 18181 76405 32875 70000 10200 20160 30193 40215 52009 87020 91750 333 10200 20160 30/// 56040 58008 87457
AAXX 18181 76412 31766 62002 10200 20135 30172 40218 52034 70544 86030 91740 333 10210 20150 30/// 56030 58018 86352
AAXX 18181 76640 01158 82202 10186 20180 30269 40281 57001 69921 75022 8222/ 91740 333 10202 20162 31/// 5679/ 59009 69927 83802 86540
AAXX 18181 76647 32670 70502 10279 20186 30189 40200 57016 8323/ 91750 333 10302 20195 30/// 561// 58003 83838 84358
AAXX 18181 76741 11370 60504 10242 20223 30199 40217 52003 69901 75022 84230 91730 333 10275 20204 30/// 561// 58017 81709 83810
AAXX 18181 76040 32960 02702 10131 20090 30204 40218 52011 91740 333 10186 20061 30/// 58019 98660
AAXX 18181 76220 32558 80000 10064 20045 38152 40219 57001 88500 91735 333 10064 21012 30/// 56500 59041 88624
AAXX 18181 76225 32560 60901 10112 20053 38645 40176 50011 84620 91745 333 10112 20078 30/// 56550 59069 84630 82450
AAXX 18181 76256 32980 73001 10183 20117 30203 40217 52012 87030 91745 333 10193 20108 30/// 56/5/ 59002 87356
AAXX 18181 76305 32970 02202 10206 20058 30199 40207 52006 91740 333 10210 20119 30/// 58008
AAXX 18181 76323 32770 71605 10166 20024 38286 40226 58008 82430 91745 333 10168 20075 30/// 56550 59068 82650 85356
AAXX 18181 76342 31460 80201 10100 20086 39577 40309 57011 70222 886// 91750 333 10105 20085 31/// 561// 59042 88710
AAXX 18181 76382 32980 61101 10195 20126 38948 40212 57010 80004 91748 333 10206 20110 30/// 56007 58017 86076
AAXX 18181 76390 31968 52503 10179 20058 38276 40199 57002 70544 80006 91730 333 10190 20025 30/// 56005 59028 85070
AAXX 18181 76393 01108 80501 10118 20111 39666 40260 57009 60021 75055 887// 91750 333 10120 20100 31/// 569// 59047 69977 88703
AAXX 18181 76423 32580 81301 10184 20011 38190 40219 57009 85474 91755 333 10212 20045 30/// 56999 59014 81820 84627 81357 92067
AAXX 18181 76458 32970 42604 10254 20163 30180 40185 50000 84006 91738 333 10265 20134 30/// 56//9 59005 84070
AAXX 18181 76471 32580 62104 10182 20007 37736 40199 54000 83505 91750 333 10190 20040 30/// 56501 59005 83635 83075
AAXX 18181 76491 32960 00701 10220 20146 39870 40268 57017 91750 333 10223 20118 30/// 59048
AAXX 18181 76499 32860 30000 10216 20148 30222 40244 57014 83030 91750 333 10217 20156 30/// 56090 58/// 83357
AAXX 18181 76525 32970 61303 10122 20064 37513 40225 57002 80006 91740 333 10122 20055 30/// 56//5 59009 86080
AAXX 18181 76548 32475 52202 10220 20151 30254 40264 58012 82434 91735 333 10225 20154 30/// 56325 59024 82617
AAXX 18181 76556 32970 32702 10254 20130 39151 40183 50004 80006 91733 333 10254 20131 30/// 56006 59003 83270 99020
AAXX 18181 76571 32980 00000 10184 20065 38215 40233 55009 91748 333 10188 20080 30/// 59003
AAXX 18181 76577 32970 00000 10182 20093 38087 40210 58005 91740 333 10188 20095 30/// 59004
AAXX 18181 76581 32575 70302 10200 20141 39130 40248 57010 87200 91750 333 10205 20120 30/// 56030 59020 87830
AAXX 18181 76593 32370 30505 10266 20244 30219 40221 58011 82204 91750 333 10280 20214 30/// 561/9 58002 82820 810// 91007 91505
AAXX 18181 76612 32962 01101 10216 20092 38519 40229 58011 91752 333 10220 20088 30/// 59003
AAXX 18181 76625 32450 20909 10196 20077 38187 40196 57012 82200 91740 333 10196 20095 30/// 56200 59004 82820
AAXX 18181 76654 31930 02701 10301 20215 30165 40169 52001 70544 91752 333 10301 20218 30/// 59002
AAXX 18181 76658 31560 13203 10306 20154 39656 40167 57014 70540 81200 91748 333 10313 20273 30/// 56800 58004 81822 94082 98924
AAXX 18181 76662 32670 22601 10218 20132 38508 40199 57001 81200 91745 333 10222 20064 30/// 56200 58005 82833
AAXX 18181 76665 32962 03002 10201 20102 38158 40206 57013 91755 333 10212 20072 30/// 59008
AAXX 18181 76675 32581 11302 10186 20005 37410 40213 57007 81200 91749 333 10193 20009 30/// 569// 59006 81826
AAXX 18181 76681 31480 23201 10180 20089 37823 40185 57010 70500 82200 91445 333 10180 20068 30/// 50190 55030 50190 59006 70000 82817
AAXX 18181 76683 32575 10502 10192 20072 37860 40218 57017 81200 91755 333 10195 20080 30/// 56200 59007 81833
AAXX 18181 76685 32570 13601 10204 20041 37901 40205 57004 81100 91750 333 10206 20054 30/// 56900 59002 81827
AAXX 18181 76687 01462 72001 10156 20128 38756 40269 58007 60051 70158 874// 91745 333 10159 20118 31/// 563// 58004 60017 86618 81821
AAXX 18181 76692 31556 63003 10268 20169 30225 40244 58001 70542 83234 91745 333 10273 20204 30/// 56815 58006 81820 82630
AAXX 18181 76695 32960 33303 10272 20200 30199 40204 57015 82105 91750 333 10280 20191 30/// 561/0 58005 82825
AAXX 18181 76698 12560 40601 10277 20216 30196 40204 57011 69931 83201 91755 333 10292 20200 30/// 5610/ 58004 83820
AAXX 18181 76737 01480 70701 10170 20135 38850 40254 58009 60041 70352 82270 91735 333 10170 20124 31/// 56220 58004 60047 82813 85358 91105 91516
AAXX 18181 76750 01560 80602 10238 20224 30191 40207 57010 60011 75151 83770 91750 333 10248 20190 31/// 51100 58008 60017 83920 85557
AAXX 18181 76773 32570 20903 10220 20072 38467 40202 57007 82400 91746 333 10228 20081 30/// 56200 58009 82620
AAXX 18181 76775 31570 32404 10243 20081 38567 40219 52008 70300 83800 91745 333 10252 20095 30/// 56800 58010 81820 82627
AAXX 18181 76805 32570 12303 10291 20253 30147 40151 50000 81100 91750 333 10311 20220 30/// 565// 58017 81831
AAXX 18181 76833 32970 03511 10296 20158 30157 40159 57008 91745 333 10296 20250 30/// 58013 92011
AAXX 18181 76840 32550 10208 10282 20174 30085 40141 57010 81100 91740 333 10290 20210 30/// 569// 59010 81827 91223 91502 90417
AAXX 18181 76843 32565 13604 10252 20155 39540 40186 57001 81200 91733 333 10264 20176 30/// 58001 81822
AAXX 18181 76845 21460 60502 10146 20115 37983 40220 56007 70152 86600 91745 333 10152 20090 30/// 56100 58002 69907 86713
AAXX 18181 76855 32580 12301 10320 20242 30076 40126 56001 81200 91740 333 10325 20218 30/// 56900 58002 81820 92000
AAXX 18181 76243 11372 80801 10118 20093 39979 40282 57006 69901 75050 884// 91735 333 10124 20098 30/// 563// 59054 88612
AAXX 18181 76311 32980 40000 10182 20126 39922 40207 50011 80008 91740 333 10186 20098 30/// 56005 58000 84270
AAXX 18181 76405 32875 70000 10200 20160 30193 40215 52009 87020 91750 333 10200 20160 30/// 56040 58008 87457
AAXX 18181 76412 31766 62002 10200 20135 30172 40218 52034 70544 86030 91740 333 10210 20150 30/// 56030 58018 86352
AAXX 18181 76640 01158 82202 10186 20180 30269 40281 57001 69921 75022 8222/ 91740 333 10202 20162 31/// 5679/ 59009 69927 83802 86540
AAXX 18181 76647 32670 70502 10279 20186 30189 40200 57016 8323/ 91750 333 10302 20195 30/// 561// 58003 83838 84358
AAXX 18181 76741 11370 60504 10242 20223 30199 40217 52003 69901 75022 84230 91730 333 10275 20204 30/// 561// 58017 81709 83810
AAXX 18181 76040 32960 02702 10131 20090 30204 40218 52011 91740 33310186 20061 30/// 58019 98660
AAXX 18181 76220 32558 80000 10064 20045 38152 40219 57001 88500 91735333 10064 21012 30/// 56500 59041 88624
AAXX 18181 76225 32560 60901 10112 20053 38645 40176 50011 84620 91745333 10112 20078 30/// 56550 59069 84630 82450
AAXX 18181 76256 32980 73001 10183 20117 30203 40217 52012 87030 91745333 10193 20108 30/// 56/5/ 59002 87356
AAXX 18181 76305 32970 02202 10206 20058 30199 40207 52006 91740 33310210 20119 30/// 58008
AAXX 18181 76323 32770 71605 10166 20024 38286 40226 58008 82430 91745333 10168 20075 30/// 56550 59068 82650 85356
AAXX 18181 76342 31460 80201 10100 20086 39577 40309 57011 70222 886//91750 333 10105 20085 31/// 561// 59042 88710
AAXX 18181 76382 32980 61101 10195 20126 38948 40212 57010 80004 91748333 10206 20110 30/// 56007 58017 86076
AAXX 18181 76390 31968 52503 10179 20058 38276 40199 57002 70544 8000691730 333 10190 20025 30/// 56005 59028 85070
AAXX 18181 76393 01108 80501 10118 20111 39666 40260 57009 60021 75055887// 91750 333 10120 20100 31/// 569// 59047 69977 88703
AAXX 18181 76423 32580 81301 10184 20011 38190 40219 57009 85474 91755333 10212 20045 30/// 56999 59014 81820 84627 81357 92067
AAXX 18181 76458 32970 42604 10254 20163 30180 40185 50000 84006 91738333 10265 20134 30/// 56//9 59005 84070
AAXX 18181 76471 32580 62104 10182 20007 37736 40199 54000 83505 91750333 10190 20040 30/// 56501 59005 83635 83075
AAXX 18181 76491 32960 00701 10220 20146 39870 40268 57017 91750 33310223 20118 30/// 59048
AAXX 18181 76499 32860 30000 10216 20148 30222 40244 57014 83030 91750333 10217 20156 30/// 56090 58/// 83357
AAXX 18181 76525 32970 61303 10122 20064 37513 40225 57002 80006 91740333 10122 20055 30/// 56//5 59009 86080
AAXX 18181 76548 32475 52202 10220 20151 30254 40264 58012 82434 91735333 10225 20154 30/// 56325 59024 82617
AAXX 18181 76556 32970 32702 10254 20130 39151 40183 50004 80006 91733333 10254 20131 30/// 56006 59003 83270 99020
AAXX 18181 76571 32980 00000 10184 20065 38215 40233 55009 91748 33310188 20080 30/// 59003
AAXX 18181 76577 32970 00000 10182 20093 38087 40210 58005 91740 33310188 20095 30/// 59004
AAXX 18181 76581 32575 70302 10200 20141 39130 40248 57010 87200 91750333 10205 20120 30/// 56030 59020 87830
AAXX 18181 76593 32370 30505 10266 20244 30219 40221 58011 82204 91750333 10280 20214 30/// 561/9 58002 82820 810// 91007 91505
AAXX 18181 76612 32962 01101 10216 20092 38519 40229 58011 91752 33310220 20088 30/// 59003
AAXX 18181 76625 32450 20909 10196 20077 38187 40196 57012 82200 91740333 10196 20095 30/// 56200 59004 82820
AAXX 18181 76654 31930 02701 10301 20215 30165 40169 52001 70544 91752333 10301 20218 30/// 59002
AAXX 18181 76658 31560 13203 10306 20154 39656 40167 57014 70540 8120091748 333 10313 20273 30/// 56800 58004 81822 94082 98924
AAXX 18181 76662 32670 22601 10218 20132 38508 40199 57001 81200 91745333 10222 20064 30/// 56200 58005 82833
AAXX 18181 76665 32962 03002 10201 20102 38158 40206 57013 91755 33310212 20072 30/// 59008
AAXX 18181 76675 32581 11302 10186 20005 37410 40213 57007 81200 91749333 10193 20009 30/// 569// 59006 81826
AAXX 18181 76681 31480 23201 10180 20089 37823 40185 57010 70500 8220091445 333 10180 20068 30/// 50190 55030 50190 59006 7000082817
AAXX 18181 76683 32575 10502 10192 20072 37860 40218 57017 81200 91755333 10195 20080 30/// 56200 59007 81833
AAXX 18181 76685 32570 13601 10204 20041 37901 40205 57004 81100 91750333 10206 20054 30/// 56900 59002 81827
AAXX 18181 76687 01462 72001 10156 20128 38756 40269 58007 60051 70158874// 91745 333 10159 20118 31/// 563// 58004 60017 8661881821
AAXX 18181 76692 31556 63003 10268 20169 30225 40244 58001 70542 8323491745 333 10273 20204 30/// 56815 58006 81820 82630
AAXX 18181 76695 32960 33303 10272 20200 30199 40204 57015 82105 91750333 10280 20191 30/// 561/0 58005 82825
AAXX 18181 76698 12560 40601 10277 20216 30196 40204 57011 69931 8320191755 333 10292 20200 30/// 5610/ 58004 83820
AAXX 18181 76737 01480 70701 10170 20135 38850 40254 58009 60041 7035282270 91735 333 10170 20124 31/// 56220 58004 60047 8281385358 91105 91516
AAXX 18181 76750 01560 80602 10238 20224 30191 40207 57010 60011 7515183770 91750 333 10248 20190 31/// 51100 58008 60017 8392085557
AAXX 18181 76773 32570 20903 10220 20072 38467 40202 57007 82400 91746333 10228 20081 30/// 56200 58009 82620
AAXX 18181 76775 31570 32404 10243 20081 38567 40219 52008 70300 8380091745 333 10252 20095 30/// 56800 58010 81820 82627
AAXX 18181 76805 32570 12303 10291 20253 30147 40151 50000 81100 91750333 10311 20220 30/// 565// 58017 81831
AAXX 18181 76833 32970 03511 10296 20158 30157 40159 57008 91745 33310296 20250 30/// 58013 92011
AAXX 18181 76840 32550 10208 10282 20174 30085 40141 57010 81100 91740333 10290 20210 30/// 569// 59010 81827 91223 91502 90417
AAXX 18181 76843 32565 13604 10252 20155 39540 40186 57001 81200 91733333 10264 20176 30/// 58001 81822
AAXX 18181 76845 21460 60502 10146 20115 37983 40220 56007 70152 8660091745 333 10152 20090 30/// 56100 58002 69907 86713
AAXX 18181 76855 32580 12301 10320 20242 30076 40126 56001 81200 91740333 10325 20218 30/// 56900 58002 81820 92000
AAXX 18181 76243 11372 80801 10118 20093 39979 40282 57006 69901 75050884// 91735 333 10124 20098 30/// 563// 59054 88612
AAXX 18181 76311 32980 40000 10182 20126 39922 40207 50011 80008 91740333 10186 20098 30/// 56005 58000 84270
AAXX 18181 76405 32875 70000 10200 20160 30193 40215 52009 87020 91750333 10200 20160 30/// 56040 58008 87457
AAXX 18181 76412 31766 62002 10200 20135 30172 40218 52034 70544 8603091740 333 10210 20150 30/// 56030 58018 86352
AAXX 18181 76640 01158 82202 10186 20180 30269 40281 57001 69921 750228222/ 91740 333 10202 20162 31/// 5679/ 59009 69927 8380286540
AAXX 18181 76647 32670 70502 10279 20186 30189 40200 57016 8323/ 91750333 10302 20195 30/// 561// 58003 83838 84358
AAXX 18181 76741 11370 60504 10242 20223 30199 40217 52003 69901 7502284230 91730 333 10275 20204 30/// 561// 58017 81709 83810
AAXX 18184 17600 12965 10207 10142 20108 30210 40220 51008 69922 80001 333 10208 20138 81075
AAXX 18184 17601 12980 00305 10135 20112 30185 40217 50010 69922 91750 333 10206
AAXX 18184 17607 NIL
AAXX 18184 17609 12770 10505 10142 20124 30224 40228 51015 60002 81500 333 10210 20132 81656
AAXX 18181 37682 32997 03402 11080 21086 38152 48553 53020 333 11011
AAXX 18181 37717 329// 02101 11021 21053 38138 48569 52010 333 10009
AAXX 18181 37788 41495 60000 11012 21041 39319 40361 52014 71022 866// 333 11008 86716
AAXX 18184 48310 31956 00000 10150 20139 39703 40175 57010 71000 333 58005
AAXX 18184 48325 31956 00000 10161 20152 39913 40164 51001 71000 333 58007
AAXX 18184 48329 31950 03503 10172 20155 39819 40168 52001 71000 333 58007
AAXX 18184 48352 NIL
AAXX 18184 48357 32960 10000 10161 20142 30005 40181 57015 80001 333 59002
AAXX 18184 48380 32960 00000 10208 20186 30060 40156 57003 333 58002
AAXX 18184 48383 31950 00401 10177 20134 30007 40172 57011 71000 333 59004
AAXX 18184 48403 31957 00303 10206 20161 39946 40161 57007 71000 333 59003
AAXX 18184 48405 32960 20306 10185 20136 39996 40163 55009 80005 333 58002
AAXX 18184 48420 31950 50506 10242 20173 30128 40133 56008 71022 80006 333 58003
AAXX 18184 48421 31956 00000 10190 20179 30032 40149 57007 71000 333 58001
AAXX 18184 48425 31950 20000 10230 20172 30137 40147 57008 71000 80005 333 59001
AAXX 18184 48426 31958 00403 10242 20156 30130 40144 56009 70500 333 59001
AAXX 18184 48429 32560 40510 10253 20154 30132 40140 57010 81105 333 58005
AAXX 18184 48430 31958 20908 10243 20149 30127 40134 57014 70500 80005 333 58000
AAXX 18184 48450 31957 00000 10220 20180 30108 40142 57006 71000 333 58001
AAXX 18184 48459 32960 20305 10243 20174 30131 40134 57005 80001 333 58005
AAXX 18184 48465 31958 33505 10226 20190 30127 40131 57011 71011 80005 333 58001
AAXX 18184 48550 31558 30205 10262 20217 30105 40112 57007 71011 81145 333 58001 70006
AAXX 18184 48552 31458 70000 10246 20228 30108 40115 57009 71022 82206 333 58006
AAXX 18184 48566 32560 70000 10246 20219 30109 40117 57010 82847 333 58008 70010
AAXX 18184 48568 01459 60705 10268 20237 30103 40110 57009 60243 71062 82866 333 58010 69907 70241
AAXX 18184 48300 31958 00000 10177 20165 39841 40162 51001 71000 333 58007
AAXX 18184 48327 31558 10000 10194 20160 39811 40174 57003 71010 81500 333 58008
AAXX 18184 48331 NIL
AAXX 18184 48353 31956 02403 10175 20140 39878 40176 57003 71000 333 58002
AAXX 18184 48356 31956 00000 10169 20145 39979 40182 57012 71000 333 59003
AAXX 18184 48375 31957 00000 10195 20153 39914 40145 57002 71000 333 58006
AAXX 18184 48378 31556 20000 10214 20172 30100 40154 56001 71000 81505 333 58003
AAXX 18184 48381 32960 00504 10192 20145 39947 40170 57007 333 59001
AAXX 18184 48407 32960 20206 10195 20153 39998 40143 57011 80001 333 59008
AAXX 18184 48431 32960 10604 10207 20151 39943 40161 57008 80001 333 58003
AAXX 18184 48456 NIL
AAXX 18184 48480 NIL
AAXX 18184 48500 31956 20000 10244 20179 30113 40120 57014 71000 80005 333 59005
AAXX 18184 48551 31550 20000 10250 20226 30112 40120 57011 71010 82505 333 58003
AAXX 18184 48565 31558 50906 10256 20235 30096 40106 57002 71011 81145 333 58007
AAXX 18184 48569 31459 70000 10249 20228 30073 40113 57011 71022 82846 333 58012 70278
AAXX 18184 48583 NIL
AAXX 18181 76040 32960 02702 10131 20090 30204 40218 52011 91740 333 10186 20061 30/// 58019 98660
AAXX 18181 76122 32570 10000 10094 20048 38538 40205 57014 81200 91750 333 10130 21013 30/// 56400 59053 81835
AAXX 18181 76123 06/// /0504 10113 20048 3//// 4//// 5//// 60002 7//// 8//// 91750 333 0//// 10117 21022 56/// 57/// 5//// 60007 8//// 8//// 8//// 8//// 9//// 9//// 9//// 444 ///// 555
AAXX 18181 76220 32558 80000 10064 20045 38152 40219 57001 88500 91735 333 10064 21012 30/// 56500 59041 88624
AAXX 18181 76225 32560 60901 10112 20053 38645 40176 50011 84620 91745 333 10112 20078 30/// 56550 59069 84630 82450
AAXX 18181 76256 32980 73001 10183 20117 30203 40217 52012 87030 91745 333 10193 20108 30/// 56/5/ 59002 87356
AAXX 18181 76305 32970 02202 10206 20058 30199 40207 52006 91740 333 10210 20119 30/// 58008
AAXX 18181 76323 32770 71605 10166 20024 38286 40226 58008 82430 91745 333 10168 20075 30/// 56550 59068 82650 85356
AAXX 18181 76342 31460 80201 10100 20086 39577 40309 57011 70222 886// 91750 333 10105 20085 31/// 561// 59042 88710
AAXX 18181 76373 32570 40901 10176 21001 38228 40178 57018 84500 91750 333 10180 21015 30/// 56900 59025 84625
AAXX 18181 76382 32980 61101 10195 20126 38948 40212 57010 80004 91748 333 10206 20110 30/// 56007 59034 86076
AAXX 18181 76390 31968 52503 10179 20058 38276 40199 57002 70544 80006 91730 333 10190 20025 30/// 56005 59028 85070
AAXX 18181 76393 01108 80501 10118 20111 39666 40260 57009 60021 75055 887// 91750 333 10120 20100 31/// 569// 59047 69977 88703
AAXX 18181 76423 32580 81301 10184 20011 38190 40219 57009 85474 91755 333 10212 20045 30/// 56999 59014 81820 84627 81357 92067
AAXX 18181 76458 32970 42604 10254 20163 30180 40185 50000 84006 91738 333 10265 20134 30/// 56//9 59005 84070
AAXX 18181 76471 32580 62104 10182 20007 37736 40199 54000 83505 91750 333 10190 20040 30/// 56501 59005 83635 83075
AAXX 18181 76490 06/// /1202 10219 20128 39853 40241 58019 60002 7//// 8//// 91750 333 0//// 10221 20111 30/// 54/// 56/// 57/// 59045 60007 8//// 8//// 8//// 8//// 9//// 9//// 9//// 44
AAXX 18181 76491 32960 00701 10220 20146 39870 40268 57017 91750 333 10223 20118 30/// 59048
AAXX 18181 76499 32860 30000 10216 20148 30222 40244 57014 83030 91750 333 10217 20156 30/// 56090 58/// 83357
AAXX 18181 76525 32970 61303 10122 20064 37513 40225 57002 80006 91740 333 10122 20055 30/// 56//5 59009 86080
AAXX 18181 76538 06/// /1406 10180 20079 38215 40180 58011 60002 7//// 8//// 91750 333 0//// 10190 20103 30/// 4//// 54/// 56/// 57/// 59010 60007 8//// 8//// 8//// 9//// 9//// 9//// 44
AAXX 18181 76539 31562 11503 10170 20077 38214 40232 57009 70544 81200 91745 333 10185 20080 30/// 56300 59007 81823
AAXX 18181 76543 32975 11802 10247 20160 30240 40273 57015 80009 91745 333 10249 20149 31/// 56005 59032
AAXX 18181 76547 06/// /2202 10229 20158 30238 40250 58017 60002 7//// 8//// 91750 333 0//// 10232 20149 56/// 57/// 59026 60007 8//// 8//// 8//// 8//// 9//// 9//// 9//// 444 ///// 555
AAXX 18181 76548 32475 52202 10220 20151 30254 40264 58012 82434 91735 333 10225 20154 30/// 56325 59024 82617
AAXX 18181 76556 32970 32702 10254 20130 39151 40183 50004 80006 91733 333 10254 20131 30/// 56006 59003 83270 99020
AAXX 18181 76571 32980 00000 10184 20065 38215 40233 55009 91748 333 10188 20080 30/// 59003
AAXX 18181 76577 32970 00000 10182 20093 38087 40210 58005 91740 333 10188 20095 30/// 59004
AAXX 18181 76578 06/// /1302 10209 20051 38081 40138 58012 60002 7//// 8//// 91750 333 0//// 10209 20088 30/// 4//// 54/// 56/// 57/// 59007 60007 8//// 8//// 8//// 9//// 9//// 9//// 44
AAXX 18181 76581 32575 70302 10200 20141 39130 40248 57010 87200 91750 333 10205 20120 30/// 56030 59020 87830
AAXX 18181 76586 06/// /1401 10215 20184 30094 40250 58015 60002 7//// 8//// 91750 333 0//// 10215 20159 30/// 4//// 54/// 56/// 57/// 59031 60007 8//// 8//// 8//// 9//// 9//// 9//// 44
AAXX 18181 76592 06/// /0512 10268 21094 30219 40219 58011 60002 7//// 8//// 91750 333 0//// 10280 20230 30/// 4//// 54/// 56/// 57/// 58002 60007 8//// 8//// 8//// 9//// 9//// 9//// 44
AAXX 18181 76593 32370 30505 10266 20244 30219 40221 58011 82204 91750 333 10280 20214 30/// 561/9 58002 82820 810// 91007 91505
AAXX 18181 76612 32962 01101 10216 20092 38519 40229 58011 91752 333 10220 20088 30/// 59003
AAXX 18181 76625 32450 20909 10196 20077 38187 40196 57012 82200 91740 333 10196 20095 30/// 56200 59004 82820
AAXX 18181 76641 06/// /3501 10192 20184 30250 40262 58009 69982 7//// 8//// 91750 333 0//// 10193 20175 30/// 4//// 54/// 56/// 57/// 59010 69987 8//// 8//// 8//// 8//// 9//// 9//// 9/
AAXX 18181 76645 06/// /0403 10288 20167 30205 40218 58017 60002 7//// 8//// 91750 333 0//// 10293 20208 30/// 4//// 54/// 56/// 57/// 58003 60007 8//// 8//// 8//// 9//// 9//// 9//// 44
AAXX 18181 76654 31930 02701 10301 20215 30165 40169 52001 70544 91752 333 10301 20218 30/// 59002
AAXX 18181 76656 32975 00000 10234 20100 38548 40206 58006 91750 333 10240 20076 30/// 58001
AAXX 18181 76658 31560 13203 10306 20154 39656 40167 57014 70540 81200 91748 333 10313 20273 30/// 56800 58004 81822 94082 98924
AAXX 18181 76659 06/// /3102 10329 20100 3//// 4//// 5//// 60002 7//// 8//// 91750 333 0//// 10329 20163 30/// 4//// 54/// 56/// 57/// 5//// 60007 8//// 8//// 8//// 9//// 9//// 9//// 44
AAXX 18181 76662 32670 22601 10218 20132 38508 40199 57001 81200 91745 333 10222 20064 30/// 56200 58005 82833
AAXX 18181 76665 32962 03002 10201 20102 38158 40206 57013 91755 333 10212 20072 30/// 59008
AAXX 18181 76675 32581 11302 10186 20005 37410 40213 57007 81200 91749 333 10193 20009 30/// 569// 59006 81826
AAXX 18181 76681 31480 23201 10180 20089 37823 40185 57010 70500 82200 91445 333 10180 20068 30/// 50190 55030 50190 59006 70000 82817
AAXX 18181 76683 32575 10502 10192 20072 37860 40218 57017 81200 91755 333 10195 20080 30/// 56200 59007 81833
AAXX 18181 76684 06/// /0408 10199 20021 37864 40150 58013 60002 7//// 8//// 91750 333 0//// 10199 20082 30/// 4//// 54/// 56/// 57/// 59007 60007 8//// 8//// 8//// 9//// 9//// 9//// 44
AAXX 18181 76685 32570 13601 10204 20041 37901 40205 57004 81100 91750 333 10206 20054 30/// 56900 59002 81827
AAXX 18181 76687 01462 72001 10156 20128 38756 40269 58007 60051 70158 874// 91745 333 10159 20118 31/// 563// 58004 60017 86618 81821
AAXX 18181 76692 31556 63003 10268 20169 30225 40244 58001 70542 83234 91745 333 10273 20204 30/// 56815 58006 81820 82630
AAXX 18181 76693 06/// /3202 10269 20188 30223 40242 58012 60002 7//// 8//// 91750 333 0//// 10273 20204 30/// 4//// 56/// 57/// 58006 60007 8//// 8//// 8//// 8//// 9//// 9//// 9//// 44
AAXX 18181 76695 32960 33303 10272 20200 30199 40204 57015 82105 91750 333 10280 20191 30/// 561/0 58005 82825
AAXX 18181 76698 12560 40601 10277 20216 30196 40204 57011 69931 83201 91755 333 10292 20200 30/// 5610/ 58004 83820
AAXX 18181 76727 06/// /1701 10232 20061 38437 40129 58007 60002 7//// 8//// 91750 333 0//// 10238 20127 30/// 4//// 54/// 56/// 57/// 58005 60007 8//// 8//// 8//// 9//// 9//// 9//// 44
AAXX 18181 76737 01480 70701 10170 20135 38850 40254 58009 60041 70352 82270 91735 333 10170 20124 31/// 56220 58004 60047 82813 85358 91105 91516
AAXX 18181 76738 06/// /0601 10192 20134 38849 40227 58013 60042 7//// 8//// 333 10192 20121 30/// 56/// 57/// 58003 60017 8//// 8//// 8//// 8//// 9//// 9//// 9//// 444 ///// 555 30188
AAXX 18181 76750 01560 80602 10238 20224 30191 40207 57010 60011 75151 83770 91750 333 10248 20190 31/// 51100 58008 60017 83920 85557
AAXX 18181 76751 06/// /0302 10226 20213 30197 40208 58010 60012 7//// 8//// 91750 333 0//// 10250 20190 30/// 4//// 54/// 56/// 57/// 58008 60017 8//// 8//// 8//// 9//// 9//// 9//// 44
AAXX 18181 76762 32904 03303 10278 20224 38792 40171 58004 91752 333 10279 20156 30/// 59001 91205
AAXX 18181 76772 06/// /1105 10211 20079 38469 40168 58012 60002 7//// 8//// 91750 333 0//// 10223 20088 30/// 4//// 56/// 57/// 58006 60007 8//// 8//// 8//// 9//// 9//// 9//// 444 ////
AAXX 18181 76773 32570 20903 10220 20072 38467 40202 57007 82400 91746 333 10228 20081 30/// 56200 58009 82620
AAXX 18181 76775 31570 32404 10243 20081 38567 40219 52008 70300 83800 91745 333 10252 20095 30/// 56800 58010 81820 82627
AAXX 18181 76776 06/// /2902 10235 20067 38549 40150 58013 60002 7//// 8//// 91750 333 0//// 10240 20088 30/// 4//// 56/// 57/// 58010 60007 8//// 8//// 8//// 9//// 9//// 9//// 444 ////
AAXX 18181 76805 32570 12303 10291 20253 30147 40151 50000 81100 91750 333 10311 20220 30/// 565// 58017 81831
AAXX 18181 76806 06/// /2403 10296 20247 30145 40149 58003 60002 7//// 8//// 91750 333 10299 20219 30/// 56/// 57/// 58011 60007 8//// 8//// 8//// 8//// 9//// 9//// 9//// 555 30276
AAXX 18181 76833 32970 03511 10296 20158 30157 40159 57008 91745 333 10296 20250 30/// 58013 92011
AAXX 18181 76840 32550 10208 10282 20174 30085 40141 57010 81100 91740 333 10290 20210 30/// 569// 59010 81827 91223 91502 90417
AAXX 18181 76843 32565 13604 10252 20155 39540 40186 57001 81200 91733 333 10264 20176 30/// 58001 81822
AAXX 18181 76845 21460 60502 10146 20115 37983 40220 56007 70152 86600 91745 333 10152 20090 30/// 56100 58002 69907 86713
AAXX 18181 76848 11570 70501 10188 20124 38419 40146 58005 69901 70351 8661/ 91751 333 10190 20130 30/// 56199 580008 86626
AAXX 18181 76855 32580 12301 10320 20242 30076 40126 56001 81200 91740 333 10325 20218 30/// 56900 58002 81820 92000
AAXX 18181 76902 06/// /2401 10318 20228 30006 40141 58005 60002 7//// 8//// 91750 333 0//// 10322 20226 30/// 4//// 54/// 56/// 57/// 58011 60007 8//// 8//// 8//// 8//// 9//// 9//// 9/
AAXX 18181 76903 31680 32102 10322 20229 30005 40135 58005 70111 84500 91755 333 10328 20230 30/// 56100 58009 81833 81650
AAXX 18181 76243 11372 80801 10118 20093 39979 40282 57006 69901 75050 884// 91735 333 10124 20098 30/// 563// 59054 88612
AAXX 18181 76311 32980 40000 10182 20126 39922 40207 50011 80008 91740 333 10186 20098 30/// 56005 58000 84270
AAXX 18181 76405 32875 70000 10200 20160 30193 40215 52009 87020 91750 333 10200 20160 30/// 56040 58008 87457
AAXX 18181 76412 31766 62002 10200 20135 30172 40218 52034 70544 86030 91740 333 10210 20150 30/// 56030 58018 86352
AAXX 18181 76640 01158 82202 10186 20180 30269 40281 57001 69921 75022 8222/ 91740 333 10202 20162 31/// 5679/ 59009 69927 83802 86540
AAXX 18181 76647 32670 70502 10279 20186 30189 40200 57016 8323/ 91750 333 10302 20195 30/// 561// 58003 83838 84358
AAXX 18181 76741 11370 60504 10242 20223 30199 40217 52003 69901 75022 84230 91730 333 10275 20204 30/// 561// 58017 81709 83810
AAXX 18184 78905 11478 70908 10245 20209 30119 40142 60063 70382 87800 333 10281 20206 58001 70081 87816 90960
AAXX 18181 11010 01681 62302 10002 21007 39767 40155 52017 69902 70281 333 10039 69905 85637
AAXX 18181 11012 12580 82403 10000 21024 39676 40156 52016 60002 881// 333 10041 21001 55300 91113
AAXX 18181 11022 16/// /2504 10011 21028 39744 40138 53019 60002 333 10039 21011 55300
AAXX 18181 11035 32783 42904 10032 21023 39887 40143 52018 81532 333 10051 20020 81650
AAXX 18181 11036 32884 52804 10030 21041 39921 40148 52019 333 10061 81658 85070
AAXX 18181 11101 11560 71601 10006 20002 39637 40177 52017 60022 70272 8567/ 333 10015 21002 82720 85625
AAXX 18181 11120 32870 69901 11042 21048 39442 40175 52017 333 10006 81657 84359
AAXX 18181 11126 16/// /3205 11127 21134 37637 48427 53007 69902 333 11109 21132 55300
AAXX 18181 11130 16/// /2401 11039 21045 39562 40173 52017 60002 333 10004 21040 55300
AAXX 18181 11146 32970 63402 11165 21200 36816 47913 53008 80002 333 11140 86070
AAXX 18181 11150 12780 51703 11005 21030 39607 40161 53014 69902 333 10026 81850 84656
AAXX 18181 11155 11/70 52808 11074 21107 38286 48422 53009 69902 78571 85400 333 11061 21087 55300 818// 84606 91116
AAXX 18181 11157 32980 69901 11065 21078 39375 40181 52020 85042 333 11003 85359
AAXX 18181 11172 NIL
AAXX 18181 11190 12670 53003 10022 21050 39912 40150 53022 60002 855// 333 10076 21009 55300
AAXX 18181 11204 16/// /2901 11032 21068 39352 40169 53014 60002 333 11005 21052 55300
AAXX 18181 11212 31/89 72703 11106 21129 37742 48434 51011 70232 81512 333 11093 816// 86461 555 16080
AAXX 18181 11231 32760 72702 11024 21026 39575 40164 52013 333 11002 81650 83359 86466
AAXX 18181 11240 32980 73602 11016 21047 39703 40154 52016 333 10057 87368
AAXX 18181 11244 16/// /3201 11017 21032 39816 40155 53013 60002 333 10061 21053 55300
AAXX 18181 11389 12650 72203 10018 21030 39820 40152 53018 60002 875// 333 10044 20011 55300
AAXX 18184 48302 NIL
AAXX 18184 48304 31958 00000 10151 20140 39703 40180 56005 71000 333 58005
AAXX 18184 48334 31958 00000 10166 20156 39799 40172 57001 71000 333 58007
AAXX 18184 48360 31959 00803 10193 20131 39900 40167 57011 71000 333 59003
AAXX 18184 48372 NIL
AAXX 18184 48373 31930 20000 10230 20173 30093 40157 57002 71000 80001 333 58008
AAXX 18184 48386 31930 20000 10222 20208 30105 40149 57009 71000 80005 333 58009
AAXX 18184 48387 NIL
AAXX 18184 48408 32960 20202 10193 20158 39992 40146 57012 80001 333 59006
AAXX 18184 48415 31958 10404 10230 20164 30129 40141 57012 71000 80005 333 58001
AAXX 18184 48433 NIL
AAXX 18184 48437 32960 03603 10186 20150 39952 40168 57007 333 58006
AAXX 18184 48440 31957 00000 10225 20175 30086 40137 57011 71000 333 58004
AAXX 18184 48451 32960 00000 10208 20192 30131 40142 57011 333 59001
AAXX 18184 48454 NIL
AAXX 18184 48457 NIL
AAXX 18184 48463 NIL
AAXX 18184 48464 NIL
AAXX 18184 48479 31958 00402 10230 20164 30079 40132 57009 71000 333 58003
AAXX 18184 48520 31958 40000 10215 20201 30107 40123 56008 71011 80005 333 58002
AAXX 18184 48554 31458 60310 10258 20235 30108 40112 57009 71022 82246 333 58004 70185
AAXX 18184 48563 NIL
AAXX 18184 48571 32560 60000 10255 20228 30095 40107 57009 82846 333 58000 70298
AAXX 18184 91503 11475 80000 10254 20246 40051 54000 69921 71522 8597/ 333 56999 81815 81916 84626 88359
AAXX 18184 91517 11475 41805 10242 20230 40057 57007 69941 71522 81808 333 56909 81815 84280
AAXX 18184 78016 11364 83022 10171 20140 30090 40094 57024 60111 76086 8677/ 333 10235 20170 70114 90942
AAXX 18181 03955 11568 72604 10047 20035 30028 40230 53006 69902 78082 872// 333 10057 87821
AAXX 18184 48307 31950 00000 10153 20139 39792 40186 57004 71000 333 58004
AAXX 18184 48324 32960 00000 10174 20159 39939 40165 52008 333 58005
AAXX 18184 48333 31957 00000 10168 20154 39864 40176 57004 71000 333 58001
AAXX 18184 48350 NIL
AAXX 18184 48355 31950 00000 10150 20132 39950 40179 57012 71000 333 58001
AAXX 18184 48358 31956 20000 10135 20126 30000 40184 57015 71000 80001 333 59003
AAXX 18184 48384 31957 00000 10181 20162 39976 40172 56007 71000 333 59002
AAXX 18184 48401 31956 10505 10233 20168 30047 40156 57008 71000 80005 333 58000
AAXX 18184 48404 31958 00406 10181 20139 39979 40162 56013 71000 333 59004
AAXX 18184 48409 31958 10202 10193 20158 30000 40152 57003 71000 80001 333 58006
AAXX 18184 48419 31958 00404 10225 20202 30129 40137 57008 71000 333 58000
AAXX 18184 48427 NIL
AAXX 18184 48435 31959 11115 10204 20142 39706 40151 57009 71000 80001 333 58000
AAXX 18184 48453 32960 30000 10250 20178 30129 40132 57012 80005 333 58000
AAXX 18184 48458 32960 00000 10209 20175 30068 40151 57011 333 58003
AAXX 18184 48474 32960 30000 10204 20178 30007 40134 57013 80005 333 59003
AAXX 18184 48481 NIL
AAXX 18184 48555 NIL
AAXX 18184 48556 NIL
AAXX 18184 48557 31557 50000 10230 20222 30071 40107 57012 71011 82806 333 58000
AAXX 18184 48560 31457 80000 10250 20238 30100 40105 56010 71022 82876 333 58000 70073
AAXX 18184 48574 32560 60000 10258 20235 30077 40106 57009 82146 333 58000 70002
AAXX 18184 48581 NIL
AAXX 18184 91503 11475 80000 10254 20246 40051 54000 69921 71522 8597/ 333 56999 81815 81916 84626 88359
AAXX 18184 91517 11475 41805 10242 20230 40057 57007 69941 71522 81808 333 56909 81815 84280
AAXX 18181 15015 02598 81902 10007 21031 39562 42770 52026 69962 885// 333 10012 21008 3/002 43002 60007 91003 91105 92821
AAXX 18181 15020 02597 42304 10030 21037 39963 40165 52035 60002 84500 333 10083 20012 31013 60007 91005 91109
AAXX 18181 15090 02597 32402 10047 21036 30077 40171 51042 60002 83500 333 10093 20009 31009 55300 10172 20004 3//// 60007 91006 91106
AAXX 18181 15108 01/91 92920 11100 21100 38011 48446 52030 60002 74943 333 11063 21105 3//// 44007 60007 91028 92723 92833 92922 96037
AAXX 18181 15120 02997 02300 11004 21019 39678 40189 52029 60002 333 10058 21012 34010 55300 10222 2//// 3//// 60007 91001 91102
AAXX 18181 15150 02997 03201 11006 21052 39960 40180 52038 60002 333 10086 21010 30009 60007 91001 91102
AAXX 18181 15170 02598 62303 11004 21041 39382 42775 52028 69922 86300 333 10015 21004 31005 60007 91005 91106
AAXX 18181 15200 02997 01102 10008 20004 30029 40178 52016 60002 333 10061 21003 31010 60007 91002 91103
AAXX 18181 15230 02997 02003 11008 21013 39892 40196 52018 60002 333 10047 21015 31007 55300 10237 20004 3//// 60007 91003 91103
AAXX 18181 15260 02998 02502 11027 21036 39643 40199 51025 60002 333 10052 21040 30009 60007 91002 91104 92600
AAXX 18181 15280 01999 02504 11157 21221 37418 47937 52022 60002 70230 333 11131 21157 3//// 49028 60007 92825
AAXX 18181 15292 02998 01402 11005 21006 39885 40189 52014 60002 333 10047 21006 31005 60007 91002 91104
AAXX 18181 15310 02997 02401 10028 21007 30094 40182 51035 60002 333 10088 20020 31013 55300 10216 20004 3//// 60007 91001 91102 92600
AAXX 18181 15335 02997 02601 10034 20006 30175 40181 52034 60002 333 10102 20026 30011 60007 91003 91104
AAXX 18181 15346 02997 00102 10007 21028 39887 40185 51026 60002 333 10086 21010 31011 60007 91004 91105
AAXX 18181 15350 02997 03601 10020 21042 30062 40186 51032 60002 333 10094 21006 31014 60007 91002 91102
AAXX 18181 15360 02998 02804 10052 20014 30165 40179 52036 60002 222// 06080 20200 333 10087 20042 3//// 60007 91005 91105 92418
AAXX 18181 15410 02997 01001 10020 21010 30082 40181 52019 60002 333 10093 20015 31012 60007 91001 91102
AAXX 18181 15420 02997 02402 10022 21010 30067 40182 51027 60002 333 10085 20017 34010 55300 0//// 20000 3//// 60007 91003 91103
AAXX 18181 15450 02997 01702 10029 21024 39940 40180 52017 60002 333 10081 20016 31011 55300 10204 20004 3//// 60007 91002 91103
AAXX 18181 15460 02997 02402 10035 21006 30161 40186 51026 60002 333 10083 20035 31011 60007 91003 91105
AAXX 18181 15470 02997 02401 10012 21010 30055 40184 52021 60002 333 10077 20005 31009 60007 91002 91103
AAXX 18181 15480 02997 02401 10040 21003 30175 40192 51032 60002 222// 06084 2//// 333 10080 20040 31010 60007 91003 91104 92427
AAXX 18181 76040 32960 02702 10131 20090 30204 40218 52011 91740 333 10186 20061 30/// 58019 98660
AAXX 18181 76122 32570 10000 10094 20048 38538 40205 57014 81200 91750 333 10130 21013 30/// 56400 59053 81835
AAXX 18181 76123 06/// /0504 10113 20048 3//// 4//// 5//// 60002 7//// 8//// 91750 333 0//// 10117 21022 56/// 57/// 5//// 60007 8//// 8//// 8//// 8//// 9//// 9//// 9//// 444 ///// 555
AAXX 18181 76220 32558 80000 10064 20045 38152 40219 57001 88500 91735 333 10064 21012 30/// 56500 59041 88624
AAXX 18181 76225 32560 60901 10112 20053 38645 40176 50011 84620 91745 333 10112 20078 30/// 56550 59069 84630 82450
AAXX 18181 76256 32980 73001 10183 20117 30203 40217 52012 87030 91745 333 10193 20108 30/// 56/5/ 59002 87356
AAXX 18181 76305 32970 02202 10206 20058 30199 40207 52006 91740 333 10210 20119 30/// 58008
AAXX 18181 76323 32770 71605 10166 20024 38286 40226 58008 82430 91745 333 10168 20075 30/// 56550 59068 82650 85356
AAXX 18181 76342 31460 80201 10100 20086 39577 40309 57011 70222 886// 91750 333 10105 20085 31/// 561// 59042 88710
AAXX 18181 76373 32570 40901 10176 21001 38228 40178 57018 84500 91750 333 10180 21015 30/// 56900 59025 84625
AAXX 18181 76382 32980 61101 10195 20126 38948 40212 57010 80004 91748 333 10206 20110 30/// 56007 59034 86076
AAXX 18181 76390 31968 52503 10179 20058 38276 40199 57002 70544 80006 91730 333 10190 20025 30/// 56005 59028 85070
AAXX 18181 76393 01108 80501 10118 20111 39666 40260 57009 60021 75055 887// 91750 333 10120 20100 31/// 569// 59047 69977 88703
AAXX 18181 76423 32580 81301 10184 20011 38190 40219 57009 85474 91755 333 10212 20045 30/// 56999 59014 81820 84627 81357 92067
AAXX 18181 76458 32970 42604 10254 20163 30180 40185 50000 84006 91738 333 10265 20134 30/// 56//9 59005 84070
AAXX 18181 76471 32580 62104 10182 20007 37736 40199 54000 83505 91750 333 10190 20040 30/// 56501 59005 83635 83075
AAXX 18181 76490 06/// /1202 10219 20128 39853 40241 58019 60002 7//// 8//// 91750 333 0//// 10221 20111 30/// 54/// 56/// 57/// 59045 60007 8//// 8//// 8//// 8//// 9//// 9//// 9//// 44
AAXX 18181 76491 32960 00701 10220 20146 39870 40268 57017 91750 333 10223 20118 30/// 59048
AAXX 18181 76499 32860 30000 10216 20148 30222 40244 57014 83030 91750 333 10217 20156 30/// 56090 58/// 83357
AAXX 18181 76525 32970 61303 10122 20064 37513 40225 57002 80006 91740 333 10122 20055 30/// 56//5 59009 86080
AAXX 18181 76538 06/// /1406 10180 20079 38215 40180 58011 60002 7//// 8//// 91750 333 0//// 10190 20103 30/// 4//// 54/// 56/// 57/// 59010 60007 8//// 8//// 8//// 9//// 9//// 9//// 44
AAXX 18181 76539 31562 11503 10170 20077 38214 40232 57009 70544 81200 91745 333 10185 20080 30/// 56300 59007 81823
AAXX 18181 76543 32975 11802 10247 20160 30240 40273 57015 80009 91745 333 10249 20149 31/// 56005 59032
AAXX 18181 76547 06/// /2202 10229 20158 30238 40250 58017 60002 7//// 8//// 91750 333 0//// 10232 20149 56/// 57/// 59026 60007 8//// 8//// 8//// 8//// 9//// 9//// 9//// 444 ///// 555
AAXX 18181 76548 32475 52202 10220 20151 30254 40264 58012 82434 91735 333 10225 20154 30/// 56325 59024 82617
AAXX 18181 76556 32970 32702 10254 20130 39151 40183 50004 80006 91733 333 10254 20131 30/// 56006 59003 83270 99020
AAXX 18181 76571 32980 00000 10184 20065 38215 40233 55009 91748 333 10188 20080 30/// 59003
AAXX 18181 76577 32970 00000 10182 20093 38087 40210 58005 91740 333 10188 20095 30/// 59004
AAXX 18181 76578 06/// /1302 10209 20051 38081 40138 58012 60002 7//// 8//// 91750 333 0//// 10209 20088 30/// 4//// 54/// 56/// 57/// 59007 60007 8//// 8//// 8//// 9//// 9//// 9//// 44
AAXX 18181 76581 32575 70302 10200 20141 39130 40248 57010 87200 91750 333 10205 20120 30/// 56030 59020 87830
AAXX 18181 76586 06/// /1401 10215 20184 30094 40250 58015 60002 7//// 8//// 91750 333 0//// 10215 20159 30/// 4//// 54/// 56/// 57/// 59031 60007 8//// 8//// 8//// 9//// 9//// 9//// 44
AAXX 18181 76592 06/// /0512 10268 21094 30219 40219 58011 60002 7//// 8//// 91750 333 0//// 10280 20230 30/// 4//// 54/// 56/// 57/// 58002 60007 8//// 8//// 8//// 9//// 9//// 9//// 44
AAXX 18181 76593 32370 30505 10266 20244 30219 40221 58011 82204 91750 333 10280 20214 30/// 561/9 58002 82820 810// 91007 91505
AAXX 18181 76612 32962 01101 10216 20092 38519 40229 58011 91752 333 10220 20088 30/// 59003
AAXX 18181 76625 32450 20909 10196 20077 38187 40196 57012 82200 91740 333 10196 20095 30/// 56200 59004 82820
AAXX 18181 76641 06/// /3501 10192 20184 30250 40262 58009 69982 7//// 8//// 91750 333 0//// 10193 20175 30/// 4//// 54/// 56/// 57/// 59010 69987 8//// 8//// 8//// 8//// 9//// 9//// 9/
AAXX 18181 76645 06/// /0403 10288 20167 30205 40218 58017 60002 7//// 8//// 91750 333 0//// 10293 20208 30/// 4//// 54/// 56/// 57/// 58003 60007 8//// 8//// 8//// 9//// 9//// 9//// 44
AAXX 18181 76654 31930 02701 10301 20215 30165 40169 52001 70544 91752 333 10301 20218 30/// 59002
AAXX 18181 76656 32975 00000 10234 20100 38548 40206 58006 91750 333 10240 20076 30/// 58001
AAXX 18181 76658 31560 13203 10306 20154 39656 40167 57014 70540 81200 91748 333 10313 20273 30/// 56800 58004 81822 94082 98924
AAXX 18181 76659 06/// /3102 10329 20100 3//// 4//// 5//// 60002 7//// 8//// 91750 333 0//// 10329 20163 30/// 4//// 54/// 56/// 57/// 5//// 60007 8//// 8//// 8//// 9//// 9//// 9//// 44
AAXX 18181 76662 32670 22601 10218 20132 38508 40199 57001 81200 91745 333 10222 20064 30/// 56200 58005 82833
AAXX 18181 76665 32962 03002 10201 20102 38158 40206 57013 91755 333 10212 20072 30/// 59008
AAXX 18181 76675 32581 11302 10186 20005 37410 40213 57007 81200 91749 333 10193 20009 30/// 569// 59006 81826
AAXX 18181 76681 31480 23201 10180 20089 37823 40185 57010 70500 82200 91445 333 10180 20068 30/// 50190 55030 50190 59006 70000 82817
AAXX 18181 76683 32575 10502 10192 20072 37860 40218 57017 81200 91755 333 10195 20080 30/// 56200 59007 81833
AAXX 18181 76684 06/// /0408 10199 20021 37864 40150 58013 60002 7//// 8//// 91750 333 0//// 10199 20082 30/// 4//// 54/// 56/// 57/// 59007 60007 8//// 8//// 8//// 9//// 9//// 9//// 44
AAXX 18181 76685 32570 13601 10204 20041 37901 40205 57004 81100 91750 333 10206 20054 30/// 56900 59002 81827
AAXX 18181 76687 01462 72001 10156 20128 38756 40269 58007 60051 70158 874// 91745 333 10159 20118 31/// 563// 58004 60017 86618 81821
AAXX 18181 76692 31556 63003 10268 20169 30225 40244 58001 70542 83234 91745 333 10273 20204 30/// 56815 58006 81820 82630
AAXX 18181 76693 06/// /3202 10269 20188 30223 40242 58012 60002 7//// 8//// 91750 333 0//// 10273 20204 30/// 4//// 56/// 57/// 58006 60007 8//// 8//// 8//// 8//// 9//// 9//// 9//// 44
AAXX 18181 76695 32960 33303 10272 20200 30199 40204 57015 82105 91750 333 10280 20191 30/// 561/0 58005 82825
AAXX 18181 76698 12560 40601 10277 20216 30196 40204 57011 69931 83201 91755 333 10292 20200 30/// 5610/ 58004 83820
AAXX 18181 76727 06/// /1701 10232 20061 38437 40129 58007 60002 7//// 8//// 91750 333 0//// 10238 20127 30/// 4//// 54/// 56/// 57/// 58005 60007 8//// 8//// 8//// 9//// 9//// 9//// 44
AAXX 18181 76737 01480 70701 10170 20135 38850 40254 58009 60041 70352 82270 91735 333 10170 20124 31/// 56220 58004 60047 82813 85358 91105 91516
AAXX 18181 76738 06/// /0601 10192 20134 38849 40227 58013 60042 7//// 8//// 333 10192 20121 30/// 56/// 57/// 58003 60017 8//// 8//// 8//// 8//// 9//// 9//// 9//// 444 ///// 555 30188
AAXX 18181 76750 01560 80602 10238 20224 30191 40207 57010 60011 75151 83770 91750 333 10248 20190 31/// 51100 58008 60017 83920 85557
AAXX 18181 76751 06/// /0302 10226 20213 30197 40208 58010 60012 7//// 8//// 91750 333 0//// 10250 20190 30/// 4//// 54/// 56/// 57/// 58008 60017 8//// 8//// 8//// 9//// 9//// 9//// 44
AAXX 18181 76762 32904 03303 10278 20224 38792 40171 58004 91752 333 10279 20156 30/// 59001 91205
AAXX 18181 76772 06/// /1105 10211 20079 38469 40168 58012 60002 7//// 8//// 91750 333 0//// 10223 20088 30/// 4//// 56/// 57/// 58006 60007 8//// 8//// 8//// 9//// 9//// 9//// 444 ////
AAXX 18181 76773 32570 20903 10220 20072 38467 40202 57007 82400 91746 333 10228 20081 30/// 56200 58009 82620
AAXX 18181 76775 31570 32404 10243 20081 38567 40219 52008 70300 83800 91745 333 10252 20095 30/// 56800 58010 81820 82627
AAXX 18181 76776 06/// /2902 10235 20067 38549 40150 58013 60002 7//// 8//// 91750 333 0//// 10240 20088 30/// 4//// 56/// 57/// 58010 60007 8//// 8//// 8//// 9//// 9//// 9//// 444 ////
AAXX 18181 76805 32570 12303 10291 20253 30147 40151 50000 81100 91750 333 10311 20220 30/// 565// 58017 81831
AAXX 18181 76806 06/// /2403 10296 20247 30145 40149 58003 60002 7//// 8//// 91750 333 10299 20219 30/// 56/// 57/// 58011 60007 8//// 8//// 8//// 8//// 9//// 9//// 9//// 555 30276
AAXX 18181 76833 32970 03511 10296 20158 30157 40159 57008 91745 333 10296 20250 30/// 58013 92011
AAXX 18181 76840 32550 10208 10282 20174 30085 40141 57010 81100 91740 333 10290 20210 30/// 569// 59010 81827 91223 91502 90417
AAXX 18181 76843 32565 13604 10252 20155 39540 40186 57001 81200 91733 333 10264 20176 30/// 58001 81822
AAXX 18181 76845 21460 60502 10146 20115 37983 40220 56007 70152 86600 91745 333 10152 20090 30/// 56100 58002 69907 86713
AAXX 18181 76848 11570 70501 10188 20124 38419 40146 58005 69901 70351 8661/ 91751 333 10190 20130 30/// 56199 580008 86626
AAXX 18181 76855 32580 12301 10320 20242 30076 40126 56001 81200 91740 333 10325 20218 30/// 56900 58002 81820 92000
AAXX 18181 76902 06/// /2401 10318 20228 30006 40141 58005 60002 7//// 8//// 91750 333 0//// 10322 20226 30/// 4//// 54/// 56/// 57/// 58011 60007 8//// 8//// 8//// 8//// 9//// 9//// 9/
AAXX 18181 76903 31680 32102 10322 20229 30005 40135 58005 70111 84500 91755 333 10328 20230 30/// 56100 58009 81833 81650
AAXX 18181 76243 11372 80801 10118 20093 39979 40282 57006 69901 75050 884// 91735 333 10124 20098 30/// 563// 59054 88612
AAXX 18181 76311 32980 40000 10182 20126 39922 40207 50011 80008 91740 333 10186 20098 30/// 56005 58000 84270
AAXX 18181 76405 32875 70000 10200 20160 30193 40215 52009 87020 91750 333 10200 20160 30/// 56040 58008 87457
AAXX 18181 76412 31766 62002 10200 20135 30172 40218 52034 70544 86030 91740 333 10210 20150 30/// 56030 58018 86352
AAXX 18181 76640 01158 82202 10186 20180 30269 40281 57001 69921 75022 8222/ 91740 333 10202 20162 31/// 5679/ 59009 69927 83802 86540
AAXX 18181 76647 32670 70502 10279 20186 30189 40200 57016 8323/ 91750 333 10302 20195 30/// 561// 58003 83838 84358
AAXX 18181 76741 11370 60504 10242 20223 30199 40217 52003 69901 75022 84230 91730 333 10275 20204 30/// 561// 58017 81709 83810
AAXX 18181 76040 32960 02702 10131 20090 30204 40218 52011 91740 33310186 20061 30/// 58019 98660
AAXX 18181 76122 32570 10000 10094 20048 38538 40205 57014 81200 91750333 10130 21013 30/// 56400 59053 81835
AAXX 18181 76123 06/// /0504 10113 20048 3//// 4//// 5//// 60002 7////8//// 91750 333 0//// 10117 21022 56/// 57/// 5//// 600078//// 8//// 8//// 8//// 9//// 9//// 9//// 444 ///// 555
AAXX 18181 76220 32558 80000 10064 20045 38152 40219 57001 88500 91735333 10064 21012 30/// 56500 59041 88624
AAXX 18181 76225 32560 60901 10112 20053 38645 40176 50011 84620 91745333 10112 20078 30/// 56550 59069 84630 82450
AAXX 18181 76256 32980 73001 10183 20117 30203 40217 52012 87030 91745333 10193 20108 30/// 56/5/ 59002 87356
AAXX 18181 76305 32970 02202 10206 20058 30199 40207 52006 91740 33310210 20119 30/// 58008
AAXX 18181 76323 32770 71605 10166 20024 38286 40226 58008 82430 91745333 10168 20075 30/// 56550 59068 82650 85356
AAXX 18181 76342 31460 80201 10100 20086 39577 40309 57011 70222 886//91750 333 10105 20085 31/// 561// 59042 88710
AAXX 18181 76373 32570 40901 10176 21001 38228 40178 57018 84500 91750333 10180 21015 30/// 56900 59025 84625
AAXX 18181 76382 32980 61101 10195 20126 38948 40212 57010 80004 91748333 10206 20110 30/// 56007 59034 86076
AAXX 18181 76390 31968 52503 10179 20058 38276 40199 57002 70544 8000691730 333 10190 20025 30/// 56005 59028 85070
AAXX 18181 76393 01108 80501 10118 20111 39666 40260 57009 60021 75055887// 91750 333 10120 20100 31/// 569// 59047 69977 88703
AAXX 18181 76423 32580 81301 10184 20011 38190 40219 57009 85474 91755333 10212 20045 30/// 56999 59014 81820 84627 81357 92067
AAXX 18181 76458 32970 42604 10254 20163 30180 40185 50000 84006 91738333 10265 20134 30/// 56//9 59005 84070
AAXX 18181 76471 32580 62104 10182 20007 37736 40199 54000 83505 91750333 10190 20040 30/// 56501 59005 83635 83075
AAXX 18181 76490 06/// /1202 10219 20128 39853 40241 58019 60002 7////8//// 91750 333 0//// 10221 20111 30/// 54/// 56/// 57///59045 60007 8//// 8//// 8//// 8//// 9//// 9//// 9//// 44
AAXX 18181 76491 32960 00701 10220 20146 39870 40268 57017 91750 33310223 20118 30/// 59048
AAXX 18181 76499 32860 30000 10216 20148 30222 40244 57014 83030 91750333 10217 20156 30/// 56090 58/// 83357
AAXX 18181 76525 32970 61303 10122 20064 37513 40225 57002 80006 91740333 10122 20055 30/// 56//5 59009 86080
AAXX 18181 76538 06/// /1406 10180 20079 38215 40180 58011 60002 7////8//// 91750 333 0//// 10190 20103 30/// 4//// 54/// 56///57/// 59010 60007 8//// 8//// 8//// 9//// 9//// 9//// 44
AAXX 18181 76539 31562 11503 10170 20077 38214 40232 57009 70544 8120091745 333 10185 20080 30/// 56300 59007 81823
AAXX 18181 76543 32975 11802 10247 20160 30240 40273 57015 80009 91745333 10249 20149 31/// 56005 59032
AAXX 18181 76547 06/// /2202 10229 20158 30238 40250 58017 60002 7////8//// 91750 333 0//// 10232 20149 56/// 57/// 59026 600078//// 8//// 8//// 8//// 9//// 9//// 9//// 444 ///// 555
AAXX 18181 76548 32475 52202 10220 20151 30254 40264 58012 82434 91735333 10225 20154 30/// 56325 59024 82617
AAXX 18181 76556 32970 32702 10254 20130 39151 40183 50004 80006 91733333 10254 20131 30/// 56006 59003 83270 99020
AAXX 18181 76571 32980 00000 10184 20065 38215 40233 55009 91748 33310188 20080 30/// 59003
AAXX 18181 76577 32970 00000 10182 20093 38087 40210 58005 91740 33310188 20095 30/// 59004
AAXX 18181 76578 06/// /1302 10209 20051 38081 40138 58012 60002 7////8//// 91750 333 0//// 10209 20088 30/// 4//// 54/// 56///57/// 59007 60007 8//// 8//// 8//// 9//// 9//// 9//// 44
AAXX 18181 76581 32575 70302 10200 20141 39130 40248 57010 87200 91750333 10205 20120 30/// 56030 59020 87830
AAXX 18181 76586 06/// /1401 10215 20184 30094 40250 58015 60002 7////8//// 91750 333 0//// 10215 20159 30/// 4//// 54/// 56///57/// 59031 60007 8//// 8//// 8//// 9//// 9//// 9//// 44
AAXX 18181 76592 06/// /0512 10268 21094 30219 40219 58011 60002 7////8//// 91750 333 0//// 10280 20230 30/// 4//// 54/// 56///57/// 58002 60007 8//// 8//// 8//// 9//// 9//// 9//// 44
AAXX 18181 76593 32370 30505 10266 20244 30219 40221 58011 82204 91750333 10280 20214 30/// 561/9 58002 82820 810// 91007 91505
AAXX 18181 76612 32962 01101 10216 20092 38519 40229 58011 91752 33310220 20088 30/// 59003
AAXX 18181 76625 32450 20909 10196 20077 38187 40196 57012 82200 91740333 10196 20095 30/// 56200 59004 82820
AAXX 18181 76641 06/// /3501 10192 20184 30250 40262 58009 69982 7////8//// 91750 333 0//// 10193 20175 30/// 4//// 54/// 56///57/// 59010 69987 8//// 8//// 8//// 8//// 9//// 9//// 9/
AAXX 18181 76645 06/// /0403 10288 20167 30205 40218 58017 60002 7////8//// 91750 333 0//// 10293 20208 30/// 4//// 54/// 56///57/// 58003 60007 8//// 8//// 8//// 9//// 9//// 9//// 44
AAXX 18181 76654 31930 02701 10301 20215 30165 40169 52001 70544 91752333 10301 20218 30/// 59002
AAXX 18181 76656 32975 00000 10234 20100 38548 40206 58006 91750 33310240 20076 30/// 58001
AAXX 18181 76658 31560 13203 10306 20154 39656 40167 57014 70540 8120091748 333 10313 20273 30/// 56800 58004 81822 94082 98924
AAXX 18181 76659 06/// /3102 10329 20100 3//// 4//// 5//// 60002 7////8//// 91750 333 0//// 10329 20163 30/// 4//// 54/// 56///57/// 5//// 60007 8//// 8//// 8//// 9//// 9//// 9//// 44
AAXX 18181 76662 32670 22601 10218 20132 38508 40199 57001 81200 91745333 10222 20064 30/// 56200 58005 82833
AAXX 18181 76665 32962 03002 10201 20102 38158 40206 57013 91755 33310212 20072 30/// 59008
AAXX 18181 76675 32581 11302 10186 20005 37410 40213 57007 81200 91749333 10193 20009 30/// 569// 59006 81826
AAXX 18181 76681 31480 23201 10180 20089 37823 40185 57010 70500 8220091445 333 10180 20068 30/// 50190 55030 50190 59006 7000082817
AAXX 18181 76683 32575 10502 10192 20072 37860 40218 57017 81200 91755333 10195 20080 30/// 56200 59007 81833
AAXX 18181 76684 06/// /0408 10199 20021 37864 40150 58013 60002 7////8//// 91750 333 0//// 10199 20082 30/// 4//// 54/// 56///57/// 59007 60007 8//// 8//// 8//// 9//// 9//// 9//// 44
AAXX 18181 76685 32570 13601 10204 20041 37901 40205 57004 81100 91750333 10206 20054 30/// 56900 59002 81827
AAXX 18181 76687 01462 72001 10156 20128 38756 40269 58007 60051 70158874// 91745 333 10159 20118 31/// 563// 58004 60017 8661881821
AAXX 18181 76692 31556 63003 10268 20169 30225 40244 58001 70542 8323491745 333 10273 20204 30/// 56815 58006 81820 82630
AAXX 18181 76693 06/// /3202 10269 20188 30223 40242 58012 60002 7////8//// 91750 333 0//// 10273 20204 30/// 4//// 56/// 57///58006 60007 8//// 8//// 8//// 8//// 9//// 9//// 9//// 44
AAXX 18181 76695 32960 33303 10272 20200 30199 40204 57015 82105 91750333 10280 20191 30/// 561/0 58005 82825
AAXX 18181 76698 12560 40601 10277 20216 30196 40204 57011 69931 8320191755 333 10292 20200 30/// 5610/ 58004 83820
AAXX 18181 76727 06/// /1701 10232 20061 38437 40129 58007 60002 7////8//// 91750 333 0//// 10238 20127 30/// 4//// 54/// 56///57/// 58005 60007 8//// 8//// 8//// 9//// 9//// 9//// 44
AAXX 18181 76737 01480 70701 10170 20135 38850 40254 58009 60041 7035282270 91735 333 10170 20124 31/// 56220 58004 60047 8281385358 91105 91516
AAXX 18181 76738 06/// /0601 10192 20134 38849 40227 58013 60042 7////8//// 333 10192 20121 30/// 56/// 57/// 58003 60017 8////8//// 8//// 8//// 9//// 9//// 9//// 444 ///// 555 30188
AAXX 18181 76750 01560 80602 10238 20224 30191 40207 57010 60011 7515183770 91750 333 10248 20190 31/// 51100 58008 60017 8392085557
AAXX 18181 76751 06/// /0302 10226 20213 30197 40208 58010 60012 7////8//// 91750 333 0//// 10250 20190 30/// 4//// 54/// 56///57/// 58008 60017 8//// 8//// 8//// 9//// 9//// 9//// 44
AAXX 18181 76762 32904 03303 10278 20224 38792 40171 58004 91752 33310279 20156 30/// 59001 91205
AAXX 18181 76772 06/// /1105 10211 20079 38469 40168 58012 60002 7////8//// 91750 333 0//// 10223 20088 30/// 4//// 56/// 57///58006 60007 8//// 8//// 8//// 9//// 9//// 9//// 444 ////
AAXX 18181 76773 32570 20903 10220 20072 38467 40202 57007 82400 91746333 10228 20081 30/// 56200 58009 82620
AAXX 18181 76775 31570 32404 10243 20081 38567 40219 52008 70300 8380091745 333 10252 20095 30/// 56800 58010 81820 82627
AAXX 18181 76776 06/// /2902 10235 20067 38549 40150 58013 60002 7////8//// 91750 333 0//// 10240 20088 30/// 4//// 56/// 57///58010 60007 8//// 8//// 8//// 9//// 9//// 9//// 444 ////
AAXX 18181 76805 32570 12303 10291 20253 30147 40151 50000 81100 91750333 10311 20220 30/// 565// 58017 81831
AAXX 18181 76806 06/// /2403 10296 20247 30145 40149 58003 60002 7////8//// 91750 333 10299 20219 30/// 56/// 57/// 58011 600078//// 8//// 8//// 8//// 9//// 9//// 9//// 555 30276
AAXX 18181 76833 32970 03511 10296 20158 30157 40159 57008 91745 33310296 20250 30/// 58013 92011
AAXX 18181 76840 32550 10208 10282 20174 30085 40141 57010 81100 91740333 10290 20210 30/// 569// 59010 81827 91223 91502 90417
AAXX 18181 76843 32565 13604 10252 20155 39540 40186 57001 81200 91733333 10264 20176 30/// 58001 81822
AAXX 18181 76845 21460 60502 10146 20115 37983 40220 56007 70152 8660091745 333 10152 20090 30/// 56100 58002 69907 86713
AAXX 18181 76848 11570 70501 10188 20124 38419 40146 58005 69901 703518661/ 91751 333 10190 20130 30/// 56199 580008 86626
AAXX 18181 76855 32580 12301 10320 20242 30076 40126 56001 81200 91740333 10325 20218 30/// 56900 58002 81820 92000
AAXX 18181 76902 06/// /2401 10318 20228 30006 40141 58005 60002 7////8//// 91750 333 0//// 10322 20226 30/// 4//// 54/// 56///57/// 58011 60007 8//// 8//// 8//// 8//// 9//// 9//// 9/
AAXX 18181 76903 31680 32102 10322 20229 30005 40135 58005 70111 8450091755 333 10328 20230 30/// 56100 58009 81833 81650
AAXX 18181 76243 11372 80801 10118 20093 39979 40282 57006 69901 75050884// 91735 333 10124 20098 30/// 563// 59054 88612
AAXX 18181 76311 32980 40000 10182 20126 39922 40207 50011 80008 91740333 10186 20098 30/// 56005 58000 84270
AAXX 18181 76405 32875 70000 10200 20160 30193 40215 52009 87020 91750333 10200 20160 30/// 56040 58008 87457
AAXX 18181 76412 31766 62002 10200 20135 30172 40218 52034 70544 8603091740 333 10210 20150 30/// 56030 58018 86352
AAXX 18181 76640 01158 82202 10186 20180 30269 40281 57001 69921 750228222/ 91740 333 10202 20162 31/// 5679/ 59009 69927 8380286540
AAXX 18181 76647 32670 70502 10279 20186 30189 40200 57016 8323/ 91750333 10302 20195 30/// 561// 58003 83838 84358
AAXX 18181 76741 11370 60504 10242 20223 30199 40217 52003 69901 7502284230 91730 333 10275 20204 30/// 561// 58017 81709 83810
AAXX 18181 01281 16/// /0000 11121 21136 39803 49986 58004 60002 333 11099 91101
BBXX 46238 18181 99334 71195 46/// ///// 1//// 91750 22200 00144 11704 20402 329// 41703 70018
BBXX 46239 18181 99363 71221 46/// ///// 1//// 91751 22200 00127 11706 21002 331// 41706 70031
BBXX UFTA 18181 99850 71237 11997 30103 11357 21391 40023 52003 69902 70230 82031
AAXX 18181 89061 379// 01307 10025 21024 39860 49866 57016 73011 333 91010 91114
AAXX 18184 91930 16/// ///// 10275 20211 69921
AAXX 18184 91943 16/// /0907 10285 20218 30141 40143 51014 60052 333 10287 58008
AAXX 18184 03008 16/// /3312 10035 21021 30029 40100 52006 60012 91750 333 10042
AAXX 18184 03010 46/// /3515 10048 20009 40123 53013 333 90710 91128
AAXX 18184 03014 46/// /3409 10008 21069 30082 40109 51010 91750 333 8////
AAXX 18184 03031 17581 /2910 10008 21008 39806 40140 53005 69902 741// 91750 333 10012 553// 20000 81/25 85/48
AAXX 18184 03034 15680 /3109 10052 21011 30124 40138 53002 69942 91750 333 10060 81/34 83/39
AAXX 18184 03037 15682 /2405 10026 20013 30125 40147 53004 60012 91750 333 10041 81/41 85/50
AAXX 18184 03039 46/// /3219 11017 21047 91750 333 11016
AAXX 18184 03041 46/// /2905 11048 21050 91750 333 11039
AAXX 18184 03044 17784 /1103 11012 21020 30028 40130 53007 69902 741// 91750 333 10010 553// 20000 84/56
AAXX 18184 03047 17/63 /0102 11011 21015 39846 40158 53002 69922 721// 91750 333 11004 553// 20000
AAXX 18184 03062 15983 /2104 11031 21044 30125 40130 53003 69922 91750 333 10009 553// 20000 81/72
AAXX 18184 03065 46/// /3009 11057 21065 91750 333 11052 90710 91126 91025
AAXX 18184 03068 11582 22610 10005 21007 30120 40128 53005 69902 70171 82502 91750 333 10020 81625
AAXX 18184 03072 46/// ///// 11044 21047 91750 333 11043 91000
AAXX 18184 03080 17783 /2809 10000 21017 39956 40131 51001 69902 721// 91750 333 10028 81/50 85/69
AAXX 18184 03088 15984 /2810 10014 21027 39958 40126 57004 69902 91750 333 10031 553// 20000 85/59
AAXX 18184 03094 15660 /2721 10036 20010 30108 40113 53001 69902 91750 333 10047 84/35 90710 91127
AAXX 18184 03105 17581 /0102 10026 20019 30145 40163 53002 60032 723// 91750 333 10054 81/25 86/50
AAXX 18184 03132 15783 /2806 10037 20033 30153 40167 50001 60012 91750 333 10069 87/50
AAXX 18184 03144 15984 /2206 10008 21020 30103 40148 53001 60002 91750 333 10027 553// 20000 86/70
AAXX 18184 03148 46/// /2911 11017 21017 91750 333 11014
AAXX 18184 03153 15583 /2707 10018 20005 30019 40161 54000 60002 91750 333 10030 553// 20000 81/23 87/70
AAXX 18184 03155 16570 /2310 10007 20007 39848 40153 57001 69922 91750 333 10009 82/23 87/68
AAXX 18184 03158 15984 /2305 11005 21032 30007 40148 54000 60002 91750 333 10023 553// 20000 87/58
AAXX 18184 03210 16471 /1803 10022 21013 30013 40168 57002 60002 91750 333 10043 84/19 85/58
AAXX 18184 03212 15574 /3101 11003 21017 30068 40170 50000 60002 91750 333 10036 87/29 84/60
AAXX 18184 03214 15568 /1201 10017 21012 30150 40169 51003 69902 91750 333 10055 81/29 86/58
AAXX 18184 03220 16982 ///// 10007 21015 30127 40163 51001 69922 91750 333 10036 81/60
AAXX 18184 03224 15781 /2506 11025 21035 39807 40166 52004 69942 91750 333 11001 4/002 87/56 84/69
AAXX 18184 03225 16880 /2805 10009 21063 39857 40171 52003 60002 91750 333 10022 553// 20000 81/57 88/59
AAXX 18184 03226 15984 /0305 11007 21029 39884 40169 52004 69942 91750 333 10006 88/59
AAXX 18184 03230 16782 /3202 11007 21034 39893 40158 52001 69942 91750 333 10022 4/002 88/56
AAXX 18184 03238 15984 /2606 11013 21033 39976 40155 52004 69982 91750 333 10012 4/002 83/59
AAXX 18184 03261 16981 /2809 11012 21042 30124 40166 51007 60002 91750 333 10035 8//99
AAXX 18184 03265 15982 /2903 11008 21040 30135 40167 51008 60002 91750 333 10033 8//99
AAXX 18184 03266 16970 /2703 11006 21035 30147 40165 52009 60002 91750 333 10034 8//99
AAXX 18184 03275 15968 /2609 11015 21046 39957 40156 51012 69902 91750 333 10029 8//99
AAXX 18184 03281 16/// /3107 11026 21046 69922 91750 333 10011
AAXX 18184 03903 16550 /1402 10032 20029 30126 40185 53001 60012 91750 333 10057 553// 20000 86/24 84/41
AAXX 18184 03904 15679 /2201 10025 20014 30118 40180 52002 60022 91750 333 10047 82/38
AAXX 18184 03907 17773 /2308 10037 20027 30166 40173 50003 69942 723// 91750 333 10048 55300 20000 87/56
AAXX 18184 03911 16581 /2909 10024 20016 39900 40180 53001 60032 91750 333 10025 4/003 82/20 83/56
AAXX 18184 03915 16679 /1803 10028 20028 30091 40171 53001 60032 91750 333 10042 81/41 87/58
AAXX 18184 03916 16480 /2406 10026 20023 39975 40170 53001 60042 91750 333 10047 553// 20000 81/13 86/22
AAXX 18184 03923 17778 /2806 10035 20020 39979 40180 53002 69942 761// 91750 333 10038 87/50
AAXX 18184 03301 16579 /2304 10022 20021 30112 40188 51004 69982 91750 333 10069 81/23 85/58
AAXX 18184 03305 17582 /2407 10029 20002 39923 40192 51008 60082 781// 91750 333 10050 83/25 83/34 85/56
AAXX 18184 03313 16681 /2509 10041 20018 30086 40182 51005 60022 91750 333 10066 83/31
AAXX 18184 03316 15979 /0104 10028 21008 30163 40174 51004 60012 91750 333 10061 84/60
AAXX 18184 03318 16/// /1203 10004 21013 60002 91750 333 10059
AAXX 18184 03321 16677 /3101 10006 21006 30167 40180 51008 69942 91750 333 10067 553// 20000 82/40
AAXX 18184 03330 15967 /3605 11018 21031 39808 40183 51013 60032 91750 333 10017 4/004 8//99
AAXX 18184 03344 15984 /2703 11014 21040 39845 40174 52009 69922 91750 333 10013 8//99
AAXX 18184 03346 16/// /2810 11013 21030 60002 91750 333 10018
AAXX 18184 03348 15973 /2202 11020 21028 30067 40180 51014 69942 91750 333 10037 55300 20000 8//99
AAXX 18184 03355 15981 /2706 10002 21030 30156 40167 53012 60002 91750 333 10037 55300 20000 8//99
AAXX 18184 03373 16967 /2907 11018 21040 30090 40163 51013 60002 91750 333 10033 8//99
AAXX 18184 03379 16981 /2911 10005 21029 30088 40167 51014 60002 91750 333 10040 8//99
AAXX 18184 03382 15989 /2705 10001 21035 30147 40156 51013 60002 91750 333 10034 55300 20000 8//99
AAXX 18184 03385 46780 /2911 10005 21024 30146 40156 51018 91750 333 10034 82/50
AAXX 18184 03391 12982 03009 10006 21029 30154 40161 51015 60002 91750 333 10040
AAXX 18184 03392 16973 /3008 10005 21020 30154 40157 51017 60002 91750 333 10036 8//99
AAXX 18184 03405 16583 /3112 10063 20024 30081 40198 52005 60002 91750 333 10069 553// 20000 81/23 86/28
AAXX 18184 03410 16976 /2703 10010 20000 39742 40189 51008 60102 91750 333 10046 553// 20000 81/58
AAXX 18184 03469 15982 /2807 10000 21015 30160 40164 51017 69902 91750 333 10037 553// 20000 8//99
AAXX 18184 03488 15463 /3019 10033 20010 30122 40148 51016 60012 91750 333 10037 82/17 83/57 90710 91127
AAXX 18184 03503 17981 /1202 10012 21009 30116 40196 51010 60022 741// 91750 333 10067 8//99
AAXX 18184 03507 17477 /2002 10010 20007 39818 40201 51011 60042 723// 91750 333 10039 86/10
AAXX 18184 03520 16568 /3501 10015 20005 30066 40190 51015 60002 91750 333 10059 553// 20000 84/20 86/24
AAXX 18184 03522 15969 /1202 10001 21009 30099 40195 52014 69902 91750 333 10055 81/58
AAXX 18184 03529 15980 /3402 10005 21008 30148 40192 51018 69902 91750 333 10063 8//99
AAXX 18184 03544 15981 /2805 10007 21009 30047 40181 51019 69922 91750 333 10036 553// 20000 8//99
AAXX 18184 03560 15980 /3108 10002 21011 30068 40175 52020 69922 91750 333 10037 553// 20000 8//99
AAXX 18184 03604 16582 /3206 10061 20030 30150 40205 51007 60002 91750 333 10080 82/28 84/45 85/63
AAXX 18184 03605 16980 /3009 10048 20028 30193 40201 51007 69922 91750 333 10079 84/65
AAXX 18184 03609 16/// /3108 10045 20021 30150 40204 51007 69942 91750 333 10080
AAXX 18184 03628 15980 /2405 10027 20013 30117 40191 51013 60002 91750 333 10067 55300 20000 84/71
AAXX 18184 03647 16968 /3207 11002 21009 39922 40186 52017 69922 91750 333 10046 553// 20000 81/72
AAXX 18184 03658 16962 /2902 10003 21009 30110 40182 51019 69942 91750 333 10050 8//99
AAXX 18184 03660 15976 /3406 10008 21005 39926 40181 53017 69942 91750 333 10043 8//99
AAXX 18184 03672 11982 23207 10010 21017 30137 40179 53017 69942 70381 80001 91750 333 10055 82075 92600 92771
AAXX 18184 03684 15973 /3107 10010 21011 30056 40166 53018 69942 91750 333 10031 8//99
AAXX 18184 03693 16978 /3108 10010 21004 30162 40164 52016 60002 91750 333 10043 8//99
AAXX 18184 03707 15984 /3209 10067 20015 30195 40203 51007 69942 91750 333 10084 81/66
AAXX 18184 03710 166// /3211 10029 20014 39771 40200 51007 60012 91750 333 10064 553// 20000 82/37
AAXX 18184 03743 16981 /2707 10026 20007 30026 40191 52015 69922 91750 333 10059 8//99
AAXX 18184 03749 16781 /2909 10029 20007 30075 40188 52016 69922 91750 333 10059 81/50 84/71
AAXX 18184 03761 15581 /2907 10024 20005 30035 40183 53015 69922 91750 333 10053 55300 20000 83/26
AAXX 18184 03768 16662 /0403 10015 20002 30100 40182 53016 60002 91750 333 10055 82/34
AAXX 18184 03769 17977 /2703 10009 20002 30093 40177 53017 69922 723// 91750 333 10052 55300 20000 8//99
AAXX 18184 03770 16/// ///// 10037 20000 60002 91750 333 10061
AAXX 18184 03781 15984 /3108 10014 21003 39964 40177 53016 69942 91750 333 10046 553// 20000 81/74
AAXX 18184 03784 46/// /3009 10029 21003 30164 40168 52018 91750 333 10050
AAXX 18184 03797 15582 /3213 10032 21003 30100 40162 53014 69942 91750 333 10040 55300 20000 82/23
AAXX 18184 03839 16/// ///// 10011 21005 69942 91750 333 10069 553// 20000
AAXX 18184 03857 15680 /3319 10070 20031 30130 40195 53011 60002 91750 333 10079 82/44 90710 91126
AAXX 18184 03862 15982 /3008 10038 20010 30179 40192 53012 69922 91750 333 10076 55300 20000 82/60
AAXX 18184 03866 16/// /3108 10052 20011 30161 40186 53014 60002 91750 333 10077
AAXX 18184 03872 17681 /3007 10042 20019 30176 40181 53013 60002 720// 91750 333 10071 553// 20000 83/41
AAXX 18184 03876 16/// /3403 10012 21001 30176 40179 53014 60002 91750 333 10065
AAXX 18184 03895 41583 63112 10063 20034 40203 51005 72781 83932 333 10087 81922 85365 90710 91127
AAXX 18184 68024 42960 10000 10266 20147 48512 53010 81002 333 10295
AAXX 18184 68032 42660 41205 10279 20195 48506 51008 81984 333 10316
AAXX 18184 68070 42960 01103 10232 20159 48529 53007 333 10281
AAXX 18184 68234 42560 11406 10266 20142 48524 52010 81400 333 10342
AAXX 18184 68240 42960 13604 10270 20122 48519 51002 81070 333 10320
AAXX 18184 68320 42660 10305 10319 20121 48523 53005 81400 333 10362 30129
AAXX 18184 68328 42660 33303 10322 20145 48515 53008 82460 333 10363
AAXX 18184 70026 NIL
AAXX 18184 70133 NIL
AAXX 18184 70174 NIL
AAXX 18184 70200 NIL
AAXX 18184 70219 NIL
AAXX 18184 70231 NIL
AAXX 18184 70261 NIL
AAXX 18184 70267 NIL
AAXX 18184 70271 NIL
AAXX 18184 70273 NIL
AAXX 18184 70308 NIL
AAXX 18184 70316 NIL
AAXX 18184 70326 NIL
AAXX 18184 70340 NIL
AAXX 18184 70350 NIL
AAXX 18184 70361 NIL
AAXX 18184 70381 NIL
AAXX 18184 70398 NIL
AAXX 18184 70414 NIL
AAXX 18184 78526 NIL
AAXX 18184 78543 NIL
AAXX 18184 78255 12459 50507 10250 20181 30044 40193 57020 69951 84871 333 10253 20191 84818 85357
AAXX 18184 78317 NIL
AAXX 18184 78318 NIL
AAXX 18184 78325 NIL
AAXX 18184 78333 NIL
AAXX 18184 78338 NIL
AAXX 18184 78348 NIL
AAXX 18184 78349 NIL
AAXX 18184 78353 NIL
AAXX 18184 78360 NIL
AAXX 18184 78367 NIL
AAXX 18184 78369 NIL
AAXX 18184 91222 NIL
AAXX 18184 91245 NIL
AAXX 18184 91323 NIL
AAXX 18184 91339 NIL
AAXX 18184 91343 NIL
AAXX 18184 91353 NIL
AAXX 18184 91442 NIL
AAXX 18184 91165 NIL
AAXX 18184 91182 NIL
AAXX 18184 91190 NIL
AAXX 18184 91212 NIL
AAXX 18184 91217 NIL
AAXX 18184 91285 NIL
AAXX 18184 91317 NIL
AAXX 18184 91334 32474 70411 10275 20221 30063 40066 57012 82171 333 56299 70417 555 91818
AAXX 18184 91348 11474 80906 10266 20244 30029 40081 55007 69901 70282 8527/ 333 56299 70358 555 91818
AAXX 18184 91356 NIL
AAXX 18184 91366 NIL
AAXX 18184 91369 NIL
AAXX 18184 91371 NIL
AAXX 18184 91376 NIL
AAXX 18184 91408 32466 80603 10267 20235 30030 40068 57015 84201 333 569/9 70003 555 91818
AAXX 18184 91413 32469 70907 10277 20242 30054 40079 57012 82171 333 56299 70033 555 91818
AAXX 18184 91425 NIL
AAXX 18184 91434 NIL
AAXX 18184 91765 NIL
BBXX UCAC 18181 99658 10068 41/98 71307 10050 49974 54000 70321 89/// 22213 00100 20808
BBXX UGGA 18181 99690 10413 41/98 91908 10050 40087 54000 70222 89/// 22271 20403
BBXX DDSX2 18184 99340 10230 41/98 11819 10181 20111 40148 52023 70200 8//// 22225 00220 2//// 80140
BBXX UCAB 18181 99714 10228 41998 01904 10040 40025 57003 70110 8//// 22253 00060 20401
BBXX SKUN 18183 99516 70166 43/94 72121 10096 40210 56002 22224 00101 2//// 4////
BBXX OWFD2 18181 99384 70214 41/97 /3311 10195 20184 40300 51010 70211 8/71/ 22254 04160 20405 332// 40405 80188
BBXX PHJV 18183 99088 31295 41398 73014 10275 20248 40051 57017 70211 87762 22263 02292 20102 80255
BBXX A8CP6 18180 99059 31476 41398 33005 10290 20276 40050 56010 70211 82145 22275 00296 20000 3//// 4//// 5//// 80280
BBXX DCDO2 18183 99050 11353 41698 60510 10280 20246 40060 56010 70322 86464 22274 00290 2//// 306// 40604 5//// 80255
BBXX PCDE 18183 99399 31287 41297 50402 10150 20116 40060 53010 7//22 857// 22223 2//// 312// 40502 80130
AAXX 18181 26554 11464 72104 10021 21004 39819 49981 52029 69942 70282 875// 333 10035 87616 91111
AAXX 18181 26666 11460 72103 10022 21012 39802 40016 52036 60012 70262 87500 333 10041 87618 91110
AAXX 18181 26850 11560 22203 10014 21005 39758 40031 52030 69972 70176 82500 333 10015 82620
AAXX 18181 26863 11459 72205 10014 21003 39806 40043 52041 69962 71082 875// 333 10038 87618
AAXX 18181 26941 11560 52304 10021 21007 39812 40049 52030 60012 70282 85500 333 10021
AAXX 18181 26951 32575 72307 10021 21004 39859 40059 52033 875// 333 10026 87627 91110
AAXX 18181 33008 32565 72405 10034 21025 39891 40070 52028 87500 333 10040 87624 91110
AAXX 18181 33019 32660 71803 10027 20000 39903 40078 52030 875// 333 10029 87642
AAXX 18181 33036 11965 72103 10020 21011 39861 40093 52039 69912 70282 8707/ 333 10029
AAXX 18181 33041 32560 62203 10022 20000 39933 40090 52042 85530 333 10044 85622
AAXX 18184 86011 32670 43608 10352 20199 39946 40100 57016 83805 333 83840 82270
AAXX 18184 86033 32670 50804 10350 20162 39993 40085 57029 85200 333 85833
AAXX 18184 86065 32670 50000 10360 20152 39855 40083 57023 85200 333 85840
AAXX 18184 86068 32670 40000 10354 20176 39893 40079 57024 84200 333 84840
AAXX 18184 86086 32570 33604 10348 20162 39994 40081 57024 83200 333 83833
AAXX 18184 86097 32570 51905 10306 20106 39464 40087 58019 83230 333 83840 83360
AAXX 18184 86128 32670 53606 10358 20189 39960 40074 57023 84201 333 84840 82070
AAXX 18184 86134 32670 43208 10352 20161 39993 40076 57025 84200 333 84840
AAXX 18184 86170 32670 42112 10354 20108 39959 40058 57025 84200 333 84840
AAXX 18184 86185 32570 40000 10348 20140 39989 40079 57030 84500 333 84633
AAXX 18184 86192 NIL
AAXX 18184 86210 32570 42708 10314 20120 39735 40066 57018 84200 333 84833
AAXX 18184 86218 01562 62710 10290 20137 39996 40090 55010 69901 79522 86900 333 69907 85830 81940
AAXX 18184 86221 32570 73108 10292 20162 39974 40106 57019 87800 333 87830
AAXX 18184 86233 32670 32705 10324 20136 39896 40078 58027 83100 333 83840
AAXX 18184 86234 32570 42610 10322 20159 39856 40033 58019 84200 333 84630
AAXX 18184 86246 32570 43304 10302 20155 39800 40078 57020 84200 333 82840 83833
AAXX 18184 86251 32570 63204 10318 20145 39900 40063 57022 86800 333 84633 82840
AAXX 18184 86255 32970 01802 10332 20109 30038 40103 57003
AAXX 18184 86260 32970 00208 10320 20181 39930 40079 56008
AAXX 18184 86268 32670 42516 10316 20139 39925 40085 57026 84200 333 84840
AAXX 18184 86285 32670 42710 10316 20142 39802 40073 58018 84200 333 84840
AAXX 18184 86297 32570 33603 10320 20199 39969 40071 57020 83800 333 83827
BBXX KAOU 18184 99005 10813 43/// /3208 10272 20242 40093 5//// 7//// 8//// 222// 04288 2//// 3//// 4//// 5//// 6//// 8//// ICE /////
BBXX NWS0003 18184 99539 71665 43/// /2806 11004 21024 49830 5//// 7//// 8//// 222// 0//// 2//// 3//// 4//// 5//// 6//// 8//// ICE /////
BBXX NWS0020 18184 99354 70103 43/// /0316 10148 20063 40229 5//// 7//// 8//// 222// 04190 2//// 3//// 4//// 5//// 6//// 8//// ICE /////
BBXX NWS0029 18184 99309 70543 43/// /3305 10201 20131 40146 5//// 7//// 8//// 222// 04234 2//// 3//// 4//// 5//// 6//// 8//// ICE /////
BBXX WE4805 18184 99420 70873 41/98 42018 10016 2//// 40207 57000 70102 84/// 22243 00050 20302 3//// 4//// 5//// 6//// 8//// ICE /////
BBXX WBO3345 18184 99249 70797 41697 70418 10256 20232 40180 54/// 70311 87153 22232 0//// 20402 306// 40402 5//// 6//// 80239 ICE /////
BBXX C6XP7 18183 99215 70759 41299 70618 10270 20256 40150 56/// 75052 86275 22234 00250 20202 322// 4//// 5//// 6//// 80260 ICE /////
BBXX ZCDG7 18184 99311 71241 41398 43222 10153 20111 40272 52020 70111 83140 22265 00170 20203 331// 40504 5////
BBXX WYP8657 18184 99470 70914 41/98 42411 10027 2//// 40061 5//// 70310 83/41 22213 00039 20201 3//// 4//// 5//// 6//// 8//// ICE /////
BBXX WXJ63 18183 99611 71464 41/95 83203 10004 21178 49906 5//// 771// 8//// 222// 00056 2//// 3//// 4//// 5//// 6//// 8//// ICE /////
BBXX 3ECJ7 18184 99220 70649 419// 02600 10180 20148 40180 54000 7//// 8/000 222// 0//// 20101 3//// 400// 500// 6//// 80160 ICE 0////
BBXX C6VG7 18184 99257 70803 41596 40318 10240 2//// 40200 54/// 7//// 83138 2222/ 00240 20300 303// 4//// 5//// 6//// 8//// ICE /////
BBXX V7NV4 18184 99284 71379 41598 80424 10180 20148 40260 52025 702// 84697 22263 00160 20201 331// 40608 5//// 6//// 80160 ICE /////
BBXX WKAB 18184 99360 70043 41/98 12905 10125 20044 40228 53003 70200 8//// 22225 00158 2//// 3//// 4//// 5//// 6//// 80085 ICE /////
BBXX WDJK 18184 99435 71259 41498 60220 10105 20076 40270 51030 70222 8644/ 22243 00100 20503 335// 41007 5//// 6//// 80090 ICE /////
BBXX 44060 18181 99413 70721 46/// ///07 11025 40222 56013 91800 22200 00106 333 91209 555 11072 22072
BBXX 44022 18181 99409 70737 46/// ///06 11026 21112 40243 56009 91800 22200 00086 333 91208 555 11067 22067
BBXX 46001 18181 99563 71480 46/// /2114 10061 49848 51028 91750 22200 00052 11114 20807 300// 41112 70068 333 91218 555 11155 22167 31726 42120 61749 213144 215155 210151 211146 212140 212132
BBXX 51003 18181 99193 71606 46/// /0510 10245 40160 53014 91750 22200 00258 11306 20804 3//// 41305 70031 333 91212 555 11108 22114 31728 40513 61749 049101 046103 049102 048102 049099 048100
BBXX 46053 18181 99342 71198 46/// /2907 10138 40214 52007 91750 22200 00143 11302 20401 325// 41302 70011 333 91208 555 11069 22073 31726 42910 61749 286066 286080 285080 278066 278058 279059
BBXX 42362 18181 99278 70907 46/// /0608 10189 20056 40278 58010 91800
BBXX 42363 18181 99282 70892 46/// /0507 10167 20061 40281 58007 91800 333 91207
BBXX 42364 18181 99291 70881 46/// /0406 10167 20072 40281 58007 91800
BBXX 41041 18181 99142 70460 46/// /1106 10272 20227 40120 56018 91750 22200 00267 11005 20402 3//// 41004 70024 333 91207 555 11062 22066 31715 41108 61749 104059 106061 106065 110062 111062 113065 81107 91654
BBXX 41038 18181 99341 70777 46/// /3508 10109 40255 58016 91800 22200 00141 333 91210
AAXX 18184 78792 32430 80405 10245 20226 30110 40125 57010 79566 85970 333 068// 10275 20237 32/// 58015 81706 81913 85357
AAXX 18184 78793 32370 82108 10288 20236 30083 40114 57010 8223/ 333 10293 20228 30/// 564// 58008 82810 88360
AAXX 18184 78795 31360 83508 10278 20216 30025 40125 57004 85250 333 10292 20220 31/// 5680/ 57882 58005 85815 83359
AAXX 18184 78906 11476 52502 10296 20218 30121 40126 69901 71582 85401 333 10296 20202 59003 85818 90930
AAXX 18181 10224 01475 52505 10016 20003 30074 40080 53016 60072 78381 85300 333 10032 20000 35100 41998 55300 20000 30000 69907 82915 84819 96283
AAXX 18184 64810 31456 61808 10280 20246 30054 40080 70522 84530 333 10320 59014 84613 85363
AAXX 18184 64820 NIL
AAXX 18183 04013 NIL
AAXX 18183 04064 21450 80505 11008 21015 40049 57029 77172 8372/ 333 11008 21040 60028 555 3//09
AAXX 18184 91925 02580 20409 10288 20191 30078 40138 50006 60001 82200 333 56100 60007 82823 90710 91118 555 60005 10418 58005
AAXX 18184 91929 04/// /0711 10291 20213 30134 40137 51018 69902 761// 333 10291 20261 69907 90710 91115 555 69905
AAXX 18184 91938 01580 12404 10288 20218 30139 40141 51014 60002 702// 81202 333 10288 20238 60007 81823 90710 91105 555 60005 11606 58002
AAXX 18184 91943 16/// /0907 10285 20218 30141 40143 51014 60052 333 10287 58008
AAXX 18184 91944 06/// /0804 10280 20211 30150 40153 51014 69942 333 10280 20245 69927 90710 91108 555 60005
AAXX 18184 91948 02482 41006 10272 20195 30072 40173 51013 60001 84200 333 56200 60007 84816 90710 91110 555 60005 10910 58025
AAXX 18184 91958 02581 50607 10250 20205 30177 40179 53011 60001 84202 333 56201 60007 84823 83073 90710 91111 555 60005 10711 58015
AAXX 18184 91945 NIL
AAXX 18184 91954 NIL
AAXX 18184 04005 21489 42308 10034 21069 49937 55060 76186 84800 333 10035 21029 69908 555 3/310
AAXX 18184 04018 21259 82418 10032 20030 49965 57018 75065 886// 333 10047 20014 60118 555 3//23 85704 88712
AAXX 18184 04030 21657 81318 10035 20012 49950 57043 76366 8457/ 333 10038 20001 69958 555 3//19 84632 86356 88459
AAXX 18184 04048 NIL
AAXX 18184 04063 32684 71406 10002 21041 40014 57031 82520 333 10005 21082 555 3//12
AAXX 18184 04077 NIL
AAXX 18184 04082 32883 83611 11010 21011 40043 57019 885// 333 11010 21025 555 3//12 88656 87650
AAXX 18184 04097 32689 52013 10004 21045 40059 57027 82270 333 10006 21044 555 3/314
BBXX TFBKF 18184 99635 70202 46/// ///// 22200 10504 70021
BBXX TFBLK 18184 99657 70248 46/// ///// 22200 10707 70033
BBXX TFDRN 18184 99658 70212 46/// ///// 22200 10603 70013
BBXX TFGRS 18184 99663 70182 46/// ///// 22200 10704 70018
BBXX TFGRV 18184 99638 70225 46/// ///// 22200 10707 70036
BBXX TFGSK 18184 99641 70229 46/// ///// 22200 10606 70029
BBXX TFHFN 18184 99642 70152 46/// ///// 22200 10803 70013
BBXX TFKGR 18184 99657 70136 46/// ///// 22200 10805 70024
BBXX TFSRT 18184 99633 70203 46/// ///// 22200 10606 70029
BBXX TFSTD 18184 99664 70234 46/// ///// 22200 10504 70019
AAXX 18181 06240 17464 82703 10028 20021 30122 40117 51010 60032 78195 8//// 333 10059 85/10 85/19 85/21 91005 91112 91209
AAXX 18181 06370 17574 72404 10015 20005 30107 40133 53008 60002 70390 8//// 333 10046 81/20 83/33 91006 91111 91207
AAXX 18181 06414 16/// /2704 10016 21002 30111 40144 53004 60042 333 10051 91111 91208
AAXX 18181 06459 16/// /2103 10007 21001 39958 40156 52003 60022 333 10022 91108 91206
AAXX 18181 06494 16/// /2504 11024 21030 39332 40153 52009 60052 333 11016 4/025 91107 91205
BBXX 46089 18181 99459 71258 46/// /3511 10089 20047 40268 51021 91750 22200 00096 11508 20704 330// 41507 70040 333 91213 555 11117 22124 31712 43414 61749 348110 349099 347100 343107 341107 340107
BBXX 46042 18181 99368 71224 46/// /1102 10108 40233 53016 91750 22200 00126 11607 20301 331// 41607 70037 333 91204 555 11022 22022 31720 41105 61749 105022 104023 102027 101025 104027 106030
BBXX 44011 18181 99411 70666 46/// /3513 10035 20015 40135 55003 91750 22200 00097 10807 20807 70035 333 91216 555 11139 22147 31735 41717 61749 350132 350142 349137 351141 352139 356139
BBXX 41010 18181 99289 70785 46/// /0206 10208 40220 58014 91750 22200 00239 10503 20502 300// 40602 70013 333 91208 555 11066 22069
BBXX 41046 18181 99238 70683 46/// /0401 10251 20141 40179 58022 91750 22200 00260 11103 20401 300// 41103 70017 333 91202 555 11014 22015 31702 40503 61749 039014 024012 021012 044013 040018 017018 80502 91702
BBXX 42057 18181 99168 70815 46/// /0409 10274 20215 40162 58016 91750 22200 00280 10603 20603 3//// 40801 70016 333 91211 555 11093 22098 31736 40412 61749 037093 035101 040090 043095 038093 036092 80411 91738
BBXX 41009 18181 99285 70802 46/// /0108 10201 20121 40232 58013 91750 22200 00255 10604 20603 300// 41002 70019 333 91210 555 11085 22089
BBXX CGBR 18184 99543 71303 46/// /0000 10008 20007 40258 51009 7//// 8//// 22281 00079 2////
BBXX VCBW 18184 99490 70678 46/// /2311 11119 21151 40240 56017 7//// 8//// 22253 00022 2////
BBXX CGSB 18184 99492 70681 46/// /2502 11114 21177 40249 58017 7//// 8//// 22200 0//// 2////
BBXX VOFG 18184 99456 70614 46/// /0506 11001 21041 40174 56016 7//// 8//// 22200 0//// 2////
BBXX VCLM 18184 99556 70553 46/// /2627 11082 21112 40111 51024 7//// 8//// 22233 00028 2////
BBXX VOKJ 18184 99468 70568 46/// /3614 11033 21088 40176 56035 7//// 8//// 22224 0//// 2////
BBXX CGDR 18184 99484 71234 46/// /0101 10082 20081 40243 51025 7//// 8//// 22200 0//// 2////
BBXX VAAP 18184 99446 70636 46/// /0213 11016 21058 40163 56013 7//// 8//// 22200 0//// 2////
BBXX CGDG 18184 99447 70636 46/// /0106 11012 20002 40176 56014 7//// 8//// 22200 0//// 2////
BBXX CGBY 18184 99487 71235 46/// /2505 10074 20053 40240 51023 7//// 8//// 22200 0//// 2////
BBXX VXKF 18184 99468 70598 46/// /0213 11027 21087 40184 56025 7//// 8//// 22254 0//// 2////
BBXX CGTF 18184 99476 70527 46/// /2902 11036 21047 40187 56016 7//// 8//// 22200 0//// 2////
BBXX ZCDG7 18184 99311 71241 41398 43222 10153 20111 40272 52020 70111 83140 22265 00170 20203 331// 40504 5////
BBXX C6XP7 18183 99215 70759 41299 70618 10270 20256 40150 56/// 75052 86275 22234 00250 20202 322// 4//// 5//// 6//// 80260 ICE /////
BBXX ZCDA9 18183 99269 71352 41598 50519 10170 20153 40252 51017 70211 82444 22224 00215 20402 305// 40404 5//// 80160
BBXX DGHJ 18184 99291 71442 41298 80512 10200 20128 40270 52015 70222 887// 22263 00200 21306 335// 41008 5//// 80156
BBXX KGTX 18184 99535 71350 41698 82124 10090 2003/ 40192 57050 70222 884// 22274 00074 20504 321// 41207 5//// 6//// 80060 ICE /////
BBXX V7NV4 18184 99284 71379 41598 80424 10180 20148 40260 52025 702// 84697 22263 00160 20201 331// 40608 5//// 6//// 80160 ICE /////
BBXX PHBO 18183 99127 70604 41998 10204 10285 20177 40121 58027 70211 80005 22254 20301 334// 40602 80216
BBXX SHIP 18184 99297 71228 41798 53111 10180 20143 40265 52021 70210 84183 22233 00180 20201 331// 40302 80155
BBXX 3ECJ7 18184 99220 70649 419// 02600 10180 20148 40180 54000 7//// 8/000 222// 0//// 20101 3//// 400// 500// 6//// 80160 ICE 0////
BBXX VQAJ8 18183 99328 71182 41598 12405 10152 20094 40220 54000 70200 8/100 22243 00185 20000 300// 40000 5//// 80122
BBXX BATFR55 18184 99154 30532 44798 20316 10275 20232 40093 70100 82101 22272 00284 20802 33131 412// 512//
BBXX DDDI2 18184 99351 30133 41298 62528 10180 20131 40120 52010 70222 85873 2226/ 04170 21006 327// 40907 5//// 80150
BBXX C6VF5 18184 99185 10400 41/// /0807 10250 2022/ 40150 5//// 7//00 8//// 22274 00280 2//// 3//// 4//// 5//// 6//// 80230 ICE /////
BBXX BATFR19 18184 99065 30060 46/// /1912 10234 20187 40112 56001 22241 00254
BBXX BATFR05 18184 99063 10034 46/// /2109 10279 20242 40094 53010 22200 00260
BBXX BATFR45 18184 99063 30469 46/// ///// 10289 20237 40106 52018 22214 00317
BBXX DBBT 18181 99418 30021 46/// /2/16 10109 20061 40110 57007 22241 00114
BBXX DBKV 18181 99169 70250 46/// /0603 10242 20185 40149 57004 22230 00236
BBXX TBWUK18 18184 99307 50127 41598 60810 10210 20210 40244 54000 70222 864// 2229/ 20501 319// 41404 5//// 80210
BBXX A8GU7 18181 99188 70209 41796 50511 10260 20152 40160 50030 70322 8413/ 22214 00260 20804 302// 41004 5//// 80190
BBXX OVZV2 18180 99065 70250 41698 10306 10281 20230 40100 56010 70100 811// 22254 20602 336// 40804 5//// 80246
BBXX OVYB2 18181 99204 30579 41498 30507 10269 20225 40136 52010 70300 832// 22253 00280 20402 31300 41004 5//// 80239
BBXX C6SI3 18183 99432 11609 41798 82724 10030 2001/ 40030 56010 70322 87968 22213 0//// 20305 326// 4//// 5//// 6//// 80020 ICE /////
BBXX C6SI6 18184 99332 11239 46/// /3309 10071 21007 40311 57002 7//// 8//// 22254 0//// 2////
BBXX TBWUK36 18183 99173 11174 41398 80428 10244 20204 40137 58005 70222 887// 22254 00280 20405 305// 40404 5//// 80218
BBXX WCX8882 18184 99335 11285 41498 43019 10070 2000/ 40284 54000 70211 842// 22244 00180 2//// 3//// 4//// 5//// 6//// 80040 ICE /////
BBXX DFWV2 18184 99300 11689 41298 70508 10190 20111 40180 54000 7//22 877// 2226/ 04210 29902 3//// 4//// 5////
BBXX 46070 18181 99551 11753 46/// /3206 11021 21099 49827 56006 91750 22200 00037 11208 20502 3//// 41208 70041 333 91208 555 11064 22066 31720 43209 61749 318062 322069 325072 321064 321046 311046 83208 91715
BBXX LAIG7 18184 99406 11524 41498 72927 10030 2110/ 40100 54000 70222 86766 22223 00110 20808 329// 41007 5//// 6//// 81010 ICE /////
BBXX SHIP 18184 99115 11274 41798 70928 10270 2025/ 40115 57020 70252 85808 22213 00390 20704 332// 41006 5//// 6//// 80255 ICE /////
BBXX WBP3210 18184 99531 50709 43/// /3517 10152 2//// 49977 5//// 7//// 8//// 22200 00122 2//// 3//// 4//// 5//// 6//// ICE /////
BBXX WCX7445 18184 99528 50679 43/// /3620 10104 2//// 49948 5//// 7//// 8//// 22272 00080 2//// 3//// 4//// 5//// 6//// ICE /////
BBXX A8DE3 18183 99085 50797 41498 11605 10233 20207 40179 51004 70200 81100 22273 00240 20101 319// 40604 80215
BBXX 32012 18181 99197 50856 46/// ///// 1//// 91750 22200 11204 70021
BBXX UFTA 18181 99850 71237 11997 30103 11357 21391 40023 52003 69902 70230 82031
BBXX 46238 18181 99334 71195 46/// ///// 1//// 91750 22200 00144 11704 20402 329// 41703 70018
BBXX 46239 18181 99363 71221 46/// ///// 1//// 91751 22200 00127 11706 21002 331// 41706 70031
BBXX WDJK 18184 99435 71259 41498 60220 10105 20076 40270 51030 70222 8644/ 22243 00100 20503 335// 41007 5//// 6//// 80090 ICE /////
BBXX WGAX 18184 99378 70374 43997 01922 10190 2018/ 40206 5//// 7//// 80000 22253 00177 20603 318// 40804 5//// 6//// 80180 ICE /////
BBXX 46224 18181 99332 71175 46/// ///// 1//// 91736 22200 00143 11401 20901 325// 41401 70005
BBXX 46219 18181 99332 71199 46/// ///// 1//// 91758 22200 00135 11805 20802 330// 41804 70023
BBXX 46214 18181 99379 71235 46/// ///// 1//// 91755 22200 00113 11707 21002 331// 41707 70035
BBXX 42099 18181 99273 70842 46/// ///// 1//// 91757 22200 00233 10604 20604 70018
BBXX 41110 18181 99341 70777 46/// ///// 1//// 91751 22200 00141 11301 20401 311// 41301 70007
BBXX 41113 18181 99284 70805 46/// ///// 1//// 91751 22200 00215 11302 20602 309// 41301 70009
BBXX 41112 18181 99307 70813 46/// ///// 1//// 91751 22200 00162 11102 20502 309// 41101 70010
BBXX 44100 18181 99363 70756 46/// ///// 1//// 91752 22200 00130 10603 20603 308// 41301 70014
BBXX 41114 18181 99276 70802 46/// ///// 1//// 91746 22200 00246 11303 20602 307// 41301 70014
BBXX 44039 18181 99411 70727 46/// /3507 11028 21120 40240 91745 22200 00097 10301 70006 333 91210
BBXX 44099 18181 99369 70757 46/// ///// 1//// 91752 22200 00123 10602 20602 308// 41301 70011
BBXX 46218 18181 99345 71208 46/// ///// 1//// 91802 22200 00138 11705 20802 331// 41705 70027
BBXX 46213 18181 99403 71247 46/// ///// 1//// 91754 22200 00103 11507 21003 329// 41506 70035
BBXX 46215 18181 99352 71209 46/// ///// 1//// 91738 22200 00148 11703 21001 325// 41703 70014
BBXX 46225 18181 99329 71174 46/// ///// 1//// 91744 22200 00148 11402 21001 328// 41401 70008
BBXX 46243 18181 99462 71241 46/// ///// 1//// 91759 22200 00085 11405 20804 326// 41404 70026
BBXX 46236 18181 99368 71219 46/// ///// 1//// 91750 22200 00126 11403 21001 328// 41403 70017
BBXX 46247 18181 99378 71228 46/// ///// 1//// 91751 22200 00113 11505 21002 329// 41505 70025
BBXX 46229 18181 99438 71246 46/// ///// 1//// 91751 22200 00102 11406 21003 330// 41406 70032
BBXX 46232 18181 99325 71174 46/// ///// 1//// 91738 22200 00151 11402 20901 328// 41402 70010
BBXX 44097 18181 99410 70711 46/// ///// 1//// 91802 22200 00121 10503 20502 315// 41201 70013
BBXX 44008 18181 99405 70692 46/// /0111 10034 21014 40167 56006 91750 22200 00114 10905 20705 303// 40903 70026 333 91213 555 11114 22119 31710 43614 61749 007109 011105 007108 007107 007104 016093
BBXX 44172 18181 99445 70634 46/// ///// 1//// 91801 22200 00070 10903 20903 312// 41101 70014
BBXX 51101 18181 99243 71621 46/// /0807 10232 20161 40208 53009 91750 22200 00239 11205 20502 333// 41204 70023 333 91208 555 11072 22076 31720 40809 61749 074069 073072 074070 067070 063065 068066
BBXX 46083 18181 99582 71380 46/// /1614 10053 20035 40102 58043 91750 22200 00067 11006 20705 300// 41003 70032 333 91217 555 11152 22163 31732 41519 61749 160141 156139 153138 154142 154132 157141 81516 91732
BBXX 46061 18181 99602 71468 46/// /1023 10021 49865 58070 91750 22200 00059 11009 20605 300// 41007 70043 333 91229 555 11249 22266 31655 41030 61749 097229 098220 098231 100222 100226 098222
BBXX CGCC 18184 99461 70731 46/// /2603 11094 21148 40256 58016 7//// 8//// 22252 00045 2////
BBXX A8LP6 18184 99422 70581 41296 80435 10100 20091 40050 54000 75022 887// 22265 04126 29909 303// 41408 80095
BBXX CGJK 18184 99484 71234 46/// /0401 10080 20070 40242 51026 7//// 8//// 22200 0//// 2////
BBXX VCWL 18184 99456 70735 46/// /0000 11077 21150 40257 58016 7//// 8//// 22200 0//// 2////
BBXX CGJV 18184 99454 70609 46/// /0421 10001 21030 40166 55008 7//// 8//// 22212 00064 2////
BBXX CG2958 18184 99507 71275 46/// /2303 10065 20031 40285 51021 7//// 8//// 22200 0//// 2////
BBXX VOPP 18184 99456 70735 46/// /2002 11081 21158 4//// 5//// 7//// 8//// 22200 0//// 2////
BBXX VOKF 18184 99490 70669 46/// /2610 11110 21158 40245 56015 7//// 8//// 22200 0//// 2////
BBXX CZ9742 18184 99506 70969 46/// /3005 11017 21020 40013 58007 7//// 8//// 22200 0//// 2////
BBXX VCSZ 18184 99495 70664 46/// /2511 11101 21120 40231 56015 7//// 8//// 22264 0//// 2////
BBXX CGBN 18184 99447 70636 46/// /0110 11009 21062 40161 56014 7//// 8//// 22200 0//// 2////
BBXX CGDX 18184 99468 70712 46/// /2902 11084 21158 40256 58019 7//// 8//// 22200 0//// 2////
BBXX CGDT 18184 99468 70712 46/// /3002 11074 21154 40257 58019 7//// 8//// 22200 0//// 2////
BBXX VOLG 18184 99446 70627 46/// /0220 11001 21045 40149 56035 7//// 8//// 22223 0//// 2////
BBXX 3FZK3 18184 99549 71481 46/// /2734 10051 20030 49885 53059 7//// 8//// 22232 0//// 2////
BBXX VAAZ 18184 99546 70530 46/// /2529 11085 21119 40133 53008 7//// 8//// 22200 0//// 2////
BBXX CG2965 18184 99487 71235 46/// /2506 10072 20050 40243 51024 7//// 8//// 22200 0//// 2////
BBXX VCRG 18184 99474 70619 46/// /3617 11042 21089 40208 56019 7//// 8//// 22200 0//// 2////
BBXX 46041 18181 99474 71247 46/// /3309 10085 40238 51023 91750 22200 00081 11507 20804 3//// 41506 70036 333 91211 555 11099 22106 31720 43212 61749 327093 325096 324093 323097 322094 321086
BBXX 46026 18181 99378 71228 46/// /0000 10100 40234 51015 91750 22200 00111 11605 20401 328// 41605 70027 333 91201 555 11004 22004 31731 42001 61749 318004 258002 266001 263002 218003 180000
BBXX 44007 18181 99435 70701 46/// /3506 11059 21124 40230 57015 91750 22200 00082 10602 20401 3//// 40602 70012 333 91208 555 11057 22059 31652 43512 61749 348056 000062 354056 357059 003062 351068
BBXX 46077 18181 99579 71543 46/// /1614 10039 20024 49605 56049 91750 22200 00054 10504 20504 3//// 41001 70021 333 91217 555 11151 22161 31715 41618 61749 163141 159138 158138 156139 150139 150135 81615 91746
BBXX 41040 18181 99145 70530 46/// /0306 10265 20202 40121 57024 91750 22200 00281 11106 20502 3//// 41106 70029 333 91207 555 11061 22064 31651 40308 61749 028058 030062 030059 020056 024060 025060 80307 91651
BBXX 46035 18181 99571 71778 46/// /2809 1//// 49741 54000 91750 22200 11309 20603 300// 41308 70045 333 91211 555 11085 22091 31741 42912 61749 283088 290085 281074 296073 289079 302087 82910 91741
BBXX 46082 18181 99597 71434 46/// ///// 10028 20028 49966 56071 91750 22200 00063 10810 70051
BBXX 42039 18181 99288 70860 46/// /0408 10154 91750 555 11085 22090
BBXX 46072 18181 99517 71722 46/// /2605 10022 21070 49861 54000 91750 22200 00049 11106 20501 3//// 41106 70032 333 91207 555 11053 22055 31733 42509 61749 262054 257068 249052 248048 239043 244047 82607 91737
BBXX CGDS 18184 99452 70740 46/// /0802 11080 21152 4//// 5//// 7//// 8//// 22212 00057 2////
BBXX BATEU01 18184 99493 70401 44597 72810 10077 20002 40187 53011 70222 84563 22224 00134 21002 327// 41002 5////
BBXX BATEU06 18184 99526 70494 46/// /2628 11052 21108 4//// 22264 00052
BBXX BATFR14 18184 99209 70559 44898 40407 10250 20177 40137 56024 70300 84162 22214 00262 305// 410// 5////
BBXX 46086 18181 99325 71180 46/// /3004 10147 40223 53012 91750 22200 00151 11403 328// 41403 70014 333 91205 555 11046 22048 31734 42806 61749 297045 291047 290046 290038 293031 290030
BBXX 46050 18181 99442 71246 46/// /3409 10095 40259 52029 91750 22200 00098 11607 20803 330// 41606 70033 333 91211 555 11092 22097 31725 43412 61749 342086 341090 344094 342090 344089 349083
BBXX 46027 18181 99419 71244 46/// /3401 10082 40243 51020 91750 22200 00094 11506 20401 329// 41506 70028 333 91202 555 11009 22009 31702 43203 61749 336008 341008 016007 014008 347010 343015
BBXX 44040 18181 99410 70736 46/// /0106 11026 21130 40246 91745 22200 1//00 70002 333 91207 555 11062 22062
BBXX 44009 18181 99385 70747 46/// /3210 10028 40246 58011 91750 22200 00119 10603 20602 300// 40701 70013 333 91212 555 11104 22109 31726 43012 61749 319098 317091 314095 311086 311086 318082
BBXX 41013 18181 99334 70777 46/// /3509 10091 20006 40260 50000 91750 22200 00203 10603 20603 309// 41401 70014 333 91212 555 11092 22096 31714 43612 61749 344088 350085 356084 350091 351090 351086
BBXX 44027 18181 99443 70673 46/// /0109 11050 21079 40201 56016 91750 22200 00084 10602 20602 70012 333 91211 555 11089 22092 31733 43611 61749 004085 359087 005087 006082 359084 002084
BBXX 44065 18181 99404 70737 46/// /3208 11020 21092 40236 57008 91750 22200 00101 11102 20301 312// 41101 70008 333 91210 555 11079 22082 31716 43311 61749 321074 327074 333071 331078 332070 334072 83310 91655
BBXX 41004 18181 99325 70791 46/// /0107 10122 20051 40263 50000 91750 22200 00219 10902 20502 3//// 40901 70012 333 91209 555 11072 22074 31740 43510 61749 006072 013068 011069 012075 010074 006067
BBXX 44020 18181 99414 70702 46/// /0110 11008 21021 40193 57005 91750 22200 00078 10402 20402 70010 333 91212 555 11110 22118 31714 42513 61749 352102 256098 256102 256108 257098 259096
BBXX 44022 18181 99409 70737 46/// ///06 11025 21108 40243 91745 22200 00086 333 91208 555 11057 22062
BBXX 44060 18181 99413 70721 46/// ///07 11025 40223 91745 22200 00106 333 91209 555 11072 22077
BBXX 46084 18181 99566 71361 46/// /1615 10066 20032 40153 58026 91750 22200 00071 10506 20505 300// 41203 70030 333 91218 555 11158 22168 31748 41718 61749 157146 152135 153134 154133 158131 155129
BBXX 46080 18181 99580 71500 46/// /1815 10050 20033 49755 54000 91750 22200 00054 11111 20606 3//// 41109 70057 333 91219 555 11156 22166 31727 41822 61749 184144 182160 184163 181150 179148 185134 81818 91727
BBXX 46005 18181 99461 71310 46/// ///03 10091 40302 52011 91750 22200 00100 11607 20401 3//// 41607 70036 333 91205 555 11032 22033
BBXX 46075 18181 99539 71608 46/// /2615 10025 20001 49831 51059 91750 22200 00047 11412 20506 300// 41410 70060 333 91220 555 11158 22168 31713 42622 61749 264151 263159 264143 264165 255139 268124 82618 91715
BBXX 46059 18181 99380 71300 46/// /0108 10127 40280 52015 91750 22200 00146 11606 20602 3//// 41605 70028 333 91210 555 11081 22085 31745 40110 61749 010076 004065 009062 015057 017059 021051
BBXX 46002 18181 99426 71305 46/// ///// 10112 40305 51020 91750 22200 00121 11407 70036
BBXX 46006 18181 99408 71375 46/// /3602 10110 40342 53023 91750 22200 00124 11508 20401 3//// 41508 70038 333 91204 555 11023 22023 31742 43404 61749 001022 020022 357020 018024 039023 030017
BBXX 42055 18181 99222 70940 46/// /0706 10252 20195 40230 58005 91750 22200 00253 10703 20602 335// 40702 70014 333 91208 555 11068 22072 31656 40809 61749 068064 069066 068066 069070 066073 068074 80708 91657
BBXX 42065 18181 99149 70750 46/// /0708 10273 20207 91750 22200 10804 20704 3//// 40802 70021 333 91211 555 11090 22096 31720 40711 61749 074084 066084 074087 074084 073081 069086 80810 91720
BBXX 41049 18181 99275 70630 46/// /2607 10225 20139 40164 57029 91750 22200 00243 10903 20601 300// 40903 70015 333 91208 555 11070 22073 31716 42608 61749 259066 262060 260062 258065 247060 247057 82507 91716
BBXX 41044 18181 99217 70587 46/// /0305 10246 20158 40149 57020 91750 22200 00265 11106 20401 300// 41106 70028 333 91208 555 11048 22050 31742 40308 61749 030045 028039 032036 027043 023042 036038 80306 91742
BBXX 42012 18181 99301 70876 46/// /0305 10128 20040 40280 58007 91750 22200 00205 10502 20401 308// 40501 70008 333 91207 555 11054 22056 31655 40508 61749 027051 036053 026053 030054 032060 038062
BBXX 41060 18181 99148 70510 46/// ///// 1//// 91750 22200 11406 70029
BBXX 42001 18181 99259 70897 46/// /0507 10221 20142 40257 58008 91750 22200 00262 10703 20602 3//// 40702 70015 333 91209 555 11075 22078 31700 40512 61749 050073 058079 053074 049078 047079 047078
BBXX 42035 18181 99292 70944 46/// /0807 10148 20090 40279 58009 91750 22200 00170 10502 20502 70011 333 91208 555 11076 22080 31738 40909 61749 080073 082074 081072 083071 083071 085068
BBXX 41048 18181 99320 70696 46/// /3112 10173 20088 40141 58021 91750 22200 00225 10805 20805 3//// 41303 70027 333 91214 555 11115 22121 31707 43018 61749 308114 309112 312122 311141 313137 311117 83116 91709
BBXX 42003 18181 99260 70856 46/// /0608 1//// 91750 22200 10603 20603 70014 333 91210 555 11086 22091 31712 40610 61749 056079 054079 059077 057079 052081 049083 80609 91712
BBXX 41036 18181 99342 70770 46/// ///// 10079 21007 40255 58005 91750 22200 00164 10402 70011
BBXX 46105 18181 99590 71522 46/// ///// 1//// 91750 22200 11007 70034
BBXX 42020 18181 99270 70967 46/// /0908 10219 20166 40248 58014 91750 22200 00238 10603 20603 70014 333 91210 555 11085 22089 31722 40710 61749 091080 093079 086080 090080 088076 080075
BBXX 44005 18181 99432 70691 46/// /0108 11045 21109 40210 57013 91750 22200 00086 10603 20603 3//// 41101 70015 333 91210 555 11080 22083 31739 40112 61749 009079 002079 004074 004077 000074 357082
BBXX 42019 18181 99279 70954 46/// /1007 10201 20144 40258 58010 91750 22200 10602 20602 311// 40801 70011 333 91209 555 11079 22084 31739 42809 61749 095075 280071 282072 280071 281075 281074
BBXX 42002 18181 99258 70937 46/// /0708 10219 20157 40254 58008 91750 22200 00239 10603 20602 311// 40801 70013 333 91209 555 11078 22083 31736 40710 61749 071079 070076 067076 066077 066075 065073
BBXX 42059 18181 99151 70675 46/// /0806 10274 20198 40134 58021 91750 22200 00281 10603 20502 3//// 40602 70014 333 91207 555 11060 22063 31711 40808 61749 082056 082061 086061 085062 088061 087062 80807 91712
BBXX 42056 18181 99198 70849 46/// /0609 10257 20208 40190 58011 91750 22200 00270 10604 20604 312// 40901 70020 333 91211 555 11094 22099 31654 40512 61749 061087 058095 060093 060095 058095 057100 80610 91704
BBXX 44066 18181 99396 70726 46/// /3409 10007 21047 40213 57009 91750 22200 00134 10503 20503 70014 333 91211 555 11090 22093 31734 43313 61749 335085 339083 336085 340083 334078 324084
BBXX 42036 18181 99285 70845 46/// /0308 10152 20067 40252 58015 91750 22200 00213 10603 20603 70016 333 91210 555 11083 22086 31700 40511 61749 033079 034078 034081 040083 040084 041083
BBXX 41043 18181 99211 70650 46/// /0904 10251 20175 40170 58023 91750 22200 00266 11005 20401 300// 41005 70025 333 91205 555 11044 22045 31653 40907 61749 096041 090043 090045 090045 079051 087050 80906 91653
BBXX CG2960 18184 99422 70831 46/// /2008 10018 21025 40236 50003 7//// 8//// 22272 00032 2////
BBXX CG2350 18184 99433 70798 46/// /2410 10004 21031 40221 58003 7//// 8//// 22200 0//// 2////
BBXX 41047 18181 99275 70715 46/// /3113 10225 40186 58013 91750 22200 00252 11204 20403 307// 41203 70019 333 91215 555 11128 22135 31747 43115 61749 305129 301124 297123 291115 289112 286107 83114 91748
BBXX 42060 18181 99163 70635 46/// /0507 10265 20189 40141 58023 91750 22200 00279 11104 20503 300// 41102 70018 333 91209 555 11077 22081 31700 40509 61749 053072 050075 052071 056072 053072 055076 80508 91700
BBXX 42058 18181 99149 70749 46/// /0809 10272 20198 40130 58020 91750 22200 00276 10803 20603 309// 40802 70017 333 91211 555 11096 22102 31748 40811 61749 077090 077087 081085 080082 080085 077082 80810 91748
BBXX 41012 18181 99300 70805 46/// /3507 10167 40244 58009 91750 22200 00235 10603 20402 336// 40602 70013 333 91209 555 11070 22073 31721 43609 61749 353068 001069 001069 352067 354069 351073
BBXX 41001 18181 99347 70727 46/// ///// 10106 20047 40181 58010 91750 22200 00219 10806 70032
BBXX 42040 18181 99292 70882 46/// /0407 10147 40278 58006 91750 22200 00225 10602 20602 70012 333 91209 555 11073 22076 31650 40410 61749 039074 045073 044069 047068 052069 046075
BBXX KEY796 18183 99571 71703 41/97 72526 11011 21033 49706 53/// 702// 8//// 222// 00011 2//// 3//// 4//// 5//// 6//// 8//// ICE /////
BBXX NWS0022 18184 99416 70714 43/// /3612 11009 21123 40216 5//// 7//// 8//// 222// 04102 2//// 3//// 4//// 5//// 6//// 8//// ICE /////
BBXX HZRX 18183 99345 70755 41797 73317 /// 10090 20075 40244 54006 70322 86133 22253 10110 20303 33333 40202 5//// 6//// 80070 ///// /////
BBXX PGQI 18183 99239 70650 41/97 60112 10251 20174 40165 56015 70311 84560 22263 20401 302// 40703 80200
BBXX MYSU5 18184 99450 70578 41297 80438 10003 21036 40134 56010 70222 8277/ 22223 00080 20612 3//// 4//// 5//// 81010
BBXX DEDM 18184 99386 70675 41/97 73628 10120 20073 40115 57020 76262 84420 22214 04220 20804 30000 80095
BBXX WDE9193 18183 99212 70840 41797 40713 10265 2020/ 40187 57011 70222 82838 22212 0//// 20302 305// 40704 5//// 6//// 80220 ICE /////
BBXX ELXU2 18180 99142 70937 41998 03409 10290 20220 40162 57010 70200 80000 22223 29903 333// 40705 5//// 80240
BBXX 3FBC9 18184 99146 71234 41697 80522 10240 40152 51017 70322 87457 9//// 22233 00250 20406 306// 40508 5//// 6//// 80220
BBXX DDAC2 18180 99105 70897 41/97 /0710 10280 20239 40120 54000 7//22 8/460 22273 04270 2//// 307// 4//06 5//// 80250
BBXX FVNM 18184 99056 70870 46/// /3002 10260 20219 40122 58013 22200 00260
BBXX WDC6698 18184 99089 71452 43/// /0614 11351 2//// 40100 5//// 7//// 8//// 222// 04274 2//// 3//// 4//// 5//// 6//// 8//// ICE /////
BBXX BATFR15 18184 99180 70575 44898 23510 10250 20187 40136 56022 70000 82152 22264 00275 20802 305// 40802 5////
BBXX A8AJ4 18184 99541 71651 41496 42730 10030 2//// 49820 52040 7//// 8254/ 22264 00050 2//// 3//// 4//// 5//// 6//// 8//// ICE /////
BBXX A8MH7 18184 99193 70868 41798 70723 10267 2021/ 40199 57015 70362 87628 22244 04260 20302 307// 40604
BBXX DFGX2 18183 99517 71370 41598 81853 10080 20060 40175 51005 70222 8/8// 22224 04080 20506 316// 40510 80070
BBXX WDC6736 18184 99348 70470 41698 81719 10220 2019/ 40150 57035 71522 8762/ 22254 00220 20504 317// 40806 5//// 6//// 80200 ICE /////
BBXX A8EH2 18184 99336 71232 41198 82918 10130 20101 40240 52018 85872 22275 00136 20502 330// 41204 80115
BBXX WJBJ 18183 99254 70746 41298 63511 10245 2019/ 40191 57009 70222 86461 22273 00253 20502 335// 40502 5//// 6//// 80205 ICE /////
BBXX WHRN 18183 99281 71437 41698 70614 10183 2016/ 40256 52020 70122 871/8 22215 00211 20302 32913 40507 50504 6//// 80167 ICE /////
BBXX WBO3345 18184 99249 70797 41697 70418 10256 20232 40180 54/// 70311 87153 22232 0//// 20402 306// 40402 5//// 6//// 80239 ICE /////
BBXX BAREU54 18184 99094 70799 46/// ///// 40123 22200
BBXX 46028 18181 99357 71219 46/// /3005 10120 40224 51011 91750 22200 00136 11706 20401 331// 41706 70031 333 91207 555 11050 22052 31746 43007 61749 301048 305047 305043 305044 308045 312041
BBXX 46054 18181 99342 71204 46/// /3108 10130 40222 52012 91750 22200 00142 11403 20402 300// 41403 70017 333 91209 555 11082 22086 31652 43210 61749 313077 317076 313079 317081 318083 318085
BBXX 46025 18181 99337 71191 46/// /2604 10142 20117 40212 51007 91750 22200 00152 11401 324// 41401 70006 333 91205 555 11039 22040 31732 42506 61749 262036 256046 255046 267044 265044 267039
BBXX 46029 18181 99461 71245 46/// /3208 10090 20052 40254 51026 91750 22200 00089 11506 20703 329// 41505 70031 333 91210 555 11088 22094 31710 43210 61749 324081 321079 317082 321080 318084 316085
BBXX 46087 18181 99485 71247 46/// /2901 10076 20075 40242 51031 91750 22200 00079 11506 20401 326// 41506 70032 333 91202 555 11010 22011 31727 42904 61749 286009 295018 294022 344014 356009 353015
BBXX 46012 18181 99374 71229 46/// /1801 10100 40234 51012 91750 22200 00120 11607 20401 331// 41607 70033 333 91202 555 11007 22007 31713 41304 61749 183007 151006 127012 133016 135011 135007
BBXX 46013 18181 99382 71233 46/// /0603 10097 40231 52013 91750 22200 00107 11606 20301 3//// 41606 70028 333 91204 555 11031 22032 31708 40704 61749 057030 054030 056030 053032 049032 053031
BBXX 46047 18181 99324 71195 46/// /3004 10139 40230 51016 91750 22200 00138 11704 330// 41704 70020 333 91204 555 11037 22040 31650 43004 61749 298034 297027 296030 298030 304030 308029
BBXX 46069 18181 99337 71202 46/// /3109 10132 40223 91750 22200 00139 11704 20401 330// 41704 70020 333 91210 555 11094 22099 31736 43011 61749 307088 304088 301086 301081 305075 304074
BBXX 46011 18181 99350 71210 46/// /3304 10126 40230 51012 91750 22200 00138 11604 20401 331// 41604 70018 333 91205 555 11045 22047 31724 43206 61749 326043 324042 321044 323034 342019 002018
BBXX 46088 18181 99483 71232 46/// /0000 10078 40237 91750 22200 00080 1//00 70002 333 91201 555 11003 22003 31703 42403 61749 342004 306007 270009 256013 249019 269018
BBXX 46014 18181 99394 71240 46/// /3503 10091 40241 51015 91750 22200 00107 11706 20401 3//// 41706 70030 333 91205 555 11033 22034 31743 43405 61749 351031 025020 021021 032021 029023 042022
BBXX HZGN 18183 99031 11085 41297 70115 10270 20257 40088 58/// 76062 842// 22224 02270 20501 302// 40805 5//// 80260
BBXX BATEU07 18184 99346 31288 46/// /0406 10167 40106 53003 22264
BBXX A8ID9 18184 99056 51679 41498 40818 10245 20217 40100 52025 70300 82265 22214 00280 20503 30000 4//// 5//// 80225
BBXX DBLK 18181 99705 50081 41496 80914 11021 21034 49804 52020 77187 8652/ 22221 05015 ICE 88795
BBXX WKAB 18184 99360 70043 41/98 12905 10125 20044 40228 53003 70200 8//// 22225 00158 2//// 3//// 4//// 5//// 6//// 80085 ICE /////
BBXX DBBH 18181 99368 70113 41598 30609 10146 20058 40249 52007 70111 82721 22221 04181 20503
BBXX OXBB2 18181 99452 70083 41597 63512 10132 20072 40270 52005 70022 868// 22283 00130 20302 334// 40704 80100
BBXX VRYO3 18184 99535 10099 46/// /0000 10021 20030 40058 51015 7//// 8//// 22200 0//// 2////
BBXX WDD3826 18184 99478 70289 41394 82819 10160 2014/ 40165 53021 75244 886// 22224 00100 20302 318// 40703 5//// 6//// 80150 ICE /////
BBXX DBEB 18181 99538 10081 41/// /2711 10052 20052 40051 52010 7//// 22261 00054
BBXX DBFH 18181 99535 10086 46/// /2404 10029 20009 40066 52015 22230 00048
BBXX DBEA 18181 99540 10084 46/// /2910 10052 20005 40052 52013 22261 00051
BBXX DBJM 18181 99540 10085 46/// /2908 10049 20008 40052 52012 22261 00051
BBXX DBFR 18181 99542 10080 46/// /2710 10049 20026 40048 52008 22230 00072
BBXX DBBU 18181 99542 10119 46/// /2715 10046 20024 40019 52016 22261 00057
BBXX DK7210 18181 99540 10066 46/// /2909 10050 20048 30044
BBXX C6JS 18183 99435 70188 41597 81515 10155 2014/ 40280 56010 70322 882// 22254 20402 335// 40906 80145
AAXX 18184 78792 32430 80405 10245 20226 30110 40125 57010 79566 85970 333 068// 10275 20237 32/// 58015 81706 81913 85357
AAXX 18184 78793 32370 82108 10288 20236 30083 40114 57010 8223/ 333 10293 20228 30/// 564// 58008 82810 88360
AAXX 18184 78795 31360 83508 10278 20216 30025 40125 57004 85250 333 10292 20220 31/// 5680/ 57882 58005 85815 83359
AAXX 18184 78906 11476 52502 10296 20218 30121 40126 69901 71582 85401 333 10296 20202 59003 85818 90930
AAXX 18184 68399 36/// /1105 10239 20170 30062 40171 52020 333 10335 20239 91041 555 91017
AAXX 18184 68383 36/// /0000 10231 20155 39932 48587 52018 333 10339 20231 91000 555 91017
BBXX MGRH9 18183 99281 31557 41598 71210 10211 20139 40148 70222 875// 22233 00225 20303 315// 40705 5//// 80169
BBXX PEBT 18183 99442 70090 41498 53612 10110 20061 40280 54000 7//22 854// 22213 02120 20402 333// 41105 5//// 80085
BBXX UFJN 18181 99718 10418 41/98 82305 11010 40094 54000 70022 88/// 22200 0//// 20301
AAXX 18181 38353 115// 83503 11135 21155 39411 40390 52029 69950 77177 885// 333 11074
AAXX 18181 38613 115// 82701 11007 21056 40287 52006 77077 8802/ 333 10006
AAXX 18181 38616 115// 82701 11021 21046 39236 40298 53014 69940 77172 8872/ 333 11003
AAXX 18181 38345 31596 82001 11182 21201 38854 48518 52029 71072 886// 333 11044
AAXX 18181 36911 119// 82702 11127 21147 39322 40363 52023 69940 77177 8802/ 333 11103
AAXX 18181 36974 116// 82401 11095 21107 37944 48511 57017 60010 72272 8802/ 333 11090
AAXX 18181 36982 425// 11166 21225 36458 47103 58004 83550 333 11133
BBXX 3FZK3 18184 99549 71481 46/// /2734 10051 20030 49885 53059 7//// 8//// 22232 0//// 2////
BBXX 46026 18181 99378 71228 46/// /0000 10100 40234 51015 91750 22200 00111 11605 20401 328// 41605 70027 333 91201 555 11004 22004 31731 42001 61749 318004 258002 266001 263002 218003 180000
BBXX 46029 18181 99461 71245 46/// /3208 10090 20052 40254 51026 91750 22200 00089 11506 20703 329// 41505 70031 333 91210 555 11088 22094 31710 43210 61749 324081 321079 317082 321080 318084 316085
BBXX 46042 18181 99368 71224 46/// /1102 10108 40233 53016 91750 22200 00126 11607 20301 331// 41607 70037 333 91204 555 11022 22022 31720 41105 61749 105022 104023 102027 101025 104027 106030
BBXX 46050 18181 99442 71246 46/// /3409 10095 40259 52029 91750 22200 00098 11607 20803 330// 41606 70033 333 91211 555 11092 22097 31725 43412 61749 342086 341090 344094 342090 344089 349083
BBXX CG2958 18184 99507 71275 46/// /2303 10065 20031 40285 51021 7//// 8//// 22200 0//// 2////
BBXX CG2965 18184 99487 71235 46/// /2506 10072 20050 40243 51024 7//// 8//// 22200 0//// 2////
BBXX CGBR 18184 99543 71303 46/// /0000 10008 20007 40258 51009 7//// 8//// 22281 00079 2////
BBXX CGBY 18184 99487 71235 46/// /2505 10074 20053 40240 51023 7//// 8//// 22200 0//// 2////
BBXX CGDR 18184 99484 71234 46/// /0101 10082 20081 40243 51025 7//// 8//// 22200 0//// 2////
BBXX CGJK 18184 99484 71234 46/// /0401 10080 20070 40242 51026 7//// 8//// 22200 0//// 2////
BBXX KHRC 18184 99318 71286 41398 72809 10167 20080 40255 51009 7//22 87/// 22254 00128 2//// 330// 40703 5//// 6//// 80122 ICE /////
AAXX 18184 47101 32965 00000 11105 21122 30208 40311 52012
AAXX 18184 47105 369// /2512 11013 21175 30232 40265 53008
AAXX 18184 47108 32970 02703 11055 21158 30197 40309 53005
AAXX 18184 47115 32672 32905 10016 21085 39961 40239 55002 83500 333 92032
AAXX 18184 47133 32965 00000 11051 21081 30222 40312 53006
AAXX 18184 47138 32970 02004 11004 21190 30269 40272 52005 333 92022
AAXX 18184 47159 32970 03204 11005 21144 30189 40278 57001 333 9//2/
AAXX 18184 47165 32665 40202 11006 21052 30257 40306 52009 84500 333 92011
AAXX 18184 47168 32970 00210 11001 21144 30205 40288 53004 333 92023
AAXX 18184 47184 32670 63610 10060 20000 30270 40296 53001 85500 333 92032
AAXX 18184 93004 16/// /1815 10142 20141 40096 52013 60011
AAXX 18184 93023 16/// /1310 10146 20133 40101 52016 60011
AAXX 18184 93069 16/// /1325 10151 20130 40102 52012 60001
AAXX 18184 93110 17898 /1607 10129 20108 40119 52008 60001
AAXX 18184 93186 17999 /2004 10127 20108 40121 52007 69921
AAXX 18184 93196 16/// /1623 10129 20101 40109 52009 60001
AAXX 18184 93245 16/98 /1604 10089 20056 40144 52007 60001
AAXX 18184 93292 17597 /1702 10122 20101 40141 52008 60011
AAXX 18184 93309 17/98 /1514 10106 20065 40139 52007 60001
AAXX 18184 93334 16/// /1203 10058 20034 39194 52010 60001
AAXX 18184 93339 16/// /1207 10055 20027 39199 52009 60001
AAXX 18184 93373 17697 /2306 10112 20082 40158 52010 60001
AAXX 18184 93404 17798 /1206 10105 20077 40166 52007 60001
AAXX 18184 93420 17698 /2005 10101 20061 40167 52006 60001
AAXX 18184 93439 17698 /1716 10119 20057 40172 52008 60001
AAXX 18184 93498 16/// /2308 10095 20085 40164 52008 69961
AAXX 18184 93515 17296 /3613 10127 20127 40160 52005 60161
AAXX 18184 93527 16/// /1211 10128 20080 40162 52005 60001
AAXX 18184 93546 17/98 /1002 10115 20082 40164 52003 60001
AAXX 18184 93597 16/// /1614 10111 20081 40170 52002 60001
AAXX 18184 93615 17898 /0604 10119 20100 40154 52004 69921
AAXX 18184 93678 16498 /2905 10088 20081 40186 52004 69921
AAXX 18184 93709 16/// /0000 10134 20123 40150 52005 60001
AAXX 18184 93773 17698 /2503 10093 20066 40197 52005 60001
AAXX 18184 93781 17498 /2502 10093 20085 40193 52005 60001
AAXX 18184 93800 NIL
AAXX 18184 93805 NIL
AAXX 18184 93831 17698 /1505 10077 20046 40195 52009 60001
AAXX 18184 93845 17697 /0202 10044 20041 40203 52001 60001
AAXX 18184 93891 17/97 /0000 10046 20040 40200 52003 60001
AAXX 18184 93909 16/// /2008 10097 20080 40193 57003 60001
AAXX 18184 93929 16/// /0000 10092 20077 40179 52003 60001
AAXX 18184 93947 16/// /2415 10058 20049 40139 52011 69981
AAXX 18184 93987 16/// /2112 10104 20052 40123 52006 60001
AAXX 18184 93994 NIL
BBXX LAHV 18181 99589 10057 43/// /3303 10031 20009 40033 222// 04074 1////
BBXX LF4H 18184 99596 10022 46/// /3218 10045 21021 40066 52006 8//// 22200 06078 10808 70040 333 91133
BBXX LGWS 18181 99304 70096 43/// /1507 10199 20098 40153 5//// 222/0 04163 1//// 3//// 4//// 5////
AAXX 18184 47090 32970 02909 11004 21201 30238 40261 53011 333 92023
AAXX 18184 47095 32968 00000 11121 21151 30112 40317 52010
AAXX 18184 47097 329// /2902 11073 21150 30207 40309 53007
AAXX 18184 47098 329// /0000 11091 21130 30165 40309 53006
AAXX 18184 47099 329// /0000 11108 21132 30272 40311 53005
AAXX 18184 47100 32970 02709 11102 21169 39326 40300 52007
AAXX 18184 47102 32675 52909 10012 21061 30117 40300 55004 85500
AAXX 18184 47104 32970 01605 11023 21175 30160 40261 53005
AAXX 18184 47106 329// /2709 10004 21189 30208 40259 53003
AAXX 18184 47112 32970 03605 11043 21131 30220 40309 53005 333 92012
AAXX 18184 47114 32970 00000 11084 21134 30113 40308 52008
AAXX 18184 47119 32970 02702 11048 21124 30266 40310 53006
AAXX 18184 47121 329// /0001 11099 21130 39995 40311 52010
AAXX 18184 47127 329// /0001 11088 21126 30162 40314 53009
AAXX 18184 47129 32968 01101 11059 21078 30275 40313 54000
AAXX 18184 47130 32970 02008 11013 21163 30198 40262 52007 333 92023
AAXX 18184 47131 32970 00000 11050 21096 30235 40310 53006
AAXX 18184 47135 329// /2514 11034 21104 39987 40300 52008
AAXX 18184 47136 32970 03202 11048 21124 30115 40296 52009
AAXX 18184 47137 329// /2306 11030 21160 30175 40299 52009
AAXX 18184 47140 32968 00902 11025 21083 30279 40309 52005 333 92011
AAXX 18184 47143 32970 02704 11015 21130 30221 40303 53007
AAXX 18184 47145 32967 00001 11070 21089 30277 40305 53006
AAXX 18184 47146 32962 00000 11049 21073 30243 40313 53008
AAXX 18184 47150 32970 00203 11038 21079 30286 40306 53002
AAXX 18184 47152 32970 03404 11001 21152 30231 40275 53007
AAXX 18184 47154 329// /0001 11049 21116 30236 40300 52008
AAXX 18184 47155 32970 00904 10002 21109 30241 40289 53006
AAXX 18184 47156 32970 00205 11016 21079 30217 40310 53006
AAXX 18184 47157 32965 02002 11077 21096 30008 40295 52011
AAXX 18184 47162 32975 00506 10000 21092 30245 40287 53004
AAXX 18184 47169 32665 33413 10043 21037 30205 40301 52003 83500 333 92044
AAXX 18184 47170 32668 22702 11001 21043 30256 40301 53003 81500 333 92021
AAXX 18184 47171 329// /0000 11046 21070 30255 40313 53008
AAXX 18184 47172 329// /1802 11030 21066 30234 40304 53007
AAXX 18184 47173 329// /0201 11069 21082 30195 40313 52008
AAXX 18184 47174 32965 02706 11027 21089 30089 40300 53005
AAXX 18184 47175 32561 43607 11030 21045 39706 40304 53004 84500 333 92023
AAXX 18184 47185 32670 43215 10067 21022 30200 40292 53001 84500 333 92034
AAXX 18184 47188 32670 20504 10051 21011 30266 40288 56001 82300 333 92022
AAXX 18184 47189 32675 23403 10051 20008 30217 40278 51002 81500 333 92022
AAXX 18184 47192 32965 00000 11058 21087 30256 40296 53008
AAXX 18184 16622 12560 31104 10078 21010 30158 40169 52020 60002 82135 333 10120 82830 83068 90730 91107 555 10000 40078 30000 10070 2//// 30100 4//// 5//// 40000 47649 44220 50000 50044
AAXX 18184 16641 11660 81706 10114 20038 30118 40123 52008 69912 76062 8347/ 333 10130 83635 88358 90730 91115 555 10000 40058 40000 47617 44190 50000 50080 60000 60001 60005 70000 77R// 7R///
AAXX 18184 16682 12560 70000 10110 20073 30103 40122 52001 60002 82145 333 10140 82820 87358 86068 90730 91103 555 10000 40090 30000 10115 20125 30128 40134 50142 60190 40000 47609 44210 50000 50092
AAXX 18184 16716 NIL
AAXX 18184 16734 17/// /0707 10126 20065 30063 40124 52005 60012 7214/ 333 10159 90730 91116 555 10000 40108 60000 60012 60414
AAXX 18184 16743 NIL
AAXX 18184 16749 12560 49903 10176 20130 30167 40180 52013 60002 83150 333 10204 83820 84358 90730 91111 555 10000 40166 40000 47659 44220 50000 50150
AAXX 18184 16754 12560 71712 10162 20097 30103 40150 52008 60002 81251 333 10192 81820 85360 86068 90730 91115 555 10000 40156 40000 47610 44210 50000 50128
AAXX 18184 78384 12560 70613 10272 20200 40177 60001 81142 333 10280 20245 58001 70000 81825 87075
AAXX 18184 78383 12460 70610 10278 202196 40179 60001 87802 333 10285 20243 58004 70000 83816 84630
AAXX 18181 26509 11470 62508 10036 20007 39909 49918 52021 60042 72588 86800 333 10040 91013 91116 555 53016
AAXX 18181 26518 11218 82306 10000 20000 49929 52021 60092 77187 8872/ 333 10014 88506 91009 91110 555 4/004 53013
AAXX 18181 26524 11397 82005 10011 20008 39791 49923 52022 60012 78082 883// 333 10026 88708 91011 91111 555 53011
AAXX 18181 26531 11570 82105 10024 20005 49927 52022 60032 72065 885// 333 10028 88626 91012 91113 555 53013
AAXX 18181 26629 11597 72107 10028 20001 39876 49971 52025 60012 70262 87500 333 10032 87630 91010 91114 555 53014
AAXX 18181 26633 11570 72005 10026 21004 39833 49962 51026 60032 72165 87500 333 10027 87627 91010 91112 555 53012
AAXX 18181 26730 11570 72107 10017 21008 39799 49990 52027 69952 72176 87500 333 10020 91011 91113 555 41998 53013
AAXX 18181 15015 02598 81902 10007 21031 39562 42770 52026 69962 885// 333 10012 21008 3/002 43002 60007 91003 91105 92821
AAXX 18181 15020 02597 42304 10030 21037 39963 40165 52035 60002 84500 333 10083 20012 31013 60007 91005 91109
AAXX 18181 15090 02597 32402 10047 21036 30077 40171 51042 60002 83500 333 10093 20009 31009 55300 10172 20004 3//// 60007 91006 91106
AAXX 18181 15108 01/91 92920 11100 21100 38011 48446 52030 60002 74943 333 11063 21105 3//// 44007 60007 91028 92723 92833 92922 96037
AAXX 18181 15120 02997 02300 11004 21019 39678 40189 52029 60002 333 10058 21012 34010 55300 10222 2//// 3//// 60007 91001 91102
AAXX 18181 15150 02997 03201 11006 21052 39960 40180 52038 60002 333 10086 21010 30009 60007 91001 91102
AAXX 18181 15170 02598 62303 11004 21041 39382 42775 52028 69922 86300 333 10015 21004 31005 60007 91005 91106
AAXX 18181 15200 02997 01102 10008 20004 30029 40178 52016 60002 333 10061 21003 31010 60007 91002 91103
AAXX 18181 15230 02997 02003 11008 21013 39892 40196 52018 60002 333 10047 21015 31007 55300 10237 20004 3//// 60007 91003 91103
AAXX 18181 15260 02998 02502 11027 21036 39643 40199 51025 60002 333 10052 21040 30009 60007 91002 91104 92600
AAXX 18181 15280 01999 02504 11157 21221 37418 47937 52022 60002 70230 333 11131 21157 3//// 49028 60007 92825
AAXX 18181 15292 02998 01402 11005 21006 39885 40189 52014 60002 333 10047 21006 31005 60007 91002 91104
AAXX 18181 15310 02997 02401 10028 21007 30094 40182 51035 60002 333 10088 20020 31013 55300 10216 20004 3//// 60007 91001 91102 92600
AAXX 18181 15335 02997 02601 10034 20006 30175 40181 52034 60002 333 10102 20026 30011 60007 91003 91104
AAXX 18181 15346 02997 00102 10007 21028 39887 40185 51026 60002 333 10086 21010 31011 60007 91004 91105
AAXX 18181 15350 02997 03601 10020 21042 30062 40186 51032 60002 333 10094 21006 31014 60007 91002 91102
AAXX 18181 15360 02998 02804 10052 20014 30165 40179 52036 60002 222// 06080 20200 333 10087 20042 3//// 60007 91005 91105 92418
AAXX 18181 15410 02997 01001 10020 21010 30082 40181 52019 60002 333 10093 20015 31012 60007 91001 91102
AAXX 18181 15420 02997 02402 10022 21010 30067 40182 51027 60002 333 10085 20017 34010 55300 0//// 20000 3//// 60007 91003 91103
AAXX 18181 15450 02997 01702 10029 21024 39940 40180 52017 60002 333 10081 20016 31011 55300 10204 20004 3//// 60007 91002 91103
AAXX 18181 15460 02997 02402 10035 21006 30161 40186 51026 60002 333 10083 20035 31011 60007 91003 91105
AAXX 18181 15470 02997 02401 10012 21010 30055 40184 52021 60002 333 10077 20005 31009 60007 91002 91103
AAXX 18181 15480 02997 02401 10040 21003 30175 40192 51032 60002 222// 06084 2//// 333 10080 20040 31010 60007 91003 91104 92427
AAXX 18181 14240 11/02 93201 11005 21007 39990 40150 52006 60002 74544 333 10006
AAXX 18181 14258 12970 02101 11006 21009 39949 40143 52009 60002 333 10080 41998
AAXX 18181 14445 12670 80806 10083 21032 39938 40093 57012 60002 8587/ 333 10105 85896 83499 92312
AAXX 18184 16614 12960 00000 10024 21018 39369 40161 53019 60002 333 10090 90730 91104 555 10000 40004
AAXX 18184 16627 12560 60408 10082 20001 30173 40176 52018 60002 82156 333 10124 82820 84358 85068 90730 91113 555 10000 40080 30000 10098 20100 30110 40114 50120 6//// 40000 47662 44235 50000 50050
AAXX 18184 16667 11560 80000 10130 20119 30155 40160 52013 60022 76162 8687/ 333 10168 82820 85625 88358 90730 91107 555 10000 40130 30000 20136 30145 40000 47649 44225 50000 50124 60000 60018 60330 70000 77R// 7R///
AAXX 18184 16675 NIL
AAXX 18184 16710 36/// /9902 10061 20045 39385 40162 52006 333 10119 90730 91109 555 10000 40061
AAXX 18184 16723 11560 71714 10146 20132 30139 40155 52013 69962 7016/ 83576 333 10182 83620 86357 85068 90730 91120 555 10000 40146 40000 47638 44230 50000 50138 60000 60006 60310 70000 77/// 7R///
AAXX 18184 16738 17/// /9903 10144 20126 39944 40142 52009 69992 741// 333 10176 90730 91109 555 10000 40139 60000 60009 60146
AAXX 18184 16746 12560 40000 10136 20110 39955 40136 52010 60002 82201 333 10190 82820 84070 90730 91106 555 10000 40136 40000 47497 44195 50000 50122
AAXX 18184 16643 12560 50405 10114 20082 30130 40135 51001 60002 83850 333 10132 82825 83630 85358 90730 91108 555 10000 40074 40000 47627 44200 50000 50098
AAXX 18184 16648 12560 60404 10090 20024 30065 40154 52014 60002 81135 333 10130 81830 85358 90730 91112 555 10000 40038 30000 10092 2//// 30098 40088 5//// 6//// 40000 47580 44220 50000 50062
AAXX 18184 16650 11560 89903 10114 20077 30151 40155 52014 69902 76162 83478 333 10134 83620 87358 88268 90730 91107 555 10000 40108 30000 10100 20108 30114 40112 50126 60144 40000 47643 44210 50000 50096 60000 65555 60020 70000 77R// 7R///
AAXX 18184 16684 11560 70000 10098 20073 30115 40143 51009 60452 76162 82452 333 10148 82620 86358 86068 90730 91111 555 10000 40098 40000 47618 44220 50000 50086 60000 60450 60149 70000 77R// 7R///
AAXX 18184 16732 11465 71608 10158 20129 30131 40143 51005 69932 70262 85870 333 10182 82815 84625 87358 90730 91113 555 10000 40158 40000 47624 44160 50000 50142 60000 60003 60050 70000 77/// 7R///
AAXX 18184 78384 12560 70613 10272 20200 40177 60001 81142 333 10280 20245 58001 70000 81825 87075
AAXX 18184 78383 12460 70610 10278 202196 40179 60001 87802 333 10285 20243 58004 70000 83816 84630
AAXX 18181 48855 32597 83601 10216 20179 30178 40186 57014 888// 333 59001 83895 88697
AAXX 18181 48848 32597 83203 10167 20144 30190 40198 57019 888// 333 59009 82895 88697
AAXX 18181 48852 11496 80000 10160 20159 30179 40189 57015 69901 71062 888// 333 59002 86894 88697
AAXX 18184 08001 12470 3//// 10092 20058 30200 40283 53007 60002 82862 333 10120 92437
AAXX 18184 08015 11562 52304 10056 20033 39869 40284 52004 60042 70286 83830 333 10078
AAXX 18184 08023 12562 62308 10078 20054 30194 40267 53011 69952 85870 333 10112
AAXX 18184 08027 11470 53603 10060 20042 39938 40256 52011 60022 72586 83870 333 10084
AAXX 18184 08045 02965 00102 10074 20045 39966 40283 53005 60002 333 10117 60007
AAXX 18184 08141 12475 31804 10046 20006 39386 40264 52008 60002 82501 333 10074
AAXX 18184 08160 12689 52612 10068 20017 39934 40249 52021 60002 82550 333 10097
AAXX 18184 08181 02680 13407 10084 21066 30192 40198 53023 60002 81800 333 10135 60007
AAXX 18184 08221 02680 20212 10058 21031 39559 40258 51015 60002 82500 333 10092 60007
AAXX 18184 08231 12470 53402 10040 21028 39135 48528 52014 60002 84570 333 10070
AAXX 18184 08261 12975 32203 10048 20008 39776 40271 53008 60002 80001 333 10110
AAXX 18184 08284 02982 03309 10116 21046 30153 40229 51025 60002 333 10155 60007
AAXX 18184 08306 12575 23305 10097 20043 30188 40194 52020 60002 82871 333 10141
AAXX 18184 08314 01570 43516 10099 20012 30076 40181 53014 60032 70291 83870 333 10120 60007
AAXX 18184 08430 12970 12904 10114 21007 30157 40233 53019 60002 80001 333 10156
AAXX 18184 08482 12982 02813 10126 20019 30209 40218 53014 60002 333 10154
AAXX 18181 26645 11497 72104 10010 20002 39726 49985 52025 60042 70287 875// 333 10012 87616
AAXX 18181 26659 11460 82303 10018 20005 39800 40014 52029 69902 70272 886// 333 10038 88716
AAXX 18181 26763 11660 71804 10017 21005 39805 40033 52039 69942 70162 87500 333 10044 87644 91110
AAXX 18181 26825 12564 52208 10020 21017 39830 40013 52022 69962 85500 333 10031 85626 91011 91111
AAXX 18181 26832 12560 62304 10022 21018 39827 40020 52028 69982 86500 333 10029 86625 91110
AAXX 18181 26887 12597 82305 10025 20004 39857 40063 52032 60012 885// 333 10047 88628 91110
AAXX 18181 26961 11560 72103 10021 20002 39868 40061 52036 60012 70282 875// 333 10026 87627
AAXX 18181 33027 /2597 82105 10026 21007 39921 40089 52037 69942 8557/ 333 10028 91010
AAXX 18181 14241 11/02 93101 11010 21014 30016 40151 52007 60002 74744 333 11009 42001 93100
AAXX 18181 14284 12970 01003 10016 20004 30049 40160 52012 60002 333 10087
AAXX 18181 14307 31682 80403 10066 20002 30033 40110 55002 71322 8111/ 333 10091 81835 94905 94965 97035
AAXX 18181 14317 NIL
AAXX 18181 14431 12970 70703 10060 21031 30008 40102 57005 60002 81120 333 10109 81840
AAXX 18181 14444 33770 70605 10101 21025 30068 40097 57013 85870 333 10126
AAXX 18181 14474 11560 80807 10056 20032 39929 40122 50002 60112 79598 889// 333 10110 82925 86845
AAXX 19184 78982 02480 60510 10289 20229 30115 40120 57021 60001 82272 333 59002 60007 82819 86360
BBXX 3EIZ7 18184 99445 70439 41/97 71209 10150 2008/ 40160 57010 70222 8//// 22265 0//// 2//// 3//// 4//// 5//// 6//// 80110 ICE /////
BBXX DBBA 18181 99545 10105 46/// /2611 10038 20012 40025 52012 22221 00054
BBXX DBBI 18181 99539 10087 46/// /2603 10039 20024 40053 52011 22200 00042
BBXX DBKR 18181 99541 10121 46/// /2605 10035 20020 40019 52017 22200 00046
BBXX DBND 18181 99/// ///// 46/// ///// 10027 20011 40058 52016 22220 00077
BBXX DBBC 18181 99542 10079 46/// /2809 10051 2//// 40050 52009 22260 00073
BBXX DBCK 18181 99/// ///// 46/// ///// 10028 20026 40058 52017 22220 00054
BBXX BATUK01 18184 99584 70060 46/// /0506 10050 21010 40134 53018 22261 00107
AAXX 18181 14008 12999 53202 11133 21188 37380 47916 52007 60002 80008 333 11115 49110 92838 95160 444 36085
AAXX 18181 14015 11456 80301 11004 21017 39789 40158 52011 60002 71022 886// 333 10001 88713
AAXX 18181 14023 12997 42101 11016 21018 39855 40160 53015 60002 81036 333 10043
AAXX 18181 14024 12898 61403 11020 21085 39026 48415 52008 60002 83026 333 10017 48020 92835 95000
AAXX 18181 14026 12998 70000 11014 21024 39824 40155 52013 60002 83038 333 10065
AAXX 18181 14031 12999 30902 11001 21020 39918 40153 52011 60002 82031 333 10074
AAXX 18181 14105 12699 71301 10040 20011 30116 40121 52005 60002 82572 333 10084 82635
AAXX 18181 14106 12999 80501 10020 20010 30054 40124 52006 60002 8802/ 333 10066 95000
AAXX 18181 14121 12398 80000 11004 21010 39877 40152 52008 60002 886// 333 10004 42002 88707 92851
AAXX 18181 14122 11250 82402 11003 21012 39955 40158 52008 60002 71022 886// 333 11002 88706
BBXX 62087 18181 99547 10068 46/// /1304 10057 20023 4//// 5//// 22270 00080
AAXX 18181 15502 12970 00000 11008 21008 30133 40174 52017 60002 333 10100 21008 555 500//
AAXX 18181 15525 12968 22003 10004 21026 39916 40190 52019 60002 82030 333 10085 20004 555 581//
AAXX 18181 15528 12970 01103 10020 21020 39968 40162 52008 60002 333 10080 20016 555 575//
AAXX 18181 15535 12970 00000 10036 21005 30131 40179 52018 60002 333 10093 20029 555 575//
AAXX 18181 15549 12970 00000 10015 21029 39770 40197 52023 60002 333 10065 20014 555 573//
AAXX 18181 15552 12970 00000 10038 21012 30141 40191 52028 60002 222// 2//00 316// 4//00 333 10072 20038 555 570// 92017 92418
AAXX 18181 15614 12665 21402 10002 21033 39467 40191 52015 60002 82100 333 10064 20002 555 577//
AAXX 18181 15615 11984 31810 11138 21155 37043 47973 52011 60002 70241 80008 333 11073 21145 555 587//
AAXX 18181 15626 12670 50000 10016 21025 39983 40176 52018 60002 82532 333 10092 20014 555 574//
AAXX 18181 15627 11/03 92310 11096 21108 37576 47994 51018 69912 74100 333 11096 21116 48004 93500 555 591// 92717
AAXX 18181 15640 12970 33201 10026 21054 39874 40194 52017 60002 83030 333 10092 20024 555 555//
AAXX 18181 15655 12970 40000 10055 20009 30151 40185 52023 60002 80001 222// 00083 20000 333 10090 20050 555 572// 92014 92418
AAXX 18181 15712 12975 03602 10049 21041 39912 40166 52013 60002 333 10109 20045 555 552//
AAXX 18181 15730 11660 80000 10034 21012 39792 40192 52019 60002 70411 84557 333 10080 20031 555 572//
AAXX 18181 26038 01260 81504 10015 20009 39811 49851 53012 60032 72162 886// 333 10045 20014 69927 88705 91108 555 1/002 20014 3/002 50030 52001
AAXX 18184 60106 12560 52602 10108 20092 40233 53001 60051 85200 333 10119 85820
AAXX 18181 26038 NIL
AAXX 18181 26045 NIL
AAXX 18181 26058 NIL
AAXX 18181 26115 NIL
AAXX 18181 26135 01247 81603 10007 20002 39795 49868 53016 60032 78087 889// 333 10044 20007 69957 88904 555 1/001 20007 3/001 50030 52000
AAXX 18181 26141 01359 81706 10012 20003 39731 49877 51022 60032 78386 889// 333 10034 20011 60007 88907 91011 91112 555 1/001 20011 3/001 50028 52001
AAXX 18181 26231 01353 82009 10030 20023 39844 49859 53016 60092 76176 8872/ 333 10044 20006 60017 88509 91013 91114 555 1/003 20006 3/002 50033
AAXX 18181 26242 01361 81705 10019 20005 39807 49892 53018 60032 75386 886// 333 10040 20014 69937 88709 91009 91109 555 1/002 20014 3/001 50035 52001
AAXX 18181 26247 NIL
BBXX 41101 18184 99146 70562 46/// /0409 10262 20193 40112 57026 22200 00275 11106 70028
BBXX 61001 18184 99434 10078 46/// /2915 10110 20026 40098 52016 22200 00150 10603 70016
AAXX 18181 33088 12597 52503 10013 21004 39916 40110 52035 69962 85500 333 10033
AAXX 18181 33177 32997 01704 10016 21012 39868 40108 52028 333 10040
AAXX 18181 33261 12997 72204 10034 20011 39941 40124 52043 60072 87030 333 10068
AAXX 18181 33275 11997 72203 10023 20010 39910 40136 52046 60072 70282 87030 333 10062
AAXX 18181 33301 11597 72207 10013 21006 39840 40126 52034 69952 70282 84530 333 10027
AAXX 18181 33325 11997 72301 10016 21009 39867 40138 52041 69902 70281 87030 333 10035
AAXX 18181 33377 12597 72402 10032 21006 39953 40149 52042 60042 87500 333 10074 87625
AAXX 18181 33415 11997 12305 10000 21018 39740 40146 52030 69902 70281 80001 333 10037
AAXX 18181 33429 11697 52004 10012 21013 39724 40154 52031 69902 70282 85500 333 10024 85646
AAXX 18181 33466 32689 72104 10030 21015 39962 40152 52040 87500 333 10053 87649
AAXX 18181 33526 32960 02004 10003 21044 39802 40148 52024 333 10056
AAXX 18181 33562 32997 52404 10018 21036 39792 40159 52038 85030 333 10036
AAXX 18181 33614 12963 72501 10032 20006 30045 40151 52030 69972 87030 333 10081
AAXX 18181 33761 32998 82202 10028 20001 39947 40173 52036 8805/ 333 10065
AAXX 18181 33902 11996 01901 10031 20021 30103 40170 53037 69902 71011 333 10086
AAXX 18181 33983 11697 71602 10092 20081 30126 40187 52025 69902 78082 87500 333 10133 85934
AAXX 18181 34415 11497 82304 10061 20045 30070 40166 52041 60022 70265 886// 333 10063
AAXX 18181 34523 11597 81703 10062 20043 30107 40183 52024 69902 72162 885// 333 10062 88622
AAXX 18181 34712 12998 72603 10061 20056 30100 40186 52029 60042 87050 333 10061
AAXX 18181 33317 11497 62704 10013 21006 39796 40138 52033 69972 70282 86500 333 10030
AAXX 18181 01447 16/// /0000 11017 21046 39314 49988 52001 60002 333 11017 91100
AAXX 18184 43533 12459 29902 10249 20231 30115 40118 60001 81201 333 58009 81818
AAXX 18184 43555 11458 50708 10280 20243 30113 40116 60001 70522 82102 333 58007 82818 84077
AAXX 18184 43577 11458 70205 10276 20243 30113 40115 60001 70522 82248 333 58009 82818 87276
AAXX 18184 43588 12465 79902 10274 20254 30110 40112 60001 82238 333 58004 82818 87279
AAXX 18184 43599 12462 79901 10278 20261 30115 40117 60001 8225/ 333 58001 82818 87362
AAXX 18184 43533 12459 29902 10249 20231 30115 40118 60001 81201 333 58009 81818
AAXX 18184 43555 11458 50708 10280 20243 30113 40116 60001 70522 82102 333 58007 82818 84077
AAXX 18184 43577 11458 70205 10276 20243 30113 40115 60001 70522 82248 333 58009 82818 87276
AAXX 18184 43588 12465 79902 10274 20254 30110 40112 60001 82238 333 58004 82818 87279
AAXX 18184 43599 12462 79901 10278 20261 30115 40117 60001 8225/ 333 58001 82818 87362
AAXX 18184 17022 11560 80104 10094 20084 30039 40205 52024 60062 70262 8552/ 333 10119 85630 88458 91110 92427
AAXX 18184 17031 12670 52809 10116 20096 30201 40207 52039 60002 82150 333 10203 82836 85360
AAXX 18184 17038 12965 51505 10155 20045 30150 40200 52013 60002 85050 333 10197 85360 92427
AAXX 18184 17050 3//// /3503 10055 20025 30125 40189 52017 60002 333 10096
AAXX 18184 17060 11560 70407 10093 20043 30152 40192 52019 69902 78022 85250 333 10128 85830 86359
AAXX 18184 17096 11912 00602 11170 21170 38316 48591 50012 60002 71000 333 11043
AAXX 18184 17124 11540 70000 10068 20062 39277 40191 52020 60042 78088 84250 333 10137 84830 86359 96010
AAXX 18184 17128 11670 61606 10100 20039 39101 40197 52022 69902 70282 84250 333 10136 84835 85360 91125
AAXX 18184 17170 NIL
AAXX 18184 17195 12970 00501 10024 20006 39024 48533 52018 60002 333 10124
AAXX 18184 17199 11559 81503 10017 21014 39190 40323 50013 60002 71022 8562/ 333 10039 82720 85635 88459
AAXX 18184 17219 11565 71612 10148 20120 30010 40153 51008 60342 78082 84250 333 10155 84830 87360
AAXX 18184 17240 11560 71406 10096 20057 39056 40197 53014 69902 78082 85250 333 10108 85830 87360 91118
AAXX 18184 17244 12670 21506 10054 20033 39030 48523 52018 60002 82500 333 10146 82640
AAXX 18184 17280 11440 33201 10012 20005 39492 40315 52011 60002 71011 83600 333 10075 83715
AAXX 18184 17350 12660 70204 10125 20058 30176 40255 52017 60002 83250 333 10147 83835 87360
AAXX 18184 17024 11462 81402 10109 20103 30125 40202 52026 60022 70262 8572/ 333 10180 83710 85630 88459 91110 92437
AAXX 18184 17056 12670 70607 10093 20092 30184 40188 52018 60002 84270 333 10117 84834 87360 91114 92428
AAXX 18184 17067 11670 71303 10095 20072 30173 40195 52023 60082 70288 87200 333 10125 87840 91113 92408
AAXX 18184 17092 12660 40000 11021 21037 38954 48566 52020 60002 82440 333 10067 82640 84360
AAXX 18184 17112 12665 70606 10109 20087 30163 40165 52009 60002 84570 333 10167 84635 87360 92417
AAXX 18184 17115 11660 70309 10095 20078 30123 40174 52018 69942 78022 84270 333 10129 84835 87360
AAXX 18184 17116 11557 71101 10102 20095 30064 40186 52022 60242 78088 84250 333 10117 84829 87357 91108
AAXX 18184 17188 12670 21204 10098 20047 39125 40183 52020 60002 82100 333 10139 82840 91117
AAXX 18184 17202 12460 52405 10013 21001 39271 40332 52016 60002 85500 333 10026 83712 85630
AAXX 18184 17248 12970 01501 10051 20012 39030 48532 52019 60002 333 10135
AAXX 18184 17292 11560 71503 10104 20102 39439 40193 52015 60072 78082 84270 333 10143 84830 87359 91114
AAXX 18184 17300 11460 61712 10175 20115 30134 40205 52018 69982 78088 86900 333 10178 81915 85830
AAXX 18184 17310 12970 01001 10148 20105 30220 40227 52013 69982 333 10187 91108 92428
AAXX 18184 17330 12670 70000 10134 20100 30232 40250 52014 60002 84270 333 10163 84840 87360
AAXX 18184 17026 12670 70201 10117 20102 30170 40209 52023 60002 84570 333 10165 84633 87460 91108 92428
AAXX 18184 17034 12970 32004 10168 20011 30160 40206 52022 60002 83030 333 10202 83360 92428
AAXX 18184 17070 11557 81801 10069 20066 39337 40206 52019 60102 76066 8552/ 333 10115 85630 88457 91107
AAXX 18184 17084 11670 81708 10111 20043 39304 40211 52022 69902 70262 8552/ 333 10123 85635 88460
AAXX 18184 17090 12965 40703 10017 21024 38793 48556 52019 60002 84050 333 10076 84360
AAXX 18184 17098 12660 20000 11130 21130 38279 48595 52018 60002 82500 333 11045 82640
AAXX 18184 17150 11456 73602 10106 20099 30047 40170 50014 60242 78088 85250 333 10135 82715 84835 86360 96010
AAXX 18184 17160 12670 71905 10095 20041 39060 48532 52017 60002 84550 333 10123 84640 87360 91124
AAXX 18184 17184 11670 80000 10121 20118 30055 40166 52010 60372 72586 8422/ 333 10138 84838 88460 91110
AAXX 18184 17189 12670 51715 10098 20041 39033 48504 52015 60002 85200 333 10145 85835
AAXX 18184 17210 11930 40501 10031 20025 39243 40312 52013 60002 71041 84030 333 10050 84360
AAXX 18184 17234 12670 70702 10162 20104 30105 40172 51014 60002 84270 333 10204 84840 87360 91111
AAXX 18184 17260 12560 33505 10063 20034 39455 40299 51012 60002 83500 333 10077 83630
AAXX 18184 17290 12670 51710 10179 20122 30144 40175 52012 60002 83250 333 10195 83835 85360 91123 92438
AAXX 18184 17370 12665 61704 10136 20056 30248 40252 52014 60002 84230 333 10159 84835 86360 92427
AAXX 18184 08055 NIL
AAXX 18184 08075 12665 73408 10018 20006 39204 48530 52004 69922 87500 333 10045
AAXX 18184 08084 01570 63103 10055 20012 39822 40266 53013 60002 76061 84870 333 10090 60007
AAXX 18184 08171 12587 12808 10072 21012 39975 40219 53018 60002 81100 333 10120
AAXX 18184 08184 02680 13505 10075 21077 30033 40191 53024 60002 81800 333 10133 60007
AAXX 18184 08202 02470 60802 10023 21008 39323 42858 52006 60002 81446 333 10082 60007
AAXX 18184 08235 NIL
AAXX 18184 08238 12680 33408 10094 21002 30147 40208 53017 60002 82531 333 10136
AAXX 18184 08280 12980 13207 10045 21013 39406 40248 52015 60002 80002 333 10085
AAXX 18184 08330 12980 11002 10069 20006 30015 40251 52010 60002 80004 333 10119
AAXX 18184 08348 12970 00402 10053 20016 39511 40266 53010 60002 333 10100
AAXX 18184 08360 02670 23102 10095 21022 30187 40225 53030 60002 81501 333 10160 60007
AAXX 18184 08373 02560 53407 10119 20017 30184 40206 53019 60002 83805 333 10143 60007
AAXX 18184 08410 02980 00403 10088 20030 30126 40239 53009 69902 333 10135 69907
AAXX 18184 08419 02980 00505 10085 21016 39549 40226 53015 60002 333 10128 60007
AAXX 18184 08451 02982 03604 10089 20046 30198 40232 52010 60002 333 10156 60007
AAXX 18184 08487 02584 51504 10137 20043 30193 40219 53019 60002 84801 333 10170 60007
AAXX 18184 61401 NIL
AAXX 18184 61404 32960 03608 10233 20037 40163 333 10254 59038
AAXX 18184 61415 NIL
AAXX 18184 61421 NIL
AAXX 18184 61437 32960 30404 10286 20054 30006 40144 80002 333 10313 59025 83073
AAXX 18184 61442 32957 60709 10294 21119 30133 40136 86080 333 10310 59014 86363
AAXX 18184 61450 NIL
AAXX 18184 61461 NIL
AAXX 18184 61489 32958 60000 10286 21026 30118 40125 86070 333 10300 59013 86363
AAXX 18184 61492 32960 50806 10295 21002 30111 40130 85070 333 10312 58002 85363
AAXX 18184 61497 35958 70810 10274 21050 39870 4//// 80002 333 10306 59016 87073
AAXX 18184 61498 31957 70406 10280 20147 39986 40119 705// 80008 333 10305 59014 87273
AAXX 18184 61499 32960 60804 10267 21043 39870 40127 80002 333 10300 59018 86073
AAXX 18184 71114 160// /0000 10050 20048 30197 40246 51027 60021 333 10073 20041 70225
AAXX 18184 71120 12974 12906 11045 21101 39490 40154 51030 60001 81070 333 11005 21079 79999
AAXX 18184 71122 17/// /0706 11025 21030 38573 40186 51035 60111 7//4/ 333 21025 7//// 555 10100
AAXX 18184 71123 11374 63005 11029 21038 39315 40191 53027 69901 72222 86570 333 10008 21043 44006 70028 90920
AAXX 18184 71125 12974 12810 11034 21082 39546 40136 51026 60001 81071 333 79999
AAXX 18184 71129 11574 53606 11024 21061 39320 40161 51046 69961 70172 82501 333 11011 21049 42001 70006 90931 93101
AAXX 18184 71131 16/// /3520 11022 21035 38871 40129 53050 60001 333 10027 21045 70000
AAXX 18184 71135 16/// /3519 11008 21030 39010 40094 53028 60001 333 10045 21035 70000
AAXX 18184 71137 16/// /3518 10001 21016 39175 40118 53054 60001 333 10046 21107 70000
AAXX 18184 71140 12574 73305 11020 21032 39529 40033 5/001 60001 81570 333 11020 21104 70000
AAXX 18184 71145 11474 80603 11089 21104 39730 40027 50002 69901 77177 885// 333 11089 21137 48039 70026 90973
AAXX 18184 71148 16/// /3113 10033 21011 39446 40023 57006 60001 333 10036 21101 70000
AAXX 18184 71185 16564 60000 11091 30193 40218 56008 60001 333 11083 21094 70000
AAXX 18184 71188 NIL
AAXX 18184 71200 17/// /3501 10067 20061 69941 7//4/ 333 10079 20056 70038
AAXX 18184 71207 16/// /3402 10036 30171 40236 51022 60001 333 10042 20011 70048
AAXX 18184 71260 13/// ///// 11010 21045 39922 40162 58021 69901 333 11010 21054 46001 70003
AAXX 18184 71201 16/// ///// 10069 20048 60001 333 10073 20060 70040
AAXX 18184 71202 16/// ///// 11013 21032 60001 333 10003 21038 70007
AAXX 18184 71203 15966 60403 10020 21008 39710 40236 53027 60001 333 10028 21011 70000
AAXX 18184 71209 46/// /3213 10069 6///1 333 10071 20061 7////
AAXX 18184 71211 46/// /3611 10062 20043 30222 40234 51025 6///1 333 10067 20057 7////
AAXX 18184 71212 17/// /1203 11115 21179 39377 40223 58018 69931 7//4/ 333 11114 21286 70003
AAXX 18184 71213 46/// /2209 11044 21062 39857 40166 58010 6///1 333 11044 21158 7////
AAXX 18184 71214 NIL
AAXX 18184 71215 NIL
AAXX 18184 71216 16/// /3102 10030 20023 39583 40203 52030 60001 333 10031 20008 70023
AAXX 18184 71217 NIL
AAXX 18184 71218 16/// /2101 10006 20003 39800 40233 51032 60001 333 10032 21018 70018
AAXX 18184 71219 46/// /1411 10029 20002 30250 40256 53009 6///1 333 10047 20015 7////
AAXX 18184 71220 46/// /1410 10029 20006 6///1 333 10042 20026 7////
AAXX 18184 71221 NIL
AAXX 18184 71222 16/// /0000 11222 21243 39251 40264 58006 60001 333 11121 21231 70000
AAXX 18184 71223 NIL
AAXX 18184 71224 NIL
AAXX 18184 71225 NIL
AAXX 18184 71226 NIL
AAXX 18184 71227 NIL
AAXX 18184 71228 NIL
AAXX 18184 71229 NIL
AAXX 18184 71230 16/// /1202 11076 21137 39306 40216 53023 60001 333 10003 21127 70000
AAXX 18184 71231 16/// /3505 11008 21022 60001 333 10056 21011 70000
AAXX 18184 71232 17/// /2402 11019 21034 38677 40178 51024 60061 7//4/ 333 10064 21025 70057
AAXX 18184 71233 NIL
AAXX 18184 71234 16/// /3605 11007 21019 39003 40190 51038 60001 333 10103 21011 70000
AAXX 18184 71235 16/// /3203 11012 21014 60001 333 10078 21036 70000
AAXX 18184 71236 46/// /1407 10013 21027 6///1 333 10067 20013 7////
AAXX 18184 71237 46/// /3204 11003 21023 39360 40184 51033 6///1 333 10021 21025 7////
AAXX 18184 71238 16/// /3004 11011 21057 60001 333 10002 21032 70007
AAXX 18184 71239 16/// /3209 10010 21024 39563 40020 55000 60001 333 10019 21097 70000
AAXX 18184 71240 16/// ///// 11012 21057 39317 40174 51040 60001 333 11012 21067 70000
AAXX 18184 71241 NIL
AAXX 18184 71242 17/// /3308 11015 21030 69941 7//4/ 333 10007 21031 70022 555 10010
AAXX 18184 71243 NIL
AAXX 18184 71244 16/// /3514 11015 21022 38943 40176 51051 60001 333 10095 21019 70000
AAXX 18184 71245 NIL
AAXX 18184 71246 NIL
AAXX 18184 71247 17466 83208 10003 21016 39319 40176 51056 60001 761// 333 10067 20000 70000
AAXX 18184 71248 17/// /0000 11012 21048 38878 40185 53025 69961 7//4/ 333 10039 21014 70022
AAXX 18184 71249 NIL
AAXX 18184 71665 16/// /2514 11160 21229 30077 40087 57014 60001 333 11153 21178 70006
AAXX 18184 71666 16/// /3410 11060 21092 30167 40213 56015 60001 333 11060 21116 70000 555 10010
AAXX 18184 71667 NIL
AAXX 18184 71668 16/// /3207 11072 21142 30180 40225 56021 60001 333 11069 21140 70000
AAXX 18184 71669 NIL
AAXX 18184 71670 16/// ///// 11064 21114 60001 333 11064 21135 70000
AAXX 18184 71671 16/// /0307 11032 21062 30121 40183 56014 60001 333 11029 21062 70000
AAXX 18184 71672 16/// /1806 11025 21076 39950 40223 58011 60001 333 11025 21136 70000
AAXX 18184 71673 NIL
AAXX 18184 71674 NIL
AAXX 18184 71675 17532 81206 11122 21138 39770 40054 58023 60061 77144 333 11122 21152 70153
AAXX 18184 71679 16/// /0402 11053 21057 39219 40252 53013 60001 333 10008 21056 70063
AAXX 18184 71680 NIL
AAXX 18184 71681 46/// /0403 10038 21016 6///1 333 10073 21018 7////
AAXX 18184 71682 NIL
AAXX 18184 71683 NIL
AAXX 18184 71684 17666 82110 11046 21068 39860 40170 58009 60001 771// 333 11046 21157 70000
AAXX 18184 71685 15966 01101 10011 20011 39670 40214 51029 60001 333 10030 20002 70058
AAXX 18184 71686 469// /1001 11192 21213 39251 40242 58006 6///1 333 11106 21202
AAXX 18184 71687 16/// /0000 10022 20017 39446 40234 51024 60001 333 10027 20007 70029
AAXX 18184 71688 16/// /0901 11003 21003 39182 40225 51021 60001 333 10015 21007 70114
AAXX 18184 71689 17108 83204 11134 21145 39704 40170 53039 60001 772// 333 11025 21135 70013
AAXX 18184 71690 NIL
AAXX 18184 71691 15966 02505 11136 21182 30216 40245 57020 60001 333 11136 21247 70000
AAXX 18184 71692 NIL
AAXX 18184 71694 16/// /1704 11046 21064 39844 40219 58013 60001 333 11046 21141 70000 555 10020
AAXX 18184 71695 16/// /3410 11061 21080 39727 40063 51028 60001 333 11047 21089 70000
AAXX 18184 71696 16/// /2405 11181 21197 39995 40033 56015 60001 333 11181 21233 70000
AAXX 18184 71697 15566 81505 11008 21066 30047 40223 58011 60001 333 11008 21114 70000
AAXX 18184 71699 16/// /0208 11050 21122 30198 40206 56015 60001 333 11044 21117 70000 555 10010
AAXX 18184 71851 NIL
AAXX 18184 71857 NIL
AAXX 18184 71860 NIL
AAXX 18184 71876 15966 03011 11022 21051 39477 40149 51035 60001 333 11005 21047 70000
AAXX 18184 71885 NIL
AAXX 18184 71886 NIL
AAXX 18184 71888 NIL
AAXX 18184 71890 16/// /0505 11135 21192 30212 40241 57020 60001 333 11135 21244 70000
AAXX 18184 71895 NIL
AAXX 18184 71397 11574 70409 11026 21082 30157 40192 57015 69901 78582 86570 333 11023 21058 45997 79999 90926
AAXX 18184 71400 16/64 /0204 11061 21126 60001 333 11052 21087 70000
AAXX 18184 71403 46/// /0318 10003 21033 30142 40162 56012 6///1 333 10005 21025 7////
AAXX 18184 71411 17/// /0107 11011 21050 30155 40168 57016 69961 7//4/ 333 11010 21044 70012
AAXX 18184 71412 16/// /0419 11030 21041 30180 40190 56010 60001 333 11014 21035 70000
AAXX 18184 71421 NIL
AAXX 18184 71430 16/// /1811 11015 21072 30133 40233 58015 60001 333 11011 21103 70010
AAXX 18184 71431 16/// /1809 11007 21068 30120 40218 58012 60001 333 10002 21086 70000
AAXX 18184 71432 NIL
AAXX 18184 71433 NIL
AAXX 18184 71435 NIL
AAXX 18184 71441 46/// /2507 10037 21013 39700 40008 56017 6///1 333 10039 21087 7////
AAXX 18184 71443 16/// /2805 11001 21024 39641 40054 52026 60001 333 11001 21098 70000
AAXX 18184 71444 16/// /3002 11021 21031 39275 40032 53002 60001 333 11021 21107 70000 555 10010
AAXX 18184 71447 NIL
AAXX 18184 71467 16/// /1204 11275 21301 39966 40085 56014 60001 333 11257 21280 70000 555 10010
AAXX 18184 71472 NIL
AAXX 18184 71474 16964 03306 10000 21047 38997 40246 51026 60001 333 10037 21017 70025
AAXX 18184 71510 NIL
AAXX 18184 71538 11566 82207 10017 21031 39997 40232 58007 69901 70372 888// 333 10020 21024 41997 70006 90953
AAXX 18184 71600 17464 80424 10029 21003 30111 40117 58019 69951 74144 333 10041 20021 70005
AAXX 18184 71601 NIL
AAXX 18184 71726 17/// /2005 11098 21165 39645 40214 58019 60041 7//4/ 333 11098 21283 70041
AAXX 18184 71727 12982 10904 11132 21163 30030 40238 58027 60001 80001 333 11129 21239 70000
AAXX 18184 71728 12986 12107 11094 21120 39990 40222 56029 60001 81070 333 11094 21214 70000
AAXX 18184 71730 11366 82108 11036 21051 39744 40180 58008 69901 77177 885// 333 11035 21134 46997 79999 90973
AAXX 18184 71731 11466 81905 11062 21076 39725 40191 58007 60011 78582 885// 333 11061 21138 46002 70010 90942 93102
AAXX 18184 71735 NIL
AAXX 18184 71738 11474 82208 11005 21034 39770 40126 58026 69901 77177 885// 333 11003 21081 47030 70068 90973
AAXX 18184 71739 41469 82204 11055 21093 39776 40148 58009 6//// 77172 887// 333 11054 21146 4//// 7//// 90953 93102
AAXX 18184 71749 16864 82007 10009 21031 39818 40064 58052 60001 333 10009 21101 70005
AAXX 18184 71799 11483 42605 10066 20045 30220 40244 53024 69921 70266 84800 333 10067 20030 70011 90962
AAXX 18184 71800 16/// /0322 11020 21025 30121 40154 56027 60001 333 11007 21043 70000
AAXX 18184 71801 11312 81310 11051 21063 30005 40182 57016 60011 77182 887// 333 11030 21052 42002 70012 90931 93102
AAXX 18184 71803 11580 70107 11061 21133 30010 40202 56017 69901 72211 87500 333 11060 21112 41997 79999 90931
AAXX 18184 71807 NIL
AAXX 18184 71808 12974 03303 11133 21211 30168 40217 58006 60001 333 11129 21198 70000
AAXX 18184 71809 12574 60000 11073 21134 30187 40215 57011 60001 86500 333 11062 21080 79999
AAXX 18184 71810 17/// /2705 11101 21147 30159 40228 56018 69931 7//4/ 333 11100 21208 70003
AAXX 18184 71811 NIL
AAXX 18184 71813 NIL
AAXX 18184 71814 NIL
AAXX 18184 71815 11574 40409 11051 21121 30173 40205 58012 69901 72611 82570 333 11047 21072 41997 79999 90921
AAXX 18184 71604 17/// /0707 11069 21076 60021 7//4/ 333 11059 21086 70035 555 10060
AAXX 18184 71605 16/// /3101 10055 20055 30081 40232 51022 60001 333 10068 20046 70037
AAXX 18184 71611 NIL
AAXX 18184 71612 16/// /1904 11074 21160 30162 40256 58018 60001 333 11072 21111 70000
AAXX 18184 71614 NIL
AAXX 18184 71616 16/// /2904 11085 21158 30134 40260 58020 60001 333 11075 21167 70000
AAXX 18184 71617 16/// /0905 11141 21161 30066 40249 58026 60001 333 11139 21229 70000
AAXX 18184 71618 17366 82510 11180 21196 30000 40039 56014 60001 771// 333 11180 21231 70000
AAXX 18184 71619 16/// /2802 11098 21192 30179 40241 56012 60001 333 11090 21176 70000
AAXX 18184 71622 NIL
AAXX 18184 71632 46/// /3204 11123 21137 39626 40074 51023 6///1 333 11119 21149 7//// 555 10030
AAXX 18184 71634 16/// /3403 11106 21156 30086 40247 56015 60001 333 11103 21198 70000
AAXX 18184 71638 16/// /2601 10063 20050 30128 40234 53025 60001 333 10064 20045 70024
AAXX 18184 71639 12474 71904 11006 21059 39972 40221 58009 60001 87500 333 11005 21098 79999
AAXX 18184 71642 11574 81905 11044 21056 39587 40143 58017 69901 70272 885// 333 11044 21130 47022 70002 90922
AAXX 18184 71950 15466 80102 11040 21048 39628 40274 52009 60001 333 11028 21041 70000
AAXX 18184 71952 16/// /2903 11054 21062 39394 40264 53014 60001 333 11027 21054 70000
AAXX 18184 71954 46/// /3307 11077 21089 39695 40076 51026 6///1 333 11065 21097 7////
AAXX 18184 71956 NIL
AAXX 18184 71959 NIL
AAXX 18184 71960 460// /1006 11281 39929 40067 56019 6///1 333 11254 21288 7////
AAXX 18184 71962 16/// /2108 10010 21040 39604 40026 57030 60001 333 10010 21064 70000
AAXX 18184 71963 NIL
AAXX 18184 71967 16/// /2502 11083 21155 30155 40265 58018 60001 333 11077 21142 70000
AAXX 18184 71970 NIL
AAXX 18184 71971 NIL
AAXX 18184 71972 460// ///// 11160 39454 49920 53002 6///1 333 11159 21169 7////
AAXX 18184 71973 46/// /3404 11078 21123 30018 40211 56009 6///1 333 11068 21086 7////
AAXX 18184 71974 NIL
AAXX 18184 71975 460// /2110 11204 39131 49863 55000 6///1 333 11203 21225 7////
AAXX 18184 71976 NIL
AAXX 18184 71977 NIL
AAXX 18184 71978 NIL
AAXX 18184 71979 NIL
AAXX 18184 71980 NIL
AAXX 18184 71981 NIL
AAXX 18184 71982 NIL
AAXX 18184 71983 NIL
AAXX 18184 71984 16/// /1908 11233 21255 30072 40081 58016 60001 333 11233 21332 70000
AAXX 18184 71985 NIL
AAXX 18184 71986 NIL
AAXX 18184 71987 16/// /0111 11053 21101 30205 40215 56009 60001 333 11046 21065 70000
AAXX 18184 71988 16/// /0417 11014 21036 30171 40191 56013 60001 333 11013 21029 70000
AAXX 18184 71989 NIL
AAXX 18184 71990 NIL
AAXX 18184 71999 46/// ///// 10050 6///1 333 10087 20023 7////
AAXX 18184 71051 NIL
AAXX 18184 71055 NIL
AAXX 18184 71057 NIL
AAXX 18184 71059 460// ///// 11281 30005 40100 58013 6///1 333 11276 21300 7////
AAXX 18184 71061 17/// /2906 11024 21063 39390 40177 52028 69941 7//4/ 333 10009 21026 70017
AAXX 18184 71062 46/// /2907 11021 21047 39100 40178 51031 6///1 333 10006 21039 7//// 555 10060
AAXX 18184 71064 460// /3310 11328 39880 40108 50000 6///1 333 11314 21336 7////
AAXX 18184 71065 NIL
AAXX 18184 71067 NIL
AAXX 18184 71070 NIL
AAXX 18184 71073 NIL
AAXX 18184 71074 NIL
AAXX 18184 71075 16/// /2805 11141 21157 39473 40091 51025 60001 333 11115 21143 70000
AAXX 18184 71078 17658 63104 11118 21131 39624 40075 51023 60001 771// 333 11117 21137 70008
AAXX 18184 71084 460// ///// 11313 30007 40057 53009 6///1 333 11289 21313 7////
AAXX 18184 71085 17232 81508 11009 21012 38807 40189 51047 69981 771// 333 10076 21010 70008
AAXX 18184 71087 NIL
AAXX 18184 71088 460// /0224 11124 55000 6///1 333 11110 21208 7////
AAXX 18184 71089 NIL
AAXX 18184 71096 460// ///// 11216 39076 49804 51039 6///1 333 11168 21220 7////
AAXX 18184 71097 46559 32518 11167 39413 49890 53002 6///1 333 11167 21209 7////
AAXX 18184 71098 43/// /0905 11081 21092 39651 40014 56013 6///1 333 11080 21112 7////
AAXX 18184 71099 43/// /2006 11201 21236 30066 40087 56020 6///1 333 11162 21220 7////
AAXX 18184 71250 NIL
AAXX 18184 71251 16/// /3107 11008 21020 39264 40194 51047 60001 333 10090 21010 70000
AAXX 18184 71252 NIL
AAXX 18184 71253 46/// /0000 11234 21253 6///1 333 11181 21247 7////
AAXX 18184 71254 16/// /3008 11020 21028 60001 333 11004 21057 70000
AAXX 18184 71255 17/// /2702 11143 21162 69931 7//4/ 333 11036 21143 70024
AAXX 18184 71256 46/// /2703 11017 21030 39256 40202 52032 6///1 333 10005 21020 7////
AAXX 18184 71257 NIL
AAXX 18184 71258 NIL
AAXX 18184 71259 NIL
AAXX 18184 71261 16/// /2411 11001 21053 39945 40211 50002 60001 333 10006 21060 70044 555 10060
AAXX 18184 71263 11460 72409 11004 21025 39929 40226 58001 60011 70282 85555 333 11001 21079 70014 909/7
AAXX 18184 71264 16/// /0110 11011 21058 30138 40170 56014 60001 333 11008 21047 70000
AAXX 18184 71265 15466 82106 10014 21027 30122 40218 58013 60001 333 10014 21060 70000
AAXX 18184 71266 NIL
AAXX 18184 71267 17432 80207 11015 21022 39102 40201 51045 69931 771// 333 10116 21015 70003
AAXX 18184 71268 NIL
AAXX 18184 71269 NIL
AAXX 18184 71270 NIL
AAXX 18184 71271 NIL
AAXX 18184 71272 17359 83207 11159 21171 39696 40060 53007 60001 771// 333 11153 21270 70000
AAXX 18184 71273 16/// /3007 11024 21087 39471 40134 52028 60001 333 10012 21048 70000
AAXX 18184 71274 NIL
AAXX 18184 71275 NIL
AAXX 18184 71276 NIL
AAXX 18184 71277 NIL
AAXX 18184 71278 NIL
AAXX 18184 71279 16/// /3104 11137 21182 30166 40236 56018 60001 333 11136 21273 70000
AAXX 18184 71281 NIL
AAXX 18184 71282 46/// /1915 11016 21033 39939 40216 58012 6///1 333 11015 21089 7////
AAXX 18184 71283 NIL
AAXX 18184 71284 16/// ///// 11023 21057 60001 333 10004 21031 70014
AAXX 18184 71285 NIL
AAXX 18184 71286 NIL
AAXX 18184 71287 NIL
AAXX 18184 71288 NIL
AAXX 18184 71289 NIL
AAXX 18184 71290 15366 83202 11070 21080 39420 40275 53025 60001 333 11048 21066 70000
AAXX 18184 71291 16/// /1608 11032 21048 39772 40064 58049 60001 333 11032 21103 70005 555 10010
AAXX 18184 71292 16220 83212 11009 39462 40070 51035 69981 333 11009 21071 70008
AAXX 18184 71294 16/// /2004 11059 21082 39804 40222 58014 60001 333 11058 70000 555 10010
AAXX 18184 71295 NIL
AAXX 18184 71296 NIL
AAXX 18184 71297 16/// /2605 10013 21023 60001 333 10017 21075 70000
AAXX 18184 71298 16/// /2509 10014 21021 39996 40232 58004 60001 333 10014 21021 70000
AAXX 18184 71299 NIL
AAXX 18184 71102 NIL
AAXX 18184 71105 NIL
AAXX 18184 71107 NIL
AAXX 18184 71110 NIL
AAXX 18184 71111 15966 62504 10012 20003 30244 40252 53001 60001 333 10045 21006 70000
AAXX 18184 71112 16/// ///// 60001 333 70038
AAXX 18184 71113 17/// /1601 10060 20059 30216 40240 51025 60031 7//4/ 333 10060 20048 70162
AAXX 18184 71115 16/// /2703 10007 21007 39640 40229 53027 60001 333 10020 21015 70003
AAXX 18184 71116 16/// /3117 10001 21019 39064 40159 53058 60001 333 10075 21003 70000
AAXX 18184 71118 16/// /3010 11013 21073 39334 40167 51034 60001 333 10003 21048 70000
AAXX 18184 71121 16764 62906 11018 21081 39353 40185 52027 60001 333 10007 21023 70005
AAXX 18184 71127 17/// /2906 11020 21041 39269 40187 51031 69941 7//4/ 333 10003 21029 70018 555 10040
AAXX 18184 71130 15966 03109 11016 21056 39629 40089 51026 60001 333 11007 21100 70000
AAXX 18184 71132 17466 83104 11119 21142 39798 40118 51029 60001 771// 333 11116 21147
AAXX 18184 71133 NIL
AAXX 18184 71139 NIL
AAXX 18184 71141 NIL
AAXX 18184 71142 17366 83111 11015 21019 39159 40129 51057 60001 771// 333 10053 21020 70000
AAXX 18184 71143 NIL
AAXX 18184 71144 NIL
AAXX 18184 71147 16/// /3208 10017 21019 60001 333 10028 21107 70000
AAXX 18184 71149 NIL
AAXX 18184 71812 46864 33611 11235 21272 30012 40026 53005 6///1 333 11212 21287 7////
AAXX 18184 71819 15966 02710 11117 21181 30170 40213 56006 60001 333 11116 21177 70000
AAXX 18184 71820 16/// /1909 11030 21082 30119 40237 58016 60001 333 11024 21119 70000
AAXX 18184 71823 17420 92113 11120 21153 39690 40081 56009 60011 74544 333 11120 21200 70025
AAXX 18184 71824 46/// /2005 11124 21143 6///1 333 11124 21253 7////
AAXX 18184 71826 16/// /1205 11195 21250 39817 49860 53002 60001 333 11188 21206 70003
AAXX 18184 71829 16/// /2104 11131 21201 30064 40234 58021 60001 333 11128 21213 70000
AAXX 18184 71833 46/// /2505 11018 21038 6///1 333 11015 21096 7////
AAXX 18184 71835 17/// /1609 11068 21075 39536 40019 56037 60011 7//4/ 333 11068 21098 70010 555 10030
AAXX 18184 71837 NIL
AAXX 18184 71839 NIL
AAXX 18184 71840 46/// /3112 10028 21015 6///1 333 10033 21051 7////
AAXX 18184 71846 17/// /1007 11098 21109 39742 40062 58031 69981 7//4/ 333 11095 21117 70008
AAXX 18184 71847 NIL
AAXX 18184 71848 NIL
AAXX 18184 71849 NIL
AAXX 18184 71450 16/// /3213 11009 21026 39402 40124 52041 60001 333 10007 21052 70000
AAXX 18184 71451 17/// /3404 11066 21085 39651 40082 51027 69971 7//4/ 333 11063 21117 70028 555 10060
AAXX 18184 71452 NIL
AAXX 18184 71453 NIL
AAXX 18184 71454 16/// /3109 11045 21098 39415 40109 51025 60001 333 10002 21067 70000
AAXX 18184 71455 46/// /3312 11014 21025 39330 40130 52047 6///1 333 10015 21020 7////
AAXX 18184 71456 NIL
AAXX 18184 71457 16/// /3208 11001 21025 39279 40172 51043 60001 333 10058 21013 70000
AAXX 18184 71458 16/// /3013 11014 21058 39393 40169 53030 60001 333 10011 21030 70000
AAXX 18184 71459 16/// /3211 11007 21040 39346 40160 51048 60001 333 10015 21030 70000
AAXX 18184 71460 16/// /2508 11002 21032 39940 40185 58007 60001 333 10001 21090 70000
AAXX 18184 71461 NIL
AAXX 18184 71462 NIL
AAXX 18184 71463 46/// /2713 10004 21051 39999 40228 58003 6///1 333 10005 21057 7////
AAXX 18184 71464 NIL
AAXX 18184 71465 NIL
AAXX 18184 71466 NIL
AAXX 18184 71468 NIL
AAXX 18184 71470 NIL
AAXX 18184 71471 15966 02502 11074 21109 39414 40222 53020 60001 333 11021 21126 70000
AAXX 18184 71473 16/// /3306 10050 20040 30206 40236 51020 60001 333 10054 20047 70036
AAXX 18184 71475 16/// /0102 10022 20020 30163 40258 51024 60001 333 10048 20016 70024
AAXX 18184 71476 NIL
AAXX 18184 71477 16/// /1605 10016 20002 60001 333 10045 21003 70000
AAXX 18184 71478 NIL
AAXX 18184 71479 NIL
AAXX 18184 71480 NIL
AAXX 18184 71481 NIL
AAXX 18184 71482 NIL
AAXX 18184 71483 NIL
AAXX 18184 71484 NIL
AAXX 18184 71485 16/// /3411 10059 20024 30251 40272 53015 60001 333 10074 20059 70100
AAXX 18184 71486 NIL
AAXX 18184 71487 16/// /3415 11010 21022 39236 40104 53048 60001 333 10032 21017 70000
AAXX 18184 71489 16/// /3006 11033 21068 39343 40155 51040 60001 333 11007 21082 70000
AAXX 18184 71490 NIL
AAXX 18184 71491 16/// /0602 11281 21313 60001 333 11126 21341 70000
AAXX 18184 71492 NIL
AAXX 18184 71493 16/// /3512 11029 21075 30145 40184 56014 60001 333 11025 21087 70000
AAXX 18184 71494 16/// /3202 11107 21164 39692 40236 58015 60001 333 11105 21189 70000
AAXX 18184 71495 NIL
AAXX 18184 71496 17/// /3209 11021 21045 39505 40121 51036 69931 7//4/ 333 11014 21058 70003
AAXX 18184 71497 46/// /2006 11140 21151 39885 40161 53005 6///1 333 11140 21222 7////
AAXX 18184 71498 NIL
AAXX 18184 71499 17466 83308 11100 21114 39466 40106 51031 60001 771// 333 11067 21147 70000
AAXX 18184 71043 11583 21003 11243 21293 39984 40081 58011 69901 70177 81570 333 11237 21282 48021 79999 90963
AAXX 18184 71045 16/// /0305 11092 21116 39300 40187 56010 60001 333 11083 21180 70000 555 10010
AAXX 18184 71050 NIL
AAXX 18184 71051 NIL
AAXX 18184 71052 NIL
AAXX 18184 71066 12974 00000 11212 21254 39742 40177 52016 60001 333 11084 21244 70000
AAXX 18184 71068 12974 02403 11074 21121 39498 40203 53018 69901 333 11009 21129 79999
AAXX 18184 71069 16964 02914 11026 21092 39473 40184 53024 60001 333 10005 21035 70015
AAXX 18184 71076 16/// /3005 11132 21151 39734 40136 51027 60001 333 11117 21175 70007 555 10010
AAXX 18184 71077 16/// /3111 11106 21125 39593 40141 51025 60001 333 11015 21115 70033 555 10030
AAXX 18184 71079 11374 73202 11125 21141 39777 40063 52014 69961 77177 87500 333 11123 21132 48010 70024 90983 93101
AAXX 18184 71081 47964 03420 11168 21198 39774 49786 51004 6///1 745// 333 11096 21268 7////
AAXX 18184 71082 NIL
AAXX 18184 71083 11974 13110 11275 21314 39982 40026 50000 69901 77677 80001 333 11246 21299 48052 79999 90983
AAXX 18184 71090 47411 83413 11183 21210 39753 49787 6///1 745// 333 11160 21187 7////
AAXX 18184 71091 460// /0914 11202 39554 49759 53008 6///1 333 7////
AAXX 18184 71092 46408 81420 11253 39120 49784 53017 6///1 333 11213 21254 7////
AAXX 18184 71093 460// /2320 11215 39293 49786 51041 6///1 333 11176 21216 7////
AAXX 18184 71094 46020 /2233 11249 38907 49810 53018 6///1 333 11223 21258 7////
AAXX 18184 71095 46964 02302 11150 21186 39741 49819 56009 6///1 333 11106 21165 7////
AAXX 18184 71101 160// /2503 30244 55000 60001 333 70000
AAXX 18184 71104 12266 22103 11021 21028 39131 40259 51020 60001 82600 333 10005 21048 70030
AAXX 18184 71108 NIL
AAXX 18184 71109 12574 80000 10059 20018 30252 40279 51018 60001 885// 333 10062 20055 70176
AAXX 18184 71639 11474 71904 11006 21059 39972 40221 58009 69901 70287 87500 333 11005 21098 79999 90955
AAXX 18184 71350 16/// /0212 11041 21072 30129 40196 55008 60001 333 11028 21063 70000
AAXX 18184 71351 NIL
AAXX 18184 71352 17/// /2205 11026 21037 39748 40214 58004 69981 7//4/ 333 11026 21088 70025
AAXX 18184 71353 NIL
AAXX 18184 71354 NIL
AAXX 18184 71355 NIL
AAXX 18184 71356 NIL
AAXX 18184 71357 NIL
AAXX 18184 71358 17/// /3412 11181 21201 39752 49786 51006 60021 7//4/ 333 11157 21188 70199 555 10060
AAXX 18184 71359 NIL
AAXX 18184 71360 NIL
AAXX 18184 71361 NIL
AAXX 18184 71362 NIL
AAXX 18184 71363 NIL
AAXX 18184 71364 NIL
AAXX 18184 71365 NIL
AAXX 18184 71368 15362 82306 11008 21030 39820 40220 58006 60001 333 11008 21093 70003
AAXX 18184 71369 15966 02815 11025 21093 39473 40186 53024 60001 333 10005 21034 70018
AAXX 18184 71370 NIL
AAXX 18184 71371 15966 01603 11079 21154 30221 40257 58017 60001 333 11077 21133 70000
AAXX 18184 71372 NIL
AAXX 18184 71373 NIL
AAXX 18184 71374 NIL
AAXX 18184 71375 NIL
AAXX 18184 71376 NIL
AAXX 18184 71377 16/// /1304 11074 21155 30200 40250 56020 60001 333 11070 21129 70000
AAXX 18184 71378 16/// /1807 11096 21177 30021 40240 56028 60001 333 11094 21213 70000
AAXX 18184 71379 16/// /3204 11198 21229 30024 40207 56032 60001 333 11197 21317 70000
AAXX 18184 71380 NIL
AAXX 18184 71381 NIL
AAXX 18184 71382 NIL
AAXX 18184 71383 NIL
AAXX 18184 71384 16/// /2604 11086 21157 30244 40252 58017 60001 333 11083 21139 70000
AAXX 18184 71385 NIL
AAXX 18184 71386 16/// /3102 11132 21200 30023 40238 56016 60001 333 11118 21174 70000
AAXX 18184 71387 NIL
AAXX 18184 71388 NIL
AAXX 18184 71389 46/// /2603 11067 21156 6///1 333 11067 21188 7////
AAXX 18184 71390 46/// /3101 11116 6///1 333 11116 21182 7////
AAXX 18184 71391 16/// ///// 11081 21144 60001 333 11081 21154 70000
AAXX 18184 71392 NIL
AAXX 18184 71393 NIL
AAXX 18184 71395 11659 80113 11025 21073 39991 40173 57015 69901 78511 885// 333 11019 21067 45997 79999 90910
AAXX 18184 71398 15766 82710 11078 21117 30108 40120 58002 60001 333 11069 21153 70000
AAXX 18184 71399 NIL
AAXX 18184 71864 NIL
AAXX 18184 71865 17/// /3306 11015 21039 39412 40092 51039 69981 7//4/ 333 10008 21030 70008
AAXX 18184 71866 46964 03108 11020 21042 39509 40129 52037 6///1 333 11013 21057 7////
AAXX 18184 71867 11374 83512 11063 21073 39731 40068 51029 69901 77722 887// 333 11047 21091 47023 79999 90910
AAXX 18184 71868 NIL
AAXX 18184 71869 11574 23110 11029 21072 39581 40111 51032 69901 70177 81571 333 11010 21094 47005 79999 90952
AAXX 18184 71871 15966 03009 11027 21080 39342 40155 51030 60001 333 10008 21052 70000
AAXX 18184 71877 11566 82202 11018 21028 38920 40203 51026 60011 70272 83570 333 10058 21038 43003 70012 90922 93103
AAXX 18184 71878 11574 73408 11010 21031 39116 40200 52028 69941 70272 86570 333 10009 21045 47013 70024 90942
AAXX 18184 71879 16764 62908 11015 21051 39375 40187 52027 60001 333 10008 21023 70000
AAXX 18184 71880 12682 11507 10060 21004 39059 40157 52020 60001 81500 333 10061 20011 70000
AAXX 18184 71882 160// /1502 10009 20008 39671 40215 51028 60001 333 10031 20002 70080
AAXX 18184 71883 46/// /0000 11021 21022 39405 40236 53038 6///1 333 10007 21032 7////
AAXX 18184 71887 NIL
AAXX 18184 71889 12774 61905 10022 20000 39816 40239 52024 60001 82530 333 10031 20005 70000
AAXX 18184 71891 16064 80103 10029 20027 39972 40249 51030 60001 333 10084 20028 70000
AAXX 18184 71892 12274 73104 10069 20055 30236 40241 51023 60001 87500 333 10072 20057 70042
AAXX 18184 71300 NIL
AAXX 18184 71301 16/// ///// 11056 21065 39747 40156 57010 60001 333 11056 21165 70010
AAXX 18184 71302 NIL
AAXX 18184 71303 46/// ///// 10020 21030 6///1 333 10022 21037 7////
AAXX 18184 71305 17262 82610 11123 21132 39861 40161 53021 60001 771// 333 11121 21156 70000
AAXX 18184 71306 17410 82920 11130 21150 39990 40023 55000 60001 771// 333 11115 21140 70000
AAXX 18184 71307 NIL
AAXX 18184 71308 16/// /0307 11010 21045 30089 40175 58017 60001 333 11010 21035 70000
AAXX 18184 71309 NIL
AAXX 18184 71310 NIL
AAXX 18184 71311 NIL
AAXX 18184 71312 16/// /3309 11018 21059 39627 40086 51028 60001 333 11007 21102 70000
AAXX 18184 71314 NIL
AAXX 18184 71315 NIL
AAXX 18184 71316 16/// /3009 11031 21099 39475 40166 53032 60001 333 10001 21050 70000
AAXX 18184 71317 NIL
AAXX 18184 71318 16/// /3110 11014 21062 39220 40175 51035 60001 333 11006 21055 70000
AAXX 18184 71319 16/// /2104 11135 21159 39318 40224 58014 60001 333 11133 21244 70005
AAXX 18184 71320 16/// /3319 11168 21182 39778 49780 53004 60001 333 11096 21269 70003 555 10020
AAXX 18184 71321 NIL
AAXX 18184 71322 17/// /0111 11233 21255 30013 40026 53005 60011 7//4/ 333 11211 21288 70052 555 10010
AAXX 18184 71323 16/// /0103 11098 21167 39945 40238 58017 60001 333 11097 21173 70000
AAXX 18184 71331 16/// /3003 11072 21088 60001 333 11072 21098 70018 555 10010
AAXX 18184 71332 NIL
AAXX 18184 71334 46/// /3208 11162 21182 39722 40061 53008 6///1 333 11156 21284 7////
AAXX 18184 71335 46964 02325 11181 57014 6///1 333 11176 21201 7////
AAXX 18184 71336 46/// ///12 11034 21067 30144 40166 56013 6///1 333 11034 21051 7////
AAXX 18184 71337 46/// /3405 11089 21128 39955 40200 56007 6///1 333 11080 21110 7////
AAXX 18184 71338 46864 81209 11165 21236 39807 49814 51042 6///1 333 11132 21188 7////
AAXX 18184 71339 17964 02507 11124 21227 30187 40202 56004 69951 7//44 333 11124 21201 70005
AAXX 18184 71340 NIL
AAXX 18184 71341 NIL
AAXX 18184 71342 NIL
AAXX 18184 71343 NIL
AAXX 18184 71344 NIL
AAXX 18184 71345 NIL
AAXX 18184 71346 NIL
AAXX 18184 71347 NIL
AAXX 18184 71348 NIL
AAXX 18184 71349 NIL
AAXX 18184 71930 NIL
AAXX 18184 71931 16/// /3511 11049 21125 30169 40181 58013 60001 333 11006 21093 70000
AAXX 18184 71934 11574 80000 11144 21161 39893 40159 53022 69941 77177 8653/ 333 11124 21216 47021 70004 90983
AAXX 18184 71935 NIL
AAXX 18184 71936 11674 60000 11203 21233 39873 40145 51006 69901 72211 82570 333 11201 21240 48020 70004 90911
AAXX 18184 71937 NIL
AAXX 18184 71938 11969 00000 11337 21370 30091 40122 58005 69901 77677 333 11297 21337 48024 79999 90983
AAXX 18184 71940 12782 10000 11116 21117 39404 40228 51023 60001 81500 333 10010 21141 70026
AAXX 18184 71943 12974 02610 11056 21108 39366 40220 53018 60001 333 11042 21108 70000
AAXX 18184 71944 160// ///// 11071 53023 60001 333 11051 21071 70000
AAXX 18184 71945 12983 10000 11171 21224 39710 40199 53014 60001 80001 333 11138 21204 70000
AAXX 18184 71946 12674 21404 11241 21278 39911 40136 56008 60001 82500 333 11218 21265 70000
AAXX 18184 71948 46064 /1209 11276 39967 40085 57014 6///1 333 11272 21297 7////
AAXX 18184 71949 46/// /1004 11206 21229 39241 40152 58021 6///1 333 11204 21246 7////
AAXX 18184 71951 11148 83604 11026 21028 30002 40276 53008 69901 70272 885// 333 11014 21026 47049 79999 90927
AAXX 18184 71957 46964 01007 11246 21317 39944 40036 58026 6///1 333 11244 21271 7////
AAXX 18184 71964 12986 81812 11057 21100 39249 40116 58020 60001 86071 333 11050 21149 70000
AAXX 18184 71966 16/// /0000 11186 21208 39583 40057 58045 60001 333 11186 21248 70000
AAXX 18184 71968 460// /3403 11281 39947 40014 56012 6///1 333 11267 21311 7////
AAXX 18184 71500 NIL
AAXX 18184 71501 NIL
AAXX 18184 71502 NIL
AAXX 18184 71503 NIL
AAXX 18184 71504 NIL
AAXX 18184 71505 46/// /0815 11002 21099 39345 40077 58033 6///1 333 10000 21196 7////
AAXX 18184 71506 NIL
AAXX 18184 71507 NIL
AAXX 18184 71508 16/// ///// 10008 21018 30080 40221 58012 60001 333 10008 21059 70000
AAXX 18184 71509 NIL
AAXX 18184 71511 16/// /3211 11018 21048 39469 40112 53040 60001 333 11009 21061 70000
AAXX 18184 71512 NIL
AAXX 18184 71513 15966 03505 11142 21196 30221 40237 58012 60001 333 11139 21209 70000
AAXX 18184 71514 NIL
AAXX 18184 71515 NIL
AAXX 18184 71516 16/// /3115 10041 21003 60001 333 10057 21039 70006
AAXX 18184 71517 NIL
AAXX 18184 71518 NIL
AAXX 18184 71519 NIL
AAXX 18184 71520 NIL
AAXX 18184 71521 NIL
AAXX 18184 71522 NIL
AAXX 18184 71523 NIL
AAXX 18184 71524 16/// /2202 11081 21146 30238 40266 56019 60001 333 11077 21141 70000
AAXX 18184 71525 NIL
AAXX 18184 71526 NIL
AAXX 18184 71527 17766 82108 11027 21038 39507 40013 58027 60001 771// 333 11027 21063 70000
AAXX 18184 71528 NIL
AAXX 18184 71529 46/// /30// 11180 21205 39903 40139 52016 6///1 333 11166 21249 7////
AAXX 18184 71532 17566 81610 11043 21055 39854 40209 58012 60001 771// 333 11043 21146 70000
AAXX 18184 71534 16664 61808 11013 21037 39934 40215 58008 60001 333 11012 21223 70000
AAXX 18184 71535 NIL
AAXX 18184 71536 NIL
AAXX 18184 71537 NIL
AAXX 18184 71539 NIL
AAXX 18184 71540 NIL
AAXX 18184 71541 NIL
AAXX 18184 71542 16/// /2509 11084 21139 60001 333 11063 21138 70000
AAXX 18184 71543 NIL
AAXX 18184 71544 NIL
AAXX 18184 71545 16/// ///// 11010 21076 60001 333 10004 21025 70011
AAXX 18184 71546 NIL
AAXX 18184 71547 NIL
AAXX 18184 71548 NIL
AAXX 18184 71549 NIL
AAXX 18184 71893 12480 23207 10065 20018 30218 40250 52021 60001 82500 333 10074 20050 70006
AAXX 18184 71894 16/// /3112 10045 20045 30239 40248 53015 60001 333 10073 20037 70156
AAXX 18184 71896 17906 02001 11060 21064 39415 40263 53024 60001 735// 333 10013 21080 70063
AAXX 18184 71897 12474 73210 10036 20017 3//// 4//// 52018 60011 87800 333 10046 20033 70008
AAXX 18184 71898 160// ///// 10000 53009 60001 333 10028 21008 70000
AAXX 18184 71899 12474 81506 10045 20027 3//// 4//// 58001 60001 888XX 333 10062 20033 70000
AAXX 18184 71902 12574 12512 11161 21243 30083 40092 58015 60001 81500 333 11148 21179 70000
AAXX 18184 71905 NIL
AAXX 18184 71906 11574 12208 11155 21206 39976 40027 56007 69901 73687 81501 333 11150 21209 48015 79999 90937
AAXX 18184 71907 16411 82816 11159 21182 39992 40025 55000 60001 333 11137 21166 70005
AAXX 18184 71909 16964 02112 11128 21189 39806 49849 56003 60001 333 11127 21259 70000
AAXX 18184 71910 47004 92727 11162 21182 39729 49791 56012 6///1 745// 333 11160 21224 7////
AAXX 18184 71911 46004 03021 11267 39918 49976 53008 6///1 333 11256 21282 7////
AAXX 18184 71912 11458 80201 11160 21192 39874 40064 55000 69961 77177 83510 333 11157 21247 47015 70008 90973 93101
AAXX 18184 71915 11512 83024 11229 21267 39783 49865 58009 69901 77677 885// 333 11222 21293 48044 79999 90983
AAXX 18184 71917 11974 01205 11415 21449 39959 49974 55001 69901 77677 333 11396 21425 43013 79999 90973
AAXX 18184 71922 12374 33012 11066 21092 39628 40097 52023 60001 83600 333 11025 21110 70020
AAXX 18184 71924 NIL
AAXX 18184 71925 11574 13114 11339 21384 30056 40100 52004 69901 77677 81500 333 11321 21339 42021 79999 90983
AAXX 18184 71926 11632 63022 11272 21325 30024 40049 53010 60001 73811 86500 333 11246 21296 79999
AAXX 18184 71928 17/// /3106 11034 21068 39023 40199 53029 60021 7//4/ 333 10008 21044 70028 555 10040
AAXX 18184 71700 15966 03306 11064 21139 30199 40226 56022 60001 333 11064 21137 70000
AAXX 18184 71701 12674 23505 11065 21135 30160 40224 56021 60001 81501 333 11065 21141 70000
AAXX 18184 71702 16/// /0313 11038 21092 30186 40202 55008 60001 333 11031 21084 70000 555 10010
AAXX 18184 71703 12974 83401 11136 21173 39932 40246 56018 60001 81077 333 11128 21219 70000
AAXX 18184 71704 15566 82505 10005 21055 30000 40225 58002 69931 333 10005 21033 70021
AAXX 18184 71710 NIL
AAXX 18184 71712 16/// /0000 11063 21143 30186 40250 56020 60001 333 11060 21145 70000
AAXX 18184 71713 NIL
AAXX 18184 71716 NIL
AAXX 18184 71717 NIL
AAXX 18184 71720 16/// /3006 10057 20040 30095 40249 51021 60001 333 10066 20055 70035
AAXX 18184 71721 NIL
AAXX 18184 71723 16/// /2804 11090 21154 30250 40260 56015 60001 333 11088 21143 70000
AAXX 18184 71724 16/// /1905 11090 21150 30248 40256 58018 60001 333 11088 21142 70000
AAXX 18184 71732 16/// /1707 11045 21067 60001 333 11043 21135 70000
AAXX 18184 71733 16/// /2108 11037 21052 39737 40179 58008 60001 333 11036 21132 70000
AAXX 18184 71734 NIL
AAXX 18184 71736 NIL
AAXX 18184 71737 NIL
AAXX 18184 71741 16/// /2911 10050 21029 39822 40247 51036 60001 333 10065 20010 70000
AAXX 18184 71742 NIL
AAXX 18184 71743 NIL
AAXX 18184 71744 NIL
AAXX 18184 71745 NIL
AAXX 18184 71746 NIL
AAXX 18184 71747 NIL
AAXX 18184 71748 NIL
AAXX 18184 71401 16/// /1503 10002 21006 39524 40217 51025 60001 333 10002 21012 70000
AAXX 18184 71402 NIL
AAXX 18184 71404 NIL
AAXX 18184 71405 NIL
AAXX 18184 71406 NIL
AAXX 18184 71407 NIL
AAXX 18184 71408 NIL
AAXX 18184 71409 NIL
AAXX 18184 71410 15466 83506 11066 21081 39757 40038 52022 60001 333 11066 21083 70006
AAXX 18184 71413 NIL
AAXX 18184 71414 NIL
AAXX 18184 71415 17/// /0318 11019 21025 30176 40179 56010 69971 7//4/ 333 11005 21033 70007
AAXX 18184 71417 NIL
AAXX 18184 71418 NIL
AAXX 18184 71419 46/// /0317 10004 21022 30152 40162 58015 6///1 333 10006 21010 7////
AAXX 18184 71423 NIL
AAXX 18184 71424 46/// /2208 6///1 333 7////
AAXX 18184 71425 NIL
AAXX 18184 71426 NIL
AAXX 18184 71427 16/// /2614 11115 21150 30230 40238 58020 60001 333 11114 21205 70000
AAXX 18184 71428 16/// /2608 11096 21150 30234 40241 56015 60001 333 11093 21131 70000
AAXX 18184 71429 NIL
AAXX 18184 71434 NIL
AAXX 18184 71436 15566 81707 11022 21068 39984 40226 58011 60001 333 11021 21106 70000
AAXX 18184 71437 46/// /2407 10009 21041 30120 40217 58006 6///1 333 10013 21057 7////
AAXX 18184 71438 NIL
AAXX 18184 71439 NIL
AAXX 18184 71440 NIL
AAXX 18184 71442 17/// /3003 11012 21018 39705 40019 58003 60031 7//4/ 333 11012 21102 70029
AAXX 18184 71445 NIL
AAXX 18184 71446 NIL
AAXX 18184 71448 NIL
AAXX 18184 71449 16/// /2308 10020 21030 39607 40008 56025 60001 333 10022 21107 70000
AAXX 18184 71816 12974 02306 11165 21247 30130 40194 56018 60001 333 11163 21222 70000
AAXX 18184 71817 NIL
AAXX 18184 71818 12974 02214 11150 21178 30157 40176 57010 60001 333 11142 21181 70000
AAXX 18184 71822 11316 82012 11127 21161 39680 40179 57016 69901 77111 887// 333 11127 21272 47016 79999 90921
AAXX 18184 71825 11674 62211 11165 21229 39456 40160 57023 69901 70277 83601 333 11165 21268 47075 79999 90933
AAXX 18184 71827 11469 72612 11127 21141 39830 40081 52007 69961 78577 82530 333 11108 21192 47020 70048 90983 93101
AAXX 18184 71828 16556 32213 11158 21204 39426 40088 56022 60001 333 11156 21233 70000
AAXX 18184 71831 11574 81807 11054 21084 39843 40129 58016 69901 77177 885// 333 11053 21121 47032 70014 90973
AAXX 18184 71832 NIL
AAXX 18184 71834 11474 81806 11051 21066 39641 40073 58045 69961 72272 885// 333 11051 21083 48015 70010 90937 93101
AAXX 18184 71841 NIL
AAXX 18184 71842 11466 82006 11029 21041 39545 40016 58028 69921 76672 885// 333 11029 21079 43007 70006 90917
AAXX 18184 71844 17422 91106 11120 21139 39771 40054 58023 60021 74544 333 11120 21151 70015
AAXX 18184 71845 11348 81607 11068 21074 39545 40023 57036 60021 76877 887// 333 11068 21099 44018 70024 90973
AAXX 18184 71850 11774 82207 11020 21041 39518 40018 56018 69901 70262 82570 333 11020 21065 48006 70002 90931
AAXX 18184 71852 16964 00000 11002 21030 39713 40006 58009 60001 333 11001 21078 70000
AAXX 18184 71854 11520 82503 11039 21051 39531 40005 58016 69981 77177 885// 333 11038 21076 48018 70012 90993
AAXX 18184 71858 NIL
AAXX 18184 71861 46/// /3412 11011 21020 39333 40056 53020 6///1 333 10000 21069 7////
AAXX 18184 71862 12774 73110 10023 21013 39356 40055 53013 60001 87570 333 10039 21037 70000
AAXX 18184 71863 46219 93415 11014 21030 39393 40094 51047 6///1 333 11014 21071 7////
AAXX 18184 71603 12574 83608 11020 21080 30123 40177 56010 60001 86501 333 11014 21050 70016
AAXX 18184 71607 16/// /3508 11059 21142 30185 40219 56021 60001 333 11056 21135 70000
AAXX 18184 71609 12574 23613 11065 21135 30071 40210 56015 60001 81501 333 11058 21123 70000
AAXX 18184 71610 15966 00702 11094 21164 39938 40247 58019 60001 333 11094 21175 70000
AAXX 18184 71621 11574 71806 11019 21071 30124 40234 58013 69901 70281 87500 333 11019 21117 41997 79999 90921
AAXX 18184 71623 NIL
AAXX 18184 71624 11474 53002 10005 21033 30001 40218 58009 69901 70287 85500 333 10015 21082 79999 90936
AAXX 18184 71625 16564 31405 11057 21136 30056 40223 58019 60001 333 11057 21167 70000
AAXX 18184 71627 12783 11303 11071 21158 30208 40254 58020 60001 81501 333 11063 21120 70000
AAXX 18184 71628 13760 21704 11064 21143 30103 40250 56009 60001 82500 333 11059 21161 70000
AAXX 18184 71630 NIL
AAXX 18184 71631 NIL
AAXX 18184 71633 11574 81905 11013 21040 39921 40198 58003 69901 77072 885// 333 11011 21082 47003 70010 90952
AAXX 18184 71705 11456 83616 11055 21090 30121 40211 56012 69941 78582 885// 333 11054 21112 45001 70010 90947
AAXX 18184 71706 11532 80312 11038 21067 30143 40205 55007 69981 78588 885// 333 11021 21066 45001 70008 90983 93101
AAXX 18184 71707 11674 80510 11020 21077 30102 40180 56013 60011 78582 885// 333 11015 21030 44004 70044 90916 93101
AAXX 18184 71709 11580 43613 11050 21106 30196 40210 55013 69961 85500 333 11042 21056 45997 70014 90951
AAXX 18184 71711 NIL
AAXX 18184 71714 16/// /2002 11092 21166 30171 40267 58022 60001 333 11092 21168 70000
AAXX 18184 71715 NIL
AAXX 18184 71718 11566 52105 11115 21154 30178 40246 57020 69941 72622 83580 333 11112 21139 45997 70004 90973
AAXX 18184 71719 16/// /3607 11073 21117 30230 40236 56013 60001 333 11072 21098 70000
AAXX 18184 71001 15966 11330 11019 21089 39027 49989 56054 60001 333 11009 21212 70000
AAXX 18184 71002 15866 32206 11170 21219 39598 40165 56019 60001 333 11169 21256 70000
AAXX 18184 71003 17520 82213 11112 21134 39690 40081 56009 60001 771// 333 11111 21183 70000
AAXX 18184 71005 16/// ///// 11002 21058 60001 333 10000 21051 70000
AAXX 18184 71006 NIL
AAXX 18184 71007 NIL
AAXX 18184 71008 NIL
AAXX 18184 71009 NIL
AAXX 18184 71010 NIL
AAXX 18184 71011 NIL
AAXX 18184 71012 NIL
AAXX 18184 71013 NIL
AAXX 18184 71014 NIL
AAXX 18184 71015 NIL
AAXX 18184 71016 NIL
AAXX 18184 71017 NIL
AAXX 18184 71018 NIL
AAXX 18184 71019 NIL
AAXX 18184 71020 NIL
AAXX 18184 71021 NIL
AAXX 18184 71022 15466 11303 10000 21004 30217 40262 53010 60001 333 10029 21003 70000
AAXX 18184 71023 16964 03214 11053 21107 39362 40138 52027 60001 333 11012 21066 70005
AAXX 18184 71024 16/// /2503 11138 21153 60001 333 11115 21160 70000
AAXX 18184 71026 NIL
AAXX 18184 71027 17/// /0105 11028 21038 30180 40190 56015 60031 7//4/ 333 11019 21039 70025 555 10510
AAXX 18184 71028 17/// /3303 11008 21009 39231 40282 51019 69931 7//4/ 333 10026 21030 70045
AAXX 18184 71029 16/// /0506 11328 21363 30052 40094 56006 60001 333 11320 21336 70000
AAXX 18184 71030 16/64 /0209 11050 21097 30105 40197 56014 60001 333 11049 21094 70000 555 10010
AAXX 18184 71032 46/// /0000 11011 21021 39405 40250 53027 6///1 333 11008 21033 7////
AAXX 18184 71033 46/// /3307 11106 21120 39466 40108 51031 6///1 333 11071 21160 7//// 555 10030
AAXX 18184 71035 NIL
AAXX 18184 71036 17348 82704 11001 21004 39668 40043 53016 60001 771// 333 10018 21049 70000
AAXX 18184 71039 46/// /1110 11086 6///1 333 11086 21256 7////
AAXX 18184 71040 46/// /0507 11134 21185 30019 40229 58027 6///1 333 11134 21250 7////
AAXX 18184 71041 17566 80406 11020 21050 30028 40172 56011 60001 771// 333 11013 21045 70000
AAXX 18184 71042 16/// /3302 10069 20061 30237 40241 51022 60001 333 10069 20054 70034
AAXX 18184 71044 16/// /0901 11296 21329 39702 40037 57024 60001 333 11288 21325 70000
AAXX 18184 71046 460// /2104 11295 30017 40035 58008 6///1 333 11271 21329 7////
AAXX 18184 71047 16/// ///// 11007 21054 60001 333 10001 21054 70004
AAXX 18184 71048 NIL
AAXX 18184 71049 NIL
AAXX 18184 71060 NIL
AAXX 18184 71063 NIL
AAXX 18184 71744 NIL
AAXX 18184 71750 16/// /2109 10005 21025 39854 40089 58039 60001 333 10005 21052 70017 555 10020
AAXX 18184 71751 NIL
AAXX 18184 71752 NIL
AAXX 18184 71753 16/// /3607 11017 21045 30141 40171 56013 60001 333 11012 21053 70000 555 10010
AAXX 18184 71754 16/// /3011 11027 21066 39474 40144 51036 60001 333 11008 21062 70003 555 10020
AAXX 18184 71755 43/// /1104 11102 21120 39677 40026 6///1 333 11101 21133 7////
AAXX 18184 71756 16/// /0000 10010 20004 39130 40231 51024 60001 333 10014 20002 70030
AAXX 18184 71758 NIL
AAXX 18184 71760 NIL
AAXX 18184 71761 NIL
AAXX 18184 71762 NIL
AAXX 18184 71763 NIL
AAXX 18184 71765 16/// /0103 10028 20020 39970 40246 51030 60001 333 10082 20026 70000
AAXX 18184 71766 16/// /2903 10059 20032 30173 40245 51026 60001 333 10070 20050 70018
AAXX 18184 71767 16/// /2407 10002 21045 39925 40191 58005 60001 333 10002 21089 70070 555 10060
AAXX 18184 71768 46/// /0601 10019 21012 39685 40240 53026 6///1 333 10022 21011 7////
AAXX 18184 71769 16/// /2816 10070 20043 30220 40236 51027 60001 333 10076 20069 70016
AAXX 18184 71770 16/// /3502 10036 20013 39417 40195 51017 60001 333 10036 21009 70000
AAXX 18184 71771 NIL
AAXX 18184 71772 16/// /3119 10073 20048 30224 40230 51024 60001 333 10082 20069 70006
AAXX 18184 71773 16/// /1710 11046 21083 39242 40106 58025 60001 333 11045 21140 70000
AAXX 18184 71774 46/// ///// 10044 6///1 333 10067 20041 7////
AAXX 18184 71775 46/// /0000 10060 20056 30235 40241 51022 6///1 333 10064 20052 7////
AAXX 18184 71776 46/// /2911 10030 20004 39558 40205 53025 6///1 333 10038 20013 7////
AAXX 18184 71777 16/// ///// 10011 20009 39998 40254 51026 60001 333 10012 20002 70066
AAXX 18184 71778 46/// /1606 6///1 333 7////
AAXX 18184 71779 16/// /0000 11012 21012 39591 40263 53022 60001 333 10016 21018 70069
AAXX 18184 71780 17/// /0702 10072 20062 30223 40251 53030 69921 7//4/ 333 10079 20059 70060
AAXX 18184 71781 46/// /3114 10066 20036 30217 40242 53026 6///1 333 10077 20066 7////
AAXX 18184 71782 46/// /1705 10044 21004 38836 40153 53023 6///1 333 10050 20032 7////
AAXX 18184 71783 NIL
AAXX 18184 71784 16/// /0000 10060 20052 30025 40231 51026 60001 333 10061 20050 70034
AAXX 18184 71785 16/// /0000 10073 20059 30229 40245 51022 60001 333 10076 20065 70068
AAXX 18184 71786 46/// /0607 11029 21037 38345 40185 51032 6///1 333 11011 21047 7////
AAXX 18184 71787 17/// /3608 11085 21110 39694 40199 56011 60021 7//4/ 333 11083 21152 70019
AAXX 18184 71788 NIL
AAXX 18184 71789 NIL
AAXX 18184 71791 NIL
AAXX 18184 71792 NIL
AAXX 18184 71793 NIL
AAXX 18184 71794 NIL
AAXX 18184 71795 NIL
AAXX 18184 71796 NIL
AAXX 18184 71797 NIL
AAXX 18184 71900 46/// /21// 11155 21207 30105 40118 58016 6///1 333 11151 21179 7////
AAXX 18184 71903 NIL
AAXX 18184 71904 NIL
AAXX 18184 71914 16/// /2602 10055 20040 30013 40236 51016 60001 333 10058 20050 70034
AAXX 18184 71916 NIL
AAXX 18184 71918 460// ///// 11245 6///1 333 7////
AAXX 18184 71920 NIL
AAXX 18184 71921 NIL
AAXX 18184 71923 NIL
AAXX 18184 71927 16/// /1801 10069 20051 30186 40244 51026 60001 333 10069 20032 70003
AAXX 18184 71941 17548 81910 11092 21107 39750 40182 57011 60001 771// 333 11092 21201 70000
AAXX 18184 71947 17756 82008 11089 21101 39788 40145 58009 60001 771// 333 11089 21202 70000
AAXX 18184 71150 NIL
AAXX 18184 71151 NIL
AAXX 18184 71152 16/// /0510 11037 21116 30180 40193 55019 60001 333 11034 21062 70000
AAXX 18184 71153 17/// /3406 11012 21014 60021 7//4/ 333 10098 21013 70015
AAXX 18184 71154 16/// /0000 11008 21020 60001 333 10101 21011 70000
AAXX 18184 71155 NIL
AAXX 18184 71156 NIL
AAXX 18184 71157 NIL
AAXX 18184 71158 NIL
AAXX 18184 71159 NIL
AAXX 18184 71160 NIL
AAXX 18184 71161 NIL
AAXX 18184 71162 NIL
AAXX 18184 71163 46/// /1602 11235 21256 39769 40126 58002 6///1 333 11191 21246 7////
AAXX 18184 71164 NIL
AAXX 18184 71165 NIL
AAXX 18184 71166 NIL
AAXX 18184 71167 15966 02902 11044 21056 39102 40215 52031 60001 333 10008 21069 70011
AAXX 18184 71168 16/// /2106 10074 21018 39532 40116 58019 60001 333 10080 21061 70000
AAXX 18184 71170 NIL
AAXX 18184 71171 16/// /2403 10018 21028 30111 40210 58005 60001 333 10023 21064 70000
AAXX 18184 71172 17/// ///// 11028 21043 39963 40185 58010 69951 7//4/ 333 11028 21097 70005
AAXX 18184 71175 NIL
AAXX 18184 71176 460// /2239 11179 39246 49939 55007 6///1 333 11175 21203 7////
AAXX 18184 71177 460// /2511 11206 38999 40032 56010 6///1 333 11177 21228 7////
AAXX 18184 71178 16/// /0215 11035 21088 30155 40188 58015 60001 333 11034 21068 70000
AAXX 18184 71179 460// ///// 11192 39261 40122 56006 6///1 333 11192 21245 7////
AAXX 18184 71180 16/// /3311 11031 21097 30159 40199 56019 60001 333 11022 21054 70000
AAXX 18184 71181 16564 30511 11047 21119 30117 40154 56028 60001 333 11043 21062 70000
AAXX 18184 71183 16/// /1103 30210 56020 60001 333 70000
AAXX 18184 71184 46/// /2202 11069 21144 6///1 333 11069 21131 7////
AAXX 18184 71186 NIL
AAXX 18184 71187 15464 80301 10050 20049 30197 40245 51028 60001 333 10071 20041 70000
AAXX 18184 71189 NIL
AAXX 18184 71190 NIL
AAXX 18184 71191 16/// ///// 11034 21098 60001 333 11023 21109 70000 555 10010
AAXX 18184 71192 17/02 /2101 11012 21012 39595 40268 53022 60001 735// 333 10017 21018 70085
AAXX 18184 71193 16/// /2204 11059 21087 39774 40145 58010 60001 333 11058 21162 70000
AAXX 18184 71196 17/// /1206 11057 21113 30015 40221 58019 69931 7//4/ 333 11053 21177 70003
AAXX 18184 71197 16664 33610 11029 21111 30147 40197 56018 60001 333 11025 21054 70000
AAXX 18184 71198 46/// /2404 11089 21145 6///1 333 11079 21119 7////
AAXX 18184 71199 46/// /0000 11252 21280 39341 40224 58008 6///1 333 11222 21273 7////
BBXX VCXF 18184 99464 70484 41797 81209 10030 2001/ 40152 57028 71022 886// 22200 02029 20702 326// 40705 80023
AAXX 18184 71550 NIL
AAXX 18184 71551 NIL
AAXX 18184 71552 NIL
AAXX 18184 71553 NIL
AAXX 18184 71554 16/// /2206 11105 21160 30242 40248 57019 60001 333 11100 21131 70000
AAXX 18184 71555 NIL
AAXX 18184 71556 17/// /3210 11007 21021 39500 40108 53040 69951 7//4/ 333 11005 21060 70005
AAXX 18184 71557 46/// /2103 10046 20003 6///1 333 10088 20024 7////
AAXX 18184 71558 46/// ///// 11113 21175 30167 40205 56006 6///1 333 11111 21187 7////
AAXX 18184 71559 46/// /3110 10024 21011 39352 40049 52012 6///1 333 10039 21029 7////
AAXX 18184 71560 16/// /2109 10031 21011 39708 40006 56018 60001 333 10031 21080 70000
AAXX 18184 71563 NIL
AAXX 18184 71564 NIL
AAXX 18184 71565 NIL
AAXX 18184 71566 NIL
AAXX 18184 71567 NIL
AAXX 18184 71568 16/// /3315 10060 20034 30254 40266 52019 60001 333 10078 20060 70092
AAXX 18184 71569 16/// /3314 11013 21021 39376 40079 53041 60001 333 10003 21050 70000
AAXX 18184 71570 17/// /2703 11019 21038 39707 40019 57005 69931 7//4/ 333 11016 21070 70003
AAXX 18184 71571 NIL
AAXX 18184 71572 NIL
AAXX 18184 71573 17/// /2605 10005 21030 39926 40214 50000 69941 7//4/ 333 10005 21055 70004
AAXX 18184 71574 11574 60000 11106 21150 30167 40244 56015 69901 72282 81510 333 11106 21161 43020 79999 90962
AAXX 18184 71575 16/// /2924 11159 21174 39714 49778 56017 60001 333 11158 21224 70000
AAXX 18184 71576 16/// /1902 11149 21197 39737 49820 56009 60001 333 11107 21164 70000
AAXX 18184 71577 46/// /3205 11017 21030 6///1 333 11017 21070 7////
AAXX 18184 71578 16/// /2404 11093 21172 60001 333 11092 21152 70000
AAXX 18184 71579 NIL
AAXX 18184 71580 11556 23024 11261 21301 39938 49975 53011 60001 73800 82500 333 11233 21274 45030 79999
AAXX 18184 71581 NIL
AAXX 18184 71582 17456 81103 10034 20031 30235 40289 53019 60001 710// 333 10052 20034 70223
AAXX 18184 71583 NIL
AAXX 18184 71584 15966 03105 11119 21183 30184 40234 56021 60001 333 11118 21230 70000
AAXX 18184 71585 NIL
AAXX 18184 71586 16/// /3110 11069 21096 39626 40094 51025 60001 333 11009 21111 70011 555 10040
AAXX 18184 71587 NIL
AAXX 18184 71588 16/// /3202 11079 21138 60001 333 11071 21092 70000
AAXX 18184 71589 16/// /0304 11060 21117 30054 40190 57017 60001 333 11056 21103 70000
AAXX 18184 71590 16/// /3101 11123 21187 30044 40246 56021 60001 333 11115 21243 70000
AAXX 18184 71592 NIL
AAXX 18184 71593 NIL
AAXX 18184 71596 NIL
AAXX 18184 71598 16/64 /3305 11077 21124 30233 40239 56013 60001 333 11075 21099 70000 555 10010
AAXX 18184 71599 16/// /0404 11032 21071 39977 40184 56014 60001 333 11029 21071 70006
AAXX 18184 06030 02975 22806 11006 21024 39970 49986 52010 6///2 80001 333 10024 21013 6///7 82075
AAXX 18184 06060 02570 12604 10001 21008 39936 40002 52010 6///2 81500 333 10029 21031 6///7 81830
AAXX 18184 06070 05983 12809 10008 21019 39963 49993 52010 6///2 333 10023 20007 6///7 81/74
AAXX 18184 06120 36981 12611 10019 20014 39978 40004 52008 333 10031 21005 81/69
AAXX 18184 06180 01580 32609 10016 21001 39976 49983 52012 60032 70281 82530 333 10029 20011 6///7 82627
AAXX 18184 06193 07668 72728 10038 20011 39956 49968 52015 69932 70086 333 10040 20028 55300 20000 69907 81/46 83/57 87/64
AAXX 18181 13160 32997 01302 10014 20002 30053 40165 53010 333 10082
AAXX 18181 13262 32997 00000 10031 21017 30004 40156 52009 333 10098
AAXX 18181 13272 32970 00903 10029 21012 30044 40166 52009 333 10086
AAXX 18181 13285 32998 01002 10002 21015 30068 40174 52013 333 10081
AAXX 18181 13289 32998 01304 11024 21035 38950 48446 52009 333 11002
AAXX 18181 13376 32999 01801 10015 21022 39903 40172 51008 333 10082
AAXX 18181 13388 32997 00501 10016 21011 39922 40176 52008 333 10077
AAXX 18181 13462 32670 73601 10063 20025 30094 40134 55000 83570 333 10108 83640 87459
AAXX 18181 13473 NIL
AAXX 18181 13489 32998 00502 10009 21011 39647 40180 51006 333 10068
AAXX 18181 37575 42696 70902 10021 21010 20699 40303 52020 87550 333 10064
AAXX 18181 37675 42495 82302 10043 20006 39600 40269 51015 8802/ 333 10064 555 53005
AAXX 18181 37735 42996 70000 10025 21002 39828 40212 52016 87007 333 10065
AAXX 18181 37749 42998 63202 10039 20011 30197 40317 52024 86080 333 10089 555 53004
AAXX 18181 37756 41496 82702 10033 20026 39408 40327 52022 71022 887// 333 10050
AAXX 18181 37864 32497 81506 10088 20061 40283 52020 885// 333 10093 88618
AAXX 18181 37985 42596 61801 10040 20033 30291 40276 52020 86500 333 10106
AAXX 18184 48331 32960 20000 10168 20156 39939 40177 51000 80001 333 58004
AAXX 18184 06011 05681 72703 11002 21055 30052 40123 57003 69902 333 10008 21016 55300 20000 6///7 87/37 91134 91213
AAXX 18184 17042 12670 51210 10170 21068 30172 40211 52010 60002 83250 333 10179 83835 85360 92438
AAXX 18184 17074 11550 81501 10060 20050 39278 40226 52030 60022 76062 8552/ 333 10127 85629 88459 96010
AAXX 18184 17086 12670 50000 10100 20007 39505 40220 52023 60002 83550 333 10152 83635 85360
AAXX 18184 17088 12670 51105 10045 21057 38865 48558 52020 60002 83550 333 10089 83640 85360
AAXX 18184 17140 12665 61906 10079 20024 38740 48526 52016 60002 86200 333 10099 86840
AAXX 18184 17155 11670 60803 10068 20063 39068 40183 52015 60092 72162 84570 333 10125 84635 86359 91111
AAXX 18184 17203 12670 20000 11010 21028 38978 48611 52016 60002 82100 333 10050 82840
AAXX 18184 17237 12670 51303 10145 20049 39680 40177 52015 69982 83270 333 10164 83835 85358 91114
AAXX 18184 17250 12975 20000 10035 20013 38852 48538 52017 60002 82050 333 10131 82360
AAXX 18184 17270 12970 02702 10062 20016 39631 40297 52014 60002 333 10116
AAXX 18184 17295 12560 51407 10176 20115 30192 40199 52014 60002 83240 333 10195 83830 85360
AAXX 18184 17320 12670 63504 10136 20117 30232 40237 52014 60062 84270 333 10152 84837 86358 92438
AAXX 18184 17375 11570 73202 10152 20147 30212 40214 52020 60012 72582 84270 333 10185 84830 87360 91115 92438
AAXX 18184 85032 11458 71905 10286 20237 39926 40087 57024 60011 71522 86904 333 56406 58016 85617 81920 86070
AAXX 18184 85043 31457 61906 10293 20243 39927 40088 57025 71522 86904 333 56700 58012 85817 81920 86070
AAXX 18184 85104 31458 71405 10288 20244 39928 40088 57015 71522 85930 333 56330 58016 84817 81920 87358
AAXX 18184 85109 31458 70904 10296 20245 39934 40094 57020 71522 86930 333 56220 58015 85817 81923 87358
AAXX 18184 85114 11458 70000 10278 20246 39938 40101 57015 60061 71782 85908 333 56106 58010 84817 81920 87270 96015
AAXX 18184 85116 32465 61406 10320 20240 39910 40087 57025 83204 333 56306 58001 83817 86070
AAXX 18184 85123 31558 71410 10316 20236 39920 40085 57023 71522 86934 333 56300 58006 85820 81923 86070
AAXX 18184 85139 11458 81205 10255 20244 399877 40070 56005 60061 71561 8692/ 333 56339 58014 85615 81920 88457
AAXX 18184 85153 32465 51705 10298 20236 39920 40103 57020 81130 333 56339 58015 81817 85358
AAXX 18184 85154 32570 50000 10313 20249 39915 40090 57025 83230 333 56370 58011 83820 83360
AAXX 18184 17500 NIL
AAXX 18184 17501 12560 43504 10159 20119 30206 40225 51015 60002 82230 333 10192 82830 83360 92437
AAXX 18184 17505 12560 40509 10161 20138 30118 40231 50011 60002 82230 333 10212 82830 83360
AAXX 18184 17507 NIL
AAXX 18184 17510 11560 40804 10178 20133 30194 40204 52013 60022 70181 83230 333 10196 83830 92437
AAXX 18184 17515 12560 40505 10145 20112 30072 40248 52023 60002 82230 333 10208 82830 83360
AAXX 18184 17521 12560 40405 10131 20110 30088 40226 50018 60002 84100 333 10206 84830
AAXX 18184 17530 12560 40000 10126 20103 30182 40240 52019 60002 82230 333 10210 82830 83360
AAXX 18184 17535 12560 40204 10136 20113 30185 40221 52017 60002 82230 333 10209 82830 83360
AAXX 18184 17540 NIL
AAXX 18184 17547 NIL
AAXX 18184 17550 12560 41213 10148 20108 30087 40232 52018 60002 82230 333 10199 82830 83360 92437
AAXX 18184 17572 11560 4//// 10175 20137 30213 40237 52014 60032 70181 83230 333 10191 83830 92437
AAXX 18181 10044 46/// /2612 10034 20000 39991 40023 51011 222// 00053 333 10045 20018 55300 91117 91215
AAXX 18181 10124 46/// ///// 10054 2//// 30015 40053 51011 222// 00056 333 10060 20031 553// 911// 912//
AAXX 18184 71114 160// /0000 10050 20048 30197 40246 51027 60021 333 10073 20041 70225
AAXX 18184 71120 12974 12906 11045 21101 39490 40154 51030 60001 81070 333 11005 21079 79999
AAXX 18184 71122 17/// /0706 11025 21030 38573 40186 51035 60111 7//4/ 333 21025 7//// 555 10100
AAXX 18184 71123 11374 63005 11029 21038 39315 40191 53027 69901 72222 86570 333 10008 21043 44006 70028 90920
AAXX 18184 71125 12974 12810 11034 21082 39546 40136 51026 60001 81071 333 79999
AAXX 18184 71129 11574 53606 11024 21061 39320 40161 51046 69961 70172 82501 333 11011 21049 42001 70006 90931 93101
AAXX 18184 71131 16/// /3520 11022 21035 38871 40129 53050 60001 333 10027 21045 70000
AAXX 18184 71135 16/// /3519 11008 21030 39010 40094 53028 60001 333 10045 21035 70000
AAXX 18184 71137 16/// /3518 10001 21016 39175 40118 53054 60001 333 10046 21107 70000
AAXX 18184 71140 12574 73305 11020 21032 39529 40033 5/001 60001 81570 333 11020 21104 70000
AAXX 18184 71145 11474 80603 11089 21104 39730 40027 50002 69901 77177 885// 333 11089 21137 48039 70026 90973
AAXX 18184 71148 16/// /3113 10033 21011 39446 40023 57006 60001 333 10036 21101 70000
AAXX 18184 71185 16564 60000 11091 30193 40218 56008 60001 333 11083 21094 70000
AAXX 18184 71188 NIL
AAXX 18184 71200 17/// /3501 10067 20061 69941 7//4/ 333 10079 20056 70038
AAXX 18184 71207 16/// /3402 10036 30171 40236 51022 60001 333 10042 20011 70048
AAXX 18184 71260 13/// ///// 11010 21045 39922 40162 58021 69901 333 11010 21054 46001 70003
AAXX 18184 71043 11583 21003 11243 21293 39984 40081 58011 69901 70177 81570 333 11237 21282 48021 79999 90963
AAXX 18184 71045 16/// /0305 11092 21116 39300 40187 56010 60001 333 11083 21180 70000 555 10010
AAXX 18184 71050 NIL
AAXX 18184 71051 NIL
AAXX 18184 71052 NIL
AAXX 18184 71066 12974 00000 11212 21254 39742 40177 52016 60001 333 11084 21244 70000
AAXX 18184 71068 12974 02403 11074 21121 39498 40203 53018 69901 333 11009 21129 79999
AAXX 18184 71069 16964 02914 11026 21092 39473 40184 53024 60001 333 10005 21035 70015
AAXX 18184 71076 16/// /3005 11132 21151 39734 40136 51027 60001 333 11117 21175 70007 555 10010
AAXX 18184 71077 16/// /3111 11106 21125 39593 40141 51025 60001 333 11015 21115 70033 555 10030
AAXX 18184 71079 11374 73202 11125 21141 39777 40063 52014 69961 77177 87500 333 11123 21132 48010 70024 90983 93101
AAXX 18184 71081 47964 03420 11168 21198 39774 49786 51004 6///1 745// 333 11096 21268 7////
AAXX 18184 71082 NIL
AAXX 18184 71083 11974 13110 11275 21314 39982 40026 50000 69901 77677 80001 333 11246 21299 48052 79999 90983
AAXX 18184 71090 47411 83413 11183 21210 39753 49787 6///1 745// 333 11160 21187 7////
AAXX 18184 71091 460// /0914 11202 39554 49759 53008 6///1 333 7////
AAXX 18184 71092 46408 81420 11253 39120 49784 53017 6///1 333 11213 21254 7////
AAXX 18184 71093 460// /2320 11215 39293 49786 51041 6///1 333 11176 21216 7////
AAXX 18184 71094 46020 /2233 11249 38907 49810 53018 6///1 333 11223 21258 7////
AAXX 18184 71095 46964 02302 11150 21186 39741 49819 56009 6///1 333 11106 21165 7////
AAXX 18184 71101 160// /2503 30244 55000 60001 333 70000
AAXX 18184 71104 12266 22103 11021 21028 39131 40259 51020 60001 82600 333 10005 21048 70030
AAXX 18184 71108 NIL
AAXX 18184 71109 12574 80000 10059 20018 30252 40279 51018 60001 885// 333 10062 20055 70176
AAXX 18184 71397 11574 70409 11026 21082 30157 40192 57015 69901 78582 86570 333 11023 21058 45997 79999 90926
AAXX 18184 71400 16/64 /0204 11061 21126 60001 333 11052 21087 70000
AAXX 18184 71403 46/// /0318 10003 21033 30142 40162 56012 6///1 333 10005 21025 7////
AAXX 18184 71411 17/// /0107 11011 21050 30155 40168 57016 69961 7//4/ 333 11010 21044 70012
AAXX 18184 71412 16/// /0419 11030 21041 30180 40190 56010 60001 333 11014 21035 70000
AAXX 18184 71421 NIL
AAXX 18184 71430 16/// /1811 11015 21072 30133 40233 58015 60001 333 11011 21103 70010
AAXX 18184 71431 16/// /1809 11007 21068 30120 40218 58012 60001 333 10002 21086 70000
AAXX 18184 71432 NIL
AAXX 18184 71433 NIL
AAXX 18184 71435 NIL
AAXX 18184 71441 46/// /2507 10037 21013 39700 40008 56017 6///1 333 10039 21087 7////
AAXX 18184 71443 16/// /2805 11001 21024 39641 40054 52026 60001 333 11001 21098 70000
AAXX 18184 71444 16/// /3002 11021 21031 39275 40032 53002 60001 333 11021 21107 70000 555 10010
AAXX 18184 71447 NIL
AAXX 18184 71467 16/// /1204 11275 21301 39966 40085 56014 60001 333 11257 21280 70000 555 10010
AAXX 18184 71472 NIL
AAXX 18184 71474 16964 03306 10000 21047 38997 40246 51026 60001 333 10037 21017 70025
AAXX 18184 71510 NIL
AAXX 18184 71538 11566 82207 10017 21031 39997 40232 58007 69901 70372 888// 333 10020 21024 41997 70006 90953
AAXX 18184 71600 17464 80424 10029 21003 30111 40117 58019 69951 74144 333 10041 20021 70005
AAXX 18184 71601 NIL
AAXX 18184 48464 31957 03304 10210 20178 30114 40127 57007 71000 333 58000
AAXX 18184 71114 160// /0000 10050 20048 30197 40246 51027 60021 333 10073 20041 70225
AAXX 18184 71120 12974 12906 11045 21101 39490 40154 51030 60001 81070 333 11005 21079 79999
AAXX 18184 71122 17/// /0706 11025 21030 38573 40186 51035 60111 7//4/ 333 21025 7//// 555 10100
AAXX 18184 71123 11374 63005 11029 21038 39315 40191 53027 69901 72222 86570 333 10008 21043 44006 70028 90920
AAXX 18184 71125 12974 12810 11034 21082 39546 40136 51026 60001 81071 333 79999
AAXX 18184 71129 11574 53606 11024 21061 39320 40161 51046 69961 70172 82501 333 11011 21049 42001 70006 90931 93101
AAXX 18184 71131 16/// /3520 11022 21035 38871 40129 53050 60001 333 10027 21045 70000
AAXX 18184 71135 16/// /3519 11008 21030 39010 40094 53028 60001 333 10045 21035 70000
AAXX 18184 71137 16/// /3518 10001 21016 39175 40118 53054 60001 333 10046 21107 70000
AAXX 18184 71140 12574 73305 11020 21032 39529 40033 5/001 60001 81570 333 11020 21104 70000
AAXX 18184 71145 11474 80603 11089 21104 39730 40027 50002 69901 77177 885// 333 11089 21137 48039 70026 90973
AAXX 18184 71148 16/// /3113 10033 21011 39446 40023 57006 60001 333 10036 21101 70000
AAXX 18184 71185 16564 60000 11091 30193 40218 56008 60001 333 11083 21094 70000
AAXX 18184 71188 NIL
AAXX 18184 71200 17/// /3501 10067 20061 69941 7//4/ 333 10079 20056 70038
AAXX 18184 71207 16/// /3402 10036 30171 40236 51022 60001 333 10042 20011 70048
AAXX 18184 71260 13/// ///// 11010 21045 39922 40162 58021 69901 333 11010 21054 46001 70003
AAXX 18184 71864 NIL
AAXX 18184 71865 17/// /3306 11015 21039 39412 40092 51039 69981 7//4/ 333 10008 21030 70008
AAXX 18184 71866 46964 03108 11020 21042 39509 40129 52037 6///1 333 11013 21057 7////
AAXX 18184 71867 11374 83512 11063 21073 39731 40068 51029 69901 77722 887// 333 11047 21091 47023 79999 90910
AAXX 18184 71868 NIL
AAXX 18184 71869 11574 23110 11029 21072 39581 40111 51032 69901 70177 81571 333 11010 21094 47005 79999 90952
AAXX 18184 71871 15966 03009 11027 21080 39342 40155 51030 60001 333 10008 21052 70000
AAXX 18184 71877 11566 82202 11018 21028 38920 40203 51026 60011 70272 83570 333 10058 21038 43003 70012 90922 93103
AAXX 18184 71878 11574 73408 11010 21031 39116 40200 52028 69941 70272 86570 333 10009 21045 47013 70024 90942
AAXX 18184 71879 16764 62908 11015 21051 39375 40187 52027 60001 333 10008 21023 70000
AAXX 18184 71880 12682 11507 10060 21004 39059 40157 52020 60001 81500 333 10061 20011 70000
AAXX 18184 71882 160// /1502 10009 20008 39671 40215 51028 60001 333 10031 20002 70080
AAXX 18184 71883 46/// /0000 11021 21022 39405 40236 53038 6///1 333 10007 21032 7////
AAXX 18184 71887 NIL
AAXX 18184 71889 12774 61905 10022 20000 39816 40239 52024 60001 82530 333 10031 20005 70000
AAXX 18184 71891 16064 80103 10029 20027 39972 40249 51030 60001 333 10084 20028 70000
AAXX 18184 71892 12274 73104 10069 20055 30236 40241 51023 60001 87500 333 10072 20057 70042
AAXX 18184 71726 17/// /2005 11098 21165 39645 40214 58019 60041 7//4/ 333 11098 21283 70041
AAXX 18184 71727 12982 10904 11132 21163 30030 40238 58027 60001 80001 333 11129 21239 70000
AAXX 18184 71728 12986 12107 11094 21120 39990 40222 56029 60001 81070 333 11094 21214 70000
AAXX 18184 71730 11366 82108 11036 21051 39744 40180 58008 69901 77177 885// 333 11035 21134 46997 79999 90973
AAXX 18184 71731 11466 81905 11062 21076 39725 40191 58007 60011 78582 885// 333 11061 21138 46002 70010 90942 93102
AAXX 18184 71735 NIL
AAXX 18184 71738 11474 82208 11005 21034 39770 40126 58026 69901 77177 885// 333 11003 21081 47030 70068 90973
AAXX 18184 71739 41469 82204 11055 21093 39776 40148 58009 6//// 77172 887// 333 11054 21146 4//// 7//// 90953 93102
AAXX 18184 71749 16864 82007 10009 21031 39818 40064 58052 60001 333 10009 21101 70005
AAXX 18184 71799 11483 42605 10066 20045 30220 40244 53024 69921 70266 84800 333 10067 20030 70011 90962
AAXX 18184 71800 16/// /0322 11020 21025 30121 40154 56027 60001 333 11007 21043 70000
AAXX 18184 71801 11312 81310 11051 21063 30005 40182 57016 60011 77182 887// 333 11030 21052 42002 70012 90931 93102
AAXX 18184 71803 11580 70107 11061 21133 30010 40202 56017 69901 72211 87500 333 11060 21112 41997 79999 90931
AAXX 18184 71807 NIL
AAXX 18184 71808 12974 03303 11133 21211 30168 40217 58006 60001 333 11129 21198 70000
AAXX 18184 71809 12574 60000 11073 21134 30187 40215 57011 60001 86500 333 11062 21080 79999
AAXX 18184 71810 17/// /2705 11101 21147 30159 40228 56018 69931 7//4/ 333 11100 21208 70003
AAXX 18184 71811 NIL
AAXX 18184 71813 NIL
AAXX 18184 71814 NIL
AAXX 18184 71815 11574 40409 11051 21121 30173 40205 58012 69901 72611 82570 333 11047 21072 41997 79999 90921
AAXX 18184 71603 12574 83608 11020 21080 30123 40177 56010 60001 86501 333 11014 21050 70016
AAXX 18184 71607 16/// /3508 11059 21142 30185 40219 56021 60001 333 11056 21135 70000
AAXX 18184 71609 12574 23613 11065 21135 30071 40210 56015 60001 81501 333 11058 21123 70000
AAXX 18184 71610 15966 00702 11094 21164 39938 40247 58019 60001 333 11094 21175 70000
AAXX 18184 71621 11574 71806 11019 21071 30124 40234 58013 69901 70281 87500 333 11019 21117 41997 79999 90921
AAXX 18184 71623 NIL
AAXX 18184 71624 11474 53002 10005 21033 30001 40218 58009 69901 70287 85500 333 10015 21082 79999 90936
AAXX 18184 71625 16564 31405 11057 21136 30056 40223 58019 60001 333 11057 21167 70000
AAXX 18184 71627 12783 11303 11071 21158 30208 40254 58020 60001 81501 333 11063 21120 70000
AAXX 18184 71628 13760 21704 11064 21143 30103 40250 56009 60001 82500 333 11059 21161 70000
AAXX 18184 71630 NIL
AAXX 18184 71631 NIL
AAXX 18184 71633 11574 81905 11013 21040 39921 40198 58003 69901 77072 885// 333 11011 21082 47003 70010 90952
AAXX 18184 71705 11456 83616 11055 21090 30121 40211 56012 69941 78582 885// 333 11054 21112 45001 70010 90947
AAXX 18184 71706 11532 80312 11038 21067 30143 40205 55007 69981 78588 885// 333 11021 21066 45001 70008 90983 93101
AAXX 18184 71707 11674 80510 11020 21077 30102 40180 56013 60011 78582 885// 333 11015 21030 44004 70044 90916 93101
AAXX 18184 71709 11580 43613 11050 21106 30196 40210 55013 69961 85500 333 11042 21056 45997 70014 90951
AAXX 18184 71711 NIL
AAXX 18184 71714 16/// /2002 11092 21166 30171 40267 58022 60001 333 11092 21168 70000
AAXX 18184 71715 NIL
AAXX 18184 71718 11566 52105 11115 21154 30178 40246 57020 69941 72622 83580 333 11112 21139 45997 70004 90973
AAXX 18184 71719 16/// /3607 11073 21117 30230 40236 56013 60001 333 11072 21098 70000
AAXX 18184 71930 NIL
AAXX 18184 71931 16/// /3511 11049 21125 30169 40181 58013 60001 333 11006 21093 70000
AAXX 18184 71934 11574 80000 11144 21161 39893 40159 53022 69941 77177 8653/ 333 11124 21216 47021 70004 90983
AAXX 18184 71935 NIL
AAXX 18184 71936 11674 60000 11203 21233 39873 40145 51006 69901 72211 82570 333 11201 21240 48020 70004 90911
AAXX 18184 71937 NIL
AAXX 18184 71938 11969 00000 11337 21370 30091 40122 58005 69901 77677 333 11297 21337 48024 79999 90983
AAXX 18184 71940 12782 10000 11116 21117 39404 40228 51023 60001 81500 333 10010 21141 70026
AAXX 18184 71943 12974 02610 11056 21108 39366 40220 53018 60001 333 11042 21108 70000
AAXX 18184 71944 160// ///// 11071 53023 60001 333 11051 21071 70000
AAXX 18184 71945 12983 10000 11171 21224 39710 40199 53014 60001 80001 333 11138 21204 70000
AAXX 18184 71946 12674 21404 11241 21278 39911 40136 56008 60001 82500 333 11218 21265 70000
AAXX 18184 71948 46064 /1209 11276 39967 40085 57014 6///1 333 11272 21297 7////
AAXX 18184 71949 46/// /1004 11206 21229 39241 40152 58021 6///1 333 11204 21246 7////
AAXX 18184 71951 11148 83604 11026 21028 30002 40276 53008 69901 70272 885// 333 11014 21026 47049 79999 90927
AAXX 18184 71957 46964 01007 11246 21317 39944 40036 58026 6///1 333 11244 21271 7////
AAXX 18184 71964 12986 81812 11057 21100 39249 40116 58020 60001 86071 333 11050 21149 70000
AAXX 18184 71966 16/// /0000 11186 21208 39583 40057 58045 60001 333 11186 21248 70000
AAXX 18184 71968 460// /3403 11281 39947 40014 56012 6///1 333 11267 21311 7////
AAXX 18184 71043 11583 21003 11243 21293 39984 40081 58011 69901 70177 81570 333 11237 21282 48021 79999 90963
AAXX 18184 71045 16/// /0305 11092 21116 39300 40187 56010 60001 333 11083 21180 70000 555 10010
AAXX 18184 71050 NIL
AAXX 18184 71051 NIL
AAXX 18184 71052 NIL
AAXX 18184 71066 12974 00000 11212 21254 39742 40177 52016 60001 333 11084 21244 70000
AAXX 18184 71068 12974 02403 11074 21121 39498 40203 53018 69901 333 11009 21129 79999
AAXX 18184 71069 16964 02914 11026 21092 39473 40184 53024 60001 333 10005 21035 70015
AAXX 18184 71076 16/// /3005 11132 21151 39734 40136 51027 60001 333 11117 21175 70007 555 10010
AAXX 18184 71077 16/// /3111 11106 21125 39593 40141 51025 60001 333 11015 21115 70033 555 10030
AAXX 18184 71079 11374 73202 11125 21141 39777 40063 52014 69961 77177 87500 333 11123 21132 48010 70024 90983 93101
AAXX 18184 71081 47964 03420 11168 21198 39774 49786 51004 6///1 745// 333 11096 21268 7////
AAXX 18184 71082 NIL
AAXX 18184 71083 11974 13110 11275 21314 39982 40026 50000 69901 77677 80001 333 11246 21299 48052 79999 90983
AAXX 18184 71090 47411 83413 11183 21210 39753 49787 6///1 745// 333 11160 21187 7////
AAXX 18184 71091 460// /0914 11202 39554 49759 53008 6///1 333 7////
AAXX 18184 71092 46408 81420 11253 39120 49784 53017 6///1 333 11213 21254 7////
AAXX 18184 71093 460// /2320 11215 39293 49786 51041 6///1 333 11176 21216 7////
AAXX 18184 71094 46020 /2233 11249 38907 49810 53018 6///1 333 11223 21258 7////
AAXX 18184 71095 46964 02302 11150 21186 39741 49819 56009 6///1 333 11106 21165 7////
AAXX 18184 71101 160// /2503 30244 55000 60001 333 70000
AAXX 18184 71104 12266 22103 11021 21028 39131 40259 51020 60001 82600 333 10005 21048 70030
AAXX 18184 71108 NIL
AAXX 18184 71109 12574 80000 10059 20018 30252 40279 51018 60001 885// 333 10062 20055 70176
AAXX 18181 26247 01280 81705 10021 20009 39818 49896 52021 60022 75152 886// 333 10041 20017 60007 88707 91009 91110 555 1/002 20017 3/002 50036
AAXX 18184 71893 12480 23207 10065 20018 30218 40250 52021 60001 82500 333 10074 20050 70006
AAXX 18184 71894 16/// /3112 10045 20045 30239 40248 53015 60001 333 10073 20037 70156
AAXX 18184 71896 17906 02001 11060 21064 39415 40263 53024 60001 735// 333 10013 21080 70063
AAXX 18184 71897 12474 73210 10036 20017 3//// 4//// 52018 60011 87800 333 10046 20033 70008
AAXX 18184 71898 160// ///// 10000 53009 60001 333 10028 21008 70000
AAXX 18184 71899 12474 81506 10045 20027 3//// 4//// 58001 60001 888XX 333 10062 20033 70000
AAXX 18184 71902 12574 12512 11161 21243 30083 40092 58015 60001 81500 333 11148 21179 70000
AAXX 18184 71905 NIL
AAXX 18184 71906 11574 12208 11155 21206 39976 40027 56007 69901 73687 81501 333 11150 21209 48015 79999 90937
AAXX 18184 71907 16411 82816 11159 21182 39992 40025 55000 60001 333 11137 21166 70005
AAXX 18184 71909 16964 02112 11128 21189 39806 49849 56003 60001 333 11127 21259 70000
AAXX 18184 71910 47004 92727 11162 21182 39729 49791 56012 6///1 745// 333 11160 21224 7////
AAXX 18184 71911 46004 03021 11267 39918 49976 53008 6///1 333 11256 21282 7////
AAXX 18184 71912 11458 80201 11160 21192 39874 40064 55000 69961 77177 83510 333 11157 21247 47015 70008 90973 93101
AAXX 18184 71915 11512 83024 11229 21267 39783 49865 58009 69901 77677 885// 333 11222 21293 48044 79999 90983
AAXX 18184 71917 11974 01205 11415 21449 39959 49974 55001 69901 77677 333 11396 21425 43013 79999 90973
AAXX 18184 71922 12374 33012 11066 21092 39628 40097 52023 60001 83600 333 11025 21110 70020
AAXX 18184 71924 NIL
AAXX 18184 71925 11574 13114 11339 21384 30056 40100 52004 69901 77677 81500 333 11321 21339 42021 79999 90983
AAXX 18184 71926 11632 63022 11272 21325 30024 40049 53010 60001 73811 86500 333 11246 21296 79999
AAXX 18184 71928 17/// /3106 11034 21068 39023 40199 53029 60021 7//4/ 333 10008 21044 70028 555 10040
AAXX 18184 41859 31930 02703 10130 20120 30133 40172 70500 333 58002 70000
AAXX 18184 41883 31/08 90000 10124 20110 30150 40171 74344 89/// 333 56999 58000 70000
AAXX 18184 41891 31415 82703 10152 20140 30118 40158 71022 8532/ 333 56999 58001 70000 85614 81930 88460
AAXX 18184 41907 31908 00000 10112 20110 30146 40161 74244 333 58004 70006
AAXX 18184 41923 31940 00000 10146 20140 30147 40158 70500 333 59004 70000
AAXX 18184 41936 31910 00000 10116 20110 40171 70500 333 58002 70000
AAXX 18184 41943 31/07 93102 10120 20110 30155 40163 74340 89/// 333 59003 70000
AAXX 18184 41950 31/05 90000 10147 20147 30158 40161 74520 89/// 333 56999 58002 70000
AAXX 18184 41978 31931 03404 10146 20130 30149 40156 70500 333 58003 70000
AAXX 18184 41992 31920 00000 10170 20160 30145 40147 71000 333 59003 70000
AAXX 18184 71930 NIL
AAXX 18184 71931 16/// /3511 11049 21125 30169 40181 58013 60001 333 11006 21093 70000
AAXX 18184 71934 11574 80000 11144 21161 39893 40159 53022 69941 77177 8653/ 333 11124 21216 47021 70004 90983
AAXX 18184 71935 NIL
AAXX 18184 71936 11674 60000 11203 21233 39873 40145 51006 69901 72211 82570 333 11201 21240 48020 70004 90911
AAXX 18184 71937 NIL
AAXX 18184 71938 11969 00000 11337 21370 30091 40122 58005 69901 77677 333 11297 21337 48024 79999 90983
AAXX 18184 71940 12782 10000 11116 21117 39404 40228 51023 60001 81500 333 10010 21141 70026
AAXX 18184 71943 12974 02610 11056 21108 39366 40220 53018 60001 333 11042 21108 70000
AAXX 18184 71944 160// ///// 11071 53023 60001 333 11051 21071 70000
AAXX 18184 71945 12983 10000 11171 21224 39710 40199 53014 60001 80001 333 11138 21204 70000
AAXX 18184 71946 12674 21404 11241 21278 39911 40136 56008 60001 82500 333 11218 21265 70000
AAXX 18184 71948 46064 /1209 11276 39967 40085 57014 6///1 333 11272 21297 7////
AAXX 18184 71949 46/// /1004 11206 21229 39241 40152 58021 6///1 333 11204 21246 7////
AAXX 18184 71951 11148 83604 11026 21028 30002 40276 53008 69901 70272 885// 333 11014 21026 47049 79999 90927
AAXX 18184 71957 46964 01007 11246 21317 39944 40036 58026 6///1 333 11244 21271 7////
AAXX 18184 71964 12986 81812 11057 21100 39249 40116 58020 60001 86071 333 11050 21149 70000
AAXX 18184 71966 16/// /0000 11186 21208 39583 40057 58045 60001 333 11186 21248 70000
AAXX 18184 71968 460// /3403 11281 39947 40014 56012 6///1 333 11267 21311 7////
AAXX 18184 71864 NIL
AAXX 18184 71865 17/// /3306 11015 21039 39412 40092 51039 69981 7//4/ 333 10008 21030 70008
AAXX 18184 71866 46964 03108 11020 21042 39509 40129 52037 6///1 333 11013 21057 7////
AAXX 18184 71867 11374 83512 11063 21073 39731 40068 51029 69901 77722 887// 333 11047 21091 47023 79999 90910
AAXX 18184 71868 NIL
AAXX 18184 71869 11574 23110 11029 21072 39581 40111 51032 69901 70177 81571 333 11010 21094 47005 79999 90952
AAXX 18184 71871 15966 03009 11027 21080 39342 40155 51030 60001 333 10008 21052 70000
AAXX 18184 71877 11566 82202 11018 21028 38920 40203 51026 60011 70272 83570 333 10058 21038 43003 70012 90922 93103
AAXX 18184 71878 11574 73408 11010 21031 39116 40200 52028 69941 70272 86570 333 10009 21045 47013 70024 90942
AAXX 18184 71879 16764 62908 11015 21051 39375 40187 52027 60001 333 10008 21023 70000
AAXX 18184 71880 12682 11507 10060 21004 39059 40157 52020 60001 81500 333 10061 20011 70000
AAXX 18184 71882 160// /1502 10009 20008 39671 40215 51028 60001 333 10031 20002 70080
AAXX 18184 71883 46/// /0000 11021 21022 39405 40236 53038 6///1 333 10007 21032 7////
AAXX 18184 71887 NIL
AAXX 18184 71889 12774 61905 10022 20000 39816 40239 52024 60001 82530 333 10031 20005 70000
AAXX 18184 71891 16064 80103 10029 20027 39972 40249 51030 60001 333 10084 20028 70000
AAXX 18184 71892 12274 73104 10069 20055 30236 40241 51023 60001 87500 333 10072 20057 70042
AAXX 18184 71816 12974 02306 11165 21247 30130 40194 56018 60001 333 11163 21222 70000
AAXX 18184 71817 NIL
AAXX 18184 71818 12974 02214 11150 21178 30157 40176 57010 60001 333 11142 21181 70000
AAXX 18184 71822 11316 82012 11127 21161 39680 40179 57016 69901 77111 887// 333 11127 21272 47016 79999 90921
AAXX 18184 71825 11674 62211 11165 21229 39456 40160 57023 69901 70277 83601 333 11165 21268 47075 79999 90933
AAXX 18184 71827 11469 72612 11127 21141 39830 40081 52007 69961 78577 82530 333 11108 21192 47020 70048 90983 93101
AAXX 18184 71828 16556 32213 11158 21204 39426 40088 56022 60001 333 11156 21233 70000
AAXX 18184 71831 11574 81807 11054 21084 39843 40129 58016 69901 77177 885// 333 11053 21121 47032 70014 90973
AAXX 18184 71832 NIL
AAXX 18184 71834 11474 81806 11051 21066 39641 40073 58045 69961 72272 885// 333 11051 21083 48015 70010 90937 93101
AAXX 18184 71841 NIL
AAXX 18184 71842 11466 82006 11029 21041 39545 40016 58028 69921 76672 885// 333 11029 21079 43007 70006 90917
AAXX 18184 71844 17422 91106 11120 21139 39771 40054 58023 60021 74544 333 11120 21151 70015
AAXX 18184 71845 11348 81607 11068 21074 39545 40023 57036 60021 76877 887// 333 11068 21099 44018 70024 90973
AAXX 18184 71850 11774 82207 11020 21041 39518 40018 56018 69901 70262 82570 333 11020 21065 48006 70002 90931
AAXX 18184 71852 16964 00000 11002 21030 39713 40006 58009 60001 333 11001 21078 70000
AAXX 18184 71854 11520 82503 11039 21051 39531 40005 58016 69981 77177 885// 333 11038 21076 48018 70012 90993
AAXX 18184 71858 NIL
AAXX 18184 71861 46/// /3412 11011 21020 39333 40056 53020 6///1 333 10000 21069 7////
AAXX 18184 71862 12774 73110 10023 21013 39356 40055 53013 60001 87570 333 10039 21037 70000
AAXX 18184 71863 46219 93415 11014 21030 39393 40094 51047 6///1 333 11014 21071 7////
AAXX 18184 71603 12574 83608 11020 21080 30123 40177 56010 60001 86501 333 11014 21050 70016
AAXX 18184 71607 16/// /3508 11059 21142 30185 40219 56021 60001 333 11056 21135 70000
AAXX 18184 71609 12574 23613 11065 21135 30071 40210 56015 60001 81501 333 11058 21123 70000
AAXX 18184 71610 15966 00702 11094 21164 39938 40247 58019 60001 333 11094 21175 70000
AAXX 18184 71621 11574 71806 11019 21071 30124 40234 58013 69901 70281 87500 333 11019 21117 41997 79999 90921
AAXX 18184 71623 NIL
AAXX 18184 71624 11474 53002 10005 21033 30001 40218 58009 69901 70287 85500 333 10015 21082 79999 90936
AAXX 18184 71625 16564 31405 11057 21136 30056 40223 58019 60001 333 11057 21167 70000
AAXX 18184 71627 12783 11303 11071 21158 30208 40254 58020 60001 81501 333 11063 21120 70000
AAXX 18184 71628 13760 21704 11064 21143 30103 40250 56009 60001 82500 333 11059 21161 70000
AAXX 18184 71630 NIL
AAXX 18184 71631 NIL
AAXX 18184 71633 11574 81905 11013 21040 39921 40198 58003 69901 77072 885// 333 11011 21082 47003 70010 90952
AAXX 18184 71705 11456 83616 11055 21090 30121 40211 56012 69941 78582 885// 333 11054 21112 45001 70010 90947
AAXX 18184 71706 11532 80312 11038 21067 30143 40205 55007 69981 78588 885// 333 11021 21066 45001 70008 90983 93101
AAXX 18184 71707 11674 80510 11020 21077 30102 40180 56013 60011 78582 885// 333 11015 21030 44004 70044 90916 93101
AAXX 18184 71709 11580 43613 11050 21106 30196 40210 55013 69961 85500 333 11042 21056 45997 70014 90951
AAXX 18184 71711 NIL
AAXX 18184 71714 16/// /2002 11092 21166 30171 40267 58022 60001 333 11092 21168 70000
AAXX 18184 71715 NIL
AAXX 18184 71718 11566 52105 11115 21154 30178 40246 57020 69941 72622 83580 333 11112 21139 45997 70004 90973
AAXX 18184 71719 16/// /3607 11073 21117 30230 40236 56013 60001 333 11072 21098 70000
BBXX VCXF 18184 99464 70484 41797 81209 10030 2001/ 40152 57028 71022 886// 22200 02029 20702 326// 40705 80023
AAXX 18184 71893 12480 23207 10065 20018 30218 40250 52021 60001 82500 333 10074 20050 70006
AAXX 18184 71894 16/// /3112 10045 20045 30239 40248 53015 60001 333 10073 20037 70156
AAXX 18184 71896 17906 02001 11060 21064 39415 40263 53024 60001 735// 333 10013 21080 70063
AAXX 18184 71897 12474 73210 10036 20017 3//// 4//// 52018 60011 87800 333 10046 20033 70008
AAXX 18184 71898 160// ///// 10000 53009 60001 333 10028 21008 70000
AAXX 18184 71899 12474 81506 10045 20027 3//// 4//// 58001 60001 888XX 333 10062 20033 70000
AAXX 18184 71902 12574 12512 11161 21243 30083 40092 58015 60001 81500 333 11148 21179 70000
AAXX 18184 71905 NIL
AAXX 18184 71906 11574 12208 11155 21206 39976 40027 56007 69901 73687 81501 333 11150 21209 48015 79999 90937
AAXX 18184 71907 16411 82816 11159 21182 39992 40025 55000 60001 333 11137 21166 70005
AAXX 18184 71909 16964 02112 11128 21189 39806 49849 56003 60001 333 11127 21259 70000
AAXX 18184 71910 47004 92727 11162 21182 39729 49791 56012 6///1 745// 333 11160 21224 7////
AAXX 18184 71911 46004 03021 11267 39918 49976 53008 6///1 333 11256 21282 7////
AAXX 18184 71912 11458 80201 11160 21192 39874 40064 55000 69961 77177 83510 333 11157 21247 47015 70008 90973 93101
AAXX 18184 71915 11512 83024 11229 21267 39783 49865 58009 69901 77677 885// 333 11222 21293 48044 79999 90983
AAXX 18184 71917 11974 01205 11415 21449 39959 49974 55001 69901 77677 333 11396 21425 43013 79999 90973
AAXX 18184 71922 12374 33012 11066 21092 39628 40097 52023 60001 83600 333 11025 21110 70020
AAXX 18184 71924 NIL
AAXX 18184 71925 11574 13114 11339 21384 30056 40100 52004 69901 77677 81500 333 11321 21339 42021 79999 90983
AAXX 18184 71926 11632 63022 11272 21325 30024 40049 53010 60001 73811 86500 333 11246 21296 79999
AAXX 18184 71928 17/// /3106 11034 21068 39023 40199 53029 60021 7//4/ 333 10008 21044 70028 555 10040
AAXX 18184 71726 17/// /2005 11098 21165 39645 40214 58019 60041 7//4/ 333 11098 21283 70041
AAXX 18184 71727 12982 10904 11132 21163 30030 40238 58027 60001 80001 333 11129 21239 70000
AAXX 18184 71728 12986 12107 11094 21120 39990 40222 56029 60001 81070 333 11094 21214 70000
AAXX 18184 71730 11366 82108 11036 21051 39744 40180 58008 69901 77177 885// 333 11035 21134 46997 79999 90973
AAXX 18184 71731 11466 81905 11062 21076 39725 40191 58007 60011 78582 885// 333 11061 21138 46002 70010 90942 93102
AAXX 18184 71735 NIL
AAXX 18184 71738 11474 82208 11005 21034 39770 40126 58026 69901 77177 885// 333 11003 21081 47030 70068 90973
AAXX 18184 71739 41469 82204 11055 21093 39776 40148 58009 6//// 77172 887// 333 11054 21146 4//// 7//// 90953 93102
AAXX 18184 71749 16864 82007 10009 21031 39818 40064 58052 60001 333 10009 21101 70005
AAXX 18184 71799 11483 42605 10066 20045 30220 40244 53024 69921 70266 84800 333 10067 20030 70011 90962
AAXX 18184 71800 16/// /0322 11020 21025 30121 40154 56027 60001 333 11007 21043 70000
AAXX 18184 71801 11312 81310 11051 21063 30005 40182 57016 60011 77182 887// 333 11030 21052 42002 70012 90931 93102
AAXX 18184 71803 11580 70107 11061 21133 30010 40202 56017 69901 72211 87500 333 11060 21112 41997 79999 90931
AAXX 18184 71807 NIL
AAXX 18184 71808 12974 03303 11133 21211 30168 40217 58006 60001 333 11129 21198 70000
AAXX 18184 71809 12574 60000 11073 21134 30187 40215 57011 60001 86500 333 11062 21080 79999
AAXX 18184 71810 17/// /2705 11101 21147 30159 40228 56018 69931 7//4/ 333 11100 21208 70003
AAXX 18184 71811 NIL
AAXX 18184 71813 NIL
AAXX 18184 71814 NIL
AAXX 18184 71815 11574 40409 11051 21121 30173 40205 58012 69901 72611 82570 333 11047 21072 41997 79999 90921
AAXX 18181 01441 16/// /0301 11124 21138 39009 40037 50007 60002 333 11117 91102
AAXX 18181 01180 11980 03303 11006 21044 39966 40024 52002 60002 70200 333 11006 91105
AAXX 18181 01450 16/// /3316 11041 21066 38826 49974 58004 60002 333 11040 91121
AAXX 18181 01257 16/// /2201 11044 21048 39817 49982 58004 60002 333 11037 91103
AAXX 18181 01277 16/// /0000 11082 21092 60002 333 11070 91102
AAXX 18181 01476 16/// /3103 10016 21042 39961 49968 54000 6//// 333 10017 91108
AAXX 18181 01488 16/// /2301 11063 21072 60002 333 11028 4/012 91106
AAXX 18181 01262 46/// /1601 10013 21028 333 10022 91110
AAXX 18181 01393 16/// /3103 11041 21071 39132 49936 58014 6//// 333 11041 91108
AAXX 18184 48555 31550 60000 10230 20221 30091 40134 55012 71022 83546 333 58004
AAXX 18184 60715 11558 62409 10101 20064 30152 40159 51018 69922 76062 84870 333 10133 58016 84823 85359 91013 91129
AAXX 18184 60723 11560 73002 10086 20074 39983 40175 53011 60042 70261 8428/ 333 10121 84820 84360
AAXX 18184 60725 11560 72406 10082 2//// 39997 40178 51014 69962 70282 878// 333 10136 84820 84630
AAXX 18184 60735 12562 53406 10110 20049 30072 40155 52017 60002 86800 333 10159 85823
AAXX 18184 60745 12562 42605 10118 20043 39788 40159 53016 60002 84200 333 10150 84826
AAXX 18184 60748 12560 52904 10114 20024 39739 40159 53018 60002 85800 333 10148 84823
AAXX 18184 60750 12560 30301 10123 20013 30128 40153 53012 60002 83800 333 10159 82820
AAXX 18184 60760 12560 32507 10124 20008 30056 40161 53014 60002 83200 333 10171 83830 91009 91110
AAXX 18184 60765 12558 23606 10120 20074 30140 40143 58010 60002 82500 333 10162 82630 92426 925//
AAXX 18184 60767 12560 21806 10108 20036 30011 40157 52011 69932 82500 333 10153 82630
AAXX 18184 60769 12460 30000 10132 20055 30143 40147 52012 60002 83800 333 10165 82816
AAXX 18184 60020 NIL
AAXX 18184 60030 NIL
AAXX 18184 60040 02580 33619 10196 20142 30198 40222 55001 60002 83800 333 10224 60007 92437
AAXX 18184 60338 12582 22805 10130 20072 30147 40213 53012 60002 82500 333 10154 92428
AAXX 18181 26106 11/97 71906 10024 20004 49897 52022 60032 78086 87900 333 10029 91011 91112
AAXX 18181 26313 12/// 82204 10021 20010 49854 52017 60032 889// 333 10029
AAXX 18181 26346 11397 82005 10010 20004 49921 52022 60042 76162 8872/ 333 10024 86707 91112
AAXX 18181 26406 11597 62408 10034 20006 49888 52022 60032 70282 86300 333 10043 86920 91013 91114
AAXX 18181 26424 114// 82106 10014 20003 49898 52021 60022 78082 8695/ 333 10027 91111
AAXX 18181 26544 11497 82005 10018 20003 49959 52025 60042 72582 883// 333 10031 84917 91111
AAXX 18181 26416 NIL
AAXX 18184 16716 11560 70607 10140 20071 30125 40143 52015 69912 72162 84870 333 10164 82825 84630 87359 555 10000 40122 40000 47621 44180 50000 50106 60000 60001 60030 70000 77R// 7R///
AAXX 18181 02019 05/99 /0102 11049 21057 39400 40028 57001 60002 333 11042 21129 60005 90710 91108
AAXX 18181 02081 07/40 /0302 11043 21050 39627 40036 58004 69902 77170 333 11029 21091 69905 90710 91105
AAXX 18181 02095 07232 /0404 11014 21018 39797 40001 57001 60032 77174 333 11009 21017 69945 88/04 90710 91107
AAXX 18181 02101 45/84 /0903 11022 21053 39420 49980 56005 8//// 333 11020 21114
AAXX 18181 02119 07525 /2301 11034 21036 39614 40003 57002 60012 77174 333 11032 21055 69925 88/29 90710 91102
AAXX 18181 02124 07550 /0304 11031 21040 39451 49978 58004 69952 77171 333 11027 21034 69915 89/31 90710 91108
AAXX 18181 02126 07323 /3503 11020 21028 39614 49952 54001 60042 74174 333 11015 21021 69965 83/07 88/23 90710 91105
AAXX 18181 02151 07414 90202 11023 21024 39649 49986 57001 60042 77177 333 11018 21024 69965 89/10 91004 90710 91104 90710 91202
AAXX 18181 02186 07239 80602 10006 20004 39933 49958 51004 60042 78174 333 10007 21002 69925 88/04 91004 90710 91105 90710 91203
AAXX 18181 02197 07/50 /0803 10007 20007 39953 49972 50005 60052 78187 333 10008 21002 69925 90710 91105
AAXX 18181 02207 05899 /0201 11081 21088 39254 49961 58007 60002 333 11081 21166 60005 88/58 90710 91103
AAXX 18181 02219 07/56 /3103 11039 21048 39289 49957 58006 69942 77174 333 11035 21072 69905 90710 91106
AAXX 18181 02226 47316 /3306 11028 21030 39475 49929 58008 771// 8//// 333 11020 21029 84/08 86/10
AAXX 18181 02243 07/21 /0102 11016 21019 39643 49911 58006 60042 77174 333 11010 21016 69975 90710 91106
AAXX 18181 02269 07257 /0406 10011 20011 60062 76176 333 10013 20004 69985 88/04 90710 91110
AAXX 18181 02287 07357 /0907 10020 20013 39898 49908 50001 60062 76186 333 10023 20015 69985 88/07 90710 91110
AAXX 18181 02297 07356 /1108 10019 20019 39882 49927 53003 60062 76186 333 10021 20011 69965 83/07 85/10 88/16 90710 91112
AAXX 18181 02308 05/99 /2501 11043 21076 39072 49932 58013 60002 333 11043 21079 60005 90710 91106
AAXX 18181 02327 07/21 /3105 11024 21031 39480 49914 58006 69972 77177 333 11013 21025 69915 90710 91108
AAXX 18181 02355 07135 /3609 10005 20005 39844 49856 57008 60042 77176 333 10009 20004 69965 88/03 90710 91113
AAXX 18181 02366 47450 /3406 11002 21002 39873 49879 55003 771// 8//// 333 10004 21002 81/14
AAXX 18181 02407 07599 /3204 11019 21044 39535 49903 58004 69902 70087 333 11005 21022 60005 87/21 90710 91108
AAXX 18181 02418 45784 /3003 11013 21055 39779 49910 57001 8//// 333 10002 21020 83/50 85/58
AAXX 18181 02435 47029 /3105 11009 21021 39686 49872 58006 771// 8//// 333 10001 21010 85/01 87/13
AAXX 18181 02440 07428 /3203 11011 21015 60022 77177 333 11005 21012 69925 89/13 90710 91107
AAXX 18181 02452 07447 /3105 11014 21014 69932 77170 333 11005 21015 69915 87/12 90710 91108
AAXX 18181 02456 07325 /3302 10003 20000 39792 49834 57009 60062 77176 333 10021 20001 69945 89/09 90710 91106
AAXX 18181 02469 07/30 /3104 10001 21003 60032 77787 333 10012 20000 69925 90710 91107
AAXX 18181 02498 07267 /3008 10021 20014 39803 49819 54000 60052 72386 333 10042 20021 69905 87/05 90710 91109
AAXX 18181 02518 466// /3214 10045 21011 333 10046 20021 83/40 90710 91117
AAXX 18181 02520 15984 03007 11011 21047 39869 49937 52004 69902 333 10007 21013 60005 91010 90710 91110 90710 91208
AAXX 18181 02550 45484 /2804 11029 21029 39648 49924 51006 8//// 333 11003 21029 81/13 85/19
AAXX 18181 02562 07467 82906 10000 21014 39774 49889 51006 60022 77777 333 10005 21006 69905 84/16 85/22 88/32 91008 90710 91109 90710 91206
AAXX 18181 02563 07358 /2906 10003 20001 39842 49864 52012 60012 77177 333 10009 20001 69905 86/07 88/10 90710 91110
AAXX 18181 02565 07550 /2804 11001 21009 39782 49901 52013 60012 77171 333 10012 21001 69915 89/24 90710 91110
AAXX 18181 02589 07370 /3106 10028 20023 39813 49834 53014 60012 72361 333 10044 20013 69905 88/08 90710 91110
AAXX 18181 02590 47236 /3007 10012 20011 39800 49860 51016 771// 8//// 333 10029 20009 86/06 87/09 88/13
AAXX 18181 02618 07/69 /2904 10003 21036 39787 49951 53011 69922 70010 333 10005 21005 60005 90710 91109
AAXX 18181 02664 17984 02804 10005 21034 39865 49937 51013 69902 70086 333 10020 20002 60005 91007 90710 91107 90710 91204
AAXX 18181 02679 07256 /2911 10012 20010 39841 49885 52017 60022 76786 333 10022 20010 69945 87/05 90710 91116
AAXX 18184 64600 32960 40000 10248 20174 39426 40075 80002 333 10324 55027 59005 84080
AAXX 18184 64601 31940 30810 10240 20066 38979 48492 70411 80002 333 10309 59006 83080
AAXX 18184 64605 32960 00000 10235 20135 39336 40075 333 10318 59011
AAXX 18184 64610 32970 30000 10242 20140 3//// 4//// 80002 333 10335 5//// 83080
AAXX 18184 64650 31940 51202 10265 20169 39663 40073 70411 80002 333 10345 55088 59007 85080
AAXX 18184 64654 32960 50806 10228 20134 39524 40097 80002 333 10351 59007 85080
AAXX 18184 64655 32960 50000 10230 20170 39439 40088 80002 333 1//// 59002 85080
AAXX 18184 64656 32960 30000 10243 20209 39532 40086 80002 333 10322 58000 83080
AAXX 18184 64659 NIL
AAXX 18184 64660 32960 60000 10260 20180 39546 40071 80002 333 10333 58003 86080
AAXX 18184 64662 32960 60000 10277 20204 39569 40063 80002 333 10342 59004 86080
AAXX 18184 64665 32960 00000 10270 20227 3//// 4//// 333 10335 5////
AAXX 18181 12120 11470 62510 10019 20009 39959 49966 52025 60052 72582 8433/ 333 10049 20016 91117 93005
AAXX 18181 12250 11360 72203 10007 20006 39935 40025 52019 60012 72682 879// 333 10040 20004 91112 93001
AAXX 18181 12295 12475 52305 10017 21009 39849 40034 52025 69902 85800 333 10038 20013 91117 93000
AAXX 18181 12330 11465 72406 10027 20003 39934 40043 53016 69912 72582 879// 333 10034 20023 91011 91113 93091
AAXX 18181 12375 11580 62205 10031 21011 39926 40058 52021 69902 72582 86800 333 10044 20027 91113 93097
AAXX 18181 12424 12682 62404 10018 21011 39931 40086 51022 69902 86500 333 10053 20018 93097
AAXX 18181 40001 32970 03604 10043 20020 40287 52010 333 10130
AAXX 18181 40007 32560 60703 10084 20052 40285 51011 83550 333 10097 83630 86360
AAXX 18181 40025 32960 00602 10130 20073 40234 51011 333 10201
AAXX 18181 40045 32970 42302 10060 20015 40284 52014 84040 333 10138 84360
AAXX 18181 40061 32970 00501 10076 20036 40267 2017 333 10147
AAXX 18181 40080 32965 00304 10094 20041 39524 40246 52012 333 10160
AAXX 18181 40087 NIL
AAXX 18181 40095 NIL
AAXX 18181 10004 46/60 /2710 10057 20026 30065 40065 53006 222// 00084 333 10069 20037 55300 91119 91216
AAXX 18184 61766 32960 80207 10295 20097 30049 40087 80002 333 10325 59009 87075
AAXX 18184 61769 31959 73603 10300 20152 3//// 4//// 70522 80002 333 10310 5//// 87075
AAXX 18181 12160 11480 22105 10017 21007 39935 49988 52022 69912 70181 82500 333 10037 20016 91113 93097
AAXX 18181 12205 12682 52306 10019 20007 30017 40025 52018 69992 85500 333 10037 20019 91111 93000
AAXX 18181 12465 11577 52206 10016 21002 39835 40071 53024 69992 72782 85500 333 10031 20012 91114 93092
AAXX 18181 12566 12870 42104 10017 21036 39813 40112 51017 69922 84500 333 10041 21003 91115 93000
AAXX 18184 60710 11558 82006 10073 20064 30085 40166 53012 60252 78082 888// 333 10118 84820 86630
AAXX 18184 60714 11460 73012 10087 2//// 30165 40171 53013 60132 76162 878// 333 10120 84816 85630
AAXX 18184 60720 12560 62706 10105 20079 30108 40142 53008 60012 86800 333 10153 84820 83630
AAXX 18184 60728 NIL
AAXX 18184 60729 NIL
AAXX 18184 60731 NIL
AAXX 18184 60732 NIL
AAXX 18184 60734 12558 63606 10067 20048 39637 40164 52015 60002 86880 333 10120 84823 83630
AAXX 18184 60738 12560 60112 10042 20011 38904 40163 51010 60002 86200 333 10079 86823
AAXX 18184 60739 NIL
AAXX 18184 60740 12465 52811 10130 20057 30156 40158 53017 60002 85200 333 10153 85816
AAXX 18184 60742 NIL
AAXX 18184 60764 NIL
AAXX 18184 60770 12975 20104 10127 20080 30015 40154 53010 69942 82080 333 10154 82360
AAXX 18184 60772 NIL
AAXX 18184 60775 12560 61402 10121 20041 39801 40157 51012 69922 86800 333 10151 83823 84626
AAXX 18184 60780 12660 52602 10134 20049 39851 40154 52008 60002 82582 333 10184 82633 83070
AAXX 18181 13168 32998 00902 10018 21004 30061 40171 53011 333 10085
AAXX 18181 13174 32997 01403 10022 21002 30065 40168 52014 333 10078
AAXX 18181 13269 32998 00901 10002 21024 39943 40164 51009 333 10083
AAXX 18181 13274 32997 01403 10049 21002 30005 40168 52013 333 10084
AAXX 18181 13278 32998 02001 10017 21022 39944 40175 52013 333 10096
AAXX 18181 13378 32998 01204 11066 21076 38208 48427 52004 333 11043 4/009
AAXX 18181 13397 32998 01303 11015 21029 39647 40206 51017 333 10063
AAXX 18181 13457 32670 73401 10100 20006 30110 40117 58005 83870 333 10123 83840 85359
AAXX 18181 13481 NIL
AAXX 18181 12105 11464 82307 10018 20002 39954 49997 53017 60092 76181 885// 333 10029 20008 83712 91012 91114 93001
AAXX 18181 12195 11566 72307 10020 21003 39766 49994 52027 69922 70182 875// 333 10028 20013 91115 93091
AAXX 18181 12235 11682 22407 10005 21011 39792 40004 52019 69902 70181 82500 333 10024 20005 91113 93097
AAXX 18181 12270 11464 62407 10013 20006 39842 40026 53022 69922 72682 863// 333 10033 20008 91114 93092
AAXX 18181 12280 11467 82207 10018 20003 39843 40000 52025 69902 72682 885// 333 10040 20013 91012 91114 93097
AAXX 18181 12300 11480 72705 10016 20004 39951 40042 52023 60022 78382 879// 333 10032 20014 91110 93001
AAXX 18181 12400 11570 72507 10017 21002 39825 40063 53023 69902 72682 875// 333 10032 20013 91012 91112 93097
AAXX 18181 12435 11680 72208 10028 21014 39890 40063 52014 69902 70282 875// 333 10034 20019 91113 93097
AAXX 18181 12495 12680 22305 10012 21024 39799 40096 52028 69942 82500 333 10031 20007 91112 93000
AAXX 18181 12530 12765 81904 10027 21017 39896 40098 53021 60002 885// 333 10048 20025 91109 93000
AAXX 18181 12570 12670 72103 10009 21027 39779 40102 52022 69912 8555/ 333 10041 20007 91112 93000
AAXX 18181 12580 11670 52007 10014 21007 39860 40124 52028 60012 70381 85500 333 10040 20003 91114 93091
AAXX 18181 15501 12970 00000 10018 21001 30128 40173 52014 60002 333 10082 20018 555 587//
AAXX 18181 15505 12980 00904 10018 21042 39797 40178 52009 60002 333 10090 20010 555 564//
AAXX 18181 15511 12970 02701 10042 21027 30145 40185 52015 60002 333 10104 20022 555 561//
AAXX 18181 15514 12972 00000 10040 21019 30137 40173 52017 60002 333 10082 20039 555 565//
AAXX 18181 15530 12970 00000 10005 21034 39953 40198 52028 60002 333 10090 20005 555 575//
AAXX 18181 15533 12970 00501 10036 20001 30120 40152 52019 60002 333 10079 20036 555 578//
AAXX 18181 15550 12970 02501 10040 21003 30155 40175 51024 60002 333 10074 20040 555 573//
AAXX 18181 15561 12975 02704 10018 21007 30185 40193 52034 60002 222// 00095 2//00 333 10080 20015 555 583// 92014 92418
AAXX 18181 15562 12983 22904 10060 20015 30113 40186 52020 60002 82030 222// 2//01 333 10074 20060 555 573// 92024 92428
AAXX 18181 15601 12965 00000 10006 21035 39537 40171 52012 60002 333 10080 20006 555 574//
AAXX 18181 15605 12972 23601 11033 21047 39318 40192 52010 60002 80001 333 10043 21033 555 589//
AAXX 18181 15613 11982 61802 11104 21116 37652 47976 53010 60002 70221 85011 333 11096 21118 48035 555 590//
AAXX 18181 15628 12682 30000 10020 21026 39927 40190 52018 60002 81231 333 10085 20034 555 571//
AAXX 18181 15642 12680 40000 10030 20000 30020 40192 52024 60002 83501 333 10085 20028 555 581//
AAXX 18181 15661 12570 62703 10070 21009 30140 40176 52012 60002 86500 222// 20401 333 10090 20065 555 557// 92022 92428
AAXX 18181 15726 11/02 91502 11047 21050 38223 48491 52016 60002 74542 333 10005 21048 41999 555 598//
AAXX 18184 60764 12962 00000 10120 20040 30105 40157 53014 60002 333 10175
AAXX 18181 13173 32998 01402 10029 20003 30062 40164 52013 333 10080
AAXX 18181 13180 32998 01802 10003 20000 30064 40178 52014 333 10075
AAXX 18181 13266 32998 00803 10020 21005 30059 40163 53009 333 10082
AAXX 18181 13369 32697 50901 11035 21053 38934 48409 53002 85500 333 10022 4/004
AAXX 18181 13383 32998 00000 10005 21012 39956 40166 51006 333 10089
AAXX 18181 13384 32997 00901 11011 21029 30018 40176 52010 333 10090
AAXX 18181 13389 32998 00000 10000 21015 39884 40174 51008 333 10069
AAXX 18181 13477 NIL
AAXX 18181 37985 42596 61801 10040 20033 30291 40276 52020 86500 333 10106
AAXX 18181 37989 42496 53001 10063 20052 40288 52018 85700 333 10099
AAXX 18181 37661 42998 02301 10026 20005 39396 40273 52011 333 10074
AAXX 18181 37749 42998 63202 10039 20011 30197 40317 52024 86080 333 10089 555 53004
AAXX 18181 37925 42997 80000 10080 20061 30298 40269 52016 8807/ 333 10110 555 53001
AAXX 18181 37832 32997 00000 10019 2006 40289 52029 333 10091
AAXX 18181 37864 32497 81506 1008 20061 40283 52020 885// 333 10093 88618
AAXX 18181 37905 42996 00000 10006 21005 40283 52024 333 10082
AAXX 18181 37735 42996 70000 10025 21002 39828 40212 52016 87007 333 10065
AAXX 18181 37740 42998 00501 10013 20050 39434 40233 52006 333 10070
AAXX 18181 37675 42496 82302 10043 20006 39600 40269 51015 8802/ 333 10064 555 53005
AAXX 18181 37851 42597 80000 10095 20076 30222 40292 52022 882// 333 10112
AAXX 18181 01400 41799 43312 10058 21007 40079 52017 70110 84200 91810 22200 06081 10708 70038 333 91116
AAXX 18181 01300 41498 53211 10042 20011 40043 57001 70382 85/// 22200 02062 10807 70036 333 91114
AAXX 18184 67002 32580 20803 10268 20239 30081 40115 82800 333 10322 58001 81820 924/7
AAXX 18184 67009 NIL
AAXX 18184 67027 32582 22612 10287 20249 30061 40082 51023 82232 333 10318 82820 555 81360 81073
AAXX 18184 67083 31470 20000 10195 20165 38690 48465 51013 71311 82900 333 10279 81817 81917 94968 95818
AAXX 18184 67095 31465 70206 10276 20248 30045 40051 51015 71522 8693/ 333 10317 83817 81917 85633 94966 94967 95836 95837
AAXX 18184 67197 12480 42006 10225 20195 30076 40086 51011 60162 84800 333 10260 83817 555 81633
AAXX 18184 78615 32482 33604 10268 20199 30080 40221 58010 83200 333 10270 20194 30/// 56800 57844 58010 83818
AAXX 18184 78627 32582 40000 10174 20102 38198 58007 84500 333 10186 20075 30/// 56200 58004 84622
AAXX 18184 78637 11482 82704 10228 20217 30185 40201 58009 60051 76062 8452/ 333 10280 20190 32/// 5629/ 84616 88459
AAXX 18184 78641 32482 63618 10186 20120 38578 40170 58005 86500 333 10208 20134 30/// 56800 58008 86616
AAXX 18184 78647 31982 01810 10306 20238 30133 40140 58011 70240 333 10312 20202 30/// 58003
AAXX 18184 78615 32482 33604 10268 20199 30080 40221 58010 83200 333 10270 20194 30/// 56800 57844 58010 83818
AAXX 18184 78627 32582 40000 10174 20102 38198 58007 84500 333 10186 20075 30/// 56200 58004 84622
AAXX 18184 78637 11482 82704 10228 20217 30185 40201 58009 60051 76062 8452/ 333 10280 20190 32/// 5629/ 84616 88459
AAXX 18184 78641 32482 63618 10186 20120 38578 40170 58005 86500 333 10208 20134 30/// 56800 58008 86616
AAXX 18184 78647 31982 01810 10306 20238 30133 40140 58011 70240 333 10312 20202 30/// 58003
AAXX 18184 64820 32460 62408 10278 20239 30084 40093 82502 333 10305 59004 82613 86070
AAXX 18181 40650 12960 03402 10098 20033 40262 52011 60002
AAXX 18181 40676 12960 02903 10138 20018 40244 51010 60002
AAXX 18181 40662 12960 03504 10112 20017 40238 52009 60002
AAXX 18181 40670 12960 03502 10135 20048 40250 52013 60002
AAXX 18181 40608 12960 00000 10064 20019 40282 52016 60002
AAXX 18181 40621 12960 00000 10127 20056 40272 52010 60002
AAXX 18181 40656 12960 00000 10124 20033 40239 52009 60002
AAXX 18181 40627 12960 00000 10086 20046 40277 52013 60002
AAXX 18181 40629 12960 00000 10070 20037 40293 52014 60002
AAXX 18181 40634 12960 00000 10104 20046 40272 52025 60002
AAXX 18181 40665 12960 02803 10136 20065 40253 52011 60002
AAXX 18181 40674 12960 03204 10124 20002 40249 52014 60002
AAXX 18181 40672 12960 00000 10123 20052 40257 51013 60002
AAXX 18181 40691 12960 02102 10125 20044 40248 52008 60002
AAXX 18181 40690 12960 02704 10126 20066 40233 52009 60002
AAXX 18181 40680 12960 03203 10130 20042 40232 53009 60002
AAXX 18181 40664 12960 03502 10108 20029 40243 52010 60002
AAXX 18181 40643 12960 01203 10080 20033 40281 52017 60002
AAXX 18181 40689 12960 02705 10140 20061 40240 51009 60002
AAXX 18181 02464 47222 /2904 10004 20000 39822 49839 52003 771// 8//// 333 10013 20004 81/04 83/05 85/07 87/10
AAXX 18181 02500 05/99 /3108 10023 21032 39909 49951 50003 60002 333 10024 21002 60005 90710 91112
AAXX 18181 02513 NIL
AAXX 18181 02615 07580 /2811 10034 20011 39981 49985 52012 69902 70086 333 10040 20024 60005 90710 91115
AAXX 18181 02635 07/82 /2805 10023 21003 60012 70060 333 10029 20011 60005 90710 91109
AAXX 18184 61980 11560 71707 10242 20217 40107 60012 72582 83832 333 10297 59011 83826 83368 90710 91111 924/7 555 69945
AAXX 18184 78906 11476 52502 10296 20218 30121 40126 69901 71582 85401 333 10296 20202 59003 85818 90930
AAXX 18184 65201 31950 62004 10279 20241 30057 40116 70522 80038 333 10342 56000 86280 91106
AAXX 18181 33088 12597 52503 10013 21004 39916 40110 52035 69962 85500 333 10033
AAXX 18181 33177 32997 01704 10016 21012 39868 40108 52028 333 10040
AAXX 18181 33261 12997 72204 10034 20011 39941 40124 52043 60072 87030 333 10068
AAXX 18181 33275 11997 72203 10023 20010 39910 40136 52046 60072 70282 87030 333 10062
AAXX 18181 33301 11597 72207 10013 21006 39840 40126 52034 69952 70282 84530 333 10027
AAXX 18181 33325 11997 72301 10016 21009 39867 40138 52041 69902 70281 87030 333 10035
AAXX 18181 33377 12597 72402 10032 21006 39953 40149 52042 60042 87500 333 10074 87625
AAXX 18181 33415 11997 12305 10000 21018 39740 40146 52030 69902 70281 80001 333 10037
AAXX 18181 33429 11697 52004 10012 21013 39724 40154 52031 69902 70282 85500 333 10024 85646
AAXX 18181 33466 32689 72104 10030 21015 39962 40152 52040 87500 333 10053 87649
AAXX 18181 33526 32960 02004 10003 21044 39802 40148 52024 333 10056
AAXX 18181 33562 32997 52404 10018 21036 39792 40159 52038 85030 333 10036
AAXX 18181 33614 12963 72501 10032 20006 30045 40151 52030 69972 87030 333 10081
AAXX 18181 33761 32998 82202 10028 20001 39947 40173 52036 8805/ 333 10065
AAXX 18181 33902 11996 01901 10031 20021 30103 40170 53037 69902 71011 333 10086
AAXX 18181 33983 11697 71602 10092 20081 30126 40187 52025 69902 78082 87500 333 10133 85934
AAXX 18181 34415 11497 82304 10061 20045 30070 40166 52041 60022 70265 886// 333 10063
AAXX 18181 34523 11597 81703 10062 20043 30107 40183 52024 69902 72162 885// 333 10062 88622
AAXX 18181 34712 12998 72603 10061 20056 30100 40186 52029 60042 87050 333 10061
AAXX 18184 08055 12965 03208 10014 21012 39191 48538 53001 69902 333 10062 95090
AAXX 18184 64500 32460 72412 10272 20241 30073 40086 875// 333 10290 59003 84610 87640
AAXX 18184 64501 32360 82006 10266 20236 3//// 4//// 885// 333 10290 5//// 83608 88626
AAXX 18184 64550 11356 8//// 10250 20224 30/// 40/// 60042 76062 885// 333 10291 5//// 85608 88613
AAXX 18184 64570 31565 83602 10260 20231 39595 40099 71792 8592/ 333 10298 58002 85626 81930 88466 94944 95834
AAXX 18184 68299 36/// /0904 10144 20110 38962 48547 52011 333 10216 20144 91007 555 91022
AAXX 18184 61974 11465 60101 10258 20247 40101 60032 72998 85902 333 10327 55089 59001 81915 84816
AAXX 18184 61986 12470 20606 10274 20254 40104 60002 82802 333 10322 59002 82818
AAXX 18184 61988 12470 50816 10255 20214 40132 60002 83802 333 10278 55066 58004 81818 83650 91126
AAXX 18184 61989 NIL
AAXX 18184 61990 11468 60512 10264 20229 40113 60482 71522 86842 333 10285 55042 59005 86816 83650
AAXX 18184 61995 11465 60607 10223 20211 39637 60052 78082 85842 333 10266 55037 58000 84816 91118
AAXX 18184 60030 01468 60121 10197 20147 30166 40222 55001 60002 72051 868// 333 10221 60007 92437
AAXX 18184 89564 45/// /1424 10015 21063 39884 49904 56019
AAXX 18184 89570 46/// /1032 11069 21109 39114 55008
AAXX 18184 89571 45/// /0919 10008 21122 39743 49771 56014
AAXX 18184 89573 NIL
AAXX 18184 89610 NIL
AAXX 18184 89611 45/// /0628 11008 21041 39797 49849 51025
AAXX 18184 89614 NIL
AAXX 18184 89615 46/// /0607 11054 21072 38972 51038
AAXX 18184 89807 NIL
AAXX 18184 89809 NIL
AAXX 18184 91938 01580 12404 10288 20218 30139 40141 51014 60002 702// 81202 333 10288 20238 60007 81823 90710 91105 555 60005 11606 58002
AAXX 18184 91958 02581 50607 10250 20205 30177 40179 53011 60001 84202 333 56201 60007 84823 83073 90710 91111 555 60005 10711 58015
AAXX 18184 91925 02580 20409 10288 20191 30078 40138 50006 60001 82200 333 56100 60007 82823 90710 91118 555 60005 10418 58005
AAXX 18184 91929 04/// /0711 10291 20213 30134 40137 51018 69902 761// 333 10291 20261 69907 90710 91115 555 69905
AAXX 18184 91943 16/// /0907 10285 20218 30141 40143 51014 60052 333 10287 58008
AAXX 18184 91944 06/// /0804 10280 20211 30150 40153 51014 69942 333 10280 20245 69927 90710 91108 555 60005
AAXX 18184 91948 02482 41006 10272 20195 30072 40173 51013 60001 84200 333 56200 60007 84816 90710 91110 555 60005 10910 58025
AAXX 18184 91945 36/// /0606 10282 20227 30148 40153 51016
AAXX 18181 40656 12960 00000 10124 20033 40239 52009 60002
AAXX 18181 40662 12960 03504 10112 20017 40238 52009 60002
AAXX 18181 40664 12960 03502 10108 20029 40243 52010 60002
AAXX 18181 40665 12960 02803 10136 20065 40253 52011 60002
AAXX 18181 40674 12960 03204 10124 20002 40249 52014 60002
AAXX 18181 40676 12960 02903 10138 20018 40244 51010 60002
AAXX 18181 40690 12960 02704 10126 20066 40233 52009 60002
AAXX 18181 40691 12960 02102 10125 20044 40248 52008 60002
AAXX 18181 40621 12960 00000 10127 20056 40272 52010 60002
AAXX 18181 40629 12960 00000 10070 20037 40293 52014 60002
AAXX 18181 40650 12960 03402 10098 20033 40262 52011 60002
AAXX 18184 78388 111576 70913 10282 20202 30144 40153 60001 70522 82842 333 01299 10297 20230 58003 82822 87070
AAXX 18184 92001 NIL
AAXX 18184 92014 NIL
AAXX 18184 92044 11470 60000 10248 20247 30050 40056 5//// 60131 701// 83831
AAXX 18184 92047 NIL
AAXX 18184 92100 NIL
AAXX 18184 94299 46/// /1219 10270 20213 30066 40076
AAXX 18184 94300 46/// /1719 10219 20172 30080 40090
AAXX 18184 94302 46/// /1907 10221 20189 30071 40077
AAXX 18184 94312 46/// /2405 10236 20227 30054 40063
AAXX 18184 94313 NIL
AAXX 18184 94317 46/// /3207 10309 20086 39457 40024
AAXX 18184 94319 46/// /2907 10307 20106 39706 40027
AAXX 18184 94324 NIL
AAXX 18184 94326 46/// /0000 10227 20173 39462 40061
AAXX 18184 94327 46/// /0107 10220 20214 39718 40082
AAXX 18184 94332 46/// /0000 10224 20214 39685 40061
AAXX 18184 94333 NIL
AAXX 18184 94341 46/// /0000 10239 20183 39837 40066
AAXX 18184 94346 46/// ///// 10233 20191 39870 40085
AAXX 18184 94363 46/// /0605 10202 20174 39901 40115
AAXX 18184 94366 NIL
AAXX 18184 94367 46/// /0711 10223 20200 30069 40110
AAXX 18184 94374 46/// /1305 10205 20167 30112 40128
AAXX 18184 94388 46/// /1012 10228 20139 30126 40131
AAXX 18184 94393 46/// /1118 10248 30088 40100 56003
AAXX 18184 94394 46/// /1115 10233 30113 40121 55002
AAXX 18184 94403 46/// /1810 10198 20136 30070 40111
AAXX 18184 94429 46/// /1913 10219 20104 39619 40071
AAXX 18184 94430 46/// /1708 10260 20008 39484 40051
AAXX 18184 94449 46/// /2105 10262 20068 39529 40043
AAXX 18184 94451 NIL
AAXX 18184 94461 46/// /0907 10226 20099 39405 40057
AAXX 18184 94462 46/// /2008 10196 20140 39529 40070
AAXX 18184 94477 NIL
AAXX 18184 94488 NIL
AAXX 18184 94893 46/// /0508 10174 20176 39927 40041
AAXX 18184 94907 46/// /2806 10182 20175 30033 40043
AAXX 18184 94910 46/// /0107 10181 20173 39830 40074
AAXX 18184 94926 46/// /3411 10168 20166 39434 40088
AAXX 18184 94935 46/// /0110 10189 20152 30049 40075
AAXX 18184 94954 46/// /0413 10163 20156 39920 40029
AAXX 18184 94956 46/// /2904 10162 20137 39998 40024
AAXX 18184 94975 NIL
AAXX 18184 94983 46/// /0426 10164 20158 30047 40072
AAXX 18184 94995 46/// /1204 10179 20102 30162 40170
AAXX 18184 94996 46/// /2009 10179 20115 39994 40122
AAXX 18184 94997 NIL
AAXX 18184 94998 46/// /2012 10067 20049 30190 40201
AAXX 18184 95111 46/// /3003 10260 20242 30017 40053
AAXX 18184 95205 46/// /3107 10285 20228 30045 40052
AAXX 18184 95322 NIL
AAXX 18184 95448 46/// /2008 10257 20036 39492 40038
AAXX 18184 95458 46/// /1409 10202 20079 39840 40094
AAXX 18184 95480 NIL
AAXX 18184 95481 46/// /2106 10241 20104 30043 40087
AAXX 18184 95482 46/// /0207 10244 20215 30027 40081
AAXX 18184 95485 46/// /2508 10211 20177 39879 40077
AAXX 18184 95492 46/// /3608 10206 20189 39938 40089
AAXX 18184 95527 46/// /0314 10193 20134 39875 40123
AAXX 18184 95634 46/// /1612 10179 20087 39695 40087
AAXX 18184 95637 46/// /1307 10169 20126 39780 40107
AAXX 18184 95646 46/// /0610 10178 20131 39885 40068
AAXX 18184 95666 NIL
AAXX 18184 95719 46/// /0205 10188 20157 39771 40094
AAXX 18184 95762 46/// /0501 10175 20124 39667 40115
AAXX 18184 95826 NIL
AAXX 18184 95839 46/// /2712 10162 20120 39917 40073
AAXX 18184 95864 NIL
AAXX 18184 95909 NIL
AAXX 18184 95954 NIL
AAXX 18184 95966 46/// /2209 10142 20128 39868 40066
AAXX 18184 96995 46/// /1407 10245 20235 39783 40077
AAXX 18184 96996 45/// /1208 10262 20204 30093 40097 58009
AAXX 18184 41241 36/// /1608 10240 20099 30144 40182 333 0E025 10263 58013
AAXX 18184 41242 36/// /2010 10211 20136 30171 40195 333 0E022 10272 58013
AAXX 18184 41244 36/// /3503 10175 20121 39849 48328 333 0E018 10250 58022
AAXX 18184 41246 32560 22603 10224 20179 30179 40183 81501 333 10259 58014 81630
AAXX 18184 41251 32960 02703 10121 21096 38062 48182 333 10180 58012
AAXX 18184 41252 36/// /3106 10190 20020 39813 40103 333 0E020 10293 58018
AAXX 18184 41253 36/// /1802 10195 20165 39812 40196 333 0E021 10276 58011
AAXX 18184 41254 36/// /0000 10116 21097 37989 47994 333 0E006 10178 58028
AAXX 18184 41255 36/// /0304 10194 21011 39644 40202 333 0E020 10294 58007
AAXX 18184 41256 32960 02305 10216 20164 30174 40184 333 10259 58011
AAXX 18184 41257 36/// /0202 10197 20163 39705 40195 333 0E019 10281 58010
AAXX 18184 41258 36/// /1402 10237 20176 30170 40175 333 0E/// 10249 58008
AAXX 18184 41259 NIL
AAXX 18184 41262 NIL
AAXX 18184 41263 36/// /0000 10188 21030 39503 40195 333 0E018 10285 58008
AAXX 18184 41264 NIL
AAXX 18184 41265 36/// /1102 10211 20091 39645 40199 333 0E022 10291 58013
AAXX 18184 41267 35/84 /2204 10219 20150 30167 40183 333 0E022 10251 58013
AAXX 18184 41268 NIL
AAXX 18184 41270 36/70 /0603 10224 20151 30130 40142 333 0E022 10249 58016
AAXX 18184 41275 NIL
AAXX 18184 41287 36/// /1303 10195 20158 30142 40210 333 0E022 10288 58017
AAXX 18184 41288 36/// ///// 10218 20172 30165 40189 333 0E022 10267 58018
AAXX 18184 41290 NIL
AAXX 18184 41295 NIL
AAXX 18184 41304 NIL
AAXX 18184 41312 36/// /3005 10227 20166 30136 40175 333 0E/// 10292 58019
AAXX 18184 41314 32960 00305 10176 20042 39695 40208 333 10256 58023
AAXX 18184 41315 36/// /3616 10171 20040 39192 42829 333 0E/// 10220 58017
AAXX 18184 41316 32960 23508 10242 20051 30152 40178 80001 333 10299 58021 82075
AAXX 18184 94299 46/// /1219 10270 20213 30066 40076
AAXX 18184 94300 46/// /1719 10219 20172 30080 40090
AAXX 18184 94302 46/// /1907 10221 20189 30071 40077
AAXX 18184 94312 46/// /2405 10236 20227 30054 40063
AAXX 18184 94313 NIL
AAXX 18184 94317 46/// /3207 10309 20086 39457 40024
AAXX 18184 94319 46/// /2907 10307 20106 39706 40027
AAXX 18184 94324 NIL
AAXX 18184 94326 46/// /0000 10227 20173 39462 40061
AAXX 18184 94327 46/// /0107 10220 20214 39718 40082
AAXX 18184 94332 46/// /0000 10224 20214 39685 40061
AAXX 18184 94333 NIL
AAXX 18184 94341 46/// /0000 10239 20183 39837 40066
AAXX 18184 94346 46/// ///// 10233 20191 39870 40085
AAXX 18184 94363 46/// /0605 10202 20174 39901 40115
AAXX 18184 94366 NIL
AAXX 18184 94367 46/// /0711 10223 20200 30069 40110
AAXX 18184 94374 46/// /1305 10205 20167 30112 40128
AAXX 18184 94388 46/// /1012 10228 20139 30126 40131
AAXX 18184 94393 46/// /1118 10248 30088 40100 56003
AAXX 18184 94394 46/// /1115 10233 30113 40121 55002
AAXX 18184 94403 46/// /1810 10198 20136 30070 40111
AAXX 18184 94429 46/// /1913 10219 20104 39619 40071
AAXX 18184 94430 46/// /1708 10260 20008 39484 40051
AAXX 18184 94449 46/// /2105 10262 20068 39529 40043
AAXX 18184 94451 NIL
AAXX 18184 94461 46/// /0907 10226 20099 39405 40057
AAXX 18184 94462 46/// /2008 10196 20140 39529 40070
AAXX 18184 94477 NIL
AAXX 18184 94488 NIL
AAXX 18184 92001 NIL
AAXX 18184 92014 NIL
AAXX 18184 92044 11470 60000 10248 20247 30050 40056 5//// 60131 701// 83831
AAXX 18184 92047 NIL
AAXX 18184 92100 NIL
AAXX 18184 94102 46/// /2507 10297 20259 30050 40059
AAXX 18184 94103 NIL
AAXX 18184 94120 46/// /0804 10256 20249 30007 40047
AAXX 18184 94122 46/// /0704 10268 20241 30038 40046
AAXX 18184 94131 46/// /0000 10253 20247 39899 40049
AAXX 18184 94132 NIL
AAXX 18184 94147 NIL
AAXX 18184 94150 46/// /2203 10253 20244 39983 40042
AAXX 18184 94151 46/// /0000 10278 20248 30024 4////
AAXX 18184 94170 46/// /1102 10245 20239 30035 40057
AAXX 18184 94200 NIL
AAXX 18184 94203 46/// /2607 10286 20241 30042 40052
AAXX 18184 94206 46/// /3610 10274 20248 39921 40049
AAXX 18184 94207 46/// /2511 10269 30048 40056 58018
AAXX 18184 94211 NIL
AAXX 18184 94212 46/// /0901 10269 20224 39574 40035
AAXX 18184 94216 46/// /3209 10257 20221 30006 40056
AAXX 18184 94236 NIL
AAXX 18184 94238 46/// /2409 10211 20204 39646 40059
AAXX 18184 94248 NIL
AAXX 18184 94255 46/// /1601 10235 20218 39808 40064
AAXX 18184 94268 46/// /0000 10247 20243 30055 40067
AAXX 18184 94287 46/// /1910 10247 20220 30077 40086
AAXX 18184 94290 NIL
AAXX 18184 94294 46/// /1307 10242 20200 30088 40098
AAXX 18184 94296 NIL
AAXX 18184 94298 46/// /1320 10255 30082 40088 56010
AAXX 18184 95641 NIL
AAXX 18184 94102 46/// /2507 10297 20259 30050 40059
AAXX 18184 94103 NIL
AAXX 18184 94120 46/// /0804 10256 20249 30007 40047
AAXX 18184 94122 46/// /0704 10268 20241 30038 40046
AAXX 18184 94131 46/// /0000 10253 20247 39899 40049
AAXX 18184 94132 NIL
AAXX 18184 94147 NIL
AAXX 18184 94150 46/// /2203 10253 20244 39983 40042
AAXX 18184 94151 46/// /0000 10278 20248 30024 4////
AAXX 18184 94170 46/// /1102 10245 20239 30035 40057
AAXX 18184 94200 NIL
AAXX 18184 94203 46/// /2607 10286 20241 30042 40052
AAXX 18184 94206 46/// /3610 10274 20248 39921 40049
AAXX 18184 94207 46/// /2511 10269 30048 40056 58018
AAXX 18184 94211 NIL
AAXX 18184 94212 46/// /0901 10269 20224 39574 40035
AAXX 18184 94216 46/// /3209 10257 20221 30006 40056
AAXX 18184 94236 NIL
AAXX 18184 94238 46/// /2409 10211 20204 39646 40059
AAXX 18184 94248 NIL
AAXX 18184 94255 46/// /1601 10235 20218 39808 40064
AAXX 18184 94268 46/// /0000 10247 20243 30055 40067
AAXX 18184 94287 46/// /1910 10247 20220 30077 40086
AAXX 18184 94290 NIL
AAXX 18184 94294 46/// /1307 10242 20200 30088 40098
AAXX 18184 94296 NIL
AAXX 18184 94298 46/// /1320 10255 30082 40088 56010
AAXX 18184 95641 NIL
AAXX 18184 94500 NIL
AAXX 18184 94510 46/// /2008 10191 20181 39776 40116
AAXX 18184 94515 46/// /0310 10199 20149 39772 40114
AAXX 18184 94552 46/// /0905 10138 20118 39675 40134
AAXX 18184 94578 46/// /2404 10181 20155 30135 40146
AAXX 18184 94584 46/// /0911 10210 20132 30026 40135
AAXX 18184 94601 46/// /2212 10180 20112 30100 40117
AAXX 18184 94610 46/// /1907 10165 20121 30092 40115
AAXX 18184 94637 46/// /1709 10193 20107 39646 40061
AAXX 18184 94638 46/// /1905 10157 20145 30075 40106
AAXX 18184 94642 NIL
AAXX 18184 94643 NIL
AAXX 18184 94647 46/// /0310 10160 20139 39959 40077
AAXX 18184 94651 46/// /0507 10139 20137 30022 40098
AAXX 18184 94653 46/// /0504 10120 20112 30090 40108
AAXX 18184 94659 46/// /1709 10178 20118 39917 40108
AAXX 18184 94672 46/// /2510 10176 20141 30089 40099
AAXX 18184 94691 46/// /2106 10177 20148 39770 40089
AAXX 18184 94693 46/// /2604 10165 20149 30031 40091
AAXX 18184 94700 NIL
AAXX 18184 94703 46/// /0305 10194 20179 39959 40081
AAXX 18184 94710 46/// /0308 10197 20178 39827 40073
AAXX 18184 94729 46/// /3603 10159 20130 39260 40091
AAXX 18184 94750 46/// /0000 10176 20163 39981 40103
AAXX 18184 94767 46/// /0212 10206 20163 30107 40113
AAXX 18184 94776 46/// /0306 10193 20149 30103 40113
AAXX 18184 94791 NIL
AAXX 18184 94802 46/// /3206 10143 20136 30031 40112
AAXX 18184 94804 46/// /2610 10168 20137 30055 40092
AAXX 18184 94807 NIL
AAXX 18184 94821 46/// /3009 10149 20137 39980 40061
AAXX 18184 94842 46/// /3113 10160 20137 39949 40047
AAXX 18184 94847 NIL
AAXX 18184 94850 46/// /3211 10153 20153 39988 40033
AAXX 18184 94865 46/// /3105 10176 20165 30024 40048
AAXX 18184 94866 46/// /3507 10174 20162 39912 40050
AAXX 18184 94875 46/// /1903 10190 20187 39921 40053
BBXX UCKZ 18181 99671 30447 41295 80713 11006 21012 49902 57058 77372 8872/ 22251 01014 2//// ICE 57895
AAXX 18184 94893 46/// /0508 10174 20176 39927 40041
AAXX 18184 94907 46/// /2806 10182 20175 30033 40043
AAXX 18184 94910 46/// /0107 10181 20173 39830 40074
AAXX 18184 94926 46/// /3411 10168 20166 39434 40088
AAXX 18184 94935 46/// /0110 10189 20152 30049 40075
AAXX 18184 94954 46/// /0413 10163 20156 39920 40029
AAXX 18184 94956 46/// /2904 10162 20137 39998 40024
AAXX 18184 94975 NIL
AAXX 18184 94983 46/// /0426 10164 20158 30047 40072
AAXX 18184 94995 46/// /1204 10179 20102 30162 40170
AAXX 18184 94996 46/// /2009 10179 20115 39994 40122
AAXX 18184 94997 NIL
AAXX 18184 94998 46/// /2012 10067 20049 30190 40201
AAXX 18184 95111 46/// /3003 10260 20242 30017 40053
AAXX 18184 95205 46/// /3107 10285 20228 30045 40052
AAXX 18184 95322 NIL
AAXX 18184 95448 46/// /2008 10257 20036 39492 40038
AAXX 18184 95458 46/// /1409 10202 20079 39840 40094
AAXX 18184 95480 NIL
AAXX 18184 95481 46/// /2106 10241 20104 30043 40087
AAXX 18184 95482 46/// /0207 10244 20215 30027 40081
AAXX 18184 95485 46/// /2508 10211 20177 39879 40077
AAXX 18184 95492 46/// /3608 10206 20189 39938 40089
AAXX 18184 95527 46/// /0314 10193 20134 39875 40123
AAXX 18184 95634 46/// /1612 10179 20087 39695 40087
AAXX 18184 95637 46/// /1307 10169 20126 39780 40107
AAXX 18184 95646 46/// /0610 10178 20131 39885 40068
AAXX 18184 95666 NIL
AAXX 18184 95719 46/// /0205 10188 20157 39771 40094
AAXX 18184 95762 46/// /0501 10175 20124 39667 40115
AAXX 18184 95826 NIL
AAXX 18184 95839 46/// /2712 10162 20120 39917 40073
AAXX 18184 95864 NIL
AAXX 18184 95909 NIL
AAXX 18184 95954 NIL
AAXX 18184 95966 46/// /2209 10142 20128 39868 40066
AAXX 18184 96995 46/// /1407 10245 20235 39783 40077
AAXX 18184 96996 45/// /1208 10262 20204 30093 40097 58009
BBXX PCAM 18183 99412 31732 41598 41404 10130 20063 40173 52004 70111 83440 22200 20100 30000 80095
BBXX VRAE3 18184 99021 11074 41396 70324 10275 20248 40079 51012 71301 8//// 22214 00290 2//// 3//// 4//// 5//// 80256
BBXX 3ECI3 18184 99411 31732 41597 41805 10140 20106 40151 54000 70111 84431 22200 00180 20501 30000 80122
BBXX V2OG2 18183 99202 31101 41998 02017 10255 20212 40096 58013 70000 80000 22233 20402 318// 40503 80225
BBXX VNSZ 18164 99402 31458 46/// /0828 10165 20153 30005 40031 57006 22245 04163 85158
BBXX 9HA2479 18164 99334 31520 46/// /0422 10201 20165 30097 40126 57033 22254 04202 85178
BBXX VROB 18164 99285 31538 46/// /0508 10218 20129 30125 40150 57012 22244 04248 85163
BBXX C6FS9 18164 99271 31534 46/// /1306 10207 20152 30121 40157 57015 22243 04241 85172
BBXX FHZI 18164 99588 31450 46/// /3514 10024 2//// 30123 40134 57016 22243 04013
BBXX VNAH 18164 99333 31157 46/// /1805 10171 20108 30101 40125 57003 22200 85134
BBXX VNSZ 18174 99405 31460 46/// /0836 10165 20154 39993 40019 57017 22235 04163 85158
BBXX C6FS9 18174 99273 31532 46/// /0306 10219 20147 30119 40155 57010 22252 04241 85173
BBXX 9HA2479 18174 99336 31518 46/// /0423 10203 20171 30090 40119 57028 22254 04210 85182
BBXX VROB 18174 99288 31538 46/// /0408 10219 20134 30125 40150 57005 22244 04254 85166
BBXX FHZI 18174 99590 31450 46/// /3614 10026 2//// 30120 40131 57016 22243 04014
BBXX VNAH 18174 99333 31157 46/// /1605 10161 20104 30098 40122 57008 22200 85128
BBXX VNSZ 18184 99409 31462 46/// /0840 10163 20153 39998 40024 57003 22235 04165 85157
BBXX C6FS9 18184 99274 31531 46/// /2705 10197 20159 30118 40154 57005 22242 04236 85172
BBXX 9HA2479 18184 99338 31515 46/// /0420 10202 20174 30086 40115 57025 22254 04206 85183
BBXX ZCBU6 17164 99368 31749 41498 32620 10188 20158 40055 57016 70222 821// 22234 00190 20402 327// 40904 5//// 80170
AAXX 18184 94500 NIL
AAXX 18184 94510 46/// /2008 10191 20181 39776 40116
AAXX 18184 94515 46/// /0310 10199 20149 39772 40114
AAXX 18184 94552 46/// /0905 10138 20118 39675 40134
AAXX 18184 94578 46/// /2404 10181 20155 30135 40146
AAXX 18184 94584 46/// /0911 10210 20132 30026 40135
AAXX 18184 94601 46/// /2212 10180 20112 30100 40117
AAXX 18184 94610 46/// /1907 10165 20121 30092 40115
AAXX 18184 94637 46/// /1709 10193 20107 39646 40061
AAXX 18184 94638 46/// /1905 10157 20145 30075 40106
AAXX 18184 94642 NIL
AAXX 18184 94643 NIL
AAXX 18184 94647 46/// /0310 10160 20139 39959 40077
AAXX 18184 94651 46/// /0507 10139 20137 30022 40098
AAXX 18184 94653 46/// /0504 10120 20112 30090 40108
AAXX 18184 94659 46/// /1709 10178 20118 39917 40108
AAXX 18184 94672 46/// /2510 10176 20141 30089 40099
AAXX 18184 94691 46/// /2106 10177 20148 39770 40089
AAXX 18184 94693 46/// /2604 10165 20149 30031 40091
AAXX 18184 94700 NIL
AAXX 18184 94703 46/// /0305 10194 20179 39959 40081
AAXX 18184 94710 46/// /0308 10197 20178 39827 40073
AAXX 18184 94729 46/// /3603 10159 20130 39260 40091
AAXX 18184 94750 46/// /0000 10176 20163 39981 40103
AAXX 18184 94767 46/// /0212 10206 20163 30107 40113
AAXX 18184 94776 46/// /0306 10193 20149 30103 40113
AAXX 18184 94791 NIL
AAXX 18184 94802 46/// /3206 10143 20136 30031 40112
AAXX 18184 94804 46/// /2610 10168 20137 30055 40092
AAXX 18184 94807 NIL
AAXX 18184 94821 46/// /3009 10149 20137 39980 40061
AAXX 18184 94842 46/// /3113 10160 20137 39949 40047
AAXX 18184 94847 NIL
AAXX 18184 94850 46/// /3211 10153 20153 39988 40033
AAXX 18184 94865 46/// /3105 10176 20165 30024 40048
AAXX 18184 94866 46/// /3507 10174 20162 39912 40050
AAXX 18184 94875 46/// /1903 10190 20187 39921 40053
AAXX 18184 89564 45/// /1424 10015 21063 39884 49904 56019
AAXX 18184 89570 46/// /1032 11069 21109 39114 55008
AAXX 18184 89571 45/// /0919 10008 21122 39743 49771 56014
AAXX 18184 89573 NIL
AAXX 18184 89610 NIL
AAXX 18184 89611 45/// /0628 11008 21041 39797 49849 51025
AAXX 18184 89614 NIL
AAXX 18184 89615 46/// /0607 11054 21072 38972 51038
AAXX 18184 89807 NIL
AAXX 18184 89809 NIL
AAXX 18184 40356 42960 01010 10050 21070 39258 48536 333 10170 58043 55098 555 04410 50266
AAXX 18184 40357 42960 00705 10094 20000 39613 40270 333 10193 58054 55///
AAXX 18184 40360 42960 00508 10096 21040 39634 40230 333 10178 58030 55091
AAXX 18184 40361 42960 00705 10126 21070 39468 40249 333 10194 58038 55///
AAXX 18184 40362 42960 00000 10094 21070 39723 40252 333 10190 58044 55///
AAXX 18184 40373 42960 00000 10116 21020 39822 40251 333 10206 58046 55///
AAXX 18184 40375 42960 33103 10130 21030 39317 40208 80002 333 10210 58013 55070 83070
AAXX 18184 40377 42960 00305 10120 20020 39765 40260 333 10190 58039 55///
AAXX 18184 40394 42960 03202 10108 21040 39101 48567 333 10214 58035 55092 555 04410 50244
AAXX 18184 40400 42960 40104 10222 20170 30139 40167 80002 333 10290 58013 55078 84070
AAXX 18184 40401 42960 00104 10170 21040 39484 40192 333 10251 58013 55///
AAXX 18184 40405 42960 00504 10130 20020 39492 40246 333 10212 58037 55///
AAXX 18184 40416 42960 02908 10140 20120 30185 40205 333 10235 58039 55///
AAXX 18184 40417 41957 02808 10142 20080 30208 40223 70500 333 10218 58041 55///
AAXX 18184 40420 42960 03207 10142 20040 30013 40223 333 10228 58034 55///
AAXX 18184 40430 42960 20918 10240 21010 39454 40168 82030 333 10280 58022 55078 82360
AAXX 18184 40435 NIL
AAXX 18184 40437 42960 00305 10141 20000 39530 40245 333 10206 58037 55090
AAXX 18184 40439 42960 22806 10234 20160 30132 40142 82030 333 10314 58013 55088 82360
BBXX PCAM 18183 99412 31732 41598 41404 10130 20063 40173 52004 70111 83440 22200 20100 30000 80095
BBXX VRAE3 18184 99021 11074 41396 70324 10275 20248 40079 51012 71301 8//// 22214 00290 2//// 3//// 4//// 5//// 80256
BBXX 3ECI3 18184 99411 31732 41597 41805 10140 20106 40151 54000 70111 84431 22200 00180 20501 30000 80122
BBXX V2OG2 18183 99202 31101 41998 02017 10255 20212 40096 58013 70000 80000 22233 20402 318// 40503 80225
BBXX VNSZ 18164 99402 31458 46/// /0828 10165 20153 30005 40031 57006 22245 04163 85158
BBXX 9HA2479 18164 99334 31520 46/// /0422 10201 20165 30097 40126 57033 22254 04202 85178
BBXX VROB 18164 99285 31538 46/// /0508 10218 20129 30125 40150 57012 22244 04248 85163
BBXX C6FS9 18164 99271 31534 46/// /1306 10207 20152 30121 40157 57015 22243 04241 85172
BBXX FHZI 18164 99588 31450 46/// /3514 10024 2//// 30123 40134 57016 22243 04013
BBXX VNAH 18164 99333 31157 46/// /1805 10171 20108 30101 40125 57003 22200 85134
BBXX VNSZ 18174 99405 31460 46/// /0836 10165 20154 39993 40019 57017 22235 04163 85158
BBXX C6FS9 18174 99273 31532 46/// /0306 10219 20147 30119 40155 57010 22252 04241 85173
BBXX 9HA2479 18174 99336 31518 46/// /0423 10203 20171 30090 40119 57028 22254 04210 85182
BBXX VROB 18174 99288 31538 46/// /0408 10219 20134 30125 40150 57005 22244 04254 85166
BBXX FHZI 18174 99590 31450 46/// /3614 10026 2//// 30120 40131 57016 22243 04014
BBXX VNAH 18174 99333 31157 46/// /1605 10161 20104 30098 40122 57008 22200 85128
BBXX VNSZ 18184 99409 31462 46/// /0840 10163 20153 39998 40024 57003 22235 04165 85157
BBXX C6FS9 18184 99274 31531 46/// /2705 10197 20159 30118 40154 57005 22242 04236 85172
BBXX 9HA2479 18184 99338 31515 46/// /0420 10202 20174 30086 40115 57025 22254 04206 85183
BBXX ZCBU6 17164 99368 31749 41498 32620 10188 20158 40055 57016 70222 821// 22234 00190 20402 327// 40904 5//// 80170
AAXX 18184 94310 46/// /2818 10260 20238 30042 40052 57021
AAXX 18184 95283 46/// /1306 10267 20221 30065 40072
AAXX 18184 95288 46/// /1424 10276 30053 40068 57008
AAXX 18184 95675 46/// /2511
AAXX 18184 95872 46/// /3306
AAXX 18184 95961 37/// /0517 10165 39981 40022 57019 7//44
BBXX ZCAS2 18183 99171 11311 41598 70518 10270 20241 40100 57/// 75022 86351 22283 00286 20707 80250
BBXX V2BE4 18181 99270 11407 41598 30206 10180 20127 40194 57011 70300 83160 22244 04210 20504 80150
BBXX 41008 18181 99314 70809 46/// /3406 10119 20093 40260 58007 91750 22200 00165 333 91208 555 11064 22066 31745 43408 61749 336061 337061 344060 346065 342060 344059
AAXX 18184 78388 111576 70913 10282 20202 30144 40153 60001 70522 82842 333 01299 10297 20230 58003 82822 87070
AAXX 18181 38141 32998 00913 11173 21215 30247 40424 52018 333 11108 91118
AAXX 18181 38149 42998 00308 11125 21187 30348 40431 52031 333 11029
AAXX 18181 38178 429// 03605 11212 21279 30128 40452 52024 333 11098
AAXX 18181 38262 329// 00505 11136 21177 30346 40436 52039 333 11043
AAXX 18181 38264 42998 00407 11134 21195 30320 40422 53032 333 11043
AAXX 18181 38396 42997 20407 11097 21190 30269 40405 52029 80001 333 11009
AAXX 18181 38403 429// 00204 11097 21174 30219 40349 52009 333 10004
AAXX 18181 38413 429// 01003 11130 21146 30083 40401 52043 333 11048
AAXX 18181 38457 31596 73201 11045 21065 39729 40348 52021 71022 83440 333 10014
AAXX 18181 38462 429// 30000 11070 21133 38804 48522 52016 82051 333 11012
AAXX 18181 38565 329// 00303 11078 21105 39738 40362 52015 333 11007
AAXX 18181 38579 325// 82002 11031 21073 39922 40362 52024 8657/ 333 11005
AAXX 18181 38583 32997 22903 11067 21079 30021 40364 52026 80001 333 11012
AAXX 18181 38611 41795 63302 10000 21012 39687 40275 57003 71022 83340 333 10017
AAXX 18181 38618 115// 83001 11013 21018 39554 40266 52001 69900 70277 8802/ 333 10017
AAXX 18181 38683 42997 43607 11050 21123 30030 40323 52012 80001 333 10023
AAXX 18181 38696 329// 01102 11029 21049 39421 40315 52019 333 10037
AAXX 18181 38812 41495 82601 10009 21002 39821 40288 52014 71022 883// 333 10020 83714
AAXX 18181 38927 31457 82702 10019 21003 39906 40303 52012 71022 886// 333 10030 88710
AAXX 18181 06447 16/// /2403 10021 21010 30019 40147 52005 60012 333 10043 91109 91205
AAXX 18184 40550 35/65 /3404 10116 20023 40235 51008 333 55300 00000 10227 20000 30000 41056 51283 60000 55407 40000 90069 90401 91009 91115 91207 91305
AAXX 18184 40551 36/// /2410 10108 20012 333 90401 91011 91117 91213 91309
AAXX 18184 40552 35/68 /2812 10109 20013 40241 51013 333 55300 90069 90401 91013 91117 91213 91311
AAXX 18184 40553 35/65 /2907 10109 20023 40236 51010 333 55300 90069 90400 91007 91117 91213 91309
AAXX 18184 40568 36/// /2909 10122 20043 333 90401 91011 91117 91213 91309
AAXX 18184 40569 NIL
AAXX 18184 40570 35/69 /3304 10102 20003 40256 51019 333 55300 90069 90401 91005 91113 91211 91305
AAXX 18184 40571 NIL
AAXX 18184 40572 NIL
AAXX 18184 40573 36/// /2609 10101 20018 333 90400 91009 91115 91211 91309
AAXX 18184 40580 46/// /3003 10154 20051 333 553// 00000 10272 20000 30000 41045 51316 60000 55407 40000 90401 91007 91113 91205 91303
AAXX 18184 40581 36/// /3203 10162 20052 333 90401 91007 91113 91203 91301
AAXX 18184 40582 32960 03105 10126 20016 40238 51013 333 55300 00000 10213 20000 30000 41118 51330 60000 55407 40000 90401 91005 91115 91211 91307
AAXX 18184 40583 NIL
AAXX 18184 40585 36/// /3009 10157 20071 222// 1//// 3//// 4//// 70/// 333 90401 91017 91119 91213 91309
AAXX 18184 40586 36/// /2806 10146 20018 333 90401 91009 91111 91205 91303
AAXX 18184 40587 36/// /2807 10120 20021 333 553// 00000 10226 20000 30000 41042 51267 60000 55407 40000 90400 91007 91113 91209 91307
AAXX 18184 40588 35/60 /3008 10131 20059 40233 51011 333 55300 90069 90401 91009 91115 91211 91309
AAXX 18184 40589 NIL
AAXX 18184 40590 36/// /2808 10099 20018 333 90401 91011 91117 91213 91307
AAXX 18184 40591 NIL
AAXX 18184 40592 35/69 /3307 10144 20020 40240 51014 333 55300 00000 10257 20000 30000 41053 51310 60000 55407 40000 90069 90400 91011 91115 91207 91305
AAXX 18184 40593 36/// /3109 10153 20033 333 90400 91011 91113 91211 91307
AAXX 18184 40594 36/// /3306 10156 20027 333 90401 91011 91115 91211 91305
AAXX 18184 40596 36/// /3014 10179 20109 333 90401 91019 91119 91213 91311
AAXX 18184 41024 42960 03405 10250 20190 30126 40146 333 10320 58014 55090
AAXX 18184 41030 42960 00000 10266 20180 39868 40138 333 10340 58013 55///
AAXX 18184 41036 42960 02705 10178 20130 38589 48539 333 10250 58014 55061 555 04410 50146
AAXX 18184 41055 42960 00913 10166 20050 38398 48546 333 10250 58022 55095 555 04410 50177
AAXX 18184 41061 42960 00808 10176 20080 39492 40204 333 10250 58038 55100
AAXX 18184 41084 42960 00508 10195 20070 38895 48547 333 10280 58026 55098 555 04410 50169
AAXX 18184 41112 42960 02003 10136 20120 37974 48541 333 10214 58017 55095 555 04410 50179
AAXX 18184 41114 42560 32504 10150 20120 38006 48536 83400 333 10230 58017 55/// 83622 555 04410 50165
AAXX 18184 41128 42960 00000 10160 20010 38864 48567 333 10252 58034 55080 555 04410 50201
AAXX 18184 41136 42960 00607 10197 20050 39372 40187 333 10270 58037 55093
AAXX 18184 41140 42960 02003 10281 20240 30137 40142 333 10310 58020 55///
AAXX 18181 37395 32997 50906 10094 21022 30077 40217 52013 85030 333 10156
AAXX 18181 37409 32598 60904 10004 21021 38793 42509 52003 85540 333 10014 95090
AAXX 18181 37432 32697 60000 11005 21050 39001 48526 52005 86500 333 10056
AAXX 18181 37514 32996 00000 11020 21059 39107 40305 52015 333 10055
AAXX 18181 37545 325// 60000 10012 21008 39743 40272 52014 86400 333 10052
AAXX 18181 37621 329// 00901 10010 21046 39618 40278 52019 333 10065
AAXX 18181 37484 NIL
AAXX 18181 06431 11596 82503 10006 20000 30133 40145 53012 60092 78687 886// 333 10055 91111 91208
AAXX 18181 06432 17/13 /9902 10003 21001 30075 40154 53002 60042 78685 333 10047 85/04 87/13 91108 91207
AAXX 18181 06458 17978 /2304 10013 21009 39992 40150 52004 60012 70087 333 10028 83/34 85/60 91110 91205
AAXX 18181 06465 17975 /2303 10011 21009 30076 40144 53006 69942 70077 333 10034 81/64 91108 91205
AAXX 18181 06496 37359 /2603 11018 21027 39457 40151 53009 70087 333 11006 81/06 83/08 85/11 91110 91207
AAXX 18184 65306 31930 60604 10272 20063 39767 40099 70522 80002 333 10342 59012 86076
AAXX 18184 65319 32958 50000 10290 20125 39585 40099 80002 333 10360 59006 85076
AAXX 18184 65330 31912 72602 10290 20105 39649 40087 70522 80008 333 10351 59011 87276
AAXX 18184 65335 31940 50000 10315 20177 39861 40084 70522 80002 333 10360 59010 85076
AAXX 18184 65344 31432 62006 10288 20245 30080 40091 70622 81532 333 10315 59006 81610 85076
AAXX 18181 06428 17/08 99902 10003 20003 30103 40153 53009 60092 77287 333 10057 89/03 91108 91205
AAXX 18181 40001 32970 03604 10043 20020 40287 52010 333 10130
AAXX 18181 40007 32560 60703 10084 20052 40285 51011 83550 333 10097 83630 86360
AAXX 18181 40025 32960 00602 10130 20073 40234 51011 333 10201
AAXX 18181 40045 32970 42302 10060 20015 40284 52014 84040 333 10138 84360
AAXX 18181 40061 32970 00501 10076 20036 40267 52017 333 10147
AAXX 18181 40080 32965 00304 10094 20041 39524 40246 52012 333 10160
AAXX 18181 40087 NIL
AAXX 18181 40095 NIL
AAXX 18181 40009 32965 00000 10042 20030 40270 52011 333 10126
AAXX 18181 40016 32970 02903 10056 20040 40306 53010 333 10120
AAXX 18181 40022 32965 00304 10121 20072 40233 51014 222// 20000 10181
AAXX 18181 40030 31560 20000 10094 20062 40269 52017 71021 82500 333 10120 82630
AAXX 18181 40039 32970 00000 10050 20026 40280 51012 333 10106
AAXX 18181 40066 32970 00604 10096 20063 40232 52006 333 10140
AAXX 18181 40072 32970 00000 10082 20031 40296 52018 333 10140
AAXX 18181 40083 32970 01901 10052 20024 48540 52012 333 10104
AAXX 18184 78988 02482 60710 10285 20220 30111 40121 57025 60001 86860 333 59002 60007 82818 86650
AAXX 18184 78990 02570 70914 10293 20212 30122 40129 57023 60001 85270 333 59001 60007 85821 86458
AAXX 18184 78873 02580 10611 10267 20196 30098 40143 57022 60001 81101 333 59002 60007 81824
AAXX 18184 61017 32960 50000 10153 20032 39726 40132 80002 333 10260 59017 85080
AAXX 18184 61024 32960 21604 10212 20010 39556 40132 80002 333 10276 59015 82080 P045
AAXX 18184 61036 32960 70000 10266 20000 39869 40109 80008 333 10305 59013 87280
AAXX 18184 61043 32960 71204 10267 21035 39660 40105 80008 333 10302 59021 87280
AAXX 18184 61045 31958 70000 10214 21001 39618 40124 7052/ 80008 333 10278 59015 87280
AAXX 18184 61049 NIL
AAXX 18184 61052 31956 50404 10272 21001 39850 40109 70620 80002 333 10310 59012 85080
AAXX 18184 61075 32960 50000 10258 20037 39788 40099 80002 333 10327 59017 85080
AAXX 18184 61080 32960 70000 10240 20023 39688 40114 80008 333 10290 59022 87280
AAXX 18184 61090 32960 70000 10234 21029 39598 40114 80008 333 10282 59021 87280
AAXX 18184 61091 32960 70000 10210 20075 39666 40134 80008 333 10295 59014 87280
AAXX 18184 61096 32960 70000 10222 20009 39734 40123 80008 333 10292 59013 87280
AAXX 18184 61099 31956 73604 10294 20046 39858 40087 70622 80008 333 10328 59015 87280
AAXX 18184 78988 02482 60710 10285 20220 30111 40121 57025 60001 86860 333 59002 60007 82818 86650
AAXX 18184 78990 02570 70914 10293 20212 30122 40129 57023 60001 85270 333 59001 60007 85821 86458
AAXX 18184 78873 02580 10611 10267 20196 30098 40143 57022 60001 81101 333 59002 60007 81824
BBXX 3EDA4 18183 99210 31540 41598 43630 10240 20181 40095 70022 83816 22237 00264 20303 30303 40303 50303 80200
BBXX UANA 18181 99694 10397 41/95 81604 10029 40082 50000 75252 8//// 22212 04033 20201
BBXX PCCL 18183 99341 31728 41197 81416 10150 40074 54000 70280 887// 22233 04172 20503 320// 41005
AAXX 18181 56187 11930 80701 10051 20025 39620 40285 57008 69911 76066 8807/ 333 05401 10070
AAXX 18181 56778 32562 52702 10062 20053 38132 57002 85400 333 05202 10164
AAXX 18181 57265 NIL
AAXX 18181 57461 32960 21601 10038 20026 30145 40312 57007 82040 333 10106
AAXX 18181 57494 NIL
AAXX 18181 57516 31750 83202 10080 20040 39958 40275 57008 71000 885// 333 05502 10120
AAXX 18181 57687 31957 00000 10032 21003 30217 40304 57002 70500 333 10105
AAXX 18181 57816 31650 80204 10027 20003 38842 40265 57006 71000 885// 333 05403 10066
AAXX 18181 58040 31950 00000 11043 21063 30310 40324 57005 71000 333 10046
AAXX 18181 58102 32970 01402 11001 21071 30274 40324 57006 333 10064
AAXX 18181 58150 31950 03601 11014 21042 30325 40329 57004 71000 333 10056
AAXX 18181 58221 NIL
AAXX 18181 58238 31940 03201 11010 21047 30283 40330 52005 70500 333 10054
AAXX 18181 58251 31940 00000 11032 21052 30325 40330 52004 71000 333 10054
AAXX 18181 58362 NIL
AAXX 18181 58457 31730 73202 10042 21004 30264 40319 57002 71000 875// 333 10064
AAXX 18181 58606 32961 00902 10030 21054 30243 40303 57004 333 10085
AAXX 18181 58752 NIL
AAXX 18181 58847 NIL
AAXX 18181 59117 32962 02001 10085 20063 30142 40250 57002 333 10198
AAXX 18181 59134 NIL
AAXX 18181 59287 NIL
AAXX 18181 59316 32962 00701 10122 20104 30231 40236 57007 333 10187
AAXX 18181 59431 31956 03401 10066 20049 30103 40253 57009 71000 333 10168
AAXX 18181 59644 32960 03603 10122 20063 30215 40232 57008 333 10196
AAXX 18181 59758 32964 00402 10162 20116 30137 40214 57015 333 10208
AAXX 18184 78762 12970 60917 10253 20090 39109 40124 57000 81522 333 10262 20193 30/// 56020 58009 70046 81362 85075
AAXX 18184 78866 32586 10511 10271 20185 3140 40145 57021 81801 333 59001 81824
AAXX 18181 50468 32970 03203 11228 21246 30026 40253 52005 333 11120
AAXX 18181 50953 NIL
AAXX 18181 51076 NIL
AAXX 18181 51243 NIL
AAXX 18181 51288 32980 00902 11175 21206 38348 54000 333 05255 11105
AAXX 18181 51463 NIL
AAXX 18181 51573 NIL
AAXX 18181 51709 NIL
AAXX 18181 52533 NIL
AAXX 18181 52652 NIL
AAXX 18181 52866 NIL
AAXX 18181 52983 NIL
AAXX 18181 53463 32980 02701 11098 21151 39035 40349 57004 333 05404 11055
AAXX 18181 53513 32968 00000 11141 21162 39053 40349 57007 333 05301 11044
AAXX 18181 53588 NIL
AAXX 18181 53772 NIL
AAXX 18181 53915 NIL
AAXX 18181 54218 32970 02501 11137 21244 39498 40349 52002 333 11016
AAXX 18181 54337 32960 00401 11086 21169 30234 40321 52005 333 10028
AAXX 18181 54342 NIL
AAXX 18181 54401 NIL
AAXX 18181 54471 32960 01401 11090 21123 30313 40319 52003 333 11016
AAXX 18181 54497 31957 00000 11110 21139 30298 40315 52003 71000 333 11013
AAXX 18181 54511 NIL
AAXX 18181 54823 31957 01801 11026 21079 30109 40327 54000 71000 333 10052
AAXX 18181 56080 NIL
AAXX 18181 56096 NIL
AAXX 18181 57083 32960 02001 11022 21060 30175 40317 57003 333 10072
AAXX 18184 78866 32586 10511 10271 20185 3140 40145 57021 81801 333 59001 81824
AAXX 18184 78762 12970 60917 10253 20090 39109 40124 57000 81522 333 10262 20193 30/// 56020 58009 70046 81362 85075
AAXX 18184 78762 12970 60917 10253 20090 39109 40124 57000 81522 333 10262 20193 30/// 56020 58009 70046 81362 85075
AAXX 18184 78866 32586 10511 10271 20185 3140 40145 57021 81801 333 59001 81824
BBXX 41052 18181 99183 70648 46/// /0507 10264 40133 57024 91800 22200 00277 333 91208
BBXX 44139 18181 99442 70571 46/// /0415 10029 40118 57019 22200 00093 10809 70043 333 91219
AAXX 18184 78615 32482 33604 10268 20199 30080 40221 58010 83200 333 10270 20194 30/// 56800 57844 58010 83818
AAXX 18184 78627 32582 40000 10174 20102 38198 58007 84500 333 10186 20075 30/// 56200 58004 84622
AAXX 18184 78637 11482 82704 10228 20217 30185 40201 58009 60051 76062 8452/ 333 10280 20190 32/// 5629/ 84616 88459
AAXX 18184 78641 32482 63618 10186 20120 38578 40170 58005 86500 333 10208 20134 30/// 56800 58008 86616
AAXX 18184 78647 31982 01810 10306 20238 30133 40140 58011 70240 333 10312 20202 30/// 58003
AAXX 18184 DUPE
BBXX 41052 18181 99183 70648 46/// /0507 10264 40134 91750 333 91208
BBXX 41052 18181 99183 70648 46/// /0507 10264 40135 91740 333 91208
AAXX 18184 78615 32482 33604 10268 20199 30080 40221 58010 83200 333 10270 20194 30/// 56800 57844 58010 83818
AAXX 18184 78627 32582 40000 10174 20102 38198 58007 84500 333 10186 20075 30/// 56200 58004 84622
AAXX 18184 78637 11482 82704 10228 20217 30185 40201 58009 60051 76062 8452/ 333 10280 20190 32/// 5629/ 84616 88459
AAXX 18184 78641 32482 63618 10186 20120 38578 40170 58005 86500 333 10208 20134 30/// 56800 58008 86616
AAXX 18184 78647 31982 01810 10306 20238 30133 40140 58011 70240 333 10312 20202 30/// 58003
AAXX 18184 DUPE
BBXX 44139 18181 99442 70571 46/// /0415 10029 40118 57019 22200 00093 10809 70043 333 91219
BBXX 41053 18181 99185 70661 46/// /0504 10266 40143 58026 91800 22200 00276 11304 70020 333 91206
BBXX 41053 18181 99185 70661 46/// /0504 10265 40143 91750 333 91205
BBXX 41053 18181 99185 70661 46/// /0404 10264 40145 91740 333 91206
AAXX 18183 91551 31598 40000 10241 20240 4//// 5//// 70222 84800 333 569// 82820 84080
AAXX 18183 91553 31598 70000 10260 20258 40077 53001 70222 8297/ 333 5689/ 82820 81925 87461
AAXX 18183 91554 31598 80000 10240 20233 40071 53004 70222 828// 333 569// 84820 88640
AAXX 18183 91555 11598 60000 10247 20247 40071 56004 60391 70299 84870 333 5699/ 60391 82820 84640 86362
AAXX 18183 91557 11498 89902 10240 20240 40053 53007 60631 70222 8691/ 333 5699/ 60631 82710 86818 81922 88460
AAXX 18183 91565 11498 80000 10220 20220 40071 53003 60061 72188 8297/ 333 5629/ 60061 82818 81920 88459
AAXX 18183 91568 11698 81010 10230 20224 40086 53007 60021 78068 8582/ 333 5639/ 60021 82708 85822 88460
AAXX 18183 91551 31598 40000 10241 20240 4//// 5//// 70222 84800 333 569// 82820 84080
AAXX 18183 91553 31598 70000 10260 20258 40077 53001 70222 8297/ 333 5689/ 82820 81925 87461
AAXX 18183 91554 31598 80000 10240 20233 40071 53004 70222 828// 333 569// 84820 88640
AAXX 18183 91555 11598 60000 10247 20247 40071 56004 60391 70299 84870 333 5699/ 60391 82820 84640 86362
AAXX 18183 91557 11498 89902 10240 20240 40053 53007 60631 70222 8691/ 333 5699/ 60631 82710 86818 81922 88460
AAXX 18183 91565 11498 80000 10220 20220 40071 53003 60061 72188 8297/ 333 5629/ 60061 82818 81920 88459
AAXX 18183 91568 11698 81010 10230 20224 40086 53007 60021 78068 8582/ 333 5639/ 60021 82708 85822 88460
AAXX 18184 89514 32596 81111 11020 49865 52008 8682/ 333 86625 87445
AAXX 18184 89514 32596 81111 11020 49865 52008 8682/ 333 86625 87445
AAXX 18181 26045 27360 81403 10022 20017 39878 49880 53021 75285 88/// 333 10044 20022 69917 88/09 91111 555 1/002 20022 3/002 50040
AAXX 18181 26058 01484 81703 10034 20007 39898 49905 51022 69912 70222 875// 333 10035 20023 60007 87619 91111 555 1/002 20023 3/002 50038 52002
AAXX 18181 26115 01369 82002 10037 20028 39817 49825 52006 60022 76162 8872/ 333 10037 20024 69927 88508 555 1/003 20024 3/002 50033
AAXX 18184 84735 31960 0//// 10181 20011 36423 70222 333 59008
AAXX 18184 84452 31960 01914 10268 20186 30105 40135 70124 333 58015
AAXX 18184 84564 31560 60615 10270 20158 38131 7022/ 8282/ 333 5611/ 59004 82830 84465
AAXX 18184 84782 31965 32012 10254 20149 39615 40110 70300 80001 333 56009 59018 83070
AAXX 18184 84691 31960 52508 10273 20182 30109 40116 70224 80001 333 56000 59016 85073
AAXX 18184 84501 31360 21710 10207 20170 30106 40133 70122 82600 333 56000 59004 82712
AAXX 18184 84377 31460 63204 10321 20241 39977 40079 70222 86100 333 56000 58000 86814
AAXX 18184 84455 31460 63410 10325 20236 39790 40132 70222 83230 333 56990 59010 83820 83360
AAXX 18184 84515 31460 83305 10310 20226 39915 40088 70222 8422/ 333 5699/ 59002 84815 84457
AAXX 18184 84720 31960 41505 10332 20204 39486 40152 70300 80001 333 56009 59014 84070
AAXX 18184 84686 31765 83608 10141 20060 36870 70222 8582/ 333 5699/ 58016 85850 88460
AAXX 18184 84401 31960 02008 10302 20179 30081 40124 70120 333 58004
AAXX 18184 84628 34460 71908 10221 20178 30113 40129 70222 83601 333 56409 59015 82710 85073
AAXX 18184 84673 31660 82702 10208 20098 37330 71582 8352/ 333 5699/ 58000 83640 88464
AAXX 18184 84370 31960 43311 10280 20209 30073 40114 70122 84030 333 56900 59005 94362
AAXX 18184 84688 31965 00110 10151 20081 36661 70220 333 59002
AAXX 18184 84564 31560 60615 10270 20158 38131 7022/ 8222/ 333 5611/ 59004 82830 84465
AAXX 18184 84564 31560 60615 10270 20158 38131 7022/ 8282/ 333 5611/ 59004 82830 84465
AAXX 18184 84425 31560 63408 10320 20231 39899 40106 70222 8353/ 333 5689/ 59021 83620 83362
AAXX 18184 84752 32660 62611 10182 20055 37531 70300 81101 333 56909 59010 81850 85073
AAXX 18184 84472 31960 01710 10216 20105 37398 70000 333 59004
AAXX 18184 84658 31362 81004 10290 20250 39854 40082 70222 8821/ 333 5629/ 58010 85809 83633
BBXX 46035 18181 99571 71778 46/// /2809 1//// 49741 54000 91750 22200 11309 20603 300// 41308 70045 333 91211 555 11085 22091 31741 42912 61749 283088 290085 281074 296073 289079 302087 82910 91741
BBXX A8AJ4 18184 99541 71651 41496 42730 10030 2//// 49820 52040 7//// 8254/ 22264 00050 2//// 3//// 4//// 5//// 6//// 8//// ICE /////
BBXX DGHX 18183 99339 71786 41298 32217 10180 20112 40130 7//11 83700 22265 00190 2//// 323// 40407 80140
BBXX KEY796 18183 99571 71703 41/97 72526 11011 21033 49706 53/// 702// 8//// 222// 00011 2//// 3//// 4//// 5//// 6//// 8//// ICE /////
BBXX KGTY 18184 99534 71575 41898 62342 10022 21080 49830 5//// 701// 84/8/ 22224 00039 21015 32219 41215 51011 6//// 81011 ICE /////
BBXX LEQZ3 18183 99543 71577 41397 81944 10050 20030 49800 52020 75055 88722 22261 00100 80040
BBXX NWS0003 18184 99539 71665 43/// /2806 11004 21024 49830 5//// 7//// 8//// 222// 0//// 2//// 3//// 4//// 5//// 6//// 8//// ICE /////
BBXX 4XIS 18183 99349 11544 43/98 72518 10140 20110 40140 54000 22225 80120
BBXX C6SI3 18183 99432 11609 41798 82724 10030 20010 40030 56010 70322 87968 22213 0//// 20305 326// 4//// 5//// 6//// 80020 ICE /////
BBXX DFWV2 18184 99300 11689 41298 70508 10190 20111 40180 54000 7//22 877// 2226/ 04210 29902 3//// 4//// 5////
BBXX DHBN 18181 99312 11686 41297 81805 10178 20119 40175 54000 75052 85820 22224 00230 2//01 330// 41407 5//// 80143
BBXX LAIG7 18184 99406 11524 41498 72927 10030 21100 40100 54000 70222 86766 22223 00110 20808 329// 41007 5//// 6//// 81010 ICE /////
AAXX 18184 88963 AUS
AAXX 18184 88968 32465 83224 10004 21009 30013 40028 58017 8567/ 333 56779 85715 87360 92417 92731 92851 94070 95000
AAXX 18184 89034 AUS
AAXX 18184 89053 32462 63222 10044 20011 39910 49924 57023 85830 333 56700 83610 84820 90317 92427 94063 94469 95003 96410
AAXX 18184 89055 31956 73226 10003 21010 39657 49899 56013 71022 87070 333 56070 87360 90066 90090 95110
AAXX 18184 89066 32970 30000 10058 21014 39873 49882 57013 81071 333 56022 81360 92407 94030
AAXX 18183 NIL
AAXX 18184 61017 32960 50000 10153 20032 39726 40132 80002 333 10260 59017 85080
AAXX 18184 61024 32960 21604 10212 20010 39556 40132 80002 333 10276 59015 82080
AAXX 18184 61036 32960 70000 10266 20000 39869 40109 80008 333 10305 59013 87280
AAXX 18184 61043 32960 71204 10267 21035 39660 40105 80008 333 10302 59021 87280
AAXX 18184 61045 31958 70000 10214 21001 39618 40124 7052/ 80008 333 10278 59015 87280
AAXX 18184 61049 NIL
AAXX 18184 61052 31956 50404 10272 21001 39850 40109 70620 80002 333 10310 59012 85080
AAXX 18184 61075 32960 50000 10258 20037 39788 40099 80002 333 10327 59017 85080
AAXX 18184 61080 32960 70000 10240 20023 39688 40114 80008 333 10290 59022 87280
AAXX 18184 61090 32960 70000 10234 21029 39598 40114 80008 333 10282 59021 87280
AAXX 18184 61091 32960 70000 10210 20075 39666 40134 80008 333 10295 59014 87280
AAXX 18184 61096 32960 70000 10222 20009 39734 40123 80008 333 10292 59013 87280
AAXX 18184 61099 31956 73604 10294 20046 39858 40087 70622 80008 333 10328 59015 87280
AAXX 18181 10270 06460 82606 10025 20009 30004 40060 53023 69932 222// 06045 333 10031 20023 3/002 55300 69907 87/11 88/16
AAXX 18184 06670 01465 72305 10008 21017 39649 40173 53/// 69972 70287 875// 333 10018 42001 55300 20000 60005 81719 84623 86656 90766 93100 91114 91209
AAXX 18184 06700 01575 72106 10013 21031 39693 40200 51/// 69942 71587 868// 333 10031 31/// 55300 20000 60005 81630 86650 90766 93100 91113 91209
AAXX 18184 06680 01/01 93106 11141 21153 37398 47912 51/// 60062 77174 333 11131 47167 55300 20000 69925 90766 93105 91138 91223
AAXX 18184 06990 01450 81602 11003 21007 39611 40174 52/// 60012 77822 887// 333 10010 43/// 55300 20000 69965 88719 91109 91204
AAXX 18184 06760 32982 13402 10026 21073 39685 40141 53/// 81040 333 10062 31/// 55300 20000 81360 90766 93100 91107 91204
AAXX 18184 06720 01450 8//// 10007 21008 39592 40183 53/// 60022 77377 887// 333 10021 47998 55300 20000 69915 88711 90766 93100
AAXX 18181 48918 32498 70203 10260 20221 30098 40109 58011 879// 222// 00268 2//// 333 59006 82894 86995
AAXX 18181 48900 32497 40304 10232 20180 30094 40104 57013 84800 333 59006 81894 83696
AAXX 18181 48914 32698 73601 10260 20212 30103 40105 58009 875// 333 59004 87696
AAXX 18181 48917 32998 60000 10264 20186 30083 40089 57021 80008 222// 00280 333 59015 86299
AAXX 18181 48919 11498 80513 10260 20240 30058 40080 58012 60011 70382 8392/ 22200 02271 333 59008 81994 8399 5 88499
AAXX 18181 48916 32598 73603 10270 20202 30059 40106 58005 83208 333 58005 83895 87299
AAXX 18184 89002 41495 80925 11022 21029 39761 49814 52019 73833 888// 333 00838 92941
AAXX 18184 65352 31940 70000 10294 20098 3//// 4//// 70522 80002 333 10362 5//// 87076
AAXX 18184 65361 NIL
AAXX 18184 65376 31940 70802 10290 20164 39635 40094 70522 80002 333 10330 59008 87076
AAXX 18184 65387 32456 72206 10288 20263 30059 40077 81202 333 10334 59009 81813 87073
AAXX 18184 06610 01557 82104 10010 21032 39592 40191 52/// 69912 71072 8377/ 333 10019 32/// 55300 20000 60005 83720 85356 90766 93100 91116 91209
AAXX 18181 11022 12960 22504 10011 21028 39744 40138 53019 60002 80001 333 10039 21011 55300 82077
AAXX 18184 71015 17/// ///// 11031 69951 7//4/ 333 10072 21034 70005
AAXX 18184 71017 16/// /2810 11347 21383 30040 40055 58003 60001 333 11330 21355 70000
AAXX 18184 71019 46/// /0000 11121 21179 39927 40244 56017 6///1 333 11115 21218 7////
AAXX 18184 71020 46/// /2506 11014 21121 39858 40119 52007 6///1 333 11008 21258 7////
AAXX 18184 71021 46/// /0000 11222 21246 39796 40165 53001 6///1 333 11214 21241 7////
AAXX 18184 71063 16/// /1605 11064 21136 30144 40247 58011 60001 333 11061 21137 70000
AAXX 18184 71807 16/// /0414 11050 21063 30159 40178 58026 60001 333 11032 21052 70000
AAXX 18184 71868 16/// /3509 11009 21039 39629 40071 53030 60001 333 11006 21060 70000
AAXX 18184 71887 12686 22813 10058 21017 39825 40250 51037 60001 81570 333 10072 20017 70000
AAXX 18184 71250 17/// /0109 11049 21061 30035 40174 56015 69981 7//4/ 333 11022 21050 70008
AAXX 18184 71270 16/// /2205 11001 21037 39979 40206 58001 60001 333 10001 21113 70000
AAXX 18184 71295 17/// /2101 11033 21044 39560 40005 58020 60021 7//4/ 333 11032 21068 70015 555 10010
AAXX 18184 71296 16/// /1908 11018 21038 39896 40211 58006 60001 333 11016 70004
AAXX 18184 71710 16/// /0113 11048 21103 30195 40205 56014 60001 333 11041 21056 70000
AAXX 18184 71734 16/// /2007 11074 21101 39763 40167 58008 60001 333 11073 21175 70000
AAXX 18184 71736 46/// ///// 11011 21018 6///1 333 10075 21011 7////
AAXX 18184 71742 46/// /0106 11062 21121 30012 40204 56016 6///1 333 11061 21111 7////
AAXX 18184 71744 16/// /0103 11072 21151 30193 40236 56015 60001 333 11071 21145 70000
AAXX 18184 71747 16/// /2304 11010 21046 39565 40041 58028 60001 333 10024 21075 7////
AAXX 18184 71215 46/// /0000 10017 21006 39885 40234 51025 6///1 333 10024 21003 7////
AAXX 18184 71243 16/// /0204 11011 21023 39117 40199 51044 60001 333 10106 21014 70000
AAXX 18184 71246 16/// /2803 11071 21120 39508 40183 53022 60001 333 21116 7////
AAXX 18184 71631 16/// /2107 11027 21040 39696 40208 58005 60001 333 11027 21104 70008
AAXX 18184 71110 16/// /0313 11047 21098 30104 40165 58024 60001 333 11041 21059 70000
AAXX 18184 71133 46/// /3208 11025 21089 39404 40113 51030 6///1 333 10000 21045 7////
AAXX 18184 71139 17/// /3408 11038 21045 38671 40127 53047 60011 7//4/ 333 10067 21038 70011
AAXX 18184 71141 16/// /3319 11303 21333 30009 40036 53004 60001 333 11254 21303 70000
AAXX 18184 71149 16/// /3507 10003 21019 60001 333 10020 21042 70000
AAXX 18184 71920 16/// /0314 11017 21037 30162 40168 56015 60001 333 11014 21035 70006
AAXX 18184 71501 16/// /1107 11251 21279 30024 40026 56011 60001 333 11239 21282 70000
AAXX 18184 71515 16/// /3312 11014 21016 39377 40078 53033 60001 333 11001 21054 70000
AAXX 18184 71522 46/// /0000 11179 21214 39707 40225 56025 6///1 333 11175 21309 70000
AAXX 18184 71447 16/// /2905 10013 21010 39491 40034 50000 60001 333 10013 21056 70000
AAXX 18184 71472 16/// /1815 10061 20021 30209 40227 58023 60001 333 10061 20042 70002
AAXX 18184 71510 17/// /3212 11007 21046 39424 40139 52044 69971 7//4/ 333 11005 21079 70007
AAXX 18184 71930 11374 42604 11023 21056 39261 40205 52031 60063 70176 84500 333 10005 21023 43017 70057 90999
AAXX 18184 71837 17/// ///// 11013 60011 7//4/ 333 10082 21015 70012
AAXX 18184 71839 17/// ///// 11012 60021 7//4/ 333 10091 21012 7////
AAXX 18184 71849 16/// /2901 11002 21035 39713 40009 58008 60001 333 11001 21078 70000
AAXX 18184 71614 17/// /1203 11072 21142 30174 40242 56020 69931 7//4/ 333 11070 21153 70003
AAXX 18184 71622 17/// ///// 11004 21037 39876 40221 50000 69931 7//4/ 333 10000 21071 70013
AAXX 18184 71150 46/// /3311 11020 21034 39353 40033 53006 6///1 333 11020 21080 7////
AAXX 18184 71155 16/// ///// 11031 21032 60001 333 10006 21043 70007 555 10010
AAXX 18184 71156 16/// /2802 11047 21069 39099 40211 52029 60001 333 10006 21067 70044 555 10020
AAXX 18184 71157 46/// ///// 11015 21031 6///1 333 10004 21024 7////
AAXX 18184 71158 16/// /3311 11037 21058 39735 40011 53003 60001 333 11032 21095 70000
AAXX 18184 71159 16/// /0508 11061 21122 30125 40199 58011 60001 333 11053 21076 70000
AAXX 18184 71160 16/// /0602 11200 21232 39915 40137 50014 60001 333 11185 21209 70000
AAXX 18184 71162 16/// /2707 11161 21181 39917 40133 51006 60001 333 11161 21200 70000
AAXX 18184 71164 46/// /0805 11290 21322 39988 40073 58025 6///1 333 11265 21301 7////
AAXX 18184 71166 46/// /2311 39515 53004 6///1 333 7////
AAXX 18184 71170 16/// /2908 11011 21035 60001 333 11011 21073 70000
AAXX 18184 71175 16/// /0306 11008 21041 30139 40174 56016 60001 333 11002 21028 70000
AAXX 18184 71402 46/// /3409 11073 21127 30092 40210 55001 6///1 333 11061 21076 7////
AAXX 18184 71407 16/// /2911 11221 21247 39909 49930 50006 60001 333 11210 21262 70000
AAXX 18184 71446 16/// /3313 11016 21030 39146 40124 51055 60001 333 10049 21022 70000
AAXX 18184 71108 11904 82002 10061 20058 30169 40242 52023 60021 74765 886// 333 10061 20056 70116 90942
AAXX 18184 71758 16/// /0411 11024 21064 30101 40179 56015 60001 333 11019 21036 70012
AAXX 18184 71771 46/// /2507 10026 20020 30236 40257 53006 6///1 333 10051 20025 7////
AAXX 18184 71783 17/// /0501 10068 20062 30167 40241 51026 69941 7//4/ 333 10071 20044 70034
AAXX 18184 71188 11674 63504 11095 21164 30192 40236 57015 69901 70272 86500 333 11090 21161 79999 90932
AAXX 18184 71087 46/// /1502 11250 21279 39932 40146 58001 6///1 333 11183 21257 7////
AAXX 18184 71452 46/// /3217 11011 21028 39361 40075 53031 6///1 333 10003 21067 7////
AAXX 18184 71453 16/// /3311 11007 21016 39244 40157 51056 60001 333 10093 21011 70000
AAXX 18184 71456 16/// /3108 11028 21053 39498 40097 51031 60001 333 11007 21094 70000
AAXX 18184 71465 46/// /2507 10016 21042 30008 40229 50001 6///1 333 10024 21027 7////
AAXX 18184 71470 16/// /2501 11263 21290 39470 40124 51005 60001 333 11255 21293 70000
AAXX 18184 71476 16/// /0707 30247 53007 60001 333 70000
AAXX 18184 71478 16/// /0105 10052 20020 30141 40279 50012 60001 333 10069 20050 70130
AAXX 18184 71479 16/// /3623 10055 20021 30142 40264 53007 60001 333 10072 20054 70000
AAXX 18184 71482 46/// /0603 10028 30245 40284 53018 6///1 333 10029 20020 7////
AAXX 18184 71484 16/// /1504 10045 20018 30236 40255 53011 60001 333 10058 20041 70000
AAXX 18184 71492 46/// ///03 11268 21294 39346 40066 58010 6///1 333 11247 21313 7////
AAXX 18184 71551 17/// /3308 11006 21026 39465 40120 51038 69981 7//4/ 333 10010 21032 70008
AAXX 18184 71552 46/// /3004 11028 21037 6///1 333 11025 21077 7////
AAXX 18184 71553 17/// /3110 11025 21032 60011 7//4/ 333 11025 21104 70011
AAXX 18184 71564 16/// /3110 10042 21016 39646 40010 57010 60001 333 10043 21058 70000
AAXX 18184 71579 16/// /2201 11004 21037 39718 40001 58011 60001 333 11004 21047 70000
AAXX 18184 71581 16/// /2102 11055 21084 39708 40208 58013 60001 333 11054 70000 555 10010
AAXX 18184 71585 16/// /3203 11134 21141 39696 40166 53039 60001 333 21135 7//// 555 10020
AAXX 18184 71356 16/// /3120 11275 21305 39983 40052 53010 60001 333 11248 21292 70000
AAXX 18184 71361 16/// /2303 11195 21219 39938 40153 51005 60001 333 11150 21195 70000
AAXX 18184 71362 16/// /0000 11144 21161 39886 40149 53021 60001 333 11125 21189 70000
AAXX 18184 71364 16/// /1107 11247 21276 39891 40029 58026 60001 333 11243 21263 70000 555 10010
AAXX 18184 71365 16/// /1506 11242 21265 39906 40129 58009 60001 333 11219 21273 70000
AAXX 18184 71370 46/// /1802 11094 21163 30104 40246 57019 6///1 333 11094 21169 7////
AAXX 18184 71376 16/// /2004 11074 21139 39942 40254 56016 60001 333 11069 21193 70000
AAXX 18184 71381 46/// /1106 11123 21169 6///1 333 11122 7////
AAXX 18184 71382 16/// /1904 11129 21194 39235 40239 58017 60001 333 11128 21290 70000
AAXX 18184 71392 16/// /1702 11092 21159 60001 333 11089 21168 70000
AAXX 18184 71393 17/// ///// 11017 21024 38912 40195 51026 69931 7//4/ 333 10051 21036 70003 555 10020
AAXX 18184 71924 11669 23418 11319 21367 39882 49974 50000 69901 77673 82530 333 11276 21321 48038 79999 90987
AAXX 18184 71858 16/// /3406 11053 21070 39764 40046 53024 60001 333 11033 21086 70000
AAXX 18184 71956 16/// /2308 11002 21036 39940 40175 58009 60001 333 11001 21074 70013
AAXX 18184 71959 17/// ///// 11016 21066 69961 7//4/ 333 11010 21056 70006
AAXX 18184 71970 16/// /2908 11033 21080 39543 40134 51027 60001 333 11008 21094 70000
AAXX 18184 71977 46/// /0000 11298 21298 39291 40036 58018 6///1 333 11274 21317 7////
AAXX 18184 71978 46/// /1705 11211 21251 39678 40000 56008 6///1 333 11198 21347 7////
AAXX 18184 71989 16/// /2411 11308 21339 30039 40056 56013 60001 333 11296 21421 70000
AAXX 18184 71851 16/// /3209 10006 21019 39683 40017 56003 60001 333 10014 21041 70000
AAXX 18184 71885 17/// ///// 11007 60021 7//4/ 333 10100 7////
AAXX 18184 71886 17/// /3211 11010 21013 39461 40068 51035 60011 7//4/ 333 11010 21074 70010
AAXX 18184 71669 17/// /0000 11026 21035 38560 40182 51030 60091 7//4/ 333 10072 21030 70086
AAXX 18184 71311 16/// /3611 11036 21071 30174 40199 56015 60001 333 11034 21101 70000
AAXX 18184 71317 16/// /0210 11021 21070 30134 40182 56010 60001 333 11018 21055 70000
AAXX 18184 71321 16/// /2007 11128 21173 39823 49866 56003 60001 333 11126 21252 70000
AAXX 18184 91753 04584 /0710 10274 20236 30063 40095 53010 69962 700// 333 10282 20268 60007 90710 91118 555 60005
AAXX 18184 91754 01480 60406 10272 20241 30048 40089 53007 60051 702// 84902 333 60037 81916 83819 555 60005
BBXX SLKR 18183 99076 51198 43/98 31016 10276 40170 51010 22254 00254 2//// 4////
BBXX SBLW 18183 99176 70689 43/98 60518 10284 40168 58024 22254 00281 20302 4////
BBXX SBLI 18181 99300 71737 43/98 42312 10224 40172 55003 22263 00228 2//// 4//// 426621110
BBXX 9V8797 18184 99185 10652 43/97 40714 10258 40161 54002 22234 00267 2//// 4////
BBXX SMGW 18181 99353 11462 43/97 83616 10103 40159 55005 22224 00207 2//// 4////
BBXX SKUN 18183 99516 70166 43/94 72121 10096 40210 56002 22224 00101 2//// 4////
BBXX SERW 18183 99301 70127 43598 73524 10185 2//// 40223 55001 70301 868/2 22252 06192 20404 334// 40804
AAXX 18184 71930 11374 42604 11023 21056 39261 40205 52031 60063 70176 84500 333 10005 21023 43017 70057 90999
AAXX 18181 48820 32597 30000 10142 20122 30210 40218 58012 83100 333 59015 83895
AAXX 18184 71108 11904 82002 10061 20058 30169 40242 52023 60021 74765 886// 333 10061 20056 70116 90942
AAXX 18184 71631 16/// /2107 11027 21040 39696 40208 58005 60001 333 11027 21104 70008
AAXX 18184 71447 16/// /2905 10013 21010 39491 40034 50000 60001 333 10013 21056 70000
AAXX 18184 71472 16/// /1815 10061 20021 30209 40227 58023 60001 333 10061 20042 70002
AAXX 18184 71510 17/// /3212 11007 21046 39424 40139 52044 69971 7//4/ 333 11005 21079 70007
AAXX 18184 71868 16/// /3509 11009 21039 39629 40071 53030 60001 333 11006 21060 70000
AAXX 18184 71887 12686 22813 10058 21017 39825 40250 51037 60001 81570 333 10072 20017 70000
AAXX 18184 71807 16/// /0414 11050 21063 30159 40178 58026 60001 333 11032 21052 70000
AAXX 18184 71188 11674 63504 11095 21164 30192 40236 57015 69901 70272 86500 333 11090 21161 79999 90932
AAXX 18184 71015 17/// ///// 11031 69951 7//4/ 333 10072 21034 70005
AAXX 18184 71017 16/// /2810 11347 21383 30040 40055 58003 60001 333 11330 21355 70000
AAXX 18184 71019 46/// /0000 11121 21179 39927 40244 56017 6///1 333 11115 21218 7////
AAXX 18184 71020 46/// /2506 11014 21121 39858 40119 52007 6///1 333 11008 21258 7////
AAXX 18184 71021 46/// /0000 11222 21246 39796 40165 53001 6///1 333 11214 21241 7////
AAXX 18184 71063 16/// /1605 11064 21136 30144 40247 58011 60001 333 11061 21137 70000
AAXX 18184 71501 16/// /1107 11251 21279 30024 40026 56011 60001 333 11239 21282 70000
AAXX 18184 71515 16/// /3312 11014 21016 39377 40078 53033 60001 333 11001 21054 70000
AAXX 18184 71522 46/// /0000 11179 21214 39707 40225 56025 6///1 333 11175 21309 70000
AAXX 18184 71710 16/// /0113 11048 21103 30195 40205 56014 60001 333 11041 21056 70000
AAXX 18184 71734 16/// /2007 11074 21101 39763 40167 58008 60001 333 11073 21175 70000
AAXX 18184 71736 46/// ///// 11011 21018 6///1 333 10075 21011 7////
AAXX 18184 71742 46/// /0106 11062 21121 30012 40204 56016 6///1 333 11061 21111 7////
AAXX 18184 71744 16/// /0103 11072 21151 30193 40236 56015 60001 333 11071 21145 70000
AAXX 18184 71747 16/// /2304 11010 21046 39565 40041 58028 60001 333 10024 21075 7////
AAXX 18184 71110 16/// /0313 11047 21098 30104 40165 58024 60001 333 11041 21059 70000
AAXX 18184 71133 46/// /3208 11025 21089 39404 40113 51030 6///1 333 10000 21045 7////
AAXX 18184 71139 17/// /3408 11038 21045 38671 40127 53047 60011 7//4/ 333 10067 21038 70011
AAXX 18184 71141 16/// /3319 11303 21333 30009 40036 53004 60001 333 11254 21303 70000
AAXX 18184 71149 16/// /3507 10003 21019 60001 333 10020 21042 70000
AAXX 18184 71868 16/// /3509 11009 21039 39629 40071 53030 60001 333 11006 21060 70000
AAXX 18184 71887 12686 22813 10058 21017 39825 40250 51037 60001 81570 333 10072 20017 70000
AAXX 18184 65351 31950 73604 10290 20087 3//// 4//// 70522 80002 333 10325 5//// 87076
AAXX 18184 65355 31958 73204 10261 20102 39580 40096 70522 80002 333 10330 59007 87073
AAXX 18184 65357 31950 70402 10300 20058 39713 40103 70522 80002 333 10362 59003 87076
AAXX 18184 65380 32960 71804 10282 20224 3//// 4//// 80002 333 10357 5//// 87076
AAXX 18184 71250 17/// /0109 11049 21061 30035 40174 56015 69981 7//4/ 333 11022 21050 70008
AAXX 18184 71270 16/// /2205 11001 21037 39979 40206 58001 60001 333 10001 21113 70000
AAXX 18184 71295 17/// /2101 11033 21044 39560 40005 58020 60021 7//4/ 333 11032 21068 70015 555 10010
AAXX 18184 71296 16/// /1908 11018 21038 39896 40211 58006 60001 333 11016 70004
AAXX 18184 71924 11669 23418 11319 21367 39882 49974 50000 69901 77673 82530 333 11276 21321 48038 79999 90987
AAXX 18184 71858 16/// /3406 11053 21070 39764 40046 53024 60001 333 11033 21086 70000
AAXX 18181 48803 31496 80000 10142 20131 30112 40229 58003 71022 888// 333 59009 84894 88696
AAXX 18181 48823 32497 80000 10148 20124 30216 40219 56012 888// 333 59006 82894 88696
AAXX 18181 37279 32594 20000 10106 20041 30064 40207 53006 82200 333 10159
AAXX 18181 37308 329// 00000 10006 21027 39589 40258 52008 333 10048
AAXX 18181 37531 329// 60000 11019 21025 39557 40312 53019 80050 333 10022
AAXX 18181 37553 329// 51801 10007 21022 39604 40271 52022 80001 333 10058
AAXX 18181 37651 16/// ///00 10008 21014 3//// 4//// 5//// 60002 333 10102
AAXX 18181 37492 NIL
AAXX 18184 89667 46/// /0808 11121 29068 39932 4//// 5////
AAXX 1818/ 89872 46/// ///// 11058 39891 4//// 5////
AAXX 1818/ 89869 46/// ///// 11115 39840 4//// 5////
AAXX 1818/ 89866 46/// ///// 11053 39817 4//// 5////
AAXX 1818/ 89769 46/// ///// 11103 39893 4//// 5////
AAXX 1818/ 89828 46/// ///// 11276 36556 4//// 5////
AAXX 1818/ 89879 46/// ///// 11011 39835 4//// 5////
AAXX 1818/ 89799 46/// ///// 11219 4//// 5////
AAXX 1818/ 89868 46/// ///// 11066 39870 4//// 5////
AAXX 1818/ 89769 46/// ///// 11096 39893 4//// 5////
AAXX 18184 91643 11498 73609 10277 20245 40079 52011 60001 71501 82378 333 56199 82918 85360 87280
AAXX 18184 91648 11499 30410 10271 20239 40080 60001 70111 82200 333 561//
AAXX 18184 04211 NIL
AAXX 18184 04220 07/84 01914 11093 21152 39877 49929 52010 60042 70080 333 11069 21095 55300 20004 69977 91235
AAXX 18184 04221 47629 82214 11083 21179 39892 49930 52009 72277 333 11028 21089 81/37 85/44 88///
AAXX 18184 04231 12989 30707 11138 21208 39876 49952 52002 6///2 80001 333 11064 21147 83067
AAXX 18184 04234 47707 70721 11096 21160 39902 49912 57018 78588 333 11069 21101 81/// 86/56 87/60 91136 91029
AAXX 18184 04241 47636 71024 11087 21128 39881 49921 57013 75465 333 11079 21094 81/42 85/// 87/57
AAXX 18184 04250 07670 81516 11073 21162 39819 49925 57009 69902 78587 333 10141 21148 55300 20014 69907 81/41 88/49 91126
AAXX 18184 04254 45777 81410 11075 21195 39824 49940 57007 333 11072 21098 88/57 91123
AAXX 18184 04260 47409 81215 11082 21114 39908 49953 57005 77177 333 11059 21108 81/15 88/32
AAXX 18184 04270 45783 30705 11109 21190 39929 49969 54000 333 11039 21110 83/56
AAXX 18184 04272 07683 1//// 11080 21097 39894 49967 57004 69972 72487 333 11040 21080 69977 81/39
AAXX 18184 04312 46/// ///// 11275 21311 39915 49957 57011
AAXX 18184 04320 45/83 /2802 11280 21320 39972 49989 57012 333 11172 21343 55300
AAXX 18184 04339 45/84 ///// 11140 21209 39922 40016 57019 333 11128 21168 55300 20000
AAXX 18184 04360 06/// /0922 11034 21047 39738 49807 57008 60072 333 11016 21034 55300 20000 60017 91034 91141
AAXX 18184 04361 46/// 90833 11041 21057 39762 49814 57008 333 11035 21058 89/09 91172
AAXX 18184 04390 07/73 02419 11042 21148 39833 49927 52001 60112 72287 333 11024 21047 60027 91133
AAXX 18184 64551 32360 71806 10275 20240 30055 40084 8453/ 333 59002 84610 87360
AAXX 18124 91648 11498 70216 10259 20243 40087 60031 78062 8337/ 333 10314 5619/
AAXX 18184 43400 NIL
AAXX 18184 43404 NIL
AAXX 18184 43410 NIL
AAXX 18184 43413 NIL
AAXX 18184 43415 NIL
AAXX 18184 43418 21470 81606 10248 20243 3//// 4//// 75086 8322/ 333 5//// 60177 82818 81920 88460
AAXX 18184 43421 21460 80201 10240 20231 30016 40118 78088 8512/ 333 58001 60047 85818 88460
AAXX 18184 43422 NIL
AAXX 18184 43424 21868 80705 10242 20236 30104 40106 78082 8802/ 333 58001 60037 88458
AAXX 18184 43436 21470 60902 10269 20237 30103 40105 70282 82106 333 59004 60007 82818 86280
AAXX 18184 43441 NIL
AAXX 18184 43444 21460 80000 10220 20211 39577 40078 78082 8512/ 333 59005 69907 85816 88460
AAXX 18184 43467 22458 80000 10253 20243 30099 40104 8397/ 333 58001 60007 83816 81918 87458
AAXX 18184 43473 21220 80508 10149 20149 38134 48501 78086 8522/ 333 58000 60037 83704 85808 88456
AAXX 18184 43475 NIL
AAXX 18184 43476 NIL
AAXX 18184 43479 NIL
AAXX 18184 43486 21460 70000 10246 20240 30006 40100 78098 83220 333 58001 69917 83810 84450
AAXX 18184 43495 22460 8//// 10250 20235 30097 40113 8521/ 333 58010 60007 85818 88458
AAXX 18184 43497 21472 70505 10248 20236 30091 40108 70282 8597/ 333 58015 69937 84818 81920 86458
BBXX 44067 18181 99384 70770 46/// /0506 10053 40243 58011 91800
AAXX 18184 43400 NIL
AAXX 18184 43404 NIL
AAXX 18184 43410 NIL
AAXX 18184 43413 NIL
AAXX 18184 43415 NIL
AAXX 18184 43418 21470 81606 10248 20243 3//// 4//// 75086 8322/ 333 5//// 60177 82818 81920 88460
AAXX 18184 43421 21460 80201 10240 20231 30016 40118 78088 8512/ 333 58001 60047 85818 88460
AAXX 18184 43422 NIL
AAXX 18184 43424 21868 80705 10242 20236 30104 40106 78082 8802/ 333 58001 60037 88458
AAXX 18184 43436 21470 60902 10269 20237 30103 40105 70282 82106 333 59004 60007 82818 86280
AAXX 18184 43441 NIL
AAXX 18184 43444 21460 80000 10220 20211 39577 40078 78082 8512/ 333 59005 69907 85816 88460
AAXX 18184 43467 22458 80000 10253 20243 30099 40104 8397/ 333 58001 60007 83816 81918 87458
AAXX 18184 43473 21220 80508 10149 20149 38134 48501 78086 8522/ 333 58000 60037 83704 85808 88456
AAXX 18184 43475 NIL
AAXX 18184 43476 NIL
AAXX 18184 43479 NIL
AAXX 18184 43486 21460 70000 10246 20240 30006 40100 78098 83220 333 58001 69917 83810 84450
AAXX 18184 43495 22460 8//// 10250 20235 30097 40113 8521/ 333 58010 60007 85818 88458
AAXX 18184 43497 21472 70505 10248 20236 30091 40108 70282 8597/ 333 58015 69937 84818 81920 86458
BBXX 42085 18181 99179 70665 46/// /1703 10280 40135 91750 333 91204
BBXX 42085 18181 99179 70665 46/// /1703 10279 40136 91740 333 91204
BBXX 42085 18181 99179 70665 46/// /1703 10282 40134 58023 91800 22200 00280 10501 70006 333 91204
AAXX 18181 50136 32970 00000 11332 21372 39708 40303 52004 333 11157
AAXX 18181 50745 32965 02901 11165 21196 30085 40283 52005 333 11080
AAXX 18181 50774 32960 00000 11249 21269 39934 40266 52004 333 11113
AAXX 18181 50788 32970 02704 11200 21227 30138 40231 52001 333 11125
AAXX 18181 51133 NIL
AAXX 18181 51431 NIL
AAXX 18181 51747 NIL
AAXX 18181 52203 NIL
AAXX 18181 52418 NIL
AAXX 18181 52681 NIL
AAXX 18181 53564 NIL
AAXX 18181 53614 31958 30000 11096 21108 38970 40327 57010 71000 80002 333 05351 11017
AAXX 18181 53646 32965 70000 11051 21099 38908 40297 57009 80002 333 05407 11001
AAXX 18181 53798 NIL
AAXX 18181 53845 32962 02002 11050 21073 39143 40303 57010 333 05401 10040
AAXX 18181 53959 NIL
AAXX 18181 54094 32962 02701 11157 21201 39957 40277 52003 333 11076
AAXX 18181 54102 32980 01803 11240 21273 39110 40422 57003 333 11168
AAXX 18181 54161 32962 02202 11146 21197 39978 40291 52003 333 11071
AAXX 18181 54292 32965 02702 11135 21198 39945 40284 52002 333 11061
AAXX 18181 54374 32962 00202 11192 21219 39836 40339 52009 333 11081
AAXX 18181 54423 NIL
AAXX 18181 54618 NIL
AAXX 18181 54843 NIL
AAXX 18181 54909 32962 00000 11030 21070 30254 40320 52002 333 10055
AAXX 18181 56029 32980 02701 11114 21184 36446 57002 333 05301 10035
AAXX 18181 57127 32960 81401 10046 20034 39670 40293 57009 8807/ 333 10062
AAXX 18181 57131 32965 03202 11008 21041 39792 40304 57018 333 10047
BBXX 44255 18181 99473 70573 46/// /0407 11034 40176 57024 22200 00041 11002 70011 333 91209
AAXX 18180 44203 329// 00000 11389 21417 38489 40653 56002
AAXX 18180 44207 329// 02702 11367 21404 38364 40597 57007
AAXX 18180 44212 32999 01803 11334 21362 39287 40603 58002
AAXX 18180 44213 32999 00000 11349 21383 38904 40625 57002
AAXX 18180 44215 31997 30000 11275 21293 38480 40535 57010 71000 83040
AAXX 18180 44218 419// 83401 11218 21243 38687 40491 53001 77172 8802/
AAXX 18180 44225 319// 00000 11404 21426 38344 40685 56002 70270
AAXX 18180 44230 329// 00102 11314 21350 38883 40579 57008
AAXX 18180 44232 329// 00000 11388 21430 39229 40576 57008
AAXX 18180 44237 32999 02303 11273 21304 38548 40500 57003
AAXX 18180 44239 329// 03501 11289 21327 38868 40481 58008
AAXX 18180 44241 329// 01803 11333 21350 39371 40498 57008
AAXX 18180 44256 32999 02707 11169 21203 39406 40329 58002
AAXX 18180 44265 329// 30000 11225 21257 38887 40423 51006 80004
AAXX 18180 44272 329// 00000 11286 21324 38264 40507 52002
AAXX 18180 44275 32999 00000 11338 21350 37741 40596 56003
AAXX 18180 44282 42999 00000 11214 21254 38335 40451 57007 70171
AAXX 18180 44284 32999 00701 11324 21359 37875 40645 56004
AAXX 18180 44285 32999 00000 11286 21314 38365 40539 57007
AAXX 18180 44287 32999 00304 11221 21262 38153 40496 58004
AAXX 18180 44294 329// 03403 11299 21327 38613 40527 57004
AAXX 18180 44298 329// 03602 11265 21271 38768 40447 57003
AAXX 18180 44302 329// 02707 11231 21273 39176 40410 57002
AAXX 18180 44305 32999 02904 11256 21290 39117 40406 56004
AAXX 18180 44313 32999 02303 11200 21241 39450 40363 54000
AAXX 18180 44314 NIL
AAXX 18180 44317 32998 00000 11195 21236 38997 40389 57009
AAXX 18180 44336 329// 00000 11277 21307 38755 40319 58007
AAXX 18180 44341 329// 00000 11229 21262 38655 40467 58006
AAXX 18180 44347 32999 00000 11227 21267 38768 40443 58012
AAXX 18180 44352 32999 00000 11221 21247 38981 40405 56003
AAXX 18180 44358 329// 00000 11261 21273 39164 40447 58003
AAXX 18180 44214 32998 00000 11292 21326 38331 40576 52001
AAXX 18180 44231 319// 00000 11329 21389 38813 40603 57006 70400
AAXX 18180 44259 32997 02907 11203 21250 39374 40352 58003 333 91112
AAXX 18180 44277 NIL
AAXX 18180 44288 32999 02802 11190 21279 38194 40452 57009
AAXX 18180 44292 418// 50000 11281 21304 38775 40506 56005 70272 84051
AAXX 18180 44304 329// 02304 11281 21311 39061 40438 57003
AAXX 18180 44354 329// 00000 11274 21298 39188 40451 57006
AAXX 18180 44373 32999 22501 11204 21249 38581 40427 57006 80004
BBXX 44255 18181 99473 70573 46/// /0407 11034 40176 57024 22200 00041 11002 70011 333 91209
AAXX 18181 48870 11498 83606 10235 20190 30144 40151 58014 69951 70262 888// 333 59001 83894 88696
AAXX 18181 48920 11598 83612 10260 20251 30059 40062 57016 60121 72582 889// 333 59016 83995 85697 91122 9150 2
AAXX 18181 48887 32798 73401 10205 20205 30099 40105 58001 81508 333 59001 81697 87299
AAXX 18181 48877 11598 83609 10238 20184 30118 40123 57021 69911 70382 888// 333 59009 83895 86696 91116 9153 4
AAXX 18181 48806 32797 60000 10134 20111 39436 40228 57018 865// 333 59011 86697
AAXX 18184 40100 12960 00902 10165 20092 30190 40222 53012 60001 918// 333 10225 92427
AAXX 18184 40101 12958 00507 10061 20048 39169 48555 53017 60001 918// 333 10162
AAXX 18184 40103 32958 10602 10114 20081 40229 52007 80001 333 10201 81070 555 10191
AAXX 18184 40102 NIL
AAXX 18181 48892 11496 80508 10252 20249 30063 40068 58013 60481 78182 889// 333 59018 81894 84995 85697 9111 6 91505 96162
AAXX 18184 47401 11/30 82610 11048 21080 30124 40139 57001 69901 78582 883//
AAXX 18184 47412 12/60 11502 11082 21112 30130 40164 57001 60001 81200
AAXX 18184 47420 15/70 /2915 11047 21121 30104 40139 58005 60001
AAXX 18184 47426 15/70 /0406 11067 21126 30115 40165 50003 60001
AAXX 18184 47582 11/60 73210 10015 21070 30164 40192 56005 69901 70282 873//
AAXX 18184 47590 11/65 32203 10008 21031 30141 40196 58005 69901 72682 83300
AAXX 18184 47600 17/28 /2201 10007 20000 30200 40209 56002 60051 76866
AAXX 18184 47648 12/80 80313 10079 20011 30141 40176 56004 69901 8557/
AAXX 18184 47662 12/80 23206 10047 21048 30139 40184 58003 60001 82500
AAXX 18184 47678 17/70 /2709 10112 20030 39991 40179 57008 69901 70060
AAXX 18184 47740 17/82 /3403 10046 20006 30188 40223 53001 69901 70085
AAXX 18184 47778 15/70 /3314 10080 21015 30125 40210 58004 60001
AAXX 18184 47807 12/65 72704 10079 21006 30243 40262 53001 60001 872//
AAXX 18184 47827 11/70 63206 10063 20012 30218 40258 58006 69901 72511 86800
AAXX 18184 47843 15/82 /3407 10081 21001 30238 40271 50002 60001
AAXX 18184 47893 12/70 23102 10026 21007 30231 40237 51001 60001 82102
AAXX 18184 47909 11/65 71603 10122 20111 30233 40243 56010 60011 72582 87200
AAXX 18184 47918 11/65 60312 10179 20157 30196 40214 56014 69951 78081 86200
AAXX 18184 47936 12/80 10307 10165 20104 30168 40228 58011 60001 81130
AAXX 18184 47945 12/65 60308 10179 20095 30196 40221 58008 60001 82230
AAXX 18184 47971 11/60 73302 10176 20131 30181 40191 58011 69901 72522 872//
AAXX 18184 47991 16/// /1410 10248 20213 30157 40167 56010 69901
AAXX 18184 47407 11/65 61403 11092 21122 39983 40165 56002 69951 72688 86200
AAXX 18184 47409 12/65 12408 11088 21151 30092 40149 50001 60001 81230
AAXX 18184 47418 12/60 13104 11122 21160 30107 40160 50001 60001 81600
AAXX 18184 47421 17/67 /3008 11035 21076 30124 40169 55001 60011 77170
AAXX 18184 47430 11/58 63304 11054 21068 30119 40176 56001 69901 78582 86300
AAXX 18184 47570 17/70 /0503 11004 21015 39935 40203 58006 69901 72476
AAXX 18184 47575 11/04 82507 11021 21029 30178 40183 50000 60071 78688 883//
AAXX 18184 47584 12/65 71003 11026 21077 39993 40190 57003 60001 872//
AAXX 18184 47604 11/08 81403 10003 21007 30197 40206 58006 60031 78682 882//
AAXX 18184 47605 11/70 80808 10027 20014 30158 40200 56006 60031 72582 882//
AAXX 18184 47610 11/65 80904 11005 21012 39681 40200 58009 69951 78588 882//
AAXX 18184 47624 12/75 33303 10003 21040 30047 40191 57001 60001 81531
AAXX 18184 47629 12980 13203 10003 21038 30144 40184 58005 60001 81030
AAXX 18184 47636 11/65 80102 10056 20019 30139 40209 52001 69901 78082 888//
AAXX 18184 47651 13/// /2507 10064 21022 30186 40209 56004 60001
AAXX 18184 47655 15/70 /2809 10050 21002 30135 40193 57005 60001
AAXX 18184 47675 15/70 /2411 10080 20018 30088 40181 52001 60001
AAXX 18184 47741 11/75 61702 10027 20011 30202 40230 55001 69901 70282 86200
AAXX 18184 47746 11/65 61205 10033 20017 30208 40228 58001 69951 78082 86200
AAXX 18184 47750 11/62 81903 10047 20016 30194 40222 53003 69901 78082 882//
AAXX 18184 47765 12/70 10204 10029 20002 30178 40246 50001 60001 81200
AAXX 18184 47772 12/80 52807 10071 21026 30120 40222 55000 60001 81132
AAXX 18184 47800 15/81 /3213 10051 21042 30262 40267 56002 60001
AAXX 18184 47815 12/65 42602 10068 21024 30234 40251 58004 60001 84400
AAXX 18184 47817 11/80 33504 10078 20023 30220 40265 56001 69901 70181 83800
AAXX 18184 47830 12/80 53103 10045 21005 30234 40253 58001 60001 81430
AAXX 18184 47887 12/70 51003 10046 21006 30203 40246 55000 60001 85500
AAXX 18184 47891 12/70 22706 10069 21025 30217 40234 53001 60001 81101
AAXX 18184 47895 12/75 52909 10060 20006 30225 40233 53003 60001 81232
AAXX 18184 47927 11/70 20510 10197 20134 30168 40217 56011 69901 70262 82200
AAXX 18184 43466 21470 70000 10258 20237 30091 40103 70398 8327/ 333 59003 60007 83818 86460
AAXX 18181 50953 32965 21801 11170 21193 30083 40275 52001 82030 333 11093
AAXX 18181 52533 32980 02502 11138 21179 38546 40316 57012 333 05251 11018
AAXX 18181 52652 32980 01102 11143 21181 38554 40312 57016 333 05355 11009
AAXX 18181 52866 32968 02501 11125 21163 37707 57006 333 05300 10032
AAXX 18181 53588 32980 32704 11098 21163 37797 57008 80002 333 11073
AAXX 18181 53772 31930 70000 11060 21094 39361 40323 57009 71000 80002 333 10012
AAXX 18181 53915 31756 82702 11045 21057 38707 40306 57011 71000 885// 333 05302 11010
AAXX 18181 54342 32960 02501 11137 21173 30244 40310 52004 333 11032
AAXX 18181 54511 32975 40401 11020 21190 30278 40320 57002 80002 333 10038
AAXX 18181 56080 32980 00401 11125 21189 37150 57007 333 05202 10051
AAXX 18181 56096 32772 80201 10043 21026 39001 40261 57006 885// 333 05303 10085
AAXX 18181 53564 32970 70000 11046 21075 39260 40321 57007 8703/ 333 05510 11014
AAXX 18181 53959 32960 22502 11032 21060 39846 40303 57002 80002 333 10071
AAXX 18181 54843 31956 21801 11039 21067 30296 40325 57005 71000 80002 333 10040
AAXX 18181 57265 32961 03401 10013 21002 30196 40311 57001 333 10093
AAXX 18181 57494 32965 03401 11018 21021 30274 40305 57006 333 10111
AAXX 18181 58221 31958 31101 11023 21054 30298 40328 57001 71000 83040 333 10066
AAXX 18181 58847 32973 03402 10100 20050 30172 40276 57004 333 10163
AAXX 18181 59134 32966 00404 10121 20057 30078 40247 57010 333 10182
AAXX 18181 59287 32968 23604 10104 20050 30152 40238 57009 80002 333 10200
AAXX 18184 65501 32960 70000 10268 20014 39792 40110 80002 333 10313 59018 87076
AAXX 18184 65502 32960 70402 10279 20010 39719 40099 80002 333 10315 59016 87076
AAXX 18184 65503 31956 70202 10280 20034 39755 40101 70622 80002 333 10326 59010 87076
AAXX 18184 65505 32960 50000 10290 20040 39758 40097 80002 333 10345 59010 85076
AAXX 18184 65507 31958 73602 10280 20105 39745 40096 70622 80002 333 10343 59014 87076
AAXX 18184 65510 31956 53404 10285 20049 39578 40091 70622 80002 333 10325 59014 85076
AAXX 18184 65516 32960 50000 10302 20076 39783 40089 80002 333 10335 59013 85076
AAXX 18184 65518 32960 70000 10276 20061 39725 40089 80002 333 10338 59010 87076
AAXX 18184 65522 31958 70000 10300 20008 39762 40092 70622 80002 333 10340 59005 87076
AAXX 18181 08501 32/// /1703 10184 20143 30263 40298 52004 333 10210 91106
AAXX 18181 08505 32470 72102 10184 20146 30263 40313 55001 8683/ 333 10190 82816 86640
AAXX 18181 08509 32560 52403 10181 20132 30251 40316 55000 84801 333 10211 81830 84645
AAXX 18181 08512 NIL
AAXX 18181 08515 32589 63204 10180 20147 30196 40319 56003 81801 333 10196 81820 86080 910// 911//
AAXX 18181 08533 12/// /0000 10102 20053 30212 40241 52009 69962 333 10146
AAXX 18181 08541 32/// /0204 10096 20009 30128 40249 52011 333 10136
AAXX 18181 08545 31562 83602 10078 20025 30181 40266 52004 70211 82802 333 10124 81825 84075
AAXX 18181 08548 32/// /0000 10082 20040 30053 40263 52008 333 10112
AAXX 18181 08554 12965 23402 10122 20013 30231 40240 52010 69912 80001 333 10160 82080 91105
AAXX 18181 08558 32/// /0402 10069 20018 39950 40251 52011 333 10118
AAXX 18181 08560 32/// /0303 10056 20001 39495 40268 52011 333 10097
AAXX 18181 08567 32/// /9901 10053 20007 39591 40271 52007 333 10096
AAXX 18181 08570 32/// /0102 10075 20003 39791 40259 52012 333 10114
AAXX 18181 08575 32/// /9901 10058 21025 39444 40270 52013 333 10095
AAXX 18181 08579 NIL
AAXX 18184 78988 02482 60710 10285 20220 30111 40121 57025 60001 86860 333 59002 60007 82818 86650
AAXX 18184 78990 02570 70914 10293 20212 30122 40129 57023 60001 85270 333 59001 60007 85821 86458
AAXX 18184 78873 02580 10611 10267 20196 30098 40143 57022 60001 81101 333 59002 60007 81824
AAXX 18181 51076 32980 01801 11169 21201 39411 40358 52006 333 05101 11079
AAXX 18181 51243 11865 73401 11141 21154 39762 40358 52002 69901 77070 83502 333 05154 11075
AAXX 18181 51463 11765 70701 11128 21144 39171 40349 52006 69911 77070 86502 333 05151 11078
AAXX 18181 51573 32970 42701 11073 21126 30261 40307 57007 80002 333 05400 11020
AAXX 18181 51709 11862 82502 11047 21073 38741 40279 57004 69901 77070 885// 333 05351 11029
AAXX 18181 52983 32975 01603 11096 21111 38124 57010 333 05300 10027
AAXX 18181 54401 32965 03404 11098 21227 39431 40342 57004 333 11018
AAXX 18181 51133 32980 00702 11131 21164 39638 40326 52001 333 05201 11039
AAXX 18181 51431 32970 80201 11096 21111 39459 40301 57005 8802/ 333 05252 11072
AAXX 18181 51747 32980 73402 11101 21138 38965 40311 52004 80002 333 05308 11026
AAXX 18181 52203 32980 40701 11127 21172 39362 40288 57007 80002 333 05551 11010
AAXX 18181 52418 32980 00702 11110 21178 38886 40270 57009 333 05500 11005
AAXX 18181 52681 32980 00401 11126 21164 38674 40329 57013 333 05301 11023
AAXX 18181 53798 31957 70000 11032 21058 30216 40317 57009 71000 80002 333 10017
AAXX 18181 54423 32980 00000 11121 21195 39805 40351 52004 333 11017
AAXX 18181 54618 32961 60000 11051 21088 30299 40317 57009 80002 333 10042
AAXX 18184 62305 32960 01907 10131 20064 40183 52015 333 10189
AAXX 18184 62306 32960 01908 10138 20074 40198 52012 333 10204
AAXX 18184 62318 32560 60504 10158 20128 40199 52015 86800 333 10208
AAXX 18184 62337 NIL
AAXX 18184 62366 32860 30508 10166 20122 40192 52018 83030 333 10219
AAXX 18184 62393 32960 30000 10132 20072 40180 53003 80320 333 10228
AAXX 18184 62405 32960 00000 10154 20068 40168 52015 333 10248
AAXX 18184 62414 32960 03507 10193 20026 40172 52015 333 10246
AAXX 18184 62417 32960 00000 10106 20063 40179 52011 333 10210
AAXX 18184 62440 32960 30508 10161 20150 40191 52011 83070 333 10230
AAXX 18184 62463 32560 53103 10176 20114 40174 52010 82202 333 10231
AAXX 18184 62465 32960 03004 10187 20098 40160 52010 333 10234
AAXX 18184 62419 NIL
AAXX 18181 58362 32565 20201 10041 20006 30311 40319 52002 82100 333 10074
AAXX 18181 58752 32763 42702 10086 20055 30246 40293 57008 84500 333 10141
AAXX 18181 01271 17383 81203 11082 21100 39964 49985 58002 6//// 700// 333 11078 91105
AAXX 18181 01415 17/70 63506 10032 20011 30022 40032 51011 6//// 781// 333 10033 91108
AAXX 18184 48372 31956 20000 10216 20199 30100 40159 52002 71000 80005 333 58020
AAXX 18184 48480 31957 10408 10241 20155 30115 40119 57010 70500 80001 333 59001
AAXX 18184 48352 32960 01302 10178 20136 39971 40178 57011 333 59007
AAXX 18181 40703 11540 60000 11024 21045 39029 40359 52018 60001 71022 84670 333 55000 84720 86359
AAXX 18181 40712 11910 22502 11036 21047 38762 40332 52013 60001 71000 80002 333 55028 28045 82068
AAXX 18181 40729 12960 20000 11030 21058 38404 40302 53013 60001 80001 333 55065 21038 82070
AAXX 18181 40736 12560 40000 10100 20079 30297 40272 52009 60001 84600 333 55046 84725
AAXX 18181 40739 12965 00000 10022 21035 38755 40287 51015 60001 333 55061
AAXX 18181 40743 12965 00000 10006 21027 39135 40287 52014 60001 333 55062
AAXX 18181 40762 12962 03504 10023 21068 38597 40250 52008 60001 333 55041
AAXX 18181 40768 12965 11002 11038 21081 38329 40313 52019 60001 80001 333 55090 21187 81070
AAXX 18181 40769 12960 00000 10022 21060 38363 40269 51016 60001 333 55083 21111
AAXX 18181 40785 12960 00000 10062 21015 39147 40257 52017 60001 333 55080
AAXX 18181 40809 11560 50702 10014 20009 38554 40255 50003 60021 70186 83471 333 55036 20805 83630 84359
AAXX 18181 40821 12960 02602 10056 21048 38859 40278 52018 60001 333 55068 21132
AAXX 18181 40831 12960 03302 10110 20042 30224 40232 51012 60001 333 55091
AAXX 18181 40706 11930 30603 11018 21040 38735 40332 52021 60001 71021 80002 333 55000 20444 83069
AAXX 18181 40718 11956 70000 10112 20100 30302 40273 52013 60001 71022 80006 333 55030 87268
AAXX 18181 40732 11456 81502 10112 20079 30287 40262 51013 60001 71022 886// 333 55019 88715
AAXX 18181 40745 11956 10000 10012 21017 39105 40282 52017 60001 71020 81030 333 55034 20725
AAXX 18181 40754 12960 21002 10082 21027 38890 40248 52016 60001 80001 333 55085 82070
AAXX 18181 40766 12960 01102 10008 21066 38760 40286 52010 333 55083 21179
AAXX 18181 40800 12960 00000 10014 21026 38508 40258 52017 60001 333 55088 2////
AAXX 18181 40811 12960 03104 10156 20038 30190 40217 51010 60001 333 55093 20276
AAXX 18181 40841 12960 00000 10040 21039 38311 40253 51027 60001 333 55092 21476
AAXX 18181 40848 12965 03002 10084 21045 38558 40212 51017 60001 333 55094 21420
AAXX 18181 40856 12965 13302 10064 21130 38662 40196 52015 60001 80002 333 55078 21280 81070
AAXX 18181 40875 11950 00000 10170 20146 30169 40181 52015 60001 71000 333 55080 21378
AAXX 18184 48427 31957 20203 10228 20175 30134 40142 57010 71000 80002 333 58000
AAXX 18184 48481 32960 03606 10245 20158 30088 40116 57017 333 59003
AAXX 18181 11603 01465 52602 10005 21029 39611 40102 52021 60012 72287 84501 333 10015 43002 69905 84615 93708
AAXX 18184 84056 31265 82704 10122 20109 71544 888// 555 30092
AAXX 18184 84143 11560 80302 10156 20098 37410 69931 75055 8211/ 333 58016 555 10003 30068
AAXX 18184 84202 31575 70000 10286 20200 30155 70544 81130 333 58005 555 30060
AAXX 18184 84135 32675 53606 10333 20210 30058 83230 333 58000 555 30048
AAXX 18184 84270 31665 53106 10224 20126 70544 85300 555 30054
AAXX 18184 84179 11570 50000 10258 20191 39055 60091 72166 83230 333 58002 555 10089 30066
AAXX 18184 84105 31567 40404 10304 20195 31001 70544 84100 333 58000 555 30052
AAXX 18184 84142 11230 80000 10188 20168 69941 75055 887// 555 10004 30088
AAXX 18184 84036 31570 81404 10177 20100 70544 8543/ 555 30059
AAXX 18184 84132 11550 83604 10250 20228 39883 60051 76366 888// 333 59001 555 10047 30087
AAXX 18184 84076 11565 73602 10188 20138 69931 70545 87500 555 10003 30073
AAXX 18184 84140 32681 51404 10308 20190 30028 40113 82240 333 58002 555 30049
AAXX 18184 84008 32675 31414 10271 20204 30132 40142 82830 00198 333 58008 555 30067
AAXX 18184 84056 31270 62308 10184 20082 71544 84430 555 30051
AAXX 18184 84088 31565 81804 10150 20111 37069 71544 883// 333 58006 555 30077
AAXX 18184 84050 31575 63610 10279 20201 70544 83230 555 30063
AAXX 18184 84160 11456 80902 10175 20108 37266 69911 74045 8783/ 333 58002 555 10001 30065
AAXX 18184 84204 31668 70000 10298 20194 70544 83410 555 30054
AAXX 18184 84226 31550 80000 10124 20112 74044 887// 555 30090
AAXX 18184 84072 11565 70406 10181 20139 37301 69901 72054 84310 333 58006 555 1 T 30067
AAXX 18184 84173 11462 70904 10174 20103 69941 71545 85735 555 10004 30063
AAXX 18181 40670 12960 03502 10135 20048 40250 52013 60002
AAXX 18181 40672 12960 00000 10123 20052 40257 51013 60002
AAXX 18181 40680 12960 03203 10130 20042 40232 53009 60002
AAXX 18181 40689 12960 02705 10140 20061 40240 51009 60002
AAXX 18181 40608 12960 00000 10064 20019 40282 52016 60002
AAXX 18181 40627 12960 00000 10086 20046 40277 52013 60002
AAXX 18181 40634 12960 00000 10104 20046 40272 52025 60002
AAXX 18181 40643 12960 01203 10080 20033 40281 52017 60002
AAXX 18181 40701 11510 80000 11056 21060 38685 40371 52017 60001 71022 886// 333 55000 88720
AAXX 18181 40704 12962 23205 10006 21038 38677 40200 52013 60001 80001 333 55065 20893 82069
AAXX 18181 40708 12960 32205 10032 21026 38728 40262 52016 60001 80008 333 55078 20994 83268
AAXX 18181 40710 11/00 90000 11058 21062 38390 40361 51008 60001 74544 333 55000 89/01
AAXX 18181 40713 11924 00000 11018 21043 38741 40322 52015 60001 71020 333 55044
AAXX 18181 40719 11540 79901 10102 20090 30280 40270 52012 60001 71022 85570 333 55045 85620 87358
AAXX 18181 40731 12960 00101 10014 21039 38795 40270 52018 60001 333 55084 21017
AAXX 18181 40738 11956 30000 10050 20040 30295 40297 52013 60001 71021 80002 333 55032 83068
AAXX 18181 40740 12960 00000 11050 21056 38792 40297 52016 60001 333 55064
AAXX 18181 40747 12960 00000 10004 21034 38700 40294 51020 60001 333 55073 21010
AAXX 18181 40757 12962 03601 10040 21017 38965 40276 51013 60001 333 55052 20551
AAXX 18181 40763 12965 10000 10014 21034 38974 40268 52011 60001 80001 333 55043 81070
AAXX 18181 40782 12962 01502 10020 21052 38936 40276 51011 60001 333 55086
AAXX 18181 40783 12965 01206 11006 21095 38043 40280 51012 60001 333 55091
AAXX 18181 40789 12965 00000 10044 21020 39275 40272 52011 60001 333 55030 20795
AAXX 18181 40798 12960 00000 11056 21158 38017 40294 52018 60001 333 55092 21337
AAXX 18181 40818 12965 00000 10002 21092 38027 40258 51015 60001 333 55093
AAXX 18181 40827 12965 30000 10098 21057 38883 40260 53027 60001 80002 333 55075 83069
AAXX 18181 40836 12965 01502 10028 21106 38234 40253 52018 60001 333 55094 21436
AAXX 18181 40851 12960 00604 10044 21062 38305 40214 52015 60001 333 55088
AAXX 18181 40853 12960 03606 10036 21084 37777 40197 52015 60001 333 55095
AAXX 18181 40854 12960 02902 10110 21044 39007 40211 52045 60001 333 55083
AAXX 18181 40857 12960 03309 10196 20129 30199 40208 52014 60001 222// 00/// 20402 333 55086
AAXX 18181 40859 12960 03402 10052 21026 38747 40201 52019 60001 333 55095
AAXX 18181 40878 12965 00402 10132 21122 38857 40187 51010 60001 333 55089
AAXX 18181 40879 12960 00000 10132 21069 39510 40193 52019 60001 333 55080
AAXX 18181 40883 11956 02804 10204 20157 30154 40177 51008 60001 70500 333 55081
AAXX 18181 40898 12962 22103 10222 20184 30153 40162 51006 60001 80002 222// 00243 10600 333 55096 2//// 82070
AAXX 18184 82143 NIL
AAXX 18184 82599 32570 51214 10295 20218 30040 40100 85100 333 59000
AAXX 18184 82824 22470 62702 10317 20247 39984 40084 85210 333 59019 69901
AAXX 18184 82899 32570 51510 10295 20194 30104 40116 85200 333 58000
AAXX 18184 83117 NIL
AAXX 18184 83248 32470 41110 10288 20220 30108 40130 82101 333 59000
AAXX 18184 83746 32970 50405 10312 20196 40070 58022 82430
AAXX 18184 NIL
AAXX 18184 NIL
AAXX 18184 NIL
AAXX 18184 83437 NIL
AAXX 18184 83550 31897 7//// 10282 20217 30084 40113 70211 85072 333 58002
AAXX 18184 83552 NIL
AAXX 18184 83565 NIL
AAXX 18184 83579 NIL
AAXX 18184 83592 NIL
AAXX 18184 83623 NIL
AAXX 18184 83630 NIL
AAXX 18184 83676 NIL
AAXX 18184 83698 21397 83603 10254 20231 30102 40116 56011 75255 887// 333 69921
AAXX 18184 83702 NIL
AAXX 18184 83704 NIL
AAXX 18184 83716 NIL
AAXX 18184 83726 NIL
AAXX 18184 83738 31698 80000 10300 20194 39590 40076 57010 71520 889//
AAXX 18184 NIL
AAXX 18184 NIL
AAXX 18184 88883 46/// /2220 10118 20093 40009 52020
AAXX 18184 88897 46/// /2413 10114 20086 49978 52015
AAXX 18184 82022 32970 61308 10336 20200 39983 40078 86200 333 59001
AAXX 18184 82193 32570 53411 10296 20244 30066 40084 85200 333 59004
AAXX 18184 82281 32570 40416 10316 20198 30024 40086 84200 333 58003
AAXX 18184 82332 22570 73304 10293 20232 39988 40081 84000 333 59001 60031
AAXX 18184 82398 32570 40911 10283 20216 30068 40097 84100 333 58003
AAXX 18184 82400 32470 21508 10279 20223 30045 40110 82100 333 59005
AAXX 18184 82579 32570 22803 10360 20199 39994 40070 82100 333 58001
AAXX 18184 82917 NIL
AAXX 18184 82965 21450 72604 10283 20238 39751 40078 79592 883// 333 59005 69901
AAXX 18184 82993 32570 21010 10292 20193 39983 40119 82100 333 59001
AAXX 18184 83208 32470 73306 10258 20211 39413 48530 86430 333 59004
AAXX 18184 83349 32570 60507 10295 20225 30126 40132 81101 333 59001
AAXX 18184 83362 32570 42104 10325 20178 39863 40076 84100 333 59003
AAXX 18184 83378 21970 63109 10266 20167 38932 48500 72162 86231 333 59005 69911
AAXX 18184 83460 32570 60613 10270 20190 30071 40127 82201 333 58002
AAXX 18184 83497 NIL
AAXX 18184 83566 21358 80404 10200 20180 39197 48510 76062 8571/ 333 58006 60021
AAXX 18184 83599 NIL
AAXX 18184 83612 32970 51905 10318 20114 39467 48510 57024 84203
AAXX 18184 83649 42570 80512 10287 20216 30114 40119 5018 82507
AAXX 18184 83650 NIL
AAXX 18184 83780 21750 72516 10218 20179 39201 48490 55001 79596 84920 333 69961
AAXX 18184 83827 32570 42812 10312 20124 39807 40081 56021 84100
AAXX 18184 83840 32770 53013 10267 20075 39068 48480 57019 85200
AAXX 18184 83899 32570 21111 10280 20202 30048 40054 57012 82100
AAXX 18184 83925 NIL
AAXX 18184 83970 NIL
AAXX 18184 83971 32970 42813 10285 20143 30059 40063 57014 84500
AAXX 18184 NIL
AAXX 18184 83384 NIL
AAXX 18184 83386 NIL
AAXX 18184 83388 NIL
AAXX 18184 83393 NIL
AAXX 18184 83442 NIL
AAXX 18184 83479 NIL
AAXX 18184 83483 NIL
AAXX 18184 83531 NIL
AAXX 18184 83538 NIL
AAXX 18184 83574 NIL
AAXX 18184 83582 NIL
AAXX 18184 83595 NIL
AAXX 18184 83687 NIL
AAXX 18184 83692 NIL
AAXX 18184 83695 21696 80000 10240 20215 39991 40128 56010 72066 8652/ 333 60111
AAXX 18184 83718 NIL
AAXX 18184 NIL
AAXX 18181 40701 11510 80000 11056 21060 38685 40371 52017 60001 71022 886// 333 55000 88720
AAXX 18181 40704 12962 23205 10006 21038 38677 40200 52013 60001 80001 333 55065 20893 82069
AAXX 18181 40708 12960 32205 10032 21026 38728 40262 52016 60001 80008 333 55078 20994 83268
AAXX 18181 40710 11/00 90000 11058 21062 38390 40361 51008 60001 74544 333 55000 89/01
AAXX 18181 40713 11924 00000 11018 21043 38741 40322 52015 60001 71020 333 55044
AAXX 18181 40719 11540 79901 10102 20090 30280 40270 52012 60001 71022 85570 333 55045 85620 87358
AAXX 18181 40731 12960 00101 10014 21039 38795 40270 52018 60001 333 55084 21017
AAXX 18181 40738 11956 30000 10050 20040 30295 40297 52013 60001 71021 80002 333 55032 83068
AAXX 18181 40740 12960 00000 11050 21056 38792 40297 52016 60001 333 55064
AAXX 18181 40747 12960 00000 10004 21034 38700 40294 51020 60001 333 55073 21010
AAXX 18181 40757 12962 03601 10040 21017 38965 40276 51013 60001 333 55052 20551
AAXX 18181 40763 12965 10000 10014 21034 38974 40268 52011 60001 80001 333 55043 81070
AAXX 18181 40782 12962 01502 10020 21052 38936 40276 51011 60001 333 55086
AAXX 18181 40783 12965 01206 11006 21095 38043 40280 51012 60001 333 55091
AAXX 18181 40789 12965 00000 10044 21020 39275 40272 52011 60001 333 55030 20795
AAXX 18181 40798 12960 00000 11056 21158 38017 40294 52018 60001 333 55092 21337
AAXX 18181 40818 12965 00000 10002 21092 38027 40258 51015 60001 333 55093
AAXX 18181 40827 12965 30000 10098 21057 38883 40260 53027 60001 80002 333 55075 83069
AAXX 18181 40836 12965 01502 10028 21106 38234 40253 52018 60001 333 55094 21436
AAXX 18181 40851 12960 00604 10044 21062 38305 40214 52015 60001 333 55088
AAXX 18181 40853 12960 03606 10036 21084 37777 40197 52015 60001 333 55095
AAXX 18181 40854 12960 02902 10110 21044 39007 40211 52045 60001 333 55083
AAXX 18181 40857 12960 03309 10196 20129 30199 40208 52014 60001 222// 00/// 20402 333 55086
AAXX 18181 40859 12960 03402 10052 21026 38747 40201 52019 60001 333 55095
AAXX 18181 40878 12965 00402 10132 21122 38857 40187 51010 60001 333 55089
AAXX 18181 40879 12960 00000 10132 21069 39510 40193 52019 60001 333 55080
AAXX 18181 40883 11956 02804 10204 20157 30154 40177 51008 60001 70500 333 55081
AAXX 18181 40898 12962 22103 10222 20184 30153 40162 51006 60001 80002 222// 00243 10600 333 55096 2//// 82070
AAXX 18183 87007 31560 50905 10138 21011 36740 47143 57013 71791 85900 333 56400 57956 82630 83935
AAXX 18183 87148 31570 32702 10357 20122 39956 40061 57028 70500 83100 333 56000 83830
AAXX 18181 30372 42799 60201 11284 21308 39332 40296 58013 82541
AAXX 18181 30433 42999 02704 11094 21184 39683 40300 57007
AAXX 18181 30554 429// 00000 11278 21291 39156 40369 54000
AAXX 18181 30635 415// 82102 11080 21103 39729 40320 57008 78582 8597/
AAXX 18181 30673 42999 80000 11296 21301 39463 40323 58002 8802/
AAXX 18181 30692 42999 00502 11324 21342 39739 40300 52///
AAXX 18181 30758 42984 02204 11170 21212 39461 40339 53002
AAXX 18181 30802 42999 00000 11313 21324 38771 48525 57006
AAXX 18181 30823 42999 02502 11261 21286 39707 40419 57005
AAXX 18181 30879 42999 00000 11257 21275 39321 40321 57001
AAXX 18181 30935 42999 00000 11336 21366 39406 40488 58007
AAXX 18181 30949 42999 00000 11194 21227 39192 40373 57001
AAXX 18181 30965 429// 00000 11309 21326 39443 40378 54000
AAXX 18181 31168 42999 00502 11149 21230 30147 40159 53002
AAXX 18181 31300 41912 00000 11277 21289 39923 40246 54000 71040
AAXX 18181 31329 42999 00000 11372 21401 39523 40294 53001
AAXX 18181 31369 41496 82805 11170 21183 30070 40160 53007 78582 889// 333 88917 91010 91110
AAXX 18181 31416 42999 00000 11316 21333 30111 40212 52003
AAXX 18181 31484 42999 02903 11269 21286 39848 40222 52001
AAXX 18181 31512 429// 03001 11190 21231 30066 40245 53004
AAXX 18181 31538 42998 00202 11303 21321 39765 40251 52003
AAXX 18181 31707 42998 00000 11257 21275 30138 40239 53006
AAXX 18181 31735 42997 31901 11228 21257 30112 40209 50002 80001
AAXX 18181 31770 42982 02302 11179 21248 30136 40168 54000
AAXX 18184 87022 32560 13602 10336 20181 39564 40058 57025 81100 333 56700 81830
AAXX 18184 87046 NIL
AAXX 18184 87047 32568 33603 10295 20105 38774 48496 57028 83230 333 56060 57892 83820
AAXX 18184 87097 32570 32306 10307 20134 39778 40084 57021 83100 333 56000 83830
AAXX 18184 87121 32665 11806 10360 20128 39570 40062 57021 81100 333 56700 81840
AAXX 18184 87129 32665 21809 10382 20081 39845 40069 57021 82100 333 82835
AAXX 18184 87155 32565 12306 10348 20114 30013 40072 57021 81100 333 56400 81830
AAXX 18184 87162 32570 32512 10359 20066 30002 40070 57023 83500 333 56500 83625
AAXX 18184 87166 32560 12510 10347 20094 30002 40074 57020 81100 333 56800 81825
AAXX 18184 87178 32570 32311 10312 20084 39936 40078 57019 83100 333 56500 83825
AAXX 18184 87217 32770 30510 10391 20099 39567 40033 57027 83200 333 56600 83856
AAXX 18184 87222 32770 11402 10369 20067 39540 40039 57027 81400 333 56600 81656
AAXX 18184 87257 42965 01409 10374 20027 39951 40050 57035
AAXX 18184 87270 32565 12305 10354 20106 30002 40062 57025 81100 333 56500 81820
AAXX 18184 87289 32562 43212 10319 20104 39985 40066 57021 84100 333 56500 84825
AAXX 18184 87311 32765 21613 10378 20094 39377 40020 57036 82200 333 56000 57863 82850
AAXX 18184 87320 NIL
AAXX 18184 87328 32680 31804 10351 20071 39460 40086 57012 83100 333 56000 83840 95000
AAXX 18184 NIL
AAXX 18184 68029 42460 30603 10228 20203 48499 52009 83973 333 10279
AAXX 18181 22271 11498 81908 11009 21024 30115 40125 53006 69930 70275 886// 333 10007
AAXX 18181 22520 11495 81208 11003 21006 30025 40034 57006 60012 77372 8802/ 333 10012 88514 91112
AAXX 18181 22550 32473 81704 11004 21031 30096 40106 57004 886// 333 10015 88711
AAXX 18181 22583 32484 71403 11036 21058 30106 40189 58001 875// 333 10003 87612
AAXX 18181 22768 32697 71505 11022 21073 30092 40149 56002 85530 333 11002
AAXX 18181 22845 31496 81203 11010 21029 39926 40084 57010 78582 889// 333 11004 88917
AAXX 18181 22887 32997 81906 11062 21131 30155 40228 57008 86031 333 11043 91111
AAXX 18181 23205 NIL
AAXX 18181 23219 NIL
AAXX 18181 23418 31470 81505 11051 21076 30178 40254 54000 70272 885// 333 11016 88618 93403
AAXX 18181 23606 32960 02005 11080 21142 30093 40274 51004 333 11052
AAXX 18181 23711 32998 01603 11099 21130 30152 40336 52009 333 11080
AAXX 18181 23804 32997 62003 11075 21119 30136 40292 54000 80001 333 11073
AAXX 18181 27037 11597 81307 11029 21083 39911 40106 57018 69900 77172 8652/ 333 11003 86623
AAXX 18181 27199 32998 81504 11092 21122 30130 40340 58002 80001 333 11087
AAXX 18181 27271 32997 71107 11065 21116 30083 40246 58013 80002 333 11066 91112
AAXX 18181 27459 32498 81306 11048 21084 30017 40219 57005 885// 333 11057 88615 91114
AAXX 18181 27730 11497 81607 11038 21060 39931 40131 53009 69980 73673 885// 333 11023 81613 91117
AAXX 18181 26997 11447 82303 10025 20017 39864 40084 52034 60032 71022 889// 333 10041 86915
AAXX 18181 27595 32997 31505 11106 21142 30210 40369 58004 83080 333 11096 91110
AAXX 18181 27612 114// 81503 11031 21041 39875 40071 53001 60102 78687 883// 333 11015
AAXX 18181 27707 11550 62503 10009 20001 39770 40063 52041 60092 71072 86500 333 10009 86625
AAXX 18181 27719 11595 81506 10005 20002 39834 40086 52015 60082 78588 883// 333 10005 91114 93402
AAXX 18181 27786 32997 01203 11109 21137 30182 40354 57001 333 11067
AAXX 18181 27857 /1396 81407 11059 21067 30039 40208 57007 77172 886// 333 11082 88709 91118
AAXX 18181 27906 11497 71904 10023 20007 39854 40095 52047 60112 70162 87600 333 10033
AAXX 18181 27928 11396 81805 10012 20009 39912 40120 53025 60060 77176 8872/ 333 10007 91117
AAXX 18181 27947 11295 81511 11028 21041 30022 40185 54000 69900 78677 883// 333 11053 88706 91016 91118 92982 93401
AAXX 18181 27962 11597 71307 11084 21112 40289 53003 69900 73873 85550 333 11092 85620 91012 91114 92984
AAXX 18181 27983 32970 01304 11127 21154 30241 40381 54000 333 11106
AAXX 18181 27995 32973 01304 11116 21160 40399 57003 333 11110
AAXX 18181 28506 32997 01303 11108 21128 30293 40415 52002 333 11086
AAXX 18181 28704 32998 81503 11129 21156 30308 40414 52001 80001 333 11111
AAXX 18181 28711 31997 01506 11137 21164 30043 40452 52005 73630 333 11101 91111
AAXX 18181 28807 32997 01105 11133 21176 30374 40431 52003 333 11104
AAXX 18181 34009 11597 72303 10018 21001 39818 40125 52048 60112 70282 87500 333 10044
AAXX 18181 34110 11597 62705 10028 20001 39857 40136 52041 60102 70262 82330 333 10046
AAXX 18181 34123 11497 81407 10013 20010 39961 40146 52018 60030 78082 883// 333 10005 88910 91115
AAXX 18181 34152 11360 71305 11054 21072 30051 40256 53015 69930 77172 875// 333 11055 86708 91011 91116
AAXX 18181 34163 31498 71205 11099 21111 40314 58002 73611 87500 333 11106 87620 91012 91113
AAXX 18181 34171 11460 41509 11100 21122 30117 40323 57003 69900 73631 84500 333 11099 91012 91113 93608
AAXX 18181 34186 31978 01511 11118 21153 30227 40377 52009 73630 333 11107 91015 91117
AAXX 18181 34247 11256 81905 10011 20006 30091 40207 52013 69970 76176 8872/ 333 10003 85706 91115
AAXX 18181 34336 11497 81404 10019 20011 30095 40200 52022 60030 70286 8632/ 333 10011 55506 53012
AAXX 18181 34391 32997 01407 11109 21162 30337 40370 52013 333 11085 91114
AAXX 18181 35011 32984 01404 11146 21181 40475 52010 333 11107
AAXX 18181 35121 32998 01003 11203 21234 30351 40516 52014 333 11121
AAXX 18181 45032 NIL
AAXX 18181 45035 NIL
AAXX 18181 45039 NIL
AAXX 18181 45044 NIL
AAXX 18181 22028 11980 81402 11006 21018 30037 40075 57005 69922 77172 8802/ 333 10002 91002
AAXX 18181 22106 11597 80601 11030 21037 39976 40056 56002 69992 78582 889// 333 11030 85924 91002
AAXX 18181 22127 11398 81401 11002 21005 39861 40062 56001 60022 70282 889// 333 10001 86709 91003 93501
AAXX 18181 22324 11477 81403 10005 21001 30004 40054 57003 60032 70282 889// 333 10011 91006
AAXX 18181 22621 11482 81105 11003 21021 39890 40030 57005 69992 70282 889// 333 10008 87913 91111
AAXX 18181 22831 12497 81203 10007 21020 39984 40044 57011 69942 889// 333 10008
AAXX 18181 22892 12997 81305 10022 20006 39910 49926 57009 60022 8807/ 333 10035 91110
AAXX 18181 26275 11498 71404 10027 20019 39936 49966 52018 60022 72162 87500 333 10035
AAXX 18181 26389 11496 81702 10006 21002 39732 49995 53016 60032 71082 886// 333 10007
AAXX 18181 26499 11495 81504 11002 21005 39796 40026 53015 60072 77372 8872/ 333 10001 87710 91113
AAXX 18181 26695 11296 82003 10003 21003 39731 40039 52028 60102 71072 886// 333 10005 88706
AAXX 18181 26882 11484 72304 10019 20008 39781 40056 52033 60042 70282 87800 333 10022 87614
AAXX 18181 38598 429// 02713 11014 21040 40329 52020 333 91018
AAXX 18181 38599 NIL
AAXX 18181 38725 NIL
AAXX 18181 38734 414// 83202 11032 21062 47040 52006 78582 889//
AAXX 18181 38744 426// 70000 11018 21039 38010 48520 51001 87900
AAXX 18181 38836 315// 81402 10026 21001 39214 40270 52020 71022 889// 333 10080
AAXX 18181 38838 429// 81803 10020 21011 39583 40276 52013 80002
AAXX 18181 38844 NIL
AAXX 18181 38846 416// 80404 10018 20002 38526 48500 52003 71022 84933
AAXX 18181 38847 41/// /1802 10019 20014 40294 52021 74742 89///
AAXX 18181 38932 NIL
AAXX 18181 38933 316// 81803 10022 21006 39761 40290 52012 71022 885// 333 10046
AAXX 18181 38944 326// 80000 10012 20004 39638 40185 52006 885// 333 10047
AAXX 18181 38954 NIL
AAXX 18181 20107 11597 81408 11004 21016 39924 40018 52006 69922 78582 889// 333 10002 91009
AAXX 18181 22113 11365 80102 11021 21027 30002 40066 57001 69982 78584 889// 333 11018 84708 91003 93504
AAXX 18181 22217 11442 81503 10008 20005 30010 40042 57003 60022 78582 889// 333 10012 86710 91006
AAXX 18181 22235 11275 81403 10000 20000 39878 40073 57002 60012 70282 885// 333 10004 87706 91005
AAXX 18181 22349 11598 81507 11002 21017 30078 40090 57005 69952 70282 885// 333 10019 91009 91110
AAXX 18181 22408 11484 81304 10002 21004 39860 40009 58012 60022 70272 883// 333 10006 88912
AAXX 18181 22602 11458 81504 11005 21017 39771 49995 57003 69932 77072 8872/ 333 10009 88711
AAXX 18181 22619 12380 81506 11001 21012 39849 40009 57008 69932 886// 333 10011 88709 91114
AAXX 18181 22721 11497 81203 10003 21003 39920 40021 58014 60012 77187 8872/ 333 10010 85710
AAXX 18181 22802 11418 81004 10000 21003 39948 49971 57012 60062 78682 889// 333 10029 93702
AAXX 18181 22820 12484 81404 11001 21015 39868 40006 57013 69902 8557/ 333 10008
AAXX 18181 26059 11597 81504 10030 20012 39892 49916 53019 69952 70285 889// 333 10033 86621
AAXX 18181 26063 11497 81204 10026 20007 39932 49939 50003 69932 70272 885// 333 10038 88613 91112
AAXX 18181 26094 11350 81303 11002 21008 39913 49989 56003 60022 77172 8872/ 333 10007 88707 91111
AAXX 18181 26157 11497 71707 10025 20004 39859 49908 52020 60012 70282 87500 333 10053 87618 91114
AAXX 18181 26167 11466 81804 10027 20003 39828 49939 52022 60012 70282 889// 333 10030 88917
AAXX 18181 26258 11597 81904 10025 20004 39881 49935 52021 60012 78086 889// 333 10038
AAXX 18181 26298 11396 81404 11008 21015 39774 40004 53002 60032 77173 8872/ 333 11004
AAXX 18181 26359 11583 71804 10019 20003 39825 49959 52020 69952 72162 87500 333 10045 91113
AAXX 18181 26702 11496 82506 10027 21003 39931 49957 52024 60072 76186 8872/ 333 10038 91013 91116
AAXX 18181 26781 11397 72203 10017 20006 39745 40037 52036 69992 70282 875// 333 10025 86710
AAXX 18181 27208 11597 71606 11013 21036 39851 40029 54000 60022 70273 87500 333 11010 91012 91112 92980
AAXX 18181 27402 11496 81407 11012 21025 39857 40038 53007 60022 73873 8802/ 333 11006 88512 91113 92982
AAXX 18181 28676 329// 01701 11269 21299 30387 40533 54000 333 11242
AAXX 18181 28766 319// 02401 11261 21271 30318 40535 58002 71000 333 11249
AAXX 18181 28867 32998 02302 11269 21293 30252 40563 52006 333 11212
AAXX 18181 28879 329// 02801 11271 21294 30232 40563 52010 333 11218
AAXX 18181 28952 329// 02001 11259 21284 30343 40562 52001 333 11206
AAXX 18181 28966 329// 00000 11329 21360 30239 40573 52011 333 11236
AAXX 18181 29802 329// 02802 11285 21309 30334 40498 52007 333 11210
AAXX 18181 29807 329// 03101 11285 21305 30376 40512 52001 333 11226
AAXX 18181 34691 31998 01110 11088 21142 30366 40353 52007 70231 333 11039
AAXX 18181 35067 329// 00000 11330 21361 30258 40584 52010 333 11234
AAXX 18181 35078 329// 03605 11278 21307 30131 40567 52011 333 11247
AAXX 18181 35085 329// 03501 11235 21261 30013 40550 52013 333 11226
AAXX 18181 35108 329// 01606 11129 21177 30390 40440 52002 333 11099
AAXX 18181 35188 319// 00303 11244 21273 30052 40543 52020 77630 333 11224
AAXX 18181 35217 319// 01208 11148 21191 30408 40451 52007 73630 333 11116
AAXX 18181 35229 329// 00000 11255 21283 30234 40546 52014 333 11130
AAXX 18181 35302 319// 01810 11128 21171 30406 40429 52007 73633 333 11109
AAXX 18181 35357 329// 53604 11241 21266 30035 40526 52019 83051 333 11231
AAXX 18181 35394 31998 50305 11245 21278 39739 40500 52013 73633 85011 333 11229 91118
AAXX 18181 35406 329// 01304 11153 21195 30426 40428 52011 333 11105
AAXX 18181 35416 329// 01306 11174 21235 30354 40487 51017 333 11114
AAXX 18181 35426 329// 00502 11205 21257 30197 40523 53022 333 11144
AAXX 18181 35497 319// 03606 11155 21204 39567 40426 52007 73631 333 11163
AAXX 18181 35532 31993 01118 11236 21268 39952 40507 52007 73933 333 11181 91022
AAXX 18181 35671 31998 00107 11211 21245 30010 40487 52016 73633 333 11209
AAXX 18181 35700 32998 01109 11122 21165 30432 40407 52013 333 11079 91116
AAXX 18181 35746 329// 00206 11252 21291 30443 40519 52023 333 11204
AAXX 18181 35796 11596 80504 11130 21163 39903 40366 52009 69920 77373 8802/ 333 11145
AAXX 18181 35849 32998 00502 11230 21270 30403 40501 52018 333 11177
AAXX 18181 35925 NIL
AAXX 18181 35953 329// 00304 11215 21255 30344 40489 52025 333 11175
AAXX 18181 35969 329// 03601 11260 21298 30283 40480 52025 333 11201
AAXX 18181 36003 32998 03402 11237 21256 30316 40486 52012 333 11219
AAXX 18181 36152 319// 02906 11295 21337 30261 40477 52011 73630 333 11241
AAXX 18181 36177 319// 53004 11228 21254 30173 40447 52010 77611 82031 333 11189
AAXX 18181 36208 329// 02602 11247 21273 39342 40429 52008 333 11113
AAXX 18181 36397 119// 82702 11228 21257 39804 40425 51005 69900 70272 8802/ 333 11185
AAXX 18181 36428 329// 00702 11244 21269 39849 40403 52008 333 11132 95090
AAXX 18181 36535 329// 22302 11223 21255 39709 40404 52004 82030 333 11171
AAXX 18181 36639 329// 00000 11242 21260 39690 40358 52003 333 11120
AAXX 18181 36821 115// 80000 11160 21182 39836 40363 52015 69920 78581 889// 333 11092
AAXX 18181 36859 329// 81401 11072 21089 39486 40295 58004 8802/ 333 11069
AAXX 18181 36864 326// 62306 11124 21167 39398 40347 52009 86500 333 11065
AAXX 18181 36870 115// 80000 11111 21131 39262 40330 52014 69920 78588 889// 333 11069
AAXX 18181 38001 NIL
AAXX 18181 38062 329// 00404 11223 21271 30294 40477 52023 333 11186
AAXX 18181 38069 329// 00205 11224 21256 30232 40448 52011 333 11144
AAXX 18181 38196 32998 03402 11131 21235 39330 40381 52027 333 11038
AAXX 18181 38198 329// 00803 11186 21212 30112 40398 52037 333 11055
AAXX 18181 38222 32997 80502 11134 21169 39780 40381 52029 8801/ 333 11095
AAXX 18181 38232 NIL
AAXX 18181 38328 319// 03601 11133 21160 39598 40384 52025 71000 333 11005
AAXX 18181 38334 32997 00902 11142 21178 39344 40381 53029 333 11010
AAXX 18181 38341 11996 03202 11231 21249 39560 40442 52026 69940 71071 333 11118
AAXX 18181 38343 12697 43204 11191 21210 39480 40408 52028 69920 84500 333 11117
AAXX 18181 38439 32998 03404 11100 21153 30017 40380 52026 333 11016
AAXX 18181 38598 429// 02713 11014 21040 40329 52020 333 91018
AAXX 18181 38599 NIL
AAXX 18181 38725 NIL
AAXX 18181 38734 414// 83202 11032 21062 47040 52006 78582 889//
AAXX 18181 38744 426// 70000 11018 21039 38010 48520 51001 87900
AAXX 18181 38836 315// 81402 10026 21001 39214 40270 52020 71022 889// 333 10080
AAXX 18181 38838 429// 81803 10020 21011 39583 40276 52013 80002
AAXX 18181 38844 NIL
AAXX 18181 38846 416// 80404 10018 20002 38526 48500 52003 71022 84933
AAXX 18181 38847 41/// /1802 10019 20014 40294 52021 74742 89///
AAXX 18181 38932 NIL
AAXX 18181 38933 316// 81803 10022 21006 39761 40290 52012 71022 885// 333 10046
AAXX 18181 38944 326// 80000 10012 20004 39638 40185 52006 885// 333 10047
AAXX 18181 38954 NIL
BBXX WABS 18184 99370 71240 41798 83213 10111 20091 40240 51015 70211 885// 22273 0//// 20401 331// 41809 5//// 6///0 80100 ICE 0/0//
BBXX WFLH 18183 99273 71432 43498 40618 10200 20137 40268 52011 7//// 841// 22213 00206 20501 330// 41406 5//// 6//// 80161 ICE /////
BBXX WFLG 18184 99321 71251 41498 32813 10144 20105 40263 52025 70111 831// 22264 00111 20302 329// 40705 5//// 6//// 80122 ICE /////
BBXX C6XC6 18184 99255 70705 41697 22409 10253 2//// 40160 57020 70120 81261 22263 00275 21002 303// 41002 5//// 6//// 8//// ICE /////
BBXX C6SW3 18184 99262 10568 41899 02702 10230 20169 40170 52020 7//00 80000 22274 00250 20000 3//// 40000 50000 6//// 80190 ICE /////
BBXX WHKM 18184 99245 10363 41/98 /2709 10230 20185 40140 52020 7//// 80/// 22233 0//// 2//// 3//// 4//// 5//// 6//// 80200 ICE /////
BBXX 41037 18181 99340 70775 46/// /3409 10100 40225 58005 91800 22200 00178 333 91211
AAXX 18181 28676 329// 01701 11269 21299 30387 40533 54000 333 11242
AAXX 18181 28766 319// 02401 11261 21271 30318 40535 58002 71000 333 11249
AAXX 18181 28867 32998 02302 11269 21293 30252 40563 52006 333 11212
AAXX 18181 28879 329// 02801 11271 21294 30232 40563 52010 333 11218
AAXX 18181 28952 329// 02001 11259 21284 30343 40562 52001 333 11206
AAXX 18181 28966 329// 00000 11329 21360 30239 40573 52011 333 11236
AAXX 18181 29802 329// 02802 11285 21309 30334 40498 52007 333 11210
AAXX 18181 29807 329// 03101 11285 21305 30376 40512 52001 333 11226
AAXX 18181 34691 31998 01110 11088 21142 30366 40353 52007 70231 333 11039
AAXX 18181 35067 329// 00000 11330 21361 30258 40584 52010 333 11234
AAXX 18181 35078 329// 03605 11278 21307 30131 40567 52011 333 11247
AAXX 18181 35085 329// 03501 11235 21261 30013 40550 52013 333 11226
AAXX 18181 35108 329// 01606 11129 21177 30390 40440 52002 333 11099
AAXX 18181 35188 319// 00303 11244 21273 30052 40543 52020 77630 333 11224
AAXX 18181 35217 319// 01208 11148 21191 30408 40451 52007 73630 333 11116
AAXX 18181 35229 329// 00000 11255 21283 30234 40546 52014 333 11130
AAXX 18181 35302 319// 01810 11128 21171 30406 40429 52007 73633 333 11109
AAXX 18181 35357 329// 53604 11241 21266 30035 40526 52019 83051 333 11231
AAXX 18181 35394 31998 50305 11245 21278 39739 40500 52013 73633 85011 333 11229 91118
AAXX 18181 35406 329// 01304 11153 21195 30426 40428 52011 333 11105
AAXX 18181 35416 329// 01306 11174 21235 30354 40487 51017 333 11114
AAXX 18181 35426 329// 00502 11205 21257 30197 40523 53022 333 11144
AAXX 18181 35497 319// 03606 11155 21204 39567 40426 52007 73631 333 11163
AAXX 18181 35532 31993 01118 11236 21268 39952 40507 52007 73933 333 11181 91022
AAXX 18181 35671 31998 00107 11211 21245 30010 40487 52016 73633 333 11209
AAXX 18181 35700 32998 01109 11122 21165 30432 40407 52013 333 11079 91116
AAXX 18181 35746 329// 00206 11252 21291 30443 40519 52023 333 11204
AAXX 18181 35796 11596 80504 11130 21163 39903 40366 52009 69920 77373 8802/ 333 11145
AAXX 18181 35849 32998 00502 11230 21270 30403 40501 52018 333 11177
AAXX 18181 35925 NIL
AAXX 18181 35953 329// 00304 11215 21255 30344 40489 52025 333 11175
AAXX 18181 35969 329// 03601 11260 21298 30283 40480 52025 333 11201
AAXX 18181 36003 32998 03402 11237 21256 30316 40486 52012 333 11219
AAXX 18181 36152 319// 02906 11295 21337 30261 40477 52011 73630 333 11241
AAXX 18181 36177 319// 53004 11228 21254 30173 40447 52010 77611 82031 333 11189
AAXX 18181 36208 329// 02602 11247 21273 39342 40429 52008 333 11113
AAXX 18181 36397 119// 82702 11228 21257 39804 40425 51005 69900 70272 8802/ 333 11185
AAXX 18181 36428 329// 00702 11244 21269 39849 40403 52008 333 11132 95090
AAXX 18181 36535 329// 22302 11223 21255 39709 40404 52004 82030 333 11171
AAXX 18181 36639 329// 00000 11242 21260 39690 40358 52003 333 11120
AAXX 18181 36821 115// 80000 11160 21182 39836 40363 52015 69920 78581 889// 333 11092
AAXX 18181 36859 329// 81401 11072 21089 39486 40295 58004 8802/ 333 11069
AAXX 18181 36864 326// 62306 11124 21167 39398 40347 52009 86500 333 11065
AAXX 18181 36870 115// 80000 11111 21131 39262 40330 52014 69920 78588 889// 333 11069
AAXX 18181 38001 NIL
AAXX 18181 38062 329// 00404 11223 21271 30294 40477 52023 333 11186
AAXX 18181 38069 329// 00205 11224 21256 30232 40448 52011 333 11144
AAXX 18181 38196 32998 03402 11131 21235 39330 40381 52027 333 11038
AAXX 18181 38198 329// 00803 11186 21212 30112 40398 52037 333 11055
AAXX 18181 38222 32997 80502 11134 21169 39780 40381 52029 8801/ 333 11095
AAXX 18181 38232 NIL
AAXX 18181 38328 319// 03601 11133 21160 39598 40384 52025 71000 333 11005
AAXX 18181 38334 32997 00902 11142 21178 39344 40381 53029 333 11010
AAXX 18181 38341 11996 03202 11231 21249 39560 40442 52026 69940 71071 333 11118
AAXX 18181 38343 12697 43204 11191 21210 39480 40408 52028 69920 84500 333 11117
AAXX 18181 38439 32998 03404 11100 21153 30017 40380 52026 333 11016
AAXX 18184 70133 12566 40921 11067 21089 39828 49835 56020 69901 91753 333 11061 21094 555 91818
AAXX 18184 70174 32766 60103 11133 21156 39669 49919 56034 91753 333 11122 21211 4/071 555 91818
AAXX 18184 70200 12566 80314 11017 21039 39754 49760 57021 69901 91753 333 11011 21039 555 91818
AAXX 18184 70219 11216 80318 10000 21006 39591 49647 56030 69951 771// 91753 333 10017 21010 4/003 96010 555 91818
AAXX 18184 70231 32964 80905 11033 21078 39596 49722 56065 91753 333 11028 21117 4/107 555 91818
AAXX 18184 70261 11766 80509 10000 21061 39677 49852 58051 69901 771// 91753 333 10006 21239 555 91818
AAXX 18184 70267 12966 81223 11033 21106 39426 49904 56038 69901 91753 333 10028 21089 91026 555 91818
AAXX 18184 70271 32666 61629 10011 21061 39321 49897 58062 91753 333 10017 21171 4/003 91042 555 91818
AAXX 18184 70273 11466 83307 10017 21011 39744 49801 58035 69901 761// 91753 333 10072 21049 4/041 555 91818
AAXX 18184 70316 11461 62524 10000 21022 39756 49790 51034 69931 771// 91753 333 10022 21006 91033 555 91818
AAXX 18184 70326 11559 81403 10028 20028 39568 49580 53001 60031 763// 91754 333 10039 20028 96010 555 91818
AAXX 18184 70340 12666 80923 10050 20006 39571 49627 56042 60051 91753 333 10056 20033 4/003 91032 555 91818
AAXX 18184 70350 11562 81619 10044 20011 39612 49653 56028 60071 761// 91753 333 10067 20022 91034 555 91818
AAXX 18184 70361 11459 81211 10022 20006 30080 40092 58041 60061 773// 91753 333 10022 20000 91023 96073 555 91818
AAXX 18184 70381 12466 81217 10011 20000 30176 40184 58020 69901 91753 333 10017 21010 555 91818
AAXX 18184 70414 35666 82913 11028 21106 39819 49854 53002 91756 333 11017 555 91818
AAXX 18181 08579 32/// /2402 10108 20020 30128 40255 52016 333 10143 91105
AAXX 18181 45032 NIL
AAXX 18181 45035 NIL
AAXX 18181 45039 NIL
AAXX 18181 45044 NIL
AAXX 18181 08521 32470 29902 10190 20112 30187 40258 57003 81201 333 10229 81816
AAXX 18181 08524 32470 53408 10178 20136 30164 40262 54000 85801 333 10199 83815 83630 91113
BBXX 41029 18181 99328 70796 46/// /0707 1//// 91800 555 11090 22108
BBXX SMGW 18181 99353 11462 43/97 83616 10103 40159 55005 22224 00207 2//// 4////
BBXX ZCAS2 18183 99171 11311 41598 70518 10270 20241 40100 57/// 75022 86351 22283 00286 20707 80250
BBXX V2BE4 18181 99270 11407 41598 30206 10180 20127 40194 57011 70300 83160 22244 04210 20504 80150
BBXX WDE8288 18184 99057 10861 41598 60609 10280 2025/ 40100 54000 71398 8624/ 22224 00280 2//// 3//// 4//// 5//// 6//// 80260 ICE /////
BBXX C6YA7 18184 99108 11275 41198 50614 10220 2019/ 40070 56020 70011 85/// 22263 0//// 2//// 3//// 4//// 5//// 6//// 80200 ICE /////
BBXX SHIP 18184 99353 11778 41798 43028 10150 2010/ 40140 52010 70121 8211/ 22263 00180 20604 328// 41007 5//// 6//// 80120 ICE /////
BBXX DHBN 18181 99312 11686 41297 81805 10178 20119 40175 54000 75052 85820 22224 00230 2//01 330// 41407 5//// 80143
BBXX A8QR9 18181 99060 10904 41697 824// 10285 20265 40100 54000 71822 8/47/ 22224 20605 80270
BBXX A8IF4 18183 99247 11290 41498 50716 10200 20153 40220 51010 70311 8426/ 22264 06200 20903 30000 80170
BBXX MGPU2 18183 99410 11336 41298 63424 11020 21075 40260 54000 70322 8/7// 22283 00037 2//// 332// 40306 5//// 81035
BBXX DPCK 18183 99309 11260 41398 63420 10100 20061 40265 57020 70311 8518/ 22215 00180 20305 3//// 4//// 5//// 80080
BBXX DGZR2 18183 99059 10870 41698 20814 10275 20241 40080 52015 71388 823// 22224 00290 2//// 306// 40803 80250
BBXX DCDO2 18183 99050 11353 41698 60510 10280 20246 40060 56010 70322 86464 22274 00290 2//// 306// 40604 5//// 80255
BBXX 44255 18181 99473 70573 46/// /0407 11034 40176 57024 22200 00041 11002 70011 333 91209
BBXX 42085 18181 99179 70665 46/// /1703 10280 40135 91750 333 91204
BBXX 42085 18181 99179 70665 46/// /1703 10279 40136 91740 333 91204
BBXX 42085 18181 99179 70665 46/// /1703 10282 40134 58023 91800 22200 00280 10501 70006 333 91204
BBXX 44067 18181 99384 70770 46/// /0506 10053 40243 58011 91800
BBXX A8CN8 18180 99557 71511 41296 81927 10050 49810 56010 70222 887// 22263 00040 2//// 323// 4//10 5////
BBXX WCZ5535 18184 99335 70538 41498 12409 10210 2016/ 40090 56005 7//00 811// 22223 0//// 2//// 312// 40805 5//// 6//// 80180 ICE /////
BBXX SHIP 18184 99312 71431 41497 80518 10180 2016/ 40320 52020 78022 8797/ 22223 00190 20405 331// 41306 5//// 6//// 80170 ICE /////
BBXX SBLI 18181 99300 71737 43/98 42312 10224 40172 55003 22263 00228 2//// 4//// NNNN 426621110
BBXX SBLW 18183 99176 70689 43/98 60518 10284 40168 58024 22254 00281 20302 4////
BBXX 41053 18181 99185 70661 46/// /0504 10265 40143 91750 333 91205
BBXX 41053 18181 99185 70661 46/// /0404 10264 40145 91740 333 91206
BBXX 41053 18181 99185 70661 46/// /0504 10266 40143 58026 91800 22200 00276 11304 70020 333 91206
BBXX 41052 18181 99183 70648 46/// /0507 10264 40135 91740 333 91208
BBXX 41052 18181 99183 70648 46/// /0507 10264 40134 91750 333 91208
BBXX 44139 18181 99442 70571 46/// /0415 10029 40118 57019 22200 00093 10809 70043 333 91219
BBXX 41052 18181 99183 70648 46/// /0507 10264 40133 57024 91800 22200 00277 333 91208
BBXX C6KD7 18183 99297 70450 41398 81628 10230 20201 40152 53/// 70211 887// 22214 02229 20808 316// 40907 5//// 80211
BBXX 41008 18181 99314 70809 46/// /3406 10119 20093 40260 58007 91750 22200 00165 333 91208 555 11064 22066 31745 43408 61749 336061 337061 344060 346065 342060 344059
BBXX WDC3786 18184 99256 71471 41598 80719 10209 2015/ 40252 52007 7//22 884// 22264 00240 20302 332// 40705 5//// 6//// 80171 ICE /////
BBXX LAIP5 18183 99299 70468 41/97 81418 10230 20215 40145 56008 70322 8//// 22233 04220 20607 3//// 4//// 5//// 80220
BBXX WGJT 18184 99249 70754 43698 40513 10239 2020/ 40190 57010 7//// 84108 22274 00244 20302 305// 40603 5//// 6//// 80211 ICE /////
BBXX WBDS 18183 99395 70579 43498 72025 10190 2012/ 40079 57042 7//// 87285 22264 00197 20503 323// 40905 5//// 6//// 80150 ICE /////
BBXX 9HA2064 18183 99351 71232 41797 42416 10130 20073 40240 52020 7//00 84135 22274 0//// 2//// 3//// 4//// 5//// 6//// 80100 ICE /////
BBXX ELQQ4 18184 99397 70406 41695 52319 10190 2018/ 40220 56030 741// 8/4// 22264 00180 20604 327// 4//// 5//// 6//// 80180 ICE /////
BBXX VCXF 18184 99464 70484 41797 81209 10030 2001/ 40152 57028 71022 886// 22200 02029 20702 326// 40705 80023
BBXX PBFM 18183 99246 70520 41498 51509 10239 20203 40115 57010 70311 84160 22254 20402 317// 40903 80214
BBXX 4XFX 18184 99547 71750 41/98 32727 00/// 10000 2000/ 49790 54000 70000 83/// 22264 04040 2//// 3//// 4//// 5//// 6//// 80000
BBXX WFLG 18184 99321 71251 41498 32813 10144 20105 40263 52025 70111 831// 22264 00111 20302 329// 40705 5//// 6//// 80122 ICE /////
BBXX WDF6832 18183 99406 70680 41498 70028 10050 2000/ 40170 52030 70222 874// 22264 0//// 20608 3//// 4//// 5//// 6//// 80030 ICE /////
BBXX DGAF 18183 99459 70556 41297 80325 11025 21039 40150 57035 77372 886// 22264 00060 20405 81030
BBXX C6XC6 18184 99255 70705 41697 22409 10253 2//// 40160 57020 70120 81261 22263 00275 21002 303// 41002 5//// 6//// 8//// ICE /////
BBXX LADR4 18184 99305 71477 41898 32924 10180 2015/ 40175 54000 70200 80003 22273 00240 20705 3//// 4//// 5//// 6//// 80160
BBXX WYP8657 18184 99470 70914 41/98 42411 10027 2//// 40061 5//// 70310 83/41 22213 00039 20201 3//// 4//// 5//// 6//// 8//// ICE /////
BBXX WE4805 18184 99420 70873 41/98 42018 10016 2//// 40207 57000 70102 84/// 22243 00050 20302 3//// 4//// 5//// 6//// 8//// ICE /////
BBXX C6SW3 18184 99262 10568 41899 02702 10230 20169 40170 52020 7//00 80000 22274 00250 20000 3//// 40000 50000 6//// 80190 ICE /////
BBXX WHKM 18184 99245 10363 41/98 /2709 10230 20185 40140 52020 7//// 80/// 22233 0//// 2//// 3//// 4//// 5//// 6//// 80200 ICE /////
BBXX 9V8797 18184 99185 10652 43/97 40714 10258 40161 54002 22234 00267 2//// 4////
BBXX WRYC 18184 99158 10415 43/// /0809 10270 2024/ 40130 52025 7//// 8//// 22275 00272 20201 315// 40302 5//// 6//// 80250 ICE /////
BBXX UBQE6 18181 99183 70179 41998 00306 10220 2//// 40098 56003 70200 80000 22283 00020 29999 39999 49999 59999
BBXX DGZT2 18183 99100 10683 41/97 /0610 10275 20219 40125 54000 70322 8//// 22264 04290 2//// 80235
BBXX DCHO 18184 99068 50330 41598 41112 10284 20227 40121 57003 70211 83260 22254 04260 20601 314// 40904 80243
BBXX DFCW2 18184 99031 50849 41997 31521 10245 20181 40118 58002 70200 82017 22284 04206 20501 320// 41302 5//// 80202
BBXX A8SG3 18184 99021 50813 41398 32116 10220 20198 40125 55010 70111 82122 22284 04200 21104 323// 41003 80205
BBXX PDZS 18183 99541 50367 41998 01112 10081 21002 40069 52025 70100 80000 22200 02050 20301 3//// 4//// 5//// 80045
BBXX A8SO7 18184 99078 50809 41797 31914 10222 20214 40150 58/// 70200 83100 22233 21204 323// 41403 5//// 80217
BBXX A8KX4 18184 99301 50719 41/96 /2006 10170 40135 56005 712// 8//// 22243 00170 29901
BBXX DDJS2 18183 99179 71032 41497 32006 10265 20265 20236 40150 50005 70511 82140 22235 04280 20201 328// 40302 5//// 80245
BBXX WABS 18184 99370 71240 41798 83213 10111 20091 40240 51015 70211 885// 22273 0//// 20401 331// 41809 5//// 6///0 80100 ICE 0/0//
BBXX WFLH 18183 99273 71432 43498 40618 10200 20137 40268 52011 7//// 841// 22213 00206 20501 330// 41406 5//// 6//// 80161 ICE /////
BBXX SHIP 18184 99417 71774 41797 52724 10080 2006/ 40058 51002 70300 85485 22224 00140 20308 327// 40206 5//// 6//// 80070 ICE /////
BBXX 41101 18184 99146 70562 46/// /0409 10262 20193 40112 57026 22200 00275 11106 70028
BBXX 3EIZ7 18184 99445 70439 41/97 71209 10150 2008/ 40160 57010 70222 8//// 22265 0//// 2//// 3//// 4//// 5//// 6//// 80110 ICE /////
BBXX DHEE 18183 99337 70768 41598 63324 10105 20019 40250 54000 70111 85185 22254 00230 20803 334// 41102 80065
BBXX A8IN9 18183 99246 70614 41598 73609 10252 20163 40156 57026 70122 8446/ 22214 06280 20202 303// 40704 5//// 80197
BBXX PDNN 18183 99456 70438 41999 69903 10097 20046 40185 56020 70222 80006 22223 20201 399// 40404 80072 90493
BBXX VRFX8 18184 99407 70605 41498 80428 10140 20100 40025 56020 70262 8872/ 22264 0//// 20607 306// 41107 80110
BBXX 41041 18181 99142 70460 46/// /1106 10272 20227 40120 56018 91750 22200 00267 11005 20402 3//// 41004 70024 333 91207 555 11062 22066 31715 41108 61749 104059 106061 106065 110062 111062 113065 81107 91654
BBXX 41038 18181 99341 70777 46/// /3508 10109 40255 58016 91800 22200 00141 333 91210
BBXX 42364 18181 99291 70881 46/// /0406 10167 20072 40281 58007 91800
BBXX 42363 18181 99282 70892 46/// /0507 10167 20061 40281 58007 91800 333 91207
BBXX 42362 18181 99278 70907 46/// /0608 10189 20056 40278 58010 91800
BBXX 46053 18181 99342 71198 46/// /2907 10138 40214 52007 91750 22200 00143 11302 20401 325// 41302 70011 333 91208 555 11069 22073 31726 42910 61749 286066 286080 285080 278066 278058 279059
BBXX 46001 18181 99563 71480 46/// /2114 10061 49848 51028 91750 22200 00052 11114 20807 300// 41112 70068 333 91218 555 11155 22167 31726 42120 61749 213144 215155 210151 211146 212140 212132
BBXX 44022 18181 99409 70737 46/// ///06 11026 21112 40243 56009 91800 22200 00086 333 91208 555 11067 22067
BBXX 44060 18181 99413 70721 46/// ///07 11025 40222 56013 91800 22200 00106 333 91209 555 11072 22072
BBXX C6VG7 18184 99257 70803 41596 40318 10240 2//// 40200 54/// 7//// 83138 2222/ 00240 20300 303// 4//// 5//// 6//// 8//// ICE /////
BBXX WXJ63 18183 99611 71464 41/95 83203 10004 21178 49906 5//// 771// 8//// 222// 00056 2//// 3//// 4//// 5//// 6//// 8//// ICE /////
BBXX NWS0003 18184 99539 71665 43/// /2806 11004 21024 49830 5//// 7//// 8//// 222// 0//// 2//// 3//// 4//// 5//// 6//// 8//// ICE /////
BBXX NWS0029 18184 99309 70543 43/// /3305 10201 20131 40146 5//// 7//// 8//// 222// 04234 2//// 3//// 4//// 5//// 6//// 8//// ICE /////
BBXX DILE 18183 99461 70438 41497 31206 10070 20014 40175 57022 70211 8171/ 22224 20404 328// 40406 80045
BBXX DDIG2 18184 99305 70674 41/98 50516 10260 20199 40160 50000 7//11 80005 22254 04270 20401 306// 40703 80220
BBXX A8IH2 18183 99256 71395 41299 60518 10210 20119 40200 53010 7//22 86613 22214 06205 21803 309// 41404 5//// 80155
BBXX UCKZ 18181 99671 30447 41295 80713 11006 21012 49902 57058 77372 8872/ 22251 01014 2//// ICE 57895
BBXX SLCO 18184 99009 31515 43/98 60708 10280 40064 51023 22234 00288 2//// 4////
BBXX 3EDA4 18183 99210 31540 41598 43630 10240 20181 40095 70022 83816 22237 00264 20303 30303 40303 50303 80200
BBXX PCCL 18183 99341 31728 41197 81416 10150 40074 54000 70280 887// 22233 04172 20503 320// 41005
BBXX VNSZ 18184 99409 31462 46/// /0840 10163 20153 39998 40024 57003 22235 04165 85157
BBXX 9HA2479 18184 99338 31515 46/// /0420 10202 20174 30086 40115 57025 22254 04206 85183
BBXX C6FS9 18184 99274 31531 46/// /2705 10197 20159 30118 40154 57005 22242 04236 85172
BBXX 3ECI3 18184 99411 31732 41597 41805 10140 20106 40151 54000 70111 84431 22200 00180 20501 30000 80122
BBXX VRAE3 18184 99021 11074 41396 70324 10275 20248 40079 51012 71301 8//// 22214 00290 2//// 3//// 4//// 5//// 80256
BBXX V2OG2 18183 99202 31101 41998 02017 10255 20212 40096 58013 70000 80000 22233 20402 318// 40503 80225
BBXX PCAM 18183 99412 31732 41598 41404 10130 20063 40173 52004 70111 83440 22200 20100 30000 80095
BBXX WHIA 18183 99030 31095 41397 42810 10270 2024/ 40072 57018 70222 8426/ 22233 0//// 20200 328// 40401 5//// 6//// 80250 ICE /////
BBXX C6UA2 18184 99275 31597 41496 51213 10210 20146 40160 56020 7//22 8327/ 22214 00290 21504 318// 42503 5//// 6//// 80170 ICE /////
BBXX MGRH9 18183 99281 31557 41598 71210 10211 20139 40148 70222 875// 22233 00225 20303 315// 40705 5//// 80169
BBXX KAOU 18184 99005 10813 43/// /3208 10272 20242 40093 5//// 7//// 8//// 222// 04288 2//// 3//// 4//// 5//// 6//// 8//// ICE /////
BBXX PHJV 18183 99088 31295 41398 73014 10275 20248 40051 57017 70211 87762 22263 02292 20102 80255
BBXX PCDE 18183 99399 31287 41297 50402 10150 20116 40060 53010 7//22 857// 22223 2//// 312// 40502 80130
BBXX A8CP6 18180 99059 31476 41398 33005 10290 20276 40050 56010 70211 82145 22275 00296 20000 3//// 4//// 5//// 80280
BBXX SERW 18183 99301 70127 43598 73524 10185 2//// 40223 55001 70301 868/2 22252 06192 20404 334// 40804
BBXX UANA 18181 99694 10397 41/95 81604 10029 40082 50000 75252 8//// 22212 04033 20201
BBXX KABL 18184 99359 70071 41598 60315 10140 2009/ 40225 52005 70222 8688/ 22224 00188 20201 303// 40403 5//// 6//// 80110 ICE /////
BBXX 62023 18183 99514 70079 46/97 /2912 10080 2//// 40240 5//// 22200 10503 70014 555 70021 81011
BBXX 62087 18181 99547 10068 46/// /1304 10057 20023 4//// 5//// 22270 00080
BBXX DBBC 18181 99542 10079 46/// /2809 10051 2//// 40050 52009 22260 00073
BBXX DBKR 18181 99541 10121 46/// /2605 10035 20020 40019 52017 22200 00046
BBXX DBBI 18181 99539 10087 46/// /2603 10039 20024 40053 52011 22200 00042
BBXX DBBA 18181 99545 10105 46/// /2611 10038 20012 40025 52012 22221 00054
BBXX LGWS 18181 99304 70096 43/// /1507 10199 20098 40153 5//// 222/0 04163 1//// 3//// 4//// 5////
BBXX LF4H 18184 99596 10022 46/// /3218 10045 21021 40066 52006 8//// 22200 06078 10808 70040 333 91133
BBXX LAHV 18181 99589 10057 43/// /3303 10031 20009 40033 222// 04074 1////
BBXX UFJN 18181 99718 10418 41/98 82305 11010 40094 54000 70022 88/// 22200 0//// 20301
BBXX PEBT 18183 99442 70090 41498 53612 10110 20061 40280 54000 7//22 854// 22213 02120 20402 333// 41105 5//// 80085
BBXX TFSTD 18184 99664 70234 46/// ///// 22200 10504 70019
BBXX TFSRT 18184 99633 70203 46/// ///// 22200 10606 70029
BBXX TFGSK 18184 99641 70229 46/// ///// 22200 10606 70029
BBXX TFHFN 18184 99642 70152 46/// ///// 22200 10803 70013
BBXX TFKGR 18184 99657 70136 46/// ///// 22200 10805 70024
BBXX TFBLK 18184 99657 70248 46/// ///// 22200 10707 70033
BBXX TFGRS 18184 99663 70182 46/// ///// 22200 10704 70018
BBXX TFGRV 18184 99638 70225 46/// ///// 22200 10707 70036
BBXX TFDRN 18184 99658 70212 46/// ///// 22200 10603 70013
BBXX TFBKF 18184 99635 70202 46/// ///// 22200 10504 70021
BBXX NWS0020 18184 99354 70103 43/// /0316 10148 20063 40229 5//// 7//// 8//// 222// 04190 2//// 3//// 4//// 5//// 6//// 8//// ICE /////
BBXX OWFD2 18181 99384 70214 41/97 /3311 10195 20184 40300 51010 70211 8/71/ 22254 04160 20405 332// 40405 80188
BBXX SKUN 18183 99516 70166 43/94 72121 10096 40210 56002 22224 00101 2//// 4////
BBXX DDSX2 18184 99340 10230 41/98 11819 10181 20111 40148 52023 70200 8//// 22225 00220 2//// 80140
BBXX UGGA 18181 99690 10413 41/98 91908 10050 40087 54000 70222 89/// 22271 20403
BBXX UCAC 18181 99658 10068 41/98 71307 10050 49974 54000 70321 89/// 22213 00100 20808
BBXX UCAB 18181 99714 10228 41998 01904 10040 40025 57003 70110 8//// 22253 00060 20401
BBXX 46111 18181 99481 71227 46/// /3110 10078 40238 52028 91800 22200 00056
BBXX 46112 18181 99481 71227 46/// /3004 10078 40238 51028 91800
AAXX 18184 04048 21220 81233 10030 20028 49982 57026 75976 886// 333 10030 20002 60098 555 3/539
AAXX 18184 78526 12666 40407 10267 20183 30129 40152 58029 69901 91756 333 10278 20233 555 91818
AAXX 18184 78543 15666 80107 10272 20183 30065 40147 58024 69901 91753 333 10283 20228 555 91818
AAXX 18184 60360 11558 72703 10088 20084 40176 53018 60042 76062 8597/ 333 10138 82823 82933 85460 95990
AAXX 18184 60390 11560 63111 10111 20063 40213 51020 60022 71796 83930 333 10154 82820 81926 84640 95990
AAXX 18184 60402 11556 83406 10095 20069 40194 52016 60122 76166 889// 333 10140 83820 81926 85640 95900
AAXX 18184 60419 11560 73011 10050 20019 40190 53020 60042 76062 878// 333 10086 83820 87630 95990
AAXX 18184 60475 12560 73210 10065 20023 39209 48469 53006 60002 878// 333 10097 82826 86833 95990
AAXX 18184 60490 11570 62602 10099 20089 40221 51009 69952 70162 85830 333 10135 82823 85633 95990
AAXX 18184 60525 12660 33208 10130 20011 40161 53015 60002 82232 333 10162 82840 95990
AAXX 18184 60531 12970 30000 10101 20051 40228 53013 60002 83202 333 10147 83826 95990
AAXX 18184 60566 12960 43508 10123 21035 40193 53009 60002 80002 333 10154 84073
AAXX 18184 60571 11658 83512 10123 20082 39267 48520 53011 69922 76162 8227/ 333 0//11 82833 88460 95990
AAXX 18184 60580 12960 43304 10150 20020 40170 52009 60002 80001 333 10180 84073
AAXX 18184 60590 NIL
AAXX 18184 60611 12960 43008 10136 20013 40152 53007 60002 80002 333 10181 84073
AAXX 18184 60620 12960 20207 10185 20004 40177 53004 60002 80002 333 10229 82075
AAXX 18184 60630 12965 50510 10189 20068 40173 53006 60002 80002 333 10219 85075
AAXX 18184 60656 12965 00408 10200 20037 40134 55001 60001 333 10244
AAXX 18184 60670 12970 00000 10133 21061 39053 48487 53007 60002 333 10213 95990
AAXX 18184 60680 12970 12905 10144 21111 38630 48506 53011 60002 80002 333 10214 81073 95990
AAXX 18184 60351 11556 82206 10090 20077 40175 53016 60162 76166 889// 333 10133 84820 81926 86633 95900
AAXX 18184 60355 11658 52310 10093 20058 40167 53006 60042 72582 85200 333 10140 85833 95990
AAXX 18184 60445 12458 72408 10031 20014 39009 48482 51013 69962 8523/ 333 10071 82710 85826 95990
AAXX 18184 60468 12460 60000 10048 20004 39214 48476 53011 60002 86800 333 10083 81813 86826 95990
AAXX 18184 60507 11560 70000 10075 20064 40226 53010 60022 72162 872// 333 10103 87830 95990
AAXX 18184 60511 12560 33010 10035 20023 39070 48499 53012 60002 83200 333 10075 83823 95990
AAXX 18184 60535 12565 63610 10030 21008 38830 48491 53020 60002 86200 333 10058 86826 95900
AAXX 18184 60536 11560 82804 10065 20050 39332 48510 53014 69962 70262 888// 333 10085 82826 87830 95990
AAXX 18184 60549 11660 42808 10052 20002 38927 48520 53005 60002 70211 82202 333 10095 82833 83073 95990
AAXX 18184 60550 11460 73604 10032 20013 38666 48503 53001 69952 70252 856// 333 10039 85710 84820 95990
AAXX 18184 60555 12970 23404 10120 20024 40174 52015 82030 333 10171 82360
AAXX 18184 60559 12560 12803 10118 20024 40161 51009 60002 81201 333 10175 81833
AAXX 18184 60581 12960 20000 10130 20008 40171 53006 60002 80002 333 10165 82073
AAXX 18184 60602 12960 71210 10173 20029 40187 53013 60002 8703/ 333 10203 87360 95990
AAXX 18184 60607 12960 60411 10154 21049 40174 56001 60002 80002 333 10196 86075
AAXX 18184 60640 12960 02710 10150 20018 40170 53004 60002 333 10190
AAXX 18184 60690 NIL
AAXX 18184 91945 36/// /0606 10282 20227 30148 40153 51016
AAXX 18184 60351 11556 82206 10090 20077 40175 53016 60162 76166 889// 333 10133 84820 81926 86633 95900
AAXX 18184 60355 11658 52310 10093 20058 40167 53006 60042 72582 85200 333 10140 85833 95990
AAXX 18184 60445 12458 72408 10031 20014 39009 48482 51013 69962 8523/ 333 10071 82710 85826 95990
AAXX 18184 60468 12460 60000 10048 20004 39214 48476 53011 60002 86800 333 10083 81813 86826 95990
AAXX 18184 60507 11560 70000 10075 20064 40226 53010 60022 72162 872// 333 10103 87830 95990
AAXX 18184 60511 12560 33010 10035 20023 39070 48499 53012 60002 83200 333 10075 83823 95990
AAXX 18184 60535 12565 63610 10030 21008 38830 48491 53020 60002 86200 333 10058 86826 95900
AAXX 18184 60536 11560 82804 10065 20050 39332 48510 53014 69962 70262 888// 333 10085 82826 87830 95990
AAXX 18184 60549 11660 42808 10052 20002 38927 48520 53005 60002 70211 82202 333 10095 82833 83073 95990
AAXX 18184 60550 11460 73604 10032 20013 38666 48503 53001 69952 70252 856// 333 10039 85710 84820 95990
AAXX 18184 60555 12970 23404 10120 20024 40174 52015 82030 333 10171 82360
AAXX 18184 60559 12560 12803 10118 20024 40161 51009 60002 81201 333 10175 81833
AAXX 18184 60581 12960 20000 10130 20008 40171 53006 60002 80002 333 10165 82073
AAXX 18184 60602 12960 71210 10173 20029 40187 53013 60002 8703/ 333 10203 87360 95990
AAXX 18184 60607 12960 60411 10154 21049 40174 56001 60002 80002 333 10196 86075
AAXX 18184 60640 12960 02710 10150 20018 40170 53004 60002 333 10190
AAXX 18184 60690 NIL
BBXX MSTM6 18183 99529 10040 41/98 12920 10055 20017 40105 52035 70181 8//// 22254 06065 2//// 3//// 4//// 5//// 80040
BBXX UCAD 18181 99641 10051 41/97 92806 10060 49957 54000 70221 88/// 22253 00080 20405
AAXX 18181 01311 47/48 /3302 10008 20008 39967 40030 51007 782// 333 10008 91103
AAXX 18181 01025 17/72 00501 11054 21071 30029 40040 50002 60002 700// 333 11050 91104
AAXX 18181 01436 11485 23006 10034 21011 60002 70200 81963 333 10035 91109
BBXX 3ERR2 18184 99635 10053 41598 73221 10062 20036 49966 54000 70282 87900 22200 06100 10807 70033 333 91127
BBXX LF3F 18184 99643 10078 43/// /1111 10041 20019 49967 52007 22200 04084 10805 70025 333 91117
BBXX LF3N 18184 99653 10073 41497 71112 10055 20005 49970 52012 70282 8//// 22200 00088 10704 70020
BBXX LF4B 18184 99606 10037 47/98 /3222 10050 40033 52004 781// 22200 00060 10809 70045 333 91128
BBXX LF4C 18184 99584 10019 41698 63221 10058 21026 40085 52010 71582 89/// 22200 00071 10807 70036 333 91133
BBXX LF5T 18184 99660 10081 41/// /0812 10043 21027 49987 52010 700// 22200 10704 70018 333 91120
BBXX 46207 18181 99509 71299 46/// /0000 10074 40280 52017 22200 00083 11606 70032 333 912//
BBXX 46207 18181 99509 71299 46/// /0000 10074 40280 52017 22200 00083 11606 70032 333 912//
AAXX 18184 91165 12566 40414 10228 20183 30155 40190 53013 69901 91753 333 10228 20222 555 91818
AAXX 18184 91182 12566 60405 10222 20178 30174 40177 53015 69901 91753 555 91818
AAXX 18184 91190 32666 20407 10217 20167 30165 40183 51014 91754 333 10217 20200 555 91818
AAXX 18184 91212 12566 20917 10267 20228 31357 40094 56011 69931 91754 333 91025 555 91818
AAXX 18184 91285 12566 62605 10200 20172 30165 40178 51015 60031 91753 333 10211 20178 555 91818
AAXX 18184 91245 32566 40610 10250 20230 30150 91755 555 91818
AAXX 18183 64800 NIL
AAXX 18183 64820 NIL
AAXX 18183 64860 32960 61402 10277 20074 39820 40090 80002 333 10338 59011 86080
AAXX 18183 64861 NIL
AAXX 18183 64870 32960 70202 10210 20102 38896 48487 80002 333 10316 59011 87080
AAXX 18183 64871 NIL
AAXX 18183 64892 NIL
AAXX 18183 64893 NIL
AAXX 18183 64894 NIL
AAXX 18184 64910 31456 60000 10280 20252 30083 40083 70522 84302 333 10325 58002 84616 81920 85080 94945 95835
AAXX 18184 64911 NIL
AAXX 18184 64950 NIL
AAXX 18181 48840 32498 83201 10152 20134 30206 40212 57013 888// 333 59015 83894 88696
AAXX 18183 87480 32965 01407 10349 20092 30014 40044 57025
AAXX 18183 87532 31956 01818 10346 20095 39882 40045 57020 70700 333 96004
AAXX 18184 87344 32562 30703 10367 20090 39530 40054 57019 83300 333 56500 57974 82825 81935
AAXX 18184 87349 32570 21404 10366 20060 39680 40056 56015 82200 333 56500 57855 82820
AAXX 18184 87371 32962 01406 10338 20128 30040 40061 57023
AAXX 18184 87374 32965 01802 10338 20091 39970 40055 57025
AAXX 18184 87395 32665 32310 10328 20085 30009 40052 57024 333 83100 333 56500 83840
AAXX 18184 87418 32665 20904 10328 20072 39282 40043 57028 82200 333 56600 57871 82840
AAXX 18184 87436 32670 20505 10346 20104 39273 40043 57028 82200 333 56700 57814 82840
AAXX 18184 87448 41930 01809 10362 20092 39521 40061 57025 70400
AAXX 18184 87453 32665 31807 10350 20098 3//// 4//// 5//// 83200 333 56500 57851 83840
AAXX 18184 87467 32970 21805 10352 20133 39922 40053 57020 81035 333 56045 81360
AAXX 18184 87497 32965 02010 10317 20090 30030 40057 57019
AAXX 18184 87506 32670 22518 10306 21037 38546 48472 57019 81140 333 56550 57342 81835 95000
AAXX 18184 87509 32570 10000 10315 20082 39244 40055 57031 81200 333 56800 57881 81830
AAXX 18184 87534 32960 22304 10361 20085 39894 40049 57009 82070 333 56060 82360
AAXX 18184 87548 32960 02006 10340 20100 39950 40043 57024
AAXX 18184 87576 32760 22008 10301 20106 30034 40058 57019 81184 333 56576 81850
AAXX 18184 87582 32960 10506 10257 20147 30050 40058 57017 81031 333 56077 81360
AAXX 18184 87585 32960 31802 10292 20109 30041 40070 58009 80006 333 56001 83270
AAXX 18181 48845 32497 83201 10156 20146 30208 40215 57012 888// 333 59005 85894 88696
AAXX 18180 44210 32999 00000 11291 21303 38595 56003
AAXX 18180 44216 32599 60000 11296 21319 39125 40552 58003 83547
AAXX 18180 44217 32998 20000 11235 21243 37840 40367 54000 82043
AAXX 18180 44219 329// 00000 11314 21336 38707 40571 51007
AAXX 18180 44221 329// 00000 11385 21407 38682 40633 52002
AAXX 18180 44224 329// 00000 11377 21405 38103 40659 53001
AAXX 18180 44229 32999 00000 11334 21362 37952 40586 56002
AAXX 18180 44242 329// 00000 11347 21380 39439 40509 57007
AAXX 18180 44243 329// 00000 11372 21412 39540 40524 58008
AAXX 18180 44254 329// 00000 11203 21230 39093 40365 56004
AAXX 18180 44257 329// 00000 11254 21288 39028 40435 58005
AAXX 18180 44263 32998 00000 11240 21280 38073 40486 52008
AAXX 18180 44266 NIL
AAXX 18180 44286 NIL
AAXX 18180 44291 318// 31602 11344 21380 38814 40573 56005 70410 83050
AAXX 18180 44325 NIL
AAXX 18180 44329 32998 00000 11220 21238 37779 40460 58002
AAXX 18180 44338 32999 00000 11232 21271 38532 40462 57001
AAXX 18180 44348 329// 00000 11196 21222 38747 40398 58001
AAXX 18180 44374 32999 22003 11137 21199 38278 40387 58008 82044
AAXX 18180 44385 32999 02702 11176 21235 38990 40415 58008
AAXX 18180 44386 329// 00000 11214 21247 39122 40411 58010
AAXX 18181 22282 NIL
AAXX 18181 22438 NIL
AAXX 18181 22471 12384 81807 11025 21038 30109 40133 57004 60020 886// 333 10010 88708
AAXX 18181 22563 12497 81704 11013 21030 30099 40138 57007 69900 885// 333 10005 88614
AAXX 18181 22641 32499 81304 11001 21016 30051 40067 57010 886// 333 10012 88712 91111
AAXX 18181 22695 32998 21605 11085 21123 30072 40232 53004 82030 333 11050
AAXX 18181 22867 32598 81303 11035 21100 30034 40150 54000 8453/ 333 11007 91110
AAXX 18181 22939 11597 71507 11011 21043 39899 40063 57006 69900 70272 875// 333 11006 87620
AAXX 18181 22996 32998 31805 11076 21116 30105 40305 52003 80001 333 11076
AAXX 18181 23324 11480 82505 11060 21087 30165 40245 52008 60020 70232 886// 333 11005 88714
AAXX 18181 27008 11497 81104 11014 21025 39860 40031 57005 60020 77173 8677/ 333 11006
AAXX 18181 27051 32997 01205 11056 21107 39998 40171 57006 333 11022
AAXX 18181 27225 11458 81606 11020 21052 39952 40085 57003 69990 77176 8872/ 333 11005 88716 91013 91115
AAXX 18181 27252 31997 81406 11056 21144 30004 40197 57014 73632 86075 333 11047 91114
AAXX 18181 27333 11850 81808 11043 21098 39969 40130 57008 69900 77172 8807/ 333 11012 91016
AAXX 18181 27369 32997 81504 11070 21113 30104 40247 57014 8803/ 333 11067
AAXX 18181 27393 32998 81806 11097 21133 30187 40366 58004 80001 333 11094
AAXX 18181 27479 32998 21407 11075 21119 30151 40292 57004 80001 333 11078 91115
AAXX 18181 27532 11496 81607 11061 21072 39914 40134 57003 69930 77187 8872/ 333 11029 86710
AAXX 18181 27648 11395 81604 11059 21074 30003 40178 57009 78683 889// 333 11059 88707
AAXX 18181 27675 32997 01507 11085 21127 30110 40289 57001 333 11067
AAXX 18181 27679 32998 21005 11104 21132 30072 40309 58006 82001 333 11091
AAXX 18181 28214 32996 01203 11129 21142 30182 40412 54000 333 11086
AAXX 18181 22165 NIL
AAXX 18181 22676 32584 71404 11039 21068 30097 40177 57001 87500 333 11002
AAXX 18181 22837 11459 81206 10000 21029 39962 40032 56002 69900 77172 8872/ 333 10003 86516
AAXX 18181 22954 32599 81305 11036 21058 39862 40116 57004 885// 333 11014 86620
AAXX 18181 23405 32370 81503 11053 21082 30110 40213 58002 886// 333 11005 88708
AAXX 18181 23412 12499 81803 11060 21083 30137 40237 52003 69900 883// 333 11007 86915
AAXX 18181 23803 32999 81402 11098 21124 30140 40331 54000 80007 333 11085
AAXX 18181 27066 12998 41604 11071 21105 30051 40237 57006 69900 84030 333 11059
AAXX 18181 27083 32984 01705 11077 21112 30050 40284 58003 333 11078
AAXX 18181 27113 11328 81305 11015 21042 39924 40071 57005 69930 78682 883// 333 10000 85707
AAXX 18181 27242 32598 81605 11036 21084 30027 40159 57005 889// 333 11016 88921 91114 53014
AAXX 18181 27329 11432 81706 11041 21056 39974 40102 54000 69960 77376 8872/ 333 11013 91112
AAXX 18181 27355 32497 81608 11048 21097 30027 40197 57012 885// 333 11040 91016
AAXX 18181 27373 32996 51508 11069 21116 30047 40276 58012 85040 333 10078 91114 93402
AAXX 18181 27665 31997 81307 11060 21099 39972 40254 53005 73631 8807/ 333 11066 91117
AAXX 18181 27835 11496 81406 11028 21041 39983 40145 53010 69920 77173 8872/ 333 11027 87711 93401 91113 92982
AAXX 18181 28009 32998 01904 11101 21129 30150 40375 52007 333 11086
AAXX 18181 28411 32997 00000 11120 21140 30227 40438 52007 333 11092
AAXX 18181 28418 32997 01402 11118 21138 30264 40444 52011 333 11080
AAXX 18181 34560 12497 81510 11022 21038 30110 40282 52016 69920 885// 333 11020 88615 93530
AAXX 18181 34720 11597 82501 10048 20040 30152 40192 53027 60010 76162 8872/ 333 10054
AAXX 18181 34730 11530 81404 10058 20047 30111 40203 52023 60020 78082 8535/ 333 10067 85921
AAXX 18181 34740 31596 71305 10056 20043 30127 40224 51018 71082 85570 333 10060
AAXX 18181 34824 11596 80000 10076 20068 30185 40190 51027 69930 76166 8870/ 333 10119
AAXX 18181 34858 11/92 91403 10043 20040 30142 40251 51018 69900 74554 333 10045 96045
AAXX 18181 34866 32498 81207 10001 21024 30289 40280 53011 8860/ 333 10017
AAXX 18181 34880 32997 30904 11035 21064 30346 40318 51013 80001 333 10006
AAXX 18181 37018 12598 81504 10140 20027 30127 40201 51021 69900 8497/ 333 10141
AAXX 18181 37054 32497 81102 10043 20019 39854 40243 52014 885// 333 10043
AAXX 18181 37472 31596 81308 10068 20053 30268 40245 52032 71022 8357/ 333 91120 91016 91122
AAXX 18184 17050 12670 63603 10055 20025 30127 40190 52018 60002 84570 333 10096 84635 86360 91107
BBXX V2OT9 18183 99396 70098 41598 50317 10140 20064 40250 53010 70111 83140 22283 20303 33300 40304 5//// 80100
AAXX 18181 13463 32670 42701 10069 20028 30071 40131 54000 82440 333 10119
AAXX 18181 13459 32668 80202 10026 20025 39365 40135 54000 8387/ 333 10063 83896 87499
AAXX 18181 13461 32660 80204 10110 21005 30114 40122 58003 888// 333 10135 83833 86645 92333 92437
AAXX 18181 13363 32970 03602 11017 21023 39217 48426 54000 333 10040 42002
BBXX 2AJI3 18183 99162 70178 41997 50213 10252 20159 40135 55/// 70522 84038 22244 00240 20301 335// 40501 5//// 80195
AAXX 18181 40716 12960 00000 10034 21013 38984 40288 52014 60001 333 55061
AAXX 18181 40719 11540 79901 10102 20090 30280 40270 52012 60001 71022 85570 333 55045 85620 87358
AAXX 18181 40721 12960 00000 10056 20005 39729 40285 52013 60001 333 55031
AAXX 18181 40858 12960 03406 10188 20123 30195 40206 52015 60001 333 55090
AAXX 18181 40872 12960 03107 10194 20055 30185 40190 50015 60001 222// 00/// 20301 333 55089
AAXX 18181 40877 12960 02304 10172 20110 39610 40151 52020 60001 333 55087
AAXX 18181 40898 12962 22103 10222 20184 30153 40162 51006 60001 80002 222// 00243 10600 333 55096 2//// 82070
BBXX BAREU61 18184 99105 70175 46/// /3510 10275 29052 40098 57001 22234
BBXX BATFR45 18184 99063 30469 46/// ///// 10289 20237 40106 52018 22214 00317
BBXX BATFR05 18184 99063 10034 46/// /2109 10279 20242 40094 53010 22200 00260
BBXX BATFR19 18184 99065 30060 46/// /1912 10234 20187 40112 56001 22241 00254
BBXX BATFR55 18184 99154 30532 44798 20316 10275 20232 40093 70100 82101 22272 00284 20802 33131 412// 512//
BBXX BATEU07 18184 99346 31288 46/// /0406 10167 40106 53003 22264
BBXX BAREU56 18184 99408 10143 46/// ///// 40087 52016 22222
BBXX BAREU63 18184 99347 10306 46/// /1212 10183 29065 40210 52010 22263
BBXX BAREU08 18184 99425 70209 46/// ///// 40298 52000 22214
BBXX BAREU00 18184 99516 70164 46/// ///// 40207 57010 22224
BBXX BAREU51 18184 99381 10134 46/// ///// 40119 52021 22200
BBXX BAREU04 18184 99551 70192 46/// ///// 40103 57027 22263
BBXX BATFR54 18184 99454 70008 46/// /3212 10079 20012 40242 22273 00105
BBXX BATFR09 18184 99461 70049 44497 53609 10094 20024 40262 53004 70282 85700 22223 00140 20102 335// 40506 5////
BBXX BATFR16 18184 99466 70047 46/// /3223 10104 20032 40253 53019 22263 00139
BBXX BATFR41 18184 99411 10012 46/// ///// 10102 21003 40206 53018 22200
BBXX BATFR60 18184 99512 10017 46/// /3029 10049 21001 40150 53028 22253 00102
BBXX BATFR04 18184 99598 70106 46/// /2007 10060 20002 40124 58011 22200 00100
BBXX BATFR46 18184 99366 70031 44/96 41109 10149 20094 40215 51014 70131 83/4/ 22263 00159 21002 314// 41502 5////
BBXX BATFR12 18184 99481 70075 46/// /3117 10109 20054 40260 53006 22281 00144
BBXX BATEU08 18184 99621 70286 46/// /2522 10030 21023 49967 53011 22262
BBXX BATFR42 18184 99443 70040 46/// /3420 10107 20029 40256 22284 00152
BBXX BATFR02 18184 99500 70006 46/// /3232 10080 20012 40188 22284 00129
BBXX BATEU03 18184 99538 70104 46/// /2617 10094 20050 40199 58006 22282 00102
BBXX BATUK01 18184 99584 70060 46/// /0506 10050 21010 40134 53018 22261 00107
BBXX 61001 18184 99434 10078 46/// /2915 10110 20026 40098 52016 22200 00150 10603 70016
BBXX V2OT9 18183 99396 70098 41598 50317 10140 20064 40250 53010 70111 83140 22283 20303 33300 40304 5//// 80100
BBXX BAREU05 18184 99453 70504 46/// ///// 40138 57039 22264
BBXX BAREU54 18184 99094 70799 46/// ///// 40123 22200
BBXX BATFR15 18184 99180 70575 44898 23510 10250 20187 40136 56022 70000 82152 22264 00275 20802 305// 40802 5////
BBXX BATFR14 18184 99209 70559 44898 40407 10250 20177 40137 56024 70300 84162 22214 00262 305// 410// 5////
BBXX FVNM 18184 99056 70870 46/// /3002 10260 20219 40122 58013 22200 00260
BBXX BATEU06 18184 99526 70494 46/// /2628 11052 21108 4//// 22264 00052
BBXX BATEU01 18184 99493 70401 44597 72810 10077 20002 40187 53011 70222 84563 22224 00134 21002 327// 41002 5////
BBXX 41101 18184 99146 70562 46/// /0409 10262 20193 40112 57026 22200 00275 11106 70028
BBXX A8SF7 18181 99224 70744 41/98 80808 10230 20215 40190 56020 7//66 8//// 22244 04250 20902 309// 41202 5//// 80220
AAXX 18184 60395 11660 80000 10082 20074 40198 52018 60102 76062 888// 333 10130 83830 86640 95990
AAXX 18184 60421 11560 52712 10050 20019 39124 48466 53005 60022 70162 85200 333 10067 85830 95990
AAXX 18184 60423 11656 83012 10040 20028 39172 48439 50007 60042 76062 888// 333 10088 83833 87640 95990
AAXX 18184 60430 11565 62810 10058 20033 40217 53009 60022 70262 85802 333 10095 82820 83823 83073 95990
AAXX 18184 60437 11250 82808 10030 20023 38972 48472 53006 60052 70264 882// 333 10047 84705 85816 95990
AAXX 18184 60444 11560 70000 10030 20005 39068 48477 51005 69962 70262 878// 333 10080 82826 85830 95990
AAXX 18184 60452 NIL
AAXX 18184 60457 12562 10000 10097 20072 40215 52008 60002 81500 333 10144 81620 95990
AAXX 18184 60514 12560 62614 10054 20031 39289 48524 53010 60002 86200 333 10096 86826 95990
AAXX 18184 60518 11560 62708 10129 20098 40201 53012 60062 70262 84832 222// 29902 333 10150 83820 83360 91837 95990
AAXX 18184 60520 11558 82706 10084 20065 40210 53003 60032 76062 888// 333 10108 85823 85630 95990
AAXX 18184 60540 11560 53012 10067 20016 39034 48493 53003 60002 70221 83201 333 10092 83830 95990
AAXX 18184 60560 11960 30000 10072 21018 38969 48515 54000 60002 70211 83081 333 10110 83360 95990
BBXX A8YW2 18184 99204 30654 41/98 20916 10255 20198 40142 52013 70100 8//// 22214 00240 20703 80218
AAXX 18181 14235 12960 3//// 11033 21051 38971 48418 53010 60002 80008 333 11009 44015
AAXX 18181 14246 11980 20901 11006 21014 39940 40151 52/// 60002 700// 80002 333 10061 41998
AAXX 18181 14314 12681 60504 10091 21053 30037 40101 54/// 69912 86800 333 10096 92312 92428
AAXX 18181 14323 11681 70607 10064 21019 30080 40115 54/// 60002 702// 87500 333 10095 92323 92438
AAXX 18181 14324 12370 70907 11069 21100 38316 48426 56/// 60002 87600 333 11036 44014
AAXX 18181 14328 11640 80000 11005 21011 39740 40146 52/// 60002 710// 885// 333 10033 42001
AAXX 18181 14330 11556 83301 11019 21024 39450 40137 51/// 60002 71044 886// 333 11019
AAXX 18181 14438 11580 80703 10083 21033 30000 40092 58/// 60002 717// 883// 333 10115 923//
AAXX 18181 14443 32699 718// 10115 20070 39976 40068 57019 87660 333 10115 92334
AAXX 18181 14447 11582 81009 10050 20025 30059 40091 57/// 69942 76022 882// 333 10120 92323
AAXX 18181 14472 11665 60704 10080 20028 30051 40116 52005 69992 7216/ 86200 333 10123 92312
BBXX MGGK4 18180 99022 70106 41498 31803 10268 20238 40107 57005 70200 83300 22254 00278 20201 318// 40703 5//// 80247
BBXX C6CU6 18183 99308 70522 41397 50116 10200 20184 40169 50/// 70111 851// 22263 04210 20908 310// 41307 5//// 80190
AAXX 18181 08501 32/// /1703 10184 20143 30263 40298 52004 333 10210 91106 555 60005
AAXX 18181 08505 32470 72102 10184 20146 30263 40313 55001 8683/ 333 10190 82816 86640 555 60007
AAXX 18181 08506 32/// /9901 10179 20124 30249 40321 52002 333 10189 91105 555 60005
AAXX 18181 08509 32560 52403 10181 20132 30251 40316 55000 84801 333 10211 81830 84645 555 60007
AAXX 18181 08511 32/// /3102 10176 20116 30212 40320 52002 333 10189 555 60005
AAXX 18181 08512 NIL
AAXX 18181 08515 32589 63204 10180 20147 30196 40319 56003 81801 333 10196 81820 86080 910// 911// 555 60007 912//
AAXX 18181 08521 32470 29902 10190 20112 30187 40258 57003 81201 333 10229 81816 555 60007
AAXX 18181 08522 32/// /9901 10184 20119 30194 40263 54000 333 10215 555 60005
AAXX 18181 08524 32470 53408 10178 20136 30164 40262 54000 85801 333 10199 83815 83630 91113 555 60005
AAXX 18181 08530 NIL
AAXX 18181 08531 32/// /0307 10127 20067 30218 40257 52006 333 10130 91111 555 60005
AAXX 18181 08532 NIL
AAXX 18181 08533 12/// /0000 10102 20053 30212 40241 52009 69962 333 10146 555 60005
AAXX 18181 08534 32970 70503 10106 20036 30234 40251 52011 80001 333 10150 87072 555 60007
AAXX 18181 08535 32/// /0205 10117 20016 30161 40255 52015 333 10145 555 60005
AAXX 18181 08537 NIL
AAXX 18181 08540 32960 43602 10084 20060 30183 40254 51004 80001 333 10128 84070 555 60007
AAXX 18181 08541 32/// /0204 10096 20009 30128 40249 52011 333 10136 555 60005
AAXX 18181 08544 32960 49901 10088 20060 30235 40256 51001 80001 333 10124 84070 555 60007
AAXX 18181 08545 31562 83602 10078 20025 30181 40266 52004 70211 82802 333 10124 81825 84075 555 60005
AAXX 18181 08548 32/// /0000 10082 20040 30053 40263 52008 333 10112 555 60005
AAXX 18181 08551 32/// /9901 10057 20019 30214 40273 52008 333 10118 555 60005
AAXX 18181 08554 12965 23402 10122 20013 30231 40240 52010 69912 80001 333 10160 82080 91105 555 60005
AAXX 18181 08558 32/// /0402 10069 20018 39950 40251 52011 333 10118 555 60005
AAXX 18181 08560 32/// /0303 10056 20001 39495 40268 52011 333 10097 555 60005
AAXX 18181 08561 32970 40203 10088 20033 30007 40240 53008 80001 333 10126 81068 83070 91107 555 60007
AAXX 18181 08562 32/// /0702 10081 20022 39945 40245 52010 333 10122 555 60005
AAXX 18181 08567 32/// /9901 10053 20007 39591 40271 52007 333 10096 555 60005
AAXX 18181 08568 NIL
AAXX 18181 08570 32/// /0102 10075 20003 39791 40259 52012 333 10114 555 60005
AAXX 18181 08571 32/// /0302 10064 20001 39542 40258 52011 333 10092 555 60005
AAXX 18181 08575 32/// /9901 10058 21025 39444 40270 52013 333 10095 555 60005
AAXX 18181 08579 32/// /2402 10108 20020 30128 40255 52016 333 10143 91105 555 60005
AAXX 18184 60353 NIL
AAXX 18184 60367 11558 8//// 10099 20093 40167 53004 60182 76286 888// 333 10128 83820 87840
AAXX 18184 60369 11560 63010 10125 20020 40205 53025 60032 72162 86800 333 10162 84826 91837
AAXX 18184 60401 NIL
AAXX 18184 60403 11558 70000 10080 20063 40180 53014 60032 76162 878// 333 10141 83830 87836 95990
AAXX 18184 60425 12570 40000 10105 20050 40214 52012 60002 81232 333 10150 81826 83073 95990
AAXX 18184 60461 11570 41808 10120 20080 40220 53012 69902 70262 84500 222// 20000 333 10150 84626 91828 95990
AAXX 18184 60467 12665 53010 10076 20032 40193 52011 60002 85830 333 10126 85833 95990
AAXX 18184 60492 12565 42612 10108 20092 40208 53004 60002 81202 333 10146 81830 95990
AAXX 18184 60515 12560 43316 10090 20028 40195 50016 60002 84800 333 10132 84830 95990
AAXX 18184 60517 12560 73207 10150 20094 40224 53011 60002 85232 333 10166 85826 95990
AAXX 18184 60522 12570 33303 10099 20055 40229 53009 60002 83200 333 10132 83826 95990
AAXX 18184 60557 11970 23402 10050 21013 38866 48507 53001 60002 70110 81082 333 10077 81360 95990
AAXX 18184 60563 12960 30112 10085 21022 39295 48496 53013 60002 80002 333 10133 83073
AAXX 18184 60603 12960 43312 10138 21004 40183 53012 60002 80001 333 10175 84073
AAXX 18184 60638 12960 2//// 10124 20021 40171 53005 60002 82030 333 10172 82360
AAXX 18184 60686 12960 23605 10215 21048 40146 57002 60002 80002 333 10266 82073
AAXX 18181 50844 32962 03202 11164 21195 40290 52008 333 11054
AAXX 18181 50854 32965 10000 11170 21205 40275 57001 80002 333 11091
AAXX 18181 50968 32662 80000 11163 21180 40286 54000 885// 333 11104
AAXX 18181 51379 32970 01603 11202 21230 40367 52001 333 05259 11091
AAXX 18181 51467 32980 00000 11124 21212 38252 57003 333 05300 11039
AAXX 18181 51495 32980 03403 11088 21148 40298 57007 333 05400 11023
AAXX 18181 53480 32980 00000 11134 21166 40359 57004 333 11065
AAXX 18181 53673 32961 72901 11083 21121 40325 57009 80002 333 10000
AAXX 18181 53698 31956 70000 11039 21077 40317 57012 71000 80002 333 10027
AAXX 18181 53898 31920 02201 11050 21057 40319 57002 71000 333 10028
AAXX 18181 54308 32980 30000 11139 21225 40350 57003 80002 333 11012
AAXX 18181 54602 31950 80201 11066 21106 40318 57005 71000 80007 333 10021
AAXX 18181 54725 32962 51601 11056 21095 40324 57006 80002 333 10045
AAXX 18181 54751 32965 03206 10025 21071 40313 52001 333 10037
AAXX 18181 54916 31940 00000 11054 21066 40331 52006 71000 333 10048
AAXX 18181 57014 32962 82202 10022 21031 40280 57010 8807/ 333 05302 10038
AAXX 18181 57025 31958 03602 11033 21056 40294 57013 71000 333 10036
AAXX 18181 57046 32964 01101 11027 21094 37964 57012 333 05203 11009
AAXX 18181 58208 32960 01102 11003 21051 40317 57003 333 10066
AAXX 18181 60370 16/// /3303 10100 20057 60042 333 10156
AAXX 18181 60371 16/// /3102 10115 20050 60022 333 10152
AAXX 18181 60372 16/// /3305 10085 20051 60022 333 10131
AAXX 18181 60373 NIL
AAXX 18181 60374 NIL
AAXX 18181 60376 NIL
AAXX 18181 60379 NIL
AAXX 18181 60380 NIL
AAXX 18181 60381 NIL
AAXX 18181 60393 NIL
AAXX 18181 60394 NIL
AAXX 18181 60593 NIL
AAXX 18181 60595 NIL
AAXX 18181 60605 NIL
AAXX 18181 60613 NIL
AAXX 18181 60623 NIL
AAXX 18184 60624 36/// /0000 10205 20007 333 10239
AAXX 18184 60639 NIL
AAXX 18184 60645 36/// /0000 10199 20021 333 10237
AAXX 18181 40700 11958 00000 10020 20004 30186 40278 52020 60001 71022 333 55050
AAXX 18181 40723 12960 00000 10006 21032 38984 40297 52010 60001 333 55065 29455
AAXX 18181 40726 11440 63403 11048 21061 38753 40347 53015 60001 71021 86600 333 55010 83715
AAXX 18181 40727 12960 60000 10002 21024 38550 40312 51017 60001 80005 333 55079 20667 86270
AAXX 18181 40734 11458 41702 10094 20073 30293 40268 51010 60001 71022 84600 333 55034 84715
AAXX 18181 40737 12960 20000 10070 20056 30256 40275 52005 60001 82030 333 55063 2//// 82359
AAXX 18181 40741 11540 83103 10013 21006 39981 40333 52024 60001 71022 8572/ 333 55000 85720 88460
AAXX 18181 40780 12960 00902 10030 21056 38746 40267 52011 60001 333 55088 21155
AAXX 18181 40791 12960 00000 10066 21046 39424 40269 52021 60001 333 55019
AAXX 18181 40792 12970 20000 10018 21055 38772 40263 52013 60001 80001 333 55004 82070
AAXX 18181 40794 12960 03002 10110 20043 30122 40222 52008 60001 333 55088 21140
AAXX 18181 40812 12960 00000 10132 20030 39829 40210 51008 60001 333 55084
AAXX 18181 40829 12960 03106 10115 21071 39631 40209 52018 60001 333 55080
AAXX 18181 40833 12960 03305 10132 20039 30189 40221 51012 60001 333 55090
AAXX 18181 40835 12960 00000 10116 21023 39385 40228 52014 60001 333 55084
AAXX 18181 40845 NIL
AAXX 18181 40882 11957 02805 10220 20161 30141 40176 51007 60001 70500 333 55085
AAXX 18181 40889 NIL
AAXX 18181 40890 NIL
AAXX 18181 40893 11958 23008 10219 20156 30163 40170 51009 60001 70700 80001 222// 00/// 20302 333 55066 82068
AAXX 18181 40897 NIL
AAXX 18184 87078 32670 51802 10376 20093 39925 40071 57023 85100 333 56400 85845
AAXX 18184 87244 32570 32305 10377 20111 39678 4//// 5//// 83400 333 56500 82625
AAXX 18184 87393 31558 42320 10332 20103 30000 40061 57025 70400 84800 333 56500 83623
AAXX 18184 87416 32965 01405 10346 20091 39350 40066 57020
AAXX 18184 87563 NIL
AAXX 18184 87640 32965 03205 10320 20133 39945 4//// 57013
AAXX 18184 87688 32962 00901 10293 20065 39922 40056 57011
AAXX 18184 87774 NIL
AAXX 18184 87852 32984 22525 10183 21016 39572 40072 57020 81046 333 56066 57358 81360
AAXX 18183 NIL
AAXX 18184 87593 32560 52311 10254 20158 30042 40069 58015 85100 333 56500 85825
AAXX 18184 87623 31935 02311 10350 20079 39834 40049 57021 70400 333 96120 96104
AAXX 18184 87641 32970 12004 10307 20190 39886 40057 57017 80002 333 56006 81070
AAXX 18184 87645 32970 01805 10292 20077 39854 40058 57016
AAXX 18184 87648 32560 50000 10242 20157 30060 40070 57023 85100 333 56500 85825
AAXX 18184 87692 11560 61612 10200 20160 30050 40076 55009 69901 70252 85101 333 56505 85820
AAXX 18184 87715 32975 02518 10290 21021 39781 40086 57025
AAXX 18184 87750 31957 02014 10334 20106 39944 40039 57016 70411
AAXX 18184 87765 31958 03220 10203 20031 39182 48491 57013 70731 333 96104 96120
AAXX 18184 87784 32980 01113 10249 20058 30086 40110 52004
AAXX 18184 87791 31570 11420 10235 20092 30090 40099 52005 70010 81500 333 56400 81630
AAXX 18184 87800 32680 20000 10239 20083 39733 40121 57019 82100 333 56600 82848
AAXX 18184 87803 32980 22311 10186 21021 39210 40114 57012 80002 333 56000 82070
AAXX 18184 87828 31975 01110 10286 21032 30040 40089 57015 70400
AAXX 18184 87860 32980 20914 10223 20021 30016 40070 57019 80001 333 56006 82070
AAXX 18184 87904 32680 42716 10200 21018 39766 40006 57020 83440 333 56660 57329 83640
AAXX 18184 87909 32980 10522 10206 20042 39961 40034 57029 80001 333 56000 81070
AAXX 18184 87925 32580 60225 10200 20005 39964 49986 57032 82106 333 56000 82830 84270
AAXX 18184 87938 32680 53615 10161 20034 39893 49961 57017 84530 333 56880 84640
AAXX 18184 89022 42465 83305 11016 21046 39823 49860 52034 885// 333 88615
AAXX 1818/ 89332 46/// ///// 11108 39280 4//// 5////
AAXX 1818/ 89108 46/// ///// 11183 36877 4//// 5////
AAXX 1818/ 89329 46/// ///// 11150 38787 4//// 5////
AAXX 1818/ 89314 46/// ///// 11141 38221 4//// 5////
AAXX 18181 23914 32999 01404 11110 21123 30125 40402 54000 333 11087
AAXX 18181 23921 32997 71703 11059 21098 30247 40371 52005 82031 333 11030
AAXX 18181 23955 41984 82505 11122 21145 30246 40311 57011 73632 80001
AAXX 18181 23966 41496 72302 11136 21156 30138 40271 57026 78582 87900
AAXX 18181 28138 32999 62302 11096 21104 39846 40453 52004 80001 333 11081
AAXX 18181 28224 32998 21904 11097 21114 30215 40444 52004 80001 333 11052
AAXX 18181 28255 32994 02802 11096 21104 30311 40449 52006 333 11052
AAXX 18181 28440 32597 72402 11065 21084 30104 40473 52010 87500 333 11021
AAXX 18181 28645 32997 01802 11138 21144 30182 40504 52013 333 11070
AAXX 18181 28661 31996 32105 11217 21241 30410 40514 54001 71011 80001 333 11200
AAXX 18181 28722 32997 21803 11101 21132 30343 40484 52016 80001 333 11090
AAXX 18181 28748 31956 41801 11183 21195 30268 40535 52012 71000 80001 333 11148
AAXX 18181 28838 12996 02101 11224 21230 30021 40559 52013 69920 333 11125
AAXX 18181 29231 41398 82202 11143 21163 30242 40345 57021 72682 889// 333 86707
AAXX 18181 29313 42998 82303 11143 21163 30257 40389 57019 8803/
AAXX 18181 29612 42998 02303 11240 21265 30303 40473 58016
AAXX 18181 29638 42997 02002 11254 21272 30270 40457 57005
AAXX 18181 29838 42997 03101 11212 21231 30190 40449 52005
AAXX 18181 29846 41911 30000 11247 21247 30020 40453 52005 71000 82031
AAXX 18181 36061 42999 00000 11268 21287 39990 40451 52008
AAXX 18181 23909 32998 62003 11099 21132 30109 40372 52003 83031 333 11075
AAXX 18181 28044 32997 01801 11052 21089 30230 40401 52004 333 11031
AAXX 18181 28116 32999 31604 11107 21133 30161 40410 52007 80001 333 11091
AAXX 18181 28240 32998 02502 11076 21096 30112 40454 52006 333 11029
AAXX 18181 28522 32997 01802 11090 21109 30200 40476 52022 333 11068
AAXX 18181 28621 32997 01601 11101 21121 30217 40467 52007 333 11072
AAXX 18181 29023 41997 82602 11140 21160 30204 40307 57021 77172 8801/
AAXX 18181 29122 41499 82404 11129 21142 30260 40338 57017 73632 8355/
AAXX 18181 29328 42998 42302 11167 21198 30242 40393 57021 80001
AAXX 18181 29348 42997 72302 11173 21189 30221 40378 57019 80006
AAXX 18181 29405 42597 82404 11199 21218 30286 40448 57015 8533/
AAXX 18181 29418 42598 82503 11174 21208 30262 40436 57021 8297/
AAXX 18181 29430 42998 42102 11224 21242 30208 40405 58028 80001
AAXX 18181 29524 42998 02504 11216 21234 30266 40447 57014
AAXX 18181 29605 42998 82302 11227 21239 30317 40476 57010 8807/
AAXX 18181 29631 42997 02402 11236 21255 30245 40453 57006
AAXX 18181 29645 42598 60000 11250 21267 30234 40444 57001 82571
AAXX 18181 29706 42998 02602 11268 21293 30328 40496 58001
AAXX 18181 29736 42997 00000 11262 21281 30173 40456 53004
AAXX 18181 29937 42997 00101 11215 21248 30198 40444 52006
AAXX 18181 36034 42998 00104 11240 21259 30141 40450 52015
AAXX 18181 36096 42997 00000 11349 21377 39673 40582 52003
AAXX 18181 28049 32997 22005 11054 21080 30237 40409 54001 80001 333 11035
AAXX 18181 28144 32998 52202 11064 21087 30259 40425 50003 82032 333 11034
AAXX 18181 28319 32998 01202 11103 21123 30268 40444 52003 333 11069
AAXX 18181 28321 32999 01402 11116 21122 30224 40443 52005 333 11090
AAXX 18181 28334 32497 82302 11065 21111 30145 40466 52004 8857/ 333 11075
AAXX 18181 28434 32598 83001 11100 21111 30196 40473 51002 885// 333 11095 88633
AAXX 18181 28552 32598 32502 11148 21168 30369 40492 52005 83500 333 11104
AAXX 18181 28666 32999 02003 11224 21247 30315 40512 57003 333 11218
AAXX 18181 28825 12997 00000 11172 21182 30311 40501 52014 69900 333 11075
AAXX 18181 29111 42998 62704 11121 21145 30272 40365 56002 80001
AAXX 18181 29209 41598 22003 11161 21180 30270 40406 57006 70271 82500
AAXX 18181 29551 42997 81901 11228 21253 30211 40414 57019 80001
AAXX 18181 29602 42998 52202 11232 21257 30317 40475 57010 80001
AAXX 18181 29636 42998 00000 11250 21262 30202 40447 57008
AAXX 18181 29654 42999 20901 11252 21270 39756 40443 53001 80001
AAXX 18181 29712 42998 02301 11268 21293 30325 40487 54000
AAXX 18181 29724 42997 00000 11283 21307 30242 40474 57002
AAXX 18181 29726 42998 00000 11285 21310 30284 40476 58003
AAXX 18181 29814 42999 00101 11275 21307 30332 40499 52004
AAXX 18181 29827 42997 00201 11209 21234 30292 40463 52008
AAXX 18181 29923 42999 00101 11233 21258 30152 40461 52005
AAXX 18181 29939 42997 00000 11302 21332 30128 40453 52009
AAXX 18181 35026 31996 00000 11190 21207 39841 40550 52013 333 11100
AAXX 18181 36021 42999 03503 11255 21280 30268 40472 52010
AAXX 18181 36022 42998 00204 11247 21265 30168 40463 52016
AAXX 18181 36038 42999 01801 11266 21290 39949 40449 52020
AAXX 18181 36058 42999 00000 11234 21246 39874 40454 52010
AAXX 18181 36064 42999 03401 11142 21155 39789 40426 52008
AAXX 18181 36229 42999 00000 11313 21326 39189 40532 52011
AAXX 18181 36259 42999 30000 11331 21367 38295 48593 52005 80001
AAXX 18181 34357 32598 80914 11008 21024 30079 40243 52025 885// 333 11025 91118
AAXX 18181 34363 32997 61406 11068 21071 30154 40315 50003 86030 333 11071 93614
AAXX 18181 34545 11496 81509 10014 20014 30113 40227 50010 69900 76162 880// 333 10014
AAXX 18181 34579 32998 01105 11077 21093 30279 40325 52010 333 11030
AAXX 18181 34838 32/// /1502 10068 20029 30113 40209 53021 333 10083
AAXX 18181 34927 31597 82402 10136 20018 30167 40203 51028 78082 889// 333 10152
AAXX 18181 34949 32398 81404 10020 20012 39680 40234 52015 8265/ 333 10039
AAXX 18181 37001 11496 81707 10106 20095 30151 40191 51024 60040 78082 889// 333 10122
AAXX 18181 37031 32997 81305 10054 20021 30013 40209 51016 8805/ 333 10070
AAXX 18181 37061 11456 81002 10051 20046 30075 40243 51015 69930 71022 886// 333 10060
AAXX 18181 37085 12596 81108 10054 20033 30286 40313 51013 69910 885// 333 10065 91012 91114
AAXX 18181 37107 32698 83301 10067 20012 39554 40232 52016 885// 333 10092
AAXX 18181 37126 42999 81801 10023 21187 37960 48522 52017 85031
AAXX 18181 37171 32996 80504 10117 20019 30188 40296 52014 8807/ 333 10162
AAXX 18181 37228 31996 60000 11011 21028 39388 40244 52012 71022 80001 333 10012
AAXX 18181 37470 31496 81403 10070 20057 30291 40268 52019 75155 886// 333 10078
AAXX 18181 37663 32996 00000 11023 21037 39060 48519 52011 333 10055
AAXX 18184 71107 16/// /2005 10064 20040 30156 40270 51007 60001 333 10065 20032 70000
AAXX 18184 71480 16/// /1203 11262 21289 39949 40076 58010 60001 333 11235 21302 70005
AAXX 18184 71269 16/// /3209 11007 21025 60001 333 10052 21010 70000
AAXX 18184 71285 46/// /3108 11023 21100 6///1 333 11003 21029 7////
AAXX 18184 71299 16/// /2007 11056 21072 39846 40124 58015 60001 333 11056 21122 70000 555 10030
AAXX 18184 71935 11474 12102 11196 21231 39948 40165 53006 69901 70171 81500 333 11163 21197 79999 90922
AAXX 18184 71421 16/// ///// 11153 21212 39472 40224 56012 60001 333 11151 21272 70000
AAXX 18184 71432 16/// /2708 10023 21030 30118 40217 58007 60001 333 10027 21050 70000
AAXX 18184 71435 16/// /1806 11020 21051 39442 40036 58039 60001 333 11020 21093 70000
AAXX 18184 71903 46/// /1705 10044 20023 30169 40219 6///1 333 10055 7////
AAXX 18184 71151 16/// /2207 11021 21039 39509 40012 56017 60001 333 11021 21066 70000
AAXX 18184 71186 46/// /1303 11105 21154 6///1 333 11103 21168 7////
AAXX 18184 71190 46/// /1607 11082 21123 6///1 333 11080 21138 7////
AAXX 18184 71737 16/// /2103 11089 21163 39679 40225 57017 60001 333 11089 21241 70000
AAXX 18184 71743 16/// /2510 11165 21188 39794 40015 56001 60001 333 11146 21206 70000 555 10010
AAXX 18184 71746 16/// /2504 10006 21055 39994 40219 58002 60001 333 10006 21037 70004
AAXX 18184 71748 16/// /3206 11016 21030 39729 40016 58003 60001 333 11016 21107 70000
AAXX 18184 71423 16/// /0210 11083 21132 30218 40228 56012 60001 333 11080 21128 70000
AAXX 18184 71434 16/// /2103 11158 21177 30028 40096 58010 60001 333 11153 70000
AAXX 18184 71971 16/// /0401 11290 21316 39867 49914 50002 60001 333 11250 21297 70000
AAXX 18184 71976 46/// /2326 11220 21244 39267 49908 55005 6///1 333 11220 21259 7////
AAXX 18184 71018 16/// ///14 11320 21354 39883 49973 50000 60001 333 11274 21322 70000
AAXX 18184 71832 16/// /1706 11057 21073 39769 40099 58031 60001 333 11057 21091 70000
AAXX 18184 71374 46/// /3103 11110 21180 6///1 333 11102 21146 7////
AAXX 18184 71387 16/// /2004 11120 21180 39822 40230 56029 60001 333 11120 21303 70000
AAXX 18184 71550 16/// /2703 11003 21008 39669 40042 53017 60001 333 10016 21048 70000
AAXX 18184 71752 16/// /2908 10018 21016 39998 40220 57003 60001 333 10018 21071 70000
AAXX 18183 87016 32562 20000 10346 20158 39658 40050 58024 82200 333 56600 82820
AAXX 18183 87896 32580 41613 10166 20123 39973 40060 58003 82861 333 56666 82625
BBXX DGUG2 18184 99408 70123 41598 20611 10125 20068 40285 53005 70100 82180 22254 04170 20401 332// 41204 80095
BBXX 2ALE5 18183 99501 70012 41598 53425 10080 20019 40179 55006 70211 85140 22214 20508 80055
BBXX A8TI2 18184 99269 70491 41499 31420 10230 20194 40090 57010 70311 8/1// 22214 04250 2//// 309// 41006
AAXX 18184 71667 16/// /2007 10008 21040 39813 40059 58053 60001 333 10008 21100 70003
AAXX 18184 71682 16/// /1801 11292 21318 39896 40140 58007 60001 333 11289 21303 70000
AAXX 18184 71228 16/// /3012 11022 21057 60001 333 11001 21063 70004
AAXX 18184 71300 16/// /2305 11055 21142 30119 40247 55008 60001 333 11051 21171 70000
AAXX 18184 71309 16/// /2704 11076 21122 30106 40118 58003 60001 333 11070 21150 70000 555 10010
AAXX 18184 71340 16/// /2707 11015 21087 60001 333 10006 21033 7////
AAXX 18184 71341 17/// /0506 11007 21013 69981 7//4/ 333 10086 21008 70008
AAXX 18184 71342 16/// /3211 11020 21052 60001 333 10015 21033 70012
AAXX 18184 71344 16/// /2910 11025 21040 60001 333 10044 21031 70000
AAXX 18184 71347 16/// /3502 11097 21105 60001 333 11005 21181 70012
AAXX 18184 71348 16/// /0000 11082 21090 60001 333 10002 21141 70048
AAXX 18184 71503 46/// /0605 11191 21212 39813 40092 56010 6///1 333 11190 21226 7////
AAXX 18184 71506 46/// /1204 11087 21133 39097 49981 56023 6///1 333 11071 21233 7////
AAXX 18184 71507 16/// /2103 11107 21147 60001 333 11056 21127 70004
AAXX 18184 71514 16/// /3414 11014 21027 39393 40097 51046 60001 333 11014 21072 70000
AAXX 18184 71539 16/// /3211 11003 21010 39416 40113 53044 60001 333 10034 21023 70000
BBXX A8SF8 18184 99161 70715 41398 50521 10280 20224 40155 55010 70311 82768 22253 04270 20802 30000 80240
BBXX A8XY2 18184 99510 70079 41398 73115 10099 20046 40223 51016 70322 8587/ 22254 04100 2//// 80073
AAXX 18184 71421 16/// ///// 11153 21212 39472 40224 56012 60001 333 11151 21272 70000
AAXX 18184 71432 16/// /2708 10023 21030 30118 40217 58007 60001 333 10027 21050 70000
AAXX 18184 71435 16/// /1806 11020 21051 39442 40036 58039 60001 333 11020 21093 70000
AAXX 18184 71935 11474 12102 11196 21231 39948 40165 53006 69901 70171 81500 333 11163 21197 79999 90922
BBXX C6SI6 18184 99332 11239 46/// /3309 10071 21007 40311 57002 7//// 8//// 22254 0//// 2////
BBXX DPCK 18183 99309 11260 41398 63420 10100 20061 40265 57020 70311 8518/ 22215 00180 20305 3//// 4//// 5//// 80080
BBXX MGPU2 18183 99410 11336 41298 63424 11020 21075 40260 54000 70322 8/7// 22283 00037 2//// 332// 40306 5//// 81035
BBXX SMGW 18181 99353 11462 43/97 83616 10103 40159 55005 22224 00207 2//// 4////
BBXX WCX8882 18184 99335 11285 41498 43019 10070 20000 40284 54000 70211 842// 22244 00180 2//// 3//// 4//// 5//// 6//// 80040 ICE /////
BBXX DDLK 18183 99424 70632 41397 70335 10074 20031 40085 57023 781// 8677/ 22213 20707 304// 41008 80054
AAXX 18184 71832 16/// /1706 11057 21073 39769 40099 58031 60001 333 11057 21091 70000
AAXX 18181 28216 32999 02003 11107 21127 30123 40425 52005 333 11084
AAXX 18181 28428 32597 21902 11110 21116 30269 40469 52005 82500 333 11087
AAXX 18181 28451 32996 02402 11108 21118 30304 40475 52008 333 11070
AAXX 18181 28541 32582 82301 11064 21080 39962 40481 52010 885// 333 11042
AAXX 18181 28655 32998 02303 11187 21206 30267 40514 52006 333 11157
AAXX 18181 28756 32997 02103 11230 21252 30370 40539 52003 333 11214
AAXX 18181 29557 42998 00000 11250 21267 30127 40425 57014
AAXX 18181 29625 42998 02701 11233 21251 30262 40463 57008
AAXX 18181 29813 42999 00000 11243 21261 30261 40462 52001
AAXX 18181 29822 42997 02901 11281 21305 30286 40473 52004
AAXX 18181 29915 42998 03503 11240 21258 30304 40482 52013
AAXX 18181 36020 42998 00301 11229 21235 30222 40446 52015
BBXX 2AJI3 18183 99162 70178 41997 50213 10252 20159 40135 55/// 70522 84038 22244 00240 20301 335// 40501 5//// 80195
BBXX A8YW2 18184 99204 30654 41/98 20916 10255 20198 40142 52013 70100 8//// 22214 00240 20703 80218
BBXX MGGK4 18180 99022 70106 41498 31803 10268 20238 40107 57005 70200 83300 22254 00278 20201 318// 40703 5//// 80247
AAXX 18181 15600 11989 21808 11065 21107 38262 48469 51007 60002 70110 82041 333 11016 21085 47013 555 572//
AAXX 18181 23226 11460 82108 11066 21090 30007 40229 52012 60010 77172 885// 333 11015 88614 93400
AAXX 18181 23701 11484 71903 11087 21130 30132 40268 58001 69900 70232 85530 333 11051 85614
AAXX 18181 28909 32999 01406 11130 21165 30345 40455 52007 333 11108
AAXX 18184 60595 36/// /0000 11451 333 11451
AAXX 18184 60639 36/// /2806 10124 20012 333 10172
AAXX 18184 60605 36/// /1104 10185 21031 333 10213
AAXX 18184 60381 16/// /3003 10114 20063 60022 333 10164
BBXX C6XQ2 18183 99340 50528 41596 72432 10190 20174 40039 54000 78186 87700 22213 04200 20802 32526 40802 50602 80180
BBXX V7OX3 18184 99288 50485 41598 21106 10250 20204 40050 58010 70200 814// 22213 04270 2//02 307// 4//02 5//// 80220
BBXX A8SF7 18181 99224 70744 41/98 80808 10230 20215 40190 56020 7//66 8//// 22244 04250 20902 309// 41202 5//// 80220
BBXX C6CU6 18183 99308 70522 41397 50116 10200 20184 40169 50/// 70111 851// 22263 04210 20908 310// 41307 5//// 80190
BBXX A8TI2 18184 99269 70491 41499 31420 10230 20194 40090 57010 70311 8/1// 22214 04250 2//// 309// 41006
BBXX DDLK 18183 99424 70632 41397 70335 10074 20031 40085 57023 781// 8677/ 22213 20707 304// 41008 80054
BBXX A8SF8 18184 99161 70715 41398 50521 10280 20224 40155 55010 70311 82768 22253 04270 20802 30000 80240
AAXX 18181 13492 NIL
AAXX 18181 13584 NIL
AAXX 18181 13585 42998 00501 10014 21029 39350 40159 52008 333 10077 94056
AAXX 18181 13597 42998 02701 10045 21022 30086 40160 52017 333 10125 94055
AAXX 18181 13598 42998 00901 11013 21053 48436 52006 333 10057 94051
BBXX DGUG2 18184 99408 70123 41598 20611 10125 20068 40285 53005 70100 82180 22254 04170 20401 332// 41204 80095
BBXX 2ALE5 18183 99501 70012 41598 53425 10080 20019 40179 55006 70211 85140 22214 20508 80055
BBXX A8XY2 18184 99510 70079 41398 73115 10099 20046 40223 51016 70322 8587/ 22254 04100 2//// 80073
AAXX 18181 56146 32980 02001 11081 21121 36728 57006 333 05452 10058
AAXX 18181 56444 32980 02902 11058 21121 36820 57007 333 05100 10057
AAXX 18181 56492 11740 80401 10078 20046 39864 40281 57004 69901 76000 885// 333 05501 10096
AAXX 18181 56571 32980 00701 10044 20005 38401 57003 333 05451 10165
AAXX 18181 57799 32962 70000 10051 21007 30207 40299 57005 8703/ 333 10103
AAXX 18181 57866 32963 80203 10081 20003 30082 40294 57004 8807/ 333 10100
AAXX 18181 57957 31958 00202 10074 21006 30079 40283 57005 70500 333 10119
AAXX 18181 57993 32960 01101 10050 20004 30116 40287 57004 333 10131
AAXX 18181 58027 31958 00000 11031 21082 30265 40319 57003 71000 333 10056
AAXX 18181 58141 31914 00000 11030 21047 30308 40328 57005 71000 333 10059
AAXX 18181 58265 31930 02902 11005 21027 30321 40329 52005 71000 333 10069
AAXX 18181 58472 32980 23604 10061 21008 30216 40313 52001 82040 333 10089
AAXX 18181 58477 32980 13403 10058 20002 30259 40305 57001 81040 333 10122
AAXX 18181 58527 32960 00201 10010 21012 30226 40306 57002 333 10079
AAXX 18181 58633 31956 00404 10026 21012 30205 40309 52001 70500 333 10092
AAXX 18181 58666 32975 03609 10088 20052 30186 40290 57002 333 10105
AAXX 18181 58725 32970 72501 10071 21001 30013 40280 57003 8704/ 333 10153
AAXX 18181 58921 31958 00901 10055 20043 30018 40271 57001 71000 333 10163
AAXX 18181 59082 31957 01603 10050 20030 30120 40270 57002 71000 333 10165
AAXX 18181 59211 31956 80701 10112 20082 30035 40246 57004 71000 8807/ 333 10159
AAXX 18181 59265 31958 03602 10086 20024 30113 40254 57004 70500 333 10194
AAXX 18181 59293 32965 00901 10095 20012 30164 40251 57005 333 10184
AAXX 18181 59501 32962 00202 10131 20106 30208 40229 57009 333 10197
AAXX 18181 59663 32960 00403 10137 20035 30120 40229 57006 333 10194
AAXX 18181 59838 32962 10405 10166 20128 30190 40200 57014 80002 333 10250
AAXX 18181 59948 32470 70708 10157 20117 39705 40195 57015 82102 333 10206
AAXX 18181 59981 32570 70406 10236 20176 30149 40156 57014 878// 333 10248
AAXX 18184 87774 32982 02708 10250 20006 39123 48503 5////
AAXX 18184 87320 32670 20708 10378 20147 39538 40048 57032 82100 333 56300 82840
AAXX 18181 23205 11298 82005 11037 21059 30158 40173 52008 69900 70282 886// 333 10017 88706 91108
AAXX 18184 71108 11/04 92002 10061 20058 30169 40242 52023 60021 74765 333 10061 20059 70116 90942
AAXX 18184 65028 11956 70000 10244 20035 39563 40154 70522 80008 333 10282 59019 87280
AAXX 18184 65123 11958 73206 10286 20099 30063 40081 70522 80008 333 10358 59011 87280
AAXX 18184 65125 32957 62006 10284 20088 30710 40113 80008 333 10343 59011 86280
AAXX 18184 65208 31440 72105 10300 20186 39836 40092 70522 82538 333 10336 59013 82614 87280
AAXX 18184 65250 31950 70000 10298 20214 30051 40084 70522 80008 333 10337 59005 87280
AAXX 18184 65257 31935 71903 10286 20155 30000 40070 70522 80008 333 10334 59008 87280
AAXX 18184 65271 11956 7000 10283 20176 30999 4009770522 80008 333 10336 58002 87280
AAXX 18184 04203 46/// /1307 11092 21134 39816 49833 52024
AAXX 18184 04205 45/84 /0604 11193 21256 39820 49843 52029 333 11181 21237
AAXX 18184 04208 46/// /2204 11075 21092 39852 49898 52046
AAXX 18184 04213 46/// /1917 11056 21210 39776 49885 52021 333 11005 21058 91131
AAXX 18184 04214 46/// /1922 11065 21133 39857 49890 52024
AAXX 18184 04224 47/83 /2012 11094 21181 39894 49927 52006 72477 333 11068 21094 91138
AAXX 18184 04228 NIL
AAXX 18184 04242 46/// /1223 11078 21122 39910 49926 57013
AAXX 18184 04253 46/// /1317 11081 21094 39927 49954 54000
AAXX 18184 04266 46/// /2818 11051 21088 39925 49963 57003 333 91029
AAXX 18184 04285 46/// /2924 11040 21102 39945 49964 57008
AAXX 18184 04301 46/// ///// 11322 21370 39928 49933 57001
AAXX 18184 04313 46/// /2212 11285 21324 39971 49983 57002
AAXX 18184 04330 46/// /3402 11249 21294 39967 49985 57018
AAXX 18184 04351 46/// /0715 11053 21061 39895 49911 57034
AAXX 18184 04373 46/// /0914 11030 21034 39649 49741 52032
AAXX 18184 04382 46/// /2755 11054 21130 39743 49791 52012 333 91073
AAXX 18184 04416 NIL
AAXX 18184 71108 11/04 92002 10061 20058 30169 40242 52023 60021 74765 333 10061 20059 70116 90942
BBXX 46249 18181 99338 71197 46/// ///// 1//// 91812 22200 00147 11302 20302 325// 41301 70010
BBXX 46248 18181 99461 71247 46/// ///// 1//// 91804 22200 00095 11407 20805 329// 41405 70035
BBXX 46244 18181 99409 71244 46/// ///// 1//// 91805 22200 00099 11506 21003 330// 41505 70030
BBXX 46241 18181 99330 71173 46/// ///// 1//// 91741 22200 00144 11401 20801 327// 41401 70006
AAXX 18181 50353 32970 00000 11273 21301 30010 40253 52003 333 11130
AAXX 18181 50557 32970 01601 11256 21289 39947 40277 52006 333 11120
AAXX 18181 50756 32960 00000 11222 21238 39954 40280 54000 333 11147
AAXX 18181 50949 32965 02501 11163 21207 30099 40281 52001 333 11054
AAXX 18181 50963 32965 03601 11246 21276 30124 40274 52002 333 11108
AAXX 18181 50978 32980 02704 11165 21202 39886 40257 52001 333 11083
AAXX 18181 51087 32980 00000 11155 21179 39323 40359 52002 333 05206 11090
AAXX 18181 51156 NIL
AAXX 18181 51644 32960 70000 11056 21083 38983 40301 52005 83032 333 05351 11032
AAXX 18181 51656 32970 33401 11079 21107 39156 40304 52011 80002 333 05302 11019
AAXX 18181 51886 32980 20901 11127 21250 37089 57004 80002 333 05203 11052
AAXX 18181 52602 32980 02501 11134 21250 37245 57012 333 05204 11021
AAXX 18181 52713 32980 32501 11134 21212 36885 57008 80002 333 05253 11018
AAXX 18181 52754 32980 03401 11147 21317 36775 57009 333 05203 11023
AAXX 18181 52818 32980 02702 11085 21246 37204 57012 333 05202 10012
AAXX 18181 52836 32980 71805 11083 21291 36872 57019 80002 333 05204 10000
AAXX 18181 52955 32980 01602 11150 21256 36966 57015 333 05202 10015
AAXX 18181 53068 32980 00401 11247 21280 39163 40429 57004 333 05351 11154
AAXX 18181 53276 32980 02001 11216 21251 38941 40405 57002 333 11109
AAXX 18181 54135 32980 02702 11134 21205 30082 40319 52007 333 11042
AAXX 18181 54236 32970 03203 11111 21192 30205 40317 52007 333 11016
AAXX 18181 54539 32970 72701 11043 21165 30307 40322 54000 80002 333 10031
AAXX 18181 54662 32965 00000 11024 21073 30198 40317 52003 333 10025
AAXX 18181 54753 32962 02002 11022 21075 30315 40322 52001 333 10037
AAXX 18181 54857 31957 03402 11002 21041 30234 40330 54000 70400 333 10025
AAXX 18181 57067 32960 52001 11037 21058 39615 40315 57002 85030 333 10101
AAXX 18181 57178 32960 03601 11003 21044 30156 40321 54000 333 10089
AAXX 18181 57245 32960 80000 10043 20015 39935 40295 57006 8807/ 333 05301 10093
AAXX 18181 57297 31958 02901 11009 21049 30169 40315 57005 71000 333 10078
BBXX 46240 18181 99366 71219 46/// ///// 1//// 91812 22200 00123 11702 21001 301// 41701 70008
BBXX 46237 18181 99378 71226 46/// ///// 1//// 91810 22200 00112 11506 21002 325// 41506 70030
BBXX 46212 18181 99408 71243 46/// ///// 1//// 91812 22200 00097 11706 21002 331// 41705 70030
BBXX 46223 18181 99335 71178 46/// ///// 1//// 91800 22200 00153 11302 20901 327// 41301 70008
BBXX 46216 18181 99343 71198 46/// ///// 1//// 91757 22200 00145 11402 20501 327// 41402 70011
BBXX 46231 18181 99327 71174 46/// ///// 1//// 91754 22200 00148 11802 21001 327// 41801 70008
BBXX 46222 18181 99336 71183 46/// ///// 1//// 91756 22200 00152 11301 20801 326// 41301 70006
BBXX 46221 18181 99339 71186 46/// ///// 1//// 91745 22200 00149 11301 20901 326// 41301 70007
BBXX 46211 18181 99469 71242 46/// ///// 1//// 91806 22200 00084 11507 20805 327// 41505 70034
AAXX 18181 91945 36/// /0606 10282 20227 30148 40153 51016
AAXX 18181 48808 32498 82701 10125 20112 39939 40233 58012 888// 333 59018 83894 88696
AAXX 18181 48830 31796 83601 10123 20082 39914 40231 58013 71022 888// 333 59015 88697
AAXX 18181 48826 31796 80502 10149 20129 30083 40223 58012 71022 885// 333 59011 88697
AAXX 18181 48839 32997 00508 10171 20118 30146 40213 58015 222// 00181 2//// 333 59012
BBXX JGQH 18184 99347 11395 41/97 22716 10099 20023 40180 58004 70211 82230 22212 00193 10603 20302 399// 4//02 70014
BBXX JGQH 18184 99347 11395 41/97 22716 10099 20023 40180 58004 70211 82230 22212 00193 10603 20302 399// 4//02 70014
AAXX 18184 40582 32960 03105 10126 20016 40238 51013 333 55300 00000 10213 20000 30000 41118 51330 60000 55407 40000 90401 91005 91115 91211 91307
AAXX 18184 41150 NIL
AAXX 18184 41168 NIL
AAXX 18184 41170 NIL
AAXX 18184 41176 NIL
AAXX 18184 41184 NIL
AAXX 18184 41194 NIL
AAXX 18184 41196 NIL
AAXX 18184 41198 NIL
AAXX 18184 41210 NIL
AAXX 18184 41216 NIL
AAXX 18184 41217 NIL
AAXX 18184 41218 NIL
AAXX 18184 41226 NIL
AAXX 18184 41244 36/// /3503 10175 20121 39849 48328 333 0E018 10250 58022
AAXX 18184 41246 32560 22603 10224 20179 30179 40183 81501 333 10259 58014 81630
AAXX 18184 41254 36/// /0000 10116 21097 37989 47994 333 0E006 10178 58028
AAXX 18184 41256 32960 02305 10216 20164 30174 40184 333 10259 58011
AAXX 18184 41258 36/// /1402 10237 20176 30170 40175 333 0E/// 10249 58008
AAXX 18184 41268 NIL
AAXX 18184 41312 36/// /3005 10227 20166 30136 40175 333 0E/// 10292 58019
AAXX 18184 41314 32960 00305 10176 20042 39695 40208 333 10256 58023
AAXX 18184 41316 32960 23508 10242 20051 30152 40178 80001 333 10299 58021 82075
AAXX 18184 41404 42960 00909 10139 21038 37900 48557 333 10218 58018
AAXX 18184 41407 NIL
AAXX 18184 41431 42960 01804 10262 20221 30126 40142 333 10294 58018
AAXX 18184 41466 42960 00000 10164 20125 38592 48492 333 10256 58018
AAXX 18184 41477 NIL
AAXX 18184 41480 42460 21011 10257 20196 30165 40168 82500 333 10290 58021 82618
AAXX 18184 82586 32598 20906 10348 20200 39829 40063 82200 333 59010
AAXX 18184 82678 32596 52702 10358 20179 39933 40070 84201 333 59006
AAXX 18184 82784 32598 10000 10338 20235 39625 40073 81100 333 58000
AAXX 18184 82791 32599 21404 10365 20140 39792 40066 82100 333 59001
AAXX 18184 82983 32597 41405 10342 20202 39666 40073 82118 333 58003
BBXX 64045 18184 99591 70117 46/// /2011 10074 20030 40120 57016 22200 00101 10806 70029
BBXX 62105 18184 99554 70122 46/// /2415 10093 20061 40168 57015 22200 00106 10806 70028
BBXX 62081 18184 99510 70134 46/// ///// 10105 20051 40242 57010 22200 00119 10705 70027
BBXX 62442 18184 99490 70164 46/// /2317 1//// 2//// 40256 58015 22200 00126
BBXX 62029 18184 99487 70125 46/// /2716 10108 20042 40272 58001 22200 00131 10705 70025
BBXX 62163 18184 99475 70084 46/// /3215 10104 20056 40276 53006 22200 00128 10705 70026 333 90710 91125
BBXX 62001 18184 99452 70050 46/// /3312 10110 20041 40268 53008 22200 00143 10705 70024
BBXX 62301 18184 99524 70047 46/// /3114 10075 20029 40194 51009 22200 00093 10503 70017
BBXX 64046 18184 99606 70049 46/// /3211 10039 21032 40122 52008 22200 00078 10807 70036
BBXX 62303 18184 99516 70051 46/// /3213 10085 20035 40208 51008 22200 00110 10503 70017
BBXX DBIP 18180 99346 70150 41397 83309 10185 20153 40240 57020 75852 887// 22223 04190 20502 334// 41104 5//// 80165
BBXX AMOUK10 18184 99508 10003 46/// ///// 10042 2//// 30171 40168 54001 91750
BBXX AMOUK05 18184 99537 70003 46/// ///// 10011 21033 30116 40153 52022 91750
BBXX AMOUK13 18184 99519 10013 46/// ///// 10026 20001 30146 40157 52015 91750
BBXX AMOUK19 18184 99573 70018 46/// ///// 10024 21016 30119 40122 57006 91750
BBXX AMOUK11 18184 99533 70062 46/// ///// 10049 20026 30154 40206 52017 91750
BBXX AMOUK03 18184 99537 70003 46/// ///// 10043 21019 30120 40151 52019 91750
BBXX AMOUK08 18184 99501 70061 46/// ///// 10096 20042 30222 40225 52007 91750
BBXX AMOUK06 18184 99512 10016 46/// ///// 10037 20007 30135 40150 54001 91750
BBXX AMOUK14 18184 99534 70059 46/// ///// 10068 20045 30157 40189 57005 91750
BBXX AMOUK09 18184 99506 10007 46/// ///// 10063 20018 30148 40163 54000 91750
BBXX AMOUK27 18184 99579 70052 46/// ///// 11162 2//// 30135 40138 54/// 91750
BBXX AMOUK12 18184 99533 70054 46/// ///// 10068 20041 30159 40199 54003 91750
BBXX 62111 18184 99580 70003 46/// /3115 10051 21008 40112 51008 22200 10705 70027
BBXX PJAI 18184 99581 70014 47599 /3011 10054 21004 40107 51002 700// 22200
BBXX 63056 18184 99597 10016 47698 /3120 10042 21036 40059 51006 700// 22200 10808 70041
BBXX 63110 18184 99595 10015 47698 /3418 10057 21034 40074 51010 700// 22200 10808 70038
BBXX 63057 18184 99592 10015 47698 /3324 10049 21037 40076 51010 700// 22200 10707 70035
BBXX 62112 18184 99584 70002 47498 /3007 10031 21006 40108 52009 762// 22200
BBXX 63055 18184 99606 10016 47796 /3017 10039 21003 40060 53003 704// 22200 10807 70035
BBXX 63108 18184 99608 10017 47998 /3321 10054 21002 40050 52005 700// 22200 11308 70042
BBXX 63106 18184 99610 10017 46/// /3121 10039 40050 51004 22200
BBXX 63105 18184 99610 10017 47498 ///// 10047 20005 40049 52003 700// 22200
BBXX 63113 18184 99610 10017 46/// /3223 10039 20005 40056 52002 22200 10808 70041
BBXX 63112 18184 99611 10010 47498 /3217 10039 21019 40056 51004 700// 22200 10808 70042
BBXX 63107 18184 99611 10017 46/// /3125 10041 40048 52002 22200
BBXX 63101 18184 99612 10009 46/// /3422 10050 20003 40058 51003 22200
BBXX 63103 18184 99612 10011 46/// /3324 10041 21004 40059 51002 22200 10808 70041
BBXX 63104 18184 99612 10016 47498 /3222 10047 20005 40048 51002 700// 22200
BBXX 63117 18184 99613 10011 47498 /3222 10042 21008 40055 51001 700// 22200
BBXX 63115 18184 99616 10013 47598 /3123 10040 20000 40058 53003 700// 22200 10809 70044
BBXX MWYG6 18184 99603 70040 47998 /3207 10043 700// 22200
BBXX 64041 18184 99607 70026 47598 /3210 10024 21028 40104 52006 700// 22200 10907 70037
BBXX 62164 18184 99572 10008 47698 /3214 10073 20011 40108 51009 700// 22200 00095 10707 70034
BBXX PJGO 18184 99571 10022 47597 /3221 10049 21003 40094 52012 700// 22200
BBXX 62133 18184 99571 10009 46/// /3215 10054 21011 40108 52014 22200 10707 70034
BBXX 62119 18184 99570 10019 46/// ///// 22200
BBXX 62152 18184 99570 10018 46/// /3121 10037 21020 40104 52019 22200 10708 70040
BBXX 62154 18184 99564 10022 46/// /3418 10047 21010 40093 52020 22200
BBXX 62120 18184 99564 10021 47598 /3420 10050 21004 40104 51016 700// 22200
BBXX 62132 18184 99564 10020 46/// /3404 10051 21012 40108 52010 22200
BBXX 62123 18184 99563 10022 47699 /3318 10050 21004 40098 52020 700// 22200
BBXX 62165 18184 99540 10009 47598 /3314 10039 21003 40149 52016 700// 22200 10606 70028
BBXX 62127 18184 99540 10007 47598 ///// 10059 21008 40143 52021 700// 22200 10706 70031
BBXX 62131 18184 99539 10012 46/// /32// 10043 20001 40138 52020 22200
BBXX 62149 18184 99537 10011 47598 /3320 10048 20010 40142 52020 700// 22200 10705 70026
BBXX 62148 18184 99536 10015 46/// /3217 10049 21001 40140 52019 22200
BBXX 62150 18184 99536 10007 47398 /3019 10032 20010 40162 52023 700// 22200 10706 70029
BBXX 62121 18184 99535 10027 46/// ///// 22200
BBXX 62144 18184 99534 10017 47598 /3119 10044 20006 40135 53016 700// 22200 10604 70020
BBXX 62145 18184 99531 10028 47598 /3219 10055 21009 40131 52016 700// 22200 10605 70023
BBXX 62142 18184 99530 10021 47898 /3321 10047 20003 40130 52017 700// 22200 10504 70019
BBXX 62128 18184 99587 10014 47698 /3120 10044 21028 40093 51008 700// 22200 10808 70041
BBXX 62129 18184 99584 10003 46/// ///// 10029 20004 40098 52009 22200
BBXX 62113 18184 99584 10002 47398 /3216 10053 20007 40097 53008 700// 22200
BBXX ZQSD5 18184 99583 10007 46/// /3316 10049 21000 40102 53008 22200 10908 70042
BBXX 62114 18184 99583 10000 46/// /3411 10043 20017 40106 51008 22200
BBXX 62134 18184 99580 10014 47698 /3415 10055 21017 40094 52008 700// 22200 10708 70041
BBXX 62102 18184 99579 10018 46/// /3322 10058 21016 40087 52010 22200 10807 70037
BBXX 62117 18184 99579 10000 47598 /2915 10056 20004 40105 53005 700// 22200 10706 70028
BBXX 62146 18184 99572 10021 47/98 /3516 10045 21010 40090 52008 700// 22200 10708 70038
BBXX 62140 18184 99573 10013 46/// /34// 10044 21004 40099 52014 22200
BBXX 62122 18184 99573 10016 47498 /3120 10046 21003 40093 51012 700// 22200 10707 70037
BBXX 62153 18184 99573 10020 47598 /3419 10050 20008 40094 52006 700// 22200 10808 70039
BBXX 62104 18184 99574 10013 47998 /3217 10052 20001 40097 52012 762// 22200
BBXX 62116 18184 99576 10011 47497 /3218 10044 21004 40100 53008 761// 22200 10808 70039
BBXX 62155 18184 99577 10007 47799 /3316 10047 20002 40104 51009 751// 22200 10707 70035
BBXX 62118 18184 99577 10009 464// /3418 10035 21005 40096 51010 22200 10707 70036
BBXX 62143 18184 99577 10018 47598 /3318 10050 21018 40095 52009 700// 22200 10708 70039
BBXX 63110 18183 99595 10015 41/98 /3324 10056 40070 700// 8//// 22200 10707 70037
BBXX C6RM7 18183 99553 70285 41296 82620 10060 20048 40117 54000 75022 86626 22254 04053 20805 323// 41206 5//// 80055
BBXX 62094 18184 99517 70067 46/// /2916 10086 20050 40218 53003 22200 00105 10503 70015
BBXX 62103 18184 99499 70029 46/99 /3124 10087 20019 40198 53011 22200 00122 10703 70014 333 90710 91131
BBXX 62081 18184 99510 70134 46/// ///// 10104 20050 40242 56010 22200 00119 10705 70027
BBXX 62170 18184 99514 10020 46/98 /3227 10048 20009 40148 53009 22200 00107 10603 70014 333 90710 91135
BBXX 62304 18184 99511 10018 46/99 /3226 10053 20004 40153 53007 22200 00114 10603 70014 333 90710 91133
BBXX 62305 18184 99504 10000 46/98 /3326 10072 20010 40181 53011 22200 00118 10603 70013 333 90710 91135
BBXX 62103 18184 99499 70029 46/99 /3122 10089 20038 40202 52014 22200 00121 10703 70014 333 90710 91133
BBXX 63119 18184 99583 10009 41/97 43520 10045 21015 40088 52/// 701// 8//// 22200 2//// 334// 40606 5////
BBXX 62169 18183 99614 10014 41298 63125 10050 20045 40054 52003 70122 86200 22200 20408 300// 4//// 5//// 80048
AAXX 18181 29998 42999 00000 11366 21376 38720 48550 57001
AAXX 18181 30385 42999 00000 11330 21342 39708 40310 58006
AAXX 18181 30469 429// 00000 11351 21368 39491 40357 51002
AAXX 18181 30636 415// 82802 11104 21110 39681 40312 57010 78588 85931
AAXX 18181 30650 42984 62302 11207 21226 39142 40343 52001 82041
AAXX 18181 30664 42999 00000 11310 21322 39252 40361 52003
AAXX 18181 30781 42999 50000 11208 21226 39802 40332 54000 82042
AAXX 18181 30777 42998 02602 11239 21257 39605 40318 50001
AAXX 18181 30844 42999 00000 11321 21337 39343 40455 58003
AAXX 18181 30925 429// 01602 11248 21273 39357 40431 57018
AAXX 18181 31371 42999 03201 11192 21233 39962 40245 52002
AAXX 18181 31388 42984 00000 11350 21368 39958 40258 53003
AAXX 18181 31478 NIL
AAXX 18181 31532 42999 00000 11358 21374 39889 40283 52006
AAXX 18181 31594 42998 01102 11302 21319 30050 40242 53002
AAXX 18181 31655 42998 01602 11220 21233 30157 40208 54000
AAXX 18181 31754 NIL
BBXX 42362 18181 99278 70907 46/// /0608 10194 20067 40275 91815
BBXX 42363 18181 99282 70892 46/// /0509 10167 20050 40278 91815 333 91209
BBXX 42364 18181 99291 70881 46/// /0206 10167 20067 40278 91815
BBXX 41115 18181 99184 70673 46/// ///// 1//// 91805 22200 11304 21003 301// 41302 70018
BBXX 41114 18181 99276 70802 46/// ///// 1//// 91816 22200 00246 11303 20602 307// 41301 70013
AAXX 18181 23929 31978 22505 11038 21079 30299 40368 57001 73631 80001 333 11028 91112
AAXX 18181 28588 32998 52203 11206 21231 30313 40490 58013 85070 333 11215
BBXX 42085 18181 99179 70665 46/// /1702 10281 40133 91810 333 91203
BBXX 44033 18181 99441 70690 46/30 /3507 11059 40221 56018 91804 22200 00073 10301 70005 333 91208 555 11080 22082
BBXX 44034 18181 99441 70681 46/30 /3608 11047 40209 56020 91804 22200 00086 10603 70013 333 91210 555 11090 22093
BBXX 44039 18181 99411 70727 46/// /3606 11028 21120 40241 91800 22200 00097 10301 70006 333 91209
BBXX 44060 18181 99413 70721 46/// ///06 11023 40223 91815 22200 00105 333 91208 555 11062 22067
BBXX 44022 18181 99409 70737 46/// ///05 11026 21117 40244 91815 22200 00086 333 91208 555 11051 22051
AAXX 18181 28586 32997 82404 11199 21225 30308 40473 57022 80005 333 11220
AAXX 18181 38388 NIL
AAXX 18181 38392 32997 00707 11080 21181 30293 40404 52027 333 10000
AAXX 18181 38507 32996 00905 11010 21049 30196 40303 52022 333 10048
AAXX 18181 38511 32998 00703 11040 21103 30198 40348 52020 333 10001
AAXX 18181 38545 32998 03604 11062 21131 30177 40365 52024 333 10026
AAXX 18181 38647 32597 60910 10001 21070 30270 40314 52019 86600 333 10041
AAXX 18181 38656 32997 00203 11027 21088 30104 40349 52024 333 10021
AAXX 18181 38687 32996 00204 11032 21052 30081 40330 52022 333 10018
AAXX 18181 38750 32997 03201 10051 20037 30316 40287 52015 333 10098
AAXX 18181 38763 31496 30907 11001 21028 30207 40316 52015 71000 83600 333 10025
AAXX 18181 38774 32895 80902 10002 21007 30133 40338 52012 8807/ 333 10018
AAXX 18181 38799 32597 80501 10014 21005 30081 40321 52018 885// 333 10033
AAXX 18181 38806 32597 82701 10012 21011 30044 40313 52016 889// 333 10019
AAXX 18181 38880 32597 80601 10015 21023 30073 40338 52016 886// 333 10015 88720
AAXX 18181 38886 31996 03101 11013 21032 30093 40332 52018 71011 333 10029
AAXX 18181 38895 32496 82601 10002 21015 30028 40330 52025 887// 333 10020
AAXX 18181 38911 32997 82402 10021 21004 30003 40307 52020 885// 333 10027
AAXX 18181 38915 32597 82802 10026 21001 39968 40303 52008 885// 333 10032
AAXX 18181 38974 32998 83202 10012 21014 39880 40327 52024 8802/ 333 10024
AAXX 18181 38987 31496 80402 10012 20004 39549 40317 52032 70242 885// 333 10085
AAXX 18181 22282 115// 82011 11006 21015 30130 40138 54000 69920 78582 889// 333 10005
AAXX 18181 28688 32997 02402 11260 21284 30334 40517 57007 333 11225
BBXX 51203 18181 99208 71570 46/// ///// 1//// 91813 22200 00248 11302 20801 322// 41301 70009
BBXX 52200 18181 99134 11448 46/// ///// 1//// 91815 22200 00287 10905 20905 309// 41101 70027
BBXX 51201 18181 99217 71581 46/// ///// 1//// 91812 22200 00242 11405 20803 332// 41403 70024
BBXX 46088 18181 99483 71232 46/// /0101 10079 40241 91820 22200 00080 1//00 70002 333 91201 555 11006 22006 31819 42602 61819 023006 021007 004007 342004 306007 270009
BBXX 51205 18181 99210 71564 46/// ///// 1//// 91818 22200 00243 11305 20904 333// 41303 70026
BBXX 46114 18181 99364 71222 46/// ///// 1//// 91804 22200 00125 11506 21002 331// 41506 70031
AAXX 18181 22165 11/92 91205 10001 21002 30052 40114 53004 69950 77175 333 10010 96045
AAXX 18181 28465 32998 02004 11194 21213 30398 40485 52004 333 11170
AAXX 18181 28791 31996 02203 11296 21313 30353 40521 57001 71000 333 11232
AAXX 18181 28696 31996 02302 11248 21273 30339 40497 57006 71000 333 11228
AAXX 18184 60623 36/// /0000 10138 21074 333 10189
AAXX 18184 60393 16/// /2503 10119 20053 60062 333 10158
AAXX 18184 60373 16/// /0305 10115 20069 69922 333 10146
AAXX 18181 28383 32997 02204 11169 21188 30352 40445 57004 333 11186
BBXX A8JX8 18181 99431 11604 41597 52711 10050 20038 40040 56010 71111 84875 22224 2//// 3//// 4//// 5//// 80045
BBXX SHIP 18184 99311 11661 41/96 61913 10170 20137 40201 56001 70303 8//// 91750 22263 00220 2//// 3//// 4//// 5//// 80150
BBXX 3EIU9 18184 99083 11181 41198 21119 10280 20250 40085 57010 70200 82382 91745 22222 00266 1//// 2//// 301// 40201 5//// 6//// 80260 /////
BBXX SHIP 18183 99167 11320 41/98 21021 10280 20267 40161 56010 8/1// 22214 00280 80270
BBXX 7JJA 18184 99359 11413 41797 60318 00 10080 20013 40165 57010 70222 831/4 9//// 22290 0 2//01 3 4 5 6//// 80050 ICE /////
BBXX DGTX 18183 99330 71783 41/98 /3114 10190 20142 40148 53013 70182 8//// 22264 00230 2//// 80160
BBXX H9UY 18184 99207 71479 41498 80830 00/// 10220 40176 51010 70322 887// 9//// 22263 04230 20504 309// 40705 5//// 6//// 80190
BBXX SHIP 18184 99227 71581 41496 40720 10231 20182 40191 52014 71680 83360 22223 04236 20404 30903 40704 50804
BBXX A8JX9 18183 99547 71752 41/// ///// 10015 20005 49795 53011 700// 8//// 22264 29903 3//// 4//// 5//// 80011
BBXX SHIP 18184 99131 31169 41/97 41909 10288 20240 40066 57014 71311 8//// 22201 00305 10703 80253
BBXX SHIP 18184 99131 31169 41/97 41909 10288 20240 40066 57014 71311 8//// 22201 00305 10703 80253
AAXX 18181 78458 32566 61203 10250 20222 40181 57017 83220 333 10266 20200 30/// 56200 58007 83820 84457
AAXX 18181 78460 31460 60205 10252 20224 40169 57021 70544 85530 333 10265 20180 31/// 59120 58006 85618 83357
AAXX 18181 78467 32466 40904 10272 20218 40161 57017 84200 333 10278 20190 31/// 56100 59004 84818
AAXX 18181 78479 32566 40506 10276 20179 40143 57016 82201 333 10286 20225 30/// 56200 58003 82825
AAXX 18181 78485 21566 60303 10252 20207 40154 57027 72162 85230 333 10279 20194 31/// 56000 58001 60036 85820
AAXX 18181 78486 32566 53603 10280 20195 40142 57024 85500 333 31/// 56200 58001 85622
AAXX 18181 78488 32566 60205 10282 20203 40160 57020 83230 333 10290 20175 30/// 56100 58002 83825 84358
AAXX 18181 21432 41998 00902 11223 21248 30260 40281 52004 70271
AAXX 18181 21824 41996 81901 11269 21282 30222 40232 53009 77172 8805/
AAXX 18181 21908 41999 53201 11257 21274 30133 40219 57002 70171 80002
AAXX 18181 21921 42999 50000 11378 21411 30216 40267 52004 85030
AAXX 18181 21931 41996 80000 11260 21291 30185 40219 54000 77172 8805/
AAXX 18181 21946 41598 83201 11224 21249 30139 40223 54000 77872 885// 333 88622
AAXX 18181 21982 31993 53515 11234 21259 30086 40115 57004 73932 83031 333 21237 48009 91120
AAXX 18181 25062 32997 32802 11308 21338 30158 40162 57004 80001 333 21322 48040 91104
AAXX 18181 25123 41996 40000 11297 21328 30166 40202 57001
AAXX 18181 25138 41999 40000 11380 21403 30066 40205 54000 77671 80001 333 91101
AAXX 18181 25173 11395 83110 11249 21267 30110 40115 57004 69952 77173 885// 333 21272 48073 91114 96510
AAXX 18181 25248 42998 00000 11451 21476 39690 40216 56001 333 91101
AAXX 18181 25282 31911 53612 11198 21210 30011 40017 57012 73832 85030 333 21216 48008 91118
AAXX 18181 25325 NIL
AAXX 18181 25356 32999 53204 11221 21269 39958 40063 57006 82031 333 21227 48017 55000 91007
AAXX 18181 25399 11457 83408 11148 21161 39861 49870 57014 60010 77173 8872/ 333 21164 48032 55000 91112
AAXX 18181 25428 41957 60000 11419 21455 39829 40213 56003 71022 80001 333 91102
AAXX 18181 25551 32998 23604 11213 21253 30022 40054 57008 80001 333 21428 47039 55000 91108
AAXX 18181 25563 11460 80111 11172 21191 39891 49971 57014 69922 77173 885// 333 21222 48031 55027 91114
AAXX 18181 25594 11596 80110 11078 21078 39766 49817 57013 69952 77173 8652/ 333 21112 49039 91116
AAXX 18181 25677 31496 83412 11176 21182 39916 49922 57005 73832 8557/ 333 21176 85618 91114
AAXX 18181 31054 41999 50000 11412 21438 39982 40299 58004 70272 80006
AAXX 18181 31123 41998 00000 11396 21422 39947 40326 51001 70271
AAXX 18181 78458 32566 61203 10250 20222 40181 57017 83220 333 10266 20200 30/// 56200 58007 83820 84457
AAXX 18181 78460 31460 60205 10252 20224 40169 57021 70544 85530 333 10265 20180 31/// 59120 58006 85618 83357
AAXX 18181 78467 32466 40904 10272 20218 40161 57017 84200 333 10278 20190 31/// 56100 59004 84818
AAXX 18181 78479 32566 40506 10276 20179 40143 57016 82201 333 10286 20225 30/// 56200 58003 82825
AAXX 18181 78485 21566 60303 10252 20207 40154 57027 72162 85230 333 10279 20194 31/// 56000 58001 60036 85820
AAXX 18181 78486 32566 53603 10280 20195 40142 57024 85500 333 31/// 56200 58001 85622
AAXX 18181 78488 32566 60205 10282 20203 40160 57020 83230 333 10290 20175 30/// 56100 58002 83825 84358
AAXX 18184 64700 32960 43606 10240 20000 39764 40107 80002 333 10310 59006 86075
AAXX 18184 64750 32960 60000 10250 20121 39671 40083 80002 91750 333 10350 59001 86075
AAXX 18181 78458 32566 61203 10250 20222 40181 57017 83220 333 10266 20200 30/// 56200 58007 83820 84457
AAXX 18181 78460 31460 60205 10252 20224 40169 57021 70544 85530 333 10265 20180 31/// 59120 58006 85618 83357
AAXX 18181 78467 32466 40904 10272 20218 40161 57017 84200 333 10278 20190 31/// 56100 59004 84818
AAXX 18181 78479 32566 40506 10276 20179 40143 57016 82201 333 10286 20225 30/// 56200 58003 82825
AAXX 18181 78485 21566 60303 10252 20207 40154 57027 72162 85230 333 10279 20194 31/// 56000 58001 60036 85820
AAXX 18181 78486 32566 53603 10280 20195 40142 57024 85500 333 31/// 56200 58001 85622
AAXX 18181 78488 32566 60205 10282 20203 40160 57020 83230 333 10290 20175 30/// 56100 58002 83825 84358
AAXX 18184 89528 46/// /3331 4//// 5////
AAXX 18184 89628 46/// /3209 36812 4//// 5////
AAXX 18181 14216 12675 80102 10064 21025 39965 40117 51/// 60002 8282/ 333 10084 923// 924/8
AAXX 18181 14219 12684 32701 11028 21037 39112 48413 53/// 60002 82501 333 10010 43019
AAXX 18181 14232 NIL
AAXX 18181 14234 11/00 90101 11005 21006 39903 40157 52/// 60002 745// 333 11004
AAXX 18181 14236 11215 73101 10002 21003 39942 40145 52/// 60002 71022 87600 333 10037
AAXX 18181 14244 11/02 92501 11013 21016 30016 40150 51/// 60002 745// 333 10025
AAXX 18181 14248 11402 53601 11010 21030 39973 40152 52/// 60002 7474/ 85600 333 10016
AAXX 18181 14253 11910 00000 11007 21012 39969 40148 51/// 60002 71000 333 10028 42997
AAXX 18181 14256 12970 01104 10015 21007 39820 40145 52008 60002 333 10064 43006
AAXX 18181 14280 12960 00903 10022 20003 30041 40152 52012 60002 333 10088
AAXX 18181 14308 12570 81101 10012 20000 39756 40116 53/// 60002 886// 333 10061
AAXX 18181 14321 12682 60301 10071 21032 30085 40109 58/// 60002 82511 333 10107 92312 92428
AAXX 18181 14370 12960 00603 10040 21003 30031 40142 52009 60002 333 10086
AAXX 18181 14382 12965 50904 10028 20002 30031 40153 51010 60002 85030 333 10080
AAXX 18181 14428 11470 60604 10076 21052 30093 40100 56/// 60002 71392 83370 333 10112 92312
AAXX 18181 14441 11580 81104 10085 20043 30056 40080 56/// 60012 72196 8692/ 333 10125 92312
AAXX 18181 14452 NIL
AAXX 18181 14454 12668 80706 10100 21005 30034 40093 54/// 60002 8587/ 333 10131 92322
AAXX 18181 14462 11670 70207 10060 20036 30106 40112 57/// 60032 7216/ 87800 333 10106
AAXX 18184 61600 32960 70406 10290 20054 30106 40111 86072 333 10323 59011 86363 84073
AAXX 18184 61612 32960 70404 10285 21001 30114 40122 84082 333 10300 59010 84363 85073
AAXX 18184 61627 32960 30406 10320 20034 3//// 4//// 83080 333 10340 5//// 83363
AAXX 18184 61630 32960 60404 10317 20094 30091 40110 86070 333 10353 59010 86363
AAXX 18184 61641 32959 63411 10255 20171 30083 40116 80002 333 10310 59006 86073
AAXX 18184 61666 32962 40402 10325 20219 30094 40102 80002 333 10340 59014 84073
AAXX 18184 61679 32960 30806 10330 20095 30099 40107 83030 333 10360 59007 83363
AAXX 18184 61687 32960 33606 10325 20020 30038 40096 82031 333 10348 59015 82363 83073
AAXX 18184 61695 32960 73602 10305 20093 30076 40102 80002 333 10335 59008 87073
AAXX 18184 61697 32960 50204 10298 20122 30085 40100 80002 333 10330 59008 85073
AAXX 18184 61698 32960 60602 10320 20092 30089 40090 80002 333 10356 59001 86073
AAXX 18184 61699 32962 01404 10310 20005 39897 40086 333 10345 59004
AAXX 18181 08512 32580 42903 10170 20128 30231 40316 54000 81802 333 10185 81824 84070 91105
AAXX 18181 08512 32580 42903 10170 20128 30231 40316 54000 81802 333 10185 81824 84070 91105 555 60005
AAXX 18184 62357 32960 00104 10157 20120 40181 52005 333 10216
AAXX 18184 62423 32960 03504 10112 20048 40194 52012 333 10204
AAXX 18184 62403 32960 40000 10158 20090 40171 52008 80004 333 10231
AAXX 18184 62458 32960 23202 10172 20125 40160 54000 80001 333 10214
AAXX 18184 62420 32960 00000 10134 20081 40183 52004 333 10201
AAXX 18184 62432 32960 13304 10150 20074 40177 52020 80001 333 10228
AAXX 18184 62435 32960 23301 10120 20039 40168 52009 82040 333 10234
AAXX 18184 62455 32960 43204 10172 20094 40173 52012 80002 333 10206
AAXX 18184 62476 32960 00000 10212 20169 40152 51020 333 10248
AAXX 18184 62458 32960 23202 10172 20125 40160 54000 80001 333 10214
AAXX 18184 62420 32960 00000 10134 20081 40183 52004 333 10201
AAXX 18184 62432 32960 13304 10150 20074 40177 52020 80001 333 10228
AAXX 18184 62435 32960 23301 10120 20039 40168 52009 82040 333 10234
AAXX 18184 62455 32960 43204 10172 20094 40173 52012 80002 333 10206
AAXX 18184 62476 32960 00000 10212 20169 40152 51020 333 10248
BBXX 46001 18181 99563 71480 46/// /2114 10061 49848 51028 91750 22200 00052 11114 20807 300// 41112 70068 333 91218 555 11155 22167 31726 42120 61749 213144 215155 210151 211146 212140 212132
BBXX 46207 18181 99509 71299 46/// /0000 10074 40280 52017 22200 00083 11606 70032 333 912//
BBXX 9HA2064 18183 99351 71232 41797 42416 10130 20073 40240 52020 7//00 84135 22274 0//// 2//// 3//// 4//// 5//// 6//// 80100 ICE /////
BBXX A8EH2 18184 99336 71232 41198 82918 10130 20101 40240 52018 85872 22275 00136 20502 330// 41204 80115
BBXX DFGX2 18183 99517 71370 41598 81853 10080 20060 40175 51005 70222 8/8// 22224 04080 20506 316// 40510 80070
BBXX KGTX 18184 99535 71350 41698 82124 10090 20030 40192 57050 70222 884// 22274 00074 20504 321// 41207 5//// 6//// 80060 ICE /////
BBXX LADR4 18184 99305 71477 41898 32924 10180 20150 40175 54000 70200 80003 22273 00240 20705 3//// 4//// 5//// 6//// 80160
BBXX SHIP 18184 99312 71431 41497 80518 10180 20160 40320 52020 78022 8797/ 22223 00190 20405 331// 41306 5//// 6//// 80170 ICE /////
BBXX WABS 18184 99370 71240 41798 83213 10111 20091 40240 51015 70211 885// 22273 0//// 20401 331// 41809 5//// 6///0 80100 ICE 0/0//
BBXX WDJK 18184 99435 71259 41498 60220 10105 20076 40270 51030 70222 8644/ 22243 00100 20503 335// 41007 5//// 6//// 80090 ICE /////
BBXX WFLG 18184 99321 71251 41498 32813 10144 20105 40263 52025 70111 831// 22264 00111 20302 329// 40705 5//// 6//// 80122 ICE /////
BBXX ZCDG7 18184 99311 71241 41398 43222 10153 20111 40272 52020 70111 83140 22265 00170 20203 331// 40504 5////
BBXX 46147 18181 99518 71312 46/// /2204 10076 40269 52009 22200 00080 11508 70041 333 91206
BBXX 46147 18181 99518 71312 46/// /2204 10076 40269 52009 22200 00080 11508 70041 333 91206
AAXX 18184 41259 36/// /2710 10033 21041 37139 40316 333 0E/// 10089 58003
AAXX 18184 41264 36/70 /2506 10199 21018 39798 40169 333 0E022 10291 58011
AAXX 18184 41268 36/// /2200 10199 20150 30167 48219 333 0E022 10268 58014
AAXX 18181 25703 41998 80000 11397 21429 39935 40245 54000 77172 82037
AAXX 18181 25745 NIL
AAXX 18181 25913 42999 61003 11141 21235 39914 40068 53002 80001
AAXX 18181 25954 42998 03301 11191 21259 39866 49985 53002
AAXX 18181 25956 42999 00506 11153 21223 39916 49922 58018
AAXX 18181 31088 42999 33605 11167 21209 30102 40109 57006 81041
AAXX 18181 31873 42997 02603 11193 21216 30099 40244 55001
AAXX 18181 31909 42998 03006 11122 21205 30108 40189 53001 333 91012 91114
AAXX 18181 31960 42998 03504 11114 21187 30011 40259 54000
AAXX 18181 31961 42998 11301 11171 21205 30212 40262 51001 81040
AAXX 18181 32053 41496 82704 11140 21153 30061 40112 54000 78583 889// 333 88913 91007 91109
AAXX 18181 32061 41546 83305 11110 21116 30105 40146 55001 78583 889// 333 91008 91110
AAXX 18181 32098 42998 03002 11148 21175 30116 40127 52004 333 91003 91104
AAXX 18181 32150 42996 03602 11132 21162 30099 40130 58003 333 91004 91106
AAXX 18181 32165 41598 52904 11038 21067 30071 40133 50001 78583 85900 333 91006 91107
AAXX 18181 32215 42996 82502 11050 21086 39941 49970 53004 80007 333 91002 91105
AAXX 18181 32252 NIL
AAXX 18181 32389 42999 22803 11195 21214 39943 49982 54000 82030
AAXX 18181 32477 42997 00401 11254 21272 39940 49974 58004
AAXX 18181 32583 42598 63404 11085 21109 39927 49958 54000 82531
AAXX 18181 32618 41598 60204 11047 21082 39885 49907 57003 72682 86900
AAXX 18184 93800 16/// /1506 10107 20051 40147 52008 60001
AAXX 18184 93805 16/// /1313 10097 20044 40190 54000 60001
AAXX 18184 93994 16/// /2202 10202 20184 40053 54000 69921
AAXX 18184 71217 17/// /3408 11018 21034 69941 7//4/ 333 10098 21019 70004
AAXX 18184 71224 17/// /3411 11022 21023 69961 7//4/ 333 10069 21024 70006
AAXX 18184 71276 16/// ///09 11030 21057 60001 333 11002 21064 70000
AAXX 18184 71363 16/// /3320 11262 21290 39949 40005 53013 60001 333 11258 21327 70000
AAXX 18184 71375 46/// /2705 11116 6///1 333 11096 21172 7////
AAXX 18184 71385 46/// /2409 11097 6///1 333 11087 7////
AAXX 18184 71161 16/// /2004 11058 21160 30089 40243 56008 60001 333 11056 21147 70000
AAXX 18184 71189 46/// /1202 11114 21172 6///1 333 11108 21168 7////
AAXX 18184 71302 16/// /1701 11059 21061 39425 40259 53024 60001 333 10014 21086 70085
AAXX 18184 71332 16/// /2103 11334 21370 30081 40112 58004 60001 333 11294 21339 70000
AAXX 18184 71343 17/// /3413 11019 21027 69961 7//4/ 333 10088 21020 70006
AAXX 18184 71345 16/// /3414 11012 21021 60001 333 10072 21014 70000
AAXX 18184 71979 46/// ///// 11061 21075 38511 40185 5/022 6///1 333 7//// 555 10120
AAXX 18184 71860 11356 73202 11018 21025 38788 40194 51025 60011 70272 83570 333 10094 21037 70020 90929 93102
AAXX 18184 61017 32960 50000 10153 20032 39726 40132 80002 333 10260 59017 85080
AAXX 18184 61024 32960 21604 10212 20010 39556 40132 80002 333 10276 59015 82080
AAXX 18184 61036 32960 70000 10266 20000 39869 40109 80008 333 10305 59013 87280
AAXX 18184 61043 32960 71204 10267 21035 39660 40105 80008 333 10302 59021 87280
AAXX 18184 61045 31958 70000 10214 21001 39618 40124 7052/ 80008 333 10278 59015 87280
AAXX 18184 61049 NIL
AAXX 18184 61052 31956 50404 10272 21001 39850 40109 70620 80002 333 10310 59012 85080
AAXX 18184 61075 32960 50000 10258 20037 39788 40099 80002 333 10327 59017 85080
AAXX 18184 61080 32960 70000 10240 20023 39688 40114 80008 333 10290 59022 87280
AAXX 18184 61090 32960 70000 10234 21029 39598 40114 80008 333 10282 59021 87280
AAXX 18184 61091 32960 70000 10210 20075 39666 40134 80008 333 10295 59014 87280
AAXX 18184 61096 32960 70000 10222 20009 39734 40123 80008 333 10292 59013 87280
AAXX 18184 61099 31956 73604 10294 20046 39858 40087 70622 80008 333 10328 59015 87280
BBXX A8ZS7 18184 99346 30234 41497 53012 10215 20143 40075 53005 70122 83840 22264 04190 20502 30000 80170
BBXX DDID2 18183 99280 50480 41598 11205 10254 20199 40054 54000 701// 811// 22213 04230 20301 80216
BBXX V2AM5 18184 99131 10487 41597 30613 10245 20178 40170 54000 7//00 82183 22274 80200
BBXX DAJT 18184 99127 30729 41398 61014 10285 20244 40055 54000 70222 8/6// 22254 04280 80255
BBXX A8YJ9 18184 99020 50322 41598 71715 10261 20229 40098 56007 70288 876// 22243 04250 20703 80238
BBXX A8UA9 18184 99301 70120 41298 60130 10190 20167 40222 57008 70322 8667/ 22253 20404 330// 40704 80175
BBXX A8RV8 18184 99208 11145 41598 40522 10200 20153 40200 56/// 70200
BBXX A8SG4 18184 99101 51184 41598 50725 10255 20197 40150 54000 70311 84574 22213 04260 20102 308// 40104 80215
BBXX A8RU5 18184 99149 11151 41397 80535 10245 20224 40115 58030 70582 8/6// 22244 80230
AAXX 18181 11993 12775 52503 10023 20013 39934 40154 52032 60002 85500 333 10054 41998 85650
AAXX 18184 60619 36/// /3507 10131 20000 333 10168
AAXX 18184 60645 36/// /0000 10199 20021 333 10237
AAXX 18184 89002 41495 80925 11022 21029 39761 49814 52019 73833 888// 333 00838 92941
AAXX 18184 60692 36/// /0105 10212 21085 333 10263
AAXX 18184 60612 36/// /0000 10171 21088 333 10232
AAXX 18184 60664 36/// /0000 10158 21125 333 10200
AAXX 18184 60621 36/// /0111 10173 20019 333 10209
AAXX 18181 89064 11557 80405 10024 29082 49910 57018 69101 75657 8455/
AAXX 18184 60667 36/// /0000 10156 21062 333 10207
AAXX 18184 60663 36/// /0804 10157 21046 333 10196
AAXX 18183 61701 32960 50000 10305 20131 40105 80002 333 10343 59001 85072
AAXX 18183 61705 32960 60000 10315 20135 4//// 80006 333 10340 5//// 82372 84073
AAXX 18183 61707 32960 50000 10310 20188 4//// 80002 333 10350 5//// 85074
AAXX 18183 61711 32960 50902 10290 20170 4//// 80002 333 10330 5//// 85074
AAXX 18183 61712 32960 51805 10315 20076 4//// 80002 333 10355 5//// 85073
AAXX 18183 61717 NIL
AAXX 18183 61720 NIL
AAXX 18183 61721 32960 63608 10330 20028 4//// 80002 333 10350 5//// 86073
AAXX 18183 61722 32960 50000 10315 20111 4//// 80002 333 10345 5//// 85073
AAXX 18183 61731 32960 40000 10316 20110 4//// 80002 333 10355 5//// 84075
AAXX 18183 61733 NIL
BBXX 61002 18184 99421 10047 46/// ///32 10103 2//// 40168 52004 22200 00143 10808 70040 555 1/044
AAXX 18181 63021 42380 20604 10120 20109 37749 40179 82600 333 58014 82708
BBXX 46183 18181 99536 71311 46/// /2002 10056 40258 52012 22200 00077 11401 70006 333 91205
AAXX 18181 23219 11498 81406 11064 21076 30133 40241 54000 69962 73633 886// 333 11005
AAXX 18181 56193 NIL
AAXX 18181 56196 31925 83601 10050 20033 40289 57010 71000 8807/ 333 05401 10056
AAXX 18181 56287 11440 80000 10055 20048 40285 57007 69911 76060 885// 333 05500 10075
AAXX 18181 56684 32560 80402 10028 20007 37908 57005 885// 333 05401 10128
AAXX 18181 56751 32978 03203 10070 20013 38027 57002 333 05102 10166
AAXX 18181 56786 32560 81603 10071 20051 38121 57004 884// 333 05301 10096
AAXX 18181 56977 32465 72701 10101 20101 40217 57004 874// 333 00053 10162
AAXX 18181 57259 32965 01401 11015 21016 40316 52005 333 10101
AAXX 18181 57279 32961 01401 10022 21037 40313 57001 333 10102
AAXX 18181 57348 31958 03201 10050 20030 40295 57003 71000 333 10108
AAXX 18181 57399 32962 00401 11001 21045 40317 57002 333 10104
AAXX 18181 57554 31959 70000 10017 20004 40311 57003 71000 8704/ 333 10109
AAXX 18181 57793 31957 01401 10022 21005 40305 57006 71000 333 10110
AAXX 18181 58345 31957 03401 11012 21022 40328 52003 71000 333 10049
AAXX 18181 58506 32968 10000 10018 21166 40301 57003 81040 333 10036
AAXX 18181 58813 32965 00401 10045 21005 40291 57002 333 10122
AAXX 18181 58834 32964 82701 10080 20061 40281 52001 8807/ 333 10148
AAXX 18181 58926 32968 01601 10068 20051 40267 57001 333 10187
AAXX 18181 58944 32461 80206 10121 20089 40260 57005 885// 333 10136
AAXX 18181 59096 32962 01601 10065 20020 40261 57009 333 10185
AAXX 18181 59102 32961 02001 10039 20013 40265 57004 333 10163
AAXX 18181 59278 32960 03402 10137 20040 40242 57006 333 10196
AAXX 18181 59456 32968 00702 10131 20050 40227 57009 333 10209
AAXX 18181 59493 31958 00202 10138 20095 40228 57010 70500 333 10199
AAXX 18181 59658 31958 03601 10129 20076 40221 57013 70500 333 10207
AAXX 18181 59673 32962 00404 10141 20083 40226 57009 333 10192
AAXX 18181 59845 32960 00901 10151 20119 40216 57016 333 10226
BBXX 46183 18181 99536 71311 46/// /2002 10056 40258 52012 22200 00077 11401 70006 333 91205
AAXX 18181 50434 32980 01802 11345 21382 39351 40344 57005 333 11183
AAXX 18181 50527 32970 00000 11270 21297 39466 40341 52001 333 11196
AAXX 18181 50603 32978 02503 11225 21257 39600 40338 52001 333 11107
AAXX 18181 50632 32980 03403 11187 21222 39352 40312 52005 333 11128
AAXX 18181 50727 11580 70000 11174 21203 39063 40343 54000 69901 70070 85502 333 11170
AAXX 18181 50915 32980 02201 11230 21279 39286 40391 57002 333 11147
AAXX 18181 51716 32965 00000 11077 21099 38933 40284 57003 333 05352 11016
AAXX 18181 51765 32980 03402 11092 21110 39251 40305 52013 333 05303 11018
AAXX 18181 51777 32975 72203 11078 21130 39210 40310 52019 80002 333 05304 11022
AAXX 18181 51811 32962 52701 11077 21093 38801 40278 57002 80002 333 05353 11016
AAXX 18181 51828 32865 71101 11046 21114 38646 40270 57005 82502 333 05251 10001
AAXX 18181 52267 32980 00701 11115 21219 39171 40349 57009 333 05201 11047
AAXX 18181 52323 32980 02703 11177 21211 38235 57009 333 05251 11060
AAXX 18181 52495 32975 31101 11148 21225 38726 40342 57019 80002 333 05303 11029
AAXX 18181 53149 32980 03201 11179 21260 38846 40376 57009 333 05300 11083
AAXX 18181 53192 32980 02501 11288 21316 38971 40463 57004 333 11212
AAXX 18181 53231 32980 01601 11143 21171 38524 57005 333 05302 11039
AAXX 18181 53336 32980 03601 11151 21181 38769 40352 57008 333 05302 11053
AAXX 18181 53391 32980 00000 11180 21246 38556 40381 57002 333 05302 11098
AAXX 18181 53529 32980 80000 11075 21110 38664 40315 57009 8802/ 333 05305 11023
AAXX 18181 53543 11980 71401 11066 21090 38575 40307 57008 69901 77070 86032 333 11032
AAXX 18181 53723 32965 02502 11094 21107 38699 40314 57008 333 05303 11007
AAXX 18181 54012 32980 03202 11197 21255 39094 40385 57004 333 11151
AAXX 18181 54026 32980 00000 11127 21210 39966 40313 52005 333 11034
AAXX 18181 54027 32980 00000 11143 21212 39702 40332 57002 333 11048
AAXX 18181 54208 32980 00000 11260 21294 38822 40412 57007 333 11121
AAXX 18181 54776 32980 02904 10008 21074 30255 40314 57002 333 10025
AAXX 18181 56004 32980 02701 11203 21289 35791 57011 333 05300 11031
AAXX 18181 56033 32980 20201 11177 21273 36002 57010 80002 333 05102 11050
AAXX 18181 56046 32980 20000 11166 21213 36253 57006 80002 333 05101 11025
AAXX 18181 51156 32980 02902 11164 21203 38757 40350 52004 333 05252 11069
AAXX 18184 61202 32970 10204 10234 21077 39568 40125 80002 333 10274 59020 81075
AAXX 18184 61214 NIL
AAXX 18184 61223 32960 30402 10255 20020 39823 40122 80002 333 10300 59018 83075
AAXX 18184 61226 32960 23604 10278 20070 39813 40111 80002 333 10314 59026 82075
AAXX 18184 61230 32960 30606 10290 21042 39821 40093 82042 333 10307 59018
AAXX 18184 61233 32960 20804 10262 20028 3//// 4//// 80002 333 10310 5//// 82075
AAXX 18184 61235 32960 20410 10300 21020 3//// 4//// 80002 333 10328 5//// 82075
AAXX 18184 61240 32960 20000 10270 20034 39781 40107 80002 333 10320 59017 82075
AAXX 18184 61250 32960 10000 10270 20085 3//// 4//// 80002 333 10305 5//// 81075
AAXX 18184 61257 32960 10606 10310 21020 30043 40137 80002 333 10330 59019 81075
AAXX 18184 61265 32970 30206 10275 21022 39797 40107 80002 333 10322 59013 83075
AAXX 18184 61270 32960 00000 10310 20037 3//// 4//// 333 10360 5////
AAXX 18184 61272 32960 00000 10274 20080 30779 40106 333 10325 59020
AAXX 18184 61277 32960 20402 10294 20055 39782 40103 80002 333 10333 59012 82075
AAXX 18184 61285 32960 30000 10318 20033 39948 40099 80002 333 10346 59009 83075
AAXX 18184 61291 32960 00204 10290 20048 39670 40082 333 10312 59016
AAXX 18184 61293 32960 33404 10295 20107 3//// 4//// 80002 333 10325 5//// 83075
AAXX 18184 61296 32960 60000 10290 20125 3//// 4//// 80002 333 10334 5//// 86075
AAXX 18184 61297 32960 70204 10290 20070 3//// 4//// 80002 333 10325 5//// 87075
BBXX 46131 18181 99499 71250 46/// /3107 1//// 40251 52018 22200 00079 10301 70003 333 91208
AAXX 18184 40153 12960 21019 10114 20034 39151 48548 52014 60002 82080 333 10142
AAXX 18184 40179 12960 01003 10134 20070 30160 40198 52015 60002 333 10237
AAXX 18184 40180 12960 00604 10145 20025 30151 40201 52014 60002 333 10246
AAXX 18184 40190 16/// ///// 10128 21007 39865 40200 52013 60002 333 10249
AAXX 18184 40199 12965 00504 10182 20013 30161 40184 52015 60002 333 10262
AAXX 18181 60379 16/// /3102 10103 20096 60042 333 10155
AAXX 18181 60380 16/// /3602 10114 20061 60012 333 10154
AAXX 18181 60394 16/// /3004 10113 20064 60022 333 10158
AAXX 18181 60374 16/// /3409 10127 20070 69922 333 10157
AAXX 18181 60613 36/// /3106 10109 20021 333 10176
AAXX 18184 60452 11565 3//// 10125 20096 40211 53006 60012 76162 83800 222// 2//// 333 10156 81820 83626 91847
AAXX 18184 86330 32598 62408 10300 20084 40056 56015 86200
AAXX 18184 86360 32697 52215 10330 20053 40050 57023 85800
AAXX 18184 86460 32598 42412 10274 20117 40054 57014 84400
AAXX 18184 86490 NIL
AAXX 18184 86530 32697 62810 10262 20142 40048 57013 85570
AAXX 18184 86545 32597 62107 10234 20162 40058 57008 86200
AAXX 18184 86565 11497 52312 10231 20161 40037 58003 69901 70152 83275
AAXX 18184 86580 32597 72309 10200 20160 40063 50000 87400
AAXX 18184 78922 46/// /0709 10286 20195 30082 40126 58026
BBXX 46131 18181 99499 71250 46/// /3107 1//// 40251 52018 22200 00079 10301 70003 333 91208
AAXX 18184 45011 47934 /0106 10134 20116 40228 57010 71011 333 59023
AAXX 18181 45007 12956 00603 10154 20111 30219 40228 57009 60001 333 59023
BBXX 61002 18184 99421 10047 46/// ///32 10103 2//// 40168 52004 22200 00143 10808 70040 555 1/044
AAXX 18181 10908 01/01 93208 11071 21071 38425 48427 51019 60052 78674 333 11066 21074 3/108 49047 55300 20000 30000 60027 89/01 91113 96049 96036
AAXX 18181 78310 12570 50407 10256 20190 30202 40212 58011 60001 82202 333 10260 20203 30/// 56909 58006 82820 85074 92025
AAXX 18181 78315 01464 70602 10256 20168 30135 40201 58013 69901 78082 85272 333 10269 20175 30/// 56999 69907 79999 85819 86074
AAXX 18181 78318 11561 60508 10248 20190 30200 40204 58013 60001 70522 85202 333 10257 20201 31/// 56209 58005 70025 85820 555 10902
AAXX 18181 78322 11559 70503 10232 20202 30198 40205 58016 60001 70522 85402 333 10265 20177 30/// 56109 58007 85820 83080 555 10402
AAXX 18181 78324 11410 50203 10257 20189 30187 40198 58014 69901 70582 84842 333 10258 20217 30/// 56199 58004 79999 82817 84620 555 10301
AAXX 18181 78325 11564 70408 10247 20171 30144 40202 58017 60001 70522 83202 333 10261 20215 30/// 56109 58005 70020 83820 86080 555 10402
AAXX 18181 78328 11461 70604 10244 20178 30200 40/// 58010 60001 70522 878// 333 10249 20205 30/// 56299 58000 85817 92427 555 10703
AAXX 18181 78333 11/10 60201 10264 20156 30181 40188 58023 60001 70522 81242 333 10278 20165 30/// 56990 58001 818// 86071
AAXX 18181 78344 11564 50605 10275 20162 30136 40185 58020 60001 70511 84202 333 10275 20166 30/// 56909 58001 84820
AAXX 18181 78345 12565 60505 10275 20179 30173 40186 58020 60001 83802 333 10276 20169 30/// 56100 58005 83820 86073 555 10502
AAXX 18181 78348 11557 40605 10251 20172 30140 40193 58009 60001 70511 82202 333 10255 20181 30/// 56904 58002 82822 555 2//18
AAXX 18181 78349 11568 60306 10270 20164 30082 40192 56022 60001 70522 83442 333 10270 20170 31/// 56199 57833 59005 82822 84072 555 10503
AAXX 18181 78351 12550 73306 10278 20166 30169 40171 58007 60001 878// 333 10278 20168 30/// 56999 58007 81826 87633
AAXX 18181 78353 01570 60503 10253 20197 30170 40192 58015 69921 70381 85802 333 10257 20225 31/// 56209 57832 58006 69917 70002 82820 83626 555 10903
AAXX 18181 78355 01570 60306 10252 20179 30040 40176 58019 69961 70386 84802 333 10252 20185 31/// 56909 59003 69947 70036 82820
AAXX 18181 78358 01550 40407 10269 20205 30166 40181 58010 60021 70286 82202 333 10270 20212 31/// 56909 58015 69917 70048 82823 83070
AAXX 18181 78360 12470 60706 10279 20186 30158 40170 58018 60001 86903 333 10291 20213 30/// 56109 57989 58004 81817 84630 819// 92034 555 10402
AAXX 18181 78363 11560 70102 10252 20200 30042 40158 58021 69931 70562 878// 333 10252 20182 30/// 56999 58011 70003 82820 87621
AAXX 18181 78365 01558 70711 10262 20220 30180 40185 58012 69931 78022 872// 333 10268 20217 31/// 56299 57822 58008 69937 70035 87820 92036 555 10703
AAXX 18181 78369 11466 70706 10255 20223 30155 40164 57018 69951 71682 872// 333 10258 20235 30/// 56299 57890 58003 70039 87818 92044 555 10703
AAXX 18181 38656 32998 00702 11009 21044 30232 40347 52033 333 10022
AAXX 18183 64800 NIL
AAXX 18183 64820 NIL
AAXX 18183 64860 32960 61402 10277 20074 39820 40090 80002 333 10338 59011 86080
AAXX 18183 64861 NIL
AAXX 18183 64870 32960 70202 10210 20102 38896 48487 80002 333 10316 59011 87080
AAXX 18183 64871 NIL
AAXX 18183 64892 NIL
AAXX 18183 64893 NIL
AAXX 18183 64894 NIL
AAXX 18183 64910 31456 60000 10280 20252 30083 40083 70522 84302 333 10325 58002 84616 81920 85080 94945 95835
AAXX 18183 64911 NIL
AAXX 18183 64950 NIL
BBXX 46204 18181 99514 71288 46/// /3003 10067 40277 52020 22200 00084 11605 70027 333 91205
BBXX 46204 18181 99514 71288 46/// /3003 10067 40277 52020 22200 00084 11605 70027 333 91205
AAXX 18184 65028 11956 70000 10244 20035 39563 40154 70522 80008 333 10282 59019 87280
AAXX 18184 65123 11958 73206 10286 20099 30063 40081 70522 80008 333 10358 59011 87280
AAXX 18184 65125 32957 62006 10284 20088 30710 40113 80008 333 10343 59011 86280
AAXX 18184 65208 31440 72105 10300 20186 39836 40092 70522 82538 333 10336 59013 82614 87280
AAXX 18184 65250 31950 70000 10298 20214 30051 40084 70522 80008 333 10337 59005 87280
AAXX 18184 65257 31935 71903 10286 20155 30000 40070 70522 80008 333 10334 59008 87280
AAXX 18184 65271 11956 10283 20176 30999 40097 70522 80008 333 10336 58002 87280
AAXX 18184 61017 32960 50000 10153 20032 39726 40132 80002 333 10260 59017 85080
AAXX 18184 61024 32960 21604 10212 20010 39556 40132 80002 333 10276 59015 82080
AAXX 18184 61036 32960 70000 10266 20000 39869 40109 80008 333 10305 59013 87280
AAXX 18184 61043 32960 71204 10267 21035 39660 40105 80008 333 10302 59021 87280
AAXX 18184 61045 31958 70000 10214 21001 39618 40124 7052/ 80008 333 10278 59015 87280
AAXX 18184 61049 NIL
AAXX 18184 61052 31956 50404 10272 21001 39850 40109 70620 80002 333 10310 59012 85080
AAXX 18184 61075 32960 50000 10258 20037 39788 40099 80002 333 10327 59017 85080
AAXX 18184 61080 32960 70000 10240 20023 39688 40114 80008 333 10290 59022 87280
AAXX 18184 61090 32960 70000 10234 21029 39598 40114 80008 333 10282 59021 87280
AAXX 18184 61091 32960 70000 10210 20075 39666 40134 80008 333 10295 59014 87280
AAXX 18184 61096 32960 70000 10222 20009 39734 40123 80008 333 10292 59013 87280
AAXX 18184 61099 31956 73604 10294 20046 39858 40087 70622 80008 333 10328 59015 87280
AAXX 18181 26416 33/// /2105 10008 21001 49892 52021 333 10021 91110
AAXX 18184 83552 32598 2//// 10368 20164 39934 4//// 82200 333 58003
AAXX 18184 83623 32996 7//// 1//// 2//// 39484 4//// 58030 85550
AAXX 18184 83630 21497 73604 10268 20184 3//// 4//// 57040 70362 82344 333 60101
AAXX 18184 83702 32599 62706 10313 20140 39349 40096 58017 86100
AAXX 18184 83704 32798 42304 10327 20182 39652 40046 58020 84130
AAXX 18184 83726 21597 82702 10270 20183 39144 40093 58041 75155 887// 333 60011
AAXX 18184 82106 32698 60504 10332 20247 3//// 4//// 86200 333 5////
AAXX 18184 82113 32496 81402 10283 20250 3//// 4//// 84880 333 5////
AAXX 18184 82212 32698 81404 10288 20237 30022 40103 886// 333 58010
AAXX 18184 82336 32698 80904 10302 20255 3//// 4//// 84590 333 5////
AAXX 18184 82425 32196 81803 10268 20231 3//// 4//// 887// 333 5////
AAXX 18184 82533 21197 80000 10238 20233 3//// 4//// 76066 887// 333 5//// 61601
AAXX 18184 82704 32696 60000 10301 20249 39852 40044 86400 333 58001
AAXX 18184 82723 32598 50000 10286 20242 30028 40110 85300 333 58022
BBXX ZSAF 18184 99659 30000 41599 71908 11013 21030 49693 52028 70372 83508 22213 05016 2//// 3//// 4//// 5//// ICE 62080
BBXX ZDLP 18183 99608 50450 41297 70116 10013 21013 40011 57025 70122 8471/ 22252 04000 20301 325// 40504 5//// 80004 ICE //7/0
AAXX 18184 91650 11599 70000 10262 2025/ 40083 53016 60041 70308 84806 333 569/9 83820 86268
AAXX 18184 91652 NIL
AAXX 18184 91656 NIL
AAXX 18184 91659 NIL
AAXX 18184 91660 NIL
AAXX 18184 91669 36/// /1701 10259 2//// 40089 52010 91815
AAXX 18184 91670 36/// /3400 10277 20237 40085
AAXX 18184 91676 14/// /0104 10271 20236 30023 40083 53023 60001
AAXX 18184 91680 11598 83305 10264 20250 40086 53014 69961 76028 8687/ 333 5699/ 84826 84648 88460
AAXX 18184 91682 NIL
AAXX 18184 91683 11599 80000 10250 20244 40087 53017 69911 72582 8687/ 333 5699/ 83820 86648 87462
AAXX 18184 91691 14/// /0203 10259 20244 30088 40091 50018 60011
AAXX 18184 91693 11498 80000 10250 2024/ 40088 53021 60041 76166 8687/ 333 5699/ 83818 85643 87461
AAXX 18184 91697 14/// /3403 10272 20241 30079 40084 50014 60001
AAXX 18184 91699 14/// /3408 10276 20253 30058 40090 50019 60001
BBXX FHZI 18184 99593 31450 46/// /3615 10029 2//// 30115 40126 57015 22243 04015
BBXX VROB 18184 99291 31538 46/// /0411 10217 20140 30125 40150 57005 22244 04254 85168
BBXX VNAH 18184 99333 31157 46/// /1808 10157 20111 30095 40119 57013 22200 85130
BBXX JPAT 18184 99256 31048 41497 71516 10214 20166 40142 57010 70322 87811 22232 00232 10804 399// 85183
AAXX 18183 67765 41575 70806 10207 20183 38670 48513 71392 81973 333 10255 81921 85460 85080
AAXX 18183 67775 42580 11507 10185 20154 38516 48520 81400 333 10248 81625
AAXX 18183 67867 42/80 00000 10165 20139 38590 48517 333 10235
AAXX 18183 67965 42680 11505 10192 20124 38699 48523 81430 333 10268 81640
AAXX 18183 67975 42/80 01307 10180 20141 38940 48524 333 10241
AAXX 18183 67991 42/75 00000 10253 20155 39586 48490 333 10314
AAXX 18184 82042 32698 50000 10337 20260 3//// 4//// 83400 333 5////
AAXX 18184 82240 32696 40000 10336 20233 3//// 4//// 84900 333 5////
AAXX 18184 82317 32693 81804 10284 20238 3//// 4//// 885// 333 5////
AAXX 18184 82610 32495 40000 10332 20260 3//// 4//// 83430 333 5////
AAXX 18184 82807 32595 63602 10301 20246 3//// 4//// 86200 333 5////
AAXX 18184 82143 31598 50312 10300 20247 40082 7012/ 82210 222// 80260 333 59005
AAXX 18184 83117 31698 50901 10240 20226 40077 56018 7032/ 8643/ 222// 02200 20101 80230
AAXX 18184 67755 NIL
AAXX 18184 67771 NIL
AAXX 18184 67773 NIL
AAXX 18184 67774 NIL
AAXX 18184 67785 NIL
AAXX 18184 67789 NIL
AAXX 18184 67855 NIL
AAXX 18184 67857 NIL
AAXX 18184 67863 NIL
AAXX 18184 67871 NIL
AAXX 18184 67875 NIL
AAXX 18184 67891 NIL
AAXX 18184 67895 NIL
AAXX 18184 67897 NIL
AAXX 18184 67899 NIL
AAXX 18184 67951 NIL
AAXX 18184 67963 NIL
AAXX 18184 67967 NIL
AAXX 18184 67971 42980 01304 10210 20164 3//// 48/// 333 10267 5////
AAXX 18184 67976 NIL
AAXX 18184 67979 NIL
BBXX FHZI 18184 99593 31450 46/// /3615 10029 2//// 30115 40126 57015 22243 04015
BBXX VROB 18184 99291 31538 46/// /0411 10217 20140 30125 40150 57005 22244 04254 85168
BBXX VNAH 18184 99333 31157 46/// /1808 10157 20111 30095 40119 57013 22200 85130
BBXX JPAT 18184 99256 31048 41497 71516 10214 20166 40142 57010 70322 87811 22232 00232 10804 399// 85183
AAXX 18184 67765 41575 70806 10207 20183 38670 48513 71392 81973 333 10255 59003 81921 85460 85080
AAXX 18184 67775 42580 11507 10185 20154 38516 48520 81400 333 10248 59004 81625
AAXX 18184 67779 NIL
AAXX 18184 67853 NIL
AAXX 18184 67861 NIL
AAXX 18184 67867 42980 00000 10165 20139 38590 48517 333 10235 59005
AAXX 18184 67881 NIL
AAXX 18184 67965 42680 11505 10192 20124 38699 48523 81430 333 10268 59011 81640
AAXX 18184 67975 42980 01307 10180 20141 38940 48524 333 10241 59011
AAXX 18184 67977 NIL
AAXX 18184 67983 NIL
AAXX 18184 67991 42975 00000 10253 20155 39586 48490 333 10314 59013
AAXX 18181 30157 41995 80000 11121 21148 39973 40269 57008 77372 8802/
BBXX 44029 18181 99425 70706 46/30 /3609 11037 40219 55005 91804 22200 00088 10604 70022 333 91212 555 11110 22115
BBXX 44030 18181 99432 70704 46/// /3505 1//// 40225 58013 91804 22200 00087 10602 70012 333 91208 555 11063 22067
BBXX 44040 18181 99410 70736 46/// /0105 11025 21136 40247 91800 22200 1//00 70002 333 91207 555 11057 22057
AAXX 18181 21802 42999 03502 11303 21315 30223 40250 52002
AAXX 18181 24125 41998 80000 11319 21331 39919 40232 57002 77172 80007
AAXX 18181 24136 42999 00000 11424 21455 30127 40245 53000
AAXX 18181 24143 42999 30000 11340 21375 30200 40257 52005 70271 80005
AAXX 18181 24266 41997 82601 11363 21390 30056 40256 57005 77177 8802/
AAXX 18181 24329 42998 20000 11380 21403 39903 40247 57008 83010
AAXX 18181 24343 41998 81801 11359 21386 30124 40259 52002 77172 80007
AAXX 18181 24382 41996 80000 11281 21304 39953 40228 57002 77177 8802/
AAXX 18181 24639 41998 80000 11353 21377 30061 40247 57007 77071 80007
AAXX 18181 24641 42999 00601 11407 21438 30082 40248 57004
AAXX 18181 24652 41997 80000 11387 21413 30131 40274 58001 70272 86037
AAXX 18181 24656 41998 80000 11407 21438 30164 40283 58002 77177 80007
AAXX 18181 24671 41996 83001 11347 21375 39706 40280 52001 77172 80006
AAXX 18181 24688 41999 10000 11440 21475 39261 40333 52002 77600 80001
AAXX 18181 24724 41999 31902 11238 21263 39632 40202 56008 70171 83030
AAXX 18181 24738 41997 80000 11298 21315 30024 40219 57009 77172 80007
AAXX 18181 24768 41996 70000 11409 21444 30006 40278 58002 77171 80007
AAXX 18181 24923 41598 82203 11173 21199 39897 40221 57005 77187 86506 333 86625
AAXX 18181 24944 41997 80000 11265 21277 39926 40246 57007 77172 82037
AAXX 18181 24951 42999 00000 11323 21352 30074 40261 56001
AAXX 18181 24661 41999 80000 11364 21400 39973 40276 53002 70272 80007
AAXX 18181 24959 41993 80000 11383 21409 30120 40270 54000 77174 80007 333 96048
AAXX 18181 24962 41998 80000 11430 21455 30064 40284 53004 70272 82031
AAXX 18181 24966 41998 80000 11355 21377 30022 40269 58004 77172 83037
AAXX 18181 24967 42999 00000 11430 21461 30039 40298 58005
AAXX 18181 25206 41998 82201 11260 21284 30178 40208 54000 77177 85037
AAXX 18181 25400 41998 80000 11254 21278 30153 40214 57002 77172 8802/
AAXX 18181 30054 41596 82104 11156 21190 39998 40253 57013 78583 86907
AAXX 18181 30089 42999 80000 11293 21311 30029 40279 57002 80001
AAXX 18181 30393 41999 80000 11324 21342 39155 40329 57005 72272 82031
AAXX 18181 30493 41998 80000 11280 21304 39150 40304 58003 77172 80007
AAXX 18181 31004 41997 82201 11261 21273 39360 40273 58006 77172 80007
AAXX 18181 31137 41998 80000 11439 21456 39158 40380 58002 77172 80005
BBXX 46088 18181 99483 71232 46/// /0101 10079 40241 91820 22200 00080 1//00 70002 333 91201 555 11006 22006 31819 42602 61819 023006 021007 004007 342004 306007 270009
BBXX 46087 18181 99485 71247 46/// /1701 10076 20075 40246 91820 22200 00079 333 91203 555 11014 22015 31727 42904 61819 169013 209006 161005 286009 295018 294022
BBXX 41036 18181 99342 70770 46/// ///// 10079 21018 40251 91820 22200 00164
AAXX 18184 41268 36/// /2200 10199 20150 30167 48219 333 0E022 10268 58014
AAXX 18181 35925 329// 00508 11168 21193 40459 52021 333 11101
AAXX 18181 38001 32997 50506 11005 21109 30353 40323 52003 85030 333 10051
AAXX 18181 38232 32998 00907 11054 21144 30272 40376 52019 333 11002
BBXX V7MO2 18184 99262 70914 41397 20715 10205 20124 40260 57007 7//00 821// 22200 00233 20301 306// 40503 5//// 6//// 80156 ICE /////
BBXX WBN7618 18184 99200 70708 41/// /1111 10278 2//// 40210 5//// 7//// 8//// 22222 0//// 20504 30909 40503 50402 6//// 8//// ICE /////
BBXX C6FY5 18184 99174 70630 41598 31012 10250 2021/ 40140 54/// 7//00 831// 2229/ 04290 2//// 3//// 4//// 5//// 6//// 80220 ICE /////
BBXX KIRH 18183 99300 70698 41897 53419 10206 20180 40151 58005 75051 85/4/ 22234 00189 20504 336// 40605 5//// 6//// 80189 ICE /////
BBXX WZJC 18183 99229 70791 41598 70416 10250 2019/ 40187 58014 70282 81271 22273 00261 20302 3//// 4//// 5//// 6//// 80211 ICE /////
BBXX 3FPR9 18184 99286 71160 41599 43013 10150 20116 40180 52020 71581 82105 22234 04170 20501 330// 41603 5//// 6//// 80130 ICE /////
AAXX 18184 42309 31995 00000 10126 20115 40157 70500 333 58009
AAXX 18184 42314 31995 20000 10126 20115 40170 70500 82030 333 59012 82360
AAXX 18184 42410 31495 30000 10150 20150 40175 70500 81530 333 58003 81618 83359
AAXX 18184 42415 31996 20000 10140 20125 40186 70500 82030 333 58002 82360
AAXX 18184 42492 31994 00000 10096 20088 40183 71100 333 59003
AAXX 18184 42587 31994 00000 10092 20066 40183 71000 333 59004
AAXX 18184 42591 31992 03203 10084 20084 40187 74444 333 59001
AAXX 18184 42623 31595 20000 10092 20068 39290 40193 70500 82500 333 58010 82620
AAXX 18184 42701 31995 02301 10104 20025 39423 40180 70500 333 59006
AAXX 18184 42706 31995 00000 10134 20073 40161 70500 333 59012
AAXX 18184 42724 21994 00000 10128 20121 40167 71000 333 59002 6990/
AAXX 18184 42798 31995 00000 10114 20073 40170 70500 333 59006
AAXX 18184 42809 31995 00000 10138 20119 40161 70500 333 59002
AAXX 18184 42886 31996 00000 10138 20095 40171 70500 333 58000
AAXX 18184 42895 31995 03602 10136 20093 40161 70500 333 59004
AAXX 18184 42971 31994 20203 10178 20140 40163 71010 81031 333 59001 81360
AAXX 18184 43333 21495 70904 10268 20230 40121 70522 86402 333 56209 58005 6002/ 83616 85818
AAXX 18184 42398 NIL
AAXX 18184 42977 NIL
AAXX 18184 43368 NIL
BBXX DDID2 18183 99280 50480 41598 11205 10254 20199 40054 54000 701// 811// 22213 04230 20301 80216
BBXX A8SG4 18184 99101 51184 41598 50725 10255 20197 40150 54000 70311 84574 22213 04260 20102 308// 40104 80215
BBXX V7OX3 18184 99288 50485 41598 21106 10250 20204 40050 58010 70200 814// 22213 04270 2//02 307// 4//02 5//// 80220
BBXX C6XQ2 18183 99340 50528 41596 72432 10190 20174 40039 54000 78186 87700 22213 04200 20802 32526 40802 50602 80180
BBXX UFLC 18180 99442 11361 42/98 92811 11090 40230 54000 89/// 22252 06015 20402
BBXX A8RU5 18184 99149 11151 41397 80535 10245 20224 40115 58030 70582 8/6// 22244 80230
BBXX A8RV8 18184 99208 11145 41598 40522 10200 20153 40200 56/// 70200
BBXX 7JJA 18184 99359 11413 41797 60318 00 10080 20013 40165 57010 70222 831/4 9//// 22290 0 2//01 3 4 5 6//// 80050 ICE /////
BBXX 3EIU9 18184 99083 11181 41198 21119 10280 20250 40085 57010 70200 82382 91745 22222 00266 1//// 2//// 301// 40201 5//// 6//// 80260 /////
BBXX SHIP 18183 99167 11320 41/98 21021 10280 20267 40161 56010 8/1// 22214 00280 80270
BBXX SHIP 18184 99311 11661 41/96 61913 10170 20137 40201 56001 70303 8//// 91750 22263 00220 2//// 3//// 4//// 5//// 80150
BBXX A8JX8 18181 99431 11604 41597 52711 10050 20038 40040 56010 71111 84875 22224 2//// 3//// 4//// 5//// 80045
BBXX JGQH 18184 99347 11395 41/97 22716 10099 20023 40180 58004 70211 82230 22212 00193 10603 20302 399// 4//02 70014
BBXX VREX8 18184 99287 11560 41597 52813 10220 2019/ 40200 54000 70200 851// 22264 0//// 20304 328// 40406 5//// 6//// 80200 ICE /////
BBXX DGBE 18183 99221 11169 41/97 /1028 10187 20135 40200 58020 70322 8//// 22224 00240 2//// 80155
BBXX 46204 18181 99514 71288 46/// /3003 10067 40277 52020 22200 00084 11605 70027 333 91205
BBXX 46131 18181 99499 71250 46/// /3107 1//// 40251 52018 22200 00079 10301 70003 333 91208
BBXX 46183 18181 99536 71311 46/// /2002 10056 40258 52012 22200 00077 11401 70006 333 91205
BBXX WSRH 18184 99477 71253 41398 33326 10072 2005/ 40200 51025 7//00 834// 22245 00078 20504 332// 40705 5//// 6//// 80061 ICE /////
BBXX WZJC 18183 99229 70791 41598 70416 10250 2019/ 40187 58014 70282 81271 22273 00261 20302 3//// 4//// 5//// 6//// 80211 ICE /////
BBXX 46147 18181 99518 71312 46/// /2204 10076 40269 52009 22200 00080 11508 70041 333 91206
BBXX SHIP 18184 99227 71581 41496 40720 10231 20182 40191 52014 71680 83360 22223 04236 20404 30903 40704 50804
BBXX H9UY 18184 99207 71479 41498 80830 00/// 10220 40176 51010 70322 887// 9//// 22263 04230 20504 309// 40705 5//// 6//// 80190
BBXX DGTX 18183 99330 71783 41/98 /3114 10190 20142 40148 53013 70182 8//// 22264 00230 2//// 80160
BBXX A8JX9 18183 99547 71752 41/// ///// 10015 20005 49795 53011 700// 8//// 22264 29903 3//// 4//// 5//// 80011
BBXX DGNB 18183 99293 70612 41497 62221 10230 20152 40143 57025 70322 8/776 22254 00241 21004 80180
BBXX 44022 18181 99409 70737 46/// ///05 11026 21117 40244 91815 22200 00086 333 91208 555 11051 22051
BBXX 46088 18181 99483 71232 46/// /0101 10079 40241 91820 22200 00080 1//00 70002 333 91201 555 11006 22006 31819 42602 61819 023006 021007 004007 342004 306007 270009
BBXX 44039 18181 99411 70727 46/// /3606 11028 21120 40241 91800 22200 00097 10301 70006 333 91209
BBXX 44060 18181 99413 70721 46/// ///06 11023 40223 91815 22200 00105 333 91208 555 11062 22067
BBXX 44033 18181 99441 70690 46/30 /3507 11059 40221 56018 91804 22200 00073 10301 70005 333 91208 555 11080 22082
BBXX 42085 18181 99179 70665 46/// /1702 10281 40133 91810 333 91203
BBXX 44034 18181 99441 70681 46/30 /3608 11047 40209 56020 91804 22200 00086 10603 70013 333 91210 555 11090 22093
BBXX 46114 18181 99364 71222 46/// ///// 1//// 91804 22200 00125 11506 21002 331// 41506 70031
BBXX 51205 18181 99210 71564 46/// ///// 1//// 91818 22200 00243 11305 20904 333// 41303 70026
BBXX 42363 18181 99282 70892 46/// /0509 10167 20050 40278 91815 333 91209
BBXX 41115 18181 99184 70673 46/// ///// 1//// 91805 22200 11304 21003 301// 41302 70018
BBXX 42362 18181 99278 70907 46/// /0608 10194 20067 40275 91815
BBXX 42364 18181 99291 70881 46/// /0206 10167 20067 40278 91815
BBXX 41114 18181 99276 70802 46/// ///// 1//// 91816 22200 00246 11303 20602 307// 41301 70013
BBXX 46211 18181 99469 71242 46/// ///// 1//// 91806 22200 00084 11507 20805 327// 41505 70034
BBXX 46221 18181 99339 71186 46/// ///// 1//// 91745 22200 00149 11301 20901 326// 41301 70007
BBXX 46222 18181 99336 71183 46/// ///// 1//// 91756 22200 00152 11301 20801 326// 41301 70006
BBXX 46231 18181 99327 71174 46/// ///// 1//// 91754 22200 00148 11802 21001 327// 41801 70008
BBXX 46216 18181 99343 71198 46/// ///// 1//// 91757 22200 00145 11402 20501 327// 41402 70011
BBXX 46223 18181 99335 71178 46/// ///// 1//// 91800 22200 00153 11302 20901 327// 41301 70008
BBXX 46212 18181 99408 71243 46/// ///// 1//// 91812 22200 00097 11706 21002 331// 41705 70030
BBXX 46237 18181 99378 71226 46/// ///// 1//// 91810 22200 00112 11506 21002 325// 41506 70030
BBXX 46240 18181 99366 71219 46/// ///// 1//// 91812 22200 00123 11702 21001 301// 41701 70008
BBXX 46241 18181 99330 71173 46/// ///// 1//// 91741 22200 00144 11401 20801 327// 41401 70006
BBXX 46249 18181 99338 71197 46/// ///// 1//// 91812 22200 00147 11302 20302 325// 41301 70010
BBXX 46244 18181 99409 71244 46/// ///// 1//// 91805 22200 00099 11506 21003 330// 41505 70030
BBXX A8YJ9 18184 99020 50322 41598 71715 10261 20229 40098 56007 70288 876// 22243 04250 20703 80238
BBXX V2AM5 18184 99131 10487 41597 30613 10245 20178 40170 54000 7//00 82183 22274 80200
BBXX A8ZS7 18184 99346 30234 41497 53012 10215 20143 40075 53005 70122 83840 22264 04190 20502 30000 80170
BBXX ATMG 18184 99244 10624 41597 43620 10280 20267 41019 54000 70302 822// 22263
BBXX MGGK4 18180 99022 70106 41498 31803 10268 20238 40107 57005 70200 83300 22254 00278 20201 318// 40703 5//// 80247
BBXX A8YW2 18184 99204 30654 41/98 20916 10255 20198 40142 52013 70100 8//// 22214 00240 20703 80218
BBXX 2AJI3 18183 99162 70178 41997 50213 10252 20159 40135 55/// 70522 84038 22244 00240 20301 335// 40501 5//// 80195
BBXX PHQW 18183 99071 70130 41996 50000 10275 20229 40092 53003 70522 80008 22273 00291 2//// 318// 40802 80242 90494
BBXX 61002 18184 99421 10047 46/// ///32 10103 2//// 40168 52004 22200 00143 10808 70040 555 1/044
BBXX A8UA9 18184 99301 70120 41298 60130 10190 20167 40222 57008 70322 8667/ 22253 20404 330// 40704 80175
BBXX 62121 18184 99535 10027 46/// ///// 22200
BBXX 62169 18183 99614 10014 41298 63125 10050 20045 40054 52003 70122 86200 22200 20408 300// 4//// 5//// 80048
BBXX 62305 18184 99504 10000 46/98 /3326 10072 20010 40181 53011 22200 00118 10603 70013 333 90710 91135
BBXX 62103 18184 99499 70029 46/99 /3122 10089 20038 40202 52014 22200 00121 10703 70014 333 90710 91133
BBXX 63119 18184 99583 10009 41/97 43520 10045 21015 40088 52/// 701// 8//// 22200 2//// 334// 40606 5////
BBXX 62081 18184 99510 70134 46/// ///// 10104 20050 40242 56010 22200 00119 10705 70027
BBXX 62170 18184 99514 10020 46/98 /3227 10048 20009 40148 53009 22200 00107 10603 70014 333 90710 91135
BBXX 62304 18184 99511 10018 46/99 /3226 10053 20004 40153 53007 22200 00114 10603 70014 333 90710 91133
BBXX 62094 18184 99517 70067 46/// /2916 10086 20050 40218 53003 22200 00105 10503 70015
BBXX 62103 18184 99499 70029 46/99 /3124 10087 20019 40198 53011 22200 00122 10703 70014 333 90710 91131
BBXX 63110 18183 99595 10015 41/98 /3324 10056 40070 700// 8//// 22200 10707 70037
BBXX C6RM7 18183 99553 70285 41296 82620 10060 20048 40117 54000 75022 86626 22254 04053 20805 323// 41206 5//// 80055
BBXX 62118 18184 99577 10009 464// /3418 10035 21005 40096 51010 22200 10707 70036
BBXX 62143 18184 99577 10018 47598 /3318 10050 21018 40095 52009 700// 22200 10708 70039
BBXX 62104 18184 99574 10013 47998 /3217 10052 20001 40097 52012 762// 22200
BBXX 62116 18184 99576 10011 47497 /3218 10044 21004 40100 53008 761// 22200 10808 70039
BBXX 62153 18184 99573 10020 47598 /3419 10050 20008 40094 52006 700// 22200 10808 70039
BBXX 62155 18184 99577 10007 47799 /3316 10047 20002 40104 51009 751// 22200 10707 70035
BBXX 62122 18184 99573 10016 47498 /3120 10046 21003 40093 51012 700// 22200 10707 70037
BBXX 62140 18184 99573 10013 46/// /34// 10044 21004 40099 52014 22200
BBXX 62134 18184 99580 10014 47698 /3415 10055 21017 40094 52008 700// 22200 10708 70041
BBXX 62146 18184 99572 10021 47/98 /3516 10045 21010 40090 52008 700// 22200 10708 70038
BBXX 62114 18184 99583 10000 46/// /3411 10043 20017 40106 51008 22200
BBXX 62117 18184 99579 10000 47598 /2915 10056 20004 40105 53005 700// 22200 10706 70028
BBXX 62113 18184 99584 10002 47398 /3216 10053 20007 40097 53008 700// 22200
BBXX 62102 18184 99579 10018 46/// /3322 10058 21016 40087 52010 22200 10807 70037
BBXX ZQSD5 18184 99583 10007 46/// /3316 10049 21000 40102 53008 22200 10908 70042
BBXX 62128 18184 99587 10014 47698 /3120 10044 21028 40093 51008 700// 22200 10808 70041
BBXX 62129 18184 99584 10003 46/// ///// 10029 20004 40098 52009 22200
BBXX 62142 18184 99530 10021 47898 /3321 10047 20003 40130 52017 700// 22200 10504 70019
BBXX 62145 18184 99531 10028 47598 /3219 10055 21009 40131 52016 700// 22200 10605 70023
BBXX 62144 18184 99534 10017 47598 /3119 10044 20006 40135 53016 700// 22200 10604 70020
BBXX 62149 18184 99537 10011 47598 /3320 10048 20010 40142 52020 700// 22200 10705 70026
BBXX 62150 18184 99536 10007 47398 /3019 10032 20010 40162 52023 700// 22200 10706 70029
BBXX 62131 18184 99539 10012 46/// /32// 10043 20001 40138 52020 22200
BBXX 62148 18184 99536 10015 46/// /3217 10049 21001 40140 52019 22200
BBXX 62127 18184 99540 10007 47598 ///// 10059 21008 40143 52021 700// 22200 10706 70031
BBXX 62132 18184 99564 10020 46/// /3404 10051 21012 40108 52010 22200
BBXX 62123 18184 99563 10022 47699 /3318 10050 21004 40098 52020 700// 22200
BBXX 62165 18184 99540 10009 47598 /3314 10039 21003 40149 52016 700// 22200 10606 70028
BBXX 62120 18184 99564 10021 47598 /3420 10050 21004 40104 51016 700// 22200
BBXX 62133 18184 99571 10009 46/// /3215 10054 21011 40108 52014 22200 10707 70034
BBXX 62119 18184 99570 10019 46/// ///// 22200
BBXX 62154 18184 99564 10022 46/// /3418 10047 21010 40093 52020 22200
BBXX PJGO 18184 99571 10022 47597 /3221 10049 21003 40094 52012 700// 22200
BBXX 62152 18184 99570 10018 46/// /3121 10037 21020 40104 52019 22200 10708 70040
BBXX 62164 18184 99572 10008 47698 /3214 10073 20011 40108 51009 700// 22200 00095 10707 70034
BBXX 63117 18184 99613 10011 47498 /3222 10042 21008 40055 51001 700// 22200
BBXX 64041 18184 99607 70026 47598 /3210 10024 21028 40104 52006 700// 22200 10907 70037
BBXX 63115 18184 99616 10013 47598 /3123 10040 20000 40058 53003 700// 22200 10809 70044
BBXX MWYG6 18184 99603 70040 47998 /3207 10043 700// 22200
BBXX 63103 18184 99612 10011 46/// /3324 10041 21004 40059 51002 22200 10808 70041
BBXX 63104 18184 99612 10016 47498 /3222 10047 20005 40048 51002 700// 22200
BBXX 63101 18184 99612 10009 46/// /3422 10050 20003 40058 51003 22200
BBXX 63105 18184 99610 10017 47498 ///// 10047 20005 40049 52003 700// 22200
BBXX 63112 18184 99611 10010 47498 /3217 10039 21019 40056 51004 700// 22200 10808 70042
BBXX 63107 18184 99611 10017 46/// /3125 10041 40048 52002 22200
BBXX 63113 18184 99610 10017 46/// /3223 10039 20005 40056 52002 22200 10808 70041
BBXX 63106 18184 99610 10017 46/// /3121 10039 40050 51004 22200
BBXX 63057 18184 99592 10015 47698 /3324 10049 21037 40076 51010 700// 22200 10707 70035
BBXX 63108 18184 99608 10017 47998 /3321 10054 21002 40050 52005 700// 22200 11308 70042
BBXX 63110 18184 99595 10015 47698 /3418 10057 21034 40074 51010 700// 22200 10808 70038
BBXX PJAI 18184 99581 70014 47599 /3011 10054 21004 40107 51002 700// 22200
BBXX 63055 18184 99606 10016 47796 /3017 10039 21003 40060 53003 704// 22200 10807 70035
BBXX 62112 18184 99584 70002 47498 /3007 10031 21006 40108 52009 762// 22200
BBXX AMOUK09 18184 99506 10007 46/// ///// 10063 20018 30148 40163 54000 91750
BBXX AMOUK27 18184 99579 70052 46/// ///// 11162 2//// 30135 40138 54/// 91750
BBXX AMOUK14 18184 99534 70059 46/// ///// 10068 20045 30157 40189 57005 91750
BBXX 63056 18184 99597 10016 47698 /3120 10042 21036 40059 51006 700// 22200 10808 70041
BBXX 62111 18184 99580 70003 46/// /3115 10051 21008 40112 51008 22200 10705 70027
BBXX AMOUK06 18184 99512 10016 46/// ///// 10037 20007 30135 40150 54001 91750
BBXX AMOUK12 18184 99533 70054 46/// ///// 10068 20041 30159 40199 54003 91750
BBXX AMOUK08 18184 99501 70061 46/// ///// 10096 20042 30222 40225 52007 91750
BBXX AMOUK10 18184 99508 10003 46/// ///// 10042 2//// 30171 40168 54001 91750
BBXX AMOUK03 18184 99537 70003 46/// ///// 10043 21019 30120 40151 52019 91750
BBXX AMOUK19 18184 99573 70018 46/// ///// 10024 21016 30119 40122 57006 91750
BBXX AMOUK11 18184 99533 70062 46/// ///// 10049 20026 30154 40206 52017 91750
BBXX AMOUK05 18184 99537 70003 46/// ///// 10011 21033 30116 40153 52022 91750
BBXX DBIP 18180 99346 70150 41397 83309 10185 20153 40240 57020 75852 887// 22223 04190 20502 334// 41104 5//// 80165
BBXX AMOUK13 18184 99519 10013 46/// ///// 10026 20001 30146 40157 52015 91750
BBXX 64046 18184 99606 70049 46/// /3211 10039 21032 40122 52008 22200 00078 10807 70036
BBXX 62303 18184 99516 70051 46/// /3213 10085 20035 40208 51008 22200 00110 10503 70017
BBXX 62301 18184 99524 70047 46/// /3114 10075 20029 40194 51009 22200 00093 10503 70017
BBXX 62163 18184 99475 70084 46/// /3215 10104 20056 40276 53006 22200 00128 10705 70026 333 90710 91125
BBXX DAJT 18184 99127 30729 41398 61014 10285 20244 40055 54000 70222 8/6// 22254 04280 80255
BBXX SHIP 18184 99131 31169 41/97 41909 10288 20240 40066 57014 71311 8//// 22201 00305 10703 80253
BBXX MRWF2 18184 99195 31097 41397 31718 10245 2020/ 40100 50010 70300 8313/ 22274 00282 20502 3//// 40703 5//// 6//// 80217 ICE /////
BBXX 46248 18181 99461 71247 46/// ///// 1//// 91804 22200 00095 11407 20805 329// 41405 70035
BBXX KIRH 18183 99300 70698 41897 53419 10206 20180 40151 58005 75051 85/4/ 22234 00189 20504 336// 40605 5//// 6//// 80189 ICE /////
BBXX WDD3825 18184 99253 70857 41398 30417 10210 2016/ 40234 57013 70200 831// 22274 00260 20305 335// 40405 5//// 6//// 80180 ICE /////
BBXX V7DI7 18183 99414 70613 41596 80344 10110 2011/ 40005 50000 78182 887// 22200 00100 20306 301// 40406 5//// 6//// 80110 ICE /////
BBXX DDLK 18183 99424 70632 41397 70335 10074 20031 40085 57023 781// 8677/ 22213 20707 304// 41008 80054
BBXX A8SF8 18184 99161 70715 41398 50521 10280 20224 40155 55010 70311 82768 22253 04270 20802 30000 80240
BBXX A8TI2 18184 99269 70491 41499 31420 10230 20194 40090 57010 70311 8/1// 22214 04250 2//// 309// 41006
BBXX C6CU6 18183 99308 70522 41397 50116 10200 20184 40169 50/// 70111 851// 22263 04210 20908 310// 41307 5//// 80190
BBXX A8SF7 18181 99224 70744 41/98 80808 10230 20215 40190 56020 7//66 8//// 22244 04250 20902 309// 41202 5//// 80220
BBXX C6FY5 18184 99174 70630 41598 31012 10250 2021/ 40140 54/// 7//00 831// 2229/ 04290 2//// 3//// 4//// 5//// 6//// 80220 ICE /////
BBXX WBN7618 18184 99200 70708 41/// /1111 10278 2//// 40210 5//// 7//// 8//// 22222 0//// 20504 30909 40503 50402 6//// 8//// ICE /////
BBXX V7MO2 18184 99262 70914 41397 20715 10205 20124 40260 57007 7//00 821// 22200 00233 20301 306// 40503 5//// 6//// 80156 ICE /////
BBXX 46207 18181 99509 71299 46/// /0000 10074 40280 52017 22200 00083 11606 70032 333 912//
BBXX DIHC 18183 99358 71797 41297 43416 10140 20124 40120 54000 7//// 8377/ 22264 00180 20602
BBXX 41029 18181 99328 70796 46/// /0707 1//// 91800 555 11090 22108
BBXX 46112 18181 99481 71227 46/// /3004 10078 40238 51028 91800
BBXX 46111 18181 99481 71227 46/// /3110 10078 40238 52028 91800 22200 00056
BBXX 41037 18181 99340 70775 46/// /3409 10100 40225 58005 91800 22200 00178 333 91211
BBXX IDDUK02 18184 99609 50451 46/// ///// 40021 222//
BBXX 62001 18184 99452 70050 46/// /3312 10110 20041 40268 53008 22200 00143 10705 70024
BBXX 62029 18184 99487 70125 46/// /2716 10108 20042 40272 58001 22200 00131 10705 70025
BBXX 62081 18184 99510 70134 46/// ///// 10105 20051 40242 57010 22200 00119 10705 70027
BBXX 62442 18184 99490 70164 46/// /2317 1//// 2//// 40256 58015 22200 00126
BBXX 64045 18184 99591 70117 46/// /2011 10074 20030 40120 57016 22200 00101 10806 70029
BBXX 62105 18184 99554 70122 46/// /2415 10093 20061 40168 57015 22200 00106 10806 70028
BBXX 2ALE5 18183 99501 70012 41598 53425 10080 20019 40179 55006 70211 85140 22214 20508 80055
BBXX A8XY2 18184 99510 70079 41398 73115 10099 20046 40223 51016 70322 8587/ 22254 04100 2//// 80073
BBXX DGUG2 18184 99408 70123 41598 20611 10125 20068 40285 53005 70100 82180 22254 04170 20401 332// 41204 80095
BBXX BAREU04 18184 99551 70192 46/// ///// 40103 57027 22263
BBXX BAREU51 18184 99381 10134 46/// ///// 40119 52021 22200
BBXX BATFR41 18184 99411 10012 46/// ///// 10102 21003 40206 53018 22200
BBXX BATFR09 18184 99461 70049 44497 53609 10094 20024 40262 53004 70282 85700 22223 00140 20102 335// 40506 5////
BBXX BATFR16 18184 99466 70047 46/// /3223 10104 20032 40253 53019 22263 00139
BBXX BAREU56 18184 99408 10143 46/// ///// 40087 52016 22222
BBXX BATUK01 18184 99584 70060 46/// /0506 10050 21010 40134 53018 22261 00107
BBXX V2OT9 18183 99396 70098 41598 50317 10140 20064 40250 53010 70111 83140 22283 20303 33300 40304 5//// 80100
BBXX 61001 18184 99434 10078 46/// /2915 10110 20026 40098 52016 22200 00150 10603 70016
BBXX BATEU03 18184 99538 70104 46/// /2617 10094 20050 40199 58006 22282 00102
BBXX BATFR02 18184 99500 70006 46/// /3232 10080 20012 40188 22284 00129
BBXX BATFR12 18184 99481 70075 46/// /3117 10109 20054 40260 53006 22281 00144
BBXX BATFR42 18184 99443 70040 46/// /3420 10107 20029 40256 22284 00152
BBXX BATEU08 18184 99621 70286 46/// /2522 10030 21023 49967 53011 22262
BBXX BATFR46 18184 99366 70031 44/96 41109 10149 20094 40215 51014 70131 83/4/ 22263 00159 21002 314// 41502 5////
BBXX BATFR04 18184 99598 70106 46/// /2007 10060 20002 40124 58011 22200 00100
BBXX BATFR60 18184 99512 10017 46/// /3029 10049 21001 40150 53028 22253 00102
BBXX BATFR54 18184 99454 70008 46/// /3212 10079 20012 40242 22273 00105
BBXX BAREU63 18184 99347 10306 46/// /1212 10183 29065 40210 52010 22263
BBXX BAREU00 18184 99516 70164 46/// ///// 40207 57010 22224
BBXX BAREU08 18184 99425 70209 46/// ///// 40298 52000 22214
BBXX 3ERR2 18184 99635 10053 41598 73221 10062 20036 49966 54000 70282 87900 22200 06100 10807 70033 333 91127
BBXX LF3F 18184 99643 10078 43/// /1111 10041 20019 49967 52007 22200 04084 10805 70025 333 91117
BBXX LF4C 18184 99584 10019 41698 63221 10058 21026 40085 52010 71582 89/// 22200 00071 10807 70036 333 91133
BBXX LF5T 18184 99660 10081 41/// /0812 10043 21027 49987 52010 700// 22200 10704 70018 333 91120
BBXX LF3N 18184 99653 10073 41497 71112 10055 20005 49970 52012 70282 8//// 22200 00088 10704 70020
BBXX LF4B 18184 99606 10037 47/98 /3222 10050 40033 52004 781// 22200 00060 10809 70045 333 91128
BBXX UCAD 18181 99641 10051 41/97 92806 10060 49957 54000 70221 88/// 22253 00080 20405
BBXX MSTM6 18183 99529 10040 41/98 12920 10055 20017 40105 52035 70181 8//// 22254 06065 2//// 3//// 4//// 5//// 80040
AAXX 18184 89050 41196 80514 10003 20000 49921 57018 72174 886//
AAXX 18184 89512 32798 81116 11022 21047 39723 49872 52008 885// 333 11010
AAXX 18184 89574 42998 00920 11013 21115 49791 57001
AAXX 18184 89592 42298 71014 11005 21029 49731 52044 84730
AAXX 18184 89606 41998 23012 11349 21405 36316 47718 57014 73630 80001 333 11272
AAXX 18184 40250 32960 01304 10114 21049 39440 40247 52016 333 10188
AAXX 18184 40265 32960 00000 10075 21058 39443 40259 52008 333 10166
AAXX 18184 40296 32960 00000 10154 20069 40190 52007 333 10220
AAXX 18184 40310 NIL
AAXX 18184 94996 455// 21811 10183 20114 39988 40124 53002 91830
AAXX 18181 55299 32980 00000 11136 21268 35835 57008 333 05202 10008
AAXX 18181 55591 32980 00901 11019 21203 36478 57001 333 05200 10116
AAXX 18181 56739 32580 13601 10055 20033 38373 57004 81100 333 00000 10176
AAXX 18181 56951 32670 10000 10080 20058 38530 54000 81100 333 00000 10206
AAXX 18181 56964 32565 71101 10125 20091 38742 40188 57003 874// 333 00051 10193
AAXX 18181 57328 31957 80000 10059 20020 39860 40281 57009 71000 8807/ 333 10112
AAXX 18181 57411 31720 80401 10058 20036 39902 40285 57012 71000 885// 333 10068
AAXX 18181 57447 32962 80000 10061 20038 39742 40299 57005 8807/ 333 10094
AAXX 18181 57662 32962 03201 10038 21030 30260 40305 57003 333 10113
AAXX 18181 57745 32960 70000 10039 20004 39963 40300 57004 8704/ 333 10117
AAXX 18181 57972 32963 00000 10049 20014 30063 40295 57005 333 10109
AAXX 18181 58203 32965 01101 11019 21074 30282 40325 54000 333 10075
AAXX 18181 58314 32965 00000 11044 21045 30207 40319 57003 333 10063
AAXX 18181 58424 31950 03601 10008 21044 30292 40319 57003 71000 333 10046
AAXX 18181 59023 31758 81602 10099 20041 39950 40265 57002 70500 885// 333 10155
AAXX 18181 59417 32961 01401 10142 20063 30076 40231 57016 333 10186
AAXX 18181 59985 32570 70406 10234 20189 30153 40158 57013 878// 333 10249
AAXX 18181 59995 NIL
AAXX 18184 94996 455// 21811 10183 20114 39988 40124 53002 91830
BBXX 46185 18181 99524 71298 46/// /2301 10058 40275 52018 22200 00074 11003 70014 333 91202
BBXX 46185 18181 99524 71298 46/// /2301 10058 40275 52018 22200 00074 11003 70014 333 91202
AAXX 18180 44214 32998 00000 11292 21326 38331 40576 52001
AAXX 18180 44231 319// 00000 11329 21389 38813 40603 57006 70400
AAXX 18180 44259 32997 02907 11203 21250 39374 40352 58003 333 91112
AAXX 18180 44277 329// 02502 11277 21301 37818 40585 57002
AAXX 18180 44288 32999 02802 11190 21279 38194 40452 57009
AAXX 18180 44292 418// 50000 11281 21304 38775 40506 56005 70272 84051
AAXX 18180 44304 329// 02304 11281 21311 39061 40438 57003
AAXX 18180 44354 329// 00000 11274 21298 39188 40451 57006
AAXX 18180 44373 32999 22501 11204 21249 38581 40427 57006 80004
AAXX 18181 24790 42999 50501 11388 21405 39350 40279 54000 80001
AAXX 18181 24988 42999 02902 11224 21236 39860 40129 57005
AAXX 18181 25378 31994 03413 11156 21198 39931 49965 56004 73830 333 21200 48006 91126
AAXX 18181 25503 41698 81003 11323 21346 30081 40223 57007 77072 8652/
AAXX 18181 25705 41998 82701 11379 21403 39861 40240 54000 77172 82037
AAXX 18181 25927 42998 03104 11175 21225 30061 40068 53004
AAXX 18181 25932 NIL
AAXX 18181 31152 42997 81801 11330 21360 39820 40273 54000 86036
AAXX 18181 31174 41998 10103 11244 21250 30171 40184 52001 70271 80001
AAXX 18181 31489 42997 00000 11316 21345 30085 40217 52002
AAXX 18181 31866 42999 03006 11139 21246 30166 40172 52002
AAXX 18181 31959 42999 03101 11130 21204 30160 40205 54000
AAXX 18181 31989 42999 20701 11096 21187 30169 40225 57003 80001
AAXX 18181 32027 41597 83207 11138 21158 30133 40142 52005 78583 889// 333 91009 91111
AAXX 18181 32076 42998 73103 11089 21155 30081 40091 52002 87070 333 91006 91107
AAXX 18181 32099 42598 23313 11080 21102 30093 40101 52004 82200 333 91015 91117
AAXX 18181 32121 41497 83605 11103 21139 30115 40138 52002 78582 889// 333 91008 91108
AAXX 18181 32213 42998 03603 11048 21058 39901 49965 53007
AAXX 18181 32287 42999 00303 11107 21127 39990 40000 57001
AAXX 18181 32408 41999 20204 11172 21198 39924 49964 52000 70230 81031
AAXX 18181 32509 41998 03207 11081 21162 39920 49955 58008 73630
AAXX 18181 32594 42998 20904 11147 21167 39923 49960 53002 80001
AAXX 18181 38725 426// 80902 11021 21071 48500 52003 889//
AAXX 18181 38844 426// 61802 11002 21131 48500 52014 83902
AAXX 18181 38599 32497 82709 11020 21050 39795 40333 52024 889// 333 10005 84715 84956 91115
AAXX 18181 38954 328// 80000 11013 21042 37941 48530 57014 8552/ 333 10002
AAXX 18181 60376 16/// /3002 10106 20056 60022 333 10154
AAXX 18181 60593 36/// /0604 10168 333 10195
BBXX A8AF6 18183 99400 70117 41598 40512 10130 20074 40275 54000 70311 844// 22243 02160 20202 334// 40704 80100
AAXX 18184 61017 32960 50000 10153 20032 39726 40132 80002 333 10260 59017 85080
AAXX 18184 61024 32960 21604 10212 20010 39556 40132 80002 333 10276 59015 82080 P045
AAXX 18184 61036 32960 70000 10266 20000 39869 40109 80008 333 10305 59013 87280
AAXX 18184 61043 32960 71204 10267 21035 39660 40105 80008 333 10302 59021 87280
AAXX 18184 61045 31958 70000 10214 21001 39618 40124 7052/ 80008 333 10278 59015 87280
AAXX 18184 61049 NIL
AAXX 18184 61052 31956 50404 10272 21001 39850 40109 70620 80002 333 10310 59012 85080
AAXX 18184 61075 32960 50000 10258 20037 39788 40099 80002 333 10327 59017 85080
AAXX 18184 61080 32960 70000 10240 20023 39688 40114 80008 333 10290 59022 87280
AAXX 18184 61090 32960 70000 10234 21029 39598 40114 80008 333 10282 59021 87280
AAXX 18184 61091 32960 70000 10210 20075 39666 40134 80008 333 10295 59014 87280
AAXX 18184 61096 32960 70000 10222 20009 39734 40123 80008 333 10292 59013 87280
AAXX 18184 61099 31956 73604 10294 20046 39858 40087 70622 80008 333 10328 59015 87280
AAXX 18184 06610 01557 82104 10010 21032 39592 40191 52023 69912 71072 8377/ 333 10019 32/// 55300 20000 60005 83720 85356 90766 93100 91116 91209
AAXX 18184 06670 01465 72305 10008 21017 39649 40173 53023 69972 70287 875// 333 10018 42001 55300 20000 60005 81719 84623 86656 90766 93100 91114 91209
AAXX 18184 06700 01575 72106 10013 21031 39693 40200 51021 69942 71587 868// 333 10031 31/// 55300 20000 60005 81630 86650 90766 93100 91113 91209
AAXX 18184 06680 01/01 93106 11141 21153 37398 47912 51011 60062 77174 333 11131 47167 55300 20000 69925 90766 93105 91138 91223
AAXX 18184 06990 01450 81602 11003 21007 39611 40174 52016 60012 77822 887// 333 10010 43/// 55300 20000 69965 88719 91109 91204
AAXX 18184 06760 32982 13402 10026 21073 39685 40141 53020 81040 333 10062 31/// 55300 20000 81360 90766 93100 91107 91204
AAXX 18184 06720 01450 8//// 10007 21008 39592 40183 53017 60022 77377 887// 333 10021 47998 55300 20000 69915 88711 90766 93100
BBXX A8AF6 18183 99400 70117 41598 40512 10130 20074 40275 54000 70311 844// 22243 02160 20202 334// 40704 80100
AAXX 18184 40255 32960 00000 10116 20009 39509 40237 52010 333 10180
AAXX 18184 40260 32960 00000 10076 21070 39450 40252 52036 333 10175
AAXX 18184 40270 31950 01103 10112 21054 39325 40238 52003 70500 333 10176
AAXX 18184 40272 32960 20912 10108 21037 39395 40245 52014 80001 333 10190 82070
AAXX 18184 40290 NIL
AAXX 18184 40340 NIL
BBXX NIL
BBXX NIL
BBXX NIL
BBXX NIL
BBXX NIL
AAXX 18184 40250 32960 01304 10114 21049 39440 40247 52016 333 10188
AAXX 18184 40265 32960 00000 10075 21058 39443 40259 52008 333 10166
AAXX 18184 40296 32960 00000 10154 20069 40190 52007 333 10220
AAXX 18184 40310 NIL
AAXX 18184 62309 32960 01202 10143 20099 40188 52008 333 10210
AAXX 18184 62325 32960 00000 10174 20135 40205 52011 333 10216
AAXX 18184 62332 32560 30605 10180 20141 40194 52007 83500 333 10190
AAXX 18184 62387 32960 03402 10138 20099 40180 52010 333 10206
AAXX 18184 62459 32960 50000 10192 20140 40168 52005 80008 333 10216
AAXX 18184 62452 32960 01903 10102 20011 40213 52011 333 10207
AAXX 18184 62309 32960 01202 10143 20099 40188 52008 333 10210
AAXX 18184 62325 32960 00000 10174 20135 40205 52011 333 10216
AAXX 18184 62332 32560 30605 10180 20141 40194 52007 83500 333 10190
AAXX 18184 62387 32960 03402 10138 20099 40180 52010 333 10206
AAXX 18184 62459 32960 50000 10192 20140 40168 52005 80008 333 10216
AAXX 18184 62452 32960 01903 10102 20011 40213 52011 333 10207
AAXX 18181 23973 41997 81804 11190 21209 30214 40281 57024 77173 8802/
AAXX 18181 23975 415// 82503 11152 21179 30165 40281 57025 77172 8872/
AAXX 18181 23986 41496 81904 11223 21242 39614 40302 58015 78583 8632/
AAXX 18181 23987 41496 81303 11216 21241 30223 40303 57020 78583 889//
AAXX 18181 24606 418// 80000 11200 21219 39916 40201 57007 77172 8807/
AAXX 18181 29253 419// 82302 11170 21196 30145 40330 57017 77172 8802/
AAXX 18181 29471 41596 30000 11222 21241 30131 40382 57019 71081 83900
AAXX 18181 29481 42999 01501 11291 21316 30109 40378 57024
AAXX 18181 29553 41959 82302 11219 21232 30009 40412 57012 71011 8801/
AAXX 18181 29562 42984 30202 11236 21262 39954 40416 57016 83030
AAXX 18181 29581 429// 61002 11259 21284 30102 40389 57020 80001
AAXX 18181 29594 42999 81501 11250 21274 39962 40389 57018 80001
AAXX 18181 29653 42997 00000 11268 21293 39894 40438 57012
AAXX 18181 29675 NIL
AAXX 18181 29676 41998 00000 11285 21310 39930 40410 57020 70270
AAXX 18181 29752 429// 02802 11146 21166 38899 48537 57002
AAXX 18181 29759 429// 00000 11211 21223 39326 40449 58001
AAXX 18181 29766 42999 00000 11314 21330 30066 40474 54000
AAXX 18181 29789 42999 00000 11301 21313 39145 40484 57006
AAXX 18181 29864 429// 03204 11272 21303 39729 40461 57005
AAXX 18181 29866 419// 80000 11279 21296 30099 40463 53001 71022 80008
AAXX 18181 29869 419// 60000 11278 21297 30052 40476 53015 71022 80001 333 95090
AAXX 18181 29956 42984 00000 11307 21330 39844 40485 58001
AAXX 18181 30337 41597 71805 11200 21233 39892 40378 57017 78582 85901
AAXX 18181 30405 419// 80000 11269 21293 39816 40407 57017 70287 80001
AAXX 18181 30504 41997 70000 11287 21306 39697 40427 57013 70272 80002
AAXX 18181 30603 41996 00000 11296 21307 39790 40436 57009 71000
AAXX 18181 30612 419// 80000 11267 21285 39837 40433 57015 77171 8807/
AAXX 18181 30622 429// 00000 11337 21359 39718 40459 57011
AAXX 18181 30627 42998 32501 11260 21284 39395 40427 57011 83070
AAXX 18181 30703 429// 00000 11322 21334 39680 40449 56011
AAXX 18181 36307 NIL
AAXX 18181 23074 41997 80703 11177 21196 30181 40208 53004 72272 8807/
AAXX 18181 23274 41397 81501 11160 21173 30166 40204 53002 78582 889// 333 86710
AAXX 18181 23383 41897 80000 11249 21267 39856 40247 57006 77172 8802/
AAXX 18181 23472 41496 81303 11169 21195 30158 40209 57007 78582 889//
AAXX 18181 23678 414// 80901 11194 21220 30168 40231 57030 78582 889//
AAXX 18181 23884 419// 81601 11190 21209 30188 40268 57031 77172 8802/
AAXX 18181 23891 41996 02802 11210 21250 39922 58004 70271
AAXX 18181 24507 419// 63601 11182 21201 39951 40208 57001 70272 83031
AAXX 18181 24817 415// 81902 11155 21174 39822 40208 57012 78582 889//
AAXX 18181 24908 41997 82303 11174 21200 39892 40241 57018 77172 8802/
AAXX 18181 29263 41959 82001 11184 21203 30219 40327 57021 77172 8805/
AAXX 18181 29282 41965 82404 11180 21214 30132 40315 57017 77072 8807/
AAXX 18181 29379 41998 71701 11234 21259 30136 40366 57024 70272 8705/
AAXX 18181 29570 415// 52702 11163 21182 30008 40381 57020 78582 85900
AAXX 18181 29698 429// 00000 11296 21315 39839 40421 57019
AAXX 18181 30230 41597 82104 11167 21209 39972 40321 57016 78582 84941
AAXX 18181 30252 416// 80000 11152 21165 39938 40271 56011 78582 87901
AAXX 18181 30309 41497 81801 11227 21246 39810 40382 57014 77171 886//
AAXX 18181 30328 419// 81603 11242 21267 39937 40408 57016 77177 83027
AAXX 18181 30521 429// 00000 11328 21345 39848 40449 57011
AAXX 18181 30710 41595 70601 11246 21265 39780 40427 57011 71011 82531
AAXX 18183 42071 31995 20000 10074 20047 40203 70510 80001 333 58021 82070
AAXX 18184 42027 32596 20000 11012 21026 38460 48548 82500 333 58010
AAXX 18184 42101 31993 00000 10070 20066 40200 74144 333 58024
AAXX 18184 42111 31995 00000 10084 20076 39395 40194 71000 333 58015
AAXX 18184 42131 32996 00901 10078 20051 40190 333 58014
AAXX 18184 42165 31995 00000 10130 20032 40171 70500 333 58011
AAXX 18184 42182 31993 90000 10090 20082 40195 74500 333 58013
AAXX 18184 42189 31/93 90000 10096 20096 40186 74344 333 58///
AAXX 18184 42328 32996 00501 10138 21007 40168 333 58011
AAXX 18184 42339 31995 00501 10122 20026 40162 70500 333 58002
AAXX 18184 42348 31995 00000 10124 20051 40187 70400 333 58001
AAXX 18184 42361 31995 00000 10076 20063 40196 70500 333 58015
AAXX 18184 42369 31/91 90000 10090 20082 40194 74544 89/// 333 58006
AAXX 18184 42379 31/90 90000 10084 20058 40182 74740 89/// 333 58001
AAXX 18184 42452 32996 00000 10160 20081 40182 333 58007
AAXX 18184 42475 31/91 90000 10102 20098 40190 74744 333 58014
AAXX 18184 42071 NIL
AAXX 18184 42260 NIL
AAXX 18184 71214 16/// /2910 11019 21057 60001 333 11008 21058 70000
AAXX 18184 71223 16/// /3211 11026 21066 60001 333 11009 21047 70000
AAXX 18184 71225 16/// /3212 11010 21014 60001 333 10052 21014 70000
AAXX 18184 71227 46/// /3011 11018 21045 6///1 333 11001 21051 7////
AAXX 18184 71233 16/// /2906 11016 21032 60001 333 10004 21032 70040
AAXX 18184 71257 16/// /3107 11018 21039 60001 333 11001 21041 70028
AAXX 18184 71258 17/// /2907 11025 21031 69951 7//4/ 333 10035 21040 70020
AAXX 18184 71259 16/// /3012 11010 21041 60001 333 10041 21046 70000
AAXX 18184 71274 46/// /3210 11023 21104 6///1 333 11001 21035 7////
AAXX 18184 71275 46/// /3011 11027 21081 6///1 333 10002 21085 7////
AAXX 18184 71278 16/// /3110 11012 21066 60001 333 10006 21045 70000
AAXX 18184 71286 16/// /3212 11013 21061 60001 333 10008 21040 70000
AAXX 18184 71287 16/// /3010 11021 21099 60001 333 11001 21037 70000
AAXX 18184 71289 16/// /2906 11012 21034 60001 333 10000 21039 70006
AAXX 18184 71445 16/// /3317 11044 21062 39744 40021 53012 60001 333 11036 21072 70006 555 10020
AAXX 18184 71916 46/// /1402 11399 21438 30027 40086 58011 6///1 333 11394 21408 7////
AAXX 18184 71683 46/// /1003 11268 39905 40020 58022 6///1 333 11247 21278 7////
AAXX 18184 71351 16/// /3005 11006 21045 60001 333 10010 21023 70006
AAXX 18184 71353 16/// /3210 11020 21048 60001 333 10013 21032 7////
AAXX 18184 71464 46/// ///11 10005 39996 40214 50001 6///1 333 10007 21032 7////
AAXX 18184 71466 46/// ///// 10017 6///1 333 10020 21019 7////
AAXX 18184 71525 16/// /3409 11004 21014 60001 333 10060 21006 70000
AAXX 18184 71535 17/// /3109 11007 21016 69971 7//4/ 333 10101 21011 70007
AAXX 18184 71536 17/// /0309 11017 21022 60021 7//4/ 333 10098 21017 70016
AAXX 18184 71537 16/// /2808 11007 21024 60001 333 10048 21010 70000
BBXX FLAO 1818/ 99764 70847 46/// ///// 11278 49913 52003
BBXX MINFR00 1818/ 99320 70803 46/// ///// 10130 40259 57004
AAXX 18181 01257 11478 82201 11044 21048 39817 49982 58004 60002 70222 8757/ 333 11037 91103
AAXX 18181 51711 32980 02901 11167 21195 37990 57001 333 05452 11094
AAXX 18181 51730 32970 60000 11091 21106 40300 54000 80002 333 05402 11014
AAXX 18181 52112 32980 03201 11136 21181 40349 52007 333 05251 11049
AAXX 18181 52737 32980 00201 11097 21302 37064 57014 333 05202 11006
AAXX 18181 52787 32980 01602 11111 21162 37004 57010 333 05201 11008
AAXX 18181 53352 32980 01402 11201 21218 40395 57007 333 11090
AAXX 18181 53593 32960 72701 11102 21163 40341 57007 80002 333 11030
AAXX 18181 53705 32965 22201 11076 21123 40323 57010 80002 333 05201 11010
AAXX 18181 53863 31930 01601 11037 21058 40318 57010 71000 333 10002
AAXX 18181 53975 32961 02501 11042 21083 40322 54000 333 10053
AAXX 18181 54273 32970 00000 11239 21269 40321 52005 333 11086
AAXX 18181 54324 32965 02002 11132 21212 40329 52003 333 10000
AAXX 18181 54405 32970 00401 11089 21216 40331 57004 333 11010
AAXX 18181 54436 32980 02901 11129 21176 40341 52005 333 10010
AAXX 18181 54808 32961 01401 11029 21057 40320 54000 333 10051
AAXX 18181 54826 32980 02508 11067 21109 38513 57002 333 11012
AAXX 18181 54836 32962 00000 11048 21069 40334 52001 333 10049
AAXX 18181 54863 31956 02501 11034 21088 40324 54000 71000 333 10039
AAXX 18181 56018 32980 02201 11125 21239 36166 57009 333 05303 11015
AAXX 18181 56021 32980 00000 11178 21276 36057 57011 333 05251 11019
AAXX 18181 57071 31940 03601 11006 21047 40317 57003 71000 333 10046
AAXX 18181 38388 32998 00504 11045 21101 30292 40367 52025 333 10008
AAXX 18184 48387 31958 00000 10148 20141 39185 40166 57008 71000 333 59001
AAXX 18184 68513 36/// /1809 10188 20147 30031 40143 53013 333 10228 20188 91013 555 91014
AAXX 18184 68514 36/// ///// 1//// 2//// 3//// 4//// 5//// 333 1//// 2//// 555
AAXX 18184 68523 36/// /2211 10288 20032 39086 48519 52033 333 10406 20288 91016 555 91014
AAXX 18184 68527 36/// /2617 10324 20062 39037 48501 53006 333 10397 20321 91028 555 91012
AAXX 18184 68572 32780 21902 10194 20162 38422 48530 52011 82100 333 10322 20194 91003 555 91022
AAXX 18184 68575 NIL
AAXX 18184 68581 36/// /1003 10187 20177 39394 48539 53010 333 10260 20187 91006 555 91017
AAXX 18184 68583 36/// /0605 10231 20183 30048 40157 53007 333 10264 20230 91011 555 91016
AAXX 18184 68589 36/// /1102 10202 20163 38278 48535 53010 333 10294 20201 91004 555 91024
AAXX 18184 68613 36/// /2605 10169 20143 30036 40152 53007 333 10227 20169 91009 555 91015
AAXX 18184 68647 36/// /1008 10268 20098 38883 48493 53001 333 10363 20268 91010 555 91014
AAXX 18184 68651 36/// /0804 10251 20107 38560 48524 53002 333 10328 20250 91007 555 91020
AAXX 18184 68715 36/// /2205 10197 20158 39997 40123 52021 333 10330 20197 91013 555 91012
AAXX 18184 68717 36/// /2310 10207 20144 39981 40123 52028 333 10338 20207 91014 555 91012
AAXX 18184 68723 36/// /2705 10308 21004 39334 48500 52016 333 10399 20308 91010 555 91009
AAXX 18184 68737 31670 70808 10308 20063 39199 48503 52011 71322 873// 333 10421 20302 91014 555 91011
AAXX 18184 68744 32580 83509 10322 20036 39050 48491 52023 885// 333 10399 20322 91015 555 91011
AAXX 18184 68747 36/// /2204 10316 20201 39530 48491 56011 333 10386 20316 91007 555 91006
AAXX 18184 68754 36/// /0104 10242 20193 39097 48497 53004 333 10363 20240 91007 555 91013
AAXX 18184 68817 36/// /2708 10205 20163 30108 40120 53008 333 10306 20205 91017 555 91012
AAXX 18184 68821 36/// /2916 10260 20112 39843 40074 52015 333 10340 20256 91021 555 91008
AAXX 18184 68835 36/// /0603 10217 20185 39971 40083 52018 333 10299 20216 91006 555 91008
AAXX 18184 68843 36/// /0810 10212 20170 39946 40043 58007 333 10285 20212 91016 555 91004
AAXX 18184 68849 36/// /0811 10264 20168 39339 48478 57008 333 10332 20262 91015 555 91008
AAXX 18184 68912 36/// /2406 10182 20156 30118 40127 52015 333 10219 20181 91007 555 91012
AAXX 18184 68918 36/// /2503 10204 20165 30100 40118 53003 333 10232 20204 91004 555 91011
AAXX 18184 68921 36/// /2206 10210 20162 30104 40107 53007 333 10248 20209 91009 555 91010
AAXX 18184 68925 36/// /1703 10192 20147 39750 40109 53007 333 10289 20192 91006 555 91011
AAXX 18184 68926 32969 21306 10212 20164 39928 40104 52020 80002 333 10298 20212 91010 555 91010
AAXX 18184 68935 36/// /2705 10205 20169 30034 40097 52011 333 10263 20204 91008 555 91009
BBXX 46208 18181 99525 71327 46/// /1907 10072 40251 5//// 22200 00076 11406 70030 333 91210
BBXX VRCZ7 18183 99423 70097 41698 10410 10120 20029 40283 53/// 70200 811// 22285 2//// 3//// 4//// 5//// 80080
BBXX DCPX2 18184 99145 10419 41997 01515 10276 20223 40130 52010 70200 80000 22234 00270 2//// 80238
BBXX TBWUK17 18183 99152 30882 41397 31112 10259 20242 40146 51020 70111 83145 22253 04279 20403 31919 40404 50302 80247
BBXX 46208 18181 99525 71327 46/// /1907 10072 40251 5//// 22200 00076 11406 70030 333 91210
AAXX 18181 50548 32980 00000 11248 21280 40292 52006 333 11110
AAXX 18181 50564 32970 02202 11245 21266 40265 52009 333 11114
AAXX 18181 51334 32970 12501 11142 21165 40346 52001 80002 333 05257 11056
AAXX 18181 51818 32965 40000 11087 21125 40278 57004 80002 333 05301 11008
AAXX 18181 52378 32980 00901 11154 21228 40363 57010 333 05255 11056
AAXX 18181 53487 32961 53402 11111 21168 40339 57005 82032 333 11030
AAXX 18181 53502 32980 50000 11146 21206 40354 57014 80002 333 05401 11038
AAXX 18181 53923 32980 00701 11047 21057 40293 57006 333 10023
AAXX 18181 54049 32970 02502 11165 21217 40295 52004 333 11060
AAXX 18181 54115 32980 02503 11149 21226 40343 57003 333 11060
AAXX 18181 54157 32962 00000 11151 21190 40309 52007 333 11059
AAXX 18181 54186 32970 02203 11161 21203 40292 52001 333 11088
AAXX 18181 54311 32980 00203 11180 21244 40362 57002 333 11056
AAXX 18181 54346 32965 00902 11135 21175 40321 52001 333 11034
AAXX 18181 54377 32970 00202 11154 21181 40330 52007 333 11042
AAXX 18181 54386 32970 00202 11216 21248 40324 52009 333 11080
AAXX 18181 54493 32970 00000 11153 21174 40322 52004 333 11031
AAXX 18181 54587 NIL
AAXX 18181 54715 32962 01601 11048 21077 40322 57004 333 10043
AAXX 18181 54929 32960 00000 11045 21065 40331 52002 333 10049
AAXX 18181 54945 32960 02902 11006 21072 40327 57005 333 10056
AAXX 18181 56065 32980 11101 11153 21197 36619 57008 80002 333 05102 10020
AAXX 18181 57193 32962 00000 11007 21079 40321 54000 333 10071
AAXX 18181 57290 32962 02201 10018 21068 40316 57001 333 10073
BBXX 4XFX 18184 99547 71750 41/98 32727 00/// 10000 20000 49790 54000 70000 83/// 22264 04040 2//// 3//// 4//// 5//// 6//// 80000
BBXX A8CN8 18180 99557 71511 41296 81927 10050 49810 56010 70222 887// 22263 00040 2//// 323// 4//10 5////
BBXX A8JX9 18183 99547 71752 41/// ///// 10015 20005 49795 53011 700// 8//// 22264 29903 3//// 4//// 5//// 80011
BBXX DGTX 18183 99330 71783 41/98 /3114 10190 20142 40148 53013 70182 8//// 22264 00230 2//// 80160
BBXX DIHC 18183 99358 71797 41297 43416 10140 20124 40120 54000 7//// 8377/ 22264 00180 20602
BBXX SBLI 18181 99300 71737 43/98 42312 10224 40172 55003 22263 00228 2//// 4////
BBXX SHIP 18184 99417 71774 41797 52724 10080 20060 40058 51002 70300 85485 22224 00140 20308 327// 40206 5//// 6//// 80070 ICE /////
AAXX 18184 68575 NIL
BBXX 46145 18181 99544 71324 46/// /1608 10054 40235 57003 22200 00072 11505 70026 333 91210
BBXX 46145 18181 99544 71324 46/// /1608 10054 40235 57003 22200 00072 11505 70026 333 91210
BBXX 46206 18181 99488 71260 46/// /3209 10085 40247 52018 22200 00092 11507 70035 333 91212
AAXX 18184 41958 31915 00000 10130 20130 30155 40157 71044 333 59003 70000
BBXX 46206 18181 99488 71260 46/// /3209 10085 40247 52018 22200 00092 11507 70035 333 91212
AAXX 18184 68174 31865 10509 10222 20128 38802 48529 53006 70500 81060 333 10303 20222 91013 555 91019
AAXX 18184 68191 36/// /1006 10258 20144 39648 48560 53010 333 10344 20258 91010 555 91015
AAXX 18184 68242 32980 00207 10267 20053 38725 48511 53001 333 10325 20267 91009 555 91017
AAXX 18184 68262 36/// /0000 10266 20105 38705 48517 55000 333 10319 20266 91001 555 91018
AAXX 18184 68263 32980 03104 10249 20102 38494 48519 55000 333 10292 20249 91004 555 91020
AAXX 18184 68267 NIL
AAXX 18184 68289 36/// /0604 10234 20131 39171 48549 53010 333 10284 20234 91005 555 91019
AAXX 18184 68350 36/// /0103 10256 20112 38668 48522 51000 333 10348 20256 91004 555 91019
AAXX 18184 68368 41980 10601 10250 20068 38336 48533 53003 70500 81082 333 10282 555 91023
AAXX 18184 68403 36/// /2307 10187 20161 30141 40174 53020 333 10210 20187 91012 555 91017
AAXX 18184 68424 12782 62210 10292 20124 39172 48515 53016 69922 82970 333 10413 20272 91014 555 20002 69925 91013
AAXX 18184 68438 31782 60913 10267 20069 38808 48510 53006 71722 82972 333 10362 20267 91021 555 91016
AAXX 18184 68442 32782 51607 10242 20095 38668 48523 53012 81272 333 10341 20242 91010 555 91019
AAXX 18184 68461 32580 41004 10221 20097 38338 48521 53007 84500 333 10295 20221 91007 555 91022
AAXX 18184 68512 32882 12312 10162 20112 39015 48508 53003 81080 333 10334 20162 91016 555 91017
AAXX 18184 68538 11774 50409 10271 20097 38700 48491 52013 60012 71399 83970 333 10378 20253 91012 555 20016 69925 91015
AAXX 18184 68587 NIL
AAXX 18184 68588 36/// /0210 10232 20175 30151 40167 52012 333 10274 20232 91019 555 91016
AAXX 18184 68591 NIL
AAXX 18184 68592 NIL
AAXX 18184 68618 32780 22711 10235 20085 39036 48512 53013 81331 333 10384 20235 91019 555 91015
AAXX 18184 68633 36/// /0310 10264 20056 38508 48503 52020 333 10357 20244 91017 555 91018
AAXX 18184 68668 32970 01507 10230 20188 39265 48502 52002 333 10321 20230 91009 555 91013
AAXX 18184 68714 36/// /2212 10187 20148 30092 40128 52021 333 10260 20186 91017 555 91012
AAXX 18184 68727 36/// /2206 10336 21004 39066 48483 52027 333 10404 20336 91010 555 91009
AAXX 18184 68752 36/// /0513 10265 20209 39403 48488 57006 333 10339 20265 91017 555 91008
AAXX 18184 68816 32582 11909 10205 20159 30065 40119 53013 81580 333 10253 91015 555 91012
AAXX 18184 68828 32470 42303 10189 20179 39871 40101 53015 84500 333 10243 555 91010
AAXX 18184 68842 32460 72317 10197 20166 30001 40070 53012 8768/ 333 10242 555 91007
AAXX 18184 68858 31970 20514 10214 20186 39920 40073 58005 70500 80002 333 10272 91025 555 91007
AAXX 18184 68906 31498 82821 10131 20097 30090 40155 53003 75055 885// 222// 00119 20401 333 10155 20129 91038 555 91015
AAXX 18184 68994 31393 82913 10091 20089 30154 40183 50000 74744 886// 222// 00070 333 10102 20084 91019 555 91018
AAXX 18184 89004 36/// /0831 11086 21086 38830 49844 52008 333 11081 21087 91036 555
AAXX 18181 28334 32497 82302 11065 21111 30145 40466 52004 8757/ 333 11075
AAXX 18184 42559 32996 00000 10136 20070 40175 333 58007
AAXX 18184 42571 31996 00000 10126 20095 40185 70500 333 58005
AAXX 18184 42667 32996 00702 10160 20090 39575 40179 333 58007
AAXX 18184 42675 31996 00000 10120 20066 40186 70500 333 58003
AAXX 18184 42754 31996 00904 10180 20097 39518 40165 70500 333 58003
AAXX 18184 42779 32996 00000 10130 20048 39465 40187 333 58003
AAXX 18184 42867 31995 03402 10172 20121 40164 70500 333 58003
AAXX 18184 42874 32996 00000 10172 20109 40161 333 58000
AAXX 18184 42933 32996 00000 10186 20117 40141 333 59007
AAXX 18184 43041 32996 00000 10138 20085 39543 40182 333 58004
AAXX 18184 60210 11565 71206 10134 20035 39005 48527 52019 69902 72582 8457/ 333 10178 84826 85358
AAXX 18181 50658 32962 03204 11194 21200 40270 52001 333 11137
AAXX 18181 50888 32980 02703 11156 21209 40237 52001 333 11090
AAXX 18181 50983 32970 03201 11191 21220 40248 52002 333 11095
AAXX 18181 51053 32975 02701 11225 21250 40401 52005 333 00056 11137
AAXX 18181 51542 32980 02701 11260 21288 37529 52003 333 05252 11134
AAXX 18181 52436 32980 00905 11128 21178 38475 40296 57013 333 05352 11031
AAXX 18181 52908 32980 02505 11143 21296 35725 57014 333 05304 11051
AAXX 18181 52996 31/00 91403 11089 21093 37561 57013 74944 333 05351 11054
AAXX 18181 53083 32980 00000 11293 21322 40448 57004 333 05251 11194
AAXX 18181 53764 32965 73202 11028 21085 40301 57013 8703/ 333 10026
AAXX 18181 53787 32970 53401 11077 21099 40311 57005 80002 333 10034
AAXX 18181 54096 32970 02705 11159 21196 40259 52001 333 11101
AAXX 18181 54226 32980 03402 11099 21225 40324 52001 333 11028
AAXX 18181 54259 32965 00000 11192 21219 40328 52007 333 11066
AAXX 18181 54527 32960 02001 11050 21111 40324 57006 333 10033
AAXX 18181 54534 32965 30401 11080 21132 40320 57001 80002 333 10022
BBXX 46205 18181 99542 71343 46/// /1811 10071 40204 57017 22200 00078 11407 70034 333 91214
BBXX 46132 18181 99497 71279 46/// /3210 10072 4//// 5//// 22200 0//// 1//// 70/// 333 912//
BBXX 46132 18181 99497 71279 46/// /3210 10072 4//// 5//// 22200 0//// 1//// 70/// 333 912//
BBXX 46205 18181 99542 71343 46/// /1811 10071 40204 57017 22200 00078 11407 70034 333 91214
BBXX 46181 18181 99538 71288 46/// /0605 10022 40277 52017 22200 00054 10300 70001 333 91206
BBXX 44062 18181 99386 70764 46/// /3606 1//// 91820 22200 00085 333 91208
BBXX 44062 18181 99386 70764 46/// /3605 1//// 40222 91810 22200 00085 333 91207
BBXX 44062 18181 99386 70764 46/// /0106 10030 40222 58024 91800 22200 00085 10201 70004 333 91207
BBXX 44063 18181 99390 70764 46/// /0603 1//// 91820 333 91205
BBXX 44063 18181 99390 70764 46/// /0701 1//// 40262 91810 333 91205
BBXX 44063 18181 99390 70764 46/// /0403 10023 40260 58005 91800 22200 00076 1//00 70001 333 91205
BBXX 44041 18181 99372 70768 46/// /3006 1//// 91820 333 91208
BBXX 44041 18181 99372 70768 46/// /3105 1//// 40272 91810 333 91207
BBXX 44041 18181 99372 70768 46/// /3104 10054 40272 58011 91800 22200 00093 1//00 70001 333 91207
BBXX 44042 18181 99380 70763 46/// /3406 1//// 91820 333 91209
BBXX 44042 18181 99380 70763 46/// /3305 1//// 40249 91810 333 91207
BBXX 44042 18181 99380 70763 46/// /3405 10041 40249 58005 91800 22200 00090 10201 70003 333 91206
BBXX 44043 18181 99392 70764 46/// /0602 1//// 91820 333 91203
BBXX 44043 18181 99392 70764 46/// /0502 1//// 40248 91810 333 91203
BBXX 44043 18181 99392 70764 46/// /0602 10019 40248 58003 91800 22200 00073 1//00 70001 333 91203
AAXX 18184 89020 46/// /3508 11016 21040 39818 49853 52033 91750
BBXX AMOUK15 18184 99112 50110 46/// ///// 10229 20177 30120 40155 57012 91750
BBXX ZDLS1 18183 99521 30048 41496 83125 10017 21005 49704 57017 70272 885// 22252 04015 20204 330// 40510 80009
BBXX PDWZ 18183 99284 70148 41297 80121 10181 40232 53012 70011 8/7// 22283 20304
AAXX 18181 47008 42970 00000 11058 21136 30195 40251 58003
AAXX 18181 47014 42950 00000 11204 21216 39875 40316 54000
AAXX 18181 47016 42970 00000 11196 21229 39403 40312 53003
AAXX 18181 47020 42965 00000 11157 21170 39935 40348 53012
AAXX 18181 47025 42960 00000 11069 21161 30218 40248 52005
AAXX 18181 47035 42962 00000 11088 21120 30302 40311 54000
AAXX 18181 47041 42970 00000 11067 21164 30235 40265 52005
AAXX 18181 47055 NIL
AAXX 18181 47058 42960 00000 11090 21110 30263 40314 58007
AAXX 18181 47069 42965 00000 11054 21092 30199 40304 58006
AAXX 18181 30455 429// 20000 11210 21235 38920 48454 54000 82030
AAXX 18181 30731 415// 82004 11124 21159 39700 40340 57008 73683 8295/
AAXX 18181 30739 429// 01002 11275 21300 39498 40413 57013
AAXX 18181 30741 429// 03204 11177 21183 38735 48523 57002
AAXX 18181 30745 419// 02103 11203 21222 39125 40362 54000 71000
AAXX 18181 30764 42998 00000 11258 21276 39465 40342 52004
AAXX 18181 30829 42984 03202 11274 21298 39677 40451 57006
AAXX 18181 30838 42998 00000 11328 21345 39354 40477 57006
AAXX 18181 30846 42999 22204 11167 21217 39386 40353 54000 80001
AAXX 18181 30859 42999 22406 11176 21218 39437 40330 52002 80001
AAXX 18181 30862 42984 02506 11155 21206 39517 40296 53004
AAXX 18181 30957 429// 02202 11247 21259 39397 40382 57001
AAXX 18181 30967 NIL
AAXX 18181 30975 42998 00000 11345 21374 39629 40370 54000
AAXX 18181 30499 42999 02504 11289 21301 39567 40296 52003
AAXX 18181 30683 429// 00000 11291 21309 39593 40315 54000
AAXX 18181 30695 42999 22702 11304 21334 39915 40291 53001 80004
AAXX 18181 31253 42999 00000 11332 21363 39744 40260 52001
AAXX 18181 31295 42999 03206 11180 21221 39761 40245 52001
AAXX 18181 31348 NIL
AAXX 18181 31418 42984 03601 11266 21284 39939 40220 53001
AAXX 18181 31439 41997 80000 11198 21217 30132 40179 52005 77172 80005
AAXX 18181 31442 42997 00000 11300 21330 39856 40251 54000
AAXX 18181 31445 42984 02902 11306 21336 39965 40249 53002
AAXX 18181 31474 42998 00000 11372 21408 39727 40281 54000
AAXX 18181 31521 32984 00000 11304 21321 39929 40255 53001
AAXX 18181 31527 42998 02301 11290 21301 39910 40246 56001
AAXX 18181 31534 42999 00000 11307 21324 39869 40255 54000
AAXX 18181 31587 42999 02901 11225 21237 30090 40248 53004
AAXX 18181 31632 NIL
AAXX 18181 31702 42998 00202 11293 21331 39881 40256 53003
AAXX 18181 31713 42999 00000 11278 21291 30109 40219 54000
AAXX 18181 31725 42998 03202 11242 21254 40135 51002
AAXX 18181 31801 41998 00000 11273 21292 39984 40235 53003 70271
BBXX HZDD 18183 99074 11203 41398 41808 10290 20248 40070 50012 70322 82242 22264 20201 31899 40201 5//// 80260
AAXX 18184 83811 32597 33204 10280 20093 39185 40075 58011 83400
AAXX 18184 83844 32597 309// 10304 20191 30038 40045 56014 82460
AAXX 18184 83887 32597 73214 10228 20092 39048 40086 57010 84460
AAXX 18184 83907 32497 22308 10305 20114 39808 40084 57015 82200
AAXX 18184 83914 21596 62709 10250 20112 39320 40080 57009 70551 86300 333 69961
AAXX 18184 83919 31596 62713 10202 20100 38922 40091 56010 70521 83630
AAXX 18184 83927 32997 03602 10310 20158 39987 40057 57010
AAXX 18184 83936 32497 63205 10300 20115 39962 40081 57016 86200
AAXX 18184 83948 21496 61806 10245 20211 30050 40056 56002 76011 85960 333 69901
AAXX 18184 83964 31596 52306 10262 20119 39575 40056 57008 70522 85200
AAXX 18184 83995 32597 82704 10222 20153 30047 40050 54000 885//
AAXX 18184 82594 32697 20911 10314 20216 30077 40085 82200 333 59001
AAXX 18184 82780 32598 31403 10375 20171 39833 40079 83100 333 59003
AAXX 18184 82795 32597 10906 10313 20169 39500 40108 81200 333 58002
AAXX 18184 82879 32598 41406 10358 20155 39812 40072 84100 333 58007
AAXX 18184 82893 32798 41406 10290 20190 39202 40093 84200 333 58002
AAXX 18184 82979 32498 50000 10231 20176 39642 40083 85100 333 58004
AAXX 18184 82986 32598 40905 10349 20175 39800 40080 83101 333 58002
AAXX 18184 83179 32598 40504 10341 20257 39623 40065 84200 333 59010
AAXX 18184 83192 32597 51410 10330 20126 39941 40104 83240 333 59001
AAXX 18184 83339 32497 20906 10270 20175 39134 40084 82100 333 59002
AAXX 18184 83498 32595 83606 10282 20229 30131 40136 84232 333 59004
AAXX 18184 82141 32498 33608 10301 20246 30080 40092 83200 333 58000
AAXX 18184 82145 32598 50904 10324 20231 30043 40084 83240 333 59002
AAXX 18184 82181 32496 30912 10329 20218 39962 40101 81141 333 59011
AAXX 18184 82198 32495 60508 10311 20226 30038 40089 86200 333 58004
AAXX 18184 82353 32598 61802 10333 20232 39953 40036 84230 333 58004
AAXX 18184 82361 32497 63603 10316 20247 30058 40095 86300 333 59021
AAXX 18184 82476 32595 31604 10380 20203 39951 40067 83200 333 59010
AAXX 18184 82861 21597 60504 10321 20241 39880 40047 70252 86200 333 59021 69911
AAXX 18181 47090 32970 02909 11004 21201 30238 40261 53011 333 92023
AAXX 18181 47095 32968 00000 11121 21151 30112 40317 52010
AAXX 18181 47097 329// /2902 11073 21150 30207 40309 53007
AAXX 18181 47098 329// /0000 11091 21130 30165 40309 53006
AAXX 18181 47099 329// /0000 11108 21132 30272 40311 53005
AAXX 18181 47100 32970 02709 11102 21169 39326 40300 52007
AAXX 18181 47102 32675 52909 10012 21061 30117 40300 55004 85500
AAXX 18181 47104 32970 01605 11023 21175 30160 40261 53005
AAXX 18181 47106 329// /2709 10004 21189 30208 40259 53003
AAXX 18181 47112 32970 03605 11043 21131 30220 40309 53005 333 92012
AAXX 18181 47114 32970 00000 11084 21134 30113 40308 52008
AAXX 18181 47119 32970 02702 11048 21124 30266 40310 53006
AAXX 18181 47121 329// /0001 11099 21130 39995 40311 52010
AAXX 18181 47127 329// /0001 11088 21126 30162 40314 53009
AAXX 18181 47129 32968 01101 11059 21078 30275 40313 54000
AAXX 18181 47130 32970 02008 11013 21163 30198 40262 52007 333 92023
AAXX 18181 47131 32970 00000 11050 21096 30235 40310 53006
AAXX 18181 47135 329// /2514 11034 21104 39987 40300 52008
AAXX 18181 47136 32970 03202 11048 21124 30115 40296 52009
AAXX 18181 47137 329// /2306 11030 21160 30175 40299 52009
AAXX 18181 47140 32968 00902 11025 21083 30279 40309 52005 333 92011
AAXX 18181 47143 32970 02704 11015 21130 30221 40303 53007
AAXX 18181 47145 32967 00001 11070 21089 30277 40305 53006
AAXX 18181 47146 32962 00000 11049 21073 30243 40313 53008
AAXX 18181 47150 32970 00203 11038 21079 30286 40306 53002
AAXX 18181 47152 32970 03404 11001 21152 30231 40275 53007
AAXX 18181 47154 329// /0001 11049 21116 30236 40300 52008
AAXX 18181 47155 32970 00904 10002 21109 30241 40289 53006
AAXX 18181 47156 32970 00205 11016 21079 30217 40310 53006
AAXX 18181 47157 32965 02002 11077 21096 30008 40295 52011
AAXX 18181 47162 32975 00506 10000 21092 30245 40287 53004
AAXX 18181 47169 32665 33413 10043 21037 30205 40301 52003 83500 333 92044
AAXX 18181 47170 32668 22702 11001 21043 30256 40301 53003 81500 333 92021
AAXX 18181 47171 329// /0000 11046 21070 30255 40313 53008
AAXX 18181 47172 329// /1802 11030 21066 30234 40304 53007
AAXX 18181 47173 329// /0201 11069 21082 30195 40313 52008
AAXX 18181 47174 32965 02706 11027 21089 30089 40300 53005
AAXX 18181 47175 32561 43607 11030 21045 39706 40304 53004 84500 333 92023
AAXX 18181 47185 32670 43215 10067 21022 30200 40292 53001 84500 333 92034
AAXX 18181 47188 32670 20504 10051 21011 30266 40288 56001 82300 333 92022
AAXX 18181 47189 32675 23403 10051 20008 30217 40278 51002 81500 333 92022
AAXX 18181 47192 32965 00000 11058 21087 30256 40296 53008
AAXX 18181 47101 32965 00000 11105 21122 30208 40311 52012
AAXX 18181 47105 369// /2512 11013 21175 30232 40265 53008
AAXX 18181 47108 32970 02703 11055 21158 30197 40309 53005
AAXX 18181 47115 32672 32905 10016 21085 39961 40239 55002 83500 333 92032
AAXX 18181 47133 32965 00000 11051 21081 30222 40312 53006
AAXX 18181 47138 32970 02004 11004 21190 30269 40272 52005 333 92022
AAXX 18181 47159 32970 03204 11005 21144 30189 40278 57001 333 9//2/
AAXX 18181 47165 32665 40202 11006 21052 30257 40306 52009 84500 333 92011
AAXX 18181 47168 32970 00210 11001 21144 30205 40288 53004 333 92023
AAXX 18181 47184 32670 63610 10060 20000 30270 40296 53001 85500 333 92032
AAXX 18181 31825 42984 00000 11247 21265 39986 40215 53004
AAXX 18181 31845 42998 00000 11323 21346 30072 40259 54000
AAXX 18181 31878 42980 02101 11198 21216 30118 40253 55002
AAXX 18181 31915 42998 09901 11148 21199 39978 40261 54000
AAXX 18181 31921 42998 01902 11157 21208 30152 40257 53003
AAXX 18181 31969 42/// /0000 11095 21187 30218 40270 53005
AAXX 18181 31981 42999 02402 11222 21241 30009 40267 53002
AAXX 18181 31987 42999 23503 11128 21195 39977 40251 54000 80001
AAXX 18181 32069 41597 83305 11112 21131 30146 40151 52003 78583 889// 333 91006 91112
BBXX A8CJ2 18184 99171 50776 41398 31415 10245 20186 40140 54000 70100 8374/ 22284 04220 20402 319// 40602 5//// 80205
BBXX 62141 18183 99493 50591 41596 82624 10113 20109 40026 52020 70222 8/7// 22200 20504 33627 40704 50602 80111
AAXX 18184 82098 32597 20705 10332 20217 30066 40083 82200 333 59002
AAXX 18184 82246 32597 60203 10322 20276 39888 40086 82230 333 58004
AAXX 18184 82445 31697 50906 10326 20238 30042 40094 71044 83402 333 59002
AAXX 18184 82460 32597 50903 10372 20221 30047 40076 84200 333 59009
AAXX 18184 82562 32598 30503 10333 20231 39950 40056 83200 333 59005
AAXX 18184 82571 32497 32702 10339 20231 39899 40070 83200 333 59002
AAXX 18184 82765 32598 71103 10310 20241 39867 40105 84314 333 59010
AAXX 18184 83599 31697 799// 10310 20297 40020 56020 7219/ 84531 222// 0501 80300
AAXX 18184 83650 42598 70906 10310 20213 40191 57004 7//// 85531 222// 02263 21002 80240
AAXX 18184 83925 32698 40905 10264 20216 40047 57011 7030/ 82490 222// 20000 80230
AAXX 18184 83970 41/97 52702 10260 20154 30055 40059 57005 7032/ 8579/ 222// 02205 80190
BBXX ZCDF4 18183 99238 71112 41598 60225 10190 20146 40218 53023 72922 85478 22274 00260 20101 336// 40202 5//// 80164
BBXX A8OU4 18184 99374 71423 41498 20510 10140 20102 40300 54000 70100 81169 22224 00180 20604 3//// 4//// 5//// 80120
BBXX PBHZ 18183 99272 70794 41598 30210 10232 20138 40216 58010 70200 83100 22283 04293 20301 302// 41201 80173
BBXX DCDP2 18184 99380 70678 41398 73622 10110 20038 40102 57035 70222 87262 22214 04240 21006 80075
AAXX 18184 82863 32598 63204 10336 20236 39860 40068 84941 333 59024
AAXX 18184 83228 21899 20901 10297 20215 39800 40072 70160 81105 333 59020 69951
AAXX 18184 83270 32798 80000 10250 20227 39628 40109 885// 333 59008
AAXX 18184 83309 31595 40000 10304 20248 39779 40097 70500 84200 333 58001
AAXX 18184 83319 21695 80000 10260 20228 39749 40120 79562 8472/ 333 58008 60031
AAXX 18184 83368 21698 80000 10262 20218 39715 40070 70362 86204 333 58002 60061
AAXX 18184 83374 21598 62304 10264 20229 39515 40082 70165 86800 333 59015 60021
AAXX 18184 83526 32498 63204 10259 20197 39154 40083 86500 333 59009
AAXX 18184 83766 32597 60506 10312 20125 39448 40083 5//// 86200
AAXX 18184 83836 32597 22706 10267 20073 39103 40059 56018 82200
AAXX 18184 83881 32497 42309 10302 20097 39779 40056 58017 83204
AAXX 18184 83980 21597 73206 10249 20135 39774 40050 57012 70352 87500 333 69901
AAXX 18184 83997 21497 82712 10206 20174 30015 40058 58008 72152 887// 333 60041
AAXX 18181 47003 42980 03202 11062 21155 30255 40259 53002
AAXX 18181 47005 42980 11401 11194 21214 38603 54000 80002
AAXX 18181 47022 42975 03203 11146 21189 38854 52004
AAXX 18181 47028 42962 01802 11111 21155 30205 40307 52005
AAXX 18181 47031 42970 00000 11163 21182 38953 53002
AAXX 18181 47037 42970 00000 11118 21211 30169 40302 52002
AAXX 18181 47039 42960 00000 11126 21139 30115 40321 52002
AAXX 18181 47046 42969 00000 11066 21103 30223 40247 53006
AAXX 18181 47050 42965 00000 11104 21124 30267 40303 57001
AAXX 18181 47052 42965 00000 11145 21165 39963 40329 52005
AAXX 18181 47060 42960 00903 11055 21081 30253 40315 52005
AAXX 18181 47061 NIL
AAXX 18181 47065 42970 03201 11079 21106 30244 40313 54000
AAXX 18181 47067 42965 00000 11100 21126 30202 40331 52005
AAXX 18181 47068 42560 80000 11076 21098 30264 40301 58004 885//
AAXX 18181 47070 42970 00000 11059 21116 30222 40314 52004
AAXX 18181 47075 NIL
AAXX 18184 83096 32695 30905 10283 20217 30108 40115 83200 333 58000
AAXX 18184 83186 32598 31406 10285 20175 39567 40094 82204 333 58006
AAXX 18184 83242 32497 71805 10291 20180 39619 40106 82152 333 59005
AAXX 18184 83288 32598 43601 10318 20231 30073 49590 84100 333 59004
AAXX 18184 83344 32498 41406 10255 20191 39154 40116 82234 333 58003
AAXX 18184 68155 36/// /3202 10265 20108 39190 48531 52007 333 10332 20265 91004 555 91016
AAXX 18184 68171 NIL
AAXX 18184 68176 36/// /1103 10217 20109 39145 48531 53007 333 10326 20217 91005 555 91017
AAXX 18184 68181 NIL
AAXX 18184 68182 36/// /3003 10212 20137 39347 48535 53004 333 10289 20210 91005 555 91016
AAXX 18184 68185 36/// /0302 10209 20141 38484 48416 58001 333 10295 20209 91004 555 91008
AAXX 18184 68253 36/// /0000 10277 20152 39044 48528 55000 333 10339 20277 91007 555 91016
AAXX 18184 68255 36/// /2304 10249 20105 38854 48508 55000 333 10325 20249 91005 555 91016
AAXX 18184 68271 36/// /0203 10261 20096 38915 48527 53007 333 10332 20261 91005 555 91018
AAXX 18184 68273 36/// /3202 10227 20133 38469 48523 53005 333 10309 20226 91005 555 91021
AAXX 18184 68287 36/// /1203 10169 20114 38604 48539 53007 333 10245 20167 91005 555 91022
AAXX 18184 68291 36/// /0000 10220 20142 39546 48543 53008 333 10324 20220 91002 555 91016
AAXX 18184 68297 NIL
AAXX 18184 68329 36/// /3402 10316 20063 39072 48524 52013 333 10396 20316 91004 555 91015
AAXX 18184 68331 36/// /3305 10301 20076 38827 48522 53001 333 10357 20301 91006 555 91017
AAXX 18184 68335 36/// /3604 10293 20063 38917 48538 53002 333 10365 20293 91007 555 91018
AAXX 18184 68341 16/// /3504 10231 20131 38541 48526 53001 69922 333 10312 20231 91006 555 20002 91021
AAXX 18184 68342 NIL
AAXX 18184 68343 NIL
AAXX 18184 68349 36/// /0305 10249 20102 38516 48510 53001 333 10317 20249 91006 555 91019
AAXX 18184 68353 36/// /3002 10245 20109 38525 48504 53005 333 10307 20245 91003 555 91018
AAXX 18184 68355 36/// /2002 10269 20055 38580 48516 53005 333 10319 20269 91003 555 91019
AAXX 18184 68370 NIL
AAXX 18184 68377 36/// /0811 10250 20163 38761 48506 53018 333 10349 20250 91015 555 91016
AAXX 18184 68380 36/// /2706 10186 20126 3//// 4//// 5//// 333 10315 20186 91013 555
AAXX 18184 68387 36/// /0605 10232 20163 38875 48539 52008 333 10303 20232 91021 555 91020
AAXX 18184 68411 36/// /2211 10230 20130 39933 40138 53043 333 10401 20230 91025 555 91014
AAXX 18184 68429 36/// /2202 10301 20057 38675 48502 56002 333 10356 20301 91003 555 91016
AAXX 18184 68449 36/// /0707 10235 20089 38399 48510 53005 333 10307 20235 91010 555 91020
AAXX 18184 68471 36/// /0509 10204 20141 38342 48519 52010 333 10299 20202 91012 555 91021
AAXX 18184 68474 NIL
AAXX 18184 68479 36/// /0908 10264 20162 38953 48527 53011 333 10351 20264 91014 555 91017
AAXX 18184 68481 36/// /0905 10233 20171 39799 40165 52018 333 10321 20233 91008 555 91017
AAXX 18184 68487 36/// /1703 10193 20171 39013 48534 53011 333 10306 20193 91005 555 91019
AAXX 18184 68491 36/// /0404 10220 20176 30156 40165 52008 333 10278 20220 91006 555 91016
AAXX 18184 68497 36/// /0604 10219 20173 30123 40167 53012 333 10289 20219 91007 555 91016
AAXX 18184 68183 32975 03403 10242 20144 39446 48546 53001 333 10284 20241 91005 555 91016
AAXX 18184 68188 36/// /0404 10186 20153 39212 48534 53006 333 10296 20186 91005 555 91018
AAXX 18184 68268 36/// /0203 10252 20119 38886 48533 53003 333 10345 20252 91004 555 91019
AAXX 18184 68272 NIL
AAXX 18184 68296 36/// /1304 10330 20257 39835 48597 52016 333 10555 20330 91012 555 91014
AAXX 18184 68322 32982 02502 10290 20078 39115 48506 52008 333 10398 20290 91004 555 91013
AAXX 18184 68338 12780 10802 10224 20107 38766 48501 53005 69922 81070 333 10285 20224 91004 555 20002 91016
AAXX 18184 68345 NIL
AAXX 18184 68362 32680 61904 10257 20075 38517 48520 52013 84270 333 10324 20243 91007 555 91020
AAXX 18184 68400 36/// /0806 10236 20162 30088 40161 52013 333 10346 20236 91009 555 91016
AAXX 18184 68408 36/// /2204 10160 20147 30152 40160 52022 333 10194 20156 91006 555 91016
AAXX 18184 68416 36/// /0307 10300 20087 39018 48511 52016 333 10380 20300 91014 555 91014
AAXX 18184 68478 NIL
AAXX 18184 68488 36/// /0907 10186 20155 39293 48541 52011 333 10276 20186 91011 555 91018
AAXX 18184 68494 NIL
AAXX 18184 68524 32986 82918 10321 20059 39033 48510 52035 8807/ 333 10404 20318 91029 555 91013
AAXX 18184 68546 36/// /0105 10260 20063 38649 48499 53003 333 10346 20260 91008 555 91017
AAXX 18184 68558 36/// /0504 10245 20039 38203 48509 53003 333 10300 20237 91008 555 91021
AAXX 18184 68570 32360 21604 10228 20117 38525 48518 52012 82300 333 10329 20228 91007 555 91020
AAXX 18184 68580 16/// /1402 10165 20158 38971 48531 52008 69922 333 10252 20165 91005 555 20002 91019
AAXX 18184 68614 32580 82606 10202 20152 30096 40137 52027 885// 333 10320 20202 91012 555 91013
AAXX 18184 68624 31882 42205 10293 21016 38714 48495 52021 70288 84200 333 10385 20293 91013 555 91015
AAXX 18184 68674 36/// /3604 10231 20195 30078 48538 51002 333 10279 20231 91013 555 91010
AAXX 18184 68712 36/// /2211 10174 20154 30061 40126 52018 333 10212 20172 91014 555 91012
AAXX 18184 68718 36/// /1205 10234 20113 39859 40099 52021 333 10322 20234 91011 555 91010
AAXX 18184 68722 32480 32708 10235 21035 38532 48490 52011 83100 333 10348 20235 91013 555 91017
AAXX 18184 68814 36/// /2304 1//// 2//// 30126 4//// 52018 333 1//// 2//// 91012 555 91013
AAXX 18184 68832 32570 61911 10259 20118 39130 48472 52021 86700 333 10414 20259 91018 555 91009
AAXX 18184 68916 36/// /2510 10183 20154 39860 40126 52011 333 10224 20183 91018 555 91013
AAXX 18184 68920 32070 52305 10207 20157 30102 40114 52012 85800 333 10240 20207 91007 555 91011
AAXX 18184 68928 NIL
AAXX 18184 83064 31498 41804 10322 20232 39817 40083 71791 84400 333 59017
AAXX 18184 83235 32698 40000 10310 20223 39410 40071 84200 333 59032
AAXX 18184 83264 32797 82302 10273 20224 39655 40120 885// 333 59016
AAXX 18184 83332 21695 80000 10216 20202 39182 40082 72196 885// 333 59020 60151
AAXX 18184 83358 32698 72306 10317 20213 39672 40067 87300 333 58006
AAXX 18184 83423 32698 73602 10276 20197 39260 40064 84972 333 59015
AAXX 18184 83470 32698 60000 10280 20218 39238 40096 83209 333 59001
AAXX 18184 68267 NIL
AAXX 18184 68587 NIL
AAXX 18184 68591 NIL
AAXX 18184 68592 NIL
BBXX 46092 18181 99368 71220 46/// /1004 10103 40227 91757 22200 00126 555 11036 22036
BBXX 44059 18181 99368 70763 46/// /3405 1//// 91820 333 91207
BBXX 44059 18181 99368 70763 46/// /3405 1//// 40241 91810 333 91207
BBXX 44059 18181 99368 70763 46/// /3505 10054 40241 58012 91800 22200 00102 333 91208
BBXX 44057 18181 99395 70761 46/// /3504 1//// 91820 333 91206
BBXX 44057 18181 99395 70761 46/// /3504 1//// 40251 91810 333 91206
BBXX 44057 18181 99395 70761 46/// /3504 10016 40252 58005 91800 22200 00054 333 91206
BBXX 44058 18181 99376 70763 46/// /3507 1//// 91820 333 91209
BBXX 44058 18181 99376 70763 46/// /3307 1//// 40245 91810 333 91209
BBXX 44058 18181 99376 70763 46/// /3206 10050 40245 56010 91800 22200 00090 10201 70005 333 91209
AAXX 18184 42921 32996 00000 10150 20118 40197 333 58002
AAXX 18184 43003 31995 00000 10212 20166 40135 70500 333 59001
AAXX 18184 43063 32996 00000 10162 20116 39514 40153 333 58002
AAXX 18184 43110 31996 00901 10220 20160 40136 70040 333 58001
AAXX 18184 43117 32996 31402 10212 20076 40144 80002 333 58002
AAXX 18184 43192 32996 20504 10238 20204 40139 333 58010
AAXX 18184 42634 NIL
AAXX 18184 42647 NIL
AAXX 18184 42737 NIL
AAXX 18184 42840 NIL
AAXX 18184 42909 NIL
AAXX 18184 43014 NIL
BBXX 46181 18181 99538 71288 46/// /0605 10022 40277 52017 22200 00054 10300 70001 333 91206
AAXX 18181 80210 11463 72102 10246 20181 38659 60011 70552 83836 333 56550 59001 83815 84358
AAXX 18181 80214 31560 80702 10277 20206 39114 70542 83834 333 56550 59008 83820 84359
AAXX 18181 80222 31568 72650 10180 20127 37514 70522 86206 333 56699 57893 58000 86820
AAXX 18181 80234 32562 50102 10306 20207 39596 40090 84532 333 56239 59007 84623
AAXX 18181 80241 NIL
AAXX 18181 80259 11560 80601 10280 20192 39051 69901 75052 85830 333 5629/ 59004 85823 83359
AAXX 18181 80315 31562 60000 10292 20219 39588 40082 71522 84275 333 56779 57824 59005 83823 81825
AAXX 18181 80342 31558 50304 10198 20167 38215 74022 85800 333 564// 59001 85820
AAXX 18181 80370 11570 50000 10160 20099 60021 70265 83850 333 5633/ 83820
AAXX 18181 80398 32470 50402 10307 20257 30000 40095 85831 333 56199 58002 85816
AAXX 18181 80001 01470 70540 10278 20244 30139 40140 69941 72022 81236 333 56100 58000 69947 81818 85359
AAXX 18181 80002 01470 80504 10274 20234 69911 72052 82178 333 56190 69917 82818 84270
AAXX 18181 80009 31460 60000 10292 20251 30102 40107 70511 82231 333 56000 57822 59001 82817 85357
AAXX 18181 80022 31462 73102 10310 20251 30109 40111 70522 84871 333 56799 59002 84813 83357
AAXX 18181 80028 31465 30703 10299 20229 30087 40122 70500 81501 333 561/9 58002 81615
AAXX 18181 80063 NIL
AAXX 18181 80084 31470 71502 10279 20223 70522 8481/ 333 5619/ 84817 85459
AAXX 18181 80091 11465 40402 10292 20242 60021 71552 83810 333 5690/ 83610
AAXX 18181 80094 NIL
AAXX 18181 80097 NIL
AAXX 18181 80099 31466 31003 10306 20215 39927 40070 70500 83101 333 569/9 58014 83815
AAXX 18181 80110 31670 60000 10250 20144 38482 70511 82280 333 5600/ 57895 59020 82840 85358
AAXX 18181 80112 31467 70403 10197 20136 37893 71522 85261 333 56999 57893 59010 85818
AAXX 18181 80144 31460 52105 10290 20230 70522 85200 333 560// 85817
AAXX 18181 45032 NIL
AAXX 18181 45035 NIL
AAXX 18181 45039 NIL
AAXX 18181 45044 NIL
AAXX 18181 80210 11463 72102 10246 20181 38659 60011 70552 83836 333 56550 59001 83815 84358
AAXX 18181 80214 31560 80702 10277 20206 39114 70542 83834 333 56550 59008 83820 84359
AAXX 18181 80222 31568 72650 10180 20127 37514 70522 86206 333 56699 57893 58000 86820
AAXX 18181 80234 32562 50102 10306 20207 39596 40090 84532 333 56239 59007 84623
AAXX 18181 80241 NIL
AAXX 18181 80259 11560 80601 10280 20192 39051 69901 75052 85830 333 5629/ 59004 85823 83359
AAXX 18181 80315 31562 60000 10292 20219 39588 40082 71522 84275 333 56779 57824 59005 83823 81825
AAXX 18181 80342 31558 50304 10198 20167 38215 74022 85800 333 564// 59001 85820
AAXX 18181 80370 11570 50000 10160 20099 60021 70265 83850 333 5633/ 83820
AAXX 18181 80398 32470 50402 10307 20257 30000 40095 85831 333 56199 58002 85816
AAXX 18181 45032 NIL
AAXX 18181 45035 NIL
AAXX 18181 45039 NIL
AAXX 18181 45044 NIL
AAXX 18181 80001 01470 70540 10278 20244 30139 40140 69941 72022 81236 333 56100 58000 69947 81818 85359
AAXX 18181 80002 01470 80504 10274 20234 69911 72052 82178 333 56190 69917 82818 84270
AAXX 18181 80009 31460 60000 10292 20251 30102 40107 70511 82231 333 56000 57822 59001 82817 85357
AAXX 18181 80022 31462 73102 10310 20251 30109 40111 70522 84871 333 56799 59002 84813 83357
AAXX 18181 80028 31465 30703 10299 20229 30087 40122 70500 81501 333 561/9 58002 81615
AAXX 18181 80063 NIL
AAXX 18181 80084 31470 71502 10279 20223 70522 8481/ 333 5619/ 84817 85459
AAXX 18181 80091 11465 40402 10292 20242 60021 71552 83810 333 5690/ 83610
AAXX 18181 80094 NIL
AAXX 18181 80097 NIL
AAXX 18181 80099 31466 31003 10306 20215 39927 40070 70500 83101 333 569/9 58014 83815
AAXX 18181 80110 31670 60000 10250 20144 38482 70511 82280 333 5600/ 57895 59020 82840 85358
AAXX 18181 80112 31467 70403 10197 20136 37893 71522 85261 333 56999 57893 59010 85818
AAXX 18181 80144 31460 52105 10290 20230 70522 85200 333 560// 85817
AAXX 18184 61902 11357 71313 10225 20202 40130 69952 78082 878// 333 10265 58002 81708 83815 87640
AAXX 18184 68171 NIL
AAXX 18184 68181 NIL
AAXX 18184 68297 NIL
AAXX 18184 68342 NIL
AAXX 18184 68343 NIL
AAXX 18184 68370 NIL
AAXX 18184 68474 NIL
BBXX 46184 18181 99539 71389 46/// /1717 10068 40076 57057 22200 00065 10809 70046 333 91221
AAXX 18184 91723 NIL
AAXX 18184 91759 11598 31106 10256 20236 40107 53011 60001 70500 82101 333 82820
AAXX 18184 91762 11598 50906 10275 20245 40106 53014 60001 70500 842/1 333 84822 83078
BBXX 46184 18181 99539 71389 46/// /1717 10068 40076 57057 22200 00065 10809 70046 333 91221
AAXX 18181 14232 11510 83501 11009 21010 30012 40152 51/// 60002 71022 886// 333 11002 41998
AAXX 18181 24856 41996 02401 11429 21455 30090 40272 58001 71000
AAXX 18181 30679 NIL
AAXX 18181 30686 42999 03601 11318 21342 39901 40324 52005
AAXX 18181 30961 42999 02102 11180 21199 39471 40309 58016
AAXX 18181 30971 42999 02102 11278 21310 39263 40352 57003
AAXX 18181 30978 42999 00101 11260 21291 39589 40341 58003
AAXX 18181 31513 42999 00000 11256 21262 39999 40247 53007
AAXX 18181 31624 NIL
AAXX 18181 31832 42962 20000 11265 21283 30140 40235 54000 80001
AAXX 18181 31913 NIL
AAXX 18181 32128 41598 70104 11085 21104 30095 40149 55001 78582 87300 333 91007 91107
AAXX 18184 68345 NIL
AAXX 18184 43086 32996 00000 10176 20148 39970 40153 333 58002
AAXX 18184 43128 31996 01404 10200 20144 39542 40158 70500 333 58001
AAXX 18184 43150 31596 40000 10240 20187 30084 40160 70511 83502 333 58006 83620
AAXX 18184 43185 31596 20000 10238 20220 30142 40146 70500 81501 333 58006 81620
AAXX 18184 43189 32996 00502 10236 20196 30144 40153 333 58004
AAXX 18184 43198 32996 20202 10192 20090 39306 40138 80001 333 59001 82075
AAXX 18184 43201 32996 00903 10186 20136 39414 40146 333 58004
AAXX 18184 43213 32996 40000 10220 20171 39829 40151 81038 333 58006
AAXX 18184 43226 32996 00905 10256 20125 30102 40132 333 58003
AAXX 18184 43233 32996 00503 10194 20148 39330 40149 333 58006
AAXX 18184 43237 32996 20908 10222 20187 39750 40147 80001 333 58008 82075
AAXX 18184 43245 32996 10502 10234 20200 30120 40147 80001 333 58006
AAXX 18184 43279 31596 40000 10236 20209 30128 40146 70522 84500 333 58001 84620
AAXX 18184 43284 32896 40504 10230 20175 30004 40121 81031 333 58011 81358 83075
AAXX 18184 43295 32996 20902 10180 20154 39128 48526 80001 333 58008 82075
AAXX 18184 43311 32996 00000 10244 20214 40123 333 58009
AAXX 18184 43314 32996 11102 10248 20212 40126 80001 333 58019
AAXX 18184 43321 31495 40703 10230 20182 39697 40149 70521 81531 333 58003
AAXX 18184 43344 31495 60508 10240 20200 30036 40137 70522 83531 333 59002 83618 84360
AAXX 18184 43346 32596 80510 10266 20225 30116 40123 86502 333 59001 86620 84075
AAXX 18184 43353 31496 50000 10264 20200 40118 70522 81801 333 56609 59001 81614 85072
AAXX 18184 43369 32596 20000 10260 20234 40119 82400 333 58008 82620
AAXX 18184 43371 32596 50000 10266 20231 30046 40119 82402 333 58003 82620 85075
AAXX 18184 43329 NIL
BBXX 46004 18181 99509 71361 46/// /1812 10069 40219 57014 22200 00074 11408 70039 333 91215
BBXX A8JX8 18181 99431 11604 41597 52711 10050 20038 40040 56010 71111 84875 22224 2//// 3//// 4//// 5//// 80045
BBXX SHIP 18184 99353 11778 41798 43028 10150 20100 40140 52010 70121 8211/ 22263 00180 20604 328// 41007 5//// 6//// 80120 ICE /////
BBXX SHIP 18184 99311 11661 41/96 61913 10170 20137 40201 56001 70303 8//// 91750 22263 00220 2//// 3//// 4//// 5//// 80150
BBXX UDWE 18181 99470 11523 41497 72815 11010 49984 52012 77072 87300 22200 00033 20302
AAXX 18181 56671 32980 00000 10024 20003 38216 57001 333 05200 10159
AAXX 18181 57378 32960 00401 10030 21010 40310 57004 333 10108
AAXX 18181 57426 31758 80401 10045 20028 40282 57008 71000 885// 333 05404 10099
AAXX 18181 57476 31958 00000 10013 20007 40304 57008 71000 333 10107
AAXX 18181 57584 32962 00401 10055 21023 40307 57004 333 10109
AAXX 18181 57598 31957 01401 11008 21015 40313 57002 71000 333 10100
AAXX 18181 57655 32960 00000 10036 20013 40304 57003 333 10116
AAXX 18181 57713 NIL
AAXX 18181 57776 32968 00000 11013 21066 40299 57007 333 10039
AAXX 18181 58321 31940 50701 11021 21032 40335 52003 71000 85040 333 10053
AAXX 18181 58437 32970 02202 11018 21179 38207 52003 333 10011
AAXX 18181 58445 NIL
AAXX 18181 58556 31756 80201 10052 20015 40312 57002 70500 885// 333 10089
AAXX 18181 58569 32980 03605 10062 20019 40303 57001 333 10116
AAXX 18181 58646 31657 40000 10042 21002 40302 57001 70500 84500 333 10140
AAXX 18181 58653 NIL
AAXX 18181 58660 NIL
AAXX 18181 58715 32960 23602 10044 21031 40298 57001 82040 333 10100
AAXX 18181 58730 32765 70201 10078 20001 40284 54000 875// 333 10146
AAXX 18181 58731 32964 20000 10030 21012 40294 52002 82040 333 10147
AAXX 18181 58754 32966 00000 10074 20035 40290 57011 333 10161
AAXX 18181 58911 32970 00000 10036 20006 40274 57004 333 10157
AAXX 18181 58931 31970 00704 10032 21003 38396 57006 70040 333 10093
AAXX 18181 59254 31958 00201 10097 20059 40251 57002 70500 333 10187
AAXX 18181 59632 31756 73403 10128 20043 40238 57006 70500 875// 333 10196
AAXX 18181 59855 32568 63601 10174 20125 40210 57013 86100 333 10234
BBXX 46004 18181 99509 71361 46/// /1812 10069 40219 57014 22200 00074 11408 70039 333 91215
AAXX 18184 84045 31/00 90000 10133 20126 74744 89/// 555 30095
AAXX 18184 84143 11560 80302 10156 20098 37410 69931 75055 8211/ 333 58016 555 10003 30068
AAXX 18184 84202 31575 70000 10286 20200 30155 70544 81130 333 58005 555 30060
AAXX 18184 84135 32675 53606 10333 20210 30058 83230 333 58000 555 30048
AAXX 18184 84270 31665 53106 10224 20126 70544 85300 555 30054
AAXX 18184 84179 11570 50000 10258 20191 39055 60091 72166 83230 333 58002 555 10089 30066
AAXX 18184 84105 31567 40404 10304 20195 31001 70544 84100 333 58000 555 30052
AAXX 18184 84036 31570 81404 10177 20100 70544 8543/ 555 30059
AAXX 18184 84132 11550 83604 10250 20228 39883 60051 76366 888// 333 59001 555 10047 30087
AAXX 18184 84076 11565 73602 10188 20138 69931 70545 87500 555 10003 30073
AAXX 18184 84140 32681 51404 10308 20190 30028 40113 82240 333 58002 555 30049
AAXX 18184 84008 32675 31414 10271 20204 30132 40142 82830 00198 333 58008 555 30067
AAXX 18184 84056 31270 62308 10184 20082 71544 84430 555 30051
AAXX 18184 84088 31565 81804 10150 20111 37069 71544 883// 333 58006 555 30077
AAXX 18184 84050 31575 63610 10279 20201 70544 83230 555 30063
AAXX 18184 84160 11456 80902 10175 20108 37266 69911 74045 8783/ 333 58002 555 10001 30065
AAXX 18184 84204 31668 70000 10298 20194 70544 83410 555 30054
AAXX 18184 84226 31550 80000 10124 20112 74044 887// 555 30090
AAXX 18184 84072 11565 70406 10181 20139 37301 69901 72054 84310 333 58006 555 1 T 30067
AAXX 18184 84001 31565 31416 10276 20198 30113 40133 70544 83100 333 58003
AAXX 18184 84010 31580 11312 10273 20204 70242 81100
AAXX 18184 84018 31680 62916 10278 20223 30109 40116 70544 85230 333 58005
AAXX 18184 84027 11575 60000 10173 20102 37172 47147 60021 70265 84230 333 58003 555 10016
AAXX 18184 84063 11570 50000 10272 20238 39755 40085 60011 70162 82130 333 58005 555 10010
AAXX 18184 84069 31570 62304 10276 20199 70244 84230
AAXX 18184 84071 11565 80401 10168 20109 37282 47134 69921 76164 8587/ 333 58005 555 10002
AAXX 18184 84099 11570 71904 10272 20224 3//// 40110 60081 70262 84230 333 58/// 555 10083
AAXX 18184 84117 31565 42911 10290 20223 30093 40116 70544 81130 333 58006
AAXX 18184 84123 11558 70602 10160 20121 37302 47143 69941 76064 85270 333 58001 555 10004
AAXX 18184 84147 11562 71005 10156 20126 69901 76086 85230 555 1 T
AAXX 18184 84163 11570 71504 10235 20188 38945 48499 60171 71565 83170 333 58006 555 10169
AAXX 18184 84176 32680 50708 10194 20142 85200
AAXX 18184 84200 31965 12409 10236 20195 70544 81030
AAXX 18184 84203 31960 70604 10287 20149 30105 40110 70544 87030 333 58007
AAXX 18184 84217 31680 60808 10254 20199 71542 83230
AAXX 18184 84239 31570 70603 10204 20115 37537 47151 71522 86230 333 59003
AAXX 18184 84252 31565 43406 10296 20214 30109 40117 70544 81130 333 58005
AAXX 18184 84265 32680 62614 10290 20169 38753 4//// 86200 333 59009
AAXX 18184 71888 16/// ///// 11013 21051 60001 333 11002 21035 70000
AAXX 18184 71895 17/// ///// 11007 21016 69941 7//4/ 333 21072 7////
AAXX 18184 71788 16/// /3309 11005 21025 60001 333 10086 21010 70000
AAXX 18184 71792 16/// ///// 11018 21040 60001 333 10005 21051 7////
AAXX 18184 71461 16/// /2604 11078 21084 60001 333 11003 21110 70015
AAXX 18184 71468 16/// /2011 11024 21040 39727 40050 58051 60001 333 21053 70003
AAXX 18184 71483 16/// ///// 11021 21076 60001 333 11001 21033 70000
AAXX 18184 71486 16/// /0000 11017 21027 38991 40202 51031 60001 333 10019 21029 70069
AAXX 18184 71221 16/// /1401 11134 21147 60001 333 11053 21175 70000
AAXX 18184 71226 16/// /2603 11034 21067 60001 333 11005 21055 70009
AAXX 18184 71229 46/// /2612 11051 21119 6///1 333 11050 21152 7////
AAXX 18184 71315 16/// /1801 11114 21173 30192 40248 56017 60001 333 11107 21211 70000
AAXX 18184 71355 16/// /2802 11326 21360 39903 49992 55000 60001 333 11298 21364 70000
AAXX 18184 71357 16/// /1208 11167 21212 39811 49818 51042 60001 333 11132 21187 70009 555 10050
AAXX 18184 71359 16/// /3110 11019 21073 60001 333 10010 21043 70006
AAXX 18184 71067 16/// ///// 11012 21053 60001 333 10003 21037 70009
AAXX 18184 71673 16/// ///// 11017 21037 60001 333 10002 21070 70004
AAXX 18184 71690 16/// ///// 11081 21091 60001 333 11001 21124 70021
AAXX 18184 71010 16/// /2910 11021 21050 60001 333 11007 21060 70006
AAXX 18184 71011 16/// ///// 11010 21038 60001 333 10016 21031 70005
AAXX 18184 71049 16/// /3124 11237 39922 49946 51004 60001 333 11229 21255 70000
AAXX 18184 71405 16/// ///// 11003 21044 60001 333 10001 21039 70004
AAXX 18184 71417 16/// /2912 11080 21138 30179 40215 55006 60001 333 11076 21114 70000
AAXX 18184 71426 46/// /2009 11106 6///1 333 11103 21146 7////
AAXX 18184 71283 17/// /2906 11081 21107 69951 7//4/ 333 11010 21110 70018
AAXX 18184 71555 17/// /3510 11025 21037 38618 40184 51030 60021 7//4/ 333 10078 21032 70018
AAXX 18184 71500 16/// /3007 11019 21038 60001 333 10003 21024 70016
AAXX 18184 71504 16/// ///// 11027 21041 60001 333 10009 21027 70038
AAXX 18184 71526 17/// /2705 11022 21025 69961 7//4/ 333 10053 21034 70006
AAXX 18184 71541 16/// /2409 11092 21102 60001 333 11009 21105 70000
AAXX 18184 71543 16/// /2302 11127 21139 60001 333 11014 21183 70008
AAXX 18184 71546 17/// /3004 11054 21093 69941 7//4/ 333 11001 21114 70021
AAXX 18184 71547 16/// /2606 11076 21104 60001 333 11038 21096 70000
BBXX 46232 18181 99325 71174 46/// ///// 1//// 91808 22200 00152 11402 21001 328// 41402 70010
BBXX 46247 18181 99378 71228 46/// ///// 1//// 91821 22200 00113 11505 21002 329// 41504 70023
AAXX 18184 71788 16/// /3309 11005 21025 60001 333 10086 21010 70000
AAXX 18184 71792 16/// ///// 11018 21040 60001 333 10005 21051 7////
AAXX 18184 71221 16/// /1401 11134 21147 60001 333 11053 21175 70000
AAXX 18184 71226 16/// /2603 11034 21067 60001 333 11005 21055 70009
AAXX 18184 71229 46/// /2612 11051 21119 6///1 333 11050 21152 7////
AAXX 18184 71888 16/// ///// 11013 21051 60001 333 11002 21035 70000
AAXX 18184 71895 17/// ///// 11007 21016 69941 7//4/ 333 21072 7////
AAXX 18184 71461 16/// /2604 11078 21084 60001 333 11003 21110 70015
AAXX 18184 71468 16/// /2011 11024 21040 39727 40050 58051 60001 333 21053 70003
AAXX 18184 71483 16/// ///// 11021 21076 60001 333 11001 21033 70000
AAXX 18184 71486 16/// /0000 11017 21027 38991 40202 51031 60001 333 10019 21029 70069
AAXX 18184 71315 16/// /1801 11114 21173 30192 40248 56017 60001 333 11107 21211 70000
BBXX 46246 18181 99500 71451 46/// ///// 1//// 91829 22200 00074 11010 21008 320// 41105 70050
BBXX 46246 18181 99500 71451 46/// ///// 1//// 91759 22200 00074 11110 21008 322// 41106 70051
AAXX 18181 56144 32980 00000 11053 21162 36856 57004 333 05351 10081
AAXX 18181 56152 32980 00000 11157 21176 36303 57010 333 05351 10000
AAXX 18181 56167 32980 00000 11070 21105 37087 57002 333 05355 10118
AAXX 18181 56182 32980 00000 11071 21140 37210 57002 333 05251 10079
AAXX 18181 56357 32980 00000 11097 21211 36456 54000 333 05100 10078
AAXX 18181 56586 32460 80202 10014 21004 38070 57007 885// 333 05502 10079
AAXX 18181 56748 32580 10901 10055 20035 38375 57004 81100 333 05100 10179
AAXX 18181 56763 32980 01402 10123 20064 40137 57002 333 05100 10234
AAXX 18181 56768 32680 62501 10073 20066 38200 54000 86400 333 05101 10150
AAXX 18181 56838 32968 01101 10113 20100 40182 57001 333 00001 10236
AAXX 18181 56886 31720 81402 10054 20053 38324 57003 71000 884// 333 05251 10108
AAXX 18181 56946 32680 10000 10089 20083 40181 54000 81100 333 00000 10228
AAXX 18181 56959 32765 82201 10160 20144 40183 57002 885// 333 00100 10250
AAXX 18181 56969 31456 80000 10115 20112 40212 57003 71000 886// 333 00153 10204
AAXX 18181 57731 32662 80000 10045 20006 40297 57012 885// 333 05400 10085
AAXX 18181 57766 32960 70000 10043 20008 40301 57008 8704/ 333 10109
AAXX 18181 57845 32762 80401 10072 21007 40287 57001 885// 333 10094
AAXX 18181 57853 31957 83602 10060 21019 40302 57002 70500 8807/ 333 10105
AAXX 18181 57916 32662 80000 10110 20086 40245 57006 885// 333 05501 10157
AAXX 18181 57922 32662 82001 10048 20018 40262 57012 885// 333 05402 10110
AAXX 18181 57932 31658 82701 10074 20035 40282 57005 71000 885// 333 05352 10137
AAXX 18181 58338 31958 00000 11004 21014 40322 52004 71000 333 10049
AAXX 18181 59007 32662 80000 10075 20055 40235 57006 885// 333 10083
AAXX 18181 59046 32961 00201 10088 20026 40265 57008 333 10139
AAXX 18181 59058 31956 01601 10068 20025 40268 57006 71000 333 10153
AAXX 18181 59072 32960 00000 10039 20023 40280 57004 333 10138
AAXX 18181 59087 32960 00903 10102 21012 40252 57005 333 10187
AAXX 18181 59209 32461 82502 10107 20074 40237 57003 888// 333 10117
BBXX 46146 18181 99493 71237 46/// /2807 10072 40244 52024 22200 00067 10401 70006 333 91208
AAXX 18184 48433 31956 00105 10187 20147 39988 40158 57009 71000 333 59002
BBXX 46146 18181 99493 71237 46/// /2807 10072 40244 52024 22200 00067 10401 70006 333 91208
BBXX 44098 18181 99428 70702 46/// ///// 1//// 91807 22200 00090 10704 20703 309// 41201 70018
AAXX 18184 68408 32/// /2104 10160 20147 30152 40160 52022 333 10194 20156 91006 555 91016
AAXX 18184 68416 32/// /0207 10300 20087 39018 48511 52016 333 10380 20300 91014 555 91014
BBXX 41010 18181 99289 70785 46/// /0306 10209 40218 91820 22200 00239 10603 20602 300// 41102 70014 333 91209 555 11067 22070
BBXX 41009 18181 99285 70802 46/// /0108 10204 20117 40228 91820 22200 00255 10603 20603 300// 41001 70017 333 91210 555 11087 22091
BBXX 42361 18181 99276 70925 46/// ///09 10194 20083 40254 58020 91830 555 11077 22082
BBXX 44100 18181 99363 70756 46/// ///// 1//// 91822 22200 00129 10603 20603 308// 41301 70014
BBXX 41110 18181 99341 70777 46/// ///// 1//// 91821 22200 00141 11302 21001 310// 41301 70008
BBXX 42099 18181 99273 70842 46/// ///// 1//// 91827 22200 00233 10603 20603 70017
BBXX 41113 18181 99284 70805 46/// ///// 1//// 91821 22200 00216 11102 20602 309// 41101 70009
BBXX 41112 18181 99307 70813 46/// ///// 1//// 91821 22200 00162 11002 21002 310// 41301 70009
BBXX 42013 18181 99272 70829 46/// ///// 1//// 40239 91740 22200 00198
AAXX 18184 60676 36/// /0505 10169 21063 333 10203
AAXX 18184 60633 36/// /1703 10223 21139 333 10261
AAXX 18184 60677 36/// /0000 10129 21067 333 10188
AAXX 18184 60661 36/// /0204 10139 21032 333 10186
AAXX 18184 60662 36/// /0000 10108 21029 333 10156
AAXX 18184 60672 36/// /0903 10148 21093 333 10191
AAXX 18184 60650 36/// /3608 10173 20013 333 10198
AAXX 18184 60691 36/// /0905 10221 21124 333 10272
AAXX 18184 60679 36/// /0105 10052 21166 333 10118
BBXX 44039 18181 99411 70727 46/// /3607 11026 21127 40242 91753 22200 00097 10301 70006 333 91210
BBXX 44099 18181 99369 70757 46/// ///// 1//// 91822 22200 00123 10502 20502 309// 41301 70011
BBXX 44032 18181 99437 70694 46/30 /3507 11054 40214 56017 91804 22200 00088 10502 70008 333 91208 555 11081 22083
BBXX 44258 18181 99445 70634 46/// /0209 11003 40166 57011 22200 00068 11003 70013 333 91210
BBXX 44258 18181 99445 70634 46/// /0209 11003 40166 57011 22200 00068 11003 70013 333 91210
AAXX 18184 97008 32962 12205 10252 20237 30058 40068 57007 81030 333 56000 81360
AAXX 18184 97016 32558 60000 10257 20234 30064 40066 52017 82237 333 56000 57802 82820 84280 80858
AAXX 18184 97126 01456 80102 10250 20241 30016 40077 56019 69981 70262 8392/ 333 56009 57900 69957 81915 82615 88460 80980
AAXX 18184 97182 32562 50604 10252 20242 30059 40063 57026 82871 333 56000 57800 82820 83360 808//
AAXX 18184 97240 NIL
AAXX 18184 97310 31440 70000 10240 20237 30057 40069 57013 83521 333 56000 83618 87459
AAXX 18184 97320 NIL
AAXX 18184 97378 11560 70000 10258 20252 39906 40069 56020 69907 82171 333 56000 82820 84459
AAXX 18184 97406 32460 70000 10238 20235 30037 40062 57014 84231 333 56000 57801 84818 80860
AAXX 18184 97570 32460 50000 10240 20232 30068 40075 57002 81102 333 56000 81815 85080
AAXX 18184 97630 31450 70105 10238 20235 39903 40063 56005 71522 87973 333 56000 57901 82912 85813 80978
AAXX 18184 97700 32460 52203 10260 20242 30044 40058 57015 82232 333 56000 57804 82817 83358 80850
AAXX 18184 97722 32563 50000 10248 20238 30061 40076 57008 82232 333 56000 57805 83820 80850
AAXX 18184 96001 NIL
AAXX 18184 96015 12440 80000 10238 20235 30090 40097 57018 60041 8457/ 333 56009 84613
AAXX 18184 96033 31450 50000 10254 20236 30085 40091 57022 70511 82828 333 56000 57903 81920 82617 80980
AAXX 18184 96075 NIL
AAXX 18184 96087 11457 80310 10259 20238 30052 40085 56012 60051 70596 84578 333 56100 84614 86460 87280
AAXX 18184 96171 01440 80000 10254 20245 30065 40090 57011 69981 71562 86522 333 56000 69937 86612
AAXX 18184 96207 31430 80000 10198 20192 39233 40155 57005 71622 85931 333 56000 57902 82912 83614 80930
AAXX 18184 96525 31457 71914 10262 20250 30064 40071 57017 72922 82976 333 56600 57960 81915 85460 809//
AAXX 18184 96529 31550 20000 10255 20249 30065 40090 57018 70191 81101 333 56000 81820 82080
AAXX 18184 96559 01330 63404 10248 20239 30063 40101 50001 60051 70596 84920 333 56800 57982 57884 69917 81913 83808 86462 80973 80846
AAXX 18184 96607 11458 82003 10256 20232 30062 40077 57026 71796 8592/ 333 56009 57940 69907 82915 85814 88459 809//
AAXX 18184 96615 32450 40000 10262 20247 30062 40076 57020 82131 333 56000 57802 82814 80857
AAXX 18184 96737 32456 50000 10254 20242 30040 40070 58012 83521 333 56000 83615
AAXX 18184 96739 NIL
AAXX 18184 96741 32556 42607 10268 20227 30070 40074 57006 82571 333 56000 82623
AAXX 18184 96745 NIL
AAXX 18184 96751 32450 70000 10193 20183 39010 48920 57016 86511 333 56800 86617 81460
AAXX 18184 96791 32456 80000 10264 20249 30013 40087 57013 8252/ 333 56009 82618 88460
AAXX 18184 96797 11457 81403 10260 20246 30068 40073 57010 60021 70262 8497/ 333 56009 57902 81918 83620 80980
AAXX 18184 96837 11557 80000 10264 20246 30065 40068 56014 69921 70262 84242 333 56000 57800 84823
AAXX 18184 96925 01462 80000 10257 20246 30062 40067 57025 60031 79196 8427/ 333 56609 57860 60027 84817 87460 80860
AAXX 18184 96933 32560 60000 10256 20244 30052 40086 57016 81521 333 56200 81620 85460
AAXX 18184 96937 32958 30000 10259 20249 30062 40067 57018 80099 333 56000 81358
AAXX 18184 96973 01458 60000 10264 20243 30052 40058 57028 69901 71362 83931 333 56000 57902 81919 80976 82820 80850
AAXX 18184 96987 32458 72007 10258 20237 30010 40069 57016 84538 333 56000 83618
AAXX 18184 96009 01456 81503 10240 20231 30069 40104 57010 60011 72166 8392/ 333 56009 57901 60017 81915 82617 85467 80966
AAXX 18184 96011 01458 10245 20234 30082 40108 57010 69901 76062 84532 333 56000 69907 84619
AAXX 18184 96035 32460 70000 10247 20237 30063 40101 58009 83578 333 56000 83618
AAXX 18184 96073 31450 70000 10240 20237 30085 40097 57003 83922 333 56000 57901 83913 80960
AAXX 18184 96091 01450 83606 10258 20247 30065 40088 57014 60041 71396 84928 333 56000 57901 60031 81920 83613 88280 80980
AAXX 18184 96109 32556 70000 10248 20242 30046 40085 58011 82522 333 56000 82620 84460
AAXX 18184 96145 NIL
AAXX 18184 96147 NIL
AAXX 18184 96163 11556 80000 10242 20236 30092 40094 57010 76066 8652/ 333 56009 86620
AAXX 18184 96179 32460 70000 10246 20240 30059 40096 57004 83208 333 56000 57802 83817 80850
AAXX 18184 96195 01450 73105 10250 20236 30058 40095 57009 60031 72162 84321 333 56000 60037 81913 83613
AAXX 18184 96221 01430 82510 10238 20227 30074 40089 52001 69981 76062 85976 333 56999 57993 69987 81920 85615 80980
AAXX 18184 96237 32457 60000 10253 20242 30038 40079 57011 83572 333 56000 83617 83360 86280
AAXX 18184 96249 01450 82003 10226 20225 30018 40078 57017 60351 79596 889// 333 56499 57941 57841 60137 82917 86817 80980
AAXX 18184 96253 01450 70205 10244 20241 30056 40077 57011 60091 79596 84972 333 56000 57900 57800 60047 81915 82820 85460
AAXX 18184 96295 32460 53505 10256 20223 39977 40079 56011 83522 333 56000 83614
AAXX 18184 96509 31458 71103 10280 20255 30057 40068 57019 71322 86931 333 56000 57904 57803 81915 86815 80980 80865
AAXX 18184 96581 32457 60000 10256 20247 30069 40076 57011 82131 333 56000 82812 83362 80860
AAXX 18184 96633 01458 82708 10243 20236 30075 40083 57006 60191 79262 84972 333 56000 60197 82915 82620 85460
AAXX 18184 96645 NIL
AAXX 18184 96655 32450 70000 10241 20239 30061 40096 57016 86571 333 56000 86610
AAXX 18184 96685 11460 40000 10253 20246 30050 40074 56021 69901 70162 81531 333 56000 81618
AAXX 18184 96749 32561 52509 10248 20223 30060 40073 58018 82521 333 56000 82625 83463
AAXX 18184 96781 NIL
AAXX 18184 96805 32558 40000 10264 20238 30078 40088 56006 82271 333 56000 57802 82820 80860
AAXX 18184 96839 11450 51703 10256 20244 30059 40066 57017 69921 70596 82572 333 56000 82619
AAXX 18184 96935 NIL
AAXX 18184 97014 32560 30402 10244 20235 39983 40076 57021 81531 333 56000 81624
AAXX 18184 97028 NIL
AAXX 18184 97048 32460 50000 10250 20240 30033 40057 57019 84232 333 56000 57801 84817 80860
AAXX 18184 97072 NIL
AAXX 18184 97086 NIL
AAXX 18184 97096 32460 70000 10256 20241 30062 40083 59005 83231 333 56000 57803 82818 84360 80860
AAXX 18184 97120 31459 72801 10260 20245 30032 40065 57025 71322 83931 333 56000 57903 57802 81917 82818 84360 80981 80860
AAXX 18184 97146 NIL
AAXX 18184 97180 12458 50603 10245 20245 30050 40068 56027 82232 333 56000 82819
AAXX 18184 97192 NIL
AAXX 18184 97230 01456 82803 10258 20245 30059 40066 57021 60221 76196 8427/ 333 56609 57861 69987 84814 87459 80859
AAXX 18184 97260 32560 40000 10244 20238 30047 40054 57023 82501 333 56000 82620
AAXX 18184 97270 31440 80000 10252 20243 30054 40059 58017 70522 8682/ 333 56009 57800 82815 85617 88460 808//
AAXX 18184 97300 11560 60000 10254 20245 30044 40084 55006 69901 71396 82231 333 56000 82820
AAXX 18184 97340 NIL
AAXX 18184 97372 NIL
AAXX 18184 97430 NIL
AAXX 18184 97460 NIL
AAXX 18184 97502 32450 80000 10258 20252 30054 40058 57017 8552/ 333 56000 85614
AAXX 18184 97530 NIL
AAXX 18184 97560 32460 73203 10258 20249 30048 40063 57020 83857 333 56000 57804 82818 84361 86279 80860
AAXX 18184 97686 NIL
AAXX 18184 97690 NIL
AAXX 18184 97724 31459 63402 10249 20242 30043 40060 57013 70522 82232 333 56700 57872 82817 80850
AAXX 18184 97748 31459 70203 10274 20242 30057 40059 54000 70522 84932 333 56800 57981 82914 84359 80940
AAXX 18184 97760 32456 70000 10258 20242 30056 40065 57013 83932 333 56000 57901 81915 82816 80960
AAXX 18184 97796 NIL
AAXX 18184 97810 NIL
AAXX 18184 97900 NIL
AAXX 18184 97980 NIL
BBXX KS098 18184 99440 71243 43/// /2214 10098 40255 22281 06000
BBXX KS044 18184 99282 31568 43/// /1609 10215 40154 22233 06247
BBXX KS094 18184 99133 70596 43/// /0909 10277 40122 22200 06272
BBXX KS088 18184 99267 70801 43/// /0705 10226 40216 22200 06235
BBXX 46036 18181 99484 71339 46/// /2007 10081 40293 52011 22200 00085 11507 70033 333 91209
BBXX 46036 18181 99484 71339 46/// /2007 10081 40293 52011 22200 00085 11507 70033 333 91209
BBXX 62081 18184 99510 70134 46/// ///// 10105 20051 40242 57010 22200 00119 10705 70027
BBXX AMOUK05 18184 99537 70003 46/// ///// 10011 21033 30116 40153 52022 91750
BBXX 63110 18184 99595 10015 47698 /3418 10057 21034 40074 51010 700// 22200 10808 70038
BBXX 63106 18184 99610 10017 46/// /3121 10039 40050 51004 22200
BBXX 63105 18184 99610 10017 47498 ///// 10047 20005 40049 52003 700// 22200
BBXX 62103 18184 99499 70029 46/99 /3124 10087 20019 40198 53011 22200 00122 10703 70014 333 90710 91131
BBXX 62107 18184 99501 70061 46/// /3320 10093 20029 40227 51006 22200 00115 10803 70016 333 90710 91128
BBXX 62094 18184 99517 70067 46/// /2916 10086 20052 40218 53003 22200 00105 10503 70015
BBXX 62095 18184 99530 70159 46/// /2217 10100 20083 40184 58027 22200 00113 10706 70029 333 90710 91126
BBXX 62027 18184 99491 70022 46/// /3416 1//// 2//// 40209 50010 22200 00112 10704 330// 70021 333 90710 91127
AAXX 18181 10015 01582 22811 10048 20007 30043 40053 52009 69942 70181 82800 222// 02067 333 10063 20039 31002 55300 20000 30000 69907 81823 91117 91213
AAXX 18181 23426 32981 30000 11094 21101 30210 40235 52008 83030 333 11042
AAXX 18181 23625 32998 02404 11022 21061 30235 40269 52005 333 11027
AAXX 18181 28076 32997 22302 11110 21116 30298 40374 57006 80001 333 11132
AAXX 18181 28367 32984 02402 11136 21149 30331 40470 52002 333 11104
AAXX 18181 28382 32998 00000 11203 21222 30372 40451 57002 333 11187
AAXX 18181 28481 32997 02102 11200 21212 30361 40471 57004 333 11195
AAXX 18181 28491 31997 82302 11178 21197 30337 40458 57006 77671 80007 333 11197
AAXX 18181 28573 32997 02002 11236 21255 30379 40497 57001 333 11250
AAXX 18181 28593 32997 72102 11221 21240 30360 40469 57010 80005 333 11245
AAXX 18181 28786 32997 02702 11250 21267 30350 40529 57002 333 11252
AAXX 18181 28797 32997 02801 11269 21286 30343 40524 58002 333 11255
AAXX 18181 28799 32997 02801 11268 21293 30348 40513 54000 333 11220
AAXX 18181 20046 NIL
AAXX 18181 20069 NIL
AAXX 18181 20087 42998 31604 11298 21328 30263 40275 53002 80001
AAXX 18181 20292 NIL
AAXX 18181 20353 46/// /1905 11013 21052 30138 40142 52004 333 91110
AAXX 18181 20667 NIL
AAXX 18181 20674 42998 01602 11246 21270 30178 40244 52006 333 91104
AAXX 18181 20744 32598 81402 11019 21037 30127 40145 51004 885// 333 11005 88627
AAXX 18181 20891 41096 00401 11346 21361 30217 40265 52008 71000 333 91102
AAXX 18181 23022 11395 82308 11006 21010 30090 40151 52006 69930 71054 886// 333 10001
AAXX 18181 23032 11395 82307 11006 21010 30128 40158 52007 60020 77377 8802/ 333 11007 88507
AAXX 18181 23058 11498 80000 11105 21118 30198 40203 52011 69930 70272 885// 333 11101 88615
AAXX 18181 23242 11497 81902 11080 21094 30176 40192 52007 69950 70282 885// 333 11081 88611
AAXX 18181 23256 11/91 92802 11197 21203 30164 40202 52019 60040 74987 333 11093
AAXX 18181 23330 11497 82202 11046 21055 30197 40218 52006 69960 70272 8477/ 333 11046 84710
AAXX 18181 23445 11397 82502 11043 21052 30194 40220 52008 60040 70272 886// 333 11037 88709
AAXX 18181 23552 11397 82703 11054 21064 30162 40197 52001 60050 70287 885// 333 11066 88609
AAXX 18181 23631 32998 82402 11052 21077 30216 40258 52007 80001 333 11055
AAXX 18181 23662 11996 82503 11110 21130 30152 40198 57009 60040 77172 8802/ 333 11108
AAXX 18181 23724 32998 02204 11042 21126 30247 40314 52006 80000 333 11029
AAXX 18181 23734 32998 02302 11092 21117 30203 40299 58002 333 11066
AAXX 18181 23849 42996 42607 11095 21114 40305 57006 80001
AAXX 18181 23867 11997 82604 11119 21139 30202 40278 57015 60040 77173 8802/ 333 11121
AAXX 18181 23933 11997 32604 11055 21077 30270 40328 57006 69900 73630 80001 333 11059
AAXX 18181 28064 32998 02302 11045 21072 30304 40398 52002 333 11049
AAXX 18181 28275 32997 32201 11154 21173 30378 40443 52002 80002 333 11147
AAXX 18181 28493 31597 72401 11172 21198 30354 40455 57015 72271 84550 333 11234
AAXX 18181 28698 11997 02503 11232 21250 30328 40502 57011 69900 77670 333 11225
AAXX 18183 63723 32980 00000 10285 20216 40091 333 10333 58017
AAXX 18183 63793 32980 00000 10270 20203 40074 333 10327 59005
AAXX 18184 78318 11561 60508 10248 20190 30200 40204 58013 60001 70522 85202 333 10257 20201 31/// 56209 58005 70025 85820 555 10902
AAXX 18184 78325 11564 70408 10247 20171 30144 40202 58017 60001 70522 83202 333 10261 20215 30/// 56109 58005 70020 83820 86080 555 10402
AAXX 18184 78333 11/10 60201 10264 20156 30181 40188 58023 60001 70522 81242 333 10278 20165 30/// 56990 58001 818// 86071
AAXX 18184 78348 11557 40605 10251 20172 30140 40193 58009 60001 70511 82202 333 10255 20181 30/// 56904 58002 82822 555 2//18
AAXX 18184 78349 11568 60306 10270 20164 30082 40192 56022 60001 70522 83442 333 10270 20170 31/// 56199 57833 59005 82822 84072 555 10503
AAXX 18184 78353 01570 60503 10253 20197 30170 40192 58015 69921 70381 85802 333 10257 20225 31/// 56209 57832 58006 69917 70002 82820 83626 555 10903
AAXX 18184 78360 12470 60706 10279 20186 30158 40170 58018 60001 86903 333 10291 20213 30/// 56109 57989 58004 81817 84630 819// 92034 555 10402
AAXX 18184 78369 11466 70706 10255 20223 30155 40164 57018 69951 71682 872// 333 10258 20235 30/// 56299 57890 58003 70039 87818 92044 555 10703
BBXX 42362 18181 99278 70907 46/// /0508 10189 20072 40268 91830
BBXX 42363 18181 99282 70892 46/// /0508 10167 20061 40275 91830 333 91209
BBXX 42364 18181 99291 70881 46/// /0207 10172 20067 40275 91830
BBXX 46243 18181 99462 71241 46/// ///// 1//// 91829 22200 00083 11506 21004 326// 41504 70028
BBXX 46236 18181 99368 71219 46/// ///// 1//// 91820 22200 00126 11303 21001 328// 41303 70017
BBXX 46229 18181 99438 71246 46/// ///// 1//// 91821 22200 00102 11407 20903 330// 41406 70034
BBXX 46217 18181 99342 71194 46/// ///// 1//// 91812 22200 00147 11301 20401 327// 41301 70007
BBXX 46225 18181 99329 71174 46/// ///// 1//// 91814 22200 00148 12002 21001 328// 42001 70008
BBXX 46213 18181 99403 71247 46/// ///// 1//// 91824 22200 00103 11506 21003 329// 41506 70032
BBXX 46215 18181 99352 71209 46/// ///// 1//// 91808 22200 00147 11703 21001 326// 41703 70015
BBXX 46219 18181 99332 71199 46/// ///// 1//// 91828 22200 00135 11804 20802 330// 41804 70022
BBXX 46224 18181 99332 71175 46/// ///// 1//// 91806 22200 00143 11401 21001 325// 41401 70005
BBXX 46214 18181 99379 71235 46/// ///// 1//// 91825 22200 00114 11706 21002 331// 41706 70030
BBXX 46238 18181 99334 71195 46/// ///// 1//// 91820 22200 00144 11703 20402 329// 41703 70016
BBXX 46239 18181 99363 71221 46/// ///// 1//// 91821 22200 00128 11706 21002 330// 41706 70031
BBXX 44060 18181 99413 70721 46/// ///07 11022 40223 91830 22200 00104 333 91209 555 11072 22072
BBXX 44022 18181 99409 70737 46/// ///05 11025 21118 40243 91830 22200 00086 333 91207 555 11051 22051
BBXX V7MO3 18184 99262 70910 418// 20518 10202 20124 40220 56009 7//00 821// 22200 00250 20302 306// 40504 5//// 6//// 80155 ICE /////
BBXX WC5932 18184 99457 70870 43/// /2122 00/// 10001 21078 40151 57051 7//// 8//// 22283 0//// 2//// 3//// 4//// 5//// 6//// 81024 ICE /////
BBXX WDA2768 18184 99417 70874 43/// /2210 00/// 10033 21011 40203 55027 7//// 8//// 22200 0//// 2//// 3//// 4//// 5//// 6//// 80016 ICE /////
BBXX WRAH 18183 99362 70032 41698 11109 10150 2//// 40189 56004 70200 811// 22264 00166 20202 326// 40404 5//// 6//// 8//// ICE /////
BBXX WKDY 18184 99375 10044 41598 23412 10130 20073 40170 57010 70111 82100 22223 00173 20302 332// 40604 5//// 6//// 80100 ICE /////
BBXX WRTF 18184 99577 71432 41697 81547 10050 2005/ 49900 57080 78062 886// 22232 00060 20509 314// 40818 5//// 6//// 80048 ICE /////
BBXX 51204 18181 99213 71581 46/// ///// 1//// 91822 22200 00247 11403 20603 331// 41402 70016
BBXX 51202 18181 99214 71577 46/// ///// 1//// 91809 22200 00245 10905 20904 336// 41202 70023
BBXX 62141 18183 99493 50591 41596 82624 10113 20109 40026 52020 70222 8/7// 22200 20504 33627 40704 50602 80111
BBXX A8CJ2 18184 99171 50776 41398 31415 10245 20186 40140 54000 70100 8374/ 22284 04220 20402 319// 40602 5//// 80205
BBXX A8RL4 18184 99062 70143 41996 00000 10300 40100 54000 705// 80000 22233 00300 20000 30000 323// 41002 80260
BBXX ZDLS1 18183 99521 30048 41496 83125 10017 21005 49704 57017 70272 885// 22252 04015 20204 330// 40510 80009
BBXX AMOUK15 18184 99112 50110 46/// ///// 10229 20177 30120 40155 57012 91750
BBXX PDWZ 18183 99284 70148 41297 80121 10181 40232 53012 70011 8/7// 22283 20304
BBXX DCPX2 18184 99145 10419 41997 01515 10276 20223 40130 52010 70200 80000 22234 00270 2//// 80238
BBXX PBOF 18183 99388 11180 41997 03411 10030 21080 40330 54000 70200 80000 22200 04060 20201 81007 90494
BBXX UDWE 18181 99470 11523 41497 72815 11010 49984 52012 77072 87300 22200 00033 20302
BBXX HZDD 18183 99074 11203 41398 41808 10290 20248 40070 50012 70322 82242 22264 20201 31899 40201 5//// 80260
BBXX 46036 18181 99484 71339 46/// /2007 10081 40293 52011 22200 00085 11507 70033 333 91209
BBXX KS094 18184 99133 70596 43/// /0909 10277 40122 22200 06272
BBXX KS088 18184 99267 70801 43/// /0705 10226 40216 22200 06235
BBXX KS098 18184 99440 71243 43/// /2214 10098 40255 22281 06000
BBXX 44258 18181 99445 70634 46/// /0209 11003 40166 57011 22200 00068 11003 70013 333 91210
BBXX 44039 18181 99411 70727 46/// /3607 11026 21127 40242 91753 22200 00097 10301 70006 333 91210
BBXX 44099 18181 99369 70757 46/// ///// 1//// 91822 22200 00123 10502 20502 309// 41301 70011
BBXX 44032 18181 99437 70694 46/30 /3507 11054 40214 56017 91804 22200 00088 10502 70008 333 91208 555 11081 22083
BBXX 41112 18181 99307 70813 46/// ///// 1//// 91821 22200 00162 11002 21002 310// 41301 70009
BBXX 42361 18181 99276 70925 46/// ///09 10194 20083 40254 58020 91830 555 11077 22082
BBXX 42099 18181 99273 70842 46/// ///// 1//// 91827 22200 00233 10603 20603 70017
BBXX 41113 18181 99284 70805 46/// ///// 1//// 91821 22200 00216 11102 20602 309// 41101 70009
BBXX 42013 18181 99272 70829 46/// ///// 1//// 40239 91740 22200 00198
BBXX 41110 18181 99341 70777 46/// ///// 1//// 91821 22200 00141 11302 21001 310// 41301 70008
BBXX 44100 18181 99363 70756 46/// ///// 1//// 91822 22200 00129 10603 20603 308// 41301 70014
BBXX 41009 18181 99285 70802 46/// /0108 10204 20117 40228 91820 22200 00255 10603 20603 300// 41001 70017 333 91210 555 11087 22091
BBXX 41010 18181 99289 70785 46/// /0306 10209 40218 91820 22200 00239 10603 20602 300// 41102 70014 333 91209 555 11067 22070
BBXX 44098 18181 99428 70702 46/// ///// 1//// 91807 22200 00090 10704 20703 309// 41201 70018
BBXX 46146 18181 99493 71237 46/// /2807 10072 40244 52024 22200 00067 10401 70006 333 91208
BBXX 46246 18181 99500 71451 46/// ///// 1//// 91759 22200 00074 11110 21008 322// 41106 70051
BBXX 46246 18181 99500 71451 46/// ///// 1//// 91829 22200 00074 11010 21008 320// 41105 70050
BBXX 46232 18181 99325 71174 46/// ///// 1//// 91808 22200 00152 11402 21001 328// 41402 70010
BBXX 46247 18181 99378 71228 46/// ///// 1//// 91821 22200 00113 11505 21002 329// 41504 70023
BBXX 46004 18181 99509 71361 46/// /1812 10069 40219 57014 22200 00074 11408 70039 333 91215
BBXX 46184 18181 99539 71389 46/// /1717 10068 40076 57057 22200 00065 10809 70046 333 91221
BBXX 44057 18181 99395 70761 46/// /3504 10016 40252 58005 91800 22200 00054 333 91206
BBXX 44058 18181 99376 70763 46/// /3307 1//// 40245 91810 333 91209
BBXX 44057 18181 99395 70761 46/// /3504 1//// 91820 333 91206
BBXX 44058 18181 99376 70763 46/// /3507 1//// 91820 333 91209
BBXX 44057 18181 99395 70761 46/// /3504 1//// 40251 91810 333 91206
BBXX 44059 18181 99368 70763 46/// /3405 1//// 91820 333 91207
BBXX 44058 18181 99376 70763 46/// /3206 10050 40245 56010 91800 22200 00090 10201 70005 333 91209
BBXX 44059 18181 99368 70763 46/// /3505 10054 40241 58012 91800 22200 00102 333 91208
BBXX 44059 18181 99368 70763 46/// /3405 1//// 40241 91810 333 91207
BBXX 46092 18181 99368 71220 46/// /1004 10103 40227 91757 22200 00126 555 11036 22036
BBXX PBHZ 18183 99272 70794 41598 30210 10232 20138 40216 58010 70200 83100 22283 04293 20301 302// 41201 80173
BBXX A8OU4 18184 99374 71423 41498 20510 10140 20102 40300 54000 70100 81169 22224 00180 20604 3//// 4//// 5//// 80120
BBXX DCDP2 18184 99380 70678 41398 73622 10110 20038 40102 57035 70222 87262 22214 04240 21006 80075
BBXX 44043 18181 99392 70764 46/// /0602 10019 40248 58003 91800 22200 00073 1//00 70001 333 91203
BBXX 44043 18181 99392 70764 46/// /0602 1//// 91820 333 91203
BBXX 44042 18181 99380 70763 46/// /3405 10041 40249 58005 91800 22200 00090 10201 70003 333 91206
BBXX WC5932 18184 99457 70870 43/// /2122 00/// 10001 21078 40151 57051 7//// 8//// 22283 0//// 2//// 3//// 4//// 5//// 6//// 81024 ICE /////
BBXX WDA2768 18184 99417 70874 43/// /2210 00/// 10033 21011 40203 55027 7//// 8//// 22200 0//// 2//// 3//// 4//// 5//// 6//// 80016 ICE /////
BBXX WRYD 18184 99367 70104 41498 50516 10140 2006/ 40235 52010 70100 8447/ 22225 00190 20406 330// 4//// 5//// 6//// 80100 ICE /////
BBXX VRCZ7 18183 99423 70097 41698 10410 10120 20029 40283 53/// 70200 811// 22285 2//// 3//// 4//// 5//// 80080
BBXX WKDY 18184 99375 10044 41598 23412 10130 20073 40170 57010 70111 82100 22223 00173 20302 332// 40604 5//// 6//// 80100 ICE /////
BBXX WRAH 18183 99362 70032 41698 11109 10150 2//// 40189 56004 70200 811// 22264 00166 20202 326// 40404 5//// 6//// 8//// ICE /////
BBXX A8AF6 18183 99400 70117 41598 40512 10130 20074 40275 54000 70311 844// 22243 02160 20202 334// 40704 80100
BBXX KS044 18184 99282 31568 43/// /1609 10215 40154 22233 06247
BBXX TBWUK17 18183 99152 30882 41397 31112 10259 20242 40146 51020 70111 83145 22253 04279 20403 31919 40404 50302 80247
BBXX FHZI 18184 99593 31450 46/// /3615 10029 2//// 30115 40126 57015 22243 04015
BBXX SHIP 18184 99256 31048 41497 71516 10214 20166 40142 57010 70322 87811 22232 00232 10804 399// 85183
BBXX VNAH 18184 99333 31157 46/// /1808 10157 20111 30095 40119 57013 22200 85130
BBXX VROB 18184 99291 31538 46/// /0411 10217 20140 30125 40150 57005 22244 04254 85168
BBXX ZSAF 18184 99659 30000 41599 71908 11013 21030 49693 52028 70372 83508 22213 05016 2//// 3//// 4//// 5//// ICE 62080
BBXX ZDLP 18183 99608 50450 41297 70116 10013 21013 40011 57025 70122 8471/ 22252 04000 20301 325// 40504 5//// 80004 ICE //7/0
BBXX 44043 18181 99392 70764 46/// /0502 1//// 40248 91810 333 91203
BBXX 44042 18181 99380 70763 46/// /3305 1//// 40249 91810 333 91207
BBXX 44041 18181 99372 70768 46/// /3104 10054 40272 58011 91800 22200 00093 1//00 70001 333 91207
BBXX 44042 18181 99380 70763 46/// /3406 1//// 91820 333 91209
BBXX 44062 18181 99386 70764 46/// /0106 10030 40222 58024 91800 22200 00085 10201 70004 333 91207
BBXX 44063 18181 99390 70764 46/// /0403 10023 40260 58005 91800 22200 00076 1//00 70001 333 91205
BBXX 44041 18181 99372 70768 46/// /3105 1//// 40272 91810 333 91207
BBXX 44062 18181 99386 70764 46/// /3606 1//// 91820 22200 00085 333 91208
BBXX 44062 18181 99386 70764 46/// /3605 1//// 40222 91810 22200 00085 333 91207
BBXX 44041 18181 99372 70768 46/// /3006 1//// 91820 333 91208
BBXX 44063 18181 99390 70764 46/// /0701 1//// 40262 91810 333 91205
BBXX 44063 18181 99390 70764 46/// /0603 1//// 91820 333 91205
BBXX 46181 18181 99538 71288 46/// /0605 10022 40277 52017 22200 00054 10300 70001 333 91206
BBXX 46205 18181 99542 71343 46/// /1811 10071 40204 57017 22200 00078 11407 70034 333 91214
BBXX 46132 18181 99497 71279 46/// /3210 10072 4//// 5//// 22200 0//// 1//// 70/// 333 912//
BBXX 46206 18181 99488 71260 46/// /3209 10085 40247 52018 22200 00092 11507 70035 333 91212
BBXX 46145 18181 99544 71324 46/// /1608 10054 40235 57003 22200 00072 11505 70026 333 91210
BBXX 46208 18181 99525 71327 46/// /1907 10072 40251 5//// 22200 00076 11406 70030 333 91210
BBXX WRTF 18184 99577 71432 41697 81547 10050 2005/ 49900 57080 78062 886// 22232 00060 20509 314// 40818 5//// 6//// 80048 ICE /////
BBXX LAOX5 18184 99351 71597 41698 62118 00/// 10190 2017/ 40215 50000 70102 86688 22231 00019 20403 328// 40908 5//// 6//// 80175
BBXX A8CN9 18180 99490 71503 41397 62412 10090 20071 70222 84778 22224 04066 21108 324// 41007 5//// 80080
BBXX FLAO 1818/ 99764 70847 46/// ///// 11278 49913 52003
BBXX MINFR00 1818/ 99320 70803 46/// ///// 10130 40259 57004
BBXX 46185 18181 99524 71298 46/// /2301 10058 40275 52018 22200 00074 11003 70014 333 91202
BBXX 41036 18181 99342 70770 46/// ///// 10079 21018 40251 91820 22200 00164
BBXX 46087 18181 99485 71247 46/// /1701 10076 20075 40246 91820 22200 00079 333 91203 555 11014 22015 31727 42904 61819 169013 209006 161005 286009 295018 294022
BBXX 44040 18181 99410 70736 46/// /0105 11025 21136 40247 91800 22200 1//00 70002 333 91207 555 11057 22057
BBXX 44029 18181 99425 70706 46/30 /3609 11037 40219 55005 91804 22200 00088 10604 70022 333 91212 555 11110 22115
BBXX 44030 18181 99432 70704 46/// /3505 1//// 40225 58013 91804 22200 00087 10602 70012 333 91208 555 11063 22067
BBXX V7MO3 18184 99262 70910 418// 20518 10202 20124 40220 56009 7//00 821// 22200 00250 20302 306// 40504 5//// 6//// 80155 ICE /////
BBXX 3FPR9 18184 99286 71160 41599 43013 10150 20116 40180 52020 71581 82105 22234 04170 20501 330// 41603 5//// 6//// 80130 ICE /////
BBXX 9HXC9 18184 99233 70731 41598 40609 10242 20179 40163 54000 7//11 84100 22235 04270 20502 3//// 40702 5//// 6//// 85200 ICE /////
BBXX 7JJA 18184 99359 11413 41797 60318 00 10080 20013 40165 57010 70222 831/4 9//// 22290 0 2//01 3 4 5 6//// 80050 ICE /////
BBXX JGQH 18184 99347 11395 41/97 22716 10099 20023 40180 58004 70211 82230 22212 00193 10603 20302 399// 4//02 70014
BBXX UFLC 18180 99442 11361 42/98 92811 11090 40230 54000 89/// 22252 06015 20402
AAXX 18181 80001 01470 70540 10278 20244 30139 40140 69941 72022 81236 333 56100 58000 69947 81818 85359
AAXX 18181 80002 01470 80504 10274 20234 69911 72052 82178 333 56190 69917 82818 84270
AAXX 18181 80009 31460 60000 10292 20251 30102 40107 70511 82231 333 56000 57822 59001 82817 85357
AAXX 18181 80022 31462 73102 10310 20251 30109 40111 70522 84871 333 56799 59002 84813 83357
AAXX 18181 80028 31465 30703 10299 20229 30087 40122 70500 81501 333 561/9 58002 81615
AAXX 18181 80036 31568 60506 10302 20222 70500 82208 333 560/0 82820 84270
AAXX 18181 80063 NIL
AAXX 18181 80084 31470 71502 10279 20223 70522 8481/ 333 5619/ 84817 85459
AAXX 18181 80091 11465 40402 10292 20242 60021 71552 83810 333 5690/ 83610
AAXX 18181 80094 NIL
AAXX 18181 80097 NIL
AAXX 18181 80099 31466 31003 10306 20215 39927 40070 70500 83101 333 569/9 58014 83815
AAXX 18181 80110 31670 60000 10250 20144 38482 70511 82280 333 5600/ 57895 59020 82840 85358
AAXX 18181 80112 31467 70403 10197 20136 37893 71522 85261 333 56999 57893 59010 85818
AAXX 18181 80139 32570 60905 10327 20213 83100 333 5639/ 83823 83359
AAXX 18181 80144 31460 52105 10290 20230 70522 85200 333 560// 85817
AAXX 18181 80210 11463 72102 10246 20181 38659 60011 70552 83836 333 56550 59001 83815 84358
AAXX 18181 80214 31560 80702 10277 20206 39114 70542 83834 333 56550 59008 83820 84359
AAXX 18181 80222 31568 72650 10180 20127 37514 70522 86206 333 56699 57893 58000 86820
AAXX 18181 80234 32562 50102 10306 20207 39596 40090 84532 333 56239 59007 84623
AAXX 18181 80241 NIL
AAXX 18181 80259 11560 80601 10280 20192 39051 69901 75052 85830 333 5629/ 59004 85823 83359
AAXX 18181 80315 31562 60000 10292 20219 39588 40082 71522 84275 333 56779 57824 59005 83823 81825
AAXX 18181 80342 31558 50304 10198 20167 38215 74022 85800 333 564// 59001 85820
AAXX 18181 80370 11570 50000 10160 20099 60021 70265 83850 333 5633/ 83820
AAXX 18181 80398 32470 50402 10307 20257 30000 40095 85831 333 56199 58002 85816
AAXX 18181 22471 12384 81807 11025 21038 30109 40133 57004 60020 886// 333 10010 88708 91113
AAXX 18184 63708 11570 30000 10207 20186 60142 83400 333 10284 58003 83621
AAXX 18184 63740 32580 30208 10109 20150 48508 81530 333 10265 58005 81623
AAXX 18184 63820 32580 20610 10275 20247 40102 82100 333 10332 58006 82823
AAXX 18184 63612 NIL
AAXX 18184 63661 NIL
AAXX 18184 63671 NIL
AAXX 18184 63688 NIL
AAXX 18184 63695 NIL
AAXX 18184 63714 NIL
AAXX 18184 63723 NIL
AAXX 18184 63772 NIL
AAXX 18184 63793 NIL
AAXX 18184 63729 12980 50000 10204 20186 38862 48/// 69902 80002 333 0//19 10253 55300 59005 85071
AAXX 18184 63881 11480 72804 10177 20162 38210 48/// 60032 71322 82972 333 10226 58015 82618 81920 87075
AAXX 18184 63887 11480 81815 10189 20173 38588 48504 60032 78092 8597/ 333 0//12 10173 55300 58015 60037 85618 81920
AAXX 18184 63932 12580 60000 10168 20168 38314 48513 60372 8293/ 333 0//26 10241 58013 82620 81922 86358
AAXX 18184 91723 NIL
AAXX 18184 91964 NIL
BBXX 44137 18181 99423 70620 46/// /0512 10070 40092 57019 22200 00100 10806 70032 333 91214
BBXX 44137 18181 99423 70620 46/// /0512 10070 40092 57019 22200 00100 10806 70032 333 91214
AAXX 18181 31152 42997 81801 11330 21360 39820 40273 54000 86036
AAXX 18181 31163 NIL
AAXX 18181 31285 42999 02301 11297 21328 30146 40234 53006
AAXX 18181 31561 42998 00000 11304 21321 30189 40220 53003
AAXX 18181 31683 42999 00000 11266 21277 30109 40191 52006
AAXX 18181 32010 41496 83003 11072 21081 30056 40106 52010 78583 889// 333 88910 91005 91112
AAXX 18183 64400 42460 71808 10265 20232 30069 40088 8487/ 333 58006 82815 83626 87362 94902 95832
AAXX 18183 64401 32460 82204 10240 20218 39727 40099 8657/ 333 10270 58013 86616 88363
AAXX 18184 64450 11457 82816 10248 20220 39737 40096 69932 79596 8597/ 333 10312 58015 81813 85623 81926 88463 94973 95876
AAXX 18183 64453 31460 70000 10216 20200 39/// 40/// 72992 869// 333 10270 5//// 86612 81930 94948 95838
AAXX 18183 64456 32560 10000 10283 20230 39/// 40/// 81900 333 10330 5//// 81820 81930 94968 95818
AAXX 18183 64458 32957 00000 10260 20216 39674 40061 333 10330 59004
AAXX 18183 64459 32960 50000 10270 20235 39718 40079 82062 333 10326 59005 82360 83080
AAXX 18183 64460 NIL
AAXX 18184 71963 16/// /2402 11299 21327 39707 40132 52019 60001 333 11252 21304 70003
AAXX 18184 71761 16/// ///// 11016 21095 60001 333 10007 21024 70000
AAXX 18184 71923 16/// ///10 11265 21288 39629 40090 53028 60001 333 11173 7////
AAXX 18184 71490 16/// /3211 11274 21298 39792 40126 51012 60001 333 11235 21284 70000
AAXX 18184 71592 16/// /3007 11198 21236 39853 49866 58008 60001 333 11166 21214 70000
AAXX 18183 64402 31458 60000 10231 20216 39519 40092 83930 333 10269 58019 83613 81926 85363 94941 95831
AAXX 18183 64403 32960 70000 10251 20230 39/// 40/// 8707/ 333 10283 5//// 87363
AAXX 18183 64405 11320 80000 10223 20207 39/// 40/// 69902 71022 889// 333 10253 5//// 87607 81927 94948 95838
AAXX 18183 64452 31460 62202 10272 20230 39/// 40/// 70192 83902 333 10332 5//// 83613 81930 85080 94941 95831
AAXX 18183 64454 11560 80000 10240 20211 39655 40068 60012 71392 8192/ 333 10275 58001 82930 88463 94948 95838
AAXX 18183 64462 32960 40000 10253 20221 39/// 40/// 80001 333 10293 5//// 84080
AAXX 18183 64463 NIL
AAXX 18181 37470 31496 81403 10070 20057 30291 40268 52019 75155 886// 333 10078
AAXX 18181 37472 31596 81308 10068 20053 30268 40245 52032 71022 8357/ 333 91120 91016 91122
AAXX 18181 38111 32997 01009 11021 21112 30356 40326 52025 333 10033
AAXX 18181 38750 32997 03201 10051 20037 30316 40287 52015 333 10098
AAXX 18183 64402 31458 60000 10231 20216 39519 40092 83930 333 10269 58019 83613 81926 85363 94941 95831
AAXX 18183 64403 32960 70000 10251 20230 39/// 40/// 8707/ 333 10283 5//// 87363
AAXX 18183 64405 11320 80000 10223 20207 39/// 40/// 69902 71022 889// 333 10253 5//// 87607 81927 94948 95838
AAXX 18183 64452 31460 62202 10272 20230 39/// 40/// 70192 83902 333 10332 5//// 83613 81930 85080 94941 95831
AAXX 18183 64454 11560 80000 10240 20211 39655 40068 60012 71392 8192/ 333 10275 58001 82930 88463 94948 95838
AAXX 18183 64462 32960 40000 10253 20221 39/// 40/// 80001 333 10293 5//// 84080
AAXX 18184 63708 11570 30000 10207 20186 46496 60142 83400 333 10284 58003 83621
AAXX 18184 63740 32580 30208 101090 20150 48508 81530 333 10265 58005 81623
AAXX 18184 63820 32580 20610 10275 20247 40102 82100 333 10332 58006 82823
AAXX 18184 63612 NIL
AAXX 18184 63661 NIL
AAXX 18184 63671 NIL
AAXX 18184 63688 NIL
AAXX 18184 63695 NIL
AAXX 18184 63714 NIL
AAXX 18184 63723 NIL
AAXX 18184 63772 NIL
AAXX 18184 63793 NIL
BBXX VOXS 18184 99467 70480 41697 81208 10017 2000/ 40160 56022 70222 885// 22200 04024 20301 328// 40705 80012
BBXX VOXS 18184 99467 70480 41697 81208 10017 2000/ 40160 56022 70222 885// 22200 04024 20301 328// 40705 80012
BBXX 44138 18181 99443 70536 46/// /0416 10053 40069 57039 22200 00089 10707 70034 333 91219
BBXX CFO383 18184 99439 70602 47598 /0329 10018 2100/ 40112 5//// 700// 8//// 22200 00081 10604 2//// 70021 80009 333 91035
BBXX 44138 18181 99443 70536 46/// /0416 10053 40069 57039 22200 00089 10707 70034 333 91219
BBXX CFO383 18184 99439 70602 47598 /0329 10018 2100/ 40112 5//// 700// 8//// 22200 00081 10604 2//// 70021 80009 333 91035
AAXX 18184 63756 12480 30000 10200 20185 38863 48497 60062 81932 333 0//18 10260 59003 81618 81919
AAXX 18184 63894 32580 30310 10268 20257 30040 40100 83200 333 10328 58001 83822
BBXX 46004 18181 99509 71361 46/// /1812 10069 40219 57014 22200 00074 11408 70039 333 91215
BBXX 46036 18181 99484 71339 46/// /2007 10081 40293 52011 22200 00085 11507 70033 333 91209
BBXX 46145 18181 99544 71324 46/// /1608 10054 40235 57003 22200 00072 11505 70026 333 91210
BBXX 46181 18181 99538 71288 46/// /0605 10022 40277 52017 22200 00054 10300 70001 333 91206
BBXX 46183 18181 99536 71311 46/// /2002 10056 40258 52012 22200 00077 11401 70006 333 91205
BBXX 46185 18181 99524 71298 46/// /2301 10058 40275 52018 22200 00074 11003 70014 333 91202
BBXX 46204 18181 99514 71288 46/// /3003 10067 40277 52020 22200 00084 11605 70027 333 91205
BBXX 46205 18181 99542 71343 46/// /1811 10071 40204 57017 22200 00078 11407 70034 333 91214
BBXX 46206 18181 99488 71260 46/// /3209 10085 40247 52018 22200 00092 11507 70035 333 91212
BBXX 46208 18181 99525 71327 46/// /1907 10072 40251 5//// 22200 00076 11406 70030 333 91210
BBXX A8OU4 18184 99374 71423 41498 20510 10140 20102 40300 54000 70100 81169 22224 00180 20604 3//// 4//// 5//// 80120
BBXX KS098 18184 99440 71243 43/// /2214 10098 40255 22281 06000
BBXX WRTF 18184 99577 71432 41697 81547 10050 20050 49900 57080 78062 886// 22232 00060 20509 314// 40818 5//// 6//// 80048 ICE /////
BBXX A8QJ7 18183 99038 70272 41/98 70708 10280 20237 40096 55010 7//22 8673/ 22213 00280 2//// 3//// 4//// 5//// 80250
AAXX 18184 94997 46/// ///// 10006 39985 40000 5////
AAXX 18181 98134 NIL
AAXX 18181 98223 32562 73604 10239 20212 40111 58010 81870 333 56999 81620 87360
AAXX 18181 98232 11465 80210 10235 20210 40137 58018 78082 8557/ 333 56199 85618 88358
AAXX 18181 98325 32458 80000 10245 20217 40098 58022 8457/ 333 56999 83616 88358
AAXX 18181 98328 11461 81102 10170 20155 38500 40070 58022 69941 70584 82237 333 56999 82814 88278
AAXX 18181 98330 32470 80000 10243 20218 30074 40106 58020 8327/ 333 56999 83818 88358
AAXX 18181 98336 11458 80402 10220 20219 30111 40116 57023 60401 76366 8352/ 333 56199 83610 88456
AAXX 18181 98429 31560 21001 10239 20231 40101 58021 70544 82200 333 56999 82825
AAXX 18181 98430 31558 30401 10227 20217 40098 58018 70540 81102 333 56999 81820
AAXX 18181 98431 31458 70601 10250 20238 30055 40102 58009 70222 83230 333 56999 83818 87360
AAXX 18181 98440 11458 80903 10240 20233 30095 40100 57016 60091 71566 8527/ 333 56299 85815 88357
AAXX 18181 98444 32460 70603 10252 20237 30070 40089 58018 84378 333 56299 82917 83818 85459 86270
AAXX 18181 98526 32570 80403 10280 20247 40083 58016 82207 333 56299 82820 88274
AAXX 18181 98531 31568 30905 10278 20228 30072 40076 58032 70544 81230 333 56199 81820 83358
AAXX 18181 98536 NIL
AAXX 18181 98543 31468 70000 10253 20246 30084 40095 58022 71422 83208 333 56399 83818 87272
AAXX 18181 98550 11460 73401 10248 20240 40084 57019 60061 71582 83970 333 56999 81915 87357
AAXX 18181 98618 12570 61604 10276 20255 40069 58017 69941 70298 84201 333 56999 84820 84075
AAXX 18181 98630 32575 30203 10260 20247 40118 58008 82201 222// 2//02 333 56199 82820
AAXX 18181 98637 NIL
AAXX 18181 98646 32560 73604 10266 20250 30076 40104 57019 82232 333 56899 82820 84360 86080
AAXX 18181 98653 NIL
AAXX 18181 98741 31468 70402 10256 20250 40070 57022 71310 82978 333 56999 82917 86275
AAXX 18181 98747 31460 30000 10247 20238 39874 40077 58010 70544 82201 333 56999 82818
AAXX 18181 98753 31468 33602 10266 20249 40071 58033 70544 82201 333 56999 82816
AAXX 18181 98755 11570 40000 10257 20248 40074 58020 60021 72582 83201 333 56199 83820
AAXX 18181 98836 31460 60000 10259 20240 40075 57023 70544 81208 333 56999 81818 86281
AAXX 18184 94290 46/// /0918 10269 30076 40085 55004 91824
AAXX 18184 94210 35/// /2407 10278 30041 40046 57021
AAXX 18184 94289 46/// /1118 10275 30067 40074 56008 91815
AAXX 18184 94379 46/// /1215 10245 30106 40115 55000 91826
AAXX 18184 83437 31598 73605 10278 20196 39374 40081 70542 8437/ 333 59017
AAXX 18184 83579 32599 70000 10240 20191 38972 40076 87700 333 59008
AAXX 18184 83592 21597 80504 10250 20205 39439 40114 70265 885// 333 59001 60291
AAXX 18184 94290 46/// /0918 10269 30076 40085 55004 91824
AAXX 18184 94997 46/// ///// 10006 39985 40000 5////
BBXX 44040 18181 99410 70736 46/// /0205 11023 21135 40247 91819 22200 1//00 70002 333 91208 555 11057 22057
BBXX A8QJ7 18183 99038 70272 41/98 70708 10280 20237 40096 55010 7//22 8673/ 22213 00280 2//// 3//// 4//// 5//// 80250
BBXX 44056 18181 99362 70757 46/// ///// 1//// 91750 22200 00106 10602 20602 308// 41301 70011
BBXX PDHW 18183 99471 70196 41496 82030 10122 20101 40231 57035 72522 887// 22263 00120 20605 80110
AAXX 18181 55279 32980 02204 11107 21283 35681 57005 333 05251 11010
AAXX 18181 55472 32980 00702 11085 21320 35724 52003 333 05104 10020
AAXX 18181 55696 32980 00403 11062 21102 36337 52001 333 05101 10087
AAXX 18181 56079 32980 00401 11128 21152 36677 57006 333 05204 10015
AAXX 18181 56106 32980 00000 11088 21240 36193 57009 333 05302 10051
AAXX 18181 56257 32980 00901 11072 21194 36274 57003 333 05101 10065
AAXX 18181 56374 32980 02001 11050 21082 37432 57011 333 05451 10033
AAXX 18181 56385 11/00 93601 11069 21070 37010 57006 69911 76664 333 05301 11010 93430
AAXX 18181 56954 32561 60201 10122 20120 40181 54000 85440 333 00000 10235
AAXX 18181 56966 32768 71106 10162 20094 40187 52001 87400 333 05100 10246
AAXX 18181 57237 31956 02901 10010 21006 40298 57008 71000 333 10066
AAXX 18181 57306 31958 82901 10057 20050 40285 57011 71000 8807/ 333 10082
AAXX 18181 57604 31940 83401 10079 20048 40273 57006 71000 8807/ 333 10102
AAXX 18181 57707 11456 80000 10021 20020 38535 57005 69931 76060 887// 333 05501 10094
AAXX 18181 57832 32663 81601 10032 20006 39532 40289 57008 885// 333 05400 10097
AAXX 18181 55228 32980 02504 11084 21291 36021 52007 333 05151 10010
AAXX 18181 55578 32980 02205 10054 21263 36352 52010 333 05115 10118
AAXX 18181 55664 32980 00000 11026 21265 36014 52012 333 00108 10091
AAXX 18181 55773 32970 00202 11098 21123 36016 52003 333 00102 10067
AAXX 18181 56116 32680 22901 11091 21145 36329 57007 82400 333 05300 10036
AAXX 18181 56137 32980 00000 11065 21167 36786 54000 333 05352 10095
AAXX 18181 56172 32980 00000 11042 21067 37355 57002 333 05353 10102
AAXX 18181 56247 32980 01101 10000 21140 37436 52005 333 05151 10143
AAXX 18181 56312 32680 81602 10022 21091 37099 57006 884// 333 05101 10094
AAXX 18181 56462 32980 03202 11044 21089 37147 52001 333 05251 10110
AAXX 18181 56651 32980 02506 10064 21087 37643 57003 333 05204 10138
AAXX 18181 56691 11360 81802 10014 20008 37788 57006 69901 76060 887// 333 05404 10025
AAXX 18181 56985 32562 31603 10094 20063 38748 40212 57001 83400 333 05100 10149
AAXX 18181 57633 31758 80000 10030 20001 39500 40305 57010 71000 885// 333 05301 10068
AAXX 18181 57902 11560 80701 10060 20053 38670 40240 57006 69901 72160 886// 333 05402 10088
AAXX 1818/ 48969 NIL
AAXX 1818/ 48962 NIL
AAXX 1818/ 48990 NIL
AAXX 1818/ 48986 NIL
AAXX 1818/ 48995 NIL
AAXX 1818/ 48967 NIL
AAXX 1818/ 48992 NIL
AAXX 1818/ 48965 NIL
AAXX 1818/ 48985 NIL
AAXX 1818/ 48970 NIL
AAXX 1818/ 48991 NIL
AAXX 1818/ 48964 NIL
AAXX 1818/ 48997 NIL
AAXX 1818/ 48968 NIL
AAXX 1818/ 48973 NIL
AAXX 1818/ 48966 NIL
AAXX 1818/ 48983 NIL
AAXX 1818/ 48972 NIL
AAXX 1818/ 48998 NIL
AAXX 1818/ 48993 NIL
AAXX 1818/ 48971 NIL
AAXX 1818/ 48963 NIL
AAXX 1818/ 48987 NIL
AAXX 1818/ 89327 46/// ///// 10008 39754 4//// 5//// 91820
AAXX 1818/ 89828 46/// ///// 11279 36557 4//// 5//// 91820
AAXX 1818/ 89879 46/// ///// 11011 39835 4//// 5//// 91820
AAXX 1818/ 89667 46/// ///// 4//// 5//// 91810
AAXX 1818/ 89667 46/// ///// 4//// 5////
AAXX 1818/ 89872 46/// ///// 11068 39887 4//// 5//// 91820
AAXX 1818/ 89869 46/// ///// 11109 39838 4//// 5//// 91820
AAXX 1818/ 89866 46/// ///// 11055 39812 4//// 5//// 91820
AAXX 1818/ 89329 46/// ///// 11150 38788 4//// 5//// 91820
AAXX 1818/ 89799 46/// ///// 11220 4//// 5//// 91820
AAXX 1818/ 89769 46/// ///// 11113 39889 4//// 5//// 91820
AAXX 1818/ 89314 46/// ///// 11143 38222 4//// 5//// 91820
AAXX 18184 89667 46/// /0808 11116 39928 4//// 5//// 91820
AAXX 18184 43329 32596 80000 10232 20217 30021 40034 8357/ 333 59001
AAXX 18184 71048 16/// /3215 11008 21055 60001 333 10041 21061 70000
AAXX 18181 11867 11569 79901 10006 21028 39826 40150 50017 69912 77122 875// 333 10047 87631
AAXX 18184 71050 46/// /2603 11062 21070 39176 40273 51020 6///1 333 10008 21097 7////
AAXX 18184 71277 46/// /2406 11030 21031 6///1 333 11003 21075 7////
AAXX 18184 71981 17/// /2601 11023 21034 60011 7//4/ 333 10082 21031 70010
AAXX 18184 71982 17/// /2504 11015 21022 60011 7//4/ 333 10095 21027 70010
AAXX 18184 71986 16/// /3310 11015 21047 60001 333 10044 21018 70000
AAXX 18184 71990 46/// /2405 11117 21144 38490 40118 5/005 6///1 333 11104 21155 7////
AAXX 18184 71354 46/// /3011 11017 21059 6///1 333 10005 21031 7////
AAXX 18184 71406 16/// /2809 11100 21142 30202 40212 58006 60001 333 11100 21111 70000
AAXX 18184 71418 46/// /0313 11029 21080 30155 40188 56014 6///1 333 11025 21037 7////
AAXX 18184 71050 46/// /2603 11062 21070 39176 40273 51020 6///1 333 10008 21097 7////
AAXX 18184 63862 11480 70000 10192 20182 38899 48491 60072 71764 8392/ 333 0//72 10300 58016 83817 81918 86458
AAXX 18184 63870 12480 10000 10272 20252 30081 40099 60082 81200 333 0//99 10325 55300 58008 81818
AAXX 18181 28334 32497 72302 11065 21111 30145 40466 52004 8757/ 333 11075
AAXX 1818/ 89828 46/// ///// 11279 36557 4//// 5//// 91830
AAXX 1818/ 89108 46/// ///// 11195 36879 4//// 5//// 91820
AAXX 1818/ 89108 46/// ///// 11189 36881 4//// 5//// 91830
AAXX 1818/ 89879 46/// ///// 11011 39836 4//// 5//// 91830
AAXX 1818/ 89872 46/// ///// 11070 39885 4//// 5//// 91830
AAXX 1818/ 89869 46/// ///// 11106 39837 4//// 5//// 91830
AAXX 1818/ 89329 46/// ///// 11148 38788 4//// 5//// 91830
AAXX 1818/ 89332 46/// ///// 11108 39280 4//// 5//// 91830
AAXX 1818/ 89769 46/// ///// 11111 39889 4//// 5//// 91830
AAXX 1818/ 89314 46/// ///// 11135 38224 4//// 5//// 91830
AAXX 18184 89667 46/// /0808 11113 29067 39927 4//// 5//// 91830
AAXX 1818/ 89767 46/// ///// 11123 39794 4//// 5////
AAXX 18184 89507 46/89 /1311 11181 29075 36846 4//// 5////
AAXX 18184 89657 46/// /2004 11041 20125 40002 52005
BBXX 42360 18181 99267 70905 46/// /0508 10198 91800 22200 00245 10603 70015 333 91211
AAXX 18181 11867 11569 79901 10006 21028 39826 40150 50017 69912 77122 875// 333 10047 42997 87631
AAXX 18184 63962 11480 71506 10213 20195 38952 48510 60022 71796 8297/ 333 10295 58008 82619 81920 87457
AAXX 18184 03896 16/// ///// 10058 60022 333 10090
AAXX 18184 61902 11357 71313 10225 20202 40130 69952 78082 878// 333 10265 58002 81708 83815 87640
BBXX GDTT 18184 99136 70704 41397 40716 10275 20199 40135 53/// 7//11 84145 22232 00300 20405 80225
AAXX 18184 83384 32597 70000 10296 20220 39515 40085 86580 333 59016
AAXX 18184 83386 32398 63607 10294 20214 39549 40072 83934 333 59023
AAXX 18184 83388 32497 50905 10306 20180 39395 40051 852// 333 59022
AAXX 18184 83393 32599 30906 10288 20179 39390 40099 82102 333 59002
AAXX 18184 83442 32597 20502 10304 20197 39732 40069 81162 333 59015
AAXX 18184 83479 31598 80508 10255 20215 39300 40090 71552 889// 333 59004
AAXX 18184 83483 21598 82704 10257 20226 39527 40086 70352 8671/ 333 59008 69921
AAXX 18184 83531 21597 83204 10218 20211 39070 40099 72162 889// 333 59001 60041
AAXX 18184 83538 32597 83602 10221 20174 38688 40066 887// 333 59017
AAXX 18184 83574 32794 73602 10324 20203 39547 40141 5//// 87400
AAXX 18184 83582 32598 83602 10259 20212 39320 40079 58020 88700
AAXX 18184 83595 32597 70902 10308 20240 30019 40102 8575/ 333 59007
AAXX 18184 83692 21698 63606 10228 20200 39067 40079 54000 72162 86200 333 60011
BBXX 41053 18181 99185 70661 46/// /0505 10263 40140 91830 333 91206
BBXX 41053 18181 99185 70661 46/// /0404 10266 40141 91820 333 91206
BBXX 41053 18181 99185 70661 46/// /0504 10265 40141 91810 333 91206
BBXX 41033 18181 99323 70804 46/// /0504 10122 40258 58009 91800 555 11057 22067
BBXX 41052 18181 99183 70648 46/// /0507 10265 40131 91830 333 91209
BBXX 41052 18181 99183 70648 46/// /0507 10264 40131 91820 333 91209
BBXX 41052 18181 99183 70648 46/// /0507 10265 40131 91810 333 91208
BBXX 42085 18181 99179 70665 46/// /1402 10282 40131 91830 333 91204
BBXX 42085 18181 99179 70665 46/// /1602 10281 40132 91820 333 91203
BBXX PHOB 18184 99078 10748 41997 00506 10280 20239 40111 51011 70211 80000 22224 00275 2//// 3//// 4//// 5//// 80250
BBXX A8QJ7 18183 99038 70272 41/98 70708 10280 20237 40096 55010 7//22 8673/ 22213 00280 2//// 3//// 4//// 5//// 80250
BBXX PDHP 18183 99148 10419 41998 01214 10270 40141 51023 70200 80000 22275 00270 20101
BBXX MZFR9 18183 99379 50476 41598 80317 10200 20181 40036 58012 8641/ 22213 02197 20403 309// 40804 5//// 80188
BBXX 42360 18181 99267 70905 46/// /0508 10198 91800 22200 00245 10603 70015 333 91211
BBXX 44056 18181 99362 70757 46/// ///// 1//// 91750 22200 00106 10602 20602 308// 41301 70011
BBXX 44040 18181 99410 70736 46/// /0205 11023 21135 40247 91819 22200 1//00 70002 333 91208 555 11057 22057
BBXX CFO383 18184 99439 70602 47598 /0329 10018 2100/ 40112 5//// 700// 8//// 22200 00081 10604 2//// 70021 80009 333 91035
BBXX 44138 18181 99443 70536 46/// /0416 10053 40069 57039 22200 00089 10707 70034 333 91219
BBXX VOXS 18184 99467 70480 41697 81208 10017 2000/ 40160 56022 70222 885// 22200 04024 20301 328// 40705 80012
BBXX 44137 18181 99423 70620 46/// /0512 10070 40092 57019 22200 00100 10806 70032 333 91214
BBXX 44060 18181 99413 70721 46/// ///07 11022 40223 91830 22200 00104 333 91209 555 11072 22072
BBXX 44022 18181 99409 70737 46/// ///05 11025 21118 40243 91830 22200 00086 333 91207 555 11051 22051
BBXX 46214 18181 99379 71235 46/// ///// 1//// 91825 22200 00114 11706 21002 331// 41706 70030
BBXX 46224 18181 99332 71175 46/// ///// 1//// 91806 22200 00143 11401 21001 325// 41401 70005
BBXX 46215 18181 99352 71209 46/// ///// 1//// 91808 22200 00147 11703 21001 326// 41703 70015
BBXX 46243 18181 99462 71241 46/// ///// 1//// 91829 22200 00083 11506 21004 326// 41504 70028
BBXX 46225 18181 99329 71174 46/// ///// 1//// 91814 22200 00148 12002 21001 328// 42001 70008
BBXX 46219 18181 99332 71199 46/// ///// 1//// 91828 22200 00135 11804 20802 330// 41804 70022
BBXX 46213 18181 99403 71247 46/// ///// 1//// 91824 22200 00103 11506 21003 329// 41506 70032
BBXX 46229 18181 99438 71246 46/// ///// 1//// 91821 22200 00102 11407 20903 330// 41406 70034
BBXX 46217 18181 99342 71194 46/// ///// 1//// 91812 22200 00147 11301 20401 327// 41301 70007
BBXX 46236 18181 99368 71219 46/// ///// 1//// 91820 22200 00126 11303 21001 328// 41303 70017
BBXX 42364 18181 99291 70881 46/// /0207 10172 20067 40275 91830
BBXX 42363 18181 99282 70892 46/// /0508 10167 20061 40275 91830 333 91209
BBXX 46239 18181 99363 71221 46/// ///// 1//// 91821 22200 00128 11706 21002 330// 41706 70031
BBXX 46238 18181 99334 71195 46/// ///// 1//// 91820 22200 00144 11703 20402 329// 41703 70016
BBXX 42362 18181 99278 70907 46/// /0508 10189 20072 40268 91830
BBXX PDHW 18183 99471 70196 41496 82030 10122 20101 40231 57035 72522 887// 22263 00120 20605 80110
BBXX 62095 18184 99530 70159 46/// /2217 10100 20083 40184 58027 22200 00113 10706 70029 333 90710 91126
BBXX 62094 18184 99517 70067 46/// /2916 10086 20052 40218 53003 22200 00105 10503 70015
BBXX 62027 18184 99491 70022 46/// /3416 1//// 2//// 40209 50010 22200 00112 10704 330// 70021 333 90710 91127
BBXX 62107 18184 99501 70061 46/// /3320 10093 20029 40227 51006 22200 00115 10803 70016 333 90710 91128
AAXX 18181 47003 42980 03202 11062 21155 30255 40259 53002
AAXX 18181 47005 42980 11401 11194 21214 38603 54000 80002
AAXX 18181 47022 42975 03203 11146 21189 38854 52004
AAXX 18181 47028 42962 01802 11111 21155 30205 40307 52005
AAXX 18181 47031 42970 00000 11163 21182 38953 53002
AAXX 18181 47037 42970 00000 11118 21211 30169 40302 52002
AAXX 18181 47039 42960 00000 11126 21139 30115 40321 52002
AAXX 18181 47046 42969 00000 11066 21103 30223 40247 53006
AAXX 18181 47050 42965 00000 11104 21124 30267 40303 57001
AAXX 18181 47052 42965 00000 11145 21165 39963 40329 52005
AAXX 18181 47060 42960 00903 11055 21081 30253 40315 52005
AAXX 18181 47065 42970 03201 11079 21106 30244 40313 54000
AAXX 18181 47067 42965 00000 11100 21126 30202 40331 52005
AAXX 18181 47068 42560 80000 11076 21098 30264 40301 58004 885//
AAXX 18181 47070 42970 00000 11059 21116 30222 40314 52004
AAXX 18181 47008 42970 00000 11058 21136 30195 40251 58003
AAXX 18181 47014 42950 00000 11204 21216 39875 40316 54000
AAXX 18181 47016 42970 00000 11196 21229 39403 40312 53003
AAXX 18181 47020 42965 00000 11157 21170 39935 40348 53012
AAXX 18181 47025 42960 00000 11069 21161 30218 40248 52005
AAXX 18181 47035 42962 00000 11088 21120 30302 40311 54000
AAXX 18181 47041 42970 00000 11067 21164 30235 40265 52005
AAXX 18181 47058 42960 00000 11090 21110 30263 40314 58007
AAXX 18181 47069 42965 00000 11054 21092 30199 40304 58006
AAXX 18181 45032 NIL
AAXX 18181 45035 NIL
AAXX 18181 45039 NIL
AAXX 18181 45044 NIL
AAXX 18181 45032 NIL
AAXX 18181 45035 NIL
AAXX 18181 45039 NIL
AAXX 18181 45044 NIL
AAXX 18184 47648 11/80 80313 10079 20011 30141 40176 56004 69901 78022 8527/
AAXX 18184 63801 01580 70000 10218 20206 39203 48522 60012 70396 8197/ 333 0//13 10285 58005 60010 81820 81921 87358
AAXX 18184 71060 17/// /2902 11028 21072 38648 40226 51023 69971 7//4/ 333 10032 21040 70056 555 10060
AAXX 18184 71793 16/// ///// 11015 21058 60001 333 11012 21058 70000
AAXX 18184 71974 46/// /1409 11374 21410 30046 40091 58012 6///1 333 11369 21395 7////
AAXX 18184 71399 16/// ///// 11021 21055 60001 333 11011 21059 70000
AAXX 18184 71565 16/// /3109 11026 21032 60001 333 10004 21034 70017
AAXX 18184 71566 17/// /2906 11017 21023 69941 7//4/ 333 10003 21027 70029
AAXX 18184 71567 16/// /3113 11024 21089 60001 333 10011 21053 70000
AAXX 18184 71073 17/// /2804 11027 21035 69961 7//4/ 333 10056 21033 70006
AAXX 18184 89646 46/// /01// 11277 29070 37722 4//// 5////
AAXX 18184 89648 46/// /2709 11307 29065 37230 4//// 5////
AAXX 18184 89659 46/// /3013 11280 29064 37744 4//// 5////
AAXX 18184 89661 46/// /2542 11086 29054 39269 4//// 5////
AAXX 18184 89662 42980 02715 11037 21203 39847 49952 57019 222 ICE 98015 333 21045
AAXX 18184 89666 46/// /2911 11068 29064 39756 4//// 5////
AAXX 18184 71848 17/// ///// 11014 21034 69971 7//4/ 333 10078 21020 70007
AAXX 18184 71495 17/// /3204 11025 21035 69951 7//4/ 333 10054 21046 70011
BBXX 46241 18181 99330 71173 46/// ///// 1//// 91811 22200 00144 11401 20801 326// 41401 70007
BBXX 44024 18181 99423 70659 46/24 /3612 10018 40143 55009 91804 22200 00088 10806 70032 333 91215 555 11153 22161
AAXX 18184 91532 45/// /0708 10272 20233 30064 40072 52003
BBXX 46216 18181 99343 71198 46/// ///// 1//// 91827 22200 00146 11402 20501 326// 41401 70010
BBXX 46223 18181 99335 71178 46/// ///// 1//// 91830 22200 00153 11302 21001 328// 41301 70008
BBXX 46231 18181 99327 71174 46/// ///// 1//// 91824 22200 00148 11802 21001 327// 41801 70009
BBXX 46222 18181 99336 71183 46/// ///// 1//// 91826 22200 00153 11301 20801 326// 41301 70006
AAXX 18181 89063 42497 83401 10014 21021 39860 49871 57020 886// 333 44123
AAXX 18184 97430 32460 50000 10260 20242 30040 40069 57020 83232 333 56500 57852 83818 80860
AAXX 18184 97686 01356 72703 10174 20156 38332 40064 56004 69971 70562 85746 333 56000 69977 84709 86361
AAXX 18184 89610 46/// /0417 11017 39684 4//// 5//// 333 90700 91121
AAXX 18184 89610 46/// /0417 11017 39684 4//// 5//// 333 90700 91121
AAXX 18184 89610 46/// /0417 11017 39684 4//// 5//// 333 90700 91121
AAXX 18184 63612 12980 50000 10292 20217 40097 69902 83031 333 10346 59002 83359
AAXX 18184 63661 32980 20000 10172 20145 48529 83050 333 10252 59001 83359
AAXX 18184 63772 32980 00504 10274 20247 333 10320
BBXX AMOUK03 18184 99537 70003 46/// ///// 10043 21019 30120 40151 52019 91750
BBXX AMOUK08 18184 99501 70061 46/// ///// 10096 20042 30222 40225 52007 91750
BBXX 63106 18184 99610 10017 46/// /3121 10039 40050 51004 22200
BBXX 63113 18184 99610 10017 46/// /3223 10039 20005 40056 52002 22200 10808 70041
BBXX 63110 18183 99595 10015 41/98 /3324 10056 40070 700// 8//// 22200 10707 70037
BBXX 62094 18184 99517 70067 46/// /2916 10086 20050 40218 53003 22200 00105 10503 70015
BBXX 62081 18184 99510 70134 46/// ///// 10104 20050 40242 56010 22200 00119 10705 70027
BBXX 62103 18184 99499 70029 46/99 /3122 10089 20038 40202 52014 22200 00121 10703 70014 333 90710 91133
AAXX 18183 63671 32980 00904 10269 20217
AAXX 18183 63695 12980 10000 10175 20159 69952 80001 333 10250 81078
BBXX A8CN9 18180 99490 71503 41397 62412 10090 20071 70222 84778 22224 04066 21108 324// 41007 5//// 80080
BBXX LAOX5 18184 99351 71597 41698 62118 00/// 10190 20170 40215 50000 70102 86688 22231 00019 20403 328// 40908 5//// 6//// 80175
BBXX MINUK01 1818/ 99602 70012 46/// ///// 10028 40108 52008
BBXX MINFR05 1818/ 99497 70067 46/// ///// 10113 40297 52003
AAXX 18184 71502 16/// /1109 11250 21269 30002 40018 56013 60001 333 11248 21280 70000
AAXX 18184 71509 17/// /0405 11014 21017 69951 7//4/ 333 10108 21016 70005
AAXX 18184 71517 17/// /0208 11012 21015 69991 7//4/ 333 10097 21013 70009
AAXX 18184 71518 17/// /3108 11005 21014 69981 7//4/ 333 10084 21013 70008
AAXX 18184 71519 17/// /3307 11006 21013 69941 7//4/ 333 10071 21010 70004
AAXX 18184 71520 16/// /1415 11195 21225 39458 40163 56017 60001 333 11193 21285 70000
AAXX 18184 71521 16/// ///// 11169 21225 60001 333 11168 21368 70000
AAXX 18184 71523 16/// ///// 11147 21176 39795 40191 56023 60001 333 11147 21309 70000
AAXX 18184 71528 16/// /3409 11009 21015 60001 333 10097 21018 70000
AAXX 18184 71102 16/// ///// 11031 21076 60001 333 10007 21046 70000
AAXX 18184 71105 16/// ///// 11001 21022 60001 333 10076 21009 70000
AAXX 18184 71383 16/// ///// 11158 21226 39548 40188 56024 60001 333 11157 21293 7////
AAXX 18184 71409 16/// ///// 11009 21014 60001 333 10050 21010 70000
AAXX 18184 71841 17/// /1606 11044 21055 39644 40044 57044 60011 7//4/ 333 11044 21103 70014 555 10020
AAXX 18184 71051 46/// ///// 11005 21027 6///1 333 7////
AAXX 18184 71057 17/// ///// 11014 21034 69941 7//4/ 333 10082 21034 70004
AAXX 18184 71070 16/// ///// 11008 21015 60001 333 10071 21008 70000
AAXX 18184 71089 16/// ///// 11021 21060 60001 333 10002 21073 70000
AAXX 18184 71789 17/// ///// 11008 21014 69951 7//4/ 333 10107 21009 70005
AAXX 18184 71794 16/// ///// 11020 21061 60001 333 11004 21053 70005
AAXX 18184 71795 17/// ///// 11006 21020 69941 7//4/ 333 10090 21007 70004
AAXX 18184 71796 16/// ///// 11015 21055 60001 333 11004 21050 70000
AAXX 18184 71006 16/// /3112 10000 21034 60001 333 10000 21047 70000
AAXX 18184 71007 46/// ///// 11013 21028 6///1 333 10095 21013 7////
AAXX 18184 71008 16/// /3015 11013 21027 60001 333 10052 21016 70000
AAXX 18184 71009 17/// /2908 11014 21024 60011 7//4/ 333 10070 21027 70012
AAXX 18184 71012 16/// /2811 11022 21057 60001 333 11006 21046 70000
AAXX 18184 71035 17/// ///// 11015 21026 69961 7//4/ 333 10042 21033 70017
AAXX 18184 71433 46/// /2121 10001 21027 39889 40121 58025 6///1 333 10012 21032 7////
AAXX 18184 71841 17/// /1606 11044 21055 39644 40044 57044 60011 7//4/ 333 11044 21103 70014 555 10020
AAXX 18184 71433 46/// /2121 10001 21027 39889 40121 58025 6///1 333 10012 21032 7////
BBXX UFLC 18180 99442 11361 42/98 92811 11090 40230 54000 89/// 22252 06015 20402
BBXX 46221 18181 99339 71186 46/// ///// 1//// 91815 22200 00149 11401 20801 327// 41401 70007
BBXX AUYK 18184 99137 11128 44197 70333 10240 20226 41015 54000 70215 87110 22212 00270 29907
BBXX A8SZ5 18184 99120 31161 41497 61620 10290 20249 40050 54000 703// 8/26/ 22243 00/// 2//04 80260
BBXX A8HJ8 18183 99012 11034 41/96 /3211 10255 20250 40090 57010 70222 8//// 22200 00/// 20301 80251
BBXX DDGK2 18184 99108 11097 41697 63632 10250 20214 40100 50010 702// 84476 22283 00252 2//08 80225
BBXX MTDU5 18183 99235 30515 41296 80835 10230 20207 40034 50020 76062 8/7// 22215 04258 20606 80215
BBXX V7SY6 18184 99147 10635 41797 10318 10260 20217 40270 54000 70100 81800 22223 00230 20603 30505 40603 50502 80230
BBXX V7OE6 18183 99193 10646 41598 20610 10250 20174 40162 51011 70200 8146/ 22274 00300 20301 80202
BBXX ZQDI9 18183 99017 11051 41597 80617 10283 20248 40080 57005 70222 8372/ 22200 00281 20702 80258
BBXX 3FUL2 18183 99167 11131 41398 80529 10240 20194 40180 54000 70222 8761/ 22284 04290 20607 80210
BBXX 9MBW7 18184 99282 11264 41398 70505 10220 20217 40190 51000 70003 87/// 22214 00241 2//// 80215
AAXX 18184 87046 32565 30000 10318 20121 39082 48479 57028 83200 333 56000 57872 81830 83635
BBXX AUYK 18184 99137 11128 44197 70333 10240 20226 41015 54000 70215 87110 22212 00270 29907
BBXX A8SZ5 18184 99120 31161 41497 61620 10290 20249 40050 54000 703// 8/26/ 22243 00/// 2//04 80260
BBXX A8HJ8 18183 99012 11034 41/96 /3211 10255 20250 40090 57010 70222 8//// 22200 00/// 20301 80251
BBXX DDGK2 18184 99108 11097 41697 63632 10250 20214 40100 50010 702// 84476 22283 00252 2//08 80225
BBXX MTDU5 18183 99235 30515 41296 80835 10230 20207 40034 50020 76062 8/7// 22215 04258 20606 80215
BBXX V7SY6 18184 99147 10635 41797 10318 10260 20217 40270 54000 70100 81800 22223 00230 20603 30505 40603 50502 80230
BBXX V7OE6 18183 99193 10646 41598 20610 10250 20174 40162 51011 70200 8146/ 22274 00300 20301 80202
BBXX ZQDI9 18183 99017 11051 41597 80617 10283 20248 40080 57005 70222 8372/ 22200 00281 20702 80258
BBXX 3FUL2 18183 99167 11131 41398 80529 10240 20194 401?.A=B,f?Sf84 0429 20607 80210
BBXX 9MBW7 18184 99282 11264 41398 70505 10220 20217 40190 51000 70003 87/// 22214 00241 2//// 80215
AAXX 18181 11487 02682 32606 10002 21037 39492 40127 52011 60002 82511 333 10012 41998 60005 82643 91113
AAXX 18184 03227 46/// /2909 11052 2//// 91750 333 11026
AAXX 18184 03409 16/// /3601 10001 21006 60012 91750 333 10052 55300 2////
BBXX WCF3012 18184 99468 70849 41/98 81935 11010 40120 70222 22233 00050 20303
AAXX 18181 89063 42497 83401 10014 21021 39860 49871 57020 886// 333 44123
BBXX VQGQ4 18184 99325 11407 41698 42725 10150 20042 40150 58020 70222 832// 22283 00216 20504 80100
BBXX VRIB2 18184 99086 10759 41998 03305 10270 20228 40127 51010 70200 80000 22234 0//// 2//// 3//// 4//// 80240
BBXX SHIP 18184 99177 11244 41/97 81317 10270 20257 40131 52010 75022 88/// 22273 00280 2//// 3//// 4//// 80260
BBXX 3FUL2 18183 99167 11131 41398 80529 10240 20194 401 .A
BBXX SHIP 18184 99282 11264 41398 70505 10220 20217 40190 51000 70003 87/// 22214 00241 2//// 80215
BBXX 3FUL2 18183 99167 11131 41398 80529 10240 20194 40180 54000 70222 8761/ 22284 04290 20607 80210
BBXX AUYK 18184 99137 11128 44197 70333 10240 20226 41015 54000 70215 87110 22212 00270 29907
BBXX DDGK2 18184 99108 11097 41697 63632 10250 20214 40100 50010 702// 84476 22283 00252 2//08 80225
BBXX C6TQ3 18184 99261 51130 41598 30921 10275 20199 40263 51010 70100 831// 22273 04240 21206 320// 41706 5//// 80225
BBXX V7OE6 18183 99193 10646 41598 20610 10250 20174 40162 51011 70200 8146/ 22274 00300 20301 80202
BBXX MTDU5 18183 99235 30515 41296 80835 10230 20207 40034 50020 76062 8/7// 22215 04258 20606 80215
BBXX V7SY6 18184 99147 10635 41797 10318 10260 20217 40270 54000 70100 81800 22223 00230 20603 30505 40603 50502 80230
BBXX WCF3012 18184 99468 70849 41/98 81935 11010 40120 70222 22233 00050 20303
BBXX 46221 18181 99339 71186 46/// ///// 1//// 91815 22200 00149 11401 20801 327// 41401 70007
BBXX WABS 18184 99370 71240 41798 83213 10111 2009/ 40240 51015 70211 885// 22273 0//// 20401 331// 41809 5//// 6//// 80100 ICE 0/0//
BBXX 46216 18181 99343 71198 46/// ///// 1//// 91827 22200 00146 11402 20501 326// 41401 70010
BBXX 46231 18181 99327 71174 46/// ///// 1//// 91824 22200 00148 11802 21001 327// 41801 70009
BBXX 46222 18181 99336 71183 46/// ///// 1//// 91826 22200 00153 11301 20801 326// 41301 70006
BBXX 46223 18181 99335 71178 46/// ///// 1//// 91830 22200 00153 11302 21001 328// 41301 70008
BBXX 46241 18181 99330 71173 46/// ///// 1//// 91811 22200 00144 11401 20801 326// 41401 70007
BBXX 44024 18181 99423 70659 46/24 /3612 10018 40143 55009 91804 22200 00088 10806 70032 333 91215 555 11153 22161
BBXX 41053 18181 99185 70661 46/// /0505 10263 40140 91830 333 91206
BBXX 41053 18181 99185 70661 46/// /0504 10265 40141 91810 333 91206
BBXX 41052 18181 99183 70648 46/// /0507 10265 40131 91830 333 91209
BBXX 41053 18181 99185 70661 46/// /0404 10266 40141 91820 333 91206
BBXX 41033 18181 99323 70804 46/// /0504 10122 40258 58009 91800 555 11057 22067
BBXX 42085 18181 99179 70665 46/// /1402 10282 40131 91830 333 91204
BBXX 42085 18181 99179 70665 46/// /1602 10281 40132 91820 333 91203
BBXX 41052 18181 99183 70648 46/// /0507 10264 40131 91820 333 91209
BBXX 41052 18181 99183 70648 46/// /0507 10265 40131 91810 333 91208
BBXX GDTT 18184 99136 70704 41397 40716 10275 20199 40135 53/// 7//11 84145 22232 00300 20405 80225
BBXX ZQDI9 18183 99017 11051 41597 80617 10283 20248 40080 57005 70222 8372/ 22200 00281 20702 80258
BBXX A8SZ5 18184 99120 31161 41497 61620 10290 20249 40050 54000 703// 8/26/ 22243 00/// 2//04 80260
BBXX A8HJ8 18183 99012 11034 41/96 /3211 10255 20250 40090 57010 70222 8//// 22200 00/// 20301 80251
BBXX MINUK01 1818/ 99602 70012 46/// ///// 10028 40108 52008
BBXX MINFR05 1818/ 99497 70067 46/// ///// 10113 40297 52003
BBXX VRZK9 18184 99120 10618 41498 70715 10260 20240 40090 51010 70282 87/// 22264 00274 2//// 3//// 4//// 80245
BBXX VRZK9 18184 99120 10618 41498 70715 10260 20240 40090 51010 70282 87/// 22264 00274 2//// 3//// 4//// 80245
AAXX 16210 44214 32998 23203 11252 21291 38330 40535 53004 81048 333 11161
AAXX 16210 44231 31996 00000 11261 21333 38807 40542 53004 70400
AAXX 16210 44259 31997 02808 11201 21248 39391 40374 56003 73630 333 91112
AAXX 16210 44277 329// 42504 11259 21284 37823 40569 53001 81034 333 21271 46000 555 31297
AAXX 16210 44288 32899 81901 11154 21241 38228 40461 53005 8807/ 333 11111
AAXX 16210 44292 319// 00000 11263 21287 38813 40527 52002 70400 333 11223
AAXX 16210 44304 32999 02304 11217 21267 39054 40397 57018
AAXX 16210 44354 329// 00000 11258 21289 39201 40456 52011 333 11182
AAXX 16210 44373 32999 22502 11210 21244 38591 40443 58007 80001
AAXX 18184 63714 32580 20000 10177 20129 48494 82500 333 10254 59001 82620
AAXX 18184 71904 17/// ///// 11009 21025 69951 7//4/ 333 10013 21030 7////
AAXX 18184 71360 16/// ///// 11016 21072 60001 333 10009 21055 70000
AAXX 18184 71380 17/// /3012 11012 21037 69951 7//4/ 333 10002 21034 70018
AAXX 18184 71857 16/// ///// 11020 21082 60001 333 10000 21062 70000
AAXX 18184 71346 17/// /3309 11007 21018 69951 7//4/ 333 10097 21013 70005
AAXX 18184 71674 16/// ///// 11008 21041 60001 333 10004 21042 70005
AAXX 18184 71481 16/// /2808 11027 21042 60001 333 10001 21035 70025
AAXX 18184 71498 16/// /3008 11014 21026 60001 333 10062 21029 70000
AAXX 18184 71791 16/// /3114 11013 21074 60001 333 11002 21036 70000
AAXX 18184 71797 16/// ///// 11030 21072 60001 333 11003 21066 70000
AAXX 18184 71249 17/// /2816 11019 21031 69951 7//4/ 333 10033 21028 70012
AAXX 18184 71014 16/// /3003 11012 21031 60001 333 11004 21031 70004
AAXX 18184 71413 16/// ///// 11009 21048 60001 333 11009 21049 70000
AAXX 18184 71414 16/// ///// 11022 21093 60001 333 11004 21051 70000
AAXX 18184 71440 17/// ///// 11017 21023 60011 7//4/ 333 10082 21027 70011
AAXX 18184 71540 17/// /3206 11018 21028 69961 7//4/ 333 10013 21045 70013
AAXX 18184 71544 16/// ///// 11016 21068 60001 333 21022 7////
AAXX 18184 71548 16/// ///// 11021 21087 60001 333 10005 21038 70000
AAXX 18184 71055 46/// /3001 11225 21245 39718 40058 57015 6///1 333 11206 21230 7////
AAXX 18184 71065 16/// ///// 11014 21077 60001 333 10010 21042 70000
BBXX TBWUK17 18183 99152 30882 41397 31112 10259 20242 40146 51020 70111 83145 22253 04279 20403 31919 40404 50302 80247
BBXX MRWF2 18184 99195 31097 41397 31718 10245 2020/ 40100 50010 70300 8313/ 22274 00282 20502 3//// 40703 5//// 6//// 80217 ICE /////
BBXX JPAT 18184 99256 31048 41497 71516 10214 20166 40142 57010 70322 87811 22232 00232 10804 399// 85183
BBXX ZDLS1 18183 99521 30048 41496 83125 10017 21005 49704 57017 70272 885// 22252 04015 20204 330// 40510 80009
BBXX 61001 18184 99434 10078 46/// /2915 10110 20026 40098 52016 22200 00150 10603 70016
BBXX 61002 18184 99421 10047 46/// ///32 10103 2//// 40168 52004 22200 00143 10808 70040 555 1/044
BBXX BATFR41 18184 99411 10012 46/// ///// 10102 21003 40206 53018 22200
BBXX BAREU56 18184 99408 10143 46/// ///// 40087 52016 22222
BBXX SHIP 18183 99405 10270 41597 70623 10120 2008/ 40170 52010 7//22 87268 22200 00130 2//// 3//// 4//// 5//// 6//// 80100 ICE /////
BBXX BAREU51 18184 99381 10134 46/// ///// 40119 52021 22200
BBXX WKDY 18184 99375 10044 41598 23412 10130 20073 40170 57010 70111 82100 22223 00173 20302 332// 40604 5//// 6//// 80100 ICE /////
BBXX DDSX2 18184 99340 10230 41/98 11819 10181 20111 40148 52023 70200 8//// 22225 00220 2//// 80140
BBXX BATFR04 18184 99598 70106 46/// /2007 10060 20002 40124 58011 22200 00100
BBXX 64045 18184 99591 70117 46/// /2011 10074 20030 40120 57016 22200 00101 10806 70029
BBXX BATUK01 18184 99584 70060 46/// /0506 10050 21010 40134 53018 22261 00107
BBXX 62112 18184 99584 70002 47498 /3007 10031 21006 40108 52009 762// 22200
BBXX 62113 18184 99584 10002 47398 /3216 10053 20007 40097 53008 700// 22200
BBXX 62129 18184 99584 10003 46/// ///// 10029 20004 40098 52009 22200
BBXX 62114 18184 99583 10000 46/// /3411 10043 20017 40106 51008 22200
BBXX PJAI 18184 99581 70014 47599 /3011 10054 21004 40107 51002 700// 22200
BBXX 62111 18184 99580 70003 46/// /3115 10051 21008 40112 51008 22200 10705 70027
BBXX AMOUK27 18184 99579 70052 46/// ///// 11162 2//// 30135 40138 54/// 91750
BBXX 62117 18184 99579 10000 47598 /2915 10056 20004 40105 53005 700// 22200 10706 70028
BBXX AMOUK19 18184 99573 70018 46/// ///// 10024 21016 30119 40122 57006 91750
BBXX 62105 18184 99554 70122 46/// /2415 10093 20061 40168 57015 22200 00106 10806 70028
BBXX C6RM7 18183 99553 70285 41296 82620 10060 20048 40117 54000 75022 86626 22254 04053 20805 323// 41206 5//// 80055
BBXX BAREU04 18184 99551 70192 46/// ///// 40103 57027 22263
BBXX BATEU03 18184 99538 70104 46/// /2617 10094 20050 40199 58006 22282 00102
BBXX AMOUK05 18184 99537 70003 46/// ///// 10011 21033 30116 40153 52022 91750
BBXX AMOUK14 18184 99534 70059 46/// ///// 10068 20045 30157 40189 57005 91750
BBXX AMOUK11 18184 99533 70062 46/// ///// 10049 20026 30154 40206 52017 91750
BBXX AMOUK12 18184 99533 70054 46/// ///// 10068 20041 30159 40199 54003 91750
BBXX 62095 18184 99530 70159 46/// /2217 10100 20083 40184 58027 22200 00113 10706 70029 333 90710 91126
BBXX 62301 18184 99524 70047 46/// /3114 10075 20029 40194 51009 22200 00093 10503 70017
BBXX 62094 18184 99517 70067 46/// /2916 10086 20050 40218 53003 22200 00105 10503 70015
BBXX SKUN 18183 99516 70166 43/94 72121 10096 40210 56002 22224 00101 2//// 4////
BBXX BAREU00 18184 99516 70164 46/// ///// 40207 57010 22224
BBXX 62303 18184 99516 70051 46/// /3213 10085 20035 40208 51008 22200 00110 10503 70017
BBXX 62023 18183 99514 70079 46/97 /2912 10080 2//// 40240 5//// 22200 10503 70014 555 70021 81011
BBXX 62081 18184 99510 70134 46/// ///// 10105 20051 40242 57010 22200 00119 10705 70027
BBXX A8XY2 18184 99510 70079 41398 73115 10099 20046 40223 51016 70322 8587/ 22254 04100 2//// 80073
BBXX AMOUK10 18184 99508 10003 46/// ///// 10042 2//// 30171 40168 54001 91750
BBXX 62305 18184 99504 10000 46/98 /3326 10072 20010 40181 53011 22200 00118 10603 70013 333 90710 91135
BBXX AMOUK08 18184 99501 70061 46/// ///// 10096 20042 30222 40225 52007 91750
BBXX 2ALE5 18183 99501 70012 41598 53425 10080 20019 40179 55006 70211 85140 22214 20508 80055
BBXX BATFR02 18184 99500 70006 46/// /3232 10080 20012 40188 22284 00129
BBXX 62103 18184 99499 70029 46/99 /3124 10087 20019 40198 53011 22200 00122 10703 70014 333 90710 91131
BBXX 62027 18184 99491 70022 46/// /3416 1//// 2//// 40209 50010 22200 00112 10704 330// 70021 333 90710 91127
BBXX 62442 18184 99490 70164 46/// /2317 1//// 2//// 40256 58015 22200 00126
BBXX 62029 18184 99487 70125 46/// /2716 10108 20042 40272 58001 22200 00131 10705 70025
BBXX BATFR12 18184 99481 70075 46/// /3117 10109 20054 40260 53006 22281 00144
BBXX WDD3826 18184 99478 70289 41394 82819 10160 2014/ 40165 53021 75244 886// 22224 00100 20302 318// 40703 5//// 6//// 80150 ICE /////
BBXX 62163 18184 99475 70084 46/// /3215 10104 20056 40276 53006 22200 00128 10705 70026 333 90710 91125
BBXX BATFR16 18184 99466 70047 46/// /3223 10104 20032 40253 53019 22263 00139
BBXX BATFR09 18184 99461 70049 44497 53609 10094 20024 40262 53004 70282 85700 22223 00140 20102 335// 40506 5////
BBXX BATFR54 18184 99454 70008 46/// /3212 10079 20012 40242 22273 00105
BBXX OXBB2 18181 99452 70083 41597 63512 10132 20072 40270 52005 70022 868// 22283 00130 20302 334// 40704 80100
BBXX 62001 18184 99452 70050 46/// /3312 10110 20041 40268 53008 22200 00143 10705 70024
BBXX BATFR42 18184 99443 70040 46/// /3420 10107 20029 40256 22284 00152
BBXX PEBT 18183 99442 70090 41498 53612 10110 20061 40280 54000 7//22 854// 22213 02120 20402 333// 41105 5//// 80085
BBXX C6JS 18183 99435 70188 41597 81515 10155 2014/ 40280 56010 70322 882// 22254 20402 335// 40906 80145
BBXX BAREU08 18184 99425 70209 46/// ///// 40298 52000 22214
BBXX VRCZ7 18183 99423 70097 41698 10410 10120 20029 40283 53/// 70200 811// 22285 2//// 3//// 4//// 5//// 80080
BBXX DGUG2 18184 99408 70123 41598 20611 10125 20068 40285 53005 70100 82180 22254 04170 20401 332// 41204 80095
BBXX A8AF6 18183 99400 70117 41598 40512 10130 20074 40275 54000 70311 844// 22243 02160 20202 334// 40704 80100
BBXX V2OT9 18183 99396 70098 41598 50317 10140 20064 40250 53010 70111 83140 22283 20303 33300 40304 5//// 80100
BBXX OWFD2 18181 99384 70214 41/97 /3311 10195 20184 40300 51010 70211 8/71/ 22254 04160 20405 332// 40405 80188
BBXX DBBH 18181 99368 70113 41598 30609 10146 20058 40249 52007 70111 82721 22221 04181 20503
BBXX WRYD 18184 99367 70104 41498 50516 10140 2006/ 40235 52010 70100 8447/ 22225 00190 20406 330// 4//// 5//// 6//// 80100 ICE /////
BBXX BATFR46 18184 99366 70031 44/96 41109 10149 20094 40215 51014 70131 83/4/ 22263 00159 21002 314// 41502 5////
BBXX WRAH 18183 99362 70032 41698 11109 10150 2//// 40189 56004 70200 811// 22264 00166 20202 326// 40404 5//// 6//// 8//// ICE /////
BBXX WKAB 18184 99360 70043 41/98 12905 10125 20044 40228 53003 70200 8//// 22225 00158 2//// 3//// 4//// 5//// 6//// 80085 ICE /////
BBXX KABL 18184 99359 70071 41598 60315 10140 2009/ 40225 52005 70222 8688/ 22224 00188 20201 303// 40403 5//// 6//// 80110 ICE /////
BBXX NWS0020 18184 99354 70103 43/// /0316 10148 20063 40229 5//// 7//// 8//// 222// 04190 2//// 3//// 4//// 5//// 6//// 8//// ICE /////
BBXX WHIA 18183 99030 31095 41397 42810 10270 2024/ 40072 57018 70222 8426/ 22233 0//// 20200 328// 40401 5//// 6//// 80250 ICE /////
BBXX BATFR45 18184 99063 30469 46/// ///// 10289 20237 40106 52018 22214 00317
BBXX BATFR19 18184 99065 30060 46/// /1912 10234 20187 40112 56001 22241 00254
BBXX DAJT 18184 99127 30729 41398 61014 10285 20244 40055 54000 70222 8/6// 22254 04280 80255
BBXX BATFR55 18184 99154 30532 44798 20316 10275 20232 40093 70100 82101 22272 00284 20802 33131 412// 512//
BBXX OVYB2 18181 99204 30579 41498 30507 10269 20225 40136 52010 70300 832// 22253 00280 20402 31300 41004 5//// 80239
BBXX A8YW2 18184 99204 30654 41/98 20916 10255 20198 40142 52013 70100 8//// 22214 00240 20703 80218
BBXX ONDY 18184 99254 30140 41799 31822 10170 2014/ 40140 54000 70100 838// 22234 00150 2//// 3//// 4//// 5//// 6//// 80150 ICE /////
BBXX ONCE 18184 99313 30535 41497 71119 10210 2016/ 40170 5//// 70311 8583/ 22224 00212 2//// 3//// 4//// 5//// 6//// 80180 ICE /////
BBXX A8ZS7 18184 99346 30234 41497 53012 10215 20143 40075 53005 70122 83840 22264 04190 20502 30000 80170
BBXX DDDI2 18184 99351 30133 41298 62528 10180 20131 40120 52010 70222 85873 2226/ 04170 21006 327// 40907 5//// 80150
BBXX DBBT 18181 99418 30021 46/// /2/16 10109 20061 40110 57007 22241 00114
BBXX DDYZ2 18184 99396 70098 41/98 10423 10145 20070 40250 52010 7//// 811// 22283 04170 20404 334// 40606 80105
BBXX MTDU5 18183 99235 30515 41296 80835 10230 20207 40034 50020 76062 8/7// 22215 04258 20606 80215
BBXX DDYZ2 18184 99396 70098 41/98 10423 10145 20070 40250 52010 7//// 811// 22283 04170 20404 334// 40606 80105
BBXX MINUK04 1818/ 99520 10013 46/// ///// 10023 4//// 57069
AAXX 18184 82917 32570 72106 10313 20248 39874 40103 83230 333 58///
AAXX 18184 89266 46/// /0407 11012 21030 39755 49892 57012 91750
AAXX 18184 88903 45/// /0909 10120 21005 30061 40061 51030
AAXX 18184 16158 12960 73103 10050 20000 30082 40090 52012 60002 87010 333 10100 87463
AAXX 18184 65578 32556 22406 10280 20241 30086 40095 82500 333 10315 59005 82620
AAXX 18181 10554 11580 42705 10005 21015 39718 40114 51019 69902 70271 84800 333 10019 21001 34102 55300 20000 30000 81823 84643 96477 96471
AAXX 18184 65528 NIL
AAXX 18184 65536 NIL
AAXX 18184 65545 32956 0//// 10283 20184 39673 40099 333 10326 59007
AAXX 18184 65548 NIL
AAXX 18184 65555 NIL
AAXX 18184 65557 32460 2//// 10296 20214 39851 40089 82200 333 10/// 59001 82813 94924
AAXX 18184 65560 32956 0//// 10297 2191 39779 40086 333 10/// 59003
AAXX 18184 65562 32458 1//// 10303 20218 3//// 4//// 81500 333 10336 5//// 81613
AAXX 18184 65563 31950 00000 10274 20225 39853 40093 70500 333 10325 59005
AAXX 18184 65578 32556 22406 10280 20241 30086 40095 82500 333 10315 59005 82620
AAXX 18184 65585 31458 4//// 10281 20231 3//// 4//// 70199 84072 333 10309 5//// 84360
AAXX 18184 65592 32458 6//// 10278 20238 30069 40091 83902 333 10302 58002 83813 81923 85076 94918 95818
AAXX 18184 65594 32458 61602 10268 20235 30066 40100 82230 333 10308 59001 82813 85360 94907
AAXX 18184 65599 32458 3//// 10274 20240 30013 40087 82203 333 10304 59002 82815 83076 94905
AAXX 18184 63688 32480 30907 10153 20130 48/// 81920 333 10242 58000 81918 83358
OOXX CAP17 18151 99476 70527 ///// 01331 26/// /3105 11049 29083 30048 91550 333 60000
OOXX CAP17 18161 99476 70527 ///// 01331 26/// /3104 11048 29084 30045 91600 333 60000
OOXX CAP17 18161 99476 70527 ///// 01331 26/// /3105 11049 29086 30043 91610 333 60000
OOXX CAP17 18161 99476 70527 ///// 01331 26/// /3104 11048 29087 30045 91620 333 60000
OOXX CAP17 18161 99476 70527 ///// 01331 26/// /3004 11048 29088 30047 91630 333 60000
OOXX CAP17 18161 99476 70527 ///// 01331 26/// /3104 11050 29090 30045 91640 333 60000
OOXX CAP17 18161 99476 70527 ///// 01331 26/// /3003 11049 29090 30042 91650 333 60000
OOXX CAP17 18171 99476 70527 ///// 01331 26/// /3104 11049 29090 30043 91700 333 60000
OOXX CAP17 18171 99476 70527 ///// 01331 26/// /3105 11050 29091 30039 91710 333 60000
OOXX CAP17 18171 99476 70527 ///// 01331 26/// /3105 11051 29092 30042 91720 333 60000
OOXX CAP17 18171 99476 70527 ///// 01331 26/// /3104 11050 29093 30042 91730 333 60000
OOXX CAP17 18171 99476 70527 ///// 01331 26/// /3105 11051 29093 30036 91740 333 60000
AAXX 18184 96645 31420 50000 10241 20240 30037 40069 57017 71022 83571 333 56000 83613
AAXX 18184 71310 16/// /0310 11040 21068 30161 40199 55008 60001 333 11029 21057 70000
AAXX 18184 91844 46/// /0704 10269 40139 22200 00278
AAXX 18184 71271 16/// ///// 11015 21105 60001 333 10001 21030 70000
AAXX 18181 59158 32965 03601 10150 20111 30103 40206 58009
AAXX 18181 59562 32665 63302 10182 20138 30192 40204 57015 86500
AAXX 18181 59567 46/// /0107 10180 20170 39809 40191 58016
AAXX 18181 58968 11558 81202 10158 20136 30223 40231 58010 69911 75152 887//
AAXX 18181 58974 46/// /0411 10163 20110 30111 40237 58010
AAXX 18181 59358 31930 00204 10147 20118 30174 40206 58013 71011
AAXX 18181 59559 32562 20308 10208 20156 30152 40180 58019 82200
AAXX 18181 59792 32560 40409 10206 20152 30195 40200 57009 84400
AAXX 18181 59997 11440 80506 10256 20248 30065 40073 58012 6132/ 76566 8472/
AAXX 18181 01473 11987 03602 11088 21099 39756 49972 58004 60002 70200 333 11078 91103
AAXX 18181 98536 32465 70403 10250 20228 39888 40087 58026 83270 333 56199 83818 86357
AAXX 18181 98653 31465 50000 10262 20239 30030 40075 58010 70544 82270 333 56999 82818 84358
BBXX 62081 18184 99510 70134 46/// ///// 10105 20051 40242 57010 22200 00119 10705 70027
BBXX AMOUK05 18184 99537 70003 46/// ///// 10011 21033 30116 40153 52022 91750
BBXX 63110 18184 99595 10015 47698 /3418 10057 21034 40074 51010 700// 22200 10808 70038
BBXX 63106 18184 99610 10017 46/// /3121 10039 40050 51004 22200
BBXX 63105 18184 99610 10017 47498 ///// 10047 20005 40049 52003 700// 22200
BBXX 62103 18184 99499 70029 46/99 /3124 10087 20019 40198 53011 22200 00122 10703 70014 333 90710 91131
BBXX 62107 18184 99501 70061 46/// /3320 10093 20029 40227 51006 22200 00115 10803 70016 333 90710 91128
BBXX 62094 18184 99517 70067 46/// /2916 10086 20052 40218 53003 22200 00105 10503 70015
BBXX AMOUK04 18184 99533 70062 46/// ///// 10053 2//// 30172 4//// 54002 91750
BBXX ONFP 18184 99278 30544 43595 70737 10230 2020/ 40120 54000 7//11 87759 22213 04220 20306 30909 40306 50306 6//// 80210 ICE /////
BBXX VRXL7 18183 99451 70095 41398 60618 10110 2005/ 40295 51005 70322 86122 22253 00150 20104 33333 40104 50104 6//// 80080 ICE /////
BBXX ONFP 18184 99278 30544 43595 70737 10230 2020/ 40120 54000 7//11 87759 22213 04220 20306 30909 40306 50306 6//// 80210 ICE /////
BBXX BSH02 18181 99542 10079 46/// ///// 22200 00078 20904 70020
BBXX BSH05 18181 99550 10079 46/// ///// 22200 20604 70018
BBXX BSH03 18181 99540 10081 46/// ///// 22200 00063 20804 70020
BBXX VRXL7 18183 99451 70095 41398 60618 10110 2005/ 40295 51005 70322 86122 22253 00150 20104 33333 40104 50104 6//// 80080 ICE /////
BBXX MINUK04 1818/ 99520 10013 46/// ///// 10023 4//// 57069
BBXX DDYZ2 18184 99396 70098 41/98 10423 10145 20070 40250 52010 7//// 811// 22283 04170 20404 334// 40606 80105
OOXX FJP26 18161 99178 31775 ///// 00311 26/// /0104 10273 29081 30042 91610 333 60000
OOXX FJP26 18161 99178 31775 ///// 00311 26/// /3605 10275 29080 30042 91620 333 60000
OOXX FJP26 18161 99178 31775 ///// 00311 26/// /3604 10274 29081 30043 91630 333 60000
OOXX FJP26 18161 99178 31775 ///// 00311 26/// /3604 10273 29082 30045 91640 333 60000
OOXX FJP26 18161 99178 31775 ///// 00311 26/// /3604 10272 29084 30046 91650 333 60000
OOXX FJP26 18171 99178 31775 ///// 00311 26/// /3603 10266 29086 30047 91700 333 60000
OOXX FJP26 18171 99178 31775 ///// 00311 26/// /3602 10261 29088 30047 91710 333 60000
OOXX FJP26 18171 99178 31775 ///// 00311 26/// /3602 10263 29089 30047 91720 333 60000
OOXX FJP26 18171 99178 31775 ///// 00311 26/// /0101 10262 29090 30048 91730 333 60000
OOXX FJP26 18171 99178 31775 ///// 00311 26/// /3601 10264 29089 30049 91740 333 60000
OOXX FJP26 18171 99178 31775 ///// 00311 26/// /3602 10265 29089 30051 91750 333 60000
OOXX FJP26 18181 99178 31775 ///// 00311 26/// /3402 10267 29089 30052 91800 333 60000
OOXX ISP34 18161 99641 70219 ///// 01301 26/// /2009 10030 29001 39907 91610 333 6///0
OOXX ISP34 18161 99641 70219 ///// 01301 26/// /2108 10030 29001 39906 91620 333 6///0
OOXX ISP34 18161 99641 70219 ///// 01301 26/// /2108 10030 29001 39904 91630 333 6///0
OOXX ISP34 18161 99641 70219 ///// 01301 26/// /2108 10032 29001 39901 91640 333 6///0
OOXX ISP34 18161 99641 70219 ///// 01301 26/// /2108 10033 29001 39899 91650 333 6///0
OOXX ISP34 18171 99641 70219 ///// 01301 26/// /2109 10034 29001 39896 91700 333 6///0
OOXX ISP34 18171 99641 70219 ///// 01301 26/// /2109 10035 29001 39895 91710 333 6///0
OOXX ISP34 18171 99641 70219 ///// 01301 26/// /2109 10038 29001 39894 91720 333 6///0
OOXX ISP34 18171 99641 70219 ///// 01301 26/// /2210 10037 29001 39893 91730 333 6///0
OOXX ISP34 18171 99641 70219 ///// 01301 26/// /2209 10036 29001 39892 91740 333 6///0
OOXX ISP34 18171 99641 70219 ///// 01301 26/// /2109 10037 29001 39890 91750 333 6///0
OOXX ISP34 18181 99641 70219 ///// 01301 26/// /2209 10037 29001 39891 91800 333 6///0
OOXX KIP39 18161 99020 51574 ///// 00181 26/// /1302 10247 29083 30090 91630 333 60000
OOXX KIP39 18161 99020 51574 ///// 00181 26/// /1302 10249 29082 30092 91640 333 60000
OOXX KIP39 18161 99020 51574 ///// 00181 26/// /1303 10250 29082 30092 91650 333 60000
OOXX KIP39 18171 99020 51574 ///// 00181 26/// /1303 10251 29080 30095 91700 333 60000
OOXX KIP39 18171 99020 51574 ///// 00181 26/// /1304 10255 29079 30097 91710 333 60000
OOXX KIP39 18171 99020 51574 ///// 00181 26/// /1303 10257 29077 30099 91720 333 60000
OOXX KIP39 18171 99020 51574 ///// 00181 26/// /1204 10258 29078 30101 91730 333 60000
OOXX KIP39 18171 99020 51574 ///// 00181 26/// /1303 10255 29076 30102 91740 333 60000
OOXX KIP39 18171 99020 51574 ///// 00181 26/// /1204 10258 29076 30102 91750 333 60000
OOXX KIP39 18181 99020 51574 ///// 00181 26/// /1204 10260 29075 30104 91800 333 60000
OOXX KIP39 18181 99020 51574 ///// 00181 26/// /1204 10267 29074 30105 91810 333 60000
OOXX KIP39 18181 99020 51574 ///// 00181 26/// /1204 10271 29071 30108 91820 333 60000
OOXX MRP43 18161 99181 70159 ///// 00101 26/// /0405 10297 29008 30122 91640 333 60000
OOXX MRP43 18161 99181 70159 ///// 00101 26/// /0405 10298 29007 30122 91650 333 60000
OOXX MRP43 18171 99181 70159 ///// 00101 26/// /0505 10294 29008 30123 91700 333 60000
OOXX MRP43 18171 99181 70159 ///// 00101 26/// /0605 10292 29008 30123 91710 333 60000
OOXX MRP43 18171 99181 70159 ///// 00101 26/// /0504 10291 29008 30125 91720 333 60000
OOXX MRP43 18171 99181 70159 ///// 00101 26/// /0504 10290 29008 30124 91730 333 60000
OOXX MRP43 18171 99181 70159 ///// 00101 26/// /0504 10288 29008 30124 91740 333 60000
OOXX MRP43 18171 99181 70159 ///// 00101 26/// /0504 10286 29008 30125 91750 333 60000
OOXX MRP43 18181 99181 70159 ///// 00101 26/// /0503 10283 29008 30126 91800 333 60000
OOXX MRP43 18181 99181 70159 ///// 00101 26/// /0603 10280 29008 30126 91810 333 60000
OOXX MRP43 18181 99181 70159 ///// 00101 26/// /0503 10276 29009 30127 91820 333 60000
OOXX MRP43 18181 99181 70159 ///// 00101 26/// /0502 10272 29009 30129 91830 333 60000
OOXX PTP53 18161 99377 70257 ///// 00121 26/// /2604 10179 29001 30251 91610 333 60000
OOXX PTP53 18161 99377 70257 ///// 00121 26/// /2605 10180 29001 30251 91620 333 60000
OOXX PTP53 18161 99377 70257 ///// 00121 26/// /2705 10183 29001 30251 91630 333 60000
OOXX PTP53 18161 99377 70257 ///// 00121 26/// /2704 10183 29001 30251 91640 333 60000
OOXX PTP53 18161 99377 70257 ///// 00121 26/// /2605 10182 29001 30251 91650 333 60000
OOXX PTP53 18171 99377 70257 ///// 00121 26/// /2705 10180 29001 30251 91700 333 60000
OOXX PTP53 18171 99377 70257 ///// 00121 26/// /2705 10181 29001 30251 91710 333 60000
OOXX PTP53 18171 99377 70257 ///// 00121 26/// /2705 10181 29001 30252 91720 333 60000
OOXX PTP53 18171 99377 70257 ///// 00121 26/// /2605 10179 29001 30252 91730 333 60000
OOXX PTP53 18171 99377 70257 ///// 00121 26/// /2705 10178 29001 30252 91740 333 60000
OOXX PTP53 18171 99377 70257 ///// 00121 26/// /2705 10178 29001 30252 91750 333 60000
OOXX PTP53 18181 99377 70257 ///// 00121 26/// /2705 10178 29001 30253 91800 333 60000
OOXX GBP67 18161 99159 50057 ///// 04381 26/// /0805 10179 29080 39661 91610 333 60000
OOXX GBP67 18161 99159 50057 ///// 04381 26/// /0805 10179 29078 39660 91620 333 60000
OOXX GBP67 18161 99159 50057 ///// 04381 26/// /0805 10176 29079 39659 91630 333 60000
OOXX GBP67 18161 99159 50057 ///// 04381 26/// /1004 10180 29079 39660 91640 333 60000
OOXX GBP67 18161 99159 50057 ///// 04381 26/// /1004 10178 29079 39660 91650 333 60000
OOXX GBP67 18171 99159 50057 ///// 04381 26/// /0905 10175 29080 39658 91700 333 60000
OOXX GBP67 18171 99159 50057 ///// 04381 26/// /0804 10175 29079 39659 91710 333 60000
OOXX GBP67 18171 99159 50057 ///// 04381 26/// /0904 10174 29081 39659 91720 333 60000
OOXX GBP67 18171 99159 50057 ///// 04381 26/// /0905 10172 29083 39659 91730 333 60000
OOXX GBP67 18171 99159 50057 ///// 04381 26/// /0905 10172 29084 39661 91740 333 60000
OOXX GBP67 18171 99159 50057 ///// 04381 26/// /0904 10171 29083 39661 91750 333 60000
OOXX GBP67 18181 99159 50057 ///// 04381 26/// /0805 10171 29085 39663 91800 333 60000
OOXX RUP60 18161 99531 11588 ///// 00651 26/// /2804 11148 29084 39865 91652 333 60000
OOXX RUP60 18171 99531 11588 ///// 00651 26/// /2901 11142 29084 39865 91702 333 60000
OOXX RUP60 18171 99531 11588 ///// 00651 26/// /3101 11128 29082 39865 91712 333 60000
OOXX RUP60 18171 99531 11588 ///// 00651 26/// /3101 11138 29079 39865 91722 333 60000
OOXX RUP60 18171 99531 11588 ///// 00651 26/// /2901 11141 29082 39865 91732 333 60000
OOXX RUP60 18171 99531 11588 ///// 00651 26/// /2706 11134 29083 39866 91742 333 60000
OOXX RUP60 18171 99531 11588 ///// 00651 26/// /2806 11135 29082 39865 91752 333 60000
OOXX RUP60 18181 99531 11588 ///// 00651 26/// /3203 11137 29081 39865 91802 333 60000
OOXX RUP60 18181 99531 11588 ///// 00651 26/// /2706 11142 29082 39865 91812 333 60000
OOXX RUP60 18181 99531 11588 ///// 00651 26/// /3101 11147 29081 39865 91822 333 60000
OOXX RUP60 18181 99531 11588 ///// 00651 26/// /2801 11150 29081 39865 91832 333 60000
OOXX RUP60 18181 99531 11588 ///// 00651 26/// /2406 11152 29082 39865 91842 333 60000
OOXX RUP54 18161 99586 10494 ///// 01271 26/// /3303 11091 29091 30175 91627 333 60120
OOXX RUP54 18161 99586 10494 ///// 01271 26/// /3602 11091 29091 30173 91637 333 60120
OOXX RUP54 18161 99586 10494 ///// 01271 26/// /3403 11091 29090 30173 91647 333 60120
OOXX RUP54 18161 99586 10494 ///// 01271 26/// /3103 11092 29091 30173 91657 333 60120
OOXX RUP54 18171 99586 10494 ///// 01271 26/// /3403 11091 29091 30173 91707 333 60120
OOXX RUP54 18171 99586 10494 ///// 01271 26/// /3503 11091 29091 30172 91717 333 60120
OOXX RUP54 18171 99586 10494 ///// 01271 26/// /3403 11091 29090 30173 91727 333 60120
OOXX RUP54 18171 99586 10494 ///// 01271 26/// /3403 11093 29090 30172 91737 333 60120
OOXX RUP54 18171 99586 10494 ///// 01271 26/// /3503 11092 29091 30172 91747 333 60120
OOXX RUP54 18171 99586 10494 ///// 01271 26/// /3503 11089 29091 30171 91757 333 60120
OOXX RUP54 18181 99586 10494 ///// 01271 26/// /3503 11086 29090 30172 91807 333 60120
OOXX RUP54 18181 99586 10494 ///// 01271 26/// /3403 11087 29090 30170 91817 333 60120
OOXX AUP06 18161 99192 31468 ///// 00071 26/// /1204 10251 29072 30086 91652 333 60000
OOXX AUP06 18171 99192 31468 ///// 00071 26/// /1204 10250 29073 30086 91702 333 60000
OOXX AUP06 18171 99192 31468 ///// 00071 26/// /1304 10247 29076 30085 91712 333 60000
OOXX AUP06 18171 99192 31468 ///// 00071 26/// /1304 10246 29076 30085 91722 333 60000
OOXX AUP06 18171 99192 31468 ///// 00071 26/// /1304 10244 29077 30085 91732 333 60000
OOXX AUP06 18171 99192 31468 ///// 00071 26/// /1204 10246 29076 30085 91742 333 60000
OOXX AUP06 18171 99192 31468 ///// 00071 26/// /1303 10242 29077 30085 91752 333 60000
OOXX AUP06 18181 99192 31468 ///// 00071 26/// /1304 10242 29077 30084 91802 333 60000
OOXX AUP06 18181 99192 31468 ///// 00071 26/// /1304 10244 29076 30084 91812 333 60000
OOXX AUP06 18181 99192 31468 ///// 00071 26/// /1204 10248 29073 30085 91822 333 60000
OOXX AUP06 18181 99192 31468 ///// 00071 26/// /1304 10246 29075 30086 91832 333 60000
OOXX AUP06 18181 99192 31468 ///// 00071 26/// /1304 10245 29076 30087 91842 333 60000
OOXX GBP68 18161 99371 50123 ///// 00641 26/// /3506 10155 29081 30169 91610 333 60000
OOXX GBP68 18161 99371 50123 ///// 00641 26/// /3507 10151 29073 30168 91620 333 60000
OOXX GBP68 18161 99371 50123 ///// 00641 26/// /3508 10152 29064 30165 91630 333 60000
OOXX GBP68 18161 99371 50123 ///// 00641 26/// /3507 10150 29053 30167 91640 333 60000
OOXX GBP68 18161 99371 50123 ///// 00641 26/// /3508 10148 29044 30168 91650 333 60000
OOXX GBP68 18171 99371 50123 ///// 00641 26/// /3508 10148 29036 30168 91700 333 60000
OOXX GBP68 18171 99371 50123 ///// 00641 26/// /3507 10148 29027 30169 91710 333 60000
OOXX GBP68 18171 99371 50123 ///// 00641 26/// /3508 10147 29017 30169 91720 333 60000
OOXX GBP68 18171 99371 50123 ///// 00641 26/// /3507 10146 29009 30168 91730 333 60000
OOXX GBP68 18171 99371 50123 ///// 00641 26/// /3607 10147 29003 30168 91740 333 60000
OOXX GBP68 18171 99371 50123 ///// 00641 26/// /3607 10146 29000 30169 91750 333 60000
OOXX GBP68 18181 99371 50123 ///// 00641 26/// /3607 10145 29000 30169 91800 333 60000
OOXX CAP14 18161 99487 71234 ///// 00431 26/// /2702 10067 29084 30160 91630 333 60000
OOXX CAP14 18161 99487 71234 ///// 00431 26/// /2602 10063 29084 30162 91640 333 60000
OOXX CAP14 18161 99487 71234 ///// 00431 26/// /2302 10061 29085 30164 91650 333 60000
OOXX CAP14 18171 99487 71234 ///// 00431 26/// /2501 10061 29085 30167 91700 333 60000
OOXX CAP14 18171 99487 71234 ///// 00431 26/// /2401 10062 29086 30168 91710 333 60000
OOXX CAP14 18171 99487 71234 ///// 00431 26/// /2602 10066 29084 30169 91720 333 60000
OOXX CAP14 18171 99487 71234 ///// 00431 26/// /2701 10066 29083 30169 91730 333 60000
OOXX CAP14 18171 99487 71234 ///// 00431 26/// /2601 10068 29081 30171 91740 333 60000
OOXX CAP14 18171 99487 71234 ///// 00431 26/// /2601 10069 29080 30171 91750 333 60000
OOXX CAP14 18181 99487 71234 ///// 00431 26/// /2401 10068 29080 30172 91800 333 60000
OOXX CAP14 18181 99487 71234 ///// 00431 26/// /2702 10072 29078 30175 91810 333 60000
OOXX CAP14 18181 99487 71234 ///// 00431 26/// /2803 10075 29077 30175 91820 333 60000
OOXX ARP01 18161 99345 50585 ///// 00311 26/// /2301 10122 29024 30044 91610 333 60000
OOXX ARP01 18161 99345 50585 ///// 00311 26/// /0000 10125 29024 30043 91620 333 60000
OOXX ARP01 18161 99345 50585 ///// 00311 26/// /1101 10127 29025 30041 91630 333 60000
OOXX ARP01 18161 99345 50585 ///// 00311 26/// /0000 10125 29030 30041 91640 333 60000
OOXX ARP01 18161 99345 50585 ///// 00311 26/// /1101 10120 29032 30039 91650 333 60000
OOXX ARP01 18171 99345 50585 ///// 00311 26/// /1101 10121 29031 30038 91700 333 60000
OOXX ARP01 18171 99345 50585 ///// 00311 26/// /1101 10121 29031 30037 91710 333 60000
OOXX ARP01 18171 99345 50585 ///// 00311 26/// /1101 10121 29031 30036 91720 333 60000
OOXX ARP01 18171 99345 50585 ///// 00311 26/// /1101 10118 29032 30036 91730 333 60000
OOXX ARP01 18171 99345 50585 ///// 00311 26/// /1101 10116 29033 30035 91740 333 60000
OOXX ARP01 18171 99345 50585 ///// 00311 26/// /1101 10117 29033 30034 91750 333 60000
OOXX ARP01 18181 99345 50585 ///// 00311 26/// /1101 10119 29033 30033 91800 333 60000
OOXX AUP09 18161 99124 31309 ///// 00321 26/// ///// 1//// 29/// 3//// 91614 333 6///0
OOXX AUP09 18161 99124 31309 ///// 00321 26/// ///// 1//// 29/// 3//// 91624 333 6///0
OOXX AUP09 18161 99124 31309 ///// 00321 26/// ///// 1//// 29/// 3//// 91634 333 6///0
OOXX AUP09 18161 99124 31309 ///// 00321 26/// ///// 1//// 29/// 3//// 91644 333 6///0
OOXX AUP09 18161 99124 31309 ///// 00321 26/// ///// 1//// 29/// 3//// 91654 333 6///0
OOXX AUP09 18171 99124 31309 ///// 00321 26/// ///// 1//// 29/// 3//// 91704 333 6///0
OOXX AUP09 18171 99124 31309 ///// 00321 26/// ///// 1//// 29/// 3//// 91714 333 6///0
OOXX AUP09 18171 99124 31309 ///// 00321 26/// ///// 1//// 29/// 3//// 91724 333 6///0
OOXX AUP09 18171 99124 31309 ///// 00321 26/// ///// 1//// 29/// 3//// 91734 333 6///0
OOXX AUP09 18171 99124 31309 ///// 00321 26/// ///// 1//// 29/// 3//// 91744 333 6///0
OOXX AUP09 18171 99124 31309 ///// 00321 26/// ///// 1//// 29/// 3//// 91754 333 6///0
OOXX AUP09 18181 99124 31309 ///// 00321 26/// ///// 1//// 29/// 3//// 91804 333 6///0
OOXX RUP59 18161 99539 10848 ///// 02121 26/// /0000 11294 29069 30121 91640 333 60000
OOXX RUP59 18161 99539 10848 ///// 02121 26/// /0000 11294 29070 30119 91650 333 60000
OOXX RUP59 18171 99539 10848 ///// 02121 26/// /0000 11300 29068 30120 91700 333 60000
OOXX RUP59 18171 99539 10848 ///// 02121 26/// /0000 11297 29069 30121 91710 333 60000
OOXX RUP59 18171 99539 10848 ///// 02121 26/// /0000 11297 29069 30119 91720 333 60000
OOXX RUP59 18171 99539 10848 ///// 02121 26/// /0000 11300 29068 30121 91730 333 60000
OOXX RUP59 18171 99539 10848 ///// 02121 26/// /0000 11302 29068 30119 91740 333 60000
OOXX RUP59 18171 99539 10848 ///// 02121 26/// /0000 11300 29069 30121 91750 333 60000
OOXX RUP59 18181 99539 10848 ///// 02121 26/// /0000 11302 29068 30122 91800 333 60000
OOXX RUP59 18181 99539 10848 ///// 02121 26/// /0000 11307 29067 30123 91810 333 60000
OOXX RUP59 18181 99539 10848 ///// 02121 26/// /0000 11306 29069 30122 91820 333 60000
OOXX RUP59 18181 99539 10848 ///// 02121 26/// /0000 11309 29067 30122 91830 333 60000
OOXX AUP07 18161 99/// ///// ///// ///// 26/// /2208 10056 29092 30193 91649 333 60000
OOXX AUP07 18161 99/// ///// ///// ///// 26/// /2108 10054 29092 30194 91659 333 60000
OOXX AUP07 18171 99/// ///// ///// ///// 26/// /2108 10053 29093 30195 91709 333 60000
OOXX AUP07 18171 99/// ///// ///// ///// 26/// /2107 10052 29093 30195 91719 333 60000
OOXX AUP07 18171 99/// ///// ///// ///// 26/// /2007 10056 29092 30195 91729 333 60000
OOXX AUP07 18171 99/// ///// ///// ///// 26/// /2006 10061 29091 30194 91739 333 60000
OOXX AUP07 18171 99/// ///// ///// ///// 26/// /2006 10063 29090 30193 91749 333 60000
OOXX AUP07 18171 99/// ///// ///// ///// 26/// /2006 10065 29089 30193 91759 333 60000
OOXX AUP07 18181 99/// ///// ///// ///// 26/// /2006 10068 29088 30193 91809 333 60000
OOXX AUP07 18181 99/// ///// ///// ///// 26/// /1703 10068 29086 30195 91819 333 60000
OOXX AUP07 18181 99/// ///// ///// ///// 26/// /1102 10069 29086 30195 91829 333 60000
OOXX AUP07 18181 99/// ///// ///// ///// 26/// /0701 10072 29086 30195 91839 333 60000
AAXX 18184 91559 46/// /0000 10233 40062 22200 00285
AAXX 18184 71512 16/// /2804 11101 21139 30222 40237 56020 60001 333 11100 21258 70000
AAXX 18184 71715 16/// /2404 11115 21172 30054 40244 56021 60001 333 11110 21180 70000
AAXX 18184 71314 16/// /2007 11020 21048 39846 40207 58010 60001 333 11020 21127 70000
AAXX 18184 71429 16/// /3505 11084 21142 30207 40227 56011 60001 333 11081 21136 70000
AAXX 18184 71814 16/// /0901 11106 21168 30219 40229 56011 60001 333 11101 21206 70000
AAXX 18181 08568 32/// /1002 11001 21030 38672 48540 52008 333 10036 555 60005
AAXX 18184 71715 16/// /2404 11115 21172 30054 40244 56021 60001 333 11110 21180 70000
AAXX 18184 71814 16/// /0901 11106 21168 30219 40229 56011 60001 333 11101 21206 70000
AAXX 18184 91531 46/// /0704 1//// 40055 22200 00265
BBXX VQGQ4 18184 99325 11407 41698 42725 10150 20042 40150 58020 70222 832// 22283 00216 20504 80100
BBXX VRCI9 18184 99393 11609 41/98 42620 10100 20061 40025 56030 70222 8//// 22225 00145 2//// 3//// 4//// 80080
BBXX 44056 18181 99362 70757 46/// ///// 1//// 91820 22200 00106 10602 20602 308// 41201 70011
AAXX 18184 71016 17/// ///// 11017 60011 7//4/ 333 10095 21023 70014
BBXX 46109 18181 99481 71234 46/// /1401 10080 40241 91757 22200 00078
BBXX 46110 18181 99481 71230 46/// /2402 10084 40241 91758
BBXX 44055 18181 99391 70753 46/// ///// 1//// 91830 22200 00090 10301 70004
AAXX 18184 91642 46/// /0000 1//// 40074 22200 0////
BBXX 42043 18181 99290 70949 46/// /1007 1//// 40263 91830 22200 00167 333 91209
BBXX 42043 18181 99290 70949 46/// /1006 1//// 40271 57015 91800 22200 00167 333 91208
BBXX 42044 18181 99262 70971 46/// /0904 10199 20175 40233 57022 91800 22200 00182 333 91205
BBXX 42045 18181 99262 70965 46/// /1007 10212 40235 57015 91800 22200 00221 333 91209
BBXX 46094 18181 99446 71243 46/// /3307 10099 91830
BBXX 46094 18181 99446 71243 46/// /3406 10098 91820
BBXX 46094 18181 99446 71243 46/// /3407 10098 91810
BBXX 46094 18181 99446 71243 46/// /3408 10097 91800
BBXX 46094 18181 99446 71243 46/// /3308 10096 91750
BBXX 46094 18181 99446 71243 46/// /3309 10096 91740
BBXX WBS5272 18184 99456 70853 41/97 82016 10061 2//// 40193 5//// 70222 8//// 22212 0//// 20202 3//// 4//// 5//// 6//// 8//// ICE /////
BBXX ZCDM8 18183 99096 70188 41696 50511 10273 20193 40102 54000 70611 83144 22243 99284 20202 302// 5//// 80221
BBXX ZCDM8 18183 99096 70188 41696 50511 10273 20193 40102 54000 70611 83144 22243 99284 20202 302//40404 5//// 80221
BBXX 46094 18181 99446 71243 46/// /3308 10096 91750
BBXX 46094 18181 99446 71243 46/// /3309 10096 91740
BBXX 46094 18181 99446 71243 46/// /3408 10097 91800
BBXX 46094 18181 99446 71243 46/// /3407 10098 91810
BBXX 46094 18181 99446 71243 46/// /3406 10098 91820
BBXX 46094 18181 99446 71243 46/// /3307 10099 91830
BBXX 42045 18181 99262 70965 46/// /1007 10212 40235 57015 91800 22200 00221 333 91209
BBXX 42044 18181 99262 70971 46/// /0904 10199 20175 40233 57022 91800 22200 00182 333 91205
BBXX 42043 18181 99290 70949 46/// /1006 1//// 40271 57015 91800 22200 00167 333 91208
BBXX 42043 18181 99290 70949 46/// /1007 1//// 40263 91830 22200 00167 333 91209
BBXX 44055 18181 99391 70753 46/// ///// 1//// 91830 22200 00090 10301 70004
BBXX 46110 18181 99481 71230 46/// /2402 10084 40241 91758
BBXX 46109 18181 99481 71234 46/// /1401 10080 40241 91757 22200 00078
BBXX 44056 18181 99362 70757 46/// ///// 1//// 91820 22200 00106 10602 20602 308// 41201 70011
BBXX 66022 18181 99541 10142 46/// /2409 10031 30000 22200 00041
BBXX AMOUK04 18184 99533 70062 46/// ///// 10053 2//// 30172 4//// 54002 91750
BBXX MINUK03 1818/ 99549 70010 46/// ///// 10030 40150 52001
AAXX 18184 71026 16/// /3306 10001 21027 39313 40169 51055 60001 333 21001 7////
AAXX 18184 71165 46/// ///01 11193 21213 39824 40117 58008 6///1 333 11186 21216 7////
AAXX 1818/ 89799 46/// ///// 11221 4//// 5//// 91830
AAXX 18181 37472 31596 81309 10069 20056 30262 40239 52032 71022 8357/ 333 10078 91016 91122
AAXX 18184 92036 46/// /3103 10279 40048 22200 00313
AAXX 18184 96745 32556 52306 10260 20230 30064 40068 57022 82521 333 56000 82620 84460
BBXX AMOUK11 18184 99533 70062 46/// ///// 10049 20026 30154 40206 52017 91750
BBXX AMOUK03 18184 99537 70003 46/// ///// 10043 21019 30120 40151 52019 91750
BBXX AMOUK08 18184 99501 70061 46/// ///// 10096 20042 30222 40225 52007 91750
BBXX 63106 18184 99610 10017 46/// /3121 10039 40050 51004 22200
BBXX 63113 18184 99610 10017 46/// /3223 10039 20005 40056 52002 22200 10808 70041
BBXX 63110 18183 99595 10015 41/98 /3324 10056 40070 700// 8//// 22200 10707 70037
BBXX 62094 18184 99517 70067 46/// /2916 10086 20050 40218 53003 22200 00105 10503 70015
BBXX 62081 18184 99510 70134 46/// ///// 10104 20050 40242 56010 22200 00119 10705 70027
BBXX 62103 18184 99499 70029 46/99 /3122 10089 20038 40202 52014 22200 00121 10703 70014 333 90710 91133
BBXX GHJV 18184 99381 70098 41698 20110 10139 20057 40257 52002 50200 81160 22251 02175 2//// 302// 40602 80100
AAXX 18184 93713 46/// /0000 10137 40136 22200 00165
OOXX AAPIG 18184 99758 51003 56251 08502 46/// /1013 11108 21247 38850 49829 52003 91800
AAXX 18184 91689 46/// /3502 10274 40081 22200 00251
BBXX SKEC 18181 99551 10142 46/// ///// 10035 49930 52047 22246 00060
BBXX ZMFR 18184 99489 31667 43/// /20// 10091 20082 40189 52002 22261 00113
BBXX ZMENA 18184 99434 31730 46/// ///// 10103 20059 40190 52004 22212
BBXX V2QD4 18183 99355 31658 41598 61816 10170 20154 40158 55020 70311 85473 22223 00200 20401 316// 41004
BBXX VRDX2 18183 99184 31466 415// 31218 10265 20224 40090 7//// 83445 22274 00280 20504 399// 40504
BBXX ZMFR 18184 99489 31667 43/// /20// 10091 20082 40189 52002 22261 00113
BBXX ZMENA 18184 99434 31730 46/// ///// 10103 20059 40190 52004 22212
BBXX V2QD4 18183 99355 31658 41598 61816 10170 20154 40158 55020 70311 85473 22223 00200 20401 316// 41004
BBXX VRDX2 18183 99184 31466 415// 31218 10265 20224 40090 7//// 83445 22274 00280 20504 399// 40504
AAXX 18181 47055 42970 03203 11019 21108 30230 40277 52002
AAXX 18181 47061 42980 03202 11001 21134 30218 40263 52010
AAXX 18181 47075 42980 00000 11118 21162 39813 40272 52006
BBXX GHJV 18184 99381 70098 41698 20110 10139 20057 40257 52002 50200 81160 22251 02175 2//// 302// 40602 80100
BBXX MINUK03 1818/ 99549 70010 46/// ///// 10030 40150 52001
BBXX WBS5272 18184 99456 70853 41/97 82016 10061 2//// 40193 5//// 70222 8//// 22212 0//// 20202 3//// 4//// 5//// 6//// 8//// ICE /////
BBXX ZCDM8 18183 99096 70188 41696 50511 10273 20193 40102 54000 70611 83144 22243 99284 20202 302// 5//// 80221
AAXX 18181 01271 17383 81203 11082 21100 39964 49985 58002 60002 700// 333 11078 91105
AAXX 18184 42634 32996 00000 10166 20115 40151 333 58006
AAXX 18184 42647 32996 00000 10170 20111 40157 333 58007
AAXX 18184 42737 32996 00503 10196 20108 40159 333 58006
AAXX 18184 42840 32996 03602 10224 20146 40152 333 58008
AAXX 18184 42909 32996 20203 10220 20138 40149 80001 333 58008 82070
AAXX 18184 43014 32996 00000 10174 20130 39495 40154 333 58004
BBXX MINUK03 1818/ 99549 70010 46/// ///// 10030 40150 52001
AAXX 18184 04418 NIL
AAXX 18184 04425 NIL
AAXX 18184 04432 NIL
AAXX 18184 04436 46/// /0000 11229 21250 52038
AAXX 18184 04464 46/// /0000 11270 21294 333 553// 20004
AAXX 18184 04485 46/// /0916 11287 21301 37134 57007 333 553// 20000
AAXX 18184 04488 46/// /1908 11192 21200 37177 57011 333 553// 20000
AAXX 18184 89016 46/89 /1304 11003 29068 39453 4//// 5////
AAXX 18184 89003 46/// /3124 11063 29068 39028 4//// 5////
AAXX 1818/ 89327 46/// ///// 10010 39735 4//// 5//// 91830
AAXX 1818/ 89872 46/// ///// 11071 39884 4//// 5//// 91840
AAXX 1818/ 89869 46/// ///// 11105 39836 4//// 5//// 91840
AAXX 1818/ 89866 46/// ///// 11055 39810 4//// 5//// 91830
AAXX 1818/ 89329 46/// ///// 11150 38789 4//// 5//// 91840
AAXX 1818/ 89769 46/// ///// 11105 39889 4//// 5//// 91840
AAXX 1818/ 89314 46/// ///// 11134 38225 4//// 5//// 91840
BBXX MINFR09 1818/ 99340 31512 46/// ///// 40118 57013
AAXX 1818/ 89667 46/// ///// 4//// 5//// 91840
BBXX 42013 18181 99272 70829 46/// ///// 1//// 40234 91820 22200 00198
BBXX 42013 18181 99272 70829 46/// ///// 1//// 40236 58021 91800 22200 00198
BBXX 62081 18184 99510 70134 46/// ///// 10105 20051 40242 57010 22200 00119 10705 70027
BBXX AMOUK05 18184 99537 70003 46/// ///// 10011 21033 30116 40153 52022 91750
BBXX 63110 18184 99595 10015 47698 /3418 10057 21034 40074 51010 700// 22200 10808 70038
BBXX 63106 18184 99610 10017 46/// /3121 10039 40050 51004 22200
BBXX 63105 18184 99610 10017 47498 ///// 10047 20005 40049 52003 700// 22200
BBXX 62103 18184 99499 70029 46/99 /3124 10087 20019 40198 53011 22200 00122 10703 70014 333 90710 91131
BBXX 62107 18184 99501 70061 46/// /3320 10093 20029 40227 51006 22200 00115 10803 70016 333 90710 91128
BBXX 62094 18184 99517 70067 46/// /2916 10086 20052 40218 53003 22200 00105 10503 70015
BBXX AMOUK04 18184 99533 70062 46/// ///// 10053 2//// 30172 4//// 54002 91750
BBXX 42013 18181 99272 70829 46/// ///// 1//// 40236 58021 91800 22200 00198
BBXX 42013 18181 99272 70829 46/// ///// 1//// 40234 91820 22200 00198
BBXX MINFR09 1818/ 99340 31512 46/// ///// 40118 57013
BBXX VRDX2 18183 99184 31466 415// 31218 10265 20224 40090 7//// 83445 22274 00280 20504 399// 40504
BBXX ZMFR 18184 99489 31667 43/// /20// 10091 20082 40189 52002 22261 00113
BBXX V2QD4 18183 99355 31658 41598 61816 10170 20154 40158 55020 70311 85473 22223 00200 20401 316// 41004
BBXX ZMENA 18184 99434 31730 46/// ///// 10103 20059 40190 52004 22212
BBXX SKEC 18181 99551 10142 46/// ///// 10035 49930 52047 22246 00060
AAXX 18184 71408 46/// /0120 11047 21102 30091 40172 5/029 6///1 333 21060 7////
BBXX MINUK05 1818/ 99615 70039 46/// ///// 10033 40110 52006
AAXX 18181 98132 NIL
AAXX 18181 98133 NIL
AAXX 18181 98222 NIL
AAXX 18181 98233 NIL
AAXX 18181 98324 31462 50000 10254 20215 40094 57018 70544 81161 333 56999 81816 83358
AAXX 18181 98327 31665 73104 10226 20188 39937 40112 57020 70544 82208 333 56999 82836 87277
AAXX 18181 98334 NIL
AAXX 18181 98425 NIL
AAXX 18181 98426 NIL
AAXX 18181 98427 NIL
AAXX 18181 98428 NIL
AAXX 18181 98432 NIL
AAXX 18181 98433 NIL
AAXX 18181 98434 NIL
AAXX 18181 98435 NIL
AAXX 18181 98442 NIL
AAXX 18181 98446 NIL
AAXX 18181 98447 NIL
AAXX 18181 98538 NIL
AAXX 18181 98546 NIL
AAXX 18181 98548 NIL
AAXX 18181 98553 NIL
AAXX 18181 98558 NIL
AAXX 18181 98642 NIL
AAXX 18181 98644 NIL
AAXX 18181 98648 NIL
AAXX 18181 98746 NIL
AAXX 18181 98751 NIL
AAXX 18181 98752 NIL
AAXX 18181 98851 32470 40201 10250 20222 39925 40072 58015 81270 333 56999 81818 84358
BBXX 42369 18181 99272 70903 46/// /0707 1//// 91740 22200 10403 70014
BBXX 42370 18181 99273 70905 46/// ///// 10233 91740 22200 10604 70020
BBXX 42376 18181 99291 70879 46/// /0307 10144 40277 91740 22200 10403 70013
BBXX 42392 18181 99272 70900 46/// ///// 1//// 91740 22200 10403 70013
BBXX 42887 18181 99282 70885 46/// /0506 1//// 91740 22200 10503 70016
BBXX C62032 18183 99023 10050 41898 71809 10270 2024/ 40100 54/// 70111 87612 22213 00270 20201 318// 40201 50201 6//// 80250 ICE /////
BBXX 42376 18181 99291 70879 46/// /0307 10144 40277 91740 22200 10403 70013
BBXX 42887 18181 99282 70885 46/// /0506 1//// 91740 22200 10503 70016
BBXX 42392 18181 99272 70900 46/// ///// 1//// 91740 22200 10403 70013
BBXX 42370 18181 99273 70905 46/// ///// 10233 91740 22200 10604 70020
BBXX 42369 18181 99272 70903 46/// /0707 1//// 91740 22200 10403 70014
BBXX MINUK05 1818/ 99615 70039 46/// ///// 10033 40110 52006
AAXX 18184 89807 46/// /1219 11016 29100 39765 4//// 5//// 91830 333 90700 91125
AAXX 18184 89614 46/// /0711 11063 29100 39000 4//// 5//// 91830 333 90700 91122
AAXX 18184 89614 46/// /0711 11063 29100 39000 4//// 5//// 91830 333 90700 91122
AAXX 18184 89807 46/// /1219 11016 29100 39765 4//// 5//// 91830 333 90700 91125
AAXX 1818/ 89868 46/// ///// 11116 39864 4//// 5//// 91830
AAXX 1818/ 89828 46/// ///// 11275 36556 4//// 5//// 91840
AAXX 1818/ 89332 46/// ///// 11106 39280 4//// 5//// 91820
BBXX AMOUK11 18184 99533 70062 46/// ///// 10049 20026 30154 40206 52017 91750
BBXX AMOUK03 18184 99537 70003 46/// ///// 10043 21019 30120 40151 52019 91750
BBXX AMOUK08 18184 99501 70061 46/// ///// 10096 20042 30222 40225 52007 91750
BBXX 63106 18184 99610 10017 46/// /3121 10039 40050 51004 22200
BBXX 63113 18184 99610 10017 46/// /3223 10039 20005 40056 52002 22200 10808 70041
BBXX 63110 18183 99595 10015 41/98 /3324 10056 40070 700// 8//// 22200 10707 70037
BBXX 62094 18184 99517 70067 46/// /2916 10086 20050 40218 53003 22200 00105 10503 70015
BBXX 62081 18184 99510 70134 46/// ///// 10104 20050 40242 56010 22200 00119 10705 70027
BBXX 62103 18184 99499 70029 46/99 /3122 10089 20038 40202 52014 22200 00121 10703 70014 333 90710 91133
AAXX 18184 60285 32456 73620 10168 20157 40191 55002 875// 333 10190 87616
AAXX 18184 60340 32565 43004 10114 20071 40224 53011 84500 333 10157 84630
BBXX C62032 18183 99023 10050 41898 71809 10270 2024/ 40100 54/// 70111 87612 22213 00270 20201 318// 40201 50201 6//// 80250 ICE /////
OOXX AAERC 18184 99815 31639 60713 00451 46/// /0403 11084 21156 39849 49906 57009 91830
OOXX AABRI 18184 99839 51342 60134 05251 46/// /0407 11101 21190 39347 49984 57002 91820
OOXX AAPEG 18184 99779 31666 57186 00051 46/// /0808 11113 21162 39927 49933 57021 91830
OOXX AAVIT 18184 99785 31778 57087 00501 46/// /1404 11112 21197 39902 49967 5//// 91820
AAXX 18184 89108 46/// /3504 11189 36877 4//// 52010 91830
AAXX 18184 89314 46/// /2907 11135 38220 4//// 52005 91820
AAXX 18184 89327 46/// /0000 10008 39710 49988 5//// 91820
AAXX 18184 89329 46/// /0006 11150 38787 49886 54000 91830
AAXX 18184 89376 46/// ///02 11133 39878 49948 57011 91820
AAXX 18184 89734 46/// /0609 11184 36111 4//// 57006 91840
AAXX 18184 89744 46/// /3415 11154 36473 4//// 57011 91840
AAXX 18184 89769 46/// /0204 11111 39879 49933 57020 91820
AAXX 18184 89799 46/// /2506 11221 36678 4//// 52002 91830
AAXX 18184 89834 46/// /1416 11139 38273 4//// 57009 91830
AAXX 18184 89865 46/// ///// 1//// 3//// 4//// 5//// 91830
AAXX 18184 89866 46/// /3109 11055 39788 49923 57028 91830
AAXX 18184 89868 46/// /0108 11116 39856 49926 5//// 91820
AAXX 18184 89869 46/// /0307 11106 39831 49912 5//// 91820
AAXX 18184 89872 46/// /0903 11070 39881 49938 57016 91820
AAXX 18184 89873 46/// ///02 11116 39849 49929 57003 91820
AAXX 18184 89879 46/// ///01 11011 39825 49862 57001 91820
AAXX 18184 91375 46/// /0213 10231 40076 22200 00282
BBXX 42369 18181 99272 70903 46/// /0707 1//// 91800 22200 10503 70014
BBXX 42370 18181 99273 70905 46/// ///// 10233 91800 22200 10604 70019
BBXX 42376 18181 99291 70879 46/// /0207 10144 40273 91800 22200 10403 70013
BBXX 42392 18181 99272 70900 46/// ///// 1//// 91800 22200 10403 70013
BBXX 42887 18181 99282 70885 46/// /0606 1//// 91800 22200 10503 70016
AAXX 18184 91165 12566 40414 10228 20183 30155 40190 53013 69901 91753
AAXX 18184 91212 12566 20917 10267 20228 31357 40094 56011 69931 91754
AAXX 18184 91245 32566 40610 10250 20230 30150 91755
AAXX 18184 91285 12566 62605 10200 20172 30165 40178 51015 60031 91753
AAXX 18184 91334 32474 70411 10275 20221 30063 40066 57012 82171
AAXX 18184 91348 11474 80906 10266 20244 30029 40081 55007 69901 70282 8527/
AAXX 18184 91376 32474 80515 10279 20236 30073 40076 53007 82808
AAXX 18184 91408 32466 80603 10267 20235 30030 40068 57015 84201
AAXX 18184 91413 32469 70907 10277 20242 30054 40079 57012 82171
AAXX 18184 91155 NIL
AAXX 18184 91203 NIL
AAXX 18184 91217 NIL
AAXX 18184 91232 NIL
AAXX 18184 91250 NIL
AAXX 18184 91275 NIL
AAXX 18184 91317 NIL
AAXX 18184 91324 NIL
AAXX 18184 91339 NIL
AAXX 18184 91353 NIL
AAXX 18184 91356 NIL
AAXX 18184 91366 NIL
AAXX 18184 91367 NIL
AAXX 18184 91369 NIL
AAXX 18184 91371 NIL
AAXX 18184 91378 NIL
AAXX 18184 91425 NIL
AAXX 18184 91434 NIL
AAXX 18184 91601 NIL
AAXX 18184 91610 NIL
BBXX 62081 18184 99510 70134 46/// ///// 10105 20051 40242 57010 22200 00119 10705 70027
BBXX AMOUK05 18184 99537 70003 46/// ///// 10011 21033 30116 40153 52022 91750
BBXX 63110 18184 99595 10015 47698 /3418 10057 21034 40074 51010 700// 22200 10808 70038
BBXX 63106 18184 99610 10017 46/// /3121 10039 40050 51004 22200
BBXX 63105 18184 99610 10017 47498 ///// 10047 20005 40049 52003 700// 22200
BBXX 62103 18184 99499 70029 46/99 /3124 10087 20019 40198 53011 22200 00122 10703 70014 333 90710 91131
BBXX 62107 18184 99501 70061 46/// /3320 10093 20029 40227 51006 22200 00115 10803 70016 333 90710 91128
BBXX 62094 18184 99517 70067 46/// /2916 10086 20052 40218 53003 22200 00105 10503 70015
BBXX AMOUK04 18184 99533 70062 46/// ///// 10053 2//// 30172 4//// 54002 91750
AAXX 18184 03008 11480 73312 10035 21021 40100 60012 71582 878// 91750 333 10042 41998 84818 84640
AAXX 18184 91165 12566 40414 10228 20183 30155 40190 53013 69901 91753
AAXX 18184 91212 12566 20917 10267 20228 31357 40094 56011 69931 91754
AAXX 18184 91285 12566 62605 10200 20172 30165 40178 51015 60031 91753
AAXX 18184 91334 32474 70411 10275 20221 30063 40066 57012 82171
AAXX 18184 91348 11474 80906 10266 20244 30029 40081 55007 69901 70282 8527/
AAXX 18184 91376 32474 80515 10279 20236 30073 40076 53007 82808
AAXX 18184 91408 32466 80603 10267 20235 30030 40068 57015 84201
AAXX 18184 91413 32469 70907 10277 20242 30054 40079 57012 82171
AAXX 18184 91245 32566 40610 10250 20230 30150 91755
BBXX 42887 18181 99282 70885 46/// /0606 1//// 91800 22200 10503 70016
BBXX 42376 18181 99291 70879 46/// /0207 10144 40273 91800 22200 10403 70013
BBXX 42392 18181 99272 70900 46/// ///// 1//// 91800 22200 10403 70013
BBXX 42370 18181 99273 70905 46/// ///// 10233 91800 22200 10604 70019
BBXX 42369 18181 99272 70903 46/// /0707 1//// 91800 22200 10503 70014
AAXX 18184 62600 32970 00000 10205 20070 39950 40165 333 10245 59002
AAXX 18184 62640 32970 00000 10250 20120 39752 40108 333 10314 58001
AAXX 18184 62650 32970 03504 10215 20030 39863 40136 333 10284 59008
AAXX 18184 62680 31968 03402 10240 20140 39714 40109 70600 333 10318 58003
AAXX 18184 62721 32970 73407 10250 20060 39680 40119 80007 333 10310 56009 58003 87275
AAXX 18184 62730 32970 00903 10285 20105 39583 40139 333 10357 58007
AAXX 18184 62750 32970 73407 10250 20055 39661 40088 80007 333 10316 56009 59002 87275
AAXX 18184 62751 32970 73504 10230 20033 39650 40111 80007 333 10332 56009 59005 87275
AAXX 18184 62762 32970 73604 10210 20130 39617 40094 80007 333 10335 56009 59001 87275
AAXX 18184 62771 32970 73403 10250 21010 39474 40114 80007 333 10296 56009 59002 87275
AAXX 18184 62781 32970 73602 10220 20040 39481 40117 80007 333 10327 56009 58001 87275
AAXX 18184 62795 32970 73607 10280 20080 39587 40080 80007 333 10368 56009 59001 87275
AAXX 18184 62805 32970 73604 10280 20095 39541 40061 80007 333 10360 56009 59002 87275
OOXX AAERI 18184 99849 51288 60048 09901 46/// /0207 11124 21148 38809 49951 52002 91820
OOXX AALAU 18184 99775 31708 57070 00371 46/// /1302 11106 21192 39894 49942 5//// 91820
AAXX 18181 10708 01480 62604 10003 21010 39771 40167 51020 60012 70387 84801 333 10018 20002 31101 55300 20000 30000 69917 81814 83623 96486
AAXX 18184 71388 46/// /0603 11137 21167 30037 40236 58027 6///1 333 11137 21266 7////
AAXX 18184 71713 16/// /2703 11095 21147 60001 333 11092 21164 70000
AAXX 18184 71425 16/// /0000 11100 21166 30203 40241 57014 60001 333 11093 21114 70010
AAXX 18184 41295 36/// /1703 10185 20153 310000 40181 333 0E021 10276 58018
AAXX 18184 97980 01440 73205 10250 20244 30051 40058 56013 60301 76396 86933 333 56000 57902 60307 82916 84817 80959
BBXX 42045 18181 99262 70965 46/// /1007 10212 40229 91830 22200 00221 333 91208
BBXX 42046 18181 99279 70940 46/// /0907 1//// 40257 91830 22200 00224 333 91209
BBXX 42046 18181 99279 70940 46/// /0908 1//// 40264 91800 22200 00224 333 91210
BBXX 42047 18181 99279 70936 46/// /0908 10177 20084 40257 91830 22200 00226 333 91209
BBXX 42047 18181 99279 70936 46/// /0908 10178 20086 40261 57018 91800 22200 00226 333 91209
AAXX 18184 89332 46/// /0210 11108 39279 49906 57005 91830
AAXX 18184 89667 46/// /0808 11113 39927 49937 57021 91830
AAXX 18184 89828 46/// /3202 11275 36526 4//// 57008 91830
AAXX 18184 89832 46/// /0611 11060 39735 40037 57015 91820
BBXX 42047 18181 99279 70936 46/// /0908 10178 20086 40261 57018 91800 22200 00226 333 91209
BBXX 42047 18181 99279 70936 46/// /0908 10177 20084 40257 91830 22200 00226 333 91209
BBXX 42046 18181 99279 70940 46/// /0908 1//// 40264 91800 22200 00224 333 91210
BBXX 42046 18181 99279 70940 46/// /0907 1//// 40257 91830 22200 00224 333 91209
BBXX 42045 18181 99262 70965 46/// /1007 10212 40229 91830 22200 00221 333 91208
BBXX AMOUK11 18184 99533 70062 46/// ///// 10049 20026 30154 40206 52017 91750
BBXX AMOUK03 18184 99537 70003 46/// ///// 10043 21019 30120 40151 52019 91750
BBXX AMOUK08 18184 99501 70061 46/// ///// 10096 20042 30222 40225 52007 91750
BBXX 63106 18184 99610 10017 46/// /3121 10039 40050 51004 22200
BBXX 63113 18184 99610 10017 46/// /3223 10039 20005 40056 52002 22200 10808 70041
BBXX 63110 18183 99595 10015 41/98 /3324 10056 40070 700// 8//// 22200 10707 70037
BBXX 62094 18184 99517 70067 46/// /2916 10086 20050 40218 53003 22200 00105 10503 70015
BBXX 62081 18184 99510 70134 46/// ///// 10104 20050 40242 56010 22200 00119 10705 70027
BBXX 62103 18184 99499 70029 46/99 /3122 10089 20038 40202 52014 22200 00121 10703 70014 333 90710 91133
BBXX 42369 18181 99272 70903 46/// /0707 1//// 91820 22200 10503 70014
BBXX 42370 18181 99273 70905 46/// ///// 10233 91820 22200 10604 70019
BBXX 42376 18181 99291 70879 46/// /0207 10144 40273 91820 22200 10403 70013
BBXX 42392 18181 99272 70900 46/// ///// 1//// 91820 22200 10403 70013
BBXX 42887 18181 99282 70885 46/// /0807 1//// 91820 22200 10503 70017
BBXX 42370 18181 99273 70905 46/// ///// 10233 91820 22200 10604 70019
BBXX 42392 18181 99272 70900 46/// ///// 1//// 91820 22200 10403 70013
BBXX 42887 18181 99282 70885 46/// /0807 1//// 91820 22200 10503 70017
BBXX 42369 18181 99272 70903 46/// /0707 1//// 91820 22200 10503 70014
BBXX 42376 18181 99291 70879 46/// /0207 10144 40273 91820 22200 10403 70013
AAXX 18184 41515 02995 00000 10062 21095 38560 48521 60003 333 59010 60007
AAXX 18184 41560 22996 01803 10015 21072 38253 48483 60003 333 58001 60007
AAXX 18184 41571 119// 00000 10070 20011 39614 40221 60003 70500 333 56090 58025
AAXX 18184 41594 319// 10090 20057 39970 40190 71000 333 58021
AAXX 18184 41685 NIL
AAXX 18184 41710 02997 00502 10095 21129 39378 40171 60003 333 58017 60007
AAXX 18184 41718 12996 00000 10110 20068 30073 40181 60003 333 58017
AAXX 18184 41739 02996 00000 10110 21008 39067 48514 60003 333 58005 60007
AAXX 18184 41744 32996 00000 10130 21009 38796 48518 333 58010
AAXX 18184 41749 01995 00000 10130 20091 30145 40178 60003 70400 333 58024 60007
AAXX 18184 41529 12995 00000 10056 20031 39825 40226 60003 333 58038
AAXX 18184 41598 12995 00000 10070 20035 39917 40201 60003 71000 333 58023
AAXX 18184 41620 32995 03105 10085 21123 38607 48509 333 58014
AAXX 18184 41624 02995 00502 10100 20068 39988 40196 60003 333 58029 60007
AAXX 18184 41640 01995 00000 10126 20074 39942 40199 60003 70500 333 58027 60007
AAXX 18184 41660 119//01306 10030 21067 38449 48540 60003 70500 333 58005
AAXX 18184 41675 11995 00000 10095 20051 30040 40184 60003 70400 333 58018
AAXX 18184 41712 12996 00502 10095 21051 39208 48509 60003 333 58010
AAXX 18184 41715 21995 20000 10150 20069 30119 40186 60003 70421 82030 333 56090 58022 60007 70421 82360
AAXX 18184 41756 01995 32302 10200 20158 30096 40160 60003 70500 83030 333 56090 59001 60007 83358
AAXX 18184 41764 32996 00000 10145 20086 30106 40158 60003 333 58009 60007
AAXX 18184 41768 02996 00000 10125 20096 30165 40172 60007 333 58002 60007
AAXX 18184 41780 01996 00000 10180 20155 30141 40169 60003 70400 333 59007 60007
AAXX 18184 41529 12995 00000 10056 20031 39825 40226 60003 333 58038
AAXX 18184 41598 12995 00000 10070 20035 39917 40201 60003 71000 333 58023
AAXX 18184 41620 32995 03105 10085 21123 38607 48509 333 58014
AAXX 18184 41624 02995 00502 10100 20068 39988 40196 60003 333 58029 60007
AAXX 18184 41640 01995 00000 10126 20074 39942 40199 60003 70500 333 58027 60007
AAXX 18184 41660 119//01306 10030 21067 38449 48540 60003 70500 333 58005
AAXX 18184 41675 11995 00000 10095 20051 30040 40184 60003 70400 333 58018
AAXX 18184 41712 12996 00502 10095 21051 39208 48509 60003 333 58010
AAXX 18184 41715 21995 20000 10150 20069 30119 40186 60003 70421 82030 333 56090 58022 60007 70421 82360
AAXX 18184 41756 01995 32302 10200 20158 30096 40160 60003 70500 83030 333 56090 59001 60007 83358
AAXX 18184 41764 32996 00000 10145 20086 30106 40158 60003 333 58009 60007
AAXX 18184 41768 02996 00000 10125 20096 30165 40172 60007 333 58002 60007
AAXX 18184 41780 01996 00000 10180 20155 30141 40169 60003 70400 333 59007 60007
AAXX 18184 41685 32993 00000 10090 21006 38943 48517 333 58015 RH51%
AAXX 18184 41506 02694 70000 10010 21049 48523 60003 84420 333 56990 59004 60007 84640 83460
AAXX 18184 41508 22996 00000 10044 21076 48549 60003 333 58013 60007
AAXX 18184 41523 12996 00000 10040 21044 48523 60003 333 58008 60007
AAXX 18184 41535 12997 00000 10040 21011 48482 60003 333 58001
AAXX 18184 41536 NIL
AAXX 18184 41573 12996 00000 10030 21020 48532 60003 333 58019
AAXX 18184 41600 01994 00000 10070 20047 39893 40202 60003 71000 333 58025 60007
AAXX 18184 41630 11996 00000 10080 20046 40205 60003 70400 333 58027
AAXX 18184 41678 12996 00000 10140 20068 40190 60003 333 58016
AAXX 18184 41696 02996 00000 10050 21089 38027 48554 60003 333 58005 60007
AAXX 18184 41697 02996 00000 10111 20068 40183 60003 333 58012 60007
AAXX 18184 41700 11995 00000 10120 20056 40176 60003 70400 333 58015
AAXX 18184 41725 02996 00000 10155 20090 40170 60003 333 58010 60007
AAXX 18184 41746 02996 00000 10135 20096 40160 60003 333 59012 60007
AAXX 18184 41759 12996 00000 10200 20149 30165 40171 60002 333 58004
AAXX 18184 41785 02996 00000 10170 20125 40157 60003 333 58000 60007
AAXX 18184 41515 02995 00000 10062 21095 38560 48521 60003 333 59010 60007
AAXX 18184 41560 22996 01803 10015 21072 38253 48483 60003 333 58001 60007
AAXX 18184 41571 119// 00000 10070 20011 39614 40221 60003 70500 333 56090 58025
AAXX 18184 41594 319// 10090 20057 39970 40190 71000 333 58021
AAXX 18184 41685 NIL
AAXX 18184 41710 02997 00502 10095 21129 39378 40171 60003 333 58017 60007
AAXX 18184 41718 12996 00000 10110 20068 30073 40181 60003 333 58017
AAXX 18184 41739 02996 00000 10110 21008 39067 48514 60003 333 58005 60007
AAXX 18184 41744 32996 00000 10130 21009 38796 48518 333 58010
AAXX 18184 41749 01995 00000 10130 20091 30145 40178 60003 70400 333 58024 60007
BBXX 52243 18181 99193 11666 46/// ///// 1//// 91800 22200 00257
BBXX 51179 18181 99143 51708 46/// ///// 1//// 91800 22200 00284
BBXX 51178 18181 99142 51695 46/// ///// 1//// 91800 22200 00284
BBXX 52246 18181 99152 11457 46/// ///// 1//// 91800 22200 00281
BBXX 51176 18181 99278 71758 46/// ///// 1//// 91800 22200 00233
BBXX 52245 18181 99181 11458 46/// ///// 1//// 91800 22200 00279
BBXX 51174 18181 99142 51697 46/// ///// 1//// 91800 22200 00285
BBXX 52244 18181 99200 11452 46/// ///// 1//// 91800 22200 00270
BBXX 51173 18181 99260 71739 46/// ///// 1//// 91800 22200 00241
BBXX 51172 18181 99284 71783 46/// ///// 1//// 91800 22200 00232
BBXX 51171 18181 99064 71623 46/// ///// 1//// 91800 22200 00278
BBXX 51170 18181 99168 71695 46/// ///// 1//// 91800 22200 00258
BBXX 52248 18181 99135 11448 46/// ///// 1//// 91800 22200 00284
AAXX 18184 41685 32993 00000 10090 21006 38943 48517 333 58015 RH51%
AAXX 18184 89266 46/// /0208 11013 21029 39755 49892 57009 91830
AAXX 18184 17067 12670 71303 10095 20072 30173 40195 52023 60232 87200 333 10125 87840 91113 92408
BBXX ONFP 18184 99278 30544 43595 70737 10230 2020/ 40120 54000 7//11 87759 22213 04220 20306 30909 40306 50306 6//// 80210
AAXX 1818/ 89327 46/// ///// 10014 39734 4//// 5//// 91840
AAXX 1818/ 89108 46/// ///// 11191 36882 4//// 5//// 91840
AAXX 1818/ 89879 46/// ///// 11011 39836 4//// 5//// 91840
AAXX 1818/ 89866 46/// ///// 11055 39808 4//// 5//// 91840
AAXX 1818/ 89799 46/// ///// 11221 4//// 5//// 91840
AAXX 1818/ 89332 46/// ///// 11105 39280 4//// 5//// 91840
BBXX 62081 18184 99510 70134 46/// ///// 10105 20051 40242 57010 22200 00119 10705 70027
BBXX AMOUK05 18184 99537 70003 46/// ///// 10011 21033 30116 40153 52022 91750
BBXX 63110 18184 99595 10015 47698 /3418 10057 21034 40074 51010 700// 22200 10808 70038
BBXX 63106 18184 99610 10017 46/// /3121 10039 40050 51004 22200
BBXX 63105 18184 99610 10017 47498 ///// 10047 20005 40049 52003 700// 22200
BBXX 62103 18184 99499 70029 46/99 /3124 10087 20019 40198 53011 22200 00122 10703 70014 333 90710 91131
BBXX 62107 18184 99501 70061 46/// /3320 10093 20029 40227 51006 22200 00115 10803 70016 333 90710 91128
BBXX 62094 18184 99517 70067 46/// /2916 10086 20052 40218 53003 22200 00105 10503 70015
BBXX AMOUK04 18184 99533 70062 46/// ///// 10053 2//// 30172 4//// 54002 91750
BBXX 51170 18181 99168 71695 46/// ///// 1//// 91800 22200 00258
BBXX 51171 18181 99064 71623 46/// ///// 1//// 91800 22200 00278
BBXX 51172 18181 99284 71783 46/// ///// 1//// 91800 22200 00232
BBXX 51173 18181 99260 71739 46/// ///// 1//// 91800 22200 00241
BBXX 51176 18181 99278 71758 46/// ///// 1//// 91800 22200 00233
BBXX 52248 18181 99135 11448 46/// ///// 1//// 91800 22200 00284
BBXX 52246 18181 99152 11457 46/// ///// 1//// 91800 22200 00281
BBXX 52245 18181 99181 11458 46/// ///// 1//// 91800 22200 00279
BBXX 52244 18181 99200 11452 46/// ///// 1//// 91800 22200 00270
BBXX 52243 18181 99193 11666 46/// ///// 1//// 91800 22200 00257
BBXX 51174 18181 99142 51697 46/// ///// 1//// 91800 22200 00285
BBXX 51179 18181 99143 51708 46/// ///// 1//// 91800 22200 00284
BBXX 51178 18181 99142 51695 46/// ///// 1//// 91800 22200 00284
BBXX ZCBD4 18183 99204 70508 41498 32107 10260 20215 40164 56020 7//// 83444 22264 20505 3//// 4//// 5//// 80230
BBXX MINFR05 1818/ 99497 70067 46/// ///// 10113 40297 52003
BBXX PDHW 18183 99471 70196 41496 82030 10122 20101 40231 57035 72522 887// 22263 00120 20605 80110
BBXX VRXL7 18183 99451 70095 41398 60618 10110 2005/ 40295 51005 70322 86122 22253 00150 20104 33333 40104 50104 6//// 80080 ICE /////
BBXX GHJV 18184 99381 70098 41698 20110 10139 20057 40257 52002 50200 81160 22251 02175 2//// 302// 40602 80100
AAXX 18181 36307 42/// /0902 11349 21383 39080 48557 52003
AAXX 1818/ 89872 46/// ///// 11063 39889 4//// 5////
AAXX 1818/ 89869 46/// ///// 11113 39839 4//// 5////
AAXX 1818/ 89329 46/// ///// 11149 38787 4//// 5////
AAXX 1818/ 89799 46/// ///// 11213 4//// 5////
AAXX 1818/ 89108 46/// ///// 11189 36878 4//// 5////
AAXX 18184 96935 01560 72805 10255 20238 30058 40064 57019 69901 70162 83571 333 56000 69907 83620
AAXX 18184 97796 01430 80000 10246 20240 30038 40089 57007 60071 76196 8697/ 333 56009 57901 60077 82910 85611 87461 80980
AAXX 18184 97530 11440 80000 10252 20246 30067 40072 57008 60021 71566 85875 333 56000 57803 82814 83616 85460 80833
BBXX ZCBD4 18183 99204 70508 41498 32107 10260 20215 40164 56020 7//// 83444 22264 20505 3//// 4//// 5//// 80230
AAXX 18184 97810 32457 70000 10260 20252 30048 40057 56005 83272 333 56700 57872 83819 80848
AAXX 18181 02805 11366 80203 11052 21063 39935 40071 52004 69902 78582 8772/ 333 11015 21055 47///
AAXX 18181 27730 11497 81607 11038 21060 39931 40131 53009 69980 73673 885// 333 11023 88613 91117
BBXX AMOUK11 18184 99533 70062 46/// ///// 10049 20026 30154 40206 52017 91750
BBXX AMOUK03 18184 99537 70003 46/// ///// 10043 21019 30120 40151 52019 91750
BBXX AMOUK08 18184 99501 70061 46/// ///// 10096 20042 30222 40225 52007 91750
BBXX 63106 18184 99610 10017 46/// /3121 10039 40050 51004 22200
BBXX 63113 18184 99610 10017 46/// /3223 10039 20005 40056 52002 22200 10808 70041
BBXX 63110 18183 99595 10015 41/98 /3324 10056 40070 700// 8//// 22200 10707 70037
BBXX 62094 18184 99517 70067 46/// /2916 10086 20050 40218 53003 22200 00105 10503 70015
BBXX 62081 18184 99510 70134 46/// ///// 10104 20050 40242 56010 22200 00119 10705 70027
BBXX 62103 18184 99499 70029 46/99 /3122 10089 20038 40202 52014 22200 00121 10703 70014 333 90710 91133
AAXX 18181 10400 01570 22203 10008 21002 30080 40131 51011 60012 70181 81101 333 10051 20006 32101 55300 20000 30000 69967 81831 96483 96480
AAXX 18184 48563 32560 40306 10245 20223 30066 40102 57012 81245 333 58002
AAXX 1818/ 68902 46/// ///// 40166 57004
AAXX 18184 07015 01470 82607 10021 20009 30096 40155 53006 69922 70161 875// 333 10048 20016 69927 87616 90710 91115 93100 555 60005
AAXX 18184 97372 32458 50000 10243 20236 39936 40056 57026 83271 333 56000 83818
AAXX 18184 48556 32560 50000 10246 20234 30078 40094 57026 81106 333 59015
AAXX 18181 29675 42998 31401 11262 21281 39766 40427 57011 80005
AAXX 18181 36307 42997 01101 11351 21374 39087 48587 52003
AAXX 18184 97460 32460 50000 10254 20234 30058 40072 53001 83836 333 56000 57803 82818 80857
AAXX 18184 89013 46/// /3505 11136 21175 37627 49602 52022 91820
AAXX 18184 89257 46/// /0305 11042 21076 39828 49898 57003 91830
AAXX 18184 89272 46/// /3617 11108 21139 38053 49685 57003 91830
AAXX 18184 48405 32960 20306 10185 20136 39996 40163 57009 80005 333 58002
AAXX 18184 63980 11482 32402 10280 20247 40108 60082 70281 83200 333 10315 58006 83816 943// 91118
BBXX 62081 18184 99510 70134 46/// ///// 10105 20051 40242 57010 22200 00119 10705 70027
BBXX AMOUK05 18184 99537 70003 46/// ///// 10011 21033 30116 40153 52022 91750
BBXX 63110 18184 99595 10015 47698 /3418 10057 21034 40074 51010 700// 22200 10808 70038
BBXX 63106 18184 99610 10017 46/// /3121 10039 40050 51004 22200
BBXX 63105 18184 99610 10017 47498 ///// 10047 20005 40049 52003 700// 22200
BBXX 62103 18184 99499 70029 46/99 /3124 10087 20019 40198 53011 22200 00122 10703 70014 333 90710 91131
BBXX 62107 18184 99501 70061 46/// /3320 10093 20029 40227 51006 22200 00115 10803 70016 333 90710 91128
BBXX 62094 18184 99517 70067 46/// /2916 10086 20052 40218 53003 22200 00105 10503 70015
BBXX AMOUK04 18184 99533 70062 46/// ///// 10053 2//// 30172 4//// 54002 91750
AAXX 18181 28440 42597 72603 11058 21092 30104 40472 54000 87500
AAXX 18181 20667 11998 81307 11080 21090 30178 40185 52007 69900 73632 8802/ 333 11055
AAXX 18184 71373 16/// /2001 11079 21178 60001 333 11075 21178 70000
AAXX 18184 71721 16/// /1709 11068 21142 39973 40229 56018 60001 333 11067 21191 70000
AAXX 18181 20292 42998 00000 11238 21263 30270 40291 53004 333 91102
AAXX 18181 20069 41450 71613 11095 21116 30159 40172 56003 73832 875// 333 87618 91118
AAXX 18181 25503 41698 81003 11323 21346 30081 40223 57007 77172 8652/
AAXX 18181 20046 11498 81808 11014 21019 30012 40043 56008 69930 73632 885// 333 11019
AAXX 18184 61049 32960 70000 10194 20011 39785 40113 80008 333 10278 59013 87280
AAXX 18184 61049 32960 70000 10194 20011 39785 40113 80008 333 10278 59013 87280
AAXX 18181 31754 42999 00000 11330 21336 39688 40255 57002
AAXX 18181 98134 11560 80406 10216 20177 39984 40177 5//// 60051 70564 8427/ 333 56199 84820 88357
AAXX 18181 25745 42998 00000 11321 21343 30016 40072 57004
AAXX 18181 25356 32999 53204 11221 21269 39958 40063 57006 82031 333 21227 48017 55000 91006
AAXX 18184 97240 11457 80000 10240 20234 39962 40076 57012 69951 70562 85271 333 56000 57801 85816 80860
AAXX 18181 25932 42999 03501 11140 21201 30000 40039 57001
BBXX AMOUK11 18184 99533 70062 46/// ///// 10049 20026 30154 40206 52017 91750
BBXX AMOUK03 18184 99537 70003 46/// ///// 10043 21019 30120 40151 52019 91750
BBXX AMOUK08 18184 99501 70061 46/// ///// 10096 20042 30222 40225 52007 91750
BBXX 63106 18184 99610 10017 46/// /3121 10039 40050 51004 22200
BBXX 63113 18184 99610 10017 46/// /3223 10039 20005 40056 52002 22200 10808 70041
BBXX 63110 18183 99595 10015 41/98 /3324 10056 40070 700// 8//// 22200 10707 70037
BBXX 62094 18184 99517 70067 46/// /2916 10086 20050 40218 53003 22200 00105 10503 70015
BBXX 62081 18184 99510 70134 46/// ///// 10104 20050 40242 56010 22200 00119 10705 70027
BBXX 62103 18184 99499 70029 46/99 /3122 10089 20038 40202 52014 22200 00121 10703 70014 333 90710 91133
AAXX 18181 31348 32999 00000 11352 21362 30010 40232 52004
AAXX 18184 97192 32420 20903 10260 20249 30031 40088 57015 81501 333 56000 81617
BBXX AUTQ 18184 99449 10085 42597 50205 10150 20138 40205 51025 70202 85310 22274 00190
AAXX 18181 98644 32464 60000 10255 20242 30075 40084 58017 81278 333 56999 81817 84272
AAXX 18184 97230 21450 81503 10255 20249 30058 40065 55001 76366 8527/ 333 56609 57861 60327 85814 87459 80859
BBXX AUTQ 18184 99449 10085 42597 50205 10150 20138 40205 51025 70202 85310 22274 00190
BBXX 62081 18184 99510 70134 46/// ///// 10105 20051 40242 57010 22200 00119 10705 70027
BBXX AMOUK05 18184 99537 70003 46/// ///// 10011 21033 30116 40153 52022 91750
BBXX 63110 18184 99595 10015 47698 /3418 10057 21034 40074 51010 700// 22200 10808 70038
BBXX 63106 18184 99610 10017 46/// /3121 10039 40050 51004 22200
BBXX 63105 18184 99610 10017 47498 ///// 10047 20005 40049 52003 700// 22200
BBXX 62103 18184 99499 70029 46/99 /3124 10087 20019 40198 53011 22200 00122 10703 70014 333 90710 91131
BBXX 62107 18184 99501 70061 46/// /3320 10093 20029 40227 51006 22200 00115 10803 70016 333 90710 91128
BBXX 62094 18184 99517 70067 46/// /2916 10086 20052 40218 53003 22200 00105 10503 70015
BBXX AMOUK04 18184 99533 70062 46/// ///// 10053 2//// 30172 4//// 54002 91750
AAXX 18181 15120 02997 02300 11004 21019 39678 40189 52029 60002 333 10058 21012 34010 55300 10222 2//// 3//// 60007 91001 91102 92600
AAXX 18181 15120 02997 02300 11004 21019 39678 40189 52029 60002 333 10058 21012 34010 55300 10222 2//// 3//// 60007 91001 91102 92600
AAXX 18184 97086 32560 42902 10268 20242 30051 40075 56006 82131 333 56000 57803 82820 80857
AAXX 1818/ 89327 46/// ///// 10014 39734 4//// 5//// 91840
AAXX 1818/ 89108 46/// ///// 11191 36882 4//// 5//// 91840
AAXX 1818/ 89879 46/// ///// 11011 39836 4//// 5//// 91840
AAXX 1818/ 89866 46/// ///// 11055 39808 4//// 5//// 91840
AAXX 1818/ 89799 46/// ///// 11221 4//// 5//// 91840
AAXX 1818/ 89332 46/// ///// 11105 39280 4//// 5//// 91840
BBXX MINFR03 1818/ 99034 30656 46/// ///// 10278 40111 52014
BBXX AMOUK11 18184 99533 70062 46/// ///// 10049 20026 30154 40206 52017 91750
BBXX AMOUK03 18184 99537 70003 46/// ///// 10043 21019 30120 40151 52019 91750
BBXX AMOUK08 18184 99501 70061 46/// ///// 10096 20042 30222 40225 52007 91750
BBXX 63106 18184 99610 10017 46/// /3121 10039 40050 51004 22200
BBXX 63113 18184 99610 10017 46/// /3223 10039 20005 40056 52002 22200 10808 70041
BBXX 63110 18183 99595 10015 41/98 /3324 10056 40070 700// 8//// 22200 10707 70037
BBXX 62094 18184 99517 70067 46/// /2916 10086 20050 40218 53003 22200 00105 10503 70015
BBXX 62081 18184 99510 70134 46/// ///// 10104 20050 40242 56010 22200 00119 10705 70027
BBXX 62103 18184 99499 70029 46/99 /3122 10089 20038 40202 52014 22200 00121 10703 70014 333 90710 91133
BBXX MINFR03 1818/ 99034 30656 46/// ///// 10278 40111 52014
AAXX 18181 98132 31462 80406 10222 20186 40206 58018 70544 8427/ 333 56199 84816 88357
AAXX 18181 98222 31575 80403 10235 20207 40116 58010 70544 8357/ 333 56999 83622 88357
AAXX 18181 98233 11565 80000 10220 20203 40122 58014 69921 76064 885// 333 56999 88620
AAXX 18181 98334 11460 83505 10219 20197 39913 40119 58019 60091 72162 8227/ 333 56999 82817 88360
AAXX 18181 98426 31568 70403 10261 20194 40100 57018 70544 81108 333 56999 81820 87280
AAXX 18181 98427 32475 60203 10247 20224 39911 40089 58013 83260 333 56119 83818 85356
AAXX 18181 98428 32458 50403 10251 20236 40103 57012 82431 333 56999 82618
AAXX 18181 98432 31568 40000 10250 20222 40112 58010 70544 82202 333 56999 82820
AAXX 18181 98433 31460 40403 10210 20198 39380 40102 58020 70311 84270 333 56999 84812
AAXX 18181 98434 11459 83603 10243 20239 30096 40104 57023 60041 76186 8487/ 333 56199 84817 88358
AAXX 18181 98435 11468 80000 10249 20231 40101 5//// 69981 72582 8427/ 333 56199 84817 88358
AAXX 18181 98446 11465 83301 10250 20245 30057 40103 57007 60041 72562 84207 333 56299 84818 88270
AAXX 18181 98447 11465 80906 10248 20238 39830 40094 5//// 60101 72582 8487/ 333 56299 84816 88356
AAXX 18181 98538 32466 50402 10264 20245 30081 40086 58014 82206 333 56199 82811 84072
AAXX 18181 98546 11458 80000 10245 20238 30078 40086 57018 60191 84907 333 56999 84915 88275
AAXX 18181 98548 11465 50000 10250 20246 30080 40086 58013 60031 70386 85200 333 56299 85816
AAXX 18181 98553 11466 32701 10244 20239 30080 40084 57013 60081 70564 83200 333 56999 83818
AAXX 18181 98558 32462 70608 10253 20249 40082 57015 82270 333 56999 82818 87357
AAXX 18181 98642 31460 80000 10275 20242 30064 40073 58020 8527/ 333 56199 85815 88358
AAXX 18181 98648 31470 70000 10246 20221 30015 40097 55005 70544 82268 333 56999 82817 83358 86270
AAXX 18181 98746 31462 70301 10248 20220 40074 58028 71344 82977 333 56999 82918 84358 86275
AAXX 18181 98751 32465 20000 10218 20209 39406 40073 57016 81101 333 56999 81815
AAXX 18181 98752 11462 40000 10262 20252 40082 57020 69961 70182 81230 333 56999 81818 84358
BBXX MINFR03 1818/ 99034 30656 46/// ///// 10278 40111 52014
BBXX 62081 18184 99510 70134 46/// ///// 10105 20051 40242 57010 22200 00119 10705 70027
BBXX AMOUK05 18184 99537 70003 46/// ///// 10011 21033 30116 40153 52022 91750
BBXX 63110 18184 99595 10015 47698 /3418 10057 21034 40074 51010 700// 22200 10808 70038
BBXX 63106 18184 99610 10017 46/// /3121 10039 40050 51004 22200
BBXX 63105 18184 99610 10017 47498 ///// 10047 20005 40049 52003 700// 22200
BBXX 62103 18184 99499 70029 46/99 /3124 10087 20019 40198 53011 22200 00122 10703 70014 333 90710 91131
BBXX 62107 18184 99501 70061 46/// /3320 10093 20029 40227 51006 22200 00115 10803 70016 333 90710 91128
BBXX 62094 18184 99517 70067 46/// /2916 10086 20052 40218 53003 22200 00105 10503 70015
BBXX AMOUK04 18184 99533 70062 46/// ///// 10053 2//// 30172 4//// 54002 91750
BBXX ONAN 18184 99118 71760 41898 40524 10260 2023/ 40110 54/// 7//22 842// 22273 04260 20605 334// 40606 5//// 6//// 80240 ICE /////
BBXX ONAN 18184 99118 71760 41898 40524 10260 2023/ 40110 54/// 7//22 842// 22273 04260 20605 334// 40606 5//// 6//// 80240 ICE /////
AAXX 18184 13600 12962 31410 10082 20002 30078 40131 57005 60002 83020 333 10106 83460
AAXX 18184 13610 12660 60000 10064 20019 39729 40156 52005 60002 86500 333 10074 86633
AAXX 18184 13611 12662 63208 10100 20048 30068 40159 52006 60002 86500 333 10145 86640
AAXX 18184 13619 12660 60000 10014 20008 39373 42763 52008 60002 86500 333 10042 86640
AAXX 18184 13622 12665 83202 10108 20008 30102 40110 54001 60002 885// 333 10135 88640
AAXX 18184 13624 12960 80902 10086 20031 30075 40114 54003 60002 8802/ 333 10140 88460
AAXX 18184 13625 12960 00000 10066 20012 39903 40137 54002 60002 333 10104
AAXX 18184 13629 12664 42204 10048 21023 39067 42726 54002 60002 84500 333 10072 84640
AAXX 18184 13601 12960 51802 10098 21001 30002 40103 54002 60002 85020 333 10136 85460
AAXX 18184 13602 NIL
AAXX 18184 13623 11960 72202 10066 20046 30121 40127 54000 60032 70266 87020 333 10090 87460
AAXX 18184 71307 16/// /2807 10020 21038 39977 40232 58003 60001 333 10022 21041 70000
BBXX 42044 18181 99262 70971 46/// /1003 10197 20174 40226 91830 22200 00183 333 91205
BBXX 42044 18181 99262 70971 46/// /1003 10197 20174 40226 91830 22200 00183 333 91205
BBXX AMOUK11 18184 99533 70062 46/// ///// 10049 20026 30154 40206 52017 91750
BBXX AMOUK03 18184 99537 70003 46/// ///// 10043 21019 30120 40151 52019 91750
BBXX AMOUK08 18184 99501 70061 46/// ///// 10096 20042 30222 40225 52007 91750
BBXX 63106 18184 99610 10017 46/// /3121 10039 40050 51004 22200
BBXX 63113 18184 99610 10017 46/// /3223 10039 20005 40056 52002 22200 10808 70041
BBXX 63110 18183 99595 10015 41/98 /3324 10056 40070 700// 8//// 22200 10707 70037
BBXX 62094 18184 99517 70067 46/// /2916 10086 20050 40218 53003 22200 00105 10503 70015
BBXX 62081 18184 99510 70134 46/// ///// 10104 20050 40242 56010 22200 00119 10705 70027
BBXX 62103 18184 99499 70029 46/99 /3122 10089 20038 40202 52014 22200 00121 10703 70014 333 90710 91133
BBXX 52249 18181 99052 31503 46/// ///// 1//// 91800 22200 00304
AAXX 18184 89257 46/// /0406 11041 21076 39828 49898 57004 91840
AAXX 1818/ 89868 46/// ///// 11116 39863 4//// 5//// 91840
BBXX 62081 18184 99510 70134 46/// ///// 10105 20051 40242 57010 22200 00119 10705 70027
BBXX AMOUK05 18184 99537 70003 46/// ///// 10011 21033 30116 40153 52022 91750
BBXX 63110 18184 99595 10015 47698 /3418 10057 21034 40074 51010 700// 22200 10808 70038
BBXX 63106 18184 99610 10017 46/// /3121 10039 40050 51004 22200
BBXX 63105 18184 99610 10017 47498 ///// 10047 20005 40049 52003 700// 22200
BBXX 62103 18184 99499 70029 46/99 /3124 10087 20019 40198 53011 22200 00122 10703 70014 333 90710 91131
BBXX 62107 18184 99501 70061 46/// /3320 10093 20029 40227 51006 22200 00115 10803 70016 333 90710 91128
BBXX 62094 18184 99517 70067 46/// /2916 10086 20052 40218 53003 22200 00105 10503 70015
BBXX AMOUK04 18184 99533 70062 46/// ///// 10053 2//// 30172 4//// 54002 91750
BBXX 52249 18181 99052 31503 46/// ///// 1//// 91800 22200 00304
BBXX AMOUK11 18184 99533 70062 46/// ///// 10049 20026 30154 40206 52017 91750
BBXX AMOUK03 18184 99537 70003 46/// ///// 10043 21019 30120 40151 52019 91750
BBXX AMOUK08 18184 99501 70061 46/// ///// 10096 20042 30222 40225 52007 91750
BBXX 63106 18184 99610 10017 46/// /3121 10039 40050 51004 22200
BBXX 63113 18184 99610 10017 46/// /3223 10039 20005 40056 52002 22200 10808 70041
BBXX 63110 18183 99595 10015 41/98 /3324 10056 40070 700// 8//// 22200 10707 70037
BBXX 62094 18184 99517 70067 46/// /2916 10086 20050 40218 53003 22200 00105 10503 70015
BBXX 62081 18184 99510 70134 46/// ///// 10104 20050 40242 56010 22200 00119 10705 70027
BBXX 62103 18184 99499 70029 46/99 /3122 10089 20038 40202 52014 22200 00121 10703 70014 333 90710 91133
AAXX 18181 78090 15/// /0000 10273 30212 40215 69901 91800 222// 00040
BBXX 62081 18184 99510 70134 46/// ///// 10105 20051 40242 57010 22200 00119 10705 70027
BBXX AMOUK05 18184 99537 70003 46/// ///// 10011 21033 30116 40153 52022 91750
BBXX 63110 18184 99595 10015 47698 /3418 10057 21034 40074 51010 700// 22200 10808 70038
BBXX 63106 18184 99610 10017 46/// /3121 10039 40050 51004 22200
BBXX 63105 18184 99610 10017 47498 ///// 10047 20005 40049 52003 700// 22200
BBXX 62103 18184 99499 70029 46/99 /3124 10087 20019 40198 53011 22200 00122 10703 70014 333 90710 91131
BBXX 62107 18184 99501 70061 46/// /3320 10093 20029 40227 51006 22200 00115 10803 70016 333 90710 91128
BBXX 62094 18184 99517 70067 46/// /2916 10086 20052 40218 53003 22200 00105 10503 70015
BBXX AMOUK04 18184 99533 70062 46/// ///// 10053 2//// 30172 4//// 54002 91750
AAXX 18184 97028 32560 70000 10250 20238 30068 40074 51008 83521 333 56000 83620 86460
AAXX 18184 96739 32460 72506 10249 20230 30044 40093 57003 85570 333 56000 85618
BBXX C6XC2 18184 99024 31327 41498 53506 10240 20226 40060 57020 70222 8427/ 22200 00300 2//// 3//// 4//// 5//// 6//// 80230 ICE /////
BBXX C6XC2 18184 99024 31327 41498 53506 10240 20226 40060 57020 70222 8427/ 22200 00300 2//// 3//// 4//// 5//// 6//// 80230 ICE /////
BBXX AMOUK11 18184 99533 70062 46/// ///// 10049 20026 30154 40206 52017 91750
BBXX AMOUK03 18184 99537 70003 46/// ///// 10043 21019 30120 40151 52019 91750
BBXX AMOUK08 18184 99501 70061 46/// ///// 10096 20042 30222 40225 52007 91750
BBXX 63106 18184 99610 10017 46/// /3121 10039 40050 51004 22200
BBXX 63113 18184 99610 10017 46/// /3223 10039 20005 40056 52002 22200 10808 70041
BBXX 63110 18183 99595 10015 41/98 /3324 10056 40070 700// 8//// 22200 10707 70037
BBXX 62094 18184 99517 70067 46/// /2916 10086 20050 40218 53003 22200 00105 10503 70015
BBXX 62081 18184 99510 70134 46/// ///// 10104 20050 40242 56010 22200 00119 10705 70027
BBXX 62103 18184 99499 70029 46/99 /3122 10089 20038 40202 52014 22200 00121 10703 70014 333 90710 91133
BBXX A8VL8 18184 99036 30859 41697 62514 10280 20224 40090 54/// 70222 867// 22213 0//// 2//// 3//// 4//// 5//// 6//// 80240 ICE /////
BBXX A8VL8 18184 99036 30859 41697 62514 10280 20224 40090 54/// 70222 867// 22213 0//// 2//// 3//// 4//// 5//// 6//// 80240 ICE /////
AAXX 18184 89573 35980 01142 11006 21142 39768 49790 57001
AAXX 18184 89573 35980 01142 11006 21142 39768 49790 57001
BBXX A8VL8 18184 99036 30859 41697 62514 10280 20224 40090 54/// 70222 867// 22213 0//// 2//// 3//// 4//// 5//// 6//// 80240
BBXX 62081 18184 99510 70134 46/// ///// 10105 20051 40242 57010 22200 00119 10705 70027
BBXX AMOUK05 18184 99537 70003 46/// ///// 10011 21033 30116 40153 52022 91750
BBXX 63110 18184 99595 10015 47698 /3418 10057 21034 40074 51010 700// 22200 10808 70038
BBXX 63106 18184 99610 10017 46/// /3121 10039 40050 51004 22200
BBXX 63105 18184 99610 10017 47498 ///// 10047 20005 40049 52003 700// 22200
BBXX 62103 18184 99499 70029 46/99 /3124 10087 20019 40198 53011 22200 00122 10703 70014 333 90710 91131
BBXX 62107 18184 99501 70061 46/// /3320 10093 20029 40227 51006 22200 00115 10803 70016 333 90710 91128
BBXX 62094 18184 99517 70067 46/// /2916 10086 20052 40218 53003 22200 00105 10503 70015
BBXX AMOUK04 18184 99533 70062 46/// ///// 10053 2//// 30172 4//// 54002 91750
BBXX UGPK 19001 99554 11483 43/98 70507 11012 40060 53080 22211 00011 2//20 3//05
AAXX 18184 91723 NIL
AAXX 18184 91964 NIL
BBXX AMOUK11 18184 99533 70062 46/// ///// 10049 20026 30154 40206 52017 91750
BBXX AMOUK03 18184 99537 70003 46/// ///// 10043 21019 30120 40151 52019 91750
BBXX AMOUK08 18184 99501 70061 46/// ///// 10096 20042 30222 40225 52007 91750
BBXX 63106 18184 99610 10017 46/// /3121 10039 40050 51004 22200
BBXX 63113 18184 99610 10017 46/// /3223 10039 20005 40056 52002 22200 10808 70041
BBXX 63110 18183 99595 10015 41/98 /3324 10056 40070 700// 8//// 22200 10707 70037
BBXX 62094 18184 99517 70067 46/// /2916 10086 20050 40218 53003 22200 00105 10503 70015
BBXX 62081 18184 99510 70134 46/// ///// 10104 20050 40242 56010 22200 00119 10705 70027
BBXX 62103 18184 99499 70029 46/99 /3122 10089 20038 40202 52014 22200 00121 10703 70014 333 90710 91133
AAXX 18184 03002 15674 /3212 10022 21012 30072 40090 53004 69902 91750 333 10030 87/36
BBXX 62081 18184 99510 70134 46/// ///// 10105 20051 40242 57010 22200 00119 10705 70027
BBXX AMOUK05 18184 99537 70003 46/// ///// 10011 21033 30116 40153 52022 91750
BBXX 63110 18184 99595 10015 47698 /3418 10057 21034 40074 51010 700// 22200 10808 70038
BBXX 63106 18184 99610 10017 46/// /3121 10039 40050 51004 22200
BBXX 63105 18184 99610 10017 47498 ///// 10047 20005 40049 52003 700// 22200
BBXX 62103 18184 99499 70029 46/99 /3124 10087 20019 40198 53011 22200 00122 10703 70014 333 90710 91131
BBXX 62107 18184 99501 70061 46/// /3320 10093 20029 40227 51006 22200 00115 10803 70016 333 90710 91128
BBXX 62094 18184 99517 70067 46/// /2916 10086 20052 40218 53003 22200 00105 10503 70015
BBXX AMOUK04 18184 99533 70062 46/// ///// 10053 2//// 30172 4//// 54002 91750
AAXX 18181 31348 42999 00000 11348 21359 30006 40228 52003
AAXX 18184 96075 31440 80000 10253 20248 30087 40093 57006 71792 8592/ 333 56009 57901 82915 83616 80965
AAXX 18184 97340 32560 52103 10246 20246 30051 40066 56018 81232 333 56000 81820 85080
BBXX V7QX2 18184 99190 10691 41796 33208 10260 2026/ 40100 54/// 7//// 8/23/ 22272 00290 20301 303// 4//// 5//// 6//// 80260 ICE /////
BBXX AMOUK11 18184 99533 70062 46/// ///// 10049 20026 30154 40206 52017 91750
BBXX AMOUK03 18184 99537 70003 46/// ///// 10043 21019 30120 40151 52019 91750
BBXX AMOUK08 18184 99501 70061 46/// ///// 10096 20042 30222 40225 52007 91750
BBXX 63106 18184 99610 10017 46/// /3121 10039 40050 51004 22200
BBXX 63113 18184 99610 10017 46/// /3223 10039 20005 40056 52002 22200 10808 70041
BBXX 63110 18183 99595 10015 41/98 /3324 10056 40070 700// 8//// 22200 10707 70037
BBXX 62094 18184 99517 70067 46/// /2916 10086 20050 40218 53003 22200 00105 10503 70015
BBXX 62081 18184 99510 70134 46/// ///// 10104 20050 40242 56010 22200 00119 10705 70027
BBXX 62103 18184 99499 70029 46/99 /3122 10089 20038 40202 52014 22200 00121 10703 70014 333 90710 91133
BBXX UBAU 18181 99155 70172 41598 40506 10265 40163 52003 70310 84730 22252 04235 20301
BBXX V7QX2 18184 99190 10691 41796 33208 10260 2026/ 40100 54/// 7//// 8/23/ 22272 00290 20301 303// 4//// 5//// 6//// 80260 ICE /////
AAXX 18184 97320 32560 60000 10249 20243 30053 40065 57014 84221 333 56000 57801 84819 85460 80850
AAXX 18184 48583 01456 80409 10265 20255 30104 40110 57006 60363 76162 8582/ 333 58006 60187 70360
AAXX 18184 48581 11550 80000 10237 20233 30071 40113 57009 60083 71022 82546 333 58008 70086
BBXX VRBK6 18184 99167 11195 41497 70225 10250 2022/ 40100 57200 70222 8794/ 22254 00270 20804 334// 40804 5//// 6//// 80200 ICE /////
BBXX VRBK6 18184 99167 11195 41497 70225 10250 2022/ 40100 57200 70222 8794/ 22254 00270 20804 334// 40804 5//// 6//// 80200 ICE /////
AAXX 17184 48001 NIL
AAXX 17184 48004 NIL
AAXX 17184 48008 NIL
AAXX 17184 48010 NIL
AAXX 17184 48018 32920 00000 10160 20144 40156 333 58012
AAXX 17184 48019 NIL
AAXX 17184 48020 NIL
AAXX 17184 48025 NIL
AAXX 17184 48035 NIL
AAXX 17184 48037 NIL
AAXX 17184 48042 32956 00000 10178 20147 40143 333 59004
AAXX 17184 48045 NIL
AAXX 17184 48048 NIL
AAXX 17184 48053 32940 03601 10180 20129 40160 333 58006
AAXX 17184 48057 NIL
AAXX 17184 48060 32410 40000 10152 20111 40170 83930 333 56560 59009
AAXX 17184 48062 NIL
AAXX 17184 48071 31910 00000 10175 20155 40138 71000 333 58000
AAXX 17184 48077 NIL
AAXX 17184 48078 NIL
AAXX 17184 48080 32550 20000 10180 20165 40133 81870 333 56990 59007
AAXX 17184 48094 32956 00000 10195 20190 40144 333 58000
AAXX 17184 48097 32956 03201 10225 20192 40137 333 58004
AAXX 17184 48108 31596 60000 10220 20173 40133 70522 82405 333 56999 59002
AAXX 17184 48109 32496 60401 10273 20240 40117 83531 333 56999 58004
AAXX 17184 48110 31994 31304 10240 20191 40135 705// 80005 333 56009 58003
AAXX 17184 48112 32956 00000 10178 20147 40143 333 59004
AAXX 17184 48001 NIL
AAXX 17184 48004 NIL
AAXX 17184 48008 NIL
AAXX 17184 48010 NIL
AAXX 17184 48018 32920 00000 10160 20144 40156 333 58012
AAXX 17184 48019 NIL
AAXX 17184 48020 NIL
AAXX 17184 48025 NIL
AAXX 17184 48035 NIL
AAXX 17184 48037 NIL
AAXX 17184 48042 32956 00000 10178 20147 40143 333 59004
AAXX 17184 48045 NIL
AAXX 17184 48048 NIL
AAXX 17184 48053 32940 03601 10180 20129 40160 333 58006
AAXX 17184 48057 NIL
AAXX 17184 48060 32410 40000 10152 20111 40170 83930 333 56560 59009
AAXX 17184 48062 NIL
AAXX 17184 48071 31910 00000 10175 20155 40138 71000 333 58000
AAXX 17184 48077 NIL
AAXX 17184 48078 NIL
AAXX 17184 48080 32550 20000 10180 20165 40133 81870 333 56990 59007
AAXX 17184 48094 32956 00000 10195 20190 40144 333 58000
AAXX 17184 48097 32956 03201 10225 20192 40137 333 58004
AAXX 17184 48108 31596 60000 10220 20173 40133 70522 82405 333 56999 59002
AAXX 17184 48109 32496 60401 10273 20240 40117 83531 333 56999 58004
AAXX 17184 48110 31994 31304 10240 20191 40135 705// 80005 333 56009 58003
AAXX 17184 48112 32956 00000 10178 20147 40143 333 59004
BBXX 62081 18184 99510 70134 46/// ///// 10105 20051 40242 57010 22200 00119 10705 70027
BBXX AMOUK05 18184 99537 70003 46/// ///// 10011 21033 30116 40153 52022 91750
BBXX 63110 18184 99595 10015 47698 /3418 10057 21034 40074 51010 700// 22200 10808 70038
BBXX 63106 18184 99610 10017 46/// /3121 10039 40050 51004 22200
BBXX 63105 18184 99610 10017 47498 ///// 10047 20005 40049 52003 700// 22200
BBXX 62103 18184 99499 70029 46/99 /3124 10087 20019 40198 53011 22200 00122 10703 70014 333 90710 91131
BBXX 62107 18184 99501 70061 46/// /3320 10093 20029 40227 51006 22200 00115 10803 70016 333 90710 91128
BBXX 62094 18184 99517 70067 46/// /2916 10086 20052 40218 53003 22200 00105 10503 70015
BBXX AMOUK04 18184 99533 70062 46/// ///// 10053 2//// 30172 4//// 54002 91750
AAXX 18181 38932 41/// 90000 10009 20009 40288 52021 74544
BBXX VRAC9 18184 99082 10767 41397 20914 10280 2022/ 40110 54/// 7//00 82//9 22253 00300 2//// 3//// 4//// 5//// 6//// 80240 ICE /////
BBXX VRAC9 18184 99082 10767 41397 20914 10280 2022/ 40110 54/// 7//00 82//9 22253 00300 2//// 3//// 4//// 5//// 6//// 80240 ICE /////
BBXX A8CB7 18183 99115 30719 414987 61004 10208 40090 51010 70300 8646/ 22254 06300 80265
BBXX A8CB7 18183 99115 30719 414987 61004 10208 40090 51010 70300 8646/ 22254 06300 80265
BBXX A8CB7 18183 99115 30719 ///// 61004 10208 40090 51010 70300 8646/ 22254 06300 80265
AAXX 18184 67009 32580 62810 10270 20249 39970 40088 51008 84902 333 10313 84820 81920 83075 94976/7 95836/7
AAXX 18184 67009 32580 62810 10270 20249 39970 40088 51008 84902 333 10313 84820 81920 83075 94976 94977 95836 95837
AAXX 18184 67009 32580 62810 10270 20249 39970 40088 51008 84902 333 10313 84820 81920 83075
BBXX SHIP 18184 99109 31410 41/97 32804 10287 20252 40019 70111 222// 0//// 20400 3//// 4//// 5////
BBXX SHIP 18184 99109 31410 41/97 32804 10287 20252 40019 70111 222// 0//// 20400 3//// 4//// 5////
BBXX SHIP 18184 99109 31410 41/97 32804 10287 20252 40019 70111 222// 0//// 20400 3//// 4//// 5////
AAXX 18181 10224 01475 52505 10016 20003 30074 40080 53016 60072 78381 85300 333 10032 20000 35100 41998 55300 20000 30000 69907 82915 84819 96283 96483
AAXX 18181 10946 07474 52003 11015 21030 39311 40165 53015 60022 72475 333 10006 21015 3/106 4/003 55300 20000 30000 69907 81/16 85/56
AAXX 18181 10616 01265 72803 11007 21014 39539 40155 51017 60022 70282 878// 333 10003 21007 3/101 43003 55300 69907 81804 84806 87640
AAXX 18181 10184 01580 72704 10025 20012 30005 40013 53016 60022 72711 873// 333 10032 20012 31000 55300 20000 30000 60017 87921 96488
AAXX 18184 44454 42557 10000 10060 20050 38692 48524 81100 333 58004
AAXX 18184 03823 15480 /3105 10036 20027 39964 40212 51009 60032 91750 333 10085 553// 20000 82/18 84/27
AAXX 18181 25563 11557 80410 11169 21188 39922 40002 52020 69932 77174 8872/ 333 21173 48031 55000 91116
AAXX 18181 25378 31695 73217 11170 21220 39940 49974 53005 73832 83530 333 21218 48004 91129
AAXX 18184 71288 16/// /3210 11339 21374 30066 40092 51004 60001 333 11320 21339 70000
AAXX 18184 71288 16/// /3210 11339 21374 30066 40092 51004 60001 333 11320 21339 70000
BBXX WCZ5238 18183 99179 11757 41/// /0918 10260 20217 40160 51040 7//00 8/2// 22263 00270 20805 309// 41206 5//// 6//// 80230 ICE /////
AAXX 18184 71245 46/// /0902 11095 21105 6///1 333 7////
AAXX 18184 71448 46/// /3204 11009 21039 39679 58011 6///1 333 7////
AAXX 18184 71372 16/// /1502 11074 21145 60001 333 11071 21129 70000
AAXX 18184 71372 16/// /1502 11074 21145 60001 333 11071 21129 70000
AAXX 18184 91772 11498 60703 10264 20244 4//// 69901 70218 868// 333 561// 82817 86640
AAXX 18184 91776 31498 40910 1//// 2//// 4//// 60001 70200 84200 333 562// 84818
AAXX 18184 91779 31398 50610 10266 20228 40106 53007 60001 70212 83781 333 561/9 81709 83817 85079
AAXX 18184 91784 31498 20312 10267 20240 40098 50001 60001 70200 81135 333 561// 81818
AAXX 18184 91792 31398 70308 10265 20244 40103 53010 60001 70322 83732 333 561// 81709 83816 84464 87177
