BBXX WCX2417 15064 99426 70873 41/96 82020 10094 2//// 40054 5//// 76062 8//// 22242 0//// 2//03 3//// 4//// 5//// 6//// 8//// ICE /////
AAXX 15064 40270 31940 00000 10086 21001 39282 40180 52008 70400 333 20062 30000
BBXX ZMFR 15054 99466 31663 43/// /14// 10113 20084 40070 52003 22261 00121
BBXX ZMENA 15054 99365 31756 46/// ///// 10180 20174 40019 57047 22273
BBXX 44172 15061 99445 70634 46/// ///// 1//// 90531 22200 00075 11003 21003 312// 41101 70016
BBXX 44097 15061 99410 70711 46/// ///// 1//// 90532 22200 00126 10902 20902 315// 41101 70010
BBXX WDD2876 15064 99474 70871 41/97 81705 10033 2//// 40007 57/// 76362 8//// 22223 00039 2//01 3//// 4//// 5//// 6//// 8//// ICE /////
AAXX 15064 40272 31958 00000 10040 21039 39358 40209 52008 70500 333 21005 30101
BBXX DBKV 15061 99171 70219 46/// /0411 10232 20168 40158 57007 22231 00245
BBXX DBBT 15061 99432 50002 46/// /2517 10085 20026 40004 52009 22252 00102
BBXX 42362 15061 99278 70907 46/// /1410 10233 20194 40210 90545
BBXX 42363 15061 99282 70892 46/// /1409 10228 20167 40227 90545 333 91210
BBXX 42364 15061 99291 70881 46/// /1510 10217 20167 40237 90545
BBXX WZP8164 15064 99455 70864 43/// /2912 10050 2//// 40007 5//// 7//// 8//// 222// 0//// 2//02 3//// 4//// 5//// 6//// 8//// ICE /////
BBXX C6DM2 15064 99054 11003 41999 70108 10300 20246 40090 56010 7//22 8721/ 22200 0//// 2//// 3//// 4//// 5//// 6//// 80260 ICE /////
BBXX V7MO2 15064 99262 70914 41/97 /1513 10236 20201 40196 57004 7//// 8//// 22200 00237 20301 311// 40503 5//// 6//// 80212 ICE /////
BBXX C6VG7 15064 99188 70791 415// 40533 10260 2//// 40150 5/000 7//11 84/6/ 22274 0//// 20306 3//// 40306 50306 6//// 8//// ICE /////
AAXX 15064 89578 46/// /0804 11352 36808 4//// 5////
BBXX 46249 15061 99338 71197 46/// ///// 1//// 90545 22200 00146 11302 21001 319// 41301 70008
BBXX 46244 15061 99409 71244 46/// ///// 1//// 90535 22200 00095 11305 21003 330// 41304 70024
BBXX 44098 15061 99428 70702 46/// ///// 1//// 90537 22200 00092 11002 21002 312// 41101 70010
BBXX 41115 15061 99184 70673 46/// ///// 1//// 90535 22200 11004 21004 336// 41101 70022
BBXX 46237 15061 99378 71226 46/// ///// 1//// 90540 22200 00112 11303 21001 326// 41302 70013
BBXX 46212 15061 99408 71243 46/// ///// 1//// 90542 22200 00094 11204 21003 330// 41203 70022
BBXX 46218 15061 99345 71208 46/// ///// 1//// 90532 22200 00145 11403 20802 330// 41402 70016
AAXX 15064 91334 11348 89905 10257 20237 30066 40069 55005 60071 78082 8437/ 333 56999 70066 555 91506
AAXX 15064 91643 11599 60407 10290 20235 40079 53007 60001 70222 81208 333 561/9 81820 86280
AAXX 15064 08495 11570 12806 10142 20112 30288 40296 53011 69902 70281 81500 90550 333 20141 30012 79999 81625
AAXX 15064 91334 11348 89905 10257 20237 30066 40069 55005 60071 78082 8437/ 333 56999 70066 555 91506
AAXX 15064 91643 11599 60407 10290 20235 40079 53007 60001 70222 81208 333 561/9 81820 86280
BBXX BAREU56 15064 99444 10089 46/// ///// 40133 22200
AAXX 15064 61902 32484 41311 10230 20185 40123 84800 333 20228 59003 82818 84648
AAXX 15064 68392 36/// /3408 10210 20158 30056 4//// 52011 333 20190 91015 555 10252
AAXX 15064 68382 16/// /3104 10227 20161 39320 48508 52011 69944 333 20191 91009 555 10267 20004 91013
AAXX 15064 68396 11659 70000 10226 20216 39425 48490 51019 60164 7616/ 875// 333 20195 555 10278 20155 91012
AAXX 15061 13579 32770 63402 10006 21001 39405 40267 53003 86500 333 21009 30/// 86656
AAXX 15064 89664 32661 61112 11033 21066 39768 49808 51003 85570 333 56550 85635 83358
AAXX 15064 89664 32661 61112 11033 21066 39768 49808 51003 85570 333 56550 85635 83358
AAXX 15064 89664 32661 61112 11033 21066 39768 49808 51003 85570 333 56550 85635 83358
AAXX 15064 68906 12598 72515 10108 20057 30045 40110 53007 69974 875// 222// 00125 20401 319// 40701 333 20101 91030 555 10160 20007 91010
AAXX 15064 91376 32474 80911 10283 20215 30076 40080 53008 84871 333 56229 70000 555 91506
BBXX 46114 15061 99364 71222 46/// ///// 1//// 90534 22200 00122 11303 20701 330// 41303 70015
AAXX 15064 91376 32474 80911 10283 20215 30076 40080 53008 84871 333 56229 70000 555 91506
BBXX 52200 15061 99134 11448 46/// ///// 1//// 90545 22200 00288 11005 21005 309// 41102 70025
BBXX 46211 15061 99469 71242 46/// ///// 1//// 90536 22200 00084 11104 21003 328// 41102 70020
BBXX 46088 15061 99483 71232 46/// /0503 10058 40183 52011 90550 22200 00079 1//00 70002 333 91203 555 11028 22029 30457 40405 60549 049028 024035 023031 032030 036037 025040
BBXX 44060 15061 99413 70721 46/// ///06 10071 40269 90545 22200 00111 333 91208 555 11067 22072
BBXX 44022 15061 99409 70737 46/// ///03 10082 20041 40263 90545 22200 00090 333 91204 555 11026 22026
AAXX 15064 68994 11395 83407 10097 20095 30049 40078 57020 60114 75055 886// 222// 00069 306// 40302 333 20089 91013 555 10118 20116 69945 91007
BBXX DBFR 15061 99546 10108 46/// /2315 10054 20037 49966 54000 22211 00060
AAXX 15064 16597 32560 12408 10145 20107 30163 40250 52003 81101 333 20140 30012 70000 81824
BBXX DBBU 15061 99545 10137 46/// +2013/1/047 20032 49999 54000 22211 00062
AAXX 15064 40255 32960 00000 10080 20007 39485 40210 52011 333 20055 30001
AAXX 15064 08594 31459 20515 10220 20161 40153 70621 81531 333 20217 58002 81615
AAXX 15064 08589 32960 20515 10226 20158 40145 81031 333 20225 58009 81360
AAXX 15064 08583 31558 20716 10220 20147 40164 70600 80001 333 20217 58018 82070
AAXX 15064 68352 36/// /2450 10247 20036 39041 48498 52011 333 20200 91157 555 10298 91013
BBXX DBJM 15061 99540 10085 46/// /2113 10048 20023 49981 52005 22260 00042
BBXX DBEA 15061 99540 10084 46/// /2214 10050 20024 49971 52010 22261 00053
BBXX DBFH 15061 99539 10087 46/// /2206 10056 20026 49977 52009 22210 00048
AAXX 15064 78708 11560 72104 10214 20214 30135 401666 58007 69951 72054 83170 333 10267 20209 31/// 56880 59016 83820 87458
AAXX 15064 78705 11560 61904 10213 20203 30146 40164 58008 60041 70564 83430 333 10276 20194 31/// 56000 59009 83826 86358
AAXX 15064 78714 22570 33004 10194 20192 83100 333 10276 20196 30/// 56700 83828
AAXX 15064 78717 11360 70000 10160 20157 38978 40167 58001 60044 70554 87500 333 10214 20150 32/// 56100 59012 82706 87620
AAXX 15064 78720 31560 50604 10171 20160 39051 40158 58002 70544 83534 333 10269 20155 30/// 56119 59004 83626 83075
AAXX 15064 78724 32578 30210 10276 20204 30058 40115 51004 81501 333 10342 20236 30/// 59013 81630 83075
BBXX DBBA 15061 99536 10086 46/// /2005 10050 20023 49984 52004 22220 00051
BBXX BAREU08 15064 99290 70511 46/// ///// 40084 57007 22214
BBXX DBKR 15061 99541 10142 46/// /2113 10049 20023 40009 57001 22200 00042
BBXX 41101 15064 99146 70562 46/// /3208 10267 20230 40088 57016 22200 00274 10804 70018
BBXX DBND 15061 99/// ///// 46/// ///// 10050 20025 49976 52004 22220 00068
BBXX DBBC 15061 99535 10086 46/// /2005 10048 2//// 49986 52003 22240 00050
BBXX 61001 15064 99434 10078 46/// /2530 10142 20050 40150 54000 22200 00158 10604 70022 555 1/040
BBXX DBCK 15061 99/// ///// 46/// ///// 10052 20050 49976 52003 22220 00057
BBXX TESTFR9 15064 99489 70023 46/// /2931 10098 29076 40063 52047 22234
BBXX BAREU05 15064 99402 70204 46/// ///// 40268 57023 22263
AAXX 15064 61901 169// /1315 10155 20100 39654 40164 55001 69922 90550 333 20144 3/013 70030 8//99 555 7/090
AAXX 15064 86033 NIL
AAXX 15064 86086 32970 01802 10200 20167 30011 40102 56004
AAXX 15064 86097 32970 00000 10176 20111 39447 40096 58010
AAXX 15064 86134 32970 00000 10192 20152 39995 40083 56005
AAXX 15064 86170 NIL
AAXX 15064 86192 NIL
AAXX 15064 86210 32970 00000 10168 20136 39726 40073 56006
AAXX 15064 86218 32970 00000 10202 20146 39991 40088 51003
AAXX 15064 86221 32970 00000 10192 20153 39977 40113 51002
AAXX 15064 86233 32970 00000 10184 20145 39910 40102 56003
AAXX 15064 86246 32970 02104 10178 20131 39799 40088 51006
AAXX 15064 86255 NIL
AAXX 15064 86260 32970 00000 10172 20151 39925 40079 57007
AAXX 15064 86268 32970 00000 10178 20131 39911 40078 56005
AAXX 15064 86297 NIL
BBXX 32012 15061 99197 50856 46/// ///// 1//// 90550 22200 11204 70018
BBXX 46006 15061 99408 71375 46/// /2504 10116 40284 53015 90550 22200 00125 10805 20401 3//// 40805 70026 333 91205 555 11036 22038 30542 42505 60549 246035 255033 257027 265027 257025 266025
BBXX 46002 15061 99426 71305 46/// ///// 10109 40225 51039 90550 22200 00121 11008 70042
BBXX 46084 15061 99566 71361 46/// /1410 10052 20024 40150 50000 90550 22200 00071 11105 20503 300// 41104 70026 333 91211 555 11101 22106 30457 41312 60549 139095 137095 135095 136099 135097 139095
BBXX 46075 15061 99539 71608 46/// /1717 10045 20015 49659 51016 90550 22200 00049 11317 20707 300// 41315 70083 333 91222 555 11181 22193 30544 41822 60549 169167 167163 166160 166158 166158 167159 81719 90545
BBXX 46005 15061 99461 71310 46/// ///11 10087 40187 52036 90550 22200 00100 10807 20806 3//// 41004 70034 333 91214 555 11121 22128
BBXX 46059 15061 99380 71300 46/// /3209 10136 40264 51026 90550 22200 00147 11105 20703 3//// 41104 70025 333 91211 555 11098 22103 30501 43212 60549 323093 326098 325100 329097 329099 329099
BBXX 46080 15061 99580 71500 46/// /1412 10046 20009 49992 58014 90550 22200 00053 11207 20605 3//// 41205 70036 333 91214 555 11130 22138 30532 41415 60549 141121 140117 145106 144103 147099 156100 81413 90533
BBXX 42003 15061 99260 70856 46/// /1108 1//// 90550 22200 10703 20703 70017 333 91210 555 11082 22088 30456 41110 60549 111077 111082 111078 109081 111082 113085 81009 90509
BBXX 42002 15061 99258 70937 46/// /1508 10244 20207 40185 54000 90550 22200 00246 10803 20703 310// 40802 70015 333 91210 555 11082 22087 30507 41511 60549 151082 149086 146084 149085 149088 148085
BBXX 41047 15061 99275 70715 46/// /0211 10214 40214 58010 90550 22200 00252 10906 20704 304// 40904 70028 333 91213 555 11108 22113 30545 40313 60549 020108 031110 033105 030100 033100 038094 80212 90542
BBXX 42055 15061 99222 70940 46/// /1106 10243 20191 40173 58006 90550 22200 00251 10602 20502 307// 40601 70010 333 91207 555 11063 22066 30515 41308 60549 112061 117062 115059 122064 118061 108062 81207 90514
BBXX 41043 15061 99211 70650 46/// /0210 10254 20180 40136 58008 90550 22200 00269 10906 20805 300// 40904 70031 333 91211 555 11101 22107 30532 40212 60549 020095 020094 017097 017092 021093 024093 80211 90532
BBXX 41036 15061 99342 70770 46/// ///// 10145 20102 40268 58013 90550 22200 00179 11102 70011
BBXX 44066 15061 99396 70726 46/// /1302 10107 20050 40270 57012 90550 22200 00132 10903 20301 3//// 40903 70014 333 91205 555 11021 22021 30459 41105 60549 131022 115028 124028 112031 114035 112038
BBXX 41012 15061 99300 70805 46/// /1107 10218 40248 58009 90550 22200 00236 11103 20602 307// 41102 70016 333 91209 555 11074 22077 30511 41009 60549 108068 104067 102069 106068 101069 097072
BBXX 41001 15061 99347 70727 46/// ///// 10176 20064 40256 58008 90550 22200 00219 11004 70021
BBXX 41049 15061 99275 70630 46/// /3508 10225 20136 40150 56007 90550 22200 00249 11006 20604 300// 41005 70032 333 91210 555 11085 22089 30539 43412 60549 348080 344083 346088 350084 347079 349081 83410 90525
BBXX 42020 15061 99270 70967 46/// /1610 10240 20202 40158 54000 90550 22200 00241 10703 20603 311// 40702 70017 333 91212 555 11102 22108 30543 41512 60549 154095 154094 154094 154093 154095 151095
BBXX 41044 15061 99217 70587 46/// /3206 10242 20212 40102 90550 22200 00267 11004 20402 300// 41004 70020 333 91207 555 11060 22062 30506 43610 60549 318057 335041 047015 059022 002073 338063 80109 90506
BBXX 41060 15061 99148 70510 46/// ///// 1//// 90550 22200 11005 70025
BBXX 41048 15061 99320 70696 46/// /0211 10190 20103 40221 54000 90550 22200 00226 11007 20806 3//// 41004 70035 333 91213 555 11111 22117 30501 40315 60549 017112 018115 027114 022113 023123 025119 80213 90501
BBXX 42065 15061 99149 70750 46/// /0309 10251 20231 90550 22200 10603 20603 70016 333 91212 555 11095 22102 30453 40815 60549 034087 070057 088069 071080 074083 081112 80813 90451
BBXX 42012 15061 99301 70876 46/// /1507 10206 20179 40227 57006 90550 22200 00193 10603 20602 334// 42701 70013 333 91208 555 11073 22081 30511 41410 60549 147065 146066 146076 143080 142074 140080
BBXX 42001 15061 99259 70897 46/// /1210 10243 20193 40212 58003 90550 22200 00249 10804 20804 70022 333 91212 555 11107 22113 30507 41213 60549 119100 116100 119100 121103 116100 119102
BBXX 42035 15061 99292 70944 46/// /1102 10180 20180 40184 54000 90550 22200 00166 10702 20401 317// 40702 70009 333 91202 555 11021 22024 30457 41204 60549 111018 125020 124024 126030 126033 124040
BBXX 42058 15061 99149 70749 46/// /0609 10274 20217 40111 58012 90550 22200 00279 10704 20703 308// 41101 70018 333 91211 555 11099 22105 30450 40511 60549 064094 069094 071092 070093 070096 069088 80710 90504
BBXX 42060 15061 99163 70635 46/// /0206 10266 20208 40117 58012 90550 22200 00281 11002 20401 300// 41002 70011 333 91207 555 11060 22062 30513 40107 60549 023056 023055 017055 014060 018056 017059 80206 90514
BBXX 42036 15061 99285 70845 46/// /1110 10209 20165 40231 58011 90550 22200 00217 10502 20502 70010 333 91212 555 11106 22112 30452 41113 60549 111100 111101 111106 109101 111107 108104
BBXX 42056 15061 99198 70849 46/// /0610 10262 20208 40169 58009 90550 22200 00271 10906 20906 70028 333 91212 555 11103 22109 30451 40712 60549 062096 060095 065098 062095 058097 064093 80611 90538
BBXX 42059 15061 99151 70675 46/// /0507 10274 20214 40115 58014 90550 22200 00285 11103 20502 3//// 41102 70013 333 91208 555 11075 22079 30524 40509 60549 052070 046066 050068 051066 050072 058065 80508 90504
BBXX 42019 15061 99279 70954 46/// /1608 10235 20213 40164 56007 90550 22200 10703 20703 70017 333 91209 555 11082 22088 30508 42710 60549 177078 280077 279078 279078 280081 275079
BBXX 44005 15061 99432 70691 46/// /1902 10041 21046 40270 58014 90550 22200 00087 11002 20401 3//// 41002 70010 333 91203 555 11015 22016 30450 41004 60549 186015 176017 164008 158011 114013 099025
BBXX 42040 15061 99292 70882 46/// /1509 10218 40222 58007 90550 22200 00227 10604 20604 70018 333 91211 555 11089 22094 30549 41511 60549 149088 150088 153090 149089 152091 149089
BBXX 46001 15061 99563 71480 46/// /1312 10049 49996 58041 90550 22200 00050 11508 20705 300// 41506 70039 333 91214 555 11129 22137 30512 41315 60549 132119 133117 134122 137124 137122 137115
BBXX WKDY 15063 99393 70249 41497 82224 10130 20121 40249 57009 72065 8877/ 22224 00176 20306 333// 40609 5//// 6//// 80125 ICE /////
BBXX WYL4318 15063 99583 71356 41/97 40910 10044 2//// 40091 54/// 702// 8//// 222// 0//// 2//01 3//// 4//// 5//// 6//// 8//// ICE /////
BBXX NWS0022 15064 99416 70714 43/// /1409 10074 20026 40264 5//// 7//// 8//// 222// 04129 2//// 3//// 4//// 5//// 6//// 8//// ICE /////
BBXX WDC6698 15064 99099 71456 43/// /1016 10274 20263 40130 5//// 7//// 8//// 222// 04254 2//// 3//// 4//// 5//// 6//// 8//// ICE /////
BBXX LAOW5 15064 99189 51370 41497 70814 10240 20226 40173 52013 70262 872// 22254 00268 20303 308// 40304 5//// 6//// 80230 ICE /////
BBXX 46014 15061 99394 71240 46/// /1307 10093 40240 50020 90550 22200 00105 11304 20301 3//// 41304 70020 333 91209 555 11078 22082 30522 41409 60549 133075 134070 139073 143069 148068 154063
BBXX 46011 15061 99350 71210 46/// /3206 10131 40254 53010 90550 22200 00135 11503 20601 332// 41502 70013 333 91208 555 11068 22072 30547 43208 60549 324062 327056 323055 324050 322044 324047
BBXX 46047 15061 99324 71195 46/// /3106 10130 40253 52006 90550 22200 00137 11602 20401 333// 41602 70012 333 91208 555 11065 22068 30546 43108 60549 311060 302059 305056 310056 309055 309058
BBXX 46088 15061 99483 71232 46/// /0503 10058 40183 90550 22200 00079 1//00 70002 333 91203 555 11028 22029 30457 40405 60549 049028 024035 023031 032030 036037 025040
BBXX 46086 15061 99325 71180 46/// /3204 10138 40244 51006 90550 22200 00149 10902 20301 328// 40902 70011 333 91205 555 11045 22047 30535 43305 60549 320044 324045 323044 318042 314043 315040
BBXX 46027 15061 99419 71244 46/// /1513 10085 40180 56011 90550 22200 00094 11206 20705 328// 41203 70030 333 91216 555 11137 22146 30512 41718 60549 150126 155134 156131 162128 160135 164131
BBXX 46050 15061 99442 71246 46/// /1609 10084 40165 53007 90550 22200 00101 10807 20806 327// 41203 70033 333 91211 555 11097 22102 30504 41413 60549 157091 154098 150096 152109 152109 152111
BBXX 46069 15061 99337 71202 46/// /3403 10126 40249 51007 90550 22200 00135 11503 20401 326// 41502 70013 333 91203 555 11028 22029 30458 43305 60549 345027 334027 328032 329035 327039 325040
BBXX 46013 15061 99382 71233 46/// /2103 10108 40244 55000 90550 22200 00108 11103 3//// 41103 70017 333 91203 555 11028 22029 30452 42105 60549 213027 207031 211034 206039 205041 209041
BBXX 46012 15061 99374 71229 46/// /2104 10110 40245 56010 90550 22200 00121 11303 331// 41303 70015 333 91205 555 11046 22048 30513 41706 60549 212045 216046 199044 170049 172043 179036
BBXX 46087 15061 99485 71247 46/// /1108 10061 20048 40177 52008 90550 22200 00078 11203 20401 327// 41203 70016 333 91210 555 11089 22094 30450 41211 60549 113083 117083 125083 129081 127084 124091
BBXX 46029 15061 99461 71245 46/// /1611 10074 20067 40163 51005 90550 22200 00082 10805 20805 328// 41303 70027 333 91214 555 11115 22122 30538 41714 60549 161107 172111 166109 164103 166104 168107
BBXX 46054 15061 99342 71204 46/// /3204 10129 40249 51005 90550 22200 00140 11402 20401 300// 41402 70011 333 91205 555 11042 22043 30538 43105 60549 317040 315040 319041 320038 319035 327032
BBXX 46028 15061 99357 71219 46/// /3204 10116 40248 50003 90550 22200 00128 11503 20401 331// 41503 70017 333 91205 555 11037 22039 30451 43207 60549 324036 329036 323037 319048 323055 320059
BBXX 46025 15061 99337 71191 46/// /2802 10138 20099 40241 51006 90550 22200 00149 11202 323// 41201 70008 333 91203 555 11023 22023 30535 42903 60549 285022 286024 284016 277009 283002 278001
BBXX 46105 15061 99590 71522 46/// ///// 1//// 90550 22200 10605 70024
BBXX 46070 15061 99551 11753 46/// /2405 10003 21034 49839 51027 90550 22200 00039 11109 20402 3//// 41109 70045 333 91208 555 11055 22057 30456 42609 60549 241053 239054 260056 266058 270064 264063 82607 90457
BBXX 44025 15061 99402 70732 46/// /1706 10098 20043 40264 56017 90550 22200 00112 10902 20501 310// 40902 70011 333 91207 555 11063 22066 30532 41608 60549 169060 167066 162061 166057 165058 164052
BBXX 41008 15061 99314 70809 46/// /0603 10179 20163 40258 58011 90550 22200 00168 11102 20401 300// 41102 70010 333 91204 555 11033 22038 30457 40605 60549 055029 059032 061034 062035 062038 064039
BBXX 44014 15061 99366 70748 46/// /0801 1//// 40271 56013 90550 22200 00147 11003 20401 310// 41003 70014 333 91202 555 11012 22012 30451 41004 60549 081011 062010 117008 135011 122019 106027
BBXX 41004 15061 99325 70791 46/// /1004 10194 20114 40263 58015 90550 22200 00220 11102 20301 3//// 41102 70012 333 91205 555 11044 22045 30528 40906 60549 098044 098043 099047 097044 102046 100045
BBXX 44009 15061 99385 70747 46/// /1704 10108 40280 56013 90550 22200 00123 10902 20401 300// 40902 70011 333 91206 555 11046 22048 30459 41606 60549 171046 158046 159048 159051 162046 158051
BBXX 44027 15061 99443 70673 46/// /0000 10024 21051 40274 56010 90550 22200 00088 10901 3//// 40901 70006 333 91201 555 11003 22003 30458 41904 60549 282004 224013 241021 220019 205022 186024
BBXX 41013 15061 99334 70777 46/// /0803 10176 20104 40263 58016 90550 22200 00207 11102 20401 311// 41102 70011 333 91204 555 11034 22035 30501 40805 60549 077032 076032 079031 077034 084036 080033
BBXX 44065 15061 99404 70737 46/// /1707 10096 20053 40263 56019 90550 22200 00103 11002 20301 313// 41001 70009 333 91208 555 11074 22078 30533 41709 60549 174070 174071 172069 174068 172067 163065 81708 90533
BBXX 44040 15061 99410 70736 46/// /2004 10081 20043 40271 90545 22200 1//00 70002 333 91204 555 11046 22051
BBXX 44020 15061 99414 70702 46/// /1001 10058 21003 40273 58012 90550 22200 00086 10701 308// 40701 70003 333 91202 555 11012 22012 30455 42802 60549 116011 194010 204014 230014 277014 279017
BBXX ZCBZ5 15063 99240 10651 41798 22908 10247 20145 40189 52008 70122 82//5 22264 02263 20000 331// 40501 5//// 80186
BBXX ONCE 15064 99350 30237 41398 73030 10190 2010/ 40140 54000 70222 8724/ 22224 00190 20206 327// 41408 5//// 6//// 80140 ICE /////
BBXX 32012 15061 99197 50856 46/// ///// 1//// 90550 22200 11204 70018
BBXX DGPT2 15064 99193 50388 41698 71615 10250 20222 40110 56010 70322 875// 22214 00250 2//// 80230
BBXX 46059 15061 99380 71300 46/// /3209 10136 40264 51026 90550 22200 00147 11105 20703 3//// 41104 70025 333 91211 555 11098 22103 30501 43212 60549 323093 326098 325100 329097 329099 329099
BBXX 46005 15061 99461 71310 46/// ///11 10087 40187 52036 90550 22200 00100 10807 20806 3//// 41004 70034 333 91214 555 11121 22128
BBXX 46080 15061 99580 71500 46/// /1412 10046 20009 49992 58014 90550 22200 00053 11207 20605 3//// 41205 70036 333 91214 555 11130 22138 30532 41415 60549 141121 140117 145106 144103 147099 156100 81413 90533
BBXX 46075 15061 99539 71608 46/// /1717 10045 20015 49659 51016 90550 22200 00049 11317 20707 300// 41315 70083 333 91222 555 11181 22193 30544 41822 60549 169167 167163 166160 166158 166158 167159 81719 90545
BBXX 46084 15061 99566 71361 46/// /1410 10052 20024 40150 50000 90550 22200 00071 11105 20503 300// 41104 70026 333 91211 555 11101 22106 30457 41312 60549 139095 137095 135095 136099 135097 139095
BBXX 46006 15061 99408 71375 46/// /2504 10116 40284 53015 90550 22200 00125 10805 20401 3//// 40805 70026 333 91205 555 11036 22038 30542 42505 60549 246035 255033 257027 265027 257025 266025
BBXX 46002 15061 99426 71305 46/// ///// 10109 40225 51039 90550 22200 00121 11008 70042
BBXX 41101 15064 99146 70562 46/// /3208 10267 20230 40088 57016 22200 00274 10804 70018
BBXX BAREU08 15064 99290 70511 46/// ///// 40084 57007 22214
BBXX 46211 15061 99469 71242 46/// ///// 1//// 90536 22200 00084 11104 21003 328// 41102 70020
BBXX 44060 15061 99413 70721 46/// ///06 10071 40269 90545 22200 00111 333 91208 555 11067 22072
BBXX 46088 15061 99483 71232 46/// /0503 10058 40183 52011 90550 22200 00079 1//00 70002 333 91203 555 11028 22029 30457 40405 60549 049028 024035 023031 032030 036037 025040
BBXX 44022 15061 99409 70737 46/// ///03 10082 20041 40263 90545 22200 00090 333 91204 555 11026 22026
BBXX 46114 15061 99364 71222 46/// ///// 1//// 90534 22200 00122 11303 20701 330// 41303 70015
BBXX DGTX 15063 99330 71495 41/98 /1728 10200 20153 40240 58003 70200 8//// 22264 00220 2//// 80170
BBXX A8AJ4 15064 99504 71316 41198 33523 10070 20038 40160 52040 70100 83130 22274 0//// 20602 32819 41204 50902 6//// 80055 ICE /////
BBXX WSLH 15064 99350 71310 41498 23012 10150 2013/ 40175 52018 70200 822// 22255 00117 2//// 3//// 4//// 5//// 6//// 80140 ICE /////
BBXX WPGK 15064 99250 70739 41398 50224 10244 2021/ 40182 52006 70222 854// 22274 00261 20404 306// 40405 5//// 6//// 80222 ICE /////
BBXX C6FY8 15064 99544 71622 41695 81441 10040 2002/ 49680 57070 78022 8896/ 22263 00060 20408 31617 40612 50614 6//// 80030 ICE /////
BBXX HZRX 15063 99368 70743 41797 73013 /// 10120 20100 40260 54004 70322 88000 22263 10170 20303 31313 40202 5//// 6//// 80080 ///// /////
BBXX C6LU3 15063 99152 70767 41/97 /0526 10250 2025/ 40140 51005 72111 8//// 22215 20504 80250
BBXX C6OT4 15064 99238 71758 41498 42908 10245 20209 40169 53011 70211 82140 22223 04256 21004 334// 41405 5//// 80221
BBXX ELWR5 15060 99286 71164 41/98 20109 10200 20174 40230 50/// 7//// 8/1// 22234 04177 20903 80183
BBXX C6QK 15063 99289 70677 41598 50221 10210 2013/ 40200 51030 70322 84263 22254 40403 81600
BBXX ZCDA9 15063 99216 71589 41598 50726 10230 20199 40173 53005 70222 83400 22233 00260 20101 307// 40303 5//// 80210
BBXX 46218 15061 99345 71208 46/// ///// 1//// 90532 22200 00145 11403 20802 330// 41402 70016
BBXX 46212 15061 99408 71243 46/// ///// 1//// 90542 22200 00094 11204 21003 330// 41203 70022
BBXX 46237 15061 99378 71226 46/// ///// 1//// 90540 22200 00112 11303 21001 326// 41302 70013
BBXX 41115 15061 99184 70673 46/// ///// 1//// 90535 22200 11004 21004 336// 41101 70022
BBXX VQGQ4 15064 99130 11492 41698 60920 10284 20235 40080 54000 70222 8541/ 22284 00293 20504 30000 80250
BBXX V7DI8 15063 99336 11248 41397 73628 10060 2002/ 40280 54000 70282 8736/ 22200 00170 20605 334// 40704 5//// 6//// 80040 ICE /////
BBXX HZGN 15063 99060 10870 41/98 80618 10260 20246 40116 56010 76062 8/0/0 22224 02270 20803 306// 40804 5//// 80250
BBXX OUJI2 15064 99538 11788 41/// 92832 11010 2//// 49960 51020 7//77 89/// 22211 00030 20602 328// 40807 5//// 6//// ICE /////
BBXX LAYG5 15064 99513 11698 41697 82940 11010 21080 49850 51005 70322 8852/ 22262 00044 20904 328// 4//// 5//// 81030
BBXX 44098 15061 99428 70702 46/// ///// 1//// 90537 22200 00092 11002 21002 312// 41101 70010
BBXX 46244 15061 99409 71244 46/// ///// 1//// 90535 22200 00095 11305 21003 330// 41304 70024
BBXX 46249 15061 99338 71197 46/// ///// 1//// 90545 22200 00146 11302 21001 319// 41301 70008
BBXX ZCDA9 15063 99216 71589 41598 50726 10255 20218 40171 53005 70222 83400 22233 00260 20101 307// 40303 5//// 80230
BBXX 3FSB4 15064 99404 71634 41597 62631 10110 2007/ 40030 51010 75055 8644/ 22224 0//// 2//// 3//// 4//// 5//// 6//// 80090 ICE /////
BBXX KHRC 15064 99334 71205 41498 /3309 10133 2012/ 40235 54000 70200 8//// 22214 00122 2//// 3//// 4//// 5//// 6//// 80128 ICE /////
BBXX SHIP 15064 99348 71656 41498 83024 10160 2014/ 40120 5//// 78065 889// 22262 00190 20706 327// 41009 5//// 6//// 80150 ICE /////
BBXX KGTY 15064 99573 71551 43898 70523 10039 2//// 49930 5//// 7//// 86/4/ 22254 00039 20605 3//// 40000 50000 6//// ICE /////
BBXX C6VG7 15064 99188 70791 415// 40533 10260 2//// 40150 5/000 7//11 84/6/ 22274 0//// 20306 3//// 40306 50306 6//// 8//// ICE /////
BBXX 42363 15061 99282 70892 46/// /1409 10228 20167 40227 90545 333 91210
BBXX 42364 15061 99291 70881 46/// /1510 10217 20167 40237 90545
BBXX 42362 15061 99278 70907 46/// /1410 10233 20194 40210 90545
BBXX DBBA 15061 99536 10086 46/// /2005 10050 20023 49984 52004 22220 00051
BBXX DBBC 15061 99535 10086 46/// /2005 10048 2//// 49986 52003 22240 00050
BBXX DBKR 15061 99541 10142 46/// /2113 10049 20023 40009 57001 22200 00042
BBXX DBJM 15061 99540 10085 46/// /2113 10048 20023 49981 52005 22260 00042
BBXX DBEA 15061 99540 10084 46/// /2214 10050 20024 49971 52010 22261 00053
BBXX DBFH 15061 99539 10087 46/// /2206 10056 20026 49977 52009 22210 00048
BBXX DBFR 15061 99546 10108 46/// /2315 10054 20037 49966 54000 22211 00060
BBXX DBBU 15061 99545 10137 46/// +2013/1/047 20032 49999 54000 22211 00062
BBXX WGAX 15064 99430 70128 41798 52435 10145 2009/ 40200 54000 7//21 8444/ 22253 00150 2//// 3//// 4//// 5//// 6//// 80115 ICE /////
BBXX SHIP 15064 99368 70122 41697 53119 10160 20067 40330 56005 70301 85134 90545 22234 0//// 1//// 21109 333// 4//// 5//// 6//// 80110 /////
BBXX WKDY 15063 99393 70249 41497 82224 10130 20121 40249 57009 72065 8877/ 22224 00176 20306 333// 40609 5//// 6//// 80125 ICE /////
BBXX WZP8164 15064 99455 70864 43/// /2912 10050 2//// 40007 5//// 7//// 8//// 222// 0//// 2//02 3//// 4//// 5//// 6//// 8//// ICE /////
BBXX ZCBH7 15064 99105 31161 41697 32415 10282 20267 40110 56032 70322 8/472 22243 04302 20202 324// 40202 5//// 80271
BBXX 46001 15061 99563 71480 46/// /1312 10049 49996 58041 90550 22200 00050 11508 20705 300// 41506 70039 333 91214 555 11129 22137 30512 41315 60549 132119 133117 134122 137124 137122 137115
BBXX 46002 15061 99426 71305 46/// ///// 10109 40225 51039 90550 22200 00121 11008 70042
BBXX 46005 15061 99461 71310 46/// ///11 10087 40187 52036 90550 22200 00100 10807 20806 3//// 41004 70034 333 91214 555 11121 22128
BBXX 46006 15061 99408 71375 46/// /2504 10116 40284 53015 90550 22200 00125 10805 20401 3//// 40805 70026 333 91205 555 11036 22038 30542 42505 60549 246035 255033 257027 265027 257025 266025
BBXX 46012 15061 99374 71229 46/// /2104 10110 40245 56010 90550 22200 00121 11303 331// 41303 70015 333 91205 555 11046 22048 30513 41706 60549 212045 216046 199044 170049 172043 179036
BBXX 46014 15061 99394 71240 46/// /1307 10093 40240 50020 90550 22200 00105 11304 20301 3//// 41304 70020 333 91209 555 11078 22082 30522 41409 60549 133075 134070 139073 143069 148068 154063
BBXX 46028 15061 99357 71219 46/// /3204 10116 40248 50003 90550 22200 00128 11503 20401 331// 41503 70017 333 91205 555 11037 22039 30451 43207 60549 324036 329036 323037 319048 323055 320059
BBXX 46054 15061 99342 71204 46/// /3204 10129 40249 51005 90550 22200 00140 11402 20401 300// 41402 70011 333 91205 555 11042 22043 30538 43105 60549 317040 315040 319041 320038 319035 327032
BBXX DGTX 15063 99330 71495 41/98 /1728 10200 20153 40240 58003 70200 8//// 22264 00220 2//// 80170
BBXX WSLH 15064 99350 71310 41498 23012 10150 20130 40175 52018 70200 822// 22255 00117 2//// 3//// 4//// 5//// 6//// 80140 ICE /////
BBXX WYL4318 15063 99583 71356 41/97 40910 10044 2//// 40091 54/// 702// 8//// 222// 0//// 2//01 3//// 4//// 5//// 6//// 8//// ICE /////
AAXX 15064 81405 04066 80000 10238 20235 30082 40091 60011 700// 333 3/023 55014 69967 58004 70078 555 60005
AAXX 15064 81405 04066 80000 10238 20235 30082 40091 60011 700// 333 3/023 55014 69967 58004 70078 555 60005
BBXX BAREU60 15064 99436 10135 46/// ///// 40149 54000 22252
BBXX BAREU51 15064 99404 10118 46/// ///// 40188 57006 22275
BBXX BAREU11 15064 99105 70759 46/// ///// 40094 22200
BBXX BAREU00 15064 99463 70535 46/// ///// 40242 52009 22224
AAXX 15064 81225 12970 30000 10236 20230 40096 60001 83052 333 56039 58005 83360
AAXX 15064 81200 NIL
AAXX 15064 81202 NIL
AAXX 15064 81209 NIL
AAXX 15064 81251 NIL
AAXX 15064 85934 12580 73106 10111 20080 40169 57010 60001 81532 333 56777 81620 83362 85070
AAXX 15064 85574 12960 01806 10134 20102 40132 57006 60001
AAXX 15064 85577 12960 00000 10135 20108 39527 40138 58007 60001
AAXX 15064 85682 12360 83606 10132 20123 40128 58008 60001 885// 333 56799 88608
AAXX 15064 85743 11458 72905 10125 20114 40133 58010 60001 71022 87500 333 56600 87615
AAXX 15064 85799 12960 00000 10113 20113 40146 56003 60001
AAXX 15064 85406 12684 40502 10198 20117 40131 58018 60001 85400 333 56000 84640
AAXX 15064 85418 12965 01208 10202 20111 40138 57019 60001
AAXX 15064 85442 12475 89901 10181 20148 40142 58007 60001 885// 333 56099 81612 88625
AAXX 15064 85469 42565 42610 10223 20185 40181 52007 84200 333 56200 84820
AAXX 15064 85488 12460 89903 10152 20120 40130 58010 60001 885// 333 56099 88612
AAXX 15064 85874 32984 /9902 10095 20026 39554 40179 50008
AAXX 15064 68386 16/// /1702 10247 20233 39669 48598 52011 60514 333 20226 91003 555 10355 20518 69925 91020
AAXX 15064 78954 12580 20305 10249 20233 30038 40098 60001 81201 333 10298 20228 59003 81820
AAXX 15064 78925 14966 /0603 10223 20221 40107 58013 60001 700// 333 10313 20221 55071 21558 59005 70034
AAXX 15064 78954 12580 20305 10249 20233 30038 40098 60001 81201 333 10298 20228 59003 81820
AAXX 15061 33815 31/91 92204 10027 20026 39980 40191 53003 69902 74554 333 20024 555 80015
AAXX 15064 78925 14966 /0603 10223 20221 40107 58013 60001 700// 333 10313 20221 55071 21558 59005 70034
AAXX 15064 91408 11474 81412 10280 20244 30008 40046 55010 60031 72582 83278 333 56399 70282 555 91506
AAXX 15064 91408 11474 81412 10280 20244 30008 40046 55010 60031 72582 83278 333 56399 70282 555 91506
BBXX BAREU12 15064 99505 70060 46/// ///// 49997 52054 22244
BBXX BATFR15 15064 99305 70342 44/97 51217 10205 20179 40249 58008 70300 8//// 22254 00224 309// 41004 5////
BBXX BATFR21 15064 99426 10089 46/// /2321 20167 40176 57001 22200
BBXX BATFR54 15064 99380 70096 46/// /3310 10154 20077 4//// 22283 00164
BBXX BATFR46 15064 99429 10048 44998 12918 10142 20070 40207 53009 701// 81//1 22213 00159
AAXX 15064 48698 01466 73004 10299 20233 30063 40081 60001 70522 83838 333 60007 82818 84277
BBXX BATFR52 15064 99489 70023 46/// /2931 10099 20037 40048 53061 22234 00124
BBXX BAREU06 15064 99469 70576 46/// ///// 40255 52002 22274
BBXX BATFR09 15064 99368 70005 44998 62912 10170 20135 40266 53018 70211 80005 22263 00179 20306 60//0 ICE 0/0//
BBXX BATFR20 15064 99414 10094 46/// /0638 10154 20107 40175 58016 22284
BBXX BATFR60 15064 99475 70040 46/// /2847 10109 20037 40098 51027 22272 00122
BBXX BATFR55 15064 99188 30562 44598 41311 10267 20234 40126 70311 83141 22232 00274 205// 33131 40802 50802
BBXX BAREU62 15064 99413 10122 46/// ///// 40184 57005 22274
BBXX BATFR24 15064 99427 10095 46/// /2730 10160 20057 40160 58002 22261 00165
BBXX BATEU06 15064 99587 70047 46/// /2923 10074 20022 49827 52160 22264 00105
BBXX BATEU02 15064 99532 70092 46/// /2819 10077 20037 49948 22262 00077
BBXX BATFR56 15064 99136 30672 44998 21207 10272 20229 40124 51007 70000 82043 22252 00287 20802 314// 40802 5////
AAXX 15061 12772 11302 83303 10049 20043 39875 40162 53002 60022 74464 886// 333 20047 4/000 55000 70033 88706
AAXX 15061 12822 36/// /0000 10055 20042 30014 40159 52002 333 20044
AAXX 15061 12843 11640 81201 10055 20051 39985 40157 57001 60022 71086 885// 333 20053 4/000 55000 70017 88633
AAXX 15061 12882 11658 71903 10070 20063 30030 40163 50002 60032 76062 8457/ 333 20070 4/000 55000 70032 84633
AAXX 15061 12925 16/// /0805 10069 20057 39987 40159 52007 60112 333 20069 70109
AAXX 15061 12942 11470 80505 10068 20050 39915 40161 50003 69992 76182 8372/ 333 20064 4/000 55020 70009 83710
AAXX 15061 12982 11750 71101 10067 20058 30062 40164 58003 60012 72162 8357/ 333 20064 4/000 55000 70012 83650
BBXX BATEU09 15064 99438 10088 46/// /2234 10149 20079 40127 52010 22212 00167
BBXX BATEU08 15064 99587 10026 46/// /2625 10082 20027 49820 51020 22273
BBXX BATFR08 15064 99496 30701 46/// /2616 10082 20042 40106 22233 00067
BBXX BATFR04 15064 99597 70110 44598 43516 10064 21018 49878 53017 70211 842// 22200 00102 335// 40410 5////
BBXX BATFR19 15064 99058 30097 46/// /1913 10247 20202 40125 53006 22200 00260
AAXX 15061 10004 NIL
AAXX 15061 10015 11465 72214 10057 20031 39956 49966 51011 69902 70282 875// 222// 02065 333 10063 20050 31005 55006 55300 20000 30000 79999 87616 91123 91218 90325 91219
AAXX 15061 10020 07765 52311 10060 20048 39911 49943 53018 60072 72387 333 10064 20028 3/001 55005 55300 20000 30000 69957 70071 85/56 91120 91215
AAXX 15061 10035 01470 82207 10044 20023 39911 49970 53013 69922 70262 885// 333 10046 20032 31002 55000 55300 20000 30000 41175 69927 70004 88613 91119
AAXX 15061 10055 01575 72310 10052 20024 39963 49973 53007 69902 72122 875// 333 10053 20042 31003 55000 55300 20000 30000 69907 70039 87621 91118 91212
AAXX 15061 10147 01675 72305 10051 20022 39974 49992 55000 69962 70262 875// 333 10053 20034 31002 55000 55300 20000 30000 41119 69907 70067 87634 91117 91211
AAXX 15061 10162 11675 72206 10045 20015 39920 40003 53004 60012 70165 875// 333 10047 20032 31002 55000 55300 20000 30000 70031 87639 91114
AAXX 15061 10184 01685 82005 10053 20014 39997 40005 56003 69942 72161 885// 333 10053 20040 31003 55000 55300 20000 30000 69907 70015 88634
AAXX 15061 10200 11480 72106 10048 20024 39981 49979 55002 69922 70282 875// 333 10052 20031 32002 55001 55300 20000 30000 70002 87616 91114
AAXX 15061 10224 01575 72005 10057 20019 39993 49999 55002 69912 72162 875// 333 10058 20040 32003 55000 55300 20000 30000 69907 70093 87630 91116
AAXX 15061 10270 16760 82005 10042 20017 39983 40038 57004 60022 222// 06047 333 10070 20035 3/001 55002 55300 70037 88/50
AAXX 15061 10338 01580 72306 10060 20004 39946 40018 51001 69902 70262 875// 333 10064 20042 31003 55004 55300 20000 30000 69907 70020 87631 91113 96460
AAXX 15061 10361 12786 41703 10027 21003 39938 40043 56001 69902 82502 333 10071 20023 31102 55011 55300 20000 30000 70001 82650 83076
AAXX 15061 10393 12785 31904 10029 20004 39935 40063 56001 60002 83500 333 10070 20024 31000 55013 55300 20000 30000 70011 83650 91114
AAXX 15061 10400 01582 71907 10059 20021 39971 40021 56004 69902 70261 878// 333 10061 20035 31002 55002 55300 20000 30000 69907 70052 82820 87640 96460
AAXX 15061 10438 07459 71806 10030 20016 39763 40045 55008 69912 76265 333 10048 20029 3/002 55000 55300 69917 70024 86/14 87/22 87/32
AAXX 15061 10469 12986 61805 10037 20003 39891 40057 57013 69912 80004 333 10065 20024 31000 55012 55300 70006 86073
AAXX 15061 10488 12982 41906 10040 21012 39794 40077 58010 69912 81034 333 10069 20027 31101 55015 55300 20000 30000 40882 70006 81366 84076
AAXX 15061 10506 01382 32407 10018 21000 39459 40045 55000 60012 72687 83800 333 10031 20006 35000 46997 55001 55300 20000 30000 69997 70076 82808 91113 96486 96471 96469
AAXX 15061 10548 01262 81905 10015 20006 39525 40072 56009 60022 75172 877// 333 10051 20013 31000 55000 55300 20000 30000 69927 70098 87704
AAXX 15061 10637 01484 82106 10053 20031 39932 40070 55002 60012 72162 875// 333 10063 20038 31002 55006 55300 69957 70073 85617 87628 96263
AAXX 15061 10685 01484 52007 10022 21009 39397 40075 56014 60022 77161 83531 333 10047 20017 31000 55002 55300 20000 30000 69907 70099 83610 91115
AAXX 15061 10738 01484 81904 10038 20014 39628 40101 55004 69962 76161 8352/ 333 10059 20034 31101 55016 55300 69967 70026 81710 83618 88463 96460
AAXX 15061 10763 12681 81605 10032 21007 39708 40094 56015 60002 8353/ 333 10071 20004 31101 55003 55300 20000 30000 70054 81640 83656 87359
AAXX 15061 10788 15983 01002 10001 21002 39688 40130 56007 60002 333 10075 21011 3/103 55000 55300 20000 30000 70014
AAXX 15061 10852 12788 81503 10022 20006 39545 40122 55002 69902 8352/ 333 10071 20007 31103 55008 55300 20000 30000 70025 83656 88458
AAXX 15061 10946 15987 71602 10022 21005 39286 40125 53004 60032 333 10057 21005 3/102 55001 55300 20000 30000 70066 87/59 87/61
BBXX DDZA2 15064 99381 70103 41/98 33110 10150 20076 40305 52005 70111 8//// 22273 04170 2//// 80110
BBXX DCPY2 15064 99131 10567 41598 61814 10260 20215 40155 54000 70211 85464 22224 00250 20403 302// 40302 80230
AAXX 15064 65338 32956 53604 10205 20197 39926 40114 80002 333 01900 20205 50394 55046 59008 85076
AAXX 15064 48698 01466 73004 10299 20233 30063 40081 60001 70522 83838 333 60007 82818 84277
AAXX 15064 85201 11256 82806 10048 20040 36290 57007 60041 76162 8572/ 333 56000 58000 81705 84612 88457
AAXX 15064 85223 31560 80000 10144 20125 37507 47135 58003 76022 84572 333 56000 59006 84625 86457 87070
AAXX 15064 85244 32865 62405 10211 20189 39670 40103 58008 86030 333 56080 59013 86358
AAXX 15061 01003 NIL
AAXX 15061 01007 11989 01108 11058 21112 30030 40040 55003 60002 70200 333 21078 44004 70000 91112
AAXX 15061 01028 NIL
AAXX 15061 01047 NIL
AAXX 15061 01049 NIL
AAXX 15061 01078 11385 71608 10028 21012 39884 49897 55001 6//// 70322 86260 333 20018 91114
AAXX 15061 01102 46/// /1811 10066 20017 39721 49740 53026 333 20063 91119
AAXX 15061 01160 NIL
AAXX 15061 01218 NIL
AAXX 15061 01238 41458 61612 11021 21047 38653 49759 50013 73683 84940 333 21025 49013 91118
AAXX 15061 01241 NIL
AAXX 15061 01281 NIL
AAXX 15061 01338 16/// /0902 10034 20022 39713 49778 51017 60122 333 20029 70244 91106
AAXX 15061 01359 NIL
AAXX 15061 01397 NIL
AAXX 15061 01400 NIL
AAXX 15061 01427 11465 72612 10078 20048 39829 49844 53021 60072 72582 87900 333 20055 70168 91118
AAXX 15061 01447 NIL
AAXX 15061 01448 46/// ///// 10063 20036 39835 49844 51012 333 20047
AAXX 15061 01001 NIL
AAXX 15061 01008 11585 11214 11080 21134 30003 40037 58002 60002 73630 81500 333 21080 70000 91119
AAXX 15061 01010 11888 61407 10053 21016 39752 49768 53002 60002 70321 84038 333 20019 70000 91110
AAXX 15061 01026 NIL
AAXX 15061 01055 NIL
AAXX 15061 01062 NIL
AAXX 15061 01098 11480 81713 10033 20002 39918 49936 56005 60002 70222 85738 333 20027 42999 70000 91118
AAXX 15061 01115 16/// /1712 10071 20001 39715 49735 52006 6//// 333 20056 91117
AAXX 15061 01152 11788 71406 10066 21008 39744 49759 53012 60002 70322 8487/ 333 20049 70000 91115
AAXX 15061 01205 NIL
AAXX 15061 01212 NIL
AAXX 15061 01271 16/// /1505 10062 21029 39736 49756 51014 60004 333 20058 42998 91115
AAXX 15061 01288 11670 62104 10008 21044 39054 49781 50002 60002 70222 84278 333 20002 47017 70000 91119
AAXX 15061 01300 NIL
AAXX 15061 01317 NIL
AAXX 15061 01367 NIL
AAXX 15061 01384 11460 81804 10022 20013 39584 49828 51005 69992 70222 886// 333 20012 91109
AAXX 15061 01403 11560 6//// 10064 20032 39746 49813 53026 60052 70282 86900 333 20040 70070
AAXX 15061 01415 NIL
AAXX 15061 01482 46/// /2015 10067 20040 39829 49836 57006 333 20056 91125
AAXX 15061 01492 NIL
AAXX 15064 78897 12570 70603 10236 20219 40110 58012 60001 87801 333 023// 10302 20214 59004 70000 85823 86640
AAXX 15064 81225 12970 30000 10236 20230 40096 60001 83052 333 56039 58005 83360
AAXX 15064 81200 NIL
AAXX 15064 81202 NIL
AAXX 15064 81209 NIL
AAXX 15064 81251 NIL
AAXX 15064 78897 12570 70603 10236 20219 40110 58012 60001 87801 333 023// 10302 20214 59004 70000 85823 86640
BBXX ELWD5 15063 99180 11146 41396 80428 10250 20204 40120 57010 70522 8/72/ 22214 29907 80220
BBXX C6OM8 15060 99016 70308 41396 81407 10264 20213 40099 56010 70200 887// 22243 06273 20402 314// 40402 5//// 80230
BBXX C6CU6 15063 99353 70341 41498 32220 10190 20156 40239 56030 70300 81145 22263 04200 20701 333// 41506 5//// 80170
BBXX PHCQ 15063 99320 70781 41/98 /0505 10190 20154 40248 51008 70011 8//// 22254 04257 20400 3//// 41003 5//// 80167
BBXX PBEO 15063 99488 70054 41597 52634 10102 20050 40066 51006 78282 858// 22212 02117 20506 331// 40808 80076
AAXX 15061 13586 31203 80000 10026 20021 39951 40250 54000 74522 886// 333 20000 88703
AAXX 15061 10007 NIL
AAXX 15061 10044 46/// /2216 10051 20014 39931 49962 51005 222// 00054 333 10052 20036 55000 55300 91122 91218
AAXX 15061 10046 12465 82208 10049 20015 39937 49976 53006 60002 875// 333 10051 20037 31002 55000 70032 87616 91013 91115
AAXX 15061 10091 01580 72110 10040 20020 39936 49987 58002 69902 70262 875// 222// 06062 333 10045 20034 31003 55001 55300 20000 30000 69907 70012 84622 87636 91115 91212
AAXX 15061 10113 01581 72107 10044 20023 39952 49971 53002 69912 70362 875// 222// 06052 333 10052 20040 31003 55009 55300 20000 30000 69907 70001 87622 91117 91211
AAXX 15061 10124 46/// ///// 10045 2//// 39931 49969 51009 222// 00059 333 10057 20037 55/// 553// 911// 912//
AAXX 15061 10131 11581 72106 10048 20018 39965 49980 51005 69902 70262 875// 222// 02040 333 10051 20035 31003 55000 55300 20000 30000 70005 87622 91116
AAXX 15061 10170 01581 82006 10049 20018 39980 49996 53003 69902 70261 885// 333 10049 20036 32003 55000 55300 20000 30000 69907 70026 86626 87650
AAXX 15061 10264 01683 32006 10037 20008 39904 40011 56003 69982 70161 83500 333 10044 20029 31002 55000 55300 20000 30000 69907 70039 83640
AAXX 15061 10291 12788 51805 10033 20006 39974 40042 53002 60052 84501 333 10067 20032 31002 55003 55300 20000 30000 70076 84650
AAXX 15061 10315 01582 71905 10054 20017 39943 40007 58005 69902 72122 875// 333 10062 20046 31003 55000 55300 20000 30000 69907 70054 81625 87640 91115
AAXX 15061 10379 12683 62006 10033 20004 39924 40046 56004 69912 86500 333 10061 20031 31000 55006 55300 20000 30000 41075 70078 86648
AAXX 15061 10382 11780 72107 10051 20001 30000 40045 58004 69972 70261 875// 333 10068 20039 31002 55002 55300 20000 30000 70060 87650
AAXX 15061 10384 16/// /1904 10047 20007 39990 40050 56002 69932 333 10071 20043 3/002 55001 55300 20000 30000 70061
AAXX 15061 10427 01/01 92109 11012 21012 39022 48331 57006 60022 77387 333 11004 21012 3/102 44014 55000 55300 20000 30000 60017 70101 91120 91213 96041
AAXX 15061 10430 01584 82104 10046 20005 39834 40026 56005 60012 72111 885// 333 10054 20030 31001 55001 55300 20000 30000 69907 70078 84620 87635
AAXX 15061 10439 11462 82005 10031 20018 39826 40048 55/// 60012 76162 875// 333 10049 20026 32000 70110 82712 87620
AAXX 15061 10453 11/90 92322 11031 21031 38676 48315 55002 60022 74943 333 11018 21034 3/103 49067 55000 55300 70123 91135 91228 96038
AAXX 15061 10496 12987 01703 10036 21002 39990 40076 53002 60002 333 10073 20036 31001 55004 55300 20000 30000 70014
AAXX 15061 10499 12684 61907 10035 21007 39798 40091 58001 69902 82506 333 10091 20029 31001 55000 55300 20000 30000 79999 82645 86280 91113
AAXX 15061 10505 01583 52110 10041 20013 39742 40024 55002 69952 70181 85500 333 10048 20029 31002 55000 55300 20000 30000 69907 70093 85633 91118 91212
AAXX 15061 10513 01684 61705 10040 20014 39922 40044 53001 69932 70161 86500 333 10058 20029 31001 55007 55300 20000 30000 69917 70024 81635 86646
AAXX 15061 10532 07488 82203 10040 20027 39805 40054 55006 60022 72365 333 10050 20028 3/001 55003 55300 20000 30000 60027 70069 83/17 88/22 88/37 91113
AAXX 15061 10544 NIL
AAXX 15061 10554 12582 72208 10037 20005 39663 40052 56014 60012 83878 333 10055 20022 31000 55009 55300 20000 30000 70035 81823 83656 87276 91115
AAXX 15061 10567 12986 52007 10028 21001 39689 40068 58012 69992 80006 333 10060 20016 31000 55021 55300 20000 30000 70027 85268
AAXX 15061 10578 11/01 92315 11028 21030 38677 48378 56005 60022 74942 333 11003 21032 3/103 48030 55000 55300 20000 30000 70078 96036
AAXX 15061 10609 01282 82306 10041 20024 39736 40067 53006 60052 72162 875// 333 10058 20032 31003 55008 55300 20000 30000 60027 70145 81706 87630 91117 91211
AAXX 15061 10616 01264 72406 10020 20007 39456 40060 55002 60062 78376 878// 333 10037 20008 32000 55002 55300 60027 70117 81806 83808 85626 91113 96469
AAXX 15061 10641 07588 82105 10049 20030 39921 40068 55004 60032 72365 333 10066 20034 3/001 55004 55300 69947 70113 82/20 87/40 88/50
AAXX 15061 10655 01684 82004 10035 20006 39750 40081 56010 60022 76061 8257/ 333 10066 20020 31000 55013 55300 20000 30000 69907 70052 82636 88465
AAXX 15061 10675 15688 81605 10032 21001 39795 40089 56012 60022 333 10085 20009 3/101 55001 55300 20000 30000 70037 87/38 88/57 88/60
AAXX 15061 10688 15687 71604 10029 21003 39578 40105 56015 69912 333 10064 20018 3/101 55001 55300 20000 30000 70031 81/45 85/50 87/57
AAXX 15061 10708 01382 72006 10037 20022 39700 40088 53009 60012 72162 875// 333 10052 20036 31003 55005 55300 20000 30000 69967 70036 82708 86614 91116
AAXX 15061 10729 07588 81908 10059 20031 39966 40088 55004 69932 70065 333 10072 20050 3/003 55006 55300 20000 30000 69907 70021 87/30 88/36 91113
AAXX 15061 10731 01275 62205 10050 20037 39950 40094 53008 60022 72186 8387/ 333 10085 20049 31004 55003 55300 20000 30000 60027 70064 82806 85462 91119 91213 96481
AAXX 15061 10742 07464 82204 10044 20022 39764 40097 53001 69942 76265 333 10087 20044 3/001 55007 55300 20000 30000 69947 70056 81/10 86/27 88/37 91113
AAXX 15061 10776 12688 81703 10016 20002 39670 40122 56008 69952 875// 333 10064 20010 31101 55001 55300 20000 30000 70043 84636 87650
AAXX 15061 10791 01/04 92209 11038 21040 38457 48406 58009 69952 74174 333 11006 21040 44053 55003 55300 69917 70041
AAXX 15061 10805 01581 82006 10063 20032 39917 40108 53004 69962 76062 8682/ 333 10071 20056 31004 55008 55300 20000 30000 69907 70026 82830 85645 87465 91115
AAXX 15061 10815 01/08 92506 10005 20005 39157 48394 55002 60072 78681 333 10019 20002 3/101 43004 55000 55300 20000 30000 60047 70151 91113
AAXX 15061 10836 01586 82104 10012 21012 39231 40110 55005 69902 72111 878// 333 10043 21001 31102 55010 55300 20000 30000 69907 70026 86827
AAXX 15061 10870 12984 71704 10037 20013 39585 40124 55005 60002 83036 333 10075 20001 31103 55002 55300 70006 83361 87275
AAXX 15061 10895 12982 71402 10021 21006 39552 40130 58012 69902 8701/ 333 10069 20021 31102 55013 55300 20000 30000 70004 87468
AAXX 15061 10908 01/01 92316 11024 21024 38394 48396 55007 60042 77374 333 11021 21037 3/104 49015 55000 55300 20000 30000 60047 70176 89/01 91127 90255 91218 90311 91222 96049 96038
AAXX 15061 10929 12783 72304 10059 20013 39585 40117 55002 69902 83572 222// 06064 333 10059 20035 31100 55012 55300 20000 30000 70072 83650 83465 87080
AAXX 15061 10948 02989 51505 10011 21005 39172 48415 50001 69962 83032 333 10047 21028 34104 41998 55003 55300 20000 30000 69917 70036 83361 83076
AAXX 15061 10961 12589 72312 11095 21142 36992 47951 56006 60042 81038 333 11074 21116 49085 55013 55300 20000 40791 70044 81333 87266 91130 91218 90355 91220 444 36136
AAXX 15061 10962 12587 72105 10013 21016 38971 48418 55000 69922 82538 333 10033 20006 34101 55012 55300 20000 30000 70009 82630 85358 87270
AAXX 15061 10980 12784 31707 11024 21033 38065 48416 58011 60022 83030 333 11012 21045 3/105 44028 55043 55300 20000 30000 70043 83350
AAXX 15064 78958 11468 30000 10255 20237 30093 40103 60001 70611 81202 333 10304 20235 58002
AAXX 15064 78958 11468 30000 10255 20237 30093 40103 60001 70611 81202 333 10304 20235 58002
AAXX 15064 67341 11565 7//// 10262 20232 40091 50008 60464 70152 8723/ 333 20242 50//0 55/// 94320 555 10000
AAXX 15061 11816 11958 79901 10028 20021 39984 40150 57005 69902 71062 8707/ 333 20025 31002 79999 87359
AAXX 15061 11826 11/02 99902 10038 20032 39944 40146 57006 60002 74744 333 20035 31001 70000 89/03
AAXX 15061 11903 11222 89901 10033 20029 39778 40163 51004 69922 71042 886// 333 20030 31003 70002 88704
AAXX 15061 11934 12981 72504 10042 20002 39316 42754 51004 60002 86072 333 20024 31000 79999 86359 83070
AAXX 15061 11968 11125 82403 10058 20051 39876 40158 52008 69922 71022 886// 333 20055 32005 70020 87702 88710
AAXX 15061 01025 16/// /0203 10028 21027 39779 49790 52007 60002 333 20018 43025 70000 91108
AAXX 15061 01052 16/// /1909 10033 21012 39727 49822 53012 60002 333 20021 70000 91119
AAXX 15061 01122 NIL
AAXX 15061 01132 NIL
AAXX 15061 01156 NIL
AAXX 15061 01203 46/// /1811 10053 20018 39691 49738 53010 333 20037 91118
AAXX 15061 01233 16/// /1506 10006 21037 60002 333 20006 70000 91112
AAXX 15061 01265 NIL
AAXX 15061 01273 NIL
AAXX 15061 01307 46/// /2410 10074 20033 39744 49771 51025 333 20062 91116
AAXX 15061 01321 16/// /1602 10022 20018 39512 49759 53012 60102 333 20010 70112 91105
AAXX 15061 01327 16/// /2703 10021 20003 60162 333 20003 70499 91110
AAXX 15061 01350 16/// /1106 11029 21036 38424 49774 53009 69922 333 21038 70029 91110
AAXX 15061 01361 NIL
AAXX 15061 01375 NIL
AAXX 15061 01378 NIL
AAXX 15061 01385 16/// /1202 10013 21001 39557 49823 52005 60002 333 20011 70000 91106
AAXX 15061 01412 16/// /2711 10076 20042 39804 49832 53029 60042 333 20054 70058 91119
AAXX 15061 01422 NIL
AAXX 15061 01440 NIL
AAXX 15061 01441 NIL
AAXX 15061 01467 NIL
AAXX 15061 01469 NIL
AAXX 15061 01477 NIL
AAXX 15061 01480 16/// /0102 10031 20005 60002 333 20017 70000 91105
AAXX 15061 01484 16/// /1703 10029 20011 39687 49839 52003 60102 333 20002 70240 91107
AAXX 15061 01490 16/// /2005 10003 20003 60002 333 21003 70013 91108
AAXX 15061 01495 16/// /2015 10064 20039 39827 49839 55002 60012 333 20051 70085 91120
AAXX 15061 01015 NIL
AAXX 15061 01023 NIL
AAXX 15061 01033 NIL
AAXX 15061 01059 11684 8//// 10031 21009 39844 49853 53007 60012 78082 8587/ 333 20009 70012
AAXX 15061 01089 16/// /1505 10012 21009 39833 49939 53004 6//// 333 20005 91113
AAXX 15061 01167 41687 71404 10052 21015 39753 49757 53004 70222 8247/ 333 20020 91108
AAXX 15061 01180 NIL
AAXX 15061 01210 NIL
AAXX 15061 01228 NIL
AAXX 15061 01240 16/// /1709 10072 20029 39715 49734 52013 6//// 333 20068 91121
AAXX 15061 01304 46/// /2010 10064 20036 39721 49751 52015 333 20051 91113
AAXX 15061 01311 NIL
AAXX 15061 01340 NIL
AAXX 15061 01355 NIL
AAXX 15061 01360 NIL
AAXX 15061 01392 16/// /1703 10021 20009 39612 49834 53004 60012 333 20012 70028 91110
AAXX 15061 01406 NIL
AAXX 15061 01411 16/// /2610 10078 20042 39794 49819 53024 6//// 333 20052 91118
AAXX 15061 01425 NIL
AAXX 15061 01433 46/// /2803 11016 21023 38581 49810 53018 333 21020 91114
AAXX 15061 01442 NIL
AAXX 15061 01450 NIL
AAXX 15061 01452 NIL
AAXX 15061 01473 16/// /2001 10028 20005 39616 49819 57004 6//// 333 21013 91105
AAXX 15061 01494 11470 81909 10055 20038 39772 49835 58000 60082 78082 8689/ 333 20032 70259 91114
AAXX 15061 02741 17002 72101 11005 21008 39890 49906 57005 60032 73465 87/// 90539 333 10053 21005 3/103
AAXX 15061 02755 37482 51405 10020 20007 39849 49943 57007 70086 83/// 90539 333 10026 20017 3//// 4/005
AAXX 15061 02805 37599 71606 10016 21010 39763 49893 54002 70085 87/// 90539 333 10016 20001 3/101
AAXX 15061 02807 47499 81607 10019 21007 39742 49921 700// 88/// 90600 333 10022 20007 3////
AAXX 15061 02836 17476 71605 10013 20005 39714 49934 52002 60012 72387 87/// 90539 333 10013 20004 3/000 4/025
AAXX 15061 02845 47369 81506 10010 20006 39690 49936 52004 72185 88/// 90539 333 10010 20002 3/000 4/027
AAXX 15061 02849 47481 81604 10013 21003 39695 49966 54001 74174 88/// 90539 333 10013 20000 3////
AAXX 15061 02866 37482 71503 10018 20005 39816 49964 54001 70085 87/// 90539 333 10023 20015 3/001 4/019
AAXX 15061 02897 47470 71503 10015 20002 39798 49979 781// 87/// 90600 333 10022 20015 3////
AAXX 15061 02913 47482 71405 10031 20015 39867 49918 700// 85/// 333 10032 20028 3////
AAXX 15061 02924 47259 81102 10018 20017 39739 49934 57023 76186 88/// 90539 333 10022 20016 3/001
AAXX 15061 02926 17364 81304 10028 20022 39892 49904 56022 60032 761// 88/// 90600 333 10036 20019 3//// 4/003
AAXX 15061 02935 37260 71204 10018 20014 39778 49950 57028 781// 87/// 90539 333 10026 20015 3/000 4/014
AAXX 15061 02939 17257 71404 10013 20013 39829 40023 57017 69932 72286 87/// 90539 333 10018 20007 3/000 4/015
AAXX 15061 02944 47265 81204 10018 20015 39771 49917 700// 88/// 90600 333 10029 20016 3////
AAXX 15061 02947 47260 71205 10020 20016 49964 57037 76106 87/// 90551 333 10029 20015
AAXX 15061 02963 11030 81404 10020 20020 49910 57032 60034 75165 886// 333 1//// 2//// 3/000 43002
AAXX 15061 02974 11265 81606 10037 20027 39864 49929 57031 60062 76176 885// 333 10050 20032 32003
AAXX 15061 02976 46/// /1810 10043 20041 39933 49949 57041 90539 333 10052 20037 3////
AAXX 15061 02981 17399 32709 10044 20030 39898 49908 54001 60052 70086 83/// 90539 333 10066 20044 3////
AAXX 15061 02982 46/// /2012 10059 20050 39899 49907 57018 90539 333 10066 20044 3////
AAXX 15061 02917 NIL
AAXX 15061 01037 NIL
AAXX 15061 01046 NIL
AAXX 15061 01058 16/// /1608 11001 21016 39399 49854 50017 60012 333 21011 4/016 70021 91118
AAXX 15061 01065 NIL
AAXX 15061 01092 NIL
AAXX 15061 01107 16/// /1510 10070 20070 39733 49738 52008 60002 333 20058 70018 91115
AAXX 15061 01114 NIL
AAXX 15061 01144 46/// /1208 10065 21005 333 20048 91114
AAXX 15061 01199 NIL
AAXX 15061 01245 NIL
AAXX 15061 01259 16/// /1607 10064 21001 39718 49740 50017 60002 333 20061 70000 91121
AAXX 15061 01262 NIL
AAXX 15061 01278 31885 71301 10049 21022 39660 49758 53015 70222 8187/ 333 20049 41998 70000
AAXX 15061 01293 11765 72901 10031 21026 39565 49767 51012 60002 70222 81170 333 20031 70000 91114
AAXX 15061 01329 NIL
AAXX 15061 01337 NIL
AAXX 15061 01344 NIL
AAXX 15061 01364 NIL
AAXX 15061 01373 16/// /0000 10013 21005 39608 49807 53003 60002 333 21010 70013 91105
AAXX 15061 01374 11/12 90901 11006 21010 69962 77175 333 21008 43037 70017
AAXX 15061 01380 16/// /1804 11028 21037 6//// 333 21028 4/027 91113
AAXX 15061 01389 NIL
AAXX 15061 01393 NIL
AAXX 15061 01424 11560 8//// 10030 20014 39818 49822 53025 60162 76262 887// 333 20030 70463
AAXX 15061 01431 16/// /1801 10002 21004 39179 49833 53015 60152 333 21001 70282 91107
AAXX 15061 01436 NIL
AAXX 15061 01465 11345 82310 10052 20035 39824 49842 53006 60082 76588 8672/ 333 20046 70153 91123
AAXX 15061 01471 NIL
AAXX 15061 01483 NIL
AAXX 15061 01121 46/// /1508 10071 21008 39734 49746 53014 333 20060 91116
AAXX 15061 01135 NIL
AAXX 15061 01143 16/// /1504 10058 21025 60002 333 20038 70000 91111
AAXX 15061 01150 NIL
AAXX 15061 01192 NIL
AAXX 15061 01225 46/// /1405 10056 20017 39731 49735 51020 333 20054 91124
AAXX 15061 01230 NIL
AAXX 15061 01232 NIL
AAXX 15061 01234 16/// /2202 10019 21020 60002 333 20017 70000 91106
AAXX 15061 01253 NIL
AAXX 15061 01254 NIL
AAXX 15061 01257 NIL
AAXX 15061 01277 NIL
AAXX 15061 01291 NIL
AAXX 15061 01332 16/// /0000 10004 21007 60302 333 20002 70512 91102
AAXX 15061 01366 46/// /1606 11048 21057 38198 49779 53010 333 21049 91118
AAXX 15061 01370 NIL
AAXX 15061 01376 16/// /1004 10029 20000 60002 333 20024 70000 91108
AAXX 15061 01383 46/// /1405 10014 20008 39507 49814 50006 333 20007 91110
AAXX 15061 01386 NIL
AAXX 15061 01416 16/// ///// 10056 20051 60132 333 20030 70191
AAXX 15061 01419 NIL
AAXX 15061 01430 16/// ///// 10052 20033 60132 333 20039 70275
AAXX 15061 01434 16/// /3501 11012 21021 38863 49807 52014 60042 333 21021 70122 91103
AAXX 15061 01455 NIL
AAXX 15061 01468 16/// /1202 10019 20009 60162 333 20004 70228 91107
AAXX 15061 01470 NIL
AAXX 15061 01476 NIL
AAXX 15061 01481 NIL
AAXX 15061 01488 NIL
AAXX 15061 02741 17002 72101 11005 21008 39890 49906 57005 60032 73465 87/// 90539 333 10053 21005 3/103
AAXX 15061 02755 37482 51405 10020 20007 39849 49943 57007 70086 83/// 90539 333 10026 20017 3//// 4/005
AAXX 15061 02805 37599 71606 10016 21010 39763 49893 54002 70085 87/// 90539 333 10016 20001 3/101
AAXX 15061 02807 47499 81607 10019 21007 39742 49921 700// 88/// 90600 333 10022 20007 3////
AAXX 15061 02836 17476 71605 10013 20005 39714 49934 52002 60012 72387 87/// 90539 333 10013 20004 3/000 4/025
AAXX 15061 02845 47369 81506 10010 20006 39690 49936 52004 72185 88/// 90539 333 10010 20002 3/000 4/027
AAXX 15061 02849 47481 81604 10013 21003 39695 49966 54001 74174 88/// 90539 333 10013 20000 3////
AAXX 15061 02866 37482 71503 10018 20005 39816 49964 54001 70085 87/// 90539 333 10023 20015 3/001 4/019
AAXX 15061 02897 47470 71503 10015 20002 39798 49979 781// 87/// 90600 333 10022 20015 3////
AAXX 15061 02913 47482 71405 10031 20015 39867 49918 700// 85/// 333 10032 20028 3////
AAXX 15061 02924 47259 81102 10018 20017 39739 49934 57023 76186 88/// 90539 333 10022 20016 3/001
AAXX 15061 02926 17364 81304 10028 20022 39892 49904 56022 60032 761// 88/// 90600 333 10036 20019 3//// 4/003
AAXX 15061 02935 37260 71204 10018 20014 39778 49950 57028 781// 87/// 90539 333 10026 20015 3/000 4/014
AAXX 15061 02939 17257 71404 10013 20013 39829 40023 57017 69932 72286 87/// 90539 333 10018 20007 3/000 4/015
AAXX 15061 02944 47265 81204 10018 20015 39771 49917 700// 88/// 90600 333 10029 20016 3////
AAXX 15061 02947 47260 71205 10020 20016 49964 57037 76106 87/// 90551 333 10029 20015
AAXX 15061 02963 11030 81404 10020 20020 49910 57032 60034 75165 886// 333 1//// 2//// 3/000 43002
AAXX 15061 02974 11265 81606 10037 20027 39864 49929 57031 60062 76176 885// 333 10050 20032 32003
AAXX 15061 02976 46/// /1810 10043 20041 39933 49949 57041 90539 333 10052 20037 3////
AAXX 15061 02981 17399 32709 10044 20030 39898 49908 54001 60052 70086 83/// 90539 333 10066 20044 3////
AAXX 15061 02982 46/// /2012 10059 20050 39899 49907 57018 90539 333 10066 20044 3////
AAXX 15061 02917 NIL
AAXX 15064 97180 01456 73201 10270 20245 30052 40070 56018 60011 76066 83271 333 56000 83819 85460
AAXX 15064 61901 169// /1315 10155 20100 39654 40164 55001 69922 90550 333 20144 3/013 70030 8//99 555 7/090
AAXX 15064 61902 32484 41311 10230 20185 40123 84800 333 20228 59003 82818 84648
AAXX 15064 88878 46/// /0406 10096 20088 40184 52004
AAXX 15064 88889 11/01 90506 10084 20084 30123 40209 50003 60001 74741 90550 333 70000
AAXX 15064 03005 11475 22910 10042 20022 39703 49802 53031 60042 72581 82900 90550 333 20040 31002 55000 55300 20000 70058 81911
AAXX 15064 03017 15966 /2810 10031 20013 39799 49831 52019 60042 90550 333 20031 3/001 55000 55300 20000 70116 81/64 86/68
AAXX 15064 03023 17667 /3405 10053 20017 39873 49878 52022 69962 723// 90550 333 20016 3/101 70010 82/34
AAXX 15064 03026 15774 /2807 10024 20007 39847 49866 52023 60052 90550 333 20019 3/100 55000 55300 20000 70122 81/50
AAXX 15064 03063 17670 /2104 10015 21002 39597 49873 52018 69942 782// 90550 333 20010 3/101 4/003 55008 55300 20000 70006 87/43
AAXX 15064 03066 15685 /2511 10041 20007 39856 49863 52019 69902 90550 333 20029 3/001 55042 55300 20000 70002 86/33 86/43
AAXX 15064 03075 15971 /2508 10023 20010 39796 49840 53016 69982 90550 333 20023 3/001 70034 87/65
AAXX 15064 03091 15681 /2304 10024 21013 39789 49868 53021 60002 90550 333 20008 3/103 55003 55300 20000 70000 82/35
AAXX 15064 03100 15677 /3410 10056 20034 39870 49886 51032 60042 90550 333 20033 3/001 55003 55300 20000 70050 85/44
AAXX 15064 03111 16/77 /3019 10066 20042 39867 49879 53005 69982 90550 333 20020 3/000 70084 90710 91130
AAXX 15064 03134 17763 /1003 10011 20006 39811 49883 53011 69902 723// 90550 333 21005 3/103 55005 55300 20000 70052 88/50
AAXX 15064 03136 15672 /1709 10029 20015 39852 49885 52011 69902 90550 333 20017 3/000 55000 55300 20000 70010 86/32
AAXX 15064 03162 15368 /3101 11012 21018 39618 49907 53017 60002 90550 333 21022 3/105 55000 55300 20001 70012 87/09
AAXX 15064 03166 15981 /2308 10032 20007 39814 49883 53009 60002 90550 333 20012 3/103 55000 55300 20000 70006 86/63
AAXX 15064 03171 12980 72903 10014 20000 39868 49881 53014 60002 86071 90550 333 21004 34105 55003 55300 20000 70000 82361 85364
AAXX 15064 03204 11580 52705 10036 20014 39894 49914 53021 60092 70381 85800 90550 333 20019 31103 55000 55300 20000 70108 81820 84635
AAXX 15064 03240 15983 /2207 10008 20000 39863 49891 53008 69902 90550 333 21006 3/104 55000 55300 20000 79999 87/63
AAXX 15064 03257 11230 82005 10002 21002 39864 49904 53006 60002 71011 885// 90550 333 21001 31102 55000 55300 20000 70014 84705 88650
AAXX 15064 03292 169// /2305 10004 20001 39880 49899 58007 60002 90550 333 21003 3/101 70034 87/62
AAXX 15064 03302 12575 42914 10055 20033 39916 49928 51049 60042 84800 90550 333 20033 30003 55002 55300 20000 70040 83820
AAXX 15064 03354 17338 /0603 10016 20015 39747 49890 56012 60042 723// 90550 333 20011 3/101 55043 55300 20000 70040 87/06
AAXX 15064 03377 11459 81409 10014 20009 39808 49892 56019 69982 76261 885// 90550 333 20001 31101 55045 55300 20000 70008 86616 88630
AAXX 15064 03414 17580 /2709 10030 20017 39818 49906 53035 60012 761// 90550 333 20021 3/101 55043 55300 20000 70010 81/25 87/39
AAXX 15064 03462 17458 /1609 10028 20020 39800 49889 56024 69902 751// 90550 333 20000 3/102 55015 55300 20000 79999 87/15
AAXX 15064 03482 15771 /1611 10030 20012 39881 49906 56027 60002 90550 333 20010 3/101 70000 85/50 84/74
AAXX 15064 03502 15565 /2825 10062 20023 39792 49953 51056 60092 90550 333 20035 3/001 55005 55300 20000 70102 81/25 90710 91137
AAXX 15064 03535 17482 /2713 10044 20033 39778 49894 53009 60022 723// 90550 333 20010 3/000 55023 55300 20000 70018 87/12 83/61
AAXX 15064 03590 12983 71709 10040 20018 39809 49918 57029 60002 80002 90550 333 20017 31100 55027 55300 20000 70000 87070
AAXX 15064 03649 11575 72612 10056 20027 39821 49920 53014 60032 72162 875// 90550 333 20021 31101 55002 55300 2//// 70108 82620 87628 96261 96463 96462 96461 96460
AAXX 15064 03716 15580 /2923 10066 20018 39898 49958 51057 60042 90550 333 20047 3/003 55002 55300 20000 70114 84/24 90710 91139 91034
AAXX 15064 03740 16579 /2519 10046 20017 39764 49940 53032 60022 90550 333 20019 3/100 55005 55300 2//// 70086 83/29 90710 91135 91035
AAXX 15064 03746 17577 /2824 10052 20015 39795 49948 53016 69982 723// 90550 333 20015 3/100 70022 82/23 86/33 90710 91134 91034
AAXX 15064 03772 17581 /2321 10060 20031 39894 49924 56012 69942 723// 90550 333 20032 3/101 55026 55300 20000 70006 81/29 86/50 90710 91131
AAXX 15064 03796 46/// /2419 10072 20053 39807 49948 56020 90550 333 20041 90710 91128
AAXX 15064 03803 NIL
AAXX 15064 03808 11575 72921 10073 20030 39911 40016 52029 60032 72582 8387/ 90550 333 20044 31003 55007 55300 20000 70054 82825 86464 90710 91139 91032
AAXX 15064 03809 11462 73021 10063 20042 39927 40019 52028 69902 78098 879// 90550 333 20052 31004 79999 81914 83816 85628 90710 91142 91036
AAXX 15064 03827 NIL
AAXX 15064 03840 17580 /2815 10038 20019 39672 49977 51039 60022 781// 90550 333 20019 3/100 70032 82/22 84/29 90710 91127 91027
AAXX 15064 03853 11465 62616 10059 20025 39943 49967 52041 60012 70182 85930 90550 333 20039 3/001 55013 55300 20000 70046 81714 82920 83824
AAXX 15064 03874 46/// /2728 10073 20031 39942 49953 53011 90550 333 20065 90710 91147
AAXX 15064 03882 17664 /2511 10080 20029 39883 49946 57014 60092 723// 90550 333 20036 3/000 55010 55300 20000 70100 82/45 83/73 90710 91125 91022
AAXX 15064 03894 NIL
AAXX 15064 03917 17667 /1906 10009 21001 39834 49911 52018 69922 721// 90550 333 21010 3/104 55001 55300 20000 70042 81/30 84/73
AAXX 15064 07005 01558 82221 10056 20024 39919 40009 55001 69922 78086 872// 333 10057 20039 32003 55011 69907 70084 87820 91039 90710 91139 555 69905
AAXX 15064 07015 01580 72117 10049 20021 39946 40003 56009 60002 701// 8453/ 333 10052 20039 32003 55000 60007 70141 84631 85362 90710 91129 93100 555 60005
AAXX 15064 07027 04559 82216 10054 20036 39956 40038 53010 69982 761// 333 10061 20046 31003 55030 69947 70064 91029 90710 91140 555 69945
AAXX 15064 07037 02760 62318 10053 20021 39855 40040 53006 69902 82570 333 10057 20038 32002 55009 60007 70014 82650 85357 86359 90710 91127 93100 555 60005
AAXX 15064 07070 04570 /2214 10056 20021 39943 40054 57001 69902 700// 333 10068 20053 30004 55016 60007 70012 90710 91126 555 60005
AAXX 15064 07110 01465 72818 10076 20023 39963 40078 53022 60072 70286 879// 333 10079 20047 32003 55019 60007 70089 82916 83828 87640 91032 90710 91134 93100 555 60005
AAXX 15064 07117 01458 72622 1//// 2//// 39982 4//// 53021 6///2 72598 879// 333 1//// 2//// 6///7 91038 90710 91155 92456 555 6///5
AAXX 15064 07130 04886 62310 10050 20027 30034 40087 53012 69942 700// 333 10065 20046 31003 55034 69927 70008 90710 91119 555 60005
AAXX 15064 07139 02475 72314 10049 20017 39892 40068 53003 69942 82102 333 10052 20035 31002 55040 60007 70016 82816 87075 90710 91126 93100 555 60005
AAXX 15064 07149 02480 72215 10051 20029 39953 40063 58001 60002 83501 333 10065 20048 30004 55028 60007 79999 83616 86075 91026 90710 91126 555 60005
AAXX 15064 07168 02575 62217 10056 20026 39946 40090 53003 69902 82501 333 10069 20050 31004 55021 60007 79999 82623 85075 90710 91127 93100 555 60005
AAXX 15064 07181 04586 /2216 10040 20022 39679 40094 51004 69922 700// 333 10050 20033 3/002 55/// 69907 70018 90710 91122 555 69905
AAXX 15064 07190 04586 72110 10056 20022 39918 40102 55000 60012 700// 333 10070 20045 31003 55014 60017 70020 90710 91124 555 60005
AAXX 15064 07207 01460 82929 10095 20053 60062 70282 88700 222// 327// 333 10108 20069 60027 91045 90710 91156 92467 555 69965
AAXX 15064 07222 01560 7//// 10069 20046 30085 40117 53014 60132 729// 8587/ 333 10080 20047 32003 55032 60037 70149 85830 83361 87366 555 60025
AAXX 15064 07240 01675 52214 10054 20029 39973 40110 53010 69962 701// 83830 333 10071 20053 32004 55037 69907 70042 81833 83656 90710 91128 93100 555 69905
AAXX 15064 07255 01250 82414 10063 20045 39925 40127 53011 60032 78086 878// 333 10072 20052 32004 55038 60017 70032 83803 85820 87640 90710 91126 93100 555 60015
AAXX 15064 07280 04586 71912 10060 20032 39850 40126 53007 60032 700// 333 10065 20036 31000 55018 69927 70062 90710 91117 555 60005
AAXX 15064 07299 01475 73015 10049 20029 39790 40122 53010 69902 78086 878// 333 10086 20025 32001 55022 69907 70065 82815 87640 90710 91128 93100 555 69905
AAXX 15064 07314 02565 33331 10115 20066 30123 40151 53019 60042 83500 333 10120 20077 31/// 55/// 60007 70058 83620 90710 91145 555 60005
AAXX 15064 07335 01680 72609 10058 20036 39993 40140 53013 60092 72162 8257/ 333 10071 20049 32004 55032 60017 70135 82641 87360 90710 91121 555 69985
AAXX 15064 07434 01484 82606 10052 20040 39678 40164 53014 60042 72586 875// 333 10061 20045 32003 55042 69907 70076 87610 90710 91129 93100 555 69905
AAXX 15064 07460 01680 52519 10069 20010 39766 40159 51013 60012 701// 81232 333 10083 20044 31001 55057 69987 70030 81840 84363 85071 90710 91130 93100 555 60005
AAXX 15064 07471 02562 52612 10037 20004 39194 48784 53010 69902 85500 333 10043 20000 32103 55005 69907 70016 85621 90710 91125 93100 555 60005
AAXX 15064 07481 01558 72314 10070 20038 39880 40171 53016 60022 78086 872// 333 10103 20069 31005 55/// 60027 70034 87830 90710 91123 93100 555 69965
AAXX 15064 07510 01557 72611 10095 20062 30123 40189 53020 60102 78086 8497/ 333 10103 20082 32007 55022 69967 70111 81926 84650 87358 90710 91129 93100 555 69945
AAXX 15064 07535 01558 82309 10063 20059 39876 40194 53011 60082 72586 8551/ 333 10082 20061 32005 55000 60027 70088 82820 84623 88458 90710 91118 93100 555 60025
AAXX 15064 07558 01358 82511 10035 20031 39360 40214 53013 60012 78086 888// 333 10045 20030 31002 55000 60017 70018 85806 87616 90710 91123 93100 555 69965
AAXX 15064 07577 02456 71702 10050 20025 30099 40191 53002 69902 84801 333 10098 20025 30001 55005 69907 79999 81816 84640 87075 90710 91107 93100 555 60005
AAXX 15064 07591 04/// /2308 10034 20008 39162 4//// 53003 69922 763// 333 10067 20026 3/000 55000 69927 70024 90710 91116 555 69925
AAXX 15064 07607 04463 82612 10091 20075 30144 40216 53013 60102 761// 333 10091 20060 3/004 55004 60057 70158 90710 91120 555 60015
AAXX 15064 07621 01780 72208 10043 20026 39789 40234 53018 60002 703// 8228/ 333 10063 20022 31100 55002 60007 70036 83856 85357 86359 90710 91112 93100 555 60005
AAXX 15064 07627 02762 70000 10026 20011 39738 40243 53021 69902 875// 333 10069 20020 32101 55011 60007 70024 87650 90710 91107 555 60005
AAXX 15064 07630 04681 82710 10079 20052 30039 40223 51019 69942 760// 333 10088 20043 32001 55002 69947 70006 90710 91119 555 69925
AAXX 15064 07643 01982 62608 10064 20042 30196 40206 51013 60002 702// 86031 333 10120 20040 30002 55054 60007 70000 86360 84073 90710 91113 555 60005
AAXX 15064 07650 02880 71406 10058 20033 30165 40205 53012 60002 8353/ 333 10115 20039 30002 55052 60007 70000 83657 87361 90710 91108 93100 555 60005
AAXX 15064 07661 02967 62814 10095 20049 30033 40196 53010 60002 86070 333 10127 20095 55/// 60007 70000 84358 90710 91118 555 60005
AAXX 15064 07690 02982 72517 10120 20016 30127 40161 53007 60002 80002 333 10146 20098 30009 55057 60007 70000 87073 90710 91123 93100 555 60005
AAXX 15064 07747 02975 53108 10095 20032 30165 40219 53020 69902 85030 333 10118 20048 30002 55023 60007 79999 85360 90710 91115 555 60005
AAXX 15064 07761 02570 70404 10105 20089 30183 40194 50005 60002 878// 333 10162 20097 31009 55000 60007 70016 85830 87656 90710 91107 93100 555 60005
AAXX 15064 07790 02582 32103 10089 20047 30153 40168 53005 60002 81531 333 10133 20083 30005 55/// 60007 70000 81630 83357 90710 91107 93100 555 60005
BBXX FVNM 15064 99065 70949 46/// /0115 10254 20229 40120 58006 22200 00267
BBXX BATFR11 15064 99347 10193 46/// /2705 10169 20105 40261 53008 22223 00192
AAXX 15061 14648 11660 82001 10115 20100 30062 40182 57009 60032 76166 8452/ 333 20102 32010 55029 70026 84640 88458
AAXX 15061 14652 11/00 91819 11001 21003 37902 48462 57017 60002 74544 333 21016 3//// 44012 55016 70000 89///
AAXX 15061 14542 NIL
BBXX 46082 15061 99597 71434 46/// ///// 10049 20049 40093 53004 90550 22200 00059 11107 70036
BBXX 46072 15061 99517 71722 46/// /2921 10019 20014 49657 51010 90550 22200 00051 11114 21114 70071 333 91226 555 11228 22244 30543 42926 60549 294207 293195 295189 293202 294187 293191 83023 90548
BBXX 46035 15061 99571 71778 46/// /0515 1//// 49839 58005 90550 22200 11007 20606 300// 41004 70037 333 91218 555 11152 22162 30534 40620 60549 051152 052151 051152 051152 051139 052142 80516 90524
BBXX 46077 15061 99579 71543 46/// /0615 10039 20018 49931 58042 90550 22200 00056 10403 20403 3//// 41001 70017 333 91218 555 11160 22170 30544 40618 60549 062148 064145 064146 060138 061145 062146 80616 90452
BBXX 44007 15061 99435 70701 46/// /1807 10053 21006 40259 58025 90550 22200 00083 11002 20501 3//// 41002 70009 333 91208 555 11069 22072 30548 41808 60549 175065 178066 174062 176066 183056 182062
BBXX 42039 15061 99288 70860 46/// /1108 10219 40225 58011 90550 22200 00229 10502 20502 70011 333 91209 555 11080 22084 30543 41109 60549 110075 111074 114070 113069 115070 113065 81108 90529
BBXX 41040 15061 99145 70530 46/// /1405 10257 20239 40103 57013 90550 22200 00278 11005 20401 3//// 41005 70024 333 91206 555 11050 22052 30505 41607 60549 138048 144047 143053 145055 157053 153059 81506 90451
BBXX 46072 15061 99517 71722 46/// /2921 10019 20014 49657 51010 90550 22200 00051 11114 21114 70071 333 91226 555 11228 22244 30543 42926 60549 294207 293195 295189 293202 294187 293191 83023 90548
AAXX 15061 89061 379// 00109 10032 20005 39999 40006 57005 76177 333 91012 91114
BBXX VRZT9 15063 99224 70861 41698 61419 10240 2021/ 40200 54000 7//22 86272 22233 0//// 20805 3//// 40805 5//// 6//// 80220 ICE /////
AAXX 15064 89009 41/08 93504 11305 36792 51009 77774 333 89/04
AAXX 15061 11812 36/// /3102 10048 21009 39448 42757 57004 333 20010 3////
AAXX 15061 11813 11765 79901 10046 20020 39798 40150 57005 69902 70262 85570 333 20023 31002 79999 85650
AAXX 15061 11816 11958 79901 10028 20021 39984 40150 57005 69902 71062 8707/ 333 20025 31002 79999 87359
AAXX 15061 11819 16/// /9901 10031 20026 39933 40152 57006 69922 333 20030 3/002
AAXX 15061 11826 11/02 99902 10038 20032 39944 40146 57006 60002 74744 333 20035 31001 70000 89/03
AAXX 15061 11841 11531 70000 10015 20008 39769 40152 57002 60002 71166 87500 333 20015 31101 79999 87630
AAXX 15061 11855 11250 79901 10037 20033 39989 40157 52001 69902 71062 875// 333 20032 31003 79999 81704 87656
AAXX 15061 11856 36/// /1105 10045 20040 39831 40152 57005 333 20039 3/003
AAXX 15061 11858 12575 89902 10055 20037 30005 40158 52006 60002 885// 333 20046 31101 70000 88630
AAXX 15061 11867 11824 73502 10027 20015 39831 40152 58004 69902 71066 8707/ 333 20027 31002 79999 85358 87466
AAXX 15061 11880 11512 89901 10042 20040 39980 40153 58003 60002 71022 885// 333 20040 31003 70000 88620
AAXX 15061 11900 16/// /0501 10045 20038 39824 40162 52002 69902 333 20042 3//// 79999
AAXX 15061 11903 11222 89901 10033 20029 39778 40163 51004 69922 71042 886// 333 20030 31003 70002 88704
AAXX 15061 11916 11/89 89904 11055 21112 37915 48430 51011 60002 70244 8157/ 333 21057 3//// 44024 70000 816// 88326 91010 91122 93598 444 16//9 47081
AAXX 15061 11918 12673 82504 10033 20017 39318 42753 58001 60002 8257/ 333 20030 3/002 41998 70000 82646 86361
AAXX 15061 11927 11120 89901 10044 20040 39901 40166 52010 69962 71022 886// 333 20043 32004 70008 88702
AAXX 15061 11930 12587 73012 11074 21168 37317 47988 52001 60002 8707/ 333 21080 3//// 44040 70000 87330 444 27072
AAXX 15061 11933 11884 69901 11006 21022 38620 48437 54000 69912 70277 86070 333 21006 3/102 44029 70008 86357
AAXX 15061 11934 12981 72504 10042 20002 39316 42754 51004 60002 86072 333 20024 31000 79999 86359 83070
AAXX 15061 11938 11/02 92602 10006 20003 39084 42759 53007 69992 74544 333 20006 3/000 42006 70024 89/01
AAXX 15061 11952 16/// /1402 10023 20013 39311 42757 52004 60002 333 20023 3/002 70002
AAXX 15061 11958 36/// /2204 10004 20000 38719 48453 52010 333 21022 3////
AAXX 15061 11968 11125 82403 10058 20051 39876 40158 52008 69922 71022 886// 333 20055 32005 70020 87702 88710
AAXX 15061 11976 11217 89901 10066 20057 39884 40148 54000 69922 71052 886// 333 20058 31006 70003 84705 88626
AAXX 15061 11978 11113 83101 10060 20056 30023 40154 52005 60012 71062 886// 333 20057 31004 70012 88702
AAXX 15061 11993 11462 71401 10065 20062 39931 40148 57007 60012 70262 87500 333 20064 31005 70034 83711 87632
AAXX 15061 14528 NIL
AAXX 15061 14537 NIL
AAXX 15061 14544 11662 82301 10082 20056 39509 40173 57020 60013 76062 885// 333 10134 20080 31003 55020 70013 88643
AAXX 15061 14557 12965 70101 10071 20043 39808 40176 56004 60002 87070 333 10161 20046 31003 55061 70000 85360 87461
AAXX 15061 14640 11259 80702 10088 20084 39326 48492 57012 60033 72162 883// 333 10104 20084 31007 55033 70031 88903
BBXX CGDS 15064 99447 70755 46/// /2019 10056 20034 4//// 5//// 7//// 8//// 22200 0//// 2////
BBXX 51004 15061 99175 71524 46/// /0708 10237 20198 90550 555 11089 22095
BBXX 51002 15061 99171 71578 46/// /0809 10248 40161 51017 90550 22200 00252 333 91210 555 11091 22096 30545 40710 60549 075085 074082 079084 085079 087082 084081
BBXX 51100 15061 99236 71539 46/// /1208 10228 40210 51011 90550 22200 00234 10904 20703 312// 40903 70022 333 91210 555 11084 22089 30547 41110 60549 113079 110078 118074 118076 116078 112075
BBXX 46026 15061 99378 71228 46/// /2304 10109 40243 55012 90550 22200 00122 11403 328// 41403 70014 333 91206 555 11046 22048 30450 43107 60549 241044 293042 293042 289043 298039 294051
BBXX 46041 15061 99474 71247 46/// /1212 10060 40161 51005 90550 22200 00079 11305 20604 3//// 41303 70023 333 91214 555 11125 22132 30534 41214 60549 116116 119112 121108 122111 122113 122109
AAXX 15064 89009 41/08 93504 11305 36792 51009 77774 333 89/04
AAXX 15061 89061 379// 00109 10032 20005 39999 40006 57005 76177 333 91012 91114
BBXX VCBW 15064 99502 70607 46/// /2911 11048 21078 40222 56012 7//// 8//// 22200 0//// 2////
BBXX CG2960 15064 99429 70824 46/// /2113 10111 20105 40081 56036 7//// 8//// 22200 0//// 2////
BBXX CGDG 15064 99447 70636 46/// /0504 11015 21030 40280 56012 7//// 8//// 22200 0//// 2////
BBXX CGSB 15064 99468 70712 46/// /0305 10007 21009 40225 58023 7//// 8//// 22200 0//// 2////
BBXX VCRG 15064 99474 70619 46/// /2607 11003 21063 40270 56014 7//// 8//// 22200 0//// 2////
BBXX VRYO3 15064 99505 10011 46/// /2318 10099 20107 49962 55012 7//// 8//// 22224 00127 2////
BBXX VAAZ 15064 99549 70533 46/// /2520 11053 21077 40115 55004 7//// 8//// 22271 0//// 2////
BBXX CG2350 15064 99433 70798 46/// /2019 10108 20095 40098 58045 7//// 8//// 22200 0//// 2////
BBXX CGDR 15064 99498 71276 46/// /1322 10070 20069 40154 51023 7//// 8//// 22232 00126 2////
BBXX VAAP 15064 99446 70636 46/// /0205 11009 21066 40271 56010 7//// 8//// 22200 0//// 2////
BBXX CZ9742 15064 99506 70969 46/// /2303 11052 21053 40064 55001 7//// 8//// 22200 0//// 2////
BBXX CGTF 15064 99476 70527 46/// /2701 11029 21085 40242 51012 7//// 8//// 22200 0//// 2////
BBXX CGBY 15064 99487 71235 46/// /2803 10033 20022 40195 52010 7//// 8//// 22200 0//// 2////
BBXX VOPP 15064 99456 70735 46/// /2704 10026 20022 4//// 5//// 7//// 8//// 22200 0//// 2////
BBXX VOKJ 15064 99455 70735 46/// /1506 10030 20011 40165 58050 7//// 8//// 22200 0//// 2////
BBXX C6SI6 15064 99318 11331 46/// /3114 10156 20057 40171 55007 7//// 8//// 22253 0//// 2////
BBXX CGJV 15064 99447 70636 46/// /0204 11015 21060 40281 56010 7//// 8//// 22200 0//// 2////
BBXX CGDT 15064 99490 70669 46/// /1705 11023 21056 40249 56012 7//// 8//// 22200 0//// 2////
AAXX 15061 01026 11688 71002 10039 21032 39650 49787 52005 69902 70222 8553/ 333 20018 43026 79999 91109
AAXX 15061 01415 16/// /2707 10081 20040 39817 49827 53026 6//// 333 20051 91114
AAXX 15061 02947 47/60 71205 10020 20016 49964 57037 76106 87/// 90551 333 10029 20015 3////
AAXX 15061 02947 47/60 71205 10020 20016 49964 57037 76106 87/// 90551 333 10029 20015 3////
AAXX 15061 11423 01983 32504 10000 21015 39217 42719 58008 69912 701// 80008 333 21001 3/103 41998 60005 70033 83270 91113
AAXX 15061 11487 01980 79901 10013 21016 39488 40120 57008 60002 703// 81048 333 20011 34103 60005 70011 81364 87272 91113
AAXX 15061 11518 02984 71404 10015 21019 39667 40113 56004 69952 82046 333 20012 31101 60005 70007 82363 87273 91112
AAXX 15061 11603 01572 31104 10018 21014 39619 40108 58003 69972 702// 82501 333 20015 32100 60005 70089 82626 91113
AAXX 15061 11659 01966 61104 10001 21003 39488 40140 50000 69902 703// 80002 333 21007 34103 60005 70013 86072
AAXX 15061 11723 01958 60302 10024 20011 39841 40144 50002 69902 71022 86030 333 20012 31101 60005 70001 86365
AAXX 15061 11782 02965 42403 10028 20011 39831 40141 50001 69902 84032 333 20015 31102 60005 79999 84363
AAXX 15064 85406 12684 40502 10198 20117 40131 58018 60001 85400 333 56000 84640
AAXX 15064 85418 12965 01208 10202 20111 40138 57019 60001
AAXX 15064 85442 12475 89901 10181 20148 40142 58007 60001 885// 333 56099 81612 88625
AAXX 15064 85469 42565 42610 10223 20185 40181 52007 84200 333 56200 84820
AAXX 15064 85488 12460 89903 10152 20120 40130 58010 60001 885// 333 56099 88612
AAXX 15064 85574 12960 01806 10134 20102 40132 57006 60001
AAXX 15064 85577 12960 00000 10135 20108 39527 40138 58007 60001
AAXX 15064 85682 12360 83606 10132 20123 40128 58008 60001 885// 333 56799 88608
AAXX 15064 85743 11458 72905 10125 20114 40133 58010 60001 71022 87500 333 56600 87615
AAXX 15064 85799 12960 00000 10113 20113 40146 56003 60001
AAXX 15064 85934 12580 73106 10111 20080 40169 57010 60001 81532 333 56777 81620 83362 85070
BBXX 51101 15061 99243 71621 46/// /1405 10239 20204 40178 53014 90550 22200 00244 11004 20401 311// 41004 70021 333 91206 555 11051 22053 30529 41407 60549 142048 142050 147055 142052 137056 141055
BBXX 46061 15061 99602 71468 46/// /1306 10048 40065 54000 90550 22200 00053 11104 20502 300// 41104 70022 333 91209 555 11062 22066 30451 41511 60549 134058 136051 139049 143055 148044 148080
AAXX 15064 85874 32984 /9902 10095 20026 39554 40179 50008
BBXX VCWL 15064 99456 70735 46/// /0000 10020 20008 40170 58052 7//// 8//// 22200 0//// 2////
BBXX CGCC 15064 99460 70731 46/// /0810 10004 21001 40182 58045 7//// 8//// 22200 0//// 2////
BBXX VCSZ 15064 99487 70629 46/// /2614 11024 21047 40245 56007 7//// 8//// 22234 0//// 2////
BBXX CG2958 15064 99487 71235 46/// /2803 10034 20029 40204 51010 7//// 8//// 22200 0//// 2////
BBXX VOKF 15064 99482 70695 46/// /1505 10001 21025 40222 58020 7//// 8//// 22214 00039 2////
BBXX 3FZK3 15064 99541 71708 46/// /0140 10016 20016 49575 58039 7//// 8//// 22221 0//// 2////
BBXX CG2965 15064 99487 71235 46/// /2703 10035 20024 40196 51009 7//// 8//// 22200 0//// 2////
BBXX VXKF 15064 99466 70599 46/// /3108 11013 21074 40263 56014 7//// 8//// 22212 0//// 2////
BBXX CGJK 15064 99484 71234 46/// /3608 10043 20032 40189 51009 7//// 8//// 22200 0//// 2////
BBXX CGDX 15064 99468 70712 46/// /0305 10011 21006 40225 58023 7//// 8//// 22200 0//// 2////
BBXX CGBN 15064 99447 70636 46/// /0504 11006 21059 40266 56011 7//// 8//// 22200 0//// 2////
BBXX CGBR 15064 99535 71300 46/// /2805 10017 20016 40165 53005 7//// 8//// 22231 00070 2////
BBXX VCLM 15064 99621 70747 46/// /2320 11169 21214 49989 53006 7//// 8//// 22200 0//// 2////
AAXX 15064 91503 31470 62303 10305 20253 40045 55008 70592 83936 333 56900 82818 81919 85280
AAXX 15064 91517 01465 82302 10264 20252 40050 54000 60021 79598 8697/ 333 56699 60027 82817 83920 85630 88460
AAXX 15064 91503 31470 62303 10305 20253 40045 55008 70592 83936 333 56900 82818 81919 85280
AAXX 15064 91517 01465 82302 10264 20252 40050 54000 60021 79598 8697/ 333 56699 60027 82817 83920 85630 88460
AAXX 15064 91487 NIL
AAXX 15064 91490 NIL
AAXX 15064 91533 NIL
AAXX 15064 91601 NIL
AAXX 15064 91610 11599 20913 10284 20235 40070 53006 60001 70100 82200 333 562//
AAXX 15064 82819
AAXX 15064 91623 NIL
AAXX 15064 91629 NIL
AAXX 15064 91701 11599 10910 10272 2025/ 60001 70200 81100 333 562// 81820
BBXX 44172 15061 99445 70634 46/// ///// 1//// 90601 22200 00076 10903 20903 313// 41101 70016
BBXX 42362 15061 99278 70907 46/// /1410 10233 20194 40210 58004 90600
BBXX 42363 15061 99282 70892 46/// /1507 10228 20167 40224 58010 90600 333 91208
BBXX 42364 15061 99291 70881 46/// /1510 10217 20167 40234 58003 90600
BBXX 41010 15061 99289 70785 46/// /0809 10210 40242 58011 90550 22200 00239 11105 20603 300// 41104 70024 333 91211 555 11094 22099
BBXX 41009 15061 99285 70802 46/// /0908 10221 20135 40248 58005 90550 22200 00245 11105 20603 300// 41104 70025 333 91210 555 11081 22085
BBXX 42057 15061 99168 70815 46/// /0711 10275 20226 40136 58008 90550 22200 00281 10804 20804 70022 333 91213 555 11114 22121 30549 40613 60549 065113 067106 063110 064063 136040 102077 80612 90548
AAXX 15064 07481 01558 72314 10070 20038 39880 40171 53016 60022 78086 872// 333 10103 20069 32005 55/// 60027 70034 87830 90710 91123 93100 555 69965
BBXX DBLK 15061 99650 30000 41/93 91803 11022 21023 49548 57015 74942 89/// 22242 05019 ICE 45692
AAXX 15064 60101 11456 73501 10131 20115 40312 53010 69924 70266 872// 333 20126 87816
AAXX 15064 60150 32960 11406 10079 20050 39643 40316 53005 80002 333 20065 30/// 81070
AAXX 15064 60156 17457 /1203 10070 20058 40317 53005 60004 70010 333 20042
AAXX 15064 60230 12958 01503 10074 20050 40302 53005 60004 90549 333 20064
AAXX 15064 60252 32960 00804 10058 20040 40261 58003 333 20059
AAXX 15064 60096 NIL
AAXX 15064 60115 NIL
AAXX 15064 60135 NIL
AAXX 15064 60155 NIL
AAXX 15064 60060 32956 01202 10145 20124 40256 5//// 333 20144 30008
AAXX 15064 60105 11350 80607 10130 20120 40300 5//// 60014 7606/ 882// 333 20111 32006 86710 84816
AAXX 15064 60127 32960 00000 10095 20074 39704 40314 5/015 333 20091 31008
AAXX 15064 60141 32960 01909 10047 20029 39631 40324 53004 333 20043 31000
AAXX 15064 60106 NIL
AAXX 15064 60107 NIL
AAXX 15064 60185 NIL
AAXX 15064 60190 NIL
AAXX 15064 60191 NIL
AAXX 15064 60195 NIL
AAXX 15064 60210 NIL
AAXX 15064 60220 NIL
AAXX 15064 60265 NIL
AAXX 15064 60318 NIL
AAXX 15064 64500 11360 71002 10248 20236 30102 40115 60484 70266 8457/ 333 022364 20228 5///1 55052 58005 84608 87460
AAXX 15064 07027 01570 72216 10054 20036 39956 40038 53010 69982 78088 869// 333 10061 20046 32003 55030 69947 70064 82823 84933 85650 91029 90710 91140 555 69945
AAXX 15064 48601 11559 73606 10299 20234 30083 40087 60001 70522 82252 333 82820 85364 87077
AAXX 15064 48615 11240 81804 10225 20220 30093 40099 61021 76166 8457/ 333 81705 84620 88469
AAXX 15064 48620 11462 72106 10280 20238 30075 40084 60001 71522 83932 333 81917 84365 87078
AAXX 15064 48647 11458 71706 10276 20254 30058 40083 69901 79592 85942 333 81710 81917 83818 87077
AAXX 15064 48657 11470 73609 10306 20238 30060 40077 60001 70522 83242 333 83818 83366 87078
AAXX 15064 48665 11464 72606 10286 20243 30081 40091 6///1 70522 84942 333 81917 83820 86077
AAXX 15064 96413 11568 73606 10319 20236 30046 40072 6///1 70522 84231 333 84820 83365 86080
AAXX 15064 96421 12480 73302 10315 20230 30034 40069 60001 84931 333 81915 84818 86365
AAXX 15064 96441 12480 73206 10308 20247 30039 40066 60001 83931 333 81915 83816 86080
AAXX 15064 96449 11465 73207 10282 20247 30048 40067 60001 71522 83971 333 83814 81915 85365
AAXX 15064 96465 12478 73305 10309 20249 30029 40062 60001 83942 333 82812 81914 87080
AAXX 15064 96471 11472 73204 10311 20251 30059 40062 60001 70522 84848 333 82814 83364 87278
AAXX 15064 96481 11462 72203 10299 20250 30041 40060 60031 72582 8387/ 333 82817 85364
AAXX 15064 96491 11466 70707 10301 20252 30051 40063 60051 70586 83932 333 83816 81917 86080
AAXX 15064 81401 06/// /1301 10230 20223 30085 40091 60001 333 55/// 60007 58006 7//// 555 60005
AAXX 15064 81408 06/// /0000 10231 2//// 30081 40089 60001 333 55/// 60007 58009 7//// 555 60005
AAXX 15064 60340 32565 50000 10101 20075 40300 53005 82230 333 20061 82820 85359
AAXX 15064 60285 NIL
AAXX 15064 68399 16/// /0502 10253 20237 39993 40101 52010 60174 333 20221 91017 555 10332 20178 91010
AAXX 15064 68383 16/// /0000 10248 20215 39868 48535 52008 60084 333 20218 91000 555 10323 20084 91011
BBXX 46218 15061 99345 71208 46/// ///// 1//// 90602 22200 00145 11303 20802 328// 41302 70015
BBXX 46232 15061 99325 71174 46/// ///// 1//// 90538 22200 00148 11202 21002 324// 41201 70010
BBXX 46247 15061 99378 71228 46/// ///// 1//// 90551 22200 00122 11403 21001 328// 41403 70016
BBXX 46240 15061 99366 71219 46/// ///// 1//// 90542 22200 00126 11301 21001 300// 41301 70007
BBXX 46236 15061 99368 71219 46/// ///// 1//// 90550 22200 00127 11302 20801 329// 41302 70010
BBXX 46229 15061 99438 71246 46/// ///// 1//// 90551 22200 00103 10806 20805 328// 41303 70029
BBXX 46225 15061 99329 71174 46/// ///// 1//// 90544 22200 00155 11201 20801 322// 41201 70006
BBXX 46213 15061 99403 71247 46/// ///// 1//// 90554 22200 00097 11305 20504 329// 41303 70026
BBXX 46215 15061 99352 71209 46/// ///// 1//// 90538 22200 00155 11402 20701 327// 41402 70011
BBXX 41110 15061 99341 70777 46/// ///// 1//// 90551 22200 00141 11102 21001 311// 41101 70009
BBXX 42099 15061 99273 70842 46/// ///// 1//// 90557 22200 00235 10503 20503 70014
BBXX 41113 15061 99284 70805 46/// ///// 1//// 90551 22200 00222 11103 20602 310// 41101 70013
BBXX 41114 15061 99276 70802 46/// ///// 1//// 90546 22200 00229 11004 21004 307// 41101 70020
BBXX 41112 15061 99307 70813 46/// ///// 1//// 90551 22200 00171 11202 21002 310// 41201 70011
BBXX 44099 15061 99369 70757 46/// ///// 1//// 90552 22200 00127 11002 21002 310// 41101 70010
BBXX VOLG 15064 99/// ///// 46/// /0820 11006 21070 40268 57004 7//// 8//// 22200 0//// 2////
BBXX 46224 15061 99332 71175 46/// ///// 1//// 90536 22200 00152 11301 20601 320// 41301 70006
BBXX 46214 15061 99379 71235 46/// ///// 1//// 90555 22200 00117 11303 21001 330// 41303 70015
AAXX 15064 67665 12480 70202 10108 20191 48571 60024 84530 333 10280 20115 58010 84610 86360
BBXX VEP717 15064 99467 70487 41698 43630 10001 2107/ 40182 52023 70111 84500 22200 06029 20605 336// 40804 81024
AAXX 15061 78221 NIL
AAXX 15061 78224 31658 40702 10189 20157 30132 40207 58008 70544 84030 333 84340
AAXX 15061 78229 42559 10803 10187 20156 30132 40207 57010 81200 333 81820
AAXX 15061 78239 31559 20610 10235 20170 30187 40190 57010 70520 82800 333 81820
AAXX 15061 78244 NIL
AAXX 15061 78243 42559 20501 10181 20174 30079 40203 57007 82000 333 82825
AAXX 15061 78255 42959 00404 10195 20161 30040 40189 57010
AAXX 15061 78264 NIL
AAXX 15061 78265 31559 00503 10199 20166 30072 40172 57010 70000
AAXX 15061 78256 NIL
AAXX 15061 78259 NIL
AAXX 15061 78268 NIL
BBXX 51204 15061 99213 71581 46/// ///// 1//// 90552 22200 00248 11103 21002 327// 41101 70013
BBXX 51203 15061 99208 71570 46/// ///// 1//// 90543 22200 00250 10802 20802 326// 41301 70008
BBXX 51201 15061 99217 71581 46/// ///// 1//// 90542 22200 00243 11403 20902 332// 41402 70016
BBXX 51202 15061 99214 71577 46/// ///// 1//// 90539 22200 00245 10904 20904 309// 41101 70021
AAXX 15061 78221 NIL
AAXX 15061 78224 31658 40702 10189 20157 30132 40207 58008 70544 84030 333 84340
AAXX 15061 78229 42559 10803 10187 20156 30132 40207 57010 81200 333 81820
AAXX 15061 78239 31559 20610 10235 20170 30187 40190 57010 70520 82800 333 81820
AAXX 15061 78244 NIL
AAXX 15061 78243 42559 20501 10181 20174 30079 40203 57007 82000 333 82825
AAXX 15061 78255 42959 00404 10195 20161 30040 40189 57010
AAXX 15061 78264 NIL
AAXX 15061 78265 31559 00503 10199 20166 30072 40172 57010 70000
AAXX 15061 78256 NIL
AAXX 15061 78259 NIL
AAXX 15061 78268 NIL
AAXX 15064 16021 12970 01210 11029 21054 37921 48444 58009 60002 333 21034 43016 55/// 2//// 92802
AAXX 15064 16022 11/00 92317 11030 21036 37789 48433 57008 60002 74944 333 21033 48011 55000 2//// 89/00 92835
AAXX 15064 16033 11562 80000 10012 21007 38737 48446 57007 69922 70272 885// 333 20008 43007 55/// 2//// 88620 92822
AAXX 15064 16040 NIL
AAXX 15064 16052 11/05 92315 11128 21144 36538 47964 57014 60002 74741 333 21132 49999 55000 23034 89/03
AAXX 15064 16061 11956 00000 10022 20019 39290 42745 56012 60002 71000 333 20022 30/// 55046 2////
AAXX 15064 16098 11204 72802 10070 20060 30094 40146 56003 69902 74642 87600 333 20068 32/// 55/// 2//// 87705
AAXX 15064 16138 11856 82502 10062 20052 30138 40149 55003 60002 710// 8807/ 333 20060 31/// 55/// 2//// 84357 84459
AAXX 15064 16148 11111 82802 10059 20041 30136 40149 56003 60002 71022 886// 333 20059 31/// 55021 2//// 55300 88702
AAXX 15064 16168 11/00 91815 10114 20111 39428 42790 54000 60002 74544 333 20114 32/// 55/// 2//// 89/00
AAXX 15064 16172 11558 60000 10110 20102 39871 40169 53001 69922 71062 86800 333 20106 32/// 55/// 2//// 83820 83625
AAXX 15064 16179 11575 82017 10110 20069 39471 42770 53001 60052 70262 8587/ 333 20104 32/// 55/// 2//// 83820 83625 85358
AAXX 15064 16224 12460 72110 10138 20117 39862 40177 53001 60002 87200 333 20134 32/// 55000 2//// 87813
AAXX 15064 16232 NIL
AAXX 15064 16245 12562 72112 10164 20142 30157 40183 56002 60002 84870 333 20138 30/// 55/// 2//// 82820 83640 85360
AAXX 15064 16253 12560 72109 10130 20105 30180 40192 57010 60002 87800 333 20126 32/// 55002 20446 82830 85640
AAXX 15064 16258 12865 42218 10084 20075 39191 42795 58008 60002 84030 333 20084 30/// 55/// 2//// 84358
AAXX 15064 16263 NIL
AAXX 15064 16294 NIL
AAXX 15064 16337 12497 82107 10120 20097 39648 40219 55002 60002 888// 333 20120 32/// 55/// 2//// 83816 85616 555 0216/
AAXX 15064 16344 11/00 92808 10038 20038 38350 48532 54000 60002 74544 333 20030 32/// 55012 20746 89/00 95090 95190
AAXX 15064 16434 11/00 92202 10070 20070 39034 48532 53003 69922 747// 333 20062 31/// 55/// 2//// 89/00 95090 95190
AAXX 15064 16450 11/00 92910 10084 20084 39130 48589 51001 60002 74544 333 20082 31/// 55/// 2//// 89/00
AAXX 15064 16459 12960 03104 10068 20068 30203 40239 56001 60002 333 20058 30/// 55/// 2////
AAXX 15064 16546 11457 72304 10152 20132 30178 40206 53002 60012 76062 87800 333 20110 32/// 55/// 2//// 82710 83825 85640
AAXX 15064 16564 12498 82727 10166 20133 30059 40200 56003 60002 8683/ 333 20148 31/// 55/// 2//// 82815 85625 555 0////
AAXX 15064 16045 NIL
AAXX 15064 16090 NIL
AAXX 15064 16149 11215 80000 10064 20047 30131 40147 57010 69962 71054 886// 333 20058 31/// 55/// 2//// 88705
AAXX 15064 16261 12562 41603 10120 20096 30106 40178 55004 60002 82530 333 20096 30/// 55023 20344 55300 82630 83362
AAXX 15064 16453 11997 20603 10126 20096 30162 40241 53001 60002 702// 80001 333 20124 31/// 55073 2//// 55300 555 0100/
AAXX 15064 16560 11458 73402 10144 20116 30201 40208 55003 60002 76062 85830 333 20124 32011 55033 20457 83815 84625 85356
AAXX 15064 16008 NIL
AAXX 15064 16084 NIL
AAXX 15064 16088 11/02 92602 10049 20042 30024 40144 57009 60002 74542 333 20049 31/// 55/// 2//// 89/02
AAXX 15064 16110 NIL
AAXX 15064 16134 11/03 92520 11008 21030 37772 48454 56008 60022 74944 333 21008 44003 55000 2//// 89/03 92713 92845 95090 95190
AAXX 15064 16153 12898 52506 10100 20037 39872 40137 58008 60002 85070 333 20090 30/// 55013 2//// 83357 555 0////
AAXX 15064 16158 12662 62517 10148 20090 30148 40155 55004 60002 86800 333 20140 30/// 55001 2//// 82840 84650
AAXX 15064 16206 12565 80604 10116 20090 30158 40167 53008 60002 84805 333 20110 31/// 55/// 2//// 81825 83640
AAXX 15064 16219 NIL
AAXX 15064 16252 12264 62004 10112 20075 39249 42806 56002 60002 82530 333 20104 30/// 55026 2//// 82605 84357
AAXX 15064 16280 12497 72212 10152 20132 39970 40189 56007 60052 81170 333 20150 31/// 55025 2//// 81810 87357 555 0////
AAXX 15064 16310 12597 82310 10142 20126 39981 40202 56009 60002 888// 333 20128 31/// 55002 2//// 83820 85630 555 0////
AAXX 15064 16320 12460 51914 10126 20123 30193 40205 55007 60002 85800 333 20106 30009 55075 20829 55300 82815 85635 555 0215/
AAXX 15064 16325 12597 62302 10110 20081 30174 40189 56008 60002 83508 333 20110 30/// 55/// 2//// 83625 98060 555 0223/
AAXX 15064 16360 12598 51503 10150 20134 30083 40217 56002 60002 83531 333 20146 30/// 55084 2//// 83620 83358 555 0100/
AAXX 15064 16400 13497 72122 10152 20111 39939 40228 58001 60002 87100 333 20148 30/// 55050 2//// 55300 87817 555 0435/
AAXX 15064 16420 12998 23202 10134 20095 30162 40228 54000 60002 80002 333 20126 30/// 55042 2//// 555 0100/
AAXX 15064 16429 12565 41701 10130 20116 30221 40232 54000 60002 84500 333 20100 30/// 55075 2//// 55300 84620
AAXX 15064 16470 12960 32104 10138 20117 30011 40248 54000 60002 80001 333 20132 30/// 55083 2//// 55300 22/// 95000
AAXX 15064 16480 12497 33104 10130 20122 30168 40230 53003 60002 81201 333 20128 30/// 55087 2//// 55300 81815 555 0200/
AAXX 15064 16522 12598 52705 10160 20138 39949 40191 56001 60002 85200 333 20156 30/// 55054 2//// 55300 85820 555 0////
AAXX 15064 16539 13497 42910 10160 20154 30090 40203 55003 60002 82802 333 20158 31/// 55/// 2//// 82812 555 0////
AAXX 15064 16550 11698 83005 10160 20105 30004 40182 55006 69902 76062 8322/ 333 20140 30/// 55028 2//// 83840 86458 555 0////
BBXX 46238 15061 99334 71195 46/// ///// 1//// 90550 22200 00147 11202 21002 324// 41201 70010
AAXX 15064 13600 12660 80904 10123 20098 30171 40223 57006 60002 885// 333 20100 31/// 88640
AAXX 15064 13610 12660 60000 10096 20066 39792 40218 55008 60002 86500 333 20080 31/// 86646
AAXX 15064 13611 NIL
AAXX 15064 13619 12660 70000 10064 20041 39462 42842 54002 60002 87500 333 20032 31/// 87640
AAXX 15064 13622 12665 71802 10100 20081 30214 40222 54000 60002 87500 333 20090 30/// 87640
AAXX 15064 13624 12970 71410 10086 20045 30191 40231 54004 60002 87010 333 20074 30/// 87460
AAXX 15064 13625 11907 00000 10050 20026 30017 40255 54001 60002 74544 333 20046 31///
AAXX 15064 13629 NIL
AAXX 15064 13601 12660 81402 10126 20052 30097 40197 54001 60002 885// 333 20120 30/// 84633 84636
AAXX 15064 13602 NIL
AAXX 15064 13623 NIL
AAXX 15064 71805 04586 83207 11038 21081 30249 40258 52003 60002 700// 333 11025 21051 30107 55075 60007 70000 90710 91115 555 60005
AAXX 15064 61972 16/// /0505 10290 20241 40121 60004 333 20256 55/// 59002 90710 91110 555 60005
AAXX 15064 61980 12562 41018 10293 20213 40131 60004 84800 333 02100 20225 55061 58011 83830 90710 91127 92437 555 60005
AAXX 15064 67005 12570 70000 10288 20244 40134 60024 8587/ 333 02319 20249 55034 58016 84822 83650 87459 90710 91104 555 60005
AAXX 15064 40296 32960 20000 10156 20067 40197 52004 80002 333 20116 30007 82070
AAXX 15064 89577 46/// /1701 11336 35722 4//// 5////
AAXX 15064 40340 31650 30206 10134 20063 40197 52017 70500 83500 333 20114 30009 83640
BBXX 44011 15061 99411 70666 46/// /0605 10069 20026 40265 50000 90550 22200 00097 11005 20501 3//// 41004 70023 333 91207 555 11056 22058 30503 42309 60549 057055 051058 054065 058069 049066 041068
BBXX 41046 15061 99238 70683 46/// /0408 10240 20153 40170 58007 90550 22200 00260 11007 20704 300// 41005 70033 333 91210 555 11085 22089 30451 40211 60549 035080 035080 039080 028085 030082 029089 80210 90459
AAXX 15061 01160 41989 3//// 10062 21001 39741 49758 53006 70200 80008 333 20049 91198
AAXX 15061 01001 11450 80115 10007 21002 39798 49809 50001 60012 77372 887// 333 20007 42999 70017 91125
AAXX 15061 01055 46/// /1710 10045 21008 39805 49822 50004 333 20030 91124
AAXX 15061 01317 11465 61503 10056 20029 39779 49793 52026 60182 7258/ 86800 333 20048 70297 91110
AAXX 15061 45007 12956 13206 10217 20104 30178 40187 58031 60001 80001 333 58008 81080
AAXX 15061 45007 12956 13206 10217 20104 30178 40187 58031 60001 80001 333 58008 81080
AAXX 15064 48601 11559 73606 10299 20234 30083 40087 60001 70522 82252 333 82820 85364 87077
AAXX 15064 48615 11240 81804 10225 20220 30093 40099 61021 76166 8457/ 333 81705 84620 88469
AAXX 15064 48620 11462 72106 10280 20238 30075 40084 60001 71522 83932 333 81917 84365 87078
AAXX 15064 48647 11458 71706 10276 20254 30058 40083 69901 79592 85942 333 81710 81917 83818 87077
AAXX 15064 48650 11320 72713 10256 20239 30064 40083 69981 78182 83948 333 81708 81917 83818 87276
AAXX 15064 48657 11470 73609 10306 20238 30060 40077 60001 70522 83242 333 83818 83366 87078
AAXX 15064 48665 11464 72606 10286 20243 30081 40091 6///1 70522 84942 333 81917 83820 86077
AAXX 15064 96413 11568 73606 10319 20236 30046 40072 6///1 70522 84231 333 84820 83365 86080
AAXX 15064 96421 12480 73302 10315 20230 30034 40069 60001 84931 333 81915 84818 86365
AAXX 15064 96441 12480 73206 10308 20247 30039 40066 60001 83931 333 81915 83816 86080
AAXX 15064 96449 11465 73207 10282 20247 30048 40067 60001 71522 83971 333 83814 81915 85365
AAXX 15064 96465 12478 73305 10309 20249 30029 40062 60001 83942 333 82812 81914 87080
AAXX 15064 96471 11472 73204 10311 20251 30059 40062 60001 70522 84848 333 82814 83364 87278
AAXX 15064 96481 11462 72203 10299 20250 30041 40060 60031 72582 8387/ 333 82817 85364
AAXX 15064 96491 11466 70707 10301 20252 30051 40063 60051 70586 83932 333 83816 81917 86080
AAXX 15064 91573 06/// /1208 10283 20237 39984 40079 55002 60001 333 58000 60007
AAXX 15064 91579 06/// /1110 10276 20240 30074 40082 53006 60001 333 58006 60007
AAXX 15064 91582 04342 82104 10249 20244 30052 40086 53008 60692 765// 333 10316 20238 3/023 55/// 60697 70691 90710 91120 555 60415
AAXX 15064 91583 06/// /1402 10281 20245 30064 40079 53003 60001 333 59001 60007
AAXX 15064 91587 06/// ///// 10254 20242 30041 40085 55001 6///1 333 58007 6///7
AAXX 15064 91590 04666 81309 10239 20229 30050 40092 53010 60052 761// 333 10291 20230 55041 60047 70139 90710 91120 555 60045
AAXX 15064 91592 06/// /1114 10246 20232 30012 40096 51008 60021 333 58017 60027
AAXX 15064 91596 06/// /1310 10250 20215 39987 40095 53006 60001 333 58013 60007
AAXX 15064 91577 NIL
AAXX 15061 06206 45476 52008 10071 20030 39886 49938 56003 8//// 333 20055 84/14 85/17 91009 91113 91211
AAXX 15061 06207 47571 4//12 10055 20012 39893 49946 55001 780// 8//// 333 20053 82/22 84/71 91014 91116 91213
AAXX 15061 06239 47480 7//11 10074 20034 3//// 4//// 5//// 72300 8//// 333 20032 81/13 84/19 86/25 91013 91119 91216
AAXX 15061 06252 46/// /2208 10075 20027 39891 49936 56009 222// 00099 10604 333 20065 91009 91114 91212
AAXX 15061 06260 17480 32105 10044 20022 39984 49986 55001 69922 70185 8//// 333 20038 3/003 70056 81/14 83/27 91008 91112 91208
AAXX 15061 06270 17472 72104 10033 20021 39968 49968 55003 60012 70185 8//// 333 20030 3/002 70042 81/13 84/19 85/22 91006 91114 91210
AAXX 15061 06290 15583 82007 10055 20021 39954 49994 55006 60002 8//// 333 20033 3/003 70103 82/21 84/24 86/28 91011 91112 91208
AAXX 15063 91502 11470 50000 10307 20254 40045 56007 69921 71522 82803 333 56109 82816 81917 84080
AAXX 15063 91507 31475 73204 10295 20254 40047 55004 70522 84976 333 56000 82815 81916 85360
AAXX 15063 91520 01475 81803 10275 20257 40047 55001 60031 71798 85937 333 56299 60037 82818 82919 84630 87280
AAXX 15063 91541 31475 70504 10285 20249 40072 57005 71522 8397/ 333 56209 82816 81917 87360
AAXX 15061 06201 45465 22206 10065 20036 39871 49923 55001 8//// 333 20043 82/11 91007 91111 91209
AAXX 15061 06203 47365 5//14 10071 20050 39883 49934 58010 72286 8//// 333 20059 82/09 85/10 85/17 91017 91122 91217
AAXX 15061 06204 45583 62108 10078 20028 39899 49950 57006 8//// 333 20066 82/22 83/32 85/41 91010 91115 91213
AAXX 15061 06205 45481 52210 10068 20020 39856 49914 53010 8//// 333 20035 82/17 85/19 85/27 91011 91116 91214
AAXX 15061 06208 47470 72009 10044 20023 39912 49961 56001 72280 8//// 333 20043 81/11 84/14 86/16 91011 91117 91213
AAXX 15061 06211 45478 42007 10063 20032 39873 49928 56006 8//// 333 20054 84/11 91009 91114 91211
AAXX 15061 06212 47262 72211 1//// 2//// 39888 49950 52002 76185 8//// 333 2//// 81/05 83/15 85/26 91017 91119 91216
AAXX 15061 06235 17475 82008 10052 20037 39963 49963 56005 60052 70286 8//// 333 20044 3/003 70064 82/15 85/17 88/19 91011 91119 91213
AAXX 15061 06240 15481 12008 10034 20023 39981 49976 56004 60022 8//// 333 20033 3/003 70051 81/14 91010 91116 91211
AAXX 15061 06251 17457 72207 10043 20036 39963 49964 50004 60062 76285 8//// 333 20034 3/003 70060 82/18 86/21 86/25 91009 91120 91215
AAXX 15061 06258 46/// /2111 333 91014 91119 91215
AAXX 15061 06269 15482 52108 10043 20028 39986 49980 56006 60022 8//// 333 20032 3/003 70082 83/15 85/35 91011 91115 91211
AAXX 15061 06280 17482 82108 10046 20025 39973 49977 55005 60012 70285 8//// 333 20031 3/003 70018 86/15 88/17 91011 91113 91209
AAXX 15061 06310 17458 82012 10049 20033 39972 49982 58009 60152 76265 8//// 333 20033 3/003 70166 85/13 87/16 88/19 91016 91116 91212
AAXX 15061 06344 17471 82008 10048 20032 39986 49979 56007 60022 78185 8//// 333 20037 3/003 70060 84/13 86/15 88/18 91012 91117 91211
AAXX 15061 06370 17583 82107 10059 20019 39979 40005 55000 69962 70286 8//// 333 20033 3/003 70073 84/24 86/28 87/32 91011 91112 91208
AAXX 15061 06380 15683 82008 10049 20020 39884 40024 52001 69962 8//// 333 20030 3/003 70048 88/34 91011 91115 91211
AAXX 15063 91502 11470 50000 10307 20254 40045 56007 69921 71522 82803 333 56109 82816 81917 84080
AAXX 15063 91507 31475 73204 10295 20254 40047 55004 70522 84976 333 56000 82815 81916 85360
AAXX 15063 91520 01475 81803 10275 20257 40047 55001 60031 71798 85937 333 56299 60037 82818 82919 84630 87280
AAXX 15063 91541 31475 70504 10285 20249 40072 57005 71522 8397/ 333 56209 82816 81917 87360
AAXX 15064 91574 46/// ///// 29085 30132 40138 58041
AAXX 15064 91570 NIL
AAXX 15064 91598 NIL
AAXX 15064 63980 11483 52912 10300 20237 40119 60014 72581 84830 333 50340 55058 58003 84816 943// 91114
AAXX 15064 64500 11360 71002 10248 20236 30102 40115 60484 70266 8457/ 333 02236 20228 5///1 55052 58005 84608 87460
AAXX 15064 89642 42982 80602 11008 21110 39812 49865 57007 80007 333 55114 23043 88266
AAXX 15061 03951 17657 /3014 10071 20026 39981 40007 53018 60042 76186 85/// 333 20055 3/004 84/33 85/50 90710 91120
AAXX 15061 03953 11570 72813 10076 20012 39974 40010 51026 60032 70282 8583/ 333 20055 31003 55002 83823 84640 85364 92457 90710 91118
AAXX 15061 03955 11475 62708 10036 20025 39795 49993 51024 60042 72581 869// 333 20030 31000 55000 85915 84649
AAXX 15061 03956 17581 /2505 10036 20016 39885 49962 52028 60062 7818/ 85/// 333 20026 3/001 85/26 87/62
AAXX 15061 03962 11464 72507 10052 20040 39947 49970 52025 60022 78081 873// 333 20030 3/001 55002 81714 85918 86645
AAXX 15061 03963 17462 /2815 10070 20036 39922 49950 50024 60082 72285 85/// 333 20031 3/003 83/17 85/24 86/59 90710 91121
AAXX 15061 03966 17783 /2306 10044 20026 39858 49951 52018 60012 72386 85/// 333 20006 3/101 85/56 88/58
AAXX 15061 03967 11470 62207 10031 20021 39823 49937 52016 60032 72161 865// 333 20006 31102 55003 82710 86620
AAXX 15061 03969 11370 62507 10017 20012 39831 49935 51020 60032 72581 85802 333 20003 31101 55008 82709 83821 85632
AAXX 15061 03973 11475 62605 10029 20021 39684 49938 52024 69932 70281 84302 333 21003 31103 55026 81918 84628
AAXX 15061 03976 11470 62608 10068 20040 39923 49935 51022 60022 78081 869// 333 20031 32100 55025 81715 83920
AAXX 15061 03980 17567 /3208 10070 20030 39877 49901 52028 60022 70286 84/// 333 20022 3/001 84/28
BBXX DBBH 15061 99384 70108 41498 73003 10150 20079 40318 52005 70311 87500 22200 04167
AAXX 15064 64550 12460 8//// 10230 20215 30/// 40/// 60124 885// 333 01012 20225 50084 55/// 5//// 84610 88623
AAXX 15064 64556 32460 8//// 10223 20218 39538 40132 885// 333 0//00 20216 50024 55009 59002 88610
AAXX 15064 40310 32960 02903 10080 20018 38969 48513 54003 333 20050 30001
AAXX 15064 89532 42/80 72804 11067 21107 39939 49967 53007 81506 333 55105 23110
AAXX 15061 01132 16/// /1405 10030 21018 39395 49771 53014 60002 333 20027 4/038 70000 91115
AAXX 15061 01361 16/// /0801 10001 21037 38764 49759 52012 69992 333 21006 70032 91109
AAXX 15061 01477 16/// /1801 10020 20011 60002 333 20004 4/017 70000 91107
AAXX 15061 01150 16/// /1106 10033 21026 60002 333 20023 70011 91112
AAXX 15061 01230 16/// /1103 10031 21043 60002 333 20014 4/023 70000 91112
AAXX 15061 01232 16/// /1604 10079 21036 39664 49740 51011 60002 333 20056 4/005 70000 91110
AAXX 15061 01253 16/// /2002 10033 21032 60002 333 20026 4/028 70000 91110
AAXX 15061 01254 16/// /3301 10029 21023 60002 333 20023 4/018 70000 91111
AAXX 15061 01291 16/// /0901 10017 21024 60002 333 20017 4/018 70000 91110
AAXX 15061 01386 16/// ///// 10019 21001 60002 333 20012 70000
AAXX 15061 01470 16/// /1702 10033 20013 39713 49825 55000 60002 333 20020 4/002 70000 91108
AAXX 15061 01033 46/// /1405 10047 21015 39757 49787 53004 333 20036 91112
AAXX 15061 01311 46/// /2305 10059 20037 39735 49796 53027 333 20042 91113
AAXX 15061 01452 11475 71801 10041 20029 39825 49846 52008 60132 78082 878// 333 20032 91112
AAXX 15061 01046 11689 61608 10047 21026 39796 49803 52003 60002 70122 84440 333 20027 44011 70000 91120
AAXX 15061 01344 16/// ///// 10001 21007 60052 333 20001 4/074 70226
AAXX 15061 01471 16/// /1601 10014 21004 60002 333 20001 70090 91106
AAXX 15064 78388 112570 20815 10259 20194 30132 40141 60001 82801 333 00109 10291 20232 58003 81824
AAXX 15064 DUPE
AAXX 15064 96315 31465 73309 10305 20248 40069 71522 83978 333 82816 81918 85080
AAXX 15064 96323 NIL
AAXX 15064 96315 31465 73309 10305 20248 40069 71522 83978 333 82816 81918 85080
AAXX 15064 96323 NIL
AAXX 15061 15015 01596 81904 10074 20044 39566 42780 57002 69942 7616/ 8457/ 333 10080 20038 31000 6///7 70004 91007 91107 96010
AAXX 15061 15020 01492 60901 10002 20002 39976 40180 50003 60002 74444 86600 333 10041 21001 31101 60007 70000 91003 91104
AAXX 15061 15090 01596 50901 11001 21001 30096 40192 52003 60002 71041 85500 333 10044 21002 34102 55300 0//// 20003 3//// 60007 70000 91001 91102 92601
AAXX 15061 15108 01699 32706 11019 21019 38077 48493 53003 60002 72844 81041 333 11009 21022 3//// 43006 60007 70000 92727 92870 95000
AAXX 15061 15120 01/91 90702 10013 20013 39688 40196 53006 60002 74544 333 10046 20013 31002 55300 10018 20000 30001 60007 70000 91004 91105
AAXX 15061 15150 01293 81702 10019 20019 39973 40191 57003 60002 74444 886// 333 10031 20019 31003 60007 70000 91005 91105
AAXX 15061 15170 01/92 92301 11012 21012 39414 42802 50001 60002 74544 333 11003 21016 31101 60007 70000 91002 91102
AAXX 15061 15200 01598 81601 10080 20059 30030 40175 52007 69912 76162 885// 333 10092 20069 31006 69917 70001 91001 91103
AAXX 15061 15230 02997 73501 10016 20016 39896 40197 55003 60002 87070 333 10057 20008 30101 55300 10034 20002 3//// 60007 70000 91001 91101
AAXX 15061 15260 02998 00902 11015 21016 39654 40208 54000 60002 333 10029 21040 34103 60007 70000 91004 91105
AAXX 15061 15280 02599 32904 11056 21079 37494 47025 53001 60002 81031 333 11050 21067 3//// 48034 60007 70000 92845 444 27071
AAXX 15061 15292 02597 81803 10067 20034 39889 40186 55005 60002 8437/ 333 10083 20051 31003 60007 70000 91004 91105
AAXX 15061 15310 01491 81903 10020 20020 30122 40211 52005 69912 74454 886// 333 10042 20020 31003 55300 10014 20000 30000 60007 70002 91005 91105
AAXX 15061 15335 01492 83001 10008 20008 30204 40211 53004 60002 7444/ 886// 333 10047 20003 31002 60007 70000 91001 91102
AAXX 15061 15346 01/93 90100 10005 20005 39916 40215 55000 60002 74544 333 10038 20003 31002 60007 70000 91001 91102
AAXX 15061 15350 01492 82502 10018 20018 30083 40207 52002 60002 74444 886// 333 10047 20018 31001 60007 70000 91004 91105
AAXX 15061 15360 01492 81906 10070 20070 30191 40206 54001 60002 74444 886// 222// 06076 20401 333 10070 20036 3//// 60007 70000 91008 91108 92422
AAXX 15061 15410 01595 83601 10030 20029 30113 40211 55002 60002 71042 886// 333 10044 20029 31004 60007 70000 91001 91101
AAXX 15061 15420 01/91 92502 10020 20020 30094 40209 52003 60002 74544 333 10049 20019 31003 55300 0//// 20000 3//// 60007 70000 91003 91104
AAXX 15061 15450 01491 80000 10019 20019 39967 40209 55003 69922 75154 886// 333 10053 20014 31004 55300 10018 20000 30000 69917 70002 91001 91102 96046
AAXX 15061 15460 01492 82701 10004 20004 30189 40214 52003 60002 7444/ 886// 333 10046 20003 31002 60007 70000 91002 91102
AAXX 15061 15470 01492 82201 10022 20022 30080 40210 54001 60002 7444/ 886// 333 10044 20021 31002 60007 70000 91002 91102
AAXX 15061 15480 01492 83001 10015 20015 30199 40217 53002 60002 74444 886// 222// 06077 2//// 333 10060 20012 31002 60007 70000 91002 91102 92412
AAXX 15061 33135 NIL
AAXX 15061 33317 31596 22002 10031 20016 39823 40163 53007 71011 82500 333 20030
AAXX 15061 33345 11296 81803 10050 20045 39972 40178 56001 69902 75152 886// 333 20048 88705
AAXX 15061 33393 12997 71902 10057 20046 39762 40153 52005 69902 87030 333 20034
AAXX 15061 33506 11494 81402 10031 20028 30025 40224 53001 69902 75152 886// 333 20024
AAXX 15061 33587 31/93 91801 10026 20026 39933 40200 53008 74544 333 20026 555 32003
AAXX 15061 33631 11396 81002 10075 20071 30013 40156 57002 60022 76162 8772/ 333 20067 87708
AAXX 15061 33663 11496 80902 10039 20029 30086 40183 54000 69902 71052 886// 333 20039 88714
AAXX 15061 33658 31/04 91002 10014 20014 39871 40176 57001 74544 333 20014
AAXX 15061 33711 11295 81906 10057 20052 39994 40205 58003 69952 75152 886// 333 20057 88705
AAXX 15061 33791 NIL
AAXX 15061 33837 11/03 91603 10060 20060 30157 40209 53003 69912 75154 333 20055 96045
AAXX 15061 33924 NIL
AAXX 15061 33946 32997 21303 10058 20046 30020 40242 52005 81031 333 20048
AAXX 15061 34300 11/04 91305 10010 20010 30055 40252 51002 60012 74542 333 20010
AAXX 15061 34504 31/00 91604 10020 20020 30058 40241 52004 74542 333 20020
AAXX 15061 34519 31250 71307 10012 20001 39981 40263 53007 71022 85630 333 20004 85703
AAXX 15061 34601 31/06 91404 10016 20016 30109 40249 52002 74342 333 20008 89/01
AAXX 15064 78388 112570 20815 10259 20194 30132 40141 60001 82801 333 00109 10291 20232 58003 81824
AAXX 15064 DUPE
AAXX 15064 16084 11730 50801 11004 21020 39972 40146 57010 60002 71011 83501 333 21004 34/// 55000 20028 83650
AAXX 15064 60645 36/// /0000 10115 20001 333 20115
AAXX 15064 60663 36/// /1002 10121 21063 333 20118
AAXX 15064 60619 36/// /0410 10060 20005 333 20056
BBXX 62087 15061 99547 10068 46/// /0704 10081 20032 4//// 5//// 22200 00092
AAXX 15061 06407 11459 82009 10039 20022 39979 49985 57008 60262 76362 875// 333 20021 32002 82710 87618 91116 91211
AAXX 15061 06447 NIL
AAXX 15061 11010 12980 69901 10017 20012 39752 40137 57012 69972 333 20010 31102 82364 86080
AAXX 15061 11012 12883 62206 10042 20013 39659 40131 58015 60022 81527 333 10080 20042 3/003 55300 91117
AAXX 15061 11022 12558 72402 10049 20003 39748 40137 50000 69902 871// 333 10053 20021 3/001 55300 87825
AAXX 15061 11035 11982 82602 10063 20032 39885 40138 57007 69902 76062 8807/ 333 10098 20026 87360 91115
AAXX 15061 11036 11780 81703 10039 20019 39920 40146 57006 69902 70262 333 20022 31003 82650 87359
AAXX 15061 11101 12570 71803 10040 20020 39599 40130 55001 69912 875// 333 10075 20031 87630
AAXX 15061 11120 12259 72502 10020 20018 39422 40136 57008 69902 333 20002 3/103 83705 85610
AAXX 15061 11126 16/// /1618 11044 21063 37651 48414 58011 69912 333 11030 21051 55300 91124
AAXX 15061 11130 17/// /1201 10020 20016 39537 40133 57010 60032 7//4/ 333 10073 20015 3/000 55300
AAXX 15061 11146 11/00 92507 11094 21106 36865 47963 57009 60092 77274 333 11075 21094 49122 89/00 91122 92612 93118
AAXX 15061 11150 12980 79901 10015 20009 39589 40138 55007 60022 333 20011 31000 87080
AAXX 15061 11155 17/// /1708 11027 21044 38295 48427 58014 60072 7//8/ 333 11008 21031 3/105 55300 91133
AAXX 15061 11157 11160 79902 10001 21001 39371 40155 58016 69992 72688 82671 333 21039 3/104 43006 81703 84362 85080 93197
AAXX 15061 11172 NIL
AAXX 15061 11190 12660 83601 10043 20017 39913 40149 57002 69902 885// 333 10046 20018 3/000 55300
AAXX 15061 11204 32575 81001 10007 21003 39353 40157 58003 885// 333 10018 20000 88630 555 10037 6000/
AAXX 15061 11212 11/00 92509 11022 21025 37777 48446 58001 69912 74974 333 21022 42005 91117 92612 93101
AAXX 15061 11231 01140 89901 10016 20016 39573 40153 58001 69912 71064 333 20001 32102 69905 82702 83708 87713
AAXX 15061 11240 01558 89901 10047 20041 39717 40159 53004 69962 76162 333 20029 34101 69915 83620 88626
AAXX 15061 11244 17/// /3601 10065 20050 39824 40153 53002 60012 7408/ 333 10096 20065 55300
AAXX 15061 11389 12550 70000 10042 20011 39812 40141 57008 69902 875// 333 10069 20034 3/001 55300 91115
BBXX 61002 15064 99421 10047 46/// ///08 10142 2//// 40210 52010 22200 00164 10602 70009
AAXX 15061 06431 NIL
AAXX 15061 06432 12480 72110 10054 20020 39938 40014 56007 69922 85832 333 20038 30002 81817 83633 85650 91114 91210
AAXX 15061 06449 12480 72109 10044 20013 39796 40024 57005 60012 875// 333 20037 31002 84619 85656 91116 91210
AAXX 15061 06450 11575 72107 10058 20021 39986 40002 56008 60012 78086 878// 333 20042 32003 84821 87625 91112 91208
AAXX 15061 06458 12583 72109 10053 20022 39864 40017 56006 60012 70186 8582/ 333 20027 32002 83822 84626 87465 91114 91211
AAXX 15061 06465 11581 72006 10058 20019 39948 40014 55003 69922 76022 875// 333 20033 31001 83623 85630 87635 91110 91207
AAXX 15061 06478 12580 72009 10046 20011 39807 40027 57005 69932 875// 333 20035 31003 82620 86635 91113 91209
AAXX 15061 06496 11465 72207 10014 20001 39361 40039 55001 60022 70387 878// 333 20005 32000 81713 83820 87634 91115 91208
AAXX 15061 06400 11460 71907 10045 20035 39974 49985 55009 60322 72586 878// 333 20025 32003 81818 83624 85645 91114 91211
AAXX 15061 06428 11564 72008 10050 20026 39950 49999 58010 60032 78022 878// 333 20038 32002 82820 87630 91113 91209
AAXX 15061 06451 11575 82208 10056 20020 39943 40010 56006 69962 76082 875// 333 20033 31003 85624 87635 91113 91209
AAXX 15061 06456 11481 72210 10041 20016 39667 40035 56002 69962 70262 875// 333 20031 31002 81712 87617 91114 91210
AAXX 15061 06476 17380 82206 10017 20003 39382 40049 54001 60022 70076 333 20010 3/001 82/08 86/10 88/12 91114 91207
AAXX 15061 06479 12582 72106 10057 20018 39938 40018 55001 69922 875// 333 20029 31001 83629 87639 91111 91208
AAXX 15061 06490 17482 82106 10021 20005 39468 40041 57003 60032 70076 333 20008 3/001 82/13 84/17 85/20 91112 91206
AAXX 15061 06590 11475 72206 10036 20020 39613 40067 53008 60062 70162 875// 333 20027 31002 87615 91115 91210
AAXX 15061 45032 36/// /0004 10224 20073 30171 40188 57002
AAXX 15061 45035 36/// /0004 10213 20096 30143 40185 57003
AAXX 15061 45039 36/// /0503 10219 20094 30168 40182 57003
AAXX 15061 45044 36/// /3403 10235 20108 30090 40182 57002
AAXX 15061 45032 36/// /0004 10224 20073 30171 40188 57002
AAXX 15061 45035 36/// /0004 10213 20096 30143 40185 57003
AAXX 15061 45039 36/// /0503 10219 20094 30168 40182 57003
AAXX 15061 45044 36/// /3403 10235 20108 30090 40182 57002
BBXX UFTA 15061 99851 71230 32997 20901 11387 21423 40130 52010 80001 555 48045
AAXX 15061 01047 11688 81810 10007 21014 39482 49850 53010 69992 73673 8802/ 333 21001 44022 70023
AAXX 15061 01049 16/// /1507 10039 21012 39834 49838 51008 60022 333 20023 70021 91119
AAXX 15061 01241 11588 71406 10059 21004 39729 49740 52009 60002 70322 81872 333 20032 70000 91116
AAXX 15061 01397 16/// /1202 10002 21001 39398 49827 52008 60032 333 20002 70042 91105
AAXX 15061 01367 11785 51002 10004 21015 39373 49807 52006 60002 70321 83520 333 21001 47020 70009 91108
AAXX 15064 91930 36/// ///// 10276 20219
AAXX 15064 91943 36/// /1008 10267 20221 30151 40153 51019 333 20267 58011
AAXX 15064 89061 379// 00109 10032 20005 39999 40006 57005 76177 333 91012 91114
BBXX WE4805 15064 99467 70921 43/// 82701 10016 2//// 40030 57/// 70002 88/// 22200 0//// 20000 3//// 4//// 5//// 6//// 8//// ICE /////
BBXX WFLG 15064 99329 71203 41498 13505 10122 20102 40257 54000 70200 811// 22224 00122 20301 335// 40504 5//// 6//// 80111 ICE /////
BBXX LAVW4 15064 99348 70205 41696 51607 00/// 10180 2015/ 40305 53005 70110 8526/ 22253 00186 20801 331// 41004
BBXX NWS0029 15064 99219 70378 43/// /1116 10243 20182 40177 5//// 7//// 8//// 222// 04254 2//// 3//// 4//// 5//// 6//// 8//// ICE /////
BBXX KAOU 15064 99069 10959 43/// /0612 10286 20236 40089 5//// 7//// 8//// 222// 04301 2//// 3//// 4//// 5//// 6//// 8//// ICE /////
BBXX WRAH 15063 99332 10264 41598 33509 10180 2//// 40222 52007 70200 831// 22264 00191 20202 33227 40404 50502 6//// 8//// ICE /////
BBXX NWS0003 15064 99570 71660 43/// /0547 10010 21004 49689 5//// 7//// 8//// 222// 04030 2//// 3//// 4//// 5//// 6//// 8//// ICE /////
BBXX NWS0020 15064 99375 10094 43/// /2421 10164 20119 40229 5//// 7//// 8//// 222// 04181 2//// 3//// 4//// 5//// 6//// 8//// ICE /////
BBXX C6XP7 15063 99198 70675 41298 40330 10260 20246 40120 54/// 75010 832// 22274 00260 20304 323// 4//// 5//// 6//// 80250 ICE /////
BBXX WKAB 15063 99409 70405 41297 82013 10180 20180 40016 52050 7//62 88/// 22224 00176 20507 323// 40610 5//// 6//// 80180 ICE /////
BBXX C6XC2 15064 99009 31266 41498 52509 10300 20246 40060 57020 75222 8493/ 22233 00300 20302 3//// 4//// 5//// 6//// 80260 ICE /////
BBXX WXJ63 15063 99611 71464 41/96 82303 11013 21018 40075 55/// 785// 8//// 222// 00046 2//// 3//// 4//// 5//// 6//// 8//// ICE /////
BBXX WQZ9670 15064 99441 70823 43/94 /1725 10083 2//// 40051 57/// 7//// 8//// 22243 0//// 2//04 3//// 4//// 5//// 6//// 8//// ICE /////
BBXX WNBE 15064 99199 71566 41/// /0533 10240 2//// 4//// 5//// 7//// 8//// 222// 0//// 2//// 3//// 4//// 5//// 6//// 8//// ICE /////
AAXX 15064 03827 17671 /2715 10058 20033 39942 40004 51040 60022 723// 90550 333 20050 3/003 70036 81/33 83/56 90710 91125
AAXX 15064 03894 11570 72735 10070 20007 40019 53021 60052 78082 8793/ 333 20048 32003 83920 84626 85648 90710 91151
AAXX 15064 03002 17570 /3117 10055 20024 39770 49788 53035 60032 723// 90550 333 20045 3/003 70050 81/23 84/32 90710 91125
AAXX 15064 03008 16/// /2918 10047 20011 39747 49815 53028 60022 90550 333 20045 70062 90710 91129
AAXX 15064 03010 46/// /2919 10070 20030 49835 52019 333 90710 91131
AAXX 15064 03014 46/// /3306 10044 20009 49812 52031 90550 333 8////
AAXX 15064 03031 17584 /3204 10012 20002 39550 49875 52019 60032 723// 90550 333 20004 3/100 55/// 553// 20000 70142 81/23 87/70
AAXX 15064 03034 17766 /2606 10057 20028 39857 49870 53019 60072 723// 90550 333 20033 3/001 70082 85/50
AAXX 15064 03037 15682 /1906 10028 20022 39858 49880 53022 60012 90550 333 20025 3/001 70018 83/44
AAXX 15064 03039 46/// /2912 11008 21008 90550 333 21013
AAXX 15064 03041 46/// ///// 11036 21036 90550 333 21045 91011
AAXX 15064 03044 17580 /0803 10015 20007 39758 49857 53018 60022 741// 90550 333 20013 3/101 55/// 553// 20000 70100 84/29 83/69
AAXX 15064 03047 17464 /3103 10014 20006 39588 49890 53018 60022 781// 90550 333 20009 3/101 55/// 553// 20000 70066 83/11 83/16 85/28
AAXX 15064 03062 15981 /2109 10024 20003 39855 49860 53018 60022 90550 333 20017 3/101 55/// 553// 20000 70026 87/67
AAXX 15064 03065 46/// /2731 11040 21046 90550 333 21049 90710 91147
AAXX 15064 03068 12584 72512 10035 20010 39852 49861 53018 60002 84872 90550 333 20022 31101 79999 82825 84656 86362
AAXX 15064 03072 46/// ///// 11030 21032 90550 333 21032 91000
AAXX 15064 03080 15978 /2605 10003 21024 39701 49872 53017 60002 90550 333 21018 3/104 70000 81/60
AAXX 15064 03088 15978 /2410 10006 21001 39711 49875 53016 60002 90550 333 20002 3/103 55/// 553// 20000 70000 84/61 83/70
AAXX 15064 03094 15970 /2819 10056 20023 39845 49850 53016 69902 90550 333 20040 3/003 79999 8//99
AAXX 15064 03105 15981 /3311 10043 20027 39869 49886 53018 60022 90550 333 20033 3/002 70054 8//99
AAXX 15064 03132 17444 /2605 10023 20023 39889 49902 51018 69902 782// 90550 333 21022 3/106 70032 83/14 83/23 85/56
AAXX 15064 03144 17580 /2506 10017 21002 39842 49885 52016 69902 721// 90550 333 20008 3/102 55/// 553// 20000 70002 81/21 86/57
AAXX 15064 03148 46/// /2204 11002 21006 90550 333 21006
AAXX 15064 03153 15475 /2807 10031 20016 39763 49900 53021 69902 90550 333 20016 3/101 55/// 553// 20000 70042 87/16
AAXX 15064 03155 16481 /2012 10009 20000 39594 49891 52012 60002 90550 333 21004 3/103 70040 82/19
AAXX 15064 03158 17984 /2103 11008 21014 39752 49890 53012 69902 741// 90550 333 21014 3/105 55/// 553// 20000 70002 8//99
AAXX 15064 03210 16570 /2010 10026 20019 39757 49908 53017 60042 90550 333 20019 3/101 70102 81/20 84/68
AAXX 15064 03212 17762 /1003 10023 20019 39805 49904 53012 60032 723// 90550 333 20021 3/101 70192 81/50 83/66
AAXX 15064 03214 17475 /1503 10036 20024 39889 49907 53023 69962 781// 90550 333 20036 3/003 70040 88/10
AAXX 15064 03220 16966 ///// 10025 20018 39863 49898 53010 69942 90550 333 20023 3/101 70040 81/64 85/68
AAXX 15064 03224 15764 /2609 10012 20007 39551 49896 53004 69942 90550 333 20003 3/101 70100 88/56
AAXX 15064 03225 16773 /1702 10011 20002 39597 49903 51009 60032 90550 333 20006 3/101 55/// 553// 20000 70102 87/50
AAXX 15064 03226 15681 /1504 10017 20008 39625 49900 53008 69982 90550 333 20007 3/101 70022 87/48
AAXX 15064 03227 46/// /2809 11014 2//// 90550 333 21025
AAXX 15064 03230 16873 /0402 10008 20004 39638 49895 53006 60002 90550 333 20000 3/101 70002 87/57 87/63
AAXX 15064 03238 15970 /2403 10010 20000 39718 49891 53003 60002 90550 333 20000 3/104 70006 83/63
AAXX 15064 03261 11235 81201 10003 21002 39864 49905 53005 60002 71011 8667/ 90550 333 20000 34102 70026 86704 88468 92600
AAXX 15064 03265 17238 /1505 10005 20000 39874 49905 53003 60002 710// 90550 333 21016 3/104 70022 87/05 87/61
AAXX 15064 03266 11350 81003 10008 20002 39884 49901 53002 60002 710// 886// 90550 333 21002 34103 70018 86707 88712
AAXX 15064 03275 15961 /1802 10003 21014 39705 49898 55003 60002 90550 333 20002 3/103 79999 81/68
AAXX 15064 03281 16/// /2208 11001 21001 69962 90550 333 21014 70052
AAXX 15064 03903 16570 /1703 10021 20019 39862 49920 52022 60012 90550 333 20000 3/103 55/// 553// 20000 70018 82/26 85/63
AAXX 15064 03904 17981 /2504 10021 20012 39854 49914 53021 60012 721// 90550 333 20010 3/101 70022 83/69
AAXX 15064 03907 17682 /2110 10035 20022 39896 49904 53021 69922 723// 90550 333 20011 3/102 55001 55300 20000 70108 81/32
AAXX 15064 03911 16676 /2812 10020 20015 39639 49912 53021 60012 90550 333 21005 3/102 4/006 70038 82/43
AAXX 15064 03915 16771 /1406 10014 20014 39823 49902 53017 69962 90550 333 21004 3/105 70076 82/50
AAXX 15064 03916 16481 /2508 10022 20018 39707 49897 53015 60022 90550 333 20007 3/101 55/// 553// 20000 70078 84/14 84/50
AAXX 15064 03923 17580 /2708 10021 20003 39718 49914 53022 69902 723// 90550 333 21005 3/105 70006 82/25 87/57
AAXX 15064 03301 16480 /2605 10039 20039 39857 49930 51049 60052 90550 333 20025 70054 82/14 86/43
AAXX 15064 03305 17465 /2410 10029 20012 39669 49930 53049 60092 782// 90550 333 20017 3/001 70094 84/15 84/20 85/24 90710 91132
AAXX 15064 03313 16386 /3009 10027 20024 39826 49920 53043 60052 90550 333 20019 3/101 70048 87/06 83/15
AAXX 15064 03316 17356 /0106 10028 20021 39898 49909 53031 60032 781// 90550 333 20026 3/001 70028 87/08
AAXX 15064 03318 16/// /0503 10018 20011 60052 90550 333 20018 70062
AAXX 15064 03321 16459 /3113 10034 20022 39898 49910 53033 60012 90550 333 20013 3/101 55/// 553// 20000 70010 85/11 83/15
AAXX 15064 03330 17122 /3301 10002 21006 39538 49900 53011 60022 767// 90550 333 20002 3/101 70026 88/02
AAXX 15064 03344 17103 /3602 10000 21006 39584 49903 53008 69902 772// 90550 333 20000 3/101 70048 87/02 85/07
AAXX 15064 03346 16/// /0403 11001 21004 60002 90550 333 21001 3/101 70000
AAXX 15064 03348 17362 /3203 10021 20015 39791 49899 53016 60042 723// 90550 333 20015 3/101 55027 55300 20000 70036 88/09
AAXX 15064 03355 17334 /1004 10005 20004 39889 49900 55001 69902 781// 90550 333 21013 3/105 55027 55300 20000 70002 84/08 87/16
AAXX 15064 03373 16435 /1205 10007 20003 39822 49892 56016 69962 90550 333 21003 3/101 70006 87/15
AAXX 15064 03379 16541 /1409 10011 20007 39816 49893 56019 60022 90550 333 20001 3/101 70018 86/22 84/35
AAXX 15064 03382 17531 /0102 11002 21002 39891 49900 56008 69902 747// 90550 333 21017 3/104 55037 55300 20000 70002 83/25 85/50
AAXX 15064 03385 46570 /1710 10020 20016 39888 49898 56017 90550 333 20002 84/26 85/48
AAXX 15064 03391 11670 81508 10025 20011 39887 49894 56022 69922 76061 885// 90550 333 21002 31103 70002 86630
AAXX 15064 03392 16669 /1616 10041 20024 39895 49899 56024 60002 90550 333 20012 3/000 70000 85/31 86/44
AAXX 15064 03405 16581 /2825 10053 20024 39830 49945 51055 60062 90550 333 20036 3/003 55/// 553// 20000 70056 83/22 90710 91136
AAXX 15064 03409 16/// /2513 10040 20013 60032 90550 333 20023 3/000 55001 55300 2//// 70040
AAXX 15064 03410 16461 /2712 10021 20011 39490 49923 53048 60062 90550 333 20003 3/101 55/// 553// 20000 70096 82/11 90710 91127
AAXX 15064 03469 15672 /1611 10027 20015 39894 49897 56026 60002 90550 333 20007 3/101 55/// 553// 20000 70000 87/48
AAXX 15064 03488 15781 /1714 10024 20009 39885 49910 56022 60002 90550 333 20015 70000 82/50
AAXX 15064 03503 17480 /2914 10057 20025 39869 49945 51069 60072 723// 90550 333 20031 3/100 70086 81/17 85/21 90710 91128 91028
AAXX 15064 03507 17474 /2705 10031 20020 39578 49948 51066 60092 723// 90550 333 20016 3/100 70110 87/13 91016
AAXX 15064 03520 16577 /2915 10050 20023 39800 49920 53051 60032 90550 333 21002 3/103 55/// 553// 20000 70044 81/20 87/26 90710 91129 91026
AAXX 15064 03522 17681 /2718 10055 20025 39834 49925 53051 60042 723// 90550 333 20024 3/101 70042 85/34 90710 91130 91028
AAXX 15064 03529 17583 /2818 10057 20029 39874 49916 53031 60022 723// 90550 333 20030 3/001 70016 87/22 86/59 90710 91126
AAXX 15064 03544 17482 /2516 10046 20035 39763 49892 55005 69982 723// 90550 333 20010 3/101 55/// 553// 20000 70008 87/11
AAXX 15064 03560 17461 /2114 10045 20034 39791 49894 56023 69922 762// 90550 333 20007 3/101 55/// 553// 20000 70002 87/13
AAXX 15064 03604 16680 /2915 10066 20035 39913 49966 51041 60042 90550 333 20053 3/004 70056 83/32 90710 91130
AAXX 15064 03605 16665 /2818 10062 20029 39956 49965 51053 60042 90550 333 20057 70050 81/43 90710 91129
AAXX 15064 03609 16/// /2713 10060 20021 39917 49969 51061 60022 90550 333 20057 3/004 70068 90710 91128
AAXX 15064 03628 15681 /2521 10053 20028 39875 49947 53048 60022 90550 333 20029 3/001 55000 55300 20000 70196 86/30 90710 91134
AAXX 15064 03647 16471 /2721 10045 20030 39657 49909 53013 60052 90550 333 20006 3/101 55/// 553// 20000 70074 87/17 83/25 90710 91138 91032
AAXX 15064 03658 11580 72416 10057 20023 39853 49922 55000 69982 72161 875/1 90550 333 20012 3/101 70032 85624 87635 90710 91134 91026
AAXX 15064 03660 17481 /2611 10043 20031 39668 49914 55014 60022 723// 90550 333 20015 3/101 70048 87/15 90710 91135 91025
AAXX 15064 03672 11480 72419 10061 20018 39880 49920 56014 69922 760// 865/1 90550 333 20022 31101 70010 81618 83625 86645 90710 91128
AAXX 15064 03684 17576 /2112 10047 20022 39808 49913 56029 69902 781// 90550 333 20015 3/101 79999 84/23 84/57
AAXX 15064 03693 16680 /2015 10065 20034 39925 49928 56025 60002 90550 333 20047 3/003 70000 81/46 83/65
AAXX 15064 03707 17667 /2923 10082 20034 39969 49976 51045 60042 723// 90550 333 20041 3/003 70116 83/31 84/38 90710 91138
AAXX 15064 03710 16676 /2922 10035 20023 39551 49969 51047 60092 90550 333 20010 3/100 55/// 553// 2//// 70132 81/44 90710 91136 91032
AAXX 15064 03743 16680 /2617 10053 20014 39786 49946 53020 60022 90550 333 20022 3/000 70034 83/34 90710 91134 91030
AAXX 15064 03749 11480 72620 10054 20020 39838 49948 53013 69982 725// 878// 90550 333 20013 31101 70016 82819 83628 86640 90710 91133
AAXX 15064 03761 11580 72423 10052 20026 39794 49937 53002 60022 72162 875// 90550 333 20014 31102 55019 55300 20000 70018 83623 87630 90710 91135
AAXX 15064 03768 16566 /2618 10056 20030 39856 49935 55002 60022 90550 333 20030 3/000 70016 83/22 85/29 90710 91137 91029
AAXX 15064 03769 17679 /2415 10073 20030 39854 49935 55010 69922 723// 90550 333 20020 3/102 55013 55300 20000 70002 83/34 86/42 90710 91125
AAXX 15064 03770 16/// ///// 10068 20029 60002 90550 333 20039 3/101 70002
AAXX 15064 03781 17568 /2415 10054 20034 39728 49932 56013 69942 781// 90550 333 20023 3/101 55/// 553// 20000 70004 85/23 86/34 90710 91125
AAXX 15064 03797 15971 /2013 10057 20025 39884 49944 56023 69902 90550 333 20028 3/000 55007 55300 20000 79999 83/73
AAXX 15064 03823 17568 /2921 10065 20027 39754 49995 51034 60042 723// 90550 333 20021 3/000 55/// 553// 20000 70102 81/28 86/45 90710 91138 91038
AAXX 15064 03839 16/// ///// 10066 20024 60022 90550 333 20031 55/// 553// 20000 70020
AAXX 15064 03857 17562 /3030 10081 20047 39910 49973 53029 60022 723// 90550 333 20058 3/003 70024 84/22 84/37 90710 91153 91042
AAXX 15064 03862 15984 /2723 10061 20020 39952 49964 53021 60022 90550 333 20032 3/100 55017 55300 20000 70016 81/61 90710 91133 91033
AAXX 15064 03866 16/// /2735 10080 20039 39935 49959 53011 60032 90550 333 20066 3/005 70048 90710 91153 91046
AAXX 15064 03872 15981 /2725 10071 20026 39947 49952 53004 60022 90550 333 20052 3/001 55/// 553// 20000 70018 81/63 90710 91141
AAXX 15064 03876 16/// /2624 10080 20030 39945 49947 55007 60032 90550 333 20049 70038 90710 91136 91035
AAXX 15064 03895 41470 72834 10083 20040 40028 53017 78098 8693/ 333 20045 82918 86830 90710 91150 91047
AAXX 15061 10004 46/60 /2216 10069 20044 39948 49948 52004 222// 08089 333 10081 20060 55006 55300 911/4 91218 555
AAXX 15064 68024 32960 21505 10224 20082 48498 51009 80002 333 20161
AAXX 15064 68026 32960 43201 10220 20181 48475 53001 83071 333 20185
AAXX 15064 68029 12460 70204 10225 20207 48503 52014 60024 84770 333 20202
AAXX 15064 68038 12560 81205 10227 20215 48501 52017 8397/ 333 20202
AAXX 15064 68054 12460 80805 10202 20194 48527 51016 60544 8657/ 333 20194
AAXX 15064 68070 11560 80707 10200 20193 48511 52018 60074 76162 885// 333 20200
AAXX 15064 68226 32960 20000 10190 20045 48510 52014 80002 333 20140
AAXX 15064 68234 32960 61810 10215 20036 48505 52010 80008 333 20132
AAXX 15064 68240 12360 41806 10218 20174 48508 52017 60124 81584 333 20174
AAXX 15064 68320 32960 20608 10216 20038 48516 52013 80004 333 20150 30124 60073
AAXX 15064 68328 32960 11806 10182 20049 48508 52014 333 20125
AAXX 15061 26554 11560 72005 10056 20024 39900 40062 56006 60022 70262 875// 333 20031 87620 91111 555 90011
AAXX 15061 26666 11358 81805 10052 20033 39889 40103 57017 69902 71062 886// 333 20041 88709 91010 91113 555 90012
AAXX 15061 26850 11456 82004 10046 20024 39826 40097 54000 69902 71064 885// 333 20023 88713 555 90010
AAXX 15061 26863 11235 81706 10046 20039 39887 40124 56003 69912 71065 886// 333 20039 88705 91111
AAXX 15061 26941 31958 71702 10045 20028 39867 40104 53009 71022 87070 333 20026 555 90010
AAXX 15061 26951 31358 82005 10042 20030 39918 40117 53006 71022 886// 333 20024 88709 555 90013
AAXX 15061 33008 32565 72003 10055 20025 39935 40113 52011 87500 333 20055 555 90010
AAXX 15061 33019 31956 61602 10033 20023 39948 40124 53005 71022 86030 333 20027 555 90010
AAXX 15061 33036 31158 81802 10047 20035 39914 40145 57003 71022 886// 333 20045 88703 555 90012
AAXX 15061 33041 11241 81604 10048 20043 39999 40155 57006 69922 72052 886// 333 20048 88704 555 90012
AAXX 15064 78583 11470 63003 10225 20221 40166 69901 70381 86800 333 01100 59013 86815
BBXX 46089 15061 99459 71258 46/// /1905 10094 20091 40147 53013 90550 22200 00098 10706 20502 319// 40706 70032 333 91207 555 11056 22059 30512 41714 60549 187051 174061 176081 181098 168107 171097
BBXX 46042 15061 99368 71224 46/// /2003 10111 40241 58008 90550 22200 00128 11303 330// 41303 70016 333 91204 555 11028 22029 30546 41904 60549 203028 196026 195024 194021 207013 203011
BBXX 46053 15061 99342 71198 46/// /2602 10134 40248 51007 90550 22200 00140 11101 329// 41101 70007 333 91203 555 11019 22019 30452 42703 60549 265019 267020 258014 264016 261017 261020
BBXX 44039 15061 99411 70727 46/// /1605 10081 20040 40277 57018 90600 22200 00096 10201 70003 333 91206
BBXX 44060 15061 99413 70721 46/// ///06 10071 40268 58021 90600 22200 00111 333 91208 555 11067 22072
BBXX 44008 15061 99405 70692 46/// /1004 10073 20033 40271 58008 90550 22200 00115 11003 20401 311// 41003 70017 333 91205 555 11037 22038 30515 40905 60549 099037 102038 089033 083042 070033 054031
BBXX 44022 15061 99409 70737 46/// ///03 10084 20043 40262 58016 90600 22200 00090 333 91205 555 11036 22036
BBXX 46083 15061 99582 71380 46/// /1711 10044 20024 40125 57003 90550 22200 00063 10906 20805 300// 40903 70030 333 91213 555 11120 22128 30534 41814 60549 167112 172116 170110 162113 161116 161108 81713 90539
BBXX 41041 15061 99142 70460 46/// /1708 10234 20221 40114 56012 90550 22200 00266 11106 20504 3//// 41104 70029 333 91210 555 11087 22092 30501 41811 60549 168080 177079 179082 185082 180084 178087 81809 90535
BBXX 41038 15061 99341 70777 46/// /0702 10150 40261 58016 90600 22200 00141 333 91203
BBXX DCDO2 15063 99116 31521 41598 51606 10310 20249 40050 56010 70111 85145 22284 00300 20301 3//// 4//// 5//// 80265
BBXX PHJV 15063 99108 31412 41398 32514 10280 20233 40040 58019 70211 83162 22263 06296 20101 80246
BBXX PCCL 15063 99292 31593 41197 81810 10200 40128 57018 70300 887// 22223 04226 20501 314// 41004
BBXX A8IQ2 15060 99013 10883 41698 42301 10295 20240 40100 54000 70100 82461 22253 00300 20500 320// 41203 5//// 80255
BBXX PCDE 15063 99400 31039 41298 73502 10170 20119 40220 53020 7//// 8779/ 22223 20401 80140
BBXX PCIH 15063 99447 70086 41397 82840 10140 20085 40200 57020 70222 22214 00150 20510 328// 41412 80110
BBXX A8JI2 15064 99369 70264 41297 82124 10190 20159 40250 57020 70222 8/7// 22254 20402 322// 41406 5//// 80170
BBXX VRFX8 15064 99413 70278 41598 32124 10160 20140 40170 57020 70122 8//// 22254 00140 2//// 3//// 4//// 80150
BBXX UCJB 15061 99677 10094 41/98 /1013 10070 49715 57005 70222 8//// 22253 00100 20604
BBXX PFFH 15063 99379 10162 41/98 /2905 10152 40223 52003 7//// 8//// 22253 00166 2////
BBXX DGWD2 15063 99324 10297 41/98 33609 10176 20130 40222 52002 70200 831// 22224 00170 2//01 80148
BBXX UGGA 15061 99691 10408 41/98 92013 10020 40028 54000 70222 89/// 22251 20706
BBXX VRGJ6 15063 99366 10134 41598 12807 10178 20103 40247 54000 70200 81800 22224 04188 20101 322// 40302 5//// 80138
BBXX 51000 15061 99235 71541 46/// /1107 10227 40206 53012 90550 22200 00233 10905 20703 311// 40904 70023 333 91209 555 11077 22081 30531 41010 60549 110072 106078 106078 106073 105073 103076
BBXX 51003 15061 99193 71606 46/// /0603 10247 40169 51013 90550 22200 00260 11004 20401 3//// 41004 70018 333 91204 555 11030 22031 30529 40404 60549 053029 034028 028032 033028 030031 024028
AAXX 15064 78762 32970 50604 10201 20164 39095 40108 57006 8507/ 333 10252 20190 31/// 5622/ 58000 85358
AAXX 15064 78866 32480 50305 10257 20217 30108 40113 57014 85800 333 59006 85818
AAXX 15061 06414 16/// /2006 10045 20020 39959 49991 55005 60062 333 20040 91112 91208
AAXX 15061 06459 16/// /2109 10049 20031 39833 40026 57005 60012 333 20028 3/002 91114 91209
AAXX 15061 06494 16/// /2206 10002 21002 39238 40043 55001 60022 333 20000 91112 91208
AAXX 15064 78583 11470 63003 10225 20221 40166 69901 70381 86800 333 01100 59013 86815
AAXX 15061 26509 11470 82306 10056 20037 30004 40013 52025 60112 78082 889// 333 20047 31/// 91010 91117 555 53017 7012/
AAXX 15061 26518 11367 82304 10029 20027 40023 52025 60112 78086 889// 333 20024 42002 88908 91007 91112 555 53016 7012/
AAXX 15061 26524 11498 82205 10042 20032 39883 40015 53027 60052 70286 883// 333 20036 32/// 88918 91010 91113 555 53013 7005/
AAXX 15061 26531 11469 82204 10055 20043 40013 53012 60022 72162 885// 333 20037 31/// 88618 91012 91113 555 53013 7003/
AAXX 15061 26629 11597 82106 10053 20031 39950 40045 53017 69902 72162 8557/ 333 20039 31/// 91010 91113 555 53013 7990/
AAXX 15061 26633 11670 72005 10062 20028 39906 40035 53013 69982 70162 87500 333 20031 31/// 87648 91008 91112 555 53012 7001/
AAXX 15061 26730 32670 82105 10054 20025 39872 40062 53015 885// 333 20030 31/// 91009 91111 555 53014 7994/
AAXX 15064 16040 11/02 90000 10026 20019 39218 42750 5//// 69922 745// 333 20026 31/// 55/// 2//// 89/01
AAXX 15064 70026 NIL
AAXX 15064 70133 NIL
AAXX 15064 70174 NIL
AAXX 15064 70200 NIL
AAXX 15064 70219 NIL
AAXX 15064 70231 NIL
AAXX 15064 70261 NIL
AAXX 15064 70267 NIL
AAXX 15064 70271 NIL
AAXX 15064 70273 NIL
AAXX 15064 70308 NIL
AAXX 15064 70316 NIL
AAXX 15064 70326 NIL
AAXX 15064 70340 NIL
AAXX 15064 70350 NIL
AAXX 15064 70361 NIL
AAXX 15064 70381 NIL
AAXX 15064 70398 NIL
AAXX 15064 70414 NIL
AAXX 15061 37682 32997 40000 11093 21100 38177 48591 57008 84040 333 21132 7000/
AAXX 15061 37717 32599 70000 11042 21054 38135 48574 52011 82534 333 21067 7000/
AAXX 15061 37788 41495 60000 11035 21075 39324 40376 52005 71022 866// 333 21036 86718
BBXX LADR4 15064 99241 11647 41898 61313 00/// 10280 2024/ 40165 54000 70222 86228 22273 00290 20403 3//// 4//// 5//// 6//// 80250
BBXX 4XFV 15063 99462 11448 43/97 93630 00/// 11020 21050 40010 50100 7//// 8//// 22254 0//// 20405 334// 40606 5//// 6//// 81030
BBXX C6YA7 15064 99193 11482 41998 10715 10295 2025/ 40110 56015 70200 8///5 22253 00280 20302 312// 40803 5//// 6//// 80260 ICE /////
BBXX SHIP 15063 99137 11272 41498 30524 10300 2025/ 40110 56010 70211 8318/ 22283 00290 20204 305// 40507 5//// 6//// 80260 ICE /////
BBXX C6SI6 15064 99318 11331 46/// /3114 10156 20057 40171 55007 7//// 8//// 22253 0//// 2////
BBXX ELWD5 15063 99180 11146 41396 80428 10250 20204 40120 57010 70522 8/72/ 22214 29907 80220
BBXX 46070 15061 99551 11753 46/// /2405 10003 21034 49839 51027 90550 22200 00039 11109 20402 3//// 41109 70045 333 91208 555 11055 22057 30456 42609 60549 241053 239054 260056 266058 270064 264063 82607 90457
BBXX KDUE 15064 99114 10742 41996 03609 10310 2023/ 40160 54000 70500 80000 22235 00293 20401 315// 40601 5//// 6//// 80250 ICE /////
BBXX DCLH2 15060 99029 70952 41/98 81808 10225 20211 40130 54000 75122 8//// 22273 06260 2//// 3//// 4//// 5//// 80215
BBXX 5BDK2 15064 99067 50798 41498 32713 10245 2024/ 40150 54000 70110 82485 22253 00260 20803 3//// 41003 5//// 6//// 80240 ICE /////
BBXX PDZS 15063 99532 50438 41297 12619 10040 20017 40170 52020 70100 81600 22242 02028 20402 325// 41006 5//// 80030
BBXX OVYB2 15061 99014 30664 41698 42707 10289 20240 40134 50002 70211 8334/ 22244 00290 20401 30000 4//// 5//// 80255
BBXX TBWUK18 15064 99287 50280 41597 40910 10220 20220 40211 54000 702// 844// 22222 20602 308// 41404 5//// 80220
BBXX C6OM8 15060 99016 70308 41396 81407 10264 20213 40099 56010 70200 887// 22243 06273 20402 314// 40402 5//// 80230
BBXX DCPY2 15064 99131 10567 41598 61814 10260 20215 40155 54000 70211 85464 22224 00250 20403 302// 40302 80230
BBXX BATFR56 15064 99136 30672 44998 21207 10272 20229 40124 51007 70000 82043 22252 00287 20802 314// 40802 5////
BBXX BATFR19 15064 99058 30097 46/// /1913 10247 20202 40125 53006 22200 00260
BBXX BATFR55 15064 99188 30562 44598 41311 10267 20234 40126 70311 83141 22232 00274 205// 33131 40802 50802
BBXX ONDY 15064 99017 30084 41598 81815 10250 2022/ 40120 54000 70222 88970 22244 00270 2//// 3//// 4//// 5//// 6//// 80230 ICE /////
BBXX 46088 15061 99483 71232 46/// /0503 10058 40183 90550 22200 00079 1//00 70002 333 91203 555 11028 22029 30457 40405 60549 049028 024035 023031 032030 036037 025040
BBXX 46105 15061 99590 71522 46/// ///// 1//// 90550 22200 10605 70024
BBXX 46025 15061 99337 71191 46/// /2802 10138 20099 40241 51006 90550 22200 00149 11202 323// 41201 70008 333 91203 555 11023 22023 30535 42903 60549 285022 286024 284016 277009 283002 278001
BBXX 46028 15061 99357 71219 46/// /3204 10116 40248 50003 90550 22200 00128 11503 20401 331// 41503 70017 333 91205 555 11037 22039 30451 43207 60549 324036 329036 323037 319048 323055 320059
BBXX 46054 15061 99342 71204 46/// /3204 10129 40249 51005 90550 22200 00140 11402 20401 300// 41402 70011 333 91205 555 11042 22043 30538 43105 60549 317040 315040 319041 320038 319035 327032
BBXX 46087 15061 99485 71247 46/// /1108 10061 20048 40177 52008 90550 22200 00078 11203 20401 327// 41203 70016 333 91210 555 11089 22094 30450 41211 60549 113083 117083 125083 129081 127084 124091
BBXX 46069 15061 99337 71202 46/// /3403 10126 40249 51007 90550 22200 00135 11503 20401 326// 41502 70013 333 91203 555 11028 22029 30458 43305 60549 345027 334027 328032 329035 327039 325040
BBXX 46011 15061 99350 71210 46/// /3206 10131 40254 53010 90550 22200 00135 11503 20601 332// 41502 70013 333 91208 555 11068 22072 30547 43208 60549 324062 327056 323055 324050 322044 324047
BBXX 46029 15061 99461 71245 46/// /1611 10074 20067 40163 51005 90550 22200 00082 10805 20805 328// 41303 70027 333 91214 555 11115 22122 30538 41714 60549 161107 172111 166109 164103 166104 168107
BBXX 46014 15061 99394 71240 46/// /1307 10093 40240 50020 90550 22200 00105 11304 20301 3//// 41304 70020 333 91209 555 11078 22082 30522 41409 60549 133075 134070 139073 143069 148068 154063
BBXX 46047 15061 99324 71195 46/// /3106 10130 40253 52006 90550 22200 00137 11602 20401 333// 41602 70012 333 91208 555 11065 22068 30546 43108 60549 311060 302059 305056 310056 309055 309058
BBXX 44065 15061 99404 70737 46/// /1707 10096 20053 40263 56019 90550 22200 00103 11002 20301 313// 41001 70009 333 91208 555 11074 22078 30533 41709 60549 174070 174071 172069 174068 172067 163065 81708 90533
BBXX 41004 15061 99325 70791 46/// /1004 10194 20114 40263 58015 90550 22200 00220 11102 20301 3//// 41102 70012 333 91205 555 11044 22045 30528 40906 60549 098044 098043 099047 097044 102046 100045
BBXX 41008 15061 99314 70809 46/// /0603 10179 20163 40258 58011 90550 22200 00168 11102 20401 300// 41102 70010 333 91204 555 11033 22038 30457 40605 60549 055029 059032 061034 062035 062038 064039
BBXX 44014 15061 99366 70748 46/// /0801 1//// 40271 56013 90550 22200 00147 11003 20401 310// 41003 70014 333 91202 555 11012 22012 30451 41004 60549 081011 062010 117008 135011 122019 106027
BBXX 44027 15061 99443 70673 46/// /0000 10024 21051 40274 56010 90550 22200 00088 10901 3//// 40901 70006 333 91201 555 11003 22003 30458 41904 60549 282004 224013 241021 220019 205022 186024
BBXX 46050 15061 99442 71246 46/// /1609 10084 40165 53007 90550 22200 00101 10807 20806 327// 41203 70033 333 91211 555 11097 22102 30504 41413 60549 157091 154098 150096 152109 152109 152111
BBXX 44040 15061 99410 70736 46/// /2004 10081 20043 40271 90545 22200 1//00 70002 333 91204 555 11046 22051
BBXX 44020 15061 99414 70702 46/// /1001 10058 21003 40273 58012 90550 22200 00086 10701 308// 40701 70003 333 91202 555 11012 22012 30455 42802 60549 116011 194010 204014 230014 277014 279017
BBXX CGDG 15064 99447 70636 46/// /0504 11015 21030 40280 56012 7//// 8//// 22200 0//// 2////
BBXX VOKJ 15064 99455 70735 46/// /1506 10030 20011 40165 58050 7//// 8//// 22200 0//// 2////
BBXX CGBY 15064 99487 71235 46/// /2803 10033 20022 40195 52010 7//// 8//// 22200 0//// 2////
BBXX CGTF 15064 99476 70527 46/// /2701 11029 21085 40242 51012 7//// 8//// 22200 0//// 2////
BBXX CGDR 15064 99498 71276 46/// /1322 10070 20069 40154 51023 7//// 8//// 22232 00126 2////
BBXX CGJV 15064 99447 70636 46/// /0204 11015 21060 40281 56010 7//// 8//// 22200 0//// 2////
BBXX VCBW 15064 99502 70607 46/// /2911 11048 21078 40222 56012 7//// 8//// 22200 0//// 2////
BBXX CGSB 15064 99468 70712 46/// /0305 10007 21009 40225 58023 7//// 8//// 22200 0//// 2////
BBXX VCRG 15064 99474 70619 46/// /2607 11003 21063 40270 56014 7//// 8//// 22200 0//// 2////
BBXX VOPP 15064 99456 70735 46/// /2704 10026 20022 4//// 5//// 7//// 8//// 22200 0//// 2////
BBXX 46026 15061 99378 71228 46/// /2304 10109 40243 55012 90550 22200 00122 11403 328// 41403 70014 333 91206 555 11046 22048 30450 43107 60549 241044 293042 293042 289043 298039 294051
BBXX 46041 15061 99474 71247 46/// /1212 10060 40161 51005 90550 22200 00079 11305 20604 3//// 41303 70023 333 91214 555 11125 22132 30534 41214 60549 116116 119112 121108 122111 122113 122109
BBXX VRZT9 15063 99224 70861 41698 61419 10240 2021/ 40200 54000 7//22 86272 22233 0//// 20805 3//// 40805 5//// 6//// 80220 ICE /////
BBXX 44007 15061 99435 70701 46/// /1807 10053 21006 40259 58025 90550 22200 00083 11002 20501 3//// 41002 70009 333 91208 555 11069 22072 30548 41808 60549 175065 178066 174062 176066 183056 182062
BBXX 46077 15061 99579 71543 46/// /0615 10039 20018 49931 58042 90550 22200 00056 10403 20403 3//// 41001 70017 333 91218 555 11160 22170 30544 40618 60549 062148 064145 064146 060138 061145 062146 80616 90452
BBXX 41040 15061 99145 70530 46/// /1405 10257 20239 40103 57013 90550 22200 00278 11005 20401 3//// 41005 70024 333 91206 555 11050 22052 30505 41607 60549 138048 144047 143053 145055 157053 153059 81506 90451
BBXX 46082 15061 99597 71434 46/// ///// 10049 20049 40093 53004 90550 22200 00059 11107 70036
BBXX 46035 15061 99571 71778 46/// /0515 1//// 49839 58005 90550 22200 11007 20606 300// 41004 70037 333 91218 555 11152 22162 30534 40620 60549 051152 052151 051152 051152 051139 052142 80516 90524
BBXX 46072 15061 99517 71722 46/// /2921 10019 20014 49657 51010 90550 22200 00051 11114 21114 70071 333 91226 555 11228 22244 30543 42926 60549 294207 293195 295189 293202 294187 293191 83023 90548
BBXX 42039 15061 99288 70860 46/// /1108 10219 40225 58011 90550 22200 00229 10502 20502 70011 333 91209 555 11080 22084 30543 41109 60549 110075 111074 114070 113069 115070 113065 81108 90529
BBXX PHCQ 15063 99320 70781 41/98 /0505 10190 20154 40248 51008 70011 8//// 22254 04257 20400 3//// 41003 5//// 80167
BBXX BAREU06 15064 99469 70576 46/// ///// 40255 52002 22274
BBXX WDB3161 15064 99541 71719 41496 80537 10025 2003/ 49639 53009 75352 887// 22263 00054 20711 307// 40911 5//// 6//// 80025 ICE /////
BBXX C6SE3 15064 99116 70685 41697 70512 10270 20250 40140 54/// 70322 879// 22262 00305 20802 305// 41503 5//// 6//// 80255 ICE /////
BBXX SHIP 15064 99501 71763 41698 32836 10010 21063 49850 54000 72681 834// 22224 00060 2//09 81224
BBXX BAREU11 15064 99105 70759 46/// ///// 40094 22200
BBXX BAREU00 15064 99463 70535 46/// ///// 40242 52009 22224
BBXX 46012 15061 99374 71229 46/// /2104 10110 40245 56010 90550 22200 00121 11303 331// 41303 70015 333 91205 555 11046 22048 30513 41706 60549 212045 216046 199044 170049 172043 179036
BBXX 41009 15061 99285 70802 46/// /0908 10221 20135 40248 58005 90550 22200 00245 11105 20603 300// 41104 70025 333 91210 555 11081 22085
BBXX 42364 15061 99291 70881 46/// /1510 10217 20167 40234 58003 90600
BBXX 41010 15061 99289 70785 46/// /0809 10210 40242 58011 90550 22200 00239 11105 20603 300// 41104 70024 333 91211 555 11094 22099
BBXX 42057 15061 99168 70815 46/// /0711 10275 20226 40136 58008 90550 22200 00281 10804 20804 70022 333 91213 555 11114 22121 30549 40613 60549 065113 067106 063110 064063 136040 102077 80612 90548
BBXX 42362 15061 99278 70907 46/// /1410 10233 20194 40210 58004 90600
BBXX 42363 15061 99282 70892 46/// /1507 10228 20167 40224 58010 90600 333 91208
BBXX 44172 15061 99445 70634 46/// ///// 1//// 90601 22200 00076 10903 20903 313// 41101 70016
BBXX VCLM 15064 99621 70747 46/// /2320 11169 21214 49989 53006 7//// 8//// 22200 0//// 2////
BBXX CGDX 15064 99468 70712 46/// /0305 10011 21006 40225 58023 7//// 8//// 22200 0//// 2////
BBXX VOKF 15064 99482 70695 46/// /1505 10001 21025 40222 58020 7//// 8//// 22214 00039 2////
BBXX VXKF 15064 99466 70599 46/// /3108 11013 21074 40263 56014 7//// 8//// 22212 0//// 2////
BBXX CGJK 15064 99484 71234 46/// /3608 10043 20032 40189 51009 7//// 8//// 22200 0//// 2////
BBXX CG2965 15064 99487 71235 46/// /2703 10035 20024 40196 51009 7//// 8//// 22200 0//// 2////
BBXX 3FZK3 15064 99541 71708 46/// /0140 10016 20016 49575 58039 7//// 8//// 22221 0//// 2////
BBXX CGBN 15064 99447 70636 46/// /0504 11006 21059 40266 56011 7//// 8//// 22200 0//// 2////
BBXX CGBR 15064 99535 71300 46/// /2805 10017 20016 40165 53005 7//// 8//// 22231 00070 2////
BBXX VCWL 15064 99456 70735 46/// /0000 10020 20008 40170 58052 7//// 8//// 22200 0//// 2////
BBXX VCSZ 15064 99487 70629 46/// /2614 11024 21047 40245 56007 7//// 8//// 22234 0//// 2////
BBXX CG2958 15064 99487 71235 46/// /2803 10034 20029 40204 51010 7//// 8//// 22200 0//// 2////
BBXX CGCC 15064 99460 70731 46/// /0810 10004 21001 40182 58045 7//// 8//// 22200 0//// 2////
BBXX 51101 15061 99243 71621 46/// /1405 10239 20204 40178 53014 90550 22200 00244 11004 20401 311// 41004 70021 333 91206 555 11051 22053 30529 41407 60549 142048 142050 147055 142052 137056 141055
BBXX 46061 15061 99602 71468 46/// /1306 10048 40065 54000 90550 22200 00053 11104 20502 300// 41104 70022 333 91209 555 11062 22066 30451 41511 60549 134058 136051 139049 143055 148044 148080
BBXX 3FBC9 15064 99221 71398 41697 50922 10220 40195 51010 70222 85192 9//// 22223 00230 20306 307// 41208 5//// 6//// 80180
BBXX C6XP7 15063 99198 70675 41298 40330 10260 20246 40120 54/// 75010 832// 22274 00260 20304 323// 4//// 5//// 6//// 80250 ICE /////
BBXX PGQI 15063 99260 70431 41597 51024 10220 20193 40165 58021 76061 84740 22263 20703 80202
BBXX H9UY 15064 99190 71295 41697 70526 00/// 10200 40236 51/// 70122 86493 9//// 22263 04210 20204 336// 40305 5//// 6//// 80180
BBXX PDBP 15063 99362 70736 41598 13205 10165 20073 40263 54000 70211 81100 22214 04231 2//00 306// 41103 80115
BBXX WKAB 15063 99409 70405 41297 82013 10180 20180 40016 52050 7//62 88/// 22224 00176 20507 323// 40610 5//// 6//// 80180 ICE /////
BBXX PHBO 15063 99169 70583 41/98 32608 10266 20222 40097 58012 70311 82205 22254 20502 307// 41004 80236
BBXX CGDT 15064 99490 70669 46/// /1705 11023 21056 40249 56012 7//// 8//// 22200 0//// 2////
BBXX CZ9742 15064 99506 70969 46/// /2303 11052 21053 40064 55001 7//// 8//// 22200 0//// 2////
BBXX VAAZ 15064 99549 70533 46/// /2520 11053 21077 40115 55004 7//// 8//// 22271 0//// 2////
BBXX VAAP 15064 99446 70636 46/// /0205 11009 21066 40271 56010 7//// 8//// 22200 0//// 2////
BBXX PBAD 15061 99075 70798 41398 73109 10260 20231 40090 57011 70022 879// 22214 00270 20501 3//// 4//// 5//// 80240
BBXX FVNM 15064 99065 70949 46/// /0115 10254 20229 40120 58006 22200 00267
BBXX WDC6698 15064 99099 71456 43/// /1016 10274 20263 40130 5//// 7//// 8//// 222// 04254 2//// 3//// 4//// 5//// 6//// 8//// ICE /////
BBXX UFTA 15061 99851 71230 32997 20901 11387 21423 40130 52010 80001 555 48045
BBXX WDD3826 15064 99393 70612 41698 70230 10130 2007/ 40196 56006 72522 872// 22224 00190 20304 303// 40605 5//// 6//// 80100 ICE /////
BBXX DBIP 15063 99312 70396 41097 41630 10210 20164 40190 56005 70311 83160 22223 04220 21208 3//// 4//// 5//// 80180
BBXX WNBE 15064 99199 71566 41/// /0533 10240 2//// 4//// 5//// 7//// 8//// 222// 0//// 2//// 3//// 4//// 5//// 6//// 8//// ICE /////
BBXX 9HA2583 15064 99221 70725 41797 60319 10254 2//// 40190 54/// 70211 86246 22244 04276 2//// 3//// 4//// 5//// 6//// 8//// ICE /////
BBXX V7NV4 15064 99225 71153 41798 83624 10200 20153 40190 52005 70321 87332 22273 00250 20204 30303 40204 50202 6//// 80170 ICE /////
BBXX 9HXC9 15064 99196 70655 41598 30334 10251 20174 40110 54003 7//11 83070 22274 06283 20604 3//// 40802 5//// 6//// 80200 ICE /////
BBXX SHIP 15064 99338 71389 41/97 /0403 10180 20148 40294 52018 70112 8//// 90555 22224 00160 1//// 2//// 3//// 4//// 5//// 6//// 80160
BBXX C6SA3 15064 99132 70693 41/// /0516 10280 20239 40100 54/// 7//// 8//// 22253 00280 2//// 3//// 4//// 5//// 6//// 80250 ICE /////
BBXX WBN3015 15064 99298 70721 41/// /3620 10194 2//// 40200 51003 7//// 8//// 22272 0//// 20605 33604 40804 50601 6//// 8//// ICE /////
BBXX 4XFX 15064 99519 71470 41/96 81445 00/// 10060 2004/ 49970 57070 76262 88/// 22274 0//// 2//// 3//// 4//// 5//// 6//// 80050 ICE /////
BBXX 44011 15061 99411 70666 46/// /0605 10069 20026 40265 50000 90550 22200 00097 11005 20501 3//// 41004 70023 333 91207 555 11056 22058 30503 42309 60549 057055 051058 054065 058069 049066 041068
BBXX 41046 15061 99238 70683 46/// /0408 10240 20153 40170 58007 90550 22200 00260 11007 20704 300// 41005 70033 333 91210 555 11085 22089 30451 40211 60549 035080 035080 039080 028085 030082 029089 80210 90459
BBXX 46238 15061 99334 71195 46/// ///// 1//// 90550 22200 00147 11202 21002 324// 41201 70010
BBXX 46214 15061 99379 71235 46/// ///// 1//// 90555 22200 00117 11303 21001 330// 41303 70015
BBXX 46224 15061 99332 71175 46/// ///// 1//// 90536 22200 00152 11301 20601 320// 41301 70006
BBXX 41110 15061 99341 70777 46/// ///// 1//// 90551 22200 00141 11102 21001 311// 41101 70009
BBXX 41114 15061 99276 70802 46/// ///// 1//// 90546 22200 00229 11004 21004 307// 41101 70020
BBXX 42099 15061 99273 70842 46/// ///// 1//// 90557 22200 00235 10503 20503 70014
BBXX 41113 15061 99284 70805 46/// ///// 1//// 90551 22200 00222 11103 20602 310// 41101 70013
BBXX 41112 15061 99307 70813 46/// ///// 1//// 90551 22200 00171 11202 21002 310// 41201 70011
BBXX 44099 15061 99369 70757 46/// ///// 1//// 90552 22200 00127 11002 21002 310// 41101 70010
BBXX 46240 15061 99366 71219 46/// ///// 1//// 90542 22200 00126 11301 21001 300// 41301 70007
BBXX 46218 15061 99345 71208 46/// ///// 1//// 90602 22200 00145 11303 20802 328// 41302 70015
BBXX 46236 15061 99368 71219 46/// ///// 1//// 90550 22200 00127 11302 20801 329// 41302 70010
BBXX 46229 15061 99438 71246 46/// ///// 1//// 90551 22200 00103 10806 20805 328// 41303 70029
BBXX 46225 15061 99329 71174 46/// ///// 1//// 90544 22200 00155 11201 20801 322// 41201 70006
BBXX 46215 15061 99352 71209 46/// ///// 1//// 90538 22200 00155 11402 20701 327// 41402 70011
BBXX 46213 15061 99403 71247 46/// ///// 1//// 90554 22200 00097 11305 20504 329// 41303 70026
BBXX 46232 15061 99325 71174 46/// ///// 1//// 90538 22200 00148 11202 21002 324// 41201 70010
BBXX 46247 15061 99378 71228 46/// ///// 1//// 90551 22200 00122 11403 21001 328// 41403 70016
BBXX CG2960 15064 99429 70824 46/// /2113 10111 20105 40081 56036 7//// 8//// 22200 0//// 2////
BBXX CG2350 15064 99433 70798 46/// /2019 10108 20095 40098 58045 7//// 8//// 22200 0//// 2////
BBXX CGDS 15064 99447 70755 46/// /2019 10056 20034 4//// 5//// 7//// 8//// 22200 0//// 2////
BBXX 9V8739 15064 99357 71363 41498 23312 10170 20154 40280 51020 70161 82/9/ 22264 00180 2//// 331// 40605 5//// 6//// 80160 ICE /////
BBXX 42059 15061 99151 70675 46/// /0507 10274 20214 40115 58014 90550 22200 00285 11103 20502 3//// 41102 70013 333 91208 555 11075 22079 30524 40509 60549 052070 046066 050068 051066 050072 058065 80508 90504
BBXX 41048 15061 99320 70696 46/// /0211 10190 20103 40221 54000 90550 22200 00226 11007 20806 3//// 41004 70035 333 91213 555 11111 22117 30501 40315 60549 017112 018115 027114 022113 023123 025119 80213 90501
BBXX 42036 15061 99285 70845 46/// /1110 10209 20165 40231 58011 90550 22200 00217 10502 20502 70010 333 91212 555 11106 22112 30452 41113 60549 111100 111101 111106 109101 111107 108104
BBXX 42060 15061 99163 70635 46/// /0206 10266 20208 40117 58012 90550 22200 00281 11002 20401 300// 41002 70011 333 91207 555 11060 22062 30513 40107 60549 023056 023055 017055 014060 018056 017059 80206 90514
BBXX 42058 15061 99149 70749 46/// /0609 10274 20217 40111 58012 90550 22200 00279 10704 20703 308// 41101 70018 333 91211 555 11099 22105 30450 40511 60549 064094 069094 071092 070093 070096 069088 80710 90504
BBXX 42035 15061 99292 70944 46/// /1102 10180 20180 40184 54000 90550 22200 00166 10702 20401 317// 40702 70009 333 91202 555 11021 22024 30457 41204 60549 111018 125020 124024 126030 126033 124040
BBXX 42012 15061 99301 70876 46/// /1507 10206 20179 40227 57006 90550 22200 00193 10603 20602 334// 42701 70013 333 91208 555 11073 22081 30511 41410 60549 147065 146066 146076 143080 142074 140080
BBXX 42065 15061 99149 70750 46/// /0309 10251 20231 90550 22200 10603 20603 70016 333 91212 555 11095 22102 30453 40815 60549 034087 070057 088069 071080 074083 081112 80813 90451
BBXX 41060 15061 99148 70510 46/// ///// 1//// 90550 22200 11005 70025
BBXX 42001 15061 99259 70897 46/// /1210 10243 20193 40212 58003 90550 22200 00249 10804 20804 70022 333 91212 555 11107 22113 30507 41213 60549 119100 116100 119100 121103 116100 119102
BBXX 41049 15061 99275 70630 46/// /3508 10225 20136 40150 56007 90550 22200 00249 11006 20604 300// 41005 70032 333 91210 555 11085 22089 30539 43412 60549 348080 344083 346088 350084 347079 349081 83410 90525
BBXX 41001 15061 99347 70727 46/// ///// 10176 20064 40256 58008 90550 22200 00219 11004 70021
BBXX 41044 15061 99217 70587 46/// /3206 10242 20212 40102 90550 22200 00267 11004 20402 300// 41004 70020 333 91207 555 11060 22062 30506 43610 60549 318057 335041 047015 059022 002073 338063 80109 90506
BBXX 42020 15061 99270 70967 46/// /1610 10240 20202 40158 54000 90550 22200 00241 10703 20603 311// 40702 70017 333 91212 555 11102 22108 30543 41512 60549 154095 154094 154094 154093 154095 151095
BBXX 41012 15061 99300 70805 46/// /1107 10218 40248 58009 90550 22200 00236 11103 20602 307// 41102 70016 333 91209 555 11074 22077 30511 41009 60549 108068 104067 102069 106068 101069 097072
BBXX 46001 15061 99563 71480 46/// /1312 10049 49996 58041 90550 22200 00050 11508 20705 300// 41506 70039 333 91214 555 11129 22137 30512 41315 60549 132119 133117 134122 137124 137122 137115
BBXX WFLG 15064 99329 71203 41498 13505 10122 20102 40257 54000 70200 811// 22224 00122 20301 335// 40504 5//// 6//// 80111 ICE /////
BBXX WSRL 15064 99372 71238 41498 62016 10120 2008/ 40230 5//// 70222 811/1 22254 00094 2//// 3//// 4//// 5//// 6//// 80100 ICE /////
BBXX LEQZ3 15063 99521 71389 41/97 91810 10060 2006/ 40165 56005 70022 22262 00100 21003 41402 80060
BBXX A8IO2 15064 99318 70495 41297 81815 10200 20184 40040 53030 76122 8/77/ 22214 04210 20504 314// 41006 5//// 80190
BBXX V2NA1 15064 99330 70686 41597 50226 10205 20113 40220 50000 70222 85468 22223 04220 21206 80150
BBXX 62087 15061 99547 10068 46/// /0704 10081 20032 4//// 5//// 22200 00092
BBXX MGSG6 15063 99613 70005 41497 62710 10060 20036 49773 51040 70152 85264 22200 04138 20404 327// 40505 5//// 80050
BBXX WDF6832 15063 99361 70322 41497 61620 10190 2017/ 40260 57030 70322 861// 22264 0//// 20505 333// 40807 5//// 6//// 80180 ICE /////
BBXX WDE8264 15063 99352 10168 41298 32305 10180 20148 40265 51005 70200 8215/ 22234 00190 20202 3//// 4//// 5//// 6//// 80160 ICE /////
BBXX DBBH 15061 99384 70108 41498 73003 10150 20079 40318 52005 70311 87500 22200 04167
BBXX VRYO3 15064 99505 10011 46/// /2318 10099 20107 49962 55012 7//// 8//// 22224 00127 2////
BBXX WRAH 15063 99332 10264 41598 33509 10180 2//// 40222 52007 70200 831// 22264 00191 20202 33227 40404 50502 6//// 8//// ICE /////
BBXX LAVW4 15064 99348 70205 41696 51607 00/// 10180 2015/ 40305 53005 70110 8526/ 22253 00186 20801 331// 41004
BBXX DBBU 15061 99545 10137 46/// /2013/1/047 20032 49999 54000 22211 00062
BBXX WKPN 15064 99374 10051 41498 72623 10160 2014/ 40250 51004 7//11 8719/ 22225 00202 20502 328// 40702 5//// 6//// 80145 ICE /////
BBXX C6XC2 15064 99009 31266 41498 52509 10300 20246 40060 57020 75222 8493/ 22233 00300 20302 3//// 4//// 5//// 6//// 80260 ICE /////
BBXX BATFR08 15064 99496 30701 46/// /2616 10082 20042 40106 22233 00067
BBXX LAOW5 15064 99189 51370 41497 70814 10240 20226 40173 52013 70262 872// 22254 00268 20303 308// 40304 5//// 6//// 80230 ICE /////
BBXX DBLK 15061 99650 30000 41/93 91803 11022 21023 49548 57015 74942 89/// 22242 05019 ICE 45692
BBXX WCX7445 15064 99626 50595 43/// /2927 10021 2//// 49995 5//// 7//// 8//// 22252 00005 2//// 3//// 4//// 5//// 6//// ICE /////
BBXX 46013 15061 99382 71233 46/// /2103 10108 40244 55000 90550 22200 00108 11103 3//// 41103 70017 333 91203 555 11028 22029 30452 42105 60549 213027 207031 211034 206039 205041 209041
BBXX 44009 15061 99385 70747 46/// /1704 10108 40280 56013 90550 22200 00123 10902 20401 300// 40902 70011 333 91206 555 11046 22048 30459 41606 60549 171046 158046 159048 159051 162046 158051
BBXX 41013 15061 99334 70777 46/// /0803 10176 20104 40263 58016 90550 22200 00207 11102 20401 311// 41102 70011 333 91204 555 11034 22035 30501 40805 60549 077032 076032 079031 077034 084036 080033
BBXX 46086 15061 99325 71180 46/// /3204 10138 40244 51006 90550 22200 00149 10902 20301 328// 40902 70011 333 91205 555 11045 22047 30535 43305 60549 320044 324045 323044 318042 314043 315040
BBXX 46027 15061 99419 71244 46/// /1513 10085 40180 56011 90550 22200 00094 11206 20705 328// 41203 70030 333 91216 555 11137 22146 30512 41718 60549 150126 155134 156131 162128 160135 164131
BBXX 44025 15061 99402 70732 46/// /1706 10098 20043 40264 56017 90550 22200 00112 10902 20501 310// 40902 70011 333 91207 555 11063 22066 30532 41608 60549 169060 167066 162061 166057 165058 164052
BBXX NWS0022 15064 99416 70714 43/// /1409 10074 20026 40264 5//// 7//// 8//// 222// 04129 2//// 3//// 4//// 5//// 6//// 8//// ICE /////
BBXX WYL4318 15063 99583 71356 41/97 40910 10044 2//// 40091 54/// 702// 8//// 222// 0//// 2//01 3//// 4//// 5//// 6//// 8//// ICE /////
BBXX 44066 15061 99396 70726 46/// /1302 10107 20050 40270 57012 90550 22200 00132 10903 20301 3//// 40903 70014 333 91205 555 11021 22021 30459 41105 60549 131022 115028 124028 112031 114035 112038
BBXX 41047 15061 99275 70715 46/// /0211 10214 40214 58010 90550 22200 00252 10906 20704 304// 40904 70028 333 91213 555 11108 22113 30545 40313 60549 020108 031110 033105 030100 033100 038094 80212 90542
BBXX 41036 15061 99342 70770 46/// ///// 10145 20102 40268 58013 90550 22200 00179 11102 70011
BBXX 41043 15061 99211 70650 46/// /0210 10254 20180 40136 58008 90550 22200 00269 10906 20805 300// 40904 70031 333 91211 555 11101 22107 30532 40212 60549 020095 020094 017097 017092 021093 024093 80211 90532
BBXX 42055 15061 99222 70940 46/// /1106 10243 20191 40173 58006 90550 22200 00251 10602 20502 307// 40601 70010 333 91207 555 11063 22066 30515 41308 60549 112061 117062 115059 122064 118061 108062 81207 90514
BBXX 42002 15061 99258 70937 46/// /1508 10244 20207 40185 54000 90550 22200 00246 10803 20703 310// 40802 70015 333 91210 555 11082 22087 30507 41511 60549 151082 149086 146084 149085 149088 148085
BBXX 42003 15061 99260 70856 46/// /1108 1//// 90550 22200 10703 20703 70017 333 91210 555 11082 22088 30456 41110 60549 111077 111082 111078 109081 111082 113085 81009 90509
BBXX 42019 15061 99279 70954 46/// /1608 10235 20213 40164 56007 90550 22200 10703 20703 70017 333 91209 555 11082 22088 30508 42710 60549 177078 280077 279078 279078 280081 275079
BBXX 44005 15061 99432 70691 46/// /1902 10041 21046 40270 58014 90550 22200 00087 11002 20401 3//// 41002 70010 333 91203 555 11015 22016 30450 41004 60549 186015 176017 164008 158011 114013 099025
BBXX 42040 15061 99292 70882 46/// /1509 10218 40222 58007 90550 22200 00227 10604 20604 70018 333 91211 555 11089 22094 30549 41511 60549 149088 150088 153090 149089 152091 149089
BBXX 42056 15061 99198 70849 46/// /0610 10262 20208 40169 58009 90550 22200 00271 10906 20906 70028 333 91212 555 11103 22109 30451 40712 60549 062096 060095 065098 062095 058097 064093 80611 90538
AAXX 15064 78792 32460 80000 10241 20220 30089 40102 57014 83104 333 010// 10288 20231 31/// 59003 82818 85080
AAXX 15064 68299 16/// /2903 10179 20140 38918 48510 52010 60394 333 20149 91006 555 10239 20390 91017
AAXX 15064 78526 NIL
AAXX 15064 78543 NIL
AAXX 15064 78762 32970 50604 10201 20164 39095 40108 57006 8507/ 333 10252 20190 31/// 5622/ 58000 85358
BBXX TFBKF 15064 99635 70202 46/// ///// 22200 10504 70018
BBXX TFBLK 15064 99657 70248 46/// ///// 22200 10707 70035
BBXX TFDRN 15064 99658 70212 46/// ///// 22200 10706 70031
BBXX TFGRS 15064 99663 70182 46/// ///// 22200 10808 70041
BBXX TFGRV 15064 99638 70225 46/// ///// 22200 10804 70019
BBXX TFGSK 15064 99641 70229 46/// ///// 22200 10603 70017
BBXX TFHFN 15064 99642 70152 46/// ///// 22200 10603 70015
BBXX TFKGR 15064 99657 70136 46/// ///// 22200 10810 70049
BBXX TFSRT 15064 99633 70203 46/// ///// 22200 10705 70025
BBXX TFSTD 15064 99664 70234 46/// ///// 22200 10808 70042
AAXX 15064 78255 42959 00404 10195 20161 30040 40189 57010
AAXX 15064 78317 NIL
AAXX 15064 78318 NIL
AAXX 15064 78325 NIL
AAXX 15064 78333 NIL
AAXX 15064 78338 NIL
AAXX 15064 78348 NIL
AAXX 15064 78349 NIL
AAXX 15064 78353 NIL
AAXX 15064 78360 NIL
AAXX 15064 78367 NIL
AAXX 15064 78369 NIL
AAXX 15064 78866 32480 50305 10257 20217 30108 40113 57014 85800 333 59006 85818
BBXX MDGV9 15064 99560 70021 41/98 32620 10050 20025 49886 52020 70200 8274/ 22263 11002 70010 80040
BBXX PFBF 15063 99081 31261 41698 62807 10310 20178 40052 56022 70322 83976 22223 02290 20501 300// 4//// 5//// 80220
AAXX 15064 16622 11215 69902 10062 20058 30229 40239 52006 60002 71022 85650 333 20058 30/// 50050 55024 70000 83705 84625 90730 91104 555 10000 30100 20000 89075 99100 30000 10084 2//// 30100 4//// 5//// 40000 47704 44230 50000 50060 70000 77Y// 7/Y//
AAXX 15064 16641 12570 70000 10076 20076 30229 40234 56002 60002 83560 333 20054 30/// 55058 70000 83625 87360 90730 91103 555 10000 30084 20000 89071 99100 40000 47700 44190 50000 50076
AAXX 15064 16682 12860 40000 10088 20067 30211 40230 52001 60002 82041 333 20080 30/// 50250 55077 70000 82358 84068 90730 91107 555 10000 30104 20000 89065 99100 30000 10085 20100 30108 40126 50140 60185 40000 47690 44210 50000 50078
AAXX 15064 16716 12560 10000 10084 20067 30211 40230 51002 60002 81100 333 20076 30/// 55058 70000 555 10000 30110 20000 89059 99094 40000 47685 44165 50000 50076 70000 77/I/ 7/I//
AAXX 15064 16734 NIL
AAXX 15064 16743 NIL
AAXX 15064 16749 12460 12003 10134 20099 30218 40233 52012 60002 81100 333 20124 30/// 55029 79999 90730 91108 555 10000 30154 20000 89072 99098 40000 47696 44215 50000 50116
AAXX 15064 16754 NIL
AAXX 15061 38353 11596 83602 11038 21053 39453 40400 52008 60020 77177 885// 333 21056
AAXX 15061 38613 42998 71901 11004 21046 40358 51001 80002 333 21046
AAXX 15061 38616 42596 70000 11017 21057 39321 40379 52016 87500 333 21043
AAXX 15061 38345 11596 82401 11046 21073 38895 48577 52011 60010 71072 886// 333 21061
AAXX 15061 36911 11998 70000 11042 21044 39386 40399 52016 60020 77377 87070 333 21048
AAXX 15061 36974 32998 22102 11105 21168 38045 48619 52005 82040 333 21172
AAXX 15061 36982 42999 60401 11156 21248 36529 47180 52006 86050 333 21230
AAXX 15064 91165 NIL
AAXX 15064 91182 NIL
AAXX 15064 91190 NIL
AAXX 15064 91212 NIL
AAXX 15064 91217 NIL
AAXX 15064 91285 NIL
AAXX 15064 91317 NIL
AAXX 15064 91334 11348 89905 10257 20237 30066 40069 55005 60071 78082 8437/ 333 56999 70066 555 91506
AAXX 15064 91348 NIL
AAXX 15064 91356 NIL
AAXX 15064 91366 NIL
AAXX 15064 91369 NIL
AAXX 15064 91371 NIL
AAXX 15064 91376 32474 80911 10283 20215 30076 40080 53008 84871 333 56229 70000 555 91506
AAXX 15064 91408 11474 81412 10280 20244 30008 40046 55010 60031 72582 83278 333 56399 70282 555 91506
AAXX 15064 91413 NIL
AAXX 15064 91425 NIL
AAXX 15064 91434 NIL
AAXX 15064 91765 NIL
AAXX 15064 78792 32460 80000 10241 20220 30089 40102 57014 83104 333 010// 10288 20231 31/// 59003 82818 85080
AAXX 15064 91222 NIL
AAXX 15064 91245 NIL
AAXX 15064 91323 NIL
AAXX 15064 91339 NIL
AAXX 15064 91343 NIL
AAXX 15064 91353 NIL
AAXX 15064 91442 NIL
AAXX 15064 78792 32460 80000 10241 20220 30089 40102 57014 83104 333 010// 10288 20231 31/// 59003 82818 85080
AAXX 15061 15502 11/08 91601 10020 20020 30169 40209 54000 69912 74554 333 10032 20020 55000 70002 555 31003 500// 62799 70600
AAXX 15061 15525 11956 20902 11005 21005 39939 40214 58004 60002 71040 80001 333 10043 21010 70000 555 31104 500// 92600
AAXX 15061 15528 11962 30000 11010 21013 39996 40193 57010 60002 70340 83010 333 10034 21012 55000 70000 555 31101 598//
AAXX 15061 15535 11/01 92304 10011 20011 30156 40204 53006 60002 74544 333 10038 20010 55000 70000 555 31/// 500//
AAXX 15061 15549 12970 01603 10050 20028 39790 40212 52001 60002 333 10070 20040 70000 555 30101 586//
AAXX 15061 15552 11/01 90000 10042 20040 30164 40214 53005 60002 74744 222// 2//00 333 10070 20030 55011 70000 555 31001 598// 92011 92411
AAXX 15061 15614 11/04 90000 10012 20001 39514 40238 57006 60002 74544 333 10029 20012 55000 70000 555 31001 593//
AAXX 15061 15615 11986 22304 11024 21133 37140 47082 54000 60002 70300 80001 333 11024 21034 47999 55066 70000 555 543//
AAXX 15061 15626 11/01 90000 10034 20034 30033 40226 54000 60002 74544 333 10058 20032 55032 70000 555 30003 500//
AAXX 15061 15627 11989 22708 10006 21072 37648 47096 54000 60002 70300 81071 333 10008 21014 42002 55077 70000 444 57051 555 556//
AAXX 15061 15640 11556 80000 10047 20027 39907 40226 52001 60002 71042 886// 333 10050 20019 55000 70000 555 30002 587//
AAXX 15061 15655 11508 82901 10077 20070 30187 40220 53005 60002 74642 885// 222// 00088 20000 333 10077 20060 70000 555 31/// 596// 92012 92413
AAXX 15061 15712 11901 03601 11005 21011 39982 40243 53001 60002 74640 333 10077 21010 55036 70000 555 31105 596//
AAXX 15061 15730 11603 30000 10018 20018 39832 40236 52005 60002 74440 82502 333 10083 20012 55046 70000 555 31103 500// 92601
AAXX 15064 47101 32975 32506 11003 21179 30164 40263 56010 80001
AAXX 15064 47105 369// /2511 10030 21161 30192 40225 55008
AAXX 15064 47108 32970 22909 11021 21200 30168 40278 57012 80001
AAXX 15064 47115 32568 60209 10019 21059 39928 40205 55004 86800 333 92043
AAXX 15064 47133 32975 53407 10014 21151 30186 40273 57012 80001
AAXX 15064 47138 32975 63204 10050 21162 30227 40230 80001 333 92022
AAXX 15064 47159 32973 62908 10051 21160 30140 40227 55010 80002 333 92023
AAXX 15064 47165 32673 60215 10032 21054 30223 40271 55007 86500 333 92024
AAXX 15064 47168 32970 53418 10043 21161 30154 40235 57014 80001 333 92025
AAXX 15064 47184 32670 83413 10056 21015 30240 40266 55005 8652/ 333 92044
AAXX 15061 14240 11540 81901 10095 20091 39985 40139 55006 60072 76566 886// 333 20089 32007 70068
AAXX 15061 14258 11670 80305 10105 20076 39956 40142 53003 69952 70226 885// 333 20105 32009 70006 88633
AAXX 15061 14445 12675 81508 10149 20127 30005 40157 57010 60002 8577/ 222// 00160 333 20137 31012 85696 84399 92312
BBXX 46013 15061 99382 71233 46/// /2103 10108 40244 55000 90550 22200 00108 11103 3//// 41103 70017 333 91203 555 11028 22029 30452 42105 60549 213027 207031 211034 206039 205041 209041
BBXX 46026 15061 99378 71228 46/// /2304 10109 40243 55012 90550 22200 00122 11403 328// 41403 70014 333 91206 555 11046 22048 30450 43107 60549 241044 293042 293042 289043 298039 294051
BBXX 46029 15061 99461 71245 46/// /1611 10074 20067 40163 51005 90550 22200 00082 10805 20805 328// 41303 70027 333 91214 555 11115 22122 30538 41714 60549 161107 172111 166109 164103 166104 168107
BBXX 46050 15061 99442 71246 46/// /1609 10084 40165 53007 90550 22200 00101 10807 20806 327// 41203 70033 333 91211 555 11097 22102 30504 41413 60549 157091 154098 150096 152109 152109 152111
BBXX A8AJ4 15064 99504 71316 41198 33523 10070 20038 40160 52040 70100 83130 22274 0//// 20602 32819 41204 50902 6//// 80055 ICE /////
BBXX CG2958 15064 99487 71235 46/// /2803 10034 20029 40204 51010 7//// 8//// 22200 0//// 2////
BBXX CG2965 15064 99487 71235 46/// /2703 10035 20024 40196 51009 7//// 8//// 22200 0//// 2////
BBXX CGBR 15064 99535 71300 46/// /2805 10017 20016 40165 53005 7//// 8//// 22231 00070 2////
BBXX CGBY 15064 99487 71235 46/// /2803 10033 20022 40195 52010 7//// 8//// 22200 0//// 2////
BBXX CGDR 15064 99498 71276 46/// /1322 10070 20069 40154 51023 7//// 8//// 22232 00126 2////
BBXX CGJK 15064 99484 71234 46/// /3608 10043 20032 40189 51009 7//// 8//// 22200 0//// 2////
BBXX KHRC 15064 99334 71205 41498 /3309 10133 20120 40235 54000 70200 8//// 22214 00122 2//// 3//// 4//// 5//// 6//// 80128 ICE /////
AAXX 15064 47090 32973 12907 10015 21203 30208 40231 55001 80001 333 92023
AAXX 15064 47095 32970 22509 11032 21191 30075 40272 55012 80001
AAXX 15064 47097 329// /2707 11015 21181 30174 40274 55006
AAXX 15064 47098 329// /2911 11017 21187 30130 40269 57014
AAXX 15064 47099 329// /2908 11014 21189 30241 40279 57012
AAXX 15064 47100 32970 22712 11051 21185 39284 40234 55012 80001
AAXX 15064 47102 32675 62911 11018 21127 30105 40290 57012 85500
AAXX 15064 47104 32970 02710 10020 21180 30125 40224 55007
AAXX 15064 47106 329// /2906 10041 21175 30170 40220 55009
AAXX 15064 47112 32973 13211 11007 21153 30194 40281 57013 80001 333 92013
AAXX 15064 47114 32970 22507 11011 21201 30073 40262 55009 80001
AAXX 15064 47119 32970 42906 11008 21158 30236 40280 57010 80001
AAXX 15064 47121 329// /2508 10002 21185 39946 40248 55008
AAXX 15064 47127 329// /2907 11004 21190 30121 40267 55010
AAXX 15064 47129 32972 53212 10006 21102 30252 40289 57012 80001
AAXX 15064 47130 32970 31602 10059 21137 30154 40216 55013 80001 333 92021
AAXX 15064 47131 32972 22906 11010 21168 30204 40277 55006 80001
AAXX 15064 47135 329// /2711 11001 21169 39946 40254 57013
AAXX 15064 47136 32972 22911 10019 21165 30062 40238 55014 80001
AAXX 15064 47137 329// /2708 10006 21192 30131 40253 55009
AAXX 15064 47140 32675 53215 10010 21117 30249 40279 57012 82501 333 92023
AAXX 15064 47143 32978 22710 10034 21187 30169 40249 55017 80001
AAXX 15064 47145 32970 42910 11007 21150 30246 40273 57011 80001
AAXX 15064 47146 32973 43410 10021 21137 30205 40273 56014 80001
AAXX 15064 47150 32670 63407 10003 21108 30260 40280 57014 81501
AAXX 15064 47152 32970 42909 10040 21133 30184 40227 55012 80001
AAXX 15064 47154 329// /3208 10026 21155 30190 40252 55011
AAXX 15064 47155 32975 41105 10046 21119 30185 40231 56014 80001
AAXX 15064 47156 32680 63609 10024 21130 30178 40269 57010 81501
AAXX 15064 47157 32973 43213 10020 21170 39957 40232 55012 80001
AAXX 15064 47162 32975 60209 10056 21115 30184 40225 57016 80001 333 92023
AAXX 15064 47169 41673 63620 10031 21043 30173 40269 57011 72682 85500 333 92065
AAXX 15064 47170 32673 50211 10035 21070 30214 40258 57008 82501 333 92024
AAXX 15064 47171 329// /3407 10012 21126 30221 40278 57013
AAXX 15064 47172 329// /3211 10021 21089 30201 40269 57011
AAXX 15064 47173 329// /3410 10017 21153 30147 40261 57013
AAXX 15064 47174 32970 53209 10028 21115 30039 40245 57012 80001
AAXX 15064 47175 41570 63608 11012 21061 39672 40263 55008 78582 83800 333 92023
AAXX 15064 47185 32670 73429 10060 21003 30159 40251 55008 87500 333 92047
AAXX 15064 47188 32670 73605 10048 21023 30229 40251 55005 87500 333 92033
AAXX 15064 47189 32670 71602 10093 20016 30163 40223 57014 87500 333 92022
AAXX 15064 47192 32978 53609 10049 21181 30197 40235 57017 80001
BBXX LF4H 15064 99596 10022 46/// /2620 10076 20033 49801 52023 8//// 22200 06088 10706 70029 333 91132
BBXX LGWS 15061 99340 70079 43/// /0206 10174 20138 40290 5//// 222/0 04182 1//// 3//// 4//// 5////
BBXX LMEL 15061 99603 10053 43/// /1403 10055 20045 49792 5//// 222/2 04101 1//// 3//// 4//// 5////
AAXX 15064 17022 12962 01203 10095 20049 30080 40247 52010 60002 333 20089 30008 55051 91105 92427
AAXX 15064 17031 12970 31202 10037 20019 30247 40254 52011 60002 80001 333 20006 30101 83070
AAXX 15064 17038 11958 41401 10104 21012 30205 40257 52012 60002 70411 84030 333 20073 30005 55009 20548 84360 92426
AAXX 15064 17050 11/02 91801 10078 20077 30167 40230 52006 60002 74344 333 20076 31006 55000 89/03 91105
AAXX 15064 17060 11940 01903 10099 20092 30200 40240 52007 60002 71000 333 20062 30002 50161 55006 20373
AAXX 15064 17096 11557 61903 11074 21074 38300 48574 52008 69912 77011 84550 333 21162 3/117 47008 50014 55030 20226 70001 84630 86357 93101
AAXX 15064 17124 11/02 90000 11023 21023 39338 40288 52011 69902 74700 333 21036 31104 50074 55065 20854 79999 89/02
AAXX 15064 17128 11110 40000 11046 21046 39159 40298 52010 60002 74140 84600 333 21054 34106 50084 55026 20230 84703
AAXX 15064 17170 NIL
AAXX 15064 17195 11958 00601 11035 21038 39046 48547 52014 60002 71000 333 21070 34110 50084 55022 20766
AAXX 15064 17199 11456 82602 10001 21011 39165 40301 53008 60002 71022 8662/ 333 21001 3/000 46002 55000 20130 83715 84630 88458
AAXX 15064 17219 11/01 99901 10038 20035 30098 40247 53008 60002 74540 333 20035 31004 55047 20304 89/01
AAXX 15064 17240 11950 01201 11037 21057 39100 40296 52012 60002 71000 333 21041 34105 55050 20548 91102
AAXX 15064 17244 12960 03002 11005 21020 39063 48546 52012 60002 333 21033 30/// 55/// 2////
AAXX 15064 17280 12960 53203 10024 21015 39446 40258 52010 60002 83031 333 21020 30105 50121 55049 20255 83360 85070
AAXX 15064 17350 12960 03603 10059 21011 30141 40221 52013 60002 333 20036 30///
AAXX 15064 78583 11470 63003 10225 20221 40166 69901 70381 86800 333 01100 59013 86815
AAXX 15064 08001 NIL
AAXX 15064 08015 12565 52612 10108 21003 39832 40238 52030 60002 84810 333 20085 30008 50284 55061 70000
AAXX 15064 08023 12570 42516 10123 20040 30152 40223 51006 60002 82870 333 20110 55042 70004
AAXX 15064 08027 12480 62112 10100 20026 39914 40226 52013 69932 81570 333 20088 31006 50290 55017 70061
AAXX 15064 08045 01464 81603 10095 20084 39971 40285 53006 60072 72162 888// 333 20094 32009 55047 69907 70066
AAXX 15064 08141 11458 52004 10056 20042 39401 40276 51009 69902 71011 83531 333 20040 31003 55033 79999
AAXX 15064 08160 12980 82806 10086 20020 39943 40257 52022 60002 80007 333 20085 55048 70000
AAXX 15064 08181 02680 72808 10115 20009 30216 40222 53017 60002 81807 333 20084 3/010 55008 60007 70000
AAXX 15064 08221 02980 82918 10082 20004 39593 40288 53015 60002 82037 333 20058 30004 55023 60007 70000
AAXX 15064 08231 12570 73101 10044 20031 39180 48569 52015 60002 83518 333 20044 31004 50154 55020 79999
AAXX 15064 08261 12770 72705 10084 20067 39831 40322 53013 60002 8705/ 333 20075 31006 55034 70000
AAXX 15064 08284 02680 52713 10126 20047 30182 40258 53017 60002 81555 333 20117 3//// 55002 60007 70000
AAXX 15064 08306 12570 51703 10085 20071 30231 40237 53017 60002 81578 333 20073 55049 70000
AAXX 15064 08314 02770 22807 10123 20082 30121 40225 53014 60002 82501 333 20119 3//// 55072 60007 70000
AAXX 15064 08430 12970 60000 10092 20061 30196 40272 53012 60002 80004 333 20084 30005 50021 55076 70000
AAXX 15064 08482 12570 12814 10140 20049 30280 40289 52006 60002 81800 333 20125 55055 70000
AAXX 15064 48310 31956 02304 10263 20144 39683 40136 57027 70540 333 59008
AAXX 15064 48325 NIL
AAXX 15064 48329 NIL
AAXX 15064 48352 NIL
AAXX 15064 48357 32562 20505 10290 20161 39963 40130 57026 81131 333 59007
AAXX 15064 48380 NIL
AAXX 15064 48383 31959 20906 10277 20170 39964 40123 57031 70511 82030 333 59011
AAXX 15064 48403 31557 50606 10297 20189 39908 40116 57029 70522 82536 333 59018
AAXX 15064 48405 NIL
AAXX 15064 48420 31958 60306 10315 20193 30105 40110 57021 70522 82036 333 59013
AAXX 15064 48421 31957 21504 10327 20184 30006 40117 57026 70500 80005 333 59009
AAXX 15064 48425 31556 70405 10290 20191 30111 40121 57023 70522 82556 333 59019
AAXX 15064 48426 NIL
AAXX 15064 48429 32560 60706 10304 20163 30105 40112 57021 81136 333 59013
AAXX 15064 48430 31559 50504 10313 20185 30105 40112 56018 70521 82256 333 59011
AAXX 15064 48450 31558 60205 10302 20167 30087 40120 57021 70522 81556 333 59009
AAXX 15064 48459 32960 62302 10310 20203 30101 40104 57024 84036 333 59020
AAXX 15064 48465 NIL
AAXX 15064 48550 01558 70506 10259 20239 30098 40105 57007 69901 71062 82176 333 59006 69906 79999
AAXX 15064 48552 01460 80605 10260 20237 30101 40107 57007 60051 72162 86837 333 58002 60056 70067
AAXX 15064 48566 NIL
AAXX 15064 48568 NIL
AAXX 15064 48300 31562 10000 10233 20175 39822 40136 56030 70141 81100 333 59005
AAXX 15064 48327 32562 13203 10283 20146 39783 40135 57028 81200 333 59010
AAXX 15064 48331 31562 10000 10276 20161 39905 40133 57036 70240 81100 333 59010
AAXX 15064 48353 NIL
AAXX 15064 48356 31558 51202 10288 20172 39937 40132 57028 70511 81106 333 59013
AAXX 15064 48375 NIL
AAXX 15064 48378 NIL
AAXX 15064 48381 31559 70805 10289 20168 39907 40122 57029 70522 82576 333 59021
AAXX 15064 48407 32560 50606 10311 20192 39972 40111 57028 81141 333 59009
AAXX 15064 48431 32960 60705 10288 20185 39907 40119 57029 84036 333 59016
AAXX 15064 48456 NIL
AAXX 15064 48480 32560 20305 10310 20190 30089 40093 57024 81241 333 59018 77999
AAXX 15064 48500 31556 40207 10295 20213 30102 40109 57019 70511 82206 333 59014
AAXX 15064 48551 31557 70305 10280 20236 30097 40105 57014 71022 82876 333 59011
AAXX 15064 48565 31558 70807 10290 20230 30083 40093 57011 71022 83247 333 59006
AAXX 15064 48569 NIL
AAXX 15064 48583 01420 80000 10244 20232 30093 40099 57029 60331 76196 8382/ 333 59004 60107 70423
AAXX 15061 26038 NIL
AAXX 15061 26045 NIL
AAXX 15061 26058 NIL
AAXX 15061 26115 NIL
AAXX 15061 26135 NIL
AAXX 15061 26141 01258 81807 10045 20036 39799 49945 56032 60072 76162 8872/ 333 10046 20018 41997 60037 88507 91012 91112 555 1/003 20018 3/100 50027 52001
AAXX 15061 26231 01350 82206 10029 20019 39928 49942 55015 60162 76362 8872/ 333 10049 20028 60097 88508 91010 91116 555 12003 20028 32002 50042
AAXX 15061 26242 01462 81807 10054 20034 39878 49964 56025 60042 76062 8872/ 333 10055 20028 60027 88512 91012 91114 555 12004 20028 32001 50038 52002
AAXX 15061 26247 NIL
AAXX 15064 16643 12460 30407 10094 20078 30246 40251 50001 60002 81234 333 20094 30/// 70000 81818 83360 90730 91112 555 10000 30110 20000 89068 99095 40000 47719 44240 50000 50086
AAXX 15064 16648 11202 40000 11014 21021 30139 40233 54000 60002 74444 84601 333 21014 30/// 50120 55049 70000 90730 91104 555 10000 30074 20000 89056 99097 30000 10020 2//// 30060 40070 5//// 6//// 40000 47635 44210 50000 51016 70000 77F// 7FY//
AAXX 15064 16650 11358 50000 10094 20090 30216 40220 52002 60002 71022 85600 333 20058 30/// 55054 70000 82708 85620 90730 91104 555 10000 30094 20000 89071 99097 30000 10094 20096 30102 40100 50130 60142 40000 47695 44230 50000 50092 70000 77Y// 7/Y//
AAXX 15064 16684 11457 30000 10112 20092 30183 40211 58003 60002 71000 82640 333 20092 30/// 55075 70000 90730 91106 555 10000 30130 20000 89071 99092 40000 47668 44210 50000 50102 70000 77Y// 7/Y//
AAXX 15064 16732 11465 11205 10118 20098 30225 40236 51003 60002 702// 81100 333 20110 31/// 55047 70000 90730 91108 555 10000 30134 20000 89069 99090 40000 47694 44160 50000 50108
AAXX 15061 14241 11540 81001 10088 20082 30007 40137 55005 60042 76366 8452/ 333 20082 32/// 70040 81725 84635
AAXX 15061 14284 12965 60503 10053 20045 30043 40153 58006 60002 82038 333 20045 31003
AAXX 15061 14307 11108 80000 10093 20088 30063 40139 56008 69962 74046 8767/ 333 20087 32/// 70012 83702 87708 96010 98225 98608 98996
AAXX 15061 14317 NIL
AAXX 15061 14431 11570 81203 10126 20117 30054 40146 58010 69972 72122 8487/ 333 20118 31/// 70012 81720 83640
AAXX 15061 14444 33465 71303 10157 20134 30135 40164 57008 86870 333 20148 30///
AAXX 15061 14474 11465 81007 10124 20108 30008 40197 55004 60052 76062 8457/ 333 20112 31/// 70045
AAXX 15064 17024 12970 01813 10079 20032 30164 40243 52008 60002 333 20072 31006 55039 91119 92428
AAXX 15064 17056 11/08 90000 10097 20096 30233 40237 52008 60002 74522 333 20077 31006 55027 20419 89/03 91103 92413
AAXX 15064 17067 11956 01302 10064 20054 30220 40242 52008 60002 71000 333 20052 30004 55000 91105 92406
AAXX 15064 17092 11645 40000 11028 21047 38945 48557 52011 60002 71011 84500 333 21046 30106 50054 55038 20611 84640
AAXX 15064 17112 11650 70602 10090 20049 30232 40234 52007 60002 71000 84250 333 20087 31/// 50064 2//// 84835 87360 92416
AAXX 15064 17115 11902 00000 10028 20026 30189 40242 52009 60002 74444 333 20020 31002 50144 55034 20603
AAXX 15064 17116 11904 00000 10018 20016 30127 40252 52007 60002 74600 333 20018 31000 55006 20021 70002 91102
AAXX 15064 17188 11956 02802 10013 20000 39182 40269 52010 60002 71000 333 20009 34102 91104
AAXX 15064 17202 11457 62305 11020 21031 39241 40311 52005 60002 71022 86500 333 21037 3/106 43002 84712 86630
AAXX 15064 17248 12975 01201 11012 21027 39049 48544 52014 60002 333 21035 34106 55046 2////
AAXX 15064 17292 11902 01801 10006 20005 39483 40258 52008 60002 74400 333 20005 31000 50064 55013 20540 91102
AAXX 15064 17300 12560 13305 10085 20034 30152 40225 52009 60002 81100 333 20051 30101 50221 55/// 2//// 81830
AAXX 15064 17310 12970 00802 10118 20022 30219 40226 52010 60002 333 20106 30006 55036 91105 92418
AAXX 15064 17330 12970 02903 10120 20020 30210 40228 52011 60002 333 20098 31006 50111 55018
AAXX 15061 15015 01596 81904 10074 20044 39566 42780 57002 69942 7616/ 8457/ 333 10080 20038 31000 6///7 70004 91007 91107 96010
AAXX 15061 15020 01492 60901 10002 20002 39976 40180 50003 60002 74444 86600 333 10041 21001 31101 60007 70000 91003 91104
AAXX 15061 15090 01596 50901 11001 21001 30096 40192 52003 60002 71041 85500 333 10044 21002 34102 55300 0//// 20003 3//// 60007 70000 91001 91102 92601
AAXX 15061 15108 01699 32706 11019 21019 38077 48493 53003 60002 72844 81041 333 11009 21022 3//// 43006 60007 70000 92727 92870 95000
AAXX 15061 15120 01/91 90702 10013 20013 39688 40196 53006 60002 74544 333 10046 20013 31002 55300 10018 20000 30001 60007 70000 91004 91105
AAXX 15061 15150 01293 81702 10019 20019 39973 40191 57003 60002 74444 886// 333 10031 20019 31003 60007 70000 91005 91105
AAXX 15061 15170 01/92 92301 11012 21012 39414 42802 50001 60002 74544 333 11003 21016 31101 60007 70000 91002 91102
AAXX 15061 15200 01598 81601 10080 20059 30030 40175 52007 69912 76162 885// 333 10092 20069 31006 69917 70001 91001 91103
AAXX 15061 15230 02997 73501 10016 20016 39896 40197 55003 60002 87070 333 10057 20008 30101 55300 10034 20002 3//// 60007 70000 91001 91101
AAXX 15061 15260 02998 00902 11015 21016 39654 40208 54000 60002 333 10029 21040 34103 60007 70000 91004 91105
AAXX 15061 15280 02599 32904 11056 21079 37494 47025 53001 60002 81031 333 11050 21067 3//// 48034 60007 70000 92845 444 27071
AAXX 15061 15292 02597 81803 10067 20034 39889 40186 55005 60002 8437/ 333 10083 20051 31003 60007 70000 91004 91105
AAXX 15061 15310 01491 81903 10020 20020 30122 40211 52005 69912 74454 886// 333 10042 20020 31003 55300 10014 20000 30000 60007 70002 91005 91105
AAXX 15061 15335 01492 83001 10008 20008 30204 40211 53004 60002 7444/ 886// 333 10047 20003 31002 60007 70000 91001 91102
AAXX 15061 15346 01/93 90100 10005 20005 39916 40215 55000 60002 74544 333 10038 20003 31002 60007 70000 91001 91102
AAXX 15061 15350 01492 82502 10018 20018 30083 40207 52002 60002 74444 886// 333 10047 20018 31001 60007 70000 91004 91105
AAXX 15061 15360 01492 81906 10070 20070 30191 40206 54001 60002 74444 886// 222// 06076 20401 333 10070 20036 3//// 60007 70000 91008 91108 92422
AAXX 15061 15410 01595 83601 10030 20029 30113 40211 55002 60002 71042 886// 333 10044 20029 31004 60007 70000 91001 91101
AAXX 15061 15420 01/91 92502 10020 20020 30094 40209 52003 60002 74544 333 10049 20019 31003 55300 0//// 20000 3//// 60007 70000 91003 91104
AAXX 15061 15450 01491 80000 10019 20019 39967 40209 55003 69922 75154 886// 333 10053 20014 31004 55300 10018 20000 30000 69917 70002 91001 91102 96046
AAXX 15061 15460 01492 82701 10004 20004 30189 40214 52003 60002 7444/ 886// 333 10046 20003 31002 60007 70000 91002 91102
AAXX 15061 15470 01492 82201 10022 20022 30080 40210 54001 60002 7444/ 886// 333 10044 20021 31002 60007 70000 91002 91102
AAXX 15061 15480 01492 83001 10015 20015 30199 40217 53002 60002 74444 886// 222// 06077 2//// 333 10060 20012 31002 60007 70000 91002 91102 92412
AAXX 15061 26645 11497 71903 10050 20030 39800 40057 52003 60012 70262 87500 333 20028 87617 91111 555 90010
AAXX 15061 26659 32465 71904 10054 20037 39874 40086 57010 87500 333 20038 87617 555 90010
AAXX 15061 26763 31335 81607 10047 20042 39887 40114 57013 71022 886// 333 20042 88707 91113 555 90010
AAXX 15061 26825 32562 51904 10036 20018 39893 40076 53010 83530 333 20036 91110
AAXX 15061 26832 12560 72003 10055 20023 39894 40085 53017 69992 87500 333 20042 87630 555 90010
AAXX 15061 26887 11294 81604 10038 20036 39944 40151 57020 69972 75352 886// 333 20034 88705 555 90011
AAXX 15061 26961 31350 81903 10046 20035 39934 40127 57001 71022 885// 333 20043 88707 555 90011
AAXX 15061 33027 31596 71703 10046 20039 39967 40134 54000 71022 875// 333 20020 555 90011
AAXX 15064 16614 12960 23405 11006 21018 39460 40269 53004 60002 80001 333 21026 30/// 55052 70000 90730 91107 555 10000 30036 20000 89063 99098
AAXX 15064 16627 12560 60000 10112 20100 30223 40227 54000 60002 86500 333 20080 30/// 50190 55020 70000 90730 91105 555 10000 30112 20000 89074 99100 30000 10104 20106 30112 40114 50120 6//// 40000 47699 44220 50000 50106
AAXX 15064 16667 11459 71505 10130 20111 30230 40235 53001 60002 71011 84670 333 20096 30/// 55057 70000 82710 84618 86357 90730 91107 555 10000 30132 20000 89068 99093 30000 20118 30124 40000 47701 44190 50000 50120 70000 77YI/ 7/YI/
AAXX 15064 16675 17/// /9901 10010 20006 30218 40232 52004 69902 741// 333 20009 90730 91107 555 10000 30075 20000 89044 99098 60000 65555 6////
AAXX 15064 16710 36/// /0000 11001 21006 39479 40283 52006 333 21010 90730 91103 555 10000 30066 20000 89051 99096
AAXX 15064 16723 12560 29902 10104 20070 30227 40243 52011 60002 82200 333 20098 31/// 55/// 70008 90730 91108 555 10000 30120 20000 89070 99098 40000 47705 44230 50000 50088
AAXX 15064 16738 NIL
AAXX 15064 16746 12560 12804 10116 20096 30055 40239 53008 60002 81200 333 20106 30/// 55074 70000 90730 91109 555 10000 30124 20000 89057 99092 40000 47572 44195 50000 50106
AAXX 15064 48302 31558 21004 10160 20103 38493 40129 57013 71000 81105 333 58004
AAXX 15064 48304 31559 10000 10262 20161 39680 40137 57026 70540 81100 333 59005
AAXX 15064 48334 NIL
AAXX 15064 48360 NIL
AAXX 15064 48372 31958 23405 10290 20190 30065 40122 57031 70500 80005 333 59021
AAXX 15064 48373 31958 20000 10295 20177 30056 40117 57036 70500 80001 333 59019
AAXX 15064 48386 31958 00000 10281 20182 30072 40115 55030 70500 333 59024
AAXX 15064 48387 32962 01103 10231 20141 39169 40120 57020 333 59010
AAXX 15064 48408 32560 20204 10305 20192 39962 40110 57030 81131 333 59015
AAXX 15064 48415 31558 70305 10310 20190 30103 40114 57019 70522 82155 333 59012
AAXX 15064 48433 NIL
AAXX 15064 48437 31959 60302 10280 20187 39919 40127 57021 70522 83036 333 59012
AAXX 15064 48440 31958 00908 10321 20208 30052 40101 57026 70500 333 59025
AAXX 15064 48451 NIL
AAXX 15064 48454 NIL
AAXX 15064 48457 31957 63406 10278 20191 30098 40115 57018 70522 82036 333 59015
AAXX 15064 48463 31540 63505 10315 20193 30029 40121 58021 70522 82546 333 59016
AAXX 15064 48464 NIL
AAXX 15064 48479 31958 40110 10320 20181 30056 40106 57017 70511 80006 333 59012
AAXX 15064 48520 31559 50808 10305 20216 30088 40103 55016 70511 82506 333 59012
AAXX 15064 48554 NIL
AAXX 15064 48563 32560 60608 10284 20238 30058 40094 57016 82256 333 59006
AAXX 15064 48571 11460 83303 10268 20237 30082 40094 57021 60021 70262 83976 333 59012 70022
AAXX 15064 17026 12970 01702 10097 20049 30213 40252 52011 60002 333 20079 30004 55054 21076 91109 92418
AAXX 15064 17034 12970 00000 10101 21008 30212 40259 52009 60002 333 20086 30003 92428
AAXX 15064 17070 11901 00000 11015 21017 39391 40289 52011 60002 74400 333 21018 3/103 45998 50044 55050 20733 91103
AAXX 15064 17084 11930 10000 11032 21034 39359 40305 52013 60002 71000 81030 333 21036 34106 55045 81360 91102
AAXX 15064 17090 12965 00000 11052 21083 38791 48551 52011 60002 333 21067 34108 55023
AAXX 15064 17098 12660 30000 11115 21115 38268 48583 52005 60002 83500 333 21173 3/118 41997 50024 55018 21026 83635
AAXX 15064 17150 11901 00000 10039 20037 30129 40256 52008 60002 74644 333 20011 32000 50031 55009 20448
AAXX 15064 17160 12970 03605 11014 21022 39092 48545 52013 60002 333 21028 34104 55074 91108
AAXX 15064 17184 11910 30000 10014 20011 30142 40257 52010 60002 74000 80001 333 20014 31001 55048 83070 91101
AAXX 15064 17189 11901 00000 11067 21067 39094 48538 52012 60002 74444 333 21069 34108
AAXX 15064 17210 12670 23001 10056 21013 39199 40250 51007 60002 82100 333 20030 30000 55049 82840
AAXX 15064 17234 12970 00904 10064 20047 30180 40249 52007 60002 333 20057 31004 50164 55067 91108
AAXX 15064 17260 12960 03506 10049 21026 39410 40244 52009 60002 333 21002 30101 50104 55026 20615
AAXX 15064 17290 12970 00203 10117 20097 30209 40241 52007 60002 333 20113 31009 50114 55049 70049 91108 92418
AAXX 15064 17370 12965 01302 10110 21006 30214 40218 52013 60002 333 20099 30004 50244 55000 2//// 92417
AAXX 15064 91925 06/// /0302 10239 20202 30088 40149 51024 60001 333 55091 60007 90710 91106 555 60005 11117 58012
AAXX 15064 91929 04/82 /1010 10273 20216 30154 40157 53018 60002 700// 333 10315 20273 55/// 60007 70000 90710 91116 555 60005
AAXX 15064 91938 02570 12001 10278 20213 30157 40159 52015 60002 81200 333 10316 20278 30/// 55106 60007 70000 81823 90710 91106 555 60005 12409 58015
AAXX 15064 91943 36/// /1008 10267 20221 30151 40153 51019 333 20267 58011
AAXX 15064 91944 06/// /1109 10264 20195 30161 40164 51015 60002 333 10298 20262 55090 60007 70000 90710 91112 555 60005
AAXX 15064 91948 06/// /3202 10237 20183 30081 40184 51013 60001 333 55071 60007 90710 91103 555 60005 13303 58002
AAXX 15064 91954 06/// /1702 10240 20221 30177 40180 51014 60001 333 55/// 60007 555 58016
AAXX 15064 91958 06/// /0609 10231 20210 30199 40201 53013 60001 333 55033 60007 90710 91123 555 60005 10823 58016
AAXX 15064 91945 NIL
AAXX 15063 91551 11498 80000 10271 20254 4//// 5//// 69951 72528 8597/ 333 5689/ 69951 82818 81925 85640 88461
AAXX 15063 91553 31598 73605 10285 20254 40071 53001 70222 83906 333 561/9 83820 81925 87078
AAXX 15063 91554 31598 70408 10275 20254 40064 53002 70222 84906 333 561/9 84820 81925 87678
AAXX 15063 91555 31598 13606 10295 20260 40065 56002 70111 81131 333 56899 81828
AAXX 15063 91557 11598 49902 10280 20264 40049 56001 60141 72562 84900 333 562// 60411 84820 81923
AAXX 15063 91565 11498 30000 10280 20266 40066 56002 60051 72582 83901 333 563/9 60051 83818 81920
AAXX 15063 91568 11598 20000 10297 20259 40079 56005 60011 72528 82901 333 563/9 60011 82825 81926
AAXX 15063 91551 11498 80000 10271 20254 4//// 5//// 69951 72528 8597/ 333 5689/ 69951 82818 81925 85640 88461
AAXX 15063 91553 31598 73605 10285 20254 40071 53001 70222 83906 333 561/9 83820 81925 87078
AAXX 15063 91554 31598 70408 10275 20254 40064 53002 70222 84906 333 561/9 84820 81925 87678
AAXX 15063 91555 31598 13606 10295 20260 40065 56002 70111 81131 333 56899 81828
AAXX 15063 91557 11598 49902 10280 20264 40049 56001 60141 72562 84900 333 562// 60411 84820 81923
AAXX 15063 91565 11498 30000 10280 20266 40066 56002 60051 72582 83901 333 563/9 60051 83818 81920
AAXX 15063 91568 11598 20000 10297 20259 40079 56005 60011 72528 82901 333 563/9 60011 82825 81926
AAXX 15064 17042 12670 70903 10110 21019 30224 40264 52014 60002 84250 333 20080 30007 55035 84835 87360 92428
AAXX 15064 17074 11650 32102 11020 21024 39327 40293 52010 60002 71011 83200 333 21022 34104 55032 20540 83833 91104
AAXX 15064 17086 11958 00904 11025 21042 39548 40297 52012 60002 71000 333 21030 34104 55032 20603
AAXX 15064 17088 12670 60000 11013 21063 38865 48556 52011 60002 84550 333 21023 34104 55004 10301 84640 86360
AAXX 15064 17140 12965 00402 11003 21015 38766 48545 52006 60002 333 21034 3/105 45998 55065 2////
AAXX 15064 17155 11/00 90501 11006 21008 39132 40278 52010 60002 74544 333 21007 34101 55007 70002 89/00 91102
AAXX 15064 17203 12670 60000 10008 21053 38944 48584 52007 60002 84250 333 21024 3/105 47003 55009 2//// 84840 86360
AAXX 15064 17237 12970 02801 10047 20031 39747 40261 52012 60002 333 20043 31000 55055 91103
AAXX 15064 17250 12975 00304 11015 21038 38867 48548 52015 60002 333 21016 34103 55050
AAXX 15064 17270 12670 23002 10058 21035 39582 40241 52009 60002 82100 333 20042 31000 55019 82840
AAXX 15064 17295 12960 00605 10071 20046 30228 40235 52008 60002 333 20050 31004 50164 55044
AAXX 15064 17320 12970 03404 10115 20036 30220 40225 52011 60002 333 20099 30009 50181 55006 92428
AAXX 15064 17375 12970 00102 10104 20049 30225 40227 52008 60002 333 20079 30004 50101 55063 91105 92408
AAXX 15064 17500 12960 00903 10055 20037 30177 40238 52008 60002 333 20031 30001 50151 55036 20427
AAXX 15064 17501 12560 11706 10130 20054 30202 40221 52008 60002 81100 333 20122 30011 55/// 2//// 81830 92427
AAXX 15064 17505 12560 10806 10103 20044 30118 40233 52008 60002 81100 333 20081 30005 55042 20800 81830
AAXX 15064 17507 12960 02210 10120 20036 30122 40244 52009 60002 333 20114 30009 5///1 55/// 2////
AAXX 15064 17510 12560 10000 10121 20070 30190 40200 53015 60002 81100 333 20115 30008 50301 55005 20251 81830 92417
AAXX 15064 17515 12560 11105 10066 20039 30063 40244 52010 60002 81100 333 20050 30003 50011 55014 20585 81830
AAXX 15064 17521 12560 12809 10096 20058 30079 40221 52011 60002 81100 333 20068 30004 50151 55010 20527 81830
AAXX 15064 17530 12560 10000 10064 20046 30169 40228 52011 60002 81100 333 20046 30003 55006 20469 81830
AAXX 15064 17535 12560 10000 10110 20057 30169 40206 52014 60002 81100 333 20081 30004 55000 20444 81830
AAXX 15064 17540 12560 12610 10109 20066 30209 40233 5//// 60002 81100 333 20071 30003 50151 55/// 2//// 81830 92427
AAXX 15064 17547 12560 10208 10130 20056 39972 40216 5//// 60002 81100 333 20124 30009 5///1 55/// 2//// 81830 92427
AAXX 15064 17550 12560 10104 10116 20057 30068 40216 52011 60002 81100 333 20108 30007 55001 20440 81830 92437
AAXX 15064 17572 12560 1//// 10121 20064 30209 40234 52010 60002 81100 333 20118 30008 81830 92417
AAXX 15064 48307 32962 00000 10281 20153 39761 40137 57026 333 59004
AAXX 15064 48324 NIL
AAXX 15064 48333 NIL
AAXX 15064 48350 NIL
AAXX 15064 48355 31558 51202 10288 20172 39937 40032 57028 70511 81106 333 59013
AAXX 15064 48358 32560 20906 10285 20169 39961 40135 57025 81101 333 59005
AAXX 15064 48384 31558 70303 10290 20184 39937 40125 56026 70522 81550 333 59022
AAXX 15064 48401 31958 20304 10310 20205 30015 40121 57032 70500 80005 333 59035
AAXX 15064 48404 32560 40813 10295 20183 39939 40115 58030 82535 333 59016
AAXX 15064 48409 NIL
AAXX 15064 48419 31559 60503 10295 20187 30107 40115 56023 70522 83845 333 59012
AAXX 15064 48427 NIL
AAXX 15064 48435 31557 61118 10276 20180 39679 40113 57026 70521 82576 333 59020
AAXX 15064 48453 32560 70404 10315 20184 30104 40107 57023 83576 333 59011
AAXX 15064 48458 32960 80506 10313 20200 30036 40116 57028 86036 333 59024
AAXX 15064 48474 NIL
AAXX 15064 48481 31558 62501 10312 20202 30070 40097 57023 70522 82831 333 59013 79999
AAXX 15064 48555 01556 81002 10240 20230 30089 40131 55024 60061 76022 8587/ 333 59003 60055 70057
AAXX 15064 48556 31458 83606 10298 20236 30082 40098 57006 71022 83807 333 59007
AAXX 15064 48557 11457 60505 10287 20233 30069 40104 57012 69901 71522 86806 333 58002 79999
AAXX 15064 48560 01457 80000 10245 20236 30103 40107 56014 60311 71092 82976 333 59002 60287 70321
AAXX 15064 48574 01459 83103 10270 20238 30066 40095 57021 69901 76022 83876 333 59012 69905 79999
AAXX 15064 48581 NIL
AAXX 15064 60135 31440 41403 10103 20091 40303 53004 71000 84500 333 20087 84615
AAXX 15063 64810 31456 62606 10245 20226 30079 40105 70511 83530 333 20245 55/// 58003 83613 86363
AAXX 15063 64820 32460 60000 10243 20240 30111 40120 82302 333 20243 58005 82613 81920 86070 94947 95837
BBXX BATUK01 15064 99586 70059 46/// /3223 10069 20005 49850 53008 22281 00109
AAXX 15061 14023 11296 81003 10086 20082 39844 40137 55000 60082 76162 8652/ 333 20068 32004 55012 70083 82703 86634 555 20068 30066
AAXX 15061 14024 11298 82605 10052 20052 39041 48446 57007 60082 76064 8687/ 333 20052 32005 55001 70084 81804 85615 95000 95180 444 66065
AAXX 15061 14026 11496 83405 10065 20059 39827 40148 57005 60062 7636/ 8672/ 333 20054 32003 55018 70070 86712 88526 555 20059 30061
AAXX 15061 14031 11496 80706 10070 20060 39921 40150 52006 60032 76166 887// 333 20054 32003 55035 70032 83713 85616 555 20060 30058
AAXX 15061 14105 11296 82201 10103 20098 30133 40137 57005 60022 71062 885// 333 20103 31010 55001 70049 84706 88620 555 20104 30106
AAXX 15061 14106 11696 70000 10089 20083 30065 40133 58002 60082 72162 87500 333 20084 32008 55000 70158 87633 95090 555 20082 30083
AAXX 15061 14121 11495 80000 10090 20082 39864 40127 57006 60052 76166 887// 333 20088 31008 55006 70053 88714 555 20073 30073
AAXX 15061 14122 11115 82901 10081 20080 39944 40140 55000 60052 76166 8757/ 333 20081 32/// 70052 82702 82650 85656
AAXX 15061 15501 11512 80000 10026 20023 30153 40198 56006 60002 71042 885// 333 10040 20024 70000 555 31/// 598//
AAXX 15061 15505 12975 22301 10040 20025 39820 40199 57006 60002 80005 333 10065 21015 70000 555 31104 590//
AAXX 15061 15511 11504 83201 10019 20016 30184 40224 53002 69912 75154 886// 333 10035 20014 55000 70001 555 31/// 59800 69999
AAXX 15061 15514 11/03 90902 10022 20017 30167 40204 52004 60002 74544 333 10036 20016 70000 555 31/// 596//
AAXX 15061 15530 12970 50000 11008 21026 39974 40221 58007 60002 82041 333 10028 21016 70000 555 34106 588// 92601
AAXX 15061 15533 11508 80000 10009 20006 30153 40186 53008 69912 74642 885// 333 10042 20005 70001 555 31/// 598//
AAXX 15061 15550 11/05 90000 11003 21009 30189 40209 53008 60002 74741 333 10048 21003 70000 555 30/// 596//
AAXX 15061 15561 11403 82002 10076 20063 30202 40209 52003 69902 75154 886// 222// 00096 2//00 333 10078 20066 70000 555 31007 59100 65299 92012 92412 96044
AAXX 15061 15562 11/01 92506 10080 20062 30144 40217 53005 69932 74544 222// 2//01 333 10080 20066 55015 70003 555 31005 589// 92024 92421
AAXX 15061 15600 11989 22510 10000 21004 38322 48521 54000 60002 70200 81031 333 10010 20000 55068 555 31/// 596//
AAXX 15061 15601 11/04 90000 10000 21011 39602 40241 54000 60002 74544 333 10034 21001 55000 70000 555 31000 592//
AAXX 15061 15605 11/02 90000 11011 21011 39371 40242 57001 60002 74544 333 10014 21014 70000 555 31101 500//
AAXX 15061 15613 11/89 52704 11028 21035 37725 47073 58002 60002 70310 81571 333 11028 21040 44014 55064 70000 555 595//
AAXX 15061 15628 11/01 90000 11004 21010 39968 40235 54000 60002 74544 333 10026 21026 55066 70000 555 30104 596// 92600
AAXX 15061 15642 11615 80000 10070 20068 30056 40226 53002 60002 71022 885// 333 10084 20066 55016 70000 555 30005 599//
AAXX 15061 15661 11508 62301 10052 20047 30182 40218 53003 60002 74444 86500 222// 20000 333 10088 20042 70000 555 31001 597// 92011 92414
AAXX 15061 15726 11982 23202 10018 21063 38281 48539 53002 60002 70300 80002 333 10034 20014 41999 55082 70000 555 555//
AAXX 15064 40250 32960 30000 10062 21055 39386 40186 54002 80001 333 20046 30/// 83070
AAXX 15064 40260 32960 33515 10065 21039 39386 40177 57004 80002 333 20010 30000 83070
AAXX 15064 40265 31958 03104 10052 21010 39408 40218 53012 70500 333 20034 30001
AAXX 15064 65501 32960 70000 10123 20011 39717 40137 80002 333 00800 20123 50734 55093 59007 87076
AAXX 15064 65502 32960 70000 10164 21053 39747 40129 80002 333 01200 20159 50814 55093 58003 87076
AAXX 15064 65503 32960 70202 10149 20035 39783 40131 80002 333 01100 20144 50660 55098 51712 58000 87076
AAXX 15064 65505 32960 70410 10185 21025 39783 40122 80002 333 01500 20179 50854 55102 59001 87076
AAXX 15064 65507 32960 70602 10164 21008 39773 40124 80002 333 01100 20164 50834 55095 59002 87076
AAXX 15064 65510 31958 60406 10192 21005 39600 40114 70622 80002 333 01700 20190 50960 55096 59005 86076
AAXX 15064 65516 32960 60402 10167 20005 39813 40121 80002 333 01200 20160 50634 55096 59001 86076
AAXX 15064 65518 32960 73604 10159 20001 39747 40113 80002 333 01000 20146 51204 55096 59006 87076
AAXX 15064 65522 31945 70000 10143 20057 39787 40118 70622 80002 333 01200 20143 50734 55086 59006 87076
AAXX 15063 04013 42689 80518 11018 21046 49924 52005 82510 555 3//18
AAXX 15063 04064 42782 53402 11027 21085 49892 52009 83531 555 3//05
AAXX 15064 93004 16/// /2710 10171 20171 40062 52003 60001
AAXX 15064 93023 16/// /0000 10217 20157 40051 52007 69921
AAXX 15064 93069 16/// /2614 10182 20176 40037 52009 60001
AAXX 15064 93110 17296 /2210 10180 20178 40030 57012 60151
AAXX 15064 93186 17295 /0511 10175 20174 40052 57022 60191
AAXX 15064 93196 16/// /0215 10166 20156 40090 57018 60021
AAXX 15064 93245 16497 /0512 10149 20135 40057 57010 60031
AAXX 15064 93292 17897 /0303 10169 20145 40074 57013 60011
AAXX 15064 93309 17296 /3110 10174 20173 40029 57008 60161
AAXX 15064 93334 16/// /0308 10131 20115 39108 57010 60101
AAXX 15064 93339 16/// /0223 10127 20111 39109 57010 60041
AAXX 15064 93373 17997 /0515 10166 20156 40057 57011 60031
AAXX 15064 93404 17797 /1103 10180 20166 40033 57009 60061
AAXX 15064 93420 17595 /0508 10170 20156 40031 57009 60181
AAXX 15064 93439 17496 /0106 10174 20162 40031 57010 60071
AAXX 15064 93498 16/// /0318 10143 20143 40041 57013 60041
AAXX 15064 93515 17296 /0406 10167 20167 40015 57008 69921
AAXX 15064 93527 16/// /3305 10167 20167 40020 57008 60061
AAXX 15064 93546 17396 /0204 10172 20172 40024 57013 60171
AAXX 15064 93597 16/// /3512 10151 20149 40026 57010 60031
AAXX 15064 93615 17296 /0205 10174 20161 40015 57009 60001
AAXX 15064 93678 16594 /3604 10155 20150 40012 57007 60001
AAXX 15064 93709 16/// /0107 10172 20158 40009 57004 69921
AAXX 15064 93773 17398 /1717 10140 20124 40026 52015 60001
AAXX 15064 93781 17998 /0710 10172 20147 40006 57004 69921
AAXX 15064 93800 NIL
AAXX 15064 93805 NIL
AAXX 15064 93831 17698 /1616 10140 20098 40027 52030 60001
AAXX 15064 93845 17496 /1414 10110 20098 40077 52011 60001
AAXX 15064 93891 17396 /2010 10115 20107 40060 52015 69921
AAXX 15064 93909 16/// /1324 10100 20068 40082 52014 6///1
AAXX 15064 93929 16/// /1311 10081 20027 40117 52004 60001
AAXX 15064 93947 16/// /2411 10076 20023 40101 52014 60001
AAXX 15064 93987 16/// /0110 10137 20088 40155 57011 60001
AAXX 15064 93994 16/// /1103 10219 20193 40129 52005 60001
AAXX 15064 04005 41488 60512 11029 21053 49958 52021 77173 86800 555 3/413
AAXX 15064 04018 41315 80620 11022 21028 49892 52012 77172 886// 555 3//23 86706 88718
AAXX 15064 04030 41575 80810 10001 21073 49885 52009 71522 8472/ 555 3//13 84729 88550
AAXX 15064 04048 NIL
AAXX 15064 04063 42575 83309 11026 21046 49938 52009 8592/ 555 3//15
AAXX 15064 04077 NIL
AAXX 15064 04082 NIL
AAXX 15064 04097 41560 72908 11011 21059 49872 52002 71682 87300 555 3/417
AAXX 15064 68032 12560 60707 10233 20212 48500 52015 60034 85582 333 20201
AAXX 15064 68325 12460 21612 10202 20042 48507 52011 60044 81501 333 20145
AAXX 15061 13160 32697 60201 10046 20046 30062 40172 52009 86500 333 20037 31000 55000 70000
AAXX 15061 13262 32697 70000 10106 20043 30007 40154 57006 84570 333 20078 31003 55054 70000
AAXX 15061 13272 32960 61703 10118 20033 30044 40162 56006 86060 333 20072 31004 55024 86358
AAXX 15061 13285 11698 81103 10047 20033 30084 40188 56002 69902 70262 885// 333 20030 31001 55040 79999
AAXX 15061 13289 32898 52103 10064 20013 38986 48492 56007 85030 333 20057 31001 55068 70000
AAXX 15061 13376 31793 70501 10011 20009 39933 40204 57007 74244 84530 333 20007 31101 55014 70000
AAXX 15061 13388 32997 41102 10045 20027 39961 40213 55002 82032 333 20032 31101 55032 70000
AAXX 15061 13462 11408 80000 10100 20099 30177 40217 58004 60042 76064 8652/ 333 20075 32009 55/// 82710 84633 88457
AAXX 15061 13473 NIL
AAXX 15061 13489 11/91 91201 10003 20003 39713 40251 54000 69942 74544 333 20002 31101 55012 70004
AAXX 15061 26106 11/97 71906 10052 20030 49985 52014 60072 72582 87900 333 20043 91010 91115
AAXX 15061 26313 33/// /2404 10050 20040 49946 52008 333 20042
AAXX 15061 26346 11496 81807 10043 20037 49999 57015 60032 76366 8872/ 333 20026 86710 91010 91113
AAXX 15061 26406 11597 82406 10057 20028 49994 52032 60062 70282 885// 333 20047 88629 91010 91114
AAXX 15061 26416 33/// /2405 10036 20024 49991 52026 333 20035 91111
AAXX 15061 26424 11497 82406 10048 20031 49990 52020 60092 72582 889// 333 20034 91115
AAXX 15061 26544 11597 81905 10054 20033 40035 57003 60012 72582 883// 333 20024 84922 91112
AAXX 15061 26115 21358 82804 10055 20044 39911 49919 53001 78082 889// 333 10065 20044 60017 88910 91008 91109 555 12005 20044 32004 50059
AAXX 15061 26038 01258 81804 10025 20019 39889 49930 56020 60042 78182 889// 333 10044 20024 60027 88906 91008 91111 555 11002 20024 31002 50040 52002
AAXX 15061 01028 41340 70613 10005 21001 39833 49853 57007 72372 8772/ 333 20002
AAXX 15061 01492 11480 72004 10041 20021 39709 49824 58004 60002 70222 8767/ 333 20035 79999 91107
AAXX 15064 85558 12597 82207 10159 20127 40139 57011 886// 333 56099 88730
AAXX 15064 85564 12598 80000 10145 20113 40158 57010 60001 885// 333 56099 88630
AAXX 15064 85732 12597 31818 10138 20121 40110 54004 60001 83400 333 56500 83622
AAXX 15064 85802 12997 02403 10129 20105 40137 57004 60001
AAXX 15064 85834 12997 02433 10110 20095 40109 57006 60001 333 91144 91524
AAXX 15064 85889 12997 01517 10122 20076 40174 57012 60001
AAXX 15064 85930 12597 80322 10113 20088 40171 54003 60001 885// 333 56899 88729
AAXX 15064 85931 12997 03507 10118 20080 40186 54003 60001
AAXX 15064 85970 12497 80000 10092 20069 40147 54/// 60001 88600 333 56000 88718
AAXX 15064 85972 11495 83015 10076 20074 40144 52009 60001 71622 887// 333 56799 88717
AAXX 15064 89057 11340 83007 10004 21001 40060 52005 69921 75022 886// 333 56099 88707
AAXX 15064 08055 12460 72612 10046 20023 39188 48544 52017 69912 85740 333 20042 31002 55056 70008 95090
AAXX 15064 08075 12365 72315 10038 20029 39209 48540 52015 60002 87700 333 20032 55012 70005
AAXX 15064 08084 02975 32709 10083 20023 39817 40256 53020 60002 80005 333 20060 3/002 55050 60007 70000
AAXX 15064 08171 NIL
AAXX 15064 08184 06/// /0000 10064 20050 30051 40210 53013 60002 333 20052 3/003 55044 60007 70012
AAXX 15064 08202 02665 62109 10049 20036 39350 42882 50002 69902 82535 333 20038 31003 55022 60007 70001
AAXX 15064 08235 NIL
AAXX 15064 08238 12680 53308 10128 20033 30170 40231 52010 60002 82135 333 20109 55002 70000
AAXX 15064 08280 12562 73106 10066 20048 39463 40303 53022 69902 87500 333 20060 50294 55010 79999
AAXX 15064 08330 12960 72604 10062 20048 30082 40320 52015 60002 80008 333 20056 31005 50134 55029 70009
AAXX 15064 08348 12765 81904 10046 20046 39567 40328 53019 60002 85016 333 20046 50054 55003 70012
AAXX 15064 08360 02970 02805 10103 20040 30227 40265 53011 60002 333 20091 3/010 55050 60007 70000
AAXX 15064 08373 02965 62816 10151 20083 30227 40249 53016 60002 80007 333 20148 3/013 55061 60007 70000
AAXX 15064 08410 NIL
AAXX 15064 08419 01/01 90000 10073 20067 39634 40319 53015 60002 74544 333 20072 3/006 55018 60007 70000
AAXX 15064 08451 06/// /3601 10092 20092 30274 40308 53010 60002 333 20092 3/007 55/// 60007 70011
AAXX 15064 08487 02975 60204 10114 20067 30237 40263 53011 60002 80006 333 20105 3/010 55072 60007 70000
AAXX 15061 12120 11470 62207 10041 20024 30017 40024 52014 69992 70382 8523/ 333 10079 20039 31003 55032 70009 93095
AAXX 15061 12250 12684 42204 10043 20012 39986 40075 52019 69972 83501 333 10089 20042 31003 55022 70007 91110 93000
AAXX 15061 12295 12964 52003 10036 20018 39903 40088 52013 69902 85030 333 10072 20036 31002 55028 79999 93000
AAXX 15061 12330 12670 52103 10030 20004 39974 40083 52013 60022 85500 333 10079 20027 32001 55012 70034 93000
AAXX 15061 12375 12970 22002 10038 20018 39973 40105 52019 60002 82030 333 10070 20038 31002 55018 91108 93000
AAXX 15061 12424 12999 62005 10038 21004 39957 40111 51007 69902 81031 333 10077 20034 31001 55014 79999 93000
AAXX 15061 12105 11782 81804 10033 20012 39988 40031 53007 60012 70381 85507 333 10084 20031 31002 55023 70013 91111 93095
AAXX 15061 12195 12670 72206 10048 20020 39833 40060 52017 60002 875// 333 10070 20042 31004 55032 91112 93000
AAXX 15061 12235 11475 12106 10021 20015 39841 40053 52017 60102 70181 81500 333 10068 20021 32001 55039 70099 91113 93001
AAXX 15061 12270 12584 72506 10046 20021 39899 40081 52020 60012 875// 333 10072 20036 31002 55010 70012 91113 93000
AAXX 15061 12280 12584 72205 10051 20016 39905 40062 52022 69922 875// 333 10068 20046 31002 55032 70002 91112 93000
AAXX 15061 12300 12784 72203 10035 20010 39971 40061 51004 69902 875// 333 10072 20029 31002 55020 70016 91111 93000
AAXX 15061 12400 12984 22003 10029 20000 39846 40084 52004 60032 80005 333 10075 20028 31001 55006 70041 91115 93000
AAXX 15061 12435 11684 72106 10040 21008 39930 40103 52013 69912 70181 81506 333 10066 20031 31101 70001 91114 93091
AAXX 15061 12495 12965 72202 10042 20027 39829 40123 53006 60002 8703/ 333 10059 20042 31003 55013 93000
AAXX 15061 12530 12961 71201 10020 20004 39921 40124 50005 60002 82034 333 10068 20019 31102 93000
AAXX 15061 12570 12970 72302 10038 20008 39810 40131 53011 60002 82036 333 10055 20013 34101 55019 91110 93000
AAXX 15061 12580 12970 72004 10068 20048 39878 40137 53005 69902 8707/ 333 10080 20068 31004 55028 79999 93097
AAXX 15064 06030 01465 71913 10038 20027 39874 49890 53003 6///2 72161 87532 333 10048 20029 32001 6///7 70003 82618 87642
AAXX 15064 06060 01460 62206 10043 20037 39849 49913 53015 60032 70282 85870 333 10044 20027 32001 60027 70031 82818 85645
AAXX 15064 06070 07362 72207 10041 20027 39895 49925 52006 60022 78188 333 10052 20024 3/002 60017 70019 81/07 83/12 85/22 87/40 91124
AAXX 15064 06120 36356 72213 10041 20041 39920 49946 52012 333 10049 20022 3/001 81/09 83/14 85/17 87/21 91024 91129
AAXX 15064 06180 01462 82118 10038 20027 39947 49953 57005 69902 78082 885// 333 10051 20024 32002 69907 70035 88612 91129
AAXX 15064 06193 07580 72224 10048 20020 39969 49980 57001 69902 70086 333 10065 20043 55300 20000 6///7 70024 81/22 87/70 91134
AAXX 15061 12160 11480 72005 10050 20033 39999 40052 53021 60032 72522 873// 333 10081 20047 32004 55040 70032 93097
AAXX 15061 12205 11784 52107 10041 20013 30027 40035 55000 60022 70181 83502 333 10073 20040 31003 55007 70032 91112 93092
AAXX 15061 12465 12681 22305 10039 20006 39875 40110 52020 60002 81530 333 10070 20032 31002 55003 20147 79999 93000
AAXX 15061 12566 12970 22405 10032 20004 39839 40137 52010 69902 82030 333 10077 21011 31101 79999 93000
AAXX 15064 71744 NIL
AAXX 15064 71750 16/// /0404 10006 20003 39781 40013 56038 60001 333 10036 21062 70018 555 32218 40181
AAXX 15064 71751 NIL
AAXX 15064 71752 NIL
AAXX 15064 71753 16/// /2802 11017 21055 30241 40271 56007 60001 333 10027 21021 70000 555 30223 40091
AAXX 15064 71754 16/// /3507 11103 21131 39552 40233 51017 60001 333 11017 21103 70000 555 33133 40172
AAXX 15064 71755 43/// /0205 11061 21073 39703 40048 56006 6///1 333 11023 21061 7//// 555 32427 40071
AAXX 15064 71756 17/// /0301 11019 21022 39077 40180 53009 60011 7//4/ 333 11016 21028 70015 555 10040 20015
AAXX 15064 71758 NIL
AAXX 15064 71760 NIL
AAXX 15064 71761 NIL
AAXX 15064 71762 NIL
AAXX 15064 71763 NIL
AAXX 15064 71765 17/// /1402 11021 21031 39917 40197 55006 69951 7//4/ 333 11013 21056 70005
AAXX 15064 71766 17/// /1305 10024 20015 30112 40184 51008 60021 7//4/ 333 10037 21018 70045
AAXX 15064 71767 17/// /1811 10070 20067 39788 40046 58041 60031 7//4/ 333 10070 21002 70077 555 31620 40061
AAXX 15064 71768 46/// /2903 11034 21047 39667 40227 56008 6///1 333 11003 21052 7////
AAXX 15064 71769 17/// /1309 10036 20023 30164 40180 52007 60041 7//4/ 333 10047 20030 70062 555 31229 40212
AAXX 15064 71770 16/// /1002 11016 21040 39448 40234 56007 60001 333 11003 21033 70000
AAXX 15064 71771 NIL
AAXX 15064 71772 17/// /1210 10050 20038 30175 40181 51006 60021 7//4/ 333 10057 20033 70022 555 31422 40011
AAXX 15064 71773 16/// /1805 11079 21096 39269 40140 57006 60001 333 11075 21178 70000 555 10010
AAXX 15064 71774 46/// ///// 10008 6///1 333 10020 20001 7////
AAXX 15064 71775 46/// /3604 10034 20028 30196 40202 52012 6///1 333 10047 21008 7////
AAXX 15064 71776 46/// /2908 11014 21035 39577 40230 55003 6///1 333 10003 21022 7//// 555 32818 40141
AAXX 15064 71777 17/// ///// 11019 21021 39949 40205 53009 69931 7//4/ 333 11011 21046 70007
AAXX 15064 71778 46/// /0216 6///1 333 7//// 555 30325 40211
AAXX 15064 71779 17/// /0000 11052 21056 39504 40179 58005 60021 7//4/ 333 11023 21115 70016 555 10030 20016
AAXX 15064 71780 16/// /1006 10040 20022 30160 40188 53005 60001 333 10056 20033 70002 555 31118 40021
AAXX 15064 71781 46/// /1322 10042 20024 30152 40177 53008 6///1 333 10053 20030 7//// 555 31334 40213
AAXX 15064 71782 NIL
AAXX 15064 71783 17/// /3604 10039 20031 30114 40188 51009 69981 7//4/ 333 10055 20002 70010
AAXX 15064 71784 17/// /0603 10031 20019 39984 40190 52008 60041 7//4/ 333 10060 20001 70044
AAXX 15064 71785 16/// /0303 10041 20025 30189 40205 53011 60001 333 10057 20010 70000
AAXX 15064 71786 46/// /2515 11099 21111 38356 40235 56007 6///1 333 11090 21123 7//// 555 32631 40082
AAXX 15064 71787 16/// /2105 11061 21082 39768 40269 56011 60001 333 11021 21063 70000 555 30224 40071
AAXX 15064 71788 NIL
AAXX 15064 71789 NIL
AAXX 15064 71791 NIL
AAXX 15064 71792 NIL
AAXX 15064 71793 NIL
AAXX 15064 71794 NIL
AAXX 15064 71795 NIL
AAXX 15064 71796 NIL
AAXX 15064 71797 NIL
AAXX 15064 71201 17/// ///// 10045 20023 60031 7//4/ 333 10060 20020 70028
AAXX 15064 71202 16/// ///// 11157 21172 60001 333 11034 21158 70005
AAXX 15064 71203 17448 81405 11022 21038 39694 40224 56004 60001 771// 333 11008 21030 70000
AAXX 15064 71209 46/// /1008 10044 6///1 333 10059 20023 7////
AAXX 15064 71211 46/// /0208 10033 20022 30184 40196 51008 6///1 333 10047 20027 7//// 555 30319 40211
AAXX 15064 71212 16/// /1503 11036 21045 39389 40204 58023 60001 333 11017 21052 70003
AAXX 15064 71213 46/// /1309 10001 20001 39756 40055 58047 6///1 333 10008 21021 7////
AAXX 15064 71214 NIL
AAXX 15064 71215 46/// /1602 11022 21035 39874 40226 58012 6///1 333 11002 21025 7////
AAXX 15064 71216 16/// /1201 11013 21034 39593 40219 56008 60001 333 10002 21023 70000 555 10010
AAXX 15064 71217 NIL
AAXX 15064 71218 16/// /0000 11006 21043 39777 40211 56006 60001 333 10006 21030 70000
AAXX 15064 71219 46/// /0707 10022 21024 30154 40160 53006 6///1 333 10032 20006 7//// 555 30421 40191
AAXX 15064 71220 46/// /3210 10024 21009 6///1 333 10028 20016 7////
AAXX 15064 71221 NIL
AAXX 15064 71222 16/// /0401 11209 21229 39229 40247 51009 60001 333 11115 21221 7////
AAXX 15064 71223 NIL
AAXX 15064 71224 NIL
AAXX 15064 71225 NIL
AAXX 15064 71226 NIL
AAXX 15064 71227 NIL
AAXX 15064 71228 NIL
AAXX 15064 71229 NIL
AAXX 15064 71230 16/// /0802 11106 21124 39280 40199 58008 60001 333 11049 21153 70000
AAXX 15064 71231 16/// /1405 11056 21074 60001 333 11015 21122 70000 555 33118 40111
AAXX 15064 71232 16/// /2304 11081 21109 38664 40190 58014 60001 333 11024 21118 70000 555 32622 40071
AAXX 15064 71233 NIL
AAXX 15064 71234 16/// /1502 11107 21118 39004 40221 56014 60001 333 10026 21109 70000 555 30423 40101
AAXX 15064 71235 16/// /1808 11072 21113 60001 333 10006 21078 70000 555 33419 40091
AAXX 15064 71236 46/// /0601 11087 21106 6///1 333 11007 21091 7//// 555 33129 40112
AAXX 15064 71237 46/// /0000 11123 21137 39391 40229 57005 6///1 333 11006 21164 7////
AAXX 15064 71238 16/// /0000 11148 21162 60001 333 11011 21148 70000 555 32917 40091
AAXX 15064 71239 16/// /3113 11026 21053 39627 40091 53010 60001 333 11026 21056 70000 555 33121 40051
AAXX 15064 71240 16/// ///// 11113 21130 39372 40243 52009 60001 333 11018 21123 70000
AAXX 15064 71241 NIL
AAXX 15064 71242 16/// /1601 11160 21170 60001 333 11012 21168 70000 555 33519 40101
AAXX 15064 71243 NIL
AAXX 15064 71244 16/// /2202 11122 21130 38969 40229 56009 60001 333 10022 21123 70000 555 33228 40122
AAXX 15064 71245 NIL
AAXX 15064 71246 NIL
AAXX 15064 71247 15766 80602 11085 21097 39365 40241 50001 60001 333 11014 21127 70000
AAXX 15064 71248 16/// /1503 11071 21110 38875 40201 58014 60001 333 10002 21102 70007
AAXX 15064 71249 NIL
AAXX 15064 71700 15966 02202 11059 21074 30256 40282 55002 60001 333 10010 21074 70000
AAXX 15064 71701 12874 22104 11051 21085 30218 40282 55003 60001 82030 333 10007 21051 70000 555 10000 20000
AAXX 15064 71702 16/// /2308 11010 21070 30252 40267 55008 60001 333 10006 21019 70000 555 30424 40071
AAXX 15064 71703 NIL
AAXX 15064 71704 17328 82016 10105 20099 39856 40074 56036 60031 7614/ 333 10109 20021 70083
AAXX 15064 71710 NIL
AAXX 15064 71712 16/// /0603 10021 20015 30092 40153 58042 60001 333 10021 20006 70000
AAXX 15064 71713 16/// /1610 10000 21029 60001 333 10007 21022 70000
AAXX 15064 71716 NIL
AAXX 15064 71717 NIL
AAXX 15064 71720 17/// /1008 10022 20013 30037 40191 51006 60051 7//4/ 333 10040 21012 70093 555 31217 40211
AAXX 15064 71721 NIL
AAXX 15064 71723 16/// /1005 10015 21004 30178 40188 58043 60001 333 10015 21002 70000
AAXX 15064 71724 NIL
AAXX 15064 71732 17/// /1706 10023 20018 60011 7//4/ 333 10035 20011 70036
AAXX 15064 71733 17/// /1508 10024 20024 39622 40043 56043 69991 7//4/ 333 10024 21001 70022 555 31418 40021
AAXX 15064 71734 17/// /1407 10000 21003 39676 40066 57051 60031 7//4/ 333 10002 21044 70026
AAXX 15064 71736 NIL
AAXX 15064 71737 NIL
AAXX 15064 71741 17/// /0907 11018 21022 39773 40202 56003 69991 7//4/ 333 11001 21056 70009
AAXX 15064 71742 NIL
AAXX 15064 71743 NIL
AAXX 15064 71744 NIL
AAXX 15064 71745 NIL
AAXX 15064 71746 NIL
AAXX 15064 71747 16/// /0000 10001 21001 39550 40020 56021 60001 333 10043 21010 7////
AAXX 15064 71748 NIL
AAXX 15064 71001 NIL
AAXX 15064 71002 NIL
AAXX 15064 71003 NIL
AAXX 15064 71005 16/// ///// 11150 21165 60001 333 11026 21154 70000
AAXX 15064 71006 NIL
AAXX 15064 71007 NIL
AAXX 15064 71008 NIL
AAXX 15064 71009 NIL
AAXX 15064 71010 NIL
AAXX 15064 71011 NIL
AAXX 15064 71012 NIL
AAXX 15064 71013 NIL
AAXX 15064 71014 NIL
AAXX 15064 71015 NIL
AAXX 15064 71016 NIL
AAXX 15064 71017 NIL
AAXX 15064 71018 NIL
AAXX 15064 71019 NIL
AAXX 15064 71020 NIL
AAXX 15064 71021 NIL
AAXX 15064 71022 15966 30505 11010 21020 30124 40169 52010 60001 333 10010 21013 70000
AAXX 15064 71023 16964 00203 11146 21153 39443 40237 53003 60001 333 11032 21146 70010 555 33325 40131
AAXX 15064 71024 16/// /0703 11136 21144 60001 333 11079 21143 70007 555 10020 20007
AAXX 15064 71026 NIL
AAXX 15064 71027 16/// /2702 11024 21063 30257 40267 56008 60001 333 10012 21043 70025 555 30617 40111
AAXX 15064 71028 17/// /3401 11029 21033 39129 40177 51004 69931 7//4/ 333 11013 21030 70003
AAXX 15064 71029 17/// /3110 11231 21255 30129 40170 53002 69931 7//4/ 333 11214 21264 70006 555 33318 40071
AAXX 15064 71030 16/64 /3002 11061 21069 30182 40274 56009 60001 333 10017 21061 70000
AAXX 15064 71032 46/// /0000 11045 21053 39362 40212 55000 6///1 333 11034 21119 7//// 555 10020
AAXX 15064 71033 46/// /0203 11185 21204 39583 40238 53013 6///1 333 11083 21185 7//// 555 10020
AAXX 15064 71035 NIL
AAXX 15064 71036 17564 83317 11034 21064 39730 40109 53029 60001 771// 333 11025 21049 70000
AAXX 15064 71039 NIL
AAXX 15064 71040 46/// /0903 11049 21063 39992 40195 58029 6///1 333 11017 21061 7////
AAXX 15064 71041 15566 81202 11040 21075 30126 40271 56013 60001 333 10020 21039 70000 555 30419 40111
AAXX 15064 71042 17/// /0802 10031 20025 30189 40193 53010 69961 7//4/ 333 10050 21007 70006
AAXX 15064 71044 16/// /2001 11221 21248 39832 40165 56003 60001 333 11218 21257 70000
AAXX 15064 71046 460// /2710 11272 30212 40230 51005 6///1 333 11262 21286 7//// 555 31027 40091
AAXX 15064 71047 16/// ///// 11120 21127 60001 333 11024 21120 70000
AAXX 15064 71048 NIL
AAXX 15064 71049 NIL
AAXX 15064 71060 NIL
AAXX 15064 71063 NIL
AAXX 15064 71150 NIL
AAXX 15064 71151 NIL
AAXX 15064 71152 17/// /3007 11041 21078 30243 40256 56008 69981 7//4/ 333 11027 21082 70008 555 30428 40072
AAXX 15064 71153 NIL
AAXX 15064 71154 16/// /0203 11070 21091 60001 333 10002 21121 70000 555 32343 40073
AAXX 15064 71155 NIL
AAXX 15064 71156 NIL
AAXX 15064 71157 NIL
AAXX 15064 71158 NIL
AAXX 15064 71159 NIL
AAXX 15064 71160 NIL
AAXX 15064 71161 16/// /1808 10042 20031 39988 40136 56042 60001 333 10049 20006 70000 555 31717 40041
AAXX 15064 71162 NIL
AAXX 15064 71163 46/// /1004 11232 21255 39874 40236 56006 6///1 333 11222 21345 7////
AAXX 15064 71164 NIL
AAXX 15064 71165 NIL
AAXX 15064 71166 NIL
AAXX 15064 71167 15966 62902 11158 21175 39088 40228 56006 60001 333 11012 21158 70000
AAXX 15064 71168 NIL
AAXX 15064 71170 16/// /3115 11030 21058 60001 333 11029 21058 70000 555 33024 40051
AAXX 15064 71171 NIL
AAXX 15064 71172 17/// ///// 10058 20052 39842 40056 56047 60031 7//4/ 333 10059 20002 7////
AAXX 15064 71175 16/// /0203 11034 21067 30237 40273 58011 60001 333 10033 21055 70000 555 30619 40111
AAXX 15064 71176 460// /2546 11114 39271 49953 53003 6///1 333 11084 21131 7////
AAXX 15064 71177 460// /1923 11131 39047 40067 53009 6///1 333 11084 21169 7//// 555 32440 40043
AAXX 15064 71178 16/// /2913 11049 21084 30197 40230 53003 60001 333 11028 21051 70000 555 30132 40112
AAXX 15064 71179 460// /2214 11160 39267 40117 50013 6///1 333 11099 21175 7//// 555 32039 40233
AAXX 15064 71180 16/// /3010 11014 21067 30221 40261 56012 60001 333 11012 21092 70036 555 33020 40021
AAXX 15064 71181 16964 00000 11091 21118 30196 40234 53005 60001 333 7////
AAXX 15064 71183 17/// /1412 30120 58048 69981 7//4/ 333 70008 555 31317 40041
AAXX 15064 71184 46/// /1206 10017 20008 6///1 333 10017 20003 7////
AAXX 15064 71186 NIL
AAXX 15064 71187 17566 81005 10003 20000 30154 40203 53001 60001 761// 333 10033 21011
AAXX 15064 71189 NIL
AAXX 15064 71190 NIL
AAXX 15064 71191 16/// ///// 11013 21059 60001 333 10013 21013 70000
AAXX 15064 71192 17520 80000 11050 21050 39507 40183 58006 60021 7714/ 333 11022 21107 70015
AAXX 15064 71193 17/// /1307 11001 21002 39679 40039 58041 69961 7//4/ 333 10003 21039 7//// 555 10040
AAXX 15064 71196 17/// /1308 10010 20010 39907 40106 57046 60071 7//4/ 333 10016 20001 70078
AAXX 15064 71197 16564 82812 11015 21069 30209 40260 58012 60001 333 11014 21073 70000 555 30220 40141
AAXX 15064 71198 46/// /0810 10021 20005 6///1 333 10022 20007 7////
AAXX 15064 71199 46/// /0000 11227 21249 39350 40228 51006 6///1 333 11122 21240 7////
AAXX 15064 71051 NIL
AAXX 15064 71055 NIL
AAXX 15064 71057 NIL
AAXX 15064 71059 460// ///// 11191 30114 40208 51001 6///1 333 11182 21256 7////
AAXX 15064 71061 16/// /2801 11151 21166 39406 40219 57002 60001 333 11028 21151 70000
AAXX 15064 71062 46/// /1704 11103 21143 39097 40194 57007 6///1 333 11004 21123 7//// 555 33320 40091
AAXX 15064 71064 460// /3322 11290 39910 40137 53009 6///1 333 11282 21295 7//// 555 33246 40093
AAXX 15064 71065 NIL
AAXX 15064 71067 NIL
AAXX 15064 71070 NIL
AAXX 15064 71073 NIL
AAXX 15064 71074 NIL
AAXX 15064 71075 NIL
AAXX 15064 71078 15966 03207 11256 21285 39760 40225 53014 60001 333 11079 21258 70000
AAXX 15064 71084 460// ///// 11212 39952 40000 53017 6///1 333 11194 21230 7////
AAXX 15064 71085 15966 62406 11098 21110 38806 40223 58014 60001 333 11003 21113 70000
AAXX 15064 71087 NIL
AAXX 15064 71088 460// /1020 11119 58007 6///1 333 11118 21170 7//// 555 30551 40213
AAXX 15064 71089 NIL
AAXX 15064 71096 460// ///// 11174 39193 49931 56010 6///1 333 11163 21241 7////
AAXX 15064 71097 47004 02507 11093 39450 49918 53006 6///1 745// 333 11078 21125 7//// 555 31832 40082
AAXX 15064 71098 43/// /3404 11067 21075 39691 40052 56005 6///1 333 11026 21068 7////
AAXX 15064 71099 43/// /0210 11108 21141 30071 40091 53004 6///1 333 11045 21109 7//// 555 32424 40071
AAXX 15064 71450 16/// /3411 11052 21099 39484 40217 53022 60001 333 11016 21079 70000 555 33332 40212
AAXX 15064 71451 16/// /3104 11220 21251 39796 40240 53018 60001 333 11067 21231 70017 555 10010 20017 30118 40231
AAXX 15064 71452 46/// /3219 11037 21081 39459 40181 53027 6///1 333 11019 21064 7//// 555 33234 40013
AAXX 15064 71453 16/// /1604 11122 21137 39308 40250 51008 60001 333 11028 21128 70000 555 10010 32718 40201
AAXX 15064 71454 16/// /3507 11115 21145 39514 40224 51021 60001 333 11055 21115 70005 555 33424 40231
AAXX 15064 71455 NIL
AAXX 15064 71456 16/// /0109 11096 21123 39600 40213 51038 60001 333 11046 21096 70000 555 33223 40001
AAXX 15064 71457 16/// /1302 11071 21085 39311 40220 58005 60001 333 11021 21199 70000 555 33318 40141
AAXX 15064 71458 16/// /1803 11176 21195 39441 40240 50001 60001 333 11013 21177 70000 555 33224 40111
AAXX 15064 71459 16/// /2805 11131 21149 39409 40243 53010 60001 333 11024 21158 70000 555 33325 40181
AAXX 15064 71460 16/// /1912 10061 20058 39806 40044 58046 60001 333 10062 20018 70000 555 31426 40221
AAXX 15064 71461 NIL
AAXX 15064 71462 NIL
AAXX 15064 71463 NIL
AAXX 15064 71464 NIL
AAXX 15064 71465 NIL
AAXX 15064 71466 NIL
AAXX 15064 71468 NIL
AAXX 15064 71470 NIL
AAXX 15064 71471 15966 82002 11146 21159 39391 40216 58008 60001 333 11057 21186 70000
AAXX 15064 71473 17/// /3103 10020 20008 30162 40192 51012 60031 7//4/ 333 10037 20010 70026
AAXX 15064 71475 NIL
AAXX 15064 71476 NIL
AAXX 15064 71477 16/// /0507 10013 21023 60001 333 10032 21006 7//// 555 30421 40201
AAXX 15064 71478 NIL
AAXX 15064 71479 NIL
AAXX 15064 71480 NIL
AAXX 15064 71481 NIL
AAXX 15064 71482 NIL
AAXX 15064 71483 NIL
AAXX 15064 71484 NIL
AAXX 15064 71485 17/// /1322 10045 20026 30143 40163 51018 60011 7//4/ 333 10055 20042 70030 555 31237 40203
AAXX 15064 71486 16/// /1803 11098 21113 38977 40207 56006 60001 333 11025 21143 70000
AAXX 15064 71487 NIL
AAXX 15064 71489 16/// /3405 11102 21124 39409 40231 51013 60001 333 11022 21102 70000 555 33226 40201
AAXX 15064 71490 NIL
AAXX 15064 71491 16/// /0201 11245 21274 60001 333 11021 21413 70000
AAXX 15064 71492 NIL
AAXX 15064 71493 16/// /3302 11016 21066 30234 40273 55008 60001 333 10014 21019 70000 555 33419 40151
AAXX 15064 71494 16/// /1706 11009 21020 39686 40213 56025 60001 333 11004 21024 70000
AAXX 15064 71495 NIL
AAXX 15064 71496 16/// /0208 11065 21099 39594 40217 51023 60001 333 11013 21069 70000 555 33233 40202
AAXX 15064 71497 46/// /0000 11190 21212 39936 40214 53002 6///1 333 11093 21192 7//// 555 30618 40071
AAXX 15064 71498 NIL
AAXX 15064 71499 15466 80203 11171 21191 39584 40236 53014 60001 333 11077 21171 70000
AAXX 15064 71914 46/// /0000 10023 20014 39973 6///1 333 20005 7////
AAXX 15064 71401 16/// /1802 11030 21046 39536 40234 58003 60001 333 11016 21045 70000
AAXX 15064 71402 NIL
AAXX 15064 71404 NIL
AAXX 15064 71405 NIL
AAXX 15064 71406 NIL
AAXX 15064 71407 NIL
AAXX 15064 71408 NIL
AAXX 15064 71409 NIL
AAXX 15064 71410 17432 80211 11112 21131 39840 40124 53041 60011 7714/ 333 11038 21112 70031
AAXX 15064 71413 NIL
AAXX 15064 71414 NIL
AAXX 15064 71415 16/// /2204 11006 21063 30264 40267 56012 60001 333 10032 21007 70000 555 30230 40082
AAXX 15064 71417 NIL
AAXX 15064 71418 NIL
AAXX 15064 71419 46/// /0502 11013 21073 30261 40271 58014 6///1 333 10041 21014 7//// 555 30226 40151
AAXX 15064 71423 NIL
AAXX 15064 71424 NIL
AAXX 15064 71425 NIL
AAXX 15064 71426 NIL
AAXX 15064 71427 16/// /1101 11036 21068 30224 40232 58021 60001 333 11021 21102 70000 555 32817 40011
AAXX 15064 71428 16/// /2403 11023 21062 30234 40240 56012 60001 333 11011 21068 70000 555 32617 40011
AAXX 15064 71429 16/// /2705 11033 21075 30223 40243 56014 60001 333 11019 21066 70000 555 30218 40081
AAXX 15064 71434 NIL
AAXX 15064 71436 17148 81707 10057 20054 39879 40112 57034 60061 71044 333 10062 21031 70073
AAXX 15064 71437 46/// /2014 10112 20083 39997 40091 58046 6///1 333 10112 20041 7//// 555 31824 40061
AAXX 15064 71438 NIL
AAXX 15064 71439 NIL
AAXX 15064 71440 NIL
AAXX 15064 71442 17/// /3208 11052 21060 39753 40069 53002 69931 7//4/ 333 11032 21055 70003
AAXX 15064 71445 NIL
AAXX 15064 71446 16/// /2910 11091 21108 39219 40224 53012 60001 333 11046 21095 70000 555 33131 40202
AAXX 15064 71448 NIL
AAXX 15064 71449 NIL
AAXX 15064 71604 16/// /2703 11056 21076 60001 333 11029 21072 70000 555 30620 40091
AAXX 15064 71605 17/// /3302 10031 20031 30042 40193 51008 60071 7//4/ 333 10050 20012 70089
AAXX 15064 71611 NIL
AAXX 15064 71612 16/// /2003 10030 20012 30079 40170 58048 60001 333 10030 20003 70000
AAXX 15064 71614 NIL
AAXX 15064 71616 16/// /1608 10026 21001 30085 40206 58035 60001 333 10026 21006 70000
AAXX 15064 71617 16/// /1104 11032 21045 30035 40206 58031 60001 333 11018 21049 70000
AAXX 15064 71618 15966 03014 11218 21254 30126 40165 53006 60001 333 11081 21234 70000
AAXX 15064 71619 NIL
AAXX 15064 71622 NIL
AAXX 15064 71632 46/// /3305 11265 21295 39761 40223 53013 6///1 333 11079 21266 7//// 555 30318 40201
AAXX 15064 71634 16/// /2202 11065 21072 30117 40275 55003 60001 333 11026 21081 70000
AAXX 15064 71638 17/// /3302 10023 20011 30080 40186 51010 60041 7//4/ 333 10050 21008 70045
AAXX 15064 71639 11156 81808 10080 20066 39861 40101 56047 60021 72155 886// 333 10080 21012 70056 90912 555 10000 20000
AAXX 15064 71642 NIL
AAXX 15064 71900 46/// /25// 11075 21125 30107 40120 58002 6///1 333 11074 21127 7////
AAXX 15064 71903 NIL
AAXX 15064 71904 NIL
AAXX 15064 71914 17/// /0000 10023 20014 39973 40197 52012 60031 7//4/ 333 10037 20005 70032
AAXX 15064 71916 NIL
AAXX 15064 71918 460// ///// 11246 6///1 333 7////
AAXX 15064 71920 NIL
AAXX 15064 71921 NIL
AAXX 15064 71923 NIL
AAXX 15064 71927 NIL
AAXX 15064 71941 17240 81511 11001 21004 39671 40087 58047 60021 77144 333 11001 21077 70023
AAXX 15064 71947 17348 81410 11017 21018 39739 40086 58050 60021 7714/ 333 11015 21142 70015
AAXX 15064 71603 12574 80503 11009 21040 30234 40288 55007 60001 885// 333 10045 21019 70000 555 10000 20000 30520 40160
AAXX 15064 71607 16/// /2801 11076 21081 30249 40283 56004 60001 333 10019 21076 70000
AAXX 15064 71609 12574 80000 11031 21066 30145 40283 55009 60001 885// 333 10007 21071 70000 555 10000 20000 30220 40100
AAXX 15064 71610 15866 81003 10003 21013 39916 40216 58027 60001 333 10007 21018 70000
AAXX 15064 71621 17033 81707 10064 20060 30016 40121 58042 60021 74344 333 10083 21012 70020
AAXX 15064 71623 NIL
AAXX 15064 71624 11362 82112 10096 20094 39886 40096 58047 60021 76165 887// 333 10097 20016 70036 90967 555 10000 20000 31517 40000
AAXX 15064 71625 17140 81308 10019 21006 39946 40107 57046 60061 74144 333 10024 20005 70065
AAXX 15064 71627 11448 81412 10032 20012 30120 40165 58048 69981 76162 885// 333 10033 20006 70008 90921 555 10000 20000
AAXX 15064 71628 11232 81208 10020 20020 39997 40138 58051 60021 76165 887// 333 10021 20002 70024 90952 555 10000 20000
AAXX 15064 71630 NIL
AAXX 15064 71631 17/// /2010 10080 20075 39585 40080 58041 60041 7//4/ 333 10080 21006 70078
AAXX 15064 71633 11232 81912 10081 20080 39790 40058 58041 60021 76165 886// 333 10081 21011 70066 90983 555 10000 20000 31718 40000
AAXX 15064 71705 12974 02003 11038 21076 30184 40274 56012 60001 333 10003 21040 70004 555 10002 20004 30219 40080
AAXX 15064 71706 12574 82302 11018 21079 30216 40278 56011 60001 885// 333 10009 21020 79999 555 19999 29999 30322 40100
AAXX 15064 71707 12574 72803 11028 21086 30191 40270 57010 60001 87500 333 10031 21029 70010 555 19999 29999 30517 40080
AAXX 15064 71709 NIL
AAXX 15064 71711 NIL
AAXX 15064 71714 16/// /0604 10001 21019 30140 40233 58029 60001 333 10015 21047 70000
AAXX 15064 71715 16/// /1303 11030 21045 30037 40222 58024 60001 333 11007 21037 70000
AAXX 15064 71718 12583 81503 11022 21051 30167 40234 58018 60001 885// 333 11014 21053 79999 555 19999 29999
AAXX 15064 71719 NIL
AAXX 15064 71114 17564 81005 10003 21005 30155 40204 53001 69951 74344 333 10035 21011 70005
AAXX 15064 71120 11474 83605 11117 21142 39564 40240 50006 69901 77111 887// 333 11024 21123 42004 79999 90921 555 19999 29999 33321 40140
AAXX 15064 71122 16/// /2305 11099 21122 38574 40214 58008 60001 333 11039 21104 70000
AAXX 15064 71123 12974 71805 11169 21177 39337 40235 57005 60001 80004 333 11002 21174 70000 555 10000 20000 33020 40080
AAXX 15064 71125 NIL
AAXX 15064 71129 11574 72904 11073 21093 39379 40230 51010 69901 77111 87500 333 11020 21112 42997 79999 90921 555 19999 29999 33420 40170
AAXX 15064 71131 NIL
AAXX 15064 71135 16/// /3213 11072 21101 39108 40220 53013 60001 333 11061 21074 70000 555 33241 40203
AAXX 15064 71137 NIL
AAXX 15064 71140 11474 83214 11035 21059 39603 40110 5/018 69901 77122 885// 333 11027 21061 41997 79999 90910 555 19999 29999 33222 40060
AAXX 15064 71145 11428 80212 11099 21122 39788 40085 53015 60031 77177 885// 333 11048 21099 48034 70030 90983 93103 555 10030 20030 30321 40060
AAXX 15064 71148 16/// /3120 11031 21056 39507 40091 53003 60001 333 11030 21061 70000 555 33128 40042
AAXX 15064 71182 17464 82305 11133 21169 39624 40182 57012 60001 745// 333 11131 21275 70000
AAXX 15064 71185 17564 82615 11018 30197 40221 56009 60011 7//44 333 11018 21138 70010 555 32724 40031
AAXX 15064 71188 12674 22703 11128 21142 30210 40254 56008 60001 81570 333 11033 21131 79999 555 19999 29999
AAXX 15064 71200 17/// /0109 10034 20026 69941 7//4/ 333 10052 20030 70004 555 33618 40011
AAXX 15064 71207 17/// /0000 10001 30132 40197 51009 60021 7//4/ 333 10020 21012 70031
AAXX 15064 71260 13/// ///// 10036 20036 39781 40014 58045 60061 333 10038 20019 70074 555 10000 20000
AAXX 15064 71300 NIL
AAXX 15064 71301 17/// ///// 10003 20003 39651 40047 58050 60021 7//4/ 333 10007 21033 70020 555 10020 20020
AAXX 15064 71302 17/// /0000 11074 21079 39341 40180 58006 60011 7//4/ 333 11046 21147 70014 555 10020 20014
AAXX 15064 71303 46/// ///// 10087 20074 6///1 333 10089 20040 7////
AAXX 15064 71305 15466 81003 11180 21213 39953 40257 55004 60001 333 11083 21185 70000
AAXX 15064 71306 NIL
AAXX 15064 71307 17/// /2018 10111 20090 39849 40096 56036 60071 7//4/ 333 10111 20029 70162 555 31828 40042
AAXX 15064 71308 16/// /1503 11015 21059 30189 40275 55011 60001 333 10029 21017 70012 555 30217 40091
AAXX 15064 71309 NIL
AAXX 15064 71310 NIL
AAXX 15064 71311 NIL
AAXX 15064 71312 16/// /3610 11094 21127 39741 40209 51039 60001 333 11030 21098 70000 555 30028 40042
AAXX 15064 71314 NIL
AAXX 15064 71315 16/// /2703 11037 21075 30204 40259 55005 60001 333 11018 21066 70003
AAXX 15064 71316 16/// /0802 11086 21105 39526 40228 55000 60001 333 11014 21107 70000 555 33019 40101
AAXX 15064 71317 NIL
AAXX 15064 71318 16/// /2805 11151 21173 39264 40240 52005 60001 333 11028 21154 70000 555 33323 40121
AAXX 15064 71319 16/// /2105 11041 21041 39330 40205 58024 60001 333 11034 21063 70000
AAXX 15064 71320 NIL
AAXX 15064 71321 NIL
AAXX 15064 71322 NIL
AAXX 15064 71323 16/// /1502 11014 21022 39929 40214 57025 60001 333 10000 21029 70000
AAXX 15064 71331 16/// /3403 11199 21230 60001 333 11055 21199 70014 555 10010 20014 33518 40021
AAXX 15064 71332 NIL
AAXX 15064 71334 46/// /3006 11275 21312 39856 40206 50006 6///1 333 11075 21278 7////
AAXX 15064 71335 46964 02622 11076 55003 6///1 333 11073 21133 7////
AAXX 15064 71336 46/// ///06 11043 21085 30192 40215 53007 6///1 333 11025 21043 7////
AAXX 15064 71337 46/// /2810 11086 21105 39965 40209 56004 6///1 333 11050 21119 7//// 555 32919 40171
AAXX 15064 71338 46864 30000 11226 21258 39942 49949 56014 6///1 333 11214 21291 7////
AAXX 15064 71339 16964 02305 11131 21192 30156 40171 55004 60001 333 11071 21166 70005
AAXX 15064 71340 NIL
AAXX 15064 71341 NIL
AAXX 15064 71342 NIL
AAXX 15064 71343 NIL
AAXX 15064 71344 NIL
AAXX 15064 71345 NIL
AAXX 15064 71346 NIL
AAXX 15064 71347 NIL
AAXX 15064 71348 NIL
AAXX 15064 71349 NIL
AAXX 15064 71043 12883 11204 11233 21280 30087 40185 56015 60001 81070 333 11199 21241 70004 555 10004 20004
AAXX 15064 71045 16/// /0404 11124 21139 39300 40192 54000 60001 333 11103 21201 70000 555 10020
AAXX 15064 71050 46/// /2701 11037 21043 39076 40164 52004 6///1 333 11021 21096 7////
AAXX 15064 71051 NIL
AAXX 15064 71052 NIL
AAXX 15064 71066 11366 80000 11131 21158 39787 40222 58005 69901 77171 886// 333 11072 21166 47017 70008 90942 555 10016 20008
AAXX 15064 71068 11056 80000 11134 21147 39500 40214 58008 60001 72841 83701 333 11036 21159 70000 555 10000 20000
AAXX 15064 71069 16964 00000 11150 21151 39499 40225 58003 60001 333 11021 21150 70000 555 33020 40121
AAXX 15064 71076 16/// /0705 11296 21327 39846 40264 50000 60001 333 11097 21317 70000
AAXX 15064 71077 16/// /3506 11166 21197 39697 40258 51010 60001 333 11047 21181 70031 555 10040 20031 33317 40201
AAXX 15064 71079 11574 03512 11211 21272 39898 40187 52031 69981 72211 81500 333 11036 21211 48007 70028 90983 93101 555 10040 20028
AAXX 15064 71081 47430 90919 11100 21110 39789 49801 55001 6///1 745// 333 11083 21140 7//// 555 31136 40103
AAXX 15064 71082 NIL
AAXX 15064 71083 11916 02920 11264 21302 39998 40042 55008 60001 73800 333 11233 21274 79999 555 19999 29999 32932 40021
AAXX 15064 71090 47264 83107 11219 21253 39952 49988 58006 6///1 745// 333 11209 21307 7////
AAXX 15064 71091 460// /0928 11158 39649 49857 55007 6///1 333 7//// 555 30840 40123
AAXX 15064 71092 47404 81023 11206 39232 49901 56006 6///1 745// 333 11189 21249 7//// 555 30941 40153
AAXX 15064 71093 460// /3610 11203 39439 49942 56006 6///1 333 11203 21250 7//// 555 31219 40091
AAXX 15064 71094 46002 /1607 11130 39004 49899 56005 6///1 333 11127 21242 7//// 555 32135 40153
AAXX 15064 71095 46956 30821 11177 21231 39877 49958 55001 6///1 333 11164 21257 7////
AAXX 15064 71101 160// /3009 30166 51019 60001 333 70000
AAXX 15064 71104 NIL
AAXX 15064 71108 11566 80000 10025 20010 30128 40201 53012 69901 76162 885// 333 10044 20007 79999 90926 555 10000 20000
AAXX 15064 71109 11466 81207 10033 20015 30143 40170 53018 60021 76166 885// 333 10052 20030 70056 90983 555 10000 20000 31222 40190
AAXX 15064 71500 NIL
AAXX 15064 71501 NIL
AAXX 15064 71502 NIL
AAXX 15064 71503 NIL
AAXX 15064 71504 NIL
AAXX 15064 71505 NIL
AAXX 15064 71506 NIL
AAXX 15064 71507 16/// /0000 11195 21215 60001 333 11046 21217 70000
AAXX 15064 71508 17/// ///// 10085 20084 39968 40105 58046 60021 7//4/ 333 10086 20037 70044
AAXX 15064 71509 NIL
AAXX 15064 71511 NIL
AAXX 15064 71512 NIL
AAXX 15064 71513 15466 83006 11058 21084 30213 40229 55011 60001 333 11053 21182 70000
AAXX 15064 71514 NIL
AAXX 15064 71515 16/// /3516 11059 21084 39466 40179 53035 60001 333 11023 21063 70000 555 33137 40063
AAXX 15064 71516 16/// /3117 11055 21084 60001 333 11037 21063 70000 555 33135 40223
AAXX 15064 71517 NIL
AAXX 15064 71518 NIL
AAXX 15064 71519 NIL
AAXX 15064 71520 NIL
AAXX 15064 71521 NIL
AAXX 15064 71522 NIL
AAXX 15064 71523 NIL
AAXX 15064 71524 16/// /0805 10007 20001 30152 40178 58050 60001 333 10013 21003 70000
AAXX 15064 71525 NIL
AAXX 15064 71526 NIL
AAXX 15064 71527 17120 82405 10001 20001 39517 40018 56020 69931 771// 333 10008 21021 70003
AAXX 15064 71528 NIL
AAXX 15064 71529 46/// /0000 11248 21274 30006 40248 56003 6///1 333 11221 21317 7////
AAXX 15064 71532 17240 81710 10047 20047 39743 40085 58041 60051 7104/ 333 10047 21009 70086
AAXX 15064 71534 17120 81308 10056 20056 39817 40086 56036 60011 74344 333 10058 21038 7//// 555 31519 40031
AAXX 15064 71535 NIL
AAXX 15064 71536 NIL
AAXX 15064 71537 NIL
AAXX 15064 71539 NIL
AAXX 15064 71540 NIL
AAXX 15064 71541 NIL
AAXX 15064 71542 16/// /0503 11155 21169 60001 333 11077 21163 70016
AAXX 15064 71543 NIL
AAXX 15064 71544 NIL
AAXX 15064 71545 16/// ///// 11148 21161 60001 333 11020 21154 70000
AAXX 15064 71546 NIL
AAXX 15064 71547 NIL
AAXX 15064 71548 NIL
AAXX 15064 71549 NIL
AAXX 15064 71893 11362 81710 10039 20022 30158 40190 52009 60041 76166 887// 333 10043 20002 70096 90983 555 10000 20000 31326 40231
AAXX 15064 71894 17/// /0911 10057 20051 30155 40164 53014 60011 7//4/ 333 10064 20043 70140 555 31132 40222
AAXX 15064 71896 17432 82701 11074 21081 39331 40185 58006 69981 7714/ 333 11049 21151 70008
AAXX 15064 71897 11232 80925 10024 20020 3//// 4//// 57024 60121 76162 887XX 333 10038 20016 70206 90973
AAXX 15064 71898 160// ///// 11016 52009 60001 333 10011 21016 70000
AAXX 15064 71899 12174 11806 10015 20000 3//// 4//// 52009 60001 81600 333 10035 20011 70000
AAXX 15064 71902 NIL
AAXX 15064 71905 NIL
AAXX 15064 71906 11658 82317 11053 21080 30010 40060 55006 69921 77177 885// 333 11047 21102 48011 70030 90983 555 10030 20030
AAXX 15064 71907 16964 33604 11117 21149 30023 40056 56007 60001 333 11027 21117 70005 555 32738 40153
AAXX 15064 71909 NIL
AAXX 15064 71910 47411 82627 11179 21189 39863 49926 51013 6///1 745// 333 11045 21180 7//// 555 32541 40053
AAXX 15064 71911 47411 83422 11171 39812 49868 53012 6///1 745// 333 11168 21261 7//// 555 30427 40061
AAXX 15064 71912 11474 73608 11210 21270 39978 40168 52017 69941 70177 87500 333 11043 21210 47014 70020 90923 555 10020 20020 30224 40021
AAXX 15064 71915 NIL
AAXX 15064 71917 11974 20000 11402 21437 30101 40116 57002 69901 7767/ 81078 333 11385 21419 43013 79999 90999 555 19999 29999
AAXX 15064 71922 11574 83406 11120 21149 39756 40236 52025 69901 77177 885// 333 11057 21123 47031 70038 90983 555 10050 20038
AAXX 15064 71924 NIL
AAXX 15064 71925 11710 33221 11288 21336 30055 40098 53009 60001 73831 83500 333 11243 21288 70000 555 10000 20000 33240 40073
AAXX 15064 71926 NIL
AAXX 15064 71928 16/// /1104 11130 21151 39020 40217 57010 60001 333 11030 21162 70000 555 33118 40121
AAXX 15064 71930 NIL
AAXX 15064 71931 16/// /2604 11073 21090 30205 40217 53004 60001 333 10001 21100 70000 555 33420 40181
AAXX 15064 71934 11674 80000 11210 21226 39982 40253 57006 69901 70371 885// 333 11114 21216 47020 79999 90963 555 19999 29999
AAXX 15064 71935 11466 50903 11177 21212 30015 40233 55016 69921 77177 85500 333 11128 21186 47014 70002 90973 555 10004 20002
AAXX 15064 71936 11674 70000 11274 21313 39979 40260 55003 69901 77111 87500 333 11250 21318 48021 79999 90921 555 19999 29999
AAXX 15064 71937 NIL
AAXX 15064 71938 NIL
AAXX 15064 71940 12982 83605 11166 21197 39383 40228 58010 60001 8801/ 333 11057 21214 70000 555 10000 20000
AAXX 15064 71943 12974 81203 11123 21151 39340 40201 57008 60001 8807/ 333 11081 21132 70000 555 10000 20000
AAXX 15064 71944 160// ///// 11082 56008 60001 333 11071 21118 70000
AAXX 15064 71945 12974 30000 11182 21226 39717 40208 57002 60001 80001 333 11115 21197 70000 555 10000 20000
AAXX 15064 71946 12474 61302 11185 21213 39995 40219 58002 60001 86500 333 11145 21190 48034 79999 555 10002 29999
AAXX 15064 71948 46062 /2307 11273 30101 40220 56007 6///1 333 11252 21289 7//// 555 32722 40141
AAXX 15064 71949 46/// /0000 11225 21250 39272 40184 58010 6///1 333 11126 21232 7////
AAXX 15064 71951 11356 80216 11034 21056 39918 40190 51007 69961 77122 885// 333 11017 21041 47039 70006 90952 93101 555 10012 20006 33626 40231
AAXX 15064 71957 47430 90000 11211 21274 30103 40196 58002 6///1 745// 333 11210 21310 7////
AAXX 15064 71958 43/// /0502 11209 21219 39240 40228 51009 6///1 333 11116 21219 7////
AAXX 15064 71964 12774 31914 11075 21107 39270 40140 57006 60001 83500 333 11066 21191 70000 555 10000 20000 31820 40201
AAXX 15064 71966 17/// /0000 11194 21216 39661 40140 56011 69951 7//4/ 333 11175 21261 70005 555 10010 20005
AAXX 15064 71968 47028 /2712 11253 30138 40206 51002 6///1 745// 333 11252 21325 7////
AAXX 15064 71250 16/// /3504 11044 21089 30089 40229 53011 60001 333 11036 21055 70000 555 30422 40151
AAXX 15064 71251 16/// /0802 11058 21082 39288 40235 57009 60001 333 11018 21167 70007 555 33219 40111
AAXX 15064 71252 NIL
AAXX 15064 71253 46/// /1401 11147 21172 6///1 333 11074 21148 7////
AAXX 15064 71254 16/// /1902 11158 21167 60001 333 11021 21166 70000
AAXX 15064 71255 16/// /1402 11165 21192 60001 333 11058 21171 70013
AAXX 15064 71256 46/// /0000 11120 21135 39254 40216 58006 6///1 333 11020 21120 7//// 555 32919 40091
AAXX 15064 71257 NIL
AAXX 15064 71258 NIL
AAXX 15064 71259 NIL
AAXX 15064 71261 17/// /1917 10102 20098 39809 40066 56037 60071 7//4/ 333 10104 20011 70127 555 31928 40062
AAXX 15064 71263 11359 82018 10095 20093 39818 40104 58038 60061 78088 885// 333 10096 20009 70092 90983 555 10000 20000 31331 40061
AAXX 15064 71264 16/// /0404 11018 21063 30243 40275 56014 60001 333 10033 21028 70000 555 30122 40121
AAXX 15064 71265 17240 81602 10074 20070 30009 40102 58046 60031 7104/ 333 10074 20011 70051
AAXX 15064 71266 NIL
AAXX 15064 71267 15966 31605 11103 21103 39114 40239 56013 60001 333 10005 21121 70000
AAXX 15064 71268 NIL
AAXX 15064 71269 NIL
AAXX 15064 71270 NIL
AAXX 15064 71271 16/// ///// 11114 21149 60001 333 11018 21140 70000
AAXX 15064 71272 15966 03006 11271 21303 39830 40205 50006 60001 333 11073 21272 70000
AAXX 15064 71273 16/// /3602 11115 21140 39554 40233 51009 60001 333 11021 21115 70000 555 33124 40151
AAXX 15064 71274 NIL
AAXX 15064 71275 NIL
AAXX 15064 71276 NIL
AAXX 15064 71277 NIL
AAXX 15064 71278 NIL
AAXX 15064 71279 16/// /0202 11139 21158 30169 40237 56015 60001 333 11071 21179 70000
AAXX 15064 71281 NIL
AAXX 15064 71282 46/// /1808 10048 20048 39831 40099 58033 6///1 333 10049 20001 7//// 555 31520 40031
AAXX 15064 71283 NIL
AAXX 15064 71284 16/// ///// 11124 21137 60001 333 11022 21146 70000
AAXX 15064 71285 NIL
AAXX 15064 71286 NIL
AAXX 15064 71287 NIL
AAXX 15064 71288 NIL
AAXX 15064 71289 NIL
AAXX 15064 71290 17456 83504 11070 21078 39351 40203 57008 60001 771// 333 11067 21115 70000
AAXX 15064 71291 16/// /0201 10011 20009 39732 40017 58028 60001 333 10024 21033 70017
AAXX 15064 71292 15566 83217 11060 21080 39541 40159 53038 60001 333 11032 21065 70000
AAXX 15064 71294 17/// /2005 10036 39701 40102 58036 60041 7//4/ 333 10036 20001 70040
AAXX 15064 71295 NIL
AAXX 15064 71296 NIL
AAXX 15064 71297 17/// /2408 10105 20096 60031 7//4/ 333 10105 20018 70050 555 32418 40061
AAXX 15064 71298 17/// /2111 10102 20095 39864 40091 56026 60031 7//4/ 333 10106 20023 70173 555 32125 40041
AAXX 15064 71299 NIL
AAXX 15064 71950 17/16 /2301 11070 21075 39549 40194 50001 60021 7714/ 333 11044 21073 70015
AAXX 15064 71952 17/// /3102 11093 21101 39313 40187 56001 60031 7//4/ 333 11091 21191 70028 555 10040 20028
AAXX 15064 71954 NIL
AAXX 15064 71956 NIL
AAXX 15064 71959 16/// ///// 11007 21066 60001 333 10023 21030 70000
AAXX 15064 71960 460// /0806 11262 30073 40213 58010 6///1 333 11246 21318 7////
AAXX 15064 71962 16/// /2910 11003 21007 39612 40031 56012 60001 333 10014 21003 70000
AAXX 15064 71963 NIL
AAXX 15064 71967 16/// /1310 10019 20008 30094 40200 56040 60001 333 10021 21005 70000
AAXX 15064 71970 NIL
AAXX 15064 71971 NIL
AAXX 15064 71972 460// ///// 11103 39504 49965 53013 6///1 333 11057 21105 7////
AAXX 15064 71973 46/// /2006 11052 21073 30053 40246 56006 6///1 333 11031 21158 7////
AAXX 15064 71974 NIL
AAXX 15064 71975 460// /0608 11141 39192 49919 56003 6///1 333 11141 21199 7//// 555 30636 40153
AAXX 15064 71976 NIL
AAXX 15064 71977 NIL
AAXX 15064 71978 NIL
AAXX 15064 71979 NIL
AAXX 15064 71980 NIL
AAXX 15064 71981 NIL
AAXX 15064 71982 NIL
AAXX 15064 71983 NIL
AAXX 15064 71984 16/// /1501 11258 21285 30213 40222 56010 60001 333 11248 21290 70000 555 32119 40151
AAXX 15064 71985 NIL
AAXX 15064 71986 NIL
AAXX 15064 71987 16/// /2312 11008 21065 30248 40258 56014 60001 333 10004 21016 70000 555 30324 40091
AAXX 15064 71988 16/// /1902 10007 21043 30270 40290 55005 60001 333 10047 20006 70023 555 30129 40082
AAXX 15064 71989 NIL
AAXX 15064 71990 NIL
AAXX 15064 71999 46/// ///// 11024 6///1 333 11015 21076 7////
AAXX 15064 71816 12974 62004 11115 21167 30119 40182 58001 60001 80001 333 10095 21181 70000 555 10000 20000 32725 40011
AAXX 15064 71817 NIL
AAXX 15064 71818 12974 22410 11098 21118 30132 40151 56009 60001 80005 333 11068 21138 70000 555 10000 20000 32225 40221
AAXX 15064 71822 11/12 91507 11032 21042 39659 40138 58044 69961 77171 333 11027 21125 43028 70006 90910 93101 555 10006 20006
AAXX 15064 71825 11474 72207 11107 21124 39487 40177 57010 69901 77122 82677 333 11105 21279 47065 79999 90910 555 19999 29999
AAXX 15064 71827 11574 81710 11042 21050 39841 40086 57027 69901 70277 885// 333 11038 21116 47017 79999 90963 555 19999 29999
AAXX 15064 71828 17461 82708 11086 21111 39486 40138 56011 60001 745// 333 11086 21169 70000 555 32433 40142
AAXX 15064 71831 11240 81204 10002 21004 39761 40041 58042 60031 72277 887// 333 10003 21070 43020 70050 90913 93103 555 10050 20050
AAXX 15064 71832 NIL
AAXX 15064 71834 11/08 90000 11002 21003 39604 40029 57029 69941 74577 333 10011 21037 48009 70006 90913 555 10006 20006
AAXX 15064 71841 NIL
AAXX 15064 71842 NIL
AAXX 15064 71844 17332 80204 11054 21062 39770 40048 56007 69951 74544 333 70005 555 32618 40101
AAXX 15064 71845 NIL
AAXX 15064 71850 11362 82505 11026 21032 39539 40037 56005 69981 77174 887// 333 10002 21026 43002 70014 90983 93101 555 10010 20008
AAXX 15064 71852 17462 82707 11048 21057 39772 40068 55002 60001 745// 333 11013 21050 70000
AAXX 15064 71854 NIL
AAXX 15064 71858 NIL
AAXX 15064 71861 NIL
AAXX 15064 71862 11574 83121 11035 21076 39464 40176 53023 69901 77177 885// 333 11021 21071 42002 79999 90973 555 19999 29999 33134 40011
AAXX 15064 71863 46464 83420 11054 21097 39485 40197 53028 6///1 333 11020 21060 7//// 555 33136 40003
AAXX 15064 71934 12674 80000 11210 21226 39982 40253 57006 60001 885// 333 11114 21216 47020 79999 555 19999 29999
AAXX 15064 71726 17/// /1304 11021 21029 39595 40139 58049 60011 7//4/ 333 11008 21091 70026 555 10020 20026
AAXX 15064 71727 12774 71009 11029 21047 30003 40204 58027 60001 82570 333 11016 21050 79999 555 10000 20000
AAXX 15064 71728 12480 81404 11014 21038 39960 40184 57034 60001 887// 333 11013 21055 79999 555 19999 29999
AAXX 15064 71730 11004 91506 10024 20024 39630 40051 58042 60011 74564 333 10025 21002 41997 70018 90983 555 19999 29999 31618 40020
AAXX 15064 71731 11024 81910 10026 20025 39622 40070 56040 60041 72176 887// 333 10026 21001 42001 70080 90973 555 10030 20030
AAXX 15064 71735 NIL
AAXX 15064 71738 NIL
AAXX 15064 71739 41316 81305 10002 21001 39679 40040 57041 6//// 77177 887// 333 10007 21036 4//// 7//// 90973 93106 555 1//// 2////
AAXX 15064 71749 16104 92102 10006 20005 39774 40018 56027 60001 333 10017 21030 70015
AAXX 15064 71799 11362 82703 10026 20022 30171 40195 52009 60011 76162 885// 333 10042 21013 70018 90937 555 10000 20000
AAXX 15064 71800 16/// /3308 11044 21070 30205 40239 53016 60001 333 11006 21048 70000 555 30344 40163
AAXX 15064 71801 11574 83507 11051 21094 30059 40237 52009 69901 70288 885// 333 11043 21059 46003 79999 90962 555 19999 29999 30226 40131
AAXX 15064 71803 12980 02609 11086 21110 30041 40234 55005 60001 333 11056 21125 79999 555 19999 29999
AAXX 15064 71807 NIL
AAXX 15064 71808 12974 02711 11105 21118 30153 40201 56004 60001 333 11081 21175 70000 555 10000 20000
AAXX 15064 71809 11569 80000 11059 21074 30219 40247 56005 69901 78511 885// 333 11040 21195 47012 79999 90931 555 19999 29999
AAXX 15064 71810 16/// /2805 11055 21080 30164 40232 56007 60001 333 11031 21156 70000 555 32718 40021
AAXX 15064 71811 NIL
AAXX 15064 71813 NIL
AAXX 15064 71814 16/// /2708 11055 21081 30213 40223 58006 60001 333 11054 21177 70000 555 32721 40041
AAXX 15064 71815 12474 82809 11027 21075 30221 40253 57007 60001 885// 333 11026 21123 48008 79999 555 19999 29999
AAXX 15064 71102 NIL
AAXX 15064 71105 NIL
AAXX 15064 71107 NIL
AAXX 15064 71110 NIL
AAXX 15064 71111 15566 33010 10019 21007 30166 40174 51018 60001 333 10031 21010 70000
AAXX 15064 71112 17/// ///// 60011 7//4/ 333 70012
AAXX 15064 71113 17/// /2602 10023 20014 30176 40200 53014 60011 7//4/ 333 10053 21002 70012
AAXX 15064 71115 16/// /3001 11023 21032 39621 40213 56006 60001 333 11006 21031 70000
AAXX 15064 71116 16/// /2904 11055 21069 39120 40240 55002 60001 333 11023 21148 70023 555 33035 40143
AAXX 15064 71118 16/// /2104 11142 21153 39385 40236 53005 60001 333 11030 21147 70000 555 33324 40201
AAXX 15064 71121 16964 01303 11135 21182 39379 40228 58002 60001 333 11012 21150 70000 555 33020 40071
AAXX 15064 71127 16/// /2203 11082 21109 39285 40224 57004 60001 333 11004 21085 70000 555 33223 40081
AAXX 15064 71130 17566 83310 11091 21122 39745 40214 51040 60001 771// 333 11029 21094 70000
AAXX 15064 71132 15966 01801 11309 21343 39932 40266 53009 60001 333 11085 21316 70000
AAXX 15064 71133 46/// /3509 11110 21143 39494 40218 51022 6///1 333 11026 21110 7//// 555 10010 33229 40212
AAXX 15064 71139 16/// /3003 11101 21113 38723 40219 51001 60001 333 11064 21109 70000 555 32520 40141
AAXX 15064 71141 NIL
AAXX 15064 71142 15566 82812 11083 21092 39231 40226 51012 60001 333 11046 21091 70000
AAXX 15064 71143 NIL
AAXX 15064 71144 NIL
AAXX 15064 71147 16/// /3110 11023 21054 60001 333 11010 21046 70000 555 33017 40051
AAXX 15064 71149 NIL
AAXX 15064 71812 NIL
AAXX 15064 71819 15966 02712 11069 21093 30147 40189 55007 60001 333 11064 21157 70000
AAXX 15064 71820 17/// /1721 10059 20050 30020 40134 58040 60011 7//4/ 333 10071 20008 70011 555 31829 40062
AAXX 15064 71823 16464 82010 11047 21059 39741 40126 58026 69951 333 11047 21149 70005 555 32225 40141
AAXX 15064 71824 NIL
AAXX 15064 71826 16/// /1307 11102 21159 39866 49908 53002 60001 333 11075 21194 70000 555 30931 40092
AAXX 15064 71829 16/// /2004 11033 21065 30061 40226 58016 60001 333 11031 21110 70003
AAXX 15064 71833 46/// /2211 10097 20092 6///1 333 10097 21019 7//// 555 32224 40061
AAXX 15064 71835 17/// /1903 10000 21001 39536 40010 56022 69941 7//4/ 333 10003 21049 70004
AAXX 15064 71837 NIL
AAXX 15064 71839 NIL
AAXX 15064 71840 46/// /3014 11025 21053 6///1 333 11013 21052 7//// 555 33024 40061
AAXX 15064 71846 16/// /1903 10000 21001 39711 40023 57022 60001 333 10003 21040 70000 555 32422 40061
AAXX 15064 71847 NIL
AAXX 15064 71848 NIL
AAXX 15064 71849 16/// /2706 11048 21059 39772 40070 55001 60001 333 11014 21051 70000 555 32917 40011
AAXX 15064 71350 16/// /1903 11023 21075 30201 40268 57011 60001 333 10009 21023 70000 555 30224 40071
AAXX 15064 71351 NIL
AAXX 15064 71352 17/// /2117 10091 20088 39641 40091 56039 60081 7//4/ 333 10091 21009 70117 555 32324 40061
AAXX 15064 71353 NIL
AAXX 15064 71354 NIL
AAXX 15064 71355 NIL
AAXX 15064 71356 17/// /2929 11247 21272 39965 40034 55003 69931 7//4/ 333 11247 21265 70006 555 32940 40133
AAXX 15064 71357 NIL
AAXX 15064 71358 16/// /3101 11218 21240 39950 49986 58007 60001 333 11207 21305 70000
AAXX 15064 71359 NIL
AAXX 15064 71360 NIL
AAXX 15064 71361 NIL
AAXX 15064 71362 NIL
AAXX 15064 71363 NIL
AAXX 15064 71364 NIL
AAXX 15064 71365 NIL
AAXX 15064 71368 17248 82015 10094 20087 39711 40096 56038 60051 7104/ 333 10095 21015 70073
AAXX 15064 71369 15966 61202 11138 21153 39499 40225 58002 60001 333 11021 21139 70000
AAXX 15064 71370 46/// /0703 11004 21005 30047 40185 58042 6///1 333 10005 21008 7////
AAXX 15064 71371 17666 81512 10033 20010 30131 40165 58050 60001 761// 333 10033 21008 70000
AAXX 15064 71372 17/// /1615 10035 20020 60011 7//4/ 333 10036 20000 70010 555 31622 40061
AAXX 15064 71373 16/// /1606 10033 21006 60001 333 10034 21003 70010
AAXX 15064 71374 NIL
AAXX 15064 71375 NIL
AAXX 15064 71376 17/// /1203 10003 20001 39863 40157 58043 60031 7//4/ 333 10012 21006 70030
AAXX 15064 71377 17/// /1308 10032 20021 30111 40160 58046 69991 7//4/ 333 10032 20001 70009
AAXX 15064 71378 16/// /1603 11008 21024 39972 40183 58040 60001 333 10000 21040 70000
AAXX 15064 71379 NIL
AAXX 15064 71380 NIL
AAXX 15064 71381 NIL
AAXX 15064 71382 16/// /2007 11044 21049 39247 40195 58023 60001 333 11038 21070 70000
AAXX 15064 71383 NIL
AAXX 15064 71384 NIL
AAXX 15064 71385 NIL
AAXX 15064 71386 16/// /1702 11036 21059 30026 40236 58011 60001 333 11022 21103 70000
AAXX 15064 71387 NIL
AAXX 15064 71388 NIL
AAXX 15064 71389 NIL
AAXX 15064 71390 NIL
AAXX 15064 71391 17/// ///// 10008 20004 60061 7//4/ 333 10008 20000 70056
AAXX 15064 71392 NIL
AAXX 15064 71393 NIL
AAXX 15064 71395 12574 71303 11025 21068 30093 40276 56012 60001 87500 333 10016 21037 79999 555 19999 29999 30122 40101
AAXX 15064 71398 17258 81304 11003 21003 30049 40060 56039 60001 771// 333 11003 21059 70000
AAXX 15064 71399 NIL
AAXX 15064 71864 NIL
AAXX 15064 71865 16/// /3511 11072 21104 39500 40194 53030 60001 333 7////
AAXX 15064 71866 46564 80108 11065 21110 39597 40223 51023 6///1 333 11012 21068 7//// 555 33233 40222
AAXX 15064 71867 11674 13510 11137 21152 39835 40178 52041 69971 77077 81500 333 11038 21139 48025 70071 90983 93101 555 10095 20071 33624 40041
AAXX 15064 71868 NIL
AAXX 15064 71869 11566 70104 11091 21124 39687 40225 52028 69901 77122 87500 333 11035 21091 47005 79999 90942 555 10002 29999
AAXX 15064 71871 15466 80203 11091 21113 39407 40235 52009 60001 333 11030 21091 70000
AAXX 15064 71877 12974 31704 11083 21110 38923 40226 57012 60001 83030 333 10041 21090 79999 555 19999 29999 33230 40081
AAXX 15064 71878 12974 60000 11136 21149 39129 40236 57007 60001 86070 333 11018 21174 70000 555 10000 20000
AAXX 15064 71879 16964 02102 11088 21122 39400 40224 58002 60001 333 11004 21099 70000 555 33120 40071
AAXX 15064 71880 11482 80000 11053 21068 39107 40239 57009 69921 77122 885// 333 11040 21090 47002 70002 90962 555 10002 20002
AAXX 15064 71882 16558 80000 11022 21039 39682 40231 56006 60001 333 11005 21035 70000
AAXX 15064 71883 NIL
AAXX 15064 71887 NIL
AAXX 15064 71889 11462 81914 11017 21043 39800 40226 57008 69931 77122 885// 333 11002 21021 70003 90931 555 10003 20003
AAXX 15064 71891 16458 81402 11019 21030 39920 40200 55005 60001 333 11010 21055 70000
AAXX 15064 71892 11469 80605 10038 20024 30194 40199 52011 60011 76162 885// 333 10059 21005 70014 90973 555 10000 20000
AAXX 15064 71665 16/// /2709 11070 21118 30095 40105 53001 60001 333 11066 21117 70000 555 32829 40012
AAXX 15064 71666 16/// /2403 11079 21088 30226 40272 55008 60001 333 10002 21080 70000 555 30319 40081
AAXX 15064 71667 NIL
AAXX 15064 71668 16/// /0000 11058 21072 30235 40280 55002 60001 333 10010 21060 70000
AAXX 15064 71669 NIL
AAXX 15064 71670 16/// ///// 11075 21082 60001 333 10000 21076 70000
AAXX 15064 71671 16/// /2103 11013 21071 30215 40277 55004 60001 333 10018 21014 70000 555 30119 40121
AAXX 15064 71672 17/// /1905 10059 20050 39847 40109 58033 60081 7//4/ 333 10064 21029 70078
AAXX 15064 71673 NIL
AAXX 15064 71674 NIL
AAXX 15064 71675 17340 80305 11055 21060 39770 40049 56006 60021 77144 333 11023 21055 70076
AAXX 15064 71679 NIL
AAXX 15064 71680 NIL
AAXX 15064 71681 46/// /0000 11033 21038 6///1 333 11018 21063 7////
AAXX 15064 71682 NIL
AAXX 15064 71683 NIL
AAXX 15064 71684 17/12 /1309 10000 21001 39758 40058 58047 60041 77144 333 10007 21022 70041
AAXX 15064 71685 15561 80401 11024 21032 39681 40231 56006 60001 333 11006 21035 70000
AAXX 15064 71686 NIL
AAXX 15064 71687 17/// /0000 11016 21022 39395 40186 53009 60031 7//4/ 333 10001 21020 70035
AAXX 15064 71688 16/// /1003 11012 21018 39129 40171 52008 60001 333 11007 21030 70000 555 10040
AAXX 15064 71689 17466 81004 11150 21185 39780 40254 57001 60001 771// 333 11052 21164 70020
AAXX 15064 71690 NIL
AAXX 15064 71691 15666 81701 11050 21058 30203 40231 58018 60001 333 11037 21121 70000
AAXX 15064 71692 NIL
AAXX 15064 71694 17/// /1705 10051 20046 39732 40092 56043 60051 7//4/ 333 10051 21005 70080
AAXX 15064 71695 17/// /3408 11135 21157 39832 40174 53042 69961 7//4/ 333 11035 21136 70056 555 10090 20056 33524 40041
AAXX 15064 71696 16/// /3014 11221 21256 30122 40160 53006 60001 333 11082 21238 70000 555 33321 40101
AAXX 15064 71697 17124 81405 10065 20065 39939 40109 56042 60041 76144 333 10065 21031 70063
AAXX 15064 71699 16/// /3404 11053 21077 30275 40283 55008 60001 333 10010 21054 70000
AAXX 15064 71851 NIL
AAXX 15064 71857 NIL
AAXX 15064 71860 NIL
AAXX 15064 71876 15566 33506 11092 21110 39556 40237 51018 60001 333 11014 21092 70000
AAXX 15064 71885 NIL
AAXX 15064 71886 16/// /3216 11061 21088 39539 40156 53039 60001 333 11032 21066 70000 555 33230 40032
AAXX 15064 71888 NIL
AAXX 15064 71890 16/// /0301 11052 21064 30199 40227 58018 60001 333 11036 21126 70000
AAXX 15064 71895 NIL
AAXX 15064 71397 12674 70000 11015 21060 30248 40283 55010 60001 87500 333 10028 21017 79999 555 10000 20000 30319 40090
AAXX 15064 71400 16/58 /1001 11188 21201 60001 333 11047 21194 70000
AAXX 15064 71403 46/// /3510 11002 21057 30256 40276 55008 6///1 333 10038 21004 7//// 555 30227 40101
AAXX 15064 71411 16/// /3605 10002 21038 30265 40278 55009 60001 333 10031 21009 70000 555 30219 40151
AAXX 15064 71412 16/// /2705 11011 21064 30258 40268 56009 60001 333 10018 21013 70000 555 30430 40072
AAXX 15064 71421 NIL
AAXX 15064 71430 17/// /1826 10067 20054 30032 40128 58035 69981 7//4/ 333 10079 20015 70008 555 31733 40032
AAXX 15064 71431 17/// /1005 10060 20056 30013 40108 58038 60051 7//4/ 333 10060 21005 70047 555 31721 40011
AAXX 15064 71432 NIL
AAXX 15064 71433 NIL
AAXX 15064 71435 NIL
AAXX 15064 71441 NIL
AAXX 15064 71443 16/// /3312 11060 21101 39725 40143 53045 60001 333 11029 21060 70004 555 10010 20004 33419 40061
AAXX 15064 71444 NIL
AAXX 15064 71447 16/// /3125 11033 21073 39578 40129 53020 60001 333 11012 21059 70000 555 33135 40063
AAXX 15064 71467 NIL
AAXX 15064 71472 NIL
AAXX 15064 71474 17040 81704 11053 21068 38922 40181 55002 60011 74544 333 11040 21072 70010
AAXX 15064 71510 NIL
AAXX 15064 71538 11556 82117 10106 20097 39861 40089 58029 60041 78062 885// 333 10108 20025 70148 90927 555 10000 20000 32125 40001
AAXX 15064 71600 16664 80109 10006 21075 30266 40272 50002 60001 333 10061 20006 70005 555 30429 40132
AAXX 15064 71601 NIL
AAXX 15064 71550 NIL
AAXX 15064 71551 NIL
AAXX 15064 71552 46/// /3109 11046 21055 6///1 333 11011 21046 7//// 555 32319 40121
AAXX 15064 71553 16/// /3319 11064 21084 60001 333 11044 21078 70000 555 33129 40062
AAXX 15064 71554 NIL
AAXX 15064 71555 16/// /1607 11074 21125 38615 40212 56015 60001 333 10030 21075 70000 555 30027 40101
AAXX 15064 71556 16/// /3313 11059 21088 39590 40206 53027 60001 333 11012 21059 70000 555 33131 40232
AAXX 15064 71557 46/// /0000 11037 21040 6///1 333 11037 21134 7////
AAXX 15064 71558 46/// ///// 11072 21096 30144 40181 55007 6///1 333 11067 21163 7////
AAXX 15064 71559 46/// /3120 11033 21071 39459 40170 53022 6///1 333 11020 21069 7//// 555 33235 40013
AAXX 15064 71560 16/// /2504 11042 21060 39772 40074 55003 60001 333 11008 21045 70000 555 33020 40031
AAXX 15064 71563 NIL
AAXX 15064 71564 NIL
AAXX 15064 71565 NIL
AAXX 15064 71566 NIL
AAXX 15064 71567 NIL
AAXX 15064 71568 17/// /1008 10026 20012 30178 40190 51011 60041 7//4/ 333 10037 20021 70088 555 31217 40161
AAXX 15064 71569 16/// /3221 11049 21087 39468 40180 53023 60001 333 11021 21059 70000 555 33035 40003
AAXX 15064 71570 16/// /3005 11050 21063 39748 40061 53001 60001 333 11010 21051 70000
AAXX 15064 71571 NIL
AAXX 15064 71572 NIL
AAXX 15064 71573 17/// /1910 10100 20082 39818 40097 58037 60081 7//4/ 333 10100 20011 70092 555 32124 40031
AAXX 15064 71574 12774 82405 11050 21082 30191 40266 55007 60001 885// 333 11013 21070 70002 555 10008 20002
AAXX 15064 71575 NIL
AAXX 15064 71576 16/// /0722 11174 21218 39872 49957 55002 60001 333 11162 21257 70000 555 30538 40043
AAXX 15064 71577 NIL
AAXX 15064 71578 16/// /0506 10007 21011 60001 333 10017 20001 70000
AAXX 15064 71579 16/// /2603 11044 21062 39778 40063 55002 60001 333 11011 21049 70000
AAXX 15064 71580 11532 70125 11168 21187 39851 49887 52014 69901 77177 87500 333 11130 21195 46033 70012 90977 555 10012 20010 30125 40061
AAXX 15064 71581 NIL
AAXX 15064 71582 17466 81207 10026 20022 30116 40169 51012 60051 76144 333 10030 21004 70108
AAXX 15064 71583 NIL
AAXX 15064 71584 15566 82806 11083 21122 30183 40232 56008 60001 333 11057 21167 70000
AAXX 15064 71585 NIL
AAXX 15064 71586 16/// /3307 11121 21150 39752 40231 53024 60001 333 11059 21123 70030 555 10050 20030 33420 40221
AAXX 15064 71587 NIL
AAXX 15064 71588 16/// /2510 11036 21065 60001 333 11036 21160 70000
AAXX 15064 71589 16/// /2708 11101 21120 30093 40230 56002 60001 333 11041 21110 70000
AAXX 15064 71590 16/// /1202 11041 21065 30046 40241 58019 60001 333 11018 21079 70000
AAXX 15064 71592 NIL
AAXX 15064 71593 NIL
AAXX 15064 71596 NIL
AAXX 15064 71598 16/64 /2104 11044 21082 30258 40264 56009 60001 333 11013 21048 7////
AAXX 15064 71599 16/// /0000 11023 21047 30078 40285 55010 60001 333 10016 21027 70000
AAXX 15064 71893 11362 81710 10039 20022 30158 40190 52009 60041 76166 887// 333 10043 20002 70096 90983 555 10000 20000 31326 40231
AAXX 15064 71894 17/// /0911 10057 20051 30155 40164 53014 60011 7//4/ 333 10064 20043 70140 555 31132 40222
AAXX 15064 71896 17432 82701 11074 21081 39331 40185 58006 69981 7714/ 333 11049 21151 70008
AAXX 15064 71897 11232 80925 10024 20020 3//// 4//// 57024 60121 76162 887XX 333 10038 20016 70206 90973
AAXX 15064 71898 160// ///// 11016 52009 60001 333 10011 21016 70000
AAXX 15064 71899 12174 11806 10015 20000 3//// 4//// 52009 60001 81600 333 10035 20011 70000
AAXX 15064 71902 NIL
AAXX 15064 71905 NIL
AAXX 15064 71906 11658 82317 11053 21080 30010 40060 55006 69921 77177 885// 333 11047 21102 48011 70030 90983 555 10030 20030
AAXX 15064 71907 16964 33604 11117 21149 30023 40056 56007 60001 333 11027 21117 70005 555 32738 40153
AAXX 15064 71909 NIL
AAXX 15064 71910 47411 82627 11179 21189 39863 49926 51013 6///1 745// 333 11045 21180 7//// 555 32541 40053
AAXX 15064 71911 47411 83422 11171 39812 49868 53012 6///1 745// 333 11168 21261 7//// 555 30427 40061
AAXX 15064 71912 11474 73608 11210 21270 39978 40168 52017 69941 70177 87500 333 11043 21210 47014 70020 90923 555 10020 20020 30224 40021
AAXX 15064 71915 NIL
AAXX 15064 71917 11974 20000 11402 21437 30101 40116 57002 69901 7767/ 81078 333 11385 21419 43013 79999 90999 555 19999 29999
AAXX 15064 71922 11574 83406 11120 21149 39756 40236 52025 69901 77177 885// 333 11057 21123 47031 70038 90983 555 10050 20038
AAXX 15064 71924 NIL
AAXX 15064 71925 11710 33221 11288 21336 30055 40098 53009 60001 73831 83500 333 11243 21288 70000 555 10000 20000 33240 40073
AAXX 15064 71926 NIL
AAXX 15064 71928 16/// /1104 11130 21151 39020 40217 57010 60001 333 11030 21162 70000 555 33118 40121
AAXX 15064 71934 12674 80000 11210 21226 39982 40253 57006 60001 885// 333 11114 21216 47020 79999 555 19999 29999
AAXX 15064 71603 12574 80503 11009 21040 30234 40288 55007 60001 885// 333 10045 21019 70000 555 10000 20000 30520 40160
AAXX 15064 71607 16/// /2801 11076 21081 30249 40283 56004 60001 333 10019 21076 70000
AAXX 15064 71609 12574 80000 11031 21066 30145 40283 55009 60001 885// 333 10007 21071 70000 555 10000 20000 30220 40100
AAXX 15064 71610 15866 81003 10003 21013 39916 40216 58027 60001 333 10007 21018 70000
AAXX 15064 71621 17033 81707 10064 20060 30016 40121 58042 60021 74344 333 10083 21012 70020
AAXX 15064 71623 NIL
AAXX 15064 71624 11362 82112 10096 20094 39886 40096 58047 60021 76165 887// 333 10097 20016 70036 90967 555 10000 20000 31517 40000
AAXX 15064 71625 17140 81308 10019 21006 39946 40107 57046 60061 74144 333 10024 20005 70065
AAXX 15064 71627 11448 81412 10032 20012 30120 40165 58048 69981 76162 885// 333 10033 20006 70008 90921 555 10000 20000
AAXX 15064 71628 11232 81208 10020 20020 39997 40138 58051 60021 76165 887// 333 10021 20002 70024 90952 555 10000 20000
AAXX 15064 71630 NIL
AAXX 15064 71631 17/// /2010 10080 20075 39585 40080 58041 60041 7//4/ 333 10080 21006 70078
AAXX 15064 71633 11232 81912 10081 20080 39790 40058 58041 60021 76165 886// 333 10081 21011 70066 90983 555 10000 20000 31718 40000
AAXX 15064 71705 12974 02003 11038 21076 30184 40274 56012 60001 333 10003 21040 70004 555 10002 20004 30219 40080
AAXX 15064 71706 12574 82302 11018 21079 30216 40278 56011 60001 885// 333 10009 21020 79999 555 19999 29999 30322 40100
AAXX 15064 71707 12574 72803 11028 21086 30191 40270 57010 60001 87500 333 10031 21029 70010 555 19999 29999 30517 40080
AAXX 15064 71709 NIL
AAXX 15064 71711 NIL
AAXX 15064 71714 16/// /0604 10001 21019 30140 40233 58029 60001 333 10015 21047 70000
AAXX 15064 71715 16/// /1303 11030 21045 30037 40222 58024 60001 333 11007 21037 70000
AAXX 15064 71718 12583 81503 11022 21051 30167 40234 58018 60001 885// 333 11014 21053 79999 555 19999 29999
AAXX 15064 71719 NIL
AAXX 15064 71043 12883 11204 11233 21280 30087 40185 56015 60001 81070 333 11199 21241 70004 555 10004 20004
AAXX 15064 71045 16/// /0404 11124 21139 39300 40192 54000 60001 333 11103 21201 70000 555 10020
AAXX 15064 71050 46/// /2701 11037 21043 39076 40164 52004 6///1 333 11021 21096 7////
AAXX 15064 71051 NIL
AAXX 15064 71052 NIL
AAXX 15064 71066 11366 80000 11131 21158 39787 40222 58005 69901 77171 886// 333 11072 21166 47017 70008 90942 555 10016 20008
AAXX 15064 71068 11056 80000 11134 21147 39500 40214 58008 60001 72841 83701 333 11036 21159 70000 555 10000 20000
AAXX 15064 71069 16964 00000 11150 21151 39499 40225 58003 60001 333 11021 21150 70000 555 33020 40121
AAXX 15064 71076 16/// /0705 11296 21327 39846 40264 50000 60001 333 11097 21317 70000
AAXX 15064 71077 16/// /3506 11166 21197 39697 40258 51010 60001 333 11047 21181 70031 555 10040 20031 33317 40201
AAXX 15064 71079 11574 03512 11211 21272 39898 40187 52031 69981 72211 81500 333 11036 21211 48007 70028 90983 93101 555 10040 20028
AAXX 15064 71081 47430 90919 11100 21110 39789 49801 55001 6///1 745// 333 11083 21140 7//// 555 31136 40103
AAXX 15064 71082 NIL
AAXX 15064 71083 11916 02920 11264 21302 39998 40042 55008 60001 73800 333 11233 21274 79999 555 19999 29999 32932 40021
AAXX 15064 71090 47264 83107 11219 21253 39952 49988 58006 6///1 745// 333 11209 21307 7////
AAXX 15064 71091 460// /0928 11158 39649 49857 55007 6///1 333 7//// 555 30840 40123
AAXX 15064 71092 47404 81023 11206 39232 49901 56006 6///1 745// 333 11189 21249 7//// 555 30941 40153
AAXX 15064 71093 460// /3610 11203 39439 49942 56006 6///1 333 11203 21250 7//// 555 31219 40091
AAXX 15064 71094 46002 /1607 11130 39004 49899 56005 6///1 333 11127 21242 7//// 555 32135 40153
AAXX 15064 71095 46956 30821 11177 21231 39877 49958 55001 6///1 333 11164 21257 7////
AAXX 15064 71101 160// /3009 30166 51019 60001 333 70000
AAXX 15064 71104 NIL
AAXX 15064 71108 11566 80000 10025 20010 30128 40201 53012 69901 76162 885// 333 10044 20007 79999 90926 555 10000 20000
AAXX 15064 71109 11466 81207 10033 20015 30143 40170 53018 60021 76166 885// 333 10052 20030 70056 90983 555 10000 20000 31222 40190
AAXX 15064 71816 12974 62004 11115 21167 30119 40182 58001 60001 80001 333 10095 21181 70000 555 10000 20000 32725 40011
AAXX 15064 71817 NIL
AAXX 15064 71818 12974 22410 11098 21118 30132 40151 56009 60001 80005 333 11068 21138 70000 555 10000 20000 32225 40221
AAXX 15064 71822 11/12 91507 11032 21042 39659 40138 58044 69961 77171 333 11027 21125 43028 70006 90910 93101 555 10006 20006
AAXX 15064 71825 11474 72207 11107 21124 39487 40177 57010 69901 77122 82677 333 11105 21279 47065 79999 90910 555 19999 29999
AAXX 15064 71827 11574 81710 11042 21050 39841 40086 57027 69901 70277 885// 333 11038 21116 47017 79999 90963 555 19999 29999
AAXX 15064 71828 17461 82708 11086 21111 39486 40138 56011 60001 745// 333 11086 21169 70000 555 32433 40142
AAXX 15064 71831 11240 81204 10002 21004 39761 40041 58042 60031 72277 887// 333 10003 21070 43020 70050 90913 93103 555 10050 20050
AAXX 15064 71832 NIL
AAXX 15064 71834 11/08 90000 11002 21003 39604 40029 57029 69941 74577 333 10011 21037 48009 70006 90913 555 10006 20006
AAXX 15064 71841 NIL
AAXX 15064 71842 NIL
AAXX 15064 71844 17332 80204 11054 21062 39770 40048 56007 69951 74544 333 70005 555 32618 40101
AAXX 15064 71845 NIL
AAXX 15064 71850 11362 82505 11026 21032 39539 40037 56005 69981 77174 887// 333 10002 21026 43002 70014 90983 93101 555 10010 20008
AAXX 15064 71852 17462 82707 11048 21057 39772 40068 55002 60001 745// 333 11013 21050 70000
AAXX 15064 71854 NIL
AAXX 15064 71858 NIL
AAXX 15064 71861 NIL
AAXX 15064 71862 11574 83121 11035 21076 39464 40176 53023 69901 77177 885// 333 11021 21071 42002 79999 90973 555 19999 29999 33134 40011
AAXX 15064 71863 46464 83420 11054 21097 39485 40197 53028 6///1 333 11020 21060 7//// 555 33136 40003
AAXX 15064 71930 NIL
AAXX 15064 71931 16/// /2604 11073 21090 30205 40217 53004 60001 333 10001 21100 70000 555 33420 40181
AAXX 15064 71934 11674 80000 11210 21226 39982 40253 57006 69901 70371 885// 333 11114 21216 47020 79999 90963 555 19999 29999
AAXX 15064 71935 11466 50903 11177 21212 30015 40233 55016 69921 77177 85500 333 11128 21186 47014 70002 90973 555 10004 20002
AAXX 15064 71936 11674 70000 11274 21313 39979 40260 55003 69901 77111 87500 333 11250 21318 48021 79999 90921 555 19999 29999
AAXX 15064 71937 NIL
AAXX 15064 71938 NIL
AAXX 15064 71940 12982 83605 11166 21197 39383 40228 58010 60001 8801/ 333 11057 21214 70000 555 10000 20000
AAXX 15064 71943 12974 81203 11123 21151 39340 40201 57008 60001 8807/ 333 11081 21132 70000 555 10000 20000
AAXX 15064 71944 160// ///// 11082 56008 60001 333 11071 21118 70000
AAXX 15064 71945 12974 30000 11182 21226 39717 40208 57002 60001 80001 333 11115 21197 70000 555 10000 20000
AAXX 15064 71946 12474 61302 11185 21213 39995 40219 58002 60001 86500 333 11145 21190 48034 79999 555 10002 29999
AAXX 15064 71948 46062 /2307 11273 30101 40220 56007 6///1 333 11252 21289 7//// 555 32722 40141
AAXX 15064 71949 46/// /0000 11225 21250 39272 40184 58010 6///1 333 11126 21232 7////
AAXX 15064 71951 11356 80216 11034 21056 39918 40190 51007 69961 77122 885// 333 11017 21041 47039 70006 90952 93101 555 10012 20006 33626 40231
AAXX 15064 71957 47430 90000 11211 21274 30103 40196 58002 6///1 745// 333 11210 21310 7////
AAXX 15064 71958 43/// /0502 11209 21219 39240 40228 51009 6///1 333 11116 21219 7////
AAXX 15064 71964 12774 31914 11075 21107 39270 40140 57006 60001 83500 333 11066 21191 70000 555 10000 20000 31820 40201
AAXX 15064 71966 17/// /0000 11194 21216 39661 40140 56011 69951 7//4/ 333 11175 21261 70005 555 10010 20005
AAXX 15064 71968 47028 /2712 11253 30138 40206 51002 6///1 745// 333 11252 21325 7////
AAXX 15064 71114 17564 81005 10003 21005 30155 40204 53001 69951 74344 333 10035 21011 70005
AAXX 15064 71120 11474 83605 11117 21142 39564 40240 50006 69901 77111 887// 333 11024 21123 42004 79999 90921 555 19999 29999 33321 40140
AAXX 15064 71122 16/// /2305 11099 21122 38574 40214 58008 60001 333 11039 21104 70000
AAXX 15064 71123 12974 71805 11169 21177 39337 40235 57005 60001 80004 333 11002 21174 70000 555 10000 20000 33020 40080
AAXX 15064 71125 NIL
AAXX 15064 71129 11574 72904 11073 21093 39379 40230 51010 69901 77111 87500 333 11020 21112 42997 79999 90921 555 19999 29999 33420 40170
AAXX 15064 71131 NIL
AAXX 15064 71135 16/// /3213 11072 21101 39108 40220 53013 60001 333 11061 21074 70000 555 33241 40203
AAXX 15064 71137 NIL
AAXX 15064 71140 11474 83214 11035 21059 39603 40110 5/018 69901 77122 885// 333 11027 21061 41997 79999 90910 555 19999 29999 33222 40060
AAXX 15064 71145 11428 80212 11099 21122 39788 40085 53015 60031 77177 885// 333 11048 21099 48034 70030 90983 93103 555 10030 20030 30321 40060
AAXX 15064 71148 16/// /3120 11031 21056 39507 40091 53003 60001 333 11030 21061 70000 555 33128 40042
AAXX 15064 71182 17464 82305 11133 21169 39624 40182 57012 60001 745// 333 11131 21275 70000
AAXX 15064 71185 17564 82615 11018 30197 40221 56009 60011 7//44 333 11018 21138 70010 555 32724 40031
AAXX 15064 71188 12674 22703 11128 21142 30210 40254 56008 60001 81570 333 11033 21131 79999 555 19999 29999
AAXX 15064 71200 17/// /0109 10034 20026 69941 7//4/ 333 10052 20030 70004 555 33618 40011
AAXX 15064 71207 17/// /0000 10001 30132 40197 51009 60021 7//4/ 333 10020 21012 70031
AAXX 15064 71260 13/// ///// 10036 20036 39781 40014 58045 60061 333 10038 20019 70074 555 10000 20000
AAXX 15064 71603 12574 80503 11009 21040 30234 40288 55007 60001 885// 333 10045 21019 70000 555 10000 20000 30520 40160
AAXX 15064 71607 16/// /2801 11076 21081 30249 40283 56004 60001 333 10019 21076 70000
AAXX 15064 71609 12574 80000 11031 21066 30145 40283 55009 60001 885// 333 10007 21071 70000 555 10000 20000 30220 40100
AAXX 15064 71610 15866 81003 10003 21013 39916 40216 58027 60001 333 10007 21018 70000
AAXX 15064 71621 17033 81707 10064 20060 30016 40121 58042 60021 74344 333 10083 21012 70020
AAXX 15064 71623 NIL
AAXX 15064 71624 11362 82112 10096 20094 39886 40096 58047 60021 76165 887// 333 10097 20016 70036 90967 555 10000 20000 31517 40000
AAXX 15064 71625 17140 81308 10019 21006 39946 40107 57046 60061 74144 333 10024 20005 70065
AAXX 15064 71627 11448 81412 10032 20012 30120 40165 58048 69981 76162 885// 333 10033 20006 70008 90921 555 10000 20000
AAXX 15064 71628 11232 81208 10020 20020 39997 40138 58051 60021 76165 887// 333 10021 20002 70024 90952 555 10000 20000
AAXX 15064 71630 NIL
AAXX 15064 71631 17/// /2010 10080 20075 39585 40080 58041 60041 7//4/ 333 10080 21006 70078
AAXX 15064 71633 11232 81912 10081 20080 39790 40058 58041 60021 76165 886// 333 10081 21011 70066 90983 555 10000 20000 31718 40000
AAXX 15064 71705 12974 02003 11038 21076 30184 40274 56012 60001 333 10003 21040 70004 555 10002 20004 30219 40080
AAXX 15064 71706 12574 82302 11018 21079 30216 40278 56011 60001 885// 333 10009 21020 79999 555 19999 29999 30322 40100
AAXX 15064 71707 12574 72803 11028 21086 30191 40270 57010 60001 87500 333 10031 21029 70010 555 19999 29999 30517 40080
AAXX 15064 71709 NIL
AAXX 15064 71711 NIL
AAXX 15064 71714 16/// /0604 10001 21019 30140 40233 58029 60001 333 10015 21047 70000
AAXX 15064 71715 16/// /1303 11030 21045 30037 40222 58024 60001 333 11007 21037 70000
AAXX 15064 71718 12583 81503 11022 21051 30167 40234 58018 60001 885// 333 11014 21053 79999 555 19999 29999
AAXX 15064 71719 NIL
AAXX 15064 71864 NIL
AAXX 15064 71865 16/// /3511 11072 21104 39500 40194 53030 60001 333 7////
AAXX 15064 71866 46564 80108 11065 21110 39597 40223 51023 6///1 333 11012 21068 7//// 555 33233 40222
AAXX 15064 71867 11674 13510 11137 21152 39835 40178 52041 69971 77077 81500 333 11038 21139 48025 70071 90983 93101 555 10095 20071 33624 40041
AAXX 15064 71868 NIL
AAXX 15064 71869 11566 70104 11091 21124 39687 40225 52028 69901 77122 87500 333 11035 21091 47005 79999 90942 555 10002 29999
AAXX 15064 71871 15466 80203 11091 21113 39407 40235 52009 60001 333 11030 21091 70000
AAXX 15064 71877 12974 31704 11083 21110 38923 40226 57012 60001 83030 333 10041 21090 79999 555 19999 29999 33230 40081
AAXX 15064 71878 12974 60000 11136 21149 39129 40236 57007 60001 86070 333 11018 21174 70000 555 10000 20000
AAXX 15064 71879 16964 02102 11088 21122 39400 40224 58002 60001 333 11004 21099 70000 555 33120 40071
AAXX 15064 71880 11482 80000 11053 21068 39107 40239 57009 69921 77122 885// 333 11040 21090 47002 70002 90962 555 10002 20002
AAXX 15064 71882 16558 80000 11022 21039 39682 40231 56006 60001 333 11005 21035 70000
AAXX 15064 71883 NIL
AAXX 15064 71887 NIL
AAXX 15064 71889 11462 81914 11017 21043 39800 40226 57008 69931 77122 885// 333 11002 21021 70003 90931 555 10003 20003
AAXX 15064 71891 16458 81402 11019 21030 39920 40200 55005 60001 333 11010 21055 70000
AAXX 15064 71892 11469 80605 10038 20024 30194 40199 52011 60011 76162 885// 333 10059 21005 70014 90973 555 10000 20000
AAXX 15061 13173 32697 71604 10078 20060 30060 40160 57009 82570 333 20072 31006 55000 70000
AAXX 15061 13180 11698 81608 10092 20068 30059 40169 58009 69902 70262 885// 333 20072 31006 55036 70000 91111
AAXX 15061 13266 32698 60803 10061 20035 30057 40159 57009 86500 333 20040 31002 55000 70000
AAXX 15061 13369 32698 52802 10021 20006 39000 48477 58005 85500 333 20021 3/000 43006 55011 70000
AAXX 15061 13383 31997 70000 10020 20018 39992 40202 57008 72822 87030 333 20014 31001 55012 70000
AAXX 15061 13384 32897 51101 10046 20033 30042 40196 57009 84031 333 20031 31002 55033 70000
AAXX 15061 13389 32998 30000 10025 20015 39933 40221 54000 82031 333 20013 31102 55051 70000
AAXX 15061 13477 NIL
AAXX 15064 65306 31956 50404 10190 21015 39793 40125 70522 80002 333 00900 20171 50844 55095 59004 85076
AAXX 15064 65319 32956 53404 10204 21001 39605 40119 80002 333 01600 20194 50714 55095 59004 85076
AAXX 15064 65330 31920 50806 10195 21024 39673 40111 70522 80002 333 01800 20193 50984 55083 0//// 59004 85076
AAXX 15064 65335 31930 50602 10197 20102 39891 40115 70522 80002 333 01600 20187 50604 55083 59006 85076
AAXX 15064 65344 31220 60206 10220 20212 30096 40107 71022 82502 333 02100 20219 50324 55055 59007 82605 85076
AAXX 15061 13168 32698 70902 10066 20047 30052 40160 58011 82570 333 20061 31001 55036 70000
AAXX 15061 13174 11697 70703 10062 20052 30065 40166 50003 69922 72162 84502 333 20061 31005 55000 70002
AAXX 15061 13269 32699 71803 10140 20046 39955 40165 56004 87500 333 20042 31001 55045 70000
AAXX 15061 13274 32698 71602 10121 20038 30005 40164 57006 87500 333 20105 31006 55046 70000
AAXX 15061 13278 32997 62001 10080 20038 39961 40187 57007 86070 333 20056 31004 55015 70000
AAXX 15061 13378 32498 72102 10019 20018 38289 48514 57005 83530 333 20000 31101 55016 70000
AAXX 15061 13397 32698 60905 10003 21006 39692 40249 53004 84501 333 20001 31100 55028 70000
AAXX 15061 13457 11565 81506 10129 20110 30195 40202 57008 60042 72166 8582/ 333 20093 32009 55/// 82816 83630 86459 91111
AAXX 15061 13481 NIL
AAXX 15064 71397 12674 70000 11015 21060 30248 40283 55010 60001 87500 333 10028 21017 79999 555 10000 20000 30319 40090
AAXX 15064 71400 16/58 /1001 11188 21201 60001 333 11047 21194 70000
AAXX 15064 71403 46/// /3510 11002 21057 30256 40276 55008 6///1 333 10038 21004 7//// 555 30227 40101
AAXX 15064 71411 16/// /3605 10002 21038 30265 40278 55009 60001 333 10031 21009 70000 555 30219 40151
AAXX 15064 71412 16/// /2705 11011 21064 30258 40268 56009 60001 333 10018 21013 70000 555 30430 40072
AAXX 15064 71421 NIL
AAXX 15064 71430 17/// /1826 10067 20054 30032 40128 58035 69981 7//4/ 333 10079 20015 70008 555 31733 40032
AAXX 15064 71431 17/// /1005 10060 20056 30013 40108 58038 60051 7//4/ 333 10060 21005 70047 555 31721 40011
AAXX 15064 71432 NIL
AAXX 15064 71433 NIL
AAXX 15064 71435 NIL
AAXX 15064 71441 NIL
AAXX 15064 71443 16/// /3312 11060 21101 39725 40143 53045 60001 333 11029 21060 70004 555 10010 20004 33419 40061
AAXX 15064 71444 NIL
AAXX 15064 71447 16/// /3125 11033 21073 39578 40129 53020 60001 333 11012 21059 70000 555 33135 40063
AAXX 15064 71467 NIL
AAXX 15064 71472 NIL
AAXX 15064 71474 17040 81704 11053 21068 38922 40181 55002 60011 74544 333 11040 21072 70010
AAXX 15064 71510 NIL
AAXX 15064 71538 11556 82117 10106 20097 39861 40089 58029 60041 78062 885// 333 10108 20025 70148 90927 555 10000 20000 32125 40001
AAXX 15064 71600 16664 80109 10006 21075 30266 40272 50002 60001 333 10061 20006 70005 555 30429 40132
AAXX 15064 71601 NIL
AAXX 15064 71043 12883 11204 11233 21280 30087 40185 56015 60001 81070 333 11199 21241 70004 555 10004 20004
AAXX 15064 71045 16/// /0404 11124 21139 39300 40192 54000 60001 333 11103 21201 70000 555 10020
AAXX 15064 71050 46/// /2701 11037 21043 39076 40164 52004 6///1 333 11021 21096 7////
AAXX 15064 71051 NIL
AAXX 15064 71052 NIL
AAXX 15064 71066 11366 80000 11131 21158 39787 40222 58005 69901 77171 886// 333 11072 21166 47017 70008 90942 555 10016 20008
AAXX 15064 71068 11056 80000 11134 21147 39500 40214 58008 60001 72841 83701 333 11036 21159 70000 555 10000 20000
AAXX 15064 71069 16964 00000 11150 21151 39499 40225 58003 60001 333 11021 21150 70000 555 33020 40121
AAXX 15064 71076 16/// /0705 11296 21327 39846 40264 50000 60001 333 11097 21317 70000
AAXX 15064 71077 16/// /3506 11166 21197 39697 40258 51010 60001 333 11047 21181 70031 555 10040 20031 33317 40201
AAXX 15064 71079 11574 03512 11211 21272 39898 40187 52031 69981 72211 81500 333 11036 21211 48007 70028 90983 93101 555 10040 20028
AAXX 15064 71081 47430 90919 11100 21110 39789 49801 55001 6///1 745// 333 11083 21140 7//// 555 31136 40103
AAXX 15064 71082 NIL
AAXX 15064 71083 11916 02920 11264 21302 39998 40042 55008 60001 73800 333 11233 21274 79999 555 19999 29999 32932 40021
AAXX 15064 71090 47264 83107 11219 21253 39952 49988 58006 6///1 745// 333 11209 21307 7////
AAXX 15064 71091 460// /0928 11158 39649 49857 55007 6///1 333 7//// 555 30840 40123
AAXX 15064 71092 47404 81023 11206 39232 49901 56006 6///1 745// 333 11189 21249 7//// 555 30941 40153
AAXX 15064 71093 460// /3610 11203 39439 49942 56006 6///1 333 11203 21250 7//// 555 31219 40091
AAXX 15064 71094 46002 /1607 11130 39004 49899 56005 6///1 333 11127 21242 7//// 555 32135 40153
AAXX 15064 71095 46956 30821 11177 21231 39877 49958 55001 6///1 333 11164 21257 7////
AAXX 15064 71101 160// /3009 30166 51019 60001 333 70000
AAXX 15064 71104 NIL
AAXX 15064 71108 11566 80000 10025 20010 30128 40201 53012 69901 76162 885// 333 10044 20007 79999 90926 555 10000 20000
AAXX 15064 71109 11466 81207 10033 20015 30143 40170 53018 60021 76166 885// 333 10052 20030 70056 90983 555 10000 20000 31222 40190
AAXX 15064 71930 NIL
AAXX 15064 71931 16/// /2604 11073 21090 30205 40217 53004 60001 333 10001 21100 70000 555 33420 40181
AAXX 15064 71934 11674 80000 11210 21226 39982 40253 57006 69901 70371 885// 333 11114 21216 47020 79999 90963 555 19999 29999
AAXX 15064 71935 11466 50903 11177 21212 30015 40233 55016 69921 77177 85500 333 11128 21186 47014 70002 90973 555 10004 20002
AAXX 15064 71936 11674 70000 11274 21313 39979 40260 55003 69901 77111 87500 333 11250 21318 48021 79999 90921 555 19999 29999
AAXX 15064 71937 NIL
AAXX 15064 71938 NIL
AAXX 15064 71940 12982 83605 11166 21197 39383 40228 58010 60001 8801/ 333 11057 21214 70000 555 10000 20000
AAXX 15064 71943 12974 81203 11123 21151 39340 40201 57008 60001 8807/ 333 11081 21132 70000 555 10000 20000
AAXX 15064 71944 160// ///// 11082 56008 60001 333 11071 21118 70000
AAXX 15064 71945 12974 30000 11182 21226 39717 40208 57002 60001 80001 333 11115 21197 70000 555 10000 20000
AAXX 15064 71946 12474 61302 11185 21213 39995 40219 58002 60001 86500 333 11145 21190 48034 79999 555 10002 29999
AAXX 15064 71948 46062 /2307 11273 30101 40220 56007 6///1 333 11252 21289 7//// 555 32722 40141
AAXX 15064 71949 46/// /0000 11225 21250 39272 40184 58010 6///1 333 11126 21232 7////
AAXX 15064 71951 11356 80216 11034 21056 39918 40190 51007 69961 77122 885// 333 11017 21041 47039 70006 90952 93101 555 10012 20006 33626 40231
AAXX 15064 71957 47430 90000 11211 21274 30103 40196 58002 6///1 745// 333 11210 21310 7////
AAXX 15064 71958 43/// /0502 11209 21219 39240 40228 51009 6///1 333 11116 21219 7////
AAXX 15064 71964 12774 31914 11075 21107 39270 40140 57006 60001 83500 333 11066 21191 70000 555 10000 20000 31820 40201
AAXX 15064 71966 17/// /0000 11194 21216 39661 40140 56011 69951 7//4/ 333 11175 21261 70005 555 10010 20005
AAXX 15064 71968 47028 /2712 11253 30138 40206 51002 6///1 745// 333 11252 21325 7////
AAXX 15064 71726 17/// /1304 11021 21029 39595 40139 58049 60011 7//4/ 333 11008 21091 70026 555 10020 20026
AAXX 15064 71727 12774 71009 11029 21047 30003 40204 58027 60001 82570 333 11016 21050 79999 555 10000 20000
AAXX 15064 71728 12480 81404 11014 21038 39960 40184 57034 60001 887// 333 11013 21055 79999 555 19999 29999
AAXX 15064 71730 11004 91506 10024 20024 39630 40051 58042 60011 74564 333 10025 21002 41997 70018 90983 555 19999 29999 31618 40020
AAXX 15064 71731 11024 81910 10026 20025 39622 40070 56040 60041 72176 887// 333 10026 21001 42001 70080 90973 555 10030 20030
AAXX 15064 71735 NIL
AAXX 15064 71738 NIL
AAXX 15064 71739 41316 81305 10002 21001 39679 40040 57041 6//// 77177 887// 333 10007 21036 4//// 7//// 90973 93106 555 1//// 2////
AAXX 15064 71749 16104 92102 10006 20005 39774 40018 56027 60001 333 10017 21030 70015
AAXX 15064 71799 11362 82703 10026 20022 30171 40195 52009 60011 76162 885// 333 10042 21013 70018 90937 555 10000 20000
AAXX 15064 71800 16/// /3308 11044 21070 30205 40239 53016 60001 333 11006 21048 70000 555 30344 40163
AAXX 15064 71801 11574 83507 11051 21094 30059 40237 52009 69901 70288 885// 333 11043 21059 46003 79999 90962 555 19999 29999 30226 40131
AAXX 15064 71803 12980 02609 11086 21110 30041 40234 55005 60001 333 11056 21125 79999 555 19999 29999
AAXX 15064 71807 NIL
AAXX 15064 71808 12974 02711 11105 21118 30153 40201 56004 60001 333 11081 21175 70000 555 10000 20000
AAXX 15064 71809 11569 80000 11059 21074 30219 40247 56005 69901 78511 885// 333 11040 21195 47012 79999 90931 555 19999 29999
AAXX 15064 71810 16/// /2805 11055 21080 30164 40232 56007 60001 333 11031 21156 70000 555 32718 40021
AAXX 15064 71811 NIL
AAXX 15064 71813 NIL
AAXX 15064 71814 16/// /2708 11055 21081 30213 40223 58006 60001 333 11054 21177 70000 555 32721 40041
AAXX 15064 71815 12474 82809 11027 21075 30221 40253 57007 60001 885// 333 11026 21123 48008 79999 555 19999 29999
AAXX 15064 71864 NIL
AAXX 15064 71865 16/// /3511 11072 21104 39500 40194 53030 60001 333 7////
AAXX 15064 71866 46564 80108 11065 21110 39597 40223 51023 6///1 333 11012 21068 7//// 555 33233 40222
AAXX 15064 71867 11674 13510 11137 21152 39835 40178 52041 69971 77077 81500 333 11038 21139 48025 70071 90983 93101 555 10095 20071 33624 40041
AAXX 15064 71868 NIL
AAXX 15064 71869 11566 70104 11091 21124 39687 40225 52028 69901 77122 87500 333 11035 21091 47005 79999 90942 555 10002 29999
AAXX 15064 71871 15466 80203 11091 21113 39407 40235 52009 60001 333 11030 21091 70000
AAXX 15064 71877 12974 31704 11083 21110 38923 40226 57012 60001 83030 333 10041 21090 79999 555 19999 29999 33230 40081
AAXX 15064 71878 12974 60000 11136 21149 39129 40236 57007 60001 86070 333 11018 21174 70000 555 10000 20000
AAXX 15064 71879 16964 02102 11088 21122 39400 40224 58002 60001 333 11004 21099 70000 555 33120 40071
AAXX 15064 71880 11482 80000 11053 21068 39107 40239 57009 69921 77122 885// 333 11040 21090 47002 70002 90962 555 10002 20002
AAXX 15064 71882 16558 80000 11022 21039 39682 40231 56006 60001 333 11005 21035 70000
AAXX 15064 71883 NIL
AAXX 15064 71887 NIL
AAXX 15064 71889 11462 81914 11017 21043 39800 40226 57008 69931 77122 885// 333 11002 21021 70003 90931 555 10003 20003
AAXX 15064 71891 16458 81402 11019 21030 39920 40200 55005 60001 333 11010 21055 70000
AAXX 15064 71892 11469 80605 10038 20024 30194 40199 52011 60011 76162 885// 333 10059 21005 70014 90973 555 10000 20000
AAXX 15064 71726 17/// /1304 11021 21029 39595 40139 58049 60011 7//4/ 333 11008 21091 70026 555 10020 20026
AAXX 15064 71727 12774 71009 11029 21047 30003 40204 58027 60001 82570 333 11016 21050 79999 555 10000 20000
AAXX 15064 71728 12480 81404 11014 21038 39960 40184 57034 60001 887// 333 11013 21055 79999 555 19999 29999
AAXX 15064 71730 11004 91506 10024 20024 39630 40051 58042 60011 74564 333 10025 21002 41997 70018 90983 555 19999 29999 31618 40020
AAXX 15064 71731 11024 81910 10026 20025 39622 40070 56040 60041 72176 887// 333 10026 21001 42001 70080 90973 555 10030 20030
AAXX 15064 71735 NIL
AAXX 15064 71738 NIL
AAXX 15064 71739 41316 81305 10002 21001 39679 40040 57041 6//// 77177 887// 333 10007 21036 4//// 7//// 90973 93106 555 1//// 2////
AAXX 15064 71749 16104 92102 10006 20005 39774 40018 56027 60001 333 10017 21030 70015
AAXX 15064 71799 11362 82703 10026 20022 30171 40195 52009 60011 76162 885// 333 10042 21013 70018 90937 555 10000 20000
AAXX 15064 71800 16/// /3308 11044 21070 30205 40239 53016 60001 333 11006 21048 70000 555 30344 40163
AAXX 15064 71801 11574 83507 11051 21094 30059 40237 52009 69901 70288 885// 333 11043 21059 46003 79999 90962 555 19999 29999 30226 40131
AAXX 15064 71803 12980 02609 11086 21110 30041 40234 55005 60001 333 11056 21125 79999 555 19999 29999
AAXX 15064 71807 NIL
AAXX 15064 71808 12974 02711 11105 21118 30153 40201 56004 60001 333 11081 21175 70000 555 10000 20000
AAXX 15064 71809 11569 80000 11059 21074 30219 40247 56005 69901 78511 885// 333 11040 21195 47012 79999 90931 555 19999 29999
AAXX 15064 71810 16/// /2805 11055 21080 30164 40232 56007 60001 333 11031 21156 70000 555 32718 40021
AAXX 15064 71811 NIL
AAXX 15064 71813 NIL
AAXX 15064 71814 16/// /2708 11055 21081 30213 40223 58006 60001 333 11054 21177 70000 555 32721 40041
AAXX 15064 71815 12474 82809 11027 21075 30221 40253 57007 60001 885// 333 11026 21123 48008 79999 555 19999 29999
AAXX 15061 33088 32597 62101 10030 20025 39952 40145 53007 86530 333 20017
AAXX 15061 33177 32562 70902 10044 20032 39902 40140 52008 87900 333 20029
AAXX 15061 33261 11/04 91603 10045 20045 30006 40190 57004 69932 75154 333 20023
AAXX 15061 33275 11/93 91606 10027 20027 39988 40215 57002 69902 75154 333 20017 41998 96045
AAXX 15061 33301 32697 62003 10039 20024 39868 40152 53007 82530 333 20025
AAXX 15061 33325 11396 82003 10044 20032 39897 40167 53002 69902 71052 885// 333 20041 86708
AAXX 15061 33377 11215 81802 10061 20059 30006 40200 54000 69922 75154 886// 333 20037 88705
AAXX 15061 33415 31/93 91407 10027 20027 39766 40168 53005 74544 333 20026
AAXX 15061 33429 31/93 91602 10028 20028 39744 40172 53004 74542 333 20028
AAXX 15061 33466 11250 81903 10040 20035 30000 40189 53002 69902 75152 886// 333 20040 88706
AAXX 15061 33526 31540 60000 11004 21007 39821 40170 53007 71042 86600 333 21021 86720 93401
AAXX 15061 33562 11/08 91904 10025 20025 39814 40180 50003 69912 74742 333 20024
AAXX 15061 33614 11394 81703 10064 20060 30104 40209 52001 69902 75152 886// 333 20058 88707
AAXX 15061 33761 11/02 92103 10033 20033 39973 40199 52003 69902 75154 333 20026 96045
AAXX 15061 33902 11/93 91702 10082 20082 30150 40217 51004 69912 75154 333 20077 96047
AAXX 15061 33983 31/92 90000 10055 20055 30189 40250 52007 74540 333 20054
AAXX 15061 34415 31/07 90000 10003 20003 30163 40263 53002 74742 333 20003
AAXX 15061 34523 31496 81303 10024 20011 30204 40282 53006 71022 8772/ 333 20014 87716
AAXX 15061 34712 31440 81108 10018 20015 30177 40264 52004 71022 886// 333 20017 88714
AAXX 15061 33135 31395 81606 10051 20042 39985 40164 57009 71022 886// 333 20049 88701
AAXX 15061 33791 11/03 91805 10061 20061 30067 40219 53001 69942 74354 333 20058
AAXX 15061 33924 11395 82003 10087 20081 30217 40229 52009 69902 72052 886// 333 20086 88707
AAXX 15064 60020 11570 30604 10184 20122 30233 40278 53005 60004 702// 83500 333 20183 55079 924/7
AAXX 15064 60030 02560 33514 10177 20115 30206 40262 50002 60004 83800 333 017// 20171 55065 60007 924/6
AAXX 15064 60040 02581 20210 10173 20122 30250 40275 52001 60004 82500 333 016// 20166 55067 60007 924/8
AAXX 15064 60338 12770 52608 10160 20111 30218 40284 52016 60004 85030 333 20148 55085 92417
AAXX 15061 02019 05/99 /1707 10018 21049 39183 49789 50001 60002 333 10022 21016 60005 70001 90710 91111
AAXX 15061 02081 07/67 /1606 10011 21007 39458 49855 52004 69972 72487 333 10011 21003 69905 70017 90710 91111
AAXX 15061 02095 07359 /1604 10013 20008 39692 49893 53006 69992 76187 333 10015 20005 69945 70025 88/07 90710 91108
AAXX 15061 02101 45584 /1306 10016 21021 39254 49800 53011 8//// 333 10020 20011 88/22
AAXX 15061 02119 07581 /0402 10007 20001 39451 49830 53013 69992 74187 333 10010 21006 69905 70042 88/23 90710 91106
AAXX 15061 02124 07464 /1406 10001 21009 39318 49834 53010 69932 70071 333 10002 21005 60005 70020 87/13 88/31 90710 91112
AAXX 15061 02126 07482 /1403 10010 21005 39510 49842 52008 69992 70064 333 10014 20001 60005 70010 88/19 90710 91108
AAXX 15061 02151 37359 81607 10008 20006 39526 49857 52008 60002 77740 333 10009 21001 60005 70003 82/08 86/11 87/15 91010 90710 91111 90710 91207
AAXX 15061 02186 01465 81708 10028 20021 39870 49895 53001 60042 76186 885// 333 10035 20024 44010 60015 70054 85710 87616 91012 90710 91112 90710 91208
AAXX 15061 02197 07/62 /1605 10024 20011 39903 49922 52001 69942 72386 333 10031 20020 69905 70039 90710 91111
AAXX 15061 02207 07999 /1907 10010 21037 39088 49768 53004 60002 70010 333 10025 20010 60005 70000 83/69 87/71 90710 91114
AAXX 15061 02219 07/60 /1304 10005 21011 39140 49792 50010 69912 70071 333 10009 20002 60005 70001 90710 91110
AAXX 15061 02226 45484 /1507 10011 21010 39360 49805 53003 8//// 333 10020 20010 87/12 88/18
AAXX 15061 02243 07/60 /1403 10010 21008 39576 49840 53002 60002 70010 333 10017 20007 60005 70001 90710 91108
AAXX 15061 02269 07459 /1810 10042 20024 60002 71011 333 10048 20041 60005 70000 87/14 90710 91114
AAXX 15061 02287 07363 /1606 10035 20022 39882 49891 54000 69902 78186 333 10046 20035 69905 70007 87/09 90710 91113
AAXX 15061 02297 07481 /1710 10034 20021 39848 49892 55001 69992 72386 333 10037 20027 69905 70020 85/13 87/21 90710 91118
AAXX 15061 02308 07/99 /1904 11017 21032 38958 49803 55001 69902 70071 333 11001 21017 60005 70000 90710 91109
AAXX 15061 02327 07/83 /1402 10010 21003 39403 49830 53002 69902 70087 333 10024 20008 60005 70000 90710 91105
AAXX 15061 02355 05576 /1609 10026 20015 39855 49867 58006 60002 333 10031 20023 60005 70000 81/24 85/50 90710 91111
AAXX 15061 02366 45479 /1505 10020 20002 39859 49865 58005 8//// 333 10027 20011 81/17 83/19 88/24
AAXX 15061 02407 07383 /2004 10019 20011 39481 49843 53006 60012 72387 333 10027 20009 69905 70013 88/09 90710 91109
AAXX 15061 02418 45580 /2006 10040 20012 39742 49871 52008 8//// 333 10047 20034 88/24
AAXX 15061 02435 47471 /1905 10022 20002 39682 49867 55000 721// 8//// 333 10029 20014 81/10 83/13 88/16
AAXX 15061 02440 07356 /1802 10011 20001 69952 76160 333 10027 20011 69945 70005 82/07 84/10 85/13 88/// 90710 91104
AAXX 15061 02452 05474 /2103 10012 20002 60002 333 10020 20003 60005 70000 90710 91108
AAXX 15061 02456 05981 /1903 10012 20004 39855 49897 55003 60002 333 10031 20009 60005 70000 82/60 90710 91106
AAXX 15061 02469 07/81 /2003 10010 20001 69932 70031 333 10046 21010 60005 70003 90710 91105
AAXX 15061 02498 07/77 /2208 10037 20024 39900 49916 52005 60032 70060 333 10058 20025 60005 70027 90710 91110
AAXX 15061 02518 464// /2211 10049 20030 333 10064 20049 84/14 85/22 90710 91117
AAXX 15061 02520 35583 32007 10035 20002 39822 49889 50003 60002 333 10050 20030 60005 79999 82/24 83/29 91010 90710 91112 90710 91209
AAXX 15061 02550 45478 /1905 10020 20020 39645 49918 55000 8//// 333 10029 20009 81/11 83/14 85/17 87/21
AAXX 15061 02562 12582 42005 10015 20004 39804 49919 53005 69902 82502 333 10033 20000 34/// 60005 70003 82620 91006 90710 91106 90710 91205
AAXX 15061 02563 05/78 /2005 10024 20019 39907 49929 53003 69932 333 10040 20019 60005 70003 90710 91108
AAXX 15061 02565 07562 /1902 10025 20012 39821 49940 54001 69952 70086 333 10034 20001 60005 70013 81/25 88/40 90710 91107
AAXX 15061 02589 07480 /2408 10040 20022 39917 49938 51018 60022 70061 333 10055 20034 60005 70021 83/17 87/64 90710 91113
AAXX 15061 02590 45582 /2206 10034 20018 39890 49952 51012 333 10055 20023 81/22 85/26
AAXX 15061 02618 07/43 /1904 10009 20009 39764 49928 50003 60022 77187 333 10040 20009 60025 70051 90710 91112
AAXX 15061 02664 12580 32104 10039 20017 39895 49966 53004 69922 81501 333 10044 20011 31/// 60005 70006 81623 83076 91007 90710 91107 90710 91204
AAXX 15061 02679 05577 /2307 10045 20033 39925 49969 52008 69992 333 10059 20034 60005 70009 87/29 87/63 90710 91111
AAXX 15061 01392 11474 81703 10021 20009 39612 49834 53004 60012 70222 888// 333 20012 42004 70028 91110
AAXX 15061 01122 16/// /1804 10055 21014 39674 49760 52013 60002 333 20048 70000 91113
AAXX 15061 01156 16/// /1306 10061 21004 39746 49756 53006 60002 333 20034 70000 91109
AAXX 15061 01273 16/// /1404 10046 21029 39572 49761 53007 60002 333 20043 70000 91115
AAXX 15061 01378 16/// /1202 10022 21004 39520 49805 51006 60002 333 20018 70000 91107
AAXX 15061 01422 16/// /2302 10061 20036 60092 333 20042 70141 91113
AAXX 15061 01023 16/// /0902 10026 21033 39691 49784 55001 6//// 333 20005 91109
AAXX 15061 01406 46/// /2109 10072 20045 39780 49798 52029 333 20055 91117
AAXX 15061 01442 11588 81705 10020 20012 39585 49838 53012 60042 70262 888// 333 20012 70190 91111
AAXX 15061 01037 16/// /1306 10044 21012 39798 49804 52004 69932 333 20020 70003 91116
AAXX 15061 01065 11689 81605 10023 21013 39728 49887 53008 69952 70222 888// 333 20009 70013 91111
AAXX 15061 01114 16/// /1502 10065 21026 39740 49750 53013 60002 333 21002 70000 91109
AAXX 15061 01245 11680 52304 10018 21053 39076 49760 50014 60002 70222 85500 333 20017 49032 70000 91111
AAXX 15061 01364 16/// /1902 11003 21047 38693 49781 50007 60002 333 21007 4/032 70003 91110
AAXX 15061 01389 11870 71504 10011 21002 39523 49828 53008 69982 70262 8702/ 333 20007 43020 70012 91109
AAXX 15064 91324 NIL
AAXX 15064 91329 32474 80912 10289 20254 30119 40121 8431/ 333 56299 70000 84918 88462 555 91506
AAXX 15064 91336 32474 80917 10278 20233 30128 40131 8131/ 333 56299 70008 81918 88462 555 91506
AAXX 15064 91339 11474 80813 10283 20246 30051 40057 60011 70282 8636/ 333 56299 70010 86918 88362 555 91506
AAXX 15064 91320 23474 80608 10317 20278 30081 40086 83109 333 561/9 70000 83816 85274 555 91506
AAXX 15061 01135 16/// /1602 10050 21014 39615 49761 52012 60002 333 20040 70003 91108
AAXX 15061 01192 16/// /1403 10053 21063 60002 333 20026 4/007 70000 91111
AAXX 15061 01455 16/// /1102 10022 20008 39525 49829 52006 69932 333 20012 70038 91107
AAXX 15061 01481 16/// /2204 10054 20033 39802 49833 58005 60042 333 20038 70110 91111
AAXX 15064 60715 12558 31808 10101 20079 30240 40247 55000 60004 81102 333 20096 58002 81823 83070 91009 91110
AAXX 15064 60723 11940 50000 10045 20045 30078 40275 53003 60004 710// 80002 333 20039 85070
AAXX 15064 60725 12960 22402 10045 2//// 30087 40272 58003 60004 80002 333 20039 82070
AAXX 15064 60735 12958 30000 10085 20054 30167 40251 52006 60004 80002 333 20080 83070
AAXX 15064 60745 12560 22304 10092 20044 39882 40261 53001 60004 82500 333 20076 82630
AAXX 15064 60748 13960 30000 10053 20035 39830 40263 53004 60004 80002 333 20052 83070
AAXX 15064 60750 12660 42203 10061 20024 30224 40250 53004 60004 82502 333 20060 82633 83070
AAXX 15064 60760 12660 42607 10100 20035 30155 40262 53002 60004 83202 333 20094 70000 83833 91008 91108
AAXX 15064 60765 13558 32202 10121 20076 30264 40268 51006 60004 83500 333 20114 83630 92416 925//
AAXX 15064 60767 12560 62906 10087 20049 30111 40260 55000 60004 82502 333 20072 82630 85070
AAXX 15064 60769 12958 41706 10107 20087 30246 40250 52009 60004 80002 333 20101 84070
AAXX 15064 16294 12597 82507 10142 20094 30009 40201 57002 60002 8452/ 333 20142 30/// 55/// 2//// 84625 85457 555 0325/
AAXX 15064 91324 NIL
AAXX 15064 91329 32474 80912 10289 20254 30119 40121 8431/ 333 56299 70000 84918 88462 555 91506
AAXX 15064 91336 32474 80917 10278 20233 30128 40131 8131/ 333 56299 70008 81918 88462 555 91506
AAXX 15064 91339 11474 80813 10283 20246 30051 40057 60011 70282 8636/ 333 56299 70010 86918 88362 555 91506
AAXX 15064 91320 23474 80608 10317 20278 30081 40086 83109 333 561/9 70000 83816 85274 555 91506
AAXX 15061 06458 12583 72109 10053 20022 39864 40017 56006 60012 8582/ 333 20027 32002 83822 84626 87465 91114 91211
AAXX 15064 91324 NIL
AAXX 15064 91329 32474 80912 10289 20254 30119 40121 8431/ 333 56299 70000 84918 88462 555 91506
AAXX 15064 91336 32474 80917 10278 20233 30128 40131 8131/ 333 56299 70008 81918 88462 555 91506
AAXX 15064 91339 11474 80813 10283 20246 30051 40057 60011 70282 8636/ 333 56299 70010 86918 88362 555 91506
AAXX 15064 91320 23474 80608 10317 20278 30081 40086 83109 333 561/9 70000 83816 85274 555 91506
AAXX 15064 16090 11105 82002 10070 20067 30061 40144 56010 69922 74662 887// 333 20066 32/// 55000 20020 88702
AAXX 15061 06447 16/// /2207 10055 20015 39886 40011 57007 69962 333 20034 3/003 91116 91209
AAXX 15061 02464 45982 /2003 10021 20005 39899 49916 52005 8//// 333 10050 20011
AAXX 15061 02500 07461 /1914 10055 20037 39810 49851 54001 60062 70086 333 10067 20037 60005 70065 86/17 90710 91119
AAXX 15061 02513 NIL
AAXX 15061 02615 07460 /2215 10046 20029 39956 49960 57008 60012 76160 333 10055 20038 69955 70037 88/15 90710 91119
AAXX 15061 02635 07/58 /2204 10038 20024 60012 76186 333 10049 20033 60015 70045 90710 91112
AAXX 15064 60710 12958 50000 10128 20083 30165 40245 53001 60004 83082 333 20081 83360 83070
AAXX 15064 60714 12560 72602 10109 2//// 30250 40256 53002 60004 82882 333 20076 82820 83360
AAXX 15064 60720 13558 42602 10109 20095 30210 40244 58004 60004 83202 333 20097 83823
AAXX 15064 60728 13960 43208 10111 20111 30155 40250 58003 60004 80002 333 20110 84070
AAXX 15064 60729 13950 32802 10046 20046 30077 40271 53001 60004 80002 333 20041 83070
AAXX 15064 60731 05960 02003 10064 20054 30240 40247 53006 69924 333 10129 20064 59002 5///4 60007 70002 91004 91108
AAXX 15064 60732 13958 02002 10023 20004 39648 40282 55000 60004 333 20017
AAXX 15064 60734 13960 51804 10038 20035 39736 40278 53006 60004 82082 333 20022 82360 84070
AAXX 15064 60738 NIL
AAXX 15064 60739 13956 61708 10044 20006 39425 40272 55001 60004 82038 333 20036 82360 85270 94269
AAXX 15064 60740 12958 62103 10078 20058 30243 40245 53001 60004 80002 333 20073 86070
AAXX 15064 60742 13958 22604 10082 20040 30249 40251 52001 60004 80002 333 20081 82070
AAXX 15064 60764 NIL
AAXX 15064 60770 13975 30000 10118 20088 30120 40261 53008 60004 80002 333 20108 83070
AAXX 15064 60772 13965 31906 10110 20089 30121 40268 53006 60004 80002 333 20109 83070
AAXX 15064 60775 13965 32504 10100 20021 39913 40276 53007 60004 80002 333 20097 55086 83070
AAXX 15064 60780 13960 40706 10091 20043 39960 40284 52003 60004 80002 333 20087 84070
AAXX 15064 48325 31565 10000 10267 20165 39883 40124 57038 70140 81200 333 59006
AAXX 15064 48568 01458 81007 10265 20246 30089 40097 57020 60051 76062 8482/ 333 59013 69997 70047
AAXX 15064 48360 32959 20302 10285 20165 39861 40119 57030 80005 333 59026
AAXX 15064 48433 31559 43603 10287 20186 39958 40122 57024 70511 82545 333 59011
AAXX 15061 33088 32597 62101 10030 20025 39952 40145 53007 86530 333 20017
AAXX 15061 33177 32562 70902 10044 20032 39902 40140 52008 87900 333 20029
AAXX 15061 33261 11/04 91603 10045 20045 30006 40190 57004 69932 75154 333 20023
AAXX 15061 33275 11/93 91606 10027 20027 39988 40215 57002 69902 75154 333 20017 41998 96045
AAXX 15061 33301 32697 62003 10039 20024 39868 40152 53007 82530 333 20025
AAXX 15061 33325 11396 82003 10044 20032 39897 40167 53002 69902 71052 885// 333 20041 86708
AAXX 15061 33377 11215 81802 10061 20059 30006 40200 54000 69922 75154 886// 333 20037 88705
AAXX 15061 33415 31/93 91407 10027 20027 39766 40168 53005 74544 333 20026
AAXX 15061 33429 31/93 91602 10028 20028 39744 40172 53004 74542 333 20028
AAXX 15061 33466 11250 81903 10040 20035 30000 40189 53002 69902 75152 886// 333 20040 88706
AAXX 15061 33526 31540 60000 11004 21007 39821 40170 53007 71042 86600 333 21021 86720 93401
AAXX 15061 33562 11/08 91904 10025 20025 39814 40180 50003 69912 74742 333 20024
AAXX 15061 33614 11394 81703 10064 20060 30104 40209 52001 69902 75152 886// 333 20058 88707
AAXX 15061 33761 11/02 92103 10033 20033 39973 40199 52003 69902 75154 333 20026 96045
AAXX 15061 33902 11/93 91702 10082 20082 30150 40217 51004 69912 75154 333 20077 96047
AAXX 15061 33983 31/92 90000 10055 20055 30189 40250 52007 74540 333 20054
AAXX 15061 34415 31/07 90000 10003 20003 30163 40263 53002 74742 333 20003
AAXX 15061 34523 31496 81303 10024 20011 30204 40282 53006 71022 8772/ 333 20014 87716
AAXX 15061 34712 31440 81108 10018 20015 30177 40264 52004 71022 886// 333 20017 88714
AAXX 15064 48350 31962 00403 10280 20174 39830 40127 57034 333 59016
AAXX 15064 48409 32560 40204 10285 20193 39970 40117 57029 82542 333 59007
AAXX 15061 01359 16/// /0901 10000 21031 38905 49797 53006 69922 333 21016 70003 91108
AAXX 15061 01400 41599 32510 10072 20025 49887 52017 70120 81535 22200 06084 10707 70036 333 91117
AAXX 15061 01062 11450 80611 11034 21041 39975 49988 57012 60002 73633 885// 333 21036 48999 70000 91119
AAXX 15061 01212 16/// /2108 10060 20030 39721 49736 53013 6//// 333 20047 91117
AAXX 15061 01300 41598 52810 10063 20040 49762 52022 70282 853// 22200 02066 10808 70040 333 91113
AAXX 15061 02947 47/60 71205 10020 20016 49964 57037 76106 87/// 90551 333 10029 20015 3////
AAXX 15061 02947 47/60 71205 10020 20016 49964 57037 76106 87/// 90551 333 10029 20015 3////
AAXX 15064 91413 11469 80909 10299 20254 30024 40049 57017 69931 70282 82372 333 56299 70302 555 91506
AAXX 15061 48823 01497 80501 10187 20119 30193 40196 57017 69903 70262 888// 333 58016 69901 85894 88696
AAXX 15064 68030 12560 70203 10220 20213 48498 52012 60094 82970 333 20193
AAXX 15064 68148 12560 60000 10203 20195 48512 52020 60374 82570 333 20168
AAXX 15061 48820 01598 73602 10201 20089 30190 40198 57019 69903 70262 878// 333 58020 69901 81895 87697
AAXX 15064 91413 11469 80909 10299 20254 30024 40049 57017 69931 70282 82372 333 56299 70302 555 91506
BBXX ONAR 15063 99313 30736 41597 52119 10240 2015/ 40190 54000 78062 83697 22263 00210 21207 323// 4//// 5//// 6//// 80180 ICE /////
AAXX 15064 71079 11574 03512 11211 21272 39898 40187 52031 69981 72211 81500 333 11036 21211 48007 70028 90983 93101 555 10040 20028 33618 40051
BBXX A8QJ7 15064 99120 50342 41398 30710 10250 20220 40117 55009 70311 8/7// 22213 06250 2//// 3//// 4//// 5//// 80230
AAXX 15061 14112 11/95 82302 10085 29098 60254 763// 333 10105 20081 3/007 70246
AAXX 15064 71079 11574 03512 11211 21272 39898 40187 52031 69981 72211 81500 333 11036 21211 48007 70028 90983 93101 555 10040 20028 33618 40051
AAXX 15061 78458 21466 50404 10250 20211 40169 57004 70362 85800 333 10273 20216 31/// 56200 58016 60016 85818
AAXX 15061 78460 31458 62702 10203 20198 40159 56003 70541 84650 333 10290 20180 32/// 56000 58017 86616
AAXX 15061 78479 21466 70705 10242 20211 40116 57006 70262 84526 333 10290 20205 31/// 56220 59004 60046 84616 83457
AAXX 15061 78485 32466 40102 10213 20196 40144 57005 82851 333 10300 20200 30/// 56000 58013 82818 84358
AAXX 15061 78486 32466 23503 10231 20208 40118 57002 82200 333 10315 20222 30/// 56000 58008 82816
AAXX 15064 91945 36/// /0906 10260 20216 30169 40174 51015 555 58013= 91938 02570 12001 10278 20213 30157 40159 52015 60002 81200 333 10316 20278 30/// 55106 60007 70000 81823 90710 91106 555 60005 12409 58015
AAXX 15064 91943 36/// /1008 10267 20221 30151 40153 51019 333 20267 58011= 91944 06/// /1109 10264 20195 30161 40164 51015 60002 333 10298 20262 55090 60007 70000 90710 91112 555 60005
AAXX 15064 91954 06/// /1702 10240 20221 30177 40180 51014 60001 333 55/// 60007 555 58016
AAXX 15064 91958 06/// /0609 10231 20210 30199 40201 53013 60001 333 55033 60007 90710 91123 555 60005 10823 58016
AAXX 15064 91925 06/// /0302 10239 20202 30088 40149 51024 60001 333 55091 60007 90710 91106 555 60005 11117 58012
AAXX 15064 91929 04/82 /1010 10273 20216 30154 40157 53018 60002 700// 333 10315 20273 55/// 60007 70000 90710 91116 555 60005
AAXX 15064 91948 06/// /3202 10237 20183 30081 40184 51013 60001 333 55071 60007 90710 91103 555 60005 13303 58002
AAXX 15061 78264 31559 20104 10220 20177 30087 40162 57010 70500 82200 333 82825
AAXX 15064 88963 NIL
AAXX 15064 88968 31458 73624 10012 21017 39990 40005 52025 71022 87600 333 56700 87712 90067 90090 92436 92734 92851 94070 95060
AAXX 15064 89034 32970 40000 11068 21119 39556 49873 51008 84030 333 56040 84360 92407 92830
AAXX 15064 89053 31008 82722 10002 21006 30064 40078 52008 74442 887// 333 56699 88701 90038 90076 92423 92851 94070 94479 95090 97520 98508
AAXX 15064 89055 32965 02707 10033 21049 39745 49984 51005 333 92730 92860 95100
AAXX 15064 89066 NIL
AAXX 15064 89564 41581 11313 11022 21128 39860 49880 53022 70200 81530
AAXX 15064 89570 46/// /0409 11055 21108 39177 53005
AAXX 15064 89571 NIL
AAXX 15064 89573 NIL
AAXX 15064 89610 NIL
AAXX 15064 89611 41465 72205 10006 21069 39744 49796 51005 71572 86202
AAXX 15064 89614 NIL
AAXX 15064 89615 46/// /1121 11055 21114 38902 53001
AAXX 15064 89807 NIL
AAXX 15064 89809 46/// /3406 11025 21082 39347 53007
AAXX 15063 NIL
AAXX 15064 68014 36/// /2105 10209 21014 38600 48516 52010 333 20110 91011 555 10309 91019
AAXX 15064 68110 32989 01004 10192 21041 38281 48501 53003 333 20113 91009 555 10288 91019
AAXX 15064 68300 36/// /1708 10112 20046 39996 40149 56001 333 20101 91010 555 10205 91014
AAXX 15060 67693 32980 60204 10279 20189 39266 48523 82038 333 20222 5//// 55/// 58005 83359 86270 555 10340 7//92
AAXX 15064 94102 46/// /2806 10324 20244 30039 40048
AAXX 15064 94103 NIL
AAXX 15064 94120 46/// /3008 10329 20252 39991 40031
AAXX 15064 94122 46/// /2106 10325 20245 30028 40036
AAXX 15064 94131 46/// /2707 10366 20202 39878 40028
AAXX 15064 94132 NIL
AAXX 15064 94147 NIL
AAXX 15064 94150 46/// /3508 10320 20240 39976 40035
AAXX 15064 94151 46/// /0807 10336 20242 30017 4////
AAXX 15064 94170 46/// /2707 10319 20236 30017 40039
AAXX 15064 94200 NIL
AAXX 15064 94203 46/// /2811 10319 20235 30034 40044
AAXX 15064 94206 46/// /0508 10330 20221 39906 40033
AAXX 15064 94207 46/// /2515 10279 30030 40038 56019
AAXX 15064 94211 NIL
AAXX 15064 94212 46/// /1005 10259 20215 39574 40035
AAXX 15064 94216 46/// /1310 10344 20229 39985 40035
AAXX 15064 94236 NIL
AAXX 15064 94238 46/// /2606 10335 20185 39622 40034
AAXX 15064 94248 NIL
AAXX 15064 94255 46/// /3603 10375 20115 39775 40030
AAXX 15064 94268 46/// /2906 10275 20254 30024 40036
AAXX 15064 94287 46/// /1609 10286 20235 30057 40066
AAXX 15064 94290 NIL
AAXX 15064 94294 46/// /1012 10278 20239 30067 40077
AAXX 15064 94296 35/// /1315 10285 30053 40063 57009
AAXX 15064 94298 46/// /1220 10271 30073 40079 56010
AAXX 15064 95641 NIL
AAXX 15060 67690 32580 70000 10285 20237 83208 333 20234 83820 87280 555 10318 7//92
AAXX 15060 67695 32580 43102 10280 20231 81130 333 20230 81825 84360 555 10320 7//91
AAXX 15064 94299 46/// /1217 10294 20250 30054 40064
AAXX 15064 94300 46/// /2316 10282 20196 30043 40053
AAXX 15064 94302 46/// /2011 10330 20133 30035 40041
AAXX 15064 94312 46/// /3219 10317 20203 30014 40023
AAXX 15064 94313 NIL
AAXX 15064 94317 46/// /2609 10386 20053 39408 49973
AAXX 15064 94319 46/// /3316 10395 20138 39668 49988
AAXX 15064 94324 NIL
AAXX 15064 94326 46/// /3117 10368 20074 39422 40019
AAXX 15064 94327 46/// /2808 10387 20009 39668 40031
AAXX 15064 94332 46/// /1608 10379 20053 39649 40023
AAXX 15064 94333 NIL
AAXX 15064 94341 46/// /3605 10380 20139 39789 40017
AAXX 15064 94346 NIL
AAXX 15064 94363 46/// /0713 10293 20178 39851 40063
AAXX 15064 94366 NIL
AAXX 15064 94367 46/// /1010 10280 20213 30052 40093
AAXX 15064 94374 46/// /1011 10273 20182 30086 40102
AAXX 15064 94388 46/// /1013 10259 20195 30116 40121
AAXX 15064 94393 46/// /1223 10260 30077 40089 56012
AAXX 15064 94394 46/// /1120 10248 30106 40114 56007
AAXX 15064 94403 46/// /2020 10280 20172 30017 40058
AAXX 15064 94429 46/// /1210 10271 20145 39587 40038
AAXX 15064 94430 46/// /1615 10302 20130 39446 40011
AAXX 15064 94449 46/// /1410 10212 20151 39552 40068
AAXX 15064 94451 NIL
AAXX 15064 94461 46/// /1912 10217 20210 39380 40030
AAXX 15064 94462 46/// /2913 10346 20155 39482 40020
AAXX 15064 94477 NIL
AAXX 15064 94488 NIL
AAXX 15064 94310 46/// /2920 10298 20203 30017 40029 57017
AAXX 15064 95283 46/// /1209 10292 20246 30046 40053
AAXX 15064 95288 46/// /1609 10275 30042 40057 58010
AAXX 15064 95675 46/// /2117
AAXX 15064 95872 46/// /1618
AAXX 15064 95961 35/// /2209 10175 30167 40209 57003
AAXX 15064 89564 41581 11313 11022 21128 39860 49880 53022 70200 81530
AAXX 15064 89570 46/// /0409 11055 21108 39177 53005
AAXX 15064 89571 NIL
AAXX 15064 89573 NIL
AAXX 15064 89610 NIL
AAXX 15064 89611 41465 72205 10006 21069 39744 49796 51005 71572 86202
AAXX 15064 89614 NIL
AAXX 15064 89615 46/// /1121 11055 21114 38902 53001
AAXX 15064 89807 NIL
AAXX 15064 89809 46/// /3406 11025 21082 39347 53007
AAXX 15064 40356 42960 51105 10080 21030 39195 48496 85030 333 20060 59031 85360 555 04410 50178
AAXX 15064 40357 42560 60405 10066 20000 39542 40192 84540 333 20040 59042 84630 85360
AAXX 15064 40360 NIL
AAXX 15064 40361 42960 61304 10120 21040 39398 40170 86010 333 20090 59042 86460
AAXX 15064 40362 42960 31709 10127 21040 39676 40196 80002 333 20082 59036 83070
AAXX 15064 40373 42960 02002 10104 20010 39795 40222 333 20050 59028
AAXX 15064 40375 42960 30000 10094 21050 39289 40171 83030 333 20080 59021 83360
AAXX 15064 40377 42960 02306 10117 20040 39737 40226 333 20059 59027
AAXX 15064 40394 42960 52314 10124 20010 39060 48530 80002 333 20070 59029 85070 555 04410 50199
AAXX 15064 40400 42960 20104 10198 20130 30128 40156 80002 333 20160 59008 82070
AAXX 15064 40401 NIL
AAXX 15064 40405 NIL
AAXX 15064 40416 42960 03009 10140 20010 30193 40213 333 20070 59005
AAXX 15064 40417 42960 02807 10131 20000 30215 40230 333 20071 59009
AAXX 15064 40420 42960 03009 10140 21020 30018 40231 333 20070 59010
AAXX 15064 40430 42960 00000 10162 21040 39452 40174 333 20130 59024
AAXX 15064 40435 42960 01508 10130 20010 39158 40202 333 20070 59036
AAXX 15064 40437 42960 00000 10111 20000 39516 40238 333 20037 59021
AAXX 15064 40439 42660 20000 10190 20090 30124 40143 81530 333 20158 59012 81640
AAXX 15064 68004 36/// /1202 10186 20025 38540 48495 52008 333 20088 91006 555 10305 91017
AAXX 15064 68006 32989 21707 10205 20046 38918 48495 53005 80001 333 20174 555 10340 91015
AAXX 15064 68010 36/// /1904 10201 20062 38917 48515 52009 333 20149 91008 555 10341 91017
AAXX 15064 68018 36/// /2006 10194 20005 38892 48494 52009 333 20158 91008 555 10330 91015
AAXX 15064 68098 32989 00606 10131 20069 30047 40156 53001 333 20090 91007 555 10242 91015
AAXX 15064 68102 36/// /0000 10185 20077 38740 48488 52005 333 20107 91002 555 10307 91015
AAXX 15064 68116 36/// /1304 10197 21012 38571 48519 52008 333 20107 91007 555 10312 91020
AAXX 15064 68212 36/// /1802 10169 20022 38923 48532 52003 333 20129 91005 555 10325 91020
AAXX 15064 41241 32960 01603 10232 21024 30178 40214 333 00026 20170 58004
AAXX 15064 41242 36/// /0000 10247 20074 30205 40229 333 0E015 20128 58006
AAXX 15064 41244 36/// /3502 10210 20125 39863 48518 333 0E014 20122 58007
AAXX 15064 41246 32560 10000 10244 20164 30209 40213 81500 333 20183 3/020 58005 81625
AAXX 15064 41251 32965 01903 10161 21123 38077 40170 333 20080 3/006 58004
AAXX 15064 41252 NIL
AAXX 15064 41253 36/// /3602 10222 20167 39837 40222 333 0E017 20153 58001
AAXX 15064 41254 36/// /3304 10168 21126 38278 48283 333 0E004 20060 59005
AAXX 15064 41255 32960 01802 10216 20116 39678 40201 333 20126 3/019 58011
AAXX 15064 41256 32560 33302 10243 20163 30205 40215 83400 333 20181 58003 83625
AAXX 15064 41257 36/// /9902 10210 20153 39734 40225 333 0E014 20148 58004
AAXX 15064 41258 NIL
AAXX 15064 41259 NIL
AAXX 15064 41262 NIL
AAXX 15064 41263 36/// /9902 10205 20085 39533 40228 333 0E013 20132 58009
AAXX 15064 41264 36/70 /2101 10219 20129 39831 40200 333 0E018 20146 58009
AAXX 15064 41265 36/// /1202 10233 20126 39665 40220 333 0E021 20143 58005
AAXX 15064 41267 35/74 /3314 10241 20168 30194 40210 333 0E019 20205 58002
AAXX 15064 41268 32560 13510 10248 20176 30193 40209 81500 90617 333 20165 3/019 58003 81625
AAXX 15064 41270 36/70 /0110 10248 20133 30154 40165 333 0E018 20179 58005
AAXX 15064 41275 NIL
AAXX 15064 41287 NIL
AAXX 15064 41288 32960 00712 10257 20163 30188 40210 333 20218 58007
AAXX 15064 41290 NIL
AAXX 15064 41295 36/// /3206 10218 20167 30022 40201 333 0E018 20149 58003
AAXX 15064 41304 NIL
AAXX 15064 41312 36/// /3406 10246 20097 30150 40190 333 0E/// 20212 59004
AAXX 15064 41314 32960 03307 10171 20095 39716 40230 333 20124 58000
AAXX 15064 41315 36/// /3323 10137 20088 39198 42835 333 0E/// 20112 59004
AAXX 15064 41316 36/64 /3312 10241 20092 30168 40194 333 0E019 20201 59002
AAXX 15064 94893 46/// /0616 10167 20134 30066 40182
AAXX 15064 94907 46/// /1017 10200 20090 30162 40172
AAXX 15064 94910 46/// /0604 10268 20060 39882 40127
AAXX 15064 94926 46/// /0606 10219 20050 39483 40140
AAXX 15064 94935 46/// /0909 10185 20116 30162 40189
AAXX 15064 94954 46/// /2024 10157 20089 30081 40192
AAXX 15064 94956 46/// /2114 10177 20077 30174 40201
AAXX 15064 94975 46/// /1616 10159 20082 30166 40199
AAXX 15064 94983 46/// /0115 10171 20120 30162 40187
AAXX 15064 94995 NIL
AAXX 15064 94996 46/// /2409 10217 20144 39977 40105
AAXX 15064 94997 NIL
AAXX 15064 94998 46/// /3128 10063 20051 39994 40005
AAXX 15064 95111 46/// /2608 10335 20196 30003 40039
AAXX 15064 95205 46/// /3312 10341 20227 30025 40032
AAXX 15064 95322 NIL
AAXX 15064 95448 46/// /1211 10231 20162 39496 40043
AAXX 15064 95458 46/// /0312 10334 20023 39812 40065
AAXX 15064 95480 46/// /0607 10337 20035 30025 40083
AAXX 15064 95481 46/// /1808 10371 20041 30008 40052
AAXX 15064 95482 46/// /2313 10390 20056 39991 40045
AAXX 15064 95485 46/// /1310 10337 20015 39871 40069
AAXX 15064 95492 46/// /1008 10344 20075 39913 40063
AAXX 15064 95527 46/// /3510 10255 20159 39869 40117
AAXX 15064 95634 46/// /1012 10237 20111 39695 40087
AAXX 15064 95637 46/// /1314 10208 20102 39794 40122
AAXX 15064 95646 46/// /1614 10279 20149 39886 40069
AAXX 15064 95666 NIL
AAXX 15064 95719 46/// /1211 10270 20115 39797 40121
AAXX 15064 95762 46/// /1705 10254 20088 39673 40121
AAXX 15064 95826 NIL
AAXX 15064 95839 46/// /1410 10288 20050 39973 40130
AAXX 15064 95864 NIL
AAXX 15064 95909 NIL
AAXX 15064 95954 NIL
AAXX 15064 95966 46/// /3210 10190 20095 39978 40177
AAXX 15064 96995 46/// /1107 10269 20237 39776 40070
AAXX 15064 96996 41470 21210 10297 20242 30079 40083 58012 71511 82802
AAXX 15064 94102 46/// /2806 10324 20244 30039 40048
AAXX 15064 94103 NIL
AAXX 15064 94120 46/// /3008 10329 20252 39991 40031
AAXX 15064 94122 46/// /2106 10325 20245 30028 40036
AAXX 15064 94131 46/// /2707 10366 20202 39878 40028
AAXX 15064 94132 NIL
AAXX 15064 94147 NIL
AAXX 15064 94150 46/// /3508 10320 20240 39976 40035
AAXX 15064 94151 46/// /0807 10336 20242 30017 4////
AAXX 15064 94170 46/// /2707 10319 20236 30017 40039
AAXX 15064 94200 NIL
AAXX 15064 94203 46/// /2811 10319 20235 30034 40044
AAXX 15064 94206 46/// /0508 10330 20221 39906 40033
AAXX 15064 94207 46/// /2515 10279 30030 40038 56019
AAXX 15064 94211 NIL
AAXX 15064 94212 46/// /1005 10259 20215 39574 40035
AAXX 15064 94216 46/// /1310 10344 20229 39985 40035
AAXX 15064 94236 NIL
AAXX 15064 94238 46/// /2606 10335 20185 39622 40034
AAXX 15064 94248 NIL
AAXX 15064 94255 46/// /3603 10375 20115 39775 40030
AAXX 15064 94268 46/// /2906 10275 20254 30024 40036
AAXX 15064 94287 46/// /1609 10286 20235 30057 40066
AAXX 15064 94290 NIL
AAXX 15064 94294 46/// /1012 10278 20239 30067 40077
AAXX 15064 94296 35/// /1315 10285 30053 40063 57009
AAXX 15064 94298 46/// /1220 10271 30073 40079 56010
AAXX 15064 95641 NIL
AAXX 15064 94500 NIL
AAXX 15064 94510 46/// /0611 10253 20184 39742 40081
AAXX 15064 94515 46/// /1108 10172 20162 39778 40120
AAXX 15064 94552 46/// /0914 10203 20147 39676 40135
AAXX 15064 94578 46/// /1109 10240 20137 3//// 4////
AAXX 15064 94584 46/// /0617 10210 20178 30026 40135
AAXX 15064 94601 46/// /1320 10206 20159 30125 40142
AAXX 15064 94610 46/// /1414 10240 20148 30078 40101
AAXX 15064 94637 46/// /1212 10227 20090 39673 40089
AAXX 15064 94638 46/// /1217 10208 20137 30107 40138
AAXX 15064 94642 NIL
AAXX 15064 94643 NIL
AAXX 15064 94647 46/// /1413 10213 20159 39977 40096
AAXX 15064 94651 46/// /1420 10227 20148 30005 40081
AAXX 15064 94653 46/// /1715 10311 20095 30068 40086
AAXX 15064 94659 46/// /1505 10325 21017 39902 40092
AAXX 15064 94672 46/// /1515 10289 20031 30115 40125
AAXX 15064 94691 46/// /1808 10298 21026 39784 40103
AAXX 15064 94693 46/// /1108 10299 20021 30060 40121
AAXX 15064 94700 NIL
AAXX 15064 94703 46/// /1108 10322 20071 39969 40091
AAXX 15064 94710 46/// /0506 10307 20044 39849 40096
AAXX 15064 94729 46/// /3503 10218 20072 39295 40130
AAXX 15064 94750 46/// /0909 10200 20110 30052 40175
AAXX 15064 94767 46/// /1311 10210 20098 30174 40180
AAXX 15064 94776 46/// /1312 10208 20110 30165 40175
AAXX 15064 94791 NIL
AAXX 15064 94802 46/// /1116 10208 20108 30076 40158
AAXX 15064 94804 46/// /1512 10203 20151 30108 40145
AAXX 15064 94807 NIL
AAXX 15064 94821 46/// /1719 10217 20101 30085 40167
AAXX 15064 94842 46/// /1408 10174 20113 30093 40192
AAXX 15064 94847 NIL
AAXX 15064 94850 46/// /1511 10171 20094 30144 40190
AAXX 15064 94865 46/// /1917 10194 20136 30149 40173
AAXX 15064 94866 46/// /1814 10202 20126 30029 40168
AAXX 15064 94875 46/// /0105 10277 20065 39994 40127
AAXX 15064 91375 NIL
AAXX 15064 91519 NIL
AAXX 15064 91531 NIL
AAXX 15064 91532 45/// /0408 10284 20233 30059 40067 52001
AAXX 15064 91559 NIL
AAXX 15064 91611 NIL
AAXX 15064 91642 NIL
AAXX 15064 91679 NIL
AAXX 15064 91689 NIL
AAXX 15064 91756 NIL
AAXX 15064 91844 NIL
AAXX 15064 92036 NIL
AAXX 15064 93713 NIL
AAXX 15064 94500 NIL
AAXX 15064 94510 46/// /0611 10253 20184 39742 40081
AAXX 15064 94515 46/// /1108 10172 20162 39778 40120
AAXX 15064 94552 46/// /0914 10203 20147 39676 40135
AAXX 15064 94578 46/// /1109 10240 20137 3//// 4////
AAXX 15064 94584 46/// /0617 10210 20178 30026 40135
AAXX 15064 94601 46/// /1320 10206 20159 30125 40142
AAXX 15064 94610 46/// /1414 10240 20148 30078 40101
AAXX 15064 94637 46/// /1212 10227 20090 39673 40089
AAXX 15064 94638 46/// /1217 10208 20137 30107 40138
AAXX 15064 94642 NIL
AAXX 15064 94643 NIL
AAXX 15064 94647 46/// /1413 10213 20159 39977 40096
AAXX 15064 94651 46/// /1420 10227 20148 30005 40081
AAXX 15064 94653 46/// /1715 10311 20095 30068 40086
AAXX 15064 94659 46/// /1505 10325 21017 39902 40092
AAXX 15064 94672 46/// /1515 10289 20031 30115 40125
AAXX 15064 94691 46/// /1808 10298 21026 39784 40103
AAXX 15064 94693 46/// /1108 10299 20021 30060 40121
AAXX 15064 94700 NIL
AAXX 15064 94703 46/// /1108 10322 20071 39969 40091
AAXX 15064 94710 46/// /0506 10307 20044 39849 40096
AAXX 15064 94729 46/// /3503 10218 20072 39295 40130
AAXX 15064 94750 46/// /0909 10200 20110 30052 40175
AAXX 15064 94767 46/// /1311 10210 20098 30174 40180
AAXX 15064 94776 46/// /1312 10208 20110 30165 40175
AAXX 15064 94791 NIL
AAXX 15064 94802 46/// /1116 10208 20108 30076 40158
AAXX 15064 94804 46/// /1512 10203 20151 30108 40145
AAXX 15064 94807 NIL
AAXX 15064 94821 46/// /1719 10217 20101 30085 40167
AAXX 15064 94842 46/// /1408 10174 20113 30093 40192
AAXX 15064 94847 NIL
AAXX 15064 94850 46/// /1511 10171 20094 30144 40190
AAXX 15064 94865 46/// /1917 10194 20136 30149 40173
AAXX 15064 94866 46/// /1814 10202 20126 30029 40168
AAXX 15064 94875 46/// /0105 10277 20065 39994 40127
BBXX VMAL 15063 99363 31350 41/98 51122 10175 20131 40204 57010 70311 83544 22273 30206 399// 40804 80150
BBXX PCAM 15063 99384 31785 41297 80417 10160 20144 40096 56019 75165 886// 22243 00174 2//// 308// 40704 80150
BBXX VRRB 15064 99130 31580 41597 31612 10295 20245 40060 57012 70100 82100 22243 20804 324// 40804 80260
BBXX 3ECI3 15064 99434 31734 41298 80314 10145 20136 40004 54000 70222 887// 22213 00130 20301 305// 40904 80140
BBXX VRAE2 15064 99205 31711 41498 30710 10280 20244 40074 57012 71511 82261 22214 04280 20101 307// 40805 80255
BBXX VNSZ 15054 99412 31464 46/// /3212 10161 20105 30168 40194 57013 22200 04177 85129
BBXX ZCBU6 15044 99289 31587 41698 62028 10229 20135 40119 58012 70200 8317/ 22234 00246 20303 318// 40606 5//// 80174
BBXX 2AGH7 15063 99205 31615 41/98 81635 10260 20228 40063 56020 70322 8//// 22254 20502 318// 40805 80238
BBXX 9HA2479 15054 99202 31698 46/// /0810 10263 20225 30054 40083 57006 22200 04283 85236
BBXX C6FS9 15054 99235 31554 46/// /1218 10237 20187 30093 40129 57007 22263 04250 85203
BBXX VROB 15054 99081 31505 46/// /0607 10293 20226 30019 40043 57015 22224 04310 85244
BBXX FHZI 15054 99430 31474 46/// /1415 10148 20090 30190 40201 54000 22243 04170 85116
BBXX VNAH 15054 99333 31157 46/// /1313 10217 20120 30106 40129 57009 22200 04210 85158
BBXX VNSZ 15044 99412 31464 46/// /3310 10172 20102 30171 40197 57010 22200 04179 85132
BBXX C6FS9 15044 99235 31557 46/// /1219 10238 20186 30094 40130 57011 22263 04249 85203
BBXX VNSZ 15064 99412 31464 46/// /3210 10163 20105 30166 40192 57009 22200 04177 85130
BBXX 9HA2479 15064 99202 31698 46/// /1407 10266 20242 30059 40088 57001 22200 04284 85248
BBXX VROB 15044 99080 31503 46/// /0908 10293 20227 30020 40044 57021 22224 04310 85245
BBXX C6FS9 15064 99236 31552 46/// /1219 10239 20185 30092 40128 57003 22263 04265 85203
BBXX FHZI 15044 99428 31473 46/// /1516 10158 20098 30191 40202 54000 22200 04166 85124
BBXX VNAH 15044 99333 31157 46/// /0916 10218 20112 30108 40131 57008 22200 04209 85154
AAXX 15064 41024 41958 00000 10256 20180 30128 40147 70600 333 20200 58002
AAXX 15064 41030 42960 00000 10232 20180 39870 40143 333 20220 58001
AAXX 15064 41036 42960 02013 10174 20040 38577 48526 333 20070 59012 555 04410 50141
AAXX 15064 41055 42960 01104 10141 21040 38388 48537 333 20087 59012 555 04410 50185
AAXX 15064 41061 42960 01306 10130 20000 39501 40225 333 20040 59014
AAXX 15064 41084 42960 01902 10120 21040 38898 48542 333 20032 59014 555 04410 50196
AAXX 15064 41112 42960 00000 10154 21090 37974 48549 333 20057 59003 555 04410 50200
AAXX 15064 41114 42960 00000 10058 21030 37992 48535 333 59005 555 04410 50199
AAXX 15064 41128 42960 00000 10148 21060 38862 48559 333 20040 59016 555 04410 50220
AAXX 15064 41136 42960 02204 10115 21060 39390 40229 333 20030 59010
AAXX 15064 41140 42960 01313 10264 20210 30150 40163 333 20213 59002
AAXX 15064 94893 46/// /0616 10167 20134 30066 40182
AAXX 15064 94907 46/// /1017 10200 20090 30162 40172
AAXX 15064 94910 46/// /0604 10268 20060 39882 40127
AAXX 15064 94926 46/// /0606 10219 20050 39483 40140
AAXX 15064 94935 46/// /0909 10185 20116 30162 40189
AAXX 15064 94954 46/// /2024 10157 20089 30081 40192
AAXX 15064 94956 46/// /2114 10177 20077 30174 40201
AAXX 15064 94975 46/// /1616 10159 20082 30166 40199
AAXX 15064 94983 46/// /0115 10171 20120 30162 40187
AAXX 15064 94995 NIL
AAXX 15064 94996 46/// /2409 10217 20144 39977 40105
AAXX 15064 94997 NIL
AAXX 15064 94998 46/// /3128 10063 20051 39994 40005
AAXX 15064 95111 46/// /2608 10335 20196 30003 40039
AAXX 15064 95205 46/// /3312 10341 20227 30025 40032
AAXX 15064 95322 NIL
AAXX 15064 95448 46/// /1211 10231 20162 39496 40043
AAXX 15064 95458 46/// /0312 10334 20023 39812 40065
AAXX 15064 95480 46/// /0607 10337 20035 30025 40083
AAXX 15064 95481 46/// /1808 10371 20041 30008 40052
AAXX 15064 95482 46/// /2313 10390 20056 39991 40045
AAXX 15064 95485 46/// /1310 10337 20015 39871 40069
AAXX 15064 95492 46/// /1008 10344 20075 39913 40063
AAXX 15064 95527 46/// /3510 10255 20159 39869 40117
AAXX 15064 95634 46/// /1012 10237 20111 39695 40087
AAXX 15064 95637 46/// /1314 10208 20102 39794 40122
AAXX 15064 95646 46/// /1614 10279 20149 39886 40069
AAXX 15064 95666 NIL
AAXX 15064 95719 46/// /1211 10270 20115 39797 40121
AAXX 15064 95762 46/// /1705 10254 20088 39673 40121
AAXX 15064 95826 NIL
AAXX 15064 95839 46/// /1410 10288 20050 39973 40130
AAXX 15064 95864 NIL
AAXX 15064 95909 NIL
AAXX 15064 95954 NIL
AAXX 15064 95966 46/// /3210 10190 20095 39978 40177
AAXX 15064 96995 46/// /1107 10269 20237 39776 40070
AAXX 15064 96996 41470 21210 10297 20242 30079 40083 58012 71511 82802
BBXX VMAL 15063 99363 31350 41/98 51122 10175 20131 40204 57010 70311 83544 22273 30206 399// 40804 80150
BBXX PCAM 15063 99384 31785 41297 80417 10160 20144 40096 56019 75165 886// 22243 00174 2//// 308// 40704 80150
BBXX VRRB 15064 99130 31580 41597 31612 10295 20245 40060 57012 70100 82100 22243 20804 324// 40804 80260
BBXX 3ECI3 15064 99434 31734 41298 80314 10145 20136 40004 54000 70222 887// 22213 00130 20301 305// 40904 80140
BBXX VRAE2 15064 99205 31711 41498 30710 10280 20244 40074 57012 71511 82261 22214 04280 20101 307// 40805 80255
BBXX VNSZ 15054 99412 31464 46/// /3212 10161 20105 30168 40194 57013 22200 04177 85129
BBXX ZCBU6 15044 99289 31587 41698 62028 10229 20135 40119 58012 70200 8317/ 22234 00246 20303 318// 40606 5//// 80174
BBXX 2AGH7 15063 99205 31615 41/98 81635 10260 20228 40063 56020 70322 8//// 22254 20502 318// 40805 80238
BBXX 9HA2479 15054 99202 31698 46/// /0810 10263 20225 30054 40083 57006 22200 04283 85236
BBXX C6FS9 15054 99235 31554 46/// /1218 10237 20187 30093 40129 57007 22263 04250 85203
BBXX VROB 15054 99081 31505 46/// /0607 10293 20226 30019 40043 57015 22224 04310 85244
BBXX FHZI 15054 99430 31474 46/// /1415 10148 20090 30190 40201 54000 22243 04170 85116
BBXX VNAH 15054 99333 31157 46/// /1313 10217 20120 30106 40129 57009 22200 04210 85158
BBXX VNSZ 15044 99412 31464 46/// /3310 10172 20102 30171 40197 57010 22200 04179 85132
BBXX C6FS9 15044 99235 31557 46/// /1219 10238 20186 30094 40130 57011 22263 04249 85203
BBXX VNSZ 15064 99412 31464 46/// /3210 10163 20105 30166 40192 57009 22200 04177 85130
BBXX 9HA2479 15064 99202 31698 46/// /1407 10266 20242 30059 40088 57001 22200 04284 85248
BBXX VROB 15044 99080 31503 46/// /0908 10293 20227 30020 40044 57021 22224 04310 85245
BBXX C6FS9 15064 99236 31552 46/// /1219 10239 20185 30092 40128 57003 22263 04265 85203
BBXX FHZI 15044 99428 31473 46/// /1516 10158 20098 30191 40202 54000 22200 04166 85124
BBXX VNAH 15044 99333 31157 46/// /0916 10218 20112 30108 40131 57008 22200 04209 85154
AAXX 15064 94299 46/// /1217 10294 20250 30054 40064
AAXX 15064 94300 46/// /2316 10282 20196 30043 40053
AAXX 15064 94302 46/// /2011 10330 20133 30035 40041
AAXX 15064 94312 46/// /3219 10317 20203 30014 40023
AAXX 15064 94313 NIL
AAXX 15064 94317 46/// /2609 10386 20053 39408 49973
AAXX 15064 94319 46/// /3316 10395 20138 39668 49988
AAXX 15064 94324 NIL
AAXX 15064 94326 46/// /3117 10368 20074 39422 40019
AAXX 15064 94327 46/// /2808 10387 20009 39668 40031
AAXX 15064 94332 46/// /1608 10379 20053 39649 40023
AAXX 15064 94333 NIL
AAXX 15064 94341 46/// /3605 10380 20139 39789 40017
AAXX 15064 94346 NIL
AAXX 15064 94363 46/// /0713 10293 20178 39851 40063
AAXX 15064 94366 NIL
AAXX 15064 94367 46/// /1010 10280 20213 30052 40093
AAXX 15064 94374 46/// /1011 10273 20182 30086 40102
AAXX 15064 94388 46/// /1013 10259 20195 30116 40121
AAXX 15064 94393 46/// /1223 10260 30077 40089 56012
AAXX 15064 94394 46/// /1120 10248 30106 40114 56007
AAXX 15064 94403 46/// /2020 10280 20172 30017 40058
AAXX 15064 94429 46/// /1210 10271 20145 39587 40038
AAXX 15064 94430 46/// /1615 10302 20130 39446 40011
AAXX 15064 94449 46/// /1410 10212 20151 39552 40068
AAXX 15064 94451 NIL
AAXX 15064 94461 46/// /1912 10217 20210 39380 40030
AAXX 15064 94462 46/// /2913 10346 20155 39482 40020
AAXX 15064 94477 NIL
AAXX 15064 94488 NIL
BBXX UCKZ 15061 99575 30280 41194 80213 10021 20017 49974 57015 71022 886// 22233 00011 20504
AAXX 15061 37395 32999 70907 10094 21014 30123 40263 52013 87030 333 20074
AAXX 15061 37409 31/91 90912 11054 21054 38828 48544 57002 74544 333 21053 95090
AAXX 15061 37432 32997 00000 11045 21076 39044 48555 57011 333 21065
AAXX 15061 37514 32699 60000 11057 21068 39121 40338 52007 86500 333 21071
AAXX 15061 37545 31595 81602 10007 20001 39787 40320 52003 71022 8801/ 555 21018 7000/
AAXX 15061 37621 32695 60000 11024 21047 39665 40337 53019 80001 333 21040
AAXX 15061 37484 NIL
AAXX 15061 38141 31597 80701 11046 21094 30231 40399 52027 77772 886// 555 21060
AAXX 15061 38149 41596 80301 11025 21062 30317 40397 52018 69900 77177 885// 333 21052
AAXX 15061 38178 42598 80000 11048 21166 30097 40401 52016 885// 333 21055
AAXX 15061 38262 32698 82302 11022 21069 30305 40390 52027 885// 333 21030
AAXX 15061 38264 42598 70704 11019 21076 30298 40396 52014 875// 333 21038 87626
AAXX 15061 38396 42497 70704 11024 21068 30267 40398 52013 875// 333 21075 87619
AAXX 15061 38403 42997 50203 11013 21098 30238 40364 52022 86080 333 21038
AAXX 15061 38413 42998 80902 11022 21041 30068 40373 52017 8807/ 333 21029
AAXX 15061 38457 31596 71501 10010 21010 39751 40358 52010 71022 86580 333 21006
AAXX 15061 38462 12699 60000 11025 21062 38848 48577 52009 6993/ 83951 333 21043
AAXX 15061 38565 32998 20000 10011 21015 39757 40362 53017 80004 333 21012
AAXX 15061 38579 41594 81702 10007 21016 39932 40367 52009 77172 8852/ 333 21010
AAXX 15061 38583 31596 82501 11011 21008 30034 40367 52010 71022 8657/ 333 21035
AAXX 15061 38611 41596 81302 10020 21014 39778 40367 52012 71022 889// 333 21002 82789
AAXX 15061 38618 32997 80101 10003 21019 39642 40356 52011 8807/ 333 21025
AAXX 15061 38683 41/93 93603 11011 21011 30078 40368 52014 74542 333 21027 89/01
AAXX 15061 38696 32999 00501 10032 21029 39461 40338 52015 333 21024
AAXX 15061 38812 41/92 92002 11014 21016 39882 40357 52017 74742 333 21048
AAXX 15061 38927 31456 80202 10039 20019 39974 40361 52012 71022 884// 333 20021 86719
AAXX 15064 41859 31330 80000 10140 20130 30135 40175 70542 8562/ 333 56399 59001 70000 83708 84614 88456
AAXX 15064 41883 31307 82702 10160 20140 30145 40167 74244 8662/ 333 56799 59010 70000 84709 83615 88458
AAXX 15064 41891 31940 01303 10230 20110 30112 40151 70500 333 59014 70000
AAXX 15064 41907 31/20 93102 10165 20150 30158 40174 74344 89/// 333 56999 59009 70000
AAXX 15064 41923 31930 00000 10180 20110 30151 40151 70500 333 59013 70000
AAXX 15064 41936 NIL
AAXX 15064 41943 31930 00000 10184 20140 30145 40153 70500 333 59006 70000
AAXX 15064 41950 31425 33203 10195 20140 30153 40156 71042 83500 333 56700 59010 70000 83616
AAXX 15064 41978 NIL
AAXX 15064 41992 31935 03603 10248 20110 30139 40141 70500 333 59015 70000
AAXX 15064 40550 35/68 /3202 10115 21015 40232 51010 333 55301 00256 10000 20738 30242 41071 51312 60981 55407 40496 90069 90401 91003 91107 91203 91303
AAXX 15064 40551 36/// /2007 10107 21036 333 90401 91009 91111 91209 91309
AAXX 15064 40552 35/69 /2706 10129 21022 40231 51008 333 55309 90069 90400 91007 91111 91209 91307
AAXX 15064 40553 35/69 /2904 10107 21024 40229 51009 333 55307 90069 90400 91003 91105 91205 91303
AAXX 15064 40568 36/// /3206 10135 20003 333 90401 91007 91109 91209 91307
AAXX 15064 40569 NIL
AAXX 15064 40570 35/70 /2004 10119 21053 40234 50002 333 55307 90069 90400 91005 91109 91207 91303
AAXX 15064 40571 NIL
AAXX 15064 40572 NIL
AAXX 15064 40573 36/// /2504 10125 21042 333 90401 91005 91111 91209 91307
AAXX 15064 40580 46/// /2202 10137 21023 333 553// 00306 10004 20802 30184 40983 51293 60986 55407 40618 90400 91003 91103 91201 91301
AAXX 15064 40581 36/// /2202 10148 20009 333 90400 91003 91105 91201 91301
AAXX 15064 40582 31956 52403 10095 21039 40236 52014 70500 80001 333 55300 00326 10000 20806 30256 41053 51270 61062 55407 40550 85070 90400 91003 91105 91205 91303
AAXX 15064 40583 NIL
AAXX 15064 40585 36/// /3005 10140 20031 222// 1//// 3//// 4//// 70/// 333 90401 91011 91115 91211 91307
AAXX 15064 40586 36/// /2404 10127 21028 333 90401 91007 91107 91205 91303
AAXX 15064 40587 36/// /2505 10131 21027 333 553// 00360 10000 20955 30309 41005 51285 61264 55407 40646 90401 91005 91107 91207 91305
AAXX 15064 40588 35/69 /3205 10128 20024 40231 51012 333 55307 90069 90400 91005 91109 91207 91307
AAXX 15064 40589 NIL
AAXX 15064 40590 36/// /2604 10113 21033 333 90401 91003 91107 91205 91305
AAXX 15064 40591 NIL
AAXX 15064 40592 35/69 /2803 10149 21013 40235 51011 333 55310 00469 10000 21082 30280 41002 51329 61362 55407 40802 90069 90401 91005 91109 91203 91303
AAXX 15064 40593 36/// /3104 10139 21012 333 90400 91005 91111 91207 91305
AAXX 15064 40594 36/// /3104 10139 21020 333 90400 91007 91109 91207 91305
AAXX 15064 40596 36/// /3308 10163 20073 333 90400 91011 91113 91209 91307
AAXX 15064 65352 31906 73606 10190 21004 3//// 4//// 70544 80002 333 20189 5//// 87076
AAXX 15064 65361 31958 73204 10230 21011 3//// 4//// 70522 80002 333 20165 3//// 4//// 87076
AAXX 15064 65376 31965 73602 10235 20076 39653 40112 70522 80002 333 20220 59008 87076
AAXX 15064 65387 31915 70000 10230 20207 30077 40095 71022 80002 333 20225 59006 87073
AAXX 15064 91577 06/// /1811 10284 20224 30057 40077 55000 60001 333 58007 60007
AAXX 15061 78458 21466 50404 10250 20211 40169 57004 70362 85800 333 10273 20216 31/// 56200 58016 60016 85818
AAXX 15061 78460 31458 62702 10203 20198 40159 56003 70541 84650 333 10290 20180 32/// 56000 58017 86616
AAXX 15061 78479 21466 70705 10242 20211 40116 57006 70262 84526 333 10290 20205 31/// 56220 59004 60046 84616 83457
AAXX 15061 78485 32466 40102 10213 20196 40144 57005 82851 333 10300 20200 30/// 56000 58013 82818 84358
AAXX 15061 78486 32466 23503 10231 20208 40118 57002 82200 333 10315 20222 30/// 56000 58008 82816
AAXX 15061 78264 31559 20104 10220 20177 30087 40162 57010 70500 82200 333 82825
BBXX A8UU2 15064 99101 31160 41397 70207 10250 20235 40038 54000 76066 8/776 22283 04310 20503 80240
BBXX AUTQ 15064 99376 10100 42/97 52813 10170 20138 40186 54000 85011 22274 00200 20203
BBXX PEBT 15063 99368 10000 41398 23416 10170 20154 40260 53020 7//11 822// 22263 02149 20302 327// 40502 5//// 80160
BBXX UFJN 15061 99708 10371 41/98 41913 11020 49980 52005 70022 85233 22200 0//// 20401
BBXX UCKG 15061 99748 10105 41/97 90923 10030 49844 54000 70222 22211 00090 20606
AAXX 15061 56187 32962 51601 10113 20004 39627 40289 57029 85040 333 00252 20023
AAXX 15061 56778 NIL
AAXX 15061 57265 NIL
AAXX 15061 57461 31958 51102 10115 21042 30153 40319 57029 70500 85040 333 20075
AAXX 15061 57494 NIL
AAXX 15061 57516 NIL
AAXX 15061 57687 11925 82903 10101 20059 30210 40296 57024 69901 70560 8807/ 333 20073
AAXX 15061 57816 11440 80403 10024 20015 38860 40296 57018 69911 76066 885// 333 00251 20024
AAXX 15061 58040 NIL
AAXX 15061 58102 32980 02901 10047 21127 30299 40349 57029 333 21025
AAXX 15061 58150 32562 53604 10044 21046 30323 40327 57012 85500 333 20017
AAXX 15061 58221 NIL
AAXX 15061 58238 NIL
AAXX 15061 58251 NIL
AAXX 15061 58362 NIL
AAXX 15061 58457 NIL
AAXX 15061 58606 NIL
AAXX 15061 58752 NIL
AAXX 15061 58847 NIL
AAXX 15061 59117 32666 80202 10194 20047 30099 40205 57034 885// 333 20110
AAXX 15061 59134 NIL
AAXX 15061 59287 NIL
AAXX 15061 59316 32760 70902 10211 20114 30183 40188 57031 875// 333 20171
AAXX 15061 59431 NIL
AAXX 15061 59644 11560 83605 10168 20077 30182 40199 57027 69901 70060 888// 333 20143
AAXX 15061 59758 NIL
AAXX 15061 50468 32970 03403 11183 21255 30014 40243 57001 333 21243
AAXX 15061 50953 NIL
AAXX 15061 51076 NIL
AAXX 15061 51243 NIL
AAXX 15061 51288 32980 10701 11033 21147 38369 57008 80002 333 05451 21111
AAXX 15061 51463 NIL
AAXX 15061 51573 NIL
AAXX 15061 51709 NIL
AAXX 15061 52533 NIL
AAXX 15061 52652 NIL
AAXX 15061 52866 32970 01101 11007 21170 37742 57031 333 00002 21159
AAXX 15061 52983 NIL
AAXX 15061 53463 32580 12704 11102 21228 39097 40439 57001 81100 333 00200 21168
AAXX 15061 53513 32970 00701 11059 21189 39135 40450 57009 333 00301 21172
AAXX 15061 53588 NIL
AAXX 15061 53772 NIL
AAXX 15061 53915 NIL
AAXX 15061 54218 32780 53406 11099 21250 39494 40357 57014 85500 333 21169
AAXX 15061 54337 32980 13405 11033 21243 30230 40318 57014 81032 333 21088
AAXX 15061 54342 NIL
AAXX 15061 54401 NIL
AAXX 15061 54471 32970 03205 11039 21193 30310 40316 57015 333 21108
AAXX 15061 54497 32980 03204 11036 21195 30275 40292 57022 333 21124
AAXX 15061 54511 NIL
AAXX 15061 54823 32970 03402 10014 21175 30131 40351 57022 333 21061
AAXX 15061 56080 NIL
AAXX 15061 56096 NIL
AAXX 15061 57083 32966 01402 10046 21148 30202 40344 57034 333 21034
BBXX DPLE 15063 99462 70193 41/97 82725 10135 20109 40115 57040 75865 8//// 22214 00140 20606 331// 41214 80120
AAXX 15064 48581 01530 82202 10232 20229 30059 40101 57020 60361 76322 83576 333 59010 60297 70359
AAXX 15061 01205 46/// /1812 10059 20032 39688 49732 52009 333 20051 91115
AAXX 15064 06610 01567 82312 10043 20018 39560 40150 53/// 69922 76122 8802/ 333 20042 32001 55008 55300 20000 69925 70116 88520 90768 93100 91135 91220
AAXX 15061 48852 01460 82902 10190 20184 30146 40156 57027 60223 76166 8672/ 333 59007 60111 86894 88499 9616 0
AAXX 15061 48803 31456 80000 10190 20134 30084 40199 57021 71022 888// 333 58017 84894 88696
AAXX 15061 48855 01560 83202 10218 20202 30141 40149 58027 60083 70262 888// 333 59003 60041 82895 88697
AAXX 15061 48848 01497 83203 10177 20167 30168 40176 57021 69983 76062 8672/ 333 58008 69941 86894 88499 9616 0 555 20175
AAXX 15064 06670 01680 72105 10050 20007 39609 40123 52/// 69912 70282 8457/ 333 20003 31102 55007 55300 20000 60005 70073 84641 86362 90768 93100 91127 91212
AAXX 15064 06700 01463 82213 10060 20028 39656 40152 52/// 60022 78086 878// 333 20037 32001 55003 55300 20000 69935 70051 81710 87629 90768 93100 91130 91219
AAXX 15064 06680 02675 82513 11076 21092 37423 47949 57/// 60062 8801/ 333 21079 47115 55015 55300 20000 60005 70175 88443 90768 93105 91146 91213
AAXX 15064 06990 01356 81805 10022 20005 39579 40135 52/// 60012 71022 886// 333 20011 32101 55009 55300 20000 60005 70010 88709 91112 91207
AAXX 15064 06760 32970 10103 10025 20011 39693 40150 57/// 8107/ 333 20025 34000 55000 55300 20000 70005 81365 90768 93100 91106 91205
AAXX 15064 06720 01/60 /1302 10023 20017 39576 40162 55/// 69952 76162 333 21002 32101 55000 55300 20000 69955 70126 90768 93100 91106 91205
AAXX 15064 16008 12560 81906 11004 21024 38478 48440 57010 60002 84650 333 21010 43010 55/// 2//// 84720 86350 92820
AAXX 15064 60285 32456 70406 10140 20130 40256 5//// 875// 333 20122 87616
BBXX 44139 15061 99442 70571 46/// /0208 10009 40267 52012 22200 00090 10906 70031 333 91211
AAXX 15061 11976 11217 89901 10066 20057 39884 40148 54000 69922 72022 886// 333 20058 31006 70003 84705 88626
AAXX 15064 08001 11465 72110 10114 20077 30167 40249 51008 60072 72582 8155/ 333 20096 32007 50214 55050 70080 924/7
AAXX 15064 64500 11360 71002 10248 20236 30102 40115 60484 70266 8457/ 333 02236 20228 5///1 55052 58005 84608 87460
AAXX 15064 64510 32460 6//// 10210 20206 3//// 4//// 86500 333 0//00 20210 5///4 55/// 5//// 86610
AAXX 15064 64570 11256 80208 10203 20203 39633 40147 60274 79596 889// 333 02095 20201 50134 55/// 58003 85605 83913 88656 94959 95839
AAXX 15064 89002 41896 71031 11070 21090 39727 49781 57003 73833 8707/ 333 01039 92942
AAXX 15064 04048 41375 81030 10006 20000 49863 52011 72377 8261/ 555 3/536
AAXX 15064 91772 31498 40605 10280 20232 4//// 60001 70201 82201 333 561/9 82818 84080
AAXX 15064 91776 31498 30000 1//// 2//// 4//// 60001 70300 83200 333 569// 83819
AAXX 15064 91779 11398 43507 10270 20229 40127 53011 69961 70280 84701 333 568/9 82708 84816
AAXX 15064 91784 11498 43006 10270 20243 40116 53008 60061 70318 81206 333 567/9 81818 84280
AAXX 15064 91792 11498 41803 10268 20239 40123 53010 60391 78222 83211 333 56499 83817 83362 87078
BBXX 3FSB4 15064 99404 71634 41597 62631 10110 20070 40030 51010 75055 8644/ 22224 0//// 2//// 3//// 4//// 5//// 6//// 80090 ICE /////
BBXX 3FZK3 15064 99541 71708 46/// /0140 10016 20016 49575 58039 7//// 8//// 22221 0//// 2////
BBXX 46035 15061 99571 71778 46/// /0515 1//// 49839 58005 90550 22200 11007 20606 300// 41004 70037 333 91218 555 11152 22162 30534 40620 60549 051152 052151 051152 051152 051139 052142 80516 90524
BBXX C6FY8 15064 99544 71622 41695 81441 10040 20020 49680 57070 78022 8896/ 22263 00060 20408 31617 40612 50614 6//// 80030 ICE /////
BBXX DMRX 15064 99460 71623 41297 32540 10054 21000 49962 52045 70122 81778 22224 00100 20412 80031
BBXX KGTY 15064 99573 71551 43898 70523 10039 2//// 49930 5//// 7//// 86/4/ 22254 00039 20605 3//// 40000 50000 6//// ICE /////
BBXX NWS0003 15064 99570 71660 43/// /0547 10010 21004 49689 5//// 7//// 8//// 222// 04030 2//// 3//// 4//// 5//// 6//// 8//// ICE /////
BBXX SHIP 15064 99501 71763 41698 32836 10010 21063 49850 54000 72681 834// 22224 00060 2//09 81224
BBXX SHIP 15064 99348 71656 41498 83024 10160 20140 40120 5//// 78065 889// 22262 00190 20706 327// 41009 5//// 6//// 80150 ICE /////
BBXX WDB3161 15064 99541 71719 41496 80537 10025 2003/ 49639 53009 75352 887// 22263 00054 20711 307// 40911 5//// 6//// 80025 ICE /////
BBXX LAYG5 15064 99513 11698 41697 82940 11010 21080 49850 51005 70322 8852/ 22262 00044 20904 328// 4//// 5//// 81030
BBXX OUJI2 15064 99538 11788 41/// 92832 11010 2//// 49960 51020 7//77 89/// 22211 00030 20602 328// 40807 5//// 6//// ICE /////
BBXX 4XFV 15063 99462 11448 43/97 93630 00/// 11020 21050 40010 50100 7//// 8//// 22254 0//// 20405 334// 40606 5//// 6//// 81030
BBXX C6SI6 15064 99318 11331 46/// /3114 10156 20057 40171 55007 7//// 8//// 22253 0//// 2////
BBXX DGDD 15061 99305 11256 41297 83612 10125 20068 40225 54000 70262 887// 22264 00190 21006 335// 41206 5//// 80095
BBXX V7DI8 15063 99336 11248 41397 73628 10060 20020 40280 54000 70282 8736/ 22200 00170 20605 334// 40704 5//// 6//// 80040 ICE /////
BBXX 44139 15061 99442 70571 46/// /0208 10009 40267 52012 22200 00090 10906 70031 333 91211
AAXX 15061 26058 27358 81604 10052 20046 39963 49970 58031 76266 88/// 333 10052 20028 60057 88/09 91111 555 1/004 20028 3/101 50035 52001
AAXX 15061 26247 27/74 /1606 10055 20044 39892 49970 56018 75266 333 10055 20026 60047 91011 91112 555 1/004 20026 3/001 50038
AAXX 15061 01015 46/// /1609 10045 21009 333 20032 91113
AAXX 15061 01210 11481 82208 10054 20019 39716 49741 53013 60124 78082 8696/ 333 20041 70115 91111
AAXX 15061 01228 46/// /2006 10066 20025 39728 49735 51017 333 20063 91120
AAXX 15061 01340 16/// /2403 10009 21016 38947 49794 53016 69962 333 21020 70032 91108
AAXX 15061 01425 16/// /2001 10036 20020 39765 49843 53025 60212 333 20012 70389 91107
AAXX 15061 26045 27458 81704 10047 20045 39942 49944 56033 76166 88/// 333 10049 20030 60047 88/11 91111 555 1/003 20030 3/000 50035
AAXX 15061 26135 27256 81802 10045 20040 39867 49940 57027 76266 88/// 333 10044 20025 60047 88/05 91109 555 1/004 20025 3/001 50034 52002
AAXX 15061 01473 11575 62001 10028 20005 39616 49819 57004 60002 70222 82817 333 21013 70000 91105
AAXX 15061 01092 46/// /2015 10019 21020 333 20006 91121
AAXX 15061 01262 46/// /2009 10067 20009 333 20063 91121
AAXX 15061 01329 11360 82107 10048 20035 39737 49796 53022 60042 78082 888// 333 20043 70164 91114
AAXX 15061 01337 16/// /1701 10019 20006 39729 49794 53024 60052 333 20019 70219 91105
AAXX 15061 01436 11365 82615 10073 20046 60142 78098 8696/ 333 20049 70192 91124
AAXX 15061 01144 41886 71208 10065 21005 70222 83046 333 20048 91114
AAXX 15061 01373 11565 80000 10013 21005 39608 49807 53003 60002 76872 8672/ 333 21010 43017 70013 91105
AAXX 15061 01257 16/// /2104 10053 21028 39596 49751 52011 60002 333 20052 70000 91115
AAXX 15061 01277 16/// /0602 10004 21021 60002 333 21005 70000 91105
AAXX 15061 01370 16/// /1903 11033 21046 38721 49878 51004 60002 333 21033 4/030 70003 91113
AAXX 15061 01419 16/// /2003 10032 20022 60242 333 20006 70391 91114
AAXX 15061 01265 16/// /1905 10011 21023 39222 49788 51008 60002 333 20003 70000 91112
AAXX 15061 01375 16/// /1501 11037 21041 6//// 333 21037 91102
AAXX 15061 01440 46/// /2609 11018 21019 38558 49813 51013 333 21034 91112
AAXX 15061 01469 16/// /1703 10034 21006 39651 49819 57002 60002 333 20019 70000 91106
AAXX 15060 67586 12580 70602 10240 20164 38795 48521 60144 81138 333 20155 50381 55066 58006 70135 81824 87277 555 10282 7//96
AAXX 15064 04211 47/50 /1108 11093 21134 39852 40015 57003 78587 333 11085 21099
AAXX 15064 04220 07/84 01109 11118 21137 39963 40016 57006 69912 70070 333 11080 21148 55300 20004 69907 70008
AAXX 15064 04221 45684 80919 11122 21200 39981 40020 57002 333 11100 21133 88/45
AAXX 15064 04231 12/89 00712 11165 21215 39954 40031 57008 6///2 333 11124 21196
AAXX 15064 04234 45984 80913 11068 21160 39974 49984 57012 333 11067 21094 88/60
AAXX 15064 04241 47958 70820 11085 21134 39964 40004 57008 75455 333 11084 21093 81/59 85/61 87/63 91128 91029
AAXX 15064 04250 07870 51313 11063 21127 39904 40010 57001 69902 78587 333 11063 21082 55300 20000 69907 70019 81/58 83/61 85/70
AAXX 15064 04254 45883 41213 11075 21161 39898 40015 57011 333 11068 21092 84/57
AAXX 15064 04260 45884 71408 11083 21174 39988 40033 57010 333 11061 21110 87/56
AAXX 15064 04270 47580 70707 11092 21165 30014 40054 52011 77177 333 11088 21144 87/29
AAXX 15064 04272 075// 8//// 11063 21097 39976 40049 52011 69902 7//87 333 11052 21070 6///7 70000 87/25 88/29
AAXX 15064 04312 46/// ///// 11342 21387 30076 40119 54000
AAXX 15064 04320 45/84 /3305 11224 21268 30086 40102 57007 333 11182 21238 55300
AAXX 15064 04339 47/65 ///// 11078 21128 39924 40016 52006 78587 333 11076 21138 55300 20000
AAXX 15064 04360 06/// /3501 11087 21114 39958 40030 52005 69922 333 11066 21089 55300 20000 6///7 70002
AAXX 15064 04361 468// 72403 11085 21110 39980 40034 52006 333 11061 21086 87/56
AAXX 15064 04390 05/84 02608 11053 21091 39919 40014 52005 60132 333 11012 21056 60027 70175
AAXX 15060 67585 12980 20201 10246 20178 69904 81031 333 20184 5//// 55/// 79999 81358 555 10284 7//98
AAXX 15061 48900 32597 29902 10324 20210 30072 40082 57026 82100 333 59010 82895
AAXX 15061 48918 32470 70205 10274 20227 30084 40095 57022 84908 222// 00281 2//03 333 59005 82894 82995 8629 9
AAXX 15061 48917 12598 60702 10307 20222 30092 40098 57015 60033 82208 222// 00293 2//00 333 59008 82895 8629 9
AAXX 15061 48914 12598 70703 10296 20229 30086 40088 57025 69913 872// 333 59010 87895
AAXX 15064 41252 36/// /1404 10215 20096 39834 40125 333 0E016 20129 58006
AAXX 15064 41259 36/// /2606 10097 21181 37163 40348 333 0E/// 20060 58004
AAXX 15061 48919 12598 70507 10279 20242 30070 40092 58021 69913 83208 22200 02276 2//03 333 59001 83895 8729 9
AAXX 15061 48916 12598 70202 10287 20239 30043 40090 58017 60453 878// 333 59012 82895 87696
AAXX 15064 71432 17/// /1916 10115 20094 30002 40098 58047 60021 7//4/ 333 10116 20035 70039 555 31828 40062
AAXX 15064 71435 16/// /2301 11005 21005 39428 40015 56023 60001 333 10013 21026 70000
AAXX 15064 71441 46/// /3009 11026 21054 39763 40073 55003 6///1 333 11007 21044 7//// 555 33121 40021
AAXX 15064 71444 16/// /3105 11062 21067 39330 40096 53019 60001 333 11056 21082 70000
AAXX 15064 71472 16/// /1206 10021 21015 30158 40176 51017 60001 333 10044 20021 7////
AAXX 15064 71510 16/// /3408 11050 21094 39497 40217 53014 60001 333 11015 21100 70000 555 33230 40202
AAXX 15064 71752 17/// /1913 10102 20089 39899 40114 58037 60041 7//4/ 333 10102 20007 70055
AAXX 15064 71771 46/// /3006 10026 20002 30151 40172 51020 6///1 333 10039 20014 7////
AAXX 15064 71402 46/// /2612 11056 21091 30102 40219 55003 6///1 333 11043 21063 7//// 555 33124 40171
AAXX 15064 71407 16/// /0803 11267 21299 39825 49846 51009 60001 333 11144 21306 70000 555 10020 32030 40182
AAXX 15064 71425 16/// /1709 11074 21102 30210 40247 55004 60001 333 11023 21076 70020
AAXX 15064 71449 16/// /3010 11047 21057 39654 40057 53003 60001 333 10007 21048 70000 555 32417 40091
AAXX 15064 71309 16/// /1403 11003 21003 30047 40058 56039 60001 333 11003 21059 70000
AAXX 15064 71311 16/// /1904 11032 21067 30255 40280 55005 60001 333 10008 21045 70000 555 30120 40081
AAXX 15064 71317 16/// /1902 11016 21072 30228 40276 55008 60001 333 10023 21019 70000 555 30225 40071
AAXX 15064 71320 16/// /0817 11099 21106 39793 49796 56002 60001 333 11083 21139 70003 555 31136 40103
AAXX 15064 71141 17/// /3531 11200 21218 39980 40007 53012 69931 7//4/ 333 11174 21200 7////
AAXX 15064 71149 16/// /3214 11038 21058 60001 333 11026 21057 70000 555 33027 40061
AAXX 15064 71015 17/// ///// 11071 69941 7//4/ 333 10006 21080 70004
AAXX 15064 71017 16/// /2808 11321 21354 30088 40103 53002 60001 333 11218 21321 70000 555 30019 40071
AAXX 15064 71019 46/// /1706 11041 21062 39943 40251 58014 6///1 333 10004 21070 7////
AAXX 15064 71020 46/// /3401 11267 21294 39927 40194 55000 6///1 333 11111 21267 7//// 555 10010
AAXX 15064 71021 46/// /0000 11266 21295 39831 40201 51001 6///1 333 11098 21268 7////
AAXX 15064 71150 46/// /3217 11059 21071 39421 40111 53028 6///1 333 11048 21075 7//// 555 33225 40051
AAXX 15064 71151 17/// /2705 11027 21030 39531 40032 55005 69971 7//4/ 333 10001 21027 70007
AAXX 15064 71155 16/// ///// 11169 21175 60001 333 11003 21173 70000
AAXX 15064 71156 16/// /2902 11155 21168 39087 40219 56005 60001 333 11010 21160 70000 555 10010
AAXX 15064 71157 46/// ///// 11091 21106 6///1 333 11007 21098 7////
AAXX 15064 71159 16/// /2805 11036 21070 30173 40247 56007 60001 333 11033 21133 70000
AAXX 15064 71160 16/// /2101 11259 21288 30019 40247 56001 60001 333 11242 21290 70000
AAXX 15064 71162 16/// /1006 11178 21203 30014 40234 58008 60001 333 11178 21239 7////
AAXX 15064 71164 46/// /0103 11232 21258 30115 40200 57007 6///1 333 11223 21327 7////
AAXX 15064 71166 46/// /1502 39561 58003 6///1 333 7////
AAXX 15064 71851 16/// /3109 11024 21043 39741 40077 53003 60001 333 11018 21046 70000
AAXX 15064 71885 46/// ///// 11084 6///1 333 10001 21104 7////
AAXX 15064 71296 17/// /1508 10060 20056 39780 40083 58035 60021 7//4/ 333 10060 21016 70034 555 31424 40031
AAXX 15064 71299 17/// /1203 10002 20001 39761 40030 56042 69931 7//4/ 333 10003 21057 70015
AAXX 15064 71614 17/// /1412 10033 20017 30085 40151 58047 69951 7//4/ 333 10034 21002 70005 555 31618 40051
AAXX 15064 71628 11232 81109 10019 20016 39997 40138 58052 60021 76165 88700 333 10019 20002 70020 909/6
AAXX 15064 71719 16/// /2008 11027 21070 30253 40259 56012 60001 333 11009 21031 7////
AAXX 15064 71837 16/// ///// 11054 60001 333 11005 21092 70000
AAXX 15064 71839 46/// ///// 11069 6///1 333 10005 21108 7////
AAXX 15064 71669 16/// /2501 11104 21122 38553 40210 56015 60001 333 10001 21107 7////
AAXX 15064 71679 17/// /0602 11075 21081 39134 40171 51004 60011 7//4/ 333 11052 21107 70011 555 10030 20011
AAXX 15064 71564 16/// /3112 11019 21058 39709 40078 55001 60001 333 11008 21046 70000 555 33220 40061
AAXX 15064 71577 46/// /2603 11050 21056 6///1 333 11021 21051 7////
AAXX 15064 71581 17/// /2501 10029 20022 39609 40088 58038 60021 7//4/ 333 10033 20001 70029
AAXX 15064 71585 16/// /1003 11152 21184 39772 40254 56001 60001 333 11052 21169 70025 555 10020 20025
AAXX 15064 71842 11110 80000 10000 20000 39551 40017 57021 60011 77152 887// 333 10012 21035 47004 70012 90973 555 10010 20010
AAXX 15064 71858 17/// /3612 11090 21109 39839 40124 53042 60031 7//4/ 333 11041 21090 70030 555 30024 40061
AAXX 15064 71861 46/// /3117 11060 21085 39419 40156 53029 6///1 333 11024 21074 7//// 555 33233 40022
AAXX 15064 71807 16/// /3407 11050 21088 30234 40253 53011 60001 333 11021 21054 70000 555 30629 40162
AAXX 15064 71243 16/// /1602 11092 21103 39129 40251 57013 60001 333 10004 21094 70000 555 32724 40101
AAXX 15064 71246 16/// /0000 11106 21117 39540 40222 56004 60001 333 11049 21118 70000
AAXX 15064 71455 46/// /3210 11053 21087 39407 40221 53018 6///1 333 11019 21092 7//// 555 33233 40192
AAXX 15064 71465 46/// /1818 10093 20077 39881 40096 56035 6///1 333 10094 20048 7//// 555 31725 40061
AAXX 15064 71470 16/// /2815 11259 21286 39547 40207 53001 60001 333 11258 21313 7//// 555 32931 40132
AAXX 15064 71476 16/// /0422 30160 53010 60001 333 7////
AAXX 15064 71478 17/// /1722 10063 20056 30016 40152 53015 60021 7//4/ 333 10073 20045 7////
AAXX 15064 71480 16/// /1103 11232 21260 30051 40178 58015 60001 333 11198 21249 70000
AAXX 15064 71482 46/// /0808 10010 30133 40172 51012 6///1 333 10034 20007 7////
AAXX 15064 71484 16/// /0406 10023 20002 30140 40159 53006 60001 333 10038 20010 70000 555 30119 40021
AAXX 15064 71487 16/// /2913 11060 21083 39325 40211 53015 60001 333 11038 21082 70000 555 33134 40213
AAXX 15064 71492 46/// ///01 11257 21282 39470 40199 58008 6///1 333 11241 21336 7//// 555 10010
AAXX 15064 71938 11661 82610 11236 21283 30183 40214 50002 69901 77177 885// 333 11186 21284 46023 79999 90983 555 19999 29999 32620 40150
AAXX 15064 71137 16/// /3504 11134 21148 39262 40236 53009 60001 333 11038 21141 70000 555 33430 40202
AAXX 15064 71909 16564 32714 11107 21160 39900 49943 51024 60001 333 11038 21110 70000 555 31332 40072
AAXX 15064 71956 17/// /1808 10061 20061 39795 40023 58048 60011 7//4/ 333 10062 20012 70057 555 31520 40211
AAXX 15064 71970 16/// /3104 11105 21134 39634 40236 53009 60001 333 11024 21115 70000 555 33223 40161
AAXX 15064 71977 46/// /1301 11228 21228 39429 40171 58001 6///1 333 11226 21305 7////
AAXX 15064 71978 46/// /0303 11265 21292 39868 40198 50000 6///1 333 11262 21314 7////
AAXX 15064 71989 16/// /3307 11281 21308 30093 40110 53003 60001 333 11234 21351 70000
AAXX 15064 71355 16/// /2701 11341 21377 30038 40128 52002 60001 333 11326 21371 70000
AAXX 15064 71357 16/// /0000 11222 21242 39945 49952 56015 60001 333 11214 21290 70000 555 10010
AAXX 15064 71361 16/// /1304 11176 21198 30006 40223 56010 60001 333 11124 21184 70000
AAXX 15064 71362 16/// /1503 11211 21235 39977 40246 58005 60001 333 11119 21213 70000
AAXX 15064 71363 16/// /3630 11169 21186 39844 49898 51022 60001 333 11148 21187 70000 555 30038 40063
AAXX 15064 71364 16/// /3401 11219 21243 30050 40190 58002 60001 333 11214 21292 70000 555 10010
AAXX 15064 71365 16/// /1403 11188 21206 39989 40211 58002 60001 333 11144 21191 70000
AAXX 15064 71381 47/// /1008 11029 21051 6///1 7//4/ 333 21056 7////
AAXX 15064 71384 16/// /2601 11001 21019 30216 40224 57026 60001 333 10024 21010 70000
AAXX 15064 71387 16/// /0000 11084 21092 39808 40193 58027 60001 333 11035 21115 70000
AAXX 15064 71389 46/// /1005 10004 21018 6///1 333 10015 21018 7////
AAXX 15064 71393 16/// ///// 11069 21104 38918 40218 56011 60001 333 10035 21070 70000
AAXX 15064 71104 11/24 91406 11031 21040 39047 40173 56001 60031 77177 333 11015 21057 44016 70028 90973 93103 555 10030 20028
AAXX 15064 71736 46/// ///// 11106 21124 6///1 333 10002 21118 7////
AAXX 15064 71742 46/// /2608 11085 21101 30042 40234 55005 6///1 333 11057 21126 7////
AAXX 15064 71744 16/// /2704 11054 21071 30233 40275 55004 60001 333 10014 21054 70000
AAXX 15064 71746 46/// /2014 10105 20093 39851 40069 56036 6///1 333 10110 20021 7//// 555 31924 40041
AAXX 15064 71501 16/// /3211 11252 21278 30208 40210 50000 60001 333 11243 21268 7//// 555 10010
AAXX 15064 71505 46/// /0603 11136 21155 39385 40133 56009 6///1 333 11135 21234 7////
AAXX 15064 71511 16/// /3313 11064 21090 39557 40208 52028 60001 333 11017 21064 70000 555 33330 40232
AAXX 15064 71512 16/// /3302 11131 21143 30224 40239 55003 60001 333 11045 21178 70000
AAXX 15064 71868 17/// /3511 11100 21137 39730 40180 53048 69951 7//4/ 333 11029 21101 70005 555 33419 40051
AAXX 15064 71887 11332 81007 11012 21016 39776 40205 57004 60011 77122 885// 333 10007 21057 43001 70010 90931 93101 555 10001 20001
AAXX 15064 71075 16/// /2904 11271 21303 39600 40239 53008 60001 333 11086 21271 70000
AAXX 15064 71087 46/// /0803 11188 21212 30006 40219 57010 6///1 333 11136 21200 7////
AAXX 15064 71920 16/// /3503 10004 21021 30268 40274 55014 60001 333 10045 20000 70000 555 30224 40161
AAXX 15064 91753 02582 51010 10279 20239 30072 40104 53011 69902 85200 333 10308 20272 30026 55084 69907 79999 83822 83828 90710 91117 555 60005
AAXX 15064 91754 06/// /0504 10282 20224 30061 40102 53008 60001 333 60007 555 10310 20243 60004 60005
AAXX 15064 71432 17/// /1916 10115 20094 30002 40098 58047 60021 7//4/ 333 10116 20035 70039 555 31828 40062
AAXX 15064 71435 16/// /2301 11005 21005 39428 40015 56023 60001 333 10013 21026 70000
AAXX 15064 71441 46/// /3009 11026 21054 39763 40073 55003 6///1 333 11007 21044 7//// 555 33121 40021
AAXX 15064 71444 16/// /3105 11062 21067 39330 40096 53019 60001 333 11056 21082 70000
AAXX 15064 71472 16/// /1206 10021 21015 30158 40176 51017 60001 333 10044 20021 7////
AAXX 15064 71510 16/// /3408 11050 21094 39497 40217 53014 60001 333 11015 21100 70000 555 33230 40202
AAXX 15064 71842 11110 80000 10000 20000 39551 40017 57021 60011 77152 887// 333 10012 21035 47004 70012 90973 555 10010 20010
AAXX 15064 71858 17/// /3612 11090 21109 39839 40124 53042 60031 7//4/ 333 11041 21090 70030 555 30024 40061
AAXX 15064 71861 46/// /3117 11060 21085 39419 40156 53029 6///1 333 11024 21074 7//// 555 33233 40022
AAXX 15064 71807 16/// /3407 11050 21088 30234 40253 53011 60001 333 11021 21054 70000 555 30629 40162
AAXX 15064 71628 11232 81109 10019 20016 39997 40138 58052 60021 76165 88700 333 10019 20002 70020 909/6
AAXX 15064 71719 16/// /2008 11027 21070 30253 40259 56012 60001 333 11009 21031 7////
AAXX 15064 71104 11/24 91406 11031 21040 39047 40173 56001 60031 77177 333 11015 21057 44016 70028 90973 93103 555 10030 20028
AAXX 15064 71868 17/// /3511 11100 21137 39730 40180 53048 69951 7//4/ 333 11029 21101 70005 555 33419 40051
AAXX 15064 71887 11332 81007 11012 21016 39776 40205 57004 60011 77122 885// 333 10007 21057 43001 70010 90931 93101 555 10001 20001
AAXX 15064 71137 16/// /3504 11134 21148 39262 40236 53009 60001 333 11038 21141 70000 555 33430 40202
AAXX 15064 71938 11661 82610 11236 21283 30183 40214 50002 69901 77177 885// 333 11186 21284 46023 79999 90983 555 19999 29999 32620 40150
AAXX 15064 71909 16564 32714 11107 21160 39900 49943 51024 60001 333 11038 21110 70000 555 31332 40072
AAXX 15064 71104 11/24 91406 11031 21040 39047 40173 56001 60031 77177 333 11015 21057 44016 70028 90973 93103 555 10030 20028
AAXX 15064 89528 46/// /3510 4//// 5////
BBXX 44150 15061 99425 70640 46/// /0706 10054 40266 5//// 22200 00107 11005 70025 333 91207
AAXX 15064 65351 31950 70412 10202 20039 3//// 4//// 70522 80002 333 20195 5//// 87076
AAXX 15064 65355 32960 70614 10212 21059 39599 40114 80002 333 20186 59005 87073
AAXX 15064 65357 32960 70806 10194 20064 39742 40134 80002 333 20190 58004 87076
AAXX 15064 65380 32956 70000 10182 20179 3//// 4//// 80002 333 20179 5//// 87076
BBXX SLKQ 15061 99059 10851 43/97 80509 10266 40098 58011 22264 00290 2////4////
BBXX SBLI 15061 99300 71491 43/98 51409 10203 40253 53003 22264 00218 2//// 4//// 426621110
AAXX 15061 14008 11/91 93601 11046 21052 37424 47976 50000 60102 77174 333 21046 49085 55000 70165 92828 93110 95190
AAXX 15061 14015 11356 80201 10084 20082 39777 40133 54000 60102 76366 885// 333 20079 32005 55000 70111 83707 85630 88650 555 20065 30065
BBXX 44150 15061 99425 70640 46/// /0706 10054 40266 5//// 22200 00107 11005 70025 333 91207
AAXX 15061 01218 16/// /1604 10078 21007 39722 49743 51006 69972 333 20031 70007 91108
AAXX 15061 01281 16/// /0402 10043 21023 39600 49769 52011 60002 333 20035 70000 91109
AAXX 15061 01447 16/// /1602 10003 21007 39164 49821 52007 69952 333 21001 70115 91105
AAXX 15061 01028 11360 50613 10005 21001 39833 49853 57007 60032 70122 83730 333 20002 70033
AAXX 15061 50953 32675 72902 11126 21216 30058 40251 57002 81102 333 21180
AAXX 15061 53588 32980 02909 11166 21242 37792 57007 333 21204 91118 91527
AAXX 15061 53772 32965 02502 10006 21187 39392 40353 57024 333 21061
AAXX 15061 54342 32670 22705 11068 21197 30237 40303 57017 81102 333 21127
AAXX 15061 54511 32680 13406 10006 21217 30294 40336 57026 81100 333 21056
AAXX 15064 86330 32998 01903 10140 20125 40085 57004
AAXX 15064 86360 NIL
AAXX 15064 86460 NIL
AAXX 15064 86490 NIL
AAXX 15064 86530 NIL
AAXX 15064 86545 32597 61804 10176 20169 40088 57/// 84205
AAXX 15064 86565 11497 71603 10177 20169 40082 57011 69941 70352 85470
AAXX 15064 86580 11497 41110 10188 20172 40087 57023 60041 70166 83470
AAXX 15061 56778 11558 71403 10095 20047 38131 57026 69901 71080 878// 333 00154 20041
AAXX 15061 57265 32980 00401 10066 21051 30221 40336 57038 333 20009
AAXX 15061 57516 11730 83401 10099 20064 39973 40291 57025 69901 76060 885// 333 00100 20080
AAXX 15061 58040 32970 03201 10030 21117 30320 40334 57020 333 21035
AAXX 15061 58221 32966 00402 10048 21070 30309 40338 57020 333 20001
AAXX 15061 58238 32965 03604 10071 21037 30277 40323 57021 333 20028
AAXX 15061 58251 32570 63604 10065 21021 30311 40316 57016 86100 333 20017
AAXX 15061 58457 11757 83603 10072 21007 30251 40305 57014 69901 71060 885// 333 20063
AAXX 15061 58606 11740 80402 10094 20027 30231 40290 57017 69901 70560 885// 333 20080
AAXX 15061 58752 31657 83605 10143 21009 30205 40251 57020 70500 885// 333 20120
AAXX 15061 58847 31659 81601 10175 20064 30119 40221 57026 70500 885// 333 20133
AAXX 15061 59134 32960 70902 10188 20090 30033 40200 57026 87040 333 20150
AAXX 15061 59287 32667 60206 10196 20045 30116 40201 57028 86500 333 20127
AAXX 15061 59431 32764 73403 10184 20053 30072 40219 57035 8754/ 333 20123
AAXX 15061 59758 32470 70705 10205 20122 30101 40177 57025 878// 333 20192
AAXX 15061 57494 32965 70203 10078 20010 30283 40314 57022 8703/ 333 20041
AAXX 15061 58362 32580 60203 10079 21016 30293 40301 57010 82130 333 20073
AAXX 15061 51076 32980 73601 11033 21127 39414 40344 57003 80002 333 05404 21147
AAXX 15061 51243 32865 72202 11086 21116 39764 40358 54000 81502 333 05400 21129
AAXX 15061 51463 31762 70703 11110 21127 39181 40358 52008 70040 85502 333 05358 21123
AAXX 15061 51573 32975 51402 11019 21120 30330 40376 57012 80002 333 05252 21082
AAXX 15061 51709 32962 02201 11031 21076 38817 40376 57004 333 05251 21106
AAXX 15061 52533 32980 01103 11019 21120 38615 40388 57019 333 05100 21135
AAXX 15061 52652 32970 01403 11011 21133 38629 40370 57026 333 00001 21127
AAXX 15061 52983 32961 03601 11015 21137 38180 57019 333 00100 21121
AAXX 15061 53915 32980 01401 10040 21108 38749 40337 57024 333 00101 21062
AAXX 15061 54401 32775 63205 11086 21220 39465 40397 57001 86500 333 21145
AAXX 15061 56080 32980 03201 11016 21235 37165 57027 333 00251 21175
AAXX 15061 56096 32975 01802 10081 21093 39021 40288 57039 333 00200 21008
AAXX 15064 41170 42950 02704 10180 20125 30222 40235 70500 333 20139 59002 555 00110
OOXX AAUNI 15064 99798 50833 56093 07671 46/// ///01 11146 21164 38951 49858 52011 90600
AAXX 15061 50136 32970 03404 11166 21279 39720 40315 57001 333 21324
AAXX 15061 50745 32666 13403 11151 21232 30070 40271 57006 81100 333 21205
AAXX 15061 50774 32960 02501 11174 21231 39908 40244 57007 333 21313
AAXX 15061 50788 32970 02504 11167 21228 30121 40214 57003 333 21226
AAXX 15061 51133 11660 81601 11049 21070 39683 40361 52019 60011 77070 885// 333 00154 21056
AAXX 15061 51431 11965 80902 11047 21057 39548 40388 52015 60011 77070 8802/ 333 00401 21072
AAXX 15061 51747 32980 12701 11008 21110 39026 40391 57005 80002 333 05251 21204
AAXX 15061 52203 32980 11101 11002 21104 39435 40360 57020 80002 333 05200 21122
AAXX 15061 52418 32980 00702 11014 21127 38975 40369 57020 333 05201 21141
AAXX 15061 52681 32980 23602 11015 21137 38746 40394 57020 80002 333 00251 21133
AAXX 15061 53564 32980 02902 11039 21186 39326 40417 57019 333 00200 21172
AAXX 15061 53614 32965 40203 11032 21126 39042 40406 57015 80002 333 00201 21105
AAXX 15061 53646 32975 03404 11056 21190 38980 40417 57010 333 00251 21153
AAXX 15061 53798 32960 70902 10023 21127 30247 40348 57025 80002 333 21032
AAXX 15061 53845 32975 00902 10009 21128 39196 40367 57022 333 00100 21067
AAXX 15061 53959 32962 03603 10051 21106 39891 40348 57026 333 21031
AAXX 15061 54094 11765 72904 11113 21173 39916 40237 57007 69901 72600 85502 333 21181
AAXX 15061 54102 32980 22903 11177 21234 39124 40432 52002 80002 333 21253
AAXX 15061 54161 32565 22905 11113 21217 39961 40277 57005 81102 333 21180
AAXX 15061 54292 32580 32706 11092 21195 39902 40240 57003 83100 333 21150
AAXX 15061 54374 32670 62703 11084 21211 39784 40281 57018 86100 333 21199
AAXX 15061 54423 32580 13406 11062 21226 39803 40353 57022 81100 333 21157
AAXX 15061 54618 32964 52702 10006 21172 30328 40347 57024 80002 333 21075
AAXX 15061 54843 32980 42903 10015 21127 30310 40339 57019 80002 333 21045
AAXX 15061 54909 32970 00402 10028 21131 30281 40348 57025 333 21033
AAXX 15061 56029 32980 22001 11006 21248 36447 57029 80002 333 00153 21162
AAXX 15061 57127 32960 73201 10104 20023 39683 40301 57028 8703/ 333 20030
AAXX 15061 57131 32968 00902 10045 21073 39843 40355 57026 333 21016
AAXX 15063 61701 42960 50912 10203 20032 40119 80002 333 20194 50761 55094 59003 85070
AAXX 15063 61705 NIL
AAXX 15063 61707 NIL
AAXX 15063 61711 NIL
AAXX 15063 61712 NIL
AAXX 15063 61717 NIL
AAXX 15063 61720 NIL
AAXX 15063 61721 NIL
AAXX 15063 61722 NIL
AAXX 15063 61731 NIL
AAXX 15063 61733 NIL
AAXX 15061 44214 32998 60000 11203 21246 38335 40493 58013 84078
AAXX 15061 44231 31996 50000 11263 21318 38849 40594 58014 70400 80008
AAXX 15061 44259 32997 03004 11183 21243 39422 40400 56006
AAXX 15061 44277 32999 10202 11140 21201 37857 40469 58005 80004
AAXX 15061 44288 32999 01605 11129 21262 38252 40467 58013
AAXX 15061 44292 31995 02702 11208 21233 38827 40514 58011 70400
AAXX 15061 44304 32999 02302 11212 21252 39115 40475 58009
AAXX 15061 44354 32999 02905 11174 21224 39247 40466 52002
AAXX 15061 44373 32999 00201 11131 21211 38652 40456 58013
BBXX 44255 15061 99473 70573 46/// /3005 11021 40249 57006 22200 00040 10902 70008 333 91208
AAXX 15064 60621 36/// /0413 10096 20006 333 20092
AAXX 15061 89064 36/// /1901 10016 29091 40066 52003
AAXX 15061 37279 32598 60000 10083 20000 30109 40254 53005 86200 555 20003
AAXX 15061 37308 32698 70000 11031 21044 39636 40319 52010 83530 333 21035
AAXX 15061 37531 31/// 90000 11035 21040 39570 40331 52001 74445
AAXX 15061 37553 32698 70000 11002 21023 39643 40314 52010 84530 333 21034
AAXX 15061 37651 16/// ///00 11022 21025 3//// 4//// 5//// 60002 333 21049
AAXX 15061 37492 NIL
AAXX 15064 60612 36/// /3609 10059 21066 333 20059
AAXX 15064 60691 36/// /0612 10122 21086 333 20122
AAXX 15064 60692 36/// /0111 10142 21050 333 20141
AAXX 15064 60633 36/// /1005 10141 21134 333 20139
AAXX 15064 60662 36/// /0000 10102 21108 333 20092
AAXX 15064 60676 36/// /0308 10095 21037 333 20079
AAXX 15064 60664 36/// /0000 10047 21129 333 20045
AAXX 15064 60672 36/// /3305 10067 21105 333 20063
AAXX 15064 60115 32560 62110 10117 20087 40299 53008 82820 333 20054 83830 83360
AAXX 15064 60667 36/// /0000 10076 21067 333 20076
AAXX 15064 48001 32340 40401 10156 20144 40149 83510 333 56190 59004
AAXX 15064 48004 32563 10401 10259 20159 81100 333 56900
AAXX 15064 48008 32958 00401 10156 20149 333 59014
AAXX 15064 48010 32560 10205 10205 20150 40160 333 58002
AAXX 15064 48018 32960 01401 10241 20155 40157 333 59018
AAXX 15064 48019 32960 00402 10222 20136 40158 333 58007
AAXX 15064 48020 32460 20401 10223 20156 81230 333 56880
AAXX 15064 48025 31458 50401 10223 20185 40166 70144 84840 333 56500 59000
AAXX 15064 48035 31558 40000 10210 20120 40138 70500 84800 333 56500 58011
AAXX 15064 48037 32962 03601 10250 20150 40151 333 59004
AAXX 15064 48042 32958 01801 10260 20160 40145 333 59002
AAXX 15064 48045 32560 21801 10188 20118 82100 333 56900
AAXX 15064 48048 32962 00401 10260 20160 40150 333 58015
AAXX 15064 48053 32956 03603 10260 20138 40147 333 58002
AAXX 15064 48057 32460 22301 10202 20085 82500 333 56505
AAXX 15064 48060 32440 10000 10206 20160 40155 70144 81100 333 56500 59008
AAXX 15064 48062 31560 23603 10253 20170 40145 70522 82500 333 56900 59005
AAXX 15064 48071 /2960 00503 10265 20211 40143 333 59015
AAXX 15064 48077 32960 00402 10290 20179 40141 333 59014
AAXX 15064 48078 32958 13202 10280 20158 40138 80001 333 56900 59004
AAXX 15064 48080 32961 03201 10305 20149 40127 333 59007
AAXX 15064 48094 32962 00401 10290 20250 40130 333 59009
AAXX 15064 48097 32957 00502 10305 20159 40137 333 59001
AAXX 15064 48108 31597 31401 10329 20184 40114 70511 81206 333 56009 59012
AAXX 15064 48109 32997 60401 10315 20236 40130 333 59005
AAXX 15064 48110 31596 83603 10300 20166 40110 70522 81237 333 56999 59011
AAXX 15064 48112 NIL
AAXX 15064 48001 32340 40401 10156 20144 40149 83510 333 56190 59004
AAXX 15064 48004 32563 10401 10259 20159 81100 333 56900
AAXX 15064 48008 32958 00401 10156 20149 333 59014
AAXX 15064 48010 32560 10205 10205 20150 40160 333 58002
AAXX 15064 48018 32960 01401 10241 20155 40157 333 59018
AAXX 15064 48019 32960 00402 10222 20136 40158 333 58007
AAXX 15064 48020 32460 20401 10223 20156 81230 333 56880
AAXX 15064 48025 31458 50401 10223 20185 40166 70144 84840 333 56500 59000
AAXX 15064 48035 31558 40000 10210 20120 40138 70500 84800 333 56500 58011
AAXX 15064 48037 32962 03601 10250 20150 40151 333 59004
AAXX 15064 48042 32958 01801 10260 20160 40145 333 59002
AAXX 15064 48045 32560 21801 10188 20118 82100 333 56900
AAXX 15064 48048 32962 00401 10260 20160 40150 333 58015
AAXX 15064 48053 32956 03603 10260 20138 40147 333 58002
AAXX 15064 48057 32460 22301 10202 20085 82500 333 56505
AAXX 15064 48060 32440 10000 10206 20160 40155 70144 81100 333 56500 59008
AAXX 15064 48062 31560 23603 10253 20170 40145 70522 82500 333 56900 59005
AAXX 15064 48071 /2960 00503 10265 20211 40143 333 59015
AAXX 15064 48077 32960 00402 10290 20179 40141 333 59014
AAXX 15064 48078 32958 13202 10280 20158 40138 80001 333 56900 59004
AAXX 15064 48080 32961 03201 10305 20149 40127 333 59007
AAXX 15064 48094 32962 00401 10290 20250 40130 333 59009
AAXX 15064 48097 32957 00502 10305 20159 40137 333 59001
AAXX 15064 48108 31597 31401 10329 20184 40114 70511 81206 333 56009 59012
AAXX 15064 48109 32997 60401 10315 20236 40130 333 59005
AAXX 15064 48110 31596 83603 10300 20166 40110 70522 81237 333 56999 59011
AAXX 15064 48112 NIL
BBXX 44255 15061 99473 70573 46/// /3005 11021 40249 57006 22200 00040 10902 70008 333 91208
AAXX 15064 47407 11/60 52518 11021 21092 39882 40058 50004 60021 78582 85300
AAXX 15064 47409 12/70 23011 11005 21051 39976 40030 53014 60001 82200
AAXX 15064 47418 12/80 22819 10024 21105 39986 40035 53016 60001 82200
AAXX 15064 47421 17/70 /2910 11017 21089 30060 40104 53009 69901 70070
AAXX 15064 47430 11/58 72609 11014 21039 30055 40111 53010 69951 78582 872//
AAXX 15064 47570 17/70 /2615 10053 20016 39868 40129 53002 60031 70060
AAXX 15064 47575 11/60 72716 10017 21064 30117 40122 51010 60011 72682 872//
AAXX 15064 47584 11/58 32710 10023 21026 39929 40121 53005 69951 78582 82371
AAXX 15064 47604 11/57 83410 10055 20022 30139 40148 53003 60021 78098 8727/
AAXX 15064 47605 11/60 83006 10086 20062 30119 40160 53003 60061 78082 8727/
AAXX 15064 47610 11/80 70407 10061 20020 39634 40138 53007 69901 78011 87200
AAXX 15064 47624 12/82 63310 10125 21014 39959 40095 53001 60001 85201
AAXX 15064 47629 12/80 10602 10148 20020 30049 40086 56009 60001 81201
AAXX 15064 47636 12/60 73311 10121 20043 30078 40146 55014 60001 878//
AAXX 15064 47651 12/65 13106 10141 20027 30123 40145 55015 60001 81200
AAXX 15064 47655 15/70 /2621 10138 20052 30052 40108 55010 60001
AAXX 15064 47675 15/69 /2415 10155 20078 30005 40094 55006 69901
AAXX 15064 47741 11/62 72911 10097 20023 30155 40183 55002 69901 72582 872//
AAXX 15064 47746 11/58 82614 10084 20044 30159 40179 55004 60061 78182 882//
AAXX 15064 47750 11/65 63005 10107 20044 30138 40166 56007 69901 72582 86200
AAXX 15064 47765 11/60 53613 10118 20020 30119 40184 55007 69901 70282 85200
AAXX 15064 47772 12/70 62406 10141 20039 30058 40157 55013 60001 86200
AAXX 15064 47800 15/81 /3410 10081 21043 30212 40217 55009 60001
AAXX 15064 47815 12/60 23208 10144 20003 30166 40182 56018 60001 82100
AAXX 15064 47817 12/75 73008 10112 20025 30168 40212 55007 60001 85832
AAXX 15064 47830 12/60 12616 10156 20031 30158 40176 55015 60001 81130
AAXX 15064 47887 12/65 53006 10142 21003 30135 40176 56015 60001 84230
AAXX 15064 47891 12/65 7//// 10134 2//// 3//// 4//// 5//// 60001 86230
AAXX 15064 47895 12/70 73011 10137 20026 30156 40164 55009 60001 8723/
AAXX 15064 47927 11/58 80411 10211 20192 30118 40167 56020 69901 76122 888//
AAXX 15064 47401 11/70 70113 11038 21096 30057 40072 53019 60091 72683 872//
AAXX 15064 47412 11/56 73113 11018 21055 30056 40089 53018 69951 78511 872//
AAXX 15064 47420 15/70 /3119 10019 21028 39981 40015 53003 60001
AAXX 15064 47426 17/70 /2825 10016 21072 30020 40068 51013 69951 72470
AAXX 15064 47582 11/65 83313 10039 21041 30107 40134 53005 69951 72682 883//
AAXX 15064 47590 11/80 62910 10077 21013 30064 40118 53010 69901 70282 86230
AAXX 15064 47600 17/50 /3310 10056 20030 30159 40167 53010 60021 76160
AAXX 15064 47648 11958 01406 10132 20068 30057 40091 55010 60001 70500
AAXX 15064 47662 12965 01505 10152 20040 30046 40089 55009 60001
AAXX 15064 47678 15/70 /2713 10156 20088 39940 40124 55011 60001
AAXX 15064 47740 17/80 /2810 10089 21004 30138 40173 56009 69901 70086
AAXX 15064 47778 15/70 /3412 10152 20030 30061 40143 55016 60001
AAXX 15064 47807 12/65 72605 10119 20029 30186 40204 55013 60001 86230
AAXX 15064 47827 12/60 43313 10149 20057 30153 40191 55014 60001 84500
AAXX 15064 47843 15/81 /3307 10097 20021 30191 40224 55009 60001
AAXX 15064 47893 12/80 62506 10155 20023 30149 40155 55017 60001 82102
AAXX 15064 47909 11/65 83407 10190 20116 30178 40188 55016 69901 76162 8287/
AAXX 15064 47918 11465 70708 10235 20188 30144 40161 56021 69901 70282 8687/
AAXX 15064 47936 11256 80212 10184 20171 30120 40179 56017 60041 76166 8772/
AAXX 15064 47945 11/65 80509 10218 20149 30143 40167 56018 69901 70262 8287/
AAXX 15064 47971 11/75 63205 10228 20179 30136 40146 55011 69951 70282 81232
AAXX 15064 47991 16/// /2503 10264 20190 30140 40150 55001 60001
AAXX 15064 16754 12560 11608 10092 20066 30194 40242 52009 60002 81200 333 20092 30/// 50030 55077 70000 90730 91109 555 10000 30130 20000 89065 99093 40000 47678 44205 50000 50080
AAXX 15061 44203 32999 20000 11350 21374 38521 40652 58015 80004
AAXX 15061 44207 32999 22302 11283 21320 38394 40538 58019 80001
AAXX 15061 44212 32998 50000 11240 21272 39302 40564 58004 83014
AAXX 15061 44213 32999 20000 11236 21286 38915 40553 57010 82030
AAXX 15061 44215 31997 70000 11241 21266 38493 40513 51001 71022 80008
AAXX 15061 44218 31596 73602 11202 21235 38700 40487 58014 74242 83660
AAXX 15061 44225 31993 00000 11379 21397 38381 40714 58009 74444
AAXX 15061 44230 32998 01801 11252 21297 38925 40582 58017
AAXX 15061 44232 32999 00000 11281 21319 39270 40560 57022
AAXX 15061 44237 32999 02306 11305 21349 38582 40562 58011
AAXX 15061 44239 32999 03002 11244 21300 38920 40506 56019
AAXX 15061 44241 32999 01804 11249 21274 39429 40528 58015
AAXX 15061 44256 32999 02905 11157 21208 39451 40369 58004
AAXX 15061 44265 32999 50000 11100 21153 38923 40383 58007 80002
AAXX 15061 44272 32998 02001 11188 21266 38289 40446 58010
AAXX 15061 44275 32998 00000 11200 21241 37786 40484 58006
AAXX 15061 44282 31999 01102 11160 21257 38376 40457 58018 70240
AAXX 15061 44284 32999 00000 11261 21318 37931 40636 58006
AAXX 15061 44285 32999 01501 11210 21275 38413 40519 58016
AAXX 15061 44287 32999 00000 11135 21241 38211 40485 58008
AAXX 15061 44294 32998 03503 11204 21251 38669 40516 57012
AAXX 15061 44298 32999 03203 11214 21220 38833 40481 58004
AAXX 15061 44302 32999 02903 11192 21256 39224 40432 58010
AAXX 15061 44305 32999 02905 11179 21253 39159 40413 58001
AAXX 15061 44313 32999 03203 11228 21276 39461 40386 54000
AAXX 15061 44314 32998 03407 11186 21235 39240 40485 52001
AAXX 15061 44317 32998 23205 11192 21241 39016 40420 58010 82100
AAXX 15061 44336 32999 00000 11182 21223 38816 4//// 57018
AAXX 15061 44341 32999 03307 11168 21226 38721 40499 56009
AAXX 15061 44347 32999 00000 11139 21210 38848 40475 58006
AAXX 15061 44352 32999 03205 11201 21242 39023 40439 51005
AAXX 15061 44358 32998 03204 11172 21206 39212 40456 52002
AAXX 15064 78922 46/// /3607 10253 20220 30060 40105 58014
AAXX 15061 08501 32/// /2010 10183 20141 30159 40194 57014 333 20161 30015 5//// 55039 20670 91018 91119
AAXX 15061 08505 NIL
AAXX 15061 08509 11460 32104 10172 20133 30183 40248 55001 69902 72581 83800 333 20147 50304 55068 81813 91013 91120
AAXX 15061 08512 NIL
AAXX 15061 08515 11375 62007 10162 20159 30166 40288 57001 69902 72581 86800 333 20144 31010 50294 55/// 81707 85815 910// 911//
AAXX 15061 08533 32/// /0601 10089 20084 30289 40319 52009 333 20082 30006 5//// 55019 20453 91111
AAXX 15061 08541 32/// /0301 10114 20078 30197 40318 52008 333 20108 30004 5//// 55037 20657
AAXX 15061 08545 11562 72602 10126 20072 30211 40295 52006 69992 70322 83832 333 20111 31008 50204 55029 20478 81820 83633 86072
AAXX 15061 08548 32/// /1702 10089 20075 30098 40308 52008 333 20089 30007 5//// 55012 20403
AAXX 15061 08554 32/// /0201 10090 20070 30306 40316 52008 333 20087 30010 5//// 55047 20705
AAXX 15061 08558 12/// /2301 10048 20048 30015 40321 52011 69912 333 20042 30000 5//// 55001 20612
AAXX 15061 08560 12/// /2402 10059 20054 39530 40305 52005 60022 333 20059 30004 5//// 55030 20522
AAXX 15061 08567 12/// /2804 10082 20062 39619 40293 52007 60012 333 20071 30006 5//// 55002 20261 91107
AAXX 15061 08570 32/// /2602 10076 20060 39841 40310 52012 333 20065 30005 5//// 55035 20555 91105
AAXX 15061 08575 32/// /9901 10060 20039 39466 40294 52013 333 20055 30004 5//// 55013 20372
AAXX 15061 08579 32/// /2401 10102 20082 30190 40317 52010 333 20102 30008 5//// 55041 20694
BBXX SKWI 15064 99414 70312 43/98 72242 10158 40125 56027 22263 00170 2//// 4////
AAXX 15064 64500 11360 71002 10248 20236 30102 40115 60484 70266 8457/ 333 87460
AAXX 15064 48554 01450 80000 10257 20253 30099 40103 57010 60021 71062 85817 333 59006 60027 70064
AAXX 15064 48353 31658 13502 10278 20160 39843 40130 70540 81100 333 59012
AAXX 15064 48405 32560 60405 10289 20181 39957 40118 57027 82556 333 59018
AAXX 15064 48426 31559 70302 10321 20188 30097 40110 57031 70522 83556 333 59021
AAXX 15060 44214 32998 60000 11203 21246 38335 40493 58013 84078
AAXX 15060 44231 31996 50000 11263 21318 38849 40594 58014 70400 80008
AAXX 15060 44259 32997 03004 11183 21243 39422 40400 56006
AAXX 15060 44277 32999 10202 11140 21201 37857 40469 58005 80004
AAXX 15060 44288 32999 01605 11129 21262 38252 40467 58013
AAXX 15060 44292 31995 02702 11208 21233 38827 40514 58011 70400
AAXX 15060 44304 32999 02302 11212 21252 39115 40475 58009
AAXX 15060 44354 32999 02905 11174 21224 39247 40466 52002
AAXX 15060 44373 32999 00201 11131 21211 38652 40456 58013
AAXX 15061 40706 11420 70702 11058 21102 38743 40372 52008 60001 70522 83646 333 3/110 42003 70000 83710 85268
AAXX 15061 40718 11557 82702 10094 20077 30339 40309 52013 60001 71022 8552/ 222// 00096 20102 333 30008 50081 70007 85625 88458
AAXX 15061 40732 12560 80000 10084 20052 30326 40302 52010 60001 8242/ 333 30001 50041 70000 82630 88460
AAXX 15061 40745 11208 81003 11014 21014 39154 40355 51014 60001 74842 886// 333 30105 70000 88704
AAXX 15061 40754 11950 30000 10052 21031 38913 40293 52012 60001 70511 80001 333 30101 5//// 70000 83070
AAXX 15061 40766 12960 70000 10022 21063 38755 40275 53006 60001 80006 333 30110 70000 87268
AAXX 15061 40800 11920 60000 10004 21006 38520 40291 51012 60001 71020 80006 333 30105 5///1 70000 86270
AAXX 15061 40811 11956 60000 10100 20012 30200 40227 52020 60001 70521 80007 333 30003 50141 70000 86270
AAXX 15061 40841 12960 30000 10058 21108 38325 40280 51004 60001 80001 333 30109 5//// 70000 83070
AAXX 15061 40848 12960 20000 10082 21041 38587 40262 51014 60001 80001 333 30106 50141 70000 82070
AAXX 15061 40856 12960 00000 10114 21139 38716 40273 51017 60001 333 30108 5//// 70000
AAXX 15061 40875 12965 00502 10216 21082 30205 40217 51012 60001 333 30002 50581 70000
AAXX 15061 40706 11420 70702 11058 21102 38743 40372 52008 60001 70522 83646 333 3/110 42003 70000 83710 85268
AAXX 15061 40718 11557 82702 10094 20077 30339 40309 52013 60001 71022 8552/ 222// 00096 20102 333 30008 50081 70007 85625 88458
AAXX 15061 40732 12560 80000 10084 20052 30326 40302 52010 60001 8242/ 333 30001 50041 70000 82630 88460
AAXX 15061 40745 11208 81003 11014 21014 39154 40355 51014 60001 74842 886// 333 30105 70000 88704
AAXX 15061 40754 11950 30000 10052 21031 38913 40293 52012 60001 70511 80001 333 30101 5//// 70000 83070
AAXX 15061 40766 12960 70000 10022 21063 38755 40275 53006 60001 80006 333 30110 70000 87268
AAXX 15061 40800 11920 60000 10004 21006 38520 40291 51012 60001 71020 80006 333 30105 5///1 70000 86270
AAXX 15061 40811 11956 60000 10100 20012 30200 40227 52020 60001 70521 80007 333 30003 50141 70000 86270
AAXX 15061 40841 12960 30000 10058 21108 38325 40280 51004 60001 80001 333 30109 5//// 70000 83070
AAXX 15061 40848 12960 20000 10082 21041 38587 40262 51014 60001 80001 333 30106 50141 70000 82070
AAXX 15061 40856 12960 00000 10114 21139 38716 40273 51017 60001 333 30108 5//// 70000
AAXX 15061 40875 12965 00502 10216 21082 30205 40217 51012 60001 333 30002 50581 70000
AAXX 15061 40706 11420 70702 11058 21102 38743 40372 52008 60001 70522 83646 333 3/110 42003 70000 83710 85268
AAXX 15061 40718 11557 82702 10094 20077 30339 40309 52013 60001 71022 8552/ 222// 00096 20102 333 30008 50081 70007 85625 88458
AAXX 15061 40732 12560 80000 10084 20052 30326 40302 52010 60001 8242/ 333 30001 50041 70000 82630 88460
AAXX 15061 40745 11208 81003 11014 21014 39154 40355 51014 60001 74842 886// 333 30105 70000 88704
AAXX 15061 40754 11950 30000 10052 21031 38913 40293 52012 60001 70511 80001 333 30101 5//// 70000 83070
AAXX 15061 40766 12960 70000 10022 21063 38755 40275 53006 60001 80006 333 30110 70000 87268
AAXX 15061 40800 11920 60000 10004 21006 38520 40291 51012 60001 71020 80006 333 30105 5///1 70000 86270
AAXX 15061 40811 11956 60000 10100 20012 30200 40227 52020 60001 70521 80007 333 30003 50141 70000 86270
AAXX 15061 40841 12960 30000 10058 21108 38325 40280 51004 60001 80001 333 30109 5//// 70000 83070
AAXX 15061 40848 12960 20000 10082 21041 38587 40262 51014 60001 80001 333 30106 50141 70000 82070
AAXX 15061 40856 12960 00000 10114 21139 38716 40273 51017 60001 333 30108 5//// 70000
AAXX 15061 40875 12965 00502 10216 21082 30205 40217 51012 60001 333 30002 50581 70000
AAXX 15064 48474 31957 30000 10313 20177 39985 40106 57024 70500 81035 333 59015
AAXX 15061 01008 11585 11214 11080 21134 30003 40037 58002 60002 73630 81500 333 21080 47012 70000 91119
AAXX 15061 01115 11882 81712 10071 20001 39715 49735 52006 60002 70222 8807/ 333 20056 70001 91117
AAXX 15061 45032 36/// /0004 10224 20069 30169 40186 57002
AAXX 15061 45035 36/// /0004 10214 20108 30142 40184 57001
AAXX 15061 45039 36/// /0203 10220 20094 30167 40182 57001
AAXX 15061 45044 36/// /3403 10237 20110 30087 40179 57003
AAXX 15061 28676 11997 82201 11250 21279 30218 40360 52009 69920 77177 88020 333 21260
AAXX 15061 28766 11996 43301 11239 21247 30157 40369 52016 69900 71071 84010 333 21243
AAXX 15061 28867 NIL
AAXX 15061 28879 11997 82802 11220 21247 30047 40365 52012 69940 77177 8801/ 333 21226
AAXX 15061 28952 NIL
AAXX 15061 28966 31995 60000 11270 21280 30064 40384 52013 71011 83035 333 21332
AAXX 15061 29802 11996 82502 11213 21232 30173 40331 52005 69960 77172 8802/ 333 21226
AAXX 15061 29807 32997 82501 11231 21266 30208 40339 52008 8802/ 333 21224
AAXX 15061 34691 31998 50000 11120 21126 30368 40355 52010 70242 85030 333 21099
AAXX 15061 35067 11996 82002 11205 21236 30078 40382 52004 69920 77172 8802/ 333 21266
AAXX 15061 35078 11497 62803 11257 21281 39962 40387 52009 69900 70271 82609 333 21309
AAXX 15061 35085 32998 83202 11219 21244 39835 40359 52009 83034 333 21248
AAXX 15061 35108 32997 31801 11172 21194 30345 40395 52004 83030 333 21204
AAXX 15061 35188 11997 82301 11232 21263 39893 40374 52012 69940 77177 8802/ 333 21263
AAXX 15061 35217 32998 30000 11226 21251 30360 40404 52009 83050 333 21217
AAXX 15061 35229 11996 80801 11202 21225 30122 40424 52006 69900 77172 8802/ 333 21271
AAXX 15061 35302 32998 21702 11236 21261 30371 40393 52004 80009 333 21238
AAXX 15061 35357 32997 20000 11211 21236 39907 40385 52013 80001 333 21243
AAXX 15061 35394 11998 22304 11153 21177 39635 40360 52008 69970 73673 82010 333 21194
AAXX 15061 35406 32997 30000 11192 21218 30394 40396 52010 83040 333 21215 93502
AAXX 15061 35416 32997 20000 11208 21245 30282 40416 52006 80001 333 21241
AAXX 15061 35426 32999 10000 11252 21283 30108 40437 52008 80001 333 21265
AAXX 15061 35497 11997 81601 11149 21176 39525 40378 52009 69960 77177 8802/ 333 21209
AAXX 15061 35532 32998 00000 11164 21198 39893 40426 52018 333 21203
AAXX 15061 35671 12998 02701 11165 21183 39943 40409 52016 69940 333 21193
AAXX 15061 35700 31/93 91202 11100 21100 30408 40383 52006 74942 333 21149
AAXX 15061 35746 32998 00202 11222 21261 30355 40429 52012 333 21233
AAXX 15061 35796 11997 02502 11169 21203 39940 40412 52017 69900 70400 333 21201
AAXX 15061 35849 32998 00000 11194 21227 30331 40426 52015 333 21219
AAXX 15061 35925 31995 81101 11060 21062 40399 52011 71022 8802/ 333 21070
AAXX 15061 35953 11999 20000 11134 21161 30276 40416 52016 69930 70171 82030 333 21184
AAXX 15061 35969 12599 70000 11062 21089 30231 40412 52016 69920 87500 333 21082
AAXX 15061 36003 11997 83103 11177 21195 30170 40334 52015 60020 70172 8807/ 333 21216
AAXX 15061 36152 11994 83210 11158 21192 30120 40322 52033 60010 77373 8802/ 333 21167
AAXX 15061 36177 11996 82405 11113 21141 30043 40301 52031 60010 77173 8807/ 333 21104
AAXX 15061 36208 11495 82802 11043 21055 39286 40279 52010 60060 77377 8872/ 333 21105
AAXX 15061 36397 11995 81608 11053 21098 39714 40289 51005 69970 73933 8802/ 333 21081
AAXX 15061 36428 31697 82004 11046 21062 39808 40318 52010 77172 8352/ 333 21132 95050
AAXX 15061 36535 11999 80000 11090 21110 39687 40344 52015 60030 70272 8802/ 333 21105
AAXX 15061 36639 11596 82701 11040 21062 39733 40352 52024 60070 77177 8802/ 333 21063
AAXX 15061 36821 12599 70000 11076 21086 39900 40413 52020 69970 87900 333 21084
AAXX 15061 36859 31/93 90801 11034 21038 39568 40371 52014 77174 333 21055 96045
AAXX 15061 36864 11596 80000 11032 21063 39460 40380 52010 60020 77177 8802/ 333 21054
AAXX 15061 36870 11497 80000 11041 21063 39337 40385 52007 60050 78588 889// 333 21047
AAXX 15061 38001 31497 80507 10022 21003 30364 40334 53008 76161 8872/ 333 20007
AAXX 15061 38062 32699 52601 11075 21135 30236 40409 53036 85400 333 21089
AAXX 15061 38069 32597 73101 11040 21059 30200 40399 52011 87500 333 21056
AAXX 15061 38196 NIL
AAXX 15061 38198 NIL
AAXX 15061 38222 12998 80000 11062 21093 39823 40409 52005 60020 8807/ 333 21065
AAXX 15061 38232 32598 81206 11025 21038 30274 40377 53010 885// 333 21039
AAXX 15061 38328 NIL
AAXX 15061 38334 NIL
AAXX 15061 38341 11595 80501 11059 21066 39572 40395 52010 60060 77377 8802/ 333 21070
AAXX 15061 38343 12698 81401 11056 21078 39515 40397 52013 60030 885// 333 21058
AAXX 15061 38439 NIL
AAXX 15061 45032 36/// /0004 10224 20069 30169 40186 57002
AAXX 15061 45035 36/// /0004 10214 20108 30142 40184 57001
AAXX 15061 45039 36/// /0203 10220 20094 30167 40182 57001
AAXX 15061 45044 36/// /3403 10237 20110 30087 40179 57003
AAXX 15061 28676 11997 82201 11250 21279 30218 40360 52009 69920 77177 88020 333 21260
AAXX 15061 28766 11996 43301 11239 21247 30157 40369 52016 69900 71071 84010 333 21243
AAXX 15061 28867 NIL
AAXX 15061 28879 11997 82802 11220 21247 30047 40365 52012 69940 77177 8801/ 333 21226
AAXX 15061 28952 NIL
AAXX 15061 28966 31995 60000 11270 21280 30064 40384 52013 71011 83035 333 21332
AAXX 15061 29802 11996 82502 11213 21232 30173 40331 52005 69960 77172 8802/ 333 21226
AAXX 15061 29807 32997 82501 11231 21266 30208 40339 52008 8802/ 333 21224
AAXX 15061 34691 31998 50000 11120 21126 30368 40355 52010 70242 85030 333 21099
AAXX 15061 35067 11996 82002 11205 21236 30078 40382 52004 69920 77172 8802/ 333 21266
AAXX 15061 35078 11497 62803 11257 21281 39962 40387 52009 69900 70271 82609 333 21309
AAXX 15061 35085 32998 83202 11219 21244 39835 40359 52009 83034 333 21248
AAXX 15061 35108 32997 31801 11172 21194 30345 40395 52004 83030 333 21204
AAXX 15061 35188 11997 82301 11232 21263 39893 40374 52012 69940 77177 8802/ 333 21263
AAXX 15061 35217 32998 30000 11226 21251 30360 40404 52009 83050 333 21217
AAXX 15061 35229 11996 80801 11202 21225 30122 40424 52006 69900 77172 8802/ 333 21271
AAXX 15061 35302 32998 21702 11236 21261 30371 40393 52004 80009 333 21238
AAXX 15061 35357 32997 20000 11211 21236 39907 40385 52013 80001 333 21243
AAXX 15061 35394 11998 22304 11153 21177 39635 40360 52008 69970 73673 82010 333 21194
AAXX 15061 35406 32997 30000 11192 21218 30394 40396 52010 83040 333 21215 93502
AAXX 15061 35416 32997 20000 11208 21245 30282 40416 52006 80001 333 21241
AAXX 15061 35426 32999 10000 11252 21283 30108 40437 52008 80001 333 21265
AAXX 15061 35497 11997 81601 11149 21176 39525 40378 52009 69960 77177 8802/ 333 21209
AAXX 15061 35532 32998 00000 11164 21198 39893 40426 52018 333 21203
AAXX 15061 35671 12998 02701 11165 21183 39943 40409 52016 69940 333 21193
AAXX 15061 35700 31/93 91202 11100 21100 30408 40383 52006 74942 333 21149
AAXX 15061 35746 32998 00202 11222 21261 30355 40429 52012 333 21233
AAXX 15061 35796 11997 02502 11169 21203 39940 40412 52017 69900 70400 333 21201
AAXX 15061 35849 32998 00000 11194 21227 30331 40426 52015 333 21219
AAXX 15061 35925 31995 81101 11060 21062 40399 52011 71022 8802/ 333 21070
AAXX 15061 35953 11999 20000 11134 21161 30276 40416 52016 69930 70171 82030 333 21184
AAXX 15061 35969 12599 70000 11062 21089 30231 40412 52016 69920 87500 333 21082
AAXX 15061 36003 11997 83103 11177 21195 30170 40334 52015 60020 70172 8807/ 333 21216
AAXX 15061 36152 11994 83210 11158 21192 30120 40322 52033 60010 77373 8802/ 333 21167
AAXX 15061 36177 11996 82405 11113 21141 30043 40301 52031 60010 77173 8807/ 333 21104
AAXX 15061 36208 11495 82802 11043 21055 39286 40279 52010 60060 77377 8872/ 333 21105
AAXX 15061 36397 11995 81608 11053 21098 39714 40289 51005 69970 73933 8802/ 333 21081
AAXX 15061 36428 31697 82004 11046 21062 39808 40318 52010 77172 8352/ 333 21132 95050
AAXX 15061 36535 11999 80000 11090 21110 39687 40344 52015 60030 70272 8802/ 333 21105
AAXX 15061 36639 11596 82701 11040 21062 39733 40352 52024 60070 77177 8802/ 333 21063
AAXX 15061 36821 12599 70000 11076 21086 39900 40413 52020 69970 87900 333 21084
AAXX 15061 36859 31/93 90801 11034 21038 39568 40371 52014 77174 333 21055 96045
AAXX 15061 36864 11596 80000 11032 21063 39460 40380 52010 60020 77177 8802/ 333 21054
AAXX 15061 36870 11497 80000 11041 21063 39337 40385 52007 60050 78588 889// 333 21047
AAXX 15061 38001 31497 80507 10022 21003 30364 40334 53008 76161 8872/ 333 20007
AAXX 15061 38062 32699 52601 11075 21135 30236 40409 53036 85400 333 21089
AAXX 15061 38069 32597 73101 11040 21059 30200 40399 52011 87500 333 21056
AAXX 15061 38196 NIL
AAXX 15061 38198 NIL
AAXX 15061 38222 12998 80000 11062 21093 39823 40409 52005 60020 8807/ 333 21065
AAXX 15061 38232 32598 81206 11025 21038 30274 40377 53010 885// 333 21039
AAXX 15061 38328 NIL
AAXX 15061 38334 NIL
AAXX 15061 38341 11595 80501 11059 21066 39572 40395 52010 60060 77377 8802/ 333 21070
AAXX 15061 38343 12698 81401 11056 21078 39515 40397 52013 60030 885// 333 21058
AAXX 15061 38439 NIL
AAXX 15061 48806 32460 71801 10188 20115 39411 40188 58025 878// 333 58016 84894 87697
AAXX 15064 NIL
AAXX 15064 NIL
AAXX 15064 NIL
AAXX 15064 NIL
AAXX 15064 NIL
AAXX 15064 82022 NIL
AAXX 15064 82193 NIL
AAXX 15064 82281 32470 40711 10264 20197 30021 40083 84500 333 58002
AAXX 15064 82332 21430 70305 10260 20241 39989 40081 79592 86930 333 58005 69921
AAXX 15064 82398 32470 41013 10249 20205 30067 40096 84500 333 58008
AAXX 15064 82400 NIL
AAXX 15064 82579 32970 00000 10257 20237 30000 40076 333 58000
AAXX 15064 82917 31150 72502 10254 20251 39871 40088 71022 85630 333 59006
AAXX 15064 82965 NIL
AAXX 15064 82993 32570 20505 10226 20209 39982 40118 82100 333 59012
AAXX 15064 83208 NIL
AAXX 15064 83349 21570 60406 10258 20227 30111 40117 72161 83250 333 58005 69921
AAXX 15064 83362 32270 43604 10240 20214 39859 40072 85530 333 59003
AAXX 15064 83378 21464 73206 10192 20177 38931 48500 76062 84520 333 59003 60031
AAXX 15064 83460 32570 20505 10228 20206 30060 40117 82100 333 58007
AAXX 15064 83497 NIL
AAXX 15064 83566 21570 61502 10170 20167 39175 48490 72196 84130 333 59005 60021
AAXX 15064 83599 NIL
AAXX 15064 83612 32970 01406 10178 20117 39453 48490 56010
AAXX 15064 83649 32570 60107 10241 20220 30111 40116 56013 84530
AAXX 15064 83650 NIL
AAXX 15064 83780 21858 50605 10201 20189 39180 48480 54002 72162 85040 333 60671
AAXX 15064 83827 32970 00000 10143 20133 39798 40074 55006
AAXX 15064 83840 21256 60303 10177 20167 39054 48460 56012 72052 86400 333 60041
AAXX 15064 83899 21465 53404 10211 20201 30047 40053 56017 71061 85500 333 69971
AAXX 15064 83925 NIL
AAXX 15064 83970 NIL
AAXX 15064 83971 22970 52806 10163 20160 30061 40065 52011 85500 333 60021
AAXX 15064 NIL
AAXX 15064 03896 16/// ///// 10086 60072 333 20055 55022
AAXX 15064 NIL
AAXX 15064 82143 NIL
AAXX 15064 82599 32570 21006 10246 20218 30035 40095 82100 333 59004
AAXX 15064 82824 32470 50000 10247 20235 39978 40079 82530 333 59010
AAXX 15064 82899 32570 41008 1//// 2//// 30105 40117 84200 333 58016
AAXX 15064 83117 NIL
AAXX 15064 83248 32470 30304 10251 20221 30090 40112 83100 333 59004
AAXX 15064 83746 32470 71306 10260 20209 30049 40059 56014 82530
AAXX 15064 NIL
BBXX WBN3015 15064 99298 70721 41/// /3620 10194 2//// 40200 51003 7//// 8//// 22272 0//// 20605 33604 40804 50601 6//// 8//// ICE /////
BBXX PBAD 15061 99075 70798 41398 73109 10260 20231 40090 57011 70022 879// 22214 00270 20501 3//// 4//// 5//// 80240
BBXX V7NV4 15064 99225 71153 41798 83624 10200 20153 40190 52005 70321 87332 22273 00250 20204 30303 40204 50202 6//// 80170 ICE /////
BBXX PCHM 15064 99368 31747 41296 33005 10190 20190 40029 58012 70286 82716 22200 00190 20000 30000 80190
BBXX 9HA2066 15064 99268 71147 419// 23419 10150 20150 40220 50/// 7//// 82//8 22224 00150 21104 305// 40804 5//// 6//// 80150 ICE /////
BBXX PDGS 15064 99138 70916 41/98 82903 10267 40133 51015 70222 8//// 22262 00293 2////
BBXX C6VG7 15064 99189 70794 415// 40535 10260 2//// 40150 5/000 7//11 84/6/ 22274 0//// 20306 3//// 40306 50306 6//// 8//// ICE /////
BBXX PBWQ 15064 99181 70644 41498 40231 10258 20215 40122 57008 70381 842// 22224 04282 20405
BBXX PHET 15061 99189 70644 41/98 /0314 10254 20206 40110 54000 70222 8//// 22234 00280 2//// 3//// 4//// 5////
BBXX C6FM8 15064 99278 70800 41798 60830 10220 20158 40220 54000 7//// 862// 22283 04251 2//// 3//// 4//// 5//// 6//// 85180 ICE /////
BBXX HPHV 15064 99280 70945 41/// 91410 10200 20169 40200 54000 7//// 8//// 222// 0//// 20501 31414 40501 50501 6//// 80180 ICE /////
AAXX 15064 40401 41958 40000 10133 21080 39464 40175 70600 80001 333 20080 5902 5 84070
AAXX 15064 88883 46/// /1501 10071 20051 40201 52002
AAXX 15064 88897 46/// /0608 10085 20077 40194 52002
AAXX 15061 30372 42999 20000 11296 21320 39452 40433 58021 80002
AAXX 15061 30433 42999 20302 11191 21240 39793 40441 58012 80001
AAXX 15061 30554 42998 51701 11223 21272 39219 40411 57012 80001
AAXX 15061 30635 42899 21302 11206 21255 39821 40449 58007 82030
AAXX 15061 30673 42999 12001 11144 21226 39507 40319 58006 80001
AAXX 15061 30692 NIL
AAXX 15061 30758 41998 00000 11211 21251 39522 40420 58014 70400
AAXX 15061 30802 42999 12401 11130 21191 38794 48549 57021 81030
AAXX 15061 30823 42999 02601 11168 21210 39756 40444 58012
AAXX 15061 30879 42999 03208 11164 21224 39506 40316 58002
AAXX 15061 30935 42999 02301 11161 21203 39453 40462 58013
AAXX 15061 30949 42999 00000 11134 21195 39235 40394 58014
AAXX 15061 30965 42999 03303 11202 21243 39481 40379 57011
AAXX 15061 31168 42999 13204 11218 21306 30136 40148 54000 80009
AAXX 15061 31300 42999 03403 11189 21268 39924 40235 53001
AAXX 15061 31329 42999 60000 11300 21345 39491 40237 57006 80002
AAXX 15061 31369 41598 82702 11213 21231 30049 40140 57003 78582 82932
AAXX 15061 31416 42999 60000 11211 21251 30068 40164 57003 82019
AAXX 15061 31484 42999 02301 11199 21256 39809 40170 57011
AAXX 15061 31512 429// 02903 11178 21247 30056 40235 54000
AAXX 15061 31538 42999 02402 11210 21259 39734 40201 57003
AAXX 15061 31707 42999 23401 11158 21239 30114 40212 57006 82071
AAXX 15061 31735 42997 42406 11188 21247 30087 40182 52005 80001
AAXX 15061 31770 42599 23602 11130 21213 30094 40126 53005 81401
AAXX 15064 NIL
AAXX 15061 20107 31997 20706 11058 21125 39935 40031 57003 73630 80001 333 21065 91009 91111
AAXX 15061 22113 32584 31605 10004 21026 39920 49983 52005 83500 333 20002 47010 91008 91113
AAXX 15061 22217 12468 81604 10004 21007 39975 40007 56003 69902 886// 333 20000 43020 85715 91008
AAXX 15061 22235 11214 81803 10000 21003 39840 40034 52001 69952 70282 886// 333 21008 47019 88706 91005
AAXX 15061 22349 11496 81908 10008 21003 30051 40063 58002 60022 78582 889// 333 20002 43002 91009 91115
AAXX 15061 22408 32684 71603 10008 20000 39866 40014 57005 87500 333 21004 43008 87635
AAXX 15061 22602 11373 81503 10012 20004 39802 40026 52002 69932 70262 885// 333 20005 43012 88608
AAXX 15061 22619 31259 81803 10012 20004 39897 40058 52007 71022 886// 333 20005 44007 88706
AAXX 15061 22721 11397 80000 10009 20006 39971 40072 52004 60042 70275 886// 333 20001 43033 88708
AAXX 15061 22802 32581 81406 10031 20020 30008 40031 57025 885// 333 20027 41998 91012 91113
AAXX 15061 22820 12484 81603 10012 20007 39938 40077 58004 60032 8455/ 333 20005 43007
AAXX 15061 26059 11497 81505 10051 20044 39965 49990 56025 60022 76162 8872/ 333 20028 86711 91111
AAXX 15061 26063 11497 81103 10049 20032 30005 40013 57037 69902 76162 8872/ 333 20033
AAXX 15061 26094 12470 81604 10027 20017 30004 40079 58028 60012 886// 333 20016 43007 88714
AAXX 15061 26157 11496 81710 10053 20048 39938 49987 57019 60022 78082 889// 333 20028 86710 91115
AAXX 15061 26167 11341 81805 10048 20038 39918 40028 57028 60012 76362 8872/ 333 20028 88709 91112
AAXX 15061 26258 11497 81806 10052 20040 39959 40014 57024 60032 76062 8872/ 333 20034 91115
AAXX 15061 26298 11596 71605 10020 20012 39889 40120 57019 69912 71022 87500 333 20019 42002
AAXX 15061 26359 11580 71806 10055 20033 39913 40045 57019 69902 76162 875// 333 20036 91113
AAXX 15061 26702 11596 72902 10049 20032 30015 40041 52023 60072 71062 87500 333 20049 91006 91108
AAXX 15061 26781 11194 81604 10028 20025 39849 40141 57011 69962 71062 886// 333 20028 88703
AAXX 15061 27208 11496 81805 10017 20012 39974 40151 58002 60012 71022 886// 333 20015 42002
AAXX 15061 27402 32397 81604 10016 20008 39989 40171 58004 886// 333 20016 41998 88707
AAXX 15061 40701 11530 80000 11066 21074 38683 40365 53004 60001 71022 886/' 333 30107 70000 85720 86635
AAXX 15061 40704 12665 70000 11032 21061 38683 40330 52003 60001 81520 333 3/113 43010 70000 81640 87458
AAXX 15061 40708 11430 70000 11048 21061 38736 40322 52006 60001 71020 82676 333 3/111 46003 70000 82715 84358 86267
AAXX 15061 40710 11640 59901 11122 21137 38389 40421 53003 60001 71010 81501 333 3/121 48008 70000 81635 85067
AAXX 15061 40713 11635 80000 11018 21057 38747 40328 52007 60001 70522 8352/ 333 34103 70000 83640 88459
AAXX 15061 40719 11540 80000 10088 20071 30321 40310 52010 60001 71022 8551/ 333 31002 50091 70000 85620 88458
AAXX 15061 40731 11940 60601 10052 21022 38818 40303 52013 60001 70522 80006 333 30106 70000 86270
AAXX 15061 40738 11650 60000 10064 20055 30237 40239 52011 60001 71021 82506 333 31104 5///1 70000 82635 86270
AAXX 15061 40740 12960 61104 11036 21041 38816 40344 52011 60001 80006 333 3/112 47003 70000 86270
AAXX 15061 40747 11957 60000 11006 21041 38695 40290 50008 60001 70522 83078 333 30106 70000 83360 85269
AAXX 15061 40757 12965 20000 10082 21038 38985 40296 52006 60001 80002 333 30104 70000 82070
AAXX 15061 40763 12965 50000 10052 21073 39012 40317 51012 60001 80006 333 30104 70000 85269
AAXX 15061 40782 12964 70000 10034 21038 38940 40274 52013 60001 80006 333 30107 5//// 70000 87269
AAXX 15061 40783 12965 81105 10028 21077 38037 40262 51007 60001 8801/ 333 30104 5//// 70000 88460
AAXX 15061 40789 16965 50000 10060 21039 39303 40306 51014 60001 80006 333 30102 50181 70000 85270
AAXX 15061 40798 12960 80000 11010 21091 38025 40284 51011 60001 80007 333 30110 70000 88270
AAXX 15061 40818 12970 63502 10032 21086 38033 40263 53009 60001 80006 333 30104 5///1 70000 86270
AAXX 15061 40827 12970 00000 10078 21109 38923 40323 53013 60001 333 30105 5//// 70000
AAXX 15061 40836 12963 40000 10054 21068 38254 40264 51005 60001 80005 333 30108 5///1 70000 84268
AAXX 15061 40851 12960 00000 10076 21122 38332 40266 52012 60001 333 30109 5//// 70000
AAXX 15061 40853 12965 20000 10112 21097 37810 40222 52013 60001 80001 333 30107 5//// 70000 82070
AAXX 15061 40854 12960 00000 10118 21073 39036 40263 52008 60001 333 30001 50221 70000
AAXX 15061 40857 12960 40403 10170 20084 30212 40222 52014 60001 80002 222// 00182 20301 333 30007 50151 70000 84070
AAXX 15061 40859 12965 20000 10120 21038 38774 40229 52011 60001 80001 333 30103 50251 70000 82070
AAXX 15061 40878 12965 00404 10137 21137 38915 40263 51012 60001 333 30100 5//// 70000
AAXX 15061 40879 12970 00000 10158 21116 39559 40250 50005 60001 333 30003 50391 70000
AAXX 15061 40883 12960 00806 10226 20066 30186 40209 51015 60001 222// 00224 20501 333 30009 50401 70000
AAXX 15061 40898 12962 00202 10242 21006 30190 40199 51022 60001 222// 00243 10900 333 30015 50571 70000
AAXX 15064 NIL
AAXX 15061 40703 11658 80000 11034 21051 39025 40355 53013 60001 71022 8452/ 333 34105 70000 84640 88458
AAXX 15061 40712 11615 80302 11016 21054 38766 40329 52005 60001 70522 8352/ 333 34104 70000 83640 88460
AAXX 15061 40729 12960 61002 11006 21053 38403 40317 51003 60001 80006 333 30110 70000 86268
AAXX 15061 40736 12960 00000 10062 20033 30334 40308 53009 60001 80006 333 30001 50021 70000 86269
AAXX 15061 40739 12965 60000 10006 21044 38775 40325 51011 60001 80008 333 30105 70000 86269
AAXX 15061 40743 12965 50805 10036 21059 39166 40323 51009 60001 80006 333 30104 70000 85270
AAXX 15061 40762 12965 41502 10027 21085 38638 40315 52012 60001 80002 333 30108 70000 84070
AAXX 15061 40768 12960 80000 11015 21045 38324 40316 52008 60001 80007 333 34107 70000 88268
AAXX 15061 40769 11940 70000 11004 21057 38362 40291 51012 60001 70520 82076 333 30106 5//// 70000 82360 87269
AAXX 15061 40785 12960 00000 10044 21019 39176 40305 53012 60001 333 30101 5///1 70000
AAXX 15061 40809 12962 10000 10082 21161 38581 40299 51009 60001 80001 333 30108 70000
AAXX 15061 40821 11956 70000 10070 21042 38876 40302 51010 60001 70521 80008 333 30103 50151 70000 87270
AAXX 15061 40831 12960 60000 10106 20026 30222 40231 52013 60001 80002 333 30001 50251 70000 86070
AAXX 15064 70133 32466 80905 11128 21150 30115 40122 56005 90553 333 11072 21133 555 91506
AAXX 15064 70174 32666 23603 11239 21261 39875 40135 56007 90553 333 11111 21267 4/076 555 91506
AAXX 15064 70200 32466 40000 11156 21183 30059 40065 57023 90553 333 11061 21222 555 91506
AAXX 15064 70219 11966 00423 11106 21133 39888 49945 56035 69901 771// 90553 333 11106 21150 91028 555 91506
AAXX 15064 70231 35966 03205 11178 21200 39925 40058 58022 90553 333 11106 21206 555 91506
AAXX 15064 70261 32366 60000 11222 21244 39914 40099 58005 90553 333 11067 21222 555 91506
AAXX 15064 70267 32966 40000 11167 21183 39599 40104 58003 90553 333 11106 21172 555 91506
AAXX 15064 70271 12466 40000 11194 21217 39483 40101 58004 69901 90553 333 11117 21200 4/010 555 91506
AAXX 15064 70273 12766 60107 11072 21106 39986 40048 58012 69901 90553 333 11067 21106 4/051 555 91506
AAXX 15064 70316 15566 81325 10044 20006 39590 49623 56045 60031 90553 333 10044 21027 91039 555 91506
AAXX 15064 70326 32966 60919 10028 21017 39869 49883 58049 90554 333 10028 21072 91027 555 91506
AAXX 15064 70340 32666 60814 10028 21022 39904 49964 58040 90553 333 10028 21067 91020 555 91506
AAXX 15064 70350 12366 61112 10028 20011 39909 49949 58039 69901 90553 333 10033 20017 555 91506
AAXX 15064 70361 17461 81009 10011 20000 30111 40122 53002 60041 771// 90553 333 10011 21016 91014 555 91506
AAXX 15064 70381 32166 40706 11006 21011 30159 40167 58002 90553 333 10011 21011 555 91506
AAXX 15064 70414 35966 02811 11028 21078 39822 49859 51020 90556 333 11006 21033 555 91506
AAXX 15061 40701 11530 80000 11066 21074 38683 40365 53004 60001 71022 886/' 333 30107 70000 85720 86635
AAXX 15061 40704 12665 70000 11032 21061 38683 40330 52003 60001 81520 333 3/113 43010 70000 81640 87458
AAXX 15061 40708 11430 70000 11048 21061 38736 40322 52006 60001 71020 82676 333 3/111 46003 70000 82715 84358 86267
AAXX 15061 40710 11640 59901 11122 21137 38389 40421 53003 60001 71010 81501 333 3/121 48008 70000 81635 85067
AAXX 15061 40713 11635 80000 11018 21057 38747 40328 52007 60001 70522 8352/ 333 34103 70000 83640 88459
AAXX 15061 40719 11540 80000 10088 20071 30321 40310 52010 60001 71022 8551/ 333 31002 50091 70000 85620 88458
AAXX 15061 40731 11940 60601 10052 21022 38818 40303 52013 60001 70522 80006 333 30106 70000 86270
AAXX 15061 40738 11650 60000 10064 20055 30237 40239 52011 60001 71021 82506 333 31104 5///1 70000 82635 86270
AAXX 15061 40740 12960 61104 11036 21041 38816 40344 52011 60001 80006 333 3/112 47003 70000 86270
AAXX 15061 40747 11957 60000 11006 21041 38695 40290 50008 60001 70522 83078 333 30106 70000 83360 85269
AAXX 15061 40757 12965 20000 10082 21038 38985 40296 52006 60001 80002 333 30104 70000 82070
AAXX 15061 40763 12965 50000 10052 21073 39012 40317 51012 60001 80006 333 30104 70000 85269
AAXX 15061 40782 12964 70000 10034 21038 38940 40274 52013 60001 80006 333 30107 5//// 70000 87269
AAXX 15061 40783 12965 81105 10028 21077 38037 40262 51007 60001 8801/ 333 30104 5//// 70000 88460
AAXX 15061 40789 16965 50000 10060 21039 39303 40306 51014 60001 80006 333 30102 50181 70000 85270
AAXX 15061 40798 12960 80000 11010 21091 38025 40284 51011 60001 80007 333 30110 70000 88270
AAXX 15061 40818 12970 63502 10032 21086 38033 40263 53009 60001 80006 333 30104 5///1 70000 86270
AAXX 15061 40827 12970 00000 10078 21109 38923 40323 53013 60001 333 30105 5//// 70000
AAXX 15061 40836 12963 40000 10054 21068 38254 40264 51005 60001 80005 333 30108 5///1 70000 84268
AAXX 15061 40851 12960 00000 10076 21122 38332 40266 52012 60001 333 30109 5//// 70000
AAXX 15061 40853 12965 20000 10112 21097 37810 40222 52013 60001 80001 333 30107 5//// 70000 82070
AAXX 15061 40854 12960 00000 10118 21073 39036 40263 52008 60001 333 30001 50221 70000
AAXX 15061 40857 12960 40403 10170 20084 30212 40222 52014 60001 80002 222// 00182 20301 333 30007 50151 70000 84070
AAXX 15061 40859 12965 20000 10120 21038 38774 40229 52011 60001 80001 333 30103 50251 70000 82070
AAXX 15061 40878 12965 00404 10137 21137 38915 40263 51012 60001 333 30100 5//// 70000
AAXX 15061 40879 12970 00000 10158 21116 39559 40250 50005 60001 333 30003 50391 70000
AAXX 15061 40883 12960 00806 10226 20066 30186 40209 51015 60001 222// 00224 20501 333 30009 50401 70000
AAXX 15061 40898 12962 00202 10242 21006 30190 40199 51022 60001 222// 00243 10900 333 30015 50571 70000
AAXX 15064 78526 11416 80114 10233 20228 30105 40128 58009 60141 765// 90556 333 10267 20233 91023 96010 555 91506
AAXX 15064 78543 35566 8//05 10260 20210 30038 90608 333 91019 555 91506
AAXX 15061 40703 11658 80000 11034 21051 39025 40355 53013 60001 71022 8452/ 333 34105 70000 84640 88458
AAXX 15061 40712 11615 80302 11016 21054 38766 40329 52005 60001 70522 8352/ 333 34104 70000 83640 88460
AAXX 15061 40729 12960 61002 11006 21053 38403 40317 51003 60001 80006 333 30110 70000 86268
AAXX 15061 40736 12960 00000 10062 20033 30334 40308 53009 60001 80006 333 30001 50021 70000 86269
AAXX 15061 40739 12965 60000 10006 21044 38775 40325 51011 60001 80008 333 30105 70000 86269
AAXX 15061 40743 12965 50805 10036 21059 39166 40323 51009 60001 80006 333 30104 70000 85270
AAXX 15061 40762 12965 41502 10027 21085 38638 40315 52012 60001 80002 333 30108 70000 84070
AAXX 15061 40768 12960 80000 11015 21045 38324 40316 52008 60001 80007 333 34107 70000 88268
AAXX 15061 40769 11940 70000 11004 21057 38362 40291 51012 60001 70520 82076 333 30106 5//// 70000 82360 87269
AAXX 15061 40785 12960 00000 10044 21019 39176 40305 53012 60001 333 30101 5///1 70000
AAXX 15061 40809 12962 10000 10082 21161 38581 40299 51009 60001 80001 333 30108 70000
AAXX 15061 40821 11956 70000 10070 21042 38876 40302 51010 60001 70521 80008 333 30103 50151 70000 87270
AAXX 15061 40831 12960 60000 10106 20026 30222 40231 52013 60001 80002 333 30001 50251 70000 86070
AAXX 15061 40701 11530 80000 11066 21074 38683 40365 53004 60001 71022 886/' 333 30107 70000 85720 86635
AAXX 15061 40704 12665 70000 11032 21061 38683 40330 52003 60001 81520 333 3/113 43010 70000 81640 87458
AAXX 15061 40708 11430 70000 11048 21061 38736 40322 52006 60001 71020 82676 333 3/111 46003 70000 82715 84358 86267
AAXX 15061 40710 11640 59901 11122 21137 38389 40421 53003 60001 71010 81501 333 3/121 48008 70000 81635 85067
AAXX 15061 40713 11635 80000 11018 21057 38747 40328 52007 60001 70522 8352/ 333 34103 70000 83640 88459
AAXX 15061 40719 11540 80000 10088 20071 30321 40310 52010 60001 71022 8551/ 333 31002 50091 70000 85620 88458
AAXX 15061 40731 11940 60601 10052 21022 38818 40303 52013 60001 70522 80006 333 30106 70000 86270
AAXX 15061 40738 11650 60000 10064 20055 30237 40239 52011 60001 71021 82506 333 31104 5///1 70000 82635 86270
AAXX 15061 40740 12960 61104 11036 21041 38816 40344 52011 60001 80006 333 3/112 47003 70000 86270
AAXX 15061 40747 11957 60000 11006 21041 38695 40290 50008 60001 70522 83078 333 30106 70000 83360 85269
AAXX 15061 40757 12965 20000 10082 21038 38985 40296 52006 60001 80002 333 30104 70000 82070
AAXX 15061 40763 12965 50000 10052 21073 39012 40317 51012 60001 80006 333 30104 70000 85269
AAXX 15061 40782 12964 70000 10034 21038 38940 40274 52013 60001 80006 333 30107 5//// 70000 87269
AAXX 15061 40783 12965 81105 10028 21077 38037 40262 51007 60001 8801/ 333 30104 5//// 70000 88460
AAXX 15061 40789 16965 50000 10060 21039 39303 40306 51014 60001 80006 333 30102 50181 70000 85270
AAXX 15061 40798 12960 80000 11010 21091 38025 40284 51011 60001 80007 333 30110 70000 88270
AAXX 15061 40818 12970 63502 10032 21086 38033 40263 53009 60001 80006 333 30104 5///1 70000 86270
AAXX 15061 40827 12970 00000 10078 21109 38923 40323 53013 60001 333 30105 5//// 70000
AAXX 15061 40836 12963 40000 10054 21068 38254 40264 51005 60001 80005 333 30108 5///1 70000 84268
AAXX 15061 40851 12960 00000 10076 21122 38332 40266 52012 60001 333 30109 5//// 70000
AAXX 15061 40853 12965 20000 10112 21097 37810 40222 52013 60001 80001 333 30107 5//// 70000 82070
AAXX 15061 40854 12960 00000 10118 21073 39036 40263 52008 60001 333 30001 50221 70000
AAXX 15061 40857 12960 40403 10170 20084 30212 40222 52014 60001 80002 222// 00182 20301 333 30007 50151 70000 84070
AAXX 15061 40859 12965 20000 10120 21038 38774 40229 52011 60001 80001 333 30103 50251 70000 82070
AAXX 15061 40878 12965 00404 10137 21137 38915 40263 51012 60001 333 30100 5//// 70000
AAXX 15061 40879 12970 00000 10158 21116 39559 40250 50005 60001 333 30003 50391 70000
AAXX 15061 40883 12960 00806 10226 20066 30186 40209 51015 60001 222// 00224 20501 333 30009 50401 70000
AAXX 15061 40898 12962 00202 10242 21006 30190 40199 51022 60001 222// 00243 10900 333 30015 50571 70000
AAXX 15061 40703 11658 80000 11034 21051 39025 40355 53013 60001 71022 8452/ 333 34105 70000 84640 88458
AAXX 15061 40712 11615 80302 11016 21054 38766 40329 52005 60001 70522 8352/ 333 34104 70000 83640 88460
AAXX 15061 40729 12960 61002 11006 21053 38403 40317 51003 60001 80006 333 30110 70000 86268
AAXX 15061 40736 12960 00000 10062 20033 30334 40308 53009 60001 80006 333 30001 50021 70000 86269
AAXX 15061 40739 12965 60000 10006 21044 38775 40325 51011 60001 80008 333 30105 70000 86269
AAXX 15061 40743 12965 50805 10036 21059 39166 40323 51009 60001 80006 333 30104 70000 85270
AAXX 15061 40762 12965 41502 10027 21085 38638 40315 52012 60001 80002 333 30108 70000 84070
AAXX 15061 40768 12960 80000 11015 21045 38324 40316 52008 60001 80007 333 34107 70000 88268
AAXX 15061 40769 11940 70000 11004 21057 38362 40291 51012 60001 70520 82076 333 30106 5//// 70000 82360 87269
AAXX 15061 40785 12960 00000 10044 21019 39176 40305 53012 60001 333 30101 5///1 70000
AAXX 15061 40809 12962 10000 10082 21161 38581 40299 51009 60001 80001 333 30108 70000
AAXX 15061 40821 11956 70000 10070 21042 38876 40302 51010 60001 70521 80008 333 30103 50151 70000 87270
AAXX 15061 40831 12960 60000 10106 20026 30222 40231 52013 60001 80002 333 30001 50251 70000 86070
AAXX 15064 41858 31302 82706 10154 20150 30128 40176 74444 8562/ 333 56699 59005 70000 85708 88458
AAXX 15064 41863 NIL
AAXX 15064 41886 31906 93202 10158 20150 30142 40163 74344 89/// 333 59001 70000
AAXX 15064 41895 31950 03603 10181 20130 30148 40171 70544 333 59005 70000
AAXX 15064 41909 31450 33602 10180 20130 30145 40157 70542 83500 333 56800 59007 70000 83618
AAXX 15064 41915 NIL
AAXX 15064 41926 NIL
AAXX 15064 41929 31950 03603 10284 20230 30152 40161 70544 333 58017 70000
AAXX 15064 41933 NIL
AAXX 15064 41939 NIL
AAXX 15064 41941 NIL
AAXX 15064 41946 32956 03604 10204 20140 30162 40167 333 59008 70000
AAXX 15064 41947 NIL
AAXX 15064 41951 NIL
AAXX 15064 41953 31940 03104 10185 20140 30150 40156 70544 333 59007 70000
AAXX 15064 41958 NIL
AAXX 15064 41960 NIL
AAXX 15064 41963 NIL
AAXX 15064 41964 NIL
AAXX 15064 41965 NIL
AAXX 15064 41966 NIL
AAXX 15064 41984 NIL
AAXX 15064 41989 NIL
AAXX 15064 41998 32956 03402 10260 20140 30133 40139 333 59008 70000
BBXX 46078 15061 99561 71526 46/// /1217 10042 20015 49880 57071 90550 333 91221 555 11177 22190
BBXX 41037 15061 99340 70775 46/// /1003 10160 40235 58011 90600 22200 00208 333 91205
AAXX 15061 22028 32981 62011 11001 21024 39959 49997 58003 83044 333 21012 44006 91015 91117
AAXX 15061 22106 32698 71502 10011 21018 39897 49974 52003 83530 333 20001 47009 91005
AAXX 15061 22127 12598 72002 10002 21033 39812 40012 51001 69912 86530 333 21006 43017 86624 91005
AAXX 15061 22324 12584 71505 10007 21001 39976 40026 53001 69902 87900 333 20006 43010 91007
AAXX 15061 22621 11498 82005 10010 20002 39920 40059 52004 60022 72522 889// 333 20002 43011 85917
AAXX 15061 22831 11497 81601 10012 20009 30043 40103 52010 60042 70282 889// 333 20001 43030
AAXX 15061 22892 11497 81306 10024 20016 39987 40003 57034 60042 76162 8802/ 333 20023 88518 91110
AAXX 15061 26275 32498 81806 10051 20037 30030 40060 57032 885// 333 20031
AAXX 15061 26389 31458 81704 10023 20015 39849 40114 58021 71022 886// 333 20020 42001
AAXX 15061 26499 12297 81604 10016 20005 39926 40158 57019 69932 886// 333 20016 42997 88704 91112
AAXX 15061 26695 11195 81704 10016 20013 39861 40172 57017 69902 75152 886// 333 20011 43002 88703
AAXX 15061 26882 11332 81605 10029 20024 39882 40158 57014 69942 75065 886// 333 20022 88708
AAXX 15061 26997 11323 81804 10029 20027 39974 40196 57006 69922 75152 886// 333 20020 88707
AAXX 15061 27595 11497 82502 11035 21046 30122 40275 58006 60070 77172 8802/ 333 21059
AAXX 15061 27612 11396 81802 10021 20016 30003 40198 57011 69912 71052 886// 333 20016 43003
AAXX 15061 27707 11/05 91602 10012 20012 39892 40188 57012 69942 74544 333 21008 43001
AAXX 15061 27719 11294 81503 10010 20007 39970 40224 58008 69942 71052 886// 333 20009 42001
AAXX 15061 27786 11497 82107 21062 30143 40309 52004 69900 73631 885// 333 21051 88614 91010 91112
AAXX 15061 27857 32998 81704 11009 21019 30118 40286 53004 8802/ 333 21036
AAXX 15061 27906 11394 81405 10016 20013 39969 40216 57004 69972 76154 887// 333 20013
AAXX 15061 27928 31396 81901 10009 20006 30036 40247 54000 76152 887// 333 21015 43004
AAXX 15061 27947 31296 81606 10001 21004 30116 40279 54000 71022 886// 333 21031 47009 88706
AAXX 15061 27962 31395 81805 11028 21048 40320 51007 77172 885// 333 21037 88609
AAXX 15061 27983 32497 81902 11058 21065 30209 40344 53008 886// 333 21071 88714
AAXX 15061 27995 11298 81903 11081 21087 40361 52007 69900 77172 8872/ 333 21088 88705
AAXX 15061 28506 11997 82103 11064 21076 30186 40305 53003 60130 72272 8802/ 333 21130
AAXX 15061 28704 12498 82107 11066 21078 30223 40324 53008 69930 8802/ 333 21093 88510 91010 91112
AAXX 15061 28711 11496 11099 21109 39934 40033 54000 60040 77173 8552/ 333 21139 85611 91011 91111 92982
AAXX 15061 28807 31296 82105 11088 21099 30303 40358 53003 71022 886// 333 21138 88705
AAXX 15061 34009 11394 81304 10013 20010 39919 40229 54000 69922 71084 886// 333 20006 42001
AAXX 15061 34110 11495 81703 10006 20001 39963 40277 53002 60012 71022 886// 333 20002 88718
AAXX 15061 34123 11440 81603 10008 21000 30071 40259 57002 69940 71082 884// 333 21018 42001 88612
AAXX 15061 34152 32398 81603 11018 21023 30109 40312 57006 886// 333 21032 88708
AAXX 15061 34163 32498 81403 11049 21055 40341 53005 885// 333 88620
AAXX 15061 34171 11/04 91606 11058 21059 30142 40346 53002 69900 74542 333 21056 89/02 93621
AAXX 15061 34186 31/92 91702 11125 21138 30227 40377 52005 74942 333 21125 93626
AAXX 15061 34247 11257 81803 10006 20001 30183 40300 53003 69940 71062 886// 333 21006 88706
AAXX 15061 34336 11556 81602 10009 20006 30192 40298 52003 69970 71062 886// 333 21002
AAXX 15061 34391 32997 31601 11153 21172 30343 40377 52005 80001 333 21159 93509
AAXX 15061 35011 32997 80901 11168 21187 40393 52005 8802/ 333 21209
AAXX 15061 35121 11997 80000 11215 21237 30244 40408 52003 69920 77871 8002/ 333 21246 93504
BBXX 46078 15061 99561 71526 46/// /1217 10042 20015 49880 57071 90550 333 91221 555 11177 22190
AAXX 15061 28676 11997 82201 11250 21279 30218 40360 52009 69920 77177 88020 333 21260
AAXX 15061 28766 11996 43301 11239 21247 30157 40369 52016 69900 71071 84010 333 21243
AAXX 15061 28867 NIL
AAXX 15061 28879 11997 82802 11220 21247 30047 40365 52012 69940 77177 8801/ 333 21226
AAXX 15061 28952 NIL
AAXX 15061 28966 31995 60000 11270 21280 30064 40384 52013 71011 83035 333 21332
AAXX 15061 29802 11996 82502 11213 21232 30173 40331 52005 69960 77172 8802/ 333 21226
AAXX 15061 29807 32997 82501 11231 21266 30208 40339 52008 8802/ 333 21224
AAXX 15061 34691 31998 50000 11120 21126 30368 40355 52010 70242 85030 333 21099
AAXX 15061 35067 11996 82002 11205 21236 30078 40382 52004 69920 77172 8802/ 333 21266
AAXX 15061 35078 11497 62803 11257 21281 39962 40387 52009 69900 70271 82609 333 21309
AAXX 15061 35085 32998 83202 11219 21244 39835 40359 52009 83034 333 21248
AAXX 15061 35108 32997 31801 11172 21194 30345 40395 52004 83030 333 21204
AAXX 15061 35188 11997 82301 11232 21263 39893 40374 52012 69940 77177 8802/ 333 21263
AAXX 15061 35217 32998 30000 11226 21251 30360 40404 52009 83050 333 21217
AAXX 15061 35229 NIL
AAXX 15061 35302 32998 21702 11236 21261 30371 40393 52004 80009 333 21238
AAXX 15061 35357 32997 20000 11211 21236 39907 40385 52013 80001 333 21243
AAXX 15061 35394 11998 22304 11153 21177 39635 40360 52008 69970 73673 82010 333 21194
AAXX 15061 35406 32997 30000 11192 21218 30394 40396 52010 83040 333 21215 93502
AAXX 15061 35416 NIL
AAXX 15061 35426 NIL
AAXX 15061 35497 11997 81601 11149 21176 39525 40378 52009 69960 77177 8802/ 333 21209
AAXX 15061 35532 NIL
AAXX 15061 35671 12998 02701 11165 21183 39943 40409 52016 69940 333 21193
AAXX 15061 35700 31/93 91202 11100 21100 30408 40383 52006 74942 333 21149
AAXX 15061 35746 32998 00202 11222 21261 30355 40429 52012 333 21233
AAXX 15061 35796 11997 02502 11169 21203 39940 40412 52017 69900 70400 333 21201
AAXX 15061 35849 32998 00000 11194 21227 30331 40426 52015 333 21219
AAXX 15061 35925 31995 81101 11060 21062 40399 52011 71022 8802/ 333 21070
AAXX 15061 35953 11999 20000 11134 21161 30276 40416 52016 69930 70171 82030 333 21184
AAXX 15061 35969 12599 70000 11062 21089 30231 40412 52016 69920 87500 333 21082
AAXX 15061 36003 11997 83103 11177 21195 30170 40334 52015 60020 70172 8807/ 333 21216
AAXX 15061 36152 11994 83210 11158 21192 30120 40322 52033 60010 77373 8802/ 333 21167
AAXX 15061 36177 11996 82405 11113 21141 30043 40301 52031 60010 77173 8807/ 333 21104
AAXX 15061 36208 11495 82802 11043 21055 39286 40279 52010 60060 77377 8872/ 333 21105
AAXX 15061 36397 11995 81608 11053 21098 39714 40289 51005 69970 73933 8802/ 333 21081
AAXX 15061 36428 31697 82004 11046 21062 39808 40318 52010 77172 8352/ 333 21132 95050
AAXX 15061 36535 11999 80000 11090 21110 39687 40344 52015 60030 70272 8802/ 333 21105
AAXX 15061 36639 11596 82701 11040 21062 39733 40352 52024 60070 77177 8802/ 333 21063
AAXX 15061 36821 12599 70000 11076 21086 39900 40413 52020 69970 87900 333 21084
AAXX 15061 36859 31/93 90801 11034 21038 39568 40371 52014 77174 333 21055 96045
AAXX 15061 36864 11596 80000 11032 21063 39460 40380 52010 60020 77177 8802/ 333 21054
AAXX 15061 36870 11497 80000 11041 21063 39337 40385 52007 60050 78588 889// 333 21047
AAXX 15061 38001 31497 80507 10022 21003 30364 40334 53008 76161 8872/ 333 20007
AAXX 15061 38062 32699 52601 11075 21135 30236 40409 53036 85400 333 21089
AAXX 15061 38069 32597 73101 11040 21059 30200 40399 52011 87500 333 21056
AAXX 15061 38196 NIL
AAXX 15061 38198 NIL
AAXX 15061 38222 12998 80000 11062 21093 39823 40409 52005 60020 8807/ 333 21065
AAXX 15061 38232 32598 81206 11025 21038 30274 40377 53010 885// 333 21039
AAXX 15061 38328 NIL
AAXX 15061 38334 NIL
AAXX 15061 38341 11595 80501 11059 21066 39572 40395 52010 60060 77377 8802/ 333 21070
AAXX 15061 38343 12698 81401 11056 21078 39515 40397 52013 60030 885// 333 21058
AAXX 15061 38439 NIL
AAXX 15061 22271 32598 81807 11016 21036 30072 40082 58005 885// 333 21016
AAXX 15061 22520 32598 81702 10013 21001 30031 40040 52002 885// 333 20005 88621
AAXX 15061 22550 11369 81803 11001 21012 30078 40088 53002 60020 72272 886// 333 21008 88709
AAXX 15061 22583 32483 71403 11055 21073 30071 40154 57010 875// 333 21056 87612
AAXX 15061 22768 11497 81802 10002 21004 30069 40126 58001 60010 72272 885// 333 21011 88616
AAXX 15061 22845 11398 81904 10007 20004 39971 40128 52015 60030 70272 8672/ 333 21003 86709
AAXX 15061 22887 11422 81705 11030 21043 30099 40171 57005 69920 77372 8572/ 333 21043 85711 91108
AAXX 15061 23205 NIL
AAXX 15061 23219 NIL
AAXX 15061 23418 31465 71504 11108 21136 30177 40255 58005 70272 86630 333 21098 86713
AAXX 15061 23606 31262 81305 11115 21121 30059 40242 57004 72272 886// 333 21114 88705
AAXX 15061 23711 11996 81403 11167 21193 30111 40299 57006 69900 77171 8802/ 333 21207
AAXX 15061 23804 32398 81603 11090 21106 30068 40224 57010 887// 333 21106 86708
AAXX 15061 27037 11497 81903 10018 20013 30000 40162 51002 60010 71076 885// 333 20004 88715
AAXX 15061 27199 11498 81503 11069 21078 30039 40245 57002 69940 77172 8802/ 333 21094
AAXX 15061 27271 11294 81503 11006 21010 30055 40213 52004 60010 71075 886// 333 21027
AAXX 15061 27459 12297 82001 11015 21024 30046 40247 52001 69900 886// 333 21016 88706
AAXX 15061 27730 /1297 81702 10004 21007 30040 40237 54000 60040 76162 8872/ 333 21007 43009 88505
AAXX 15061 28676 11997 82201 11250 21279 30218 40360 52009 69920 77177 88020 333 21260
AAXX 15061 28766 11996 43301 11239 21247 30157 40369 52016 69900 71071 84010 333 21243
AAXX 15061 28867 NIL
AAXX 15061 28879 11997 82802 11220 21247 30047 40365 52012 69940 77177 8801/ 333 21226
AAXX 15061 28952 NIL
AAXX 15061 28966 31995 60000 11270 21280 30064 40384 52013 71011 83035 333 21332
AAXX 15061 29802 11996 82502 11213 21232 30173 40331 52005 69960 77172 8802/ 333 21226
AAXX 15061 29807 32997 82501 11231 21266 30208 40339 52008 8802/ 333 21224
AAXX 15061 34691 31998 50000 11120 21126 30368 40355 52010 70242 85030 333 21099
AAXX 15061 35067 11996 82002 11205 21236 30078 40382 52004 69920 77172 8802/ 333 21266
AAXX 15061 35078 11497 62803 11257 21281 39962 40387 52009 69900 70271 82609 333 21309
AAXX 15061 35085 32998 83202 11219 21244 39835 40359 52009 83034 333 21248
AAXX 15061 35108 32997 31801 11172 21194 30345 40395 52004 83030 333 21204
AAXX 15061 35188 11997 82301 11232 21263 39893 40374 52012 69940 77177 8802/ 333 21263
AAXX 15061 35217 32998 30000 11226 21251 30360 40404 52009 83050 333 21217
AAXX 15061 35229 NIL
AAXX 15061 35302 32998 21702 11236 21261 30371 40393 52004 80009 333 21238
AAXX 15061 35357 32997 20000 11211 21236 39907 40385 52013 80001 333 21243
AAXX 15061 35394 11998 22304 11153 21177 39635 40360 52008 69970 73673 82010 333 21194
AAXX 15061 35406 32997 30000 11192 21218 30394 40396 52010 83040 333 21215 93502
AAXX 15061 35416 NIL
AAXX 15061 35426 NIL
AAXX 15061 35497 11997 81601 11149 21176 39525 40378 52009 69960 77177 8802/ 333 21209
AAXX 15061 35532 NIL
AAXX 15061 35671 12998 02701 11165 21183 39943 40409 52016 69940 333 21193
AAXX 15061 35700 31/93 91202 11100 21100 30408 40383 52006 74942 333 21149
AAXX 15061 35746 32998 00202 11222 21261 30355 40429 52012 333 21233
AAXX 15061 35796 11997 02502 11169 21203 39940 40412 52017 69900 70400 333 21201
AAXX 15061 35849 32998 00000 11194 21227 30331 40426 52015 333 21219
AAXX 15061 35925 31995 81101 11060 21062 40399 52011 71022 8802/ 333 21070
AAXX 15061 35953 11999 20000 11134 21161 30276 40416 52016 69930 70171 82030 333 21184
AAXX 15061 35969 12599 70000 11062 21089 30231 40412 52016 69920 87500 333 21082
AAXX 15061 36003 11997 83103 11177 21195 30170 40334 52015 60020 70172 8807/ 333 21216
AAXX 15061 36152 11994 83210 11158 21192 30120 40322 52033 60010 77373 8802/ 333 21167
AAXX 15061 36177 11996 82405 11113 21141 30043 40301 52031 60010 77173 8807/ 333 21104
AAXX 15061 36208 11495 82802 11043 21055 39286 40279 52010 60060 77377 8872/ 333 21105
AAXX 15061 36397 11995 81608 11053 21098 39714 40289 51005 69970 73933 8802/ 333 21081
AAXX 15061 36428 31697 82004 11046 21062 39808 40318 52010 77172 8352/ 333 21132 95050
AAXX 15061 36535 11999 80000 11090 21110 39687 40344 52015 60030 70272 8802/ 333 21105
AAXX 15061 36639 11596 82701 11040 21062 39733 40352 52024 60070 77177 8802/ 333 21063
AAXX 15061 36821 12599 70000 11076 21086 39900 40413 52020 69970 87900 333 21084
AAXX 15061 36859 31/93 90801 11034 21038 39568 40371 52014 77174 333 21055 96045
AAXX 15061 36864 11596 80000 11032 21063 39460 40380 52010 60020 77177 8802/ 333 21054
AAXX 15061 36870 11497 80000 11041 21063 39337 40385 52007 60050 78588 889// 333 21047
AAXX 15061 38001 31497 80507 10022 21003 30364 40334 53008 76161 8872/ 333 20007
AAXX 15061 38062 32699 52601 11075 21135 30236 40409 53036 85400 333 21089
AAXX 15061 38069 32597 73101 11040 21059 30200 40399 52011 87500 333 21056
AAXX 15061 38196 NIL
AAXX 15061 38198 NIL
AAXX 15061 38222 12998 80000 11062 21093 39823 40409 52005 60020 8807/ 333 21065
AAXX 15061 38232 32598 81206 11025 21038 30274 40377 53010 885// 333 21039
AAXX 15061 38328 NIL
AAXX 15061 38334 NIL
AAXX 15061 38341 11595 80501 11059 21066 39572 40395 52010 60060 77377 8802/ 333 21070
AAXX 15061 38343 12698 81401 11056 21078 39515 40397 52013 60030 885// 333 21058
AAXX 15061 38439 NIL
AAXX 15064 91165 32666 40811 10240 20200 30148 40183 53012 90553 555 91506
AAXX 15064 91182 12566 60405 10239 20206 30174 40180 53015 69901 90553 333 10272 20228 555 91506
AAXX 15064 91190 32566 41104 10228 20178 30161 40181 51015 90554 333 10272 20183 555 91506
AAXX 15064 91212 12566 61011 10272 20244 31346 40082 55014 60101 90554 333 10294 20244 91017 555 91506
AAXX 15064 91285 12366 82303 10211 20194 30178 40190 51015 60031 90553 555 91506
AAXX 15064 91413 11469 80909 10299 20254 30024 40049 57017 69931 70282 82372 333 56299 70302 555 91506
AAXX 15064 91245 32566 20815 10270 20200 30137 90559 555 91506
BBXX 44067 15061 99384 70770 46/// /2504 10085 40250 90600
AAXX 15064 43400 NIL
AAXX 15064 43404 22470 7//// 10286 20234 30109 40119 85206 333 58001 60007 70057 85818 87280
AAXX 15064 43410 NIL
AAXX 15064 43413 22470 60501 10282 20254 30118 40122 84372 333 58002 60007 70028 84919 84458
AAXX 15064 43415 22470 70502 10292 20224 30007 40115 82231 333 59002 60007 70000 82818 85360
AAXX 15064 43418 22470 70704 10296 20237 3//// 4//// 82136 333 5//// 60007 70000 82818 84358 86280
AAXX 15064 43421 22470 33602 10288 20233 30012 40114 8317/ 333 59003 60007 70000 83818 85460
AAXX 15064 43422 21470 607// 10284 20231 39983 40113 70182 83276 333 59003 60007 70001 83818 84080
AAXX 15064 43424 22478 70510 10294 20239 30098 40101 83136 333 59004 60007 70000 83816 83360
AAXX 15064 43436 22470 80504 10284 20228 30109 40112 8317/ 333 59004 60007 70000 83817 88460
AAXX 15064 43441 22470 60000 10286 20211 39975 40104 83161 333 59002 60007 70000 83818 84360
AAXX 15064 43444 22470 71406 10248 20197 39576 40108 8517/ 333 59007 60007 70020 85818 86458
AAXX 15064 43467 21464 60507 10270 20226 30099 40104 70282 8322/ 333 59002 69907 79999 83816 86460
AAXX 15064 43473 21470 70910 10166 20105 38129 48493 70384 8317/ 333 59007 69907 70029 83812 87460
AAXX 15064 43475 22470 80502 10272 20255 30101 40110 85131 333 59002 60007 70368 85818 86360 86080
AAXX 15064 43476 21468 82904 10184 20151 38784 48527 70362 8222/ 333 59002 69917 70040 82811 88459
AAXX 15064 43479 21560 80000 10218 20193 39277 75064 8587/ 333 59004 69907 70114 85631 87458
AAXX 15064 43486 21470 70000 10270 20223 30005 40099 70366 83110 333 59001 69937 70003 83812 87460
AAXX 15064 43495 22468 7//// 10294 20248 30093 40109 8417/ 333 58001 60007 70060 84818 85358 87460
AAXX 15064 43497 21474 80510 10272 20237 30084 40102 70362 8211/ 333 58004 60007 70003 82818 88460
AAXX 15061 38598 41596 60000 10028 21014 40367 52005 71022 86500
AAXX 15061 38599 NIL
AAXX 15061 38725 42999 00000 11035 21169 48560 52007
AAXX 15061 38734 42699 40508 11067 21139 47090 52012 82503
AAXX 15061 38744 42699 60000 11114 21156 38083 48520 52010 82502
AAXX 15061 38836 31694 80000 10002 21025 39384 40357 52014 71042 889// 333 21015
AAXX 15061 38838 NIL
AAXX 15061 38844 NIL
AAXX 15061 38846 42996 62103 11014 21031 38565 48540 52011 83033
AAXX 15061 38847 NIL
AAXX 15061 38932 NIL
AAXX 15061 38933 31696 50502 10020 21027 39845 40378 52020 71022 885// 333 20012
AAXX 15061 38944 32697 81102 10024 20005 39704 40254 52006 885// 333 20004
AAXX 15061 38954 32899 40000 11008 21115 38011 48600 58005 83011 333 21062
BBXX SLKQ 15061 99059 10851 43/97 80509 10266 40098 58011 22264 00290 2////4////
BBXX PHPP 15064 99060 10905 41197 60424 10270 20228 40088 58011 76466 86790 22223 00300 20804 80240
BBXX AUYR 15064 99094 10761 31596 50707 10310 20250 40172 54015 70232 83172 22233 30/60 20/12165 2124514/2008 81891410534113 1001695/121/ 2266086/5 5131/097086 /5030 20/4508 7/06218/ 1848087/4 6488/297088 /2165 18/4608 8/51120/ 5150087/2 0461/186087 /1033 21/2308 6/567220 90031002 696/121/ 12054/5721/ 26055/0221/ 31254/4721/ 17254/421511
BBXX VTXF 15063 99137 10743 41/96 00912 10300 20216 40137 54000 70003 80/// 22233
BBXX MIBR 15063 99233 11222 41297 80130 10218 20198 40155 58011 78082 887// 22284 00260 20706 30108 40906 51008 80205
BBXX DGZT2 15063 99060 10923 41/98 /0222 10300 40110 54000 70222 8/145 22264 04290 20804
BBXX PBOF 15063 99388 11180 41997 03226 11010 21010 40345 58020 70000 80000 22200 04080 20401 81010 90366
BBXX A8QR9 15064 99180 10705 41997 30411 10280 20209 40160 50/// 70322 80008 22234 04270 20101 80230
BBXX DGDD 15061 99305 11256 41297 83612 10125 20068 40225 54000 70262 887// 22264 00190 21006 335// 41206 5//// 80095
BBXX KAOU 15064 99069 10959 43/// /0612 10286 20236 40089 5//// 7//// 8//// 222// 04301 2//// 3//// 4//// 5//// 6//// 8//// ICE /////
BBXX 3EPD8 15064 99520 50671 41998 33614 10121 20078 40185 7//11 8304/ 22213 04089 2//01 80100
BBXX PCVX 15063 99188 50375 41/98 /0411 10251 20211 40130 54000 70322 8//// 22253 2//// 80223
BBXX 44255 15061 99473 70573 46/// /3005 11021 40249 57006 22200 00040 10902 70008 333 91208
BBXX C6JT 15063 99476 70415 41/97 80323 10040 2002/ 40090 54000 70326 8//// 22214 2//// 3//// 4//// 80030
BBXX WGJT 15064 99246 70733 43/// /0519 10233 2018/ 40185 57018 7//// 8//// 22234 00233 2//// 3//// 4//// 5//// 6//// 80200 ICE /////
BBXX PHET 15061 99189 70644 41/98 /0314 10254 20206 40110 54000 70222 8//// 22234 00280 2//// 3//// 4//// 5////
BBXX HPHV 15064 99280 70945 41/// 91410 10200 20169 40200 54000 7//// 8//// 222// 0//// 20501 31414 40501 50501 6//// 80180 ICE /////
BBXX PBWQ 15064 99181 70644 41498 40231 10258 20215 40122 57008 70381 842// 22224 04282 20405
BBXX C6FM8 15064 99278 70800 41798 60830 10220 20158 40220 54000 7//// 862// 22283 04251 2//// 3//// 4//// 5//// 6//// 85180 ICE /////
BBXX SBLI 15061 99300 71491 43/98 51409 10203 40253 53003 22264 00218 2//// 4//// NNNN 426621110
BBXX 44150 15061 99425 70640 46/// /0706 10054 40266 5//// 22200 00107 11005 70025 333 91207
BBXX 44139 15061 99442 70571 46/// /0208 10009 40267 52012 22200 00090 10906 70031 333 91211
BBXX C6VR4 15063 99279 70366 41598 51324 10227 20162 40211 50009 70322 84362 22224 04238 20506 305// 40906 5//// 80187
BBXX C6SE5 15064 99192 70796 41/// /0631 10270 2//// 40160 54/// 7//// 8//// 22274 0//// 2//// 3//// 4//// 5//// 6//// 8//// ICE /////
BBXX SHIP 15064 99382 71427 41898 22110 10165 20157 40275 52021 70110 81231 22233 00175 2//// 3//// 4//// 80160
BBXX V7DI7 15064 99408 70597 41597 60524 10060 2003/ 40200 52030 70252 862// 22253 0//// 20406 303// 40807 5//// 6//// 80045 ICE /////
BBXX KGTX 15063 99506 71301 41697 83524 10061 2004/ 40148 5//// 75052 885// 22234 00083 20807 311// 41205 5//// 6//// 80050 ICE /////
BBXX 9HXD9 15064 99187 70874 41898 40620 1//// 2//// 4//// 54/// 7//00 84/// 22254 04285 2//// 3//// 4//// 5//// 6//// 8//// ICE /////
BBXX WAHG 15064 99553 71394 41298 81409 10060 2005/ 40100 54000 7//22 886// 22235 0//// 20201 327// 41505 5//// 6//// 80055 ICE /////
BBXX WGEB 15063 99329 71207 43598 62602 10167 2014/ 40260 51020 7//// 868// 22265 00144 21001 330// 4//// 5//// 6//// 80150 ICE /////
BBXX 9HA2066 15064 99268 71147 419// 23419 10150 20150 40220 50/// 7//// 82//8 22224 00150 21104 305// 40804 5//// 6//// 80150 ICE /////
BBXX WABS 15064 99342 71218 41998 03010 10117 2009/ 40268 52008 70200 80000 22233 0//// 2//// 3//// 4//// 5//// 6//// 80100 ICE /////
BBXX KRGB 15064 99312 71468 41/98 01424 10189 2015/ 40248 52023 7//00 80/// 22214 00194 21004 329// 41806 5//// 6//// 80167 ICE /////
BBXX 2AKI3 15064 99231 70862 41/98 /1231 10250 20196 40189 51015 70211 8//// 22284 00255 2//// 3//// 4//// 5//// 80215
BBXX PDVN 15063 99163 70568 41499 23206 10262 20227 40098 58008 70200 82100 22262 02268 20201 399// 4//05 80237
BBXX DDIG2 15064 99302 70426 41598 61726 10220 20205 40162 57020 7//11 86400 22254 04210 20504 301// 41004 80210
BBXX DEHY 15064 99317 71207 41/// 43210 10135 20069 40250 52030 70211 84/// 22264 2//// 80100
BBXX PCBT 15063 99110 70752 41698 63418 10277 20237 40089 58012 70222 85365 22254 20402 301// 40502 80248
BBXX DMRX 15064 99460 71623 41297 32540 10054 21000 49962 52045 70122 81778 22224 00100 20412 80031
BBXX DDJS2 15063 99331 71297 41498 33515 10150 20103 40279 54000 70211 82140 22234 04150 20202 336// 40303 5//// 80125
BBXX DILE 15063 99404 70697 41/96 /1108 10080 20013 40270 58005 70200 8//// 22224 04180 2//// 80050
BBXX 44039 15061 99411 70727 46/// /1605 10081 20040 40277 57018 90600 22200 00096 10201 70003 333 91206
BBXX 44060 15061 99413 70721 46/// ///06 10071 40268 58021 90600 22200 00111 333 91208 555 11067 22072
BBXX PBDH 15064 99188 10398 41493 41412 10260 40146 53/// 7//11 832// 22274 04282 2//03 30000
BBXX UCKZ 15061 99575 30280 41194 80213 10021 20017 49974 57015 71022 886// 22233 00011 20504
BBXX A8QJ7 15064 99120 50342 41398 30710 10250 20220 40117 55009 70311 8/7// 22213 06250 2//// 3//// 4//// 5//// 80230
BBXX 3FMV6 15063 99005 10041 41698 61310 10260 20231 40098 53010 70252 84465 22200 06279 21001 80240
BBXX WRYW 15064 99134 10503 43/// /0517 10260 2017/ 40275 51014 7//// 8//// 22214 00255 20302 30505 40503 5//// 6//// 80200 ICE /////
BBXX DDJR2 15064 99350 50088 41798 81819 10160 20144 40080 52010 70211 887// 22264 00150 29903 318// 40604 5//// 80150
BBXX PHOB 15064 99132 10495 41498 30822 10260 20232 40167 51014 70200 81140 22224 00250 20604 3//// 4//// 5//// 80240
BBXX A8EY5 15064 99048 50318 41498 31216 10245 20209 40104 57010 70300 8216/ 22255 00260 20704 312// 40214 5//// 80220
BBXX DCHO 15064 99165 70221 41/98 /0518 10203 20158 40162 54000 70211 8//// 22254 04230 20602 302// 40904 80174
BBXX ATSS 15063 99262 10553 41998 10705 10251 20203 40248 50200 70100 8000/ 22240 02240 44190 6410151226
BBXX DDDI2 15064 99276 30425 41998 30818 10260 20232 40130 54000 70211 82079 22254 04275 20303 317// 40604 5//// 80240
BBXX PHKL 15063 99125 10588 41598 30113 10272 20240 40147 50012 70100 82160 22264 00265 20402 336// 40503 5//// 80249
BBXX A8KH9 15064 99180 30114 41898 21429 10165 20132 40100 54000 7//// 81181 22243 20510 31613 40708 50405 80145
BBXX A8JK4 15064 99228 30534 41398 51015 10275 20211 40145 51005 70222 854// 22214 20402 3//// 4//// 5//// 80230 46379 1473151226
BBXX PHQW 15063 99014 10047 41398 72015 10263 20234 40105 52007 7//22 877// 22263 00279 20201 318// 40603 80242 90366
BBXX DGZL 15063 99148 10420 41597 51622 10260 20218 40150 56010 70522 83145 22274 00270 21003 319// 41307 80230
BBXX DGZR2 15063 99171 10668 41998 20515 10275 20211 40152 51018 7//00 80008 22234 00280 20201 309// 40501 80230
BBXX DFNB2 15063 99217 10599 41998 00415 10250 20139 40205 53015 70200 80000 22214 00240 20302 80180
BBXX A8OY9 15064 99100 10667 44399 40219 10288 20240 40124 51010 80003 22224 00304 21204 301// 40802 80250
BBXX WQZ9670 15064 99441 70823 43/94 /1725 10083 2//// 40051 57/// 7//// 8//// 22243 0//// 2//04 3//// 4//// 5//// 6//// 8//// ICE /////
BBXX WE4805 15064 99467 70921 43/// 82701 10016 2//// 40030 57/// 70002 88/// 22200 0//// 20000 3//// 4//// 5//// 6//// 8//// ICE /////
BBXX A8UU2 15064 99101 31160 41397 70207 10250 20235 40038 54000 76066 8/776 22283 04310 20503 80240
BBXX C6FS9 15064 99236 31552 46/// /1219 10239 20185 30092 40128 57003 22263 04265 85203
BBXX 9HA2479 15064 99202 31698 46/// /1407 10266 20242 30059 40088 57001 22200 04284 85248
BBXX VNSZ 15064 99412 31464 46/// /3210 10163 20105 30166 40192 57009 22200 04177 85130
BBXX VRAE2 15064 99205 31711 41498 30710 10280 20244 40074 57012 71511 82261 22214 04280 20101 307// 40805 80255
BBXX 2AGH7 15063 99205 31615 41/98 81635 10260 20228 40063 56020 70322 8//// 22254 20502 318// 40805 80238
BBXX VRRB 15064 99130 31580 41597 31612 10295 20245 40060 57012 70100 82100 22243 20804 324// 40804 80260
BBXX 3ECI3 15064 99434 31734 41298 80314 10145 20136 40004 54000 70222 887// 22213 00130 20301 305// 40904 80140
BBXX PCAM 15063 99384 31785 41297 80417 10160 20144 40096 56019 75165 886// 22243 00174 2//// 308// 40704 80150
BBXX VMAL 15063 99363 31350 41/98 51122 10175 20131 40204 57010 70311 83544 22273 30206 399// 40804 80150
BBXX ONAR 15063 99313 30736 41597 52119 10240 2015/ 40190 54000 78062 83697 22263 00210 21207 323// 4//// 5//// 6//// 80180 ICE /////
BBXX PCHM 15064 99368 31747 41296 33005 10190 20190 40029 58012 70286 82716 22200 00190 20000 30000 80190
BBXX PFBF 15063 99081 31261 41698 62807 10310 20178 40052 56022 70322 83976 22223 02290 20501 300// 4//// 5//// 80220
BBXX PCDE 15063 99400 31039 41298 73502 10170 20119 40220 53020 7//// 8779/ 22223 20401 80140
BBXX PCCL 15063 99292 31593 41197 81810 10200 40128 57018 70300 887// 22223 04226 20501 314// 41004
BBXX PHJV 15063 99108 31412 41398 32514 10280 20233 40040 58019 70211 83162 22263 06296 20101 80246
BBXX A8IQ2 15060 99013 10883 41698 42301 10295 20240 40100 54000 70100 82461 22253 00300 20500 320// 41203 5//// 80255
BBXX DCDO2 15063 99116 31521 41598 51606 10310 20249 40050 56010 70111 85145 22284 00300 20301 3//// 4//// 5//// 80265
BBXX PDGS 15064 99138 70916 41/98 82903 10267 40133 51015 70222 8//// 22262 00293 2////
BBXX DFFA2 15063 99064 70798 41/97 82318 10250 20222 40110 57010 71562 8/77/ 22284 00260 2//// 3//// 4//// 5//// 80230
BBXX A8OH4 15063 99168 71004 41397 39903 10250 20229 40130 52020 70100 82145 22233 04310 20000 330// 40401 80235
BBXX 44008 15061 99405 70692 46/// /1004 10073 20033 40271 58008 90550 22200 00115 11003 20401 311// 41003 70017 333 91205 555 11037 22038 30515 40905 60549 099037 102038 089033 083042 070033 054031
BBXX 44022 15061 99409 70737 46/// ///03 10084 20043 40262 58016 90600 22200 00090 333 91205 555 11036 22036
BBXX 46089 15061 99459 71258 46/// /1905 10094 20091 40147 53013 90550 22200 00098 10706 20502 319// 40706 70032 333 91207 555 11056 22059 30512 41714 60549 187051 174061 176081 181098 168107 171097
BBXX 46053 15061 99342 71198 46/// /2602 10134 40248 51007 90550 22200 00140 11101 329// 41101 70007 333 91203 555 11019 22019 30452 42703 60549 265019 267020 258014 264016 261017 261020
BBXX 46042 15061 99368 71224 46/// /2003 10111 40241 58008 90550 22200 00128 11303 330// 41303 70016 333 91204 555 11028 22029 30546 41904 60549 203028 196026 195024 194021 207013 203011
BBXX 46083 15061 99582 71380 46/// /1711 10044 20024 40125 57003 90550 22200 00063 10906 20805 300// 40903 70030 333 91213 555 11120 22128 30534 41814 60549 167112 172116 170110 162113 161116 161108 81713 90539
BBXX 41038 15061 99341 70777 46/// /0702 10150 40261 58016 90600 22200 00141 333 91203
BBXX 41041 15061 99142 70460 46/// /1708 10234 20221 40114 56012 90550 22200 00266 11106 20504 3//// 41104 70029 333 91210 555 11087 22092 30501 41811 60549 168080 177079 179082 185082 180084 178087 81809 90535
BBXX WXJ63 15063 99611 71464 41/96 82303 11013 21018 40075 55/// 785// 8//// 222// 00046 2//// 3//// 4//// 5//// 6//// 8//// ICE /////
BBXX NWS0029 15064 99219 70378 43/// /1116 10243 20182 40177 5//// 7//// 8//// 222// 04254 2//// 3//// 4//// 5//// 6//// 8//// ICE /////
BBXX NWS0003 15064 99570 71660 43/// /0547 10010 21004 49689 5//// 7//// 8//// 222// 04030 2//// 3//// 4//// 5//// 6//// 8//// ICE /////
BBXX SKWI 15064 99414 70312 43/98 72242 10158 40125 56027 22263 00170 2//// 4////
BBXX UCKG 15061 99748 10105 41/97 90923 10030 49844 54000 70222 22211 00090 20606
BBXX DPLE 15063 99462 70193 41/97 82725 10135 20109 40115 57040 75865 8//// 22214 00140 20606 331// 41214 80120
BBXX UFJN 15061 99708 10371 41/98 41913 11020 49980 52005 70022 85233 22200 0//// 20401
BBXX AUTQ 15064 99376 10100 42/97 52813 10170 20138 40186 54000 85011 22274 00200 20203
BBXX PEBT 15063 99368 10000 41398 23416 10170 20154 40260 53020 7//11 822// 22263 02149 20302 327// 40502 5//// 80160
BBXX MCUV3 15063 99498 70027 41498 52930 10090 20069 40011 57005 75052 83465 22223 2//12 32926 4//12 5//12 80080
BBXX 62023 15063 99514 70079 46/97 /2827 10077 2//// 40002 5//// 22200 10811 70055 333 91148 555 70091 80008
BBXX 8PSH 15064 99375 10106 46/// /2813 10159 20131 40236 55001 7//// 8//// 22223 0//// 2////
BBXX LGWS 15061 99340 70079 43/// /0206 10174 20138 40290 5//// 222/0 04182 1//// 3//// 4//// 5////
BBXX LMEL 15061 99603 10053 43/// /1403 10055 20045 49792 5//// 222/2 04101 1//// 3//// 4//// 5////
BBXX LF4H 15064 99596 10022 46/// /2620 10076 20033 49801 52023 8//// 22200 06088 10706 70029 333 91132
BBXX MDGV9 15064 99560 70021 41/98 32620 10050 20025 49886 52020 70200 8274/ 22263 11002 70010 80040
BBXX TFKGR 15064 99657 70136 46/// ///// 22200 10810 70049
BBXX TFDRN 15064 99658 70212 46/// ///// 22200 10706 70031
BBXX TFSRT 15064 99633 70203 46/// ///// 22200 10705 70025
BBXX TFGRV 15064 99638 70225 46/// ///// 22200 10804 70019
BBXX TFGSK 15064 99641 70229 46/// ///// 22200 10603 70017
BBXX TFBLK 15064 99657 70248 46/// ///// 22200 10707 70035
BBXX TFHFN 15064 99642 70152 46/// ///// 22200 10603 70015
BBXX TFGRS 15064 99663 70182 46/// ///// 22200 10808 70041
BBXX TFBKF 15064 99635 70202 46/// ///// 22200 10504 70018
BBXX TFSTD 15064 99664 70234 46/// ///// 22200 10808 70042
BBXX DGWD2 15063 99324 10297 41/98 33609 10176 20130 40222 52002 70200 831// 22224 00170 2//01 80148
BBXX PCIH 15063 99447 70086 41397 82840 10140 20085 40200 57020 70222 22214 00150 20510 328// 41412 80110
BBXX UCJB 15061 99677 10094 41/98 /1013 10070 49715 57005 70222 8//// 22253 00100 20604
BBXX PFFH 15063 99379 10162 41/98 /2905 10152 40223 52003 7//// 8//// 22253 00166 2////
BBXX VRGJ6 15063 99366 10134 41598 12807 10178 20103 40247 54000 70200 81800 22224 04188 20101 322// 40302 5//// 80138
BBXX UGGA 15061 99691 10408 41/98 92013 10020 40028 54000 70222 89/// 22251 20706
BBXX VRFX8 15064 99413 70278 41598 32124 10160 20140 40170 57020 70122 8//// 22254 00140 2//// 3//// 4//// 80150
BBXX A8JI2 15064 99369 70264 41297 82124 10190 20159 40250 57020 70222 8/7// 22254 20402 322// 41406 5//// 80170
BBXX NWS0020 15064 99375 10094 43/// /2421 10164 20119 40229 5//// 7//// 8//// 222// 04181 2//// 3//// 4//// 5//// 6//// 8//// ICE /////
AAXX 15064 60351 12560 51603 10117 20083 40252 53013 60004 85800 333 00500 20100 83823 84633 95990
AAXX 15064 60355 12960 42210 10113 20078 40250 53009 60004 81032 333 0//00 20110 81360 83073 95990
AAXX 15064 60445 12660 43006 10056 20036 39097 48568 53009 60004 81232 333 05300 20155 81833 83073 95990
AAXX 15064 60468 12960 30000 10002 21023 39300 48555 53019 60004 80002 333 05400 20000 83070 95990
AAXX 15064 60507 12960 30000 10063 20055 40290 53010 60004 82082 333 00300 20061 82360 95900
AAXX 15064 60511 12560 82806 10083 20064 39109 48578 53013 60004 8527/ 333 00100 20040 85823 84359 95990
AAXX 15064 60535 11565 73608 10065 20050 38914 48575 53004 60004 700// 877// 333 00100 20049 87720 95900
AAXX 15064 60536 12960 80000 10106 20064 39410 48502 52008 60004 85082 333 05100 20047 85360 84073 95990
AAXX 15064 60549 11660 31806 10020 20010 39015 48602 53013 60004 700// 82232 333 05100 20018 82830 95990
AAXX 15064 60550 12460 60304 10056 20043 38753 48589 53008 60004 86600 333 05100 20027 85713 83830 95990
AAXX 15064 60555 12970 30000 10074 20042 40271 53006 60004 80002 333 00400 20060 83073
AAXX 15064 60559 12960 60000 10067 20042 40264 53002 60004 80004 333 0//00 20061 86073
AAXX 15064 60581 12960 60000 10056 20016 40267 51001 60004 83032 333 00300 20052 83360 83073
AAXX 15064 60602 11960 20000 10076 20050 40276 53005 60004 700// 82030 333 0//00 20076 82360 95990
AAXX 15064 60607 12960 40210 10084 20021 40249 53005 60004 81032 333 0//00 20080 81362 83075
AAXX 15064 60640 12960 60906 10091 20013 40247 55001 60004 83032 333 00800 20090 83360 83073
AAXX 15064 60690 NIL
AAXX 15064 60360 12960 32111 10090 20089 40251 55000 60004 80002 333 00300 20088 83073 95990
AAXX 15064 60390 12570 21904 10110 20080 40279 51016 60004 81830 333 00600 20087 81826 95990
AAXX 15064 60402 12560 52406 10102 20081 40271 53022 60004 82232 333 00700 20085 82823 83073 95990
AAXX 15064 60419 12960 20000 10038 20013 40276 53006 60004 80001 333 00200 20030 82073 95990
AAXX 15064 60475 12960 50000 10026 20011 39306 48556 53009 60004 80002 333 05100 20010 85073 95990
AAXX 15064 60490 12570 52206 10128 20105 40276 53007 60004 84532 333 00400 20100 84620 95990
AAXX 15064 60525 12960 63608 10087 20041 40250 53001 60004 80002 333 05100 20080 86073 95990
AAXX 15064 60531 12570 62209 10120 20086 40299 53008 60004 82530 333 00600 20099 82630 85360 95990
AAXX 15064 60566 12960 40000 10101 20036 40275 55002 60004 82032 333 00100 20100 82360 83073
AAXX 15064 60571 12962 13510 10063 20033 39347 48594 53012 60004 81080 333 0//00 20063 81360 95990
AAXX 15064 60580 12960 70000 10060 20036 40271 53006 60004 84032 333 00500 20055 83360
AAXX 15064 60590 12660 73204 10055 20018 40275 55000 60004 8523/ 333 0//00 20050 85840 83360
AAXX 15064 60611 12660 50707 10073 20032 40269 53002 60004 83231 333 00600 20070 83840 83358
AAXX 15064 60620 12960 33609 10080 21020 40241 53008 60004 81032 333 0//00 20078 81365
AAXX 15064 60630 12960 40320 10133 20023 40231 51009 60004 81232 333 00900 20118 81856 83362
AAXX 15064 60656 NIL
AAXX 15064 60670 12980 60000 10083 21065 39123 48559 53007 60004 83032 333 00400 20064 83360 84073 95900
AAXX 15064 60680 12970 30514 10120 21109 38677 48550 53009 60004 80002 333 01100 20116 83073 95990
AAXX 15064 60351 12560 51603 10117 20083 40252 53013 60004 85800 333 00500 20100 83823 84633 95990
AAXX 15064 60355 12960 42210 10113 20078 40250 53009 60004 81032 333 0//00 20110 81360 83073 95990
AAXX 15064 60445 12660 43006 10056 20036 39097 48568 53009 60004 81232 333 05300 20155 81833 83073 95990
AAXX 15064 60468 12960 30000 10002 21023 39300 48555 53019 60004 80002 333 05400 20000 83070 95990
AAXX 15064 60507 12960 30000 10063 20055 40290 53010 60004 82082 333 00300 20061 82360 95900
AAXX 15064 60511 12560 82806 10083 20064 39109 48578 53013 60004 8527/ 333 00100 20040 85823 84359 95990
AAXX 15064 60535 11565 73608 10065 20050 38914 48575 53004 60004 700// 877// 333 00100 20049 87720 95900
AAXX 15064 60536 12960 80000 10106 20064 39410 48502 52008 60004 85082 333 05100 20047 85360 84073 95990
AAXX 15064 60549 11660 31806 10020 20010 39015 48602 53013 60004 700// 82232 333 05100 20018 82830 95990
AAXX 15064 60550 12460 60304 10056 20043 38753 48589 53008 60004 86600 333 05100 20027 85713 83830 95990
AAXX 15064 60555 12970 30000 10074 20042 40271 53006 60004 80002 333 00400 20060 83073
AAXX 15064 60559 12960 60000 10067 20042 40264 53002 60004 80004 333 0//00 20061 86073
AAXX 15064 60581 12960 60000 10056 20016 40267 51001 60004 83032 333 00300 20052 83360 83073
AAXX 15064 60602 11960 20000 10076 20050 40276 53005 60004 700// 82030 333 0//00 20076 82360 95990
AAXX 15064 60607 12960 40210 10084 20021 40249 53005 60004 81032 333 0//00 20080 81362 83075
AAXX 15064 60640 12960 60906 10091 20013 40247 55001 60004 83032 333 00800 20090 83360 83073
AAXX 15064 60690 NIL
BBXX 46207 15061 99509 71299 46/// /3507 10062 40156 5//// 22200 00084 10805 70026 333 91213
AAXX 15060 44203 32999 20000 11350 21374 38521 40652 58015 80004
AAXX 15060 44207 32999 22302 11283 21320 38394 40538 58019 80001
AAXX 15060 44212 32998 50000 11240 21272 39302 40564 58004 83014
AAXX 15060 44213 32999 20000 11236 21286 38915 40553 57010 82030
AAXX 15060 44215 31997 70000 11241 21266 38493 40513 51001 71022 80008
AAXX 15060 44218 31596 73602 11202 21235 38700 40487 58014 74242 83660
AAXX 15060 44225 31993 00000 11379 21397 38381 40714 58009 74444
AAXX 15060 44230 32998 01801 11252 21297 38925 40582 58017
AAXX 15060 44232 32999 00000 11281 21319 39270 40560 57022
AAXX 15060 44237 32999 02306 11305 21349 38582 40562 58011
AAXX 15060 44239 32999 03002 11244 21300 38920 40506 56019
AAXX 15060 44241 32999 01804 11249 21274 39429 40528 58015
AAXX 15060 44256 32999 02905 11157 21208 39451 40369 58004
AAXX 15060 44265 32999 50000 11100 21153 38923 40383 58007 80002
AAXX 15060 44272 32998 02001 11188 21266 38289 40446 58010
AAXX 15060 44275 32998 00000 11200 21241 37786 40484 58006
AAXX 15060 44282 31999 01102 11160 21257 38376 40457 58018 70240
AAXX 15060 44284 32999 00000 11261 21318 37931 40636 58006
AAXX 15060 44285 32999 01501 11210 21275 38413 40519 58016
AAXX 15060 44287 32999 00000 11135 21241 38211 40485 58008
AAXX 15060 44294 32998 03503 11204 21251 38669 40516 57012
AAXX 15060 44298 32999 03203 11214 21220 38833 40481 58004
AAXX 15060 44302 32999 02903 11192 21256 39224 40432 58010
AAXX 15060 44305 32999 02905 11179 21253 39159 40413 58001
AAXX 15060 44313 32999 03203 11228 21276 39461 40386 54000
AAXX 15060 44314 32998 03407 11186 21235 39240 40485 52001
AAXX 15060 44317 32998 23205 11192 21241 39016 40420 58010 82100
AAXX 15060 44336 32999 00000 11182 21223 38816 4//// 57018
AAXX 15060 44341 32999 03307 11168 21226 38721 40499 56009
AAXX 15060 44347 32999 00000 11139 21210 38848 40475 58006
AAXX 15060 44352 32999 03205 11201 21242 39023 40439 51005
AAXX 15060 44358 32998 03204 11172 21206 39212 40456 52002
AAXX 15061 01380 11056 81804 11028 21037 60012 77072 886// 333 21028 49027 70035 91113
AAXX 15061 01471 11582 81601 10014 21004 60002 70222 8737/ 333 20001 70090 91106
AAXX 15061 08521 11470 73603 10173 20141 30236 40307 54001 69942 72585 87800 333 20171 31/// 55079 83816 85630
AAXX 15061 08524 11470 61003 10171 20148 30209 40307 54000 69912 70381 86800 333 20159 30014 5//// 55040 21000 83815 84630 91006 91106
AAXX 15061 01393 16/// /1502 11007 21031 39027 49811 52007 6//// 333 21008 91109
AAXX 15061 01441 16/// /2202 11005 21018 38841 49804 53015 60042 333 21012 70087 91110
AAXX 15064 43466 21470 80503 10268 20211 30086 40098 72022 8412/ 333 59004 69907 79999 84818 88460
AAXX 15061 01476 16/// /2311 10059 20034 39824 49830 55002 6//// 333 20046 91118
AAXX 15061 01488 16/// /1402 10029 20012 69942 333 20022 4/014 70017 91106
AAXX 15061 01180 11680 80000 10035 21033 39717 49772 53004 60002 70222 885// 333 20022 70000 91104
AAXX 15061 01450 16/// /2005 11023 21033 38690 49812 53011 60012 333 21031 70036 91110
AAXX 15064 91945 36/// /0906 10260 20216 30169 40174 51015 555 58013
BBXX 3ERR2 15064 99635 10053 41495 81925 10062 20041 49707 52010 76262 8672x 22200 06098 11006 70029 333 91132
BBXX LF3F 15064 99643 10078 43/// /2120 10065 20031 49717 52019 22200 04090 10808 70041 333 91134
BBXX LF3N 15064 99653 10073 41497 72221 10069 20021 49685 52035 70282 87/// 22200 00089 10808 70038
BBXX LF4B 15064 99606 10037 47/97 /2524 10072 49780 52020 781// 22200 00067 10708 70038 333 91134
BBXX LF4C 15064 99584 10019 41598 72720 10080 20036 49838 52025 702// 89/// 22200 00079 10706 70032 333 91134
BBXX LF5T 15064 99660 10081 43998 /2227 10076 20021 49676 52037 22200 06082 10810 70049 333 91143
AAXX 15064 91367 32474 20809 10294 20257 82100 333 561// 82815 70000 555 91506 91371 32474 40915 10278 20263 30091 40094 83243 333 56229 84815 82160 83280 70000 555 91506
AAXX 15064 40100 12858 50803 10150 20072 30165 40197 51010 60004 83074 906// 333 20130 30/// 50404 55000 20292 83357 83070 92427
AAXX 15064 40101 11940 60000 10029 20014 39128 48512 53010 60004 71044 86050 906// 333 20012 31/// 50104 55000 20316 86359
AAXX 15064 40103 32660 51802 10103 20067 40204 52011 82504 333 20083 30/// 50174 20496 82640 85070
AAXX 15064 40102 NIL
AAXX 15064 41287 36/// /0209 10228 20144 30164 40232 333 0E017 20149 58004
AAXX 15061 22282 115// 82110 11017 21031 30082 40090 57007 69900 73632 885// 333 21018
AAXX 15061 22438 NIL
AAXX 15061 22471 31220 81805 11028 21038 30073 40097 57008 77373 8872/ 333 21027 86703
AAXX 15061 22563 11496 81803 11022 21025 30066 40105 57004 69920 77177 8672/ 333 21022 86710
AAXX 15061 22641 NIL
AAXX 15061 22695 11498 81707 11076 21094 30027 40186 57004 69900 73673 887// 333 21077 87713
AAXX 15061 22867 11398 82203 10011 20000 30031 40146 52011 60030 70272 886// 333 21012 88708 91106
AAXX 15061 22939 11397 81604 10015 20010 39975 40138 58001 60010 70272 8802/ 333 20005 88508
AAXX 15061 22996 31495 81804 11079 21093 30028 40227 57008 78582 8392/ 333 21094
AAXX 15061 23324 31583 62205 11088 21122 30173 40254 53002 70232 83501 333 21112
AAXX 15061 27051 11496 81803 10007 20004 39996 40164 52005 60020 71082 8657/ 333 21013 84911
AAXX 15061 27225 11464 82004 10020 20007 30042 40174 58003 69970 885// 333 20008 88618
AAXX 15061 27252 11405 82004 10004 20004 30019 40207 52010 69900 74642 886// 333 21018 88711
AAXX 15061 27333 11280 82206 10014 20003 30038 40197 57001 69900 70262 887// 333 20000 43004 88706
AAXX 15061 27369 11958 82003 11005 21008 30100 40239 52008 60030 71022 8801/ 333 21025
AAXX 15061 27393 11494 82302 11053 21067 30086 40260 53001 60010 77572 8677/ 333 21086
AAXX 15061 27479 11399 82003 11027 21040 30123 40261 52012 60050 72452 886// 333 21024 88709 93402
AAXX 15061 27532 11/93 91902 10001 20001 30007 40224 55001 60010 74554 333 21002
AAXX 15061 27648 11296 81704 11005 21014 30083 40256 58001 69900 75653 886// 333 21025 88706
AAXX 15061 27675 31497 82005 11026 21039 30113 40288 52010 885// 333 21038 88618
AAXX 15061 27679 32598 82006 11038 21050 30063 40294 52006 885// 333 21038 88623
AAXX 15061 28214 NIL
AAXX 15061 22165 32598 81410 10000 21008 39995 40056 58002 885// 333 20002 91114
AAXX 15061 22676 11427 81103 11040 21045 30062 40142 57004 69900 77372 8872/ 333 21037
AAXX 15061 22954 11/02 91802 10004 20004 39903 40154 52012 60030 74784 333 21012
AAXX 15061 23405 32475 81505 11068 21101 30082 40185 57008 885// 333 21059 88612
AAXX 15061 23412 32599 71505 11090 21119 30134 40236 57009 87530 333 21092 86623
AAXX 15061 23803 11999 81304 11167 21186 30084 40279 57007 69900 70272 8805/ 333 21203
AAXX 15061 27066 11397 81902 11012 21017 30013 40193 52002 69970 71077 888// 333 21027 88709
AAXX 15061 27083 31450 81602 11055 21066 39988 40219 53005 77172 8802/ 333 21069
AAXX 15061 27113 11131 82005 10020 20015 30007 40153 51003 60020 71022 886// 333 20007 88702
AAXX 15061 27242 11357 82502 10013 20013 30062 40191 52006 69990 70282 889// 333 21004 88707
AAXX 15061 27329 32562 82002 10011 20008 30069 40195 58003 885// 333 20007
AAXX 15061 27355 11494 81802 10002 21001 30051 40218 58010 69940 71022 885// 333 21015
AAXX 15061 27373 11296 82004 11014 21016 30014 40236 52010 60020 71076 886// 333 21033 88703 93402
AAXX 15061 27665 32397 81903 11025 21041 39996 40275 58004 886// 333 21038 88707
AAXX 15061 27835 31945 81402 10005 21003 30094 40255 58001 71063 8802/ 333 21022
AAXX 15061 28009 31927 81502 11100 21113 30051 40274 58010 71022 8801/ 333 21155
AAXX 15061 28411 11597 81102 11114 21134 30101 40309 57004 60010 77172 8457/ 333 21192
AAXX 15061 28418 11959 81301 11114 21127 30132 40310 57011 60010 77172 8802/ 333 21194
AAXX 15061 34560 31/01 91205 11032 21033 30167 40341 52004 74942 333 21032 41997 89/01
AAXX 15061 34720 32997 70804 10024 20014 30231 40271 54001 87030 333 20016
AAXX 15061 34730 31296 80906 10026 20017 30185 40279 52003 71022 886// 333 20016 88705
AAXX 15061 34740 32598 81205 10026 20013 30191 40290 52007 889// 333 20012
AAXX 15061 34824 32/// /1302 10028 20014 30252 40257 53006 333 20028
AAXX 15061 34858 31496 81302 10004 21003 30199 40310 52012 71022 886// 333 20007
AAXX 15061 34866 32498 81104 11024 21024 30340 40331 52008 8860/ 333 21024
AAXX 15061 34880 31496 80803 11030 21034 30371 40344 52003 71022 886// 333 21038 88710
AAXX 15061 37018 32698 60504 10075 20011 30183 40259 52014 83509 333 20067
AAXX 15061 37054 31996 81103 10006 21003 39909 40305 52006 71022 8001/ 333 21001
AAXX 15061 37472 31996 03101 10018 21001 30321 40298 53005 71011 333 20051
AAXX 15064 41170 41950 02704 10180 20125 30222 40235 70500 333 20139 59002 555 00110
AAXX 15064 64500 11360 71002 10248 20236 30102 40115 60484 70266 8457/ 333 02236 20228 5///1 55052 58005 84608 87460
AAXX 15063 64501 12358 61502 10252 20237 3//// 4//// 60034 83230 333 0//19 20250 50364 55046 5//// 83808 86360 94919 95839
AAXX 15063 64507 NIL
AAXX 15064 64510 32460 6//// 10210 20206 3//// 4//// 86500 333 0//00 20210 5///4 55/// 5//// 86610
AAXX 15064 64550 12460 8//// 10230 20215 30/// 40/// 60124 885// 333 01012 20225 50084 55/// 5//// 84610 88623
AAXX 15064 64551 NIL
AAXX 15064 64556 32460 8//// 10223 20218 39538 40132 885// 333 0//00 20216 50024 55009 59002 88610
AAXX 15064 64570 11256 80208 10203 20203 39633 40147 60274 79596 889// 333 02095 20201 50134 55/// 58003 85605 83913 88656 94959 95839
BBXX 46207 15061 99509 71299 46/// /3507 10062 40156 5//// 22200 00084 10805 70026 333 91213
BBXX 46042 15061 99368 71224 46/// /2003 10111 40241 58008 90550 22200 00128 11303 330// 41303 70016 333 91204 555 11028 22029 30546 41904 60549 203028 196026 195024 194021 207013 203011
BBXX 4XFX 15064 99519 71470 41/96 81445 00/// 10060 20040 49970 57070 76262 88/// 22274 0//// 2//// 3//// 4//// 5//// 6//// 80050 ICE /////
BBXX 9V8739 15064 99357 71363 41498 23312 10170 20154 40280 51020 70161 82/9/ 22264 00180 2//// 331// 40605 5//// 6//// 80160 ICE /////
BBXX DDJS2 15063 99331 71297 41498 33515 10150 20103 40279 54000 70211 82140 22234 04150 20202 336// 40303 5//// 80125
BBXX DEHY 15064 99317 71207 41/// 43210 10135 20069 40250 52030 70211 84/// 22264 2//// 80100
BBXX KGTX 15063 99506 71301 41697 83524 10061 20040 40148 5//// 75052 885// 22234 00083 20807 311// 41205 5//// 6//// 80050 ICE /////
BBXX KRGB 15064 99312 71468 41/98 01424 10189 20150 40248 52023 7//00 80/// 22214 00194 21004 329// 41806 5//// 6//// 80167 ICE /////
BBXX LEQZ3 15063 99521 71389 41/97 91810 10060 20060 40165 56005 70022 22262 00100 21003 41402 80060
BBXX SBLI 15061 99300 71491 43/98 51409 10203 40253 53003 22264 00218 2//// 4////
BBXX SHIP 15064 99338 71389 41/97 /0403 10180 20148 40294 52018 70112 8//// 90555 22224 00160 1//// 2//// 3//// 4//// 5//// 6//// 80160
BBXX WAHG 15064 99553 71394 41298 81409 10060 20050 40100 54000 7//22 886// 22235 0//// 20201 327// 41505 5//// 6//// 80055 ICE /////
BBXX WFLG 15064 99329 71203 41498 13505 10122 20102 40257 54000 70200 811// 22224 00122 20301 335// 40504 5//// 6//// 80111 ICE /////
BBXX WSRL 15064 99372 71238 41498 62016 10120 20080 40230 5//// 70222 811/1 22254 00094 2//// 3//// 4//// 5//// 6//// 80100 ICE /////
AAXX 15061 30692 42999 03206 11175 21244 39749 40277 58///
AAXX 15061 40700 11557 72203 10006 21006 30234 40327 53008 60001 71032 85606 333 30105 70000 85720 86267
AAXX 15061 40723 11957 10000 11004 21052 39012 40341 51003 60001 70500 80001 333 31108 70000 81067
AAXX 15061 40726 11650 80000 11014 21045 38740 40326 53009 60001 70522 8352X 333 34104 70000 83635 88458
AAXX 15061 40727 11956 80000 11020 21052 38556 40326 51006 60001 70522 80007 333 34106 70000 88270
AAXX 15061 40734 12562 60000 10092 20041 30332 40306 51004 60001 81106 333 30000 50130 70000 81830 86268
AAXX 15061 40737 12960 50000 10040 20027 30290 40309 53002 60001 80001 333 31106 50081 70000 85069
AAXX 15061 40741 12960 00000 10042 20030 30017 40368 53016 60001 333 30103 70000
AAXX 15061 40780 12960 81202 10066 21120 38735 40245 52009 60001 86077 333 30002 5//// 70000 86360 88269
AAXX 15061 40791 12965 50000 10060 21073 39454 40304 52016 60001 81071 333 30000 50221 70000 81464 85069
AAXX 15061 40792 12970 21002 10050 21113 38804 40300 52017 60001 80001 333 30104 70000 82070
AAXX 15061 40794 11958 70000 10094 20050 30129 40229 52020 60001 70500 90545 333 30000 50281 70000 87270
AAXX 15061 40812 12960 60000 10092 20048 39830 40213 53010 60001 80007 333 30004 50121 70000 86270
AAXX 15061 40829 12960 13306 10103 21079 39700 40289 51014 60001 80001 333 30105 5//// 70000 81070
AAXX 15061 40833 12960 60000 10110 20053 30203 40236 52018 60001 80006 90550 333 30003 50361 70000 86270
AAXX 15061 40835 12960 50000 10136 21026 39399 40244 52021 60001 80006 333 30000 50281 70000 85270
AAXX 15061 40845 12960 33603 10176 20113 30214 40219 52013 60003 80002 90545 333 30012 50421 70000 83070
AAXX 15061 40882 12965 00905 10236 20081 30176 40211 52016 60001 333 30013 50621 70000
AAXX 15061 40889 12960 00806 10244 20098 30205 40211 51013 60003 222// 00252 20400 333 30014 50401 70000
AAXX 15061 40890 12965 00404 10250 20112 30196 40203 51017 60003 222// 00246 20301 333 30014 50650 70000
AAXX 15061 40893 12962 03602 10218 20100 30203 40209 52013 60001 222// 00200 20401 333 30015 50491 70000
AAXX 15061 40897 15960 00603 10228 21051 30196 40211 51011 60001 333 30009 50671 70000
AAXX 15063 64800 NIL
AAXX 15063 64820 NIL
AAXX 15063 64860 31958 50000 10163 20046 39864 40137 70522 80002 333 00600 20153 50750 55101 58004 85080
AAXX 15063 64861 NIL
AAXX 15063 64870 31959 70000 10092 20051 38928 48516 70522 80002 333 00700 20079 50631 55106 58002 87080
AAXX 15063 64871 NIL
AAXX 15063 64892 NIL
AAXX 15063 64893 NIL
AAXX 15063 64894 NIL
AAXX 15064 64910 31412 70000 10244 20241 30112 40121 71022 84502 333 020// 20243 50471 55074 58002 84616 87080
AAXX 15064 64911 NIL
AAXX 15064 64950 NIL
AAXX 15061 50844 32962 23605 11126 21243 40272 57010 80002 333 21196
AAXX 15061 50854 32770 72903 11150 21214 40264 57001 85502 333 21192
AAXX 15061 50968 32962 72203 11128 21161 40254 57006 80002 333 21186
AAXX 15061 51379 31720 82705 11097 21119 40350 52006 71000 885// 333 05557 21169
AAXX 15061 51467 32980 21402 11032 21191 38299 57021 80002 333 05351 21107
AAXX 15061 51495 32980 71803 11025 21105 40373 57013 80002 333 05153 21102
AAXX 15061 53480 32980 02907 11144 21253 40442 52007 333 21194
AAXX 15061 53673 32970 03403 11031 21182 40372 57020 333 21100
AAXX 15061 53698 32963 01601 10018 21113 40347 57030 333 21042
AAXX 15061 53898 32972 01804 10031 21112 40344 57028 333 21041
AAXX 15061 54308 32680 23406 11086 21231 40374 57012 82100 333 21200
AAXX 15061 54602 32970 03203 10023 21196 40340 57026 333 21101
AAXX 15061 54725 32967 02703 10004 21156 40351 57021 333 21077
AAXX 15061 54751 32580 33211 10005 21112 40313 57018 83401 333 21008
AAXX 15061 54916 32964 23601 10028 21148 40347 57025 80002 333 21040
AAXX 15061 57014 32968 12002 10053 21086 40332 57032 80002 333 00102 21078
AAXX 15061 57025 32962 01602 10038 21068 40343 57028 333 21040
AAXX 15061 57046 32971 02504 11050 21107 37995 57014 333 00100 21084
AAXX 15061 58208 32965 00703 10065 21068 40335 57025 333 20016
AAXX 15061 40716 11958 60000 11034 21057 39010 40343 52011 60001 71022 80001 333 30108 70000 86069
AAXX 15061 40719 11540 80000 10088 20071 30321 40310 52010 60001 71022 8551/ 333 31002 50091 70000 85620 88458
AAXX 15061 40721 12960 30000 10058 20019 39755 40318 53008 60001 80001 333 31102 50101 70000 83070
AAXX 15061 40858 11950 40000 10156 20075 30208 40219 52015 60001 70500 80002 30003 50241 70000 84069
AAXX 15061 40872 12960 00000 10190 20018 30204 40209 52014 60001 222// 00224 20000 333 30010 50321 70000
AAXX 15061 40877 12960 00000 10106 20023 39666 40224 52018 60001 333 30002 50301 70000
AAXX 15061 40898 12962 00202 10242 21006 30190 40199 51022 60001 222// 00243 10900 333 30015 50571 70000
BBXX BATFR55 15064 99188 30562 44598 41311 10267 20234 40126 70311 83141 22232 00274 205// 33131 40802 50802
BBXX BATFR19 15064 99058 30097 46/// /1913 10247 20202 40125 53006 22200 00260
BBXX BATFR56 15064 99136 30672 44998 21207 10272 20229 40124 51007 70000 82043 22252 00287 20802 314// 40802 5////
BBXX DCPY2 15064 99131 10567 41598 61814 10260 20215 40155 54000 70211 85464 22224 00250 20403 302// 40302 80230
BBXX C6OM8 15060 99016 70308 41396 81407 10264 20213 40099 56010 70200 887// 22243 06273 20402 314// 40402 5//// 80230
BBXX A8QJ7 15064 99120 50342 41398 30710 10250 20220 40117 55009 70311 8/7// 22213 06250 2//// 3//// 4//// 5//// 80230
BBXX BAREU56 15064 99444 10089 46/// ///// 40133 22200
BBXX TESTFR9 15064 99489 70023 46/// /2931 10098 29076 40063 52047 22234
BBXX BAREU05 15064 99402 70204 46/// ///// 40268 57023 22263
BBXX 61001 15064 99434 10078 46/// /2530 10142 20050 40150 54000 22200 00158 10604 70022 555 1/040
BBXX BAREU60 15064 99436 10135 46/// ///// 40149 54000 22252
BBXX BAREU51 15064 99404 10118 46/// ///// 40188 57006 22275
BBXX BAREU62 15064 99413 10122 46/// ///// 40184 57005 22274
BBXX BAREU12 15064 99505 70060 46/// ///// 49997 52054 22244
BBXX BATFR54 15064 99380 70096 46/// /3310 10154 20077 4//// 22283 00164
BBXX BATFR21 15064 99426 10089 46/// /2321 20167 40176 57001 22200
BBXX BATFR15 15064 99305 70342 44/97 51217 10205 20179 40249 58008 70300 8//// 22254 00224 309// 41004 5////
BBXX BATFR09 15064 99368 70005 44998 62912 10170 20135 40266 53018 70211 80005 22263 00179 20306 60//0 ICE 0/0//
BBXX BATFR24 15064 99427 10095 46/// /2730 10160 20057 40160 58002 22261 00165
BBXX BATFR52 15064 99489 70023 46/// /2931 10099 20037 40048 53061 22234 00124
BBXX BATFR20 15064 99414 10094 46/// /0638 10154 20107 40175 58016 22284
BBXX BATFR46 15064 99429 10048 44998 12918 10142 20070 40207 53009 701// 81//1 22213 00159
BBXX BATFR60 15064 99475 70040 46/// /2847 10109 20037 40098 51027 22272 00122
BBXX BATEU02 15064 99532 70092 46/// /2819 10077 20037 49948 22262 00077
BBXX BATEU06 15064 99587 70047 46/// /2923 10074 20022 49827 52160 22264 00105
BBXX BATEU09 15064 99438 10088 46/// /2234 10149 20079 40127 52010 22212 00167
BBXX BATEU08 15064 99587 10026 46/// /2625 10082 20027 49820 51020 22273
BBXX BATFR04 15064 99597 70110 44598 43516 10064 21018 49878 53017 70211 842// 22200 00102 335// 40410 5////
BBXX DDZA2 15064 99381 70103 41/98 33110 10150 20076 40305 52005 70111 8//// 22273 04170 2//// 80110
BBXX PBEO 15063 99488 70054 41597 52634 10102 20050 40066 51006 78282 858// 22212 02117 20506 331// 40808 80076
BBXX C6CU6 15063 99353 70341 41498 32220 10190 20156 40239 56030 70300 81145 22263 04200 20701 333// 41506 5//// 80170
BBXX BATFR11 15064 99347 10193 46/// /2705 10169 20105 40261 53008 22223 00192
BBXX 61002 15064 99421 10047 46/// ///08 10142 2//// 40210 52010 22200 00164 10602 70009
BBXX BATUK01 15064 99586 70059 46/// /3223 10069 20005 49850 53008 22281 00109
BBXX BAREU08 15064 99290 70511 46/// ///// 40084 57007 22214
BBXX 41101 15064 99146 70562 46/// /3208 10267 20230 40088 57016 22200 00274 10804 70018
BBXX BAREU00 15064 99463 70535 46/// ///// 40242 52009 22224
BBXX BAREU11 15064 99105 70759 46/// ///// 40094 22200
BBXX BAREU06 15064 99469 70576 46/// ///// 40255 52002 22274
BBXX PHCQ 15063 99320 70781 41/98 /0505 10190 20154 40248 51008 70011 8//// 22254 04257 20400 3//// 41003 5//// 80167
BBXX FVNM 15064 99065 70949 46/// /0115 10254 20229 40120 58006 22200 00267
BBXX BATFR08 15064 99496 30701 46/// /2616 10082 20042 40106 22233 00067
AAXX 15061 08512 11470 62109 10171 20144 30187 40272 57006 69912 72522 8583/ 333 20146 30012 5//// 55063 20910 81818 85640
AAXX 15064 16550 11698 83005 10160 20105 30004 40182 55006 69902 76061 8322/ 333 20140 30/// 55028 2//// 83840 86458 555 0////
AAXX 15061 14235 11350 8//// 10054 20054 39000 48458 56002 60142 76364 8222/ 333 20049 31/// 70141
AAXX 15061 14246 11458 80704 10082 20078 39938 40141 50004 60052 76562 8672/ 333 20080 32008 70050
AAXX 15061 14314 41656 82406 10139 20113 30080 40144 53001 60012 7612/ 888// 333 20136 32010 70025 92322 92426
AAXX 15061 14323 11558 82002 10143 20127 30103 40136 55004 60242 76169 8162/ 333 20134 32012 70242 92322 92426
AAXX 15061 14324 11/00 92709 10042 20042 38370 48471 58011 60042 76064 333 20034 32003 41998 70069
AAXX 15061 14328 NIL
AAXX 15061 14330 NIL
AAXX 15061 14438 12675 81404 10153 20124 30056 40146 57007 60002 868// 222// 00160 333 20127 31013 92311
AAXX 15061 14443 32698 518// 10157 20140 30073 40162 57/// 85420 333 20151 92312
AAXX 15061 14447 12582 71207 10166 20139 30130 40160 57/// 60002 85270 222// 00173 333 20150 31015 92323
AAXX 15061 14472 11462 81309 10138 20124 30121 40185 56011 60042 76166 8222/ 222// 00176 333 20135 32/// 70039 92312
AAXX 15061 08501 32/// /2010 10183 20141 30159 40194 57014 333 20161 30015 5//// 55039 20670 91018 91119 555 60005
AAXX 15061 08505 NIL
AAXX 15061 08506 32/// /2308 10169 20142 30174 40246 57005 333 20154 30014 5//// 55068 20913 91014 91115 555 60005
AAXX 15061 08509 11460 32104 10172 20133 30183 40248 55001 69902 72581 83800 333 20147 50304 55068 81813 91013 91120 555 69907
AAXX 15061 08511 32/// /2506 10166 20155 30144 40252 57009 333 20146 30013 5//// 55030 26191 91011 91111 555 60005
AAXX 15061 08512 11470 62109 10171 20144 30187 40272 57006 69912 72522 8583/ 333 20146 30012 5//// 55063 20910 81818 85640 555 69915
AAXX 15061 08515 11375 62007 10162 20159 30166 40288 57001 69902 72581 86800 333 20144 31010 50294 55/// 81707 85815 910// 911// 555 69907 912//
AAXX 15061 08521 11470 73603 10173 20141 30236 40307 54001 69942 72585 87800 333 20171 31/// 55079 83816 85630 555 69947
AAXX 15061 08522 32/// /0402 10177 20119 30236 40306 52001 333 20168 30014 5//// 55076 21330 91105 555 60005
AAXX 15061 08524 11470 61003 10171 20148 30209 40307 54000 69912 70381 86800 333 20159 30014 5//// 55040 21000 83815 84630 91006 91106 555 60005
AAXX 15061 08530 NIL
AAXX 15061 08531 12/// /2903 10148 20088 30271 40310 52009 69912 333 20138 30011 5//// 55029 20583 91107 555 60005
AAXX 15061 08532 NIL
AAXX 15061 08533 32/// /0601 10089 20084 30289 40319 52009 333 20082 30006 5//// 55019 20453 91111 555 60005
AAXX 15061 08534 12670 22802 10086 20078 30294 40313 52008 69902 82500 333 20086 50144 55022 82635 555 60007
AAXX 15061 08535 32/// /2801 10109 20089 30223 40318 52010 333 20106 30007 5//// 55040 20748 555 60005
AAXX 15061 08537 NIL
AAXX 15061 08540 11458 51702 10088 20080 30233 40303 53007 69912 71082 84801 333 20088 50074 55025 82817 83630 555 60007
AAXX 15061 08541 32/// /0301 10114 20078 30197 40318 52008 333 20108 30004 5//// 55037 20657 555 60005
AAXX 15061 08544 12560 41802 10088 20080 30274 40295 52010 60012 84200 333 20086 50224 55016 84820 555 60007
AAXX 15061 08545 11562 72602 10126 20072 30211 40295 52006 69992 70322 83832 333 20111 31008 50204 55029 20478 81820 83633 86072 555 60005
AAXX 15061 08548 32/// /1702 10089 20075 30098 40308 52008 333 20089 30007 5//// 55012 20403 555 60005
AAXX 15061 08551 12/// /9902 10124 20074 30230 40289 52005 69942 333 20107 30009 5//// 55057 20812 91105 555 60005
AAXX 15061 08554 32/// /0201 10090 20070 30306 40316 52008 333 20087 30010 5//// 55047 20705 555 60005
AAXX 15061 08558 12/// /2301 10048 20048 30015 40321 52011 69912 333 20042 30000 5//// 55001 20612 555 60005
AAXX 15061 08560 12/// /2402 10059 20054 39530 40305 52005 60022 333 20059 30004 5//// 55030 20522 555 60005
AAXX 15061 08561 31920 23002 10072 20072 30077 40317 52010 74140 80001 333 20072 50054 55029 82070 555 60007 96641
AAXX 15061 08562 12/// /2701 10083 20078 30016 40317 52012 69912 333 20077 30001 5//// 55028 20567 555 60005
AAXX 15061 08567 12/// /2804 10082 20062 39619 40293 52007 60012 333 20071 30006 5//// 55002 20261 91107 555 60005
AAXX 15061 08568 12/// /2908 10018 2//// 38704 48570 52012 69922 333 20012 30001 5//// 55012 20516 91013 91116 555 60005
AAXX 15061 08570 32/// /2602 10076 20060 39841 40310 52012 333 20065 30005 5//// 55035 20555 91105 555 60005
AAXX 15061 08571 12/// /3505 10072 20069 39597 40316 52008 69912 333 20067 30006 5//// 55030 20575 91008 91108 555 60005
AAXX 15061 08575 32/// /9901 10060 20039 39466 40294 52013 333 20055 30004 5//// 55013 20372 555 60005
AAXX 15061 08579 32/// /2401 10102 20082 30190 40317 52010 333 20102 30008 5//// 55041 20694 555 60005
AAXX 15063 87007 11560 80000 10060 20041 36750 47154 50000 60121 72196 8357/ 333 56599 83622 88360
AAXX 15063 87148 32970 00000 10142 20120 39988 40095 58007
AAXX 15064 87344 32965 02703 10162 20119 39593 40132 57015
AAXX 15064 87349 32970 02702 10162 20136 39744 40132 58012
AAXX 15064 87371 32962 01408 10192 20155 30102 40124 58005
AAXX 15064 87374 32965 01809 10167 20145 30025 40111 57007
AAXX 15064 87395 32965 00000 10180 20146 30045 40089 57007
AAXX 15064 87418 32965 01402 10206 20079 39334 40106 56004
AAXX 15064 87436 32970 30910 10200 20097 39317 40098 58007 81075 333 56076 81360
AAXX 15064 87448 NIL
AAXX 15064 87453 32965 01403 10152 20116 39650 40132 57011
AAXX 15064 87467 NIL
AAXX 15064 87497 NIL
AAXX 15064 87506 NIL
AAXX 15064 87509 32970 02303 10168 20085 39297 40127 58004
AAXX 15064 87534 32960 00000 10167 20122 39982 40142 58004
AAXX 15064 87548 32962 01407 10164 20147 30040 40134 57004
AAXX 15064 87576 11460 71608 10182 20162 30101 40124 58009 69901 70165 87600 333 56300 84711 84619
AAXX 15064 87582 32460 71811 10190 20164 30110 40118 57012 87500 333 56400 87615
AAXX 15064 87585 NIL
AAXX 15064 87022 32960 40000 10194 20150 39579 40076 58016 84070 333 56060 84360
AAXX 15064 87046 32665 70000 10212 20162 39098 48495 57012 87500 333 56900 87640 94060 94469 98365
AAXX 15064 87047 32570 80907 10200 20110 38788 48510 57015 885// 333 56199 88630
AAXX 15064 87097 32960 02303 10185 20170 39770 40077 58005
AAXX 15064 87121 32965 00510 10202 20119 39602 40103 57009
AAXX 15064 87129 32965 00903 10200 20130 39886 40114 57015
AAXX 15064 87155 31960 02303 10153 20141 30032 40092 57007 71000
AAXX 15064 87162 32970 02303 10160 20140 30019 40089 57004
AAXX 15064 87166 32960 02304 10182 20155 30016 40088 57008
AAXX 15064 87178 NIL
AAXX 15064 87217 NIL
AAXX 15064 87222 32970 20512 10235 20112 39568 40068 57017 80005 333 56009 82270
AAXX 15064 87257 32965 01605 10186 20122 30010 40111 57007
AAXX 15064 87270 32965 01405 10310 20075 30032 58009
AAXX 15064 87289 NIL
AAXX 15064 87311 32965 02012 10228 20093 39430 40084 58008
AAXX 15064 87320 NIL
AAXX 15064 87328 32980 01603 10160 20086 39473 40111 58001 333 95090
AAXX 15063 87480 32965 01805 10171 20140 30092 40121 58007
AAXX 15063 87532 32970 00000 10182 20144 39978 40145 54000
AAXX 15063 91802 NIL
AAXX 15063 91809 NIL
AAXX 15063 91831 36/// /0804 10260 20237 40180 52006
AAXX 15063 91841 36/// /0000 10258 20222 40167 52018
AAXX 15063 91843 31498 60406 10275 20247 40162 52012 60001 70312 83231 333 56199 83816 84360 86079
AAXX 15063 91848 36/// /0904 10251 20233 40230 57051
AAXX 15061 01003 11506 20618 11047 21093 39949 49961 57018 60001 73933 82500 333 21052 49001 91135
AAXX 15061 48870 01474 83604 10261 20227 30121 40128 58020 60023 70262 888// 333 58007 69961 83894 88696
AAXX 15061 48877 32570 70205 10267 20226 30117 40122 57020 878// 333 58004 83895 86697
AAXX 15061 48887 12570 70710 10296 20235 30083 40089 57029 69903 81208 333 59008 81895 87299
AAXX 15061 48920 01698 60210 10280 20246 30079 40082 57023 69923 70382 869// 222// 00289 2//03 333 59004 6992 1 82996 84697
AAXX 15061 48892 12598 60205 10298 20261 30079 40084 57020 60023 83208 333 59010 83895 86299
AAXX 15064 89022 46/// /2303 11111 21137 39828 49866 52007
AAXX 15064 89062 46/// /0320 10003 21012 39883 49924 57014 333 55057
AAXX 15064 91367 32474 20809 10294 20257 82100 333 561// 82815 70000 555 91506 91371 32474 40915 10278 20263 30091 40094 83243 333 56229 84815 82160 83280 70000 555 91506
AAXX 15061 40001 32970 30304 10034 20012 40221 53008 83050 333 20054 30/// 83360
AAXX 15061 40007 31923 41701 10029 20013 40250 53012 71000 84050 333 20006 31/// 84360
AAXX 15061 40025 32965 30302 10062 20023 4205 52016 80002 333 20050 30/// 83070
AAXX 15061 40045 31540 60000 10039 20016 40242 53006 71010 83860 333 20019 30/// 83830 85360
AAXX 15061 40061 32570 72802 10040 21013 40224 52015 82550 333 20036 30/// 82630 86360
AAXX 15061 40080 32565 50903 10066 21018 39484 40203 53009 83230 333 20046 30/// 83826 84360
AAXX 15061 40087 NIL
AAXX 15061 40095 NIL
AAXX 15061 13463 11350 82901 10105 20103 30156 40216 57004 60042 76166 8682/ 333 20104 32009 55005
AAXX 15061 13459 11310 81807 10070 20070 39451 40218 56007 60022 76166 8572/ 333 20068 32005 55009 85793 88597
AAXX 15061 13461 11560 81104 10139 20102 30205 40213 57005 60012 76162 888// 333 20133 32012 55056 84827 86645 92322 92426 92515
AAXX 15061 13363 32665 81402 10034 20025 39273 48488 56003 885// 333 20006 31102 55025
AAXX 15061 23914 32999 81104 11179 21195 30046 40328 57005 8807/ 333 21237
AAXX 15061 23921 11957 80000 11274 21298 30222 40357 52007 69900 77172 8802/ 333 21285
AAXX 15061 23955 41298 80000 11266 21284 30312 40382 53002 77171 886// 333 88705
AAXX 15061 23966 42997 50000 11222 21241 30233 40373 57004 80001
AAXX 15061 28138 32999 22301 11200 21219 39738 40363 52001 80001 333 21246
AAXX 15061 28224 12897 31201 11188 21206 30104 40339 52001 69900 83050 333 21220
AAXX 15061 28255 11999 20000 11245 21269 30227 40373 53007 69960 70271 82030 333 21246
AAXX 15061 28440 32597 32802 11157 21182 39978 40357 52007 82505 333 21180
AAXX 15061 28645 32964 60000 11220 21233 30044 40372 52002 80002 333 21245
AAXX 15061 28661 11996 20000 11258 21286 30266 40370 52007 69920 71071 80001 333 21280
AAXX 15061 28722 11594 11123 21142 30214 40355 58002 60010 78682 889// 333 21248
AAXX 15061 28748 31931 70000 11225 21243 30111 40378 52010 71011 80002 333 21262
AAXX 15061 28838 32997 80000 11187 21199 39860 40383 52005 8801/ 333 21266
AAXX 15061 29231 42998 60101 11213 21232 30256 40362 57004 82032
AAXX 15061 29313 41996 80402 11190 21209 30215 40348 54000 77187 8802/
AAXX 15061 29612 42997 23401 11193 21205 30165 40331 52005 80001
AAXX 15061 29638 41558 83602 11117 21130 30134 40310 58011 71022 83501
AAXX 15061 29838 41996 81401 11112 21132 30048 40293 57011 77172 8802/
AAXX 15061 29846 41910 60000 11171 21177 39898 40312 57011 71022 83031
AAXX 15061 36061 42999 80000 11125 21145 39875 40306 56002 8805/
AAXX 15061 28049 32999 71601 11230 21253 30183 40366 52008 80005 333 21250
AAXX 15061 28144 11998 20000 11273 21300 30180 40359 52004 69900 70270 80001 333 21280
AAXX 15061 28319 11496 81301 11129 21149 30148 40324 57002 69920 77177 8802/ 333 21203
AAXX 15061 28321 11999 81303 11143 21156 30104 40234 57003 69920 77172 8802/ 333 21201
AAXX 15061 28334 11998 41001 11265 21290 30038 40382 58001 69920 70171 84070 333 21260
AAXX 15061 28434 12998 70701 11185 21208 30081 40364 57002 69900 8801/ 333 21261
AAXX 15061 28552 11996 81101 11193 21219 30243 40367 52006 69920 77172 8801/ 333 21212
AAXX 15061 28666 32998 03002 11251 21276 30166 40363 52007 333 21275
AAXX 15061 28825 11995 81802 11147 21160 30189 40375 53002 69900 77372 8802/ 333 21231
AAXX 15061 29111 42999 20801 11251 21273 30278 40376 52001 82070
AAXX 15061 29209 41996 80201 11194 21213 30214 40252 52004 77172 8802/
AAXX 15061 29551 42997 30000 11183 21202 30137 40334 57013 82031
AAXX 15061 29602 42999 00000 11245 21270 30177 40333 52003
AAXX 15061 29636 41996 00000 11150 21163 30077 40310 57021 70400
AAXX 15061 29654 42999 30000 11105 21149 39656 40298 57012 82041
AAXX 15061 29712 42898 83001 11187 21206 30170 40326 54000 8802/
AAXX 15061 29724 41696 80601 11156 21169 30102 40319 54000 71022 83532
AAXX 15061 29726 42998 80000 11148 21168 30134 40313 57007 83076
AAXX 15061 29814 41297 83002 11176 21195 30170 40328 53007 78587 883// 333 86706
AAXX 15061 29827 42997 80202 11133 21146 30133 40296 57004 8802/
AAXX 15061 29923 41994 81601 11113 21126 30004 40294 57008 77372 8802/
AAXX 15061 29939 42598 80801 11108 21144 39996 40294 54000 8355/
AAXX 15061 35026 31996 80000 11168 21186 39713 40406 52006 71022 8802/ 333 21186
AAXX 15061 36021 41596 83203 11127 21133 30106 40296 52006 78582 889//
AAXX 15061 36022 41395 80304 11082 21088 30007 40279 58007 77372 8802/ 333 88509
AAXX 15061 36038 41496 71705 11030 21050 39832 40281 53011 78587 86930 333 86914
AAXX 15061 36058 42699 81102 11057 21100 39755 40289 57008 82501
AAXX 15061 36064 42699 80801 11026 21105 39690 40292 57004 889// 333 95000 95879
AAXX 15061 36229 41595 80000 11139 21141 39115 40352 57002 78682 889// 333 86924
AAXX 15061 36259 41599 82801 11222 21255 38271 48559 57007 71522 85902
AAXX 15061 34357 32597 81504 11009 21018 30150 40311 52002 885// 333 21009
AAXX 15061 34363 31296 81603 11049 21049 30196 40356 52006 72842 886// 333 21048 93517
AAXX 15061 34545 32497 81405 10000 21003 30194 40309 52005 886// 333 20002
AAXX 15061 34579 31596 81002 11050 21053 30305 40350 54000 71022 875// 333 21053
AAXX 15061 34838 32997 61303 10022 20003 30169 40268 52005 86030 333 20011
AAXX 15061 34927 31796 50000 10030 20014 30223 40261 51008 71011 84530 333 20018
AAXX 15061 34949 31230 81506 10000 21003 39727 40288 52006 71022 8265/ 333 21010
AAXX 15061 37001 32997 20601 10063 20023 30210 40251 52007 82030 333 20065
AAXX 15061 37031 31996 61502 10019 21002 30071 40271 52008 71011 80001 333 20013
AAXX 15061 37061 11993 91102 10015 20013 30137 40307 52006 69930 75154 333 20011 96047
AAXX 15061 37085 31992 90605 10032 20028 30336 40363 52002 76164 333 20028
AAXX 15061 37107 32799 50401 10048 20012 39586 40272 52007 83202 333 20037
AAXX 15061 37126 32999 82102 11023 21110 37983 48557 52004 86031 333 21035 48005
AAXX 15061 37171 32996 50602 10061 20030 30238 40257 52013 82301 333 20049
AAXX 15061 37228 32998 60000 11011 21020 39435 40296 52005 80001 333 21030
AAXX 15061 37470 32598 63101 10047 20016 30320 40297 52007 83530 333 20019
AAXX 15061 37663 32999 72803 10010 21103 39099 48558 52005 87081 333 21043
AAXX 15064 71743 17/// /3504 11075 21084 39827 40044 55006 69961 7//4/ 333 11051 21099 7////
AAXX 15064 71748 16/// /2703 11050 21057 39774 40062 55001 60001 333 11022 21052 70000
AAXX 15064 71269 16/// /3109 11111 21128 60001 333 11038 21175 70000 555 33219 40131
AAXX 15064 71270 17/// /1305 10082 20067 39854 40069 56041 60011 7//4/ 333 10091 21013 70032 555 31320 40021
AAXX 15064 71285 46/// /0000 11187 21203 6///1 333 11028 21187 7//// 555 33222 40111
AAXX 15064 71295 16/// /3105 11017 21025 39581 40023 56010 60001 333 10005 21028 70005
AAXX 15064 71954 46/// /0114 11161 21185 39815 40203 53035 6///1 333 11049 21161 7//// 555 30022 40001
AAXX 15064 71971 16/// /1303 11226 21270 30000 40047 55003 60001 333 11174 21265 70000 555 30519 40071
AAXX 15064 71018 16/// ///20 11261 21294 39951 40041 53003 60001 333 11235 21277 70000
AAXX 15064 71026 16/// /1202 11094 21114 39358 40233 50000 60001 333 7////
AAXX 15064 71063 17/// /1007 10021 20020 30035 40133 56054 60051 7//4/ 333 10022 20006 70047
AAXX 15064 71551 16/// /3407 11047 21089 39548 40218 51022 60001 333 11013 21085 70000 555 33029 40202
AAXX 15064 71575 16/// /2825 11178 21199 39854 49919 51017 60001 333 11044 21179 70000 555 32739 40053
AAXX 15064 71479 16/// /1127 10052 20048 30025 40146 51025 60001 333 10079 20049 70000 555 31648 40213
AAXX 15061 23909 11497 81502 11147 21163 30027 40294 57005 69900 77172 8671/ 333 21237
AAXX 15061 28044 32997 50901 11263 21291 30171 40356 52003 82031 333 21266
AAXX 15061 28116 11598 80000 11154 21175 30064 40314 54000 69900 70272 8257/ 333 21234
AAXX 15061 28240 32598 82301 11205 21227 30001 40358 52005 82501 333 21225
AAXX 15061 28522 11996 81602 11137 21150 30071 40348 53004 69920 77172 8802/ 333 21203
AAXX 15061 28621 11996 81405 11135 21148 30089 40339 57001 60020 77172 8802/ 333 21185
AAXX 15061 29023 42998 50000 11230 21256 30275 40383 53003 81039
AAXX 15061 29122 42999 20000 11233 21245 30291 40372 53003 80001
AAXX 15061 29328 41597 80201 11168 21186 30200 40351 52001 78582 8493/
AAXX 15061 29348 42997 30301 11176 21199 30192 40349 56002 80001
AAXX 15061 29405 41996 50201 11199 21218 30177 40337 52005 77072 84021
AAXX 15061 29418 41998 50401 11172 21191 30163 40336 52005 70281 80001
AAXX 15061 29430 42998 20000 11176 21202 30144 40335 57012 80001
AAXX 15061 29524 41998 80000 11139 21145 30154 40328 52002 70272 80002
AAXX 15061 29605 41998 80000 11242 21248 30176 40334 52010 70281 80002
AAXX 15061 29631 41997 60302 11140 21153 30117 40314 58009 70272 80002
AAXX 15061 29645 41994 51401 11187 21213 30113 40316 57013 70411 80001
AAXX 15061 29706 41996 80000 11213 21232 30167 40328 52004 71011 86015
AAXX 15061 29736 41996 83601 11131 21151 30030 40294 57025 71010 8801/
AAXX 15061 29937 41596 80401 11109 21129 30058 40291 57003 78582 889//
AAXX 15061 36034 41496 80602 11072 21081 39982 40266 57009 78587 889// 333 86710
AAXX 15061 36096 41998 40601 11306 21330 39674 40567 58012 77611 82031 333 95000
AAXX 15064 71131 16/// /3009 11105 21116 38938 40227 50003 60001 333 11057 21119 70003 555 33335 40203
AAXX 15064 71165 46/// ///00 11327 21363 39952 40260 56005 6///1 333 11266 21367 7////
AAXX 15064 71168 16/// /3217 11009 21025 39526 40110 53015 60001 333 10034 21009 70019 555 33027 40061
AAXX 15064 71186 46/// /0812 11012 21035 6///1 333 11012 21022 7//// 555 30918 40031
AAXX 15064 71190 46/// /0804 10007 21011 6///1 333 10010 21010 7////
AAXX 15064 71622 17/// ///// 10095 20084 39764 40098 57036 60081 7//4/ 333 10097 20014 70099
AAXX 15064 71924 11974 60423 11261 21308 39950 40042 52004 60001 73622 81034 333 11235 21277 48038 70000 555 10000 20000 30528 40212
AAXX 15064 71107 16/// /0509 10022 20006 30058 40172 51029 60001 333 10052 20019 7////
AAXX 15064 71423 16/// /2515 11025 21064 30233 40243 56015 60001 333 11025 21111 70000 555 32220 40061
AAXX 15064 71434 16/// /3505 11055 21062 39984 40050 55008 60001 333 11030 70000
AAXX 15064 71503 46/// /0609 11222 21247 39926 40212 58015 6///1 333 11220 21322 7//// 555 30717 40061
AAXX 15064 71506 46/// /0203 11201 21216 39200 40115 58006 6///1 333 11152 21230 7////
AAXX 15064 71514 16/// /3319 11053 21090 39485 40197 53028 60001 333 11020 21059 70000 555 33034 40003
AAXX 15064 71539 16/// /3314 11038 21091 39503 40213 53023 60001 333 11015 21053 70000 555 33134 40203
AAXX 15064 71832 16/// /1403 11008 21012 39707 40032 58035 60001 333 11008 21052 70000
AAXX 15064 71667 16/// /2002 10005 21001 39769 40013 56028 60001 333 10018 21029 70016
AAXX 15064 71682 16/// /0000 11180 21192 39976 40214 53001 60001 333 11122 21213 70003
AAXX 15061 40009 NIL
AAXX 15061 40016 32970 40000 10040 20029 40263 53006 80001 333 20029 31/// 84070
AAXX 15061 40022 32965 00401 10102 20054 40195 53008 222// 20000 333 20095 30///
AAXX 15061 40030 31/02 90000 10023 20018 40240 52015 74044 89/// 333 20015 31/// 89/05
AAXX 15061 40039 31/09 90000 10020 20015 40236 53013 74142 89/// 333 20009 31/// 98/07
AAXX 15061 40066 32570 50603 10080 20019 40199 53015 82530 333 20080 30/// 82626 85360
AAXX 15061 40072 32570 60000 10040 21002 40248 53004 83550 333 20016 30/// 83630 86360
AAXX 15061 40083 32570 50000 10020 21034 48494 53008 83550 333 20006 30/// 83630 85360
AAXX 15064 71228 16/// /2303 11155 21173 60001 333 11037 21163 70000 555 32919 40201
AAXX 15064 71374 46/// /2916 11031 21058 6///1 333 11031 21114 7//// 555 32726 40011
AAXX 15064 71903 46/// /2004 10008 21008 30116 40166 6///1 333 7////
AAXX 15064 71321 16/// /2709 11105 21153 39916 49959 51024 60001 333 11039 21108 70000 555 10020 31427 40071
AAXX 15064 71341 16/// /3406 11097 21120 60001 333 11005 21112 70000 555 32539 40093
AAXX 15064 71342 16/// /3206 11111 21135 60001 333 11024 21111 70009 555 33127 40201
AAXX 15064 71344 16/// /1202 11064 21113 60001 333 11021 21087 70000 555 33232 40142
AAXX 15064 71347 16/// /1302 11144 21157 60001 333 11057 21188 70000
AAXX 15064 71348 16/// /0902 11142 21156 60001 333 11035 21202 70000
AAXX 15064 71349 16/// ///// 11093 21109 60001 333 11029 21099 7////
AAXX 15064 71131 16/// /3009 11105 21116 38938 40227 50003 60001 333 11057 21119 70003 555 33335 40203
AAXX 15064 71924 11974 60423 11261 21308 39950 40042 52004 60001 73622 81034 333 11235 21277 48038 70000 555 10000 20000 30528 40212
AAXX 15064 71832 16/// /1403 11008 21012 39707 40032 58035 60001 333 11008 21052 70000
AAXX 15064 71228 16/// /2303 11155 21173 60001 333 11037 21163 70000 555 32919 40201
AAXX 15064 71903 46/// /2004 10008 21008 30116 40166 6///1 333 7////
AAXX 15064 71321 16/// /2709 11105 21153 39916 49959 51024 60001 333 11039 21108 70000 555 10020 31427 40071
AAXX 15064 71341 16/// /3406 11097 21120 60001 333 11005 21112 70000 555 32539 40093
AAXX 15064 71342 16/// /3206 11111 21135 60001 333 11024 21111 70009 555 33127 40201
AAXX 15064 71344 16/// /1202 11064 21113 60001 333 11021 21087 70000 555 33232 40142
AAXX 15064 71347 16/// /1302 11144 21157 60001 333 11057 21188 70000
AAXX 15064 71348 16/// /0902 11142 21156 60001 333 11035 21202 70000
AAXX 15064 71349 16/// ///// 11093 21109 60001 333 11029 21099 7////
AAXX 15064 61968 16/// /2406 10296 20235 40128 60014 333 20252 55/// 58012 90710 91109 555 60005
AAXX 15064 61970 16/// ///// 10311 20255 40125 60004 333 20268 55/// 58001 555 60005
AAXX 15064 71374 46/// /2916 11031 21058 6///1 333 11031 21114 7//// 555 32726 40011
AAXX 15061 48840 32498 80702 10190 20128 30177 40183 57028 888// 333 58007 83894 88696
AAXX 15061 48845 01497 82901 10168 20163 30184 40191 57024 60043 76162 888// 333 58013 60041 85894 88696 9616 0 555 20168
AAXX 15064 68040 12960 70905 10215 20201 48503 52013 60064 87070 333 20194
AAXX 15061 28216 11898 70000 11158 21177 30013 40319 52002 69900 77172 87010 333 21193
AAXX 15061 28428 11496 81702 11136 21150 30147 40346 57003 69930 77172 8802/ 333 21217
AAXX 15061 28451 11996 80000 11208 21230 30193 40369 52011 77172 8802/ 333 21235
AAXX 15061 28541 32981 60000 11172 21191 39834 40370 53008 82031 333 21204
AAXX 15061 28655 32998 01801 11260 21288 30113 40365 52002 333 21277
AAXX 15061 28756 11997 80000 11208 21229 30206 40370 52008 69930 77172 8802/ 333 21270
AAXX 15061 29557 42998 61801 11152 21186 30040 40325 57013 80001
AAXX 15061 29625 41998 50601 11118 21138 30128 40318 54000 70282 82031
AAXX 15061 29813 41997 89901 11139 21152 30108 40299 52002 77172 8802/
AAXX 15061 29822 41996 70000 11154 21167 30130 40305 58012 71011 80006
AAXX 15061 29915 41996 83305 11154 21160 30141 40311 52002 77173 8802/
AAXX 15061 36020 41496 83202 11110 21110 30074 40284 57001 78582 889// 333 88915
AAXX 15061 23226 11460 81606 11120 21147 30022 40250 58001 69900 70272 8653/ 333 21098 86614
AAXX 15061 23701 31480 81602 11104 21124 30086 40223 56003 70272 885// 333 21098 88614
AAXX 15061 28909 32497 81803 11133 21153 30270 40379 52005 8252/ 333 21179
AAXX 15064 65376 31925 73602 10235 20076 39653 40112 70522 80002 333 20220 59008 87076
BBXX DGOQ 15064 99544 10113 41/97 92422 10043 20009 49989 702// 22200 04056 80030
BBXX A8ZS7 15064 99246 30483 41698 10416 10280 20224 40140 58010 70200 811// 22254 04250 29901 399// 41002 80240
BBXX A8SG4 15064 99197 51388 41698 10710 10260 20202 40165 55020 70122 811// 22214 04270 80220
BBXX A8YJ9 15064 99188 70249 41498 10528 10220 20183 40166 58/// 70100 8/1// 22243 04220 20605 30000 80195
AAXX 15064 40153 11950 13506 10089 20019 39119 48513 52012 60002 70520 81080 333 20081 70000
AAXX 15064 40179 12660 21003 10111 20090 30163 40201 52013 60002 82130 333 20086 50191 55028 70000
AAXX 15064 40180 11558 29901 10116 20077 30156 40205 52015 60002 71000 82100 333 20095 70000
AAXX 15064 40190 16/// ///// 10089 20089 39870 40210 52015 60002 333 20084 70000
AAXX 15064 40199 13/// /0703 10128 20067 30179 40202 52018 60002 333 20102 55015 70000
AAXX 15061 40650 41940 80000 10062 20005 40233 52010 60002 70522 8801/
AAXX 15061 40608 12950 72502 10048 20016 40246 52006 60002 71022 87070
AAXX 15061 40621 12960 30501 10088 21020 40257 52007 60002 83030
AAXX 15061 40629 12960 80000 10052 20013 40251 54000 60002 80007
AAXX 15061 40642 12560 60000 10060 21063 40223 58006 60002 84530
AAXX 15061 40665 12960 60000 10090 20031 40241 52010 60002 86020
AAXX 15061 40676 12960 70000 10098 21003 40235 52009 60002
AAXX 15061 40656 11956 70000 10081 20023 40210 52007 60002 70611 84056
AAXX 15061 40680 12960 62701 10092 20031 40212 53005 60002 83032
AAXX 15061 40691 12960 30000 10116 20030 40250 52010 60002 80001
AAXX 15061 14008 11/91 93601 11046 21052 37424 47976 50000 60102 77174 333 21046 49090 55000 70165 92828 93110 95190
AAXX 15061 56146 32980 12002 10033 21188 36719 57033 80002 333 00251 21107
AAXX 15061 56444 32780 20701 10038 21076 36799 57022 82400 333 00003 21030
AAXX 15061 56492 11730 80000 10094 20059 39876 40293 57027 69951 76060 885// 333 00252 20072
AAXX 15061 56571 11565 82501 10049 20019 38438 57022 69971 76066 885// 333 00051 20036
AAXX 15061 57799 32965 72905 10121 20026 30186 40277 57025 8703/ 333 20071
AAXX 15061 57866 32966 80203 10092 20023 30074 40286 57027 8807/ 333 20071
AAXX 15061 57957 32961 33605 10125 20024 30061 40263 57030 83040 333 20090
AAXX 15061 57993 32970 03402 10146 20022 30081 40250 57033 333 20067
AAXX 15061 58027 32968 03202 10037 21107 30281 40335 57022 333 21018
AAXX 15061 58141 32963 10203 10038 21076 30313 40333 57022 80002 333 21012
AAXX 15061 58265 32568 23406 10071 21016 30302 40310 57008 82500 333 20060
AAXX 15061 58472 11478 83408 10080 20020 30189 40286 57006 69901 70060 8317/ 333 20078
AAXX 15061 58477 11462 83605 10080 20023 30239 40285 57007 60011 76066 887// 333 20078
AAXX 15061 58527 11660 80701 10095 20030 30216 40294 57016 69901 70060 885// 333 20063
AAXX 15061 58633 11956 80404 10073 20028 30190 40293 57017 69901 70560 8807/ 333 20067
AAXX 15061 58666 31650 83413 10094 20056 30151 40255 57015 70500 885// 333 20092 91119 91536
AAXX 15061 58725 32762 80000 10131 20018 39985 40252 57024 885// 333 20059
AAXX 15061 58921 32962 71801 10164 20079 39982 40231 57025 8704/ 333 20103
AAXX 15061 59082 32771 73404 10157 21018 30084 40232 57032 8254/ 333 20105
AAXX 15061 59211 32565 82702 10157 20077 30030 40241 57027 8117/ 333 20110
AAXX 15061 59265 11757 80703 10161 20025 30080 40219 57030 69901 76000 885// 333 20134
AAXX 15061 59293 32770 70405 10170 21016 30127 40213 57029 875// 333 20135
AAXX 15061 59501 32967 00402 10229 20103 30159 40180 57031 333 20167
AAXX 15061 59663 32963 00406 10225 20050 30078 40185 57028 333 20162
AAXX 15061 59838 32562 70407 10238 20142 30152 40162 57027 878// 333 20191
AAXX 15061 59948 32480 70712 10204 20170 39670 40154 57025 8624/ 333 20189 91119 91507
AAXX 15061 59981 32580 70404 10268 20224 30123 40130 57023 81140 333 20244
AAXX 15061 80402 NIL
AAXX 15061 80412 NIL
AAXX 15061 80416 NIL
AAXX 15061 80420 32960 00000 10235 20227 30091 40097 333 30/// 58004 555 10110
AAXX 15061 80425 11460 80000 10248 20245 30078 40109 60111 70292 8247/ 333 31/// 5699/ 58007 82613 87460 555 10110
AAXX 15061 80426 32560 80501 10224 20213 39470 40111 8352/ 333 30/// 5699/ 58004 83620 86460 555 10145
AAXX 15061 80427 32960 00202 10240 20231 39851 40103 333 30/// 59003 555 10118
AAXX 15061 80431 NIL
AAXX 15061 80434 NIL
AAXX 15061 80437 32460 80000 10236 20236 39987 40082 885// 333 30/// 569// 58003 88617 555 10088
AAXX 15061 80440 32960 03601 10250 20218 39880 40087 333 30/// 59002 555 10100
AAXX 15061 80442 NIL
AAXX 15061 80472 32960 20202 10229 20206 39627 40098 80008 333 30/// 56009 58009 555 10129
AAXX 15061 80475 32560 20000 10218 20210 39749 40112 82500 333 31/// 56900 58011 82620 555 10131
AAXX 15061 80476 32360 3//// 10264 20253 30081 40111 82530 333 30/// 56990 58004 82610
AAXX 15061 80478 NIL
AAXX 15061 80479 NIL
AAXX 15061 80400 NIL
AAXX 15061 80403 32460 20000 10263 20244 30008 40108 81520 333 30/// 56990 58000 81613 555 10111
AAXX 15061 80405 NIL
AAXX 15061 80407 NIL
AAXX 15061 80410 32460 80000 10228 20216 39431 40100 887// 333 30/// 569// 58000 88716 555 10143
AAXX 15061 80413 32460 23601 10218 20199 39625 40106 82600 333 30/// 56900 58002 82713 555 10142
AAXX 15061 80415 NIL
AAXX 15061 80419 NIL
AAXX 15061 80421 NIL
AAXX 15061 80423 NIL
AAXX 15061 80428 32960 00000 10237 20220 39899 40080 333 30/// 59001 555 10095
AAXX 15061 80432 NIL
AAXX 15061 80435 NIL
AAXX 15061 80438 11550 83101 10168 20163 38517 48514 60111 75155 885// 333 32/// 569// 59017 88620 555 10199
AAXX 15061 80444 32960 0//// 10250 2//// 30039 4//// 333 30/// 59008 555 10087
AAXX 15061 80447 NIL
AAXX 15061 80448 NIL
AAXX 15061 80450 32960 50702 10256 20232 30026 40080 80008 333 30/// 56009 55010 555 10087
AAXX 15061 80453 NIL
AAXX 15061 80457 32460 6//// 10260 20231 30015 40099 865// 333 31/// 569// 59001 86613 555 10100
AAXX 15061 80462 NIL
AAXX 15061 23205 31398 82006 11049 21077 30140 40155 53001 73632 886// 333 21049 88709 91110
AAXX 15061 22641 11499 81301 10007 20001 30064 40080 52008 60030 70287 886// 333 21002 88712 91104
AAXX 15064 61974 12581 12404 10305 20241 40120 60004 81200 333 20222 58009 81823 94329
AAXX 15064 61986 11468 60000 10280 20248 40113 69954 78011 86840 333 0//11 20260 58000 83818 84650 94329
AAXX 15064 61988 11468 73205 10293 20246 40115 60004 71522 85332 333 20245 50452 59018 81915 84818
AAXX 15064 61989 12480 72907 10280 20238 40122 60004 86802 333 20236 59017 85817
AAXX 15064 61990 11460 61211 10266 20224 40128 60104 71582 86800 333 02213 20236 50062 58005 86814 94322
AAXX 15064 61995 11465 71105 10249 20214 39649 60944 72581 87300 333 01979 20207 50002 58005 81916 84816 83650 94323
AAXX 15064 04203 46/// /3607 11147 21177 30013 40031 57010
AAXX 15064 04205 45/84 /3201 11224 21287 30013 40036 57011 333 11218 21245
AAXX 15064 04208 46/// /1014 11083 21120 39963 40010 57006
AAXX 15064 04213 NIL
AAXX 15064 04214 46/// /0607 11077 21138 39976 40009 57005
AAXX 15064 04224 45/84 /1207 11118 21160 39979 40013 57006 333 11087 21121
AAXX 15064 04228 NIL
AAXX 15064 04242 46/// /1020 11070 21113 39992 40008 57008
AAXX 15064 04253 46/// /0914 11089 21160 30002 40029 57010
AAXX 15064 04266 46/// /0406 11050 21109 30005 40044 57002
AAXX 15064 04285 46/// /3118 11040 21102 30022 40041 52006
AAXX 15064 04301 46/// ///// 11336 21386 30108 40113 52010
AAXX 15064 04313 46/// ///// 11211 21241 30117 40129 57003
AAXX 15064 04330 46/// /3518 11147 21208 30052 40070 52006 333 91033
AAXX 15064 04351 46/// /3614 11117 21197 39998 40014 57001
AAXX 15064 04373 46/// /3219 11096 21169 39927 40021 52006
AAXX 15064 04382 46/// /3404 11067 21102 39966 40015 52009
AAXX 15064 04416 NIL
BBXX 44100 15061 99363 70756 46/// ///// 1//// 90552 22200 00132 11002 21002 308// 41101 70012
AAXX 15061 50353 32970 63603 11181 21279 30003 40246 57001 80002 333 21249
AAXX 15061 50557 32970 03203 11179 21254 39932 40266 57001 333 21307
AAXX 15061 50756 32960 02902 11189 21230 39938 40268 57001 333 21266
AAXX 15061 50949 32965 02906 11114 21242 30087 40272 57009 333 21192
AAXX 15061 50963 11960 62705 11134 21179 30084 40233 57008 69901 70070 80002 333 21210
AAXX 15061 50978 32975 72705 11128 21211 39848 40221 57010 80002 333 21187
AAXX 15061 51087 32980 72502 11091 21137 39325 40363 57005 80002 333 05501 21180
AAXX 15061 51156 32780 70703 11060 21127 38772 40338 52004 85502 333 05355 21093
AAXX 15061 51644 11960 82901 11044 21073 39046 40374 57006 69901 77070 8807/ 333 05252 21107
AAXX 15061 51656 11965 73201 11035 21075 39218 40377 57010 69901 70070 80002 333 05251 21102
AAXX 15061 51886 32980 02901 11075 21290 37147 57015 333 05152 21177
AAXX 15061 52602 32980 01803 11044 21235 37307 57014 333 00100 21213
AAXX 15061 52713 32980 00901 11061 21249 36942 57011 333 00100 21205
AAXX 15061 52754 32980 02904 11052 21302 36802 57019 333 00101 21211
AAXX 15061 52818 32980 00403 11029 21222 37275 57014 333 00000 21138
AAXX 15061 52836 32980 00702 11043 21257 36926 57012 333 05104 21152
AAXX 15061 52955 32980 03401 11039 21268 36996 57019 333 00452 21211
AAXX 15061 53068 32980 02905 11169 21225 39217 40480 52009 333 00453 21235
AAXX 15061 53276 32980 02908 11180 21226 38983 40469 52004 333 21211
AAXX 15061 54135 32980 23205 11095 21242 30068 40307 57007 80002 333 21148
AAXX 15061 54236 32980 23407 11069 21232 30196 40309 57011 80002 333 21131
AAXX 15061 54539 32975 02904 11008 21199 30314 40329 57022 333 21073
AAXX 15061 54662 32675 33405 11015 21127 30187 40307 57022 83200 333 21055
AAXX 15061 54753 32568 32906 10006 21102 30316 40323 57016 83400 333 21010
AAXX 15061 54857 32980 63406 10011 21107 30231 40328 57018 80002 333 21022
AAXX 15061 57067 32968 00402 10073 21100 39625 40325 57036 333 21045
AAXX 15061 57178 32980 00902 10058 21081 30176 40341 57034 333 21006
AAXX 15061 57245 32963 70201 10100 21033 39952 40311 57028 8703/ 333 00300 20049
AAXX 15061 57297 32960 00403 10041 21054 30190 40336 57030 333 21007
BBXX 46248 15061 99461 71247 46/// ///// 1//// 90604 22200 00086 10706 20706 327// 41103 70032
BBXX 46244 15061 99409 71244 46/// ///// 1//// 90605 22200 00095 11205 21003 329// 41204 70025
BBXX 46241 15061 99330 71173 46/// ///// 1//// 90541 22200 00147 11301 20601 325// 41301 70006
BBXX 46114 15061 99364 71222 46/// ///// 1//// 90604 22200 00123 11303 21001 330// 41303 70014
AAXX 15061 01199 16/// /1610 10000 21010 39404 49861 52004 6//// 333 21006 91116
BBXX 46216 15061 99343 71198 46/// ///// 1//// 90557 22200 00142 11301 20601 326// 41301 70006
BBXX 46240 15061 99366 71219 46/// ///// 1//// 90612 22200 00126 11301 21001 336// 41301 70007
BBXX 46217 15061 99342 71194 46/// ///// 1//// 90612 22200 00144 11301 20801 319// 41301 70006
BBXX 46223 15061 99335 71178 46/// ///// 1//// 90600 22200 00155 11301 21001 320// 41301 70006
AAXX 15061 91945 36/// /0906 10260 20216 30169 40174 51015 555 58013
AAXX 15064 40608 12950 72502 10048 20016 40246 52006 60002 71022 87070
AAXX 15064 40621 12960 30501 10088 21020 40257 52007 60002 83030
AAXX 15064 40629 12960 80000 10052 20013 40251 54000 60002 80007
AAXX 15064 40642 12560 60000 10060 21063 40223 58006 60002 84530
AAXX 15064 40650 41940 80000 10062 20005 40233 52010 60002 70522 8801/
AAXX 15061 89062 46/// /0320 10003 21012 39883 49924 57014 333 55057
AAXX 15064 40582 31956 52403 10095 21039 40236 52014 70500 80001 333 55300 00326 10000 20806 30256 41053 51270 61062 55407 40550 85070 90400 91003 91105 91205 91303
AAXX 15064 41150 NIL
AAXX 15064 41168 NIL
AAXX 15064 41170 41950 02704 10180 20125 30222 40235 70500 333 20139 59002 555 00110
AAXX 15064 41176 NIL
AAXX 15064 41184 NIL
AAXX 15064 41194 NIL
AAXX 15064 41196 NIL
AAXX 15064 41198 NIL
AAXX 15064 41210 NIL
AAXX 15064 41216 NIL
AAXX 15064 41217 NIL
AAXX 15064 41218 NIL
AAXX 15064 41226 NIL
AAXX 15064 41244 36/// /3502 10210 20125 39863 48518 333 0E014 20122 58007
AAXX 15064 41246 32560 10000 10244 20164 30209 40213 81500 333 20183 3/020 58005 81625
AAXX 15064 41254 36/// /3304 10168 21126 38278 48283 333 0E004 20060 59005
AAXX 15064 41256 32560 33302 10243 20163 30205 40215 83400 333 20181 58003 83625
AAXX 15064 41258 NIL
AAXX 15064 41268 32560 13510 10248 20176 30193 40209 81500 90617 333 20165 3/019 58003 81625
AAXX 15064 41312 36/// /3406 10246 20097 30150 40190 333 0E/// 20212 59004
AAXX 15064 41314 32960 03307 10171 20095 39716 40230 333 20124 58000
AAXX 15064 41316 36/64 /3312 10241 20092 30168 40194 333 0E019 20201 59002
AAXX 15064 41404 42960 00000 10130 210038 37894 48570 333 20015 30103 59002
AAXX 15064 41407 42970 01005 10158 21127 38985 48535 333 20056 30/// 59015
AAXX 15064 41431 42960 01810 10250 20204 30141 40154 333 20205 30/// 59004
AAXX 15064 41466 42960 00904 10186 20105 38588 48491 333 20104 30/// 59002
AAXX 15064 41477 42960 01713 10260 20185 333 20240 30///
AAXX 15064 41480 41458 30813 10269 20176 30178 40181 70544 83800 333 20219 30/// 58000 83818
AAXX 15064 40405 42960 00000 10130 20050 39461 40210 333 20066 59029
AAXX 15064 40656 11956 70000 10081 20023 40210 52007 60002 70611 84056
AAXX 15064 40665 12960 60000 10090 20031 40241 52010 60002 86020
AAXX 15064 40676 12960 70000 10098 21003 40235 52009 60002
AAXX 15064 40680 12960 62701 10092 20031 40212 53005 60002 83032
AAXX 15064 40691 12960 30000 10116 20030 40250 52010 60002 80001
BBXX 46211 15061 99469 71242 46/// ///// 1//// 90606 22200 00082 11204 20903 328// 41202 70018
AAXX 15061 37575 42698 70702 10004 21007 39725 40335 52013 87550
AAXX 15061 37675 42999 02302 10031 21027 39635 40306 53008
AAXX 15061 37735 41994 /2901 10020 20004 39868 40254 53003 74342
AAXX 15061 37749 42998 30902 10019 20015 30241 40363 53010 80004
AAXX 15061 37756 42598 82701 10008 21006 39447 40379 58002 887//
AAXX 15061 37864 31495 80000 10060 20051 40317 52010 71022 885// 333 20025 86710 555 30///
AAXX 15061 37985 42597 83201 10060 20046 30336 40321 53005 885//
BBXX 46231 15061 99327 71174 46/// ///// 1//// 90554 22200 00148 11202 20801 323// 41201 70009
BBXX 46222 15061 99336 71183 46/// ///// 1//// 90556 22200 00152 11301 20701 320// 41301 70006
BBXX 46219 15061 99332 71199 46/// ///// 1//// 90558 22200 00136 11403 20902 330// 41402 70014
BBXX 46242 15061 99332 71174 46/// ///// 1//// 90558 22200 00152 11201 20701 324// 41201 70006
BBXX 64045 15064 99591 70117 46/// /3409 10067 20000 49884 51016 22200 00101 10808 70041
BBXX 62105 15064 99554 70122 46/// /2915 10083 20038 49918 51013 22200 00107 11011 70054 333 90710 91130
BBXX 62081 15064 99510 70134 46/// ///// 10077 20023 40040 52006 22200 00119 11115 70073
BBXX 62442 15064 99490 70164 46/// /2523 1//// 2//// 40058 58023 22200 00128 333 90710 91136
BBXX 62029 15064 99487 70125 46/// /2421 10095 20068 40080 58016 22200 00132 11116 70079 333 90710 91129
BBXX 62163 15064 99475 70084 46/// /2722 10113 20055 40126 52007 22200 00130 11118 70089 333 90710 91135
BBXX 62001 15064 99452 70050 46/// /2727 10131 20078 40182 52011 22200 00148 11117 70085 333 90710 91141
BBXX 64046 15064 99605 70049 46/// /3318 10068 20021 49822 53026 22200 00087 10808 70040
BBXX 62301 15064 99524 70047 46/// /2822 10074 20039 49946 51056 22200 00102 10707 70035 333 90710 91132
BBXX 62303 15064 99516 70051 46/// /2726 10090 20045 49968 51035 22200 00115 10810 70050 333 90710 91137
BBXX 62305 15064 99504 10000 46/97 /2537 10094 20039 49975 55003 22200 00123 10807 70033 333 90710 91152
BBXX 62304 15064 99511 10018 46/98 /2334 10080 20037 49959 56010 22200 00119 10703 70016 333 90710 91145
BBXX 62304 15064 99511 10018 46/98 /2334 10080 20037 49959 56011 22200 00119 10703 70016 333 90710 91145
BBXX 62170 15064 99514 10020 46/97 /2125 10088 20049 49954 55014 22200 00116 10703 70013 333 90710 91145
BBXX C6SI2 15064 99505 10003 41297 72548 10088 20052 49961 53011 71362 877// 22263 00120 20407 325// 40406 5//// 80072
BBXX AMOUK08 15064 99501 70061 46/// ///// 10096 20050 30016 40021 52024 90550
BBXX AMOUK12 15064 99533 70048 46/// ///// 10065 20036 39898 49937 52027 90550
BBXX AMOUK27 15064 99582 70064 46/// ///// 1//// 2//// 39865 49863 52022 90550
BBXX AMOUK19 15064 99598 70012 46/// ///// 10071 20027 39804 49807 52014 90550
BBXX AMOUK03 15064 99518 10027 46/// ///// 10068 20054 39902 49936 54003 90550
BBXX AMOUK05 15064 99522 10034 46/// ///// 10060 20039 39880 49921 57010 90550
BBXX AMOUK06 15064 99509 70014 46/// ///// 10077 20025 39934 49959 57010 90550
BBXX 62144 15064 99534 10017 47998 /1914 10062 20025 49922 57011 700// 22200 10402 70012
BBXX 62145 15064 99531 10028 47598 /1914 10070 20013 49936 57011 700// 22200 10504 70021
BBXX 62111 15064 99580 70003 46/// /2820 10068 20027 49859 53014 22200 10605 70023
BBXX PJAI 15064 99581 70014 47498 /2714 10077 20024 49846 52019 700// 22200
BBXX 63056 15064 99597 10016 46/// /2819 10073 20024 49788 52025 22200 10706 70032
BBXX 62112 15064 99584 70002 47498 /2714 10071 20033 49838 52017 700// 22200
BBXX 63110 15064 99595 10015 47598 /2721 10069 20032 49802 52021 700// 22200 10707 70033
BBXX 63055 15064 99606 10016 47998 /2820 10063 20025 49777 52024 700// 22200 10706 70031
BBXX 63108 15064 99608 10017 47998 /2925 10066 20015 49765 52021 700// 22200 10706 70031
BBXX 63106 15064 99610 10017 46/// /2923 10065 49759 53024 22200
BBXX 63105 15064 99610 10017 47597 ///// 10070 20029 49758 53024 700// 22200
BBXX 63113 15064 99610 10017 46/// /2920 10068 20025 49771 52023 22200 10706 70032
BBXX 63112 15064 99611 10010 47498 /3021 10060 20022 49757 52028 741// 22200 10807 70036
BBXX 63107 15064 99611 10017 46/// /2817 10065 49755 52022 22200
BBXX 63101 15064 99612 10009 46/// /3223 10070 20030 49755 52030 22200
BBXX 63103 15064 99612 10011 46/// /3024 10068 20023 49760 52025 22200 10706 70032
BBXX 63104 15064 99612 10016 47498 /2821 10066 20030 49750 53024 700// 22200
BBXX 63117 15064 99613 10011 47499 /3022 49754 52027 700// 22200
BBXX 63115 15064 99616 10013 47498 /2824 10055 20022 49748 52031 700// 22200 10708 70038
BBXX MWYG6 15064 99603 70040 47998 /3120 10073 700// 22200
BBXX 62142 15064 99530 10021 47998 /2117 10066 20030 49926 58013 700// 22200 10403 70013
BBXX 64041 15064 99607 70026 47598 /3015 10050 20011 49806 52033 700// 22200 10808 70039
BBXX 62153 15064 99573 10020 47598 /2512 10073 20026 49866 52022 700// 22200 10707 70035
BBXX 62122 15064 99573 10016 47598 /2519 10077 20025 49872 52017 700// 22200 10606 70029
BBXX 62140 15064 99573 10013 46/// /27// 10073 20021 49861 52022 22200
BBXX 62146 15064 99572 10021 47/98 /2519 10073 20021 49876 53013 700// 22200 10706 70031
BBXX 62164 15064 99572 10008 47598 /2414 10082 20027 49866 52017 700// 22200 00098 10605 70027
BBXX PJGO 15064 99571 10022 47598 /2321 10076 20034 49874 52018 700// 22200
BBXX 62133 15064 99571 10009 46/// /2318 10071 20018 49868 52018 22200
BBXX 62119 15064 99570 10019 47597 /2622 10074 20019 49880 52015 700// 22200 10706 70032
BBXX 62152 15064 99570 10018 46/// /2312 10073 20022 49881 52018 22200 10506 70029
BBXX 62154 15064 99564 10022 46/// /2415 10069 20009 49885 52014 22200
BBXX 62120 15064 99564 10021 47598 /2518 10071 20012 49885 52015 700// 22200
BBXX 62132 15064 99564 10020 46/// /2611 10071 20011 49890 52008 22200
BBXX 62123 15064 99563 10022 47998 /2418 10072 20023 49885 52013 700// 22200
BBXX 62165 15064 99540 10009 47498 /2107 10057 20029 49918 56009 700// 22200 10402 70012
BBXX 62127 15064 99540 10007 47998 ///// 10054 20027 49910 56008 700// 22200 10402 70011
BBXX 62131 15064 99539 10012 46/// /18// 10054 20031 49915 57009 22200
BBXX 62149 15064 99537 10011 47998 /1817 10056 20029 49914 57012 700// 22200 10402 70011
BBXX 62148 15064 99536 10015 46/// /1915 10053 20023 49922 57012 22200
BBXX 62150 15064 99536 10007 47698 /1817 10054 20023 49916 57012 700// 22200 10402 70009
BBXX 62121 15064 99535 10027 46/// /2011 10060 20021 49934 57007 22200
BBXX 63057 15064 99592 10015 47998 /2722 10078 20023 49810 52022 700// 22200 10706 70032
BBXX 62128 15064 99587 10014 47998 /2621 10074 20027 49826 52023 700// 22200 10706 70032
BBXX 62129 15064 99584 10003 46/// ///// 10072 20030 49839 52015 22200
BBXX 62113 15064 99584 10002 47498 /2619 10072 20030 49842 52016 700// 22200
BBXX ZQSD5 15064 99583 10007 46/// /2620 10076 20033 49846 53027 22200 10808 70042
BBXX 62114 15064 99583 10000 46/// /2621 10072 20031 49837 52019 22200
BBXX 62134 15064 99580 10014 47698 /2619 10073 20031 49851 52021 700// 22200 10606 70029
BBXX 62104 15064 99574 10013 47598 /2616 10081 20025 49861 52021 700// 22200
BBXX 62116 15064 99576 10011 47598 /2619 10075 20016 49855 53018 700// 22200 10606 70032
BBXX 62155 15064 99577 10007 47598 /2621 10072 20021 49861 53015 751// 22200 10606 70029
BBXX 62118 15064 99577 10009 47598 /2518 10078 20019 49851 52017 700// 22200 10706 70029
BBXX 62143 15064 99577 10018 47598 /2720 10077 20017 49865 53013 700// 22200 10607 70033
BBXX 62117 15064 99579 10000 47697 /2618 10071 20027 49850 52019 762// 22200 10605 70026
BBXX 62102 15064 99579 10018 46/// /2618 10080 20030 49850 52023 22200 10707 70035
BBXX AMOUK14 15064 99535 70030 46/// ///// 10030 20022 39875 49909 52025 90550
BBXX AMOUK09 15064 99506 70024 46/// ///// 10081 20041 39957 49977 52015 90550
BBXX 62027 15064 99491 70022 46/// /2932 1//// 2//// 40032 53003 22200 00116 11409 314// 70043 333 90710 91144
BBXX 62094 15064 99517 70067 46/// /2728 10082 20040 49976 51024 22200 00108 10910 70050 333 90710 91137
BBXX 62107 15064 99501 70061 46/// /3045 10094 20041 40021 52025 22200 00115 11114 70072 333 90710 91156
BBXX 62103 15064 99499 70029 46/98 /2843 10088 20019 49988 52020 22200 00124 11013 70064 333 90710 91155
BBXX 62095 15064 99530 70159 46/// /3018 10069 20026 49998 50006 22200 00114 11013 70066 333 90710 91130
BBXX 63110 15063 99595 10015 41/98 /2730 10071 20033 49800 72586 8//// 22200 10907 70035
BBXX DGAF 15063 99556 70220 41/97 /1505 10045 20023 49885 57015 76182 8//// 22264 00110 2//// 80035
BBXX 62103 15064 99499 70029 46/98 /2938 10098 20038 40000 52029 22200 00124 11112 70060 333 90710 91153
BBXX 2AAY7 15063 99578 70010 41698 22613 10070 20047 49889 52084 7//00 81744 22212 20502 307// 40503 80060
AAXX 15061 28696 11959 70000 11297 21321 30183 40342 52010 69900 70411 80001 333 21314
AAXX 15061 28383 11970 80000 11257 21281 30260 40355 52008 69900 72271 80007 333 21288
AAXX 15061 28688 11998 53102 11254 21278 30163 40342 52005 69930 70271 83032 333 21274
BBXX JGQH 15064 99252 11291 41/97 80819 10195 20177 40171 55010 70222 882// 22273 00232 1//// 20503 309// 40802
BBXX JPBN 15064 99343 11410 41/98 22533 10169 20076 40090 58014 70200 82120 22271 00214 1//09 20809 399// 4//// 70045
BBXX JGQH 15064 99252 11291 41/97 80819 10195 20177 40171 55010 70222 882// 22273 00232 1//// 20503 309// 40802
BBXX JPBN 15064 99343 11410 41/98 22533 10169 20076 40090 58014 70200 82120 22271 00214 1//09 20809 399// 4//// 70045
AAXX 15061 29998 42999 01502 11270 21309 38743 48575 58020
AAXX 15061 30385 42999 00000 11238 21263 39751 40335 58012
AAXX 15061 30469 42999 21801 11256 21288 39558 40396 58012 82041
AAXX 15061 30636 42998 00000 11261 21267 39796 40477 58005
AAXX 15061 30650 42999 00000 11222 21263 39206 40425 57008
AAXX 15061 30664 42999 00000 11217 21257 39318 40392 58015
AAXX 15061 30781 42999 00000 11188 21229 39829 40334 58012
AAXX 15061 30777 42998 02401 11217 21257 39667 40378 58005
AAXX 15061 30844 42999 02702 11192 21225 39398 40457 58008
AAXX 15061 30925 42999 01704 11158 21218 39419 40461 58011
AAXX 15061 31371 42999 03203 11178 21257 39965 40247 58004
AAXX 15061 31388 42999 20000 11223 21264 39935 40219 57003 80001
AAXX 15061 31478 NIL
AAXX 15061 31532 42999 00201 11291 21315 39847 40227 57005
AAXX 15061 31594 42999 02903 11206 21239 30036 40221 54000
AAXX 15061 31655 42998 62002 11182 21223 30126 40177 53005 83051
AAXX 15061 31754 42999 61403 11192 21240 39644 40177 53002 82061
AAXX 15061 22438 12566 82104 10005 21009 30012 40033 57006 69940 885// 333 20000
AAXX 15061 28586 11998 83401 11256 21281 30174 40340 52009 69920 70271 80007 333 21260
AAXX 15061 28791 11996 82901 11261 21279 30181 40344 52008 69900 77172 80007 333 21298
AAXX 15061 28588 11982 03201 11259 21284 30163 40342 52010 69930 70171 333 21265
AAXX 15061 28465 11996 80000 11231 21249 30286 40372 52008 69920 77172 8807/ 333 21233
AAXX 15061 23929 32979 82001 11262 21287 30296 40372 52008 82031 333 21254
AAXX 15061 38388 NIL
AAXX 15061 38392 32798 70905 11020 21074 30278 40387 52003 87500 333 21067 87653
AAXX 15061 38507 32998 20806 10021 20005 30232 40338 52018 80001 333 21004
AAXX 15061 38511 NIL
AAXX 15061 38545 32998 03603 11014 21062 30197 40382 52008 333 21042
AAXX 15061 38647 32497 80706 10010 21010 30291 40335 52009 886// 333 20010
AAXX 15061 38656 NIL
AAXX 15061 38687 32997 03603 10003 21011 30128 40374 52011 333 21032
AAXX 15061 38750 32997 20702 10027 20006 30350 40321 53011 80001 333 20000
AAXX 15061 38763 32597 80704 10011 21009 30239 40349 52003 885// 333 20007 88620
AAXX 15061 38774 NIL
AAXX 15061 38799 32997 00000 10004 21005 30125 40367 52002 333 21059
AAXX 15061 38806 32997 00901 10018 20002 30095 40366 52012 333 21040
AAXX 15061 38880 32697 60702 10059 20017 30086 40346 52010 83530 333 20032
AAXX 15061 38886 31997 61301 10017 21017 30120 40357 52016 72841 80009 333 21031
AAXX 15061 38895 31994 01501 10024 20008 30070 40371 52013 71040 333 21012
AAXX 15061 38911 31996 81203 10012 20025 30056 40364 52011 71042 8807/ 333 21022
AAXX 15061 38915 32997 61402 10044 20016 30027 40361 51007 86050 333 20005
AAXX 15061 38974 32998 20000 10040 20000 30008 40352 52006 80002 333 21012
AAXX 15061 38987 32596 82102 10003 21021 39591 40365 52013 885// 333 20004
BBXX 46221 15061 99339 71186 46/// ///// 1//// 90545 22200 00148 11301 20801 320// 41301 70007
AAXX 15064 87692 31558 51410 10170 20150 30149 40174 57015 71011 85500 333 56500 85620 555 10173
AAXX 15061 38847 3//// /1300 10007 21005 39560 40350 333 21003 777 92092
BBXX 44098 15061 99428 70702 46/// ///// 1//// 90607 22200 00092 11002 21002 311// 41101 70011
BBXX 44097 15061 99410 70711 46/// ///// 1//// 90602 22200 00126 10902 20902 316// 41101 70010
BBXX 41052 15061 99183 70648 46/// /0207 10266 40106 58011 90600 22200 00278 333 91208
AAXX 15064 61017 32960 50404 10140 20000 39764 40181 80002 333 05100 20068 50464 55099 58007 85080
AAXX 15064 61024 32960 50606 10112 21056 39592 40171 80002 333 00500 20096 51461 55/// 58006 85080
AAXX 15064 61036 32965 70406 10176 21056 39900 40141 80008 333 01600 20170 50991 50894 55090 58004 87280
AAXX 15064 61043 32960 50608 10135 21080 39704 40151 80002 333 0//00 20134 51091 5///4 55105 58005 85080
AAXX 15064 61045 32965 50402 10110 21063 39661 40170 80002 333 00800 20110 5//// 50824 55100 58001 85080
AAXX 15064 61049 31956 70000 10092 21040 39834 40163 7062/ 80008 333 00600 20090 50771 50704 55106 58009 87280
AAXX 15064 61052 32960 30804 10168 21062 39887 40146 80002 333 01200 20150 50981 55100 58004 83080
AAXX 15064 61075 32960 50000 10157 20004 39832 40135 80002 333 01400 20155 50711 50594 55104 58002 85080
AAXX 15064 61080 32960 70806 10131 21073 39731 40159 80008 333 00700 20130 51031 51034 55104 58001 87280
AAXX 15064 61090 32960 73604 10132 20048 39642 40162 80008 333 01100 20130 50971 50904 55106 58006 87280
AAXX 15064 61091 32965 50000 10100 20022 39709 40174 80002 333 00600 20092 50521 50454 55104 58007 85080
AAXX 15064 61096 31920 70402 10114 21067 39775 40165 70622 80008 333 00900 20110 50961 50814 55102 58008 87280
AAXX 15064 61099 32960 70408 10188 21009 39892 40122 80008 333 01500 20182 50981 55094 58000 87280
BBXX 41052 15061 99183 70648 46/// /0207 10266 40108 90550 333 91208
BBXX 41052 15061 99183 70648 46/// /0305 10266 40108 90540 333 91207
BBXX 41053 15061 99185 70661 46/// /3608 10251 40119 90600 22200 00279 11104 70021 333 91210
AAXX 15061 40700 11557 72203 10006 21006 30234 40327 53008 60001 71032 85606 333 30105 70000 85720 86267
AAXX 15061 40723 11957 10000 11004 21052 39012 40341 51003 60001 70500 80001 333 31108 70000 81067
AAXX 15061 40726 11650 80000 11014 21045 38740 40326 53009 60001 70522 8352X 333 34104 70000 83635 88458
AAXX 15061 40727 11956 80000 11020 21052 38556 40326 51006 60001 70522 80007 333 34106 70000 88270
AAXX 15061 40734 12562 60000 10092 20041 30332 40306 51004 60001 81106 333 30000 50130 70000 81830 86268
AAXX 15061 40737 12960 50000 10040 20027 30290 40309 53002 60001 80001 333 31106 50081 70000 85069
AAXX 15061 40741 12960 00000 10042 20030 30017 40368 53016 60001 333 30103 70000
AAXX 15061 40780 12960 81202 10066 21120 38735 40245 52009 60001 86077 333 30002 5//// 70000 86360 88269
AAXX 15061 40791 12965 50000 10060 21073 39454 40304 52016 60001 81071 333 30000 50221 70000 81464 85069
AAXX 15061 40792 12970 21002 10050 21113 38804 40300 52017 60001 80001 333 30104 70000 82070
AAXX 15061 40794 11958 70000 10094 20050 30129 40229 52020 60001 70500 90545 333 30000 50281 70000 87270
AAXX 15061 40812 12960 60000 10092 20048 39830 40213 53010 60001 80007 333 30004 50121 70000 86270
AAXX 15061 40829 12960 13306 10103 21079 39700 40289 51014 60001 80001 333 30105 5//// 70000 81070
AAXX 15061 40833 12960 60000 10110 20053 30203 40236 52018 60001 80006 90550 333 30003 50361 70000 86270
AAXX 15061 40835 12960 50000 10136 21026 39399 40244 52021 60001 80006 333 30000 50281 70000 85270
AAXX 15061 40845 12960 33603 10176 20113 30214 40219 52013 60003 80002 90545 333 30012 50421 70000 83070
AAXX 15061 40882 12965 00905 10236 20081 30176 40211 52016 60001 333 30013 50621 70000
AAXX 15061 40889 12960 00806 10244 20098 30205 40211 51013 60003 222// 00252 20400 333 30014 50401 70000
AAXX 15061 40890 12965 00404 10250 20112 30196 40203 51017 60003 222// 00246 20301 333 30014 50650 70000
AAXX 15061 40893 12962 03602 10218 20100 30203 40209 52013 60001 222// 00200 20401 333 30015 50491 70000
AAXX 15061 40897 15960 00603 10228 21051 30196 40211 51011 60001 333 30009 50671 70000
AAXX 15061 38844 42999 50901 11002 21097 48540 52009 85030
BBXX 46088 15061 99483 71232 46/// /0502 10058 40185 90620 22200 00079 1//00 70002 333 91203 555 11023 22023 30538 40204 60619 044023 038026 051025 049028 024035 023031
BBXX 46111 15061 99481 71227 46/// /2002 10058 40186 53016 90600 22200 00058
BBXX OUTK2 15064 99153 31087 41398 21721 10277 20254 40064 58009 70200 8/2/1 22235 00293 20402 317// 40704 80261
AAXX 15064 71816 12974 62004 11115 21167 30119 40182 58001 60001 80001 333 11095 21181 70000 555 10000 20000 32725 40011
BBXX DQVJ 15061 99477 11541 41698 80609 11020 21055 49995 56005 7//22 887// 22254 00026 20601 327// 41005 5//// 61013
BBXX A8XD5 15064 99416 11429 41296 63036 10060 20015 40090 57/// 70375 8572/ 22223 04090 20510 331// 40510 80040
BBXX SHIP 15064 99273 11349 41298 83512 10205 20158 40159 56014 70222 86827 22254 00240 20301 311// 40403 5//// 80175
BBXX DHEB 15063 99524 11758 41597 62521 11005 21018 49820 52020 78577 865// 22224 04050 29904 330// 4//06 5//// 81010
BBXX SHIP 15064 99206 11209 41598 60324 10265 20216 40144 57035 70315 842// 22254 00266 20302 306// 40407 80230
BBXX SHIP 15064 99251 11346 41497 50314 10225 20185 40162 56001 70322 81202 9//// 22272 00257 20401 40805 6//// 80198
BBXX 46239 15061 99363 71221 46/// ///// 1//// 90551 22200 00130 11404 21002 330// 41403 70019
BBXX 41053 15061 99185 70661 46/// /3609 10251 40120 90550 333 91211
BBXX 41053 15061 99185 70661 46/// /3609 10252 40120 90540 333 91211
BBXX SHIP 15064 99310 71681 41596 63122 10190 20142 40149 51017 70102 85/// 90555 22264 00230 2//// 3//// 4//// 5//// 80210
BBXX 52200 15061 99134 11448 46/// ///// 1//// 90615 22200 00288 11005 21005 308// 41102 70025
BBXX 51201 15061 99217 71581 46/// ///// 1//// 90612 22200 00242 11503 20802 333// 41502 70015
BBXX 41115 15061 99184 70673 46/// ///// 1//// 90605 22200 10704 20704 300// 41101 70022
BBXX 41114 15061 99276 70802 46/// ///// 1//// 90616 22200 00230 11104 21003 307// 41102 70019
AAXX 15064 71816 12974 62004 11115 21167 30119 40182 58001 60001 80001 333 11095 21181 70000 555 10000 20000 32725 40011
BBXX 3EDA4 15063 99033 11510 41998 00330 10270 20243 40053 70066 8000 22216 00296 20503 30505 40503 50503 80250
BBXX 3EDA4 15063 99033 11510 41998 00330 10270 20243 40053 70066 8000 22216 00296 20503 30505 40503 50503 80250
AAXX 15064 87078 NIL
AAXX 15064 87244 NIL
AAXX 15064 87393 NIL
AAXX 15064 87416 32965 02308 10189 20087 39385 40114 58001
AAXX 15064 87563 NIL
AAXX 15064 87640 NIL
AAXX 15064 87688 NIL
AAXX 15064 87774 NIL
AAXX 15064 87852 NIL
AAXX 15064 87896 NIL
AAXX 15064 87593 NIL
AAXX 15064 87623 32980 00506 10171 20130 39930 40151 56001
AAXX 15064 87641 32965 60903 10156 20138 39990 40163 57012 80006 333 56002 86270
AAXX 15064 87645 31358 81407 10156 20142 39960 40164 57015 71021 885// 333 56399 88608
AAXX 15064 87648 NIL
AAXX 15064 87692 NIL
AAXX 15064 87715 NIL
AAXX 15064 87750 32965 00912 10144 20131 30074 40171 58004
AAXX 15064 87765 31958 01610 10156 20008 39196 48517 51005 70400 333 96104 96120
AAXX 15064 87784 NIL
AAXX 15064 87791 NIL
AAXX 15064 87800 NIL
AAXX 15064 87803 31640 20000 10186 20081 39225 40100 55001 70400 81404 333 56707 81635 96104
AAXX 15064 87828 32980 00000 10164 20136 30121 40171 51001
AAXX 15064 87860 31965 02303 10138 20100 30125 40179 58005 71000 333 96004 96120
AAXX 15064 87904 NIL
AAXX 15064 87909 NIL
AAXX 15064 87925 32980 43611 10150 20086 30153 40175 57009 80006 333 56006 84270
AAXX 15064 87938 NIL
AAXX 15063 87016 32962 43604 10210 20188 39682 40079 57013 80006
AAXX 15063 NIL
AAXX 15064 08184 02562 70000 10064 20050 30051 40210 53013 60002 818// 333 20052 3/003 55044 60007 70012
AAXX 15060 67584 12580 20101 10246 20186 69924 82100 333 20185 70002 82825 555 10304 7//98
AAXX 15060 67692 32680 73602 10278 20182 81106 333 20197 81830 87080 555 10322 7//22
AAXX 15061 21432 41998 21706 11267 21298 30127 40148 54000 73630 82030
AAXX 15061 21824 41998 71906 11198 21221 30129 40138 53004 73673 86031
AAXX 15061 21908 42999 73201 11110 21130 30113 40194 52008 87010
AAXX 15061 21921 41997 80000 11244 21269 30126 40174 54000 77072 8807/
AAXX 15061 21931 42998 02002 11304 21341 30131 40166 53008
AAXX 15061 21946 42399 60000 11330 21353 30149 40237 57012 83630
AAXX 15061 21982 31998 00205 11201 21234 30241 40270 52004 70230 333 11191 91109
AAXX 15061 25062 32997 20804 11309 21338 30234 40238 58001 80001 333 11240 91106
AAXX 15061 25123 41596 81401 11204 21229 30173 40208 53003 77172 885// 333 88629
AAXX 15061 25138 41599 70601 11243 21261 30078 40210 53006 70272 82531 333 91104
AAXX 15061 25173 31995 00000 11373 21388 30246 40251 52002 71000 333 11242 91100
AAXX 15061 25248 41596 80000 11224 21242 39739 40218 53006 77372 8552/ 333 91101
AAXX 15061 25282 32984 03305 11245 21257 30214 40221 53002 333 11230 91107
AAXX 15061 25325 NIL
AAXX 15061 25356 32999 50000 11281 21311 30083 40191 52006 80001 333 11143 91000
AAXX 15061 25399 11462 80205 11128 21141 30129 40139 53001 69900 73632 888// 333 1//// 91107
AAXX 15061 25428 41673 70000 11277 21308 39838 40201 53003 77872 86536 333 91100
AAXX 15061 25551 31998 70203 11169 21203 30122 40154 52006 70232 80006 333 11/// 91110
AAXX 15061 25563 31984 20610 11154 21196 30069 40151 52002 73630 80001 333 11134 91120
AAXX 15061 25594 31998 03609 11152 21186 30055 40108 57018 73630 333 11148 91113
AAXX 15061 25677 11496 80206 11076 21098 30092 40098 53008 69902 77173 8557/ 333 11038 85617 91112
AAXX 15061 31054 41998 80901 11438 21461 39997 40318 57004 77172 83026
AAXX 15061 31123 41999 01801 11362 21390 39949 40311 58025
AAXX 15061 14216 12565 80301 10121 20112 39982 40132 56008 60072 887// 333 20120 32010 70192 923// 924/7
AAXX 15061 14219 11330 81502 10072 20054 39127 48448 55/// 60102 76186 888// 333 20064 32005 70156
AAXX 15061 14232 11457 83302 10086 20084 30007 40142 55000 60132 7636/ 8162/ 333 20079 32007 70125
AAXX 15061 14234 11540 83002 10090 20086 39896 40141 58005 60082 7616/ 8372/ 333 20084 31006 70079
AAXX 15061 14236 11660 81901 10102 20093 39939 40134 55/// 60072 763// 8802/ 333 20100 31007 70069
AAXX 15061 14244 11460 81201 10093 20085 30019 40148 53002 60022 7612/ 885// 333 20091 32007 70015
AAXX 15061 14248 11660 80502 10089 20085 39966 40139 57/// 60172 76162 8352/ 333 20085 32007 70175
AAXX 15061 14253 12660 80203 10090 20082 39966 40138 54001 60002 885// 333 20087 32008 70035
AAXX 15061 14256 11460 81007 10075 20073 39829 40147 50008 60052 76366 8677/ 333 20075 32/// 70048
AAXX 15061 14280 11520 70602 10065 20050 30038 40148 56005 60002 7102/ 82570 333 20060 31003
AAXX 15061 14308 11530 81401 10100 20091 39781 40130 57007 60012 72166 886// 333 20098 32007 70012
AAXX 15061 14321 11563 81504 10136 20125 30119 40142 56/// 60012 760// 888// 222// 00141 333 20135 32012 70023 92323 92437
AAXX 15061 14370 12560 80601 10076 20053 30031 40140 57008 60002 886// 333 20044 31004
AAXX 15061 14382 12670 81202 10085 20041 30026 40146 56007 60002 8552/ 333 20068 32004
AAXX 15061 14428 NIL
AAXX 15061 14441 12565 71603 10164 20125 30128 40152 56007 60002 81176 222// 00175 333 20153 30012 92322
AAXX 15061 14452 NIL
AAXX 15061 14454 12675 81103 10158 20118 30108 40167 56005 60022 888// 333 20138 31013 70019 92322
AAXX 15061 14462 12565 71203 10147 20126 30172 40178 57/// 69982 87800 333 20131 31012 70008
AAXX 15064 61600 32960 00606 10195 20032 30137 40142 333 20186 50874 55036 58004
AAXX 15064 61612 31950 40604 10204 20000 30139 40147 83082 333 01800 20198 50781 55008 58000 83363
AAXX 15064 61627 32957 60406 10170 21006 3//// 4//// 84082 333 01000 20160 50864 55064 5//// 84363 83073
AAXX 15064 61630 32960 33606 10202 20043 30115 40134 80002 333 01600 20194 50692 55056 59010 83073
AAXX 15064 61641 32958 60415 10235 20113 30101 40134 85032 333 02100 20234 51084 55050 58006 85363 83073
AAXX 15064 61666 32956 40404 10185 20078 30120 40128 82032 333 01400 20130 50544 55068 58000 82363 83073
AAXX 15064 61679 32958 23606 10195 20082 30124 40132 80002 333 02100 20193 50834 55067 58001 82073
AAXX 15064 61687 32960 63604 10180 20029 30070 40127 80006 333 01200 20160 50511 55098 58004 86273
AAXX 15064 61695 32956 70216 10205 20039 30097 40123 80002 333 01500 80195 50494 55093 58005 83073
AAXX 15064 61697 32960 30408 10200 20091 30108 40123 80001 333 01600 20198 50053 55086 58006 83073
AAXX 15064 61698 32958 50000 10116 20094 30118 40129 80002 333 00900 20115 50354 55075 58010 85073
AAXX 15064 61699 32958 60406 10176 20059 39910 40099 80002 333 01300 20166 50664 55098 59003 86073
AAXX 15061 14328 11458 80503 10103 20101 39735 40125 55005 60312 7216/ 885// 333 20102 32008 70357
AAXX 15061 14330 11560 81402 10107 20085 39475 40131 56008 60022 7616/ 885// 333 20104 32009 70043
AAXX 15064 65528 NIL
AAXX 15064 65536 NIL
AAXX 15064 65545 31930 0//// 10190 20139 39687 40114 70500 333 20188 59007
AAXX 15064 65548 NIL
AAXX 15064 65555 NIL
AAXX 15064 65557 31401 6//// 10198 20192 39874 40114 74622 86500 333 20175 59002 86611
AAXX 15064 65560 32956 4//// 10184 20168 39800 40110 80002 333 20166 58001 84076
AAXX 15064 65562 31940 0//// 10193 20182 3//// 4//// 71000 333 20186 5////
AAXX 15064 65563 31950 00000 10155 20155 39874 40117 71000 333 20155 58004
AAXX 15064 65578 31930 00402 10237 20234 30096 40105 71000 333 20235 59002
AAXX 15064 65585 32958 0//// 10235 20222 3//// 4//// 333 20232 5////
AAXX 15064 65592 31940 0//// 10221 20220 30074 40097 71000 333 20221 59002
AAXX 15064 65594 NIL
AAXX 15064 65599 32958 0//// 10231 20228 30021 40095 333 20230 59001
AAXX 15064 13623 11950 80000 10100 20100 30221 40227 54000 60002 76022 8807/ 333 20100 31/// 88360
AAXX 15064 13611 12660 71406 10120 20087 30126 40217 52005 60002 87500 333 20095 30/// 87633
AAXX 15064 64400 32456 81404 10250 20230 30102 40121 888// 333 02100 20249 50494 55018 58002 83810 88626
AAXX 15064 64401 32460 80000 10229 20217 39750 40123 8257/ 333 02000 20223 50194 55034 59001 82616 88363
AAXX 15064 64450 11458 70000 10224 20214 39758 40111 60304 70196 8487/ 333 02065 20218 50184 55053 59001 81810 84620 87363
AAXX 15064 64453 11260 80000 10200 20194 39/// 40/// 60114 74444 8562/ 333 01969 20179 50124 55076 5//// 85703 88462
AAXX 15064 64459 32460 72802 10225 20210 39758 40121 83930 333 01700 20214 50314 55/// 59004 82810 81930 86360 94941 95811
BBXX 42362 15061 99278 70907 46/// /1409 10233 20194 40207 90615
BBXX 46147 15061 99518 71312 46/// /0106 10046 40174 52030 22200 00081 11104 70020 333 91207
AAXX 15064 93800 16/// /9901 10158 20151 40028 52004 60141
AAXX 15064 93805 16/// /1417 10116 20108 40063 52004 69981
AAXX 15064 87692 31558 51410 10170 20150 30149 40174 57015 71011 85500 333 56500 85620
BBXX 46147 15061 99518 71312 46/// /0106 10046 40174 52030 22200 00081 11104 70020 333 91207
AAXX 15061 48808 31470 73201 10204 20105 39918 40203 57032 70241 878// 333 58016 82894 87696
AAXX 15061 48830 32770 70505 10174 20073 39895 40205 57029 875// 333 58024 87697
AAXX 15061 48839 32497 80212 10180 20134 30118 40185 58026 888// 222// 00203 2//03 333 58008 82894 88696
AAXX 15061 48826 31556 80202 10180 20142 30059 40197 58022 71022 888// 333 58018 82895 88697
AAXX 15061 25703 41697 80103 11239 21278 39922 40212 53002 77172 8252/
AAXX 15061 25745 41697 70611 11115 21150 30014 40066 52013 73732 87500 333 91017 91119
AAXX 15061 25913 41697 80704 11142 21169 39890 40043 57003 77172 8252/
AAXX 15061 25954 42598 80210 11020 21115 39838 49727 53021 83531 333 91013 91113
AAXX 15061 25956 41/96 90615 11023 21048 39936 49942 51002 73832 333 91016 91118 92982
AAXX 15061 31088 42999 33604 11207 21264 30084 40092 56002 81041
AAXX 15061 31873 42998 02803 11158 21238 30078 40221 57005
AAXX 15061 31909 42999 13007 11110 21220 30056 40137 53002 80001 333 91015 91117
AAXX 15061 31960 42599 40206 11099 21193 39968 40214 56003 82131 333 91113
AAXX 15061 31961 42998 81002 11101 21174 30171 40220 58009 83031
AAXX 15061 32053 41998 73103 11164 21206 30056 40107 53004 70282 83032 333 91005 91107
AAXX 15061 32061 42598 60204 11156 21175 30079 40120 55000 83932 333 91007 91108
AAXX 15061 32098 42598 20104 11135 21196 30087 40097 55000 81903 333 91008 91110
AAXX 15061 32150 41596 70205 11093 21123 30051 40082 53017 78583 83931 333 91008 91112
AAXX 15061 32165 41598 62808 10013 21075 39941 40001 57012 70282 86900 333 91013 91114
AAXX 15061 32215 41568 63203 11039 21106 39956 49986 57013 78583 86900 333 91005 91110
AAXX 15061 32252 NIL
AAXX 15061 32389 41394 82806 11083 21082 39825 49862 57005 77373 887// 333 91113 92982
AAXX 15061 32477 42997 80000 11157 21170 39930 49963 57008 8807/
AAXX 15061 32583 42599 62914 11049 21117 39833 49863 56005 82541 333 91018 91121
AAXX 15061 32618 41496 82304 10009 21002 39675 49697 53004 78583 889//
AAXX 15064 71737 17/// /1204 11016 21022 39623 40147 58045 60021 7//4/ 333 10002 21026 70018 555 10040 20018
AAXX 15064 71276 16/// ///03 11128 21136 60001 333 11037 21135 7////
AAXX 15064 71217 16/// /1005 11093 21105 60001 333 11017 21129 7////
AAXX 15064 71224 16/// /1906 11101 21114 60001 333 11004 21122 7////
AAXX 15064 71463 46/// /2019 10085 20060 39904 40126 58037 6///1 333 10088 20048 7//// 555 32125 40041
AAXX 15064 71332 16/// /2610 11188 21208 30173 40204 57001 60001 333 11186 21279 70000 555 33126 40101
AAXX 15064 71340 16/// /1104 11160 21172 60001 333 11018 21167 70000
AAXX 15064 71343 16/// /1405 11083 21106 60001 333 10005 21083 70000 555 32732 40102
AAXX 15064 71976 46/// /2620 11200 21221 39362 49999 5/010 6///1 333 7////
AAXX 15064 71979 16/// ///// 11149 21175 38478 40185 56006 60001 333 11048 21190 7////
AAXX 15064 71171 17/// /2120 10115 20097 39994 40088 58045 60021 7//4/ 333 10116 20027 70028 555 32232 40062
AAXX 15064 71189 46/// /0607 11009 21041 6///1 333 11009 21020 7////
AAXX 15064 71421 16/// ///// 11179 21196 39485 40228 58010 60001 333 11103 21268 70000
AAXX 15061 38838 42497 80000 10008 21009 39665 40361 52025 889//
AAXX 15064 16110 11396 80000 10098 20092 30133 40137 56001 60082 72162 885// 333 20098 32/// 55000 20104 85708 83630 555 0////
AAXX 15064 71421 16/// ///// 11179 21196 39485 40228 58010 60001 333 11103 21268 70000
AAXX 15064 71217 16/// /1005 11093 21105 60001 333 11017 21129 7////
AAXX 15064 71224 16/// /1906 11101 21114 60001 333 11004 21122 7////
AAXX 15064 71737 17/// /1204 11016 21022 39623 40147 58045 60021 7//4/ 333 10002 21026 70018 555 10040 20018
AAXX 15064 89002 41896 71031 11070 21090 39727 49781 57003 73833 8707/ 333 01039 92942
AAXX 15064 71463 46/// /2019 10085 20060 39904 40126 58037 6///1 333 10088 20048 7//// 555 32125 40041
AAXX 15064 71276 16/// ///03 11128 21136 60001 333 11037 21135 7////
AAXX 15061 38511 31495 80705 11019 21025 30219 40368 52013 71022 886// 333 21015
AAXX 15061 38388 32598 70000 11040 21066 30308 40383 52007 87500 333 21097
AAXX 15061 38656 32698 70902 10016 21015 30244 40358 52017 87500 333 21028
AAXX 15064 71976 46/// /2620 11200 21221 39362 49999 5/010 6///1 333 7////
AAXX 15064 71979 16/// ///// 11149 21175 38478 40185 56006 60001 333 11048 21190 7////
AAXX 15064 71332 16/// /2610 11188 21208 30173 40204 57001 60001 333 11186 21279 70000 555 33126 40101
AAXX 15064 71340 16/// /1104 11160 21172 60001 333 11018 21167 70000
AAXX 15064 71343 16/// /1405 11083 21106 60001 333 10005 21083 70000 555 32732 40102
AAXX 15064 71171 17/// /2120 10115 20097 39994 40088 58045 60021 7//4/ 333 10116 20027 70028 555 32232 40062
AAXX 15064 71189 46/// /0607 11009 21041 6///1 333 11009 21020 7////
AAXX 15061 56193 NIL
AAXX 15061 56196 32764 60904 10116 20013 40290 57023 86100 333 00200 20060
AAXX 15061 56287 11850 82701 10089 20037 40295 57029 69901 72160 885// 333 00255 20067
AAXX 15061 56684 32570 80402 10033 21031 37922 57031 884// 333 00001 20000
AAXX 15061 56751 32772 10901 10128 20029 38025 57028 81100 333 00000 20013
AAXX 15061 56786 11530 83202 10029 20016 38140 57022 69931 76076 885// 333 00255 20020
AAXX 15061 56977 32580 72701 10184 20133 40170 57023 874// 333 00002 20110
AAXX 15061 57259 32970 81102 10091 21052 40314 57032 8807/ 333 20042
AAXX 15061 57279 32961 02902 10062 21024 40337 57027 333 20000
AAXX 15061 57348 32870 71101 10145 21064 40279 57031 875// 333 20093
AAXX 15061 57399 31958 53404 10096 21006 40312 57022 70500 85030 333 20046
AAXX 15061 57554 32862 60702 10117 21053 40298 57029 86500 333 20061
AAXX 15061 57793 31958 73602 10111 20034 40288 57024 70500 8704/ 333 20074
AAXX 15061 58345 32968 03604 10073 21041 40317 57020 333 20041
AAXX 15061 58506 31957 00407 10012 21051 40311 57012 70500 333 21013
AAXX 15061 58813 32968 00402 10135 20038 40258 57030 333 20026
AAXX 15061 58834 32960 80702 10137 20046 40242 57018 8807/ 333 20123
AAXX 15061 58926 32763 83202 10191 20099 40208 57029 885// 333 20116
AAXX 15061 58944 32563 80205 10147 20052 40224 57020 885// 333 20147
AAXX 15061 59096 32768 70702 10181 21012 40217 57036 875// 333 20117
AAXX 15061 59102 32966 50404 10152 20027 40226 57029 85030 333 20092
AAXX 15061 59278 32763 70402 10190 20055 40210 57026 875// 333 20151
AAXX 15061 59456 32874 70402 10197 20064 40196 57021 875// 333 20171
AAXX 15061 59493 32960 00204 10221 20067 40186 57031 333 20167
AAXX 15061 59658 32770 23602 10251 20082 40181 57030 82500 333 20167
AAXX 15061 59673 32964 00206 10207 20077 40186 57024 333 20167
AAXX 15061 59845 32565 70902 10206 20143 40181 57026 878// 333 20170
AAXX 15061 50434 32980 22903 11193 21257 39332 40324 57005 80002 333 21373
AAXX 15061 50527 32980 02707 11255 21283 39472 40371 57007 333 21337
AAXX 15061 50603 32980 03205 11201 21262 39637 40392 52001 333 21267
AAXX 15061 50632 32980 03207 11198 21260 39318 40300 57003 333 21254
AAXX 15061 50727 11980 73603 11263 21311 39056 40380 54000 69901 70070 80002 333 21306
AAXX 15061 50915 32980 13205 11171 21272 39300 40410 57003 80002 333 21254
AAXX 15061 51716 31963 00000 11021 21049 39007 40371 57004 70040 333 05252 21112
AAXX 15061 51765 32980 01802 11020 21089 39316 40380 57009 333 05252 21156
AAXX 15061 51777 32975 02902 11028 21106 39266 40375 57005 333 05253 21130
AAXX 15061 51811 32961 03601 11017 21061 38881 40365 57003 333 05201 21091
AAXX 15061 51828 32965 72902 11024 21071 38721 40356 54000 80002 333 05152 21051
AAXX 15061 52267 32980 01403 11049 21206 39250 40436 57017 333 00102 21156
AAXX 15061 52323 32980 00903 11073 21131 38294 57015 333 05152 21186
AAXX 15061 52495 32980 00202 11061 21205 38809 40450 57011 333 00352 21190
AAXX 15061 53149 32980 02905 11156 21228 38917 40480 52003 333 00352 21210
AAXX 15061 53192 32980 02904 11212 21252 38992 40470 52008 333 21287
AAXX 15061 53231 32980 00202 11108 21218 38603 57005 333 00352 21224
AAXX 15061 53336 32980 03203 11125 21215 38849 40479 57004 333 00351 21200
AAXX 15061 53391 32980 53207 11197 21233 38580 40455 52011 80002 333 00153 21217
AAXX 15061 53529 32980 00202 11058 21210 38736 40423 57011 333 00251 21147
AAXX 15061 53543 32980 03205 11090 21231 38634 40421 57010 333 21144
AAXX 15061 53723 32980 00402 11043 21142 38766 40401 57011 333 00200 21138
AAXX 15061 54012 11980 02705 11197 21248 39101 40412 57003 69901 70070 333 21238
AAXX 15061 54026 32980 13206 11108 21279 39951 40302 57016 80002 333 21154
AAXX 15061 54027 32980 02906 11121 21262 39700 40338 57014 333 21180
AAXX 15061 54208 32970 22908 11176 21228 38825 40412 52001 80002 333 21214
AAXX 15061 54776 32580 73208 10003 21065 30245 40305 57017 874// 333 20000
AAXX 15061 56004 32680 21101 11091 21297 35810 57015 82100 333 05151 21237
AAXX 15061 56033 32980 12501 11106 21260 36012 57014 80002 333 00254 21236
AAXX 15061 56046 32980 50702 11059 21211 36252 57021 80002 333 00252 21211
BBXX 46183 15061 99536 71311 46/// /0802 10038 40172 52014 22200 00076 10301 70004 333 91203
BBXX 46145 15061 99544 71324 46/// /0201 10042 40180 52014 22200 00066 11002 70012 333 91202
BBXX 41029 15061 99328 70796 46/// /0802 1//// 90600 555 11028 22032
BBXX 44033 15061 99441 70690 46/30 /1706 10045 40263 58017 90604 22200 00082 333 91207 555 11065 22068
BBXX 44034 15061 99441 70681 46/30 /1302 10029 40267 58016 90604 22200 00089 11102 70009 333 91202 555 11017 22018
BBXX 44022 15061 99409 70737 46/// ///04 10085 20042 40258 90615 22200 00090 333 91205 555 11036 22036
BBXX 42085 15061 99179 70665 46/// /0304 10261 40115 90600 22200 00285 10801 70005 333 91204
BBXX 42085 15061 99179 70665 46/// /0204 10260 40115 90550 333 91205
BBXX 42085 15061 99179 70665 46/// /0104 10261 40115 90540 333 91205
BBXX 46183 15061 99536 71311 46/// /0802 10038 40172 52014 22200 00076 10301 70004 333 91203
BBXX 46145 15061 99544 71324 46/// /0201 10042 40180 52014 22200 00066 11002 70012 333 91202
BBXX VOXS 15064 99467 70480 41698 50125 10009 2101/ 40172 51017 70222 85500 22200 04024 20706 335// 40905 80000
BBXX VOXS 15064 99467 70480 41698 50125 10009 2101/ 40172 51017 70222 85500 22200 04024 20706 335// 40905 80000
AAXX 15063 78970 11465 40000 10238 20223 30070 40095 60001 70511 81102 333 00209 10334 20234 58001 81818 84078
AAXX 15063 78962 11464 60000 10258 20237 30094 40102 60001 70511 83802 333 01209 10310 20233 58000 81816 83636
AAXX 15064 45011 47957 /0115 10214 20089 40188 57025 71011 333 58010
AAXX 15064 61401 NIL
AAXX 15064 61404 NIL
AAXX 15064 61415 NIL
AAXX 15064 61421 NIL
AAXX 15064 61437 NIL
AAXX 15064 61442 32958 70506 10195 21047 30159 40163 86082 333 025// 20195 50074 55043 58005 86363
AAXX 15064 61450 NIL
AAXX 15064 61461 NIL
AAXX 15064 61489 NIL
AAXX 15064 61492 NIL
AAXX 15064 61497 NIL
AAXX 15064 61498 31956 53604 10167 20052 30007 40140 705// 80008 333 0//00 20164 5//// 55/// 59005 85273
AAXX 15064 61499 32960 60404 10160 21013 39891 40148 80002 333 0//00 20155 51144 55/// 59004 86073
AAXX 15063 78970 11465 40000 10238 20223 30070 40095 60001 70511 81102 333 00209 10334 20234 58001 81818 84078
AAXX 15063 78962 11464 60000 10258 20237 30094 40102 60001 70511 83802 333 01209 10310 20233 58000 81816 83636
AAXX 15064 13629 12964 41402 10028 20028 39171 42820 54000 60002 80001 333 21010 31///
BBXX VCXF 15064 99464 70484 41698 50133 10008 2103/ 40167 52020 70222 85500 22200 02019 20606 336// 40905 81007
BBXX 46131 15061 99499 71250 46/// /1206 1//// 40190 52012 22200 00068 10501 70007 333 91208
BBXX VCXF 15064 99464 70484 41698 50133 10008 2103/ 40167 52020 70222 85500 22200 02019 20606 336// 40905 81007
BBXX 46131 15061 99499 71250 46/// /1206 1//// 40190 52012 22200 00068 10501 70007 333 91208
AAXX 15061 23219 31498 82308 11072 21097 30131 40241 53001 73633 886// 333 47038
AAXX 15064 41258 36/// /3502 10244 20158 30204 40209 333 0E/// 20217 58003
AAXX 15061 27707 11/05 91602 10012 20012 39892 40188 57012 69942 74544 333 20008 43001
AAXX 15063 64456 32960 82204 10232 20214 39/// 40/// 8807/ 333 0//00 20218 50204 55090 5//// 88362
AAXX 15063 64456 32960 82204 10232 20214 39/// 40/// 8807/ 333 0//00 20218 50204 55090 5//// 88362
AAXX 15064 62305 32960 02806 10096 20061 40242 57004 333 20092
AAXX 15064 62306 32560 60000 10132 20118 40247 52006 86800 333 20116
AAXX 15064 62318 32560 43605 10184 20140 40230 52010 84800 333 20150
AAXX 15064 62337 NIL
AAXX 15064 62366 31910 03503 10128 20105 40227 52017 71000 333 20115
AAXX 15064 62393 31930 63609 10102 20091 40226 53017 71000 86020 333 20092
AAXX 15064 62405 31930 30000 10144 20085 40186 52016 71000 80002 333 20086
AAXX 15064 62414 32960 00106 10134 20068 40197 52017 333 20108
AAXX 15064 62417 32960 00000 10082 20030 40255 52017 333 20050
AAXX 15064 62440 31530 32604 10104 20087 40213 52018 71000 83500 333 20092
AAXX 15064 62463 32960 03017 10156 20118 40183 52013 333 20140
AAXX 15064 62465 32960 33409 10184 20090 40168 52014 80004 333 20147
AAXX 15064 62419 NIL
AAXX 15061 38599 31495 80302 10014 21018 39831 40364 50011 71022 787 333 21014 88713
AAXX 15061 38599 31495 80302 10014 21018 39831 40364 50011 71022 787 333 21014 88713
BBXX 46204 15061 99514 71288 46/// /0911 10058 40153 52016 22200 00081 10605 70025 333 91213
BBXX 46204 15061 99514 71288 46/// /0911 10058 40153 52016 22200 00081 10605 70025 333 91213
BBXX ZDLP 15063 99625 50593 41/97 52915 10010 20005 40063 53016 70222 8344/ 22212 04009 29901 325// 40201 5//// 80008 ICE //4//
AAXX 15061 28867 11996 82301 11202 21228 30074 40371 52008 69920 77072 8802/ 333 21278
AAXX 15061 28952 11996 00000 11248 21266 30164 40378 52004 69900 71071 333 21259
AAXX 15064 92044 31482 60204 10301 20250 40048 58010 70222 86202
AAXX 15064 91650 NIL
AAXX 15064 91652 NIL
AAXX 15064 91656 NIL
AAXX 15064 91659 11599 70803 10261 2025/ 40100 54000 60081 70228 8487/ 333 5699/ 82822 83642 85460
AAXX 15064 91660 NIL
AAXX 15064 91669 NIL
AAXX 15064 91670 36/// /0000 10283 20222 40098
AAXX 15064 91676 14/// /0303 10276 20228 30036 40096 50010 60001
AAXX 15064 91680 11598 70905 10269 20248 40104 53014 69921 78022 85863 333 56999 83826 84650
AAXX 15064 91682 NIL
AAXX 15064 91683 11598 70000 10252 20226 40105 53014 60012 70128 8587/ 333 5699/ 84823 85648 87461
AAXX 15064 91691 14/// /0001 10271 20247 30107 40110 50012 60001
AAXX 15064 91693 NIL
AAXX 15064 91697 14/// /3601 10286 20235 30100 40105 53008 60001
AAXX 15064 91699 14/// /2401 10283 20234 30082 40114 50010 60001
AAXX 15064 41258 36/// /3502 10244 20158 30204 40209 333 0E/// 20217 58003
BBXX VRAE4 15063 99016 11332 41398 52514 10300 20243 40100 57022 70311 83221 22273 04300 20603 304// 40605 80260
BBXX VROB 15064 99082 31508 46/// /0710 10296 20230 30018 40042 57008 22224 04310 85247
BBXX FHZI 15064 99431 31474 46/// /1418 10143 20074 30193 40204 52003 22233 04163 85106
BBXX VNAH 15064 99333 31157 46/// /1804 10211 20129 30104 40127 57011 22200 04210 85160
BBXX JPAT 15064 99185 30935 41498 22620 10250 20194 40117 57015 70260 81135 22232 00251 10703 20601 313// 40703 85212
BBXX VREN5 15060 99397 31777 41496 8//// 10155 20155 40069 78000 886// 22253 20303 80155
AAXX 15064 89050 41093 83610 10002 20002 40073 52007 74442 886//
AAXX 15064 89512 31998 81244 11060 21101 39626 49776 57033 73832 8801/ 333 21076
AAXX 15064 89574 42498 60501 11013 21070 49848 52004 82530
AAXX 15064 89592 42998 60903 11021 21044 49831 52009 83031
AAXX 15064 89606 42998 02608 11303 21365 36215 47846 52001 333 21408
BBXX 44029 15061 99425 70706 46/30 /1506 10053 40258 58023 90604 22200 00089 10802 70011 333 91207 555 11068 22070
BBXX 44030 15061 99432 70704 46/// /1807 1//// 40256 56026 90604 22200 00085 333 91208 555 11085 22090
BBXX 44040 15061 99410 70736 46/// /1903 10081 20044 40266 90615 22200 1//00 70001 333 91203 555 11031 22036
BBXX VRAE4 15063 99016 11332 41398 52514 10300 20243 40100 57022 70311 83221 22273 04300 20603 304// 40605 80260
BBXX VROB 15064 99082 31508 46/// /0710 10296 20230 30018 40042 57008 22224 04310 85247
BBXX FHZI 15064 99431 31474 46/// /1418 10143 20074 30193 40204 52003 22233 04163 85106
BBXX VNAH 15064 99333 31157 46/// /1804 10211 20129 30104 40127 57011 22200 04210 85160
BBXX JPAT 15064 99185 30935 41498 22620 10250 20194 40117 57015 70260 81135 22232 00251 10703 20601 313// 40703 85212
BBXX VREN5 15060 99397 31777 41496 8//// 10155 20155 40069 78000 886// 22253 20303 80155
AAXX 15064 92044 31482 60204 10301 20250 40048 58010 70222 86202
AAXX 15061 28867 11996 82301 11202 21228 30074 40371 52008 69920 77072 8802/ 333 21278
AAXX 15061 28952 11996 00000 11248 21266 30164 40378 52004 69900 71071 333 21259
AAXX 15061 21802 31597 83107 11122 21131 30130 40154 53016 73632 8554/
AAXX 15061 24125 41998 80000 11165 21171 39919 40212 53008 70271 8802/
AAXX 15061 24136 41999 80000 11290 21320 30090 40199 53011 70272 8807/
AAXX 15061 24143 41998 81803 11268 21300 30239 40193 56002 77172 83006
AAXX 15061 24266 41997 50000 11458 21485 30052 40261 56007 70422 80001
AAXX 15061 24329 41999 70000 11250 21274 39916 40243 57009 70272 88071
AAXX 15061 24343 41496 81402 11308 21332 30087 40220 57003 77172 8572/ 333 85712
AAXX 15061 24382 41995 60000 11422 21448 39983 40276 56010 71011 82031
AAXX 15061 24639 41999 82304 11243 21268 30092 40259 57010 70232 85017
AAXX 15061 24641 41998 82302 11246 21270 30088 40243 57014 77173 86018
AAXX 15061 24652 42998 81103 11362 21390 30139 40281 57007 8801/
AAXX 15061 24656 42999 80701 11386 21420 30174 40293 57010 80006
AAXX 15061 24671 42999 00000 11415 21443 39695 40287 56004
AAXX 15061 24688 41997 70501 11447 21483 39269 40344 57002 70411 80001
AAXX 15061 24724 41999 82505 11248 21273 39717 40295 56007 73632 85039
AAXX 15061 24738 42999 82203 11219 21231 30084 40274 57014 84035
AAXX 15061 24768 41993 00000 11445 21481 30018 40295 57003 74440
AAXX 15061 24923 41598 82406 11211 21244 30006 40338 57012 77173 85501 333 85625 91112
AAXX 15061 24944 41596 82504 11210 21228 39984 40300 57020 77172 82537
AAXX 15061 24951 41999 82803 11256 21288 30106 40290 57017 70273 83033
AAXX 15061 24661 41998 80000 11400 21441 39981 40291 56007 74011 82037
AAXX 15061 24959 41995 60000 11374 21401 30126 40275 57012 77171 80001
AAXX 15061 24962 41995 20000 11425 21448 30076 40297 57011 71000 80008
AAXX 15061 24966 41996 50000 11434 21456 30039 40296 56007 71071 80001
AAXX 15061 24967 42999 80000 11390 21424 30055 40309 57016 80001
AAXX 15061 25206 41998 82101 11288 21312 30204 40234 57001 77172 85037
AAXX 15061 25400 42998 83302 11278 21303 30173 40235 57006 85037
AAXX 15061 30054 41698 82005 11202 21235 30139 40402 57014 77173 85537
AAXX 15061 30089 41999 80000 11279 21303 30092 40341 57027 70272 82021
AAXX 15061 30393 42999 53504 11255 21280 39199 40344 57009 80001
AAXX 15061 30493 41699 20701 11238 21277 39189 40327 58002 70273 82500
AAXX 15061 31004 41996 82402 11247 21271 39411 40324 57012 77172 84037
AAXX 15061 31137 42998 60000 11313 21336 39147 40301 57010 77172 80005
BBXX WCZ5238 15064 99057 71602 41898 71514 10280 20239 40113 54000 70222 87/6/ 22273 00284 20302 327// 40802 5//// 6//// 80250 ICE /////
BBXX PFRO 15064 99193 70668 41697 53041 10260 20199 40121 7//22 844// 22234 20510 399// 40408 80220
BBXX 3FFL8 15064 99135 70611 41998 00310 10260 2022/ 40080 54000 7//00 80000 22262 04290 20602 30505 40602 50402 6//// 80230 ICE /////
BBXX C6SW3 15064 99133 10497 41899 20918 10270 20181 40170 52030 7//11 82444 22214 00250 20302 3//// 40302 50302 6//// 80210 ICE /////
BBXX WKAE 15064 99540 10074 41398 82124 10065 20007 49960 52010 70222 884// 22200 00070 2//// 3//// 4//// 5//// 6//// 80040 ICE /////
AAXX 15061 30157 41997 81402 11271 21302 30138 40458 57015 77172 82047
BBXX 46088 15061 99483 71232 46/// /0502 10058 40185 90620 22200 00079 1//00 70002 333 91203 555 11023 22023 30538 40204 60619 044023 038026 051025 049028 024035 023031
BBXX 46087 15061 99485 71247 46/// /1109 10061 20047 40179 90620 22200 00077 333 91210 555 11091 22096 30551 41111 60619 108086 108086 109093 113083 117083 125083
AAXX 15064 67755 NIL
AAXX 15064 67771 NIL
AAXX 15064 67773 11480 60502 10244 20194 3//// 48/// 60044 70262 82501 333 20186 5//// 82615 85080
AAXX 15064 67774 NIL
AAXX 15064 67785 NIL
AAXX 15064 67789 NIL
AAXX 15064 67855 11970 60202 10218 20192 3//// 48/// 60144 72162 84071 333 20188 5//// 84460 86080
AAXX 15064 67857 NIL
AAXX 15064 67863 12380 81401 10214 20188 3//// 48/// 60254 8267/ 333 20181 5//// 82706 87460
AAXX 15064 67871 NIL
AAXX 15064 67875 NIL
AAXX 15064 67891 NIL
AAXX 15064 67895 NIL
AAXX 15064 67897 NIL
AAXX 15064 67899 NIL
AAXX 15064 67951 11970 80306 10172 20165 3//// 48/// 60154 76162 8807/ 333 20166 5//// 88459
AAXX 15064 67963 NIL
AAXX 15064 67967 NIL
AAXX 15064 67971 11475 72201 10211 20202 3//// 48/// 60034 70296 8457/ 333 20200 5//// 84615 87460
AAXX 15064 67976 NIL
AAXX 15064 67979 NIL
AAXX 15063 67765 11581 70803 10233 20184 38665 48509 69924 70292 81188 333 20187 81821 87280
AAXX 15063 67775 11580 70408 10220 20182 38514 48518 60044 70262 81973 333 20161 81920 81708 87080
AAXX 15063 67779 11565 71602 10248 20203 39052 48513 60084 70522 81182 333 20119 81821 87080
AAXX 15063 67861 11580 70804 10216 20185 38725 48507 60444 70396 82172 333 20170 82820 84359
AAXX 15063 67867 11480 70000 10209 20176 38580 48508 60094 70262 81588 333 20170 81610 83359 87280
AAXX 15063 67965 11470 81803 10175 20160 38688 48511 60284 72998 83273 333 20169 81915 81710 83820 87458
AAXX 15063 67983 11580 70000 10241 20196 38880 48511 60064 70242 81282 333 21080 81820 87360
AAXX 15063 67991 11375 82702 10241 20223 38573 48488 60174 76096 8377/ 333 20219 83708 87460
AAXX 15064 67765 11581 70803 10233 20184 38665 48509 69924 70292 81188 333 20187 58002 81821 87280
AAXX 15064 67775 11380 70408 10220 20182 38514 48518 60044 70262 81973 333 20161 59005 81920 81708 87080
AAXX 15064 67779 11565 71602 10248 20203 39052 48513 60084 70522 81182 333 20119 58003 81821 87080
AAXX 15064 67853 NIL
AAXX 15064 67861 11580 70804 10216 20185 38725 48507 60444 70396 82172 333 20170 58003 82820 84359
AAXX 15064 67867 11480 70000 10209 20176 38580 48508 60094 70262 81588 333 20170 58006 81610 83359 87280
AAXX 15064 67881 NIL
AAXX 15064 67965 11570 81803 10175 20160 38688 48511 60284 72998 83273 333 20169 58017 81915 81710 83820 87458
AAXX 15064 67975 NIL
AAXX 15064 67977 NIL
AAXX 15064 67983 11580 70000 10241 20196 38880 48511 60064 70242 81282 333 21080 58002 81820 87360
AAXX 15064 67991 11375 82702 10241 20223 38573 48488 60174 76096 8377/ 333 20219 58017 83708 87460
AAXX 15064 42314 31596 20000 10230 20134 40157 70522 81530 333 59006 81620
AAXX 15064 42706 31995 03603 10230 20078 40166 70500 333 59007
AAXX 15064 42809 31995 03202 10228 20105 40164 70500 333 59013
AAXX 15064 42886 31995 01401 10252 20110 40162 70500 333 59008
AAXX 15064 42895 31996 00503 10242 20096 40167 70500 333 59005
AAXX 15064 42971 31995 02006 10244 20131 40163 70500 333 59004
AAXX 15064 43333 31496 70711 10300 20220 40110 70521 85401 333 56109 59006 82616 83818 85070
AAXX 15064 42309 NIL
AAXX 15064 42398 NIL
AAXX 15064 42410 NIL
AAXX 15064 42415 NIL
AAXX 15064 42492 NIL
AAXX 15064 42587 NIL
AAXX 15064 42591 NIL
AAXX 15064 42623 NIL
AAXX 15064 42701 NIL
AAXX 15064 42724 NIL
AAXX 15064 42798 NIL
AAXX 15064 42977 NIL
AAXX 15064 43368 NIL
AAXX 15064 60677 36/// /0000 10052 21128 333 20037
AAXX 15064 60650 36/// /0000 10091 21050 333 20091
AAXX 15064 60679 36/// /0213 10039 21149 333 20039
AAXX 15064 60661 36/// /0000 10060 21092 333 20058
BBXX ONAI 15064 99140 50355 41798 20717 10260 2022/ 40110 56010 70110 81409 22244 00278 2//// 3//// 4//// 5//// 6//// 80230 ICE /////
BBXX VQKZ5 15063 99174 50773 41898 81617 10200 20169 40139 54000 70222 8807/ 22244 02214 20302 316// 40302 5//// 80181
BBXX C6VF5 15064 99222 10599 41997 00117 10240 2016/ 40190 54000 7//00 8/000 22244 00260 2//// 3//// 4//// 5//// 6//// 80190 ICE /////
BBXX C6SW3 15064 99133 10497 41899 20918 10270 20181 40170 52030 7//11 82444 22214 00250 20302 3//// 40302 50302 6//// 80210 ICE /////
BBXX A8ZS7 15064 99246 30483 41698 10416 10280 20224 40140 58010 70200 811// 22254 04250 29901 399// 41002 80240
BBXX A8YJ9 15064 99188 70249 41498 10528 10220 20183 40166 58/// 70100 8/1// 22243 04220 20605 30000 80195
BBXX PDHP 15063 99186 10633 416// 10214 10320 20207 40174 50021 70100 8/111 22265 00260 20203 80240
BBXX A8XD5 15064 99416 11429 41296 63036 10060 20015 40090 57/// 70375 8572/ 22223 04090 20510 331// 40510 80040
BBXX SHIP 15064 99251 11346 41497 50314 10225 20185 40162 56001 70322 81202 9//// 22272 00257 20401 40805 6//// 80198
BBXX DQVJ 15061 99477 11541 41698 80609 11020 21055 49995 56005 7//22 887// 22254 00026 20601 327// 41005 5//// 61013
BBXX DHEB 15063 99524 11758 41597 62521 11005 21018 49820 52020 78577 865// 22224 04050 29904 330// 4//06 5//// 81010
BBXX SHIP 15064 99206 11209 41598 60324 10265 20216 40144 57035 70315 842// 22254 00266 20302 306// 40407 80230
BBXX SHIP 15064 99273 11349 41298 83512 10205 20158 40159 56014 70222 86827 22254 00240 20301 311// 40403 5//// 80175
BBXX JPBN 15064 99343 11410 41/98 22533 10169 20076 40090 58014 70200 82120 22271 00214 1//09 20809 399// 4//// 70045
BBXX JGQH 15064 99252 11291 41/97 80819 10195 20177 40171 55010 70222 882// 22273 00232 1//// 20503 309// 40802
BBXX WHIA 15063 99083 10971 41397 70410 10295 2025/ 40096 57021 70222 8742/ 22234 0//// 20200 304// 40403 5//// 6//// 80260 ICE /////
BBXX 46231 15061 99327 71174 46/// ///// 1//// 90554 22200 00148 11202 20801 323// 41201 70009
BBXX 46211 15061 99469 71242 46/// ///// 1//// 90606 22200 00082 11204 20903 328// 41202 70018
BBXX 46223 15061 99335 71178 46/// ///// 1//// 90600 22200 00155 11301 21001 320// 41301 70006
BBXX 46240 15061 99366 71219 46/// ///// 1//// 90612 22200 00126 11301 21001 336// 41301 70007
BBXX 46217 15061 99342 71194 46/// ///// 1//// 90612 22200 00144 11301 20801 319// 41301 70006
BBXX 46216 15061 99343 71198 46/// ///// 1//// 90557 22200 00142 11301 20601 326// 41301 70006
BBXX 46114 15061 99364 71222 46/// ///// 1//// 90604 22200 00123 11303 21001 330// 41303 70014
BBXX 46241 15061 99330 71173 46/// ///// 1//// 90541 22200 00147 11301 20601 325// 41301 70006
BBXX 46244 15061 99409 71244 46/// ///// 1//// 90605 22200 00095 11205 21003 329// 41204 70025
BBXX 46248 15061 99461 71247 46/// ///// 1//// 90604 22200 00086 10706 20706 327// 41103 70032
BBXX 44100 15061 99363 70756 46/// ///// 1//// 90552 22200 00132 11002 21002 308// 41101 70012
BBXX VREX8 15064 99279 71738 41496 42913 10210 2018/ 40180 56020 7//11 841// 22254 0//// 29904 323// 4//06 5//// 6//// 80190 ICE /////
BBXX WKPF 15063 99332 70773 41/98 ///// 10175 2013/ 40260 58010 7//00 8//// 22255 00254 2//// 3//// 4//// 5//// 6//// 80145 ICE /////
BBXX 3FFL8 15064 99135 70611 41998 00310 10260 2022/ 40080 54000 7//00 80000 22262 04290 20602 30505 40602 50402 6//// 80230 ICE /////
BBXX WJBJ 15063 99250 70736 41298 50423 10230 2017/ 40192 57018 70222 85460 22234 00267 20405 305// 40607 5//// 6//// 80190 ICE /////
BBXX PFRO 15064 99193 70668 41697 53041 10260 20199 40121 7//22 844// 22234 20510 399// 40408 80220
BBXX WDC6907 15064 99428 70508 41497 70444 10028 2109/ 40140 52025 70222 877// 22222 00070 21012 305// 41214 5//// 6//// 81010 ICE /////
BBXX 46207 15061 99509 71299 46/// /3507 10062 40156 5//// 22200 00084 10805 70026 333 91213
BBXX A8UU3 15064 99450 70559 41597 63516 11010 40300 53020 70322 865// 22233 2//03
BBXX 44067 15061 99384 70770 46/// /2504 10085 40250 90600
BBXX 46078 15061 99561 71526 46/// /1217 10042 20015 49880 57071 90550 333 91221 555 11177 22190
BBXX 41037 15061 99340 70775 46/// /1003 10160 40235 58011 90600 22200 00208 333 91205
BBXX C6VG7 15064 99189 70794 415// 40535 10260 2//// 40150 5/000 7//11 84/6/ 22274 0//// 20306 3//// 40306 50306 6//// 8//// ICE /////
BBXX 46204 15061 99514 71288 46/// /0911 10058 40153 52016 22200 00081 10605 70025 333 91213
BBXX 46131 15061 99499 71250 46/// /1206 1//// 40190 52012 22200 00068 10501 70007 333 91208
BBXX VCXF 15064 99464 70484 41698 50133 10008 2103/ 40167 52020 70222 85500 22200 02019 20606 336// 40905 81007
BBXX VOXS 15064 99467 70480 41698 50125 10009 2101/ 40172 51017 70222 85500 22200 04024 20706 335// 40905 80000
BBXX 44033 15061 99441 70690 46/30 /1706 10045 40263 58017 90604 22200 00082 333 91207 555 11065 22068
BBXX 41029 15061 99328 70796 46/// /0802 1//// 90600 555 11028 22032
BBXX 42085 15061 99179 70665 46/// /0304 10261 40115 90600 22200 00285 10801 70005 333 91204
BBXX 44022 15061 99409 70737 46/// ///04 10085 20042 40258 90615 22200 00090 333 91205 555 11036 22036
BBXX 44034 15061 99441 70681 46/30 /1302 10029 40267 58016 90604 22200 00089 11102 70009 333 91202 555 11017 22018
BBXX 42085 15061 99179 70665 46/// /0104 10261 40115 90540 333 91205
BBXX 42085 15061 99179 70665 46/// /0204 10260 40115 90550 333 91205
BBXX 46183 15061 99536 71311 46/// /0802 10038 40172 52014 22200 00076 10301 70004 333 91203
BBXX 46145 15061 99544 71324 46/// /0201 10042 40180 52014 22200 00066 11002 70012 333 91202
BBXX ICGU 15064 99176 70629 41797 33612 10270 20197 40110 54/// 70211 83/8/ 22233 04260 21001 32022 41402 51502 6//// 85220 ICE /////
BBXX C6KJ5 15064 99225 70867 41497 31512 07003 31212 10240 2021/ 40195 52007 70111 83195 22273 00245 80225
BBXX 46147 15061 99518 71312 46/// /0106 10046 40174 52030 22200 00081 11104 70020 333 91207
BBXX 42362 15061 99278 70907 46/// /1409 10233 20194 40207 90615
BBXX SHIP 15064 99310 71681 41596 63122 10190 20142 40149 51017 70102 85/// 90555 22264 00230 2//// 3//// 4//// 5//// 80210
BBXX 41053 15061 99185 70661 46/// /3609 10251 40120 90550 333 91211
BBXX 46239 15061 99363 71221 46/// ///// 1//// 90551 22200 00130 11404 21002 330// 41403 70019
BBXX 41053 15061 99185 70661 46/// /3609 10252 40120 90540 333 91211
BBXX C6KD9 15060 99184 70676 41/97 80306 10254 20218 40133 58010 70322 88/// 22254 02271 21004 309// 41005 5//// 80230
BBXX A8IP2 15063 99309 70470 41297 71839 10220 20206 40092 56024 70322 86778 22254 20706 320// 41207 5//// 80210
BBXX UANA 15061 99711 70412 41/98 71608 10028 40002 52000 70221 80500 22232 04042 20405
BBXX 41114 15061 99276 70802 46/// ///// 1//// 90616 22200 00230 11104 21003 307// 41102 70019
BBXX 46088 15061 99483 71232 46/// /0502 10058 40185 90620 22200 00079 1//00 70002 333 91203 555 11023 22023 30538 40204 60619 044023 038026 051025 049028 024035 023031
BBXX 46111 15061 99481 71227 46/// /2002 10058 40186 53016 90600 22200 00058
BBXX 41115 15061 99184 70673 46/// ///// 1//// 90605 22200 10704 20704 300// 41101 70022
BBXX 41053 15061 99185 70661 46/// /3608 10251 40119 90600 22200 00279 11104 70021 333 91210
BBXX 41052 15061 99183 70648 46/// /0305 10266 40108 90540 333 91207
BBXX 41052 15061 99183 70648 46/// /0207 10266 40108 90550 333 91208
BBXX 41052 15061 99183 70648 46/// /0207 10266 40106 58011 90600 22200 00278 333 91208
BBXX 44097 15061 99410 70711 46/// ///// 1//// 90602 22200 00126 10902 20902 316// 41101 70010
BBXX 44098 15061 99428 70702 46/// ///// 1//// 90607 22200 00092 11002 21002 311// 41101 70011
BBXX 46221 15061 99339 71186 46/// ///// 1//// 90545 22200 00148 11301 20801 320// 41301 70007
BBXX 46219 15061 99332 71199 46/// ///// 1//// 90558 22200 00136 11403 20902 330// 41402 70014
BBXX 46222 15061 99336 71183 46/// ///// 1//// 90556 22200 00152 11301 20701 320// 41301 70006
BBXX 46242 15061 99332 71174 46/// ///// 1//// 90558 22200 00152 11201 20701 324// 41201 70006
AAXX 15064 13624 12970 71410 10086 20045 30191 40231 54004 60002 87010 333 20074 30/// 87460
BBXX 3EDA4 15063 99033 11510 41998 00330 10270 20243 40053 70066 8000 22216 00296 20503 30505 40503 50503 80250
BBXX OUTK2 15064 99153 31087 41398 21721 10277 20254 40064 58009 70200 8/2/1 22235 00293 20402 317// 40704 80261
BBXX A8SG4 15064 99197 51388 41698 10710 10260 20202 40165 55020 70122 811// 22214 04270 80220
BBXX WKAE 15064 99540 10074 41398 82124 10065 20007 49960 52010 70222 884// 22200 00070 2//// 3//// 4//// 5//// 6//// 80040 ICE /////
BBXX 2AAY7 15063 99578 70010 41698 22613 10070 20047 49889 52084 7//00 81744 22212 20502 307// 40503 80060
BBXX 63110 15063 99595 10015 41/98 /2730 10071 20033 49800 72586 8//// 22200 10907 70035
BBXX 62103 15064 99499 70029 46/98 /2938 10098 20038 40000 52029 22200 00124 11112 70060 333 90710 91153
BBXX DGAF 15063 99556 70220 41/97 /1505 10045 20023 49885 57015 76182 8//// 22264 00110 2//// 80035
BBXX 62102 15064 99579 10018 46/// /2618 10080 20030 49850 52023 22200 10707 70035
BBXX 62095 15064 99530 70159 46/// /3018 10069 20026 49998 50006 22200 00114 11013 70066 333 90710 91130
BBXX 62103 15064 99499 70029 46/98 /2843 10088 20019 49988 52020 22200 00124 11013 70064 333 90710 91155
BBXX 62107 15064 99501 70061 46/// /3045 10094 20041 40021 52025 22200 00115 11114 70072 333 90710 91156
BBXX 62094 15064 99517 70067 46/// /2728 10082 20040 49976 51024 22200 00108 10910 70050 333 90710 91137
BBXX AMOUK14 15064 99535 70030 46/// ///// 10030 20022 39875 49909 52025 90550
BBXX 62027 15064 99491 70022 46/// /2932 1//// 2//// 40032 53003 22200 00116 11409 314// 70043 333 90710 91144
BBXX AMOUK09 15064 99506 70024 46/// ///// 10081 20041 39957 49977 52015 90550
BBXX 62117 15064 99579 10000 47697 /2618 10071 20027 49850 52019 762// 22200 10605 70026
BBXX 62118 15064 99577 10009 47598 /2518 10078 20019 49851 52017 700// 22200 10706 70029
BBXX 62143 15064 99577 10018 47598 /2720 10077 20017 49865 53013 700// 22200 10607 70033
BBXX 62155 15064 99577 10007 47598 /2621 10072 20021 49861 53015 751// 22200 10606 70029
BBXX 62104 15064 99574 10013 47598 /2616 10081 20025 49861 52021 700// 22200
BBXX 62116 15064 99576 10011 47598 /2619 10075 20016 49855 53018 700// 22200 10606 70032
BBXX 62134 15064 99580 10014 47698 /2619 10073 20031 49851 52021 700// 22200 10606 70029
BBXX 62129 15064 99584 10003 46/// ///// 10072 20030 49839 52015 22200
BBXX 62113 15064 99584 10002 47498 /2619 10072 20030 49842 52016 700// 22200
BBXX 62114 15064 99583 10000 46/// /2621 10072 20031 49837 52019 22200
BBXX 63057 15064 99592 10015 47998 /2722 10078 20023 49810 52022 700// 22200 10706 70032
BBXX ZQSD5 15064 99583 10007 46/// /2620 10076 20033 49846 53027 22200 10808 70042
BBXX 62128 15064 99587 10014 47998 /2621 10074 20027 49826 52023 700// 22200 10706 70032
BBXX 62121 15064 99535 10027 46/// /2011 10060 20021 49934 57007 22200
BBXX 62148 15064 99536 10015 46/// /1915 10053 20023 49922 57012 22200
BBXX 62149 15064 99537 10011 47998 /1817 10056 20029 49914 57012 700// 22200 10402 70011
BBXX 62150 15064 99536 10007 47698 /1817 10054 20023 49916 57012 700// 22200 10402 70009
BBXX 62131 15064 99539 10012 46/// /18// 10054 20031 49915 57009 22200
BBXX 62127 15064 99540 10007 47998 ///// 10054 20027 49910 56008 700// 22200 10402 70011
BBXX 62165 15064 99540 10009 47498 /2107 10057 20029 49918 56009 700// 22200 10402 70012
BBXX 62154 15064 99564 10022 46/// /2415 10069 20009 49885 52014 22200
BBXX 62120 15064 99564 10021 47598 /2518 10071 20012 49885 52015 700// 22200
BBXX 62123 15064 99563 10022 47998 /2418 10072 20023 49885 52013 700// 22200
BBXX 62132 15064 99564 10020 46/// /2611 10071 20011 49890 52008 22200
BBXX 62152 15064 99570 10018 46/// /2312 10073 20022 49881 52018 22200 10506 70029
BBXX 62119 15064 99570 10019 47597 /2622 10074 20019 49880 52015 700// 22200 10706 70032
BBXX 62133 15064 99571 10009 46/// /2318 10071 20018 49868 52018 22200
BBXX 62164 15064 99572 10008 47598 /2414 10082 20027 49866 52017 700// 22200 00098 10605 70027
BBXX 62146 15064 99572 10021 47/98 /2519 10073 20021 49876 53013 700// 22200 10706 70031
BBXX WCZ5238 15064 99057 71602 41898 71514 10280 20239 40113 54000 70222 87/6/ 22273 00284 20302 327// 40802 5//// 6//// 80250 ICE /////
AAXX 15064 61017 32960 50404 10140 20000 39764 40181 80002 333 05100 20068 50464 55099 58007 85080
AAXX 15064 61024 32960 50606 10112 21056 39592 40171 80002 333 00500 20096 51461 55/// 58006 85080 P032
AAXX 15064 61036 32965 70406 10176 21056 39900 40141 80008 333 01600 20170 50991 50894 55090 58004 87280
AAXX 15064 61043 32960 50608 10135 21080 39704 40151 80002 333 0//00 20134 51091 5///4 55105 58005 85080
AAXX 15064 61045 32965 50402 10110 21063 39661 40170 80002 333 00800 20110 5//// 50824 55100 58001 85080
AAXX 15064 61049 31956 70000 10092 21040 39834 40163 7062/ 80008 333 00600 20090 50771 50704 55106 58009 87280
AAXX 15064 61052 32960 30804 10168 21062 39887 40146 80002 333 01200 20150 50981 55100 58004 83080
AAXX 15064 61075 32960 50000 10157 20004 39832 40135 80002 333 01400 20155 50711 50594 55104 58002 85080
AAXX 15064 61080 32960 70806 10131 21073 39731 40159 80008 333 00700 20130 51031 51034 55104 58001 87280
AAXX 15064 61090 32960 73604 10132 20048 39642 40162 80008 333 01100 20130 50971 50904 55106 58006 87280
AAXX 15064 61091 32965 50000 10100 20022 39709 40174 80002 333 00600 20092 50521 50454 55104 58007 85080
AAXX 15064 61096 31920 70402 10114 21067 39775 40165 70622 80008 333 00900 20110 50961 50814 55102 58008 87280
AAXX 15064 61099 32960 70408 10188 21009 39892 40122 80008 333 01500 20182 50981 55094 58000 87280
BBXX PJGO 15064 99571 10022 47598 /2321 10076 20034 49874 52018 700// 22200
BBXX 62122 15064 99573 10016 47598 /2519 10077 20025 49872 52017 700// 22200 10606 70029
BBXX 64041 15064 99607 70026 47598 /3015 10050 20011 49806 52033 700// 22200 10808 70039
BBXX 62140 15064 99573 10013 46/// /27// 10073 20021 49861 52022 22200
BBXX 62142 15064 99530 10021 47998 /2117 10066 20030 49926 58013 700// 22200 10403 70013
BBXX MWYG6 15064 99603 70040 47998 /3120 10073 700// 22200
BBXX 62153 15064 99573 10020 47598 /2512 10073 20026 49866 52022 700// 22200 10707 70035
BBXX 63115 15064 99616 10013 47498 /2824 10055 20022 49748 52031 700// 22200 10708 70038
BBXX 63117 15064 99613 10011 47499 /3022 49754 52027 700// 22200
BBXX 63103 15064 99612 10011 46/// /3024 10068 20023 49760 52025 22200 10706 70032
BBXX 63107 15064 99611 10017 46/// /2817 10065 49755 52022 22200
BBXX 63104 15064 99612 10016 47498 /2821 10066 20030 49750 53024 700// 22200
BBXX 63101 15064 99612 10009 46/// /3223 10070 20030 49755 52030 22200
BBXX 63112 15064 99611 10010 47498 /3021 10060 20022 49757 52028 741// 22200 10807 70036
BBXX 63113 15064 99610 10017 46/// /2920 10068 20025 49771 52023 22200 10706 70032
BBXX 63105 15064 99610 10017 47597 ///// 10070 20029 49758 53024 700// 22200
BBXX 63055 15064 99606 10016 47998 /2820 10063 20025 49777 52024 700// 22200 10706 70031
BBXX 63108 15064 99608 10017 47998 /2925 10066 20015 49765 52021 700// 22200 10706 70031
BBXX 63106 15064 99610 10017 46/// /2923 10065 49759 53024 22200
BBXX 63110 15064 99595 10015 47598 /2721 10069 20032 49802 52021 700// 22200 10707 70033
BBXX 62144 15064 99534 10017 47998 /1914 10062 20025 49922 57011 700// 22200 10402 70012
BBXX 62112 15064 99584 70002 47498 /2714 10071 20033 49838 52017 700// 22200
BBXX 63056 15064 99597 10016 46/// /2819 10073 20024 49788 52025 22200 10706 70032
BBXX PJAI 15064 99581 70014 47498 /2714 10077 20024 49846 52019 700// 22200
BBXX 62111 15064 99580 70003 46/// /2820 10068 20027 49859 53014 22200 10605 70023
BBXX AMOUK06 15064 99509 70014 46/// ///// 10077 20025 39934 49959 57010 90550
BBXX 62145 15064 99531 10028 47598 /1914 10070 20013 49936 57011 700// 22200 10504 70021
BBXX AMOUK05 15064 99522 10034 46/// ///// 10060 20039 39880 49921 57010 90550
BBXX AMOUK03 15064 99518 10027 46/// ///// 10068 20054 39902 49936 54003 90550
BBXX AMOUK19 15064 99598 70012 46/// ///// 10071 20027 39804 49807 52014 90550
BBXX AMOUK08 15064 99501 70061 46/// ///// 10096 20050 30016 40021 52024 90550
BBXX AMOUK27 15064 99582 70064 46/// ///// 1//// 2//// 39865 49863 52022 90550
BBXX AMOUK12 15064 99533 70048 46/// ///// 10065 20036 39898 49937 52027 90550
BBXX C6SI2 15064 99505 10003 41297 72548 10088 20052 49961 53011 71362 877// 22263 00120 20407 325// 40406 5//// 80072
BBXX 62170 15064 99514 10020 46/97 /2125 10088 20049 49954 55014 22200 00116 10703 70013 333 90710 91145
BBXX 62304 15064 99511 10018 46/98 /2334 10080 20037 49959 56011 22200 00119 10703 70016 333 90710 91145
BBXX 62304 15064 99511 10018 46/98 /2334 10080 20037 49959 56010 22200 00119 10703 70016 333 90710 91145
BBXX 62305 15064 99504 10000 46/97 /2537 10094 20039 49975 55003 22200 00123 10807 70033 333 90710 91152
BBXX 62303 15064 99516 70051 46/// /2726 10090 20045 49968 51035 22200 00115 10810 70050 333 90710 91137
BBXX 62301 15064 99524 70047 46/// /2822 10074 20039 49946 51056 22200 00102 10707 70035 333 90710 91132
BBXX 64046 15064 99605 70049 46/// /3318 10068 20021 49822 53026 22200 00087 10808 70040
BBXX 62001 15064 99452 70050 46/// /2727 10131 20078 40182 52011 22200 00148 11117 70085 333 90710 91141
BBXX 62163 15064 99475 70084 46/// /2722 10113 20055 40126 52007 22200 00130 11118 70089 333 90710 91135
AAXX 15064 40199 12970 00703 10128 20067 30179 40202 52018 60002 222// 00227 333 20102 50491 55015 70000
AAXX 15063 41150 41958 02810 10160 20094 40227 70500 333 20138 30013 59004
BBXX 62081 15064 99510 70134 46/// ///// 10077 20023 40040 52006 22200 00119 11115 70073
BBXX 64045 15064 99591 70117 46/// /3409 10067 20000 49884 51016 22200 00101 10808 70041
BBXX 62105 15064 99554 70122 46/// /2915 10083 20038 49918 51013 22200 00107 11011 70054 333 90710 91130
BBXX 62029 15064 99487 70125 46/// /2421 10095 20068 40080 58016 22200 00132 11116 70079 333 90710 91129
BBXX 62442 15064 99490 70164 46/// /2523 1//// 2//// 40058 58023 22200 00128 333 90710 91136
BBXX DGOQ 15064 99544 10113 41/97 92422 10043 20009 49989 702// 22200 04056 80030
BBXX BATUK01 15064 99586 70059 46/// /3223 10069 20005 49850 53008 22281 00109
BBXX C6CU6 15063 99353 70341 41498 32220 10190 20156 40239 56030 70300 81145 22263 04200 20701 333// 41506 5//// 80170
BBXX 61002 15064 99421 10047 46/// ///08 10142 2//// 40210 52010 22200 00164 10602 70009
BBXX BATFR11 15064 99347 10193 46/// /2705 10169 20105 40261 53008 22223 00192
BBXX PBEO 15063 99488 70054 41597 52634 10102 20050 40066 51006 78282 858// 22212 02117 20506 331// 40808 80076
BBXX DDZA2 15064 99381 70103 41/98 33110 10150 20076 40305 52005 70111 8//// 22273 04170 2//// 80110
BBXX TESTFR9 15064 99489 70023 46/// /2931 10098 29076 40063 52047 22234
BBXX BATFR04 15064 99597 70110 44598 43516 10064 21018 49878 53017 70211 842// 22200 00102 335// 40410 5////
BBXX BAREU56 15064 99444 10089 46/// ///// 40133 22200
BBXX BATEU08 15064 99587 10026 46/// /2625 10082 20027 49820 51020 22273
BBXX BATEU09 15064 99438 10088 46/// /2234 10149 20079 40127 52010 22212 00167
BBXX BATEU06 15064 99587 70047 46/// /2923 10074 20022 49827 52160 22264 00105
BBXX BATEU02 15064 99532 70092 46/// /2819 10077 20037 49948 22262 00077
BBXX BATFR60 15064 99475 70040 46/// /2847 10109 20037 40098 51027 22272 00122
BBXX BATFR46 15064 99429 10048 44998 12918 10142 20070 40207 53009 701// 81//1 22213 00159
BBXX BATFR20 15064 99414 10094 46/// /0638 10154 20107 40175 58016 22284
BBXX BATFR52 15064 99489 70023 46/// /2931 10099 20037 40048 53061 22234 00124
BBXX BATFR24 15064 99427 10095 46/// /2730 10160 20057 40160 58002 22261 00165
BBXX BATFR09 15064 99368 70005 44998 62912 10170 20135 40266 53018 70211 80005 22263 00179 20306 60//0 ICE 0/0//
BBXX BATFR15 15064 99305 70342 44/97 51217 10205 20179 40249 58008 70300 8//// 22254 00224 309// 41004 5////
BBXX BATFR21 15064 99426 10089 46/// /2321 20167 40176 57001 22200
BBXX BATFR54 15064 99380 70096 46/// /3310 10154 20077 4//// 22283 00164
BBXX BAREU12 15064 99505 70060 46/// ///// 49997 52054 22244
BBXX BAREU62 15064 99413 10122 46/// ///// 40184 57005 22274
BBXX BAREU51 15064 99404 10118 46/// ///// 40188 57006 22275
BBXX BAREU60 15064 99436 10135 46/// ///// 40149 54000 22252
BBXX 61001 15064 99434 10078 46/// /2530 10142 20050 40150 54000 22200 00158 10604 70022 555 1/040
BBXX BAREU05 15064 99402 70204 46/// ///// 40268 57023 22263
BBXX LF3F 15064 99643 10078 43/// /2120 10065 20031 49717 52019 22200 04090 10808 70041 333 91134
BBXX LF5T 15064 99660 10081 43998 /2227 10076 20021 49676 52037 22200 06082 10810 70049 333 91143
BBXX LF4B 15064 99606 10037 47/97 /2524 10072 49780 52020 781// 22200 00067 10708 70038 333 91134
BBXX LF3N 15064 99653 10073 41497 72221 10069 20021 49685 52035 70282 87/// 22200 00089 10808 70038
BBXX LF4C 15064 99584 10019 41598 72720 10080 20036 49838 52025 702// 89/// 22200 00079 10706 70032 333 91134
BBXX 3ERR2 15064 99635 10053 41495 81925 10062 20041 49707 52010 76262 8672x 22200 06098 11006 70029 333 91132
BBXX IDDUK02 15064 99625 50593 46/// ///// 40064 222//
BBXX BATEU00 15064 99646 30192 46/// /3626 11003 21005 49703 56021 22243
AAXX 15064 67977 12480 80000 10250 20228 39658 48543 60174 885// 333 20215 58011 88615
AAXX 15063 67977 12480 80000 10250 20228 39658 48543 60174 885// 333 20215 88615
AAXX 15064 60656 12960 00108 10076 21013 40251 52009 60004 333 00800 20076
AAXX 15064 67765 11581 70803 10233 20184 38665 48509 69924 70292 81188 333 20187 58002 81821 87280
AAXX 15064 67775 11380 70408 10220 20182 38514 48518 60044 70262 81973 333 20161 59005 81920 81708 87080
AAXX 15064 67779 11565 71602 10248 20203 39052 48513 60084 70522 81182 333 20119 58003 81821 87080
AAXX 15064 67853 NIL
AAXX 15064 67861 11580 70804 10216 20185 38725 48507 60444 70396 82172 333 20170 58003 82820 84359
AAXX 15064 67867 11480 70000 10209 20176 38580 48508 60094 70262 81588 333 20170 58006 81610 83359 87280
AAXX 15064 67881 NIL
AAXX 15064 67965 11570 81803 10175 20160 38688 48511 60284 72998 83273 333 20169 58017 81915 81710 83820 87458
AAXX 15064 67975 NIL
AAXX 15064 67977 NIL
AAXX 15064 67983 11580 70000 10241 20196 38880 48511 60064 70242 81282 333 21080 58002 81820 87360
AAXX 15064 67991 11375 82702 10241 20223 38573 48488 60174 76096 8377/ 333 20219 58017 83708 87460
BBXX MGSH7 15063 99557 10108 41/98 82125 10055 20017 49939 57010 70211 8//// 22283 20404 320// 40506 5//// 80040
AAXX 15061 55299 32780 22905 11019 21259 35827 57024 82400 333 05201 21200
AAXX 15061 55591 32980 00401 10048 21232 36486 57035 333 05152 21071
AAXX 15061 56739 32575 12203 10155 21007 38355 57026 81400 333 00001 20037
AAXX 15061 56951 32780 31805 10187 20045 38507 57032 83400 333 00001 20049
AAXX 15061 56964 32580 32202 10199 20073 38721 40154 57022 83200 333 00002 20104
AAXX 15061 57328 11830 80000 10098 20060 39873 40293 57022 69921 71060 885// 333 20072
AAXX 15061 57411 11420 80000 10089 20065 39915 40295 57021 69921 76066 8277/ 333 20079
AAXX 15061 57447 32965 72001 10110 21008 39741 40294 57028 8703/ 333 20063
AAXX 15061 57662 11961 80402 10098 20004 30262 40307 57028 69901 70060 8807/ 333 20076
AAXX 15061 57745 31756 80401 10086 20030 39962 40298 57023 71000 885// 333 20062
AAXX 15061 57972 32961 80000 10104 20039 30047 40277 57028 8807/ 333 20069
AAXX 15061 58203 32970 00402 10055 21074 30305 40348 57022 333 21017
AAXX 15061 58314 32960 50401 10069 21010 30218 40328 57022 85040 333 20034
AAXX 15061 58424 31956 70704 10074 21015 30292 40318 57020 70500 8707/ 333 20055
AAXX 15061 59023 32575 70404 10145 20036 39936 40250 57027 878// 333 20120
AAXX 15061 59417 32568 71602 10201 20057 30055 40210 57034 8114/ 333 20125
AAXX 15061 59985 32580 20407 10268 20236 30126 40131 57027 81140 333 20235
AAXX 15061 59995 NIL
AAXX 15061 38774 31/93 91402 10026 20016 30150 40352 52017 74542 333 20018
BBXX 46185 15061 99524 71298 46/// /3508 10032 40157 52018 22200 00072 10503 70017 333 91210
AAXX 15064 48333 32962 00000 10270 20135 39838 40138 57027 333 59008
AAXX 15064 40250 32960 30000 10062 21055 39386 40186 54002 80001 333 20046 30/// 83070
AAXX 15064 40265 31958 03104 10052 21010 39408 40218 53012 70500 333 20034 30001
AAXX 15064 40296 32960 20000 10156 20067 40197 52004 80002 333 20116 30007 82070
AAXX 15064 40310 32960 02903 10080 20018 38969 48513 54003 333 20050 30001
AAXX 15064 63729 12480 72403 10200 20161 38887 48/// 60114 8397/ 333 0//69 20166 50031 55007 55301 59003 83616 81918 87358
AAXX 15064 63733 12580 30000 10230 20178 38884 48525 69904 81931 333 0//19 20177 50221 55026 55310 59003 81923
AAXX 15064 63756 32580 20000 10228 20178 38888 48525 81131 333 20172 50351 55034 55310 59004 81823
AAXX 15064 63791 32580 10604 10250 20162 39148 48533 81200 333 20164 50601 55057 55310 58005 81827
AAXX 15064 63801 32580 70000 10220 20188 39221 48540 8193/ 333 20201 50201 55022 55305 59005 81820 81921 87359
AAXX 15064 63832 11480 70000 10186 20178 38846 48512 60234 70342 8497/ 333 0//99 20174 50111 55066 55300 58002 83818 81919 87358
AAXX 15064 63862 12580 30706 10238 20189 38917 48528 60434 81131 333 50331 55049 55310 58000 81820
AAXX 15064 63866 32580 40310 10264 20209 39536 48/// 84200 333 20224 50651 55094 55310 58004 84824
AAXX 15064 63870 32475 50310 10289 20252 30115 40133 85900 333 20245 50401 55012 55310 58006 85818 81920
AAXX 15064 63881 01480 60000 10167 20144 38213 48/// 60024 70262 8247/ 333 0//11 20122 50021 55003 55300 58001 69997 82618 86357
AAXX 15064 63887 12480 10000 10212 20172 38608 48525 61134 81500 333 0//99 20154 5///1 55036 55310 58002 81619
AAXX 15064 63894 02580 63612 10294 20246 30076 40136 69904 86200 333 0//21 20250 50501 55094 55310 58006 69907 79999 86822
AAXX 15064 63932 12580 40000 10198 20151 38327 58524 60014 81130 333 0//19 20139 50231 55015 55306 58007 81821 83359
AAXX 15064 63962 12580 30510 10233 20194 38562 48523 60024 83200 333 0//99 20170 50471 55095 55310 59003 83820
AAXX 15064 63971 32580 50113 10288 20253 39996 40124 85900 333 20248 50701 55114 55310 58006 85823 81924
AAXX 15064 06670 01680 72105 10050 20007 39609 40123 52003 69912 70282 8457/ 333 20003 31102 55007 55300 20000 60005 70073 84641 86362 90768 93100 91127 91212
AAXX 15064 06700 01463 82213 10060 20028 39656 40152 52002 60022 78086 878// 333 20037 32001 55003 55300 20000 69935 70051 81710 87629 90768 93100 91130 91219
AAXX 15064 06680 02675 82513 11076 21092 37423 47949 57004 60062 8801/ 333 21079 47115 55015 55300 20000 60005 70175 88443 90768 93105 91146 91213
AAXX 15064 06990 01356 81805 10022 20005 39579 40135 52005 60012 71022 886// 333 20011 32101 55009 55300 20000 60005 70010 88709 91112 91207
AAXX 15064 06760 32970 10103 10025 20011 39693 40150 57009 8107/ 333 20025 34000 55000 55300 20000 70005 81365 90768 93100 91106 91205
AAXX 15064 06720 01/60 /1302 10023 20017 39576 40162 55001 69952 76162 333 21002 32101 55000 55300 20000 69955 70126 90768 93100 91106 91205
AAXX 15064 06610 01567 82312 10043 20018 39560 40150 53017 69922 76122 8802/ 333 20042 32001 55008 55300 20000 69925 70116 88520 90768 93100 91135 91220
AAXX 15061 24790 41997 80402 11220 21238 39321 40182 57004 77172 8807/
AAXX 15061 24988 42999 23002 11226 21274 39834 40104 57003 81031
AAXX 15061 25378 31998 03211 11118 21227 30141 40175 53007 73730 333 11114 91116
AAXX 15061 25503 41697 82702 11261 21285 30081 40220 56002 77073 8357/
AAXX 15061 25705 41697 80000 11246 21263 39847 40204 53002 77172 8552/
AAXX 15061 25927 41597 83009 11139 21159 30015 40022 57009 73787 889// 333 91117
AAXX 15061 25932 42999 80412 11027 21068 39933 49971 53003 8807/ 333 91118
AAXX 15061 31152 42998 80000 11320 21360 39824 40275 57010 84036
AAXX 15061 31174 42598 83404 11194 21243 30148 40160 57001 81507 333 91110
AAXX 15061 31489 42998 01701 11220 21277 30051 40177 57002
AAXX 15061 31866 42999 03405 11105 21230 30120 40126 53010 70230
AAXX 15061 31959 42998 22905 11095 21194 30105 40149 54000 82040 333 91012 91114
AAXX 15061 31989 42999 00701 11066 21199 30127 40183 55002
AAXX 15061 32027 42999 63208 11165 21215 30114 40123 57007 82032 333 91010 91111
AAXX 15061 32076 42999 62903 11163 21214 30077 40088 56005 84071 333 91003 91104
AAXX 15061 32099 42598 60108 11094 21134 30060 40068 57009 86900 333 91009 91112
AAXX 15061 32121 42599 33603 11113 21186 30070 40093 53004 83900 333 91005 91111
AAXX 15061 32213 41598 73215 11045 21072 39898 49962 57008 70232 87600 333 91019 91119
AAXX 15061 32287 41295 80401 11037 21048 39910 49920 57010 78583 889// 333 88705 91114 92980
AAXX 15061 32408 41295 80114 11005 21011 39744 49781 53001 78683 889// 333 91018 91119 92982
AAXX 15061 32509 41698 83214 11042 21132 39784 49818 56005 73632 885// 333 91022 91127
AAXX 15061 32594 41496 73214 11038 21075 39920 49956 57014 78583 87900 333 91018 91124
AAXX 15064 40255 32960 00000 10080 20007 39485 40210 52011 333 20055 30001
AAXX 15064 40260 32960 33515 10065 21039 39386 40177 57004 80002 333 20010 30000 83070
AAXX 15064 40270 31940 00000 10086 21001 39282 40180 52008 70400 333 20062 30000
AAXX 15064 40272 31958 00000 10040 21039 39358 40209 52008 70500 333 21005 30101
AAXX 15064 40290 NIL
AAXX 15064 40340 31650 30206 10134 20063 40197 52017 70500 83500 333 20114 30009 83640
BBXX NIL
BBXX NIL
BBXX NIL
AAXX 15064 40250 32960 30000 10062 21055 39386 40186 54002 80001 333 20046 30/// 83070
AAXX 15064 40265 31958 03104 10052 21010 39408 40218 53012 70500 333 20034 30001
AAXX 15064 40296 32960 20000 10156 20067 40197 52004 80002 333 20116 30007 82070
AAXX 15064 40310 32960 02903 10080 20018 38969 48513 54003 333 20050 30001
BBXX NIL
BBXX NIL
AAXX 15064 65594 31450 70000 10229 20225 30074 40108 72844 83702 333 20224 59001 83706 86080
AAXX 15061 38334 11295 83601 11036 21061 39374 40370 56008 69980 77377 8802/ 333 21043
AAXX 15061 38334 11295 83601 11036 21061 39374 40370 56008 69980 77377 8802/ 333 21043
AAXX 15061 38328 11996 81801 11015 21071 39619 40371 52011 69900 77187 8802/ 333 21032
AAXX 15061 38196 32998 00201 11065 21116 39361 40388 52009 333 21112
AAXX 15061 38196 32998 00201 11065 21116 39361 40388 52009 333 21112
AAXX 15061 38198 32999 03002 11071 21109 30123 40396 52010 333 21146
AAXX 15061 38198 32999 03002 11071 21109 30123 40396 52010 333 21146
AAXX 15061 38328 11996 81801 11015 21071 39619 40371 52011 69900 77187 8802/ 333 21032
AAXX 15061 38439 31598 80103 10003 21019 30023 40371 52013 70272 885// 333 21005
AAXX 15061 38439 31598 80103 10003 21019 30023 40371 52013 70272 885// 333 21005
AAXX 15064 67327 12480 50606 10270 20254 40108 52008 60444 85800 333 20232 50250 55019 94378 555 00443 10000
AAXX 15061 38599 31495 80302 10014 21018 39831 40364 50011 71022 787EE 333 21014 88713
AAXX 15064 41863 31910 02702 10143 20130 30126 40171 71044 333 59002 70000
AAXX 15064 41926 31950 03202 10173 20140 30159 40173 70500 333 59009 70000
AAXX 15064 41941 31450 60603 10168 20140 30156 40162 70542 84520 333 56990 59005 70000 84615 86460
AAXX 15064 41947 31450 83601 10162 20140 30164 40166 70544 8352/ 333 56999 59005 70000 83618 88458
AAXX 15064 41960 31950 02702 10220 20140 30162 40164 70500 333 59009 70000
AAXX 15064 41963 31935 03602 10225 20180 30154 40156 70500 333 59003 70000
AAXX 15064 41964 31940 03602 10212 20130 30166 40169 70500 333 58008 70000
AAXX 15064 41966 31956 00402 10230 20150 30073 40153 70140 333 59011 70000
AAXX 15061 28711 11496 11099 82008 21109 39934 40033 54000 60040 77173 8552/ 333 21139 85611 91011 91111 92982
AAXX 15061 23973 42999 30000 11238 21263 30359 40429 57003 83049
AAXX 15061 23975 42999 51501 11215 21240 30297 40417 57001 80001
AAXX 15061 23986 42999 60000 11103 21109 39746 40411 56001 86030
AAXX 15061 23987 42999 21001 11243 21268 30344 40426 56003 80001
AAXX 15061 24606 42699 80000 11296 21320 30055 40356 57002 82535
AAXX 15061 29253 42999 70000 11194 21220 30209 40397 57003 80001
AAXX 15061 29471 41996 00000 11235 21254 30152 40404 57012 71000
AAXX 15061 29481 42999 00000 11257 21281 30161 40428 57009
AAXX 15061 29553 42977 61104 11139 21182 39962 40350 57016 80001
AAXX 15061 29562 42998 20000 11227 21259 39926 40385 57007 80002
AAXX 15061 29581 42998 00000 11230 21249 30132 40417 57015
AAXX 15061 29594 42999 00602 11216 21234 30002 40427 57011
AAXX 15061 29653 42997 61902 11213 21232 39842 40370 57015 80001
AAXX 15061 29675 42998 30000 11245 21277 39751 40406 57019 80001
AAXX 15061 29676 41993 80000 11216 21234 39930 40396 57014 74612 80006
AAXX 15061 29752 42999 20000 11029 21170 38850 48506 57012 81049
AAXX 15061 29759 42999 60000 11151 21164 39262 40348 57014 80001
AAXX 15061 29766 42999 70000 11254 21266 30009 40404 58018 80001
AAXX 15061 29789 42999 02001 11164 21183 39139 40401 57022
AAXX 15061 29864 42999 63203 11198 21231 39673 40378 57005 80001
AAXX 15061 29866 41994 72801 11235 21253 30038 40392 57016 71022 80001
AAXX 15061 29869 42997 60000 11236 21262 39985 40400 58024 80001
AAXX 15061 29956 42999 70000 11235 21260 39783 40399 57011 80005
AAXX 15061 30337 42998 20000 11308 21332 30008 40522 57006 80001
AAXX 15061 30405 42998 00000 11256 21288 39873 40465 57015
AAXX 15061 30504 41998 01702 11202 21214 39736 40443 57012 70271
AAXX 15061 30603 42998 30902 11189 21201 39821 40441 58018 80001
AAXX 15061 30612 42999 02902 11275 21293 39883 40484 57014
AAXX 15061 30622 42998 20000 11316 21339 39788 40528 57014 80003
AAXX 15061 30627 42999 00403 11278 21303 39454 40500 58014
AAXX 15061 30703 42999 00502 11199 21211 39711 40445 57017
AAXX 15061 36307 42999 01502 11260 21298 39096 48587 58002
AAXX 15064 71214 16/// /2605 11099 21114 60001 333 11020 21099 70000 555 33024 40211
AAXX 15064 71223 46/// /2806 11131 21150 6///1 333 7////
AAXX 15064 71225 16/// /1305 11062 21072 60001 333 10004 21125 7////
AAXX 15064 71227 46/// /2102 11161 21174 6///1 333 11023 21161 7////
AAXX 15064 71233 16/// /2001 11147 21163 60001 333 11019 21150 70000
AAXX 15064 71525 16/// /0000 11062 21078 60001 333 11022 21119 7////
AAXX 15064 71535 16/// /1805 11057 21069 60001 333 11008 21152 7////
AAXX 15064 71536 16/// /1203 11090 21116 60001 333 10009 21099 7////
AAXX 15064 71537 16/// /1602 11080 21092 60001 333 11026 21215 7////
AAXX 15064 71345 16/// /1903 11081 21094 60001 333 10009 21085 7////
AAXX 15061 23074 NIL
AAXX 15061 23274 41598 71804 11167 21179 30297 40335 57010 70287 8257/
AAXX 15061 23383 41496 80000 11182 21201 39998 40378 58007 77172 8802/
AAXX 15061 23472 42999 71602 11146 21166 30322 40374 57004 82036
AAXX 15061 23678 42998 51001 11134 21147 30346 40408 54000 80001
AAXX 15061 23884 42584 20000 11184 21196 30345 40425 57005 82500
AAXX 15061 23891 42698 80000 11231 21264 30088 57008 83586
AAXX 15061 24507 42998 23402 11249 21274 30110 40378 53002 80001
AAXX 15061 24817 42999 72002 11225 21243 39963 40365 57010 87040
AAXX 15061 24908 42681 72301 11294 21324 30073 40446 58006 81501
AAXX 15061 29263 41996 70000 11193 21219 30303 40413 57009 71041 84031
AAXX 15061 29282 41997 83301 11269 21293 30269 40460 57004 77071 80007
AAXX 15061 29379 42998 00000 11256 21288 30201 40434 58012
AAXX 15061 29570 41995 00000 11208 21226 30016 40397 57011 71000
AAXX 15061 29698 42998 00000 11178 21197 39865 40420 57016
AAXX 15061 30230 41596 80000 11260 21284 30096 40462 57011 78582 8697/
AAXX 15061 30252 41997 71401 11271 21295 30111 40466 57020 77172 8805/
AAXX 15061 30309 42999 12502 11247 21272 39888 40468 57008 80001
AAXX 15061 30328 42998 20000 11304 21328 30037 40524 57017 81049
AAXX 15061 30521 42997 00000 11319 21337 39925 40528 58017
AAXX 15061 30710 41994 02901 11199 21224 39814 40451 57022 71000
AAXX 15064 71351 16/// /1301 11154 21167 60001 333 11007 21155 7////
AAXX 15064 71353 16/// /1803 11088 21136 60001 333 11021 21109 70000 555 33424 40101
AAXX 15064 71375 46/// /3011 11078 6///1 333 11040 21131 7//// 555 32628 40222
AAXX 15064 71385 46/// /1203 11009 6///1 333 10003 21030 7////
AAXX 15064 71445 17/// /3413 11049 21062 39801 40080 53014 69981 7//4/ 333 11045 21055 7////
AAXX 15064 71683 46/// /3303 11234 30062 40178 56005 6///1 333 11234 21333 7////
AAXX 15064 71257 17/// /1505 11131 21146 60021 7//4/ 333 11039 21156 7////
AAXX 15064 71258 16/// /1607 11067 21106 60001 333 11009 21079 70000 555 33423 40151
AAXX 15064 71259 16/// /0103 11130 21154 60001 333 11026 21201 70000
AAXX 15064 71274 16/// /1001 11178 21194 60001 333 11024 21179 70000 555 33422 40091
AAXX 15064 71275 46/// /3103 11101 21121 6///1 333 11032 21101 7//// 555 33026 40121
AAXX 15064 71278 16/// /3402 11111 21133 60001 333 11025 21111 7////
AAXX 15064 71286 16/// /1803 11130 21141 60001 333 11021 21151 70000 555 33125 40081
AAXX 15064 71287 16/// /2204 11111 21120 60001 333 11019 21120 70000 555 33121 40191
AAXX 15064 71289 16/// /2303 11128 21149 60001 333 11025 21132 7////
AAXX 15064 71464 46/// ///27 10104 39884 40095 58039 6///1 333 10105 20055 7////
AAXX 15064 71916 46/// /2609 11211 21226 30075 40132 51006 6///1 333 11211 21298 7////
AAXX 15063 42071 31995 01603 10170 20054 40194 70400 333 58010
AAXX 15064 42101 31995 00000 10154 20074 40195 70500 333 58011
AAXX 15064 42165 31995 01401 10210 21008 40182 70500 333 59002
AAXX 15064 42328 32996 00903 10238 21030 40183 333 59001
AAXX 15064 42361 31995 00000 10202 20140 40190 70500 333 59001
AAXX 15064 42379 31595 80902 10152 20085 40182 70522 8552/ 333 58000 85625 88458
AAXX 15064 42027 NIL
AAXX 15064 42071 NIL
AAXX 15064 42111 NIL
AAXX 15064 42131 NIL
AAXX 15064 42182 NIL
AAXX 15064 42189 NIL
AAXX 15064 42260 NIL
AAXX 15064 42339 NIL
AAXX 15064 42348 NIL
AAXX 15064 42369 NIL
AAXX 15064 42452 NIL
AAXX 15064 42475 NIL
AAXX 15061 78310 12904 00804 10204 20183 30186 40196 58007 60001 333 10275 20204 30/// 56/// 59005 92034
AAXX 15061 78315 12564 10601 10172 20159 30131 40197 58008 60001 81200 333 10276 20171 30/// 56900 58001 81820
AAXX 15061 78318 12565 20903 10208 20172 30195 40199 58008 60001 82800 333 10272 20204 31/// 56900 59004 81820
AAXX 15061 78322 12556 30000 10184 20166 30187 40204 58006 60001 83200 333 10285 20172 30/// 56100 59006 83820 555 10402
AAXX 15061 78324 12400 60508 10232 20181 30180 40191 56005 60001 86800 333 10262 20225 30/// 56100 58005 82816 86620 555 10504
AAXX 15061 78325 NIL
AAXX 15061 78328 12/62 20906 10232 20179 30200 40/// 58005 60001 82200 333 10255 20224 30/// 56900 59005 828//
AAXX 15061 78333 12910 30503 10185 20172 30190 40197 58006 60001 80002 333 10274 20175 30/// 56000 58001 83071
AAXX 15061 78344 12550 40601 10199 20179 30144 40193 58007 60001 81240 333 10268 20186 30/// 56990 58002 81820 83358
AAXX 15061 78345 12465 70101 10185 20176 30183 40186 58009 60001 878// 333 10277 20178 30/// 56099 58001 84816 83623
AAXX 15061 78348 11557 70608 10222 20180 30140 40192 58010 60001 70511 85842 333 10254 20206 30/// 56199 57854 58000 84822 555 10502
AAXX 15061 78349 12950 53301 10192 20183 30086 40196 58007 60001 80002 333 10272 20188 31/// 56009 58005 70008 83070
AAXX 15061 78351 12550 13601 10179 20174 30152 40154 58014 60001 81500 333 10285 20179 30/// 56900 59012 70002 81630
AAXX 15061 78353 12560 30705 10233 20143 30160 40182 58010 60001 83800 333 10261 20223 30/// 56900 58006 70005 82820
AAXX 15061 78355 12560 10103 10198 20173 30037 40173 58008 60001 81201 333 10267 20198 30/// 56909 58000 70003 81820
AAXX 15061 78358 12530 40605 10245 20194 30157 40172 58008 60001 84800 333 10273 20225 31/// 56900 57825 58017 70005 83823
AAXX 15061 78360 12560 10207 10225 20196 30150 40161 58005 60001 81200 333 10303 20219 30/// 56900 58007 79999 81820 92034
AAXX 15061 78363 12557 40000 10199 20185 30040 40155 56010 60001 84500 333 10265 20186 30/// 56100 58010 70005 84621 555 10404
AAXX 15061 78365 12550 60716 10256 20195 30172 40177 58007 60001 86200 333 10268 20250 31/// 56200 57834 58012 79999 86820 92056 555 10703
AAXX 15061 78369 01464 60410 10242 20191 30152 40161 56003 60021 72581 86200 333 10270 20240 31/// 56900 57860 58016 60027 70016 86818
AAXX 15064 67979 11580 82401 10242 20216 3//// 48/// 60054 70252 885// 333 20200 5//// 88620
AAXX 15064 41936 31407 63604 10170 20160 40171 74744 86600 333 56900 59002 70000 86706
AAXX 15061 51711 32680 13401 11034 21148 38058 57005 81100 333 05201 21160
AAXX 15061 51730 32972 02702 11008 21070 40375 57006 333 05202 21128
AAXX 15061 52112 32980 11103 11031 21175 40390 57019 80002 333 05202 21134
AAXX 15061 52737 32980 01602 11052 21231 37116 57014 333 00002 21176
AAXX 15061 52787 32980 10206 11072 21197 37046 57010 80002 333 00151 21157
AAXX 15061 53352 32980 23205 11141 21232 40496 52005 80002 333 21239
AAXX 15061 53593 32780 63207 11066 21209 40392 57011 86500 333 21175
AAXX 15061 53705 32970 00203 11006 21113 40379 57017 333 00252 21081
AAXX 15061 53863 32970 02505 10014 21156 40353 57021 333 21036
AAXX 15061 53975 32972 03205 10056 21183 40322 57031 333 21026
AAXX 15061 54273 32670 52204 11114 21186 40283 57010 85500 333 21216
AAXX 15061 54324 32970 03405 11054 21266 40327 57013 333 21146
AAXX 15061 54405 32680 63210 11064 21215 40368 57019 86400 333 21123
AAXX 15061 54436 32980 03604 11033 21231 40336 57017 333 21137
AAXX 15061 54808 32964 03201 10028 21144 40353 57024 333 21038
AAXX 15061 54826 32980 03206 11095 21192 38510 57012 333 21134
AAXX 15061 54836 32980 23403 10002 21185 40343 57021 80002 333 21053
AAXX 15061 54863 11580 23205 10015 21110 40312 57026 69901 70080 81102 333 21035
AAXX 15061 56018 32980 22202 11027 21274 36168 57028 80002 333 00151 21176
AAXX 15061 56021 32980 62201 11053 21266 36065 57019 80002 333 00000 21225
AAXX 15061 57071 32967 01802 10038 21086 40345 57029 333 21031
AAXX 15064 68513 16/// /0604 10155 20071 30059 40172 53001 69924 333 20092 91006 555 10195 20002 91017
AAXX 15064 68514 32/// /1902 10143 20038 39703 48540 52005 333 20084 91005 555 10231 91018
AAXX 15064 68523 36/// /2208 10107 21003 39127 48521 53002 333 20058 91013 555 10222 91019
AAXX 15064 68527 36/// /1706 10143 20013 39084 48513 53002 333 20107 91010 555 10271 91017
AAXX 15064 68572 16/// /0903 10166 20124 38388 48496 52011 60064 333 20099 91008 555 10223 20064 91018
AAXX 15064 68575 16/// /1806 10179 20160 39079 48503 53011 69984 333 20160 91010 555 10247 20008 91015
AAXX 15064 68581 36/// /1103 10203 20189 39353 48505 52010 333 20189 91006 555 10285 91013
AAXX 15064 68583 16/// /2206 10240 20200 39995 40103 53015 69924 333 20224 91013 555 10312 20002 91010
AAXX 15064 68589 16/// /0406 10188 20128 38236 48493 53006 69984 333 20130 91010 555 10242 20008 91019
AAXX 15064 68613 36/// /0305 10154 20095 30079 40196 52006 333 20074 91009 555 10181 91019
AAXX 15064 68647 36/// /3002 10161 20106 38903 48498 52008 333 20123 91003 555 10295 91016
AAXX 15064 68651 16/// /1703 10182 20096 38546 48509 52003 69964 333 20108 91005 555 10254 20006 91019
AAXX 15064 68715 NIL
AAXX 15064 68717 16/// /3506 10144 20065 30039 40185 52005 60014 333 20094 91010 555 10168 20010 91018
AAXX 15064 68723 16/// /2907 10121 20033 39418 48524 53006 60014 333 20071 91011 555 10170 20010 91018
AAXX 15064 68737 32875 11805 10145 21002 39254 48516 52001 81500 333 20080 91009 555 10309 91017
AAXX 15064 68744 32980 01405 10155 20037 39094 48502 52007 333 20100 91008 555 10314 91016
AAXX 15064 68747 16/// /2904 10159 20067 39626 48526 52013 60034 333 20136 91007 555 10294 20034 91016
AAXX 15064 68754 16/// /2303 10147 20124 39133 48512 52007 60134 333 20116 91007 555 10251 20138 91017
AAXX 15064 68817 NIL
AAXX 15064 68821 16/// /2818 10143 20069 39916 40158 52005 60034 333 20103 91024 555 10172 20032 91015
AAXX 15064 68835 16/// /3102 10150 20112 30039 40155 53006 60014 333 20098 91003 555 10250 20010 91015
AAXX 15064 68843 16/// /2808 10176 20085 30047 40146 53008 60014 333 20139 91012 555 10231 20010 91014
AAXX 15064 68849 16/// /3109 10143 20080 39407 48507 53005 60014 333 20105 91015 555 10217 20012 91015
AAXX 15064 68912 16/// /3420 10134 20113 30158 40167 52005 60064 333 20128 91027 555 10159 20060 69945 91016
AAXX 15064 68918 16/// /3214 10174 20091 30135 40154 52006 60034 333 20146 91023 555 10183 20036 91015
AAXX 15064 68921 16/// /2915 10192 20089 30143 40146 52011 69924 333 20130 91021 555 10202 20002 91014
AAXX 15064 68925 16/// /3007 10144 20079 39792 40159 52005 60054 333 20120 91013 555 10149 20056 91016
AAXX 15064 68926 12670 13205 10193 20036 39977 40155 52008 69924 81500 333 20100 91011 555 10245 20002 91015
AAXX 15064 68935 16/// /2202 10175 20089 30088 40152 53005 60024 333 20094 91003 555 10207 20026 91015
AAXX 15064 68715 NIL
AAXX 15064 68817 NIL
AAXX 15061 50548 32980 10203 11155 21258 40267 57006 80002 333 21277
AAXX 15061 50564 32970 03402 11175 21259 40249 57004 333 21283
AAXX 15061 51334 11770 71802 11064 21081 40367 52004 69901 77077 875// 333 05201 21082
AAXX 15061 51818 32865 73402 11015 21066 40366 57003 82502 333 05200 21093
AAXX 15061 52378 32980 10706 11061 21201 40447 57015 80002 333 00202 21188
AAXX 15061 53487 32565 23209 11084 21218 40407 57011 82100 333 21194
AAXX 15061 53502 32980 10902 11050 21199 40442 57013 80002 333 00300 21169
AAXX 15061 53923 32980 03402 10015 21123 40341 57020 333 21052
AAXX 15061 54049 32970 03204 11108 21236 40285 57007 333 21189
AAXX 15061 54115 32680 13403 11139 21255 40372 57002 81100 333 21186
AAXX 15061 54157 32970 02904 11101 21214 40293 57005 333 21153
AAXX 15061 54186 32570 62703 11129 21209 40261 57004 86100 333 21186
AAXX 15061 54311 32980 02905 11125 21258 40379 57008 333 21213
AAXX 15061 54346 32570 22705 11075 21207 40309 57015 82100 333 21151
AAXX 15061 54377 32580 22503 11058 21188 40280 57023 82100 333 21170
AAXX 15061 54386 11565 62002 11132 21182 40272 57007 69921 77070 86500 333 21230
AAXX 15061 54493 32574 23205 11064 21208 40296 57017 82100 333 21156
AAXX 15061 54587 NIL
AAXX 15061 54715 32970 02501 10015 21159 40353 57023 333 21048
AAXX 15061 54929 32980 02903 10027 21127 40338 57022 333 21036
AAXX 15061 54945 32977 03404 10017 21136 40337 57019 333 21022
AAXX 15061 56065 32680 12702 11050 21229 36629 57022 81100 333 00352 21219
AAXX 15061 57193 32965 12201 10045 21120 40352 57024 80002 333 21023
AAXX 15061 57290 32965 00902 10042 21089 40342 57031 333 21018
AAXX 15061 23074 41497 81707 11143 21170 30260 40286 57018 72687 879//
AAXX 15064 67002 32580 63004 10295 20238 30109 40143 81832 333 20243 58014 81820 84073 92408
AAXX 15064 67009 12582 20000 10290 20207 30010 40129 51008 60394 82800 333 02369 10322 20240 50204 55020 82820 555 81640=39.0 67012 12582 70000 10293 20258 30114 40125 51009 60744 872// 333 0//58 10318 20242 50154 55/// 87820=73.5 67025 31570 41806 10318 20227 30017 40115 55005 70400 84200 333 0//00 10327 20200 50414 55/// 84820
AAXX 15064 67027 32582 20410 10312 20212 30103 40124 50014 81232 333 02200 10320 20258 50314 55086 81823 555 81360 81073
AAXX 15064 67045 NIL
AAXX 15064 67072 31465 72610 10275 20235 30139 40142 51010 71522 872// 333 02400 10299 20260 50364 55/// 87817 92427
AAXX 15064 67073 32682 2//// 10314 20230 30088 40114 51007 81532 333 0//00 10325 20261 50//4 55/// 81640 555 81360 82073
AAXX 15064 67083 12580 40000 10220 20168 38766 48541 51009 60014 83802 333 00359 20178 50244 55080 83820 RR1.2MM 67095 32482 42008 10301 20222 30129 40135 50006 84800 333 02200 10330 20227 50454 55/// 84817 555 82633
AAXX 15064 67113 NIL
AAXX 15064 67117 NIL
AAXX 15064 67137 11475 3//04 10240 20186 38907 48514 51002 60024 71011 83200 333 0//19 10302 20187 50204 55/// 83817=1.6 67143 32582 1//// 10/// 20/// 30132 40139 51003 81230 333 0//00 10/// 20/// 50//4 55/// 81820 92438 555 81360
AAXX 15064 67152 31975 1//// 10261 20204 39203 48521 51003 7050/ 80002 333 02100 10350 20212 50664 55/// 81073
AAXX 15064 67157 12580 5//// 10/// 20/// 30152 40159 54000 60014 85800 333 0//18 10/// 20/// 50//4 55/// 83820 83640=1.2 67161 32582 60000 10290 20224 30093 40102 51002 81232 333 0//00 10320 20185 50324 55/// 81823 85073 555 82360
AAXX 15064 67197 32580 20818 10294 20231 30107 40117 58002 82802 333 01500 10314 20244 50444 55115 81820 555 81633 81073
AAXX 15064 67017 NIL
AAXX 15064 67020 11565 20000 10298 20254 30092 40119 50002 60144 70422 82802 333 023// 10343 20237 50374 55/// 82820 555 81640 81073=14.3 67023 32582 41612 10326 20226 30110 40116 51003 82102 333 02000 10330 20214 50574 55/// 82820 84075
AAXX 15064 67037 32582 2//// 10/// 20/// 30070 40111 5/009 81802 333 0//00 10/// 20/// 50//4 55/// 81820 555 81640 82073
AAXX 15064 67067 31565 4//// 10264 20173 39268 48/// 50004 7050// 82100 333 0//00 10333 20171 50714 55/// 82820 83073
AAXX 15064 67107 NIL
AAXX 15064 67131 32582 32806 10/// 20/// 30093 40098 51011 80002 333 0//00 10/// 20/// 50//4 55/// 83073
AAXX 15064 64500 11360 71002 10248 20236 30102 40115 60484 70266 8457/ 333 02364 20228 5///1 55052 58005 84608 87460
AAXX 1506/ 89667 46/// ///// 11062 39813 4//// 5////
AAXX 1506/ 89327 46/// ///// 11035 39594 4//// 5//// 90610
AAXX 1506/ 89828 46/// ///// 11251 36434 4//// 5//// 90620
AAXX 1506/ 89108 46/// ///// 11256 36893 4//// 5//// 90610
AAXX 1506/ 89108 46/// ///// 11256 36893 4//// 5//// 90620
AAXX 1506/ 89879 46/// ///// 10014 39717 4//// 5//// 90610
AAXX 1506/ 89872 46/// ///// 11019 39765 4//// 5//// 90610
AAXX 1506/ 89872 46/// ///// 11016 39767 4//// 5//// 90620
AAXX 1506/ 89869 46/// ///// 11034 39767 4//// 5//// 90620
AAXX 1506/ 89866 46/// ///// 11016 39715 4//// 5//// 90610
AAXX 1506/ 89866 46/// ///// 11010 39714 4//// 5//// 90620
AAXX 1506/ 89329 46/// ///// 11145 38665 4//// 5//// 90610
AAXX 1506/ 89799 46/// ///// 11288 4//// 5//// 90610
AAXX 1506/ 89799 46/// ///// 11286 4//// 5//// 90620
AAXX 1506/ 89868 46/// ///// 11059 39777 4//// 5//// 90610
AAXX 1506/ 89868 46/// ///// 11059 39777 4//// 5//// 90620
AAXX 1506/ 89332 46/// ///// 11065 39153 4//// 5//// 90610
AAXX 1506/ 89332 46/// ///// 11076 39154 4//// 5//// 90620
AAXX 1506/ 89769 46/// ///// 11049 39807 4//// 5//// 90610
AAXX 1506/ 89314 46/// ///// 11160 38142 4//// 5//// 90610
AAXX 15064 89667 46/// /1610 11070 29078 39814 4//// 5//// 90610
AAXX 15064 89667 46/// /1611 11064 39814 4//// 5////
AAXX 15064 89667 46/// /1611 11071 29078 39814 4//// 5//// 90620
AAXX 15061 35532 32998 00000 11164 21198 39893 40426 52018 333 21203
AAXX 15061 35426 32999 10000 11252 21283 30108 40437 52008 80001 333 21265
AAXX 15061 35229 11996 80801 11202 21225 30122 40424 52006 69900 77172 8802/ 333 21271
AAXX 15061 35416 32997 20000 11208 21245 30282 40416 52006 80001 333 21241
AAXX 15064 08451 02980 13601 10092 20092 30274 40308 53010 60002 80001 333 20092 3/007 55/// 60007 70023
BBXX DDDO2 15064 99127 10477 41597 10718 10255 20176 40160 51015 70200 81100 22225 00267 20501 307//
BBXX TBWUK17 15063 99071 31038 41398 42513 10300 20261 40114 57003 70111 84772 22253 04300 20201 32020 40403 50503 80272
BBXX TBWUK12 15064 99317 3007 41597 72608 10160 20114 40180 52015 7//// 877// 22263 2//// 324// 41204 5//// 80135
BBXX VRCZ7 15063 99354 10179 41598 13114 10175 20111 40254 54000 70200 811// 22265 2//// 3//// 4//// 5//// 80140
BBXX A8UQ2 15064 99253 10574 41697 10206 10250 20149 40185 51/// 70111 81//5 22273 00250 20000 300// 40000 5//// 80185
BBXX OVSB2 15063 99156 30026 41598 71411 10201 20121 40148 52005 70222 878// 22234 00208 20303 316// 40703 5//// 80156
AAXX 15064 68174 11470 73202 10187 20159 38787 48510 52012 60044 70522 82281 333 20170 91004 555 10264 20044 91018
AAXX 15064 68191 36/// /3306 10265 20187 39616 48532 52010 333 20244 91011 555 10348 91012
AAXX 15064 68242 12680 41209 10187 20013 38720 48500 52007 60104 81404 333 20115 91012 555 10274 20105 91017
AAXX 15064 68262 16/// /3202 10221 20169 38698 48507 53007 69924 333 20200 91005 555 10255 20002 91017
AAXX 15064 68263 32480 63005 10198 20163 38481 48506 53006 86500 333 20173 91007 555 10234 91019
AAXX 15064 68267 NIL
AAXX 15064 68289 16/// /0705 10216 20193 39133 48508 52011 60014 333 20206 91025 555 10302 20018 91015
AAXX 15064 68350 16/// /2404 10204 20068 38666 48517 52017 60164 333 20149 91010 555 10269 20162 91019
AAXX 15064 68368 31460 63407 10187 20154 38318 48514 53013 70522 84102 333 20168 555 10231 91020
AAXX 15064 68403 16/// /1607 10160 20083 30154 40187 56003 69924 333 20108 91010 555 10211 20002 91018
AAXX 15064 68424 12982 01707 10152 20021 39213 48522 53000 69924 333 20082 91011 555 10278 20002 91018
AAXX 15064 68438 32982 01807 10166 21000 38820 48511 53006 333 20076 91010 555 10295 91018
AAXX 15064 68442 12982 11603 10169 20014 38659 48510 53007 69984 80001 333 20061 91005 555 10262 20008 91018
AAXX 15064 68461 12480 62903 10175 20142 38317 48502 53012 69984 86500 333 20124 91010 555 10217 20008 91019
AAXX 15064 68512 32982 01105 10106 20017 39030 48512 53002 333 20053 91009 555 10142 91018
AAXX 15064 68538 31974 12707 10138 21017 38714 48495 55000 70500 80002 333 20073 91014 555 10261 91017
AAXX 15064 68587 16/// /2310 10206 20170 30111 40123 53016 69944 333 20206 91021 555 10253 20004 91012
AAXX 15064 68588 36/// /1716 10240 20185 30109 40125 53012 333 20222 91023 555 10307 91012
AAXX 15064 68591 16/// /2113 10221 20189 39949 40127 53011 69984 333 20212 91020 555 10285 20008 91013
AAXX 15064 68592 NIL
AAXX 15064 68618 32580 11702 10094 20031 39074 48522 52008 81500 333 20004 91005 555 10137 91020
AAXX 15064 68633 36/// /2909 10132 21048 38495 48490 53006 333 20029 91014 555 10263 91017
AAXX 15064 68668 12470 81907 10160 20136 39288 48506 52012 60104 885// 333 20149 91010 555 10271 20103 91015
AAXX 15064 68714 16/// /3610 10149 20091 30137 40174 51001 60014 333 20116 91015 555 10175 20014 91017
AAXX 15064 68727 36/// /2004 10122 20006 39128 48500 52005 333 20076 91007 555 10253 91016
AAXX 15064 68752 16/// /2709 10155 20124 39468 48515 53007 60014 333 20132 91013 555 10249 20018 91015
AAXX 15064 68816 12770 70114 10138 20110 30116 40171 51013 60084 875// 333 20119 91017 555 10172 20080 91017
AAXX 15064 68828 12980 02911 10179 20067 39917 40149 52009 60014 333 20100 555 10194 20014 91015
AAXX 15064 68842 32884 12711 10191 20037 30075 40145 51006 81500 333 20133 555 10221 91014
AAXX 15064 68858 12684 62413 10171 20098 39992 40148 51012 60022 86570 333 20146 555 10238 20024 91015
AAXX 15064 68906 12598 72515 10108 20057 30045 40110 53007 69974 875// 222// 00125 20401 319// 40701 333 20101 91030 555 10160 20007 91010
AAXX 15064 68994 11395 83407 10097 20095 30049 40078 57020 60114 75055 886// 222// 00069 306// 40302 333 20089 91013 555 10118 20116 69945 91007
AAXX 15064 89004 31780 71318 11117 21177 38786 49807 50000 73733 83078 333 21145 91022 555 11105
BBXX 46206 15061 99488 71260 46/// /1110 10070 40163 52010 22200 00089 10605 70023 333 91213
AAXX 15064 42559 32996 01402 10222 20080 40167 333 58000
AAXX 15064 42571 32996 00000 10220 20033 40177 333 59004
AAXX 15064 42667 31995 30000 10230 20101 39582 40171 70500 333 59002
AAXX 15064 42675 31996 00202 10204 20071 40180 70500 333 59004
AAXX 15064 42754 31996 40704 10234 20073 39532 40166 70522 80001 333 58002 84075
AAXX 15064 42779 32996 00000 10216 20061 39469 40168 333 59004
AAXX 15064 42867 31996 11105 10248 20085 40167 70511 80001 333 59005 81075
AAXX 15064 42933 32997 21102 10267 20096 40166 80001 333 59001 82075
AAXX 15064 43041 32996 03602 10250 20119 39544 40158 333 59006
AAXX 15064 42874 NIL
AAXX 15064 61202 NIL
AAXX 15064 61214 NIL
AAXX 15064 61223 32960 50406 10111 21048 39856 40172 80002 333 01100 20110 50624 55070 59012 85075
AAXX 15064 61226 32960 60608 10136 21011 39854 40154 80002 333 01300 20136 50854 55062 58001 86075
AAXX 15064 61230 32960 73402 10116 21037 39848 40121 81042 333 01600 20114 50684 55091 59003 81365 87075
AAXX 15064 61233 32960 60802 10125 21008 3//// 4//// 80002 333 04600 20125 50744 55/// 5//// 86075
AAXX 15064 61235 32960 73614 10220 21014 3//// 4//// 80002 333 0//00 20215 51584 55090 5//// 87075
AAXX 15064 61240 32960 60000 10155 20004 39815 40144 80002 333 01400 20145 50934 55085 59001 86075
AAXX 15064 61250 32960 50000 10150 20045 3//// 4//// 80002 333 01400 20150 50924 55092 5//// 85075
AAXX 15064 61257 32960 51404 10175 20028 30074 40168 80002 333 01100 20173 50224 55099 58001 85075
AAXX 15064 61265 32965 10000 10126 20031 39819 40129 80002 333 01400 20126 50650 55097 59003 81075
AAXX 15064 61270 32960 20000 10198 21014 3//// 4//// 80002 333 01400 20179 50824 55100 5//// 82075
AAXX 15064 61272 32960 30000 10164 20067 39801 40130 80002 333 01300 20162 5//// 55096 59012 83075
AAXX 15064 61277 32960 10000 10148 20075 39805 40127 80002 333 01400 20141 50731 55099 59001 81075
AAXX 15064 61285 32960 60000 10172 20070 39973 40124 80002 333 01500 20170 50994 55100 58005 86075
AAXX 15064 61291 32960 60402 10139 20049 39706 40120 80002 333 01300 20130 50911 55103 58004 86075
AAXX 15064 61293 32960 50000 10137 20073 3//// 4//// 80002 333 01100 20135 50640 55089 5//// 85075
AAXX 15064 61296 32960 60000 10159 20077 3//// 4//// 80002 333 00900 20154 50500 55093 5//// 86075
AAXX 15064 61297 32960 70404 10162 20057 3//// 4//// 80002 333 00900 20140 50841 55105 5//// 87075
BBXX 46206 15061 99488 71260 46/// /1110 10070 40163 52010 22200 00089 10605 70023 333 91213
AAXX 15061 50658 32975 02902 11183 21216 40266 52001 333 21269
AAXX 15061 50888 32580 13601 11159 21210 40218 57005 81100 333 21209
AAXX 15061 50983 32970 01402 11142 21219 40221 57010 333 21225
AAXX 15061 51053 32975 81104 11063 21118 40336 52004 8802/ 333 05503 21102
AAXX 15061 51542 11680 22001 11139 21182 37586 57012 69901 70070 81502 333 05352 21247
AAXX 15061 52436 32980 00704 11039 21109 38551 40383 57014 333 05151 21153
AAXX 15061 52908 32980 72905 11091 21325 35744 57015 80002 333 00000 21226
AAXX 15061 52996 32980 03202 11049 21137 37609 57016 333 00151 21106
AAXX 15061 53083 32980 03203 11193 21235 40474 52012 333 00251 21325
AAXX 15061 53764 32973 02704 11031 21157 40394 57015 333 21103
AAXX 15061 53787 32980 03602 11012 21134 40342 57023 333 21079
AAXX 15061 54096 32570 52905 11138 21203 40224 57004 82102 333 21169
AAXX 15061 54226 32980 02905 11088 21244 40328 57010 333 21137
AAXX 15061 54259 32680 62204 11097 21182 40302 57011 86500 333 21224
AAXX 15061 54527 32970 02904 11003 21206 40348 57022 333 21076
AAXX 15061 54534 32975 02907 11012 21187 40334 57022 333 21123
AAXX 15064 68267 NIL
AAXX 15064 68592 NIL
BBXX 46205 15061 99542 71343 46/// /1504 10055 40176 52009 22200 00078 11203 70016 333 91204
BBXX 46132 15061 99497 71279 46/// /1209 10074 40157 52020 22200 00085 1//// 70/// 333 912//
AAXX 15064 94996 41568 62409 10209 20140 39970 40106 53003 70511 82202 90630
AAXX 15064 41933 31820 33101 10164 20130 30153 40162 71040 83010 333 56090 59007 70000 83458
AAXX 15064 94996 41568 62409 10209 20140 39970 40106 53003 70511 82202 90630
BBXX CFO383 15064 99439 70602 47999 /0106 10012 2107/ 40270 5//// 700// 8/ // 22200 00081 10905 2//// 3//// 70023 81013 333 91013
BBXX CFO383 15064 99439 70602 47999 /0106 10012 2107/ 40270 5//// 700// 8/ // 22200 00081 10905 2//// 3//// 70023 81013 333 91013
BBXX 46205 15061 99542 71343 46/// /1504 10055 40176 52009 22200 00078 11203 70016 333 91204
BBXX 46132 15061 99497 71279 46/// /1209 10074 40157 52020 22200 00085 1//// 70/// 333 912//
AAXX 15064 87448 32965 00000 10138 20105 39585 40138 57008
AAXX 15064 89020 46/// /2503 11117 21136 39820 49856 52007 90530
BBXX ZCBZ4 15063 99104 11267 41/98 50410 10290 20269 40092 57025 70222 85700 22244 20403 32727 40303 50201 80275
AAXX 15064 88900 46/// /2315 10026 20003 30074 40076 52007 333 55066
BBXX 62141 15063 99493 50590 41/97 /3215 10116 40214 52004 72122 8//// 22200 20604 33131 40402 50604
BBXX VQHO7 15064 99043 70482 41498 30717 10270 20241 40091 54000 70322 832// 22274 00275 29903 3//// 4//// 5//// 80250
BBXX ZDLS1 15063 99386 30147 41397 72919 10138 20110 40084 54000 70122 8677/ 22252 04123 20405 322// 40606 80123
BBXX A8YW2 15064 99300 30434 41398 30619 10260 20215 40140 53005 70511 82100 22224 00220 20804 80230
BBXX AMOUK15 15064 99103 50119 46/// ///// 10220 20192 30104 40134 57004 90550
BBXX AMOUK20 15064 99123 50324 46/// ///// 10259 20213 30128 40138 57010 90550
BBXX AMOUK17 15064 99331 30523 46/// ///// 10195 20116 30235 40248 52004 90550
BBXX DMDZ 15063 99281 70246 41498 40813 10200 20153 40290 54000 7//11 84240 22263 04210 20601 336// 40704 5//// 80170
BBXX DHTK 15061 99184 70267 41/97 20415 10235 20183 40168 53008 70111 8///4 22214 04240 20806 80200
BBXX ZSAF 15064 99560 30000 41397 82912 11007 21028 49686 51004 70255 8662/ 22233 05010 2//// 309// 40404 5////
BBXX MGSM3 15064 99182 31533 41497 70508 10290 20250 40034 56020 70120 87800 22243 04290 20501 31313 41002 51002 80270
AAXX 15061 30499 42999 03201 11205 21262 39595 40301 58007
AAXX 15061 30683 41999 23602 11155 21248 39613 40297 58001 70230 80002 333 91110
AAXX 15061 30695 41999 03607 11166 21258 39921 40278 53003 73630 333 91114
AAXX 15061 31253 42999 00000 11268 21307 39736 40239 57005
AAXX 15061 31295 42999 23208 11186 21265 39767 40253 54000 80001 333 91010 91110
AAXX 15061 31348 42999 80000 11199 21240 39970 40177 57005 80001
AAXX 15061 31418 42999 10000 11195 21273 39903 40174 57004 80009
AAXX 15061 31439 42999 60000 11235 21261 30101 40149 57002 86040
AAXX 15061 31442 42999 83404 11200 21278 39853 40231 54000 80001
AAXX 15061 31445 42999 03004 11189 21268 39949 40221 57005
AAXX 15061 31474 42999 00000 11255 21311 39686 40210 57004
AAXX 15061 31521 32999 03001 11217 21249 39912 40226 57002
AAXX 15061 31527 42998 02902 11209 21266 39899 40225 56002
AAXX 15061 31534 42999 00000 11216 21248 39840 40211 57001
AAXX 15061 31587 42999 02804 11197 21246 30079 40236 57002
AAXX 15061 31632 NIL
AAXX 15061 31702 42998 22701 11213 21261 39859 40221 53001 82030
AAXX 15061 31713 42999 02701 11146 21217 30077 40181 57004
AAXX 15061 31725 42998 22902 11164 21224 30108 40178 56002 80002
AAXX 15061 31801 41598 50000 11181 21207 39944 40186 53005 70282 83902
AAXX 15061 30455 42999 31701 11262 21294 39002 48510 58007 82041
AAXX 15061 30731 41997 82201 11125 21168 39769 40415 57008 77172 8801/
AAXX 15061 30739 42999 00702 11253 21285 39552 40462 58016
AAXX 15061 30741 42998 23308 11158 21177 38782 48559 58008 82050
AAXX 15061 30745 42999 02302 11184 21210 39178 40414 58007
AAXX 15061 30764 42999 00000 11219 21276 39526 40394 58016
AAXX 15061 30829 42999 03203 11190 21216 39723 40473 58017
AAXX 15061 30838 42998 01602 11177 21203 39401 40460 58013
AAXX 15061 30846 42999 02204 11145 21206 39437 40401 58010
AAXX 15061 30859 42999 03105 11160 21252 39485 40377 57010
AAXX 15061 30862 42999 02302 11218 21275 39580 40383 58004
AAXX 15061 30957 42999 03104 11138 21209 39442 40389 58015
AAXX 15061 30975 41999 03407 11180 21249 39636 40328 58003 73630
BBXX ZCEE2 15064 99201 70701 41298 51325 10259 20184 40148 57032 7//// 8/6// 22274 00280 20302 332// 40303 5//// 80211
BBXX ZCDF4 15063 99097 70859 41398 80515 10252 20235 40119 51015 72022 877// 22275 00270 20201 324// 40301 5//// 80240
BBXX ZCDG4 15064 99097 70815 41498 81326 10244 20217 40115 51020 70222 887// 22263 00300 20101 309// 40603 5////
BBXX VQKZ6 15063 99176 70688 41398 73417 10255 20226 40136 54000 76022 8471/ 22254 02250 20403 334// 40504 5//// 80235
BBXX 41036 15061 99342 70770 46/// ///// 10146 20104 40263 90620 22200 00178
BBXX 42363 15061 99282 70892 46/// /1313 10228 20167 40224 90615 333 91213
BBXX 42363 15061 99282 70892 46/// /1511 10228 20167 40224 90630 333 91212
BBXX 42364 15061 99291 70881 46/// /1511 10217 20167 40234 90615
BBXX 44062 15061 99386 70764 46/// /1906 1//// 90620 22200 00089 333 91207
BBXX 44062 15061 99386 70764 46/// /1905 1//// 40234 90610 22200 00089 333 91207
BBXX 44062 15061 99386 70764 46/// /1905 10080 40236 58018 90600 22200 00089 10301 70003 333 91207
BBXX 44063 15061 99390 70764 46/// /2105 1//// 90620 333 91205
BBXX 44063 15061 99390 70764 46/// /2104 1//// 40262 90610 333 91205
BBXX 44063 15061 99390 70764 46/// /2105 10078 40262 90600 22200 00077 10201 70003 333 91205
BBXX 44041 15061 99372 70768 46/// /1803 1//// 90620 333 91204
BBXX 44041 15061 99372 70768 46/// /1703 1//// 40281 90610 333 91204
BBXX 44041 15061 99372 70768 46/// /1803 10078 40282 58016 90600 22200 00094 1//00 70000 333 91203
BBXX 44042 15061 99380 70763 46/// /2004 1//// 90620 333 91205
BBXX 44042 15061 99380 70763 46/// /2004 1//// 40257 90610 333 91205
BBXX 44042 15061 99380 70763 46/// /2005 10089 40258 58018 90600 22200 00087 1//00 70002 333 91206
BBXX 44043 15061 99392 70764 46/// /1906 1//// 90620 333 91207
BBXX 44043 15061 99392 70764 46/// /1806 1//// 40243 90610 333 91206
BBXX 44043 15061 99392 70764 46/// /1805 10082 40244 58019 90600 22200 00075 10201 70003 333 91206
AAXX 15061 31825 41999 13402 11132 21214 39922 40138 53001 70230 80001
AAXX 15061 31845 42599 82302 11164 21206 30030 40204 57007 8653/
AAXX 15061 31878 42999 12202 11143 21226 30093 40224 56008 80001
AAXX 15061 31915 42599 43103 11102 21199 39938 40214 57006 83105
AAXX 15061 31921 41997 81403 11118 21162 30116 40218 56009 71422 8802/
AAXX 15061 31969 42598 32907 11063 21184 30176 40227 56007 83100 333 91112 91114
AAXX 15061 31981 41599 50302 11128 21171 39972 40220 55005 70281 85200
AAXX 15061 31987 42699 23605 11102 21200 39936 40207 55002 82400
AAXX 15061 32069 42598 63203 11137 21208 30106 40111 53002 82501 333 91004 91108
AAXX 15064 68183 11575 72206 10223 20197 39420 48515 53001 60044 72122 83570 333 20217 91009 555 10309 20040 91013
AAXX 15064 68188 36/// /0000 10225 20187 39184 48516 52011 333 20186 91002 555 10301 91015
AAXX 15064 68268 16/// /0000 10231 20195 38884 48528 52011 60054 333 20191 91002 555 10276 20056 91018
AAXX 15064 68272 NIL
AAXX 15064 68296 12570 70000 10259 20224 39785 48519 51002 60054 8757/ 333 20232 91005 555 10362 20054 91009
AAXX 15064 68322 32982 01907 10178 20026 39155 48521 52003 333 20118 91011 555 10308 91017
AAXX 15064 68338 36/// /1404 10186 20021 38774 48506 52003 333 20077 91010 555 10303 91017
AAXX 15064 68345 16/// /2005 10170 20051 38672 48513 53013 60014 333 20107 91008 555 10241 20012 91019
AAXX 15064 68362 11680 72804 10195 20141 38500 48502 52007 60434 70199 85204 333 20138 91010 555 10244 20432 91018
AAXX 15064 68400 16/// /0000 10253 20226 30006 40078 52013 69964 333 20224 91003 555 10333 20006 91008
AAXX 15064 68408 12980 00807 10166 20098 30175 40183 52006 69924 333 20097 91010 555 10204 20002 91018
AAXX 15064 68416 32984 01203 10128 20024 39052 48513 53001 333 20072 91005 555 10212 91018
AAXX 15064 68478 32589 33502 10237 20161 38847 48493 52011 83500 333 20161 91004 555 10276 91014
AAXX 15064 68488 11480 82106 10211 20179 39243 48500 52015 69924 70366 882// 333 20199 91012 555 10320 20002 91013
AAXX 15064 68494 NIL
AAXX 15064 68524 32986 02103 10134 20004 39075 48516 53002 333 20068 91006 555 10248 91018
AAXX 15064 68546 16/// /3002 10167 20071 38650 48495 53005 60034 333 20069 91006 555 10276 20034 91017
AAXX 15064 68558 16/// /2905 10151 21001 38178 48493 52005 69984 333 20048 91007 555 10222 20008 91018
AAXX 15064 68570 11270 40702 10196 20087 38495 48487 52002 60084 70199 84310 333 20114 91005 555 10224 20080 91016
AAXX 15064 68580 12550 81703 10171 20154 38933 48495 52010 69924 81160 333 20156 91005 555 10266 20002 91015
AAXX 15064 68614 32980 01103 10157 20096 30146 40188 52006 333 20075 91006 555 10213 91018
AAXX 15064 68624 32982 02404 10088 20000 38752 48516 55000 333 20025 91010 555 10191 91019
AAXX 15064 68674 16/// /2409 10204 20172 30107 48550 53011 60094 333 20204 91015 555 10278 20090 91013
AAXX 15064 68712 12470 40210 10144 20108 30108 40174 52003 60024 84500 333 20120 91014 555 10171 20020 91017
AAXX 15064 68718 12689 52908 10166 20056 39920 40168 52008 69964 85500 333 20091 91017 555 10203 20006 91017
AAXX 15064 68722 12980 00106 10078 20000 38553 48509 52008 69984 333 21014 91010 555 10118 20008 91019
AAXX 15064 68814 16/// /0110 1//// 2//// 30173 4//// 53003 60034 333 2//// 91013 555 1//// 20030 91018
AAXX 15064 68832 36/// /2407 10118 21013 39198 48505 52005 333 20062 91013 555 10239 91017
AAXX 15064 68916 12370 63615 10142 20110 39895 40166 52007 60074 86500 333 20112 91021 555 10148 20076 91016
AAXX 15064 68920 32470 42811 10185 20080 30137 40150 52005 84800 333 20144 91022 555 10189 91015
AAXX 15064 68928 16/// /3108 10191 20056 39992 40151 53005 60014 333 20128 91017 555 10201 20018 91015
AAXX 15064 68155 16/// /0702 10228 20201 39188 48520 53015 60074 333 20209 91005 555 10277 20076 91015
AAXX 15064 68171 NIL
AAXX 15064 68176 16/// /0206 10215 20175 39126 48512 52011 60034 333 20196 91011 555 10302 20034 91015
AAXX 15064 68181 NIL
AAXX 15064 68182 16/// /2603 10229 20189 39321 48515 53003 60024 333 20205 91006 555 10314 20020 91014
AAXX 15064 68185 16/// /3303 10195 20180 38473 48405 53001 60124 333 20178 91004 555 10255 20124 91007
AAXX 15064 68253 36/// /0602 10234 20185 39041 48517 53011 333 20199 91008 555 10272 91016
AAXX 15064 68255 36/// /2203 10217 20139 38856 48506 55000 333 20217 91008 555 10222 91016
AAXX 15064 68271 16/// /3305 10211 20171 38910 48515 53013 60034 333 20185 91007 555 10272 20036 91017
AAXX 15064 68273 16/// /0105 10206 20170 38453 48507 52007 60144 333 20172 91006 555 10248 20142 91019
AAXX 15064 68287 36/// /3607 10194 20157 38563 48499 52002 333 20160 91013 555 10260 91017
AAXX 15064 68291 16/// /3104 10251 20210 39511 48520 52003 60014 333 20214 91007 555 10352 20010 91012
AAXX 15064 68297 NIL
AAXX 15064 68329 36/// /1706 10197 20022 39098 48526 53005 333 20117 91009 555 10299 91017
AAXX 15064 68331 36/// /1508 10182 20004 38832 48514 53002 333 20102 91012 555 10291 91018
AAXX 15064 68335 36/// /1506 10170 20027 38938 48540 52008 333 20100 91011 555 10311 91021
AAXX 15064 68341 16/// /1505 10186 20037 38536 48521 52012 69984 333 20128 91009 555 10254 20008 91020
AAXX 15064 68342 NIL
AAXX 15064 68343 36/// ///// 10181 20037 38786 48508 53006 333 20098 555 10293 91017
AAXX 15064 68349 16/// /1908 10182 20052 38506 48500 52013 60294 333 20144 91013 555 10246 20296 91018
AAXX 15064 68353 16/// /2507 10185 20123 38515 48494 52017 60024 333 20148 91012 555 10238 20026 91017
AAXX 15064 68355 16/// /2404 10166 20133 38573 48506 52015 60064 333 20139 91007 555 10242 20062 91018
AAXX 15064 68370 NIL
AAXX 15064 68377 16/// /3312 10258 20178 38732 48477 52004 69944 333 20196 91019 555 10284 20004 91013
AAXX 15064 68380 36/// /3304 10180 20152 3//// 4//// 5//// 333 20167 91010 555 10261
AAXX 15064 68387 36/// /2603 10268 20174 38825 48494 54000 333 20215 91028 555 10302 91014
AAXX 15064 68411 36/// /1502 10173 20056 39982 40192 53001 333 20142 91005 555 10241 91019
AAXX 15064 68429 36/// /0000 10141 20017 38683 48500 52003 333 20073 91002 555 10269 91017
AAXX 15064 68449 16/// /2802 10177 20132 38381 48494 52011 60014 333 20127 91006 555 10220 20014 91018
AAXX 15064 68471 NIL
AAXX 15064 68474 12980 72809 10206 20121 38605 48497 52007 60064 80008 333 20139 91015 555 10246 20060 91017
AAXX 15064 68479 36/// /3008 10255 20154 38922 48495 52011 333 20193 91013 555 10284 91014
AAXX 15064 68481 36/// /1103 10247 20222 39728 40089 52007 333 20218 91004 555 10309 91010
AAXX 15064 68487 16/// /1303 10186 20171 38976 48497 52013 69924 333 20173 91004 555 10266 20002 91015
AAXX 15064 68491 36/// /2006 10259 20224 30077 40086 52012 333 20241 91010 555 10323 91008
AAXX 15064 68497 16/// /2311 10235 20210 30063 40107 52013 60354 333 20219 91020 555 10321 20352 91010
AAXX 15064 42634 32996 20503 10238 20105 40174 80001 333 58003 82070
AAXX 15064 42647 32996 40705 10252 20091 40173 82031 333 59001 82360 83075
AAXX 15064 42737 32996 23206 10260 20117 40173 80001 333 58009 82070
AAXX 15064 42840 31995 23603 10264 20140 40168 70500 80001 333 58005 82075
AAXX 15064 42909 32997 40504 10292 20101 40171 80001 222// 20000 333 58002 84070
AAXX 15064 42921 32996 42701 10254 20160 40188 80001 333 58000 84075
AAXX 15064 43003 31995 51410 10312 20132 40151 70400 80001 333 58007 85075
AAXX 15064 43014 32996 30703 10264 20116 39508 40147 80001 333 58002 83075
AAXX 15064 43063 32997 41101 10258 20103 39531 40152 80001 333 58003 84070
AAXX 15064 43110 31995 51403 10300 20133 40148 70541 80001 333 58014 85078
AAXX 15064 43117 32997 30902 10282 20087 40146 80001 333 58001
AAXX 15064 43192 31996 20904 10300 20182 40135 70500 80002 333 58004
AAXX 15064 48566 32560 80405 10275 20223 30087 40095 57019 82847 333 59004
BBXX 44059 15061 99368 70763 46/// /1902 1//// 90620 333 91203
BBXX 44059 15061 99368 70763 46/// /1902 1//// 40253 90610 333 91202
BBXX 44059 15061 99368 70763 46/// /2002 10094 40255 58016 90600 22200 00103 333 91203
BBXX 44057 15061 99395 70761 46/// /1802 1//// 90620 333 91202
BBXX 44057 15061 99395 70761 46/// /1602 1//// 40249 90610 333 91202
BBXX 44057 15061 99395 70761 46/// /1602 10064 40249 58017 90600 22200 00053 333 91202
BBXX 44058 15061 99376 70763 46/// /2004 1//// 90620 333 91204
BBXX 44058 15061 99376 70763 46/// /2004 1//// 40255 90610 333 91204
BBXX 44058 15061 99376 70763 46/// /2004 10090 40256 58016 90600 22200 00094 1//00 70001 333 91204
AAXX 15064 17140 12965 00402 11003 21020 38766 48545 52011 60002 333 21022 3/105 45998 55065 2////
BBXX DAJC 15063 99291 71335 41598 30508 10190 20142 40280 52010 70200 8244/ 22224 04190 20803 303// 41004 5//// 80160
BBXX 46181 15061 99538 71288 46/// /0408 11008 40183 52012 22200 00040 10201 70004 333 91211
AAXX 15061 45032 36/// /0004 10224 20063 30167 40184 57002
AAXX 15061 45035 36/// /0103 10215 20115 30141 40183 57001
AAXX 15061 45039 36/// /0603 10220 20094 30165 40180 57002
AAXX 15061 45044 36/// /3302 10236 20113 30086 40178 57001
AAXX 15064 67767 NIL
AAXX 15064 67843 11375 70704 10217 20217 38936 48493 60104 72162 8367/ 333 20194 58004 87458
AAXX 15064 67969 11975 72501 10215 20204 3//// 48/// 60784 72162 8323/ 333 20194 5//// 83820 86358
AAXX 15061 14428 11470 70801 10140 20121 30135 40142 58009 69992 72166 86870 222// 00148 333 20140 31013 70012 92301
AAXX 15061 14452 12597 61604 10140 20130 39947 40169 54/// 60002 82536 333 20137 92312
AAXX 15061 45032 36/// /0004 10224 20063 30167 40184 57002
AAXX 15061 45035 36/// /0103 10215 20115 30141 40183 57001
AAXX 15061 45039 36/// /0603 10220 20094 30165 40180 57002
AAXX 15061 45044 36/// /3302 10236 20113 30086 40178 57001
BBXX ZCBD3 15063 99394 70269 41297 81926 10182 20146 40241 55021 7//22 887// 22224 21705 332// 41006 5//// 80161
AAXX 15064 61017 32960 50404 10140 20000 39764 40181 80002 333 05100 20068 50464 55099 58007 85080
AAXX 15064 61024 32960 50606 10112 21056 39592 40171 80002 333 00500 20096 51461 55/// 58006 85080
AAXX 15064 61036 32965 70406 10176 21056 39900 40141 80008 333 01600 20170 50991 50894 55090 58004 87280
AAXX 15064 61043 32960 50608 10135 21080 39704 40151 80002 333 0//00 20134 51091 5///4 55105 58005 85080
AAXX 15064 61045 32965 50402 10110 21063 39661 40170 80002 333 00800 20110 5//// 50824 55100 58001 85080
AAXX 15064 61049 31956 70000 10092 21040 39834 40163 7062/ 80008 333 00600 20090 50771 50704 55106 58009 87280
AAXX 15064 61052 32960 30804 10168 21062 39887 40146 80002 333 01200 20150 50981 55100 58004 83080
AAXX 15064 61075 32960 50000 10157 20004 39832 40135 80002 333 01400 20155 50711 50594 55104 58002 85080
AAXX 15064 61080 32960 70806 10131 21073 39731 40159 80008 333 00700 20130 51031 51034 55104 58001 87280
AAXX 15064 61090 32960 73604 10132 20048 39642 40162 80008 333 01100 20130 50971 50904 55106 58006 87280
AAXX 15064 61091 32965 50000 10100 20022 39709 40174 80002 333 00600 20092 50521 50454 55104 58007 85080
AAXX 15064 61096 31920 70402 10114 21067 39775 40165 70622 80008 333 00900 20110 50961 50814 55102 58008 87280
AAXX 15064 61099 32960 70408 10188 21009 39892 40122 80008 333 01500 20182 50981 55094 58000 87280
AAXX 15064 68171 NIL
AAXX 15064 68181 NIL
AAXX 15064 68297 NIL
AAXX 15064 68342 NIL
AAXX 15064 68370 NIL
AAXX 15064 68471 NIL
BBXX TBWAA05 15063 99594 10228 41297 82218 10050 20003 49911 53003 70122 887// 22223 02060 2//// 3//// 4//// 5//// 80030 00/87 1/764 5989300/ 871/7 64598 93931/65 1/626 /807
BBXX 46181 15061 99538 71288 46/// /0408 11008 40183 52012 22200 00040 10201 70004 333 91211
BBXX 46184 15061 99539 71389 46/// /1807 10056 40128 57007 22200 00065 11204 70022 333 91209
AAXX 15064 91723 NIL
AAXX 15064 91759 11598 30907 10277 20232 40112 60001 83801 333 83820
AAXX 15064 91762 11598 20911 10288 20245 40111 53010 60001 70521 82100 333 82822
BBXX 46184 15061 99539 71389 46/// /1807 10056 40128 57007 22200 00065 11204 70022 333 91209
AAXX 15061 31913 43/// /3202 11113 21206 30094 40218 56009
AAXX 15061 32128 41599 60103 11091 21159 30047 40101 53016 72682 82333 333 91006 91108
AAXX 15061 24856 42997 82402 11350 21374 30102 40279 57013 82011
AAXX 15061 30679 NIL
AAXX 15061 30686 42999 02702 11160 21240 39907 40302 57004
AAXX 15061 30961 42999 03105 11172 21231 39531 40373 58012
AAXX 15061 30971 42999 03504 11172 21263 39288 40334 58009
AAXX 15061 30978 42999 03405 11169 21249 39609 40335 58006
AAXX 15061 31513 42999 03202 11200 21249 39984 40226 54000
AAXX 15061 31624 NIL
AAXX 15061 31832 42599 12501 11151 21211 30116 40207 57003 81500
AAXX 15064 43086 32997 00202 10262 20080 39981 40157 333 59006
AAXX 15064 43128 32997 00904 10262 20139 39552 40155 333 59001
AAXX 15064 43150 31596 20508 10296 20181 30086 40160 70500 82500 333 58001 82620
AAXX 15064 43185 31596 10504 10284 20192 30151 40154 70500 81500 333 58004 81620
AAXX 15064 43189 32997 20702 10290 20199 30151 40160 80001 333 58000
AAXX 15064 43198 32996 20908 10260 20159 39320 40137 80001 333 58006 82075
AAXX 15064 43201 32997 00904 10270 20172 39419 40130 333 59002
AAXX 15064 43213 32597 10901 10287 20175 39835 40150 81100 333 58001
AAXX 15064 43226 32997 00905 10310 20187 30108 40137 333 58003
AAXX 15064 43233 32997 20503 10260 20152 39335 40137 80001 333 58010
AAXX 15064 43237 32597 60906 10270 20186 39756 40148 84801 333 56209 59002 83620 85075
AAXX 15064 43245 32597 80505 10274 20217 30122 40149 85871 333 58000
AAXX 15064 43279 21496 80503 10272 20231 30125 40143 75052 8452/ 333 5611/ 59001 6990/ 84618 88458
AAXX 15064 43284 32996 00910 10314 20173 30003 40116 333 59001
AAXX 15064 43295 32497 50903 10230 20171 39123 48532 84601 333 56209 58002 83710 83615
AAXX 15064 43311 32597 30503 10322 20248 40119 82501 333 58005 82620 83075
AAXX 15064 43314 32597 22703 10330 20229 40122 81401 333 59001
AAXX 15064 43321 31496 30508 10282 20193 39690 40131 70521 83400 333 59001
AAXX 15064 43329 31596 82903 10262 20233 30122 40136 72152 8357/ 333 58002
AAXX 15064 43344 31496 50210 10282 20216 30037 40136 70521 83401 333 59007 82615 83820
AAXX 15064 43346 32497 70505 10276 20238 30113 40120 84532 333 59012 84615 86075
AAXX 15064 43353 31496 40904 10314 20220 40117 70500 82831 333 56699 59005 82614 84072
AAXX 15064 43369 32597 20904 10304 20262 40119 82500 333 59002 82620
AAXX 15064 43371 32597 60000 10310 20266 30038 40110 83471 333 59006 83620 83360
BBXX 44039 15061 99411 70727 46/// /1605 10082 20041 40276 90553 22200 00096 10201 70003 333 91206
AAXX 15061 34009 11394 81304 10013 20010 39919 40229 54000 69912 71084 886// 333 20006 42001
AAXX 15064 61600 32960 00606 10195 20032 30137 40142 333 20186 50874 55036 58004
AAXX 15064 61612 31950 40604 10204 20000 30139 40147 83082 333 01800 20198 50781 55008 58000 83363
AAXX 15064 61627 32957 60406 10170 21006 3//// 4//// 84082 333 01000 20160 50864 55064 5//// 84363 83073
AAXX 15064 61630 32960 33606 10202 20043 30115 40134 80002 333 01600 20194 50692 55056 59010 83073
AAXX 15064 61641 32958 60415 10235 20113 30101 40134 85032 333 02100 20234 51084 55050 58006 85363 83073
AAXX 15064 61666 32956 40404 10185 20078 30120 40128 82032 333 01400 20130 50544 55068 58000 82363 83073
AAXX 15064 61679 32958 23606 10195 20082 30124 40132 80002 333 02100 20193 50834 55067 58001 82073
AAXX 15064 61687 32960 63604 10180 20029 30070 40127 80006 333 01200 20160 50511 55098 58004 86273
AAXX 15064 61695 32956 70216 10205 20039 30097 40123 80002 333 01500 80195
AAXX 15064 61697 32960 30408 10200 20091 30108 40123 80001 333 01600 20198 50053 55086 58006 83073
AAXX 15064 61698 32958 50000 10116 20094 30118 40129 80002 333 00900 20115 50354 55075 58010 85073
AAXX 15064 61699 32958 60406 10176 20059 39910 40099 80002 333 01300 20166 50664 55098 59003 86073
BBXX 46004 15061 99509 71361 46/// /1904 10062 40180 52005 22200 00079 11204 70019 333 91206
BBXX MGGK4 15063 99180 30048 41498 71714 10188 20145 40166 55000 70322 8223/ 22274 00194 20301 318// 40703 5//// 80163
BBXX 46145 15061 99544 71324 46/// /0201 10042 40180 52014 22200 00066 11002 70012 333 91202
BBXX 46181 15061 99538 71288 46/// /0408 11008 40183 52012 22200 00040 10201 70004 333 91211
BBXX 46183 15061 99536 71311 46/// /0802 10038 40172 52014 22200 00076 10301 70004 333 91203
BBXX 46185 15061 99524 71298 46/// /3508 10032 40157 52018 22200 00072 10503 70017 333 91210
BBXX 46204 15061 99514 71288 46/// /0911 10058 40153 52016 22200 00081 10605 70025 333 91213
BBXX 46205 15061 99542 71343 46/// /1504 10055 40176 52009 22200 00078 11203 70016 333 91204
BBXX 46206 15061 99488 71260 46/// /1110 10070 40163 52010 22200 00089 10605 70023 333 91213
BBXX 46207 15061 99509 71299 46/// /3507 10062 40156 5//// 22200 00084 10805 70026 333 91213
BBXX SHIP 15064 99382 71427 41898 22110 10165 20157 40275 52021 70110 81231 22233 00175 2//// 3//// 4//// 80160
BBXX WABS 15064 99342 71218 41998 03010 10117 20090 40268 52008 70200 80000 22233 0//// 2//// 3//// 4//// 5//// 6//// 80100 ICE /////
BBXX WGEB 15063 99329 71207 43598 62602 10167 20140 40260 51020 7//// 868// 22265 00144 21001 330// 4//// 5//// 6//// 80150 ICE /////
BBXX UBQE6 15061 99039 70045 41997 12701 10250 2//// 40090 54000 7020/ 80000 22264 00023 29999 39999 49999 59999
AAXX 15064 61017 32960 50404 10140 20000 39764 40181 80002 333 05100 20068 50464 55099 58007 85080
AAXX 15064 61024 32960 50606 10112 21056 39592 40171 80002 333 00500 20096 51461 55/// 58006 85080
AAXX 15064 61036 32965 70406 10176 21056 39900 40141 80008 333 01600 20170 50991 50894 55090 58004 87280
AAXX 15064 61043 32960 50608 10135 21080 39704 40151 80002 333 0//00 20134 51091 5///4 55105 58005 85080
AAXX 15064 61045 32965 50402 10110 21063 39661 40170 80002 333 00800 20110 5//// 50824 55100 58001 85080
AAXX 15064 61049 31956 70000 10092 21040 39834 40163 7062/ 80008 333 00600 20090 50771 50704 55106 58009 87280
AAXX 15064 61052 32960 30804 10168 21062 39887 40146 80002 333 01200 20150 50981 55100 58004 83080
AAXX 15064 61075 32960 50000 10157 20004 39832 40135 80002 333 01400 20155 50711 50594 55104 58002 85080
AAXX 15064 61080 32960 70806 10131 21073 39731 40159 80008 333 00700 20130 51031 51034 55104 58001 87280
AAXX 15064 61090 32960 73604 10132 20048 39642 40162 80008 333 01100 20130 50971 50904 55106 58006 87280
AAXX 15064 61091 32965 50000 10100 20022 39709 40174 80002 333 00600 20092 50521 50454 55104 58007 85080
AAXX 15064 61096 31920 70402 10114 21067 39775 40165 70622 80008 333 00900 20110 50961 50814 55102 58008 87280
AAXX 15064 61099 32960 70408 10188 21009 39892 40122 80008 333 01500 20182 50981 55094 58000 87280
BBXX A8IE6 15064 99248 11196 41/96 80332 10180 20102 40185 56015 71000 8//// 22214 04190 20812 304// 40812 80135
AAXX 15064 60210 32970 01602 10043 21024 39091 48588 53011 333 20040
AAXX 15064 60764 13960 71404 10059 20039 30211 40265 53002 60004 84082 333 20050 84360 84070
BBXX PCPR 15063 99367 10009 41497 82715 10170 20146 40260 51010 76262 8577/ 22263 04160 20404 80155
AAXX 15061 56671 32780 41804 10141 20000 38214 57031 84100 333 00101 20030
AAXX 15061 57378 32960 03403 10070 21009 40328 57030 333 20031
AAXX 15061 57426 11550 80000 10094 20063 40292 57024 69911 76060 885// 333 00101 20065
AAXX 15061 57476 32960 70204 10077 21003 40318 57027 8703/ 333 20052
AAXX 15061 57584 31930 70404 10076 20025 40309 57024 71000 8704/ 333 20066
AAXX 15061 57598 31957 70403 10124 20005 40295 57021 70500 8703/ 333 20063
AAXX 15061 57655 32960 80402 10094 20013 40300 57025 8807/ 333 20069
AAXX 15061 57713 NIL
AAXX 15061 57776 31/00 90403 11005 21009 40309 57019 74540 333 21020
AAXX 15061 58321 32962 00404 10076 21069 40335 57023 333 20030
AAXX 15061 58437 32970 50207 11043 21097 38192 57016 85040 333 21058
AAXX 15061 58445 NIL
AAXX 15061 58556 11456 83603 10061 20039 40296 57014 69981 76060 885// 333 20061
AAXX 15061 58569 32460 83607 10080 20037 40273 57012 8317/ 333 20080
AAXX 15061 58646 31658 80204 10100 20003 40280 57020 70500 885// 333 20090
AAXX 15061 58653 NIL
AAXX 15061 58660 NIL
AAXX 15061 58715 32962 73405 10104 20032 40273 57021 8704/ 333 20059
AAXX 15061 58730 32765 73201 10139 20025 40250 57026 875// 333 20067
AAXX 15061 58731 32963 83604 10106 20017 40262 57019 8807/ 333 20071
AAXX 15061 58754 32964 73403 10163 20000 40240 57024 8703/ 333 20125
AAXX 15061 58911 32762 82702 10131 20037 40245 57025 885// 333 20071
AAXX 15061 58931 31/00 90902 10077 20076 38383 57020 74744 333 20059
AAXX 15061 59254 32860 70702 10196 20041 40214 57034 87500 333 20128
AAXX 15061 59632 32762 73403 10183 20055 40210 57030 875// 333 20149
AAXX 15061 59855 32573 80203 10221 20162 40171 57025 888// 333 20187
AAXX 15064 62420 32960 00000 10102 20078 40239 52015 333 20075
AAXX 15064 62432 32560 12903 10120 20087 40237 52018 81200 333 20090
AAXX 15064 62435 32960 03606 10146 20108 40206 52020 333 20120
AAXX 15064 62458 32960 03404 10164 20080 40179 51013 333 20140
AAXX 15064 62455 32960 03205 10136 20114 40205 52014 333 20125
AAXX 15064 62476 32960 03105 10200 20146 40154 53017 333 20160
AAXX 15064 62309 32560 43604 10178 20124 40227 52019 84800 333 20122
AAXX 15064 62332 32560 43614 10178 20119 40215 52016 84100 333 20171
AAXX 15064 62387 31920 03504 10108 20105 40225 52015 71000 333 20090
AAXX 15064 62459 32960 00210 10140 20068 40173 52010 333 20116
AAXX 15064 62325 NIL
AAXX 15064 62452 32560 71905 10088 20060 40229 52017 878// 333 20058
BBXX 46004 15061 99509 71361 46/// /1904 10062 40180 52005 22200 00079 11204 70019 333 91206
AAXX 15064 62309 32560 43604 10178 20124 40227 52019 84800 333 20122
AAXX 15064 62332 32560 43614 10178 20119 40215 52016 84100 333 20171
AAXX 15064 62387 31920 03504 10108 20105 40225 52015 71000 333 20090
AAXX 15064 62459 32960 00210 10140 20068 40173 52010 333 20116
AAXX 15064 62325 NIL
AAXX 15064 62452 32560 71905 10088 20060 40229 52017 878// 333 20058
AAXX 15064 71283 16/// /3502 11155 21168 60001 333 11050 21185 70000
AAXX 15064 71153 16/// /1703 11058 21088 60001 333 10019 21126 70000 555 32727 40071
AAXX 15064 71158 16/// /3306 11053 21060 39789 40066 53008 60001 333 11047 21062 70000
AAXX 15064 71221 17/// /3602 11129 21139 69971 7//4/ 333 11048 21193 70013
AAXX 15064 71226 16/// /0000 11168 21185 60001 333 11032 21190 7////
AAXX 15064 71229 46/// /0000 11159 21175 6///1 333 11065 21196 7////
AAXX 15064 71359 16/// /0403 11082 21106 60001 333 11025 21082 7////
AAXX 15064 71379 16/// /1309 11017 21036 39990 40163 58038 60001 333 11017 21104 70000
AAXX 15064 71461 16/// /1102 11148 21161 60001 333 11044 21187 70004 555 32718 40111
AAXX 15064 71468 16/// /1305 10020 20014 39702 40021 58031 60001 333 21010 70000 555 32518 40091
AAXX 15064 71483 16/// ///// 11142 21158 60001 333 11015 21146 70000
AAXX 15064 71888 16/// ///// 11148 21163 60001 333 11029 21148 70000
AAXX 15064 71895 16/// ///// 11166 21177 60001 333 11005 21168 70000
AAXX 15064 71405 16/// ///// 11168 21182 60001 333 11013 21170 70000
AAXX 15064 71417 16/// /2717 11046 21069 30166 40201 56007 60001 333 11046 21106 70000 555 32834 40063
AAXX 15064 71426 46/// /1609 11002 6///1 333 10001 21018 7////
AAXX 15064 71010 16/// /2304 11123 21137 60001 333 11034 21127 70000 555 33024 40211
AAXX 15064 71011 16/// ///// 11118 21139 60001 333 11018 21137 7////
AAXX 15064 71049 16/// /2827 11232 39857 49881 58023 60001 333 11166 21272 70000 555 32837 40063
AAXX 15064 71673 16/// ///// 11163 21178 60001 333 11024 21177 70000
AAXX 15064 71690 16/// ///// 11167 21182 60001 333 11029 21225 70000
AAXX 15064 71500 16/// /1703 11108 21123 60001 333 11023 21122 70000 555 33224 40081
AAXX 15064 71504 16/// ///// 11134 21158 60001 333 11005 21144 70000
AAXX 15064 71526 16/// /1706 11049 21095 60001 333 11001 21065 70000 555 33523 40141
AAXX 15064 71541 16/// /0000 11135 21151 60001 333 11057 21164 70000
AAXX 15064 71543 16/// /3502 11171 21184 60001 333 11072 21238 70004
AAXX 15064 71546 16/// /1803 11142 21158 60001 333 11033 21193 70000
AAXX 15064 71547 16/// /0000 11127 21144 60001 333 11040 21176 70000
AAXX 15064 71549 17/// ///// 11114 21127 69941 7//4/ 333 11020 21125 70004
AAXX 15064 71067 16/// ///// 11141 21158 60001 333 11018 21162 70000
AAXX 15064 71788 16/// /0904 11055 21069 60001 333 11014 21139 70000 555 33122 40111
AAXX 15064 71792 16/// ///// 11139 21149 60001 333 11037 21146 70005
BBXX 44060 15061 99413 70721 46/// ///06 10072 40269 90630 22200 00111 333 91208 555 11067 22067
BBXX OVYB2 15061 99014 30664 41698 42707 10289 20240 40134 50002 70211 8334/ 22244 00290 20401 30000 4//// 5//// 80255
BBXX ONDY 15064 99017 30084 41598 81815 10250 2022/ 40120 54000 70222 88970 22244 00270 2//// 3//// 4//// 5//// 6//// 80230
BBXX BATFR19 15064 99058 30097 46/// /1913 10247 20202 40125 53006 22200 00260
BBXX BATFR56 15064 99136 30672 44998 21207 10272 20229 40124 51007 70000 82043 22252 00287 20802 314// 40802 5////
BBXX A8KH9 15064 99180 30114 41898 21429 10165 20132 40100 54000 7//// 81181 22243 20510 31613 40708 50405 80145
BBXX BATFR55 15064 99188 30562 44598 41311 10267 20234 40126 70311 83141 22232 00274 205// 33131 40802 50802
BBXX A8JK4 15064 99228 30534 41398 51015 10275 20211 40145 51005 70222 854// 22214 20402 3//// 4//// 5//// 80230 46379 1473151226
BBXX A8ZS7 15064 99246 30483 41698 10416 10280 20224 40140 58010 70200 811// 22254 04250 29901 399// 41002 80240
BBXX DDDI2 15064 99276 30425 41998 30818 10260 20232 40130 54000 70211 82079 22254 04275 20303 317// 40604 5//// 80240
BBXX ONAR 15063 99313 30736 41597 52119 10240 2015/ 40190 54000 78062 83697 22263 00210 21207 323// 4//// 5//// 6//// 80180 ICE /////
BBXX ONCE 15064 99350 30237 41398 73030 10190 2010/ 40140 54000 70222 8724/ 22224 00190 20206 327// 41408 5//// 6//// 80140 ICE /////
BBXX PCDE 15063 99400 31039 41298 73502 10170 20119 40220 53020 7//// 8779/ 22223 20401 80140
BBXX BATFR08 15064 99496 30701 46/// /2616 10082 20042 40106 22233 00067
BBXX UCKZ 15061 99575 30280 41194 80213 10021 20017 49974 57015 71022 886// 22233 00011 20504
AAXX 15064 71153 16/// /1703 11058 21088 60001 333 10019 21126 70000 555 32727 40071
AAXX 15064 71158 16/// /3306 11053 21060 39789 40066 53008 60001 333 11047 21062 70000
BBXX MGGK4 15063 99180 30048 41498 71714 10188 20145 40166 55000 70322 8223/ 22274 00194 20301 318// 40703 5//// 80163
BBXX UBQE6 15061 99039 70045 41997 12701 10250 2//// 40090 54000 7020/ 80000 22264 00023 29999 39999 49999 59999
BBXX V7SY6 15064 99125 10464 41796 31022 10260 20232 40280 51010 7//00 83012 22233 0//// 20602 31010 40703 50502 6//// 80240
BBXX PCPR 15063 99367 10009 41497 82715 10170 20146 40260 51010 76262 8577/ 22263 04160 20404 80155
AAXX 15064 71500 16/// /1703 11108 21123 60001 333 11023 21122 70000 555 33224 40081
AAXX 15064 71504 16/// ///// 11134 21158 60001 333 11005 21144 70000
AAXX 15064 71526 16/// /1706 11049 21095 60001 333 11001 21065 70000 555 33523 40141
AAXX 15064 71541 16/// /0000 11135 21151 60001 333 11057 21164 70000
AAXX 15064 71543 16/// /3502 11171 21184 60001 333 11072 21238 70004
AAXX 15064 71546 16/// /1803 11142 21158 60001 333 11033 21193 70000
AAXX 15064 71547 16/// /0000 11127 21144 60001 333 11040 21176 70000
AAXX 15064 71549 17/// ///// 11114 21127 69941 7//4/ 333 11020 21125 70004
BBXX DAJC 15063 99291 71335 41598 30508 10190 20142 40280 52010 70200 8244/ 22224 04190 20803 303// 41004 5//// 80160
BBXX V7SY6 15064 99125 10464 41796 31022 10260 20232 40280 51010 7//00 83012 22233 0//// 20602 31010 40703 50502 6//// 80240
AAXX 15064 71283 16/// /3502 11155 21168 60001 333 11050 21185 70000
AAXX 15064 71010 16/// /2304 11123 21137 60001 333 11034 21127 70000 555 33024 40211
AAXX 15064 71011 16/// ///// 11118 21139 60001 333 11018 21137 7////
AAXX 15064 71049 16/// /2827 11232 39857 49881 58023 60001 333 11166 21272 70000 555 32837 40063
AAXX 15064 71359 16/// /0403 11082 21106 60001 333 11025 21082 7////
AAXX 15064 71379 16/// /1309 11017 21036 39990 40163 58038 60001 333 11017 21104 70000
AAXX 15064 71673 16/// ///// 11163 21178 60001 333 11024 21177 70000
AAXX 15064 71690 16/// ///// 11167 21182 60001 333 11029 21225 70000
AAXX 15064 71461 16/// /1102 11148 21161 60001 333 11044 21187 70004 555 32718 40111
AAXX 15064 71468 16/// /1305 10020 20014 39702 40021 58031 60001 333 21010 70000 555 32518 40091
AAXX 15064 71483 16/// ///// 11142 21158 60001 333 11015 21146 70000
AAXX 15064 71405 16/// ///// 11168 21182 60001 333 11013 21170 70000
AAXX 15064 71417 16/// /2717 11046 21069 30166 40201 56007 60001 333 11046 21106 70000 555 32834 40063
AAXX 15064 71426 46/// /1609 11002 6///1 333 10001 21018 7////
AAXX 15064 71067 16/// ///// 11141 21158 60001 333 11018 21162 70000
BBXX A8UT3 15064 99061 10994 41897 60507 10320 20267 40090 58020 7//00 86077 22233 20301 33300 40301 5//// 80280
AAXX 15064 71888 16/// ///// 11148 21163 60001 333 11029 21148 70000
AAXX 15064 71895 16/// ///// 11166 21177 60001 333 11005 21168 70000
AAXX 15064 71221 17/// /3602 11129 21139 69971 7//4/ 333 11048 21193 70013
AAXX 15064 71226 16/// /0000 11168 21185 60001 333 11032 21190 7////
AAXX 15064 71229 46/// /0000 11159 21175 6///1 333 11065 21196 7////
AAXX 1506/ 89767 46/// ///// 11079 39762 4//// 5////
BBXX 46146 15061 99493 71237 46/// /1006 10050 40196 52010 22200 00064 10301 70004 333 91207
AAXX 15061 56144 32980 01803 10043 21201 36846 57039 333 00151 21087
AAXX 15061 56152 32980 20702 11015 21181 36297 57024 80002 333 00152 21182
AAXX 15061 56167 32980 02001 10071 21132 37066 57047 333 00200 21092
AAXX 15061 56182 32980 42001 10032 21140 37202 57038 80002 333 00100 21106
AAXX 15061 56357 11680 13602 10013 21128 36435 57027 69901 70080 81100 333 00152 21108
AAXX 15061 56586 11460 80901 10007 21041 38092 57026 69901 76870 885// 333 00151 21005
AAXX 15061 56748 32580 21603 10160 20021 38360 57029 82400 333 00001 20033
AAXX 15061 56763 32680 21804 10214 20022 40142 57040 82100 333 00101 20060
AAXX 15061 56768 32680 52205 10140 20040 38193 57028 85200 333 00101 20056
AAXX 15061 56838 31666 12702 10169 20101 40172 57035 70040 81100 333 05152 20070
AAXX 15061 56886 11556 83201 10055 20046 38330 57022 69921 76066 885// 333 00254 20052
AAXX 15061 56946 31580 23401 10198 20085 40165 57036 70040 82400 333 00051 20057
AAXX 15061 56959 32768 31101 10233 20161 40152 57033 83100 333 00100 20144
AAXX 15061 56969 32580 11601 10241 20136 40156 57034 81100 333 00100 20138
AAXX 15061 57731 11463 83401 10077 20045 40295 57023 69901 76060 885// 333 00351 20071
AAXX 15061 57766 32760 80202 10088 20026 40293 57027 885// 333 20064
AAXX 15061 57845 32762 83602 10079 20015 40283 57022 885// 333 20065
AAXX 15061 57853 11450 80000 10071 20014 40300 57025 69911 70560 8572/ 333 20054
AAXX 15061 57916 32673 71401 10123 20059 40263 57027 878// 333 00351 20097
AAXX 15061 57922 32666 83403 10049 20014 40285 57022 885// 333 00252 20036
AAXX 15061 57932 32571 80000 10093 20033 40287 57023 885// 333 00453 20080
AAXX 15061 58338 32662 63603 10077 21005 40318 57020 86500 333 20044
AAXX 15061 59007 32667 80201 10069 20035 40251 57024 885// 333 20060
AAXX 15061 59046 32968 03604 10160 20047 40239 57033 333 20109
AAXX 15061 59058 32966 03204 10172 20016 40223 57038 333 20094
AAXX 15061 59072 32961 00407 10141 20024 40241 57033 333 20077
AAXX 15061 59087 32768 70903 10165 21002 40219 57031 875// 333 20129
AAXX 15061 59209 32464 80202 10106 20066 40242 57025 888// 333 20088
BBXX 46146 15061 99493 71237 46/// /1006 10050 40196 52010 22200 00064 10301 70004 333 91207
BBXX 42013 15061 99272 70829 46/// ///// 1//// 40235 90540 22200 00200
BBXX 41010 15061 99289 70785 46/// /0909 10210 40243 90620 22200 00239 11105 20603 300// 41103 70024 333 91211 555 11090 22094
BBXX 41009 15061 99285 70802 46/// /0907 10221 20145 40246 90620 22200 00245 10705 20603 300// 40704 70024 333 91209 555 11075 22078
BBXX 42364 15061 99291 70881 46/// /1510 10217 20161 40231 90630
BBXX 42361 15061 99276 70925 46/// ///09 10228 20200 40190 58003 90630 555 11071 22076
BBXX 44100 15061 99363 70756 46/// ///// 1//// 90622 22200 00132 11002 21002 307// 41101 70012
BBXX 41110 15061 99341 70777 46/// ///// 1//// 90621 22200 00141 11002 21002 311// 41101 70010
BBXX 41113 15061 99284 70805 46/// ///// 1//// 90621 22200 00222 11203 20902 309// 41201 70013
AAXX 15063 67975 11575 70000 10226 20186 38922 48514 60014 70252 8557/ 333 20185 85627 87460
AAXX 15064 67975 11575 70000 10226 20186 38922 48514 60014 70252 8557/ 333 20185 58003 85627 87460
AAXX 15061 01212 16/// /2108 10060 20030 39721 49736 53013 60074 333 20047 70065 91117
BBXX 44258 15061 99445 70634 46/// /0201 10010 40276 57013 22200 00074 10803 70015 333 91202
BBXX 44258 15061 99445 70634 46/// /0201 10010 40276 57013 22200 00074 10803 70015 333 91202
AAXX 15064 88963 32960 22715 10050 21051 39970 49999 52012 80002 333 56007 82070 92417 95000
AAXX 15064 62423 32960 03603 10100 20095 40248 52016 333 20080
AAXX 15064 62357 32960 03404 10125 20094 40223 52011 333 20106
AAXX 15064 62403 31958 02802 10100 20081 40193 52008 70710 333 20086
BBXX 44140 15061 99429 70515 46/// /0213 10104 40166 52036 22200 00094 11211 70054 333 91216
AAXX 15064 62423 32960 03603 10100 20095 40248 52016 333 20080
AAXX 15064 62357 32960 03404 10125 20094 40223 52011 333 20106
AAXX 15064 62403 31958 02802 10100 20081 40193 52008 70710 333 20086
AAXX 15064 97014 32560 62606 10303 20240 39968 40061 57025 84871 333 56600 57862 83820 80860
AAXX 15064 97028 01462 72903 10283 20248 30056 40062 56019 69901 72162 84221 333 56000 57802 69907 84818 87459 80859
AAXX 15064 97048 11460 60106 10306 20240 30023 40047 57034 60011 71622 84972 333 56000 57901 57801 81917 83817 80980 80860
AAXX 15064 97072 01457 80000 10251 20228 30988 40088 57015 60051 76166 8352/ 333 56009 60057 83619 86459
AAXX 15064 97086 01560 71805 10300 20258 30036 40060 56025 76022 83271 333 56000 57802 69907 82820 85460 80860
AAXX 15064 97096 31459 83508 10286 20248 30059 40081 57019 71422 8322/ 333 56009 57802 83816 88460 80860
AAXX 15064 97120 32462 42710 10318 20244 30024 40057 57020 82931 333 56600 57901 57862 81917 81818 80980 80860
AAXX 15064 97146 32460 50000 10326 20243 39984 40045 57032 83221 333 56000 57801 83815 80860
AAXX 15064 97180 01456 73201 10270 20245 30052 40070 56018 60011 76066 83271 333 56000 83819 85460
AAXX 15064 97192 32466 22406 10326 20238 30016 40073 57021 81501 333 56000 81616
AAXX 15064 97230 32460 81005 10298 20244 30053 40060 57011 84936 333 56000 57901 57801 82915 82816 86280 80980 80859
AAXX 15064 97260 32560 73110 10292 20251 30053 40060 57014 69901 70596 85931 333 56000 57902 81920 80980 84620
AAXX 15064 97270 01456 81204 10272 20248 30051 40056 56019 60011 71496 8692/ 333 56009 57900 60017 81915 83815 87460 809//
AAXX 15064 97300 31560 80000 10300 20248 30021 40061 57029 71522 84271 333 56400 57841 84820 80858
AAXX 15064 97340 32560 63202 10290 20259 30038 40054 57022 86932 333 56000 57960 82920 86620
AAXX 15064 97372 32465 63006 10300 20264 39931 40051 57025 83231 333 56000 83818 83359
AAXX 15064 97430 31458 63504 10294 20242 30026 40056 57024 71522 84932 333 56700 57971 57872 81915 83818 80980 80860
AAXX 15064 97460 32460 72604 10302 20233 30019 40033 57028 83376 333 56600 57962 81917 82818 80959 80858
AAXX 15064 97502 32459 52304 10305 20264 30034 40037 57033 83231 333 56000 57803 83814 80850
AAXX 15064 97530 31458 73510 10300 20252 30025 40030 57020 71522 85842 333 56000 57802 83815 84460 80833
AAXX 15064 97560 NIL
AAXX 15064 97580 32462 33304 10314 20267 30030 40037 56017 82202 333 56000 57802 82814 80858
AAXX 15064 97600 32460 73404 10324 20241 30047 40053 57015 83271 333 56600 57862 83819 85460 80859
AAXX 15064 97686 31460 70710 10262 20153 38300 40032 57015 71722 85946 333 56000 57902 81916 84814 86361 80859
AAXX 15064 97690 NIL
AAXX 15064 97724 32462 73404 10316 20222 30031 40048 57022 82236 333 56700 57873 82817 80842
AAXX 15064 97748 31460 62511 10314 20251 30054 40056 55001 70522 82232 333 56600 57862 82816 85074 80856
AAXX 15064 97760 01430 82004 10259 20250 30050 40061 57012 60041 79596 85920 333 56000 57901 60047 82915 83816 80968
AAXX 15064 97796 32460 51806 10332 20253 30004 57026 84331 333 56000 57902 82913 84813 80890
AAXX 15064 97810 01457 73007 10252 20242 30047 40057 57004 60211 76166 84872 333 56700 57871 60197 82818 84458 80858
AAXX 15064 97876 32460 43104 10330 20244 30069 40099 57001 83131 333 56000 57801 83810 80858
AAXX 15064 97900 32570 52505 10348 20256 30014 40042 58017 85200 333 56600 57861 85820 80850
AAXX 15064 97980 31458 62408 10318 20250 30019 40036 57016 71522 84842 333 56000 82816 83620
AAXX 15064 96009 01456 80205 10282 20240 30059 40094 57013 69911 72162 8497/ 333 56109 57913 69917 81915 83616 85460 80965
AAXX 15064 96011 32459 80604 10284 20234 30068 40095 57016 84932 333 56000 57903 81919 83620 80959
AAXX 15064 96035 31457 70305 10296 20241 30060 40098 57017 70522 85276 333 56000 57802 85817 80850
AAXX 15064 96073 11460 70000 10296 20236 30073 40084 57029 60021 70262 83922 333 56000 57901 83913 80960
AAXX 15064 96091 32458 73008 10294 20246 30065 40088 57017 85828 333 56000 57901 57801 81920 82613 83817 86280 80980 80860
AAXX 15064 96109 32460 73205 10305 20235 30033 40072 57026 83872 333 56700 57872 82815 80825
AAXX 15064 96145 32456 52503 10294 20233 30077 40080 58011 82202 333 56800 57883 82817 84070 80857
AAXX 15064 96147 31457 61010 10296 20250 30082 40089 56014 71792 84331 333 56200 57901 81917 83615 80980
AAXX 15064 96163 01458 72705 10285 20249 30096 40098 57019 60261 82231 333 56000 69927 57802 82817 84362 80850
AAXX 15064 96179 32460 70000 10290 20230 30058 40094 57007 83208 333 56000 57802 83817 80850
AAXX 15064 96195 32463 73206 10298 20235 30048 40084 57025 85231 333 56000 57803 85813 80840
AAXX 15064 96221 32460 52505 10301 20247 30063 40078 57023 82131 333 56999 82815 84080
AAXX 15064 96237 02458 80000 10269 20241 30033 40075 57026 60011 84132 333 56000 69947 84816 85360 86080
AAXX 15064 96249 32562 72610 10296 20235 30015 40076 57015 84232 333 56600 57861 84820 80863
AAXX 15064 96253 21458 72910 10279 20249 30052 40073 57023 60101 76262 86972 333 56000 57900 57800 60027 81915 84820 85460
AAXX 15064 96295 32460 60505 10296 20229 39971 40074 56026 84221 333 56000 57800 84815 83462 80800
AAXX 15064 96509 32459 71103 10304 20250 30051 40062 57031 83221 333 56000 83815
AAXX 15064 96581 32460 72910 10316 20236 30067 40094 57018 86131 333 56600 86811 80858
AAXX 15064 96633 32460 80705 10291 20262 30050 40058 57011 85821 333 56000 83618 85461
AAXX 15064 96645 32458 73308 10314 20249 30030 40062 57021 85232 333 56000 57801 85813 80858
AAXX 15064 96655 31458 73207 10314 20239 30051 40086 57019 71522 85271 333 56000 57802 82812 83612 80862
AAXX 15064 96685 32460 52804 10316 20237 30042 40068 57021 84511 333 56000 84615
AAXX 15064 96749 32460 73308 10305 20240 30056 40069 58019 84921 333 56000 57942 81919 83621 84462 80980
AAXX 15064 96781 31450 63016 10278 20205 39243 48732 56023 71792 84931 333 56000 57902 81917 80982 83818 80858
AAXX 15064 96805 32560 62407 10305 20248 30066 40075 56021 84371 333 56000 57903 57801 81920 83820 80975 80860
AAXX 15064 96839 32557 73408 10302 20232 30057 40064 57022 84234 333 56000 57802 83820 80860
AAXX 15064 96935 01560 73109 10312 20239 30048 40054 57023 69901 71762 84902 333 56000 57901 69907 81920 83825 80980
BBXX 44140 15061 99429 70515 46/// /0213 10104 40166 52036 22200 00094 11211 70054 333 91216
AAXX 15064 97008 01458 70000 10292 20255 30046 40046 57014 69921 76062 86232 333 56000 57801 69927 86818 80860
AAXX 15064 97016 32560 63308 10324 20225 30044 40047 57030 57030 84231 333 56000 57801 84820 80860
AAXX 15064 97126 32460 51802 10318 20244 39994 40054 57031 82211 333 56000 57803 82817 85460 80857
AAXX 15064 97142 32560 52503 10324 20251 30024 40039 58026 82231 333 56000 57801 82820 83080 80860
AAXX 15064 97182 01468 70104 10278 20243 30059 40063 57019 60041 76022 84971 333 56000 57901 57801 60047 81919 83820 84460 80980 80875
AAXX 15064 97240 31458 71705 10286 20240 39951 40065 57013 70522 84131 333 56000 84816
AAXX 15064 97284 01456 70000 10208 20198 38845 40083 56009 60021 71796 86971 333 56000 57901 60027 81910 85812 80959 80837
AAXX 15064 97310 32566 61808 10304 20236 30038 40050 57026 83221 333 56000 57802 82820 83460 80840
AAXX 15064 97320 32565 42114 10322 20248 30032 40045 57023 82206 333 56000 57802 82820 80840
AAXX 15064 97378 NIL
AAXX 15064 97380 32464 62606 10310 20242 30032 40053 57021 84131 333 56000 84818
AAXX 15064 97406 32460 52710 10316 20241 30021 40047 57021 83231 333 56600 57861 83819 80860
AAXX 15064 97570 31460 62509 10300 20248 30036 40043 57021 70541 81202 333 56600 81813 86080
AAXX 15064 97630 NIL
AAXX 15064 97682 32465 43506 10335 20271 30013 40020 57030 83231 333 56000 57802 83816 80858
AAXX 15064 97698 32462 61004 10326 20243 30037 40040 57019 83901 333 56100 57902 57802 81914 82815 84080 80978 80863
AAXX 15064 97700 32462 63606 10306 20252 30037 40052 57016 82232 333 56000 57803 82818 84074 80856
AAXX 15064 97722 32462 71905 10306 20243 30037 40052 57021 85972 333 56600 57961 81918 83074 80972
AAXX 15064 97780 NIL
AAXX 15064 97790 11562 62809 10300 20246 30008 40029 57018 69911 70196 83805 333 56000 57803 82820 80858
AAXX 15064 96001 31457 81009 10282 20267 39959 40108 57013 70522 84572 333 56200 84619
AAXX 15064 96015 32464 51307 10300 20263 30086 40093 57011 83272 333 56000 57801 83816 80860
AAXX 15064 96033 01450 80000 10268 20238 30100 40105 57008 69901 72162 83928 333 56000 57903 81920 83617 86457 80980
AAXX 15064 96075 01457 80000 10270 20250 30089 40095 52014 69991 76166 8492/ 333 56009 57901 69907 81915 83618 86462 80965
AAXX 15064 96087 32459 73405 10300 20242 30049 40082 56021 83276 333 56000 57803 83815 83360 85280 80860
AAXX 15064 96171 11457 70000 10290 20241 30058 40082 57023 69911 70262 85222 333 56000 57802 85813 80856
AAXX 15064 96207 NIL
AAXX 15064 96505 32460 10298 20220 39055 4//// 57010 84131 333 56000 84817
AAXX 15064 96525 32460 70807 10312 20249 30058 40065 57029 83425 333 56000 83617
AAXX 15064 96529 NIL
AAXX 15064 96535 32460 53103 10322 20254 30072 40093 55012 82231 333 56000 57803 82814 80864
AAXX 15064 96557 31460 62703 10325 20241 30020 40069 57012 71522 85921 333 56600 57962 57861 82912 83813 85460 80980 80857
AAXX 15064 96559 32458 62705 10328 20239 30038 40076 57024 85231 333 56600 57864 85813 80859
AAXX 15064 96565 32460 71203 10318 20253 30022 40074 57042 84221 333 56000 57802 84810 80850
AAXX 15064 96595 11460 72205 10291 20242 30029 40080 57019 69921 70562 86532 333 56000 86613
AAXX 15064 96607 32460 80604 10286 20242 30059 40074 57022 8552/ 333 56009 85615 88460
AAXX 15064 96615 32460 73306 10302 20247 30065 40079 84132 333 56600 57861 84812 86082 80856
AAXX 15064 96695 32458 60803 10317 20246 30052 40057 56020 84211 333 56000 57802 84818 80860
AAXX 15064 96737 31450 72208 10314 20236 30034 40065 58014 70522 84221 333 56000 57801 84816 83460 80860
AAXX 15064 96739 32462 73111 10312 20237 30022 40071 56021 84332 333 56000 57901 82918 82820 80981
AAXX 15064 96741 NIL
AAXX 15064 96745 32560 72706 10318 20244 30064 40068 57022 83221 333 56600 57861 83820 86460 80825
AAXX 15064 96751 01556 80000 10231 20203 39015 48920 57011 60071 79596 86921 333 56200 57921 60077 82920 84620 80980
AAXX 15064 96791 32560 70904 10317 20250 30010 40084 57020 83211 333 56000 57802 83820
AAXX 15064 96797 32560 73509 10312 20255 30056 40062 57025 82211 333 56000 57802 82820 85080 80860
AAXX 15064 96837 32560 72705 10300 20242 30074 40077 57020 83272 333 56000 57800 83823
AAXX 15064 96925 01461 83203 10251 20233 30060 40064 56016 60181 79296 82242 333 56600 57860 60147 82817 86460 80860
AAXX 15064 96933 32460 82710 10320 20243 30055 40058 57025 8692/ 333 56609 57962 81918 85617 88460 80960
AAXX 15064 96937 32560 83214 10324 20244 30055 40060 57018 8411/ 333 56009 84820 88460
AAXX 15064 96973 31460 83012 10300 20251 30060 40065 57015 71792 85971 333 56600 57961 57861 82917 83820 80977 80858
AAXX 15064 96987 31459 71604 10306 20246 30001 40060 57018 71792 83372 333 56000 57900 57801 81918 82819 86459 80980 80859
AAXX 15061 37470 32598 63101 10047 20016 30320 40297 52007 83530 333 20019
AAXX 15061 37472 31996 03101 10018 21001 30321 40298 53005 71011 333 20051
AAXX 15061 37661 42598 03601 11002 21020 39547 40337 52012
AAXX 15061 37675 42999 02302 10031 21027 39635 40306 53008
AAXX 15061 37729 42998 42704 11015 21030 38610 54000 80001 333 21050
AAXX 15061 37735 41994 /2901 10020 20004 39868 40254 53003 74342
AAXX 15061 37740 42998 60901 10000 21037 39492 40327 52005 86050
AAXX 15061 37749 42998 30902 10019 20015 30241 40363 53010 80004
AAXX 15061 37832 32998 72601 10041 20023 40324 52008 87/20 333 21006
AAXX 15061 37851 42597 80000 10081 20038 30250 40323 53021 885//
AAXX 15061 37864 31495 80000 10060 20051 40317 52010 71022 885// 333 20025 86710 555 30///
AAXX 15061 37923 41597 80000 10052 20027 40294 51006 885// 333 20014
AAXX 15061 37925 42998 83203 10045 20035 30342 40312 53002 88076 333 20042
AAXX 15061 37905 42997 30000 10005 21001 40329 53002 83040
AAXX 15061 37985 42597 83201 10060 20046 30336 40321 53005 885//
AAXX 15061 37989 42698 80000 10063 20035 40325 52006 885//
AAXX 15061 38111 11597 80905 10010 21001 30371 40341 52009 72166 8802/ 333 20002
AAXX 15061 38750 32997 20702 10027 20006 30350 40321 53011 80001 333 20000
BBXX 46036 15061 99484 71339 46/// /3106 10074 40206 52028 22200 00086 11404 70020 333 91208
BBXX 46036 15061 99484 71339 46/// /3106 10074 40206 52028 22200 00086 11404 70020 333 91208
AAXX 15061 88900 46/// /2315 10026 20003 30074 40076 52007 333 55066
BBXX WE3592 15064 99433 70875 43/// /2218 10077 2//// 40024 5//// 7//// 8//// 222// 0//// 2//02 3//// 4//// 5//// 6//// 8//// ICE /////
BBXX WC5932 15064 99447 70872 43/// /1812 00/// 10059 21106 40001 55044 7//// 8//// 22214 0//// 2//// 3//// 4//// 5//// 6//// 80005 ICE /////
BBXX WDA2768 15064 99417 70874 43/// /1416 00/// 10126 20117 40058 58015 7//// 8//// 22200 0//// 2//// 3//// 4//// 5//// 6//// 80121 ICE /////
BBXX C6TQ6 15064 99168 70874 41697 30622 10260 20232 40150 53010 70211 8396/ 22233 00270 20204 30505 40202 50102 6//// 80240 ICE /////
BBXX WKAU 15064 99511 70466 41597 72916 10000 2000/ 40160 52030 7//22 87/// 22254 00050 2//// 3//// 4//// 5//// 6//// 80000 ICE /////
AAXX 15061 23426 11989 81803 11232 21264 30279 40306 52002 69940 70272 80001 333 21239
AAXX 15061 23625 32999 01303 11233 21258 30282 40320 54000 333 21258
AAXX 15061 28076 32997 00000 11268 21280 30291 40372 52005 333 21295
AAXX 15061 28367 11996 80000 11227 21245 30230 40373 52006 69900 77171 80005 333 21268
AAXX 15061 28382 32984 20000 11258 21276 30283 40363 52012 80001 333 21278
AAXX 15061 28481 12997 83501 11263 21280 30246 40358 52013 88077 333 21269
AAXX 15061 28491 32969 00101 11242 21266 30223 40346 52009 333 21258
AAXX 15061 28573 11998 30301 11251 21269 30236 40353 52005 69920 72271 83030 333 21297
AAXX 15061 28593 11998 00000 11230 21249 30227 40335 52008 69920 70271 333 21260
AAXX 15061 28786 11998 83001 11264 21288 30168 40345 52009 69920 70271 80002 333 21298
AAXX 15061 28797 32497 80000 11281 21298 30172 40343 52013 82601 333 21302
AAXX 15061 28799 11996 70000 11257 21281 30177 40340 52007 69920 77172 87010 333 21278
BBXX 62304 15064 99511 10018 46/98 /2334 10080 20037 49959 56010 22200 00119 10703 70016 333 90710 91145
BBXX AMOUK08 15064 99501 70061 46/// ///// 10096 20050 30016 40021 52024 90550
BBXX 63110 15064 99595 10015 47598 /2721 10069 20032 49802 52021 700// 22200 10707 70033
BBXX 63106 15064 99610 10017 46/// /2923 10065 49759 53024 22200
BBXX 63105 15064 99610 10017 47597 ///// 10070 20029 49758 53024 700// 22200
BBXX 62103 15064 99499 70029 46/98 /2843 10088 20019 49988 52020 22200 00124 11013 70064 333 90710 91155
BBXX 2AUO5 15063 99606 10017 41397 52725 10070 20047 49781 52025 7//88 8/7// 22261 20703 399// 40805 80060
BBXX ZCBF3 15063 99402 70205 41297 42130 10160 20103 40269 7//// 8/775 22263 20103 321// 40208 5//// 80130
BBXX UASP 15061 99692 10352 41497 21808 11018 40013 52015 70310 822// 222// 20403
AAXX 15064 42309 31996 00000 10220 20178 40148 70500 333 59010
AAXX 15064 42410 31/94 90000 10174 20154 40165 71044 333 58005
AAXX 15064 42415 32996 02301 10238 20148 40169 333 59016
AAXX 15064 42492 31594 22904 10144 20098 40190 71040 82500 333 56600 58000 82620
AAXX 15064 42587 31995 00000 10204 20091 40176 70500 333 59007
AAXX 15064 42591 31/93 93205 10126 20119 40195 74344 333 58005
AAXX 15064 42623 31495 20000 10176 20088 39272 40148 70542 82500 333 58009 82618
AAXX 15064 42701 31996 03204 10210 20046 39430 40161 70500 333 59003
AAXX 15064 42724 31494 63202 10162 20134 40164 71142 86600 333 59005 83712 85618
AAXX 15064 42798 31995 00000 10214 20095 40166 70500 333 59002
AAXX 15064 03008 11465 72918 10047 20011 49815 60022 78082 879// 90550 333 20045 32/// 70062 83915 84818 90710 91129
AAXX 15064 78318 12565 20903 10208 20172 30195 40199 58008 60001 82800 333 10272 20204 31/// 56900 59004 81820
AAXX 15064 78333 12910 30503 10185 20172 30190 40197 58006 60001 80002 333 10274 20175 30/// 56000 58001 83071
AAXX 15064 78348 11557 70608 10222 20180 30140 40192 58010 60001 70511 85842 333 10254 20206 30/// 56199 57854 58000 84822 555 10502
AAXX 15064 78349 12950 53301 10192 20183 30086 40196 58007 60001 80002 333 10272 20188 31/// 56009 58005 70008 83070
AAXX 15064 78353 12560 30705 10233 20143 30160 40182 58010 60001 83800 333 10261 20223 30/// 56900 58006 70005 82820
AAXX 15064 78360 12560 10207 10225 20196 30150 40161 58005 60001 81200 333 10303 20219 30/// 56900 58007 79999 81820 92034
AAXX 15064 78369 01464 60410 10242 20191 30152 40161 56003 60021 72581 86200 333 10270 20240 31/// 56900 57860 58016 60027 70016 86818
AAXX 15060 67421 12980 33501 10221 20174 38729 48515 60334 83031 333 20172 59002 70326 83358 555 10267 7//98
AAXX 15060 67423 32682 30102 10285 20213 39531 48552 82238 333 20225 5//// 55/// 58013 82830 555 10310 7//92
AAXX 15060 67699 12580 70000 10293 20221 69904 82238 333 20203 5//// 55/// 79999 82825 87275 555 10338 7//98
AAXX 15060 67791 12980 72301 10265 20191 60114 81038 333 20194 5//// 55080 70107 81359 87275 555 10319 7//96
AAXX 15060 67796 12680 22901 10310 20216 40040 69904 81102 333 20227 5//// 55/// 58007 79999 81830 555 10388 7//98
AAXX 15063 63671 32580 50904 10265 20223 855// 333 20225 85624
AAXX 15063 63723 32582 70905 10268 20235 40119 875// 333 20246 58005 87624
AAXX 15063 63793 12480 63604 10244 20219 40119 69904 86100 333 20214 58010 86818
AAXX 15064 91371 32474 40915 10278 20263 30091 40094 83243 333 56229 84815 82160 83280 70000 555 91506
AAXX 15061 20046 12498 70301 11115 21128 30068 40101 52009 69900 875// 333 21166
AAXX 15061 20069 42478 23504 11093 21105 30048 40061 53004 82500
AAXX 15061 20087 41/93 91301 11157 21176 30047 40058 58004 74942
AAXX 15061 20292 41998 22608 11133 21146 30022 40042 58002 73683 81031 333 91113
AAXX 15061 20353 46/// /0304 11035 21080 30057 40060 52011
AAXX 15061 20667 11998 82308 11009 21012 30065 40072 53004 69960 73673 8805/ 333 21038
AAXX 15061 20674 41395 72310 11042 21044 30022 40081 57018 78583 879// 333 85706 91115 92983
AAXX 15061 20744 11496 72007 11001 21013 30059 40077 52004 69950 78582 86930 333 21001 86918
AAXX 15061 20891 41496 72309 11116 21129 30155 40199 57004 78683 869// 333 86916 91111
AAXX 15061 23022 31496 82210 11053 21063 30109 40171 54000 73632 886// 333 21066 91115
AAXX 15061 23032 11496 82310 11054 21072 30160 40191 53002 69930 73833 885// 333 21063 88712 91115
AAXX 15061 23058 11297 82207 11184 21210 30249 40254 58007 69900 73873 886// 333 21166 88705
AAXX 15061 23242 31996 72207 11205 21230 30252 40269 57005 73632 84031 333 21210 91113 96110
AAXX 15061 23256 11396 82107 11224 21242 30263 40302 57004 69900 70522 85506 333 21217 84707 91112
AAXX 15061 23330 11196 82105 11205 21217 30274 40297 52001 69920 77372 8677/ 333 21227 86703 93538
AAXX 15061 23445 32397 31604 11270 21294 30306 40335 57004 83600 333 21257
AAXX 15061 23552 32997 81602 11263 21287 30325 40364 57003 8802/ 333 21264
AAXX 15061 23631 11296 82103 11237 21261 30293 40339 52004 69920 77172 8672/ 333 21262 86705
AAXX 15061 23662 32999 30000 11274 21298 30337 40387 57003 80001 333 21279
AAXX 15061 23724 32999 01001 11258 21282 30258 40331 53002 333 21264
AAXX 15061 23734 11996 81401 11261 21285 30264 40366 52006 69920 77172 8807/ 333 21255
AAXX 15061 23849 41030 80000 11254 21283 40390 52006 74744 886// 333 88701
AAXX 15061 23867 32999 31001 11270 21295 30304 40385 53005 80001 333 21296
AAXX 15061 23933 11997 80000 11264 21286 30320 40384 52005 69900 70272 80007 333 21306
AAXX 15061 28064 12999 80000 11263 21287 30280 40384 52008 69900 80001 333 21261
AAXX 15061 28275 12998 83001 11277 21301 30305 40373 52006 69900 80002 333 21308
AAXX 15061 28493 11997 80401 11207 21226 30236 40338 52007 69920 77171 8801/ 333 21223
AAXX 15061 28698 11968 00000 11269 21286 30163 40337 53005 69950 70270 333 21305
BBXX 46232 15061 99325 71174 46/// ///// 1//// 90608 22200 00148 11002 21002 325// 41201 70009
BBXX 46249 15061 99338 71197 46/// ///// 1//// 90615 22200 00146 11301 21001 319// 41301 70007
BBXX 46247 15061 99378 71228 46/// ///// 1//// 90621 22200 00122 11303 21001 329// 41302 70014
BBXX 46243 15061 99462 71241 46/// ///// 1//// 90629 22200 00085 10705 20704 326// 41302 70024
BBXX 46237 15061 99378 71226 46/// ///// 1//// 90610 22200 00112 11303 21001 325// 41302 70013
BBXX 46229 15061 99438 71246 46/// ///// 1//// 90621 22200 00103 10806 20805 328// 41203 70032
BBXX 46212 15061 99408 71243 46/// ///// 1//// 90612 22200 00094 11304 20903 330// 41303 70020
BBXX 46225 15061 99329 71174 46/// ///// 1//// 90614 22200 00154 11201 21001 322// 41201 70007
BBXX 46213 15061 99403 71247 46/// ///// 1//// 90624 22200 00097 11305 20504 328// 41304 70027
BBXX 46215 15061 99352 71209 46/// ///// 1//// 90608 22200 00156 11402 21001 326// 41402 70010
BBXX 46219 15061 99332 71199 46/// ///// 1//// 90628 22200 00136 11403 20902 331// 41402 70015
BBXX 46224 15061 99332 71175 46/// ///// 1//// 90606 22200 00153 11301 20801 321// 41301 70007
BBXX 46214 15061 99379 71235 46/// ///// 1//// 90625 22200 00117 11403 21001 329// 41403 70017
BBXX 51205 15061 99210 71564 46/// ///// 1//// 90618 22200 00241 10904 20904 333// 41302 70021
BBXX 46238 15061 99334 71195 46/// ///// 1//// 90620 22200 00147 11302 21002 323// 41301 70010
BBXX 46239 15061 99363 71221 46/// ///// 1//// 90621 22200 00130 11304 21002 330// 41303 70018
BBXX 41024 15061 99338 70785 46/// /1002 10129 40266 90600
BBXX 44022 15061 99409 70737 46/// ///03 10086 20042 40257 90630 22200 00091 333 91205 555 11036 22036
BBXX 51203 15061 99208 71570 46/// ///// 1//// 90613 22200 00250 10802 20802 321// 41101 70008
BBXX 51202 15061 99214 71577 46/// ///// 1//// 90609 22200 00244 10904 20904 301// 41101 70021
BBXX V7SY6 15064 99125 10464 41796 31022 10260 20232 40280 51010 7//00 83012 22233 0//// 20602 31010 40703 50502 6//// 80240
BBXX MGGK4 15063 99180 30048 41498 71714 10188 20145 40166 55000 70322 8223/ 22274 00194 20301 318// 40703 5//// 80163
BBXX UBQE6 15061 99039 70045 41997 12701 10250 2//// 40090 54000 7020/ 80000 22264 00023 29999 39999 49999 59999
BBXX WDE8288 15064 99158 10698 41598 13017 10290 2024/ 40125 50012 7//00 80//1 22233 0//// 20101 334// 40202 5//// 6//// 80250 ICE /////
BBXX AMOUK20 15064 99123 50324 46/// ///// 10259 20213 30128 40138 57010 90550
BBXX DMDZ 15063 99281 70246 41498 40813 10200 20153 40290 54000 7//11 84240 22263 04210 20601 336// 40704 5//// 80170
BBXX AMOUK15 15064 99103 50119 46/// ///// 10220 20192 30104 40134 57004 90550
BBXX ZSAF 15064 99560 30000 41397 82912 11007 21028 49686 51004 70255 8662/ 22233 05010 2//// 309// 40404 5////
BBXX A8YW2 15064 99300 30434 41398 30619 10260 20215 40140 53005 70511 82100 22224 00220 20804 80230
BBXX DHTK 15061 99184 70267 41/97 20415 10235 20183 40168 53008 70111 8///4 22214 04240 20806 80200
BBXX AMOUK17 15064 99331 30523 46/// ///// 10195 20116 30235 40248 52004 90550
BBXX ZDLS1 15063 99386 30147 41397 72919 10138 20110 40084 54000 70122 8677/ 22252 04123 20405 322// 40606 80123
BBXX A8UQ2 15064 99253 10574 41697 10206 10250 20149 40185 51/// 70111 81//5 22273 00250 20000 300// 40000 5//// 80185
BBXX TBWUK12 15064 99317 3007 41597 72608 10160 20114 40180 52015 7//// 877// 22263 2//// 324// 41204 5//// 80135
BBXX DDDO2 15064 99127 10477 41597 10718 10255 20176 40160 51015 70200 81100 22225 00267 20501 307//
BBXX OVSB2 15063 99156 30026 41598 71411 10201 20121 40148 52005 70222 878// 22234 00208 20303 316// 40703 5//// 80156
BBXX UINM 15061 99507 11469 42598 52904 11060 40043 56009 84361 22283 00010 20301 333 00 40503
BBXX A8UT3 15064 99061 10994 41897 60507 10320 20267 40090 58020 7//00 86077 22233 20301 33300 40301 5//// 80280
BBXX A8IE6 15064 99248 11196 41/96 80332 10180 20102 40185 56015 71000 8//// 22214 04190 20812 304// 40812 80135
BBXX UINM 15061 99507 11469 42598 52904 11060 40043 56009 84361 22283 00010 20301 33300 40503
BBXX UGOS 15061 99459 11430 41/93 93515 11030 40051 55020 77274 22263 00035 20604
BBXX ZCBZ4 15063 99104 11267 41/98 50410 10290 20269 40092 57025 70222 85700 22244 20403 32727 40303 50201 80275
BBXX ZDLP 15063 99625 50593 41/97 52915 10010 20005 40063 53016 70222 8344/ 22212 04009 29901 325// 40201 5//// 80008 ICE //4//
BBXX 62141 15063 99493 50590 41/97 /3215 10116 40214 52004 72122 8//// 22200 20604 33131 40402 50604
BBXX VQHO7 15064 99043 70482 41498 30717 10270 20241 40091 54000 70322 832// 22274 00275 29903 3//// 4//// 5//// 80250
BBXX UGWJ 15061 99023 11019 42598 72404 10278 40112 54000 8617/ 22272 00290 20301
BBXX MGSM3 15064 99182 31533 41497 70508 10290 20250 40034 56020 70120 87800 22243 04290 20501 31313 41002 51002 80270
BBXX TBWUK17 15063 99071 31038 41398 42513 10300 20261 40114 57003 70111 84772 22253 04300 20201 32020 40403 50503 80272
BBXX VROB 15064 99082 31508 46/// /0710 10296 20230 30018 40042 57008 22224 04310 85247
BBXX FHZI 15064 99431 31474 46/// /1418 10143 20074 30193 40204 52003 22233 04163 85106
BBXX VNAH 15064 99333 31157 46/// /1804 10211 20129 30104 40127 57011 22200 04210 85160
BBXX VRAE4 15063 99016 11332 41398 52514 10300 20243 40100 57022 70311 83221 22273 04300 20603 304// 40605 80260
BBXX VREN5 15060 99397 31777 41496 8//// 10155 20155 40069 78000 886// 22253 20303 80155
BBXX SHIP 15064 99185 30935 41498 22620 10250 20194 40117 57015 70260 81135 22232 00251 10703 20601 313// 40703 85212
BBXX PCPR 15063 99367 10009 41497 82715 10170 20146 40260 51010 76262 8577/ 22263 04160 20404 80155
BBXX TBWAA05 15063 99594 10228 41297 82218 10050 20003 49911 53003 70122 887// 22223 02060 2//// 3//// 4//// 5//// 80030 00/87 1/764 5989300/ 871/7 64598 93931/65 1/626 /807
BBXX ZCBD3 15063 99394 70269 41297 81926 10182 20146 40241 55021 7//22 887// 22224 21705 332// 41006 5//// 80161
BBXX UISD 15061 99371 10266 42497 53404 10120 40229 54000 8518/ 22273 00170 20201
BBXX VRCZ7 15063 99354 10179 41598 13114 10175 20111 40254 54000 70200 811// 22265 2//// 3//// 4//// 5//// 80140
BBXX MGSH7 15063 99557 10108 41/98 82125 10055 20017 49939 57010 70211 8//// 22283 20404 320// 40506 5//// 80040
BBXX WC5932 15064 99447 70872 43/// /1812 00/// 10059 21106 40001 55044 7//// 8//// 22214 0//// 2//// 3//// 4//// 5//// 6//// 80005 ICE /////
BBXX WDA2768 15064 99417 70874 43/// /1416 00/// 10126 20117 40058 58015 7//// 8//// 22200 0//// 2//// 3//// 4//// 5//// 6//// 80121 ICE /////
BBXX 44062 15061 99386 70764 46/// /1905 10080 40236 58018 90600 22200 00089 10301 70003 333 91207
BBXX 44063 15061 99390 70764 46/// /2105 1//// 90620 333 91205
BBXX 44041 15061 99372 70768 46/// /1703 1//// 40281 90610 333 91204
BBXX 44041 15061 99372 70768 46/// /1803 10078 40282 58016 90600 22200 00094 1//00 70000 333 91203
BBXX 44062 15061 99386 70764 46/// /1906 1//// 90620 22200 00089 333 91207
BBXX 44062 15061 99386 70764 46/// /1905 1//// 40234 90610 22200 00089 333 91207
BBXX 42364 15061 99291 70881 46/// /1511 10217 20167 40234 90615
BBXX 42363 15061 99282 70892 46/// /1313 10228 20167 40224 90615 333 91213
BBXX 42363 15061 99282 70892 46/// /1511 10228 20167 40224 90630 333 91212
BBXX 41036 15061 99342 70770 46/// ///// 10146 20104 40263 90620 22200 00178
BBXX CFO383 15064 99439 70602 47999 /0106 10012 2107/ 40270 5//// 700// 8/ // 22200 00081 10905 2//// 3//// 70023 81013 333 91013
BBXX 46205 15061 99542 71343 46/// /1504 10055 40176 52009 22200 00078 11203 70016 333 91204
BBXX 46132 15061 99497 71279 46/// /1209 10074 40157 52020 22200 00085 1//// 70/// 333 912//
BBXX 46206 15061 99488 71260 46/// /1110 10070 40163 52010 22200 00089 10605 70023 333 91213
BBXX 46185 15061 99524 71298 46/// /3508 10032 40157 52018 22200 00072 10503 70017 333 91210
BBXX 46087 15061 99485 71247 46/// /1109 10061 20047 40179 90620 22200 00077 333 91210 555 11091 22096 30551 41111 60619 108086 108086 109093 113083 117083 125083
BBXX 44029 15061 99425 70706 46/30 /1506 10053 40258 58023 90604 22200 00089 10802 70011 333 91207 555 11068 22070
BBXX 44030 15061 99432 70704 46/// /1807 1//// 40256 56026 90604 22200 00085 333 91208 555 11085 22090
BBXX 44040 15061 99410 70736 46/// /1903 10081 20044 40266 90615 22200 1//00 70001 333 91203 555 11031 22036
BBXX 46036 15061 99484 71339 46/// /3106 10074 40206 52028 22200 00086 11404 70020 333 91208
BBXX 44140 15061 99429 70515 46/// /0213 10104 40166 52036 22200 00094 11211 70054 333 91216
BBXX WKAU 15064 99511 70466 41597 72916 10000 2000/ 40160 52030 7//22 87/// 22254 00050 2//// 3//// 4//// 5//// 6//// 80000 ICE /////
BBXX 44258 15061 99445 70634 46/// /0201 10010 40276 57013 22200 00074 10803 70015 333 91202
BBXX 41110 15061 99341 70777 46/// ///// 1//// 90621 22200 00141 11002 21002 311// 41101 70010
BBXX 42364 15061 99291 70881 46/// /1510 10217 20161 40231 90630
BBXX 42361 15061 99276 70925 46/// ///09 10228 20200 40190 58003 90630 555 11071 22076
BBXX 41009 15061 99285 70802 46/// /0907 10221 20145 40246 90620 22200 00245 10705 20603 300// 40704 70024 333 91209 555 11075 22078
BBXX 44100 15061 99363 70756 46/// ///// 1//// 90622 22200 00132 11002 21002 307// 41101 70012
BBXX 41113 15061 99284 70805 46/// ///// 1//// 90621 22200 00222 11203 20902 309// 41201 70013
BBXX 41010 15061 99289 70785 46/// /0909 10210 40243 90620 22200 00239 11105 20603 300// 41103 70024 333 91211 555 11090 22094
BBXX 42013 15061 99272 70829 46/// ///// 1//// 40235 90540 22200 00200
BBXX 46146 15061 99493 71237 46/// /1006 10050 40196 52010 22200 00064 10301 70004 333 91207
BBXX 44060 15061 99413 70721 46/// ///06 10072 40269 90630 22200 00111 333 91208 555 11067 22067
BBXX 46004 15061 99509 71361 46/// /1904 10062 40180 52005 22200 00079 11204 70019 333 91206
BBXX 44039 15061 99411 70727 46/// /1605 10082 20041 40276 90553 22200 00096 10201 70003 333 91206
BBXX 46184 15061 99539 71389 46/// /1807 10056 40128 57007 22200 00065 11204 70022 333 91209
BBXX C6KD7 15063 99184 70676 41398 80221 10255 20218 40124 54000 70211 887// 22214 02278 20704 305// 41103 5//// 80230
BBXX 46181 15061 99538 71288 46/// /0408 11008 40183 52012 22200 00040 10201 70004 333 91211
BBXX DAJC 15063 99291 71335 41598 30508 10190 20142 40280 52010 70200 8244/ 22224 04190 20803 303// 41004 5//// 80160
BBXX 44057 15061 99395 70761 46/// /1602 1//// 40249 90610 333 91202
BBXX 44059 15061 99368 70763 46/// /1902 1//// 90620 333 91203
BBXX 44057 15061 99395 70761 46/// /1602 10064 40249 58017 90600 22200 00053 333 91202
BBXX 44058 15061 99376 70763 46/// /2004 1//// 90620 333 91204
BBXX 44058 15061 99376 70763 46/// /2004 1//// 40255 90610 333 91204
BBXX 44059 15061 99368 70763 46/// /1902 1//// 40253 90610 333 91202
BBXX 44058 15061 99376 70763 46/// /2004 10090 40256 58016 90600 22200 00094 1//00 70001 333 91204
BBXX 44057 15061 99395 70761 46/// /1802 1//// 90620 333 91202
BBXX 44059 15061 99368 70763 46/// /2002 10094 40255 58016 90600 22200 00103 333 91203
BBXX ZCDG4 15064 99097 70815 41498 81326 10244 20217 40115 51020 70222 887// 22263 00300 20101 309// 40603 5////
BBXX VQKZ6 15063 99176 70688 41398 73417 10255 20226 40136 54000 76022 8471/ 22254 02250 20403 334// 40504 5//// 80235
BBXX ZCEE2 15064 99201 70701 41298 51325 10259 20184 40148 57032 7//// 8/6// 22274 00280 20302 332// 40303 5//// 80211
BBXX 44043 15061 99392 70764 46/// /1906 1//// 90620 333 91207
BBXX 44043 15061 99392 70764 46/// /1806 1//// 40243 90610 333 91206
BBXX 44043 15061 99392 70764 46/// /1805 10082 40244 58019 90600 22200 00075 10201 70003 333 91206
BBXX 44042 15061 99380 70763 46/// /2004 1//// 40257 90610 333 91205
BBXX 44042 15061 99380 70763 46/// /2005 10089 40258 58018 90600 22200 00087 1//00 70002 333 91206
BBXX 44041 15061 99372 70768 46/// /1803 1//// 90620 333 91204
BBXX 44042 15061 99380 70763 46/// /2004 1//// 90620 333 91205
BBXX 44063 15061 99390 70764 46/// /2105 10078 40262 90600 22200 00077 10201 70003 333 91205
BBXX 44063 15061 99390 70764 46/// /2104 1//// 40262 90610 333 91205
BBXX A8XD5 15064 99416 11429 41296 63036 10060 20015 40090 57/// 70375 8572/ 22223 04090 20510 331// 40510 80040
BBXX JPBN 15064 99343 11410 41/98 22533 10169 20076 40090 58014 70200 82120 22271 00214 1//09 20809 399// 4//// 70045
BBXX UGOS 15061 99459 11430 41/93 93515 11030 40051 55020 77274 22263 00035 20604
BBXX UINM 15061 99507 11469 42598 52904 11060 40043 56009 84361 22283 00010 20301 333 00 40503
AAXX 15064 91723 NIL
AAXX 15064 91964 NIL
AAXX 15064 08171 12883 72404 10056 20026 30002 40248 52010 60002 81047 333 20045 31004 50050 55030 70000
AAXX 15061 11012 12883 62206 10042 20013 39659 40131 58015 60022 81526 333 10080 20042 3/003 55300 91117 91117
AAXX 15063 63680 12565 72703 10210 20186 38852 60014 8596/ 333 20159 58010 85821 87923 86362 555 10194
AAXX 15063 63684 12580 71505 10210 20173 38855 48/// 60014 84905 333 20/// 58006 84820 81923 87276 555 10186
AAXX 15064 08141 11458 52004 10056 20042 39401 40276 51009 69902 71011 83531 333 20040 31003 55033 70001
AAXX 1506/ 89327 46/// ///// 11035 39593 4//// 5//// 90620
AAXX 1506/ 89872 46/// ///// 11034 39766 4//// 5//// 90630
AAXX 1506/ 89869 46/// ///// 11026 39767 4//// 5//// 90630
AAXX 1506/ 89329 46/// ///// 11144 38666 4//// 5//// 90620
AAXX 1506/ 89769 46/// ///// 11049 39807 4//// 5//// 90620
AAXX 1506/ 89828 46/// ///// 11246 36435 4//// 5//// 90630
AAXX 1506/ 89879 46/// ///// 10006 39717 4//// 5//// 90620
AAXX 1506/ 89314 46/// ///// 11164 38143 4//// 5//// 90620
AAXX 1506/ 89327 46/// ///// 11038 39592 4//// 5////
AAXX 1506/ 89872 46/// ///// 11016 39767 4//// 5////
AAXX 1506/ 89869 46/// ///// 11040 39766 4//// 5////
AAXX 1506/ 89332 46/// ///// 11050 39151 4//// 5////
BBXX DHEB 15063 99524 11758 41597 62521 11005 21018 49820 52020 78577 865// 22224 04050 29904 330// 4//06 5//// 81010
BBXX DQVJ 15061 99477 11541 41698 80609 11020 21055 49995 56005 7//22 887// 22254 00026 20601 327// 41005 5//// 61013
BBXX SHIP 15064 99310 71681 41596 63122 10190 20142 40149 51017 70102 85/// 90555 22264 00230 2//// 3//// 4//// 5//// 80210
BBXX KS094 15064 99133 70596 43/// /0804 10250 40108 22200 06272
BBXX KS088 15064 99267 70801 43/// /0902 10225 40223 22200 06225
BBXX MINUK05 1506/ 99607 70050 46/// ///// 10068 49824 52029
BBXX FLAO 1506/ 99764 70847 46/// ///// 11220 40050 57005
BBXX MINUK03 1506/ 99528 10038 46/// ///// 10080 49932 52015
BBXX MINFR00 1506/ 99415 70641 46/// ///// 10055 40259 57006
AAXX 15064 89514 31693 81228 11055 49779 57026 73872 8802/ 333 88440
AAXX 15064 42027 31995 00502 10052 21003 38470 48557 70500 333 59006
AAXX 15064 42111 31996 02702 10156 20089 39420 40179 70500 333 58028
AAXX 15064 42131 32996 02701 10186 20044 40195 333 58003
AAXX 15064 42182 31995 02505 10200 20043 40192 70510 333 58003
AAXX 15064 42189 31/93 90000 10116 20112 40198 74344 333 58009
AAXX 15064 42260 31996 02003 10203 20048 40191 70540 333 58002
AAXX 15064 42339 31995 20502 10216 20032 40185 70500 80001 333 59001 82070
AAXX 15064 42348 31995 01406 10204 20024 40186 70500 333 58004
AAXX 15064 42369 31994 09902 10118 20103 40200 74244 333 58001
AAXX 15064 42452 31995 10000 10206 20069 40190 70400 80001 333 58000
AAXX 15064 42475 31994 00000 10148 20122 40191 72844 333 58001
AAXX 15061 31152 42998 80000 11320 21360 39824 40275 57010 84036
AAXX 15061 31163 NIL
AAXX 15061 31285 42999 72001 11253 21309 30128 40214 57003 85044
AAXX 15061 31561 42998 01801 11188 21256 30148 40178 54000
AAXX 15061 31683 42999 20000 11145 21206 30057 40135 54000 82031
AAXX 15061 32010 42598 63004 11156 21183 30049 40100 54000 82502 333 91006 91111
AAXX 15061 44210 32999 60000 11199 21211 38609 57012 83018
AAXX 15061 44216 32598 60000 11247 21271 39139 40546 58016 84546
AAXX 15061 44217 32698 60000 11164 21116 37881 40384 51010 82541
AAXX 15061 44219 32998 21402 11230 21270 38720 40519 58008 80008
AAXX 15061 44221 31998 20000 11300 21323 38702 40587 58010 70240 80001
AAXX 15061 44224 32998 10000 11240 21265 38125 40525 58009 80001
AAXX 15061 44229 32999 02503 11271 21316 37990 40567 58004
AAXX 15061 44242 32998 01101 11237 21281 39490 40516 57016
AAXX 15061 44243 32999 00000 11247 21274 39592 40528 58015
AAXX 15061 44254 32998 02704 11189 21257 39143 40417 58005
AAXX 15061 44257 32998 02904 11141 21225 39079 40428 57008
AAXX 15061 44263 32998 60000 11186 21244 38123 40497 58014 80007
AAXX 15061 44266 32999 71802 11141 21202 37811 40393 58007 84078
AAXX 15061 44286 32998 01602 11179 21246 38772 40498 52002
AAXX 15061 44291 32998 00000 11201 21220 38866 40526 57011
AAXX 15061 44325 32999 00203 11173 21207 38978 40484 58004
AAXX 15061 44329 32998 00000 11100 21197 37834 40389 58009
AAXX 15061 44338 32999 01803 11110 21183 38582 40426 57015
AAXX 15061 44348 32997 03205 11206 21225 38809 40488 58002
AAXX 15061 44374 32999 01805 11082 21230 38350 40429 58011
AAXX 15061 44385 32999 03603 11128 21211 39069 40479 58005
AAXX 15061 44386 32999 02702 11186 21227 39193 40491 57002
AAXX 15064 71490 16/// /2926 11271 21295 39805 40142 50001 60001 333 11268 21281 70000 555 33038 40183
AAXX 15064 71923 16/// ///18 11279 21308 39719 40190 55000 60001 333 11234 21280 70000
AAXX 15064 71963 16/// /2912 11288 21315 39766 40193 53002 60001 333 11278 21295 70000 555 32826 40041
AAXX 15064 71592 16/// /0104 11178 21236 39940 49953 58003 60001 333 11147 21193 70000 555 30835 40083
AAXX 15064 71761 16/// ///// 11107 21118 60001 333 11023 21129 70000
AAXX 15064 71277 46/// /1504 11128 21137 6///1 333 11028 21131 7//// 555 32817 40081
AAXX 15064 41939 31950 00000 10226 20070 40165 70544 333 59008 70000
AAXX 15061 15108 01699 32706 11019 21019 38077 48493 53003 60002 72844 81041 333 11009 21022 3//// 43006 60007 70000 92727 92870 93538 95000
BBXX 44138 15061 99443 70536 46/// /0210 10015 40223 52022 22200 00086 10907 70037 333 91213
AAXX 15061 01415 16/// /2707 10081 20040 39817 49827 53026 6//// 333 20051 70060 91114
AAXX 15061 15108 01699 32706 11019 21019 38077 48493 53003 60002 72844 81041 333 11009 21022 3//// 43006 60007 70000 92727 92870 93538 95000
AAXX 15064 67899 12980 70602 10211 20165 3//// 48/// 69904 8707/ 333 20180 5//// 87459
AAXX 15061 98134 11460 60403 10240 20222 39941 40132 5//// 69941 71584 84270 333 56199 84819 84357
AAXX 15061 98223 31562 10207 10307 20254 40081 57037 70544 81200 333 56999 81820
AAXX 15061 98232 31570 20405 10280 20253 40125 57010 70142 81270 222// 20100 333 56199 81820
AAXX 15061 98325 31460 33602 10314 20271 40089 58026 70544 82201 333 56999 82817
AAXX 15061 98328 31462 61603 10252 20175 38509 40068 57020 74044 86200 333 56999 86813
AAXX 15061 98330 31480 30205 10335 20250 30051 40083 58034 70544 82201 333 56999 82818
AAXX 15061 98336 32580 10407 10302 20261 30101 40106 57027 81200 333 56199 81820
AAXX 15061 98429 11560 61003 10292 20242 40093 57021 60031 72584 84970 333 56999 81923 85460
AAXX 15061 98430 11458 73601 10301 20243 40087 58024 69901 70584 84987 333 56999 82918 87358
AAXX 15061 98431 31468 40601 10297 20255 30036 40083 58027 70544 82231 333 56999 82818
AAXX 15061 98440 31475 20403 10305 20273 30087 40092 57023 70544 82201 333 56299 82815
AAXX 15061 98444 11468 40504 10291 20253 30066 40085 58029 60101 70182 83238 333 56999 83818 84270
AAXX 15061 98526 32575 81203 10316 20250 40081 57014 81107 333 56299 81820 88274 98325
AAXX 15061 98531 31570 30905 10328 20252 30065 40069 58030 70544 81232 333 56199 81820
AAXX 15061 98536 11465 80402 10278 20244 39884 40089 57011 69901 78084 8327/ 222// 20000 333 56199 83818 88357
AAXX 15061 98543 11470 81405 10270 20257 30067 40078 58030 60101 76386 83507 333 56199 83618 87272
AAXX 15061 98550 NIL
AAXX 15061 98618 32480 50907 10315 20264 40072 58009 84901 333 56999 83917 82819 84075
AAXX 15061 98630 32575 30202 10316 20253 40128 58008 82201 222// 2//01 333 56199 82820
AAXX 15061 98637 NIL
AAXX 15061 98646 32460 73602 10304 20265 30064 40092 57022 82970 333 56999 82918 86359
AAXX 15061 98653 11470 50402 10303 20260 30012 40057 57020 70584 82272 333 56999 82818 83358
AAXX 15061 98741 11470 40404 10306 20261 40056 57024 69921 70584 82202 333 56199 82818 83076
AAXX 15061 98747 31460 73602 10325 20258 39849 40051 56026 70544 82201 333 56999 82818
AAXX 15061 98753 11468 70403 10302 20259 40054 57037 69941 70564 82238 333 56999 82816 86279
AAXX 15061 98755 11575 53604 10300 20261 40056 57028 60041 70182 83208 333 56999 83820 85279
AAXX 15061 98836 32462 70402 10325 20260 40065 57023 82908 333 56999 82918 86281
AAXX 15064 94290 46/// /1119 10273 30053 40062 58015 90624
AAXX 15064 89571 41458 73612 11010 21056 39817 49845 53006 71522 84872
AAXX 15064 89614 46/// /1121 11054 29061 38929 4//// 5//// 333 90700 91125
AAXX 15064 94995 46/// /2112 10202 20117 30125 40133
AAXX 15064 94210 35/// /2405 10324 30036 40041 57017
AAXX 15064 94289 46/// /1208 10272 30049 40056 56020 90615
AAXX 15064 94379 46/// /1120 10261 30090 40099 56011 90626
AAXX 15064 41184 42960 01602 10244 20069 40204 333 20115 58003
AAXX 15064 41194 12960 09902 10238 20099 30210 40215 60001 333 20167 58006
AAXX 15064 41196 33960 01103 10223 20086 30178 40218 333 20098 30007 58007
AAXX 15064 41198 42560 13501 10241 20143 40215 81500 333 20179 58007 81625
AAXX 15064 41217 42960 00403 10224 20125 30180 40209 333 20154 30011 58007
AAXX 15064 41218 42960 00105 10199 20130 39904 40213 333 20124 30012 58007
AAXX 15064 94995 46/// /2112 10202 20117 30125 40133
AAXX 15064 40360 42960 02912 10066 21020 39587 40178 333 20050 59022
AAXX 15064 89571 41458 73612 11010 21056 39817 49845 53006 71522 84872
AAXX 15064 89614 46/// /1121 11054 29061 38929 4//// 5//// 333 90700 91125
AAXX 15064 94290 46/// /1119 10273 30053 40062 58015 90624
BBXX 44056 15061 99362 70757 46/// ///// 1//// 90550 22200 00112 11002 21002 308// 41101 70010
AAXX 15064 95287 41/98 70905 10285 20257 3//// 4//// 78088 83338
AAXX 15064 95290 41/98 61108 10275 20246 3//// 4//// 70298 83340
AAXX 15064 17219 11/01 99901 10038 20035 30098 40247 53008 60002 74540 333 20035 31004 55047 20304 79999 89/01
BBXX S6CW 15063 99155 11392 41297 70818 10252 40094 50003 76286 8671/ 22274 00296 20502
BBXX SHIP 15064 99310 11312 41/93 63215 10170 20100 40134 87825 22253 20403 332// 40403 80130
AAXX 15061 55279 32680 62905 11039 21261 35685 57008 85902 333 05100 21145
AAXX 15061 55472 32980 02708 11012 21280 35719 57011 333 05151 21104
AAXX 15061 55696 32980 01601 10024 21130 36316 57044 333 00001 21087
AAXX 15061 56079 32980 02502 11028 21206 36688 57023 333 00252 21165
AAXX 15061 56106 32780 13601 11022 21270 36193 57031 81100 333 05152 21166
AAXX 15061 56257 32980 00703 10010 21131 36257 57025 333 00051 21126
AAXX 15061 56374 11480 80906 11004 21074 37439 57028 69911 70080 884// 333 00051 21047
AAXX 15061 56385 11/01 93601 11059 21060 37025 57017 69931 77074 333 00002 21105
AAXX 15061 56954 32580 21402 10217 20128 40159 57034 82100 333 00001 20096
AAXX 15061 56966 32768 21104 10231 20109 40160 57041 82400 333 00004 20124
AAXX 15061 57237 11965 80000 10080 20012 40300 57023 69901 70060 8807/ 333 20051
AAXX 15061 57306 11959 80201 10083 20064 40298 57021 69931 71060 8807/ 333 20072
AAXX 15061 57604 11930 80000 10075 20072 40294 57025 69981 76060 8802/ 333 20060
AAXX 15061 57707 11466 83602 10041 21007 38553 57026 69901 70070 886// 333 00102 20019
AAXX 15061 57832 32768 83602 10055 20022 39539 40300 57021 885// 333 00300 20037
BBXX 3EIU9 15064 99015 11045 41297 53310 10280 20240 40100 58020 70250 85246 90610 22223 00265 1//// 2//// 332// 40304 5//// 6//// 80250 /////
AAXX 15061 55228 32780 22508 11025 21281 36015 57013 81102 333 05101 21158
AAXX 15061 55578 32980 00902 10086 21270 36341 57027 333 05151 21109
AAXX 15061 55664 32980 01803 10043 21286 35994 57016 333 00052 21143
AAXX 15061 55773 32970 01804 10041 21195 35988 57025 333 00051 21162
AAXX 15061 56116 32980 01802 10005 21163 36326 57025 333 00000 21127
AAXX 15061 56137 32980 02201 10049 21212 36781 57037 333 00152 21105
AAXX 15061 56172 32980 12904 10071 21081 37339 57044 80002 333 00100 21050
AAXX 15061 56247 32980 02702 10110 21111 37412 57049 333 00001 21023
AAXX 15061 56312 32680 21602 10082 21107 37069 57036 82100 333 05101 21057
AAXX 15061 56462 11580 63202 10063 21092 37122 57028 69901 70080 85402 333 00100 21020
AAXX 15061 56651 32680 53601 10115 21050 37634 57029 85100 333 05102 20000
AAXX 15061 56691 11474 72701 10003 21034 37805 57025 69911 70070 8664/ 333 00101 21030
AAXX 15061 56985 32560 72002 10147 20077 38735 40188 57025 8646/ 333 00251 20108
AAXX 15061 57633 32965 83401 10076 21036 39503 40303 57023 8807/ 333 00202 20047
AAXX 15061 57902 11460 81101 10045 20028 38691 40281 57023 69901 76060 887// 333 00251 20032
BBXX 3EIU9 15064 99015 11045 41297 53310 10280 20240 40100 58020 70250 85246 90610 22223 00265 1//// 2//// 332// 40304 5//// 6//// 80250 /////
AAXX 15061 01028 41360 50613 10005 21001 39833 49853 57007 60032 70122 83730 333 20002
AAXX 15063 67295 32480 62704 10252 20220 39354 48530 86200 333 20180 50580 55025 58008 94320 555 10000
AAXX 15064 17112 11650 70602 10090 20049 30232 40234 52007 60002 71000 84250 333 20087 31007 50064 20046 84835 87360 92416
AAXX 1506/ 48969 NIL
AAXX 1506/ 48962 NIL
AAXX 1506/ 48990 NIL
AAXX 1506/ 48986 NIL
AAXX 1506/ 48995 NIL
AAXX 1506/ 48967 NIL
AAXX 1506/ 48992 NIL
AAXX 1506/ 48965 NIL
AAXX 1506/ 48985 NIL
AAXX 1506/ 48970 NIL
AAXX 1506/ 48991 NIL
AAXX 1506/ 48964 NIL
AAXX 1506/ 48997 NIL
AAXX 1506/ 48968 NIL
AAXX 1506/ 48973 NIL
AAXX 1506/ 48966 NIL
AAXX 1506/ 48983 NIL
AAXX 1506/ 48972 NIL
AAXX 1506/ 48998 NIL
AAXX 1506/ 48993 NIL
AAXX 1506/ 48971 NIL
AAXX 1506/ 48963 NIL
AAXX 1506/ 48987 NIL
AAXX 15064 60195 32960 00000 10052 21021 38600 48611 5//// 333 20038 30002 95500
AAXX 15064 67315 32580 60511 10295 20254 40106 50004 83203 333 20275 5///0 55067 94322 555 10008
AAXX 15064 71354 16/// /1602 11124 21129 60001 333 11017 21129 70000 555 33023 40211
AAXX 15064 71406 17/// /2520 11036 21064 30186 40196 56005 69961 7//4/ 333 11033 21079 7////
AAXX 15064 71418 46/// /2909 11010 21064 30221 40254 56010 6///1 333 10003 21020 7//// 555 30329 40072
AAXX 15064 71048 16/// /3308 11099 21128 60001 333 11024 21141 70000 555 33026 40191
AAXX 15064 71981 16/// /1902 11099 21138 60001 333 7////
AAXX 15064 71982 16/// /1602 11078 21127 60001 333 10027 21095 70000 555 30220 40091
AAXX 15064 71986 16/// /1402 11138 21149 60001 333 11035 21182 70000 555 33220 40191
AAXX 15064 71990 17/// /0503 11167 21184 38509 40157 56006 69951 7//4/ 333 11116 21208 70008
AAXX 15064 89807 46/// /1415 11017 29080 39729 4//// 5//// 90630 333 90700 91119
AAXX 15064 89807 46/// /1415 11017 29080 39729 4//// 5//// 90630 333 90700 91119
AAXX 15064 64700 32960 00408 10144 21027 39807 40152 333 01000 20128 50891 ///// 55106 58009
AAXX 15064 64701 NIL
AAXX 15064 64702 NIL
AAXX 15064 64705 33960 23606 10155 21008 3//// 4//// 80002 90600 333 0//00 2//// 50684 55/// ////// 5//// 82075
AAXX 15064 64706 33960 22604 10155 20064 39655 40133 80002 333 0//00 20130 51134 55104 58003 82075
AAXX 15064 64708 NIL
AAXX 15064 64709 33960 30208 10189 21020 3//// 4//// 80002 90600 333 0//00 20160 5//// ///// 55/// 5//// 83075
AAXX 15064 64710 NIL
AAXX 15064 64713 NIL
AAXX 15064 64722 33962 20000 10160 20084 3//// 4//// 80002 90555 333 0//00 20110 50504 ///// 55/// 5//// 82075
AAXX 15064 64750 32960 63404 10160 20082 39709 40123 80002 90558 333 01000 20145 50571 ///// 55095 58005 86075
AAXX 15064 64751 33960 31006 10149 21052 3//// 4//// 81032 90606 333 0//00 20139 50783 ///// 55/// 5//// 81365 83075
AAXX 15064 64753 31910 10425 10142 20042 3//// 4//// 735// 80002 90557 333 0//00 20132 51074 ///// 55/// 5//// 81075
AAXX 15064 64754 33960 00000 10184 20040 3//// 4//// 90605 333 0//00 20127 50524 ///// 55/// 5////
AAXX 15064 64756 33962 50408 10180 21013 39519 4//// 80002 90600 333 0//00 20162 5//// ///// 55/// 58005 85075
AAXX 15064 64757 33962 00408 10180 20030 3//// 4//// 90600 333 0//00 20090 5//// ///// 55/// 5////
AAXX 15064 64758 NIL
AAXX 15064 64761 NIL
AAXX 15064 67771 11370 70403 10215 20190 3//// 48/// 69964 72162 81772 333 20188 5//// 81709 85460 87080
AAXX 15064 87178 32970 02305 10180 20135 39928 40072 57008
BBXX 42360 15061 99267 70905 46/// /1308 10238 90600 22200 00242 10704 70020 333 91210
AAXX 15064 89066 32570 80505 10035 21031 39926 49935 56014 886// 333 56199 88728 92417 92734 92851 94075 95015
AAXX 15064 89657 46/// /2906 11022 20015 49822 57006
AAXX 15061 28711 11496 82008 11099 21109 39934 40033 54000 60040 77173 8552/ 333 21139 85611 91011 91111 92982
BBXX 42023 15061 99261 70831 46/// /1005 1//// 90630 333 91209
BBXX 42023 15061 99261 70831 46/// /1005 1//// 90600 333 91209
BBXX 42362 15061 99278 70907 46/// /1408 10233 20194 40207 90630
AAXX 15064 48375 32965 00000 10300 20170 39878 40099 57037 333 59022
AAXX 15064 48378 31557 13205 10293 20184 30071 40123 57027 70500 81101 333 59020
AAXX 15064 48569 01457 80000 10256 20238 30059 40099 57020 60181 76092 8697/ 333 59007 69987 70176
AAXX 15064 71701 12874 22104 11051 21085 30218 40282 55003 60001 82050 333 10007 21051 70000 555 10000 20000
AAXX 15064 71701 12874 22104 11051 21085 30218 40282 55003 60001 82050 333 10007 21051 70000 555 10000 20000
AAXX 15064 03853 11465 62616 10059 20025 49968 60012 70182 85930 90550 333 20039 3/001 55013 55300 20000 70046 81714 82920 83824
BBXX C6W2032 15064 99011 10049 41498 61515 10270 2024/ 40100 54000 70200 84478 22244 00270 20404 318// 40404 5//// 6//// 80250 ICE /////
BBXX SHIP 15063 99155 11392 41297 70818 10252 40094 50003 76286 8671/ 22274 00296 20502
BBXX SHIP 15064 99310 11312 41/93 63215 10170 20100 40134 87825 22253 20403 332// 40403 80130
BBXX WE3592 15064 99433 70875 43/// /2218 10077 2//// 40024 5//// 7//// 8//// 222// 0//// 2//02 3//// 4//// 5//// 6//// 8//// ICE /////
BBXX MINUK03 1506/ 99528 10038 46/// ///// 10080 49932 52015
BBXX MINUK05 1506/ 99607 70050 46/// ///// 10068 49824 52029
BBXX ZCBF3 15063 99402 70205 41297 42130 10160 20103 40269 7//// 8/775 22263 20103 321// 40208 5//// 80130
BBXX 2AUO5 15063 99606 10017 41397 52725 10070 20047 49781 52025 7//88 8/7// 22261 20703 399// 40805 80060
BBXX UASP 15061 99692 10352 41497 21808 11018 40013 52015 70310 822// 222// 20403
BBXX 42023 15061 99261 70831 46/// /1005 1//// 90600 333 91209
BBXX 42362 15061 99278 70907 46/// /1408 10233 20194 40207 90630
BBXX 42023 15061 99261 70831 46/// /1005 1//// 90630 333 91209
BBXX 42360 15061 99267 70905 46/// /1308 10238 90600 22200 00242 10704 70020 333 91210
BBXX 44056 15061 99362 70757 46/// ///// 1//// 90550 22200 00112 11002 21002 308// 41101 70010
BBXX 44138 15061 99443 70536 46/// /0210 10015 40223 52022 22200 00086 10907 70037 333 91213
BBXX MINFR00 1506/ 99415 70641 46/// ///// 10055 40259 57006
BBXX FLAO 1506/ 99764 70847 46/// ///// 11220 40050 57005
BBXX KS094 15064 99133 70596 43/// /0804 10250 40108 22200 06272
BBXX KS088 15064 99267 70801 43/// /0902 10225 40223 22200 06225
BBXX 41024 15061 99338 70785 46/// /1002 10129 40266 90600
BBXX 51205 15061 99210 71564 46/// ///// 1//// 90618 22200 00241 10904 20904 333// 41302 70021
BBXX 46238 15061 99334 71195 46/// ///// 1//// 90620 22200 00147 11302 21002 323// 41301 70010
BBXX 46224 15061 99332 71175 46/// ///// 1//// 90606 22200 00153 11301 20801 321// 41301 70007
BBXX 46239 15061 99363 71221 46/// ///// 1//// 90621 22200 00130 11304 21002 330// 41303 70018
BBXX 46214 15061 99379 71235 46/// ///// 1//// 90625 22200 00117 11403 21001 329// 41403 70017
BBXX 46219 15061 99332 71199 46/// ///// 1//// 90628 22200 00136 11403 20902 331// 41402 70015
BBXX 44022 15061 99409 70737 46/// ///03 10086 20042 40257 90630 22200 00091 333 91205 555 11036 22036
BBXX 46215 15061 99352 71209 46/// ///// 1//// 90608 22200 00156 11402 21001 326// 41402 70010
BBXX 46237 15061 99378 71226 46/// ///// 1//// 90610 22200 00112 11303 21001 325// 41302 70013
BBXX 46249 15061 99338 71197 46/// ///// 1//// 90615 22200 00146 11301 21001 319// 41301 70007
BBXX 46213 15061 99403 71247 46/// ///// 1//// 90624 22200 00097 11305 20504 328// 41304 70027
BBXX 46229 15061 99438 71246 46/// ///// 1//// 90621 22200 00103 10806 20805 328// 41203 70032
BBXX 46247 15061 99378 71228 46/// ///// 1//// 90621 22200 00122 11303 21001 329// 41302 70014
BBXX 46243 15061 99462 71241 46/// ///// 1//// 90629 22200 00085 10705 20704 326// 41302 70024
BBXX 46225 15061 99329 71174 46/// ///// 1//// 90614 22200 00154 11201 21001 322// 41201 70007
BBXX 46212 15061 99408 71243 46/// ///// 1//// 90612 22200 00094 11304 20903 330// 41303 70020
BBXX 46232 15061 99325 71174 46/// ///// 1//// 90608 22200 00148 11002 21002 325// 41201 70009
BBXX C6TQ6 15064 99168 70874 41697 30622 10260 20232 40150 53010 70211 8396/ 22233 00270 20204 30505 40202 50102 6//// 80240 ICE /////
BBXX 3EIU9 15064 99015 11045 41297 53310 10280 20240 40100 58020 70250 85246 90610 22223 00265 1//// 2//// 332// 40304 5//// 6//// 80250 /////
BBXX 44040 15061 99410 70736 46/// /1903 10081 20044 40266 90619 22200 1//00 70001 333 91203 555 11031 22036
BBXX 41052 15061 99183 70648 46/// /0306 10265 40104 90630 333 91208
BBXX 41052 15061 99183 70648 46/// /0307 10265 40105 90620 333 91209
BBXX 41052 15061 99183 70648 46/// /0306 10266 40105 90610 333 91208
BBXX 41053 15061 99185 70661 46/// /0308 10239 40119 90630 333 91210
BBXX 41053 15061 99185 70661 46/// /0107 10249 40118 90620 333 91209
BBXX 41053 15061 99185 70661 46/// /3608 10251 40119 90610 333 91209
BBXX 44032 15061 99437 70694 46/30 /1705 10048 40256 58020 90604 22200 00090 333 91207 555 11060 22062
BBXX 44024 15061 99423 70659 46/30 /0703 10051 40265 58006 90604 22200 00087 11104 70022 333 91204 555 11028 22028
BBXX 42085 15061 99179 70665 46/// /0306 10259 40113 90630 333 91207
BBXX 42085 15061 99179 70665 46/// /0305 10261 40113 90620 333 91206
BBXX 42085 15061 99179 70665 46/// /0204 10263 40114 90610 333 91206
AAXX 15064 78988 01480 50518 10244 20238 30096 40107 57011 60121 72582 85271 333 58004 60107 85814
AAXX 15064 78990 01/// /0100 10264 20233 30104 57014 60001 70000 333 58000 60007
AAXX 15064 78873 01/// /3502 10227 20212 30069 57016 60001 70000 333 59004 60007
AAXX 15064 78988 01480 50518 10244 20238 30096 40107 57011 60121 72582 85271 333 58004 60107 85814
AAXX 15064 78990 01/// /0100 10264 20233 30104 57014 60001 70000 333 58000 60007
AAXX 15064 78873 01/// /3502 10227 20212 30069 57016 60001 70000 333 59004 60007
AAXX 15064 78988 01480 50518 10244 20238 30096 40107 57011 60121 72582 85271 333 58004 60107 85814
AAXX 15064 78990 01/// /0100 10264 20233 30104 57014 60001 70000 333 58000 60007
AAXX 15064 78873 01/// /3502 10227 20212 30069 57016 60001 70000 333 59004 60007
AAXX 15061 45032 36/// /3503 10233 20068 30167 40184 54000
AAXX 15061 45035 36/// /0004 10213 20119 30139 40181 57002
AAXX 15061 45039 36/// /0303 10218 20088 30164 40178 57001
AAXX 15061 45044 36/// /2002 10237 20129 30085 40177 57001
AAXX 15061 45032 36/// /3503 10233 20068 30167 40184 54000
AAXX 15061 45035 36/// /0004 10213 20119 30139 40181 57002
AAXX 15061 45039 36/// /0303 10218 20088 30164 40178 57001
AAXX 15061 45044 36/// /2002 10237 20129 30085 40177 57001
AAXX 15064 47407 11/60 52518 11021 21092 39882 40058 50004 60021 72682 85300
AAXX 15064 47891 12/65 7//// 10134 2//// 3//// 4//// 5//// 60001 86230
AAXX 15061 40001 32970 30304 10034 20012 40221 53008 83050 333 20054 30/// 83360
AAXX 15061 40007 31923 41701 10029 20013 40250 53012 71000 84050 333 20006 31/// 84360
AAXX 15061 40025 32965 30302 10062 20023 4205 52016 80002 333 20050 30/// 83070
AAXX 15061 40045 31540 60000 10039 20016 40242 53006 71010 83860 333 20019 30/// 83830 85360
AAXX 15061 40061 32570 72802 10040 21013 40224 52015 82550 333 20036 30/// 82630 86360
AAXX 15061 40080 32565 50903 10066 21018 39484 40203 53009 83230 333 20046 30/// 83826 84360
AAXX 15061 40087 NIL
AAXX 15061 40095 NIL
AAXX 15061 40009 NIL
AAXX 15061 40016 32970 40000 10040 20029 40263 53006 80001 333 20029 31/// 84070
AAXX 15061 40022 32965 00401 10102 20054 40195 53008 222// 20000 333 20095 30///
AAXX 15061 40030 31/02 90000 10023 20018 40240 52015 74044 89/// 333 20015 31/// 89/05
AAXX 15061 40039 31/09 90000 10020 20015 40236 53013 74142 89/// 333 20009 31/// 98/07
AAXX 15061 40066 32570 50603 10080 20019 40199 53015 82530 333 20080 30/// 82626 85360
AAXX 15061 40072 32570 60000 10040 21002 40248 53004 83550 333 20016 30/// 83630 86360
AAXX 15061 40083 32570 50000 10020 21034 48494 53008 83550 333 20006 30/// 83630 85360
BBXX A8SZ5 15064 99083 11204 41498 40613 10300 20260 40050 56020 703// 841// 22243 00/// 2//03 80270
BBXX DHDH 15064 99057 10839 41397 70528 10270 20243 40093 5//// 76061 87778 22223 00270 20505 80250
BBXX VVPG 15063 99191 10726 41798 43503 10300 20272 40125 51007 70201 84021 22200 00/// 2////
BBXX DQVN 15063 99147 11123 41498 40514 10280 20239 40125 58015 7//// 842// 22252 00266 20403 306// 40604 80250
BBXX DDZF2 15064 99058 10840 41397 80532 10270 20243 40100 56010 70322 85474 22224 00290 20805 305// 40804 80250
BBXX A8CQ5 15063 99004 30856 41597 62710 10290 20/// 40100 54000 70311 8674/ 22214 04300 2////
BBXX 9VDD3 15064 99469 71710 41393 52720 10020 20/// 49900 51040 70088 85/// 22234 00070 20108 80010
BBXX VRAR7 15063 99283 11432 41398 82606 10230 20195 40135 56010 70222 88500 22254 00217 20301 312// 41103 80205
BBXX VRBQ6 15064 99336 71636 41398 82716 10210 20147 40144 52015 70222 885// 22225 00205 2//// 80170
BBXX 9VDD2 15064 99432 11471 41597 83223 10030 20010 40040 56010 75022 88621 22254 04020 20806 32222 40806 50804 85020
BBXX ELZU8 15063 99015 11044 41598 63611 10305 20237 40080 58005 70222 85265 22200 00/// 20102 303// 40303 80255
BBXX ZCBV4 15064 99100 30807 41498 23404 10322 20291 40119 52006 70200 81162 22253 00306 20401 316// 41003 80298
BBXX A8HJ2 15063 99043 30851 41/98 42307 10300 20260 40105 51015 701// 81568 22214 00/// 20000 80270
BBXX A8GA5 15064 99207 10696 41497 30206 10250 20207 40165 52010 71000 8317/ 22263 04260 20301 80220
BBXX ~KNH5A06`KQDITBZ< 41219 10290 20278 40119 58009 70322 82016 22234 04293 20601 80281
---BAD 06c84441.IN
AAXX 15064 89610 46/// /0422 11029 39608 4//// 5//// 333 90700 91127
AAXX 15064 89610 46/// /0422 11029 39608 4//// 5//// 333 90700 91127
AAXX 15064 89610 46/// /0422 11029 39608 4//// 5//// 333 90700 91127
AAXX 15064 41958 31940 03604 10195 20150 30158 40160 70500 333 59007 70000
AAXX 15061 01271 17984 71505 10062 21029 39736 49756 51014 60004 700// 333 20058 42998 91115
AAXX 15061 01415 17667 32707 10081 20040 39817 49827 53026 6//// 700// 333 20051 70060 91114
AAXX 15064 71793 16/// ///// 11139 21156 60001 333 11026 21148 70000
AAXX 15064 71565 17/// /0000 11192 21208 69961 7//4/ 333 11027 21194 70016 555 33217 40101
AAXX 15064 71566 16/// /1302 11109 21128 60001 333 11004 21117 70000 555 33023 40071
AAXX 15064 71567 16/// /0404 11094 21114 60001 333 11028 21094 70000 555 33229 40132
AAXX 15064 71073 16/// /1305 11062 21098 60001 333 11033 21098 70000 555 33524 40161
AAXX 15064 71848 16/// ///// 11061 21099 60001 333 11009 21118 70000
AAXX 15064 71012 16/// /2705 11115 21127 60001 333 11029 21133 70000 555 32927 40191
AAXX 15064 71013 16/// ///// 11138 21152 60001 333 11026 21150 70000
AAXX 15064 71060 16/// /2801 11123 21128 38629 40235 56007 60001 333 11013 21126 70000
AAXX 15064 71495 16/// /2103 11092 21117 60001 333 10010 21092 70000 555 33224 40081
AAXX 15064 71974 46/// /2004 11203 21219 30084 40128 58002 6///1 333 11191 21285 7//// 555 32417 40021
AAXX 15064 71399 16/// ///// 11126 21146 60001 333 11022 21142 70000
AAXX 15064 89646 46/// /0103 11192 29062 37544 4//// 5////
AAXX 15064 89648 46/// /2405 11229 29064 37091 4//// 5////
AAXX 15064 89659 46/// /2602 11171 29052 37604 4//// 5////
AAXX 15064 89661 46/// /0805 11063 29077 39171 4//// 5////
AAXX 15064 89662 42980 03304 11004 21156 39699 49803 57001 222 ICE 98015 333 10013
AAXX 15064 89666 46/// /1203 11039 29059 39626 4//// 5////
AAXX 15064 71848 16/// ///// 11061 21099 60001 333 11009 21118 70000
AAXX 15064 71793 16/// ///// 11139 21156 60001 333 11026 21148 70000
AAXX 15064 71012 16/// /2705 11115 21127 60001 333 11029 21133 70000 555 32927 40191
AAXX 15064 71013 16/// ///// 11138 21152 60001 333 11026 21150 70000
AAXX 15064 71060 16/// /2801 11123 21128 38629 40235 56007 60001 333 11013 21126 70000
AAXX 15064 71565 17/// /0000 11192 21208 69961 7//4/ 333 11027 21194 70016 555 33217 40101
AAXX 15064 71566 16/// /1302 11109 21128 60001 333 11004 21117 70000 555 33023 40071
AAXX 15064 71567 16/// /0404 11094 21114 60001 333 11028 21094 70000 555 33229 40132
AAXX 15064 71974 46/// /2004 11203 21219 30084 40128 58002 6///1 333 11191 21285 7//// 555 32417 40021
AAXX 15064 71073 16/// /1305 11062 21098 60001 333 11033 21098 70000 555 33524 40161
AAXX 15064 71399 16/// ///// 11126 21146 60001 333 11022 21142 70000
AAXX 15064 71495 16/// /2103 11092 21117 60001 333 10010 21092 70000 555 33224 40081
BBXX 46004 15061 99509 71361 46/// /1904 10062 40180 52005 22200 00079 11204 70019 333 91206
BBXX 46036 15061 99484 71339 46/// /3106 10074 40206 52028 22200 00086 11404 70020 333 91208
BBXX 46246 15061 99500 71451 46/// ///// 1//// 90559 22200 00075 11709 20707 328// 41706 70045
AAXX 15061 01025 17/84 /0203 10028 21027 39779 49790 52007 60002 700// 333 20018 43025 70000 91108
AAXX 15061 01311 47679 82305 10059 20037 39735 49796 53027 781// 333 20042 91113
BBXX 46246 15061 99500 71451 46/// ///// 1//// 90629 22200 00075 11508 20807 328// 41505 70042
BBXX 46241 15061 99330 71173 46/// ///// 1//// 90611 22200 00147 11201 20701 325// 41201 70005
BBXX DDJU2 15063 99120 10453 41597 40817 10272 20189 40176 52020 70511 84100 22265 04270 20503 309// 40804 5//// 80218
BBXX 46216 15061 99343 71198 46/// ///// 1//// 90627 22200 00143 11401 20801 327// 41401 70006
BBXX 46223 15061 99335 71178 46/// ///// 1//// 90630 22200 00155 11301 20901 319// 41301 70006
BBXX 46231 15061 99327 71174 46/// ///// 1//// 90624 22200 00148 11202 20701 325// 41201 70009
BBXX 46222 15061 99336 71183 46/// ///// 1//// 90626 22200 00152 11301 21001 317// 41301 70006
BBXX 46242 15061 99332 71174 46/// ///// 1//// 90628 22200 00149 11301 20701 323// 41301 70006
AAXX 15064 78988 01480 50518 10244 20238 30096 40107 57011 60121 72582 85271 333 58004 60107 85814
AAXX 15064 78990 01/// /0100 10264 20233 30104 57014 60001 70000 333 58000 60007
AAXX 15064 78873 01/// /3502 10227 20212 30069 57016 60001 70000 333 59004 60007
BBXX 44099 15061 99369 70757 46/// ///// 1//// 90622 22200 00127 11002 21002 310// 41101 70010
AAXX 15061 89063 41/94 90209 10005 21002 39995 40006 57011 77272
AAXX 15061 02935 11260 71204 10018 20014 39778 49950 57028 60012 780// 87/// 333 10026 20015 3/000 4/014
AAXX 15061 02924 11259 81102 10018 20017 39739 49934 57023 69984 761// 88/// 333 10022 20016 3/001 4/014
AAXX 15061 02981 12399 32709 10044 20030 39898 49908 54001 60052 700// 83/// 333 10066 20044 3////
AAXX 15061 02849 11481 81604 10013 21003 39695 49966 54001 60014 763// 88/// 333 10013 20000 3//// 4/012
BBXX 62304 15064 99511 10018 46/98 /2334 10080 20037 49959 56011 22200 00119 10703 70016 333 90710 91145
BBXX 63106 15064 99610 10017 46/// /2923 10065 49759 53024 22200
BBXX 63113 15064 99610 10017 46/// /2920 10068 20025 49771 52023 22200 10706 70032
BBXX 62107 15064 99501 70061 46/// /3045 10094 20041 40021 52025 22200 00115 11114 70072 333 90710 91156
BBXX 63110 15063 99595 10015 41/98 /2730 10071 20033 49800 72586 8//// 22200 10907 70035
BBXX 62103 15064 99499 70029 46/98 /2938 10098 20038 40000 52029 22200 00124 11112 70060 333 90710 91153
BBXX 63119 15064 99583 10009 41498 52825 10073 20030 49837 52021 70222 852// 22200 20303 326// 40505 5////
BBXX TBWUK30 15063 99458 70036 41597 42739 10100 20054 40136 54000 76766 8/440 22272 00110 20612 32733 41212 51010 80079
AAXX 15064 97378 32570 40000 10304 20243 39837 40060 56006 81102 333 56000 81820 83080
AAXX 15064 68424 32982 01707 10152 20021 39213 48522 53000 333 20082 91011 555 10278 91018
AAXX 15064 63612 32980 10000 10262 20202 40138 81030 333 20206 59001 81359
AAXX 15064 63661 32480 30503 10174 20141 48550 81101 333 20108 58007 81818
AAXX 15064 63708 32580 21203 10223 20184 48516 81933 333 20171 58003 81922
AAXX 15064 63714 32480 10000 10182 20118 48506 81130 333 20117 58004 81818
AAXX 15064 63740 32570 10208 10197 20135 48528 81200 333 20135 58002 81820
AAXX 15064 63772 12580 50702 10290 20253 60014 85200 333 20225 85821
AAXX 15064 63820 32580 53604 10294 20240 40136 85200 333 20239 85822
AAXX 15064 63671 NIL
AAXX 15064 63688 NIL
AAXX 15064 63695 NIL
AAXX 15064 63723 NIL
AAXX 15064 63793 NIL
AAXX 15064 96529 32460 50000 10314 20257 30049 40073 57033 83131 333 56000 83818
BBXX 46221 15061 99339 71186 46/// ///// 1//// 90615 22200 00149 11401 20701 321// 41401 70006
AAXX 15061 01257 11470 62104 10053 21028 39596 49751 52011 60002 70321 86460 333 20052 70000 91115
BBXX 41112 15061 99307 70813 46/// ///// 1//// 90622 22200 00168 11102 21002 311// 41101 70010
AAXX 15064 71383 16/// ///// 11066 21087 39563 40187 58028 60001 333 11065 21320 70000
AAXX 15064 71051 46/// ///// 11074 21084 6///1 333 7////
AAXX 15064 71057 16/// ///// 11071 21094 60001 333 11017 21132 70000
AAXX 15064 71070 16/// ///// 11053 21062 60001 333 11004 21158 7////
AAXX 15064 71089 16/// ///// 11077 21100 60001 333 11022 21092 70000
AAXX 15064 71409 16/// ///// 11059 21071 60001 333 11018 21129 70000
AAXX 15064 71006 16/// /2504 11127 21142 60001 333 11024 21136 70000 555 33223 40201
AAXX 15064 71007 17/// ///// 11106 21118 69981 7//4/ 333 11016 21141 70017
AAXX 15064 71008 16/// /2204 11052 21089 60001 333 11027 21210 70000 555 33528 40102
AAXX 15064 71009 16/// /1601 11082 21097 60001 333 11028 21151 70000 555 33423 40141
AAXX 15064 71035 16/// ///// 11087 21104 60001 333 11021 21140 70000
AAXX 15064 71039 46/// /0000 11264 6///1 333 11215 21291 7////
AAXX 15064 71102 16/// ///// 11076 21105 60001 333 11031 21090 70000
AAXX 15064 71105 16/// ///// 11066 21082 60001 333 11022 21190 70000
AAXX 15064 71502 16/// /0604 11243 21262 30161 40178 57004 60001 333 11243 21285 70000
AAXX 15064 71509 16/// /1603 11092 21092 60001 333 10004 21095 70000 555 32523 40091
AAXX 15064 71517 16/// /2302 11119 21128 60001 333 10003 21132 70000 555 32732 40092
AAXX 15064 71518 16/// /1004 11056 21074 60001 333 11014 21156 70000
AAXX 15064 71519 16/// /1303 11051 21064 60001 333 11016 21131 70000
AAXX 15064 71520 16/// /1410 11085 21093 39487 40172 58022 60001 333 21354 70000
AAXX 15064 71521 16/// ///// 11084 21104 60001 333 11083 21305 70000
AAXX 15064 71522 46/// /1003 11078 21096 39706 40206 58027 6///1 333 11078 21150 7////
AAXX 15064 71523 16/// ///// 11050 21056 39771 40150 58039 60001 333 11028 21085 70000
AAXX 15064 71528 16/// /1302 11072 21080 60001 333 10007 21098 70000 555 32619 40091
AAXX 15064 71433 46/// /1307 10039 20038 39772 49999 58041 6///1 333 10040 20028 7//// 555 31522 40171
AAXX 15064 71789 16/// ///// 11103 21116 60001 333 10002 21103 70000
AAXX 15064 71791 16/// /2203 11095 21113 60001 333 11022 21096 70000 555 33032 40202
AAXX 15064 71794 16/// ///// 11135 21147 60001 333 11027 21138 70000
AAXX 15064 71795 16/// ///// 11118 21125 60001 333 11026 21125 70000
AAXX 15064 71796 16/// ///// 11138 21149 60001 333 11027 21141 70000
AAXX 15064 71841 16/// /1901 10003 21001 39630 40024 58025 60001 333 10012 21042 70000 555 10010
AAXX 15064 71841 16/// /1901 10003 21001 39630 40024 58025 60001 333 10012 21042 70000 555 10010
AAXX 15064 71433 46/// /1307 10039 20038 39772 49999 58041 6///1 333 10040 20028 7//// 555 31522 40171
AAXX 15064 48329 31958 03303 10266 20162 39804 40141 57024 70500 333 58005
AAXX 15064 48352 31558 10705 10293 20173 39931 40129 57034 70510 81101 333 59019
AAXX 15064 48380 32960 00000 10303 20182 30033 40126 57030 333 59016
AAXX 15064 48465 31958 20208 10309 20189 30105 40109 57023 70500 80005 333 59014
BBXX C6JE5 15063 99130 30755 41498 61410 10290 20248 40100 70111 8526/ 22253 04300 20203 314// 40203 5//// 80260
AAXX 15064 63695 32480 50000 10213 20119 83130 333 20125 83817 83358
AAXX 15064 62002 32960 32310 10100 20041 39542 48586 51001 80008 333 20095 50454 55098 83270
AAXX 15064 62012 32560 42105 10133 20098 30238 40268 54001 81130 333 20127 50294 81825 83358
AAXX 15064 62016 32560 50000 10108 20088 40295 52005 82202 333 20103 50314 55046 82825 84070
AAXX 15064 62124 32960 20000 10065 20032 39750 40262 51008 80004 333 20064 50454 55097 82070
AAXX 15064 62161 32970 00000 10080 20033 40248 53016 333 20075 50304 55093
AAXX 15064 62259 32970 00000 10023 21002 40272 53011 333 20022 50324 55098
AAXX 15064 62271 32970 00111 10095 20051 40283 53012 333 20087 50414 55///
BBXX V2OT9 15063 99373 10035 41297 62722 10175 20151 40245 53015 70322 85700 22263 220304 30000 4//// 5//// 80160
BBXX VRFJ6 15064 99197 31547 41698 61323 10330 20249 40086 56020 70200 838// 22284 00262 20502 316// 40501 80270
BBXX VRFJ6 15064 99197 31547 41698 61323 10330 20249 40086 56020 70200 838// 22284 00262 20502 316// 40501 80270
BBXX C6JE5 15063 99130 30755 41498 61410 10290 20248 40100 70111 8526/ 22253 04300 20203 314// 40203 5//// 80260
AAXX 15063 64458 31930 70000 10215 20200 39716 40104 70022 8707/ 333 0//00 20196 50314 55/// 58021 87362
BBXX VRFJ6 15064 99197 31547 41698 61323 10330 20249 40086 56020 70200 838// 22284 00262 20502 316// 40501 80270
BBXX VRFJ6 15064 99197 31547 41698 61323 10330 20249 40086 56020 70200 838// 22284 00262 20502 316// 40501 80270
BBXX VRIB2 15064 99252 10577 41998 /3305 10220 20158 40217 50020 70200 8//// 22235 0//// 20201 310// 41601 80180
BBXX VRIB2 15064 99252 10577 41998 /3305 10220 20158 40217 50020 70200 8//// 22235 0//// 20201 310// 41601 80180
BBXX AMOUK19 15064 99598 70012 46/// ///// 10071 20027 39804 49807 52014 90550
BBXX BATFR04 15064 99597 70110 44598 43516 10064 21018 49878 53017 70211 842// 22200 00102 335// 40410 5////
BBXX 64045 15064 99591 70117 46/// /3409 10067 20000 49884 51016 22200 00101 10808 70041
BBXX BATEU06 15064 99587 70047 46/// /2923 10074 20022 49827 52160 22264 00105
BBXX BATUK01 15064 99586 70059 46/// /3223 10069 20005 49850 53008 22281 00109
BBXX 62112 15064 99584 70002 47498 /2714 10071 20033 49838 52017 700// 22200
BBXX 62113 15064 99584 10002 47498 /2619 10072 20030 49842 52016 700// 22200
BBXX 62129 15064 99584 10003 46/// ///// 10072 20030 49839 52015 22200
BBXX 62114 15064 99583 10000 46/// /2621 10072 20031 49837 52019 22200
BBXX AMOUK27 15064 99582 70064 46/// ///// 1//// 2//// 39865 49863 52022 90550
BBXX PJAI 15064 99581 70014 47498 /2714 10077 20024 49846 52019 700// 22200
BBXX 62111 15064 99580 70003 46/// /2820 10068 20027 49859 53014 22200 10605 70023
BBXX 62117 15064 99579 10000 47697 /2618 10071 20027 49850 52019 762// 22200 10605 70026
BBXX 2AAY7 15063 99578 70010 41698 22613 10070 20047 49889 52084 7//00 81744 22212 20502 307// 40503 80060
BBXX MDGV9 15064 99560 70021 41/98 32620 10050 20025 49886 52020 70200 8274/ 22263 11002 70010 80040
BBXX DGAF 15063 99556 70220 41/97 /1505 10045 20023 49885 57015 76182 8//// 22264 00110 2//// 80035
BBXX 62105 15064 99554 70122 46/// /2915 10083 20038 49918 51013 22200 00107 11011 70054 333 90710 91130
BBXX AMOUK14 15064 99535 70030 46/// ///// 10030 20022 39875 49909 52025 90550
BBXX AMOUK12 15064 99533 70048 46/// ///// 10065 20036 39898 49937 52027 90550
BBXX BATEU02 15064 99532 70092 46/// /2819 10077 20037 49948 22262 00077
BBXX 62095 15064 99530 70159 46/// /3018 10069 20026 49998 50006 22200 00114 11013 70066 333 90710 91130
BBXX 62301 15064 99524 70047 46/// /2822 10074 20039 49946 51056 22200 00102 10707 70035 333 90710 91132
BBXX 62094 15064 99517 70067 46/// /2728 10082 20040 49976 51024 22200 00108 10910 70050 333 90710 91137
BBXX 62303 15064 99516 70051 46/// /2726 10090 20045 49968 51035 22200 00115 10810 70050 333 90710 91137
BBXX 62023 15063 99514 70079 46/97 /2827 10077 2//// 40002 5//// 22200 10811 70055 333 91148 555 70091 80008
BBXX 62081 15064 99510 70134 46/// ///// 10077 20023 40040 52006 22200 00119 11115 70073
BBXX AMOUK06 15064 99509 70014 46/// ///// 10077 20025 39934 49959 57010 90550
BBXX AMOUK09 15064 99506 70024 46/// ///// 10081 20041 39957 49977 52015 90550
BBXX BAREU12 15064 99505 70060 46/// ///// 49997 52054 22244
BBXX C6SI2 15064 99505 10003 41297 72548 10088 20052 49961 53011 71362 877// 22263 00120 20407 325// 40406 5//// 80072
BBXX 62305 15064 99504 10000 46/97 /2537 10094 20039 49975 55003 22200 00123 10807 70033 333 90710 91152
BBXX AMOUK08 15064 99501 70061 46/// ///// 10096 20050 30016 40021 52024 90550
BBXX 62103 15064 99499 70029 46/98 /2843 10088 20019 49988 52020 22200 00124 11013 70064 333 90710 91155
BBXX MCUV3 15063 99498 70027 41498 52930 10090 20069 40011 57005 75052 83465 22223 2//12 32926 4//12 5//12 80080
BBXX 62027 15064 99491 70022 46/// /2932 1//// 2//// 40032 53003 22200 00116 11409 314// 70043 333 90710 91144
BBXX 62442 15064 99490 70164 46/// /2523 1//// 2//// 40058 58023 22200 00128 333 90710 91136
BBXX TESTFR9 15064 99489 70023 46/// /2931 10098 29076 40063 52047 22234
BBXX PBEO 15063 99488 70054 41597 52634 10102 20050 40066 51006 78282 858// 22212 02117 20506 331// 40808 80076
BBXX 62029 15064 99487 70125 46/// /2421 10095 20068 40080 58016 22200 00132 11116 70079 333 90710 91129
BBXX 62163 15064 99475 70084 46/// /2722 10113 20055 40126 52007 22200 00130 11118 70089 333 90710 91135
BBXX BATFR60 15064 99475 70040 46/// /2847 10109 20037 40098 51027 22272 00122
BBXX DPLE 15063 99462 70193 41/97 82725 10135 20109 40115 57040 75865 8//// 22214 00140 20606 331// 41214 80120
BBXX 62001 15064 99452 70050 46/// /2727 10131 20078 40182 52011 22200 00148 11117 70085 333 90710 91141
BBXX PCIH 15063 99447 70086 41397 82840 10140 20085 40200 57020 70222 22214 00150 20510 328// 41412 80110
BBXX WGAX 15064 99430 70128 41798 52435 10145 2009/ 40200 54000 7//21 8444/ 22253 00150 2//// 3//// 4//// 5//// 6//// 80115
BBXX VRFX8 15064 99413 70278 41598 32124 10160 20140 40170 57020 70122 8//// 22254 00140 2//// 3//// 4//// 80150
BBXX ZCBF3 15063 99402 70205 41297 42130 10160 20103 40269 7//// 8/775 22263 20103 321// 40208 5//// 80130
BBXX BAREU05 15064 99402 70204 46/// ///// 40268 57023 22263
BBXX ZCBD3 15063 99394 70269 41297 81926 10182 20146 40241 55021 7//22 887// 22224 21705 332// 41006 5//// 80161
BBXX WKDY 15063 99393 70249 41497 82224 10130 20121 40249 57009 72065 8877/ 22224 00176 20306 333// 40609 5//// 6//// 80125
BBXX DBBH 15061 99384 70108 41498 73003 10150 20079 40318 52005 70311 87500 22200 04167
BBXX DDZA2 15064 99381 70103 41/98 33110 10150 20076 40305 52005 70111 8//// 22273 04170 2//// 80110
BBXX BATFR54 15064 99380 70096 46/// /3310 10154 20077 4//// 22283 00164
BBXX A8JI2 15064 99369 70264 41297 82124 10190 20159 40250 57020 70222 8/7// 22254 20402 322// 41406 5//// 80170
BBXX SHIP 15064 99368 70122 41697 53119 10160 20067 40330 56005 70301 85134 90545 22234 0//// 1//// 21109 333// 4//// 5//// 6//// 80110 /////
BBXX BATFR09 15064 99368 70005 44998 62912 10170 20135 40266 53018 70211 80005 22263 00179 20306 60//0 ICE 0/0//
BBXX PEBT 15063 99368 10000 41398 23416 10170 20154 40260 53020 7//11 822// 22263 02149 20302 327// 40502 5//// 80160
AAXX 15061 28214 11997 81102 11118 21124 30073 40299 54000 69940 77172 8802/ 333 21192
AAXX 15061 89063 41/94 90209 10005 21002 39995 40006 57011 77272
BBXX VRHO2 15064 99471 11594 41796 82828 10025 21042 40020 52025 78062 8644/ 22254 00040 20401 332// 41005 50000 65004 80000 ICE /////
BBXX WCF3012 15064 99445 70828 41/94 81725 10070 40040 74545 22243 00070 20403
BBXX BAREU56 15064 99444 10089 46/// ///// 40133 22200
BBXX BATEU09 15064 99438 10088 46/// /2234 10149 20079 40127 52010 22212 00167
BBXX BAREU60 15064 99436 10135 46/// ///// 40149 54000 22252
BBXX 61001 15064 99434 10078 46/// /2530 10142 20050 40150 54000 22200 00158 10604 70022 555 1/040
BBXX BATFR46 15064 99429 10048 44998 12918 10142 20070 40207 53009 701// 81//1 22213 00159
BBXX BATFR24 15064 99427 10095 46/// /2730 10160 20057 40160 58002 22261 00165
BBXX BATFR21 15064 99426 10089 46/// /2321 20167 40176 57001 22200
BBXX 61002 15064 99421 10047 46/// ///08 10142 2//// 40210 52010 22200 00164 10602 70009
BBXX BATFR20 15064 99414 10094 46/// /0638 10154 20107 40175 58016 22284
BBXX BAREU62 15064 99413 10122 46/// ///// 40184 57005 22274
BBXX BAREU51 15064 99404 10118 46/// ///// 40188 57006 22275
BBXX PFFH 15063 99379 10162 41/98 /2905 10152 40223 52003 7//// 8//// 22253 00166 2////
BBXX AUTQ 15064 99376 10100 42/97 52813 10170 20138 40186 54000 85011 22274 00200 20203
BBXX NWS0020 15064 99375 10094 43/// /2421 10164 20119 40229 5//// 7//// 8//// 222// 04181 2//// 3//// 4//// 5//// 6//// 8////
BBXX 8PSH 15064 99375 10106 46/// /2813 10159 20131 40236 55001 7//// 8//// 22223 0//// 2////
BBXX WKPN 15064 99374 10051 41498 72623 10160 2014/ 40250 51004 7//11 8719/ 22225 00202 20502 328// 40702 5//// 6//// 80145
BBXX UISD 15061 99371 10266 42497 53404 10120 40229 54000 8518/ 22273 00170 20201
BBXX BATFR09 15064 99368 70005 44998 62912 10170 20135 40266 53018 70211 80005 22263 00179 20306 60//0 ICE 0/0//
BBXX PEBT 15063 99368 10000 41398 23416 10170 20154 40260 53020 7//11 822// 22263 02149 20302 327// 40502 5//// 80160
BBXX PCPR 15063 99367 10009 41497 82715 10170 20146 40260 51010 76262 8577/ 22263 04160 20404 80155
BBXX VRGJ6 15063 99366 10134 41598 12807 10178 20103 40247 54000 70200 81800 22224 04188 20101 322// 40302 5//// 80138
BBXX VRCZ7 15063 99354 10179 41598 13114 10175 20111 40254 54000 70200 811// 22265 2//// 3//// 4//// 5//// 80140
BBXX WDE8264 15063 99352 10168 41298 32305 10180 20148 40265 51005 70200 8215/ 22234 00190 20202 3//// 4//// 5//// 6//// 80160
BBXX BATFR11 15064 99347 10193 46/// /2705 10169 20105 40261 53008 22223 00192
BBXX WRAH 15063 99332 10264 41598 33509 10180 2//// 40222 52007 70200 831// 22264 00191 20202 33227 40404 50502 6//// 8////
BBXX DGWD2 15063 99324 10297 41/98 33609 10176 20130 40222 52002 70200 831// 22224 00170 2//01 80148
BBXX 41112 15061 99307 70813 46/// ///// 1//// 90622 22200 00168 11102 21002 311// 41101 70010
BBXX 46221 15061 99339 71186 46/// ///// 1//// 90615 22200 00149 11401 20701 321// 41401 70006
BBXX 44099 15061 99369 70757 46/// ///// 1//// 90622 22200 00127 11002 21002 310// 41101 70010
BBXX 46242 15061 99332 71174 46/// ///// 1//// 90628 22200 00149 11301 20701 323// 41301 70006
BBXX 46222 15061 99336 71183 46/// ///// 1//// 90626 22200 00152 11301 21001 317// 41301 70006
BBXX 46231 15061 99327 71174 46/// ///// 1//// 90624 22200 00148 11202 20701 325// 41201 70009
BBXX 46216 15061 99343 71198 46/// ///// 1//// 90627 22200 00143 11401 20801 327// 41401 70006
BBXX 46223 15061 99335 71178 46/// ///// 1//// 90630 22200 00155 11301 20901 319// 41301 70006
BBXX 46241 15061 99330 71173 46/// ///// 1//// 90611 22200 00147 11201 20701 325// 41201 70005
BBXX 46246 15061 99500 71451 46/// ///// 1//// 90629 22200 00075 11508 20807 328// 41505 70042
BBXX 46246 15061 99500 71451 46/// ///// 1//// 90559 22200 00075 11709 20707 328// 41706 70045
BBXX SHIP 15064 99336 71636 41398 82716 10210 20147 40144 52015 70222 885// 22225 00205 2//// 80170
BBXX 9VDD3 15064 99469 71710 41393 52720 10020 20/// 49900 51040 70088 85/// 22234 00070 20108 80010
BBXX 41053 15061 99185 70661 46/// /0308 10239 40119 90630 333 91210
BBXX 42085 15061 99179 70665 46/// /0306 10259 40113 90630 333 91207
BBXX 41053 15061 99185 70661 46/// /0107 10249 40118 90620 333 91209
BBXX 44032 15061 99437 70694 46/30 /1705 10048 40256 58020 90604 22200 00090 333 91207 555 11060 22062
BBXX 44024 15061 99423 70659 46/30 /0703 10051 40265 58006 90604 22200 00087 11104 70022 333 91204 555 11028 22028
BBXX 41053 15061 99185 70661 46/// /3608 10251 40119 90610 333 91209
BBXX 44040 15061 99410 70736 46/// /1903 10081 20044 40266 90619 22200 1//00 70001 333 91203 555 11031 22036
BBXX 42085 15061 99179 70665 46/// /0204 10263 40114 90610 333 91206
BBXX 42085 15061 99179 70665 46/// /0305 10261 40113 90620 333 91206
BBXX 41052 15061 99183 70648 46/// /0307 10265 40105 90620 333 91209
BBXX 41052 15061 99183 70648 46/// /0306 10266 40105 90610 333 91208
BBXX 41052 15061 99183 70648 46/// /0306 10265 40104 90630 333 91208
BBXX DDJU2 15063 99120 10453 41597 40817 10272 20189 40176 52020 70511 84100 22265 04270 20503 309// 40804 5//// 80218
BBXX A8GA5 15064 99207 10696 41497 30206 10250 20207 40165 52010 71000 8317/ 22263 04260 20301 80220
BBXX C6W2032 15064 99011 10049 41498 61515 10270 2024/ 40100 54000 70200 84478 22244 00270 20404 318// 40404 5//// 6//// 80250 ICE /////
BBXX WCF3012 15064 99445 70828 41/94 81725 10070 40040 74545 22243 00070 20403
BBXX 9VDD2 15064 99432 11471 41597 83223 10030 20010 40040 56010 75022 88621 22254 04020 20806 32222 40806 50804 85020
BBXX SHIP 15063 99283 11432 41398 82606 10230 20195 40135 56010 70222 88500 22254 00217 20301 312// 41103 80205
BBXX VVPG 15063 99191 10726 41798 43503 10300 20272 40125 51007 70201 84021 22200 00/// 2////
BBXX DQVN 15063 99147 11123 41498 40514 10280 20239 40125 58015 7//// 842// 22252 00266 20403 306// 40604 80250
BBXX DDZF2 15064 99058 10840 41397 80532 10270 20243 40100 56010 70322 85474 22224 00290 20805 305// 40804 80250
BBXX A8SZ5 15064 99083 11204 41498 40613 10300 20260 40050 56020 703// 841// 22243 00/// 2//03 80270
BBXX DHDH 15064 99057 10839 41397 70528 10270 20243 40093 5//// 76061 87778 22223 00270 20505 80250
BBXX VRHO2 15064 99471 11594 41796 82828 10025 21042 40020 52025 78062 8644/ 22254 00040 20401 332// 41005 50000 65004 80000 ICE /////
BBXX 63119 15064 99583 10009 41498 52825 10073 20030 49837 52021 70222 852// 22200 20303 326// 40505 5////
BBXX TBWUK30 15063 99458 70036 41597 42739 10100 20054 40136 54000 76766 8/440 22272 00110 20612 32733 41212 51010 80079
BBXX VRFJ6 15064 99197 31547 41698 61323 10330 20249 40086 56020 70200 838// 22284 00262 20502 316// 40501 80270
BBXX C6JE5 15063 99130 30755 41498 61410 10290 20248 40100 70111 8526/ 22253 04300 20203 314// 40203 5//// 80260
BBXX A8HJ2 15063 99043 30851 41/98 42307 10300 20260 40105 51015 701// 81568 22214 00/// 20000 80270
BBXX ZCBV4 15064 99100 30807 41498 23404 10322 20291 40119 52006 70200 81162 22253 00306 20401 316// 41003 80298
BBXX ELZU8 15063 99015 11044 41598 63611 10305 20237 40080 58005 70222 85265 22200 00/// 20102 303// 40303 80255
BBXX A8CQ5 15063 99004 30856 41597 62710 10290 20/// 40100 54000 70311 8674/ 22214 04300 2////
BBXX TBWUK17 15063 99071 31038 41398 42513 10300 20261 40114 57003 70111 84772 22253 04300 20201 32020 40403 50503 80272
BBXX C6JE5 15063 99130 30755 41498 61410 10290 20248 40100 70111 8526/ 22253 04300 20203 314// 40203 5//// 80260
BBXX OUTK2 15064 99153 31087 41398 21721 10277 20254 40064 58009 70200 8/2/1 22235 00293 20402 317// 40704 80261
BBXX OVSB2 15063 99156 30026 41598 71411 10201 20121 40148 52005 70222 878// 22234 00208 20303 316// 40703 5//// 80156
BBXX MGGK4 15063 99180 30048 41498 71714 10188 20145 40166 55000 70322 8223/ 22274 00194 20301 318// 40703 5//// 80163
BBXX JPAT 15064 99185 30935 41498 22620 10250 20194 40117 57015 70260 81135 22232 00251 10703 20601 313// 40703 85212
BBXX A8YW2 15064 99300 30434 41398 30619 10260 20215 40140 53005 70511 82100 22224 00220 20804 80230
BBXX AMOUK17 15064 99331 30523 46/// ///// 10195 20116 30235 40248 52004 90550
BBXX ZDLS1 15063 99386 30147 41397 72919 10138 20110 40084 54000 70122 8677/ 22252 04123 20405 322// 40606 80123
BBXX ZSAF 15064 99560 30000 41397 82912 11007 21028 49686 51004 70255 8662/ 22233 05010 2//// 309// 40404 5////
BBXX 9VDD2 15064 99432 11471 41597 83223 10030 20010 40040 56010 75022 88621 22254 04020 20806 32222 40806 50804 85020
BBXX SHIP 15064 99310 11312 41/93 63215 10170 20100 40134 87825 22253 20403 332// 40403 80130
AAXX 15064 71797 16/// ///// 11085 21102 60001 333 11031 21093 70000
AAXX 15064 71540 16/// /1203 11136 21149 60001 333 11010 21160 70000 555 33320 40131
AAXX 15064 71544 16/// ///// 11124 21133 60001 333 11017 21125 70000
AAXX 15064 71548 16/// ///// 11091 21108 60001 333 11022 21094 70000
AAXX 15064 71481 16/// /1905 11101 21137 60001 333 11021 21123 70000
AAXX 15064 71498 16/// /1503 11062 21083 60001 333 11031 21156 70000 555 33420 40151
AAXX 15064 71346 16/// /1503 11067 21085 60001 333 11008 21134 7////
AAXX 15064 71857 16/// ///// 11125 21141 60001 333 11025 21125 70000
AAXX 15064 71413 16/// ///// 11144 21166 60001 333 11029 21148 70000
AAXX 15064 71414 17/// ///// 11111 21129 69941 7//4/ 333 11024 21111 70004
AAXX 15064 71440 16/// ///// 11077 21096 60001 333 11031 21077 70000
AAXX 15064 71674 16/// ///// 11150 21165 60001 333 11026 21153 70000
AAXX 15064 71055 46/// /0501 11304 21336 39842 40198 57014 6///1 333 11292 21392 7////
AAXX 15064 71065 16/// ///// 11090 21116 60001 333 11020 21090 70000
AAXX 15064 71245 46/// /2208 11115 21151 6///1 333 11071 21121 7//// 555 32346 40143
AAXX 15064 71249 47/// /1105 11086 21118 6///1 7//4/ 333 11023 21135 7//// 555 33430 40182
AAXX 15064 71014 16/// /1404 11121 21139 60001 333 11021 21140 70000 555 33019 40131
AAXX 15064 71360 16/// ///// 11072 21102 60001 333 11025 21087 70000
AAXX 15064 71380 16/// /1504 11176 21189 60001 333 10000 21176 70000 555 33325 40091
AAXX 15064 48334 31958 00000 10265 20139 39770 40130 57028 70500 333 59011
AAXX 15064 48451 32561 63604 10281 20186 30109 40120 57024 84509 333 59017
AAXX 15064 48454 31558 70000 10317 20179 30103 40109 56022 70522 83566 333 59013
AAXX 15064 48464 31558 73610 10285 20184 30095 40107 57020 70522 83436 333 59012
AAXX 15064 68183 11575 72206 10223 20197 39420 48515 53001 60034 72122 83570 333 20217 91009 555 10309 20035 91013
BBXX A8CQ5 15063 99004 30856 41597 62710 10290 20/// 40100 54000 70311 8674/ 22214 04300 2////
BBXX A8HJ2 15063 99043 30851 41/98 42307 10300 20260 40105 51015 701// 81568 22214 00/// 20000 80270
BBXX ZCBV4 15064 99100 30807 41498 23404 10322 20291 40119 52006 70200 81162 22253 00306 20401 316// 41003 80298
AAXX 15064 89628 46/// /3125 11281 36741 4//// 5////
AAXX 15064 78397 112570 10000 10249 20224 30117 40133 60001 81802 333 00000 10317 20235 58004 81822
AAXX 15064 DUPE
BBXX SBLW 15063 99294 70463 43/98 71833 10231 40131 56020 22254 00239 2//// 4////
BBXX SLKR 15063 99007 70982 43/96 81708 10205 40147 50001 22254 00207 20302 40000
BBXX SLCO 15064 99186 11369 43/97 70719 10258 40117 56025 22234 00268 20503 40604
AAXX 15064 78397 112570 10000 10249 20224 30117 40133 60001 81802 333 00000 10317 20235 58004 81822
AAXX 15064 DUPE
AAXX 1506/ 89108 46/// ///// 11256 36894 4//// 5//// 90630
AAXX 15064 63705 12570 73103 10220 20199 38877 48523 8293/ 333 20187 59004 82820 81923 87365 555 1 0205
AAXX 15064 89016 46/89 /1009 11099 29061 39413 4//// 5////
AAXX 15064 89003 46/89 /3223 11115 29062 38983 4//// 5////
AAXX 15064 89507 46/89 /1309 11321 29061 36786 4//// 5////
AAXX 15064 63612 32980 10000 10262 20202 40138 81030 333 20206 59001 81359
AAXX 15064 63661 32480 30503 10174 20141 48550 81101 333 20108 58007 81818
AAXX 15064 63708 32580 21203 10223 20184 48516 81933 333 20171 58003 81922
AAXX 15064 63714 32480 10000 10182 20118 48506 81130 333 20117 58004 81818
AAXX 15064 63740 32570 10208 10197 20135 48528 81200 333 20135 58002 81820
AAXX 15064 63772 12580 50702 10290 20253 60014 85200 333 20225 85821
AAXX 15064 63820 32580 53604 10294 20240 40136 85200 333 20239 5806 85822
AAXX 15064 63671 NIL
AAXX 15064 63688 NIL
AAXX 15064 63695 NIL
AAXX 15064 63723 NIL
AAXX 15064 63793 NIL
AAXX 15064 63705 12570 73103 10220 20199 38877 48523 8293/ 333 20187 59004 82820 81923 87365 555 10205
AAXX 15064 64390 12970 60206 10211 20198 39244 48508 60024 86030 333 20192 59006 86360 1015
AAXX 15064 64390 12970 60206 10211 20198 39244 48508 60024 86030 A A 333 20192 59006 86360 1015
AAXX 15064 64390 12970 60206 10211 20198 39244 48508 60024 86030 333 20192 59006 86360 1015
AAXX 15061 58968 11557 81004 10174 20155 30190 40198 57025 69951 71062 885//
AAXX 15061 58974 11560 80209 10169 20136 30078 40203 56023 69901 70262 885//
AAXX 15061 59358 31630 60102 10250 20185 30128 40159 57027 71022 86500
AAXX 15061 59559 32570 60307 10251 20191 30113 40141 57028 81130
AAXX 15061 59792 32460 60309 10240 20207 30148 40153 57022 84410
AAXX 15061 59997 12460 50506 10300 20263 30077 40088 57025 69901 83860
AAXX 15061 59158 32662 73603 10221 20155 30057 40157 57024 8553/
AAXX 15061 59562 32670 60405 10242 20189 30147 40158 57026 86500
AAXX 15061 59567 11258 80110 10197 20191 39768 40146 57027 60011 72181 885//
AAXX 15064 71424 46/// /3103 6///1 333 7//// 555 30219 40071
AAXX 15064 91844 46/// /0206 10275 40158 22200 00284
BBXX 9VDD3 15064 99469 71710 41393 52720 10020 20/// 49900 51040 70088 85/// 22234 00070 20108 80010
BBXX SHIP 15064 99336 71636 41398 82716 10210 20147 40144 52015 70222 885// 22225 00205 2//// 80170
BBXX VRBQ6 15064 99336 71636 41398 82716 10210 20147 40144 52015 70222 885// 22225 00205 2//// 80170
AAXX 15064 48324 32960 12302 10279 20151 39908 40126 55032 80001 333 59020
AAXX 15064 48427 31559 80206 10280 20174 30111 40119 57022 70522 82556 333 59015
AAXX 15063 63702 12465 70506 10182 20171 60284 8157/ 333 20160 81618 87362 555 10175
AAXX 15063 63630 12580 71803 10239 20202 48/// 60444 81946 333 20176 81620 81921 87280 555 10213
AAXX 15063 63658 32680 52704 10235 20190 38901 48530 81137 333 20190 58007 81618 85280 555 10206
AAXX 15063 63682 12482 60000 10220 20196 48/// 69924 83973 333 20175 83819 81921 85078 555 10204
AAXX 15063 63654 32460 50503 10204 20185 85960 333 82819 81920 84360 555 10192
AAXX 15063 63602 12970 72303 10205 20179 38821 48/// 69954 86031 333 20169 58007 86361 555 10188
AAXX 15063 63631 11540 62503 10224 20/// 48/// 69904 74044 81146 20140 81820 86275 555 10///
AAXX 15064 7898201480 60405 10253 20236 30096 40101 57018 69961 70182 83231 333 58000 69927 83817 85081
BBXX 62304 15064 99511 10018 46/98 /2334 10080 20037 49959 56010 22200 00119 10703 70016 333 90710 91145
BBXX AMOUK08 15064 99501 70061 46/// ///// 10096 20050 30016 40021 52024 90550
BBXX 63110 15064 99595 10015 47598 /2721 10069 20032 49802 52021 700// 22200 10707 70033
BBXX 63106 15064 99610 10017 46/// /2923 10065 49759 53024 22200
BBXX 63105 15064 99610 10017 47597 ///// 10070 20029 49758 53024 700// 22200
BBXX 62103 15064 99499 70029 46/98 /2843 10088 20019 49988 52020 22200 00124 11013 70064 333 90710 91155
BBXX AMOUK04 15064 99533 70062 46/// ///// 10053 20028 39938 4//// 52063 90550
BBXX C6FY5 15064 99059 70509 41598 21114 10240 2021/ 40110 54/// 7//00 821// 22273 04290 2//// 305// 40806 5//// 6//// 80220 ICE /////
BBXX MYNJ6 15063 99123 70724 414// 60519 10270 20256 40120 54000 7//11 86246 22253 00290 20602 30505 40602 50602 6//// 80260 ICE /////
BBXX ONFP 15064 99349 30378 43595 80324 10220 2021/ 40100 51010 7//55 88747 22223 04191 20904 30404 40904 50904 6//// 80210 ICE /////
BBXX S6SR 15064 99375 50203 41699 52111 10160 20144 40200 56010 7//22 85/4/ 22213 00180 2//02 32222 40906 50906 6//// 80150 ICE /////
BBXX MYNJ6 15063 99123 70724 414// 60519 10270 20256 40120 54000 7//11 86246 22253 00290 20602 30505 40602 50602 6//// 80260 ICE /////
BBXX SBLW 15063 99294 70463 43/98 71833 10231 40131 56020 22254 00239 2//// 4////
BBXX S6SR 15064 99375 50203 41699 52111 10160 20144 40200 56010 7//22 85/4/ 22213 00180 2//02 32222 40906 50906 6//// 80150 ICE /////
BBXX ONFP 15064 99349 30378 43595 80324 10220 2021/ 40100 51010 7//55 88747 22223 04191 20904 30404 40904 50904 6//// 80210 ICE /////
BBXX VRIB2 15064 99252 10577 41998 /3305 10220 20158 40217 50020 70200 8//// 22235 0//// 20201 310// 41601 80180
BBXX C6FY5 15064 99059 70509 41598 21114 10240 2021/ 40110 54/// 7//00 821// 22273 04290 2//// 305// 40806 5//// 6//// 80220 ICE /////
BBXX BSH03 15061 99540 10081 46/// ///// 22200 00068 21005 70025
BBXX BSH05 15061 99550 10079 46/// ///// 22200 21005 70026
BBXX BSH02 15061 99542 10079 46/// ///// 22200 00084 21107 70033
BBXX V7QX2 15064 99074 10773 41796 83319 10280 2028/ 40100 54/// 7//// 8/67/ 22272 00290 20302 327// 4//// 5//// 6//// 80280 ICE /////
BBXX SLCO 15064 99186 11369 43/97 70719 10258 40117 56025 22234 00268 20503 40604
OOXX AUP04 15051 99377 31451 ///// 00311 26/// /2603 10232 29048 30104 90506 333 60000
OOXX AUP04 15051 99377 31451 ///// 00311 26/// /2603 10234 29048 30105 90516 333 60000
OOXX AUP04 15051 99377 31451 ///// 00311 26/// /2603 10233 29049 30103 90526 333 60000
OOXX AUP04 15051 99377 31451 ///// 00311 26/// /2503 10231 29050 30102 90536 333 60000
OOXX AUP04 15051 99377 31451 ///// 00311 26/// /2303 10237 29049 30101 90546 333 60000
OOXX AUP04 15051 99377 31451 ///// 00311 26/// /2303 10230 29051 30101 90556 333 60000
OOXX AUP04 15061 99377 31451 ///// 00311 26/// /2303 10234 29050 30100 90606 333 60000
OOXX AUP04 15061 99377 31451 ///// 00311 26/// /2303 10228 29053 30100 90616 333 60000
OOXX AUP04 15061 99377 31451 ///// 00311 26/// /2303 10228 29053 30100 90626 333 60000
OOXX AUP04 15061 99377 31451 ///// 00311 26/// /2203 10226 29054 30101 90636 333 60000
OOXX AUP04 15061 99377 31451 ///// 00311 26/// /2203 10218 29056 30101 90646 333 60000
OOXX AUP04 15061 99377 31451 ///// 00311 26/// /2303 10217 29060 30101 90656 333 60000
OOXX NOP49 15041 99782 10154 ///// 04691 26/// /1115 11111 29083 39452 90410 333 6///0
OOXX NOP49 15041 99782 10154 ///// 04691 26/// /1115 11112 29084 39452 90420 333 6///0
OOXX NOP49 15041 99782 10154 ///// 04691 26/// /1016 11110 29084 39450 90430 333 6///0
OOXX NOP49 15041 99782 10154 ///// 04691 26/// /1017 11109 29084 39447 90440 333 6///0
OOXX NOP49 15041 99782 10154 ///// 04691 26/// /0917 11109 29085 39440 90450 333 6///0
OOXX NOP49 15051 99782 10154 ///// 04691 26/// /0916 11106 29083 39445 90500 333 6///0
OOXX NOP49 15051 99782 10154 ///// 04691 26/// /0916 11112 29082 39446 90510 333 6///0
OOXX NOP49 15051 99782 10154 ///// 04691 26/// /0913 11108 29080 39446 90520 333 6///0
OOXX NOP49 15051 99782 10154 ///// 04691 26/// /0815 11111 29078 39446 90530 333 6///0
OOXX NOP49 15051 99782 10154 ///// 04691 26/// /0916 11113 29078 39439 90540 333 6///0
OOXX NOP49 15051 99782 10154 ///// 04691 26/// /0916 11112 29077 39443 90550 333 6///0
OOXX NOP49 15061 99782 10154 ///// 04691 26/// /0918 11114 29077 39438 90600 333 6///0
OOXX RUP59 15041 99539 10848 ///// 02121 26/// /0000 11126 29069 39984 90440 333 60000
OOXX RUP59 15041 99539 10848 ///// 02121 26/// /0000 11129 29068 39984 90450 333 60000
OOXX RUP59 15051 99539 10848 ///// 02121 26/// /0501 11135 29072 39983 90500 333 60000
OOXX RUP59 15051 99539 10848 ///// 02121 26/// /0101 11133 29070 39984 90510 333 60000
OOXX RUP59 15051 99539 10848 ///// 02121 26/// /0000 11122 29070 39983 90520 333 60000
OOXX RUP59 15051 99539 10848 ///// 02121 26/// /0000 11113 29067 39977 90530 333 60000
OOXX RUP59 15051 99539 10848 ///// 02121 26/// /3101 11113 29067 39977 90540 333 60000
OOXX RUP59 15051 99539 10848 ///// 02121 26/// /0000 11107 29065 39978 90550 333 60000
OOXX RUP59 15061 99539 10848 ///// 02121 26/// /0000 11106 29067 39979 90600 333 60000
OOXX RUP59 15061 99539 10848 ///// 02121 26/// /0000 11097 29064 39977 90610 333 60000
OOXX RUP59 15061 99539 10848 ///// 02121 26/// /0000 11099 29063 39978 90620 333 60000
OOXX RUP59 15061 99539 10848 ///// 02121 26/// /0401 11098 29061 39978 90630 333 60000
OOXX GBP67 15041 99159 50057 ///// 04381 26/// /1003 10154 29095 39658 90410 333 60000
OOXX GBP67 15041 99159 50057 ///// 04381 26/// /1003 10151 29097 39658 90420 333 60000
OOXX GBP67 15041 99159 50057 ///// 04381 26/// /0904 10149 29097 39658 90430 333 60000
OOXX GBP67 15041 99159 50057 ///// 04381 26/// /0904 10147 29095 39659 90440 333 60000
OOXX GBP67 15041 99159 50057 ///// 04381 26/// /0903 10149 29095 39658 90450 333 60000
OOXX GBP67 15051 99159 50057 ///// 04381 26/// /0903 10152 29094 39658 90500 333 60000
OOXX GBP67 15051 99159 50057 ///// 04381 26/// /0903 10153 29093 39660 90510 333 60000
OOXX GBP67 15051 99159 50057 ///// 04381 26/// /0903 10154 29092 39661 90520 333 60000
OOXX GBP67 15051 99159 50057 ///// 04381 26/// /0803 10157 29083 39661 90530 333 60000
OOXX GBP67 15051 99159 50057 ///// 04381 26/// /0804 10157 29079 39660 90540 333 60000
OOXX GBP67 15051 99159 50057 ///// 04381 26/// /0804 10157 29075 39661 90550 333 60000
OOXX GBP67 15061 99159 50057 ///// 04381 26/// /0904 10158 29075 39663 90600 333 60000
OOXX CAP17 15031 99476 70527 ///// 01331 26/// /3404 11044 29068 30084 90350 333 60000
OOXX CAP17 15041 99476 70527 ///// 01331 26/// /3404 11044 29068 30085 90400 333 60000
OOXX CAP17 15041 99476 70527 ///// 01331 26/// /3404 11045 29069 30086 90410 333 60000
OOXX CAP17 15041 99476 70527 ///// 01331 26/// /3404 11045 29068 30087 90420 333 60000
OOXX CAP17 15041 99476 70527 ///// 01331 26/// /3404 11046 29068 30084 90430 333 60000
OOXX CAP17 15041 99476 70527 ///// 01331 26/// /3403 11047 29067 30087 90440 333 60000
OOXX CAP17 15041 99476 70527 ///// 01331 26/// /3404 11047 29068 30085 90450 333 60000
OOXX CAP17 15051 99476 70527 ///// 01331 26/// /3204 11048 29067 30086 90500 333 60000
OOXX CAP17 15051 99476 70527 ///// 01331 26/// /3203 11048 29068 30086 90510 333 60000
OOXX CAP17 15051 99476 70527 ///// 01331 26/// /3303 11048 29068 30087 90520 333 60000
OOXX CAP17 15051 99476 70527 ///// 01331 26/// /3103 11049 29068 30090 90530 333 60000
OOXX CAP17 15051 99476 70527 ///// 01331 26/// /3202 11048 29069 30090 90540 333 60000
OOXX FRP30 15041 99493 30703 ///// 00361 26/// /2508 10122 29066 30078 90457 333 60000
OOXX FRP30 15051 99493 30703 ///// 00361 26/// /2508 10125 29066 30078 90507 333 60000
OOXX FRP30 15051 99493 30703 ///// 00361 26/// /2509 10125 29066 30078 90517 333 60000
OOXX FRP30 15051 99493 30703 ///// 00361 26/// /2307 10123 29068 30077 90527 333 60000
OOXX FRP30 15051 99493 30703 ///// 00361 26/// /2207 10117 29072 30077 90537 333 60000
OOXX FRP30 15051 99493 30703 ///// 00361 26/// /2207 10114 29074 30077 90547 333 60000
OOXX FRP30 15051 99493 30703 ///// 00361 26/// /2106 10111 29075 30078 90557 333 60000
OOXX FRP30 15061 99493 30703 ///// 00361 26/// /2309 10116 29073 30076 90607 333 60000
OOXX FRP30 15061 99493 30703 ///// 00361 26/// /2409 10117 29073 30074 90617 333 60000
OOXX FRP30 15061 99493 30703 ///// 00361 26/// /2410 10125 29070 30075 90627 333 60000
OOXX FRP30 15061 99493 30703 ///// 00361 26/// /2310 10128 29068 30076 90637 333 60000
OOXX FRP30 15061 99493 30703 ///// 00361 26/// /2412 10130 29067 30074 90647 333 60000
OOXX CMP13 15031 99038 10102 ///// 01281 26/// /3101 10242 29094 39977 90340 333 60000
OOXX CMP13 15031 99038 10102 ///// 01281 26/// /2901 10242 29094 39977 90350 333 60000
OOXX CMP13 15041 99038 10102 ///// 01281 26/// /2901 10243 29094 39977 90400 333 60000
OOXX CMP13 15041 99038 10102 ///// 01281 26/// /2801 10243 29094 39977 90410 333 60000
OOXX CMP13 15041 99038 10102 ///// 01281 26/// /0000 10243 29094 39980 90420 333 60000
OOXX CMP13 15041 99038 10102 ///// 01281 26/// /0000 10242 29094 39979 90430 333 60000
OOXX CMP13 15041 99038 10102 ///// 01281 26/// /0000 10241 29094 39977 90440 333 60000
OOXX CMP13 15041 99038 10102 ///// 01281 26/// /0000 10240 29095 39977 90450 333 60000
OOXX CMP13 15051 99038 10102 ///// 01281 26/// /3201 10240 29094 39980 90500 333 60000
OOXX CMP13 15051 99038 10102 ///// 01281 26/// /0101 10236 29095 39980 90510 333 60000
OOXX CMP13 15051 99038 10102 ///// 01281 26/// /0101 10237 29096 39982 90520 333 60000
OOXX CMP13 15051 99038 10102 ///// 01281 26/// /3601 10237 29096 39983 90530 333 60000
OOXX RUP60 15041 99531 11588 ///// 00651 26/// /3306 11061 29048 39772 90452 333 60000
OOXX RUP60 15051 99531 11588 ///// 00651 26/// /3004 11061 29048 39770 90502 333 60000
OOXX RUP60 15051 99531 11588 ///// 00651 26/// /3306 11062 29048 39770 90512 333 60000
OOXX RUP60 15051 99531 11588 ///// 00651 26/// /2804 11064 29048 39770 90522 333 60000
OOXX RUP60 15051 99531 11588 ///// 00651 26/// /2706 11063 29047 39770 90532 333 60000
OOXX RUP60 15051 99531 11588 ///// 00651 26/// /3404 11061 29047 39771 90542 333 60000
OOXX RUP60 15051 99531 11588 ///// 00651 26/// /2906 11060 29046 39770 90552 333 60000
OOXX RUP60 15061 99531 11588 ///// 00651 26/// /3104 11060 29046 39773 90602 333 60000
OOXX RUP60 15061 99531 11588 ///// 00651 26/// /3404 11060 29046 39772 90612 333 60000
OOXX RUP60 15061 99531 11588 ///// 00651 26/// /2604 11059 29046 39773 90622 333 60000
OOXX RUP60 15061 99531 11588 ///// 00651 26/// /2809 11058 29045 39773 90632 333 60000
OOXX RUP60 15061 99531 11588 ///// 00651 26/// /3003 11059 29046 39773 90642 333 60000
OOXX AUP06 15041 99192 31468 ///// 00071 26/// /0906 10280 29084 30070 90452 333 60000
OOXX AUP06 15051 99192 31468 ///// 00071 26/// /0906 10272 29088 30068 90502 333 69920
OOXX AUP06 15051 99192 31468 ///// 00071 26/// /0806 10272 29086 30068 90512 333 60000
OOXX AUP06 15051 99192 31468 ///// 00071 26/// /0705 10273 29088 30066 90522 333 69920
OOXX AUP06 15051 99192 31468 ///// 00071 26/// /0905 10274 29086 30065 90532 333 69940
OOXX AUP06 15051 99192 31468 ///// 00071 26/// /1005 10275 29083 30064 90542 333 60000
OOXX AUP06 15051 99192 31468 ///// 00071 26/// /1006 10278 29081 30063 90552 333 60000
OOXX AUP06 15061 99192 31468 ///// 00071 26/// /1006 10279 29081 30063 90602 333 60000
OOXX AUP06 15061 99192 31468 ///// 00071 26/// /0907 10278 29079 30062 90612 333 60000
OOXX AUP06 15061 99192 31468 ///// 00071 26/// /0907 10278 29079 30062 90622 333 60000
OOXX AUP06 15061 99192 31468 ///// 00071 26/// /0907 10278 29081 30062 90632 333 60000
OOXX AUP06 15061 99192 31468 ///// 00071 26/// /0807 10277 29081 30064 90642 333 60000
OOXX FRP31 15031 99052 70527 ///// 00091 26/// /1301 10232 29095 30156 90357 333 60000
OOXX FRP31 15041 99052 70527 ///// 00091 26/// /1002 10232 29095 30156 90407 333 60000
OOXX FRP31 15041 99052 70527 ///// 00091 26/// /1201 10233 29095 30156 90417 333 60000
OOXX FRP31 15041 99052 70527 ///// 00091 26/// /0000 10234 29094 30153 90427 333 60000
OOXX FRP31 15041 99052 70527 ///// 00091 26/// /0602 10235 29094 30156 90437 333 60000
OOXX FRP31 15041 99052 70527 ///// 00091 26/// /0902 10235 29094 30156 90447 333 60050
OOXX FRP31 15041 99052 70527 ///// 00091 26/// /0000 10235 29094 30155 90457 333 60000
OOXX FRP31 15051 99052 70527 ///// 00091 26/// /0000 10235 29094 30152 90507 333 69920
OOXX FRP31 15051 99052 70527 ///// 00091 26/// /1301 10234 29094 30150 90517 333 69920
OOXX FRP31 15051 99052 70527 ///// 00091 26/// /1601 10234 29095 30148 90527 333 69920
OOXX FRP31 15051 99052 70527 ///// 00091 26/// /0000 10234 29095 30147 90537 333 60000
OOXX FRP31 15051 99052 70527 ///// 00091 26/// /0000 10234 29095 30150 90547 333 60000
OOXX KIP39 15041 99020 51574 ///// 00181 26/// /1203 10262 29077 30105 90430 333 60000
OOXX KIP39 15041 99020 51574 ///// 00181 26/// /1203 10260 29078 30106 90440 333 60000
OOXX KIP39 15041 99020 51574 ///// 00181 26/// /1303 10259 29079 30106 90450 333 60000
OOXX KIP39 15051 99020 51574 ///// 00181 26/// /1203 10258 29079 30107 90500 333 60000
OOXX KIP39 15051 99020 51574 ///// 00181 26/// /1203 10258 29079 30109 90510 333 60000
OOXX KIP39 15051 99020 51574 ///// 00181 26/// /1303 10256 29079 30110 90520 333 60000
OOXX KIP39 15051 99020 51574 ///// 00181 26/// /1303 10256 29079 30110 90530 333 60000
OOXX KIP39 15051 99020 51574 ///// 00181 26/// /1303 10256 29079 30113 90540 333 60000
OOXX KIP39 15051 99020 51574 ///// 00181 26/// /1303 10256 29079 30115 90550 333 60000
OOXX KIP39 15061 99020 51574 ///// 00181 26/// /1303 10256 29079 30116 90600 333 60000
OOXX KIP39 15061 99020 51574 ///// 00181 26/// /1203 10257 29080 30117 90610 333 60000
OOXX KIP39 15061 99020 51574 ///// 00181 26/// /1203 10257 29080 30118 90620 333 60000
OOXX ISP34 15041 99641 70219 ///// 01301 26/// /1605 10009 29001 39809 90410 333 6///0
OOXX ISP34 15041 99641 70219 ///// 01301 26/// /1505 10009 29001 39810 90420 333 6///0
OOXX ISP34 15041 99641 70219 ///// 01301 26/// /1504 10010 29001 39810 90430 333 6///0
OOXX ISP34 15041 99641 70219 ///// 01301 26/// /1705 10011 29001 39811 90440 333 6///0
OOXX ISP34 15041 99641 70219 ///// 01301 26/// /1706 10007 29001 39813 90450 333 6///0
OOXX ISP34 15051 99641 70219 ///// 01301 26/// /1705 10003 29001 39813 90500 333 6///0
OOXX ISP34 15051 99641 70219 ///// 01301 26/// /1504 10003 29001 39813 90510 333 6///0
OOXX ISP34 15051 99641 70219 ///// 01301 26/// /1806 10004 29001 39813 90520 333 6///0
OOXX ISP34 15051 99641 70219 ///// 01301 26/// /1705 10006 29001 39814 90530 333 6///0
OOXX ISP34 15051 99641 70219 ///// 01301 26/// /1707 10008 29001 39813 90540 333 6///0
OOXX ISP34 15051 99641 70219 ///// 01301 26/// /1604 10009 29001 39813 90550 333 6///0
OOXX ISP34 15061 99641 70219 ///// 01301 26/// /1605 10008 29001 39814 90600 333 6///0
OOXX AUP07 15011 99/// ///// ///// ///// 26/// /3012 10065 29079 30038 90120 333 60000
OOXX AUP07 15041 99/// ///// ///// ///// 26/// /3114 10060 29092 30006 90459 333 69920
OOXX AUP07 15051 99/// ///// ///// ///// 26/// /3115 10061 29092 30005 90509 333 60000
OOXX AUP07 15051 99/// ///// ///// ///// 26/// /3115 10061 29092 30004 90519 333 60000
OOXX AUP07 15051 99/// ///// ///// ///// 26/// /3115 10062 29092 30003 90529 333 60000
OOXX AUP07 15051 99/// ///// ///// ///// 26/// /3115 10062 29092 30001 90539 333 60000
OOXX AUP07 15051 99/// ///// ///// ///// 26/// /3114 10063 29092 30000 90549 333 60000
OOXX AUP07 15051 99/// ///// ///// ///// 26/// /3114 10063 29092 39998 90559 333 60000
OOXX AUP07 15061 99/// ///// ///// ///// 26/// /3114 10063 29092 39996 90609 333 60000
OOXX AUP07 15061 99/// ///// ///// ///// 26/// /3114 10063 29092 39995 90619 333 60000
OOXX AUP07 15061 99/// ///// ///// ///// 26/// /3114 10063 29092 39994 90629 333 69920
OOXX AUP07 15061 99/// ///// ///// ///// 26/// /3114 10063 29093 39993 90639 333 60000
OOXX CKP23 15041 99212 51598 ///// 00051 26/// /0304 10278 29084 30145 90450 333 60000
OOXX CKP23 15051 99212 51598 ///// 00051 26/// /0404 10277 29085 30146 90500 333 60000
OOXX CKP23 15051 99212 51598 ///// 00051 26/// /0405 10276 29084 30147 90510 333 60000
OOXX CKP23 15051 99212 51598 ///// 00051 26/// /0404 10276 29085 30147 90520 333 60000
OOXX CKP23 15051 99212 51598 ///// 00051 26/// /0404 10276 29085 30147 90530 333 60000
OOXX CKP23 15051 99212 51598 ///// 00051 26/// /0404 10276 29086 30148 90540 333 60000
OOXX CKP23 15051 99212 51598 ///// 00051 26/// /0305 10276 29086 30149 90550 333 60000
OOXX CKP23 15061 99212 51598 ///// 00051 26/// /0404 10276 29086 30149 90600 333 60000
OOXX CKP23 15061 99212 51598 ///// 00051 26/// /0405 10276 29085 30151 90610 333 60000
OOXX CKP23 15061 99212 51598 ///// 00051 26/// /0405 10276 29085 30152 90620 333 60000
OOXX CKP23 15061 99212 51598 ///// 00051 26/// /0504 10275 29086 30153 90630 333 60000
OOXX CKP23 15061 99212 51598 ///// 00051 26/// /0504 10275 29085 30155 90640 333 60000
OOXX FJP26 15041 99178 31775 ///// 00311 26/// /3006 10294 29073 30059 90410 333 60000
OOXX FJP26 15041 99178 31775 ///// 00311 26/// /3105 10292 29073 30060 90420 333 60000
OOXX FJP26 15041 99178 31775 ///// 00311 26/// /3105 10293 29072 30062 90430 333 60000
OOXX FJP26 15041 99178 31775 ///// 00311 26/// /3205 10296 29070 30064 90440 333 60000
OOXX FJP26 15041 99178 31775 ///// 00311 26/// /3204 10292 29069 30065 90450 333 60000
OOXX FJP26 15051 99178 31775 ///// 00311 26/// /3504 10292 29069 30065 90500 333 60000
OOXX FJP26 15051 99178 31775 ///// 00311 26/// /0602 10285 29073 30066 90510 333 60000
OOXX FJP26 15051 99178 31775 ///// 00311 26/// /0702 10282 29077 30067 90520 333 60000
OOXX FJP26 15051 99178 31775 ///// 00311 26/// /0903 10280 29078 30069 90530 333 60000
OOXX FJP26 15051 99178 31775 ///// 00311 26/// /1002 10277 29080 30071 90540 333 60000
OOXX FJP26 15051 99178 31775 ///// 00311 26/// /1102 10267 29087 30071 90550 333 60000
OOXX FJP26 15061 99178 31775 ///// 00311 26/// /0802 10264 29088 30071 90600 333 60000
OOXX CAP14 15041 99487 71234 ///// 00431 26/// /2901 10030 29085 30119 90420 333 60000
OOXX CAP14 15041 99487 71234 ///// 00431 26/// /3002 10031 29085 30118 90430 333 60000
OOXX CAP14 15041 99487 71234 ///// 00431 26/// /3101 10032 29085 30119 90440 333 60000
OOXX CAP14 15041 99487 71234 ///// 00431 26/// /2801 10031 29085 30120 90450 333 60000
OOXX CAP14 15051 99487 71234 ///// 00431 26/// /2901 10032 29086 30121 90500 333 60000
OOXX CAP14 15051 99487 71234 ///// 00431 26/// /3201 10033 29085 30119 90510 333 60000
OOXX CAP14 15051 99487 71234 ///// 00431 26/// /3401 10033 29085 30121 90520 333 60000
OOXX CAP14 15051 99487 71234 ///// 00431 26/// /2801 10031 29086 30120 90530 333 60000
OOXX CAP14 15051 99487 71234 ///// 00431 26/// /2901 10030 29086 30122 90540 333 60000
OOXX CAP14 15051 99487 71234 ///// 00431 26/// /2801 10032 29086 30123 90550 333 60000
OOXX CAP14 15061 99487 71234 ///// 00431 26/// /2701 10031 29086 30123 90600 333 60000
OOXX CAP14 15061 99487 71234 ///// 00431 26/// /2701 10030 29086 30122 90610 333 60000
OOXX SEP63 15041 99594 10180 ///// 00401 26/// /0302 10025 29092 39860 90410 333 60000
OOXX SEP63 15041 99594 10180 ///// 00401 26/// /0103 10023 29093 39860 90420 333 60000
OOXX SEP63 15041 99594 10180 ///// 00401 26/// /0603 10022 29093 39860 90430 333 60000
OOXX SEP63 15041 99594 10180 ///// 00401 26/// /0403 10022 29092 39860 90440 333 60000
OOXX SEP63 15041 99594 10180 ///// 00401 26/// /3403 10021 29091 39860 90450 333 60000
OOXX SEP63 15051 99594 10180 ///// 00401 26/// /0303 10021 29091 39860 90500 333 60000
OOXX SEP63 15051 99594 10180 ///// 00401 26/// /0303 10021 29090 39860 90510 333 60000
OOXX SEP63 15051 99594 10180 ///// 00401 26/// /1102 10021 29089 39870 90520 333 60000
OOXX SEP63 15051 99594 10180 ///// 00401 26/// /0602 10021 29087 39870 90530 333 60000
OOXX SEP63 15051 99594 10180 ///// 00401 26/// /0502 10023 29085 39870 90540 333 60000
OOXX SEP63 15051 99594 10180 ///// 00401 26/// /0602 10023 29084 39870 90550 333 60000
OOXX SEP63 15061 99594 10180 ///// 00401 26/// /0603 10024 29084 39870 90600 333 60000
OOXX AUP09 15041 99124 31309 ///// 00321 26/// ///// 1//// 29/// 3//// 90414 333 6///0
OOXX AUP09 15041 99124 31309 ///// 00321 26/// ///// 1//// 29/// 3//// 90424 333 6///0
OOXX AUP09 15041 99124 31309 ///// 00321 26/// ///// 1//// 29/// 3//// 90434 333 6///0
OOXX AUP09 15041 99124 31309 ///// 00321 26/// ///// 1//// 29/// 3//// 90444 333 6///0
OOXX AUP09 15041 99124 31309 ///// 00321 26/// ///// 1//// 29/// 3//// 90454 333 6///0
OOXX AUP09 15051 99124 31309 ///// 00321 26/// ///// 1//// 29/// 3//// 90504 333 6///0
OOXX AUP09 15051 99124 31309 ///// 00321 26/// ///// 1//// 29/// 3//// 90514 333 6///0
OOXX AUP09 15051 99124 31309 ///// 00321 26/// ///// 1//// 29/// 3//// 90524 333 6///0
OOXX AUP09 15051 99124 31309 ///// 00321 26/// ///// 1//// 29/// 3//// 90534 333 6///0
OOXX AUP09 15051 99124 31309 ///// 00321 26/// ///// 1//// 29/// 3//// 90544 333 6///0
OOXX AUP09 15051 99124 31309 ///// 00321 26/// ///// 1//// 29/// 3//// 90554 333 6///0
OOXX AUP09 15061 99124 31309 ///// 00321 26/// ///// 1//// 29/// 3//// 90604 333 6///0
OOXX NZP46 15041 99438 51765 ///// 00221 26/// /0107 10159 29064 30141 90430 333 60000
OOXX NZP46 15041 99438 51765 ///// 00221 26/// /0106 10157 29067 30140 90440 333 60000
OOXX NZP46 15041 99438 51765 ///// 00221 26/// /0107 10154 29069 30140 90450 333 60000
OOXX NZP46 15051 99438 51765 ///// 00221 26/// /0106 10148 29072 30141 90500 333 60000
OOXX NZP46 15051 99438 51765 ///// 00221 26/// /0106 10149 29073 30140 90510 333 60000
OOXX NZP46 15051 99438 51765 ///// 00221 26/// /0107 10148 29072 30139 90520 333 60000
OOXX NZP46 15051 99438 51765 ///// 00221 26/// /0106 10148 29072 30139 90530 333 60000
OOXX NZP46 15051 99438 51765 ///// 00221 26/// /0106 10146 29071 30139 90540 333 60000
OOXX NZP46 15051 99438 51765 ///// 00221 26/// /0106 10145 29069 30138 90550 333 60000
OOXX NZP46 15061 99438 51765 ///// 00221 26/// /0106 10145 29070 30138 90600 333 60000
OOXX NZP46 15061 99438 51765 ///// 00221 26/// /0106 10143 29074 30138 90610 333 60000
OOXX NZP46 15061 99438 51765 ///// 00221 26/// /0206 10141 29075 30137 90620 333 60000
OOXX MYP42 15041 99045 11014 ///// 15551 26/// /3401 10232 29073 38429 90403 333 60000
OOXX MYP42 15041 99045 11014 ///// 15551 26/// /3301 10235 29074 38421 90413 333 60000
OOXX MYP42 15041 99045 11014 ///// 15551 26/// /2401 10244 29074 38434 90423 333 60000
OOXX MYP42 15041 99045 11014 ///// 15551 26/// /3401 10248 29071 38420 90433 333 60000
OOXX MYP42 15041 99045 11014 ///// 15551 26/// /3402 10246 29071 38425 90443 333 60000
OOXX MYP42 15041 99045 11014 ///// 15551 26/// /1605 10229 29078 38423 90453 333 60000
OOXX MYP42 15051 99045 11014 ///// 15551 26/// /2104 10220 29084 38425 90503 333 60000
OOXX MYP42 15051 99045 11014 ///// 15551 26/// /3101 10224 29081 38414 90513 333 60000
OOXX MYP42 15051 99045 11014 ///// 15551 26/// /2401 10216 29083 38416 90523 333 60000
OOXX MYP42 15051 99045 11014 ///// 15551 26/// /3401 10205 29087 38425 90533 333 60000
OOXX MYP42 15051 99045 11014 ///// 15551 26/// /3301 10203 29090 38412 90543 333 60000
OOXX MYP42 15051 99045 11014 ///// 15551 26/// /2002 10202 29089 38423 90553 333 60000
OOXX ARP01 15041 99345 50585 ///// 00311 26/// /2001 10082 29040 30102 90420 333 60000
OOXX ARP01 15041 99345 50585 ///// 00311 26/// /2001 10082 29040 30101 90430 333 60000
OOXX ARP01 15041 99345 50585 ///// 00311 26/// /0000 10082 29040 30099 90440 333 60000
OOXX ARP01 15041 99345 50585 ///// 00311 26/// /2001 10082 29040 30098 90450 333 60000
OOXX ARP01 15051 99345 50585 ///// 00311 26/// /2001 10082 29040 30097 90500 333 60000
OOXX ARP01 15051 99345 50585 ///// 00311 26/// /2001 10082 29040 30096 90510 333 60000
OOXX ARP01 15051 99345 50585 ///// 00311 26/// /0000 10082 29040 30095 90520 333 60000
OOXX ARP01 15051 99345 50585 ///// 00311 26/// /2001 10081 29040 30094 90530 333 60000
OOXX ARP01 15051 99345 50585 ///// 00311 26/// /2001 10081 29040 30094 90540 333 60000
OOXX ARP01 15051 99345 50585 ///// 00311 26/// /2002 10081 29040 30094 90550 333 60000
OOXX ARP01 15061 99345 50585 ///// 00311 26/// /2301 10081 29040 30093 90600 333 60000
AAXX 15061 33837 11/03 91603 10060 20060 30157 40209 53003 69962 75154 333 20055 96045
AAXX 15064 16219 41/00 92820 10020 20013 38118 48503 56009 6///2 747// 333 20020 32/// 55000 2//// 89/00 95090 95190
AAXX 1506/ 89869 46/// ///// 11040 39767 4//// 5//// 90610
AAXX 15064 91559 46/// /0000 10291 40055 22200 00282
AAXX 15064 71554 16/// /1607 11016 21048 30224 40230 58023 60001 333 11009 21042 70010
AAXX 15064 71388 46/// /1101 11048 21058 30009 40201 58026 6///1 333 11019 21077 7////
AAXX 15064 71390 46/// /0102 11085 6///1 333 11054 21127 7////
AAXX 15064 71392 16/// /0704 10001 21015 60001 333 10016 21010 70000
AAXX 15064 71883 46/// /0000 11053 21059 39384 40220 58006 6///1 333 11032 21101 7////
AAXX 15064 71475 17/// /3102 10007 20005 30096 40191 53008 60031 7//4/ 333 10018 21002 70058
AAXX 15064 60265 32970 00000 10056 21048 38989 48590 51011 333 20047
AAXX 15064 71883 46/// /0000 11053 21059 39384 40220 58006 6///1 333 11032 21101 7////
AAXX 15064 91531 46/// /0504 1//// 40053 22200 00280
AAXX 15061 10948 12989 51505 10011 21005 39172 48415 50001 69952 83032 333 10047 21028 34104 41998 55003 55300 20000 30000 70035 83361 83076
BBXX VRHO2 15064 99471 11594 41796 82828 10025 21042 40020 52025 78062 8644/ 22254 00040 20401 332// 41005 50000 65004 80000 ICE /////
AAXX 15064 71016 16/// ///// 11075 60001 333 10002 21106 70000
AAXX 15064 71110 16/// /1601 11092 21105 30193 40255 53008 60001 333 11026 21096 7////
AAXX 15064 71710 16/// /2809 11007 21069 30248 40258 56013 60001 333 11007 21022 70000 555 30321 40101
AAXX 15064 91642 46/// /0000 1//// 40073 22200 0////
AAXX 15064 60107 32460 32004 10106 20066 40292 53010 83800 333 20105 30008 81816 83623 95310
BBXX 42043 15061 99290 70949 46/// /1203 1//// 40173 90630 22200 00149 333 91203
BBXX 42043 15061 99290 70949 46/// /1202 1//// 40174 90600 22200 00149 333 91203
BBXX 42044 15061 99262 70971 46/// /1405 10203 20183 40149 90630 22200 00191 333 91207
BBXX 42044 15061 99262 70971 46/// /1506 10202 20183 40150 90600 22200 00192 333 91208
BBXX SHIP 15064 99230 71733 41/97 20202 10247 20181 40164 52013 702// 8//// 22223 04255
BBXX 42045 15061 99262 70965 46/// /1509 10220 40154 90630 22200 00221 333 91211
BBXX 42045 15061 99262 70965 46/// /1510 10221 40155 90600 22200 00221 333 91211
AAXX 15064 82193 32470 60503 10259 20229 30068 40086 82130 333 58008
BBXX 42046 15061 99279 70940 46/// /1607 1//// 40175 90630 22200 00227 333 91209
BBXX 42046 15061 99279 70940 46/// /1608 1//// 40176 90600 22200 00226 333 91209
BBXX V7QX2 15064 99074 10773 41796 83319 10280 2028/ 40100 54/// 7//// 8/67/ 22272 00290 20302 327// 4//// 5//// 6//// 80280 ICE /////
BBXX AMOUK04 15064 99533 70062 46/// ///// 10053 20028 39938 4//// 52063 90550
BBXX 42045 15061 99262 70965 46/// /1510 10221 40155 90600 22200 00221 333 91211
BBXX 42045 15061 99262 70965 46/// /1509 10220 40154 90630 22200 00221 333 91211
BBXX SHIP 15064 99230 71733 41/97 20202 10247 20181 40164 52013 702// 8//// 22223 04255
BBXX 42044 15061 99262 70971 46/// /1405 10203 20183 40149 90630 22200 00191 333 91207
BBXX 42044 15061 99262 70971 46/// /1506 10202 20183 40150 90600 22200 00192 333 91208
BBXX 42043 15061 99290 70949 46/// /1203 1//// 40173 90630 22200 00149 333 91203
BBXX 42043 15061 99290 70949 46/// /1202 1//// 40174 90600 22200 00149 333 91203
BBXX 42047 15061 99279 70936 46/// /1508 10217 20202 40179 90600 22200 00228 333 91210
BBXX 46094 15061 99446 71243 46/// /1108 10074 90630
BBXX 46094 15061 99446 71243 46/// /1107 10071 90620
BBXX 46094 15061 99446 71243 46/// /0810 10071 90610
BBXX 46094 15061 99446 71243 46/// /0909 10068 90600
BBXX 46094 15061 99446 71243 46/// /1109 10069 90550
BBXX 46094 15061 99446 71243 46/// /1209 10069 90540
BBXX 46085 15061 99559 71425 46/// /1407 1//// 90000 555 11076 22081
AAXX 15064 71467 16/// /2611 11235 21257 30063 40183 58006 60001 333 11222 21274 70000 555 33018 40151
AAXX 15064 71467 16/// /2611 11235 21257 30063 40183 58006 60001 333 11222 21274 70000 555 33018 40151
AAXX 15064 63688 32580 41007 10175 20127 48/// 83931 333 20080 58006 81920 83821
AAXX 15064 92036 46/// /0103 10300 40039 22200 00315
AAXX 15064 87715 32070 00903 10192 20091 39826 40133 58003
BBXX 62304 15064 99511 10018 46/98 /2334 10080 20037 49959 56011 22200 00119 10703 70016 333 90710 91145
BBXX 63106 15064 99610 10017 46/// /2923 10065 49759 53024 22200
BBXX 63113 15064 99610 10017 46/// /2920 10068 20025 49771 52023 22200 10706 70032
BBXX 62107 15064 99501 70061 46/// /3045 10094 20041 40021 52025 22200 00115 11114 70072 333 90710 91156
BBXX 63110 15063 99595 10015 41/98 /2730 10071 20033 49800 72586 8//// 22200 10907 70035
BBXX 62103 15064 99499 70029 46/98 /2938 10098 20038 40000 52029 22200 00124 11112 70060 333 90710 91153
AAXX 15064 93713 46/// /0000 10164 40000 22200 00154
AAXX 1506/ 68902 46/// ///// 40102 52013
AAXX 15064 87467 42970 00000 10164 20132 39996 40128 57004
OOXX AAPIG 15064 99758 51003 56251 08502 46/// /0906 11137 21227 38814 49800 52014 90550
BBXX MINUK01 1506/ 99572 70019 46/// ///// 10048 49869 52050
AAXX 15064 91689 46/// /2611 10262 40101 22200 00299
BBXX C6VG8 15064 99255 70772 41/98 20625 10220 2//// 40210 55000 7//00 8//// 22262 00260 20204 305// 40304 5//// 6//// 8//// ICE /////
BBXX ZMFR 15064 99467 31663 43/// /14// 10110 20079 40078 52006 22241 00121
BBXX ZMENA 15064 99364 31754 46/// ///// 10178 20175 40013 57038 22273
BBXX 3EAT6 15063 99289 31614 41298 62020 10215 20148 40120 54000 70322 8/700 22253 00240 20204 319// 40204
BBXX ZMFR 15064 99467 31663 43/// /14// 10110 20079 40078 52006 22241 00121
BBXX ZMENA 15064 99364 31754 46/// ///// 10178 20175 40013 57038 22273
BBXX 3EAT6 15063 99289 31614 41298 62020 10215 20148 40120 54000 70322 8/700 22253 00240 20204 319// 40204
BBXX ONFP 15064 99349 30378 43595 80324 10220 2021/ 40100 51010 7//55 88747 22223 04191 20904 30404 40904 50904 6//// 80210
BBXX AMOUK04 15064 99533 70062 46/// ///// 10053 20028 39938 4//// 52063 90550
BBXX TBWUK30 15063 99458 70036 41597 42739 10100 20054 40136 54000 76766 8/440 22272 00110 20612 32733 41212 51010 80079
BBXX 46085 15061 99559 71425 46/// /1407 1//// 90000 555 11076 22081
BBXX 46094 15061 99446 71243 46/// /1209 10069 90540
BBXX 46094 15061 99446 71243 46/// /1109 10069 90550
BBXX 46094 15061 99446 71243 46/// /1107 10071 90620
BBXX 46094 15061 99446 71243 46/// /1108 10074 90630
BBXX 46094 15061 99446 71243 46/// /0810 10071 90610
BBXX 46094 15061 99446 71243 46/// /0909 10068 90600
BBXX 42047 15061 99279 70936 46/// /1508 10217 20202 40179 90600 22200 00228 333 91210
BBXX 42046 15061 99279 70940 46/// /1607 1//// 40175 90630 22200 00227 333 91209
BBXX 42046 15061 99279 70940 46/// /1608 1//// 40176 90600 22200 00226 333 91209
BBXX MINUK01 1506/ 99572 70019 46/// ///// 10048 49869 52050
AAXX 15064 89272 46/// /3620 11120 21143 38036 49671 52007 90620
AAXX 15064 89266 46/// /3403 11067 21073 39750 49890 52012 90610
BBXX V2OT9 15063 99373 10035 41297 62722 10175 20151 40245 53015 70322 85700 22263 20304 30000 4//// 5//// 80160
AAXX 1506/ 89799 46/// ///// 11286 4//// 5//// 90630
BBXX MINUK01 1506/ 99572 70019 46/// ///// 10048 49869 52050
AAXX 15064 65046 31960 50407 10105 21008 40189 80008 333// 20097 85280
BBXX 44055 15061 99391 70753 46/// ///// 1//// 90630 22200 00090 1//00 70002
AAXX 15063 63702 12465 70506 10182 20171 60284 8157/ 333 20160 81618 87362 555 10175
AAXX 15063 63630 12580 71803 10239 20202 48/// 60444 81946 333 20176 81620 81921 87280 555 10213
AAXX 15063 63658 32680 52704 10235 20190 38901 48530 81137 333 20190 58007 81618 85280 555 10206
AAXX 15063 63682 12482 60000 10220 20196 48/// 69924 83973 333 20175 83819 81921 85078 555 10204
AAXX 15063 63654 32460 50503 10204 20185 85960 333 82819 81920 84360 555 10192
AAXX 15063 63602 12970 72303 10205 20179 38821 48/// 69954 86031 333 20169 58007 86361 555 10188
AAXX 15063 63631 11540 62503 10224 20/// 48/// 69904 74044 81820
AAXX 15064 89013 46/// /0905 11233 21275 37626 49678 52007 90610
AAXX 15064 89065 46/// /3217 10018 21024 39792 49869 52001 90610
AAXX 15064 89257 46/// /9901 11045 21065 39804 49874 52013 90610
AAXX 15064 89262 46/// /9902 11025 21058 39892 49936 52007 90610
AAXX 15064 89266 46/// /3504 11067 21072 39751 49891 52013 90600
AAXX 15064 89272 46/// /3620 11120 21141 38035 49670 52005 90610
AAXX 15064 16263 11/00 92817 10070 20052 38938 48503 54001 60002 74542 333 20070 31/// 55/// 2//// 89/00
AAXX 15061 01023 11689 70902 10026 21033 39691 49784 55001 60002 70322 81572 333 20005 47009 70000 91109
AAXX 15064 89667 46/// /1612 11067 39814 4//// 5//// 90640
AAXX 15064 89667 46/// /1611 11070 39814 4//// 5//// 90630
AAXX 15064 87648 32460 82006 10160 20143 30130 40141 57013 886// 333 56499 88710
BBXX MINUK04 1506/ 99543 10054 46/// ///// 10078 4//// 52022
AAXX 15064 94997 46/// ///// 10058 39955 49970 5////
AAXX 15064 94997 46/// ///// 10058 39955 49970 5////
AAXX 15064 89573 35975 60902 11018 21087 39824 49846 52004 84032
AAXX 15064 89573 35975 60902 11018 21087 39824 49846 52004 84032
AAXX 15064 89065 46/// /3217 10018 21024 39792 49869 52001 90610
BBXX 62304 15064 99511 10018 46/98 /2334 10080 20037 49959 56010 22200 00119 10703 70016 333 90710 91145
BBXX AMOUK08 15064 99501 70061 46/// ///// 10096 20050 30016 40021 52024 90550
BBXX 63110 15064 99595 10015 47598 /2721 10069 20032 49802 52021 700// 22200 10707 70033
BBXX 63106 15064 99610 10017 46/// /2923 10065 49759 53024 22200
BBXX 63105 15064 99610 10017 47597 ///// 10070 20029 49758 53024 700// 22200
BBXX 62103 15064 99499 70029 46/98 /2843 10088 20019 49988 52020 22200 00124 11013 70064 333 90710 91155
BBXX 42013 15061 99272 70829 46/// ///// 1//// 40232 90620 22200 00200
BBXX 42013 15061 99272 70829 46/// ///// 1//// 40233 58012 90600 22200 00200
BBXX MINUK04 1506/ 99543 10054 46/// ///// 10078 4//// 52022
BBXX 44055 15061 99391 70753 46/// ///// 1//// 90630 22200 00090 1//00 70002
BBXX C6VG8 15064 99255 70772 41/98 20625 10220 2//// 40210 55000 7//00 8//// 22262 00260 20204 305// 40304 5//// 6//// 8//// ICE /////
BBXX 3EAT6 15063 99289 31614 41298 62020 10215 20148 40120 54000 70322 8/700 22253 00240 20204 319// 40204
BBXX ZMENA 15064 99364 31754 46/// ///// 10178 20175 40013 57038 22273
BBXX ZMFR 15064 99467 31663 43/// /14// 10110 20079 40078 52006 22241 00121
AAXX 15064 42874 32596 13602 10250 20107 40163 81100 333 59009 81825
BBXX SKEC 15061 99625 10200 46/// ///// 10033 49857 57011 22241 00046
AAXX 15064 71408 46/// /3213 11047 21081 30166 40248 6///1 333 7////
BBXX VRDO9 15064 99063 10033 41396 60610 10240 20226 40140 5//// 70521 85278 22200 04200 20102 306// 40101 5//// 6//// 80230 ICE /////
AAXX 15061 98132 11462 70405 10245 20224 40167 57034 69941 70544 83270 333 56199 83816
AAXX 15061 98133 31465 60404 10/// 20/// 40120 5//// 71644 86200 222// 20702 333 56199 86818
AAXX 15061 98222 31575 13603 10310 20250 40090 57028 70544 81100 333 56899 81822
AAXX 15061 98233 31570 43601 10310 20244 40099 57032 70544 84300 333 56999 84920
AAXX 15061 98324 31465 43203 10314 20266 40082 57024 70544 82251 333 56999 82816 83358
AAXX 15061 98327 31668 60402 10312 20189 39923 40096 57028 70544 82238 333 56999 82842 83360 86280
AAXX 15061 98334 32480 20000 10311 20270 39910 40112 57022 82200 333 56999 82818
AAXX 15061 98425 31562 82203 10270 20236 40086 57026 69901 72584 8687/ 333 56999 86620 88457
AAXX 15061 98426 31568 50806 10305 20218 40094 57024 70544 82271 333 56999 82820 84358
AAXX 15061 98427 11472 83604 10275 20242 39900 40077 57026 60011 72582 83270 333 56199 83818 88357
AAXX 15061 98428 11465 51801 10268 20248 40090 57023 60057 72966 82961 333 56999 82917
AAXX 15061 98432 11568 30403 10294 20254 40091 57018 69961 70584 82272 333 56199 82820
AAXX 15061 98433 11460 80910 10240 20208 39370 40089 57020 60031 76064 8427/ 333 56999 84812 88357
AAXX 15061 98434 11460 73602 10273 20249 30096 40104 57018 60041 71662 84870 333 56199 84817 87358
AAXX 15061 98435 11467 70404 10275 20247 40090 5//// 69941 71682 84270 333 56199 84817 86358
AAXX 15061 98442 NIL
AAXX 15061 98446 32480 50903 10303 20253 30045 40091 57022 84201 333 56199 84818
AAXX 15061 98447 31475 70704 10280 20249 39829 40092 5//// 70542 84270 333 56299 84818 86357
AAXX 15061 98538 11460 70106 10280 20260 30053 40058 57035 72564 83268 333 56229 83811 84357 86272
AAXX 15061 98546 11470 70704 10290 20271 30068 40076 57024 60031 71582 83908 333 56999 83915 87275
AAXX 15061 98548 11475 70403 10310 20258 30056 40062 58026 60021 78082 85808 333 56299 85816 86272 98323
AAXX 15061 98553 31468 60403 10305 20268 30071 40075 57021 70544 84301 333 56199 81916 84818 86074
AAXX 15061 98558 11468 70609 10280 20264 40067 57019 60071 71584 84971 222// 20504 333 56999 82915 83075
AAXX 15061 98642 32465 40403 10315 20264 30052 40061 57021 84300 333 56199 84915
AAXX 15061 98644 31465 81602 10306 20259 30056 40065 58022 70544 8497/ 333 56199 84916 88358
AAXX 15061 98648 11468 70901 10262 20234 39993 40075 57017 69921 72544 83968 333 56299 82912 83358 87270
AAXX 15061 98746 31465 71204 10312 20254 40070 58026 70544 83278 333 56299 83818 84358 86275
AAXX 15061 98751 31472 60000 10280 20227 39395 40063 57025 70544 83208 333 56299 83815 86275
AAXX 15061 98752 32462 60000 10302 20258 40062 57030 82270 333 56999 82818 86358
AAXX 15061 98851 11465 80401 10278 20246 39902 40050 57031 60071 71586 82277 333 56999 82818 84358 88275
BBXX 42369 15061 99272 70903 46/// /1608 1//// 90540 22200 10504 70019
BBXX 42370 15061 99273 70905 46/// ///// 10220 90540 22200 10504 70018
AAXX 15061 08554 32965 00201 10090 20070 30306 40316 52008 333 20087 30010 55047 20705
AAXX 15061 08554 32965 00201 10090 20070 30306 40316 52008 333 20087 30010 55047 20705 555 60005
AAXX 15061 47008 42970 03203 11033 21180 30164 40220 57012
AAXX 15061 47014 42950 52303 11091 21179 39845 40268 57020 80001
AAXX 15061 47016 11760 50000 11109 21162 39347 40252 57016 69901 77174 85030
AAXX 15061 47020 42565 53202 11071 21151 39890 40287 57013 85500
AAXX 15061 47025 42978 03204 11001 21161 30196 40226 57003
AAXX 15061 47035 42970 03202 11024 21108 30272 40281 57037
AAXX 15061 47041 42970 03205 11018 21191 30202 40230 57019
AAXX 15061 47055 42970 02305 11016 21101 30202 40249 57016
AAXX 15061 47058 42964 13207 11035 21162 30240 40289 58018 80002
AAXX 15061 47069 42965 13605 11023 21090 30181 40284 58014 80001
AAXX 15061 47003 42580 13205 11047 21174 30222 40226 58010 81100
AAXX 15061 47005 11580 22302 11179 21220 38556 57008 69931 70371 82500
AAXX 15061 47022 42475 73601 11112 21208 38806 57012 82502
AAXX 15061 47028 42968 02301 11044 21160 30181 40280 57020
AAXX 15061 47031 42970 03204 11121 21183 38905 57017
AAXX 15061 47037 42970 00000 11026 21128 30156 40284 57015
AAXX 15061 47039 42960 02505 11029 21156 30068 40265 57030
AAXX 15061 47046 42969 02307 10001 21163 30187 40210 57018
AAXX 15061 47050 42965 03601 11028 21184 30250 40285 57007
AAXX 15061 47052 42965 03207 11055 21162 39924 40278 57023
AAXX 15061 47060 42960 33205 11031 21119 30232 40292 58015 83100
AAXX 15061 47061 42980 03204 10004 21098 30204 40249 54000
AAXX 15061 47065 42980 13206 11025 21135 30229 40297 58010 81500
AAXX 15061 47067 42970 03205 11031 21141 30173 40298 57012
AAXX 15061 47068 12570 83206 11015 21116 30247 40283 58012 69901 82232
AAXX 15061 47070 42980 22905 11016 21155 30198 40279 58012 80001
AAXX 15061 47075 42980 02704 11036 21157 39750 40193 57009
AAXX 15061 47101 32975 32506 11003 21179 30164 40263 56010 80001
AAXX 15061 47105 369// /2511 10030 21161 30192 40225 55008
AAXX 15061 47108 32970 22909 11021 21200 30168 40278 57012 80001
AAXX 15061 47115 32568 60209 10019 21059 39928 40205 55004 86800 333 92043
AAXX 15061 47133 32975 53407 10014 21151 30186 40273 57012 80001
AAXX 15061 47138 32975 63204 10050 21162 30227 40230 80001 333 92022
AAXX 15061 47159 32973 62908 10051 21160 30140 40227 55010 80002 333 92023
AAXX 15061 47165 32673 60215 10032 21054 30223 40271 55007 86500 333 92024
AAXX 15061 47168 32970 53418 10043 21161 30154 40235 57014 80001 333 92025
AAXX 15061 47184 32670 83413 10056 21015 30240 40266 55005 8652/ 333 92044
AAXX 15061 47090 32973 12907 10015 21203 30208 40231 55001 80001 333 92023
AAXX 15061 47095 32970 22509 11032 21191 30075 40272 55012 80001
AAXX 15061 47097 329// /2707 11015 21181 30174 40274 55006
AAXX 15061 47098 329// /2911 11017 21187 30130 40269 57014
AAXX 15061 47099 329// /2908 11014 21189 30241 40279 57012
AAXX 15061 47100 32970 22712 11051 21185 39284 40234 55012 80001
AAXX 15061 47102 32675 62911 11018 21127 30105 40290 57012 85500
AAXX 15061 47104 32970 02710 10020 21180 30125 40224 55007
AAXX 15061 47106 329// /2906 10041 21175 30170 40220 55009
AAXX 15061 47112 32973 13211 11007 21153 30194 40281 57013 80001 333 92013
AAXX 15061 47114 32970 22507 11011 21201 30073 40262 55009 80001
AAXX 15061 47119 32970 42906 11008 21158 30236 40280 57010 80001
AAXX 15061 47121 329// /2508 10002 21185 39946 40248 55008
AAXX 15061 47127 329// /2907 11004 21190 30121 40267 55010
AAXX 15061 47129 32972 53212 10006 21102 30252 40289 57012 80001
AAXX 15061 47130 32970 31602 10059 21137 30154 40216 55013 80001 333 92021
AAXX 15061 47131 32972 22906 11010 21168 30204 40277 55006 80001
AAXX 15061 47135 329// /2711 11001 21169 39946 40254 57013
AAXX 15061 47136 32972 22911 10019 21165 30062 40238 55014 80001
AAXX 15061 47137 329// /2708 10006 21192 30131 40253 55009
AAXX 15061 47140 32675 53215 10010 21117 30249 40279 57012 82501 333 92023
AAXX 15061 47143 32978 22710 10034 21187 30169 40249 55017 80001
AAXX 15061 47145 32970 42910 11007 21150 30246 40273 57011 80001
AAXX 15061 47146 32973 43410 10021 21137 30205 40273 56014 80001
AAXX 15061 47150 32670 63407 10003 21108 30260 40280 57014 81501
AAXX 15061 47152 32970 42909 10040 21133 30184 40227 55012 80001
AAXX 15061 47154 329// /3208 10026 21155 30190 40252 55011
AAXX 15061 47155 32975 41105 10046 21119 30185 40231 56014 80001
AAXX 15061 47156 32680 63609 10024 21130 30178 40269 57010 81501
AAXX 15061 47157 32973 43213 10020 21170 39957 40232 55012 80001
AAXX 15061 47162 32975 60209 10056 21115 30184 40225 57016 80001 333 92023
AAXX 15061 47169 41673 63620 10031 21043 30173 40269 57011 72682 85500 333 92065
AAXX 15061 47170 32673 50211 10035 21070 30214 40258 57008 82501 333 92024
AAXX 15061 47171 329// /3407 10012 21126 30221 40278 57013
AAXX 15061 47172 329// /3211 10021 21089 30201 40269 57011
AAXX 15061 47173 329// /3410 10017 21153 30147 40261 57013
AAXX 15061 47174 32970 53209 10028 21115 30039 40245 57012 80001
AAXX 15061 47175 41570 63608 11012 21061 39672 40263 55008 78582 83800 333 92023
AAXX 15061 47185 32670 73429 10060 21003 30159 40251 55008 87500 333 92047
AAXX 15061 47188 32670 73605 10048 21023 30229 40251 55005 87500 333 92033
AAXX 15061 47189 32670 71602 10093 20016 30163 40223 57014 87500 333 92022
AAXX 15061 47192 32978 53609 10049 21181 30197 40235 57017 80001
AAXX 15064 08261 12770 72705 10084 20067 39831 40322 53013 60002 8705/ 333 20075 31006 55034 79999
BBXX A8OU4 15064 99430 71756 41/97 82833 10040 21016 40000 52020 76976 8//// 22224 00120 21210 3//// 4//// 5//// 80020
BBXX 42376 15061 99291 70879 46/// /1009 10225 40206 90540 22200 10503 70015
BBXX 42392 15061 99272 70900 46/// ///// 1//// 90540 22200 10504 70019
BBXX 42887 15061 99282 70885 46/// /1608 1//// 90540 22200 10504 70019
BBXX VRDO9 15064 99063 10033 41396 60610 10240 20226 40140 5//// 70521 85278 22200 04200 20102 306// 40101 5//// 6//// 80230 ICE /////
BBXX 42370 15061 99273 70905 46/// ///// 10220 90540 22200 10504 70018
BBXX 42369 15061 99272 70903 46/// /1608 1//// 90540 22200 10504 70019
BBXX 42013 15061 99272 70829 46/// ///// 1//// 40232 90620 22200 00200
BBXX 42013 15061 99272 70829 46/// ///// 1//// 40233 58012 90600 22200 00200
BBXX SKEC 15061 99625 10200 46/// ///// 10033 49857 57011 22241 00046
AAXX 15061 28711 11496 82008 11099 21109 39934 40333 54000 60040 77173 8552/ 333 21139 85611 91011 91111 92982
AAXX 15064 17088 12670 60000 11013 21063 38865 48556 52011 60002 84550 333 21023 34104 55004 20301 84640 86360
AAXX 1506/ 89327 46/// ///// 11035 39594 4//// 5//// 90630
AAXX 1506/ 89329 46/// ///// 11144 38668 4//// 5//// 90630
AAXX 1506/ 89868 46/// ///// 11059 4//// 5//// 90630
AAXX 1506/ 89332 46/// ///// 11081 39155 4//// 5//// 90630
AAXX 1506/ 89769 46/// ///// 11053 39806 4//// 5//// 90630
AAXX 1506/ 89314 46/// ///// 11164 38146 4//// 5//// 90630
BBXX VRGM8 15063 99130 10576 41297 30718 10270 20202 40152 50001 70200 83162 22264 00274 20504 306// 40403 80225
BBXX 62304 15064 99511 10018 46/98 /2334 10080 20037 49959 56011 22200 00119 10703 70016 333 90710 91145
BBXX 63106 15064 99610 10017 46/// /2923 10065 49759 53024 22200
BBXX 63113 15064 99610 10017 46/// /2920 10068 20025 49771 52023 22200 10706 70032
BBXX 62107 15064 99501 70061 46/// /3045 10094 20041 40021 52025 22200 00115 11114 70072 333 90710 91156
BBXX 63110 15063 99595 10015 41/98 /2730 10071 20033 49800 72586 8//// 22200 10907 70035
BBXX 62103 15064 99499 70029 46/98 /2938 10098 20038 40000 52029 22200 00124 11112 70060 333 90710 91153
AAXX 15064 62600 31968 03610 10140 20080 39986 40207 70600 10275 20115 58019
AAXX 15064 62640 32970 03610 10210 20035 39770 40131 10310 20165 58002
AAXX 15064 62641 31560 43211 10240 20190 30105 40158 82502 10278 2011 56909 59005 82630 82075 62650 32970 03412 10145 20025 39896 40176 10300 20126 58016
AAXX 15064 62660 32970 73601 10190 20020 39868 40178 80007 10320 20152 56009 58019 87275
AAXX 15064 62680 31968 33606 10210 20100 39734 40133 70600 58005 83080
AAXX 15064 62721 31958 73607 10210 20080 39701 40143 70622 80007 10334 20184 56009 58017 87275
AAXX 15064 62730 32970 03603 10240 20180 39592 40157 10353 20195 58012
AAXX 15064 62733 32970 03601 10230 20170 39625 40134 10345 20180 58012
AAXX 15064 62750 32970 73410 10220 20080 39687 40122 80007 10332 20203 56009 58021 87275
AAXX 15064 62751 32970 73604 10232 20008 39683 40146 80007 10348 20160 56009 58022 87275
AAXX 15064 62752 32970 70206 10250 20120 39445 40118 80007 10366 20212 56009 58017 87275
AAXX 15064 62760 32970 70503 10152 20004 39325 40161 80007 10312 20115 56009 58010 87275
AAXX 15064 62762 32970 70407 10208 20062 39643 40122 80007 10350 20140 56009 58017 87275
AAXX 15064 62770 32970 70609 10150 21040 39247 40169 80007 10315 20130 56009 58006 87275
BBXX SHIP 15064 99356 31188 41/97 60925 10185 20160 40149 70222 222// 00085 20500 324// 40504 5////
BBXX V7EM3 15063 99352 31719 41/98 30515 10200 20176 40046 54000 701// 8///8 22273 00180 2//// 329// 40406 80185
BBXX SHIP 15064 99356 31188 41/97 60925 10185 20160 40149 70222 222// 00085 20500 324// 40504 5////
BBXX V7EM3 15063 99352 31719 41/98 30515 10200 20176 40046 54000 701// 8///8 22273 00180 2//// 329// 40406 80185
BBXX VRGM8 15063 99130 10576 41297 30718 10270 20202 40152 50001 70200 83162 22264 00274 20504 306// 40403 80225
BBXX 42376 15061 99291 70879 46/// /1009 10225 40206 90540 22200 10503 70015
BBXX 42392 15061 99272 70900 46/// ///// 1//// 90540 22200 10504 70019
BBXX 42887 15061 99282 70885 46/// /1608 1//// 90540 22200 10504 70019
BBXX A8OU4 15064 99430 71756 41/97 82833 10040 21016 40000 52020 76976 8//// 22224 00120 21210 3//// 4//// 5//// 80020
AAXX 15064 71904 16/// ///// 11134 21148 60001 333 11026 21164 70000
AAXX 15064 16232 12898 31908 1//// 2//// 30098 4//// 58023 60002 83040 333 2//// 30/// 55013 20346 55300 83358 555 0215/
AAXX 15064 60353 11565 81806 10125 20090 40251 53020 60004 700// 888// 333 00700 20114 84820 86630 91837 95990
AAXX 15064 60367 11960 2//// 10118 20091 40254 53006 60004 700// 80002 333 20095 82070
AAXX 15064 60369 NIL
AAXX 15064 60401 NIL
AAXX 15064 60403 11960 30000 10043 20036 40268 53003 60004 700// 80002 333 00100 20038 83075 95990
AAXX 15064 60425 12670 60000 10122 20114 40279 52008 60004 82232 333 00700 20114 82830 83360 95990
AAXX 15064 60461 13970 52410 10140 20112 40274 53020 60004 83032 222// 20000 333 20140 83360 83073 91828 95990
AAXX 15064 60467 11670 40000 10062 20044 40280 53005 60004 700// 82831 333 00200 20044 82833 83073 95990
AAXX 15064 60492 11965 52106 10140 20122 40278 53012 60004 700// 80002 333 00900 20114 85073 95990
AAXX 15064 60515 NIL
AAXX 15064 60517 11560 51204 10137 20103 40294 53006 60004 700// 83230 333 0//00 20125 83826 84360 95990
AAXX 15064 60522 11570 60000 10083 20068 40306 5//// 60004 700// 86800 333 00300 20065 82826 85630 95990
AAXX 15064 60557 11965 00000 10005 21005 38959 48593 53016 60004 700// 333 00000 20001 95990
AAXX 15064 60563 12560 60310 10076 20061 39373 48571 53007 60004 83202 333 00100 20050 83830 84073
AAXX 15064 60603 12960 50204 10087 20020 40273 54000 60004 82031 333 0//00 20085 82360 83073
AAXX 15064 60638 12560 5//// 10094 20074 40252 53012 60004 85500 333 00500 20086 85640
AAXX 15064 60686 NIL
AAXX 15064 60395 12665 60000 10105 20095 40269 53018 60004 83232 333 00700 20098 83840 83073 95990
AAXX 15064 60421 12960 20000 10007 21001 39214 48549 53001 60004 700// 80002 333 05200 21001 82070 95900
AAXX 15064 60423 11965 30000 10078 20069 39269 48538 51008 60004 700// 80002 333 20072 83073 95990
AAXX 15064 60430 11360 72806 10105 20091 40288 53010 60004 700// 878// 333 00900 20100 82706 85820 95990
AAXX 15064 60437 11/01 92606 10070 20070 39058 48556 51006 60004 7474/ 333 00600 20069 89/// 95990
AAXX 15064 60444 12660 40000 10050 20038 39162 48568 53010 60004 81202 333 00200 20046 81833 84073 95990
AAXX 15064 60452 12465 6//// 10148 20114 40270 53004 60004 84202 222// 20000 333 20144 83716 83073 91827
AAXX 15064 60457 12562 62208 10138 20110 40272 53012 60004 86200 333 00800 20118 86820 95990
AAXX 15064 60514 11960 30000 10075 20059 39349 48576 53010 60004 700// 80002 333 00200 20069 83073 95990
AAXX 15064 60518 11565 62410 10150 20109 40267 52008 60004 700// 83230 222// 20000 333 00900 20144 83820 84360 91807 95990
AAXX 15064 60520 11960 22307 10098 20073 40286 53010 60004 700// 80002 333 00200 20055 82073 95990
AAXX 15064 60540 11660 60000 10027 20010 39121 48575 5//// 60004 700// 85570 333 05200 20021 85633 83460 95990
AAXX 15064 60560 11960 00000 10054 20016 39047 48586 52019 60004 700// 333 00200 20044 95990
AAXX 15064 91631 11498 80312 10279 20242 40075 69951 71582 8137/ 333 5619/
AAXX 15064 91636 11599 51013 10286 20252 40078 60001 71422 83208 333 562/9
AAXX 15064 91648 11599 30514 10287 20243 40084 60001 70211 83200 333 561//
AAXX 15064 91631 11498 80312 10279 20242 40075 69951 71582 8137/ 333 5619/
AAXX 15064 91636 11599 51013 10286 20252 40078 60001 71422 83208 333 562/9
AAXX 15064 91648 11599 30514 10287 20243 40084 60001 70211 83200 333 561//
AAXX 15064 60520 11960 22307 10098 20073 40286 53010 60004 700// 80002 333 00200 20065 82073 95990
AAXX 15064 60369 12960 30000 10162 20080 40263 53007 60004 82082 333 20151 82360 91837
BBXX MINFR09 1506/ 99378 31449 46/// ///// 40173 57009
AAXX 15064 60686 12760 50712 10109 21074 40196 52005 60004 82532 333 00800 20105 82656
AAXX 15064 60515 12660 30000 10108 20067 40280 55000 60004 700// 83800 333 00400 20065 83833 95990
AAXX 15064 91375 46/// /0511 10282 40079 22200 00285
BBXX A8OU4 15064 99430 71756 41/97 82833 10040 21016 40000 52020 76976 8//// 22224 00120 21210 3//// 4//// 5//// 80020
AAXX 15064 91165 32666 40811 10240 20200 30148 40183 53012 90553
AAXX 15064 91212 12566 61011 10272 20244 31346 40082 55014 60101 90554
AAXX 15064 91245 32566 20815 10270 20200 30137 90559
AAXX 15064 91285 12366 82303 10211 20194 30178 40190 51015 60031 90553
AAXX 15064 91334 11348 89905 10257 20237 30066 40069 55005 60071 78082 8437/
AAXX 15064 91367 32474 20809 10294 20257 82100
AAXX 15064 91371 32474 40915 10278 20263 30091 40094 83243
AAXX 15064 91376 32474 80911 10283 20215 30076 40080 53008 84871
AAXX 15064 91408 11474 81412 10280 20244 30008 40046 55010 60031 72582 83278
AAXX 15064 91413 11469 80909 10299 20254 30024 40049 57017 69931 70282 82372
AAXX 15064 91610 11599 20913 10284 20235 40070 53006 60001 70100 82200
AAXX 15064 91155 NIL
AAXX 15064 91203 NIL
AAXX 15064 91217 NIL
AAXX 15064 91232 NIL
AAXX 15064 91250 NIL
AAXX 15064 91275 NIL
AAXX 15064 91317 NIL
AAXX 15064 91324 NIL
AAXX 15064 91339 NIL
AAXX 15064 91348 NIL
AAXX 15064 91353 NIL
AAXX 15064 91356 NIL
AAXX 15064 91366 NIL
AAXX 15064 91369 NIL
AAXX 15064 91378 NIL
AAXX 15064 91425 NIL
AAXX 15064 91434 NIL
AAXX 15064 91601 NIL
BBXX 42369 15061 99272 70903 46/// /1608 1//// 90600 22200 10504 70018
BBXX 42370 15061 99273 70905 46/// ///// 10220 90600 22200 10504 70018
BBXX 42376 15061 99291 70879 46/// /1009 10225 40206 90600 22200 10503 70015
BBXX 42392 15061 99272 70900 46/// ///// 1//// 90600 22200 10504 70019
BBXX 42887 15061 99282 70885 46/// /1608 1//// 90600 22200 10504 70020
BBXX 62304 15064 99511 10018 46/98 /2334 10080 20037 49959 56010 22200 00119 10703 70016 333 90710 91145
BBXX AMOUK08 15064 99501 70061 46/// ///// 10096 20050 30016 40021 52024 90550
BBXX 63110 15064 99595 10015 47598 /2721 10069 20032 49802 52021 700// 22200 10707 70033
BBXX 63106 15064 99610 10017 46/// /2923 10065 49759 53024 22200
BBXX 63105 15064 99610 10017 47597 ///// 10070 20029 49758 53024 700// 22200
BBXX 62103 15064 99499 70029 46/98 /2843 10088 20019 49988 52020 22200 00124 11013 70064 333 90710 91155
AAXX 15064 91165 32666 40811 10240 20200 30148 40183 53012 90553
AAXX 15064 91212 12566 61011 10272 20244 31346 40082 55014 60101 90554
AAXX 15064 91285 12366 82303 10211 20194 30178 40190 51015 60031 90553
AAXX 15064 91334 11348 89905 10257 20237 30066 40069 55005 60071 78082 8437/
AAXX 15064 91371 32474 40915 10278 20263 30091 40094 83243
AAXX 15064 91376 32474 80911 10283 20215 30076 40080 53008 84871
AAXX 15064 91408 11474 81412 10280 20244 30008 40046 55010 60031 72582 83278
AAXX 15064 91413 11469 80909 10299 20254 30024 40049 57017 69931 70282 82372
AAXX 15064 91245 32566 20815 10270 20200 30137 90559
BBXX 42370 15061 99273 70905 46/// ///// 10220 90600 22200 10504 70018
BBXX 42887 15061 99282 70885 46/// /1608 1//// 90600 22200 10504 70020
BBXX 42392 15061 99272 70900 46/// ///// 1//// 90600 22200 10504 70019
BBXX 42376 15061 99291 70879 46/// /1009 10225 40206 90600 22200 10503 70015
BBXX 42369 15061 99272 70903 46/// /1608 1//// 90600 22200 10504 70018
BBXX MINFR09 1506/ 99378 31449 46/// ///// 40173 57009
BBXX SHIP 15064 99356 31188 41/97 60925 10185 20160 40149 70222 222// 00085 20500 324// 40504 5////
BBXX V7EM3 15063 99352 31719 41/98 30515 10200 20176 40046 54000 701// 8///8 22273 00180 2//// 329// 40406 80185
AAXX 15061 60370 16/// /1602 10110 20089 69924 333 20110
AAXX 15061 60371 36/// /2102 10152 20111 333 20126
AAXX 15061 60372 36/// /2704 10127 20119 333 20113
AAXX 15061 60373 NIL
AAXX 15061 60374 NIL
AAXX 15061 60376 NIL
AAXX 15061 60379 NIL
AAXX 15061 60380 NIL
AAXX 15061 60381 NIL
AAXX 15061 60393 NIL
AAXX 15061 60394 NIL
AAXX 15061 60593 NIL
AAXX 15061 60595 NIL
AAXX 15061 60605 NIL
AAXX 15061 60613 NIL
AAXX 15061 60623 NIL
AAXX 15064 60624 36/// /0000 10122 21014 333 20119
AAXX 15064 60639 NIL
AAXX 15064 60645 36/// /0000 10115 20001 333 20115
AAXX 15064 71721 17/// /1608 10007 20003 39876 40123 56052 60031 7//4/ 333 10011 21007 70030
AAXX 15064 71824 46/// /1403 11033 21037 6///1 333 11033 21133 7////
AAXX 15064 71619 16/// /2309 11016 21061 30196 40255 55007 60001 333 11015 21054 70000
AAXX 15064 60595 36/// /0000 11451 333 21451
AAXX 15064 60381 16/// /1801 10106 20087 69924 333 20102
AAXX 15064 60639 36/// /0810 10094 20030 333 20091
AAXX 15064 60605 36/// /2801 10110 20018 333 20110
AAXX 15061 60373 36/// /2603 10128 20108 333 20128
AAXX 15061 60623 36/// -0000 10096 21025 333 20096
AAXX 15061 60393 36/// /1401 10117 20087 333 20112
AAXX 15061 60376 16/// /1604 10113 20113 69924 333 20113
AAXX 15061 60593 36/// /0000 10090 333 20089
AAXX 15061 60379 16/// /1601 10105 20105 69924 333 20100
AAXX 15061 60380 16/// /1201 10106 20089 69924 333 20105
AAXX 15061 60394 16/// /0000 10089 20089 69924 333 20086
AAXX 15061 60374 36/// /2506 10166 20143 333 20136
AAXX 15061 60613 36/// /1004 10078 20033 333 20073
AAXX 15064 71550 16/// /3215 11037 21066 39730 40109 53029 60001 333 11027 21054 70000 555 33424 40061
AAXX 15061 01218 11787 81604 10078 21007 39722 49743 51006 69972 70382 83280 333 20031 42003 70007 91108
BBXX 42047 15061 99279 70936 46/// /1608 10216 20198 40175 90630 22200 00228 333 91209
BBXX 62304 15064 99511 10018 46/98 /2334 10080 20037 49959 56011 22200 00119 10703 70016 333 90710 91145
BBXX 63106 15064 99610 10017 46/// /2923 10065 49759 53024 22200
BBXX 63113 15064 99610 10017 46/// /2920 10068 20025 49771 52023 22200 10706 70032
BBXX 62107 15064 99501 70061 46/// /3045 10094 20041 40021 52025 22200 00115 11114 70072 333 90710 91156
BBXX 63110 15063 99595 10015 41/98 /2730 10071 20033 49800 72586 8//// 22200 10907 70035
BBXX 62103 15064 99499 70029 46/98 /2938 10098 20038 40000 52029 22200 00124 11112 70060 333 90710 91153
BBXX 42369 15061 99272 70903 46/// /1608 1//// 90620 22200 10504 70018
BBXX 42370 15061 99273 70905 46/// ///// 10220 90620 22200 10504 70018
BBXX 42376 15061 99291 70879 46/// /1009 10225 40206 90620 22200 10503 70015
BBXX 42392 15061 99272 70900 46/// ///// 1//// 90620 22200 10504 70019
BBXX 42887 15061 99282 70885 46/// /1608 1//// 90620 22200 10504 70020
BBXX UBAU 15061 99135 70174 41098 20411 10245 40128 54000 70211 82600 22281 04258 20402
BBXX 42370 15061 99273 70905 46/// ///// 10220 90620 22200 10504 70018
BBXX 42376 15061 99291 70879 46/// /1009 10225 40206 90620 22200 10503 70015
BBXX 42887 15061 99282 70885 46/// /1608 1//// 90620 22200 10504 70020
BBXX 42392 15061 99272 70900 46/// ///// 1//// 90620 22200 10504 70019
BBXX 42369 15061 99272 70903 46/// /1608 1//// 90620 22200 10504 70018
BBXX 42047 15061 99279 70936 46/// /1608 10216 20198 40175 90630 22200 00228 333 91209
AAXX 15064 67243 12570 4//// 10272 20246 4//// 60014 82231 333 20230 50/// 55/// 5//// 94320 555 00011 10000
AAXX 15064 67280 32575 4//// 10308 20244 40101 81831 333 20245 50125 55056 58011 94380 555 10000
AAXX 15064 67283 32580 10305 10258 20195 40111 81831 333 20218 5///0 55082 58008 94320 555 10000
AAXX 15064 67291 12580 4//// 10249 20224 3//// 48/// 60114 83201 333 20220 50/// 55037 5//// 94320 555 00107 10159
AAXX 15064 67323 12580 63505 10290 20256 40096 50002 60234 85272 333 20210 50390 55008 94320 555 00234 10000
AAXX 15064 67331 12580 51718 10298 20231 40088 57002 69944 85200 333 20245 50/// 55/// 94320 555 10000
AAXX 15064 67335 12580 73603 10276 20237 40076 50000 60144 8323/ 333 20/// 50/// 55/// 94328 555 00143 10027
AAXX 15064 67341 11565 7//// 10262 20232 40091 50008 60464 70152 8723/ 333 20242 50//0 55/// 94320 555 00458 10000
AAXX 15064 67346 12580 83610 10240 20/// 40094 52020 60144 882// 333 20226 50790 50522 94320 555 00136 10000
BBXX 62304 15064 99511 10018 46/98 /2334 10080 20037 49959 56010 22200 00119 10703 70016 333 90710 91145
BBXX AMOUK08 15064 99501 70061 46/// ///// 10096 20050 30016 40021 52024 90550
BBXX 63110 15064 99595 10015 47598 /2721 10069 20032 49802 52021 700// 22200 10707 70033
BBXX 63106 15064 99610 10017 46/// /2923 10065 49759 53024 22200
BBXX 63105 15064 99610 10017 47597 ///// 10070 20029 49758 53024 700// 22200
BBXX 62103 15064 99499 70029 46/98 /2843 10088 20019 49988 52020 22200 00124 11013 70064 333 90710 91155
BBXX MINFR05 1506/ 99496 70002 46/// ///// 10068 40020 52010
BBXX MINFR05 1506/ 99496 70002 46/// ///// 10068 40020 52010
BBXX 9MBW7 15064 99097 11175 41298 60117 10290 20262 40040 56010 70303 86233 22214 00290 2//// 80270
BBXX MINFR05 1506/ 99496 70002 46/// ///// 10068 40020 52010
BBXX 62304 15064 99511 10018 46/98 /2334 10080 20037 49959 56011 22200 00119 10703 70016 333 90710 91145
BBXX 63106 15064 99610 10017 46/// /2923 10065 49759 53024 22200
BBXX 63113 15064 99610 10017 46/// /2920 10068 20025 49771 52023 22200 10706 70032
BBXX 62107 15064 99501 70061 46/// /3045 10094 20041 40021 52025 22200 00115 11114 70072 333 90710 91156
BBXX 63110 15063 99595 10015 41/98 /2730 10071 20033 49800 72586 8//// 22200 10907 70035
BBXX 62103 15064 99499 70029 46/98 /2938 10098 20038 40000 52029 22200 00124 11112 70060 333 90710 91153
BBXX SHIP 15064 99097 11175 41298 60117 10290 20262 40040 56010 70303 86233 22214 00290 2//// 80270
AAXX 1506/ 89866 46/// ///// 11031 39718 4//// 5////
AAXX 1506/ 89769 46/// ///// 11045 39807 4//// 5////
AAXX 15061 28064 42999 20000 11262 21294 30294 40398 52011 80001
AAXX 15061 20292 41998 22608 11133 21146 30022 40042 58003 73683 81031 333 91113
AAXX 15061 30252 41997 81401 11271 21295 30111 40466 57020 77172 8805/
AAXX 15061 30829 42999 00000 11195 21228 39713 40464 57010
AAXX 15061 28722 11594 81802 11133 21142 30214 40355 58002 60010 78682 889// 333 21248
AAXX 15061 80001 32470 60603 10270 20235 30112 40113 81236 333 56100 59007 81816 84270
AAXX 15061 80002 NIL
AAXX 15061 80009 NIL
AAXX 15061 80022 11561 40702 10264 20247 30094 40096 60261 70552 81131 333 56699 59002 81820 83070
AAXX 15061 80028 1460 30506 10270 20243 30068 40103 70511 83600 333 561// 59001 83712
AAXX 15061 80035 NIL
AAXX 15061 80036 NIL
AAXX 15061 80063 NIL
AAXX 15061 80084 NIL
AAXX 15061 80091 NIL
AAXX 15061 80094 NIL
AAXX 15061 80097 NIL
AAXX 15061 80099 NIL
AAXX 15061 80110 NIL
AAXX 15061 80112 31360 80000 10142 20137 37898 70522 8468/ 333 56999 58001 84708 86358
AAXX 15061 80139 NIL
AAXX 15061 80144 NIL
AAXX 15061 80149 NIL
AAXX 15061 80210 01450 81401 10180 20169 38663 60021 75165 84520 333 5699/ 58/// 69917 84612 84458
AAXX 15061 80211 NIL
AAXX 15061 80214 NIL
AAXX 15061 80222 41462 82802 10119 20111 37511 70595 8387/ 333 5699/ 59005 84817 84458
AAXX 15061 80234 NIL
AAXX 15061 80241 NIL
AAXX 15061 80259 41460 80000 10208 20198 39054 70552 8257/ 333 5629/ 58002 82615 87459
AAXX 15061 80315 NIL
AAXX 15061 80342 NIL
AAXX 15061 80370 NIL
AAXX 15061 80398 01440 80000 10240 20234 30003 40078 696188701 333 5600/ 58003 88710
BBXX 62304 15064 99511 10018 46/98 /2334 10080 20037 49959 56010 22200 00119 10703 70016 333 90710 91145
BBXX AMOUK08 15064 99501 70061 46/// ///// 10096 20050 30016 40021 52024 90550
BBXX 63110 15064 99595 10015 47598 /2721 10069 20032 49802 52021 700// 22200 10707 70033
BBXX 63106 15064 99610 10017 46/// /2923 10065 49759 53024 22200
BBXX 63105 15064 99610 10017 47597 ///// 10070 20029 49758 53024 700// 22200
BBXX 62103 15064 99499 70029 46/98 /2843 10088 20019 49988 52020 22200 00124 11013 70064 333 90710 91155
AAXX 15064 71724 16/// /0505 10010 21006 30186 40194 56040 60001 333 10012 20001 70000
AAXX 15061 37126 42999 81202 11001 21097 37983 48552 54000 86031
AAXX 15061 11155 11488 81708 11027 21044 38295 48427 58014 60072 70273 81507 333 11008 21031 44028 81610 88272 95103 91133 444 17120
AAXX 15064 71758 16/// /2704 11034 21075 30192 40271 56009 60001 333 10023 21034 70003 555 30422 40081
AAXX 15064 71758 16/// /2704 11034 21075 30192 40271 56009 60001 333 10023 21034 70003 555 30422 40081
AAXX 15061 11487 01984 79901 10013 21016 39488 40120 57008 60002 703// 81048 333 20011 34103 60005 70011 81364 87272 91113
AAXX 15064 60105 11350 80607 10130 20120 40300 5//// 60024 7606/ 882// 333 20111 32006 86710 84816
AAXX 15064 41529 12997 00000 10150 20028 39825 40209 60001 333 58005
AAXX 15064 41598 11996 00000 10145 20049 39920 40196 60001 70500 333 58012
AAXX 15064 41620 32997 02305 10125 21144 38640 48542 333 58006
AAXX 15064 41624 02997 00000 10135 20049 39997 40203 60001 333 58013 60007
AAXX 15064 41640 01996 02702 10170 20012 39947 40200 60001 70400 333 58006 60007
AAXX 15064 41660 11996 03106 10060 21062 38498 48588 60001 70500 333 58013
AAXX 15064 41675 11995 00000 10180 20044 30052 40196 60001 70500 333 58002
AAXX 15064 41712 12997 00504 10110 21066 39286 48579 60001 333 58008
AAXX 15064 41715 01996 03102 10195 20103 30130 40197 60001 70500 333 59008 60007
AAXX 15064 41756 01996 03610 10230 20126 30129 40193 60001 70500 333 59005 60007
AAXX 15064 41764 32996 03604 10215 20025 30133 40184 60001 333 59012 60001
AAXX 15064 41768 02996 00000 10220 20090 30185 40192 60001 333 58000 60007
AAXX 15064 41780 01996 00000 10240 20117 30167 40194 60001 70500 333 58000 60007
AAXX 15064 41515 02997 00000 10067 21184 38596 48556 60001 333 58013 60007
AAXX 15064 41560 22697 31803 10030 21051 38262 48494 60001 82430 333 59006 60007
AAXX 15064 41571 11995 00000 10150 20007 39605 40194 70500 333 58007
AAXX 15064 41594 31996 02706 10180 20058 39981 40200 70500 333 58010
AAXX 15064 41685 32997 03106 10165 21118 38950 48534 333 59001
AAXX 15064 41710 02997 03102 10120 21123 39451 40242 60001 333 58008 60007
AAXX 15064 41718 11995 02302 10180 20044 30086 40191 60001 70500 333 59005
AAXX 15064 41739 02997 00506 10130 21027 39110 48556 60001 333 58004 60007
AAXX 15064 41744 32996 03602 10170 21049 38808 48534 333 58008
AAXX 15064 41749 01995 00000 10190 20072 30163 40196 60001 70400 333 59007 60007
AAXX 15064 41506 22997 00000 10070 21036 48569 60001 333 58000 60007
AAXX 15064 41508 22997 00000 10067 21143 48559 60001 333 59009 60007
AAXX 15064 41523 12997 00000 10115 21035 48557 60001 333 58022 60007
AAXX 15064 41535 12997 01302 10120 20007 48504 60001 333 58000
AAXX 15064 41536 02997 00000 10115 21035 48529 60001 333 59001 60007
AAXX 15064 41573 12997 00000 10125 20009 48511 60001 333 58008
AAXX 15064 41600 01995 00000 10165 20050 39896 40189 60001 70400 333 58009 60007
AAXX 15064 41630 11995 00000 10180 20071 40204 60001 70500 333 58011
AAXX 15064 41678 12997 00000 10190 20072 40209 60001 333 58006
AAXX 15064 41696 32997 00000 10075 21121 38055 48568 60001 333 58005 60007
AAXX 15064 41697 02997 00000 10189 20085 40191 60001 333 59013 60007
AAXX 15064 41700 11996 01302 10180 20029 40187 60001 70500 333 59004
AAXX 15064 41725 01996 00000 10200 20086 40196 60001 70500 333 58002 60007
AAXX 15064 41746 02996 03602 10185 20078 40203 60001 333 58010 60007
AAXX 15064 41759 12996 03604 10235 21032 30187 40192 60001 333 59004
AAXX 15064 41785 02997 00502 10205 20093 40185 60001 333 59011 60007
AAXX 15064 62772 32970 03605 10220 20010 39703 40139 10334 20198 58015
AAXX 15064 62774 32970 73610 10230 20060 39/// 40/// 80007 10360 20190 56009 5//// 87275
AAXX 15064 62781 32970 70403 10200 20040 39507 40150 80007 10345 20150 56009 58002 87275
AAXX 15064 62790 32970 70212 10210 20020 39427 40160 80007 10314 20153 56009 58005 87275
AAXX 15064 66795 32970 70205 10240 20060 39621 40122 80007 10382 20195 56009 58025 87275
AAXX 15064 62803 31969 70517 10233 20095 39/// 40/// 70722 80007 10303 20202 56009 5//// 87275
AAXX 15064 62805 32970 73604 10240 20070 39582 40111 80007 10375 20200 56009 58018 87275
AAXX 15064 62809 32970 70405 10215 20060 39283 40044 80007 10333 20176 56009 58007 87275
AAXX 15064 62810 32970 73606 10230 20110 39/// 40/// 80007 10350 20205 56009 5//// 87275
BBXX 62304 15064 99511 10018 46/98 /2334 10080 20037 49959 56011 22200 00119 10703 70016 333 90710 91145
BBXX 63106 15064 99610 10017 46/// /2923 10065 49759 53024 22200
BBXX 63113 15064 99610 10017 46/// /2920 10068 20025 49771 52023 22200 10706 70032
BBXX 62107 15064 99501 70061 46/// /3045 10094 20041 40021 52025 22200 00115 11114 70072 333 90710 91156
BBXX 63110 15063 99595 10015 41/98 /2730 10071 20033 49800 72586 8//// 22200 10907 70035
BBXX 62103 15064 99499 70029 46/98 /2938 10098 20038 40000 52029 22200 00124 11112 70060 333 90710 91153
AAXX 15064 61404 32960 20808 10135 21005 39811 40209 80002 333 0//00 20135 5//// 58005 82073
AAXX 15064 61450 33960 80806 10155 20022 39713 40175 80002 333 0//00 20140 5//// 55/// 59012 88073
AAXX 15064 61461 32960 50804 10205 21028 30081 40168 85070 333 0//00 20200 5//// 55/// 58006 85363
AAXX 15064 61489 32958 70804 10204 21002 30154 40161 8707/ 333 0//00 20197 51084 55/// 58007 87363
AAXX 15064 61497 35960 70810 10180 21048 39906 4//// 80002 333 0//00 20176 5//// 55/// 58002 87073
AAXX 15061 29594 11999 01101 11192 21204 30037 40458 51004 69922 70281 333 11128
AAXX 15064 41978 31928 02906 10230 20090 30141 40147 70500 333 59012 70000
BBXX A8IZ2 15064 99257 70759 41596 70315 10220 20140 40240 55025 70310 87/// 22234 80170
BBXX 62304 15064 99511 10018 46/98 /2334 10080 20037 49959 56010 22200 00119 10703 70016 333 90710 91145
BBXX AMOUK08 15064 99501 70061 46/// ///// 10096 20050 30016 40021 52024 90550
BBXX 63110 15064 99595 10015 47598 /2721 10069 20032 49802 52021 700// 22200 10707 70033
BBXX 63106 15064 99610 10017 46/// /2923 10065 49759 53024 22200
BBXX 63105 15064 99610 10017 47597 ///// 10070 20029 49758 53024 700// 22200
BBXX 62103 15064 99499 70029 46/98 /2843 10088 20019 49988 52020 22200 00124 11013 70064 333 90710 91155
BBXX A8IZ2 15064 99257 70759 41596 70315 10220 20140 40240 55025 70310 87/// 22234 80170
AAXX 15064 62325 32560 50103 10169 20118 40222 52010 85500 333 20155
BBXX 62304 15064 99511 10018 46/98 /2334 10080 20037 49959 56011 22200 00119 10703 70016 333 90710 91145
BBXX 63106 15064 99610 10017 46/// /2923 10065 49759 53024 22200
BBXX 63113 15064 99610 10017 46/// /2920 10068 20025 49771 52023 22200 10706 70032
BBXX 62107 15064 99501 70061 46/// /3045 10094 20041 40021 52025 22200 00115 11114 70072 333 90710 91156
BBXX 63110 15063 99595 10015 41/98 /2730 10071 20033 49800 72586 8//// 22200 10907 70035
BBXX 62103 15064 99499 70029 46/98 /2938 10098 20038 40000 52029 22200 00124 11112 70060 333 90710 91153
AAXX 15064 60155 32956 020// 10114 20098 40274 51001 333 20110 31005
AAXX 15064 60190 32970 00804 10052 20030 40303 54000 333 20050 30003
AAXX 15064 60191 32970 03003 10035 20027 40310 5//// 333 20030 30102
AAXX 15061 48921 31457 21401 10175 20088 38576 48071 57014 71044 82200 333 59007
AAXX 15061 48924 31557 22201 10209 20151 39515 40141 57030 71044 82100 333 59004
AAXX 15061 48925 31458 21803 10202 20132 39409 40142 57024 71044 82200 333 58002
AAXX 15061 48926 32560 10903 10256 20121 39683 40149 57021 81100 333 59003
AAXX 15061 48927 31320 80402 10142 20120 39186 48649 57007 71044 888// 333 58019
AAXX 15061 48928 31420 80903 10142 20114 39102 48570 57019 71044 888// 333 58021
AAXX 15061 48930 31459 10402 10238 20148 39810 40159 57028 70544 81100 333 59007
AAXX 15061 48935 32464 20403 10175 20110 38978 48473 57024 82100 333 58004
AAXX 15061 48938 31559 13202 10228 20155 39817 40152 57030 70544 81100 333 59027
AAXX 15061 48940 31958 02002 10293 20171 39928 40120 57033 70544 333 59019
AAXX 15061 48941 31567 12203 10274 20161 3//// 4//// 5//// 70544 81100 333 5////
AAXX 15061 48944 31650 20906 10209 20124 39530 40118 57003 70544 82500 333 58002
AAXX 15061 48945 31456 10402 10285 20175 39956 40133 57035 70544 81100 333 59017
AAXX 15061 48946 31558 20403 10286 20240 39965 40128 57025 70544 81110 333 59012
AAXX 15061 48947 32461 40402 10292 20190 39998 40163 57012 82230 333 58017
AAXX 15061 48948 32965 20604 10292 20190 3998 40163 57012 82230 333 58017
AAXX 15061 48952 31559 63603 10280 20180 39921 40111 57003 70544 86830 333 58001
AAXX 15061 48953 31559 72702 10294 20211 39904 40066 57028 70544 84800 333 59012
AAXX 15061 48955 32760 43602 10288 20182 39992 40108 57025 84500 333 59013
AAXX 15061 48957 31568 43602 10318 20192 39983 40088 57023 70544 83202 333 59003
AAXX 15061 02513 07/83 /2004 10050 20020 39892 49896 57002 69902 70086 333 10064 20050 60005 70000 90710 91111
BBXX 62304 15064 99511 10018 46/98 /2334 10080 20037 49959 56010 22200 00119 10703 70016 333 90710 91145
BBXX AMOUK08 15064 99501 70061 46/// ///// 10096 20050 30016 40021 52024 90550
BBXX 63110 15064 99595 10015 47598 /2721 10069 20032 49802 52021 700// 22200 10707 70033
BBXX 63106 15064 99610 10017 46/// /2923 10065 49759 53024 22200
BBXX 63105 15064 99610 10017 47597 ///// 10070 20029 49758 53024 700// 22200
BBXX 62103 15064 99499 70029 46/98 /2843 10088 20019 49988 52020 22200 00124 11013 70064 333 90710 91155
AAXX 15064 71854 43/// ///// 333 11008 21040 48010 70022 555 10022 20022
AAXX 15064 71854 43/// ///// 333 11008 21040 48010 70022 555 10022 20022
BBXX MINFR03 1506/ 99201 30574 46/// ///// 10283 40123 52003
AAXX 15061 01427 11470 82612 10078 20048 39829 49844 53021 60072 72582 88900 333 20055 70168 91118
BBXX MINFR03 1506/ 99201 30574 46/// ///// 10283 40123 52003
AAXX 15064 71322 46/// /3018 11267 21297 30109 40122 5/004 6///1 333 11220 21268 7////
BBXX MINFR03 1506/ 99201 30574 46/// ///// 10283 40123 52003
BBXX 62304 15064 99511 10018 46/98 /2334 10080 20037 49959 56011 22200 00119 10703 70016 333 90710 91145
BBXX 63106 15064 99610 10017 46/// /2923 10065 49759 53024 22200
BBXX 63113 15064 99610 10017 46/// /2920 10068 20025 49771 52023 22200 10706 70032
BBXX 62107 15064 99501 70061 46/// /3045 10094 20041 40021 52025 22200 00115 11114 70072 333 90710 91156
BBXX 63110 15063 99595 10015 41/98 /2730 10071 20033 49800 72586 8//// 22200 10907 70035
BBXX 62103 15064 99499 70029 46/98 /2938 10098 20038 40000 52029 22200 00124 11112 70060 333 90710 91153
AAXX 15064 82022 32970 00000 10270 20200 39993 40088 333 59010
BBXX 62304 15064 99511 10018 46/98 /2334 10080 20037 49959 56010 22200 00119 10703 70016 333 90710 91145
BBXX AMOUK08 15064 99501 70061 46/// ///// 10096 20050 30016 40021 52024 90550
BBXX 63110 15064 99595 10015 47598 /2721 10069 20032 49802 52021 700// 22200 10707 70033
BBXX 63106 15064 99610 10017 46/// /2923 10065 49759 53024 22200
BBXX 63105 15064 99610 10017 47597 ///// 10070 20029 49758 53024 700// 22200
BBXX 62103 15064 99499 70029 46/98 /2843 10088 20019 49988 52020 22200 00124 11013 70064 333 90710 91155
BBXX 62304 15064 99511 10018 46/98 /2334 10080 20037 49959 56011 22200 00119 10703 70016 333 90710 91145
BBXX 63106 15064 99610 10017 46/// /2923 10065 49759 53024 22200
BBXX 63113 15064 99610 10017 46/// /2920 10068 20025 49771 52023 22200 10706 70032
BBXX 62107 15064 99501 70061 46/// /3045 10094 20041 40021 52025 22200 00115 11114 70072 333 90710 91156
BBXX 63110 15063 99595 10015 41/98 /2730 10071 20033 49800 72586 8//// 22200 10907 70035
BBXX 62103 15064 99499 70029 46/98 /2938 10098 20038 40000 52029 22200 00124 11112 70060 333 90710 91153
AAXX 15061 78090 15/// /0000 10207 30220 40223 69901 90600 222// 00141
AAXX 15061 10637 01484 82106 10053 20031 39932 40070 55002 60012 72161 875// 333 10063 20038 31002 55006 55300 69957 70073 85617 87628 96263
AAXX 15064 03784 46/// /2315 10071 20029 39921 49924 56019 90550 333 20036
BBXX 62304 15064 99511 10018 46/98 /2334 10080 20037 49959 56010 22200 00119 10703 70016 333 90710 91145
BBXX AMOUK08 15064 99501 70061 46/// ///// 10096 20050 30016 40021 52024 90550
BBXX 63110 15064 99595 10015 47598 /2721 10069 20032 49802 52021 700// 22200 10707 70033
BBXX 63106 15064 99610 10017 46/// /2923 10065 49759 53024 22200
BBXX 63105 15064 99610 10017 47597 ///// 10070 20029 49758 53024 700// 22200
BBXX 62103 15064 99499 70029 46/98 /2843 10088 20019 49988 52020 22200 00124 11013 70064 333 90710 91155
AAXX 15064 71306 15966 83506 11100 21125 30022 40054 56007 60001 333 11022 21103 70000 555 32644 40163
BBXX 62304 15064 99511 10018 46/98 /2334 10080 20037 49959 56011 22200 00119 10703 70016 333 90710 91145
BBXX 63106 15064 99610 10017 46/// /2923 10065 49759 53024 22200
BBXX 63113 15064 99610 10017 46/// /2920 10068 20025 49771 52023 22200 10706 70032
BBXX 62107 15064 99501 70061 46/// /3045 10094 20041 40021 52025 22200 00115 11114 70072 333 90710 91156
BBXX 63110 15063 99595 10015 41/98 /2730 10071 20033 49800 72586 8//// 22200 10907 70035
BBXX 62103 15064 99499 70029 46/98 /2938 10098 20038 40000 52029 22200 00124 11112 70060 333 90710 91153
AAXX 15064 71642 13/// ///// 10000 60041 333 10006 21068 70060 555 10030 20060
AAXX 15064 71642 13/// ///// 10000 60041 333 10006 21068 70060 555 10030 20060
BBXX PBIG 15064 99194 70835 41698 60735 10256 20158 40140 54000 7//// 8/1// 22274 20305 80196
BBXX PBIG 15064 99194 70835 41698 60735 10256 20158 40140 54000 7//// 8/1// 22274 20305 80196
BBXX GLNE 15063 99119 70924 41/98 79901 10273 20229 40122 58003 70222 87/5/ 22241 04281 299// 332// 40603 5//// 80243
BBXX 62304 15064 99511 10018 46/98 /2334 10080 20037 49959 56010 22200 00119 10703 70016 333 90710 91145
BBXX AMOUK08 15064 99501 70061 46/// ///// 10096 20050 30016 40021 52024 90550
BBXX 63110 15064 99595 10015 47598 /2721 10069 20032 49802 52021 700// 22200 10707 70033
BBXX 63106 15064 99610 10017 46/// /2923 10065 49759 53024 22200
BBXX 63105 15064 99610 10017 47597 ///// 10070 20029 49758 53024 700// 22200
BBXX 62103 15064 99499 70029 46/98 /2843 10088 20019 49988 52020 22200 00124 11013 70064 333 90710 91155
BBXX GLNE 15063 99119 70924 41/98 79901 10273 20229 40122 58003 70222 87/5/ 22241 04281 299// 332// 40603 5//// 80243
AAXX 15064 91723 NIL
AAXX 15064 91964 NIL
BBXX 62304 15064 99511 10018 46/98 /2334 10080 20037 49959 56011 22200 00119 10703 70016 333 90710 91145
BBXX 63106 15064 99610 10017 46/// /2923 10065 49759 53024 22200
BBXX 63113 15064 99610 10017 46/// /2920 10068 20025 49771 52023 22200 10706 70032
BBXX 62107 15064 99501 70061 46/// /3045 10094 20041 40021 52025 22200 00115 11114 70072 333 90710 91156
BBXX 63110 15063 99595 10015 41/98 /2730 10071 20033 49800 72586 8//// 22200 10907 70035
BBXX 62103 15064 99499 70029 46/98 /2938 10098 20038 40000 52029 22200 00124 11112 70060 333 90710 91153
AAXX 15064 71268 43/// ///// 333 10040 20008 70080 555 10000 20000
BBXX 62304 15064 99511 10018 46/98 /2334 10080 20037 49959 56010 22200 00119 10703 70016 333 90710 91145
BBXX AMOUK08 15064 99501 70061 46/// ///// 10096 20050 30016 40021 52024 90550
BBXX 63110 15064 99595 10015 47598 /2721 10069 20032 49802 52021 700// 22200 10707 70033
BBXX 63106 15064 99610 10017 46/// /2923 10065 49759 53024 22200
BBXX 63105 15064 99610 10017 47597 ///// 10070 20029 49758 53024 700// 22200
BBXX 62103 15064 99499 70029 46/98 /2843 10088 20019 49988 52020 22200 00124 11013 70064 333 90710 91155
AAXX 15064 71845 43/// ///// 333 10003 21049 44009 70010 90999 555 10010 20010
AAXX 15064 71845 43/// ///// 333 10003 21049 44009 70010 90999 555 10010 20010
AAXX 15064 40340 31650 63612 10204 20083 40180 57018 70611 83530 333 83645 83360
BBXX 62304 15064 99511 10018 46/98 /2334 10080 20037 49959 56011 22200 00119 10703 70016 333 90710 91145
BBXX 63106 15064 99610 10017 46/// /2923 10065 49759 53024 22200
BBXX 63113 15064 99610 10017 46/// /2920 10068 20025 49771 52023 22200 10706 70032
BBXX 62107 15064 99501 70061 46/// /3045 10094 20041 40021 52025 22200 00115 11114 70072 333 90710 91156
BBXX 63110 15063 99595 10015 41/98 /2730 10071 20033 49800 72586 8//// 22200 10907 70035
BBXX 62103 15064 99499 70029 46/98 /2938 10098 20038 40000 52029 22200 00124 11112 70060 333 90710 91153
BBXX 62304 15064 99511 10018 46/98 /2334 10080 20037 49959 56010 22200 00119 10703 70016 333 90710 91145
BBXX AMOUK08 15064 99501 70061 46/// ///// 10096 20050 30016 40021 52024 90550
BBXX 63110 15064 99595 10015 47598 /2721 10069 20032 49802 52021 700// 22200 10707 70033
BBXX 63106 15064 99610 10017 46/// /2923 10065 49759 53024 22200
BBXX 63105 15064 99610 10017 47597 ///// 10070 20029 49758 53024 700// 22200
BBXX 62103 15064 99499 70029 46/98 /2843 10088 20019 49988 52020 22200 00124 11013 70064 333 90710 91155
AAXX 15061 01359 11589 70901 10000 21031 38905 49797 53006 69922 70222 87200 333 21016 48042 70003 91108
AAXX 15061 01199 11582 81610 10000 21010 39404 49861 52004 60002 70221 885// 333 21006 47030 70000 91116
BBXX C6YA5 15064 99527 50583 41997 10615 10093 2//// 40190 54000 7//// 8//// 22213 00110 20601 322// 40601 5//// 6//// 8//// ICE /////
BBXX C6YA5 15064 99527 50583 41997 10615 10093 2//// 40190 54000 7//// 8//// 22213 00110 20601 322// 40601 5//// 6//// 8//// ICE /////
BBXX C6XC6 15064 99265 70455 41/98 71637 10240 2//// 40130 56/// 7//22 87/// 22254 0//// 20805 336// 40806 5//// 6//// 8//// ICE /////
BBXX C6XC6 15064 99265 70455 41/98 71637 10240 2//// 40130 56/// 7//22 87/// 22254 0//// 20805 336// 40806 5//// 6//// 8//// ICE /////
BBXX WDE4430 15063 99421 71257 41497 82019 10100 20079 40150 52016 72051 84923 22243 0//// 20302 32030 40403 50404 6//// 80089 ICE /////
BBXX WDE4430 15063 99421 71257 41497 82019 10100 20079 40150 52016 72051 84923 22243 0//// 20302 32030 40403 50404 6//// 80089 ICE /////
BBXX WDE4430 15063 99421 71257 41497 82019 10100 20079 40150 52016 72051 84923 22243 0//// 20302 32030 40403 50404 6//// 80089 ICE /////
AAXX 15061 10948 12989 51505 10011 21005 39172 48415 50001 69952 83032 333 10047 21028 34104 4/998 55003 55300 20000 30000 70035 83361 83076
AAXX 15064 71310 16/// /2104 11022 21068 30233 40271 56009 60001 333 10004 21023 70000 555 30423 40081
AAXX 15064 71448 16/// /3006 11050 21062 39725 40056 55001 60001 333 11010 21050 70000 555 32917 40031
AAXX 15064 71448 16/// /3006 11050 21062 39725 40056 55001 60001 333 11010 21050 70000 555 32917 40031
AAXX 15064 89257 46/// /9901 11045 21065 39804 49874 52013 90610
AAXX 15064 89065 46/// /3217 10018 21024 39792 49869 52001 90610
AAXX 15064 71571 16/// /1809 11094 21122 38968 40191 56008 60001 333 11057 21109 70000 555 32817 40111
AAXX 15064 71571 16/// /1809 11094 21122 38968 40191 56008 60001 333 11057 21109 70000 555 32817 40111
AAXX 15064 71927 17/// /0000 10019 20013 30133 40191 51005 60021 7//4/ 333 7////
AAXX 15061 15420 01/91 92502 10020 20020 30094 40209 52003 60002 74544 333 10049 20019 31003 55300 0//// 20000 3//// 60007 70000 91003 91104
AAXX 15064 48353 31658 13502 10278 20160 39845 49958 7054null 81100 333 5//// 70000
AAXX 15064 48327 32562 13203 10283 20147 39783 40135 57028 81200 333 5//// 70000
AAXX 15064 48551 31557 70305 10280 20236 30097 40105 57014 71022 82876 333 5//// 70000
AAXX 15064 48331 31562 10000 10276 20161 39905 40134 57036 7024null 81100 333 5//// 70000
AAXX 15063 48500 31556 40207 10295 20212 30102 40109 70511 82206 333 5//// 70000
AAXX 15063 48356 31558 51202 10288 20172 39937 40132 70511 81106 333 5//// 70000
AAXX 15061 10091 01580 72110 10040 20020 39936 49987 58002 69902 70265 875// 222// 06062 333 10045 20034 31003 55001 55300 20000 30000 69907 70012 84622 87636 91115 91212
AAXX 15061 10544 01/04 92115 11004 21004 38970 48354 56014 60032 77187 333 10006 21011 3/101 48003 55000 55300 69957 70099 91122 91216 96041 96036 96273 96485
AAXX 15064 71314 17/// /1906 10061 20052 39739 40088 56036 60031 7//4/ 333 10061 21033 70100 555 31517 40231
AAXX 15064 71314 17/// /1906 10061 20052 39739 40088 56036 60031 7//4/ 333 10061 21033 70100 555 31517 40231
AAXX 15064 91487 NIL
AAXX 15064 91490 NIL
AAXX 15064 91533 NIL
AAXX 15064 91601 NIL
AAXX 15064 91610 11599 20913 10284 20235 40070 53006 60001 70100 82200 333 562//
AAXX 15064 82819
AAXX 15064 91623 NIL
AAXX 15064 91629 NIL
AAXX 15064 91701 11599 10910 10272 2025/ 60001 70200 81100 333 562// 81820
AAXX 15064 91487 NIL
AAXX 15064 91490 NIL
AAXX 15064 91533 NIL
AAXX 15064 91601 NIL
AAXX 15064 91610 11599 20913 10284 20235 40070 53006 60001 70100 82200 333 562//
AAXX 15064 82819
AAXX 15064 91623 NIL
AAXX 15064 91629 NIL
AAXX 15064 91701 11599 10910 10272 2025/ 60001 70200 81100 333 562// 81820
AAXX 15061 10200 11480 72106 10048 20024 39981 49979 55002 69922 70261 875// 333 10052 20031 32002 55001 55300 20000 30000 70002 87616 91114
AAXX 15064 71288 16/// /3319 11286 21314 30066 40092 53008 60001 333 11241 21286 70061 555 33239 40073
