AAXX 13064 81225 11230 3000 10234 20231 40104 60001 71011 82632 333 56299 58013 82705
AAXX 13064 81200 NIL
AAXX 13064 81202 NIL
AAXX 13064 81209 NIL
AAXX 13064 81251 NIL
AAXX 13064 DUPE
AAXX 13064 81225 11230 3000 10234 20231 40104 60001 71011 82632 333 56299 58013 82705
AAXX 13064 81200 NIL
AAXX 13064 81202 NIL
AAXX 13064 81209 NIL
AAXX 13064 81251 NIL
AAXX 13064 DUPE
BBXX PBAD 13061 99105 70862 41/98 /0311 10280 20229 40103 70222 8//5/ 22234 2//// 3//// 4//// 5//// 80245
BBXX ZMFR 13054 99489 31665 43/// /36// 10117 20105 40130 52004 22261 00116
BBXX 44172 13061 99445 70634 46/// ///// 1//// 90531 22200 00070 10602 20602 315// 41101 70010
BBXX 44097 13061 99410 70711 46/// ///// 1//// 90532 22200 00126 11201 20801 70005
BBXX WDD2876 13064 99470 70860 41/97 81009 10038 2//// 40251 53/// 75155 8//// 22263 00056 2//01 3//// 4//// 5//// 6//// 8//// ICE /////
AAXX 13064 78583 11470 32605 10216 20207 40184 69951 70181 83800 333 01700 58007 83812
AAXX 13064 40270 31925 30000 10052 21029 39322 40241 52009 70411 333 20026 30104
AAXX 13064 40255 32960 20000 10050 21001 39503 40236 54003 80001 333 20032 30001 82070
BBXX C6FR6 13064 99222 10382 41/// /0519 10260 2//// 40170 5//// 7//// 8//// 22233 0//// 2//// 3//// 4//// 5//// 6//// 8//// ICE /////
AAXX 13064 40272 31957 40509 10056 21046 39388 40241 52008 70500 80001 333 21020 30103 84070
BBXX 46114 13061 99364 71222 46/// ///// 1//// 90534 22200 00123 11205 21003 330// 41204 70026
BBXX 46249 13061 99338 71197 46/// ///// 1//// 90545 22200 00145 11303 20802 322// 41302 70014
BBXX 46248 13061 99461 71247 46/// ///// 1//// 90534 22200 00087 11003 21003 329// 41102 70017
BBXX 46244 13061 99409 71244 46/// ///// 1//// 90535 22200 00095 10905 20905 330// 41303 70027
BBXX 46240 13061 99366 71219 46/// ///// 1//// 90542 22200 00124 11102 21001 335// 41102 70012
BBXX 41114 13061 99276 70802 46/// ///// 1//// 90546 22200 00238 10905 20904 307// 41101 70023
BBXX 46212 13061 99408 71243 46/// ///// 1//// 90542 22200 00093 11106 20904 331// 41104 70029
BBXX 46217 13061 99342 71194 46/// ///// 1//// 90542 22200 00142 11202 21002 326// 41201 70011
BBXX 46211 13061 99469 71242 46/// ///// 1//// 90536 22200 00085 11102 20802 329// 41101 70012
AAXX 13064 08495 12980 02712 10142 20110 30250 40258 56005 60002 90550 333 20131 30011 70000
AAXX 13064 91334 11474 80612 10292 20240 30059 40062 57012 60071 70282 82271 333 56199 70102 555 91306
AAXX 13064 91334 11474 80612 10292 20240 30059 40062 57012 60071 70282 82271 333 56199 70102 555 91306
BBXX DBKV 13061 99172 70220 46/// /0509(10233 20173 40147 57011 22241 00243
BBXX BAREU61 13064 99222 70176 46/// /0415 10191 29067 40186 57013 22244
BBXX DBBT 13061 99454 30049 46/// /1607 10050 20019 40191 57005 22242 00087
BBXX DBBU /3061 99542 10121 06/// /1709/10032 20014 400/3 57/45 22220 04058
AAXX 13064 91376 32474 60810 10285 20227 30068 40071 53008 84801 333 562/9 70000 555 91306
BBXX ONAR 13063 99304 30855 41598 30709 10260 2019/ 40200 54000 7//00 826// 22263 00210 21204 321// 4//// 5//// 6//// 80210 ICE /////
AAXX 13064 78705 01558 81704 10203 20193 30160 40178 58010 60031 75154 8542/ 333 10239 20198 31/// 56789 58003 60030 85828 88458
AAXX 13064 78708 31560 73604 10216 20209 30150 40180 58008 70544 82570 333 10262 20207 30/// 56000 58002 82624 87458
AAXX 13064 78717 31560 80000 10163 20149 38988 40178 58006 70544 885// 333 10210 20144 30/// 56899 58004 88620
AAXX 13064 78720 31460 73610 10167 20144 39058 40168 58007 70544 87500 333 10247 20156 30/// 56100 59004 81710 87625
AAXX 13064 78724 32578 20208 10250 20222 30070 40127 51006 81530 333 10330 20238 30/// 56000 58003 81630
AAXX 13064 91376 32474 60810 10285 20227 30068 40071 53008 84801 333 562/9 70000 555 91306
AAXX 13064 16597 11560 22806 10136 20109 30122 40209 53002 69922 70180 81230 333 20126 30010 70002 81822
AAXX 13064 68392 36/// /0905 10183 20174 30058 4//// 52021 333 20179 91008 555 10315
AAXX 13064 68382 36/// /0603 10184 20169 39341 48516 53008 333 20175 91005 555 10283 91015
BBXX BAREU56 13064 99444 10089 46/// ///// 40162 22200
AAXX 13064 68906 32598 73607 10110 20065 30188 40254 58012 8757/ 222// 00125 333 20095 91021 555 10149 91025
BBXX 42362 13061 99278 70907 46/// /0709 10217 20156 40258 90545
BBXX 42363 13061 99282 70892 46/// /0908 10200 20133 40261 90545 333 91209
BBXX 42364 13061 99291 70881 46/// /0707 10183 20144 40268 90545
BBXX 46088 13061 99483 71232 46/// /0802 10045 40196 56010 90550 22200 00078 1//00 70001 333 91203 555 11025 22025 30537 40904 60549 085024 091031 089028 082023 087019 067011
BBXX 44060 13061 99413 70721 46/// ///04 10046 40299 90545 22200 00096 333 91205 555 11036 22036
BBXX 44022 13061 99409 70737 46/// ///04 10041 21061 40307 90545 22200 00091 333 91205 555 11036 22036
AAXX 13064 68994 32598 33211 10104 20060 30207 40236 57006 82501 222// 00066 307// 40201 333 20076 91017 555 10111 91023
AAXX 13064 89664 32461 70909 11041 21087 39782 49823 56008 85570 333 56440 82615 85630
AAXX 13064 78388 112570 30000 10242 20208 30132 40141 60001 81801 333 01209 10305 20234 58009 81824
AAXX 13064 78388 112570 30000 10242 20208 30132 40141 60001 81801 333 01209 10305 20234 58009 81824
AAXX 13064 40340 32960 43610 10100 20012 40212 52010 80001 333 20084 30007 84070
AAXX 13064 89664 32461 70909 11041 21087 39782 49823 56008 85570 333 56440 82615 85630
AAXX 13064 61901 169// /1317 10147 20147 39658 40170 53002 60032 90550 333 20143 3/014 70082 8//99 555 7/090
AAXX 13064 89664 32461 70909 11041 21087 39782 49823 56008 85570 333 56440 82615 85630
AAXX 13064 78862 12480 10000 10234 20223 30102 40125 60001 81202 333 10292 20222 58007 81820
AAXX 13064 3817 83078
AAXX 13064 /1318 SHRA FEW012CB BKN015 BECMG 1312/1314 10008KT
AAXX 13064 TAF TQPF 121600Z 1218/1318 VRB04KT 9999 SCT016 PROB30 TEMPO 1218/1318 SHRA FEW012CB BKN015 BECMG 1312/1314 10008KT
AAXX 13064 TAF TKPN 121600Z 1218/1318 VRB04KT 9999 SCT016 PROB30 TEMPO 1218/1318 SHRA FEW012CB BKN015 BECMG 1312/1314 10008KT
AAXX 13064 TAF TUPJ 121600Z 1218/1318 VRB04KT 9999 SCT016 PROB30 TEMPO 1218/1318 SHRA FEW012CB BKN015 BECMG 1312/1314 10008KT
AAXX 13064 EMPO 0600/0624 SHRA BKN015=+TSRA SCT012CB
AAXX 13064 TAF TUPJ 041000Z 04012/0512 07008KT 9999 SCT016 BKN038 SCT270 TEMPO 0412/0512 SHRA BKN015 PROB40 TEMPO 0418/0512 5000 SHRA BKN014 BKN036 PROB30 0420/0512 4000 TSRA FEW012CB
AAXX 13064 918 4000 TSRA FEW012CB
AAXX 13064 N015 BKN036 PROB40 TEMPO 0704/0724 3000 +TSRA SCT011CB BKN012 BECMG 0712/0714 14008KT
AAXX 13064 21/2712 07017G28KT 5000 SHRA BKN015 BKN036 PROB TEMPO 2700/2712 4000 TSRA FEW013CB
AAXX 13064 PROB30 TEMPO 0800/0806 4000 TSRA FEW012CB PROB40 TEMPO 0800/0824 2000 +SHRA/TSRA SCT010CB BKN012 BKN250
AAXX 13064 68352 36/// /1110 10235 20025 39051 48506 53008 333 20213 91014 555 10364 91014
AAXX 13064 78862 12480 10000 10234 20223 30102 40125 60001 81202 333 10292 20222 58007 81820
AAXX 13064 3817 83078
AAXX 13064 /1318 SHRA FEW012CB BKN015 BECMG 1312/1314 10008KT
AAXX 13064 TAF TQPF 121600Z 1218/1318 VRB04KT 9999 SCT016 PROB30 TEMPO 1218/1318 SHRA FEW012CB BKN015 BECMG 1312/1314 10008KT
AAXX 13064 TAF TKPN 121600Z 1218/1318 VRB04KT 9999 SCT016 PROB30 TEMPO 1218/1318 SHRA FEW012CB BKN015 BECMG 1312/1314 10008KT
AAXX 13064 TAF TUPJ 121600Z 1218/1318 VRB04KT 9999 SCT016 PROB30 TEMPO 1218/1318 SHRA FEW012CB BKN015 BECMG 1312/1314 10008KT
AAXX 13064 EMPO 0600/0624 SHRA BKN015=+TSRA SCT012CB
AAXX 13064 TAF TUPJ 041000Z 04012/0512 07008KT 9999 SCT016 BKN038 SCT270 TEMPO 0412/0512 SHRA BKN015 PROB40 TEMPO 0418/0512 5000 SHRA BKN014 BKN036 PROB30 0420/0512 4000 TSRA FEW012CB
AAXX 13064 918 4000 TSRA FEW012CB
AAXX 13064 N015 BKN036 PROB40 TEMPO 0704/0724 3000 +TSRA SCT011CB BKN012 BECMG 0712/0714 14008KT
AAXX 13064 21/2712 07017G28KT 5000 SHRA BKN015 BKN036 PROB TEMPO 2700/2712 4000 TSRA FEW013CB
AAXX 13064 PROB30 TEMPO 0800/0806 4000 TSRA FEW012CB PROB40 TEMPO 0800/0824 2000 +SHRA/TSRA SCT010CB BKN012 BKN250
BBXX 32012 13061 99197 50856 46/// ///// 1//// 90550 22200 11204 70018
BBXX 46002 13061 99426 71305 46/// ///// 10089 40199 57003 90550 22200 00119 10703 70017
BBXX 46006 13061 99408 71375 46/// /2010 10131 40183 58029 90550 22200 00127 10503 20503 3//// 41101 70017 333 91212 555 11109 22116 30517 42013 60549 204100 201103 200101 198104 200101 199096
BBXX 46084 13061 99566 71361 46/// /2704 10051 21003 40117 52003 90550 22200 00074 11410 20401 300// 41410 70051 333 91206 555 11040 22042 30533 42713 60549 267038 259067 268089 272088 260046 234022
BBXX 46075 13061 99539 71608 46/// /1313 10044 20013 40052 58031 90550 22200 00048 11006 20504 300// 41005 70031 333 91215 555 11137 22146 30527 41216 60549 125125 125124 126121 122124 128117 129120 81214 90514
BBXX 46005 13061 99461 71310 46/// ///05 10090 40178 58015 90550 22200 00100 11103 20401 3//// 41103 70015 333 91206 555 11054 22056
BBXX 46059 13061 99380 71300 46/// /3510 10118 40192 51010 90550 22200 00145 11108 20605 3//// 41106 70039 333 91213 555 11108 22114 30456 43514 60549 349103 352105 347108 352110 347107 349107
BBXX 46080 13061 99580 71500 46/// /2708 10037 21025 40071 51012 90550 22200 00053 11207 20604 3//// 41206 70036 333 91209 555 11079 22083 30527 42610 60549 271076 267075 265078 269076 271073 286063 82708 90516
AAXX 13064 41170 42960 13113 10175 20111 30210 40223 80001 333 20141 58005 81074 555 00126
BBXX 46105 13061 99590 71522 46/// ///// 1//// 90550 22200 10605 70024
BBXX 46070 13061 99551 11753 46/// /3211 10003 21041 49802 58008 90550 22200 00041 10805 20703 3//// 40804 70024 333 91213 555 11117 22123 30545 43313 60549 321108 317104 334098 349075 340101 336089 83212 90549
BBXX 44025 13061 99402 70732 46/// /2706 10076 20024 40302 58010 90550 22200 00115 10801 311// 40801 70005 333 91207 555 11061 22063 30549 42707 60549 270059 269054 272050 268052 269049 269049
BBXX 41008 13061 99314 70809 46/// /0208 10143 20133 40278 54000 90550 22200 00168 10703 20703 300// 40902 70016 333 91210 555 11089 22093 30450 40311 60549 023085 024083 034084 027081 024081 025085
BBXX 44014 13061 99366 70748 46/// /0104 1//// 40290 58008 90550 22200 00148 10603 20401 310// 40603 70014 333 91204 555 11035 22035 30452 43605 60549 008035 013032 001035 004035 003036 001040
BBXX 41004 13061 99325 70791 46/// /0109 10165 20139 40278 58007 90550 22200 00217 10903 20603 3//// 40902 70017 333 91211 555 11097 22101 30506 40212 60549 014091 016092 016091 021094 023096 024093
BBXX 44009 13061 99385 70747 46/// /3505 10090 40317 58005 90550 22200 00123 10902 20401 300// 40901 70008 333 91206 555 11053 22055 30458 43508 60549 345052 352054 352057 350060 346063 347062
BBXX 44027 13061 99443 70673 46/// /2208 10080 20038 40271 58013 90550 22200 00090 10703 20502 3//// 40702 70013 333 91209 555 11080 22084 30514 42209 60549 219075 219076 223070 222073 225072 221074
BBXX 44065 13061 99404 70737 46/// /2706 10057 21036 40306 58010 90550 22200 00095 10801 312// 40801 70005 333 91207 555 11061 22063 30548 42707 60549 267058 258053 260052 265048 271047 273045 82706 90549
BBXX 41013 13061 99334 70777 46/// /0209 10150 20133 40274 57005 90550 22200 00208 10703 20703 312// 41202 70017 333 91212 555 11097 22101 30459 40212 60549 020093 017095 020098 019098 018100 020099
BBXX 44020 13061 99414 70702 46/// /1802 10085 20059 40288 58019 90550 22200 00094 1//00 70002 333 91203 555 11024 22026 30511 42504 60549 191024 260023 258027 258030 260031 258028
BBXX 41012 13061 99300 70805 46/// /0707 10230 40247 58003 90550 22200 00235 10904 20503 310// 40904 70022 333 91209 555 11073 22077 30525 40810 60549 069070 072077 077079 073081 071077 068078
BBXX 41049 13061 99275 70630 46/// /1604 10243 20218 40144 58012 90550 22200 00248 10905 20401 300// 40905 70026 333 91205 555 11044 22046 30459 41606 60549 159042 160043 162041 164044 160045 160047 81605 90458
BBXX 41001 13061 99347 70727 46/// ///// 10198 20118 40252 58014 90550 22200 00221 10805 70023
BBXX 42020 13061 99270 70967 46/// /1408 10237 20185 40219 52005 90550 22200 00240 10503 20503 70015 333 91210 555 11090 22095 30510 41111 60549 135084 131086 126086 117089 118090 118091
BBXX 41044 13061 99217 70587 46/// /1407 10260 20219 40140 58013 90550 22200 00267 11005 20503 300// 41004 70025 333 91209 555 11075 22079 30457 41409 60549 139071 140067 137068 140070 142068 143073 81408 90454
BBXX 41060 13061 99148 70510 46/// ///// 1//// 90550 22200 11006 70030
BBXX 41048 13061 99320 70696 46/// /0210 10212 20163 40197 57017 90550 22200 00228 10906 20604 3//// 40905 70032 333 91212 555 11100 22105 30531 40212 60549 019099 021099 023106 026102 024100 025102 80211 90527
BBXX 42065 13061 99149 70750 46/// /0606 10271 20242 90550 22200 10703 20302 3//// 40702 70014 333 91207 555 11064 22068 30511 40608 60549 060061 064064 066065 061065 062062 059068 80607 90512
BBXX 42001 13061 99259 70897 46/// /0709 10235 20185 40243 57003 90550 22200 00244 10804 20804 70022 333 91211 555 11098 22104 30506 40612 60549 066093 063094 065093 066096 066095 066095
BBXX 42035 13061 99292 70944 46/// /0806 10163 20162 40252 55000 90550 22200 00156 10502 20502 314// 40801 70010 333 91207 555 11063 22069 30512 40808 60549 083059 083063 082061 083065 088063 090059
BBXX 42058 13061 99149 70749 46/// /0607 10275 20234 40115 58011 90550 22200 00279 10703 20602 308// 40702 70014 333 91208 555 11073 22078 30510 40709 60549 063069 062069 068071 062072 069070 068070 80608 90550
BBXX 42012 13061 99301 70876 46/// /0507 10146 20130 40270 58005 90550 22200 00191 10502 20502 314// 40601 70009 333 91208 555 11069 22072 30513 40509 60549 050066 045068 046069 043074 036073 035069
BBXX 42060 13061 99163 70635 46/// /0803 10272 20221 40126 58012 90550 22200 00283 11102 20401 300// 41102 70010 333 91204 555 11029 22030 30511 40805 60549 079028 079030 066031 082034 077037 084039 80904 90455
BBXX 42036 13061 99285 70845 46/// /0409 10178 20164 40252 53005 90550 22200 00217 10603 20603 70016 333 91210 555 11092 22096 30520 40312 60549 039086 036089 036094 036095 039094 044087
BBXX 42056 13061 99198 70849 46/// /0509 10268 20220 40172 58009 90550 22200 00274 10704 20704 70018 333 91211 555 11099 22105 30534 40511 60549 044092 047090 051088 054082 054080 052086 80410 90546
BBXX 42059 13061 99151 70675 46/// /0706 10277 20233 40118 58012 90550 22200 00286 11002 20401 3//// 41002 70010 333 91206 555 11058 22061 30520 40807 60549 075055 078055 082054 082053 081051 083051 80806 90532
BBXX 42019 13061 99279 70954 46/// /1308 10225 20193 40228 52005 90550 22200 10503 20503 70014 333 91210 555 11089 22095 30452 42811 60549 136083 281084 281083 280084 282083 279085
BBXX 44005 13061 99432 70691 46/// /2308 10076 20006 40272 58013 90550 22200 00089 10602 20602 3//// 41101 70012 333 91209 555 11082 22086 30512 42309 60549 225077 228075 231072 230078 226074 227073
BBXX 42040 13061 99292 70882 46/// /0808 10183 40263 58006 90550 22200 00224 10703 20703 70014 333 91210 555 11080 22084 30458 40811 60549 079080 078078 080083 082080 076075 075084
BBXX 42055 13061 99222 70940 46/// /0807 10251 20207 40207 50003 90550 22200 00252 10503 20503 304// 40801 70015 333 91209 555 11079 22084 30516 40609 60549 076072 069071 069075 061076 064075 063073 80608 90513
BBXX 42002 13061 99258 70937 46/// /1008 1//// 40229 54000 90550 22200 00246 333 91210 555 11084 22089
BBXX 41047 13061 99275 70715 46/// /0310 10232 40185 58008 90550 22200 00253 11107 20604 308// 41105 70033 333 91213 555 11102 22107 30545 40213 60549 031100 032096 033097 036094 030092 029097 80311 90546
BBXX 42003 13061 99260 70856 46/// /0407 1//// 90550 22200 10603 20603 70013 333 91209 555 11074 22078 30535 40409 60549 040069 042072 039074 047072 052071 048074 80308 90527
BBXX 41043 13061 99211 70650 46/// /0402 10252 20218 40138 58005 90550 22200 00270 11104 20401 300// 41104 70020 333 91203 555 11015 22016 30545 40403 60549 034014 030011 031013 030014 037013 048018 80802 90452
BBXX 41036 13061 99342 70770 46/// ///// 10141 20112 40281 56007 90550 22200 00210 10903 70016
BBXX 44066 13061 99396 70726 46/// /3304 10098 20075 40296 58008 90550 22200 00132 10901 20401 3//// 40901 70007 333 91205 555 11045 22046 30545 43305 60549 332043 331038 336035 351036 344033 348028
BBXX 46001 13061 99563 71480 46/// /2707 10046 40098 51007 90550 22200 00049 11209 20604 300// 41208 70045 333 91209 555 11075 22079 30539 42609 60549 268069 269071 273070 271066 264073 267073
BBXX 3FPQ9 13063 99226 70857 41498 30321 10250 2021/ 40200 54000 70111 83885 222// 04260 20803 30599 41003 50000 6//// 85220 ICE /////
BBXX C6YA5 13064 99551 50668 41597 73115 10107 2//// 40050 54/// 7//22 848/1 22273 00090 20601 3//// 4//// 5//// 6//// 8//// ICE /////
BBXX WUR8857 13064 99467 70849 41/97 /0000 11177 2//// 40000 5//// 79100 8//// 222// 01178 2//00 3//// 4//// 5//// 6//// 8//// ICE /////
BBXX NWS0022 13064 99416 70714 43/// /2405 10047 20013 40289 5//// 7//// 8//// 222// 04131 2//// 3//// 4//// 5//// 6//// 8//// ICE /////
BBXX C6TH9 13063 99199 51561 41698 50110 10250 2024/ 40160 55010 70321 84938 22254 00260 20202 318// 40303 5//// 6//// 80240 ICE /////
BBXX WDC6698 13064 99087 71481 43/// /0421 10280 20269 40100 5//// 7//// 8//// 222// 04267 2//// 3//// 4//// 5//// 6//// 8//// ICE /////
BBXX WFLG 13064 99300 71345 41498 80421 10139 20109 40250 51012 70222 888// 22223 00161 20405 315// 40507 5//// 6//// 80122 ICE /////
BBXX WKAE 13064 99519 10031 41396 82335 10100 20081 49850 57015 76065 884// 22251 00100 2//// 3//// 4//// 5//// 6//// 80090 ICE /////
BBXX 46053 13061 99342 71198 46/// /1306 10124 90550 555 11061 22065
BBXX 46014 13061 99394 71240 46/// /3201 10099 40118 53011 90550 22200 00106 11106 20401 3//// 41106 70028 333 91202 555 11010 22010 30522 43104 60549 319011 309021 303029 311025 310026 303031
BBXX 46011 13061 99350 71210 46/// /1205 10115 40099 51017 90550 22200 00134 11405 20401 331// 41405 70025 333 91206 555 11048 22050 30541 41107 60549 116047 121046 119041 119039 113033 094032
BBXX 46047 13061 99324 71195 46/// /2601 10124 40101 53012 90550 22200 00139 11504 20301 328// 41504 70018 333 91201 555 11007 22007 30452 42502 60549 254006 225008 225012 234010 222015 242016
BBXX 46027 13061 99419 71244 46/// /0302 10089 40121 51013 90550 22200 00093 10805 20401 332// 40805 70025 333 91203 555 11020 22020 30500 43304 60549 028019 018022 353024 003025 349030 328029
BBXX 46086 13061 99325 71180 46/// /1201 10136 40100 52009 90550 22200 00157 11503 20401 328// 41503 70014 333 91202 555 11013 22014 30509 41603 60549 122012 125014 161014 168018 154016 197011
BBXX 46088 13061 99483 71232 46/// /0802 10045 40196 90550 22200 00078 1//00 70001 333 91203 555 11025 22025 30537 40904 60549 085024 091031 089028 082023 087019 067011
BBXX 46050 13061 99442 71246 46/// /0705 10068 40161 57006 90550 22200 00103 11103 20502 330// 41103 70016 333 91207 555 11056 22058 30452 40607 60549 069052 070050 072052 070053 075045 068055
BBXX 46069 13061 99337 71202 46/// /0000 10117 40099 53017 90550 22200 00133 11405 20401 329// 41405 70026 333 91202 555 11005 22005 30531 41803 60549 185006 197013 201007 215007 211009 199002
BBXX 46012 13061 99374 71229 46/// /0104 10114 40109 51015 90550 22200 00122 11206 20301 331// 41206 70032 333 91206 555 11046 22048 30500 43508 60549 008044 011047 010048 359053 354057 354057
BBXX 46013 13061 99382 71233 46/// /3305 10104 40109 51014 90550 22200 00108 11205 20401 3//// 41205 70023 333 91206 555 11049 22051 30529 43306 60549 330046 334046 332045 334042 337042 336043
BBXX 46087 13061 99485 71247 46/// /0805 10051 21012 40196 90550 22200 00078 333 91206 555 11051 22053
BBXX 46029 13061 99461 71245 46/// /0606 10056 20008 40177 56011 90550 22200 00075 333 91207 555 11060 22062 30534 40708 60549 064058 069066 065064 060061 056058 058055
BBXX 46054 13061 99342 71204 46/// /1305 10121 40097 51015 90550 22200 00142 333 91206 555 11047 22049
BBXX 46028 13061 99357 71219 46/// /1104 10118 40097 53020 90550 22200 00131 11306 20401 329// 41306 70028 333 91207 555 11044 22045 30549 41207 60549 109042 101038 108030 105034 094034 103030
BBXX 46025 13061 99337 71191 46/// /1104 10125 20097 40093 53016 90550 22200 00151 11402 20401 314// 41402 70010 333 91205 555 11039 22041 30459 40907 60549 107038 107040 106045 103044 092048 094050
BBXX 3FSB4 13064 99402 11769 437// 32934 10110 2007/ 40090 54000 7//// 83//2 22224 0//// 20909 3//// 40810 5//// 6//// 80090 ICE /////
BBXX 4XFV 13063 99506 11623 41198 62722 00/// 11015 21025 49945 52015 70372 86263 22264 0//// 20404 325// 40608 5//// 6//// 81020
BBXX HZGN 13063 99091 10760 41397 82705 10288 20252 40122 50011 70222 847/7 22234 02295 20100 315// 40301 5//// 80261
BBXX LAYG5 13064 99512 11796 41/92 93157 10020 21030 49690 55025 75354 8//// 22252 00064 21006 3//// 4//// 5//// 80000
BBXX LAOX5 13064 99309 11655 41297 82327 10200 2018/ 40140 57014 75855 8862/ 22223 00200 21003 300// 41205 5//// 6//// 80190
BBXX LADR4 13064 99234 11752 41898 30711 00/// 10260 2023/ 40185 53005 70200 83230 22263 00290 20403 3//// 4//// 5//// 6//// 80240
BBXX 32012 13061 99197 50856 46/// ///// 1//// 90550 22200 11204 70018
BBXX TBWUK18 13064 99263 50364 41/98 10508 10218 20143 40149 56007 70200 80005 22232 00240 20201 316// 40804 5//// 80174
BBXX VQKZ5 13063 99044 50815 41697 81714 10176 20169 40128 50030 70222 84017 22244 02180 20301 317// 40301 5//// 80172
BBXX LAHE2 13064 99030 70415 41295 30619 10275 2025/ 40080 56015 70100 83160 22233 00295 20502 324// 40703 5//// 6//// 80255 ICE /////
BBXX ELZA8 13063 99232 50435 41998 10708 10215 20193 40100 58005 70100 80008 22212 04240 29902 80200
BBXX C6YA5 13064 99551 50668 41597 73115 10107 2//// 40050 54/// 7//22 848/1 22273 00090 20601 3//// 4//// 5//// 6//// 8//// ICE /////
BBXX DBKV 13061 99172 70220 46/// /0509 10233 20173 40147 57011 22241 00243
BBXX ONCE 13064 99307 30073 41398 81928 10160 2009/ 40150 5//// 70222 8877/ 22234 00180 20109 312// 40511 5//// 6//// 80120 ICE /////
BBXX BAREU61 13064 99222 70176 46/// /0415 10191 29067 40186 57013 22244
BBXX DBKV 13061 99172 70220 46/// /0509(10233 20173 40147 57011 22241 00243
BBXX DBBT 13061 99454 30049 46/// /1607 10050 20019 40191 57005 22242 00087
BBXX C6OM7 13063 99190 30051 41398 81416 10185 20138 40162 53005 70222 86550 22273 00170 20704 31400 40903 50000 80158
BBXX 46084 13061 99566 71361 46/// /2704 10051 21003 40117 52003 90550 22200 00074 11410 20401 300// 41410 70051 333 91206 555 11040 22042 30533 42713 60549 267038 259067 268089 272088 260046 234022
BBXX 46006 13061 99408 71375 46/// /2010 10131 40183 58029 90550 22200 00127 10503 20503 3//// 41101 70017 333 91212 555 11109 22116 30517 42013 60549 204100 201103 200101 198104 200101 199096
BBXX 46005 13061 99461 71310 46/// ///05 10090 40178 58015 90550 22200 00100 11103 20401 3//// 41103 70015 333 91206 555 11054 22056
BBXX 46002 13061 99426 71305 46/// ///// 10089 40199 57003 90550 22200 00119 10703 70017
BBXX 46080 13061 99580 71500 46/// /2708 10037 21025 40071 51012 90550 22200 00053 11207 20604 3//// 41206 70036 333 91209 555 11079 22083 30527 42610 60549 271076 267075 265078 269076 271073 286063 82708 90516
BBXX 46075 13061 99539 71608 46/// /1313 10044 20013 40052 58031 90550 22200 00048 11006 20504 300// 41005 70031 333 91215 555 11137 22146 30527 41216 60549 125125 125124 126121 122124 128117 129120 81214 90514
BBXX 46059 13061 99380 71300 46/// /3510 10118 40192 51010 90550 22200 00145 11108 20605 3//// 41106 70039 333 91213 555 11108 22114 30456 43514 60549 349103 352105 347108 352110 347107 349107
BBXX WABS 13064 99432 71258 41/98 10221 10072 2000/ 40262 56012 70200 81/// 22243 0//// 2//// 3//// 4//// 5//// 6//// 80044 ICE /////
BBXX LAJS6 13064 99500 71461 41698 43210 10050 2003/ 40200 54000 70211 83261 22224 00070 20402 325// 41105 80040
BBXX DGTX 13063 99333 71331 41297 73623 10145 20070 40225 52013 70322 877// 22254 00190 20605 80105
BBXX WFLG 13064 99300 71345 41498 80421 10139 20109 40250 51012 70222 888// 22223 00161 20405 315// 40507 5//// 6//// 80122 ICE /////
BBXX DBIP 13063 99292 70532 41097 41330 10230 20185 40200 58010 70322 83470 22223 04230 21208 3//// 4//// 5//// 80200
BBXX 46088 13061 99483 71232 46/// /0802 10045 40196 56010 90550 22200 00078 1//00 70001 333 91203 555 11025 22025 30537 40904 60549 085024 091031 089028 082023 087019 067011
BBXX 44022 13061 99409 70737 46/// ///04 10041 21061 40307 90545 22200 00091 333 91205 555 11036 22036
BBXX 44060 13061 99413 70721 46/// ///04 10046 40299 90545 22200 00096 333 91205 555 11036 22036
BBXX 42364 13061 99291 70881 46/// /0707 10183 20144 40268 90545
BBXX 42362 13061 99278 70907 46/// /0709 10217 20156 40258 90545
BBXX 42363 13061 99282 70892 46/// /0908 10200 20133 40261 90545 333 91209
BBXX DGHJ 13063 99203 71093 41598 23208 10234 20174 40150 52010 70100 8/1// 22273 00260 2//// 3//// 4//// 5//// 80194
BBXX A8JX9 13063 99381 71249 41497 23316 10100 20071 40120 52015 70200 822// 22274 20502 333// 41206 5//// 80085
BBXX HZRX 13063 99367 70609 41597 81317 /// 10195 20175 40226 55034 75865 88000 22263 10150 20202 31313 40202 5//// 6//// 80160 ///// /////
BBXX 9V8739 13064 99306 71229 41497 43122 10130 20073 40100 54/// 70161 8446/ 22274 00180 2//// 331// 40806 5//// 6//// 80100 ICE /////
BBXX 3FPQ9 13063 99226 70857 41498 30321 10250 2021/ 40200 54000 70111 83885 222// 04260 20803 30599 41003 50000 6//// 85220 ICE /////
BBXX SHIP 13064 99342 71538 41698 22314 10190 2016/ 40250 5//// 70120 81/6/ 22263 00200 20802 328// 41402 5//// 6//// 80170 ICE /////
BBXX 46211 13061 99469 71242 46/// ///// 1//// 90536 22200 00085 11102 20802 329// 41101 70012
BBXX 46217 13061 99342 71194 46/// ///// 1//// 90542 22200 00142 11202 21002 326// 41201 70011
BBXX 46212 13061 99408 71243 46/// ///// 1//// 90542 22200 00093 11106 20904 331// 41104 70029
BBXX 41114 13061 99276 70802 46/// ///// 1//// 90546 22200 00238 10905 20904 307// 41101 70023
BBXX 46240 13061 99366 71219 46/// ///// 1//// 90542 22200 00124 11102 21001 335// 41102 70012
BBXX 46244 13061 99409 71244 46/// ///// 1//// 90535 22200 00095 10905 20905 330// 41303 70027
BBXX 46248 13061 99461 71247 46/// ///// 1//// 90534 22200 00087 11003 21003 329// 41102 70017
BBXX 46249 13061 99338 71197 46/// ///// 1//// 90545 22200 00145 11303 20802 322// 41302 70014
BBXX 46114 13061 99364 71222 46/// ///// 1//// 90534 22200 00123 11205 21003 330// 41204 70026
BBXX C6FV8 13064 99143 70616 43798 21012 10270 2//// 40030 58020 7//00 824// 22283 00290 20302 3//// 4//// 5//// 6//// 8//// ICE /////
BBXX WKAE 13064 99519 10031 41396 82335 10100 20081 49850 57015 76065 884// 22251 00100 2//// 3//// 4//// 5//// 6//// 80090 ICE /////
BBXX WKPN 13064 99381 70162 41497 72718 10165 2013/ 40250 54000 70222 878// 22235 00200 20504 332// 41208 5//// 6//// 80145 ICE /////
BBXX SHIP 13064 99398 70303 41597 73121 10140 20085 40290 56007 70302 87/// 90545 22224 0//// 1//// 20506 3//// 4//// 5//// 6//// 80110 /////
BBXX WBDS 13063 99363 70028 43498 52715 10150 2012/ 40260 57010 7//// 851// 22264 00172 20302 3//// 4//// 5//// 6//// 80130 ICE /////
BBXX ONAR 13063 99304 30855 41598 30709 10260 2019/ 40200 54000 7//00 826// 22263 00210 21204 321// 4//// 5//// 6//// 80210 ICE /////
BBXX 46001 13061 99563 71480 46/// /2707 10046 40098 51007 90550 22200 00049 11209 20604 300// 41208 70045 333 91209 555 11075 22079 30539 42609 60549 268069 269071 273070 271066 264073 267073
BBXX 46002 13061 99426 71305 46/// ///// 10089 40199 57003 90550 22200 00119 10703 70017
BBXX 46005 13061 99461 71310 46/// ///05 10090 40178 58015 90550 22200 00100 11103 20401 3//// 41103 70015 333 91206 555 11054 22056
BBXX 46006 13061 99408 71375 46/// /2010 10131 40183 58029 90550 22200 00127 10503 20503 3//// 41101 70017 333 91212 555 11109 22116 30517 42013 60549 204100 201103 200101 198104 200101 199096
BBXX 46012 13061 99374 71229 46/// /0104 10114 40109 51015 90550 22200 00122 11206 20301 331// 41206 70032 333 91206 555 11046 22048 30500 43508 60549 008044 011047 010048 359053 354057 354057
BBXX 46014 13061 99394 71240 46/// /3201 10099 40118 53011 90550 22200 00106 11106 20401 3//// 41106 70028 333 91202 555 11010 22010 30522 43104 60549 319011 309021 303029 311025 310026 303031
BBXX 46028 13061 99357 71219 46/// /1104 10118 40097 53020 90550 22200 00131 11306 20401 329// 41306 70028 333 91207 555 11044 22045 30549 41207 60549 109042 101038 108030 105034 094034 103030
BBXX 46054 13061 99342 71204 46/// /1305 10121 40097 51015 90550 22200 00142 333 91206 555 11047 22049
BBXX A8JX9 13063 99381 71249 41497 23316 10100 20071 40120 52015 70200 822// 22274 20502 333 // 41206 5//// 80085
BBXX DGTX 13063 99333 71331 41297 73623 10145 20070 40225 52013 70322 877// 22254 00190 20605 80105
BBXX LAJS6 13064 99500 71461 41698 43210 10050 20030 40200 54000 70211 83261 22224 00070 20402 325// 41105 80040
BBXX WFLG 13064 99300 71345 41498 80421 10139 20109 40250 51012 70222 888// 22223 00161 20405 315// 40507 5//// 6//// 80122 ICE /////
AAXX 13064 81225 12170 70000 10231 20228 40095 60001 81752 333 56299 59005 87360
AAXX 13064 81200 NIL
AAXX 13064 81202 NIL
AAXX 13064 81209 NIL
AAXX 13064 81251 NIL
AAXX 13064 81225 12170 70000 10231 20228 40095 60001 81752 333 56299 59005 87360
AAXX 13064 81200 NIL
AAXX 13064 81202 NIL
AAXX 13064 81209 NIL
AAXX 13064 81251 NIL
AAXX 13064 89009 41461 31206 11331 36767 56005 70277 81602 333 81715
BBXX BAREU54 13064 99143 70753 46/// ///// 40115 57016 22253
BBXX BAREU08 13064 99200 70656 46/// ///// 40136 57011 22214
BBXX BAREU05 13064 99375 70094 46/// ///// 40256 57012 22283
AAXX 13064 89009 41461 31206 11331 36767 56005 70277 81602 333 81715
AAXX 13064 40296 32960 00000 10100 20023 40223 52003 80002 333 20066 30003 84070
AAXX 13061 13586 31434 80000 10050 20037 39913 40208 53001 71022 886// 333 20041 31/// 88713
AAXX 13064 81405 04/81 /1602 10246 20243 30078 40087 60011 700// 333 3/023 55028 69927 59006 70080 555 60005
AAXX 13064 78970 12470 40000 10248 20234 30077 40102 60001 81102 333 00209 10337 20243 59001 81816 83080
AAXX 13064 78962 12470 30000 10255 20225 30102 40110 60001 83802 333 02209 10304 20234 58001 83816
AAXX 13064 48001 NIL
AAXX 13064 48004 32563 13201 10204 20150 81100 333 56900
AAXX 13064 48008 32558 30401 10230 20143 40161 82830 333 56810 58008
AAXX 13064 48010 32560 11801 10205 20150 40158 81400 333 56900 58012
AAXX 13064 48018 32360 13601 10245 20167 40155 81200 333 56900 59000
AAXX 13064 48019 32960 13601 10235 20136 40159 333 58002
AAXX 13064 48020 32960 00401 10225 20136 333
AAXX 13064 48025 31458 10401 10215 20175 40169 81100 333 56400 58002
AAXX 13064 48035 31560 60000 10206 20120 40128 70522 84960 333 56550 58035
AAXX 13064 48037 32964 03601 10260 20160 40148 333 58005
AAXX 13064 48042 32558 42701 10275 20184 40148 82450 333 56990 58005
AAXX 13064 48045 NIL
AAXX 13064 48048 32562 20401 10262 20160 40149 82800 333 56900 58001
AAXX 13064 48053 32556 43201 10280 20168 40128 81550 333 56590 59012
AAXX 13064 48057 32460 32202 10200 20085 83800 333 56400
AAXX 13064 48060 32440 60000 10222 20173 40144 83930 333 56560 59020
AAXX 13064 48062 32559 00903 10255 20160 40150 333 58005
AAXX 13064 48071 32960 03202 10263 20203 40156 333 58005
AAXX 13064 48077 32560 10000 10304 20166 40140 81200 333 56900 59003
AAXX 13064 48078 32558 21801 10300 20196 40137 81101 333 56909 58003
AAXX 13064 48080 32561 32701 10310 20189 40130 82870 333 56990 58010
AAXX 13064 48094 32460 40401 10290 20250 40133 84900 333 56100 58004
AAXX 13064 48097 32457 31302 10310 20189 40133 82301 333 56909 58005
AAXX 13064 48108 31997 33201 10300 20149 40136 70511 80005 333 56009 59000
AAXX 13064 48109 32597 20401 10310 20254 40134 82800 333 56900 58010
AAXX 13064 48110 32996 61302 10300 20157 40128 70522 80006 333 56009 58005
AAXX 13064 48112 NIL
AAXX 13064 48001 NIL
AAXX 13064 48004 32563 13201 10204 20150 81100 333 56900
AAXX 13064 48008 32558 30401 10230 20143 40161 82830 333 56810 58008
AAXX 13064 48010 32560 11801 10205 20150 40158 81400 333 56900 58012
AAXX 13064 48018 32360 13601 10245 20167 40155 81200 333 56900 59000
AAXX 13064 48019 32960 13601 10235 20136 40159 333 58002
AAXX 13064 48020 32960 00401 10225 20136 333
AAXX 13064 48025 31458 10401 10215 20175 40169 81100 333 56400 58002
AAXX 13064 48035 31560 60000 10206 20120 40128 70522 84960 333 56550 58035
AAXX 13064 48037 32964 03601 10260 20160 40148 333 58005
AAXX 13064 48042 32558 42701 10275 20184 40148 82450 333 56990 58005
AAXX 13064 48045 NIL
AAXX 13064 48048 32562 20401 10262 20160 40149 82800 333 56900 58001
AAXX 13064 48053 32556 43201 10280 20168 40128 81550 333 56590 59012
AAXX 13064 48057 32460 32202 10200 20085 83800 333 56400
AAXX 13064 48060 32440 60000 10222 20173 40144 83930 333 56560 59020
AAXX 13064 48062 32559 00903 10255 20160 40150 333 58005
AAXX 13064 48071 32960 03202 10263 20203 40156 333 58005
AAXX 13064 48077 32560 10000 10304 20166 40140 81200 333 56900 59003
AAXX 13064 48078 32558 21801 10300 20196 40137 81101 333 56909 58003
AAXX 13064 48080 32561 32701 10310 20189 40130 82870 333 56990 58010
AAXX 13064 48094 32460 40401 10290 20250 40133 84900 333 56100 58004
AAXX 13064 48097 32457 31302 10310 20189 40133 82301 333 56909 58005
AAXX 13064 48108 31997 33201 10300 20149 40136 70511 80005 333 56009 59000
AAXX 13064 48109 32597 20401 10310 20254 40134 82800 333 56900 58010
AAXX 13064 48110 32996 61302 10300 20157 40128 70522 80006 333 56009 58005
AAXX 13064 48112 NIL
AAXX 13063 91802 NIL
AAXX 13063 91809 NIL
AAXX 13063 91831 36/// /0302 10249 20225 40161 51002
AAXX 13063 91841 36/// /0203 10254 20223 40145 52004
AAXX 13063 91843 31498 53605 10265 20230 40143 53008 60001 70122 82131 333 56899 82818 85360
AAXX 13063 91848 36/// /0403 10242 20225 40138 57024
AAXX 13064 85934 12580 73207 10117 20062 40115 52001 60001 83530 333 56660 83620 85359
AAXX 13064 89056 11330 82933 10020 20004 49814 52012 69901 71062 886// 333 03042 56699 88706 93100
AAXX 13064 89057 11330 82521 10028 20005 49809 52031 60031 76822 8672/ 333 56669 86708 88525 91133
AAXX 13064 89058 11465 82932 10021 20003 39794 49815 52012 69921 70060 8272/
AAXX 13064 89059 11425 82721 10001 21012 49776 52009 60021 72272 884// 333 76799 88616 93101
AAXX 13064 89251 11256 89922 10020 20004 49812 52020 71062 8672/
AAXX 13064 85577 12965 00000 10150 20061 39521 40129 58007 60001
AAXX 13064 85585 339// 92020 10162 20101 30154 40190 58010
AAXX 13064 85682 12960 02103 10119 20110 40131 58007 60001
AAXX 13064 85743 12960 00000 10095 20089 40148 58012 60001
AAXX 13064 85799 11960 01610 10114 20106 40179 57022 60001 70400
AAXX 13064 85406 12570 82303 10196 20145 40139 58022 60001 85// 333 56099 88633
AAXX 13064 85418 12560 71904 10198 20119 40142 50021 60001 87500 333 56000 87622
AAXX 13064 85442 12970 09902 10169 20133 40140 57018 60001
AAXX 13064 85488 12460 62804 10150 20134 40139 52007 60001 86500 333 56099 86612
AAXX 13064 91408 32574 70706 10317 20249 30030 40068 57017 83201 333 562/9 70018 555 91306
AAXX 13064 85874 32980 /9901 10037 20021 39577 40216 50001
AAXX 13064 78970 12470 40000 10248 20234 30077 40102 60001 81102 333 00209 10337 20243 59001 81816 83080
AAXX 13064 78962 12470 30000 10255 20225 30102 40110 60001 83802 333 02209 10304 20234 58001 83816
AAXX 13064 85574 12960 09902 10167 20048 39572 40119 58006 60001
AAXX 13064 91408 32574 70706 10317 20249 30030 40068 57017 83201 333 562/9 70018 555 91306
AAXX 13061 76225 32920 42002 10162 20050 38610 40078 50002 84030 90535 333 10236 20050 30/// 55043 56050 58/// 84359
AAXX 13061 76323 32950 71604 10114 21018 38281 40155 52018 80006 90540 333 10272 20050 30/// 55052 56005 59008 87268
AAXX 13061 76382 32960 21601 10172 20131 38900 40109 52010 80008 90550 333 10296 20090 30/// 55028 2//// 56003 59003 82270
AAXX 13061 76390 31950 11907 10163 20057 38246 40119 52002 70544 80006 90530 333 10254 20116 30/// 55093 21265 56002 58012 81070
AAXX 13061 76402 32550 70000 10176 20138 30105 40161 52008 87500 90545 333 10225 20150 30/// 55001 2//// 56400 58014 87628
AAXX 13061 76491 32956 00000 10128 20126 39834 40228 54/// 90545 333 10235 20120 31/// 55064 59010
AAXX 13061 76525 32960 11703 10128 20048 37495 40121 52005 80001 90540 333 10178 20101 30/// 55091 22351 56//5 58015 81080
AAXX 13061 76539 32958 03601 10102 20077 38205 40202 52026 90550 333 10235 20048 30/// 55047 58///
AAXX 13061 76548 32860 50702 10202 20178 30218 40228 50004 85030 90545 333 10270 20164 30/// 55081 56050 59001 85357
AAXX 13061 76556 32960 00701 10168 20141 39133 40137 52005 90535 333 10274 20122 30/// 55088 58010
AAXX 13061 76571 32910 00000 10122 20057 38189 40149 54010 90540 333 10240 20060 30/// 55086 58015
AAXX 13061 76577 32960 00000 10141 20122 38062 40129 52005 90540 333 10245 20081 30/// 55067 58007
AAXX 13061 76634 31910 01501 10068 20065 37885 40184 52006 74640 90550 333 10233 20048 30/// 55096 21764 58///
AAXX 13061 76644 32350 50902 10220 20205 30196 40208 52008 81270 90550 333 10312 20205 30/// 55077 20959 5611/ 59/// 81810 84320
AAXX 13061 76658 31956 00501 10195 20167 39658 40167 52008 70544 90543 333 10300 20176 30/// 55083 58/// 98904
AAXX 13061 76662 32960 01901 10150 20118 38486 40139 52010 90540 333 10273 20080 30/// 55069 21169 58012
AAXX 13061 76683 32965 03401 10064 20026 37860 40222 51009 90540 333 10276 20035 30/// 50321 55098 21961 58012
AAXX 13061 76685 32950 00000 10110 20008 37904 40144 52019 90555 333 10228 20048 30/// 55106 58019
AAXX 13061 76750 32558 13302 10220 20208 30176 40186 57002 81100 90550 333 10310 20190 30/// 55052 56800 58010 81820
AAXX 13061 76840 32901 00206 10254 20173 30093 40148 57002 90540 333 10310 20180 30/// 55091 2//// 58/// 91219 91502 90404
AAXX 13061 76843 32965 00202 10195 20163 39530 40172 52003 90530 333 10265 20162 30/// 55101 58001
AAXX 13061 76845 32330 30301 10118 20104 37973 40181 56002 83700 90545 333 10196 20038 30/// 55098 56200 58001 83707
AAXX 13061 76848 32350 60502 10140 20121 38408 40118 58003 86600 90550 333 10234 20083 30/// 55101 56100 58000 86708
AAXX 13061 76903 31960 00401 10245 20215 39999 40130 58001 905540 333 10347 20222 30/// 55085 58000
AAXX 13061 76243 11365 80902 10106 20099 39942 40243 52012 69901 70255 887// 90530 333 10115 20070 31/// 55000 563// 59002 88707
BBXX BATFR15 13064 99369 70199 44598 22817 10177 20149 40254 55002 70200 811/1 22253 00197 20302 336// 41208 5////
AAXX 13061 13579 32770 63201 10031 20020 39366 40216 54000 86500 333 20023 31/// 86650
BBXX BATFR27 13064 99490 70024 46/// /2641 10119 20055 49942 53050 22243 00134
BBXX BATFR55 13064 99125 30505 44598 41716 10275 20234 40121 70311 83141 22232 00280 208// 30000 412// 512//
BBXX BATFR59 13064 99233 31676 46/// /0512 10277 20245 40095 56004 22251 00264
BBXX BATFR09 13064 99408 10142 44497 32922 10157 20072 40159 70211 83200 22253 00185 20204 60//0 ICE 0/0//
BBXX BATFR41 13064 99431 10059 46/// ///// 10115 20000 40174 55003 22200
AAXX 13064 08594 31450 70612 10220 20175 40141 70522 8253/ 333 58010 20218 82615 87360
AAXX 13064 08589 NIL
AAXX 13064 08583 31945 80622 10225 20175 40144 70522 8803/ 333 20223 58005 88360
BBXX BATFR21 13064 99427 10089 46/// /2328 20087 40170 50003 22222
BBXX BAREU11 13064 99087 70795 46/// ///// 40108 57013 22284
BBXX BATFR24 13064 99427 10095 44/98 02506 10149 20010 40166 53003 70000 22251 00167 20502 6/00/
BBXX BAREU60 13064 99436 10135 46/// ///// 40169 52035 22252
BBXX BATFR50 13064 99425 10079 46/// /2920 10149 20077 40170 51010 22231 00167
BBXX BAREU00 13064 99419 70665 46/// ///// 40298 57015 22213
BBXX BATFR13 13064 99279 70479 44/98 01220 10229 20182 40240 58003 70000 22214 00249 20402
BBXX BAREU06 13064 99411 70428 46/// ///// 40313 52001 22274
BBXX FVNM 13064 99061 70998 46/// /2104 10252 20225 40130 50001 22221 00265
BBXX BATFR20 13064 99414 10094 46/// /0417 10144 20052 40175 58016 22284
BBXX BATFR11 13064 99372 10049 46/// /2705 10157 20107 40246 55003 22224 00180
AAXX 13064 48698 01466 70411 10307 20240 30081 40099 60001 70522 85932 333 60007 83816 81917 85080
AAXX 13064 48698 01466 70411 10307 20240 30081 40099 60001 70522 85932 333 60007 83816 81917 85080
AAXX 13061 76225 32920 42002 10162 20050 38610 40078 50002 84030 90535333 10236 20050 30/// 55043 56050 58/// 84359
AAXX 13061 76323 32950 71604 10114 21018 38281 40155 52018 80006 90540333 10272 20050 30/// 55052 56005 59008 87268
AAXX 13061 76382 32960 21601 10172 20131 38900 40109 52010 80008 90550333 10296 20090 30/// 55028 2//// 56003 59003 82270
AAXX 13061 76390 31950 11907 10163 20057 38246 40119 52002 70544 8000690530 333 10254 20116 30/// 55093 21265 56002 58012 81070
AAXX 13061 76402 32550 70000 10176 20138 30105 40161 52008 87500 90545333 10225 20150 30/// 55001 2//// 56400 58014 87628
AAXX 13061 76491 32956 00000 10128 20126 39834 40228 54/// 90545 33310235 20120 31/// 55064 59010
AAXX 13061 76525 32960 11703 10128 20048 37495 40121 52005 80001 90540333 10178 20101 30/// 55091 22351 56//5 58015 81080
AAXX 13061 76539 32958 03601 10102 20077 38205 40202 52026 90550 33310235 20048 30/// 55047 58///
AAXX 13061 76548 32860 50702 10202 20178 30218 40228 50004 85030 90545333 10270 20164 30/// 55081 56050 59001 85357
AAXX 13061 76556 32960 00701 10168 20141 39133 40137 52005 90535 33310274 20122 30/// 55088 58010
AAXX 13061 76571 32910 00000 10122 20057 38189 40149 54010 90540 33310240 20060 30/// 55086 58015
AAXX 13061 76577 32960 00000 10141 20122 38062 40129 52005 90540 33310245 20081 30/// 55067 58007
AAXX 13061 76634 31910 01501 10068 20065 37885 40184 52006 74640 90550333 10233 20048 30/// 55096 21764 58///
AAXX 13061 76644 32350 50902 10220 20205 30196 40208 52008 81270 90550333 10312 20205 30/// 55077 20959 5611/ 59/// 81810 84320
AAXX 13061 76658 31956 00501 10195 20167 39658 40167 52008 70544 90543333 10300 20176 30/// 55083 58/// 98904
AAXX 13061 76662 32960 01901 10150 20118 38486 40139 52010 90540 33310273 20080 30/// 55069 21169 58012
AAXX 13061 76683 32965 03401 10064 20026 37860 40222 51009 90540 33310276 20035 30/// 50321 55098 21961 58012
AAXX 13061 76685 32950 00000 10110 20008 37904 40144 52019 90555 33310228 20048 30/// 55106 58019
AAXX 13061 76750 32558 13302 10220 20208 30176 40186 57002 81100 90550333 10310 20190 30/// 55052 56800 58010 81820
AAXX 13061 76840 32901 00206 10254 20173 30093 40148 57002 90540 33310310 20180 30/// 55091 2//// 58/// 91219 91502 90404
AAXX 13061 76843 32965 00202 10195 20163 39530 40172 52003 90530 33310265 20162 30/// 55101 58001
AAXX 13061 76845 32330 30301 10118 20104 37973 40181 56002 83700 90545333 10196 20038 30/// 55098 56200 58001 83707
AAXX 13061 76848 32350 60502 10140 20121 38408 40118 58003 86600 90550333 10234 20083 30/// 55101 56100 58000 86708
AAXX 13061 76903 31960 00401 10245 20215 39999 40130 58001 905540 333 10347 20222 30/// 55085 58000
AAXX 13061 76243 11365 80902 10106 20099 39942 40243 52012 69901 70255887// 90530 333 10115 20070 31/// 55000 563// 59002 88707
AAXX 13064 85469 42565 59902 10196 20161 40195 52005 82130 333 56000 82820 83363
AAXX 13061 33815 11/91 91504 10079 20076 39972 40179 57005 69952 75154 333 20041 96045 555 80010
AAXX 13064 78862 12480 10000 10234 20223 30102 40125 60001 81202 333 10292 20222 58007 81820
AAXX 13064 3817 83078
AAXX 13064 /1318 SHRA FEW012CB BKN015 BECMG 1312/1314 10008KT
AAXX 13064 TAF TQPF 121600Z 1218/1318 VRB04KT 9999 SCT016 PROB30 TEMPO 1218/1318 SHRA FEW012CB BKN015 BECMG 1312/1314 10008KT
AAXX 13064 TAF TKPN 121600Z 1218/1318 VRB04KT 9999 SCT016 PROB30 TEMPO 1218/1318 SHRA FEW012CB BKN015 BECMG 1312/1314 10008KT
AAXX 13064 TAF TUPJ 121600Z 1218/1318 VRB04KT 9999 SCT016 PROB30 TEMPO 1218/1318 SHRA FEW012CB BKN015 BECMG 1312/1314 10008KT
AAXX 13064 EMPO 0600/0624 SHRA BKN015=+TSRA SCT012CB
AAXX 13064 TAF TUPJ 041000Z 04012/0512 07008KT 9999 SCT016 BKN038 SCT270 TEMPO 0412/0512 SHRA BKN015 PROB40 TEMPO 0418/0512 5000 SHRA BKN014 BKN036 PROB30 0420/0512 4000 TSRA FEW012CB
AAXX 13064 918 4000 TSRA FEW012CB
AAXX 13064 N015 BKN036 PROB40 TEMPO 0704/0724 3000 +TSRA SCT011CB BKN012 BECMG 0712/0714 14008KT
AAXX 13064 21/2712 07017G28KT 5000 SHRA BKN015 BKN036 PROB TEMPO 2700/2712 4000 TSRA FEW013CB
AAXX 13064 PROB30 TEMPO 0800/0806 4000 TSRA FEW012CB PROB40 TEMPO 0800/0824 2000 +SHRA/TSRA SCT010CB BKN012 BKN250
AAXX 13061 12772 11412 80201 10037 20030 39863 40151 53003 60032 71064 886// 333 20026 4/000 55000 70040 88713
AAXX 13061 12822 16/// /3101 10052 20034 30028 40173 52004 60082 333 20040 70075
AAXX 13061 12843 11962 63501 10048 20038 39975 40147 50001 60092 70162 84072 333 20044 4/000 55000 70095
AAXX 13061 12882 11670 72004 10074 20065 30015 40147 51003 60022 72162 8457/ 333 20060 4/000 55000 70024 84633
AAXX 13061 12925 16/// /0000 10010 20004 30002 40178 50009 60112 333 20010 70111
AAXX 13061 12942 11565 72001 10054 20044 39924 40172 52015 60082 70162 8357/ 333 20051 4/000 55027 70089 83626
AAXX 13061 12982 11656 80000 10068 20061 30049 40151 50008 69962 76062 885// 333 20066 4/000 55035 70006 88633
AAXX 13064 78925 14581 /1302 10236 20233 40118 58015 60021 700// 333 10316 20226 55045 21139 58002 70228
AAXX 13064 78925 14581 /1302 10236 20233 40118 58015 60021 700// 333 10316 20226 55045 21139 58002 70228
AAXX 13064 97180 32458 73207 10312 20248 30062 40080 56015 83272 333 56000 83819 83360
AAXX 13064 85406 12570 82303 10196 20145 40139 58022 60001 85// 333 56099 88633
AAXX 13064 85418 12560 71904 10198 20119 40142 50021 60001 87500 333 56000 87622
AAXX 13064 85442 12970 09902 10169 20133 40140 57018 60001
AAXX 13064 85488 12460 62804 10150 20134 40139 52007 60001 86500 333 56099 86612
AAXX 13064 85577 12965 00000 10150 20061 39521 40129 58007 60001
AAXX 13064 85585 339// 92020 10162 20101 30154 40190 58010
AAXX 13064 85682 12960 02103 10119 20110 40131 58007 60001
AAXX 13064 85743 12960 00000 10095 20089 40148 58012 60001
AAXX 13064 85799 11960 01610 10114 20106 40179 57022 60001 70400
AAXX 13064 85874 32980 /9901 10037 20021 39577 40216 50001
AAXX 13064 85934 12580 73207 10117 20062 40115 52001 60001 83530 333 56660 83620 85359
AAXX 13064 89056 11330 82933 10020 20004 49814 52012 69901 71062 886// 333 03042 56699 88706 93100
AAXX 13064 89057 11330 82521 10028 20005 49809 52031 60031 76822 8672/ 333 56669 86708 88525 91133
AAXX 13064 89058 11465 82932 10021 20003 39794 49815 52012 69921 70060 8272/
AAXX 13064 89059 11425 82721 10001 21012 49776 52009 60021 72272 884// 333 76799 88616 93101
AAXX 13064 89251 11256 89922 10020 20004 49812 52020 71062 8672/
AAXX 13061 10004 NIL
AAXX 13061 10015 01450 81818 10059 20035 39868 49878 56070 60052 76362 885// 222// 02062 333 10070 20058 32005 55008 55300 20000 30000 60047 70057 86615 87625 91126 90221 91218 91219 96010 96265
AAXX 13061 10020 07430 81719 10044 20032 39836 49868 56072 60022 76876 333 10066 20044 3/004 55005 55300 20000 30000 60027 70055 87/14 88/19 91128 90213 91218 91219
AAXX 13061 10035 01565 81709 10041 20021 39862 49920 58064 69972 76162 875// 333 10047 20029 32002 55000 55300 20000 30000 41176 69977 70027 87630 91117
AAXX 13061 10055 12980 81711 10042 20016 39953 49963 57051 60002 8807/ 333 10057 20033 31002 55000 55300 20000 30000 70016 88459 91116 91212
AAXX 13061 10147 01280 71710 10055 20018 39937 49955 58065 69902 76122 878// 333 10056 20038 31001 55000 55300 20000 30000 41182 69907 70027 82705 83812 87638 91116 91211
AAXX 13061 10162 12880 81705 10036 20008 39910 49993 58053 69902 8807/ 333 10057 20017 31000 55000 55300 20000 30000 70031 88458
AAXX 13061 10184 12965 81705 10025 20006 30020 40028 58034 69902 80007 333 10065 20022 31001 55000 55300 20000 30000 70036 88270 99021
AAXX 13061 10200 01361 81813 10052 20038 39890 49888 56061 60032 76362 8672/ 333 10062 20044 32003 55014 55300 20000 30000 60037 70038 86709 88520 91122 91214
AAXX 13061 10224 01565 81811 10052 20028 39938 49944 56060 69982 76362 885// 333 10062 20031 31001 55003 55300 20000 30000 69987 70021 87621 91117 91211
AAXX 13061 10270 NIL
AAXX 13061 10338 01682 81911 10060 20009 39912 49984 56055 69902 72122 8652/ 333 10063 20038 31001 55000 55300 20000 30000 69907 70022 82640 85656 91118 91212 96260
AAXX 13061 10361 12885 81806 10045 20008 39937 40041 58044 60002 8802/ 333 10055 20010 31102 55000 55300 20000 30000 70009 88458
AAXX 13061 10393 12975 61804 10012 21001 39961 40090 57023 69902 80008 333 10067 20011 34100 55004 55300 20000 30000 70001 86275
AAXX 13061 10400 01570 81710 10063 20042 39913 49962 56052 60062 76162 8682/ 333 10072 20050 32003 55018 55300 20000 30000 60067 70093 81825 86629 88536 91118 91213 96263 96463
AAXX 13061 10438 07577 71708 10045 20004 39740 40020 56056 69902 76165 333 10046 20009 3/101 55000 55300 69907 70053 81/26 86/46 87/62 91117
AAXX 13061 10469 12984 71709 10037 20001 39905 40071 58040 60002 8705/ 333 10069 20015 31100 55001 55300 79999 82359 87363
AAXX 13061 10488 12980 41706 10023 21009 39824 40110 57023 69902 80002 333 10076 20013 31102 55011 55300 20000 30000 40860 79999 84074
AAXX 13061 10506 01470 82108 10023 20011 39427 40010 56044 69992 72162 875// 333 10040 20018 31001 55027 55300 20000 30000 69997 70048 87613 91117
AAXX 13061 10548 11780 81908 10012 21006 39535 40083 57037 69902 70352 885// 333 10032 20007 31101 55000 55300 20000 30000 70027 88656 91114
AAXX 13061 10637 01480 82008 10051 20002 39935 40073 56036 69902 76111 8352/ 333 10052 20036 31001 55007 55300 69907 70019 81618 83650 87462 91114
AAXX 13061 10685 12983 71806 10014 21016 39426 40108 56029 60002 8707/ 333 10037 20009 31100 55012 55300 20000 30000 70025 87364
AAXX 13061 10738 12986 71501 10029 21021 39643 40118 56029 60002 8707/ 333 10044 20000 31106 55000 55300 70009 87363
AAXX 13061 10763 12970 71504 10011 21002 39737 40127 56028 60002 8707/ 333 10058 21009 34102 55000 55300 20000 30000 70037 87360
AAXX 13061 10788 15958 01704 11006 21007 39721 40166 56016 69992 333 10051 21019 3/104 55000 55300 20000 30000 70015
AAXX 13061 10852 12989 21703 11009 21017 39572 40157 56019 69902 81032 333 10048 21009 31103 55000 55300 20000 30000 70006 81364
AAXX 13061 10946 15988 41203 11024 21036 39306 40162 56024 69932 333 10034 21031 3/105 55000 55300 20000 30000 70059 84/65
AAXX 13064 91631 11498 70314 10272 20245 40081 60011 71482 81268 333 56199
AAXX 13064 91648 11498 73212 10254 20237 40094 60061 71482 8337/ 333 5679/
AAXX 13064 91643 11498 80720 10260 20246 40091 53007 69921 78022 8337/ 333 5629/ 83918 88460
AAXX 13064 78954 11478 30909 10262 20238 30047 40111 60001 71581 83800 333 10313 20235 58002 82816 90950
AAXX 13064 68386 36/// /2002 10234 20200 39688 48611 52006 333 20226 91003 555 10385 91022
AAXX 13064 78954 11478 30909 10262 20238 30047 40111 60001 71581 83800 333 10313 20235 58002 82816 90950
AAXX 13061 01001 NIL
AAXX 13061 01008 11480 71507 11050 21089 39932 49966 53003 69902 77072 875// 333 21082 47015 70012 91111
AAXX 13061 01010 41989 31205 11008 21063 39834 49850 56020 70200 80008 333 21010 91110
AAXX 13061 01026 NIL
AAXX 13061 01055 NIL
AAXX 13061 01062 NIL
AAXX 13061 01098 11480 81704 11003 21020 39983 40001 58007 69902 70322 8282/ 333 21025 70042 91108
AAXX 13061 01115 11470 81310 10027 21016 39794 49814 57017 69932 76162 8272/ 333 20003 70003 91115
AAXX 13061 01152 NIL
AAXX 13061 01205 NIL
AAXX 13061 01212 NIL
AAXX 13061 01271 16/// /0804 11009 21058 39816 49837 57008 6//// 333 21040 91106
AAXX 13061 01288 11786 43402 11135 21147 39127 49902 58004 60002 70221 84500 333 21152 47018 70015 91104
AAXX 13061 01300 NIL
AAXX 13061 01317 NIL
AAXX 13061 01367 NIL
AAXX 13061 01384 11060 81202 11003 21004 39650 49897 57017 69932 70322 886// 333 21012 91109
AAXX 13061 01403 11440 8//// 1//// 2//// 39665 58075 60032 76361 887// 333 70058
AAXX 13061 01415 16/// /1410 10049 20024 39743 49753 58074 6//// 333 20045 91117
AAXX 13061 01482 46/// /1915 1//// 2//// 39879 49886 58026 333 91117
AAXX 13061 01492 NIL
AAXX 13061 01003 NIL
AAXX 13061 01007 16/// /1305 11055 21110 39956 49965 52001 60002 333 21079 70005 91109
AAXX 13061 01028 NIL
AAXX 13061 01047 11650 80000 11092 21105 39550 49924 58032 60022 77172 8802/ 333 21164 47021 70023
AAXX 13061 01049 NIL
AAXX 13061 01078 11380 61507 11024 21065 39966 49979 58014 6//// 70322 85360 333 21050 91109
AAXX 13061 01102 46/// /1715 10041 21003 39787 49806 57009 333 20008 91119
AAXX 13061 01160 NIL
AAXX 13061 01218 NIL
AAXX 13061 01238 41457 61409 11048 21074 38717 49831 56016 73632 84940 333 21059 48013 91114
AAXX 13061 01241 NIL
AAXX 13061 01281 NIL
AAXX 13061 01338 16/// /0906 10036 21004 39740 49805 58042 60042 333 20011 70035 91110
AAXX 13061 01359 NIL
AAXX 13061 01397 NIL
AAXX 13061 01400 NIL
AAXX 13061 01427 16/// /1619 10069 20051 39774 49790 56069 60032 333 20064 70062 91125
AAXX 13061 01447 NIL
AAXX 13061 01448 46/// ///// 10061 20041 39826 49836 58057 333 20046
AAXX 13064 78897 12475 50000 10224 20216 40123 58016 60001 84802 333 0225/ 10314 20217 58006 70002 82816 83656
AAXX 13064 91413 11469 60807 10299 20258 30058 40083 56017 60071 70281 85801 333 562/9 70086 555 91306
AAXX 13064 85574 12960 09902 10167 20048 39572 40119 58006 60001
AAXX 13064 85469 42565 59902 10196 20161 40195 52005 82130 333 56000 82820 83363
AAXX 13061 78221 NIL
AAXX 13061 78224 11557 50302 10220 20200 30123 40198 57003 69981 76006 85500 333 85623
AAXX 13061 78229 41459 20502 10213 20193 30120 40195 57010 70580 82200 333 81820
AAXX 13061 78239 NIL
AAXX 13061 78244 NIL
AAXX 13061 78243 42559 50603 10215 20207 30067 40190 57006 85200 333 85820
AAXX 13061 78255 42559 10404 10217 20201 30028 40177 57010 81800 333 81820
AAXX 13061 78264 31960 00105 10229 20189 30077 40152 57010 70500
AAXX 13061 78265 41060 00403 10211 20195 30060 40160 57010 70000
AAXX 13061 78256 NIL
AAXX 13061 78259 NIL
AAXX 13061 78268 NIL
AAXX 13064 78897 12475 50000 10224 20216 40123 58016 60001 84802 333 0225/ 10314 20217 58006 70002 82816 83656
AAXX 13064 86033 NIL
AAXX 13064 86086 32870 31802 10260 20162 39987 40076 54000 83050 333 83360
AAXX 13064 86097 32970 60000 10210 20178 39456 40101 52015 86030 333 86360
AAXX 13064 86134 32970 01702 10238 20213 39986 40072 54000
AAXX 13064 86170 NIL
AAXX 13064 86192 32970 00000 10268 20210 39879 40094 54000
AAXX 13064 86210 32870 50000 10236 20211 39724 40063 58006 85070 333 85357
AAXX 13064 86218 32970 01902 10246 20174 30000 40096 56001
AAXX 13064 86221 32970 00000 10234 20181 39976 40110 51004
AAXX 13064 86233 32970 01804 10226 20187 39906 40095 51001
AAXX 13064 86246 32870 32306 10230 20213 39793 40076 56005 83050 333 83357
AAXX 13064 86255 32870 31806 10220 20187 30047 40115 58006 83050 333 83360
AAXX 13064 86260 32670 21904 10224 20153 39937 40089 54000 82400 333 82640
AAXX 13064 86268 32970 00000 10218 20191 39934 40102 52021
AAXX 13064 86297 32570 71808 10250 20204 39970 40073 58006 83570 333 83622 84458
AAXX 13064 91413 11469 60807 10299 20258 30058 40083 56017 60071 70281 85801 333 562/9 70086 555 91306
AAXX 13061 10609 01459 82112 10042 20024 39710 40040 56038 60022 76361 8472/ 333 10054 20036 32002 55022 55300 20000 30000 60027 70057 84715 88530 91121 91215
AAXX 13061 10616 01362 82012 10027 20005 39437 40038 58043 69942 76162 875// 333 10038 20021 31001 55010 55300 69947 70045 82709 84614 87628 91118 91213 96463
AAXX 13061 10641 07588 71806 10061 21009 39925 40072 56037 69902 72360 333 10063 20043 3/001 55001 55300 69907 70050 83/31 87/58 87/62 91113
AAXX 13061 10655 12787 71805 10028 21004 39768 40101 56030 60002 875// 333 10049 20015 31100 55002 55300 20000 30000 70017 87656
AAXX 13061 10675 15768 81505 10013 21001 39820 40117 58030 69962 333 10054 20006 3/101 55000 55300 20000 30000 70032 83/56 87/59 88/62
AAXX 13061 10688 15359 71703 10011 20005 39611 40144 56018 69932 333 10047 20002 3/101 55000 55300 20000 30000 70010 87/07 87/46
AAXX 13061 10708 01580 82010 10050 21012 39685 40071 56034 69902 76161 8352/ 333 10053 20021 31000 55017 55300 20000 30000 69907 70026 83633 88463 91117
AAXX 13061 10729 15788 71607 10046 20005 39971 40094 56040 60002 333 10048 20015 3/102 55005 55300 20000 30000 70016 82/50 87/58 87/59
AAXX 13061 10731 12785 82207 10069 21019 39944 40087 56039 60002 8152/ 333 10072 20007 31101 55002 55300 20000 30000 70089 81656 88459
AAXX 13061 10742 15788 72005 10055 21033 39772 40105 58033 60002 333 10055 20032 3/000 55000 55300 20000 30000 70072 84/50 87/57 87/59
AAXX 13061 10776 11150 61503 10001 21001 39701 40157 56017 69912 71011 85630 333 10046 21002 34102 55000 55300 20000 30000 70007 85703 83366
AAXX 13061 10791 01/00 91906 11046 21050 38482 48429 58011 60022 74974 333 11008 21049 44054 55039 55300 69907 70064 96278
AAXX 13061 10805 12782 71908 10070 21035 39910 40101 58037 60002 8155/ 333 10071 20029 31002 55010 55300 20000 30000 70007 81650 87358 91113
AAXX 13061 10815 07488 71904 11003 21023 39167 48401 57026 69902 72470 333 10015 21008 3/102 55000 55300 20000 30000 69907 70162 82/19 84/29 87/56
AAXX 13061 10836 12989 72108 10007 21021 39249 40132 56021 60002 85072 333 10020 21007 34102 4/998 55000 55300 20000 30000 70015 85461 91113
AAXX 13061 10870 12989 11902 10003 21010 39615 40162 56018 60002 81030 333 10055 21014 31103 55000 55300 70036 81363
AAXX 13061 10895 11950 11903 11003 21003 39589 40174 56017 60022 72841 80001 333 10033 21005 31102 55000 55300 20000 30000 70045 81080 95149 96010 96248 96449
AAXX 13061 10908 01786 72123 11038 21056 38400 48402 58027 69912 73733 875// 333 11033 21057 3/106 49014 55000 55300 20000 30000 69907 70246 87650 91126 90241 91218 91223
AAXX 13061 10929 12884 73201 10013 21007 39610 40152 56020 60002 85501 222// 06061 333 10046 20004 31102 55000 55300 20000 30000 70017 85657 86080
AAXX 13061 10948 12989 31601 11043 21043 39196 48423 56026 69922 81042 333 10026 21056 34108 41998 55000 55300 20000 30000 70146 81366 83076
AAXX 13061 10961 12589 32513 11086 21230 37020 47982 53002 60032 81042 333 11078 21149 49085 55010 55300 20000 40674 70110 81333 83066 91119 91213
AAXX 13061 10962 12989 31704 11007 21048 38988 48429 56025 60022 81042 333 10006 21020 3/106 43003 55002 55300 20000 30000 70038 81362
AAXX 13061 10980 12889 12210 11044 21066 38091 48445 58009 60012 81030 333 11039 21072 3/108 48027 55006 55300 20000 30000 70103 81358
BBXX PDHY 13063 99471 70436 41/97 82811 10030 21021 40239 58020 7//22 8//// 22223 04070 2//// 325// 40905 5//// 80010
BBXX BATFR19 13064 99007 30088 46/// /1311 10250 20235 40114 53005 22200 00274
BBXX BATFR54 13064 99415 70101 46/// /2130 10152 20137 40176 58007 22243 00157
BBXX BATFR46 13064 99357 70061 44/97 41410 10145 20122 40267 55002 703// 84/// 22213 00177
BBXX BATFR04 13064 99598 70107 44398 81514 10054 20022 49559 56014 70022 887// 22200 00102 318// 40508 5////
BBXX BATFR56 13064 99078 30758 44598 21904 10282 20242 40102 58006 70000 82163 22253 00297 20804 318// 40804 5////
AAXX 13061 10007 NIL
AAXX 13061 10044 NIL
AAXX 13061 10046 11660 81708 10040 20014 39902 49941 57063 69922 76122 875// 333 10049 20036 32002 55000 70016 87640 91114
AAXX 13061 10091 12962 71912 10029 20014 39964 40015 58030 69922 84056 222// 06063 333 10059 20023 31001 55000 55300 20000 30000 70028 84368 87271 91116 91213
AAXX 13061 10113 01458 81812 10052 20037 39854 49873 56063 60042 76362 877// 222// 06050 333 10059 20045 32003 55020 55300 20000 30000 60047 70048 87710 91122 91215
AAXX 13061 10124 NIL
AAXX 13061 10131 01462 81710 10048 20026 39896 49911 57067 69982 76362 875// 222// 02044 333 10055 20038 31003 55000 55300 20000 30000 69987 70016 81710 87620 91117 91211
AAXX 13061 10170 12980 51705 10033 20008 39980 49996 58047 60002 85050 333 10065 20025 31001 55000 55300 20000 30000 70030 85361
AAXX 13061 10264 12975 81705 10031 20006 39906 40013 58047 60002 8707/ 333 10056 20019 31100 55000 55300 20000 30000 70047 87460
AAXX 13061 10291 12970 71806 10025 20002 39998 40067 58028 69912 80001 333 10062 20019 31000 55002 55300 20000 30000 70008 87070
AAXX 13061 10315 01465 81709 10050 20034 39886 49950 56056 60032 76362 8652/ 333 10067 20049 32004 55009 55300 20000 30000 60037 70051 86619 87458 91117
AAXX 13061 10379 12981 61707 10022 20002 39939 40062 58034 69902 81036 333 10066 20013 34101 55002 55300 20000 30000 40897 70010 81362 86273
AAXX 13061 10382 02980 31805 10032 20000 30020 40066 58034 6///2 80005 333 10068 20020 34100 55000 55300 20000 30000 6///7 7//// 83275
AAXX 13061 10384 16/// /1704 10031 20004 30010 40071 58030 69902 333 10072 20021 3/100 55000 55300 20000 30000 70007
AAXX 13061 10427 01/01 91916 11010 21010 38999 48312 56044 60022 77374 333 11001 21010 3/101 44017 55000 55300 20000 30000 60027 70096 91122 91216 96041
AAXX 13061 10430 01558 81808 10046 20014 39801 49993 56053 69912 76361 885// 333 10052 20031 31001 55000 55300 20000 30000 69917 70043 82628 86633 91113
AAXX 13061 10439 11570 82009 10047 20002 39808 40028 57050 69902 76122 875// 333 10047 20020 31102 70022 87630 91013 91113
AAXX 13061 10453 11/90 92028 11033 21034 38657 48297 56050 60012 74974 333 11025 21033 3/103 49053 55000 55300 70104 91135 91229 96039 96271 96471 96449 96439
AAXX 13061 10496 12983 71804 10021 21007 30014 40100 58023 60002 80004 333 10076 20019 34102 55002 55300 20000 30000 70001 87073
AAXX 13061 10499 12965 11808 10016 21004 39824 40120 58021 69912 80002 333 10043 20011 34101 55052 55300 20000 30000 70001 81070
AAXX 13061 10505 01386 82014 10063 20039 39679 49956 56046 60032 76061 8352/ 333 10063 20045 32003 55022 55300 20000 30000 60027 70085 81708 83622 88462 91126 91217
AAXX 13061 10513 01584 71811 10070 20021 39883 40003 56045 69902 72162 875// 333 10074 20023 31000 55018 55300 20000 30000 69907 70040 87626 91120 91212 96261
AAXX 13061 10532 15483 71708 10040 20009 39800 40049 56041 60002 333 10045 20014 3/102 55004 55300 20000 30000 70027 81/15 87/30 87/46 91114
AAXX 13061 10544 11280 81819 11015 21019 38979 48360 58033 69902 70274 8587/ 333 11002 21017 3/102 42003 55000 55300 70030 81806 85640 87356 91123 90213 91218 91219 96468 96441
AAXX 13061 10554 12986 62011 10034 21010 39669 40059 58043 60002 80028 333 10044 20017 31100 55002 55300 20000 30000 79999 82462 87276 91116 91213
AAXX 13061 10567 12584 82112 10034 21009 39707 40086 58035 69902 8252/ 333 10063 20018 31100 55006 55300 20000 30000 79999 82633 87465 91116 91212
AAXX 13061 10578 11/01 92016 11036 21039 38695 48394 57022 69992 74974 333 11004 21037 3/104 48029 55014 55300 20000 30000 70032
BBXX BATFR02 13064 99508 70011 46/// /2532 10107 20059 49887 55023 22283 00112
BBXX BATFR42 13064 99507 70019 46/// /2825 10094 20037 49884 55017 22272 00127
BBXX BATEU07 13064 99387 31480 46/// /1722 10155 40136 53028 22264
BBXX BATFR47 13064 99309 51485 44598 30811 10207 20165 40205 52013 70100 832// 22262 20000 310// 40402 5////
BBXX BATEU06 13064 99535 10099 46/// /1715 10074 20012 49953 22271 00054
BBXX BATFR05 13064 99061 10013 46/// /3507 10222 20169 40117 53010 22200 00257
BBXX BATEU00 13064 99535 30159 46/// /3119 11013 21043 40134 56029 22242
AAXX 13064 91503 01475 70000 10270 20251 40061 55003 60171 76186 83878 333 56990 60167 82816 83625 87459
AAXX 13064 91517 31475 71803 10269 20243 40065 53001 71592 84937 333 56699 81818 81919 83630 86280
AAXX 13064 91503 01475 70000 10270 20251 40061 55003 60171 76186 83878 333 56990 60167 82816 83625 87459
AAXX 13064 91517 31475 71803 10269 20243 40065 53001 71592 84937 333 56699 81818 81919 83630 86280
AAXX 13061 11816 11470 53205 10050 20015 30008 40174 53004 69902 70262 85500 333 20040 31004 70000 81713 85628
AAXX 13061 11826 11450 79901 10033 20021 39962 40165 51002 60022 71022 875// 333 20033 31000 70020 87617
AAXX 13061 11903 11110 80101 10017 20016 39773 40160 52006 60052 71064 886// 333 20015 32001 70075 88702
AAXX 13061 11934 11360 83102 10017 20013 39325 42761 51004 60052 76062 885// 333 20017 3/001 41998 70060 81708 87714 88640
AAXX 13061 11968 11513 80000 10044 20037 39865 40148 52003 60072 72164 885// 333 20027 32003 70089 88625
AAXX 13061 01121 46/// /1310 10023 21030 39802 49814 56013 333 21006 91121
AAXX 13061 01135 NIL
AAXX 13061 01143 16/// /1403 11001 21070 60002 333 21010 70000 91113
AAXX 13061 01150 NIL
AAXX 13061 01192 NIL
AAXX 13061 01225 46/// /1205 10043 21011 39797 49802 57015 333 20040 91118
AAXX 13061 01230 NIL
AAXX 13061 01232 NIL
AAXX 13061 01234 16/// /2204 11070 21080 60002 333 21071 70007 91108
AAXX 13061 01253 NIL
AAXX 13061 01254 NIL
AAXX 13061 01257 NIL
AAXX 13061 01277 NIL
AAXX 13061 01291 NIL
AAXX 13061 01332 16/// /1201 10001 21009 60012 333 21001 70028 91103
AAXX 13061 01366 46/// /1408 11068 21089 38239 49841 57020 333 21074 91111
AAXX 13061 01370 NIL
AAXX 13061 01376 16/// /1002 11015 21020 69932 333 21015 70063 91104
AAXX 13061 01383 46/// /0000 11024 21024 39583 49897 55003 333 21072 91106
AAXX 13061 01386 NIL
AAXX 13061 01416 16/// ///// 10051 20038 60032 333 20038 70105
AAXX 13061 01419 NIL
AAXX 13061 01430 16/// ///// 10064 20040 60042 333 20056 70097
AAXX 13061 01434 16/// /0603 11024 21037 38871 49818 58045 60022 333 21054 91106
AAXX 13061 01455 NIL
AAXX 13061 01468 16/// /1302 10009 20000 69932 333 21011 70035 91104
AAXX 13061 01470 NIL
AAXX 13061 01476 NIL
AAXX 13061 01481 NIL
AAXX 13061 01488 NIL
AAXX 13061 01037 NIL
AAXX 13061 01046 NIL
AAXX 13061 01058 16/// /1405 11107 21120 39469 49947 57026 60012 333 21158 4/020 70012 91108
AAXX 13061 01065 NIL
AAXX 13061 01092 NIL
AAXX 13061 01107 16/// /1605 10016 2//// 39818 49822 57009 60002 333 20014 70000 91112
AAXX 13061 01114 NIL
AAXX 13061 01144 46/// /1109 10007 21047 333 20002 91120
AAXX 13061 01199 NIL
AAXX 13061 01245 NIL
AAXX 13061 01259 16/// /1509 10045 21023 39789 49811 56007 60002 333 20010 70000 91113
AAXX 13061 01262 NIL
AAXX 13061 01278 31985 11405 11030 21049 39741 49843 58002 70211 81040 333 21030 48009 79999
AAXX 13061 01293 11965 12202 11056 21071 39647 49857 55000 69922 70220 80001 333 21057 70002 91106
AAXX 13061 01329 NIL
AAXX 13061 01337 NIL
AAXX 13061 01344 NIL
AAXX 13061 01364 NIL
AAXX 13061 01373 11465 80000 11033 21042 39673 49875 58031 60002 70222 886// 333 21038 47021 70022 91102
AAXX 13061 01374 31260 80000 11050 21052 71021 886// 333 21068 43031 70041
AAXX 13061 01380 16/// /1603 11049 21059 6//// 333 21051 4/026 91108
AAXX 13061 01389 NIL
AAXX 13061 01393 NIL
AAXX 13061 01424 11560 8//// 10061 21009 39777 49780 58072 60052 70276 8472/ 333 20002 70203
AAXX 13061 01431 16/// /2004 10015 21001 39152 49800 58063 60062 333 21005 70242 91111
AAXX 13061 01436 NIL
AAXX 13061 01465 11245 81718 10066 20051 39837 49855 58049 60022 76362 8672/ 333 20035 70062 91123
AAXX 13061 01471 11450 80000 11049 21056 60002 77174 8772/ 333 21071 70019 91100
AAXX 13061 01483 NIL
AAXX 13061 01025 16/// /0000 11073 21098 39859 49871 57025 6//// 333 21079 91105
AAXX 13061 01052 16/// /1104 11054 21084 39834 49933 58017 60002 333 21058 70018 91112
AAXX 13061 01122 NIL
AAXX 13061 01132 NIL
AAXX 13061 01156 NIL
AAXX 13061 01203 46/// /1307 10058 21020 39710 49758 58044 333 20033 91123
AAXX 13061 01233 16/// /3102 11064 21072 60002 333 21087 70015 91105
AAXX 13061 01265 NIL
AAXX 13061 01273 NIL
AAXX 13061 01307 46/// /1214 10064 20011 39711 49738 58063 333 20050 91120
AAXX 13061 01321 16/// /1402 10017 21022 39542 49790 58038 60012 333 21010 70015 91108
AAXX 13061 01327 16/// /1107 10005 21020 60012 333 21005 70046 91112
AAXX 13061 01350 16/// /1213 11043 21050 38449 49805 58037 60002 333 21061 70026 91118
AAXX 13061 01361 NIL
AAXX 13061 01375 NIL
AAXX 13061 01378 NIL
AAXX 13061 01385 16/// /1101 11021 21023 39628 49900 57010 69952 333 21033 70023 91103
AAXX 13061 01412 16/// /1520 10070 20052 39710 49739 58081 60062 333 20050 70122 91130
AAXX 13061 01422 NIL
AAXX 13061 01440 NIL
AAXX 13061 01441 NIL
AAXX 13061 01467 NIL
AAXX 13061 01469 NIL
AAXX 13061 01477 NIL
AAXX 13061 01480 16/// /0302 11008 21014 69952 333 21049 70050 91103
AAXX 13061 01484 16/// /1603 10017 20005 39746 49900 57019 60002 333 21013 70020 91105
AAXX 13061 01490 16/// /1502 11007 21007 60012 333 21020 70139 91107
AAXX 13061 01495 16/// /1813 10065 20038 39876 49889 58026 60002 333 20060 70045 91117
AAXX 13061 01015 NIL
AAXX 13061 01023 NIL
AAXX 13061 01033 NIL
AAXX 13061 01059 11464 71806 11074 21094 39944 49954 56031 69962 77072 8472/ 333 21109 70006 91111
AAXX 13061 01089 NIL
AAXX 13061 01167 41887 62803 11028 21075 39837 49841 56020 70321 82048 333 21034 91104
AAXX 13061 01180 NIL
AAXX 13061 01210 11887 71405 10066 21020 39750 49776 58034 60024 70282 82047 333 20036 41001 70020 91110
AAXX 13061 01228 NIL
AAXX 13061 01240 16/// /1610 10058 21005 39786 49805 56009 6//// 333 20030 91118
AAXX 13061 01304 46/// /1415 10065 20010 39717 49747 58050 333 20043 91124
AAXX 13061 01311 NIL
AAXX 13061 01340 NIL
AAXX 13061 01355 16/// ///// 10057 21046 39813 49818 58038 60002 333 21012 70029
AAXX 13061 01360 NIL
AAXX 13061 01392 16/// /1501 10007 21006 39680 49905 58008 60012 333 20006 70051 91108
AAXX 13061 01406 NIL
AAXX 13061 01411 16/// /1315 10052 20029 39717 49742 58079 6//// 333 20050 91122
AAXX 13061 01425 NIL
AAXX 13061 01433 NIL
AAXX 13061 01442 NIL
AAXX 13061 01450 NIL
AAXX 13061 01452 NIL
AAXX 13061 01473 11510 80000 11028 21032 39671 49880 58031 60042 76952 8472/ 333 21055 47016 91102
AAXX 13061 01494 16/// /1705 10045 20035 39827 49891 58025 69992 333 20017 70077 91109
BBXX CGDS 13064 99447 70755 46/// /2307 10010 21018 4//// 5//// 7//// 8//// 22200 0//// 2////
AAXX 13064 91367 32474 31112 10289 20243 83100 333 562// 83815 70060 555 91306 91369 32474 60920 10289 20254 30071 40074 84339 333 56229 84815 83360 88480 70000 555 91306
AAXX 13064 03005 11462 82220 10047 20035 39500 49596 56079 60102 72162 885// 90550 333 20029 32001 55000 55300 20000 70114 81713 87641 90710 91149
AAXX 13064 03017 17866 /2320 10040 20025 39576 49606 56020 60062 723// 90550 333 20030 3/002 55024 55300 20000 70076 87/57 90710 91128
AAXX 13064 03023 17759 /2131 10050 20013 39594 49599 56026 60062 781// 90550 333 20039 3/001 70090 85/50 90710 91140
AAXX 13064 03026 17664 /2211 10043 20014 39582 49600 58024 60072 723// 90550 333 20024 3/001 55009 55300 20000 70108 81/36 84/50
AAXX 13064 03063 17219 /2110 10004 21005 39384 49654 56011 60032 786// 90550 333 20004 3/000 55012 55300 20000 70042 85/05 85/17
AAXX 13064 03066 17584 /2205 10024 21005 39636 49642 56012 69922 723// 90550 333 20024 3/101 55042 55300 20000 70002 81/26 83/35
AAXX 13064 03075 15870 /2015 10033 20016 39577 49620 56014 60042 90550 333 20032 3/002 70044 88/57
AAXX 13064 03091 15981 /2118 10031 21008 39579 49657 58013 60072 90550 333 20028 3/001 55036 55300 20000 70068 8//99 90710 91125
AAXX 13064 03100 17450 /2517 10029 20016 39620 49635 56027 60092 781// 90550 333 20021 3/000 55007 55300 20000 70154 81/10 86/24 90710 91136
AAXX 13064 03111 16480 /2326 10033 20004 39689 49701 55012 60022 90550 333 20029 3/002 70084 82/18 84/60 90710 91142 91036
AAXX 13064 03134 15681 /2113 10033 21002 39624 49694 56008 60072 90550 333 20026 3/001 55002 55300 20000 70102 86/43 90710 91125
AAXX 13064 03136 15669 /2328 10050 20009 39673 49705 56009 60032 90550 333 20049 3/004 55006 55300 20000 70040 83/38 86/50 90710 91138
AAXX 13064 03162 15670 /2214 10021 21009 39452 49732 55003 60092 90550 333 20021 3/001 55002 55300 20000 70098 82/31 90710 91125 91024
AAXX 13064 03166 17673 /2214 10032 20006 39629 49697 56009 60022 723// 90550 333 20027 3/001 55012 55300 20000 70026 81/37 90710 91130
AAXX 13064 03171 11475 22514 10027 20003 39674 49686 55008 69982 72586 82800 90550 333 20022 31101 55034 55300 20000 70008 81818 90710 91125
AAXX 13064 03204 11670 52429 10058 21016 39738 49757 51003 60072 70381 85800 90550 333 20052 31003 55008 55300 20000 70130 81830 85640 90710 91141 91041
AAXX 13064 03240 17968 /2217 10047 20015 39691 49719 56006 60042 723// 90550 333 20040 3/002 55048 55300 20000 70036 8//99 90710 91126
AAXX 13064 03257 13575 62313 10052 20006 39720 49759 50005 60092 81232 90550 333 20038 31000 55043 55300 20000 70094 81820 83362 86070 90710 91134
AAXX 13064 03292 168// /2309 10052 20038 39752 49770 52010 60062 90550 333 20052 3/004 70064 84/57 88/65
AAXX 13064 03302 12665 52431 10061 20001 39785 49797 53012 60082 85800 90550 333 20059 30005 55019 55300 20000 70118 82832 83645 90710 91144
AAXX 13064 03354 17463 /2712 10045 20029 39672 49812 53021 60132 782// 90550 333 20044 3/003 55040 55300 20000 70130 85/12 84/50
AAXX 13064 03377 11483 72310 10051 20038 39718 49800 53013 60102 72162 875// 90550 333 20047 31003 55053 55300 20000 70100 81615 87656
AAXX 13064 03414 17983 /2210 10029 20014 39730 49817 50015 60102 723// 90550 333 20027 3/000 55021 55300 20000 70100 8//99
AAXX 13064 03462 17682 /2417 10076 20035 39723 49810 53010 60082 781// 90550 333 20051 3/004 55055 55300 20000 70076 81/31 84/45 90710 91138 91027
AAXX 13064 03482 17780 /2521 10089 20056 39786 49811 55002 60042 723// 90550 333 20058 3/005 70042 81/56 90710 91139
AAXX 13064 03502 15669 /2734 10067 21026 39674 49832 51010 60172 90550 333 20038 3/003 55024 55300 20000 70208 84/45 90710 91145 91044
AAXX 13064 03535 17482 /2515 10045 20030 39716 49831 53031 60112 781// 90550 333 20045 3/003 55049 55300 20000 70118 81/17 85/39 90710 91127 91025
AAXX 13064 03590 11586 52419 10094 20068 39724 49830 55001 60082 72165 84530 90550 333 20059 31005 55062 55300 20000 70084 84623 90710 91137
AAXX 13064 03649 11580 22614 10072 20029 39745 49843 52019 60132 70261 81832 90550 333 20069 31005 55051 55300 2//// 70134 81822 90710 91126
AAXX 13064 03716 17576 /2623 10076 20031 39803 49862 53024 60082 723// 90550 333 20066 3/005 55009 55300 20000 70096 81/28 85/58 90710 91141 91033
AAXX 13064 03740 16572 /2523 10060 20030 39683 49857 53016 60182 90550 333 20059 3/004 55047 55300 2//// 70192 81/28 90710 91135 91034
AAXX 13064 03746 15969 /2619 10076 20024 39718 49868 53020 60362 90550 333 20073 3/006 70358 83/61 90710 91132 91029
AAXX 13064 03772 15978 /2420 10093 20053 39821 49851 53003 60162 90550 333 20077 3/006 55054 55300 20000 70164 83/59 90710 91131
AAXX 13064 03796 46/// /2321 10108 20104 39727 49864 56007 90550 333 20075 90710 91146 91042
AAXX 13064 03803 17668 /2728 10083 20029 39885 49922 53021 60092 723// 90550 333 20074 3/006 70166 81/36 86/60 90710 91140 91038
AAXX 13064 03808 11570 42722 10076 20023 39806 49910 52021 60132 70286 83870 90550 333 20063 31005 55013 55300 20000 70266 83825 90710 91135
AAXX 13064 03809 11570 42822 10080 20026 39821 49912 51022 60082 70286 84830 90550 333 20068 30005 70080 81824 90710 91139 91037
AAXX 13064 03827 17969 /2721 10068 20029 39846 49907 52025 60122 723// 90550 333 20068 3/005 70184 8//99 90710 91135
AAXX 13064 03840 17575 /2612 10050 20028 39588 49889 53023 60152 723// 90550 333 20047 3/003 70166 82/28 90710 91131
AAXX 13064 03853 11456 62516 10075 20026 49885 60162 78181 86931 90550 333 20075 3/005 55045 55300 20000 70184 81712 81920 84825 90710 91128 91026
AAXX 13064 03874 46/// /2720 10097 20071 39865 49876 53011 90550 333 20091 90710 91130
AAXX 13064 03882 17457 /2416 10102 20091 39811 49873 55008 60252 762// 90550 333 20081 3/007 55038 55300 20000 70250 82/15 84/23 90710 91139 91027
AAXX 13064 03894 11575 32626 10104 20056 49927 53009 60202 70161 83802 333 20090 32007 82820 90710 91139 91036
AAXX 13064 03917 17480 /2118 10019 21006 39655 49731 55006 60012 721// 90550 333 20017 3/000 55014 55300 20000 70036 81/15 83/18 90710 91133 91028
AAXX 13064 61901 169// /1317 10147 20147 39658 40170 53002 60032 90550 333 20143 3/014 70082 8//99 555 7/090
AAXX 13064 88889 12986 32913 10103 20032 30069 40153 52006 60001 81031 90550 333 81362 83075
AAXX 13061 02741 17471 72304 10025 20019 39936 49952 52004 60022 700// 81/// 90539 333 10045 20023 3/000
AAXX 13061 02755 17473 71507 10006 21009 39854 49948 57016 69972 70087 87/// 90539 333 10009 21040 3//// 4/009
AAXX 13061 02805 37635 73202 11158 21178 39847 49987 57026 77187 87/// 90539 333 11158 21196 3/120
AAXX 13061 02807 47657 81303 11070 21078 39783 49969 771// 88/// 90600 333 11070 21125 3////
AAXX 13061 02836 17350 81404 11062 21069 39734 49961 57022 60032 77170 88/// 90539 333 11062 21147 3/117 4/022
AAXX 13061 02845 47125 81205 11036 21036 39699 49949 57018 77170 88/// 90539 333 11036 21152 3/115 4/027
AAXX 13061 02849 47450 81505 11055 21067 39708 49987 57014 77170 88/// 90539 333 11055 21127 3////
AAXX 13061 02866 17282 81403 11016 21017 39820 49970 57018 60012 70087 88/// 90539 333 11016 21063 3/104 4/023
AAXX 13061 02897 47599 81504 11002 21021 39804 49986 700// 88/// 90600 333 11001 21071 3////
AAXX 13061 02913 47236 71506 10010 20004 39873 49925 761// 87/// 333 10018 20008 3////
AAXX 13061 02917 47480 81406 10002 21009 39873 49996 700// 88/// 90600 333 10005 21035 3////
AAXX 13061 02924 47222 71502 10002 20002 39754 49951 57023 77174 87/// 90539 333 10007 21001 3/100
AAXX 13061 02926 17250 81703 10020 20020 39924 49937 56010 60042 762// 88/// 90600 333 10020 20011 3//// 4/007
AAXX 13061 02935 17228 81503 10002 21001 39800 49974 57020 60012 77787 88/// 90539 333 10008 21014 3/102 4/019
AAXX 13061 02939 17469 81705 11002 21010 39844 40039 57015 60022 78087 88/// 90539 333 11001 21058 3/106 4/016
AAXX 13061 02944 47138 81504 10005 20004 39808 49955 761// 88/// 90600 333 10017 20004 3////
AAXX 13061 02947 47/60 71504 10006 20000 40005 57020 77107 87/// 90551 333 10009 21007 3////
AAXX 13061 02963 11257 81805 10012 20007 49958 56015 60044 76876 887// 333 1//// 2//// 3/101 43006
AAXX 13061 02974 11256 81806 10017 20009 39922 49988 57019 60022 76976 887// 333 10028 20013 32001
AAXX 13061 02976 46/// /1909 10020 20017 39995 40011 57020 90539 333 10028 20014 3////
AAXX 13061 02981 17467 72509 10046 20033 39952 49962 52003 60052 75186 85/// 90539 333 10057 20042 3////
AAXX 13061 02982 46/// /2015 10048 20041 39954 49962 57015 90539 333 10048 20032 3////
AAXX 13064 87692 11340 81815 10156 20137 30110 40135 55004 69921 75252 887// 333 56599 88708 555 10134
BBXX 46082 13061 99597 71434 46/// ///// 10046 20046 40047 51019 90550 22200 00063 11410 70048
BBXX 46072 13061 99517 71722 46/// /1614 10051 20032 49624 58021 90550 22200 00052 11418 20810 3//// 41415 70091 333 91218 555 11149 22159 30508 41621 60549 164139 162138 160143 161147 160148 157152 81617 90513
BBXX 46035 13061 99571 71778 46/// /0814 1//// 49805 57036 90550 333 91217 555 11135 22144
BBXX 46077 13061 99579 71543 46/// /2808 10024 21042 40065 52007 90550 22200 00053 11103 20502 3//// 41102 70014 333 91209 555 11080 22084 30516 42810 60549 278076 277079 280078 282078 278079 282081 82809 90516
BBXX 51101 13061 99243 71621 46/// /0809 10235 20190 40193 52016 90550 22200 00243 11106 20604 310// 41105 70031 333 91211 555 11097 22103 30511 40712 60549 074090 071095 071092 073098 066088 070086
BBXX 46061 13061 99602 71468 46/// /2303 10033 40018 51023 90550 22200 00061 11205 20401 300// 41205 70027 333 91206 555 11033 22034 30546 42406 60549 225031 199019 196014 175014 184021 192024
BBXX 41040 13061 99145 70530 46/// /0809 10266 20238 40123 56015 90550 22200 00278 10806 20804 3//// 41004 70028 333 91211 555 11092 22098 30452 41011 60549 084088 088090 086091 087094 088091 088093 80910 90521
BBXX 41010 13061 99289 70785 46/// /0708 10226 40231 58004 90550 22200 00241 10905 20703 300// 40904 70025 333 91210 555 11086 22090
BBXX 42057 13061 99168 70815 46/// /0411 10276 20229 40142 58010 90550 22200 00282 10703 20703 70017 333 91212 555 11109 22116 30532 40313 60549 041109 036106 036103 044104 042102 039097 80412 90533
BBXX 41009 13061 99285 70802 46/// /0710 10235 20187 40232 50000 90550 22200 00253 10906 20704 300// 40904 70028 333 91212 555 11106 22112
BBXX CGDS 13064 99447 70755 46/// /2307 10010 21018 4//// 5//// 7//// 8//// 22200 0//// 2////
AAXX 13064 78016 11564 80912 10215 20187 30164 40168 57002 69901 70282 888// 333 10232 20203 70018 90940
BBXX 44007 13061 99435 70701 46/// /2606 10050 21031 40272 58008 90550 22200 00083 10502 20502 70009 333 91207 555 11062 22064 30514 42407 60549 255060 249060 244061 240062 240060 242058
BBXX 45008 13061 99443 70824 46/// /2407 10054 30071 40291 53003 90550 22200 00063 10402 20402 70008 333 91209 555 11075 22079 60549 244071 245075 247074 249076 248077 246078
BBXX 46026 13061 99378 71228 46/// /3603 10105 40110 51015 90550 22200 00113 11204 20301 331// 41204 70022 333 91204 555 11029 22030 30515 42705 60549 344027 288031 292032 290035 290030 290031
BBXX 46041 13061 99474 71247 46/// /1104 10051 40187 56011 90550 22200 00076 11003 3//// 41003 70013 333 91206 555 11045 22046 30540 41006 60549 109043 098033 094034 082030 081027 071028
BBXX 46072 13061 99517 71722 46/// /1614 10051 20032 49624 58021 90550 22200 00052 11418 20810 3//// 41415 70091 333 91218 555 11149 22159 30508 41621 60549 164139 162138 160143 161147 160148 157152 81617 90513
BBXX 51004 13061 99175 71524 46/// /0807 10245 20224 90550 555 11069 22074
BBXX 51002 13061 99171 71578 46/// /0805 10250 40148 52013 90550 22200 00252 333 91206 555 11050 22052 30500 41007 60549 084047 083046 084051 084050 088051 087050
BBXX 51100 13061 99236 71539 46/// /0507 10224 40194 53009 90550 22200 00234 11006 20502 310// 41005 70028 333 91208 555 11069 22072 30513 40509 60549 052065 044068 042062 054068 060069 078067
AAXX 13064 78016 11564 80912 10215 20187 30164 40168 57002 69901 70282 888// 333 10232 20203 70018 90940
AAXX 13061 76225 32920 42002 10162 20050 38610 40078 50002 84030 90535 333 10236 20050 30/// 55043 56050 58/// 84359
AAXX 13061 76323 32950 71604 10114 21018 38281 40155 52018 80006 90540 333 10272 20050 30/// 55052 56005 59008 87268
AAXX 13061 76342 01220 80501 10100 20096 39533 40258 52007 69901 75052 887// 90550 333 10125 20060 32/// 55000 20397 561// 59009 69907 88710
AAXX 13061 76382 32960 21601 10172 20131 38900 40109 52010 80008 90550 333 10296 20090 30/// 55028 2//// 56003 59003 82270
AAXX 13061 76390 31950 11907 10163 20057 38246 40119 52002 70544 80006 90530 333 10254 20116 30/// 55093 21265 56002 58012 81070
AAXX 13061 76393 31110 80601 10116 20109 39623 40211 54000 70544 887// 90550 333 10136 20090 31/// 55000 56999 59007 88703
AAXX 13061 76402 32550 70000 10176 20138 30105 40161 52008 87500 90545 333 10225 20150 30/// 55001 2//// 56400 58014 87628
AAXX 13061 76458 32960 01202 10194 20143 30157 40161 50001 90538 333 10274 20135 30/// 55089 58015
AAXX 13061 76491 32956 00000 10128 20126 39834 40228 54/// 90545 333 10235 20120 31/// 55064 59010
AAXX 13061 76525 32960 11703 10128 20048 37495 40121 52005 80001 90540 333 10178 20101 30/// 55091 22351 56//5 58015 81080
AAXX 13061 76539 32958 03601 10102 20077 38205 40202 52026 90550 333 10235 20048 30/// 55047 58///
AAXX 13061 76548 32860 50702 10202 20178 30218 40228 50004 85030 90545 333 10270 20164 30/// 55081 56050 59001 85357
AAXX 13061 76556 32960 00701 10168 20141 39133 40137 52005 90535 333 10274 20122 30/// 55088 58010
AAXX 13061 76571 32910 00000 10122 20057 38189 40149 54010 90540 333 10240 20060 30/// 55086 58015
AAXX 13061 76577 32960 00000 10141 20122 38062 40129 52005 90540 333 10245 20081 30/// 55067 58007
AAXX 13061 76581 32960 61802 10159 20129 39115 40214 52013 86020 90550 333 10250 20117 30/// 55065 56020 59021 86460
AAXX 13061 76634 31910 01501 10068 20065 37885 40184 52006 74640 90550 333 10233 20048 30/// 55096 21764 58///
AAXX 13061 76644 32350 50902 10220 20205 30196 40208 52008 81270 90550 333 10312 20205 30/// 55077 20959 5611/ 59/// 81810 84320
AAXX 13061 76654 31956 00000 10221 20189 30164 40168 52005 70544 90550 333 10286 20213 30/// 55078 21044 58018
AAXX 13061 76658 31956 00501 10195 20167 39658 40167 52008 70544 90543 333 10300 20176 30/// 55083 58/// 98904
AAXX 13061 76662 32960 01901 10150 20118 38486 40139 52010 90540 333 10273 20080 30/// 55069 21169 58012
AAXX 13061 76680 31956 00000 10128 20047 37778 40134 52007 70400 90550 333 10227 20080 30/// 55008 20644 58013
AAXX 13061 76683 32965 03401 10064 20026 37860 40222 51009 90540 333 10276 20035 30/// 50321 55098 21961 58012
AAXX 13061 76685 32950 00000 10110 20008 37904 40144 52019 90555 333 10228 20048 30/// 55106 58019
AAXX 13061 76687 31201 22301 10126 20115 38732 48732 52006 74240 82600 90545 333 10217 20088 30/// 55059 565// 58014 82704 81610
AAXX 13061 76692 31520 53001 10222 20203 30189 40208 52001 71044 83430 90545 333 10263 20200 30/// 55089 5633/ 59003 83630
AAXX 13061 76695 01956 80801 10226 20209 30181 40187 50003 69961 72052 8802/ 90545 333 10270 20194 31/// 55018 56/0/ 58/// 69947 88460
AAXX 13061 76737 31480 10000 10132 20119 38830 40214 51008 70110 81600 90532 333 10224 20092 30/// 55084 56200 58013 81713
AAXX 13061 76750 32558 13302 10220 20208 30176 40186 57002 81100 90550 333 10310 20190 30/// 55052 56800 58010 81820
AAXX 13061 76762 32902 00000 10146 20125 38779 40131 52008 90556 333 10302 20120 30/// 55093 58017
AAXX 13061 76840 32901 00206 10254 20173 30093 40148 57002 90540 333 10310 20180 30/// 55091 2//// 58/// 91219 91502 90404
AAXX 13061 76843 32965 00202 10195 20163 39530 40172 52003 90530 333 10265 20162 30/// 55101 58001
AAXX 13061 76845 32330 30301 10118 20104 37973 40181 56002 83700 90545 333 10196 20038 30/// 55098 56200 58001 83707
AAXX 13061 76848 32350 60502 10140 20121 38408 40118 58003 86600 90550 333 10234 20083 30/// 55101 56100 58000 86708
AAXX 13061 76903 31960 00401 10245 20215 39999 40130 58001 905540 333 10347 20222 30/// 55085 58000
AAXX 13061 76243 11365 80902 10106 20099 39942 40243 52012 69901 70255 887// 90530 333 10115 20070 31/// 55000 563// 59002 88707
AAXX 13061 76311 32620 60000 10172 20150 39879 40154 51009 86400 90555 333 10253 20108 30/// 55009 58013 86625
AAXX 13061 76405 32840 71803 10218 20170 30130 40152 50002 8702/ 90550 333 10257 20196 30/// 55042 2//// 5605/ 58004 87457
AAXX 13061 76640 31010 50000 10200 20197 30227 40239 52008 70311 852// 90540 333 10260 20164 30/// 55047 563// 58002 85801
AAXX 13061 76741 31340 83605 10224 20207 30168 40186 51005 70544 8522/ 90535 333 10255 20150 30/// 55029 5689/ 59001 85810 83460
AAXX 13061 76855 32980 03403 10232 20200 30088 40137 52013 90545 333 10325 20210 30/// 55103 58/// 92000
AAXX 13061 14528 11510 80000 10060 20049 39887 40187 52025 60123 76166 8802/ 333 10133 20060 33005 55005 70135 88520
AAXX 13061 14537 11560 80000 10068 20060 39980 40169 52029 60083 76366 8802/ 333 10101 20068 32006 55001 70084 88520
AAXX 13061 14544 11660 83403 10066 20056 39494 40162 51004 60083 76362 885// 333 10126 20065 32005 55008 70084 88643
AAXX 13061 14557 11660 82801 10084 20078 39796 40162 52020 60032 7616/ 8652/ 333 10153 20076 32007 55007 70025 86633 88550
AAXX 13061 14640 11340 82502 10058 20052 39310 48470 53005 60373 76366 8802/ 333 10113 20056 32005 55006 70486 88506
AAXX 13064 07005 01462 82020 10122 20096 39829 49916 56029 60072 72162 888// 333 10122 20068 31006 55038 60027 70086 82810 88623 91031 90710 91131 93100 555 69905
AAXX 13064 07015 01462 82027 10096 20085 39865 49921 56026 60082 760/6 885// 333 10098 20062 32006 55047 60027 70077 88610 91038 90710 91138 93100 555 69925
AAXX 13064 07020 01666 7//// 1//// 2//// 39898 4//// 53011 6///2 72162 875// 333 1//// 2//// 55/// 6///7 7//// 87633 555 6///5
AAXX 13064 07027 01580 82021 10123 20104 39845 49924 58021 60052 76162 875// 333 10125 20076 32007 55052 60027 70060 86623 87633 91032 90710 91136 93100 555 69945
AAXX 13064 07037 01458 82120 10109 20100 39764 49943 56028 60082 76166 888// 333 10110 20063 32005 55044 60067 70087 83713 87640 90710 91142 93100 555 60045
AAXX 13064 07070 04569 82019 10091 20065 39893 40002 57033 60022 751// 333 10091 20054 31005 55050 69927 70028 91031 90710 91131 555 69925
AAXX 13064 07110 01570 52813 10085 20061 39855 49969 53026 60212 70162 84830 333 10127 20085 32007 55017 69927 70240 82826 83649 90710 91135 93100 555 69925
AAXX 13064 07117 01356 82617 10108 20067 39879 49948 53020 60092 76362 84720 333 10129 20094 60027 91034 90710 91141 92456 555 69905
AAXX 13064 07130 04559 82319 10127 20111 39918 49969 55017 60122 761// 333 10132 20092 32008 55060 60077 70115 91039 90710 91142 555 60015
AAXX 13064 07139 01440 82121 10115 20097 39798 49968 58028 60092 76366 885// 333 10117 20068 32006 55070 60067 70089 88615 91034 90710 91138 93100 555 60035
AAXX 13064 07149 01225 72122 10099 20093 39890 49997 57027 60022 76162 877// 333 10099 20060 32004 55058 60017 70016 83706 87708 91037 90710 91137 93100 555 69965
AAXX 13064 07168 01675 71925 10081 20037 39905 40047 56028 69922 76186 875// 333 10082 20031 31001 55060 69907 70002 82646 87656 91035 90710 91139 93100 555 69905
AAXX 13064 07181 04684 82022 10048 20009 39658 40071 56036 69942 700// 333 10051 20028 3/002 55/// 69947 70036 91032 90710 91138 555 69945
AAXX 13064 07190 04886 82015 10051 21009 39912 40097 56036 60002 700// 333 10055 20029 31002 55004 60007 70008 90710 91127 555 60005
AAXX 13064 07207 01430 82634 10123 20098 60092 76566 88700 222// 327// 333 10141 20119 60067 91048 90710 91149 92455 555 60025
AAXX 13064 07222 01350 82317 10123 20117 39982 40013 56027 60082 761/6 878// 333 10128 20087 32008 55055 60057 70086 85807 87613 91029 90710 91139 555 60035
AAXX 13064 07240 01457 82021 10097 20083 39902 40036 58017 60032 761// 877// 333 10105 20077 31007 55075 60027 70030 87711 91034 90710 91136 93100 555 69985
AAXX 13064 07255 01680 82220 10104 20050 39876 40074 56022 69902 70362 875// 333 10104 20041 31003 55060 69907 79999 87633 91030 90710 91132 93100 555 60005
AAXX 13064 07280 04686 81915 10044 20004 39840 40117 56026 60002 700// 333 10044 20014 3/102 55037 60007 70010 90710 91123 555 60005
AAXX 13064 07299 02970 81805 10020 20004 39794 40130 57023 60002 8705/ 333 10051 21019 30104 55012 60007 70030 87358 90710 91108 93100 555 60005
AAXX 13064 07314 06/// /2634 10149 20101 30038 40065 56031 69962 333 10150 20129 55/// 69907 70006 91047 90710 91147 555 69905
AAXX 13064 07335 02580 82023 10105 20074 39926 40070 57023 60022 888// 333 10106 20068 32006 55073 69927 70022 83826 88630 90710 91135 93100 555 60005
AAXX 13064 07434 02584 71809 10067 20044 39645 40127 56006 69902 875// 333 10067 20052 30003 55058 60007 79999 82622 87649 90710 91120 93100 555 60005
AAXX 13064 07460 01880 81821 10078 20023 39725 40115 56023 60002 703// 85532 333 10078 20012 30100 55062 60007 70010 85657 88071 91032 90710 91133 93100 555 60005
AAXX 13064 07471 02870 72303 10004 21012 39179 48771 56012 60002 83031 333 10018 21020 34105 55049 60007 70008 83358 87073 90710 91105 93100 555 60005
AAXX 13064 07481 02880 71511 10051 21020 39864 40157 56020 60002 85032 333 10056 20015 31000 55/// 60007 70054 85358 87073 90710 91119 93100 555 60005
AAXX 13064 07510 02882 71908 10087 20054 30061 40127 58008 60002 82032 333 10099 20081 31008 55042 60007 70006 82358 87072 90710 91114 93100 555 60005
AAXX 13064 07535 02975 71610 10067 20038 39831 40147 56015 60002 80001 333 10072 20061 31005 55038 60007 70016 87075 90710 91118 93100 555 60005
AAXX 13064 07558 02980 60306 10011 20007 39329 40189 55007 60002 80002 333 10034 20000 34101 55032 60007 70010 86075 90710 91108 93100 555 60005
AAXX 13064 07577 02965 70000 10002 21005 30101 40194 55006 60002 80002 333 10081 20000 31102 55052 60007 70002 87073 90710 91102 93100 555 60005
AAXX 13064 07591 04/// /0114 11011 21079 39166 4//// 58006 60002 700// 333 10009 21017 3/104 55010 60007 70067 90710 91124 555 60005
AAXX 13064 07607 04981 /1003 10040 20031 30076 40149 55001 60002 700// 333 10098 20037 3/001 55037 60007 70004 90710 91105 555 60005
AAXX 13064 07621 01983 41604 10044 20014 39708 40149 56013 60002 701// 80002 333 10058 20024 31000 55038 60007 70036 84074 90710 91110 93100 555 60005
AAXX 13064 07627 02970 71410 10052 20002 39660 40156 56019 60002 80006 333 10062 20028 30000 55014 60007 70004 87273 90710 91117 93100 555 60005
AAXX 13064 07630 02970 71303 10032 20023 39972 40158 56018 60002 80001 333 10090 20021 31101 55042 60007 70002 87076 90710 91104 93100 555 60005
AAXX 13064 07643 02982 70403 10031 20010 30176 40186 55007 60002 80002 333 10093 20023 30002 55073 60007 70000 87075 90710 91106 555 60005
AAXX 13064 07650 02980 71004 10044 21008 30147 40187 55012 60002 80002 333 10103 20011 30101 55071 60007 70002 87075 90710 91110 555 60005
AAXX 13064 07661 02975 72712 10096 21024 30013 40176 55003 60002 87030 333 10112 20089 55/// 60007 70006 87358 90710 91123 555 60005
AAXX 13064 07690 02982 73313 10079 21052 30128 40162 53003 60002 80002 333 10132 20074 30006 55058 60007 70002 87071 90710 91117 93100 555 60005
AAXX 13064 07747 02975 20602 10040 20023 30121 40176 55013 60002 80001 333 10113 20040 30002 55063 60007 70000 82076 90710 91105 555 60005
AAXX 13064 07761 02775 20408 10065 20029 30189 40200 53007 60002 82501 333 10144 20056 30005 55022 60007 70255 82650 90710 91111 93100 555 60005
AAXX 13064 07790 02580 22404 10066 21011 30156 40171 53010 60002 81101 333 10144 20049 30100 55/// 60007 70002 81830 90710 91109 93100 555 60005
AAXX 13064 78016 11564 80912 10215 20187 30164 40168 57002 69901 70282 888// 333 10232 20203 70018 90940
AAXX 13064 48601 11560 62107 10301 20248 30091 40095 6///1 70522 82231 333 82820 86078
AAXX 13064 48615 11462 73605 10276 20236 30105 40111 60001 70522 83242 333 83818 84364 87074
AAXX 13064 48620 11465 72908 10304 20241 30084 40093 60001 70522 82942 333 81917 87078
AAXX 13064 48647 11463 72706 10313 20256 30067 40091 60001 71722 85942 333 81917 84818 87078
AAXX 13064 48657 11464 70406 10298 20246 30081 40098 6///1 72582 84241 333 83818 84366 87078
AAXX 13064 48665 11468 70608 10304 20241 30091 40101 60001 70522 83352 333 81917 86364
AAXX 13064 96413 11458 70602 10245 20240 30074 40101 60251 79598 8497/ 333 81915 84620 87365
AAXX 13064 96421 11457 72507 10244 20231 30058 40094 60021 78082 8417/ 333 84818 87365
AAXX 13064 96441 11468 73503 10301 20251 30055 40082 6///1 71522 83241 333 83816 86080
AAXX 13064 96449 11480 71308 10283 20241 30064 40083 69921 70266 8314/ 333 83814 87365
AAXX 13064 96465 11475 71808 10271 20246 30048 40081 60281 72166 83848 333 82812 84364 87279
AAXX 13064 96471 11478 72209 10299 20242 30078 40081 69941 70162 82848 333 81815 84364 87277
AAXX 13064 96481 11462 72005 10275 20251 30064 40083 60001 70362 8387/ 333 82817 86364
AAXX 13064 96491 11363 70406 10299 20247 30073 40085 69901 71796 83948 333 82709 83814 81916 87277
AAXX 13061 45032 36/// /3501 10220 20042 30170 40187 57002
AAXX 13061 45035 36/// /2903 10189 20071 30145 40187 57002
AAXX 13061 45039 36/// /3503 10204 20074 30168 40182 57003
AAXX 13061 45044 36/// /1102 10215 20073 30092 40185 57002
AAXX 13061 45032 36/// /3501 10220 20042 30170 40187 57002
AAXX 13061 45035 36/// /2903 10189 20071 30145 40187 57002
AAXX 13061 45039 36/// /3503 10204 20074 30168 40182 57003
AAXX 13061 45044 36/// /1102 10215 20073 30092 40185 57002
AAXX 13061 76225 32920 42002 10162 20050 38610 40078 50002 84030 90535333 10236 20050 30/// 55043 56050 58/// 84359
AAXX 13061 76323 32950 71604 10114 21018 38281 40155 52018 80006 90540333 10272 20050 30/// 55052 56005 59008 87268
AAXX 13061 76342 01220 80501 10100 20096 39533 40258 52007 69901 75052887// 90550 333 10125 20060 32/// 55000 20397 561// 5900969907 88710
AAXX 13061 76382 32960 21601 10172 20131 38900 40109 52010 80008 90550333 10296 20090 30/// 55028 2//// 56003 59003 82270
AAXX 13061 76390 31950 11907 10163 20057 38246 40119 52002 70544 8000690530 333 10254 20116 30/// 55093 21265 56002 58012 81070
AAXX 13061 76393 31110 80601 10116 20109 39623 40211 54000 70544 887//90550 333 10136 20090 31/// 55000 56999 59007 88703
AAXX 13061 76402 32550 70000 10176 20138 30105 40161 52008 87500 90545333 10225 20150 30/// 55001 2//// 56400 58014 87628
AAXX 13061 76458 32960 01202 10194 20143 30157 40161 50001 90538 33310274 20135 30/// 55089 58015
AAXX 13061 76491 32956 00000 10128 20126 39834 40228 54/// 90545 33310235 20120 31/// 55064 59010
AAXX 13061 76525 32960 11703 10128 20048 37495 40121 52005 80001 90540333 10178 20101 30/// 55091 22351 56//5 58015 81080
AAXX 13061 76539 32958 03601 10102 20077 38205 40202 52026 90550 33310235 20048 30/// 55047 58///
AAXX 13061 76548 32860 50702 10202 20178 30218 40228 50004 85030 90545333 10270 20164 30/// 55081 56050 59001 85357
AAXX 13061 76556 32960 00701 10168 20141 39133 40137 52005 90535 33310274 20122 30/// 55088 58010
AAXX 13061 76571 32910 00000 10122 20057 38189 40149 54010 90540 33310240 20060 30/// 55086 58015
AAXX 13061 76577 32960 00000 10141 20122 38062 40129 52005 90540 33310245 20081 30/// 55067 58007
AAXX 13061 76581 32960 61802 10159 20129 39115 40214 52013 86020 90550333 10250 20117 30/// 55065 56020 59021 86460
AAXX 13061 76634 31910 01501 10068 20065 37885 40184 52006 74640 90550333 10233 20048 30/// 55096 21764 58///
AAXX 13061 76644 32350 50902 10220 20205 30196 40208 52008 81270 90550333 10312 20205 30/// 55077 20959 5611/ 59/// 81810 84320
AAXX 13061 76654 31956 00000 10221 20189 30164 40168 52005 70544 90550333 10286 20213 30/// 55078 21044 58018
AAXX 13061 76658 31956 00501 10195 20167 39658 40167 52008 70544 90543333 10300 20176 30/// 55083 58/// 98904
AAXX 13061 76662 32960 01901 10150 20118 38486 40139 52010 90540 33310273 20080 30/// 55069 21169 58012
AAXX 13061 76680 31956 00000 10128 20047 37778 40134 52007 70400 90550333 10227 20080 30/// 55008 20644 58013
AAXX 13061 76683 32965 03401 10064 20026 37860 40222 51009 90540 33310276 20035 30/// 50321 55098 21961 58012
AAXX 13061 76685 32950 00000 10110 20008 37904 40144 52019 90555 33310228 20048 30/// 55106 58019
AAXX 13061 76687 31201 22301 10126 20115 38732 48732 52006 74240 8260090545 333 10217 20088 30/// 55059 565// 58014 82704 81610
AAXX 13061 76692 31520 53001 10222 20203 30189 40208 52001 71044 8343090545 333 10263 20200 30/// 55089 5633/ 59003 83630
AAXX 13061 76695 01956 80801 10226 20209 30181 40187 50003 69961 720528802/ 90545 333 10270 20194 31/// 55018 56/0/ 58/// 6994788460
AAXX 13061 76737 31480 10000 10132 20119 38830 40214 51008 70110 8160090532 333 10224 20092 30/// 55084 56200 58013 81713
AAXX 13061 76750 32558 13302 10220 20208 30176 40186 57002 81100 90550333 10310 20190 30/// 55052 56800 58010 81820
AAXX 13061 76762 32902 00000 10146 20125 38779 40131 52008 90556 33310302 20120 30/// 55093 58017
AAXX 13061 76840 32901 00206 10254 20173 30093 40148 57002 90540 33310310 20180 30/// 55091 2//// 58/// 91219 91502 90404
AAXX 13061 76843 32965 00202 10195 20163 39530 40172 52003 90530 33310265 20162 30/// 55101 58001
AAXX 13061 76845 32330 30301 10118 20104 37973 40181 56002 83700 90545333 10196 20038 30/// 55098 56200 58001 83707
AAXX 13061 76848 32350 60502 10140 20121 38408 40118 58003 86600 90550333 10234 20083 30/// 55101 56100 58000 86708
AAXX 13061 76903 31960 00401 10245 20215 39999 40130 58001 905540 333 10347 20222 30/// 55085 58000
AAXX 13061 76243 11365 80902 10106 20099 39942 40243 52012 69901 70255887// 90530 333 10115 20070 31/// 55000 563// 59002 88707
AAXX 13061 76311 32620 60000 10172 20150 39879 40154 51009 86400 90555333 10253 20108 30/// 55009 58013 86625
AAXX 13061 76405 32840 71803 10218 20170 30130 40152 50002 8702/ 90550333 10257 20196 30/// 55042 2//// 5605/ 58004 87457
AAXX 13061 76640 31010 50000 10200 20197 30227 40239 52008 70311 852//90540 333 10260 20164 30/// 55047 563// 58002 85801
AAXX 13061 76741 31340 83605 10224 20207 30168 40186 51005 70544 8522/90535 333 10255 20150 30/// 55029 5689/ 59001 85810 83460
AAXX 13061 76855 32980 03403 10232 20200 30088 40137 52013 90545 33310325 20210 30/// 55103 58/// 92000
BBXX VCSZ 13064 99455 70735 46/// /1602 10006 20001 40280 58005 7//// 8//// 22200 0//// 2////
BBXX VCRG 13064 99474 70619 46/// /2403 10027 21003 40293 58006 7//// 8//// 22200 0//// 2////
BBXX CGDR 13064 99505 71276 46/// /0105 10023 20022 40179 58017 7//// 8//// 22200 0//// 2////
BBXX CZ9742 13064 99506 70969 46/// /2204 11153 21167 40317 57008 7//// 8//// 22200 0//// 2////
BBXX VOKJ 13064 99476 70594 46/// /1909 10026 21010 40286 58002 7//// 8//// 22264 0//// 2////
BBXX CG2965 13064 99487 71235 46/// /3105 10017 21014 40206 56007 7//// 8//// 22200 0//// 2////
BBXX VAAP 13064 99461 70602 46/// /1503 11010 21012 40287 58011 7//// 8//// 22200 0//// 2////
BBXX CG2350 13064 99433 70798 46/// /2408 10014 21021 40305 53001 7//// 8//// 22200 0//// 2////
BBXX VCBW 13064 99507 70592 46/// /2907 11076 21129 40290 53006 7//// 8//// 22200 0//// 2////
BBXX VCLM 13064 99621 70747 46/// /2210 11134 21170 40153 53003 7//// 8//// 22200 0//// 2////
BBXX 3FZK3 13064 99529 11767 46/// /3037 10007 21053 49775 58019 7//// 8//// 22223 0//// 2////
BBXX CG2960 13064 99453 70800 46/// /2105 10040 20031 40286 58002 7//// 8//// 22200 0//// 2////
BBXX CGBY 13064 99487 71235 46/// /3103 10009 21021 40204 56007 7//// 8//// 22200 0//// 2////
BBXX VOPP 13064 99456 70735 46/// /2004 10007 21026 4//// 5//// 7//// 8//// 22200 0//// 2////
BBXX CGTF 13064 99476 70527 46/// /1903 10004 21038 40295 51018 7//// 8//// 22200 0//// 2////
BBXX VAAZ 13064 99535 70522 46/// /2732 11061 21091 40167 52008 7//// 8//// 22271 0//// 2////
BBXX CGBR 13064 99541 71304 46/// /1118 10027 20027 40139 58009 7//// 8//// 22251 00069 2////
BBXX CGDT 13064 99490 70669 46/// /0707 11021 21033 40282 52002 7//// 8//// 22200 0//// 2////
AAXX 13064 81401 06/// /1501 10232 20225 30081 40087 69961 333 55/// 69967 59006 7//// 555 60005
AAXX 13064 81408 06/// /0000 10232 2//// 30078 40086 60001 333 55/// 60007 59005 7//// 555 60005
BBXX CG2350 13064 99433 70798 46/// /2408 10014 21021 40305 53001 7//// 8//// 22200 0//// 2////
BBXX CG2965 13064 99487 71235 46/// /3105 10017 21014 40206 56007 7//// 8//// 22200 0//// 2////
BBXX VCBW 13064 99507 70592 46/// /2907 11076 21129 40290 53006 7//// 8//// 22200 0//// 2////
BBXX CZ9742 13064 99506 70969 46/// /2204 11153 21167 40317 57008 7//// 8//// 22200 0//// 2////
BBXX VAAP 13064 99461 70602 46/// /1503 11010 21012 40287 58011 7//// 8//// 22200 0//// 2////
BBXX VCRG 13064 99474 70619 46/// /2403 10027 21003 40293 58006 7//// 8//// 22200 0//// 2////
BBXX VCLM 13064 99621 70747 46/// /2210 11134 21170 40153 53003 7//// 8//// 22200 0//// 2////
BBXX CGDR 13064 99505 71276 46/// /0105 10023 20022 40179 58017 7//// 8//// 22200 0//// 2////
BBXX VCSZ 13064 99455 70735 46/// /1602 10006 20001 40280 58005 7//// 8//// 22200 0//// 2////
BBXX CGBY 13064 99487 71235 46/// /3103 10009 21021 40204 56007 7//// 8//// 22200 0//// 2////
BBXX VOKJ 13064 99476 70594 46/// /1909 10026 21010 40286 58002 7//// 8//// 22264 0//// 2////
AAXX 13061 11423 01165 72405 11007 21009 39247 42745 57017 69922 703// 81606 333 21009 3/103 42004 60005 70010 81703 87267 91113
AAXX 13061 11487 01975 41702 11010 21023 39522 40161 57014 69902 703// 81041 333 21011 34106 60005 70001 81365 84073
AAXX 13061 11518 02970 31702 11009 21022 39697 40149 57017 60002 81045 333 21010 34103 60005 79999 81365 83076
AAXX 13061 11603 01465 21505 10008 21011 39652 40144 57012 69932 701// 82500 333 20003 31101 60005 70005 82616
AAXX 13061 11659 01957 29901 11007 21009 39515 40171 57005 69942 710// 80001 333 21013 34107 60005 70004 82075
AAXX 13061 11723 01/02 92802 11011 21021 39870 40178 55001 60022 74941 333 21012 34102 60005 70016 89/01 93501
AAXX 13061 11782 01656 62203 10023 20016 39849 40160 58002 69932 71062 86500 333 20021 31001 60005 70003 86648
BBXX VAAZ 13064 99535 70522 46/// /2732 11061 21091 40167 52008 7//// 8//// 22271 0//// 2////
BBXX CGTF 13064 99476 70527 46/// /1903 10004 21038 40295 51018 7//// 8//// 22200 0//// 2////
AAXX 13064 81401 06/// /1501 10232 20225 30081 40087 69961 333 55/// 69967 59006 7//// 555 60005
AAXX 13064 81408 06/// /0000 10232 2//// 30078 40086 60001 333 55/// 60007 59005 7//// 555 60005
BBXX CGBR 13064 99541 71304 46/// /1118 10027 20027 40139 58009 7//// 8//// 22251 00069 2////
BBXX 3FZK3 13064 99529 11767 46/// /3037 10007 21053 49775 58019 7//// 8//// 22223 0//// 2////
BBXX VOPP 13064 99456 70735 46/// /2004 10007 21026 4//// 5//// 7//// 8//// 22200 0//// 2////
BBXX CG2960 13064 99453 70800 46/// /2105 10040 20031 40286 58002 7//// 8//// 22200 0//// 2////
BBXX CGDT 13064 99490 70669 46/// /0707 11021 21033 40282 52002 7//// 8//// 22200 0//// 2////
AAXX 13061 01152 11589 70808 11007 21051 39819 49834 57005 60002 70222 8657/ 333 21007 70000 91119
AAXX 13061 01427 11435 81619 10069 20051 39774 49790 56069 60032 76186 8672/ 333 20064 70062 91125
BBXX CGJV 13064 99456 70612 46/// /0102 10019 20013 40298 56011 7//// 8//// 22200 0//// 2////
BBXX VRYO3 13064 99484 70221 46/// /2619 10071 20079 40015 58016 7//// 8//// 22224 00126 2////
BBXX VCWL 13064 99468 70712 46/// /0000 11003 21033 40285 57008 7//// 8//// 22200 0//// 2////
BBXX CGJK 13064 99484 71234 46/// /0106 10005 21017 40200 56010 7//// 8//// 22200 0//// 2////
BBXX CGDG 13064 99447 70636 46/// /2102 10031 20045 40302 58010 7//// 8//// 22200 0//// 2////
BBXX CGSB 13064 99468 70712 46/// /3402 11004 21032 40286 58007 7//// 8//// 22200 0//// 2////
BBXX VXKF 13064 99467 70598 46/// /2909 10031 21014 40284 58016 7//// 8//// 22212 0//// 2////
BBXX CG2958 13064 99491 71233 46/// /1004 10036 20008 40213 56005 7//// 8//// 22200 0//// 2////
BBXX CGDX 13064 99468 70712 46/// /3301 11002 21031 40285 57008 7//// 8//// 22200 0//// 2////
BBXX C6SI6 13064 99356 11410 46/// /0609 10111 20028 40254 53002 7//// 8//// 22253 0//// 2////
BBXX CGBN 13064 99447 70636 46/// /1902 10045 20031 40288 58010 7//// 8//// 22200 0//// 2////
BBXX 44011 13061 99411 70666 46/// /1405 10099 20039 40300 56022 90550 22200 00099 11002 20301 3//// 41002 70009 333 91206 555 11053 22057 30506 43107 60549 141050 138051 136054 135056 135056 131051
BBXX 41046 13061 99238 70683 46/// /0505 10247 20212 40143 57009 90550 22200 00261 11205 20401 300// 41204 70023 333 91206 555 11050 22052 30549 40506 60549 052048 054047 054042 048034 ////// ////// 80505 90550
AAXX 13064 68396 32460 70000 10206 20202 39436 48500 51003 875// 333 20202 555 10345 91014
BBXX CGSB 13064 99468 70712 46/// /3402 11004 21032 40286 58007 7//// 8//// 22200 0//// 2////
BBXX CGJV 13064 99456 70612 46/// /0102 10019 20013 40298 56011 7//// 8//// 22200 0//// 2////
BBXX CGDG 13064 99447 70636 46/// /2102 10031 20045 40302 58010 7//// 8//// 22200 0//// 2////
BBXX VCWL 13064 99468 70712 46/// /0000 11003 21033 40285 57008 7//// 8//// 22200 0//// 2////
BBXX CGJK 13064 99484 71234 46/// /0106 10005 21017 40200 56010 7//// 8//// 22200 0//// 2////
BBXX VRYO3 13064 99484 70221 46/// /2619 10071 20079 40015 58016 7//// 8//// 22224 00126 2////
BBXX CG2958 13064 99491 71233 46/// /1004 10036 20008 40213 56005 7//// 8//// 22200 0//// 2////
AAXX 13061 14648 11665 83201 10109 20097 30026 40145 53003 60122 76062 8357/ 333 20107 32010 55000 70128 83646 88457
AAXX 13061 14652 11/00 91810 11006 21008 37893 48454 53030 60002 74544 333 21006 3//// 44010 55000 70007 89///
AAXX 13061 14542 11562 82001 10072 20060 39985 40176 52019 60162 76166 8672/ 333 20071 32006 55000 70190 86720 88556 95900
AAXX 13061 37682 32997 00000 11063 21078 38183 48581 58003 333 21133 7000/
AAXX 13061 37717 32599 20000 11034 21048 38146 48579 52006 82500 333 21050 7000/
AAXX 13061 37788 41495 60403 11032 21053 39327 40383 52010 71022 866// 333 21034 86713
BBXX CGBN 13064 99447 70636 46/// /1902 10045 20031 40288 58010 7//// 8//// 22200 0//// 2////
BBXX CGDX 13064 99468 70712 46/// /3301 11002 21031 40285 57008 7//// 8//// 22200 0//// 2////
BBXX C6SI6 13064 99356 11410 46/// /0609 10111 20028 40254 53002 7//// 8//// 22253 0//// 2////
BBXX VXKF 13064 99467 70598 46/// /2909 10031 21014 40284 58016 7//// 8//// 22212 0//// 2////
BBXX 46089 13061 99459 71258 46/// /0607 10066 20024 40182 56010 90550 22200 00096 11104 20502 331// 41103 70018 333 91208 555 11071 22075 30450 40609 60549 054068 051069 060072 058075 063075 064077
AAXX 13064 91367 32474 31112 10289 20243 83100 333 562// 83815 70060 555 91306 91369 32474 60920 10289 20254 30071 40074 84339 333 56229 84815 83360 88480 70000 555 91306
AAXX 13064 64500 31358 51004 10250 20235 3093 40106 79299 84902 333 02400 20240 50111 55050 58003 84608 81920 85073 94948 95838
BBXX DBLK 13061 99589 30000 41195 82914 11002 21002 49929 57014 72454 886// 22242 05018 ICE 35692
AAXX 13064 60127 32960 00000 10065 20042 39672 40287 5/007 333 20061 31004
AAXX 13064 60141 32960 01806 10034 20021 39598 40292 58002 333 20034
AAXX 13064 60265 32970 02802 10034 21034 38981 48585 53002 333 20032
AAXX 13064 60060 NIL
AAXX 13064 60105 NIL
AAXX 13064 60106 NIL
AAXX 13064 60107 NIL
AAXX 13064 60185 NIL
AAXX 13064 60190 NIL
AAXX 13064 60191 NIL
AAXX 13064 60195 NIL
AAXX 13064 60210 NIL
AAXX 13064 60220 NIL
AAXX 13064 60318 NIL
AAXX 13064 64510 32360 8//// 10220 20214 3//// 4//// 885// 333 0//00 20220 5///4 55/// 5//// 88607
AAXX 13064 64550 32358 8//// 10236 20220 30/// 40/// 885// 333 0//00 20230 50114 55/// 5//// 84606 88623
AAXX 13064 64551 32258 60000 10236 20233 30084 40113 83530 333 0//00 20209 50044 55/// 58001 82703 83611 86362
AAXX 13061 11812 36/// /3205 10012 20012 39464 42769 52007 333 20005 3////
AAXX 13061 11813 11560 69902 10030 20023 39823 40178 52003 60022 70262 85540 333 20022 31002 70016 82622 85635
AAXX 13061 11816 11470 53205 10050 20015 30008 40174 53004 69902 70262 85500 333 20040 31004 70000 81713 85628
AAXX 13061 11819 16/// /9901 10022 20012 39951 40172 52003 60022 333 20021 3/101
AAXX 13061 11826 11450 79901 10033 20021 39962 40165 51002 60022 71022 875// 333 20033 31000 70020 87617
AAXX 13061 11841 11221 89901 10030 20024 39781 40162 50001 60022 71064 885// 333 20026 31002 70018 84705 88625
AAXX 13061 11855 11457 22904 10026 20019 39997 40166 51002 60062 71061 82500 333 20021 32001 70063 81711
AAXX 13061 11856 16/// /3203 10030 20025 39838 40161 52004 60042 333 20030 3/002
AAXX 13061 11858 11535 79901 10024 20020 30013 40168 53003 60082 71066 875// 333 20024 31101 70075 87630
AAXX 13061 11867 11112 49901 10035 20023 39841 40162 52005 60032 72864 84600 333 20034 31002 70032 84702
AAXX 13061 11880 11220 29901 10022 20020 39983 40158 51003 60102 71066 81601 333 20019 31101 70100 81703
AAXX 13061 11900 16/// /0000 10017 20013 39821 40162 52003 60052 333 20017 3//// 70051
AAXX 13061 11903 11110 80101 10017 20016 39773 40160 52006 60052 71064 886// 333 20015 32001 70075 88702
AAXX 13061 11916 11/01 99901 11038 21048 37914 48425 50003 60022 77044 333 21040 3//// 44025 70019 89/00 93598 96049
AAXX 13061 11918 11308 80000 10018 20015 39333 42766 52005 60032 74464 886// 333 20018 3/002 41998 70027 88707
AAXX 13061 11927 11202 70000 10023 20020 39886 40152 53004 60122 74466 875// 333 20020 31001 70131 84705 84710 87633
AAXX 13061 11930 11/00 99902 11056 21056 37309 47982 56020 60052 74574 333 21060 3//// 44043 70069 89/00 93530
AAXX 13061 11933 11/02 90000 11003 21003 38625 48442 53004 60072 77174 333 21003 3/100 44034 70076 89/00
AAXX 13061 11934 11360 83102 10017 20013 39325 42761 51004 60052 76062 885// 333 20017 3/001 41998 70060 81708 87714 88640
AAXX 13061 11938 11456 80507 10017 20013 39074 42749 50000 60092 71066 885// 333 20012 3/000 42006 70134 82710 88630
AAXX 13061 11952 16/// /0000 10019 20018 39317 42762 52005 60092 333 20017 3/001 70093
AAXX 13061 11958 36/// /0004 11001 21005 38708 48442 54000 333 21033 3////
AAXX 13061 11968 11513 80000 10044 20037 39865 40148 52003 60072 72164 885// 333 20027 32003 70089 88625
AAXX 13061 11976 11430 89901 10043 20039 39891 40157 52005 60122 76166 885// 333 20042 31004 70126 83710 88630
AAXX 13061 11978 11315 83501 10047 20043 30017 40148 52004 60062 76166 885// 333 20032 32003 70066 86706 88640
AAXX 13061 11993 11330 89901 10060 20060 39935 40152 52007 60072 76122 887// 333 20060 32006 70069 88709
AAXX 13064 60285 31404 40000 10120 20120 40244 5//// 746// 84630 333 20116 83710
AAXX 13064 60340 NIL
AAXX 13064 60150 32956 01304 10074 20050 39608 40280 55003 333 20059 30002
AAXX 13064 60155 32958 000// 10103 20092 40265 56014 333 20100 31005
AAXX 13064 60096 NIL
AAXX 13064 60101 NIL
AAXX 13064 60115 NIL
AAXX 13064 60135 NIL
AAXX 13064 60156 NIL
AAXX 13064 60230 NIL
AAXX 13064 60252 NIL
BBXX 44008 13061 99405 70692 46/// /0301 10117 20095 40289 58017 90550 22200 00121 11102 20401 310// 41102 70009 333 91202 555 11012 22013 30450 40302 60549 027012 038007 078006 180001 180001 338003
AAXX 13064 96315 11459 71914 10260 20232 40088 60131 78066 82978 333 82814 81916 85364
AAXX 13064 96323 NIL
AAXX 13064 96315 11459 71914 10260 20232 40088 60131 78066 82978 333 82814 81916 85364
AAXX 13064 96323 NIL
BBXX VEP717 13064 99467 70487 41698 62927 10024 2000/ 40270 53010 70282 86500 22200 06030 20504 335// 40705 80017
BBXX 46232 13061 99325 71174 46/// ///// 1//// 90538 22200 00144 11503 20401 326// 41502 70013
BBXX 46236 13061 99368 71219 46/// ///// 1//// 90550 22200 00126 11305 21003 328// 41304 70023
BBXX 46229 13061 99438 71246 46/// ///// 1//// 90551 22200 00105 11304 20803 329// 41302 70020
BBXX 46225 13061 99329 71174 46/// ///// 1//// 90544 22200 00157 11402 20401 323// 41402 70012
BBXX 46215 13061 99352 71209 46/// ///// 1//// 90538 22200 00164 11304 21002 328// 41303 70020
BBXX VOLG 13064 99/// ///// 46/// /3031 10034 20014 40297 53017 7//// 8//// 22200 0//// 2////
BBXX 46218 13061 99345 71208 46/// ///// 1//// 90602 22200 00145 11406 21004 330// 41405 70031
BBXX 51204 13061 99213 71581 46/// ///// 1//// 90552 22200 00247 10402 20402 318// 41301 70010
BBXX 51203 13061 99208 71570 46/// ///// 1//// 90543 22200 00247 11201 20801 321// 41201 70006
BBXX 52200 13061 99134 11448 46/// ///// 1//// 90545 22200 00288 11005 21005 309// 41101 70026
BBXX 51201 13061 99217 71581 46/// ///// 1//// 90542 22200 00242 10803 20803 303// 41101 70015
BBXX 51202 13061 99214 71577 46/// ///// 1//// 90539 22200 00246 11005 21004 308// 41102 70024
BBXX VOLG 13064 99/// ///// 46/// /3031 10034 20014 40297 53017 7//// 8//// 22200 0//// 2////
BBXX 44098 13061 99428 70702 46/// ///// 1//// 90537 22200 00093 10402 20402 70008
BBXX 44099 13061 99369 70757 46/// ///// 1//// 90552 22200 00129 10802 20802 70010
AAXX 13061 45007 12958 63104 10190 20056 30182 40191 58031 60001 83031 333 59007 83360 84080
AAXX 13061 45007 12958 63104 10190 20056 30182 40191 58031 60001 83031 333 59007 83360 84080
AAXX 13061 89061 179// 03413 10011 20008 39710 49717 52010 60021 77177 333 91017 91118
AAXX 13064 16045 NIL
AAXX 13064 16090 11908 03302 10030 20027 30085 40170 53008 60002 74241 333 20020 31/// 55000 20062
AAXX 13064 16149 11420 50000 10080 20061 30153 40169 52015 69922 71052 85700 333 20068 32/// 55/// 2//// 83710
AAXX 13064 16261 12562 22508 10104 20083 30079 40152 53014 69922 82500 333 20100 30/// 55043 20345 55300 82630
AAXX 13064 16453 11597 40903 10120 20092 30123 40201 55002 60002 702// 82430 333 20118 31/// 55084 2//// 55300 82630 84359 555 0100/
AAXX 13064 16560 NIL
AAXX 13064 16008 12962 03604 11048 21100 38510 48470 58002 60002 333 21048 43009 55/// 2//// 92810
AAXX 13064 16084 12965 32403 11012 21019 30005 40179 52014 69922 80001 333 21012 30/// 55000 20044
AAXX 13064 16088 11101 63203 10044 20040 30055 40175 52009 60002 74442 86600 333 20044 31/// 55/// 2//// 86702
AAXX 13064 16110 NIL
AAXX 13064 16134 11962 03416 11018 21037 37786 48471 53008 60042 70141 333 21026 44005 55000 2//// 55300 92805
AAXX 13064 16153 12998 51706 10100 20052 39890 40155 54000 60002 80005 333 20086 30/// 55031 2//// 555 0////
AAXX 13064 16158 NIL
AAXX 13064 16206 12970 31901 10080 20066 30151 40160 52012 60042 83030 333 20080 32/// 55/// 2//// 83360
AAXX 13064 16219 NIL
AAXX 13064 16252 11462 62102 10074 20055 39210 42772 53002 60042 76061 86860 333 20074 32/// 55032 2//// 83815 83625 85340 95080
AAXX 13064 16280 12597 33311 10134 20093 39942 40163 53011 60002 83200 333 20134 30/// 55049 2//// 83820 555 0527/
AAXX 13064 16310 11597 52907 10130 20112 39940 40161 53002 60032 70296 84820 333 20116 32/// 55041 2//// 55300 82825 555 0216/
AAXX 13064 16320 12560 61804 10112 20112 30148 40160 54004 60002 85830 333 20112 31007 55020 20435 55300 82820 85640 555 02157
AAXX 13064 16325 11597 73606 10110 20081 30131 40145 56009 60012 70162 87500 333 20098 32/// 55/// 2//// 87620 98060 555 0114/
AAXX 13064 16360 12497 63007 10148 20114 30036 40170 56002 60002 84130 333 20148 30/// 55027 2//// 84815 84357 555 0215/
AAXX 13064 16400 13498 23007 10142 20108 39906 40194 53006 60002 81130 333 20142 30/// 55056 2//// 55300 81817 555 0327/
AAXX 13064 16420 11497 53202 10158 20099 30117 40182 53001 69902 72111 83570 333 20152 31/// 55080 2//// 83618 83358 90102 90910 96260 555 0100/
AAXX 13064 16429 12564 43008 10142 20142 30191 40202 53009 60002 84200 333 20138 30/// 55075 2//// 84822
AAXX 13064 16470 12460 42912 10152 20127 39982 40218 53002 60002 84500 333 20150 31/// 55061 2//// 55300 22/// 84615 95010
AAXX 13064 16480 12997 03005 10124 20116 30120 40182 54000 60002 333 20118 31/// 55078 2//// 55300 555 0200/
AAXX 13064 16522 12497 62710 10150 20129 39951 40193 58004 60002 86200 333 20144 31/// 55030 2//// 55300 86815 555 0////
AAXX 13064 16539 13497 63113 10146 20123 30095 40209 55001 60002 86800 333 20138 32/// 55/// 2//// 84815 83630 555 0////
AAXX 13064 16550 12598 12507 10126 20033 30001 40181 52008 60002 81100 333 20126 30/// 55054 2//// 81827 555 0////
AAXX 13064 16021 NIL
AAXX 13064 16022 12988 09902 11042 21167 37819 48466 52010 69902 333 21068 47004 55000 2//// 92832
AAXX 13064 16033 11956 00000 11026 21046 38774 48477 52009 60012 71001 333 21028 43007 55/// 2//// 92822
AAXX 13064 16040 13460 80000 10014 20008 39244 42773 5//// 60052 882// 333 20012 31/// 55/// 2//// 82710 87815
AAXX 13064 16052 11760 63008 11076 21151 36589 47016 52010 60002 70331 86010 333 21160 49999 55000 20028 86450
AAXX 13064 16061 12984 31307 10048 21032 39320 42771 53007 60002 80002 333 20048 30/// 55035 2////
AAXX 13064 16098 12780 53304 10060 20037 30110 40162 51009 60052 85030 333 20058 32/// 55/// 2//// 85356
AAXX 13064 16138 11958 00000 10054 20045 30148 40160 51012 60032 710// 333 20054 32/// 55/// 2////
AAXX 13064 16148 11540 83005 10077 20057 30158 40170 52025 60002 71022 885// 333 20065 32/// 55000 2//// 55300 88625
AAXX 13064 16168 12972 03020 10088 20034 39420 42781 52015 60002 333 20086 30///
AAXX 13064 16172 11906 00000 10036 20036 39876 40183 53018 60032 74641 333 20036 32/// 55/// 2////
AAXX 13064 16179 11/02 90702 10054 20047 39479 42773 52016 60042 74364 333 20052 32/// 89/01
AAXX 13064 16224 12965 03106 10090 20051 39840 40160 52010 69962 333 20090 31/// 55001 2////
AAXX 13064 16232 11598 83009 10120 20094 30098 40152 52022 69982 76061 8587/ 333 20120 32/// 55004 20222 55300 82825 84630 555 0327/
AAXX 13064 16245 12568 10204 10098 20081 30137 40163 52006 60002 81200 333 20092 32/// 55/// 2//// 81630
AAXX 13064 16253 12570 13003 10108 20089 30151 40163 53009 60042 81200 333 20108 32/// 55042 20516 81825
AAXX 13064 16258 12460 43206 10070 20052 39158 42765 52008 60002 84500 333 20070 30/// 55/// 2//// 84615
AAXX 13064 16263 11265 62411 10052 20031 38899 48465 53010 60002 72842 86500 333 20052 32/// 55/// 2//// 86605
AAXX 13064 16294 11597 62610 10130 20077 39976 40169 53001 60032 76096 86800 333 20122 32/// 55/// 2//// 83820 84630 555 0325/
AAXX 13064 16337 12497 82608 10108 20080 39602 40173 55000 60202 889// 333 20092 31/// 55/// 2//// 83916 85620 555 0215/
AAXX 13064 16344 NIL
AAXX 13064 16434 11030 82804 10068 20054 39000 48501 53003 69922 710// 8427/ 333 20064 31/// 55/// 2//// 84801 85358 95070 95100
AAXX 13064 16450 12865 13109 10084 20084 39094 48557 53002 60002 81070 333 20084 30/// 55/// 2//// 81357
AAXX 13064 16459 12970 02708 10098 20098 30157 40193 53006 60002 333 20098 30/// 55/// 2////
AAXX 13064 16546 12566 42203 10094 20075 30181 40210 52010 60002 84800 333 20088 30/// 55/// 2//// 82825 83635
AAXX 13064 16564 12597 22522 10136 20076 30063 40205 52007 60002 82100 333 20130 30/// 55/// 2//// 82820 555 0////
BBXX 51205 13061 99210 71564 46/// ///// 1//// 90548 22200 00241 11006 21005 309// 41103 70031
BBXX 46238 13061 99334 71195 46/// ///// 1//// 90550 22200 00151 11304 20802 328// 41303 70018
BBXX 46239 13061 99363 71221 46/// ///// 1//// 90551 22200 00131 11305 21003 331// 41304 70027
AAXX 13064 89642 42682 32806 10031 21039 39695 49747 51013 81501 333 55069 23071 81646 83066
AAXX 13064 71805 04685 80401 10013 21016 30290 40299 51002 69942 700// 333 10032 20007 30000 55000 60007 70004 90710 91105 555 60005
AAXX 13064 13600 11558 71406 10126 20103 30114 40166 57008 60062 72182 87800 333 20105 32/// 83826 84633
AAXX 13064 13610 11900 00000 10082 20051 39749 40175 57016 60052 74522 333 20072 31///
AAXX 13064 13611 11660 81810 10126 20099 30056 40146 57008 60002 76062 885// 333 20112 32/// 88633
AAXX 13064 13619 12665 51406 10084 20042 39414 42802 57015 60002 85500 333 20046 31/// 85643
AAXX 13064 13622 11662 83306 10136 20120 30162 40169 54001 60052 70266 885// 333 20120 31/// 88633
AAXX 13064 13624 11965 81404 10116 20097 30139 40178 54001 69962 76022 8802/ 333 20100 31/// 88460
AAXX 13064 13625 11660 80000 10090 20066 39969 40202 57008 60332 76399 885// 333 20088 33/// 88643
AAXX 13064 13629 12664 71404 10064 20061 39148 42798 56006 60002 87500 333 20056 31/// 87640
AAXX 13064 13601 12660 61202 10130 20076 30054 40154 57006 60002 83530 333 20130 30/// 83633 83360
AAXX 13064 13602 NIL
AAXX 13064 13623 11960 50000 10110 20102 30163 40169 54000 60002 70182 84031 333 20105 32/// 84360
AAXX 13063 91502 11470 80205 10280 20244 40063 55000 60021 71582 8597/ 333 56199 83815 81916 84629 87360
AAXX 13063 91507 01465 80000 10264 20255 40065 55003 60141 78088 889// 333 56799 60147 86817 81918
AAXX 13063 91520 01480 72002 10266 20245 40060 58002 69941 72095 84934 333 56999 69947 82818 81919 84630 86080
AAXX 13063 91541 01475 80000 10265 20243 40071 5//// 69981 72582 8497/ 333 56209 69981 82817 81918 87360
AAXX 13063 91551 11598 60000 10290 20262 4//// 5//// 69911 72522 83901 333 561/9 69911 82820 81925 86080
AAXX 13063 91553 11598 49902 10275 20254 40076 53005 60051 72522 84901 333 561/9 60051 84820 81925
AAXX 13063 91554 31598 71605 10275 20257 40072 53003 70222 878// 333 563// 83820 87640
AAXX 13063 91555 31598 31210 10293 20258 40074 53003 70121 81101 333 563/9 81825 83080
AAXX 13063 91557 31598 30405 10305 20241 40061 53006 70122 83100 333 561// 83820
AAXX 13063 91565 11598 10207 10296 20239 40077 54000 60011 70128 81200 333 568// 60011 81825
AAXX 13063 91568 31598 41012 10290 20255 40095 53003 70222 84201 333 563/9 84823
AAXX 13061 89061 179// 03413 10011 20008 39710 49717 52010 60021 77177 333 91017 91118
AAXX 13063 91502 11470 80205 10280 20244 40063 55000 60021 71582 8597/ 333 56199 83815 81916 84629 87360
AAXX 13063 91507 01465 80000 10264 20255 40065 55003 60141 78088 889// 333 56799 60147 86817 81918
AAXX 13063 91520 01480 72002 10266 20245 40060 58002 69941 72095 84934 333 56999 69947 82818 81919 84630 86080
AAXX 13063 91541 01475 80000 10265 20243 40071 5//// 69981 72582 8497/ 333 56209 69981 82817 81918 87360
BBXX 46219 13061 99332 71199 46/// ///// 1//// 90558 22200 00139 11405 21003 329// 41404 70027
BBXX 46224 13061 99332 71175 46/// ///// 1//// 90536 22200 00149 11402 20401 322// 41401 70009
BBXX 46214 13061 99379 71235 46/// ///// 1//// 90557 22200 00114 11307 21004 331// 41305 70034
AAXX 13063 91551 11598 60000 10290 20262 4//// 5//// 69911 72522 83901 333 561/9 69911 82820 81925 86080
AAXX 13063 91553 11598 49902 10275 20254 40076 53005 60051 72522 84901 333 561/9 60051 84820 81925
AAXX 13063 91554 31598 71605 10275 20257 40072 53003 70222 878// 333 563// 83820 87640
AAXX 13063 91555 31598 31210 10293 20258 40074 53003 70121 81101 333 563/9 81825 83080
AAXX 13063 91557 31598 30405 10305 20241 40061 53006 70122 83100 333 561// 83820
AAXX 13063 91565 11598 10207 10296 20239 40077 54000 60011 70128 81200 333 568// 60011 81825
AAXX 13063 91568 31598 41012 10290 20255 40095 53003 70222 84201 333 563/9 84823
AAXX 13064 68399 16/// /0203 10254 20196 30016 40124 52005 69924 333 20225 91025 555 10369 20002 91012
AAXX 13064 85201 32470 69902 10050 20029 36290 57018 81502 333 56000 59001 81613 86070
AAXX 13064 85244 11415 81710 10226 20221 39663 40093 52006 60091 79596 8792/ 333 56499 58027 82610 85620 82930 88457
AAXX 13064 85223 11557 70000 10143 20105 37503 47125 54005 69901 70422 83531 333 56000 58013 83627 86358
AAXX 13064 43533 12465 70903 10296 20255 30112 40115 60001 81332 333 58002 81818 81919 87076
AAXX 13064 43555 12465 60907 10303 20251 30113 40116 60001 82202 333 58000 82818 84077
AAXX 13064 43577 12465 52905 10288 20254 30114 40116 60001 83942 333 58002 82817 81918
AAXX 13064 43588 12465 32508 10299 20258 30108 40110 60001 82202 333 58001 82818
AAXX 13064 43599 12465 32505 10306 20255 30111 40113 60001 82201 333 58002 82818
AAXX 13064 43533 12465 70903 10296 20255 30112 40115 60001 81332 333 58002 81818 81919 87076
AAXX 13064 43555 12465 60907 10303 20251 30113 40116 60001 82202 333 58000 82818 84077
AAXX 13064 43577 12465 52905 10288 20254 30114 40116 60001 83942 333 58002 82817 81918
AAXX 13064 43588 12465 32508 10299 20258 30108 40110 60001 82202 333 58001 82818
AAXX 13064 43599 12465 32505 10306 20255 30111 40113 60001 82201 333 58002 82818
AAXX 13064 61968 16/// /0906 10310 20231 40121 6///4 333 2//// 55/// 58007 90710 91111 555 60005
AAXX 13064 61972 16/// /0506 10297 20246 40121 60004 333 20258 55/// 58017 90710 91111 555 60005
AAXX 13064 61980 12570 40717 10299 20231 40125 69904 82832 333 02100 20231 55121 58005 82826 90710 91122 92428 555 60005
AAXX 13064 67005 12575 73206 10293 20233 40126 60004 83205 333 02300 20253 55062 58007 83822 87280 90710 91109 555 60005
AAXX 13061 01001 11465 63606 11023 21046 39889 49901 56015 60002 70222 85630 333 21027 42999 70000 91117
AAXX 13061 01055 46/// /1312 11024 21052 39917 49935 58017 333 21026 91116
AAXX 13061 01317 11580 81409 10066 21025 39733 49747 58069 60032 70282 8687/ 333 20035 70124 91118
AAXX 13064 48601 11560 62107 10301 20248 30091 40095 6///1 70522 82231 333 82820 86078
AAXX 13064 48615 11462 73605 10276 20236 30105 40111 60001 70522 83242 333 83818 84364 87074
AAXX 13064 48620 11465 72908 10304 20241 30084 40093 60001 70522 82942 333 81917 87078
AAXX 13064 48647 11463 72706 10313 20256 30067 40091 60001 71722 85942 333 81917 84818 87078
AAXX 13064 48650 11462 72307 10297 20255 30073 40091 60001 71792 84942 333 81917 83818 86078
AAXX 13064 48657 11464 70406 10298 20246 30081 40098 6///1 72582 84241 333 83818 84366 87078
AAXX 13064 48665 11468 70608 10304 20241 30091 40101 60001 70522 83352 333 81917 86364
AAXX 13064 96413 11458 70602 10245 20240 30074 40101 60251 79598 8497/ 333 81915 84620 87365
AAXX 13064 96421 11457 72507 10244 20231 30058 40094 60021 78082 8417/ 333 84818 87365
AAXX 13064 96441 11468 73503 10301 20251 30055 40082 6///1 71522 83241 333 83816 86080
AAXX 13064 96449 11480 71308 10283 20241 30064 40083 69921 70266 8314/ 333 83814 87365
AAXX 13064 96465 11475 71808 10271 20246 30048 40081 60281 72166 83848 333 82812 84364 87279
AAXX 13064 96471 11478 72209 10299 20242 30078 40081 69941 70162 82848 333 81815 84364 87277
AAXX 13064 96481 11462 72005 10275 20251 30064 40083 60001 70362 8387/ 333 82817 86364
AAXX 13064 96491 11363 70406 10299 20247 30073 40085 69901 71796 83948 333 82709 83814 81916 87277
AAXX 13061 06206 47360 72017 10110 20102 39743 49794 56028 72365 8//// 333 20072 81/08 83/20 86/24 91021 91129 91224
AAXX 13061 06207 47256 8//22 10083 20070 39760 49812 58040 78186 8//// 333 20052 83/06 87/07 88/09 91028 91128 91223
AAXX 13061 06239 47257 81418 10100 20089 3//// 4//// 5//// 75784 8//// 333 20075 82/05 84/06 86/08 91022 91128 91222
AAXX 13061 06252 46/// /2217 10117 20096 39752 49796 56014 222// 00100 10808 333 20083 91021 91127 91221
AAXX 13061 06260 17450 81910 10082 20070 39891 49893 56039 60082 76185 8//// 333 20055 3/004 70078 84/10 87/13 88/15 91017 91120 91212
AAXX 13061 06270 17257 81912 10068 20068 39854 49854 56047 60072 76185 8//// 333 20042 3/004 70071 83/06 88/07 91017 91120 91214
AAXX 13061 06290 NIL
AAXX 13064 91574 46/// ///// 29084 30379 40385 51056
AAXX 13064 91570 NIL
AAXX 13064 91598 NIL
AAXX 13061 06201 47416 72114 10101 20084 39710 49760 56016 74186 8//// 333 20070 82/12 84/15 85/21 91017 91131 91224
AAXX 13061 06203 47257 8//17 10107 20094 39779 49828 55004 75186 8//// 333 20069 83/06 85/07 86/10 91022 91131 91224
AAXX 13061 06204 47462 82118 10119 20099 39769 49818 56020 70286 8//// 333 20084 81/15 83/21 86/33 91022 91129 91223
AAXX 13061 06205 47259 82117 10094 20085 39682 49739 56040 72384 8//// 333 20065 82/06 83/08 85/10 91020 91126 91217
AAXX 13061 06208 47357 82020 10064 20050 39791 49840 56049 76185 8//// 333 20054 83/07 84/09 87/10 91024 91126 91221
AAXX 13061 06211 47561 81914 10107 20095 39731 49784 56022 781// 8//// 333 20076 81/25 84/30 86/35 91016 91122 91218
AAXX 13061 06212 47359 82118 1//// 2//// 39770 49832 56022 751// 8//// 333 2//// 83/07 85/08 87/09 91021 91128 91223
AAXX 13061 06235 17358 82117 10085 20072 39847 49847 56033 60092 72386 8//// 333 20060 3/006 70089 83/08 88/10 91024 91124 91217
AAXX 13061 06240 17450 82016 10087 20081 39881 49876 56034 60092 78186 8//// 333 20048 3/004 70092 86/12 88/15 91021 91121 91216
AAXX 13061 06251 17250 81916 10064 20061 39841 49842 56042 60082 76185 8//// 333 20052 3/005 70084 83/04 86/05 88/07 91019 91126 91219
AAXX 13061 06258 46/// /2016 333 91019 91124 91219
AAXX 13061 06269 17350 82012 10078 20078 39889 49883 56040 60082 76185 8//// 333 20051 3/004 70083 81/09 83/10 86/12 91016 91121 91215
AAXX 13061 06280 17356 81911 10061 20051 39872 49876 56059 60062 75885 8//// 333 20043 3/003 70071 83/09 87/11 88/14 91015 91121 91214
AAXX 13061 06310 17468 82016 10099 20080 39875 49885 56029 60042 70265 8//// 333 20069 3/006 70040 83/14 86/16 88/19 91020 91126 91220
AAXX 13061 06344 17356 82012 10088 20075 39889 49883 56032 60092 78186 8//// 333 20059 3/005 70086 83/09 88/11 91017 91122 91215
AAXX 13061 06370 17482 82011 10080 20058 39897 49922 56041 60072 72380 8//// 333 20057 3/005 70067 83/12 86/15 88/17 91014 91118 91212
AAXX 13061 06380 17483 82017 10071 20045 39815 49953 56041 60032 78186 8//// 333 20051 3/005 70066 81/19 83/21 87/31 91023 91125 91217
AAXX 13064 91573 06/// /0410 10283 20245 39986 40081 53003 60001 333 58000 60007
AAXX 13064 91577 06/// /0407 10308 20207 30057 40077 53004 60001 333 59003 60007
AAXX 13064 91579 06/// /0408 10289 20245 30081 40089 55000 60001 333 59002 60007
AAXX 13064 91582 04470 60707 10284 20242 30056 40090 55001 6///2 700// 333 10312 20248 3/024 55/// 60007 7//// 90710 91114 555 60005
AAXX 13064 91583 06/// /0708 10278 20238 30072 40087 55004 60001 333 59002 60007
AAXX 13064 91590 04785 /0104 10317 20190 30035 40076 55004 69902 700// 333 10331 20272 55076 60007 79999 90710 91109 555 60005
AAXX 13064 91592 06/// /1806 10321 20222 30000 40082 53001 60001 333 58001 60007
AAXX 13064 91596 06/// /0314 10279 20233 39988 40095 56002 60001 333 59002 60007
AAXX 13064 91587 NIL
BBXX DBBH 13061 99442 70095 41/95 82419 10138 20122 40100 55000 76366 88/// 22241 04145
BBXX 44100 13061 99363 70756 46/// ///// 1//// 90552 22200 00137 10803 20803 70013
BBXX 41115 13061 99184 70673 46/// ///// 1//// 90535 22200 11102 20901 302// 41101 70009
BBXX 42099 13061 99273 70842 46/// ///// 1//// 90557 22200 00236 10603 20603 70016
BBXX 41113 13061 99284 70805 46/// ///// 1//// 90551 22200 00222 10903 20903 311// 41101 70015
AAXX 13061 03951 17656 /2620 10064 20012 39824 49850 50009 60072 72385 85/// 333 20047 3/003 85/31 85/61 86/63 90710 91133 91220
AAXX 13061 03953 11570 72513 10061 21008 39811 49847 50009 60042 78982 879// 333 20039 31001 55000 87920 92467 90710 91128 91220 96487
AAXX 13061 03955 11362 42507 10018 20003 39652 49848 51014 60062 78081 84300 333 20008 31101 55000 81706 84918
AAXX 13061 03956 17982 /2508 10032 21007 39756 49832 52010 60072 7038/ 81/// 333 20031 3/001 81/65 82/70
AAXX 13061 03962 11470 72513 10052 21003 39783 49806 52006 60052 78081 8632/ 333 20032 3/001 55000 83918 83645 85458 96487 90710 91124
AAXX 13061 03963 17650 /2519 10041 20001 39737 49765 53008 69962 7818/ 86/// 333 20034 3/002 86/30 87/74 90710 91132 91226 91325 90401 91319
AAXX 13061 03966 17562 /2511 10028 21008 39705 49797 50006 60062 7818/ 83/// 333 20018 3/000 81/29 83/50 85/60
AAXX 13061 03967 11470 72311 10017 21002 39683 49796 53012 60032 78982 8793/ 333 20012 31100 55014 81712 81920 83626 85650 90710 91119
AAXX 13061 03969 11258 72411 10017 20003 39690 49793 53012 60032 78382 873// 333 20017 31000 55013 81705 82918 86632 90710 91119
AAXX 13061 03973 11575 32409 10011 21008 39496 49747 58002 60052 72681 83300 333 20002 3/101 42097 55000 83920 90710 91122
AAXX 13061 03976 11474 72421 10048 20009 39705 49717 56005 60022 72782 879// 333 20038 31001 55000 82717 85920 96483 90710 91132 91221
AAXX 13061 03980 17664 /2012 10027 20006 39652 49676 55017 60092 7228/ 86/// 333 20020 3/000 86/44 90710 91121
AAXX 13064 67341 32480 82205 10254 20211 40107 51008 884// 333 20228 50//0 55/// 555 10000 94340
AAXX 13064 67341 32480 82205 10254 20211 40107 51008 884// 333 20228 50//0 55/// 555 10000 94340
AAXX 13061 11010 11108 19901 11003 21003 39793 40183 57012 60062 74100 333 21009 31104 81703
AAXX 13061 11012 12986 12105 10014 21002 39699 40178 57014 60042 81010 333 10051 20011 3/101 55300 91113
AAXX 13061 11022 12965 12701 10017 21012 39776 40170 57003 60012 80001 333 10040 20013 3/102 55300 81076
AAXX 13061 11035 11882 12904 10036 20006 39914 40171 58001 69942 70161 81030 333 10054 20033 81358
AAXX 13061 11036 11983 12806 10042 20010 39945 40171 57002 69902 70162 333 20034 31003 81359 91113 91208
AAXX 13061 11101 32560 51502 10032 21035 39622 40156 57023 83531 333 10054 20006 83625 91115
AAXX 13061 11120 12275 23303 11008 21014 39475 40201 57007 69912 333 21012 34105 81706
AAXX 13061 11126 16/// /1711 11066 21221 37680 48453 58008 69912 333 11057 21097 55300 91114
AAXX 13061 11130 16/// /1702 10024 20005 39577 40174 58016 60032 333 10036 21002 3/101 55300
AAXX 13061 11146 11989 02415 11108 21128 36875 47975 57007 60072 73974 333 21138 49122 91121 92611 93120
AAXX 13061 11150 12280 11504 11002 21007 39621 40175 58018 60032 333 21007 31101 81706
AAXX 13061 11155 11989 12106 11042 21095 38319 48451 58014 60072 70241 80001 333 11021 21058 3/107 48030 55300 81074 93107 444 17146
AAXX 13061 11157 11/02 99901 11027 21027 39410 40206 51001 60032 74944 333 21039 3/104 44006 89/02
AAXX 13061 11172 NIL
AAXX 13061 11190 17660 12903 10049 21003 39936 40172 53007 69942 7//4/ 81500 333 10072 20043 3/000 55300 81638 91116
AAXX 13061 11204 12980 03001 11022 21027 39398 40215 52013 6008/ 333 10041 21023 555 10045 6001/
AAXX 13061 11212 11/75 72303 11064 21071 37794 48475 51006 60152 71543 86571 333 21071 42008 817// 85627 92612 93107 444 56112
AAXX 13061 11231 11125 83202 10020 20019 39616 40198 53011 60092 71042 333 20009 32101 85702 88703
AAXX 13061 11240 11/04 91703 11007 21007 39737 40188 52012 60052 74944 333 21014 34104 89/01
AAXX 13061 11244 17/// /0000 10039 20030 39848 40181 52014 60072 7//4/ 333 10062 20031 55300
AAXX 13061 11389 12950 32003 10019 20010 39846 40179 58006 60052 83031 333 10040 20017 3/101 55300 91113
AAXX 13061 01150 16/// /1602 11047 21078 60012 333 21054 70010 91111
AAXX 13061 01230 16/// /1303 11022 21068 60002 333 21036 4/029 70000 91112
AAXX 13061 01232 16/// /2104 10037 21055 39742 49820 55008 60002 333 20035 4/025 70000 91114
AAXX 13061 01254 16/// /1501 11065 21074 60002 333 21071 4/020 70000 91103
AAXX 13061 01291 16/// /2401 11044 21057 60002 333 21061 4/019 70000 91105
AAXX 13061 01386 16/// ///// 11025 21030 69962 333 21041 70022
AAXX 13061 01470 16/// /0201 10003 20001 39756 49869 58039 69962 333 21013 4/004 70039 91103
AAXX 13061 01132 16/// /1802 11027 21057 39468 49855 55008 69952 333 21043 4/041 70005 91107
AAXX 13061 01361 16/// /0805 11035 21073 38816 49831 55020 60002 333 21069 70000 91110
AAXX 13061 01477 16/// /3201 11025 21028 69962 333 21057 4/018 70017 91102
AAXX 13061 01023 11688 41206 11053 21097 39774 49870 56022 60002 70300 81578 333 21082 47009 91109
AAXX 13061 01089 16/// /1305 11073 21081 39888 49997 58017 6//// 333 21099 91105
AAXX 13061 01452 11459 81610 10057 20037 39821 49842 58050 60032 76362 887// 333 21015 70092 91115
AAXX 13061 01046 11889 41209 11051 21102 39894 49901 57027 60002 70121 82042 333 21054 44022 70041 91117
AAXX 13061 01344 16/// ///// 10009 21046 60022 333 21024 4/055 70034
AAXX 13064 89532 41/65 63506 11071 21096 39759 49786 55004 70272 81532 333 55000 22000
AAXX 13061 26135 01244 81703 10008 20005 39948 40023 57010 69992 78088 889// 333 10009 21002 69987 88904 555 12000 21002 32100 50008 52100
AAXX 13061 26141 01249 81907 10004 21002 39874 40023 57014 69952 78582 889// 333 10004 21007 43003 60007 88905 91011 91112 555 1/100 21007 3/101 50002 52101
AAXX 13061 26231 01250 81808 10017 20011 30003 40018 57010 60062 76187 8872/ 333 10024 20004 60037 88504 91013 91117 555 12002 20004 32000 50020
AAXX 13061 26242 01465 81906 10017 21008 39956 40043 56006 69902 70262 875// 333 10017 21004 60007 87612 91011 91113 555 11000 21004 31101 50010 52101
AAXX 13061 26038 NIL
AAXX 13061 26045 NIL
AAXX 13061 26058 NIL
AAXX 13061 26115 NIL
AAXX 13061 26247 NIL
AAXX 13061 78458 32466 30000 10214 20218 40144 54001 83200 333 10280 20205 32/// 56000 58003 83818
AAXX 13061 78460 32466 20000 10222 20213 40146 51007 82500 333 10305 20174 30/// 56000 58021 82616
AAXX 13061 78479 32466 23603 10214 20202 40118 57008 82200 333 10290 20210 30/// 56100 58005 82818
AAXX 13061 78485 32466 20103 10216 20201 40138 57006 82200 333 10305 20200 30/// 56000 58007 82816
AAXX 13061 78486 32966 03602 10236 20216 40122 57004 333 10318 20212 30/// 58010
BBXX TFBKF 13064 99635 70202 46/// ///// 22200 10703 70013
BBXX TFBLK 13064 99657 70248 46/// ///// 22200 10708 70039
BBXX TFDRN 13064 99658 70212 46/// ///// 22200 10706 70031
BBXX TFGRS 13064 99663 70182 46/// ///// 22200 10708 70039
BBXX TFGRV 13064 99638 70225 46/// ///// 22200 10703 70014
BBXX TFGSK 13064 99641 70229 46/// ///// 22200 10603 70015
BBXX TFHFN 13064 99642 70152 46/// ///// 22200 10604 70020
BBXX TFKGR 13064 99657 70136 46/// ///// 22200 10707 70036
BBXX TFSRT 13064 99633 70203 46/// ///// 22200 10704 70018
BBXX TFSTD 13064 99664 70234 46/// ///// 22200 10812 70058
AAXX 13064 17600 12580 30308 10111 20046 30228 40238 53005 60002 81502 333 10124 20089 30007 50341 55053 70000 81630 83075 92438
AAXX 13064 17601 12684 23303 10090 20019 30199 40231 50001 60002 81502 90550 333 20066 34101 70000 81640
AAXX 13064 17607 11982 22603 10096 20045 30044 40240 52/// 60004 702// 81032 333 20069 70000 81365
AAXX 13064 17609 12684 13302 10107 20066 30234 40238 53007 60002 81102 333 10115 20072 31002 50101 55053 70000 81840
AAXX 13061 33135 11497 81707 10017 21005 30014 40196 57012 69902 70282 886// 333 21016 88712
AAXX 13061 33317 NIL
AAXX 13061 33345 NIL
AAXX 13061 33393 11208 80000 10025 20017 39766 40162 52004 60032 78084 889// 333 20019 86704
AAXX 13061 33506 31596 81602 11010 21023 30069 40273 57003 71011 885// 333 21037
AAXX 13061 33587 NIL
AAXX 13061 33631 11496 81203 10076 20067 30008 40151 53001 60062 76166 8802/ 333 20073 88515
AAXX 13061 33663 11/93 90901 10061 20061 30086 40182 57004 69942 75154 333 20032
AAXX 13061 33658 31/01 91401 10019 20019 39869 40174 57001 74544 333 21004
AAXX 13061 33711 32697 71406 10006 21024 30031 40248 57008 85530 333 20001 85633
AAXX 13061 33791 NIL
AAXX 13061 33837 11430 81406 10067 20065 30162 40214 58006 69952 76566 8672/ 333 20067
AAXX 13061 33924 NIL
AAXX 13061 33946 32697 80903 10048 20012 30021 40244 57003 8655/ 333 20020 86636
AAXX 13061 34300 31/01 91603 11027 21027 30096 40296 54000 74741 333 21027
AAXX 13061 34504 32997 71504 11022 21028 30098 40285 53002 87030 333 21038
AAXX 13061 34519 NIL
AAXX 13061 34601 31327 61402 11032 21035 30147 40290 54000 72842 85601 333 21046 85707
AAXX 13061 06407 11480 72011 10100 20079 39889 49895 56024 60062 70262 875// 333 20058 32005 84614 86622 91121 91214
AAXX 13061 06447 NIL
AAXX 13064 78016 11564 80912 10215 20187 30164 40168 57002 69901 70282 888// 333 10232 20203 70018 90940
AAXX 13061 06400 11583 71911 10107 20090 39885 49896 56020 60062 78086 878// 333 20062 31005 82823 84636 86648 91121 91215
AAXX 13061 06428 11464 72009 10096 20077 39872 49919 55029 60072 76062 875// 333 20062 32004 81712 85615 87619 91120 91212
AAXX 13061 06451 11462 82013 10084 20059 39862 49928 56036 60062 76166 875// 333 20058 32005 83714 86618 91124 91215
AAXX 13061 06456 11350 82010 10056 20047 39616 49978 56030 60052 75865 877// 333 20043 32003 81707 85710 87713 91121 91214
AAXX 13061 06476 17246 82107 10037 20030 39344 40003 56037 60072 76175 333 20008 3/001 87/03 88/05 91116 91208
AAXX 13061 06479 11457 72109 10076 20057 39862 49941 56043 60092 76366 875// 333 20052 31002 81619 85624 87640 91117 91210
AAXX 13061 06490 17380 82011 10045 20028 39426 49991 56034 60022 70065 333 20021 3/002 83/09 85/11 88/14 91121 91213
AAXX 13061 06590 11235 81807 10029 20023 39590 40044 57035 60022 76166 875// 333 20018 31001 83706 87612 91113 91208
AAXX 13061 06431 NIL
AAXX 13061 06432 11458 81914 10090 20070 39861 49936 56029 60062 76166 875// 333 20059 32004 81712 83617 86623 91121 91215
AAXX 13061 06449 11357 81912 10063 20052 39733 49958 56031 60052 76162 875// 333 20050 32004 85709 86621 91121 91214
AAXX 13061 06450 11465 82011 10092 20070 39902 49918 57039 60052 72186 875// 333 20065 32005 87613 91120 91213
AAXX 13061 06458 11460 82016 10074 20054 39788 49939 56036 60052 76362 875// 333 20057 32003 81615 83620 87630 91123 91216
AAXX 13061 06465 11480 72012 10081 20050 39872 49937 56040 60052 76166 878// 333 20057 31003 81818 84622 87628 91120 91213
AAXX 13061 06478 11480 82013 10070 20045 39748 49964 56039 60042 72162 875// 333 20049 32004 84712 85616 91122 91215
AAXX 13061 06496 11256 82109 10024 20021 39325 49998 56034 60022 75176 877// 333 20014 32001 85704 87707 91118 91210
AAXX 13064 84377 31460 80000 10240 20223 39978 40083 70222 8462/ 333 5600/ 58003 84710 86460
AAXX 13064 84686 31760 60000 10107 20059 36871 70222 865// 333 56900 59008 86650
AAXX 13064 84452 31960 51811 10190 20171 30113 40144 70300 80008 333 56009 58007 85275
AAXX 13064 84501 31556 81307 10181 20161 30106 40133 71011 8153/ 333 56000 59001 81630 87365
AAXX 13064 84691 31458 22004 10192 20165 30120 40127 71000 82600 333 56000 58001 82713
AAXX 13064 84401 31960 01504 10210 20169 30108 40152 70200 333 58004
AAXX 13064 84515 31560 80000 10236 20230 39909 40087 70322 8553/ 333 5699/ 58009 85620 83360
AAXX 13064 84782 31562 82203 10168 20124 39626 40137 70222 885// 333 569// 58006 88630
AAXX 13064 84752 32760 83503 10127 20066 37523 70222 8853/ 333 5699/ 58002 83650 85358
AAXX 13064 84628 34460 51508 10194 20170 30115 40131 70340 8263/ 333 56410 58001 82710 83363
AAXX 13064 91487 NIL
AAXX 13064 91490 NIL
AAXX 13064 91533 NIL
AAXX 13064 91601 NIL
AAXX 13064 91610 11599 40710 10284 20240 40065 53006 60001 70200 82201 333 562/9 82818 81080
AAXX 13064 91623 NIL
AAXX 13064 91629 NIL
AAXX 13064 91701 11399 80918 10268 2026/ 60021 76086 82768 333 56299 85614 85359 85175
AAXX 13064 --f46d040fa0882f01c904b3f31402 html code found in mail The rest of this message has been deleted
AAXX 13061 15015 02597 71101 10058 20036 39556 42770 50000 60002 83570 333 10077 20048 31001 60007 70000 91002 91103
AAXX 13061 15020 01596 81201 10051 20048 39970 40170 50001 60002 71022 8457/ 333 10058 20033 31002 60007 70000 91001 91102
AAXX 13061 15090 01596 81501 10084 20069 30087 40180 57003 60002 71022 885// 333 10086 20064 31004 55300 00010 20001 30000 60007 70000 91002 91104
AAXX 13061 15108 02298 42708 11004 21004 38076 48493 52003 60002 81541 333 11001 21008 3//// 43006 60007 70000 92860 95070 444 47091
AAXX 13061 15120 02697 72101 10033 20033 39665 40169 54001 69922 84570 333 10063 20028 31001 55300 10033 2//// 3//// 60007 70002 91002 91103
AAXX 13061 15150 01393 81601 10055 20055 39965 40180 57002 60002 74244 886// 333 10058 20046 31005 60007 70000 91003 91104
AAXX 13061 15170 01/92 90801 11015 21015 39401 42791 52004 60002 74541 333 10007 21035 31102 60007 70000 91001 91102 92610
AAXX 13061 15200 01597 81701 10080 20067 30012 40157 52010 69912 70262 885// 333 10101 20077 31005 69917 70001 91001 91104
AAXX 13061 15230 02597 70000 10042 20037 39876 40174 54000 60002 86570 333 10060 20041 31003 55300 10038 20003 3//// 60007 70000 91000 91101
AAXX 13061 15260 02598 31901 10025 20019 39632 40177 52004 60002 83500 333 10049 20008 31102 60007 70000 91002 91103 95000
AAXX 13061 15280 01/93 72308 11035 21042 37485 47025 50000 60002 74143 87500 333 11030 21039 3//// 48034 60007 70004 92815 92912 96036
AAXX 13061 15292 02598 81506 10084 20051 39874 40168 53003 60002 8537/ 333 10085 20077 31005 60007 70000 91010 91110
AAXX 13061 15310 01493 81902 10080 20080 30103 40189 54001 69992 74464 886// 333 10082 20066 31006 55300 00003 20001 3//// 60007 70009 91004 91104
AAXX 13061 15335 01496 81502 10094 20092 30183 40190 57004 60002 710// 886// 333 10095 20084 31/// 60007 70000 91004 91107
AAXX 13061 15346 01/91 90000 10057 20057 39899 40192 58003 60002 74544 333 10063 20052 31004 60007 70025 91001 91101
AAXX 13061 15350 01593 82302 10068 20068 30070 40191 55003 60002 74642 886// 333 10072 20066 31006 60007 70001 91003 91103
AAXX 13061 15360 01496 81609 10093 20090 30176 40190 58004 69982 76122 8672/ 222// 06060 20402 333 10097 20090 3//// 69987 70008 91012 91112 92436 96010
AAXX 13061 15410 01596 80000 10051 20045 30100 40197 54001 69942 71022 8802/ 333 10056 20049 31004 60007 70006 91000 91101
AAXX 13061 15420 01/91 93201 10065 20064 30078 40190 55001 69912 74544 333 10068 20064 31005 55300 0//// 20000 3//// 60007 70002 91002 91103
AAXX 13061 15450 01493 80901 10048 20048 39953 40192 57002 69922 74662 886// 333 10053 20046 31003 55300 10009 20001 30001 60007 70005 91001 91102
AAXX 13061 15460 01491 82903 10048 20047 30168 40193 53003 60002 7464/ 886// 333 10089 20046 30003 60007 70000 91005 91105
AAXX 13061 15470 01492 80000 10059 20059 30064 40192 54000 60002 7444/ 886// 333 10061 20058 31005 60007 70001 91000 91101
AAXX 13061 15480 01495 62400 10088 20088 30176 40193 54000 69912 71052 86600 222// 06070 2//// 333 10096 20088 31008 60007 70001 91001 91103 92415
BBXX UFTA 13061 99851 71230 11597 80000 11256 21284 49995 53003 69922 70272 885// 555 48045
AAXX 13061 48820 32998 00202 10209 20065 30178 40186 57035 333 59017
AAXX 13061 10270 16960 11708 10029 20011 39994 40050 58041 60002 222// 06047 333 10062 20019 3/100 55000 55300 70025 81/68
AAXX 13061 48823 32998 02701 10208 20077 30183 40186 57030 333 59016
AAXX 13061 01049 16/// /1604 11072 21109 39940 49944 57022 60002 333 21080 70002 91110
AAXX 13061 01241 11586 41407 10028 21025 39799 49811 58016 69902 70221 81572 333 20021 79999 91111
AAXX 13061 01397 16/// /1202 11006 21013 39469 49903 55001 69962 333 21009 70086 91104
AAXX 13061 89061 179// 03413 10011 20008 39710 49717 52010 60021 77177 333 91017 91118
AAXX 13064 91930 36/// ///// 10268 20224
AAXX 13064 91943 36/// /1010 10270 20213 30140 40142 52011 333 20270 59013
BBXX 41041 13061 99142 70460 46/// /1010 10258 20217 40128 56023 90550 22200 00267 11006 20504 3//// 41004 70028 333 91212 555 11104 22111 30533 41012 60549 100097 099095 100091 102090 103086 097083 81010 90550
AAXX 13061 26554 31357 81803 10004 21010 39947 40113 57011 71022 886// 333 21017 88708 555 90011
AAXX 13061 26666 11320 81703 11002 21011 39923 40142 57012 60012 77172 8872/ 333 21016 47002 88706 555 90012
AAXX 13061 26850 11/04 91903 10007 20007 39856 40132 57005 69932 75165 333 21012 96047 555 90010
AAXX 13061 26863 11117 81805 10003 20000 39908 40148 57011 69952 75175 886// 333 21029 43001 88703
AAXX 13061 26941 11218 81802 10022 20017 39895 40134 53003 69902 71062 886// 333 20010 555 90010
AAXX 13061 26951 11/06 92004 10020 20020 39941 40143 54000 69972 74764 333 21003 555 90010
AAXX 13061 33008 31950 72302 10020 20009 39964 40145 53014 71011 87500 333 20016 87629 555 90010
AAXX 13061 33019 11236 81402 10032 20027 39971 40147 53007 69932 71022 886// 333 20012 88705 555 90010
AAXX 13061 33036 11143 81802 10021 20016 39931 40165 57006 60012 72165 886// 333 21008 42997 88702 555 90011
AAXX 13061 33041 11458 81604 10012 20001 30024 40182 57010 69942 76162 8872/ 333 21020 42997 88710 555 90010
AAXX 13064 03301 16672 /2426 10054 21004 39730 49802 53013 60122 90550 333 20052 70166 83/33 90710 91141 91039
AAXX 13064 03305 17678 /2523 10045 21019 39549 49806 53012 60242 781// 90550 333 20039 3/002 70342 87/34 85/50 90710 91141 91034
AAXX 13064 03313 16779 /2617 10061 21021 39707 49798 51010 60082 90550 333 20031 3/002 70112 84/50 86/64 90710 91128 91028
AAXX 13064 03316 15974 /2536 10072 20006 39778 49789 53008 60062 90550 333 20062 3/005 70078 86/62 90710 91144
AAXX 13064 03318 16/// /2628 10068 20007 60142 90550 333 20057 70142 90710 91142
AAXX 13064 03321 16780 /2513 10050 20007 39790 49802 50013 60062 90550 333 20044 3/002 55/// 553// 20000 70098 81/56
AAXX 13064 03330 17273 /2506 10013 20012 39454 49810 50014 60092 723// 90550 333 20013 3/000 70090 83/05 85/56 90710 91131
AAXX 13064 03344 17880 /2211 10030 20000 39466 49777 50009 60172 723// 90550 333 20028 3/002 70176 87/57 90710 91132
AAXX 13064 03346 16/// /2415 10030 20008 60082 90550 333 20022 3/002 70088 90710 91141
AAXX 13064 03348 17884 /2110 10034 20015 39695 49801 50012 60072 723// 90550 333 20034 3/002 55030 55300 20000 70068 83/57 86/60 90710 91133
AAXX 13064 03355 17883 /2419 10060 20022 39772 49783 53011 60052 723// 90550 333 20050 3/004 55035 55300 20000 70054 86/57 86/66 90710 91128
AAXX 13064 03373 16680 /2312 10044 20033 39727 49795 53013 60112 90550 333 20040 3/003 70112 81/48 87/56
AAXX 13064 03379 11460 72521 10054 20021 39732 49807 53014 60082 78186 8786/ 90550 333 20044 32003 70080 84818 85650 90710 91134 91034
AAXX 13064 03382 17785 /2412 10059 20033 39767 49775 53007 60092 781// 90550 333 20051 3/004 55044 55300 20000 70086 87/56
AAXX 13064 03385 46781 /2408 10051 20035 39778 49787 50011 90550 333 20049 82/50 87/60 90710 91130
AAXX 13064 03391 11468 72507 10045 20036 39794 49801 53012 60052 70286 83802 90550 333 20042 31002 70052 81818 83650 87075 90710 91125
AAXX 13064 03392 16777 /2808 10054 20047 39793 49796 50005 60062 90550 333 20054 3/004 70060 81/50 85/58 90710 91142
AAXX 13064 03405 16675 /2539 10058 20005 39699 49812 52008 60092 90550 333 20049 3/003 55/// 553// 20000 70146 81/33 84/44 90710 91151 91051
AAXX 13064 03409 16/// /2614 10047 20004 60142 90550 333 20027 3/002 55006 55300 2//// 70170 90710 91125
AAXX 13064 03410 16772 /2315 10023 20010 39386 49814 51012 60302 90550 333 20012 3/000 55/// 553// 20000 70326 86/50
AAXX 13064 03469 17984 /2609 10057 20045 39798 49801 53003 60042 723// 90550 333 20057 3/004 55/// 553// 20000 70042 83/58 90710 91135
AAXX 13064 03488 15550 /2430 10093 20054 39779 49804 50002 60062 90550 333 20054 70060 81/23 87/34 90710 91150 91043
AAXX 13064 03503 15767 /2511 10066 20011 39758 49833 51027 60252 90550 333 20042 3/002 70276 87/56 90710 91125 91021
AAXX 13064 03507 17678 /2108 10019 20016 39482 49850 51026 60212 721// 90550 333 20013 3/100 70240 83/37 84/63
AAXX 13064 03520 16780 /2406 10016 20007 39719 49839 50022 60162 90550 333 20015 3/101 55/// 553// 20000 70166 81/50 90710 91131
AAXX 13064 03522 17984 /2303 10026 20023 39753 49845 52031 60122 723// 90550 333 20026 3/100 70126 81/58 90710 91131
AAXX 13064 03529 17584 /2817 10047 20023 39802 49845 53030 60052 781// 90550 333 20047 3/003 70048 82/26 86/50 90710 91130 91027
AAXX 13064 03544 17584 /2618 10063 20030 39702 49830 53024 60062 723// 90550 333 20055 3/005 55/// 553// 20000 70062 83/27 85/34 90710 91130 91029
AAXX 13064 03560 15983 /2413 10077 20041 39721 49822 53006 60062 90550 333 20060 3/005 55/// 553// 20000 70058 8//99 90710 91131 91024
AAXX 13064 03604 16671 /2825 10064 20033 39797 49849 51019 60092 90550 333 20050 3/004 70150 81/36 85/50 90710 91142 91042
AAXX 13064 03605 16661 /2729 10077 20028 39845 49854 53020 60132 90550 333 20057 70200 81/36 83/50 90710 91141 91041
AAXX 13064 03609 16/// /2435 10079 20034 39806 49857 50023 60052 90550 333 20060 3/004 70064 90710 91141
AAXX 13064 03628 17680 /2618 10065 20030 39790 49861 53028 60142 723// 90550 333 20065 3/005 55015 55300 20000 70164 81/42 86/57 90710 91138
AAXX 13064 03647 16567 /2516 10056 20033 39585 49835 53014 60172 90550 333 20054 3/004 55/// 553// 20000 70178 82/22 90710 91139
AAXX 13064 03658 11680 32420 10082 20027 39781 49849 53014 60142 70161 81530 90550 333 20069 3/006 70136 81630 83361 90710 91130 91030
AAXX 13064 03660 15569 /2712 10071 20039 39602 49844 53006 60212 90550 333 20059 3/004 70210 81/25 85/60 90710 91132 91024
AAXX 13064 03672 13583 62612 10097 20061 39810 49849 53003 60242 868// 90550 333 20077 31007 70238 83825 85640 90710 91126
AAXX 13064 03684 17781 /2618 10088 20057 39736 49839 53006 60152 723// 90550 333 20062 3/005 70148 81/50 86/58 90710 91144
AAXX 13064 03693 16581 /2418 10113 20084 39846 49848 55002 60042 90550 333 20068 3/006 70036 82/29 87/50 90710 91132 91028
AAXX 13064 03707 17657 /2832 10042 20019 39876 49883 53030 60072 781// 90550 333 20041 3/004 70118 83/33 85/56 90710 91156 91056
AAXX 13064 03710 16478 /2820 10032 20024 39466 49881 53022 60182 90550 333 20030 3/002 55/// 553// 2//// 70228 81/10 83/37 85/50 90710 91140 91031
AAXX 13064 03743 16675 /2413 10076 20031 39710 49867 53024 60292 90550 333 20073 3/006 70294 84/42 90710 91127 91023
AAXX 13064 03749 13682 22518 10081 20031 39761 49868 53018 60232 81130 90550 333 20079 31006 70234 81830 90710 91131 91031
AAXX 13064 03761 11677 12421 10084 20035 39724 49864 53011 60212 70161 81530 90550 333 20070 31006 55053 55300 20000 70218 81630 90710 91136
AAXX 13064 03768 16679 /2616 10089 20043 39785 49862 53010 60192 90550 333 20074 3/006 70190 81/31 83/59 90710 91135
AAXX 13064 03769 17681 /2412 10099 20072 39785 49864 53004 60182 723// 90550 333 20079 3/006 55053 55300 20000 70184 81/37 85/56 90710 91125
AAXX 13064 03770 16/// ///// 10103 20076 60112 90550 333 20080 3/007 70112
AAXX 13064 03781 17782 /2421 10089 20050 39661 49862 53002 60192 723// 90550 333 20067 3/005 55/// 553// 20000 70188 86/56 83/61 90710 91135 91032
AAXX 13064 03797 17346 /2329 10107 20092 39805 49863 55006 60192 782// 90550 333 20071 3/006 55062 55300 20000 70188 81/09 86/18 90710 91139 91039
AAXX 13064 03823 17567 /2614 10046 20028 39659 49899 51022 60172 723// 90550 333 20038 3/002 55/// 553// 20000 70270 82/28 90710 91139
AAXX 13064 03839 16/// ///// 10072 20032 60142 90550 333 20063 55/// 553// 20000 70160
AAXX 13064 03857 17660 /2833 10098 20045 39825 49887 53017 60142 704// 90550 333 20091 3/008 70144 84/37 83/61 90710 91148
AAXX 13064 03862 15770 /2714 10085 20049 39870 49882 53017 60222 90550 333 20085 3/006 55037 55300 20000 70238 81/56 85/59
AAXX 13064 03866 16/// /2633 10110 20064 39858 49881 53007 60022 90550 333 20097 3/008 70022 90710 91147 91044
AAXX 13064 03872 17577 /2617 10097 20072 39871 49876 53004 60222 723// 90550 333 20090 3/008 55/// 553// 20000 70228 83/28 84/56 90710 91136
AAXX 13064 03876 16/// /2619 10108 20081 39875 49878 55002 60142 90550 333 20088 70144 90710 91143 91029
AAXX 13064 03895 41465 72724 10106 20069 49933 55000 72165 8287/ 333 20084 81812 87359 90710 91146 91035
AAXX 13064 03002 17448 /1431 10063 20049 39594 49612 58088 60072 762// 90550 333 20034 3/002 70078 85/10 87/28 90710 91147 91047
AAXX 13064 03008 16/// /2224 10054 20029 39529 49596 56046 60072 90550 333 20050 70072 90710 91133
AAXX 13064 03010 46/// /2424 10069 20023 49595 56029 333 90710 91137
AAXX 13064 03014 46/// /2121 10032 20011 49592 56071 90550 333 8//// 90710 91129
AAXX 13064 03031 17479 /2320 10022 21011 39311 49626 58022 60072 724// 90550 333 20007 3/100 55/// 553// 20000 70108 82/19 90710 91132 91032
AAXX 13064 03034 17559 /1918 10048 20013 39609 49622 56020 60042 781// 90550 333 20039 3/002 70062 81/26 83/36 90710 91131 91031
AAXX 13064 03037 17769 /2011 10038 20015 39607 49628 56026 60162 781// 90550 333 20029 3/001 70204 83/56 86/66 90710 91126 91021
AAXX 13064 03039 46/// /2033 11018 21018 90550 333 21022 90710 91149
AAXX 13064 03041 46/// ///// 11055 21057 90550 333 21055 90710 91154 91045
AAXX 13064 03044 15984 /2206 10019 20000 39524 49620 56017 60032 90550 333 20017 3/100 55/// 553// 20000 70058 81/61
AAXX 13064 03047 17384 /2110 10016 21007 39372 49666 57021 60172 741// 90550 333 20004 3/000 55/// 553// 20000 70206 83/07 86/59
AAXX 13064 03062 17982 /2011 10018 21002 39628 49633 58017 60032 723// 90550 333 20010 3/101 55/// 553// 20000 70050 87/59
AAXX 13064 03065 46/// /2338 11059 21066 90550 333 21061 90710 91156 91054
AAXX 13064 03068 11682 42309 10023 21008 39635 49643 56011 69962 70161 82532 90550 333 20022 31101 70006 82630 83362
AAXX 13064 03072 46/// ///// 11039 21042 90550 333 21039 91000
AAXX 13064 03080 15784 /2904 10013 21012 39491 49658 58008 60032 90550 333 20013 3/101 70030 81/50
AAXX 13064 03088 17564 /2317 10020 20006 39512 49671 55008 60042 721// 90550 333 20017 3/000 55/// 553// 20000 70044 82/24 90710 91131
AAXX 13064 03094 15984 /2015 10035 21002 39635 49640 57013 69962 90550 333 20021 3/001 70006 87/59
AAXX 13064 03105 17446 /2131 10034 20015 39671 49687 56016 60072 781// 90550 333 20030 3/002 70114 85/13 83/58 90710 91141 91041
AAXX 13064 03132 15674 /2328 10041 21003 39714 49727 58006 60082 90550 333 20039 3/002 70112 83/30 90710 91139 91038
AAXX 13064 03144 17684 /2607 10018 20001 39646 49688 56006 60072 723// 90550 333 20015 3/100 55/// 553// 20000 70100 81/41 83/47
AAXX 13064 03148 46/// /2121 11010 21010 90550 333 21017 90710 91140 91033
AAXX 13064 03153 15572 /2524 10049 21007 39595 49730 55002 60052 90550 333 20044 3/003 55/// 553// 20000 70070 82/29 90710 91137 91035
AAXX 13064 03155 16582 /2120 10016 21001 39419 49710 56007 60062 90550 333 20015 3/000 70078 84/26 84/50 90710 91128
AAXX 13064 03158 17684 /2219 10024 20008 39575 49709 56005 69942 741// 90550 333 20024 3/001 55/// 553// 20000 70004 81/41 86/56 90710 91133
AAXX 13064 03210 16667 /2428 10049 20002 39604 49751 52003 60102 90550 333 20042 3/003 70116 82/32 90710 91142 91038
AAXX 13064 03212 15671 /2513 10050 21012 39656 49753 51006 60142 90550 333 20050 3/003 70162 82/40 90710 91128 91024
AAXX 13064 03214 17769 /2522 10055 20016 39745 49763 52006 60082 723// 90550 333 20049 3/003 70086 83/50 90710 91138
AAXX 13064 03220 16580 ///// 10042 20012 39702 49736 55005 60032 90550 333 20037 3/002 70034 83/27 83/50
AAXX 13064 03224 17558 /2416 10025 20002 39398 49735 56007 60052 781// 90550 333 20021 3/001 70048 82/23 86/57 90710 91128
AAXX 13064 03225 16570 /2516 10036 21016 39458 49756 50001 60262 90550 333 20025 3/001 55/// 553// 20000 70282 81/27 85/50 90710 91130 91027
AAXX 13064 03226 17580 /2307 10026 20007 39484 49755 50005 60082 723// 90550 333 20024 3/001 70086 81/20 84/50 86/62 90710 91130
AAXX 13064 03230 16974 /2415 10027 20000 39480 49730 55001 60092 90550 333 20023 3/001 70090 86/59
AAXX 13064 03238 17770 /2411 10037 20002 39562 49731 50001 60062 723// 90550 333 20029 3/001 70066 81/50 90710 91126 91021
AAXX 13064 03261 11575 72218 10054 20003 39729 49769 52005 60072 72161 85832 90550 333 20033 31000 70068 81825 84650 87069 90710 91126
AAXX 13064 03265 17976 /2316 10058 20012 39736 49766 50004 60072 723// 90550 333 20039 3/002 70074 85/60 83/65 90710 91127
AAXX 13064 03266 11570 72420 10049 20016 39765 49782 53017 60092 7808/ 8383/ 90550 333 20046 31002 70090 83824 87364 90710 91139 91039
AAXX 13064 03275 15969 /2319 10042 20016 39564 49751 55010 60052 90550 333 20031 3/002 70050 85/66 90710 91128
AAXX 13064 03281 16/// /2314 10026 20026 60102 90550 333 20023 70104
AAXX 13064 03903 16981 /2215 10020 21002 39671 49728 58010 60022 90550 333 20010 3/000 55/// 553// 20000 70080 87/62 90710 91133
AAXX 13064 03904 17481 /2221 10022 21003 39651 49710 56015 60062 741// 90550 333 20012 3/000 70100 81/10 85/49 90710 91136 91032
AAXX 13064 03907 17377 /2121 10022 20005 39689 49696 56013 60062 724// 90550 333 20010 3/000 55000 55300 20000 70082 81/08 86/50 90710 91143
AAXX 13064 03911 16380 /2213 10005 21006 39461 49730 56003 60042 90550 333 20003 3/101 70102 84/06 86/50 90710 91126 91023
AAXX 13064 03915 16484 /1912 10017 20011 39639 49716 56008 60022 90550 333 20013 3/101 70074 85/13 85/19
AAXX 13064 03916 16312 /2508 10006 21001 39522 49709 55010 60032 90550 333 20005 3/100 55/// 553// 20000 70098 82/07 85/12 91020
AAXX 13064 03923 17309 /2514 10008 21005 39553 49746 53002 60032 786// 90550 333 20008 3/101 70088 84/06 84/14 90710 91129 91027
AAXX 13064 68024 32560 70505 10225 20197 48490 52014 83982 333 20204
AAXX 13064 68026 12560 70000 10215 20198 48448 53002 60014 86570 333 20200
AAXX 13064 68029 12560 50507 10227 20203 48492 52012 60244 82570 333 20195
AAXX 13064 68032 32560 60505 10240 20201 48490 52009 81580 333 20201
AAXX 13064 68038 12460 60305 10236 20212 48492 52015 60204 82580 333 10266 20202 30006 60000
AAXX 13064 68054 12960 50000 10217 20187 48506 53011 64008 85070 333 20178
AAXX 13064 68148 32960 41410 10246 20195 48496 52012 82082 333 20170
AAXX 13064 68226 32660 60215 10226 20146 48476 51008 82971 333 10192
AAXX 13064 68234 12960 53610 10229 20177 48485 52015 60014 83072 333 20181
AAXX 13064 68320 32960 63511 10248 20168 48483 52018 86080 333 20213
BBXX 51000 13061 99235 71541 46/// /0607 10222 40189 53009 90550 22200 00233 11106 20602 311// 41106 70030 333 91208 555 11070 22073 30450 40709 60549 063067 062074 061080 058070 061073 066075
BBXX 51003 13061 99193 71606 46/// /1005 10251 40151 53015 90550 22200 00259 10904 20401 3//// 40904 70020 333 91206 555 11049 22051 30458 41206 60549 102048 107046 114046 109046 105048 117052
BBXX 46042 13061 99368 71224 46/// /0802 10116 40107 52020 90550 22200 00120 11305 20401 328// 41305 70027 333 91203 555 11025 22026 30540 41303 60549 077024 077023 055019 045018 032019 027016
BBXX 46083 13061 99582 71380 46/// /3106 10042 20007 40090 53008 90550 22200 00064 11511 20603 300// 41511 70055 333 91209 555 11067 22071 30540 42910 60549 311064 277067 275063 279065 278070 272052 82908 90541
BBXX A8RL3 13061 99069 30828 41392 29902 10290 40100 52020 70200 821// 22213 00290 2//00 3//// 4//02 5////
BBXX MCCN6 13064 99260 31095 41498 31722 10225 20182 40117 58010 70300 8/200 22233 00222 20403 318// 41407 5//// 80198
BBXX DDIG2 13064 99368 70272 41598 52719 10170 20153 40270 54000 7//22 855// 22254 04170 20502 330// 41205 80160
BBXX C6KD5 13063 99366 70336 41597 82712 10195 20162 40286 56010 70380 8746/ 22224 02190 20301 327// 40605 5//// 80175
BBXX PCIH 13063 99300 70142 41497 60416 10190 20124 40250 53005 70322 22284 20403 304// 40904 80150
BBXX UCKG 13061 99670 10060 41/98 91106 10040 49800 57007 70222 22213 00090 20202 32800 40303
BBXX VRGJ6 13063 99361 70037 41998 02509 10152 20094 40248 57005 70200 80000 22224 04171 20101 325// 40402 5//// 80122
BBXX UGGA 13061 99691 10408 41/98 92210 10050 40042 54000 70222 89/// 22231 20403
BBXX PDHW 13063 99539 10078 41/98 /1845 10070 20038 49870 57050 76288 8//// 22200 00070 2//// 80055
BBXX DGOS 13063 99361 70307 41297 82519 10180 20158 40290 54000 70222 8577/ 22231 299// 80166
BBXX UCKA 13061 99560 10167 41998 22412 10059 40035 57009 70200 80008 22213 00080 20605
BBXX A8PX4 13064 99336 10249 41/98 82110 10172 20102 40228 53008 70222 8111/ 22264 00199 2//// 80132
BBXX MGSM5 13063 99561 10112 41298 82540 10055 20043 49926 57035 70322 877// 22253 04060 20401 324// 40603 5//// 80050
AAXX 13064 70026 NIL
AAXX 13064 70133 NIL
AAXX 13064 70174 NIL
AAXX 13064 70200 NIL
AAXX 13064 70219 NIL
AAXX 13064 70231 NIL
AAXX 13064 70261 NIL
AAXX 13064 70267 NIL
AAXX 13064 70271 NIL
AAXX 13064 70273 NIL
AAXX 13064 70308 NIL
AAXX 13064 70316 NIL
AAXX 13064 70326 NIL
AAXX 13064 70340 NIL
AAXX 13064 70350 NIL
AAXX 13064 70361 NIL
AAXX 13064 70381 NIL
AAXX 13064 70398 NIL
AAXX 13064 70414 NIL
BBXX WBN3015 13064 99246 70693 41/// /0306 10244 2//// 40125 51003 7//// 8//// 22272 0//// 20604 30436 40803 50502 6//// 8//// ICE /////
BBXX PHSG 13064 99124 70722 41/98 30418 10280 40110 56010 71322 82110 22264 00270 20402
BBXX V7MO2 13064 99262 70914 41/97 /0917 10223 20182 40235 57004 7//// 8//// 22200 00210 20302 305// 40604 5//// 6//// 80196 ICE /////
BBXX WE4805 13064 99469 70853 41/97 82414 10033 2//// 40254 54000 76006 88/// 22273 00050 20101 3//// 4//// 5//// 6//// 8//// ICE /////
BBXX KAOU 13064 99078 10984 43/// /0306 10279 20199 40100 5//// 7//// 8//// 222// 04294 2//// 3//// 4//// 5//// 6//// 8//// ICE /////
BBXX NWS0003 13064 99592 71679 43/// /1222 10018 20002 49993 5//// 7//// 8//// 222// 04014 2//// 3//// 4//// 5//// 6//// 8//// ICE /////
BBXX NWS0029 13064 99173 70278 43/// /0723 10233 20175 40157 5//// 7//// 8//// 222// 04248 2//// 3//// 4//// 5//// 6//// 8//// ICE /////
BBXX WRAH 13063 99258 10353 41997 03424 10230 2//// 40151 53028 70200 80/// 22274 00245 20304 332// 40605 5//// 6//// 8//// ICE /////
BBXX PCHM 13064 99388 31783 41597 30330 10180 20172 40200 53010 70222 82556 22214 00160 20202 30000 80175
BBXX C6DM2 13064 99080 10987 41999 30104 10310 20242 40100 56010 7//00 8282/ 22200 0//// 2//// 3//// 4//// 5//// 6//// 80260 ICE /////
BBXX C6FY5 13064 99000 50421 41498 20917 10240 2020/ 40110 54/// 7//00 821// 22273 04280 2//// 309// 40604 5//// 6//// 80210 ICE /////
BBXX C6VV8 13063 99189 70673 41/// /0305 10230 2022/ 40140 5/020 7//// 8//// 222// 0//// 2//// 3//// 4//// 5//// 6//// 80220 ICE /////
BBXX NWS0020 13064 99361 10204 43/// /2314 10173 20120 40203 5//// 7//// 8//// 222// 04204 2//// 3//// 4//// 5//// 6//// 8//// ICE /////
BBXX C6XP7 13063 99181 70645 41298 20909 10260 20246 40120 7//00 811// 22224 00260 20401 325// 4//// 5//// 6//// 80250 ICE /////
BBXX WNBE 13064 99210 71562 41/// /0902 10230 2//// 40170 5//// 7//// 8//// 222// 0//// 2//// 3//// 4//// 5//// 6//// 8//// ICE /////
BBXX WFLH 13063 99264 71412 43498 80611 10194 20120 40244 52009 7//// 887// 22254 00200 20901 3//// 4//// 5//// 6//// 80150 ICE /////
BBXX C6XC2 13064 99034 11237 41498 70311 10280 20253 40080 57020 70252 86998 22243 00300 20201 3//// 4//// 5//// 6//// 80260 ICE /////
BBXX VRHO2 13064 99526 11777 41697 43240 10040 20017 49770 52060 78166 84900 22263 00050 20612 33232 40512 50612 6//// 80030 ICE /////
BBXX LAVW4 13064 99421 70115 41696 82534 00/// 10165 2014/ 40145 54000 70221 888// 22253 00146 21612 325// 41712 5//// 6////
BBXX C6SW3 13064 99192 10394 41899 13103 10260 20246 40130 52010 7//11 81440 22234 00280 21001 3//// 41001 51001 65/// 80250 ICE /////
BBXX PBIG 13064 99097 70815 41498 33219 10250 20211 40090 54000 7//// 8/1// 22263 20204 80224
BBXX WXJ63 13063 99611 71464 41/96 83503 10002 21003 40012 51/// 761// 8//// 222// 00048 2//// 3//// 4//// 5//// 6//// 8//// ICE /////
AAXX 13064 08589 31440 30318 10227 20210 40136 70500 81501 333 20220 58010 8/615 83070
AAXX 13061 06414 16/// /2111 10103 20077 39874 49906 55028 60082 333 20064 91122 91215
AAXX 13061 06459 16/// /1912 10068 20064 39766 49955 56037 60062 333 20052 3/003 91123 91214
AAXX 13061 06494 16/// /2011 10023 20019 39201 49996 55031 60012 333 20005 91121 91213
BBXX C6VV8 13063 99189 70673 41/// /0305 10230 2022/ 40140 5/020 7//// 8//// 222// 0//// 2//// 3//// 4//// 5//// 6//// 80220 ICE /////
BBXX WKWB 13064 99324 71188 41498 71701 10117 2009/ 40099 57015 70222 87440 22272 00151 20100 330// 41504 80107
BBXX PHBO 13063 99264 70449 41598 50925 10236 20170 40234 58021 70311 84260 22254 20605 309// 41004 80195
BBXX DQVG 13063 99350 71656 41196 82327 10185 20177 40081 53010 78166 8/6// 22264 00193 20708 329// 41206 5//// 80180
BBXX DDJS2 13063 99391 71467 41598 70405 10122 20082 40236 50002 70222 874// 22224 00150 2//// 3//// 4//// 5//// 80102
BBXX WSRL 13064 99418 71249 41498 10122 10090 2005/ 40115 56025 7//00 811// 22245 00089 2//// 3//// 4//// 5//// 6//// 80070 ICE /////
BBXX 3FBC9 13064 99255 71498 41697 60923 10210 40185 51012 70322 85895 9//// 22223 00240 20306 309// 40607 5//// 6//// 80200
BBXX PDXQ 13063 99318 70686 41296 63430 10203 20200 40194 54000 75055 8/7// 22222 04243 21008 303// 40809 80201
BBXX C6JT 13063 99413 70617 41/98 41410 10085 2003/ 40320 54000 70311 8//// 22225 20201 3//// 4//// 80060
BBXX WDF4764 13064 99369 71230 41997 00212 10111 2008/ 40120 52020 7//00 80000 22233 0//// 20302 334// 40706 5//// 6//// 80094 ICE /////
BBXX SHIP 13064 99370 71553 41/97 81917 10170 20137 40195 52011 70222 8//// 90555 22224 00160 1//// 2//// 3//// 4//// 5//// 6//// 80150
BBXX CGDX 13064 99468 70712 46/// /3301 11002 21031 40285 57008 7//// 8//// 22200 0//// 2////
BBXX VXKF 13064 99467 70598 46/// /2909 10031 21014 40284 58016 7//// 8//// 22212 0//// 2////
BBXX CG2958 13064 99491 71233 46/// /1004 10036 20008 40213 56005 7//// 8//// 22200 0//// 2////
BBXX CGDG 13064 99447 70636 46/// /2102 10031 20045 40302 58010 7//// 8//// 22200 0//// 2////
BBXX CGJK 13064 99484 71234 46/// /0106 10005 21017 40200 56010 7//// 8//// 22200 0//// 2////
BBXX CGBN 13064 99447 70636 46/// /1902 10045 20031 40288 58010 7//// 8//// 22200 0//// 2////
BBXX VCWL 13064 99468 70712 46/// /0000 11003 21033 40285 57008 7//// 8//// 22200 0//// 2////
BBXX CGJV 13064 99456 70612 46/// /0102 10019 20013 40298 56011 7//// 8//// 22200 0//// 2////
BBXX CGSB 13064 99468 70712 46/// /3402 11004 21032 40286 58007 7//// 8//// 22200 0//// 2////
BBXX CGDT 13064 99490 70669 46/// /0707 11021 21033 40282 52002 7//// 8//// 22200 0//// 2////
BBXX CGBY 13064 99487 71235 46/// /3103 10009 21021 40204 56007 7//// 8//// 22200 0//// 2////
BBXX VCBW 13064 99507 70592 46/// /2907 11076 21129 40290 53006 7//// 8//// 22200 0//// 2////
BBXX CG2965 13064 99487 71235 46/// /3105 10017 21014 40206 56007 7//// 8//// 22200 0//// 2////
BBXX VCSZ 13064 99455 70735 46/// /1602 10006 20001 40280 58005 7//// 8//// 22200 0//// 2////
BBXX VAAZ 13064 99535 70522 46/// /2732 11061 21091 40167 52008 7//// 8//// 22271 0//// 2////
BBXX CGBR 13064 99541 71304 46/// /1118 10027 20027 40139 58009 7//// 8//// 22251 00069 2////
BBXX VAAP 13064 99461 70602 46/// /1503 11010 21012 40287 58011 7//// 8//// 22200 0//// 2////
BBXX CZ9742 13064 99506 70969 46/// /2204 11153 21167 40317 57008 7//// 8//// 22200 0//// 2////
BBXX VOPP 13064 99456 70735 46/// /2004 10007 21026 4//// 5//// 7//// 8//// 22200 0//// 2////
BBXX VOKJ 13064 99476 70594 46/// /1909 10026 21010 40286 58002 7//// 8//// 22264 0//// 2////
BBXX CGTF 13064 99476 70527 46/// /1903 10004 21038 40295 51018 7//// 8//// 22200 0//// 2////
BBXX CGDR 13064 99505 71276 46/// /0105 10023 20022 40179 58017 7//// 8//// 22200 0//// 2////
BBXX VCRG 13064 99474 70619 46/// /2403 10027 21003 40293 58006 7//// 8//// 22200 0//// 2////
BBXX VCLM 13064 99621 70747 46/// /2210 11134 21170 40153 53003 7//// 8//// 22200 0//// 2////
BBXX C6SW3 13064 99192 10394 41899 13103 10260 20246 40130 52010 7//11 81440 22234 00280 21001 3//// 41001 51001 65/// 80250 ICE /////
BBXX DBLK 13061 99589 30000 41195 82914 11002 21002 49929 57014 72454 886// 22242 05018 ICE 35692
BBXX BATFR19 13064 99007 30088 46/// /1311 10250 20235 40114 53005 22200 00274
BBXX BATFR05 13064 99061 10013 46/// /3507 10222 20169 40117 53010 22200 00257
BBXX BATEU00 13064 99535 30159 46/// /3119 11013 21043 40134 56029 22242
BBXX WRAH 13063 99258 10353 41997 03424 10230 2//// 40151 53028 70200 80/// 22274 00245 20304 332// 40605 5//// 6//// 8//// ICE /////
BBXX BATFR55 13064 99125 30505 44598 41716 10275 20234 40121 70311 83141 22232 00280 208// 30000 412// 512//
BBXX OXBB2 13061 99296 70334 41697 70906 10180 20148 40290 50/// 75851 87777 22225 00200 20102 80160
BBXX C6FY5 13064 99000 50421 41498 20917 10240 2020/ 40110 54/// 7//00 821// 22273 04280 2//// 309// 40604 5//// 6//// 80210 ICE /////
BBXX A8DE3 13064 99293 50729 41398 81814 10162 20136 40202 51003 70222 884// 22283 00180 2//// 80146
BBXX ONAI 13064 99015 50391 41797 21026 10265 2023/ 40080 57020 70200 82100 22234 00282 2//// 3//// 4//// 5//// 6//// 80240 ICE /////
BBXX WCX7445 13064 99645 50626 43/// /3327 10024 2//// 49674 5//// 7//// 8//// 22272 00001 2//// 3//// 4//// 5//// 6//// ICE /////
BBXX VRHO2 13064 99526 11777 41697 43240 10040 20017 49770 52060 78166 84900 22263 00050 20612 33232 40512 50612 6//// 80030 ICE /////
BBXX DQXQ 13064 99256 11206 41297 80332 10173 20135 40193 58015 70222 8672/ 22213 00200 20608 306// 41010 80150
BBXX DCCP2 13060 99144 11180 41/96 70407 10270 20254 40080 57025 78122 85770 22214 00280 29904 30100 40708 5//// 80258
BBXX OVYB2 13061 99137 10708 41598 60308 10298 20225 40150 50003 70322 83141 22244 00300 20301 30000 4//// 5//// 80248
BBXX C6DM2 13064 99080 10987 41999 30104 10310 20242 40100 56010 7//00 8282/ 22200 0//// 2//// 3//// 4//// 5//// 6//// 80260 ICE /////
BBXX C6OT4 13064 99267 11724 41398 22211 10241 20209 40182 53011 70100 81105 22223 04254 20904 305// 41204 5//// 80220
BBXX ONFE 13064 99109 11116 41598 70420 10260 2023/ 40100 54000 75252 86/7/ 22213 00260 20908 321// 40804 5//// 6//// 80240 ICE /////
BBXX C6SI6 13064 99356 11410 46/// /0609 10111 20028 40254 53002 7//// 8//// 22253 0//// 2////
BBXX 3FZK3 13064 99529 11767 46/// /3037 10007 21053 49775 58019 7//// 8//// 22223 0//// 2////
BBXX 46070 13061 99551 11753 46/// /3211 10003 21041 49802 58008 90550 22200 00041 10805 20703 3//// 40804 70024 333 91213 555 11117 22123 30545 43313 60549 321108 317104 334098 349075 340101 336089 83212 90549
BBXX UFTA 13061 99851 71230 11597 80000 11256 21284 49995 53003 69922 70272 885// 555 48045
BBXX WNBE 13064 99210 71562 41/// /0902 10230 2//// 40170 5//// 7//// 8//// 222// 0//// 2//// 3//// 4//// 5//// 6//// 8//// ICE /////
BBXX WKAP 13063 99367 70668 41398 70619 10140 2011/ 40285 57015 7//22 87210 22214 00220 20503 306// 40503 5//// 6//// 80120 ICE /////
BBXX WRYD 13064 99380 70640 41597 80919 10160 2013/ 40237 57048 71222 886// 22224 00215 20205 312// 41003 5//// 6//// 80140 ICE /////
BBXX J8PE4 13063 99208 70690 414// 60514 10290 2019/ 40150 50010 70311 86188 22274 00280 20503 305// 40302 5//// 6//// 80220 ICE /////
BBXX WFLH 13063 99264 71412 43498 80611 10194 20120 40244 52009 7//// 887// 22254 00200 20901 3//// 4//// 5//// 6//// 80150 ICE /////
BBXX PBIG 13064 99097 70815 41498 33219 10250 20211 40090 54000 7//// 8/1// 22263 20204 80224
BBXX 41113 13061 99284 70805 46/// ///// 1//// 90551 22200 00222 10903 20903 311// 41101 70015
BBXX 44100 13061 99363 70756 46/// ///// 1//// 90552 22200 00137 10803 20803 70013
BBXX 41115 13061 99184 70673 46/// ///// 1//// 90535 22200 11102 20901 302// 41101 70009
BBXX 42099 13061 99273 70842 46/// ///// 1//// 90557 22200 00236 10603 20603 70016
BBXX 46219 13061 99332 71199 46/// ///// 1//// 90558 22200 00139 11405 21003 329// 41404 70027
BBXX 46214 13061 99379 71235 46/// ///// 1//// 90557 22200 00114 11307 21004 331// 41305 70034
BBXX 46224 13061 99332 71175 46/// ///// 1//// 90536 22200 00149 11402 20401 322// 41401 70009
BBXX 46239 13061 99363 71221 46/// ///// 1//// 90551 22200 00131 11305 21003 331// 41304 70027
BBXX 46238 13061 99334 71195 46/// ///// 1//// 90550 22200 00151 11304 20802 328// 41303 70018
BBXX 51205 13061 99210 71564 46/// ///// 1//// 90548 22200 00241 11006 21005 309// 41103 70031
BBXX 44099 13061 99369 70757 46/// ///// 1//// 90552 22200 00129 10802 20802 70010
BBXX 44098 13061 99428 70702 46/// ///// 1//// 90537 22200 00093 10402 20402 70008
BBXX 46218 13061 99345 71208 46/// ///// 1//// 90602 22200 00145 11406 21004 330// 41405 70031
BBXX 46236 13061 99368 71219 46/// ///// 1//// 90550 22200 00126 11305 21003 328// 41304 70023
BBXX 46225 13061 99329 71174 46/// ///// 1//// 90544 22200 00157 11402 20401 323// 41402 70012
BBXX 46229 13061 99438 71246 46/// ///// 1//// 90551 22200 00105 11304 20803 329// 41302 70020
BBXX 46232 13061 99325 71174 46/// ///// 1//// 90538 22200 00144 11503 20401 326// 41502 70013
BBXX 46215 13061 99352 71209 46/// ///// 1//// 90538 22200 00164 11304 21002 328// 41303 70020
BBXX 44008 13061 99405 70692 46/// /0301 10117 20095 40289 58017 90550 22200 00121 11102 20401 310// 41102 70009 333 91202 555 11012 22013 30450 40302 60549 027012 038007 078006 180001 180001 338003
BBXX 46089 13061 99459 71258 46/// /0607 10066 20024 40182 56010 90550 22200 00096 11104 20502 331// 41103 70018 333 91208 555 11071 22075 30450 40609 60549 054068 051069 060072 058075 063075 064077
BBXX 44011 13061 99411 70666 46/// /1405 10099 20039 40300 56022 90550 22200 00099 11002 20301 3//// 41002 70009 333 91206 555 11053 22057 30506 43107 60549 141050 138051 136054 135056 135056 131051
BBXX 41046 13061 99238 70683 46/// /0505 10247 20212 40143 57009 90550 22200 00261 11205 20401 300// 41204 70023 333 91206 555 11050 22052 30549 40506 60549 052048 054047 054042 048034 ////// ////// 80505 90550
BBXX C6XP7 13063 99181 70645 41298 20909 10260 20246 40120 5/// 7//00 811// 22224 00260 20401 325// 4//// 5//// 6//// 80250 ICE /////
BBXX WDC3786 13064 99319 71193 41498 81009 10113 2008/ 40100 52005 75022 885// 22224 0//// 20301 330// 40504 5//// 6//// 80097 ICE /////
BBXX 44007 13061 99435 70701 46/// /2606 10050 21031 40272 58008 90550 22200 00083 10502 20502 70009 333 91207 555 11062 22064 30514 42407 60549 255060 249060 244061 240062 240060 242058
BBXX 46041 13061 99474 71247 46/// /1104 10051 40187 56011 90550 22200 00076 11003 3//// 41003 70013 333 91206 555 11045 22046 30540 41006 60549 109043 098033 094034 082030 081027 071028
BBXX 46026 13061 99378 71228 46/// /3603 10105 40110 51015 90550 22200 00113 11204 20301 331// 41204 70022 333 91204 555 11029 22030 30515 42705 60549 344027 288031 292032 290035 290030 290031
BBXX 46061 13061 99602 71468 46/// /2303 10033 40018 51023 90550 22200 00061 11205 20401 300// 41205 70027 333 91206 555 11033 22034 30546 42406 60549 225031 199019 196014 175014 184021 192024
BBXX 46082 13061 99597 71434 46/// ///// 10046 20046 40047 51019 90550 22200 00063 11410 70048
BBXX 41040 13061 99145 70530 46/// /0809 10266 20238 40123 56015 90550 22200 00278 10806 20804 3//// 41004 70028 333 91211 555 11092 22098 30452 41011 60549 084088 088090 086091 087094 088091 088093 80910 90521
BBXX 51101 13061 99243 71621 46/// /0809 10235 20190 40193 52016 90550 22200 00243 11106 20604 310// 41105 70031 333 91211 555 11097 22103 30511 40712 60549 074090 071095 071092 073098 066088 070086
BBXX 46072 13061 99517 71722 46/// /1614 10051 20032 49624 58021 90550 22200 00052 11418 20810 3//// 41415 70091 333 91218 555 11149 22159 30508 41621 60549 164139 162138 160143 161147 160148 157152 81617 90513
BBXX 42057 13061 99168 70815 46/// /0411 10276 20229 40142 58010 90550 22200 00282 10703 20703 70017 333 91212 555 11109 22116 30532 40313 60549 041109 036106 036103 044104 042102 039097 80412 90533
BBXX 46035 13061 99571 71778 46/// /0814 1//// 49805 57036 90550 333 91217 555 11135 22144
BBXX 41010 13061 99289 70785 46/// /0708 10226 40231 58004 90550 22200 00241 10905 20703 300// 40904 70025 333 91210 555 11086 22090
BBXX 41009 13061 99285 70802 46/// /0710 10235 20187 40232 50000 90550 22200 00253 10906 20704 300// 40904 70028 333 91212 555 11106 22112
BBXX 46077 13061 99579 71543 46/// /2808 10024 21042 40065 52007 90550 22200 00053 11103 20502 3//// 41102 70014 333 91209 555 11080 22084 30516 42810 60549 278076 277079 280078 282078 278079 282081 82809 90516
BBXX PDHY 13063 99471 70436 41/97 82811 10030 21021 40239 58020 7//22 8//// 22223 04070 2//// 325// 40905 5//// 80010
BBXX V7MO2 13064 99262 70914 41/97 /0917 10223 20182 40235 57004 7//// 8//// 22200 00210 20302 305// 40604 5//// 6//// 80196 ICE /////
BBXX BAREU06 13064 99411 70428 46/// ///// 40313 52001 22274
BBXX BATFR13 13064 99279 70479 44/98 01220 10229 20182 40240 58003 70000 22214 00249 20402
BBXX BAREU00 13064 99419 70665 46/// ///// 40298 57015 22213
BBXX BAREU54 13064 99143 70753 46/// ///// 40115 57016 22253
BBXX BAREU08 13064 99200 70656 46/// ///// 40136 57011 22214
BBXX 46025 13061 99337 71191 46/// /1104 10125 20097 40093 53016 90550 22200 00151 11402 20401 314// 41402 70010 333 91205 555 11039 22041 30459 40907 60549 107038 107040 106045 103044 092048 094050
BBXX 46028 13061 99357 71219 46/// /1104 10118 40097 53020 90550 22200 00131 11306 20401 329// 41306 70028 333 91207 555 11044 22045 30549 41207 60549 109042 101038 108030 105034 094034 103030
BBXX 46054 13061 99342 71204 46/// /1305 10121 40097 51015 90550 22200 00142 333 91206 555 11047 22049
BBXX 46050 13061 99442 71246 46/// /0705 10068 40161 57006 90550 22200 00103 11103 20502 330// 41103 70016 333 91207 555 11056 22058 30452 40607 60549 069052 070050 072052 070053 075045 068055
BBXX 42012 13061 99301 70876 46/// /0507 10146 20130 40270 58005 90550 22200 00191 10502 20502 314// 40601 70009 333 91208 555 11069 22072 30513 40509 60549 050066 045068 046069 043074 036073 035069
BBXX 46105 13061 99590 71522 46/// ///// 1//// 90550 22200 10605 70024
BBXX 41060 13061 99148 70510 46/// ///// 1//// 90550 22200 11006 70030
BBXX 42035 13061 99292 70944 46/// /0806 10163 20162 40252 55000 90550 22200 00156 10502 20502 314// 40801 70010 333 91207 555 11063 22069 30512 40808 60549 083059 083063 082061 083065 088063 090059
BBXX 42058 13061 99149 70749 46/// /0607 10275 20234 40115 58011 90550 22200 00279 10703 20602 308// 40702 70014 333 91208 555 11073 22078 30510 40709 60549 063069 062069 068071 062072 069070 068070 80608 90550
BBXX 41001 13061 99347 70727 46/// ///// 10198 20118 40252 58014 90550 22200 00221 10805 70023
BBXX 41048 13061 99320 70696 46/// /0210 10212 20163 40197 57017 90550 22200 00228 10906 20604 3//// 40905 70032 333 91212 555 11100 22105 30531 40212 60549 019099 021099 023106 026102 024100 025102 80211 90527
BBXX 42065 13061 99149 70750 46/// /0606 10271 20242 90550 22200 10703 20302 3//// 40702 70014 333 91207 555 11064 22068 30511 40608 60549 060061 064064 066065 061065 062062 059068 80607 90512
BBXX 42020 13061 99270 70967 46/// /1408 10237 20185 40219 52005 90550 22200 00240 10503 20503 70015 333 91210 555 11090 22095 30510 41111 60549 135084 131086 126086 117089 118090 118091
BBXX 42001 13061 99259 70897 46/// /0709 10235 20185 40243 57003 90550 22200 00244 10804 20804 70022 333 91211 555 11098 22104 30506 40612 60549 066093 063094 065093 066096 066095 066095
BBXX 41012 13061 99300 70805 46/// /0707 10230 40247 58003 90550 22200 00235 10904 20503 310// 40904 70022 333 91209 555 11073 22077 30525 40810 60549 069070 072077 077079 073081 071077 068078
BBXX 41049 13061 99275 70630 46/// /1604 10243 20218 40144 58012 90550 22200 00248 10905 20401 300// 40905 70026 333 91205 555 11044 22046 30459 41606 60549 159042 160043 162041 164044 160045 160047 81605 90458
BBXX 41044 13061 99217 70587 46/// /1407 10260 20219 40140 58013 90550 22200 00267 11005 20503 300// 41004 70025 333 91209 555 11075 22079 30457 41409 60549 139071 140067 137068 140070 142068 143073 81408 90454
BBXX 44027 13061 99443 70673 46/// /2208 10080 20038 40271 58013 90550 22200 00090 10703 20502 3//// 40702 70013 333 91209 555 11080 22084 30514 42209 60549 219075 219076 223070 222073 225072 221074
BBXX 44020 13061 99414 70702 46/// /1802 10085 20059 40288 58019 90550 22200 00094 1//00 70002 333 91203 555 11024 22026 30511 42504 60549 191024 260023 258027 258030 260031 258028
BBXX 41004 13061 99325 70791 46/// /0109 10165 20139 40278 58007 90550 22200 00217 10903 20603 3//// 40902 70017 333 91211 555 11097 22101 30506 40212 60549 014091 016092 016091 021094 023096 024093
BBXX 44014 13061 99366 70748 46/// /0104 1//// 40290 58008 90550 22200 00148 10603 20401 310// 40603 70014 333 91204 555 11035 22035 30452 43605 60549 008035 013032 001035 004035 003036 001040
BBXX 41008 13061 99314 70809 46/// /0208 10143 20133 40278 54000 90550 22200 00168 10703 20703 300// 40902 70016 333 91210 555 11089 22093 30450 40311 60549 023085 024083 034084 027081 024081 025085
BBXX 46001 13061 99563 71480 46/// /2707 10046 40098 51007 90550 22200 00049 11209 20604 300// 41208 70045 333 91209 555 11075 22079 30539 42609 60549 268069 269071 273070 271066 264073 267073
BBXX 44009 13061 99385 70747 46/// /3505 10090 40317 58005 90550 22200 00123 10902 20401 300// 40901 70008 333 91206 555 11053 22055 30458 43508 60549 345052 352054 352057 350060 346063 347062
BBXX 41013 13061 99334 70777 46/// /0209 10150 20133 40274 57005 90550 22200 00208 10703 20703 312// 41202 70017 333 91212 555 11097 22101 30459 40212 60549 020093 017095 020098 019098 018100 020099
BBXX 44025 13061 99402 70732 46/// /2706 10076 20024 40302 58010 90550 22200 00115 10801 311// 40801 70005 333 91207 555 11061 22063 30549 42707 60549 270059 269054 272050 268052 269049 269049
BBXX 44065 13061 99404 70737 46/// /2706 10057 21036 40306 58010 90550 22200 00095 10801 312// 40801 70005 333 91207 555 11061 22063 30548 42707 60549 267058 258053 260052 265048 271047 273045 82706 90549
BBXX 41043 13061 99211 70650 46/// /0402 10252 20218 40138 58005 90550 22200 00270 11104 20401 300// 41104 70020 333 91203 555 11015 22016 30545 40403 60549 034014 030011 031013 030014 037013 048018 80802 90452
BBXX 41036 13061 99342 70770 46/// ///// 10141 20112 40281 56007 90550 22200 00210 10903 70016
BBXX 44066 13061 99396 70726 46/// /3304 10098 20075 40296 58008 90550 22200 00132 10901 20401 3//// 40901 70007 333 91205 555 11045 22046 30545 43305 60549 332043 331038 336035 351036 344033 348028
BBXX 41047 13061 99275 70715 46/// /0310 10232 40185 58008 90550 22200 00253 11107 20604 308// 41105 70033 333 91213 555 11102 22107 30545 40213 60549 031100 032096 033097 036094 030092 029097 80311 90546
BBXX 42002 13061 99258 70937 46/// /1008 1//// 40229 54000 90550 22200 00246 333 91210 555 11084 22089
BBXX 42055 13061 99222 70940 46/// /0807 10251 20207 40207 50003 90550 22200 00252 10503 20503 304// 40801 70015 333 91209 555 11079 22084 30516 40609 60549 076072 069071 069075 061076 064075 063073 80608 90513
BBXX 42003 13061 99260 70856 46/// /0407 1//// 90550 22200 10603 20603 70013 333 91209 555 11074 22078 30535 40409 60549 040069 042072 039074 047072 052071 048074 80308 90527
BBXX 9HA2583 13064 99387 70731 41797 63314 10114 2//// 40310 57100 70211 86246 22245 04163 2//// 3//// 4//// 5//// 6//// 8//// ICE /////
BBXX WBN3015 13064 99246 70693 41/// /0306 10244 2//// 40125 51003 7//// 8//// 22272 0//// 20604 30436 40803 50502 6//// 8//// ICE /////
BBXX HO7723 13064 99260 70782 41797 40719 10230 2021/ 40200 54000 70200 84/85 22273 00270 20304 30809 40405 50304 6//// 80215 ICE /////
BBXX 9HA2064 13063 99362 71317 41697 73120 10120 20083 40220 56020 7//22 87473 22224 0//// 2//// 3//// 4//// 5//// 6//// 80100 ICE /////
BBXX PHSG 13064 99124 70722 41/98 30418 10280 40110 56010 71322 82110 22264 00270 20402
BBXX 46012 13061 99374 71229 46/// /0104 10114 40109 51015 90550 22200 00122 11206 20301 331// 41206 70032 333 91206 555 11046 22048 30500 43508 60549 008044 011047 010048 359053 354057 354057
BBXX 46087 13061 99485 71247 46/// /0805 10051 21012 40196 90550 22200 00078 333 91206 555 11051 22053
BBXX 46069 13061 99337 71202 46/// /0000 10117 40099 53017 90550 22200 00133 11405 20401 329// 41405 70026 333 91202 555 11005 22005 30531 41803 60549 185006 197013 201007 215007 211009 199002
BBXX 46086 13061 99325 71180 46/// /1201 10136 40100 52009 90550 22200 00157 11503 20401 328// 41503 70014 333 91202 555 11013 22014 30509 41603 60549 122012 125014 161014 168018 154016 197011
BBXX 46053 13061 99342 71198 46/// /1306 10124 90550 555 11061 22065
BBXX 46029 13061 99461 71245 46/// /0606 10056 20008 40177 56011 90550 22200 00075 333 91207 555 11060 22062 30534 40708 60549 064058 069066 065064 060061 056058 058055
BBXX 46013 13061 99382 71233 46/// /3305 10104 40109 51014 90550 22200 00108 11205 20401 3//// 41205 70023 333 91206 555 11049 22051 30529 43306 60549 330046 334046 332045 334042 337042 336043
BBXX 46011 13061 99350 71210 46/// /1205 10115 40099 51017 90550 22200 00134 11405 20401 331// 41405 70025 333 91206 555 11048 22050 30541 41107 60549 116047 121046 119041 119039 113033 094032
BBXX 46047 13061 99324 71195 46/// /2601 10124 40101 53012 90550 22200 00139 11504 20301 328// 41504 70018 333 91201 555 11007 22007 30452 42502 60549 254006 225008 225012 234010 222015 242016
BBXX 46014 13061 99394 71240 46/// /3201 10099 40118 53011 90550 22200 00106 11106 20401 3//// 41106 70028 333 91202 555 11010 22010 30522 43104 60549 319011 309021 303029 311025 310026 303031
BBXX 46088 13061 99483 71232 46/// /0802 10045 40196 90550 22200 00078 1//00 70001 333 91203 555 11025 22025 30537 40904 60549 085024 091031 089028 082023 087019 067011
BBXX 46027 13061 99419 71244 46/// /0302 10089 40121 51013 90550 22200 00093 10805 20401 332// 40805 70025 333 91203 555 11020 22020 30500 43304 60549 028019 018022 353024 003025 349030 328029
BBXX NWS0022 13064 99416 70714 43/// /2405 10047 20013 40289 5//// 7//// 8//// 222// 04131 2//// 3//// 4//// 5//// 6//// 8//// ICE /////
BBXX 44005 13061 99432 70691 46/// /2308 10076 20006 40272 58013 90550 22200 00089 10602 20602 3//// 41101 70012 333 91209 555 11082 22086 30512 42309 60549 225077 228075 231072 230078 226074 227073
BBXX 42040 13061 99292 70882 46/// /0808 10183 40263 58006 90550 22200 00224 10703 20703 70014 333 91210 555 11080 22084 30458 40811 60549 079080 078078 080083 082080 076075 075084
BBXX 42059 13061 99151 70675 46/// /0706 10277 20233 40118 58012 90550 22200 00286 11002 20401 3//// 41002 70010 333 91206 555 11058 22061 30520 40807 60549 075055 078055 082054 082053 081051 083051 80806 90532
BBXX 42019 13061 99279 70954 46/// /1308 10225 20193 40228 52005 90550 22200 10503 20503 70014 333 91210 555 11089 22095 30452 42811 60549 136083 281084 281083 280084 282083 279085
BBXX 42060 13061 99163 70635 46/// /0803 10272 20221 40126 58012 90550 22200 00283 11102 20401 300// 41102 70010 333 91204 555 11029 22030 30511 40805 60549 079028 079030 066031 082034 077037 084039 80904 90455
BBXX 42056 13061 99198 70849 46/// /0509 10268 20220 40172 58009 90550 22200 00274 10704 20704 70018 333 91211 555 11099 22105 30534 40511 60549 044092 047090 051088 054082 054080 052086 80410 90546
BBXX 42036 13061 99285 70845 46/// /0409 10178 20164 40252 53005 90550 22200 00217 10603 20603 70016 333 91210 555 11092 22096 30520 40312 60549 039086 036089 036094 036095 039094 044087
BBXX H9UY 13064 99171 71191 41798 30108 00/// 10220 40175 51/// 70200 82243 9//// 22263 04250 20401 332// 40302 5//// 6//// 80190
BBXX ZCDF4 13063 99074 70798 41598 80112 10252 20240 40127 53009 78082 888// 22253 00270 20201 315// 40802 5//// 80244
BBXX VRZN8 13064 99052 71379 41595 81613 10255 2021/ 40155 51022 7//22 8874/ 22228 00255 20502 3//60 42303 5//// 6//// 80225 ICE /////
BBXX FVNM 13064 99061 70998 46/// /2104 10252 20225 40130 50001 22221 00265
BBXX BAREU11 13064 99087 70795 46/// ///// 40108 57013 22284
BBXX WDC6698 13064 99087 71481 43/// /0421 10280 20269 40100 5//// 7//// 8//// 222// 04267 2//// 3//// 4//// 5//// 6//// 8//// ICE /////
BBXX C6XC2 13064 99034 11237 41498 70311 10280 20253 40080 57020 70252 86998 22243 00300 20201 3//// 4//// 5//// 6//// 80260 ICE /////
BBXX ZCBH7 13064 99038 31096 41597 30515 10302 20291 40129 58021 70322 8/272 22233 04301 20201 305// 40201 5//// 80294
BBXX PCHM 13064 99388 31783 41597 30330 10180 20172 40200 53010 70222 82556 22214 00160 20202 30000 80175
BBXX BATFR47 13064 99309 51485 44598 30811 10207 20165 40205 52013 70100 832// 22262 20000 310// 40402 5////
BBXX BATEU07 13064 99387 31480 46/// /1722 10155 40136 53028 22264
BBXX BATFR56 13064 99078 30758 44598 21904 10282 20242 40102 58006 70000 82163 22253 00297 20804 318// 40804 5////
BBXX BATFR59 13064 99233 31676 46/// /0512 10277 20245 40095 56004 22251 00264
BBXX C6TH9 13063 99199 51561 41698 50110 10250 2024/ 40160 55010 70321 84938 22254 00260 20202 318// 40303 5//// 6//// 80240 ICE /////
BBXX CG2960 13064 99453 70800 46/// /2105 10040 20031 40286 58002 7//// 8//// 22200 0//// 2////
BBXX CG2350 13064 99433 70798 46/// /2408 10014 21021 40305 53001 7//// 8//// 22200 0//// 2////
BBXX 45008 13061 99443 70824 46/// /2407 10054 30071 40291 53003 90550 22200 00063 10402 20402 70008 333 91209 555 11075 22079 60549 244071 245075 247074 249076 248077 246078
BBXX CGDS 13064 99447 70755 46/// /2307 10010 21018 4//// 5//// 7//// 8//// 22200 0//// 2////
BBXX WUR8857 13064 99467 70849 41/97 /0000 11177 2//// 40000 5//// 79100 8//// 222// 01178 2//00 3//// 4//// 5//// 6//// 8//// ICE /////
BBXX TFGRV 13064 99638 70225 46/// ///// 22200 10703 70014
BBXX TFSTD 13064 99664 70234 46/// ///// 22200 10812 70058
BBXX TFGRS 13064 99663 70182 46/// ///// 22200 10708 70039
BBXX TFGSK 13064 99641 70229 46/// ///// 22200 10603 70015
BBXX TFSRT 13064 99633 70203 46/// ///// 22200 10704 70018
BBXX TFHFN 13064 99642 70152 46/// ///// 22200 10604 70020
BBXX TFDRN 13064 99658 70212 46/// ///// 22200 10706 70031
BBXX TFKGR 13064 99657 70136 46/// ///// 22200 10707 70036
BBXX TFBKF 13064 99635 70202 46/// ///// 22200 10703 70013
BBXX TFBLK 13064 99657 70248 46/// ///// 22200 10708 70039
BBXX WDD6126 13064 99480 70111 41298 72737 10100 2004/ 49996 52003 72166 8727/ 22214 00120 20512 328// 40615 5//// 6//// 80070 ICE /////
BBXX WDE8264 13063 99371 10038 41398 33305 10170 20154 40250 56008 70200 8216/ 22224 00190 20202 3//// 4//// 5//// 6//// 80160 ICE /////
BBXX LAVW4 13064 99421 70115 41696 82534 00/// 10165 2014/ 40145 54000 70221 888// 22253 00146 21612 325// 41712 5//// 6//// ICE//
BBXX DBBH 13061 99442 70095 41/95 82419 10138 20122 40100 55000 76366 88/// 22241 04145
BBXX MCUV3 13063 99461 70170 41497 72128 10095 20063 40082 57001 70252 83568 22223 2//14 32520 4//14 5//16 80080
BBXX VRYO3 13064 99484 70221 46/// /2619 10071 20079 40015 58016 7//// 8//// 22224 00126 2////
BBXX LADQ4 13064 99469 70104 41497 52544 10120 2102/ 40037 52007 75052 852/1 22213 00140 21310 327// 41711 80060
BBXX WDC6736 13064 99499 70028 43/// /2544 10120 2006/ 49890 52005 7//// 8//// 22211 00150 2//// 3//// 4//// 5//// 6//// 80090 ICE /////
AAXX 13064 04005 41486 80525 10021 21007 49831 52014 76076 8532/ 555 3/430
AAXX 13064 04018 42786 10211 11007 21046 49748 56002 81500 555 3//13 81650
AAXX 13064 04030 42989 12003 11030 21085 49746 57007 80001 555 3//04 81073
AAXX 13064 04048 NIL
AAXX 13064 04063 41462 80305 10018 21004 49787 57003 77072 8672/ 555 3//12
AAXX 13064 04077 NIL
AAXX 13064 04082 NIL
AAXX 13064 04097 41580 80217 10028 20012 49757 57002 71582 883// 555 3/421
AAXX 13064 78526 NIL
AAXX 13064 78543 NIL
AAXX 13064 91925 06/// /3202 10244 20207 30072 40133 53017 60001 333 55082 60007 90710 91106 555 60005 11010 59011
AAXX 13064 91929 04/81 /1008 10269 20221 30143 40146 53011 60002 700// 333 10312 20269 55/// 60007 79999 90710 91116 555 60005
AAXX 13064 91938 01570 21102 10261 20228 30153 40155 53013 60072 70186 82800 333 10309 20261 31/// 55087 60007 70067 82820 90710 91106 555 60005 12008 58001
AAXX 13064 91944 06/// /1110 10264 20195 30156 40159 52012 60002 333 10300 20263 55100 60007 70000 90710 91114 555 60005
AAXX 13064 91948 06/// /0203 10234 20193 30087 40190 53012 60001 333 55109 60007 90710 91106 555 60005 13306 59014
AAXX 13064 91954 06/// /1702 1//// 2//// 30158 4//// 53015 60001 333 55/// 60007 555 58018
AAXX 13064 91958 06/// /0517 10228 20192 30172 40174 53006 69921 333 55000 60007 90710 91128 555 60005 10528 59013
AAXX 13064 91943 NIL
AAXX 13064 91945 NIL
AAXX 13064 78255 42559 10404 10217 20201 30028 40177 57010 81800 333 81820
AAXX 13064 78317 NIL
AAXX 13064 78318 NIL
AAXX 13064 78325 NIL
AAXX 13064 78333 NIL
AAXX 13064 78338 NIL
AAXX 13064 78348 NIL
AAXX 13064 78349 NIL
AAXX 13064 78353 NIL
AAXX 13064 78360 NIL
AAXX 13064 78367 NIL
AAXX 13064 78369 NIL
AAXX 13064 16622 11330 79903 10088 20080 30200 40211 55000 60002 71022 87600 333 20088 30/// 50090 55025 70000 83708 86625 90730 91105 555 10000 30116 20000 89078 99097 30000 10102 2//// 30102 4//// 5//// 40000 47681 44215 50000 50084 70000 77Y// 7/Y//
AAXX 13064 16641 11460 71215 10148 20122 30171 40176 56005 69922 72996 87900 333 20138 31/// 55040 70002 84815 81918 85625 90730 91123 555 10000 30166 20000 89070 99090 40000 47658 44200 50000 50134 60000 60002 60120 70000 77VP/ 7RVP/
AAXX 13064 16682 11460 71209 10136 20121 30171 40190 57011 60172 72162 85810 333 20128 31/// 50400 55038 70248 82818 84625 87458 90730 91113 555 10000 30136 20000 89071 99098 30000 10130 20135 30134 40138 50144 60195 40000 47659 44200 50000 50128 60000 60169 60520 70000 77R// 7R///
AAXX 13064 16716 12560 70000 10096 20084 30186 40205 53004 60002 81156 333 20090 30/// 55050 70000 81820 84360 86070 555 10000 30146 20000 89063 99092 40000 47669 44190 50000 50090
AAXX 13064 16734 17/// /9903 10156 20111 30147 40208 57002 69902 7//4/ 333 20123 90730 91114 555 10000 30167 20000 89064 99092 60000 65555 60057
AAXX 13064 16743 NIL
AAXX 13064 16749 12460 61103 10146 20135 30211 40226 52002 60002 82255 333 20120 31/// 55000 70000 82818 85069 90730 91105 555 10000 30146 20000 89079 99095 40000 47688 44190 50000 50140
AAXX 13064 16754 12565 72506 10126 20077 30174 40222 52001 60002 81170 333 20110 30/// 50240 55046 70000 81820 87358 90730 91110 555 10000 30128 20000 89056 99084 40000 47664 44215 50000 50102
BBXX UFJN 13061 99712 10355 41/98 42006 11020 40012 54000 70211 83241 22200 0//// 20301
AAXX 13061 33088 11596 82302 10039 20034 39964 40157 53002 69972 71082 885// 333 20010
AAXX 13061 33177 11430 81601 10032 20027 39912 40152 52004 69972 76162 8872/ 333 20018
AAXX 13061 33261 32697 81704 10014 21041 30045 40232 57003 8655/ 333 21022 86634
AAXX 13061 33275 31995 71606 11010 21017 30029 40260 58020 71011 87030 333 21047 43003
AAXX 13061 33301 11597 81803 10033 20028 39875 40160 54000 60042 72582 8635/ 333 20006 85931
AAXX 13061 33325 11396 81803 10036 20029 39910 40181 57006 69902 71085 886// 333 20022 88707
AAXX 13061 33377 32697 81603 10005 21025 30048 40248 57003 8357/ 333 21013 41997
AAXX 13061 33415 11/93 91605 10014 20014 39766 40171 58019 60012 74564 333 20006
AAXX 13061 33429 11/93 91705 10044 20044 39746 40172 57003 69912 74554 333 20014
AAXX 13061 33466 32466 81604 10025 21011 30028 40219 57005 885// 333 20014 86714
AAXX 13061 33526 11208 80000 10006 20006 39819 40166 57002 69962 76164 8772/ 333 21001 87703 96043
AAXX 13061 33562 11212 81505 10032 20027 39822 40188 57006 69942 75152 886// 333 20015 88703
AAXX 13061 33614 32697 81303 10009 21015 30149 40257 57004 885// 333 21020 88646
AAXX 13061 33761 11332 81504 10026 20021 39989 40217 57004 69952 76162 8872/ 333 20015
AAXX 13061 33902 31597 81403 10030 20014 30168 40236 56009 71022 8753/ 333 20017
AAXX 13061 33983 31194 80702 10024 20022 30210 40272 54000 71022 886// 333 21005 88703
AAXX 13061 34415 31958 30000 11016 21028 30201 40302 53001 71011 83030 333 21016
AAXX 13061 34523 32998 41901 11004 21049 30233 40312 53006 84030 333 21004
AAXX 13061 34712 31550 61105 11010 21019 30210 40299 54000 71011 82531 333 21013
AAXX 13064 91165 NIL
AAXX 13064 91182 NIL
AAXX 13064 91190 NIL
AAXX 13064 91212 NIL
AAXX 13064 91217 NIL
AAXX 13064 91285 NIL
AAXX 13064 91317 NIL
AAXX 13064 91334 11474 80612 10292 20240 30059 40062 57012 60071 70282 82271 333 56199 70102 555 91306
AAXX 13064 91348 NIL
AAXX 13064 91356 NIL
AAXX 13064 91366 NIL
AAXX 13064 91369 32474 60920 10289 20254 30071 40074 84339 333 56229 84815 83360 88480 70000 555 91306
AAXX 13064 91371 NIL
AAXX 13064 91376 32474 60810 10285 20227 30068 40071 53008 84801 333 562/9 70000 555 91306
AAXX 13064 91408 32574 70706 10317 20249 30030 40068 57017 83201 333 562/9 70018 555 91306
AAXX 13064 91413 11469 60807 10299 20258 30058 40083 56017 60071 70281 85801 333 562/9 70086 555 91306
AAXX 13064 91425 NIL
AAXX 13064 91434 NIL
AAXX 13064 91765 NIL
BBXX DGWD2 13063 99364 10147 41498 23109 10169 20124 40192 52002 70200 8114/ 22223 00190 2//02 80142
AAXX 13064 91222 NIL
AAXX 13064 91245 NIL
AAXX 13064 91323 NIL
AAXX 13064 91339 NIL
AAXX 13064 91343 NIL
AAXX 13064 91353 NIL
AAXX 13064 91442 NIL
AAXX 13061 26509 11570 62506 10059 20030 30056 40065 52014 60022 70162 888// 333 20009 31/// 86828 91011 91113 555 53013 7003/
AAXX 13061 26518 11/06 92006 10015 20015 40072 52005 60012 76176 333 21010 44016 91008 91110 96047 555 53012 7001/
AAXX 13061 26524 11396 82004 10012 20009 39934 40068 53002 69962 71061 886// 333 20000 43002 88707 91008 91110 555 53010 7996/
AAXX 13061 26531 11456 81902 10017 20003 40072 56002 69902 76162 8872/ 333 20006 31/// 88710 91005 91109 555 53009 7990/
AAXX 13061 26629 11396 82003 10011 20008 39997 40094 53005 69972 72162 885// 333 21001 31/// 88608 91005 91109 555 53009 7997/
AAXX 13061 26633 32461 81903 10024 20003 39959 40090 56004 886// 333 20002 34/// 88711 91007 91107 555 53008 7000/
AAXX 13061 26730 11356 81905 10016 20005 39910 40104 57001 69902 75152 8802/ 333 20004 41998 88509 91008 91108 555 53009 7990/
AAXX 13061 15502 12560 80000 10050 20050 30155 40195 56001 60022 885// 333 10050 20050 55000 70016 555 31005 500//
AAXX 13061 15525 11/01 90000 10050 20050 39923 40192 54000 60002 74544 333 10058 20050 70009 555 31004 500//
AAXX 13061 15528 11/01 90000 10042 20037 39976 40169 54000 69902 74744 333 10050 20040 55000 70000 555 31004 597//
AAXX 13061 15535 11/01 90000 10063 20061 30138 40185 58001 69942 74564 333 10071 20060 55010 70004 555 31/// 59800 69590
AAXX 13061 15549 11/03 90000 10056 20042 39777 40197 54000 60002 74542 333 10095 20053 70000 555 30004 591//
AAXX 13061 15552 11/02 93401 10070 20066 30140 40189 57001 60002 74744 222// 2//00 333 10090 20065 55000 70000 555 31004 597// 92011 92411
AAXX 13061 15614 11/04 90000 10050 20048 39493 40205 53006 69912 74584 333 10070 20043 55000 70007 555 31100 598// 62199 70600
AAXX 13061 15615 11986 22304 11074 21091 37119 47057 54000 69962 70241 82031 333 11047 21074 47999 55000 70014 444 56214 555 587//
AAXX 13061 15626 11658 80000 10062 20048 30008 40198 57003 60002 71022 886// 333 10064 20030 55037 70000 555 30101 591//
AAXX 13061 15627 11/02 92910 11020 21020 37620 47058 56000 69932 74944 333 11012 21022 42003 55001 70005 93502 555 500// 92712
AAXX 13061 15640 11/05 90000 10090 20071 39886 40199 57003 60002 74344 333 10114 20086 55000 70000 555 30005 588//
AAXX 13061 15655 11408 62703 10050 20050 30161 40195 57001 60002 74244 86500 222// 00086 20000 333 10095 20050 70000 555 31/// 500// 92012 92413
AAXX 13061 15730 11665 80000 10057 20055 39806 40202 54000 60002 70422 82287 333 10114 20054 55057 70000 555 31001 598//
AAXX 13061 14240 12660 60000 10053 20047 30026 40184 52020 60102 86500 333 20048 32003 70129
AAXX 13061 14258 11670 73502 10054 20048 39981 40171 52009 60072 70362 87800 333 20051 32004 70074
AAXX 13061 14445 11575 60203 10114 20096 39977 40130 52009 60132 72182 84730 222// 00150 333 20108 32010 70135 84795 82399 92311
AAXX 13061 76122 01535 72002 10116 20081 38502 40087 5//// 69981 72462 83976 90550 333 10215 20007 31/// 55055 56666 59016 69987 82935 83356
AAXX 13061 76225 32920 42002 10162 20050 38610 40078 50002 84030 90535 333 10236 20050 30/// 55043 56050 58/// 84359
AAXX 13061 76323 32950 71604 10114 21018 38281 40155 52018 80006 90540 333 10272 20050 30/// 55052 56005 59008 87268
AAXX 13061 76342 01220 80501 10100 20096 39533 40258 52007 69901 75052 887// 90550 333 10125 20060 32/// 55000 20397 561// 59009 69907 88710
AAXX 13061 76382 32960 21601 10172 20131 38900 40109 52010 80008 90550 333 10296 20090 30/// 55028 2//// 56003 59003 82270
AAXX 13061 76390 31950 11907 10163 20057 38246 40119 52002 70544 80006 90530 333 10254 20116 30/// 55093 21265 56002 58012 81070
AAXX 13061 76393 31110 80601 10116 20109 39623 40211 54000 70544 887// 90550 333 10136 20090 31/// 55000 56999 59007 88703
AAXX 13061 76402 32550 70000 10176 20138 30105 40161 52008 87500 90545 333 10225 20150 30/// 55001 2//// 56400 58014 87628
AAXX 13061 76423 32960 02801 10129 20050 38178 40123 51013 90558 333 10254 20060 30/// 55090 21272 58023
AAXX 13061 76458 32960 01202 10194 20143 30157 40161 50001 90538 333 10274 20135 30/// 55089 58015
AAXX 13061 76491 32956 00000 10128 20126 39834 40228 54/// 90545 333 10235 20120 31/// 55064 59010
AAXX 13061 76525 32960 11703 10128 20048 37495 40121 52005 80001 90540 333 10178 20101 30/// 55091 22351 56//5 58015 81080
AAXX 13061 76539 32958 03601 10102 20077 38205 40202 52026 90550 333 10235 20048 30/// 55047 58///
AAXX 13061 76548 32860 50702 10202 20178 30218 40228 50004 85030 90545 333 10270 20164 30/// 55081 56050 59001 85357
AAXX 13061 76556 32960 00701 10168 20141 39133 40137 52005 90535 333 10274 20122 30/// 55088 58010
AAXX 13061 76571 32910 00000 10122 20057 38189 40149 54010 90540 333 10240 20060 30/// 55086 58015
AAXX 13061 76577 32960 00000 10141 20122 38062 40129 52005 90540 333 10245 20081 30/// 55067 58007
AAXX 13061 76581 32960 61802 10159 20129 39115 40214 52013 86020 90550 333 10250 20117 30/// 55065 56020 59021 86460
AAXX 13061 76625 32960 00902 10158 20019 38152 40093 57002 90550 333 10261 20091 30/// 55070 59002
AAXX 13061 76634 31910 01501 10068 20065 37885 40184 52006 74640 90550 333 10233 20048 30/// 55096 21764 58///
AAXX 13061 76644 32350 50902 10220 20205 30196 40208 52008 81270 90550 333 10312 20205 30/// 55077 20959 5611/ 59/// 81810 84320
AAXX 13061 76654 31956 00000 10221 20189 30164 40168 52005 70544 90550 333 10286 20213 30/// 55078 21044 58018
AAXX 13061 76658 31956 00501 10195 20167 39658 40167 52008 70544 90543 333 10300 20176 30/// 55083 58/// 98904
AAXX 13061 76662 32960 01901 10150 20118 38486 40139 52010 90540 333 10273 20080 30/// 55069 21169 58012
AAXX 13061 76665 32958 01801 10130 20094 38147 40137 52011 90555 333 10260 20075 30/// 55068 20958 58015
AAXX 13061 76680 31956 00000 10128 20047 37778 40134 52007 70400 90550 333 10227 20080 30/// 55008 20644 58013
AAXX 13061 76683 32965 03401 10064 20026 37860 40222 51009 90540 333 10276 20035 30/// 50321 55098 21961 58012
AAXX 13061 76685 32950 00000 10110 20008 37904 40144 52019 90555 333 10228 20048 30/// 55106 58019
AAXX 13061 76687 31201 22301 10126 20115 38732 48732 52006 74240 82600 90545 333 10217 20088 30/// 55059 565// 58014 82704 81610
AAXX 13061 76692 31520 53001 10222 20203 30189 40208 52001 71044 83430 90545 333 10263 20200 30/// 55089 5633/ 59003 83630
AAXX 13061 76695 01956 80801 10226 20209 30181 40187 50003 69961 72052 8802/ 90545 333 10270 20194 31/// 55018 56/0/ 58/// 69947 88460
AAXX 13061 76737 31480 10000 10132 20119 38830 40214 51008 70110 81600 90532 333 10224 20092 30/// 55084 56200 58013 81713
AAXX 13061 76750 32558 13302 10220 20208 30176 40186 57002 81100 90550 333 10310 20190 30/// 55052 56800 58010 81820
AAXX 13061 76762 32902 00000 10146 20125 38779 40131 52008 90556 333 10302 20120 30/// 55093 58017
AAXX 13061 76840 32901 00206 10254 20173 30093 40148 57002 90540 333 10310 20180 30/// 55091 2//// 58/// 91219 91502 90404
AAXX 13061 76843 32965 00202 10195 20163 39530 40172 52003 90530 333 10265 20162 30/// 55101 58001
AAXX 13061 76845 32330 30301 10118 20104 37973 40181 56002 83700 90545 333 10196 20038 30/// 55098 56200 58001 83707
AAXX 13061 76848 32350 60502 10140 20121 38408 40118 58003 86600 90550 333 10234 20083 30/// 55101 56100 58000 86708
AAXX 13061 76903 31960 00401 10245 20215 39999 40130 58001 905540 333 10347 20222 30/// 55085 58000
AAXX 13061 76243 11365 80902 10106 20099 39942 40243 52012 69901 70255 887// 90530 333 10115 20070 31/// 55000 563// 59002 88707
AAXX 13061 76311 32620 60000 10172 20150 39879 40154 51009 86400 90555 333 10253 20108 30/// 55009 56400 58013 86625
AAXX 13061 76405 32840 71803 10218 20170 30130 40152 50002 8702/ 90550 333 10257 20196 30/// 55042 2//// 5605/ 58004 87457
AAXX 13061 76640 31010 50000 10200 20197 30227 40239 52008 70311 852// 90540 333 10260 20164 30/// 55047 563// 58002 85801
AAXX 13061 76741 31340 83605 10224 20207 30168 40186 51005 70544 8522/ 90535 333 10255 20150 30/// 55029 5689/ 59001 85810 83460
AAXX 13061 76855 32980 03403 10232 20200 30088 40137 52013 90545 333 10325 20210 30/// 55103 58/// 92000
BBXX 46013 13061 99382 71233 46/// /3305 10104 40109 51014 90550 22200 00108 11205 20401 3//// 41205 70023 333 91206 555 11049 22051 30529 43306 60549 330046 334046 332045 334042 337042 336043
BBXX 46026 13061 99378 71228 46/// /3603 10105 40110 51015 90550 22200 00113 11204 20301 331// 41204 70022 333 91204 555 11029 22030 30515 42705 60549 344027 288031 292032 290035 290030 290031
BBXX 46029 13061 99461 71245 46/// /0606 10056 20008 40177 56011 90550 22200 00075 333 91207 555 11060 22062 30534 40708 60549 064058 069066 065064 060061 056058 058055
BBXX 46050 13061 99442 71246 46/// /0705 10068 40161 57006 90550 22200 00103 11103 20502 330// 41103 70016 333 91207 555 11056 22058 30452 40607 60549 069052 070050 072052 070053 075045 068055
BBXX 9V8739 13064 99306 71229 41497 43122 10130 20073 40100 54/// 70161 8446/ 22274 00180 2//// 331// 40806 5//// 6//// 80100 ICE /////
BBXX CG2958 13064 99491 71233 46/// /1004 10036 20008 40213 56005 7//// 8//// 22200 0//// 2////
BBXX CG2965 13064 99487 71235 46/// /3105 10017 21014 40206 56007 7//// 8//// 22200 0//// 2////
BBXX CGBR 13064 99541 71304 46/// /1118 10027 20027 40139 58009 7//// 8//// 22251 00069 2////
BBXX CGBY 13064 99487 71235 46/// /3103 10009 21021 40204 56007 7//// 8//// 22200 0//// 2////
BBXX CGDR 13064 99505 71276 46/// /0105 10023 20022 40179 58017 7//// 8//// 22200 0//// 2////
BBXX CGJK 13064 99484 71234 46/// /0106 10005 21017 40200 56010 7//// 8//// 22200 0//// 2////
BBXX WABS 13064 99432 71258 41/98 10221 10072 20000 40262 56012 70200 81/// 22243 0//// 2//// 3//// 4//// 5//// 6//// 80044 ICE /////
BBXX LDGJ 13061 99603 10053 43/// /1405 10068 21018 49747 5//// 222/1 04095 1//// 3//// 4//// 5////
BBXX LF4H 13064 99596 10022 46/97 11435 10067 20053 49641 57088 8//// 22200 06090 10709 70045 333 91147
BBXX LGWS 13061 99326 70091 43/// /0607 10131 20094 40250 5//// 222/0 04167 1//// 3//// 4//// 5////
BBXX LMEL 13061 99603 10053 43/// /1406 10067 21023 49745 5//// 222/2 04097 1//// 3//// 4//// 5////
AAXX 13064 47090 32973 20000 10069 21030 30236 40258 57019 80001 333 92010
AAXX 13064 47095 32970 32505 10052 21118 30076 40267 55018 80001
AAXX 13064 47097 329// /0703 10058 21081 30164 40261 57026
AAXX 13064 47098 329// /2505 10063 21096 30128 40263 55017
AAXX 13064 47099 329// /2302 10053 21109 30235 40272 57014
AAXX 13064 47100 32970 42706 10037 21080 39325 40247 57026 80001
AAXX 13064 47102 32975 60201 10038 21067 30086 40267 57017 80001
AAXX 13064 47104 32973 20203 10067 21030 30156 40254 57018 80001
AAXX 13064 47106 329// /0202 10082 21003 30205 40254 57021
AAXX 13064 47112 32966 63404 10059 21112 30179 40264 57017 80001 333 92012
AAXX 13064 47114 32970 23203 10073 21096 30072 40255 57026 80001
AAXX 13064 47119 32970 52902 10077 21088 30218 40260 57022 83031
AAXX 13064 47121 329// /2701 10089 21050 39959 40250 57033
AAXX 13064 47127 329// /2301 10081 21080 30116 40257 57026
AAXX 13064 47129 32970 41802 10079 21120 30230 40266 57020 80001
AAXX 13064 47130 32670 20903 10091 20014 30191 40252 57026 82500 333 92022
AAXX 13064 47131 32970 62502 10083 21070 30186 40256 57025 84031
AAXX 13064 47135 329// /1403 10093 21092 39952 40248 57031
AAXX 13064 47136 32970 02502 10098 21053 30083 40254 57027
AAXX 13064 47137 329// /0503 10070 21078 30138 40257 57029
AAXX 13064 47140 32670 22705 10077 21029 30232 40261 57022 82030 333 92012
AAXX 13064 47143 32961 02702 10107 21045 30180 40258 57030
AAXX 13064 47145 32970 22705 10082 21075 30227 40253 57021 80001
AAXX 13064 47146 32965 02503 10091 21071 30190 40256 57021
AAXX 13064 47150 32970 62302 10067 21050 30242 40261 57019 85030
AAXX 13064 47152 32670 40502 10112 20022 30207 40249 55018 84500
AAXX 13064 47154 329// /0901 10095 21052 30195 40255 57032
AAXX 13064 47155 32970 01103 10115 21064 30201 40246 57026
AAXX 13064 47156 32965 02304 10112 21076 30164 40252 57025
AAXX 13064 47157 32973 01102 10102 21106 39967 40234 57034
AAXX 13064 47162 32970 02303 10118 21035 30207 40247 57021 333 92022
AAXX 13064 47169 32970 00207 10072 20022 30160 40255 57020 333 92033
AAXX 13064 47170 32970 00903 10108 21019 30206 40249 57023 333 92021
AAXX 13064 47171 329// /0204 10082 21071 30202 40257 57023
AAXX 13064 47172 329// /3604 10096 21071 30183 40249 57022
AAXX 13064 47173 329// /1602 10108 21061 30138 40248 57030
AAXX 13064 47174 32970 01804 10123 21113 30040 40238 57027
AAXX 13064 47175 32973 00902 10069 21039 39673 40245 55016 333 92021
AAXX 13064 47185 32962 03408 10119 20031 30155 40245 57019 333 92023
AAXX 13064 47188 32670 21103 10134 20028 30218 40239 57021 82500 333 92022
AAXX 13064 47189 32670 22303 10146 20018 30179 40238 57018 81500 333 92022
AAXX 13064 47192 32975 02702 10117 21141 30213 40250 57028
AAXX 13064 47101 32970 42702 10053 21097 30170 40267 57023 80001
AAXX 13064 47105 369// /0501 10086 21036 30222 40254 57019
AAXX 13064 47108 32968 32505 10070 21122 30156 40262 57019 80002
AAXX 13064 47115 32675 30902 10078 20000 39988 40260 55013 83500 333 92021
AAXX 13064 47133 32968 61801 10093 21102 30171 40255 57026 80009
AAXX 13064 47138 32570 40202 10117 20013 30250 40253 57021 84500 333 92021
AAXX 13064 47159 32970 02006 10137 20000 30161 40245 56019 333 92022
AAXX 13064 47165 32970 00206 10095 21034 30205 40252 57022 333 92013
AAXX 13064 47168 32972 00903 10101 21125 30166 40245 57022 333 92022
AAXX 13064 47184 32668 30206 10116 20047 30221 40246 57020 83500 333 92022
AAXX 13061 76122 01535 72002 10116 20081 38502 40087 5//// 69981 7246283976 90550 333 10215 20007 31/// 55055 56666 59016 6998782935 83356
AAXX 13061 76225 32920 42002 10162 20050 38610 40078 50002 84030 90535333 10236 20050 30/// 55043 56050 58/// 84359
AAXX 13061 76323 32950 71604 10114 21018 38281 40155 52018 80006 90540333 10272 20050 30/// 55052 56005 59008 87268
AAXX 13061 76342 01220 80501 10100 20096 39533 40258 52007 69901 75052887// 90550 333 10125 20060 32/// 55000 20397 561// 5900969907 88710
AAXX 13061 76382 32960 21601 10172 20131 38900 40109 52010 80008 90550333 10296 20090 30/// 55028 2//// 56003 59003 82270
AAXX 13061 76390 31950 11907 10163 20057 38246 40119 52002 70544 8000690530 333 10254 20116 30/// 55093 21265 56002 58012 81070
AAXX 13061 76393 31110 80601 10116 20109 39623 40211 54000 70544 887//90550 333 10136 20090 31/// 55000 56999 59007 88703
AAXX 13061 76402 32550 70000 10176 20138 30105 40161 52008 87500 90545333 10225 20150 30/// 55001 2//// 56400 58014 87628
AAXX 13061 76423 32960 02801 10129 20050 38178 40123 51013 90558 33310254 20060 30/// 55090 21272 58023
AAXX 13061 76458 32960 01202 10194 20143 30157 40161 50001 90538 33310274 20135 30/// 55089 58015
AAXX 13061 76491 32956 00000 10128 20126 39834 40228 54/// 90545 33310235 20120 31/// 55064 59010
AAXX 13061 76525 32960 11703 10128 20048 37495 40121 52005 80001 90540333 10178 20101 30/// 55091 22351 56//5 58015 81080
AAXX 13061 76539 32958 03601 10102 20077 38205 40202 52026 90550 33310235 20048 30/// 55047 58///
AAXX 13061 76548 32860 50702 10202 20178 30218 40228 50004 85030 90545333 10270 20164 30/// 55081 56050 59001 85357
AAXX 13061 76556 32960 00701 10168 20141 39133 40137 52005 90535 33310274 20122 30/// 55088 58010
AAXX 13061 76571 32910 00000 10122 20057 38189 40149 54010 90540 33310240 20060 30/// 55086 58015
AAXX 13061 76577 32960 00000 10141 20122 38062 40129 52005 90540 33310245 20081 30/// 55067 58007
AAXX 13061 76581 32960 61802 10159 20129 39115 40214 52013 86020 90550333 10250 20117 30/// 55065 56020 59021 86460
AAXX 13061 76625 32960 00902 10158 20019 38152 40093 57002 90550 33310261 20091 30/// 55070 59002
AAXX 13061 76634 31910 01501 10068 20065 37885 40184 52006 74640 90550333 10233 20048 30/// 55096 21764 58///
AAXX 13061 76644 32350 50902 10220 20205 30196 40208 52008 81270 90550333 10312 20205 30/// 55077 20959 5611/ 59/// 81810 84320
AAXX 13061 76654 31956 00000 10221 20189 30164 40168 52005 70544 90550333 10286 20213 30/// 55078 21044 58018
AAXX 13061 76658 31956 00501 10195 20167 39658 40167 52008 70544 90543333 10300 20176 30/// 55083 58/// 98904
AAXX 13061 76662 32960 01901 10150 20118 38486 40139 52010 90540 33310273 20080 30/// 55069 21169 58012
AAXX 13061 76665 32958 01801 10130 20094 38147 40137 52011 90555 33310260 20075 30/// 55068 20958 58015
AAXX 13061 76680 31956 00000 10128 20047 37778 40134 52007 70400 90550333 10227 20080 30/// 55008 20644 58013
AAXX 13061 76683 32965 03401 10064 20026 37860 40222 51009 90540 33310276 20035 30/// 50321 55098 21961 58012
AAXX 13061 76685 32950 00000 10110 20008 37904 40144 52019 90555 33310228 20048 30/// 55106 58019
AAXX 13061 76687 31201 22301 10126 20115 38732 48732 52006 74240 8260090545 333 10217 20088 30/// 55059 565// 58014 82704 81610
AAXX 13061 76692 31520 53001 10222 20203 30189 40208 52001 71044 8343090545 333 10263 20200 30/// 55089 5633/ 59003 83630
AAXX 13061 76695 01956 80801 10226 20209 30181 40187 50003 69961 720528802/ 90545 333 10270 20194 31/// 55018 56/0/ 58/// 6994788460
AAXX 13061 76737 31480 10000 10132 20119 38830 40214 51008 70110 8160090532 333 10224 20092 30/// 55084 56200 58013 81713
AAXX 13061 76750 32558 13302 10220 20208 30176 40186 57002 81100 90550333 10310 20190 30/// 55052 56800 58010 81820
AAXX 13061 76762 32902 00000 10146 20125 38779 40131 52008 90556 33310302 20120 30/// 55093 58017
AAXX 13061 76840 32901 00206 10254 20173 30093 40148 57002 90540 33310310 20180 30/// 55091 2//// 58/// 91219 91502 90404
AAXX 13061 76843 32965 00202 10195 20163 39530 40172 52003 90530 33310265 20162 30/// 55101 58001
AAXX 13061 76845 32330 30301 10118 20104 37973 40181 56002 83700 90545333 10196 20038 30/// 55098 56200 58001 83707
AAXX 13061 76848 32350 60502 10140 20121 38408 40118 58003 86600 90550333 10234 20083 30/// 55101 56100 58000 86708
AAXX 13061 76903 31960 00401 10245 20215 39999 40130 58001 905540 333 10347 20222 30/// 55085 58000
AAXX 13061 76243 11365 80902 10106 20099 39942 40243 52012 69901 70255887// 90530 333 10115 20070 31/// 55000 563// 59002 88707
AAXX 13061 76311 32620 60000 10172 20150 39879 40154 51009 86400 90555333 10253 20108 30/// 55009 56400 58013 86625
AAXX 13061 76405 32840 71803 10218 20170 30130 40152 50002 8702/ 90550333 10257 20196 30/// 55042 2//// 5605/ 58004 87457
AAXX 13061 76640 31010 50000 10200 20197 30227 40239 52008 70311 852//90540 333 10260 20164 30/// 55047 563// 58002 85801
AAXX 13061 76741 31340 83605 10224 20207 30168 40186 51005 70544 8522/90535 333 10255 20150 30/// 55029 5689/ 59001 85810 83460
AAXX 13061 76855 32980 03403 10232 20200 30088 40137 52013 90545 33310325 20210 30/// 55103 58/// 92000
AAXX 13061 78458 32466 30000 10214 20218 40144 54001 83200 333 10280 20205 32/// 56000 58003 83818
AAXX 13061 78460 32466 20000 10222 20213 40146 51007 82500 333 10305 20174 30/// 56000 58021 82616
AAXX 13061 78479 32466 23603 10214 20202 40118 57008 82200 333 10290 20210 30/// 56100 58005 82818
AAXX 13061 78485 32466 20103 10216 20201 40138 57006 82200 333 10305 20200 30/// 56000 58007 82816
AAXX 13061 78486 32966 03602 10236 20216 40122 57004 333 10318 20212 30/// 58010
AAXX 13061 14241 11465 62301 10055 20047 30048 40180 51020 60102 70162 86500 333 20055 32/// 70118 81720 85656
AAXX 13061 14284 11460 83203 10067 20057 30056 40165 52019 60082 72162 8462/ 333 20068 31005 70082
AAXX 13061 14307 11670 83002 10087 20066 30087 40164 52023 60022 75152 8757/ 333 20077 32/// 70024 87643
AAXX 13061 14317 NIL
AAXX 13061 14431 11565 72703 10101 20088 30055 40148 51016 60052 76162 87800 333 20098 31/// 70057 81820 87640
AAXX 13061 14444 11470 32201 10118 20089 30107 40136 52012 60232 70198 83730 333 20110 32/// 70230 81717 82837
AAXX 13061 14474 11460 81604 10137 20109 39966 40153 53003 69962 76162 8652/ 333 20125 31/// 70006
AAXX 13064 17026 12970 21506 10116 20056 30192 40231 53002 60002 80001 333 20103 30008 55025 20909 70004 8207 0 91110 92428
AAXX 13064 17034 12970 21802 10090 21005 30209 40256 58003 60002 82030 333 20081 31004 82360 92428
AAXX 13064 17070 11901 02401 11011 21012 39379 40278 58001 60002 74400 333 21016 3/103 45998 50044 55026 20754
AAXX 13064 17084 11930 21601 11027 21029 39361 40307 51001 60002 71000 80001 333 21036 34106 55046 82070 91102
AAXX 13064 17090 12965 00000 11059 21084 38809 48566 51004 60002 333 21086 3/109 45998 55008
AAXX 13064 17098 12960 00000 11149 21158 38274 48591 52005 60002 333 21183 3/120 43002 50034 55026 21093
AAXX 13064 17150 11618 42501 10027 20025 30109 40236 53001 60002 71000 82130 333 20021 31002 50031 55063 20816 82835 83360
AAXX 13064 17160 12970 00103 11017 21041 39096 48549 52004 60002 333 21036 34105 55072 91111
AAXX 13064 17184 12670 50000 10031 20025 30125 40240 50000 60002 83201 333 20025 31002 55050 83840 85070 91103
AAXX 13064 17189 11901 00000 11076 21076 39088 48526 53002 60002 74700 333 21094 34111
AAXX 13064 17210 11957 20000 10008 21006 39211 40282 52010 60002 71000 80001 333 21007 34104 55051 82070
AAXX 13064 17234 12670 70804 10078 20047 30171 40240 53002 60002 83270 333 20075 31007 50104 55070 83840 87360 91111
AAXX 13064 17260 12960 02501 10004 21013 39428 40277 52011 60002 333 21018 34104 50064 55076 21153
AAXX 13064 17290 12670 50301 10131 20119 30204 40236 53002 60002 83250 333 20129 30010 50104 55028 83835 8536 0 91103 92408
AAXX 13064 17370 12965 01401 10103 20013 30235 40239 52009 60002 333 20095 30006 50184 55054 2//// 92417
AAXX 13064 17022 12662 61204 10116 20037 30061 40226 57003 60002 81135 333 20101 30010 55019 81834 84360 86070 91106 92427
AAXX 13064 17031 12670 51104 10087 20024 30234 40240 55000 60002 81150 333 20022 30001 81836 85360
AAXX 13064 17038 11959 30000 10090 21014 30211 40263 57006 60002 70400 83030 333 20057 30002 55023 20595 8336 0 92426
AAXX 13064 17050 11656 83301 10068 20066 30139 40202 53002 60002 71011 8552/ 333 20065 31005 55010 85635 88460 91106
AAXX 13064 17060 12960 01103 10117 20053 30179 40219 56003 60002 333 20078 30005 50321 55038 20620
AAXX 13064 17096 11902 01601 11210 21210 38316 48594 53004 60002 74844 333 21232 3/124 47008 50024 55034 20272
AAXX 13064 17124 11957 51103 11010 21020 39335 40286 53003 60002 71011 83034 333 21041 31105 50054 55050 20779 83360 84070
AAXX 13064 17128 11002 50502 11041 21041 39161 40310 52004 60002 74800 85600 333 21045 34105 50074 55042 20293 85701
AAXX 13064 17170 NIL
AAXX 13064 17195 11960 00205 11025 21041 39051 48552 55001 60002 71000 333 21055 34107 50054 55022 20666
AAXX 13064 17199 12970 02302 11024 21058 39179 40326 52009 60002 333 21037 3/109 47003 55069 20645
AAXX 13064 17219 12562 79902 10094 20080 30084 40231 55000 60002 84250 333 20075 30007 55056 20296 84830 8736 0
AAXX 13064 17240 12970 02401 11034 21057 39096 40292 53001 60002 333 21043 34106 55052 20494
AAXX 13064 17244 11940 00503 11028 21044 39066 48544 52005 60002 71000 333 21051 34/// 55/// 2////
AAXX 13064 17280 12970 01901 11008 21040 39462 40287 52010 60002 333 21053 30108 50071 55070 20301
AAXX 13064 17350 12960 03304 10051 20038 30160 40241 51010 60002 333 20020 30///
AAXX 13064 08001 12462 82214 10148 20110 30058 40138 57004 60002 8687/ 333 20132 30011 50424 55026 70000 924/7
AAXX 13064 08015 12565 51804 10115 20006 39727 40128 57009 60002 81132 333 20072 30005 50184 55040 70000
AAXX 13064 08023 12967 42110 10134 20035 30065 40136 55001 60002 80008 333 20093 50293 55066 70008
AAXX 13064 08027 12980 61912 10120 20047 39837 40145 53010 60002 80006 333 20088 31009 50133 55065 70014
AAXX 13064 08045 01362 82114 10126 20113 39881 40189 56014 69962 70262 8777/ 333 20102 32010 55002 69907 70007
AAXX 13064 08141 12465 71705 10066 20034 39353 40221 57012 60002 8477/ 333 20048 31003 55025 79999
AAXX 13064 08160 12865 62418 10110 20033 39892 40201 57011 60002 81078 333 20050 55050 70000
AAXX 13064 08181 05/65 /2706 10062 20023 30191 40197 55005 60002 333 20052 3/007 55029 60007 70000
AAXX 13064 08221 02568 71806 10069 20050 39550 40245 55009 60002 87802 333 20051 30004 55003 60007 70000
AAXX 13064 08231 12470 82603 10058 20038 39147 48543 58004 69902 887// 333 20058 31006 50064 55000 70005
AAXX 13064 08261 NIL
AAXX 13064 08284 02970 42509 10107 20046 30140 40216 56008 60002 80001 333 20094 3//// 50264 55032 60007 70000
AAXX 13064 08306 12565 43301 10061 20060 30209 40215 56011 60002 82878 333 20046 55029 70000
AAXX 13064 08314 02570 32310 10138 20100 30108 40211 55007 60002 83801 333 20083 3//// 55051 60007 79999
AAXX 13064 08430 NIL
AAXX 13064 08482 12970 02815 10128 20070 30242 40251 56006 60002 333 20104 55078 70000
AAXX 13064 17024 12970 01812 10101 20035 30149 40227 55000 60002 333 20092 31007 55016 91117 92438
AAXX 13064 17056 11960 73003 10078 20077 30209 40213 55000 60002 71000 83038 333 20069 31005 55023 20469 83360 87270 91105 92417
AAXX 13064 17067 12970 51502 10062 20046 30200 40223 57002 60002 85030 333 20055 31005 55000 85360 91106 92408
AAXX 13064 17092 12970 00000 11084 21087 38968 48571 52008 60002 333 21117 30113 50044 55071 20980
AAXX 13064 17112 12670 52703 10126 20104 30203 40205 50001 60002 82201 333 20105 31008 50074 55048 20075 82835 85070 91108 92418
AAXX 13064 17115 12960 31305 10075 20050 30164 40216 58001 60002 80001 333 20038 30002 50144 55042 20662 8307 0
AAXX 13064 17116 12662 30801 10062 20021 30111 40235 57001 60002 83100 333 20047 31002 55034 20038 83835 91105
AAXX 13064 17188 12960 22802 10017 20003 39173 40262 57001 60002 80001 333 20012 34101 55000 82070 91104
AAXX 13064 17202 11419 72007 11045 21045 39263 40352 52011 60002 71041 87500 333 21070 3/108 43004 84712 86630
AAXX 13064 17248 12975 01001 11017 21033 39052 48545 52007 60002 333 21046 34107 55068 2////
AAXX 13064 17292 11602 50000 10010 20009 39480 40256 51002 60002 74444 81130 333 20010 31001 50064 55023 20515 81840 85360 91103
AAXX 13064 17300 12560 33505 10053 20017 30161 40234 51002 60002 81101 333 20031 30102 50231 55/// 2//// 81830 83070
AAXX 13064 17310 12970 30603 10110 20030 30232 40239 53004 60002 80004 333 20104 30006 55057 83070 91105 9241 8
AAXX 13064 17330 12970 22703 10112 20005 30225 40243 52008 60002 80001 333 20076 31005 50081 55065 82070
AAXX 13061 26645 31296 81803 10008 20000 39844 40107 57005 71022 886// 333 21006 43003 88705 555 90010
AAXX 13061 26659 11446 81803 10000 21006 39913 40131 57010 69962 71076 886// 333 21018 41997 88710 93401 555 90010
AAXX 13061 26763 11345 81804 10002 21004 39918 40149 57012 69962 77172 8872/ 333 21018 47001 88707 555 90010
AAXX 13061 26825 32460 82004 10013 20005 39928 40113 53004 886// 333 20001 88711
AAXX 13061 26832 32360 81903 10022 20006 39925 40120 54000 8667/ 333 20014 86708 555 90010
AAXX 13061 26887 11496 81705 11001 21013 39975 40186 57014 69912 76662 8872/ 333 21018 42999 88710 93400 555 90012
AAXX 13061 26961 11232 81802 10012 20005 39955 40150 57008 60012 75165 886// 333 21020 88706 555 90011
AAXX 13061 33027 11496 81702 10032 20027 39988 40157 57005 60032 71082 886// 333 21006 41998 555 90011
AAXX 13064 16614 11560 50000 10024 20017 39427 40224 55020 69932 70152 83140 333 20014 31/// 55019 70003 83825 84358 90730 91104 555 10000 30086 20000 89054 99096 60000 60003 60500 70000 77/// 7D///
AAXX 13064 16627 12460 70000 10124 20116 30199 40203 56003 60002 85550 333 20114 30/// 50030 55040 70000 85618 85358 90730 91107 555 10000 30132 20000 89070 99098 30000 10108 20108 30110 40112 50114 6//// 40000 47684 44250 50000 50120
AAXX 13064 16667 12560 61505 10146 20096 30213 40218 55006 60002 83550 333 20130 30/// 55047 70000 83620 85356 90730 91109 555 10000 30160 20000 89051 99079 30000 20130 30136 40000 47689 44200 50000 50120
AAXX 13064 16675 17/// /2405 10089 20076 30187 40201 52002 69902 741// 333 20063 90730 91107 555 10000 30134 20000 89056 99/// 60000 65555 60059
AAXX 13064 16710 36/// /9901 10070 20061 39450 40230 54000 333 20046 90730 91103 555 10000 30102 20000 89054 99///
AAXX 13064 16723 11460 72105 10146 20135 30220 40236 54000 69942 70262 85870 333 20146 31/// 55/// 70004 82818 84625 87359 90730 91112 555 10000 30150 20000 89068 99088 40000 47700 44230 50000 50140 60000 60004 60130 70000 77/// 7R///
AAXX 13064 16738 17/// /9905 10149 20119 30019 40217 54000 69902 7414/ 333 20144 90730 91112 555 10000 30155 20000 89070 99089 60000 65555 60153
AAXX 13064 16746 12560 70000 10126 20099 30034 40218 57011 60002 81158 333 20114 30/// 55043 70000 81825 85358 87268 90730 91104 555 10000 30132 20000 89046 99088 40000 47557 44200 50000 50112
AAXX 13064 16643 11360 70605 10126 20115 30194 40199 57024 60012 76262 82670 333 20118 31/// 70011 81708 87358 90730 91110 555 10000 30144 20000 89068 99098 40000 47680 44240 50000 50120 60000 60011 60035 70000 77R// 7R///
AAXX 13064 16648 11558 70000 10054 20040 30116 40209 51003 60002 71022 81158 333 20046 30/// 50070 55042 70000 81830 84358 87268 90730 91104 555 10000 30110 20000 89049 99091 30000 10070 2//// 30076 40080 5//// 6//// 40000 47618 44210 50000 50048 70000 77Y// 7/Y//
AAXX 13064 16650 11358 49903 10136 20132 30189 40193 55000 60002 71020 84600 333 20126 30/// 55058 70000 90730 91107 555 10000 30142 20000 89079 99098 30000 10116 20120 30120 40120 50124 60138 40000 47674 44230 50000 50134 70000 77Y// 7/Y//
AAXX 13064 16684 12860 30000 10116 20084 30158 40186 51002 60002 82031 333 20116 30/// 55074 70000 82358 83068 90730 91105 555 10000 30160 20000 89063 99081 40000 47650 44220 50000 50100
AAXX 13064 16732 11465 71510 10156 20131 30209 40220 56009 60002 702// 85838 333 20148 30/// 55041 70000 82818 84625 87268 90730 91115 555 10000 30158 20000 89074 99096 40000 47681 44150 50000 50142
BBXX 44039 13061 99411 70727 46/// /2805 10063 20002 40309 90545 22200 00104 10301 70004 333 91207
BBXX 44060 13061 99413 70721 46/// ///04 10044 40299 58013 90600 22200 00093 333 91205 555 11036 22041
AAXX 13064 17500 12960 20904 10060 20027 30190 40251 52005 60002 81031 333 20034 30001 50121 55054 20573 81360
AAXX 13064 17501 12960 23605 10121 20111 30216 40235 52006 60002 80001 333 20094 30008 55068 20951 82070 92427
AAXX 13064 17505 12960 21105 10090 20069 30131 40247 52005 60002 80001 333 20079 30005 55064 20875 82070
AAXX 13064 17507 12960 22209 10120 20004 30136 40258 52009 60002 81031 333 20107 30008 5///1 55/// 2//// 81360
AAXX 13064 17510 12960 21804 10134 20069 30200 40210 54000 60002 80001 333 20105 30007 50151 55031 20646 82070 92417
AAXX 13064 17515 12960 20000 10049 20034 30079 40261 52006 60002 80001 333 20036 30001 50051 55051 20821 82070
AAXX 13064 17521 12960 22707 10080 20050 30094 40236 52008 60002 80001 333 20056 30004 50151 55041 20868 82070
AAXX 13064 17530 11959 20000 10049 20038 30187 40246 51007 60002 71000 80001 333 20034 30002 55055 20914 82070
AAXX 13064 17535 12960 20103 10073 20055 30183 40220 51006 60002 80001 333 20064 30003 55013 20898 82070
AAXX 13064 17540 12560 12409 10095 20068 30228 40253 5//// 60002 81100 333 20062 30002 50171 55/// 2//// 81830 92427
AAXX 13064 17547 12560 10311 10129 20074 39991 40236 5//// 60002 81100 333 20119 30009 5///1 55/// 2//// 81830 92427
AAXX 13064 17550 12960 20000 10129 20074 30086 40233 51004 60002 80001 333 20104 30007 55/// 2//// 82070 92427
AAXX 13064 17572 12960 2//// 10125 20051 30223 40248 5//// 60002 80001 333 20110 30007 82070 92417
AAXX 13064 17042 12970 01316 10106 21060 30231 40271 56003 60002 333 20080 30007 55007 92438
AAXX 13064 17074 11657 22103 11011 21013 39319 40285 52003 60002 71022 82500 333 21013 34102 55010 20481 82635 91104
AAXX 13064 17086 12965 31102 11003 21024 39550 40296 52004 60002 83030 333 21017 34102 55028 20507 83360
AAXX 13064 17088 12970 01102 11058 21070 38889 48572 52006 60002 333 21066 34108 55011 10281
AAXX 13064 17140 12965 00601 11012 21030 38769 48546 53001 60002 333 21029 3/104 47001 55054 2////
AAXX 13064 17155 11604 13601 11015 21019 39122 40278 53001 60002 74444 81500 333 21020 34103 55014 81640 91102
AAXX 13064 17203 12970 00000 11060 21100 38956 48588 53002 60002 333 21082 3/109 47006 55068 2////
AAXX 13064 17237 12970 32102 10047 20029 39740 40255 53004 60002 80008 333 20040 34101 55037 83270 91103
AAXX 13064 17250 12975 00408 11005 21041 38870 48551 52005 60002 333 21020 34102 55080
AAXX 13064 17270 12970 02702 10068 21029 39599 40261 52010 60002 333 20034 31001 55052
AAXX 13064 17295 12560 50706 10068 20049 30233 40240 53004 60002 81101 333 20051 30005 50264 55065 81830 85068
AAXX 13064 17320 12670 43604 10102 20035 30226 40231 56005 60002 84200 333 20087 31006 50211 55066 84835 92428
AAXX 13064 17375 12970 43301 10095 20024 30237 40239 52008 60002 80001 333 20075 30004 50281 55033 84070 91105 92408
AAXX 13064 93004 16/// /0521 10176 20176 40149 54000 69941
AAXX 13064 93023 16/// /0408 10186 20180 40179 52002 60001
AAXX 13064 93069 16/// /0512 10185 20174 40183 57001 60001
AAXX 13064 93110 17498 /0613 10192 20173 40179 57003 69921
AAXX 13064 93186 17295 /0907 10176 20172 40203 57002 69941
AAXX 13064 93196 16/// /0211 10177 20161 40218 57001 60001
AAXX 13064 93245 16598 /0607 10175 20148 40195 57003 60001
AAXX 13064 93292 17598 /0506 10186 20151 40202 52002 60001
AAXX 13064 93309 17597 /0310 10198 20175 40170 57004 69921
AAXX 13064 93334 16/// /0305 10165 20130 39242 57002 60001
AAXX 13064 93339 16/// /0118 10160 20124 39243 57004 60001
AAXX 13064 93373 17997 /0512 10204 20167 40177 54000 60001
AAXX 13064 93404 17698 /3404 10226 20190 40161 57005 60001
AAXX 13064 93420 17/98 /0104 10214 20157 40161 57009 69921
AAXX 13064 93439 17698 /3510 10210 20156 40158 57010 60001
AAXX 13064 93498 16/// /0318 10156 20149 40171 57004 60001
AAXX 13064 93515 17396 /0710 10180 20175 40145 57010 69921
AAXX 13064 93527 16/// /0210 10173 20168 40158 57009 60061
AAXX 13064 93546 17498 /0509 10179 20174 40162 57007 69981
AAXX 13064 93597 16/// /3419 10171 20148 40137 52001 60001
AAXX 13064 93615 17497 /0508 10194 20168 40139 57016 60001
AAXX 13064 93678 16/98 /2209 10173 20148 40112 57009 60001
AAXX 13064 93709 16/// /0607 10166 20153 40128 57020 69921
AAXX 13064 93773 17297 /1103 10151 20135 40124 54000 60001
AAXX 13064 93781 17/98 /0709 10203 20150 40118 57002 60001
AAXX 13064 93800 NIL
AAXX 13064 93805 NIL
AAXX 13064 93831 17/98 /2511 10243 20086 40074 57005 60001
AAXX 13064 93845 17798 /1714 10161 20131 40120 52004 60001
AAXX 13064 93891 17/98 /2002 10186 20135 40123 52003 60001
AAXX 13064 93909 16/// /9901 10144 20122 40136 57001 60001
AAXX 13064 93929 16/// /0000 10119 20101 40120 52011 60001
AAXX 13064 93947 16/// /3107 10099 20096 40112 52010 60001
AAXX 13064 93987 16/// /0412 10138 20102 40288 57003 60001
AAXX 13064 93994 16/// /1110 10214 20160 40168 52001 60001
AAXX 13064 64810 31420 60000 10230 20215 30068 40094 71799 84960 333 20210 55/// 59001 85612 81920 86364 94947 95837
AAXX 13064 64820 32460 50000 10241 20236 30102 40111 82502 333 20240 58001 82612 85070
AAXX 13063 61701 31959 00607 10196 20177 40117 71000 80000 333 20186 50231 55075 58003
AAXX 13063 61705 NIL
AAXX 13063 61707 NIL
AAXX 13063 61711 NIL
AAXX 13063 61712 NIL
AAXX 13063 61717 NIL
AAXX 13063 61720 NIL
AAXX 13063 61721 NIL
AAXX 13063 61722 NIL
AAXX 13063 61731 NIL
AAXX 13063 61733 NIL
AAXX 13061 26038 01262 81805 10013 20008 39953 49994 57016 60022 76176 8872/ 333 10014 20001 60017 88505 91008 91112 555 11001 20001 31100 50015 52100
BBXX BATUK01 13064 99577 70062 46/// /2021 10065 20004 49606 58028 22281 00112
AAXX 13061 14015 11115 53602 10036 20032 39820 40185 53014 60122 72864 81630 333 20036 32001 55000 70166 81701 555 20043 30053
AAXX 13061 14023 11/91 93301 10026 20026 39889 40190 53017 60052 74764 333 20009 31101 55001 70055 555 20044 30050
AAXX 13061 14024 11/90 91402 10014 20014 39067 48462 52009 60092 74764 333 20010 31101 55000 70089 95090
AAXX 13061 14026 11195 52102 10046 20045 39856 40180 52006 60042 710// 84630 333 20026 31000 55021 70041 84702 555 20045 30053
AAXX 13061 14031 11991 92901 11001 21004 39950 40186 52011 60052 74641 333 21001 32102 55019 70050 555 20028 30044
AAXX 13061 14105 11599 61002 10088 20058 30157 40162 52026 60062 701// 84570 333 20084 31006 55000 70130 81723 83650 555 20086 30094
AAXX 13061 14106 11999 71601 10073 20065 30091 40160 52021 60192 70162 87070 333 20067 31006 55000 70293 95000 555 20073 30076
AAXX 13061 14112 12/97 53202 10047 29095 60084 333 10100 20040 3/003 70000
AAXX 13061 14121 11695 70801 10053 21025 39906 40176 52011 60042 71062 83530 333 20052 31003 55001 70042 83647 555 20054 30060
AAXX 13061 14122 11562 63201 10039 20035 39986 40186 52016 60102 71122 84530 333 20036 31/// 70103 81623 83656
AAXX 13061 15501 11/06 90000 10053 20051 30157 40202 53010 60002 74544 333 10053 20051 70000 555 31/// 598//
AAXX 13061 15505 11/02 90000 10032 20032 39813 40192 56003 60012 74544 333 10038 20032 70013 555 31003 50000 69999 70600
AAXX 13061 15511 11508 80000 10048 20046 30168 40208 57004 60022 74642 885// 333 10051 20046 55000 70015 555 31/// 598//
AAXX 13061 15514 11556 80000 10050 20048 30160 40196 52004 60002 71022 885// 333 10055 20049 70001 555 31/// 598//
AAXX 13061 15530 11/02 92301 10048 20043 39953 40194 56001 60002 74744 333 10070 20042 70001 555 31001 597//
AAXX 13061 15533 11/03 90000 10058 20056 30134 40166 53003 60002 74744 333 10066 20058 70007 555 31/// 598//
AAXX 13061 15550 11/03 90000 10058 20053 30164 40184 57003 60002 74542 333 10096 20056 70000 555 30/// 597//
AAXX 13061 15561 11920 52004 10086 20073 30177 40184 57004 60002 71022 83031 222// 00099 2//01 333 10102 20068 70005 555 31005 592// 92023 92425
AAXX 13061 15562 11/00 92702 10086 20073 30130 40202 57001 60002 74542 222// 2//00 333 10096 20084 55000 70000 555 31007 592// 92002 92401
AAXX 13061 15600 11/84 62312 10021 20016 38307 48505 53002 60002 72842 83840 333 10025 20016 55000 555 31/// 596//
AAXX 13061 15601 11701 51402 10010 21001 39566 40200 54000 60002 74444 82330 333 10066 20008 55000 70005 555 31100 593//
AAXX 13061 15605 11775 60702 10056 20049 39347 40193 53002 60062 70282 86530 333 10072 20056 70055 555 31004 595// 70651
AAXX 13061 15613 11/00 92008 11018 21020 37714 47066 53004 60002 74944 333 11006 21018 44014 55000 70020 555 598//
AAXX 13061 15628 11640 80000 10058 20049 39946 40206 53003 60002 71022 8521/ 333 10060 20027 55022 70000 555 30100 594//
AAXX 13061 15642 11615 70000 10092 20090 30031 40199 57010 60002 71042 87500 333 10110 20062 55019 70000 555 30004 599//
AAXX 13061 15661 12570 60000 10090 20077 30153 40189 57007 60002 86500 222// 20000 333 10104 20072 70000 555 31002 592// 92000 92408
AAXX 13061 15726 11880 62701 10014 21003 38273 48534 54000 60002 70222 83032 333 10033 20014 41999 55058 70000 555 589//
AAXX 13064 65338 32956 53604 10207 20125 39927 40115 80002 333 01900 20207 50794 55000 58003 85076
AAXX 13064 60318 32965 02805 10128 20100 40264 58003
AAXX 13064 17022 12662 61204 10116 20037 30061 40226 57003 60002 81135 333 20101 30010 55019 81834 84360 86070 91106 92427
AAXX 13064 17031 12670 51104 10087 20024 30234 40240 55000 60002 81150 333 20022 30001 81836 85360
AAXX 13064 17038 11959 30000 10090 21014 30211 40263 57006 60002 70400 83030 333 20057 30002 55023 20595 83360 92426
AAXX 13064 17050 11656 83301 10068 20066 30139 40202 53002 60002 71011 8552/ 333 20065 31005 55010 85635 88460 91106
AAXX 13064 17060 12960 01103 10117 20053 30179 40219 56003 60002 333 20078 30005 50321 55038 20620
AAXX 13064 17096 11902 01601 11210 21210 38316 48594 53004 60002 74844 333 21232 3/124 47008 50024 55034 20272
AAXX 13064 17124 11957 51103 11010 21020 39335 40286 53003 60002 71011 83034 333 21041 31105 50054 55050 20779 83360 84070
AAXX 13064 17128 11002 50502 11041 21041 39161 40310 52004 60002 74800 85600 333 21045 34105 50074 55042 20293 85701
AAXX 13064 17170 NIL
AAXX 13064 17195 11960 00205 11025 21041 39051 48552 55001 60002 71000 333 21055 34107 50054 55022 20666
AAXX 13064 17199 12970 02302 11024 21058 39179 40326 52009 60002 333 21037 3/109 47003 55069 20645
AAXX 13064 17219 12562 79902 10094 20080 30084 40231 55000 60002 84250 333 20075 30007 55056 20296 84830 87360
AAXX 13064 17240 12970 02401 11034 21057 39096 40292 53001 60002 333 21043 34106 55052 20494
AAXX 13064 17244 11940 00503 11028 21044 39066 48544 52005 60002 71000 333 21051 34/// 55/// 2////
AAXX 13064 17280 12970 01901 11008 21040 39462 40287 52010 60002 333 21053 30108 50071 55070 20301
AAXX 13064 17350 12960 03304 10051 20038 30160 40241 51010 60002 333 20020 30///
AAXX 13064 17024 12970 01812 10101 20035 30149 40227 55000 60002 333 20092 31007 55016 91117 92438
AAXX 13064 17056 11960 73003 10078 20077 30209 40213 55000 60002 71000 83038 333 20069 31005 55023 20469 83360 87270 91105 92417
AAXX 13064 17067 12970 51502 10062 20046 30200 40223 57002 60002 85030 333 20055 31005 55000 85360 91106 92408
AAXX 13064 17092 12970 00000 11084 21087 38968 48571 52008 60002 333 21117 30113 50044 55071 20980
AAXX 13064 17112 12670 52703 10126 20104 30203 40205 50001 60002 82201 333 20105 31008 50074 55048 20075 82835 85070 91108 92418
AAXX 13064 17115 12960 31305 10075 20050 30164 40216 58001 60002 80001 333 20038 30002 50144 55042 20662 83070
AAXX 13064 17116 12662 30801 10062 20021 30111 40235 57001 60002 83100 333 20047 31002 55034 20038 83835 91105
AAXX 13064 17188 12960 22802 10017 20003 39173 40262 57001 60002 80001 333 20012 34101 55000 82070 91104
AAXX 13064 17202 11419 72007 11045 21045 39263 40352 52011 60002 71041 87500 333 21070 3/108 43004 84712 86630
AAXX 13064 17248 12975 01001 11017 21033 39052 48545 52007 60002 333 21046 34107 55068 2////
AAXX 13064 17292 11602 50000 10010 20009 39480 40256 51002 60002 74444 81130 333 20010 31001 50064 55023 20515 81840 85360 91103
AAXX 13064 17300 12560 33505 10053 20017 30161 40234 51002 60002 81101 333 20031 30102 50231 55/// 2//// 81830 83070
AAXX 13064 17310 12970 30603 10110 20030 30232 40239 53004 60002 80004 333 20104 30006 55057 83070 91105 92418
AAXX 13064 17330 12970 22703 10112 20005 30225 40243 52008 60002 80001 333 20076 31005 50081 55065 82070
AAXX 13064 17026 12970 21506 10116 20056 30192 40231 53002 60002 80001 333 20103 30008 55025 20909 70004 82070 91110 92428
AAXX 13064 17034 12970 21802 10090 21005 30209 40256 58003 60002 82030 333 20081 31004 82360 92428
AAXX 13064 17070 11901 02401 11011 21012 39379 40278 58001 60002 74400 333 21016 3/103 45998 50044 55026 20754
AAXX 13064 17084 11930 21601 11027 21029 39361 40307 51001 60002 71000 80001 333 21036 34106 55046 82070 91102
AAXX 13064 17090 12965 00000 11059 21084 38809 48566 51004 60002 333 21086 3/109 45998 55008
AAXX 13064 17098 12960 00000 11149 21158 38274 48591 52005 60002 333 21183 3/120 43002 50034 55026 21093
AAXX 13064 17150 11618 42501 10027 20025 30109 40236 53001 60002 71000 82130 333 20021 31002 50031 55063 20816 82835 83360
AAXX 13064 17160 12970 00103 11017 21041 39096 48549 52004 60002 333 21036 34105 55072 91111
AAXX 13064 17184 12670 50000 10031 20025 30125 40240 50000 60002 83201 333 20025 31002 55050 83840 85070 91103
AAXX 13064 17189 11901 00000 11076 21076 39088 48526 53002 60002 74700 333 21094 34111
AAXX 13064 17210 11957 20000 10008 21006 39211 40282 52010 60002 71000 80001 333 21007 34104 55051 82070
AAXX 13064 17234 12670 70804 10078 20047 30171 40240 53002 60002 83270 333 20075 31007 50104 55070 83840 87360 91111
AAXX 13064 17260 12960 02501 10004 21013 39428 40277 52011 60002 333 21018 34104 50064 55076 21153
AAXX 13064 17290 12670 50301 10131 20119 30204 40236 53002 60002 83250 333 20129 30010 50104 55028 83835 85360 91103 92408
AAXX 13064 17370 12965 01401 10103 20013 30235 40239 52009 60002 333 20095 30006 50184 55054 2//// 92417
AAXX 13063 04013 42689 11602 11041 21088 49780 54000 81500 555 3//09
AAXX 13063 04064 42670 80509 10024 21053 49703 57009 8452/ 555 3//13
AAXX 13064 68379 16/// /1004 10260 20206 39807 48555 52005 69924 333 20227 91010 555 10398 20002 91013
AAXX 13064 68398 16/// /3606 10217 20198 39355 48505 52006 69924 333 20199 91008 555 10328 20002 91013
AAXX 13064 68299 36/// /0903 10147 20140 38923 48510 52005 333 20142 91004 555 10281 91018
AAXX 13064 08055 12270 72006 10042 20038 39130 48492 58011 60002 878// 333 20022 31100 55055 70000 95090
AAXX 13064 08075 12475 81919 10055 20030 39166 48506 55006 60002 8687/ 333 20048 55027 70001
AAXX 13064 08084 01557 60000 10023 20011 39765 40212 55004 60002 71042 81522 333 20017 3/000 55064 60007 70005
AAXX 13064 08171 11405 71501 10034 20030 39978 40226 56002 60002 74442 876// 333 20025 31004 50020 55066 70000
AAXX 13064 08184 06/// /2604 10042 20029 30017 40176 56017 60002 333 20024 3/001 55077 60007 70000
AAXX 13064 08202 02465 72117 10072 20034 39299 42838 58011 60002 85446 333 20043 3/002 55019 60007 70004
AAXX 13064 08235 NIL
AAXX 13064 08238 12780 73403 10062 20049 30143 40205 57008 60002 81106 333 20058 55033 70000
AAXX 13064 08280 12570 73010 10066 20039 39423 40259 55007 60002 875// 333 20054 50194 55015 70000
AAXX 13064 08330 12760 72802 10101 20073 30028 40262 57008 60002 85677 333 20086 30008 50124 55010 70008
AAXX 13064 08348 12565 82304 10074 20068 39523 40272 56001 60002 866// 333 20062 50074 55003 79999
AAXX 13064 08360 02970 02308 10075 20039 30199 40237 55010 60002 333 20073 30009 5///4 55057 60007 70000
AAXX 13064 08373 02665 12905 10111 20069 30201 40223 55004 60002 81100 333 20111 3/009 55037 60007 70000
AAXX 13064 08410 01457 70000 10092 20083 30164 40277 55000 60002 71000 85770 333 20074 31006 55000 60007 79999
AAXX 13064 08419 NIL
AAXX 13064 08451 02662 20302 10096 20096 30235 40269 55002 69902 82500 333 20075 3/006 55/// 69907 79999
AAXX 13064 08487 02984 03410 10100 20039 30216 40242 55008 60002 333 20099 30010 55080 60007 70000
AAXX 13061 38353 NIL
AAXX 13061 38613 12998 71501 10043 21067 40364 54000 60020 80002 333 21006
AAXX 13061 38616 12597 60000 10016 21031 39314 40357 54000 69970 82501 333 21047
AAXX 13061 38345 NIL
AAXX 13061 36911 12998 30000 10003 21024 39361 40353 58006 69920 70272 83010 333 21056
AAXX 13061 36974 32798 72201 11098 21145 38064 48626 52010 84501 333 21150
AAXX 13061 36982 NIL
AAXX 13061 48855 32560 83602 10210 20165 30159 40167 58022 888// 333 59012 82895 88697
AAXX 13061 48848 32565 83203 10184 20119 30175 40183 57024 888// 333 59012 82895 88697
AAXX 13061 38353 11998 21002 10009 21027 39425 40351 57005 09940 70272 80001 333 21018
AAXX 13064 48300 31560 23102 10253 20180 39824 40136 57025 70142 82101 333 59001
AAXX 13064 48327 32560 22305 10264 20193 39801 40155 57024 82500 333 58004
AAXX 13064 48331 31560 21801 10255 20170 39914 40145 57033 70142 81101 333 59011
AAXX 13064 48353 31956 01803 10255 20118 39854 40143 57029 70500 333 59016
AAXX 13064 48356 31959 51102 10245 20102 39955 40153 58029 70522 80001 333 59010
AAXX 13064 48375 32960 00406 10280 20148 39893 40116 57029 333 59009
AAXX 13064 48378 31557 23206 10270 20159 30092 40145 57028 70500 81105 333 59008
AAXX 13064 48381 32960 23504 10258 20116 39941 40159 57014 80005 333 58001
AAXX 13064 48407 31559 70104 10267 20143 39992 40133 57028 70522 81446 333 59004
AAXX 13064 48431 32960 10313 10250 20129 39930 40145 57032 80001 333 59006
AAXX 13064 48456 NIL
AAXX 13064 48480 32960 30306 10280 20148 30118 40122 57018 80005 333 59001
AAXX 13064 48500 31556 53308 10276 20155 30121 40127 57021 70522 83846 333 58004
AAXX 13064 48551 31556 40206 10290 20224 30107 40115 57016 71011 83205 333 59005
AAXX 13064 48565 32560 40809 10298 20206 30099 40109 54000 81145 333 58007
AAXX 13064 48569 31458 73506 10267 20236 30071 40111 57017 71022 85876 333 59004 70232
AAXX 13064 48583 32560 80000 10272 20226 30103 40109 57014 82876 333 59001 70036
AAXX 13064 48310 31557 22703 10243 20155 39691 40147 57024 70500 82100 333 59009
AAXX 13064 48325 31562 20000 10270 20175 39887 40129 57030 70142 82201 333 58001
AAXX 13064 48329 31550 10000 10266 20177 39802 40139 57024 70500 81100 333 59008
AAXX 13064 48352 31958 10905 10258 20131 39949 40150 57032 70510 80001 333 59013
AAXX 13064 48357 31958 61404 10260 20114 39984 40154 57027 70521 80006 333 59011
AAXX 13064 48380 32960 20000 10270 20161 30050 40143 57029 80001 333 59014
AAXX 13064 48383 31959 51002 10250 20134 39982 40142 57028 70522 80006 333 59010
AAXX 13064 48403 NIL
AAXX 13064 48405 32960 60510 10252 20132 39977 40141 57028 80006 333 59013
AAXX 13064 48420 31950 73602 10285 20150 30127 40132 57021 70522 80006 333 59006
AAXX 13064 48421 31957 20000 10292 20170 30017 40130 57031 70500 80005 333 59005
AAXX 13064 48425 31958 50605 10264 20160 30133 40143 57023 70511 80006 333 59010
AAXX 13064 48426 32962 30605 10278 20139 30125 40138 57025 80005 333 59015
AAXX 13064 48429 32560 63304 10278 20141 30126 40133 57021 81136 333 59007
AAXX 13064 48430 31959 21207 10291 20140 30126 40133 56018 70500 80002 333 59007
AAXX 13064 48450 31958 00502 10281 20128 30106 40139 57024 70500 333 59004
AAXX 13064 48459 32962 50504 10290 20153 30126 40129 57022 80006 333 59002
AAXX 13064 48465 31958 63606 10280 20158 30135 40139 57018 70522 80006 333 58001
AAXX 13064 48550 31458 60206 10284 20219 30110 40117 57012 71021 82846 333 59002
AAXX 13064 48552 32460 50205 10292 20221 30108 40114 57015 82106 333 58003
AAXX 13064 48566 NIL
AAXX 13064 48568 31459 83002 10275 20231 30105 40113 57015 71022 8387/ 333 59002 70458
AAXX 13061 36982 12999 02101 11156 21211 36547 47203 52005 69940 333 21228
AAXX 13061 01028 11580 20703 11040 21049 39939 49959 57007 69902 70200 82501 333 21081 70001 91107
AAXX 13061 01212 16/// /1406 10059 20001 39772 49787 57027 6//// 333 20046 91118
AAXX 13061 01367 11325 83103 11057 21065 39442 49889 58021 69902 72072 8872/ 333 21057 47019 70090 91104
AAXX 13061 01492 11485 60502 10016 20007 39770 49887 58027 69942 70182 82678 333 20003 70072 91104
AAXX 13064 48302 31558 32402 10162 20141 38489 40124 57014 71011 82205 333 59031
AAXX 13064 48304 32565 20000 10239 20166 39684 40146 57025 82500 333 59022
AAXX 13064 48334 31558 20000 10254 20167 39780 40142 57025 70500 82500 333 59006
AAXX 13064 48360 NIL
AAXX 13064 48372 31958 33505 10266 20172 30081 40139 57029 70511 80005 333 59020
AAXX 13064 48373 31956 20000 10277 20150 30075 40137 57033 70500 80005 333 59010
AAXX 13064 48386 01956 01905 10267 20163 30087 40131 57031 60051 70500 333 59020 60057 70050
AAXX 13064 48387 32960 20304 10210 20137 39177 40135 57028 80004 333 59017
AAXX 13064 48408 31559 60402 10270 20151 39984 40133 57027 70522 82536 333 59007
AAXX 13064 48415 31950 60413 10282 20146 30125 40136 57023 70522 80002 333 59010
AAXX 13064 48433 31559 20408 10260 20147 39978 40144 57026 70500 81205 333 59001
AAXX 13064 48437 31958 50203 10240 20138 39939 40151 57021 70511 80006 333 59005
AAXX 13064 48440 NIL
AAXX 13064 48451 32960 70304 10260 20159 30133 40144 57022 80006 333 59009
AAXX 13064 48454 32960 60000 10276 20151 30127 40134 56019 80006 333 59003
AAXX 13064 48457 31940 63303 10239 20164 30123 40140 57015 70522 80006 333 59001
AAXX 13064 48463 31930 63508 10280 20170 30048 40142 58016 70522 80006 333 59004
AAXX 13064 48464 31958 33511 10266 20195 30113 40126 57024 71011 80001 333 59003
AAXX 13064 48479 31958 40000 10298 20155 30077 40129 57016 70511 80005 333 58000
AAXX 13064 48520 31559 50408 10268 20197 30110 40125 56012 71011 84205 333 58004
AAXX 13064 48554 31458 50308 10300 20235 30108 40112 57014 71011 82246 333 58002
AAXX 13064 48563 32560 30608 10309 20193 30068 40103 57018 82145 333 58007
AAXX 13064 48571 32461 70204 10274 20225 30104 40115 57010 83288 333 58001 70618
AAXX 13061 33317 11295 81803 10040 20038 39830 40169 53002 69972 71082 886// 333 20009 88706
AAXX 13061 33345 11395 81704 10025 20017 39997 40206 57005 69902 75152 886// 333 20005 88707
AAXX 13061 33587 11496 81902 10021 20016 39950 40218 57004 69972 76162 8802/ 333 20012 87710 555 31000
AAXX 13061 33791 32997 81405 10003 21008 30106 40262 56002 8805/ 333 20000
AAXX 13061 33924 32598 81005 10044 20011 30218 40230 57015 889// 333 20040 88925
AAXX 13061 34519 32960 31203 11037 21055 30020 40309 53003 80001 333 21040
AAXX 13061 38345 31/93 90000 11038 21038 38887 48570 58002 74542 333 21044
AAXX 13064 44404 42970 03601 10170 20054 38159 48500 333 58003
AAXX 13064 44406 NIL
AAXX 13064 44409 41/07 90000 10138 20115 39961 40169 74344 89/// 333 58006
AAXX 13064 44416 NIL
AAXX 13064 44418 41/09 92501 10144 20141 30012 40206 74344 89/// 333 59002
AAXX 13064 44424 42970 02304 10116 21035 37691 47095 333 58002
AAXX 13064 44429 NIL
AAXX 13064 44434 41557 11002 10152 20112 39255 48544 70544 81200 333 59003
AAXX 13064 44438 41313 70000 10176 20144 30065 40195 71044 87600 333 59008
AAXX 13064 44449 41512 20302 10168 20132 30039 40198 71044 82100 333 58000
AAXX 13064 44454 41550 10000 10146 20048 38690 48522 71000 81100 333 58000
AAXX 13064 44462 NIL
AAXX 13064 44474 42262 20302 10119 20061 3//// 4//// 82200 333 5////
AAXX 13064 44477 NIL
AAXX 13064 44478 41930 02703 10194 20174 30102 40184 70541 333 58005
AAXX 13064 91348 32474 60908 10288 20222 30025 40078 55007 84101 333 562/9 70015 555 91306
AAXX 13064 91203 11474 80812 10301 20271 30095 40100 57014 60021 71682 84336 333 56299 70020 84917 82817 85080 555 91306
AAXX 13061 26106 11/97 81705 10018 20006 40055 57001 60012 78082 889// 333 20012 91112
AAXX 13061 26313 12/97 82303 10037 20028 40022 52005 69952 889// 333 20008 91111
AAXX 13061 26346 11497 71805 10004 21010 40070 57008 69922 70272 87600 333 21018 43002 87713 91112
AAXX 13061 26406 11597 72407 10057 20031 40047 52016 60032 70282 87500 333 20016 87623 91011 91111
AAXX 13061 26416 33/// /2103 10024 20018 40049 52005 333 20003
AAXX 13061 26424 11497 82104 10019 20011 40055 52002 69962 78082 889// 333 20003 86913
AAXX 13061 26544 32497 81805 10013 21002 40095 57005 883// 333 21008 84914
AAXX 13061 12120 11470 72106 10038 20020 30062 40069 58006 69922 70261 875// 333 10055 20037 31003 55004 70004 91112 93091
AAXX 13061 12250 11945 01902 10010 20009 30026 40116 50003 60002 71011 333 10049 20004 34104 55024 93000
AAXX 13061 12295 11450 82302 10019 20013 39937 40124 52010 69902 72522 885// 333 10020 20004 31101 55003 79999 88610 93097
AAXX 13061 12330 12960 12103 10012 20003 30006 40116 58008 69902 80001 333 10059 20009 31101 55043 79999 93000
AAXX 13061 12375 12460 72301 10036 20024 30003 40135 51009 60002 875// 333 10043 20000 31102 87613 93000
AAXX 13061 12424 12980 11903 10006 21001 39988 40144 58003 69962 80001 333 10051 21019 34105 55046 70006 93000
AAXX 13064 08261 12770 82003 10106 20054 39784 40269 58011 60002 8807/ 333 20096 31007 55016 70003
AAXX 13061 13160 11697 83002 10060 20056 30054 40164 52015 60062 72162 885// 333 20060 32004 55028 70056
AAXX 13061 13262 32697 80000 10093 20078 30014 40162 52016 885// 333 20078 31005 55014 70000
AAXX 13061 13272 31960 50104 10069 20052 30037 40157 52016 70162 85030 333 20071 31006 55011 85358
AAXX 13061 13285 32698 61103 10076 20051 30068 40171 54000 86500 333 20066 31001 55027 70000
AAXX 13061 13289 11898 51906 10046 20040 38969 48474 53001 69912 72844 85070 333 20001 31000 55000 70002
AAXX 13061 13376 32998 61204 10109 20060 39907 40167 53007 86030 333 20090 31008 55000 70000
AAXX 13061 13388 12697 60000 10082 20074 39934 40182 53003 69952 86530 333 20078 31004 55000 70024
AAXX 13061 13462 11420 83601 10103 20101 30126 40166 57002 60082 76196 8682/ 333 20085 32006 55/// 82710 85634 88458
AAXX 13061 13473 NIL
AAXX 13061 13489 11392 82201 10066 20066 39678 40201 53004 69902 74244 886// 333 20054 32003 55000 70021
AAXX 13064 06011 07571 50726 10054 20025 39564 49630 57045 69972 70086 333 10058 20001 55300 20000 69977 70122 81/26 83/50 85/62
AAXX 13064 48307 32962 10000 10274 20158 39763 40139 57032 80005 333 59014
AAXX 13064 48324 31556 22704 10274 20168 39926 40145 57024 70500 81105 333 59005
AAXX 13064 48333 32560 10000 10250 20150 39845 40148 57029 81101 333 59010
AAXX 13064 48350 NIL
AAXX 13064 48355 31958 20000 10250 20107 39926 40147 57025 70500 80001 333 59016
AAXX 13064 48358 31959 40905 10245 20087 39979 40156 57026 70521 80005 333 59009
AAXX 13064 48384 32960 60303 10264 20122 39956 40147 57027 80006 333 59009
AAXX 13064 48401 31957 40504 10266 20166 30038 40146 57026 70511 80005 333 59010
AAXX 13064 48404 31958 40606 10255 20125 39961 40139 56030 70511 80006 333 59009
AAXX 13064 48409 NIL
AAXX 13064 48419 31959 50510 10265 20149 30132 40140 57013 70511 80005 333 59006
AAXX 13064 48427 31958 80709 10257 20155 30132 40140 57023 70522 80002 333 59008
AAXX 13064 48435 31958 60313 10250 20125 39699 40137 58023 70522 80006 333 59010
AAXX 13064 48453 31958 62704 10282 20153 30127 40130 57023 70522 80006 333 59003
AAXX 13064 48458 32960 83602 10277 20192 30065 40145 57023 82036 333 59008
AAXX 13064 48474 31958 73610 10280 20135 30007 40130 57021 70522 80006 333 59003
AAXX 13064 48481 NIL
AAXX 13064 48555 31457 60301 10287 20222 30092 40134 55016 71022 84105 333 59006
AAXX 13064 48556 32560 63605 10302 20213 30094 40110 57017 82106 333 58007
AAXX 13064 48557 32562 40804 10318 20214 30072 40106 57023 82201 333 59002
AAXX 13064 48560 31557 80000 10274 20239 30109 40113 56011 71022 83876 333 58006 70307
AAXX 13064 48574 32562 63607 10295 20232 30079 40108 57014 82136 333 59001 70020
AAXX 13064 48581 31457 83503 10295 20239 30071 40112 57015 71022 83546 333 58004 70001
AAXX 13061 12105 12960 01604 10017 20004 30025 40068 58016 69962 333 10058 20017 31001 70006 93000
AAXX 13061 12195 11215 82403 10014 20011 39875 40106 51007 69902 72062 886// 333 10014 20002 31100 79999 93097
AAXX 13061 12235 11240 62004 10006 20003 39881 40095 58007 69922 71022 866// 333 10042 20006 31100 55038 70002 86705 93000
AAXX 13061 12270 11428 72304 10020 20019 39939 40124 52010 60002 71022 875// 333 10026 20000 34101 55030 93000
AAXX 13061 12280 11/35 62303 10019 20015 39951 40110 52009 69912 71081 86500 333 10022 20003 31101 55020 70001 93091
AAXX 13061 12300 11956 22002 10005 21002 30001 40093 58018 69912 71011 80001 333 10061 20005 34104 55002 70003 93000
AAXX 13061 12400 12960 11803 11004 21010 39876 40117 58013 69902 80001 333 10064 21005 34102 55034 79999 93000
AAXX 13061 12435 11557 12003 10022 20003 39962 40137 50000 60002 71011 81500 333 10039 20019 34103 55053 93000
AAXX 13061 12495 11616 82402 10015 20014 39854 40152 51011 69912 76111 885// 333 10036 20009 31100 55007 70001 93091
AAXX 13061 12530 11640 71501 10006 20006 39948 40152 58002 69912 71022 8453/ 333 10040 20003 31102 55064 70001 93000
AAXX 13061 12570 11414 80501 11004 21007 39832 40159 51006 60002 71042 885// 333 10018 21031 34104 55008 84614 88631 93000
AAXX 13061 12580 11520 82603 10036 20032 39896 40159 53006 69952 76182 885// 333 10069 20036 31002 55018 70005 93094
AAXX 13061 33088 11596 82302 10039 20034 39964 40157 53002 69972 71082 885// 333 20010
AAXX 13061 33177 11430 81601 10032 20027 39912 40152 52004 69972 76162 8872/ 333 20018
AAXX 13061 33261 32697 81704 10014 21041 30045 40232 57003 8655/ 333 21022 86634
AAXX 13061 33275 31995 71606 11010 21017 30029 40260 58020 71011 87030 333 21047 43003
AAXX 13061 33301 11597 81803 10033 20028 39875 40160 54000 60042 72582 8635/ 333 20006 85931
AAXX 13061 33325 11396 81803 10036 20029 39910 40181 57006 69902 71085 886// 333 20022 88707
AAXX 13061 33377 32697 81603 10005 21025 30048 40248 57003 8357/ 333 21013 41997
AAXX 13061 33415 11/93 91605 10014 20014 39766 40171 58019 60012 74564 333 20006
AAXX 13061 33429 11/93 91705 10044 20044 39746 40172 57003 69912 74554 333 20014
AAXX 13061 33466 32466 81604 10025 21011 30028 40219 57005 885// 333 20014 86714
AAXX 13061 33526 11208 80000 10006 20006 39819 40166 57002 69962 76164 8772/ 333 21001 87703 96043
AAXX 13061 33562 11212 81505 10032 20027 39822 40188 57006 69942 75152 886// 333 20015 88703
AAXX 13061 33614 32697 81303 10009 21015 30149 40257 57004 885// 333 21020 88646
AAXX 13061 33761 11332 81504 10026 20021 39989 40217 57004 69952 76162 8872/ 333 20015
AAXX 13061 33902 31597 81403 10030 20014 30168 40236 56009 71022 8753/ 333 20017
AAXX 13061 33983 31194 80702 10024 20022 30210 40272 54000 71022 886// 333 21005 88703
AAXX 13061 34415 31958 30000 11016 21028 30201 40302 53001 71011 83030 333 21016
AAXX 13061 34523 32998 41901 11004 21049 30233 40312 53006 84030 333 21004
AAXX 13061 34712 31550 61105 11010 21019 30210 40299 54000 71011 82531 333 21013
AAXX 13061 12160 11440 72003 10020 20016 30046 40100 51008 69932 71011 875// 333 10037 20016 31001 55037 70003 93000
AAXX 13061 12205 12967 32006 10024 20009 30055 40063 58025 69912 80002 333 10060 20021 31001 70009 93000
AAXX 13061 12465 11656 22203 10010 20006 39904 40143 50004 60002 71011 82500 333 10027 20006 31102 55056 20310 93000
AAXX 13061 12566 11530 82402 10022 20019 39863 40163 51005 60002 71011 875// 333 10029 21007 31103 93000
AAXX 13064 71900 46/// /23// 11137 21190 30215 40228 53013 6///1 333 11115 21164 7////
AAXX 13064 71903 NIL
AAXX 13064 71904 NIL
AAXX 13064 71914 16/// /0000 11004 21030 39973 40197 56012 60001 333 10029 21013 70000
AAXX 13064 71916 NIL
AAXX 13064 71918 460// ///// 11247 6///1 333 7////
AAXX 13064 71920 NIL
AAXX 13064 71921 NIL
AAXX 13064 71923 NIL
AAXX 13064 71927 NIL
AAXX 13064 71941 17348 80101 11004 21005 39852 40275 51004 69931 7714/ 333 10016 21012 70003
AAXX 13064 71947 15566 83507 11076 21086 39938 40294 53007 60001 333 11012 21076 70000
AAXX 13064 71150 46/// /1807 11103 21113 39579 40288 56008 6///1 333 11076 21158 7////
AAXX 13064 71151 NIL
AAXX 13064 71152 46/// /0403 11004 21026 30279 40292 6///1 333 7////
AAXX 13064 71153 16/// /2206 11093 21131 60001 333 11053 21166 70019
AAXX 13064 71154 16/// /2223 11044 21110 60001 333 11016 21182 70016 555 32136 40053
AAXX 13064 71155 NIL
AAXX 13064 71156 NIL
AAXX 13064 71157 46/// ///// 11059 21091 6///1 333 11043 21098 7////
AAXX 13064 71158 NIL
AAXX 13064 71159 NIL
AAXX 13064 71160 NIL
AAXX 13064 71161 16/// /2303 11025 21032 30135 40286 56002 60001 333 10054 21029 70000 555 32217 40191
AAXX 13064 71162 NIL
AAXX 13064 71163 46/// /3117 11021 21033 39519 49852 53030 6///1 333 10003 21148 7//// 555 32927 40061
AAXX 13064 71164 NIL
AAXX 13064 71165 NIL
AAXX 13064 71166 NIL
AAXX 13064 71167 15966 82604 11046 21060 39016 40139 55013 60001 333 11036 21218 70000
AAXX 13064 71168 16/// /1504 11030 21037 39669 40265 51005 60001 333 10035 21030 70000 555 31818 40071
AAXX 13064 71170 NIL
AAXX 13064 71171 46/// /2504 10002 21029 30197 40295 56001 6///1 333 10066 21022 7////
AAXX 13064 71172 16/// ///// 10035 20025 30052 40272 58002 60001 333 10038 20019 70000
AAXX 13064 71175 NIL
AAXX 13064 71176 460// /2534 11136 39427 40124 58007 6///1 333 11122 21138 7//// 555 32644 40153
AAXX 13064 71177 460// /3226 11187 39116 40155 52019 6///1 333 11162 21197 7////
AAXX 13064 71178 16/// /2918 11026 21071 30243 40276 51015 60001 333 10011 21061 7////
AAXX 13064 71179 460// /2618 11197 39327 40189 50021 6///1 333 11172 21233 7//// 555 32649 40193
AAXX 13064 71180 16/// /2709 10022 21008 30252 40292 57004 60001 333 10023 21030 70008 555 32531 40102
AAXX 13064 71181 16664 80000 10002 21043 30240 40277 51008 60001 333 70000
AAXX 13064 71183 16/// /0402 30247 58004 60001 333 70000
AAXX 13064 71184 46/// /2104 11016 21034 6///1 333 10050 21043 7//// 555 32318 40171
AAXX 13064 71186 NIL
AAXX 13064 71187 15966 11108 11023 21058 30164 40213 56008 60001 333 10017 21025 70000
AAXX 13064 71189 NIL
AAXX 13064 71190 NIL
AAXX 13064 71191 16/// ///// 11010 21034 60001 333 10088 21014 70004
AAXX 13064 71192 15766 81905 11030 21058 39524 40199 56003 60001 333 11020 21132 70000 555 31417 40011
AAXX 13064 71193 16/// /0105 11033 21037 39909 40280 53006 60001 333 11003 21036 70000
AAXX 13064 71196 NIL
AAXX 13064 71197 16464 62609 10022 21009 30241 40291 58004 60001 333 10023 21034 70005 555 32739 40183
AAXX 13064 71198 46/// /2603 11004 21023 6///1 333 10039 21015 7//// 555 32023 40071
AAXX 13064 71199 46/// /2405 11045 21099 39214 40049 51019 6///1 333 10008 21185 7//// 555 32326 40221
AAXX 13064 71001 NIL
AAXX 13064 71002 NIL
AAXX 13064 71003 NIL
AAXX 13064 71005 16/// ///// 11099 21113 60001 333 11038 21106 70000
AAXX 13064 71006 NIL
AAXX 13064 71007 NIL
AAXX 13064 71008 NIL
AAXX 13064 71009 NIL
AAXX 13064 71010 NIL
AAXX 13064 71011 NIL
AAXX 13064 71012 NIL
AAXX 13064 71013 NIL
AAXX 13064 71014 NIL
AAXX 13064 71015 NIL
AAXX 13064 71016 NIL
AAXX 13064 71017 NIL
AAXX 13064 71018 NIL
AAXX 13064 71019 NIL
AAXX 13064 71020 NIL
AAXX 13064 71021 NIL
AAXX 13064 71022 17666 81106 10020 20013 30088 40132 58008 60051 76144 333 10026 21001 70258 555 31423 40171
AAXX 13064 71023 16964 32114 11069 21094 39345 40126 58023 60001 333 11064 21104 70000 555 32225 40041
AAXX 13064 71024 16/// /2802 11069 21069 60001 333 11069 21181 70000 555 10010
AAXX 13064 71026 NIL
AAXX 13064 71027 16/// /2502 11011 21020 30276 40286 58012 60001 333 10037 21054 70008 555 32824 40171
AAXX 13064 71028 16/// /3502 11065 21090 39135 40198 56005 60001 333 11044 21168 70000
AAXX 13064 71029 16/// /0221 11275 21303 39895 49935 53038 60001 333 11183 21280 70000 555 30335 40043
AAXX 13064 71030 16/64 /2203 10048 20024 30181 40271 58012 60001 333 10088 20019 70006
AAXX 13064 71032 46/// /0000 11116 21132 39372 40229 58004 6///1 333 11021 21117 7////
AAXX 13064 71033 46/// /2214 11074 21092 39440 40076 56026 6///1 333 11074 21131 7//// 555 31927 40041
AAXX 13064 71035 NIL
AAXX 13064 71036 15466 81804 11105 21120 39895 40287 58020 60001 333 11094 21156 70000
AAXX 13064 71039 46/// /0000 11056 6///1 333 10011 21057 7////
AAXX 13064 71040 46/// /0504 11007 21021 30051 40253 56008 6///1 333 10020 21007 7//// 555 32524 40111
AAXX 13064 71041 17958 01301 11020 21023 30149 40294 56014 60001 710// 333 10051 21084 70000 555 32329 40142
AAXX 13064 71042 16/// /0000 11046 21051 30193 40197 56006 60001 333 10054 21090 70000
AAXX 13064 71044 17/// /0307 11144 21174 39715 40036 51039 69931 7//4/ 333 11075 21164 70009 555 10010 20009 30227 40141
AAXX 13064 71046 460// /0909 11210 30073 40091 51029 6///1 333 11135 21210 7//// 555 30619 40231
AAXX 13064 71047 16/// ///// 11091 21100 60001 333 11037 21107 70000
AAXX 13064 71048 NIL
AAXX 13064 71049 NIL
AAXX 13064 71060 NIL
AAXX 13064 71063 NIL
AAXX 13064 71893 12980 72903 10010 21016 30172 40204 57006 60001 87070 333 10034 21037 70000 555 10000 20000
AAXX 13064 71894 16/// /0706 10036 20030 30185 40194 58005 60001 333 10054 21010 70000
AAXX 13064 71896 15666 81914 11030 21065 39329 40175 57003 60001 333 11028 21141 70000
AAXX 13064 71897 11266 81420 10033 20017 3//// 4//// 57014 60051 76162 888XX 333 10052 20028 70096 90983
AAXX 13064 71898 160// ///// 10023 58009 60041 333 10028 21002 70250
AAXX 13064 71899 11474 80210 10040 20036 3//// 4//// 57012 60001 71622 8232/ 333 10066 20026 70114 555 32822 40151
AAXX 13064 71902 NIL
AAXX 13064 71905 NIL
AAXX 13064 71906 11974 02506 11199 21223 30185 40237 51002 69901 70271 333 11132 21202 48008 79999 90950 555 19999 29999
AAXX 13064 71907 17320 92615 11106 21131 30178 40211 56003 69951 74544 333 11104 21162 70015 555 30320 40061
AAXX 13064 71909 16964 03410 11236 21278 30101 40146 52004 60001 333 11155 21238 70000 555 33229 40122
AAXX 13064 71910 47016 92711 11157 21169 30061 40125 58001 6///1 745// 333 11143 21185 7////
AAXX 13064 71911 47211 31324 11217 39883 49941 58033 6///1 745// 333 11217 21342 7//// 555 30130 40062
AAXX 13064 71912 12974 02111 11154 21187 30023 40214 56015 60001 333 11114 21248 79999 555 19999 29999 32222 40020
AAXX 13064 71915 11462 80704 11239 21278 30027 40112 55017 69901 77173 885// 333 11233 21336 48043 79999 90983 555 19999 29999
AAXX 13064 71917 11974 60000 11407 21443 30040 40055 51005 69901 7767/ 86070 333 11387 21420 47013 79999 90999 555 19999 29999
AAXX 13064 71922 11474 81911 11094 21107 39694 40172 57025 69901 72271 885// 333 11092 21127 47027 79999 90952 555 19999 29999
AAXX 13064 71924 11262 70921 11252 21289 39909 40001 57011 69901 77677 83530 333 11243 21295 48037 79999 90983 555 19999 29999 30921 40061
AAXX 13064 71925 11462 81006 11130 21142 39749 49789 56019 69901 77177 885// 333 11130 21320 42018 79999 90983 555 19999 29999 31721 40181
AAXX 13064 71926 11412 81720 11119 21147 39873 49897 57063 60011 77177 885// 333 11114 21273 48041 70016 90983 93101 555 10016 20016 31823 40051
AAXX 13064 71928 16/// /1203 11125 21143 38962 40163 57009 60001 333 11073 21198 70000 555 10010
AAXX 13064 71450 NIL
AAXX 13064 71451 16/// /2105 11107 21127 39707 40143 58028 60001 333 11088 21134 70000 555 10010 32317 40201
AAXX 13064 71452 46/// /1813 11060 21071 39527 40257 58014 6///1 333 11049 21066 7//// 555 31618 40041
AAXX 13064 71453 16/// /1910 11053 21071 39268 40199 56011 60001 333 11035 21076 7//// 555 10040
AAXX 13064 71454 16/// /2007 11085 21099 39486 40196 56023 60001 333 11085 21140 70000 555 31819 40021
AAXX 13064 71455 NIL
AAXX 13064 71456 NIL
AAXX 13064 71457 16/// /1703 11167 21179 39261 40183 57012 60001 333 11058 21184 70003
AAXX 13064 71458 16/// /1911 11088 21102 39367 40153 56012 60001 333 11038 21108 70000 555 10010 31921 40211
AAXX 13064 71459 16/// /2004 11154 21174 39370 40206 58012 60001 333 11061 21154 70000
AAXX 13064 71460 16/// /2608 10043 20035 30029 40273 50000 60001 333 10051 20030 70000 555 32423 40071
AAXX 13064 71461 NIL
AAXX 13064 71462 NIL
AAXX 13064 71463 NIL
AAXX 13064 71464 NIL
AAXX 13064 71465 NIL
AAXX 13064 71466 NIL
AAXX 13064 71468 NIL
AAXX 13064 71470 NIL
AAXX 13064 71471 15966 02414 11007 21083 39310 40102 50006 60001 333 10018 21158 70000
AAXX 13064 71473 16/// /0406 10006 21036 30166 40196 56012 60001 333 10039 21002 70000 555 33519 40081
AAXX 13064 71475 NIL
AAXX 13064 71476 NIL
AAXX 13064 71477 17/// /1509 10038 20028 69941 7//4/ 333 10052 20017 70122 555 31734 40153
AAXX 13064 71478 NIL
AAXX 13064 71479 NIL
AAXX 13064 71480 NIL
AAXX 13064 71481 NIL
AAXX 13064 71482 NIL
AAXX 13064 71483 NIL
AAXX 13064 71484 NIL
AAXX 13064 71485 17/// /1223 10034 20016 30150 40171 56015 60021 7//4/ 333 10038 20025 70016 555 31231 40062
AAXX 13064 71486 16/// /1504 11066 21113 38963 40198 58008 60001 333 11066 21209 70000
AAXX 13064 71487 16/// /1809 11074 21082 39348 40239 55011 60001 333 11060 21086 70000 555 31617 40051
AAXX 13064 71489 16/// /2208 11063 21070 39385 40207 56010 60001 333 11063 21168 70000 555 31718 40041
AAXX 13064 71490 NIL
AAXX 13064 71491 16/// /3001 11130 21146 60001 333 10105 21223 70030
AAXX 13064 71492 NIL
AAXX 13064 71493 16/// /0000 10013 20008 30242 40281 56012 60001 333 10078 21048 70000 555 32720 40191
AAXX 13064 71494 16/// /2402 11066 21073 39750 40283 56006 60001 333 10015 21082 70000 555 32719 40161
AAXX 13064 71495 NIL
AAXX 13064 71496 16/// /1909 11076 21087 39588 40217 56022 60001 333 11072 21108 70000
AAXX 13064 71497 46/// /2613 10042 21103 39702 49963 53014 6///1 333 10046 21103 7//// 555 32435 40043
AAXX 13064 71498 NIL
AAXX 13064 71499 17456 82119 11071 21089 39439 40073 56025 60001 771// 333 11071 21122 70000
AAXX 13064 71744 NIL
AAXX 13064 71750 16/// /0505 11043 21057 30044 40284 52011 60001 333 11014 21067 70000 555 30517 40031
AAXX 13064 71751 NIL
AAXX 13064 71752 NIL
AAXX 13064 71753 16/// /0902 11029 21032 30261 40291 55006 60001 333 10075 21090 70000 555 32218 40161
AAXX 13064 71754 16/// /2006 11061 21076 39528 40209 56014 60001 333 11061 21128 70000
AAXX 13064 71755 43/// /2504 11236 21272 39946 40312 56007 6///1 333 7////
AAXX 13064 71756 16/// /3501 11050 21100 39077 40189 56006 60001 333 11016 21083 70000
AAXX 13064 71758 NIL
AAXX 13064 71760 NIL
AAXX 13064 71761 NIL
AAXX 13064 71762 NIL
AAXX 13064 71763 NIL
AAXX 13064 71765 16/// /0000 11064 21079 39942 40224 56008 60001 333 11006 21071 70000
AAXX 13064 71766 16/// /0000 11007 21016 30127 40200 56006 60001 333 10043 21042 70000
AAXX 13064 71767 16/// /2307 10046 20033 30018 40282 51002 60001 333 10048 20021 70000 555 10010 31921 40081
AAXX 13064 71768 46/// /2908 11067 21110 39675 40236 56002 6///1 333 10029 21068 7////
AAXX 13064 71769 16/// /2204 10023 21001 30176 40192 55005 60001 333 10041 20014 70000
AAXX 13064 71770 16/// /3301 11047 21070 39446 40234 51001 60001 333 10005 21049 70000
AAXX 13064 71771 NIL
AAXX 13064 71772 16/// /2705 10023 20009 30186 40192 55006 60001 333 10049 20021 70000 555 33019 40071
AAXX 13064 71773 16/// /2003 11032 21088 39180 40030 51015 60001 333 10007 21035 70000 555 31524 40081
AAXX 13064 71774 46/// ///// 11010 6///1 333 10022 21017 7////
AAXX 13064 71775 46/// /0000 11033 21038 30198 40204 58008 6///1 333 10053 21067 7////
AAXX 13064 71776 46/// /2004 11061 21083 39580 40237 55002 6///1 333 10010 21064 7////
AAXX 13064 71777 16/// ///// 11088 21096 39964 40225 55006 60001 333 11057 21136 70000
AAXX 13064 71778 46/// /0112 6///1 333 7//// 555 30417 40211
AAXX 13064 71779 16/// /1804 11032 21062 39520 40193 56003 60001 333 11021 21136 70000
AAXX 13064 71780 16/// /0706 10031 21069 30170 40198 56013 60001 333 10057 20002 70000
AAXX 13064 71781 46/// /1102 10032 20002 30171 40196 56006 6///1 333 10069 20025 7//// 555 33318 40071
AAXX 13064 71782 46/// /0302 11130 21145 38876 40258 55000 6///1 333 10091 21164 7////
AAXX 13064 71783 16/// /3201 11020 21038 30122 40197 56010 60001 333 10049 21022 70000
AAXX 13064 71784 16/// /0201 11002 21045 39986 40193 56008 60001 333 10049 21018 70000
AAXX 13064 71785 16/// /0201 11017 21038 30191 40207 56008 60001 333 10067 21034 70000
AAXX 13064 71786 46/// /0000 11151 21167 38354 40268 56004 6///1 333 11121 21226 7////
AAXX 13064 71787 16/// /1705 10010 21060 39784 40278 56011 60001 333 10044 21049 70000 555 32424 40131
AAXX 13064 71788 NIL
AAXX 13064 71789 NIL
AAXX 13064 71791 NIL
AAXX 13064 71792 NIL
AAXX 13064 71793 NIL
AAXX 13064 71794 NIL
AAXX 13064 71795 NIL
AAXX 13064 71796 NIL
AAXX 13064 71797 NIL
AAXX 13064 71950 17420 82701 11050 21054 39504 40145 58002 69931 771// 333 11040 21072 70003
AAXX 13064 71952 16/// /0000 11081 21088 39280 40146 58004 60001 333 11049 21110 70000
AAXX 13064 71954 NIL
AAXX 13064 71956 NIL
AAXX 13064 71959 NIL
AAXX 13064 71960 460// /0115 11254 39922 40058 51039 6///1 333 11158 21254 7//// 555 30435 40193
AAXX 13064 71962 16/// /0803 11100 21108 39876 40314 53007 60001 333 11036 21104 70000 555 10010
AAXX 13064 71963 NIL
AAXX 13064 71967 16/// /1402 11052 21059 30193 40301 57006 60001 333 10034 21058 7////
AAXX 13064 71970 NIL
AAXX 13064 71971 NIL
AAXX 13064 71972 460// /2827 11133 39660 40133 51013 6///1 333 11118 21138 7////
AAXX 13064 71973 46/// /0000 11027 21035 30087 40279 51002 6///1 333 11012 21080 7//// 555 32619 40071
AAXX 13064 71974 NIL
AAXX 13064 71975 460// /2821 11198 39315 40057 51009 6///1 333 11160 21198 7//// 555 32835 40013
AAXX 13064 71976 NIL
AAXX 13064 71977 NIL
AAXX 13064 71978 NIL
AAXX 13064 71979 NIL
AAXX 13064 71980 NIL
AAXX 13064 71981 NIL
AAXX 13064 71982 NIL
AAXX 13064 71983 NIL
AAXX 13064 71984 16/// /0306 11244 21268 39995 40003 52045 60001 333 11094 21245 70000 555 31933 40062
AAXX 13064 71985 NIL
AAXX 13064 71986 NIL
AAXX 13064 71987 16/// /3004 10015 21005 30264 40274 57009 60001 333 10030 21015 70000 555 32336 40113
AAXX 13064 71988 NIL
AAXX 13064 71989 NIL
AAXX 13064 71990 NIL
AAXX 13064 71999 46/// ///// 11049 6///1 333 11008 21084 7////
AAXX 13064 71250 NIL
AAXX 13064 71251 16/// /1305 11126 21146 39236 40196 56013 60001 333 11054 21142 70007
AAXX 13064 71252 NIL
AAXX 13064 71253 46/// /2104 11049 21052 6///1 333 11049 21189 7////
AAXX 13064 71254 16/// /2006 11088 21098 60001 333 11053 21104 70000 555 31618 40001
AAXX 13064 71255 16/// /2315 11026 21084 60001 333 11012 21115 70000 555 32222 40061
AAXX 13064 71256 46/// /2404 11073 21100 39170 40127 56010 6///1 333 11067 21166 7////
AAXX 13064 71257 NIL
AAXX 13064 71258 NIL
AAXX 13064 71259 NIL
AAXX 13064 71261 16/// /1704 10006 21014 30031 40297 51005 60001 333 10025 21032 70000 555 32117 40081
AAXX 13064 71263 12974 32306 11030 21043 30011 40307 52002 60001 80001 333 10054 21048 70000 555 10000 20000
AAXX 13064 71264 16/// /0000 10019 20015 30269 40301 58011 60001 333 10082 21057 70000 555 32426 40171
AAXX 13064 71265 15966 62511 10018 21023 30206 40302 50001 60001 333 10058 21007 70000
AAXX 13064 71266 NIL
AAXX 13064 71267 15966 02006 11104 21120 39063 40195 56008 60001 333 11045 21160 70006
AAXX 13064 71268 NIL
AAXX 13064 71269 NIL
AAXX 13064 71270 NIL
AAXX 13064 71271 16/// ///// 11054 21100 60001 333 11054 21093 70000
AAXX 13064 71272 15966 62216 11111 21138 39711 40070 56043 60001 333 11098 21246 70000
AAXX 13064 71273 16/// /2012 11068 21084 39490 40165 56011 60001 333 11062 21114 70000 555 32123 40051
AAXX 13064 71274 NIL
AAXX 13064 71275 NIL
AAXX 13064 71276 NIL
AAXX 13064 71277 NIL
AAXX 13064 71278 NIL
AAXX 13064 71279 16/// /0203 11097 21122 30230 40299 53009 60001 333 11076 21151 70012
AAXX 13064 71281 NIL
AAXX 13064 71282 46/// /2407 10019 20012 30021 40296 50002 6///1 333 10039 20008 7//// 555 32328 40072
AAXX 13064 71283 NIL
AAXX 13064 71284 16/// ///// 11070 21098 60001 333 11069 21120 70000
AAXX 13064 71285 NIL
AAXX 13064 71286 NIL
AAXX 13064 71287 NIL
AAXX 13064 71288 NIL
AAXX 13064 71289 NIL
AAXX 13064 71290 15966 11510 11050 21078 39309 40153 58004 60001 333 11043 21089 70000 555 31426 40231
AAXX 13064 71291 16/// /0207 11051 21070 30008 40307 50005 60001 333 11029 21075 70000
AAXX 13064 71292 16366 81807 11068 39641 40269 55007 60001 333 11068 21110 70000
AAXX 13064 71294 16/// /0000 11014 21014 39876 40285 56003 60001 333 10041 70000
AAXX 13064 71295 NIL
AAXX 13064 71296 NIL
AAXX 13064 71297 16/// /2702 11011 21023 60001 333 10071 21023 70000
AAXX 13064 71298 16/// /2402 11024 21031 30073 40311 51005 60001 333 10035 21032 70000
AAXX 13064 71299 NIL
AAXX 13064 71930 NIL
AAXX 13064 71931 16/// /2807 11068 21088 30249 40261 51014 60001 333 10039 21099 70000 555 33031 40092
AAXX 13064 71934 12874 22113 11020 21057 39680 49935 55006 60001 82070 333 11018 21117 70000 555 10000 20000
AAXX 13064 71935 12874 12416 10003 21070 39702 49906 53013 60001 81040 333 10030 21089 70000 555 10000 20000 32324 40041
AAXX 13064 71936 12974 32409 11029 21058 39593 49847 52017 60001 82031 333 11011 21081 79999 555 19999 29999 31822 40190
AAXX 13064 71937 NIL
AAXX 13064 71938 11424 83526 11200 21230 39856 49886 53046 69941 77177 885// 333 11144 21236 46024 70004 90973 555 10044 20004 33531 40061
AAXX 13064 71940 12982 72512 11007 21066 39303 40119 53002 60001 83032 333 10004 21209 70000 555 10000 20000 32520 40020
AAXX 13064 71943 11974 62420 11016 21093 39256 40094 53005 60001 70311 80001 333 11003 21112 70000 555 10000 20000 32335 40212
AAXX 13064 71944 160// ///// 11051 58004 60001 333 11046 21096 70000
AAXX 13064 71945 12974 21711 11094 21143 39550 40027 53007 60001 80001 333 11035 21167 70000 555 10000 20000
AAXX 13064 71946 NIL
AAXX 13064 71948 46461 33505 11249 39894 40009 52038 6///1 333 11164 21249 7//// 555 30532 40202
AAXX 13064 71949 46/// /2909 11020 21062 39146 40006 51020 6///1 333 10006 21132 7//// 555 32327 40181
AAXX 13064 71951 11/24 90000 11024 21028 39876 40147 56009 60021 77177 333 11009 21034 47024 70028 90983 93102 555 10036 20028
AAXX 13064 71957 46464 80207 11191 21247 39967 40057 52044 6///1 333 11085 21191 7//// 555 30325 40021
AAXX 13064 71958 43/// /0000 11091 21111 39146 40100 51013 6///1 333 11019 21143 7////
AAXX 13064 71964 12986 81812 11021 21105 39184 40033 51015 60001 8807/ 333 10009 21036 79999 555 19999 29999 31735 40073
AAXX 13064 71966 16/// /2001 11147 21167 39569 40033 52027 60001 333 11057 21147 70023 555 10030 20023
AAXX 13064 71968 46064 /0105 11202 30009 40075 53024 6///1 333 11126 21204 7//// 555 30319 40171
AAXX 13064 71665 16/// /2714 11144 21203 30207 40217 51010 60001 333 11114 21160 70000 555 32940 40073
AAXX 13064 71666 16/// /2302 11041 21053 30236 40282 56008 60001 333 10049 21045 70000 555 32522 40171
AAXX 13064 71667 NIL
AAXX 13064 71668 16/// /3303 11048 21055 30237 40281 58008 60001 333 10052 21075 70000
AAXX 13064 71669 NIL
AAXX 13064 71670 16/// ///// 11056 21060 60001 333 10037 21062 70000
AAXX 13064 71671 16/// /2203 10024 20015 30225 40286 56009 60001 333 10092 21058 70000 555 32519 40161
AAXX 13064 71672 16/// /3401 11048 21057 30024 40294 53001 60001 333 10070 21053 70000
AAXX 13064 71673 NIL
AAXX 13064 71674 NIL
AAXX 13064 71675 17966 02306 11180 21197 30015 40308 55005 60051 70044 333 11131 21180 70186
AAXX 13064 71679 16/// /1808 10000 21039 39109 40131 58009 60001 333 10018 21106 70000 555 32521 40001
AAXX 13064 71680 NIL
AAXX 13064 71681 46/// /1802 11064 21081 6///1 333 10003 21080 7////
AAXX 13064 71682 NIL
AAXX 13064 71683 NIL
AAXX 13064 71684 17110 83403 10001 20000 39964 40270 50001 60001 761// 333 10018 21013 70000
AAXX 13064 71685 15966 80101 11061 21078 39696 40251 57008 60001 333 11019 21091 70000
AAXX 13064 71686 NIL
AAXX 13064 71687 16/// /0000 11073 21087 39400 40202 56007 60001 333 11007 21118 70000
AAXX 13064 71688 16/// /0901 11048 21079 39130 40181 55007 60001 333 11004 21098 70000
AAXX 13064 71689 15966 02309 11017 21080 39599 40059 56010 60001 333 11011 21173 70000
AAXX 13064 71690 NIL
AAXX 13064 71691 17348 80817 11020 21028 30247 40275 50002 69981 7714/ 333 10008 21071 70038
AAXX 13064 71692 NIL
AAXX 13064 71694 16/// /0000 11003 21007 39931 40301 55000 60001 333 10024 21118 70000
AAXX 13064 71695 16/// /1708 11096 21114 39879 40225 56029 60001 333 11095 21199 70000
AAXX 13064 71696 16/// /2219 11132 21158 30057 40094 58033 60001 333 11104 21267 70000 555 32125 40061
AAXX 13064 71697 15962 03503 11045 21049 30127 40302 53003 60001 333 10051 21051 70000
AAXX 13064 71699 16/// /3602 11009 21013 30269 40277 58012 60001 333 10086 21019 70000
AAXX 13064 71123 12574 81708 11073 21103 39265 40150 56006 60001 82570 333 11058 21126 79999 555 19999 29999 31720 40220
AAXX 13064 71851 16/// /2203 11155 21167 39964 40317 56005 60001 333 11064 21161 70000 555 30020 40081
AAXX 13064 71857 NIL
AAXX 13064 71860 NIL
AAXX 13064 71876 15366 81906 11054 21059 39532 40214 56013 60001 333 11054 21113 70000
AAXX 13064 71885 NIL
AAXX 13064 71886 NIL
AAXX 13064 71888 NIL
AAXX 13064 71890 NIL
AAXX 13064 71895 NIL
AAXX 13064 71603 12574 82305 10045 20037 30238 40292 57017 60001 82501 333 10083 20028 70000 555 10000 20000 32325 40151
AAXX 13064 71607 16/// /2901 11064 21068 30247 40280 58008 60001 333 10087 21089 70000
AAXX 13064 71609 12574 60000 11032 21055 30147 40284 58011 60001 86500 333 10074 21030 70000 555 10000 20000 32519 40141
AAXX 13064 71610 NIL
AAXX 13064 71621 16950 00000 11038 21045 30191 40300 58001 60001 333 10058 21043 70000
AAXX 13064 71623 NIL
AAXX 13064 71624 12974 22304 11009 21042 30082 40298 58001 60001 80001 333 10068 21022 70000 555 10000 20000
AAXX 13064 71625 17459 81402 10019 21011 30118 40281 58006 60001 743// 333 10028 21101 70000
AAXX 13064 71627 12874 42203 11001 21047 30246 40291 58004 60001 84070 333 10055 21011 70000 555 10000 20000
AAXX 13064 71628 12666 71903 11007 21018 30144 40287 58003 60001 87500 333 10066 21015 70000 555 10000 20000 32121 40070
AAXX 13064 71630 NIL
AAXX 13064 71631 16/// /2203 11028 21050 39788 40300 51001 60001 333 10016 21044 70000
AAXX 13064 71633 11762 81907 10022 20003 30013 40289 55003 69901 76122 885// 333 10035 21026 41997 79999 90910 555 10000 20000
AAXX 13064 71705 12974 01502 11011 21061 30197 40286 57011 60001 333 10050 21036 70000 555 10000 20000 32525 40190
AAXX 13064 71706 12974 00000 11029 21054 30230 40292 57013 60001 333 10049 21029 79999 555 19999 29999 32321 40121
AAXX 13064 71707 12974 32405 10002 21013 30218 40296 55010 60001 80001 333 10034 21071 70000 555 10000 20000 32525 40161
AAXX 13064 71709 NIL
AAXX 13064 71711 NIL
AAXX 13064 71714 16/// /3401 11022 21033 30206 40300 56007 60001 333 7////
AAXX 13064 71715 16/// /2005 11002 21034 30079 40264 58011 60001 333 10008 21019 70000 555 31922 40071
AAXX 13064 71718 11566 82004 10011 21015 30200 40266 58004 69901 78522 885// 333 10016 21025 47012 70002 90956 555 10002 20002
AAXX 13064 71719 NIL
AAXX 13064 71120 12974 82009 11071 21104 39482 40152 56018 60001 85071 333 11054 21093 79999 555 19999 29999
AAXX 13064 71102 NIL
AAXX 13064 71105 NIL
AAXX 13064 71107 NIL
AAXX 13064 71110 NIL
AAXX 13064 71111 16766 82608 10040 20034 30115 40123 58009 60001 333 10052 20011 70013 555 31517 40121
AAXX 13064 71112 16/// ///// 60001 333 70000
AAXX 13064 71113 16/// /0604 10005 21052 30175 40199 58011 60001 333 10051 20000 70000 555 30323 40171
AAXX 13064 71115 16/// /1008 11067 21090 39633 40230 56008 60001 333 11001 21077 70000
AAXX 13064 71116 17/// /1208 11059 21062 39086 40204 56012 60011 7//4/ 333 11024 21059 70012 555 10050 20012
AAXX 13064 71118 16/// /1910 11090 21101 39325 40168 58012 60001 333 11043 21107 70000 555 31919 40221
AAXX 13064 71121 16664 82109 11061 21134 39299 40136 58006 60001 333 11051 21103 70000
AAXX 13064 71127 16/// /2007 11073 21104 39205 40146 56010 60001 333 11072 21140 70000
AAXX 13064 71130 15362 81913 11068 21082 39756 40228 56020 60001 333 11068 21126 70000
AAXX 13064 71132 17566 62013 11037 21053 39672 49983 56031 69931 7714/ 333 11036 21097 70003
AAXX 13064 71133 46/// /1910 11072 21088 39459 40185 58019 6///1 333 11072 21176 7//// 555 31917 40061
AAXX 13064 71139 NIL
AAXX 13064 71141 NIL
AAXX 13064 71142 17324 81919 11067 21070 39222 40215 58010 60001 771// 333 11062 21086 70000
AAXX 13064 71143 NIL
AAXX 13064 71144 NIL
AAXX 13064 71147 NIL
AAXX 13064 71149 NIL
AAXX 13064 71726 16/// /0000 11010 21013 39710 40259 58003 60001 333 11002 21024 70000 555 32317 40071
AAXX 13064 71727 NIL
AAXX 13064 71728 11680 82408 10011 21014 30030 40254 56006 69901 77122 885// 333 10017 21018 44001 79999 90942 555 19999 29999
AAXX 13064 71730 11156 82308 10020 20020 39833 40262 57006 60051 76162 887// 333 10035 21007 70056 90972 555 10000 20000
AAXX 13064 71731 11/02 92205 10012 20012 39812 40270 58003 60051 76184 333 10025 20009 40997 70070 90973 555 10000 20000
AAXX 13064 71735 NIL
AAXX 13064 71738 NIL
AAXX 13064 71739 41248 80106 11030 21042 39910 40281 52006 6//// 77175 886// 333 10004 21031 4//// 7//// 90973 555 1//// 2////
AAXX 13064 71749 16464 83504 11042 21063 30053 40307 53006 60001 333 11030 21140 70000
AAXX 13064 71799 12983 32505 11019 21029 30179 40203 55007 60001 82031 333 10051 21035 70000 555 10000 20000
AAXX 13064 71800 NIL
AAXX 13064 71801 11574 23108 11023 21049 30110 40288 52014 69901 70181 82500 333 10002 21064 41001 70004 90950 555 10008 20004 32842 40083
AAXX 13064 71803 11574 32808 11048 21082 30088 40280 51010 69901 70188 83500 333 11011 21100 48002 70004 90962 555 10004 20004 32828 40071
AAXX 13064 71807 NIL
AAXX 13064 71808 12574 22911 11142 21195 30228 40277 51008 60001 82500 333 11127 21177 44018 70000 555 10000 20000 32720 40091
AAXX 13064 71809 11566 82303 11040 21048 30252 40280 50001 60011 77182 885// 333 11007 21086 47013 70102 90927 93101 555 10102 20102
AAXX 13064 71810 16/// /0407 11061 21084 30220 40289 51008 60001 333 11028 21107 70000
AAXX 13064 71811 NIL
AAXX 13064 71813 NIL
AAXX 13064 71814 16/// /3307 11135 21151 30282 40292 51007 60001 333 11070 21151 70000
AAXX 13064 71815 11456 82804 10001 21011 30248 40279 50000 69921 78522 885// 333 10009 21056 44007 70032 90910 555 10034 20032 32429 40141
AAXX 13064 71201 16/// ///// 10021 21033 60001 333 10071 21011 70000
AAXX 13064 71202 16/// ///// 11097 21111 60001 333 11058 21112 70011
AAXX 13064 71203 15966 60103 11083 21100 39704 40239 58005 60001 333 10000 21103 70000
AAXX 13064 71209 46/// /1206 10024 6///1 333 10051 20023 7//// 555 33418 40071
AAXX 13064 71211 46/// /0413 10022 21035 30186 40198 55007 6///1 333 10043 20017 7//// 555 30433 40182
AAXX 13064 71212 16/// /1801 11033 21039 39443 40262 56007 60001 333 11019 21057 70000 555 32519 40071
AAXX 13064 71213 46/// /3503 10002 20002 39962 40267 50002 6///1 333 10020 21011 7////
AAXX 13064 71214 NIL
AAXX 13064 71215 46/// /0501 11070 21102 39878 40230 55001 6///1 333 10034 21077 7//// 555 30224 40101
AAXX 13064 71216 16/// /1003 11040 21080 39605 40236 56003 60001 333 10009 21065 70000
AAXX 13064 71217 NIL
AAXX 13064 71218 16/// /1803 11064 21080 39794 40233 57010 60001 333 11018 21092 70000
AAXX 13064 71219 46/// /1409 10027 20011 30122 40128 58007 6///1 333 10047 20016 7//// 555 31635 40193
AAXX 13064 71220 46/// /1317 10029 20019 6///1 333 10039 20013 7////
AAXX 13064 71221 NIL
AAXX 13064 71222 16/// /0000 11093 21099 39135 40116 52013 60001 333 11019 21142 70000
AAXX 13064 71223 NIL
AAXX 13064 71224 NIL
AAXX 13064 71225 NIL
AAXX 13064 71226 NIL
AAXX 13064 71227 NIL
AAXX 13064 71228 NIL
AAXX 13064 71229 NIL
AAXX 13064 71230 16/// /2716 11002 21076 39206 40103 55001 60001 333 10012 21122 70000 555 32730 40022
AAXX 13064 71231 16/// /1610 11097 21115 60001 333 11032 21146 70020
AAXX 13064 71232 16/// /2209 11089 21139 38636 40169 50000 60001 333 11061 21176 70000 555 32525 40031
AAXX 13064 71233 16/// /1502 11076 21118 60001 333 11068 21131 70000
AAXX 13064 71234 16/// /3303 11230 21253 38954 40201 56005 60001 333 11052 21239 70008
AAXX 13064 71235 16/// /3110 11079 21125 60001 333 11065 21145 70003
AAXX 13064 71236 46/// /1004 11107 21147 6///1 333 11018 21166 7//// 555 33317 40001
AAXX 13064 71237 46/// /1606 11112 21123 39340 40178 56009 6///1 333 11043 21138 7////
AAXX 13064 71238 16/// /1803 11070 21102 60001 333 11024 21100 70000 555 31918 40201
AAXX 13064 71239 16/// /1904 11108 21130 39828 40315 56006 60001 333 11064 21142 70000 555 30419 40131
AAXX 13064 71240 16/// ///// 11105 21117 39331 40201 56012 60001 333 11054 21115 70000
AAXX 13064 71241 NIL
AAXX 13064 71242 16/// /2206 11127 21142 60001 333 11057 21166 70000
AAXX 13064 71243 NIL
AAXX 13064 71244 16/// /2105 11094 21104 38925 40185 56012 60001 333 11053 21133 70003 555 10010 20003
AAXX 13064 71245 NIL
AAXX 13064 71246 NIL
AAXX 13064 71247 15966 02006 11053 21067 39316 40188 58014 60001 333 11045 21092 70018
AAXX 13064 71248 16/// /0000 11169 21191 38827 40176 56003 60001 333 11068 21243 70000
AAXX 13064 71249 NIL
AAXX 13064 71604 16/// /2903 11027 21029 60001 333 11005 21067 70006 555 32840 40153
AAXX 13064 71605 16/// /3503 10011 21037 30044 40195 56008 60001 333 10058 21009 70000
AAXX 13064 71611 NIL
AAXX 13064 71612 16/// /2603 10013 21029 30201 40293 58004 60001 333 10055 21010 70010
AAXX 13064 71614 NIL
AAXX 13064 71616 16/// /2003 11037 21049 30170 40293 56007 60001 333 10036 21073 70000
AAXX 13064 71617 16/// /1402 11003 21011 30095 40265 56008 60001 333 10018 21039 70010 555 32422 40151
AAXX 13064 71618 15966 02323 11132 21157 30062 40101 58034 60001 333 11104 21265 70000
AAXX 13064 71619 NIL
AAXX 13064 71622 NIL
AAXX 13064 71632 46/// /2116 11123 21141 39686 40136 56039 6///1 333 11109 21148 7//// 555 10010 32123 40061
AAXX 13064 71634 16/// /0000 11026 21029 30125 40282 58008 60001 333 10015 21064 70000
AAXX 13064 71638 16/// /3202 11011 21036 30088 40195 55006 60001 333 10045 21041 70000
AAXX 13064 71639 12974 20000 11032 21065 30052 40299 50000 60001 82030 333 10067 21032 70000 555 10000 20000
AAXX 13064 71642 NIL
AAXX 13064 71397 12562 70000 10004 21001 30261 40296 57009 60001 87500 333 10093 21070 70000 555 10000 20000 32420 40180
AAXX 13064 71400 16/64 /0000 11091 21094 60001 333 11012 21109 70006 555 32918 40071
AAXX 13064 71403 46/// /2315 10059 20059 30277 40297 56009 6///1 333 10071 21039 7//// 555 32330 40132
AAXX 13064 71411 16/// /2503 10032 20028 30285 40298 58015 60001 333 10093 21054 70000 555 32125 40111
AAXX 13064 71412 16/// /2606 11013 21035 30278 40288 55005 60001 333 10050 21045 70000 555 32124 40121
AAXX 13064 71421 NIL
AAXX 13064 71430 16/// /2708 10043 20016 30195 40293 58003 60001 333 10057 20036 70000 555 32327 40071
AAXX 13064 71431 16/// /3505 11017 21033 30192 40290 52002 60001 333 10050 21029 70000 555 32627 40071
AAXX 13064 71432 16/// /2403 10018 21006 30204 40303 56001 60001 333 10076 20010 70000
AAXX 13064 71433 NIL
AAXX 13064 71435 NIL
AAXX 13064 71441 NIL
AAXX 13064 71443 16/// /2208 11067 21084 39836 40263 56017 60001 333 11067 21127 70000
AAXX 13064 71444 NIL
AAXX 13064 71447 16/// /0601 11068 21087 39729 40293 56008 60001 333 11060 21091 70000
AAXX 13064 71467 16/// /0108 11350 21385 39919 40039 51035 60001 333 11199 21353 70000 555 10010 30319 40231
AAXX 13064 71472 NIL
AAXX 13064 71474 16864 31703 11088 21113 38935 40207 55004 60001 333 11061 21146 70000
AAXX 13064 71510 16/// /1808 11054 21069 39482 40206 58012 60001 333 11054 21122 70000
AAXX 13064 71538 12974 00000 11025 21059 30076 40312 50003 60001 333 10055 21034 70000 555 10000 20000
AAXX 13064 71600 16461 82511 10075 20036 30314 40320 55007 60001 333 10076 21006 70005 555 32425 40171
AAXX 13064 71601 NIL
AAXX 13064 71816 12974 02805 11181 21242 30224 40289 52011 60001 333 11145 21198 70000 555 10000 20000 32632 40091
AAXX 13064 71817 NIL
AAXX 13064 71818 12974 02510 11130 21145 30216 40235 52011 60001 333 11110 21161 70000 555 10000 20000 32526 40040
AAXX 13064 71822 11466 83403 11039 21050 39780 40266 53001 69921 77177 887// 333 11011 21040 43029 70010 90973 555 10006 20006
AAXX 13064 71825 12874 41708 11244 21288 39594 40307 58001 60001 84070 333 11146 21294 79999 555 19999 29999
AAXX 13064 71827 11774 42303 11162 21184 30039 40295 50002 69901 70277 84500 333 11118 21212 47018 79999 90961 555 19999 29999
AAXX 13064 71828 16864 80000 11191 21229 39607 40281 50004 60001 333 11183 21229 70000
AAXX 13064 71831 11262 80106 11074 21087 30017 40307 53008 69901 70252 887// 333 11010 21074 79999 90943 555 10000 20000
AAXX 13064 71832 NIL
AAXX 13064 71834 11374 80504 11087 21099 39871 40315 50005 69901 77177 887// 333 11043 21087 48011 79999 90973 555 19999 29999
AAXX 13064 71841 NIL
AAXX 13064 71842 11269 81305 11101 21109 39829 40321 58003 69921 77177 885// 333 11101 21136 47003 70002 90983 555 10002 20002
AAXX 13064 71844 16964 02205 11180 21210 30016 40309 56006 60001 333 11129 21188 70000
AAXX 13064 71845 NIL
AAXX 13064 71850 11156 81403 11110 21116 39794 40315 55001 69901 77177 887// 333 11085 21110 48002 79999 90973 555 19999 29999
AAXX 13064 71852 16264 81905 11101 21107 30005 40313 56006 60001 333 11062 21162 70000 555 33618 40091
AAXX 13064 71854 NIL
AAXX 13064 71858 16/// /2005 11153 21169 39974 40268 56024 60001 333 11113 21229 70000
AAXX 13064 71861 NIL
AAXX 13064 71862 11259 81908 11064 21073 39553 40276 55011 69901 77177 886// 333 11054 21074 42002 79999 90983 555 19999 29999
AAXX 13064 71863 46258 81909 11057 21081 39535 40253 56005 6///1 333 11056 21087 7//// 555 30221 40061
AAXX 13064 71401 16/// /2902 11068 21096 39534 40236 55002 60001 333 11002 21077 70007
AAXX 13064 71402 NIL
AAXX 13064 71404 NIL
AAXX 13064 71405 NIL
AAXX 13064 71406 NIL
AAXX 13064 71407 NIL
AAXX 13064 71408 NIL
AAXX 13064 71409 NIL
AAXX 13064 71410 15466 82009 11146 21161 39976 40269 56024 60001 333 11122 21270 70000
AAXX 13064 71413 NIL
AAXX 13064 71414 NIL
AAXX 13064 71415 16/// /2206 10004 21004 30283 40286 56012 60001 333 10062 21053 70000 555 32221 40111
AAXX 13064 71417 NIL
AAXX 13064 71418 NIL
AAXX 13064 71419 46/// /2304 10016 20011 30287 40297 55012 6///1 333 10061 21049 7//// 555 32332 40182
AAXX 13064 71423 NIL
AAXX 13064 71424 NIL
AAXX 13064 71425 NIL
AAXX 13064 71426 NIL
AAXX 13064 71427 17/// /0620 11021 21056 30273 40281 50000 60021 7//4/ 333 10011 21039 70030 555 30623 40061
AAXX 13064 71428 16/// /0612 11017 21041 30269 40275 58004 60001 333 10010 21047 70000 555 30617 40051
AAXX 13064 71429 16/// /0513 10006 21014 30248 40268 58005 60001 333 10007 21078 70000
AAXX 13064 71434 NIL
AAXX 13064 71436 17959 11803 11052 21057 30057 40297 50001 60001 710// 333 10068 21054 70000
AAXX 13064 71437 46/// /2405 10018 21026 30203 40300 50001 6///1 333 10065 20006 7////
AAXX 13064 71438 NIL
AAXX 13064 71439 NIL
AAXX 13064 71440 NIL
AAXX 13064 71442 16/// /1804 11169 21185 39984 40315 56014 60001 333 11108 21199 70000
AAXX 13064 71445 NIL
AAXX 13064 71446 17/// /2017 11070 21081 39207 40211 58008 69971 7//4/ 333 11061 21096 70011 555 31922 40041
AAXX 13064 71448 NIL
AAXX 13064 71449 16/// /1004 11080 21089 39892 40310 53005 60001 333 11064 21122 70000
AAXX 13064 71864 NIL
AAXX 13064 71865 16/// /2011 11064 21076 39542 40241 58012 60001 333 11063 21112 70000 555 32017 40061
AAXX 13064 71866 46364 61810 11077 21099 39592 40224 56021 6///1 333 11071 21109 7////
AAXX 13064 71867 11469 81810 11097 21106 39883 40230 57028 69901 70277 886// 333 11097 21198 47017 79999 90953 555 10004 29999
AAXX 13064 71868 NIL
AAXX 13064 71869 11274 82010 11074 21081 39680 40221 57019 69901 70277 886// 333 11073 21138 47007 70002 90943 555 10042 20002
AAXX 13064 71871 15266 82113 11075 21083 39351 40178 55012 60001 333 11067 21120 70000
AAXX 13064 71877 12974 12004 11142 21149 38869 40180 57010 60001 80001 333 11062 21154 70004 555 10004 20004
AAXX 13064 71878 12974 61605 11143 21157 39071 40178 55004 60001 82072 333 11066 21166 79999 555 19999 29999 31820 40210
AAXX 13064 71879 16664 81807 11057 21109 39320 40138 58007 60001 333 11042 21098 70000 555 32019 40021
AAXX 13064 71880 12482 80000 11095 21103 39108 40248 57003 60001 886// 333 11036 21120 70002 555 10002 20002
AAXX 13064 71882 16961 00000 11068 21088 39697 40252 57008 60001 333 11007 21090 70005
AAXX 13064 71883 46/// /0000 11120 21129 39402 56008 6///1 333 7////
AAXX 13064 71887 12986 61003 11055 21083 39798 40232 56008 60001 82074 333 11016 21119 70000 555 10000 20000
AAXX 13064 71889 12774 23506 11069 21100 39810 40239 56004 60001 82501 333 10023 21075 70000 555 10000 20000
AAXX 13064 71891 16964 00000 11061 21079 39944 40227 56008 60001 333 11005 21068 70000
AAXX 13064 71892 12983 70904 10001 21022 30197 40202 56008 60001 86075 333 10056 21050 70000 555 10000 20000
AAXX 13064 06030 01458 81617 10050 20028 39869 49884 57055 69902 75865 885// 333 10050 20029 32001 69907 70009 82613 85615 91130
AAXX 13064 06060 01256 81616 10041 20029 39809 49873 57062 60032 76062 887// 333 10051 20022 32001 60017 70051 81706 83710 86612 91029 91129
AAXX 13064 06070 05463 71712 10055 20024 39887 49917 57051 6///2 333 10057 20033 3/001 6///7 70016 83/13 85/16 87/20 91026 91129
AAXX 13064 06120 41480 81617 10047 20027 39896 49922 57057 760// 885// 333 10051 20034 32001 83615 87625 91034 91134
AAXX 13064 06180 02465 41820 10050 20033 39972 49979 57038 69922 84500 333 10054 20043 31003 69927 70002 84711 91130
AAXX 13064 06193 07461 72009 10043 20027 30012 40023 57019 60022 70010 333 10062 20043 55300 20000 6///7 70042 85/10 87/14 91020 91121 91226
AAXX 13064 71500 NIL
AAXX 13064 71501 NIL
AAXX 13064 71502 NIL
AAXX 13064 71503 NIL
AAXX 13064 71504 NIL
AAXX 13064 71505 16/// /0104 11025 21083 39305 40022 51020 60001 333 10030 21029 70000
AAXX 13064 71506 NIL
AAXX 13064 71507 16/// /2110 11035 21086 60001 333 11014 21146 70000 555 31924 40191
AAXX 13064 71508 16/// ///// 10014 21024 30164 40304 50000 60001 333 10065 20004 70000
AAXX 13064 71509 NIL
AAXX 13064 71511 NIL
AAXX 13064 71512 16/// /0000 11130 21138 30285 40300 52006 60001 333 11064 21151 70022
AAXX 13064 71513 15966 00207 11152 21170 30284 40300 51012 60001 333 11081 21181 70000
AAXX 13064 71514 NIL
AAXX 13064 71515 16/// /2113 11070 21074 39534 40255 58007 60001 333 11056 21084 70000 555 33137 40063
AAXX 13064 71516 16/// /1808 11074 21084 60001 333 11049 21075 70000
AAXX 13064 71517 NIL
AAXX 13064 71518 NIL
AAXX 13064 71519 NIL
AAXX 13064 71520 NIL
AAXX 13064 71521 NIL
AAXX 13064 71522 NIL
AAXX 13064 71523 NIL
AAXX 13064 71524 16/// /1603 11031 21036 30268 40295 58008 60001 333 10044 21044 70000 555 32318 40181
AAXX 13064 71525 NIL
AAXX 13064 71526 NIL
AAXX 13064 71527 15266 81104 11107 21114 39790 40318 58001 60001 333 11083 21128 70000
AAXX 13064 71528 NIL
AAXX 13064 71529 NIL
AAXX 13064 71532 17459 62003 11004 21013 39940 40291 55000 60001 710// 333 10021 21111 70045
AAXX 13064 71534 16658 32102 11014 21033 30017 40293 50002 60001 333 10066 21041 70000
AAXX 13064 71535 NIL
AAXX 13064 71536 NIL
AAXX 13064 71537 NIL
AAXX 13064 71539 NIL
AAXX 13064 71540 NIL
AAXX 13064 71541 NIL
AAXX 13064 71542 16/// /2516 10003 21071 60001 333 10005 21192 70004 555 32423 40061
AAXX 13064 71543 NIL
AAXX 13064 71544 NIL
AAXX 13064 71545 NIL
AAXX 13064 71546 NIL
AAXX 13064 71547 NIL
AAXX 13064 71548 NIL
AAXX 13064 71549 NIL
AAXX 13064 71300 NIL
AAXX 13064 71301 16/// ///// 11008 21008 39862 40267 50003 60001 333 10005 21071 70000
AAXX 13064 71302 16/// /1912 11029 21063 39340 40170 56003 60001 333 11026 21138 70000 555 31925 40211
AAXX 13064 71303 46/// ///// 11038 21046 6///1 333 10042 21040 7////
AAXX 13064 71305 15966 82409 11007 21061 39693 49989 56002 60001 333 11006 21122 70003
AAXX 13064 71306 17424 82618 11090 21115 30176 40209 57003 60001 771// 333 11087 21135 70000 555 32723 40061
AAXX 13064 71307 16/// /2303 11026 21051 30056 40312 50002 60001 333 10053 21054 70003
AAXX 13064 71308 16/// /1903 10003 21003 30212 40298 56010 60001 333 10049 21068 70000 555 32126 40141
AAXX 13064 71309 NIL
AAXX 13064 71310 16/// /1903 11023 21046 30252 40290 56010 60001 333 10045 21059 70000 555 32323 40151
AAXX 13064 71311 NIL
AAXX 13064 71312 16/// /2113 11070 21086 39752 40223 57020 60001 333 11070 21132 70000 555 32122 40051
AAXX 13064 71314 NIL
AAXX 13064 71315 16/// /2401 11026 21036 30222 40277 58006 60001 333 11015 21103 70000
AAXX 13064 71316 16/// /1908 11062 21093 39424 40118 58014 60001 333 11035 21107 70000 555 31717 40041
AAXX 13064 71317 NIL
AAXX 13064 71318 16/// /2011 11091 21102 39210 40177 56013 60001 333 11051 21105 70000 555 31821 40001
AAXX 13064 71319 16/// /2202 11038 21039 39380 40259 57008 60001 333 11022 21058 70007 555 32418 40071
AAXX 13064 71320 NIL
AAXX 13064 71321 NIL
AAXX 13064 71322 NIL
AAXX 13064 71323 16/// /1702 11071 21079 39994 40282 56005 60001 333 10033 21113 70010
AAXX 13064 71331 16/// /2206 11097 21117 60001 333 11097 21170 70000
AAXX 13064 71332 NIL
AAXX 13064 71334 NIL
AAXX 13064 71335 46964 02829 11135 51019 6///1 333 11117 21150 7//// 555 32750 40083
AAXX 13064 71336 46/// ///13 11013 21058 30242 40265 53020 6///1 333 10017 21052 7////
AAXX 13064 71337 46/// /2903 11087 21105 30023 40268 53009 6///1 333 11044 21125 7//// 555 32722 40071
AAXX 13064 71338 46964 01403 11204 21226 30070 40077 52007 6///1 333 11096 21244 7//// 555 33229 40072
AAXX 13064 71339 16964 02909 11157 21226 30230 40245 53009 60001 333 11110 21182 70005 555 32728 40112
AAXX 13064 71340 NIL
AAXX 13064 71341 NIL
AAXX 13064 71342 NIL
AAXX 13064 71343 NIL
AAXX 13064 71344 NIL
AAXX 13064 71345 NIL
AAXX 13064 71346 NIL
AAXX 13064 71347 NIL
AAXX 13064 71348 NIL
AAXX 13064 71349 NIL
AAXX 13064 71700 15966 03504 11054 21059 30258 40284 58009 60001 333 10058 21072 70000
AAXX 13064 71701 12974 00000 11056 21068 30220 40283 58009 60001 333 10058 21062 70000 555 10000 20000
AAXX 13064 71702 16/// /2402 11032 21043 30264 40279 57009 60001 333 10048 21045 70000 555 32124 40091
AAXX 13064 71703 NIL
AAXX 13064 71704 15966 61703 11016 21032 30081 40307 50005 60001 333 10045 21052 70013
AAXX 13064 71710 16/// /2503 10005 21021 30271 40281 58006 60001 333 10021 21021 70010 555 32528 40142
AAXX 13064 71712 16/// /2303 11015 21044 30229 40291 57005 60001 333 10062 21027 70010 555 32120 40071
AAXX 13064 71713 NIL
AAXX 13064 71716 NIL
AAXX 13064 71717 NIL
AAXX 13064 71720 16/// /0801 11003 21010 30050 40206 58006 60001 333 10032 21044 70003
AAXX 13064 71721 NIL
AAXX 13064 71723 NIL
AAXX 13064 71724 NIL
AAXX 13064 71732 NIL
AAXX 13064 71733 17/// /2307 10018 20016 39826 40255 57005 60051 7//4/ 333 10033 21029 70051 555 32319 40181
AAXX 13064 71734 NIL
AAXX 13064 71736 NIL
AAXX 13064 71737 NIL
AAXX 13064 71741 16/// /1003 11056 21086 39795 40229 56008 60001 333 11025 21119 70000
AAXX 13064 71742 NIL
AAXX 13064 71743 NIL
AAXX 13064 71744 NIL
AAXX 13064 71745 NIL
AAXX 13064 71746 NIL
AAXX 13064 71747 NIL
AAXX 13064 71748 NIL
AAXX 13064 71043 NIL
AAXX 13064 71045 16/// /0000 11045 21096 39190 40048 51010 60001 333 10002 21052 70000 555 10030 32323 40001
AAXX 13064 71050 46/// /0000 11086 21107 39090 40200 55004 6///1 333 11080 21205 7////
AAXX 13064 71051 NIL
AAXX 13064 71052 NIL
AAXX 13064 71066 12974 71505 11083 21104 39587 40010 53001 60001 83041 333 11079 21140 70000 555 10000 20000
AAXX 13064 71068 12974 82102 11024 21085 39383 40081 53013 60001 80001 333 10004 21153 70000 555 10000 20000 32017 40210
AAXX 13064 71069 16964 01104 11093 21101 39389 40107 50001 60001 333 11080 21167 70000
AAXX 13064 71076 17/// /0108 11033 21048 39581 49971 56016 60021 7//4/ 333 11032 21091 70021 555 10020 20021 31121 40031
AAXX 13064 71077 16/// /1908 11047 21076 39571 40117 56020 60001 333 11047 21092 70000 555 31619 40191
AAXX 13064 71079 11466 82211 11142 21165 39931 40222 56020 69901 77111 885// 333 11108 21271 48003 79999 90921 555 19999 29999 32019 40050
AAXX 13064 71081 46964 02307 11313 21356 30066 40079 58001 6///1 333 11212 21315 7////
AAXX 13064 71082 NIL
AAXX 13064 71083 11769 61815 11137 21146 39957 40000 57043 69921 77677 86500 333 11119 21315 48053 70008 90983 555 10008 20008
AAXX 13064 71090 46564 83208 11181 21221 30037 40072 52012 6///1 333 11164 21239 7////
AAXX 13064 71091 460// /0708 11245 39894 40110 53007 6///1 333 7//// 555 33023 40151
AAXX 13064 71092 46064 03011 11278 39418 40111 52016 6///1 333 11235 21285 7//// 555 32917 40181
AAXX 13064 71093 460// /2626 11229 39554 40063 51011 6///1 333 11165 21230 7//// 555 32538 40023
AAXX 13064 71094 46064 /2909 11173 39105 40012 51009 6///1 333 11145 21193 7//// 555 33539 40173
AAXX 13064 71095 46661 62105 11268 21308 30009 40092 53011 6///1 333 11193 21292 7////
AAXX 13064 71101 160// /2706 30115 58007 60001 333 70000
AAXX 13064 71104 12974 81503 11058 21098 39063 40199 55004 60001 86071 333 11042 21139 70000 555 10000 20000
AAXX 13064 71108 12966 60203 11022 21052 30129 40203 55008 60001 81031 333 10055 21026 70000 555 10000 20000
AAXX 13064 71109 11474 81210 10031 20014 30153 40180 58015 60021 76166 885// 333 10035 20008 70026 90973 555 10000 20000
AAXX 13064 71812 46928 32025 11114 21124 30000 40014 56047 6///1 333 7////
AAXX 13064 71819 15966 03004 11137 21162 30226 40269 53016 60001 333 11117 21170 70000
AAXX 13064 71820 16/// /2405 10020 20007 30175 40291 58005 60001 333 10059 20006 70000 555 32221 40071
AAXX 13064 71823 16764 60000 11209 21236 39895 40298 55004 60001 333 11165 21275 70000
AAXX 13064 71824 46/// /3602 11039 21044 6///1 333 11014 21039 7////
AAXX 13064 71826 16/// /1703 11197 21242 30056 40100 52011 60001 333 11130 21206 70000
AAXX 13064 71829 16/// /0710 11034 21041 30104 40269 58001 60001 333 10003 21073 70004
AAXX 13064 71833 NIL
AAXX 13064 71835 16/// /2103 11170 21186 39817 40321 58004 60001 333 11092 21186 70000
AAXX 13064 71837 NIL
AAXX 13064 71839 NIL
AAXX 13064 71840 46/// /1801 11121 21132 6///1 333 11073 21157 7//// 555 33519 40091
AAXX 13064 71846 16/// /2303 11247 21268 39996 40331 50002 60001 333 11098 21248 70000
AAXX 13064 71847 NIL
AAXX 13064 71848 NIL
AAXX 13064 71849 NIL
AAXX 13064 71114 16964 01009 11022 21068 30164 40213 56008 60001 333 10020 21024 70005 555 31221 40181
AAXX 13064 71120 12974 82009 11071 21104 39482 40152 56018 60001 86071 333 11054 21093 79999 555 19999 29999
AAXX 13064 71122 16/// /2404 11126 21154 38570 40223 56007 60001 333 11077 21201 70000
AAXX 13064 71123 12574 81708 11073 21103 39265 40150 56006 60001 82570 333 11058 21126 79999 555 19999 29999
AAXX 13064 71125 NIL
AAXX 13064 71129 12474 81606 11092 21104 39348 40202 58013 60001 8757/ 333 11065 21104 70000 555 10000 20000
AAXX 13064 71131 16/// /1908 11079 21084 38916 40199 56013 60001 333 11061 21081 70000
AAXX 13064 71135 16/// /1913 11087 21104 39113 40228 57026 60001 333 11056 21090 70000 555 31818 40061
AAXX 13064 71137 NIL
AAXX 13064 71140 12474 81506 11102 21119 39787 40311 55003 60001 885// 333 11060 21118 79999 555 19999 29999
AAXX 13064 71145 12974 01804 11181 21207 39986 40297 55009 60001 333 11147 21231 70000 555 10000 20000
AAXX 13064 71148 16/// /1505 11110 21129 39707 40313 58001 60001 333 11073 21129 70000 555 30020 40091
AAXX 13064 71182 17964 02904 11263 21311 39727 40303 50003 60001 745// 333 11163 21287 70000
AAXX 13064 71185 16564 63106 11058 30253 40278 51007 60001 333 11048 21099 70005 555 32728 40072
AAXX 13064 71188 12574 80000 11029 21039 30239 40282 57002 60001 885// 333 11014 21142 70000 555 10000 20000
AAXX 13064 71200 16/// /0303 10010 21033 60001 333 10052 21002 70000
AAXX 13064 71207 16/// /0101 11032 21052 30135 40201 57007 60001 333 10025 21056 70000
AAXX 13064 71260 13/// ///// 10014 20012 30033 40273 52007 60021 333 10046 20008 70054 555 10000 20000
AAXX 13064 71051 NIL
AAXX 13064 71055 NIL
AAXX 13064 71057 NIL
AAXX 13064 71059 460// ///// 11237 39864 49956 53046 6///1 333 11095 21238 7////
AAXX 13064 71061 16/// /1805 11049 21084 39317 40114 56011 60001 333 11045 21169 70000
AAXX 13064 71062 46/// /2107 11061 21107 39028 40118 56007 6///1 333 11058 21131 7////
AAXX 13064 71064 460// /3520 11176 39588 49802 55002 6///1 333 11159 21301 7//// 555 30422 40061
AAXX 13064 71065 NIL
AAXX 13064 71067 NIL
AAXX 13064 71070 NIL
AAXX 13064 71073 NIL
AAXX 13064 71074 NIL
AAXX 13064 71075 16/// /2018 11091 21114 39432 40042 56034 60001 333 11089 21140 70000 555 10010 31931 40052
AAXX 13064 71078 17456 82014 11122 21139 39685 40139 56038 60001 771// 333 11107 21146 70000
AAXX 13064 71084 460// ///// 11150 39765 49812 56053 6///1 333 11150 21298 7////
AAXX 13064 71085 15966 02718 11056 21114 38764 40181 55003 60001 333 11053 21146 70008
AAXX 13064 71087 NIL
AAXX 13064 71088 460// /1514 11227 58001 6///1 333 11172 21276 7//// 555 33019 40081
AAXX 13064 71089 NIL
AAXX 13064 71096 460// ///// 11214 39318 40068 51006 6///1 333 11161 21219 7////
AAXX 13064 71097 47964 03414 11177 39620 40105 53011 6///1 741// 333 11147 21177 7//// 555 30124 40201
AAXX 13064 71098 43/// /1903 11198 21229 39930 40311 56008 6///1 333 11136 21233 7////
AAXX 13064 71099 43/// /2209 11177 21217 30237 40258 56010 6///1 333 11147 21189 7//// 555 32319 40041
AAXX 13064 71550 NIL
AAXX 13064 71551 NIL
AAXX 13064 71552 NIL
AAXX 13064 71553 16/// /1910 11093 21102 60001 333 11080 21168 70000
AAXX 13064 71554 16/// /1803 10008 21019 30260 40266 58004 60001 333 10014 21023 70010 555 31820 40071
AAXX 13064 71555 NIL
AAXX 13064 71556 16/// /1815 11054 21064 39618 40239 58011 60001 333 11054 21103 70000 555 31819 40061
AAXX 13064 71557 46/// /0902 11103 21118 6///1 333 11022 21150 7////
AAXX 13064 71558 46/// ///// 11150 21173 30223 40261 53016 6///1 333 11113 21166 7////
AAXX 13064 71559 46/// /1710 11064 21071 39550 40272 56012 6///1 333 11054 21072 7////
AAXX 13064 71560 16/// /3104 11102 21110 30000 40321 51005 60001 333 11067 21111 70000 555 33519 40151
AAXX 13064 71563 NIL
AAXX 13064 71564 16/// /2401 11149 21166 39933 40325 51001 60001 333 11070 21149 70000 555 33417 40091
AAXX 13064 71565 NIL
AAXX 13064 71566 NIL
AAXX 13064 71567 NIL
AAXX 13064 71568 16/// /1606 10023 21010 30188 40201 57007 60001 333 10033 21002 70000
AAXX 13064 71569 16/// /1614 11060 21070 39514 40233 58011 60001 333 11056 21081 70000 555 31721 40061
AAXX 13064 71570 16/// /1502 11118 21134 39987 40313 56009 60001 333 11060 21149 70000
AAXX 13064 71571 NIL
AAXX 13064 71572 NIL
AAXX 13064 71573 16/// /3201 11050 21059 30010 40299 55000 60001 333 7////
AAXX 13064 71574 12774 70000 11019 21024 30202 40277 58007 60001 86570 333 10023 21052 79999 555 19999 29999
AAXX 13064 71575 16/// /2910 11155 21171 30056 40122 55000 60001 333 11142 21182 70015
AAXX 13064 71576 16/// /2006 11270 21299 30004 40092 53010 60001 333 11192 21292 70000
AAXX 13064 71577 46/// /2503 11148 21162 6///1 333 11075 21150 7//// 555 33517 40081
AAXX 13064 71578 16/// /2602 11012 21035 60001 333 10011 21022 70000 555 32520 40131
AAXX 13064 71579 NIL
AAXX 13064 71580 11024 71317 11206 21237 39912 49949 58035 69901 77172 87700 333 11204 21310 45030 79999 90929 555 19999 29999 31321 40051
AAXX 13064 71581 NIL
AAXX 13064 71582 17556 81406 10023 20020 30107 40160 57018 60031 7614/ 333 10023 21025 70041
AAXX 13064 71583 NIL
AAXX 13064 71584 15966 10208 11130 21145 30250 40300 51009 60001 333 11070 21151 70000
AAXX 13064 71585 NIL
AAXX 13064 71586 16/// /2009 11094 21110 39693 40170 56025 60001 333 11093 21127 70000
AAXX 13064 71587 NIL
AAXX 13064 71588 16/// /0303 11044 21058 60001 333 11020 21096 70000
AAXX 13064 71589 16/// /3005 11048 21076 30142 40278 51012 60001 333 11010 21090 70000 555 32622 40071
AAXX 13064 71590 16/// /0000 11080 21088 30077 40273 58009 60001 333 10044 21083 7////
AAXX 13064 71592 NIL
AAXX 13064 71593 NIL
AAXX 13064 71596 NIL
AAXX 13064 71598 16/64 /2001 11001 21023 30272 40278 56006 60001 333 10014 21045 70000 555 31920 40071
AAXX 13064 71599 NIL
AAXX 13064 71350 16/// /2303 11016 21039 30217 40284 56012 60001 333 10046 21035 70000 555 32322 40171
AAXX 13064 71351 NIL
AAXX 13064 71352 16/// /3102 11042 21049 39834 40300 50000 60001 333 10021 21069 70000
AAXX 13064 71353 NIL
AAXX 13064 71354 NIL
AAXX 13064 71355 16/// /2701 11354 21391 39962 40051 53008 60001 333 11320 21375 70000
AAXX 13064 71356 NIL
AAXX 13064 71357 NIL
AAXX 13064 71358 16/// /3308 11180 21208 30035 40070 51012 60001 333 11163 21238 70000
AAXX 13064 71359 NIL
AAXX 13064 71360 NIL
AAXX 13064 71361 NIL
AAXX 13064 71362 NIL
AAXX 13064 71363 NIL
AAXX 13064 71364 NIL
AAXX 13064 71365 NIL
AAXX 13064 71368 15962 32901 11030 21048 39903 40302 50001 60001 333 10043 21057 70000
AAXX 13064 71369 15966 61104 11094 21109 39390 40109 51001 60001 333 11076 21161 70000
AAXX 13064 71370 46/// /1604 11004 21025 30133 40272 58008 6///1 333 10017 21067 7////
AAXX 13064 71371 15966 01907 11024 21046 30255 40290 58005 60001 333 10053 21029 70000
AAXX 13064 71372 NIL
AAXX 13064 71373 NIL
AAXX 13064 71374 NIL
AAXX 13064 71375 NIL
AAXX 13064 71376 16/// /0000 11026 21028 39988 40286 56006 60001 333 10036 21076 70000
AAXX 13064 71377 16/// /2505 11001 21028 30239 40288 57003 60001 333 10049 21029 70000 555 32317 40171
AAXX 13064 71378 16/// /1503 10003 21027 30058 40270 58006 60001 333 10018 21017 70000
AAXX 13064 71379 17/// /3302 11004 21006 30065 40238 56005 69931 7//4/ 333 10015 21025 70003
AAXX 13064 71380 NIL
AAXX 13064 71381 NIL
AAXX 13064 71382 16/// /2003 11039 21042 39305 40255 56007 60001 333 11027 21055 70000
AAXX 13064 71383 NIL
AAXX 13064 71384 16/// /2603 10001 21021 30269 40277 58010 60001 333 10018 21015 70000 555 32419 40081
AAXX 13064 71385 NIL
AAXX 13064 71386 16/// /1601 11006 21024 30051 40260 58007 60001 333 10011 21072 70010
AAXX 13064 71387 NIL
AAXX 13064 71388 46/// /0601 11009 21012 30068 40260 57008 6///1 333 11009 21045 7////
AAXX 13064 71389 46/// /3601 11026 21031 6///1 333 10057 21090 7////
AAXX 13064 71390 NIL
AAXX 13064 71391 16/// ///// 11015 21026 60001 333 10014 21057 70000
AAXX 13064 71392 NIL
AAXX 13064 71393 NIL
AAXX 13064 71395 12474 82008 10020 20016 30117 40298 55009 60001 885// 333 10066 21079 70000 555 10000 20000 32425 40161
AAXX 13064 71398 15966 03105 11134 21148 30311 40323 53010 60001 333 11061 21134 70000
AAXX 13064 71399 NIL
BBXX DBJM 13061 99540 10085 46/// /1722 10046 20024 49902 57068 22220 00047
BBXX DBEB 13061 99538 10081 41/// /1821 10050 20049 49896 57066 7//// 22261 00050
BBXX DBBC 13061 99535 10086 46/// /1714 10055 2//// 49920 57064 22240 04047
BBXX DBFR 13061 99551 10183 46/// /2314 10049 20035 44064 52006 22250 00065
AAXX 13064 17270 12970 02702 10068 21029 39599 40261 52010 60002 333 20034 32001 55052
BBXX DBCK 13061 99/// ///// 46/// ///// 10055 20053 49910 57064 22220 00060
BBXX DBEA 13061 99540 10084 46/// /1822 10050 20028 49900 57063 22260 04045
BBXX DBBA 13061 99536 10086 46/// +//// 10054 20030 49918 57064/ 22220 00051
BBXX DBKR 13061 99541 10121 46/// /1706 10033 20021 40000 57044 22200 00058
AAXX 13061 10815 03488 71904 11003 21023 39167 48401 57026 69902 8//// 333 10015 21008 3/102 55000 55300 20000 30000 69907 70162 82/19 84/29 87/56
AAXX 13061 13168 11697 80000 10082 20078 30048 40155 51013 60022 76062 885// 333 20080 31006 55012 70023
AAXX 13061 13174 11697 82003 10074 20064 30053 40154 52010 69972 76162 885// 333 20073 31006 55014 70007
AAXX 13061 13269 12698 60000 10076 20062 39936 40150 53002 69902 86500 333 20073 31005 55000 70004
AAXX 13061 13274 11697 63403 10080 20056 39996 40157 53010 69902 70262 84530 333 20080 31007 55012 70000
AAXX 13061 13278 32698 70000 10085 20059 39940 40165 53006 84530 333 20086 31006 55011 70002
AAXX 13061 13378 31/91 92007 10010 20010 38257 48482 58008 74544 333 20006 3/000 42003 55000 70030 91112
AAXX 13061 13397 12697 81103 10063 20058 39653 40193 55000 60042 86830 333 20061 31006 55000 70044
AAXX 13061 13457 32565 81401 10139 20118 30152 40159 52004 8582/ 333 20116 32011 55/// 81826 84630 87458
AAXX 13061 13481 NIL
AAXX 13064 64500 31358 51004 10250 20235 30093 40106 79299 84902 333 02400 20240 50111 55050 58003 84608 81920 85073 94948 95838
AAXX 13061 13173 11697 71602 10074 20062 30060 40161 52019 69922 70262 87500 333 20068 31006 55012 70002
AAXX 13061 13180 32697 81405 10084 20080 30049 40160 52007 8653/ 333 20070 31007 55020 70000
AAXX 13061 13266 11698 81801 10088 20074 30055 40156 51015 69962 76166 888// 333 20085 31007 55017 70007
AAXX 13061 13369 32598 60000 10009 20001 38968 48446 53004 86500 333 20004 3/102 43008 55006 70005
AAXX 13061 13383 32998 63401 10093 20077 39962 40164 50000 86030 333 20082 31005 55000 70024
AAXX 13061 13384 32698 71401 10086 20049 30019 40171 50002 87500 333 20076 31004 55023 70000
AAXX 13061 13389 11595 70000 10060 20053 39899 40182 55001 60032 71062 87800 333 20060 31004 55005 70061
AAXX 13061 13477 NIL
BBXX 61001 13064 99434 10078 46/// /2411 1//// 2//// 40156 5//// 22200 00153 10603 70016
AAXX 13064 91348 32474 60908 10288 20222 30025 40078 55007 84101 333 562/9 70015 555 91306
AAXX 13064 91203 11474 80812 10301 20271 30095 40100 57014 60021 71682 84336 333 56299 70020 84917 82817 85080 555 91306
BBXX 41101 13064 99146 70562 46/// /0810 10270 20237 40114 57012 22200 00274 10804 70021
AAXX 13064 71123 12574 81708 11073 21103 39265 40150 56006 60001 82570 333 11058 21126 79999 555 19999 29999 31720 40220
AAXX 13064 71816 12974 02805 11181 21242 30224 40289 52011 60001 333 11145 21198 70000 555 10000 20000 32632 40091
AAXX 13064 71817 NIL
AAXX 13064 71818 12974 02510 11130 21145 30216 40235 52011 60001 333 11110 21161 70000 555 10000 20000 32526 40040
AAXX 13064 71822 11466 83403 11039 21050 39780 40266 53001 69921 77177 887// 333 11011 21040 43029 70010 90973 555 10006 20006
AAXX 13064 71825 12874 41708 11244 21288 39594 40307 58001 60001 84070 333 11146 21294 79999 555 19999 29999
AAXX 13064 71827 11774 42303 11162 21184 30039 40295 50002 69901 70277 84500 333 11118 21212 47018 79999 90961 555 19999 29999
AAXX 13064 71828 16864 80000 11191 21229 39607 40281 50004 60001 333 11183 21229 70000
AAXX 13064 71831 11262 80106 11074 21087 30017 40307 53008 69901 70252 887// 333 11010 21074 79999 90943 555 10000 20000
AAXX 13064 71832 NIL
AAXX 13064 71834 11374 80504 11087 21099 39871 40315 50005 69901 77177 887// 333 11043 21087 48011 79999 90973 555 19999 29999
AAXX 13064 71841 NIL
AAXX 13064 71842 11269 81305 11101 21109 39829 40321 58003 69921 77177 885// 333 11101 21136 47003 70002 90983 555 10002 20002
AAXX 13064 71844 16964 02205 11180 21210 30016 40309 56006 60001 333 11129 21188 70000
AAXX 13064 71845 NIL
AAXX 13064 71850 11156 81403 11110 21116 39794 40315 55001 69901 77177 887// 333 11085 21110 48002 79999 90973 555 19999 29999
AAXX 13064 71852 16264 81905 11101 21107 30005 40313 56006 60001 333 11062 21162 70000 555 33618 40091
AAXX 13064 71854 NIL
AAXX 13064 71858 16/// /2005 11153 21169 39974 40268 56024 60001 333 11113 21229 70000
AAXX 13064 71861 NIL
AAXX 13064 71862 11259 81908 11064 21073 39553 40276 55011 69901 77177 886// 333 11054 21074 42002 79999 90983 555 19999 29999
AAXX 13064 71863 46258 81909 11057 21081 39535 40253 56005 6///1 333 11056 21087 7//// 555 30221 40061
AAXX 13064 71120 12974 82009 11071 21104 39482 40152 56018 60001 85071 333 11054 21093 79999 555 19999 29999
AAXX 13064 71726 16/// /0000 11010 21013 39710 40259 58003 60001 333 11002 21024 70000 555 32317 40071
AAXX 13064 71727 NIL
AAXX 13064 71728 11680 82408 10011 21014 30030 40254 56006 69901 77122 885// 333 10017 21018 44001 79999 90942 555 19999 29999
AAXX 13064 71730 11156 82308 10020 20020 39833 40262 57006 60051 76162 887// 333 10035 21007 70056 90972 555 10000 20000
AAXX 13064 71731 11/02 92205 10012 20012 39812 40270 58003 60051 76184 333 10025 20009 40997 70070 90973 555 10000 20000
AAXX 13064 71735 NIL
AAXX 13064 71738 NIL
AAXX 13064 71739 41248 80106 11030 21042 39910 40281 52006 6//// 77175 886// 333 10004 21031 4//// 7//// 90973 555 1//// 2////
AAXX 13064 71749 16464 83504 11042 21063 30053 40307 53006 60001 333 11030 21140 70000
AAXX 13064 71799 12983 32505 11019 21029 30179 40203 55007 60001 82031 333 10051 21035 70000 555 10000 20000
AAXX 13064 71800 NIL
AAXX 13064 71801 11574 23108 11023 21049 30110 40288 52014 69901 70181 82500 333 10002 21064 41001 70004 90950 555 10008 20004 32842 40083
AAXX 13064 71803 11574 32808 11048 21082 30088 40280 51010 69901 70188 83500 333 11011 21100 48002 70004 90962 555 10004 20004 32828 40071
AAXX 13064 71807 NIL
AAXX 13064 71808 12574 22911 11142 21195 30228 40277 51008 60001 82500 333 11127 21177 44018 70000 555 10000 20000 32720 40091
AAXX 13064 71809 11566 82303 11040 21048 30252 40280 50001 60011 77182 885// 333 11007 21086 47013 70102 90927 93101 555 10102 20102
AAXX 13064 71810 16/// /0407 11061 21084 30220 40289 51008 60001 333 11028 21107 70000
AAXX 13064 71811 NIL
AAXX 13064 71813 NIL
AAXX 13064 71814 16/// /3307 11135 21151 30282 40292 51007 60001 333 11070 21151 70000
AAXX 13064 71815 11456 82804 10001 21011 30248 40279 50000 69921 78522 885// 333 10009 21056 44007 70032 90910 555 10034 20032 32429 40141
AAXX 13064 71930 NIL
AAXX 13064 71931 16/// /2807 11068 21088 30249 40261 51014 60001 333 10039 21099 70000 555 33031 40092
AAXX 13064 71934 12874 22113 11020 21057 39680 49935 55006 60001 82070 333 11018 21117 70000 555 10000 20000
AAXX 13064 71935 12874 12416 10003 21070 39702 49906 53013 60001 81040 333 10030 21089 70000 555 10000 20000 32324 40041
AAXX 13064 71936 12974 32409 11029 21058 39593 49847 52017 60001 82031 333 11011 21081 79999 555 19999 29999 31822 40190
AAXX 13064 71937 NIL
AAXX 13064 71938 11424 83526 11200 21230 39856 49886 53046 69941 77177 885// 333 11144 21236 46024 70004 90973 555 10044 20004 33531 40061
AAXX 13064 71940 12982 72512 11007 21066 39303 40119 53002 60001 83032 333 10004 21209 70000 555 10000 20000 32520 40020
AAXX 13064 71943 11974 62420 11016 21093 39256 40094 53005 60001 70311 80001 333 11003 21112 70000 555 10000 20000 32335 40212
AAXX 13064 71944 160// ///// 11051 58004 60001 333 11046 21096 70000
AAXX 13064 71945 12974 21711 11094 21143 39550 40027 53007 60001 80001 333 11035 21167 70000 555 10000 20000
AAXX 13064 71946 NIL
AAXX 13064 71948 46461 33505 11249 39894 40009 52038 6///1 333 11164 21249 7//// 555 30532 40202
AAXX 13064 71949 46/// /2909 11020 21062 39146 40006 51020 6///1 333 10006 21132 7//// 555 32327 40181
AAXX 13064 71951 11/24 90000 11024 21028 39876 40147 56009 60021 77177 333 11009 21034 47024 70028 90983 93102 555 10036 20028
AAXX 13064 71957 46464 80207 11191 21247 39967 40057 52044 6///1 333 11085 21191 7//// 555 30325 40021
AAXX 13064 71958 43/// /0000 11091 21111 39146 40100 51013 6///1 333 11019 21143 7////
AAXX 13064 71964 12986 81812 11021 21105 39184 40033 51015 60001 8807/ 333 10009 21036 79999 555 19999 29999 31735 40073
AAXX 13064 71966 16/// /2001 11147 21167 39569 40033 52027 60001 333 11057 21147 70023 555 10030 20023
AAXX 13064 71968 46064 /0105 11202 30009 40075 53024 6///1 333 11126 21204 7//// 555 30319 40171
AAXX 13064 71893 12980 72903 10010 21016 30172 40204 57006 60001 87070 333 10034 21037 70000 555 10000 20000
AAXX 13064 71894 16/// /0706 10036 20030 30185 40194 58005 60001 333 10054 21010 70000
AAXX 13064 71896 15666 81914 11030 21065 39329 40175 57003 60001 333 11028 21141 70000
AAXX 13064 71897 11266 81420 10033 20017 3//// 4//// 57014 60051 76162 888XX 333 10052 20028 70096 90983
AAXX 13064 71898 160// ///// 10023 58009 60041 333 10028 21002 70250
AAXX 13064 71899 11474 80210 10040 20036 3//// 4//// 57012 60001 71622 8232/ 333 10066 20026 70114 555 32822 40151
AAXX 13064 71902 NIL
AAXX 13064 71905 NIL
AAXX 13064 71906 11974 02506 11199 21223 30185 40237 51002 69901 70271 333 11132 21202 48008 79999 90950 555 19999 29999
AAXX 13064 71907 17320 92615 11106 21131 30178 40211 56003 69951 74544 333 11104 21162 70015 555 30320 40061
AAXX 13064 71909 16964 03410 11236 21278 30101 40146 52004 60001 333 11155 21238 70000 555 33229 40122
AAXX 13064 71910 47016 92711 11157 21169 30061 40125 58001 6///1 745// 333 11143 21185 7////
AAXX 13064 71911 47211 31324 11217 39883 49941 58033 6///1 745// 333 11217 21342 7//// 555 30130 40062
AAXX 13064 71912 12974 02111 11154 21187 30023 40214 56015 60001 333 11114 21248 79999 555 19999 29999 32222 40020
AAXX 13064 71915 11462 80704 11239 21278 30027 40112 55017 69901 77173 885// 333 11233 21336 48043 79999 90983 555 19999 29999
AAXX 13064 71917 11974 60000 11407 21443 30040 40055 51005 69901 7767/ 86070 333 11387 21420 47013 79999 90999 555 19999 29999
AAXX 13064 71922 11474 81911 11094 21107 39694 40172 57025 69901 72271 885// 333 11092 21127 47027 79999 90952 555 19999 29999
AAXX 13064 71924 11262 70921 11252 21289 39909 40001 57011 69901 77677 83530 333 11243 21295 48037 79999 90983 555 19999 29999 30921 40061
AAXX 13064 71925 11462 81006 11130 21142 39749 49789 56019 69901 77177 885// 333 11130 21320 42018 79999 90983 555 19999 29999 31721 40181
AAXX 13064 71926 11412 81720 11119 21147 39873 49897 57063 60011 77177 885// 333 11114 21273 48041 70016 90983 93101 555 10016 20016 31823 40051
AAXX 13064 71928 16/// /1203 11125 21143 38962 40163 57009 60001 333 11073 21198 70000 555 10010
AAXX 13064 71397 12562 70000 10004 21001 30261 40296 57009 60001 87500 333 10093 21070 70000 555 10000 20000 32420 40180
AAXX 13064 71400 16/64 /0000 11091 21094 60001 333 11012 21109 70006 555 32918 40071
AAXX 13064 71403 46/// /2315 10059 20059 30277 40297 56009 6///1 333 10071 21039 7//// 555 32330 40132
AAXX 13064 71411 16/// /2503 10032 20028 30285 40298 58015 60001 333 10093 21054 70000 555 32125 40111
AAXX 13064 71412 16/// /2606 11013 21035 30278 40288 55005 60001 333 10050 21045 70000 555 32124 40121
AAXX 13064 71421 NIL
AAXX 13064 71430 16/// /2708 10043 20016 30195 40293 58003 60001 333 10057 20036 70000 555 32327 40071
AAXX 13064 71431 16/// /3505 11017 21033 30192 40290 52002 60001 333 10050 21029 70000 555 32627 40071
AAXX 13064 71432 16/// /2403 10018 21006 30204 40303 56001 60001 333 10076 20010 70000
AAXX 13064 71433 NIL
AAXX 13064 71435 NIL
AAXX 13064 71441 NIL
AAXX 13064 71443 16/// /2208 11067 21084 39836 40263 56017 60001 333 11067 21127 70000
AAXX 13064 71444 NIL
AAXX 13064 71447 16/// /0601 11068 21087 39729 40293 56008 60001 333 11060 21091 70000
AAXX 13064 71467 16/// /0108 11350 21385 39919 40039 51035 60001 333 11199 21353 70000 555 10010 30319 40231
AAXX 13064 71472 NIL
AAXX 13064 71474 16864 31703 11088 21113 38935 40207 55004 60001 333 11061 21146 70000
AAXX 13064 71510 16/// /1808 11054 21069 39482 40206 58012 60001 333 11054 21122 70000
AAXX 13064 71538 12974 00000 11025 21059 30076 40312 50003 60001 333 10055 21034 70000 555 10000 20000
AAXX 13064 71600 16461 82511 10075 20036 30314 40320 55007 60001 333 10076 21006 70005 555 32425 40171
AAXX 13064 71601 NIL
AAXX 13064 71603 12574 82305 10045 20037 30238 40292 57017 60001 82501 333 10083 20028 70000 555 10000 20000 32325 40151
AAXX 13064 71607 16/// /2901 11064 21068 30247 40280 58008 60001 333 10087 21089 70000
AAXX 13064 71609 12574 60000 11032 21055 30147 40284 58011 60001 86500 333 10074 21030 70000 555 10000 20000 32519 40141
AAXX 13064 71610 NIL
AAXX 13064 71621 16950 00000 11038 21045 30191 40300 58001 60001 333 10058 21043 70000
AAXX 13064 71623 NIL
AAXX 13064 71624 12974 22304 11009 21042 30082 40298 58001 60001 80001 333 10068 21022 70000 555 10000 20000
AAXX 13064 71625 17459 81402 10019 21011 30118 40281 58006 60001 743// 333 10028 21101 70000
AAXX 13064 71627 12874 42203 11001 21047 30246 40291 58004 60001 84070 333 10055 21011 70000 555 10000 20000
AAXX 13064 71628 12666 71903 11007 21018 30144 40287 58003 60001 87500 333 10066 21015 70000 555 10000 20000 32121 40070
AAXX 13064 71630 NIL
AAXX 13064 71631 16/// /2203 11028 21050 39788 40300 51001 60001 333 10016 21044 70000
AAXX 13064 71633 11762 81907 10022 20003 30013 40289 55003 69901 76122 885// 333 10035 21026 41997 79999 90910 555 10000 20000
AAXX 13064 71705 12974 01502 11011 21061 30197 40286 57011 60001 333 10050 21036 70000 555 10000 20000 32525 40190
AAXX 13064 71706 12974 00000 11029 21054 30230 40292 57013 60001 333 10049 21029 79999 555 19999 29999 32321 40121
AAXX 13064 71707 12974 32405 10002 21013 30218 40296 55010 60001 80001 333 10034 21071 70000 555 10000 20000 32525 40161
AAXX 13064 71709 NIL
AAXX 13064 71711 NIL
AAXX 13064 71714 16/// /3401 11022 21033 30206 40300 56007 60001 333 7////
AAXX 13064 71715 16/// /2005 11002 21034 30079 40264 58011 60001 333 10008 21019 70000 555 31922 40071
AAXX 13064 71718 11566 82004 10011 21015 30200 40266 58004 69901 78522 885// 333 10016 21025 47012 70002 90956 555 10002 20002
AAXX 13064 71719 NIL
AAXX 13064 71851 16/// /2203 11155 21167 39964 40317 56005 60001 333 11064 21161 70000 555 30020 40081
AAXX 13064 71857 NIL
AAXX 13064 71860 NIL
AAXX 13064 71876 15366 81906 11054 21059 39532 40214 56013 60001 333 11054 21113 70000
AAXX 13064 71885 NIL
AAXX 13064 71886 NIL
AAXX 13064 71888 NIL
AAXX 13064 71890 NIL
AAXX 13064 71895 NIL
AAXX 13064 71744 NIL
AAXX 13064 71750 16/// /0505 11043 21057 30044 40284 52011 60001 333 11014 21067 70000 555 30517 40031
AAXX 13064 71751 NIL
AAXX 13064 71752 NIL
AAXX 13064 71753 16/// /0902 11029 21032 30261 40291 55006 60001 333 10075 21090 70000 555 32218 40161
AAXX 13064 71754 16/// /2006 11061 21076 39528 40209 56014 60001 333 11061 21128 70000
AAXX 13064 71755 43/// /2504 11236 21272 39946 40312 56007 6///1 333 7////
AAXX 13064 71756 16/// /3501 11050 21100 39077 40189 56006 60001 333 11016 21083 70000
AAXX 13064 71758 NIL
AAXX 13064 71760 NIL
AAXX 13064 71761 NIL
AAXX 13064 71762 NIL
AAXX 13064 71763 NIL
AAXX 13064 71765 16/// /0000 11064 21079 39942 40224 56008 60001 333 11006 21071 70000
AAXX 13064 71766 16/// /0000 11007 21016 30127 40200 56006 60001 333 10043 21042 70000
AAXX 13064 71767 16/// /2307 10046 20033 30018 40282 51002 60001 333 10048 20021 70000 555 10010 31921 40081
AAXX 13064 71768 46/// /2908 11067 21110 39675 40236 56002 6///1 333 10029 21068 7////
AAXX 13064 71769 16/// /2204 10023 21001 30176 40192 55005 60001 333 10041 20014 70000
AAXX 13064 71770 16/// /3301 11047 21070 39446 40234 51001 60001 333 10005 21049 70000
AAXX 13064 71771 NIL
AAXX 13064 71772 16/// /2705 10023 20009 30186 40192 55006 60001 333 10049 20021 70000 555 33019 40071
AAXX 13064 71773 16/// /2003 11032 21088 39180 40030 51015 60001 333 10007 21035 70000 555 31524 40081
AAXX 13064 71774 46/// ///// 11010 6///1 333 10022 21017 7////
AAXX 13064 71775 46/// /0000 11033 21038 30198 40204 58008 6///1 333 10053 21067 7////
AAXX 13064 71776 46/// /2004 11061 21083 39580 40237 55002 6///1 333 10010 21064 7////
AAXX 13064 71777 16/// ///// 11088 21096 39964 40225 55006 60001 333 11057 21136 70000
AAXX 13064 71778 46/// /0112 6///1 333 7//// 555 30417 40211
AAXX 13064 71779 16/// /1804 11032 21062 39520 40193 56003 60001 333 11021 21136 70000
AAXX 13064 71780 16/// /0706 10031 21069 30170 40198 56013 60001 333 10057 20002 70000
AAXX 13064 71781 46/// /1102 10032 20002 30171 40196 56006 6///1 333 10069 20025 7//// 555 33318 40071
AAXX 13064 71782 46/// /0302 11130 21145 38876 40258 55000 6///1 333 10091 21164 7////
AAXX 13064 71783 16/// /3201 11020 21038 30122 40197 56010 60001 333 10049 21022 70000
AAXX 13064 71784 16/// /0201 11002 21045 39986 40193 56008 60001 333 10049 21018 70000
AAXX 13064 71785 16/// /0201 11017 21038 30191 40207 56008 60001 333 10067 21034 70000
AAXX 13064 71786 46/// /0000 11151 21167 38354 40268 56004 6///1 333 11121 21226 7////
AAXX 13064 71787 16/// /1705 10010 21060 39784 40278 56011 60001 333 10044 21049 70000 555 32424 40131
AAXX 13064 71788 NIL
AAXX 13064 71789 NIL
AAXX 13064 71791 NIL
AAXX 13064 71792 NIL
AAXX 13064 71793 NIL
AAXX 13064 71794 NIL
AAXX 13064 71795 NIL
AAXX 13064 71796 NIL
AAXX 13064 71797 NIL
AAXX 13064 71665 16/// /2714 11144 21203 30207 40217 51010 60001 333 11114 21160 70000 555 32940 40073
AAXX 13064 71666 16/// /2302 11041 21053 30236 40282 56008 60001 333 10049 21045 70000 555 32522 40171
AAXX 13064 71667 NIL
AAXX 13064 71668 16/// /3303 11048 21055 30237 40281 58008 60001 333 10052 21075 70000
AAXX 13064 71669 NIL
AAXX 13064 71670 16/// ///// 11056 21060 60001 333 10037 21062 70000
AAXX 13064 71671 16/// /2203 10024 20015 30225 40286 56009 60001 333 10092 21058 70000 555 32519 40161
AAXX 13064 71672 16/// /3401 11048 21057 30024 40294 53001 60001 333 10070 21053 70000
AAXX 13064 71673 NIL
AAXX 13064 71674 NIL
AAXX 13064 71675 17966 02306 11180 21197 30015 40308 55005 60051 70044 333 11131 21180 70186
AAXX 13064 71679 16/// /1808 10000 21039 39109 40131 58009 60001 333 10018 21106 70000 555 32521 40001
AAXX 13064 71680 NIL
AAXX 13064 71681 46/// /1802 11064 21081 6///1 333 10003 21080 7////
AAXX 13064 71682 NIL
AAXX 13064 71683 NIL
AAXX 13064 71684 17110 83403 10001 20000 39964 40270 50001 60001 761// 333 10018 21013 70000
AAXX 13064 71685 15966 80101 11061 21078 39696 40251 57008 60001 333 11019 21091 70000
AAXX 13064 71686 NIL
AAXX 13064 71687 16/// /0000 11073 21087 39400 40202 56007 60001 333 11007 21118 70000
AAXX 13064 71688 16/// /0901 11048 21079 39130 40181 55007 60001 333 11004 21098 70000
AAXX 13064 71689 15966 02309 11017 21080 39599 40059 56010 60001 333 11011 21173 70000
AAXX 13064 71690 NIL
AAXX 13064 71691 17348 80817 11020 21028 30247 40275 50002 69981 7714/ 333 10008 21071 70038
AAXX 13064 71692 NIL
AAXX 13064 71694 16/// /0000 11003 21007 39931 40301 55000 60001 333 10024 21118 70000
AAXX 13064 71695 16/// /1708 11096 21114 39879 40225 56029 60001 333 11095 21199 70000
AAXX 13064 71696 16/// /2219 11132 21158 30057 40094 58033 60001 333 11104 21267 70000 555 32125 40061
AAXX 13064 71697 15962 03503 11045 21049 30127 40302 53003 60001 333 10051 21051 70000
AAXX 13064 71699 16/// /3602 11009 21013 30269 40277 58012 60001 333 10086 21019 70000
AAXX 13064 71150 46/// /1807 11103 21113 39579 40288 56008 6///1 333 11076 21158 7////
AAXX 13064 71151 NIL
AAXX 13064 71152 46/// /0403 11004 21026 30279 40292 6///1 333 7////
AAXX 13064 71153 16/// /2206 11093 21131 60001 333 11053 21166 70019
AAXX 13064 71154 16/// /2223 11044 21110 60001 333 11016 21182 70016 555 32136 40053
AAXX 13064 71155 NIL
AAXX 13064 71156 NIL
AAXX 13064 71157 46/// ///// 11059 21091 6///1 333 11043 21098 7////
AAXX 13064 71158 NIL
AAXX 13064 71159 NIL
AAXX 13064 71160 NIL
AAXX 13064 71161 16/// /2303 11025 21032 30135 40286 56002 60001 333 10054 21029 70000 555 32217 40191
AAXX 13064 71162 NIL
AAXX 13064 71163 46/// /3117 11021 21033 39519 49852 53030 6///1 333 10003 21148 7//// 555 32927 40061
AAXX 13064 71164 NIL
AAXX 13064 71165 NIL
AAXX 13064 71166 NIL
AAXX 13064 71167 15966 82604 11046 21060 39016 40139 55013 60001 333 11036 21218 70000
AAXX 13064 71168 16/// /1504 11030 21037 39669 40265 51005 60001 333 10035 21030 70000 555 31818 40071
AAXX 13064 71170 NIL
AAXX 13064 71171 46/// /2504 10002 21029 30197 40295 56001 6///1 333 10066 21022 7////
AAXX 13064 71172 16/// ///// 10035 20025 30052 40272 58002 60001 333 10038 20019 70000
AAXX 13064 71175 NIL
AAXX 13064 71176 460// /2534 11136 39427 40124 58007 6///1 333 11122 21138 7//// 555 32644 40153
AAXX 13064 71177 460// /3226 11187 39116 40155 52019 6///1 333 11162 21197 7////
AAXX 13064 71178 16/// /2918 11026 21071 30243 40276 51015 60001 333 10011 21061 7////
AAXX 13064 71179 460// /2618 11197 39327 40189 50021 6///1 333 11172 21233 7//// 555 32649 40193
AAXX 13064 71180 16/// /2709 10022 21008 30252 40292 57004 60001 333 10023 21030 70008 555 32531 40102
AAXX 13064 71181 16664 80000 10002 21043 30240 40277 51008 60001 333 70000
AAXX 13064 71183 16/// /0402 30247 58004 60001 333 70000
AAXX 13064 71184 46/// /2104 11016 21034 6///1 333 10050 21043 7//// 555 32318 40171
AAXX 13064 71186 NIL
AAXX 13064 71187 15966 11108 11023 21058 30164 40213 56008 60001 333 10017 21025 70000
AAXX 13064 71189 NIL
AAXX 13064 71190 NIL
AAXX 13064 71191 16/// ///// 11010 21034 60001 333 10088 21014 70004
AAXX 13064 71192 15766 81905 11030 21058 39524 40199 56003 60001 333 11020 21132 70000 555 31417 40011
AAXX 13064 71193 16/// /0105 11033 21037 39909 40280 53006 60001 333 11003 21036 70000
AAXX 13064 71196 NIL
AAXX 13064 71197 16464 62609 10022 21009 30241 40291 58004 60001 333 10023 21034 70005 555 32739 40183
AAXX 13064 71198 46/// /2603 11004 21023 6///1 333 10039 21015 7//// 555 32023 40071
AAXX 13064 71199 46/// /2405 11045 21099 39214 40049 51019 6///1 333 10008 21185 7//// 555 32326 40221
AAXX 13064 71900 46/// /23// 11137 21190 30215 40228 53013 6///1 333 11115 21164 7////
AAXX 13064 71903 NIL
AAXX 13064 71904 NIL
AAXX 13064 71914 16/// /0000 11004 21030 39973 40197 56012 60001 333 10029 21013 70000
AAXX 13064 71916 NIL
AAXX 13064 71918 460// ///// 11247 6///1 333 7////
AAXX 13064 71920 NIL
AAXX 13064 71921 NIL
AAXX 13064 71923 NIL
AAXX 13064 71927 NIL
AAXX 13064 71941 17348 80101 11004 21005 39852 40275 51004 69931 7714/ 333 10016 21012 70003
AAXX 13064 71947 15566 83507 11076 21086 39938 40294 53007 60001 333 11012 21076 70000
AAXX 13064 71500 NIL
AAXX 13064 71501 NIL
AAXX 13064 71502 NIL
AAXX 13064 71503 NIL
AAXX 13064 71504 NIL
AAXX 13064 71505 16/// /0104 11025 21083 39305 40022 51020 60001 333 10030 21029 70000
AAXX 13064 71506 NIL
AAXX 13064 71507 16/// /2110 11035 21086 60001 333 11014 21146 70000 555 31924 40191
AAXX 13064 71508 16/// ///// 10014 21024 30164 40304 50000 60001 333 10065 20004 70000
AAXX 13064 71509 NIL
AAXX 13064 71511 NIL
AAXX 13064 71512 16/// /0000 11130 21138 30285 40300 52006 60001 333 11064 21151 70022
AAXX 13064 71513 15966 00207 11152 21170 30284 40300 51012 60001 333 11081 21181 70000
AAXX 13064 71514 NIL
AAXX 13064 71515 16/// /2113 11070 21074 39534 40255 58007 60001 333 11056 21084 70000 555 33137 40063
AAXX 13064 71516 16/// /1808 11074 21084 60001 333 11049 21075 70000
AAXX 13064 71517 NIL
AAXX 13064 71518 NIL
AAXX 13064 71519 NIL
AAXX 13064 71520 NIL
AAXX 13064 71521 NIL
AAXX 13064 71522 NIL
AAXX 13064 71523 NIL
AAXX 13064 71524 16/// /1603 11031 21036 30268 40295 58008 60001 333 10044 21044 70000 555 32318 40181
AAXX 13064 71525 NIL
AAXX 13064 71526 NIL
AAXX 13064 71527 15266 81104 11107 21114 39790 40318 58001 60001 333 11083 21128 70000
AAXX 13064 71528 NIL
AAXX 13064 71529 NIL
AAXX 13064 71532 17459 62003 11004 21013 39940 40291 55000 60001 710// 333 10021 21111 70045
AAXX 13064 71534 16658 32102 11014 21033 30017 40293 50002 60001 333 10066 21041 70000
AAXX 13064 71535 NIL
AAXX 13064 71536 NIL
AAXX 13064 71537 NIL
AAXX 13064 71539 NIL
AAXX 13064 71540 NIL
AAXX 13064 71541 NIL
AAXX 13064 71542 16/// /2516 10003 21071 60001 333 10005 21192 70004 555 32423 40061
AAXX 13064 71543 NIL
AAXX 13064 71544 NIL
AAXX 13064 71545 NIL
AAXX 13064 71546 NIL
AAXX 13064 71547 NIL
AAXX 13064 71548 NIL
AAXX 13064 71549 NIL
AAXX 13064 71201 16/// ///// 10021 21033 60001 333 10071 21011 70000
AAXX 13064 71202 16/// ///// 11097 21111 60001 333 11058 21112 70011
AAXX 13064 71203 15966 60103 11083 21100 39704 40239 58005 60001 333 10000 21103 70000
AAXX 13064 71209 46/// /1206 10024 6///1 333 10051 20023 7//// 555 33418 40071
AAXX 13064 71211 46/// /0413 10022 21035 30186 40198 55007 6///1 333 10043 20017 7//// 555 30433 40182
AAXX 13064 71212 16/// /1801 11033 21039 39443 40262 56007 60001 333 11019 21057 70000 555 32519 40071
AAXX 13064 71213 46/// /3503 10002 20002 39962 40267 50002 6///1 333 10020 21011 7////
AAXX 13064 71214 NIL
AAXX 13064 71215 46/// /0501 11070 21102 39878 40230 55001 6///1 333 10034 21077 7//// 555 30224 40101
AAXX 13064 71216 16/// /1003 11040 21080 39605 40236 56003 60001 333 10009 21065 70000
AAXX 13064 71217 NIL
AAXX 13064 71218 16/// /1803 11064 21080 39794 40233 57010 60001 333 11018 21092 70000
AAXX 13064 71219 46/// /1409 10027 20011 30122 40128 58007 6///1 333 10047 20016 7//// 555 31635 40193
AAXX 13064 71220 46/// /1317 10029 20019 6///1 333 10039 20013 7////
AAXX 13064 71221 NIL
AAXX 13064 71222 16/// /0000 11093 21099 39135 40116 52013 60001 333 11019 21142 70000
AAXX 13064 71223 NIL
AAXX 13064 71224 NIL
AAXX 13064 71225 NIL
AAXX 13064 71226 NIL
AAXX 13064 71227 NIL
AAXX 13064 71228 NIL
AAXX 13064 71229 NIL
AAXX 13064 71230 16/// /2716 11002 21076 39206 40103 55001 60001 333 10012 21122 70000 555 32730 40022
AAXX 13064 71231 16/// /1610 11097 21115 60001 333 11032 21146 70020
AAXX 13064 71232 16/// /2209 11089 21139 38636 40169 50000 60001 333 11061 21176 70000 555 32525 40031
AAXX 13064 71233 16/// /1502 11076 21118 60001 333 11068 21131 70000
AAXX 13064 71234 16/// /3303 11230 21253 38954 40201 56005 60001 333 11052 21239 70008
AAXX 13064 71235 16/// /3110 11079 21125 60001 333 11065 21145 70003
AAXX 13064 71236 46/// /1004 11107 21147 6///1 333 11018 21166 7//// 555 33317 40001
AAXX 13064 71237 46/// /1606 11112 21123 39340 40178 56009 6///1 333 11043 21138 7////
AAXX 13064 71238 16/// /1803 11070 21102 60001 333 11024 21100 70000 555 31918 40201
AAXX 13064 71239 16/// /1904 11108 21130 39828 40315 56006 60001 333 11064 21142 70000 555 30419 40131
AAXX 13064 71240 16/// ///// 11105 21117 39331 40201 56012 60001 333 11054 21115 70000
AAXX 13064 71241 NIL
AAXX 13064 71242 16/// /2206 11127 21142 60001 333 11057 21166 70000
AAXX 13064 71243 NIL
AAXX 13064 71244 16/// /2105 11094 21104 38925 40185 56012 60001 333 11053 21133 70003 555 10010 20003
AAXX 13064 71245 NIL
AAXX 13064 71246 NIL
AAXX 13064 71247 15966 02006 11053 21067 39316 40188 58014 60001 333 11045 21092 70018
AAXX 13064 71248 16/// /0000 11169 21191 38827 40176 56003 60001 333 11068 21243 70000
AAXX 13064 71249 NIL
AAXX 13064 71450 NIL
AAXX 13064 71451 16/// /2105 11107 21127 39707 40143 58028 60001 333 11088 21134 70000 555 10010 32317 40201
AAXX 13064 71452 46/// /1813 11060 21071 39527 40257 58014 6///1 333 11049 21066 7//// 555 31618 40041
AAXX 13064 71453 16/// /1910 11053 21071 39268 40199 56011 60001 333 11035 21076 7//// 555 10040
AAXX 13064 71454 16/// /2007 11085 21099 39486 40196 56023 60001 333 11085 21140 70000 555 31819 40021
AAXX 13064 71455 NIL
AAXX 13064 71456 NIL
AAXX 13064 71457 16/// /1703 11167 21179 39261 40183 57012 60001 333 11058 21184 70003
AAXX 13064 71458 16/// /1911 11088 21102 39367 40153 56012 60001 333 11038 21108 70000 555 10010 31921 40211
AAXX 13064 71459 16/// /2004 11154 21174 39370 40206 58012 60001 333 11061 21154 70000
AAXX 13064 71460 16/// /2608 10043 20035 30029 40273 50000 60001 333 10051 20030 70000 555 32423 40071
AAXX 13064 71461 NIL
AAXX 13064 71462 NIL
AAXX 13064 71463 NIL
AAXX 13064 71464 NIL
AAXX 13064 71465 NIL
AAXX 13064 71466 NIL
AAXX 13064 71468 NIL
AAXX 13064 71470 NIL
AAXX 13064 71471 15966 02414 11007 21083 39310 40102 50006 60001 333 10018 21158 70000
AAXX 13064 71473 16/// /0406 10006 21036 30166 40196 56012 60001 333 10039 21002 70000 555 33519 40081
AAXX 13064 71475 NIL
AAXX 13064 71476 NIL
AAXX 13064 71477 17/// /1509 10038 20028 69941 7//4/ 333 10052 20017 70122 555 31734 40153
AAXX 13064 71478 NIL
AAXX 13064 71479 NIL
AAXX 13064 71480 NIL
AAXX 13064 71481 NIL
AAXX 13064 71482 NIL
AAXX 13064 71483 NIL
AAXX 13064 71484 NIL
AAXX 13064 71485 17/// /1223 10034 20016 30150 40171 56015 60021 7//4/ 333 10038 20025 70016 555 31231 40062
AAXX 13064 71486 16/// /1504 11066 21113 38963 40198 58008 60001 333 11066 21209 70000
AAXX 13064 71487 16/// /1809 11074 21082 39348 40239 55011 60001 333 11060 21086 70000 555 31617 40051
AAXX 13064 71489 16/// /2208 11063 21070 39385 40207 56010 60001 333 11063 21168 70000 555 31718 40041
AAXX 13064 71490 NIL
AAXX 13064 71491 16/// /3001 11130 21146 60001 333 10105 21223 70030
AAXX 13064 71492 NIL
AAXX 13064 71493 16/// /0000 10013 20008 30242 40281 56012 60001 333 10078 21048 70000 555 32720 40191
AAXX 13064 71494 16/// /2402 11066 21073 39750 40283 56006 60001 333 10015 21082 70000 555 32719 40161
AAXX 13064 71495 NIL
AAXX 13064 71496 16/// /1909 11076 21087 39588 40217 56022 60001 333 11072 21108 70000
AAXX 13064 71497 46/// /2613 10042 21103 39702 49963 53014 6///1 333 10046 21103 7//// 555 32435 40043
AAXX 13064 71498 NIL
AAXX 13064 71499 17456 82119 11071 21089 39439 40073 56025 60001 771// 333 11071 21122 70000
AAXX 13064 71700 15966 03504 11054 21059 30258 40284 58009 60001 333 10058 21072 70000
AAXX 13064 71701 12974 00000 11056 21068 30220 40283 58009 60001 333 10058 21062 70000 555 10000 20000
AAXX 13064 71702 16/// /2402 11032 21043 30264 40279 57009 60001 333 10048 21045 70000 555 32124 40091
AAXX 13064 71703 NIL
AAXX 13064 71704 15966 61703 11016 21032 30081 40307 50005 60001 333 10045 21052 70013
AAXX 13064 71710 16/// /2503 10005 21021 30271 40281 58006 60001 333 10021 21021 70010 555 32528 40142
AAXX 13064 71712 16/// /2303 11015 21044 30229 40291 57005 60001 333 10062 21027 70010 555 32120 40071
AAXX 13064 71713 NIL
AAXX 13064 71716 NIL
AAXX 13064 71717 NIL
AAXX 13064 71720 16/// /0801 11003 21010 30050 40206 58006 60001 333 10032 21044 70003
AAXX 13064 71721 NIL
AAXX 13064 71723 NIL
AAXX 13064 71724 NIL
AAXX 13064 71732 NIL
AAXX 13064 71733 17/// /2307 10018 20016 39826 40255 57005 60051 7//4/ 333 10033 21029 70051 555 32319 40181
AAXX 13064 71734 NIL
AAXX 13064 71736 NIL
AAXX 13064 71737 NIL
AAXX 13064 71741 16/// /1003 11056 21086 39795 40229 56008 60001 333 11025 21119 70000
AAXX 13064 71742 NIL
AAXX 13064 71743 NIL
AAXX 13064 71744 NIL
AAXX 13064 71745 NIL
AAXX 13064 71746 NIL
AAXX 13064 71747 NIL
AAXX 13064 71748 NIL
AAXX 13064 71001 NIL
AAXX 13064 71002 NIL
AAXX 13064 71003 NIL
AAXX 13064 71005 16/// ///// 11099 21113 60001 333 11038 21106 70000
AAXX 13064 71006 NIL
AAXX 13064 71007 NIL
AAXX 13064 71008 NIL
AAXX 13064 71009 NIL
AAXX 13064 71010 NIL
AAXX 13064 71011 NIL
AAXX 13064 71012 NIL
AAXX 13064 71013 NIL
AAXX 13064 71014 NIL
AAXX 13064 71015 NIL
AAXX 13064 71016 NIL
AAXX 13064 71017 NIL
AAXX 13064 71018 NIL
AAXX 13064 71019 NIL
AAXX 13064 71020 NIL
AAXX 13064 71021 NIL
AAXX 13064 71022 17666 81106 10020 20013 30088 40132 58008 60051 76144 333 10026 21001 70258 555 31423 40171
AAXX 13064 71023 16964 32114 11069 21094 39345 40126 58023 60001 333 11064 21104 70000 555 32225 40041
AAXX 13064 71024 16/// /2802 11069 21069 60001 333 11069 21181 70000 555 10010
AAXX 13064 71026 NIL
AAXX 13064 71027 16/// /2502 11011 21020 30276 40286 58012 60001 333 10037 21054 70008 555 32824 40171
AAXX 13064 71028 16/// /3502 11065 21090 39135 40198 56005 60001 333 11044 21168 70000
AAXX 13064 71029 16/// /0221 11275 21303 39895 49935 53038 60001 333 11183 21280 70000 555 30335 40043
AAXX 13064 71030 16/64 /2203 10048 20024 30181 40271 58012 60001 333 10088 20019 70006
AAXX 13064 71032 46/// /0000 11116 21132 39372 40229 58004 6///1 333 11021 21117 7////
AAXX 13064 71033 46/// /2214 11074 21092 39440 40076 56026 6///1 333 11074 21131 7//// 555 31927 40041
AAXX 13064 71035 NIL
AAXX 13064 71036 15466 81804 11105 21120 39895 40287 58020 60001 333 11094 21156 70000
AAXX 13064 71039 46/// /0000 11056 6///1 333 10011 21057 7////
AAXX 13064 71040 46/// /0504 11007 21021 30051 40253 56008 6///1 333 10020 21007 7//// 555 32524 40111
AAXX 13064 71041 17958 01301 11020 21023 30149 40294 56014 60001 710// 333 10051 21084 70000 555 32329 40142
AAXX 13064 71042 16/// /0000 11046 21051 30193 40197 56006 60001 333 10054 21090 70000
AAXX 13064 71044 17/// /0307 11144 21174 39715 40036 51039 69931 7//4/ 333 11075 21164 70009 555 10010 20009 30227 40141
AAXX 13064 71046 460// /0909 11210 30073 40091 51029 6///1 333 11135 21210 7//// 555 30619 40231
AAXX 13064 71047 16/// ///// 11091 21100 60001 333 11037 21107 70000
AAXX 13064 71048 NIL
AAXX 13064 71049 NIL
AAXX 13064 71060 NIL
AAXX 13064 71063 NIL
AAXX 13064 71250 NIL
AAXX 13064 71251 16/// /1305 11126 21146 39236 40196 56013 60001 333 11054 21142 70007
AAXX 13064 71252 NIL
AAXX 13064 71253 46/// /2104 11049 21052 6///1 333 11049 21189 7////
AAXX 13064 71254 16/// /2006 11088 21098 60001 333 11053 21104 70000 555 31618 40001
AAXX 13064 71255 16/// /2315 11026 21084 60001 333 11012 21115 70000 555 32222 40061
AAXX 13064 71256 46/// /2404 11073 21100 39170 40127 56010 6///1 333 11067 21166 7////
AAXX 13064 71257 NIL
AAXX 13064 71258 NIL
AAXX 13064 71259 NIL
AAXX 13064 71261 16/// /1704 10006 21014 30031 40297 51005 60001 333 10025 21032 70000 555 32117 40081
AAXX 13064 71263 12974 32306 11030 21043 30011 40307 52002 60001 80001 333 10054 21048 70000 555 10000 20000
AAXX 13064 71264 16/// /0000 10019 20015 30269 40301 58011 60001 333 10082 21057 70000 555 32426 40171
AAXX 13064 71265 15966 62511 10018 21023 30206 40302 50001 60001 333 10058 21007 70000
AAXX 13064 71266 NIL
AAXX 13064 71267 15966 02006 11104 21120 39063 40195 56008 60001 333 11045 21160 70006
AAXX 13064 71268 NIL
AAXX 13064 71269 NIL
AAXX 13064 71270 NIL
AAXX 13064 71271 16/// ///// 11054 21100 60001 333 11054 21093 70000
AAXX 13064 71272 15966 62216 11111 21138 39711 40070 56043 60001 333 11098 21246 70000
AAXX 13064 71273 16/// /2012 11068 21084 39490 40165 56011 60001 333 11062 21114 70000 555 32123 40051
AAXX 13064 71274 NIL
AAXX 13064 71275 NIL
AAXX 13064 71276 NIL
AAXX 13064 71277 NIL
AAXX 13064 71278 NIL
AAXX 13064 71279 16/// /0203 11097 21122 30230 40299 53009 60001 333 11076 21151 70012
AAXX 13064 71281 NIL
AAXX 13064 71282 46/// /2407 10019 20012 30021 40296 50002 6///1 333 10039 20008 7//// 555 32328 40072
AAXX 13064 71283 NIL
AAXX 13064 71284 16/// ///// 11070 21098 60001 333 11069 21120 70000
AAXX 13064 71285 NIL
AAXX 13064 71286 NIL
AAXX 13064 71287 NIL
AAXX 13064 71288 NIL
AAXX 13064 71289 NIL
AAXX 13064 71290 15966 11510 11050 21078 39309 40153 58004 60001 333 11043 21089 70000 555 31426 40231
AAXX 13064 71291 16/// /0207 11051 21070 30008 40307 50005 60001 333 11029 21075 70000
AAXX 13064 71292 16366 81807 11068 39641 40269 55007 60001 333 11068 21110 70000
AAXX 13064 71294 16/// /0000 11014 21014 39876 40285 56003 60001 333 10041 70000
AAXX 13064 71295 NIL
AAXX 13064 71296 NIL
AAXX 13064 71297 16/// /2702 11011 21023 60001 333 10071 21023 70000
AAXX 13064 71298 16/// /2402 11024 21031 30073 40311 51005 60001 333 10035 21032 70000
AAXX 13064 71299 NIL
AAXX 13064 71102 NIL
AAXX 13064 71105 NIL
AAXX 13064 71107 NIL
AAXX 13064 71110 NIL
AAXX 13064 71111 16766 82608 10040 20034 30115 40123 58009 60001 333 10052 20011 70013 555 31517 40121
AAXX 13064 71112 16/// ///// 60001 333 70000
AAXX 13064 71113 16/// /0604 10005 21052 30175 40199 58011 60001 333 10051 20000 70000 555 30323 40171
AAXX 13064 71115 16/// /1008 11067 21090 39633 40230 56008 60001 333 11001 21077 70000
AAXX 13064 71116 17/// /1208 11059 21062 39086 40204 56012 60011 7//4/ 333 11024 21059 70012 555 10050 20012
AAXX 13064 71118 16/// /1910 11090 21101 39325 40168 58012 60001 333 11043 21107 70000 555 31919 40221
AAXX 13064 71121 16664 82109 11061 21134 39299 40136 58006 60001 333 11051 21103 70000
AAXX 13064 71127 16/// /2007 11073 21104 39205 40146 56010 60001 333 11072 21140 70000
AAXX 13064 71130 15362 81913 11068 21082 39756 40228 56020 60001 333 11068 21126 70000
AAXX 13064 71132 17566 62013 11037 21053 39672 49983 56031 69931 7714/ 333 11036 21097 70003
AAXX 13064 71133 46/// /1910 11072 21088 39459 40185 58019 6///1 333 11072 21176 7//// 555 31917 40061
AAXX 13064 71139 NIL
AAXX 13064 71141 NIL
AAXX 13064 71142 17324 81919 11067 21070 39222 40215 58010 60001 771// 333 11062 21086 70000
AAXX 13064 71143 NIL
AAXX 13064 71144 NIL
AAXX 13064 71147 NIL
AAXX 13064 71149 NIL
AAXX 13064 71864 NIL
AAXX 13064 71865 16/// /2011 11064 21076 39542 40241 58012 60001 333 11063 21112 70000 555 32017 40061
AAXX 13064 71866 46364 61810 11077 21099 39592 40224 56021 6///1 333 11071 21109 7////
AAXX 13064 71867 11469 81810 11097 21106 39883 40230 57028 69901 70277 886// 333 11097 21198 47017 79999 90953 555 10004 29999
AAXX 13064 71868 NIL
AAXX 13064 71869 11274 82010 11074 21081 39680 40221 57019 69901 70277 886// 333 11073 21138 47007 70002 90943 555 10042 20002
AAXX 13064 71871 15266 82113 11075 21083 39351 40178 55012 60001 333 11067 21120 70000
AAXX 13064 71877 12974 12004 11142 21149 38869 40180 57010 60001 80001 333 11062 21154 70004 555 10004 20004
AAXX 13064 71878 12974 61605 11143 21157 39071 40178 55004 60001 82072 333 11066 21166 79999 555 19999 29999 31820 40210
AAXX 13064 71879 16664 81807 11057 21109 39320 40138 58007 60001 333 11042 21098 70000 555 32019 40021
AAXX 13064 71880 12482 80000 11095 21103 39108 40248 57003 60001 886// 333 11036 21120 70002 555 10002 20002
AAXX 13064 71882 16961 00000 11068 21088 39697 40252 57008 60001 333 11007 21090 70005
AAXX 13064 71883 46/// /0000 11120 21129 39402 56008 6///1 333 7////
AAXX 13064 71887 12986 61003 11055 21083 39798 40232 56008 60001 82074 333 11016 21119 70000 555 10000 20000
AAXX 13064 71889 12774 23506 11069 21100 39810 40239 56004 60001 82501 333 10023 21075 70000 555 10000 20000
AAXX 13064 71891 16964 00000 11061 21079 39944 40227 56008 60001 333 11005 21068 70000
AAXX 13064 71892 12983 70904 10001 21022 30197 40202 56008 60001 86075 333 10056 21050 70000 555 10000 20000
AAXX 13064 71043 NIL
AAXX 13064 71045 16/// /0000 11045 21096 39190 40048 51010 60001 333 10002 21052 70000 555 10030 32323 40001
AAXX 13064 71050 46/// /0000 11086 21107 39090 40200 55004 6///1 333 11080 21205 7////
AAXX 13064 71051 NIL
AAXX 13064 71052 NIL
AAXX 13064 71066 12974 71505 11083 21104 39587 40010 53001 60001 83041 333 11079 21140 70000 555 10000 20000
AAXX 13064 71068 12974 82102 11024 21085 39383 40081 53013 60001 80001 333 10004 21153 70000 555 10000 20000 32017 40210
AAXX 13064 71069 16964 01104 11093 21101 39389 40107 50001 60001 333 11080 21167 70000
AAXX 13064 71076 17/// /0108 11033 21048 39581 49971 56016 60021 7//4/ 333 11032 21091 70021 555 10020 20021 31121 40031
AAXX 13064 71077 16/// /1908 11047 21076 39571 40117 56020 60001 333 11047 21092 70000 555 31619 40191
AAXX 13064 71079 11466 82211 11142 21165 39931 40222 56020 69901 77111 885// 333 11108 21271 48003 79999 90921 555 19999 29999 32019 40050
AAXX 13064 71081 46964 02307 11313 21356 30066 40079 58001 6///1 333 11212 21315 7////
AAXX 13064 71082 NIL
AAXX 13064 71083 11769 61815 11137 21146 39957 40000 57043 69921 77677 86500 333 11119 21315 48053 70008 90983 555 10008 20008
AAXX 13064 71090 46564 83208 11181 21221 30037 40072 52012 6///1 333 11164 21239 7////
AAXX 13064 71091 460// /0708 11245 39894 40110 53007 6///1 333 7//// 555 33023 40151
AAXX 13064 71092 46064 03011 11278 39418 40111 52016 6///1 333 11235 21285 7//// 555 32917 40181
AAXX 13064 71093 460// /2626 11229 39554 40063 51011 6///1 333 11165 21230 7//// 555 32538 40023
AAXX 13064 71094 46064 /2909 11173 39105 40012 51009 6///1 333 11145 21193 7//// 555 33539 40173
AAXX 13064 71095 46661 62105 11268 21308 30009 40092 53011 6///1 333 11193 21292 7////
AAXX 13064 71101 160// /2706 30115 58007 60001 333 70000
AAXX 13064 71104 12974 81503 11058 21098 39063 40199 55004 60001 86071 333 11042 21139 70000 555 10000 20000
AAXX 13064 71108 12966 60203 11022 21052 30129 40203 55008 60001 81031 333 10055 21026 70000 555 10000 20000
AAXX 13064 71109 11474 81210 10031 20014 30153 40180 58015 60021 76166 885// 333 10035 20008 70026 90973 555 10000 20000
AAXX 13064 71604 16/// /2903 11027 21029 60001 333 11005 21067 70006 555 32840 40153
AAXX 13064 71605 16/// /3503 10011 21037 30044 40195 56008 60001 333 10058 21009 70000
AAXX 13064 71611 NIL
AAXX 13064 71612 16/// /2603 10013 21029 30201 40293 58004 60001 333 10055 21010 70010
AAXX 13064 71614 NIL
AAXX 13064 71616 16/// /2003 11037 21049 30170 40293 56007 60001 333 10036 21073 70000
AAXX 13064 71617 16/// /1402 11003 21011 30095 40265 56008 60001 333 10018 21039 70010 555 32422 40151
AAXX 13064 71618 15966 02323 11132 21157 30062 40101 58034 60001 333 11104 21265 70000
AAXX 13064 71619 NIL
AAXX 13064 71622 NIL
AAXX 13064 71632 46/// /2116 11123 21141 39686 40136 56039 6///1 333 11109 21148 7//// 555 10010 32123 40061
AAXX 13064 71634 16/// /0000 11026 21029 30125 40282 58008 60001 333 10015 21064 70000
AAXX 13064 71638 16/// /3202 11011 21036 30088 40195 55006 60001 333 10045 21041 70000
AAXX 13064 71639 12974 20000 11032 21065 30052 40299 50000 60001 82030 333 10067 21032 70000 555 10000 20000
AAXX 13064 71642 NIL
AAXX 13064 71401 16/// /2902 11068 21096 39534 40236 55002 60001 333 11002 21077 70007
AAXX 13064 71402 NIL
AAXX 13064 71404 NIL
AAXX 13064 71405 NIL
AAXX 13064 71406 NIL
AAXX 13064 71407 NIL
AAXX 13064 71408 NIL
AAXX 13064 71409 NIL
AAXX 13064 71410 15466 82009 11146 21161 39976 40269 56024 60001 333 11122 21270 70000
AAXX 13064 71413 NIL
AAXX 13064 71414 NIL
AAXX 13064 71415 16/// /2206 10004 21004 30283 40286 56012 60001 333 10062 21053 70000 555 32221 40111
AAXX 13064 71417 NIL
AAXX 13064 71418 NIL
AAXX 13064 71419 46/// /2304 10016 20011 30287 40297 55012 6///1 333 10061 21049 7//// 555 32332 40182
AAXX 13064 71423 NIL
AAXX 13064 71424 NIL
AAXX 13064 71425 NIL
AAXX 13064 71426 NIL
AAXX 13064 71427 17/// /0620 11021 21056 30273 40281 50000 60021 7//4/ 333 10011 21039 70030 555 30623 40061
AAXX 13064 71428 16/// /0612 11017 21041 30269 40275 58004 60001 333 10010 21047 70000 555 30617 40051
AAXX 13064 71429 16/// /0513 10006 21014 30248 40268 58005 60001 333 10007 21078 70000
AAXX 13064 71434 NIL
AAXX 13064 71436 17959 11803 11052 21057 30057 40297 50001 60001 710// 333 10068 21054 70000
AAXX 13064 71437 46/// /2405 10018 21026 30203 40300 50001 6///1 333 10065 20006 7////
AAXX 13064 71438 NIL
AAXX 13064 71439 NIL
AAXX 13064 71440 NIL
AAXX 13064 71442 16/// /1804 11169 21185 39984 40315 56014 60001 333 11108 21199 70000
AAXX 13064 71445 NIL
AAXX 13064 71446 17/// /2017 11070 21081 39207 40211 58008 69971 7//4/ 333 11061 21096 70011 555 31922 40041
AAXX 13064 71448 NIL
AAXX 13064 71449 16/// /1004 11080 21089 39892 40310 53005 60001 333 11064 21122 70000
AAXX 13064 71300 NIL
AAXX 13064 71301 16/// ///// 11008 21008 39862 40267 50003 60001 333 10005 21071 70000
AAXX 13064 71302 16/// /1912 11029 21063 39340 40170 56003 60001 333 11026 21138 70000 555 31925 40211
AAXX 13064 71303 46/// ///// 11038 21046 6///1 333 10042 21040 7////
AAXX 13064 71305 15966 82409 11007 21061 39693 49989 56002 60001 333 11006 21122 70003
AAXX 13064 71306 17424 82618 11090 21115 30176 40209 57003 60001 771// 333 11087 21135 70000 555 32723 40061
AAXX 13064 71307 16/// /2303 11026 21051 30056 40312 50002 60001 333 10053 21054 70003
AAXX 13064 71308 16/// /1903 10003 21003 30212 40298 56010 60001 333 10049 21068 70000 555 32126 40141
AAXX 13064 71309 NIL
AAXX 13064 71310 16/// /1903 11023 21046 30252 40290 56010 60001 333 10045 21059 70000 555 32323 40151
AAXX 13064 71311 NIL
AAXX 13064 71312 16/// /2113 11070 21086 39752 40223 57020 60001 333 11070 21132 70000 555 32122 40051
AAXX 13064 71314 NIL
AAXX 13064 71315 16/// /2401 11026 21036 30222 40277 58006 60001 333 11015 21103 70000
AAXX 13064 71316 16/// /1908 11062 21093 39424 40118 58014 60001 333 11035 21107 70000 555 31717 40041
AAXX 13064 71317 NIL
AAXX 13064 71318 16/// /2011 11091 21102 39210 40177 56013 60001 333 11051 21105 70000 555 31821 40001
AAXX 13064 71319 16/// /2202 11038 21039 39380 40259 57008 60001 333 11022 21058 70007 555 32418 40071
AAXX 13064 71320 NIL
AAXX 13064 71321 NIL
AAXX 13064 71322 NIL
AAXX 13064 71323 16/// /1702 11071 21079 39994 40282 56005 60001 333 10033 21113 70010
AAXX 13064 71331 16/// /2206 11097 21117 60001 333 11097 21170 70000
AAXX 13064 71332 NIL
AAXX 13064 71334 NIL
AAXX 13064 71335 46964 02829 11135 51019 6///1 333 11117 21150 7//// 555 32750 40083
AAXX 13064 71336 46/// ///13 11013 21058 30242 40265 53020 6///1 333 10017 21052 7////
AAXX 13064 71337 46/// /2903 11087 21105 30023 40268 53009 6///1 333 11044 21125 7//// 555 32722 40071
AAXX 13064 71338 46964 01403 11204 21226 30070 40077 52007 6///1 333 11096 21244 7//// 555 33229 40072
AAXX 13064 71339 16964 02909 11157 21226 30230 40245 53009 60001 333 11110 21182 70005 555 32728 40112
AAXX 13064 71340 NIL
AAXX 13064 71341 NIL
AAXX 13064 71342 NIL
AAXX 13064 71343 NIL
AAXX 13064 71344 NIL
AAXX 13064 71345 NIL
AAXX 13064 71346 NIL
AAXX 13064 71347 NIL
AAXX 13064 71348 NIL
AAXX 13064 71349 NIL
AAXX 13064 71950 17420 82701 11050 21054 39504 40145 58002 69931 771// 333 11040 21072 70003
AAXX 13064 71952 16/// /0000 11081 21088 39280 40146 58004 60001 333 11049 21110 70000
AAXX 13064 71954 NIL
AAXX 13064 71956 NIL
AAXX 13064 71959 NIL
AAXX 13064 71960 460// /0115 11254 39922 40058 51039 6///1 333 11158 21254 7//// 555 30435 40193
AAXX 13064 71962 16/// /0803 11100 21108 39876 40314 53007 60001 333 11036 21104 70000 555 10010
AAXX 13064 71963 NIL
AAXX 13064 71967 16/// /1402 11052 21059 30193 40301 57006 60001 333 10034 21058 7////
AAXX 13064 71970 NIL
AAXX 13064 71971 NIL
AAXX 13064 71972 460// /2827 11133 39660 40133 51013 6///1 333 11118 21138 7////
AAXX 13064 71973 46/// /0000 11027 21035 30087 40279 51002 6///1 333 11012 21080 7//// 555 32619 40071
AAXX 13064 71974 NIL
AAXX 13064 71975 460// /2821 11198 39315 40057 51009 6///1 333 11160 21198 7//// 555 32835 40013
AAXX 13064 71976 NIL
AAXX 13064 71977 NIL
AAXX 13064 71978 NIL
AAXX 13064 71979 NIL
AAXX 13064 71980 NIL
AAXX 13064 71981 NIL
AAXX 13064 71982 NIL
AAXX 13064 71983 NIL
AAXX 13064 71984 16/// /0306 11244 21268 39995 40003 52045 60001 333 11094 21245 70000 555 31933 40062
AAXX 13064 71985 NIL
AAXX 13064 71986 NIL
AAXX 13064 71987 16/// /3004 10015 21005 30264 40274 57009 60001 333 10030 21015 70000 555 32336 40113
AAXX 13064 71988 NIL
AAXX 13064 71989 NIL
AAXX 13064 71990 NIL
AAXX 13064 71999 46/// ///// 11049 6///1 333 11008 21084 7////
AAXX 13064 71114 16964 01009 11022 21068 30164 40213 56008 60001 333 10020 21024 70005 555 31221 40181
AAXX 13064 71120 12974 82009 11071 21104 39482 40152 56018 60001 86071 333 11054 21093 79999 555 19999 29999
AAXX 13064 71122 16/// /2404 11126 21154 38570 40223 56007 60001 333 11077 21201 70000
AAXX 13064 71123 12574 81708 11073 21103 39265 40150 56006 60001 82570 333 11058 21126 79999 555 19999 29999
AAXX 13064 71125 NIL
AAXX 13064 71129 12474 81606 11092 21104 39348 40202 58013 60001 8757/ 333 11065 21104 70000 555 10000 20000
AAXX 13064 71131 16/// /1908 11079 21084 38916 40199 56013 60001 333 11061 21081 70000
AAXX 13064 71135 16/// /1913 11087 21104 39113 40228 57026 60001 333 11056 21090 70000 555 31818 40061
AAXX 13064 71137 NIL
AAXX 13064 71140 12474 81506 11102 21119 39787 40311 55003 60001 885// 333 11060 21118 79999 555 19999 29999
AAXX 13064 71145 12974 01804 11181 21207 39986 40297 55009 60001 333 11147 21231 70000 555 10000 20000
AAXX 13064 71148 16/// /1505 11110 21129 39707 40313 58001 60001 333 11073 21129 70000 555 30020 40091
AAXX 13064 71182 17964 02904 11263 21311 39727 40303 50003 60001 745// 333 11163 21287 70000
AAXX 13064 71185 16564 63106 11058 30253 40278 51007 60001 333 11048 21099 70005 555 32728 40072
AAXX 13064 71188 12574 80000 11029 21039 30239 40282 57002 60001 885// 333 11014 21142 70000 555 10000 20000
AAXX 13064 71200 16/// /0303 10010 21033 60001 333 10052 21002 70000
AAXX 13064 71207 16/// /0101 11032 21052 30135 40201 57007 60001 333 10025 21056 70000
AAXX 13064 71260 13/// ///// 10014 20012 30033 40273 52007 60021 333 10046 20008 70054 555 10000 20000
AAXX 13064 71350 16/// /2303 11016 21039 30217 40284 56012 60001 333 10046 21035 70000 555 32322 40171
AAXX 13064 71351 NIL
AAXX 13064 71352 16/// /3102 11042 21049 39834 40300 50000 60001 333 10021 21069 70000
AAXX 13064 71353 NIL
AAXX 13064 71354 NIL
AAXX 13064 71355 16/// /2701 11354 21391 39962 40051 53008 60001 333 11320 21375 70000
AAXX 13064 71356 NIL
AAXX 13064 71357 NIL
AAXX 13064 71358 16/// /3308 11180 21208 30035 40070 51012 60001 333 11163 21238 70000
AAXX 13064 71359 NIL
AAXX 13064 71360 NIL
AAXX 13064 71361 NIL
AAXX 13064 71362 NIL
AAXX 13064 71363 NIL
AAXX 13064 71364 NIL
AAXX 13064 71365 NIL
AAXX 13064 71368 15962 32901 11030 21048 39903 40302 50001 60001 333 10043 21057 70000
AAXX 13064 71369 15966 61104 11094 21109 39390 40109 51001 60001 333 11076 21161 70000
AAXX 13064 71370 46/// /1604 11004 21025 30133 40272 58008 6///1 333 10017 21067 7////
AAXX 13064 71371 15966 01907 11024 21046 30255 40290 58005 60001 333 10053 21029 70000
AAXX 13064 71372 NIL
AAXX 13064 71373 NIL
AAXX 13064 71374 NIL
AAXX 13064 71375 NIL
AAXX 13064 71376 16/// /0000 11026 21028 39988 40286 56006 60001 333 10036 21076 70000
AAXX 13064 71377 16/// /2505 11001 21028 30239 40288 57003 60001 333 10049 21029 70000 555 32317 40171
AAXX 13064 71378 16/// /1503 10003 21027 30058 40270 58006 60001 333 10018 21017 70000
AAXX 13064 71379 17/// /3302 11004 21006 30065 40238 56005 69931 7//4/ 333 10015 21025 70003
AAXX 13064 71380 NIL
AAXX 13064 71381 NIL
AAXX 13064 71382 16/// /2003 11039 21042 39305 40255 56007 60001 333 11027 21055 70000
AAXX 13064 71383 NIL
AAXX 13064 71384 16/// /2603 10001 21021 30269 40277 58010 60001 333 10018 21015 70000 555 32419 40081
AAXX 13064 71385 NIL
AAXX 13064 71386 16/// /1601 11006 21024 30051 40260 58007 60001 333 10011 21072 70010
AAXX 13064 71387 NIL
AAXX 13064 71388 46/// /0601 11009 21012 30068 40260 57008 6///1 333 11009 21045 7////
AAXX 13064 71389 46/// /3601 11026 21031 6///1 333 10057 21090 7////
AAXX 13064 71390 NIL
AAXX 13064 71391 16/// ///// 11015 21026 60001 333 10014 21057 70000
AAXX 13064 71392 NIL
AAXX 13064 71393 NIL
AAXX 13064 71395 12474 82008 10020 20016 30117 40298 55009 60001 885// 333 10066 21079 70000 555 10000 20000 32425 40161
AAXX 13064 71398 15966 03105 11134 21148 30311 40323 53010 60001 333 11061 21134 70000
AAXX 13064 71399 NIL
AAXX 13064 71812 46928 32025 11114 21124 30000 40014 56047 6///1 333 7////
AAXX 13064 71819 15966 03004 11137 21162 30226 40269 53016 60001 333 11117 21170 70000
AAXX 13064 71820 16/// /2405 10020 20007 30175 40291 58005 60001 333 10059 20006 70000 555 32221 40071
AAXX 13064 71823 16764 60000 11209 21236 39895 40298 55004 60001 333 11165 21275 70000
AAXX 13064 71824 46/// /3602 11039 21044 6///1 333 11014 21039 7////
AAXX 13064 71826 16/// /1703 11197 21242 30056 40100 52011 60001 333 11130 21206 70000
AAXX 13064 71829 16/// /0710 11034 21041 30104 40269 58001 60001 333 10003 21073 70004
AAXX 13064 71833 NIL
AAXX 13064 71835 16/// /2103 11170 21186 39817 40321 58004 60001 333 11092 21186 70000
AAXX 13064 71837 NIL
AAXX 13064 71839 NIL
AAXX 13064 71840 46/// /1801 11121 21132 6///1 333 11073 21157 7//// 555 33519 40091
AAXX 13064 71846 16/// /2303 11247 21268 39996 40331 50002 60001 333 11098 21248 70000
AAXX 13064 71847 NIL
AAXX 13064 71848 NIL
AAXX 13064 71849 NIL
AAXX 13064 71550 NIL
AAXX 13064 71551 NIL
AAXX 13064 71552 NIL
AAXX 13064 71553 16/// /1910 11093 21102 60001 333 11080 21168 70000
AAXX 13064 71554 16/// /1803 10008 21019 30260 40266 58004 60001 333 10014 21023 70010 555 31820 40071
AAXX 13064 71555 NIL
AAXX 13064 71556 16/// /1815 11054 21064 39618 40239 58011 60001 333 11054 21103 70000 555 31819 40061
AAXX 13064 71557 46/// /0902 11103 21118 6///1 333 11022 21150 7////
AAXX 13064 71558 46/// ///// 11150 21173 30223 40261 53016 6///1 333 11113 21166 7////
AAXX 13064 71559 46/// /1710 11064 21071 39550 40272 56012 6///1 333 11054 21072 7////
AAXX 13064 71560 16/// /3104 11102 21110 30000 40321 51005 60001 333 11067 21111 70000 555 33519 40151
AAXX 13064 71563 NIL
AAXX 13064 71564 16/// /2401 11149 21166 39933 40325 51001 60001 333 11070 21149 70000 555 33417 40091
AAXX 13064 71565 NIL
AAXX 13064 71566 NIL
AAXX 13064 71567 NIL
AAXX 13064 71568 16/// /1606 10023 21010 30188 40201 57007 60001 333 10033 21002 70000
AAXX 13064 71569 16/// /1614 11060 21070 39514 40233 58011 60001 333 11056 21081 70000 555 31721 40061
AAXX 13064 71570 16/// /1502 11118 21134 39987 40313 56009 60001 333 11060 21149 70000
AAXX 13064 71571 NIL
AAXX 13064 71572 NIL
AAXX 13064 71573 16/// /3201 11050 21059 30010 40299 55000 60001 333 7////
AAXX 13064 71574 12774 70000 11019 21024 30202 40277 58007 60001 86570 333 10023 21052 79999 555 19999 29999
AAXX 13064 71575 16/// /2910 11155 21171 30056 40122 55000 60001 333 11142 21182 70015
AAXX 13064 71576 16/// /2006 11270 21299 30004 40092 53010 60001 333 11192 21292 70000
AAXX 13064 71577 46/// /2503 11148 21162 6///1 333 11075 21150 7//// 555 33517 40081
AAXX 13064 71578 16/// /2602 11012 21035 60001 333 10011 21022 70000 555 32520 40131
AAXX 13064 71579 NIL
AAXX 13064 71580 11024 71317 11206 21237 39912 49949 58035 69901 77172 87700 333 11204 21310 45030 79999 90929 555 19999 29999 31321 40051
AAXX 13064 71581 NIL
AAXX 13064 71582 17556 81406 10023 20020 30107 40160 57018 60031 7614/ 333 10023 21025 70041
AAXX 13064 71583 NIL
AAXX 13064 71584 15966 10208 11130 21145 30250 40300 51009 60001 333 11070 21151 70000
AAXX 13064 71585 NIL
AAXX 13064 71586 16/// /2009 11094 21110 39693 40170 56025 60001 333 11093 21127 70000
AAXX 13064 71587 NIL
AAXX 13064 71588 16/// /0303 11044 21058 60001 333 11020 21096 70000
AAXX 13064 71589 16/// /3005 11048 21076 30142 40278 51012 60001 333 11010 21090 70000 555 32622 40071
AAXX 13064 71590 16/// /0000 11080 21088 30077 40273 58009 60001 333 10044 21083 7////
AAXX 13064 71592 NIL
AAXX 13064 71593 NIL
AAXX 13064 71596 NIL
AAXX 13064 71598 16/64 /2001 11001 21023 30272 40278 56006 60001 333 10014 21045 70000 555 31920 40071
AAXX 13064 71599 NIL
AAXX 13064 71051 NIL
AAXX 13064 71055 NIL
AAXX 13064 71057 NIL
AAXX 13064 71059 460// ///// 11237 39864 49956 53046 6///1 333 11095 21238 7////
AAXX 13064 71061 16/// /1805 11049 21084 39317 40114 56011 60001 333 11045 21169 70000
AAXX 13064 71062 46/// /2107 11061 21107 39028 40118 56007 6///1 333 11058 21131 7////
AAXX 13064 71064 460// /3520 11176 39588 49802 55002 6///1 333 11159 21301 7//// 555 30422 40061
AAXX 13064 71065 NIL
AAXX 13064 71067 NIL
AAXX 13064 71070 NIL
AAXX 13064 71073 NIL
AAXX 13064 71074 NIL
AAXX 13064 71075 16/// /2018 11091 21114 39432 40042 56034 60001 333 11089 21140 70000 555 10010 31931 40052
AAXX 13064 71078 17456 82014 11122 21139 39685 40139 56038 60001 771// 333 11107 21146 70000
AAXX 13064 71084 460// ///// 11150 39765 49812 56053 6///1 333 11150 21298 7////
AAXX 13064 71085 15966 02718 11056 21114 38764 40181 55003 60001 333 11053 21146 70008
AAXX 13064 71087 NIL
AAXX 13064 71088 460// /1514 11227 58001 6///1 333 11172 21276 7//// 555 33019 40081
AAXX 13064 71089 NIL
AAXX 13064 71096 460// ///// 11214 39318 40068 51006 6///1 333 11161 21219 7////
AAXX 13064 71097 47964 03414 11177 39620 40105 53011 6///1 741// 333 11147 21177 7//// 555 30124 40201
AAXX 13064 71098 43/// /1903 11198 21229 39930 40311 56008 6///1 333 11136 21233 7////
AAXX 13064 71099 43/// /2209 11177 21217 30237 40258 56010 6///1 333 11147 21189 7//// 555 32319 40041
AAXX 13064 68328 32960 42909 10268 20143 48474 52008 84080 333 20187
AAXX 13064 60020 11560 60000 10181 20134 30211 40256 56005 60004 702// 865// 333 20177 55090 924/7
AAXX 13064 60030 02560 23612 10176 20127 30185 40241 56008 60004 82500 333 017// 20175 55059 60007 924/6
AAXX 13064 60040 02580 20108 10162 20118 30230 40255 55003 60004 82800 333 014// 20155 55046 60007 924//
AAXX 13064 60338 12980 02406 10142 20095 30190 40256 57008 60004 333 20130 55082 92418
AAXX 13061 02019 05/83 /1404 11092 21116 39248 49872 56018 60002 333 11055 21097 60005 70000 90710 91107
AAXX 13061 02081 07/20 /0901 11105 21114 39510 49919 56033 60032 77177 333 11105 21188 69955 70031 90710 91105
AAXX 13061 02095 07335 /1203 11038 21043 39708 49912 56025 60042 77177 333 11038 21176 69935 70040 88/08 90710 91106
AAXX 13061 02101 45584 /1303 11079 21100 39316 49877 57004 8//// 333 11054 21079 85/24
AAXX 13061 02119 07519 /1400 11114 21124 39507 49898 56013 60062 77177 333 11114 21147 69945 70060 88/30 90710 91101
AAXX 13061 02124 07522 /0401 11084 21094 39355 49882 57010 60072 77177 333 11081 21105 69925 70076 89/22 90710 91103
AAXX 13061 02126 07550 /3002 11081 21089 39539 49879 56008 60032 77177 333 11079 21120 69935 70076 88/32 90710 91103
AAXX 13061 02151 07928 00000 11093 21096 39552 49891 56013 60072 77177 333 11093 21157 69945 70069 91000 90710 91100 90710 91200
AAXX 13061 02186 01358 81707 10016 20012 39875 49900 56013 60092 76166 887// 333 10021 21101 43028 69955 70090 88706 91011 90710 91112 90710 91208
AAXX 13061 02197 07/50 /1605 10006 20006 39905 49924 57016 60052 76776 333 10006 21060 69935 70052 90710 91113
AAXX 13061 02207 05/99 /2106 11024 21058 39155 49845 58004 60002 333 10010 21026 60005 70003 90710 91113
AAXX 13061 02219 07/76 /0301 11087 21091 39196 49865 57005 60022 70087 333 11041 21109 60005 70037 90710 91103
AAXX 13061 02226 45984 /1805 11015 21040 39412 49862 55003 8//// 333 10006 21018
AAXX 13061 02243 07/60 /1601 11012 21015 39604 49870 56005 60042 70087 333 10002 21034 60005 70098 90710 91104
AAXX 13061 02269 07463 /2209 10033 20025 60022 72386 333 10037 20028 69905 70037 87/11 90710 91111
AAXX 13061 02287 07250 /1705 10012 20007 39889 49899 57013 60062 76186 333 10032 20010 69985 70109 88/04 90710 91109
AAXX 13061 02297 07256 /1709 10015 20015 39855 49899 57012 60072 75265 333 10022 20000 69955 70097 87/06 90710 91116
AAXX 13061 02308 05/99 /2400 11052 21061 39022 49879 55002 69922 333 11013 21062 60005 70032 90710 91105
AAXX 13061 02327 05/99 /2303 11007 21016 39459 49890 54001 60002 333 10005 21057 60005 70031 90710 91107
AAXX 13061 02355 07581 /1803 10015 20008 39895 49908 55000 60032 70086 333 10018 20006 60005 70063 85/22 90710 91106
AAXX 13061 02366 47920 /1801 11010 21013 39887 49893 55004 710// 8//// 333 10010 21012
AAXX 13061 02407 05499 /2003 10013 20002 39546 49911 54000 60012 333 10014 20004 60005 70039 88/11 90710 91107
AAXX 13061 02418 45473 /1804 10034 20022 39798 49929 57009 8//// 333 10034 20008 88/11
AAXX 13061 02435 45483 /2306 10023 21007 39740 49926 50001 8//// 333 10027 20008 83/18
AAXX 13061 02440 07599 /2503 10013 20003 69962 70070 333 10016 20003 60005 70022 85/20 90710 91107
AAXX 13061 02452 07368 /2304 10023 20019 60022 70086 333 10026 21001 60005 70039 87/09 90710 91111
AAXX 13061 02456 07471 /2104 10027 20020 39900 49942 53002 69922 70086 333 10028 20012 60005 70010 87/11 88/14 90710 91107
AAXX 13061 02469 07/80 /2103 10020 20011 60022 70065 333 10034 20016 60005 70032 90710 91106
AAXX 13061 02498 07478 /2310 10039 20027 39952 49969 53010 60012 70086 333 10050 20033 60005 70018 88/10 90710 91114
AAXX 13061 02518 464// /1715 10060 20043 333 10064 20056 85/14 90710 91119
AAXX 13061 02520 12475 51605 10040 20020 39867 49934 58021 69972 84570 333 10043 20025 32/// 60005 70007 84615 84365 91007 90710 91108 90710 91207
AAXX 13061 02550 45476 /1907 10031 20014 39692 49966 57012 8//// 333 10034 20017 81/14 83/18 88/21
AAXX 13061 02562 12583 31904 10020 20013 39854 49969 57002 69922 82500 333 10030 20011 32/// 60005 70003 82631 91006 90710 91106 90710 91204
AAXX 13061 02563 05/77 /2107 10030 20024 39960 49982 53005 69942 333 10035 20026 60005 70004 90710 91110
AAXX 13061 02565 05564 /1903 10041 20018 39874 49993 57003 69922 333 10042 20022 60005 70002 88/23 90710 91107
AAXX 13061 02589 07471 /2309 10043 20031 39970 49990 52011 60032 70060 333 10046 20036 60005 70028 81/13 90710 91114
AAXX 13061 02590 45477 /2107 10033 20022 39946 40008 51007 8//// 333 10048 20032 81/15
AAXX 13061 02618 07/60 /1503 10029 20026 39800 49964 58027 60022 70086 333 10044 20028 60005 70048 90710 91108
AAXX 13061 02664 12470 72003 10038 20021 39943 40015 58010 60022 875// 333 10049 20033 31/// 60005 70029 86616 91005 90710 91107 90710 91205
AAXX 13061 02679 07582 /2308 10044 20027 39979 40024 50007 60032 70060 333 10052 20039 60005 70033 87/22 90710 91113
AAXX 13061 48852 01598 73201 10193 20154 30166 40176 57026 69923 70262 878// 333 59014 69901 82895 87697
AAXX 13061 01037 16/// /1606 11048 21098 39895 49901 56023 60002 333 21049 70009 91115
AAXX 13061 01065 11620 80301 11096 21105 39797 49964 57030 60012 78584 888// 333 21166 70017 91102
AAXX 13061 01114 16/// /0704 10000 21032 39813 49823 58008 60002 333 21065 70000 91105
AAXX 13061 01364 16/// /1110 11075 21086 38745 49870 50020 60002 333 21108 4/035 70012 91114
AAXX 13061 01389 11810 81502 11007 21015 39594 49903 57004 69932 71022 8802/ 333 21019 47027 70081 91106
AAXX 13061 01033 46/// /1204 11001 21070 39838 49869 57023 333 21006 91110
AAXX 13061 01311 46/// /1408 1//// 2//// 39689 58067 333 91116
AAXX 13061 01406 46/// /1412 10051 20021 39720 49738 58072 333 20049 91119
AAXX 13061 01442 11450 81608 10041 20016 39576 49827 58060 60042 76362 887// 333 20014 70111 91118
AAXX 13061 01122 16/// /1702 11024 21058 39757 49846 56006 60012 333 21040 70014 91105
AAXX 13061 01378 16/// /1403 10002 21019 39592 49881 58014 69942 333 21013 70068 91105
AAXX 13061 01422 16/// /0803 10064 20013 69982 333 20045 70048 91112
AAXX 13061 01135 16/// /1202 11033 21055 39697 49849 55007 69952 333 21038 4/003 70005 91104
AAXX 13061 01192 16/// /1005 11045 21101 60002 333 21046 4/009 70000 91115
AAXX 13061 01253 16/// /2102 11016 21057 60002 333 21035 4/032 70003 91106
AAXX 13061 01257 11460 61803 10026 21063 39673 49831 57008 60002 70322 83432 333 21016 70000 91109
AAXX 13061 01455 16/// /1403 10027 20017 39543 49847 58050 69992 333 21011 70085 91107
AAXX 13061 01481 16/// /1805 10056 20036 39853 49884 58029 60012 333 20003 70050 91110
AAXX 13061 02464 45480 /1903 10027 20016 39946 49964 51005 8//// 333 10034 20025 81/16 87/28
AAXX 13061 02500 07460 /1714 10058 20036 39852 49893 58029 60012 70086 333 10067 20048 60005 70050 81/11 83/13 85/18 90710 91119
AAXX 13061 02513 NIL
AAXX 13061 02615 07464 /1813 10045 20028 39982 49986 57038 69902 70010 333 10060 20045 60005 70013 84/11 87/68 90710 91117
AAXX 13061 02635 07/59 /1804 10044 20029 69902 71010 333 10058 20042 60005 70019 90710 91110
BBXX A8EH3 13063 99537 71766 41/// 80848 10030 21021 49600 57080 76366 89/// 22223 04050 20708 80010
BBXX DHDH 13064 99085 10717 41697 71508 10280 20253 40100 50010 70211 8557/ 22225 00270 20000 80260
AAXX 13064 16110 11698 70403 10108 20016 30149 40154 52027 60142 70261 85580 333 20090 32/// 55000 20059 85640 555 0////
AAXX 13064 64600 31920 63604 10143 20120 39464 40119 71022 80002 333 01200 20130 55083 58004 86080
AAXX 13064 64601 31920 03610 10175 20029 38996 48505 70500 333 01500 20161 59001
AAXX 13064 64605 32958 00000 10147 20119 39365 40109 333 00900 20117 58000
AAXX 13064 64610 32960 60000 10130 20116 3//// 4//// 80002 333 00700 20115 5//// 86080
AAXX 13064 64650 31930 32602 10168 20144 39698 40109 71011 80002 333 01500 20160 55095 58001 83080
AAXX 13064 64654 32965 50000 10174 20081 39547 40123 80002 333 01200 20145 59002 85080
AAXX 13064 64655 32965 30000 10140 20113 39463 40113 80002 333 01100 20118 59001 83080
AAXX 13064 64656 31156 10000 10180 20164 39553 40108 72844 81600 333 01300 20143 59006 81704
AAXX 13064 64659 NIL
AAXX 13064 64660 32958 40000 10150 20132 39579 40109 80002 333 01000 20138 58007 84080
AAXX 13064 64662 32965 20000 10142 20130 39603 40107 80001 333 01200 20128 58004 82080
AAXX 13064 64665 32970 00000 10180 20165 3//// 4//// 333 00600 20160 5////
BBXX DDZA2 13064 99362 70037 41/98 22716 10155 20102 40240 57005 70322 8//// 22263 04170 2//// 80125
BBXX DAJC 13063 99318 71501 41598 20705 10200 20135 40240 54000 70211 8221/ 22224 04200 21003 307// 41204 5//// 80160
BBXX MINFR00 1306/ 99430 70453 46/// ///// 10065 40315 52003
BBXX MINUK01 1306/ 99574 70018 46/// ///// 10045 49641 52007
BBXX A8UT7 13064 99360 70127 41598 32815 10180 20148 40240 54000 70200 82444 22283 20703 333// 41010 80160
AAXX 13064 60715 11560 72406 10127 20102 30228 40235 53011 69914 83282 333 20122 58032 70001 83823 85360 91007 91118
AAXX 13064 60723 11560 60000 10115 20112 30063 40254 53013 69984 7216/ 84280 333 20116 70008 84823 83360
AAXX 13064 60725 12562 62406 10118 2//// 30074 40254 53005 60004 82280 333 20111 82820 85360
AAXX 13064 60735 12558 22402 10107 20070 30154 40237 55003 60004 82580 333 20105 82630
AAXX 13064 60745 12660 30308 10064 20034 39872 40254 53002 60004 81502 333 20058 58032 81633 83070 91010 91111
AAXX 13064 60748 13562 22104 10097 20064 39821 40246 53001 60004 82200 333 20089 82823
AAXX 13064 60750 12960 23103 10101 20045 30209 40235 53002 60004 80002 333 20102 82070
AAXX 13064 60760 12558 31006 10077 20030 30135 40242 53007 60004 82202 333 10139 82830
AAXX 13064 60765 13558 22702 10098 20066 30251 40255 51008 60004 82500 333 20097 82630 92416 925//
AAXX 13064 60767 12558 42406 10070 20034 30097 40246 53005 60004 82502 333 20054 82630 83070
AAXX 13064 60769 12558 10206 10142 20092 30227 40231 53006 60004 81202 333 20118 81820
AAXX 13064 60715 11560 72406 10127 20102 30228 40235 53011 69914 83282 333 20122 58032 70001 83823 85360 91007 91118
AAXX 13064 60723 11560 60000 10115 20112 30063 40254 53013 69984 7216/ 84280 333 20116 70008 84823 83360
AAXX 13064 60725 12562 62406 10118 2//// 30074 40254 53005 60004 82280 333 20111 82820 85360
AAXX 13064 60735 12558 22402 10107 20070 30154 40237 55003 60004 82580 333 20105 82630
AAXX 13064 60745 12660 30308 10064 20034 39872 40254 53002 60004 81502 333 20058 58032 81633 83070 91010 91111
AAXX 13064 60748 13562 22104 10097 20064 39821 40246 53001 60004 82200 333 20089 82823
AAXX 13064 60750 12960 23103 10101 20045 30209 40235 53002 60004 80002 333 20102 82070
AAXX 13064 60760 12558 31006 10077 20030 30135 40242 53007 60004 82202 333 10139 82830
AAXX 13064 60765 13558 22702 10098 20066 30251 40255 51008 60004 82500 333 20097 82630 92416 925//
AAXX 13064 60767 12558 42406 10070 20034 30097 40246 53005 60004 82502 333 20054 82630 83070
AAXX 13064 60769 12558 10206 10142 20092 30227 40231 53006 60004 81202 333 20118 81820
AAXX 13061 33325 11396 81803 10036 20029 39910 40181 57006 69902 71052 886// 333 20022 88707
AAXX 13064 68040 32560 50000 10213 20197 48491 52013 82013 333 20175
AAXX 13061 02947 47/60 71504 10006 20000 40005 57020 77107 87/// 90551 333 10009 21007 3////
AAXX 13061 02947 47/60 71504 10006 20000 40005 57020 77107 87/// 90551 333 10009 21007 3////
AAXX 13061 01300 43/// /1516 10063 20042 49684 57067 22200 02075 10707 70036 333 91120
AAXX 13061 01359 11462 80000 11075 21086 38952 49874 58027 60002 70222 885// 333 21084 48039 70045 91105
AAXX 13061 01400 41397 72812 10062 20058 49715 57026 76362 877// 22200 06085 10708 70039 333 91123
AAXX 13061 01007 11789 71305 11055 21110 39956 49965 52001 60002 70222 87050 333 21079 44004 70005 91109
AAXX 13064 91317 11469 80505 10288 20259 30105 40109 5//// 60031 78082 82303 333 561/9 70175 82915 88080 555 91306
AAXX 13064 68030 12960 60610 10219 20198 48492 52013 69994 86080 333 20199
AAXX 13064 68070 32960 40000 10239 20198 48502 52014 84080 333 20190
AAXX 13064 68325 32960 42708 10240 20159 48482 52009 84080 333 20175
AAXX 13064 43466 21470 60204 10304 20241 30079 40090 70382 8333/ 333 59007 60007 70340 82818 81920 85360
AAXX 13064 67665 12480 72901 10216 20194 48510 60014 81132 333 10/// 20178 59004 81810 83360 87280
AAXX 13064 91317 11469 80505 10288 20259 30105 40109 5//// 60031 78082 82303 333 561/9 70175 82915 88080 555 91306
BBXX DDZF2 13064 99092 10697 41697 81010 10300 20267 40115 50005 72962 8537/ 22225 00290 20201 80275
BBXX C6OM8 13060 99111 70275 41397 80507 10260 20215 40119 58020 70540 887// 22243 06266 20402 305// 40402 5//// 80230
BBXX DCPY2 13063 99146 10419 41998 11723 40145 50010 70500 80008 22234 20507 318// 40305
BBXX PHQX 13063 99455 70408 41697 73018 10061 21029 40260 57005 70282 872// 22224 2//09 3//// 40814 5//// 80025
BBXX A8YW2 13064 99337 30293 41998 00705 10230 20165 40090 54000 70200 80000 22224 00200 20301 80190
BBXX A8SG2 13061 99180 51391 41598 21107 10265 20205 40155 52010 70200 821// 22254 00280 20602 309// 40803 5//// 80225
AAXX 13064 65201 31910 73604 10194 20171 30079 40171 70522 80008 333 20194 56000 58003 87280 91106
BBXX DFUX2 13063 99438 70093 41/97 82244 10180 20131 40102 57060 75822 8//// 22214 00140 2//// 80150
BBXX A8IE7 13064 99062 10928 41598 40412 10250 20191 40105 56005 70100 841/8 22265 04287 299// 336// 40801 80210
BBXX PBEO 13063 99427 70097 41597 82320 10160 20134 40158 57034 70222 8//// 22282 02155 20402 328// 41005 80144
BBXX 2AQK9 13064 99503 70001 41296 73031 10130 20111 49907 53008 72022 8777/ 22223 20403 325// 40504 5//// 80120
AAXX 13064 60210 32970 00804 10041 21023 39075 48574 56002 333 20038 34103
BBXX MGGK4 13063 99301 30148 41598 72910 10175 20111 40120 53010 70311 82278 22274 00180 20101 318// 40604 5//// 80140
BBXX DCAX2 13063 99293 11276 41498 11807 10145 20117 40210 56010 70322 81165 22223 20502 3//// 4//// 5//// 80130
BBXX 2ALE5 13063 99233 70170 41998 00628 10190 20156 40186 52011 70200 80000 22284 20406 80170
AAXX 13061 14008 11099 71404 11072 21076 37445 47993 53008 60062 72271 82120 333 21081 49080 55000 70105 92828 93110 95174 444 36145 16070
AAXX 13061 10044 46/// /1719 10034 20008 39903 49935 58063 222// 00054 333 10058 20035 55000 55300 91123 91219
AAXX 13061 10124 46/// /1621 10046 2//// 39840 49878 56073 222// 00050 333 10057 20045 55/// 553// 91126 91221
AAXX 13064 60710 11560 62205 10121 20105 30159 40238 53008 60134 72162 83280 333 20119 70132 83820 84360
AAXX 13064 60714 11560 52602 10095 2//// 30241 40247 53017 60074 70381 84880 333 20091 70068 82820 83630
AAXX 13064 60720 13558 32606 10126 20115 30190 40224 58001 60004 83200 333 20124 83823
AAXX 13064 60728 13562 32914 10126 20123 30139 40233 53006 60004 83500 333 20126 83626
AAXX 13064 60729 13550 52606 10118 20105 30063 40252 53001 60004 85500 333 20103 85626
AAXX 13064 60731 05750 52508 10124 20087 30228 40235 53007 60004 333 10149 20095 3//// 58033 5///4 60007 70000 85/56 85/57 91011 91118
AAXX 13064 60732 13558 72506 10097 20053 39638 40254 58004 60004 878// 333 20083 83820 85626
AAXX 13064 60734 13560 72804 10109 20083 39722 40249 53003 60004 83582 333 20066 83630 83360
AAXX 13064 60738 NIL
AAXX 13064 60739 13556 22506 10089 20047 39419 40250 53005 60004 81542 333 20082 81630 94228
AAXX 13064 60740 12560 32501 10097 20070 30235 40237 53009 60004 82530 333 20094 82623
AAXX 13064 60742 NIL
AAXX 13064 60764 13960 01204 10045 20019 30192 40246 53008 60004 333 20041
AAXX 13064 60770 13975 00000 10097 20071 30100 40242 53005 60004 333 20096
AAXX 13064 60772 13565 21806 10099 20051 39983 40247 53005 60004 82500 333 20099 82630
AAXX 13064 60775 13565 22802 10100 20040 39884 40246 53003 60004 82500 333 20097 55065 82630
AAXX 13064 60780 13960 11502 10055 20018 39946 40264 54000 60004 80002 333 20055 81070
AAXX 13061 48914 32698 73403 10273 20202 30107 40109 57021 875// 333 58003 87696
AAXX 13061 48917 32998 60504 10287 20181 30109 40115 57010 80008 222// 00298 2//00 333 58005 86299
AAXX 13061 48900 32497 43206 10294 20190 30087 40097 57028 84800 333 59003 82894 83696
AAXX 13061 48918 32470 82903 10272 20217 30096 40107 57018 888// 222// 00281 2//01 333 59004 82894 88696
AAXX 13061 48919 01598 80510 10262 20251 30058 40080 58012 60033 70382 8222/ 22200 02274 2//04 333 59015 6001 1 82895 88499
AAXX 13061 48916 32998 70501 10278 20199 30066 40113 58008 80008 333 58006 87299
AAXX 13064 91371 32474 40916 10278 20263 30084 40087 82313 333 56229 84815 82380 70000 555 91306
AAXX 13064 91925 06/// /3202 10244 20207 30072 40133 53017 60001 333 55082 60007 90710 91106 555 60005 11010 59011
AAXX 13064 91929 04/81 /1008 10269 20221 30143 40146 53011 60002 700// 333 10312 20269 55/// 60007 79999 90710 91116 555 60005
AAXX 13064 91938 01570 21102 10261 20228 30153 40155 53013 60072 70186 82800 333 10309 20261 31/// 55087 60007 70067 82820 90710 91106 555 60005 12008 58001
AAXX 13064 91944 06/// /1110 10264 20195 30156 40159 52012 60002 333 10300 20263 55100 60007 70000 90710 91114 555 60005
AAXX 13064 91948 06/// /0203 10234 20193 30087 40190 53012 60001 333 55109 60007 90710 91106 555 60005 13306 59014
AAXX 13064 91954 06/// /1702 1//// 2//// 30158 4//// 53015 60001 333 55/// 60007 555 58018
AAXX 13064 91958 06/// /0517 10228 20192 30172 40174 53006 69921 333 55000 60007 90710 91128 555 60005 10528 59013
AAXX 13064 91945 36/// /0408 10267 20227 30163 40168 52016 555 58002
AAXX 13064 40356 42960 20905 10050 21050 39248 48528 82030 333 20000 59026 82360 555 04410 50253
AAXX 13064 40357 42960 32705 10058 21030 39600 40258 80002 333 20015 59021 83070
AAXX 13064 40360 42960 03006 10020 21060 39633 40234 333 21010 59037
AAXX 13064 40361 42960 00604 10066 21050 39459 40251 333 20044 59029
AAXX 13064 40362 NIL
AAXX 13064 40373 42960 02704 10062 21010 39823 40257 333 20030 59009
AAXX 13064 40375 42960 00000 10084 21050 39328 40220 333 20046 59029
AAXX 13064 40377 NIL
AAXX 13064 40394 42960 02108 10102 21010 39093 48556 333 20038 59014 555 04410 50244
AAXX 13064 40400 42960 00000 10207 20090 30150 40178 333 20150 59005
AAXX 13064 40401 41958 00000 10130 21060 39503 40217 70600 333 20060 59018
AAXX 13064 40405 42960 00000 10100 20040 39497 40256 333 20050 58083
AAXX 13064 40416 42960 03014 10125 20060 30193 40213 333 20080 59001
AAXX 13064 40417 42960 02916 10123 20010 30218 40233 333 20080 59003
AAXX 13064 40420 41958 03115 10120 20020 30025 40239 70700 333 20060 58000
AAXX 13064 40430 42960 00904 10150 20000 39491 40221 333 20102 59014
AAXX 13064 40435 42960 01707 10110 20010 39186 40230 333 20040 58006
AAXX 13064 40437 41957 03306 10124 21030 39539 40261 70600 333 20060 59006
AAXX 13064 40439 42960 00000 10189 20070 30144 40154 333 20138 59006
AAXX 13064 94102 46/// /2515 10328 20271 30043 40052
AAXX 13064 94103 NIL
AAXX 13064 94120 46/// /2915 10320 20245 30007 40047
AAXX 13064 94122 46/// /2606 10319 20247 30040 40048
AAXX 13064 94131 46/// /2808 10362 20213 39884 40034
AAXX 13064 94132 NIL
AAXX 13064 94147 NIL
AAXX 13064 94150 46/// /0708 10342 20236 39974 40033
AAXX 13064 94151 46/// /1105 10340 20246 30019 4////
AAXX 13064 94170 46/// /2501 10277 20265 30029 40051
AAXX 13064 94200 NIL
AAXX 13064 94203 46/// /2712 10327 20246 30036 40046
AAXX 13064 94206 NIL
AAXX 13064 94207 NIL
AAXX 13064 94211 NIL
AAXX 13064 94212 46/// /1904 10391 20133 39560 40020
AAXX 13064 94216 46/// /1605 10385 20200 39989 40039
AAXX 13064 94236 NIL
AAXX 13064 94238 46/// /0509 10318 20131 39637 40050
AAXX 13064 94248 NIL
AAXX 13064 94255 46/// /1804 10343 20081 39789 40044
AAXX 13064 94268 46/// /2710 10328 20241 30026 40038
AAXX 13064 94287 46/// /0406 10322 20245 30020 40029
AAXX 13064 94290 NIL
AAXX 13064 94294 46/// /3307 10330 20242 30015 40025
AAXX 13064 94296 35/// /0000 10300 30035 40045 57005
AAXX 13064 94298 46/// /3010 10290 30039 40045 55005
AAXX 13064 95641 NIL
AAXX 13064 94299 46/// /3110 10308 20260 30035 40045
AAXX 13064 94300 46/// /2115 10280 20156 30078 40088
AAXX 13064 94302 46/// /1909 10365 20165 30052 40058
AAXX 13064 94312 46/// /3317 10342 20240 30026 40035
AAXX 13064 94313 NIL
AAXX 13064 94317 46/// /2809 10387 20124 39443 40010
AAXX 13064 94319 46/// /3115 10408 20134 39694 40015
AAXX 13064 94324 NIL
AAXX 13064 94326 46/// /1310 10343 20022 39456 40055
AAXX 13064 94327 46/// /1505 10334 20000 39700 40064
AAXX 13064 94332 46/// /2509 10352 20066 39663 40038
AAXX 13064 94333 NIL
AAXX 13064 94341 46/// /2610 10376 20056 39802 40030
AAXX 13064 94346 46/// /2110 10354 20060 39824 40038
AAXX 13064 94363 46/// /2410 10339 20134 39822 40034
AAXX 13064 94366 NIL
AAXX 13064 94367 46/// /1206 10292 20257 39999 40040
AAXX 13064 94374 46/// /1105 10333 20168 30016 40032
AAXX 13064 94388 46/// /0914 10271 20233 30045 40050
AAXX 13064 94393 46/// /0608 10253 30035 40047 55010
AAXX 13064 94394 46/// /1507 10261 30042 40050 50001
AAXX 13064 94403 46/// /2414 10251 20169 30036 40077
AAXX 13064 94429 46/// /2510 10270 20172 39597 40048
AAXX 13064 94430 46/// /2604 10295 20156 39475 40042
AAXX 13064 94449 46/// /0713 10174 20159 39555 40072
AAXX 13064 94451 NIL
AAXX 13064 94461 46/// /3510 10311 20071 39402 40053
AAXX 13064 94462 46/// /0808 10339 20054 39514 40054
AAXX 13064 94477 NIL
AAXX 13064 94488 NIL
AAXX 13064 41024 42960 00608 10250 21020 30121 40140 333 20200 58005
AAXX 13064 41030 42960 00000 10220 20040 39867 40140 333 20202 58004
AAXX 13064 41036 42960 01405 10120 21020 38593 48541 333 20050 59008 555 04410 50180
AAXX 13064 41055 42960 01306 10112 21010 38402 48552 333 20057 59006 555 04410 50218
AAXX 13064 41061 41959 03304 10115 20030 39520 40245 70500 333 20059 59002
AAXX 13064 41084 42960 20000 10114 21010 38916 48560 80002 333 20048 59004 82070 555 04410 50214
AAXX 13064 41112 42960 53604 10100 21010 37975 48554 80002 333 20048 59002 85068 555 04410 50225
AAXX 13064 41114 42960 00000 10111 20010 38008 48549 333 20050 59002 555 04410 50207
AAXX 13064 41128 41957 52408 10140 21020 38878 48574 70600 80006 333 20045 58002 85270 555 04410 50238
AAXX 13064 41136 41957 02304 10118 20000 39402 40239 70500 333 20066 58007
AAXX 13064 41140 42560 11307 10280 20230 30149 40152 81100 333 20230 59001 81830
AAXX 13064 88963 32360 62710 10046 21007 39726 49755 52025 86500 333 56700 86608 92417 94072 95002
AAXX 13064 88968 11457 83220 10028 21002 39804 49819 52025 60031 72162 887// 333 56799 88712 90112 90262 90290 90922 92426 92734 92851 94070 95060 96010
AAXX 13064 89034 AUS
AAXX 13064 89053 11220 82735 10022 20012 39820 49833 53016 69931 75865 8572/ 333 56669 85705 88530 90049 90093 90267 90284 90925 92434 92851 94070 94477 95090 96010 97546 98520
AAXX 13064 89055 32965 42715 10008 21019 39477 49714 56013 84070 333 56060 84360 92732 92840 95100
AAXX 13064 89066 32570 80523 10014 21011 39650 49658 53005 886// 333 56299 86725 88728 92427 94075 95015
AAXX 13063 NIL
AAXX 13064 94102 46/// /2515 10328 20271 30043 40052
AAXX 13064 94103 NIL
AAXX 13064 94120 46/// /2915 10320 20245 30007 40047
AAXX 13064 94122 46/// /2606 10319 20247 30040 40048
AAXX 13064 94131 46/// /2808 10362 20213 39884 40034
AAXX 13064 94132 NIL
AAXX 13064 94147 NIL
AAXX 13064 94150 46/// /0708 10342 20236 39974 40033
AAXX 13064 94151 46/// /1105 10340 20246 30019 4////
AAXX 13064 94170 46/// /2501 10277 20265 30029 40051
AAXX 13064 94200 NIL
AAXX 13064 94203 46/// /2712 10327 20246 30036 40046
AAXX 13064 94206 NIL
AAXX 13064 94207 NIL
AAXX 13064 94211 NIL
AAXX 13064 94212 46/// /1904 10391 20133 39560 40020
AAXX 13064 94216 46/// /1605 10385 20200 39989 40039
AAXX 13064 94236 NIL
AAXX 13064 94238 46/// /0509 10318 20131 39637 40050
AAXX 13064 94248 NIL
AAXX 13064 94255 46/// /1804 10343 20081 39789 40044
AAXX 13064 94268 46/// /2710 10328 20241 30026 40038
AAXX 13064 94287 46/// /0406 10322 20245 30020 40029
AAXX 13064 94290 NIL
AAXX 13064 94294 46/// /3307 10330 20242 30015 40025
AAXX 13064 94296 35/// /0000 10300 30035 40045 57005
AAXX 13064 94298 46/// /3010 10290 30039 40045 55005
AAXX 13064 95641 NIL
AAXX 13064 94299 46/// /3110 10308 20260 30035 40045
AAXX 13064 94300 46/// /2115 10280 20156 30078 40088
AAXX 13064 94302 46/// /1909 10365 20165 30052 40058
AAXX 13064 94312 46/// /3317 10342 20240 30026 40035
AAXX 13064 94313 NIL
AAXX 13064 94317 46/// /2809 10387 20124 39443 40010
AAXX 13064 94319 46/// /3115 10408 20134 39694 40015
AAXX 13064 94324 NIL
AAXX 13064 94326 46/// /1310 10343 20022 39456 40055
AAXX 13064 94327 46/// /1505 10334 20000 39700 40064
AAXX 13064 94332 46/// /2509 10352 20066 39663 40038
AAXX 13064 94333 NIL
AAXX 13064 94341 46/// /2610 10376 20056 39802 40030
AAXX 13064 94346 46/// /2110 10354 20060 39824 40038
AAXX 13064 94363 46/// /2410 10339 20134 39822 40034
AAXX 13064 94366 NIL
AAXX 13064 94367 46/// /1206 10292 20257 39999 40040
AAXX 13064 94374 46/// /1105 10333 20168 30016 40032
AAXX 13064 94388 46/// /0914 10271 20233 30045 40050
AAXX 13064 94393 46/// /0608 10253 30035 40047 55010
AAXX 13064 94394 46/// /1507 10261 30042 40050 50001
AAXX 13064 94403 46/// /2414 10251 20169 30036 40077
AAXX 13064 94429 46/// /2510 10270 20172 39597 40048
AAXX 13064 94430 46/// /2604 10295 20156 39475 40042
AAXX 13064 94449 46/// /0713 10174 20159 39555 40072
AAXX 13064 94451 NIL
AAXX 13064 94461 46/// /3510 10311 20071 39402 40053
AAXX 13064 94462 46/// /0808 10339 20054 39514 40054
AAXX 13064 94477 NIL
AAXX 13064 94488 NIL
AAXX 13064 94500 NIL
AAXX 13064 94510 46/// /1910 10307 20026 39720 40058
AAXX 13064 94515 46/// /1912 10304 20087 39704 40044
AAXX 13064 94552 46/// /2214 10279 20082 39593 40048
AAXX 13064 94578 46/// /0711 10249 20191 30047 40058
AAXX 13064 94584 46/// /0813 10269 20198 39941 40049
AAXX 13064 94601 46/// /1326 10192 20149 30113 40130
AAXX 13064 94610 46/// /1711 10234 20138 30051 40074
AAXX 13064 94637 46/// /0211 10211 20143 39656 40071
AAXX 13064 94638 46/// /0710 10165 20153 30092 40123
AAXX 13064 94642 NIL
AAXX 13064 94643 NIL
AAXX 13064 94647 46/// /1113 10191 20134 30022 40141
AAXX 13064 94651 46/// /1520 10203 20115 30068 40144
AAXX 13064 94653 46/// /1820 10209 20102 30122 40140
AAXX 13064 94659 46/// /1408 10277 20013 39930 40121
AAXX 13064 94672 46/// /1514 10219 20039 30149 40159
AAXX 13064 94691 46/// /1710 10263 20023 39794 40114
AAXX 13064 94693 46/// /1810 10250 20020 30069 40130
AAXX 13064 94700 NIL
AAXX 13064 94703 46/// /2211 10292 20060 39952 40074
AAXX 13064 94710 46/// /1911 10275 20051 39832 40078
AAXX 13064 94729 46/// /2513 10214 20090 39222 40050
AAXX 13064 94750 46/// /1610 10199 20117 39958 40080
AAXX 13064 94767 46/// /1718 10198 20125 30075 40081
AAXX 13064 94776 46/// /1812 10194 20121 30073 40083
AAXX 13064 94791 NIL
AAXX 13064 94802 46/// /1221 10168 20144 30049 40131
AAXX 13064 94804 46/// /1617 10179 20093 30134 40172
AAXX 13064 94807 NIL
AAXX 13064 94821 46/// /1616 10174 20048 30095 40177
AAXX 13064 94842 46/// /2110 10145 20059 30077 40176
AAXX 13064 94847 NIL
AAXX 13064 94850 46/// /1915 10150 20050 30124 40170
AAXX 13064 94865 46/// /1814 10155 20060 30141 40165
AAXX 13064 94866 46/// /1817 10164 20043 30019 40158
AAXX 13064 94875 46/// /1919 10201 20038 39989 40122
AAXX 13064 89564 41981 11217 11030 21119 39740 49759 56002 70200 81030
AAXX 13064 89570 46/// /0516 11074 21119 39084 56002
AAXX 13064 89571 41475 70116 11021 21074 39720 49748 56003 71522 8287/
AAXX 13064 89573 NIL
AAXX 13064 89610 NIL
AAXX 13064 89611 41480 50117 11005 21045 39723 49775 52007 70211 85801
AAXX 13064 89614 NIL
AAXX 13064 89615 46/// /3613 11052 21094 38884 53009
AAXX 13064 89807 NIL
AAXX 13064 89809 46/// /0115 11041 21064 39325 52006
AAXX 13064 92001 NIL
AAXX 13064 92014 NIL
AAXX 13064 92044 11480 70000 10272 20256 30048 40054 57014 60081 78088 8627/
AAXX 13064 92047 NIL
AAXX 13064 92100 NIL
AAXX 13064 94893 46/// /2418 10151 20064 30029 40144
AAXX 13064 94907 46/// /1915 10171 20071 30129 40139
AAXX 13064 94910 46/// /2413 10250 20038 39824 40068
AAXX 13064 94926 46/// /1612 10183 20064 39417 40069
AAXX 13064 94935 46/// /2609 10125 20107 30089 40115
AAXX 13064 94954 46/// /2130 10137 20035 30048 40159
AAXX 13064 94956 46/// /2017 10149 20037 30139 40165
AAXX 13064 94975 46/// /1517 10135 20120 30122 40154
AAXX 13064 94983 46/// /1520 10151 20050 30116 40141
AAXX 13064 94995 46/// /2520 10226 20183 30027 40035
AAXX 13064 94996 NIL
AAXX 13064 94997 NIL
AAXX 13064 94998 46/// /3416 10076 20047 30055 40066
AAXX 13064 95111 46/// /3205 10308 20242 30016 40052
AAXX 13064 95205 46/// /3615 10361 20227 30029 40036
AAXX 13064 95322 NIL
AAXX 13064 95448 46/// /0709 10231 20162 39505 40052
AAXX 13064 95458 46/// /2106 10305 20010 39847 40101
AAXX 13064 95480 46/// /2210 10314 20034 30049 40107
AAXX 13064 95481 46/// /2010 10315 20035 30048 40092
AAXX 13064 95482 46/// /1307 10339 21020 30022 40076
AAXX 13064 95485 46/// /2011 10291 20046 39893 40092
AAXX 13064 95492 46/// /2012 10308 21008 39925 40076
AAXX 13064 95527 46/// /2214 10273 20084 39811 40058
AAXX 13064 95634 46/// /0114 10208 20206 39657 40048
AAXX 13064 95637 46/// /1314 10168 20147 39751 40077
AAXX 13064 95646 46/// /1005 10239 20079 39950 40134
AAXX 13064 95666 NIL
AAXX 13064 95719 46/// /2214 10253 20087 39742 40064
AAXX 13064 95762 46/// /3008 10270 20089 39600 40044
AAXX 13064 95826 NIL
AAXX 13064 95839 46/// /1914 10213 20030 39988 40145
AAXX 13064 95864 NIL
AAXX 13064 95909 NIL
AAXX 13064 95954 NIL
AAXX 13064 95966 46/// /1808 10189 20000 39927 40126
AAXX 13064 96995 46/// /0000 10252 20233 39800 40094
AAXX 13064 96996 41568 60407 10294 20241 30084 40088 58010 71622 84832
AAXX 13064 94310 46/// /3115 10317 20243 30032 40044 57017
AAXX 13064 95283 46/// /0505 10269 20253 30029 40036
AAXX 13064 95287 41/98 60215 10310 20268 3//// 4//// 70211 82398
AAXX 13064 95288 46/// /3211 10305 30022 40037 56010
AAXX 13064 95675 46/// /2221
AAXX 13064 95872 46/// /1818
AAXX 13064 95961 35/// /2108 10156 30129 40171 54000
BBXX UCKZ 13061 99477 30196 41/92 91108 10072 20071 40091 52013 74544 89/// 22243 00068 2////
BBXX VRAE4 13063 99035 31444 41498 33510 10290 20248 40074 57020 70311 82231 22273 04290 20403 335// 40604 80260
BBXX ZCBU6 13044 99281 31568 41598 21920 10240 20192 40055 51020 70200 82100 22274 00230 20303 332// 40604 5//// 80209
BBXX VRDU8 13063 99263 31125 41398 41822 10250 20188 40106 58020 70200 844// 22243 04240 20606 80210
BBXX ZCBU6 13054 99280 31564 41598 21918 10240 20192 40063 55020 70200 82100 22274 00230 20302 332// 40604 5//// 80209
BBXX VNSZ 13044 99412 31464 46/// /3114 10169 20048 30101 40127 57002 22200 04168 85106
BBXX C6FS9 13044 99224 31650 46/// /1906 10277 20227 30052 40087 57007 22223 04283 85241
BBXX 9HA2479 13044 99251 31628 46/// /3526 10241 20220 30041 40070 52002 22214 04251 85226
BBXX VNSZ 13054 99412 31464 46/// /3114 10165 20055 30100 40126 57005 22200 04170 85107
BBXX VROB 13044 99068 31470 46/// /1002 10316 20223 30028 40052 57027 22200 85249
BBXX FHZI 13044 99429 31473 46/// /1214 10152 20049 30140 40151 57002 22200 85099
BBXX VNSZ 13064 99412 31464 46/// /3115 10169 20064 30103 40129 54000 22200 04176 85112
BBXX 9HA2479 13064 99247 31633 46/// /3110 10225 20218 30050 40079 52014 22214 04250 85220
BBXX C6FS9 13064 99224 31655 46/// /1514 10273 20231 30052 40087 57003 22223 04279 85243
BBXX VROB 13064 99068 31470 46/// /1406 10301 20223 30023 40047 57015 22200 04300 85244
BBXX 9HA2479 13054 99249 31631 46/// /3316 10239 20223 30044 40073 52002 22214 04251 85228
BBXX C6FS9 13054 99224 31653 46/// /1609 10278 20226 30048 40083 57009 22223 04279 85240
BBXX VROB 13054 99068 31470 46/// /1504 10335 20222 30021 40045 57026 22200 04298 85253
BBXX FHZI 13054 99429 31473 46/// /1516 10143 20045 30141 40152 57003 22200 85093
BBXX VRWS4 13063 99175 31512 41598 33306 10303 20261 40046 55009 70200 83871 22244 04280 20304 33425 40804 50603 80273
BBXX VRZN7 13064 99131 51795 416// 73410 10270 2023/ 40105 51005 7//22 8746/ 22253 04300 20306 336// 4//// 5//// 85240
AAXX 13060 67693 12480 60405 10270 20179 39257 48512 60014 82950 333 20224 5//// 55/// 58006 70012 81920 86359 555 10285 7//96
AAXX 13064 68004 36/// /2103 10179 20019 38528 48483 52010 333 20116 91006 555 10331 91016
AAXX 13064 68006 32989 31503 10213 20083 38911 48489 53010 81081 333 20168 555 10347 91014
AAXX 13064 68010 36/// /0000 10195 20067 38915 48513 52020 333 20125 91003 555 10362 91017
AAXX 13064 68018 16/// /1902 10229 20185 38887 48494 52013 69924 333 20202 91005 555 10321 20002 91014
AAXX 13064 68102 36/// /2106 10166 20003 38732 48479 53007 333 20117 91011 555 10335 91014
AAXX 13064 68112 32989 00000 10206 20026 38314 48496 53006 333 20097 91003 555 10322 91019
AAXX 13064 68116 16/// /2104 10214 20131 38547 48495 52006 60034 333 20161 91007 555 10335 20032 91017
AAXX 13064 68212 36/// /0000 10218 21041 38884 48501 52008 333 20145 91003 555 10381 91015
AAXX 13064 68312 32989 12410 10157 20082 38920 48476 53007 80002 333 20131 91013 555 10368 91013
AAXX 13064 68014 32589 52406 10203 20064 38575 48491 51002 81582 333 20130 91009 555 10304 91016
AAXX 13064 68300 36/// /3205 10131 20121 39987 40139 52016 333 20116 91006 555 10169 91013
AAXX 13064 92001 NIL
AAXX 13064 92014 NIL
AAXX 13064 92044 11480 70000 10272 20256 30048 40054 57014 60081 78088 8627/
AAXX 13064 92047 NIL
AAXX 13064 92100 NIL
AAXX 13064 94500 NIL
AAXX 13064 94510 46/// /1910 10307 20026 39720 40058
AAXX 13064 94515 46/// /1912 10304 20087 39704 40044
AAXX 13064 94552 46/// /2214 10279 20082 39593 40048
AAXX 13064 94578 46/// /0711 10249 20191 30047 40058
AAXX 13064 94584 46/// /0813 10269 20198 39941 40049
AAXX 13064 94601 46/// /1326 10192 20149 30113 40130
AAXX 13064 94610 46/// /1711 10234 20138 30051 40074
AAXX 13064 94637 46/// /0211 10211 20143 39656 40071
AAXX 13064 94638 46/// /0710 10165 20153 30092 40123
AAXX 13064 94642 NIL
AAXX 13064 94643 NIL
AAXX 13064 94647 46/// /1113 10191 20134 30022 40141
AAXX 13064 94651 46/// /1520 10203 20115 30068 40144
AAXX 13064 94653 46/// /1820 10209 20102 30122 40140
AAXX 13064 94659 46/// /1408 10277 20013 39930 40121
AAXX 13064 94672 46/// /1514 10219 20039 30149 40159
AAXX 13064 94691 46/// /1710 10263 20023 39794 40114
AAXX 13064 94693 46/// /1810 10250 20020 30069 40130
AAXX 13064 94700 NIL
AAXX 13064 94703 46/// /2211 10292 20060 39952 40074
AAXX 13064 94710 46/// /1911 10275 20051 39832 40078
AAXX 13064 94729 46/// /2513 10214 20090 39222 40050
AAXX 13064 94750 46/// /1610 10199 20117 39958 40080
AAXX 13064 94767 46/// /1718 10198 20125 30075 40081
AAXX 13064 94776 46/// /1812 10194 20121 30073 40083
AAXX 13064 94791 NIL
AAXX 13064 94802 46/// /1221 10168 20144 30049 40131
AAXX 13064 94804 46/// /1617 10179 20093 30134 40172
AAXX 13064 94807 NIL
AAXX 13064 94821 46/// /1616 10174 20048 30095 40177
AAXX 13064 94842 46/// /2110 10145 20059 30077 40176
AAXX 13064 94847 NIL
AAXX 13064 94850 46/// /1915 10150 20050 30124 40170
AAXX 13064 94865 46/// /1814 10155 20060 30141 40165
AAXX 13064 94866 46/// /1817 10164 20043 30019 40158
AAXX 13064 94875 46/// /1919 10201 20038 39989 40122
AAXX 13064 89564 41981 11217 11030 21119 39740 49759 56002 70200 81030
AAXX 13064 89570 46/// /0516 11074 21119 39084 56002
AAXX 13064 89571 41475 70116 11021 21074 39720 49748 56003 71522 8287/
AAXX 13064 89573 NIL
AAXX 13064 89610 NIL
AAXX 13064 89611 41480 50117 11005 21045 39723 49775 52007 70211 85801
AAXX 13064 89614 NIL
AAXX 13064 89615 46/// /3613 11052 21094 38884 53009
AAXX 13064 89807 NIL
AAXX 13064 89809 46/// /0115 11041 21064 39325 52006
AAXX 13064 94893 46/// /2418 10151 20064 30029 40144
AAXX 13064 94907 46/// /1915 10171 20071 30129 40139
AAXX 13064 94910 46/// /2413 10250 20038 39824 40068
AAXX 13064 94926 46/// /1612 10183 20064 39417 40069
AAXX 13064 94935 46/// /2609 10125 20107 30089 40115
AAXX 13064 94954 46/// /2130 10137 20035 30048 40159
AAXX 13064 94956 46/// /2017 10149 20037 30139 40165
AAXX 13064 94975 46/// /1517 10135 20120 30122 40154
AAXX 13064 94983 46/// /1520 10151 20050 30116 40141
AAXX 13064 94995 46/// /2520 10226 20183 30027 40035
AAXX 13064 94996 NIL
AAXX 13064 94997 NIL
AAXX 13064 94998 46/// /3416 10076 20047 30055 40066
AAXX 13064 95111 46/// /3205 10308 20242 30016 40052
AAXX 13064 95205 46/// /3615 10361 20227 30029 40036
AAXX 13064 95322 NIL
AAXX 13064 95448 46/// /0709 10231 20162 39505 40052
AAXX 13064 95458 46/// /2106 10305 20010 39847 40101
AAXX 13064 95480 46/// /2210 10314 20034 30049 40107
AAXX 13064 95481 46/// /2010 10315 20035 30048 40092
AAXX 13064 95482 46/// /1307 10339 21020 30022 40076
AAXX 13064 95485 46/// /2011 10291 20046 39893 40092
AAXX 13064 95492 46/// /2012 10308 21008 39925 40076
AAXX 13064 95527 46/// /2214 10273 20084 39811 40058
AAXX 13064 95634 46/// /0114 10208 20206 39657 40048
AAXX 13064 95637 46/// /1314 10168 20147 39751 40077
AAXX 13064 95646 46/// /1005 10239 20079 39950 40134
AAXX 13064 95666 NIL
AAXX 13064 95719 46/// /2214 10253 20087 39742 40064
AAXX 13064 95762 46/// /3008 10270 20089 39600 40044
AAXX 13064 95826 NIL
AAXX 13064 95839 46/// /1914 10213 20030 39988 40145
AAXX 13064 95864 NIL
AAXX 13064 95909 NIL
AAXX 13064 95954 NIL
AAXX 13064 95966 46/// /1808 10189 20000 39927 40126
AAXX 13064 96995 46/// /0000 10252 20233 39800 40094
AAXX 13064 96996 41568 60407 10294 20241 30084 40088 58010 71622 84832
BBXX VRAE4 13063 99035 31444 41498 33510 10290 20248 40074 57020 70311 82231 22273 04290 20403 335// 40604 80260
BBXX ZCBU6 13044 99281 31568 41598 21920 10240 20192 40055 51020 70200 82100 22274 00230 20303 332// 40604 5//// 80209
BBXX VRDU8 13063 99263 31125 41398 41822 10250 20188 40106 58020 70200 844// 22243 04240 20606 80210
BBXX ZCBU6 13054 99280 31564 41598 21918 10240 20192 40063 55020 70200 82100 22274 00230 20302 332// 40604 5//// 80209
BBXX VNSZ 13044 99412 31464 46/// /3114 10169 20048 30101 40127 57002 22200 04168 85106
BBXX C6FS9 13044 99224 31650 46/// /1906 10277 20227 30052 40087 57007 22223 04283 85241
BBXX 9HA2479 13044 99251 31628 46/// /3526 10241 20220 30041 40070 52002 22214 04251 85226
BBXX VNSZ 13054 99412 31464 46/// /3114 10165 20055 30100 40126 57005 22200 04170 85107
BBXX VROB 13044 99068 31470 46/// /1002 10316 20223 30028 40052 57027 22200 85249
BBXX FHZI 13044 99429 31473 46/// /1214 10152 20049 30140 40151 57002 22200 85099
BBXX VNSZ 13064 99412 31464 46/// /3115 10169 20064 30103 40129 54000 22200 04176 85112
BBXX 9HA2479 13064 99247 31633 46/// /3110 10225 20218 30050 40079 52014 22214 04250 85220
BBXX C6FS9 13064 99224 31655 46/// /1514 10273 20231 30052 40087 57003 22223 04279 85243
BBXX VROB 13064 99068 31470 46/// /1406 10301 20223 30023 40047 57015 22200 04300 85244
BBXX 9HA2479 13054 99249 31631 46/// /3316 10239 20223 30044 40073 52002 22214 04251 85228
BBXX C6FS9 13054 99224 31653 46/// /1609 10278 20226 30048 40083 57009 22223 04279 85240
BBXX VROB 13054 99068 31470 46/// /1504 10335 20222 30021 40045 57026 22200 04298 85253
BBXX FHZI 13054 99429 31473 46/// /1516 10143 20045 30141 40152 57003 22200 85093
BBXX VRWS4 13063 99175 31512 41598 33306 10303 20261 40046 55009 70200 83871 22244 04280 20304 33425 40804 50603 80273
BBXX VRZN7 13064 99131 51795 416// 73410 10270 2023/ 40105 51005 7//22 8746/ 22253 04300 20306 336// 4//// 5//// 85240
AAXX 13061 38141 32598 83501 11018 21064 30167 40332 52020 885// 333 21005
AAXX 13061 38149 31494 82301 10016 20008 30246 40325 52016 60030 74564 886// 333 20003
AAXX 13061 38178 42598 82504 11012 21132 30049 40346 53008 885// 333 21064
AAXX 13061 38262 11696 82302 10019 20006 30238 40321 52005 69930 75157 886// 333 20004
AAXX 13061 38264 41498 82003 10011 21009 30239 40335 52015 76872 8872/ 333 20005 88710
AAXX 13061 38396 42697 71803 10003 21021 30225 40356 52013 875// 333 21024 82942
AAXX 13061 38403 41495 80000 11017 21055 30220 40346 52007 71022 886// 333 21017
AAXX 13061 38413 42998 81201 10016 21006 30052 40352 52011 8257/ 333 21026
AAXX 13061 38457 32597 71801 10019 20006 39756 40362 52005 60022 82442 333 21013
AAXX 13061 38462 12699 60000 11021 21056 38863 48586 52005 6001/ 83950 333 21060
AAXX 13061 38565 32697 80000 10026 21023 39752 40351 51001 8657/ 333 20001
AAXX 13061 38579 32998 71403 10038 21021 39932 40362 52004 80008 333 21004
AAXX 13061 38583 11996 30701 10011 21003 30037 40370 52002 69902 71021 82041 333 21037
AAXX 13061 38611 41596 83301 10025 20009 39787 40376 54000 60032 71072 8802/ 333 20002 82185
AAXX 13061 38618 12997 81801 10016 21000 39648 40360 52002 69900 8807/ 333 21011
AAXX 13061 38683 41596 80202 10032 21012 30072 40355 52005 71022 885// 333 20003 88627
AAXX 13061 38696 32697 80701 11011 21023 39477 40370 52005 885// 333 21024
AAXX 13061 38812 42997 20404 10034 21001 39877 40343 54000 80008 333 20002
AAXX 13061 38927 32960 20303 10057 21003 39956 40341 50002 80001 333 21008
AAXX 13064 41241 32960 41405 10232 20027 30162 40197 80001 333 01026 20171 58010 84070
AAXX 13064 41242 36/// /0000 10250 20152 30187 40211 333 0E018 20140 58013
AAXX 13064 41244 NIL
AAXX 13064 41246 32960 32303 10244 20153 30192 40196 80001 333 20168 58009 84070
AAXX 13064 41251 32965 21903 10172 21207 38067 48150 80001 333 20085 58004 82075
AAXX 13064 41252 31957 32802 10186 20169 39824 40200 71000 80003 333 20134 58009 83075
AAXX 13064 41253 36/// /2702 10218 20133 39825 40209 333 0E015 20141 58013
AAXX 13064 41254 NIL
AAXX 13064 41255 32960 03002 10215 20127 39662 40184 333 20120 3/018 5////
AAXX 13064 41256 32560 22504 10243 20171 30190 40200 82400 333 20180 58013 82625
AAXX 13064 41257 NIL
AAXX 13064 41258 NIL
AAXX 13064 41259 36/// /2702 10126 21226 37154 40335 333 0E/// 20056 58000
AAXX 13064 41262 NIL
AAXX 13064 41263 36/// /0000 10202 20086 39518 40212 333 0E013 20124 58007
AAXX 13064 41264 36/70 /0402 10206 20146 39816 40186 333 0E018 20141 58009
AAXX 13064 41265 NIL
AAXX 13064 41267 35/76 /3319 10243 20170 30175 40190 333 0E020 20207 58006
AAXX 13064 41268 32560 23512 10249 20179 30174 40190 82500 333 20188 3/020 58007 82625
AAXX 13064 41270 36/70 /0013 10253 20151 30132 40143 333 0E018 20178 58001
AAXX 13064 41275 NIL
AAXX 13064 41287 NIL
AAXX 13064 41288 32460 53610 10228 20198 30172 40194 85500 333 20202 58007 85610
AAXX 13064 41290 NIL
AAXX 13064 41295 NIL
AAXX 13064 41304 NIL
AAXX 13064 41312 36/// /3115 10235 20086 30140 40179 333 0E/// 20210 58004
AAXX 13064 41314 NIL
AAXX 13064 41315 36/// /3419 10130 20056 39193 42831 333 0E/// 20109 58006
AAXX 13064 41316 31940 33319 10228 20070 30157 40183 70500 80001 333 20198 58004 83075
AAXX 13064 40550 35/60 /3407 10099 21019 40248 52013 333 55307 00402 10000 21167 30383 40914 51291 61550 55407 40784 90069 90401 91013 91113 91207 91305
AAXX 13064 40551 36/// /2614 10094 21018 333 90400 91017 91117 91213 91311
AAXX 13064 40552 35/60 /3013 10098 21018 40250 51010 333 55310 90069 90401 91017 91117 91215 91311
AAXX 13064 40553 35/61 /3112 10089 21016 40249 51016 333 55309 90069 90400 91013 91119 91217 91311
AAXX 13064 40568 36/// /2909 10099 20002 333 90401 91011 91111 91209 91305
AAXX 13064 40569 NIL
AAXX 13064 40570 35/70 /2908 10074 21039 40261 51006 333 55310 90069 90401 91011 91115 91213 91309
AAXX 13064 40571 NIL
AAXX 13064 40572 NIL
AAXX 13064 40573 36/// /3011 10083 21025 333 90401 91013 91115 91211 91309
AAXX 13064 40580 46/// /3006 10110 21003 333 553// 00420 10021 21020 30238 40927 51302 61259 55407 40782 90400 91011 91111 91205 91303
AAXX 13064 40581 36/// /2704 10107 20009 333 90400 91013 91115 91205 91303
AAXX 13064 40582 31957 03205 10096 21020 40252 51016 70500 333 55310 00484 10000 21169 30381 40984 51283 61550 55407 40789 90400 91005 91107 91207 91305
AAXX 13064 40583 NIL
AAXX 13064 40585 36/// /2913 10110 20022 222// 1//// 3//// 4//// 70/// 333 90401 91019 91121 91213 91311
AAXX 13064 40586 36/// /2806 10107 21019 333 90400 91011 91115 91209 91305
AAXX 13064 40587 36/// /2908 10106 21018 333 553// 00442 10000 21207 30392 40900 51268 61599 55407 40814 90400 91011 91113 91211 91305
AAXX 13064 40588 35/63 /3113 10095 20005 40247 51017 333 55308 90069 90400 91015 91117 91213 91309
AAXX 13064 40589 NIL
AAXX 13064 40590 36/// /3211 10092 21021 333 90401 91013 91115 91211 91309
AAXX 13064 40591 NIL
AAXX 13064 40592 35/70 /3208 10123 21023 40253 51013 333 55310 00555 10000 21280 30325 40925 51317 61605 55407 40955 90069 90400 91013 91113 91207 91305
AAXX 13064 40593 36/// /3207 10111 20004 333 90400 91013 91117 91211 91309
AAXX 13064 40594 36/// /3307 10110 21016 333 90400 91013 91115 91207 91305
AAXX 13064 40596 46/// /3014 10135 20078 333 90401 91017 91129 91221 91317
AAXX 13061 37395 32999 20905 10068 21018 30160 40303 53009 82030 333 20038
AAXX 13061 37409 32998 00906 10000 21015 38841 48554 52003 333 21022 95000
AAXX 13061 37432 32697 20000 11035 21060 39053 48565 57001 82200 333 21040
AAXX 13061 37514 32999 00000 11050 21074 39155 40374 52011 333 21081
AAXX 13061 37545 32999 53402 10022 20000 39803 40333 52005 85031 555 20013 7000/
AAXX 13061 37621 32999 10000 11002 21062 39680 40348 52003 80030 333 21007
AAXX 13061 37484 NIL
AAXX 13064 16546 12566 42203 10094 20075 30181 40210 52010 69962 84800 333 20088 30/// 55/// 2//// 82825 83635
AAXX 13061 37575 42999 00202 10014 21031 39742 40350 52001
AAXX 13061 37675 42495 82502 10009 21005 39656 40338 52003 8802/
AAXX 13061 37735 42596 81001 10031 20013 39882 40267 52007 885//
AAXX 13061 37749 NIL
AAXX 13061 37756 42999 02802 11004 21038 39452 40389 53002
AAXX 13061 37864 32697 83202 10064 20050 40332 53006 85500 333 20030 85633 555 30///
AAXX 13061 37985 42597 82301 10074 20065 30343 40328 54000 885//
AAXX 13061 33325 11396 81803 10036 20029 39910 40181 57006 69902 71052 886// 333 20022 88707
AAXX 13064 89667 46/// /0809 11049 29067 39828 4//// 5////
AAXX 13064 89667 46/// /0808 11050 29063 39828 4//// 5////
AAXX 1306/ 89869 46/// ///// 11046 39774 4//// 5////
AAXX 1306/ 89329 46/// ///// 11140 38711 4//// 5////
AAXX 1306/ 89332 46/// ///// 11074 39219 4//// 5////
AAXX 1306/ 89828 46/// ///// 11214 36414 4//// 5////
AAXX 1306/ 89872 46/// ///// 11038 39775 4//// 5////
AAXX 1306/ 89869 46/// ///// 11048 39775 4//// 5////
AAXX 1306/ 89866 46/// ///// 11053 39715 4//// 5////
AAXX 1306/ 89329 46/// ///// 11140 38708 4//// 5////
AAXX 1306/ 89799 46/// ///// 11303 4//// 5////
AAXX 1306/ 89327 46/// ///// 11011 39612 4//// 5////
AAXX 1306/ 89332 46/// ///// 11074 39219 4//// 5////
AAXX 1306/ 89769 46/// ///// 11045 39800 4//// 5////
AAXX 1306/ 89828 46/// ///// 11210 36415 4//// 5////
AAXX 1306/ 89108 46/// ///// 11276 36857 4//// 5////
AAXX 1306/ 89879 46/// ///// 11010 39673 4//// 5////
AAXX 1306/ 89314 46/// ///// 11148 38148 4//// 5////
AAXX 13064 89577 46/// /0906 11354 35694 4//// 5////
AAXX 13064 89578 46/// /0609 11354 36752 4//// 5////
AAXX 13064 91487 NIL
AAXX 13064 91490 NIL
AAXX 13064 91533 NIL
AAXX 13064 91601 NIL
AAXX 13064 91610 11599 40710 10284 20240 40065 53006 60001 70200 82201 333 562/9 82818 81080
AAXX 13064 91623 NIL
AAXX 13064 91629 NIL
AAXX 13064 91701 11399 80918 10268 2026/ 60021 76086 82768 333 56299 85614 85359 85175
AAXX 13061 33325 11396 81803 10036 20029 39910 40181 57006 69902 71085 886// 333 20022 88707
AAXX 13064 06610 32469 72307 10020 21012 39566 40161 57020 8117/ 333 21004 31103 55001 55300 20000 70035 81810 87358 90768 93100 91117 91209
AAXX 13064 06670 32980 70902 10010 21016 39630 40153 57019 8701/ 333 21013 34104 55000 55300 20000 70036 82360 87463 90768 93100 91112 91209
AAXX 13064 06700 32981 82307 10019 21012 39670 40174 57017 8802/ 333 21021 31104 55006 55300 20000 70094 84365 88470 90768 93100 91113 91208
AAXX 13064 06680 03/// /2533 11054 21160 37439 47970 57006 69992 333 21114 55000 55300 20000 60005 70260 91148 91238
AAXX 13064 06990 31950 41506 10035 21053 39604 40159 57022 70511 80001 333 20013 31102 55000 55300 20000 70028 84065 91119 91208
AAXX 13064 06760 32984 70202 10037 21050 39726 40182 52008 81038 333 20034 3/000 55000 55300 20000 70033 81359 87272 90768 93100 91113 91206
AAXX 13064 06720 33/// /0704 11005 21029 39617 40212 57014 333 21030 3/107 55000 55300 20000 70047 91107 91205
AAXX 13064 68298 36/// /1404 1//// 2//// 39477 4//// 52004 333 2//// 91006 555 1//// 91014
AAXX 13061 48845 32498 83401 10194 20112 30182 40189 57026 888// 333 59016 81894 88697
BBXX PFBF 13063 99056 31152 41698 63514 10286 20192 40085 58014 71582 83378 22223 02302 20402 30000 4//// 5//// 80221
BBXX A8MW6 13064 99363 70077 41598 73506 10170 20119 40260 57005 70322 8/8// 22262 00210 2//// 330// 4//01 5//// 80140
AAXX 13061 48840 32998 00000 10207 20099 30176 40182 57030 333 59019
AAXX 13061 50468 32970 71601 11148 21197 30018 40246 57015 80002 333 21253
AAXX 13061 50953 32965 71604 11038 21132 30019 40206 57039 80002 333 21147
AAXX 13061 51076 NIL
AAXX 13061 51243 NIL
AAXX 13061 51288 32980 51401 11048 21201 38399 52014 80002 333 00651 21113
AAXX 13061 51463 NIL
AAXX 13061 51573 NIL
AAXX 13061 51709 NIL
AAXX 13061 52533 NIL
AAXX 13061 52652 NIL
AAXX 13061 52866 32968 02001 11002 21157 37710 57019 333 00251 21154
AAXX 13061 52983 NIL
AAXX 13061 53463 32970 22201 11024 21136 38981 40272 57008 80002 333 05400 21103
AAXX 13061 53513 32970 02903 11001 21152 39024 40288 54000 333 00001 21104
AAXX 13061 53588 NIL
AAXX 13061 53772 NIL
AAXX 13061 53915 NIL
AAXX 13061 54218 32770 72504 10013 21099 39383 40210 57022 87502 333 21100
AAXX 13061 54337 32960 62006 10058 21007 30127 40212 57031 84032 333 21047
AAXX 13061 54342 NIL
AAXX 13061 54401 NIL
AAXX 13061 54471 32760 71805 10045 21035 30224 40230 57029 85502 333 21075
AAXX 13061 54497 32670 71802 10015 21086 30257 40274 57015 875// 333 21081
AAXX 13061 54511 NIL
AAXX 13061 54823 32962 02504 10087 21075 30027 40240 57027 333 20004
AAXX 13061 56080 NIL
AAXX 13061 56096 NIL
AAXX 13061 57083 31958 02001 10103 21024 30101 40240 57029 70500 333 21013
AAXX 13061 56187 32961 81801 10092 21018 39573 40232 57032 8807/ 333 05252 20021
AAXX 13061 56778 NIL
AAXX 13061 57265 NIL
AAXX 13061 57461 NIL
AAXX 13061 57494 NIL
AAXX 13061 57516 NIL
AAXX 13061 57687 32965 02501 10140 21042 30159 40244 57032 333 20044
AAXX 13061 57816 31659 81601 10080 20033 38806 40214 57031 71000 885// 333 05302 20038
AAXX 13061 58040 31758 32004 10104 20004 30238 40252 57025 70500 83500 333 21012
AAXX 13061 58102 32970 02201 10093 21054 30204 40253 57030 333 21002
AAXX 13061 58150 31556 71101 10112 20030 30252 40256 57016 70500 875// 333 21005
AAXX 13061 58221 32960 00201 10095 21038 30221 40250 57031 333 21018
AAXX 13061 58238 NIL
AAXX 13061 58251 NIL
AAXX 13061 58362 NIL
AAXX 13061 58457 31950 00702 10116 21005 30187 40241 57035 70500 333 20009
AAXX 13061 58606 NIL
AAXX 13061 58752 NIL
AAXX 13061 58847 NIL
AAXX 13061 59117 NIL
AAXX 13061 59134 NIL
AAXX 13061 59287 NIL
AAXX 13061 59316 NIL
AAXX 13061 59431 NIL
AAXX 13061 59644 32965 23203 10204 20040 30172 40189 57035 80002 333 20104
AAXX 13061 59758 NIL
AAXX 13060 67423 11382 83202 10232 20216 39522 48540 60324 70396 86938 333 20227 5//// 55/// 58015 70323 82706 84612 81915 88280 555 10316 7//96
AAXX 13060 67791 31570 72502 10237 20204 70522 84538 333 20190 5//// 55018 84620 85359 87275 555 10264 7//92
AAXX 13064 48350 31958 21605 10252 20147 39840 40140 57032 70540 80005 333 59018
AAXX 13064 48409 31957 43506 10255 20150 39986 40134 57025 70511 80005 333 59007
AAXX 13064 48481 32960 63302 10289 20234 30094 40121 57013 81047 333 58000
AAXX 13064 48360 32960 01203 10242 20110 39882 40144 57024 333 59013
AAXX 13064 48440 31958 70905 10292 20170 30078 40128 57027 70510 80006 333 59005
AAXX 13061 01205 46/// ///// 10066 21010 39715 49759 58040 333 20033
AAXX 13060 67423 11382 83202 10232 20216 39522 48540 60324 70396 86938 333 20227 5//// 55/// 58015 70323 82706 84612 81915 88280 555 10316 7//96
AAXX 13060 67791 31570 72502 10237 20204 70522 84538 333 20190 5//// 55018 84620 85359 87275 555 10264 7//92
AAXX 13064 17280 12970 01901 11008 21040 39462 40287 52010 60002 333 21053 34108 50071 55070 20301
AAXX 13061 33325 11396 81803 10036 20029 39910 40181 57006 69902 71085 886// 333 20022 88707
AAXX 13064 65306 31940 50606 10183 20031 39802 40136 70522 80002 333 01200 20180 50844 55077 58002 85076
AAXX 13064 65319 31920 53204 10203 20018 39615 40130 70522 80002 333 01900 20195 50694 55068 58002 85076
AAXX 13064 65330 31906 50408 10183 20042 39678 40117 70544 80002 333 01800 20183 50814 55064 00396 58003 85076
AAXX 13064 65335 31920 50000 10185 20111 39893 40118 70522 80002 333 01600 20180 50514 55070 59001 85076
AAXX 13064 65344 31920 53604 10220 20190 30094 40105 71022 80002 333 02100 20218 50554 55054 58000 85076
AAXX 13064 91371 32474 40916 10278 20263 30084 40087 82313 333 56229 84815 82380 70000 555 91306
AAXX 13064 64500 31358 51004 10250 20235 30093 40106 79299 84902 333 02400 20240 50111 55050 58003 84608 81920 85073 94948 95838
AAXX 13064 64501 32360 41604 10255 20240 3//// 4//// 83230 333 0//00 20255 50334 55079 5//// 83808 84360 94919 95839
AAXX 13064 64560 32158 6//// 10216 20213 39575 40111 83530 333 0//00 20214 50054 55/// 58004 83702 83616 85360
BBXX 44139 13061 99442 70571 46/// /2408 10075 40326 57015 22200 00092 10704 70018 333 91209
AAXX 13064 89002 41492 80932 11061 21072 39689 49742 57012 73933 887// 333 00938 92952 96111
AAXX 13061 63330 31470 11510 10126 20081 37794 40263 7050/ 81530 333 20090 55100 59008 81616
AAXX 13061 63331 31970 00203 10202 20097 38055 40235 7050/ 333 20135 58001
AAXX 13061 63332 32580 51702 10170 20120 38213 40118 84830 333 20100 59002 82824 82625 82357
AAXX 13061 63333 32580 12101 10152 20079 38186 40216 81100 333 20070 59001 81824
AAXX 13061 63334 NIL
AAXX 13061 63340 12580 31801 10155 20131 37947 40170 69934 83100 333 20130 59001 83824
AAXX 13061 63402 31556 20000 10154 20135 38352 4//// 7104/ 81230 333 20109 59018 81827 82360
AAXX 13061 63403 11070 41102 10170 20139 60064 7102/ 81630 333 20130 81700 84360
AAXX 13061 63450 32580 11005 10133 20081 37742 40150 81500 333 20065 58000 81625
AAXX 13061 63451 32980 00000 10146 20045 38156 40153 333 20036 58001
AAXX 13061 63453 31970 03401 10200 2//// 39100 7050/ 333 20095 58002
AAXX 13061 63460 32980 00000 10164 20087 333 20080
AAXX 13061 63471 31980 00000 10208 20081 38882 40153 705// 333 20112 59004
AAXX 13061 63474 32580 00202 10136 20045 333 20030
AAXX 13061 63478 32980 00302 10255 20152 39807 40186 333 20172 59008
AAXX 13061 63500 31570 60000 10220 20147 7052/ 82150 333 20140 82820 85359
AAXX 13061 63533 NIL
AAXX 13061 NNNN
AAXX 13064 64560 32158 6//// 10216 20213 39575 40111 83530 333 0//00 20214 50054 55/// 58004 83702 83616 85360
AAXX 13061 26045 01462 81806 10014 20004 30013 40016 57015 69942 72162 886// 333 10015 20002 42997 69917 88710 91011 91112 555 1/000 20002 3/100 50012
AAXX 13061 26115 27477 82508 10061 20039 39977 49985 53006 70086 88/// 333 10062 20024 60017 88/14 91012 91114 555 1/005 20024 3/002 50044
AAXX 13061 26247 01461 81804 10017 20005 39972 40051 58006 69972 72052 875// 333 10017 21001 42001 60007 87620 91108 555 1/000 21001 3/100 50010
AAXX 13061 26058 27357 71705 10008 20000 30030 40038 56019 75277 87/// 333 10015 21001 69957 87/07 91011 91111 555 1/100 21001 3/101 50011 52100
BBXX 44139 13061 99442 70571 46/// /2408 10075 40326 57015 22200 00092 10704 70018 333 91209
AAXX 13061 11816 11470 53205 10050 20015 30008 40174 53004 69902 70262 85500 333 20040 31004 79999 81713 85628
BBXX 42362 13061 99278 70907 46/// /0809 10217 20156 40254 58004 90600
BBXX 42363 13061 99282 70892 46/// /0910 10200 20139 40261 58003 90600 333 91210
BBXX 42364 13061 99291 70881 46/// /0707 10183 20144 40264 58007 90600
BBXX 41038 13061 99341 70777 46/// /0207 10117 40284 58008 90600 22200 00142 333 91209
BBXX 46035 13061 99571 71778 46/// /0814 1//// 49805 57036 90550 333 91217 555 11135 22144
BBXX A8EH3 13063 99537 71766 41/// 80848 10030 21021 49600 57080 76366 89/// 22223 04050 20708 80010
BBXX DAJC 13063 99318 71501 41598 20705 10200 20135 40240 54000 70211 8221/ 22224 04200 21003 307// 41204 5//// 80160
BBXX DQVG 13063 99350 71656 41196 82327 10185 20177 40081 53010 78166 8/6// 22264 00193 20708 329// 41206 5//// 80180
BBXX NWS0003 13064 99592 71679 43/// /1222 10018 20002 49993 5//// 7//// 8//// 222// 04014 2//// 3//// 4//// 5//// 6//// 8//// ICE /////
BBXX SHIP 13064 99370 71553 41/97 81917 10170 20137 40195 52011 70222 8//// 90555 22224 00160 1//// 2//// 3//// 4//// 5//// 6//// 80150
BBXX SHIP 13064 99342 71538 41698 22314 10190 20160 40250 5//// 70120 81/6/ 22263 00200 20802 328// 41402 5//// 6//// 80170 ICE /////
BBXX 3FSB4 13064 99402 11769 437// 32934 10110 20070 40090 54000 7//// 83//2 22224 0//// 20909 3//// 40810 5//// 6//// 80090 ICE /////
BBXX 3FZK3 13064 99529 11767 46/// /3037 10007 21053 49775 58019 7//// 8//// 22223 0//// 2////
BBXX 4XFV 13063 99506 11623 41198 62722 00/// 11015 21025 49945 52015 70372 86263 22264 0//// 20404 325// 40608 5//// 6//// 81020
BBXX DMRX 13064 99481 11770 41298 43034 10014 21011 49903 53010 70170 81778 22224 00080 20310 32434 40510 50508 80004
BBXX LAOX5 13064 99309 11655 41297 82327 10200 20180 40140 57014 75855 8862/ 22223 00200 21003 300// 41205 5//// 6//// 80190
BBXX LAYG5 13064 99512 11796 41/92 93157 10020 21030 49690 55025 75354 8//// 22252 00064 21006 3//// 4//// 5//// 80000
BBXX VRHO2 13064 99526 11777 41697 43240 10040 20017 49770 52060 78166 84900 22263 00050 20612 33232 40512 50612 6//// 80030 ICE /////
AAXX 13064 68006 36/// /1804 10214 20091 38912 48490 52010 333 20169 91006 555 10348 91014
AAXX 13064 68102 36/// /2007 10165 20002 38736 48483 52016 333 20117 91010 555 10335 91015
AAXX 13061 48892 12598 80903 10290 20260 30085 40090 58017 60043 889// 333 58034 83995 86697
AAXX 13061 48839 32998 60207 10168 20104 30121 40188 58025 80008 222// 00215 2//02 333 59016 86299
AAXX 13061 48826 31956 62302 10216 20115 30048 40184 58029 71022 80008 333 59015 86299
AAXX 13061 48870 32474 73604 10244 20174 30126 40133 58021 878// 333 59015 83894 87696
AAXX 13061 48887 01765 81102 10269 20227 30097 40403 57020 69903 76062 885// 333 59003 69901 88697 96160
AAXX 13061 48877 32570 83403 10250 20191 30110 40115 57008 888// 333 59013 83895 88696
AAXX 13061 48920 01598 61105 10296 20264 30071 40074 58010 60053 70382 868// 222// 00289 2//01 333 58002 6991 1 82895 85697
AAXX 13061 48808 32970 01801 10198 20076 39905 40190 57041 333 59015
AAXX 13061 48830 32970 03601 10188 20045 39875 40185 57037 333 59020
AAXX 13061 01228 46/// /1707 10044 21018 39799 49806 57009 333 20032 91117
AAXX 13061 01340 16/// /0913 11006 21036 38956 49809 58049 69932 333 21082 70006 91118
AAXX 13061 01425 16/// /1708 10048 20035 39714 49791 56064 60152 333 20002 70295 91116
AAXX 13061 01392 11580 51501 10007 21006 39680 49905 58008 60012 70310 82140 333 20006 43009 70051 91108
AAXX 13061 01092 46/// /1503 11027 21076 333 21044 91108
AAXX 13061 01245 11880 43404 10000 21077 39145 49839 58008 60002 70220 84030 333 21012 49030 70000 91109
AAXX 13061 01329 11463 80607 10043 20008 39717 49777 58060 60042 71582 888// 333 20005 43004 70143 91113
AAXX 13061 01337 16/// /0703 10017 21005 39728 49793 58052 60022 333 20004 70043 91107
AAXX 13061 01436 11335 81619 10070 20053 60022 76186 887// 333 20064 70071 91125
AAXX 13061 01144 41886 51109 10007 21047 70222 82048 333 20002 91120
AAXX 13064 91324 11474 81309 10278 20243 30055 40057 60101 70282 8523/ 333 56399 70107 85818 88462 555 91306
AAXX 13064 91329 32474 80910 10294 20267 30098 40101 84107 333 562/9 70000 84818 88275 555 91306
AAXX 13064 91336 11474 80819 10300 20244 30125 40128 60021 70282 83101 333 562/9 70043 83818 88075 555 91306
AAXX 13064 91339 32474 80810 10289 20243 30051 40057 83202 333 562/9 70000 83818 88075 555 91306
AAXX 13064 91320 11474 80415 10294 20278 30081 40086 60011 70262 8291/ 333 56199 70145 82915 86464 555 91306
AAXX 13061 01370 16/// /0501 11076 21083 38785 49970 57013 60002 333 21094 4/027 70065 91108
AAXX 13061 01419 16/// /1703 10039 20008 60032 333 20021 70158 91115
AAXX 13061 01156 16/// /0804 11001 21050 39823 49833 56017 60002 333 21008 70000 91109
AAXX 13061 01265 16/// /2601 11139 21153 39298 49902 58008 60002 333 21143 70021 91103
AAXX 13061 01273 16/// /2301 11017 21061 39650 49845 57007 60002 333 21038 70000 91106
AAXX 13061 01469 16/// /3201 11017 21030 39712 49884 58025 60002 333 21028 70031 91105
AAXX 13064 71450 16/// /1711 11058 21073 39490 40228 58012 60001 333 11058 21110 70000
AAXX 13064 71455 46/// /1913 11060 21065 39403 40221 58014 6///1 333 11060 21109 7//// 555 31917 40061
AAXX 13064 71456 16/// /2114 11074 21084 39613 40228 56021 60001 333 11074 21134 70000 555 32222 40041
AAXX 13064 71465 46/// /2704 10027 21033 30085 40306 50003 6///1 333 10046 20023 7//// 555 32018 40081
AAXX 13064 71470 16/// /3417 11112 21124 39178 49787 53008 60001 333 11085 21159 7////
AAXX 13064 71476 17/// /1509 30118 58006 60031 7//4/ 333 7////
AAXX 13064 71478 17/// /1738 10057 20055 30005 40141 56014 69941 7//4/ 333 10058 20038 7////
AAXX 13064 71479 16/// /1129 10046 20036 30039 40160 58015 60001 333 10058 20023 7////
AAXX 13064 71480 16/// /3107 11104 21127 39858 49979 51056 60001 333 11054 21141 70003 555 10020 20003 33024 40001
AAXX 13064 71482 46/// /0709 10000 30134 40173 57018 6///1 333 10018 7////
AAXX 13064 71484 16/// /0804 10025 20018 30097 40115 58011 60001 333 10064 20025 7////
AAXX 13064 71492 46/// ///09 11264 21288 39244 49947 53039 6///1 333 11116 21264 7////
AAXX 13064 71356 17/// /1720 11122 21134 39835 49901 58065 69931 7//4/ 333 11113 21268 70003 555 31824 40061
AAXX 13064 71361 16/// /2715 10014 21073 39692 49895 53012 60001 333 10029 21086 70000 555 32328 40162
AAXX 13064 71362 16/// /2211 11015 21070 39671 49923 56007 60001 333 11014 21118 70000 555 32217 40061
AAXX 13064 71364 16/// /0207 11195 21219 39915 40051 51045 60001 333 11078 21195 70000 555 30225 40021
AAXX 13064 71365 16/// /3010 10030 21062 39706 49912 53044 60001 333 10032 21140 70000 555 32429 40202
AAXX 13064 71381 46/// /1803 10003 21006 6///1 333 21005 70000
AAXX 13064 71669 16/// /2602 11195 21210 38515 40200 50002 60001 333 11060 21206 7////
AAXX 13064 71402 46/// /3113 11047 21094 30152 40270 50012 6///1 333 11029 21087 7//// 555 32636 40073
AAXX 13064 71407 16/// /1417 11239 21268 39982 40003 58026 60001 333 11216 21343 70000 555 31722 40051
AAXX 13064 71551 16/// /1910 11057 21066 39547 40226 56016 60001 333 11057 21094 70000 555 31818 40051
AAXX 13064 71552 46/// /1702 11139 21155 6///1 333 11061 21141 7//// 555 33618 40081
AAXX 13064 71579 16/// /2102 11095 21109 30012 40308 56005 60001 333 11062 21124 70000 555 30217 40081
AAXX 13064 71581 16/// /0000 10000 21005 39786 40276 58004 60001 333 10006 70000
AAXX 13064 71585 16/// /2210 11016 21078 39591 40052 56009 60001 333 11009 21188 70000 555 32120 40001
AAXX 13064 71599 16/// /2201 11002 21002 30093 40299 58010 60001 333 10090 21060 70000
AAXX 13064 71311 16/// /0000 11037 21045 30260 40285 58012 60001 333 10073 21040 70000 555 32421 40151
AAXX 13064 71317 16/// /0202 11021 21024 30243 40291 56008 60001 333 10069 21090 70000 555 32817 40201
AAXX 13064 71321 16/// /3309 11236 21262 30117 40162 51004 60001 333 11153 21236 70000 555 33224 40141
AAXX 13064 71332 17/// /3524 11194 21214 39848 49877 53047 69931 7//4/ 333 11132 21233 70003 555 10140 20003 33529 40062
AAXX 13064 71334 46/// /2112 11111 21145 39737 40071 57042 6///1 333 11099 21251 7//// 555 32124 40061
AAXX 13064 71243 16/// /2005 11123 21144 39079 40219 56008 60001 333 11044 21150 7////
AAXX 13064 71246 16/// /2105 11032 21085 39398 40064 53005 60001 333 11021 21113 7////
AAXX 13064 71954 46/// /2009 11084 21092 39823 40212 56029 6///1 333 11084 21278 7////
AAXX 13064 71956 17/// /2707 10036 20033 30032 40267 52005 60031 7//4/ 333 10049 20019 70030 555 32417 40031
AAXX 13064 71959 16/// ///// 11015 21028 60001 333 10050 21021 70000
AAXX 13064 71970 16/// /2208 11071 21088 39568 40169 56016 60001 333 11059 21116 70000 555 31921 40031
AAXX 13064 71977 46/// /0702 11154 21154 39314 40026 51028 6///1 333 11091 21202 7//// 555 10060
AAXX 13064 71978 46/// /0209 11202 21223 39736 40054 53028 6///1 333 11150 21202 7//// 555 10010
AAXX 13064 71989 16/// /3410 11342 21377 30055 40072 51012 60001 333 11324 21395 7//// 555 10010
AAXX 13064 71137 16/// /1911 11070 21077 39254 40222 58014 60001 333 11043 21074 70000
AAXX 13064 71441 46/// /2703 11109 21121 39990 40313 50002 6///1 333 11070 21147 7//// 555 30020 40121
AAXX 13064 71444 16/// /2103 11099 21107 39499 40285 56010 60001 333 11090 21190 70000
AAXX 13064 71472 16/// /0604 10053 20008 30102 40119 58010 60001 333 10069 20045 7////
AAXX 13064 71861 46/// /1912 11085 21095 39516 40264 58008 6///1 333 11067 21086 7////
AAXX 13064 71110 16/// /2902 11003 21013 30233 40294 50006 60001 333 10011 21042 70021 555 32332 40192
AAXX 13064 71139 16/// /1807 11087 21097 38694 40184 56012 60001 333 11075 21094 70014
AAXX 13064 71141 17/// /1427 11191 21208 39809 49835 56035 69931 7//4/ 333 11190 21322 7////
AAXX 13064 71147 16/// /2203 11164 21181 60001 333 11068 21164 70000 555 33420 40081
AAXX 13064 71149 16/// /1504 11166 21182 60001 333 11084 21180 70000
AAXX 13064 71885 16/// ///// 11096 60001 333 11050 21156 7////
AAXX 13064 71043 11559 72912 11105 21135 39891 49984 51055 69961 77177 87500 333 11067 21210 48021 70022 90973 93101 555 10022 20022 32925 40231
AAXX 13064 71868 16/// /2009 11064 21080 39783 40237 58022 60001 333 11064 21124 70000
AAXX 13064 71732 17/// /1902 10018 20014 60011 7//4/ 333 10053 20017 70012 555 31719 40081
AAXX 13064 71734 16/// /3603 11008 21015 39874 40272 51004 60001 333 10009 21009 70000 555 32219 40101
AAXX 13064 71736 46/// ///// 11060 21123 6///1 333 11056 21154 7////
AAXX 13064 71742 46/// /2706 11047 21074 30089 40281 51011 6///1 333 11011 21096 7//// 555 32828 40072
AAXX 13064 71744 16/// /0000 11060 21070 30237 40279 56013 60001 333 10030 21083 70000 555 32818 40191
AAXX 13064 71747 16/// /0903 11082 21087 39818 40309 51004 60001 333 11025 21163 70000
AAXX 13064 71833 46/// /2902 11046 21054 6///1 333 10040 21055 7////
AAXX 13064 71837 16/// ///// 11113 60001 333 11056 21139 7////
AAXX 13064 71839 47/// ///// 11173 6///1 7//4/ 333 11052 21176 7////
AAXX 13064 71849 16/// /1805 11100 21110 30004 40318 56006 60001 333 11062 21155 70000 555 30018 40091
AAXX 13064 71946 12874 72909 10018 21063 39712 49920 53044 60001 87030 333 10030 21139 70000 555 10000 20000 31935 40191
AAXX 13064 71156 16/// /2703 11047 21057 39014 40136 55013 60001 333 11044 21230 70000
AAXX 13064 71158 16/// /1403 11171 21187 30002 40293 58020 60001 333 11137 21249 70000
AAXX 13064 71159 16/// /0000 11009 21018 30200 40274 58001 60001 333 11005 21061 70050 555 32629 40162
AAXX 13064 71160 16/// /2004 11042 21056 39619 49827 56019 60001 333 11042 21085 7////
AAXX 13064 71162 16/// /2520 11007 21044 39639 49842 53006 60001 333 7////
AAXX 13064 71164 46/// /3506 11150 21171 39954 40035 53050 6///1 333 11085 21182 7////
AAXX 13064 71165 46/// ///21 11070 21095 39584 49863 53056 6///1 333 11030 21124 7////
AAXX 13064 71166 46/// /2309 39343 6///1 333 7////
AAXX 13064 71170 16/// /1706 11114 21133 60001 333 11064 21151 70000 555 30118 40071
AAXX 13064 71752 16/// /2502 11033 21038 30083 40305 57001 60001 333 10047 21043 70000
AAXX 13064 71758 16/// /2305 11045 21047 30217 40296 55010 60001 333 10029 21069 70000 555 32428 40172
AAXX 13064 71771 46/// /3205 10055 20035 30099 40120 58011 6///1 333 10068 20036 7////
AAXX 13064 71614 16/// /0000 11055 21068 30216 40283 56005 60001 333 10070 21082 70000
AAXX 13064 71619 16/// /3402 11015 21029 30216 40275 56006 60001 333 11007 21043 70000 555 32419 40081
AAXX 13064 71719 16/// /1703 10003 21009 30274 40280 56004 60001 333 10015 21039 70000 555 32222 40081
AAXX 13064 71501 16/// /0808 11225 21248 30080 40082 52028 60001 333 11136 21225 7//// 555 10010
AAXX 13064 71514 16/// /1909 11057 21074 39534 40252 55006 60001 333 11056 21086 70000 555 31820 40061
AAXX 13064 71522 46/// /2901 11048 21064 39769 40266 58005 6///1 333 11016 21076 70000
AAXX 13064 71727 11532 81003 11010 21016 30062 40263 57008 69901 78582 885// 333 10020 21049 47018 79999 90937 555 19999 29999
AAXX 13064 71800 16/// /3009 10009 21004 30264 40298 53016 60001 333 10027 21055 70000 555 32437 40233
AAXX 13064 71807 16/// /3011 10009 21038 30283 40302 53013 60001 333 10036 21033 70000 555 32436 40183
AAXX 13064 71087 46/// /2608 10003 21070 39696 49894 53023 6///1 333 7////
AAXX 13064 71015 16/// ///// 11111 60001 333 11067 21127 7////
AAXX 13064 71017 16/// /0715 11236 21261 39922 49937 58008 60001 333 11236 21296 7////
AAXX 13064 71019 46/// /1501 11073 21073 39967 40276 58009 6///1 333 10033 21080 7//// 555 32118 40101
AAXX 13064 71020 46/// /2607 10042 21090 39673 49919 53031 6///1 333 10055 21044 7////
AAXX 13064 71021 46/// /2813 10031 21089 39598 49939 51017 6///1 333 10043 21120 7////
AAXX 13064 71250 16/// /3106 11008 21041 30143 40282 53017 60001 333 10006 21059 70000 555 32731 40102
AAXX 13064 71270 16/// /3002 10032 21008 30065 40286 53002 60001 333 10076 21003 70000 555 32525 40071
AAXX 13064 71295 16/// /1402 11111 21124 39851 40316 58007 60001 333 11081 21161 70000
AAXX 13064 71296 16/// /2105 11005 21036 39978 40289 50001 60001 333 10058 70000 555 32117 40071
AAXX 13064 71920 16/// /2113 10070 20059 30289 40295 56020 60001 333 10080 20030 70000 555 32427 40161
AAXX 13064 91324 11474 81309 10278 20243 30055 40057 60101 70282 8523/ 333 56399 70107 85818 88462 555 91306
AAXX 13064 91329 32474 80910 10294 20267 30098 40101 84107 333 562/9 70000 84818 88275 555 91306
AAXX 13064 91336 11474 80819 10300 20244 30125 40128 60021 70282 83101 333 562/9 70043 83818 88075 555 91306
AAXX 13064 91339 32474 80810 10289 20243 30051 40057 83202 333 562/9 70000 83818 88075 555 91306
AAXX 13064 91320 11474 80415 10294 20278 30081 40086 60011 70262 8291/ 333 56199 70145 82915 86464 555 91306
BBXX 44022 13061 99409 70737 46/// ///04 10038 21065 40305 57006 90600 22200 00091 333 91205 555 11036 22036
AAXX 13064 71137 16/// /1911 11070 21077 39254 40222 58014 60001 333 11043 21074 70000
AAXX 13064 71868 16/// /2009 11064 21080 39783 40237 58022 60001 333 11064 21124 70000
AAXX 13064 71441 46/// /2703 11109 21121 39990 40313 50002 6///1 333 11070 21147 7//// 555 30020 40121
AAXX 13064 71444 16/// /2103 11099 21107 39499 40285 56010 60001 333 11090 21190 70000
AAXX 13064 71472 16/// /0604 10053 20008 30102 40119 58010 60001 333 10069 20045 7////
AAXX 13064 71727 11532 81003 11010 21016 30062 40263 57008 69901 78582 885// 333 10020 21049 47018 79999 90937 555 19999 29999
AAXX 13064 71800 16/// /3009 10009 21004 30264 40298 53016 60001 333 10027 21055 70000 555 32437 40233
AAXX 13064 71807 16/// /3011 10009 21038 30283 40302 53013 60001 333 10036 21033 70000 555 32436 40183
AAXX 13064 91753 04985 /3602 10253 20220 30062 40094 55005 60052 700// 333 10263 20231 3/022 55027 60007 70244 90710 91104 555 60005
AAXX 13064 91754 36/// /3302 10256 20219 30055 40096 55006 555 10273 20230 60374 60005
AAXX 13064 71861 46/// /1912 11085 21095 39516 40264 58008 6///1 333 11067 21086 7////
AAXX 13064 71043 11559 72912 11105 21135 39891 49984 51055 69961 77177 87500 333 11067 21210 48021 70022 90973 93101 555 10022 20022 32925 40231
AAXX 13064 71946 12874 72909 10018 21063 39712 49920 53044 60001 87030 333 10030 21139 70000 555 10000 20000 31935 40191
AAXX 13064 71719 16/// /1703 10003 21009 30274 40280 56004 60001 333 10015 21039 70000 555 32222 40081
AAXX 13064 61974 12580 42303 10307 20248 40114 60004 82202 333 20222 58010 82820 84075 94329
AAXX 13064 61986 12575 50605 10310 20260 40108 60004 81803 333 20268 58011 81820 85075 94321
AAXX 13064 61988 12475 30817 10273 20223 40133 60004 83802 333 20245 50562 58005 82818 91127
AAXX 13064 61989 12475 40914 10288 20231 40140 69924 84802 333 0//19 20242 58005 83818
AAXX 13064 61990 11220 70204 10266 20252 40128 60081 78082 87840 333 02411 20245 50462 58001 81705 86813 86650 94321
AAXX 13064 61995 11458 70807 10271 20213 39646 60024 71582 86342 333 02114 20222 50382 58000 82914 84815 94322
BBXX 41052 13061 99183 70648 46/// /3603 10260 40117 58010 90600 22200 00279 333 91204
BBXX 41053 13061 99185 70661 46/// /2003 10243 40123 57011 90600 22200 00279 11103 70015 333 91204
BBXX 41053 13061 99185 70661 46/// /2004 10242 40124 90550 333 91205
BBXX 41053 13061 99185 70661 46/// /2003 10244 40126 90540 333 91205
BBXX 41052 13061 99183 70648 46/// /0102 10260 40118 90550 333 91203
BBXX 41052 13061 99183 70648 46/// /0202 10261 40119 90540 333 91203
AAXX 13061 10815 02489 71904 11003 21023 39167 48401 57026 69902 86578 333 10015 21008 31102 4/998 55000 55300 20000 30000 69907 70162 83616 84650 87272
AAXX 13064 71885 16/// ///// 11096 60001 333 11050 21156 7////
AAXX 13064 71356 17/// /1720 11122 21134 39835 49901 58065 69931 7//4/ 333 11113 21268 70003 555 31824 40061
AAXX 13064 71361 16/// /2715 10014 21073 39692 49895 53012 60001 333 10029 21086 70000 555 32328 40162
AAXX 13064 71362 16/// /2211 11015 21070 39671 49923 56007 60001 333 11014 21118 70000 555 32217 40061
AAXX 13064 71364 16/// /0207 11195 21219 39915 40051 51045 60001 333 11078 21195 70000 555 30225 40021
AAXX 13064 71365 16/// /3010 10030 21062 39706 49912 53044 60001 333 10032 21140 70000 555 32429 40202
AAXX 13064 71381 46/// /1803 10003 21006 6///1 333 21005 70000
AAXX 13061 37279 32999 00000 10060 20009 30126 40272 58006 555 20012
AAXX 13061 37308 32999 00000 11042 21056 39662 40349 54000
AAXX 13061 37531 32999 00000 10003 21024 39596 40348 57004 333 21018 45002
AAXX 13061 37553 32699 61901 10025 21011 39660 40326 54000 85530 333 21013
AAXX 13061 37651 16/// ///00 10011 21006 3//// 4//// 5//// 60002 333 21018
AAXX 13061 37492 NIL
AAXX 13064 71402 46/// /3113 11047 21094 30152 40270 50012 6///1 333 11029 21087 7//// 555 32636 40073
AAXX 13064 71407 16/// /1417 11239 21268 39982 40003 58026 60001 333 11216 21343 70000 555 31722 40051
AAXX 13064 71669 16/// /2602 11195 21210 38515 40200 50002 60001 333 11060 21206 7////
AAXX 13064 71156 16/// /2703 11047 21057 39014 40136 55013 60001 333 11044 21230 70000
AAXX 13064 71158 16/// /1403 11171 21187 30002 40293 58020 60001 333 11137 21249 70000
AAXX 13064 71159 16/// /0000 11009 21018 30200 40274 58001 60001 333 11005 21061 70050 555 32629 40162
AAXX 13064 71160 16/// /2004 11042 21056 39619 49827 56019 60001 333 11042 21085 7////
AAXX 13064 71162 16/// /2520 11007 21044 39639 49842 53006 60001 333 7////
AAXX 13064 71164 46/// /3506 11150 21171 39954 40035 53050 6///1 333 11085 21182 7////
AAXX 13064 71165 46/// ///21 11070 21095 39584 49863 53056 6///1 333 11030 21124 7////
AAXX 13064 71166 46/// /2309 39343 6///1 333 7////
AAXX 13064 71170 16/// /1706 11114 21133 60001 333 11064 21151 70000 555 30118 40071
AAXX 13064 71243 16/// /2005 11123 21144 39079 40219 56008 60001 333 11044 21150 7////
AAXX 13064 71246 16/// /2105 11032 21085 39398 40064 53005 60001 333 11021 21113 7////
AAXX 13064 71110 16/// /2902 11003 21013 30233 40294 50006 60001 333 10011 21042 70021 555 32332 40192
AAXX 13064 71139 16/// /1807 11087 21097 38694 40184 56012 60001 333 11075 21094 70014
AAXX 13064 71141 17/// /1427 11191 21208 39809 49835 56035 69931 7//4/ 333 11190 21322 7////
AAXX 13064 71147 16/// /2203 11164 21181 60001 333 11068 21164 70000 555 33420 40081
AAXX 13064 71149 16/// /1504 11166 21182 60001 333 11084 21180 70000
AAXX 13064 71311 16/// /0000 11037 21045 30260 40285 58012 60001 333 10073 21040 70000 555 32421 40151
AAXX 13064 71317 16/// /0202 11021 21024 30243 40291 56008 60001 333 10069 21090 70000 555 32817 40201
AAXX 13064 71321 16/// /3309 11236 21262 30117 40162 51004 60001 333 11153 21236 70000 555 33224 40141
AAXX 13064 71332 17/// /3524 11194 21214 39848 49877 53047 69931 7//4/ 333 11132 21233 70003 555 10140 20003 33529 40062
AAXX 13064 71334 46/// /2112 11111 21145 39737 40071 57042 6///1 333 11099 21251 7//// 555 32124 40061
AAXX 13064 71833 46/// /2902 11046 21054 6///1 333 10040 21055 7////
AAXX 13064 71837 16/// ///// 11113 60001 333 11056 21139 7////
AAXX 13064 71839 47/// ///// 11173 6///1 7//4/ 333 11052 21176 7////
AAXX 13064 71849 16/// /1805 11100 21110 30004 40318 56006 60001 333 11062 21155 70000 555 30018 40091
AAXX 13064 71551 16/// /1910 11057 21066 39547 40226 56016 60001 333 11057 21094 70000 555 31818 40051
AAXX 13064 71552 46/// /1702 11139 21155 6///1 333 11061 21141 7//// 555 33618 40081
AAXX 13064 71579 16/// /2102 11095 21109 30012 40308 56005 60001 333 11062 21124 70000 555 30217 40081
AAXX 13064 71581 16/// /0000 10000 21005 39786 40276 58004 60001 333 10006 70000
AAXX 13064 71585 16/// /2210 11016 21078 39591 40052 56009 60001 333 11009 21188 70000 555 32120 40001
AAXX 13064 71599 16/// /2201 11002 21002 30093 40299 58010 60001 333 10090 21060 70000
AAXX 13064 71732 17/// /1902 10018 20014 60011 7//4/ 333 10053 20017 70012 555 31719 40081
AAXX 13064 71734 16/// /3603 11008 21015 39874 40272 51004 60001 333 10009 21009 70000 555 32219 40101
AAXX 13064 71736 46/// ///// 11060 21123 6///1 333 11056 21154 7////
AAXX 13064 71742 46/// /2706 11047 21074 30089 40281 51011 6///1 333 11011 21096 7//// 555 32828 40072
AAXX 13064 71744 16/// /0000 11060 21070 30237 40279 56013 60001 333 10030 21083 70000 555 32818 40191
AAXX 13064 71747 16/// /0903 11082 21087 39818 40309 51004 60001 333 11025 21163 70000
AAXX 13064 71450 16/// /1711 11058 21073 39490 40228 58012 60001 333 11058 21110 70000
AAXX 13064 71455 46/// /1913 11060 21065 39403 40221 58014 6///1 333 11060 21109 7//// 555 31917 40061
AAXX 13064 71456 16/// /2114 11074 21084 39613 40228 56021 60001 333 11074 21134 70000 555 32222 40041
AAXX 13064 71465 46/// /2704 10027 21033 30085 40306 50003 6///1 333 10046 20023 7//// 555 32018 40081
AAXX 13064 71470 16/// /3417 11112 21124 39178 49787 53008 60001 333 11085 21159 7////
AAXX 13064 71476 17/// /1509 30118 58006 60031 7//4/ 333 7////
AAXX 13064 71478 17/// /1738 10057 20055 30005 40141 56014 69941 7//4/ 333 10058 20038 7////
AAXX 13064 71479 16/// /1129 10046 20036 30039 40160 58015 60001 333 10058 20023 7////
AAXX 13064 71480 16/// /3107 11104 21127 39858 49979 51056 60001 333 11054 21141 70003 555 10020 20003 33024 40001
AAXX 13064 71482 46/// /0709 10000 30134 40173 57018 6///1 333 10018 7////
AAXX 13064 71484 16/// /0804 10025 20018 30097 40115 58011 60001 333 10064 20025 7////
AAXX 13064 71492 46/// ///09 11264 21288 39244 49947 53039 6///1 333 11116 21264 7////
BBXX 42067 13061 99300 70886 46/// ///// 10123 20111 40275 90540 22200 00167 10402 70010
AAXX 13064 71501 16/// /0808 11225 21248 30080 40082 52028 60001 333 11136 21225 7//// 555 10010
AAXX 13064 71514 16/// /1909 11057 21074 39534 40252 55006 60001 333 11056 21086 70000 555 31820 40061
AAXX 13064 71522 46/// /2901 11048 21064 39769 40266 58005 6///1 333 11016 21076 70000
AAXX 13064 71015 16/// ///// 11111 60001 333 11067 21127 7////
AAXX 13064 71017 16/// /0715 11236 21261 39922 49937 58008 60001 333 11236 21296 7////
AAXX 13064 71019 46/// /1501 11073 21073 39967 40276 58009 6///1 333 10033 21080 7//// 555 32118 40101
AAXX 13064 71020 46/// /2607 10042 21090 39673 49919 53031 6///1 333 10055 21044 7////
AAXX 13064 71021 46/// /2813 10031 21089 39598 49939 51017 6///1 333 10043 21120 7////
AAXX 13064 71614 16/// /0000 11055 21068 30216 40283 56005 60001 333 10070 21082 70000
AAXX 13064 71619 16/// /3402 11015 21029 30216 40275 56006 60001 333 11007 21043 70000 555 32419 40081
AAXX 13064 71250 16/// /3106 11008 21041 30143 40282 53017 60001 333 10006 21059 70000 555 32731 40102
AAXX 13064 71270 16/// /3002 10032 21008 30065 40286 53002 60001 333 10076 21003 70000 555 32525 40071
AAXX 13064 71295 16/// /1402 11111 21124 39851 40316 58007 60001 333 11081 21161 70000
AAXX 13064 71296 16/// /2105 11005 21036 39978 40289 50001 60001 333 10058 70000 555 32117 40071
AAXX 13064 71954 46/// /2009 11084 21092 39823 40212 56029 6///1 333 11084 21278 7////
AAXX 13064 71956 17/// /2707 10036 20033 30032 40267 52005 60031 7//4/ 333 10049 20019 70030 555 32417 40031
AAXX 13064 71959 16/// ///// 11015 21028 60001 333 10050 21021 70000
AAXX 13064 71970 16/// /2208 11071 21088 39568 40169 56016 60001 333 11059 21116 70000 555 31921 40031
AAXX 13064 71977 46/// /0702 11154 21154 39314 40026 51028 6///1 333 11091 21202 7//// 555 10060
AAXX 13064 71978 46/// /0209 11202 21223 39736 40054 53028 6///1 333 11150 21202 7//// 555 10010
AAXX 13064 71989 16/// /3410 11342 21377 30055 40072 51012 60001 333 11324 21395 7//// 555 10010
AAXX 13064 71752 16/// /2502 11033 21038 30083 40305 57001 60001 333 10047 21043 70000
AAXX 13064 71758 16/// /2305 11045 21047 30217 40296 55010 60001 333 10029 21069 70000 555 32428 40172
AAXX 13064 71771 46/// /3205 10055 20035 30099 40120 58011 6///1 333 10068 20036 7////
AAXX 13064 71920 16/// /2113 10070 20059 30289 40295 56020 60001 333 10080 20030 70000 555 32427 40161
AAXX 13064 71087 46/// /2608 10003 21070 39696 49894 53023 6///1 333 7////
BBXX SKWI 13064 99415 70168 43/98 73028 10148 40178 53010 22263 00170 2//// 4////
BBXX SBLW 13063 99360 70323 43/98 62415 10181 40301 53004 22254 00190 2//// 4////
AAXX 13064 04211 47/36 /3609 11123 21134 39832 49996 52010 77177 333 11117 21129
AAXX 13064 04220 05984 10904 11087 21111 39913 49965 52012 6///2 333 11079 21096 55300 20004 6///7 70001 81/75
AAXX 13064 04221 45984 71505 11133 21192 39924 49963 52011 333 11100 21156 87/70
AAXX 13064 04231 12/84 00606 11188 21224 39899 49976 52008 6///2 333 11180 21211
AAXX 13064 04234 45984 40302 11098 21151 39949 49960 52009 333 11089 21117 84/64
AAXX 13064 04241 45/83 /1004 11087 21145 39912 49952 52011 333 11078 21091
AAXX 13064 04250 05984 70503 11084 21128 39840 49947 52017 6///2 333 11078 21088 55300 20000 6///7 70000 87/70
AAXX 13064 04254 45984 70806 11097 21150 39844 49961 52017 333 11078 21101 87/68
AAXX 13064 04260 45983 83511 11054 21161 39903 49947 52020 333 11049 21068 88/61
AAXX 13064 04270 45884 70704 11107 21186 39876 49916 52016 333 11104 21158 81/57 87/59
AAXX 13064 04272 05984 5//// 11086 21156 39840 49913 52019 6///2 333 11081 21105 6///7 70000 81/66 85/72
AAXX 13064 04312 46/// /3504 11279 21316 39996 40039 52010
AAXX 13064 04320 45/83 /3402 11257 21305 30016 40033 52006 333 11194 21303 55300
AAXX 13064 04339 47/84 ///// 11112 21149 39892 49985 57002 70087 333 11089 21134 55300 20000
AAXX 13064 04360 06/// /1604 11027 21124 39847 49917 52019 6///2 333 10017 21027 55300 20000 6///7 70040 91116
AAXX 13064 04361 469// 60721 11008 21131 39865 49917 52016 333 10006 21016 86/72 91151 91232
AAXX 13064 04390 07564 82811 11019 21108 39776 49869 52020 60022 78587 333 11011 21030 69947 70043 81/30 87/40 88/46
BBXX 44150 13061 99425 70640 46/// /2303 10081 40314 57017 22200 00096 10702 70011 333 91205
BBXX 44150 13061 99425 70640 46/// /2303 10081 40314 57017 22200 00096 10702 70011 333 91205
AAXX 13061 01218 16/// /1706 10069 21057 39781 49802 55027 60002 333 20040 70000 91115
AAXX 13061 01281 16/// /0203 11048 21067 39679 49855 57007 60002 333 21053 70006 91106
AAXX 13061 01026 16/// /2402 11049 21089 39726 49869 57026 6//// 333 21055 91105
AAXX 13061 01062 11315 81503 11021 21026 39970 49983 57001 60012 77172 887// 333 21037 44999 70023 91106
AAXX 13061 80400 NIL
AAXX 13061 80403 32460 10000 10254 20243 30092 40111 81200 333 30/// 56900 58001 81813 555 10114
AAXX 13061 80405 NIL
AAXX 13061 80407 NIL
AAXX 13061 80410 32460 41402 10210 20195 39445 40118 84600 333 30/// 56900 59019 84716 555 10157
AAXX 13061 80413 32960 00201 10214 20193 39622 40105 333 30/// 59002 555 10140
AAXX 13061 80415 32460 21101 10235 20214 30054 40111 82500 333 30/// 56900 58000 83816 555 10110
AAXX 13061 80419 32460 6//// 10255 20236 20220 30//5 40142 8382/ 333 30/// 5699/ 58011 83810 83456 555 10122
AAXX 13061 80421 NIL
AAXX 13061 80423 32460 2//// 10220 20213 30085 40102 82500 333 30/// 56200 58007 82610 555 10101
AAXX 13061 80428 32960 00000 10248 20220 39904 40086 333 30/// 58002 555 10100
AAXX 13061 80432 NIL
AAXX 13061 80435 NIL
AAXX 13061 80438 32560 30902 10181 20161 38514 48511 81501 333 30/// 56909 58008 81623 555 10196
AAXX 13061 80444 32960 0//// 10250 2//// 3 4//// 333 30/// 59003 555 10079
AAXX 13061 80447 32560 60000 10236 20222 39656 40073 865// 333 30/// 569// 59002 86620 555 10128
AAXX 13061 80448 NIL
AAXX 13061 80450 NIL
AAXX 13061 80453 NIL
AAXX 13061 80457 12460 6//// 10261 20230 30015 40100 60021 865// 333 30/// 569// 59001 86613 555 10100
AAXX 13061 80462 NIL
AAXX 13061 80402 NIL
AAXX 13061 80412 NIL
AAXX 13061 80416 NIL
AAXX 13061 80420 32960 01801 10253 20221 30094 40100 333 30/// 58000 555 10113
AAXX 13061 80425 32460 20701 10254 20237 30074 40105 82400 333 30/// 56900 59004 82613 555 10106
AAXX 13061 80426 32560 12301 10220 20115 39469 40110 81500 333 31/// 56900 58000 81630 555 10144
AAXX 13061 80427 32960 03402 10234 20224 39852 40102 333 30/// 59002 555 10121
AAXX 13061 80431 NIL
AAXX 13061 80434 NIL
AAXX 13061 80437 11460 30000 10244 20244 30004 40087 60021 70252 83500 333 32/// 56900 58006 83617 555 10094
AAXX 13061 80440 32560 30201 10243 20217 39882 40096 81508 333 30/// 56909 59009 81623 555 10102
AAXX 13061 80442 NIL
AAXX 13061 80472 32960 21801 10224 20214 39619 40094 80008 333 30/// 56009 58004 555 10121
AAXX 13061 80475 32460 60501 10207 20207 39755 40126 865// 333 31/// 569// 58016 86617 555 10137
AAXX 13061 80476 32360 6//// 10275 20266 30074 40104 865// 333 30/// 569// 59007 86610
AAXX 13061 80478 NIL
AAXX 13061 80479 NIL
AAXX 13061 80400 NIL
AAXX 13061 80403 32460 10000 10254 20243 30092 40111 81200 333 30/// 56900 58001 81813 555 10114
AAXX 13061 80405 NIL
AAXX 13061 80407 NIL
AAXX 13061 80410 32460 41402 10210 20195 39445 40118 84600 333 30/// 56900 59019 84716 555 10157
AAXX 13061 80413 32960 00201 10214 20193 39622 40105 333 30/// 59002 555 10140
AAXX 13061 80415 32460 21101 10235 20214 30054 40111 82500 333 30/// 56900 58000 83816 555 10110
AAXX 13061 80419 32460 6//// 10255 20236 20220 30//5 40142 8382/ 333 30/// 5699/ 58011 83810 83456 555 10122
AAXX 13061 80421 NIL
AAXX 13061 80423 32460 2//// 10220 20213 30085 40102 82500 333 30/// 56200 58007 82610 555 10101
AAXX 13061 80428 32960 00000 10248 20220 39904 40086 333 30/// 58002 555 10100
AAXX 13061 80432 NIL
AAXX 13061 80435 NIL
AAXX 13061 80438 32560 30902 10181 20161 38514 48511 81501 333 30/// 56909 58008 81623 555 10196
AAXX 13061 80444 32960 0//// 10250 2//// 3 4//// 333 30/// 59003 555 10079
AAXX 13061 80447 32560 60000 10236 20222 39656 40073 865// 333 30/// 569// 59002 86620 555 10128
AAXX 13061 80448 NIL
AAXX 13061 80450 NIL
AAXX 13061 80453 NIL
AAXX 13061 80457 12460 6//// 10261 20230 30015 40100 60021 865// 333 30/// 569// 59001 86613 555 10100
AAXX 13061 80462 NIL
AAXX 13061 11816 11470 53205 10050 20015 30008 40174 53004 69902 70262 85500 333 20040 31004 79999 81713 85628
BBXX SLKR 13063 99051 70855 43/97 23324 10253 40133 58008 22254 00270 2//// 4////
AAXX 13060 44214 NIL
AAXX 13060 44231 31996 20000 11192 21270 38823 40509 52005 70410 82040
AAXX 13060 44259 NIL
AAXX 13060 44277 32999 10501 11125 21197 37828 40413 52007 80004
AAXX 13060 44288 32699 33306 11139 21207 38205 40416 52004 82504
AAXX 13060 44292 41899 23205 11164 21214 38762 40396 51010 70171 82080
AAXX 13060 44304 31999 23608 11136 21197 39021 40314 52009 70232 82040
AAXX 13060 44354 32999 63407 11118 21153 39132 40304 52022 86030
AAXX 13060 44373 32999 22703 11142 21175 38593 40392 51010 80009
AAXX 13004 91636 11599 61006 10306 20262 40083 60001 71422 83208 333 20254 562/9 70133
AAXX 13060 44203 32999 00000 11303 21327 38498 40577 52010
AAXX 13060 44207 32999 72302 11259 21298 38375 40507 58002 83089
AAXX 13060 44212 32997 60000 11210 21243 39266 40514 53011 84044
AAXX 13060 44213 41999 30000 11186 21235 38894 40494 52008 70171 80003
AAXX 13060 44215 31995 00000 11209 21228 38482 40473 52016 71044
AAXX 13060 44218 41596 70000 11167 21201 38686 40453 52003 74122 81646
AAXX 13060 44225 31998 13402 11301 21313 38350 40590 51002 70244 80001
AAXX 13060 44230 32998 20000 11181 21229 38894 40496 52008 81140
AAXX 13060 44232 32999 00000 11221 21248 39225 40476 52004
AAXX 13060 44237 32999 21802 11206 21246 38556 40460 52005 82040
AAXX 13060 44239 32999 03404 11161 21231 38882 40407 51007
AAXX 13060 44241 32999 02501 11190 21223 39363 40422 52008
AAXX 13060 44256 NIL
AAXX 13060 44265 32999 40000 11150 21201 38919 40414 53006 83044
AAXX 13060 44272 32998 00000 11211 21268 38265 40425 52002
AAXX 13060 44275 32998 20000 11168 21210 37740 40382 51008 80001
AAXX 13060 44282 32599 21602 11142 21211 38350 40402 52004 82500
AAXX 13060 44284 32999 63202 11178 21249 37876 40459 52028 82078
AAXX 13060 44285 32799 20000 11167 21201 38376 40433 52005 82080
AAXX 13060 44287 32899 43302 11137 21206 37156 40415 53003 81044
AAXX 13060 44294 32998 03506 11179 21226 38598 40410 52008
AAXX 13060 44298 32999 03205 11178 21184 38745 40355 52010
AAXX 13060 44302 41999 63207 11138 21209 39128 40306 53009 73673 80008
AAXX 13060 44305 31999 63608 11124 21171 39050 40261 52013 73632 86010 333 91112
AAXX 13060 44313 NIL
AAXX 13060 44314 NIL
AAXX 13060 44317 41998 33205 11165 21199 38911 40256 54000 70271 83080
AAXX 13060 44336 32999 01401 11135 21187 38759 40100 54000
AAXX 13060 44341 32999 23409 11159 21209 38652 40409 52022 80004 333 91115
AAXX 13060 44347 32999 23603 11143 21194 38771 40381 51008 81041
AAXX 13060 44352 32999 43603 11137 21164 38925 40289 52025 84040
AAXX 13060 44358 31998 43405 11166 21192 39089 40321 53021 77600 82042
AAXX 13064 91636 11599 70904 10284 20255 40088 60001 71422 83208 333 562/9
AAXX 12124 91636 11599 71011 10262 20251 40072 60001 71422 8327/ 333 10295 20295 5629/
AAXX 12184 91636 11599 51010 10274 20254 40073 60001 71422 83208 333 562/9
AAXX 13061 50136 32970 00000 11206 21262 39687 40286 57013 333 21357
AAXX 13061 50745 32965 70402 11086 21148 39997 40192 57020 8703/ 333 21161
AAXX 13061 50774 32660 70000 11116 21178 39913 40245 57018 875// 333 21268
AAXX 13061 50788 NIL
AAXX 13061 51133 NIL
AAXX 13061 51431 NIL
AAXX 13061 51747 NIL
AAXX 13061 52203 NIL
AAXX 13061 52418 NIL
AAXX 13061 52681 NIL
AAXX 13061 53564 NIL
AAXX 13061 53614 31956 03602 11013 21085 38947 40296 57007 70500 333 05101 21103
AAXX 13061 53646 32975 02202 10003 21120 38885 40276 57013 333 05301 21112
AAXX 13061 53798 NIL
AAXX 13061 53845 32970 01401 10071 21111 39109 40257 57022 333 05304 21075
AAXX 13061 53959 NIL
AAXX 13061 54094 32966 73201 11059 21154 39937 40255 57033 80002 333 21191
AAXX 13061 54102 32980 12705 11095 21143 38999 40238 52008 80002 333 21145
AAXX 13061 54161 NIL
AAXX 13061 54292 32970 72501 11050 21141 39923 40258 57033 80002 333 21164
AAXX 13061 54374 32970 72002 11078 21138 39787 40282 57031 80002 333 21183
AAXX 13061 54423 NIL
AAXX 13061 54618 NIL
AAXX 13061 54843 31970 02004 10097 20006 30216 40244 57030 70040 333 21012
AAXX 13061 54909 NIL
AAXX 13061 56029 32980 02201 10003 21213 36423 57036 333 05300 21173
AAXX 13061 57127 NIL
AAXX 13061 57131 32960 22001 10057 21034 39769 40279 57020 80002 333 21037
AAXX 13061 10338 01682 81911 10060 20009 39912 49984 56055 69902 72122 8652/ 333 10063 20038 31001 55000 55300 20000 30000 69907 70022 82640 85650 91118 91212 96260
BBXX 44255 13061 99473 70573 46/// /2802 10027 40287 5//// 22200 00042 10804 70018 333 91204
BBXX 44255 13061 99473 70573 46/// /2802 10027 40287 5//// 22200 00042 10804 70018 333 91204
AAXX 13060 44210 NIL
AAXX 13060 44216 41998 50202 11218 21236 39114 40494 52011 70272 80006
AAXX 13060 44217 NIL
AAXX 13060 44219 32998 10903 11214 21233 38704 40479 52004 80004
AAXX 13060 44221 32998 00000 11224 21272 38682 40499 52004
AAXX 13060 44224 31998 10000 11296 21319 38099 40564 51004 70240 80004
AAXX 13060 44229 32999 02301 11262 21287 37962 40516 51002
AAXX 13060 44242 32998 01601 11200 21224 39438 40443 52004
AAXX 13060 44243 32999 00000 11212 21234 39527 40444 51004
AAXX 13060 44254 32998 72904 11121 21204 39058 40288 53007 87010
AAXX 13060 44257 32698 63206 11131 21214 38998 40330 53005 81147
AAXX 13060 44263 NIL
AAXX 13060 44266 32999 20000 11116 21199 37787 40345 52007 80008
AAXX 13060 44286 41998 23604 11181 21210 38709 40426 52004 70170 80008
AAXX 13060 44291 32598 33406 11167 21214 38799 40423 52009 83500
AAXX 13060 44325 32999 70906 11111 21155 38898 40353 52014 83047
AAXX 13060 44329 32998 00000 11086 21182 37773 40299 51004
AAXX 13060 44338 32999 01105 11118 21180 38534 40373 58001
AAXX 13060 44348 32997 63209 11179 21191 38729 40373 52034 84079
AAXX 13060 44374 32999 00203 11083 21196 38286 40349 51003
AAXX 13060 44385 32999 33605 11109 21182 38983 40364 52020 80004
AAXX 13060 44386 32999 53206 11135 21178 39083 40328 51020 83044
AAXX 13064 47407 11/60 72205 11033 21085 30029 40208 51001 69951 72682 872//
AAXX 13064 47409 12/80 42903 11023 21116 30128 40184 53003 69901 84200
AAXX 13064 47418 12/84 12717 11003 21123 30140 40191 53004 60001 81800
AAXX 13064 47421 17/70 /3009 11007 21084 30189 40234 53001 69901 77170
AAXX 13064 47430 11/65 72815 10000 21075 30183 40239 55000 69901 72682 872//
AAXX 13064 47570 15/70 /2907 10056 21027 30007 40271 53001 60001
AAXX 13064 47575 11/65 82410 10020 21041 30247 40252 53003 69901 78582 883/2
AAXX 13064 47584 12/80 22611 10036 21081 30054 40248 51009 60001 82200
AAXX 13064 47604 12/80 62006 10073 20010 30267 40276 55002 60001 86800
AAXX 13064 47605 12/80 10913 10088 20008 30220 40262 56015 60001 81200
AAXX 13064 47610 11/80 30105 10055 21021 39757 40269 56004 69901 70281 82230
AAXX 13064 47624 12/82 13508 10099 21052 30101 40241 55001 60001 81200
AAXX 13064 47629 12/80 11205 10096 21006 30208 40247 53004 60001 81100
AAXX 13064 47636 12/70 13407 10135 21002 30164 40232 55011 60001 81100
AAXX 13064 47651 12/82 13108 10138 20011 30215 40237 55010 60001 81100
AAXX 13064 47655 15/70 /1705 10139 20053 30174 40230 55000 60001
AAXX 13064 47675 15/70 /0409 10121 20020 30145 40237 53003 60001
AAXX 13064 47741 12/82 22604 10128 20015 30214 40241 56018 60001 82400
AAXX 13064 47746 11/80 60106 10126 20058 30223 40242 56021 69901 70282 86830
AAXX 13064 47750 11/80 53606 10109 20042 30223 40251 56014 69901 72582 85200
AAXX 13064 47765 12/75 41903 10135 20024 30172 40237 55017 60001 84400
AAXX 13064 47772 12/81 30504 10124 20031 30140 40241 55012 60001 83200
AAXX 13064 47800 15/80 /3603 10137 20059 30230 40235 56018 60001
AAXX 13064 47815 12/70 20105 10144 20038 30219 40235 56017 60001 82200
AAXX 13064 47817 12/70 11503 10154 20039 30182 40225 56019 60001 81130
AAXX 13064 47830 12/65 10605 10154 20039 30206 40224 56019 60001 81100
AAXX 13064 47887 12/70 20703 10146 20031 30190 40231 55015 60001 81101
AAXX 13064 47891 12/75 13503 10136 20003 30225 40242 56017 60001 81230
AAXX 13064 47895 11/82 23605 10138 20011 30232 40240 56016 69901 70281 81801
AAXX 13064 47927 11/65 80514 10214 20178 30127 40176 56024 69951 70262 8787/
AAXX 13064 47401 11/70 72810 11024 21117 30162 40177 53002 69951 78582 872//
AAXX 13064 47412 11/60 71806 11012 21069 30183 40216 55005 69901 78581 873//
AAXX 13064 47420 15/70 /2510 11022 21134 30154 40189 52010 60001
AAXX 13064 47426 15/70 /3112 11007 21098 30168 40217 53005 60001
AAXX 13064 47582 11/70 73010 10043 21047 30238 40265 55000 69901 70282 872//
AAXX 13064 47590 12/81 33014 10077 21050 30197 40251 53004 60001 83200
AAXX 13064 47600 15/70 /0605 10083 21026 30266 40274 57010 60001
AAXX 13064 47648 12/82 10408 10109 20014 30211 40245 55000 60001 81530
AAXX 13064 47662 12/82 13305 10126 21036 30195 40239 53001 60001 81131
AAXX 13064 47678 15/70 /0612 10163 20119 30022 40207 55002 60001
AAXX 13064 47740 17/81 /0711 10105 20053 30211 40246 56016 60021 70086
AAXX 13064 47778 15/70 /1103 10146 20052 30146 40229 55009 60001
AAXX 13064 47807 12/70 13507 10151 20048 30213 40231 56019 60001 81100
AAXX 13064 47827 12/70 62703 10160 20056 30178 40216 56020 60001 86500
AAXX 13064 47843 15/68 /0403 10150 20055 30198 40230 56019 60001
AAXX 13064 47893 12/70 21804 10162 20043 30221 40227 55011 60001 82800
AAXX 13064 47909 11/65 80802 10182 20120 30200 40210 55014 69901 70262 8452/
AAXX 13064 47918 11465 80614 10225 20181 30153 40170 56018 69901 72162 8287/
AAXX 13064 47936 11/59 81010 10188 20173 30131 40190 56016 60021 76162 8482/
AAXX 13064 47945 11/56 80413 10187 20167 30160 40184 56017 60021 78086 8787/
AAXX 13064 47971 11/65 80308 10191 20160 30184 40194 55003 69951 78082 8527/
AAXX 13064 47991 16/// /0703 10265 20201 30162 40172 53003 60001
AAXX 13061 40706 11425 79901 11050 21076 38747 40367 52006 60001 71021 85620 333 3/111 43004 70000 85715 87458
AAXX 13061 40718 12560 82705 10086 20064 30350 40320 53005 60001 8452/ 222// 00098 20201 333 30003 50091 70000 84625 88458
AAXX 13061 40732 12665 70000 10090 20054 30333 40308 51006 60001 81570 333 31000 50091 70000 81640 87360
AAXX 13061 40745 11957 10102 10044 21020 39130 40317 51007 60001 70500 80001 333 31007 70000 81070
AAXX 13061 40754 12960 31303 10058 21038 38914 40296 52012 60001 80002 333 30105 5//// 70000 83070
AAXX 13061 40766 12960 00000 10016 21069 38755 40286 52012 60001 333 30111 70000
AAXX 13061 40800 11940 40000 10014 21021 38518 40288 51014 60001 70521 80002 333 30106 5///1 70000 84070
AAXX 13061 40811 11950 12803 10072 20012 30200 40228 52017 60001 70500 80001 333 30004 50291 70000 81070
AAXX 13061 40841 12960 00000 10042 21050 38316 40277 51009 60001 333 30110 5//// 70000
AAXX 13061 40848 12960 00000 10082 21021 38581 40250 52013 60001 333 30106 50201 70000
AAXX 13061 40856 12962 20302 10084 21072 38712 40267 51018 60001 80001 333 30108 5///1 70000 82070
AAXX 13061 40875 12960 23504 10210 21069 30194 40205 52015 60001 80001 333 30004 50361 70000 82070
AAXX 13061 50788 32970 41402 11081 21149 30153 40245 57017 80002 333 21218
AAXX 13061 53564 32975 02901 10036 21116 39213 40264 57020 333 05403 21115
AAXX 13061 53959 31958 03402 10052 21049 39814 40270 57023 70500 333 21052
AAXX 13061 54161 32762 72005 11020 21151 39899 40204 57032 86502 333 21123
AAXX 13061 54909 32968 01803 10085 21027 30178 40243 57029 333 21015
AAXX 13061 57127 32961 02001 10080 21015 39636 40259 57031 333 21017
AAXX 13061 51431 11960 81401 11013 21029 39557 40390 52008 60021 77070 8802/ 333 01300 21066
AAXX 13061 51747 32965 72502 11015 21106 39021 40387 57003 80002 333 00300 21170
AAXX 13061 52203 32980 01801 11025 21131 39432 40363 52006 333 00452 21127
AAXX 13061 56778 32562 71603 10121 20066 38113 57027 874// 333 05153 20027
AAXX 13061 57265 32962 00701 10112 20003 30137 40250 57024 333 20009
AAXX 13061 57494 32972 03602 10133 21022 30219 40249 57022 333 21001
AAXX 13061 58238 31956 02202 10100 21044 30204 40250 57029 70500 333 21011
AAXX 13061 58362 32968 52201 10127 20044 30238 40246 57027 85030 333 20008
AAXX 13061 59134 32970 70704 10197 20104 30032 40199 57026 8703/ 333 20145
AAXX 13061 57461 32962 03401 10123 20004 30084 40250 57033 333 20021
AAXX 13061 57516 31750 81101 10096 20027 39916 40233 57034 71000 885// 333 05352 20058
AAXX 13061 58251 31950 61602 10112 20037 30245 40250 57018 70500 80002 333 21009
AAXX 13061 58606 32961 52701 10106 21018 30186 40245 57031 85040 333 20051
AAXX 13061 58752 32961 00903 10155 20039 30181 40227 57031 333 20082
AAXX 13061 58847 32667 73201 10165 20036 30114 40216 57030 875// 333 20127
AAXX 13061 59117 32970 01101 10197 20034 30091 40198 57040 333 20062
AAXX 13061 59287 32977 33402 10210 20023 30105 40191 57042 80002 333 20092
AAXX 13061 59316 32968 61102 10209 20104 30184 40189 57026 86040 333 20130
AAXX 13061 59431 32966 00902 10193 20022 30053 40201 57038 333 20043
AAXX 13061 59758 32975 70705 10203 20112 30100 40177 57033 80002 333 20131
AAXX 13064 60612 36/// /0000 10052 21066 333 20051
BBXX 62087 13061 99547 10068 46/// /3614 10072 20062 4//// 5//// 22220 00086
AAXX 13064 65352 31903 70404 10186 20047 3//// 4//// 70544 80002 333 20185 5//// 87076
AAXX 13064 65361 31910 72802 10220 20054 3//// 4//// 70522 80002 333 20213 5//// 87076
AAXX 13064 65376 31920 73608 10225 20050 39661 40122 70522 80002 333 20221 58005 87076
AAXX 13064 65387 31915 73604 10223 20187 30079 40097 71022 80002 333 20223 58000 87173
AAXX 13064 60619 36/// /0107 10047 21005 333 20045
AAXX 13061 08501 12/// /3302 10130 20089 30231 40268 52006 60032 333 20128 30011 5//// 55027 20657 91106
AAXX 13061 08505 NIL
AAXX 13061 08509 32460 72903 10172 20147 30182 40247 57004 858// 333 20170 50344 55068 82818 84825 85640
AAXX 13061 08512 NIL
AAXX 13061 08515 NIL
AAXX 13061 08533 32/// /1601 10133 20123 30234 40263 57009 333 20103 30007 5//// 55058 20996
AAXX 13061 08541 32/// /1603 10126 20114 30135 40255 57012 333 20110 30007 5//// 55054 20864 91106
AAXX 13061 08545 11159 81705 10119 20106 30128 40211 57012 60022 71052 886// 333 20118 30011 50104 55024 20510 84703 87706
AAXX 13061 08548 32/// /1704 10113 20089 30025 40232 57012 333 20111 30011 5//// 55026 20588 91007 91107
AAXX 13061 08554 32665 70102 10129 20087 30261 40271 57004 875// 333 20082 30010 5//// 55064 21048 87640
AAXX 13061 08558 NIL
AAXX 13061 08560 32/// /2004 10074 20068 39466 40232 57011 333 20071 31007 5//// 55032 20643 91007 91107
AAXX 13061 08567 12/// /2106 10091 20082 39548 40214 57010 69962 333 20081 31008 5//// 55013 20431 91010 91112
AAXX 13061 08570 32/// /2202 10094 20077 39784 40247 57009 333 20093 30008 5//// 55070 20927 91005 91106
AAXX 13061 08575 42/// /1904 10071 20063 39398 40216 57007 333 2//// 31/// 5//// 55/// 2//// 91107
AAXX 13061 08579 NIL
AAXX 13061 06431 16/// /2010 10100 20081 39893 49904 55032 60072 333 20068 3/005 91121 91210
AAXX 13064 60645 36/// /0000 10142 21002 333 20137
BBXX 61002 13064 99421 10047 46/// ///16 10147 2//// 40184 57016 22200 00161 10402 70008
AAXX 13064 60663 36/// /1207 10124 21045 333 20123
AAXX 13061 06447 11395 82013 10084 20063 39812 49934 55034 60062 76066 875// 333 20059 32005 91125 91214
BBXX SBLI 13061 99300 71339 43/98 70210 10149 40226 53023 22264 00185 2//// 4//// 426621110
AAXX 13061 52533 32980 00702 10011 21141 38575 40322 57004 333 00203 21119
AAXX 13061 52652 32980 03402 10017 21158 38585 40319 57005 333 00204 21164
AAXX 13061 52983 31940 70402 11023 21101 38134 57017 70500 80002 333 00200 21139
AAXX 13061 53915 32980 71402 10054 21062 38688 40264 57019 80002 333 05103 21080
AAXX 13061 54401 32970 63401 10015 21113 39343 40231 57023 80002 333 21072
AAXX 13061 54511 31940 70902 10028 21014 30177 40218 57029 71000 80002 333 21007
AAXX 13061 56080 32980 00201 10013 21176 37124 57021 333 00151 21144
AAXX 13061 56096 32768 71802 10049 21031 38974 40241 57027 875// 333 00153 20000
AAXX 13061 53588 32970 02506 11066 21115 37757 57008 333 21121
AAXX 13061 53772 31920 81402 10023 21049 39303 40253 57024 70400 80007 333 21060
AAXX 13061 54342 32965 62004 10026 21106 30159 40223 57027 80002 333 21131
AAXX 13061 51133 32980 70903 11049 21097 39711 40393 52013 80002 333 01451 21104
AAXX 13061 52418 32980 02703 11009 21122 38968 40360 52004 333 00301 21142
AAXX 13061 52681 32980 03202 10015 21146 38682 40309 57006 333 00102 21128
AAXX 13061 53798 31957 71102 10062 20005 30122 40221 57033 70400 80002 333 21015
AAXX 13061 54423 32970 61102 10033 21051 39687 40216 57034 80002 333 21081
AAXX 13061 54618 31962 62203 10078 21031 30206 40224 57034 70040 80002 333 21019
AAXX 13061 51076 32980 71401 11098 21157 39440 40386 52015 80002 333 00652 21147
AAXX 13061 51463 32962 50702 11045 21095 39214 40379 52017 80002 333 00851 21113
AAXX 13061 51573 32980 21601 11016 21117 30313 40359 52001 80002 333 00300 21084
AAXX 13061 51709 32965 12701 11020 21096 38788 40333 57003 80002 333 00102 21111
AAXX 13064 78922 46/// /1208 10265 20232 30073 40117 58014
AAXX 13064 40100 12958 10603 10150 20030 30193 40225 50005 60004 81070 906// 333 20116 30/// 50334 55048 20802 81359 92427
AAXX 13064 40101 11920 20000 10036 20023 39153 48535 52010 60004 71044 80009 906// 333 20022 31/// 50114 55065 20889 82070
AAXX 13064 40103 32960 21602 10089 20048 40233 53005 80002 333 20084 50184 20950 82070
AAXX 13064 40102 NIL
AAXX 13064 48481 32960 63302 10289 20141 30094 40121 57013 81047 333 58000
AAXX 13061 48803 31556 41802 10190 20105 30075 40190 57041 71041 84800 333 59015 81895 83696
AAXX 13061 01447 16/// /0000 11006 21010 39181 49842 58046 69942 333 21086 70148 91100
AAXX 13064 87022 32960 80000 10196 20180 39610 40116 58008 8807/ 333 56099 88360
AAXX 13064 87046 NIL
AAXX 13064 87047 11458 83202 10159 20151 38812 48526 58005 69951 71065 8567/ 333 56269 83710 85617 88360
AAXX 13064 87097 NIL
AAXX 13064 87121 32562 82704 10198 20186 39644 40155 54000 885// 333 56499 88630
AAXX 13064 87129 32562 81803 10208 20164 39930 40160 50000 886// 333 84720 85625
AAXX 13064 87155 32965 71805 10196 20156 30060 40120 50004 87070 333 56050 87360
AAXX 13064 87162 32570 22006 10229 20182 30033 40099 52007 82500 333 56600 82630
AAXX 13064 87166 32960 71808 10216 20138 30045 40116 52004 87070 333 56050 87360
AAXX 13064 87178 32970 61607 10244 20117 39942 40084 57007 86070 333 56060 86360
AAXX 13064 87217 NIL
AAXX 13064 87222 32770 60212 10209 20159 39612 40124 58009 86500 333 56900 86656
AAXX 13064 87257 32965 21805 10180 20098 30049 40152 58012 82070 333 56050 82360
AAXX 13064 87270 32965 51805 10180 20135 30074 40136 58001 84085 333 56066 84360
AAXX 13064 87289 NIL
AAXX 13064 87311 32965 01406 10185 20138 39478 40146 54000
AAXX 13064 87320 NIL
AAXX 13064 87328 11680 80502 10182 20164 39516 40168 58004 69941 70362 8557/ 333 56569 85640 83360 95090
AAXX 13064 03896 16/// ///// 10107 60102 333 20093 55035
AAXX 13064 88878 46/// /2508 10118 20068 40139 52004
AAXX 13064 88883 46/// /2709 10118 20036 40145 52004
AAXX 13064 88897 46/// /3111 10095 20063 40122 52007
AAXX 13064 40362 42960 02502 10083 21020 39726 40259 333 20015 59019
AAXX 13064 40377 42960 03203 10092 20030 39772 40269 333 20031 59009
AAXX 13064 70133 12966 02008 11094 21106 30000 40008 51027 60011 90553 333 11033 21094 555 91306
AAXX 13064 70174 12966 41405 11106 21117 39762 40010 51031 69901 90553 333 11050 21106 4/069 555 91306
AAXX 13064 70200 32464 80000 11083 21106 30022 40027 51021 90553 333 11028 21117 555 91306
AAXX 13064 70219 31008 91405 11100 21111 30029 40085 51004 741// 90553 333 11017 21106 555 91306
AAXX 13064 70231 15566 80000 11044 21072 39951 40082 53019 69901 90553 333 11017 21133 555 91306
AAXX 13064 70261 11559 62408 11033 21061 39861 40037 51024 69901 771// 90553 333 10000 21039 96010 555 91306
AAXX 13064 70267 11564 82303 11050 21067 39576 40063 51026 69901 771// 90553 333 11044 21067 555 91306
AAXX 13064 70271 12666 80000 11044 21067 39441 40028 51026 69901 90553 333 10017 21044 4/010 555 91306
AAXX 13064 70273 12866 61506 11022 21050 39986 40047 51026 69901 90553 333 10011 21028 4/048 555 91306
AAXX 13064 70316 32966 01429 10028 21011 39985 40020 56035 90553 333 10028 21005 91034 555 91306
AAXX 13064 70326 31104 90000 11044 21050 30079 40093 50011 741// 90554 333 11006 21083 555 91306
AAXX 13064 70340 32966 02609 11094 21117 30039 40103 53015 90553 333 10006 21117 555 91306
AAXX 13064 70350 32666 62805 11017 21056 30040 40080 51012 90553 333 10044 21017 555 91306
AAXX 13064 70361 15566 41003 10000 21006 30063 40073 51010 60021 90553 333 10050 20000 555 91306
AAXX 13064 70381 11366 80707 10017 20006 30092 40100 51006 69981 761// 90553 333 10022 20011 555 91306
AAXX 13064 70414 35566 63128 11011 21089 39802 49839 51004 90556 333 10028 21028 91033 555 91306
BBXX 41037 13061 99340 70775 46/// /0309 10140 40244 58008 90600 22200 00165 333 91210
AAXX 13064 NIL
AAXX 13064 NIL
AAXX 13061 26997 32563 81802 10002 21025 30000 40225 57013 885// 333 21034 43002 88621
AAXX 13061 27595 11598 80301 11086 21110 30094 40251 52034 60010 77172 885// 333 21109
AAXX 13061 27612 32597 82201 11001 21028 30027 40225 57004 887// 333 21022 43001
AAXX 13061 27707 31849 71803 11025 21031 39918 40220 57014 71022 87070 333 21026 43002
AAXX 13061 27719 31596 71703 11010 21032 39997 40255 58005 71022 86530 333 21012 43001
AAXX 13061 27786 11496 80104 11011 21015 30075 40239 52012 69970 77172 8872/ 333 21084 88710
AAXX 13061 27857 42998 80002 11025 21028 30117 40285 52016 8802/ 333 21020
AAXX 13061 27906 31996 81405 11035 21043 30001 40251 57006 71011 8807/ 333 21040 42997
AAXX 13061 27928 31596 81902 11017 21028 30062 40276 53003 71022 8755/ 333 21019 43006
AAXX 13061 27947 11495 69902 11027 21046 30119 40284 52009 69900 71022 85530 333 21030 47009 86615
AAXX 13061 27962 12697 82403 11014 21034 40275 52013 69960 883// 333 21012 88636
AAXX 13061 27983 11598 72803 11006 21018 30117 40249 53022 69900 70272 87500 333 21075 87624
AAXX 13061 27995 11494 82701 11032 21036 40248 52017 69940 78687 889// 333 21082
AAXX 13061 28506 11997 80000 11108 21121 30124 40244 52029 69940 77172 8807/ 333 21116
AAXX 13061 28704 /1398 83202 11097 21114 30144 40246 52019 60020 70272 8802/ 333 21114 88507
AAXX 13061 28711 11498 63202 11124 21137 39837 40235 52019 69930 72687 86300 333 21134 86912
AAXX 13061 28807 11597 83303 11060 21091 30193 40246 52022 60020 77172 885// 333 21085 88626
AAXX 13061 34009 31595 81703 11040 21052 39954 40272 57002 71010 885// 333 21051 47004
AAXX 13061 34110 31896 71701 11047 21053 39998 40289 58005 71011 87030 333 21077 43001
AAXX 13061 34123 31459 80000 11014 21033 30098 40288 52001 71022 885// 333 21014 42001 88617
AAXX 13061 34152 12698 70000 11013 21021 30092 40295 52011 69900 83530 333 21010
AAXX 13061 34163 32498 82502 11018 21024 40288 52013 69970 885// 333 88620
AAXX 13061 34171 12670 73105 10000 21033 30081 40279 52014 69920 87500 333 21004 87640
AAXX 13061 34186 12698 73104 11019 21037 30126 40269 52017 69920 87500 333 21020 87634
AAXX 13061 34247 31559 82402 11012 21025 30193 40311 52007 71022 885// 333 21015 88621
AAXX 13061 34336 31956 00000 11060 21064 30206 40315 53006 71000 333 21060
AAXX 13061 34391 32997 02903 11050 21063 30245 40277 52019 333 21035
AAXX 13061 35011 11996 83102 11119 21132 40230 52021 69940 77172 8807/ 333 21112
AAXX 13061 35121 11998 83003 11095 21116 30066 40220 52014 60020 72273 8801/ 333 21112
AAXX 13064 NIL
BBXX 44067 13061 99384 70770 46/// /0802 10038 40313 58008 90600
BBXX 41029 13061 99328 70796 46/// /0207 1//// 90600 555 11092 22111
BBXX 44032 13061 99437 70694 46/30 /2406 10075 40262 58007 90604 22200 00089 10502 70011 333 91207 555 11069 22072
AAXX 13064 NIL
AAXX 13064 NIL
AAXX 13064 NIL
AAXX 13064 82022 32970 00606 10251 20213 39991 40086 333 59003
AAXX 13064 82193 32470 20602 10253 20250 30068 40088 82200 333 59001
AAXX 13064 82281 32970 00510 10268 20205 30024 40086 333 58001
AAXX 13064 82332 32970 01402 10265 20242 39992 40084 333 59008
AAXX 13064 82398 32570 41008 10254 20222 30066 40095 84100 333 58002
AAXX 13064 82400 NIL
AAXX 13064 82579 32570 50902 10271 20229 30007 40083 84530 333 58007
AAXX 13064 82917 21440 70505 10256 20250 39870 40087 76162 83510 333 59010 60011
AAXX 13064 82965 NIL
AAXX 13064 82993 32470 20503 10226 20219 39974 40109 82100 333 58015
AAXX 13064 83208 NIL
AAXX 13064 83349 21559 82603 10239 20232 30104 40110 76162 8522/ 333 59008 60011
AAXX 13064 83362 32570 33605 10253 20207 39859 40071 81130 333 59009
AAXX 13064 83378 NIL
AAXX 13064 83460 32570 63502 10224 20214 30053 40110 82130 333 58001
AAXX 13064 83497 NIL
AAXX 13064 83566 32970 31504 10185 20164 39185 48500 83100 333 58020
AAXX 13064 83599 NIL
AAXX 13064 83612 32970 50104 10231 20191 39447 48500 57008 81331
AAXX 13064 83649 21270 82701 10228 20224 30110 40115 56010 72162 8752/ 333 69981
AAXX 13064 83650 NIL
AAXX 13064 83780 NIL
AAXX 13064 83827 32970 01802 10205 20204 39802 40072 51004
AAXX 13064 83840 32270 41208 10181 20174 39087 48490 56005 86500
AAXX 13064 83899 21462 53204 10224 20205 30092 4//// 55009 71096 85200 333 69911
AAXX 13064 83925 NIL
AAXX 13064 83970 NIL
AAXX 13064 83971 32970 52110 10205 20193 30088 40092 53001 83530
AAXX 13061 22028 32581 71804 11057 21071 39999 40038 58002 83570 333 21064 48007 91007
AAXX 13061 22106 11597 81002 11072 21081 39935 40015 57017 69902 78582 8497/ 333 21105 47008 91003
AAXX 13061 22127 11598 71404 11071 21080 39839 40045 57010 69902 70241 82530 333 21143 47017 91009 93504
AAXX 13061 22324 11465 81405 11033 21044 30006 40057 57015 69902 78582 889// 333 21050 47009 91007 91110
AAXX 13061 22621 41382 81704 11018 21026 39933 40075 57016 69972 70282 886// 333 21065 47011 88708
AAXX 13061 22831 32597 71402 10000 21008 30063 40124 57004 83930 333 21043 43031
AAXX 13061 22892 11396 81706 10003 21003 30020 40036 57020 60012 77372 8802/ 333 20002 43997 88507
AAXX 13061 26275 32598 81805 10007 21019 30086 40117 57011 885// 333 20001 88626
AAXX 13061 26389 31559 61703 11018 21039 39885 40155 57011 71022 86500 333 21021 47004
AAXX 13061 26499 32897 81603 11017 21034 39961 40196 57007 8807/ 333 21026 43002
AAXX 13061 26695 31696 61503 11016 21030 39890 40206 57015 71022 85531 333 21017 43002 85638
AAXX 13061 26882 11457 81705 11011 21030 39909 40191 57016 69902 77171 8872/ 333 21029 46001 88714
AAXX 13064 NIL
AAXX 13064 NIL
AAXX 13061 22271 11598 82506 11023 21048 30073 40083 52022 69950 70232 885// 333 21036
AAXX 13061 22520 11495 81304 11026 21039 30052 40061 57017 69972 77373 8802/ 333 21078 88512
AAXX 13061 22550 12572 61802 11026 21067 30131 40141 52006 69900 83530 333 21017
AAXX 13061 22583 12584 71601 11042 21047 30085 40168 53028 69960 87500 333 21059 87621
AAXX 13061 22768 12897 51703 11039 21047 30123 40180 51010 69900 82031 333 21032
AAXX 13061 22845 11398 81803 11021 21024 39995 40154 57005 69900 70271 8672/ 333 21046 86707
AAXX 13061 22887 11697 72002 11048 21061 30130 40203 52014 69900 71022 8355/ 333 21068 91106
AAXX 13061 23205 11598 62205 11054 21079 30089 40104 52009 69900 73683 83530 333 21087 91109
AAXX 13061 23219 31998 82708 11082 21096 30060 40169 52004 73633 8807/ 333 47042
AAXX 13061 23418 11470 81704 11091 21125 30128 40205 52020 69940 70272 885// 333 21095 88617
AAXX 13061 23606 11462 81903 11097 21114 30029 40210 52018 69930 70272 885// 333 21113 88610
AAXX 13061 23711 NIL
AAXX 13061 23804 11597 81901 11091 21106 30067 40223 52018 69900 77172 8652/ 333 21105 86623
AAXX 13061 27037 12498 81503 11024 21033 30031 40196 54000 69900 885// 333 21040 86710
AAXX 13061 27199 11598 80000 11103 21116 30035 40244 52018 60010 70272 885// 333 21119 93403
AAXX 13061 27271 11496 71301 11038 21043 30068 40229 52012 69940 71022 87500 333 21083
AAXX 13061 27459 32598 70000 11015 21026 30047 40247 52013 86530 333 21013 86627
AAXX 13061 27730 32498 82002 11028 21038 30057 40258 52004 885// 333 21044 43010 88613
AAXX 13061 20107 11496 71104 11042 21076 39869 49965 53002 69952 78582 87900 333 21079 91005
AAXX 13061 22113 11584 81904 11058 21073 39960 40025 57009 69902 72682 8595/ 333 21058 47006 91006
AAXX 13061 22217 11356 71603 11048 21058 30003 40035 58016 69942 78583 87900 333 21122 47015 85709 91006 91110
AAXX 13061 22235 11374 81903 11054 21058 39877 40076 52001 69922 70272 886// 333 21133 47019 88707 91006
AAXX 13061 22349 11596 82109 11007 21035 30090 40102 52010 69902 78581 889// 333 21075 47004 91010 91112
AAXX 13061 22408 11358 81403 11043 21052 39880 40032 57014 60022 77187 8872/ 333 21108 47011 88709
AAXX 13061 22602 11458 81803 11011 21015 39809 40035 57008 60012 77072 885// 333 21065 47014 88612
AAXX 13061 22619 11358 81703 11004 21013 39906 40067 56013 69962 78587 889// 333 21061 48010 88908
AAXX 13061 22721 11498 81501 11001 21007 39984 40086 57010 69982 70272 887// 333 21103 47029 86714
AAXX 13061 22802 12984 81603 10011 21024 30037 40060 57013 60012 8807/ 333 21009 43002
AAXX 13061 22820 12484 81904 10000 21018 39954 40094 57009 69902 885// 333 21039 47007 88614
AAXX 13061 26059 11496 81604 10006 21005 30030 40055 57016 69932 77172 8872/ 333 21001 86711
AAXX 13061 26063 32497 81703 10011 21015 30059 40067 57019 885// 333 20004 44001 88615
AAXX 13061 26094 32670 81803 10001 21013 30039 40116 57014 885// 333 21002 43011 88646
AAXX 13061 26157 11496 81707 10009 21002 30003 40053 57016 69972 78082 889// 333 21008 86712 91112
AAXX 13061 26167 32466 81705 11001 21021 39973 40086 57017 8562/ 333 21009 42001 85712
AAXX 13061 26258 11598 81805 10007 21016 30032 40088 57011 69932 70282 885// 333 21012
AAXX 13061 26298 31596 71603 11016 21033 39925 40161 57013 71011 87500 333 21017 47008
AAXX 13061 26359 32699 71805 10007 21013 39972 40107 57012 875// 333 21016
AAXX 13061 26702 11496 32402 10046 20024 30063 40089 52011 69942 71061 83500 333 20017 91004 91108
AAXX 13061 26781 11295 81704 11013 21018 39874 40174 57014 69902 77372 8802/ 333 21024 47002 88505
AAXX 13061 27208 32597 71804 11009 21034 30000 40180 57008 86530 333 21013 43009
AAXX 13061 27402 32497 71703 11006 21034 30019 40203 54000 87500 333 21013 43001 87616
AAXX 13064 78526 32566 20000 10233 20206 30112 40134 56011 90556 333 10256 20228 555 91306
AAXX 13064 78543 35966 00000 10239 20206 30051 40131 57009 90553 333 10256 20217 555 91306
AAXX 13064 82143 NIL
AAXX 13064 82599 32570 21106 10258 20226 30039 40099 82100 333 59011
AAXX 13064 82824 21350 60000 10243 20228 39981 40082 71062 885// 333 59005 69911
AAXX 13064 82899 32570 30707 1//// 2//// 30098 40110 83100 333 58009
AAXX 13064 83117 NIL
AAXX 13064 83248 32470 73104 10260 20241 30085 40107 85830 333 59001
AAXX 13064 83746 32970 20707 10222 20200 30085 40095 57018 82030
AAXX 13061 30372 42699 80000 11247 21265 39354 40305 52005 8397/
AAXX 13061 30433 42699 62604 11101 21198 39696 40316 52009 81531
AAXX 13061 30554 42998 21601 11229 21269 39137 40322 58015 81041
AAXX 13061 30635 41899 83201 11092 21122 39721 40315 54000 70172 83032
AAXX 13061 30673 42999 20000 11217 21242 39447 40278 58010 80001
AAXX 13061 30692 42999 02504 11216 21248 39725 40262 58///
AAXX 13061 30758 41996 00000 11168 21210 39433 40308 58010 70500
AAXX 13061 30802 42999 01401 11148 21182 38783 48548 58019
AAXX 13061 30823 42699 62804 11084 21142 39688 40349 54000 82932
AAXX 13061 30879 42999 00702 11213 21246 39448 40269 58010
AAXX 13061 30935 42999 82804 11116 21169 39376 40359 52004 85042
AAXX 13061 30949 42999 73204 11130 21182 39142 40286 52005 87030
AAXX 13061 30965 42999 10103 11164 21198 39394 40269 57005 80002
AAXX 13061 31168 42999 82704 11197 21286 30087 40099 52007 8801/ 333 91010
AAXX 13061 31300 42999 00000 11206 21212 39920 40234 52002
AAXX 13061 31329 42999 60000 11277 21315 39505 40244 58003 80001
AAXX 13061 31369 41598 82707 11164 21206 30020 40109 52012 73632 83902 333 91012 91114
AAXX 13061 31416 42999 01202 11174 21224 30053 40148 52005
AAXX 13061 31484 42999 02703 11142 21249 39823 40176 57001
AAXX 13061 31512 429// 71201 11163 21214 30064 40242 57011 86044
AAXX 13061 31538 42999 00000 11170 21239 39783 40245 58007
AAXX 13061 31707 42999 80000 11079 21179 30142 40238 57018 80001
AAXX 13061 31735 42997 02509 11143 21215 30130 40224 55002 333 91012 91113
AAXX 13061 31770 42999 03204 11117 21213 30135 40166 53013 333 91116
AAXX 13064 NIL
AAXX 13064 NIL
AAXX 13064 91165 12466 80514 10233 20211 30142 40178 53018 69951 90553 555 91306
AAXX 13064 91182 32566 40406 10244 20206 30161 40165 51019 90553 333 10278 20222 555 91306
AAXX 13064 91190 32566 41603 10220 20190 30151 90608 555 91306
AAXX 13064 91212 12566 60613 10278 20244 31360 40095 55007 69931 90554 333 10311 20272 555 91306
AAXX 13064 91285 32966 62304 10222 20211 30148 40161 51018 90553 333 10239 20200 555 91306
AAXX 13064 91317 11469 80505 10288 20259 30105 40109 5//// 60031 78082 82303 333 561/9 70175 82915 88080 555 91306
AAXX 13064 91348 32474 60908 10288 20222 30025 40078 55007 84101 333 562/9 70015 555 91306
AAXX 13064 91371 32474 40916 10278 20263 30084 40087 82313 333 56229 84815 82380 70000 555 91306
AAXX 13064 91245 32966 00713 10270 20230 30140 90557 555 91306
AAXX 13061 38598 41596 80909 10034 20008 40372 52006 71022 887//
AAXX 13061 38599 NIL
AAXX 13061 38725 42999 50000 11033 21180 47570 52022 80001
AAXX 13061 38734 42999 21301 11076 21131 47110 52016 81053
AAXX 13061 38744 42999 30000 11074 21113 38097 48630 52006 80001
AAXX 13061 38836 11/92 90000 10002 21009 39382 40355 53004 69900 74544 333 21035
AAXX 13061 38838 41/92 90502 11016 21027 39663 40365 57002 74942 8////
AAXX 13061 38844 42999 00702 11035 21125 48540 51001
AAXX 13061 38846 42999 01802 10016 21035 38595 48560 57003
AAXX 13061 38847 41/93 90000 11018 21022 40383 51001 74544
AAXX 13061 38932 NIL
AAXX 13061 38933 31/92 90000 11008 21023 39846 40374 53008 74744 333 21019
AAXX 13061 38944 12697 80000 10022 20006 39711 40262 57007 69900 885// 333 20009
AAXX 13061 38954 NIL
AAXX 13063 87007 11560 73202 10077 20021 36748 47150 50000 60031 71562 85720 333 56000 85730
AAXX 13063 87148 32970 61808 10210 20122 30009 40117 50003 86070 333 56000 86360
AAXX 13061 40703 11540 80000 11026 21041 39033 40362 52023 60001 71022 8662/ 333 34112 70000 83720 83635 88458
AAXX 13061 40712 11630 72503 11042 21106 38777 40350 52012 60001 70522 84370 333 34113 70000 81935 83640 87359
AAXX 13061 40729 11658 60702 11002 21061 38408 40317 53010 60001 70522 82550 333 34109 70000 82640 85359
AAXX 13061 40736 12960 70000 10066 20042 30341 40315 53009 60001 85036 333 31001 50051 70000 85363 87267
AAXX 13061 40739 12665 70000 10022 21035 38777 40320 52011 60001 81506 333 30105 70000 81640 87270
AAXX 13061 40743 12965 30703 10044 21033 39164 40316 53012 60001 80001 333 30103 70000 83070
AAXX 13061 40762 12965 30000 10052 21076 38625 40292 51011 60001 80002 333 30108 70000 83070
AAXX 13061 40768 12960 00000 11017 21063 38321 40322 52007 60001 333 31112 70000
AAXX 13061 40769 11958 10000 11004 21057 38363 40302 53009 60001 70500 80001 333 30108 5//// 70000
AAXX 13061 40785 12960 00000 10044 21033 39177 40308 52009 60001 333 30105 5///1 70000
AAXX 13061 40809 12965 10702 10054 21158 38569 40289 51008 60001 80001 333 30107 70000
AAXX 13061 40821 12962 00000 10072 21054 38867 40290 52005 60001 333 30104 50181 70000
AAXX 13061 40831 11957 03102 10078 20013 30235 40243 52017 60001 70500 333 30001 50291 70000
BBXX C6XC6 13064 99307 70296 41598 40610 10200 2//// 40280 56010 7//11 841// 22264 04200 2//// 30808 42005 52005 6//// 8//// ICE /////
BBXX A8VL8 13064 99209 30637 41297 30712 10240 20211 40140 54000 7//00 831// 22213 00250 202// 3//// 402// 5//// 6//// 80220 ICE /////
BBXX PHET 13061 99258 70777 41/98 50414 10232 20189 40200 56005 70222 852// 22224 20204 3//// 4//// 5////
BBXX C6VG7 13064 99247 70760 41698 40515 10236 2019/ 40155 57001 7//11 8384/ 22244 00260 20403 305// 4//// 5//// 6//// 80207 ICE /////
BBXX WKAB 13064 99411 70627 41/98 /0511 10100 20060 40328 58015 7//// 8//// 22225 00130 2//// 3//// 4//// 5//// 6//// 80080 ICE /////
BBXX 46111 13061 99481 71227 46/// /1903 10030 40194 58008 90600 22200 00059
BBXX 46112 13061 99481 71227 46/// /1702 10020 40195 56008 90600
AAXX 13061 28676 32997 50701 11231 21256 30200 40341 52001 80009 333 21248
AAXX 13061 28766 31995 01402 11217 21226 30112 40321 58005 71011 333 21220
AAXX 13061 28867 NIL
AAXX 13061 28879 31997 00000 11200 21224 30017 40331 58006 70400 333 21240
AAXX 13061 28952 NIL
AAXX 13061 28966 31998 81404 11214 21237 30014 40326 53003 70271 8807/ 333 21244
AAXX 13061 29802 31596 80302 11200 21219 30158 40314 53001 71022 885// 333 21245
AAXX 13061 29807 31597 83501 11185 21208 30181 40309 53007 70371 885// 333 21210
AAXX 13061 34691 32998 02701 11042 21061 30320 40307 53016 333 21042
AAXX 13061 35067 32998 30902 11196 21229 30014 40315 58002 82031 333 21250
AAXX 13061 35078 31497 71101 11254 21280 39920 40343 57003 70271 87600 333 21296
AAXX 13061 35085 32998 00000 11218 21235 39823 40346 58003 333 21279
AAXX 13061 35108 11597 83202 11021 21043 30200 40247 52020 69900 77172 8802/ 333 21045
AAXX 13061 35188 31996 01902 11211 21236 39872 40348 58005 70400 333 21247
AAXX 13061 35217 11497 82703 11016 21018 30203 40243 52016 69920 77172 8802/ 333 21037
AAXX 13061 35229 11596 82203 11046 21052 39956 40235 53002 60030 77072 885// 333 21132
AAXX 13061 35302 31998 83305 11003 21027 30235 40254 53021 70232 8807/ 333 21018
AAXX 13061 35357 32997 21603 11201 21227 39857 40331 58001 80001 333 21276
AAXX 13061 35394 32998 01801 11196 21222 39623 40360 52003 333 21260
AAXX 13061 35406 31597 72804 11020 21042 30264 40266 52015 70232 87500 333 21027
AAXX 13061 35416 11596 82306 11033 21054 30128 40252 52005 69930 77373 8802/ 333 21064
AAXX 13061 35426 11496 82204 11051 21058 39959 40258 53004 60020 77177 8872/ 333 21132
AAXX 13061 35497 32998 21101 11174 21205 39500 40360 52005 80001 333 21291
AAXX 13061 35532 12498 82203 11080 21116 39764 40274 52001 60040 8802/ 333 21128
AAXX 13061 35671 31496 81002 11152 21169 39868 40328 58005 77172 8802/ 333 21286
AAXX 13061 35700 32998 22304 11024 21060 30330 40306 53009 82030 333 21065
AAXX 13061 35746 11598 81902 11102 21130 30240 40311 52004 69920 70272 8355/ 333 21123
AAXX 13061 35796 11596 82201 11166 21190 39910 40380 52007 69900 77772 8561/ 333 21245
AAXX 13061 35849 12598 70000 11063 21078 30230 40319 52008 69940 87500 333 21111
AAXX 13061 35925 31992 72703 11057 21064 40328 52011 74442 87010 333 21073
AAXX 13061 35953 11599 82804 11040 21055 30188 40321 52016 60020 70272 885// 333 21073
AAXX 13061 35969 11596 82004 11022 21037 30161 40338 53005 69950 77173 8802/ 333 21062
AAXX 13061 36003 11998 62901 11188 21207 30146 40310 52007 60010 70172 85071 333 21209
AAXX 13061 36152 11998 72504 11162 21220 30133 40335 52010 69940 70232 80008 333 21218
AAXX 13061 36177 11997 81802 11150 21183 30091 40354 52014 69900 72272 8802/ 333 21181
AAXX 13061 36208 32999 70201 11066 21114 39313 40319 52011 85075 333 21096
AAXX 13061 36397 32999 62008 11077 21131 39756 40339 52023 80002 333 21109 91118
AAXX 13061 36428 31596 70702 11116 21129 39851 40377 52019 71022 84642 333 21212 95060
AAXX 13061 36535 32599 70000 11116 21160 39715 40382 52026 83531 333 21206
AAXX 13061 36639 31996 80902 11070 21103 39757 40385 52015 77172 8802/ 333 21124
AAXX 13061 36821 31596 72101 11010 21017 39866 40365 52003 71082 87900 333 21067
AAXX 13061 36859 31994 70000 11016 21036 39581 40380 52009 72842 85075 333 21035
AAXX 13061 36864 32699 51102 10020 21034 39441 40341 52001 83501 333 21010
AAXX 13061 36870 11497 80000 10005 21012 39322 40349 58006 60050 78588 889// 333 21004
AAXX 13061 38001 32597 60202 10012 21014 30365 40235 52009 885// 333 21020
AAXX 13061 38062 11495 82405 11006 21018 30163 40329 52010 60010 77377 8872/ 333 21058
AAXX 13061 38069 31596 81803 11020 21035 30160 40357 52008 77172 8802/ 333 21056
AAXX 13061 38196 NIL
AAXX 13061 38198 NIL
AAXX 13061 38222 11698 60000 10004 21019 39789 40358 54000 60030 71077 86500 333 21018
AAXX 13061 38232 32698 70103 11003 21025 30240 40342 52012 87500 333 21004
AAXX 13061 38328 NIL
AAXX 13061 38334 NIL
AAXX 13061 38341 32997 82602 11004 21038 39552 40356 52007 8807/ 333 21032
AAXX 13061 38343 32698 81601 11020 21038 39492 40358 52001 885// 333 21039
AAXX 13061 38439 NIL
AAXX 13061 38598 41596 80909 10034 20008 40372 52006 71022 887//
AAXX 13061 38599 NIL
AAXX 13061 38725 42999 50000 11033 21180 47570 52022 80001
AAXX 13061 38734 42999 21301 11076 21131 47110 52016 81053
AAXX 13061 38744 42999 30000 11074 21113 38097 48630 52006 80001
AAXX 13061 38836 11/92 90000 10002 21009 39382 40355 53004 69900 74544 333 21035
AAXX 13061 38838 41/92 90502 11016 21027 39663 40365 57002 74942 8////
AAXX 13061 38844 42999 00702 11035 21125 48540 51001
AAXX 13061 38846 42999 01802 10016 21035 38595 48560 57003
AAXX 13061 38847 41/93 90000 11018 21022 40383 51001 74544
AAXX 13061 38932 NIL
AAXX 13061 38933 31/92 90000 11008 21023 39846 40374 53008 74744 333 21019
AAXX 13061 38944 12697 80000 10022 20006 39711 40262 57007 69900 885// 333 20009
AAXX 13061 38954 NIL
AAXX 13061 28676 32997 50701 11231 21256 30200 40341 52001 80009 333 21248
AAXX 13061 28766 31995 01402 11217 21226 30112 40321 58005 71011 333 21220
AAXX 13061 28867 NIL
AAXX 13061 28879 31997 00000 11200 21224 30017 40331 58006 70400 333 21240
AAXX 13061 28952 NIL
AAXX 13061 28966 31998 81404 11214 21237 30014 40326 53003 70271 8807/ 333 21244
AAXX 13061 29802 31596 80302 11200 21219 30158 40314 53001 71022 885// 333 21245
AAXX 13061 29807 31597 83501 11185 21208 30181 40309 53007 70371 885// 333 21210
AAXX 13061 34691 32998 02701 11042 21061 30320 40307 53016 333 21042
AAXX 13061 35067 32998 30902 11196 21229 30014 40315 58002 82031 333 21250
AAXX 13061 35078 31497 71101 11254 21280 39920 40343 57003 70271 87600 333 21296
AAXX 13061 35085 32998 00000 11218 21235 39823 40346 58003 333 21279
AAXX 13061 35108 11597 83202 11021 21043 30200 40247 52020 69900 77172 8802/ 333 21045
AAXX 13061 35188 31996 01902 11211 21236 39872 40348 58005 70400 333 21247
AAXX 13061 35217 11497 82703 11016 21018 30203 40243 52016 69920 77172 8802/ 333 21037
AAXX 13061 35229 11596 82203 11046 21052 39956 40235 53002 60030 77072 885// 333 21132
AAXX 13061 35302 31998 83305 11003 21027 30235 40254 53021 70232 8807/ 333 21018
AAXX 13061 35357 32997 21603 11201 21227 39857 40331 58001 80001 333 21276
AAXX 13061 35394 32998 01801 11196 21222 39623 40360 52003 333 21260
AAXX 13061 35406 31597 72804 11020 21042 30264 40266 52015 70232 87500 333 21027
AAXX 13061 35416 11596 82306 11033 21054 30128 40252 52005 69930 77373 8802/ 333 21064
AAXX 13061 35426 11496 82204 11051 21058 39959 40258 53004 60020 77177 8872/ 333 21132
AAXX 13061 35497 32998 21101 11174 21205 39500 40360 52005 80001 333 21291
AAXX 13061 35532 12498 82203 11080 21116 39764 40274 52001 60040 8802/ 333 21128
AAXX 13061 35671 31496 81002 11152 21169 39868 40328 58005 77172 8802/ 333 21286
AAXX 13061 35700 32998 22304 11024 21060 30330 40306 53009 82030 333 21065
AAXX 13061 35746 11598 81902 11102 21130 30240 40311 52004 69920 70272 8355/ 333 21123
AAXX 13061 35796 11596 82201 11166 21190 39910 40380 52007 69900 77772 8561/ 333 21245
AAXX 13061 35849 12598 70000 11063 21078 30230 40319 52008 69940 87500 333 21111
AAXX 13061 35925 31992 72703 11057 21064 40328 52011 74442 87010 333 21073
AAXX 13061 35953 11599 82804 11040 21055 30188 40321 52016 60020 70272 885// 333 21073
AAXX 13061 35969 11596 82004 11022 21037 30161 40338 53005 69950 77173 8802/ 333 21062
AAXX 13061 36003 11998 62901 11188 21207 30146 40310 52007 60010 70172 85071 333 21209
AAXX 13061 36152 11998 72504 11162 21220 30133 40335 52010 69940 70232 80008 333 21218
AAXX 13061 36177 11997 81802 11150 21183 30091 40354 52014 69900 72272 8802/ 333 21181
AAXX 13061 36208 32999 70201 11066 21114 39313 40319 52011 85075 333 21096
AAXX 13061 36397 32999 62008 11077 21131 39756 40339 52023 80002 333 21109 91118
AAXX 13061 36428 31596 70702 11116 21129 39851 40377 52019 71022 84642 333 21212 95060
AAXX 13061 36535 32599 70000 11116 21160 39715 40382 52026 83531 333 21206
AAXX 13061 36639 31996 80902 11070 21103 39757 40385 52015 77172 8802/ 333 21124
AAXX 13061 36821 31596 72101 11010 21017 39866 40365 52003 71082 87900 333 21067
AAXX 13061 36859 31994 70000 11016 21036 39581 40380 52009 72842 85075 333 21035
AAXX 13061 36864 32699 51102 10020 21034 39441 40341 52001 83501 333 21010
AAXX 13061 36870 11497 80000 10005 21012 39322 40349 58006 60050 78588 889// 333 21004
AAXX 13061 38001 32597 60202 10012 21014 30365 40235 52009 885// 333 21020
AAXX 13061 38062 11495 82405 11006 21018 30163 40329 52010 60010 77377 8872/ 333 21058
AAXX 13061 38069 31596 81803 11020 21035 30160 40357 52008 77172 8802/ 333 21056
AAXX 13061 38196 NIL
AAXX 13061 38198 NIL
AAXX 13061 38222 11698 60000 10004 21019 39789 40358 54000 60030 71077 86500 333 21018
AAXX 13061 38232 32698 70103 11003 21025 30240 40342 52012 87500 333 21004
AAXX 13061 38328 NIL
AAXX 13061 38334 NIL
AAXX 13061 38341 32997 82602 11004 21038 39552 40356 52007 8807/ 333 21032
AAXX 13061 38343 32698 81601 11020 21038 39492 40358 52001 885// 333 21039
AAXX 13061 38439 NIL
AAXX 13064 16546 12566 42203 10094 20075 30181 40210 53010 69962 84800 333 20088 30/// 55/// 2//// 82825 83635
AAXX 13061 08515 11475 72607 10172 20154 30146 40269 57008 69942 70282 878// 333 20154 30014 50144 55/// 83814 86648 910// 911//
AAXX 13061 08521 32470 29901 10159 20107 30210 40280 58005 82800 333 20155 30/// 55080 82816
AAXX 13061 08524 12470 12902 10129 20121 30184 40283 57006 69912 81200 333 20112 30008 5//// 55074 21188 81815
AAXX 13061 08579 32/// /2402 10130 20110 30119 40244 57013 333 20124 30010 5//// 55/// 2////
BBXX 3EPD8 13064 99464 50761 41/98 /2407 10100 20068 40214 7//22 8//// 22243 04123 2//01 80085
BBXX A8SG3 13064 99263 50735 41598 71911 10170 20128 40150 56010 70311 86878 22283 04180 21204 323// 41404 80145
BBXX DCLH2 13060 99079 50898 41/98 81706 10220 20183 40130 54000 70322 8//// 22273 06231 2//// 3//// 4//// 5//// 80195
BBXX PDNN 13063 99427 70648 41/99 /2109 10079 20046 40305 57015 70111 8//// 22213 02082 20401 80063 90282
BBXX WXJ63 13063 99611 71464 41/96 83503 10002 21003 40012 51/// 761// 8//// 222// 00048 2//// 3//// 4//// 5//// 6//// 8//// ICE /////
BBXX C6XP7 13063 99181 70645 41298 20909 10260 20246 40120 7//00 811// 22224 00260 20401 325// 4//// 5//// 6//// 80250 ICE /////
BBXX NWS0003 13064 99592 71679 43/// /1222 10018 20002 49993 5//// 7//// 8//// 222// 04014 2//// 3//// 4//// 5//// 6//// 8//// ICE /////
BBXX DEDI 13063 99258 70955 41597 61121 10240 20164 40215 54000 70322 8/14/ 22214 00261 20604 80190
BBXX C6VR4 13063 99234 70512 41497 71125 10250 20204 40179 51017 70322 85143 22224 04260 20808 309// 40808 5//// 80220
BBXX DEHY 13064 99282 71158 41/// 62214 10165 20114 40120 54000 70322 86/// 22274 2//// 80135
BBXX 46083 13061 99582 71380 46/// /3106 10042 20007 40090 53008 90550 22200 00064 11511 20603 300// 41511 70055 333 91209 555 11067 22071 30540 42910 60549 311064 277067 275063 279065 278070 272052 82908 90541
BBXX 46042 13061 99368 71224 46/// /0802 10116 40107 52020 90550 22200 00120 11305 20401 328// 41305 70027 333 91203 555 11025 22026 30540 41303 60549 077024 077023 055019 045018 032019 027016
BBXX 41041 13061 99142 70460 46/// /1010 10258 20217 40128 56023 90550 22200 00267 11006 20504 3//// 41004 70028 333 91212 555 11104 22111 30533 41012 60549 100097 099095 100091 102090 103086 097083 81010 90550
AAXX 13061 10382 12980 31805 10032 20000 30020 40066 58034 69972 80005 333 10068 20020 34100 55000 55300 20000 30000 70011 83275
BBXX A8NO8 13064 99056 10827 41/98 60112 10265 20223 40110 50000 7//11 8/2// 22265 04310 20303 30000 80235
BBXX TBWUK14 13063 99300 11238 41297 40512 10170 20090 40244 54000 70211 847/4 22283 06200 20301 30000 80125
BBXX SHIP 13064 99063 10932 41398 70613 10300 2029/ 40090 5//// 70322 8727/ 22263 00300 2//// 3//// 4//// 5//// 6//// 80290 ICE /////
BBXX C6YA7 13064 99231 11595 41698 40708 10270 2023/ 40165 51005 70200 8416/ 22253 00270 20301 313// 41004 5//// 6//// 80240 ICE /////
BBXX A8IE7 13064 99062 10928 41598 40412 10250 20191 40105 56005 70100 841/8 22265 04287 299// 336// 40801 80210
BBXX DCAX2 13063 99293 11276 41498 11807 10145 20117 40210 56010 70322 81165 22223 20502 3//// 4//// 5//// 80130
BBXX DHDH 13064 99085 10717 41697 71508 10280 20253 40100 50010 70211 8557/ 22225 00270 20000 80260
BBXX SHIP 13063 99078 11277 41498 73516 10280 2025/ 40100 56010 70222 8727/ 22283 00300 20101 304// 40202 5//// 6//// 80260 ICE /////
BBXX WDE9586 13063 99350 11566 41598 53226 10150 2008/ 40135 53005 7//22 85200 22224 00210 20506 332// 40706 5//// 6//// 80110 ICE /////
BBXX WCX8812 13064 99469 11781 41498 42939 10020 2105/ 49922 54000 71571 842// 22234 00070 2//// 3//// 4//// 5//// 6//// 81005 ICE /////
BBXX KAOU 13064 99078 10984 43/// /0306 10279 20199 40100 5//// 7//// 8//// 222// 04294 2//// 3//// 4//// 5//// 6//// 8//// ICE /////
BBXX DMRX 13064 99481 11770 41298 43034 10014 21011 49903 53010 70170 81778 22224 00080 20310 32434 40510 50508 80004
BBXX PHPP 13064 99057 10815 41397 70323 10280 20233 40102 50001 76166 8676/ 22222 00295 2//01 315// 41002 80246
BBXX DPCK 13063 99130 11099 41295 83545 10210 20210 40100 57010 76152 88/2/ 22283 00240 20814 301// 40610 5//// 80210
BBXX MIBR 13063 99220 11142 41997 70510 10184 20095 40191 58013 70222 82039 22200 00198 20502 309// 40905 5//// 80137
BBXX A8PK9 13063 99095 10723 41598 50506 10295 20245 40119 58020 70222 81160 22224 00322 20100 312// 40402 5//// 80260
AAXX 13061 10815 12489 71904 11003 21023 39167 48401 57026 60002 86578 333 10015 21008 31102 4/998 55000 55300 20000 30000 70162 83616 84650 87272
AAXX 13064 65351 NIL
AAXX 13064 65355 31930 70610 10198 20000 39607 40124 70522 80002 333 20150 58002 87073
AAXX 13064 65357 31930 70804 10186 20142 39741 40133 70522 80002 333 20184 58001 87076
AAXX 13064 65380 32958 70000 10200 20183 3//// 4//// 80002 333 20194 5//// 87076
BBXX SBLI 13061 99300 71339 43/98 70210 10149 40226 53023 22264 00185 2//// 4//// NNNN 426621110
BBXX 44255 13061 99473 70573 46/// /2802 10027 40287 5//// 22200 00042 10804 70018 333 91204
BBXX C6QK 13063 99345 70505 41598 62415 10210 2018/ 40270 54000 70322 83462 22254 20201 80190
BBXX WKAB 13064 99411 70627 41/98 /0511 10100 20060 40328 58015 7//// 8//// 22225 00130 2//// 3//// 4//// 5//// 6//// 80080 ICE /////
BBXX C6SE3 13064 99109 70755 41697 70412 10278 20267 40140 54/// 70322 86/// 22213 00306 20802 305// 41503 5//// 6//// 80270 ICE /////
BBXX 44150 13061 99425 70640 46/// /2303 10081 40314 57017 22200 00096 10702 70011 333 91205
BBXX 42067 13061 99300 70886 46/// ///// 10123 20111 40275 90540 22200 00167 10402 70010
BBXX 41053 13061 99185 70661 46/// /2003 10244 40126 90540 333 91205
BBXX 41052 13061 99183 70648 46/// /0102 10260 40118 90550 333 91203
BBXX 41052 13061 99183 70648 46/// /0202 10261 40119 90540 333 91203
BBXX 41053 13061 99185 70661 46/// /2004 10242 40124 90550 333 91205
BBXX 41052 13061 99183 70648 46/// /3603 10260 40117 58010 90600 22200 00279 333 91204
BBXX 41053 13061 99185 70661 46/// /2003 10243 40123 57011 90600 22200 00279 11103 70015 333 91204
BBXX 44022 13061 99409 70737 46/// ///04 10038 21065 40305 57006 90600 22200 00091 333 91205 555 11036 22036
BBXX 42364 13061 99291 70881 46/// /0707 10183 20144 40264 58007 90600
BBXX 42362 13061 99278 70907 46/// /0809 10217 20156 40254 58004 90600
BBXX 41038 13061 99341 70777 46/// /0207 10117 40284 58008 90600 22200 00142 333 91209
BBXX 42363 13061 99282 70892 46/// /0910 10200 20139 40261 58003 90600 333 91210
BBXX 44139 13061 99442 70571 46/// /2408 10075 40326 57015 22200 00092 10704 70018 333 91209
BBXX DDSD2 13063 99200 70655 41497 30510 10255 20212 40130 58010 70311 822// 22214 00274 20303 306// 40505 5//// 80225
BBXX 2AKI3 13064 99150 70738 41/98 /0514 10270 20244 40117 50015 70211 8//// 22265 04285 2//// 3//// 4//// 5//// 80252
BBXX C6SE5 13064 99200 70844 41/// /0431 1//// 2//// 40180 54/// 7//// 8//// 22234 0//// 2//// 3//// 4//// 5//// 6//// 8//// ICE /////
BBXX PHET 13061 99258 70777 41/98 50414 10232 20189 40200 56005 70222 852// 22224 20204 3//// 4//// 5////
BBXX C6UB2 13064 99481 71353 41397 82317 10090 2007/ 40120 54000 70122 8794/ 22223 00080 20503 323// 40604 5//// 6//// 80080 ICE /////
BBXX C6SA3 13064 99177 70634 41/// /0606 10270 20243 40120 54/// 7//// 8//// 22223 00280 2//// 3//// 4//// 5//// 6//// 80250 ICE /////
BBXX V7DI7 13064 99437 70466 41/97 /3131 10070 2005/ 40280 52010 70222 8//// 22252 0//// 20508 332// 40711 5//// 6//// 80060 ICE /////
BBXX WDD3825 13064 99348 70649 41398 81206 10210 2020/ 40198 5//// 70222 88/7/ 22264 00230 2//// 3//// 4//// 5//// 6//// 80200 ICE /////
BBXX PHQX 13063 99455 70408 41697 73018 10061 21029 40260 57005 70282 872// 22224 2//09 3//// 40814 5//// 80025
BBXX MINFR00 1306/ 99430 70453 46/// ///// 10065 40315 52003
BBXX A8EH3 13063 99537 71766 41/// 80848 10030 21021 49600 57080 76366 89/// 22223 04050 20708 80010
BBXX DAJC 13063 99318 71501 41598 20705 10200 20135 40240 54000 70211 8221/ 22224 04200 21003 307// 41204 5//// 80160
BBXX 41101 13064 99146 70562 46/// /0810 10270 20237 40114 57012 22200 00274 10804 70021
BBXX WHRN 13063 99281 71382 41/95 80511 10178 2012/ 40245 52012 70022 88/// 22211 0//// 2//// 3//// 4//// 5//// 6//// 80144 ICE /////
BBXX VQAJ8 13063 99322 71193 41/98 80910 10118 20070 40096 54000 75852 88/// 22211 00153 299// 3//// 40301 5//// 80095
BBXX 44039 13061 99411 70727 46/// /2805 10063 20002 40309 90545 22200 00104 10301 70004 333 91207
BBXX 44060 13061 99413 70721 46/// ///04 10044 40299 58013 90600 22200 00093 333 91205 555 11036 22041
BBXX VRZN7 13064 99131 51795 416// 73410 10270 20230 40105 51005 7//22 8746/ 22253 04300 20306 336// 4//// 5//// 85240
BBXX PFBF 13063 99056 31152 41698 63514 10286 20192 40085 58014 71582 83378 22223 02302 20402 30000 4//// 5//// 80221
BBXX VRZN7 13064 99131 51795 416// 73410 10270 2023/ 40105 51005 7//22 8746/ 22253 04300 20306 336// 4//// 5//// 85240
BBXX VRWS4 13063 99175 31512 41598 33306 10303 20261 40046 55009 70200 83871 22244 04280 20304 33425 40804 50603 80273
BBXX VROB 13064 99068 31470 46/// /1406 10301 20223 30023 40047 57015 22200 04300 85244
BBXX C6FS9 13064 99224 31655 46/// /1514 10273 20231 30052 40087 57003 22223 04279 85243
BBXX 9HA2479 13064 99247 31633 46/// /3110 10225 20218 30050 40079 52014 22214 04250 85220
BBXX VNSZ 13064 99412 31464 46/// /3115 10169 20064 30103 40129 54000 22200 04176 85112
BBXX VRDU8 13063 99263 31125 41398 41822 10250 20188 40106 58020 70200 844// 22243 04240 20606 80210
BBXX VRAE4 13063 99035 31444 41498 33510 10290 20248 40074 57020 70311 82231 22273 04290 20403 335// 40604 80260
BBXX A8SG2 13061 99180 51391 41598 21107 10265 20205 40155 52010 70200 821// 22254 00280 20602 309// 40803 5//// 80225
BBXX MCCN6 13064 99260 31095 41498 31722 10225 20182 40117 58010 70300 8/200 22233 00222 20403 318// 41407 5//// 80198
BBXX A8RL3 13061 99069 30828 41392 29902 10290 40100 52020 70200 821// 22213 00290 2//00 3//// 4//02 5////
BBXX WE4805 13064 99469 70853 41/97 82414 10033 2//// 40254 54000 76006 88/// 22273 00050 20101 3//// 4//// 5//// 6//// 8//// ICE /////
AAXX 13064 40250 32960 00000 10046 21080 39432 40243 54002 333 200xx 300xx
AAXX 13064 40260 32960 10000 10041 21043 39440 40242 52010 333 80001 2xxxx 30xxx 81070
AAXX 13064 40265 31950 40000 10040 21029 39447 40265 52009 70500 82031 333 20000 30105 82360 83070
AAXX 13064 04048 42789 13412 10003 21023 49711 57017 81500 555 3/420
BBXX A8EY5 13064 99106 70238 41596 80612 40110 57/// 71022 887// 22255 20602 301// 40703 5////
BBXX UCKZ 13061 99477 30196 41/92 91108 10072 20071 40091 52013 74544 89/// 22243 00068 2////
BBXX WRYW 13064 99207 10385 43/// /3310 10260 2019/ 40142 53012 7//// 8//// 22235 00272 20302 333// 4//// 5//// 6//// 80210 ICE /////
BBXX A8VL8 13064 99209 30637 41297 30712 10240 20211 40140 54000 7//00 831// 22213 00250 202// 3//// 402// 5//// 6//// 80220 ICE /////
BBXX DHTK 13061 99061 70336 41497 60309 10267 20235 40095 56015 71586 848// 22214 00270 2//04 80244
BBXX MGGK4 13063 99301 30148 41598 72910 10175 20111 40120 53010 70311 82278 22274 00180 20101 318// 40604 5//// 80140
BBXX 2ALE5 13063 99233 70170 41998 00628 10190 20156 40186 52011 70200 80000 22284 20406 80170
BBXX A8YW2 13064 99337 30293 41998 00705 10230 20165 40090 54000 70200 80000 22224 00200 20301 80190
BBXX C6OM8 13060 99111 70275 41397 80507 10260 20215 40119 58020 70540 887// 22243 06266 20402 305// 40402 5//// 80230
BBXX DDZF2 13064 99092 10697 41697 81010 10300 20267 40115 50005 72962 8537/ 22225 00290 20201 80275
BBXX DCPY2 13063 99146 10419 41998 11723 40145 50010 70500 80008 22234 20507 318// 40305
BBXX PHOB 13064 99191 10384 41497 40214 10260 20232 40141 53015 70511 8224/ 22233 00250 20802 3//// 4//// 5//// 80240
BBXX NWS0029 13064 99173 70278 43/// /0723 10233 20175 40157 5//// 7//// 8//// 222// 04248 2//// 3//// 4//// 5//// 6//// 8//// ICE /////
BBXX PJHA 13064 99076 30111 41697 41813 10243 20242 40124 54000 7//// 8246/ 22213 06248 21003 31717 40903 51003 80242
BBXX DGZL 13063 99137 10552 41498 50233 10252 20228 40165 51025 70182 84145 22264 00260 21003 305// 41307 80235
BBXX PCIM 13064 99268 10344 41998 03215 10200 20148 40195 53005 700// 80000 22233 00225 20204 30000 80167
BBXX PCVX 13063 99091 50331 41/97 /0907 10257 20220 40115 70200 8//// 22253 2//// 80231
BBXX DFNB2 13063 99134 10500 41798 70118 10260 20170 40175 52030 70200 87070 22224 00240 20403 80200
BBXX SLKR 13063 99051 70855 43/97 23324 10253 40133 58008 22254 00270 2//// 4////
BBXX DFCX2 13063 99139 70955 41597 10725 10244 20181 40143 52/// 7//22 8/145 22234 06220 20803 80202
BBXX PCEX 13063 99130 70886 41798 30407 10265 20175 40130 53010 70200 8/045 22223 02284 200// 30000 80205
BBXX 62087 13061 99547 10068 46/// /3614 10072 20062 4//// 5//// 22220 00086
BBXX SKWI 13064 99415 70168 43/98 73028 10148 40178 53010 22263 00170 2//// 4////
BBXX SBLW 13063 99360 70323 43/98 62415 10181 40301 53004 22254 00190 2//// 4////
BBXX DBBA 13061 99536 10086 46/// ///// 10054 20030 49918 57064/ 22220 00051
BBXX A8MW6 13064 99363 70077 41598 73506 10170 20119 40260 57005 70322 8/8// 22262 00210 2//// 330// 4//01 5//// 80140
BBXX MGSG6 13063 99578 70001 41598 32025 10070 20021 49652 57050 70111 82285 22283 04163 20404 320// 40506 5//// 80050
BBXX 62023 13063 99514 70079 46/97 /2543 10060 2//// 49868 5//// 22200 10812 70061 333 91173 555 70094 80018
BBXX MINUK01 1306/ 99574 70018 46/// ///// 10045 49641 52007
BBXX DBKR 13061 99541 10121 46/// /1706 10033 20021 40000 57044 22200 00058
BBXX DBBA 13061 99536 10086 46/// +//// 10054 20030 49918 57064/ 22220 00051
BBXX DBEA 13061 99540 10084 46/// /1822 10050 20028 49900 57063 22260 04045
BBXX DBFR 13061 99551 10183 46/// /2314 10049 20035 44064 52006 22250 00065
BBXX DBBC 13061 99535 10086 46/// /1714 10055 2//// 49920 57064 22240 04047
BBXX DBJM 13061 99540 10085 46/// /1722 10046 20024 49902 57068 22220 00047
BBXX DBEB 13061 99538 10081 41/// /1821 10050 20049 49896 57066 7//// 22261 00050
BBXX C6XC6 13064 99307 70296 41598 40610 10200 2//// 40280 56010 7//11 841// 22264 04200 2//// 30808 42005 52005 6//// 8//// ICE /////
BBXX LMEL 13061 99603 10053 43/// /1406 10067 21023 49745 5//// 222/2 04097 1//// 3//// 4//// 5////
BBXX LDGJ 13061 99603 10053 43/// /1405 10068 21018 49747 5//// 222/1 04095 1//// 3//// 4//// 5////
BBXX LF4H 13064 99596 10022 46/97 11435 10067 20053 49641 57088 8//// 22200 06090 10709 70045 333 91147
BBXX LGWS 13061 99326 70091 43/// /0607 10131 20094 40250 5//// 222/0 04167 1//// 3//// 4//// 5////
BBXX DGWD2 13063 99364 10147 41498 23109 10169 20124 40192 52002 70200 8114/ 22223 00190 2//02 80142
BBXX UFJN 13061 99712 10355 41/98 42006 11020 40012 54000 70211 83241 22200 0//// 20301
BBXX LAVW4 13064 99421 70115 41696 82534 00/// 10165 2014/ 40145 54000 70221 888// 22253 00146 21612 325// 41712 5//// 6////
BBXX NWS0020 13064 99361 10204 43/// /2314 10173 20120 40203 5//// 7//// 8//// 222// 04204 2//// 3//// 4//// 5//// 6//// 8//// ICE /////
BBXX A8PX4 13064 99336 10249 41/98 82110 10172 20102 40228 53008 70222 8111/ 22264 00199 2//// 80132
BBXX MGSM5 13063 99561 10112 41298 82540 10055 20043 49926 57035 70322 877// 22253 04060 20401 324// 40603 5//// 80050
BBXX UCKA 13061 99560 10167 41998 22412 10059 40035 57009 70200 80008 22213 00080 20605
BBXX DGOS 13063 99361 70307 41297 82519 10180 20158 40290 54000 70222 8577/ 22231 299// 80166
BBXX PDHW 13063 99539 10078 41/98 /1845 10070 20038 49870 57050 76288 8//// 22200 00070 2//// 80055
BBXX UGGA 13061 99691 10408 41/98 92210 10050 40042 54000 70222 89/// 22231 20403
BBXX UCKG 13061 99670 10060 41/98 91106 10040 49800 57007 70222 22213 00090 20202 32800 40303
BBXX VRGJ6 13063 99361 70037 41998 02509 10152 20094 40248 57005 70200 80000 22224 04171 20101 325// 40402 5//// 80122
BBXX C6KD5 13063 99366 70336 41597 82712 10195 20162 40286 56010 70380 8746/ 22224 02190 20301 327// 40605 5//// 80175
BBXX DDIG2 13064 99368 70272 41598 52719 10170 20153 40270 54000 7//22 855// 22254 04170 20502 330// 41205 80160
BBXX PCIH 13063 99300 70142 41497 60416 10190 20124 40250 53005 70322 22284 20403 304// 40904 80150
AAXX 13061 08558 32/// /1201 10091 20090 39959 40258 57009 333 20069 30001 5//// 55006 20660
AAXX 13064 60360 11560 62309 10131 20108 40240 53001 60014 85730 333 00816 20119 82830 84840 95990
AAXX 13064 60390 12570 32203 10104 20092 40266 58001 69944 81830 333 00691 20095 81820 95990
AAXX 13064 60402 12560 12408 10096 20075 40254 56003 60004 81200 333 00500 20094 81820 95990
AAXX 13064 60419 12965 20000 10036 20016 40261 58001 60004 82030 333 00200 20034 82360 95900
AAXX 13064 60475 12660 20000 10023 20018 39291 48544 56001 60004 82530 333 05400 20016 82640 95990
AAXX 13064 60490 12470 41804 10096 20090 40260 55006 60004 84602 333 00200 20077 84616 95990
AAXX 13064 60525 12960 03312 10114 20051 40240 53001 60004 333 00600 20113 95990
AAXX 13064 60531 12965 00000 10054 20052 40274 56011 60004 333 00100 20054 95990
AAXX 13064 60566 12960 03310 10092 20054 40272 55002 60004 333 00600 20092
AAXX 13064 60571 12962 00000 10040 20031 39337 48580 53001 60004 333 0//00 20038 95990
AAXX 13064 60580 12960 00000 10065 20047 40254 55000 60004 333 00400 20060
AAXX 13064 60590 12660 13204 10040 20015 40281 53004 60004 81500 333 0//00 20035 81640
AAXX 13064 60611 12860 40403 10050 21030 40254 53009 60004 82031 333 00400 20049 82358 83073
AAXX 13064 60620 12960 30614 10103 21013 40254 53005 60004 81032 333 0//00 20090 81365 83075
AAXX 13064 60630 12965 53308 10129 20029 40238 53002 60004 82032 333 00600 20110 82362 84075
AAXX 13064 60656 12960 40406 10109 20013 40237 57002 60004 81282 333 00900 20100 81846 82360
AAXX 13064 60670 12980 60000 10072 21025 39103 48539 53008 60004 80004 333 00200 20061 86073 95900
AAXX 13064 60680 NIL
AAXX 13061 80402 NIL
AAXX 13061 80412 NIL
AAXX 13061 80416 NIL
AAXX 13061 80420 32960 01801 10253 20221 30094 40100 333 30/// 58000 555 10113
AAXX 13061 80425 32460 20701 10254 20237 30074 40105 82400 333 30/// 56900 59004 82613 555 10106
AAXX 13061 80426 32560 12301 10220 20115 39469 40110 81500 333 31/// 56900 58000 81630 555 10144
AAXX 13061 80427 32960 03402 10234 20224 39852 40102 333 30/// 59002 555 10121
AAXX 13061 80431 NIL
AAXX 13061 80434 NIL
AAXX 13061 80437 11460 30000 10244 20244 30004 40087 60021 70252 83500 333 32/// 56900 58006 83617 555 10094
AAXX 13061 80440 32560 30201 10243 20217 39882 40096 81508 333 30/// 56909 59009 81623 555 10102
AAXX 13061 80442 NIL
AAXX 13061 80472 32960 21801 10224 20214 39619 40094 80008 333 30/// 56009 58004 555 10121
AAXX 13061 80475 32460 60501 10207 20207 39755 40126 865// 333 31/// 569// 58016 86617 555 10137
AAXX 13061 80476 32360 6//// 10275 20266 30074 40104 865// 333 30/// 569// 59007 86610
AAXX 13061 80478 NIL
AAXX 13061 80479 NIL
AAXX 13064 60351 12560 31004 10110 20088 40235 58004 69984 83500 333 00616 20080 83640 95990
AAXX 13064 60355 12660 52204 10134 20092 40233 58002 69964 83232 333 0//19 20126 83833 82360 95990
AAXX 13064 60445 12960 12803 10030 20025 39080 48549 56006 60004 81030 333 05400 20021 81360 95990
AAXX 13064 60468 12560 11506 11004 21021 39296 48549 53003 60004 81200 333 05600 21007 81826 95900
AAXX 13064 60507 12960 20000 10046 20044 40278 58009 60004 80002 333 00000 20043 82073 95990
AAXX 13064 60511 12560 62410 10068 20051 39129 48559 57002 60004 86200 333 00200 20047 86820 95990
AAXX 13064 60535 11565 70000 10058 20058 38897 48556 58005 60004 700// 877// 333 00500 20053 87720 95900
AAXX 13064 60536 12960 00000 10025 20020 39390 48561 58006 60004 333 05400 20022 95990
AAXX 13064 60549 11960 01606 10031 20026 38996 48587 54000 60004 700// 333 00000 20030 95990
AAXX 13064 60550 11/00 90000 10004 20004 38740 48572 56004 60004 74541 333 05300 21003 95990
AAXX 13064 60555 12970 00000 10078 20056 40252 53006 60004 333 00400 20071
AAXX 13064 60559 12960 00000 10057 20045 40251 53007 60004 333 0//00 20053
AAXX 13064 60581 12960 00000 10062 20026 40250 54000 60004 333 00100 20048
AAXX 13064 60602 11960 20000 10074 20025 40273 53004 60004 700// 82030 333 0//00 20064 82360 95990
AAXX 13064 60607 12960 20208 10103 20013 40244 53004 60004 80002 333 0//00 20070 82075
AAXX 13064 60640 12960 42506 10075 21016 40231 55000 60004 81032 333 00500 20070 81360 83073
AAXX 13064 60690 NIL
AAXX 13064 91943 36/// /1010 10270 20213 30140 40142 52011 333 20270 59013
AAXX 13064 91945 36/// /0408 10267 20227 30163 40168 52016 555 58002
AAXX 13064 60360 11560 62309 10131 20108 40240 53001 60014 85730 333 00816 20119 82830 84840 95990
AAXX 13064 60390 12570 32203 10104 20092 40266 58001 69944 81830 333 00691 20095 81820 95990
AAXX 13064 60402 12560 12408 10096 20075 40254 56003 60004 81200 333 00500 20094 81820 95990
AAXX 13064 60419 12965 20000 10036 20016 40261 58001 60004 82030 333 00200 20034 82360 95900
AAXX 13064 60475 12660 20000 10023 20018 39291 48544 56001 60004 82530 333 05400 20016 82640 95990
AAXX 13064 60490 12470 41804 10096 20090 40260 55006 60004 84602 333 00200 20077 84616 95990
AAXX 13064 60525 12960 03312 10114 20051 40240 53001 60004 333 00600 20113 95990
AAXX 13064 60531 12965 00000 10054 20052 40274 56011 60004 333 00100 20054 95990
AAXX 13064 60566 12960 03310 10092 20054 40272 55002 60004 333 00600 20092
AAXX 13064 60571 12962 00000 10040 20031 39337 48580 53001 60004 333 0//00 20038 95990
AAXX 13064 60580 12960 00000 10065 20047 40254 55000 60004 333 00400 20060
AAXX 13064 60590 12660 13204 10040 20015 40281 53004 60004 81500 333 0//00 20035 81640
AAXX 13064 60611 12860 40403 10050 21030 40254 53009 60004 82031 333 00400 20049 82358 83073
AAXX 13064 60620 12960 30614 10103 21013 40254 53005 60004 81032 333 0//00 20090 81365 83075
AAXX 13064 60630 12965 53308 10129 20029 40238 53002 60004 82032 333 00600 20110 82362 84075
AAXX 13064 60656 12960 40406 10109 20013 40237 57002 60004 81282 333 00900 20100 81846 82360
AAXX 13064 60670 12980 60000 10072 21025 39103 48539 53008 60004 80004 333 00200 20061 86073 95900
AAXX 13064 60680 NIL
AAXX 13064 60351 12560 31004 10110 20088 40235 58004 69984 83500 333 00616 20080 83640 95990
AAXX 13064 60355 12660 52204 10134 20092 40233 58002 69964 83232 333 0//19 20126 83833 82360 95990
AAXX 13064 60445 12960 12803 10030 20025 39080 48549 56006 60004 81030 333 05400 20021 81360 95990
AAXX 13064 60468 12560 11506 11004 21021 39296 48549 53003 60004 81200 333 05600 21007 81826 95900
AAXX 13064 60507 12960 20000 10046 20044 40278 58009 60004 80002 333 00000 20043 82073 95990
AAXX 13064 60511 12560 62410 10068 20051 39129 48559 57002 60004 86200 333 00200 20047 86820 95990
AAXX 13064 60535 11565 70000 10058 20058 38897 48556 58005 60004 700// 877// 333 00500 20053 87720 95900
AAXX 13064 60536 12960 00000 10025 20020 39390 48561 58006 60004 333 05400 20022 95990
AAXX 13064 60549 11960 01606 10031 20026 38996 48587 54000 60004 700// 333 00000 20030 95990
AAXX 13064 60550 11/00 90000 10004 20004 38740 48572 56004 60004 74541 333 05300 21003 95990
AAXX 13064 60555 12970 00000 10078 20056 40252 53006 60004 333 00400 20071
AAXX 13064 60559 12960 00000 10057 20045 40251 53007 60004 333 0//00 20053
AAXX 13064 60581 12960 00000 10062 20026 40250 54000 60004 333 00100 20048
AAXX 13064 60602 11960 20000 10074 20025 40273 53004 60004 700// 82030 333 0//00 20064 82360 95990
AAXX 13064 60607 12960 20208 10103 20013 40244 53004 60004 80002 333 0//00 20070 82075
AAXX 13064 60640 12960 42506 10075 21016 40231 55000 60004 81032 333 00500 20070 81360 83073
AAXX 13064 60690 NIL
AAXX 13061 45032 36/// /2601 10224 20037 30167 40184 57003
AAXX 13061 45035 36/// /2803 10191 20074 30142 40185 57003
AAXX 13061 45039 36/// /0003 10208 20073 30167 40182 57001
AAXX 13061 45044 36/// /1403 10216 20071 30090 40182 57002
AAXX 13061 45032 36/// /2601 10224 20037 30167 40184 57003
AAXX 13061 45035 36/// /2803 10191 20074 30142 40185 57003
AAXX 13061 45039 36/// /0003 10208 20073 30167 40182 57001
AAXX 13061 45044 36/// /1403 10216 20071 30090 40182 57002
BBXX 46207 13061 99509 71299 46/// /2008 10086 40125 57013 22200 00083 11106 70032 333 91210
AAXX 13061 15712 12456 80000 10077 20070 39952 40199 53004 60001 886// 333 10108 20065 55056 70001 555 31002 596//
AAXX 13063 63602 32970 42903 10215 20153 38801 84031 333 20163 58002 84362 555 10174
AAXX 13063 63654 32460 59206 10228 20169 48/// 85930 333 20165 85820 81922 555 10190
AAXX 13061 48921 31310 81401 10135 20117 38584 48080 57007 71044 886// 333 59008
AAXX 13061 48924 31556 21602 10190 20141 39524 40154 57025 71044 82100 333 59003
AAXX 13061 48925 31456 12704 10205 20125 39405 40137 57031 71044 81100 333 59024
AAXX 13061 48926 31559 10903 10235 20144 39687 40155 57024 70544 81100 333 59008
AAXX 13061 48927 32960 00203 10184 20090 39170 48640 57021 333 59014
AAXX 13061 48928 32960 00902 10184 20085 39082 48559 57034 333 59017
AAXX 13061 48930 31459 43201 10220 20129 39810 40161 57033 70544 81100 333 59030
AAXX 13061 48935 32468 30402 10206 20077 38969 48468 57031 81101 333 59012
AAXX 13061 48938 31540 11801 10206 20140 39821 40159 57035 70544 81100 333 59008
AAXX 13061 48940 31957 01801 10248 20135 39941 40137 57030 70544 333 59019
AAXX 13061 48941 31465 11804 10242 20154 3//// 4//// 5//// 70544 81100 333 5////
AAXX 13061 48944 31559 23204 10205 20076 39530 40119 57004 70544 82500 333 59001
AAXX 13061 48945 31556 33601 10248 20068 39978 40159 57026 70544 82202 333 59020
AAXX 13061 48946 31556 41402 10252 20183 39986 40152 57024 70544 82110 333 59002
AAXX 13061 48947 32460 61401 10252 20153 30012 40178 57011 83260 333 59023
AAXX 13061 48948 32465 30904 10240 20129 39947 40159 57013 83100 333 58007
AAXX 13061 48952 31558 83602 10250 20156 39934 40126 57021 70544 84230 333 59003
AAXX 13061 48953 31558 60402 10280 20169 39926 40090 57021 70544 84230 333 59003
AAXX 13061 48955 31558 60402 10280 20169 39926 40090 57021 70544 84230 333 59003
AAXX 13061 48956 NIL
AAXX 13061 48957 31568 70401 10290 20171 39998 40105 57020 70544 8587/ 333 59007
AAXX 13063 87480 32962 01805 10156 20081 30113 40142 50000
AAXX 13063 87532 32965 01402 10156 20086 30009 40177 51007
BBXX 46207 13061 99509 71299 46/// /2008 10086 40125 57013 22200 00083 11106 70032 333 91210
AAXX 13061 40716 12960 32402 11020 21075 39015 40339 52018 60001 82032 333 30108 70000 82359
AAXX 13061 40719 11440 82402 10082 20055 30333 40322 53012 69901 76162 8632/ 333 31008 50041 79999 82915 84620 88557
AAXX 13061 40721 12960 70000 10070 20027 39764 40322 52010 60001 80006 333 31002 50271 70000 87269
AAXX 13061 40858 NIL
AAXX 13061 40872 NIL
AAXX 13061 40877 12960 01403 10160 21059 39662 40212 52022 60001 333 30002 50461 70000
AAXX 13061 40898 12962 00302 10240 21060 30170 40179 51020 60001 222// 00246 10400 333 30018 50351 70000 8226 9
AAXX 13061 34560 31996 22802 11037 21041 30144 40318 52008 71000 82030 333 21054 41997
AAXX 13061 34720 32999 20803 11018 21045 30266 40307 50002 82030 333 21019
AAXX 13061 34730 31996 31104 11037 21050 30217 40314 52003 71011 83030 333 21071
AAXX 13061 34740 31996 10904 11029 21036 30209 40309 57004 71000 80030 333 21057
AAXX 13061 34824 31596 21003 11011 21026 30279 40285 54001 71011 82500 333 21011
AAXX 13061 34858 31996 71101 11010 21020 30207 40319 52003 71022 87070 333 21042
AAXX 13061 34866 32998 00000 11019 21027 30339 40330 52008 333 21048
AAXX 13061 34880 32/// /2502 11029 21043 30358 40331 52012 333 21044
AAXX 13061 37018 32698 30401 10083 20014 30201 40277 54001 82801 333 20084
AAXX 13061 37054 32498 81202 10021 20006 39921 40316 52002 885// 333 20017
AAXX 13061 37472 31596 80401 10050 20037 30350 40327 52007 71052 885// 333 20040
AAXX 13064 41254 36/// /9902 10176 21192 38288 48293 333 0E004 20070 58038
AAXX 13064 87344 32560 62906 10166 20112 39626 40177 58009 83570 333 56500 83625 83360
AAXX 13064 87349 32565 72704 10170 20131 39777 40170 55012 87500 333 56600 87620
AAXX 13064 87371 32962 22306 10171 20104 30130 40151 56005 82070 333 56000 82360
AAXX 13064 87374 32965 02304 10181 20103 30054 40141 57005
AAXX 13064 87395 32965 00000 10148 20083 30085 40130 57003
AAXX 13064 87418 32965 01802 10174 20119 39365 40149 52004
AAXX 13064 87436 32970 00905 10169 20101 39360 40159 57007
AAXX 13064 87448 32965 03604 10118 20074 39609 40166 57009
AAXX 13064 87453 32965 02905 10178 20075 39673 40153 58013
AAXX 13064 87467 NIL
AAXX 13064 87497 NIL
AAXX 13064 87506 NIL
AAXX 13064 87509 32970 02707 10161 20062 39323 40160 54000
AAXX 13064 87534 32960 01804 10145 20089 30004 40164 53004
AAXX 13064 87548 32965 01804 10142 20049 30056 40151 52001
AAXX 13064 87576 32960 02306 10134 20078 30110 40134 58008
AAXX 13064 87582 32960 11812 10160 20084 30128 40134 56004 80005 333 56007 81270
AAXX 13064 87585 32960 01808 10154 20086 30098 40128 58007
AAXX 13061 40701 11/03 90000 11086 21093 38690 40384 52010 60001 74944 333 30109 70000 89/20
AAXX 13061 40704 12970 10000 11092 21111 38693 40382 51009 60001 81030 333 3/115 43013 70000
AAXX 13061 40708 12558 60000 11030 21059 38753 40344 52005 60001 86600 333 3/115 43004 70000 86722
AAXX 13061 40710 12662 39901 11136 21153 38397 40435 52011 60001 81570 333 3/122 47009 70000 81635
AAXX 13061 40713 11635 80705 11030 21073 38755 40341 52012 60001 70522 8351X 333 34103 70000 83635 88460
AAXX 13061 40731 11956 70000 10037 21021 38820 40310 52010 60001 70520 87050 333 30105 70000 87360
AAXX 13061 40740 12962 20000 11040 21072 38816 40344 52014 60001 80001 333 3/113 47003 70000 82070
AAXX 13061 40747 12960 00000 11018 21057 38701 40306 52015 60001 333 34110 70000
AAXX 13061 40757 12662 71901 10058 21007 38987 40304 53010 60001 81506 333 30104 70000 81635 86270
AAXX 13061 40763 12965 20000 10058 21047 39004 40299 52016 60001 80001 333 30/// 70000 82070
AAXX 13061 40782 12965 10000 10030 21066 38935 40276 52012 60001 80001 333 30110 5//// 70000 81070
AAXX 13061 40783 12968 10000 10038 21060 38028 40250 51006 60001 80001 333 30109 5//// 70000 81070
AAXX 13061 40789 12965 20000 10044 21033 39299 40306 53015 60001 80001 333 30103 50201 70000 82070
AAXX 13061 40798 12960 40000 10004 21080 38015 40295 52012 60001 80001 333 30111 70000 84070
AAXX 13061 40818 12965 20000 10038 21093 38027 40259 52015 60001 80001 333 30107 5///1 70000 82070
AAXX 13061 40827 12970 00000 10056 21073 38916 40323 51006 60001 333 30107 5//// 70000
AAXX 13061 40836 12965 00000 10050 21088 38248 40260 52011 60001 333 30110 5///1 70000
AAXX 13061 40851 12960 00902 10074 21076 38324 40265 51011 60001 333 30110 5///1 70000
AAXX 13061 40853 12965 00000 10090 21108 37797 40225 52013 60001 333 30109 5//// 70000
AAXX 13061 40854 12960 02902 10116 21077 39030 40253 51016 60001 333 30001 50261 70000
AAXX 13061 40857 11950 03502 10138 20082 30221 40231 52023 60001 70600 222// 00172 20301 333 30008 50251 70000
AAXX 13061 40859 12965 00000 10098 21032 38769 40228 52016 60001 333 30104 50201 70000
AAXX 13061 40878 12965 20702 10132 21111 38911 40255 51013 60001 80002 333 30101 5//// 70000 82070
AAXX 13061 40879 11958 30000 10170 21107 39554 40243 51005 60001 70500 80006 333 30004 50431 70000 83270
AAXX 13061 40883 12960 00302 10222 20096 30171 40194 51015 60001 222// 00208 20501 333 30010 50421 70000
AAXX 13061 22282 115// 82809 11032 21049 30079 40087 53025 69900 78583 889// 333 21036
AAXX 13061 22438 NIL
AAXX 13061 22471 32984 72305 11022 21047 30106 40130 52019 87030 333 21049
AAXX 13061 22563 12597 82402 11023 21035 30115 40154 52015 69980 885// 333 21043 88622
AAXX 13061 22641 32999 81302 11035 21053 30099 40115 57011 8805/ 333 21038 91108
AAXX 13061 22695 12398 81802 11052 21069 30031 40188 52022 69900 886// 333 21083 88708
AAXX 13061 22867 32598 71601 11037 21052 30068 40184 52005 85530 333 21027 85633 91103
AAXX 13061 22939 32597 71807 11009 21019 39994 40159 57008 875// 333 21027 87622
AAXX 13061 22996 11996 81902 11094 21106 30034 40234 52018 69900 77172 8807/ 333 21117
AAXX 13061 23324 11980 82306 11083 21120 30110 40191 53020 69900 73673 8807/ 333 21088
AAXX 13061 27051 NIL
AAXX 13061 27225 32465 81904 11024 21036 30066 40200 58003 885// 333 21027 88618
AAXX 13061 27252 31559 82001 11031 21038 30037 40228 52009 71022 885// 333 21038 88621
AAXX 13061 27333 32480 81502 11026 21032 30056 40217 52004 84730 333 21017 47004
AAXX 13061 27369 /2998 82801 11018 21032 30100 40241 52014 69920 8801/ 333 21066
AAXX 13061 27393 11497 80000 11121 21134 30074 40252 52021 60010 71072 8665/ 333 21132
AAXX 13061 27479 11250 82802 11019 21021 30100 40238 52018 60010 77172 8872/ 333 21078 88706
AAXX 13061 27532 11296 82102 11024 21030 30023 40242 52004 71022 8565/ 333 21037 85706
AAXX 13061 27648 32597 82402 11022 21031 30090 40264 52013 885// 333 21022 88520
AAXX 13061 27675 32597 72802 11021 21039 30076 40249 52020 87500 333 21023
AAXX 13061 27679 32599 73002 11021 21036 30027 40256 52020 87500 333 21046 87623
AAXX 13061 28214 11996 80000 11172 21178 30029 40259 52018 60020 77172 8801/ 333 21149
AAXX 13061 01494 11475 51705 10045 20035 39827 49891 58025 69992 7032/ 83570 333 20017 70077 91109
BBXX 3ERR2 13064 99635 10053 41497 71820 10064 20014 49771 57018 78088 879xx 22200 06090 10606 70030 333 91137
BBXX LF3F 13064 99643 10078 43/// /2118 10064 20009 49792 54000 22200 04089 10707 70036 333 91135
BBXX LF3N 13064 99653 10073 41597 72418 10061 20020 49768 57010 70262 8//// 22200 00092 10905 70027
BBXX LF4B 13064 99606 10037 47/97 /1436 10057 49708 57068 761// 22200 00067 10707 70036 333 91143
BBXX LF4C 13064 99584 10019 43/// /2226 10090 20053 49648 57044 22200 10708 70040 333 91145
BBXX LF5T 13064 99660 10081 41497 80708 10045 20025 49767 57019 76362 88/// 22200 06084 333 91120
AAXX 13061 22165 11497 81805 11009 21022 30000 40062 53021 69920 72272 8872/ 333 21029
AAXX 13061 22676 11482 81803 11014 21025 30093 40172 52018 69970 70282 889// 333 21037
AAXX 13061 22954 12374 81703 11025 21034 39930 40185 57004 69900 887// 333 21051 86707
AAXX 13061 23405 11460 81502 11077 21095 30070 40173 52030 69960 77187 885// 333 21093 88614
AAXX 13061 23412 11497 81604 11094 21115 30082 40184 52019 69950 77172 8577/ 333 21097 85711
AAXX 13061 23803 11997 81502 11114 21134 30051 40241 53033 60020 77172 8802/ 333 21117
AAXX 13061 27066 11397 82001 11053 21060 30042 40226 52016 69920 71072 888// 333 21073 88707
AAXX 13061 27083 11499 82002 11088 21095 39993 40228 52013 69900 70272 885// 333 21110
AAXX 13061 27113 32260 82003 11016 21027 30027 40176 57003 885// 333 21041 85706
AAXX 13061 27242 32870 72401 11030 21037 30083 40215 52003 86070 333 21027
AAXX 13061 27329 32976 71902 11032 21043 30089 40218 53002 87030 333 21050
AAXX 13061 27355 32498 81802 11014 21037 30071 40238 52016 885// 333 21020
AAXX 13061 27373 11294 81501 11062 21066 30015 40242 52017 69930 71072 886// 333 21095 88706
AAXX 13061 27665 12397 82501 11022 21034 39984 40263 52011 69900 886// 333 21019 88709
AAXX 13061 27835 31945 71701 11061 21072 30109 40275 52004 85032 333 21062
AAXX 13061 28009 11950 30000 11193 21212 30027 40256 52013 60020 71011 80007 333 21161
AAXX 13061 28411 11996 80000 11157 21170 30036 40246 52016 60010 71072 83031 333 21139
AAXX 13061 28418 11956 83401 11128 21141 30061 40238 52017 60010 77172 8801/ 333 11132
AAXX 13061 11826 11450 79901 10033 20021 39962 40165 51002 60022 71066 875// 333 20033 31000 70020 87617
AAXX 13061 01375 16/// /1703 11059 21064 6//// 333 21066 91105
AAXX 13061 01440 46/// /1314 11028 21030 38535 49791 56052 333 91120
AAXX 13061 01441 16/// /1506 11005 21036 38837 49800 58047 69932 333 21022 70044 91113
AAXX 13061 01199 11445 81107 11095 21107 39457 49933 58030 60012 73673 8672/ 333 21161 47027 70014 91109
AAXX 13061 01262 46/// /2311 10054 20007 333 20002 91114
AAXX 13061 01393 16/// /1401 11036 21050 39089 49888 57003 6//// 333 21073 91106
AAXX 13061 01015 46/// /1709 11014 21062 333 21019 91116
AAXX 13061 01180 11680 71803 11010 21070 39791 49848 56020 60002 70222 85870 333 21048 70000 91109
AAXX 13061 01450 16/// /1207 11031 21042 38709 49838 58039 60002 333 21057 70047 91112
AAXX 13061 01277 16/// /0802 11021 21033 60002 333 21044 70002 91104
AAXX 13061 01476 16/// /1811 10063 20041 39860 49866 58043 6//// 333 20015 91116
AAXX 13061 01488 16/// /3001 10000 21003 60002 333 21011 4/022 70177 91102
AAXX 13064 16219 42970 00220 11012 21019 38081 48471 51/// 6///2 333 21014 41003 55000 2//// 92800
AAXX 13061 11150 12280 11504 11002 21007 39621 40175 57022 60032 333 21007 31101 81706
BBXX BAREU56 13064 99444 10089 46/// ///// 40162 22200
BBXX BAREU05 13064 99375 70094 46/// ///// 40256 57012 22283
BBXX BAREU60 13064 99436 10135 46/// ///// 40169 52035 22252
BBXX BATFR20 13064 99414 10094 46/// /0417 10144 20052 40175 58016 22284
BBXX BATFR50 13064 99425 10079 46/// /2920 10149 20077 40170 51010 22231 00167
BBXX BATFR15 13064 99369 70199 44598 22817 10177 20149 40254 55002 70200 811/1 22253 00197 20302 336// 41208 5////
BBXX BATFR41 13064 99431 10059 46/// ///// 10115 20000 40174 55003 22200
BBXX BATFR21 13064 99427 10089 46/// /2328 20087 40170 50003 22222
BBXX BATFR24 13064 99427 10095 44/98 02506 10149 20010 40166 53003 70000 22251 00167 20502 6/00/
BBXX BATFR27 13064 99490 70024 46/// /2641 10119 20055 49942 53050 22243 00134
BBXX BATFR11 13064 99372 10049 46/// /2705 10157 20107 40246 55003 22224 00180
BBXX BATFR09 13064 99408 10142 44497 32922 10157 20072 40159 70211 83200 22253 00185 20204 60//0 ICE 0/0//
BBXX BATFR04 13064 99598 70107 44398 81514 10054 20022 49559 56014 70022 887// 22200 00102 318// 40508 5////
BBXX BATFR54 13064 99415 70101 46/// /2130 10152 20137 40176 58007 22243 00157
BBXX BATFR46 13064 99357 70061 44/97 41410 10145 20122 40267 55002 703// 84/// 22213 00177
BBXX BATFR42 13064 99507 70019 46/// /2825 10094 20037 49884 55017 22272 00127
BBXX BATEU06 13064 99535 10099 46/// /1715 10074 20012 49953 22271 00054
BBXX BATFR02 13064 99508 70011 46/// /2532 10107 20059 49887 55023 22283 00112
BBXX BATUK01 13064 99577 70062 46/// /2021 10065 20004 49606 58028 22281 00112
BBXX 61001 13064 99434 10078 46/// /2411 1//// 2//// 40156 5//// 22200 00153 10603 70016
BBXX DDZA2 13064 99362 70037 41/98 22716 10155 20102 40240 57005 70322 8//// 22263 04170 2//// 80125
BBXX A8UT7 13064 99360 70127 41598 32815 10180 20148 40240 54000 70200 82444 22283 20703 333// 41010 80160
BBXX PBEO 13063 99427 70097 41597 82320 10160 20134 40158 57034 70222 8//// 22282 02155 20402 328// 41005 80144
BBXX DFUX2 13063 99438 70093 41/97 82244 10180 20131 40102 57060 75822 8//// 22214 00140 2//// 80150
BBXX 2AQK9 13064 99503 70001 41296 73031 10130 20111 49907 53008 72022 8777/ 22223 20403 325// 40504 5//// 80120
BBXX 61002 13064 99421 10047 46/// ///16 10147 2//// 40184 57016 22200 00161 10402 70008
AAXX 13064 60395 12660 60000 10107 20101 40251 57012 60054 86200 333 00800 20104 86840 95900
AAXX 13064 60421 NIL
AAXX 13064 60423 11665 70000 10088 20068 39259 48527 54000 60014 700// 878// 333 0//// 20075 83833 86640 95900
AAXX 13064 60430 11460 42812 10091 20066 40267 56006 60024 700// 84800 333 00659 20090 82816 83630 95990
AAXX 13064 60437 11/01 92204 10068 20068 39033 48533 58013 69974 747// 333 00419 20066 89/// 95990
AAXX 13064 60444 12560 20000 10037 20024 39148 48555 56005 60004 82200 333 01400 20033 82830 95990
AAXX 13064 60452 12965 3//// 10124 20097 40253 56009 60004 83200 222// 2//// 333 0//00 20124 83820 91826
AAXX 13064 60457 12560 32003 10110 20086 40256 56010 69924 83200 333 00700 20100 83820 95990
AAXX 13064 60514 11960 20000 10065 20048 39319 48552 58001 60004 700// 82500 333 05100 20061 82626 95990
AAXX 13064 60518 11965 02410 10120 20080 40243 58009 60004 700// 222// 29902 333 00800 20119 91837 95990
AAXX 13064 60520 11960 20000 10045 20035 40269 56006 60004 700// 80002 333 05100 20025 82073 95990
AAXX 13064 60540 11/01 90000 10020 20020 39105 48561 5//// 60004 747// 89/// 333 05100 20020 89/// 95990
AAXX 13064 60560 11960 00000 10024 20017 39020 48561 54000 60004 700// 333 00100 20022 95990
BBXX BAREU08 13064 99200 70656 46/// ///// 40136 57011 22214
BBXX BAREU54 13064 99143 70753 46/// ///// 40115 57016 22253
BBXX BAREU00 13064 99419 70665 46/// ///// 40298 57015 22213
BBXX BAREU11 13064 99087 70795 46/// ///// 40108 57013 22284
BBXX BAREU06 13064 99411 70428 46/// ///// 40313 52001 22274
BBXX FVNM 13064 99061 70998 46/// /2104 10252 20225 40130 50001 22221 00265
BBXX BATFR13 13064 99279 70479 44/98 01220 10229 20182 40240 58003 70000 22214 00249 20402
BBXX PDHY 13063 99471 70436 41/97 82811 10030 21021 40239 58020 7//22 8//// 22223 04070 2//// 325// 40905 5//// 80010
BBXX 41101 13064 99146 70562 46/// /0810 10270 20237 40114 57012 22200 00274 10804 70021
BBXX A8EH3 13063 99537 71766 41/// 80848 10030 21021 49600 57080 76366 89/// 22223 04050 20708 80010
BBXX DAJC 13063 99318 71501 41598 20705 10200 20135 40240 54000 70211 8221/ 22224 04200 21003 307// 41204 5//// 80160
BBXX PHQX 13063 99455 70408 41697 73018 10061 21029 40260 57005 70282 872// 22224 2//09 3//// 40814 5//// 80025
BBXX BAREU61 13064 99222 70176 46/// /0415 10191 29067 40186 57013 22244
BBXX BATFR55 13064 99125 30505 44598 41716 10275 20234 40121 70311 83141 22232 00280 208// 30000 412// 512//
BBXX BATFR19 13064 99007 30088 46/// /1311 10250 20235 40114 53005 22200 00274
BBXX BATEU00 13064 99535 30159 46/// /3119 11013 21043 40134 56029 22242
BBXX BATFR05 13064 99061 10013 46/// /3507 10222 20169 40117 53010 22200 00257
BBXX DDZF2 13064 99092 10697 41697 81010 10300 20267 40115 50005 72962 8537/ 22225 00290 20201 80275
BBXX DCPY2 13063 99146 10419 41998 11723 40145 50010 70500 80008 22234 20507 318// 40305
BBXX C6OM8 13060 99111 70275 41397 80507 10260 20215 40119 58020 70540 887// 22243 06266 20402 305// 40402 5//// 80230
BBXX A8YW2 13064 99337 30293 41998 00705 10230 20165 40090 54000 70200 80000 22224 00200 20301 80190
BBXX 2ALE5 13063 99233 70170 41998 00628 10190 20156 40186 52011 70200 80000 22284 20406 80170
BBXX MGGK4 13063 99301 30148 41598 72910 10175 20111 40120 53010 70311 82278 22274 00180 20101 318// 40604 5//// 80140
BBXX BATFR59 13064 99233 31676 46/// /0512 10277 20245 40095 56004 22251 00264
BBXX BATFR56 13064 99078 30758 44598 21904 10282 20242 40102 58006 70000 82163 22253 00297 20804 318// 40804 5////
BBXX BATEU07 13064 99387 31480 46/// /1722 10155 40136 53028 22264
BBXX BATFR47 13064 99309 51485 44598 30811 10207 20165 40205 52013 70100 832// 22262 20000 310// 40402 5////
BBXX A8SG2 13061 99180 51391 41598 21107 10265 20205 40155 52010 70200 821// 22254 00280 20602 309// 40803 5//// 80225
AAXX 13064 64400 11440 80000 10243 20237 30096 40115 69924 71022 888// 333 01859 20234 50124 55046 58003 83810 88623
AAXX 13064 64401 NIL
AAXX 13064 64450 32258 72402 10230 20221 39751 40104 8283/ 333 01800 20224 50144 55019 59007 81705 87363
AAXX 13063 64453 11459 60000 10194 20191 39/// 40/// 60074 70196 82570 333 01857 20189 50144 55060 5//// 82610 86363
AAXX 13063 64456 32959 63604 10220 20217 39/// 40/// 86030 333 0//00 20212 50204 55066 5//// 86362
AAXX 13063 64458 NIL
AAXX 13063 64459 31904 20000 10204 20198 39752 40115 74640 82002 333 02000 20194 50214 55/// 59010 82080
AAXX 13063 64460 NIL
AAXX 13061 13463 11558 82902 10105 20105 30104 40164 58002 60102 76162 888// 333 20095 32008 55000 13459 11430 82005 10079 20079 39406 40165 58004 60032 76362 8572/ 333 20078 32005 55000 85794 87498
AAXX 13061 13461 12562 71604 10165 20119 30157 40165 52006 69932 87800 333 20135 32011 55005 85825 92323 92437 92514
AAXX 13061 13363 32670 70201 10066 20037 39239 48467 53003 84810 333 20060 31003 55002
AAXX 13061 60370 16/// /2402 10129 20093 69924 333 20124
AAXX 13061 60371 16/// /1802 10126 20095 60014 333 20115
AAXX 13061 60372 16/// /2603 10112 20095 69974 333 20109
AAXX 13061 60373 NIL
AAXX 13061 60374 NIL
AAXX 13061 60376 NIL
AAXX 13061 60379 NIL
AAXX 13061 60380 NIL
AAXX 13061 60381 NIL
AAXX 13061 60393 NIL
AAXX 13061 60394 NIL
AAXX 13061 60593 NIL
AAXX 13061 60595 NIL
AAXX 13061 60605 NIL
AAXX 13061 60613 NIL
AAXX 13061 60623 NIL
AAXX 13064 60624 36/// /0000 10146 21053 333 20145
AAXX 13064 60639 NIL
AAXX 13064 60645 36/// /0000 10142 21002 333 20137
AAXX 13061 40716 12960 32402 11020 21075 39015 40339 52018 60001 82032 333 30108 70000 82359
AAXX 13061 40719 11440 82402 10082 20055 30333 40322 53012 69901 76162 8632/ 333 31008 50041 79999 82915 84620 88557
AAXX 13061 40721 12960 70000 10070 20027 39764 40322 52010 60001 80006 333 31002 50271 70000 87269
AAXX 13061 40858 NIL
AAXX 13061 40872 NIL
AAXX 13061 40877 12960 01403 10160 21059 39662 40212 52022 60001 333 30002 50461 70000
AAXX 13061 40898 12962 00302 10240 21060 30170 40179 51020 60001 222// 00246 10400 333 30018 50351 70000 82269
AAXX 13064 64500 31358 51004 10250 20235 30093 40106 79299 84902 333 02400 20240 50111 55050 58003 84608 81920 85073 94948 95838
AAXX 13063 64501 32360 41604 10255 20240 3//// 4//// 83230 333 0//00 20255 50334 55079 5//// 83808 84360 94919 95839
AAXX 13063 64507 NIL
AAXX 13064 64510 32360 8//// 10220 20214 3//// 4//// 885// 333 0//00 20220 5///4 55/// 5//// 88607
AAXX 13064 64550 32358 8//// 10236 20220 30/// 40/// 885// 333 0//00 20230 50114 55/// 5//// 84606 88623
AAXX 13064 64551 32258 60000 10236 20233 30084 40113 83530 333 0//00 20209 50044 55/// 58001 82703 83611 86362
AAXX 13064 64556 NIL
AAXX 13064 64570 32557 72204 10220 20217 39620 40131 8353/ 333 02100 20214 50164 55/// 58005 83626 87360
AAXX 13061 08501 12/// /3302 10130 20089 30231 40268 52006 60032 333 20128 30011 5//// 55027 20657 91106 555 60005
AAXX 13061 08505 NIL
AAXX 13061 08506 32/// /2509 10173 20161 30184 40256 57006 333 20162 30016 5//// 55027 20589 555 60005
AAXX 13061 08509 32460 72903 10172 20147 30182 40247 57004 858// 333 20170 50344 55068 82818 84825 85640 555 60007
AAXX 13061 08511 32/// /2602 10163 20163 30141 40249 57003 333 20160 30014 5//// 55050 25452 91105 555 60005
AAXX 13061 08512 NIL
AAXX 13061 08515 11475 72607 10172 20154 30146 40269 57008 69942 70282 878// 333 20154 30014 50144 55/// 83814 86648 910// 911// 555 60007 912//
AAXX 13061 08521 32470 29901 10159 20107 30210 40280 58005 82800 333 20155 30/// 55080 82816 555 60007
AAXX 13061 08522 32/// /0202 10160 20113 30214 40284 57005 333 20160 30013 5//// 55087 21337 555 60005
AAXX 13061 08524 12470 12902 10129 20121 30184 40283 57006 69912 81200 333 20112 30008 5//// 55074 21188 81815 555 69915
AAXX 13061 08530 NIL
AAXX 13061 08531 12/// /2007 10146 20130 30197 40235 57012 69922 333 20143 31013 5//// 55019 20522 91111 555 69925
AAXX 13061 08532 NIL
AAXX 13061 08533 32/// /1601 10133 20123 30234 40263 57009 333 20103 30007 5//// 55058 20996 555 60005
AAXX 13061 08534 32570 70000 10124 20114 30228 40245 57014 875// 333 20104 50184 55028 87628 555 60007
AAXX 13061 08535 32/// /1701 10131 20117 30153 40246 57012 333 20122 30009 5//// 55041 20779 555 60005
AAXX 13061 08537 NIL
AAXX 13061 08540 32460 81905 10136 20100 30159 40228 57012 888// 333 20114 50144 55025 83818 88625 555 60007
AAXX 13061 08541 32/// /1603 10126 20114 30135 40255 57012 333 20110 30007 5//// 55054 20864 91106 555 60005
AAXX 13061 08544 11330 81806 10116 20105 30193 40213 57015 60022 75152 887// 333 20116 50164 55010 85708 85820 91110 555 60027
AAXX 13061 08545 11159 81705 10119 20106 30128 40211 57012 60022 71052 886// 333 20118 30011 50104 55024 20510 84703 87706 555 60005
AAXX 13061 08548 32/// /1704 10113 20089 30025 40232 57012 333 20111 30011 5//// 55026 20588 91007 91107 555 60005
AAXX 13061 08551 12/// /2305 10140 20130 30145 40203 57014 60012 333 20130 30012 5//// 55036 20566 91010 91110 555 60005
AAXX 13061 08554 32665 70102 10129 20087 30261 40271 57004 875// 333 20082 30010 5//// 55064 21048 87640 555 60005
AAXX 13061 08558 32/// /1201 10091 20090 39959 40258 57009 333 20069 30001 5//// 55006 20660 555 60005
AAXX 13061 08560 32/// /2004 10074 20068 39466 40232 57011 333 20071 31007 5//// 55032 20643 91007 91107 555 60005
AAXX 13061 08561 32570 69901 10092 20001 30030 40267 53005 86800 333 20075 50124 55050 81820 86630 555 60007
AAXX 13061 08562 32/// /1602 10095 20084 39963 40261 57006 333 20086 30003 5//// 55050 20892 555 60005
AAXX 13061 08567 12/// /2106 10091 20082 39548 40214 57010 69962 333 20081 31008 5//// 55013 20431 91010 91112 555 69945
AAXX 13061 08568 12/// /2606 10044 20044 38655 48526 57008 69912 333 20014 31101 5//// 55075 21193 91014 91114 555 69915
AAXX 13061 08570 32/// /2202 10094 20077 39784 40247 57009 333 20093 30008 5//// 55070 20927 91005 91106 555 60005
AAXX 13061 08571 32/// /9901 10079 20078 39548 40261 57006 333 20077 30007 5//// 55017 20511 555 60005
AAXX 13061 08575 42/// /1904 10071 20063 39398 40216 57007 333 2//// 31/// 5//// 55/// 2//// 91107 555 60005
AAXX 13061 08579 32/// /2402 10130 20110 30119 40244 57013 333 20124 30010 5//// 55/// 2//// 555 60005
AAXX 13064 60353 11570 30000 10118 20103 40220 56010 60024 700// 83800 333 007// 20110 82823 91837 95900
AAXX 13064 60367 11558 7//// 10117 20083 40240 53004 60034 7606/ 878// 333 0//// 20108 83820 85833
AAXX 13064 60369 12560 32304 10149 20077 40250 55003 60024 81280 333 0//00 20133 81826 91837
AAXX 13064 60401 NIL
AAXX 13064 60403 11662 21807 10070 20059 40255 53001 69934 700// 82200 333 003// 20069 82840 95900
AAXX 13064 60425 12565 50000 10108 20102 40262 57007 60004 82202 333 00200 20105 82826 83073 95990
AAXX 13064 60461 13970 32410 10130 20102 40255 56003 60004 700// 80002 222// 20000 333 83073 91828 95990
AAXX 13064 60467 11670 10000 10055 20044 40264 56002 60004 700// 81100 333 00200 20046 81833 95990
AAXX 13064 60492 11663 71808 10124 20107 40260 56012 60004 700// 8258/ 333 0//00 20095 82633 86360 95990
AAXX 13064 60515 NIL
AAXX 13064 60517 11960 01204 10101 20080 40263 53002 60004 700// 333 0//00 20101 95990
AAXX 13064 60522 12970 00000 10038 20031 40270 5//// 60004 700// 333 00000 20035 95990
AAXX 13064 60557 11965 00000 10011 20008 38933 48570 56002 60004 700// 333 05300 20005 95990
AAXX 13064 60563 12960 03508 10050 20048 39366 48561 55001 60004 333 05100 20035
AAXX 13064 60603 12960 20000 10053 20007 40270 52016 60004 80001 333 0//00 20050 82073
AAXX 13064 60638 12960 2//// 10097 20034 40248 53011 60004 80001 333 00600 20086 82073
AAXX 13064 60686 NIL
AAXX 13061 14235 NIL
AAXX 13061 14246 11906 22101 10009 20004 39973 40183 51010 60102 74440 82032 333 20004 31103 70100
AAXX 13061 14314 11658 73501 10113 20062 30084 40149 52010 60012 72102 86820 333 20110 32007 70104 92311 92416
AAXX 13061 14323 12680 30706 10096 20037 30118 40152 53005 60132 83500 333 20094 31008 70233 92323 92438
AAXX 13061 14324 NIL
AAXX 13061 14328 11540 81301 10056 20052 39780 40178 52003 60222 7616/ 8752/ 333 20056 31005 70320
AAXX 13061 14330 12560 83301 10047 20030 39498 40171 52023 60092 885// 333 20047 32004 70217
AAXX 13061 14438 11560 83404 10103 20094 30048 40139 53018 60142 76166 86822 222// 00160 333 20098 31006 70218 9230/
AAXX 13061 14443 32698 7732// 10132 20110 30048 40158 52009 87760 333 20131 92334
AAXX 13061 14447 11482 83004 10134 20113 30106 40137 53/// 60012 70262 882// 222// 00174 333 20133 31011 70010 92322
AAXX 13061 14472 12662 71807 10160 20147 30086 40149 55004 60002 87200 222// 00178 333 20149 31/// 92312
AAXX 1306/ 89872 46/// ///// 11036 39776 4//// 5////
AAXX 1306/ 89869 46/// ///// 11044 39774 4//// 5//// 90610
AAXX 1306/ 89866 46/// ///// 11053 39715 4//// 5////
AAXX 1306/ 89329 46/// ///// 11138 38709 4//// 5//// 90610
AAXX 1306/ 89799 46/// ///// 11304 4//// 5////
AAXX 1306/ 89327 46/// ///// 11014 39612 4//// 5////
AAXX 1306/ 89327 46/// ///// 11019 39611 4//// 5//// 90610
AAXX 1306/ 89332 46/// ///// 11076 39219 4//// 5//// 90610
AAXX 1306/ 89769 46/// ///// 11041 39800 4//// 5////
AAXX 1306/ 89108 46/// ///// 11276 36857 4//// 5////
AAXX 1306/ 89108 46/// ///// 11275 36858 4//// 5//// 90610
AAXX 1306/ 89879 46/// ///// 11009 39674 4//// 5////
AAXX 1306/ 89314 46/// ///// 11148 38148 4//// 5////
AAXX 1306/ 89314 46/// ///// 11148 38148 4//// 5//// 90610
AAXX 13061 50844 32962 73202 11065 21152 40180 57021 80002 333 21159
AAXX 13061 50854 32965 72004 11037 21131 40188 57033 86032 333 21156
AAXX 13061 50968 32662 70000 11043 21145 40235 57036 83502 333 21196
AAXX 13061 51379 32980 70402 11049 21123 40394 52011 80002 333 00852 21173
AAXX 13061 51467 32680 83404 11015 21216 38313 57003 81507 333 00501 21085
AAXX 13061 51495 32980 11603 11022 21153 40362 52007 80002 333 00452 21096
AAXX 13061 53480 32980 22504 11041 21137 40251 57011 80002 333 21131
AAXX 13061 53673 31957 21801 11001 21076 40256 57021 70400 80002 333 21089
AAXX 13061 53698 32965 63401 10055 21021 40223 57029 80002 333 21011
AAXX 13061 53898 31960 01805 10093 21009 40225 57031 70040 333 21034
AAXX 13061 54308 32980 21106 10014 21064 40223 57027 80002 333 21100
AAXX 13061 54602 31930 02202 10032 21014 40219 57031 71040 333 21041
AAXX 13061 54725 31960 02204 10079 21030 40234 57030 70040 333 21022
AAXX 13061 54751 32961 62206 10085 20021 40244 57027 86030 333 20017
AAXX 13061 54916 32962 01803 10083 21023 40251 57031 333 21024
AAXX 13061 57014 32965 73601 10024 21055 40286 57021 8703/ 333 00151 21070
AAXX 13061 57025 32963 51602 10047 21054 40261 57025 80002 333 21054
AAXX 13061 57046 32971 32505 11010 21082 37950 57008 80002 333 05100 21047
AAXX 13061 58208 32970 02702 10105 21009 40252 57024 333 21002
AAXX 13061 01003 11680 80904 11040 21053 39955 49967 52006 69951 70372 875// 333 21058 48014 91105
AAXX 13061 01026 11689 62402 11049 21089 39726 49869 57026 60002 70320 81508 333 21055 47034 70000 91105
AAXX 13061 01271 16/// /0804 11009 21058 39816 49837 57008 60002 333 21040 43007 79999 91106
AAXX 13061 01218 11787 61706 10069 21057 39781 49802 55027 60002 70320 82280 333 20040 43005 70000 91115
AAXX 13064 87593 NIL
AAXX 13064 87623 32980 01104 10129 20052 39962 40186 55000
AAXX 13064 87641 32965 01405 10116 20092 39984 40157 57007
AAXX 13064 87645 NIL
AAXX 13064 87648 NIL
AAXX 13064 87692 11340 81815 10156 20137 30110 40135 55004 69921 75252 887// 333 56599 88708
AAXX 13064 87715 NIL
AAXX 13064 87750 NIL
AAXX 13064 87765 32960 00000 10092 20015 39228 48531 52001 333 96120
AAXX 13064 87784 NIL
AAXX 13064 87791 NIL
AAXX 13064 87800 NIL
AAXX 13064 87803 NIL
AAXX 13064 87828 32980 00000 10140 20040 30156 40206 50003
AAXX 13064 87860 31975 02909 10208 20057 30101 40155 57004 70600
AAXX 13064 87904 NIL
AAXX 13064 87909 NIL
AAXX 13064 87925 32980 50000 10114 20068 30114 40138 58011 82075 333 56000 82360 83270
AAXX 13064 87938 NIL
AAXX 13063 NIL
AAXX 13064 87097 32970 00000 10228 20215 39776 40078 56007
AAXX 13063 87016 11560 72704 10202 20191 39719 40125 58003 60011 70262 85570 333 85620
AAXX 13064 87078 NIL
AAXX 13064 87244 NIL
AAXX 13064 87393 NIL
AAXX 13064 87416 32965 00000 10171 20151 39417 40149 51003
AAXX 13064 87563 NIL
AAXX 13064 87640 NIL
AAXX 13064 87688 NIL
AAXX 13064 87774 NIL
AAXX 13064 87852 NIL
AAXX 13064 87896 NIL
AAXX 13064 89022 46/// /0605 11143 21155 39752 49791 52001
AAXX 13064 89062 46/// /0806 10006 21007 39607 49647 52001 333 55043
AAXX 13061 23914 32999 81402 11148 21162 39980 40257 52014 85081 333 21155
AAXX 13061 23921 32977 70000 11268 21293 30151 40284 52014 80001 333 21267
AAXX 13061 23955 42498 51403 11250 21268 30352 40421 52003 85600
AAXX 13061 23966 42999 00000 11245 21264 30290 40432 54000
AAXX 13061 28138 32999 70101 11196 21215 39653 40271 52006 80008 333 21212
AAXX 13061 28224 11898 80000 11133 21146 30018 40245 52011 69900 70272 8807/ 333 21149
AAXX 13061 28255 32999 01701 11219 21240 30160 40303 52009 333 21218
AAXX 13061 28440 31996 61502 11213 21236 39893 40276 52005 71011 80006 333 21215
AAXX 13061 28645 11959 81601 11196 21208 39962 40285 53007 77177 8801/ 333 21211
AAXX 13061 28661 31997 61302 11191 21210 30211 40312 52004 70272 82031 333 21218
AAXX 13061 28722 11595 80000 11095 21106 30078 40215 52009 60030 78682 889// 333 21112
AAXX 13061 28748 31950 81402 11194 21213 30023 40284 52006 77172 8802/ 333 21229
AAXX 13061 28838 11997 81401 11175 21194 39758 40272 53004 60010 77172 8807/ 333 21244
AAXX 13061 29231 42998 00601 11199 21218 30316 40422 52001
AAXX 13061 29313 42998 20401 11217 21237 30253 40388 57005 80001
AAXX 13061 29612 42998 20603 11189 21208 30170 40335 57002 80001
AAXX 13061 29638 42576 20302 11150 21170 30163 40340 52002 81501
AAXX 13061 29838 42997 30901 11146 21159 30086 40335 52010 80001
AAXX 13061 29846 41920 00000 11210 21222 39944 40365 52009 71000
AAXX 13061 36061 42999 21601 11135 21170 39921 40355 51007 80001
AAXX 13061 23909 11997 61901 11137 21153 39985 40250 52016 60010 70172 86010 333 21135
AAXX 13061 28044 32998 50901 11210 21231 30101 40281 52012 80001 333 21208
AAXX 13061 28116 11896 80000 11150 21170 30003 40252 52017 69980 77172 8807/ 333 21158
AAXX 13061 28240 32998 21402 11213 21239 39920 40275 52006 80001 333 21216
AAXX 13061 28522 11996 80000 11128 21139 39954 40227 52008 69950 77172 8807/ 333 21142
AAXX 13061 28621 11996 81101 11113 21122 39975 40220 52013 60010 77172 8802/ 333 21121
AAXX 13061 29023 42398 60000 11238 21263 30332 40440 52004 86600 333 86707
AAXX 13061 29122 41296 60702 11226 21238 30348 40429 53004 71022 84602 333 84706
AAXX 13061 29328 42998 00702 11159 21178 30234 40385 58001
AAXX 13061 29348 42997 00201 11181 21197 30259 40417 58001
AAXX 13061 29405 42997 00502 11203 21222 30202 40363 58001
AAXX 13061 29418 42998 00502 11186 21212 30181 40354 57005
AAXX 13061 29430 42998 00602 11147 21167 30194 40384 53003
AAXX 13061 29524 42998 10804 11164 21177 30174 40349 57002 80001
AAXX 13061 29605 42998 00401 11206 21212 30175 40331 57006
AAXX 13061 29631 42997 20604 11165 21178 30147 40347 53005 81030
AAXX 13061 29645 41996 00000 11188 21207 30157 40361 52002 70400
AAXX 13061 29706 42998 80703 11211 21230 30155 40316 57001 80001
AAXX 13061 29736 41994 20000 11239 21271 30077 40355 52005 70400 80001
AAXX 13061 29937 41596 71501 11205 21231 30107 40358 52020 71011 83505
AAXX 13061 36034 41598 82206 11156 21175 30049 40344 52018 72222 82507
AAXX 13061 36096 41997 73101 11237 21277 39658 40524 52009 77177 83030 333 95000
AAXX 13061 28049 32999 51505 11196 21215 30109 40289 53010 80001 333 21191
AAXX 13061 28144 32999 61001 11213 21233 30109 40283 52013 80001 333 21213
AAXX 13061 28319 11898 60000 11132 21151 30060 40235 52011 60010 70172 86050 333 21137
AAXX 13061 28321 11996 83102 11145 21158 30030 40248 52016 69920 71072 8802/ 333 21137
AAXX 13061 28334 32999 70801 11225 21250 39927 40261 52009 82075 333 21233
AAXX 13061 28434 32998 70000 11174 21197 39970 40248 52007 86035 333 21242
AAXX 13061 28552 31496 81403 11203 21228 30182 40306 53009 77172 8671/ 333 21219
AAXX 13061 28666 12998 01002 11208 21229 30129 40321 52002 69900 70271 333 21224
AAXX 13061 28825 11995 80601 11091 21102 30028 40207 52008 60020 77572 8802/ 333 21104
AAXX 13061 29111 42999 00801 11244 21266 30321 40419 58001
AAXX 13061 29209 42998 00201 11211 21230 30256 40396 52001
AAXX 13061 29551 42997 00802 11168 21187 30213 40411 52001
AAXX 13061 29602 42999 20603 11203 21222 30177 40331 57003 80001
AAXX 13061 29636 42998 00000 11240 21246 30125 40368 52005
AAXX 13061 29654 42999 01104 11072 21159 39717 40353 53010
AAXX 13061 29712 42998 00602 11185 21204 30165 40321 58002
AAXX 13061 29724 42998 30803 11191 21203 30104 40325 53006 82071
AAXX 13061 29726 42998 30701 11164 21183 30153 40334 58003 82071
AAXX 13061 29814 42999 71002 11190 21209 30172 40331 52016 82035
AAXX 13061 29827 42998 80703 11174 21186 30154 40320 52007 80005
AAXX 13061 29923 41996 80000 11204 21230 30039 40339 52009 71011 80007
AAXX 13061 29939 42998 31001 11155 21182 30039 40342 52015 80002
AAXX 13061 35026 11494 81401 11147 21168 39565 40242 53003 60040 78682 889// 333 21166
AAXX 13061 36021 42999 62003 11170 21189 30122 40315 52006 80002
AAXX 13061 36022 42998 62105 11174 21193 30052 40335 52015 80006
AAXX 13061 36038 41996 81903 11090 21115 39879 40341 53021 77172 8802/
AAXX 13061 36058 42999 61004 11103 21147 39802 40349 51004 83031
AAXX 13061 36064 42999 20703 11027 21122 39731 40335 52012 80002
AAXX 13061 36229 42599 70000 11188 21196 39161 40430 52004 82931
AAXX 13061 36259 42599 80000 11232 21280 38310 48595 52014 82901
AAXX 13061 40700 11950 32403 10014 21015 30244 40337 53006 60001 71000 80006 333 30103 70000 83267
AAXX 13061 40723 11958 30000 10000 21061 39014 40341 52009 60001 70500 80005 333 31106 5///1 70000 83267
AAXX 13061 40726 11550 80000 11014 21033 38745 40330 52014 60001 71022 8532/ 333 34104 70000 82930 83635 88457
AAXX 13061 40727 11957 70000 11018 21050 38563 40331 53013 60001 70521 80005 333 34104 70000 87270
AAXX 13061 40734 12670 70000 10092 20046 30340 40314 52010 60001 82636 333 31006 50160 70000 82635 87269
AAXX 13061 40737 12660 60000 10070 20056 30301 40320 51011 60001 81570 333 31102 50061 70000 81635 85359
AAXX 13061 40741 12962 00000 10048 20016 39980 40329 52011 60001 333 31100 70000
AAXX 13061 40780 12960 11302 10060 21149 38735 40257 52017 60001 80001 333 34102 5//// 70000 81070
AAXX 13061 40791 12962 40000 10066 21054 39452 40300 52011 60001 82016 333 30103 50081 70000 82460 83270
AAXX 13061 40792 12970 30000 10042 21067 38796 40289 52014 60001 80001 333 30105 70000 83070
AAXX 13061 40794 11930 20000 10080 20048 30130 40231 52015 60001 70600 80001 333 30101 50071 70000 82070
AAXX 13061 40812 11940 00000 10096 20047 39831 40214 52015 60001 70600 333 30003 50281 70000
AAXX 13061 40829 12960 03404 10086 21028 39696 40284 52009 60001 333 30102 5//// 70000
AAXX 13061 40833 11958 00000 10078 20007 30206 40239 52017 60001 70500 333 30002 50341 70000
AAXX 13061 40835 12970 00000 10126 20018 39386 40232 52016 60001 333 30102 50301 70000
AAXX 13061 40845 12960 03406 10156 20085 30220 40225 52018 60003 90545 333 30013 50471 70000
AAXX 13061 40882 12960 10000 10240 20125 30160 40195 52014 60001 80001 333 30012 50481 70000 81070
AAXX 13061 40889 12960 10510 10240 20116 30194 40199 52018 60003 80001 222// 00256 20302 333 30016 50361 70000 81070
AAXX 13061 40890 11957 30608 10244 20083 30179 40187 51020 60003 70700 80001 222// 00238 20303 333 30014 50620 70000 83070
AAXX 13061 40893 12960 70503 10234 21025 30186 40192 52019 60001 80006 222// 00200 20300 333 30016 50631 70000 87267
AAXX 13061 40897 NIL
AAXX 13061 34357 32997 02503 11024 21033 30148 40310 52004 333 21022
AAXX 13061 34363 32997 83104 11017 21023 30148 40305 52014 8807/ 333 21015
AAXX 13061 34545 32998 00000 11050 21053 30206 40324 53007 333 21057
AAXX 13061 34579 31996 02702 11033 21038 30268 40315 52012 71000 333 21053 43001
AAXX 13061 34838 32697 71102 11005 21020 30195 40295 56009 87500 333 21015
AAXX 13061 34927 11696 60902 10031 20019 30245 40283 54001 69940 71022 86500 333 20027
AAXX 13061 34949 31/04 91705 11002 21004 39743 40306 55000 74742 333 21034 93403
AAXX 13061 37001 32997 71703 10092 20073 30224 40264 57003 80030 333 20022
AAXX 13061 37031 11596 71403 10022 20011 30092 40292 50002 69910 71082 82530 333 20010
AAXX 13061 37061 31596 71302 10010 20002 30147 40318 55001 71022 87500 333 21034
AAXX 13061 37085 32598 80501 11011 21018 30359 40387 52005 885// 333 21050
AAXX 13061 37107 31698 80901 10026 20023 39604 40296 52002 72842 8754/ 333 20017
AAXX 13061 37126 32999 21902 11056 21074 37982 48562 53002 81031 333 21082 48006
AAXX 13061 37171 32998 20602 10053 20034 30261 40280 53002 82030 333 20042
AAXX 13061 37228 31498 21001 11010 21019 39455 40318 54001 72811 82600 333 21009
AAXX 13061 37470 32598 70102 10061 20039 30350 40327 52008 87500 333 20054
AAXX 13061 37663 32999 02501 11017 21052 39110 48563 52011 333 21046
AAXX 13064 71503 46/// /2715 11097 21113 39668 49936 51052 6///1 333 11089 21158 7//// 555 32725 40061
AAXX 13064 71506 46/// /0306 11157 21170 39095 49981 51035 6///1 333 11029 21157 7////
AAXX 13064 71423 16/// /3308 11028 21043 30274 40284 51003 60001 333 11003 21106 7////
AAXX 13064 71434 16/// /2207 11208 21229 30219 40289 55003 60001 333 11131 70000
AAXX 13064 71151 16/// /1204 11110 21120 39785 40310 58001 60001 333 11084 21110 70000
AAXX 13064 71155 16/// ///// 11075 21092 60001 333 11059 21123 70000
AAXX 13064 71186 46/// /0806 11004 21016 6///1 333 11003 21048 7////
AAXX 13064 71190 46/// /2907 10011 21009 6///1 333 10013 21019 7//// 555 32920 40141
AAXX 13064 62002 31985 53611 10167 20078 39513 48569 53007 71022 85050 333 20085 50754 55032 85360
AAXX 13064 62012 32956 42710 10150 20115 30193 40223 53008 83205 333 20150 50634 55/// 83825 84070
AAXX 13064 62016 32956 42805 10138 20108 40233 53006 82530 333 20135 51004 55033 82625 84360
AAXX 13064 62124 32960 20707 10047 21013 39718 40232 52005 80004 333 20044 50534 55096 82070
AAXX 13064 62161 32970 30000 10049 20034 40231 54000 83050 333 20046 50094 55098 53356
AAXX 13064 62271 32970 00607 10078 20041 40244 51006 333 20070 50514 55///
AAXX 13064 71107 46/// /0909 10048 20041 6///1 333 7////
AAXX 13064 71309 16/// /3003 11130 21151 30309 40321 53009 60001 333 11059 21134 70003
AAXX 13064 71320 16/// /2208 11313 21342 30070 40070 50000 60001 333 11212 21315 70000 555 33117 40071
AAXX 13064 71340 16/// /1606 11056 21083 60001 333 11055 21152 70000
AAXX 13064 71341 16/// /2811 11062 21128 60001 333 11049 21171 70011 555 32422 40061
AAXX 13064 71342 17/// /2007 11101 21115 69971 7//4/ 333 11066 21116 70043
AAXX 13064 71344 17/// /1706 11153 21170 69941 7//4/ 333 11080 21153 70004 555 31617 40231
AAXX 13064 71347 16/// /2716 11005 21077 60001 333 10009 21127 70000 555 32733 40022
AAXX 13064 71348 16/// /2613 10005 21075 60001 333 10024 21166 70000 555 32332 40012
AAXX 13064 71349 16/// ///// 11076 21103 60001 333 11044 21112 7////
AAXX 13064 71550 16/// /1704 11115 21130 39893 40285 58020 60001 333 11102 21167 70003
AAXX 13064 71903 46/// /0206 10038 20030 30071 40120 5/003 6///1 333 7////
AAXX 13064 71018 16/// ///14 11252 21277 39910 49999 58010 60001 333 11243 21295 70000
AAXX 13064 71063 16/// /1902 11005 21011 30185 40284 50000 60001 333 10065 21031 70000 555 32122 40081
AAXX 13064 71269 16/// /0000 11181 21199 60001 333 11058 21183 70026
AAXX 13064 71285 46/// /1908 11079 21100 6///1 333 11056 21129 7////
AAXX 13064 71299 16/// /0106 11074 21078 30018 40300 53008 60001 333 11011 21074 70000
AAXX 13064 71463 46/// /3203 10019 21037 30085 40313 56002 6///1 333 10045 20017 7//// 555 32423 40071
AAXX 13064 71976 46/// /2102 11203 21225 39510 40163 58003 6///1 333 11193 21224 7//// 555 10010
AAXX 13064 71737 16/// /2305 11004 21021 39731 40261 58007 60001 333 11002 21034 70000
AAXX 13064 71743 16/// /2104 11140 21153 39988 40214 58011 60001 333 11138 21268 70000
AAXX 13064 71746 46/// /1803 11018 21038 30075 40301 50004 6///1 333 10046 21052 7////
AAXX 13064 71748 16/// /2403 11187 21208 30012 40320 56010 60001 333 11074 21187 70000 555 33519 40081
AAXX 13064 71682 16/// /2304 10018 21073 39712 49935 52035 60001 333 10049 21174 7////
AAXX 13064 71421 16/// ///// 11264 21291 39567 40326 50007 60001 333 11123 21264 70000
AAXX 13064 71435 16/// /0701 11086 21091 39692 40307 53005 60001 333 11072 21159 70010
AAXX 13064 71228 16/// /1708 11113 21129 60001 333 11039 21123 70004 555 31817 40221
AAXX 13064 71622 16/// ///// 11033 21060 39959 40304 58001 60001 333 10050 21041 70000
AAXX 13064 71357 16/// /1403 11204 21235 30074 40081 52007 60001 333 11095 21223 70000 555 33325 40081
AAXX 13064 71363 16/// /1620 11181 21199 39834 49889 58045 60001 333 11179 21314 70006 555 31828 40052
AAXX 13064 71374 46/// /3613 11078 21133 6///1 333 11059 21123 7//// 555 33120 40071
AAXX 13064 71387 17/// /2002 11006 21008 39865 40244 56008 69961 7//4/ 333 11001 21047 70006
AAXX 13064 71393 16/// ///// 11125 21136 38864 40171 57010 60001 333 11063 21154 70000
AAXX 13061 78310 12904 00604 10230 20217 30179 40189 56013 60001 333 10270 20205 30/// 58011 92023
AAXX 13061 78315 12564 30101 10207 20193 30125 40190 58004 60001 82272 333 10291 20185 30/// 56999 58014 82820
AAXX 13061 78318 12565 20408 10244 20213 30187 40191 58006 60001 82800 333 10284 20192 31/// 56900 58015 81820
AAXX 13061 78322 12556 30000 10192 20179 30179 40196 58002 60001 81402 333 10292 20192 30/// 56909 58018 81820
AAXX 13061 78324 12400 30406 10238 20206 30163 40174 58012 60001 82202 333 10267 20232 30/// 56109 58010 82816 555 10404
AAXX 13061 78325 01530 40503 10230 20210 30135 40193 55004 60031 72580 84200 333 10267 20212 31/// 56900 58016 69987 70036 84820
AAXX 13061 78328 12/62 20703 10246 20202 30190 40/// 58001 60001 82200 333 10269 20233 30/// 56900 58020 79999 828//
AAXX 13061 78333 12910 10202 10211 20202 30172 40179 57010 60001 80002 333 10294 20199 30/// 56000 58009 81070
AAXX 13061 78344 NIL
AAXX 13061 78345 12965 10101 10214 20206 30173 40176 58003 60001 80001 333 10295 20198 30/// 56009 58013 81073
AAXX 13061 78348 11456 30603 10233 20218 30126 40178 58007 60001 70511 82842 333 10270 20225 30/// 56299 57883 58009 70017 81819 555 10702
AAXX 13061 78349 12440 73301 10219 20214 30071 40180 58004 60001 878// 333 10279 20185 30/// 56199 58010 82819 87626 555 10502
AAXX 13061 78351 12550 10000 10208 20205 30153 40155 58005 60001 81500 333 10300 20187 30/// 56900 58013 81626
AAXX 13061 78353 12560 20601 10238 20225 30156 40178 58011 60001 82800 333 10278 20235 31/// 56900 58010 81820
AAXX 13061 78355 12560 30202 10222 20215 30024 40164 58008 60001 83200 333 10284 20200 30/// 56900 58003 83820
AAXX 13061 78358 11530 30303 10241 20218 30145 40160 58008 60011 70281 83800 333 10288 20202 31/// 56900 58010 70022 82823
AAXX 13061 78360 12/60 10104 10230 20210 30142 40153 56010 60001 81200 333 10308 20218 31/// 56900 58007 818// 92033
AAXX 13061 78363 12556 20000 10207 20198 30028 40142 58011 60001 82500 333 10289 20203 30/// 56900 58008 82621
AAXX 13061 78365 01550 30507 10260 20225 30159 40164 58009 69991 70181 83202 333 10281 20230 31/// 56109 57843 58006 69937 70009 83820 92044 555 10503
AAXX 13061 78369 NIL
AAXX 13061 40650 11957 22703 10049 20012 40258 52017 60002 71000 80002
AAXX 13061 40604 12960 31102 10064 20003 40246 53007 60002 80002
AAXX 13061 40621 12960 30302 10080 21030 40278 52011 60002 80001
AAXX 13061 40629 12960 30000 10004 21027 40286 54000 60002 80002
AAXX 13061 40634 12960 62802 10045 20016 40235 56002 60002 80006
AAXX 13061 40642 12960 20000 10018 21052 40288 57007 60002 82030
AAXX 13061 40645 12960 33102 10055 20009 40262 52013 60002 80002
AAXX 13061 40655 12560 22901 10062 20017 40215 52011 60002 81102
AAXX 13061 40665 12960 02803 10077 20027 40246 52006 60002
AAXX 13061 40674 12960 23004 10068 21006 40231 52011 60002 82030
AAXX 13061 40670 12960 10000 10067 21007 40250 51012 60002 80001
AAXX 13061 40689 12960 03306 10075 21002 40250 52015 60002
AAXX 13061 80001 01470 80303 10260 20244 30115 40116 60091 70265 8127/ 333 5620/ 58000 60097 81814 88457
AAXX 13061 80002 NIL
AAXX 13061 80009 NIL
AAXX 13061 80022 01462 70000 10258 20244 30105 40107 60021 70565 84771 333 56990 58006 60027 84712 85457
AAXX 13061 80028 NIL
AAXX 13061 80035 NIL
AAXX 13061 80036 NIL
AAXX 13061 80063 NIL
AAXX 13061 80084 NIL
AAXX 13061 80091 NIL
AAXX 13061 80094 11464 80000 10192 20186 38812 69911 70252 8257/ 333 5699/ 82612 86358
AAXX 13061 80097 NIL
AAXX 13061 80099 NIL
AAXX 13061 80110 NIL
AAXX 13061 80112 01350 80000 10141 20135 37899 60181 75196 8557/ 333 5699/ 59002 60087 85608 88458
AAXX 13061 80139 NIL
AAXX 13061 80144 NIL
AAXX 13061 80149 NIL
AAXX 13061 80210 NIL
AAXX 13061 80211 NIL
AAXX 13061 80214 NIL
AAXX 13061 80222 41458 72801 10117 20112 37518 71552 83570 333 5699/ 58001 83615 84357
AAXX 13061 80234 NIL
AAXX 13061 80241 NIL
AAXX 13061 80259 NIL
AAXX 13061 80315 NIL
AAXX 13061 80342 NIL
AAXX 13061 80370 NIL
AAXX 13061 80398 NIL
AAXX 13064 60595 36/// /0000 11451 333 21451
AAXX 13061 08512 11475 62609 10168 20159 30170 40255 57004 69912 70228 84830 333 20161 30015 5//// 55034 20648 83816 83357
AAXX 13064 64500 31358 51004 10250 20235 3093/ 40106 79299 84902 333 02400 20240 50111 55050 58003 84608 81920 85073 94948 95838
AAXX 13064 71421 16/// ///// 11264 21291 39567 40326 50007 60001 333 11123 21264 70000
AAXX 13064 71435 16/// /0701 11086 21091 39692 40307 53005 60001 333 11072 21159 70010
AAXX 13064 08430 12870 23203 10060 20046 30181 40258 56005 60002 82010 333 20060 30004 50301 55046 70000
AAXX 13061 11826 11450 79901 10033 20021 39962 40165 51002 60022 71066 875// 333 20033 31000 70020 87617
AAXX 13064 71832 16/// /0303 11085 21094 39972 40311 51010 60001 333 11022 21085 70000
AAXX 13061 63021 32275 50605 10116 20092 37741 40170 84601 333 20078 58004 84707 82070
BBXX ELWO6 13063 99078 50034 41296 81604 10232 40130 54000 71022 886// 22274 00243 299// 317// 41501
BBXX A8ZS7 13064 99190 30618 41/98 30413 10290 20228 40125 50000 70300 83100 22254 04250 29901 80245
BBXX DFVY2 13064 99129 50361 41698 70512 10260 20225 40114 57002 70322 874// 22244 00270 80235
AAXX 13061 08512 11475 62609 10168 20159 30170 40255 57004 69912 70228 84830 333 20161 30015 5//// 55034 20648 83816 83357 555 60005
AAXX 13064 61970 16/// ///// 10307 20248 40123 60004 333 20279 55/// 58005 555 60005
AAXX 13064 71903 46/// /0206 10038 20030 30071 40120 5/003 6///1 333 7////
AAXX 13064 71107 46/// /0909 10048 20041 6///1 333 7////
AAXX 13064 71682 16/// /2304 10018 21073 39712 49935 52035 60001 333 10049 21174 7////
AAXX 13064 71151 16/// /1204 11110 21120 39785 40310 58001 60001 333 11084 21110 70000
AAXX 13064 71155 16/// ///// 11075 21092 60001 333 11059 21123 70000
AAXX 13064 71186 46/// /0806 11004 21016 6///1 333 11003 21048 7////
AAXX 13064 71190 46/// /2907 10011 21009 6///1 333 10013 21019 7//// 555 32920 40141
AAXX 13064 71309 16/// /3003 11130 21151 30309 40321 53009 60001 333 11059 21134 70003
AAXX 13064 71320 16/// /2208 11313 21342 30070 40070 50000 60001 333 11212 21315 70000 555 33117 40071
AAXX 13064 71340 16/// /1606 11056 21083 60001 333 11055 21152 70000
AAXX 13064 71341 16/// /2811 11062 21128 60001 333 11049 21171 70011 555 32422 40061
AAXX 13064 71342 17/// /2007 11101 21115 69971 7//4/ 333 11066 21116 70043
AAXX 13064 71344 17/// /1706 11153 21170 69941 7//4/ 333 11080 21153 70004 555 31617 40231
AAXX 13064 71347 16/// /2716 11005 21077 60001 333 10009 21127 70000 555 32733 40022
AAXX 13064 71348 16/// /2613 10005 21075 60001 333 10024 21166 70000 555 32332 40012
AAXX 13064 71349 16/// ///// 11076 21103 60001 333 11044 21112 7////
AAXX 13064 71550 16/// /1704 11115 21130 39893 40285 58020 60001 333 11102 21167 70003
AAXX 13064 71269 16/// /0000 11181 21199 60001 333 11058 21183 70026
AAXX 13064 71285 46/// /1908 11079 21100 6///1 333 11056 21129 7////
AAXX 13064 71299 16/// /0106 11074 21078 30018 40300 53008 60001 333 11011 21074 70000
AAXX 13064 71503 46/// /2715 11097 21113 39668 49936 51052 6///1 333 11089 21158 7//// 555 32725 40061
AAXX 13064 71506 46/// /0306 11157 21170 39095 49981 51035 6///1 333 11029 21157 7////
AAXX 13064 71423 16/// /3308 11028 21043 30274 40284 51003 60001 333 11003 21106 7////
AAXX 13064 71434 16/// /2207 11208 21229 30219 40289 55003 60001 333 11131 70000
AAXX 13064 71463 46/// /3203 10019 21037 30085 40313 56002 6///1 333 10045 20017 7//// 555 32423 40071
AAXX 13061 40650 11957 22703 10049 20012 40258 52017 60002 71000 80002
AAXX 13061 40604 12960 31102 10064 20003 40246 53007 60002 80002
AAXX 13061 40621 12960 30302 10080 21030 40278 52011 60002 80001
AAXX 13061 40629 12960 30000 10004 21027 40286 54000 60002 80002
AAXX 13061 40634 12960 62802 10045 20016 40235 56002 60002 80006
AAXX 13061 40642 12960 20000 10018 21052 40288 57007 60002 82030
AAXX 13061 40645 12960 33102 10055 20009 40262 52013 60002 80002
AAXX 13061 40655 12560 22901 10062 20017 40215 52011 60002 81102
AAXX 13061 40665 12960 02803 10077 20027 40246 52006 60002
AAXX 13061 40674 12960 23004 10068 21006 40231 52011 60002 82030
AAXX 13061 40670 12960 10000 10067 21007 40250 51012 60002 80001
AAXX 13061 40689 12960 03306 10075 21002 40250 52015 60002
AAXX 13064 71737 16/// /2305 11004 21021 39731 40261 58007 60001 333 11002 21034 70000
AAXX 13064 71743 16/// /2104 11140 21153 39988 40214 58011 60001 333 11138 21268 70000
AAXX 13064 71746 46/// /1803 11018 21038 30075 40301 50004 6///1 333 10046 21052 7////
AAXX 13064 71748 16/// /2403 11187 21208 30012 40320 56010 60001 333 11074 21187 70000 555 33519 40081
AAXX 13064 71357 16/// /1403 11204 21235 30074 40081 52007 60001 333 11095 21223 70000 555 33325 40081
AAXX 13064 71363 16/// /1620 11181 21199 39834 49889 58045 60001 333 11179 21314 70006 555 31828 40052
AAXX 13064 71374 46/// /3613 11078 21133 6///1 333 11059 21123 7//// 555 33120 40071
AAXX 13064 71387 17/// /2002 11006 21008 39865 40244 56008 69961 7//4/ 333 11001 21047 70006
AAXX 13064 71393 16/// ///// 11125 21136 38864 40171 57010 60001 333 11063 21154 70000
AAXX 13064 71622 16/// ///// 11033 21060 39959 40304 58001 60001 333 10050 21041 70000
BBXX C6SI6 13064 99356 11410 46/// /0609 10111 20028 40254 53002 7//// 8//// 22253 0//// 2////
BBXX DGBE 13063 99304 11296 41697 60508 10190 20094 40215 57016 70211 86111 22264 00250 2//// 80135
BBXX TBWUK14 13063 99300 11238 41297 40512 10170 20090 40244 54000 70211 847/4 22283 06200 20301 30000 80125
AAXX 13064 71228 16/// /1708 11113 21129 60001 333 11039 21123 70004 555 31817 40221
AAXX 13064 71976 46/// /2102 11203 21225 39510 40163 58003 6///1 333 11193 21224 7//// 555 10010
AAXX 13061 80001 01470 80303 10260 20244 30115 40116 60091 70265 8127/ 333 5620/ 58000 60097 81814 88457
AAXX 13061 80002 NIL
AAXX 13061 80009 NIL
AAXX 13061 80022 01462 70000 10258 20244 30105 40107 60021 70565 84771 333 56990 58006 60027 84712 85457
AAXX 13061 80028 NIL
AAXX 13061 80035 NIL
AAXX 13061 80036 NIL
AAXX 13061 80063 NIL
AAXX 13061 80084 NIL
AAXX 13061 80091 NIL
AAXX 13061 80094 11464 80000 10192 20186 38812 69911 70252 8257/ 333 5699/ 82612 86358
AAXX 13061 80097 NIL
AAXX 13061 80099 NIL
AAXX 13061 80110 NIL
AAXX 13061 80112 01350 80000 10141 20135 37899 60181 75196 8557/ 333 5699/ 59002 60087 85608 88458
AAXX 13061 80139 NIL
AAXX 13061 80144 NIL
AAXX 13061 80149 NIL
AAXX 13061 80210 NIL
AAXX 13061 80211 NIL
AAXX 13061 80214 NIL
AAXX 13061 80222 41458 72801 10117 20112 37518 71552 83570 333 5699/ 58001 83615 84357
AAXX 13061 80234 NIL
AAXX 13061 80241 NIL
AAXX 13061 80259 NIL
AAXX 13061 80315 NIL
AAXX 13061 80342 NIL
AAXX 13061 80370 NIL
AAXX 13061 80398 NIL
AAXX 13064 71832 16/// /0303 11085 21094 39972 40311 51010 60001 333 11022 21085 70000
AAXX 13064 71018 16/// ///14 11252 21277 39910 49999 58010 60001 333 11243 21295 70000
AAXX 13064 71063 16/// /1902 11005 21011 30185 40284 50000 60001 333 10065 21031 70000 555 32122 40081
AAXX 13060 67489 11460 73402 10179 20173 38768 48518 60134 79596 8497/ 333 20173 55059 58011 70127 81915 83618 87458 555 10273 7//96
AAXX 13061 28216 11899 81401 11146 21165 39943 40243 52016 69960 70272 8802/ 333 21142
AAXX 13061 28428 11996 80402 11135 21148 30040 40237 52011 69950 77172 8807/ 333 11142
AAXX 13061 28451 31996 61502 11212 21235 30123 40298 53008 71011 80002 333 21218
AAXX 13061 28541 31959 20000 11223 21242 39731 40272 52008 71000 80001 333 21245
AAXX 13061 28655 32998 71402 11214 21236 30057 40301 53007 80002 333 21230
AAXX 13061 28756 11998 71302 11217 21240 30149 40312 52005 69900 70271 87010 333 21261
AAXX 13061 29557 42998 01101 11174 21208 30119 40408 53002
AAXX 13061 29625 42998 30802 11186 21198 30145 40339 58001 80002
AAXX 13061 29813 42999 81101 11185 21204 30105 40299 58002 83032
AAXX 13061 29822 41996 50000 11210 21222 30147 40327 54000 71011 80001
AAXX 13061 29915 42998 81603 11166 21185 30136 40306 52008 83032
AAXX 13061 36020 42998 31904 11156 21183 30097 40312 52008 82032
AAXX 13064 41314 31948 32910 70161 20057 39708 4//// 70608 80001 333 20127 58809 83075
AAXX 13061 23226 32460 81806 11127 21179 39955 40181 52012 85531 333 21121 85616
AAXX 13061 23701 11465 81803 11083 21096 30074 40209 51018 69950 77172 8802/ 333 21109 88517
AAXX 13061 28909 11997 42903 11120 21126 30127 40232 52021 60010 70371 82031 333 21121
AAXX 13064 60691 36/// /0112 10098 21062 333 20098
AAXX 13064 60662 36/// /0000 10074 21085 333 20070
AAXX 13064 60692 36/// /3404 10102 21044 333 20102
AAXX 13064 60667 36/// /0000 10055 21070 333 20049
AAXX 13064 60676 36/// /0000 10070 21064 333 20058
AAXX 13064 60664 36/// /0000 10122 21055 333 20076
AAXX 13061 89064 16/// /2706 10021 29086 49816 52017 69931
AAXX 13064 60661 36/// /0403 10088 21041 333 20081
AAXX 13064 60672 36/// /1502 10107 21098 333 20094
AAXX 13064 60633 36/// /3511 10158 21116 333 20125
AAXX 13061 56146 32980 02001 10021 21133 36713 57036 333 05251 21113
AAXX 13061 56444 11680 60702 10002 21082 36800 57018 69901 70080 86400 333 05152 21079
AAXX 13061 56492 31757 82701 10091 20035 39819 40237 57037 71000 885// 333 05253 20041
AAXX 13061 56571 32670 72504 10145 20014 38386 57039 874// 333 05303 20059
AAXX 13061 57799 32975 73202 10126 21028 30152 40243 57032 8703/ 333 20051
AAXX 13061 57866 32970 70202 10126 21054 30030 40241 57036 8704/ 333 20065
AAXX 13061 57957 32565 70401 10157 21072 30023 40223 57040 878// 333 20090
AAXX 13061 57993 32975 70701 10145 21020 30059 40229 57036 8704/ 333 20043
AAXX 13061 58027 32961 00000 10093 21046 30192 40245 57030 333 21017
AAXX 13061 58141 31940 02202 10101 20017 30236 40256 57025 70500 333 21011
AAXX 13061 58265 31940 72901 10115 20062 30242 40250 57023 70500 8704/ 333 20009
AAXX 13061 58472 31958 13205 10108 20060 30148 40244 57023 71000 80002 333 20066
AAXX 13061 58477 31956 13201 10141 20055 30191 40236 57024 70500 81040 333 20029
AAXX 13061 58527 32965 02202 10139 21005 30165 40243 57028 333 20018
AAXX 13061 58633 31930 70000 10108 21026 30140 40243 57034 70500 87040 333 20023
AAXX 13061 58666 31956 10206 10119 20072 30126 40230 57021 70500 81040 333 20075
AAXX 13061 58725 32980 33401 10160 20034 39960 40227 57034 83040 333 20018
AAXX 13061 58921 32960 01101 10177 20074 39962 40212 57039 333 20042
AAXX 13061 59082 32978 03403 10175 21064 30064 40213 57040 333 20026
AAXX 13061 59211 32960 62002 10180 20042 39993 40203 57040 86030 333 20082
AAXX 13061 59265 32961 00701 10195 21016 30060 40200 57042 333 20070
AAXX 13061 59293 32970 30702 10191 20011 30110 40197 57042 80002 333 20055
AAXX 13061 59501 32975 61602 10212 20078 30163 40184 57027 86040 333 20130
AAXX 13061 59663 32970 70404 10207 20010 30078 40186 57035 80002 333 20106
AAXX 13061 59838 32968 70203 10225 20110 30155 40165 57034 8704/ 333 20141
AAXX 13061 59948 32480 82201 10196 20138 39680 40169 57024 888// 333 20145
AAXX 13061 59981 11580 70405 10246 20223 30121 40128 57021 69961 70060 87200 333 20222
AAXX 13060 67692 32580 71201 10236 20204 69904 84538 333 20189 5//// 55/// 79999 84620 83358 87280 555 10265 7//82
AAXX 13061 48806 32970 01802 10208 20067 39397 40168 57033 333 59016
AAXX 13064 87046 32562 81807 10184 20155 39126 48513 57005 8457/ 333 56499 84625 88360
AAXX 13061 27051 32597 81802 11045 21051 30033 40205 58001 84536 333 21030
AAXX 13061 23711 11997 81402 11109 21129 30054 40237 52012 69960 77172 8802/ 333 21110
BBXX 46249 13061 99338 71197 46/// ///// 1//// 90615 22200 00145 11403 21002 322// 41402 70016
BBXX 46247 13061 99378 71228 46/// ///// 1//// 90551 22200 00114 11205 21003 330// 41204 70024
BBXX 46248 13061 99461 71247 46/// ///// 1//// 90604 22200 00086 11103 21003 329// 41102 70016
BBXX 46244 13061 99409 71244 46/// ///// 1//// 90605 22200 00095 11106 20805 331// 41103 70028
AAXX 13064 48403 31957 60504 10262 20141 39926 40137 57033 70522 81046 333 59011
AAXX 13064 48566 32560 20203 10308 20214 30094 40102 57021 81145 333 59014
BBXX 46243 13061 99462 71241 46/// ///// 1//// 90559 22200 00078 11202 20702 326// 41201 70011
BBXX 46241 13061 99330 71173 46/// ///// 1//// 90541 22200 00154 11402 20401 325// 41401 70008
AAXX 13061 50353 32970 00000 11179 21242 30001 40246 57011 333 21297
AAXX 13061 50557 11958 80202 11190 21219 39917 40250 57014 69901 77070 8802/ 333 21263
AAXX 13061 50756 32960 70703 11118 21147 39913 40234 57026 8701/ 333 21217
AAXX 13061 50949 32965 72003 11017 21145 30007 40185 57035 80002 333 21135
AAXX 13061 50963 32760 70401 11065 21126 30086 40233 57030 84502 333 21221
AAXX 13061 50978 32977 72204 11061 21169 39893 40261 57021 80002 333 21150
AAXX 13061 51087 32980 60901 11098 21161 39361 40408 52017 80002 333 00751 21191
AAXX 13061 51156 32780 72904 11012 21116 38793 40340 52021 85502 333 00703 21076
AAXX 13061 51644 32960 70000 11030 21072 39042 40365 52017 82032 333 00451 21071
AAXX 13061 51656 32762 71801 11052 21086 39222 40379 52009 86502 333 00553 21096
AAXX 13061 51886 32980 72202 11091 21255 37125 57007 80002 333 00053 21195
AAXX 13061 52602 32980 73401 11042 21256 37280 57007 80002 333 00001 21211
AAXX 13061 52713 32980 12901 11050 21270 36910 57009 80002 333 05100 21217
AAXX 13061 52754 32980 02204 11044 21287 36779 57007 333 00253 21184
AAXX 13061 52818 32980 82703 11062 21202 37249 57011 80007 333 00055 21141
AAXX 13061 52836 32980 73402 11022 21278 36892 52001 80002 333 05102 21163
AAXX 13061 52955 32980 12901 11008 21250 36956 57017 80002 333 00001 21189
AAXX 13061 53068 32980 73206 11162 21202 39090 40316 52023 80002 333 05151 21191
AAXX 13061 53276 32980 62709 11103 21151 38869 40286 52014 81032 333 21114
AAXX 13061 54135 32975 72204 10013 21075 39953 40183 57026 86032 333 21121
AAXX 13061 54236 32962 72005 10026 21042 30093 40202 57032 80002 333 21102
AAXX 13061 54539 32765 72202 10057 20007 30214 40229 57025 82502 333 21030
AAXX 13061 54662 32670 72004 10060 20013 30131 40248 57025 872// 333 21017
AAXX 13061 54753 32962 72005 10086 20024 30238 40245 57027 80002 333 21026
AAXX 13061 54857 31956 62203 10094 20023 30160 40254 57025 71040 86030 333 20027
AAXX 13061 57067 32965 00901 10106 21062 39550 40243 57030 333 21057
AAXX 13061 57178 32970 02202 10105 21015 30089 40250 57025 333 20004
AAXX 13061 57245 32964 00401 10094 21010 39895 40255 57031 333 05201 21013
AAXX 13061 57297 32962 01401 10120 21042 30106 40249 57025 333 21008
BBXX 46240 13061 99366 71219 46/// ///// 1//// 90612 22200 00124 11302 21001 335// 41302 70011
BBXX 46237 13061 99378 71226 46/// ///// 1//// 90541 22200 00112 11304 21002 325// 41303 70020
BBXX 42362 13061 99278 70907 46/// /0809 10211 20156 40254 90615
BBXX 42363 13061 99282 70892 46/// /0810 10200 20139 40261 90615 333 91210
BBXX 42363 13061 99282 70892 46/// /0710 10200 20144 40261 90630 333 91210
BBXX 42364 13061 99291 70881 46/// /0607 10183 20150 40268 90615
BBXX 41114 13061 99276 70802 46/// ///// 1//// 90616 22200 00238 10904 20904 307// 41101 70021
BBXX 46212 13061 99408 71243 46/// ///// 1//// 90612 22200 00093 11105 21004 331// 41103 70025
BBXX 46217 13061 99342 71194 46/// ///// 1//// 90612 22200 00142 11402 20502 323// 41401 70011
BBXX 46216 13061 99343 71198 46/// ///// 1//// 90557 22200 00139 11402 20902 326// 41401 70010
BBXX 46223 13061 99335 71178 46/// ///// 1//// 90600 22200 00156 11402 20401 321// 41401 70010
AAXX 13064 68054 12960 50000 10217 20187 48506 53011 60084 85070 333 20178
AAXX 13061 01380 11165 81603 11049 21059 69912 70274 886// 333 21051 49026 70065 91108
BBXX 46211 13061 99469 71242 46/// ///// 1//// 90606 22200 00086 11103 21002 328// 41101 70013
BBXX 46221 13061 99339 71186 46/// ///// 1//// 90545 22200 00149 11402 20601 321// 41402 70010
AAXX 13061 40604 12960 31102 10064 20003 40246 53007 60002 80002
AAXX 13061 40629 12960 30000 10004 21027 40286 54000 60002 80002
AAXX 13061 40642 12960 20000 10018 21052 40288 57007 60002 82030
AAXX 13061 40650 11957 22703 10049 20012 40258 52017 60002 71000 80002
AAXX 13061 40645 12960 33102 10055 20009 40262 52013 60002 80002
AAXX 13061 40621 12960 30302 10080 21030 40278 52011 60002 80001
AAXX 13061 40634 12960 62802 10045 20016 40235 56002 60002 80006
AAXX 13064 91943 36/// /1010 10270 20213 30140 40142 52011 333 20270 59013
AAXX 13064 91945 36/// /0408 10267 20227 30163 40168 52016 555 58002
AAXX 13064 89062 46/// /0806 10006 21007 39607 49647 52001 333 55043
AAXX 13064 40582 31957 03205 10096 21020 40252 51016 70500 333 55310 00484 10000 21169 30381 40984 51283 61550 55407 40789 90400 91005 91107 91207 91305
AAXX 13064 41150 NIL
AAXX 13064 41168 NIL
AAXX 13064 41170 42960 13113 10175 20111 30210 40223 80001 333 20141 58005 81074 555 00126
AAXX 13064 41176 NIL
AAXX 13064 41184 NIL
AAXX 13064 41194 NIL
AAXX 13064 41196 NIL
AAXX 13064 41198 NIL
AAXX 13064 41210 NIL
AAXX 13064 41216 NIL
AAXX 13064 41217 NIL
AAXX 13064 41218 NIL
AAXX 13064 41226 NIL
AAXX 13064 41244 NIL
AAXX 13064 41246 32960 32303 10244 20153 30192 40196 80001 333 20168 58009 84070
AAXX 13064 41254 36/// /9902 10176 21192 38288 48293 333 0E004 20070 58038
AAXX 13064 41256 32560 22504 10243 20171 30190 40200 82400 333 20180 58013 82625
AAXX 13064 41258 NIL
AAXX 13064 41268 32560 23512 10249 20179 30174 40190 82500 333 20188 3/020 58007 82625
AAXX 13064 41312 36/// /3115 10235 20086 30140 40179 333 0E/// 20210 58004
AAXX 13064 41314 31948 32910 70161 20057 39708 4//// 70608 80001 333 20127 58809 83075
AAXX 13064 41316 31940 33319 10228 20070 30157 40183 70500 80001 333 20198 58004 83075
AAXX 13064 41404 42960 10103 10093 21039 37899 48566 80001 333 20000 30105 58001 81070
AAXX 13064 41407 42960 01010 10132 21043 39007 48551 333 20058 30/// 58010
AAXX 13064 41431 41958 01706 10256 20214 30140 40153 70500 333 20204 30/// 59002
AAXX 13064 41466 NIL
AAXX 13064 41477 NIL
AAXX 13064 41480 42460 10508 10262 20174 30170 40173 81500 333 20215 30/// 59006 81618
AAXX 13061 40655 12560 22901 10062 20017 40215 52011 60002 81102
AAXX 13061 40665 12960 02803 10077 20027 40246 52006 60002
AAXX 13061 40670 12960 10000 10067 21007 40250 51012 60002 80001
AAXX 13061 40689 12960 03306 10075 21002 40250 52015 60002
AAXX 13061 40674 12960 23004 10068 21006 40231 52011 60002 82030
BBXX 46231 13061 99327 71174 46/// ///// 1//// 90554 22200 00154 11402 20401 324// 41402 70011
BBXX 46222 13061 99336 71183 46/// ///// 1//// 90556 22200 00156 11502 20501 326// 41501 70008
BBXX 46242 13061 99332 71174 46/// ///// 1//// 90558 22200 00154 11402 20401 323// 41401 70009
BBXX JPBN 13064 99304 11445 41/97 83609 10184 20103 40199 53003 78022 882// 22272 00221 10803 20301 331// 40802 70013
BBXX JPBN 13064 99304 11445 41/97 83609 10184 20103 40199 53003 78022 882// 22272 00221 10803 20301 331// 40802 70013
BBXX JGQH 13064 99242 11333 41/96 80422 10211 20197 40164 56014 78088 882// 22261 00241 10705 20605 30735 40803 50803 70024
BBXX JGQH 13064 99242 11333 41/96 80422 10211 20197 40164 56014 78088 882// 22261 00241 10705 20605 30735 40803 50803 70024
AAXX 13061 29998 42999 01601 11248 21260 38727 48570 58005
AAXX 13061 30385 42999 20000 11298 21315 39710 40306 52007 80001
AAXX 13061 30469 42999 80000 11288 21306 39492 40335 58003 8807/
AAXX 13061 30636 41997 80801 11198 21204 39682 40337 52007 77172 83037
AAXX 13061 30650 42999 40000 11219 21245 39123 40328 58006 82041
AAXX 13061 30664 42999 10000 11219 21252 39236 40302 58015 80001
AAXX 13061 30781 42999 00000 11228 21276 39788 40300 58014
AAXX 13061 30777 42998 02801 11215 21248 39588 40293 57008
AAXX 13061 30844 41699 52706 11116 21151 39318 40335 52012 70371 83201
AAXX 13061 30925 42999 13202 11102 21175 39362 40373 52005 80001
AAXX 13061 31371 42999 00000 11145 21216 39957 40234 58007
AAXX 13061 31388 42999 02501 11170 21220 39947 40226 57004
AAXX 13061 31478 NIL
AAXX 13061 31532 42999 00201 11263 21287 39884 40261 58010
AAXX 13061 31594 42998 82601 11136 21207 30061 40241 57014 80001
AAXX 13061 31655 42998 02008 11151 21221 30145 40195 58007 333 91012
AAXX 13061 31754 42999 22403 11153 21223 39697 40225 58003 82030
BBXX ZCDD6 13063 99375 10061 41/98 32818 10150 20141 40233 50000 70122 8318/ 22264 00150 299// 327// 40302 5//// 80145
BBXX 62001 13064 99452 70050 46/// /2332 10154 20119 40060 57020 22200 00150 11017 70083 333 90710 91149
BBXX 62081 13064 99510 70134 46/// ///// 10071 20031 49886 53010 22200 00120 11018 70091
BBXX 62105 13064 99554 70122 46/// /2541 10068 20046 49594 58020 22200 00108 11328 70141 333 90710 91160
BBXX 62303 13064 99516 70051 46/// /2729 10086 20031 49850 52014 22200 00118 10710 70052 333 90710 91143
BBXX 62301 13064 99524 70047 46/// /2630 10084 20014 49824 53007 22200 00101 10607 70034 333 90710 91144
BBXX 62163 13064 99475 70084 46/// /2728 10116 20057 40002 51021 22200 00132 10913 70063 333 90710 91141
BBXX 62029 13064 99487 70125 46/// /2728 10089 20045 49970 53010 22200 00136 11016 70078 333 90710 91154
BBXX 64046 13064 99605 70049 46/// /1009 10057 20039 49574 57061 22200 00093 10707 70035
BBXX 64045 13064 99591 70117 46/// /0712 10053 20028 49538 57016 22200 00101 10913 70064
BBXX 62442 13064 99490 70164 46/// /2835 1//// 2//// 49972 50002 22200 00129 333 90710 91154
BBXX AMOUK13 13064 99519 10013 46/// ///// 10101 20076 39830 49836 57010 90550
BBXX AMOUK21 13064 99564 70055 46/// ///// 10039 20016 39670 49670 57023 90550
BBXX AMOUK05 13064 99526 10028 46/// ///// 10120 20105 39751 49793 54002 90550
BBXX AMOUK06 13064 99509 70014 46/// ///// 10104 20053 39856 49879 54002 90550
BBXX AMOUK27 13064 99582 70064 46/// ///// 1//// 2//// 39599 49603 57027 90550
BBXX AMOUK19 13064 99598 70011 46/// ///// 10070 20043 39602 49604 57053 90550
BBXX AMOUK03 13064 99522 10024 46/// ///// 10126 20115 39789 49825 52006 90550
BBXX AMOUK08 13064 99501 70061 46/// ///// 10096 20029 39905 49913 52017 90550
BBXX AMOUK10 13064 99508 70011 46/// ///// 10102 20063 39883 49885 52010 90550
BBXX AMOUK14 13064 99533 70062 46/// ///// 10038 21005 39759 49795 54002 90550
BBXX AMOUK09 13064 99504 10003 46/// ///// 10109 20105 39877 49895 57004 90550
BBXX 63056 13064 99597 10016 47395 /1334 10065 20049 49642 57082 740// 22200 10709 70043
BBXX 63057 13064 99592 10015 47396 /1726 10077 20061 49637 57071 762// 22200 10809 70045
BBXX 62111 13064 99580 70003 46/// /2429 10068 20022 49660 58006 22200 10708 70041
BBXX 62128 13064 99587 10014 47497 /2127 10079 20059 49642 57064 762// 22200 10709 70045
BBXX PJAI 13064 99581 70014 47598 /2326 10075 20014 49637 57014 700// 22200
BBXX 62112 13064 99584 70002 47598 /2326 10070 20025 49638 56027 700// 22200
BBXX 63055 13064 99606 10016 47396 /1332 10067 20050 49653 57075 704// 22200 10707 70037
BBXX 63108 13064 99608 10017 47296 /1536 10054 20027 49660 57070 762// 22200 10707 70035
BBXX 63106 13064 99610 10017 46/// /1434 10065 49674 57072 22200
BBXX 63105 13064 99610 10017 47496 ///// 10063 20035 49680 57067 761// 22200
BBXX 63113 13064 99610 10017 46/// /1536 10070 20036 49672 57073 22200 10708 70039
BBXX 63112 13064 99611 10010 47/96 /1434 10065 20027 49657 57076 761// 22200 10708 70041
BBXX 63107 13064 99611 10017 46/// /1434 10067 49676 57069 22200
BBXX 63101 13064 99612 10009 46/// /1530 10064 20036 49675 57067 22200
BBXX 63103 13064 99612 10011 46/// /1432 10067 20032 49666 57073 22200 10808 70038
BBXX 63104 13064 99612 10016 47497 /1435 10063 20028 49680 57067 762// 22200
BBXX 63117 13064 99613 10011 47498 /1433 10065 20014 49684 57066 762// 22200
BBXX 63115 13064 99616 10013 47496 /1328 10077 20028 49685 57058 762// 22200 10708 70039
BBXX MWYG6 13064 99603 70040 47997 /1114 10066 762// 22200
BBXX 64041 13064 99607 70026 47496 /1025 10063 20039 49579 57085 762// 22200 10807 70034
BBXX 62133 13064 99571 10009 46/// /2327 10080 20010 49678 56031 22200
BBXX 62119 13064 99570 10019 47898 /2315 10068 20048 49690 57027 700// 22200 10709 70043
BBXX 62152 13064 99570 10018 47/97 /2115 10084 20049 49696 57021 704// 22200 10708 70041
BBXX 62154 13064 99564 10022 46/// /2311 10059 20040 49708 56031 22200
BBXX 62120 13064 99564 10021 47998 /2413 10056 20056 49708 56025 700// 22200
BBXX 62132 13064 99564 10020 46/// /2614 10073 20051 49711 57024 22200
BBXX 62123 13064 99563 10022 47898 /2312 10064 20051 49713 55024 700// 22200
BBXX 62165 13064 99540 10009 47598 /2616 10077 20031 49783 53010 762// 22200 10505 70024
BBXX 62127 13064 99540 10007 47699 ///// 10075 20027 49777 53012 700// 22200 10604 70021
BBXX 62131 13064 99539 10012 46/// /25// 10078 20027 49778 55001 22200
BBXX 62149 13064 99537 10011 47499 /2624 10059 20057 49789 53009 700// 22200 10504 70020
BBXX 62148 13064 99536 10015 46/// /2828 10066 20047 49801 53006 22200
BBXX 62150 13064 99536 10007 47498 /2614 10066 20036 49798 53008 762// 22200 10503 70015
BBXX 62121 13064 99535 10027 46/// /2022 10104 20083 49806 56032 22200
BBXX 62144 13064 99534 10017 47698 /2336 10103 20066 49797 55000 700// 22200 10505 70023
BBXX 62145 13064 99531 10028 47697 /1930 10115 20087 49805 56017 700// 22200 10709 70046
BBXX 62142 13064 99530 10021 46597 /2130 10111 20081 49797 56016 22200 10505 70023
BBXX 62129 13064 99584 10003 46/// ///// 10074 20031 49651 56027 22200
BBXX 62113 13064 99584 10002 47598 /2124 10074 20035 49648 57030 700// 22200
BBXX ZQSD5 13064 99583 10007 46/// /2329 10081 20036 49644 56049 22200 10910 70050
BBXX 62114 13064 99583 10000 46/// /2227 10074 20030 49637 56033 22200
BBXX 62134 13064 99580 10014 47598 /2326 10082 20055 49658 56043 700// 22200 10709 70044
BBXX 62102 13064 99579 10018 46/// /2324 10082 20051 49667 56059 22200 10710 70048
BBXX 62117 13064 99579 10000 47597 /2330 10072 20032 49652 56024 700// 22200 10708 70040
BBXX 62143 13064 99577 10018 47597 /2311 10081 20050 49670 55037 700// 22200 10709 70044
BBXX 62118 13064 99577 10009 47597 /2330 10088 20027 49661 56025 700// 22200 10709 70043
BBXX 62155 13064 99577 10007 47598 /2430 10074 20071 49674 56020 751// 22200 10709 70044
BBXX 62116 13064 99576 10011 47597 /2428 10075 20034 49666 56047 700// 22200 10708 70042
BBXX 62104 13064 99574 10013 47597 /2520 10087 20043 49672 56030 700// 22200
BBXX 62153 13064 99573 10020 47599 /2114 10071 20055 49679 56038 700// 22200 10709 70043
BBXX 62122 13064 99573 10016 47698 /2523 10088 20023 49687 57025 700// 22200 10809 70044
BBXX 62140 13064 99573 10013 46/// /25// 10082 20064 49672 56039 22200
BBXX 62146 13064 99572 10021 47/98 /2414 10063 20013 49690 55026 762// 22200 10709 70043
BBXX 62164 13064 99572 10008 47597 /2428 10094 20047 49674 56021 700// 22200 00098 10708 70042
BBXX PJGO 13064 99571 10022 47298 /2416 10058 20044 49691 56037 700// 22200
BBXX 62027 13064 99491 70022 46/// /2725 1//// 2//// 49932 55011 22200 00122 10907 324// 70034 333 90710 91137
BBXX DMDZ 13063 99317 70135 41598 70610 10170 20128 40280 54000 7//22 84444 22253 04190 20601 333// 40804 5//// 80145
BBXX 63110 13063 99595 10015 41/96 /1545 10070 20059 49637 76265 8//// 22200 11010 70050
BBXX 64049 13063 99571 10022 41/97 82320 10075 20064 49678 57021 70286 8//// 22200 04096 20608 321// 40609 5//// 80070
BBXX 62081 13064 99510 70133 46/// ///// 10069 20029 49884 53013 22200 00119 11018 70091
BBXX 62105 13064 99554 70122 46/// /25// 10068 20046 49594 58020 22200 00108 11328 70141 333 90710 91160
BBXX 62103 13064 99499 70029 46/98 /2935 10117 20062 49896 53009 22200 00130 10910 70048 333 90710 91150
BBXX 62094 13064 99517 70067 46/// /2632 10080 20027 49852 53011 22200 00113 10710 70052 333 90710 91145
BBXX 62170 13064 99514 10020 46/94 /2345 10117 20107 49860 55012 22200 00118 10704 70021 333 90710 91165
BBXX 62304 13064 99511 10018 46/96 /2140 10127 20100 49871 55008 22200 00119 10705 70024 333 90710 91161
BBXX 62305 13064 99504 10000 46/95 /2639 10113 20084 49903 53004 22200 00127 10808 70038 333 90710 91159
BBXX A8RL4 13063 99370 70126 41/97 /2619 10170 40250 52011 7//// 8//// 22244 04180 20302 334// 40607
BBXX 62094 13064 99517 70067 46/// /2632 1//// 2//// 4//// 5//// 22200 00113 10710 70050 333 90710 91145
BBXX 62095 13064 99531 70159 46/// /2530 10057 20034 49802 52006 22200 00115 11017 70087 333 90710 91156
BBXX 62303 13064 99516 70051 46/// /2730 10086 20031 49856 52018 22200 00117 10710 70051 333 90710 91142
BBXX 62107 13064 99501 70061 46/// /2839 10092 20010 49911 52019 22200 00119 11011 70055 333 90710 91153
AAXX 13061 22438 32570 82509 11024 21040 30050 40072 58017 884// 333 21033
AAXX 13061 28465 32999 81602 11186 21205 30243 40328 52007 8802/ 333 21222
AAXX 13061 28588 31957 50000 11184 21196 30168 40341 53002 77172 82025 333 21250
AAXX 13061 28688 32998 81601 11202 21221 30169 40344 57002 80007 333 21245
AAXX 13061 23929 32978 61403 11203 21222 30231 40305 52011 80001 333 21195
AAXX 13061 28696 11980 20000 11224 21242 30182 40336 57002 69910 70271 80001 333 21233
AAXX 13061 28383 32970 00501 11240 21258 30268 40363 52001 333 21269
AAXX 13061 28791 31996 83401 11179 21191 30179 40337 57002 77172 8807/
AAXX 13061 28586 11997 60902 11192 21211 30187 40350 52004 69900 71072 80001 333 21228
AAXX 13064 67767 NIL
AAXX 13064 67843 NIL
AAXX 13064 67969 12975 70000 10225 20202 3//// 48/// 60074 86032 333 20196 5//// 86360
AAXX 13061 38388 32998 70000 10018 21019 30172 40346 52011 87030 333 20002
AAXX 13061 38392 32698 72004 10011 21041 30240 40346 52009 87500 333 21007 87640
AAXX 13061 38507 32998 71504 10075 20006 30217 40321 53006 87030 333 20055
AAXX 13061 38511 32998 71201 10030 20014 30181 40326 52006 86083 333 20005
AAXX 13061 38545 32998 80902 10009 21040 30174 40356 52002 8807/ 333 21006
AAXX 13061 38647 32598 20000 10002 21019 30280 40324 52016 82501 333 21010
AAXX 13061 38656 32998 60000 10011 21080 30219 40332 52001 86080 333 21016
AAXX 13061 38687 32697 51804 10055 20006 30113 40353 52002 85500 333 21009
AAXX 13061 38750 32997 60502 10048 20018 30354 40325 52010 83031 333 20025
AAXX 13061 38763 31/93 91003 11004 21004 30215 40325 52009 74742 333 21013
AAXX 13061 38774 31/93 90902 11012 21015 30133 40338 52007 74544 333 21012
AAXX 13061 38799 32997 21105 10032 20008 30116 40355 52012 80003 333 21040
AAXX 13061 38806 32997 30203 10036 20004 30087 40356 52008 80002 333 21014
AAXX 13061 38880 21993 70801 10001 21008 30065 40331 53003 74554 87600 333 69900 21039 87703
AAXX 13061 38886 32997 21202 10028 21020 30092 40328 52009 80009 333 21018
AAXX 13061 38895 32996 01302 10044 20013 30041 40339 52006 333 21012
AAXX 13061 38911 32998 03605 10044 21004 30045 40348 52011 333 21006
AAXX 13061 38915 32999 03402 10038 21002 30011 40345 53005 333 20000
AAXX 13061 38974 32998 01401 10030 20001 39979 40323 52013 333 21009
AAXX 13061 38987 32596 81701 10012 20004 39565 40335 52006 885// 333 20012
BBXX 41112 13061 99307 70813 46/// ///// 1//// 90551 22200 00163 10604 20604 311// 41101 70018
BBXX 44033 13061 99441 70690 46/30 /2604 10069 40266 58009 90604 22200 00082 10501 70006 333 91205 555 11042 22043
BBXX 44034 13061 99441 70681 46/30 /2307 10081 40269 58011 90604 22200 00090 10603 70013 333 91208 555 11084 22088
BBXX 44039 13061 99411 70727 46/// /2806 10061 21004 40308 90615 22200 00103 10301 70004 333 91208
BBXX 44060 13061 99413 70721 46/// ///03 10038 40299 90615 22200 00092 333 91204 555 11036 22036
BBXX 44022 13061 99409 70737 46/// ///04 10038 21062 40303 90615 22200 00091 333 91206 555 11041 22046
BBXX 44098 13061 99428 70702 46/// ///// 1//// 90607 22200 00093 10402 20402 70009
BBXX 44097 13061 99410 70711 46/// ///// 1//// 90602 22200 00126 11101 20901 70005
AAXX 13060 44214 32998 23501 11134 21221 38323 40416 52004 82014
BBXX 51203 13061 99208 71570 46/// ///// 1//// 90613 22200 00247 11201 21001 322// 41201 70005
BBXX 52200 13061 99134 11448 46/// ///// 1//// 90615 22200 00288 10905 20905 309// 41101 70026
BBXX 51201 13061 99217 71581 46/// ///// 1//// 90612 22200 00242 10903 20903 303// 41101 70016
BBXX 46088 13061 99483 71232 46/// /0702 10044 40195 90620 22200 00078 1//00 70001 333 91203 555 11024 22024 30537 40904 60619 065022 059023 067025 085024 091031 089028
BBXX DLCG 13064 99058 10861 41397 80107 10260 20245 40120 50000 76066 887// 22224 00290 2//01 3//// 4//// 5//// 80249
BBXX A8UE4 13063 99423 11609 41/97 62940 10022 20003 40020 58025 76772 868// 22264 04110 20306 328// 40812 5//// 80015
BBXX PDWT 13063 99189 11252 41698 50308 10311 20217 40125 57025 70200 85211 22283 06277 20502 302// 40603 5//// 80244
BBXX DDYL2 13063 99263 11209 41295 80317 10152 20123 40200 57025 71022 886// 22252 00200 20504 80135
BBXX /0P/// 13064 99496 11626 41/98 62922 11010 21071 49960 54000 70222 8/400 22224 00030 20605 81030
BBXX SHIP 13064 99249 11265 41296 80518 10210 20180 40171 56013 75825 875// 22212 00249 20507 307// 40608 80190
BBXX SHIP 13064 99229 11800 41/96 70518 10245 20204 40174 52002 71600 8//// 22200 04260
BBXX C6OT4 13064 99267 11724 41398 22211 10241 20209 40182 53011 70100 81105 22223 04254 20904 305// 41204 5//// 80220
BBXX SHIP 13064 99337 11420 41397 70423 10155 20112 40211 54000 70262 86460 22272 06210 20406 334// 40807 80130
BBXX 3EDA4 13063 99162 11475 41898 40630 10290 20250 40113 70011 84125 22226 20503 30505 40503 50503 80260
BBXX SHIP 13064 99344 11398 41/98 60520 10134 40226 52016 70222 868// 9//// 22283 00199 20202 301// 40504 5////
BBXX SHIP 13064 99271 11337 41698 80515 10195 20139 40187 56023 76062 8242/ 22243 00225 20401 316// 40602 80160
BBXX DGZS2 13063 99242 11189 41/96 90530 10160 20127 40190 50/// 74044 8//// 22213 00200 20408 304// 40508 80140
BBXX SHIP 13064 99270 11353 41296 60317 00/// 10200 20185 40183 57024 75152 8662/ 9//// 22213 00268 20402 303// 40805 5//// 6//// 80190 THNKS/B.REGARDS MASTER PACIFIC GLORY INM C - 443272110
BBXX 7JJA 13064 99216 11240 41696 80529 00 10260 20232 40130 57020 70522 886// 9//// 22213 00260 2//06 304 41106 5 6//// 80240 IC E/////
BBXX SHIP 13064 99204 11361 41597 33510 10278 20245 40148 57007 70200 82140 9//// 22271 02281 20401 41004 6//// 80254
BBXX MGRH9 13063 99316 31667 41298 83518 10220 20206 40064 56020 72582 8671/ 22273 00197 20503 33408 40803 50602 80211
BBXX A8CG7 13060 99070 31148 41697 40403 10280 20246 40070 56010 70211 83445 22274 04310 20401 30000 40000 50000 80255
BBXX DPLE 13063 99415 70296 41/98 52820 10125 20078 40235 50005 70122 8//// 22200 00160 20505 80100
BBXX DQVJ 13060 99531 71704 41598 43313 11015 49875 52035 70277 843// 22263 00051 20505 3//// 4//// 5////
BBXX SHIP 13064 99331 71518 41/97 21708 10180 21655 40249 51011 70200 8//// 92355 22264 00190 2//// 3//// 4//// 5//// 80170
BBXX SHIP 13064 99105 31135 41498 43108 10300 20246 40073 57014 70122 8421/ 22214 00296 20201 324// 40302 80260
BBXX S6CW 13063 99044 11458 41358 71415 10260 20231 40059 56011 75011 8677/ 22273 00296 20302 80240
BBXX SHIP 13064 99105 31135 41498 43108 10300 20246 40073 57014 70122 8421/ 22214 00296 20201 324// 40302 80260
BBXX S6CW 13063 99044 11458 41358 71415 10260 20231 40059 56011 75011 8677/ 22273 00296 20302 80240
AAXX 13061 14216 11782 71801 10093 20055 30012 40164 53016 60052 70262 87800 333 20091 32006 70059 923// 924/8
AAXX 13061 14219 11550 81801 10020 20016 39158 48465 53/// 60062 71066 885// 333 20015 31001 70115
AAXX 13061 14232 12584 80901 10064 20060 30044 40180 51009 60142 8682/ 333 20064 31005 70165
AAXX 13061 14234 12575 52502 10042 20040 39936 40186 51018 60082 85630 333 20041 31001 70076
AAXX 13061 14236 11556 72501 10070 20058 30041 40241 52/// 60092 710// 82520 333 20064 31004 70115
AAXX 13061 14244 12465 80000 10061 20048 30058 40188 52018 60062 8557/ 333 20059 32005 70063
AAXX 13061 14248 12960 83202 10030 20028 30003 40180 52/// 60092 8802/ 333 20029 31101 70088
AAXX 13061 14253 11640 80000 10055 20046 30000 40175 53012 60082 71062 885// 333 20055 32003 70079
AAXX 13061 14256 11560 73502 10046 20037 39848 40170 53012 60092 70264 86530 333 20045 31/// 70099
AAXX 13061 14280 12960 83003 10065 20059 30051 40161 52016 60092 8807/ 333 20065 32/// 70090
AAXX 13061 14308 12670 70201 10062 20047 39802 40157 52016 69932 84570 333 20059 31003 70022
AAXX 13061 14321 12673 62501 10101 20057 30125 40150 53/// 60112 83830 222// 00140 333 20099 32007 70461 92311 92418
AAXX 13061 14370 11550 80000 10071 20057 30050 40159 52017 60102 76162 8672/ 333 20062 32007 70097
AAXX 13061 14382 11560 83303 10068 20060 30047 40167 52011 60082 7616/ 8672/ 333 20035 32007 70081
AAXX 13061 14428 11465 82802 10109 20086 30136 40143 51012 60122 76186 8687/ 222// 00150 333 20109 31010 70759 92301
AAXX 13061 14441 12570 31406 10132 20092 30108 40132 51021 69962 82470 222// 00173 333 20125 30012 70006 92323
AAXX 13061 14452 12598 72607 10142 20135 39911 40132 52/// 60002 84530 333 20134 92322
AAXX 13061 14454 11568 71003 10155 20104 30069 40128 53005 69942 70286 86860 333 20143 31012 70010 92322
AAXX 13061 14462 11570 71803 10145 20106 30133 40139 52/// 7036/ 87800 333 20138 32012 70041
AAXX 13060 44291 32598 33406 11167 21214 38799 40423 51009 83500
AAXX 13064 60421 11960 02406 10020 20015 39209 48545 53002 60004 700// 333 00520 20018 95900
AAXX 13064 43400 NIL
AAXX 13064 43404 21470 7//// 10267 20245 30108 40118 70398 84963 333 58006 60047 70278 83818 81920 85080
AAXX 13064 43410 NIL
AAXX 13064 43413 21470 70507 10274 20257 30113 40117 72582 84931 333 58000 60017 70256 82920 85358
AAXX 13064 43415 21468 80000 10274 20254 30008 40116 78098 889// 333 58001 60017 70313 87816 82918
AAXX 13064 43418 21470 70201 10275 20255 3//// 4//// 71799 8692/ 333 5//// 60007 70457 86818 82920 85460
AAXX 13064 43421 22470 73601 10269 20243 30014 40116 8697/ 333 58002 60007 70817 85818 82920 86460
AAXX 13064 43422 21469 809// 10266 20246 39985 40115 79562 8692/ 333 58004 69907 70253 83712 83818 82920 88460
AAXX 13064 43424 22478 70508 10291 20243 30095 40098 84731 333 59008 60007 70081 81712 83816 83360
AAXX 13064 43436 21470 70000 10266 20249 30108 40111 72588 87106 333 58007 60067 70403 83817 86250
AAXX 13064 43441 22470 734// 10298 20237 39964 40093 87700 333 59004 60007 70061 83710 87818
AAXX 13064 43444 22470 70903 10259 20217 39574 40104 8597/ 333 58003 60007 70089 84818 81920 86460
AAXX 13064 43467 22466 20507 10300 20243 30090 40095 82100 333 59002 60007 70373 82816
AAXX 13064 43473 21460 80908 10162 20153 38139 48504 70282 872// 333 58005 69907 70013 87808
AAXX 13064 43475 21470 80000 10238 20232 30108 40117 78082 8612/ 333 58016 60087 70353 86818 88460
AAXX 13064 43476 21460 83203 10200 20188 38784 48528 78086 8622/ 333 58007 69907 70094 86811 88458
AAXX 13064 43479 21450 80000 10221 20213 39277 76162 8327/ 333 58011 69947 70025 83816 88458
AAXX 13064 43486 22460 70000 10304 20256 39997 40091 8422/ 333 59003 60007 70677 84814 86460
AAXX 13064 43495 22466 7//// 10270 20249 30091 40107 8397/ 333 58002 60007 70124 83818 81920 87458
AAXX 13064 43497 21474 73605 10274 20251 30081 40098 78082 84170 333 58004 69947 70004 84818 87458
AAXX 13064 43400 NIL
AAXX 13064 43404 21470 7//// 10267 20245 30108 40118 70398 84963 333 58006 60047 70278 83818 81920 85080
AAXX 13064 43410 NIL
AAXX 13064 43413 21470 70507 10274 20257 30113 40117 72582 84931 333 58000 60017 70256 82920 85358
AAXX 13064 43415 21468 80000 10274 20254 30008 40116 78098 889// 333 58001 60017 70313 87816 82918
AAXX 13064 43418 21470 70201 10275 20255 3//// 4//// 71799 8692/ 333 5//// 60007 70457 86818 82920 85460
AAXX 13064 43421 22470 73601 10269 20243 30014 40116 8697/ 333 58002 60007 70817 85818 82920 86460
AAXX 13064 43422 21469 809// 10266 20246 39985 40115 79562 8692/ 333 58004 69907 70253 83712 83818 82920 88460
AAXX 13064 43424 22478 70508 10291 20243 30095 40098 84731 333 59008 60007 70081 81712 83816 83360
AAXX 13064 43436 21470 70000 10266 20249 30108 40111 72588 87106 333 58007 60067 70403 83817 86250
AAXX 13064 43441 22470 734// 10298 20237 39964 40093 87700 333 59004 60007 70061 83710 87818
AAXX 13064 43444 22470 70903 10259 20217 39574 40104 8597/ 333 58003 60007 70089 84818 81920 86460
AAXX 13064 43467 22466 20507 10300 20243 30090 40095 82100 333 59002 60007 70373 82816
AAXX 13064 43473 21460 80908 10162 20153 38139 48504 70282 872// 333 58005 69907 70013 87808
AAXX 13064 43475 21470 80000 10238 20232 30108 40117 78082 8612/ 333 58016 60087 70353 86818 88460
AAXX 13064 43476 21460 83203 10200 20188 38784 48528 78086 8622/ 333 58007 69907 70094 86811 88458
AAXX 13064 43479 21450 80000 10221 20213 39277 76162 8327/ 333 58011 69947 70025 83816 88458
AAXX 13064 43486 22460 70000 10304 20256 39997 40091 8422/ 333 59003 60007 70677 84814 86460
AAXX 13064 43495 22466 7//// 10270 20249 30091 40107 8397/ 333 58002 60007 70124 83818 81920 87458
AAXX 13064 43497 21474 73605 10274 20251 30081 40098 78082 84170 333 58004 69947 70004 84818 87458
AAXX 13063 63684 12480 73205 10200 20161 38834 60014 83905 333 20/// 58002 83818 81922 86277 555 10175
AAXX 13060 44210 32999 30000 11181 21193 38590 51007 80001
AAXX 13060 44217 32698 60000 11129 21201 37870 40370 53015 83573
AAXX 13060 44263 32998 63201 11177 21236 38106 40474 57002 81043
AAXX 13061 21432 42998 02005 11289 21320 30269 40290 57011
AAXX 13061 21824 41997 82102 11307 21319 30324 40334 54000 77872 82046
AAXX 13061 21908 42999 20000 11396 21416 30279 40372 58003 80002
AAXX 13061 21921 42999 00404 11301 21332 30276 40326 52005
AAXX 13061 21931 41997 82502 11312 21342 30290 40326 52012 77171 8802/
AAXX 13061 21946 41999 23404 11325 21348 30195 40203 52019 70273 82030
AAXX 13061 21982 11/94 90311 11183 21202 30086 40115 52028 60012 73832 333 11139 91115 92982
AAXX 13061 25062 11997 70809 11148 21161 30079 40083 52029 69972 73773 87070 333 11102 91111
AAXX 13061 25123 41496 80000 11198 21231 30058 40092 52013 71072 8555/ 333 85613
AAXX 13061 25138 41698 82804 11208 21226 39957 40084 52023 77072 8657/ 333 91106
AAXX 13061 25173 11396 80203 11144 21150 30073 40078 52033 60022 77172 885// 333 11063 91107
AAXX 13061 25248 41698 51201 11276 21299 39596 40079 53024 70271 85500 333 91103
AAXX 13061 25282 11956 80607 11096 21108 30026 40032 52040 69980 77173 8801/ 333 11055 91111
AAXX 13061 25325 NIL
AAXX 13061 25356 11598 70206 11077 21122 39872 49970 52027 69902 73632 86530 333 11067 91008
AAXX 13061 25399 12474 72103 11082 21092 39984 49993 52029 69900 87500 333 1//// 91104
AAXX 13061 25428 41667 82806 11209 21242 39724 40073 53021 77173 8552/ 333 91111
AAXX 13061 25551 31495 83605 11076 21081 39894 49924 52012 60060 77373 8802/ 333 11/// 91112
AAXX 13061 25563 12584 21308 11090 21106 39869 49948 52029 69902 82500 333 11034 91111
AAXX 13061 25594 12598 43401 11062 21077 39951 40001 52025 69952 84500 333 11032 91102
AAXX 13061 25677 32998 70000 11108 21136 39930 49936 52018 87030 333 11053 91104
AAXX 13061 31054 41998 81101 11254 21294 39939 40248 52006 77172 85076
AAXX 13061 31123 41997 81601 11316 21345 39893 40257 53002 77171 85017
BBXX ZMFR 13064 99491 31665 43/// /35// 10116 20106 40130 52003 22251 00116
BBXX ZMENA 13064 99391 31781 46/// ///// 10188 20155 40194 222//
BBXX V2QD4 13063 99361 31507 41497 41929 10180 20164 40089 54000 70211 84578 22243 00230 20403 323// 41004
BBXX 3EAT6 13063 99223 31701 41598 40611 10295 20238 40110 54000 70311 8/2/8 22253 00280 308// 40201
AAXX 13064 93800 16/// /0316 10164 20139 40116 57016 60001
AAXX 13064 93805 16/// /1503 10148 20134 40128 57004 60001
BBXX ZMFR 13064 99491 31665 43/// /35// 10116 20106 40130 52003 22251 00116
BBXX ZMENA 13064 99391 31781 46/// ///// 10188 20155 40194 222//
BBXX V2QD4 13063 99361 31507 41497 41929 10180 20164 40089 54000 70211 84578 22243 00230 20403 323// 41004
BBXX 3EAT6 13063 99223 31701 41598 40611 10295 20238 40110 54000 70311 8/2/8 22253 00280 308// 40201
BBXX 46042 13061 99368 71224 46/// /0802 10116 40107 52020 90550 22200 00120 11305 20401 328// 41305 70027 333 91203 555 11025 22026 30540 41303 60549 077024 077023 055019 045018 032019 027016
BBXX 46207 13061 99509 71299 46/// /2008 10086 40125 57013 22200 00083 11106 70032 333 91210
BBXX 9HA2064 13063 99362 71317 41697 73120 10120 20083 40220 56020 7//22 87473 22224 0//// 2//// 3//// 4//// 5//// 6//// 80100 ICE /////
BBXX C6UB2 13064 99481 71353 41397 82317 10090 20070 40120 54000 70122 8794/ 22223 00080 20503 323// 40604 5//// 6//// 80080 ICE /////
BBXX DDJS2 13063 99391 71467 41598 70405 10122 20082 40236 50002 70222 874// 22224 00150 2//// 3//// 4//// 5//// 80102
BBXX SBLI 13061 99300 71339 43/98 70210 10149 40226 53023 22264 00185 2//// 4////
BBXX WDF4764 13064 99369 71230 41997 00212 10111 20080 40120 52020 7//00 80000 22233 0//// 20302 334// 40706 5//// 6//// 80094 ICE /////
BBXX WSRL 13064 99418 71249 41498 10122 10090 20050 40115 56025 7//00 811// 22245 00089 2//// 3//// 4//// 5//// 6//// 80070 ICE /////
AAXX 13064 40153 12960 41111 10093 21027 39144 48537 52006 60002 80005 333 20079 70000
AAXX 13064 40179 12960 41401 10087 20039 30186 40224 52009 60002 80001 333 20053 50251 55088 70000
AAXX 13064 40180 12960 39901 10088 20032 30177 40227 52008 60002 80001 333 20060 70000
AAXX 13064 40190 16/// ///// 10071 20006 39888 40230 52009 60002 333 20044 70000
AAXX 13064 40199 13/// /0309 10140 20003 30190 40213 52014 60002 333 20093 55092 70000
AAXX 13061 14235 12460 8//// 10000 20000 39007 48455 52011 60132 885// 333 20000 32/// 70163
AAXX 13061 14324 11/00 90906 11030 21034 38364 48471 53003 60112 74947 333 21032 3/104 44003 70288
AAXX 13064 89016 46/89 /1112 11095 29066 39363 4//// 5////
AAXX 13064 89003 46/89 /3224 11117 29062 38963 4//// 5////
AAXX 13064 65528 NIL
AAXX 13064 65536 NIL
AAXX 13064 65545 31930 0//// 10205 20106 39695 40122 70500 333 20185 59001
AAXX 13064 65548 NIL
AAXX 13064 65555 NIL
AAXX 13064 65557 32458 6//// 10200 20189 39864 40104 86500 333 20196 59004 86611
AAXX 13064 65560 31430 7//// 10195 20137 39800 40109 71011 875// 333 20175 58006 87613
AAXX 13064 65562 31920 0//// 10186 20180 3//// 4//// 71000 333 20180 5////
AAXX 13064 65563 NIL
AAXX 13064 65578 32958 03002 10245 20239 30096 40103 333 20245 58002
AAXX 13064 65585 12456 0//// 10229 20211 3//// 4//// 60034 333 20225 5////
AAXX 13064 65592 11956 5//// 10220 20220 30079 40102 60234 71022 80002 333 20220 59002 85076
AAXX 13064 65594 31430 53402 10230 20227 30077 40111 71022 83502 333 20226 58004 83613 85080
AAXX 13064 65599 31440 6//// 10233 20229 30023 40097 71022 82532 333 20232 58005 82613 86076
AAXX 13061 60381 16/// /2001 10100 20093 69944 333 20100
AAXX 13061 60639 36/// /0206 10086 20002 333 20086
AAXX 13061 60605 36/// /2704 10082 21007 333 20080
AAXX 13061 60373 16/// /2603 10117 20107 60024 333 20117
AAXX 13061 60393 16/// /2002 10123 20096 60014 333 20113
AAXX 13064 04203 46/// /2809 11177 21212 30013 40031 52015
AAXX 13064 04205 45/84 /1501 11185 21250 39999 40022 52015 333 11170 21227
AAXX 13064 04208 46/// ///// 11170 21194 39960 40007 52013
AAXX 13064 04213 46/// /1803 11062 21180 39850 49961 52013 333 11029 21067
AAXX 13064 04214 46/// /1204 11049 21102 39931 49964 52012
AAXX 13064 04224 45/84 /1305 11095 21138 39930 49963 52013 333 11076 21101
AAXX 13064 04228 NIL
AAXX 13064 04242 46/// /0906 11084 21145 39945 49961 52013
AAXX 13064 04253 46/// /0606 11067 21121 39926 49953 52020
AAXX 13064 04266 46/// /3236 11030 21092 39883 49921 52016
AAXX 13064 04285 46/// /3120 11036 21102 39880 49899 52022
AAXX 13064 04301 NIL
AAXX 13064 04313 46/// /1004 11173 21199 30013 40025 52010
AAXX 13064 04330 46/// /1505 11194 21249 39995 40013 52002
AAXX 13064 04351 46/// /3210 11070 21144 39922 49938 57006
AAXX 13064 04373 46/// /3117 11022 21025 39823 49917 52009
AAXX 13064 04382 46/// /3422 29076 39810 49858 52018
AAXX 13064 04416 NIL
AAXX 13064 61017 32960 50000 10018 21032 39762 40188 80002 333 05600 20014 50604 55098 59014 85080
AAXX 13064 61024 32960 30808 10116 21025 39591 40169 80002 333 00700 20110 51171 55/// 59005 83080
AAXX 13064 61036 32962 60602 10166 21006 39897 40137 80002 333 01400 20164 50951 50774 55086 59008 86280
AAXX 13064 61043 32960 70608 10145 21042 39700 40146 80008 333 0//00 20140 51431 5///4 55091 59004 87280
AAXX 13064 61045 31909 70602 10113 21068 39658 40165 70644 80008 333 00000 20113 5//// 50734 55084 59003 87280
AAXX 13064 61049 31940 70000 10110 21049 39823 40150 7062/ 80008 333 00800 20105 50761 50674 55099 59014 87280
AAXX 13064 61052 31930 50404 10156 20005 39891 40151 70622 80002 333 01000 20154 51391 55089 58001 85080
AAXX 13064 61075 32960 60000 10155 21011 39831 40144 80008 333 01300 20152 51091 50624 55083 59004 86280
AAXX 13064 61080 31920 70804 10121 21053 39728 40154 7062/ 80008 333 00500 20120 51041 50904 55061 59004 87280
AAXX 13064 61090 31956 70404 10140 21080 39641 40160 70622 80008 333 01200 20135 51031 50924 55064 59003 87280
AAXX 13064 61091 NIL 61096 31904 70402 10120 21062 39771 40161 70642 80008 333 01000 20115 51001 50694 55090 59011 87280
AAXX 13064 61099 31925 70608 10192 21030 39897 40127 7062/ 80008 333 01600 20186 51081 55060 59001 87280
AAXX 13064 61600 32960 40806 10240 20094 30124 40128 80002 333 20200 50854 55014 58019 84073
AAXX 13064 61612 32958 50000 10210 20015 30132 40140 80002 333 02000 20210 50661 55000 58021 85073
AAXX 13064 61627 31948 60604 10214 20016 3//// 4//// 7061/ 80002 333 00600 20200 50854 55087 5//// 86073
AAXX 13064 61630 32958 70404 10215 20069 30111 40130 80002 333 01700 20208 50762 55000 58017 87073
AAXX 13064 61641 32956 50408 10232 20145 30090 40123 80002 333 02000 20230 50444 55078 58012 85073
AAXX 13064 61666 32956 70404 10210 20071 30113 40121 80002 333 01500 20171 50554 55087 58013 87073
AAXX 13064 61679 32958 23606 10217 20072 30123 40131 80001 333 01800 20216 50724 55044 58016 82073
AAXX 13064 61687 31956 00406 10220 20050 30063 40120 70500 333 01000 20196 50701 55066 58015
AAXX 13064 61695 32956 30000 10196 20183 30096 40122 80002 333 01700 20190 50244 55062 58026 83073
AAXX 13064 61697 32960 30604 10204 20199 30106 40121 80002 333 01700 20191 50204 55060 58010 83073
AAXX 13064 61698 32958 70000 10160 20143 30114 40125 87070 333 01400 20158 50444 55011 58015 87363
AAXX 13064 61699 32958 01404 10190 20131 39916 40104 333 01600 20180 50544 55084 58014
AAXX 1306/ 89767 46/// ///// 11103 39654 4//// 5////
BBXX MHNL6 13063 99356 70176 41498 62903 10180 20163 40270 54000 70222 85770 22223 2//// 3//// 4//// 5//// 80170
BBXX 46147 13061 99518 71312 46/// /0000 10061 40118 57010 22200 00083 11408 70040 333 912//
BBXX 46147 13061 99518 71312 46/// /0000 10061 40118 57010 22200 00083 11408 70040 333 912//
AAXX 13061 25703 41697 73503 11222 21261 39873 40159 52034 78583 85330 333 91114
AAXX 13061 25745 41496 80000 11137 21150 39873 49926 52011 78587 889//
AAXX 13061 25913 42699 80503 11165 21245 39853 40007 52021 82537
AAXX 13061 25954 42598 80305 11113 21166 39782 49897 52013 8553/
AAXX 13061 25956 42598 70608 11114 21134 39896 49902 53020 87500
AAXX 13061 31088 42599 83302 11144 21215 30025 40032 52015 8257/
AAXX 13061 31873 42998 02202 11085 21155 30126 40265 57018
AAXX 13061 31909 42999 02903 11059 21201 30149 40229 53008 333 91114
AAXX 13061 31960 42998 21504 11045 21131 30029 40272 57021 80001
AAXX 13061 31961 42997 80401 11045 21149 30220 40267 56027 82031
AAXX 13061 32053 31999 52806 11163 21243 30053 40104 53012 73631 80005 333 91011 91113
AAXX 13061 32061 41598 63007 11135 21196 30091 40132 53009 70283 86900 333 91012 91112
AAXX 13061 32098 41598 22803 11122 21194 30126 40136 53010 71511 82900 333 91005 91108
AAXX 13061 32150 41595 83001 11077 21099 30123 40154 53009 78582 889// 333 91004 91105
AAXX 13061 32165 41598 62910 11032 21096 30107 40170 53005 70283 86900 333 91015 91117
AAXX 13061 32215 41561 72903 11052 21126 39924 49953 53002 78583 87900 333 91006 91110
AAXX 13061 32252 NIL
AAXX 13061 32389 41999 52401 11239 21251 39899 49939 52010 70242 82031
AAXX 13061 32477 41597 31201 11117 21123 39898 49930 52008 72682 83500
AAXX 13061 32583 42999 32905 11084 21112 39906 49937 53009 80001
AAXX 13061 32618 42598 20802 11081 21144 39892 49913 52014 82500
AAXX 13064 71979 16/// ///// 11050 21108 38440 40113 55003 60001 333 7////
AAXX 13064 71217 16/// /2703 11228 21252 60001 333 7////
AAXX 13064 71224 16/// /1805 11148 21162 60001 333 11063 21152 7////
AAXX 13064 71375 46/// /0308 11081 6///1 333 11053 21125 7////
AAXX 13064 71189 46/// /0702 11011 21027 6///1 333 7////
AAXX 13064 71537 16/// /0000 11146 21158 60001 333 11064 21164 7////
AAXX 13064 71343 16/// /1814 11084 21103 60001 333 11049 21108 7////
AAXX 13064 71345 16/// /2011 11083 21087 60001 333 11040 21155 7////
AAXX 13064 71276 16/// ///16 11095 21108 60001 333 11048 21110 7////
AAXX 13061 60379 16/// /1802 10109 20109 60014 333 20106
AAXX 13061 60380 16/// /3001 10108 20091 69924 333 20108
AAXX 13064 16344 11/00 92408 10030 20030 38310 48494 54004 60142 76044 333 20030 32/// 55040 21051 89/00 95090 95190
AAXX 13064 89002 41492 80932 11061 21072 39689 49742 57012 73933 887// 333 00938 92952 96111
BBXX A8AX3 13063 99461 70076 41/97 52634 10143 40048 56028 70011 8//// 22252 20608 330// 40810
BBXX A8IE6 13064 99204 11136 41597 80525 10215 20169 40160 50010 70200 8/52/ 22285 04237 20809 305// 40809 80185
BBXX C6CU6 13063 99379 70229 41598 52725 10160 20124 40260 56020 70211 83145 22253 04170 20801 332// 41506 5//// 80140
BBXX TBWUK35 13064 99374 70098 41597 82518 10174 20148 40247 53010 78085 888// 22244 00190 20202 80159
AAXX 13064 71189 46/// /0702 11011 21027 6///1 333 7////
AAXX 13064 71537 16/// /0000 11146 21158 60001 333 11064 21164 7////
AAXX 13064 71343 16/// /1814 11084 21103 60001 333 11049 21108 7////
AAXX 13064 71345 16/// /2011 11083 21087 60001 333 11040 21155 7////
AAXX 13064 62305 32960 52206 10106 20091 40243 52004 80004 333 20100
AAXX 13064 62306 32560 52302 10110 20092 40242 52006 85500 333 20106
AAXX 13064 62318 32560 40404 10154 20109 40230 52002 84800 333 20136
AAXX 13064 62337 NIL
AAXX 13064 62366 31840 30203 10122 20093 40227 52008 71000 83030 333 20111
AAXX 13064 62393 31901 03206 10072 20060 40211 52012 74640 333 20044
AAXX 13064 62405 32960 00000 10122 20042 40195 52015 333 20074
AAXX 13064 62414 32960 03606 10144 20017 40196 52018 333 20124
AAXX 13064 62417 32960 02402 10080 20052 40239 52011 333 20048
AAXX 13064 62440 31515 21403 10103 20098 40224 52008 71000 82500 333 20058
AAXX 13064 62463 32960 03113 10134 20082 40200 52011 333 20110
AAXX 13064 62465 32960 03308 10184 20045 40187 52013 333 20164
AAXX 13064 62419 NIL
AAXX 13064 71217 16/// /2703 11228 21252 60001 333 7////
AAXX 13064 71224 16/// /1805 11148 21162 60001 333 11063 21152 7////
AAXX 13064 71375 46/// /0308 11081 6///1 333 11053 21125 7////
AAXX 13064 71979 16/// ///// 11050 21108 38440 40113 55003 60001 333 7////
AAXX 13064 71276 16/// ///16 11095 21108 60001 333 11048 21110 7////
AAXX 13061 56193 NIL
AAXX 13061 56196 31950 80401 10077 20018 40239 57034 71000 8807/ 333 05253 20039
AAXX 13061 56287 31958 80702 10093 20031 40228 57035 71000 8807/ 333 05253 20059
AAXX 13061 56684 32580 32503 10104 20012 37886 57029 83100 333 05101 20029
AAXX 13061 56751 32780 33201 10128 21027 38018 57023 83400 333 00052 20021
AAXX 13061 56786 32580 71807 10146 20031 38097 57031 87400 333 05102 20053
AAXX 13061 56977 32575 80901 10158 20124 40175 57024 884// 333 05103 20107
AAXX 13061 57259 32980 02001 10114 20002 40245 57033 333 21026
AAXX 13061 57279 32963 02702 10110 20010 40256 57019 333 20002
AAXX 13061 57348 32975 01602 10129 20019 40239 57039 333 20037
AAXX 13061 57399 32962 02202 10128 21048 40255 57027 333 20006
AAXX 13061 57554 32964 82902 10102 20008 40251 57034 8807/ 333 20012
AAXX 13061 57793 32962 70402 10121 21033 40247 57029 8704/ 333 20039
AAXX 13061 58345 31957 00402 10097 21017 40248 57031 70500 333 21018
AAXX 13061 58506 32970 02502 10076 21089 40249 57015 333 21003
AAXX 13061 58813 32972 70202 10139 20005 40234 57035 87040 333 20021
AAXX 13061 58834 32975 00402 10183 20065 40213 57038 333 20087
AAXX 13061 58926 32975 22202 10193 20086 40204 57041 82040 333 20070
AAXX 13061 58944 32462 83604 10138 20076 40212 57025 885// 333 20120
AAXX 13061 59096 32973 00201 10210 21009 40198 57042 333 20046
AAXX 13061 59102 32972 10701 10180 20035 40211 57033 80002 333 20018
AAXX 13061 59278 32770 23601 10192 20008 40198 57040 81502 333 20088
AAXX 13061 59456 32980 20401 10229 20007 40179 57040 80002 333 20115
AAXX 13061 59493 32562 31603 10212 20034 40187 57033 81142 333 20120
AAXX 13061 59658 32973 70904 10213 20072 40182 57034 80002 333 20103
AAXX 13061 59673 32968 70205 10186 20040 40187 57030 8704/ 333 20135
AAXX 13061 59845 32970 71102 10217 20120 40177 57035 80002 333 20115
AAXX 13061 50434 32980 72901 11197 21244 39296 40280 57014 83032 333 21336
AAXX 13061 50527 11968 73202 11188 21207 39386 40242 57005 69901 70070 80002 333 21230
AAXX 13061 50603 11980 73202 11159 21201 39532 40263 52007 69951 70070 83032 333 21205
AAXX 13061 50632 11962 81601 11132 21153 39269 40221 57012 60011 77177 8801/ 333 21190
AAXX 13061 50727 32580 73204 11132 21179 38954 40225 57009 83502 333 21252
AAXX 13061 50915 32680 73203 11134 21191 39181 40248 52011 86502 333 21190
AAXX 13061 51716 32965 02202 11014 21075 38985 40332 52004 333 00201 21065
AAXX 13061 51765 32980 33402 11015 21087 39323 40386 52006 80002 333 00500 21145
AAXX 13061 51777 32975 72504 10000 21094 39284 40386 52001 80002 333 00600 21098
AAXX 13061 51811 31958 53601 11010 21037 38856 40331 52002 70400 82032 333 00201 21055
AAXX 13061 51828 32968 71403 10029 21111 38697 40314 57002 80002 333 00206 21047
AAXX 13061 52267 32980 10401 11048 21166 39171 40342 54000 80002 333 00452 21138
AAXX 13061 52323 32980 72903 11006 21164 38265 52002 80002 333 00402 21152
AAXX 13061 52495 32980 03406 11024 21136 38725 40322 52004 333 00251 21169
AAXX 13061 53149 32980 72909 11124 21166 38805 40319 52021 80002 333 00160 21140 91117 91527
AAXX 13061 53192 32980 22705 11135 21167 38869 40285 52009 80002 333 21199
AAXX 13061 53231 32980 00205 11099 21168 38523 52009 333 00356 21146
AAXX 13061 53336 32980 23208 11087 21159 38748 40323 52007 80002 333 00053 21130
AAXX 13061 53391 32980 02906 11067 21132 38484 40251 57004 333 05553 21118
AAXX 13061 53529 32980 03205 10014 21170 38644 40284 57010 333 05105 21141
AAXX 13061 53543 32980 02902 11014 21145 38545 40275 57005 333 21108
AAXX 13061 53723 32975 12704 10022 21128 38680 40285 57003 80002 333 05104 21111
AAXX 13061 54012 32980 22706 11086 21148 38978 40205 57005 80002 333 21149
AAXX 13061 54026 32980 70401 11021 21162 39827 40168 57019 80002 333 21132
AAXX 13061 54027 32980 62201 10001 21122 39565 40179 57021 84032 333 21148
AAXX 13061 54208 32570 22706 11046 21137 38736 40257 57004 81102 333 21176
AAXX 13061 54776 32980 71804 10067 21001 30205 40263 57024 80002 333 20026
AAXX 13061 56004 NIL
AAXX 13061 56033 32980 32902 11077 21223 35992 57012 80002 333 05101 21219
AAXX 13061 56046 32980 00902 11070 21189 36235 57019 333 05203 21231
BBXX 46145 13061 99544 71324 46/// /3302 10063 40128 57004 22200 00072 11407 70037 333 91203
BBXX 46183 13061 99536 71311 46/// /0906 10041 40126 57008 22200 00078 10703 70016 333 91207
BBXX 46183 13061 99536 71311 46/// /0906 10041 40126 57008 22200 00078 10703 70016 333 91207
BBXX 46145 13061 99544 71324 46/// /3302 10063 40128 57004 22200 00072 11407 70037 333 91203
AAXX 13060 44259 41997 73505 11128 21163 39321 40270 53009 70272 85072 333 91111
AAXX 13060 44231 31996 20000 11192 21270 38823 40509 52005 70410 82040
AAXX 13060 44259 41997 73505 11128 21163 39321 40270 53009 70272 85072 333 91111
AAXX 13060 44277 32999 10501 11125 21197 37828 40413 52007 80004
AAXX 13060 44288 32699 33306 11139 21207 38205 40416 52004 82504
AAXX 13060 44292 41899 23205 11164 21214 38762 40396 51010 70171 82080
AAXX 13060 44304 31999 23608 11136 21197 39021 40314 52009 70232 82040
AAXX 13060 44354 32999 63407 11118 21153 39132 40304 52022 86030
AAXX 13060 44373 32999 22703 11142 21175 38593 40392 51010 80009
BBXX 46131 13061 99499 71250 46/// /2702 1//// 40205 57005 22200 00069 10300 70000 333 91203
BBXX MHNL6 13063 99356 70176 41498 62903 10180 20163 40270 54000 70222 85770 22223 2//// 3//// 4//// 5//// 80170
BBXX TBWUK35 13064 99374 70098 41597 82518 10174 20148 40247 53010 78085 888// 22244 00190 20202 80159
BBXX C6CU6 13063 99379 70229 41598 52725 10160 20124 40260 56020 70211 83145 22253 04170 20801 332// 41506 5//// 80140
BBXX A8AX3 13063 99461 70076 41/97 52634 10143 40048 56028 70011 8//// 22252 20608 330// 40810
AAXX 13061 56004 32680 10401 11079 21301 35784 57016 81100 333 05351 21247
AAXX 13063 64401 32460 70000 10223 20211 39748 40121 82532 333 01869 20215 50114 55021 58003 82616 85363
AAXX 13063 64458 31403 40000 10196 20192 39708 40097 71011 84500 333 01500 20189 50204 55/// 59002 84610
AAXX 13061 51243 11962 72201 11116 21132 39792 40392 52010 69901 70070 80002 333 00752 21146
AAXX 13064 64400 11440 80000 10243 20237 30096 40115 69924 71022 888// 333 01859 20234 50124 55046 58003 83810 88623
AAXX 13063 64401 NIL
AAXX 13064 64450 32258 72402 10230 20221 39751 40104 8283/ 333 01800 20224 50144 55019 59007 81705 87363
AAXX 13063 64453 11459 60000 10194 20191 39/// 40/// 60074 70196 82570 333 01857 20189 50144 55060 5//// 82610 86363
AAXX 13063 64456 32959 63604 10220 20217 39/// 40/// 86030 333 0//00 20212 50204 55066 5//// 86362
AAXX 13063 64458 NIL
AAXX 13063 64459 31904 20000 10204 20198 39752 40115 74640 82002 333 02000 20194 50214 55/// 59010 82080
AAXX 13063 64460 NIL
AAXX 13061 60374 36/// /1803 10141 20110 333 20135
AAXX 13061 60613 36/// /0000 10067 21007 333 20063
AAXX 13061 60394 16/// /2501 10102 20102 69944 333 20098
AAXX 13061 60376 16/// /1902 10113 20113 60014 333 20109
AAXX 13061 60593 36/// /0000 10082 333 20080
AAXX 13061 40858 11940 00702 10134 20081 30217 40227 52022 60001 70600 333 30009 50451 70000
AAXX 13061 40872 11956 03304 10184 20057 30197 40202 52017 60001 70600 222// 00215 20302 333 30011 50421 70000
BBXX 46204 13061 99514 71288 46/// /0914 10051 40138 57015 22200 00085 10607 70033 333 91217
BBXX 46204 13061 99514 71288 46/// /0914 10051 40138 57015 22200 00085 10607 70033 333 91217
BBXX C6HS4 13063 99243 31045 41398 41415 10220 20198 40133 50/// 7//00 8216/ 22233 20805 80205
BBXX ZMKA 13063 99363 31753 41397 80518 10190 20174 40182 54000 75852 8577/ 22283 20301 30000 80180
BBXX JPAT 13064 99143 30863 41598 31218 10281 20206 40096 50004 70111 82130 22232 00282 10904 20302 312// 40605 85528
BBXX FHZI 13064 99429 31473 46/// /1615 10141 20042 30143 40154 54000 22200 85091
AAXX 13064 41477 42960 01812 10252 20177 333 20235 30///
AAXX 13064 91650 NIL
AAXX 13064 91652 NIL
AAXX 13064 91656 NIL
AAXX 13064 91659 11699 60000 10264 2022/ 40100 55000 60031 70198 83872 333 56999 82830 83078
AAXX 13064 91660 NIL
AAXX 13064 91669 36/// /0802 10277 20258 40107 52002 90615
AAXX 13064 91670 36/// /0100 10281 20225 40096
AAXX 13064 91676 14/// /0102 10268 20223 30037 40097 50005 60001
AAXX 13064 91680 11598 60606 10259 20246 40101 55006 60141 70196 85833 333 56299 82826 85648
AAXX 13064 91682 NIL
AAXX 13064 91683 11499 60000 10265 20244 40102 53005 60001 71522 83803 333 569/9 83815 84080
AAXX 13064 91691 14/// /0101 10254 20234 30108 40111 50006 60161
AAXX 13064 91693 NIL
AAXX 13064 91697 14/// /0802 10264 20222 30100 40105 50000 60001
AAXX 13064 91699 14/// /1502 10288 20229 30078 40109 50010
AAXX 13064 87645 32565 81813 10136 20114 39942 40148 57013 885// 333 56499 88620
AAXX 13061 21802 42999 01604 11364 21380 30306 40333 57006
AAXX 13061 24125 42998 43401 11358 21374 30071 40394 58001 80001
AAXX 13061 24136 42999 81902 11381 21409 30262 40378 52007 8807/
AAXX 13061 24143 42999 20000 11363 21397 30248 40305 53008 80005
AAXX 13061 24266 42999 80701 11405 21432 30155 40361 52005 80007
AAXX 13061 24329 42999 20000 11332 21356 30047 40389 52011 82010
AAXX 13061 24343 41999 63403 11291 21315 30154 40286 52007 70232 80002
AAXX 13061 24382 41999 82805 11216 21248 39994 40264 53019 73633 86076 333 91010 91111
AAXX 13061 24639 42999 82501 11353 21383 30169 40344 52008 80001
AAXX 13061 24641 42999 72602 11335 21365 30140 40302 52009 80008
AAXX 13061 24652 42999 82901 11351 21380 30123 40263 52014 85037
AAXX 13061 24656 42999 82703 11349 21384 30132 40248 52014 86037
AAXX 13061 24671 42999 83501 11249 21288 39678 40227 52007 8807/
AAXX 13061 24688 42999 80402 11354 21383 39216 40244 53019 85041
AAXX 13061 24724 42999 03303 11285 21315 39786 40378 52012
AAXX 13061 24738 42999 30000 11324 21342 30151 40351 52011 80001
AAXX 13061 24768 42998 72701 11347 21380 39973 40237 52009 87030
AAXX 13061 24923 42999 82402 11285 21315 30030 40374 52015 82031
AAXX 13061 24944 41998 82602 11305 21327 30014 40343 52018 70272 82036
AAXX 13061 24951 41999 82804 11302 21332 30102 40289 53006 73632 8802/
AAXX 13061 24661 41999 83608 11182 21261 39924 40204 53018 73633 86037
AAXX 13061 24959 42999 83301 11293 21324 30095 40238 52013 86031
AAXX 13061 24962 41998 80401 11365 21400 30032 40247 52008 70272 83038
AAXX 13061 24966 42999 80000 11365 21387 39989 40238 52007 8807/
AAXX 13061 24967 41999 82702 11291 21322 30015 40257 54000 70272 80006
AAXX 13061 25206 41497 83304 11246 21277 30161 40191 52024 77173 8372/
AAXX 13061 25400 41495 83406 11239 21264 30155 40216 52024 77373 8572/ 333 85711 91114
AAXX 13061 30054 42998 53201 11222 21254 30100 40364 52019 82041
AAXX 13061 30089 42999 80000 11293 21317 30077 40328 52017 80002
AAXX 13061 30393 41998 83506 11222 21247 39141 40261 52009 77173 82037 333 91110
AAXX 13061 30493 41999 50202 11183 21233 39137 40243 52008 70272 83071
AAXX 13061 31004 41997 80000 11243 21261 39372 40280 52010 77171 82037
AAXX 13061 31137 41999 80000 11305 21341 39118 40264 52011 77172 86065
BBXX ZDLP 13063 99648 50640 41/95 93023 10006 20003 49718 53010 77374 89/// 22221 05005 20301 334// 40302 5//// 80005
BBXX 44029 13061 99425 70706 46/30 /2307 10054 40277 58010 90604 22200 00090 10301 70007 333 91208 555 11081 22084
BBXX 44030 13061 99432 70704 46/// /2406 1//// 40271 58009 90604 22200 00085 10501 70007 333 91207 555 11074 22079
BBXX 41036 13061 99342 70770 46/// ///// 10137 20109 40279 90620 22200 00207
BBXX C6HS4 13063 99243 31045 41398 41415 10220 20198 40133 50/// 7//00 8216/ 22233 20805 80205
BBXX ZMKA 13063 99363 31753 41397 80518 10190 20174 40182 54000 75852 8577/ 22283 20301 30000 80180
BBXX JPAT 13064 99143 30863 41598 31218 10281 20206 40096 50004 70111 82130 22232 00282 10904 20302 312// 40605 85528
BBXX FHZI 13064 99429 31473 46/// /1615 10141 20042 30143 40154 54000 22200 85091
AAXX 13064 42309 31596 60902 10218 20190 40159 70522 81530 333 59005
AAXX 13064 42314 31595 70000 10206 20145 40167 70522 82530 333 59002 82620 87360
AAXX 13064 42410 31996 00000 10216 20137 40180 70500 333 58006
AAXX 13064 42415 31596 30000 10228 20166 40180 70500 81130 333 58000 81825
AAXX 13064 42623 31494 10000 10180 20079 39279 40156 70540 81100 333 59001 81818
AAXX 13064 42886 31994 00501 10260 20143 40162 71044 333 58004
AAXX 13064 42895 31996 00202 10256 20138 40159 70500 333 58003
AAXX 13064 42971 31595 30503 10278 20199 40158 71010 82401 333 58007 82620
AAXX 13064 42398 NIL
AAXX 13064 42492 NIL
AAXX 13064 42587 NIL
AAXX 13064 42591 NIL
AAXX 13064 42701 NIL
AAXX 13064 42706 NIL
AAXX 13064 42724 NIL
AAXX 13064 42798 NIL
AAXX 13064 42809 NIL
AAXX 13064 42977 NIL
AAXX 13064 43333 NIL
AAXX 13064 43368 NIL
AAXX 13064 67765 NIL
AAXX 13064 67775 32475 70809 10210 20164 38503 48507 81107 333 20188 58009 81815 87459
AAXX 13064 67779 NIL
AAXX 13064 67853 NIL
AAXX 13064 67861 NIL
AAXX 13064 67867 NIL
AAXX 13064 67881 NIL
AAXX 13064 67965 12980 61104 10220 20172 38671 48496 60064 85038 333 20170 59002 85360
AAXX 13064 67975 NIL
AAXX 13064 67977 NIL
AAXX 13064 67983 11980 70803 10210 20179 38879 48506 60344 70296 87082 333 20170 58017 87360
AAXX 13064 67991 NIL
AAXX 13063 67775 32475 70809 10210 20164 38503 48507 81107 333 20188 81815 87459
AAXX 13063 67965 12980 61104 10220 20172 38671 48496 60064 85038 333 20170 85360
AAXX 13063 67983 11980 70803 10210 20179 38879 48506 60344 70296 87082 333 20170 87360
AAXX 13064 67755 NIL
AAXX 13064 67771 32980 70603 10238 20180 38/// 48/// 83037 333 20202 5//// 83360 87280
AAXX 13064 67773 32480 50705 10251 20184 38/// 48/// 81530 333 20200 5//// 81615 85360
AAXX 13064 67774 NIL
AAXX 13064 67785 NIL
AAXX 13064 67789 NIL
AAXX 13064 67855 12980 70602 10218 20193 3//// 48/// 60054 8707/ 333 20192 5//// 87460
AAXX 13064 67857 NIL
AAXX 13064 67863 NIL
AAXX 13064 67871 NIL
AAXX 13064 67875 NIL
AAXX 13064 67891 NIL
AAXX 13064 67895 NIL
AAXX 13064 67897 NIL
AAXX 13064 67899 NIL
AAXX 13064 67951 11975 70306 10195 20163 3//// 48/// 60514 71422 86031 333 20170 5//// 86360
AAXX 13064 67963 NIL
AAXX 13064 67967 NIL
AAXX 13064 67971 NIL
AAXX 13064 67976 NIL
AAXX 13064 67979 NIL
BBXX C6FM8 13064 99258 70776 41798 40428 10250 20191 40190 54000 7//00 84200 22232 04256 2//// 3//// 4//// 5//// 6//// 85210 ICE /////
BBXX 3FFL8 13064 99166 70635 41798 /0513 10270 2023/ 40090 58020 7//// 8/8/3 22234 04290 2//02 30505 4//02 5//02 6//// 80240 ICE /////
BBXX V7QX2 13064 99055 10848 41796 81707 10270 2027/ 40080 54/// 78166 8/94/ 22263 00290 20401 326// 4//// 5//// 6//// 80270 ICE /////
BBXX ONDE 13063 99361 11412 41897 20110 10095 21042 40220 54000 7//11 82/68 22200 00170 20303 301// 4//// 5//// 6//// 80040 ICE /////
BBXX WYP8657 13064 99475 70889 41/98 80312 10001 2//// 40273 52/// 70222 88/// 22213 00050 20302 3//// 4//// 5//// 6//// 8//// ICE /////
BBXX LAOW5 13064 99121 51227 41497 50920 10230 20216 40154 52024 70211 851// 22254 00254 20406 310// 40406 5//// 6//// 80220 ICE /////
BBXX 46088 13061 99483 71232 46/// /0702 10044 40195 90620 22200 00078 1//00 70001 333 91203 555 11024 22024 30537 40904 60619 065022 059023 067025 085024 091031 089028
BBXX 46087 13061 99485 71247 46/// /0805 10052 21007 40194 90620 22200 00078 333 91206 555 11047 22048 30529 40906 60619 081045 074046 077048 076049 077051 080051
AAXX 13061 28867 11998 31602 11218 21243 30014 40312 58001 69900 70271 80002 333 21250
AAXX 13061 28952 11996 81103 11200 21219 30092 40300 52001 69900 77177 8807/ 333 21232
AAXX 13061 38196 11698 81801 11051 21083 39347 40367 51009 60020 70272 885// 333 21063
AAXX 13061 38198 11596 70803 11031 21041 30105 40374 52002 60010 71022 85540 333 21039
AAXX 13061 38328 11995 82201 11013 21027 39617 40369 53004 60030 71087 8802/ 333 21030
AAXX 13061 38334 11494 80000 11038 21050 39374 40371 52007 60020 71072 8362/ 333 21042
AAXX 13061 38439 12596 70502 10008 21009 30020 40368 52002 69990 82571 333 21007
AAXX 13061 30157 41998 83203 11172 21214 30042 40346 52017 72272 83031
AAXX 13064 64402 31908 83204 10218 20214 39536 40110 74642 8807/ 333 02100 20215 50124 55000 58010 88363
AAXX 13063 64403 NIL
AAXX 13063 64405 11102 70000 10211 20209 39/// 40/// 74242 87900 333 0//00 20198 50074 55/// 5//// 83702 86605 81926 94947 95837
AAXX 13063 64406 32460 73602 10235 20227 39/// 40/// 8353/ 333 0//00 20/// 50/// 55/// 5//// 83616 87363
AAXX 13063 64452 32960 72802 10227 20220 39/// 40/// 8707/ 333 01700 20204 50104 55/// 5//// 87360
AAXX 13063 64454 31440 80000 10224 20218 39692 40110 71022 8457/ 333 0//00 20216 50114 55/// 59003 84613 88363
AAXX 13063 64462 NIL
AAXX 13063 64463 32960 53204 10216 20210 39/// 40/// 85030 333 0//00 20/// 50234 55/// 5//// 85362
AAXX 13064 64402 31908 83204 10218 20214 39536 40110 74642 8807/ 333 02100 20215 50124 55000 58010 88363
AAXX 13064 64405 11102 70000 10211 20209 39/// 40/// 74242 87900 333 0//00 20198 50074 55/// 5//// 83702 86605 81926 94947 95837
AAXX 13064 64406 32460 73602 10235 20227 39/// 40/// 8353/ 333 0//00 20/// 50/// 55/// 5//// 83616 87363
AAXX 13064 64452 32960 72802 10227 20220 39/// 40/// 8707/ 333 01700 20204 50104 55/// 5//// 87360
AAXX 13064 64454 31440 80000 10224 20218 39692 40110 71022 8457/ 333 0//00 20216 50114 55/// 59003 84613 88363
AAXX 13064 64463 32960 53204 10216 20210 39/// 40/// 85030 333 0//00 20/// 50234 55/// 5//// 85362
AAXX 13061 28867 11998 31602 11218 21243 30014 40312 58001 69900 70271 80002 333 21250
AAXX 13061 28952 11996 81103 11200 21219 30092 40300 52001 69900 77177 8807/ 333 21232
AAXX 13061 38196 11698 81801 11051 21083 39347 40367 51009 60020 70272 885// 333 21063
AAXX 13061 38198 11596 70803 11031 21041 30105 40374 52002 60010 71022 85540 333 21039
AAXX 13061 38328 11995 82201 11013 21027 39617 40369 53004 60030 71087 8802/ 333 21030
AAXX 13061 38334 11494 80000 11038 21050 39374 40371 52007 60020 71072 8362/ 333 21042
AAXX 13061 38439 12596 70502 10008 21009 30020 40368 52002 69990 82571 333 21007
BBXX A8ZS7 13064 99190 30618 41/98 30413 10290 20228 40125 50000 70300 83100 22254 04250 29901 80245
BBXX ELWO6 13063 99078 50034 41296 81604 10232 40130 54000 71022 886// 22274 00243 299// 317// 41501
BBXX 46204 13061 99514 71288 46/// /0914 10051 40138 57015 22200 00085 10607 70033 333 91217
BBXX 46131 13061 99499 71250 46/// /2702 1//// 40205 57005 22200 00069 10300 70000 333 91203
BBXX 46183 13061 99536 71311 46/// /0906 10041 40126 57008 22200 00078 10703 70016 333 91207
BBXX 46145 13061 99544 71324 46/// /3302 10063 40128 57004 22200 00072 11407 70037 333 91203
BBXX 46147 13061 99518 71312 46/// /0000 10061 40118 57010 22200 00083 11408 70040 333 912//
BBXX DQVJ 13060 99531 71704 41598 43313 11015 49875 52035 70277 843// 22263 00051 20505 3//// 4//// 5////
BBXX SHIP 13064 99331 71518 41/97 21708 10180 21655 40249 51011 70200 8//// 92355 22264 00190 2//// 3//// 4//// 5//// 80170
BBXX 46088 13061 99483 71232 46/// /0702 10044 40195 90620 22200 00078 1//00 70001 333 91203 555 11024 22024 30537 40904 60619 065022 059023 067025 085024 091031 089028
BBXX 44098 13061 99428 70702 46/// ///// 1//// 90607 22200 00093 10402 20402 70009
BBXX 44034 13061 99441 70681 46/30 /2307 10081 40269 58011 90604 22200 00090 10603 70013 333 91208 555 11084 22088
BBXX 44022 13061 99409 70737 46/// ///04 10038 21062 40303 90615 22200 00091 333 91206 555 11041 22046
BBXX 44097 13061 99410 70711 46/// ///// 1//// 90602 22200 00126 11101 20901 70005
BBXX 44060 13061 99413 70721 46/// ///03 10038 40299 90615 22200 00092 333 91204 555 11036 22036
BBXX 44039 13061 99411 70727 46/// /2806 10061 21004 40308 90615 22200 00103 10301 70004 333 91208
BBXX 44033 13061 99441 70690 46/30 /2604 10069 40266 58009 90604 22200 00082 10501 70006 333 91205 555 11042 22043
BBXX 41112 13061 99307 70813 46/// ///// 1//// 90551 22200 00163 10604 20604 311// 41101 70018
BBXX 46221 13061 99339 71186 46/// ///// 1//// 90545 22200 00149 11402 20601 321// 41402 70010
BBXX 46211 13061 99469 71242 46/// ///// 1//// 90606 22200 00086 11103 21002 328// 41101 70013
BBXX 46222 13061 99336 71183 46/// ///// 1//// 90556 22200 00156 11502 20501 326// 41501 70008
BBXX 46231 13061 99327 71174 46/// ///// 1//// 90554 22200 00154 11402 20401 324// 41402 70011
BBXX 46242 13061 99332 71174 46/// ///// 1//// 90558 22200 00154 11402 20401 323// 41401 70009
BBXX 46223 13061 99335 71178 46/// ///// 1//// 90600 22200 00156 11402 20401 321// 41401 70010
BBXX 46216 13061 99343 71198 46/// ///// 1//// 90557 22200 00139 11402 20902 326// 41401 70010
BBXX 46212 13061 99408 71243 46/// ///// 1//// 90612 22200 00093 11105 21004 331// 41103 70025
BBXX 46217 13061 99342 71194 46/// ///// 1//// 90612 22200 00142 11402 20502 323// 41401 70011
BBXX 42362 13061 99278 70907 46/// /0809 10211 20156 40254 90615
BBXX 41114 13061 99276 70802 46/// ///// 1//// 90616 22200 00238 10904 20904 307// 41101 70021
BBXX 42363 13061 99282 70892 46/// /0710 10200 20144 40261 90630 333 91210
BBXX 46237 13061 99378 71226 46/// ///// 1//// 90541 22200 00112 11304 21002 325// 41303 70020
BBXX 42364 13061 99291 70881 46/// /0607 10183 20150 40268 90615
BBXX 42363 13061 99282 70892 46/// /0810 10200 20139 40261 90615 333 91210
BBXX 46240 13061 99366 71219 46/// ///// 1//// 90612 22200 00124 11302 21001 335// 41302 70011
BBXX 46243 13061 99462 71241 46/// ///// 1//// 90559 22200 00078 11202 20702 326// 41201 70011
BBXX 46241 13061 99330 71173 46/// ///// 1//// 90541 22200 00154 11402 20401 325// 41401 70008
BBXX 46248 13061 99461 71247 46/// ///// 1//// 90604 22200 00086 11103 21003 329// 41102 70016
BBXX 46244 13061 99409 71244 46/// ///// 1//// 90605 22200 00095 11106 20805 331// 41103 70028
BBXX 46247 13061 99378 71228 46/// ///// 1//// 90551 22200 00114 11205 21003 330// 41204 70024
BBXX 46249 13061 99338 71197 46/// ///// 1//// 90615 22200 00145 11403 21002 322// 41402 70016
BBXX PDZS 13063 99518 50499 41998 02517 10075 20055 40149 52025 701// 80000 22231 02064 20402 322// 40807 5//// 80065
BBXX DFVY2 13064 99129 50361 41698 70512 10260 20225 40114 57002 70322 874// 22244 00270 80235
BBXX DFFA2 13063 99091 50804 41998 31606 10215 20169 40130 57015 70111 80008 22284 00220 2//// 3//// 4//// 5//// 80185
BBXX A8IE6 13064 99204 11136 41597 80525 10215 20169 40160 50010 70200 8/52/ 22285 04237 20809 305// 40809 80185
BBXX ONDE 13063 99361 11412 41897 20110 10095 21042 40220 54000 7//11 82/68 22200 00170 20303 301// 4//// 5//// 6//// 80040 ICE /////
BBXX DLCG 13064 99058 10861 41397 80107 10260 20245 40120 50000 76066 887// 22224 00290 2//01 3//// 4//// 5//// 80249
BBXX 7JJA 13064 99216 11240 41696 80529 00 10260 20232 40130 57020 70522 886// 9//// 22213 00260 2//06 304 41106 5 6//// 80240 IC E/////
BBXX DGZS2 13063 99242 11189 41/96 90530 10160 20127 40190 50/// 74044 8//// 22213 00200 20408 304// 40508 80140
BBXX SHIP 13064 99204 11361 41597 33510 10278 20245 40148 57007 70200 82140 9//// 22271 02281 20401 41004 6//// 80254
BBXX 3EDA4 13063 99162 11475 41898 40630 10290 20250 40113 70011 84125 22226 20503 30505 40503 50503 80260
BBXX SHIP 13064 99270 11353 41296 60317 00/// 10200 20185 40183 57024 75152 8662/ 9//// 22213 00268 20402 303// 40805 5//// 6//// 80190 THNKS/B.REGARDS MASTER PACIFIC GLORY INM C - 443272110
BBXX SHIP 13064 99271 11337 41698 80515 10195 20139 40187 56023 76062 8242/ 22243 00225 20401 316// 40602 80160
BBXX SHIP 13064 99344 11398 41/98 60520 10134 40226 52016 70222 868// 9//// 22283 00199 20202 301// 40504 5////
BBXX SHIP 13064 99337 11420 41397 70423 10155 20112 40211 54000 70262 86460 22272 06210 20406 334// 40807 80130
BBXX SHIP 13064 99249 11265 41296 80518 10210 20180 40171 56013 75825 875// 22212 00249 20507 307// 40608 80190
BBXX A8UE4 13063 99423 11609 41/97 62940 10022 20003 40020 58025 76772 868// 22264 04110 20306 328// 40812 5//// 80015
BBXX SHIP 13064 99229 11800 41/96 70518 10245 20204 40174 52002 71600 8//// 22200 04260
BBXX DDYL2 13063 99263 11209 41295 80317 10152 20123 40200 57025 71022 886// 22252 00200 20504 80135
BBXX 0P/// 13064 99496 11626 41/98 62922 11010 21071 49960 54000 70222 8/400 22224 00030 20605 81030
BBXX PDWT 13063 99189 11252 41698 50308 10311 20217 40125 57025 70200 85211 22283 06277 20502 302// 40603 5//// 80244
BBXX JGQH 13064 99242 11333 41/96 80422 10211 20197 40164 56014 78088 882// 22261 00241 10705 20605 30735 40803 50803 70024
BBXX JPBN 13064 99304 11445 41/97 83609 10184 20103 40199 53003 78022 882// 22272 00221 10803 20301 331// 40802 70013
BBXX V7QX2 13064 99055 10848 41796 81707 10270 2027/ 40080 54/// 78166 8/94/ 22263 00290 20401 326// 4//// 5//// 6//// 80270 ICE /////
BBXX PHKL 13061 99078 10735 41498 32403 10326 20287 40110 50001 71500 82778 22264 00286 29901 329// 40502 5//// 80296
BBXX DGBE 13063 99304 11296 41697 60508 10190 20094 40215 57016 70211 86111 22264 00250 2//// 80135
BBXX WYP8657 13064 99475 70889 41/98 80312 10001 2//// 40273 52/// 70222 88/// 22213 00050 20302 3//// 4//// 5//// 6//// 8//// ICE /////
BBXX VREX8 13064 99366 71604 41496 82024 10190 2018/ 40190 56030 7//11 882// 22254 0//// 20006 320// 4//05 5//// 6//// 80180 ICE /////
BBXX 4XFX 13064 99428 71335 41398 72715 00/// 10100 2006/ 40180 50040 70301 8743/ 22274 0//// 20306 330// 40607 5//// 6//// 80080 ICE /////
BBXX WDB3161 13064 99523 71535 41698 41505 10060 2004/ 40140 57019 70211 8445/ 22274 00060 20201 326// 40805 5//// 6//// 80050 ICE /////
BBXX WDC6907 13064 99402 70626 41598 80619 10130 2009/ 40298 56016 70222 885// 22213 00180 20401 399// 41003 5//// 6//// 80105 ICE /////
BBXX 3FFL8 13064 99166 70635 41798 /0513 10270 2023/ 40090 58020 7//// 8/8/3 22234 04290 2//02 30505 4//02 5//02 6//// 80240 ICE /////
BBXX A8JH8 13064 99306 70368 41/// /0817 10200 20169 40280 7//// 8//// 22224 00220 20202 306// 40204
BBXX C6FM8 13064 99258 70776 41798 40428 10250 20191 40190 54000 7//00 84200 22232 04256 2//// 3//// 4//// 5//// 6//// 85210 ICE /////
BBXX 46207 13061 99509 71299 46/// /2008 10086 40125 57013 22200 00083 11106 70032 333 91210
BBXX PFBE 13060 99206 70574 41298 81312 10254 20227 40150 54000 70122 887// 22264 20202 80235 90283
BBXX 46111 13061 99481 71227 46/// /1903 10030 40194 58008 90600 22200 00059
BBXX 46112 13061 99481 71227 46/// /1702 10020 40195 56008 90600
BBXX C6VG7 13064 99247 70760 41698 40515 10236 2019/ 40155 57001 7//11 8384/ 22244 00260 20403 305// 4//// 5//// 6//// 80207 ICE /////
BBXX 44032 13061 99437 70694 46/30 /2406 10075 40262 58007 90604 22200 00089 10502 70011 333 91207 555 11069 22072
BBXX 41029 13061 99328 70796 46/// /0207 1//// 90600 555 11092 22111
BBXX 44067 13061 99384 70770 46/// /0802 10038 40313 58008 90600
BBXX 41037 13061 99340 70775 46/// /0309 10140 40244 58008 90600 22200 00165 333 91210
BBXX MHNL6 13063 99356 70176 41498 62903 10180 20163 40270 54000 70222 85770 22223 2//// 3//// 4//// 5//// 80170
BBXX A8AX3 13063 99461 70076 41/97 52634 10143 40048 56028 70011 8//// 22252 20608 330// 40810
BBXX TBWUK35 13064 99374 70098 41597 82518 10174 20148 40247 53010 78085 888// 22244 00190 20202 80159
BBXX C6CU6 13063 99379 70229 41598 52725 10160 20124 40260 56020 70211 83145 22253 04170 20801 332// 41506 5//// 80140
BBXX DPLE 13063 99415 70296 41/98 52820 10125 20078 40235 50005 70122 8//// 22200 00160 20505 80100
BBXX 62094 13064 99517 70067 46/// /2632 1//// 2//// 4//// 5//// 22200 00113 10710 70050 333 90710 91145
BBXX A8RL4 13063 99370 70126 41/97 /2619 10170 40250 52011 7//// 8//// 22244 04180 20302 334// 40607
BBXX 62107 13064 99501 70061 46/// /2839 10092 20010 49911 52019 22200 00119 11011 70055 333 90710 91153
BBXX 62303 13064 99516 70051 46/// /2730 10086 20031 49856 52018 22200 00117 10710 70051 333 90710 91142
BBXX 62095 13064 99531 70159 46/// /2530 10057 20034 49802 52006 22200 00115 11017 70087 333 90710 91156
BBXX 62304 13064 99511 10018 46/96 /2140 10127 20100 49871 55008 22200 00119 10705 70024 333 90710 91161
BBXX 62305 13064 99504 10000 46/95 /2639 10113 20084 49903 53004 22200 00127 10808 70038 333 90710 91159
BBXX 62170 13064 99514 10020 46/94 /2345 10117 20107 49860 55012 22200 00118 10704 70021 333 90710 91165
BBXX 62027 13064 99491 70022 46/// /2725 1//// 2//// 49932 55011 22200 00122 10907 324// 70034 333 90710 91137
BBXX 62105 13064 99554 70122 46/// /25// 10068 20046 49594 58020 22200 00108 11328 70141 333 90710 91160
BBXX 64049 13063 99571 10022 41/97 82320 10075 20064 49678 57021 70286 8//// 22200 04096 20608 321// 40609 5//// 80070
BBXX 62081 13064 99510 70133 46/// ///// 10069 20029 49884 53013 22200 00119 11018 70091
BBXX 63110 13063 99595 10015 41/96 /1545 10070 20059 49637 76265 8//// 22200 11010 70050
BBXX 62094 13064 99517 70067 46/// /2632 10080 20027 49852 53011 22200 00113 10710 70052 333 90710 91145
BBXX 62103 13064 99499 70029 46/98 /2935 10117 20062 49896 53009 22200 00130 10910 70048 333 90710 91150
BBXX DMDZ 13063 99317 70135 41598 70610 10170 20128 40280 54000 7//22 84444 22253 04190 20601 333// 40804 5//// 80145
BBXX PJGO 13064 99571 10022 47298 /2416 10058 20044 49691 56037 700// 22200
BBXX 62164 13064 99572 10008 47597 /2428 10094 20047 49674 56021 700// 22200 00098 10708 70042
BBXX 62146 13064 99572 10021 47/98 /2414 10063 20013 49690 55026 762// 22200 10709 70043
BBXX 62122 13064 99573 10016 47698 /2523 10088 20023 49687 57025 700// 22200 10809 70044
BBXX 62140 13064 99573 10013 46/// /25// 10082 20064 49672 56039 22200
BBXX 62153 13064 99573 10020 47599 /2114 10071 20055 49679 56038 700// 22200 10709 70043
BBXX 62155 13064 99577 10007 47598 /2430 10074 20071 49674 56020 751// 22200 10709 70044
BBXX 62118 13064 99577 10009 47597 /2330 10088 20027 49661 56025 700// 22200 10709 70043
BBXX 62143 13064 99577 10018 47597 /2311 10081 20050 49670 55037 700// 22200 10709 70044
BBXX 62104 13064 99574 10013 47597 /2520 10087 20043 49672 56030 700// 22200
BBXX 62116 13064 99576 10011 47597 /2428 10075 20034 49666 56047 700// 22200 10708 70042
BBXX 62117 13064 99579 10000 47597 /2330 10072 20032 49652 56024 700// 22200 10708 70040
BBXX 62102 13064 99579 10018 46/// /2324 10082 20051 49667 56059 22200 10710 70048
BBXX 62134 13064 99580 10014 47598 /2326 10082 20055 49658 56043 700// 22200 10709 70044
BBXX 62114 13064 99583 10000 46/// /2227 10074 20030 49637 56033 22200
BBXX 62142 13064 99530 10021 46597 /2130 10111 20081 49797 56016 22200 10505 70023
BBXX 62129 13064 99584 10003 46/// ///// 10074 20031 49651 56027 22200
BBXX 62144 13064 99534 10017 47698 /2336 10103 20066 49797 55000 700// 22200 10505 70023
BBXX ZQSD5 13064 99583 10007 46/// /2329 10081 20036 49644 56049 22200 10910 70050
BBXX 62150 13064 99536 10007 47498 /2614 10066 20036 49798 53008 762// 22200 10503 70015
BBXX 62113 13064 99584 10002 47598 /2124 10074 20035 49648 57030 700// 22200
BBXX 62121 13064 99535 10027 46/// /2022 10104 20083 49806 56032 22200
BBXX 62145 13064 99531 10028 47697 /1930 10115 20087 49805 56017 700// 22200 10709 70046
BBXX 62148 13064 99536 10015 46/// /2828 10066 20047 49801 53006 22200
BBXX 62165 13064 99540 10009 47598 /2616 10077 20031 49783 53010 762// 22200 10505 70024
BBXX 62127 13064 99540 10007 47699 ///// 10075 20027 49777 53012 700// 22200 10604 70021
BBXX 62149 13064 99537 10011 47499 /2624 10059 20057 49789 53009 700// 22200 10504 70020
BBXX 62132 13064 99564 10020 46/// /2614 10073 20051 49711 57024 22200
BBXX 62131 13064 99539 10012 46/// /25// 10078 20027 49778 55001 22200
BBXX 62123 13064 99563 10022 47898 /2312 10064 20051 49713 55024 700// 22200
BBXX 62120 13064 99564 10021 47998 /2413 10056 20056 49708 56025 700// 22200
BBXX 63115 13064 99616 10013 47496 /1328 10077 20028 49685 57058 762// 22200 10708 70039
BBXX MWYG6 13064 99603 70040 47997 /1114 10066 762// 22200
BBXX 62154 13064 99564 10022 46/// /2311 10059 20040 49708 56031 22200
BBXX 64041 13064 99607 70026 47496 /1025 10063 20039 49579 57085 762// 22200 10807 70034
BBXX 62152 13064 99570 10018 47/97 /2115 10084 20049 49696 57021 704// 22200 10708 70041
BBXX 63101 13064 99612 10009 46/// /1530 10064 20036 49675 57067 22200
BBXX 62133 13064 99571 10009 46/// /2327 10080 20010 49678 56031 22200
BBXX 62119 13064 99570 10019 47898 /2315 10068 20048 49690 57027 700// 22200 10709 70043
BBXX 63117 13064 99613 10011 47498 /1433 10065 20014 49684 57066 762// 22200
BBXX 63107 13064 99611 10017 46/// /1434 10067 49676 57069 22200
BBXX 63104 13064 99612 10016 47497 /1435 10063 20028 49680 57067 762// 22200
BBXX 63103 13064 99612 10011 46/// /1432 10067 20032 49666 57073 22200 10808 70038
BBXX 63112 13064 99611 10010 47/96 /1434 10065 20027 49657 57076 761// 22200 10708 70041
BBXX 63105 13064 99610 10017 47496 ///// 10063 20035 49680 57067 761// 22200
BBXX 63106 13064 99610 10017 46/// /1434 10065 49674 57072 22200
BBXX 63113 13064 99610 10017 46/// /1536 10070 20036 49672 57073 22200 10708 70039
BBXX 63056 13064 99597 10016 47395 /1334 10065 20049 49642 57082 740// 22200 10709 70043
BBXX 63055 13064 99606 10016 47396 /1332 10067 20050 49653 57075 704// 22200 10707 70037
BBXX AMOUK14 13064 99533 70062 46/// ///// 10038 21005 39759 49795 54002 90550
BBXX 62112 13064 99584 70002 47598 /2326 10070 20025 49638 56027 700// 22200
BBXX 63108 13064 99608 10017 47296 /1536 10054 20027 49660 57070 762// 22200 10707 70035
BBXX PJAI 13064 99581 70014 47598 /2326 10075 20014 49637 57014 700// 22200
BBXX AMOUK06 13064 99509 70014 46/// ///// 10104 20053 39856 49879 54002 90550
BBXX AMOUK05 13064 99526 10028 46/// ///// 10120 20105 39751 49793 54002 90550
BBXX 62111 13064 99580 70003 46/// /2429 10068 20022 49660 58006 22200 10708 70041
BBXX 62128 13064 99587 10014 47497 /2127 10079 20059 49642 57064 762// 22200 10709 70045
BBXX 63057 13064 99592 10015 47396 /1726 10077 20061 49637 57071 762// 22200 10809 70045
BBXX AMOUK09 13064 99504 10003 46/// ///// 10109 20105 39877 49895 57004 90550
BBXX AMOUK10 13064 99508 70011 46/// ///// 10102 20063 39883 49885 52010 90550
BBXX AMOUK21 13064 99564 70055 46/// ///// 10039 20016 39670 49670 57023 90550
BBXX AMOUK03 13064 99522 10024 46/// ///// 10126 20115 39789 49825 52006 90550
BBXX AMOUK08 13064 99501 70061 46/// ///// 10096 20029 39905 49913 52017 90550
BBXX A8HJ8 13063 99012 11034 41396 80403 10321 20256 40100 54000 78122 84720 22200 20201 30000 80272
BBXX LAOW5 13064 99121 51227 41497 50920 10230 20216 40154 52024 70211 851// 22254 00254 20406 310// 40406 5//// 6//// 80220 ICE /////
BBXX ZMFR 13064 99491 31665 43/// /35// 10116 20106 40130 52003 22251 00116
BBXX 3EAT6 13063 99223 31701 41598 40611 10295 20238 40110 54000 70311 8/2/8 22253 00280 308// 40201
BBXX ZMENA 13064 99391 31781 46/// ///// 10188 20155 40194 222//
BBXX V2QD4 13063 99361 31507 41497 41929 10180 20164 40089 54000 70211 84578 22243 00230 20403 323// 41004
BBXX SHIP 13064 99105 31135 41498 43108 10300 20246 40073 57014 70122 8421/ 22214 00296 20201 324// 40302 80260
BBXX SHIP 13063 99044 11458 41358 71415 10260 20231 40059 56011 75011 8677/ 22273 00296 20302 80240
BBXX MGRH9 13063 99316 31667 41298 83518 10220 20206 40064 56020 72582 8671/ 22273 00197 20503 33408 40803 50602 80211
BBXX A8CG7 13060 99070 31148 41697 40403 10280 20246 40070 56010 70211 83445 22274 04310 20401 30000 40000 50000 80255
BBXX AMOUK19 13064 99598 70011 46/// ///// 10070 20043 39602 49604 57053 90550
BBXX AMOUK27 13064 99582 70064 46/// ///// 1//// 2//// 39599 49603 57027 90550
BBXX 62442 13064 99490 70164 46/// /2835 1//// 2//// 49972 50002 22200 00129 333 90710 91154
BBXX AMOUK13 13064 99519 10013 46/// ///// 10101 20076 39830 49836 57010 90550
BBXX 62303 13064 99516 70051 46/// /2729 10086 20031 49850 52014 22200 00118 10710 70052 333 90710 91143
BBXX 62029 13064 99487 70125 46/// /2728 10089 20045 49970 53010 22200 00136 11016 70078 333 90710 91154
BBXX 62163 13064 99475 70084 46/// /2728 10116 20057 40002 51021 22200 00132 10913 70063 333 90710 91141
BBXX 62105 13064 99554 70122 46/// /2541 10068 20046 49594 58020 22200 00108 11328 70141 333 90710 91160
BBXX 62081 13064 99510 70134 46/// ///// 10071 20031 49886 53010 22200 00120 11018 70091
BBXX 64046 13064 99605 70049 46/// /1009 10057 20039 49574 57061 22200 00093 10707 70035
BBXX 64045 13064 99591 70117 46/// /0712 10053 20028 49538 57016 22200 00101 10913 70064
BBXX 62001 13064 99452 70050 46/// /2332 10154 20119 40060 57020 22200 00150 11017 70083 333 90710 91149
BBXX 62301 13064 99524 70047 46/// /2630 10084 20014 49824 53007 22200 00101 10607 70034 333 90710 91144
BBXX DFUX2 13063 99438 70093 41/97 82244 10180 20131 40102 57060 75822 8//// 22214 00140 2//// 80150
BBXX 2AQK9 13064 99503 70001 41296 73031 10130 20111 49907 53008 72022 8777/ 22223 20403 325// 40504 5//// 80120
BBXX PBEO 13063 99427 70097 41597 82320 10160 20134 40158 57034 70222 8//// 22282 02155 20402 328// 41005 80144
BBXX 61002 13064 99421 10047 46/// ///16 10147 2//// 40184 57016 22200 00161 10402 70008
BBXX A8UT7 13064 99360 70127 41598 32815 10180 20148 40240 54000 70200 82444 22283 20703 333// 41010 80160
BBXX DDZA2 13064 99362 70037 41/98 22716 10155 20102 40240 57005 70322 8//// 22263 04170 2//// 80125
BBXX 61001 13064 99434 10078 46/// /2411 1//// 2//// 40156 5//// 22200 00153 10603 70016
BBXX BATFR02 13064 99508 70011 46/// /2532 10107 20059 49887 55023 22283 00112
BBXX BATUK01 13064 99577 70062 46/// /2021 10065 20004 49606 58028 22281 00112
BBXX BATEU06 13064 99535 10099 46/// /1715 10074 20012 49953 22271 00054
BBXX BATFR42 13064 99507 70019 46/// /2825 10094 20037 49884 55017 22272 00127
BBXX BATFR46 13064 99357 70061 44/97 41410 10145 20122 40267 55002 703// 84/// 22213 00177
BBXX BATFR54 13064 99415 70101 46/// /2130 10152 20137 40176 58007 22243 00157
BBXX BATFR04 13064 99598 70107 44398 81514 10054 20022 49559 56014 70022 887// 22200 00102 318// 40508 5////
BBXX BATFR09 13064 99408 10142 44497 32922 10157 20072 40159 70211 83200 22253 00185 20204 60//0 ICE 0/0//
BBXX BATFR11 13064 99372 10049 46/// /2705 10157 20107 40246 55003 22224 00180
BBXX BATFR27 13064 99490 70024 46/// /2641 10119 20055 49942 53050 22243 00134
BBXX BAREU56 13064 99444 10089 46/// ///// 40162 22200
BBXX BATFR24 13064 99427 10095 44/98 02506 10149 20010 40166 53003 70000 22251 00167 20502 6/00/
BBXX BATFR21 13064 99427 10089 46/// /2328 20087 40170 50003 22222
BBXX BATFR41 13064 99431 10059 46/// ///// 10115 20000 40174 55003 22200
BBXX BAREU60 13064 99436 10135 46/// ///// 40169 52035 22252
BBXX BATFR15 13064 99369 70199 44598 22817 10177 20149 40254 55002 70200 811/1 22253 00197 20302 336// 41208 5////
BBXX BAREU05 13064 99375 70094 46/// ///// 40256 57012 22283
BBXX BATFR20 13064 99414 10094 46/// /0417 10144 20052 40175 58016 22284
BBXX BATFR50 13064 99425 10079 46/// /2920 10149 20077 40170 51010 22231 00167
BBXX LF3N 13064 99653 10073 41597 72418 10061 20020 49768 57010 70262 8//// 22200 00092 10905 70027
BBXX LF4B 13064 99606 10037 47/97 /1436 10057 49708 57068 761// 22200 00067 10707 70036 333 91143
AAXX 13090 44214 32998 23501 11134 21221 38323 40416 52004 82014
AAXX 13090 44259 41997 73505 11128 21163 39321 40270 53009 70272 85072 333 91111
BBXX IDDUK02 13064 99649 50640 46/// ///// 49721 222//
BBXX LF3F 13064 99643 10078 43/// /2118 10064 20009 49792 54000 22200 04089 10707 70036 333 91135
BBXX 3ERR2 13064 99635 10053 41497 71820 10064 20014 49771 57018 78088 879xx 22200 06090 10606 70030 333 91137
BBXX LF4C 13064 99584 10019 43/// /2226 10090 20053 49648 57044 22200 10708 70040 333 91145
BBXX LF5T 13064 99660 10081 41497 80708 10045 20025 49767 57019 76362 88/// 22200 06084 333 91120
AAXX 13090 44256 31699 43210 11119 21154 39355 40254 56001 73631 82542
AAXX 13090 44313 41997 80000 11161 21195 39347 40238 54000 77177 8802/
AAXX 13090 44314 41996 73609 11146 2//// 39142 40294 52040 77077 87020
AAXX 13064 62458 32960 30000 10128 21013 40188 52008 80001 333 20064
AAXX 13064 62420 31958 00000 10098 20071 40134 52012 71000 333 20072
AAXX 13064 62432 32960 00000 10102 20069 40216 52013 333 20062
AAXX 13064 62435 32960 00101 10096 20056 40199 52008 333 20048
AAXX 13064 62455 32960 03506 10096 20063 40211 52008 333 20082
AAXX 13064 62476 32960 00000 10200 20120 40163 52011 333 20160
AAXX 13064 62309 32560 60303 10164 20120 40227 52006 86800 333 20154
AAXX 13064 62325 32560 30503 10154 20108 40234 52002 83200 333 20144
AAXX 13064 62332 32560 30408 10173 20107 40227 52004 83200 333 20155
AAXX 13064 62387 31910 03204 10098 20098 40210 52012 71000 333 20094
AAXX 13064 62459 32960 30110 10126 20031 40197 52010 80002 333 20090
AAXX 13064 62452 32960 32305 10032 21030 40253 52006 80004 333 21011
AAXX 13064 62309 32560 60303 10164 20120 40227 52006 86800 333 20154
AAXX 13064 62325 32560 30503 10154 20108 40234 52002 83200 333 20144
AAXX 13064 62332 32560 30408 10173 20107 40227 52004 83200 333 20155
AAXX 13064 62387 31910 03204 10098 20098 40210 52012 71000 333 20094
AAXX 13064 62459 32960 30110 10126 20031 40197 52010 80002 333 20090
AAXX 13064 62452 32960 32305 10032 21030 40253 52006 80004 333 21011
AAXX 13064 62458 32960 30000 10128 21013 40188 52008 80001 333 20064
AAXX 13064 62420 31958 00000 10098 20071 40134 52012 71000 333 20072
AAXX 13064 62432 32960 00000 10102 20069 40216 52013 333 20062
AAXX 13064 62435 32960 00101 10096 20056 40199 52008 333 20048
AAXX 13064 62455 32960 03506 10096 20063 40211 52008 333 20082
AAXX 13064 62476 32960 00000 10200 20120 40163 52011 333 20160
AAXX 13060 44203 32999 00000 11303 21327 38498 40577 52010
AAXX 13060 44207 32999 72302 11259 21298 38375 40507 58002 83089
AAXX 13060 44212 32997 60000 11210 21243 39266 40514 53011 84044
AAXX 13060 44213 41999 30000 11186 21235 38894 40494 52008 70171 80003
AAXX 13060 44215 31995 00000 11209 21228 38482 40473 52016 71044
AAXX 13060 44218 41596 70000 11167 21201 38686 40453 52003 74122 81646
AAXX 13060 44225 31998 13402 11301 21313 38350 40590 51002 70244 80001
AAXX 13060 44230 32998 20000 11181 21229 38894 40496 52008 81140
AAXX 13060 44232 32999 00000 11221 21248 39225 40476 52004
AAXX 13060 44237 32999 21802 11206 21246 38556 40460 52005 82040
AAXX 13060 44239 32999 03404 11161 21231 38882 40407 51007
AAXX 13060 44241 32999 02501 11190 21223 39363 40422 52008
AAXX 13060 44256 31699 43210 11119 21154 39355 40254 56001 73631 82542
AAXX 13060 44265 32999 40000 11150 21201 38919 40414 53006 83044
AAXX 13060 44272 32998 00000 11211 21268 38265 40425 52002
AAXX 13060 44275 32998 20000 11168 21210 37740 40382 51008 80001
AAXX 13060 44282 32599 21602 11142 21211 38350 40402 52004 82500
AAXX 13060 44284 32999 63202 11178 21249 37876 40459 52028 82078
AAXX 13060 44285 32799 20000 11167 21201 38376 40433 52005 82080
AAXX 13060 44287 32899 43302 11137 21206 37156 40415 53003 81044
AAXX 13060 44294 32998 03506 11179 21226 38598 40410 52008
AAXX 13060 44298 32999 03205 11178 21184 38745 40355 52010
AAXX 13060 44302 41999 63207 11138 21209 39128 40306 53009 73673 80008
AAXX 13060 44305 31999 63608 11124 21171 39050 40261 52013 73632 86010 333 91112
AAXX 13060 44313 41997 80000 11161 21195 39347 40238 54000 77177 8802/
AAXX 13060 44314 41996 73609 11146 2//// 39142 40294 52040 77077 87020
AAXX 13060 44317 41998 33205 11165 21199 38911 40256 54000 70271 83080
AAXX 13060 44336 32999 01401 11135 21187 38759 40100 54000
AAXX 13060 44341 32999 23409 11159 21209 38652 40409 52022 80004 333 91115
AAXX 13060 44347 32999 23603 11143 21194 38771 40381 51008 81041
AAXX 13060 44352 32999 43603 11137 21164 38925 40289 52025 84040
AAXX 13060 44358 31998 43405 11166 21192 39089 40321 53021 77600 82042
BBXX PDYI 13063 99361 70070 41/99 73110 10170 20119 40260 55000 70322 8//// 22263 20201 33200 41403 5//// 80140
BBXX 46185 13061 99524 71298 46/// /3204 10060 40116 57005 22200 00074 10807 70033 333 91206
AAXX 13061 55299 32980 02904 11015 21264 35822 57023 333 05303 21203
AAXX 13061 55591 32980 01402 10041 21219 36485 57036 333 05300 21068
AAXX 13061 56739 32580 62004 10154 20000 38359 57019 86400 333 00051 20039
AAXX 13061 56951 32680 71604 10166 20061 38507 57022 879// 333 00053 20073
AAXX 13061 56964 32575 72202 10170 20119 38719 40160 57023 87200 333 05102 20120
AAXX 13061 57328 31658 10000 10114 20022 39815 40234 57042 71040 81100 333 20014
AAXX 13061 57411 31959 00201 10111 20029 39854 40233 57038 71040 333 20025
AAXX 13061 57447 31960 12001 10070 20038 39699 40260 57038 70040 81040 333 20004
AAXX 13061 57662 32965 73201 10130 21056 30203 40247 57033 8704/ 333 20045
AAXX 13061 57745 32968 81402 10122 20000 39908 40240 57032 8807/ 333 20057
AAXX 13061 57972 32965 73401 10131 21016 30009 40238 57033 8704/ 333 20054
AAXX 13061 58203 32965 01603 10101 21058 30212 40254 57027 333 21008
AAXX 13061 58314 32965 00701 10126 21041 30134 40244 57028 333 21036
AAXX 13061 58424 32960 00702 10106 21050 30225 40251 57026 333 20023
AAXX 13061 59023 32970 73202 10177 20028 39898 40210 57038 87040 333 20094
AAXX 13061 59417 32970 00701 10196 20037 30039 40195 57042 333 20059
AAXX 13061 59985 11578 80406 10232 20225 30127 40132 57017 69981 72580 882// 333 20215
AAXX 13061 59995 NIL
AAXX 13064 06680 01781 72533 11054 21160 37439 47970 57006 69992 70371 87020 333 21114 47104 55000 55300 20000 60005 70260 87457 90768 93110 91148 91238
AAXX 13064 89050 NIL
AAXX 13064 89512 32998 00000 11086 21129 39654 49806 57005 333 21116
AAXX 13064 89574 42598 70802 11027 21080 49754 57002 81538
AAXX 13064 89592 42998 70704 11037 21080 49761 57006 87030
AAXX 13064 89606 41996 81402 11286 21356 36197 47873 57001 77672 80007 333 21383
AAXX 13064 67789 32480 71202 10206 20175 3//// 48/// 86532 333 20182 5//// 86610 86080
BBXX 46185 13061 99524 71298 46/// /3204 10060 40116 57005 22200 00074 10807 70033 333 91206
AAXX 13090 44210 32999 30000 11181 21193 38590 51007 80001
AAXX 13090 44217 32698 60000 11129 21201 37870 40370 53015 83573
AAXX 13090 44263 32998 63201 11177 21236 38106 40474 57002 81043
AAXX 13064 62357 31956 63607 10124 20086 40225 57002 71020 80008 333 20102
AAXX 13064 62423 32960 03504 10072 20034 40232 52009 333 20051
AAXX 13064 62403 32960 00000 10104 20013 40199 52008 333 20072
AAXX 13064 62357 31956 63607 10124 20086 40225 57002 71020 80008 333 20102
AAXX 13064 62423 32960 03504 10072 20034 40232 52009 333 20051
AAXX 13064 62403 32960 00000 10104 20013 40199 52008 333 20072
AAXX 13061 24790 41999 70606 11189 21237 39283 40130 52029 73632 87070 333 91116
AAXX 13061 24988 42699 83603 11117 21226 39790 40047 52020 8355/
AAXX 13061 25378 12597 73603 11033 21072 39960 49993 52032 60022 87900 333 11024 85933 91107
AAXX 13061 25503 41698 81602 11230 21270 30025 40161 52025 77073 83537
AAXX 13061 25705 41697 80204 11226 21258 39798 40151 52029 78583 889//
AAXX 13061 25927 41698 83106 11166 21225 39990 49997 52016 71522 8597/
AAXX 13061 25932 42999 83303 11126 21153 39892 49931 52003 8807/
AAXX 13061 31152 42997 61802 11322 21353 39767 40215 53013 84032
AAXX 13061 31174 41599 63008 11176 21245 30115 40127 52009 73631 82501 333 91011 91115
AAXX 13061 31489 42997 00501 11181 21240 30049 40173 54000
AAXX 13061 31866 42999 02503 11074 21230 30182 40187 53003 333 91112
AAXX 13061 31959 42999 02602 11034 21160 30194 40238 57004
AAXX 13061 31989 42999 22202 11010 21141 30203 40258 57017 80009
AAXX 13061 32027 42999 11155 21215 30105 40114 52007 80002 333 91012 91114
AAXX 13061 32076 42599 52902 11138 21220 30097 40108 53011 82501 333 91002 91109
AAXX 13061 32099 41598 73210 11101 21164 30108 40116 52003 70282 87900 333 91013 91116
AAXX 13061 32121 41598 63209 11096 21160 30118 40141 53005 73683 86900 333 91012 91114
AAXX 13061 32213 41597 72907 11055 21073 39886 49950 53005 78583 87900 333 91112 92980
AAXX 13061 32287 42999 11102 11173 21185 39929 49940 52017 81030
AAXX 13061 32408 42999 11003 11197 21238 39886 49927 52011 81030
AAXX 13061 32509 42999 60602 11098 21191 39891 49926 53005 82031
AAXX 13061 32594 41598 63208 11047 21091 39903 49939 53003 73683 86300 333 91010 91113
BBXX NIL
AAXX 13064 40250 32960 00000 10046 21080 39432 40243 54002 333 200XX 300XX
AAXX 13064 40265 31950 40000 10040 21029 39447 40265 52009 70500 82031 333 20000 30105 82360 83070
AAXX 13064 40296 32960 00000 10100 20023 40223 52003 80002 333 20066 30003 84070
AAXX 13064 40310 NIL
BBXX NIL
BBXX BAREU62 13064 99366 10211 46/// ///// 40204 57005 22264
AAXX 13064 89132 NIL
AAXX 13064 89542 NIL
AAXX 13064 89575 NIL
AAXX 13064 89657 46/// /1308 11029 20006 49758 54001
BBXX NIL
AAXX 13061 37661 NIL
AAXX 13061 37675 42495 82502 10009 21005 39656 40338 52003 8802/
AAXX 13061 37729 42598 22903 10009 21008 38607 52008 82100 333 21028
AAXX 13061 37735 42596 81001 10031 20013 39882 40267 52007 885//
AAXX 13061 37740 42597 72701 10016 21022 39514 40346 52006 87500
AAXX 13061 37749 42998 23602 10055 20023 30256 40376 52006 80004
AAXX 13061 37832 32998 01201 10003 21005 40543 52010 333 20010
AAXX 13061 37851 42598 53302 10055 20031 30269 40345 52003 85500 555 20048
AAXX 13061 37864 32697 83202 10064 20050 40332 53006 85500 333 20030 85633 555 30///
AAXX 13061 37905 42997 00000 11014 21022 40346 52022
AAXX 13061 37923 42997 70000 10035 20012 40303 53012 87070 333 20014
AAXX 13061 37925 42998 03601 10039 20029 30355 40325 52004 333 20043
AAXX 13061 37985 42597 82901 10074 20065 30343 40028 54000 885//
AAXX 13061 37989 42698 83002 10068 21002 40340 53007 885//
BBXX NIL
BBXX NIL
AAXX 13064 61017 32960 50000 10018 21032 39762 40188 80002 333 05600 20014 50604 55098 59014 85080
AAXX 13064 61024 32960 30808 10116 21025 39591 40169 80002 333 00700 20110 51171 55/// 59005 83080 P037
AAXX 13064 61036 32962 60602 10166 21006 39897 40137 80002 333 01400 20164 50951 50774 55086 59008 86280
AAXX 13064 61043 32960 70608 10145 21042 39700 40146 80008 333 0//00 20140 51431 5///4 55091 59004 87280
AAXX 13064 61045 31909 70602 10113 21068 39658 40165 70644 80008 333 00000 20113 5//// 50734 55084 59003 87280
AAXX 13064 61049 31940 70000 10110 21049 39823 40150 7062/ 80008 333 00800 20105 50761 50674 55099 59014 87280
AAXX 13064 61052 31930 50404 10156 20005 39891 40151 70622 80002 333 01000 20154 51391 55089 58001 85080
AAXX 13064 61075 32960 60000 10155 21011 39831 40144 80008 333 01300 20152 51091 50624 55083 59004 86280
AAXX 13064 61080 31920 70804 10121 21053 39728 40154 7062/ 80008 333 00500 20120 51041 50904 55061 59004 87280
AAXX 13064 61090 31956 70404 10140 21080 39641 40160 70622 80008 333 01200 20135 51031 50924 55064 59003 87280
AAXX 13064 61091 NIL
AAXX 13064 61096 31904 70402 10120 21062 39771 40161 70642 80008 333 01000 20115 51001 50694 55090 59011 87280
AAXX 13064 61099 31925 70608 10192 21030 39897 40127 7062/ 80008 333 01600 20186 51081 55060 59001 87280
AAXX 13061 06290 17463 81809 10060 20047 39882 49922 56055 60052 78186 8//// 333 20046 3/004 70083 84/10 87/12 88/16 91015 91118 91210
AAXX 13061 38599 31496 80708 10029 20002 39832 40361 50001 71022 885// 333 20004 83711
AAXX 13061 38599 31496 80708 10029 20002 39832 40361 50001 71022 885// 333 20004 83711
AAXX 13064 91772 11398 83204 10254 20225 4//// 39911 70282 8671/ 333 5679/ 81707 86640 88470
AAXX 13064 91776 11498 60000 1//// 2//// 4//// 60031 70188 8323/ 333 5699/ 83817 86361
AAXX 13064 91779 11398 73008 10248 20225 40110 53004 60091 70288 83701 333 567/9 81709 83816 87077
AAXX 13064 91784 11498 70000 10270 20241 40108 53001 60001 70282 84208 333 569/9 84818 87278
AAXX 13064 91792 31499 31804 10272 20231 40114 55005 60001 70121 82200 333 569// 82819 82077
AAXX 13061 23074 41998 81807 11144 21171 30247 40273 53004 73632 8802/
AAXX 13061 23274 41897 71703 11160 21173 30294 40332 52006 77172 85038
AAXX 13061 23383 41598 80000 11223 21241 30003 40389 52010 70282 8251/
AAXX 13061 23472 42598 71702 11148 21168 30326 40378 52014 83501
AAXX 13061 23678 42598 60000 11125 21138 30352 40413 52008 86500
AAXX 13061 23884 41570 70000 11168 21181 30360 40440 52007 70272 87500
AAXX 13061 23891 41598 70000 11213 21246 30058 53005 72287 84502
AAXX 13061 24507 42998 60000 11314 21336 30142 40418 52007 83031
AAXX 13061 24817 42999 00000 11305 21330 39995 40412 52013
AAXX 13061 24908 42980 80000 11218 21243 30040 40401 52001 86031
AAXX 13061 29263 41996 72101 11242 21267 30341 40454 52005 71022 85032
AAXX 13061 29282 42997 22901 11229 21255 30241 40429 58004 80001
AAXX 13061 29379 42998 00000 11237 21255 30221 40453 54000
AAXX 13061 29570 41996 00000 11228 21246 30073 40459 52002 77600
AAXX 13061 29698 41698 40000 11101 21145 39886 40426 58001 70281 82401
AAXX 13061 30230 41999 60000 11220 21246 30037 40395 52010 70272 80001
AAXX 13061 30252 41998 70701 11179 21198 39994 40332 52013 77172 8805/
AAXX 13061 30309 41598 82901 11135 21162 39854 40406 57001 78582 86901
AAXX 13061 30328 41994 80000 11164 21177 39949 40405 52002 77577 8802/
AAXX 13061 30521 41597 82501 11124 21159 39842 40393 51002 78582 86901
AAXX 13061 30710 41597 82803 11121 21158 39807 40424 52002 78582 87901
AAXX 13061 23973 42999 71702 11202 21221 30380 40449 52007 87050
AAXX 13061 23975 42899 30000 11171 21192 30331 40449 52001 83070
AAXX 13061 23986 41599 80000 11145 21157 39748 40425 57002 70281 8531/
AAXX 13061 23987 42999 60000 11247 21272 30377 40460 52008 83031
AAXX 13061 24606 42999 00000 11344 21368 30118 40426 52005
AAXX 13061 29253 42999 30000 11255 21287 30264 40455 52006 83030
AAXX 13061 29471 41995 00000 11254 21272 30211 40467 58001 71011
AAXX 13061 29481 42999 20000 11242 21267 30190 40456 52001 80001
AAXX 13061 29553 42973 01101 11193 21205 30037 40436 52004
AAXX 13061 29562 42998 00000 11228 21261 39982 40443 58007
AAXX 13061 29581 42998 00000 11228 21253 30175 40462 58003
AAXX 13061 29594 41599 82301 11163 21182 30028 40444 53002 70282 84946
AAXX 13061 29653 42997 51903 11205 21224 39912 40442 52004 80001
AAXX 13061 29675 42998 00000 11245 21277 39814 40474 58002
AAXX 13061 29676 42998 00000 11195 21229 39982 40445 58003
AAXX 13061 29752 42999 01104 11112 21174 38894 48529 52002
AAXX 13061 29759 42999 00000 11157 21176 39327 40424 53010
AAXX 13061 29766 42999 00000 11266 21277 30068 40469 51001
AAXX 13061 29789 42999 00000 11191 21210 39182 40463 58006
AAXX 13061 29864 42999 03104 11205 21238 39737 40450 52005
AAXX 13061 29866 41996 21401 11222 21233 30091 40446 52001 71000 80001
AAXX 13061 29869 41930 80000 11228 21253 30044 40460 51003 71011 80007
AAXX 13061 29956 42896 70504 11189 21215 39829 40438 52003 71072 82076
AAXX 13061 30337 41697 70000 11172 21184 39908 40389 52006 78587 83931
AAXX 13061 30405 41598 82502 11151 21178 39863 40428 57003 70282 82931
AAXX 13061 30504 41998 83001 11124 21159 39740 40425 58005 77187 8801/
AAXX 13061 30603 41598 80000 11122 21157 39815 40418 57001 70282 82901
AAXX 13061 30612 41599 83202 11133 21160 39854 40420 54000 70282 82942
AAXX 13061 30622 42698 32903 11131 21158 36704 40384 54000 82909
AAXX 13061 30627 41997 82402 11139 21174 39412 40395 52001 77172 8807/
AAXX 13061 30703 41699 22502 11093 21155 39712 40414 58008 70171 81140
AAXX 13061 36307 42999 31401 11174 21216 39062 48574 52010 80001
AAXX 13063 42071 31996 02905 10176 20057 40198 70400 333 58001
AAXX 13064 42027 31995 00000 10046 21015 38477 48563 70500 333 59003
AAXX 13064 42101 31995 02704 10180 20091 40187 70500 333 59009
AAXX 13064 42111 31995 02302 10170 20106 39392 40169 70500 333 59017
AAXX 13064 42131 32996 02701 10210 20059 40193 333 59004
AAXX 13064 42165 31995 00000 10228 20034 40187 70500 333 58005
AAXX 13064 42182 31995 02710 10200 20065 40191 70400 333 59009
AAXX 13064 42189 31/94 92702 10146 20116 40192 71044 89/// 333 59009
AAXX 13064 42260 31996 22006 10211 20078 40196 70340 80001 333 59001
AAXX 13064 42328 32996 00501 10234 21013 40181 333 58008
AAXX 13064 42339 31995 00000 10216 20057 40195 333 58014
AAXX 13064 42348 31995 01603 10212 20025 40192 70500 333 58001
AAXX 13064 42361 31996 00000 10224 20161 40192 70500 333 58002
AAXX 13064 42369 31994 02903 10160 20128 40198 71040 333 58000
AAXX 13064 42379 31595 22701 10188 20115 40186 70510 82500 333 59004 82630
AAXX 13064 42452 31995 00000 10206 20069 40193 70400 333 58002
AAXX 13064 42475 31994 00000 10150 20132 40201 71040 333 58011
AAXX 13064 42071 NIL
AAXX 13064 71445 16/// /1909 11141 21163 30002 40293 55013 60001 333 11128 21187 7////
AAXX 13064 71351 16/// /2005 11059 21100 60001 333 11040 21098 7////
AAXX 13064 71353 16/// /2503 11109 21135 60001 333 11054 21131 7////
AAXX 13064 71385 46/// /2112 10010 6///1 333 10022 21006 7//// 555 32135 40153
AAXX 13064 71525 16/// /1812 11058 21067 60001 333 11011 21121 7////
AAXX 13064 71535 16/// /1711 11082 21098 60001 333 11046 21117 7////
AAXX 13064 71536 16/// /1809 11085 21114 60001 333 11041 21127 7////
AAXX 13064 71683 46/// /0210 11214 39931 40044 53043 6///1 333 11103 21214 7////
AAXX 13064 71916 46/// /3214 11334 21364 39949 40007 51023 6///1 333 11314 21355 7////
AAXX 13064 71464 46/// ///10 10042 30078 40295 54000 6///1 333 10045 20025 7////
AAXX 13064 71466 46/// ///// 10033 30070 6///1 333 7////
AAXX 13064 71214 16/// /1909 11076 21084 60001 333 11058 21084 7////
AAXX 13064 71223 16/// /1910 11097 21111 60001 333 11056 21097 7////
AAXX 13064 71225 16/// /1309 11115 21125 60001 333 11038 21145 7////
AAXX 13064 71227 46/// /1911 11098 21108 6///1 333 7////
AAXX 13064 71257 16/// /2007 11114 21128 60001 333 11065 21115 7////
AAXX 13064 71258 17/// /2106 11139 21159 60011 7//4/ 333 11077 21169 7////
AAXX 13064 71259 17/// /1301 11140 21159 69941 7//4/ 333 11068 21140 7////
AAXX 13064 71274 16/// /1706 11083 21102 60001 333 11052 21113 7////
AAXX 13064 71275 46/// /1815 11084 21100 6///1 333 11048 21116 7////
AAXX 13064 71278 16/// /2008 11085 21097 60001 333 11035 21114 7////
AAXX 13064 71286 16/// /1911 11077 21095 60001 333 11041 21114 7////
AAXX 13064 71287 16/// /2110 11055 21091 60001 333 11050 21101 7////
AAXX 13064 71289 16/// /1815 11097 21111 60001 333 11063 21107 7////
AAXX 13064 71445 16/// /1909 11141 21163 30002 40293 55013 60001 333 11128 21187 7////
AAXX 13064 71351 16/// /2005 11059 21100 60001 333 11040 21098 7////
AAXX 13064 71353 16/// /2503 11109 21135 60001 333 11054 21131 7////
AAXX 13064 71385 46/// /2112 10010 6///1 333 10022 21006 7//// 555 32135 40153
AAXX 13064 71916 46/// /3214 11334 21364 39949 40007 51023 6///1 333 11314 21355 7////
AAXX 13064 71683 46/// /0210 11214 39931 40044 53043 6///1 333 11103 21214 7////
AAXX 13064 71525 16/// /1812 11058 21067 60001 333 11011 21121 7////
AAXX 13064 71535 16/// /1711 11082 21098 60001 333 11046 21117 7////
AAXX 13064 71536 16/// /1809 11085 21114 60001 333 11041 21127 7////
AAXX 13064 71214 16/// /1909 11076 21084 60001 333 11058 21084 7////
AAXX 13064 71223 16/// /1910 11097 21111 60001 333 11056 21097 7////
AAXX 13064 71225 16/// /1309 11115 21125 60001 333 11038 21145 7////
AAXX 13064 71227 46/// /1911 11098 21108 6///1 333 7////
AAXX 13064 71257 16/// /2007 11114 21128 60001 333 11065 21115 7////
AAXX 13064 71258 17/// /2106 11139 21159 60011 7//4/ 333 11077 21169 7////
AAXX 13064 71259 17/// /1301 11140 21159 69941 7//4/ 333 11068 21140 7////
AAXX 13064 71274 16/// /1706 11083 21102 60001 333 11052 21113 7////
AAXX 13064 71275 46/// /1815 11084 21100 6///1 333 11048 21116 7////
AAXX 13064 71278 16/// /2008 11085 21097 60001 333 11035 21114 7////
AAXX 13064 71286 16/// /1911 11077 21095 60001 333 11041 21114 7////
AAXX 13064 71287 16/// /2110 11055 21091 60001 333 11050 21101 7////
AAXX 13064 71289 16/// /1815 11097 21111 60001 333 11063 21107 7////
AAXX 13064 71464 46/// ///10 10042 30078 40295 54000 6///1 333 10045 20025 7////
AAXX 13064 71466 46/// ///// 10033 30070 6///1 333 7////
AAXX 13061 51711 32980 12901 11027 21117 38047 52010 80002 333 00301 21083
AAXX 13061 51730 32970 82502 11016 21069 40353 52009 8801/ 333 00300 21092
AAXX 13061 52112 32980 30000 11056 21180 40362 52005 80002 333 00551 21152
AAXX 13061 52737 32980 22002 11025 21249 37081 57008 80002 333 05102 21145
AAXX 13061 52787 32980 03605 11033 21220 37017 57009 333 00203 21136
AAXX 13061 53352 32680 72907 11083 21151 40312 52014 82502 333 21127
AAXX 13061 53593 32960 00202 10028 21091 40221 57024 333 21073
AAXX 13061 53705 32970 12703 10046 21119 40289 57009 80002 333 00004 21091
AAXX 13061 53863 32962 02003 10066 21081 40253 57025 333 21083
AAXX 13061 53975 32968 00701 10051 21080 40247 57031 333 21046
AAXX 13061 54273 32670 71101 11068 21143 40256 57030 875// 333 21238
AAXX 13061 54324 32770 62206 10047 21054 40201 57027 81502 333 21066
AAXX 13061 54405 32960 72202 10010 21070 40224 57027 82032 333 21075
AAXX 13061 54436 32780 52503 10043 21013 40226 57038 85500 333 21051
AAXX 13061 54808 32962 01804 10084 21017 40237 57031 333 21019
AAXX 13061 54826 32980 02209 11033 21106 38467 57018 333 21063
AAXX 13061 54836 32665 22003 10079 21003 40250 57033 82100 333 21026
AAXX 13061 54863 32965 70902 10070 20017 40256 57025 8703/ 333 21003
AAXX 13061 56018 32680 11401 11013 21226 36143 57035 81100 333 05301 21187
AAXX 13061 56021 32980 03201 11047 21209 36039 57026 333 05305 21235
AAXX 13061 57071 32960 02202 10080 21007 40239 57029 333 20000
AAXX 13064 86330 31598 81302 10182 20093 40117 51004 71322 8297/
AAXX 13064 86360 NIL
AAXX 13064 86460 NIL
AAXX 13064 86490 NIL
AAXX 13064 86530 NIL
AAXX 13064 86545 32597 42706 10138 20104 40108 57/// 84500
AAXX 13064 86565 32597 30000 10154 20136 40081 57008 83500
AAXX 13064 86580 11597 82604 10164 20150 40090 57014 60021 72122 84470
AAXX 13064 68817 NIL
AAXX 13064 68513 36/// /2805 10161 20136 39995 40107 53007 333 20155 91006 555 10244 91010
AAXX 13064 68514 32/// /2807 10177 20086 39638 48494 52012 333 20169 91011 555 10369 91011
AAXX 13064 68523 36/// /2312 10157 20065 39048 48456 53005 333 20125 91015 555 10327 91010
AAXX 13064 68527 36/// /0803 10247 21043 38999 48450 52003 333 20170 91005 555 10333 91008
AAXX 13064 68572 36/// /0000 10226 20088 38377 48483 52004 333 20081 91003 555 10283 91017
AAXX 13064 68575 16/// /0102 10186 20158 39059 48485 55000 60014 333 20154 91005 555 10239 20010 91013
AAXX 13064 68581 16/// /0903 10211 20187 39336 48491 58002 69944 333 20172 91006 555 10212 20004 91011
AAXX 13064 68583 36/// /0804 10256 20191 39986 40093 51001 333 20196 91007 555 10257 91009
AAXX 13064 68589 36/// /0604 10189 20083 38239 48496 53001 333 20080 91007 555 10286 91019
AAXX 13064 68613 36/// /2804 10156 20122 39995 40111 53011 333 20143 91010 555 10226 91011
AAXX 13064 68647 36/// /2505 10158 20108 38876 48472 56003 333 20129 91008 555 10270 91013
AAXX 13064 68651 36/// /3102 10217 20020 38524 48487 52006 333 20105 91005 555 10263 91016
AAXX 13064 68715 36/// /2804 10188 20145 39961 40087 52008 333 20144 91009 555 10294 91008
AAXX 13064 68717 36/// /2406 10175 20136 39948 40091 53006 333 20163 91010 555 10298 91009
AAXX 13064 68723 36/// /1602 10196 20096 39316 48451 52007 333 20177 91005 555 10311 91007
AAXX 13064 68737 32875 32604 10186 20097 39164 48441 58008 82570 333 20094 91006 555 10288 91007
AAXX 13064 68744 32780 53406 10178 20112 39041 48456 52003 80004 333 20111 91010 555 10284 91010
AAXX 13064 68747 36/// /3202 10199 20134 39545 48466 57010 333 20124 91003 555 10291 91007
AAXX 13064 68754 36/// /0109 10198 20128 39072 48464 58012 333 20135 91018 555 10271 91010
AAXX 13064 68817 NIL
AAXX 13064 68821 36/// /2917 10189 20122 39822 40058 52002 333 20156 91026 555 10298 91006
AAXX 13064 68835 36/// /2702 10172 20129 39963 40077 52007 333 20117 91005 555 10269 91007
AAXX 13064 68843 36/// /0809 10210 20133 39963 40060 57022 333 20113 91012 555 10250 91006
AAXX 13064 68849 36/// /0609 10196 20127 39334 48454 57013 333 20111 91013 555 10236 91007
AAXX 13064 68912 16/// /3506 10169 20149 30070 40079 52008 69924 333 20147 91009 555 10201 20002 91007
AAXX 13064 68918 36/// /2906 10196 20153 30051 40069 52006 333 20176 91010 555 10224 91007
AAXX 13064 68921 36/// /3204 10199 20169 30062 40065 53002 333 20156 91006 555 10239 91006
AAXX 13064 68925 36/// /2707 10171 20120 39709 40070 52008 333 20149 91011 555 10253 91007
AAXX 13064 68926 32500 60803 10179 20142 39883 40060 53002 86700 333 20151 91005 555 10262 91006
AAXX 13064 68935 16/// /2302 10190 20149 39992 40055 58006 69924 333 20137 91004 555 10238 20002 91005
AAXX 13064 60650 36/// /0211 10154 21016 333 20139
AAXX 13061 47003 42980 80000 11014 21047 30264 40268 57020 8802/
AAXX 13061 47005 42680 71801 11069 21182 38609 57023 83502
AAXX 13061 47022 42775 81101 11020 21105 38864 57018 85032
AAXX 13061 47028 42967 80000 10014 21073 30170 40267 57021 8801/
AAXX 13061 47031 42570 50000 11064 21100 38955 57033 85500
AAXX 13061 47037 42970 60000 10026 21153 30158 40282 57022 86030
AAXX 13061 47039 42560 80000 10017 21107 30078 40272 57020 85501
AAXX 13061 47046 42569 80000 10063 21048 30235 40258 57023 83502
AAXX 13061 47050 42565 60000 10012 21067 30244 40279 57011 86500
AAXX 13061 47052 42965 72903 10028 21053 39933 40277 57031 80007
AAXX 13061 47060 42960 80000 10025 21053 30225 40284 57012 80002
AAXX 13061 47061 42980 80000 10045 21040 30224 40268 57020 80003
AAXX 13061 47065 42965 70000 10038 21074 30232 40299 58005 80002
AAXX 13061 47067 41560 83204 10038 21063 30172 40293 57018 71022 85100
AAXX 13061 47068 42970 80000 10042 21104 30235 40270 57015 80002
AAXX 13061 47070 42970 52902 10049 21076 30189 40277 57018 80001
AAXX 13061 47075 42980 52001 10040 21107 39774 40204 57005 80001
AAXX 13064 60340 32965 02604 10062 20047 40273 58016 333 20061
AAXX 13061 47008 11560 80000 11010 21029 30217 40273 58014 60021 77102 8355/
AAXX 13061 47014 42950 70000 11081 21143 39846 40267 57035 80001
AAXX 13061 47016 42970 70000 11059 21193 39371 40272 57048 80001
AAXX 13061 47020 42565 60000 11022 21108 39883 40272 57043 85600
AAXX 13061 47025 42576 81401 10043 20015 30239 40268 57020 86502
AAXX 13061 47035 42965 82301 10014 21045 30267 40276 57016 8803/
AAXX 13061 47041 42970 70000 10051 21028 30233 40281 57030 80002
AAXX 13061 47055 42965 60000 10039 21045 30222 40268 57026 80001
AAXX 13061 47058 42961 82701 10022 21098 30237 40285 57014 80007
AAXX 13061 47069 42965 71802 10047 21034 30179 40280 57009 80002
BBXX BAREU62 13064 99366 10211 46/// ///// 40204 57005 22264
AAXX 13064 60679 36/// /3617 10077 21279 333 20054
AAXX 13063 67779 11460 71103 10212 20196 39046 48500 60154 70596 81572 333 20201 81615 87360
AAXX 13064 67779 11460 71103 10212 20196 39046 48500 60154 70596 81572 333 20201 58010 81615 87360
AAXX 13061 47090 32973 20000 10069 21030 30236 40258 57019 80001 333 92010
AAXX 13061 47095 32970 32505 10052 21118 30076 40267 55018 80001
AAXX 13061 47097 329// /0703 10058 21081 30164 40261 57026
AAXX 13061 47098 329// /2505 10063 21096 30128 40263 55017
AAXX 13061 47099 329// /2302 10053 21109 30235 40272 57014
AAXX 13061 47100 32970 42706 10037 21080 39325 40247 57026 80001
AAXX 13061 47102 32975 60201 10038 21067 30086 40267 57017 80001
AAXX 13061 47104 32973 20203 10067 21030 30156 40254 57018 80001
AAXX 13061 47106 329// /0202 10082 21003 30205 40254 57021
AAXX 13061 47112 32966 63404 10059 21112 30179 40264 57017 80001 333 92012
AAXX 13061 47114 32970 23203 10073 21096 30072 40255 57026 80001
AAXX 13061 47119 32970 52902 10077 21088 30218 40260 57022 83031
AAXX 13061 47121 329// /2701 10089 21050 39959 40250 57033
AAXX 13061 47127 329// /2301 10081 21080 30116 40257 57026
AAXX 13061 47129 32970 41802 10079 21120 30230 40266 57020 80001
AAXX 13061 47130 32670 20903 10091 20014 30191 40252 57026 82500 333 92022
AAXX 13061 47131 32970 62502 10083 21070 30186 40256 57025 84031
AAXX 13061 47135 329// /1403 10093 21092 39952 40248 57031
AAXX 13061 47136 32970 02502 10098 21053 30083 40254 57027
AAXX 13061 47137 329// /0503 10070 21078 30138 40257 57029
AAXX 13061 47140 32670 22705 10077 21029 30232 40261 57022 82030 333 92012
AAXX 13061 47143 32961 02702 10107 21045 30180 40258 57030
AAXX 13061 47145 32970 22705 10082 21075 30227 40253 57021 80001
AAXX 13061 47146 32965 02503 10091 21071 30190 40256 57021
AAXX 13061 47150 32970 62302 10067 21050 30242 40261 57019 85030
AAXX 13061 47152 32670 40502 10112 20022 30207 40249 55018 84500
AAXX 13061 47154 329// /0901 10095 21052 30195 40255 57032
AAXX 13061 47155 32970 01103 10115 21064 30201 40246 57026
AAXX 13061 47156 32965 02304 10112 21076 30164 40252 57025
AAXX 13061 47157 32973 01102 10102 21106 39967 40234 57034
AAXX 13061 47162 32970 02303 10118 21035 30207 40247 57021 333 92022
AAXX 13061 47169 32970 00207 10072 20022 30160 40255 57020 333 92033
AAXX 13061 47170 32970 00903 10108 21019 30206 40249 57023 333 92021
AAXX 13061 47171 329// /0204 10082 21071 30202 40257 57023
AAXX 13061 47172 329// /3604 10096 21071 30183 40249 57022
AAXX 13061 47173 329// /1602 10108 21061 30138 40248 57030
AAXX 13061 47174 32970 01804 10123 21113 30040 40238 57027
AAXX 13061 47175 32973 00902 10069 21039 39673 40245 55016 333 92021
AAXX 13061 47185 32962 03408 10119 20031 30155 40245 57019 333 92023
AAXX 13061 47188 32670 21103 10134 20028 30218 40239 57021 82500 333 92022
AAXX 13061 47189 32670 22303 10146 20018 30179 40238 57018 81500 333 92022
AAXX 13061 47192 32975 02702 10117 21141 30213 40250 57028
AAXX 13061 47101 32970 42702 10053 21097 30170 40267 57023 80001
AAXX 13061 47105 369// /0501 10086 21036 30222 40254 57019
AAXX 13061 47108 32968 32505 10070 21122 30156 40262 57019 80002
AAXX 13061 47115 32675 30902 10078 20000 39988 40260 55013 83500 333 92021
AAXX 13061 47133 32968 61801 10093 21102 30171 40255 57026 80009
AAXX 13061 47138 32570 40202 10117 20013 30250 40253 57021 84500 333 92021
AAXX 13061 47159 32970 02006 10137 20000 30161 40245 56019 333 92022
AAXX 13061 47165 32970 00206 10095 21034 30205 40252 57022 333 92013
AAXX 13061 47168 32972 00903 10101 21125 30166 40245 57022 333 92022
AAXX 13061 47184 32668 30206 10116 20047 30221 40246 57020 83500 333 92022
AAXX 13064 60680 12970 40904 10147 21068 38669 48544 53003 60004 80002 333 00100 20080 84073 95900
AAXX 13061 50548 11975 83602 11144 21185 40242 57014 69901 77000 8802/ 333 21250
AAXX 13061 50564 32970 70401 11150 21198 40252 57016 80002 333 21272
AAXX 13061 51334 32770 72201 11061 21084 40383 52009 82502 333 00701 21116
AAXX 13061 51818 32965 70000 10039 21075 40309 52001 80002 333 00207 21066
AAXX 13061 52378 32980 53203 11024 21124 40335 57002 80002 333 00351 21111
AAXX 13061 53487 32965 22906 10022 21140 40234 57019 80002 333 21105
AAXX 13061 53502 32980 03204 10017 21144 40298 57003 333 00103 21105
AAXX 13061 53923 32980 53201 10030 21075 40268 57011 82042 333 21063
AAXX 13061 54049 32970 72006 11010 21117 40183 57033 80002 333 21116
AAXX 13061 54115 32974 22508 11020 21144 40204 57008 80002 333 21147
AAXX 13061 54157 32766 82205 11007 21146 40214 57027 885// 333 21149
AAXX 13061 54186 32970 70901 11055 21148 40258 57030 80002 333 21212
AAXX 13061 54311 32565 72005 11011 21088 40219 57022 83502 333 21153
AAXX 13061 54346 32968 52003 10016 21141 40243 57021 80001 333 21109
AAXX 13061 54377 32975 80000 11022 21110 40275 57025 80007 333 21139
AAXX 13061 54386 32970 62202 11069 21174 40285 57036 80002 333 21214
AAXX 13061 54493 32674 72203 11007 21146 40280 57012 875// 333 21141
AAXX 13061 54587 NIL
AAXX 13061 54715 32966 02006 10080 21038 40233 57030 333 21022
AAXX 13061 54929 32665 21604 10091 20008 40249 57031 82100 333 21018
AAXX 13061 54945 32963 02002 10102 20018 40253 57026 333 20017
AAXX 13061 56065 32980 11401 11024 21180 36594 57017 80002 333 00052 21189
AAXX 13061 57193 32965 00000 10099 21048 40250 57025 333 21007
AAXX 13061 57290 32965 02201 10100 21017 40247 57025 333 21002
BBXX 46208 13061 99525 71327 46/// /3508 10063 40120 57014 22200 00076 11408 70038 333 91209
BBXX 46208 13061 99525 71327 46/// /3508 10063 40120 57014 22200 00076 11408 70038 333 91209
AAXX 13064 42559 32996 41402 10204 20074 40179 80002 333 58003 84075
AAXX 13064 42754 31996 40906 10216 20061 39530 40169 70522 80001 333 58002 84075
AAXX 13064 42867 31995 00904 10242 20075 40168 70500 333 58007
AAXX 13064 42933 32997 00902 10261 20100 40163 333 58005
AAXX 13064 42571 NIL
AAXX 13064 42667 NIL
AAXX 13064 42675 NIL
AAXX 13064 42779 NIL
AAXX 13064 42874 NIL
AAXX 13064 43041 NIL
AAXX 13064 68174 31565 40000 10223 20159 38772 48499 52008 70500 81582 333 20163 91003 555 10301 91016
AAXX 13064 68191 36/// /1503 10266 20191 39616 48533 53006 333 20218 91010 555 10385 91012
AAXX 13064 68242 32880 53507 10229 20132 38694 48477 53007 82074 333 20155 91012 555 10312 91014
AAXX 13064 68262 36/// /0703 10230 20141 38688 48498 53011 333 20192 91007 555 10302 91016
AAXX 13064 68263 32980 60406 10219 20131 38470 48495 53007 80002 333 20175 91009 555 10273 91018
AAXX 13064 68267 NIL
AAXX 13064 68289 36/// /0604 10214 20184 39139 48514 52010 333 20210 91006 555 10345 91015
AAXX 13064 68350 36/// /0504 10231 20100 38642 48495 53002 333 20110 91006 555 10332 91016
AAXX 13064 68368 12980 60511 10212 20128 38307 48497 51011 69904 80002 333 20157 555 10266 20000 91019
AAXX 13064 68403 36/// /2805 10176 20147 30111 40144 53005 333 20163 91007 555 10237 91014
AAXX 13064 68424 31860 22209 10218 20021 39133 48461 52007 70400 82082 333 20164 91014 555 10360 91009
AAXX 13064 68438 32882 20214 10241 20006 38763 48462 53005 82031 333 20115 91020 555 10302 91011
AAXX 13064 68442 NIL
AAXX 13064 68461 32980 41304 10179 20045 38306 48490 53008 80004 333 20053 91007 555 10263 91018
AAXX 13064 68512 32482 82508 10113 20081 38980 48466 53005 886// 333 20107 91013 555 10294 91013
AAXX 13064 68538 32882 10410 10254 21028 38651 48440 52008 81080 333 20144 91016 555 10297 91009
AAXX 13064 68587 36/// /0608 10244 20191 30070 40082 58002 333 20204 91013 555 10245 91008
AAXX 13064 68588 36/// /0207 10264 20173 30093 40109 57005 333 20208 91012 555 10264 91010
AAXX 13064 68591 16/// /0210 10249 20196 39917 40093 58000 69924 333 20212 91015 555 10251 20002 91010
AAXX 13064 68592 NIL
AAXX 13064 68618 32580 62610 10141 20081 38999 48460 53005 82606 333 20123 91013 555 10304 91011
AAXX 13064 68633 36/// /0310 10238 21060 38450 48443 52007 333 20107 91017 555 10278 91012
AAXX 13064 68668 32970 03203 10207 20146 39245 48478 57002 333 20164 91005 555 10265 91010
AAXX 13064 68714 36/// /2807 10182 20111 30053 40089 52012 333 20158 91013 555 10260 91009
AAXX 13064 68727 36/// /1104 10173 20105 39042 48429 51006 333 20138 91006 555 10286 91007
AAXX 13064 68752 36/// /0610 10224 20146 39389 48462 58008 333 20152 91015 555 10279 91007
AAXX 13064 68816 32470 63212 10174 20147 30025 40079 53010 83601 333 20146 91016 555 10248 91008
AAXX 13064 68828 12470 31009 10185 20156 39823 40052 56013 69924 81681 333 20120 555 10225 20002 91005
AAXX 13064 68842 32980 41005 10189 20141 39999 40069 56002 82088 333 20125 555 10235 91006
AAXX 13064 68858 NIL
AAXX 13064 68906 32598 73607 10110 20065 30188 40254 58012 8757/ 222// 00125 333 20095 91021 555 10149 91025
AAXX 13064 68994 32598 33211 10104 20060 30207 40236 57006 82501 222// 00066 307// 40201 333 20076 91017 555 10111 91023
AAXX 13064 89004 31750 71023 11130 21145 38768 49792 50000 73733 84038 333 21159 91027 555 11066
BBXX 46206 13061 99488 71260 46/// /1202 10064 40197 57007 22200 00084 11402 70010 333 91204
BBXX 46206 13061 99488 71260 46/// /1202 10064 40197 57007 22200 00084 11402 70010 333 91204
AAXX 13064 68267 NIL
AAXX 13064 68442 NIL
AAXX 13064 68592 NIL
AAXX 13064 68858 NIL
AAXX 13061 50658 11956 80904 11143 21160 40225 57026 69901 77070 8802/ 333 21229
AAXX 13061 50888 32980 42004 11048 21155 40249 57017 82042 333 21175
AAXX 13061 50983 32970 22202 11066 21148 40268 57017 82030 333 21206
AAXX 13061 51053 32980 70903 11097 21145 40384 52024 80002 333 00953 21115
AAXX 13061 51542 32870 80906 11085 21155 37597 57004 8801/ 333 00402 21200
AAXX 13061 52436 32980 02904 10004 21126 38522 40325 52001 333 00301 21141
AAXX 13061 52908 32980 02203 11069 21325 35724 57012 333 05201 21211
AAXX 13061 52996 32970 72902 11034 21094 37567 57008 80002 333 00101 21083
AAXX 13061 53083 32980 03606 11144 21169 40279 52004 333 05604 21230
AAXX 13061 53764 32962 01802 10029 21087 40272 57017 333 21071
AAXX 13061 53787 32965 02002 10035 21065 40245 57019 333 21091
AAXX 13061 54096 32970 72501 11058 21175 40266 57021 80002 333 21158
AAXX 13061 54226 32670 62205 10033 21069 40196 57021 82502 333 21128
AAXX 13061 54259 32668 80000 11039 21109 40243 57027 885// 333 21189
AAXX 13061 54527 31930 71802 10030 21015 40228 57030 71040 80002 333 21016
AAXX 13061 54534 32965 72203 10057 20005 40227 57026 80002 333 21026
AAXX 13061 26509 11570 62506 10059 20030 30056 40065 52014 60022 70162 86800 333 20009 31/// 86828 91011 91113 555 53013 7003/
BBXX 46205 13061 99542 71343 46/// /3305 10062 40135 57002 22200 00077 11410 70052 333 91206
BBXX 46132 13061 99497 71279 46/// /1407 10070 40180 57011 22200 00087 11405 70023 333 91210
BBXX 46132 13061 99497 71279 46/// /1407 10070 40180 57011 22200 00087 11405 70023 333 91210
BBXX 46205 13061 99542 71343 46/// /3305 10062 40135 57002 22200 00077 11410 70052 333 91206
AAXX 13061 45032 36/// /9902 10220 20045 30166 40183 57001
AAXX 13061 45035 36/// /2504 10198 20077 30141 40183 57001
AAXX 13061 45039 36/// /0103 10206 20078 30166 40181 57001
AAXX 13061 45044 36/// /1403 10215 20083 30089 40181 57001
AAXX 13061 45032 36/// /9902 10220 20045 30166 40183 57001
AAXX 13061 45035 36/// /2504 10198 20077 30141 40183 57001
AAXX 13061 45039 36/// /0103 10206 20078 30166 40181 57001
AAXX 13061 45044 36/// /1403 10215 20083 30089 40181 57001
AAXX 13064 88900 46/// /2116 10047 20032 39970 49972 56019
BBXX ZCBZ4 13063 99234 11265 41/98 80420 10210 20202 40198 57020 70322 86720 22244 20506 30404 40506 50303 80205
BBXX S6OM 13064 99256 11222 41397 80522 10200 20176 40227 57020 7//52 887// 22200 00220 20304 304// 40508 5//// 80185
AAXX 13064 42634 32996 10504 10234 20084 40169 80001 333 58003 81070
AAXX 13064 42647 32996 00706 10242 20096 40171 333 58001
AAXX 13064 42737 32996 30708 10256 20081 40160 80002 333 58003 83070
AAXX 13064 42840 32996 00503 10290 20132 40153 333 58001
AAXX 13064 42909 32997 30505 10292 20112 40159 80001 222// 20000 333 59003 83070
AAXX 13064 42921 32996 21404 10250 20115 40186 80001 333 58005 81075
AAXX 13064 43003 31995 50508 10290 20157 40133 70422 80001 333 58004 85075
AAXX 13064 43014 31996 21105 10262 20162 39506 40145 70141 80002 333 58007 82075
AAXX 13064 43063 32997 30000 10260 20148 39520 40139 80001 333 58005 83070
AAXX 13064 43110 31997 01606 10324 20182 40128 70544 333 58004
AAXX 13064 43117 32997 00902 10292 20150 40133 333 58006
AAXX 13064 43192 31996 50903 10314 20203 40125 70511 80002 333 58007
BBXX PENR 13063 99335 70506 41/98 41725 10210 20202 40265 55/// 703// 84070 22224 20202 80205
BBXX ZCDF4 13063 99074 70798 41598 80112 10252 20240 40127 53009 78082 888// 22253 00270 20201 315// 40802 5//// 80244
BBXX DFRZ 13063 99187 70542 41/97 /0922 10265 20245 40150 54000 76266 8//// 22254 00260 21004 80250
BBXX ZCDG4 13064 99114 70754 41398 83628 10270 20233 40094 57023 70292 887// 22254 00290 20201 306// 40602 5////
BBXX ZCEE2 13064 99126 70694 41498 20816 10270 20234 40140 57009 70200 82208 22263 00280 2//// 307// 40401 5//// 80245
BBXX ZCDY2 13064 99265 70787 41998 03215 10240 20207 40196 54000 70200 80000 22200 00270 20301 300// 4//// 5////
BBXX MGSM3 13064 99087 31513 41497 70508 10292 20250 40025 57015 70352 87600 22233 04300 20300 30202 40601 50601 80264
BBXX 62141 13063 99493 50590 41/98 /3215 10110 20110 40190 52013 700// 8//// 22200 20603 3//// 4//// 5//// 80110
BBXX VQHO7 13064 99034 50359 41498 20820 10260 20223 40097 56002 70200 82200 22274 00272 20202 3//// 4//// 5//// 80235
BBXX A8CF2 13061 99087 50804 41997 41506 10220 20183 40130 50010 70211 84059 22234 20301 80195
BBXX A8UL5 13063 99165 30636 41698 70812 10280 20232 40102 54000 70322 8441/ 22215 20302 3//// 4//// 5//// 80245
BBXX AMOUK15 13064 99114 50108 46/// ///// 10217 20184 30114 40145 57010 90550
BBXX AMOUK17 13064 99327 30573 46/// ///// 10178 20088 30205 40218 52008 90550
BBXX AMOUK20 13064 99037 50309 46/// ///// 10256 20221 30113 40122 54/// 90550
BBXX PGQI 13063 99263 70292 41597 30920 10227 20177 40245 58004 70200 82140 22254 20504 336// 41406 80194
BBXX ZSAF 13064 99479 30033 41598 81504 10053 20033 40187 56006 75055 885// 22253 04062 2//// 320// 40604 5////
AAXX 13064 68155 36/// /0703 10253 20188 39166 48504 52008 333 20212 91006 555 10344 91013
AAXX 13064 68171 NIL
AAXX 13064 68176 36/// /0802 10251 20171 39115 48509 52008 333 20172 91005 555 10339 91014
AAXX 13064 68181 NIL
AAXX 13064 68182 36/// /2002 10257 20192 39320 48522 52015 333 20199 91006 555 10338 91014
AAXX 13064 68185 16/// /2903 10221 20166 38477 48409 55000 69924 333 20162 91007 555 10300 20002 91007
AAXX 13064 68253 NIL
AAXX 13064 68255 36/// /0902 10243 20133 38836 48489 53012 333 20187 91005 555 10315 91014
AAXX 13064 68271 36/// /2903 10241 20183 38891 48500 52005 333 20195 91006 555 10327 91015
AAXX 13064 68273 36/// /0110 10216 20166 38448 48502 53005 333 20164 91013 555 10307 91018
AAXX 13064 68287 36/// /0502 10204 20166 38568 48504 52005 333 20157 91010 555 10284 91018
AAXX 13064 68291 36/// /1605 10262 20201 39511 48524 52007 333 20214 91009 555 10392 91012
AAXX 13064 68297 NIL
AAXX 13064 68329 36/// /2906 10258 20051 39040 48481 52012 333 20194 91012 555 10359 91011
AAXX 13064 68331 36/// /0106 10245 20074 38811 48500 52002 333 20139 91011 555 10328 91015
AAXX 13064 68335 36/// /3309 10229 20120 38887 48499 52013 333 20123 91013 555 10319 91015
AAXX 13064 68341 36/// /3408 10232 20120 38509 48494 53011 333 20135 91013 555 10307 91017
AAXX 13064 68342 NIL
AAXX 13064 68343 NIL
AAXX 13064 68349 36/// /3310 10252 20104 38483 48476 53007 333 20145 91014 555 10319 91015
AAXX 13064 68353 36/// /0310 10225 20084 38495 48473 52007 333 20127 91014 555 10292 91015
AAXX 13064 68355 36/// /0507 10221 20029 38553 48487 53008 333 20118 91010 555 10288 91016
AAXX 13064 68370 NIL
AAXX 13064 68377 36/// /1504 10202 20170 38746 48486 52007 333 20159 91006 555 10333 91015
AAXX 13064 68380 36/// /3005 10218 20152 3//// 4//// 5//// 333 20151 91009 555 10286
AAXX 13064 68387 36/// /0305 10230 20196 38838 48502 53006 333 20207 91011 555 10337 91016
AAXX 13064 68411 36/// /1503 10196 20098 39919 40126 53010 333 20192 91010 555 10380 91013
AAXX 13064 68429 NIL
AAXX 13064 68449 36/// /2302 10181 20070 38372 48484 53008 333 20075 91004 555 10271 91017
AAXX 13064 68471 36/// /0306 10167 20103 38308 48486 52006 333 20088 91008 555 10266 91017
AAXX 13064 68474 32980 00000 10206 20096 38606 48498 58001 333 20096 91002 555 10295 91017
AAXX 13064 68479 36/// /3004 10210 20160 38933 48499 52006 333 20167 91006 555 10333 91015
AAXX 13064 68481 36/// /0000 10237 20195 39754 40117 52003 333 20218 91004 555 10318 91013
AAXX 13064 68487 36/// /2504 10214 20166 38967 48493 52003 333 20160 91006 555 10236 91014
AAXX 13064 68491 36/// /2903 10255 20212 30094 40103 52003 333 20208 91007 555 10290 91010
AAXX 13064 68497 36/// /3402 10245 20198 30064 40107 56001 333 20214 91005 555 10251 91010
AAXX 13064 68183 12678 51807 10248 20192 39416 48519 52013 60024 82572 333 20207 91010 555 10316 20026 91013
AAXX 13064 68188 36/// /1502 10229 20189 39183 48516 52011 333 20193 91004 555 10328 91015
AAXX 13064 68268 36/// /0602 10258 20173 38868 48516 52010 333 20191 91005 555 10330 91017
AAXX 13064 68272 NIL
AAXX 13064 68296 12570 81703 10246 20193 39798 48526 52003 60114 885// 333 20215 91006 555 10420 20110 91010
AAXX 13064 68322 32982 02204 10240 20024 39099 48480 52011 333 20197 91006 555 10379 91011
AAXX 13064 68338 32878 53307 10242 20138 38734 48471 52003 83076 333 20104 91011 555 10308 91013
AAXX 13064 68345 NIL
AAXX 13064 68362 32980 50505 10220 20096 38487 48489 53001 81054 333 20067 91013 555 10302 91017
AAXX 13064 68400 36/// /1403 10265 20195 30030 40102 52005 333 20207 91005 555 10330 91010
AAXX 13064 68408 32/// /3003 10151 20139 30119 40127 52011 333 20128 91003 555 10188 91012
AAXX 13064 68416 32684 42407 10155 20073 38992 48461 52013 84500 333 20123 91010 555 10315 91011
AAXX 13064 68478 32589 50102 10205 20149 38855 48497 52006 85500 333 20157 91004 555 10324 91015
AAXX 13064 68488 16/// /0506 10173 20165 39247 48494 53002 69984 333 20165 91009 555 10263 20008 91013
AAXX 13064 68494 36/// /3003 10251 20191 39977 40105 58000 333 20209 91004 555 10254 91011
AAXX 13064 68524 32986 22406 10222 20019 38985 48445 52007 82080 333 20164 91010 555 10330 91008
AAXX 13064 68546 NIL
AAXX 13064 68558 36/// /0105 10210 21026 38160 48468 52002 333 20079 91011 555 10238 91016
AAXX 13064 68570 32970 00903 10192 20108 38487 48479 58000 333 20112 91005 555 10274 91016
AAXX 13064 68580 12956 13105 10205 20149 38920 48488 52002 69924 80001 333 20137 91007 555 10205 20002 91014
AAXX 13064 68614 32570 82706 10190 20132 30058 40099 52010 885// 333 20173 91013 555 10321 91009
AAXX 13064 68624 32882 62404 10207 20048 38673 48447 57002 86200 333 20142 91021 555 10287 91011
AAXX 13064 68674 36/// /0302 10250 20180 30048 48521 58005 333 20195 91007 555 10272 91007
AAXX 13064 68712 36/// /3107 10155 20126 30025 40090 52011 333 20139 91011 555 10200 91009
AAXX 13064 68718 32450 82506 10198 20131 39821 40064 52002 886// 333 20167 91010 555 10315 91006
AAXX 13064 68722 36/// /1902 10166 20003 38484 48442 52003 333 20104 91010 555 10255 91011
AAXX 13064 68814 36/// /3207 10198 20161 30082 40090 53007 333 20156 91009 555 10252 91009
AAXX 13064 68832 36/// /0706 10157 20075 39118 48439 58002 333 20114 91010 555 10264 91008
AAXX 13064 68916 36/// /2815 10160 20136 39812 40079 52007 333 20160 91020 555 10214 91008
AAXX 13064 68920 32470 83303 10199 20158 30054 40066 52003 885// 333 20172 91007 555 10232 91006
AAXX 13064 68928 16/// /3502 10189 20172 39907 40065 56005 69984 333 20164 91004 555 10237 20008 91006
AAXX 13061 30455 41698 80000 11237 21263 38918 48449 58010 71511 85932
AAXX 13061 30731 41599 83204 11092 21137 39704 40337 58001 70273 8357/
AAXX 13061 30739 41699 32704 11098 21157 39465 40312 58003 73631 81542
AAXX 13061 30741 41598 83106 11146 21166 38716 48500 52001 72271 82531
AAXX 13061 30745 42999 72102 11158 21177 39100 40310 58003 87010
AAXX 13061 30764 42999 00000 11205 21254 39441 40296 58016
AAXX 13061 30829 42999 23003 11096 21173 39657 40375 52001 81041
AAXX 13061 30838 41598 62605 11130 21165 39330 40361 52007 78587 86900
AAXX 13061 30846 42999 22804 11110 21172 39354 40295 58001 80009
AAXX 13061 30859 42999 03204 11137 21198 39403 40278 57002
AAXX 13061 30862 42998 02302 11195 21228 39494 40283 58008
AAXX 13061 30957 42999 23406 11105 21189 39353 40278 54000 82040
AAXX 13061 30975 42999 23401 11207 21240 39571 40265 58014 80001
BBXX 46092 13061 99368 71220 46/// /0706 10109 40101 90557 22200 00125 555 11067 22067
AAXX 13061 31825 41699 13205 11104 21214 39982 40198 53007 73630 81100 333 91012 91114
AAXX 13061 31845 42999 01802 11089 21190 30099 40269 57004
AAXX 13061 31878 42998 21801 11071 21164 30143 40271 56020 81032
AAXX 13061 31915 42999 89901 11034 21174 39983 40253 57024 80001
AAXX 13061 31921 42998 31404 11046 21155 30162 40263 56021 80004
AAXX 13061 31969 42598 61603 11024 21128 30220 40271 56021 8553/
AAXX 13061 31981 42999 12101 11043 21165 30026 40268 56022 80001
AAXX 13061 31987 42999 00702 11053 21179 30001 40268 57018
AAXX 13061 32069 41598 63108 11109 21162 30129 40134 52008 73631 86900 333 91010 91114
AAXX 13061 30499 42999 02503 11195 21228 39554 40254 54000
AAXX 13061 30683 42999 10000 11184 21225 39574 40263 57002 81040
AAXX 13061 30695 42999 03601 11210 21250 39903 40265 58010
AAXX 13061 31253 42999 02301 11239 21279 39734 40231 52006
AAXX 13061 31295 42999 02502 11142 21213 39756 40233 58003
AAXX 13061 31348 42999 03403 11148 21254 39948 40152 52007
AAXX 13061 31418 42999 02304 11146 21227 39887 40153 53005
AAXX 13061 31439 42999 02502 11171 21230 30086 40133 53011
AAXX 13061 31442 42999 02303 11147 21217 39856 40228 58010
AAXX 13061 31445 42999 02902 11132 21203 39962 40226 57009
AAXX 13061 31474 42999 02301 11230 21287 39727 40249 57009
AAXX 13061 31521 32999 22702 11153 21223 39933 40240 58012 80001
AAXX 13061 31527 42998 33401 11153 21223 39924 40243 57009 80001
AAXX 13061 31534 42999 00000 11185 21226 39880 40246 57010
AAXX 13061 31587 42998 80000 11168 21210 30092 40247 58015 80001
AAXX 13061 31632 NIL
AAXX 13061 31702 42998 22901 11133 21227 39895 40248 57011 80001
AAXX 13061 31713 42999 12503 11100 21197 30127 40229 58008 81040
AAXX 13061 31725 42998 22702 11109 21193 30158 40227 58013 82040
AAXX 13061 31801 42599 12302 11115 21211 30004 40241 57009 81100
AAXX 13064 83378 21368 73004 10196 20181 38931 48490 76062 85610 333 58001 69931
AAXX 13061 03967 11470 72311 10017 21002 39683 49796 53012 60032 78782 8793/ 333 20012 31100 55014 81712 81920 83626 85650 90710 91119
BBXX 46181 13061 99538 71288 46/// /0000 10002 40146 57011 22200 00023 10300 70000 333 912//
AAXX 13060 44214 32998 23501 11134 21221 38323 40416 52004 82014
AAXX 13064 68171 NIL
AAXX 13064 68181 NIL
AAXX 13064 68253 NIL
AAXX 13064 68297 NIL
AAXX 13064 68342 NIL
AAXX 13064 68343 NIL
AAXX 13064 68370 NIL
AAXX 13064 68429 NIL
AAXX 13064 89610 46/// /0411 11018 39606 4//// 5//// 333 90700 91113
BBXX 46184 13061 99539 71389 46/// /3005 10054 40148 54000 22200 00066 11409 70045 333 91207
AAXX 13060 44210 32999 30000 11181 21193 38590 51007 80001
AAXX 13060 44217 32698 60000 11129 21201 37870 40370 53015 83573
AAXX 13060 44263 32998 63201 11177 21236 38106 40474 57002 81043
BBXX 46184 13061 99539 71389 46/// /3005 10054 40148 54000 22200 00066 11409 70045 333 91207
AAXX 13064 91723 NIL
AAXX 13064 91759 11598 61803 10251 20228 40117 60001 83870 333 82820 83640 86462
AAXX 13064 91762 11598 81304 10247 20223 40117 53006 60221 71565 84827 333 84820 88464
AAXX 13061 24856 42999 80504 11285 21308 30074 40244 52010 85031
AAXX 13061 30679 NIL
AAXX 13061 30686 42999 01801 11249 21289 39879 40287 58012
AAXX 13061 30961 42999 13302 11174 21180 39451 40286 58002 80009
AAXX 13061 30971 42999 23301 11155 21206 39219 40249 58012 80002
AAXX 13061 30978 41999 20803 11186 21219 39531 40256 58008 70271 80002
AAXX 13061 31513 42999 02501 11133 21204 39995 40232 58014
AAXX 13061 31624 NIL
AAXX 13061 31832 42999 01202 11094 21170 30168 40258 57016
AAXX 13064 68345 NIL
AAXX 13064 43086 32997 00000 10262 20129 39980 40158 333 58007
AAXX 13064 43128 32597 30904 10264 20208 39544 40145 82501 333 58002 82620
AAXX 13064 43150 31596 20506 10292 20190 30079 40153 70500 82800 333 58006 82620
AAXX 13064 43185 31596 30903 10294 20196 30142 40145 70510 82501 333 58003 82620
AAXX 13064 43189 32997 10703 10292 20198 30141 40150 80001 333 58002
AAXX 13064 43198 32496 50910 10270 20161 39306 40118 83501 333 56209 58001 83615 83075
AAXX 13064 43201 32497 20905 10280 20165 39414 40123 82500 333 56200 58005 82615
AAXX 13064 43213 32597 29901 10286 20152 39826 40140 81430 333 56290 58006
AAXX 13064 43226 32497 10902 10316 20209 30096 40125 80001 333 58000
AAXX 13064 43233 32997 21105 10260 20159 39324 40125 80001 333 58000
AAXX 13064 43237 32597 20903 10274 20176 39750 40140 82500 333 56200 58010 82620
AAXX 13064 43245 32597 40504 10304 20201 30114 40141 83401 333 58003
AAXX 13064 43279 32597 60504 10286 20211 30122 40140 84530 333 58006 84620 85360
AAXX 13064 43284 32996 20910 10310 20187 39998 40112 80001 333 58000 82075
AAXX 13064 43295 32497 50504 10244 20144 39121 48534 82501 333 56199 58000 82615 83075
AAXX 13064 43311 32597 53604 10320 20264 40109 83501 333 59003 82620
AAXX 13064 43314 32997 22002 10320 20233 40117 80002 333 59006
AAXX 13064 43321 31496 30510 10280 20168 39690 40133 70510 82501 333 58000
AAXX 13064 43329 32597 60202 10290 20225 30117 40131 85401 333 58004
AAXX 13064 43344 31496 70510 10282 20229 30036 40135 70522 84431 333 58006 82615 83820 86358
AAXX 13064 43346 32597 60512 10298 20228 30115 40122 82531 333 58004 82620 85360
AAXX 13064 43353 32496 60906 10316 20198 40108 82531 333 56699 59008 82614 83359 85075
AAXX 13064 43369 32597 60903 10312 20253 40111 84430 333 56190 59006 83620 84360
AAXX 13064 43371 32597 50000 10324 20222 30031 40102 82402 333 59016 81620 85075
AAXX 13061 31913 43/// /1701 11065 21116 30140 40261 56020
AAXX 13061 32128 41597 73107 11071 21092 30117 40170 53007 78583 87300 333 91013 91114
BBXX 44061 13061 99388 70770 46/// /2701 1//// 90620 333 91202
BBXX 44061 13061 99388 70770 46/// /0000 1//// 40316 90610 333 91201
BBXX 44061 13061 99388 70770 46/// /2101 10014 40315 90600 22200 00055 333 91201
BBXX 44059 13061 99368 70763 46/// /0204 1//// 90620 333 91205
BBXX 44059 13061 99368 70763 46/// /0104 1//// 40297 90610 333 91205
BBXX 44059 13061 99368 70763 46/// /0104 10076 40297 90600 22200 00107 333 91205
BBXX 44057 13061 99395 70761 46/// /3404 1//// 90620 333 91204
BBXX 44057 13061 99395 70761 46/// /3503 1//// 40312 90610 333 91204
BBXX 44057 13061 99395 70761 46/// /3502 10007 40313 90600 22200 00058 333 91203
BBXX 44058 13061 99376 70763 46/// /3404 1//// 90620 333 91204
BBXX 44058 13061 99376 70763 46/// /3403 1//// 40304 90610 333 91204
BBXX 44058 13061 99376 70763 46/// /3303 10070 40305 90600 22200 00099 10301 70003 333 91204
BBXX 44039 13061 99411 70727 46/// /2806 10061 21004 40308 90553 22200 00103 10301 70004 333 91208
AAXX 13061 40001 32970 03601 10039 21003 40255 53011 333 20011 30///
AAXX 13061 40007 11915 62602 10039 20030 40271 52013 69922 71000 86030 333 20010 31/// 50064 86360
AAXX 13061 40025 32960 60603 10086 20041 40231 52004 80002 333 20066 30/// 86070
AAXX 13061 40045 32970 43403 10022 21008 40261 55000 84040 333 20001 30/// 84360
AAXX 13061 40061 32570 60000 10020 21008 40258 52008 81530 333 20010 30/// 50044 81630 85360
AAXX 13061 40080 32970 30000 10000 21044 39522 40259 52012 80001 333 21025 30/// 83070
AAXX 13061 40087 NIL
AAXX 13061 40095 NIL
AAXX 13063 67867 12980 70605 10236 20171 38566 48494 69904 81088 333 20167 81359 87280
AAXX 13063 67861 12980 60902 10216 20175 38710 48492 69924 82072 333 20182 82359 85080
AAXX 13064 67867 12980 70605 10236 20171 38566 48494 69904 81088 333 20167 58002 81359 87280
AAXX 13064 67861 12980 60902 10216 20175 38710 48492 69924 82072 333 20182 59005 82359 85080
AAXX 13064 67863 12980 61002 10250 20189 3//// 48/// 69904 82032 333 20186 5//// 82360 84080
BBXX 46004 13061 99509 71361 46/// /0211 10049 40123 57006 22200 00078 11507 70037 333 91214
BBXX /0P/// 13064 99496 11626 41/98 62922 11010 21071 49960 54000 70222 8/400 22224 00030 20605 81030
BBXX 0P/// 13064 99496 11626 41/98 62922 11010 21071 49960 54000 70222 8/400 22224 00030 20605 81030
BBXX A8UE4 13063 99423 11609 41/97 62940 10022 20003 40020 58025 76772 868// 22264 04110 20306 328// 40812 5//// 80015
BBXX WCX8812 13064 99469 11781 41498 42939 10020 21050 49922 54000 71571 842// 22234 00070 2//// 3//// 4//// 5//// 6//// 81005 ICE /////
BBXX WDE9586 13063 99350 11566 41598 53226 10150 20080 40135 53005 7//22 85200 22224 00210 20506 332// 40706 5//// 6//// 80110 ICE /////
AAXX 13061 56671 11780 71804 10131 20023 38206 57031 69901 70080 87400 333 05101 20001
AAXX 13061 57378 32962 02202 10110 21011 40255 57024 333 20011
AAXX 13061 57426 32561 70000 10099 20020 40241 57031 878// 333 05300 21006
AAXX 13061 57476 32962 01801 10127 20005 40249 57032 333 20018
AAXX 13061 57584 32965 02501 10130 21013 40250 57029 333 20057
AAXX 13061 57598 32965 02001 10152 21027 40242 57033 333 21007
AAXX 13061 57655 32962 83401 10110 21008 40247 57028 8807/ 333 20053
AAXX 13061 57713 NIL
AAXX 13061 57776 32670 80000 10052 21029 40246 57023 885// 333 21002
AAXX 13061 58321 31945 01802 10102 21046 40260 57026 70500 333 21020
AAXX 13061 58437 32980 02904 10036 21161 38174 57015 333 21020
AAXX 13061 58445 NIL
AAXX 13061 58556 31956 72001 10110 20013 40239 57035 70500 8704/ 333 21003
AAXX 13061 58569 32961 10403 10153 20058 40235 57025 81030 333 20047
AAXX 13061 58646 32962 62501 10137 21007 40232 57039 86040 333 20024
AAXX 13061 58653 NIL
AAXX 13061 58660 NIL
AAXX 13061 58715 32962 73403 10118 21014 40240 57032 8704/ 333 20048
AAXX 13061 58730 32775 71101 10155 20048 40227 57033 81540 333 20034
AAXX 13061 58731 32970 72701 10145 20030 40229 57034 8703/ 333 20038
AAXX 13061 58754 32962 71803 10155 20001 40222 57033 8703/ 333 20099
AAXX 13061 58911 32966 12901 10180 20049 40216 57035 81040 333 20023
AAXX 13061 58931 32980 21403 10146 20088 38382 57017 80002 333 20041
AAXX 13061 59254 32962 00901 10200 20005 40202 57040 333 20078
AAXX 13061 59632 32968 13603 10212 20025 40191 57039 80002 333 20105
AAXX 13061 59855 32576 73603 10226 20137 40170 57035 878// 333 20149
AAXX 13064 89514 32998 13002 11074 49797 57007 81005 333 81075
AAXX 13064 45011 47559 /0210 10186 20052 40190 57028 70011 333 59007
AAXX 13064 41265 36/// /1202 10222 20136 39651 40205 333 0E020 20122 58005
AAXX 13064 71971 16/// /0602 11259 21280 39993 40040 52009 60001 333 11213 21274 70000
AAXX 13064 71988 16/// /2007 10071 20033 30270 40290 58015 60001 333 10096 20039 70000 555 32426 40121
AAXX 13064 71283 16/// /2512 11009 21073 60001 333 10002 21139 7////
AAXX 13064 71673 16/// ///// 11096 21107 60001 333 11065 21116 7////
AAXX 13064 71690 16/// ///// 11014 21064 60001 333 10004 21198 7////
AAXX 13064 71461 16/// /2717 10000 21074 60001 333 10021 21104 7////
AAXX 13064 71468 16/// /0805 11053 21076 39979 40312 50004 60001 333 21053 70000
AAXX 13064 71483 16/// ///// 11086 21103 60001 333 11085 21169 7////
AAXX 13064 71500 16/// /1905 11048 21092 60001 333 11046 21120 7////
AAXX 13064 71504 16/// ///// 11062 21101 60001 333 11047 21138 7////
AAXX 13064 71511 16/// /1913 11060 21070 39580 40236 58018 60001 333 11060 21104 70000 555 31820 40061
AAXX 13064 71526 47/// /2206 11180 21194 6///1 7//4/ 333 11078 21188 7////
AAXX 13064 71541 16/// /2509 11019 21078 60001 333 10000 21107 7////
AAXX 13064 71543 16/// /2612 11016 21076 60001 333 7////
AAXX 13064 71546 16/// /2622 10006 21073 60001 333 10021 21110 7////
AAXX 13064 71547 16/// /2522 11017 21086 60001 333 10000 21132 7////
AAXX 13064 71888 16/// ///// 11102 21112 60001 333 11045 21108 7////
AAXX 13064 71895 16/// ///// 11084 21109 60001 333 11054 21154 7////
AAXX 13064 71405 16/// ///// 11086 21102 60001 333 11054 21115 7////
AAXX 13064 71417 16/// /2710 11098 21118 30239 40275 51009 60001 333 11047 21113 7//// 555 33037 40083
AAXX 13064 71426 46/// /2216 10012 6///1 333 10018 20001 7//// 555 32136 40073
AAXX 13064 71067 16/// ///// 11087 21114 60001 333 11055 21113 7////
AAXX 13064 71221 16/// /2517 11012 21075 60001 333 10008 21163 7////
AAXX 13064 71226 16/// /2608 10002 21074 60001 333 10018 21185 7////
AAXX 13064 71229 46/// /2511 11021 21085 6///1 333 10003 21138 7////
AAXX 13064 71010 16/// /1811 11099 21108 60001 333 11043 21099 7////
AAXX 13064 71011 16/// ///// 11117 21133 60001 333 11071 21122 7////
AAXX 13064 71359 16/// /1710 11087 21094 60001 333 11047 21106 70000 555 31817 40031
AAXX 13064 71788 16/// /1511 11088 21102 60001 333 11048 21112 7////
AAXX 13064 71792 16/// ///// 11104 21115 60001 333 11053 21127 7////
AAXX 13064 71555 16/// /3002 11063 21190 38570 40164 55003 60001 333 11044 21111 70008
BBXX 44060 13061 99413 70721 46/// ///04 10041 40299 90630 22200 00092 333 91206 555 11046 22046
AAXX 13064 71461 16/// /2717 10000 21074 60001 333 10021 21104 7////
AAXX 13064 71468 16/// /0805 11053 21076 39979 40312 50004 60001 333 21053 70000
AAXX 13064 71483 16/// ///// 11086 21103 60001 333 11085 21169 7////
AAXX 13064 71788 16/// /1511 11088 21102 60001 333 11048 21112 7////
AAXX 13064 71792 16/// ///// 11104 21115 60001 333 11053 21127 7////
AAXX 13064 71283 16/// /2512 11009 21073 60001 333 10002 21139 7////
AAXX 13064 71888 16/// ///// 11102 21112 60001 333 11045 21108 7////
AAXX 13064 71895 16/// ///// 11084 21109 60001 333 11054 21154 7////
AAXX 13064 71673 16/// ///// 11096 21107 60001 333 11065 21116 7////
AAXX 13064 71690 16/// ///// 11014 21064 60001 333 10004 21198 7////
AAXX 13064 71067 16/// ///// 11087 21114 60001 333 11055 21113 7////
AAXX 13064 71500 16/// /1905 11048 21092 60001 333 11046 21120 7////
AAXX 13064 71504 16/// ///// 11062 21101 60001 333 11047 21138 7////
AAXX 13064 71511 16/// /1913 11060 21070 39580 40236 58018 60001 333 11060 21104 70000 555 31820 40061
AAXX 13064 71526 47/// /2206 11180 21194 6///1 7//4/ 333 11078 21188 7////
AAXX 13064 71541 16/// /2509 11019 21078 60001 333 10000 21107 7////
AAXX 13064 71543 16/// /2612 11016 21076 60001 333 7////
AAXX 13064 71546 16/// /2622 10006 21073 60001 333 10021 21110 7////
AAXX 13064 71547 16/// /2522 11017 21086 60001 333 10000 21132 7////
AAXX 13064 71221 16/// /2517 11012 21075 60001 333 10008 21163 7////
AAXX 13064 71226 16/// /2608 10002 21074 60001 333 10018 21185 7////
AAXX 13064 71229 46/// /2511 11021 21085 6///1 333 10003 21138 7////
AAXX 13064 71359 16/// /1710 11087 21094 60001 333 11047 21106 70000 555 31817 40031
AAXX 13064 71971 16/// /0602 11259 21280 39993 40040 52009 60001 333 11213 21274 70000
AAXX 13064 71988 16/// /2007 10071 20033 30270 40290 58015 60001 333 10096 20039 70000 555 32426 40121
AAXX 13064 71405 16/// ///// 11086 21102 60001 333 11054 21115 7////
AAXX 13064 71417 16/// /2710 11098 21118 30239 40275 51009 60001 333 11047 21113 7//// 555 33037 40083
AAXX 13064 71426 46/// /2216 10012 6///1 333 10018 20001 7//// 555 32136 40073
AAXX 13064 71010 16/// /1811 11099 21108 60001 333 11043 21099 7////
AAXX 13064 71011 16/// ///// 11117 21133 60001 333 11071 21122 7////
AAXX 13064 71555 16/// /3002 11063 21190 38570 40164 55003 60001 333 11044 21111 70008
BBXX 46232 13061 99325 71174 46/// ///// 1//// 90608 22200 00145 11403 20401 323// 41402 70013
BBXX 46247 13061 99378 71228 46/// ///// 1//// 90621 22200 00114 11104 21003 330// 41103 70022
BBXX 46246 13061 99500 71451 46/// ///// 1//// 90629 22200 00075 11307 21005 327// 41305 70036
BBXX 46246 13061 99500 71451 46/// ///// 1//// 90559 22200 00075 11207 21004 326// 41205 70035
AAXX 13061 56144 32980 02002 10038 21139 36838 57048 333 05200 21099
AAXX 13061 56152 32980 20000 11003 21132 36288 57025 80002 333 05204 21213
AAXX 13061 56167 32980 02201 10059 21103 37064 57052 333 05251 21097
AAXX 13061 56182 32980 02001 10062 21119 37154 57049 333 05201 21108
AAXX 13061 56357 32980 00000 10044 21139 36418 57037 333 05200 21131
AAXX 13061 56586 32665 31801 10106 20029 38034 57040 83100 333 05306 20001
AAXX 13061 56748 32580 62704 10146 20018 38362 57019 86400 333 00051 20039
AAXX 13061 56763 32680 72901 10159 20082 40160 57035 874// 333 05153 20055
AAXX 13061 56768 32680 72203 10115 20072 38187 57025 879// 333 05100 20060
AAXX 13061 56838 31668 62702 10176 20092 40175 57030 70040 86500 333 00052 20078
AAXX 13061 56886 11665 72003 10115 20087 38299 57032 69971 70080 874// 333 05101 20044
AAXX 13061 56946 32680 70201 10187 20103 40163 57024 874// 333 00052 20085
AAXX 13061 56959 32770 72501 10213 20154 40153 57030 871// 333 05203 20154
AAXX 13061 56969 31580 60901 10199 20129 40175 57028 70040 86800 333 05102 20117
AAXX 13061 57731 32765 80000 10115 20028 40234 57028 885// 333 05201 20078
AAXX 13061 57766 32762 70000 10110 21008 40246 57035 875// 333 20057
AAXX 13061 57845 32962 70202 10118 20014 40233 57031 8704/ 333 20063
AAXX 13061 57853 32962 60201 10114 21017 40247 57031 86040 333 20061
AAXX 13061 57916 11668 73201 10144 20065 40214 57035 69921 70060 875// 333 05201 20084
AAXX 13061 57922 11665 80902 10086 20040 40224 57032 69901 76060 885// 333 05152 20052
AAXX 13061 57932 32672 71401 10131 20048 40229 57035 8754/ 333 05151 20080
AAXX 13061 58338 32962 03602 10104 21044 40243 57030 333 20000
AAXX 13061 59007 32668 73601 10135 20054 40188 57032 875// 333 20073
AAXX 13061 59046 32970 70202 10166 20015 40211 57038 8703/ 333 20090
AAXX 13061 59058 32975 23403 10183 21015 40203 57047 82040 333 20048
AAXX 13061 59072 32963 63603 10163 21018 40215 57044 86040 333 20038
AAXX 13061 59087 32970 20703 10190 21032 40198 57042 80002 333 20087
AAXX 13061 59209 32580 20701 10179 20052 40194 57043 82800 333 20045
BBXX 46146 13061 99493 71237 46/// /0200 10038 40205 57003 22200 00060 10300 70001 333 91201
BBXX 46146 13061 99493 71237 46/// /0200 10038 40205 57003 22200 00060 10300 70001 333 91201
AAXX 13064 87803 32980 00000 10138 20034 39265 40162 52003
BBXX 41010 13061 99289 70785 46/// /0608 10226 40232 90620 22200 00241 10905 20603 300// 40904 70025 333 91210 555 11084 22088
BBXX 44062 13061 99386 70764 46/// /3202 1//// 90620 22200 00086 333 91202
BBXX 44062 13061 99386 70764 46/// /3202 1//// 40295 90610 22200 00089 333 91202
BBXX 44062 13061 99386 70764 46/// /3302 10054 40296 90600 22200 00089 1//00 70001 333 91202
BBXX 44063 13061 99390 70764 46/// /0000 1//// 90620 333 91200
BBXX 44063 13061 99390 70764 46/// /0000 1//// 40321 90610 333 91200
BBXX 44063 13061 99390 70764 46/// /0000 10026 40322 90600 22200 00075 1//00 70000 333 91201
BBXX 44041 13061 99372 70768 46/// /0303 1//// 90620 333 91203
BBXX 44041 13061 99372 70768 46/// /0203 1//// 40331 90610 333 91203
BBXX 44041 13061 99372 70768 46/// /0102 10065 40331 90600 22200 00099 1//00 70000 333 91203
BBXX 44042 13061 99380 70763 46/// /3502 1//// 90620 333 91203
BBXX 44042 13061 99380 70763 46/// /3502 1//// 40311 90610 333 91203
BBXX 44042 13061 99380 70763 46/// /3502 10064 40311 90600 22200 00087 1//00 70000 333 91202
BBXX 44043 13061 99392 70764 46/// /3102 1//// 90620 333 91202
BBXX 44043 13061 99392 70764 46/// /3202 1//// 40309 90610 333 91203
BBXX 44043 13061 99392 70764 46/// /3202 10044 40310 90600 22200 00073 1//00 70000 333 91203
BBXX 41009 13061 99285 70802 46/// /0609 10236 20188 40233 90620 22200 00253 10906 20605 300// 40903 70028 333 91211 555 11100 22105
BBXX 42362 13061 99278 70907 46/// /0809 10211 20150 40254 90630
BBXX 42364 13061 99291 70881 46/// /0805 10183 20144 40268 90630
BBXX 42361 13061 99276 70925 46/// ///11 10222 20167 40240 54000 90630 555 11092 22098
BBXX 41115 13061 99184 70673 46/// ///// 1//// 90605 22200 11002 21001 303// 41101 70008
BBXX 42099 13061 99273 70842 46/// ///// 1//// 90627 22200 00236 10603 20603 70015
BBXX 41113 13061 99284 70805 46/// ///// 1//// 90621 22200 00222 10903 20903 309// 41101 70016
BBXX 41112 13061 99307 70813 46/// ///// 1//// 90621 22200 00163 10704 20704 312// 41101 70019
BBXX 42013 13061 99272 70829 46/// ///// 1//// 40229 90540 22200 00200
AAXX 13064 67002 32580 32604 10294 20234 30095 40128 82802 333 58012 82823 83073 92408
AAXX 13064 67009 32582 71404 10310 20223 30003 40121 51006 81902 333 02300 10330 20240 50474 55040 81820 81920 87075 94976 95816
AAXX 13064 67012 11482 70000 10250 20234 30118 40129 52011 61264 70292 878// 333 0//63 10312 20240 50184 55/// 84817 85633 = RR = 126.2MM 67025 12582 21806 10313 20206 30016 40115 52008 82100 333 0//00 10312 20227 50354 55/// 82820
AAXX 13064 67027 32582 41410 10310 20245 30098 40119 51008 82232 333 02100 10321 20250 50344 55100 82820 555 82360 82073
AAXX 13064 67045 NIL
AAXX 13064 67072 12481 52808 10279 20234 30136 40139 51015 69934 84202 333 02109 10291 20238 50234 55/// 84817 92428 555 82075
AAXX 13064 67073 32582 5//// 10324 20230 30090 40116 51002 83903 333 0//00 10323 20262 50//4 55/// 83820 81920 94967 95837 555 81640 82073
AAXX 13064 67083 32575 70000 10220 202179 38758 48533 51013 878// 333 0400 20168 50394 55108 86820
AAXX 13064 67095 32482 51204 10297 20221 30124 40130 52011 85802 333 02100 10322 20220 50364 55/// 85817
AAXX 13064 67113 NIL
AAXX 13064 67117 NIL
AAXX 13064 67137 11270 80000 10202 20182 38904 48509 51003 60114 71562 888// 333 0//13 10304 20171 50414 55/// 81707 83817 87620 = RR=11.0MM 67143 11575 6//// 10/// 20/// 30119 40126 51003 69964 70262 86830 333 0//14 10/// 20/// 50//4 55/// 81820 86633 92437
AAXX 13064 67152 12982 1//// 10262 20225 39201 48517 51003 60104 81030 333 01929 10228 20208 50534 55/// 83060
AAXX 13064 67157 12580 6//// 10/// 20/// 30143 40150 52009 60024 86800 333 0//16 10/// 20/// 50//4 55/// 83820 85640 = RR=2.2MM 67161 NIL
AAXX 13064 67197 32582 31204 10289 20233 30100 40110 51009 81202 333 01600 10331 20244 50574 55077 81820 83073
AAXX 13061 40009 NIL
AAXX 13061 40016 32970 02902 10005 21009 40283 53009 333 20000 31/// 55083
AAXX 13061 40022 32965 20000 10092 20050 40225 53006 80002 222// 20000 333 20074 30/// 82070
AAXX 13061 40030 32570 30000 10041 20021 40255 52010 83500 333 20030 31/// 50024 55064 83830
AAXX 13061 40039 32970 20000 10020 20010 40256 51014 82050 333 20005 30/// 55064 70000 82360
AAXX 13061 40066 32570 20602 10102 21013 40226 53013 82400 333 20098 30/// 82626
AAXX 13061 40072 32970 00000 10034 21020 40273 53008 333 20000 30///
AAXX 13061 40083 32970 00000 10032 21044 48530 52007 333 20015 30///
BBXX A8OY9 13064 99141 10540 043997 60224 10244 20178 40170 53007 80002 22224 00263 20504 30703 41306 5 0802 80198
BBXX A8OZ4 13064 99366 70009 43598 42324 10170 20140 40230 56020 7//// 84/// 22264 00170 2//// 3//// 4/ /// 5//// 80130
BBXX 44258 13061 99445 70634 46/// /2403 10066 40301 57010 22200 00069 10502 70010 333 91204
AAXX 13060 67796 12680 51309 10306 20222 40029 69934 82130 333 20234 5//// 55/// 58006 70003 82830 84360 555 10371 7//98
BBXX 44258 13061 99445 70634 46/// /2403 10066 40301 57010 22200 00069 10502 70010 333 91204
BBXX 44022 13061 99409 70737 46/// ///04 10037 21059 40302 90630 22200 00090 333 91205 555 11041 22041
AAXX 13064 16158 12560 21204 10050 20041 30155 40163 52011 60022 82100 333 20046 32/// 55008 2//// 82825
BBXX 44140 13061 99429 70515 46/// /2605 10122 40347 52002 22200 00094 10905 70024 333 91208
AAXX 13064 96009 32458 70604 10292 20223 30063 40098 57013 60011 70262 83922 333 56000 57903 81917 82617 84460 80965
AAXX 13064 96011 32460 80902 10283 20235 30080 40106 57013 84572 333 56000 84619
AAXX 13064 96035 31456 82604 10280 20236 30079 40116 57019 71422 85978 333 56000 57902 81917 84618 80940
AAXX 13064 96073 32460 70000 10318 20231 30070 40082 57024 83922 333 56000 57902 81917 80960 82820 80860
AAXX 13064 96091 01459 70208 10292 20241 30085 40108 57012 60061 72162 84271 333 56000 57802 60067 84817 86460 80860
AAXX 13064 96109 32460 70304 10308 20225 30047 40086 57016 85231 333 56000 57801 85815 80840
AAXX 13064 96145 31440 73509 10282 20235 30102 40105 58009 70522 85870 333 56800 57882 82616 83817 80857
AAXX 13064 96147 31457 63615 10290 20244 30101 40107 56020 70522 84231 333 56800 57805 82814 80857
AAXX 13064 96163 32560 42506 10313 20233 30089 40091 57010 81221 333 56000 57802 82820 80850
AAXX 13064 96179 01459 70205 10250 20238 30069 40106 57007 60011 76162 83228 333 56800 57882 60017 83817 86460 80850
AAXX 13064 96195 32462 73305 10277 20231 30061 40098 58019 84271 333 56000 57802 84814 86460
AAXX 13064 96221 32460 73205 10301 20233 30075 40090 57018 85266 333 56999 57893 85815 80857
AAXX 13064 96237 32459 83002 10284 20229 30053 40095 57013 83278 333 56000 57802 83815 84360 85280 80858
AAXX 13064 96249 01460 73006 10286 20249 30026 40087 57020 60051 72162 84932 333 56700 57971 57871 60027 81917 83820 80981
AAXX 13064 96253 32562 72606 10313 20233 30050 40070 57015 83332 333 56000 57900 57800 81915 81820 86080
AAXX 13064 96295 32460 70000 10314 20224 39984 40087 51019 83221 333 56000 57800 83815 80800
AAXX 13064 96509 32459 82705 10291 20246 30077 40088 57019 84171 333 56000 84815 86460
AAXX 13064 96581 32460 70000 10316 20266 30083 40091 57019 86231 333 56600 57862 86812 80860
AAXX 13064 96633 32460 83106 10309 20249 30067 40075 57007 8557/ 333 56709 85618 87460
AAXX 13064 96645 31456 72604 10302 20271 30052 40084 57022 71522 85372 333 56000 57902 57802 82912 84812 80982 80857
AAXX 13064 96655 01458 83405 10267 20246 30075 40109 57019 69921 71562 86572 333 56000 69927 86613
AAXX 13064 96685 11460 63205 10287 20238 30065 40091 57024 60371 70162 85511 333 56000 85616
AAXX 13064 96749 32560 73412 10310 20234 30066 40079 56020 84921 333 56000 57962 81920 83821 86461 80980 80850
AAXX 13064 96781 31450 83012 10256 20194 39269 48732 57016 71799 85931 333 56000 57901 81915 83618 80982
AAXX 13064 96805 01560 62004 10306 20228 30085 40094 56014 60021 70262 83271 333 56000 57801 83820 80860
AAXX 13064 96839 32558 70110 10308 20239 30069 40076 56018 84932 333 56000 57901 82920 83821 80981
AAXX 13064 96935 31558 70505 10303 20249 30069 40075 58022 70392 83912 333 56000 57902 57802 81920 82820 85080 80973 80858
AAXX 13064 97008 01456 73105 10264 20247 30067 40077 56009 60021 72162 86232 333 56800 57881 60027 86817 80860
AAXX 13064 97016 01462 70505 10319 20232 30075 40077 57010 60051 70562 84972 333 56000 57901 57801 60057 81918 83820 80980 80860
AAXX 13064 97126 32459 42102 10324 20247 30004 40065 57030 83211 333 56000 57802 83817 80860
AAXX 13064 97142 NIL
AAXX 13064 97182 32568 72808 10315 20260 30070 40074 57013 82271 333 56000 57801 82820 85360 80874
AAXX 13064 97240 01458 72608 10310 20254 39954 40068 56021 72162 84231 333 56000 57801 69907 84816 80860
AAXX 13064 97284 01410 80204 10222 20204 38853 40091 57010 60111 79596 87971 333 56000 57901 57801 60117 82910 86812 80959
AAXX 13064 97310 32568 11805 10324 20247 30052 40064 57021 81101 333 56000 81820
AAXX 13064 97320 31464 72308 10301 20252 30045 40058 57018 71421 85971 333 56000 57901 57801 82918 83819 84460 80958 80850
AAXX 13064 97378 32570 52808 10314 20251 39907 40070 56029 83101 333 56600 83820
AAXX 13064 97380 32464 42908 10337 20240 30045 40065 57017 82231 333 56000 57802 82819 80840
AAXX 13064 97406 32460 60705 10312 20237 30040 40066 57016 84231 333 56200 57821 84818 80860
AAXX 13064 97570 32460 62406 10308 20242 30050 40057 57029 81132 333 56000 81815 83362
AAXX 13064 97630 31365 62012 10302 20244 39898 40058 57014 71522 85943 333 56000 57901 81912 85813 80978
AAXX 13064 97682 32465 33405 10318 20262 30043 40050 57029 83903 333 56000 57803 81916 83815 80960
AAXX 13064 97698 32470 50309 10316 20241 30044 40051 57027 84902 333 56000 57902 57801 82916 82817 84079 80960 80876
AAXX 13064 97700 32462 50207 10312 20255 30033 40047 58014 82232 333 56000 57804 82817 80850
AAXX 13064 97722 32562 51404 10312 20246 30044 40059 56008 84202 333 56600 57861 84820 80856
AAXX 13064 97780 NIL
AAXX 13064 97790 32565 32807 10314 20243 30019 40039 57018 82102 333 56600 57862 82823 80858
BBXX A8OZ4 13064 99366 70009 43598 42324 10170 20140 40230 56020 7//// 84/// 22264 00170 2//// 3//// 4//// 5//// 80130
BBXX A8OY9 13064 99141 10540 043997 60224 10244 20178 40170 53007 80002 22224 00263 20504 30703 41306 50802 80198
AAXX 13064 97014 01459 73005 10283 20241 39988 40081 57020 60011 72165 85271 333 56700 57872 69967 85817 80860
AAXX 13064 97028 01461 70903 10276 20233 30086 40092 51013 69901 76022 84521 333 56000 69907 84618 87459
AAXX 13064 97048 31460 53407 10299 20230 30041 40065 57021 71511 84932 333 56200 57921 57821 81918 83818 80980 80860
AAXX 13064 97072 NIL
AAXX 13064 97086 32561 31002 10320 20253 30047 40072 56019 82231 333 56000 57803 82820 80858
AAXX 13064 97096 NIL
AAXX 13064 97120 11461 72902 10299 20256 30040 40073 57018 69901 71562 83931 333 56000 57903 57802 81917 82818 86360 80981 80860
AAXX 13064 97146 31458 50505 10328 20255 39995 40055 57023 84211 333 56000 57801 83815 80859
AAXX 13064 97180 32458 73207 10312 20248 30062 40080 56015 83272 333 56000 83819 83360
AAXX 13064 97192 31465 52407 10316 20252 30027 40084 57020 71791 83921 333 56600 57962 81916 82616 80960
AAXX 13064 97230 31462 72607 10305 20249 30065 40072 57014 71792 84932 333 56000 57901 57801 82916 82817 80980 80859
AAXX 13064 97260 32468 53506 10313 20256 30059 40066 57012 82931 333 56000 57904 81918 80980 84080
AAXX 13064 97270 31457 73308 10256 20229 30059 40064 57016 71792 86971 333 56000 57901 82915 83815 80960
AAXX 13064 97300 32562 60205 10322 20239 30027 40068 57023 83236 333 56000 57803 83820 80856
AAXX 13064 97340 31570 60107 10316 20269 30048 40063 57019 71792 84902 333 56000 57900 81920 84620 80980
AAXX 13064 97372 32460 73008 10304 20265 39945 40065 57013 85971 333 56000 57901 81917 84817 80980
AAXX 13064 97430 32560 33008 10316 20245 30039 40068 57022 83231 333 56700 57872 83820 80860
AAXX 13064 97460 NIL
AAXX 13064 97502 32460 43000 10312 20241 30049 40053 57018 84931 333 56000 57901 82910 82810 80960
AAXX 13064 97530 NIL
AAXX 13064 97560 32460 70000 10301 20245 30039 40054 57025 83847 333 56000 57803 82818 85361 87279 80860
AAXX 13064 97580 32462 60000 10298 20252 30065 40072 56011 82238 333 56000 57803 82814 80850
AAXX 13064 97600 32560 52703 10332 20243 30052 40057 58022 84831 333 56600 57863 83820 84360 80860
AAXX 13064 97686 31462 71602 10278 20128 38306 40038 57028 71722 85945 333 56000 57903 81920 84815 86361 80959
AAXX 13064 97690 32465 52811 10330 20250 39930 40032 57029 82832 333 56000 57801 82816 80858
AAXX 13064 97724 32460 63105 10321 20241 30041 40057 57019 83232 333 56700 57872 82816 80850
AAXX 13064 97748 31462 62806 10324 20247 30057 40058 54000 71722 83932 333 56600 57962 81915 82816 84075 80940 80850
AAXX 13064 97760 32464 53006 10338 20240 30043 40052 57019 82202 333 56000 57801 82816 80860
AAXX 13064 97796 32460 61808 10330 20257 30010 40061 57020 84532 333 56000 84814 86362
AAXX 13064 97810 32464 73214 10310 20245 30038 40047 57010 84232 333 56700 57871 84819 80850
AAXX 13064 97876 32460 51303 10340 20230 30039 40068 56032 84231 333 56000 57801 84811 80857
AAXX 13064 97900 32468 72906 10292 20266 30028 40057 56013 84970 333 56600 57961 83917 86460 80975
AAXX 13064 97980 32460 52109 10314 20239 30033 40040 57018 82242 333 56000 82817
AAXX 13064 96001 31557 81210 10274 20254 39969 40117 56005 70522 84222 333 56200 57822 84820 80860
AAXX 13064 96015 32462 61504 10298 20249 30090 40097 57005 84272 333 56000 57802 84813 80860
AAXX 13064 96033 31456 70000 10276 20235 30099 40104 52001 71522 83928 333 56000 57903 81920 83617 80980
AAXX 13064 96075 32462 40809 10316 20245 30081 40087 57015 83911 333 56000 57901 81915 82816 80965 80856
AAXX 13064 96087 32460 70616 10301 20232 30064 40097 56015 84278 333 56100 57811 84815 84360 86180 80858
AAXX 13064 96171 32458 70000 10296 20241 30066 40090 57019 85222 333 56000 57801 85815 80856
AAXX 13064 96207 32457 60000 10266 20183 39236 40158 57003 82972 333 56000 57900 81915 83080
AAXX 13064 96505 NIL
AAXX 13064 96525 11457 81605 10307 20248 30080 40088 57020 69901 71562 83226 333 56600 81815 85460
AAXX 13064 96529 01460 70000 10274 20254 30082 40107 57013 60071 72162 84121 333 56000 60077 84818
AAXX 13064 96535 11458 81002 10264 20252 30086 40107 58016 60081 76162 84221 333 56000 57803 60057 84814 86362 80864
AAXX 13064 96557 32460 73207 10310 20238 30038 40088 57022 84921 333 56600 57961 57861 82912 82813 87460 80980 80857
AAXX 13064 96559 32458 60203 10314 20236 30064 40101 57035 84231 333 56600 57862 84812 80858
AAXX 13064 96565 31357 70405 10300 20248 30057 40109 57022 70522 84231 333 56000 57802 84810 85357 80850
AAXX 13064 96595 01358 80303 10280 20248 30048 40100 57026 69951 71462 8657/ 333 56009 69937 86609
AAXX 13064 96607 01457 83503 10254 20233 30092 40107 57016 60121 76062 8692/ 333 56009 57910 69907 81915 85612 88458 809//
AAXX 13064 96615 31460 73006 10296 20238 30086 40100 57014 70292 86931 333 56700 57901 57872 82915 84812 80960 80856
AAXX 13064 96695 32158 71805 10297 20245 30071 40076 58021 83121 333 56000 57804 83616 84460 80816
AAXX 13064 96737 31458 72508 10330 20234 30038 40069 58015 70522 84221 333 56000 57801 84816 83460 80860
AAXX 13064 96739 32460 10324 20241 30078 40077 57027 84322 333 56000 57904 81918 83820 80980
AAXX 13064 96741 32560 83405 10314 20243 30071 40075 57014 8357/ 333 56009 83621 85460
AAXX 13064 96745 32559 70204 10320 20243 30076 40080 57018 84821 333 56600 57861 81820 83622 87460 80825
AAXX 13064 96751 01558 80000 10229 20211 39028 48920 57008 60061 72162 86211 333 56200 57821 60067 86820 80880
AAXX 13064 96791 NIL
AAXX 13064 96797 32562 63105 10310 20238 30072 40078 57019 83231 333 56000 57802 83820 80860
AAXX 13064 96837 32560 63406 10302 20247 30074 40077 57020 83972 333 56000 57900 81922 82822
AAXX 13064 96925 32465 72704 10301 20251 30077 40082 57013 84232 333 56600 57860 84817 80860
AAXX 13064 96933 01460 80703 10294 20251 30070 40074 57020 60031 72196 82821 333 56600 57862 69967 81818 81619 87460 80860
AAXX 13064 96937 01559 80305 10291 20253 30070 40075 57020 69981 70296 8411/ 333 56009 69987 84820 88460
AAXX 13064 96973 32462 53012 10320 20268 30068 40074 57016 85931 333 56800 57981 81919 80976 84820 80850
AAXX 13064 96987 31458 70706 10322 20254 30015 40074 57012 71422 85931 333 56000 57901 82918 84618 80980
AAXX 13061 38954 32999 00000 11004 21112 37972 48460 57011 333 21070
BBXX 44140 13061 99429 70515 46/// /2605 10122 40347 52002 22200 00094 10905 70024 333 91208
BBXX 46036 13061 99484 71339 46/// /2010 10090 40125 57012 22200 00085 11406 70028 333 91211
BBXX 46036 13061 99484 71339 46/// /2010 10090 40125 57012 22200 00085 11406 70028 333 91211
AAXX 13061 01212 16/// /1406 10059 20001 39772 49787 57027 69914 333 20046 70001 91118
AAXX 13064 63705 31559 83606 10205 20175 38865 48519 70542 83906 333 20182 58007 83622 81925 88270 555 10184
AAXX 13064 42398 31995 01803 10196 20136 40177 70500 333 58001
AAXX 13064 42706 31495 43601 10230 20146 40164 70520 81530 333 59002 81618 83360
AAXX 13064 42724 31995 23201 10236 20149 40146 70542 82030 333 58001 82360
AAXX 13064 88900 46/// /2116 10047 20032 39970 49972 56019
BBXX 62303 13064 99516 70051 46/// /2729 10086 20031 49850 52014 22200 00118 10710 70052 333 90710 91143
BBXX 62105 13064 99554 70122 46/// /2541 10068 20046 49594 58020 22200 00108 11328 70141 333 90710 91160
BBXX AMOUK08 13064 99501 70061 46/// ///// 10096 20029 39905 49913 52017 90550
BBXX PJGO 13064 99571 10022 47298 /2416 10058 20044 49691 56037 700// 22200
BBXX 63106 13064 99610 10017 46/// /1434 10065 49674 57072 22200
BBXX 63105 13064 99610 10017 47496 ///// 10063 20035 49680 57067 761// 22200
BBXX 62094 13064 99517 70067 46/// /2632 10080 20027 49852 53011 22200 00113 10710 70052 333 90710 91145
BBXX 62305 13064 99504 10000 46/95 /2639 10113 20084 49903 53004 22200 10808 70038 333 90710 91159
BBXX VREX7 13063 99380 70330 41297 80116 10160 20143 40300 50020 76066 8/80/ 22264 21405 32323 41204 50804 80150
AAXX 13061 20046 11997 83402 11074 21083 39972 40004 52007 69930 77172 8807/ 333 21080
AAXX 13061 20069 41477 72003 11020 21026 39970 49983 56002 70273 875// 333 87610
AAXX 13061 20087 41897 81707 11061 21069 30035 40045 56003 77173 8802/
AAXX 13061 20292 41494 72007 11150 21163 30123 40143 57014 73673 875// 333 91112 96110
AAXX 13061 20353 NIL
AAXX 13061 20667 41998 81805 11039 21047 30083 40090 54001 70232 8802/
AAXX 13061 20674 41496 72009 11101 21107 30069 40130 53001 73873 875// 333 87618 91113
AAXX 13061 20744 11498 71606 11005 21020 30001 40019 52005 69940 70283 86531 333 21013 86619
AAXX 13061 20891 41998 61606 11195 21221 30217 40263 57012 73631 84031 333 91107
AAXX 13061 23022 11496 82009 11082 21096 30047 40109 52005 69900 78583 889// 333 21089 91113
AAXX 13061 23032 11597 82107 11069 21106 30106 40137 52077 69900 73632 885// 333 21077 88624
AAXX 13061 23058 31998 22008 11135 21162 30210 40215 57004 73631 82030 333 21151
AAXX 13061 23242 31996 72110 11140 21160 30210 40227 52003 73831 87030 333 21150
AAXX 13061 23256 32998 62108 11142 21162 30239 40276 52005 86030 333 21148 91012 91113
AAXX 13061 23330 32998 82301 11212 21223 30214 40237 52006 83035 333 21247 93544
AAXX 13061 23445 32997 81606 11130 21150 30265 40292 54000 80007 333 21147
AAXX 13061 23552 11997 81903 11175 21194 30321 40358 52006 69900 70272 80007 333 21173
AAXX 13061 23631 32999 82103 11196 21222 30226 40271 52010 80001 333 21185
AAXX 13061 23662 32999 72002 11136 21163 30352 40400 52009 83031 333 21121
AAXX 13061 23724 32999 61602 11191 21210 30191 40261 52014 80001 333 21207
AAXX 13061 23734 11997 81202 11185 21211 30203 40302 52003 69900 77172 8807/
AAXX 13061 23849 41156 60000 11188 21211 40384 52003 71022 86600 333 86703
AAXX 13061 23867 11999 40000 11243 21261 30353 40434 52007 69900 70271 80005 333 21257
AAXX 13061 23933 12997 81603 11206 21224 30282 40344 52007 69900 80007 333 21201
AAXX 13061 28064 32999 81402 11214 21233 30224 40326 52009 80005 333 21209
AAXX 13061 28275 32598 21102 11206 21225 30274 40340 53002 82500 333 21221
AAXX 13061 28493 32998 00701 11211 21229 30253 40355 54000 333 21250
AAXX 13061 28698 11965 10102 11191 21210 30170 40338 57002 69920 77677 80001 333 21193
AAXX 13064 78318 12565 20408 10244 20213 30187 40191 58006 60001 82800 333 10284 20192 31/// 56900 58015 81820
AAXX 13064 78325 01530 40503 10230 20210 30135 40193 55004 60031 72580 84200 333 10267 20212 31/// 56900 58016 69987 70036 84820
AAXX 13064 78333 12910 10202 10211 20202 30172 40179 57010 60001 80002 333 10294 20199 30/// 56000 58009 81070
AAXX 13064 78348 11456 30603 10233 20218 30126 40178 58007 60001 70511 82842 333 10270 20225 30/// 56299 57883 58009 70017 81819 555 10702
AAXX 13064 78349 12440 73301 10219 20214 30071 40180 58004 60001 878// 333 10279 20185 30/// 56199 58010 82819 87626 555 10502
AAXX 13064 78353 12560 20601 10238 20225 30156 40178 58011 60001 82800 333 10278 20235 31/// 56900 58010 81820
AAXX 13064 78360 12/60 10104 10230 20210 30142 40153 56010 60001 81200 333 10308 20218 31/// 56900 58007 818// 92033
AAXX 13061 23426 32989 52204 11193 21219 30218 40244 52014 80001 333 21246
AAXX 13061 23625 32999 21303 11201 21220 30218 40255 52012 80001 333 21200
AAXX 13061 28076 32997 21301 11215 21227 30256 40336 58003 80001 333 21219
AAXX 13061 28367 11996 71301 11194 21213 30170 40311 57001 77171 87070 333 21218
AAXX 13061 28382 12984 30000 11230 21249 30284 40364 58002 69900 83040 333 21233
AAXX 13061 28481 11996 81101 11185 21197 30243 40352 52001 69900 77172 85027 333 21211
AAXX 13061 28491 31959 00000 11235 21253 30236 40359 57003 70411 333 21260
AAXX 13061 28573 11996 81001 11222 21240 30227 40343 58002 69900 77172 8801/ 333 21220
AAXX 13061 28593 32998 10000 11225 21243 30237 40345 57005 81030 333 21259
AAXX 13061 28786 31998 80000 11196 21208 30174 40347 52002 70272 80002 333 21247
AAXX 13061 28797 31996 50000 11179 21191 30159 40330 57005 77174 85010 333 21229
AAXX 13061 28799 11497 80302 11188 21207 30165 40322 57006 69920 77172 8802/ 333 21203 88510
AAXX 13064 63708 32580 31205 10234 20156 48496 81930 333 20184 58001 81924 83358
AAXX 13064 63714 32480 00000 10174 20124 48505 81200 333 20108 58002 81818
AAXX 13064 63740 32580 60406 10192 20148 48519 862// 333 20168 58002 86820
AAXX 13064 63772 12580 20505 10300 20244 69904 82500 333 20231 82620
AAXX 13064 63612 NIL
AAXX 13064 63661 NIL
AAXX 13064 63671 NIL
AAXX 13064 63688 NIL
AAXX 13064 63695 NIL
AAXX 13064 63723 NIL
AAXX 13064 63793 NIL
AAXX 13064 63820 NIL
BBXX 46236 13061 99368 71219 46/// ///// 1//// 90620 22200 00126 11204 21003 330// 41203 70022
BBXX 46225 13061 99329 71174 46/// ///// 1//// 90614 22200 00157 11402 20401 323// 41402 70011
BBXX 46213 13061 99403 71247 46/// ///// 1//// 90624 22200 00097 11007 21005 332// 41104 70034
BBXX 46215 13061 99352 71209 46/// ///// 1//// 90608 22200 00149 11204 21002 328// 41203 70020
BBXX 46219 13061 99332 71199 46/// ///// 1//// 90628 22200 00138 11205 20903 330// 41204 70026
BBXX 46214 13061 99379 71235 46/// ///// 1//// 90627 22200 00114 11306 21004 330// 41305 70032
BBXX 51202 13061 99214 71577 46/// ///// 1//// 90609 22200 00245 11105 21004 308// 41102 70024
AAXX 13063 63612 32980 00905 10272 20202 40127 333 20211 59002
AAXX 13063 63661 32580 10000 10188 20127 48532 81100 333 20100 58001 81820
AAXX 13063 63671 32580 30000 10268 20216 60024 83200 333 20210 83822
AAXX 13063 63695 32480 70702 10186 20155 8253/ 333 20118 82816 86359
AAXX 13063 63723 12582 70000 10270 20234 40116 69904 872// 333 20233 58005 87825
AAXX 13063 63793 32480 63606 10255 20211 40103 86100 333 20222 58010 86818
BBXX 46238 13061 99334 71195 46/// ///// 1//// 90620 22200 00151 11404 21002 328// 41403 70019
BBXX 46239 13061 99363 71221 46/// ///// 1//// 90621 22200 00130 11305 21003 330// 41304 70026
BBXX WDC6055 13064 99475 70881 41/98 80112 10010 2//// 40266 5//// 70352 8//// 22223 00030 2//02 3//// 4//// 5//// 6//// 8//// ICE /////
BBXX WC5932 13064 99417 70874 43/// /2212 00/// 10054 21028 40301 57001 7//// 8//// 22200 0//// 2//00 3//// 4//// 5//// 6//// 80022 ICE /////
BBXX V7NV4 13064 99178 71036 41798 73316 10260 20246 40135 54000 71121 86132 22263 00290 20202 33232 40202 50102 6//// 80250 ICE /////
BBXX WAZV 13064 99506 71317 41396 82113 10085 20085 40120 57015 78064 88/// 22233 00080 20704 327// 41007 5//// 6//// 80085 ICE /////
BBXX 9V7645 13063 99263 70741 419// 60221 10235 20221 40165 50015 70322 8623/ 22284 04280 2//// 3//// 4//// 5//// 6//// 80225 ICE /////
AAXX 13064 78762 11665 81006 10196 20177 39091 40106 57012 60041 76166 8257/ 333 10241 20195 32/// 5600/ 59012 82635 86460
AAXX 13064 63705 31559 83606 10205 20175 38865 48519 70542 83906 333 20182 58007 83622 81925 88270 555 10184
BBXX A8OY9 13064 99141 10540 043997 60224 10244 20178 40170 53007 80002 22224 00263 20504 30703 41306 50802 80198
BBXX A8OY9 13064 99141 10540 043997 60224 10244 20178 40170 53007 80002 22224 00263 20504 30703 41306 5 0802 80198
BBXX AMOUK17 13064 99327 30573 46/// ///// 10178 20088 30205 40218 52008 90550
BBXX A8UL5 13063 99165 30636 41698 70812 10280 20232 40102 54000 70322 8441/ 22215 20302 3//// 4//// 5//// 80245
BBXX AMOUK15 13064 99114 50108 46/// ///// 10217 20184 30114 40145 57010 90550
BBXX AMOUK20 13064 99037 50309 46/// ///// 10256 20221 30113 40122 54/// 90550
BBXX ZSAF 13064 99479 30033 41598 81504 10053 20033 40187 56006 75055 885// 22253 04062 2//// 320// 40604 5////
BBXX PGQI 13063 99263 70292 41597 30920 10227 20177 40245 58004 70200 82140 22254 20504 336// 41406 80194
BBXX 62141 13063 99493 50590 41/98 /3215 10110 20110 40190 52013 700// 8//// 22200 20603 3//// 4//// 5//// 80110
BBXX VQHO7 13064 99034 50359 41498 20820 10260 20223 40097 56002 70200 82200 22274 00272 20202 3//// 4//// 5//// 80235
BBXX A8CF2 13061 99087 50804 41997 41506 10220 20183 40130 50010 70211 84059 22234 20301 80195
BBXX WCX8882 13064 99447 11518 41497 72945 11030 2//// 40100 52040 77272 876// 22254 00040 2//// 328// 40714 5//// 6//// ICE /////
BBXX UGWJ 13061 99059 11074 42598 83608 10288 40126 54000 8712/ 22252 00260 20503 30300 40805
BBXX UINM 13061 99448 11387 42698 13015 11030 40219 56015 81100 22213 00047 20503 32900 40705
BBXX UFMK 13061 99452 11371 42598 33310 11065 40106 54000 22223 00040 20402
BBXX S6OM 13064 99256 11222 41397 80522 10200 20176 40227 57020 7//52 887// 22200 00220 20304 304// 40508 5//// 80185
BBXX ZCBZ4 13063 99234 11265 41/98 80420 10210 20202 40198 57020 70322 86720 22244 20506 30404 40506 50303 80205
BBXX 46036 13061 99484 71339 46/// /2010 10090 40125 57012 22200 00085 11406 70028 333 91211
BBXX 44140 13061 99429 70515 46/// /2605 10122 40347 52002 22200 00094 10905 70024 333 91208
BBXX 44022 13061 99409 70737 46/// ///04 10037 21059 40302 90630 22200 00090 333 91205 555 11041 22041
BBXX WAZV 13064 99506 71317 41396 82113 10085 20085 40120 57015 78064 88/// 22233 00080 20704 327// 41007 5//// 6//// 80085 ICE /////
BBXX KGTZ 13064 99504 71320 41396 82119 10089 2006/ 40108 57020 75352 886// 22234 00100 2//// 3//// 4//// 5//// 6//// 80078 ICE /////
BBXX 9V7645 13063 99263 70741 419// 60221 10235 20221 40165 50015 70322 8623/ 22284 04280 2//// 3//// 4//// 5//// 6//// 80225 ICE /////
BBXX 44258 13061 99445 70634 46/// /2403 10066 40301 57010 22200 00069 10502 70010 333 91204
BBXX 41112 13061 99307 70813 46/// ///// 1//// 90621 22200 00163 10704 20704 312// 41101 70019
BBXX 41113 13061 99284 70805 46/// ///// 1//// 90621 22200 00222 10903 20903 309// 41101 70016
BBXX 42099 13061 99273 70842 46/// ///// 1//// 90627 22200 00236 10603 20603 70015
BBXX 41115 13061 99184 70673 46/// ///// 1//// 90605 22200 11002 21001 303// 41101 70008
BBXX 42364 13061 99291 70881 46/// /0805 10183 20144 40268 90630
BBXX 42362 13061 99278 70907 46/// /0809 10211 20150 40254 90630
BBXX 42361 13061 99276 70925 46/// ///11 10222 20167 40240 54000 90630 555 11092 22098
BBXX 44042 13061 99380 70763 46/// /3502 1//// 90620 333 91203
BBXX 44042 13061 99380 70763 46/// /3502 10064 40311 90600 22200 00087 1//00 70000 333 91202
BBXX 44042 13061 99380 70763 46/// /3502 1//// 40311 90610 333 91203
BBXX 41009 13061 99285 70802 46/// /0609 10236 20188 40233 90620 22200 00253 10906 20605 300// 40903 70028 333 91211 555 11100 22105
BBXX 44043 13061 99392 70764 46/// /3202 1//// 40309 90610 333 91203
BBXX 44043 13061 99392 70764 46/// /3102 1//// 90620 333 91202
BBXX 44043 13061 99392 70764 46/// /3202 10044 40310 90600 22200 00073 1//00 70000 333 91203
BBXX 44041 13061 99372 70768 46/// /0102 10065 40331 90600 22200 00099 1//00 70000 333 91203
BBXX 44062 13061 99386 70764 46/// /3202 1//// 90620 22200 00086 333 91202
BBXX 44063 13061 99390 70764 46/// /0000 1//// 90620 333 91200
BBXX 44062 13061 99386 70764 46/// /3302 10054 40296 90600 22200 00089 1//00 70001 333 91202
BBXX 44063 13061 99390 70764 46/// /0000 1//// 40321 90610 333 91200
BBXX 41010 13061 99289 70785 46/// /0608 10226 40232 90620 22200 00241 10905 20603 300// 40904 70025 333 91210 555 11084 22088
BBXX 44041 13061 99372 70768 46/// /0203 1//// 40331 90610 333 91203
BBXX 44063 13061 99390 70764 46/// /0000 10026 40322 90600 22200 00075 1//00 70000 333 91201
BBXX 44062 13061 99386 70764 46/// /3202 1//// 40295 90610 22200 00089 333 91202
BBXX 44041 13061 99372 70768 46/// /0303 1//// 90620 333 91203
BBXX 42013 13061 99272 70829 46/// ///// 1//// 40229 90540 22200 00200
BBXX 46146 13061 99493 71237 46/// /0200 10038 40205 57003 22200 00060 10300 70001 333 91201
BBXX 46247 13061 99378 71228 46/// ///// 1//// 90621 22200 00114 11104 21003 330// 41103 70022
BBXX 46246 13061 99500 71451 46/// ///// 1//// 90629 22200 00075 11307 21005 327// 41305 70036
BBXX 46232 13061 99325 71174 46/// ///// 1//// 90608 22200 00145 11403 20401 323// 41402 70013
BBXX 46246 13061 99500 71451 46/// ///// 1//// 90559 22200 00075 11207 21004 326// 41205 70035
BBXX 44060 13061 99413 70721 46/// ///04 10041 40299 90630 22200 00092 333 91206 555 11046 22046
BBXX 46004 13061 99509 71361 46/// /0211 10049 40123 57006 22200 00078 11507 70037 333 91214
BBXX 44059 13061 99368 70763 46/// /0204 1//// 90620 333 91205
BBXX 44039 13061 99411 70727 46/// /2806 10061 21004 40308 90553 22200 00103 10301 70004 333 91208
BBXX V7NV4 13064 99178 71036 41798 73316 10260 20246 40135 54000 71121 86132 22263 00290 20202 33232 40202 50102 6//// 80250 ICE /////
BBXX 44058 13061 99376 70763 46/// /3404 1//// 90620 333 91204
BBXX 44061 13061 99388 70770 46/// /2701 1//// 90620 333 91202
BBXX 44059 13061 99368 70763 46/// /0104 10076 40297 90600 22200 00107 333 91205
BBXX 44059 13061 99368 70763 46/// /0104 1//// 40297 90610 333 91205
BBXX 44057 13061 99395 70761 46/// /3502 10007 40313 90600 22200 00058 333 91203
BBXX 44057 13061 99395 70761 46/// /3503 1//// 40312 90610 333 91204
BBXX 44058 13061 99376 70763 46/// /3303 10070 40305 90600 22200 00099 10301 70003 333 91204
BBXX 44057 13061 99395 70761 46/// /3404 1//// 90620 333 91204
BBXX 44058 13061 99376 70763 46/// /3403 1//// 40304 90610 333 91204
BBXX 44061 13061 99388 70770 46/// /2101 10014 40315 90600 22200 00055 333 91201
BBXX 44061 13061 99388 70770 46/// /0000 1//// 40316 90610 333 91201
BBXX 46184 13061 99539 71389 46/// /3005 10054 40148 54000 22200 00066 11409 70045 333 91207
BBXX 46181 13061 99538 71288 46/// /0000 10002 40146 57011 22200 00023 10300 70000 333 912//
BBXX 46092 13061 99368 71220 46/// /0706 10109 40101 90557 22200 00125 555 11067 22067
BBXX ZCDG4 13064 99114 70754 41398 83628 10270 20233 40094 57023 70292 887// 22254 00290 20201 306// 40602 5////
BBXX ZCEE2 13064 99126 70694 41498 20816 10270 20234 40140 57009 70200 82208 22263 00280 2//// 307// 40401 5//// 80245
BBXX ZCDY2 13064 99265 70787 41998 03215 10240 20207 40196 54000 70200 80000 22200 00270 20301 300// 4//// 5////
BBXX DFRZ 13063 99187 70542 41/97 /0922 10265 20245 40150 54000 76266 8//// 22254 00260 21004 80250
BBXX PENR 13063 99335 70506 41/98 41725 10210 20202 40265 55/// 703// 84070 22224 20202 80205
BBXX 46132 13061 99497 71279 46/// /1407 10070 40180 57011 22200 00087 11405 70023 333 91210
BBXX 46205 13061 99542 71343 46/// /3305 10062 40135 57002 22200 00077 11410 70052 333 91206
BBXX 46206 13061 99488 71260 46/// /1202 10064 40197 57007 22200 00084 11402 70010 333 91204
BBXX 46208 13061 99525 71327 46/// /3508 10063 40120 57014 22200 00076 11408 70038 333 91209
BBXX 46185 13061 99524 71298 46/// /3204 10060 40116 57005 22200 00074 10807 70033 333 91206
BBXX C6KD9 13060 99269 70534 41497 21108 10242 20201 40190 57027 70100 82265 22254 02254 20903 312// 40804 5//// 80215
BBXX 46087 13061 99485 71247 46/// /0805 10052 21007 40194 90620 22200 00078 333 91206 555 11047 22048 30529 40906 60619 081045 074046 077048 076049 077051 080051
BBXX 41036 13061 99342 70770 46/// ///// 10137 20109 40279 90620 22200 00207
BBXX 44030 13061 99432 70704 46/// /2406 1//// 40271 58009 90604 22200 00085 10501 70007 333 91207 555 11074 22079
BBXX 44029 13061 99425 70706 46/30 /2307 10054 40277 58010 90604 22200 00090 10301 70007 333 91208 555 11081 22084
BBXX VQKR7 13064 99486 71225 41197 10000 10030 21012 40216 54000 70322 8/145 22200 00100 20000 80015
BBXX WC5932 13064 99417 70874 43/// /2212 00/// 10054 21028 40301 57001 7//// 8//// 22200 0//// 2//00 3//// 4//// 5//// 6//// 80022 ICE /////
BBXX WDC6055 13064 99475 70881 41/98 80112 10010 2//// 40266 5//// 70352 8//// 22223 00030 2//02 3//// 4//// 5//// 6//// 8//// ICE /////
BBXX A8OZ4 13064 99366 70009 43598 42324 10170 20140 40230 56020 7//// 84/// 22264 00170 2//// 3//// 4//// 5//// 80130
BBXX A8OZ4 13064 99366 70009 43598 42324 10170 20140 40230 56020 7//// 84/// 22264 00170 2//// 3//// 4/ /// 5//// 80130
BBXX BAREU62 13064 99366 10211 46/// ///// 40204 57005 22264
BBXX PDYI 13063 99361 70070 41/99 73110 10170 20119 40260 55000 70322 8//// 22263 20201 33200 41403 5//// 80140
BBXX WQVY 13064 99350 70192 41799 73513 10170 2012/ 40270 5//// 71522 87/3/ 22264 0//// 20802 335// 41708 5//// 6//// 80140 ICE /////
BBXX MGSM3 13064 99087 31513 41497 70508 10292 20250 40025 57015 70352 87600 22233 04300 20300 30202 40601 50601 80264
BBXX FHZI 13064 99429 31473 46/// /1615 10141 20042 30143 40154 54000 22200 85091
BBXX ZMKA 13063 99363 31753 41397 80518 10190 20174 40182 54000 75852 8577/ 22283 20301 30000 80180
BBXX SHIP 13064 99143 30863 41598 31218 10281 20206 40096 50004 70111 82130 22232 00282 10904 20302 312// 40605 85528
BBXX C6HS4 13063 99243 31045 41398 41415 10220 20198 40133 50/// 7//00 8216/ 22233 20805 80205
BBXX ZDLP 13063 99648 50640 41/95 93023 10006 20003 49718 53010 77374 89/// 22221 05005 20301 334// 40302 5//// 80005
AAXX 13064 78762 11665 81006 10196 20177 39091 40106 57012 60041 76166 8257/ 333 10241 20195 32/// 5600/ 59012 82635 86460
AAXX 13060 44214 32998 23501 11134 21221 38323 40416 52004 82014
AAXX 13060 44231 31996 20000 11192 21270 38823 40509 52005 70410 82040
AAXX 13060 44259 41997 73505 11128 21163 39321 40270 53009 70272 85072 333 91111
AAXX 13060 44277 32999 10501 11125 21197 37828 40413 52007 80004
AAXX 13060 44288 32699 33306 11139 21207 38205 40416 52004 82504
AAXX 13060 44292 41899 23205 11164 21214 38762 40396 51010 70171 82080
AAXX 13060 44304 31999 23608 11136 21197 39021 40314 52009 70232 82040
AAXX 13060 44354 32999 63407 11118 21153 39132 40304 52022 86030
AAXX 13060 44373 32999 22703 11142 21175 38593 40392 51010 80009
AAXX 13064 60191 32970 01402 10035 20025 40290 5//// 333 20030 30001
AAXX 13064 65563 31920 00000 10164 20161 39876 40119 71000 333 20164 58006
AAXX 13064 60101 32458 40902 10093 20082 40276 58003 84500 333 20081 84616
AAXX 13064 60115 12665 22208 10074 20057 40273 58009 60004 81202 333 20056 81833
AAXX 13064 60135 15450 31203 10085 20076 40268 58002 69904 83500 333 20079 55045 20999 83616
AAXX 13064 60230 15958 /1102 10060 20040 40271 58004 60004 333 20057 3////
AAXX 13064 60252 32960 00809 10086 20055 40246 58004 333 20059
AAXX 13064 78762 11665 81006 10196 20177 39091 40106 57012 60041 76166 8257/ 333 10241 20195 32/// 5600/ 59012 82635 86460
BBXX AUTQ 13064 99330 10268 42398 71156 10170 20138 40196 51024 87101 22264 00210
BBXX JPBN 13064 99304 11445 41/97 83609 10184 20103 40199 53003 78022 882// 22272 00221 10803 20301 331// 40802 70013
BBXX ONDE 13063 99361 11412 41897 20110 10095 21042 40220 54000 7//11 82/68 22200 00170 20303 301// 4//// 5//// 6//// 80040 ICE /////
BBXX SHIP 13064 99337 11420 41397 70423 10155 20112 40211 54000 70262 86460 22272 06210 20406 334// 40807 80130
BBXX SHIP 13064 99344 11398 41/98 60520 10134 40226 52016 70222 868// 9//// 22283 00199 20202 301// 40504 5////
BBXX UINM 13061 99448 11387 42698 13015 11030 40219 56015 81100 22213 00047 20503 32900 40705
AAXX 13064 91723 NIL
AAXX 13064 91964 36/// /3404 10208 20201 40202 52011
AAXX 13064 63932 12580 70000 10177 20159 38320 48497 60394 8397/ 333 0//67 20153 50361 55035 55300 58008 84821 81923 87358
AAXX 13064 63971 01580 40000 10265 20251 39990 40119 60264 71782 84900 333 0//12 20235 50591 55012 55303 58009 84822 81923
AAXX 13064 41295 36/// /3209 10200 20145 30010 40190 333 0E017 20142 58006
AAXX 13064 78958 11468 10704 10255 20240 30097 40107 69901 70661 81201 333 10295 20235 58000 81818
AAXX 13061 13492 NIL
AAXX 13061 13584 NIL
AAXX 13061 13585 42898 30502 10026 20020 39395 40202 57005 83070 333 20024 31101
AAXX 13061 13597 42697 80000 10083 20083 30125 40198 54000 885// 20076 30005
AAXX 13061 13598 42981 10000 11003 21006 48470 57005 81030 333 21004 32101
AAXX 13060 67485 32580 73602 10200 20173 875// 333 20188 55030 87620 555 10280 7//92
AAXX 13060 67493 11575 71601 10212 20209 60034 71796 8497/ 333 20214 70026 81920 83825 87459 555 10310 7//96
AAXX 13060 67584 32580 50801 10266 20199 83130 333 20185 83820 85360 555 10286 7//92
AAXX 13060 67690 12580 70000 10265 20238 60014 82937 333 20229 70010 81920 84360 87280 555 10279 7//96
AAXX 13060 67695 12580 63502 10270 20228 60194 81130 333 20214 70194 81825 86358 555 10284 7//96
AAXX 13060 67699 12580 72001 10280 20208 69904 81138 333 20193 79999 81825 87275 555 10304 7//98
AAXX 13064 41529 12997 00502 10167 20020 39838 40222 60001 333 58012
AAXX 13064 41598 11995 03102 10160 20028 39925 40201 60001 70400 333 58004
AAXX 13064 41620 32997 02705 10120 21162 38638 48539 333 58015
AAXX 13064 41624 02997 00000 10160 20028 30007 40211 60001 333 58020 60007
AAXX 13064 41640 01996 03102 10182 20044 39950 40202 60001 70500 333 58007 60007
AAXX 13064 41660 11996 33106 10080 21029 39495 48585 60001 70500 81031 333 56099 58025 81362
AAXX 13064 41675 11995 13604 10150 20069 30058 40202 60001 70400 80001 333 56009 58015 81070
AAXX 13064 41712 11996 40512 10115 21079 39276 48570 60001 70600 80001 333 56009 58028 84070
AAXX 13064 41715 01996 00904 10205 20093 30142 40208 60001 70500 333 58026 60007
AAXX 13064 41756 01996 00508 10240 21180 30112 40176 60001 70504 83032 333 56099 58014 60007 83358 83070
AAXX 13064 41764 32996 03610 10210 20100 30139 40189 60001 333 58026 60007
AAXX 13064 41768 02996 00502 10225 20097 30181 40188 60001 333 58006 60007
AAXX 13064 41780 02996 20502 10255 20064 30161 40188 60001 333 59021 60007
BBXX DQVJ 13060 99531 71704 41598 43313 11015 49875 52035 70277 843// 22263 00051 20505 3//// 4//// 5////
BBXX SHIP 13064 99331 71518 41/97 21708 10180 21655 40249 51011 70200 8//// 92355 22264 00190 2//// 3//// 4//// 5//// 80170
BBXX VREX8 13064 99366 71604 41496 82024 10190 20180 40190 56030 7//11 882// 22254 0//// 20006 320// 4//05 5//// 6//// 80180 ICE /////
BBXX WDB3161 13064 99523 71535 41698 41505 10060 20040 40140 57019 70211 8445/ 22274 00060 20201 326// 40805 5//// 6//// 80050 ICE /////
BBXX 44137 13061 99423 70620 46/// /1902 10095 40320 57015 22200 00132 11202 70012 333 91204
AAXX 13064 41529 12997 00502 10167 20020 39838 40222 60001 333 58012
AAXX 13064 41598 11995 03102 10160 20028 39925 40201 60001 70400 333 58004
AAXX 13064 41620 32997 02705 10120 21162 38638 48539 333 58015
AAXX 13064 41624 02997 00000 10160 20028 30007 40211 60001 333 58020 60007
AAXX 13064 41640 01996 03102 10182 20044 39950 40202 60001 70500 333 58007 60007
AAXX 13064 41660 11996 33106 10080 21029 39495 48585 60001 70500 81031 333 56099 58025 81362
AAXX 13064 41675 11995 13604 10150 20069 30058 40202 60001 70400 80001 333 56009 58015 81070
AAXX 13064 41712 11996 40512 10115 21079 39276 48570 60001 70600 80001 333 56009 58028 84070
AAXX 13064 41715 01996 00904 10205 20093 30142 40208 60001 70500 333 58026 60007
AAXX 13064 41756 01996 00508 10240 21180 30112 40176 60001 70504 83032 333 56099 58014 60007 83358 83070
AAXX 13064 41764 32996 03610 10210 20100 30139 40189 60001 333 58026 60007
AAXX 13064 41768 02996 00502 10225 20097 30181 40188 60001 333 58006 60007
AAXX 13064 41780 02996 20502 10255 20064 30161 40188 60001 333 59021 60007
AAXX 13064 78958 11468 10704 10255 20240 30097 40107 69901 70661 81201 333 10295 20235 58000 81818
AAXX 13064 41515 02997 00000 10074 21117 38606 48566 60001 333 58044 60007
AAXX 13064 41560 NIL
AAXX 13064 41571 11994 00000 10140 20022 39618 40211 60001 70500 333 58006
AAXX 13064 41594 31995 23104 10180 20029 39986 40205 70500 80001 333 56009 58010
AAXX 13064 41685 32997 33104 10155 21060 38955 48536 83020 333 56090 58020 83460
AAXX 13064 41710 02997 43102 10155 21086 39442 40222 60001 80001 333 56009 58031 60007 84070
AAXX 13064 41718 11995 20502 10165 20063 30105 40215 60001 70400 80001 333 56009 58027 82072
AAXX 13064 41739 02997 20506 10140 21028 39106 48555 60001 82030 333 56090 58021 60007 82360
AAXX 13064 41744 32996 02702 10180 21017 38803 48530 333 58010
AAXX 13064 41749 01995 03105 10190 20108 30164 40197 60001 70400 333 58027 60007
BBXX BATFR19 13064 99007 30088 46/// /1311 10250 20235 40114 53005 22200 00274
BBXX ZCBH7 13064 99038 31096 41597 30515 10302 20291 40129 58021 70322 8/272 22233 04301 20201 305// 40201 5//// 80294
BBXX A8RL3 13061 99069 30828 41392 29902 10290 40100 52020 70200 821// 22213 00290 2//00 3//// 4//02 5////
BBXX PJHA 13064 99076 30111 41697 41813 10243 20242 40124 54000 7//// 8246/ 22213 06248 21003 31717 40903 51003 80242
BBXX BATFR56 13064 99078 30758 44598 21904 10282 20242 40102 58006 70000 82163 22253 00297 20804 318// 40804 5////
BBXX BATFR55 13064 99125 30505 44598 41716 10275 20234 40121 70311 83141 22232 00280 208// 30000 412// 512//
BBXX C6OM7 13063 99190 30051 41398 81416 10185 20138 40162 53005 70222 86550 22273 00170 20704 31400 40903 50000 80158
BBXX A8ZS7 13064 99190 30618 41/98 30413 10290 20228 40125 50000 70300 83100 22254 04250 29901 80245
BBXX A8VL8 13064 99209 30637 41297 30712 10240 20211 40140 54000 7//00 831// 22213 00250 202// 3//// 402// 5//// 6//// 80220 ICE /////
BBXX MCCN6 13064 99260 31095 41498 31722 10225 20182 40117 58010 70300 8/200 22233 00222 20403 318// 41407 5//// 80198
BBXX MGGK4 13063 99301 30148 41598 72910 10175 20111 40120 53010 70311 82278 22274 00180 20101 318// 40604 5//// 80140
BBXX ONAR 13063 99304 30855 41598 30709 10260 2019/ 40200 54000 7//00 826// 22263 00210 21204 321// 4//// 5//// 6//// 80210 ICE /////
BBXX ONCE 13064 99307 30073 41398 81928 10160 2009/ 40150 5//// 70222 8877/ 22234 00180 20109 312// 40511 5//// 6//// 80120 ICE /////
BBXX A8YW2 13064 99337 30293 41998 00705 10230 20165 40090 54000 70200 80000 22224 00200 20301 80190
BBXX DBBT 13061 99454 30049 46/// /1607 10050 20019 40191 57005 22242 00087
BBXX UCKZ 13061 99477 30196 41/92 91108 10072 20071 40091 52013 74544 89/// 22243 00068 2////
BBXX BATEU00 13064 99535 30159 46/// /3119 11013 21043 40134 56029 22242
BBXX DBLK 13061 99589 30000 41195 82914 11002 21002 49929 57014 72454 886// 22242 05018 ICE 35692
AAXX 13064 68912 36/// /3506 10169 20149 30070 40079 52008 333 20147 91009 555 10201 91007
BBXX 44137 13061 99423 70620 46/// /1902 10095 40320 57015 22200 00132 11202 70012 333 91204
AAXX 13064 41506 02997 03604 10090 21040 48570 60001 333 58044 60007
AAXX 13064 41508 22997 00000 10078 21137 48578 60001 333 58018 60007
AAXX 13064 41523 12997 00000 10100 21063 48561 60001 333 58014 60007
AAXX 13064 41535 12997 01302 10130 20021 48507 60001 333 58014
AAXX 13064 41536 02997 00000 10105 21016 48542 60001 333 58006 60007
AAXX 13064 41573 12997 01302 10115 21006 48515 60001 333 59006
AAXX 13064 41600 02996 00000 10160 20069 39901 40200 60001 333 58011 60007
AAXX 13064 41630 11995 22302 10190 20045 40209 60001 70500 80001 333 56009 58009 82070
AAXX 13064 41678 11996 00000 10190 20085 40209 60001 70500 333 58002 60007
AAXX 13064 41696 32997 00000 10080 21110 38057 48578 60001 333 58016 60007
AAXX 13064 41697 02997 20000 10174 20140 40205 60001 80007 333 56009 58020 60007 82270
AAXX 13064 41700 11995 23602 10170 20070 40194 60001 70400 82030 333 56090 58015 82360
AAXX 13064 41725 01996 00504 10180 20083 40200 60001 71000 333 58028 60007
AAXX 13064 41746 02996 03602 10210 20100 40202 60001 333 58028 60007
AAXX 13064 41759 12996 30402 10240 20038 30182 40188 60001 83030 333 56090 58019 83360
AAXX 13064 41785 02997 00502 10210 20132 40186 60001 333 58011 60007
AAXX 13064 71963 16/// /2328 11061 21066 39413 49804 56033 60001 333 11058 21129 70000 555 32339 40053
AAXX 13064 71049 16/// /1418 11196 30002 40026 58036 60001 333 11192 21330 70000 555 31424 40061
AAXX 13064 65201 31912 73604 10194 20171 30079 40171 70522 80008 333 20194 56000 58003 87280 91106
AAXX 13064 71490 17/// /2322 11066 21069 39489 49794 56041 60031 7//4/ 333 11066 21219 70029 555 32233 40222
AAXX 13064 71592 16/// /0301 11280 21316 30050 40064 51004 60001 333 11195 21284 7////
AAXX 13063 63612 32980 00905 10272 20202 40127 333 20211 59002
AAXX 13063 63661 32580 10000 10188 20127 48532 81100 333 20100 58001 81820
AAXX 13063 63671 32580 30000 10268 20216 60024 83200A 333 20210 83822
AAXX 13063 63695 32480 70702 10186 20155 8253/ 333 20118 82816 86359
AAXX 13063 63723 12582 70000 10270 20234 40116 69904 872// 333 20233 58005 87825
AAXX 13063 63793 32480 63606 10255 20211 40103 86100 333 20222 58010 86818
AAXX 13064 71761 16/// ///// 11082 21101 60001 333 11045 21113 7////
AAXX 13064 71923 16/// ///33 11074 21085 39481 49921 58046 60001 333 11074 21175 70000
AAXX 13064 63708 32580 31205 10234 20156A 48496 81930 333 20184 58001 81924 83358
AAXX 13064 63714 32480 00000 10174 20124 48505 81200 333 20108 58002 81818
AAXX 13064 63740 32580 60406 10192 20148 48519 862// 333 20168 58002 86820
AAXX 13064 63772 12580 20505 10300 20244 69904 82500 333 20231 82620
AAXX 13064 63612 NIL
AAXX 13064 63661 NIL
AAXX 13064 63671 NIL
AAXX 13064 63688 NIL
AAXX 13064 63695 NIL
AAXX 13064 63723 NIL
AAXX 13064 63793 NIL
AAXX 13064 63820 NIL
AAXX 13064 71049 16/// /1418 11196 30002 40026 58036 60001 333 11192 21330 70000 555 31424 40061
AAXX 13064 71963 16/// /2328 11061 21066 39413 49804 56033 60001 333 11058 21129 70000 555 32339 40053
AAXX 13064 71592 16/// /0301 11280 21316 30050 40064 51004 60001 333 11195 21284 7////
AAXX 13064 71923 16/// ///33 11074 21085 39481 49921 58046 60001 333 11074 21175 70000
AAXX 13064 71490 17/// /2322 11066 21069 39489 49794 56041 60031 7//4/ 333 11066 21219 70029 555 32233 40222
AAXX 13064 71761 16/// ///// 11082 21101 60001 333 11045 21113 7////
AAXX 13064 67977 11470 70000 10242 20231 39646 48530 60044 71565 8357/ 333 20226 83613 87460
AAXX 13063 67977 11470 70000 10242 20231 39646 48530 60044 71565 8357/ 333 20226 83613 87460
AAXX 13064 67977 11470 70000 10242 20231 39646 48530 60044 71565 8357/ 333 20226 83613 87460
BBXX 44138 13061 99443 70536 46/// /2608 10076 40326 57004 22200 00085 10805 70026 333 91211
BBXX 44138 13061 99443 70536 46/// /2608 10076 40326 57004 22200 00085 10805 70026 333 91211
AAXX 13063 64403 31920 60000 10232 20226 39/// 40/// 71022 86030 333 0//00 20210 50074 55/// 5//// 86363
AAXX 13064 17088 12970 01102 11058 21083 38889 48572 52006 60002 333 21066 34108 55011 20281
BBXX 46004 13061 99509 71361 46/// /0211 10049 40123 57006 22200 00078 11507 70037 333 91214
BBXX 46036 13061 99484 71339 46/// /2010 10090 40125 57012 22200 00085 11406 70028 333 91211
BBXX 46145 13061 99544 71324 46/// /3302 10063 40128 57004 22200 00072 11407 70037 333 91203
BBXX 46181 13061 99538 71288 46/// /0000 10002 40146 57011 22200 00023 10300 70000 333 912//
BBXX 46183 13061 99536 71311 46/// /0906 10041 40126 57008 22200 00078 10703 70016 333 91207
BBXX 46185 13061 99524 71298 46/// /3204 10060 40116 57005 22200 00074 10807 70033 333 91206
BBXX 46204 13061 99514 71288 46/// /0914 10051 40138 57015 22200 00085 10607 70033 333 91217
BBXX 46205 13061 99542 71343 46/// /3305 10062 40135 57002 22200 00077 11410 70052 333 91206
BBXX 46206 13061 99488 71260 46/// /1202 10064 40197 57007 22200 00084 11402 70010 333 91204
BBXX 46208 13061 99525 71327 46/// /3508 10063 40120 57014 22200 00076 11408 70038 333 91209
BBXX 4XFX 13064 99428 71335 41398 72715 00/// 10100 20060 40180 50040 70301 8743/ 22274 0//// 20306 330// 40607 5//// 6//// 80080 ICE /////
BBXX KGTZ 13064 99504 71320 41396 82119 10089 20060 40108 57020 75352 886// 22234 00100 2//// 3//// 4//// 5//// 6//// 80078 ICE /////
BBXX VQKR7 13064 99486 71225 41197 10000 10030 21012 40216 54000 70322 8/145 22200 00100 20000 80015
BBXX WAZV 13064 99506 71317 41396 82113 10085 20085 40120 57015 78064 88/// 22233 00080 20704 327// 41007 5//// 6//// 80085 ICE /////
AAXX 13061 01415 16/// /1410 10049 20024 39743 49753 58074 6//// 333 20045 70090 91117
AAXX 13064 67979 12980 60602 10246 20219 3//// 48/// 60204 86071 333 20210 5//// 86450
AAXX 13061 10554 12986 72011 10034 21010 39669 40059 58043 60002 80028 333 10044 20017 31100 55002 55300 20000 30000 79999 86462 87276 91116 91213
AAXX 13061 31152 42997 61802 11322 21353 39767 40215 53013 84032
AAXX 13061 31163 NIL
AAXX 13061 31285 42999 22502 11207 21274 30102 40187 52002 82089
AAXX 13061 31561 42998 01804 11164 21215 30155 40184 56005
AAXX 13061 31683 42999 03401 11131 21213 30090 40168 53009
AAXX 13061 32010 41294 83008 11147 21160 30019 40070 52018 78683 889// 333 87705 91013 91114
AAXX 13063 68452 NIL
AAXX 13063 68454 32989 00000 10201 20049 38364 48/// 54000 80004 333 20118 555 10270
AAXX 13063 68456 NIL
AAXX 13060 44210 32999 30000 11181 21193 38590 51007 80001
AAXX 13060 44216 41998 50202 11218 21236 39114 40494 52011 70272 80006
AAXX 13060 44217 32698 60000 11129 21201 37870 40370 53015 83573
AAXX 13060 44219 32998 10903 11214 21233 38704 40479 52004 80004
AAXX 13060 44221 32998 00000 11224 21272 38682 40499 52004
AAXX 13060 44224 31998 10000 11296 21319 38099 40564 51004 70240 80004
AAXX 13060 44229 32999 02301 11262 21287 37962 40516 51002
AAXX 13060 44242 32998 01601 11200 21224 39438 40443 52004
AAXX 13060 44243 32999 00000 11212 21234 39527 40444 51004
AAXX 13060 44254 32998 72904 11121 21204 39058 40288 53007 87010
AAXX 13060 44257 32698 63206 11131 21214 38998 40330 53005 81147
AAXX 13060 44263 32998 63201 11177 21236 38106 40474 57002 81043
AAXX 13060 44266 32999 20000 11116 21199 37787 40345 52007 80008
AAXX 13060 44286 41998 23604 11181 21210 38709 40426 52004 70170 80008
AAXX 13060 44291 32598 33406 11167 21214 38799 40423 51009 83500
AAXX 13060 44325 32999 70906 11111 21155 38898 40353 52014 83047
AAXX 13060 44329 32998 00000 11086 21182 37773 40299 51004
AAXX 13060 44338 32999 01105 11118 21180 38534 40373 58001
AAXX 13060 44348 32997 63209 11179 21191 38729 40373 52034 84079
AAXX 13060 44374 32999 00203 11083 21196 38286 40349 51003
AAXX 13060 44385 32999 33605 11109 21182 38983 40364 52020 80004
AAXX 13060 44386 32999 53206 11135 21178 39083 40328 51020 83044
AAXX 13061 98134 NIL
AAXX 13061 98223 31462 53405 10300 20253 40087 57033 70544 81206 333 56999 81819 85279
AAXX 13061 98232 31570 73602 10272 20245 40113 57020 70242 82270 222// 20101 333 56999 82820 87358
AAXX 13061 98325 31462 43605 10315 20254 40094 58031 70544 82201 333 56999 82817
AAXX 13061 98328 31459 71102 10238 20202 38516 40076 58021 74044 87301 333 56999 82912 84813
AAXX 13061 98330 31475 50901 10330 20269 30064 40096 57029 70544 82201 333 56999 82818 84077
AAXX 13061 98336 32580 20404 10304 20263 30103 40108 58030 81201 333 56199 81820
AAXX 13061 98429 31560 22003 10325 20251 40097 57023 70544 82200 333 56999 82825
AAXX 13061 98430 31558 52507 10328 20249 40083 57026 70544 83801 333 56999 83620
AAXX 13061 98431 31468 40902 10300 20256 30044 40091 58027 70544 82231 333 56999 82818
AAXX 13061 98440 31470 50403 10305 20270 30090 40095 57022 70544 85200 333 56299 85815
AAXX 13061 98444 11465 60402 10296 20260 30068 40087 58020 69901 70382 84378 333 56199 83918 83459 86270
AAXX 13061 98526 32570 10403 10324 20280 40090 57032 81200 333 56999 81820 98315
AAXX 13061 98531 NIL
AAXX 13061 98536 31470 10402 10282 20237 39895 40093 58029 71794 81960 222// 20000 333 56199 81918
AAXX 13061 98543 31480 63602 10300 20274 30067 40078 57024 71422 83208 333 56999 83818 85272
AAXX 13061 98550 11460 80000 10280 20251 40086 57013 69921 71798 8497/ 333 56999 82915 88357
AAXX 13061 98618 31475 60703 10300 20245 40093 58014 71511 84908 333 56299 82917 83820 86274
AAXX 13061 98630 NIL
AAXX 13061 98637 NIL
AAXX 13061 98646 32460 50603 10306 20261 30081 40109 58018 82902 333 56999 82918 85080
AAXX 13061 98653 11465 81102 10280 20255 30038 40083 57010 60221 72998 8297/ 333 56999 82917 88358
AAXX 13061 98741 31470 20902 10313 20271 40072 57005 70544 82900 333 56199 82917
AAXX 13061 98747 31460 50301 10307 20249 39869 40073 57020 70544 82231 333 56999 82818 83358
AAXX 13061 98753 31465 73602 10298 20264 40077 57022 70544 83278 333 56999 83816 85359 87279
AAXX 13061 98755 NIL
AAXX 13061 98836 11460 72702 10310 20261 40084 57022 69901 78084 82370 333 56999 82918 87362
AAXX 13063 68452 NIL
AAXX 13063 68454 32989 00000 10201 20049 38364 48/// 54000 80004 333 20118 555 10270
AAXX 13063 68456 NIL
AAXX 13064 42571 31996 0000/ 10212 20083 40179 333 58001
AAXX 13064 42667 31996 30906 10210 20082 39587 40180 70500 80001 333 58003 83075
AAXX 13064 42675 31996 00502 10200 20095 40187 70500 333 58008
AAXX 13064 42779 32996 00000 10208 20084 39471 40174 333 58005
AAXX 13064 42874 32996 01402 10254 20104 40162 333 58006
AAXX 13064 43041 32996 00902 10260 20106 39541 40151 333 58003
AAXX 13064 94996 41009 90214 10226 20220 39964 40100 55004 74784 90630
AAXX 13064 94996 41009 90214 10226 20220 39964 40100 55004 74784 90630
AAXX 13064 89610 46/// /0411 11018 39606 4//// 5//// 333 90700 91113
AAXX 13064 89614 46/// /3613 11051 29070 38906 4//// 5//// 333 90700 91117
AAXX 13064 89807 46/// /1704 11012 29049 39694 4//// 5////
AAXX 13064 89610 46/// /0411 11018 39606 4//// 5//// 333 90700 91113
AAXX 13064 89614 46/// /3613 11051 29070 38906 4//// 5//// 333 90700 91117
AAXX 13064 89807 46/// /1704 11012 29049 39694 4//// 5////
AAXX 13064 94290 46/// /3111 10300 30027 40036 56009 90624
AAXX 13064 94210 35/// /3107 10322 30049 40054 57014
AAXX 13064 94289 46/// /3213 10294 30026 40033 56006 90615
AAXX 13064 94379 46/// /1209 10269 30041 40050 52002 90626
AAXX 13064 94290 46/// /3111 10300 30027 40036 56009 90624
BBXX 44056 13061 99362 70757 46/// ///// 1//// 90550 22200 00118 10902 20902 70010
BBXX MINUK04 1306/ 99555 10084 46/// ///// 10043 4//// 57033
AAXX 13064 65501 32960 70000 10127 20014 39825 40145 80002 333 01400 20126 51014 55089 59003 87076
AAXX 13064 65502 32960 70000 10160 21031 39754 40136 80002 333 01400 20160 51284 55084 58003 87076
AAXX 13064 65503 31958 70402 10164 20028 39790 40138 70622 80002 333 01600 20165 50870 55082 51589 58003 87076
AAXX 13064 65505 32960 50406 10187 20006 39795 40134 80002 333 01800 20184 51274 55076 58006 85076
AAXX 13064 65507 31958 70802 10165 20008 39784 40136 70622 80002 333 01400 20165 50884 85076 88003 87076
AAXX 13064 65510 31928 60608 10193 20015 39614 40129 70622 80002 333 01700 20188 50890 55000 58009 86076
AAXX 13064 65516 31925 60000 10152 20040 39823 40132 70622 80002 333 01500 20148 50774 55000 58009 86076
AAXX 13064 65518 31958 70000 10171 20001 39756 40122 70622 80002 333 01400 20160 51034 55047 59005 87076
AAXX 13064 65522 31935 70000 10155 20052 39797 40128 70622 80002 333 01300 20150 50824 55002 58001 87076
AAXX 13064 89050 41296 83424 10019 20004 49817 52013 71062 886//
AAXX 13064 16110 11698 70403 10108 20016 30149 40154 52027 60152 70261 85580 333 20090 32/// 55000 20059 85640 555 0////
AAXX 13064 65401 31908 00504 10211 20031 40147 70500 333 20205 59004
AAXX 13064 65404 31925 00501 10196 20053 40140 70500 333 20190 59003
AAXX 13064 65416 NIL
AAXX 13064 65418 31920 00000 10160 20072 70140 70500 333 20147 58000
AAXX 13064 65420 NIL
AAXX 13064 65432 31926 03201 10205 20078 40123 70500 333 2//// 58001
AAXX 13064 65437 NIL
AAXX 13064 65439 31958 00000 10178 20108 40127 70500 333 20166 58002
AAXX 13064 65442 31940 00503 10210 20150 40125 70500 333 20210 59002
AAXX 13064 65445 NIL
AAXX 13064 65450 NIL
AAXX 13064 65453 NIL
AAXX 13061 55228 32980 02507 11022 21369 36010 57005 333 05304 21182
AAXX 13061 55578 32980 03602 10059 21204 36337 57027 333 05303 21150
AAXX 13061 55664 32980 02008 10084 21292 35981 57020 333 05105 21135
AAXX 13061 55773 32970 02004 10034 21130 35989 57020 333 05204 21149
AAXX 13061 56116 32980 01802 11012 21158 36322 57030 333 05301 21133
AAXX 13061 56137 32980 02501 10049 21162 36769 57044 333 05301 21112
AAXX 13061 56172 32980 22903 10068 21065 37324 57048 80002 333 05252 21078
AAXX 13061 56247 32980 01101 10092 21103 37409 57053 333 05251 21032
AAXX 13061 56312 32680 71404 10065 21086 37074 57025 87400 333 05200 21031
AAXX 13061 56462 32680 11604 10092 21066 37095 57052 81100 333 05251 21050
AAXX 13061 56651 32680 72705 10083 21042 37640 57024 874// 333 00154 21031
AAXX 13061 56691 11578 72004 10096 20000 37759 57033 69901 70060 83540 333 05207 20000
AAXX 13061 56985 32562 21802 10160 20072 38714 40165 57029 82100 333 05102 20070
AAXX 13061 57633 32765 80201 10096 20005 39452 40244 57027 885// 333 05100 20052
AAXX 13061 57902 32462 81401 10081 20059 38646 40213 57033 885// 333 05204 20038
AAXX 13061 55279 32980 02708 11009 21341 35675 57011 333 05204 21200 91117 91525
AAXX 13061 55472 32980 02716 10008 21328 35714 57013 333 05205 21180 91124 91529
AAXX 13061 55696 32980 01802 10018 21097 36311 57042 333 05301 21110
AAXX 13061 56079 32780 22904 10026 21128 36648 57018 82100 333 05202 21163
AAXX 13061 56106 32980 03201 11019 21225 36182 57034 333 05301 21174
AAXX 13061 56257 32680 10401 10032 21145 36249 57032 81100 333 05202 21135
AAXX 13061 56374 32780 10910 10040 21052 37393 57039 81100 333 05302 21064
AAXX 13061 56385 31/80 22201 11007 21015 36984 57023 70040 82100 333 05202 21062
AAXX 13061 56954 11580 60201 10209 20136 40146 57030 69901 70080 86240 333 05101 20147
AAXX 13061 56966 11765 43601 10186 20104 40170 57036 69901 70080 83440 333 05200 20130
AAXX 13061 57237 32770 11601 10115 21023 40243 57037 81100 333 21023
AAXX 13061 57306 31957 83601 10087 20043 40239 57039 71040 8807/ 333 20026
AAXX 13061 57604 31730 80000 10084 20055 40235 57035 71000 885// 333 20046
AAXX 13061 57707 31456 81402 10050 20035 38502 57028 71000 886// 333 05302 20027
AAXX 13061 57832 32771 80201 10096 20015 39487 40236 57029 885// 333 05200 20043
BBXX KS098 13064 99446 71240 43/// /0902 10036 40156 22200 06000
BBXX KS094 13064 99133 70596 43/// /1202 10255 40121 22200 06272
AAXX 13064 64700 31930 33606 10118 21013 39797 40136 70600 80002 333 01100 20120 51451 ///// 55109 59008 83075
AAXX 13064 64701 NIL
AAXX 13064 64702 NIL
AAXX 13064 64705 31950 03406 10127 20006 3//// 4//// 705// 333 0//00 2//// 50604 55/// ///// 5////
AAXX 13064 64706 33960 30000 10130 20092 39647 40129 80002 333 01100 20112 50884 55081 59006 83075
AAXX 13064 64708 NIL
AAXX 13064 64709 31915 30206 20155 20005 3//// 4//// 705// 80002 333 0//00 20135 5//// ///// 55/// 5//// 83075
AAXX 13064 64710 NIL
AAXX 13064 64713 33960 00000 10160 20058 3//// 4//// 333 0//00 20126 5//// ///// 55/// 5////
AAXX 13064 64722 33962 20000 10160 20060 3//// 4//// 80002 333 0//00 20110 50354 ///// 55/// 5//// 82075
AAXX 13064 64750 32960 63206 10175 20058 39701 40115 80002 90559 333 01000 20159 50931 ///// 55079 59003 86075
AAXX 13064 64751 33960 20404 10127 20005 3//// 4//// 81032 333 0//00 20046 50574 55/// 5//// 81365
AAXX 13064 64753 33960 00410 10136 20026 3//// 4//// 90600 333 0//00 20120 51034 ///// 55/// 5////
AAXX 13064 64754 33960 00404 10190 20035 3//// 4//// 333 0//00 20133 50434 ///// 55/// 5////
AAXX 13064 64756 33962 51006 10180 21002 39515 4//// 80002 90600 333 0//00 20160 5//// ///// 55/// 59006 85075
AAXX 13064 64757 33960 00000 10165 20042 3//// 4//// 333 0//00 20115 5//// ///// 55/// 5////
AAXX 13064 64758 NIL
AAXX 13064 64761 NIL
AAXX 1306/ 48969 NIL
AAXX 1306/ 48962 NIL
AAXX 1306/ 48990 NIL
AAXX 1306/ 48986 NIL
AAXX 1306/ 48995 NIL
AAXX 1306/ 48967 NIL
AAXX 1306/ 48992 NIL
AAXX 1306/ 48965 NIL
AAXX 1306/ 48985 NIL
AAXX 1306/ 48970 NIL
AAXX 1306/ 48991 NIL
AAXX 1306/ 48964 NIL
AAXX 1306/ 48997 NIL
AAXX 1306/ 48968 NIL
AAXX 1306/ 48973 NIL
AAXX 1306/ 48966 NIL
AAXX 1306/ 48983 NIL
AAXX 1306/ 48972 NIL
AAXX 1306/ 48998 NIL
AAXX 1306/ 48993 NIL
AAXX 1306/ 48971 NIL
AAXX 1306/ 48963 NIL
AAXX 1306/ 48987 NIL
AAXX 13064 71981 17/// /2609 11145 21171 69991 7//4/ 333 11059 21210 7////
AAXX 13064 71982 17/// /2305 11184 21202 69941 7//4/ 333 11068 21205 7////
AAXX 13064 71986 16/// /1706 11126 21139 60001 333 11066 21146 7////
AAXX 13064 71990 17/// /2309 11064 21071 38373 49955 51024 69931 7//4/ 333 11061 21177 7////
AAXX 13064 71354 16/// /2009 11091 21104 60001 333 11049 21098 7////
AAXX 13064 71048 16/// /1101 11124 21139 60001 333 11069 21135 7////
AAXX 13064 71406 16/// /3114 11086 21126 30264 40274 51009 60001 333 11073 21115 70000 555 32834 40083
AAXX 13064 71418 46/// /2710 10028 21006 30244 40277 58007 6///1 333 10029 21018 7//// 555 32543 40153
AAXX 13064 71277 46/// /2516 11003 21066 6///1 333 7////
AAXX 13064 71354 16/// /2009 11091 21104 60001 333 11049 21098 7////
AAXX 13064 71048 16/// /1101 11124 21139 60001 333 11069 21135 7////
AAXX 13064 71981 17/// /2609 11145 21171 69991 7//4/ 333 11059 21210 7////
AAXX 13064 71982 17/// /2305 11184 21202 69941 7//4/ 333 11068 21205 7////
AAXX 13064 71986 16/// /1706 11126 21139 60001 333 11066 21146 7////
AAXX 13064 71990 17/// /2309 11064 21071 38373 49955 51024 69931 7//4/ 333 11061 21177 7////
AAXX 13064 71406 16/// /3114 11086 21126 30264 40274 51009 60001 333 11073 21115 70000 555 32834 40083
AAXX 13064 71418 46/// /2710 10028 21006 30244 40277 58007 6///1 333 10029 21018 7//// 555 32543 40153
AAXX 13064 71277 46/// /2516 11003 21066 6///1 333 7////
BBXX 42360 13061 99267 70905 46/// /0808 10225 90600 22200 00243 10703 70017 333 91211
AAXX 13061 13492 NIL
AAXX 13061 13584 NIL
AAXX 13061 13585 42898 30502 10026 20020 39395 40202 57005 83070 333 20024 31101
AAXX 13061 13597 42697 80000 10083 20083 30125 40198 54000 885// 333 20076 30005
AAXX 13061 13598 42981 10000 11003 21006 48470 57005 81030 333 21004 32101
AAXX 13063 67975 11480 70401 10226 20192 38906 48498 60204 70262 8113/ 333 20190 81818 87359
AAXX 13063 67991 12975 30000 10246 20210 39547 48462 60134 83030 333 20200 83360
AAXX 13064 67975 11480 70401 10226 20192 38906 48498 60204 70262 8113/ 333 20190 58001 81818 87359
AAXX 13064 67991 12975 30000 10246 20210 39547 48462 60134 83030 333 20200 59001 83360
BBXX 42023 13061 99261 70831 46/// /0604 1//// 90630 333 91208
BBXX 42023 13061 99261 70831 46/// /0604 1//// 90600 333 91208
AAXX 13061 10004 46/60 /1922 10078 20062 39837 49837 56061 222// 08094/ 333 10889 20064 55021 55300 91130 91223
BBXX ZQCP3 13063 99066 11086 41396 83616 10246 20242 40096 56001 76362 887// 22253 00260 29902 301// 40804 5//// 80243
BBXX 41053 13061 99185 70661 46/// /2003 10243 40120 90630 333 91204
BBXX 41053 13061 99185 70661 46/// /2003 10243 40121 90620 333 91204
BBXX 41053 13061 99185 70661 46/// /2003 10242 40122 90610 333 91204
BBXX 41052 13061 99183 70648 46/// /0203 10260 40114 90630 333 91204
BBXX 41052 13061 99183 70648 46/// /0203 10260 40115 90620 333 91204
BBXX 41052 13061 99183 70648 46/// /0103 10261 40116 90610 333 91204
BBXX 44024 13061 99423 70659 46/30 /1905 10086 40293 58024 90604 22200 00093 10602 70012 333 91205 555 11055 22058
AAXX 13061 98630 32575 30203 10318 20261 40127 58008 82201 222// 2//02 333 56199 82820
AAXX 13061 45032 36/// /3102 10219 20050 30165 40182 57001
AAXX 13061 45035 36/// /2504 10200 20062 30141 40183 54000
AAXX 13061 45039 36/// /0102 10209 20084 30165 40180 57001
AAXX 13061 45044 36/// /1403 10207 20088 30087 40180 57002
BBXX C6PZ8 13064 99261 70792 41798 30623 10230 2020/ 40230 54000 76011 838// 22212 00264 20204 3//// 4//// 5//// 6//// 80210 ICE /////
BBXX C6TQ6 13064 99208 70865 41797 31827 10260 20232 40190 52020 70211 8348/ 22244 00270 20308 30136 40306 50204 6//// 80240 ICE /////
BBXX C6FM9 13063 99260 70777 41598 60525 10230 2022/ 40190 54/// 7//00 862// 22233 00260 20502 313// 40502 5//// 6//// 80220 ICE /////
AAXX 13061 45032 36/// /3102 10219 20050 30165 40182 57001
AAXX 13061 45035 36/// /2504 10200 20062 30141 40183 54000
AAXX 13061 45039 36/// /0102 10209 20084 30165 40180 57001
AAXX 13061 45044 36/// /1403 10207 20088 30087 40180 57002
BBXX 42023 13061 99261 70831 46/// /0604 1//// 90600 333 91208
BBXX 42023 13061 99261 70831 46/// /0604 1//// 90630 333 91208
BBXX 42360 13061 99267 70905 46/// /0808 10225 90600 22200 00243 10703 70017 333 91211
BBXX KS098 13064 99446 71240 43/// /0902 10036 40156 22200 06000
BBXX KS094 13064 99133 70596 43/// /1202 10255 40121 22200 06272
BBXX 44056 13061 99362 70757 46/// ///// 1//// 90550 22200 00118 10902 20902 70010
BBXX 44138 13061 99443 70536 46/// /2608 10076 40326 57004 22200 00085 10805 70026 333 91211
BBXX C6PZ8 13064 99261 70792 41798 30623 10230 2020/ 40230 54000 76011 838// 22212 00264 20204 3//// 4//// 5//// 6//// 80210 ICE /////
BBXX C6FM9 13063 99260 70777 41598 60525 10230 2022/ 40190 54/// 7//00 862// 22233 00260 20502 313// 40502 5//// 6//// 80220 ICE /////
BBXX ICGU 13064 99184 70689 41797 23608 10220 20190 40140 54/// 70211 82/8/ 22200 04260 2//// 3//// 4//// 5//// 6//// 85200 ICE /////
BBXX 44137 13061 99423 70620 46/// /1902 10095 40320 57015 22200 00132 11202 70012 333 91204
BBXX 46236 13061 99368 71219 46/// ///// 1//// 90620 22200 00126 11204 21003 330// 41203 70022
BBXX 46239 13061 99363 71221 46/// ///// 1//// 90621 22200 00130 11305 21003 330// 41304 70026
BBXX 46238 13061 99334 71195 46/// ///// 1//// 90620 22200 00151 11404 21002 328// 41403 70019
BBXX 46219 13061 99332 71199 46/// ///// 1//// 90628 22200 00138 11205 20903 330// 41204 70026
BBXX 46225 13061 99329 71174 46/// ///// 1//// 90614 22200 00157 11402 20401 323// 41402 70011
BBXX 46213 13061 99403 71247 46/// ///// 1//// 90624 22200 00097 11007 21005 332// 41104 70034
BBXX 46215 13061 99352 71209 46/// ///// 1//// 90608 22200 00149 11204 21002 328// 41203 70020
BBXX 46214 13061 99379 71235 46/// ///// 1//// 90627 22200 00114 11306 21004 330// 41305 70032
BBXX MINUK04 1306/ 99555 10084 46/// ///// 10043 4//// 57033
BBXX AUTQ 13064 99330 10268 42398 71156 10170 20138 40196 51024 87101 22264 00210
BBXX 62305 13064 99504 10000 46/95 /2639 10113 20084 49903 53004 22200 10808 70038 333 90710 91159
BBXX VREX7 13063 99380 70330 41297 80116 10160 20143 40300 50020 76066 8/80/ 22264 21405 32323 41204 50804 80150
BBXX PEBT 13063 99374 10111 41498 13122 10138 20110 40215 53015 7//00 81100 22273 02148 20503 331// 40602 5//// 80122
BBXX DSRD9 13044 99210 11134 43/// 80518 10250 40190 222// 2//05
BBXX DSRD9 13044 99210 11134 43/// 80518 10250 40190 222// 2//05
AAXX 13061 47003 42980 80000 11014 21047 30264 40268 57020 8802/
AAXX 13061 47005 42680 71801 11069 21182 38609 57023 83502
AAXX 13061 47022 42775 81101 11020 21105 38864 57018 85032
AAXX 13061 47028 42967 80000 10014 21073 30170 40267 57021 8801/
AAXX 13061 47031 42570 50000 11064 21100 38955 57033 85500
AAXX 13061 47037 42970 60000 10026 21153 30158 40282 57022 86030
AAXX 13061 47039 42560 80000 10017 21107 30078 40272 57020 85501
AAXX 13061 47046 42569 80000 10063 21048 30235 40258 57023 83502
AAXX 13061 47050 42565 60000 10012 21067 30244 40279 57011 86500
AAXX 13061 47052 42965 72903 10028 21053 39933 40277 57031 80007
AAXX 13061 47060 42960 80000 10025 21053 30225 40284 57012 80002
AAXX 13061 47061 42980 80000 10045 21040 30224 40268 57020 80003
AAXX 13061 47065 42965 70000 10038 21074 30232 40299 58005 80002
AAXX 13061 47067 41560 83204 10038 21063 30172 40293 57018 71022 85100
AAXX 13061 47068 42970 80000 10042 21104 30235 40270 57015 80002
AAXX 13061 47070 42970 52902 10049 21076 30189 40277 57018 80001
AAXX 13061 47075 42980 52001 10040 21107 39774 40204 57005 80001
AAXX 13061 47008 11560 80000 11010 21029 30217 40273 58014 60021 77102 8355/
AAXX 13061 47014 42950 70000 11081 21143 39846 40267 57035 80001
AAXX 13061 47016 42970 70000 11059 21193 39371 40272 57048 80001
AAXX 13061 47020 42565 60000 11022 21108 39883 40272 57043 85600
AAXX 13061 47025 42576 81401 10043 20015 30239 40268 57020 86502
AAXX 13061 47035 42965 82301 10014 21045 30267 40276 57016 8803/
AAXX 13061 47041 42970 70000 10051 21028 30233 40281 57030 80002
AAXX 13061 47055 42965 60000 10039 21045 30222 40268 57026 80001
AAXX 13061 47058 42961 82701 10022 21098 30237 40285 57014 80007
AAXX 13061 47069 42965 71802 10047 21034 30179 40280 57009 80002
AAXX 13061 11240 11/04 91703 11007 21007 39737 40188 52012 60052 74941 333 21014 34104 89/01
AAXX 13064 47575 11/65 82410 10020 21041 30247 40252 53003 69901 78582 883/1
AAXX 13064 89528 46/// /3627 4//// 5////
AAXX 13064 89628 46/// /3118 4//// 5////
AAXX 13063 41150 41959 03017 10156 20102 40225 70500 333 20139 30012 58004
BBXX DDDI2 13064 99200 30572 41598 70811 10265 20251 40120 50000 78088 81275 22254 04275 20202 304// 40604 80255
BBXX ZCBV4 13064 99015 30881 41397 72721 10286 20262 40130 52005 79698 877// 22253 00289 20403 320// 41203 80268
BBXX ELZU8 13063 99015 11044 41598 73617 10300 20231 40100 54000 70222 85169 22200 00/// 20203 303// 40405 80250
BBXX A8HJ2 13063 99141 30748 41/98 41319 10290 20235 40115 50015 701// 83260 22214 00/// 20302 80250
BBXX VRAR7 13063 99301 11602 41598 82622 10235 20206 40130 54000 70252 885// 22254 00215 20404 329// 41005 80215
BBXX VRBQ6 13064 99333 11766 41297 82614 10190 20150 40179 55010 72166 88/// 22225 00197 20303 330// 40606 80165
BBXX 9VDD2 13064 99503 11664 41498 73213 11020 2105/ 49970 54000 70222 8698/ 22255 07030 20403 326// 40904 65042 81030
BBXX VVPG 13063 99191 10726 41798 63506 10290 20269 40113 51004 70201 86021 22200 00/// 2////
BBXX VQOG5 13064 99072 11033 41598 80114 10270 20221 40107 50010 78082 8727/ 22283 00275 20401 30536 40804 50702 80237
BBXX A8SZ5 13064 99193 11197 41497 80525 10270 20243 40110 58030 703// 8/7// 22243 00/// 2//08 80250
BBXX DDDI2 13064 99200 30572 41598 70811 10265 20251 40120 50000 78088 81275 22254 04275 20202 304// 40604 80255
BBXX ZCBV4 13064 99015 30881 41397 72721 10286 20262 40130 52005 79698 877// 22253 00289 20403 320// 41203 80268
BBXX ELZU8 13063 99015 11044 41598 73617 10300 20231 40100 54000 70222 85169 22200 00/// 20203 303// 40405 80250
BBXX A8HJ2 13063 99141 30748 41/98 41319 10290 20235 40115 50015 701// 83260 22214 00/// 20302 80250
BBXX VRAR7 13063 99301 11602 41598 82622 10235 20206 40130 54000 70252 885// 22254 00215 20404 329// 41005 80215
BBXX VRBQ6 13064 99333 11766 41297 82614 10190 20150 40179 55010 72166 88/// 22225 00197 20303 330// 40606 80165
BBXX 9VDD2 13064 99503 11664 41498 73213 11020 2105/ 49970 54000 70222 8698/ 22255 07030 20403 326// 40904 65042 81030
BBXX VVPG 13063 99191 10726 41798 63506 10290 20269 40113 51004 70201 86021 22200 00/// 2////
BBXX VQOG5 13064 99072 11033 41598 80114 10270 20221 40107 50010 78082 8727/ 22283 00275 20401 30536 40804 50702 80237
BBXX A8SZ5 13064 99193 11197 41497 80525 10270 20243 40110 58030 703// 8/7// 22243 00/// 2//08 80250
AAXX 13061 10338 01682 81911 10060 20009 39912 49984 56055 69902 72122 8652/ 333 10063 20038 31001 55000 55300 20000 30000 69907 70022 82640 85650 88464 91118 91212 96260
BBXX VCXF 13064 99464 70484 41797 82922 10031 2001/ 40269 54000 70222 885// 22200 02030 20504 333// 40906 80020
BBXX VCXF 13064 99464 70484 41797 82922 10031 2001/ 40269 54000 70222 885// 22200 02030 20504 333// 40906 80020
AAXX 1306/ 89507 46/// ///// 36741 4//// 5////
AAXX 13064 89646 46/// /0105 11154 29084 37487 4//// 5////
AAXX 13064 89648 46/// /1806 11242 29069 37089 4//// 5////
AAXX 13064 89659 46/// /1704 11182 29070 37584 4//// 5////
AAXX 13064 89661 46/// /2439 11085 29086 39120 4//// 5////
AAXX 13064 89662 42561 62706 11009 21101 39712 49816 57008 82520 222 ICE 98015 333 82620 85450 11009
AAXX 13064 89666 46/// /1510 11036 29080 39640 4//// 5////
AAXX 13064 71073 16/// /1305 11187 21201 60001 333 11083 21200 7////
AAXX 13064 71012 16/// /1912 11076 21086 60001 333 11055 21126 7////
AAXX 13064 71013 16/// ///// 11105 21113 60001 333 11055 21121 7////
AAXX 13064 71060 16/// /2704 11035 21148 38597 40191 56007 60001 333 11026 21189 7//// 555 10010
AAXX 13064 71848 16/// ///// 11207 21230 60001 333 11070 21207 7////
AAXX 13064 71793 16/// ///// 11093 21104 60001 333 11050 21096 7////
AAXX 13064 71495 16/// /2611 11062 21132 60001 333 11060 21127 7////
AAXX 13064 71974 46/// /3206 11329 21359 39996 40041 52019 6///1 333 11311 21353 7////
AAXX 13064 71565 16/// /2508 11122 21133 60001 333 11068 21150 7////
AAXX 13064 71566 16/// /1807 11069 21090 60001 333 11069 21139 7////
AAXX 13064 71567 46/// /1808 11091 21101 6///1 333 11055 21099 7////
AAXX 13064 71399 16/// ///// 11123 21136 60001 333 11062 21123 7////
AAXX 13064 71495 16/// /2611 11062 21132 60001 333 11060 21127 7////
AAXX 13064 71073 16/// /1305 11187 21201 60001 333 11083 21200 7////
AAXX 13064 71565 16/// /2508 11122 21133 60001 333 11068 21150 7////
AAXX 13064 71566 16/// /1807 11069 21090 60001 333 11069 21139 7////
AAXX 13064 71567 46/// /1808 11091 21101 6///1 333 11055 21099 7////
AAXX 13064 71848 16/// ///// 11207 21230 60001 333 11070 21207 7////
AAXX 13064 71012 16/// /1912 11076 21086 60001 333 11055 21126 7////
AAXX 13064 71013 16/// ///// 11105 21113 60001 333 11055 21121 7////
AAXX 13064 71060 16/// /2704 11035 21148 38597 40191 56007 60001 333 11026 21189 7//// 555 10010
AAXX 13064 71974 46/// /3206 11329 21359 39996 40041 52019 6///1 333 11311 21353 7////
AAXX 13064 71793 16/// ///// 11093 21104 60001 333 11050 21096 7////
AAXX 13064 71399 16/// ///// 11123 21136 60001 333 11062 21123 7////
BBXX 44100 13061 99363 70756 46/// ///// 1//// 90622 22200 00137 10903 20903 70013
BBXX DDDI2 13064 99200 30572 41598 70811 10265 20251 40120 50000 78088 81275 22254 04275 20202 304// 40604 80255
BBXX ZCBV4 13064 99015 d-T ,f
BBXX 46243 13061 99462 71241 46/// ///// 1//// 90629 22200 00077 11002 21002 327// 41101 70011
BBXX 46241 13061 99330 71173 46/// ///// 1//// 90611 22200 00153 11501 20401 326// 41501 70007
BBXX 46237 13061 99378 71226 46/// ///// 1//// 90611 22200 00112 11403 21002 325// 41403 70017
BBXX 46229 13061 99438 71246 46/// ///// 1//// 90621 22200 00105 11104 20803 330// 41102 70018
BBXX 46216 13061 99343 71198 46/// ///// 1//// 90627 22200 00139 11402 20902 326// 41401 70010
BBXX 46223 13061 99335 71178 46/// ///// 1//// 90630 22200 00156 11502 20501 321// 41502 70010
BBXX 46231 13061 99327 71174 46/// ///// 1//// 90624 22200 00154 11502 20401 326// 41502 70010
BBXX 46222 13061 99336 71183 46/// ///// 1//// 90626 22200 00155 11402 20501 326// 41401 70008
BBXX 46242 13061 99332 71174 46/// ///// 1//// 90628 22200 00154 11402 20401 322// 41401 70009
AAXX 13064 89667 46/// /1405 11050 29058 39828 4//// 5//// 90630
AAXX 13064 89667 46/// /1006 11049 39828 4//// 5//// 90620
AAXX 13064 89667 46/// /0907 11050 39828 4//// 5//// 90610
AAXX 1306/ 89327 46/// ///// 11023 39611 4//// 5//// 90630
AAXX 1306/ 89327 46/// ///// 11026 39611 4//// 5//// 90640
AAXX 1306/ 89108 46/// ///// 11279 36857 4//// 5//// 90630
AAXX 1306/ 89108 46/// ///// 11275 36856 4//// 5//// 90640
AAXX 1306/ 89879 46/// ///// 11006 39676 4//// 5//// 90630
AAXX 1306/ 89872 46/// ///// 11039 39773 4//// 5//// 90630
AAXX 1306/ 89872 46/// ///// 11040 39772 4//// 5//// 90640
AAXX 1306/ 89869 46/// ///// 11044 39773 4//// 5//// 90630
AAXX 1306/ 89869 46/// ///// 11044 39773 4//// 5//// 90640
AAXX 1306/ 89866 46/// ///// 11054 39714 4//// 5//// 90630
AAXX 1306/ 89329 46/// ///// 11136 38710 4//// 5//// 90630
AAXX 1306/ 89329 46/// ///// 11133 38711 4//// 5//// 90640
AAXX 1306/ 89799 46/// ///// 11300 4//// 5//// 90630
AAXX 1306/ 89868 46/// ///// 11056 39775 4//// 5//// 90630
AAXX 1306/ 89332 46/// ///// 11078 39218 4//// 5//// 90630
AAXX 1306/ 89332 46/// ///// 11079 39217 4//// 5//// 90640
AAXX 1306/ 89769 46/// ///// 11044 39799 4//// 5//// 90630
AAXX 1306/ 89314 46/// ///// 11148 38148 4//// 5//// 90630
AAXX 1306/ 89314 46/// ///// 11148 38147 4//// 5//// 90640
AAXX 13061 98531 31570 22902 10316 20269 30079 40083 58031 70544 81261 333 56699 81820
AAXX 13061 98755 11468 82701 10250 20239 40088 5/030 60211 78098 8357/ 333 56999 83618 88358
BBXX VOXS 13064 99467 70480 41798 72818 10030 2001/ 40265 51003 78522 87500 22200 04026 20504 333// 40707 80020
BBXX VOXS 13064 99467 70480 41798 72818 10030 2001/ 40265 51003 78522 87500 22200 04026 20504 333// 40707 80020
AAXX 13061 02981 11467 72509 10046 20033 39952 49962 52003 60062 751// 85/// 333 10057 20042 3////
AAXX 13061 02924 11222 71502 10002 20002 39754 49951 57023 60034 771// 87/// 333 10007 21001 3/100 4/023
AAXX 13061 02935 11228 81503 10002 21001 39800 49974 57020 60032 777// 88/// 333 10008 21014 3/102 4/019
AAXX 13061 02849 11450 81505 11055 21067 39708 49987 57014 69974 771// 88/// 333 11055 21127 3//// 4/011
AAXX 13061 36974 3//// /2502 11101 21147 38060 48649 333 21145 777 92069
BBXX 63106 13064 99610 10017 46/// /1434 10065 49674 57072 22200
BBXX 63113 13064 99610 10017 46/// /1536 10070 20036 49672 57073 22200 10708 70039
BBXX 64049 13063 99571 10022 41/97 82320 10075 20064 49678 57021 70286 8//// 22200 04096 20608 321// 40609 5//// 80070
BBXX 62305 13064 99504 10000 46/95 /2639 10113 20084 49903 53004 22200 00127 10808 70038 333 90710 91159
BBXX 62105 13064 99554 70122 46/// /25// 10068 20046 49594 58020 22200 00108 11328 70141 333 90710 91160
BBXX 62107 13064 99501 70061 46/// /2839 10092 20010 49911 52019 22200 00119 11011 70055 333 90710 91153
BBXX 62303 13064 99516 70051 46/// /2730 10086 20031 49856 52018 22200 00117 10710 70051 333 90710 91142
BBXX 62094 13064 99517 70067 46/// /2632 1//// 2//// 4//// 5//// 22200 00113 10710 70050 333 90710 91145
BBXX UAST 13061 99691 10351 41/// /2007 11030 40020 54000 7//// 8//// 222// 20302
BBXX 63119 13064 99583 10009 41598 82432 10072 20019 49635 57031 70222 88/2/ 22200 20305 320// 40607 5////
BBXX 62103 13064 99499 70029 46/98 /2838 10112 20042 49908 52032 22200 00129 10910 70048 333 90710 91154
AAXX 13064 63820 12580 63608 10288 20233 40122 60014 86200 333 20247 58003 86823
AAXX 13064 87715 32965 00906 10189 20074 39864 40175 52005
BBXX 46221 13061 99339 71186 46/// ///// 1//// 90615 22200 00149 11402 21001 323// 41401 70009
AAXX 13064 60656 12960 40406 10109 20013 40237 57002 60004 81282 333 00900 20100 81846
BBXX 51204 13061 99213 71581 46/// ///// 1//// 90622 22200 00247 10602 20602 320// 41101 70011
AAXX 13064 91532 45/// /0606 10286 20240 30065 40073 52003
BBXX 44099 13061 99369 70757 46/// ///// 1//// 90622 22200 00129 10702 20702 70010
BBXX 9VDD2 13064 99503 11664 41498 73213 11020 21050 49970 54000 70222 8698/ 22255 07030 20403 326// 40904 65042 81030
BBXX VRAR7 13063 99301 11602 41598 82622 10235 20206 40130 54000 70252 885// 22254 00215 20404 329// 41005 80215
BBXX VRBQ6 13064 99333 11766 41297 82614 10190 20150 40179 55010 72166 88/// 22225 00197 20303 330// 40606 80165
BBXX WCX8882 13064 99447 11518 41497 72945 11030 2//// 40100 52040 77272 876// 22254 00040 2//// 328// 40714 5//// 6//// ICE /////
AAXX 13061 01433 46/// /1011 11023 21045 38575 49807 56046 333 21029 91122
AAXX 13064 61202 NIL
AAXX 13064 61214 NIL
AAXX 13064 61223 32960 40204 10120 21036 39863 40170 80002 333 01200 20115 50744 55100 58007 84075
AAXX 13064 61226 32960 30406 10140 21001 39861 40161 80002 333 01500 20135 50994 55088 58004 83075
AAXX 13064 61230 32960 30804 10174 21036 39861 40131 80002 333 0//00 20170 50984 55057 58026 83075
AAXX 13064 61233 31959 60000 10143 20026 3//// 4//// 70622 80002 333 09600 20143 51024 55/// 5//// 86075
AAXX 13064 61235 31960 50802 10230 20081 3//// 4//// 80002 333 02400 20228 51524 55050 5//// 85075
AAXX 13064 61240 32960 30000 10170 21019 39821 40141 80002 333 01600 20150 50894 55100 58002 83075
AAXX 13064 61250 32960 00000 10150 20000 3//// 4//// 80002 333 01400 20150 51014 55100 5//// 82075
AAXX 13064 61257 31910 01604 10192 20046 30071 40165 70544 333 01400 20188 50344 55060 58017
AAXX 13064 61265 32960 20404 10130 20045 39831 40141 80002 333 01300 20128 50990 55087 58003 82075
AAXX 13064 61270 31956 00000 10165 20053 3//// 4//// 70600 333 01500 20160 50714 55077 5////
AAXX 13064 61272 31958 00404 10170 20089 39809 40136 70600 333 01400 20170 5//// 55077 59004
AAXX 13064 61277 31956 20804 10175 20040 39814 40135 70600 80002 333 01600 20172 50881 55084 58010 82075
AAXX 13064 61285 31956 50000 10174 20091 39972 40123 70611 80002 333 01200 20160 50714 55080 58011 85075
AAXX 13064 61291 31940 00408 10195 20042 39714 40124 70600 333 01200 20192 51311 55062 58008
AAXX 13064 61293 31958 30802 10170 20084 3//// 4//// 70600 80002 333 01400 20170 50700 55078 5//// 83075
AAXX 13064 61296 31940 60404 10176 20090 3//// 4//// 706// 333 01000 20171 50550 55072 5//// 86075
AAXX 13064 61297 31958 70604 10173 20051 3//// 4//// 70622 80002 333 01300 20173 50991 55081 5//// 87075
AAXX 13064 71502 16/// /0510 11244 21262 30034 40050 53033 60001 333 11139 21244 7////
AAXX 13064 71509 16/// /1806 11131 21143 60001 333 11045 21155 7////
AAXX 13064 71517 17/// /2604 11154 21167 69951 7//4/ 333 11047 21161 7////
AAXX 13064 71518 16/// /3103 11207 21223 60001 333 11060 21209 7////
AAXX 13064 71519 16/// /1608 11080 21084 60001 333 11045 21131 7////
AAXX 13064 71520 16/// /0000 11173 21188 39569 40266 57012 60001 333 11090 21240 70000
AAXX 13064 71521 16/// ///// 11107 21126 60001 333 11057 21128 70000
AAXX 13064 71523 47/// ///// 11020 21020 39862 40242 56002 6///1 7//4/ 333 10000 21048 7////
AAXX 13064 71528 16/// /2702 11158 21167 60001 333 11052 21204 7////
AAXX 13064 71409 16/// ///// 11048 21064 60001 333 11037 21109 7////
AAXX 13064 71006 16/// /1911 11088 21092 60001 333 11041 21095 7////
AAXX 13064 71007 17/// ///// 11219 21243 69971 7//4/ 333 11056 21234 7////
AAXX 13064 71008 16/// /1601 11139 21152 60001 333 11078 21139 7////
AAXX 13064 71009 16/// /1505 11177 21192 60001 333 11075 21203 7////
AAXX 13064 71035 16/// ///// 11189 21206 60001 333 11075 21214 7////
AAXX 13064 71789 16/// ///// 11180 21197 60001 333 11051 21226 7////
AAXX 13064 71791 16/// /1811 11084 21093 60001 333 11047 21128 70000 555 31822 40041
AAXX 13064 71794 16/// ///// 11080 21088 60001 333 11054 21115 70000
AAXX 13064 71795 16/// ///// 11092 21095 60001 333 7////
AAXX 13064 71796 16/// ///// 11081 21089 60001 333 11044 21091 70000
AAXX 13064 71051 46/// ///// 11056 21066 6///1 333 7////
AAXX 13064 71057 17/// ///// 11187 21207 69941 7//4/ 333 11070 21197 7////
AAXX 13064 71070 17/// ///// 11121 21130 69961 7//4/ 333 11036 21135 7////
AAXX 13064 71089 16/// ///// 11066 21076 60001 333 11057 21182 7////
AAXX 13064 71841 16/// /3002 11101 21120 39908 40321 50001 60001 333 11062 21101 7////
AAXX 13064 71383 16/// ///// 11089 21110 39642 40266 56007 60001 333 11048 21117 70000
AAXX 13064 71433 46/// /3503 10034 20030 30026 40259 51007 6///1 333 10045 20032 7//// 555 32825 40111
AAXX 13064 71102 16/// ///// 11074 21083 60001 333 11066 21137 7////
AAXX 13064 71105 16/// ///// 11146 21162 60001 333 11054 21193 7////
AAXX 13064 71841 16/// /3002 11101 21120 39908 40321 50001 60001 333 11062 21101 7////
AAXX 13064 71433 46/// /3503 10034 20030 30026 40259 51007 6///1 333 10045 20032 7//// 555 32825 40111
AAXX 13064 63688 32480 30809 10182 20125 48/// 81931 333 20066 58007 81919 83074
AAXX 13064 61401 NIL
AAXX 13064 61404 NIL
AAXX 13064 61415 31956 50310 10205 20075 30169 40174 70622 85070 333 20197 50834 55002 58013 85463
AAXX 13064 61421 NIL
AAXX 13064 61437 NIL
AAXX 13064 61442 31930 60304 10220 21058 30150 40154 70062 80002 333 02600 20220 50534 55028 58021 86080
AAXX 13064 61450 NIL
AAXX 13064 61461 NIL
AAXX 13064 61489 NIL
AAXX 13064 61492 NIL
AAXX 13064 61497 NIL
AAXX 13064 61498 31940 40000 10180 20084 30006 40137 705// 80008 333 0//00 20180 5//// 55/// 58017 84273
AAXX 13064 61499 31950 43604 10195 21033 39898 40153 70511 80001 333 0//00 20190 50954 55/// 58020 84073
AAXX 13064 61510 NIL
AAXX 13064 87648 32460 82312 10148 20134 30113 40124 58008 8372/ 333 56509 83710 88560
BBXX MRGU3 13063 99359 10174 41598 32315 10190 20118 40192 56012 70222 82260 22264 04184 20404 323// 40602 5//// 80150
BBXX DDDO2 13064 99207 10383 41997 00216 10270 20201 40140 57010 71000 80000 22234 00277 20401 332// TBWUK17 13063 99016 31080 41596 51815 10254 20229 40122 57025 76222 85879 22233 04280 20401 31818 40502 50602 80237
BBXX PCPR 13063 99372 10117 41498 82820 10161 20135 40230 51020 7//22 8571/ 22263 04175 20303 328// 40602 80145
BBXX A8UQ2 13064 99236 10585 41697 12507 10250 20158 40170 51/// 70011 81//5 2226/ 00250 20101 300// 40000 5//// 80190
AAXX 13064 65401 31908 00504 10211 20031 40147 70500 333 20205 59004
AAXX 13064 65404 31925 00501 10196 20053 40140 70500 333 20190 59003
AAXX 13064 65416 NIL
AAXX 13064 65418 31920 00000 10160 20072 40140 70500 333 20147 58000
AAXX 13064 65420 NIL
AAXX 13064 65432 31926 03201 10205 20078 40123 70500 333 2//// 58001
AAXX 13064 65437 NIL
AAXX 13064 65439 31958 00000 10178 20108 40127 70500 333 20166 58002
AAXX 13064 65442 31940 00503 10210 20150 40125 70500 333 20210 59002
AAXX 13064 65445 NIL
AAXX 13064 65450 NIL
AAXX 13064 65453 NIL
BBXX VQGQ4 13064 99001 11522 41697 70905 10280 20266 40060 54000 70222 8634/ 22284 00304 20000 80270
BBXX VQGQ4 13064 99001 11522 41697 70905 10280 20266 40060 54000 70222 8634/ 22284 00304 20000 80270
BBXX 44039 13061 99411 70727 46/// /2706 10061 21006 40307 90630 22200 00104 10301 70004 333 91208
AAXX 13064 03008 11470 72224 10054 20029 49596 60072 72586 872// 90550 333 20050 32/// 70072 87815 90710 91133
BBXX WCZ5238 13064 99004 51490 41898 20913 10280 20209 40119 54000 70200 824// 22273 00264 20302 327// 40602 5//// 6//// 80230 ICE /////
BBXX WCPU 13064 99286 70934 41/// 70918 10172 20154 40255 50001 71122 8//// 22272 0//// 2//// 3//// 4//// 5//// 6//// 80161 ICE /////
BBXX A8UQ2 13064 99236 10585 41697 12507 10250 20158 40170 51/// 70011 81//5 2226/ 00250 20101 300// 40000 5//// 80190
BBXX DDDO2 13064 99207 10383 41997 00216 10270 20201 40140 57010 71000 80000 22234 00277 20401 332// TBWUK17 13063 99016 31080 41596 51815 10254 20229 40122 57025 76222 85879 22233 04280 20401 31818 40502 50602 80237
BBXX DDDI2 13064 99200 30572 41598 70811 10265 20251 40120 50000 78088 81275 22254 04275 20202 304// 40604 80255
BBXX SHIP 13061 99134 11120 41297 80315 10260 20252 40124 54000 70228 882// 22214 00235 20504 303// 40606 80250
BBXX VRDN3 13064 99212 11139 41/97 80320 00/// 10220 2016/ 40190 57020 70222 88/2/ 22254 00210 20604 308// 40805 5//// 6//// 80180
BBXX VRGO8 13064 99110 11099 41/97 /0127 10230 20216 40168 57010 70222 8//// 22212 00260 20806 335// 40807 80220
BBXX 9VDD2 13064 99503 11664 41498 73213 11020 21050 49970 54000 70222 8698/ 22255 07030 20403 326// 40904 65042 81030
BBXX VVPG 13063 99191 10726 41798 63506 10290 20269 40113 51004 70201 86021 22200 00/// 2////
BBXX VQOG5 13064 99072 11033 41598 80114 10270 20221 40107 50010 78082 8727/ 22283 00275 20401 30536 40804 50702 80237
BBXX 9VDD2 13064 99503 11664 41498 73213 11020 2105/ 49970 54000 70222 8698/ 22255 07030 20403 326// 40904 65042 81030
BBXX SHIP 13063 99301 11602 41598 82622 10235 20206 40130 54000 70252 885// 22254 00215 20404 329// 41005 80215
BBXX A8SZ5 13064 99193 11197 41497 80525 10270 20243 40110 58030 703// 8/7// 22243 00/// 2//08 80250
BBXX SHIP 13064 99333 11766 41297 82614 10190 20150 40179 55010 72166 88/// 22225 00197 20303 330// 40606 80165
BBXX ZQCP3 13063 99066 11086 41396 83616 10246 20242 40096 56001 76362 887// 22253 00260 29902 301// 40804 5//// 80243
BBXX 44039 13061 99411 70727 46/// /2706 10061 21006 40307 90630 22200 00104 10301 70004 333 91208
BBXX 44099 13061 99369 70757 46/// ///// 1//// 90622 22200 00129 10702 20702 70010
BBXX 46221 13061 99339 71186 46/// ///// 1//// 90615 22200 00149 11402 21001 323// 41401 70009
BBXX VOXS 13064 99467 70480 41798 72818 10030 2001/ 40265 51003 78522 87500 22200 04026 20504 333// 40707 80020
BBXX 46242 13061 99332 71174 46/// ///// 1//// 90628 22200 00154 11402 20401 322// 41401 70009
BBXX 46216 13061 99343 71198 46/// ///// 1//// 90627 22200 00139 11402 20902 326// 41401 70010
BBXX 46223 13061 99335 71178 46/// ///// 1//// 90630 22200 00156 11502 20501 321// 41502 70010
BBXX 46231 13061 99327 71174 46/// ///// 1//// 90624 22200 00154 11502 20401 326// 41502 70010
BBXX 46222 13061 99336 71183 46/// ///// 1//// 90626 22200 00155 11402 20501 326// 41401 70008
BBXX 46237 13061 99378 71226 46/// ///// 1//// 90611 22200 00112 11403 21002 325// 41403 70017
BBXX 46229 13061 99438 71246 46/// ///// 1//// 90621 22200 00105 11104 20803 330// 41102 70018
BBXX 46243 13061 99462 71241 46/// ///// 1//// 90629 22200 00077 11002 21002 327// 41101 70011
BBXX 46241 13061 99330 71173 46/// ///// 1//// 90611 22200 00153 11501 20401 326// 41501 70007
BBXX 44100 13061 99363 70756 46/// ///// 1//// 90622 22200 00137 10903 20903 70013
BBXX VCXF 13064 99464 70484 41797 82922 10031 2001/ 40269 54000 70222 885// 22200 02030 20504 333// 40906 80020
BBXX C6TQ6 13064 99208 70865 41797 31827 10260 20232 40190 52020 70211 8348/ 22244 00270 20308 30136 40306 50204 6//// 80240 ICE /////
BBXX 44024 13061 99423 70659 46/30 /1905 10086 40293 58024 90604 22200 00093 10602 70012 333 91205 555 11055 22058
BBXX 41052 13061 99183 70648 46/// /0103 10261 40116 90610 333 91204
BBXX 41052 13061 99183 70648 46/// /0203 10260 40115 90620 333 91204
BBXX 41052 13061 99183 70648 46/// /0203 10260 40114 90630 333 91204
BBXX 41053 13061 99185 70661 46/// /2003 10243 40121 90620 333 91204
BBXX 41053 13061 99185 70661 46/// /2003 10242 40122 90610 333 91204
BBXX 41053 13061 99185 70661 46/// /2003 10243 40120 90630 333 91204
BBXX VQGQ4 13064 99001 11522 41697 70905 10280 20266 40060 54000 70222 8634/ 22284 00304 20000 80270
BBXX A8HJ2 13063 99141 30748 41/98 41319 10290 20235 40115 50015 701// 83260 22214 00/// 20302 80250
BBXX ELZU8 13063 99015 11044 41598 73617 10300 20231 40100 54000 70222 85169 22200 00/// 20203 303// 40405 80250
BBXX ZCBV4 13064 99015 30881 41397 72721 10286 20262 40130 52005 79698 877// 22253 00289 20403 320// 41203 80268
BBXX WCZ5238 13064 99004 51490 41898 20913 10280 20209 40119 54000 70200 824// 22273 00264 20302 327// 40602 5//// 6//// 80230 ICE /////
BBXX PCPR 13063 99372 10117 41498 82820 10161 20135 40230 51020 7//22 8571/ 22263 04175 20303 328// 40602 80145
BBXX MRGU3 13063 99359 10174 41598 32315 10190 20118 40192 56012 70222 82260 22264 04184 20404 323// 40602 5//// 80150
BBXX 62103 13064 99499 70029 46/98 /2838 10112 20042 49908 52032 22200 00129 10910 70048 333 90710 91154
BBXX 63119 13064 99583 10009 41598 82432 10072 20019 49635 57031 70222 88/2/ 22200 20305 320// 40607 5////
BBXX UAST 13061 99691 10351 41/// /2007 11030 40020 54000 7//// 8//// 222// 20302
BBXX PEBT 13063 99374 10111 41498 13122 10138 20110 40215 53015 7//00 81100 22273 02148 20503 331// 40602 5//// 80122
AAXX 13064 60156 32960 00804 10056 20047 40272 56004 333 20051
AAXX 13064 60060 32956 10000 10146 20114 40243 5//// 80002 333 20146 30008 81070 95300
BBXX MINUK05 1306/ 99603 70043 46/// ///// 10055 49567 57059
BBXX FLAO 1306/ 99764 70847 46/// ///// 11263 40041 52008
AAXX 13064 60515 11360 20000 10099 20063 40269 56002 60004 700// 82700 333 00400 20075 82710 95990
BBXX JPAT 13064 99143 30863 41598 31218 10281 20206 40096 50004 70111 82130 22232 00282 10904 20302 312// 40605 85528
BBXX A8UL5 13063 99165 30636 41698 70812 10280 20232 40102 54000 70322 8441/ 22215 20302 3//// 4//// 5//// 80245
BBXX C6HS4 13063 99243 31045 41398 41415 10220 20198 40133 50/// 7//00 8216/ 22233 20805 80205
BBXX AMOUK17 13064 99327 30573 46/// ///// 10178 20088 30205 40218 52008 90550
BBXX ZSAF 13064 99479 30033 41598 81504 10053 20033 40187 56006 75055 885// 22253 04062 2//// 320// 40604 5////
BBXX KS098 13064 99446 71240 43/// /0902 10036 40156 22200 06000
AAXX 13064 71346 16/// /1907 11090 21107 60001 333 11046 21141 70015
AAXX 13064 71413 16/// ///// 11096 21107 60001 333 11053 21111 70000
AAXX 13064 71414 16/// ///// 11068 21095 60001 333 11047 21094 70000
AAXX 13064 71440 16/// ///// 11142 21151 60001 333 11077 21142 70000
AAXX 13064 71540 16/// /1401 11150 21162 60001 333 11044 21182 70000
AAXX 13064 71544 16/// ///// 11063 21097 60001 333 11052 21108 70000
AAXX 13064 71548 16/// ///// 11075 21099 60001 333 11042 21099 70000
AAXX 13064 71360 16/// ///// 11075 21078 60001 333 11059 21149 70000
AAXX 13064 71380 16/// /1807 11093 21121 60001 333 11056 21140 70000 555 31721 40201
AAXX 13064 71674 16/// ///// 11106 21117 60001 333 11045 21109 70000
AAXX 13064 71014 16/// /1608 11116 21130 60001 333 11067 21116 70000 555 31621 40221
AAXX 13064 71055 46/// /3418 11181 21197 39641 49973 51056 6///1 333 11114 21198 7//// 555 33225 40031
AAXX 13064 71065 16/// ///// 11080 21102 60001 333 11033 21128 70000
AAXX 13064 71797 16/// ///// 11083 21091 60001 333 11057 21118 7////
AAXX 13064 71481 16/// /1907 11050 21091 60001 333 11044 21173 70000
AAXX 13064 71498 16/// /2202 11168 21179 60001 333 11076 21170 70000
AAXX 13064 71904 16/// ///// 11144 21155 60001 333 11071 21162 70000
AAXX 13064 71857 16/// ///// 11079 21093 60001 333 11058 21106 70000
AAXX 13064 71249 16/// /1707 11152 21165 60001 333 11071 21164 70004 555 31618 40221
AAXX 13064 71797 16/// ///// 11083 21091 60001 333 11057 21118 7////
AAXX 13064 71346 16/// /1907 11090 21107 60001 333 11046 21141 70015
AAXX 13064 71481 16/// /1907 11050 21091 60001 333 11044 21173 70000
AAXX 13064 71498 16/// /2202 11168 21179 60001 333 11076 21170 70000
AAXX 13064 71540 16/// /1401 11150 21162 60001 333 11044 21182 70000
AAXX 13064 71544 16/// ///// 11063 21097 60001 333 11052 21108 70000
AAXX 13064 71548 16/// ///// 11075 21099 60001 333 11042 21099 70000
AAXX 13064 71360 16/// ///// 11075 21078 60001 333 11059 21149 70000
AAXX 13064 71380 16/// /1807 11093 21121 60001 333 11056 21140 70000 555 31721 40201
AAXX 13064 71249 16/// /1707 11152 21165 60001 333 11071 21164 70004 555 31618 40221
AAXX 13064 71413 16/// ///// 11096 21107 60001 333 11053 21111 70000
AAXX 13064 71414 16/// ///// 11068 21095 60001 333 11047 21094 70000
AAXX 13064 71440 16/// ///// 11142 21151 60001 333 11077 21142 70000
AAXX 13064 71857 16/// ///// 11079 21093 60001 333 11058 21106 70000
AAXX 13064 71674 16/// ///// 11106 21117 60001 333 11045 21109 70000
AAXX 13064 71904 16/// ///// 11144 21155 60001 333 11071 21162 70000
AAXX 13064 71055 46/// /3418 11181 21197 39641 49973 51056 6///1 333 11114 21198 7//// 555 33225 40031
AAXX 13064 71065 16/// ///// 11080 21102 60001 333 11033 21128 70000
AAXX 13064 71014 16/// /1608 11116 21130 60001 333 11067 21116 70000 555 31621 40221
AAXX 1306/ 89866 46/// ///// 11054 39714 4//// 5//// 90640
AAXX 1306/ 89799 46/// ///// 11299 4//// 5//// 90640
AAXX 1306/ 89868 46/// ///// 11056 39775 4//// 5//// 90640
AAXX 1306/ 89769 46/// ///// 11048 39797 4//// 5//// 90640
AAXX 1306/ 89828 46/// ///// 11210 36417 4//// 5//// 90640
AAXX 1306/ 89879 46/// ///// 11006 39677 4//// 5//// 90640
AAXX 13064 89667 46/// /1306 11052 29062 39828 4//// 5//// 90640
AAXX 13064 89614 46/// /3612 11051 29076 38918 4//// 5//// 90630 333 90700 91114
AAXX 13064 89807 46/// /1603 11010 29051 39694 4//// 5//// 90630 333 90700 91104
BBXX ZCBV4 13064 99015 30881 41397 72721 10286 20262 40130 52005 79698 877// 22253 00289 20403 320// 41203 80268
BBXX A8HJ2 13063 99141 30748 41/98 41319 10290 20235 40115 50015 701// 83260 22214 00/// 20302 80250
BBXX DDDI2 13064 99200 30572 41598 70811 10265 20251 40120 50000 78088 81275 22254 04275 20202 304// 40604 80255
AAXX 13064 89614 46/// /3612 11051 29076 38918 4//// 5//// 90630 333 90700 91114
AAXX 13064 89807 46/// /1603 11010 29051 39694 4//// 5//// 90630 333 90700 91104
AAXX 13064 89573 35770 50903 11031 21109 39729 49751 57003 83502
AAXX 13064 89573 35770 50903 11031 21109 39729 49751 57003 83502
BBXX A8OU4 13064 99442 11627 41598 42712 10050 21037 40000 57020 77011 82469 22224 00100 20908 329// 40810 5//// 80020
AAXX 13064 78397 112570 70104 10257 20227 30118 40134 60001 81802 333 00909 10324 20242 58016 81822 87070
AAXX 13064 DUPE
AAXX 13064 91699 14/// /1303 10271 20225 30080 40112 50002 60001
AAXX 1306/ 68902 46/// ///// 40195 57007
AAXX 13064 78397 112570 70104 10257 20227 30118 40134 60001 81802 333 00909 10324 20242 58016 81822 87070
AAXX 13064 DUPE
BBXX BAREU56 13064 99444 10089 46/// ///// 40162 22200
BBXX BAREU60 13064 99436 10135 46/// ///// 40169 52035 22252
BBXX 61001 13064 99434 10078 46/// /2411 1//// 2//// 40156 5//// 22200 00153 10603 70016
BBXX BATFR41 13064 99431 10059 46/// ///// 10115 20000 40174 55003 22200
BBXX BATFR21 13064 99427 10089 46/// /2328 20087 40170 50003 22222
BBXX BATFR24 13064 99427 10095 44/98 02506 10149 20010 40166 53003 70000 22251 00167 20502 6/00/
BBXX BATFR50 13064 99425 10079 46/// /2920 10149 20077 40170 51010 22231 00167
BBXX 61002 13064 99421 10047 46/// ///16 10147 2//// 40184 57016 22200 00161 10402 70008
BBXX BATFR20 13064 99414 10094 46/// /0417 10144 20052 40175 58016 22284
BBXX BATFR09 13064 99408 10142 44497 32922 10157 20072 40159 70211 83200 22253 00185 20204 60//0 ICE 0/0//
BBXX ZCDD6 13063 99375 10061 41/98 32818 10150 20141 40233 50000 70122 8318/ 22264 00150 299// 327// 40302 5//// 80145
BBXX BATFR11 13064 99372 10049 46/// /2705 10157 20107 40246 55003 22224 00180
BBXX WDE8264 13063 99371 10038 41398 33305 10170 20154 40250 56008 70200 8216/ 22224 00190 20202 3//// 4//// 5//// 6//// 80160 ICE /////
BBXX BAREU62 13064 99366 10211 46/// ///// 40204 57005 22264
BBXX DGWD2 13063 99364 10147 41498 23109 10169 20124 40192 52002 70200 8114/ 22223 00190 2//02 80142
BBXX NWS0020 13064 99361 10204 43/// /2314 10173 20120 40203 5//// 7//// 8//// 222// 04204 2//// 3//// 4//// 5//// 6//// 8//// ICE /////
BBXX A8PX4 13064 99336 10249 41/98 82110 10172 20102 40228 53008 70222 8111/ 22264 00199 2//// 80132
BBXX AUTQ 13064 99330 10268 42398 71156 10170 20138 40196 51024 87101 22264 00210
BBXX MDGV9 13064 99560 70023 41298 32327 10060 20048 49695 54000 70200 836// 22200 10702 70010 80055
AAXX 13063 63630 32975 33025 10235 20168 3//// 48/// 810413/3 20187 5//// 81360 83080 5/5 10192
AAXX 13063 63680 32560 83210 10203 20169 38835 8493/ 3/3 20170 58010 84820 81922 88360 5/5 10180
AAXX 13063 63726 31901 90000 10148 20143 38140 48495 74544 89/// 3/3 20125 55/// 59003 89/// 5/5 10145
AAXX 13063 63658 38980 40205 10236 20160 38879 48511 80005 3/3 20184 58003 84280 5/5 10188
AAXX 13061 11101 12560 51502 10032 21035 39622 40156 57023 69902 83531 333 10054 20006 83625 91115 91115
AAXX 13061 40001 32970 03601 10039 21003 40255 53011 333 20011 30///
AAXX 13061 40007 11915 62602 10039 20030 40271 52013 69922 71000 86030 333 20010 31/// 50064 86360
AAXX 13061 40025 32960 60603 10086 20041 40231 52004 80002 333 20066 30/// 86070
AAXX 13061 40045 32970 43403 10022 21008 40261 55000 84040 333 20001 30/// 84360
AAXX 13061 40061 32570 60000 10020 21008 40258 52008 81530 333 20010 30/// 50044 81630 85360
AAXX 13061 40080 32970 30000 10000 21044 39522 40259 52012 80001 333 21025 30/// 83070
AAXX 13061 40087 NIL
AAXX 13061 40095 NIL
AAXX 13061 40009 NIL
AAXX 13061 40016 32970 02902 10005 21009 40283 53009 333 20000 31/// 55083
AAXX 13061 40022 32965 20000 10092 20050 40225 53006 80002 222// 20000 333 20074 30/// 82070
AAXX 13061 40030 32570 30000 10041 20021 40255 52010 83500 333 20030 31/// 50024 55064 83830
AAXX 13061 40039 32970 20000 10020 20010 40256 51014 82050 333 20005 30/// 55064 70000 82360
AAXX 13061 40066 32570 20602 10102 21013 40226 53013 82400 333 20098 30/// 82626
AAXX 13061 40072 32970 00000 10034 21020 40273 53008 333 20000 30///
AAXX 13061 40083 32970 00000 10032 21044 48530 52007 333 20015 30///
BBXX BATFR04 13064 99598 70107 44398 81514 10054 20022 49559 56014 70022 887// 22200 00102 318// 40508 5////
BBXX AMOUK19 13064 99598 70011 46/// ///// 10070 20043 39602 49604 57053 90550
BBXX 64045 13064 99591 70117 46/// /0712 10053 20028 49538 57016 22200 00101 10913 70064
BBXX 62112 13064 99584 70002 47598 /2326 10070 20025 49638 56027 700// 22200
BBXX 62113 13064 99584 10002 47598 /2124 10074 20035 49648 57030 700// 22200
BBXX 62129 13064 99584 10003 46/// ///// 10074 20031 49651 56027 22200
BBXX 62114 13064 99583 10000 46/// /2227 10074 20030 49637 56033 22200
BBXX AMOUK27 13064 99582 70064 46/// ///// 1//// 2//// 39599 49603 57027 90550
BBXX PJAI 13064 99581 70014 47598 /2326 10075 20014 49637 57014 700// 22200
BBXX 62111 13064 99580 70003 46/// /2429 10068 20022 49660 58006 22200 10708 70041
BBXX 62117 13064 99579 10000 47597 /2330 10072 20032 49652 56024 700// 22200 10708 70040
BBXX MGSG6 13063 99578 70001 41598 32025 10070 20021 49652 57050 70111 82285 22283 04163 20404 320// 40506 5//// 80050
BBXX BATUK01 13064 99577 70062 46/// /2021 10065 20004 49606 58028 22281 00112
BBXX MINUK01 1306/ 99574 70018 46/// ///// 10045 49641 52007
BBXX AMOUK21 13064 99564 70055 46/// ///// 10039 20016 39670 49670 57023 90550
BBXX 62105 13064 99554 70122 46/// /2541 10068 20046 49594 58020 22200 00108 11328 70141 333 90710 91160
BBXX AMOUK14 13064 99533 70062 46/// ///// 10038 21005 39759 49795 54002 90550
BBXX 62095 13064 99531 70159 46/// /2530 10057 20034 49802 52006 22200 00115 11017 70087 333 90710 91156
BBXX 62301 13064 99524 70047 46/// /2630 10084 20014 49824 53007 22200 00101 10607 70034 333 90710 91144
BBXX 62094 13064 99517 70067 46/// /2632 10080 20027 49852 53011 22200 00113 10710 70052 333 90710 91145
BBXX 62303 13064 99516 70051 46/// /2729 10086 20031 49850 52014 22200 00118 10710 70052 333 90710 91143
BBXX 62023 13063 99514 70079 46/97 /2543 10060 2//// 49868 5//// 22200 10812 70061 333 91173 555 70094 80018
BBXX 62081 13064 99510 70134 46/// ///// 10071 20031 49886 53010 22200 00120 11018 70091
BBXX 62081 13064 99510 70133 46/// ///// 10069 20029 49884 53013 22200 00119 11018 70091
BBXX AMOUK06 13064 99509 70014 46/// ///// 10104 20053 39856 49879 54002 90550
BBXX BATFR02 13064 99508 70011 46/// /2532 10107 20059 49887 55023 22283 00112
BBXX BATFR42 13064 99507 70019 46/// /2825 10094 20037 49884 55017 22272 00127
BBXX 62305 13064 99504 10000 46/95 /2639 10113 20084 49903 53004 22200 00127 10808 70038 333 90710 91159
BBXX AMOUK09 13064 99504 10003 46/// ///// 10109 20105 39877 49895 57004 90550
BBXX 2AQK9 13064 99503 70001 41296 73031 10130 20111 49907 53008 72022 8777/ 22223 20403 325// 40504 5//// 80120
BBXX AMOUK08 13064 99501 70061 46/// ///// 10096 20029 39905 49913 52017 90550
BBXX 62103 13064 99499 70029 46/98 /2935 10117 20062 49896 53009 22200 00130 10910 70048 333 90710 91150
BBXX WDC6736 13064 99499 70028 43/// /2544 10120 2006/ 49890 52005 7//// 8//// 22211 00150 2//// 3//// 4//// 5//// 6//// 80090
BBXX 62027 13064 99491 70022 46/// /2725 1//// 2//// 49932 55011 22200 00122 10907 324// 70034 333 90710 91137
BBXX 62442 13064 99490 70164 46/// /2835 1//// 2//// 49972 50002 22200 00129 333 90710 91154
BBXX BATFR27 13064 99490 70024 46/// /2641 10119 20055 49942 53050 22243 00134
BBXX 62029 13064 99487 70125 46/// /2728 10089 20045 49970 53010 22200 00136 11016 70078 333 90710 91154
BBXX VRYO3 13064 99484 70221 46/// /2619 10071 20079 40015 58016 7//// 8//// 22224 00126 2////
BBXX WDD6126 13064 99480 70111 41298 72737 10100 2004/ 49996 52003 72166 8727/ 22214 00120 20512 328// 40615 5//// 6//// 80070 ICE /////
BBXX 62163 13064 99475 70084 46/// /2728 10116 20057 40002 51021 22200 00132 10913 70063 333 90710 91141
BBXX LADQ4 13064 99469 70104 41497 52544 10120 2102/ 40037 52007 75052 852/1 22213 00140 21310 327// 41711 80060
BBXX MCUV3 13063 99461 70170 41497 72128 10095 20063 40082 57001 70252 83568 22223 2//14 32520 4//14 5//16 80080
BBXX A8AX3 13063 99461 70076 41/97 52634 10143 40048 56028 70011 8//// 22252 20608 330// 40810
BBXX 62001 13064 99452 70050 46/// /2332 10154 20119 40060 57020 22200 00150 11017 70083 333 90710 91149
BBXX DBBH 13061 99442 70095 41/95 82419 10138 20122 40100 55000 76366 88/// 22241 04145
BBXX DFUX2 13063 99438 70093 41/97 82244 10180 20131 40102 57060 75822 8//// 22214 00140 2//// 80150
BBXX PBEO 13063 99427 70097 41597 82320 10160 20134 40158 57034 70222 8//// 22282 02155 20402 328// 41005 80144
BBXX LAVW4 13064 99421 70115 41696 82534 00/// 10165 2014/ 40145 54000 70221 888// 22253 00146 21612 325// 41712 5//// 6//// ICE//
BBXX DPLE 13063 99415 70296 41/98 52820 10125 20078 40235 50005 70122 8//// 22200 00160 20505 80100
BBXX SKWI 13064 99415 70168 43/98 73028 10148 40178 53010 22263 00170 2//// 4////
BBXX BATFR54 13064 99415 70101 46/// /2130 10152 20137 40176 58007 22243 00157
BBXX WKPN 13064 99381 70162 41497 72718 10165 2013/ 40250 54000 70222 878// 22235 00200 20504 332// 41208 5//// 6//// 80145 ICE /////
BBXX C6CU6 13063 99379 70229 41598 52725 10160 20124 40260 56020 70211 83145 22253 04170 20801 332// 41506 5//// 80140
BBXX BAREU05 13064 99375 70094 46/// ///// 40256 57012 22283
BBXX TBWUK35 13064 99374 70098 41597 82518 10174 20148 40247 53010 78085 888// 22244 00190 20202 80159
BBXX A8RL4 13063 99370 70126 41/97 /2619 10170 40250 52011 7//// 8//// 22244 04180 20302 334// 40607
BBXX BATFR15 13064 99369 70199 44598 22817 10177 20149 40254 55002 70200 811/1 22253 00197 20302 336// 41208 5////
BBXX DDIG2 13064 99368 70272 41598 52719 10170 20153 40270 54000 7//22 855// 22254 04170 20502 330// 41205 80160
BBXX A8OZ4 13064 99366 70009 43598 42324 10170 20140 40230 56020 7//// 84/// 22264 00170 2//// 3//// 4//// 5//// 80130
BBXX A8MW6 13064 99363 70077 41598 73506 10170 20119 40260 57005 70322 8/8// 22262 00210 2//// 330// 4//01 5//// 80140
BBXX WBDS 13063 99363 70028 43498 52715 10150 2012/ 40260 57010 7//// 851// 22264 00172 20302 3//// 4//// 5//// 6//// 80130 ICE /////
BBXX DDZA2 13064 99362 70037 41/98 22716 10155 20102 40240 57005 70322 8//// 22263 04170 2//// 80125
BBXX PDYI 13063 99361 70070 41/99 73110 10170 20119 40260 55000 70322 8//// 22263 20201 33200 41403 5//// 80140
BBXX VRGJ6 13063 99361 70037 41998 02509 10152 20094 40248 57005 70200 80000 22224 04171 20101 325// 40402 5//// 80122
BBXX A8UT7 13064 99360 70127 41598 32815 10180 20148 40240 54000 70200 82444 22283 20703 333// 41010 80160
BBXX BATFR46 13064 99357 70061 44/97 41410 10145 20122 40267 55002 703// 84/// 22213 00177
BBXX MHNL6 13063 99356 70176 41498 62903 10180 20163 40270 54000 70222 85770 22223 2//// 3//// 4//// 5//// 80170
BBXX WQVY 13064 99350 70192 41799 73513 10170 2012/ 40270 5//// 71522 87/3/ 22264 0//// 20802 335// 41708 5//// 6//// 80140 ICE /////
AAXX 13061 59158 32662 83501 10230 20161 30060 40160 56020 885//
AAXX 13061 59562 11558 80102 10219 20200 30155 40166 57021 60041 76165 8352/
AAXX 13061 59567 11258 80106 10195 20195 39777 40155 57024 60011 71062 885//
AAXX 13061 58968 11556 81005 10187 20168 30176 40184 57029 69901 71062 886//
AAXX 13061 58974 32460 80508 10186 20146 30071 40195 57023 8752/
AAXX 13061 59358 11630 80301 10224 20178 30134 40165 57025 69951 71062 885//
AAXX 13061 59559 11568 80104 10225 20191 30128 40156 57017 60011 70262 8552/
AAXX 13061 59792 32460 80410 10219 20194 30150 40155 57022 8542/
AAXX 13064 41258 36/// /2205 10241 20165 30187 40192 333 0E/// 20220 58013
BBXX A8GH5 13063 99366 70088 41/97 /3216 10170 20127 40265 54000 70200 8//// 22264 20402 332// 40806 80144
AAXX 13064 71545 16/// ///// 11065 21100 60001 333 11036 21100 70004
AAXX 13064 71475 16/// /3205 11014 21018 30115 40210 56006 60001 333 11008 21027 70000
AAXX 13064 71424 46/// /2307 6///1 333 7//// 555 32326 40071
AAXX 13064 63980 11482 53408 10300 20235 40109 60364 70281 85832 333 20245 50200 55049 58001 83816 83075 943// 91116
AAXX 13064 60514 11960 20000 10065 20048 39339 48552 58001 60004 700// 82500 333 05100 20061 82626 95990
AAXX 13064 60461 13970 32410 10130 20102 40255 56003 60004 700// 80002 222// 20000 333 20128 83073 91828 95990
AAXX 13064 91844 46/// /0000 10265 40139 22200 00279
AAXX 13064 71475 16/// /3205 11014 21018 30115 40210 56006 60001 333 11008 21027 70000
AAXX 13064 71424 46/// /2307 6///1 333 7//// 555 32326 40071
AAXX 13064 71545 16/// ///// 11065 21100 60001 333 11036 21100 70004
AAXX 13064 60107 32960 02004 10090 20062 40266 57004 333 20087 30007
AAXX 13064 41257 36/// /9902 10209 20160 39720 40210 333 0E014 20150 58013
AAXX 13064 41287 36/// /3407 10218 20161 30151 40220 333 0E017 20145 58011
AAXX 1306/ 89872 46/// ///// 11036 39774 4//// 5//// 90610
AAXX 1306/ 89866 46/// ///// 11053 39714 4//// 5//// 90610
AAXX 1306/ 89769 46/// ///// 11041 39799 4//// 5//// 90610
AAXX 1306/ 89879 46/// ///// 11011 39673 4//// 5//// 90610
BBXX 62303 13064 99516 70051 46/// /2729 10086 20031 49850 52014 22200 00118 10710 70052 333 90710 91143
BBXX 62105 13064 99554 70122 46/// /2541 10068 20046 49594 58020 22200 00108 11328 70141 333 90710 91160
BBXX AMOUK08 13064 99501 70061 46/// ///// 10096 20029 39905 49913 52017 90550
BBXX PJGO 13064 99571 10022 47298 /2416 10058 20044 49691 56037 700// 22200
BBXX 63106 13064 99610 10017 46/// /1434 10065 49674 57072 22200
BBXX 63105 13064 99610 10017 47496 ///// 10063 20035 49680 57067 761// 22200
BBXX 62094 13064 99517 70067 46/// /2632 10080 20027 49852 53011 22200 00113 10710 70052 333 90710 91145
BBXX 62103 13064 99499 70029 46/98 /2935 10117 20062 49896 53009 22200 00130 10910 70048 333 90710 91150
BBXX 62305 13064 99504 10000 46/95 /2639 10113 20084 49903 53004 22200 10808 70038 333 90710 91159
BBXX AMOUK04 13064 99533 70062 46/// ///// 10034 2//// 39786 4//// 52032 90550
AAXX 13064 41184 41957 32502 10230 20165 40190 70600 333 20140 58005 83070
AAXX 13064 41194 11957 32204 10212 20158 30194 40199 60001 70500 80001 333 20172 58008 83075
AAXX 13064 41196 41140 31403 10211 20155 30162 40202 70500 80001 333 20132 30012 58008 83075
AAXX 13064 41198 42960 52704 10246 20149 40197 80001 333 20177 58011 85070
AAXX 13064 41217 41957 41202 10230 20171 30164 40193 70500 80001 333 20167 30014 58007 84075
AAXX 13064 41218 41930 50000 10184 20157 39889 40200 70541 80002 333 20159 30017 58005 85075
AAXX 13064 41258 36/// /2205 10241 20165 30187 40192 333 0E/// 20220 58013
BBXX A8OU4 13064 99442 11627 41598 42712 10050 21037 40000 57020 77011 82469 22224 00100 20908 329// 40810 5//// 80020
BBXX VRDN3 13064 99212 11139 41/97 80320 00/// 10220 20160 40190 57020 70222 88/2/ 22254 00210 20604 308// 40805 5//// 6//// 80180
BBXX FLAO 1306/ 99764 70847 46/// ///// 11263 40041 52008
BBXX WCPU 13064 99286 70934 41/// 70918 10172 20154 40255 50001 71122 8//// 22272 0//// 2//// 3//// 4//// 5//// 6//// 80161 ICE /////
BBXX A8GH5 13063 99366 70088 41/97 /3216 10170 20127 40265 54000 70200 8//// 22264 20402 332// 40806 80144
BBXX BSH02 13061 99542 10079 46/// ///// 22200 00078 20706 70029
BBXX BSH05 13061 99550 10079 46/// ///// 22200 20805 70025
BBXX BSH03 13061 99540 10081 46/// ///// 22200 00066 1//04 70022
BBXX MDGV9 13064 99560 70023 41298 32327 10060 20048 49695 54000 70200 836// 22200 10702 70010 80055
BBXX MINUK05 1306/ 99603 70043 46/// ///// 10055 49567 57059
OOXX AUP07 13041 99/// ///// ///// ///// 26/// /3108 10073 29081 30049 90457 333 60000
OOXX AUP07 13051 99/// ///// ///// ///// 26/// /3207 10076 29082 30051 90507 333 60000
OOXX AUP07 13051 99/// ///// ///// ///// 26/// /3207 10075 29081 30053 90517 333 60000
OOXX AUP07 13051 99/// ///// ///// ///// 26/// /3307 10074 29082 30054 90527 333 60000
OOXX AUP07 13051 99/// ///// ///// ///// 26/// /3408 10073 29082 30055 90537 333 60000
OOXX AUP07 13051 99/// ///// ///// ///// 26/// /3408 10074 29082 30056 90547 333 60000
OOXX AUP07 13051 99/// ///// ///// ///// 26/// /3408 10076 29082 30057 90557 333 60000
OOXX AUP07 13061 99/// ///// ///// ///// 26/// /3408 10075 29082 30058 90607 333 60000
OOXX AUP07 13061 99/// ///// ///// ///// 26/// /3508 10074 29082 30059 90617 333 60000
OOXX AUP07 13061 99/// ///// ///// ///// 26/// /0108 10071 29084 30060 90627 333 60000
OOXX AUP07 13061 99/// ///// ///// ///// 26/// /3508 10073 29084 30061 90637 333 60000
OOXX AUP07 13061 99/// ///// ///// ///// 26/// /3407 10074 29082 30062 90647 333 60000
OOXX MRP43 13041 99181 70159 ///// 00101 26/// /0402 10217 29015 30137 90440 333 60000
OOXX MRP43 13041 99181 70159 ///// 00101 26/// /0403 10217 29015 30138 90450 333 60000
OOXX MRP43 13051 99181 70159 ///// 00101 26/// /0202 10210 29016 30138 90500 333 60000
OOXX MRP43 13051 99181 70159 ///// 00101 26/// /3602 10203 29017 30139 90510 333 60000
OOXX MRP43 13051 99181 70159 ///// 00101 26/// /3602 10201 29017 30139 90520 333 60000
OOXX MRP43 13051 99181 70159 ///// 00101 26/// /3602 10199 29017 30140 90530 333 60000
OOXX MRP43 13051 99181 70159 ///// 00101 26/// /3502 10199 29017 30142 90540 333 60000
OOXX MRP43 13051 99181 70159 ///// 00101 26/// /3301 10197 29018 30144 90550 333 60000
OOXX MRP43 13061 99181 70159 ///// 00101 26/// /3502 10196 29018 30142 90600 333 60000
OOXX MRP43 13061 99181 70159 ///// 00101 26/// /3601 10194 29018 30143 90610 333 60000
OOXX MRP43 13061 99181 70159 ///// 00101 26/// /0302 10194 29018 30143 90620 333 60000
OOXX MRP43 13061 99181 70159 ///// 00101 26/// /0302 10196 29018 30144 90630 333 60000
OOXX AUP04 13051 99377 31451 ///// 00311 26/// /2003 10166 29046 30098 90506 333 60000
OOXX AUP04 13051 99377 31451 ///// 00311 26/// /2103 10170 29044 30098 90516 333 60000
OOXX AUP04 13051 99377 31451 ///// 00311 26/// /2103 10171 29044 30099 90526 333 60000
OOXX AUP04 13051 99377 31451 ///// 00311 26/// /2103 10167 29043 30099 90536 333 60000
OOXX AUP04 13051 99377 31451 ///// 00311 26/// /2003 10167 29044 30099 90546 333 60000
OOXX AUP04 13051 99377 31451 ///// 00311 26/// /2003 10166 29043 30099 90556 333 60000
OOXX AUP04 13061 99377 31451 ///// 00311 26/// /1803 10164 29043 30099 90606 333 60000
OOXX AUP04 13061 99377 31451 ///// 00311 26/// /1703 10166 29042 30099 90616 333 60000
OOXX AUP04 13061 99377 31451 ///// 00311 26/// /1903 10166 29043 30099 90626 333 60000
OOXX AUP04 13061 99377 31451 ///// 00311 26/// /2103 10167 29045 30099 90636 333 60000
OOXX AUP04 13061 99377 31451 ///// 00311 26/// /2003 10171 29045 30100 90646 333 60000
OOXX AUP04 13061 99377 31451 ///// 00311 26/// /1803 10162 29046 30101 90656 333 60000
OOXX RUP59 13041 99539 10848 ///// 02121 26/// /0000 11182 29076 30024 90440 333 60000
OOXX RUP59 13041 99539 10848 ///// 02121 26/// /0000 11166 29070 30027 90450 333 60000
OOXX RUP59 13051 99539 10848 ///// 02121 26/// /0000 11154 29069 30028 90500 333 60000
OOXX RUP59 13051 99539 10848 ///// 02121 26/// /0000 11150 29066 30030 90510 333 60000
OOXX RUP59 13051 99539 10848 ///// 02121 26/// /0000 11139 29068 30029 90520 333 60000
OOXX RUP59 13051 99539 10848 ///// 02121 26/// /0102 11113 29062 30030 90530 333 60000
OOXX RUP59 13051 99539 10848 ///// 02121 26/// /3602 11109 29061 30030 90540 333 60000
OOXX RUP59 13051 99539 10848 ///// 02121 26/// /3401 11104 29058 30029 90550 333 60000
OOXX RUP59 13061 99539 10848 ///// 02121 26/// /3502 11103 29057 30028 90600 333 60000
OOXX RUP59 13061 99539 10848 ///// 02121 26/// /3502 11102 29056 30029 90610 333 60000
OOXX RUP59 13061 99539 10848 ///// 02121 26/// /3602 11102 29056 30029 90620 333 60000
OOXX RUP59 13061 99539 10848 ///// 02121 26/// /0102 11103 29056 30030 90630 333 60000
OOXX SEP63 13041 99594 10180 ///// 00401 26/// /0602 10032 29091 39910 90410 333 60000
OOXX SEP63 13041 99594 10180 ///// 00401 26/// /0802 10033 29091 39910 90420 333 60000
OOXX SEP63 13041 99594 10180 ///// 00401 26/// /0503 10033 29090 39910 90430 333 60000
OOXX SEP63 13041 99594 10180 ///// 00401 26/// /0202 10035 29090 39910 90440 333 60000
OOXX SEP63 13041 99594 10180 ///// 00401 26/// /0503 10035 29090 39910 90450 333 60000
OOXX SEP63 13051 99594 10180 ///// 00401 26/// /0903 10036 29089 39910 90500 333 60000
OOXX SEP63 13051 99594 10180 ///// 00401 26/// /0303 10036 29089 39910 90510 333 60000
OOXX SEP63 13051 99594 10180 ///// 00401 26/// /0403 10036 29089 39910 90520 333 60000
OOXX SEP63 13051 99594 10180 ///// 00401 26/// /0303 10035 29089 39910 90530 333 60000
OOXX SEP63 13051 99594 10180 ///// 00401 26/// /0603 10035 29089 39910 90540 333 60000
OOXX SEP63 13051 99594 10180 ///// 00401 26/// /0702 10035 29089 39910 90550 333 60000
OOXX SEP63 13061 99594 10180 ///// 00401 26/// /0603 10034 29089 39910 90600 333 60000
OOXX ARP01 13041 99345 50585 ///// 00311 26/// /2302 10083 29030 30111 90420 333 60000
OOXX ARP01 13041 99345 50585 ///// 00311 26/// /2302 10081 29030 30110 90430 333 60000
OOXX ARP01 13041 99345 50585 ///// 00311 26/// /2301 10079 29031 30111 90440 333 60000
OOXX ARP01 13041 99345 50585 ///// 00311 26/// /2302 10078 29031 30110 90450 333 60000
OOXX ARP01 13051 99345 50585 ///// 00311 26/// /2302 10078 29031 30109 90500 333 60000
OOXX ARP01 13051 99345 50585 ///// 00311 26/// /2302 10076 29031 30109 90510 333 60000
OOXX ARP01 13051 99345 50585 ///// 00311 26/// /2302 10075 29032 30109 90520 333 60000
OOXX ARP01 13051 99345 50585 ///// 00311 26/// /2301 10075 29032 30109 90530 333 60000
OOXX ARP01 13051 99345 50585 ///// 00311 26/// /2301 10075 29033 30109 90540 333 60000
OOXX ARP01 13051 99345 50585 ///// 00311 26/// /2302 10074 29033 30109 90550 333 60000
OOXX ARP01 13061 99345 50585 ///// 00311 26/// /2302 10073 29033 30109 90600 333 60000
OOXX KIP39 13041 99020 51574 ///// 00181 26/// /1103 10257 29074 30098 90430 333 60000
OOXX KIP39 13041 99020 51574 ///// 00181 26/// /1103 10256 29075 30096 90440 333 60000
OOXX KIP39 13041 99020 51574 ///// 00181 26/// /1103 10260 29076 30098 90450 333 60000
OOXX KIP39 13051 99020 51574 ///// 00181 26/// /1203 10255 29076 30099 90500 333 60000
OOXX KIP39 13051 99020 51574 ///// 00181 26/// /1203 10254 29077 30101 90510 333 60000
OOXX KIP39 13051 99020 51574 ///// 00181 26/// /1104 10256 29076 30100 90520 333 60000
OOXX KIP39 13051 99020 51574 ///// 00181 26/// /1204 10256 29076 30100 90530 333 60000
OOXX KIP39 13051 99020 51574 ///// 00181 26/// /1104 10256 29076 30102 90540 333 60000
OOXX KIP39 13051 99020 51574 ///// 00181 26/// /1104 10257 29075 30102 90550 333 60000
OOXX KIP39 13061 99020 51574 ///// 00181 26/// /1104 10256 29076 30104 90600 333 60000
OOXX KIP39 13061 99020 51574 ///// 00181 26/// /1104 10258 29076 30104 90610 333 60000
OOXX KIP39 13061 99020 51574 ///// 00181 26/// /1005 10259 29076 30106 90620 333 60000
OOXX RUP58 13041 99442 11320 ///// 01121 26/// /2203 11058 29047 30098 90442 333 60000
OOXX RUP58 13041 99442 11320 ///// 01121 26/// /2202 11054 29046 30095 90452 333 60000
OOXX RUP58 13051 99442 11320 ///// 01121 26/// /2603 11055 29047 30095 90502 333 60000
OOXX RUP58 13051 99442 11320 ///// 01121 26/// /2303 11057 29044 30095 90512 333 60000
OOXX RUP58 13051 99442 11320 ///// 01121 26/// /2603 11056 29044 30096 90522 333 60000
OOXX RUP58 13051 99442 11320 ///// 01121 26/// /2502 11054 29043 30093 90532 333 60000
OOXX RUP58 13051 99442 11320 ///// 01121 26/// /2302 11056 29044 30092 90542 333 60000
OOXX RUP58 13051 99442 11320 ///// 01121 26/// /2603 11054 29042 30092 90552 333 60000
OOXX RUP58 13061 99442 11320 ///// 01121 26/// /2603 11056 29042 30090 90602 333 60000
OOXX RUP58 13061 99442 11320 ///// 01121 26/// /2403 11056 29044 30090 90612 333 60000
OOXX RUP58 13061 99442 11320 ///// 01121 26/// /2602 11056 29045 30089 90622 333 60000
OOXX RUP58 13061 99442 11320 ///// 01121 26/// /2403 11057 29043 30090 90632 333 60000
OOXX NZP46 13041 99438 51765 ///// 00221 26/// /0307 10162 29065 30272 90430 333 60000
OOXX NZP46 13041 99438 51765 ///// 00221 26/// /0408 10159 29069 30271 90440 333 60000
OOXX NZP46 13041 99438 51765 ///// 00221 26/// /0408 10157 29070 30270 90450 333 60000
OOXX NZP46 13051 99438 51765 ///// 00221 26/// /0408 10157 29071 30271 90500 333 60000
OOXX NZP46 13051 99438 51765 ///// 00221 26/// /0308 10156 29071 30271 90510 333 60000
OOXX NZP46 13051 99438 51765 ///// 00221 26/// /0407 10156 29071 30271 90520 333 60000
OOXX NZP46 13051 99438 51765 ///// 00221 26/// /0408 10153 29071 30270 90530 333 60000
OOXX NZP46 13051 99438 51765 ///// 00221 26/// /0407 10153 29072 30270 90540 333 60000
OOXX NZP46 13051 99438 51765 ///// 00221 26/// /0408 10151 29072 30270 90550 333 60000
OOXX NZP46 13061 99438 51765 ///// 00221 26/// /0408 10150 29073 30270 90600 333 60000
OOXX NZP46 13061 99438 51765 ///// 00221 26/// /0407 10148 29073 30271 90610 333 60000
OOXX NZP46 13061 99438 51765 ///// 00221 26/// /0407 10146 29074 30272 90620 333 60000
OOXX RUP54 13041 99586 10494 ///// 01271 26/// /0303 11109 29092 30075 90427 333 60120
OOXX RUP54 13041 99586 10494 ///// 01271 26/// /0302 11108 29092 30076 90437 333 60120
OOXX RUP54 13041 99586 10494 ///// 01271 26/// /0302 11108 29092 30077 90447 333 60120
OOXX RUP54 13041 99586 10494 ///// 01271 26/// /0203 11108 29092 30078 90457 333 60120
OOXX RUP54 13051 99586 10494 ///// 01271 26/// /0402 11108 29092 30080 90507 333 60120
OOXX RUP54 13051 99586 10494 ///// 01271 26/// /0403 11108 29092 30082 90517 333 60120
OOXX RUP54 13051 99586 10494 ///// 01271 26/// /0402 11108 29092 30082 90527 333 60120
OOXX RUP54 13051 99586 10494 ///// 01271 26/// /0403 11107 29092 30083 90537 333 60120
OOXX RUP54 13051 99586 10494 ///// 01271 26/// /0402 11107 29092 30084 90547 333 60120
OOXX RUP54 13051 99586 10494 ///// 01271 26/// /0403 11107 29092 30085 90557 333 60120
OOXX RUP54 13061 99586 10494 ///// 01271 26/// /0403 11106 29092 30086 90607 333 60120
OOXX RUP54 13061 99586 10494 ///// 01271 26/// /0302 11106 29092 30087 90617 333 60120
OOXX RUP60 13041 99531 11588 ///// 00651 26/// /3303 11080 29056 39842 90452 333 60000
OOXX RUP60 13051 99531 11588 ///// 00651 26/// /3202 11082 29057 39841 90502 333 60000
OOXX RUP60 13051 99531 11588 ///// 00651 26/// /3302 11084 29058 39842 90512 333 60000
OOXX RUP60 13051 99531 11588 ///// 00651 26/// /3302 11089 29059 39842 90522 333 60000
OOXX RUP60 13051 99531 11588 ///// 00651 26/// /3103 11093 29060 39842 90532 333 60000
OOXX RUP60 13051 99531 11588 ///// 00651 26/// /3201 11091 29060 39843 90542 333 60000
OOXX RUP60 13051 99531 11588 ///// 00651 26/// /3101 11092 29060 39843 90552 333 60000
OOXX RUP60 13061 99531 11588 ///// 00651 26/// /3202 11093 29060 39844 90602 333 60000
OOXX RUP60 13061 99531 11588 ///// 00651 26/// /3202 11094 29060 39844 90612 333 60000
OOXX RUP60 13061 99531 11588 ///// 00651 26/// /3001 11097 29060 39844 90622 333 60000
OOXX RUP60 13061 99531 11588 ///// 00651 26/// /2903 11097 29059 39844 90632 333 60000
OOXX RUP60 13061 99531 11588 ///// 00651 26/// /3103 11097 29059 39845 90642 333 60000
OOXX ISP34 13041 99641 70219 ///// 01301 26/// /1601 10002 29001 39678 90410 333 6///0
OOXX ISP34 13041 99641 70219 ///// 01301 26/// /2302 10004 29001 39677 90420 333 6///0
OOXX ISP34 13041 99641 70219 ///// 01301 26/// /2602 11006 29001 39676 90430 333 6///0
OOXX ISP34 13041 99641 70219 ///// 01301 26/// /0702 11003 29001 39677 90440 333 6///0
OOXX ISP34 13041 99641 70219 ///// 01301 26/// /1002 10005 29001 39677 90450 333 6///0
OOXX ISP34 13051 99641 70219 ///// 01301 26/// /0702 10001 29001 39677 90500 333 6///0
OOXX ISP34 13051 99641 70219 ///// 01301 26/// /0701 10002 29001 39678 90510 333 6///0
OOXX ISP34 13051 99641 70219 ///// 01301 26/// /0201 10001 29001 39677 90520 333 6///0
OOXX ISP34 13051 99641 70219 ///// 01301 26/// /2602 11002 29001 39675 90530 333 6///0
OOXX ISP34 13051 99641 70219 ///// 01301 26/// /2802 11018 29001 39674 90540 333 6///0
OOXX ISP34 13051 99641 70219 ///// 01301 26/// /3202 11019 29001 39673 90550 333 6///0
OOXX ISP34 13061 99641 70219 ///// 01301 26/// /2901 11019 29001 39674 90600 333 6///0
OOXX CKP23 13041 99212 51598 ///// 00051 26/// /0305 10269 29085 30128 90450 333 60000
OOXX CKP23 13051 99212 51598 ///// 00051 26/// /0305 10269 29084 30129 90500 333 60000
OOXX CKP23 13051 99212 51598 ///// 00051 26/// /0205 10268 29082 30129 90510 333 60000
OOXX CKP23 13051 99212 51598 ///// 00051 26/// /0204 10268 29081 30128 90520 333 60000
OOXX CKP23 13051 99212 51598 ///// 00051 26/// /0204 10267 29081 30128 90530 333 60000
OOXX CKP23 13051 99212 51598 ///// 00051 26/// /0204 10267 29083 30129 90540 333 60000
OOXX CKP23 13051 99212 51598 ///// 00051 26/// /0104 10266 29083 30130 90550 333 60000
OOXX CKP23 13061 99212 51598 ///// 00051 26/// /0104 10266 29084 30130 90600 333 60000
OOXX CKP23 13061 99212 51598 ///// 00051 26/// /0103 10266 29085 30130 90610 333 60000
OOXX CKP23 13061 99212 51598 ///// 00051 26/// /0103 10265 29085 30130 90620 333 60000
OOXX CKP23 13061 99212 51598 ///// 00051 26/// /0102 10264 29085 30131 90630 333 60000
OOXX CKP23 13061 99212 51598 ///// 00051 26/// /0102 10264 29085 30131 90640 333 60000
OOXX FJP26 13041 99178 31775 ///// 00311 26/// /1401 10251 29091 30068 90410 333 60000
OOXX FJP26 13041 99178 31775 ///// 00311 26/// /1201 10253 29092 30067 90420 333 60000
OOXX FJP26 13041 99178 31775 ///// 00311 26/// /1502 10256 29091 30066 90430 333 60000
OOXX FJP26 13041 99178 31775 ///// 00311 26/// /1202 10259 29090 30066 90440 333 60000
OOXX FJP26 13041 99178 31775 ///// 00311 26/// /1302 10259 29089 30068 90450 333 60000
OOXX FJP26 13051 99178 31775 ///// 00311 26/// /1202 10258 29089 30068 90500 333 60000
OOXX FJP26 13051 99178 31775 ///// 00311 26/// /1101 10259 29090 30068 90510 333 60000
OOXX FJP26 13051 99178 31775 ///// 00311 26/// /1002 10259 29089 30068 90520 333 60000
OOXX FJP26 13051 99178 31775 ///// 00311 26/// /0901 10260 29089 30067 90530 333 60000
OOXX FJP26 13051 99178 31775 ///// 00311 26/// /0701 10260 29089 30067 90540 333 60000
OOXX FJP26 13051 99178 31775 ///// 00311 26/// /0601 10260 29090 30067 90550 333 60000
OOXX FJP26 13061 99178 31775 ///// 00311 26/// /0802 10259 29090 30068 90600 333 60000
OOXX MXP44 13041 99280 71140 ///// 00041 26/// /1422 10150 29055 30117 90410 333 60000
OOXX MXP44 13041 99280 71140 ///// 00041 26/// /1422 10151 29055 30118 90420 333 60000
OOXX MXP44 13041 99280 71140 ///// 00041 26/// /1422 10150 29055 30118 90430 333 60000
OOXX MXP44 13041 99280 71140 ///// 00041 26/// /1422 10149 29055 30119 90440 333 60000
OOXX MXP44 13041 99280 71140 ///// 00041 26/// /1422 10149 29055 30120 90450 333 60000
OOXX MXP44 13051 99280 71140 ///// 00041 26/// /1422 10148 29055 30121 90500 333 60000
OOXX MXP44 13051 99280 71140 ///// 00041 26/// /1422 10146 29055 30120 90510 333 60000
OOXX MXP44 13051 99280 71140 ///// 00041 26/// /1422 10146 29055 30120 90520 333 60000
OOXX MXP44 13051 99280 71140 ///// 00041 26/// /1422 10145 29055 30119 90530 333 60000
OOXX MXP44 13051 99280 71140 ///// 00041 26/// /1422 10143 29055 30119 90540 333 60000
OOXX MXP44 13051 99280 71140 ///// 00041 26/// /1422 10143 29055 30119 90550 333 60000
OOXX MXP44 13061 99280 71140 ///// 00041 26/// /1422 10142 29055 30119 90600 333 60000
OOXX FRP28 13001 99163 70615 ///// 00091 26/// /0000 10243 29090 30162 90017 333 60000
OOXX FRP28 13001 99163 70615 ///// 00091 26/// /0000 10244 29091 30161 90027 333 60000
OOXX FRP28 13001 99163 70615 ///// 00091 26/// /0000 10243 29091 30161 90037 333 60000
OOXX FRP28 13001 99163 70615 ///// 00091 26/// /0000 10242 29091 30158 90047 333 60000
OOXX FRP28 13001 99163 70615 ///// 00091 26/// /0000 10241 29091 30156 90057 333 60000
OOXX FRP28 13011 99163 70615 ///// 00091 26/// /0000 10241 29091 30158 90107 333 60000
OOXX FRP28 13011 99163 70615 ///// 00091 26/// /0000 10240 29091 30155 90117 333 60000
OOXX FRP28 13011 99163 70615 ///// 00091 26/// /0000 10241 29091 30155 90127 333 60000
OOXX FRP28 13011 99163 70615 ///// 00091 26/// /0000 10239 29091 30150 90137 333 60000
OOXX FRP28 13011 99163 70615 ///// 00091 26/// /0000 10238 29091 30147 90147 333 60000
OOXX FRP28 13011 99163 70615 ///// 00091 26/// /0000 10238 29091 30150 90157 333 60000
OOXX FRP28 13021 99163 70615 ///// 00091 26/// /0000 10238 29091 30147 90207 333 60000
OOXX NOP49 13041 99782 10154 ///// 04691 26/// ///// 1//// 29/// 3//// 90410 333 6///0
OOXX NOP49 13041 99782 10154 ///// 04691 26/// ///// 1//// 29/// 3//// 90420 333 6///0
OOXX NOP49 13041 99782 10154 ///// 04691 26/// ///// 1//// 29/// 3//// 90430 333 6///0
OOXX NOP49 13041 99782 10154 ///// 04691 26/// ///// 1//// 29/// 3//// 90440 333 6///0
OOXX NOP49 13041 99782 10154 ///// 04691 26/// ///// 1//// 29/// 3//// 90450 333 6///0
OOXX NOP49 13051 99782 10154 ///// 04691 26/// ///// 1//// 29/// 3//// 90500 333 6///0
OOXX NOP49 13051 99782 10154 ///// 04691 26/// ///// 1//// 29/// 3//// 90510 333 6///0
OOXX NOP49 13051 99782 10154 ///// 04691 26/// ///// 1//// 29/// 3//// 90520 333 6///0
OOXX NOP49 13051 99782 10154 ///// 04691 26/// ///// 1//// 29/// 3//// 90530 333 6///0
OOXX NOP49 13051 99782 10154 ///// 04691 26/// ///// 1//// 29/// 3//// 90540 333 6///0
OOXX NOP49 13051 99782 10154 ///// 04691 26/// ///// 1//// 29/// 3//// 90550 333 6///0
OOXX NOP49 13061 99782 10154 ///// 04691 26/// ///// 1//// 29/// 3//// 90600 333 6///0
OOXX MYP42 13041 99045 11014 ///// 15551 26/// /3201 10220 29083 38444 90403 333 60000
OOXX MYP42 13041 99045 11014 ///// 15551 26/// /3103 10214 29082 38436 90413 333 60000
OOXX MYP42 13041 99045 11014 ///// 15551 26/// /3001 10212 29087 38431 90423 333 60000
OOXX MYP42 13041 99045 11014 ///// 15551 26/// /2901 10205 29089 38427 90433 333 60000
OOXX MYP42 13041 99045 11014 ///// 15551 26/// /3504 10204 29089 38444 90443 333 60000
OOXX MYP42 13041 99045 11014 ///// 15551 26/// /3401 10205 29089 38431 90453 333 60000
OOXX MYP42 13051 99045 11014 ///// 15551 26/// /3203 10212 29085 38438 90503 333 60000
OOXX MYP42 13051 99045 11014 ///// 15551 26/// /2401 10211 29087 38425 90513 333 60000
OOXX MYP42 13051 99045 11014 ///// 15551 26/// /3102 10216 29085 38427 90523 333 60000
OOXX MYP42 13051 99045 11014 ///// 15551 26/// /2901 10216 29079 38423 90533 333 60000
OOXX MYP42 13051 99045 11014 ///// 15551 26/// /3501 10237 29073 38436 90543 333 60000
OOXX MYP42 13051 99045 11014 ///// 15551 26/// /3303 10252 29072 38427 90553 333 60000
OOXX CAP14 13041 99487 71234 ///// 00431 26/// /0000 11033 29087 30132 90420 333 60000
OOXX CAP14 13041 99487 71234 ///// 00431 26/// /0000 11033 29088 30132 90430 333 60000
OOXX CAP14 13041 99487 71234 ///// 00431 26/// /2301 11015 29090 30131 90440 333 60000
OOXX CAP14 13041 99487 71234 ///// 00431 26/// /2501 11010 29086 30128 90450 333 60000
OOXX CAP14 13051 99487 71234 ///// 00431 26/// /2501 11016 29087 30128 90500 333 60000
OOXX CAP14 13051 99487 71234 ///// 00431 26/// /2701 11008 29085 30129 90510 333 60000
OOXX CAP14 13051 99487 71234 ///// 00431 26/// /2702 11004 29084 30129 90520 333 60000
OOXX CAP14 13051 99487 71234 ///// 00431 26/// /2601 11009 29084 30130 90530 333 60000
OOXX CAP14 13051 99487 71234 ///// 00431 26/// /2501 11010 29084 30130 90540 333 60000
OOXX CAP14 13051 99487 71234 ///// 00431 26/// /2501 11011 29084 30130 90550 333 60000
OOXX CAP14 13061 99487 71234 ///// 00431 26/// /2601 11008 29084 30130 90600 333 60000
OOXX CAP14 13061 99487 71234 ///// 00431 26/// /2901 10001 29080 30128 90610 333 60000
OOXX GBP67 13041 99159 50057 ///// 04381 26/// /0904 10147 29/// 39662 90410 333 60000
OOXX GBP67 13041 99159 50057 ///// 04381 26/// /0903 10147 29/// 39662 90420 333 60000
OOXX GBP67 13041 99159 50057 ///// 04381 26/// /1003 10149 29/// 39661 90430 333 60000
OOXX GBP67 13041 99159 50057 ///// 04381 26/// /1004 10150 29/// 39662 90440 333 60000
OOXX GBP67 13041 99159 50057 ///// 04381 26/// /1004 10148 29/// 39662 90450 333 60000
OOXX GBP67 13051 99159 50057 ///// 04381 26/// /1003 10148 29/// 39662 90500 333 60000
OOXX GBP67 13051 99159 50057 ///// 04381 26/// /0903 10148 29/// 39664 90510 333 60000
OOXX GBP67 13051 99159 50057 ///// 04381 26/// /1003 10148 29/// 39663 90520 333 60000
OOXX GBP67 13051 99159 50057 ///// 04381 26/// /1003 10149 29/// 39663 90530 333 60000
OOXX GBP67 13051 99159 50057 ///// 04381 26/// /1003 10148 29/// 39666 90540 333 60000
OOXX GBP67 13051 99159 50057 ///// 04381 26/// /0904 10148 29/// 39665 90550 333 60000
OOXX GBP67 13061 99159 50057 ///// 04381 26/// /0804 10146 29/// 39667 90600 333 60000
AAXX 13064 91559 46/// /0603 10294 40068 22200 00288
AAXX 13064 65001 31912 70206 10160 20086 3//// 4//// 70522 80008 333 20156 5//// 87280
AAXX 13064 65101 31910 72802 10180 20105 39728 40126 70522 80008 333 20160 58003 87280
AAXX 13064 65112 31920 72904 10196 20055 3//// 4//// 70522 80008 333 20193 5//// 87280
AAXX 13064 65123 11920 70718 10214 20008 30094 40123 60001 70522 80008 333 2//// 58013 87280
AAXX 13064 65124 31956 70000 10156 20112 3//// 4//// 70522 80008 333 2//// 5//// 87280
AAXX 13064 65210 31956 70000 10200 20140 3//// 4//// 70522 80008 333 20194 5//// 87280
AAXX 13064 65213 11330 71804 10190 20156 3//// 4//// 60001 70522 875// 333 20213 5//// 87607
AAXX 13064 65215 12956 70000 10167 20127 3//// 4//// 60001 80008 333 20150 5//// 87280
AAXX 13064 65222 31946 70000 10200 20130 3//// 4//// 70522 80008 333 20201 5//// 87280
AAXX 13064 71713 16/// /2309 10013 21024 60001 333 10020 21009 70000 555 32133 40102
AAXX 13064 71721 16/// /1703 10004 21008 30027 40278 58002 60001 333 10017 21058 70000
AAXX 13064 71723 16/// /2204 11007 21024 30275 40285 56007 60001 333 10035 21044 70000
AAXX 13064 71724 16/// /2203 11007 21023 30276 40284 56008 60001 333 10035 21028 70000 555 32220 40161
AAXX 13064 71373 16/// /1401 11032 21084 60001 333 10060 21048 70000 555 32019 40081
AAXX 13064 71425 16/// /0301 11025 21053 30252 40289 51001 60001 333 11001 21057 70060 555 31924 40071
AAXX 13061 11212 11/75 72303 11064 21071 37794 48475 51006 60152 71543 86571 333 21071 42008 817// 85627 92612 93107 444 56112 555 6996/
AAXX 13064 91531 46/// /0706 1//// 40055 22200 00278
BBXX 42039 13061 99288 70860 46/// /0609 10180 40252 54000 90550 22200 00231 333 91211 555 11094 22098
AAXX 13064 65001 31912 70206 10160 20086 3//// 4//// 70522 80008 333 20156 5//// 87280
AAXX 13064 65101 31910 72802 10180 20105 39728 40126 70522 80008 333 20160 58003 87280
AAXX 13064 65112 31920 72904 10196 20055 3//// 4//// 70522 80008 333 20193 5//// 87280
AAXX 13064 65123 11920 70718 10214 20008 30094 40123 60001 70522 80008 333 2//// 58013 87280
AAXX 13064 65124 31956 70000 10156 20112 3//// 4//// 70522 80008 333 2//// 5//// 87280
AAXX 13064 65210 31956 70000 10200 20140 3//// 4//// 70522 80008 333 20194 5//// 87280
AAXX 13064 65213 11330 71804 10190 20156 3//// 4//// 60001 70522 875// 333 20213 5//// 87607
AAXX 13064 65215 12956 70000 10167 20127 3//// 4//// 60001 80008 333 20150 5//// 87280
AAXX 13064 65222 31946 70000 10200 20130 3//// 4//// 70522 80008 333 20201 5//// 87280
BBXX A8OU4 13064 99442 11627 41598 42712 10050 21037 40000 57020 77011 82469 22224 00100 20908 329// 40810 5//// 80020
BBXX SHIP 13063 99301 11602 41598 82622 10235 20206 40130 54000 70252 885// 22254 00215 20404 329// 41005 80215
BBXX SHIP 13064 99333 11766 41297 82614 10190 20150 40179 55010 72166 88/// 22225 00197 20303 330// 40606 80165
AAXX 13064 17202 11419 72007 11045 21045 39263 40352 52011 60002 71011 87500 333 21070 3/108 43004 84712 86630
AAXX 13064 71667 16/// /3504 11041 21068 30048 40301 53007 60001 333 11030 21140 70000
AAXX 13064 71016 16/// ///// 11082 60001 333 11063 21136 7////
AAXX 13064 91642 46/// /0000 1//// 40083 22200 0////
AAXX 13064 08181 02580 72706 10062 20023 30191 40197 55005 60002 81878 333 20052 3/007 55029 60007 70000
AAXX 13061 01271 17/84 00804 11009 21058 39816 49837 57008 60002 700// 333 21040 43007 79999 91106
AAXX 13061 01415 17459 81410 10049 20024 39743 49753 58074 6//// 761// 333 20045 70090 91117
AAXX 13064 40310 32960 30000 10060 21015 38990 48527 52004 80002 333 20020 30102 83070
AAXX 13064 60686 12760 50000 10101 21044 40194 52002 60004 82532 333 00700 20101 82656
BBXX 3FPR9 13064 99228 71479 41597 81221 10220 20205 40160 53020 70222 8697/ 22214 04230 20506 309// 40904 5//// 6//// 80210 ICE /////
BBXX 42039 13061 99288 70860 46/// /0609 10180 40252 54000 90550 22200 00231 333 91211 555 11094 22098
BBXX 9HXC9 13064 99186 70656 41698 30505 10246 20168 40111 56003 7//00 83003 22222 04283 20502 3//// 40702 5//// 6//// 80195 ICE /////
BBXX KNJK 13063 99267 70888 41798 70513 10211 20195 40221 54000 70222 8544/ 22223 00233 20302 306// 40504 5//// 6//// 80200 ICE /////
BBXX KNJK 13063 99267 70888 41798 70513 10211 20195 40221 54000 70222 8544/ 22223 00233 20302 306// 40504 5//// 6//// 80200 ICE /////
BBXX 3FPR9 13064 99228 71479 41597 81221 10220 20205 40160 53020 70222 8697/ 22214 04230 20506 309// 40904 5//// 6//// 80210 ICE /////
BBXX AMOUK04 13064 99533 70062 46/// ///// 10034 2//// 39786 4//// 52032 90550
AAXX 13064 71915 11462 80704 11239 21278 30027 40112 55017 69901 77174 885// 333 11233 21336 48043 79999 90983 555 19999 29999
AAXX 13064 71915 11462 80704 11239 21278 30027 40112 55017 69901 77174 885// 333 11233 21336 48043 79999 90983 555 19999 29999
AAXX 13061 01025 17/84 00000 11073 21098 39859 49871 57025 6//// 700// 333 21079 91105
AAXX 13061 01311 47/84 /1408 1//// 2//// 39689 58067 700// 333 91116
AAXX 13064 71026 16/// /2006 11075 21092 39310 40183 58014 60001 333 7//// 555 10020
AAXX 13064 71529 46/// /2214 11035 21074 39611 49833 56012 6///1 333 11034 21091 7//// 555 32137 40013
AAXX 13064 71539 16/// /1806 11056 21069 39536 40252 56014 60001 333 11054 21094 70000 555 31818 40051
AAXX 13064 40310 32960 30000 10060 21015 38990 48527 52004 80002 333 20020 30102 83070
AAXX 13064 40310 32960 30000 10060 21015 38990 48527 52004 80002 333 20020 30102 83070
AAXX 13064 92036 46/// /0000 10277 40045 22200 00312
AAXX 13064 97460 31458 72405 10292 20237 30034 40048 57013 71792 84376 333 56100 57911 81917 83818 80959 80858
AAXX 13064 97096 32460 20248 10320 20233 30069 40090 57012 81231 333 56000 57803 81818 80857
BBXX MINFR05 1306/ 99496 70002 46/// ///// 10113 49926 57012
AAXX 13064 41244 36/// /2101 10184 20165 39848 48342 333 0E018 20153 58002
BBXX AMOUK14 13064 99533 70062 46/// ///// 10038 21005 39759 49795 54002 90550
BBXX 63106 13064 99610 10017 46/// /1434 10065 49674 57072 22200
BBXX 63113 13064 99610 10017 46/// /1536 10070 20036 49672 57073 22200 10708 70039
BBXX 64049 13063 99571 10022 41/97 82320 10075 20064 49678 57021 70286 8//// 22200 04096 20608 321// 40609 5//// 80070
BBXX 62305 13064 99504 10000 46/95 /2639 10113 20084 49903 53004 22200 00127 10808 70038 333 90710 91159
BBXX 62105 13064 99554 70122 46/// /25// 10068 20046 49594 58020 22200 00108 11328 70141 333 90710 91160
BBXX 62107 13064 99501 70061 46/// /2839 10092 20010 49911 52019 22200 00119 11011 70055 333 90710 91153
BBXX 62303 13064 99516 70051 46/// /2730 10086 20031 49856 52018 22200 00117 10710 70051 333 90710 91142
BBXX 62094 13064 99517 70067 46/// /2632 1//// 2//// 4//// 5//// 22200 00113 10710 70050 333 90710 91145
BBXX 62103 13064 99499 70029 46/98 /2838 10112 20042 49908 52032 22200 00129 10910 70048 333 90710 91154
BBXX 42043 13061 99290 70949 46/// /0805 1//// 40241 90630 22200 00156 333 91206
BBXX 42043 13061 99290 70949 46/// /0804 1//// 40243 54000 90600 22200 00156 333 91206
BBXX 44056 13061 99362 70757 46/// ///// 1//// 90620 22200 00117 10802 20802 70010
AAXX 13064 93713 46/// /0000 10167 40116 22200 00160
BBXX 42085 13061 99179 70665 46/// /0304 10260 40122 90550 333 91205
BBXX 42085 13061 99179 70665 46/// /0303 10260 40124 90540 333 91204
BBXX 42085 13061 99179 70665 46/// /0303 10259 40121 57009 90600 22200 00283 10901 70004 333 91204
BBXX 42085 13061 99179 70665 46/// /0404 10260 40116 90630 333 91205
BBXX 42085 13061 99179 70665 46/// /0404 10260 40118 90620 333 91205
BBXX 42085 13061 99179 70665 46/// /0304 10259 40119 90610 333 91205
BBXX 46109 13061 99481 71234 46/// /1405 10014 40193 90557 22200 00080
BBXX 46110 13061 99481 71230 46/// /1704 10021 40194 90558
BBXX 42045 13061 99262 70965 46/// /1408 10218 40215 90630 22200 00221 333 91210
BBXX 42045 13061 99262 70965 46/// /1407 10217 40216 52003 90600 22200 00220 333 91208
BBXX 42046 13061 99279 70940 46/// /1208 1//// 40236 90630 22200 00225 333 91210
BBXX 42046 13061 99279 70940 46/// /1108 1//// 40237 57003 90600 22200 00225 333 91209
BBXX 44055 13061 99391 70753 46/// ///// 1//// 90630 22200 00090 1//00 70002
AAXX 13064 64390 11570 70607 10210 20203 39247 48511 60314 70366 83830 A 333 20181 58017 81825 83630 87360 1015
AAXX 13064 67461 11570 83102 10194 20182 48509 60054 71522 8457/ 333 10225 20175 58011 84617 87461
AAXX 13064 67475 12980 72904 10185 20175 48516 60084 8707/ 333 10266 20168 58005 87460
AAXX 13064 67477 12280 83003 10193 20181 48512 60014 8667/ 333 10260 20164 58006 86703 88360
AAXX 13064 67531 NIL
AAXX 13064 67541 NIL
AAXX 13064 67561 11375 70000 10201 20183 48506 60054 70522 81630 333 10246 20184 59008 81606 87360
AAXX 13064 67581 32680 63406 10246 20204 48518 82132 333 10320 20192 58005 82830 83360 85080
AAXX 13064 67633 12480 70306 10215 20199 48480 60094 8557/ 333 10260 20195 59014 85610 87460
AAXX 13064 67641 11480 70402 10216 20198 48483 60154 70522 81530 333 10227 20183 59011 81630 86360
AAXX 13064 67663 NIL
AAXX 13064 67665 12480 72901 10216 20194 48510 60014 81132 333 10/// 20178 59004 81810 83360 87280
AAXX 13064 67743 12380 50904 10234 20200 48494 60064 81630 333 10281 20207 59011 81708 85360
AAXX 13064 67753 NIL
AAXX 13064 64390 11570 70607 10210 20203 39247 48511 60314 70366 83830 333 20181 58017 81825 83630 87360 1015
AAXX 13064 41244 36/// /2101 10184 20165 39848 48342 333 0E018 20153 58002
BBXX ONAN 13064 99030 71495 41496 51019 10250 2022/ 4//// 54/// 70322 843// 22273 00250 21005 3//// 40704 5//// 6//// 80230 ICE /////
BBXX WDE6434 13063 99578 71523 41698 42705 10006 2//// 40057 52/// 70211 82508 22232 04050 20000 304// 4//01 5//// 6//// 8//// ICE /////
BBXX WDE2719 13064 99607 71514 41598 40611 11039 2//// 40050 52/// 70211 82508 22200 05017 20101 323// 4//01 5//// 6//// 8//// ICE /////
BBXX WSM5364 13064 99583 71356 41497 61315 10028 2//// 40081 57/// 78587 885// 22200 0//// 20201 3//// 4//00 5//// 6//// 8//// ICE /////
BBXX WSM5364 13064 99583 71356 41497 61315 10028 2//// 40081 57/// 78587 885// 22200 0//// 20201 3//// 4//00 5//// 6//// 8//// ICE /////
BBXX WDE6434 13063 99578 71523 41698 42705 10006 2//// 40057 52/// 70211 82508 22232 04050 20000 304// 4//01 5//// 6//// 8//// ICE /////
BBXX WDE2719 13064 99607 71514 41598 40611 11039 2//// 40050 52/// 70211 82508 22200 05017 20101 323// 4//01 5//// 6//// 8//// ICE /////
BBXX 42046 13061 99279 70940 46/// /1208 1//// 40236 90630 22200 00225 333 91210
BBXX 42045 13061 99262 70965 46/// /1407 10217 40216 52003 90600 22200 00220 333 91208
BBXX 42046 13061 99279 70940 46/// /1108 1//// 40237 57003 90600 22200 00225 333 91209
BBXX 44055 13061 99391 70753 46/// ///// 1//// 90630 22200 00090 1//00 70002
BBXX 42045 13061 99262 70965 46/// /1408 10218 40215 90630 22200 00221 333 91210
BBXX 46110 13061 99481 71230 46/// /1704 10021 40194 90558
BBXX 46109 13061 99481 71234 46/// /1405 10014 40193 90557 22200 00080
BBXX 42085 13061 99179 70665 46/// /0304 10259 40119 90610 333 91205
BBXX 42085 13061 99179 70665 46/// /0404 10260 40116 90630 333 91205
BBXX 42085 13061 99179 70665 46/// /0404 10260 40118 90620 333 91205
BBXX 42085 13061 99179 70665 46/// /0303 10260 40124 90540 333 91204
BBXX 42085 13061 99179 70665 46/// /0304 10260 40122 90550 333 91205
BBXX 42085 13061 99179 70665 46/// /0303 10259 40121 57009 90600 22200 00283 10901 70004 333 91204
BBXX 44056 13061 99362 70757 46/// ///// 1//// 90620 22200 00117 10802 20802 70010
BBXX 42043 13061 99290 70949 46/// /0804 1//// 40243 54000 90600 22200 00156 333 91206
BBXX 42043 13061 99290 70949 46/// /0805 1//// 40241 90630 22200 00156 333 91206
BBXX MINFR05 1306/ 99496 70002 46/// ///// 10113 49926 57012
BBXX ONAN 13064 99030 71495 41496 51019 10250 2022/ 4//// 54/// 70322 843// 22273 00250 21005 3//// 40704 5//// 6//// 80230 ICE /////
BBXX MDGV9 13064 99560 70023 41298 32327 10060 20048 49695 54000 70200 836// 22200 10702 70010 80055
BBXX A8GH5 13063 99366 70088 41/97 /3216 10170 20127 40265 54000 70200 8//// 22264 20402 332// 40806 80144
BBXX PEBT 13063 99374 10111 41498 13122 10138 20110 40215 53015 7//00 81100 22273 02148 20503 331// 40602 5//// 80122
BBXX PCPR 13063 99372 10117 41498 82820 10161 20135 40230 51020 7//22 8571/ 22263 04175 20303 328// 40602 80145
BBXX MRGU3 13063 99359 10174 41598 32315 10190 20118 40192 56012 70222 82260 22264 04184 20404 323// 40602 5//// 80150
BBXX MINFR05 1306/ 99496 70002 46/// ///// 10113 49926 57012
AAXX 13064 04418 NIL
AAXX 13064 04425 NIL
AAXX 13064 04432 NIL
AAXX 13064 04436 NIL
AAXX 13064 04464 46/// /1314 11256 21280 333 553// 20004
AAXX 13064 04485 46/// /0000 11266 21278 37216 52009 333 553// 20000
AAXX 13064 04488 NIL
BBXX MINFR03 1306/ 99259 30475 46/// ///// 10273 40110 52014
AAXX 13061 10554 12986 72011 10034 21010 39669 40059 58043 60002 86028 333 10044 20017 31100 55002 55300 20000 30000 79999 86462 87276 91116 91213
BBXX 42013 13061 99272 70829 46/// ///// 1//// 40228 90620 22200 00199
BBXX 42013 13061 99272 70829 46/// ///// 1//// 40229 50000 90600 22200 00199
BBXX 62303 13064 99516 70051 46/// /2729 10086 20031 49850 52014 22200 00118 10710 70052 333 90710 91143
BBXX 62105 13064 99554 70122 46/// /2541 10068 20046 49594 58020 22200 00108 11328 70141 333 90710 91160
BBXX AMOUK08 13064 99501 70061 46/// ///// 10096 20029 39905 49913 52017 90550
BBXX PJGO 13064 99571 10022 47298 /2416 10058 20044 49691 56037 700// 22200
BBXX 63106 13064 99610 10017 46/// /1434 10065 49674 57072 22200
BBXX 63105 13064 99610 10017 47496 ///// 10063 20035 49680 57067 761// 22200
BBXX 62094 13064 99517 70067 46/// /2632 10080 20027 49852 53011 22200 00113 10710 70052 333 90710 91145
BBXX 62103 13064 99499 70029 46/98 /2935 10117 20062 49896 53009 22200 00130 10910 70048 333 90710 91150
BBXX 62305 13064 99504 10000 46/95 /2639 10113 20084 49903 53004 22200 10808 70038 333 90710 91159
BBXX AMOUK04 13064 99533 70062 46/// ///// 10034 2//// 39786 4//// 52032 90550
BBXX WDA2768 13064 99442 70874 43/// /3316 00/// 10050 20000 40273 52004 7//// 8//// 22283 0//// 2//// 3//// 4//// 5//// 6//// 80030 ICE /////
BBXX PDGS 13064 99106 70863 41/98 80530 10255 40100 58020 70222 86/// 22274 00270 2////
BBXX MINFR03 1306/ 99259 30475 46/// ///// 10273 40110 52014
BBXX 42013 13061 99272 70829 46/// ///// 1//// 40228 90620 22200 00199
BBXX 42013 13061 99272 70829 46/// ///// 1//// 40229 50000 90600 22200 00199
BBXX WDA2768 13064 99442 70874 43/// /3316 00/// 10050 20000 40273 52004 7//// 8//// 22283 0//// 2//// 3//// 4//// 5//// 6//// 80030 ICE /////
BBXX PDGS 13064 99106 70863 41/98 80530 10255 40100 58020 70222 86/// 22274 00270 2////
AAXX 13064 87750 31960 02705 10105 20093 30100 40199 54000 70400
AAXX 13064 71408 46/// /2913 10014 21043 30209 40290 5/010 6///1 333 10026 21037 7////
AAXX 13064 16021 12970 41206 11046 21120 37942 48469 51008 60002 80001 333 21056 43010 55/// 2//// 92802
BBXX MINFR03 1306/ 99259 30475 46/// ///// 10273 40110 52014
AAXX 13061 20353 46/// /2604 11031 21057 30007 40011 52024 333 91112
AAXX 13064 87467 32970 01808 10146 20093 30018 40152 53003
AAXX 13064 16337 12497 82608 10108 20080 39602 40173 55000 60202 889// 333 20092 32/// 55/// 2//// 83916 85620 555 0215/
AAXX 13061 98132 11460 80206 10240 20222 40168 57023 60051 70564 8557/ 333 56199 85616 88357
AAXX 13061 98133 11456 80402 10/// 20/// 40119 5//// 60021 75455 8662/ 222// 20702 333 56199 86718 88459
AAXX 13061 98222 31575 23602 10305 20256 40104 57023 70544 81201 333 56899 81821
AAXX 13061 98233 31570 50000 10308 20245 40103 57028 70544 85200 333 56999 85820
AAXX 13061 98324 31462 73203 10310 20278 40088 58018 70544 82268 333 56999 82816 85358 87280
AAXX 13061 98327 31670 50802 10308 20216 39928 40102 57023 70544 83208 333 56999 83842 85280
AAXX 13061 98334 32470 30000 10302 20267 39905 40108 57031 82201 333 56999 82818
AAXX 13061 98425 31564 72503 10310 20244 40092 57024 70544 83208 333 56999 83820 87280
AAXX 13061 98426 31570 20605 10306 20222 40097 57023 70544 81201 333 56999 81820 83080
AAXX 13061 98427 NIL
AAXX 13061 98428 31464 43604 10325 20267 40095 57027 70544 83931 333 56699 81917
AAXX 13061 98432 11467 70000 10298 20263 40096 57026 60011 82570 333 56999 82618 86356
AAXX 13061 98433 11465 60202 10245 20231 39390 40108 57015 69911 70544 83271 333 56999 83812
AAXX 13061 98434 11468 53603 10277 20267 30097 40105 57022 71688 84231 333 56199 84817
AAXX 13061 98435 NIL
AAXX 13061 98442 NIL
AAXX 13061 98446 32480 40902 10306 20281 30064 40110 58010 83901 333 56299 81915 82818
AAXX 13061 98447 32475 70905 10285 20258 39838 40101 5//// 84202 333 56299 84818 86070
AAXX 13061 98538 31468 43404 10310 20262 30085 40090 58016 70544 83201 333 56299 83811 83072
AAXX 13061 98546 11470 70403 10299 20268 30080 40088 57018 69901 71522 83908 333 56999 83915 86275
AAXX 13061 98548 11470 72202 10280 20263 30078 40084 58013 60221 70396 86908 333 56299 82915 84816 86270 98312
AAXX 13061 98553 31468 60903 10294 20263 30087 40091 57014 70544 84301 333 56299 81916 84818 86074
AAXX 13061 98558 NIL
AAXX 13061 98642 31462 30903 10310 20251 30072 40081 57017 70544 82340 333 56199 81915 81815
AAXX 13061 98644 11465 73402 10290 20264 30072 40081 58025 60011 70584 83361 333 56199 83916 84358
AAXX 13061 98648 11470 70000 10280 20270 30015 40097 57009 69911 76044 84928 333 56229 81912 83817 86270
AAXX 13061 98746 31465 60902 10330 20257 40077 58025 70544 82208 333 56999 82815 85275
AAXX 13061 98751 11465 80000 10240 20226 39423 40100 57007 60051 78084 8491/ 333 56999 84915 88456
AAXX 13061 98752 11460 81602 10266 20235 40098 57011 60091 79598 8497/ 333 56999 84916 88358
AAXX 13061 98851 31470 70403 10317 20226 39921 40069 57029 71544 82978 333 56999 81918 83358 86275
BBXX 42369 13061 99272 70903 46/// /0908 1//// 90540 22200 10504 70018
BBXX 42370 13061 99273 70905 46/// ///// 10217 90540 22200 10503 70016
AAXX 13064 60195 32960 00000 10032 21038 38583 48594 5//// 333 20032 30001 95500
BBXX WSM5364 13064 99583 71356 41497 61315 10028 2//// 40081 57/// 78587 885// 22200 0//// 20201 3//// 4//00 5//// 6//// 8//// ICE /////
BBXX WDE6434 13063 99578 71523 41698 42705 10006 2//// 40057 52/// 70211 82508 22232 04050 20000 304// 4//01 5//// 6//// 8//// ICE /////
BBXX 42376 13061 99291 70879 46/// /0507 10180 40260 90540 22200 10503 70014
BBXX 42392 13061 99272 70900 46/// ///// 1//// 90540 22200 10503 70016
BBXX 42887 13061 99282 70885 46/// /1010 1//// 90540 22200 10403 70015
AAXX 13064 64390 11570 70607 10210 20203 39247 48511 60314 70366 83830 333 20181 58017 81825 83630 87360 1015
BBXX 42376 13061 99291 70879 46/// /0507 10180 40260 90540 22200 10503 70014
BBXX 42392 13061 99272 70900 46/// ///// 1//// 90540 22200 10503 70016
BBXX 42887 13061 99282 70885 46/// /1010 1//// 90540 22200 10403 70015
BBXX 42369 13061 99272 70903 46/// /0908 1//// 90540 22200 10504 70018
BBXX 42370 13061 99273 70905 46/// ///// 10217 90540 22200 10503 70016
AAXX 13064 60190 32972 01004 10038 20020 40280 57008 333 20036 30002
AAXX 13061 98435 11470 70403 10296 20252 40095 5//// 69981 70282 83270 333 56199 83818 86358
AAXX 13061 98558 11466 70603 10260 20252 40081 58014 60091 72584 84970 222// 20502 333 56199 83915 87357
BBXX AMOUK14 13064 99533 70062 46/// ///// 10038 21005 39759 49795 54002 90550
BBXX 63106 13064 99610 10017 46/// /1434 10065 49674 57072 22200
BBXX 63113 13064 99610 10017 46/// /1536 10070 20036 49672 57073 22200 10708 70039
BBXX 64049 13063 99571 10022 41/97 82320 10075 20064 49678 57021 70286 8//// 22200 04096 20608 321// 40609 5//// 80070
BBXX 62305 13064 99504 10000 46/95 /2639 10113 20084 49903 53004 22200 00127 10808 70038 333 90710 91159
BBXX 62105 13064 99554 70122 46/// /25// 10068 20046 49594 58020 22200 00108 11328 70141 333 90710 91160
BBXX 62107 13064 99501 70061 46/// /2839 10092 20010 49911 52019 22200 00119 11011 70055 333 90710 91153
BBXX 62303 13064 99516 70051 46/// /2730 10086 20031 49856 52018 22200 00117 10710 70051 333 90710 91142
BBXX 62094 13064 99517 70067 46/// /2632 1//// 2//// 4//// 5//// 22200 00113 10710 70050 333 90710 91145
BBXX 62103 13064 99499 70029 46/98 /2838 10112 20042 49908 52032 22200 00129 10910 70048 333 90710 91154
BBXX DHEB 13063 99459 11423 41597 62819 11040 21040 40010 54000 70311 861// 22215 04000 2//// 3//// 4//// 5//// 81040
BBXX SHIP 13064 99236 30499 41997 53620 10275 20211 40130 51010 70022 81040 22212 04270 20501 3//// 4//// 5//// 80230
BBXX VRGM8 13064 99085 10717 41/97 11306 10330 20242 40140 51015 70200 80007 22264 00295 20201 314// 40201 80268
BBXX A8PB2 13063 99035 11055 41398 60312 10290 20263 40040 54000 70322 8676/ 22254 04283 20602 305// 40802 80270
BBXX 9MEZ2 13064 99093 11171 41498 82009 10246 20232 40072 54010 70202 8886/ 22254 00292 80258
BBXX MZFC6 13060 99089 11093 41397 83615 10240 20225 40094 57020 70262 887// 22254 04259 20407 334// 40507 80230
BBXX A8CQ5 13063 99091 30738 41698 51109 10310 20/// 40100 54000 70200 8418/ 22214 04300
BBXX VRGM8 13064 99085 10717 41/97 11306 10330 20242 40140 51015 70200 80007 22264 00295 20201 314// 40201 80268
BBXX A8PB2 13063 99035 11055 41398 60312 10290 20263 40040 54000 70322 8676/ 22254 04283 20602 305// 40802 80270
BBXX 9MEZ2 13064 99093 11171 41498 82009 10246 20232 40072 54010 70202 8886/ 22254 00292 80258
BBXX MZFC6 13060 99089 11093 41397 83615 10240 20225 40094 57020 70262 887// 22254 04259 20407 334// 40507 80230
BBXX A8CQ5 13063 99091 30738 41698 51109 10310 20/// 40100 54000 70200 8418/ 22214 04300
BBXX SHIP 13064 99236 30499 41997 53620 10275 20211 40130 51010 70022 81040 22212 04270 20501 3//// 4//// 5//// 80230
BBXX SHIP 13064 99236 30499 41997 53620 10275 20211 40130 51010 70022 81040 22212 04270 20501 3//// 4//// 5//// 80230
AAXX 13064 67205 12580 43304 10280 20254 40123 60084 83903 333 20246 50340 55066 58003 94398 555 00075 10252
AAXX 13064 67215 32580 23510 10284 20236 40129 82933 333 20247 50/// 55103 58009 94390 555 10000
AAXX 13064 67223 12580 53402 10265 20204 39542 48545 60014 85200 333 20/// 50600 55087 58004 94327 555 00012 10000
AAXX 13064 67229 32580 40904 10238 20184 38871 48476 82230 333 20208 50/// 55/// 58005 94320 555 10000
AAXX 13064 67283 11580 60000 10243 20204 40105 60214 72844 83205 333 20191 50/// 55037 58008 94320 555 00205 10000
AAXX 13064 67295 11465 82704 10209 20175 48524 60504 70292 889// 333 20175 50715 55097 58009 94394 555 00495 10000
AAXX 13064 67323 32580 60000 10286 20222 40100 52011 85232 333 20231 50600 55077 94320 555 10000
AAXX 13064 67327 12580 61402 10272 20228 40107 51011 60034 84830 333 20232 50570 55080 94320 555 00028 10000
AAXX 13064 67346 32580 60000 10/// 20/// 40114 57001 83109 333 20/// 50850 55099 94310 555 10214
BBXX CFO383 13064 99439 70602 47598 /2411 10083 2004/ 40319 5//// 700// 8//// 22200 00085 10703 2//// 70016 80060 333 91016
BBXX CFO383 13064 99439 70602 47598 /2411 10083 2004/ 40319 5//// 700// 8//// 22200 00085 10703 2//// 70016 80060 333 91016
BBXX V2OG2 13063 99103 31055 41397 71106 10263 20238 40103 58011 70366 87700 22200 20401 327// 40403 80245
BBXX V2OG2 13063 99103 31055 41397 71106 10263 20238 40103 58011 70366 87700 22200 20401 327// 40403 80245
BBXX A8PB2 13063 99035 11055 41398 60312 10290 20263 40040 54000 70322 8676/ 22254 04283 20602 305// 40802 80270
BBXX A8CQ5 13063 99091 30738 41698 51109 10310 20/// 40100 54000 70200 8418/ 22214 04300
BBXX SHIP 13064 99236 30499 41997 53620 10275 20211 40130 51010 70022 81040 22212 04270 20501 3//// 4//// 5//// 80230
BBXX CFO383 13064 99439 70602 47598 /2411 10083 2004/ 40319 5//// 700// 8//// 22200 00085 10703 2//// 70016 80060 333 91016
BBXX DCTA2 13060 99362 71686 41/98 12908 10175 20106 40150 51017 70111 8//// 22224 04170 2//03 320// 4//06 5//// 80135
BBXX SHIP 13064 99093 11171 41498 82009 10246 20232 40072 54010 70202 8886/ 22254 00292 80258
BBXX MZFC6 13060 99089 11093 41397 83615 10240 20225 40094 57020 70262 887// 22254 04259 20407 334// 40507 80230
BBXX VRGM8 13064 99085 10717 41/97 11306 10330 20242 40140 51015 70200 80007 22264 00295 20201 314// 40201 80268
BBXX DHEB 13063 99459 11423 41597 62819 11040 21040 40010 54000 70311 861// 22215 04000 2//// 3//// 4//// 5//// 81040
BBXX A8CQ5 13063 99091 30738 41698 51109 10310 20/// 40100 54000 70200 8418/ 22214 04300
BBXX V2OG2 13063 99103 31055 41397 71106 10263 20238 40103 58011 70366 87700 22200 20401 327// 40403 80245
AAXX 13061 80402 NIL
AAXX 13061 80412 NIL
AAXX 13061 80416 NIL
AAXX 13061 80420 32960 01801 10253 20221 30094 40100 333 30/// 58000 555 10113
AAXX 13061 80425 32460 20701 10254 20237 30074 40105 82400 333 30/// 56900 59004 82613 555 10106
AAXX 13061 80426 32560 12301 10220 20115 39469 40110 81500 333 31/// 56900 58000 81630 555 10144
AAXX 13061 80427 32960 03402 10234 20224 39852 40102 333 30/// 59002 555 10121
AAXX 13061 80431 NIL
AAXX 13061 80434 NIL
AAXX 13061 80437 11460 30000 10244 20244 30004 40087 60021 70252 83500 333 32/// 56900 58006 83617 555 10094
AAXX 13061 80440 32560 30201 10243 20217 39882 40096 81508 333 30/// 56909 59009 81623 555 10102
AAXX 13061 80442 NIL
AAXX 13061 80472 32960 21801 10224 20214 39619 40094 80008 333 30/// 56009 58004 555 10121
AAXX 13061 80475 32460 60501 10207 20207 39755 40126 865// 333 31/// 569// 58016 86617 555 10137
AAXX 13061 80476 32360 6//// 10275 20266 30074 40104 865// 333 30/// 569// 59007 86610
AAXX 13061 80478 NIL
AAXX 13061 80479 NIL
AAXX 13061 0000106801SMVN01 SVMR 130600
AAXX 13061 80400 NIL
AAXX 13061 80403 32460 10000 10254 20243 30092 40111 81200 333 30/// 56900 58001 81813 555 10114
AAXX 13061 80405 NIL
AAXX 13061 80407 NIL
AAXX 13061 80410 32460 41402 10210 20195 39445 40118 84600 333 30/// 56900 59019 84716 555 10157
AAXX 13061 80413 32960 00201 10214 20193 39622 40105 333 30/// 59002 555 10140
AAXX 13061 80415 32460 21101 10235 20214 30054 40111 82500 333 30/// 56900 58000 83816 555 10110
AAXX 13061 80419 32460 6//// 10255 20236 20220 30//5 40142 8382/ 333 30/// 5699/ 58011 83810 83456 555 10122
AAXX 13061 80421 NIL
AAXX 13061 80423 32460 2//// 10220 20213 30085 40102 82500 333 30/// 56200 58007 82610 555 10101
AAXX 13061 80428 32960 00000 10248 20220 39904 40086 333 30/// 58002 555 10100
AAXX 13061 80432 NIL
AAXX 13061 80435 NIL
AAXX 13061 80438 32560 30902 10181 20161 38514 48511 81501 333 30/// 56909 58008 81623 555 10196
AAXX 13061 80444 32960 0//// 10250 2//// 3 4//// 333 30/// 59003 555 10079
AAXX 13061 80447 32560 60000 10236 20222 39656 40073 865// 333 30/// 569// 59002 86620 555 10128
AAXX 13061 80448 NIL
AAXX 13061 80450 NIL
AAXX 13061 80453 NIL
AAXX 13061 80457 12460 6//// 10261 20230 30015 40100 60021 865// 333 30/// 569// 59001 86613 555 10100
AAXX 13061 80462 NIL
AAXX 13061 0000067601SAVN20 SVMR 130600 METAR SVCR 130600Z 00000KT 9999 FEW013 25/24 Q1011
AAXX 13061 METAR SVMC 130600Z NIL
AAXX 13061 METAR SVBM 130600Z 14003KT 9999 SCT016 21/20 Q1015 NOSIG
AAXX 13061 METAR SVBS 130600Z 02001KT CAVOK 21/19 Q1014
AAXX 13061 METAR SVMI 130600Z 11002KT 9999 FEW016 25/21 Q1011 NOSIG
AAXX 13061 METAR SVFM 130600Z NIL
AAXX 13061 METAR SVBC 130600Z /////KT 9999 SCT010 SCT060 26/22 Q1012
AAXX 13061 METAR SVCU 130600Z 18002KT CAVOK 25/22 Q1011
AAXX 13061 METAR SVMG 130600Z NIL
AAXX 13061 METAR SVAC 130600Z 34004KT CAVOK 23/22 Q1012
AAXX 13061 METAR SVMT 130600Z NIL
AAXX 13061 METAR SVBI 130600Z 02002KT 9999 FEW023 24/22 Q1010
AAXX 13061 METAR SVCB 130600Z /////KT CAVOK 25/// Q1007
AAXX 13061 METAR SVVA 130600Z 18002KT CAVOK 22/21 Q1012
AAXX 13061 METAR SVSO 130600Z 05003KT 9999 BKN017 21/21 Q1013
AAXX 13061 0000064501SAVN21 SVMR 130600 METAR SVLO 130600Z NIL
AAXX 13061 METAR SVGI 130600Z /////KT 9999 FEW010 22/20 Q1010
AAXX 13061 METAR SVMN 130600Z 07002KT 9999 FEW013 25/24 Q1010
AAXX 13061 METAR SVVL 130600Z 23002KT 9999 FEW033 22/20 Q1014
AAXX 13061 METAR SVGU 130600Z 00000KT CAVOK 25/22 Q1010
AAXX 13061 METAR SVJM 130600Z NIL
AAXX 13061 METAR SVCZ 130600Z NIL
AAXX 13061 METAR SVVP 130600Z NIL
AAXX 13061 METAR SVVG 130600Z 00000KT 9999 SCT017 24/24 Q1009
AAXX 13061 METAR SVMD 130600Z 09004KT 9999 FEW027 18/16 Q1019
AAXX 13061 METAR SVCL 130600Z NIL
AAXX 13061 METAR SVSA 130600Z 00000KT 9999 BKN020 24/22 Q1012
AAXX 13061 METAR SVGD 130600Z NIL
AAXX 13061 METAR SVSR 130600Z NIL
AAXX 13061 METAR SVTM 130600Z NIL
AAXX 13061 METAR SVPA 130600Z /////KT 9999 BKN013 26/23 Q1010
AAXX 13061 METAR SVSE 130600Z NIL
AAXX 13061 02513 05/67 /1605 10054 20032 39924 49929 58032 69922 333 10060 20048 60005 70057 90710 91110
AAXX 13064 91375 46/// /0610 10283 40070 22200 00286
AAXX 13064 60105 32950 01006 10090 20083 40272 5//// 333 20084 31008
AAXX 13064 60318 32965 02805 10128 20100 40264 58003 333 20109
AAXX 13064 91165 12466 80514 10233 20211 30142 40178 53018 69951 90553
AAXX 13064 91203 11474 80812 10301 20271 30095 40100 57014 60021 71682 84336
AAXX 13064 91212 12566 60613 10278 20244 31360 40095 55007 69931 90554
AAXX 13064 91245 32966 00713 10270 20230 30140 90557
AAXX 13064 91285 32966 62304 10222 20211 30148 40161 51018 90553
AAXX 13064 91317 11469 80505 10288 20259 30105 40109 5//// 60031 78082 82303
AAXX 13064 91324 11474 81309 10278 20243 30055 40057 60101 70282 8523/
AAXX 13064 91334 11474 80612 10292 20240 30059 40062 57012 60071 70282 82271
AAXX 13064 91348 32474 60908 10288 20222 30025 40078 55007 84101
AAXX 13064 91367 32474 31112 10289 20243 83100
AAXX 13064 91369 32474 60920 10289 20254 30071 40074 84339
AAXX 13064 91371 32474 40916 10278 20263 30084 40087 82313
AAXX 13064 91376 32474 60810 10285 20227 30068 40071 53008 84801
AAXX 13064 91408 32574 70706 10317 20249 30030 40068 57017 83201
AAXX 13064 91413 11469 60807 10299 20258 30058 40083 56017 60071 70281 85801
AAXX 13064 91610 11599 40710 10284 20240 40065 53006 60001 70200 82201
AAXX 13064 91155 NIL
AAXX 13064 91217 NIL
AAXX 13064 91232 NIL
AAXX 13064 91250 NIL
AAXX 13064 91275 NIL
AAXX 13064 91339 NIL
AAXX 13064 91353 NIL
AAXX 13064 91356 NIL
AAXX 13064 91366 NIL
AAXX 13064 91378 NIL
AAXX 13064 91425 NIL
AAXX 13064 91434 NIL
AAXX 13064 91601 NIL
AAXX 13064 62600 32970 03608 10145 20025 39968 40190 10250 20115 59022
AAXX 13064 62640 32970 03610 10190 20080 39775 40139 10325 20165 59003
AAXX 13064 62641 31960 23416 10239 20165 30115 40163 70710 82040 10284 20190 56090 58003 82365
AAXX 13064 62650 32970 03513 10150 21020 39883 40162 10293 20130 59009
AAXX 13064 62660 32970 03608 10180 20030 39258 40163 10300 20150 59003
AAXX 13064 62721 32970 73611 10225 20085 39681 40123 80007 10315 20200 56009 59009 87275
BBXX 42369 13061 99272 70903 46/// /0908 1//// 90600 22200 10504 70018
BBXX 42370 13061 99273 70905 46/// ///// 10217 90600 22200 10503 70016
BBXX 42376 13061 99291 70879 46/// /0508 10182 40259 90600 22200 10503 70013
BBXX 42392 13061 99272 70900 46/// ///// 1//// 90600 22200 10503 70016
BBXX 62303 13064 99516 70051 46/// /2729 10086 20031 49850 52014 22200 00118 10710 70052 333 90710 91143
BBXX 62105 13064 99554 70122 46/// /2541 10068 20046 49594 58020 22200 00108 11328 70141 333 90710 91160
BBXX AMOUK08 13064 99501 70061 46/// ///// 10096 20029 39905 49913 52017 90550
BBXX PJGO 13064 99571 10022 47298 /2416 10058 20044 49691 56037 700// 22200
BBXX 63106 13064 99610 10017 46/// /1434 10065 49674 57072 22200
BBXX 63105 13064 99610 10017 47496 ///// 10063 20035 49680 57067 761// 22200
BBXX 62094 13064 99517 70067 46/// /2632 10080 20027 49852 53011 22200 00113 10710 70052 333 90710 91145
BBXX 62103 13064 99499 70029 46/98 /2935 10117 20062 49896 53009 22200 00130 10910 70048 333 90710 91150
BBXX 62305 13064 99504 10000 46/95 /2639 10113 20084 49903 53004 22200 10808 70038 333 90710 91159
BBXX AMOUK04 13064 99533 70062 46/// ///// 10034 2//// 39786 4//// 52032 90550
AAXX 13064 03227 46/// /2433 11023 2//// 90550 333 21023 90710 91150
AAXX 13064 91245 32966 00713 10270 20230 30140 90557
AAXX 13064 91165 12466 80514 10233 20211 30142 40178 53018 69951 90553
AAXX 13064 91212 12566 60613 10278 20244 31360 40095 55007 69931 90554
AAXX 13064 91285 32966 62304 10222 20211 30148 40161 51018 90553
AAXX 13064 91317 11469 80505 10288 20259 30105 40109 5//// 60031 78082 82303
AAXX 13064 91334 11474 80612 10292 20240 30059 40062 57012 60071 70282 82271
AAXX 13064 91348 32474 60908 10288 20222 30025 40078 55007 84101
AAXX 13064 91369 32474 60920 10289 20254 30071 40074 84339
AAXX 13064 91371 32474 40916 10278 20263 30084 40087 82313
AAXX 13064 91376 32474 60810 10285 20227 30068 40071 53008 84801
AAXX 13064 91408 32574 70706 10317 20249 30030 40068 57017 83201
AAXX 13064 91413 11469 60807 10299 20258 30058 40083 56017 60071 70281 85801
BBXX V2OG2 13063 99103 31055 41397 71106 10263 20238 40103 58011 70366 87700 22200 20401 327// 40403 80245
BBXX 42392 13061 99272 70900 46/// ///// 1//// 90600 22200 10503 70016
BBXX 42369 13061 99272 70903 46/// /0908 1//// 90600 22200 10504 70018
BBXX 42376 13061 99291 70879 46/// /0508 10182 40259 90600 22200 10503 70013
BBXX 42370 13061 99273 70905 46/// ///// 10217 90600 22200 10503 70016
BBXX C6VG8 13064 99319 70782 41/98 30323 10200 2//// 40260 56010 7//00 8//// 22255 00270 20204 305// 40306 5//// 6//// 8//// ICE /////
BBXX 42887 13061 99282 70885 46/// /1009 1//// 90600 22200 10403 70015
BBXX DHEB 13063 99459 11423 41597 62819 11040 21040 40010 54000 70311 861// 22215 04000 2//// 3//// 4//// 5//// 81040
AAXX 13064 71372 16/// /2502 11005 21036 60001 333 10049 21029 70000
AAXX 13064 71392 16/// /3302 11018 21035 60001 333 10015 21042 70000 555 32218 40091
AAXX 13064 48386 31956 01905 10267 20163 30087 40131 57031 70500 333 59020
BBXX DCTA2 13060 99362 71686 41/98 12908 10175 20106 40150 51017 70111 8//// 22224 04170 2//03 320// 4//06 5//// 80135
BBXX 42044 13061 99262 70971 46/// /1303 10199 20180 40212 90630 22200 00191 333 91204
BBXX 42044 13061 99262 70971 46/// /1303 10197 20177 40213 90600 22200 00188 333 91204
BBXX WCN3586 13064 99581 71520 41698 42722 10017 21040 40080 5//// 70211 82508 22212 04050 20202 314// 4//03 5//// 6//// 8//// ICE /////
AAXX 13061 10908 11786 72123 11038 21056 38400 48402 58027 69912 73733 875// 333 11033 21057 3/106 49014 55000 55300 20000 30000 70246 87650 91126 90241 91218 91223
BBXX MINUK03 1306/ 99526 10025 46/// ///// 10113 49811 52042
BBXX 42044 13061 99262 70971 46/// /1303 10197 20177 40213 90600 22200 00188 333 91204
BBXX 42044 13061 99262 70971 46/// /1303 10199 20180 40212 90630 22200 00191 333 91204
BBXX WCN3586 13064 99581 71520 41698 42722 10017 21040 40080 5//// 70211 82508 22212 04050 20202 314// 4//03 5//// 6//// 8//// ICE /////
BBXX 42887 13061 99282 70885 46/// /1009 1//// 90600 22200 10403 70015
BBXX C6VG8 13064 99319 70782 41/98 30323 10200 2//// 40260 56010 7//00 8//// 22255 00270 20204 305// 40306 5//// 6//// 8//// ICE /////
AAXX 13061 01167 41887 62803 11028 21075 39837 49841 70321 82048 333 21034 91104
BBXX AMOUK14 13064 99533 70062 46/// ///// 10038 21005 39759 49795 54002 90550
BBXX 63106 13064 99610 10017 46/// /1434 10065 49674 57072 22200
BBXX 63113 13064 99610 10017 46/// /1536 10070 20036 49672 57073 22200 10708 70039
BBXX 64049 13063 99571 10022 41/97 82320 10075 20064 49678 57021 70286 8//// 22200 04096 20608 321// 40609 5//// 80070
BBXX 62305 13064 99504 10000 46/95 /2639 10113 20084 49903 53004 22200 00127 10808 70038 333 90710 91159
BBXX 62105 13064 99554 70122 46/// /25// 10068 20046 49594 58020 22200 00108 11328 70141 333 90710 91160
BBXX 62107 13064 99501 70061 46/// /2839 10092 20010 49911 52019 22200 00119 11011 70055 333 90710 91153
BBXX 62303 13064 99516 70051 46/// /2730 10086 20031 49856 52018 22200 00117 10710 70051 333 90710 91142
BBXX 62094 13064 99517 70067 46/// /2632 1//// 2//// 4//// 5//// 22200 00113 10710 70050 333 90710 91145
BBXX 62103 13064 99499 70029 46/98 /2838 10112 20042 49908 52032 22200 00129 10910 70048 333 90710 91154
AAXX 13064 68300 36/// /3205 10131 20121 39987 40139 52016 333 20116 91006 555 10169 91013
AAXX 13064 68006 32989 31503 10213 20083 38911 48489 53010 81081 333 20168 555 10347 91014
AAXX 13064 68018 16/// /1902 10229 20185 38887 48494 52013 69924 333 20202 91005 555 10321 20002 91014
AAXX 13064 68116 16/// /2104 10214 20131 38547 48495 52006 60034 333 20161 91007 555 10335 20032 91017
AAXX 13064 68212 36/// /0000 10218 21041 38884 48501 52008 333 20145 91003 555 10381 91015
AAXX 13064 68004 36/// /2203 10177 20017 38528 48483 53010 333 20116 91005 555 10331 91016
AAXX 13064 68010 36/// /2402 10192 20061 38914 48511 53011 333 20125 91004 555 10362 91017
AAXX 13064 68102 36/// /2106 10166 20003 38732 48479 53007 333 20117 91011 555 10335 91014
AAXX 13064 68004 36/// /2103 10179 20019 38528 48483 52010 333 20116 91006 555 10331 91016
AAXX 13064 68010 36/// /0000 10195 20067 38915 48513 52020 333 20125 91003 555 10362 91017
AAXX 13064 68112 32989 00000 10206 20026 38314 48496 53006 333 20097 91003 555 10322 91019
AAXX 13064 68312 32989 12410 10157 20082 38920 48476 53007 80002 333 20131 91013 555 10368 91013
AAXX 13064 68006 36/// /1804 10214 20091 38912 48490 52010 333 20169 91006 555 10348 91014
AAXX 13064 68102 36/// /2007 10165 20002 38736 48483 52016 333 20117 91010 555 10335 91015
AAXX 13064 68014 32589 52406 10203 20064 38575 48491 51002 81582 333 20130 91009 555 10304 91016
BBXX 42369 13061 99272 70903 46/// /0908 1//// 90620 22200 10504 70018
BBXX 42370 13061 99273 70905 46/// ///// 10217 90620 22200 10503 70016
BBXX 42376 13061 99291 70879 46/// /0508 10182 40259 90620 22200 10503 70013
BBXX 42392 13061 99272 70900 46/// ///// 1//// 90620 22200 10503 70016
BBXX 42887 13061 99282 70885 46/// /1109 1//// 90620 22200 10503 70016
BBXX MINUK03 1306/ 99526 10025 46/// ///// 10113 49811 52042
BBXX 52243 13061 99193 11666 46/// ///// 1//// 90600 22200 00268
BBXX 51179 13061 99143 51708 46/// ///// 1//// 90600 22200 00285
BBXX 51178 13061 99142 51695 46/// ///// 1//// 90600 22200 00284
BBXX 52246 13061 99152 11457 46/// ///// 1//// 90600 22200 00283
BBXX 51176 13061 99278 71758 46/// ///// 1//// 90600 22200 00241
BBXX 52245 13061 99181 11458 46/// ///// 1//// 90600 22200 00288
BBXX 51174 13061 99142 51697 46/// ///// 1//// 90600 22200 00284
BBXX 52244 13061 99200 11452 46/// ///// 1//// 90600 22200 00271
BBXX 51173 13061 99260 71739 46/// ///// 1//// 90600 22200 00244
BBXX 51172 13061 99284 71783 46/// ///// 1//// 90600 22200 00238
BBXX 51171 13061 99064 71623 46/// ///// 1//// 90600 22200 00281
BBXX 51170 13061 99168 71695 46/// ///// 1//// 90600 22200 00263
BBXX 51169 13061 99004 51600 46/// ///// 1//// 90600 22200 00258
BBXX 52248 13061 99135 11448 46/// ///// 1//// 90600 22200 00292
BBXX WCN3586 13064 99581 71520 41698 42722 10017 21040 40080 5//// 70211 82508 22212 04050 20202 314// 4//03 5//// 6//// 8//// ICE /////
AAXX 13064 64700 31930 33606 10118 21013 39797 40136 70600 80002 333 01100 20120 51451 55109 59008 83075
AAXX 13064 64701 NIL
AAXX 13064 64702 NIL
AAXX 13064 64705 31950 03406 10127 20006 3//// 4//// 705// 333 0//00 2//// 50604 55/// ///// 5////
AAXX 13064 64706 33960 30000 10130 20092 39647 40129 80002 333 01100 20112 50884 55081 59006 83075
AAXX 13064 64708 NIL
AAXX 13064 64709 31915 30206 10155 20005 3//// 4//// 705// 80002 333 0//00 20135 5//// 55/// 5//// 83075
AAXX 13064 64710 NIL
AAXX 13064 64713 33960 00000 10160 20058 3//// 4//// 333 0//00 20126 5//// 55/// 5////
AAXX 13064 64722 33962 20000 10160 20060 3//// 4//// 80002 333 0//00 20110 50354 55/// 5//// 82075
AAXX 13064 64750 32960 63206 10175 20058 39701 40115 80002 90559 333 01000 20159 50931 55079 59003 86075
AAXX 13064 64751 33960 20404 10127 20005 3//// 4//// 81032 333 0//00 20046 50574 55/// 5//// 81365
AAXX 13064 64753 33960 00410 10136 20026 3//// 4//// 90600 333 0//00 20120 51034 55/// 5////
AAXX 13064 64754 33960 00404 10190 20035 3//// 4//// 333 0//00 20133 50434 55/// 5////
AAXX 13064 64756 33962 51006 10180 21002 39515 4//// 80002 90600 333 0//00 20160 5//// 55/// 59006 85075
AAXX 13064 64757 33960 00000 10165 20042 3//// 4//// 333 0//00 20115 5//// 55/// 5////
AAXX 13064 64758 NIL
AAXX 13064 64761 NIL
AAXX 13064 67976 113680 71502 10232 20218 3//// 48/// 60144 74162 333 20214 5//// 85606 86360
AAXX 13061 01025 17/84 00000 11073 21098 39859 49871 57025 60002 700// 333 21079 43025 70000 91105
AAXX 13063 63630 32975 33025 10235 20168 3//// 48/// 5//// 81360 555 10192
AAXX 13063 63680 32560 83210 10203 20169 38835 8493/ 333 20170 58010 84820 81922 88360 555 10180
AAXX 13063 63726 31901 90000 10148 20143 38140 48495 74544 89/// 333 20125 55/// 59003 89/// 555 10145
AAXX 13063 63658 38980 40205 10236 20160 38879 48511 80005 333 20184 58003 84280 555 10188
AAXX 13063 63630 32975 33025 10235 20168 3//// 48/// 5//// 81360 555 10192
AAXX 13063 63680 32560 83210 10203 20169 38835 8493/ 333 20170 58010 84820 81922 88360 555 10180
AAXX 13063 63726 31901 90000 10148 20143 38140 48495 74544 89/// 333 20125 55/// 59003 89/// 555 10145
AAXX 13063 63658 38980 40205 10236 20160 38879 48511 80005 333 20184 58003 84280 555 10188
AAXX 13064 67563 11378 70203 10205 20190 48/// 60234 70522 8367/ 333 10240 20180 59004 83708 87359
AAXX 13064 67583 32580 61802 10230 20192 48/// 85531 333 10305 20196 5//// 85622 81360 82080
AAXX 13064 67625 12682 73605 10215 20205 48/// 60084 86530 333 10275 20187 59010 86635 82360
AAXX 13064 67666 12980 73607 10210 20188 48502 60994 8707/ 333 10220 20185 59008 87360
AAXX 13064 67563 11378 70203 10205 20190 48/// 60234 70522 8367/ 333 10240 20180 59004 83708 87359
AAXX 13064 67583 32580 61802 10230 20192 48/// 85531 333 10305 20196 5//// 85622 81360 82080
AAXX 13064 67625 12682 73605 10215 20205 48/// 60084 86530 333 10275 20187 59010 86635 82360
AAXX 13064 67666 12980 73607 10210 20188 48502 60994 8707/ 333 10220 20185 59008 87360
BBXX 62303 13064 99516 70051 46/// /2729 10086 20031 49850 52014 22200 00118 10710 70052 333 90710 91143
BBXX 62105 13064 99554 70122 46/// /2541 10068 20046 49594 58020 22200 00108 11328 70141 333 90710 91160
BBXX AMOUK08 13064 99501 70061 46/// ///// 10096 20029 39905 49913 52017 90550
BBXX PJGO 13064 99571 10022 47298 /2416 10058 20044 49691 56037 700// 22200
BBXX 63106 13064 99610 10017 46/// /1434 10065 49674 57072 22200
BBXX 63105 13064 99610 10017 47496 ///// 10063 20035 49680 57067 761// 22200
BBXX 62094 13064 99517 70067 46/// /2632 10080 20027 49852 53011 22200 00113 10710 70052 333 90710 91145
BBXX 62103 13064 99499 70029 46/98 /2935 10117 20062 49896 53009 22200 00130 10910 70048 333 90710 91150
BBXX 62305 13064 99504 10000 46/95 /2639 10113 20084 49903 53004 22200 10808 70038 333 90710 91159
BBXX AMOUK04 13064 99533 70062 46/// ///// 10034 2//// 39786 4//// 52032 90550
BBXX A8PQ6 13064 99261 10558 41497 40720 10220 2014/ 40190 54/// 70211 83232 22200 00257 20403 30707 40403 50403 6//// 80170 ICE /////
BBXX MINFR09 1306/ 99369 31267 46/// ///// 40184 57002
BBXX A8PQ6 13064 99261 10558 41497 40720 10220 2014/ 40190 54/// 70211 83232 22200 00257 20403 30707 40403 50403 6//// 80170 ICE /////
BBXX 51169 13061 99004 51600 46/// ///// 1//// 90600 22200 00258
BBXX 51179 13061 99143 51708 46/// ///// 1//// 90600 22200 00285
BBXX 51174 13061 99142 51697 46/// ///// 1//// 90600 22200 00284
BBXX 51178 13061 99142 51695 46/// ///// 1//// 90600 22200 00284
BBXX 52248 13061 99135 11448 46/// ///// 1//// 90600 22200 00292
BBXX 52245 13061 99181 11458 46/// ///// 1//// 90600 22200 00288
BBXX 52243 13061 99193 11666 46/// ///// 1//// 90600 22200 00268
BBXX 52244 13061 99200 11452 46/// ///// 1//// 90600 22200 00271
BBXX 52246 13061 99152 11457 46/// ///// 1//// 90600 22200 00283
BBXX 51176 13061 99278 71758 46/// ///// 1//// 90600 22200 00241
BBXX 51172 13061 99284 71783 46/// ///// 1//// 90600 22200 00238
BBXX 51173 13061 99260 71739 46/// ///// 1//// 90600 22200 00244
BBXX 42369 13061 99272 70903 46/// /0908 1//// 90620 22200 10504 70018
BBXX 42370 13061 99273 70905 46/// ///// 10217 90620 22200 10503 70016
BBXX 42376 13061 99291 70879 46/// /0508 10182 40259 90620 22200 10503 70013
BBXX 42392 13061 99272 70900 46/// ///// 1//// 90620 22200 10503 70016
BBXX 42887 13061 99282 70885 46/// /1109 1//// 90620 22200 10503 70016
BBXX 51170 13061 99168 71695 46/// ///// 1//// 90600 22200 00263
BBXX 51171 13061 99064 71623 46/// ///// 1//// 90600 22200 00281
BBXX MINFR09 1306/ 99369 31267 46/// ///// 40184 57002
AAXX 13064 94997 46/// ///// 10069 39952 49967 5////
AAXX 13064 94997 46/// ///// 10069 39952 49967 5////
AAXX 13064 41859 31940 03602 10214 20120 30135 40173 70511 333 58001 70000
AAXX 13064 41859 NIL
AAXX 13064 41883 31940 03603 10234 20120 30149 40170 70510 333 58002 70000
AAXX 13064 41891 31445 51202 10215 20130 30123 40162 70510 82530 333 56990 58007 70000 82615 84365
AAXX 13064 41907 31940 23604 10214 20100 30147 40163 70520 82030 333 56090 59004 70000 82362
AAXX 13064 41923 31440 63604 10228 20100 30152 40162 70522 82530 333 56790 58008 70000 82616 85360
AAXX 13064 41936 31918 00000 10234 20110 40167 70500 333 58003 70000
AAXX 13064 41943 31950 00202 10248 20140 30147 40155 70500 333 58007 70000
AAXX 13064 41950 31940 00000 10245 20170 30155 40158 70520 333 58007 70000
AAXX 13064 41978 31935 00000 10258 20090 30147 40154 70500 333 58007 70000
AAXX 13064 41992 31930 03602 10272 20070 30142 40145 70500 333 58006 70000
AAXX 13064 41858 31940 32707 10200 20130 30127 40174 70542 83030 333 56090 58004 70000 83362
AAXX 13064 41863 31440 52702 10180 20140 30134 40180 70542 82530 333 56690 58007 70000 82618 84362
AAXX 13064 41915 31956 01101 10234 20150 30144 40170 70240 333 58003 70000
AAXX 13064 41926 31450 53602 10216 20130 30157 40171 70522 81510 333 56890 58004 70000 81618 85459
AAXX 13064 41933 31950 03602 10246 20150 30150 40159 70500 333 58000 70000
AAXX 13064 41939 31956 00000 10242 20140 40157 70544 333 59005 70000
AAXX 13064 41941 31450 63603 10247 20160 30156 40162 70522 85420 333 56990 58011 70000 84616 86460
AAXX 13064 41964 32956 03602 10258 20170 30167 40169 333 58006 70000
AAXX 13064 41989 32956 33602 10267 20150 30147 40150 83030 333 56090 58005 70000 83362
AAXX 13064 41998 32956 00202 10280 20110 30130 40136 333 59003 70000
AAXX 13064 41858 NIL
AAXX 13064 41863 NIL
AAXX 13064 41886 31956 00901 10230 20140 30146 40167 70510 333 58001 70000
AAXX 13064 41895 31950 00504 10200 20130 30153 40176 333 58001 70000
AAXX 13064 41909 NIL
AAXX 13064 41915 NIL
AAXX 13064 41926 NIL
AAXX 13064 41929 31950 03202 10230 20130 30159 40168 70540 333 58008 70000
AAXX 13064 41933 NIL
AAXX 13064 41939 NIL
AAXX 13064 41941 NIL
AAXX 13064 41946 31956 23601 10230 20150 30150 40154 70510 82050 333 56090 59007 70000 82362
AAXX 13064 41947 31950 00000 10240 20150 30161 40163 70544 333 58004 70000
AAXX 13064 41951 NIL
AAXX 13064 41953 31950 53604 10246 20150 30153 40158 70520 85030 333 56090 58009 70000 85362
AAXX 13064 41958 31940 00303 10238 20150 30154 40156 70500 333 58005 70000
AAXX 13064 41960 31950 03602 10260 20160 30160 40162 70500 333 58003 70000
AAXX 13064 41963 NIL
AAXX 13064 41964 NIL
AAXX 13064 41965 NIL
AAXX 13064 41966 32957 00402 10247 20150 30081 40161 333 58009 70000
AAXX 13064 41984 NIL
AAXX 13064 41989 NIL
AAXX 13064 41998 NIL
BBXX AMOUK14 13064 99533 70062 46/// ///// 10038 21005 39759 49795 54002 90550
BBXX 63106 13064 99610 10017 46/// /1434 10065 49674 57072 22200
BBXX 63113 13064 99610 10017 46/// /1536 10070 20036 49672 57073 22200 10708 70039
BBXX 64049 13063 99571 10022 41/97 82320 10075 20064 49678 57021 70286 8//// 22200 04096 20608 321// 40609 5//// 80070
BBXX 62305 13064 99504 10000 46/95 /2639 10113 20084 49903 53004 22200 00127 10808 70038 333 90710 91159
BBXX 62105 13064 99554 70122 46/// /25// 10068 20046 49594 58020 22200 00108 11328 70141 333 90710 91160
BBXX 62107 13064 99501 70061 46/// /2839 10092 20010 49911 52019 22200 00119 11011 70055 333 90710 91153
BBXX 62303 13064 99516 70051 46/// /2730 10086 20031 49856 52018 22200 00117 10710 70051 333 90710 91142
BBXX 62094 13064 99517 70067 46/// /2632 1//// 2//// 4//// 5//// 22200 00113 10710 70050 333 90710 91145
BBXX 62103 13064 99499 70029 46/98 /2838 10112 20042 49908 52032 22200 00129 10910 70048 333 90710 91154
BBXX ZCDA9 13063 99201 71552 41298 81210 10235 20212 40159 52008 70222 887// 22274 00255 20102 309// 40305 5//// 80220
AAXX 13061 29712 13091 29712 42998 00902 11173 21192 30169 40323 53004
AAXX 13061 30252 41998 80701 11179 21198 39994 40332 52013 77172 8805/
AAXX 13064 62730 32970 00443 10250 20180 39574 40137 10345 20213 59001 62733 32970 03605 10220 20170 39610 40121 10345 20180 58002 87275 62750 32970 73410 10220 20120 39667 40102 80007 10325 20250 56009 59001 87275 62751 32970 70204 10226 20034 39678 40139 80007 10352 20176 56009 58003 87275 62752 32971 70504 10240 20176 39425 40098 80007 10362 20202 56009 59005 87275
AAXX 13064 62760 31965 70403 10130 21090 39322 40164 80007 10230 20102 56009 58003 87275 62770 31965 70702 10125 21025 39239 40165 70622 80007 10275 20103 56009 59003 87275
AAXX 13064 62771 32970 73106 10182 20030 39486 40144 80007 10295 20155 56009 59001 87275 62772 32970 03602 10216 20128 39687 40122 10328 20184 58007
AAXX 13064 62781 32970 73607 10194 20050 39505 40146 80007 10303 20156 56009 58000 87275
AAXX 13064 62790 32970 70410 10190 21060 39411 40146 80007 10294 20126 56009 59013 87275 62805 32970 73202 10240 20120 39558 40084 80007 10365 20206 56009 59012 87275
AAXX 13061 28791 31996 83401 11179 21191 30179 40337 57002 77174 8807/ 333 21247
BBXX 62303 13064 99516 70051 46/// /2729 10086 20031 49850 52014 22200 00118 10710 70052 333 90710 91143
BBXX 62105 13064 99554 70122 46/// /2541 10068 20046 49594 58020 22200 00108 11328 70141 333 90710 91160
BBXX AMOUK08 13064 99501 70061 46/// ///// 10096 20029 39905 49913 52017 90550
BBXX PJGO 13064 99571 10022 47298 /2416 10058 20044 49691 56037 700// 22200
BBXX 63106 13064 99610 10017 46/// /1434 10065 49674 57072 22200
BBXX 63105 13064 99610 10017 47496 ///// 10063 20035 49680 57067 761// 22200
BBXX 62094 13064 99517 70067 46/// /2632 10080 20027 49852 53011 22200 00113 10710 70052 333 90710 91145
BBXX 62103 13064 99499 70029 46/98 /2935 10117 20062 49896 53009 22200 00130 10910 70048 333 90710 91150
BBXX 62305 13064 99504 10000 46/95 /2639 10113 20084 49903 53004 22200 10808 70038 333 90710 91159
BBXX AMOUK04 13064 99533 70062 46/// ///// 10034 2//// 39786 4//// 52032 90550
AAXX 13064 71390 46/// /0605 11065 6///1 333 11046 21103 7////
BBXX V2AH1 13094 99338 30182 41498 53310 10185 20147 40089 51009 70211 84541 22200 29901 3//// 4//// 5//// 80161
BBXX AMOUK14 13064 99533 70062 46/// ///// 10038 21005 39759 49795 54002 90550
BBXX 63106 13064 99610 10017 46/// /1434 10065 49674 57072 22200
BBXX 63113 13064 99610 10017 46/// /1536 10070 20036 49672 57073 22200 10708 70039
BBXX 64049 13063 99571 10022 41/97 82320 10075 20064 49678 57021 70286 8//// 22200 04096 20608 321// 40609 5//// 80070
BBXX 62305 13064 99504 10000 46/95 /2639 10113 20084 49903 53004 22200 00127 10808 70038 333 90710 91159
BBXX 62105 13064 99554 70122 46/// /25// 10068 20046 49594 58020 22200 00108 11328 70141 333 90710 91160
BBXX 62107 13064 99501 70061 46/// /2839 10092 20010 49911 52019 22200 00119 11011 70055 333 90710 91153
BBXX 62303 13064 99516 70051 46/// /2730 10086 20031 49856 52018 22200 00117 10710 70051 333 90710 91142
BBXX 62094 13064 99517 70067 46/// /2632 1//// 2//// 4//// 5//// 22200 00113 10710 70050 333 90710 91145
BBXX 62103 13064 99499 70029 46/98 /2838 10112 20042 49908 52032 22200 00129 10910 70048 333 90710 91154
AAXX 13064 71448 16/// /1404 11095 21105 39963 40306 56007 60001 333 11062 21151 70000
AAXX 13064 61404 31956 61406 10172 21038 39797 40190 7062/ 85082 333 0//00 20172 5//// 55/// 58010 85363
AAXX 13064 61437 31956 60408 10202 20039 30040 40177 705// 86070 333 0//00 20193 5//// 55/// 58012 86462
AAXX 13064 61450 31956 70806 10180 20020 39710 40167 706// 80002 333 0//00 20170 5//// 55/// 58010 87073
AAXX 13064 61461 32958 50804 10215 21050 30068 40154 80002 333 0//00 20210 5//// 55/// 58021 85073
AAXX 13064 61489 31950 50804 10219 20023 30143 40150 70522 85070 333 0//00 20215 50834 55/// 58018 85363
AAXX 13064 61492 31956 30808 10220 21024 30126 40145 70500 83070 333 0//00 20220 5//// 59003 83363
AAXX 13061 44336 32999 01401 11135 21187 38759 40400 54000
AAXX 13063 63631 32975 20304 10240 80001 333 20140 82375 555 10///
BBXX 62303 13064 99516 70051 46/// /2729 10086 20031 49850 52014 22200 00118 10710 70052 333 90710 91143
BBXX 62105 13064 99554 70122 46/// /2541 10068 20046 49594 58020 22200 00108 11328 70141 333 90710 91160
BBXX AMOUK08 13064 99501 70061 46/// ///// 10096 20029 39905 49913 52017 90550
BBXX PJGO 13064 99571 10022 47298 /2416 10058 20044 49691 56037 700// 22200
BBXX 63106 13064 99610 10017 46/// /1434 10065 49674 57072 22200
BBXX 63105 13064 99610 10017 47496 ///// 10063 20035 49680 57067 761// 22200
BBXX 62094 13064 99517 70067 46/// /2632 10080 20027 49852 53011 22200 00113 10710 70052 333 90710 91145
BBXX 62103 13064 99499 70029 46/98 /2935 10117 20062 49896 53009 22200 00130 10910 70048 333 90710 91150
BBXX 62305 13064 99504 10000 46/95 /2639 10113 20084 49903 53004 22200 10808 70038 333 90710 91159
BBXX AMOUK04 13064 99533 70062 46/// ///// 10034 2//// 39786 4//// 52032 90550
AAXX 1306/ 89872 46/// ///// 11039 39773 4//// 5//// 90620
AAXX 1306/ 89869 46/// ///// 11043 39774 4//// 5//// 90620
AAXX 1306/ 89866 46/// ///// 11051 39715 4//// 5//// 90620
AAXX 1306/ 89329 46/// ///// 11136 38710 4//// 5//// 90620
AAXX 1306/ 89799 46/// ///// 11304 4//// 5//// 90620
AAXX 1306/ 89327 46/// ///// 11019 39611 4//// 5//// 90620
AAXX 1306/ 89828 46/// ///// 11208 36416 4//// 5//// 90620
AAXX 1306/ 89828 46/// ///// 11209 36416 4//// 5//// 90630
AAXX 1306/ 89108 46/// ///// 11276 36857 4//// 5//// 90620
AAXX 1306/ 89332 46/// ///// 11078 39219 4//// 5//// 90620
AAXX 1306/ 89769 46/// ///// 11044 39799 4//// 5//// 90620
AAXX 1306/ 89314 46/// ///// 11148 38148 4//// 5//// 90620
AAXX 13064 82143 31596 30206 10270 20243 40086 7010/ 82280 222// 80250 333 59001
BBXX AMOUK14 13064 99533 70062 46/// ///// 10038 21005 39759 49795 54002 90550
BBXX 63106 13064 99610 10017 46/// /1434 10065 49674 57072 22200
BBXX 63113 13064 99610 10017 46/// /1536 10070 20036 49672 57073 22200 10708 70039
BBXX 64049 13063 99571 10022 41/97 82320 10075 20064 49678 57021 70286 8//// 22200 04096 20608 321// 40609 5//// 80070
BBXX 62305 13064 99504 10000 46/95 /2639 10113 20084 49903 53004 22200 00127 10808 70038 333 90710 91159
BBXX 62105 13064 99554 70122 46/// /25// 10068 20046 49594 58020 22200 00108 11328 70141 333 90710 91160
BBXX 62107 13064 99501 70061 46/// /2839 10092 20010 49911 52019 22200 00119 11011 70055 333 90710 91153
BBXX 62303 13064 99516 70051 46/// /2730 10086 20031 49856 52018 22200 00117 10710 70051 333 90710 91142
BBXX 62094 13064 99517 70067 46/// /2632 1//// 2//// 4//// 5//// 22200 00113 10710 70050 333 90710 91145
BBXX 62103 13064 99499 70029 46/98 /2838 10112 20042 49908 52032 22200 00129 10910 70048 333 90710 91154
AAXX 13061 11487 01486 41702 11010 21023 39522 40161 57014 69902 703// 81542 333 21011 34106 60005 70001 81616 84073
BBXX 62303 13064 99516 70051 46/// /2729 10086 20031 49850 52014 22200 00118 10710 70052 333 90710 91143
BBXX 62105 13064 99554 70122 46/// /2541 10068 20046 49594 58020 22200 00108 11328 70141 333 90710 91160
BBXX AMOUK08 13064 99501 70061 46/// ///// 10096 20029 39905 49913 52017 90550
BBXX PJGO 13064 99571 10022 47298 /2416 10058 20044 49691 56037 700// 22200
BBXX 63106 13064 99610 10017 46/// /1434 10065 49674 57072 22200
BBXX 63105 13064 99610 10017 47496 ///// 10063 20035 49680 57067 761// 22200
BBXX 62094 13064 99517 70067 46/// /2632 10080 20027 49852 53011 22200 00113 10710 70052 333 90710 91145
BBXX 62103 13064 99499 70029 46/98 /2935 10117 20062 49896 53009 22200 00130 10910 70048 333 90710 91150
BBXX 62305 13064 99504 10000 46/95 /2639 10113 20084 49903 53004 22200 10808 70038 333 90710 91159
BBXX AMOUK04 13064 99533 70062 46/// ///// 10034 2//// 39786 4//// 52032 90550
BBXX VRID4 13063 99366 30708 41498 43117 10160 2014/ 40020 57050 70111 8226/ 22263 00180 20804 320// 41005 5//// 6//// 80150 ICE /////
BBXX 70211 84541 22200 29901 3//// 4//// 5//// 80161
BBXX 42047 13061 99279 70936 46/// /1208 10209 20180 40240 90630 22200 00228 333 91210
BBXX 42047 13061 99279 70936 46/// /1108 10208 20178 40239 90600 22200 00228 333 91210
BBXX VRID4 13063 99366 30708 41498 43117 10160 2014/ 40020 57050 70111 8226/ 22263 00180 20804 320// 41005 5//// 6//// 80150 ICE /////
BBXX VRID4 13063 99366 30708 41498 43117 10160 2014/ 40020 57050 70111 8226/ 22263 00180 20804 320// 41005 5//// 6//// 80150 ICE /////
BBXX 42047 13061 99279 70936 46/// /1108 10208 20178 40239 90600 22200 00228 333 91210
BBXX 42047 13061 99279 70936 46/// /1208 10209 20180 40240 90630 22200 00228 333 91210
BBXX AMOUK14 13064 99533 70062 46/// ///// 10038 21005 39759 49795 54002 90550
BBXX 63106 13064 99610 10017 46/// /1434 10065 49674 57072 22200
BBXX 63113 13064 99610 10017 46/// /1536 10070 20036 49672 57073 22200 10708 70039
BBXX 64049 13063 99571 10022 41/97 82320 10075 20064 49678 57021 70286 8//// 22200 04096 20608 321// 40609 5//// 80070
BBXX 62305 13064 99504 10000 46/95 /2639 10113 20084 49903 53004 22200 00127 10808 70038 333 90710 91159
BBXX 62105 13064 99554 70122 46/// /25// 10068 20046 49594 58020 22200 00108 11328 70141 333 90710 91160
BBXX 62107 13064 99501 70061 46/// /2839 10092 20010 49911 52019 22200 00119 11011 70055 333 90710 91153
BBXX 62303 13064 99516 70051 46/// /2730 10086 20031 49856 52018 22200 00117 10710 70051 333 90710 91142
BBXX 62094 13064 99517 70067 46/// /2632 1//// 2//// 4//// 5//// 22200 00113 10710 70050 333 90710 91145
BBXX 62103 13064 99499 70029 46/98 /2838 10112 20042 49908 52032 22200 00129 10910 70048 333 90710 91154
BBXX 52249 13061 99052 31503 46/// ///// 1//// 90600 22200 00302
AAXX 13064 71854 43/// ///// 333 11083 21195 79999
AAXX 13064 71854 43/// ///// 333 11083 21195 79999
BBXX 62303 13064 99516 70051 46/// /2729 10086 20031 49850 52014 22200 00118 10710 70052 333 90710 91143
BBXX 62105 13064 99554 70122 46/// /2541 10068 20046 49594 58020 22200 00108 11328 70141 333 90710 91160
BBXX AMOUK08 13064 99501 70061 46/// ///// 10096 20029 39905 49913 52017 90550
BBXX PJGO 13064 99571 10022 47298 /2416 10058 20044 49691 56037 700// 22200
BBXX 63106 13064 99610 10017 46/// /1434 10065 49674 57072 22200
BBXX 63105 13064 99610 10017 47496 ///// 10063 20035 49680 57067 761// 22200
BBXX 62094 13064 99517 70067 46/// /2632 10080 20027 49852 53011 22200 00113 10710 70052 333 90710 91145
BBXX 62103 13064 99499 70029 46/98 /2935 10117 20062 49896 53009 22200 00130 10910 70048 333 90710 91150
BBXX 62305 13064 99504 10000 46/95 /2639 10113 20084 49903 53004 22200 10808 70038 333 90710 91159
BBXX AMOUK04 13064 99533 70062 46/// ///// 10034 2//// 39786 4//// 52032 90550
BBXX 52249 13061 99052 31503 46/// ///// 1//// 90600 22200 00302
BBXX AMOUK14 13064 99533 70062 46/// ///// 10038 21005 39759 49795 54002 90550
BBXX 63106 13064 99610 10017 46/// /1434 10065 49674 57072 22200
BBXX 63113 13064 99610 10017 46/// /1536 10070 20036 49672 57073 22200 10708 70039
BBXX 64049 13063 99571 10022 41/97 82320 10075 20064 49678 57021 70286 8//// 22200 04096 20608 321// 40609 5//// 80070
BBXX 62305 13064 99504 10000 46/95 /2639 10113 20084 49903 53004 22200 00127 10808 70038 333 90710 91159
BBXX 62105 13064 99554 70122 46/// /25// 10068 20046 49594 58020 22200 00108 11328 70141 333 90710 91160
BBXX 62107 13064 99501 70061 46/// /2839 10092 20010 49911 52019 22200 00119 11011 70055 333 90710 91153
BBXX 62303 13064 99516 70051 46/// /2730 10086 20031 49856 52018 22200 00117 10710 70051 333 90710 91142
BBXX 62094 13064 99517 70067 46/// /2632 1//// 2//// 4//// 5//// 22200 00113 10710 70050 333 90710 91145
BBXX 62103 13064 99499 70029 46/98 /2838 10112 20042 49908 52032 22200 00129 10910 70048 333 90710 91154
AAXX 13061 78090 15/// /0000 10222 30205 40209 69901 90600 222// 00072
BBXX A8PF6 13064 99460 70520 41697 82824 10040 21008 40290 54000 7//22 887// 22262 0//// 20604 331// 41008 5//// 6//// 80020 ICE /////
BBXX A8PF6 13064 99460 70520 41697 82824 10040 21008 40290 54000 7//22 887// 22262 0//// 20604 331// 41008 5//// 6//// 80020 ICE /////
AAXX 13064 42492 31994 02703 10160 20124 40197 71140 333 58005
AAXX 13064 42587 31995 00000 10206 20112 40183 70500 333 58009
AAXX 13064 42591 31494 53204 10186 20129 40201 71022 82530 333 58014 82618 83360
AAXX 13064 42701 31994 33202 10200 20121 39431 40165 71000 80001 333 59002 83075
AAXX 13064 42798 31994 30000 10230 20117 40163 70400 83030 333 58002 83360
AAXX 13064 42809 31495 60702 10236 20133 40166 70522 83531 333 58005 83618 83360
AAXX 13064 71642 13/// ///// 11020 69901 333 10007 21035 70004 555 19999 29999
BBXX 62303 13064 99516 70051 46/// /2729 10086 20031 49850 52014 22200 00118 10710 70052 333 90710 91143
BBXX 62105 13064 99554 70122 46/// /2541 10068 20046 49594 58020 22200 00108 11328 70141 333 90710 91160
BBXX AMOUK08 13064 99501 70061 46/// ///// 10096 20029 39905 49913 52017 90550
BBXX PJGO 13064 99571 10022 47298 /2416 10058 20044 49691 56037 700// 22200
BBXX 63106 13064 99610 10017 46/// /1434 10065 49674 57072 22200
BBXX 63105 13064 99610 10017 47496 ///// 10063 20035 49680 57067 761// 22200
BBXX 62094 13064 99517 70067 46/// /2632 10080 20027 49852 53011 22200 00113 10710 70052 333 90710 91145
BBXX 62103 13064 99499 70029 46/98 /2935 10117 20062 49896 53009 22200 00130 10910 70048 333 90710 91150
BBXX 62305 13064 99504 10000 46/95 /2639 10113 20084 49903 53004 22200 10808 70038 333 90710 91159
BBXX AMOUK04 13064 99533 70062 46/// ///// 10034 2//// 39786 4//// 52032 90550
BBXX AMOUK14 13064 99533 70062 46/// ///// 10038 21005 39759 49795 54002 90550
BBXX 63106 13064 99610 10017 46/// /1434 10065 49674 57072 22200
BBXX 63113 13064 99610 10017 46/// /1536 10070 20036 49672 57073 22200 10708 70039
BBXX 64049 13063 99571 10022 41/97 82320 10075 20064 49678 57021 70286 8//// 22200 04096 20608 321// 40609 5//// 80070
BBXX 62305 13064 99504 10000 46/95 /2639 10113 20084 49903 53004 22200 00127 10808 70038 333 90710 91159
BBXX 62105 13064 99554 70122 46/// /25// 10068 20046 49594 58020 22200 00108 11328 70141 333 90710 91160
BBXX 62107 13064 99501 70061 46/// /2839 10092 20010 49911 52019 22200 00119 11011 70055 333 90710 91153
BBXX 62303 13064 99516 70051 46/// /2730 10086 20031 49856 52018 22200 00117 10710 70051 333 90710 91142
BBXX 62094 13064 99517 70067 46/// /2632 1//// 2//// 4//// 5//// 22200 00113 10710 70050 333 90710 91145
BBXX 62103 13064 99499 70029 46/98 /2838 10112 20042 49908 52032 22200 00129 10910 70048 333 90710 91154
AAXX 13064 71322 16/// /2123 11112 21123 30001 40014 56047 60001 333 11112 21300 70037 555 32127 40051
AAXX 13064 60106 32965 00000 10043 20030 40294 56004 333 20038
BBXX 62303 13064 99516 70051 46/// /2729 10086 20031 49850 52014 22200 00118 10710 70052 333 90710 91143
BBXX 62105 13064 99554 70122 46/// /2541 10068 20046 49594 58020 22200 00108 11328 70141 333 90710 91160
BBXX AMOUK08 13064 99501 70061 46/// ///// 10096 20029 39905 49913 52017 90550
BBXX PJGO 13064 99571 10022 47298 /2416 10058 20044 49691 56037 700// 22200
BBXX 63106 13064 99610 10017 46/// /1434 10065 49674 57072 22200
BBXX 63105 13064 99610 10017 47496 ///// 10063 20035 49680 57067 761// 22200
BBXX 62094 13064 99517 70067 46/// /2632 10080 20027 49852 53011 22200 00113 10710 70052 333 90710 91145
BBXX 62103 13064 99499 70029 46/98 /2935 10117 20062 49896 53009 22200 00130 10910 70048 333 90710 91150
BBXX 62305 13064 99504 10000 46/95 /2639 10113 20084 49903 53004 22200 10808 70038 333 90710 91159
BBXX AMOUK04 13064 99533 70062 46/// ///// 10034 2//// 39786 4//// 52032 90550
AAXX 13064 91723 NIL
AAXX 13064 91964 36/// /3404 10208 20201 40202 52011
BBXX AMOUK14 13064 99533 70062 46/// ///// 10038 21005 39759 49795 54002 90550
BBXX 63106 13064 99610 10017 46/// /1434 10065 49674 57072 22200
BBXX 63113 13064 99610 10017 46/// /1536 10070 20036 49672 57073 22200 10708 70039
BBXX 64049 13063 99571 10022 41/97 82320 10075 20064 49678 57021 70286 8//// 22200 04096 20608 321// 40609 5//// 80070
BBXX 62305 13064 99504 10000 46/95 /2639 10113 20084 49903 53004 22200 00127 10808 70038 333 90710 91159
BBXX 62105 13064 99554 70122 46/// /25// 10068 20046 49594 58020 22200 00108 11328 70141 333 90710 91160
BBXX 62107 13064 99501 70061 46/// /2839 10092 20010 49911 52019 22200 00119 11011 70055 333 90710 91153
BBXX 62303 13064 99516 70051 46/// /2730 10086 20031 49856 52018 22200 00117 10710 70051 333 90710 91142
BBXX 62094 13064 99517 70067 46/// /2632 1//// 2//// 4//// 5//// 22200 00113 10710 70050 333 90710 91145
BBXX 62103 13064 99499 70029 46/98 /2838 10112 20042 49908 52032 22200 00129 10910 70048 333 90710 91154
AAXX 13064 71268 43/// ///// 333 10035 20000 70030 555 10000 20000
BBXX 62303 13064 99516 70051 46/// /2729 10086 20031 49850 52014 22200 00118 10710 70052 333 90710 91143
BBXX 62105 13064 99554 70122 46/// /2541 10068 20046 49594 58020 22200 00108 11328 70141 333 90710 91160
BBXX AMOUK08 13064 99501 70061 46/// ///// 10096 20029 39905 49913 52017 90550
BBXX PJGO 13064 99571 10022 47298 /2416 10058 20044 49691 56037 700// 22200
BBXX 63106 13064 99610 10017 46/// /1434 10065 49674 57072 22200
BBXX 63105 13064 99610 10017 47496 ///// 10063 20035 49680 57067 761// 22200
BBXX 62094 13064 99517 70067 46/// /2632 10080 20027 49852 53011 22200 00113 10710 70052 333 90710 91145
BBXX 62103 13064 99499 70029 46/98 /2935 10117 20062 49896 53009 22200 00130 10910 70048 333 90710 91150
BBXX 62305 13064 99504 10000 46/95 /2639 10113 20084 49903 53004 22200 10808 70038 333 90710 91159
BBXX AMOUK04 13064 99533 70062 46/// ///// 10034 2//// 39786 4//// 52032 90550
AAXX 13064 71845 43/// ///// 333 11092 21170 44009 79999 90999 555 19999 29999
AAXX 13064 71845 43/// ///// 333 11092 21170 44009 79999 90999 555 19999 29999
AAXX 13064 83780 31958 40505 10176 20101 39227 48520 50006 70500 8403 0
BBXX AMOUK14 13064 99533 70062 46/// ///// 10038 21005 39759 49795 54002 90550
BBXX 63106 13064 99610 10017 46/// /1434 10065 49674 57072 22200
BBXX 63113 13064 99610 10017 46/// /1536 10070 20036 49672 57073 22200 10708 70039
BBXX 64049 13063 99571 10022 41/97 82320 10075 20064 49678 57021 70286 8//// 22200 04096 20608 321// 40609 5//// 80070
BBXX 62305 13064 99504 10000 46/95 /2639 10113 20084 49903 53004 22200 00127 10808 70038 333 90710 91159
BBXX 62105 13064 99554 70122 46/// /25// 10068 20046 49594 58020 22200 00108 11328 70141 333 90710 91160
BBXX 62107 13064 99501 70061 46/// /2839 10092 20010 49911 52019 22200 00119 11011 70055 333 90710 91153
BBXX 62303 13064 99516 70051 46/// /2730 10086 20031 49856 52018 22200 00117 10710 70051 333 90710 91142
BBXX 62094 13064 99517 70067 46/// /2632 1//// 2//// 4//// 5//// 22200 00113 10710 70050 333 90710 91145
BBXX 62103 13064 99499 70029 46/98 /2838 10112 20042 49908 52032 22200 00129 10910 70048 333 90710 91154
BBXX 62303 13064 99516 70051 46/// /2729 10086 20031 49850 52014 22200 00118 10710 70052 333 90710 91143
BBXX 62105 13064 99554 70122 46/// /2541 10068 20046 49594 58020 22200 00108 11328 70141 333 90710 91160
BBXX AMOUK08 13064 99501 70061 46/// ///// 10096 20029 39905 49913 52017 90550
BBXX PJGO 13064 99571 10022 47298 /2416 10058 20044 49691 56037 700// 22200
BBXX 63106 13064 99610 10017 46/// /1434 10065 49674 57072 22200
BBXX 63105 13064 99610 10017 47496 ///// 10063 20035 49680 57067 761// 22200
BBXX 62094 13064 99517 70067 46/// /2632 10080 20027 49852 53011 22200 00113 10710 70052 333 90710 91145
BBXX 62103 13064 99499 70029 46/98 /2935 10117 20062 49896 53009 22200 00130 10910 70048 333 90710 91150
BBXX 62305 13064 99504 10000 46/95 /2639 10113 20084 49903 53004 22200 10808 70038 333 90710 91159
BBXX AMOUK04 13064 99533 70062 46/// ///// 10034 2//// 39786 4//// 52032 90550
AAXX 13061 10908 11786 72123 11038 21056 38400 48402 58027 69912 73722 875// 333 11033 21057 3/106 49014 55000 55300 20000 30000 70246 87650 91126 90241 91218 91223
BBXX A8UA9 13064 99363 10153 41/98 33314 10165 20123 40200 54000 70200 83/4/ 22263 20502 315// 40504 80140
BBXX DEFY 13063 99142 70610 41498 61006 10275 40111 52008 70262 22251 02274
BBXX A8UA9 13064 99363 10153 41/98 33314 10165 20123 40200 54000 70200 83/4/ 22263 20502 315// 40504 80140
BBXX DEFY 13063 99142 70610 41498 61006 10275 40111 52008 70262 22251 02274
BBXX A8UA9 13064 99363 10153 41/98 33314 10165 20123 40200 54000 70200 83/4/ 22263 20502 315// 40504 80140
AAXX 13064 71245 46/// /0000 11056 21223 6///1 333 11050 21162 7////
AAXX 13061 38932 42999 21401 10037 21019 40354 51003 80002
AAXX 13061 08512 11475 62609 10168 20159 30170 40255 57004 69932 70282 84830 333 20161 30015 5//// 55034 20648 83816 83357
AAXX 13061 08512 11475 62609 10168 20159 30170 40255 57004 69932 70282 84830 333 20161 30015 5//// 55034 20648 83816 83357 555 60007
AAXX 13064 71196 16/// /1602 10004 20003 30078 40280 58005 60001 333 10039 21076 7////
AAXX 13064 71610 15966 00802 11084 21090 39991 58006 60001
AAXX 13064 71610 15966 00802 11084 21090 39991 58006 60001
BBXX OXOR2 13064 99342 11279 41698 30112 10123 21041 40240 56011 702// 81194 22284 00179 20302 301// 40502 80055
AAXX 13061 10147 01280 71710 10055 20018 39937 49955 58065 69902 76111 878// 333 10056 20038 31001 55000 55300 20000 30000 41182 69907 70027 82705 83812 87638 91116 91211
AAXX 13064 85874 32980 /9901 10037 20021 39577 40216 50001
AAXX 13064 85469 42565 59902 10196 20161 40195 52005 82130 333 56000 82820 83363
AAXX 13064 85934 12580 73207 10117 20062 40115 52001 60001 83530 333 56660 83620 85359
AAXX 13064 89056 11330 82933 10020 20004 49814 52012 69901 71062 886// 333 03042 56699 88706 93100
AAXX 13064 89057 11330 82521 10028 20005 49809 52031 60031 76822 8672/ 333 56669 86708 88525 91133
AAXX 13064 89058 11465 82932 10021 20003 39794 49815 52012 69921 70060 8272/
AAXX 13064 89059 11425 82721 10001 21012 49776 52009 60021 72272 884// 333 76799 88616 93101
AAXX 13064 89251 11256 89922 10020 20004 49812 52020 71062 8672/
AAXX 13064 85574 12960 09902 10167 20048 39572 40119 58006 60001
AAXX 13064 85406 12570 82303 10196 20145 40139 58022 60001 85// 333 56099 88633
AAXX 13064 85418 12560 71904 10198 20119 40142 50021 60001 87500 333 56000 87622
AAXX 13064 85442 12970 09902 10169 20133 40140 57018 60001
AAXX 13064 85488 12460 62804 10150 20134 40139 52007 60001 86500 333 56099 86612
AAXX 13064 85577 12965 00000 10150 20061 39521 40129 58007 60001
AAXX 13064 85585 339// 92020 10162 20101 30154 40190 58010
AAXX 13064 85682 12960 02103 10119 20110 40131 58007 60001
AAXX 13064 85743 12960 00000 10095 20089 40148 58012 60001
AAXX 13064 85799 11960 01610 10114 20106 40179 57022 60001 70400
AAXX 13064 89266 46/// /1707 11048 21055 39607 49744 5//// 90640
AAXX 13064 89257 46/// /0910 11087 21097 39708 49778 5//// 90640
AAXX 13064 89065 46/// /0210 11010 21037 39577 49653 52011 90600
AAXX 13064 89272 46/// /0413 11116 21148 3//// 4//// 5//// 90610
AAXX 13064 89266 46/// /1707 11048 21055 39607 49744 52001 90640
OOXX AAMIZ 13064 99707 30443 58304 22602 46/// /1014 11115 2//// 37311 49468 5//// 90630
OOXX AABRI 13064 99839 51342 60134 05251 46/// /3404 11106 21193 39203 49832 52001 90630
OOXX AAPIG 13064 99758 51003 56251 08502 46/// /1020 11160 21289 38772 49762 57004 90550
OOXX AAUNI 13064 99798 50833 56093 07671 46/// /2314 11114 21182 38906 49797 57002 90600
AAXX 13061 10895 11950 11903 11003 21003 39589 40174 56017 60022 72841 80001 333 10033 21005 31102 55000 55300 20000 30000 70043 81080 95149 96010 96248 96449
AAXX 13061 10948 12989 31601 11043 21043 39196 48423 56026 69922 81042 333 10026 21056 34108 4/998 55000 55300 20000 30000 70146 81366 83076
AAXX 13064 71571 16/// /2514 11035 21090 38886 40086 50007 60001 333 11022 21111 70000 555 32434 40013
AAXX 13064 71927 16/// /0000 11035 21046 30144 40203 56008 60001 333 10063 21064 70000
AAXX 13064 71314 16/// /2903 11009 21026 39928 40286 50001 60001 333 10049 21075 70000
